ZipCode,county,state,Adult,Retirement
35150,Talladega County,AL,38.48133848133848,NA
35160,Talladega County,AL,46.2033462033462,NA
35186,Shelby County,AL,98.71299871299871,NA
35242,Shelby County,AL,78.8931788931789,NA
35405,Tuscaloosa County,AL,NA,13.64522417153996
35475,Tuscaloosa County,AL,NA,51.267056530214425
35541,Winston County,AL,99.35649935649936,NA
35756,Limestone County,AL,76.96267696267697,NA
35769,Jackson County,AL,94.98069498069498,NA
35803,Madison County,AL,NA,70.17543859649122
35960,Cherokee County,AL,NA,80.50682261208577
36064,Montgomery County,AL,92.66409266409266,NA
36303,Houston County,AL,20.592020592020592,NA
36305,Houston County,AL,NA,65.10721247563353
36526,Baldwin County,AL,78.37837837837837,NA
36567,Baldwin County,AL,NA,79.33723196881091
36580,Baldwin County,AL,94.72329472329473,NA
36605,Mobile County,AL,37.45173745173745,NA
36693,Mobile County,AL,NA,61.59844054580896
36732,Marengo County,AL,73.1016731016731,NA
99501,Anchorage Municipality,AK,19.81981981981982,NA
99577,Anchorage Municipality,AK,70.91377091377092,NA
85018,Maricopa County,AZ,NA,41.32553606237816
85020,Maricopa County,AZ,35.26383526383526,NA
85027,Maricopa County,AZ,39.768339768339764,NA
85044,Maricopa County,AZ,17.117117117117118,NA
85225,Maricopa County,AZ,10.424710424710424,NA
85248,Maricopa County,AZ,81.85328185328186,NA
85282,Maricopa County,AZ,39.63963963963964,NA
85383,Maricopa County,AZ,74.64607464607465,NA
85603,Cochise County,AZ,NA,77.58284600389864
85716,Pima County,AZ,NA,29.239766081871345
85901,Navajo County,AZ,51.48005148005148,NA
86305,Yavapai County,AZ,63.96396396396396,NA
86315,Yavapai County,AZ,93.56499356499357,NA
86326,Yavapai County,AZ,21.492921492921493,NA
86442,Mohave County,AZ,NA,12.085769980506821
71852,Howard County,AR,NA,84.7953216374269
71913,Garland County,AR,NA,28.460038986354775
71953,Polk County,AR,93.05019305019306,NA
72015,Saline County,AR,54.31145431145431,NA
72401,Craighead County,AR,12.483912483912484,NA
72454,Clay County,AR,98.97039897039896,NA
72653,Baxter County,AR,42.21364221364222,NA
72758,Benton County,AR,NA,57.50487329434698
72837,Pope County,AR,85.97168597168597,NA
90005,Los Angeles County,CA,NA,75.6335282651072
90022,Los Angeles County,CA,33.46203346203346,NA
90036,Los Angeles County,CA,65.63706563706563,NA
90042,Los Angeles County,CA,53.28185328185329,NA
90046,Los Angeles County,CA,NA,24.171539961013643
90605,Los Angeles County,CA,NA,72.70955165692008
90620,Orange County,CA,48.51994851994852,NA
90715,Los Angeles County,CA,84.68468468468468,NA
90731,Los Angeles County,CA,28.57142857142857,NA
90803,Los Angeles County,CA,NA,49.317738791423
91307,Los Angeles County,CA,88.03088803088804,NA
91316,Los Angeles County,CA,NA,55.945419103313846
91326,Los Angeles County,CA,86.61518661518662,56.14035087719298
91362,Ventura County,CA,NA,75.04873294346979
91406,Los Angeles County,CA,78.5070785070785,NA
91765,Los Angeles County,CA,65.12226512226512,NA
91792,Los Angeles County,CA,66.40926640926641,NA
91910,San Diego County,CA,22.651222651222653,NA
92027,San Diego County,CA,46.33204633204633,NA
92101,San Diego County,CA,NA,10.33138401559454
92106,San Diego County,CA,NA,64.13255360623782
92118,San Diego County,CA,NA,66.47173489278752
92124,San Diego County,CA,87.77348777348777,NA
92126,San Diego County,CA,NA,35.86744639376218
92127,San Diego County,CA,NA,69.39571150097466
92130,San Diego County,CA,63.7065637065637,NA
92203,Riverside County,CA,41.44144144144144,NA
92211,Riverside County,CA,67.18146718146718,9.35672514619883
92220,Riverside County,CA,58.55855855855856,63.547758284600384
92223,Riverside County,CA,62.419562419562425,NA
92234,Riverside County,CA,NA,3.1189083820662766
92270,Riverside County,CA,82.1106821106821,8.57699805068226
92324,San Bernardino County,CA,17.88931788931789,NA
92377,San Bernardino County,CA,NA,92.98245614035088
92395,San Bernardino County,CA,NA,45.22417153996101
92404,San Bernardino County,CA,NA,33.91812865497076
92405,San Bernardino County,CA,44.272844272844274,NA
92407,San Bernardino County,CA,14.800514800514799,NA
92504,Riverside County,CA,NA,56.33528265107213
92562,Riverside County,CA,NA,36.64717348927875
92563,Riverside County,CA,30.501930501930502,NA
92602,Orange County,CA,91.11969111969111,NA
92604,Orange County,CA,NA,63.547758284600384
92606,Orange County,CA,79.79407979407979,84.7953216374269
92624,Orange County,CA,NA,95.71150097465888
92626,Orange County,CA,NA,46.393762183235864
92627,Orange County,CA,18.404118404118407,NA
92630,Orange County,CA,NA,17.93372319688109
92637,Orange County,CA,NA,34.89278752436647
92649,Orange County,CA,NA,31.57894736842105
92660,Orange County,CA,NA,41.91033138401559
92688,Orange County,CA,NA,72.31968810916179
92691,Orange County,CA,NA,22.417153996101362
92692,Orange County,CA,37.70913770913771,26.120857699805068
92804,Orange County,CA,11.711711711711711,19.68810916179337
92869,Orange County,CA,59.588159588159584,NA
92870,Orange County,CA,NA,24.951267056530213
92881,Riverside County,CA,NA,74.85380116959064
92882,Riverside County,CA,NA,71.15009746588694
93010,Ventura County,CA,31.53153153153153,NA
93015,Ventura County,CA,68.46846846846847,NA
93033,Ventura County,CA,NA,10.916179337231968
93063,Ventura County,CA,32.3037323037323,79.92202729044834
93065,Ventura County,CA,NA,20.46783625730994
93257,Tulare County,CA,11.196911196911197,NA
93308,Kern County,CA,NA,33.33333333333333
93311,Kern County,CA,61.518661518661524,NA
93442,San Luis Obispo County,CA,NA,82.06627680311891
93455,Santa Barbara County,CA,NA,32.94346978557505
93906,Monterey County,CA,69.4980694980695,NA
94014,San Mateo County,CA,NA,30.01949317738791
94022,Santa Clara County,CA,96.13899613899613,NA
94040,Santa Clara County,CA,75.16087516087516,NA
94086,Santa Clara County,CA,59.716859716859716,NA
94115,San Francisco County,CA,NA,39.57115009746588
94563,Contra Costa County,CA,NA,81.48148148148148
94605,Alameda County,CA,21.75032175032175,NA
95070,Santa Clara County,CA,79.66537966537966,NA
95076,Santa Cruz County,CA,16.473616473616474,NA
95118,Santa Clara County,CA,62.29086229086229,NA
95120,Santa Clara County,CA,86.74388674388675,NA
95122,Santa Clara County,CA,45.173745173745175,NA
95407,Sonoma County,CA,59.84555984555985,NA
95648,Placer County,CA,NA,26.510721247563353
95678,Placer County,CA,NA,68.42105263157895
95746,Placer County,CA,92.92149292149293,NA
95828,Sacramento County,CA,NA,34.69785575048733
95991,Sutter County,CA,NA,72.12475633528264
80033,Jefferson County,CO,NA,61.79337231968811
80116,Douglas County,CO,96.26769626769627,NA
80227,Jefferson County,CO,58.17245817245818,NA
80526,Larimer County,CO,NA,36.25730994152047
80534,Weld County,CO,67.82496782496783,NA
80543,Weld County,CO,NA,99.22027290448344
80634,Weld County,CO,13.256113256113256,2.144249512670565
80918,El Paso County,CO,45.04504504504504,NA
81419,Delta County,CO,99.09909909909909,NA
06010,Hartford County,CT,1.9305019305019304,NA
06066,Tolland County,CT,NA,18.9083820662768
06082,Hartford County,CT,15.958815958815958,49.512670565302145
06106,Hartford County,CT,40.283140283140284,NA
06107,Hartford County,CT,77.22007722007721,NA
06238,Tolland County,CT,NA,62.768031189083814
06260,Windham County,CT,28.7001287001287,NA
06417,Middlesex County,CT,NA,87.91423001949317
06424,Middlesex County,CT,76.57657657657657,NA
06442,Middlesex County,CT,NA,99.80506822612085
06451,New Haven County,CT,22.52252252252252,NA
06457,Middlesex County,CT,6.82110682110682,NA
06473,New Haven County,CT,67.56756756756756,NA
06475,Middlesex County,CT,NA,85.57504873294347
06480,Middlesex County,CT,NA,73.87914230019493
06484,Fairfield County,CT,66.92406692406692,NA
06511,New Haven County,CT,20.205920205920204,NA
06514,New Haven County,CT,80.43758043758044,NA
06515,New Haven County,CT,NA,71.53996101364523
06608,Fairfield County,CT,63.32046332046332,NA
06610,Fairfield County,CT,60.36036036036037,NA
06795,Litchfield County,CT,83.65508365508364,NA
06801,Fairfield County,CT,NA,57.69980506822612
06820,Fairfield County,CT,72.58687258687259,NA
06824,Fairfield County,CT,68.85456885456885,NA
06851,Fairfield County,CT,NA,53.021442495126706
06854,Fairfield County,CT,44.14414414414414,NA
06880,Fairfield County,CT,87.12998712998713,NA
06897,Fairfield County,CT,94.5945945945946,NA
06906,Fairfield County,CT,NA,95.71150097465888
19701,New Castle County,DE,NA,53.99610136452242
19709,New Castle County,DE,53.66795366795367,NA
19711,New Castle County,DE,62.93436293436293,NA
19713,New Castle County,DE,28.314028314028317,NA
19803,New Castle County,DE,61.64736164736164,51.656920077972714
19804,New Castle County,DE,25.353925353925355,NA
19805,New Castle County,DE,31.402831402831406,NA
19958,Sussex County,DE,NA,49.707602339181285
19963,Sussex County,DE,32.17503217503218,NA
19966,Sussex County,DE,NA,9.161793372319687
19973,Sussex County,DE,12.998712998713,NA
32011,Nassau County,FL,NA,58.28460038986355
32210,Duval County,FL,4.247104247104247,NA
32225,Duval County,FL,NA,16.374269005847953
32259,St. Johns County,FL,42.857142857142854,NA
32526,Escambia County,FL,NA,9.746588693957115
32561,Santa Rosa County,FL,88.93178893178893,NA
32570,Santa Rosa County,FL,NA,32.94346978557505
32578,Okaloosa County,FL,54.18275418275418,NA
32607,Alachua County,FL,16.73101673101673,NA
32608,Alachua County,FL,6.692406692406692,NA
32626,Levy County,FL,89.96138996138995,NA
32643,Alachua County,FL,51.35135135135135,NA
32669,Alachua County,FL,66.02316602316603,NA
32680,Dixie County,FL,NA,76.41325536062378
32746,Seminole County,FL,53.410553410553405,NA
32792,Orange County,FL,NA,50.29239766081871
32810,Orange County,FL,36.80823680823681,NA
32837,Orange County,FL,18.91891891891892,NA
32927,Brevard County,FL,53.925353925353924,NA
32955,Brevard County,FL,NA,24.561403508771928
33009,Broward County,FL,NA,46.198830409356724
33015,Miami-Dade County,FL,51.22265122265123,NA
33020,Broward County,FL,NA,28.654970760233915
33021,Broward County,FL,NA,25.730994152046783
33023,Broward County,FL,NA,45.808966861598435
33025,Broward County,FL,27.7992277992278,NA
33026,Broward County,FL,82.88288288288288,NA
33027,Broward County,FL,37.96653796653796,NA
33029,Broward County,FL,59.97425997425997,86.93957115009746
33033,Miami-Dade County,FL,NA,54.385964912280706
33050,Monroe County,FL,NA,85.96491228070175
33064,Broward County,FL,34.87773487773488,NA
33066,Broward County,FL,96.01029601029602,NA
33067,Broward County,FL,NA,97.6608187134503
33133,Miami-Dade County,FL,74.25997425997426,NA
33138,Miami-Dade County,FL,69.1119691119691,NA
33139,Miami-Dade County,FL,NA,52.826510721247566
33140,Miami-Dade County,FL,92.4066924066924,NA
33141,Miami-Dade County,FL,82.4967824967825,NA
33157,Miami-Dade County,FL,NA,21.832358674463936
33160,Miami-Dade County,FL,NA,38.59649122807017
33321,Broward County,FL,NA,28.07017543859649
33322,Broward County,FL,69.1119691119691,NA
33324,Broward County,FL,NA,48.148148148148145
33328,Broward County,FL,93.69369369369369,91.42300194931774
33405,Palm Beach County,FL,NA,95.32163742690058
33418,Palm Beach County,FL,79.92277992277992,NA
33434,Palm Beach County,FL,NA,73.68421052631578
33455,Martin County,FL,93.30759330759331,23.976608187134502
33458,Palm Beach County,FL,57.78635778635779,NA
33461,Palm Beach County,FL,59.07335907335908,NA
33463,Palm Beach County,FL,48.26254826254826,NA
33467,Palm Beach County,FL,57.27155727155727,26.900584795321635
33477,Palm Beach County,FL,NA,76.80311890838206
33480,Palm Beach County,FL,NA,97.07602339181285
33484,Palm Beach County,FL,NA,33.72319688109162
33487,Palm Beach County,FL,88.41698841698842,NA
33510,Hillsborough County,FL,NA,93.37231968810916
33545,Pasco County,FL,NA,91.03313840155946
33566,Hillsborough County,FL,58.68725868725869,NA
33572,Hillsborough County,FL,NA,59.84405458089669
33609,Hillsborough County,FL,NA,58.47953216374269
33615,Hillsborough County,FL,25.868725868725868,NA
33619,Hillsborough County,FL,NA,40.15594541910331
33703,Pinellas County,FL,57.4002574002574,NA
33707,Pinellas County,FL,60.489060489060485,NA
33764,Pinellas County,FL,71.2998712998713,NA
33811,Polk County,FL,87.9021879021879,NA
33844,Polk County,FL,NA,38.20662768031189
33880,Polk County,FL,20.84942084942085,NA
34145,Collier County,FL,NA,77.38791423001949
34209,Manatee County,FL,86.48648648648648,23.391812865497073
34210,Manatee County,FL,85.71428571428571,NA
34232,Sarasota County,FL,46.46074646074646,NA
34238,Sarasota County,FL,80.82368082368082,NA
34239,Sarasota County,FL,NA,71.34502923976608
34240,Sarasota County,FL,88.03088803088804,NA
34275,Sarasota County,FL,75.03217503217503,NA
34436,Citrus County,FL,90.34749034749035,NA
34601,Hernando County,FL,NA,62.57309941520468
34608,Hernando County,FL,36.55083655083655,NA
34677,Pinellas County,FL,91.37709137709138,NA
34769,Osceola County,FL,44.91634491634492,52.436647173489284
34956,Martin County,FL,NA,85.7699805068226
34972,Okeechobee County,FL,NA,76.80311890838206
34994,Martin County,FL,76.83397683397683,NA
30005,Fulton County,GA,67.43886743886743,NA
30012,Rockdale County,GA,NA,52.63157894736842
30022,Fulton County,GA,38.22393822393823,NA
30043,Gwinnett County,GA,55.85585585585585,14.619883040935672
30062,Cobb County,GA,NA,50.877192982456144
30075,Fulton County,GA,36.03603603603604,NA
30120,Bartow County,GA,18.53281853281853,NA
30145,Bartow County,GA,NA,91.42300194931774
30147,Floyd County,GA,NA,96.68615984405457
30165,Floyd County,GA,NA,31.968810916179336
30241,Troup County,GA,24.581724581724583,NA
30307,DeKalb County,GA,NA,99.02534113060429
30326,Fulton County,GA,99.22779922779922,NA
30507,Hall County,GA,NA,64.32748538011695
30528,White County,GA,NA,51.85185185185185
30563,Habersham County,GA,94.46589446589446,NA
30643,Hart County,GA,NA,53.41130604288499
30742,Catoosa County,GA,92.53539253539253,NA
30824,McDuffie County,GA,76.44787644787645,NA
30904,Richmond County,GA,NA,19.298245614035086
30906,Richmond County,GA,NA,6.237816764132553
31322,Chatham County,GA,80.05148005148006,NA
31406,Chatham County,GA,52.25225225225225,NA
31525,Glynn County,GA,77.86357786357786,NA
31620,Cook County,GA,74.5173745173745,NA
31709,Sumter County,GA,NA,95.12670565302143
31763,Lee County,GA,50.06435006435006,NA
31792,Thomas County,GA,32.04633204633205,NA
31909,Muscogee County,GA,37.323037323037326,29.82456140350877
96701,Honolulu County,HI,65.5083655083655,83.62573099415205
96703,Kauai County,HI,NA,100
96707,Honolulu County,HI,33.33333333333333,NA
96744,Honolulu County,HI,NA,4.093567251461988
96766,Kauai County,HI,68.5971685971686,NA
96797,Honolulu County,HI,7.207207207207207,NA
96815,Honolulu County,HI,47.87644787644788,NA
83201,Bannock County,ID,NA,40.5458089668616
83236,Bingham County,ID,NA,96.49122807017544
83401,Bonneville County,ID,43.758043758043755,NA
83835,Kootenai County,ID,81.20978120978121,NA
60030,Lake County,IL,71.42857142857143,NA
60035,Lake County,IL,43.24324324324324,NA
60042,McHenry County,IL,NA,99.41520467836257
60047,Lake County,IL,34.62033462033462,NA
60061,Lake County,IL,64.22136422136421,NA
60062,Cook County,IL,NA,6.042884990253411
60084,Lake County,IL,71.68597168597168,NA
60096,Lake County,IL,90.990990990991,NA
60102,McHenry County,IL,75.54697554697555,NA
60104,Cook County,IL,NA,28.84990253411306
60134,Kane County,IL,85.19948519948521,43.46978557504873
60137,DuPage County,IL,31.78893178893179,NA
60154,Cook County,IL,51.60875160875161,NA
60155,Cook County,IL,NA,64.5224171539961
60187,DuPage County,IL,34.74903474903475,NA
60201,Cook County,IL,42.599742599742605,NA
60302,Cook County,IL,31.27413127413127,NA
60402,Cook County,IL,9.90990990990991,NA
60416,Grundy County,IL,60.87516087516087,NA
60440,Will County,IL,17.63191763191763,NA
60450,Grundy County,IL,22.00772200772201,NA
60453,Cook County,IL,72.32947232947234,NA
60466,Cook County,IL,48.51994851994852,NA
60480,Cook County,IL,NA,93.95711500974659
60490,Will County,IL,60.74646074646075,NA
60506,Kane County,IL,23.166023166023166,NA
60517,DuPage County,IL,NA,36.06237816764132
60526,Cook County,IL,NA,90.25341130604289
60534,Cook County,IL,77.09137709137708,NA
60540,DuPage County,IL,83.91248391248392,NA
60554,Kane County,IL,NA,85.18518518518519
60565,DuPage County,IL,NA,20.2729044834308
60586,Will County,IL,12.226512226512225,NA
60609,Cook County,IL,8.880308880308881,NA
60611,Cook County,IL,NA,58.0896686159844
60612,Cook County,IL,NA,34.30799220272904
60613,Cook County,IL,24.967824967824967,NA
60621,Cook County,IL,NA,35.08771929824561
60628,Cook County,IL,6.177606177606178,NA
60632,Cook County,IL,11.325611325611327,NA
60638,Cook County,IL,NA,8.382066276803119
60640,Cook County,IL,NA,7.797270955165692
60644,Cook County,IL,NA,46.978557504873294
60646,Cook County,IL,48.77734877734878,NA
60649,Cook County,IL,11.454311454311455,NA
60656,Cook County,IL,87.001287001287,NA
60804,Cook County,IL,17.374517374517374,NA
61071,Whiteside County,IL,NA,17.15399610136452
61081,Whiteside County,IL,NA,15.789473684210526
61102,Winnebago County,IL,58.42985842985843,NA
61109,Winnebago County,IL,44.53024453024453,NA
61115,Winnebago County,IL,88.54568854568855,30.409356725146196
61254,Henry County,IL,NA,76.0233918128655
61550,Tazewell County,IL,NA,69.5906432748538
61704,McLean County,IL,35.521235521235525,NA
61821,Champaign County,IL,40.54054054054054,NA
61920,Coles County,IL,NA,53.80116959064327
61944,Edgar County,IL,NA,57.1150097465887
62002,Madison County,IL,28.185328185328185,NA
62040,Madison County,IL,NA,11.11111111111111
62522,Macon County,IL,55.98455598455598,NA
62629,Sangamon County,IL,90.86229086229086,87.71929824561403
62650,Morgan County,IL,79.27927927927928,NA
62704,Sangamon County,IL,NA,32.553606237816766
46036,Madison County,IN,83.3976833976834,NA
46038,Hamilton County,IN,58.815958815958815,NA
46123,Hendricks County,IN,47.361647361647364,NA
46143,Johnson County,IN,57.01415701415702,NA
46158,Morgan County,IN,NA,30.79922027290448
46168,Hendricks County,IN,NA,54.58089668615984
46304,Porter County,IN,10.939510939510939,NA
46312,Lake County,IN,13.384813384813384,NA
46320,Lake County,IN,NA,53.216374269005854
46368,Porter County,IN,31.016731016731015,NA
46406,Lake County,IN,63.44916344916345,NA
46637,St. Joseph County,IN,86.22908622908622,NA
46710,Noble County,IN,92.27799227799228,NA
46901,Howard County,IN,2.187902187902188,NA
46992,Wabash County,IN,NA,44.2495126705653
47150,Floyd County,IN,9.00900900900901,NA
47203,Bartholomew County,IN,32.56113256113256,NA
47250,Jefferson County,IN,66.28056628056628,NA
47356,Henry County,IN,NA,70.76023391812866
47403,Monroe County,IN,61.77606177606177,NA
47725,Vanderburgh County,IN,84.94208494208493,NA
47802,Vigo County,IN,NA,42.10526315789473
52803,Scott County,IA,NA,55.165692007797276
66071,Miami County,KS,71.81467181467181,NA
66208,Johnson County,KS,NA,51.07212475633528
67460,McPherson County,KS,NA,60.62378167641326
40031,Oldham County,KY,29.987129987129986,NA
40059,Jefferson County,KY,78.12097812097812,NA
40071,Spencer County,KY,55.341055341055345,NA
40203,Jefferson County,KY,NA,74.07407407407408
40205,Jefferson County,KY,NA,40.35087719298245
40218,Jefferson County,KY,NA,40.93567251461988
40219,Jefferson County,KY,10.81081081081081,NA
40220,Jefferson County,KY,68.98326898326899,20.857699805068226
40243,Jefferson County,KY,NA,83.82066276803118
40258,Jefferson County,KY,55.5984555984556,41.52046783625731
40330,Mercer County,KY,53.53925353925354,NA
40503,Fayette County,KY,NA,64.71734892787524
40744,Laurel County,KY,27.027027027027028,NA
40831,Harlan County,KY,69.62676962676963,NA
41011,Kenton County,KY,11.96911196911197,NA
41035,Grant County,KY,45.43114543114543,NA
41071,Campbell County,KY,23.93822393822394,NA
41075,Campbell County,KY,NA,81.87134502923976
41501,Pike County,KY,NA,14.42495126705653
42103,Warren County,KY,NA,84.60038986354775
42206,Logan County,KY,NA,96.10136452241716
42303,Daviess County,KY,8.365508365508365,NA
42633,Wayne County,KY,52.123552123552116,NA
42728,Adair County,KY,NA,75.24366471734892
42743,Green County,KY,66.53796653796654,NA
70005,Jefferson Parish,LA,NA,25.341130604288498
70118,Orleans Parish,LA,15.057915057915059,NA
70130,Orleans Parish,LA,NA,39.1812865497076
70394,Lafourche Parish,LA,18.01801801801802,NA
70448,St. Tammany Parish,LA,NA,31.384015594541907
70458,St. Tammany Parish,LA,43.11454311454311,NA
70506,Lafayette Parish,LA,5.405405405405405,NA
70507,Lafayette Parish,LA,NA,80.50682261208577
70518,Lafayette Parish,LA,49.29214929214929,NA
70570,St. Landry Parish,LA,46.975546975546976,NA
70586,Evangeline Parish,LA,NA,39.76608187134503
70611,Calcasieu Parish,LA,26.126126126126124,NA
70669,Calcasieu Parish,LA,80.3088803088803,NA
70726,Livingston Parish,LA,10.038610038610038,8.771929824561402
70809,East Baton Rouge Parish,LA,53.79665379665379,NA
71351,Avoyelles Parish,LA,28.957528957528954,NA
03908,York County,ME,79.02187902187903,NA
04092,Cumberland County,ME,36.93693693693694,NA
04106,Cumberland County,ME,32.432432432432435,NA
04937,Somerset County,ME,57.91505791505791,NA
20619,St. Mary's County,MD,85.58558558558559,NA
20852,Montgomery County,MD,72.84427284427284,NA
20878,Montgomery County,MD,45.30244530244531,NA
20910,Montgomery County,MD,82.23938223938224,NA
21014,Harford County,MD,NA,34.1130604288499
21040,Harford County,MD,58.94465894465895,NA
21050,Harford County,MD,69.75546975546976,NA
21061,Anne Arundel County,MD,8.236808236808237,NA
21108,Anne Arundel County,MD,NA,81.28654970760235
21144,Anne Arundel County,MD,81.72458172458172,NA
21161,Harford County,MD,NA,95.51656920077973
21208,Baltimore County,MD,60.61776061776062,NA
21210,Baltimore city,MD,NA,70.76023391812866
21213,Baltimore city,MD,NA,15.009746588693956
21221,Baltimore County,MD,17.245817245817246,NA
21236,Baltimore County,MD,NA,42.30019493177387
21502,Allegany County,MD,20.84942084942085,NA
21740,Washington County,MD,15.572715572715573,NA
21769,Frederick County,MD,NA,90.83820662768031
21804,Wicomico County,MD,NA,56.92007797270955
21921,Cecil County,MD,12.355212355212355,6.627680311890838
01027,Hampshire County,MA,NA,42.8849902534113
01056,Hampden County,MA,13.64221364221364,NA
01062,Hampshire County,MA,71.55727155727156,NA
01108,Hampden County,MA,NA,32.748538011695906
01201,Berkshire County,MA,4.504504504504505,NA
01230,Berkshire County,MA,NA,51.85185185185185
01301,Franklin County,MA,9.78120978120978,NA
01469,Middlesex County,MA,NA,98.83040935672514
01730,Middlesex County,MA,NA,94.54191033138402
01740,Worcester County,MA,93.82239382239382,NA
01776,Middlesex County,MA,41.184041184041185,NA
01824,Middlesex County,MA,31.917631917631915,NA
01826,Middlesex County,MA,19.948519948519948,NA
01832,Essex County,MA,NA,11.890838206627679
01852,Middlesex County,MA,0.1287001287001287,NA
01854,Middlesex County,MA,1.8018018018018018,NA
01905,Essex County,MA,1.4157014157014158,NA
01923,Essex County,MA,3.6036036036036037,NA
01938,Essex County,MA,46.074646074646076,NA
01960,Essex County,MA,NA,6.82261208576998
01983,Essex County,MA,84.16988416988417,NA
02054,Norfolk County,MA,NA,89.08382066276803
02072,Norfolk County,MA,7.4646074646074645,NA
02131,Suffolk County,MA,1.5444015444015444,NA
02135,Suffolk County,MA,3.9897039897039894,NA
02138,Middlesex County,MA,NA,6.432748538011696
02141,Middlesex County,MA,26.640926640926644,NA
02144,Middlesex County,MA,17.760617760617762,NA
02180,Middlesex County,MA,10.682110682110682,NA
02186,Norfolk County,MA,NA,27.87524366471735
02301,Plymouth County,MA,0,NA
02333,Plymouth County,MA,NA,45.808966861598435
02351,Plymouth County,MA,NA,25.925925925925924
02466,Middlesex County,MA,NA,89.66861598440545
02467,Norfolk County,MA,75.8043758043758,NA
02494,Norfolk County,MA,83.26898326898326,NA
02703,Bristol County,MA,89.44658944658944,NA
02766,Bristol County,MA,15.315315315315313,NA
48038,Macomb County,MI,NA,5.263157894736842
48045,Macomb County,MI,22.136422136422137,NA
48073,Oakland County,MI,26.898326898326896,NA
48105,Washtenaw County,MI,36.67953667953668,NA
48126,Wayne County,MI,8.494208494208493,NA
48144,Monroe County,MI,88.67438867438867,NA
48154,Wayne County,MI,NA,7.602339181286549
48176,Washtenaw County,MI,38.61003861003861,NA
48187,Wayne County,MI,NA,3.508771929824561
48188,Wayne County,MI,10.939510939510939,NA
48195,Wayne County,MI,NA,10.721247563352826
48214,Wayne County,MI,NA,78.94736842105263
48239,Wayne County,MI,30.244530244530242,NA
48306,Oakland County,MI,71.04247104247105,NA
48313,Macomb County,MI,23.552123552123554,NA
48329,Oakland County,MI,30.630630630630627,NA
48331,Oakland County,MI,NA,21.24756335282651
48348,Oakland County,MI,NA,77.97270955165692
48359,Oakland County,MI,63.06306306306306,NA
48415,Saginaw County,MI,76.31917631917632,NA
48451,Genesee County,MI,73.4877734877735,NA
48609,Saginaw County,MI,40.15444015444015,NA
48622,Clare County,MI,70.65637065637065,NA
48624,Gladwin County,MI,NA,19.103313840155945
48640,Midland County,MI,8.108108108108109,NA
48642,Midland County,MI,50.965250965250966,NA
48867,Shiawassee County,MI,NA,37.42690058479532
49002,Kalamazoo County,MI,30.888030888030887,NA
49202,Jackson County,MI,NA,66.66666666666666
49319,Kent County,MI,27.155727155727156,NA
49423,Ottawa County,MI,10.167310167310168,NA
49456,Ottawa County,MI,42.72844272844273,NA
49503,Kent County,MI,9.266409266409266,NA
49509,Kent County,MI,61.261261261261254,NA
49807,Delta County,MI,95.88159588159589,NA
49829,Delta County,MI,30.759330759330762,NA
55016,Washington County,MN,70.14157014157014,NA
55079,Chisago County,MN,79.40797940797941,NA
55112,Ramsey County,MN,NA,27.680311890838205
55113,Ramsey County,MN,NA,47.173489278752434
55124,Dakota County,MN,35.77863577863578,NA
55125,Washington County,MN,NA,81.48148148148148
55337,Dakota County,MN,NA,24.561403508771928
55405,Hennepin County,MN,34.105534105534105,NA
55408,Hennepin County,MN,36.16473616473617,NA
55423,Hennepin County,MN,16.988416988416986,NA
55904,Olmsted County,MN,33.84813384813385,NA
56172,Murray County,MN,98.32689832689833,NA
38618,Tate County,MS,83.14028314028315,NA
38671,DeSoto County,MS,NA,55.55555555555556
38732,Bolivar County,MS,35.39253539253539,NA
38829,Prentiss County,MS,45.94594594594595,NA
38851,Chickasaw County,MS,94.20849420849422,NA
38866,Lee County,MS,86.10038610038609,NA
39117,Scott County,MS,51.737451737451735,NA
39120,Adams County,MS,NA,55.36062378167641
39170,Hinds County,MS,93.43629343629344,NA
39301,Lauderdale County,MS,15.444015444015443,NA
39452,George County,MS,NA,23.00194931773879
39507,Harrison County,MS,NA,37.03703703703704
63017,St. Louis County,MO,63.191763191763194,NA
63020,Jefferson County,MO,62.03346203346203,NA
63021,St. Louis County,MO,NA,12.280701754385964
63136,St. Louis County,MO,NA,11.695906432748536
63376,St. Charles County,MO,NA,2.53411306042885
63628,St. Francois County,MO,NA,87.13450292397661
63755,Cape Girardeau County,MO,62.80566280566281,82.65107212475633
63935,Ripley County,MO,54.054054054054056,NA
64030,Jackson County,MO,48.13384813384813,NA
64048,Clay County,MO,90.47619047619048,NA
64050,Jackson County,MO,NA,16.95906432748538
64060,Clay County,MO,NA,65.49707602339181
64079,Platte County,MO,NA,78.75243664717348
64083,Cass County,MO,33.97683397683397,NA
64111,Jackson County,MO,23.037323037323038,NA
64112,Jackson County,MO,74.77477477477478,NA
64114,Jackson County,MO,32.818532818532816,NA
64118,Clay County,MO,NA,7.992202729044834
64133,Jackson County,MO,4.633204633204633,NA
64134,Jackson County,MO,NA,38.98635477582846
64424,Harrison County,MO,86.87258687258688,NA
64506,Buchanan County,MO,50.45045045045045,NA
64601,Livingston County,MO,NA,45.614035087719294
64735,Henry County,MO,NA,43.66471734892787
64801,Jasper County,MO,40.66924066924067,NA
65233,Cooper County,MO,64.99356499356499,NA
65301,Pettis County,MO,3.861003861003861,NA
65708,Barry County,MO,67.05276705276705,NA
65781,Greene County,MO,NA,97.46588693957115
65802,Greene County,MO,9.523809523809524,NA
59404,Cascade County,MT,43.371943371943374,NA
68130,Douglas County,NE,81.5958815958816,NA
68505,Lancaster County,NE,81.33848133848134,NA
68506,Lancaster County,NE,72.45817245817246,NA
68512,Lancaster County,NE,NA,91.22807017543859
68521,Lancaster County,NE,NA,76.60818713450293
68801,Hall County,NE,82.62548262548263,NA
89431,Washoe County,NV,19.433719433719435,NA
89436,Washoe County,NV,NA,13.450292397660817
03076,Hillsborough County,NH,72.97297297297297,NA
03079,Rockingham County,NH,44.65894465894466,NA
03106,Merrimack County,NH,NA,50.682261208576996
03842,Rockingham County,NH,NA,31.773879142300192
03873,Rockingham County,NH,88.67438867438867,NA
07002,Hudson County,NJ,1.287001287001287,NA
07003,Essex County,NJ,NA,89.47368421052632
07005,Morris County,NJ,NA,84.21052631578947
07006,Essex County,NJ,NA,80.89668615984405
07013,Passaic County,NJ,38.73873873873874,NA
07026,Bergen County,NJ,12.612612612612612,NA
07040,Essex County,NJ,76.19047619047619,NA
07043,Essex County,NJ,NA,70.37037037037037
07045,Morris County,NJ,67.6962676962677,NA
07047,Hudson County,NJ,21.364221364221365,NA
07054,Morris County,NJ,NA,37.03703703703704
07055,Passaic County,NJ,0.9009009009009009,NA
07079,Essex County,NJ,100,NA
07082,Morris County,NJ,97.55469755469755,NA
07083,Union County,NJ,93.95109395109395,NA
07103,Essex County,NJ,NA,1.949317738791423
07111,Essex County,NJ,16.216216216216218,8.966861598440545
07112,Essex County,NJ,49.42084942084942,NA
07201,Union County,NJ,49.549549549549546,NA
07307,Hudson County,NJ,9.652509652509652,NA
07405,Morris County,NJ,93.17889317889318,NA
07407,Bergen County,NJ,28.82882882882883,NA
07417,Bergen County,NJ,86.22908622908622,NA
07422,Sussex County,NJ,NA,98.44054580896686
07430,Bergen County,NJ,NA,53.606237816764136
07436,Bergen County,NJ,90.60489060489061,NA
07442,Passaic County,NJ,68.72586872586872,NA
07456,Passaic County,NJ,88.28828828828829,NA
07470,Passaic County,NJ,NA,4.678362573099415
07481,Bergen County,NJ,70.27027027027027,NA
07650,Bergen County,NJ,65.76576576576578,NA
07719,Monmouth County,NJ,37.194337194337194,NA
07726,Monmouth County,NJ,27.54182754182754,NA
07747,Monmouth County,NJ,NA,41.13060428849902
07748,Monmouth County,NJ,26.383526383526384,NA
07753,Monmouth County,NJ,4.89060489060489,NA
07828,Morris County,NJ,NA,68.81091617933723
07836,Morris County,NJ,92.7927927927928,NA
07850,Morris County,NJ,99.74259974259975,NA
07853,Morris County,NJ,NA,92.5925925925926
07866,Morris County,NJ,NA,44.834307992202724
07869,Morris County,NJ,79.53667953667953,47.758284600389864
07950,Morris County,NJ,NA,74.6588693957115
07960,Morris County,NJ,NA,57.89473684210527
08022,Burlington County,NJ,91.63449163449164,NA
08057,Burlington County,NJ,60.102960102960104,NA
08344,Gloucester County,NJ,NA,91.81286549707602
08527,Ocean County,NJ,7.722007722007722,NA
08618,Mercer County,NJ,0.6435006435006435,NA
08648,Mercer County,NJ,40.92664092664093,NA
08691,Mercer County,NJ,NA,89.27875243664717
08701,Ocean County,NJ,2.9601029601029603,NA
08723,Ocean County,NJ,NA,23.196881091617932
08753,Ocean County,NJ,2.3166023166023164,NA
08759,Ocean County,NJ,NA,1.1695906432748537
08844,Somerset County,NJ,38.35263835263835,58.86939571150097
08857,Middlesex County,NJ,7.078507078507079,NA
08876,Somerset County,NJ,15.83011583011583,NA
87002,Valencia County,NM,49.034749034749034,NA
87111,Bernalillo County,NM,17.503217503217503,NA
88001,Doa Ana County,NM,23.294723294723294,NA
10002,New York County,NY,3.7323037323037322,3.7037037037037033
10011,New York County,NY,35.907335907335906,NA
10014,New York County,NY,84.42728442728443,NA
10016,New York County,NY,33.07593307593308,NA
10021,New York County,NY,70.39897039897039,NA
10023,New York County,NY,47.361647361647364,NA
10028,New York County,NY,80.56628056628057,NA
10032,New York County,NY,67.95366795366795,NA
10310,Richmond County,NY,NA,43.27485380116959
10451,Bronx County,NY,2.574002574002574,NA
10462,Bronx County,NY,NA,5.0682261208577
10467,Bronx County,NY,NA,0.1949317738791423
10468,Bronx County,NY,1.1583011583011582,NA
10473,Bronx County,NY,19.69111969111969,NA
10504,Westchester County,NY,96.3963963963964,NA
10512,Putnam County,NY,NA,67.44639376218323
10536,Westchester County,NY,99.48519948519949,NA
10550,Westchester County,NY,22.265122265122265,NA
10583,Westchester County,NY,85.32818532818533,NA
10598,Westchester County,NY,NA,76.80311890838206
10601,Westchester County,NY,84.68468468468468,NA
10603,Westchester County,NY,72.07207207207207,NA
10705,Westchester County,NY,NA,29.434697855750485
10707,Westchester County,NY,91.8918918918919,NA
10940,Orange County,NY,NA,68.03118908382066
10956,Rockland County,NY,NA,69.20077972709552
10960,Rockland County,NY,NA,94.73684210526315
11201,Kings County,NY,NA,20.66276803118908
11207,Kings County,NY,0.2574002574002574,NA
11210,Kings County,NY,41.05534105534105,22.027290448343077
11215,Kings County,NY,64.73616473616474,NA
11221,Kings County,NY,2.8314028314028317,NA
11223,Kings County,NY,18.79021879021879,NA
11230,Kings County,NY,64.35006435006436,NA
11249,Kings County,NY,64.6074646074646,NA
11357,Queens County,NY,NA,78.3625730994152
11372,Queens County,NY,NA,75.43859649122807
11375,Queens County,NY,NA,32.35867446393762
11434,Queens County,NY,11.840411840411841,NA
11559,Nassau County,NY,NA,87.32943469785575
11691,Queens County,NY,NA,7.4074074074074066
11703,Suffolk County,NY,NA,79.72709551656921
11710,Nassau County,NY,NA,59.06432748538012
11714,Nassau County,NY,78.63577863577864,74.26900584795322
11729,Suffolk County,NY,NA,61.01364522417154
11733,Suffolk County,NY,95.75289575289575,NA
11740,Suffolk County,NY,NA,89.8635477582846
11752,Suffolk County,NY,NA,94.9317738791423
11762,Nassau County,NY,97.8120978120978,NA
11772,Suffolk County,NY,63.83526383526383,27.29044834307992
11776,Suffolk County,NY,56.62805662805663,NA
11779,Suffolk County,NY,NA,50.487329434697855
11783,Nassau County,NY,NA,94.15204678362574
11795,Suffolk County,NY,74.9034749034749,NA
11953,Suffolk County,NY,NA,88.88888888888889
12020,Saratoga County,NY,16.602316602316602,NA
12061,Rensselaer County,NY,96.78249678249678,NA
12065,Saratoga County,NY,20.72072072072072,NA
12078,Fulton County,NY,NA,9.551656920077972
12801,Warren County,NY,16.85971685971686,NA
12803,Saratoga County,NY,66.66666666666666,NA
13021,Cayuga County,NY,3.2175032175032174,2.3391812865497075
13039,Onondaga County,NY,42.34234234234234,NA
13040,Cortland County,NY,87.38738738738738,NA
13066,Onondaga County,NY,NA,55.55555555555556
13084,Onondaga County,NY,94.33719433719435,NA
13108,Onondaga County,NY,84.16988416988417,NA
13135,Oswego County,NY,62.03346203346203,NA
13152,Onondaga County,NY,39.510939510939515,NA
13203,Onondaga County,NY,NA,54.77582846003899
13219,Onondaga County,NY,56.24195624195624,NA
13309,Oneida County,NY,87.25868725868726,NA
13323,Oneida County,NY,66.79536679536679,NA
13346,Madison County,NY,64.73616473616474,NA
13367,Lewis County,NY,NA,86.54970760233918
13402,Madison County,NY,98.84169884169884,NA
13407,Herkimer County,NY,NA,66.08187134502924
13413,Oneida County,NY,47.10424710424711,NA
13421,Madison County,NY,70.78507078507079,NA
13440,Oneida County,NY,2.0592020592020592,5.653021442495127
13480,Oneida County,NY,90.21879021879022,93.76218323586744
13491,Herkimer County,NY,84.04118404118404,NA
13669,St. Lawrence County,NY,19.56241956241956,NA
13676,St. Lawrence County,NY,29.472329472329474,NA
13732,Tioga County,NY,44.78764478764479,NA
13746,Broome County,NY,95.36679536679536,96.88109161793372
13754,Broome County,NY,95.23809523809523,NA
13760,Broome County,NY,77.34877734877735,0
13795,Broome County,NY,97.16859716859717,NA
13797,Broome County,NY,97.42599742599742,NA
13811,Tioga County,NY,95.4954954954955,NA
13815,Chenango County,NY,42.084942084942085,NA
13827,Tioga County,NY,55.21235521235521,NA
13850,Broome County,NY,74.38867438867439,47.368421052631575
13865,Broome County,NY,NA,68.2261208576998
13901,Broome County,NY,62.54826254826254,61.40350877192983
13905,Broome County,NY,23.809523809523807,30.60428849902534
14063,Chautauqua County,NY,39.12483912483912,NA
14092,Niagara County,NY,49.935649935649934,NA
14120,Niagara County,NY,NA,36.84210526315789
14201,Erie County,NY,75.16087516087516,NA
14204,Erie County,NY,NA,90.05847953216374
14215,Erie County,NY,10.553410553410554,NA
14304,Niagara County,NY,NA,4.28849902534113
14424,Ontario County,NY,13.513513513513514,NA
14437,Livingston County,NY,41.82754182754182,NA
14456,Ontario County,NY,27.413127413127413,NA
14512,Ontario County,NY,NA,65.69200779727096
14532,Ontario County,NY,54.440154440154444,NA
14543,Monroe County,NY,91.24839124839124,NA
14580,Monroe County,NY,NA,5.458089668615984
14612,Monroe County,NY,NA,1.364522417153996
14616,Monroe County,NY,3.088803088803089,NA
14621,Monroe County,NY,0.3861003861003861,NA
14787,Chautauqua County,NY,NA,88.69395711500975
14818,Schuyler County,NY,98.58429858429858,NA
14840,Steuben County,NY,NA,82.45614035087719
14845,Chemung County,NY,13.127413127413126,NA
14880,Allegany County,NY,94.85199485199485,NA
27028,Davie County,NC,NA,8.187134502923977
27030,Surry County,NC,5.7915057915057915,NA
27107,Forsyth County,NC,18.661518661518663,NA
27292,Davidson County,NC,NA,0.9746588693957114
27320,Rockingham County,NC,NA,9.941520467836257
27410,Guilford County,NC,NA,14.814814814814813
27526,Wake County,NC,NA,22.612085769980506
27529,Wake County,NC,NA,16.569200779727094
27604,Wake County,NC,30.373230373230374,NA
27613,Wake County,NC,48.39124839124839,NA
27615,Wake County,NC,37.83783783783784,NA
27801,Edgecombe County,NC,89.1891891891892,NA
27804,Nash County,NC,NA,70.56530214424951
27823,Halifax County,NC,73.61647361647363,NA
27851,Wilson County,NC,NA,94.34697855750487
27863,Wayne County,NC,84.94208494208493,NA
27896,Wilson County,NC,50.70785070785071,NA
27983,Bertie County,NC,52.509652509652504,NA
28016,Gaston County,NC,NA,61.20857699805068
28025,Cabarrus County,NC,8.751608751608751,NA
28081,Cabarrus County,NC,NA,50.097465886939574
28164,Gaston County,NC,78.12097812097812,NA
28340,Robeson County,NC,55.98455598455598,NA
28462,Brunswick County,NC,55.72715572715573,NA
28466,Duplin County,NC,NA,73.48927875243665
28557,Carteret County,NC,NA,44.054580896686154
28645,Caldwell County,NC,NA,0.5847953216374269
28694,Ashe County,NC,89.96138996138995,NA
28761,McDowell County,NC,77.47747747747748,NA
28803,Buncombe County,NC,50.19305019305019,NA
58701,Ward County,ND,34.234234234234236,NA
58854,McKenzie County,ND,87.51608751608751,NA
43050,Knox County,OH,NA,4.8732943469785575
43130,Fairfield County,OH,1.673101673101673,NA
43138,Hocking County,OH,27.28442728442728,NA
43162,Madison County,OH,NA,73.2943469785575
43205,Franklin County,OH,44.01544401544402,NA
43213,Franklin County,OH,NA,71.73489278752436
43230,Franklin County,OH,12.87001287001287,49.902534113060426
43331,Logan County,OH,NA,88.4990253411306
43351,Wyandot County,OH,39.25353925353925,NA
43420,Sandusky County,OH,NA,15.984405458089668
43431,Sandusky County,OH,NA,98.24561403508771
43556,Defiance County,OH,97.8120978120978,NA
43560,Lucas County,OH,22.393822393822393,NA
43611,Lucas County,OH,11.583011583011583,NA
43613,Lucas County,OH,NA,25.53606237816764
43614,Lucas County,OH,8.622908622908623,NA
43615,Lucas County,OH,3.474903474903475,NA
43623,Lucas County,OH,NA,26.705653021442494
43701,Muskingum County,OH,NA,0.3898635477582846
43725,Guernsey County,OH,NA,7.212475633528265
43812,Coshocton County,OH,5.019305019305019,NA
43832,Tuscarawas County,OH,NA,65.8869395711501
43933,Belmont County,OH,NA,98.05068226120858
43935,Belmont County,OH,NA,62.96296296296296
43943,Jefferson County,OH,NA,97.07602339181285
43944,Jefferson County,OH,98.06949806949807,NA
44023,Geauga County,OH,NA,45.419103313840154
44028,Lorain County,OH,83.52638352638353,NA
44035,Lorain County,OH,NA,2.923976608187134
44044,Lorain County,OH,47.23294723294723,NA
44060,Lake County,OH,NA,0.7797270955165692
44090,Lorain County,OH,82.36808236808237,NA
44095,Lake County,OH,51.86615186615187,NA
44104,Cuyahoga County,OH,4.375804375804376,NA
44111,Cuyahoga County,OH,9.137709137709138,NA
44114,Cuyahoga County,OH,29.214929214929214,NA
44118,Cuyahoga County,OH,NA,42.69005847953216
44120,Cuyahoga County,OH,NA,3.898635477582846
44123,Cuyahoga County,OH,24.324324324324326,NA
44124,Cuyahoga County,OH,NA,43.859649122807014
44125,Cuyahoga County,OH,1.0296010296010296,NA
44134,Cuyahoga County,OH,NA,18.128654970760234
44135,Cuyahoga County,OH,14.028314028314028,NA
44146,Cuyahoga County,OH,5.662805662805663,1.7543859649122806
44236,Summit County,OH,53.024453024453024,NA
44240,Portage County,OH,NA,19.883040935672515
44306,Summit County,OH,32.689832689832684,NA
44444,Trumbull County,OH,NA,56.53021442495126
44446,Trumbull County,OH,NA,16.764132553606238
44511,Mahoning County,OH,20.334620334620336,NA
44512,Mahoning County,OH,NA,14.230019493177387
44601,Stark County,OH,48.00514800514801,NA
44615,Carroll County,OH,NA,83.04093567251462
44632,Stark County,OH,NA,90.64327485380117
44641,Stark County,OH,NA,46.783625730994146
44685,Summit County,OH,43.886743886743886,NA
44691,Wayne County,OH,6.563706563706563,NA
44720,Stark County,OH,25.74002574002574,NA
44883,Seneca County,OH,14.671814671814673,NA
45005,Warren County,OH,7.5933075933075935,NA
45013,Butler County,OH,3.346203346203346,NA
45015,Butler County,OH,54.56885456885456,NA
45036,Warren County,OH,18.146718146718147,NA
45044,Butler County,OH,4.761904761904762,NA
45066,Warren County,OH,NA,48.732943469785575
45069,Butler County,OH,NA,17.73879142300195
45150,Clermont County,OH,33.71943371943372,NA
45211,Hamilton County,OH,NA,32.16374269005848
45248,Hamilton County,OH,54.69755469755469,NA
45255,Hamilton County,OH,NA,46.588693957115005
45309,Montgomery County,OH,NA,60.42884990253411
45458,Montgomery County,OH,NA,13.255360623781677
45459,Montgomery County,OH,NA,21.44249512670565
45505,Clark County,OH,28.056628056628057,NA
45601,Ross County,OH,0.5148005148005148,NA
45638,Lawrence County,OH,NA,4.483430799220272
45662,Scioto County,OH,2.7027027027027026,NA
73008,Oklahoma County,OK,NA,58.47953216374269
73071,Cleveland County,OK,20.463320463320464,NA
73080,McClain County,OK,NA,76.0233918128655
73111,Oklahoma County,OK,63.57786357786358,NA
73162,Oklahoma County,OK,48.9060489060489,17.543859649122805
73703,Garfield County,OK,NA,17.348927875243664
74055,Tulsa County,OK,NA,30.214424951267056
74066,Creek County,OK,29.08622908622909,NA
74070,Osage County,OK,NA,78.55750487329435
74106,Tulsa County,OK,34.36293436293436,NA
74133,Tulsa County,OK,NA,21.052631578947366
74354,Ottawa County,OK,NA,47.563352826510716
74820,Pontotoc County,OK,29.472329472329474,NA
97008,Washington County,OR,57.52895752895753,NA
97116,Washington County,OR,NA,51.461988304093566
97124,Washington County,OR,23.680823680823682,NA
97224,Washington County,OR,NA,38.01169590643275
97266,Multnomah County,OR,NA,35.67251461988304
97365,Lincoln County,OR,70.52767052767052,NA
97415,Curry County,OR,45.559845559845556,NA
97424,Lane County,OR,NA,39.37621832358674
97501,Jackson County,OR,7.335907335907336,NA
97530,Jackson County,OR,NA,83.4307992202729
97601,Klamath County,OR,NA,12.865497076023392
97838,Umatilla County,OR,13.77091377091377,NA
15010,Beaver County,PA,19.047619047619047,NA
15014,Allegheny County,PA,98.1981981981982,NA
15033,Washington County,PA,95.62419562419564,NA
15218,Allegheny County,PA,NA,59.25925925925925
15317,Washington County,PA,26.383526383526384,NA
15658,Westmoreland County,PA,NA,79.33723196881091
15701,Indiana County,PA,19.047619047619047,NA
16001,Butler County,PA,NA,2.729044834307992
16002,Butler County,PA,56.75675675675676,NA
16105,Lawrence County,PA,58.301158301158296,NA
16316,Crawford County,PA,81.98198198198197,NA
16335,Crawford County,PA,NA,41.71539961013645
16668,Cambria County,PA,97.68339768339769,NA
16735,McKean County,PA,NA,66.27680311890838
16801,Centre County,PA,36.293436293436294,NA
17013,Cumberland County,PA,52.638352638352636,NA
17015,Cumberland County,PA,41.312741312741316,NA
17019,York County,PA,NA,48.343079922027286
17036,Dauphin County,PA,NA,13.060428849902534
17103,Dauphin County,PA,NA,68.61598440545808
17201,Franklin County,PA,NA,20.077972709551656
17315,York County,PA,24.45302445302445,NA
17329,York County,PA,99.61389961389962,NA
17331,York County,PA,6.048906048906049,NA
17402,York County,PA,NA,10.526315789473683
17551,Lancaster County,PA,NA,88.30409356725146
17754,Lycoming County,PA,NA,78.16764132553607
17844,Union County,PA,69.75546975546976,NA
17901,Schuylkill County,PA,NA,30.994152046783626
18017,Northampton County,PA,23.93822393822394,NA
18034,Lehigh County,PA,82.75418275418276,NA
18040,Northampton County,PA,NA,45.02923976608187
18042,Northampton County,PA,5.148005148005148,NA
18045,Northampton County,PA,68.21106821106821,NA
18052,Lehigh County,PA,16.08751608751609,NA
18062,Lehigh County,PA,72.71557271557272,NA
18210,Carbon County,PA,72.2007722007722,NA
18326,Monroe County,PA,98.45559845559846,NA
18424,Lackawanna County,PA,NA,88.10916179337231
18447,Lackawanna County,PA,75.67567567567568,NA
18612,Luzerne County,PA,56.4993564993565,NA
18640,Luzerne County,PA,NA,35.4775828460039
18651,Luzerne County,PA,NA,84.01559454191033
18702,Luzerne County,PA,6.435006435006435,NA
18834,Susquehanna County,PA,99.87129987129987,NA
18951,Bucks County,PA,50.83655083655083,NA
19001,Montgomery County,PA,NA,48.927875243664715
19004,Montgomery County,PA,81.46718146718148,NA
19014,Delaware County,PA,83.78378378378379,NA
19026,Delaware County,PA,14.543114543114545,NA
19031,Montgomery County,PA,89.7039897039897,NA
19036,Delaware County,PA,52.8957528957529,NA
19038,Montgomery County,PA,32.94723294723295,NA
19060,Delaware County,PA,NA,80.31189083820662
19063,Delaware County,PA,19.305019305019304,NA
19067,Bucks County,PA,49.163449163449165,NA
19081,Delaware County,PA,89.06048906048906,NA
19087,Chester County,PA,49.80694980694981,NA
19096,Montgomery County,PA,NA,40.74074074074074
19111,Philadelphia County,PA,NA,31.189083820662766
19114,Philadelphia County,PA,15.701415701415703,NA
19116,Philadelphia County,PA,25.096525096525095,NA
19119,Philadelphia County,PA,NA,18.323586744639375
19124,Philadelphia County,PA,0.7722007722007722,NA
19131,Philadelphia County,PA,5.534105534105534,NA
19141,Philadelphia County,PA,6.94980694980695,NA
19145,Philadelphia County,PA,6.306306306306306,NA
19148,Philadelphia County,PA,29.858429858429858,NA
19335,Chester County,PA,14.285714285714285,NA
19380,Chester County,PA,10.296010296010296,NA
19422,Montgomery County,PA,51.0939510939511,NA
19454,Montgomery County,PA,41.57014157014157,NA
19475,Chester County,PA,73.74517374517374,NA
19608,Berks County,PA,26.254826254826252,NA
02809,Bristol County,RI,57.65765765765766,NA
02852,Washington County,RI,41.6988416988417,NA
02886,Kent County,RI,29.343629343629345,NA
29138,Saluda County,SC,NA,74.46393762183236
29414,Charleston County,SC,30.115830115830118,26.31578947368421
29418,Charleston County,SC,35.521235521235525,NA
29429,Charleston County,SC,96.52509652509652,NA
29445,Berkeley County,SC,NA,27.485380116959064
29461,Berkeley County,SC,NA,35.08771929824561
29466,Charleston County,SC,NA,52.241715399610136
29607,Greenville County,SC,24.83912483912484,28.26510721247563
29611,Greenville County,SC,40.02574002574003,67.83625730994152
29640,Pickens County,SC,20.077220077220076,NA
29649,Greenwood County,SC,NA,56.72514619883041
29661,Greenville County,SC,NA,82.84600389863547
29681,Greenville County,SC,23.294723294723294,15.39961013645224
29687,Greenville County,SC,NA,22.807017543859647
29693,Oconee County,SC,NA,71.9298245614035
29708,York County,SC,NA,63.35282651072125
29847,Edgefield County,SC,NA,92.78752436647173
37042,Montgomery County,TN,21.10682110682111,NA
37067,Williamson County,TN,NA,69.78557504873294
37069,Williamson County,TN,87.51608751608751,NA
37072,Davidson County,TN,NA,29.0448343079922
37122,Wilson County,TN,25.611325611325615,NA
37217,Davidson County,TN,40.41184041184041,NA
37228,Davidson County,TN,NA,96.29629629629629
37323,Bradley County,TN,38.996138996138995,NA
37334,Lincoln County,TN,33.59073359073359,NA
37385,Monroe County,TN,77.60617760617761,NA
37412,Hamilton County,TN,NA,60.23391812865497
37683,Johnson County,TN,55.08365508365508,NA
37830,Anderson County,TN,71.04247104247105,NA
37865,Sevier County,TN,37.96653796653796,NA
37918,Knox County,TN,NA,21.637426900584796
38016,Shelby County,TN,NA,48.53801169590643
38024,Dyer County,TN,21.62162162162162,NA
38053,Shelby County,TN,NA,54.19103313840156
38060,Fayette County,TN,NA,92.39766081871345
38063,Lauderdale County,TN,NA,66.66666666666666
38075,Hardeman County,TN,NA,99.61013645224172
38112,Shelby County,TN,91.76319176319177,NA
38117,Shelby County,TN,89.57528957528957,NA
38118,Shelby County,TN,15.186615186615187,NA
38119,Shelby County,TN,NA,85.38011695906432
38139,Shelby County,TN,97.03989703989704,87.5243664717349
38372,Hardin County,TN,49.67824967824968,NA
38583,White County,TN,22.779922779922778,NA
75019,Dallas County,TX,NA,54.77582846003899
75028,Denton County,TX,80.6949806949807,NA
75032,Rockwall County,TX,59.45945945945946,NA
75052,Dallas County,TX,13.8996138996139,12.670565302144249
75065,Denton County,TX,83.01158301158301,NA
75074,Collin County,TX,52.76705276705277,NA
75093,Collin County,TX,75.93307593307593,NA
75208,Dallas County,TX,61.003861003861005,NA
75212,Dallas County,TX,73.23037323037323,NA
75214,Dallas County,TX,41.95624195624196,NA
75225,Dallas County,TX,NA,57.30994152046783
75232,Dallas County,TX,43.371943371943374,NA
75440,Rains County,TX,NA,77.77777777777779
75494,Wood County,TX,NA,67.2514619883041
75670,Harrison County,TX,NA,69.98050682261209
75791,Smith County,TX,NA,75.82846003898635
76002,Tarrant County,TX,57.14285714285714,NA
76012,Tarrant County,TX,46.71814671814672,NA
76016,Tarrant County,TX,NA,24.366471734892787
76034,Tarrant County,TX,91.5057915057915,NA
76049,Hood County,TX,NA,19.49317738791423
76051,Tarrant County,TX,NA,37.8167641325536
76063,Tarrant County,TX,NA,13.840155945419102
76137,Tarrant County,TX,18.275418275418275,NA
76140,Tarrant County,TX,35.006435006435005,NA
76179,Tarrant County,TX,26.76962676962677,NA
76182,Tarrant County,TX,NA,37.62183235867446
76549,Bell County,TX,56.37065637065637,NA
76903,Tom Green County,TX,39.897039897039896,NA
77005,Harris County,TX,70.01287001287001,NA
77011,Harris County,TX,80.82368082368082,NA
77025,Harris County,TX,NA,69.00584795321637
77040,Harris County,TX,44.4015444015444,NA
77041,Harris County,TX,60.102960102960104,NA
77042,Harris County,TX,89.31788931788932,NA
77045,Harris County,TX,NA,63.93762183235867
77056,Harris County,TX,73.87387387387388,NA
77070,Harris County,TX,NA,25.146198830409354
77086,Harris County,TX,65.37966537966537,NA
77095,Harris County,TX,14.157014157014158,14.035087719298245
77301,Montgomery County,TX,55.341055341055345,NA
77302,Montgomery County,TX,NA,80.11695906432749
77303,Montgomery County,TX,79.15057915057915,NA
77318,Montgomery County,TX,77.73487773487774,72.51461988304094
77375,Harris County,TX,NA,38.79142300194932
77379,Harris County,TX,NA,11.500974658869396
77382,Montgomery County,TX,NA,61.98830409356725
77396,Harris County,TX,34.49163449163449,NA
77407,Fort Bend County,TX,51.994851994852,NA
77414,Matagorda County,TX,43.371943371943374,NA
77429,Harris County,TX,37.58043758043758,29.434697855750485
77433,Harris County,TX,38.86743886743887,NA
77449,Harris County,TX,9.395109395109396,27.09551656920078
77450,Harris County,TX,35.13513513513514,NA
77461,Fort Bend County,TX,NA,92.00779727095517
77469,Fort Bend County,TX,25.997425997426,NA
77488,Wharton County,TX,65.76576576576578,NA
77515,Brazoria County,TX,NA,34.50292397660819
77546,Galveston County,TX,22.90862290862291,12.475633528265107
77554,Galveston County,TX,90.73359073359073,NA
77573,Galveston County,TX,7.850707850707852,NA
77575,Liberty County,TX,64.47876447876449,NA
77583,Brazoria County,TX,77.99227799227799,NA
77586,Harris County,TX,NA,64.91228070175438
77611,Orange County,TX,75.41827541827541,NA
77642,Jefferson County,TX,61.38996138996139,NA
77662,Orange County,TX,42.985842985842986,NA
77904,Victoria County,TX,36.93693693693694,NA
77963,Goliad County,TX,94.07979407979408,NA
78022,Live Oak County,TX,97.2972972972973,NA
78040,Webb County,TX,39.38223938223938,NA
78046,Webb County,TX,12.741312741312742,NA
78201,Bexar County,TX,56.88545688545689,NA
78209,Bexar County,TX,NA,59.25925925925925
78216,Bexar County,TX,71.94337194337194,NA
78232,Bexar County,TX,NA,44.639376218323584
78237,Bexar County,TX,76.7052767052767,NA
78251,Bexar County,TX,54.95495495495496,NA
78501,Hidalgo County,TX,NA,22.22222222222222
78503,Hidalgo County,TX,68.08236808236808,NA
78521,Cameron County,TX,29.72972972972973,NA
78574,Hidalgo County,TX,33.07593307593308,NA
78577,Hidalgo County,TX,24.71042471042471,60.03898635477582
78602,Bastrop County,TX,NA,63.1578947368421
78643,Llano County,TX,85.32818532818533,NA
78745,Travis County,TX,59.202059202059196,NA
79119,Randall County,TX,NA,84.40545808966861
79407,Lubbock County,TX,46.846846846846844,NA
79424,Lubbock County,TX,NA,10.1364522417154
79603,Taylor County,TX,27.670527670527672,NA
79705,Midland County,TX,NA,36.45224171539961
79707,Midland County,TX,31.145431145431147,NA
79762,Ector County,TX,25.225225225225223,NA
79902,El Paso County,TX,85.71428571428571,NA
79912,El Paso County,TX,73.87387387387388,NA
79934,El Paso County,TX,80.18018018018019,NA
84010,Davis County,UT,NA,59.64912280701754
84041,Davis County,UT,NA,60.81871345029239
84074,Tooele County,UT,3.9897039897039894,NA
84118,Salt Lake County,UT,47.74774774774775,NA
05089,Windsor County,VT,NA,98.635477582846
05156,Windsor County,VT,NA,86.74463937621833
05401,Chittenden County,VT,NA,48.927875243664715
20152,Loudoun County,VA,76.06177606177607,NA
20171,Fairfax County,VA,50.32175032175032,NA
20186,Fauquier County,VA,81.08108108108108,NA
22030,Fairfax County,VA,27.927927927927925,NA
22033,Fairfax County,VA,NA,62.1832358674464
22181,Fairfax County,VA,95.10939510939511,NA
22192,Prince William County,VA,16.344916344916342,NA
22205,Arlington County,VA,NA,86.15984405458089
22207,Arlington County,VA,52.38095238095239,NA
22821,Rockingham County,VA,92.02059202059202,NA
22911,Albemarle County,VA,NA,62.37816764132553
23139,Powhatan County,VA,68.33976833976834,47.953216374269005
23188,James City County,VA,NA,3.313840155945419
23236,Chesterfield County,VA,59.202059202059196,NA
23320,Chesapeake city,VA,24.195624195624195,NA
23322,Chesapeake city,VA,NA,23.781676413255358
23453,Virginia Beach city,VA,NA,38.40155945419103
23462,Virginia Beach city,VA,NA,11.11111111111111
23503,Norfolk city,VA,46.58944658944659,NA
23513,Norfolk city,VA,14.929214929214929,NA
23693,York County,VA,NA,67.05653021442495
23832,Chesterfield County,VA,NA,81.0916179337232
23838,Chesterfield County,VA,NA,73.09941520467837
24083,Botetourt County,VA,NA,97.85575048732943
24401,Staunton city,VA,NA,7.017543859649122
24501,Lynchburg city,VA,25.353925353925355,NA
24502,Lynchburg city,VA,40.7979407979408,NA
98026,Snohomish County,WA,31.66023166023166,NA
98027,King County,WA,62.676962676962674,44.44444444444444
98031,King County,WA,NA,16.17933723196881
98036,Snohomish County,WA,NA,72.90448343079922
98045,King County,WA,NA,93.17738791423001
98052,King County,WA,47.61904761904761,NA
98053,King County,WA,74.13127413127413,NA
98059,King County,WA,73.35907335907336,NA
98074,King County,WA,NA,67.64132553606238
98075,King County,WA,78.76447876447877,NA
98077,King County,WA,92.02059202059202,NA
98092,King County,WA,21.879021879021877,NA
98119,King County,WA,69.36936936936937,NA
98144,King County,WA,61.904761904761905,NA
98178,King County,WA,54.826254826254825,NA
98203,Snohomish County,WA,45.81724581724582,NA
98223,Snohomish County,WA,NA,18.71345029239766
98226,Whatcom County,WA,66.15186615186616,NA
98368,Jefferson County,WA,67.31016731016732,NA
98391,Pierce County,WA,42.471042471042466,NA
98528,Mason County,WA,NA,83.23586744639377
98926,Kittitas County,WA,53.024453024453024,NA
99217,Spokane County,WA,NA,86.35477582846003
99320,Benton County,WA,84.55598455598455,NA
99336,Benton County,WA,NA,1.5594541910331383
99338,Benton County,WA,61.003861003861005,NA
99354,Benton County,WA,NA,33.528265107212476
20009,District of Columbia,DC,28.442728442728445,NA
20017,District of Columbia,DC,NA,65.30214424951268
24910,Greenbrier County,WV,96.65379665379665,NA
26508,Monongalia County,WV,21.235521235521233,5.847953216374268
26525,Preston County,WV,89.83268983268984,NA
26554,Marion County,WV,NA,15.594541910331383
26582,Marion County,WV,NA,90.44834307992203
26753,Mineral County,WV,96.91119691119691,NA
53022,Washington County,WI,64.0926640926641,NA
53092,Ozaukee County,WI,NA,42.30019493177387
53095,Washington County,WI,NA,18.51851851851852
53097,Ozaukee County,WI,NA,93.56725146198829
53132,Milwaukee County,WI,36.42213642213642,NA
53142,Kenosha County,WI,7.979407979407979,NA
53179,Kenosha County,WI,65.12226512226512,NA
53185,Racine County,WI,58.04375804375804,NA
53204,Milwaukee County,WI,5.9202059202059205,NA
53206,Milwaukee County,WI,NA,43.07992202729044
53209,Milwaukee County,WI,2.445302445302445,NA
53211,Milwaukee County,WI,NA,23.586744639376217
53212,Milwaukee County,WI,NA,15.204678362573098
53219,Milwaukee County,WI,14.414414414414415,NA
53223,Milwaukee County,WI,45.68854568854569,NA
53402,Racine County,WI,5.276705276705277,NA
53558,Dane County,WI,NA,79.14230019493176
53821,Crawford County,WI,NA,82.06627680311891
54001,Polk County,WI,50.57915057915058,NA
54162,Brown County,WI,NA,92.20272904483431
54880,Douglas County,WI,12.097812097812097,NA
54952,Winnebago County,WI,NA,39.96101364522417
