ZipCode,county,state,Adult,Retirement,Geriatric
35125,St. Clair County,AL,56.42633228840125,NA,NA
35160,Talladega County,AL,16.30094043887147,NA,NA
35205,Jefferson County,AL,NA,87.17948717948718,NA
35601,Morgan County,AL,12.852664576802509,NA,NA
35803,Madison County,AL,NA,NA,30.542986425339368
36092,Elmore County,AL,83.69905956112854,NA,NA
36104,Montgomery County,AL,NA,73.78917378917379,NA
36116,Montgomery County,AL,NA,49.85754985754986,NA
36571,Mobile County,AL,67.39811912225704,NA,NA
36605,Mobile County,AL,41.692789968652036,NA,NA
36695,Mobile County,AL,NA,33.903133903133906,NA
36804,Lee County,AL,NA,68.94586894586895,NA
99503,Anchorage Municipality,AK,45.76802507836991,71.7948717948718,NA
99669,Kenai Peninsula Borough,AK,NA,96.58119658119658,NA
99801,Juneau City and Borough,AK,NA,65.24216524216524,NA
85017,Maricopa County,AZ,34.48275862068966,NA,NA
85020,Maricopa County,AZ,NA,94.01709401709401,NA
85029,Maricopa County,AZ,NA,NA,48.19004524886878
85032,Maricopa County,AZ,NA,NA,48.64253393665158
85040,Maricopa County,AZ,50.15673981191222,NA,NA
85128,Pinal County,AZ,42.00626959247649,NA,NA
85143,Pinal County,AZ,37.30407523510972,NA,NA
85205,Maricopa County,AZ,NA,28.205128205128204,NA
85260,Maricopa County,AZ,63.322884012539184,NA,21.71945701357466
85301,Maricopa County,AZ,NA,22.79202279202279,NA
85326,Maricopa County,AZ,29.153605015673982,NA,NA
85704,Pima County,AZ,NA,NA,21.49321266968326
85737,Pima County,AZ,62.695924764890286,NA,NA
85750,Pima County,AZ,85.57993730407524,NA,NA
85756,Pima County,AZ,NA,NA,74.43438914027149
85936,Apache County,AZ,NA,NA,99.5475113122172
86301,Yavapai County,AZ,NA,NA,15.610859728506787
86401,Mohave County,AZ,7.836990595611286,NA,NA
86442,Mohave County,AZ,NA,12.250712250712251,NA
71646,Ashley County,AR,NA,85.18518518518519,NA
71667,Lincoln County,AR,NA,NA,67.42081447963801
71671,Bradley County,AR,NA,93.73219373219374,NA
71909,Garland County,AR,NA,35.8974358974359,NA
72120,Pulaski County,AR,NA,19.65811965811966,NA
72335,St. Francis County,AR,NA,NA,80.76923076923077
72404,Craighead County,AR,NA,70.37037037037037,NA
72601,Boone County,AR,NA,34.75783475783476,NA
72958,Scott County,AR,69.59247648902821,NA,NA
90001,Los Angeles County,CA,NA,65.52706552706553,NA
90002,Los Angeles County,CA,NA,NA,95.47511312217195
90016,Los Angeles County,CA,44.5141065830721,NA,NA
90024,Los Angeles County,CA,NA,NA,5.656108597285068
90025,Los Angeles County,CA,NA,NA,8.144796380090497
90032,Los Angeles County,CA,NA,58.4045584045584,NA
90037,Los Angeles County,CA,NA,82.90598290598291,NA
90048,Los Angeles County,CA,NA,60.68376068376068,NA
90241,Los Angeles County,CA,52.66457680250783,NA,NA
90278,Los Angeles County,CA,NA,NA,64.70588235294117
90505,Los Angeles County,CA,58.620689655172406,NA,NA
90606,Los Angeles County,CA,52.03761755485894,NA,NA
90660,Los Angeles County,CA,28.84012539184953,NA,NA
90720,Orange County,CA,92.47648902821317,NA,NA
91311,Los Angeles County,CA,91.22257053291536,NA,NA
91423,Los Angeles County,CA,NA,60.96866096866097,NA
91730,San Bernardino County,CA,NA,NA,34.38914027149321
91740,Los Angeles County,CA,NA,94.30199430199431,NA
91935,San Diego County,CA,NA,NA,93.21266968325791
91941,San Diego County,CA,NA,47.863247863247864,NA
91950,San Diego County,CA,NA,NA,14.027149321266968
92019,San Diego County,CA,84.01253918495298,NA,NA
92037,San Diego County,CA,NA,NA,21.266968325791854
92071,San Diego County,CA,79.9373040752351,NA,NA
92102,San Diego County,CA,NA,NA,89.81900452488688
92104,San Diego County,CA,NA,39.03133903133903,NA
92109,San Diego County,CA,NA,NA,58.144796380090504
92110,San Diego County,CA,57.36677115987461,NA,NA
92173,San Diego County,CA,NA,88.31908831908832,NA
92201,Riverside County,CA,NA,NA,26.69683257918552
92211,Riverside County,CA,NA,NA,22.850678733031675
92308,San Bernardino County,CA,NA,30.484330484330485,NA
92506,Riverside County,CA,NA,43.87464387464387,NA
92603,Orange County,CA,93.10344827586206,NA,NA
92649,Orange County,CA,NA,31.908831908831907,NA
92673,Orange County,CA,64.89028213166145,NA,NA
92806,Orange County,CA,NA,60.3988603988604,NA
92831,Orange County,CA,86.52037617554859,NA,NA
92835,Orange County,CA,NA,NA,81.67420814479638
92870,Orange County,CA,NA,NA,13.800904977375566
93030,Ventura County,CA,NA,NA,29.185520361990953
93240,Kern County,CA,NA,NA,81.22171945701358
93247,Tulare County,CA,NA,NA,93.66515837104072
93257,Tulare County,CA,12.225705329153605,NA,NA
93277,Tulare County,CA,NA,NA,94.34389140271493
93313,Kern County,CA,NA,NA,79.63800904977376
93436,Santa Barbara County,CA,NA,NA,66.9683257918552
93534,Los Angeles County,CA,79.62382445141067,NA,NA
93611,Fresno County,CA,NA,38.17663817663818,NA
93728,Fresno County,CA,NA,NA,90.9502262443439
94024,Santa Clara County,CA,82.44514106583071,NA,NA
94102,San Francisco County,CA,7.210031347962382,NA,93.43891402714932
94110,San Francisco County,CA,NA,NA,22.39819004524887
94114,San Francisco County,CA,NA,53.84615384615385,NA
94521,Contra Costa County,CA,NA,NA,21.945701357466064
94523,Contra Costa County,CA,NA,81.19658119658119,NA
94558,Napa County,CA,NA,55.27065527065527,NA
94560,Alameda County,CA,NA,NA,41.17647058823529
94561,Contra Costa County,CA,40.43887147335423,NA,NA
94568,Alameda County,CA,NA,62.96296296296296,NA
94601,Alameda County,CA,NA,39.88603988603989,NA
94704,Alameda County,CA,NA,98.29059829059828,NA
94941,Marin County,CA,NA,43.3048433048433,NA
94965,Marin County,CA,NA,76.35327635327636,NA
95023,San Benito County,CA,NA,36.75213675213676,NA
95110,Santa Clara County,CA,91.53605015673982,NA,NA
95116,Santa Clara County,CA,90.59561128526646,NA,NA
95117,Santa Clara County,CA,NA,NA,66.06334841628959
95120,Santa Clara County,CA,84.63949843260188,NA,NA
95121,Santa Clara County,CA,NA,56.98005698005698,NA
95127,Santa Clara County,CA,43.260188087774296,NA,NA
95219,San Joaquin County,CA,NA,75.49857549857549,NA
95320,San Joaquin County,CA,70.53291536050156,NA,NA
95350,Stanislaus County,CA,85.8934169278997,15.0997150997151,NA
95356,Stanislaus County,CA,42.94670846394985,NA,NA
95409,Sonoma County,CA,92.16300940438872,NA,NA
95531,Del Norte County,CA,NA,NA,33.257918552036195
95630,Sacramento County,CA,NA,NA,22.624434389140273
95661,Placer County,CA,64.26332288401254,NA,NA
95762,El Dorado County,CA,NA,39.31623931623932,NA
95765,Placer County,CA,NA,NA,98.41628959276018
95816,Sacramento County,CA,NA,67.23646723646723,NA
95817,Sacramento County,CA,76.8025078369906,NA,NA
95820,Sacramento County,CA,NA,NA,51.58371040723983
95826,Sacramento County,CA,NA,55.84045584045584,NA
95838,Sacramento County,CA,36.990595611285265,NA,NA
95843,Sacramento County,CA,89.34169278996865,NA,75.3393665158371
96067,Siskiyou County,CA,NA,NA,87.33031674208145
80015,Arapahoe County,CO,17.55485893416928,NA,NA
80017,Arapahoe County,CO,NA,76.63817663817663,NA
80127,Jefferson County,CO,NA,NA,60.40723981900452
80134,Douglas County,CO,59.56112852664577,NA,NA
80205,Denver County,CO,11.285266457680251,NA,NA
80209,Denver County,CO,NA,NA,71.94570135746606
80219,Denver County,CO,5.329153605015674,NA,NA
80221,Adams County,CO,NA,53.27635327635327,NA
80305,Boulder County,CO,99.05956112852664,NA,NA
80439,Jefferson County,CO,NA,NA,71.26696832579185
80525,Larimer County,CO,15.360501567398119,NA,NA
80538,Larimer County,CO,NA,NA,63.57466063348416
81501,Mesa County,CO,NA,NA,72.39819004524887
81504,Mesa County,CO,NA,NA,66.7420814479638
81601,Garfield County,CO,NA,NA,96.60633484162896
06001,Hartford County,CT,NA,66.0968660968661,NA
06033,Hartford County,CT,56.739811912225704,NA,NA
06082,Hartford County,CT,20.06269592476489,NA,NA
06107,Hartford County,CT,NA,NA,51.35746606334841
06111,Hartford County,CT,39.49843260188088,NA,NA
06112,Hartford County,CT,89.0282131661442,NA,NA
06416,Middlesex County,CT,NA,72.07977207977207,NA
06437,New Haven County,CT,NA,25.64102564102564,NA
06450,New Haven County,CT,NA,NA,24.43438914027149
06460,New Haven County,CT,NA,18.51851851851852,NA
06475,Middlesex County,CT,NA,NA,46.83257918552036
06489,Hartford County,CT,74.92163009404389,NA,6.561085972850679
06511,New Haven County,CT,NA,NA,85.74660633484163
06512,New Haven County,CT,24.45141065830721,NA,70.13574660633483
06514,New Haven County,CT,NA,NA,70.36199095022624
06517,New Haven County,CT,NA,NA,89.14027149321268
06704,New Haven County,CT,23.197492163009404,NA,NA
06708,New Haven County,CT,NA,NA,38.46153846153847
06850,Fairfield County,CT,NA,NA,59.72850678733032
06851,Fairfield County,CT,NA,NA,28.733031674208142
06902,Fairfield County,CT,NA,NA,4.524886877828054
19702,New Castle County,DE,NA,53.561253561253565,NA
19711,New Castle County,DE,31.974921630094045,NA,NA
19734,New Castle County,DE,89.65517241379311,NA,NA
19810,New Castle County,DE,NA,41.31054131054131,NA
19934,Kent County,DE,NA,69.23076923076923,NA
19960,Sussex County,DE,NA,NA,97.05882352941177
19966,Sussex County,DE,NA,10.256410256410255,NA
32148,Putnam County,FL,73.98119122257053,NA,NA
32217,Duval County,FL,NA,47.57834757834758,NA
32308,Leon County,FL,NA,84.33048433048434,NA
32311,Leon County,FL,NA,90.88319088319088,NA
32405,Bay County,FL,27.586206896551722,NA,NA
32507,Escambia County,FL,NA,74.92877492877493,NA
32539,Okaloosa County,FL,NA,61.53846153846154,32.57918552036199
32618,Alachua County,FL,NA,80.91168091168092,90.27149321266968
32653,Alachua County,FL,NA,NA,45.248868778280546
32796,Brevard County,FL,51.09717868338558,NA,NA
32818,Orange County,FL,NA,NA,59.95475113122172
32903,Brevard County,FL,NA,NA,78.50678733031674
32905,Brevard County,FL,NA,NA,31.90045248868778
32909,Brevard County,FL,40.75235109717868,NA,NA
32931,Brevard County,FL,NA,NA,38.009049773755656
32953,Brevard County,FL,NA,NA,14.705882352941178
32962,Indian River County,FL,NA,NA,24.20814479638009
32968,Indian River County,FL,78.68338557993731,NA,NA
33016,Miami-Dade County,FL,53.91849529780565,NA,NA
33050,Monroe County,FL,NA,NA,63.80090497737556
33060,Broward County,FL,37.93103448275862,NA,NA
33142,Miami-Dade County,FL,19.74921630094044,NA,NA
33173,Miami-Dade County,FL,79.3103448275862,NA,NA
33316,Broward County,FL,NA,NA,92.76018099547511
33404,Palm Beach County,FL,NA,85.75498575498575,NA
33410,Palm Beach County,FL,NA,36.46723646723647,NA
33442,Broward County,FL,NA,NA,40.723981900452486
33455,Martin County,FL,NA,23.931623931623932,NA
33483,Palm Beach County,FL,NA,NA,76.696832579185525
33541,Pasco County,FL,NA,NA,19.90950226244344
33556,Hillsborough County,FL,NA,61.82336182336182,NA
33573,Hillsborough County,FL,NA,NA,2.48868778280543
33584,Hillsborough County,FL,54.858934169278996,NA,NA
33611,Hillsborough County,FL,NA,58.97435897435898,NA
33701,Pinellas County,FL,NA,84.9002849002849,NA
33716,Pinellas County,FL,87.7742946708464,NA,NA
33773,Pinellas County,FL,NA,69.51566951566952,NA
33805,Polk County,FL,NA,37.32193732193732,NA
33825,Highlands County,FL,NA,17.094017094017094,NA
33904,Lee County,FL,NA,NA,5.88235294117647
33908,Lee County,FL,NA,NA,0
33912,Lee County,FL,NA,45.58404558404558,NA
34112,Collier County,FL,NA,NA,18.778280542986426
34113,Collier County,FL,NA,NA,70.81447963800905
34205,Manatee County,FL,NA,NA,40.27149321266968
34207,Manatee County,FL,NA,NA,87.78280542986425
34221,Manatee County,FL,NA,30.1994301994302,NA
34243,Manatee County,FL,NA,25.925925925925924,NA
34431,Marion County,FL,NA,NA,82.12669683257919
34476,Marion County,FL,NA,NA,26.69683257918552
34601,Hernando County,FL,NA,NA,42.53393665158371
34604,Hernando County,FL,NA,NA,92.98642533936652
34653,Pasco County,FL,NA,NA,12.669683257918551
34691,Pasco County,FL,NA,NA,90.04524886877829
34711,Lake County,FL,23.510971786833856,NA,NA
34746,Osceola County,FL,37.61755485893417,NA,NA
34748,Lake County,FL,NA,11.396011396011396,NA
34987,St. Lucie County,FL,NA,NA,73.52941176470588
34997,Martin County,FL,NA,9.401709401709402,NA
30093,Gwinnett County,GA,NA,NA,95.24886877828054
30097,Fulton County,GA,NA,NA,41.6289592760181
30143,Pickens County,GA,NA,NA,38.009049773755656
30188,Cherokee County,GA,NA,NA,33.03167420814479
30213,Fulton County,GA,NA,NA,81.90045248868778
30224,Spalding County,GA,NA,NA,61.085972850678736
30260,Clayton County,GA,NA,NA,88.68778280542986
30265,Coweta County,GA,NA,71.22507122507122,NA
30286,Upson County,GA,NA,52.70655270655271,NA
30311,Fulton County,GA,NA,23.36182336182336,NA
30331,Fulton County,GA,17.24137931034483,9.686609686609685,NA
30401,Emanuel County,GA,68.96551724137932,NA,NA
30721,Whitfield County,GA,NA,45.2991452991453,NA
31021,Laurens County,GA,41.06583072100313,NA,NA
31093,Houston County,GA,NA,NA,40.95022624434389
31204,Bibb County,GA,NA,31.339031339031337,NA
31210,Bibb County,GA,60.81504702194357,NA,NA
31501,Ware County,GA,NA,NA,54.07239819004525
31558,Camden County,GA,NA,NA,74.6606334841629
31719,Sumter County,GA,NA,76.92307692307693,NA
31757,Thomas County,GA,70.21943573667711,NA,NA
31788,Colquitt County,GA,NA,NA,85.29411764705883
39823,Early County,GA,NA,74.64387464387464,NA
96707,Honolulu County,HI,NA,NA,54.52488687782805
96734,Honolulu County,HI,NA,44.44444444444444,NA
96746,Kauai County,HI,NA,66.66666666666666,NA
96789,Honolulu County,HI,22.884012539184955,NA,NA
96797,Honolulu County,HI,7.523510971786834,NA,NA
96815,Honolulu County,HI,NA,28.774928774928775,NA
96817,Honolulu County,HI,NA,7.122507122507122,NA
96826,Honolulu County,HI,NA,NA,35.52036199095023
83301,Twin Falls County,ID,NA,NA,45.47511312217195
83333,Blaine County,ID,89.96865203761756,NA,NA
83501,Nez Perce County,ID,14.106583072100312,NA,NA
83607,Canyon County,ID,NA,NA,42.30769230769231
83634,Ada County,ID,69.27899686520375,NA,NA
83638,Valley County,ID,96.86520376175548,NA,NA
83661,Payette County,ID,93.41692789968651,NA,NA
83705,Ada County,ID,NA,NA,41.8552036199095
83709,Ada County,ID,NA,50.427350427350426,NA
83854,Kootenai County,ID,35.42319749216301,NA,NA
60016,Cook County,IL,25.07836990595611,NA,NA
60018,Cook County,IL,NA,NA,74.8868778280543
60025,Cook County,IL,NA,5.413105413105413,NA
60026,Cook County,IL,NA,NA,25.339366515837103
60030,Lake County,IL,NA,NA,14.93212669683258
60031,Lake County,IL,NA,NA,94.11764705882352
60048,Lake County,IL,NA,75.78347578347578,33.710407239819006
60050,McHenry County,IL,NA,NA,14.479638009049776
60053,Cook County,IL,NA,NA,27.828054298642535
60062,Cook County,IL,NA,NA,34.841628959276015
60068,Cook County,IL,NA,NA,19.004524886877828
60083,Lake County,IL,NA,NA,68.32579185520362
60085,Lake County,IL,NA,NA,63.12217194570135
60093,Cook County,IL,NA,78.91737891737893,23.755656108597282
60102,McHenry County,IL,NA,44.15954415954416,NA
60120,Kane County,IL,NA,NA,51.80995475113123
60133,Cook County,IL,83.38557993730407,NA,NA
60140,Kane County,IL,NA,NA,86.87782805429865
60142,McHenry County,IL,NA,NA,1.583710407239819
60169,Cook County,IL,NA,NA,48.86877828054298
60172,DuPage County,IL,61.75548589341693,NA,NA
60194,Cook County,IL,NA,57.83475783475783,NA
60411,Cook County,IL,11.912225705329153,NA,NA
60490,Will County,IL,NA,NA,88.23529411764706
60513,Cook County,IL,NA,NA,60.40723981900452
60532,DuPage County,IL,NA,NA,42.98642533936652
60564,Will County,IL,NA,26.495726495726498,NA
60617,Cook County,IL,NA,NA,1.3574660633484164
60622,Cook County,IL,NA,NA,85.52036199095022
60646,Cook County,IL,48.275862068965516,NA,NA
60649,Cook County,IL,13.479623824451412,NA,NA
60660,Cook County,IL,NA,17.94871794871795,NA
60915,Kankakee County,IL,NA,NA,49.547511312217196
61021,Lee County,IL,NA,NA,2.7149321266968327
61071,Whiteside County,IL,26.332288401253916,NA,NA
61081,Whiteside County,IL,32.288401253918494,NA,NA
61270,Whiteside County,IL,NA,NA,62.66968325791855
61354,LaSalle County,IL,NA,NA,29.411764705882355
61520,Fulton County,IL,69.90595611285266,NA,NA
61548,Woodford County,IL,88.40125391849529,NA,NA
61550,Tazewell County,IL,NA,96.86609686609687,NA
61802,Champaign County,IL,NA,NA,11.085972850678733
62056,Montgomery County,IL,NA,99.14529914529915,NA
62260,St. Clair County,IL,NA,NA,84.38914027149322
62454,Crawford County,IL,NA,NA,58.371040723981906
62526,Macon County,IL,NA,NA,4.298642533936651
62702,Sangamon County,IL,27.27272727272727,NA,36.199095022624434
62704,Sangamon County,IL,46.08150470219436,NA,NA
62864,Jefferson County,IL,NA,NA,35.06787330316742
46120,Putnam County,IN,87.46081504702194,NA,NA
46142,Johnson County,IN,NA,13.675213675213676,NA
46217,Marion County,IN,50.78369905956113,NA,NA
46227,Marion County,IN,8.150470219435736,NA,NA
46229,Marion County,IN,NA,36.182336182336186,NA
46310,Jasper County,IN,NA,NA,77.37556561085974
46312,Lake County,IN,15.987460815047022,NA,NA
46321,Lake County,IN,NA,NA,60.18099547511312
46342,Lake County,IN,NA,14.245014245014245,NA
46408,Lake County,IN,84.32601880877742,NA,NA
46410,Lake County,IN,NA,NA,23.52941176470588
46530,St. Joseph County,IN,NA,NA,62.44343891402715
46544,St. Joseph County,IN,NA,NA,39.59276018099548
46567,Kosciusko County,IN,93.73040752351098,NA,NA
46619,St. Joseph County,IN,78.36990595611285,NA,NA
46706,DeKalb County,IN,45.45454545454545,NA,NA
46805,Allen County,IN,NA,50.712250712250714,NA
46815,Allen County,IN,NA,NA,17.194570135746606
46953,Grant County,IN,10.031347962382444,NA,NA
47710,Vanderburgh County,IN,NA,56.69515669515669,44.57013574660634
47712,Vanderburgh County,IN,NA,83.76068376068376,NA
47714,Vanderburgh County,IN,NA,20.7977207977208,NA
47715,Vanderburgh County,IN,NA,NA,11.312217194570136
47904,Tippecanoe County,IN,88.08777429467085,NA,NA
47909,Tippecanoe County,IN,41.06583072100313,NA,NA
47959,White County,IN,NA,100,NA
50014,Story County,IA,NA,NA,59.04977375565611
50266,Polk County,IA,NA,78.63247863247864,NA
50273,Madison County,IA,NA,93.44729344729345,NA
50311,Polk County,IA,NA,NA,98.19004524886877
50325,Polk County,IA,NA,86.6096866096866,NA
50401,Cerro Gordo County,IA,42.31974921630094,NA,0.6787330316742082
51503,Pottawattamie County,IA,NA,NA,25.1131221719457
52001,Dubuque County,IA,NA,74.07407407407408,NA
52240,Johnson County,IA,NA,NA,26.47058823529412
52302,Linn County,IA,NA,80.62678062678063,NA
52501,Wapello County,IA,13.793103448275861,NA,NA
52730,Clinton County,IA,90.9090909090909,NA,NA
52732,Clinton County,IA,22.25705329153605,NA,NA
52804,Scott County,IA,46.39498432601881,NA,NA
66030,Johnson County,KS,53.29153605015674,NA,NA
66043,Leavenworth County,KS,94.98432601880877,NA,NA
66441,Geary County,KS,NA,63.24786324786324,NA
66614,Shawnee County,KS,NA,69.8005698005698,NA
66749,Allen County,KS,NA,NA,83.2579185520362
67601,Ellis County,KS,NA,NA,36.425339366515836
67801,Ford County,KS,NA,NA,91.6289592760181
40004,Nelson County,KY,49.843260188087775,NA,NA
40322,Menifee County,KY,NA,99.43019943019942,NA
40351,Rowan County,KY,22.570532915360502,NA,NA
40409,Rockcastle County,KY,99.37304075235109,NA,NA
40456,Rockcastle County,KY,92.78996865203762,NA,NA
40509,Fayette County,KY,NA,NA,40.27149321266968
40701,Whitley County,KY,9.090909090909092,NA,NA
41042,Boone County,KY,NA,6.837606837606838,NA
41339,Breathitt County,KY,NA,NA,88.46153846153845
41501,Pike County,KY,NA,NA,30.316742081447963
42127,Barren County,KY,NA,77.77777777777779,NA
42240,Christian County,KY,NA,NA,23.076923076923077
42301,Daviess County,KY,NA,NA,14.25339366515837
70003,Jefferson Parish,LA,NA,NA,2.941176470588235
70058,Jefferson Parish,LA,2.8213166144200628,NA,NA
70065,Jefferson Parish,LA,NA,3.133903133903134,NA
70068,St. John the Baptist Parish,LA,NA,NA,79.41176470588235
70115,Orleans Parish,LA,NA,24.786324786324787,NA
70119,Orleans Parish,LA,5.015673981191222,7.4074074074074066,NA
70126,Orleans Parish,LA,NA,23.076923076923077,NA
70301,Lafourche Parish,LA,NA,9.971509971509972,NA
70403,Tangipahoa Parish,LA,NA,63.817663817663814,NA
70454,Tangipahoa Parish,LA,NA,10.826210826210826,NA
70634,Beauregard Parish,LA,NA,NA,71.04072398190046
70737,Ascension Parish,LA,6.896551724137931,NA,NA
70754,Livingston Parish,LA,NA,80.05698005698005,NA
70764,Iberville Parish,LA,36.05015673981191,NA,NA
70815,East Baton Rouge Parish,LA,NA,NA,36.87782805429865
71322,Avoyelles Parish,LA,100,NA,NA
03908,York County,ME,NA,57.26495726495726,NA
04015,Cumberland County,ME,98.7460815047022,NA,NA
04073,York County,ME,NA,NA,12.44343891402715
04074,Cumberland County,ME,65.20376175548589,NA,NA
04240,Androscoggin County,ME,2.19435736677116,NA,NA
04268,Oxford County,ME,NA,81.76638176638177,NA
04330,Kennebec County,ME,NA,6.552706552706552,NA
04412,Penobscot County,ME,NA,NA,26.244343891402718
04416,Hancock County,ME,NA,NA,89.36651583710407
04609,Hancock County,ME,NA,NA,79.86425339366517
04730,Aroostook County,ME,NA,NA,86.65158371040724
04930,Penobscot County,ME,83.07210031347962,NA,NA
20735,Prince George's County,MD,NA,86.32478632478633,NA
20832,Montgomery County,MD,NA,77.49287749287748,NA
20866,Montgomery County,MD,NA,98.86039886039886,NA
20904,Montgomery County,MD,NA,NA,19.230769230769234
21030,Baltimore County,MD,NA,NA,69.23076923076923
21061,Anne Arundel County,MD,NA,NA,21.040723981900452
21078,Harford County,MD,NA,NA,64.47963800904978
21114,Anne Arundel County,MD,NA,NA,86.42533936651584
21122,Anne Arundel County,MD,NA,NA,25.565610859728505
21146,Anne Arundel County,MD,NA,76.06837606837607,NA
21208,Baltimore County,MD,NA,NA,66.289592760181
21215,Baltimore city,MD,33.22884012539185,NA,NA
21221,Baltimore County,MD,NA,NA,28.28054298642534
21229,Baltimore city,MD,NA,NA,20.361990950226243
21234,Baltimore County,MD,NA,NA,3.8461538461538463
21236,Baltimore County,MD,NA,42.16524216524217,NA
21244,Baltimore County,MD,NA,90.31339031339031,NA
01020,Hampden County,MA,NA,NA,10.633484162895927
01085,Hampden County,MA,NA,40.17094017094017,NA
01089,Hampden County,MA,NA,32.193732193732195,NA
01201,Berkshire County,MA,NA,0.2849002849002849,NA
01238,Berkshire County,MA,NA,NA,76.92307692307693
01301,Franklin County,MA,NA,NA,47.737556561085974
01331,Worcester County,MA,55.4858934169279,NA,NA
01510,Worcester County,MA,NA,12.82051282051282,NA
01550,Worcester County,MA,NA,3.9886039886039883,NA
01604,Worcester County,MA,47.64890282131661,2.564102564102564,NA
01605,Worcester County,MA,1.5673981191222568,NA,NA
01702,Middlesex County,MA,NA,5.698005698005698,NA
01742,Middlesex County,MA,NA,68.66096866096866,NA
01752,Middlesex County,MA,3.761755485893417,NA,NA
01778,Middlesex County,MA,NA,NA,59.276018099547514
01801,Middlesex County,MA,1.2539184952978055,NA,75.7918552036199
01810,Essex County,MA,NA,19.08831908831909,NA
01852,Middlesex County,MA,0,NA,NA
01879,Middlesex County,MA,NA,NA,62.89592760180995
01887,Middlesex County,MA,NA,NA,90.9502262443439
01906,Essex County,MA,NA,NA,54.29864253393665
01930,Essex County,MA,NA,NA,33.4841628959276
01949,Essex County,MA,NA,64.38746438746439,NA
01960,Essex County,MA,NA,0.5698005698005698,7.6923076923076925
02043,Plymouth County,MA,38.557993730407524,NA,NA
02050,Plymouth County,MA,51.724137931034484,NA,65.61085972850678
02052,Norfolk County,MA,61.442006269592476,NA,NA
02066,Plymouth County,MA,NA,45.58404558404558,NA
02127,Suffolk County,MA,NA,NA,9.95475113122172
02130,Suffolk County,MA,NA,1.7094017094017095,NA
02135,Suffolk County,MA,NA,11.68091168091168,NA
02138,Middlesex County,MA,10.658307210031348,NA,NA
02144,Middlesex County,MA,NA,NA,53.16742081447964
02150,Suffolk County,MA,NA,1.4245014245014245,NA
02151,Suffolk County,MA,NA,0,NA
02169,Norfolk County,MA,67.7115987460815,NA,NA
02176,Middlesex County,MA,49.21630094043887,NA,NA
02180,Middlesex County,MA,NA,82.05128205128204,NA
02351,Plymouth County,MA,NA,NA,79.18552036199095
02360,Plymouth County,MA,NA,NA,82.80542986425338
02420,Middlesex County,MA,NA,NA,76.2443438914027
02446,Norfolk County,MA,NA,NA,6.787330316742081
02451,Middlesex County,MA,NA,21.082621082621085,NA
02465,Middlesex County,MA,NA,49.287749287749286,NA
02474,Middlesex County,MA,12.539184952978054,NA,NA
02476,Middlesex County,MA,NA,NA,73.98190045248869
02482,Norfolk County,MA,NA,NA,77.60180995475113
02557,Dukes County,MA,NA,NA,100
02571,Plymouth County,MA,NA,NA,94.79638009049773
02632,Barnstable County,MA,NA,NA,35.74660633484163
02648,Barnstable County,MA,NA,NA,61.085972850678736
02653,Barnstable County,MA,NA,NA,49.547511312217196
02703,Bristol County,MA,0.6269592476489028,NA,NA
02747,Bristol County,MA,NA,NA,65.38461538461539
02770,Plymouth County,MA,NA,92.5925925925926,NA
48009,Oakland County,MI,NA,NA,52.488687782805435
48030,Oakland County,MI,NA,NA,83.0316742081448
48034,Oakland County,MI,36.36363636363637,NA,NA
48038,Macomb County,MI,NA,NA,46.60633484162896
48047,Macomb County,MI,NA,15.384615384615385,NA
48059,St. Clair County,MI,65.51724137931035,NA,NA
48062,Macomb County,MI,80.87774294670847,NA,NA
48075,Oakland County,MI,32.9153605015674,NA,NA
48080,Macomb County,MI,NA,14.814814814814813,NA
48083,Oakland County,MI,NA,NA,69.68325791855203
48105,Washtenaw County,MI,NA,49.572649572649574,38.91402714932127
48135,Wayne County,MI,24.137931034482758,NA,NA
48152,Wayne County,MI,NA,NA,7.239819004524888
48154,Wayne County,MI,NA,7.977207977207977,NA
48162,Monroe County,MI,NA,NA,13.122171945701359
48182,Monroe County,MI,60.50156739811913,NA,NA
48186,Wayne County,MI,NA,13.105413105413104,NA
48192,Wayne County,MI,18.181818181818183,NA,NA
48219,Wayne County,MI,5.6426332288401255,NA,11.990950226244344
48224,Wayne County,MI,2.507836990595611,NA,NA
48225,Wayne County,MI,NA,63.53276353276354,NA
48235,Wayne County,MI,NA,94.87179487179486,NA
48237,Oakland County,MI,NA,54.41595441595442,NA
48306,Oakland County,MI,NA,NA,40.04524886877828
48310,Macomb County,MI,NA,NA,17.647058823529413
48314,Macomb County,MI,NA,NA,23.30316742081448
48322,Oakland County,MI,NA,NA,3.3936651583710407
48336,Oakland County,MI,34.79623824451411,NA,NA
48353,Livingston County,MI,NA,NA,96.38009049773756
48375,Oakland County,MI,NA,52.13675213675214,NA
48433,Genesee County,MI,NA,23.646723646723647,NA
48453,Sanilac County,MI,76.48902821316614,NA,NA
48503,Genesee County,MI,NA,22.22222222222222,NA
48532,Genesee County,MI,NA,NA,49.321266968325794
48843,Livingston County,MI,10.9717868338558,NA,NA
48879,Clinton County,MI,NA,NA,30.09049773755656
48910,Ingham County,MI,NA,NA,32.80542986425339
49022,Berrien County,MI,NA,NA,16.7420814479638
49031,Cass County,MI,NA,79.2022792022792,NA
49093,St. Joseph County,MI,61.75548589341693,NA,NA
49265,Lenawee County,MI,NA,NA,98.86877828054298
49286,Lenawee County,MI,NA,48.148148148148145,NA
49327,Newaygo County,MI,NA,72.93447293447294,NA
49404,Ottawa County,MI,NA,88.6039886039886,NA
49420,Oceana County,MI,NA,NA,95.70135746606336
49421,Oceana County,MI,NA,NA,85.97285067873304
49423,Ottawa County,MI,NA,NA,4.751131221719457
49449,Oceana County,MI,NA,89.74358974358975,NA
49503,Kent County,MI,57.68025078369906,NA,NA
49505,Kent County,MI,NA,NA,16.289592760180994
49507,Kent County,MI,5.956112852664576,NA,NA
49651,Missaukee County,MI,NA,NA,84.16289592760181
49685,Grand Traverse County,MI,76.17554858934169,NA,NA
49686,Grand Traverse County,MI,NA,28.49002849002849,NA
49841,Marquette County,MI,NA,88.88888888888889,NA
49862,Alger County,MI,NA,NA,87.10407239819004
55104,Ramsey County,MN,63.00940438871473,NA,NA
55106,Ramsey County,MN,NA,27.350427350427353,NA
55123,Dakota County,MN,NA,73.50427350427351,NA
55417,Hennepin County,MN,47.96238244514107,NA,NA
55425,Hennepin County,MN,70.84639498432603,NA,NA
55427,Hennepin County,MN,90.28213166144201,NA,NA
55442,Hennepin County,MN,NA,NA,82.57918552036199
55447,Hennepin County,MN,71.15987460815047,NA,NA
55448,Anoka County,MN,NA,NA,57.01357466063348
55744,Itasca County,MN,NA,NA,4.97737556561086
55746,St. Louis County,MN,NA,35.04273504273504,NA
55792,St. Louis County,MN,NA,64.1025641025641,NA
55901,Olmsted County,MN,NA,61.25356125356125,NA
56001,Blue Earth County,MN,NA,NA,77.14932126696833
56329,Benton County,MN,85.26645768025078,NA,NA
56345,Morrison County,MN,NA,NA,11.76470588235294
56377,Stearns County,MN,NA,84.61538461538461,NA
56401,Crow Wing County,MN,NA,32.47863247863248,NA
56501,Becker County,MN,NA,NA,16.063348416289593
56560,Clay County,MN,NA,NA,0.22624434389140274
56601,Beltrami County,MN,NA,NA,0.904977375565611
56621,Clearwater County,MN,NA,NA,67.64705882352942
56716,Polk County,MN,NA,96.29629629629629,NA
56721,Polk County,MN,78.0564263322884,NA,NA
38834,Alcorn County,MS,NA,26.780626780626783,NA
39051,Leake County,MS,NA,NA,90.49773755656109
39208,Rankin County,MS,NA,NA,25.791855203619914
39339,Winston County,MS,NA,NA,64.93212669683258
39401,Forrest County,MS,NA,NA,30.76923076923077
39466,Pearl River County,MS,NA,NA,17.873303167420815
39531,Harrison County,MS,NA,45.01424501424501,NA
39560,Harrison County,MS,NA,NA,12.895927601809957
39730,Monroe County,MS,NA,64.67236467236467,NA
63020,Jefferson County,MO,NA,NA,50.678733031674206
63028,Jefferson County,MO,NA,24.501424501424502,NA
63121,St. Louis County,MO,73.35423197492163,NA,NA
63124,St. Louis County,MO,NA,NA,31.447963800904976
63127,St. Louis County,MO,NA,NA,61.76470588235294
63131,St. Louis County,MO,97.17868338557993,NA,NA
63132,St. Louis County,MO,NA,80.34188034188034,NA
63139,St. Louis city,MO,NA,NA,91.4027149321267
63401,Marion County,MO,NA,50.997150997150996,NA
63640,St. Francois County,MO,NA,38.46153846153847,NA
63841,Stoddard County,MO,49.52978056426332,NA,NA
64024,Clay County,MO,NA,NA,52.03619909502263
64050,Jackson County,MO,NA,19.65811965811966,NA
64055,Jackson County,MO,NA,8.547008547008547,NA
64116,Clay County,MO,NA,NA,50
64119,Clay County,MO,8.77742946708464,NA,NA
64132,Jackson County,MO,NA,NA,91.8552036199095
64134,Jackson County,MO,11.598746081504702,NA,NA
64501,Buchanan County,MO,NA,91.73789173789174,NA
64836,Jasper County,MO,18.808777429467085,NA,NA
65251,Callaway County,MO,NA,54.700854700854705,NA
65605,Lawrence County,MO,NA,NA,98.64253393665159
65781,Greene County,MO,NA,NA,97.28506787330316
59047,Park County,MT,73.04075235109718,NA,NA
59404,Cascade County,MT,NA,42.73504273504273,NA
59601,Lewis and Clark County,MT,NA,NA,20.81447963800905
68007,Douglas County,NE,NA,NA,97.73755656108597
68028,Sarpy County,NE,NA,93.16239316239316,NA
68105,Douglas County,NE,66.4576802507837,NA,NA
68123,Sarpy County,NE,NA,NA,86.19909502262443
68467,York County,NE,NA,NA,78.05429864253394
68901,Adams County,NE,NA,NA,67.19457013574662
69001,Red Willow County,NE,NA,87.74928774928775,NA
89403,Lyon County,NV,38.87147335423197,NA,NA
89431,Washoe County,NV,NA,NA,24.8868778280543
89521,Washoe County,NV,NA,NA,94.57013574660633
03054,Hillsborough County,NH,33.85579937304075,NA,NA
03060,Hillsborough County,NH,6.583072100313479,NA,NA
03064,Hillsborough County,NH,30.407523510971785,NA,NA
03102,Hillsborough County,NH,NA,16.80911680911681,NA
03246,Belknap County,NH,NA,NA,17.420814479638008
03820,Strafford County,NH,NA,NA,9.728506787330318
07006,Essex County,NJ,NA,49.002849002849004,NA
07024,Bergen County,NJ,NA,NA,8.597285067873303
07045,Morris County,NJ,66.77115987460816,NA,NA
07066,Union County,NJ,NA,NA,47.511312217194565
07070,Bergen County,NJ,NA,79.48717948717949,NA
07071,Bergen County,NJ,64.57680250783699,NA,NA
07073,Bergen County,NJ,NA,89.17378917378917,NA
07110,Essex County,NJ,NA,56.12535612535613,NA
07424,Passaic County,NJ,NA,54.131054131054135,NA
07444,Morris County,NJ,NA,86.03988603988604,NA
07463,Bergen County,NJ,NA,NA,96.15384615384616
07621,Bergen County,NJ,NA,NA,43.43891402714932
07666,Bergen County,NJ,13.166144200626958,NA,NA
07727,Monmouth County,NJ,74.29467084639498,NA,NA
07728,Monmouth County,NJ,14.733542319749215,NA,3.167420814479638
07730,Monmouth County,NJ,NA,NA,66.51583710407239
07836,Morris County,NJ,NA,87.74928774928775,NA
07853,Morris County,NJ,91.84952978056427,NA,NA
07866,Morris County,NJ,NA,NA,85.06787330316742
07869,Morris County,NJ,NA,NA,56.10859728506787
07901,Union County,NJ,NA,NA,75.56561085972851
07960,Morris County,NJ,NA,NA,20.13574660633484
08003,Camden County,NJ,NA,NA,18.099547511312217
08005,Ocean County,NJ,18.495297805642632,NA,NA
08057,Burlington County,NJ,NA,NA,58.82352941176471
08075,Burlington County,NJ,NA,NA,62.217194570135746
08204,Cape May County,NJ,52.35109717868338,NA,NA
08234,Atlantic County,NJ,39.811912225705335,14.529914529914532,NA
08360,Cumberland County,NJ,NA,NA,18.32579185520362
08527,Ocean County,NJ,NA,6.267806267806268,NA
08618,Mercer County,NJ,NA,NA,34.61538461538461
08724,Ocean County,NJ,NA,NA,15.384615384615385
08753,Ocean County,NJ,3.1347962382445136,NA,NA
08758,Ocean County,NJ,NA,67.52136752136752,NA
08857,Middlesex County,NJ,NA,17.37891737891738,NA
87420,San Juan County,NM,31.03448275862069,NA,NA
88030,Luna County,NM,NA,NA,57.466063348416284
88101,Curry County,NM,NA,NA,5.203619909502263
10016,New York County,NY,NA,77.77777777777779,NA
10025,New York County,NY,NA,NA,1.809954751131222
10028,New York County,NY,78.99686520376176,NA,NA
10036,New York County,NY,NA,NA,54.97737556561086
10039,New York County,NY,31.661442006269592,NA,NA
10309,Richmond County,NY,59.24764890282132,NA,NA
10314,Richmond County,NY,NA,4.5584045584045585,NA
10453,Bronx County,NY,NA,1.1396011396011396,NA
10456,Bronx County,NY,NA,3.418803418803419,NA
10458,Bronx County,NY,NA,NA,5.429864253393665
10473,Bronx County,NY,NA,5.982905982905983,NA
10475,Bronx County,NY,25.391849529780565,NA,NA
10538,Westchester County,NY,NA,NA,69.90950226244344
10583,Westchester County,NY,NA,NA,28.054298642533936
10589,Westchester County,NY,NA,NA,47.963800904977376
10591,Westchester County,NY,NA,NA,61.990950226244344
11216,Kings County,NY,NA,8.262108262108262,NA
11219,Kings County,NY,NA,54.98575498575499,NA
11375,Queens County,NY,47.02194357366771,NA,NA
11419,Queens County,NY,NA,31.054131054131055,NA
11520,Nassau County,NY,NA,NA,37.782805429864254
11530,Nassau County,NY,NA,92.3076923076923,NA
11704,Suffolk County,NY,56.112852664576806,NA,26.69683257918552
11753,Nassau County,NY,96.23824451410658,NA,NA
11787,Suffolk County,NY,NA,NA,28.50678733031674
11790,Suffolk County,NY,NA,NA,87.55656108597285
12078,Fulton County,NY,NA,NA,7.918552036199094
12159,Albany County,NY,NA,NA,71.71945701357465
12180,Rensselaer County,NY,NA,NA,37.33031674208145
12188,Saratoga County,NY,NA,NA,78.95927601809954
12203,Albany County,NY,NA,41.88034188034188,NA
12206,Albany County,NY,21.003134796238246,NA,NA
12302,Schenectady County,NY,43.573667711598745,25.071225071225072,NA
12307,Schenectady County,NY,NA,NA,99.77375565610859
12563,Putnam County,NY,NA,NA,90.72398190045249
12801,Warren County,NY,NA,NA,88.00904977375565
12804,Warren County,NY,33.5423197492163,NA,NA
12901,Clinton County,NY,NA,4.843304843304843,NA
12946,Essex County,NY,NA,58.68945868945868,NA
12983,Franklin County,NY,NA,NA,95.02262443438913
13021,Cayuga County,NY,NA,1.9943019943019942,NA
13035,Madison County,NY,NA,71.50997150997152,NA
13126,Oswego County,NY,38.24451410658307,NA,9.502262443438914
13165,Seneca County,NY,NA,56.41025641025641,NA
13440,Oneida County,NY,1.8808777429467085,NA,NA
13733,Chenango County,NY,NA,60.11396011396012,NA
13760,Broome County,NY,0.9404388714733543,NA,42.081447963800905
13790,Broome County,NY,NA,8.831908831908832,NA
13850,Broome County,NY,NA,NA,45.022624434389144
13905,Broome County,NY,NA,NA,19.683257918552037
14058,Genesee County,NY,96.55172413793103,NA,NA
14072,Erie County,NY,NA,66.95156695156696,NA
14210,Erie County,NY,80.25078369905955,NA,NA
14211,Erie County,NY,NA,17.663817663817664,NA
14437,Livingston County,NY,NA,NA,64.93212669683258
14489,Wayne County,NY,34.1692789968652,NA,NA
14513,Wayne County,NY,NA,NA,97.51131221719457
14526,Monroe County,NY,15.047021943573668,NA,NA
14618,Monroe County,NY,NA,NA,67.87330316742081
14624,Monroe County,NY,3.4482758620689653,NA,NA
14760,Cattaraugus County,NY,NA,13.96011396011396,NA
14787,Chautauqua County,NY,NA,95.15669515669516,NA
14830,Steuben County,NY,24.76489028213166,NA,NA
27030,Surry County,NC,NA,NA,9.276018099547512
27040,Forsyth County,NC,NA,31.62393162393162,NA
27106,Forsyth County,NC,NA,NA,0.4524886877828055
27253,Alamance County,NC,NA,19.37321937321937,NA
27455,Guilford County,NC,73.66771159874608,NA,NA
27529,Wake County,NC,NA,17.94871794871795,NA
27537,Vance County,NC,NA,NA,44.11764705882353
27587,Wake County,NC,NA,91.45299145299145,NA
27589,Warren County,NC,NA,NA,72.62443438914026
27597,Wake County,NC,48.90282131661442,NA,NA
27609,Wake County,NC,NA,65.8119658119658,NA
27707,Durham County,NC,NA,NA,53.84615384615385
27893,Wilson County,NC,NA,24.216524216524217,NA
28025,Cabarrus County,NC,8.463949843260188,NA,NA
28036,Mecklenburg County,NC,NA,NA,57.23981900452488
28080,Lincoln County,NC,99.68652037617555,NA,NA
28129,Stanly County,NC,NA,NA,80.09049773755656
28134,Mecklenburg County,NC,NA,95.72649572649573,NA
28146,Rowan County,NC,35.10971786833856,NA,NA
28173,Union County,NC,NA,NA,39.81900452488688
28205,Mecklenburg County,NC,NA,29.34472934472934,NA
28211,Mecklenburg County,NC,95.61128526645768,NA,NA
28216,Mecklenburg County,NC,NA,NA,24.660633484162897
28226,Mecklenburg County,NC,NA,NA,32.35294117647059
28273,Mecklenburg County,NC,NA,NA,73.303167420814475
28314,Cumberland County,NC,74.60815047021944,NA,NA
28352,Scotland County,NC,26.01880877742947,NA,NA
28374,Moore County,NC,NA,51.85185185185185,46.15384615384615
28387,Moore County,NC,NA,NA,45.70135746606335
28412,New Hanover County,NC,72.10031347962382,NA,NA
28612,Burke County,NC,62.38244514106584,NA,NA
28630,Caldwell County,NC,NA,70.65527065527066,NA
28779,Jackson County,NC,NA,NA,56.334841628959275
58201,Grand Forks County,ND,NA,NA,15.837104072398189
58501,Burleigh County,ND,NA,NA,7.013574660633484
58504,Burleigh County,ND,NA,66.38176638176638,NA
58554,Morton County,ND,NA,30.76923076923077,NA
43021,Delaware County,OH,NA,79.77207977207978,NA
43207,Franklin County,OH,NA,NA,16.515837104072396
43228,Franklin County,OH,18.808777429467085,NA,NA
43230,Franklin County,OH,NA,NA,59.502262443438916
43512,Defiance County,OH,4.38871473354232,NA,NA
43543,Williams County,OH,NA,55.55555555555556,NA
43566,Lucas County,OH,NA,NA,77.82805429864254
43567,Fulton County,OH,NA,NA,63.348416289592755
43606,Lucas County,OH,16.614420062695924,NA,NA
43616,Lucas County,OH,NA,12.535612535612536,NA
43701,Muskingum County,OH,0.3134796238244514,NA,NA
43906,Belmont County,OH,NA,NA,81.44796380090497
43912,Belmont County,OH,NA,50.142450142450144,NA
44004,Ashtabula County,OH,NA,NA,13.34841628959276
44011,Lorain County,OH,NA,27.92022792022792,NA
44017,Cuyahoga County,OH,NA,67.80626780626781,NA
44022,Cuyahoga County,OH,NA,NA,55.42986425339367
44023,Geauga County,OH,NA,NA,92.0814479638009
44030,Ashtabula County,OH,NA,15.954415954415953,NA
44044,Lorain County,OH,NA,40.45584045584046,NA
44060,Lake County,OH,NA,0.8547008547008548,NA
44087,Summit County,OH,81.50470219435736,NA,NA
44089,Erie County,OH,NA,11.11111111111111,NA
44109,Cuyahoga County,OH,NA,NA,51.13122171945701
44129,Cuyahoga County,OH,NA,NA,16.968325791855204
44133,Cuyahoga County,OH,NA,NA,41.40271493212669
44136,Cuyahoga County,OH,NA,NA,11.312217194570136
44142,Cuyahoga County,OH,60.18808777429467,NA,NA
44146,Cuyahoga County,OH,NA,16.524216524216524,NA
44305,Summit County,OH,44.5141065830721,NA,NA
44406,Mahoning County,OH,NA,NA,22.171945701357465
44410,Trumbull County,OH,NA,27.635327635327634,NA
44512,Mahoning County,OH,NA,47.293447293447294,NA
44720,Stark County,OH,NA,NA,10.85972850678733
44820,Crawford County,OH,53.60501567398119,NA,NA
44857,Huron County,OH,NA,7.6923076923076925,88.91402714932126
44870,Erie County,OH,29.46708463949843,2.849002849002849,NA
45036,Warren County,OH,21.316614420062695,NA,NA
45424,Montgomery County,OH,NA,NA,33.93665158371041
45640,Jackson County,OH,NA,35.61253561253561,NA
45648,Scioto County,OH,NA,NA,31.674208144796378
45669,Lawrence County,OH,17.86833855799373,NA,NA
45693,Adams County,OH,NA,83.47578347578347,NA
45805,Allen County,OH,NA,NA,28.95927601809955
73064,Canadian County,OK,75.23510971786834,NA,NA
73119,Oklahoma County,OK,23.824451410658305,NA,NA
73505,Comanche County,OK,NA,18.803418803418804,47.28506787330316
73601,Custer County,OK,NA,NA,70.58823529411765
73701,Garfield County,OK,NA,NA,26.018099547511316
74008,Tulsa County,OK,NA,NA,50.90497737556561
74012,Tulsa County,OK,NA,13.390313390313391,NA
74055,Tulsa County,OK,NA,NA,68.77828054298642
74105,Tulsa County,OK,39.18495297805642,NA,NA
74145,Tulsa County,OK,NA,62.39316239316239,NA
74403,Muskogee County,OK,NA,77.20797720797721,NA
74604,Kay County,OK,NA,59.25925925925925,NA
74948,Sequoyah County,OK,NA,NA,68.55203619909503
74960,Adair County,OK,26.959247648902824,NA,NA
97005,Washington County,OR,46.70846394984326,NA,NA
97030,Multnomah County,OR,NA,20.22792022792023,NA
97080,Multnomah County,OR,NA,21.937321937321936,NA
97103,Clatsop County,OR,NA,47.008547008547005,95.92760180995475
97123,Washington County,OR,NA,16.23931623931624,NA
97221,Multnomah County,OR,NA,81.48148148148148,NA
97229,Washington County,OR,36.677115987460816,NA,NA
97305,Marion County,OR,26.332288401253916,NA,NA
97392,Marion County,OR,NA,85.47008547008546,NA
97402,Lane County,OR,NA,32.763532763532766,NA
97446,Linn County,OR,95.29780564263322,NA,NA
97479,Douglas County,OR,NA,NA,45.92760180995475
97501,Jackson County,OR,NA,43.58974358974359,NA
97504,Jackson County,OR,NA,NA,3.619909502262444
97526,Josephine County,OR,25.705329153605017,NA,NA
97720,Harney County,OR,NA,NA,92.3076923076923
15001,Beaver County,PA,51.410658307210035,NA,NA
15071,Allegheny County,PA,NA,NA,55.203619909502265
15108,Allegheny County,PA,NA,NA,7.46606334841629
15206,Allegheny County,PA,16.927899686520377,NA,NA
15211,Allegheny County,PA,86.20689655172413,NA,NA
15236,Allegheny County,PA,NA,33.04843304843305,NA
15401,Fayette County,PA,NA,NA,6.108597285067873
15644,Westmoreland County,PA,81.19122257053291,NA,NA
15701,Indiana County,PA,21.630094043887148,NA,NA
15904,Cambria County,PA,59.87460815047022,NA,NA
16127,Mercer County,PA,68.02507836990596,NA,NA
16214,Clarion County,PA,NA,NA,72.17194570135746
16508,Erie County,PA,50.470219435736674,NA,NA
16651,Clearfield County,PA,NA,99.71509971509973,NA
16735,McKean County,PA,NA,NA,54.75113122171946
16947,Bradford County,PA,NA,NA,84.84162895927602
16950,Tioga County,PA,NA,98.57549857549857,NA
17011,Cumberland County,PA,NA,21.367521367521366,NA
17061,Dauphin County,PA,81.81818181818183,NA,NA
17084,Mifflin County,PA,88.71473354231975,NA,NA
17111,Dauphin County,PA,NA,NA,82.35294117647058
17540,Lancaster County,PA,98.43260188087774,NA,NA
17551,Lancaster County,PA,NA,NA,80.31674208144797
17601,Lancaster County,PA,NA,51.28205128205128,NA
17701,Lycoming County,PA,4.702194357366771,NA,NA
17745,Clinton County,PA,NA,46.72364672364672,NA
17821,Montour County,PA,58.307210031347964,NA,NA
17870,Snyder County,PA,NA,NA,38.68778280542987
18013,Northampton County,PA,NA,83.1908831908832,NA
18042,Northampton County,PA,57.993730407523515,NA,NA
18052,Lehigh County,PA,20.37617554858934,NA,NA
18436,Wayne County,PA,NA,62.39316239316239,NA
18505,Lackawanna County,PA,NA,NA,48.19004524886878
18640,Luzerne County,PA,44.20062695924764,NA,NA
18657,Wyoming County,PA,NA,NA,92.53393665158372
18834,Susquehanna County,PA,NA,97.15099715099716,NA
18848,Bradford County,PA,NA,NA,80.31674208144797
18944,Bucks County,PA,NA,44.729344729344724,NA
18954,Bucks County,PA,NA,73.21937321937322,NA
19002,Montgomery County,PA,NA,57.54985754985755,NA
19018,Delaware County,PA,27.89968652037618,NA,NA
19034,Montgomery County,PA,NA,92.87749287749287,NA
19056,Bucks County,PA,NA,59.82905982905983,NA
19073,Delaware County,PA,NA,NA,15.158371040723981
19082,Delaware County,PA,NA,82.33618233618233,NA
19126,Philadelphia County,PA,NA,NA,57.692307692307686
19131,Philadelphia County,PA,NA,3.7037037037037033,NA
19135,Philadelphia County,PA,NA,39.6011396011396,NA
19142,Philadelphia County,PA,NA,NA,52.71493212669684
19145,Philadelphia County,PA,31.347962382445143,NA,32.126696832579185
19355,Chester County,PA,NA,43.01994301994302,NA
19363,Chester County,PA,NA,NA,56.78733031674208
19446,Montgomery County,PA,14.420062695924765,NA,NA
19454,Montgomery County,PA,NA,NA,42.76018099547511
19460,Chester County,PA,NA,NA,20.588235294117645
19608,Berks County,PA,NA,NA,43.89140271493213
02889,Kent County,RI,NA,20.51282051282051,NA
02904,Providence County,RI,35.73667711598746,NA,NA
02917,Providence County,RI,NA,72.64957264957265,NA
29150,Sumter County,SC,NA,NA,19.457013574660635
29161,Florence County,SC,NA,74.07407407407408,NA
29365,Spartanburg County,SC,NA,64.67236467236467,NA
29412,Charleston County,SC,63.94984326018809,NA,NA
29488,Colleton County,SC,NA,37.89173789173789,NA
29511,Horry County,SC,NA,92.02279202279202,NA
29527,Horry County,SC,NA,48.433048433048434,NA
29566,Horry County,SC,NA,NA,55.42986425339367
29581,Horry County,SC,NA,NA,99.09502262443439
29601,Greenville County,SC,NA,78.34757834757835,NA
29650,Greenville County,SC,NA,NA,46.83257918552036
29654,Anderson County,SC,68.3385579937304,NA,NA
29803,Aiken County,SC,NA,10.541310541310542,53.39366515837104
57401,Brown County,SD,NA,NA,30.995475113122172
37055,Dickson County,TN,NA,72.07977207977207,NA
37072,Davidson County,TN,NA,29.629629629629626,NA
37087,Wilson County,TN,NA,25.356125356125357,NA
37091,Marshall County,TN,40.12539184952978,NA,NA
37122,Wilson County,TN,NA,NA,29.86425339366516
37203,Davidson County,TN,NA,NA,84.61538461538461
37205,Davidson County,TN,NA,NA,18.552036199095024
37221,Davidson County,TN,63.63636363636363,29.059829059829063,NA
37303,McMinn County,TN,54.54545454545454,NA,NA
37317,Polk County,TN,97.4921630094044,NA,NA
37321,Rhea County,TN,NA,NA,65.83710407239819
37357,Warren County,TN,94.35736677115987,NA,NA
37363,Hamilton County,TN,42.63322884012539,NA,NA
37692,Unicoi County,TN,NA,86.8945868945869,NA
37711,Hawkins County,TN,NA,NA,80.99547511312217
37854,Roane County,TN,NA,NA,76.01809954751131
38002,Shelby County,TN,NA,NA,55.88235294117647
38018,Shelby County,TN,NA,87.46438746438746,NA
38109,Shelby County,TN,9.717868338557993,NA,NA
38116,Shelby County,TN,NA,34.472934472934476,NA
38305,Madison County,TN,NA,NA,13.574660633484163
38574,Putnam County,TN,75.86206896551724,NA,NA
75021,Grayson County,TX,NA,NA,78.73303167420815
75043,Dallas County,TX,NA,NA,27.601809954751133
75062,Dallas County,TX,45.141065830721004,NA,NA
75070,Collin County,TX,NA,11.965811965811966,NA
75074,Collin County,TX,77.11598746081505,NA,NA
75082,Collin County,TX,NA,70.94017094017094,NA
75134,Dallas County,TX,NA,98.00569800569801,NA
75234,Dallas County,TX,NA,NA,44.79638009049774
75474,Hunt County,TX,61.12852664576802,NA,NA
75762,Smith County,TX,72.41379310344827,NA,NA
76014,Tarrant County,TX,NA,46.438746438746435,NA
76017,Tarrant County,TX,NA,NA,68.77828054298642
76021,Tarrant County,TX,84.95297805642633,NA,NA
76034,Tarrant County,TX,72.72727272727273,NA,NA
76134,Tarrant County,TX,NA,NA,83.710407239819
76179,Tarrant County,TX,29.780564263322884,NA,NA
77017,Harris County,TX,54.2319749216301,NA,NA
77062,Harris County,TX,NA,NA,56.56108597285068
77072,Harris County,TX,77.74294670846395,NA,NA
77074,Harris County,TX,NA,58.119658119658126,NA
77084,Harris County,TX,10.344827586206897,NA,NA
77356,Montgomery County,TX,NA,NA,50.2262443438914
77360,Polk County,TX,NA,70.08547008547008,NA
77386,Montgomery County,TX,NA,NA,93.89140271493213
77389,Harris County,TX,52.97805642633229,NA,NA
77433,Harris County,TX,NA,NA,43.21266968325792
77539,Galveston County,TX,NA,84.04558404558404,NA
77566,Brazoria County,TX,95.92476489028213,NA,NA
77573,Galveston County,TX,NA,NA,57.9185520361991
77591,Galveston County,TX,NA,NA,52.26244343891403
77612,Jasper County,TX,NA,94.58689458689459,NA
77640,Jefferson County,TX,NA,97.72079772079772,NA
77706,Jefferson County,TX,47.33542319749217,NA,NA
77833,Washington County,TX,71.47335423197492,NA,NA
77957,Jackson County,TX,NA,NA,99.3212669683258
77995,Lavaca County,TX,75.54858934169279,NA,NA
78207,Bexar County,TX,NA,15.669515669515668,NA
78237,Bexar County,TX,30.721003134796238,NA,NA
78248,Bexar County,TX,86.83385579937304,NA,NA
78261,Bexar County,TX,NA,NA,97.96380090497738
78516,Hidalgo County,TX,81.81818181818183,NA,NA
78613,Williamson County,TX,NA,67.80626780626781,76.47058823529412
78633,Williamson County,TX,NA,NA,2.0361990950226243
79102,Potter County,TX,NA,NA,96.83257918552036
79415,Lubbock County,TX,NA,NA,83.48416289592761
79602,Taylor County,TX,NA,52.991452991452995,NA
79705,Midland County,TX,NA,NA,43.665158371040725
84004,Utah County,UT,NA,95.44159544159544,NA
84037,Davis County,UT,NA,62.10826210826211,NA
84078,Uintah County,UT,15.673981191222571,NA,NA
84096,Salt Lake County,UT,NA,59.54415954415955,NA
84116,Salt Lake County,UT,28.526645768025077,NA,NA
84120,Salt Lake County,UT,NA,NA,49.095022624434385
84738,Washington County,UT,NA,NA,78.28054298642535
05478,Franklin County,VT,NA,NA,23.981900452488688
20111,Prince William County,VA,NA,NA,75.1131221719457
22306,Fairfax County,VA,30.094043887147336,NA,68.09954751131222
22311,Alexandria city,VA,NA,NA,64.25339366515837
22802,Harrisonburg city,VA,56.739811912225704,NA,NA
22853,Rockingham County,VA,NA,97.43589743589743,NA
22911,Albemarle County,VA,NA,NA,64.02714932126696
23059,Henrico County,VA,NA,NA,60.85972850678733
23061,Gloucester County,VA,NA,41.5954415954416,NA
23093,Louisa County,VA,NA,NA,58.59728506787331
23185,James City County,VA,NA,46.15384615384615,NA
23223,Henrico County,VA,4.075235109717868,NA,NA
23234,Chesterfield County,VA,20.689655172413794,NA,NA
23324,Chesapeake city,VA,NA,NA,36.65158371040724
23435,Suffolk city,VA,NA,37.03703703703704,NA
23452,Virginia Beach city,VA,NA,NA,35.97285067873303
23456,Virginia Beach city,VA,NA,NA,12.217194570135746
23462,Virginia Beach city,VA,NA,NA,4.072398190045249
23504,Norfolk city,VA,71.78683385579937,NA,NA
23704,Portsmouth city,VA,NA,52.42165242165242,NA
23831,Chesterfield County,VA,NA,34.18803418803419,NA
23847,Greensville County,VA,68.65203761755487,NA,NA
23924,Mecklenburg County,VA,NA,89.74358974358975,NA
24019,Roanoke County,VA,55.172413793103445,NA,NA
24293,Wise County,VA,48.275862068965516,NA,NA
24301,Pulaski County,VA,NA,NA,73.07692307692307
24401,Staunton city,VA,9.404388714733543,NA,NA
24540,Danville city,VA,28.213166144200624,NA,NA
24550,Campbell County,VA,NA,82.62108262108262,NA
98002,King County,WA,NA,38.74643874643874,39.366515837104075
98012,Snohomish County,WA,NA,29.914529914529915,NA
98038,King County,WA,NA,NA,50.452488687782804
98122,King County,WA,NA,42.45014245014245,NA
98125,King County,WA,NA,37.60683760683761,NA
98133,King County,WA,NA,NA,8.823529411764707
98204,Snohomish County,WA,NA,NA,53.619909502262445
98208,Snohomish County,WA,NA,NA,44.34389140271493
98248,Whatcom County,WA,NA,NA,61.53846153846154
98270,Snohomish County,WA,19.435736677115987,NA,NA
98292,Snohomish County,WA,NA,40.45584045584046,NA
98382,Clallam County,WA,NA,21.65242165242165,1.1312217194570136
98503,Thurston County,WA,65.8307210031348,NA,35.294117647058826
98516,Thurston County,WA,NA,68.37606837606837,NA
98903,Yakima County,WA,67.0846394984326,NA,NA
99212,Spokane County,WA,NA,NA,73.7556561085973
99324,Walla Walla County,WA,80.56426332288402,NA,NA
99336,Benton County,WA,NA,NA,27.37556561085973
99352,Benton County,WA,NA,26.21082621082621,NA
99354,Benton County,WA,NA,33.61823361823362,NA
20001,District of Columbia,DC,NA,NA,34.16289592760181
20008,District of Columbia,DC,NA,NA,74.2081447963801
20009,District of Columbia,DC,32.60188087774294,NA,NA
20017,District of Columbia,DC,NA,NA,83.93665158371041
20018,District of Columbia,DC,87.14733542319749,NA,NA
20019,District of Columbia,DC,NA,5.128205128205128,NA
20032,District of Columbia,DC,6.269592476489027,NA,NA
25213,Putnam County,WV,NA,96.01139601139602,NA
25419,Berkeley County,WV,NA,89.45868945868945,NA
25504,Cabell County,WV,NA,NA,69.45701357466064
25506,Lincoln County,WV,NA,90.5982905982906,NA
25526,Putnam County,WV,NA,NA,71.49321266968326
25560,Putnam County,WV,NA,NA,89.59276018099548
25704,Wayne County,WV,82.75862068965517,NA,NA
26062,Hancock County,WV,NA,NA,8.3710407239819
53012,Ozaukee County,WI,NA,NA,29.638009049773757
53051,Waukesha County,WI,NA,NA,9.049773755656108
53110,Milwaukee County,WI,NA,35.32763532763533,NA
53144,Kenosha County,WI,NA,NA,52.94117647058824
53151,Waukesha County,WI,NA,22.507122507122507,NA
53207,Milwaukee County,WI,NA,33.33333333333333,NA
53218,Milwaukee County,WI,NA,NA,37.10407239819005
53219,Milwaukee County,WI,NA,NA,10.180995475113122
53224,Milwaukee County,WI,NA,51.566951566951566,NA
53228,Milwaukee County,WI,NA,NA,72.85067873303167
53406,Racine County,WI,NA,NA,2.262443438914027
53511,Rock County,WI,NA,NA,6.334841628959276
53532,Dane County,WI,66.14420062695925,NA,NA
53548,Rock County,WI,NA,27.065527065527068,NA
53704,Dane County,WI,NA,NA,37.55656108597285
53714,Dane County,WI,94.04388714733543,NA,NA
53813,Grant County,WI,98.11912225705329,NA,NA
54016,St. Croix County,WI,NA,75.21367521367522,NA
54130,Outagamie County,WI,58.620689655172406,NA,NA
54162,Brown County,WI,NA,90.88319088319088,NA
54166,Shawano County,WI,NA,NA,46.380090497737555
54220,Manitowoc County,WI,NA,2.2792022792022792,39.14027149321267
54601,La Crosse County,WI,NA,NA,10.407239819004525
54650,La Crosse County,WI,NA,9.116809116809117,NA
54656,Monroe County,WI,NA,41.02564102564102,NA
54701,Eau Claire County,WI,43.8871473354232,NA,NA
54703,Eau Claire County,WI,21.9435736677116,NA,NA
54880,Douglas County,WI,NA,4.273504273504273,NA
54915,Outagamie County,WI,NA,48.717948717948715,NA
54947,Winnebago County,WI,97.80564263322884,NA,NA
54981,Waupaca County,WI,94.67084639498434,NA,NA
82604,Natrona County,WY,77.4294670846395,NA,NA
82801,Sheridan County,WY,NA,NA,30.995475113122172
82901,Sweetwater County,WY,55.79937304075236,NA,NA
