ZipCode,county,state,Youth,Adult,Retirement
35022,Jefferson County,AL,NA,45.13888888888889,NA
35068,Jefferson County,AL,99.45054945054946,NA,NA
35085,Chilton County,AL,91.20879120879121,NA,NA
35206,Jefferson County,AL,24.175824175824175,NA,NA
36527,Baldwin County,AL,NA,79.16666666666666,NA
36532,Baldwin County,AL,NA,NA,65.5844155844156
99576,Dillingham Census Area,AK,NA,NA,98.37662337662337
99709,Fairbanks North Star Borough,AK,NA,67.01388888888889,NA
99901,Ketchikan Gateway Borough,AK,NA,NA,54.87012987012987
85015,Maricopa County,AZ,21.428571428571427,NA,NA
85251,Maricopa County,AZ,NA,NA,56.493506493506494
85296,Maricopa County,AZ,NA,NA,94.15584415584416
85308,Maricopa County,AZ,NA,40.27777777777778,NA
85338,Maricopa County,AZ,NA,NA,46.75324675324675
85345,Maricopa County,AZ,NA,17.36111111111111,NA
85375,Maricopa County,AZ,NA,83.68055555555556,NA
85614,Pima County,AZ,96.7032967032967,NA,NA
85730,Pima County,AZ,NA,NA,67.53246753246754
86510,Navajo County,AZ,NA,NA,88.96103896103897
71603,Jefferson County,AR,31.868131868131865,NA,NA
71646,Ashley County,AR,NA,NA,88.31168831168831
72104,Hot Spring County,AR,NA,NA,64.28571428571429
72204,Pulaski County,AR,NA,NA,31.493506493506494
72455,Randolph County,AR,82.41758241758241,NA,NA
90012,Los Angeles County,CA,NA,NA,55.519480519480524
90019,Los Angeles County,CA,NA,NA,27.27272727272727
90057,Los Angeles County,CA,NA,73.26388888888889,NA
90064,Los Angeles County,CA,71.97802197802197,NA,NA
90241,Los Angeles County,CA,NA,NA,90.5844155844156
90605,Los Angeles County,CA,NA,NA,72.07792207792207
90606,Los Angeles County,CA,NA,NA,63.31168831168831
90650,Los Angeles County,CA,NA,21.875,NA
91030,Los Angeles County,CA,NA,85.41666666666666,NA
91384,Los Angeles County,CA,NA,NA,89.28571428571429
91761,San Bernardino County,CA,48.35164835164835,NA,NA
92011,San Diego County,CA,NA,NA,69.48051948051948
92019,San Diego County,CA,32.967032967032964,NA,NA
92123,San Diego County,CA,NA,69.79166666666666,NA
92227,Imperial County,CA,NA,47.22222222222222,NA
92234,Riverside County,CA,51.64835164835166,NA,NA
92316,San Bernardino County,CA,NA,NA,78.24675324675324
92374,San Bernardino County,CA,NA,NA,68.5064935064935
92553,Riverside County,CA,NA,31.944444444444443,NA
92563,Riverside County,CA,NA,38.54166666666667,NA
92583,Riverside County,CA,44.505494505494504,NA,NA
92584,Riverside County,CA,NA,NA,62.33766233766234
92627,Orange County,CA,NA,24.305555555555554,NA
92707,Orange County,CA,NA,NA,54.22077922077923
92802,Orange County,CA,63.18681318681318,NA,NA
92840,Orange County,CA,NA,54.513888888888886,NA
92867,Orange County,CA,NA,NA,59.09090909090909
93030,Ventura County,CA,NA,NA,21.753246753246753
93111,Santa Barbara County,CA,93.95604395604396,NA,NA
93221,Tulare County,CA,NA,NA,77.27272727272727
93245,Kings County,CA,NA,65.97222222222221,NA
93250,Kern County,CA,NA,NA,96.1038961038961
93274,Tulare County,CA,6.043956043956044,NA,NA
93306,Kern County,CA,NA,NA,40.25974025974026
93309,Kern County,CA,NA,NA,30.1948051948052
93644,Madera County,CA,NA,94.79166666666666,NA
93703,Fresno County,CA,34.61538461538461,NA,NA
93711,Fresno County,CA,NA,NA,85.3896103896104
94019,San Mateo County,CA,100,NA,NA
94030,San Mateo County,CA,NA,NA,65.25974025974025
94061,San Mateo County,CA,NA,56.94444444444444,NA
94110,San Francisco County,CA,45.604395604395606,NA,NA
94112,San Francisco County,CA,36.26373626373626,NA,NA
94122,San Francisco County,CA,NA,NA,21.428571428571427
94503,Napa County,CA,NA,88.19444444444444,NA
94509,Contra Costa County,CA,NA,25,NA
94513,Contra Costa County,CA,NA,NA,25.324675324675322
94531,Contra Costa County,CA,NA,NA,53.896103896103895
94930,Marin County,CA,NA,97.56944444444444,NA
95070,Santa Clara County,CA,75.27472527472527,NA,NA
95207,San Joaquin County,CA,NA,NA,29.545454545454547
95341,Merced County,CA,24.725274725274726,NA,NA
95370,Tuolumne County,CA,NA,NA,3.896103896103896
95377,San Joaquin County,CA,NA,71.52777777777779,NA
95422,Lake County,CA,NA,90.27777777777779,NA
95448,Sonoma County,CA,NA,NA,48.37662337662338
95476,Sonoma County,CA,NA,NA,37.98701298701299
95482,Mendocino County,CA,68.13186813186813,NA,NA
95562,Humboldt County,CA,NA,99.30555555555556,NA
95747,Placer County,CA,NA,46.875,NA
95833,Sacramento County,CA,NA,NA,66.88311688311688
95926,Butte County,CA,NA,39.93055555555556,NA
96088,Shasta County,CA,NA,NA,97.40259740259741
80010,Arapahoe County,CO,NA,NA,47.07792207792208
80031,Adams County,CO,NA,44.79166666666667,NA
80102,Adams County,CO,88.46153846153845,NA,NA
80108,Douglas County,CO,NA,53.125,NA
80501,Boulder County,CO,35.714285714285715,NA,NA
80517,Larimer County,CO,91.75824175824175,NA,NA
80526,Larimer County,CO,NA,NA,34.41558441558442
80538,Larimer County,CO,NA,NA,9.090909090909092
80644,Weld County,CO,89.56043956043956,NA,NA
80909,El Paso County,CO,NA,NA,52.922077922077925
81001,Pueblo County,CO,NA,NA,45.77922077922078
81401,Montrose County,CO,NA,NA,42.532467532467535
81526,Mesa County,CO,NA,NA,98.7012987012987
06043,Tolland County,CT,NA,NA,93.83116883116884
06106,Hartford County,CT,NA,NA,12.987012987012985
06108,Hartford County,CT,NA,NA,60.3896103896104
06238,Tolland County,CT,NA,72.22222222222221,NA
06250,Tolland County,CT,NA,95.83333333333334,NA
06484,Fairfield County,CT,NA,NA,29.87012987012987
19901,Kent County,DE,NA,53.47222222222222,NA
19938,Kent County,DE,70.32967032967034,69.44444444444444,NA
32040,Baker County,FL,NA,NA,79.54545454545455
32086,St. Johns County,FL,NA,NA,18.83116883116883
32205,Duval County,FL,NA,31.59722222222222,NA
32211,Duval County,FL,NA,NA,45.12987012987013
32404,Bay County,FL,NA,27.430555555555557,NA
32501,Escambia County,FL,NA,59.72222222222222,NA
32507,Escambia County,FL,NA,NA,49.02597402597403
32535,Escambia County,FL,NA,77.08333333333334,NA
32547,Okaloosa County,FL,NA,NA,56.493506493506494
32656,Clay County,FL,71.42857142857143,NA,63.63636363636363
32746,Seminole County,FL,80.21978021978022,NA,NA
32757,Lake County,FL,NA,60.416666666666664,NA
32771,Seminole County,FL,NA,NA,36.038961038961034
32778,Lake County,FL,NA,NA,27.5974025974026
32780,Brevard County,FL,NA,74.30555555555556,NA
32940,Brevard County,FL,NA,70.13888888888889,NA
33134,Miami-Dade County,FL,64.83516483516483,NA,NA
33147,Miami-Dade County,FL,NA,38.19444444444444,NA
33149,Miami-Dade County,FL,NA,NA,89.6103896103896
33160,Miami-Dade County,FL,NA,NA,38.63636363636363
33309,Broward County,FL,NA,81.59722222222221,NA
33596,Hillsborough County,FL,NA,NA,64.6103896103896
33707,Pinellas County,FL,NA,NA,31.818181818181817
33774,Pinellas County,FL,85.16483516483517,NA,NA
33809,Polk County,FL,47.25274725274725,NA,NA
33823,Polk County,FL,NA,41.66666666666667,NA
33908,Lee County,FL,NA,NA,75.32467532467533
34202,Manatee County,FL,NA,NA,40.58441558441558
34608,Hernando County,FL,63.18681318681318,NA,NA
34654,Pasco County,FL,NA,51.736111111111114,NA
34655,Pasco County,FL,57.692307692307686,NA,NA
34761,Orange County,FL,NA,NA,43.83116883116883
34987,St. Lucie County,FL,NA,NA,80.84415584415584
30153,Polk County,GA,54.395604395604394,NA,NA
30240,Troup County,GA,NA,29.51388888888889,NA
30281,Henry County,GA,NA,30.208333333333332,NA
30341,DeKalb County,GA,NA,71.875,NA
30458,Bulloch County,GA,NA,NA,37.33766233766234
30518,Gwinnett County,GA,40.65934065934066,NA,NA
30677,Oconee County,GA,NA,NA,75
31321,Bryan County,GA,NA,97.22222222222221,NA
31510,Bacon County,GA,NA,77.43055555555556,NA
31569,Camden County,GA,NA,95.83333333333334,NA
96819,Honolulu County,HI,48.9010989010989,NA,NA
83301,Twin Falls County,ID,4.945054945054945,NA,NA
83338,Jerome County,ID,NA,NA,66.23376623376623
83347,Minidoka County,ID,95.6043956043956,NA,NA
83647,Elmore County,ID,NA,NA,52.27272727272727
83686,Canyon County,ID,NA,68.05555555555556,NA
83687,Canyon County,ID,NA,NA,55.84415584415584
83706,Ada County,ID,NA,NA,23.7012987012987
83716,Ada County,ID,NA,NA,42.2077922077922
60047,Lake County,IL,NA,NA,22.4025974025974
60107,Cook County,IL,43.40659340659341,NA,NA
60115,DeKalb County,IL,NA,82.63888888888889,NA
60126,DuPage County,IL,17.582417582417584,NA,NA
60189,DuPage County,IL,NA,NA,24.025974025974026
60409,Cook County,IL,NA,35.76388888888889,NA
60435,Will County,IL,NA,14.930555555555555,NA
60462,Cook County,IL,19.78021978021978,NA,NA
60467,Cook County,IL,85.71428571428571,NA,NA
60477,Cook County,IL,NA,31.25,NA
60630,Cook County,IL,NA,26.73611111111111,NA
60638,Cook County,IL,NA,13.541666666666666,NA
60640,Cook County,IL,NA,NA,7.792207792207792
60647,Cook County,IL,NA,NA,20.77922077922078
60659,Cook County,IL,NA,51.736111111111114,NA
61103,Winnebago County,IL,NA,NA,50.649350649350644
61244,Rock Island County,IL,NA,69.09722222222221,NA
61310,Lee County,IL,NA,NA,94.48051948051948
61360,LaSalle County,IL,NA,NA,98.05194805194806
61832,Vermilion County,IL,NA,NA,10.38961038961039
61866,Champaign County,IL,NA,NA,71.75324675324676
61953,Douglas County,IL,NA,93.05555555555556,NA
62012,Macoupin County,IL,NA,NA,75.97402597402598
62208,St. Clair County,IL,53.84615384615385,NA,NA
62269,St. Clair County,IL,NA,NA,41.23376623376623
62286,Randolph County,IL,13.186813186813188,NA,NA
62454,Crawford County,IL,NA,NA,74.02597402597402
62521,Macon County,IL,14.835164835164836,NA,NA
62526,Macon County,IL,NA,NA,7.467532467532467
46038,Hamilton County,IN,87.91208791208791,NA,NA
46112,Hendricks County,IN,NA,58.68055555555556,NA
46214,Marion County,IN,NA,89.58333333333334,NA
46217,Marion County,IN,NA,NA,32.142857142857146
46268,Marion County,IN,NA,49.65277777777778,NA
46385,Porter County,IN,10.989010989010989,NA,NA
46407,Lake County,IN,NA,NA,73.37662337662337
46816,Allen County,IN,NA,NA,51.298701298701296
46835,Allen County,IN,45.05494505494506,NA,NA
46901,Howard County,IN,NA,3.8194444444444446,NA
46970,Miami County,IN,NA,13.88888888888889,NA
46992,Wabash County,IN,NA,39.58333333333333,NA
47274,Jackson County,IN,NA,NA,33.76623376623377
47371,Jay County,IN,40.10989010989011,NA,NA
47421,Lawrence County,IN,NA,NA,19.480519480519483
47441,Greene County,IN,NA,72.56944444444444,NA
47882,Sullivan County,IN,NA,NA,76.62337662337663
50014,Story County,IA,NA,85.76388888888889,NA
50208,Jasper County,IA,NA,NA,70.12987012987013
52544,Appanoose County,IA,NA,47.91666666666667,NA
66062,Johnson County,KS,NA,15.625,NA
66610,Shawnee County,KS,86.26373626373626,NA,NA
67124,Pratt County,KS,NA,86.80555555555556,NA
67301,Montgomery County,KS,NA,81.25,NA
40272,Jefferson County,KY,NA,NA,16.233766233766232
41018,Kenton County,KY,NA,61.80555555555556,NA
41101,Boyd County,KY,NA,NA,19.805194805194805
41572,Pike County,KY,NA,NA,95.12987012987013
70001,Jefferson Parish,LA,NA,99.65277777777779,NA
70072,Jefferson Parish,LA,NA,2.083333333333333,NA
70126,Orleans Parish,LA,NA,NA,21.1038961038961
70506,Lafayette Parish,LA,NA,NA,16.883116883116884
70816,East Baton Rouge Parish,LA,NA,7.986111111111111,NA
70817,East Baton Rouge Parish,LA,NA,37.84722222222222,NA
71291,Ouachita Parish,LA,NA,15.277777777777779,NA
71417,Grant Parish,LA,86.81318681318682,NA,NA
04009,Cumberland County,ME,NA,88.88888888888889,NA
04240,Androscoggin County,ME,NA,4.166666666666666,NA
04276,Oxford County,ME,NA,NA,95.77922077922078
04345,Kennebec County,ME,NA,NA,55.1948051948052
04401,Penobscot County,ME,NA,48.61111111111111,NA
04426,Piscataquis County,ME,NA,NA,94.8051948051948
04473,Penobscot County,ME,NA,89.93055555555556,NA
04937,Somerset County,ME,NA,61.111111111111114,NA
04976,Somerset County,ME,NA,19.444444444444446,14.61038961038961
20743,Prince George's County,MD,NA,40.97222222222222,NA
21090,Anne Arundel County,MD,NA,NA,93.18181818181817
21113,Anne Arundel County,MD,65.38461538461539,NA,NA
21122,Anne Arundel County,MD,NA,12.152777777777777,NA
21213,Baltimore city,MD,NA,86.45833333333334,NA
21227,Baltimore County,MD,NA,58.333333333333336,NA
21236,Baltimore County,MD,NA,45.48611111111111,NA
21784,Carroll County,MD,39.010989010989015,NA,NA
01095,Hampden County,MA,NA,NA,68.83116883116884
01201,Berkshire County,MA,NA,NA,89.93506493506493
01247,Berkshire County,MA,NA,8.680555555555555,NA
01430,Worcester County,MA,NA,78.47222222222221,NA
01450,Middlesex County,MA,NA,NA,73.7012987012987
01535,Worcester County,MA,NA,80.90277777777779,NA
01570,Worcester County,MA,NA,6.944444444444445,NA
01604,Worcester County,MA,NA,NA,17.532467532467532
01606,Worcester County,MA,NA,21.52777777777778,NA
01742,Middlesex County,MA,NA,57.986111111111114,NA
01810,Essex County,MA,31.318681318681318,NA,NA
01821,Middlesex County,MA,NA,NA,1.6233766233766231
01826,Middlesex County,MA,NA,80.55555555555556,NA
01852,Middlesex County,MA,NA,54.861111111111114,NA
01860,Essex County,MA,NA,NA,82.46753246753246
01867,Middlesex County,MA,67.58241758241759,95.48611111111111,NA
01906,Essex County,MA,NA,5.208333333333334,NA
01915,Essex County,MA,38.46153846153847,NA,NA
02045,Plymouth County,MA,NA,38.88888888888889,NA
02052,Norfolk County,MA,NA,NA,64.93506493506493
02061,Plymouth County,MA,NA,70.83333333333334,NA
02066,Plymouth County,MA,NA,NA,47.4025974025974
02111,Suffolk County,MA,NA,62.15277777777778,NA
02115,Suffolk County,MA,NA,100,NA
02119,Suffolk County,MA,NA,0,NA
02121,Suffolk County,MA,NA,NA,0.6493506493506493
02124,Suffolk County,MA,0,NA,NA
02125,Suffolk County,MA,NA,0.3472222222222222,NA
02126,Suffolk County,MA,NA,1.0416666666666665,4.870129870129871
02138,Middlesex County,MA,NA,NA,33.44155844155844
02139,Middlesex County,MA,NA,NA,2.272727272727273
02151,Suffolk County,MA,2.197802197802198,NA,NA
02170,Norfolk County,MA,NA,NA,9.415584415584416
02324,Plymouth County,MA,NA,NA,24.675324675324674
02368,Norfolk County,MA,NA,3.4722222222222223,NA
02459,Middlesex County,MA,NA,NA,22.727272727272727
02476,Middlesex County,MA,NA,44.44444444444444,NA
02478,Middlesex County,MA,57.14285714285714,NA,NA
02721,Bristol County,MA,NA,0.6944444444444444,NA
48021,Macomb County,MI,19.230769230769234,NA,NA
48034,Oakland County,MI,NA,41.31944444444444,NA
48067,Oakland County,MI,76.37362637362637,NA,NA
48071,Oakland County,MI,NA,29.166666666666668,NA
48073,Oakland County,MI,NA,84.02777777777779,NA
48091,Macomb County,MI,NA,NA,14.935064935064934
48111,Wayne County,MI,NA,9.722222222222223,NA
48122,Wayne County,MI,90.65934065934066,NA,NA
48134,Wayne County,MI,NA,32.98611111111111,NA
48170,Wayne County,MI,NA,NA,2.922077922077922
48176,Washtenaw County,MI,30.21978021978022,NA,NA
48178,Oakland County,MI,NA,NA,70.45454545454545
48182,Monroe County,MI,NA,NA,44.15584415584416
48197,Washtenaw County,MI,NA,4.861111111111112,NA
48204,Wayne County,MI,NA,42.70833333333333,NA
48205,Wayne County,MI,NA,6.597222222222222,NA
48207,Wayne County,MI,NA,NA,37.01298701298701
48213,Wayne County,MI,41.208791208791204,NA,NA
48217,Wayne County,MI,NA,NA,80.51948051948052
48221,Wayne County,MI,NA,27.77777777777778,NA
48226,Wayne County,MI,84.61538461538461,NA,NA
48309,Oakland County,MI,56.043956043956044,NA,NA
48375,Oakland County,MI,74.17582417582418,NA,NA
48382,Oakland County,MI,78.57142857142857,NA,NA
48386,Oakland County,MI,72.52747252747253,NA,NA
48623,Saginaw County,MI,NA,48.26388888888889,NA
48768,Tuscola County,MI,NA,80.20833333333334,NA
48817,Shiawassee County,MI,NA,84.375,NA
48855,Livingston County,MI,NA,75,NA
48875,Ionia County,MI,NA,NA,74.35064935064936
49001,Kalamazoo County,MI,79.12087912087912,NA,NA
49006,Kalamazoo County,MI,NA,NA,67.85714285714286
49024,Kalamazoo County,MI,NA,NA,22.07792207792208
49038,Berrien County,MI,NA,NA,87.66233766233766
49048,Kalamazoo County,MI,NA,NA,30.844155844155846
49094,Branch County,MI,NA,NA,99.35064935064936
49221,Lenawee County,MI,NA,NA,28.57142857142857
49240,Jackson County,MI,NA,NA,61.038961038961034
49301,Kent County,MI,NA,86.11111111111111,NA
49331,Kent County,MI,NA,NA,44.8051948051948
49341,Kent County,MI,25.274725274725274,NA,NA
49417,Ottawa County,MI,NA,NA,6.493506493506493
49424,Ottawa County,MI,NA,NA,12.012987012987013
49428,Ottawa County,MI,NA,56.25,NA
49455,Oceana County,MI,73.07692307692307,NA,NA
49660,Manistee County,MI,55.494505494505496,NA,NA
49765,Presque Isle County,MI,NA,93.75,NA
55011,Anoka County,MN,70.87912087912088,NA,NA
55024,Dakota County,MN,NA,NA,86.36363636363636
55033,Dakota County,MN,NA,NA,92.20779220779221
55066,Goodhue County,MN,NA,NA,19.155844155844157
55123,Dakota County,MN,NA,79.86111111111111,NA
55303,Anoka County,MN,NA,21.875,NA
55313,Wright County,MN,NA,88.54166666666666,NA
55347,Hennepin County,MN,37.91208791208791,NA,NA
55372,Scott County,MN,NA,63.541666666666664,NA
55405,Hennepin County,MN,NA,43.05555555555556,NA
55417,Hennepin County,MN,58.24175824175825,NA,NA
55912,Mower County,MN,NA,NA,4.220779220779221
55975,Fillmore County,MN,NA,NA,91.88311688311688
55987,Winona County,MN,NA,NA,23.051948051948052
56073,Brown County,MN,NA,59.375,12.337662337662337
56232,Lac qui Parle County,MN,97.8021978021978,NA,NA
56308,Douglas County,MN,32.417582417582416,NA,NA
56601,Beltrami County,MN,6.593406593406594,NA,NA
56633,Hubbard County,MN,NA,97.91666666666666,NA
39180,Warren County,MS,NA,NA,50.324675324675326
39305,Lauderdale County,MS,75.82417582417582,NA,NA
39339,Winston County,MS,62.08791208791209,NA,NA
39531,Harrison County,MS,NA,73.61111111111111,NA
39667,Walthall County,MS,73.62637362637363,NA,NA
63031,St. Louis County,MO,NA,NA,11.363636363636363
63051,Jefferson County,MO,NA,67.36111111111111,NA
63112,St. Louis city,MO,50.54945054945055,NA,NA
63119,St. Louis County,MO,76.92307692307693,NA,NA
63143,St. Louis County,MO,NA,85.06944444444444,NA
63368,St. Charles County,MO,NA,NA,61.36363636363637
64055,Jackson County,MO,NA,11.11111111111111,NA
64064,Jackson County,MO,NA,55.90277777777778,NA
64110,Jackson County,MO,NA,42.01388888888889,NA
64130,Jackson County,MO,NA,34.02777777777778,NA
64138,Jackson County,MO,NA,NA,15.259740259740258
64804,Jasper County,MO,NA,20.13888888888889,NA
65026,Miller County,MO,NA,70.48611111111111,NA
65201,Boone County,MO,27.472527472527474,NA,NA
65203,Boone County,MO,NA,NA,10.714285714285714
65301,Pettis County,MO,NA,6.25,NA
65712,Lawrence County,MO,NA,NA,83.44155844155844
59101,Yellowstone County,MT,NA,NA,62.98701298701299
59804,Missoula County,MT,NA,NA,77.92207792207793
59840,Ravalli County,MT,NA,NA,62.01298701298701
68111,Douglas County,NE,NA,23.61111111111111,NA
68134,Douglas County,NE,74.72527472527473,NA,NA
68434,Seward County,NE,NA,NA,84.0909090909091
89101,Clark County,NV,NA,33.33333333333333,NA
89146,Clark County,NV,NA,78.81944444444444,NA
89436,Washoe County,NV,NA,26.041666666666668,NA
89521,Washoe County,NV,NA,77.77777777777779,NA
89701,Carson City,NV,NA,NA,46.103896103896105
89706,Carson City,NV,NA,64.23611111111111,NA
03038,Rockingham County,NH,21.978021978021978,NA,NA
03053,Rockingham County,NH,NA,32.29166666666667,NA
03229,Merrimack County,NH,NA,NA,86.03896103896103
07030,Hudson County,NJ,52.197802197802204,NA,NA
07052,Essex County,NJ,NA,19.09722222222222,NA
07305,Hudson County,NJ,NA,1.7361111111111112,NA
07465,Passaic County,NJ,97.25274725274726,NA,NA
07470,Passaic County,NJ,NA,NA,4.545454545454546
07650,Bergen County,NJ,81.31868131868131,NA,NA
07950,Morris County,NJ,NA,65.27777777777779,NA
08085,Gloucester County,NJ,66.48351648351648,NA,NA
08104,Camden County,NJ,NA,NA,86.68831168831169
08318,Salem County,NJ,NA,NA,69.15584415584416
08721,Ocean County,NJ,NA,NA,57.14285714285714
08757,Ocean County,NJ,NA,17.01388888888889,NA
08759,Ocean County,NJ,NA,NA,0.974025974025974
87106,Bernalillo County,NM,NA,NA,43.506493506493506
87120,Bernalillo County,NM,NA,40.625,NA
87401,San Juan County,NM,NA,NA,39.935064935064936
87413,San Juan County,NM,NA,NA,58.11688311688312
87544,Los Alamos County,NM,NA,NA,61.68831168831169
88001,Doa Ana County,NM,43.40659340659341,30.555555555555557,NA
88220,Eddy County,NM,NA,NA,23.051948051948052
88310,Otero County,NM,NA,NA,5.844155844155844
88345,Lincoln County,NM,NA,NA,84.74025974025975
10016,New York County,NY,NA,NA,52.5974025974026
10027,New York County,NY,NA,NA,12.662337662337661
10029,New York County,NY,9.89010989010989,7.291666666666667,NA
10037,New York County,NY,NA,NA,59.41558441558441
10451,Bronx County,NY,28.57142857142857,NA,NA
10452,Bronx County,NY,18.13186813186813,NA,NA
10454,Bronx County,NY,11.538461538461538,NA,NA
10459,Bronx County,NY,NA,NA,9.740259740259742
10465,Bronx County,NY,NA,NA,90.9090909090909
10472,Bronx County,NY,2.7472527472527473,NA,16.558441558441558
10591,Westchester County,NY,NA,NA,74.67532467532467
10701,Westchester County,NY,NA,28.125,26.623376623376622
11204,Kings County,NY,NA,NA,34.090909090909086
11206,Kings County,NY,NA,NA,87.33766233766234
11212,Kings County,NY,NA,NA,8.441558441558442
11214,Kings County,NY,54.94505494505495,NA,NA
11216,Kings County,NY,NA,15.972222222222221,NA
11218,Kings County,NY,10.43956043956044,NA,NA
11220,Kings County,NY,NA,5.555555555555555,NA
11224,Kings County,NY,NA,23.26388888888889,NA
11229,Kings County,NY,82.96703296703298,NA,NA
11234,Kings County,NY,39.56043956043956,NA,NA
11238,Kings County,NY,NA,87.15277777777779,NA
11368,Queens County,NY,NA,NA,17.20779220779221
11414,Queens County,NY,NA,NA,49.35064935064935
11418,Queens County,NY,41.75824175824176,NA,NA
11572,Nassau County,NY,NA,98.61111111111111,NA
12204,Albany County,NY,NA,68.75,NA
12206,Albany County,NY,42.857142857142854,NA,NA
12550,Orange County,NY,NA,NA,83.76623376623377
12590,Dutchess County,NY,NA,57.291666666666664,NA
12831,Saratoga County,NY,NA,50.34722222222222,NA
13104,Onondaga County,NY,59.34065934065934,NA,NA
13402,Madison County,NY,NA,96.52777777777779,NA
13407,Herkimer County,NY,NA,63.888888888888886,NA
13492,Oneida County,NY,NA,NA,78.57142857142857
13662,St. Lawrence County,NY,NA,36.80555555555556,NA
13734,Tioga County,NY,NA,91.66666666666666,NA
13833,Broome County,NY,NA,76.04166666666666,NA
13905,Broome County,NY,NA,2.7777777777777777,NA
14005,Genesee County,NY,98.9010989010989,NA,NA
14028,Niagara County,NY,NA,NA,99.67532467532467
14218,Erie County,NY,NA,NA,42.857142857142854
14225,Erie County,NY,NA,NA,15.584415584415584
14304,Niagara County,NY,NA,NA,3.571428571428571
14414,Livingston County,NY,NA,NA,50
14433,Wayne County,NY,NA,62.84722222222222,NA
14534,Monroe County,NY,NA,NA,38.311688311688314
14560,Livingston County,NY,NA,98.26388888888889,NA
14564,Ontario County,NY,29.67032967032967,NA,NA
14605,Monroe County,NY,NA,39.23611111111111,NA
14612,Monroe County,NY,NA,NA,1.2987012987012987
14617,Monroe County,NY,NA,9.027777777777777,NA
14619,Monroe County,NY,NA,18.40277777777778,NA
14810,Steuben County,NY,NA,NA,48.701298701298704
14865,Schuyler County,NY,NA,93.40277777777779,NA
27030,Surry County,NC,NA,NA,35.38961038961039
27048,Rockingham County,NC,60.98901098901099,NA,NA
27205,Randolph County,NC,NA,NA,26.2987012987013
27278,Orange County,NC,61.53846153846154,NA,NA
27510,Orange County,NC,NA,63.19444444444444,NA
27516,Orange County,NC,NA,NA,11.688311688311687
27522,Granville County,NC,NA,NA,72.40259740259741
27529,Wake County,NC,25.82417582417583,NA,NA
27540,Wake County,NC,NA,NA,50.97402597402597
27542,Johnston County,NC,79.67032967032966,NA,NA
27546,Harnett County,NC,93.4065934065934,NA,NA
27565,Granville County,NC,NA,25.34722222222222,NA
27705,Durham County,NC,23.076923076923077,NA,NA
27712,Durham County,NC,NA,NA,40.909090909090914
27909,Pasquotank County,NC,20.87912087912088,83.33333333333334,NA
28052,Gaston County,NC,NA,29.86111111111111,NA
28470,Brunswick County,NC,NA,87.5,NA
28658,Catawba County,NC,20.32967032967033,NA,NA
28739,Henderson County,NC,NA,NA,91.23376623376623
28748,Buncombe County,NC,90.10989010989012,NA,NA
28761,McDowell County,NC,NA,78.125,NA
58103,Cass County,ND,NA,10.416666666666668,NA
58104,Cass County,ND,NA,NA,45.45454545454545
58201,Grand Forks County,ND,NA,36.11111111111111,NA
58701,Ward County,ND,7.142857142857142,NA,NA
58784,Mountrail County,ND,NA,98.95833333333334,NA
43028,Knox County,OH,NA,90.97222222222221,77.59740259740259
43040,Union County,OH,NA,NA,58.44155844155844
43081,Franklin County,OH,15.934065934065933,NA,NA
43110,Franklin County,OH,1.6483516483516485,NA,NA
43113,Pickaway County,OH,NA,NA,88.63636363636364
43123,Franklin County,OH,12.087912087912088,NA,NA
43213,Franklin County,OH,1.098901098901099,NA,NA
43224,Franklin County,OH,NA,28.819444444444443,13.636363636363635
43311,Logan County,OH,NA,35.41666666666667,NA
43326,Hardin County,OH,NA,52.77777777777778,NA
43551,Wood County,OH,16.483516483516482,NA,NA
43607,Lucas County,OH,NA,NA,59.74025974025974
43615,Lucas County,OH,7.6923076923076925,NA,NA
43701,Muskingum County,OH,9.340659340659341,NA,NA
43920,Columbiana County,OH,13.736263736263737,12.847222222222221,NA
44001,Lorain County,OH,NA,34.375,25.649350649350648
44004,Ashtabula County,OH,NA,4.513888888888888,20.454545454545457
44030,Ashtabula County,OH,NA,NA,13.311688311688311
44035,Lorain County,OH,NA,NA,0
44052,Lorain County,OH,NA,NA,1.948051948051948
44053,Lorain County,OH,NA,37.15277777777778,NA
44070,Cuyahoga County,OH,NA,NA,80.1948051948052
44074,Lorain County,OH,NA,NA,49.67532467532468
44095,Lake County,OH,NA,NA,41.55844155844156
44104,Cuyahoga County,OH,NA,NA,58.76623376623377
44106,Cuyahoga County,OH,NA,14.583333333333334,NA
44107,Cuyahoga County,OH,5.4945054945054945,NA,2.5974025974025974
44109,Cuyahoga County,OH,0.5494505494505495,1.3888888888888888,NA
44111,Cuyahoga County,OH,NA,2.430555555555556,NA
44116,Cuyahoga County,OH,NA,45.83333333333333,NA
44135,Cuyahoga County,OH,NA,NA,8.766233766233766
44138,Cuyahoga County,OH,NA,NA,24.350649350649352
44140,Cuyahoga County,OH,59.89010989010989,NA,29.22077922077922
44142,Cuyahoga County,OH,60.43956043956044,NA,NA
44221,Summit County,OH,NA,NA,54.54545454545454
44224,Summit County,OH,NA,24.65277777777778,NA
44241,Portage County,OH,NA,NA,60.064935064935064
44312,Summit County,OH,NA,18.75,NA
44425,Trumbull County,OH,NA,84.72222222222221,NA
44485,Trumbull County,OH,NA,19.791666666666664,NA
44515,Mahoning County,OH,NA,14.23611111111111,11.03896103896104
44641,Stark County,OH,NA,NA,48.05194805194805
44647,Stark County,OH,NA,53.81944444444444,NA
44667,Wayne County,OH,87.36263736263736,66.31944444444444,NA
44730,Stark County,OH,NA,NA,92.85714285714286
44847,Huron County,OH,NA,NA,100
44870,Erie County,OH,NA,3.125,NA
44907,Richland County,OH,NA,NA,30.519480519480517
45005,Warren County,OH,NA,12.5,NA
45036,Warren County,OH,NA,23.958333333333336,NA
45240,Hamilton County,OH,NA,NA,46.42857142857143
45356,Miami County,OH,NA,NA,75.64935064935064
45365,Shelby County,OH,NA,94.09722222222221,NA
45420,Montgomery County,OH,NA,NA,73.05194805194806
45701,Athens County,OH,NA,64.93055555555556,NA
45714,Washington County,OH,NA,NA,15.909090909090908
45801,Allen County,OH,NA,16.666666666666664,NA
45805,Allen County,OH,NA,17.708333333333336,NA
45822,Mercer County,OH,NA,NA,32.7922077922078
45830,Putnam County,OH,NA,NA,87.98701298701299
73086,Murray County,OK,NA,72.56944444444444,68.18181818181817
73110,Oklahoma County,OK,NA,22.569444444444446,NA
73120,Oklahoma County,OK,46.15384615384615,47.56944444444444,NA
73162,Oklahoma County,OK,NA,NA,17.857142857142858
73737,Major County,OK,NA,NA,99.02597402597402
74006,Washington County,OK,NA,59.02777777777778,NA
74070,Osage County,OK,NA,NA,76.94805194805194
74361,Mayes County,OK,NA,66.66666666666666,NA
74604,Kay County,OK,NA,92.70833333333334,NA
97015,Clackamas County,OR,NA,NA,71.42857142857143
97205,Multnomah County,OR,NA,NA,93.5064935064935
97211,Multnomah County,OR,NA,NA,55.84415584415584
97222,Clackamas County,OR,NA,NA,83.11688311688312
97304,Polk County,OR,NA,60.763888888888886,NA
97471,Douglas County,OR,NA,20.48611111111111,NA
15120,Allegheny County,PA,NA,49.30555555555556,NA
15227,Allegheny County,PA,NA,44.09722222222222,NA
15401,Fayette County,PA,NA,11.805555555555555,NA
15931,Cambria County,PA,NA,NA,66.55844155844156
16056,Butler County,PA,98.35164835164835,NA,NA
16201,Armstrong County,PA,NA,37.5,NA
16601,Blair County,PA,28.021978021978022,NA,NA
17018,Dauphin County,PA,84.06593406593407,NA,NA
17025,Cumberland County,PA,42.30769230769231,NA,NA
17046,Lebanon County,PA,NA,NA,25
17055,Cumberland County,PA,29.120879120879124,NA,NA
17112,Dauphin County,PA,NA,NA,6.1688311688311686
17113,Dauphin County,PA,NA,NA,81.81818181818183
17313,York County,PA,NA,NA,75.97402597402598
17315,York County,PA,NA,NA,51.94805194805194
17331,York County,PA,8.791208791208792,NA,NA
17402,York County,PA,NA,NA,10.064935064935066
17601,Lancaster County,PA,NA,NA,53.246753246753244
17603,Lancaster County,PA,NA,13.194444444444445,NA
17701,Lycoming County,PA,NA,NA,33.116883116883116
17961,Schuylkill County,PA,NA,82.98611111111111,NA
18052,Lehigh County,PA,NA,NA,70.77922077922078
18224,Luzerne County,PA,NA,76.73611111111111,85.06493506493507
18235,Carbon County,PA,NA,NA,28.246753246753247
18610,Monroe County,PA,NA,NA,79.22077922077922
18661,Luzerne County,PA,NA,81.94444444444444,NA
19104,Philadelphia County,PA,NA,16.319444444444446,NA
19111,Philadelphia County,PA,NA,5.902777777777778,NA
19126,Philadelphia County,PA,NA,92.01388888888889,NA
19128,Philadelphia County,PA,NA,22.916666666666664,NA
19133,Philadelphia County,PA,NA,NA,34.41558441558442
19320,Chester County,PA,26.923076923076923,NA,NA
19390,Chester County,PA,NA,NA,62.66233766233766
19422,Montgomery County,PA,NA,NA,38.961038961038966
19464,Montgomery County,PA,NA,7.638888888888889,NA
19465,Chester County,PA,NA,NA,69.8051948051948
19611,Berks County,PA,NA,NA,96.75324675324676
02889,Kent County,RI,NA,NA,18.181818181818183
02908,Providence County,RI,15.384615384615385,NA,NA
29053,Lexington County,SC,77.47252747252747,NA,NA
29307,Spartanburg County,SC,92.85714285714286,NA,NA
29464,Charleston County,SC,NA,48.95833333333333,NA
29510,Georgetown County,SC,NA,67.36111111111111,NA
29609,Greenville County,SC,NA,46.18055555555556,NA
29642,Pickens County,SC,NA,68.40277777777779,NA
57104,Minnehaha County,SD,NA,35.06944444444444,NA
37043,Montgomery County,TN,NA,42.36111111111111,NA
37072,Davidson County,TN,NA,36.45833333333333,NA
37167,Rutherford County,TN,NA,NA,65.9090909090909
37218,Davidson County,TN,NA,55.208333333333336,NA
37311,Bradley County,TN,NA,NA,36.36363636363637
37343,Hamilton County,TN,62.637362637362635,25.694444444444443,NA
37743,Greene County,TN,NA,NA,5.194805194805195
38107,Shelby County,TN,69.78021978021978,NA,NA
38125,Shelby County,TN,NA,57.638888888888886,NA
38133,Shelby County,TN,NA,90.625,NA
38401,Maury County,TN,NA,NA,7.142857142857142
38583,White County,TN,NA,28.47222222222222,NA
75007,Denton County,TX,NA,NA,25.97402597402597
75010,Denton County,TX,34.61538461538461,NA,NA
75013,Collin County,TX,26.373626373626376,NA,NA
75040,Dallas County,TX,NA,21.180555555555554,NA
75044,Dallas County,TX,37.362637362637365,NA,NA
75052,Dallas County,TX,NA,20.833333333333336,NA
75089,Dallas County,TX,65.93406593406593,NA,NA
75093,Collin County,TX,NA,52.43055555555556,NA
75104,Dallas County,TX,NA,NA,79.87012987012987
75218,Dallas County,TX,NA,NA,63.961038961038966
75230,Dallas County,TX,NA,73.95833333333334,NA
75235,Dallas County,TX,NA,70.83333333333334,NA
75252,Collin County,TX,NA,NA,60.71428571428571
75631,Panola County,TX,96.15384615384616,NA,NA
75702,Smith County,TX,NA,43.75,42.857142857142854
76051,Tarrant County,TX,NA,NA,36.688311688311686
76106,Tarrant County,TX,NA,51.041666666666664,NA
76210,Denton County,TX,NA,60.06944444444444,NA
76502,Bell County,TX,NA,50,NA
76548,Bell County,TX,NA,76.38888888888889,NA
76667,Limestone County,TX,49.45054945054945,NA,NA
76705,McLennan County,TX,NA,NA,41.883116883116884
77027,Harris County,TX,NA,NA,91.55844155844156
77388,Harris County,TX,NA,NA,35.714285714285715
77479,Fort Bend County,TX,NA,NA,57.7922077922078
77546,Galveston County,TX,23.626373626373624,NA,NA
77551,Galveston County,TX,NA,30.90277777777778,NA
77630,Orange County,TX,NA,NA,35.064935064935064
78040,Webb County,TX,NA,NA,39.61038961038961
78043,Webb County,TX,33.51648351648351,NA,NA
78046,Webb County,TX,3.296703296703297,NA,NA
78218,Bexar County,TX,8.241758241758241,NA,NA
78501,Hidalgo County,TX,NA,50.69444444444444,NA
78516,Hidalgo County,TX,22.52747252747253,64.23611111111111,NA
78521,Cameron County,TX,17.032967032967033,NA,NA
78578,Cameron County,TX,NA,94.44444444444444,NA
78586,Cameron County,TX,68.68131868131869,NA,NA
78599,Hidalgo County,TX,NA,82.29166666666666,NA
78750,Travis County,TX,NA,NA,97.72727272727273
79403,Lubbock County,TX,NA,NA,78.8961038961039
79705,Midland County,TX,NA,NA,71.1038961038961
79714,Andrews County,TX,47.8021978021978,NA,NA
79745,Winkler County,TX,NA,95.13888888888889,NA
84020,Salt Lake County,UT,36.81318681318682,NA,NA
84037,Davis County,UT,34.065934065934066,NA,NA
84045,Utah County,UT,NA,NA,97.07792207792207
84070,Salt Lake County,UT,50,54.166666666666664,NA
84074,Tooele County,UT,NA,NA,20.12987012987013
84088,Salt Lake County,UT,NA,43.40277777777778,NA
84107,Salt Lake County,UT,NA,46.52777777777778,NA
84108,Salt Lake County,UT,81.86813186813187,NA,NA
84111,Salt Lake County,UT,NA,75.34722222222221,NA
84116,Salt Lake County,UT,NA,33.68055555555556,NA
84117,Salt Lake County,UT,63.18681318681318,NA,NA
84606,Utah County,UT,94.5054945054945,NA,NA
05452,Chittenden County,VT,NA,NA,37.66233766233766
05488,Franklin County,VT,NA,92.36111111111111,NA
22015,Fairfax County,VA,NA,56.59722222222222,NA
22308,Fairfax County,VA,NA,NA,81.16883116883116
22407,Spotsylvania County,VA,NA,NA,18.506493506493506
22630,Warren County,VA,12.637362637362637,NA,NA
22657,Shenandoah County,VA,NA,55.55555555555556,NA
22963,Fluvanna County,VA,NA,NA,53.246753246753244
23061,Gloucester County,VA,NA,NA,85.71428571428571
23435,Suffolk city,VA,95.05494505494505,NA,NA
23602,Newport News city,VA,NA,34.72222222222222,NA
23831,Chesterfield County,VA,56.59340659340659,NA,NA
23970,Mecklenburg County,VA,NA,NA,84.0909090909091
24018,Roanoke County,VA,NA,51.388888888888886,NA
24210,Washington County,VA,78.02197802197803,NA,NA
98030,King County,WA,NA,62.5,NA
98092,King County,WA,67.03296703296702,NA,NA
98103,King County,WA,NA,NA,72.72727272727273
98115,King County,WA,92.3076923076923,NA,NA
98198,King County,WA,53.2967032967033,NA,NA
98223,Snohomish County,WA,18.681318681318682,NA,NA
98258,Snohomish County,WA,NA,26.38888888888889,NA
98273,Skagit County,WA,NA,NA,14.285714285714285
98290,Snohomish County,WA,51.098901098901095,NA,NA
98360,Pierce County,WA,NA,75.69444444444444,NA
98362,Clallam County,WA,NA,NA,8.116883116883116
98366,Kitsap County,WA,NA,NA,28.8961038961039
98370,Kitsap County,WA,NA,87.84722222222221,NA
98375,Pierce County,WA,NA,NA,92.53246753246754
98405,Pierce County,WA,30.76923076923077,NA,NA
99037,Spokane County,WA,NA,NA,82.46753246753246
99301,Franklin County,WA,3.8461538461538463,NA,NA
24740,Mercer County,WV,NA,NA,32.467532467532465
26003,Ohio County,WV,69.23076923076923,NA,NA
26037,Brooke County,WV,NA,79.51388888888889,NA
26301,Harrison County,WV,NA,65.625,NA
26354,Taylor County,WV,NA,NA,47.72727272727273
26501,Monongalia County,WV,52.74725274725275,NA,NA
26508,Monongalia County,WV,NA,27.083333333333332,NA
53005,Waukesha County,WI,14.285714285714285,NA,NA
53014,Calumet County,WI,83.51648351648352,89.23611111111111,NA
53072,Waukesha County,WI,NA,61.111111111111114,NA
53097,Ozaukee County,WI,NA,91.31944444444444,NA
53115,Walworth County,WI,46.7032967032967,NA,96.42857142857143
53146,Waukesha County,WI,NA,NA,95.45454545454545
53149,Waukesha County,WI,NA,NA,39.285714285714285
53210,Milwaukee County,WI,NA,11.458333333333332,NA
53212,Milwaukee County,WI,NA,18.055555555555554,NA
53215,Milwaukee County,WI,4.395604395604396,NA,NA
53217,Milwaukee County,WI,58.791208791208796,NA,NA
53218,Milwaukee County,WI,NA,10.069444444444445,NA
53402,Racine County,WI,NA,8.333333333333332,NA
53511,Rock County,WI,NA,NA,0.3246753246753247
53520,Green County,WI,NA,NA,57.467532467532465
53546,Rock County,WI,NA,NA,5.51948051948052
53548,Rock County,WI,NA,NA,26.948051948051948
53597,Dane County,WI,NA,NA,67.20779220779221
53711,Dane County,WI,NA,NA,13.96103896103896
53950,Juneau County,WI,NA,NA,90.25974025974025
53959,Sauk County,WI,NA,NA,44.48051948051948
54220,Manitowoc County,WI,NA,9.375,NA
54311,Brown County,WI,NA,74.65277777777779,NA
54401,Marathon County,WI,NA,NA,31.16883116883117
54452,Lincoln County,WI,NA,NA,51.62337662337663
54494,Wood County,WI,NA,NA,6.8181818181818175
54495,Wood County,WI,NA,NA,81.4935064935065
54601,La Crosse County,WI,NA,10.76388888888889,NA
54661,Trempealeau County,WI,NA,96.875,NA
54728,Barron County,WI,NA,NA,87.01298701298701
54751,Dunn County,WI,NA,NA,27.92207792207792
54840,Burnett County,WI,NA,NA,82.14285714285714
54848,Rusk County,WI,80.76923076923077,NA,NA
54880,Douglas County,WI,NA,NA,3.2467532467532463
54901,Winnebago County,WI,NA,32.63888888888889,NA
54904,Winnebago County,WI,88.46153846153845,NA,NA
