ZipCode,county,state,Youth,Pediatric,Adult,Retirement,Geriatric
35007,Shelby County,AL,NA,NA,52.09339774557166,NA,NA
35020,Jefferson County,AL,NA,NA,13.607085346215781,NA,NA
35080,Shelby County,AL,NA,83.33333333333334,NA,NA,NA
35085,Chilton County,AL,NA,NA,NA,91.08159392789373,NA
35111,Tuscaloosa County,AL,NA,81.0077519379845,NA,NA,NA
35133,Blount County,AL,NA,NA,96.94041867954911,NA,NA
35160,Talladega County,AL,6.666666666666667,NA,NA,NA,NA
35466,Pickens County,AL,88.61111111111111,NA,NA,NA,NA
35570,Marion County,AL,NA,NA,NA,58.254269449715366,NA
35630,Lauderdale County,AL,NA,44.18604651162791,NA,NA,NA
35633,Lauderdale County,AL,48.888888888888886,NA,NA,NA,NA
35650,Lawrence County,AL,NA,NA,NA,46.29981024667932,NA
35660,Colbert County,AL,53.51851851851852,NA,NA,NA,NA
35758,Madison County,AL,NA,NA,38.727858293075684,NA,NA
35769,Jackson County,AL,NA,91.86046511627907,NA,NA,NA
35801,Madison County,AL,69.25925925925925,NA,NA,NA,NA
35806,Madison County,AL,NA,NA,79.87117552334944,NA,NA
35810,Madison County,AL,34.166666666666664,16.472868217054263,NA,NA,NA
35816,Madison County,AL,NA,37.01550387596899,NA,NA,NA
35901,Etowah County,AL,NA,NA,NA,39.08918406072106,NA
35907,Etowah County,AL,NA,NA,85.6682769726248,NA,NA
35951,Marshall County,AL,NA,54.06976744186046,NA,NA,NA
35959,Cherokee County,AL,NA,NA,NA,90.5123339658444,NA
35962,DeKalb County,AL,84.81481481481481,NA,NA,NA,NA
35976,Marshall County,AL,NA,NA,47.74557165861514,NA,NA
36027,Barbour County,AL,64.81481481481481,NA,NA,NA,NA
36049,Crenshaw County,AL,NA,NA,95.00805152979066,NA,NA
36093,Elmore County,AL,NA,NA,79.62962962962963,NA,NA
36110,Montgomery County,AL,NA,NA,56.038647342995176,NA,NA
36116,Montgomery County,AL,NA,24.224806201550386,NA,NA,NA
36207,Calhoun County,AL,NA,NA,58.293075684380035,NA,NA
36272,Calhoun County,AL,64.44444444444444,NA,NA,NA,NA
36278,Randolph County,AL,NA,86.82170542635659,97.02093397745571,NA,NA
36301,Houston County,AL,NA,NA,NA,NA,23.214285714285715
36303,Houston County,AL,NA,NA,NA,44.97153700189753,NA
36420,Covington County,AL,NA,NA,54.589371980676326,NA,NA
36502,Escambia County,AL,NA,NA,44.847020933977454,NA,NA
36526,Baldwin County,AL,32.870370370370374,NA,NA,NA,NA
36571,Mobile County,AL,58.611111111111114,NA,NA,NA,NA
36604,Mobile County,AL,84.72222222222221,NA,NA,NA,NA
36605,Mobile County,AL,NA,NA,40.49919484702094,NA,NA
36606,Mobile County,AL,NA,NA,65.94202898550725,NA,NA
36608,Mobile County,AL,NA,NA,76.81159420289855,NA,NA
36701,Dallas County,AL,NA,NA,26.570048309178745,NA,NA
36732,Marengo County,AL,87.03703703703704,NA,NA,NA,NA
36769,Wilcox County,AL,NA,NA,97.82608695652173,NA,NA
36804,Lee County,AL,71.2037037037037,NA,NA,NA,NA
36853,Tallapoosa County,AL,80.46296296296296,NA,NA,NA,NA
36863,Chambers County,AL,NA,NA,81.56199677938808,NA,NA
99503,Anchorage Municipality,AK,NA,61.434108527131784,NA,NA,NA
99504,Anchorage Municipality,AK,11.666666666666666,NA,21.4170692431562,NA,NA
99507,Anchorage Municipality,AK,NA,NA,68.59903381642512,NA,NA
99508,Anchorage Municipality,AK,NA,16.86046511627907,NA,NA,65.77380952380952
99515,Anchorage Municipality,AK,NA,NA,89.5330112721417,NA,NA
99517,Anchorage Municipality,AK,NA,NA,64.81481481481481,NA,NA
99559,Bethel Census Area,AK,NA,NA,89.93558776167473,97.72296015180265,NA
99603,Kenai Peninsula Borough,AK,78.42592592592592,NA,NA,NA,NA
99801,Juneau City and Borough,AK,NA,NA,NA,74.19354838709677,NA
99835,Sitka City and Borough,AK,NA,NA,61.191626409017715,85.57874762808349,NA
85006,Maricopa County,AZ,NA,NA,42.673107890499196,NA,NA
85008,Maricopa County,AZ,6.481481481481481,NA,12.962962962962962,NA,NA
85009,Maricopa County,AZ,NA,4.844961240310078,NA,NA,NA
85015,Maricopa County,AZ,NA,17.635658914728683,NA,NA,NA
85016,Maricopa County,AZ,NA,NA,43.31723027375201,NA,NA
85017,Maricopa County,AZ,NA,NA,31.964573268921093,NA,NA
85018,Maricopa County,AZ,NA,NA,NA,NA,93.45238095238095
85020,Maricopa County,AZ,33.24074074074074,NA,NA,NA,NA
85021,Maricopa County,AZ,NA,33.91472868217054,NA,NA,NA
85029,Maricopa County,AZ,NA,NA,22.624798711755233,NA,NA
85031,Maricopa County,AZ,25.27777777777778,14.34108527131783,51.20772946859904,NA,NA
85032,Maricopa County,AZ,NA,NA,14.412238325281804,NA,53.273809523809526
85033,Maricopa County,AZ,12.685185185185185,NA,NA,NA,NA
85037,Maricopa County,AZ,NA,NA,25.120772946859905,NA,NA
85040,Maricopa County,AZ,NA,NA,19.162640901771336,NA,NA
85041,Maricopa County,AZ,NA,3.6821705426356592,NA,NA,NA
85048,Maricopa County,AZ,26.38888888888889,NA,50.88566827697263,NA,86.90476190476191
85051,Maricopa County,AZ,NA,NA,13.768115942028986,NA,NA
85086,Maricopa County,AZ,25.925925925925924,NA,NA,NA,NA
85122,Pinal County,AZ,24.166666666666668,47.86821705426357,NA,NA,NA
85128,Pinal County,AZ,NA,41.86046511627907,NA,63.18785578747628,NA
85131,Pinal County,AZ,70.74074074074073,NA,NA,NA,NA
85142,Maricopa County,AZ,NA,NA,57.568438003220614,NA,NA
85143,Pinal County,AZ,34.72222222222222,NA,35.34621578099839,NA,NA
85201,Maricopa County,AZ,NA,NA,NA,36.24288425047438,NA
85202,Maricopa County,AZ,28.796296296296298,NA,NA,NA,NA
85203,Maricopa County,AZ,22.037037037037038,NA,36.87600644122383,NA,NA
85204,Maricopa County,AZ,NA,22.093023255813954,13.687600644122384,NA,48.51190476190476
85205,Maricopa County,AZ,59.90740740740741,76.74418604651163,26.811594202898554,26.56546489563567,NA
85206,Maricopa County,AZ,NA,NA,NA,34.15559772296015,13.988095238095239
85207,Maricopa County,AZ,74.16666666666667,NA,NA,NA,NA
85209,Maricopa County,AZ,NA,50,64.00966183574879,NA,NA
85210,Maricopa County,AZ,29.537037037037038,NA,NA,NA,NA
85225,Maricopa County,AZ,51.11111111111111,NA,61.51368760064412,NA,NA
85226,Maricopa County,AZ,NA,NA,55.152979066022546,NA,NA
85234,Maricopa County,AZ,NA,NA,32.2866344605475,NA,89.88095238095238
85248,Maricopa County,AZ,NA,NA,NA,NA,8.928571428571429
85251,Maricopa County,AZ,NA,NA,40.82125603864734,NA,NA
85257,Maricopa County,AZ,78.42592592592592,NA,NA,NA,NA
85260,Maricopa County,AZ,64.72222222222223,NA,NA,NA,NA
85282,Maricopa County,AZ,73.42592592592592,NA,41.626409017713364,NA,NA
85283,Maricopa County,AZ,NA,NA,18.115942028985508,NA,NA
85296,Maricopa County,AZ,28.240740740740737,NA,NA,NA,NA
85297,Maricopa County,AZ,63.7962962962963,NA,63.76811594202898,NA,NA
85298,Maricopa County,AZ,21.666666666666668,NA,NA,NA,NA
85301,Maricopa County,AZ,22.77777777777778,NA,NA,NA,NA
85302,Maricopa County,AZ,34.44444444444444,NA,25.201288244766506,28.083491461100568,NA
85304,Maricopa County,AZ,NA,NA,53.05958132045089,NA,NA
85306,Maricopa County,AZ,NA,NA,55.55555555555556,NA,NA
85308,Maricopa County,AZ,NA,NA,33.25281803542673,NA,NA
85310,Maricopa County,AZ,NA,NA,79.38808373590982,NA,NA
85326,Maricopa County,AZ,29.166666666666668,15.310077519379844,28.26086956521739,NA,NA
85335,Maricopa County,AZ,NA,24.031007751937985,NA,NA,84.82142857142857
85338,Maricopa County,AZ,30.925925925925924,54.84496124031008,NA,NA,NA
85339,Maricopa County,AZ,8.425925925925926,NA,NA,NA,NA
85340,Maricopa County,AZ,31.666666666666664,NA,NA,NA,NA
85349,Yuma County,AZ,46.85185185185185,NA,33.33333333333333,NA,NA
85353,Maricopa County,AZ,46.666666666666664,NA,67.7938808373591,85.19924098671727,NA
85354,Maricopa County,AZ,NA,88.75968992248062,NA,NA,NA
85364,Yuma County,AZ,15.37037037037037,NA,3.3011272141706924,3.795066413662239,4.761904761904762
85365,Yuma County,AZ,23.796296296296298,NA,NA,NA,NA
85379,Maricopa County,AZ,27.962962962962962,NA,NA,NA,NA
85392,Maricopa County,AZ,10.37037037037037,46.70542635658915,55.716586151368766,55.97722960151803,NA
85550,Graham County,AZ,89.53703703703704,NA,NA,NA,NA
85602,Cochise County,AZ,NA,NA,NA,NA,67.85714285714286
85603,Cochise County,AZ,91.2962962962963,NA,NA,NA,NA
85607,Cochise County,AZ,52.96296296296297,NA,NA,NA,NA
85615,Cochise County,AZ,94.62962962962963,NA,NA,NA,NA
85616,Cochise County,AZ,NA,NA,NA,95.2561669829222,NA
85629,Pima County,AZ,NA,NA,NA,89.94307400379506,96.72619047619048
85634,Pima County,AZ,72.5,23.06201550387597,55.716586151368766,NA,NA
85635,Cochise County,AZ,45.64814814814815,NA,NA,NA,33.63095238095239
85641,Pima County,AZ,42.77777777777778,NA,NA,NA,NA
85704,Pima County,AZ,41.75925925925926,NA,NA,NA,NA
85705,Pima County,AZ,NA,18.6046511627907,18.679549114331724,NA,NA
85706,Pima County,AZ,6.944444444444445,NA,NA,NA,NA
85711,Pima County,AZ,NA,NA,NA,15.749525616698293,NA
85712,Pima County,AZ,NA,NA,NA,84.25047438330171,NA
85713,Pima County,AZ,NA,NA,6.521739130434782,NA,NA
85714,Pima County,AZ,NA,NA,NA,NA,78.27380952380952
85716,Pima County,AZ,NA,NA,NA,85.95825426944972,NA
85719,Pima County,AZ,NA,NA,NA,42.125237191650854,NA
85741,Pima County,AZ,35.092592592592595,35.85271317829458,NA,NA,NA
85743,Pima County,AZ,NA,NA,42.028985507246375,NA,NA
85745,Pima County,AZ,NA,NA,59.58132045088567,NA,NA
85746,Pima County,AZ,19.35185185185185,NA,NA,NA,52.083333333333336
85747,Pima County,AZ,NA,NA,NA,87.28652751423151,NA
85748,Pima County,AZ,NA,NA,84.13848631239935,NA,66.66666666666666
85750,Pima County,AZ,82.5925925925926,NA,NA,NA,NA
85757,Pima County,AZ,NA,NA,NA,60.72106261859582,NA
85901,Navajo County,AZ,NA,59.883720930232556,NA,30.36053130929791,64.28571428571429
85929,Navajo County,AZ,81.48148148148148,NA,95.33011272141707,NA,NA
85941,Apache County,AZ,56.666666666666664,7.170542635658915,12.560386473429952,NA,NA
86005,Coconino County,AZ,36.574074074074076,NA,NA,NA,NA
86025,Navajo County,AZ,NA,NA,NA,NA,97.61904761904762
86033,Navajo County,AZ,NA,8.720930232558139,NA,NA,NA
86035,Coconino County,AZ,NA,78.10077519379846,NA,NA,NA
86040,Coconino County,AZ,NA,NA,66.98872785829307,86.71726755218216,NA
86043,Navajo County,AZ,99.25925925925925,NA,NA,NA,NA
86045,Coconino County,AZ,47.77777777777778,NA,NA,NA,52.38095238095239
86046,Coconino County,AZ,NA,NA,NA,91.84060721062619,NA
86047,Navajo County,AZ,49.25925925925926,18.410852713178294,93.55877616747182,NA,NA
86314,Yavapai County,AZ,NA,NA,NA,NA,13.095238095238097
86322,Yavapai County,AZ,NA,87.20930232558139,NA,69.8292220113852,NA
86326,Yavapai County,AZ,NA,NA,57.971014492753625,NA,NA
86403,Mohave County,AZ,NA,NA,46.85990338164252,NA,77.38095238095238
86404,Mohave County,AZ,15.462962962962962,NA,NA,NA,NA
86409,Mohave County,AZ,63.98148148148148,63.372093023255815,32.52818035426731,NA,NA
86413,Mohave County,AZ,NA,NA,85.99033816425121,29.03225806451613,NA
86426,Mohave County,AZ,NA,NA,82.1256038647343,NA,NA
86429,Mohave County,AZ,NA,NA,NA,64.70588235294117,NA
86503,Apache County,AZ,NA,NA,33.89694041867955,NA,91.36904761904762
86514,Apache County,AZ,NA,89.14728682170544,NA,NA,NA
71742,Dallas County,AR,92.31481481481481,NA,NA,NA,NA
72104,Hot Spring County,AR,NA,NA,58.132045088566834,NA,61.30952380952381
72114,Pulaski County,AR,NA,NA,80.27375201288245,NA,NA
72638,Carroll County,AR,NA,NA,82.76972624798712,NA,NA
72703,Washington County,AR,57.12962962962963,NA,NA,NA,63.095238095238095
90001,Los Angeles County,CA,69.16666666666667,NA,47.58454106280193,NA,NA
90002,Los Angeles County,CA,NA,NA,61.67471819645732,NA,NA
90003,Los Angeles County,CA,NA,NA,34.78260869565217,NA,NA
90006,Los Angeles County,CA,NA,11.046511627906977,68.43800322061192,NA,NA
90008,Los Angeles County,CA,NA,62.2093023255814,NA,NA,NA
90018,Los Angeles County,CA,63.51851851851852,NA,NA,NA,NA
90026,Los Angeles County,CA,NA,NA,47.90660225442834,NA,NA
90027,Los Angeles County,CA,NA,NA,60.46698872785829,NA,NA
90033,Los Angeles County,CA,NA,NA,43.80032206119163,NA,NA
90044,Los Angeles County,CA,NA,NA,6.602254428341385,19.35483870967742,NA
90049,Los Angeles County,CA,NA,NA,NA,NA,21.726190476190478
90063,Los Angeles County,CA,NA,NA,52.25442834138486,NA,NA
90201,Los Angeles County,CA,NA,NA,30.112721417069245,NA,NA
90241,Los Angeles County,CA,82.4074074074074,NA,NA,NA,NA
90242,Los Angeles County,CA,NA,NA,76.00644122383254,NA,NA
90260,Los Angeles County,CA,NA,76.55038759689923,91.94847020933977,NA,NA
90278,Los Angeles County,CA,58.98148148148148,NA,62.23832528180354,NA,NA
90292,Los Angeles County,CA,NA,NA,NA,NA,44.642857142857146
90305,Los Angeles County,CA,NA,NA,94.12238325281803,NA,NA
90503,Los Angeles County,CA,52.5,NA,NA,NA,NA
90606,Los Angeles County,CA,83.98148148148148,NA,NA,NA,NA
90620,Orange County,CA,NA,NA,NA,NA,67.55952380952381
90623,Orange County,CA,NA,NA,NA,NA,78.57142857142857
90638,Los Angeles County,CA,48.888888888888886,NA,56.11916264090178,NA,NA
90650,Los Angeles County,CA,NA,NA,17.47181964573269,NA,NA
90744,Los Angeles County,CA,NA,NA,NA,64.32637571157495,NA
90815,Los Angeles County,CA,70,NA,NA,NA,NA
91030,Los Angeles County,CA,NA,NA,NA,NA,87.20238095238095
91104,Los Angeles County,CA,NA,NA,44.44444444444444,NA,NA
91301,Los Angeles County,CA,91.57407407407408,NA,NA,NA,NA
91303,Los Angeles County,CA,NA,84.88372093023256,NA,NA,NA
91306,Los Angeles County,CA,45.83333333333333,NA,NA,NA,NA
91320,Ventura County,CA,33.611111111111114,NA,66.98872785829307,NA,NA
91321,Los Angeles County,CA,59.166666666666664,NA,NA,NA,NA
91325,Los Angeles County,CA,NA,69.57364341085271,NA,NA,NA
91331,Los Angeles County,CA,NA,6.2015503875969,NA,NA,NA
91335,Los Angeles County,CA,NA,NA,NA,36.81214421252372,NA
91344,Los Angeles County,CA,NA,NA,45.893719806763286,NA,NA
91345,Los Angeles County,CA,NA,NA,NA,92.78937381404174,NA
91350,Los Angeles County,CA,NA,NA,88.08373590982286,NA,NA
91351,Los Angeles County,CA,NA,NA,66.10305958132045,NA,NA
91355,Los Angeles County,CA,NA,NA,73.75201288244766,NA,NA
91360,Ventura County,CA,NA,NA,NA,86.52751423149905,NA
91361,Ventura County,CA,NA,NA,NA,68.69070208728652,NA
91384,Los Angeles County,CA,NA,NA,78.58293075684381,NA,NA
91405,Los Angeles County,CA,75.64814814814815,NA,NA,NA,NA
91502,Los Angeles County,CA,99.07407407407408,NA,NA,NA,NA
91505,Los Angeles County,CA,NA,NA,75.2818035426731,NA,NA
91606,Los Angeles County,CA,63.888888888888886,NA,NA,NA,NA
91607,Los Angeles County,CA,NA,NA,NA,NA,37.5
91702,Los Angeles County,CA,NA,NA,31.239935587761675,47.05882352941176,NA
91709,San Bernardino County,CA,NA,NA,32.850241545893724,NA,NA
91710,San Bernardino County,CA,0.8333333333333334,NA,NA,NA,NA
91711,Los Angeles County,CA,55.00000000000001,NA,NA,NA,NA
91723,Los Angeles County,CA,NA,NA,NA,NA,94.04761904761905
91730,San Bernardino County,CA,NA,NA,19.404186795491142,NA,NA
91740,Los Angeles County,CA,NA,NA,65.94202898550725,NA,NA
91744,Los Angeles County,CA,NA,NA,17.7938808373591,NA,58.92857142857143
91763,San Bernardino County,CA,NA,62.2093023255814,NA,NA,NA
91767,Los Angeles County,CA,29.35185185185185,NA,NA,NA,NA
91775,Los Angeles County,CA,NA,97.48062015503875,NA,NA,NA
91945,San Diego County,CA,NA,NA,61.59420289855072,NA,98.80952380952381
91950,San Diego County,CA,NA,NA,70.85346215780999,37.571157495256166,NA
91977,San Diego County,CA,NA,NA,NA,30.170777988614798,NA
92008,San Diego County,CA,78.98148148148148,NA,NA,NA,45.23809523809524
92010,San Diego County,CA,NA,NA,90.01610305958133,NA,NA
92014,San Diego County,CA,NA,NA,95.08856682769726,NA,NA
92021,San Diego County,CA,NA,NA,14.653784219001611,15.939278937381404,NA
92025,San Diego County,CA,NA,NA,NA,58.06451612903226,NA
92026,San Diego County,CA,NA,33.52713178294574,NA,NA,35.714285714285715
92027,San Diego County,CA,NA,NA,79.14653784219001,53.13092979127134,50.89285714285714
92037,San Diego County,CA,NA,NA,84.13848631239935,56.92599620493358,NA
92064,San Diego County,CA,NA,NA,NA,79.12713472485768,NA
92069,San Diego County,CA,NA,26.16279069767442,NA,NA,NA
92075,San Diego County,CA,94.9074074074074,NA,NA,NA,NA
92078,San Diego County,CA,NA,NA,NA,NA,25.892857142857146
92083,San Diego County,CA,NA,NA,63.60708534621578,NA,NA
92084,San Diego County,CA,NA,NA,NA,70.58823529411765,NA
92101,San Diego County,CA,NA,NA,13.929146537842191,NA,41.36904761904761
92102,San Diego County,CA,NA,NA,38.164251207729464,NA,93.75
92103,San Diego County,CA,NA,NA,NA,54.079696394686906,NA
92104,San Diego County,CA,NA,NA,61.83574879227053,39.46869070208729,NA
92105,San Diego County,CA,NA,NA,68.67954911433173,NA,NA
92109,San Diego County,CA,NA,NA,NA,61.10056925996204,61.904761904761905
92114,San Diego County,CA,40.925925925925924,NA,NA,29.601518026565465,NA
92127,San Diego County,CA,NA,NA,NA,76.47058823529412,NA
92154,San Diego County,CA,50.27777777777778,NA,NA,22.011385199240987,NA
92201,Riverside County,CA,17.962962962962965,NA,NA,18.59582542694497,NA
92211,Riverside County,CA,NA,NA,NA,43.45351043643264,3.869047619047619
92220,Riverside County,CA,NA,NA,NA,NA,26.785714285714285
92227,Imperial County,CA,37.03703703703704,NA,NA,63.37760910815939,NA
92233,Imperial County,CA,NA,93.9922480620155,NA,NA,NA
92234,Riverside County,CA,NA,NA,NA,3.0360531309297913,NA
92243,Imperial County,CA,26.944444444444443,18.217054263565892,NA,NA,NA
92251,Imperial County,CA,NA,NA,74.07407407407408,NA,NA
92270,Riverside County,CA,NA,NA,NA,NA,2.976190476190476
92274,Riverside County,CA,NA,65.11627906976744,NA,NA,NA
92316,San Bernardino County,CA,NA,NA,52.49597423510467,NA,NA
92345,San Bernardino County,CA,NA,NA,9.581320450885668,NA,NA
92363,San Bernardino County,CA,NA,NA,90.25764895330113,NA,NA
92394,San Bernardino County,CA,NA,NA,NA,67.74193548387096,NA
92404,San Bernardino County,CA,7.037037037037037,NA,16.425120772946862,NA,NA
92405,San Bernardino County,CA,NA,NA,46.13526570048309,NA,NA
92410,San Bernardino County,CA,NA,NA,NA,NA,82.14285714285714
92553,Riverside County,CA,NA,NA,26.167471819645733,NA,NA
92570,Riverside County,CA,NA,50.775193798449614,NA,NA,NA
92602,Orange County,CA,NA,NA,78.98550724637681,NA,NA
92620,Orange County,CA,NA,NA,43.88083735909823,NA,NA
92627,Orange County,CA,NA,NA,20.37037037037037,NA,NA
92646,Orange County,CA,NA,NA,NA,10.436432637571158,NA
92653,Orange County,CA,74.62962962962963,NA,NA,NA,NA
92655,Orange County,CA,NA,NA,NA,86.90702087286527,NA
92656,Orange County,CA,NA,NA,33.011272141706925,NA,NA
92675,Orange County,CA,NA,NA,67.9549114331723,NA,NA
92683,Orange County,CA,NA,NA,16.183574879227052,NA,NA
92694,Orange County,CA,45.55555555555556,NA,NA,NA,NA
92703,Orange County,CA,NA,17.248062015503876,39.291465378421904,NA,NA
92801,Orange County,CA,NA,12.015503875968992,NA,NA,NA
92804,Orange County,CA,42.5,NA,NA,NA,NA
92805,Orange County,CA,20.64814814814815,NA,NA,NA,NA
92806,Orange County,CA,NA,NA,NA,NA,46.42857142857143
92831,Orange County,CA,NA,77.32558139534885,NA,NA,NA
92832,Orange County,CA,NA,82.94573643410853,NA,NA,NA
92840,Orange County,CA,NA,NA,NA,NA,24.404761904761905
92866,Orange County,CA,NA,NA,NA,96.20493358633776,NA
92879,Riverside County,CA,NA,NA,NA,61.66982922201139,NA
93013,Santa Barbara County,CA,NA,NA,NA,94.87666034155598,NA
93033,Ventura County,CA,2.5,NA,NA,NA,NA
93060,Ventura County,CA,29.72222222222222,NA,NA,NA,NA
93103,Santa Barbara County,CA,NA,NA,97.42351046698873,NA,NA
93204,Kings County,CA,NA,92.63565891472868,NA,NA,NA
93215,Kern County,CA,41.2037037037037,NA,NA,NA,NA
93247,Tulare County,CA,NA,NA,80.91787439613528,NA,NA
93274,Tulare County,CA,3.425925925925926,9.108527131782946,5.958132045088567,NA,80.95238095238095
93277,Tulare County,CA,28.888888888888886,NA,NA,19.734345351043643,NA
93314,Kern County,CA,81.2037037037037,NA,NA,NA,NA
93420,San Luis Obispo County,CA,NA,NA,69.96779388083736,NA,NA
93422,San Luis Obispo County,CA,NA,NA,79.06602254428341,50.094876660341555,NA
93436,Santa Barbara County,CA,NA,27.325581395348834,15.136876006441224,17.4573055028463,NA
93444,San Luis Obispo County,CA,NA,NA,60.86956521739131,NA,NA
93454,Santa Barbara County,CA,NA,NA,29.790660225442835,NA,43.154761904761905
93465,San Luis Obispo County,CA,NA,NA,81.88405797101449,NA,NA
93546,Mono County,CA,NA,NA,96.85990338164251,NA,NA
93550,Los Angeles County,CA,NA,NA,12.721417069243158,NA,NA
93552,Los Angeles County,CA,40.55555555555556,NA,NA,NA,NA
93555,Kern County,CA,NA,NA,24.71819645732689,NA,NA
93711,Fresno County,CA,NA,NA,NA,41.36622390891841,NA
93722,Fresno County,CA,NA,NA,8.61513687600644,NA,NA
93727,Fresno County,CA,NA,NA,NA,NA,39.285714285714285
93930,Monterey County,CA,NA,NA,76.57004830917874,NA,NA
93950,Monterey County,CA,NA,NA,NA,75.33206831119544,NA
93955,Monterey County,CA,NA,NA,73.18840579710145,NA,NA
94102,San Francisco County,CA,27.12962962962963,NA,NA,9.108159392789373,NA
94109,San Francisco County,CA,NA,NA,27.375201288244767,NA,NA
94112,San Francisco County,CA,NA,NA,23.832528180354267,NA,NA
94122,San Francisco County,CA,NA,NA,NA,NA,8.630952380952381
94131,San Francisco County,CA,NA,NA,NA,NA,62.202380952380956
94133,San Francisco County,CA,NA,NA,NA,50.284629981024665,NA
94303,San Mateo County,CA,NA,NA,NA,NA,27.083333333333332
94506,Contra Costa County,CA,NA,NA,NA,82.35294117647058,NA
94523,Contra Costa County,CA,NA,NA,69.80676328502415,NA,NA
94531,Contra Costa County,CA,NA,NA,32.930756843800324,NA,NA
94541,Alameda County,CA,NA,NA,23.752012882447666,NA,NA
94544,Alameda County,CA,NA,13.372093023255813,NA,NA,NA
94568,Alameda County,CA,NA,NA,NA,NA,56.845238095238095
94578,Alameda County,CA,NA,NA,NA,59.39278937381404,NA
94582,Contra Costa County,CA,55.648148148148145,NA,NA,NA,NA
94587,Alameda County,CA,NA,NA,NA,23.52941176470588,NA
94947,Marin County,CA,NA,NA,86.07085346215781,NA,NA
94952,Sonoma County,CA,70.37037037037037,NA,NA,NA,NA
95037,Santa Clara County,CA,58.333333333333336,NA,NA,NA,NA
95066,Santa Cruz County,CA,NA,NA,91.38486312399355,NA,NA
95076,Santa Cruz County,CA,NA,NA,18.92109500805153,NA,NA
95120,Santa Clara County,CA,86.94444444444444,NA,NA,NA,NA
95207,San Joaquin County,CA,NA,NA,NA,NA,50
95240,San Joaquin County,CA,NA,NA,14.895330112721417,NA,NA
95327,Tuolumne County,CA,NA,NA,NA,NA,45.535714285714285
95334,Merced County,CA,80.46296296296296,NA,NA,NA,NA
95351,Stanislaus County,CA,35.74074074074074,NA,NA,NA,NA
95354,Stanislaus County,CA,16.203703703703702,NA,NA,NA,NA
95356,Stanislaus County,CA,NA,NA,41.30434782608695,NA,NA
95376,San Joaquin County,CA,NA,NA,79.79066022544283,NA,NA
95403,Sonoma County,CA,NA,NA,NA,79.69639468690703,NA
95407,Sonoma County,CA,NA,NA,61.91626409017713,NA,NA
95448,Sonoma County,CA,NA,NA,75.76489533011272,NA,NA
95476,Sonoma County,CA,NA,NA,NA,38.51992409867172,NA
95521,Humboldt County,CA,NA,NA,86.31239935587762,NA,NA
95602,Placer County,CA,NA,98.44961240310077,NA,NA,NA
95619,El Dorado County,CA,NA,NA,NA,89.18406072106262,NA
95630,Sacramento County,CA,NA,NA,NA,NA,25.297619047619047
95632,Sacramento County,CA,NA,NA,NA,45.920303605313094,NA
95667,El Dorado County,CA,42.592592592592595,NA,NA,NA,NA
95695,Yolo County,CA,NA,NA,69.16264090177134,NA,NA
95765,Placer County,CA,NA,NA,74.39613526570048,NA,NA
95815,Sacramento County,CA,NA,NA,96.1352657004831,NA,NA
95825,Sacramento County,CA,NA,NA,50.72463768115942,NA,NA
95826,Sacramento County,CA,70.74074074074073,NA,54.186795491143315,NA,NA
95831,Sacramento County,CA,NA,NA,NA,NA,25
95833,Sacramento County,CA,NA,NA,NA,NA,73.80952380952381
95835,Sacramento County,CA,NA,NA,69.96779388083736,NA,NA
95838,Sacramento County,CA,68.33333333333333,NA,NA,75.14231499051233,NA
95951,Glenn County,CA,NA,NA,97.50402576489533,NA,NA
95954,Butte County,CA,NA,57.751937984496124,NA,NA,NA
95965,Butte County,CA,NA,NA,17.954911433172303,33.017077798861486,NA
96001,Shasta County,CA,NA,NA,NA,52.56166982922201,NA
96122,Plumas County,CA,NA,NA,NA,88.8045540796964,NA
80011,Arapahoe County,CO,NA,NA,6.763285024154589,NA,NA
80012,Arapahoe County,CO,NA,NA,10.144927536231885,NA,NA
80013,Arapahoe County,CO,NA,NA,35.5877616747182,NA,NA
80016,Arapahoe County,CO,NA,NA,NA,19.165085388994306,NA
80020,Broomfield County,CO,NA,NA,44.847020933977454,NA,NA
80022,Adams County,CO,NA,NA,NA,80.26565464895636,NA
80023,Broomfield County,CO,NA,NA,85.5072463768116,NA,NA
80026,Boulder County,CO,NA,NA,NA,54.26944971537002,NA
80031,Adams County,CO,45,54.45736434108527,NA,NA,NA
80110,Arapahoe County,CO,NA,NA,69.16264090177134,NA,NA
80128,Jefferson County,CO,NA,NA,NA,NA,75.59523809523809
80205,Denver County,CO,NA,NA,12.157809983896941,NA,NA
80206,Denver County,CO,92.77777777777779,NA,NA,NA,NA
80216,Denver County,CO,NA,NA,71.09500805152979,NA,NA
80218,Denver County,CO,NA,NA,61.91626409017713,NA,NA
80226,Jefferson County,CO,NA,41.27906976744186,NA,NA,NA
80228,Jefferson County,CO,NA,NA,55.55555555555556,NA,NA
80233,Adams County,CO,NA,30.03875968992248,NA,NA,NA
80235,Jefferson County,CO,NA,NA,96.61835748792271,NA,NA
80260,Adams County,CO,NA,NA,47.50402576489533,NA,NA
80304,Boulder County,CO,NA,NA,94.44444444444444,NA,NA
80403,Jefferson County,CO,NA,NA,NA,88.04554079696395,NA
80439,Jefferson County,CO,NA,NA,83.49436392914654,NA,NA
80465,Jefferson County,CO,NA,NA,88.16425120772948,NA,NA
80504,Boulder County,CO,8.88888888888889,NA,31.48148148148148,NA,NA
80514,Weld County,CO,90,NA,NA,NA,NA
80521,Larimer County,CO,NA,NA,NA,68.50094876660341,NA
80524,Larimer County,CO,NA,19.961240310077518,NA,NA,NA
80526,Larimer County,CO,22.5,NA,NA,NA,NA
80537,Larimer County,CO,NA,NA,NA,16.508538899430743,NA
80538,Larimer County,CO,NA,NA,NA,NA,27.976190476190478
80549,Larimer County,CO,NA,NA,88.32528180354268,NA,NA
80601,Adams County,CO,NA,56.78294573643411,NA,42.314990512333964,NA
80602,Adams County,CO,NA,NA,47.66505636070853,NA,NA
80631,Weld County,CO,9.62962962962963,14.728682170542637,NA,26.944971537001898,NA
80634,Weld County,CO,NA,NA,15.37842190016103,2.2770398481973433,NA
80640,Adams County,CO,NA,71.70542635658916,NA,NA,NA
80642,Weld County,CO,98.51851851851852,NA,NA,NA,NA
80701,Morgan County,CO,18.88888888888889,NA,NA,48.57685009487666,NA
80723,Morgan County,CO,NA,NA,77.53623188405797,NA,NA
80751,Logan County,CO,NA,NA,42.8341384863124,NA,NA
80807,Kit Carson County,CO,NA,NA,97.02093397745571,NA,NA
80817,El Paso County,CO,58.333333333333336,NA,NA,NA,NA
80905,El Paso County,CO,NA,NA,89.04991948470209,NA,NA
80906,El Paso County,CO,NA,77.32558139534885,NA,NA,NA
80909,El Paso County,CO,NA,NA,24.154589371980677,NA,NA
80910,El Paso County,CO,NA,NA,24.315619967793882,NA,NA
80917,El Paso County,CO,NA,NA,63.12399355877617,NA,NA
80922,El Paso County,CO,NA,NA,56.60225442834138,NA,NA
80924,El Paso County,CO,NA,NA,96.45732689210949,NA,NA
80925,El Paso County,CO,NA,NA,97.74557165861513,NA,NA
81005,Pueblo County,CO,49.25925925925926,NA,37.03703703703704,NA,NA
81050,Otero County,CO,NA,67.24806201550388,NA,NA,NA
81052,Prowers County,CO,NA,50.3875968992248,NA,NA,NA
81082,Las Animas County,CO,50.64814814814815,NA,NA,NA,NA
81101,Alamosa County,CO,77.5,NA,43.96135265700483,NA,NA
81144,Rio Grande County,CO,NA,NA,90.90177133655395,NA,NA
81226,Fremont County,CO,NA,NA,90.66022544283415,NA,NA
81321,Montezuma County,CO,79.72222222222223,NA,NA,NA,NA
81328,Montezuma County,CO,NA,NA,99.7584541062802,NA,NA
81504,Mesa County,CO,NA,NA,NA,NA,72.32142857142857
81637,Eagle County,CO,NA,NA,97.66505636070853,NA,NA
81650,Garfield County,CO,46.85185185185185,NA,NA,NA,NA
06010,Hartford County,CT,40.370370370370374,NA,1.610305958132045,NA,NA
06066,Tolland County,CT,NA,NA,17.310789049919485,NA,NA
06074,Hartford County,CT,NA,NA,56.84380032206119,NA,NA
06084,Tolland County,CT,29.166666666666668,NA,NA,NA,NA
06095,Hartford County,CT,NA,NA,40.98228663446054,NA,NA
06106,Hartford County,CT,NA,NA,4.911433172302738,NA,NA
06108,Hartford County,CT,NA,NA,NA,NA,92.55952380952381
06111,Hartford County,CT,NA,NA,38.486312399355874,NA,NA
06232,Tolland County,CT,NA,NA,99.43639291465378,NA,NA
06234,Windham County,CT,68.51851851851852,NA,NA,NA,NA
06401,New Haven County,CT,NA,NA,29.871175523349436,68.1214421252372,NA
06419,Middlesex County,CT,96.11111111111111,NA,NA,NA,NA
06457,Middlesex County,CT,NA,53.875968992248055,NA,NA,NA
06475,Middlesex County,CT,93.61111111111111,NA,NA,NA,NA
06515,New Haven County,CT,NA,30.426356589147286,NA,NA,NA
06525,New Haven County,CT,83.79629629629629,NA,NA,NA,NA
06605,Fairfield County,CT,NA,NA,68.92109500805152,NA,NA
06606,Fairfield County,CT,NA,NA,17.47181964573269,NA,NA
06608,Fairfield County,CT,NA,30.03875968992248,NA,NA,NA
06704,New Haven County,CT,NA,26.16279069767442,21.73913043478261,NA,NA
06705,New Haven County,CT,NA,29.26356589147287,NA,NA,44.94047619047619
06706,New Haven County,CT,76.11111111111111,NA,86.47342995169082,NA,NA
06710,New Haven County,CT,57.407407407407405,NA,59.98389694041868,89.75332068311197,NA
06716,New Haven County,CT,66.48148148148148,NA,NA,NA,NA
06790,Litchfield County,CT,16.01851851851852,NA,NA,NA,NA
06795,Litchfield County,CT,NA,NA,NA,NA,74.40476190476191
06830,Fairfield County,CT,NA,56.201550387596896,NA,40.60721062618596,NA
06851,Fairfield County,CT,NA,NA,85.74879227053141,NA,NA
06854,Fairfield County,CT,NA,NA,NA,80.07590132827325,NA
06902,Fairfield County,CT,55.00000000000001,10.465116279069768,73.42995169082126,NA,7.142857142857142
19707,New Castle County,DE,77.77777777777779,NA,NA,NA,NA
19709,New Castle County,DE,NA,31.782945736434108,NA,NA,NA
19711,New Castle County,DE,71.11111111111111,NA,NA,NA,NA
19720,New Castle County,DE,NA,NA,16.264090177133657,NA,NA
19802,New Castle County,DE,50.18518518518519,21.899224806201552,14.009661835748794,NA,NA
19803,New Castle County,DE,NA,NA,63.44605475040258,NA,NA
19805,New Castle County,DE,NA,NA,NA,42.69449715370019,NA
19901,Kent County,DE,NA,NA,17.391304347826086,NA,NA
19904,Kent County,DE,2.9629629629629632,NA,12.88244766505636,NA,NA
19950,Sussex County,DE,NA,NA,87.03703703703704,NA,NA
19952,Kent County,DE,NA,68.21705426356588,NA,NA,NA
19958,Sussex County,DE,73.70370370370371,NA,NA,5.1233396584440225,NA
19962,Kent County,DE,NA,NA,NA,82.35294117647058,NA
19973,Sussex County,DE,NA,21.31782945736434,NA,NA,NA
32054,Union County,FL,68.7962962962963,NA,NA,NA,NA
32055,Columbia County,FL,71.66666666666667,NA,NA,NA,NA
32065,Clay County,FL,NA,NA,42.51207729468599,NA,NA
32068,Clay County,FL,NA,NA,11.513687600644122,NA,NA
32073,Clay County,FL,NA,NA,23.349436392914654,NA,NA
32084,St. Johns County,FL,NA,NA,29.146537842190018,NA,NA
32086,St. Johns County,FL,NA,NA,NA,NA,16.36904761904762
32095,St. Johns County,FL,NA,NA,90.09661835748793,NA,NA
32114,Volusia County,FL,34.81481481481482,43.41085271317829,22.463768115942027,82.92220113851992,NA
32117,Volusia County,FL,67.4074074074074,56.78294573643411,NA,NA,NA
32119,Volusia County,FL,43.425925925925924,NA,NA,NA,NA
32127,Volusia County,FL,72.5925925925926,NA,NA,NA,NA
32130,Volusia County,FL,NA,81.78294573643412,NA,NA,NA
32137,Flagler County,FL,NA,68.4108527131783,53.70370370370371,NA,NA
32141,Volusia County,FL,90.37037037037037,NA,NA,NA,NA
32148,Putnam County,FL,NA,NA,NA,NA,73.51190476190477
32159,Lake County,FL,NA,NA,NA,NA,7.738095238095238
32162,Sumter County,FL,NA,NA,NA,NA,2.380952380952381
32164,Flagler County,FL,32.407407407407405,NA,NA,NA,NA
32174,Volusia County,FL,NA,NA,47.82608695652174,NA,NA
32205,Duval County,FL,NA,NA,NA,36.62239089184061,NA
32207,Duval County,FL,NA,NA,17.874396135265698,NA,NA
32208,Duval County,FL,22.87037037037037,NA,NA,NA,NA
32210,Duval County,FL,1.3888888888888888,NA,NA,NA,11.607142857142858
32211,Duval County,FL,NA,NA,21.014492753623188,NA,NA
32216,Duval County,FL,23.703703703703706,NA,NA,NA,NA
32217,Duval County,FL,20.37037037037037,NA,NA,NA,NA
32219,Duval County,FL,NA,NA,45.97423510466989,NA,NA
32220,Duval County,FL,NA,NA,69.08212560386472,NA,NA
32224,Duval County,FL,NA,NA,NA,47.24857685009488,NA
32246,Duval County,FL,NA,NA,15.056360708534623,NA,NA
32254,Duval County,FL,40.925925925925924,NA,NA,NA,NA
32256,Duval County,FL,NA,NA,NA,79.31688804554081,NA
32257,Duval County,FL,NA,NA,24.396135265700483,NA,NA
32301,Leon County,FL,66.20370370370371,NA,NA,NA,NA
32303,Leon County,FL,70.64814814814815,NA,NA,NA,NA
32304,Leon County,FL,60.27777777777777,48.06201550387597,NA,NA,NA
32305,Leon County,FL,NA,NA,NA,NA,80.65476190476191
32308,Leon County,FL,NA,NA,76.00644122383254,NA,NA
32309,Leon County,FL,NA,NA,NA,NA,60.11904761904761
32310,Leon County,FL,NA,NA,69.00161030595812,NA,NA
32351,Gadsden County,FL,NA,48.643410852713174,86.63446054750402,NA,NA
32401,Bay County,FL,51.94444444444445,NA,NA,NA,NA
32405,Bay County,FL,NA,NA,26.247987117552334,NA,NA
32408,Bay County,FL,NA,NA,76.24798711755234,NA,NA
32424,Calhoun County,FL,NA,90.11627906976744,71.73913043478261,NA,NA
32425,Holmes County,FL,NA,NA,54.911433172302736,NA,NA
32442,Jackson County,FL,NA,NA,99.9194847020934,NA,NA
32444,Bay County,FL,43.611111111111114,NA,71.5780998389694,NA,NA
32448,Jackson County,FL,NA,62.2093023255814,NA,NA,NA
32456,Gulf County,FL,NA,NA,NA,66.03415559772297,NA
32506,Escambia County,FL,NA,NA,13.848631239935589,NA,NA
32536,Okaloosa County,FL,57.68518518518518,NA,NA,NA,NA
32539,Okaloosa County,FL,NA,NA,NA,NA,35.41666666666667
32566,Santa Rosa County,FL,38.7962962962963,NA,34.21900161030596,NA,NA
32606,Alachua County,FL,NA,NA,NA,29.79127134724858,NA
32609,Alachua County,FL,51.11111111111111,NA,19.726247987117553,NA,NA
32619,Gilchrist County,FL,NA,NA,99.27536231884058,NA,NA
32626,Levy County,FL,NA,NA,90.57971014492753,NA,NA
32640,Putnam County,FL,88.42592592592592,NA,NA,NA,NA
32641,Alachua County,FL,NA,NA,24.9597423510467,NA,NA
32680,Dixie County,FL,NA,NA,NA,83.30170777988614,NA
32686,Marion County,FL,NA,NA,NA,99.81024667931689,NA
32701,Seminole County,FL,NA,NA,NA,NA,59.226190476190474
32702,Lake County,FL,NA,NA,98.95330112721416,NA,NA
32703,Orange County,FL,NA,NA,56.68276972624798,NA,NA
32707,Seminole County,FL,86.57407407407408,NA,NA,NA,NA
32708,Seminole County,FL,NA,NA,NA,41.555977229601524,NA
32712,Orange County,FL,33.14814814814815,NA,65.21739130434783,NA,NA
32714,Seminole County,FL,NA,NA,68.43800322061192,NA,NA
32720,Volusia County,FL,67.87037037037037,NA,NA,NA,NA
32736,Lake County,FL,NA,88.75968992248062,NA,NA,NA
32738,Volusia County,FL,33.24074074074074,NA,NA,NA,NA
32750,Seminole County,FL,NA,NA,69.64573268921094,NA,NA
32757,Lake County,FL,NA,NA,57.890499194847024,NA,NA
32763,Volusia County,FL,94.25925925925925,66.47286821705426,NA,NA,NA
32771,Seminole County,FL,NA,NA,16.022544283413847,NA,43.75
32780,Brevard County,FL,NA,41.08527131782946,NA,NA,NA
32796,Brevard County,FL,80,NA,NA,NA,NA
32807,Orange County,FL,8.148148148148149,52.90697674418605,NA,67.17267552182163,NA
32808,Orange County,FL,NA,7.751937984496124,47.02093397745571,NA,NA
32809,Orange County,FL,NA,NA,49.275362318840585,NA,NA
32810,Orange County,FL,NA,NA,40.09661835748793,NA,NA
32812,Orange County,FL,86.11111111111111,NA,NA,NA,NA
32818,Orange County,FL,15.925925925925927,NA,NA,NA,NA
32821,Orange County,FL,NA,98.25581395348837,83.73590982286635,NA,NA
32822,Orange County,FL,8.148148148148149,11.434108527131782,52.33494363929147,26.755218216318788,NA
32824,Orange County,FL,NA,51.55038759689923,NA,NA,NA
32825,Orange County,FL,22.59259259259259,NA,NA,NA,NA
32828,Orange County,FL,NA,NA,37.43961352657005,NA,NA
32832,Orange County,FL,69.44444444444444,NA,NA,NA,NA
32833,Orange County,FL,74.53703703703704,NA,NA,NA,NA
32839,Orange County,FL,11.11111111111111,16.27906976744186,26.006441223832528,NA,NA
32904,Brevard County,FL,NA,NA,NA,NA,35.11904761904761
32905,Brevard County,FL,48.888888888888886,NA,NA,NA,NA
32907,Brevard County,FL,62.68518518518519,37.01550387596899,48.470209339774556,NA,20.238095238095237
32922,Brevard County,FL,NA,NA,49.9194847020934,NA,NA
32935,Brevard County,FL,NA,NA,18.92109500805153,NA,NA
32962,Indian River County,FL,71.48148148148148,66.08527131782945,NA,45.16129032258064,NA
32968,Indian River County,FL,NA,NA,83.41384863123994,NA,NA
33010,Miami-Dade County,FL,NA,20.73643410852713,NA,NA,NA
33012,Miami-Dade County,FL,30.37037037037037,NA,44.76650563607085,NA,NA
33014,Miami-Dade County,FL,NA,34.10852713178294,NA,NA,NA
33015,Miami-Dade County,FL,80.18518518518518,NA,NA,NA,NA
33016,Miami-Dade County,FL,84.9074074074074,NA,NA,NA,NA
33018,Miami-Dade County,FL,48.148148148148145,NA,NA,NA,NA
33023,Broward County,FL,14.907407407407408,NA,NA,NA,NA
33024,Broward County,FL,NA,10.077519379844961,NA,NA,NA
33025,Broward County,FL,NA,43.604651162790695,NA,NA,NA
33027,Broward County,FL,68.7962962962963,NA,NA,42.50474383301708,NA
33028,Broward County,FL,78.88888888888889,NA,NA,NA,74.70238095238095
33032,Miami-Dade County,FL,71.94444444444444,NA,NA,NA,NA
33033,Miami-Dade County,FL,39.44444444444444,NA,42.431561996779386,NA,NA
33040,Monroe County,FL,51.01851851851852,NA,NA,NA,NA
33054,Miami-Dade County,FL,27.77777777777778,NA,NA,NA,NA
33055,Miami-Dade County,FL,52.31481481481482,NA,NA,NA,NA
33064,Broward County,FL,NA,15.891472868217054,37.84219001610306,NA,NA
33067,Broward County,FL,NA,NA,80.99838969404188,84.81973434535104,NA
33068,Broward County,FL,NA,43.798449612403104,NA,NA,NA
33070,Monroe County,FL,NA,NA,NA,98.67172675521822,NA
33125,Miami-Dade County,FL,21.85185185185185,NA,45.088566827697264,NA,NA
33126,Miami-Dade County,FL,75.18518518518519,NA,NA,NA,NA
33127,Miami-Dade County,FL,88.98148148148148,27.51937984496124,NA,NA,NA
33133,Miami-Dade County,FL,NA,56.78294573643411,NA,NA,NA
33135,Miami-Dade County,FL,NA,25.1937984496124,NA,NA,NA
33136,Miami-Dade County,FL,35.92592592592593,NA,NA,NA,NA
33145,Miami-Dade County,FL,NA,NA,NA,NA,32.44047619047619
33147,Miami-Dade County,FL,NA,25.968992248062015,NA,NA,NA
33155,Miami-Dade County,FL,61.38888888888889,78.29457364341084,NA,NA,NA
33157,Miami-Dade County,FL,12.407407407407407,34.49612403100775,NA,NA,NA
33158,Miami-Dade County,FL,NA,NA,97.90660225442835,NA,NA
33160,Miami-Dade County,FL,73.79629629629629,NA,NA,NA,NA
33161,Miami-Dade County,FL,17.037037037037038,NA,69.56521739130434,NA,NA
33165,Miami-Dade County,FL,NA,48.44961240310077,86.55394524959742,NA,NA
33169,Miami-Dade County,FL,NA,29.457364341085274,NA,NA,NA
33170,Miami-Dade County,FL,NA,NA,85.426731078905,NA,NA
33172,Miami-Dade County,FL,NA,75,NA,65.46489563567363,NA
33174,Miami-Dade County,FL,62.40740740740741,NA,NA,NA,NA
33175,Miami-Dade County,FL,NA,46.51162790697674,NA,NA,55.654761904761905
33176,Miami-Dade County,FL,NA,NA,NA,37.571157495256166,NA
33177,Miami-Dade County,FL,15.277777777777779,12.015503875968992,NA,NA,NA
33178,Miami-Dade County,FL,68.24074074074075,NA,NA,NA,NA
33182,Miami-Dade County,FL,87.87037037037037,NA,NA,NA,83.03571428571429
33183,Miami-Dade County,FL,85.0925925925926,NA,NA,NA,NA
33185,Miami-Dade County,FL,NA,89.34108527131784,NA,NA,NA
33186,Miami-Dade County,FL,19.35185185185185,NA,51.77133655394525,NA,NA
33187,Miami-Dade County,FL,85.27777777777777,NA,NA,88.42504743833017,NA
33193,Miami-Dade County,FL,NA,NA,NA,59.772296015180274,NA
33196,Miami-Dade County,FL,NA,53.68217054263565,67.3913043478261,NA,NA
33304,Broward County,FL,83.98148148148148,NA,NA,NA,NA
33309,Broward County,FL,NA,14.34108527131783,NA,NA,NA
33311,Broward County,FL,19.166666666666668,2.9069767441860463,NA,21.821631878557877,NA
33312,Broward County,FL,NA,NA,69.40418679549114,20.30360531309298,NA
33313,Broward County,FL,NA,10.077519379844961,21.09500805152979,NA,NA
33317,Broward County,FL,NA,42.248062015503876,NA,NA,49.702380952380956
33319,Broward County,FL,63.24074074074074,NA,NA,NA,NA
33321,Broward County,FL,NA,NA,57.407407407407405,NA,NA
33326,Broward County,FL,NA,NA,NA,66.03415559772297,NA
33401,Palm Beach County,FL,NA,NA,67.9549114331723,NA,NA
33405,Palm Beach County,FL,75.46296296296296,NA,88.56682769726248,NA,NA
33406,Palm Beach County,FL,NA,58.91472868217055,92.914653784219,NA,NA
33407,Palm Beach County,FL,NA,45.348837209302324,64.09017713365539,NA,NA
33409,Palm Beach County,FL,NA,34.10852713178294,NA,NA,83.92857142857143
33411,Palm Beach County,FL,NA,NA,38.88888888888889,22.770398481973434,NA
33413,Palm Beach County,FL,44.53703703703704,NA,NA,NA,NA
33415,Palm Beach County,FL,71.66666666666667,38.17829457364341,75.76489533011272,NA,NA
33417,Palm Beach County,FL,60.46296296296296,NA,NA,NA,NA
33418,Palm Beach County,FL,NA,99.6124031007752,54.750402576489535,30.55028462998102,NA
33430,Palm Beach County,FL,74.9074074074074,NA,NA,NA,NA
33435,Palm Beach County,FL,51.57407407407407,NA,NA,NA,NA
33437,Palm Beach County,FL,NA,NA,NA,20.49335863377609,0.2976190476190476
33442,Broward County,FL,NA,NA,82.85024154589372,NA,NA
33445,Palm Beach County,FL,82.12962962962963,NA,NA,NA,NA
33460,Palm Beach County,FL,47.5,25.581395348837212,46.94041867954911,NA,NA
33461,Palm Beach County,FL,NA,NA,60.6280193236715,NA,NA
33463,Palm Beach County,FL,41.2037037037037,NA,NA,NA,NA
33467,Palm Beach County,FL,75.18518518518519,NA,NA,NA,NA
33476,Palm Beach County,FL,98.98148148148148,NA,NA,NA,NA
33484,Palm Beach County,FL,88.14814814814815,NA,NA,NA,NA
33510,Hillsborough County,FL,NA,NA,NA,NA,75.29761904761905
33511,Hillsborough County,FL,NA,NA,38.405797101449274,NA,NA
33549,Hillsborough County,FL,NA,NA,77.53623188405797,NA,NA
33570,Hillsborough County,FL,62.68518518518519,NA,NA,NA,NA
33573,Hillsborough County,FL,NA,NA,NA,NA,2.6785714285714284
33578,Hillsborough County,FL,NA,NA,34.05797101449276,NA,NA
33592,Hillsborough County,FL,NA,NA,NA,92.0303605313093,NA
33596,Hillsborough County,FL,NA,NA,NA,66.41366223908919,NA
33597,Sumter County,FL,NA,81.78294573643412,NA,NA,NA
33604,Hillsborough County,FL,NA,8.13953488372093,58.132045088566834,NA,NA
33605,Hillsborough County,FL,NA,57.751937984496124,NA,NA,NA
33610,Hillsborough County,FL,7.592592592592593,NA,NA,NA,NA
33613,Hillsborough County,FL,26.01851851851852,NA,74.8792270531401,NA,NA
33614,Hillsborough County,FL,NA,NA,NA,NA,39.58333333333333
33615,Hillsborough County,FL,NA,28.100775193798448,NA,34.72485768500949,NA
33702,Pinellas County,FL,NA,NA,52.97906602254429,NA,NA
33705,Pinellas County,FL,NA,NA,27.77777777777778,NA,NA
33709,Pinellas County,FL,NA,NA,51.52979066022544,NA,NA
33710,Pinellas County,FL,64.81481481481481,NA,NA,NA,NA
33713,Pinellas County,FL,NA,41.27906976744186,NA,NA,NA
33714,Pinellas County,FL,NA,79.26356589147287,NA,NA,NA
33755,Pinellas County,FL,55.833333333333336,NA,44.28341384863124,NA,NA
33765,Pinellas County,FL,NA,NA,76.89210950080515,NA,NA
33770,Pinellas County,FL,NA,NA,NA,60.91081593927894,NA
33776,Pinellas County,FL,NA,NA,NA,93.16888045540796,NA
33777,Pinellas County,FL,76.11111111111111,NA,NA,NA,NA
33781,Pinellas County,FL,NA,NA,48.55072463768116,NA,NA
33801,Polk County,FL,NA,47.674418604651166,57.2463768115942,NA,NA
33803,Polk County,FL,64.44444444444444,65.11627906976744,NA,NA,NA
33805,Polk County,FL,NA,16.666666666666664,73.83252818035426,NA,NA
33809,Polk County,FL,81.38888888888889,NA,49.51690821256038,NA,33.92857142857143
33810,Polk County,FL,62.03703703703704,11.821705426356589,NA,NA,NA
33811,Polk County,FL,NA,NA,NA,NA,98.21428571428571
33813,Polk County,FL,35.27777777777778,NA,NA,52.75142314990512,NA
33823,Polk County,FL,NA,37.01550387596899,NA,NA,NA
33844,Polk County,FL,NA,15.310077519379844,NA,77.03984819734345,NA
33860,Polk County,FL,59.166666666666664,NA,NA,NA,NA
33873,Hardee County,FL,NA,NA,NA,76.66034155597723,NA
33880,Polk County,FL,NA,23.25581395348837,23.10789049919485,NA,NA
33881,Polk County,FL,54.166666666666664,NA,37.76167471819646,NA,NA
33884,Polk County,FL,56.851851851851855,NA,60.547504025764894,NA,NA
33897,Polk County,FL,NA,NA,76.57004830917874,77.22960151802657,NA
33903,Lee County,FL,61.2037037037037,NA,NA,NA,NA
33905,Lee County,FL,49.53703703703704,NA,36.312399355877616,26.37571157495256,NA
33907,Lee County,FL,NA,NA,NA,75.52182163187857,NA
33916,Lee County,FL,56.574074074074076,NA,NA,NA,NA
33931,Lee County,FL,NA,NA,NA,72.29601518026566,NA
33950,Charlotte County,FL,NA,NA,79.38808373590982,NA,NA
33952,Charlotte County,FL,NA,NA,24.798711755233494,NA,71.72619047619048
33967,Lee County,FL,NA,73.83720930232558,NA,NA,NA
33971,Lee County,FL,67.5925925925926,19.961240310077518,NA,NA,NA
33972,Lee County,FL,NA,74.4186046511628,NA,NA,NA
33980,Charlotte County,FL,NA,NA,93.07568438003221,NA,NA
33983,Charlotte County,FL,NA,71.12403100775194,NA,NA,NA
34104,Collier County,FL,62.40740740740741,NA,53.945249597423505,NA,NA
34110,Collier County,FL,NA,NA,NA,56.73624288425047,NA
34113,Collier County,FL,NA,52.71317829457365,NA,NA,NA
34135,Lee County,FL,NA,NA,NA,NA,15.178571428571427
34210,Manatee County,FL,NA,NA,88.24476650563608,NA,NA
34212,Manatee County,FL,NA,NA,NA,NA,79.76190476190477
34221,Manatee County,FL,NA,NA,NA,69.07020872865274,NA
34234,Sarasota County,FL,NA,NA,NA,46.67931688804554,NA
34236,Sarasota County,FL,NA,NA,NA,NA,56.547619047619044
34239,Sarasota County,FL,NA,NA,82.6086956521739,NA,NA
34241,Sarasota County,FL,NA,NA,88.80837359098228,NA,NA
34251,Manatee County,FL,95,NA,NA,NA,NA
34266,DeSoto County,FL,51.57407407407407,NA,NA,NA,38.095238095238095
34287,Sarasota County,FL,NA,NA,52.81803542673108,NA,NA
34288,Sarasota County,FL,NA,NA,87.43961352657004,NA,NA
34293,Sarasota County,FL,NA,NA,NA,8.72865275142315,NA
34432,Marion County,FL,NA,NA,90.74074074074075,NA,NA
34448,Citrus County,FL,NA,93.4108527131783,NA,NA,NA
34465,Citrus County,FL,NA,86.43410852713178,NA,NA,NA
34470,Marion County,FL,45.18518518518518,NA,NA,NA,NA
34473,Marion County,FL,NA,NA,49.355877616747186,NA,NA
34481,Marion County,FL,NA,NA,NA,NA,14.880952380952381
34482,Marion County,FL,NA,NA,66.58615136876006,NA,NA
34491,Marion County,FL,75.0925925925926,NA,NA,NA,NA
34604,Hernando County,FL,NA,NA,NA,97.15370018975332,NA
34608,Hernando County,FL,NA,28.488372093023255,NA,52.18216318785579,NA
34609,Hernando County,FL,NA,NA,NA,25.23719165085389,NA
34638,Pasco County,FL,NA,NA,71.90016103059581,NA,NA
34654,Pasco County,FL,NA,70.34883720930233,NA,NA,NA
34667,Pasco County,FL,NA,NA,NA,28.842504743833018,NA
34668,Pasco County,FL,16.944444444444446,23.25581395348837,11.352657004830919,NA,31.25
34684,Pinellas County,FL,NA,NA,NA,NA,14.583333333333334
34695,Pinellas County,FL,92.03703703703704,NA,NA,NA,NA
34698,Pinellas County,FL,81.48148148148148,NA,NA,NA,NA
34711,Lake County,FL,NA,58.91472868217055,21.900161030595815,29.79127134724858,NA
34714,Lake County,FL,NA,NA,91.14331723027375,NA,NA
34736,Lake County,FL,NA,81.78294573643412,NA,NA,NA
34741,Osceola County,FL,NA,39.922480620155035,57.648953301127214,NA,NA
34743,Osceola County,FL,33.611111111111114,NA,NA,NA,NA
34744,Osceola County,FL,46.111111111111114,NA,NA,NA,NA
34746,Osceola County,FL,NA,45.542635658914726,84.38003220611915,NA,72.02380952380952
34748,Lake County,FL,NA,NA,19.96779388083736,NA,NA
34753,Lake County,FL,NA,76.74418604651163,96.05475040257649,NA,NA
34758,Osceola County,FL,53.425925925925924,NA,21.980676328502415,55.02846299810247,NA
34759,Polk County,FL,NA,66.08527131782945,39.291465378421904,NA,68.15476190476191
34761,Orange County,FL,11.481481481481481,NA,40.41867954911433,NA,NA
34769,Osceola County,FL,54.72222222222223,NA,78.34138486312399,NA,NA
34785,Sumter County,FL,48.333333333333336,NA,71.90016103059581,NA,NA
34945,St. Lucie County,FL,NA,NA,98.71175523349437,NA,NA
34950,St. Lucie County,FL,63.51851851851852,NA,NA,NA,NA
34952,St. Lucie County,FL,NA,36.82170542635659,59.50080515297906,NA,NA
34953,St. Lucie County,FL,NA,17.05426356589147,45.65217391304348,NA,21.13095238095238
34956,Martin County,FL,NA,NA,96.37681159420289,NA,NA
34972,Okeechobee County,FL,83.79629629629629,NA,NA,NA,NA
34974,Okeechobee County,FL,NA,60.27131782945736,NA,NA,NA
34982,St. Lucie County,FL,NA,NA,53.945249597423505,NA,NA
34983,St. Lucie County,FL,47.87037037037037,NA,55.87761674718197,NA,NA
34984,St. Lucie County,FL,NA,NA,83.65539452495975,NA,NA
34986,St. Lucie County,FL,NA,NA,NA,NA,10.416666666666668
34987,St. Lucie County,FL,NA,99.4186046511628,NA,NA,NA
34994,Martin County,FL,NA,NA,80.43478260869566,NA,NA
34997,Martin County,FL,18.51851851851852,NA,64.25120772946859,10.246679316888045,NA
30005,Fulton County,GA,NA,NA,71.33655394524959,NA,NA
30012,Rockdale County,GA,59.166666666666664,NA,NA,NA,NA
30016,Newton County,GA,13.240740740740742,NA,12.238325281803544,NA,NA
30033,DeKalb County,GA,NA,NA,84.46054750402577,NA,NA
30034,DeKalb County,GA,12.222222222222221,NA,NA,NA,NA
30038,DeKalb County,GA,NA,NA,43.23671497584541,NA,NA
30039,Gwinnett County,GA,NA,NA,NA,59.01328273244781,NA
30047,Gwinnett County,GA,NA,NA,NA,NA,77.97619047619048
30052,Walton County,GA,NA,NA,NA,10.62618595825427,NA
30054,Newton County,GA,91.75925925925927,NA,NA,NA,NA
30078,Gwinnett County,GA,NA,56.78294573643411,NA,NA,NA
30093,Gwinnett County,GA,NA,NA,57.729468599033815,NA,NA
30115,Cherokee County,GA,NA,NA,39.93558776167472,NA,NA
30134,Douglas County,GA,NA,NA,59.42028985507246,NA,NA
30144,Cobb County,GA,NA,87.20930232558139,NA,NA,NA
30179,Carroll County,GA,72.4074074074074,NA,NA,NA,NA
30180,Carroll County,GA,NA,45.93023255813954,NA,NA,NA
30217,Heard County,GA,89.81481481481481,NA,NA,NA,NA
30223,Spalding County,GA,NA,NA,37.52012882447665,NA,NA
30240,Troup County,GA,39.166666666666664,NA,NA,NA,NA
30274,Clayton County,GA,NA,NA,40.66022544283413,NA,NA
30281,Henry County,GA,28.51851851851852,NA,NA,NA,NA
30291,Fulton County,GA,58.14814814814815,NA,NA,NA,NA
30295,Pike County,GA,93.33333333333333,NA,NA,NA,NA
30318,Fulton County,GA,NA,NA,27.536231884057973,NA,NA
30319,DeKalb County,GA,NA,NA,73.26892109500805,NA,NA
30349,Fulton County,GA,NA,23.25581395348837,NA,NA,NA
30401,Emanuel County,GA,79.9074074074074,NA,73.91304347826086,NA,NA
30427,Tattnall County,GA,NA,NA,87.03703703703704,NA,NA
30471,Emanuel County,GA,NA,NA,98.87278582930756,NA,NA
30512,Union County,GA,68.33333333333333,NA,NA,54.83870967741935,NA
30513,Fannin County,GA,NA,85.85271317829456,NA,NA,NA
30518,Gwinnett County,GA,NA,NA,38.08373590982287,38.1404174573055,NA
30528,White County,GA,NA,78.68217054263566,NA,NA,NA
30542,Hall County,GA,51.94444444444445,NA,NA,NA,NA
30577,Stephens County,GA,NA,78.29457364341084,NA,NA,NA
30601,Clarke County,GA,21.296296296296298,NA,NA,NA,NA
30606,Clarke County,GA,NA,NA,NA,69.25996204933587,NA
30607,Clarke County,GA,76.94444444444444,NA,NA,NA,NA
30642,Greene County,GA,NA,85.85271317829456,NA,NA,NA
30643,Hart County,GA,NA,NA,66.34460547504025,NA,NA
30646,Madison County,GA,NA,NA,88.88888888888889,NA,NA
30680,Barrow County,GA,31.574074074074076,NA,NA,23.908918406072104,NA
30755,Whitfield County,GA,NA,NA,64.25120772946859,NA,NA
30906,Richmond County,GA,5,14.922480620155037,NA,NA,NA
31005,Houston County,GA,NA,NA,85.26570048309179,NA,NA
31024,Putnam County,GA,NA,NA,57.48792270531401,NA,NA
31036,Pulaski County,GA,76.38888888888889,NA,NA,NA,NA
31063,Macon County,GA,NA,NA,98.14814814814815,NA,NA
31087,Hancock County,GA,NA,NA,85.34621578099839,NA,NA
31088,Houston County,GA,49.72222222222222,38.565891472868216,NA,23.33965844402277,NA
31206,Bibb County,GA,NA,NA,29.629629629629626,NA,NA
31210,Bibb County,GA,NA,NA,NA,NA,49.404761904761905
31216,Bibb County,GA,NA,NA,84.94363929146537,NA,NA
31312,Effingham County,GA,NA,NA,81.72302737520128,NA,NA
31313,Liberty County,GA,NA,36.240310077519375,NA,NA,NA
31320,Liberty County,GA,NA,98.83720930232558,NA,NA,NA
31404,Chatham County,GA,40.18518518518518,NA,NA,NA,NA
31405,Chatham County,GA,NA,NA,NA,42.8842504743833,NA
31501,Ware County,GA,56.111111111111114,NA,NA,NA,58.03571428571429
31503,Ware County,GA,NA,NA,82.2061191626409,NA,NA
31523,Glynn County,GA,82.87037037037037,NA,NA,NA,NA
31537,Charlton County,GA,NA,NA,69.32367149758454,NA,NA
31543,Brantley County,GA,NA,NA,100,NA,NA
31545,Wayne County,GA,38.51851851851852,63.95348837209303,NA,NA,NA
31548,Camden County,GA,NA,NA,58.534621578099845,NA,NA
31553,Brantley County,GA,80.46296296296296,NA,NA,NA,NA
31601,Lowndes County,GA,56.111111111111114,32.55813953488372,NA,40.22770398481973,NA
31701,Dougherty County,GA,85.27777777777777,NA,46.4573268921095,39.27893738140417,NA
31705,Dougherty County,GA,65.37037037037037,NA,NA,NA,NA
31707,Dougherty County,GA,NA,NA,51.93236714975845,NA,NA
31719,Sumter County,GA,NA,93.21705426356588,73.99355877616746,NA,NA
31721,Dougherty County,GA,NA,NA,77.93880837359099,NA,NA
31757,Thomas County,GA,72.03703703703704,NA,NA,NA,NA
31792,Thomas County,GA,NA,NA,33.57487922705314,NA,NA
31794,Tift County,GA,NA,NA,26.972624798711752,NA,NA
31903,Muscogee County,GA,52.77777777777778,NA,NA,NA,NA
31904,Muscogee County,GA,NA,31.2015503875969,NA,NA,NA
31907,Muscogee County,GA,NA,24.612403100775193,NA,NA,NA
39817,Decatur County,GA,NA,NA,65.78099838969405,NA,NA
39842,Terrell County,GA,91.01851851851852,NA,67.4718196457327,NA,NA
39846,Calhoun County,GA,97.4074074074074,NA,NA,NA,NA
96706,Honolulu County,HI,NA,NA,59.25925925925925,NA,NA
96707,Honolulu County,HI,22.12962962962963,NA,35.18518518518518,34.34535104364326,NA
96727,Hawaii County,HI,NA,NA,91.70692431561996,NA,NA
96732,Maui County,HI,91.94444444444444,NA,80.35426731078906,NA,NA
96734,Honolulu County,HI,NA,NA,37.35909822866345,NA,NA
96740,Hawaii County,HI,NA,54.45736434108527,62.88244766505636,NA,NA
96741,Kauai County,HI,NA,NA,91.62640901771336,NA,NA
96744,Honolulu County,HI,9.074074074074074,NA,19.645732689210952,3.6053130929791273,NA
96753,Maui County,HI,NA,NA,80.83735909822866,NA,NA
96782,Honolulu County,HI,NA,NA,NA,25.047438330170777,NA
96786,Honolulu County,HI,NA,NA,NA,NA,47.91666666666667
96792,Honolulu County,HI,NA,NA,11.674718196457327,NA,NA
96793,Maui County,HI,78.42592592592592,NA,NA,NA,NA
96797,Honolulu County,HI,40.46296296296296,NA,32.2061191626409,35.294117647058826,NA
96813,Honolulu County,HI,30.74074074074074,NA,NA,NA,NA
96814,Honolulu County,HI,NA,NA,72.22222222222221,NA,NA
96815,Honolulu County,HI,67.03703703703704,NA,NA,NA,NA
96817,Honolulu County,HI,48.05555555555556,NA,11.191626409017713,8.349146110056926,NA
96819,Honolulu County,HI,NA,22.093023255813954,NA,NA,NA
96825,Honolulu County,HI,51.2962962962963,NA,NA,NA,NA
96826,Honolulu County,HI,79.44444444444444,NA,NA,NA,NA
83221,Bingham County,ID,56.018518518518526,NA,26.89210950080515,NA,NA
83263,Franklin County,ID,NA,NA,99.11433172302738,NA,NA
83301,Twin Falls County,ID,46.01851851851852,NA,36.71497584541063,NA,0
83330,Gooding County,ID,NA,80.42635658914729,NA,87.66603415559773,NA
83333,Blaine County,ID,NA,NA,93.31723027375202,NA,NA
83338,Jerome County,ID,65.46296296296296,NA,NA,NA,NA
83355,Gooding County,ID,98.33333333333333,NA,NA,NA,NA
83445,Fremont County,ID,NA,96.12403100775194,NA,NA,NA
83642,Ada County,ID,NA,NA,NA,9.67741935483871,NA
60007,Cook County,IL,65.46296296296296,NA,NA,NA,NA
60010,Lake County,IL,NA,NA,39.85507246376812,NA,NA
60013,McHenry County,IL,NA,NA,58.454106280193244,NA,NA
60015,Lake County,IL,NA,NA,NA,27.514231499051235,NA
60016,Cook County,IL,NA,NA,23.67149758454106,NA,NA
60018,Cook County,IL,NA,NA,NA,NA,46.13095238095239
60025,Cook County,IL,NA,NA,43.63929146537842,NA,NA
60031,Lake County,IL,69.72222222222221,NA,NA,NA,NA
60047,Lake County,IL,32.407407407407405,NA,NA,NA,NA
60050,McHenry County,IL,NA,NA,NA,35.673624288425046,NA
60056,Cook County,IL,NA,NA,39.77455716586151,NA,NA
60084,Lake County,IL,NA,NA,91.06280193236715,NA,NA
60089,Lake County,IL,NA,NA,40.90177133655394,NA,NA
60096,Lake County,IL,NA,NA,92.19001610305958,NA,NA
60099,Lake County,IL,45,NA,NA,NA,NA
60107,Cook County,IL,34.81481481481482,NA,NA,NA,NA
60123,Kane County,IL,NA,NA,NA,17.647058823529413,NA
60124,Kane County,IL,58.14814814814815,NA,65.53945249597423,NA,NA
60137,DuPage County,IL,NA,NA,33.49436392914654,NA,NA
60155,Cook County,IL,NA,NA,84.78260869565217,NA,NA
60156,McHenry County,IL,NA,NA,35.10466988727858,NA,NA
60172,DuPage County,IL,NA,NA,NA,45.35104364326376,NA
60174,Kane County,IL,NA,NA,NA,41.17647058823529,NA
60176,Cook County,IL,NA,NA,NA,NA,90.17857142857143
60177,Kane County,IL,NA,NA,60.06441223832528,NA,NA
60188,DuPage County,IL,NA,NA,18.357487922705314,NA,NA
60192,Cook County,IL,67.03703703703704,NA,NA,NA,NA
60402,Cook County,IL,NA,NA,10.869565217391305,NA,NA
60411,Cook County,IL,NA,NA,12.560386473429952,11.954459203036052,NA
60415,Cook County,IL,NA,NA,NA,80.83491461100569,NA
60426,Cook County,IL,NA,NA,56.52173913043478,NA,NA
60432,Will County,IL,77.77777777777779,NA,NA,NA,NA
60438,Cook County,IL,NA,NA,NA,NA,33.33333333333333
60439,Cook County,IL,NA,NA,45.088566827697264,NA,NA
60442,Will County,IL,66.66666666666666,NA,NA,NA,NA
60446,Will County,IL,NA,NA,46.2962962962963,NA,NA
60462,Cook County,IL,NA,NA,25.925925925925924,NA,11.011904761904761
60468,Will County,IL,83.24074074074073,NA,NA,NA,NA
60471,Cook County,IL,NA,NA,73.59098228663447,NA,NA
60477,Cook County,IL,22.87037037037037,NA,NA,NA,NA
60481,Will County,IL,NA,NA,70.12882447665056,NA,NA
60491,Will County,IL,NA,NA,35.26570048309179,NA,NA
60505,Kane County,IL,NA,NA,NA,45.73055028462998,NA
60517,DuPage County,IL,NA,NA,40.57971014492754,NA,NA
60534,Cook County,IL,NA,NA,93.15619967793882,NA,NA
60560,Kendall County,IL,NA,NA,43.71980676328502,NA,NA
60607,Cook County,IL,NA,NA,NA,85.38899430740038,NA
60609,Cook County,IL,NA,NA,9.742351046698873,NA,NA
60616,Cook County,IL,NA,NA,36.312399355877616,NA,NA
60625,Cook County,IL,NA,NA,38.64734299516908,NA,NA
60628,Cook County,IL,NA,NA,NA,NA,3.571428571428571
60637,Cook County,IL,NA,NA,14.734299516908212,NA,NA
60639,Cook County,IL,NA,NA,NA,9.867172675521822,NA
60640,Cook County,IL,NA,NA,NA,9.297912713472485,NA
60644,Cook County,IL,NA,NA,7.246376811594203,NA,NA
60647,Cook County,IL,13.981481481481481,NA,NA,NA,NA
60649,Cook County,IL,NA,91.08527131782945,NA,NA,NA
60655,Cook County,IL,NA,NA,28.663446054750402,NA,NA
60659,Cook County,IL,NA,NA,48.792270531400966,29.03225806451613,NA
60660,Cook County,IL,NA,NA,26.40901771336554,NA,NA
60804,Cook County,IL,27.870370370370374,NA,19.565217391304348,NA,39.88095238095239
60964,Kankakee County,IL,90.74074074074075,NA,NA,NA,NA
61021,Lee County,IL,51.85185185185185,NA,NA,NA,NA
61032,Stephenson County,IL,NA,NA,NA,NA,16.071428571428573
61081,Whiteside County,IL,NA,NA,NA,16.698292220113853,NA
61101,Winnebago County,IL,NA,NA,NA,NA,46.726190476190474
61264,Rock Island County,IL,NA,NA,NA,88.9943074003795,NA
61342,LaSalle County,IL,91.2962962962963,NA,NA,NA,NA
61443,Henry County,IL,NA,NA,63.28502415458937,NA,NA
61554,Tazewell County,IL,NA,NA,NA,12.7134724857685,NA
61603,Peoria County,IL,NA,NA,68.67954911433173,NA,NA
61820,Champaign County,IL,NA,NA,74.63768115942028,NA,NA
61821,Champaign County,IL,NA,NA,NA,NA,14.285714285714285
61832,Vermilion County,IL,19.814814814814817,NA,NA,NA,NA
61873,Champaign County,IL,NA,NA,NA,NA,78.86904761904762
62206,St. Clair County,IL,NA,85.85271317829456,NA,NA,NA
62221,St. Clair County,IL,NA,NA,82.2061191626409,NA,NA
62226,St. Clair County,IL,80.18518518518518,NA,NA,NA,NA
62234,Madison County,IL,NA,NA,NA,47.6280834914611,NA
62298,Monroe County,IL,93.61111111111111,NA,NA,NA,NA
62448,Jasper County,IL,77.77777777777779,NA,NA,NA,NA
62806,Edwards County,IL,100,NA,NA,NA,NA
62859,Hamilton County,IL,NA,NA,NA,NA,89.58333333333334
62863,Wabash County,IL,72.77777777777777,NA,NA,NA,NA
62914,Alexander County,IL,NA,NA,NA,100,NA
62966,Jackson County,IL,NA,NA,NA,51.992409867172675,38.69047619047619
46012,Madison County,IN,NA,NA,NA,21.631878557874764,NA
46032,Hamilton County,IN,NA,NA,NA,NA,22.61904761904762
46041,Clinton County,IN,NA,NA,NA,58.63377609108159,NA
46052,Boone County,IN,NA,73.83720930232558,NA,54.64895635673624,NA
46107,Marion County,IN,NA,NA,61.111111111111114,NA,NA
46112,Hendricks County,IN,NA,NA,54.99194847020934,NA,32.142857142857146
46120,Putnam County,IN,NA,97.48062015503875,NA,NA,NA
46135,Putnam County,IN,NA,NA,89.3719806763285,NA,NA
46140,Hancock County,IN,NA,NA,28.743961352657006,NA,NA
46143,Johnson County,IN,50.92592592592593,NA,23.18840579710145,NA,NA
46158,Morgan County,IN,47.31481481481482,NA,NA,NA,NA
46168,Hendricks County,IN,NA,83.33333333333334,NA,NA,NA
46173,Rush County,IN,75.83333333333333,NA,NA,NA,NA
46176,Shelby County,IN,38.148148148148145,NA,15.297906602254429,NA,NA
46214,Marion County,IN,NA,NA,58.615136876006446,NA,NA
46219,Marion County,IN,NA,NA,11.594202898550725,NA,NA
46222,Marion County,IN,30.833333333333336,NA,NA,NA,NA
46224,Marion County,IN,NA,24.8062015503876,NA,NA,NA
46226,Marion County,IN,13.240740740740742,20.348837209302324,11.03059581320451,NA,NA
46227,Marion County,IN,14.907407407407408,NA,NA,NA,NA
46241,Marion County,IN,NA,NA,19.887278582930755,38.33017077798861,NA
46254,Marion County,IN,NA,NA,NA,32.25806451612903,NA
46268,Marion County,IN,70.18518518518519,NA,NA,NA,NA
46304,Porter County,IN,NA,NA,42.270531400966185,NA,NA
46307,Lake County,IN,0.9259259259259258,NA,1.3687600644122384,NA,NA
46312,Lake County,IN,NA,NA,15.861513687600645,NA,NA
46320,Lake County,IN,NA,NA,33.97745571658615,NA,NA
46322,Lake County,IN,NA,NA,NA,66.79316888045541,NA
46324,Lake County,IN,NA,NA,16.344605475040257,NA,NA
46347,Porter County,IN,94.44444444444444,NA,NA,NA,NA
46360,LaPorte County,IN,NA,NA,5.394524959742351,NA,NA
46368,Porter County,IN,2.037037037037037,NA,NA,NA,NA
46385,Porter County,IN,6.7592592592592595,61.434108527131784,NA,NA,NA
46403,Lake County,IN,NA,NA,NA,68.1214421252372,NA
46407,Lake County,IN,82.4074074074074,NA,NA,NA,NA
46410,Lake County,IN,NA,50,NA,5.313092979127135,NA
46528,Elkhart County,IN,58.05555555555556,NA,77.45571658615137,NA,NA
46534,Starke County,IN,48.333333333333336,NA,NA,NA,NA
46536,St. Joseph County,IN,99.9074074074074,NA,NA,NA,NA
46614,St. Joseph County,IN,17.037037037037038,NA,NA,NA,NA
46711,Adams County,IN,NA,NA,NA,95.06641366223909,NA
46733,Adams County,IN,NA,NA,75.52334943639292,51.61290322580645,NA
46774,Allen County,IN,NA,68.4108527131783,NA,NA,NA
46795,LaGrange County,IN,NA,NA,NA,89.37381404174573,NA
46802,Allen County,IN,96.57407407407408,NA,NA,NA,NA
46806,Allen County,IN,20.462962962962962,20.54263565891473,NA,NA,NA
46816,Allen County,IN,35.92592592592593,NA,NA,NA,NA
46819,Allen County,IN,79.72222222222223,NA,NA,NA,NA
46825,Allen County,IN,5.9259259259259265,NA,NA,NA,NA
46947,Cass County,IN,3.5185185185185186,46.70542635658915,NA,NA,NA
47025,Dearborn County,IN,NA,NA,41.46537842190016,NA,NA
47111,Clark County,IN,65.18518518518519,NA,NA,NA,NA
47129,Clark County,IN,NA,NA,NA,55.40796963946869,NA
47130,Clark County,IN,12.5,NA,70.28985507246377,5.88235294117647,NA
47150,Floyd County,IN,14.25925925925926,NA,NA,NA,23.809523809523807
47167,Washington County,IN,NA,NA,51.690821256038646,NA,NA
47170,Scott County,IN,41.2037037037037,95.34883720930233,86.15136876006441,NA,NA
47172,Clark County,IN,NA,NA,NA,72.10626185958255,NA
47201,Bartholomew County,IN,NA,45.93023255813954,NA,NA,NA
47203,Bartholomew County,IN,39.166666666666664,NA,NA,NA,NA
47250,Jefferson County,IN,NA,NA,69.64573268921094,NA,NA
47274,Jackson County,IN,NA,50.775193798449614,NA,NA,NA
47283,Decatur County,IN,NA,NA,99.51690821256038,NA,NA
47304,Delaware County,IN,NA,NA,NA,NA,44.047619047619044
47353,Union County,IN,NA,NA,NA,96.58444022770398,NA
47362,Henry County,IN,NA,46.70542635658915,NA,NA,10.714285714285714
47374,Wayne County,IN,5.277777777777778,NA,NA,NA,NA
47401,Monroe County,IN,NA,NA,NA,NA,68.45238095238095
47421,Lawrence County,IN,37.03703703703704,NA,NA,NA,NA
47438,Greene County,IN,93.88888888888889,NA,NA,96.7741935483871,NA
47441,Greene County,IN,NA,91.27906976744185,72.46376811594203,NA,NA
47454,Orange County,IN,NA,91.86046511627907,NA,NA,85.11904761904762
47501,Daviess County,IN,NA,NA,71.65861513687601,25.426944971537,NA
47520,Perry County,IN,95.83333333333334,NA,NA,NA,NA
47546,Dubois County,IN,39.72222222222222,NA,NA,NA,NA
47553,Martin County,IN,97.31481481481481,NA,NA,NA,NA
47586,Perry County,IN,78.42592592592592,NA,NA,NA,NA
47591,Knox County,IN,28.240740740740737,NA,NA,NA,NA
47630,Warrick County,IN,NA,NA,44.20289855072464,NA,NA
47710,Vanderburgh County,IN,58.611111111111114,NA,NA,NA,NA
47803,Vigo County,IN,NA,NA,86.87600644122384,NA,NA
47804,Vigo County,IN,NA,53.100775193798455,NA,79.5066413662239,NA
47807,Vigo County,IN,NA,58.52713178294574,47.18196457326892,86.14800759013282,NA
47834,Clay County,IN,83.51851851851852,NA,NA,NA,NA
47842,Vermillion County,IN,50.27777777777778,NA,NA,NA,NA
47906,Tippecanoe County,IN,NA,NA,NA,NA,34.226190476190474
47909,Tippecanoe County,IN,29.074074074074076,51.74418604651163,40.25764895330113,NA,NA
47932,Fountain County,IN,NA,NA,NA,78.93738140417457,NA
47959,White County,IN,NA,91.86046511627907,NA,NA,NA
47960,White County,IN,NA,NA,89.21095008051529,66.98292220113852,NA
47978,Jasper County,IN,58.611111111111114,NA,93.96135265700482,NA,NA
50036,Boone County,IA,NA,NA,NA,NA,63.69047619047619
50125,Warren County,IA,65.74074074074075,NA,NA,NA,NA
50158,Marshall County,IA,63.14814814814815,60.65891472868217,NA,NA,NA
50208,Jasper County,IA,34.44444444444444,NA,NA,NA,NA
50213,Clarke County,IA,63.51851851851852,NA,NA,NA,NA
50220,Dallas County,IA,60.74074074074074,75.96899224806202,NA,NA,NA
50314,Polk County,IA,36.75925925925926,NA,NA,NA,NA
50315,Polk County,IA,NA,NA,8.212560386473431,NA,NA
50316,Polk County,IA,NA,55.62015503875969,41.70692431561997,NA,NA
50317,Polk County,IA,NA,NA,40.17713365539453,NA,NA
50327,Polk County,IA,87.4074074074074,NA,NA,NA,NA
50501,Webster County,IA,61.01851851851852,NA,NA,NA,NA
50701,Black Hawk County,IA,NA,NA,32.689210950080515,NA,NA
51106,Woodbury County,IA,NA,NA,NA,53.70018975332068,NA
51501,Pottawattamie County,IA,NA,NA,2.9790660225442833,NA,NA
51503,Pottawattamie County,IA,3.981481481481482,NA,8.132045088566828,NA,NA
52101,Winneshiek County,IA,NA,NA,73.59098228663447,NA,NA
52213,Linn County,IA,98.70370370370371,NA,NA,NA,NA
52233,Linn County,IA,61.38888888888889,NA,90.98228663446055,NA,NA
52241,Johnson County,IA,NA,NA,47.42351046698873,NA,NA
52302,Linn County,IA,43.425925925925924,NA,NA,NA,NA
52353,Washington County,IA,NA,NA,NA,82.73244781783681,NA
52402,Linn County,IA,NA,36.434108527131784,NA,NA,NA
52403,Linn County,IA,87.22222222222223,NA,NA,NA,NA
52404,Linn County,IA,20.27777777777778,NA,NA,NA,NA
52577,Mahaska County,IA,NA,NA,37.03703703703704,NA,NA
52641,Henry County,IA,67.87037037037037,NA,75.1207729468599,NA,NA
52732,Clinton County,IA,NA,NA,21.336553945249598,NA,NA
52806,Scott County,IA,NA,60.65891472868217,NA,NA,NA
52807,Scott County,IA,53.05555555555556,NA,NA,NA,NA
66002,Atchison County,KS,69.35185185185185,NA,NA,NA,NA
66062,Johnson County,KS,NA,NA,NA,NA,19.047619047619047
66103,Wyandotte County,KS,NA,NA,78.26086956521739,NA,NA
66104,Wyandotte County,KS,NA,NA,27.214170692431562,NA,NA
66106,Wyandotte County,KS,NA,NA,NA,72.86527514231499,NA
66214,Johnson County,KS,70.37037037037037,NA,NA,NA,NA
66218,Johnson County,KS,NA,NA,95.08856682769726,NA,NA
66223,Johnson County,KS,NA,NA,NA,NA,64.58333333333334
66720,Neosho County,KS,NA,NA,NA,NA,86.30952380952381
67042,Butler County,KS,86.11111111111111,NA,NA,NA,NA
67701,Thomas County,KS,NA,NA,78.50241545893721,NA,NA
40006,Trimble County,KY,78.33333333333333,97.48062015503875,93.23671497584542,NA,NA
40008,Nelson County,KY,NA,98.44961240310077,NA,NA,NA
40047,Bullitt County,KY,NA,NA,29.38808373590982,NA,NA
40071,Spencer County,KY,88.70370370370371,NA,NA,NA,NA
40108,Meade County,KY,NA,NA,71.49758454106279,NA,90.77380952380952
40118,Jefferson County,KY,NA,NA,55.475040257648956,NA,NA
40165,Bullitt County,KY,NA,NA,13.526570048309178,NA,NA
40210,Jefferson County,KY,NA,NA,42.19001610305958,NA,NA
40211,Jefferson County,KY,NA,NA,63.52657004830918,NA,NA
40212,Jefferson County,KY,19.35185185185185,NA,60.14492753623188,40.98671726755218,NA
40213,Jefferson County,KY,31.944444444444443,NA,NA,52.371916508538895,NA
40214,Jefferson County,KY,15.833333333333332,NA,49.67793880837359,NA,NA
40215,Jefferson County,KY,NA,NA,18.276972624798713,NA,NA
40216,Jefferson County,KY,12.314814814814815,18.023255813953487,NA,NA,NA
40218,Jefferson County,KY,NA,NA,13.123993558776167,NA,NA
40222,Jefferson County,KY,NA,NA,80.51529790660226,NA,NA
40228,Jefferson County,KY,NA,78.68217054263566,NA,73.05502846299811,NA
40229,Jefferson County,KY,NA,36.434108527131784,NA,NA,NA
40241,Jefferson County,KY,57.68518518518518,74.4186046511628,52.012882447665056,NA,NA
40242,Jefferson County,KY,NA,NA,84.05797101449275,NA,NA
40258,Jefferson County,KY,32.22222222222222,NA,NA,NA,NA
40272,Jefferson County,KY,NA,60.46511627906976,13.20450885668277,NA,NA
40291,Jefferson County,KY,NA,NA,16.988727858293075,NA,NA
40324,Scott County,KY,29.35185185185185,NA,NA,NA,NA
40351,Rowan County,KY,NA,14.922480620155037,NA,NA,NA
40356,Jessamine County,KY,20.74074074074074,NA,13.365539452495975,NA,NA
40360,Bath County,KY,NA,NA,65.53945249597423,NA,NA
40391,Clark County,KY,NA,NA,7.809983896940419,NA,NA
40447,Jackson County,KY,NA,69.18604651162791,NA,NA,NA
40475,Madison County,KY,24.25925925925926,NA,NA,NA,NA
40504,Fayette County,KY,NA,NA,43.07568438003221,NA,NA
40505,Fayette County,KY,NA,26.937984496124027,NA,NA,NA
40509,Fayette County,KY,27.500000000000004,NA,NA,NA,NA
40511,Fayette County,KY,NA,22.674418604651162,NA,NA,NA
40514,Fayette County,KY,NA,NA,92.10950080515298,NA,NA
40517,Fayette County,KY,NA,NA,NA,NA,48.80952380952381
40701,Whitley County,KY,31.944444444444443,NA,NA,NA,NA
40740,Laurel County,KY,NA,95.54263565891473,NA,NA,NA
40759,Whitley County,KY,96.94444444444444,NA,NA,NA,NA
40769,Whitley County,KY,59.166666666666664,NA,32.769726247987116,NA,NA
40906,Knox County,KY,NA,NA,67.6328502415459,NA,NA
41014,Kenton County,KY,NA,NA,53.22061191626409,NA,NA
41018,Kenton County,KY,NA,NA,24.879227053140095,NA,NA
41031,Harrison County,KY,NA,NA,56.44122383252817,NA,NA
41035,Grant County,KY,NA,NA,47.10144927536232,NA,NA
41042,Boone County,KY,NA,NA,NA,NA,4.166666666666666
41074,Campbell County,KY,NA,75,NA,NA,NA
41144,Greenup County,KY,NA,53.100775193798455,NA,NA,NA
41179,Lewis County,KY,NA,NA,NA,81.40417457305503,NA
41219,Johnson County,KY,NA,75.96899224806202,NA,NA,NA
41501,Pike County,KY,NA,NA,NA,NA,31.547619047619047
41522,Pike County,KY,NA,NA,76.73107890499195,NA,NA
41635,Floyd County,KY,NA,NA,96.29629629629629,NA,NA
41653,Floyd County,KY,NA,73.83720930232558,NA,NA,NA
42050,Fulton County,KY,NA,84.49612403100775,NA,NA,NA
42066,Graves County,KY,NA,31.007751937984494,NA,NA,NA
42071,Calloway County,KY,NA,65.11627906976744,NA,NA,NA
42101,Warren County,KY,40.833333333333336,NA,NA,NA,NA
42103,Warren County,KY,NA,62.98449612403101,NA,NA,NA
42104,Warren County,KY,37.870370370370374,NA,42.592592592592595,NA,NA
42141,Barren County,KY,NA,NA,11.43317230273752,NA,11.30952380952381
42164,Allen County,KY,55.00000000000001,NA,NA,NA,NA
42206,Logan County,KY,NA,NA,NA,97.34345351043643,99.40476190476191
42262,Christian County,KY,NA,NA,94.52495974235104,NA,NA
42276,Logan County,KY,54.35185185185185,NA,NA,NA,NA
42301,Daviess County,KY,10.555555555555555,NA,NA,NA,NA
42303,Daviess County,KY,20.09259259259259,NA,9.339774557165862,20.872865275142317,NA
42330,Muhlenberg County,KY,82.87037037037037,NA,72.70531400966183,NA,NA
42420,Henderson County,KY,NA,45.542635658914726,NA,NA,NA
42445,Caldwell County,KY,93.61111111111111,NA,NA,NA,NA
42459,Union County,KY,NA,NA,93.39774557165862,NA,NA
42553,Pulaski County,KY,NA,93.9922480620155,94.04186795491142,NA,NA
42701,Hardin County,KY,NA,NA,10.7085346215781,NA,NA
42718,Taylor County,KY,32.592592592592595,NA,NA,NA,NA
42748,Larue County,KY,NA,NA,87.19806763285024,NA,NA
42754,Grayson County,KY,37.592592592592595,NA,26.65056360708535,44.022770398481974,50.297619047619044
70001,Jefferson Parish,LA,49.81481481481482,NA,NA,NA,NA
70005,Jefferson Parish,LA,76.94444444444444,NA,NA,NA,NA
70058,Jefferson Parish,LA,69.9074074074074,NA,NA,NA,NA
70071,St. James Parish,LA,NA,95.73643410852713,NA,NA,NA
70115,Orleans Parish,LA,22.59259259259259,NA,NA,NA,NA
70117,Orleans Parish,LA,52.87037037037037,NA,NA,NA,NA
70127,Orleans Parish,LA,30.09259259259259,NA,NA,NA,NA
70345,Lafourche Parish,LA,94.81481481481482,NA,NA,NA,NA
70354,Lafourche Parish,LA,97.5925925925926,NA,NA,NA,NA
70360,Terrebonne Parish,LA,87.77777777777777,NA,NA,NA,NA
70363,Terrebonne Parish,LA,NA,3.875968992248062,NA,33.776091081593925,NA
70364,Terrebonne Parish,LA,4.814814814814815,NA,51.61030595813204,NA,NA
70380,St. Mary Parish,LA,NA,33.72093023255814,NA,NA,NA
70394,Lafourche Parish,LA,NA,NA,19.806763285024154,NA,NA
70395,Terrebonne Parish,LA,NA,NA,99.59742351046698,NA,NA
70401,Tangipahoa Parish,LA,9.444444444444445,NA,NA,NA,NA
70403,Tangipahoa Parish,LA,71.85185185185186,NA,NA,NA,NA
70422,Tangipahoa Parish,LA,62.22222222222222,NA,NA,NA,NA
70433,St. Tammany Parish,LA,NA,NA,NA,9.487666034155598,NA
70458,St. Tammany Parish,LA,53.70370370370371,NA,NA,NA,NA
70460,St. Tammany Parish,LA,NA,41.66666666666667,NA,NA,NA
70461,St. Tammany Parish,LA,NA,NA,NA,81.02466793168881,NA
70501,Lafayette Parish,LA,NA,52.51937984496124,1.8518518518518516,NA,NA
70517,St. Martin Parish,LA,NA,NA,NA,NA,41.66666666666667
70520,Lafayette Parish,LA,NA,NA,NA,NA,85.41666666666666
70538,St. Mary Parish,LA,NA,NA,NA,57.1157495256167,NA
70555,Vermilion Parish,LA,NA,91.86046511627907,NA,NA,NA
70560,Iberia Parish,LA,55.37037037037037,39.14728682170542,2.254428341384863,NA,32.73809523809524
70563,Iberia Parish,LA,NA,NA,94.20289855072464,NA,NA
70570,St. Landry Parish,LA,40,NA,1.0466988727858293,NA,NA
70586,Evangeline Parish,LA,92.4074074074074,NA,NA,NA,NA
70592,Lafayette Parish,LA,11.944444444444445,NA,NA,NA,NA
70601,Calcasieu Parish,LA,6.018518518518518,77.90697674418605,NA,NA,NA
70648,Allen Parish,LA,98.61111111111111,NA,NA,NA,NA
70663,Calcasieu Parish,LA,61.38888888888889,NA,NA,NA,NA
70791,East Baton Rouge Parish,LA,NA,NA,NA,31.688804554079695,NA
70810,East Baton Rouge Parish,LA,NA,NA,7.4074074074074066,NA,NA
70811,East Baton Rouge Parish,LA,NA,37.98449612403101,NA,NA,NA
70814,East Baton Rouge Parish,LA,90.27777777777779,NA,NA,NA,NA
71119,Caddo Parish,LA,NA,NA,NA,NA,70.53571428571429
71263,West Carroll Parish,LA,60.46296296296296,NA,NA,NA,58.63095238095239
71269,Richland Parish,LA,86.38888888888889,NA,NA,NA,NA
71302,Rapides Parish,LA,NA,71.31782945736434,NA,NA,NA
71327,Avoyelles Parish,LA,73.14814814814815,NA,NA,NA,NA
71360,Rapides Parish,LA,NA,NA,10.466988727858293,NA,NA
71403,Vernon Parish,LA,NA,NA,NA,99.62049335863378,NA
03901,York County,ME,NA,79.26356589147287,68.19645732689212,NA,NA
03909,York County,ME,67.87037037037037,NA,NA,NA,NA
04002,York County,ME,NA,90.50387596899225,78.4219001610306,NA,NA
04064,York County,ME,NA,NA,77.13365539452496,46.110056925996204,NA
04090,York County,ME,NA,NA,64.89533011272141,33.396584440227706,NA
04210,Androscoggin County,ME,NA,27.51937984496124,NA,NA,NA
04239,Franklin County,ME,NA,NA,90.33816425120773,NA,NA
04254,Androscoggin County,ME,95.18518518518519,NA,NA,NA,NA
04401,Penobscot County,ME,NA,NA,1.6908212560386473,NA,NA
04412,Penobscot County,ME,NA,NA,66.50563607085346,NA,NA
04457,Penobscot County,ME,NA,NA,72.62479871175523,NA,NA
04468,Penobscot County,ME,83.24074074074073,NA,NA,NA,NA
04915,Waldo County,ME,NA,NA,74.31561996779388,NA,NA
04938,Franklin County,ME,NA,NA,52.17391304347826,NA,NA
04976,Somerset County,ME,28.703703703703702,NA,NA,17.267552182163186,NA
20640,Charles County,MD,98.42592592592592,NA,NA,NA,NA
20715,Prince George's County,MD,56.111111111111114,NA,NA,NA,NA
20721,Prince George's County,MD,NA,NA,77.69726247987117,NA,NA
20735,Prince George's County,MD,NA,NA,NA,74.38330170777988,NA
20744,Prince George's County,MD,NA,NA,NA,41.935483870967744,NA
20748,Prince George's County,MD,NA,NA,44.605475040257645,NA,NA
20770,Prince George's County,MD,94.62962962962963,NA,NA,NA,NA
20871,Montgomery County,MD,76.66666666666667,NA,NA,NA,NA
20906,Montgomery County,MD,NA,NA,53.4621578099839,NA,NA
21009,Harford County,MD,NA,NA,49.19484702093398,NA,NA
21043,Howard County,MD,60.27777777777777,NA,NA,NA,NA
21060,Anne Arundel County,MD,NA,NA,28.019323671497588,NA,NA
21202,Baltimore city,MD,NA,NA,NA,61.859582542694504,NA
21207,Baltimore County,MD,55.833333333333336,NA,NA,NA,NA
21220,Baltimore County,MD,NA,NA,50.56360708534622,NA,NA
21224,Baltimore city,MD,26.75925925925926,NA,NA,NA,NA
21227,Baltimore County,MD,NA,NA,54.830917874396135,NA,NA
21234,Baltimore County,MD,NA,NA,15.619967793880837,NA,NA
21239,Baltimore city,MD,NA,NA,NA,21.062618595825427,NA
21401,Anne Arundel County,MD,25.833333333333336,NA,NA,NA,NA
21613,Dorchester County,MD,NA,NA,72.22222222222221,61.48007590132827,NA
21713,Washington County,MD,NA,NA,96.2157809983897,NA,NA
21784,Carroll County,MD,NA,NA,55.152979066022546,NA,NA
21811,Worcester County,MD,NA,NA,NA,NA,19.940476190476193
01020,Hampden County,MA,NA,NA,NA,NA,15.773809523809524
01040,Hampden County,MA,2.1296296296296298,NA,1.2077294685990339,2.4667931688804554,NA
01056,Hampden County,MA,NA,NA,NA,NA,13.690476190476192
01085,Hampden County,MA,73.51851851851852,NA,NA,95.63567362428842,NA
01104,Hampden County,MA,5.37037037037037,NA,NA,NA,NA
01108,Hampden County,MA,NA,NA,NA,NA,69.04761904761905
01118,Hampden County,MA,95.64814814814815,NA,NA,NA,NA
01129,Hampden County,MA,NA,NA,90.17713365539453,62.61859582542695,NA
01201,Berkshire County,MA,43.05555555555556,NA,0.08051529790660225,NA,NA
01247,Berkshire County,MA,NA,85.65891472868216,NA,11.385199240986717,NA
01331,Worcester County,MA,NA,NA,22.22222222222222,NA,NA
01440,Worcester County,MA,NA,NA,NA,66.60341555977229,11.904761904761903
01453,Worcester County,MA,NA,NA,NA,0.9487666034155597,NA
01473,Worcester County,MA,48.333333333333336,NA,NA,NA,NA
01550,Worcester County,MA,NA,NA,NA,98.86148007590133,NA
01568,Worcester County,MA,NA,NA,96.61835748792271,NA,NA
01569,Worcester County,MA,NA,NA,34.86312399355877,NA,NA
01702,Middlesex County,MA,NA,NA,0.966183574879227,NA,6.25
01757,Worcester County,MA,NA,NA,1.932367149758454,NA,NA
01810,Essex County,MA,25.37037037037037,NA,NA,NA,NA
01821,Middlesex County,MA,NA,NA,5.152979066022544,NA,NA
01824,Middlesex County,MA,NA,NA,8.776167471819646,NA,NA
01832,Essex County,MA,NA,NA,NA,11.76470588235294,NA
01833,Essex County,MA,NA,NA,83.09178743961353,NA,NA
01841,Essex County,MA,12.12962962962963,NA,NA,0.5692599620493358,NA
01844,Essex County,MA,NA,NA,0.8051529790660225,NA,NA
01852,Middlesex County,MA,NA,NA,NA,1.7077798861480076,NA
01854,Middlesex County,MA,NA,NA,NA,NA,7.440476190476191
01902,Essex County,MA,NA,0.5813953488372093,50.0805152979066,NA,NA
01904,Essex County,MA,NA,NA,NA,14.61100569259962,NA
01923,Essex County,MA,NA,NA,81.40096618357488,NA,NA
02019,Norfolk County,MA,66.20370370370371,NA,NA,NA,NA
02026,Norfolk County,MA,58.98148148148148,NA,4.830917874396135,NA,16.666666666666664
02035,Norfolk County,MA,NA,NA,NA,24.47817836812144,NA
02066,Plymouth County,MA,NA,NA,NA,48.19734345351044,NA
02072,Norfolk County,MA,NA,NA,NA,NA,12.797619047619047
02090,Norfolk County,MA,77.77777777777779,NA,NA,NA,NA
02118,Suffolk County,MA,2.8703703703703702,NA,54.428341384863124,1.1385199240986716,NA
02119,Suffolk County,MA,NA,NA,5.71658615136876,0.3795066413662239,22.916666666666664
02121,Suffolk County,MA,NA,NA,63.929146537842186,NA,NA
02122,Suffolk County,MA,NA,NA,NA,71.5370018975332,NA
02124,Suffolk County,MA,NA,NA,43.47826086956522,NA,NA
02125,Suffolk County,MA,NA,NA,3.6231884057971016,NA,NA
02126,Suffolk County,MA,NA,NA,4.508856682769726,4.554079696394687,NA
02127,Suffolk County,MA,NA,NA,22.705314009661837,NA,NA
02128,Suffolk County,MA,NA,NA,3.462157809983897,NA,NA
02130,Suffolk County,MA,NA,NA,NA,99.24098671726756,51.78571428571429
02132,Suffolk County,MA,NA,NA,NA,2.0872865275142316,NA
02301,Plymouth County,MA,NA,56.007751937984494,NA,NA,NA
02302,Plymouth County,MA,NA,NA,89.4524959742351,77.7988614800759,NA
02322,Norfolk County,MA,NA,NA,NA,97.34345351043643,NA
02332,Plymouth County,MA,NA,NA,NA,68.69070208728652,NA
02346,Plymouth County,MA,NA,NA,9.66183574879227,NA,NA
02351,Plymouth County,MA,NA,NA,15.70048309178744,NA,84.22619047619048
02370,Plymouth County,MA,NA,NA,NA,26.944971537001898,NA
02421,Middlesex County,MA,NA,NA,NA,40.41745730550284,NA
02446,Norfolk County,MA,NA,NA,18.760064412238325,NA,NA
02472,Middlesex County,MA,NA,NA,6.6827697262479875,NA,NA
02476,Middlesex County,MA,NA,NA,37.68115942028986,NA,NA
02532,Barnstable County,MA,NA,NA,NA,57.874762808349146,NA
02536,Barnstable County,MA,NA,32.945736434108525,NA,NA,NA
02538,Plymouth County,MA,NA,NA,98.79227053140096,NA,NA
02540,Barnstable County,MA,NA,NA,NA,78.55787476280834,NA
02576,Plymouth County,MA,89.07407407407408,NA,NA,NA,NA
02649,Barnstable County,MA,NA,NA,37.03703703703704,NA,NA
02673,Barnstable County,MA,NA,NA,97.98711755233495,NA,NA
02720,Bristol County,MA,NA,NA,0.1610305958132045,NA,NA
02723,Bristol County,MA,NA,NA,2.1739130434782608,NA,NA
02724,Bristol County,MA,72.22222222222221,NA,NA,6.072106261859583,NA
02726,Bristol County,MA,NA,NA,28.743961352657006,NA,NA
02740,Bristol County,MA,10.925925925925926,NA,0,NA,NA
02780,Bristol County,MA,NA,NA,79.54911433172302,88.23529411764706,NA
48001,St. Clair County,MI,NA,NA,71.1755233494364,NA,NA
48003,Lapeer County,MI,89.07407407407408,NA,NA,NA,NA
48009,Oakland County,MI,NA,NA,NA,67.36242884250474,NA
48021,Macomb County,MI,NA,NA,36.151368760064415,NA,NA
48026,Macomb County,MI,NA,NA,NA,45.54079696394687,NA
48030,Oakland County,MI,31.666666666666664,NA,NA,NA,NA
48033,Oakland County,MI,63.98148148148148,NA,74.47665056360708,NA,NA
48034,Oakland County,MI,40.18518518518518,NA,34.62157809983897,NA,NA
48035,Macomb County,MI,NA,NA,9.420289855072465,NA,NA
48038,Macomb County,MI,13.518518518518519,NA,NA,NA,NA
48051,Macomb County,MI,NA,63.372093023255815,NA,NA,NA
48059,St. Clair County,MI,NA,NA,89.61352657004831,NA,NA
48060,St. Clair County,MI,NA,NA,NA,6.261859582542694,NA
48071,Oakland County,MI,NA,NA,25.523349436392916,38.89943074003795,NA
48073,Oakland County,MI,NA,NA,28.985507246376812,NA,NA
48075,Oakland County,MI,NA,NA,30.515297906602257,NA,NA
48076,Oakland County,MI,16.85185185185185,NA,31.320450885668276,NA,NA
48080,Macomb County,MI,NA,NA,NA,15.180265654648956,NA
48085,Oakland County,MI,NA,NA,29.871175523349436,NA,NA
48088,Macomb County,MI,NA,NA,45.410628019323674,24.857685009487664,20.833333333333336
48091,Macomb County,MI,NA,NA,NA,76.280834914611,NA
48093,Macomb County,MI,42.77777777777778,NA,NA,NA,NA
48101,Wayne County,MI,NA,NA,NA,32.06831119544592,NA
48117,Monroe County,MI,NA,NA,53.4621578099839,NA,NA
48122,Wayne County,MI,41.75925925925926,NA,54.99194847020934,NA,NA
48127,Wayne County,MI,NA,NA,11.996779388083736,NA,NA
48134,Wayne County,MI,NA,56.201550387596896,NA,NA,NA
48135,Wayne County,MI,NA,NA,22.302737520128822,NA,NA
48141,Wayne County,MI,NA,NA,7.971014492753622,NA,NA
48146,Wayne County,MI,NA,NA,7.487922705314009,NA,NA
48150,Wayne County,MI,NA,68.4108527131783,NA,NA,NA
48152,Wayne County,MI,NA,NA,NA,7.020872865275142,NA
48165,Oakland County,MI,NA,NA,80.75684380032206,NA,NA
48174,Wayne County,MI,4.351851851851852,13.75968992248062,NA,NA,NA
48180,Wayne County,MI,1.4814814814814816,6.395348837209303,2.4154589371980677,NA,NA
48185,Wayne County,MI,NA,NA,5.475040257648954,NA,NA
48189,Washtenaw County,MI,NA,NA,61.75523349436393,NA,NA
48192,Wayne County,MI,21.203703703703702,NA,NA,NA,NA
48193,Wayne County,MI,54.35185185185185,NA,NA,NA,NA
48201,Wayne County,MI,NA,NA,NA,62.808349146110054,NA
48203,Wayne County,MI,14.25925925925926,NA,14.170692431561996,NA,NA
48204,Wayne County,MI,12.962962962962962,17.441860465116278,NA,33.206831119544596,NA
48205,Wayne County,MI,NA,NA,4.26731078904992,NA,NA
48206,Wayne County,MI,NA,32.945736434108525,NA,NA,NA
48207,Wayne County,MI,NA,44.96124031007752,18.59903381642512,NA,NA
48208,Wayne County,MI,NA,NA,84.13848631239935,NA,NA
48210,Wayne County,MI,10,NA,25.36231884057971,NA,NA
48212,Wayne County,MI,45.925925925925924,NA,NA,NA,71.42857142857143
48217,Wayne County,MI,NA,NA,67.9549114331723,NA,NA
48219,Wayne County,MI,23.796296296296298,NA,NA,3.225806451612903,NA
48221,Wayne County,MI,NA,NA,NA,6.641366223908918,3.273809523809524
48223,Wayne County,MI,NA,NA,12.077294685990339,NA,NA
48224,Wayne County,MI,NA,8.333333333333332,65.86151368760065,NA,NA
48225,Wayne County,MI,NA,NA,39.130434782608695,NA,NA
48227,Wayne County,MI,23.333333333333332,4.069767441860465,2.818035426731079,NA,NA
48228,Wayne County,MI,1.2037037037037037,NA,1.1272141706924315,NA,NA
48234,Wayne County,MI,4.722222222222222,NA,6.924315619967794,NA,NA
48235,Wayne County,MI,NA,NA,30.434782608695656,NA,NA
48237,Oakland County,MI,NA,26.937984496124027,20.28985507246377,NA,NA
48239,Wayne County,MI,NA,NA,7.729468599033816,NA,NA
48240,Wayne County,MI,NA,43.02325581395349,NA,NA,NA
48307,Oakland County,MI,NA,NA,17.713365539452496,NA,NA
48309,Oakland County,MI,75.37037037037037,NA,NA,NA,24.702380952380953
48310,Macomb County,MI,12.87037037037037,NA,78.66344605475041,NA,NA
48324,Oakland County,MI,NA,NA,60.95008051529791,NA,NA
48326,Oakland County,MI,NA,NA,81.48148148148148,NA,NA
48341,Oakland County,MI,NA,63.95348837209303,NA,NA,NA
48346,Oakland County,MI,NA,NA,NA,55.597722960151806,NA
48381,Oakland County,MI,NA,NA,NA,NA,54.166666666666664
48383,Oakland County,MI,NA,NA,72.06119162640901,NA,NA
48446,Lapeer County,MI,40.55555555555556,NA,NA,NA,NA
48458,Genesee County,MI,NA,NA,NA,58.82352941176471,NA
48462,Oakland County,MI,NA,NA,80.03220611916264,NA,NA
48504,Genesee County,MI,NA,NA,50.1610305958132,NA,NA
48505,Genesee County,MI,NA,NA,17.632850241545896,NA,NA
48506,Genesee County,MI,44.074074074074076,NA,NA,NA,NA
48507,Genesee County,MI,12.5,NA,NA,NA,NA
48532,Genesee County,MI,NA,NA,NA,43.833017077798864,NA
48601,Saginaw County,MI,NA,NA,1.4492753623188406,NA,NA
48603,Saginaw County,MI,NA,NA,11.11111111111111,NA,NA
48612,Gladwin County,MI,73.98148148148148,NA,NA,NA,NA
48629,Roscommon County,MI,89.44444444444444,NA,NA,NA,NA
48640,Midland County,MI,NA,NA,NA,16.129032258064516,NA
48750,Iosco County,MI,NA,NA,76.16747181964574,NA,NA
48756,Ogemaw County,MI,NA,NA,NA,86.33776091081594,NA
48843,Livingston County,MI,NA,NA,11.83574879227053,NA,NA
48849,Ionia County,MI,88.79629629629629,NA,NA,NA,NA
48858,Isabella County,MI,NA,NA,6.038647342995169,NA,NA
48876,Eaton County,MI,NA,NA,95.97423510466989,NA,NA
48880,Gratiot County,MI,NA,88.17829457364341,NA,NA,NA
48883,Isabella County,MI,74.81481481481481,NA,NA,NA,NA
48910,Ingham County,MI,4.074074074074074,NA,NA,NA,NA
49007,Kalamazoo County,MI,28.425925925925927,NA,NA,NA,NA
49010,Allegan County,MI,NA,NA,76.40901771336553,NA,NA
49014,Calhoun County,MI,NA,NA,51.12721417069244,NA,NA
49017,Calhoun County,MI,66.94444444444444,NA,NA,NA,NA
49022,Berrien County,MI,NA,NA,9.25925925925926,NA,NA
49036,Branch County,MI,NA,NA,27.616747181964573,NA,NA
49038,Berrien County,MI,NA,NA,NA,NA,64.88095238095238
49055,Van Buren County,MI,NA,NA,80.99838969404188,NA,NA
49078,Allegan County,MI,NA,NA,NA,NA,81.54761904761905
49080,Allegan County,MI,NA,NA,42.99516908212561,NA,NA
49087,Kalamazoo County,MI,85.27777777777777,NA,NA,NA,NA
49091,St. Joseph County,MI,NA,57.751937984496124,45.81320450885668,NA,NA
49201,Jackson County,MI,8.61111111111111,NA,8.373590982286634,NA,NA
49202,Jackson County,MI,NA,NA,NA,33.96584440227704,NA
49224,Calhoun County,MI,50.64814814814815,NA,83.25281803542673,NA,NA
49236,Lenawee County,MI,NA,NA,94.36392914653784,NA,NA
49348,Allegan County,MI,NA,NA,32.125603864734295,NA,NA
49424,Ottawa County,MI,35.46296296296296,NA,NA,NA,NA
49442,Muskegon County,MI,2.5925925925925926,NA,NA,NA,NA
49444,Muskegon County,MI,NA,NA,NA,22.58064516129032,NA
49445,Muskegon County,MI,NA,NA,35.507246376811594,NA,NA
49457,Muskegon County,MI,78.24074074074075,NA,NA,NA,NA
49507,Kent County,MI,28.61111111111111,NA,NA,NA,NA
49659,Antrim County,MI,82.5925925925926,NA,NA,NA,NA
49660,Manistee County,MI,NA,81.78294573643412,NA,NA,30.059523809523807
49727,Charlevoix County,MI,96.38888888888889,NA,NA,NA,NA
49735,Otsego County,MI,NA,NA,NA,20.683111954459203,NA
49738,Crawford County,MI,46.666666666666664,NA,NA,NA,NA
49801,Dickinson County,MI,NA,NA,65.37842190016103,NA,NA
49802,Dickinson County,MI,NA,87.20930232558139,NA,NA,NA
49841,Marquette County,MI,NA,79.26356589147287,NA,NA,NA
49854,Schoolcraft County,MI,NA,NA,94.28341384863124,NA,NA
49855,Marquette County,MI,NA,71.70542635658916,NA,NA,NA
49913,Houghton County,MI,NA,NA,59.74235104669887,NA,NA
49935,Iron County,MI,72.77777777777777,NA,NA,NA,NA
55006,Isanti County,MN,97.68518518518519,NA,NA,NA,NA
55009,Goodhue County,MN,NA,NA,73.51046698872786,64.13662239089184,NA
55021,Rice County,MN,45.370370370370374,48.06201550387597,NA,NA,51.19047619047619
55057,Rice County,MN,NA,NA,NA,94.30740037950665,NA
55068,Dakota County,MN,NA,NA,66.90821256038647,NA,NA
55082,Washington County,MN,NA,NA,83.01127214170693,NA,NA
55104,Ramsey County,MN,27.685185185185183,NA,NA,NA,NA
55106,Ramsey County,MN,NA,3.10077519379845,6.360708534621579,NA,NA
55107,Ramsey County,MN,NA,NA,75.1207729468599,NA,NA
55117,Ramsey County,MN,NA,NA,15.458937198067632,NA,NA
55119,Ramsey County,MN,NA,NA,NA,NA,42.55952380952381
55128,Washington County,MN,NA,42.44186046511628,NA,NA,NA
55330,Sherburne County,MN,NA,NA,NA,NA,54.166666666666664
55343,Hennepin County,MN,NA,NA,43.96135265700483,NA,NA
55346,Hennepin County,MN,NA,NA,NA,NA,79.16666666666666
55379,Scott County,MN,NA,NA,60.7085346215781,NA,NA
55398,Sherburne County,MN,NA,NA,77.77777777777779,NA,NA
55404,Hennepin County,MN,5.092592592592593,NA,0.8856682769726247,NA,NA
55405,Hennepin County,MN,NA,44.57364341085272,NA,NA,NA
55411,Hennepin County,MN,36.48148148148148,NA,NA,NA,NA
55416,Hennepin County,MN,NA,NA,42.914653784219006,NA,NA
55417,Hennepin County,MN,NA,NA,50.1610305958132,NA,NA
55418,Hennepin County,MN,NA,NA,NA,NA,53.57142857142857
55419,Hennepin County,MN,NA,NA,NA,NA,76.19047619047619
55423,Hennepin County,MN,17.59259259259259,NA,NA,NA,NA
55429,Hennepin County,MN,NA,NA,11.755233494363928,NA,NA
55432,Anoka County,MN,NA,NA,22.544283413848632,NA,66.96428571428571
55448,Anoka County,MN,NA,NA,NA,65.46489563567363,NA
55744,Itasca County,MN,NA,NA,14.814814814814813,NA,NA
55746,St. Louis County,MN,NA,NA,24.55716586151369,NA,NA
55805,St. Louis County,MN,NA,NA,NA,74.76280834914611,NA
55987,Winona County,MN,13.981481481481481,NA,NA,NA,NA
56031,Martin County,MN,23.055555555555557,NA,NA,NA,NA
56073,Brown County,MN,57.49999999999999,NA,NA,NA,NA
56101,Cottonwood County,MN,NA,NA,73.10789049919485,NA,NA
56201,Kandiyohi County,MN,NA,NA,45.249597423510465,NA,NA
56220,Yellow Medicine County,MN,96.85185185185186,NA,NA,NA,NA
56265,Chippewa County,MN,67.4074074074074,NA,NA,NA,NA
56267,Stevens County,MN,85.55555555555556,NA,NA,NA,NA
56352,Stearns County,MN,89.62962962962962,NA,NA,NA,NA
56362,Stearns County,MN,91.20370370370371,NA,NA,NA,NA
56364,Morrison County,MN,85.64814814814815,NA,NA,NA,NA
56377,Stearns County,MN,61.75925925925926,NA,NA,NA,NA
56401,Crow Wing County,MN,NA,NA,34.62157809983897,NA,NA
56431,Aitkin County,MN,NA,55.62015503875969,NA,NA,NA
56537,Otter Tail County,MN,NA,70.54263565891473,NA,NA,NA
56572,Otter Tail County,MN,NA,NA,NA,73.43453510436433,NA
56649,Koochiching County,MN,NA,NA,58.85668276972624,NA,NA
56721,Polk County,MN,NA,NA,54.347826086956516,NA,NA
38614,Coahoma County,MS,42.22222222222222,NA,NA,NA,NA
38683,Tippah County,MS,61.75925925925926,NA,NA,NA,NA
38801,Lee County,MS,9.722222222222223,NA,90.33816425120773,NA,NA
38828,Union County,MS,97.68518518518519,NA,NA,NA,NA
38834,Alcorn County,MS,NA,NA,19.243156199677937,NA,NA
38851,Chickasaw County,MS,NA,NA,95.49114331723028,NA,NA
38858,Monroe County,MS,87.4074074074074,NA,NA,NA,NA
38901,Grenada County,MS,48.24074074074074,NA,NA,NA,NA
39042,Rankin County,MS,23.425925925925924,NA,NA,NA,NA
39051,Leake County,MS,74.25925925925925,NA,NA,NA,NA
39074,Scott County,MS,NA,39.34108527131783,NA,NA,NA
39189,Leake County,MS,95.18518518518519,NA,NA,NA,NA
39194,Yazoo County,MS,NA,NA,NA,NA,80.35714285714286
39204,Hinds County,MS,NA,NA,NA,90.13282732447819,NA
39209,Hinds County,MS,NA,NA,NA,51.04364326375711,NA
39213,Hinds County,MS,15.185185185185185,NA,NA,NA,NA
39272,Hinds County,MS,NA,NA,81.23993558776168,NA,NA
39301,Lauderdale County,MS,26.944444444444443,60.07751937984496,NA,NA,NA
39305,Lauderdale County,MS,70.18518518518519,NA,NA,NA,NA
39307,Lauderdale County,MS,NA,44.18604651162791,NA,75.52182163187857,NA
39328,Kemper County,MS,NA,NA,NA,NA,97.91666666666666
39360,Clarke County,MS,NA,92.82945736434108,NA,NA,NA
39367,Wayne County,MS,NA,66.47286821705426,NA,71.34724857685009,NA
39401,Forrest County,MS,NA,NA,31.15942028985507,NA,NA
39402,Lamar County,MS,18.796296296296298,NA,NA,NA,NA
39429,Marion County,MS,NA,85.07751937984496,NA,NA,NA
39451,Greene County,MS,NA,93.9922480620155,NA,NA,NA
39452,George County,MS,8.703703703703704,37.01550387596899,NA,NA,NA
39483,Marion County,MS,NA,NA,NA,96.01518026565465,NA
39553,Jackson County,MS,33.51851851851852,NA,45.571658615136876,NA,NA
39560,Harrison County,MS,NA,NA,NA,44.78178368121442,NA
39565,Jackson County,MS,87.68518518518519,NA,NA,NA,NA
39576,Hancock County,MS,NA,NA,98.38969404186795,NA,NA
39641,Walthall County,MS,92.77777777777779,NA,NA,NA,NA
39648,Pike County,MS,53.7962962962963,27.906976744186046,19.404186795491142,NA,NA
39661,Franklin County,MS,NA,91.27906976744185,NA,NA,NA
39666,Pike County,MS,63.98148148148148,NA,NA,NA,NA
39773,Clay County,MS,NA,62.2093023255814,NA,NA,NA
63010,Jefferson County,MO,NA,NA,72.94685990338165,NA,NA
63017,St. Louis County,MO,44.72222222222222,NA,NA,NA,NA
63031,St. Louis County,MO,NA,NA,17.14975845410628,NA,NA
63033,St. Louis County,MO,15.462962962962962,NA,NA,NA,NA
63052,Jefferson County,MO,19.90740740740741,NA,NA,NA,NA
63106,St. Louis city,MO,NA,NA,NA,NA,87.79761904761905
63114,St. Louis County,MO,NA,NA,NA,32.44781783681214,NA
63118,St. Louis city,MO,NA,39.72868217054263,67.31078904991948,NA,NA
63121,St. Louis County,MO,44.44444444444444,NA,NA,NA,NA
63122,St. Louis County,MO,NA,NA,59.82286634460547,NA,NA
63123,St. Louis County,MO,17.037037037037038,NA,36.312399355877616,NA,NA
63125,St. Louis County,MO,NA,40.50387596899225,NA,NA,NA
63126,St. Louis County,MO,NA,NA,NA,83.87096774193549,NA
63129,St. Louis County,MO,50.27777777777778,NA,NA,NA,NA
63130,St. Louis County,MO,NA,84.30232558139535,NA,NA,NA
63132,St. Louis County,MO,NA,81.78294573643412,93.47826086956522,NA,NA
63134,St. Louis County,MO,48.333333333333336,NA,NA,NA,NA
63136,St. Louis County,MO,30.277777777777775,NA,NA,NA,NA
63137,St. Louis County,MO,NA,50.775193798449614,NA,NA,NA
63138,St. Louis County,MO,53.7962962962963,66.47286821705426,NA,NA,NA
63303,St. Charles County,MO,NA,NA,56.763285024154584,NA,NA
63379,Lincoln County,MO,56.481481481481474,NA,NA,NA,NA
63389,Lincoln County,MO,NA,NA,NA,92.40986717267552,NA
63552,Macon County,MO,NA,NA,82.3671497584541,NA,NA
63601,St. Francois County,MO,NA,45.15503875968992,NA,NA,NA
63640,St. Francois County,MO,NA,30.426356589147286,NA,NA,NA
63701,Cape Girardeau County,MO,NA,NA,39.049919484702095,NA,NA
64029,Jackson County,MO,NA,NA,39.53301127214171,NA,NA
64030,Jackson County,MO,8.055555555555555,NA,NA,NA,NA
64050,Jackson County,MO,8.88888888888889,NA,46.53784219001611,NA,NA
64056,Jackson County,MO,54.907407407407405,NA,NA,NA,NA
64060,Clay County,MO,NA,NA,88.48631239935588,NA,NA
64063,Jackson County,MO,NA,NA,NA,42.8842504743833,NA
64064,Jackson County,MO,NA,NA,82.0450885668277,NA,NA
64068,Clay County,MO,7.87037037037037,75.7751937984496,NA,NA,NA
64075,Jackson County,MO,NA,NA,42.7536231884058,NA,NA
64085,Ray County,MO,77.68518518518519,NA,NA,NA,NA
64106,Jackson County,MO,7.685185185185185,NA,62.56038647342995,NA,NA
64117,Clay County,MO,28.888888888888886,NA,NA,NA,NA
64118,Clay County,MO,NA,NA,5.233494363929147,NA,NA
64119,Clay County,MO,NA,NA,NA,NA,38.392857142857146
64127,Jackson County,MO,8.333333333333332,NA,NA,NA,NA
64131,Jackson County,MO,NA,38.565891472868216,NA,NA,NA
64132,Jackson County,MO,26.01851851851852,NA,NA,NA,NA
64133,Jackson County,MO,0.6481481481481481,NA,NA,NA,NA
64134,Jackson County,MO,NA,NA,12.47987117552335,NA,NA
64151,Platte County,MO,20.09259259259259,NA,NA,NA,NA
64153,Platte County,MO,NA,NA,88.32528180354268,NA,NA
64157,Clay County,MO,12.962962962962962,NA,NA,NA,NA
64158,Clay County,MO,NA,NA,91.22383252818037,NA,NA
64503,Buchanan County,MO,NA,NA,60.22544283413849,NA,NA
64730,Bates County,MO,88.05555555555556,NA,NA,NA,NA
64801,Jasper County,MO,10.74074074074074,NA,NA,NA,NA
64804,Jasper County,MO,NA,22.48062015503876,NA,NA,NA
65043,Callaway County,MO,53.05555555555556,NA,NA,NA,NA
65270,Randolph County,MO,NA,49.224806201550386,NA,NA,NA
65301,Pettis County,MO,NA,NA,4.1062801932367154,NA,NA
65337,Pettis County,MO,NA,NA,97.58454106280193,NA,NA
65355,Benton County,MO,NA,NA,52.89855072463768,NA,NA
65401,Phelps County,MO,NA,23.837209302325583,NA,NA,NA
65616,Taney County,MO,NA,81.2015503875969,NA,NA,NA
65802,Greene County,MO,14.814814814814813,NA,NA,NA,NA
59047,Park County,MT,NA,NA,NA,73.24478178368122,NA
59105,Yellowstone County,MT,NA,NA,88.00322061191626,NA,NA
59457,Fergus County,MT,NA,NA,NA,94.68690702087287,NA
59634,Jefferson County,MT,NA,NA,94.68599033816425,NA,NA
59715,Gallatin County,MT,70.74074074074073,NA,NA,NA,NA
59718,Gallatin County,MT,44.074074074074076,NA,NA,NA,NA
59870,Ravalli County,MT,NA,NA,91.78743961352657,NA,NA
59901,Flathead County,MT,NA,NA,30.75684380032206,NA,NA
68025,Dodge County,NE,NA,NA,34.13848631239936,NA,NA
68116,Douglas County,NE,NA,96.51162790697676,NA,NA,NA
68134,Douglas County,NE,NA,NA,58.373590982286636,NA,NA
68137,Douglas County,NE,NA,NA,NA,51.61290322580645,NA
68144,Douglas County,NE,NA,NA,NA,NA,42.857142857142854
68502,Lancaster County,NE,NA,86.43410852713178,NA,NA,NA
68503,Lancaster County,NE,NA,NA,75.92592592592592,NA,NA
68507,Lancaster County,NE,57.22222222222222,NA,NA,NA,NA
68516,Lancaster County,NE,NA,NA,68.35748792270532,NA,NA
68521,Lancaster County,NE,NA,NA,63.12399355877617,NA,NA
68661,Colfax County,NE,90.83333333333333,NA,NA,NA,NA
68803,Hall County,NE,57.96296296296296,NA,NA,NA,NA
68845,Buffalo County,NE,NA,99.6124031007752,NA,NA,NA
68850,Dawson County,NE,NA,NA,NA,NA,89.28571428571429
69101,Lincoln County,NE,NA,NA,22.946859903381643,NA,NA
69130,Dawson County,NE,95.83333333333334,NA,NA,NA,NA
69301,Box Butte County,NE,41.75925925925926,NA,NA,NA,NA
89104,Clark County,NV,NA,NA,38.486312399355874,NA,NA
89117,Clark County,NV,73.14814814814815,NA,NA,NA,NA
89118,Clark County,NV,95,NA,NA,NA,NA
89119,Clark County,NV,56.111111111111114,NA,NA,NA,NA
89122,Clark County,NV,NA,NA,NA,NA,52.67857142857143
89123,Clark County,NV,53.05555555555556,NA,NA,NA,NA
89130,Clark County,NV,69.53703703703704,NA,NA,NA,NA
89131,Clark County,NV,71.2037037037037,NA,NA,NA,NA
89142,Clark County,NV,67.68518518518518,NA,NA,NA,NA
89147,Clark County,NV,NA,NA,NA,55.21821631878557,NA
89166,Clark County,NV,NA,NA,NA,95.44592030360532,NA
89183,Clark County,NV,NA,NA,65.37842190016103,NA,NA
89408,Lyon County,NV,47.22222222222222,NA,NA,NA,NA
89429,Lyon County,NV,73.98148148148148,NA,NA,NA,NA
89431,Washoe County,NV,31.666666666666664,NA,21.175523349436393,NA,NA
89433,Washoe County,NV,84.44444444444444,NA,NA,64.51612903225806,NA
89434,Washoe County,NV,NA,NA,76.24798711755234,NA,NA
89436,Washoe County,NV,NA,NA,22.383252818035427,NA,NA
89502,Washoe County,NV,42.77777777777778,NA,NA,NA,NA
89512,Washoe County,NV,45.370370370370374,NA,NA,NA,NA
89701,Carson City,NV,NA,NA,38.727858293075684,46.86907020872865,48.214285714285715
89703,Carson City,NV,93.88888888888889,NA,NA,NA,NA
89706,Carson City,NV,70,NA,62.23832528180354,NA,NA
03038,Rockingham County,NH,NA,NA,NA,18.40607210626186,NA
03060,Hillsborough County,NH,NA,35.65891472868217,NA,NA,NA
03062,Hillsborough County,NH,NA,75.96899224806202,NA,NA,NA
03104,Hillsborough County,NH,14.537037037037038,NA,13.043478260869565,NA,NA
03276,Merrimack County,NH,82.03703703703704,NA,NA,NA,NA
03301,Merrimack County,NH,NA,NA,NA,NA,5.654761904761905
03431,Cheshire County,NH,NA,NA,28.5829307568438,NA,9.523809523809524
03561,Grafton County,NH,66.75925925925927,NA,NA,NA,NA
03570,Coos County,NH,NA,NA,73.34943639291465,NA,NA
03819,Rockingham County,NH,98.70370370370371,NA,NA,NA,NA
03842,Rockingham County,NH,NA,NA,NA,31.309297912713475,NA
03851,Strafford County,NH,NA,NA,NA,99.43074003795066,NA
03857,Rockingham County,NH,NA,NA,NA,NA,95.53571428571429
03861,Strafford County,NH,NA,NA,99.35587761674718,NA,NA
03865,Rockingham County,NH,NA,NA,NA,77.60910815939279,NA
07002,Hudson County,NJ,86.48148148148148,19.186046511627907,NA,NA,NA
07011,Passaic County,NJ,NA,NA,NA,27.893738140417458,NA
07012,Passaic County,NJ,NA,NA,NA,NA,100
07013,Passaic County,NJ,NA,NA,NA,38.70967741935484,NA
07026,Bergen County,NJ,NA,NA,NA,94.49715370018976,NA
07032,Hudson County,NJ,NA,NA,20.69243156199678,NA,NA
07034,Morris County,NJ,95.18518518518519,NA,NA,NA,NA
07036,Union County,NJ,31.38888888888889,NA,NA,NA,NA
07050,Essex County,NJ,NA,NA,59.17874396135265,NA,NA
07054,Morris County,NJ,NA,NA,NA,NA,36.607142857142854
07066,Union County,NJ,90,NA,NA,NA,NA
07083,Union County,NJ,NA,NA,NA,NA,28.273809523809522
07087,Hudson County,NJ,NA,NA,NA,5.692599620493358,NA
07090,Union County,NJ,NA,NA,NA,72.67552182163189,NA
07104,Essex County,NJ,NA,NA,NA,52.75142314990512,NA
07107,Essex County,NJ,NA,37.7906976744186,NA,NA,NA
07108,Essex County,NJ,NA,28.68217054263566,NA,NA,NA
07202,Union County,NJ,NA,NA,NA,NA,27.380952380952383
07204,Union County,NJ,NA,NA,92.9951690821256,NA,NA
07304,Hudson County,NJ,NA,NA,NA,NA,76.48809523809523
07305,Hudson County,NJ,4.907407407407407,NA,NA,NA,NA
07306,Hudson County,NJ,NA,NA,NA,13.282732447817835,57.14285714285714
07307,Hudson County,NJ,94.16666666666667,NA,9.903381642512077,NA,NA
07405,Morris County,NJ,NA,NA,83.89694041867955,NA,NA
07444,Morris County,NJ,NA,NA,NA,NA,41.07142857142857
07456,Passaic County,NJ,NA,NA,NA,93.7381404174573,NA
07470,Passaic County,NJ,NA,NA,NA,NA,8.333333333333332
07481,Bergen County,NJ,NA,NA,NA,NA,67.26190476190477
07501,Passaic County,NJ,NA,NA,70.53140096618358,NA,NA
07503,Passaic County,NJ,81.11111111111111,NA,NA,NA,NA
07508,Passaic County,NJ,NA,NA,28.180354267310786,NA,NA
07522,Passaic County,NJ,NA,NA,57.80998389694042,NA,NA
07631,Bergen County,NJ,95.74074074074073,NA,NA,NA,NA
07643,Bergen County,NJ,NA,NA,NA,NA,94.94047619047619
07656,Bergen County,NJ,NA,NA,NA,96.9639468690702,NA
07666,Bergen County,NJ,NA,NA,64.17069243156199,NA,NA
07719,Monmouth County,NJ,NA,NA,NA,69.8292220113852,NA
07722,Monmouth County,NJ,77.5,NA,NA,NA,NA
07724,Monmouth County,NJ,NA,NA,26.32850241545894,NA,NA
07728,Monmouth County,NJ,76.01851851851852,NA,NA,NA,NA
07730,Monmouth County,NJ,76.94444444444444,NA,NA,NA,NA
07731,Monmouth County,NJ,NA,19.57364341085271,NA,NA,NA
07733,Monmouth County,NJ,NA,NA,NA,NA,69.34523809523809
07739,Monmouth County,NJ,98.05555555555556,NA,NA,NA,NA
07740,Monmouth County,NJ,NA,49.031007751937985,63.04347826086957,NA,NA
07746,Monmouth County,NJ,93.24074074074075,NA,NA,NA,NA
07753,Monmouth County,NJ,NA,NA,NA,11.005692599620494,NA
07801,Morris County,NJ,NA,63.372093023255815,19.082125603864732,NA,NA
07840,Warren County,NJ,NA,NA,95.24959742351047,NA,NA
07843,Sussex County,NJ,NA,NA,NA,87.09677419354838,NA
07876,Morris County,NJ,NA,NA,91.38486312399355,NA,NA
07945,Morris County,NJ,NA,NA,NA,94.11764705882352,NA
08009,Camden County,NJ,NA,NA,91.30434782608695,NA,NA
08010,Burlington County,NJ,90.55555555555556,NA,NA,NA,NA
08012,Camden County,NJ,NA,NA,5.555555555555555,NA,NA
08028,Gloucester County,NJ,NA,NA,NA,60.341555977229596,NA
08046,Burlington County,NJ,NA,NA,6.119162640901772,NA,NA
08050,Ocean County,NJ,NA,24.224806201550386,NA,NA,NA
08096,Gloucester County,NJ,18.24074074074074,70.93023255813954,NA,NA,NA
08103,Camden County,NJ,NA,NA,4.669887278582931,NA,NA
08104,Camden County,NJ,NA,NA,NA,91.27134724857684,NA
08234,Atlantic County,NJ,NA,NA,72.86634460547504,NA,NA
08360,Cumberland County,NJ,NA,NA,0.4830917874396135,NA,NA
08520,Mercer County,NJ,NA,NA,99.03381642512076,NA,NA
08527,Ocean County,NJ,NA,NA,NA,7.7798861480075905,NA
08533,Ocean County,NJ,NA,NA,NA,96.39468690702088,NA
08609,Mercer County,NJ,48.333333333333336,NA,NA,NA,NA
08611,Mercer County,NJ,68.51851851851852,NA,24.074074074074073,NA,NA
08618,Mercer County,NJ,25.462962962962965,NA,49.8389694041868,NA,37.202380952380956
08619,Mercer County,NJ,36.851851851851855,NA,NA,NA,NA
08628,Mercer County,NJ,NA,95.73643410852713,NA,NA,NA
08638,Mercer County,NJ,NA,80.81395348837209,NA,40.79696394686907,NA
08723,Ocean County,NJ,NA,NA,NA,23.719165085388994,NA
08753,Ocean County,NJ,7.5,NA,NA,NA,NA
08757,Ocean County,NJ,NA,NA,11.272141706924316,NA,NA
08758,Ocean County,NJ,NA,93.7984496124031,NA,NA,NA
08844,Somerset County,NJ,NA,NA,NA,NA,62.797619047619044
08854,Middlesex County,NJ,NA,NA,7.326892109500806,95.82542694497154,NA
08857,Middlesex County,NJ,NA,NA,93.71980676328504,NA,NA
08861,Middlesex County,NJ,NA,NA,90.82125603864735,81.78368121442125,NA
08863,Middlesex County,NJ,72.22222222222221,NA,NA,NA,NA
08879,Middlesex County,NJ,94.53703703703704,NA,NA,NA,NA
08889,Hunterdon County,NJ,NA,NA,NA,92.22011385199241,NA
08902,Middlesex County,NJ,NA,NA,NA,81.59392789373814,NA
87031,Valencia County,NM,NA,NA,27.294685990338163,NA,NA
87102,Bernalillo County,NM,NA,NA,NA,50.664136622390885,NA
87110,Bernalillo County,NM,NA,NA,NA,44.4022770398482,NA
87111,Bernalillo County,NM,NA,38.565891472868216,NA,NA,NA
87301,McKinley County,NM,24.25925925925926,NA,NA,NA,NA
87321,McKinley County,NM,99.44444444444444,NA,NA,NA,NA
87323,McKinley County,NM,97.68518518518519,NA,NA,NA,NA
87327,Cibola County,NM,NA,22.868217054263564,NA,NA,NA
87417,San Juan County,NM,NA,80.62015503875969,NA,NA,NA
87506,Santa Fe County,NM,79.25925925925927,NA,NA,NA,88.09523809523809
87532,Santa Fe County,NM,NA,9.30232558139535,NA,NA,NA
87571,Taos County,NM,NA,58.91472868217055,NA,NA,NA
88011,Doa Ana County,NM,31.11111111111111,NA,NA,47.43833017077799,NA
88012,Doa Ana County,NM,NA,NA,33.091787439613526,NA,NA
88203,Chaves County,NM,15.648148148148147,NA,18.84057971014493,NA,NA
88240,Lea County,NM,9.537037037037036,NA,NA,NA,30.357142857142854
88242,Lea County,NM,89.35185185185185,NA,NA,NA,NA
88352,Otero County,NM,NA,NA,94.92753623188406,NA,NA
10002,New York County,NY,NA,25,NA,22.2011385199241,NA
10009,New York County,NY,NA,NA,8.454106280193237,NA,NA
10016,New York County,NY,NA,NA,NA,NA,25.595238095238095
10023,New York County,NY,NA,NA,NA,15.370018975332068,NA
10024,New York County,NY,NA,NA,NA,24.667931688804554,NA
10025,New York County,NY,NA,NA,NA,1.5180265654648957,NA
10026,New York County,NY,NA,NA,24.637681159420293,NA,NA
10031,New York County,NY,73.51851851851852,NA,NA,NA,NA
10032,New York County,NY,NA,NA,NA,NA,6.547619047619048
10033,New York County,NY,NA,NA,48.389694041867955,NA,16.964285714285715
10034,New York County,NY,25.555555555555554,NA,NA,NA,NA
10037,New York County,NY,65.83333333333333,NA,NA,NA,NA
10039,New York County,NY,85.0925925925926,NA,NA,NA,NA
10301,Richmond County,NY,NA,9.30232558139535,NA,NA,NA
10303,Richmond County,NY,79.07407407407408,NA,NA,NA,NA
10306,Richmond County,NY,30.462962962962965,NA,NA,NA,NA
10312,Richmond County,NY,NA,NA,NA,NA,21.428571428571427
10451,Bronx County,NY,4.444444444444445,1.744186046511628,NA,NA,NA
10452,Bronx County,NY,1.9444444444444444,0.1937984496124031,NA,1.3282732447817838,13.392857142857142
10453,Bronx County,NY,0.0925925925925926,1.3565891472868217,NA,10.056925996204933,NA
10455,Bronx County,NY,NA,6.007751937984496,4.3478260869565215,NA,NA
10456,Bronx County,NY,0,0,7.648953301127214,NA,NA
10457,Bronx County,NY,1.0185185185185186,NA,NA,8.918406072106261,NA
10458,Bronx County,NY,0.4629629629629629,NA,31.80354267310789,NA,9.226190476190476
10459,Bronx County,NY,26.38888888888889,NA,NA,NA,NA
10460,Bronx County,NY,0.5555555555555556,NA,NA,NA,12.5
10461,Bronx County,NY,48.7962962962963,8.527131782945736,10.950080515297907,NA,NA
10462,Bronx County,NY,NA,NA,NA,4.933586337760911,9.821428571428571
10463,Bronx County,NY,NA,NA,NA,4.743833017077799,NA
10466,Bronx County,NY,8.425925925925926,1.550387596899225,4.428341384863124,NA,12.202380952380953
10467,Bronx County,NY,0.1851851851851852,NA,5.072463768115942,0.7590132827324478,1.488095238095238
10468,Bronx County,NY,NA,1.1627906976744187,NA,NA,NA
10469,Bronx County,NY,14.537037037037038,NA,NA,NA,NA
10473,Bronx County,NY,NA,NA,NA,7.590132827324478,NA
10475,Bronx County,NY,79.07407407407408,NA,NA,NA,NA
10504,Westchester County,NY,NA,NA,NA,NA,95.23809523809523
10541,Putnam County,NY,NA,96.89922480620154,NA,NA,NA
10543,Westchester County,NY,75.83333333333333,NA,NA,NA,NA
10573,Westchester County,NY,NA,NA,89.29146537842189,NA,NA
10601,Westchester County,NY,NA,81.5891472868217,NA,NA,NA
10603,Westchester County,NY,80.46296296296296,NA,NA,NA,NA
10605,Westchester County,NY,93.51851851851852,NA,NA,NA,NA
10606,Westchester County,NY,64.25925925925927,28.875968992248062,NA,NA,NA
10701,Westchester County,NY,60.092592592592595,6.5891472868217065,10.064412238325282,4.174573055028463,22.023809523809522
10703,Westchester County,NY,NA,NA,36.231884057971016,NA,NA
10704,Westchester County,NY,82.5925925925926,NA,NA,NA,NA
10705,Westchester County,NY,72.12962962962963,7.55813953488372,34.29951690821256,NA,NA
10801,Westchester County,NY,NA,NA,31.48148148148148,NA,NA
10940,Orange County,NY,57.68518518518518,NA,NA,NA,NA
10977,Rockland County,NY,NA,NA,NA,62.99810246679317,NA
10992,Orange County,NY,99.35185185185185,NA,NA,NA,NA
10993,Rockland County,NY,99.72222222222223,NA,NA,NA,NA
11003,Nassau County,NY,65.64814814814814,NA,NA,NA,NA
11096,Nassau County,NY,NA,88.17829457364341,NA,NA,NA
11101,Queens County,NY,NA,NA,57.1658615136876,NA,NA
11102,Queens County,NY,NA,NA,78.90499194847021,NA,NA
11103,Queens County,NY,NA,63.17829457364341,NA,NA,NA
11203,Kings County,NY,NA,7.3643410852713185,NA,6.83111954459203,NA
11204,Kings County,NY,46.111111111111114,NA,NA,NA,NA
11205,Kings County,NY,NA,NA,NA,NA,75
11207,Kings County,NY,NA,0.3875968992248062,4.99194847020934,NA,NA
11212,Kings County,NY,1.7592592592592593,NA,NA,NA,NA
11216,Kings County,NY,38.51851851851852,NA,NA,NA,NA
11219,Kings County,NY,NA,NA,12.80193236714976,NA,NA
11221,Kings County,NY,25.185185185185183,NA,NA,NA,NA
11224,Kings County,NY,NA,NA,NA,NA,1.7857142857142856
11225,Kings County,NY,NA,NA,NA,17.077798861480076,NA
11226,Kings County,NY,23.055555555555557,NA,3.864734299516908,NA,NA
11229,Kings County,NY,NA,NA,26.08695652173913,NA,NA
11230,Kings County,NY,NA,NA,15.780998389694043,NA,NA
11233,Kings County,NY,NA,2.7131782945736433,NA,NA,NA
11234,Kings County,NY,31.11111111111111,NA,NA,12.7134724857685,NA
11235,Kings County,NY,NA,NA,NA,NA,1.1904761904761905
11236,Kings County,NY,NA,NA,20.611916264090176,NA,NA
11237,Kings County,NY,36.2962962962963,4.457364341085271,NA,NA,NA
11354,Queens County,NY,NA,NA,NA,NA,23.511904761904763
11358,Queens County,NY,NA,NA,95.73268921095008,62.428842504743834,NA
11368,Queens County,NY,34.44444444444444,NA,NA,NA,NA
11369,Queens County,NY,29.537037037037038,NA,NA,NA,NA
11373,Queens County,NY,5.555555555555555,2.5193798449612403,NA,17.836812144212523,NA
11378,Queens County,NY,NA,46.70542635658915,NA,NA,NA
11385,Queens County,NY,7.222222222222221,19.379844961240313,NA,NA,37.5
11412,Queens County,NY,NA,NA,NA,49.33586337760911,NA
11416,Queens County,NY,NA,NA,79.95169082125604,NA,NA
11419,Queens County,NY,NA,NA,39.2109500805153,NA,NA
11422,Queens County,NY,82.87037037037037,NA,NA,NA,NA
11423,Queens County,NY,NA,NA,NA,48.007590132827325,NA
11426,Queens County,NY,NA,NA,NA,84.62998102466793,NA
11427,Queens County,NY,NA,NA,NA,74.76280834914611,NA
11429,Queens County,NY,NA,72.86821705426357,NA,NA,NA
11433,Queens County,NY,NA,NA,NA,NA,29.761904761904763
11434,Queens County,NY,18.98148148148148,NA,NA,NA,NA
11435,Queens County,NY,NA,6.976744186046512,NA,NA,29.166666666666668
11520,Nassau County,NY,NA,NA,31.40096618357488,78.74762808349146,NA
11550,Nassau County,NY,NA,NA,10.547504025764894,NA,36.30952380952381
11552,Nassau County,NY,NA,NA,84.54106280193237,NA,NA
11693,Queens County,NY,NA,NA,95.89371980676329,NA,NA
11702,Suffolk County,NY,NA,NA,94.76650563607085,NA,NA
11704,Suffolk County,NY,NA,NA,57.326892109500804,NA,NA
11713,Suffolk County,NY,85.64814814814815,NA,NA,NA,NA
11720,Suffolk County,NY,NA,NA,NA,NA,30.654761904761905
11722,Suffolk County,NY,NA,NA,56.28019323671497,NA,NA
11752,Suffolk County,NY,NA,95.15503875968993,NA,NA,NA
11758,Nassau County,NY,NA,NA,NA,39.658444022770404,19.345238095238095
11766,Suffolk County,NY,NA,NA,NA,80.45540796963947,NA
11772,Suffolk County,NY,46.574074074074076,NA,30.676328502415455,NA,NA
11782,Suffolk County,NY,NA,NA,98.06763285024155,NA,NA
11788,Suffolk County,NY,NA,NA,96.5378421900161,NA,NA
11790,Suffolk County,NY,NA,NA,93.80032206119162,NA,NA
11793,Nassau County,NY,NA,NA,88.96940418679549,NA,NA
11950,Suffolk County,NY,70.37037037037037,NA,NA,NA,NA
11951,Suffolk County,NY,NA,60.65891472868217,70.37037037037037,NA,NA
11953,Suffolk County,NY,NA,NA,86.71497584541062,NA,NA
11967,Suffolk County,NY,NA,NA,66.66666666666666,NA,NA
12210,Albany County,NY,NA,NA,60.38647342995169,NA,NA
12303,Schenectady County,NY,NA,NA,38.32528180354267,NA,NA
12309,Schenectady County,NY,NA,NA,NA,NA,42.26190476190476
12401,Ulster County,NY,NA,NA,20.531400966183575,NA,NA
12428,Ulster County,NY,NA,NA,NA,93.92789373814043,NA
12498,Ulster County,NY,NA,NA,NA,NA,95.83333333333334
12528,Ulster County,NY,NA,NA,82.4476650563607,NA,NA
12563,Putnam County,NY,NA,NA,95.81320450885669,NA,NA
12779,Sullivan County,NY,99.53703703703704,NA,NA,NA,NA
12839,Washington County,NY,NA,39.53488372093023,NA,NA,NA
12901,Clinton County,NY,NA,NA,2.898550724637681,NA,NA
12957,Franklin County,NY,NA,NA,98.47020933977456,NA,NA
12972,Clinton County,NY,NA,NA,57.085346215780994,NA,NA
13021,Cayuga County,NY,NA,NA,34.54106280193236,NA,NA
13033,Cayuga County,NY,96.94444444444444,NA,NA,NA,NA
13036,Oswego County,NY,NA,63.95348837209303,85.82930756843801,NA,94.34523809523809
13045,Cortland County,NY,NA,NA,3.784219001610306,NA,NA
13074,Oswego County,NY,NA,NA,NA,92.97912713472486,NA
13116,Onondaga County,NY,NA,NA,92.35104669887278,NA,NA
13118,Cayuga County,NY,86.57407407407408,NA,NA,NA,NA
13126,Oswego County,NY,NA,NA,3.3816425120772946,NA,NA
13135,Oswego County,NY,NA,NA,87.76167471819646,NA,NA
13140,Cayuga County,NY,NA,NA,85.10466988727859,NA,NA
13158,Cortland County,NY,95.83333333333334,NA,NA,NA,NA
13205,Onondaga County,NY,16.203703703703702,NA,12.318840579710146,NA,NA
13207,Onondaga County,NY,NA,NA,29.71014492753623,NA,NA
13212,Onondaga County,NY,NA,NA,NA,NA,63.39285714285714
13215,Onondaga County,NY,NA,NA,NA,57.3055028462998,NA
13219,Onondaga County,NY,NA,NA,57.00483091787439,NA,NA
13350,Herkimer County,NY,NA,NA,33.81642512077295,NA,NA
13440,Oneida County,NY,NA,NA,29.066022544283417,5.502846299810247,NA
13613,St. Lawrence County,NY,NA,NA,NA,98.4819734345351,NA
13619,Jefferson County,NY,NA,70.73643410852713,48.06763285024155,NA,NA
13662,St. Lawrence County,NY,NA,NA,6.843800322061192,NA,NA
13669,St. Lawrence County,NY,NA,28.100775193798448,55.152979066022546,NA,NA
13748,Broome County,NY,81.48148148148148,NA,NA,NA,NA
13760,Broome County,NY,24.72222222222222,NA,0.644122383252818,NA,NA
13778,Chenango County,NY,NA,NA,NA,NA,74.10714285714286
13790,Broome County,NY,16.01851851851852,NA,8.695652173913043,NA,NA
13815,Chenango County,NY,NA,NA,13.285024154589372,NA,NA
13827,Tioga County,NY,NA,NA,21.658615136876005,NA,NA
13849,Otsego County,NY,80.83333333333333,NA,NA,NA,NA
13850,Broome County,NY,NA,NA,NA,25.806451612903224,4.464285714285714
13901,Broome County,NY,42.407407407407405,NA,3.7037037037037033,4.364326375711575,NA
13905,Broome County,NY,NA,13.565891472868216,NA,NA,NA
14009,Wyoming County,NY,NA,NA,86.79549114331722,NA,NA
14011,Wyoming County,NY,NA,NA,NA,90.32258064516128,NA
14020,Genesee County,NY,NA,NA,61.35265700483091,NA,NA
14048,Chautauqua County,NY,NA,NA,36.553945249597426,NA,NA
14051,Erie County,NY,NA,NA,NA,50.853889943074,NA
14058,Genesee County,NY,NA,NA,89.13043478260869,NA,NA
14063,Chautauqua County,NY,80.18518518518518,NA,NA,NA,NA
14086,Erie County,NY,NA,NA,NA,NA,66.07142857142857
14120,Niagara County,NY,NA,NA,4.5893719806763285,NA,NA
14125,Genesee County,NY,NA,NA,87.68115942028986,NA,NA
14132,Niagara County,NY,93.33333333333333,NA,NA,NA,NA
14136,Chautauqua County,NY,NA,99.2248062015504,NA,NA,NA
14204,Erie County,NY,NA,NA,NA,61.29032258064516,NA
14208,Erie County,NY,NA,NA,27.697262479871178,NA,NA
14214,Erie County,NY,NA,NA,30.193236714975846,NA,NA
14215,Erie County,NY,60.18518518518518,NA,NA,8.538899430740038,NA
14222,Erie County,NY,NA,NA,55.95813204508857,NA,NA
14223,Erie County,NY,NA,NA,62.39935587761675,NA,NA
14225,Erie County,NY,61.66666666666667,NA,NA,NA,NA
14304,Niagara County,NY,NA,NA,4.750402576489534,NA,NA
14411,Orleans County,NY,NA,NA,NA,NA,71.13095238095238
14425,Ontario County,NY,NA,NA,NA,27.32447817836812,NA
14456,Ontario County,NY,52.407407407407405,NA,NA,NA,NA
14468,Monroe County,NY,NA,NA,16.82769726247987,NA,NA
14469,Ontario County,NY,NA,96.89922480620154,NA,NA,NA
14470,Orleans County,NY,NA,NA,46.69887278582931,NA,NA
14482,Genesee County,NY,59.62962962962963,NA,NA,NA,NA
14489,Wayne County,NY,53.7962962962963,NA,31.642512077294686,NA,NA
14527,Yates County,NY,NA,NA,25.845410628019323,NA,NA
14590,Wayne County,NY,NA,NA,45.00805152979066,NA,NA
14606,Monroe County,NY,NA,NA,2.657004830917874,NA,NA
14609,Monroe County,NY,NA,NA,0.40257648953301123,NA,NA
14613,Monroe County,NY,NA,NA,10.628019323671497,NA,NA
14623,Monroe County,NY,9.907407407407408,NA,NA,NA,NA
14624,Monroe County,NY,NA,NA,2.49597423510467,NA,NA
14727,Allegany County,NY,NA,96.12403100775194,NA,NA,NA
14743,Cattaraugus County,NY,NA,NA,99.19484702093398,NA,NA
14810,Steuben County,NY,NA,NA,NA,49.52561669829222,NA
14843,Steuben County,NY,NA,NA,20.933977455716587,NA,NA
14850,Tompkins County,NY,34.81481481481482,NA,NA,NA,NA
14867,Tompkins County,NY,NA,NA,87.27858293075684,NA,NA
14886,Tompkins County,NY,84.44444444444444,NA,NA,71.91650853889942,NA
27023,Forsyth County,NC,NA,NA,NA,NA,38.98809523809524
27028,Davie County,NC,NA,NA,14.170692431561996,NA,NA
27040,Forsyth County,NC,88.79629629629629,NA,NA,NA,NA
27105,Forsyth County,NC,NA,NA,14.090177133655393,NA,NA
27106,Forsyth County,NC,NA,NA,12.399355877616747,3.415559772296015,NA
27107,Forsyth County,NC,NA,NA,4.186795491143317,NA,2.083333333333333
27205,Randolph County,NC,NA,NA,41.30434782608695,NA,NA
27253,Alamance County,NC,NA,NA,15.458937198067632,NA,NA
27260,Guilford County,NC,NA,NA,22.06119162640902,NA,NA
27284,Forsyth County,NC,NA,NA,NA,1.8975332068311195,NA
27330,Lee County,NC,NA,NA,21.578099838969404,NA,NA
27406,Guilford County,NC,6.296296296296296,NA,NA,13.851992409867172,NA
27410,Guilford County,NC,NA,NA,30.83735909822866,NA,NA
27513,Wake County,NC,NA,NA,NA,NA,54.761904761904766
27536,Vance County,NC,NA,49.41860465116279,NA,NA,NA
27577,Johnston County,NC,NA,NA,44.605475040257645,NA,NA
27591,Wake County,NC,NA,NA,57.971014492753625,NA,NA
27592,Wake County,NC,NA,NA,72.54428341384863,NA,NA
27604,Wake County,NC,NA,NA,32.367149758454104,NA,NA
27606,Wake County,NC,NA,NA,47.26247987117552,NA,NA
27614,Wake County,NC,50.27777777777778,NA,NA,NA,NA
27615,Wake County,NC,NA,NA,40.66022544283413,NA,NA
27713,Durham County,NC,NA,NA,23.42995169082126,NA,NA
27801,Edgecombe County,NC,NA,NA,39.291465378421904,NA,NA
27823,Halifax County,NC,NA,NA,77.85829307568439,NA,NA
27834,Pitt County,NC,NA,NA,NA,16.888045540796963,NA
27851,Wilson County,NC,NA,98.83720930232558,NA,NA,NA
27856,Nash County,NC,NA,NA,79.30756843800322,NA,NA
27863,Wayne County,NC,58.88888888888889,NA,NA,NA,NA
27870,Halifax County,NC,NA,NA,22.14170692431562,NA,NA
27889,Beaufort County,NC,NA,NA,30.193236714975846,NA,NA
27891,Nash County,NC,75.64814814814815,NA,NA,NA,NA
27892,Martin County,NC,NA,NA,79.22705314009661,NA,NA
28001,Stanly County,NC,NA,NA,30.917874396135264,NA,NA
28016,Gaston County,NC,NA,NA,46.2157809983897,NA,NA
28037,Lincoln County,NC,71.57407407407408,NA,NA,NA,NA
28043,Rutherford County,NC,76.94444444444444,NA,NA,44.59203036053131,NA
28056,Gaston County,NC,NA,NA,NA,NA,82.73809523809523
28104,Union County,NC,41.48148148148148,NA,NA,NA,NA
28115,Iredell County,NC,NA,NA,NA,NA,86.60714285714286
28139,Rutherford County,NC,NA,72.86821705426357,36.795491143317236,NA,NA
28202,Mecklenburg County,NC,NA,NA,96.77938808373591,NA,NA
28215,Mecklenburg County,NC,9.166666666666666,NA,NA,NA,NA
28304,Cumberland County,NC,24.25925925925926,34.689922480620154,65.70048309178745,NA,NA
28306,Bladen County,NC,NA,NA,NA,37.381404174573056,NA
28311,Cumberland County,NC,49.907407407407405,31.782945736434108,NA,NA,NA
28314,Cumberland County,NC,4.2592592592592595,11.24031007751938,29.549114331723025,40.03795066413662,NA
28333,Wayne County,NC,89.07407407407408,NA,NA,NA,NA
28337,Bladen County,NC,NA,NA,NA,NA,84.52380952380952
28340,Robeson County,NC,NA,NA,56.84380032206119,NA,NA
28341,Duplin County,NC,NA,89.72868217054264,NA,NA,NA
28352,Scotland County,NC,51.2962962962963,NA,NA,NA,NA
28358,Robeson County,NC,11.851851851851853,NA,NA,31.499051233396585,NA
28365,Wayne County,NC,NA,NA,63.76811594202898,NA,NA
28379,Richmond County,NC,NA,NA,NA,28.27324478178368,NA
28384,Bladen County,NC,83.61111111111111,NA,NA,NA,NA
28401,New Hanover County,NC,14.722222222222223,NA,NA,NA,NA
28458,Duplin County,NC,90,NA,NA,NA,NA
28462,Brunswick County,NC,NA,NA,83.81642512077295,NA,83.63095238095238
28463,Columbus County,NC,NA,68.4108527131783,NA,NA,NA
28469,Brunswick County,NC,92.5,NA,NA,NA,NA
28470,Brunswick County,NC,76.57407407407408,NA,NA,NA,NA
28472,Columbus County,NC,NA,NA,35.668276972624795,NA,NA
28560,Craven County,NC,NA,NA,27.77777777777778,NA,NA
28572,Duplin County,NC,NA,NA,NA,93.54838709677419,NA
28585,Jones County,NC,98.88888888888889,NA,NA,NA,NA
28586,Craven County,NC,NA,89.72868217054264,NA,NA,NA
28601,Catawba County,NC,NA,26.16279069767442,13.446054750402576,NA,NA
28609,Catawba County,NC,NA,NA,NA,92.59962049335864,NA
28613,Catawba County,NC,NA,NA,NA,43.643263757115754,NA
28645,Caldwell County,NC,NA,NA,3.542673107890499,NA,NA
28655,Burke County,NC,NA,NA,5.314009661835748,NA,NA
28659,Wilkes County,NC,NA,57.751937984496124,NA,NA,NA
28690,Burke County,NC,91.2962962962963,NA,NA,NA,NA
28697,Wilkes County,NC,NA,NA,NA,NA,63.69047619047619
28713,Swain County,NC,NA,54.84496124031008,NA,NA,NA
28715,Buncombe County,NC,NA,NA,49.43639291465378,NA,NA
28716,Haywood County,NC,42.129629629629626,NA,80.59581320450886,NA,NA
28719,Jackson County,NC,NA,12.984496124031008,NA,67.93168880455408,NA
28721,Haywood County,NC,NA,NA,77.05314009661835,NA,NA
28723,Jackson County,NC,NA,NA,92.02898550724638,NA,NA
28734,Macon County,NC,24.90740740740741,NA,NA,NA,NA
28741,Macon County,NC,NA,NA,93.63929146537842,NA,NA
28771,Graham County,NC,88.24074074074075,51.74418604651163,NA,NA,NA
28779,Jackson County,NC,59.62962962962963,NA,84.70209339774557,NA,NA
28786,Haywood County,NC,NA,79.26356589147287,34.38003220611916,NA,NA
28803,Buncombe County,NC,NA,NA,51.28824476650563,NA,NA
28806,Buncombe County,NC,NA,NA,NA,NA,36.01190476190476
28904,Clay County,NC,96.94444444444444,93.9922480620155,NA,NA,NA
58104,Cass County,ND,29.907407407407405,NA,NA,13.092979127134724,NA
58601,Stark County,ND,NA,NA,43.39774557165861,NA,NA
43015,Delaware County,OH,NA,13.75968992248062,NA,NA,NA
43026,Franklin County,OH,NA,12.790697674418606,NA,NA,NA
43028,Knox County,OH,NA,NA,92.8341384863124,NA,40.773809523809526
43040,Union County,OH,NA,NA,25.442834138486315,59.58254269449716,NA
43050,Knox County,OH,NA,NA,50.64412238325282,NA,NA
43055,Licking County,OH,3.7962962962962963,NA,NA,NA,NA
43056,Licking County,OH,65.0925925925926,NA,37.52012882447665,NA,NA
43062,Licking County,OH,NA,NA,NA,NA,45.83333333333333
43064,Madison County,OH,NA,93.9922480620155,NA,NA,NA
43068,Franklin County,OH,3.2407407407407405,NA,NA,NA,NA
43081,Franklin County,OH,10.277777777777777,NA,NA,NA,NA
43110,Franklin County,OH,NA,NA,NA,11.57495256166983,NA
43113,Pickaway County,OH,68.51851851851852,NA,NA,NA,NA
43119,Franklin County,OH,NA,NA,NA,54.26944971537002,NA
43130,Fairfield County,OH,NA,9.883720930232558,1.288244766505636,NA,NA
43135,Hocking County,OH,NA,NA,97.02093397745571,NA,NA
43138,Hocking County,OH,16.666666666666664,NA,64.573268921095,NA,NA
43201,Franklin County,OH,NA,NA,47.26247987117552,NA,NA
43203,Franklin County,OH,NA,NA,70.61191626409018,NA,NA
43204,Franklin County,OH,7.962962962962964,20.73643410852713,NA,NA,NA
43207,Franklin County,OH,0.3703703703703704,NA,NA,NA,NA
43213,Franklin County,OH,6.388888888888888,NA,NA,NA,43.154761904761905
43219,Franklin County,OH,NA,NA,14.492753623188406,NA,NA
43223,Franklin County,OH,NA,0.9689922480620154,NA,NA,NA
43227,Franklin County,OH,12.962962962962962,8.914728682170542,NA,NA,40.476190476190474
43228,Franklin County,OH,3.0555555555555554,3.2945736434108532,NA,NA,NA
43229,Franklin County,OH,6.851851851851852,0.7751937984496124,NA,NA,NA
43232,Franklin County,OH,NA,NA,53.3816425120773,NA,NA
43302,Marion County,OH,3.6111111111111107,5.62015503875969,1.7713365539452495,NA,5.059523809523809
43326,Hardin County,OH,NA,NA,49.51690821256038,81.97343453510436,NA
43334,Morrow County,OH,NA,NA,78.01932367149759,NA,NA
43338,Morrow County,OH,40.925925925925924,NA,NA,65.84440227703985,NA
43351,Wyandot County,OH,NA,NA,NA,56.35673624288425,NA
43412,Lucas County,OH,NA,NA,NA,97.91271347248576,NA
43420,Sandusky County,OH,2.7777777777777777,NA,36.07085346215781,NA,NA
43502,Fulton County,OH,NA,NA,84.62157809983897,NA,NA
43506,Williams County,OH,NA,NA,23.59098228663446,NA,NA
43515,Fulton County,OH,NA,NA,68.67954911433173,NA,NA
43551,Wood County,OH,38.333333333333336,49.41860465116279,NA,8.159392789373813,NA
43558,Fulton County,OH,66.57407407407408,NA,NA,51.423149905123346,NA
43606,Lucas County,OH,37.22222222222222,NA,16.10305958132045,NA,NA
43609,Lucas County,OH,NA,NA,22.86634460547504,NA,NA
43610,Lucas County,OH,NA,NA,66.98872785829307,NA,NA
43613,Lucas County,OH,1.2962962962962963,NA,3.22061191626409,NA,NA
43615,Lucas County,OH,NA,NA,18.438003220611915,NA,NA
43620,Lucas County,OH,NA,67.24806201550388,NA,NA,NA
43701,Muskingum County,OH,NA,NA,NA,7.400379506641366,NA
43783,Perry County,OH,93.88888888888889,NA,NA,NA,NA
43812,Coshocton County,OH,11.574074074074074,10.465116279069768,NA,NA,NA
43920,Columbiana County,OH,NA,25.581395348837212,NA,NA,NA
43935,Belmont County,OH,36.851851851851855,NA,NA,NA,NA
43952,Jefferson County,OH,NA,NA,29.468599033816425,NA,NA
43953,Jefferson County,OH,19.25925925925926,NA,NA,NA,NA
44017,Cuyahoga County,OH,NA,NA,35.42673107890499,NA,NA
44030,Ashtabula County,OH,NA,42.63565891472868,NA,NA,NA
44035,Lorain County,OH,5.7407407407407405,NA,0.24154589371980675,0,NA
44039,Lorain County,OH,NA,81.2015503875969,NA,NA,NA
44050,Lorain County,OH,NA,NA,74.15458937198068,NA,NA
44052,Lorain County,OH,NA,4.651162790697675,2.576489533011272,NA,NA
44053,Lorain County,OH,20.833333333333336,NA,NA,NA,NA
44055,Lorain County,OH,2.314814814814815,NA,32.608695652173914,NA,NA
44060,Lake County,OH,NA,NA,6.44122383252818,NA,0.5952380952380952
44062,Geauga County,OH,NA,NA,NA,NA,91.66666666666666
44102,Cuyahoga County,OH,NA,NA,NA,2.846299810246679,NA
44105,Cuyahoga County,OH,20.555555555555554,NA,NA,NA,NA
44109,Cuyahoga County,OH,NA,NA,0.322061191626409,NA,NA
44112,Cuyahoga County,OH,NA,NA,7.004830917874397,NA,NA
44117,Cuyahoga County,OH,NA,NA,41.70692431561997,NA,NA
44121,Cuyahoga County,OH,NA,NA,8.937198067632849,13.66223908918406,NA
44129,Cuyahoga County,OH,20.925925925925924,NA,NA,NA,NA
44134,Cuyahoga County,OH,NA,NA,7.1658615136876005,NA,NA
44137,Cuyahoga County,OH,NA,NA,5.636070853462158,NA,NA
44139,Cuyahoga County,OH,NA,NA,NA,14.421252371916509,NA
44143,Cuyahoga County,OH,NA,NA,NA,14.990512333965844,NA
44145,Cuyahoga County,OH,NA,45.93023255813954,16.74718196457327,NA,NA
44146,Cuyahoga County,OH,NA,NA,6.199677938808374,NA,NA
44413,Columbiana County,OH,NA,NA,NA,NA,81.54761904761905
44446,Trumbull County,OH,41.574074074074076,41.86046511627907,NA,NA,NA
44460,Columbiana County,OH,NA,NA,20.128824476650564,NA,NA
75072,NA,NA,NA,NA,83.97745571658615,NA,NA
44483,Trumbull County,OH,NA,NA,NA,13.472485768500949,NA
44484,Trumbull County,OH,NA,NA,62.72141706924316,NA,NA
44505,Mahoning County,OH,12.037037037037036,NA,30.35426731078905,NA,NA
44609,Mahoning County,OH,NA,NA,98.63123993558777,NA,NA
44685,Summit County,OH,NA,NA,45.73268921095008,NA,NA
44709,Stark County,OH,NA,52.13178294573644,NA,NA,NA
44814,Erie County,OH,84.9074074074074,NA,NA,NA,NA
44827,Crawford County,OH,81.2037037037037,NA,NA,NA,NA
44870,Erie County,OH,0.7407407407407408,NA,1.529790660225443,NA,NA
44883,Seneca County,OH,NA,NA,16.988727858293075,NA,NA
44903,Richland County,OH,67.77777777777779,NA,50.40257648953301,19.924098671726757,NA
44906,Richland County,OH,9.722222222222223,NA,NA,NA,NA
45011,Butler County,OH,0.2777777777777778,1.937984496124031,2.0933977455716586,NA,NA
45036,Warren County,OH,NA,NA,20.048309178743963,NA,NA
45040,Warren County,OH,7.12962962962963,NA,NA,NA,NA
45044,Butler County,OH,NA,NA,NA,14.041745730550284,NA
45066,Warren County,OH,30.462962962962965,NA,NA,NA,NA
45202,Hamilton County,OH,NA,NA,52.73752012882448,NA,NA
45231,Hamilton County,OH,NA,NA,NA,19.54459203036053,NA
45242,Hamilton County,OH,52.5,NA,72.22222222222221,NA,NA
45247,Hamilton County,OH,NA,NA,NA,NA,27.67857142857143
45248,Hamilton County,OH,NA,NA,NA,63.946869070208734,NA
45322,Montgomery County,OH,24.537037037037038,NA,NA,NA,NA
45342,Montgomery County,OH,NA,NA,9.822866344605476,NA,NA
45344,Clark County,OH,35.18518518518518,NA,NA,NA,NA
45365,Shelby County,OH,8.796296296296296,NA,NA,NA,NA
45383,Miami County,OH,88.42592592592592,NA,NA,NA,NA
45403,Montgomery County,OH,NA,NA,35.990338164251206,NA,NA
45414,Montgomery County,OH,17.77777777777778,NA,NA,NA,NA
45417,Montgomery County,OH,NA,5.038759689922481,NA,NA,NA
45426,Montgomery County,OH,30.185185185185187,NA,NA,NA,NA
45429,Montgomery County,OH,NA,NA,NA,34.53510436432637,NA
45431,Montgomery County,OH,NA,43.21705426356589,NA,NA,NA
45449,Montgomery County,OH,42.31481481481482,NA,NA,50.47438330170778,NA
45601,Ross County,OH,NA,NA,NA,0.18975332068311196,NA
45614,Gallia County,OH,76.66666666666667,NA,NA,NA,NA
45619,Lawrence County,OH,NA,65.11627906976744,NA,NA,NA
45631,Gallia County,OH,36.388888888888886,12.5968992248062,NA,NA,NA
45638,Lawrence County,OH,10.092592592592593,NA,NA,NA,NA
45648,Scioto County,OH,60,NA,NA,NA,NA
45656,Jackson County,OH,NA,NA,62.47987117552335,NA,NA
45661,Pike County,OH,83.24074074074073,63.95348837209303,NA,NA,NA
45662,Scioto County,OH,NA,NA,2.737520128824477,NA,NA
45692,Jackson County,OH,34.35185185185185,15.891472868217054,NA,NA,NA
45764,Athens County,OH,72.77777777777777,50.775193798449614,NA,NA,NA
45769,Meigs County,OH,NA,NA,64.4927536231884,NA,NA
45804,Allen County,OH,18.425925925925927,NA,NA,NA,NA
45805,Allen County,OH,31.11111111111111,NA,NA,NA,NA
45822,Mercer County,OH,NA,NA,36.87600644122383,NA,NA
45872,Wood County,OH,NA,NA,87.35909822866344,NA,NA
45885,Auglaize County,OH,NA,NA,41.54589371980676,NA,NA
73018,Grady County,OK,NA,NA,46.3768115942029,NA,NA
73064,Canadian County,OK,NA,NA,NA,NA,44.047619047619044
73110,Oklahoma County,OK,21.48148148148148,NA,NA,NA,NA
73112,Oklahoma County,OK,NA,NA,NA,NA,56.25
73120,Oklahoma County,OK,37.31481481481482,NA,NA,NA,NA
73130,Oklahoma County,OK,NA,NA,NA,NA,29.166666666666668
73139,Oklahoma County,OK,NA,NA,54.66988727858293,NA,NA
73501,Comanche County,OK,NA,NA,NA,NA,70.23809523809523
73507,Comanche County,OK,10.555555555555555,NA,NA,NA,NA
73701,Garfield County,OK,NA,NA,NA,NA,26.488095238095237
74015,Rogers County,OK,90.55555555555556,NA,NA,NA,NA
74063,Tulsa County,OK,32.870370370370374,NA,NA,NA,NA
74127,Tulsa County,OK,37.592592592592595,NA,NA,NA,NA
74338,Delaware County,OK,NA,NA,97.02093397745571,NA,NA
74441,Cherokee County,OK,90.92592592592592,NA,NA,NA,NA
74447,Okmulgee County,OK,NA,58.91472868217055,NA,NA,NA
74464,Cherokee County,OK,NA,NA,8.293075684380032,NA,NA
74467,Wagoner County,OK,79.44444444444444,NA,NA,NA,NA
74501,Pittsburg County,OK,NA,NA,51.449275362318836,NA,NA
74848,Hughes County,OK,NA,NA,78.8244766505636,NA,NA
97005,Washington County,OR,NA,NA,49.033816425120776,NA,NA
97006,Washington County,OR,NA,NA,64.65378421900161,NA,NA
97008,Washington County,OR,NA,NA,85.02415458937197,NA,NA
97030,Multnomah County,OR,NA,NA,NA,NA,60.71428571428571
97058,Wasco County,OR,NA,44.57364341085272,NA,NA,NA
97060,Multnomah County,OR,NA,NA,42.351046698872786,NA,NA
97070,Clackamas County,OR,NA,NA,NA,NA,34.82142857142857
97080,Multnomah County,OR,33.611111111111114,NA,NA,NA,NA
97128,Yamhill County,OR,NA,NA,51.04669887278583,NA,NA
97132,Yamhill County,OR,NA,78.68217054263566,NA,NA,NA
97141,Tillamook County,OR,NA,NA,64.97584541062803,NA,NA
97202,Multnomah County,OR,47.5,NA,NA,NA,NA
97205,Multnomah County,OR,NA,NA,85.90982286634461,NA,NA
97217,Multnomah County,OR,NA,NA,NA,NA,80.05952380952381
97219,Multnomah County,OR,NA,NA,NA,NA,57.44047619047619
97220,Multnomah County,OR,NA,NA,NA,32.63757115749525,NA
97225,Washington County,OR,NA,NA,74.23510466988728,NA,NA
97233,Multnomah County,OR,NA,NA,15.217391304347828,NA,NA
97266,Multnomah County,OR,NA,NA,NA,35.483870967741936,NA
97306,Marion County,OR,NA,NA,NA,NA,66.36904761904762
97330,Benton County,OR,NA,NA,NA,27.703984819734345,NA
97392,Marion County,OR,93.14814814814815,NA,NA,NA,NA
97404,Lane County,OR,NA,NA,NA,53.32068311195446,59.523809523809526
97424,Lane County,OR,47.31481481481482,NA,NA,NA,NA
97426,Lane County,OR,NA,NA,94.76650563607085,NA,NA
97444,Curry County,OR,NA,NA,NA,NA,92.85714285714286
97457,Douglas County,OR,NA,NA,NA,NA,91.96428571428571
97471,Douglas County,OR,NA,NA,NA,7.2106261859582546,NA
97477,Lane County,OR,NA,NA,23.268921095008054,NA,NA
97478,Lane County,OR,NA,NA,NA,49.146110056926,NA
97501,Jackson County,OR,50.83333333333333,NA,8.051529790660226,NA,30.952380952380953
97502,Jackson County,OR,NA,NA,39.61352657004831,NA,NA
97503,Jackson County,OR,91.11111111111111,NA,NA,NA,NA
97504,Jackson County,OR,27.500000000000004,NA,20.209339774557165,NA,5.357142857142857
97520,Jackson County,OR,NA,NA,NA,NA,31.845238095238095
97524,Jackson County,OR,NA,77.32558139534885,NA,NA,NA
97526,Josephine County,OR,NA,NA,NA,36.05313092979127,NA
97527,Josephine County,OR,NA,NA,NA,NA,62.5
97720,Harney County,OR,96.94444444444444,NA,93.80032206119162,NA,NA
97838,Umatilla County,OR,19.90740740740741,NA,16.586151368760063,NA,NA
97850,Union County,OR,NA,NA,NA,70.39848197343453,NA
15010,Beaver County,PA,NA,NA,20.853462157809986,NA,NA
15106,Allegheny County,PA,NA,NA,NA,65.08538899430741,NA
15108,Allegheny County,PA,NA,NA,NA,18.785578747628083,NA
15120,Allegheny County,PA,NA,NA,44.524959742351044,NA,NA
15129,Allegheny County,PA,NA,NA,NA,NA,83.03571428571429
15205,Allegheny County,PA,NA,NA,47.90660225442834,NA,NA
15214,Allegheny County,PA,NA,NA,53.7842190016103,NA,NA
15217,Allegheny County,PA,NA,NA,NA,22.770398481973434,NA
15221,Allegheny County,PA,NA,NA,NA,NA,18.452380952380953
15320,Greene County,PA,86.57407407407408,NA,NA,NA,NA
15401,Fayette County,PA,NA,NA,7.085346215780998,NA,NA
15642,Westmoreland County,PA,NA,NA,21.256038647342994,NA,NA
15644,Westmoreland County,PA,46.85185185185185,NA,NA,NA,NA
15656,Westmoreland County,PA,NA,NA,74.9597423510467,NA,NA
15668,Westmoreland County,PA,NA,NA,82.93075684380032,NA,NA
15767,Jefferson County,PA,NA,NA,27.053140096618357,NA,NA
15824,Jefferson County,PA,68.7962962962963,NA,NA,NA,NA
15963,Somerset County,PA,NA,NA,NA,60.53130929791271,NA
16001,Butler County,PA,NA,NA,3.059581320450886,2.6565464895635675,NA
16002,Butler County,PA,63.05555555555556,NA,NA,NA,NA
16057,Butler County,PA,NA,NA,67.8743961352657,NA,72.91666666666666
16101,Lawrence County,PA,NA,NA,5.877616747181964,NA,NA
16146,Mercer County,PA,NA,29.651162790697676,NA,NA,NA
16150,Mercer County,PA,44.53703703703704,NA,NA,NA,NA
16323,Venango County,PA,NA,NA,52.41545893719807,NA,NA
16601,Blair County,PA,NA,NA,33.33333333333333,NA,NA
16686,Blair County,PA,75.55555555555556,55.23255813953488,NA,NA,NA
16823,Centre County,PA,41.75925925925926,NA,NA,NA,NA
16833,Clearfield County,PA,NA,NA,NA,63.75711574952562,NA
17011,Cumberland County,PA,NA,NA,25.76489533011272,NA,NA
17055,Cumberland County,PA,NA,53.100775193798455,27.938808373590984,18.026565464895636,NA
17078,Lebanon County,PA,NA,NA,NA,NA,8.035714285714286
17110,Dauphin County,PA,27.12962962962963,NA,NA,NA,NA
17202,Franklin County,PA,76.29629629629629,NA,NA,NA,NA
17222,Franklin County,PA,NA,71.70542635658916,NA,NA,NA
17257,Cumberland County,PA,NA,NA,NA,26.185958254269448,NA
17268,Franklin County,PA,22.22222222222222,74.8062015503876,NA,63.5673624288425,NA
17320,Adams County,PA,NA,NA,92.6731078904992,NA,NA
17601,Lancaster County,PA,33.24074074074074,NA,NA,NA,NA
17756,Lycoming County,PA,NA,NA,74.7181964573269,NA,NA
17837,Union County,PA,72.77777777777777,NA,NA,NA,NA
17842,Snyder County,PA,NA,NA,82.5281803542673,NA,NA
17857,Northumberland County,PA,NA,NA,68.27697262479872,NA,NA
17870,Snyder County,PA,NA,NA,48.631239935587764,NA,NA
18015,Northampton County,PA,NA,NA,7.890499194847021,NA,17.261904761904763
18031,Lehigh County,PA,NA,NA,80.11272141706924,NA,NA
18055,Northampton County,PA,NA,NA,40.25764895330113,NA,NA
18103,Lehigh County,PA,1.6666666666666667,NA,NA,NA,NA
18201,Luzerne County,PA,27.962962962962962,35.27131782945737,NA,NA,NA
18235,Carbon County,PA,38.98148148148148,NA,NA,NA,NA
18252,Schuylkill County,PA,NA,NA,NA,58.254269449715366,NA
18428,Pike County,PA,NA,83.33333333333334,NA,NA,NA
18433,Lackawanna County,PA,NA,NA,92.35104669887278,NA,NA
18436,Wayne County,PA,74.9074074074074,NA,NA,NA,NA
18504,Lackawanna County,PA,NA,NA,NA,83.11195445920305,NA
18822,Susquehanna County,PA,95.55555555555556,NA,NA,NA,NA
18966,Bucks County,PA,26.851851851851855,NA,NA,NA,NA
19001,Montgomery County,PA,50,NA,NA,NA,NA
19004,Montgomery County,PA,44.351851851851855,NA,NA,NA,NA
19007,Bucks County,PA,39.53703703703704,NA,NA,NA,NA
19010,Delaware County,PA,43.148148148148145,NA,NA,NA,NA
19013,Delaware County,PA,NA,NA,3.140096618357488,14.800759013282732,NA
19023,Delaware County,PA,NA,NA,63.68760064412239,NA,NA
19053,Bucks County,PA,38.7037037037037,NA,NA,NA,NA
19054,Bucks County,PA,61.2037037037037,NA,NA,NA,NA
19057,Bucks County,PA,63.24074074074074,NA,NA,NA,NA
19064,Delaware County,PA,NA,NA,NA,48.38709677419355,NA
19073,Delaware County,PA,NA,NA,NA,NA,17.857142857142858
19087,Chester County,PA,NA,NA,80.67632850241546,NA,NA
19094,Delaware County,PA,NA,NA,92.27053140096618,NA,NA
19107,Philadelphia County,PA,74.25925925925925,NA,NA,NA,NA
19114,Philadelphia County,PA,NA,NA,51.368760064412236,NA,NA
19116,Philadelphia County,PA,NA,NA,NA,16.318785578747626,26.190476190476193
19119,Philadelphia County,PA,49.44444444444444,NA,58.69565217391305,NA,NA
19120,Philadelphia County,PA,4.166666666666666,NA,NA,NA,NA
19124,Philadelphia County,PA,3.3333333333333335,NA,NA,NA,NA
19128,Philadelphia County,PA,30.462962962962965,NA,NA,29.411764705882355,NA
19130,Philadelphia County,PA,NA,NA,38.164251207729464,NA,NA
19131,Philadelphia County,PA,NA,NA,5.797101449275362,NA,NA
19136,Philadelphia County,PA,NA,NA,10.38647342995169,NA,NA
19139,Philadelphia County,PA,NA,NA,3.9452495974235107,NA,NA
19140,Philadelphia County,PA,NA,NA,2.0128824476650564,NA,NA
19143,Philadelphia County,PA,NA,NA,0.7246376811594203,33.586337760910816,NA
19146,Philadelphia County,PA,20.925925925925924,NA,NA,NA,NA
19147,Philadelphia County,PA,NA,NA,69.88727858293076,NA,NA
19148,Philadelphia County,PA,NA,NA,32.045088566827694,NA,NA
19153,Philadelphia County,PA,NA,NA,66.42512077294685,84.25047438330171,NA
19320,Chester County,PA,NA,NA,8.856682769726248,NA,NA
19335,Chester County,PA,NA,NA,16.908212560386474,NA,NA
19355,Chester County,PA,21.944444444444443,NA,NA,NA,NA
19380,Chester County,PA,NA,NA,NA,6.451612903225806,NA
19390,Chester County,PA,NA,NA,81.15942028985508,NA,NA
19403,Montgomery County,PA,NA,NA,17.954911433172303,NA,NA
19425,Chester County,PA,NA,NA,NA,91.46110056925995,NA
19460,Chester County,PA,16.203703703703702,NA,23.027375201288244,NA,NA
19464,Montgomery County,PA,11.75925925925926,NA,NA,7.969639468690702,NA
19475,Chester County,PA,NA,NA,78.18035426731079,NA,NA
19602,Berks County,PA,NA,NA,10.305958132045088,90.89184060721063,NA
19604,Berks County,PA,NA,NA,10.789049919484702,NA,NA
19607,Berks County,PA,NA,67.24806201550388,26.73107890499195,NA,NA
19610,Berks County,PA,84.62962962962963,NA,NA,NA,NA
02809,Bristol County,RI,NA,NA,NA,NA,40.17857142857143
02878,Newport County,RI,27.314814814814813,NA,NA,NA,NA
02895,Providence County,RI,NA,NA,41.14331723027375,NA,NA
02904,Providence County,RI,NA,NA,NA,59.20303605313093,NA
02908,Providence County,RI,9.25925925925926,NA,NA,39.84819734345351,NA
02911,Providence County,RI,NA,NA,NA,62.239089184060724,NA
02920,Providence County,RI,NA,NA,28.421900161030596,NA,NA
02921,Providence County,RI,NA,NA,NA,NA,76.78571428571429
29020,Kershaw County,SC,NA,NA,NA,37.19165085388994,NA
29073,Lexington County,SC,35.92592592592593,55.23255813953488,21.497584541062803,NA,NA
29075,Newberry County,SC,99.72222222222223,NA,NA,NA,NA
29078,Kershaw County,SC,NA,NA,NA,NA,79.46428571428571
29108,Newberry County,SC,44.72222222222222,71.70542635658916,NA,NA,NA
29115,Orangeburg County,SC,NA,NA,35.829307568438004,NA,NA
29123,Lexington County,SC,NA,NA,89.77455716586151,NA,NA
29170,Lexington County,SC,NA,NA,NA,NA,75.59523809523809
29203,Richland County,SC,NA,NA,NA,22.39089184060721,NA
29209,Richland County,SC,NA,NA,77.21417069243157,53.510436432637576,NA
29302,Spartanburg County,SC,NA,85.27131782945736,NA,NA,NA
29303,Spartanburg County,SC,55.46296296296296,58.91472868217055,NA,NA,NA
29325,Laurens County,SC,NA,58.52713178294574,NA,NA,NA
29349,Spartanburg County,SC,NA,NA,25.0402576489533,NA,NA
29360,Laurens County,SC,NA,69.57364341085271,41.06280193236715,NA,NA
29406,Charleston County,SC,18.51851851851852,NA,NA,NA,NA
29410,Berkeley County,SC,NA,NA,77.29468599033817,NA,NA
29440,Georgetown County,SC,NA,49.41860465116279,NA,NA,NA
29445,Berkeley County,SC,NA,NA,24.235104669887278,NA,NA
29449,Charleston County,SC,56.75925925925925,NA,NA,NA,NA
29455,Charleston County,SC,NA,63.95348837209303,NA,35.86337760910816,NA
29456,Dorchester County,SC,NA,NA,34.46054750402576,NA,NA
29466,Charleston County,SC,NA,NA,NA,56.35673624288425,NA
29477,Dorchester County,SC,NA,97.28682170542635,NA,NA,NA
29486,Berkeley County,SC,24.537037037037038,NA,NA,NA,NA
29488,Colleton County,SC,NA,NA,NA,NA,55.35714285714286
29532,Darlington County,SC,NA,NA,62.96296296296296,NA,NA
29556,Williamsburg County,SC,NA,NA,64.4122383252818,NA,NA
29560,Florence County,SC,80.83333333333333,NA,NA,NA,NA
29566,Horry County,SC,NA,NA,NA,56.166982922201136,NA
29576,Horry County,SC,68.7962962962963,NA,NA,NA,NA
29588,Horry County,SC,NA,NA,NA,12.144212523719165,NA
29605,Greenville County,SC,NA,NA,NA,NA,28.57142857142857
29607,Greenville County,SC,NA,NA,27.133655394524958,NA,NA
29621,Anderson County,SC,13.796296296296296,NA,NA,NA,NA
29624,Anderson County,SC,NA,NA,71.33655394524959,NA,NA
29625,Anderson County,SC,32.870370370370374,NA,NA,NA,NA
29626,Anderson County,SC,51.75925925925926,57.55813953488372,NA,80.45540796963947,NA
29627,Anderson County,SC,NA,NA,60.30595813204509,NA,NA
29640,Pickens County,SC,66.20370370370371,NA,NA,NA,NA
29642,Pickens County,SC,NA,NA,32.447665056360705,NA,NA
29655,Anderson County,SC,NA,NA,85.18518518518519,NA,NA
29671,Pickens County,SC,51.2962962962963,NA,NA,NA,NA
29680,Greenville County,SC,47.87037037037037,NA,NA,NA,NA
29687,Greenville County,SC,25.64814814814815,NA,NA,NA,NA
29693,Oconee County,SC,NA,NA,67.5523349436393,NA,NA
29696,Oconee County,SC,NA,NA,NA,NA,98.51190476190477
29803,Aiken County,SC,NA,NA,NA,10.815939278937382,NA
29810,Allendale County,SC,NA,NA,95.49114331723028,NA,NA
29812,Barnwell County,SC,NA,NA,85.5877616747182,NA,NA
29928,Beaufort County,SC,NA,NA,NA,NA,49.107142857142854
57005,Minnehaha County,SD,60.46296296296296,NA,NA,NA,NA
57262,Roberts County,SD,77.31481481481481,NA,NA,NA,NA
57350,Beadle County,SD,81.94444444444444,NA,NA,NA,NA
57401,Brown County,SD,5.092592592592593,NA,NA,NA,NA
57625,Dewey County,SD,98.14814814814815,NA,NA,NA,NA
37013,Davidson County,TN,NA,NA,NA,18.216318785578746,NA
37040,Montgomery County,TN,NA,NA,23.91304347826087,NA,NA
37055,Dickson County,TN,86.85185185185185,NA,NA,NA,65.47619047619048
37066,Sumner County,TN,NA,17.635658914728683,9.500805152979067,NA,NA
37072,Davidson County,TN,34.074074074074076,NA,NA,NA,NA
37074,Trousdale County,TN,38.148148148148145,NA,NA,NA,NA
37075,Sumner County,TN,NA,43.798449612403104,NA,NA,NA
37076,Davidson County,TN,32.22222222222222,69.18604651162791,NA,NA,NA
37086,Rutherford County,TN,23.24074074074074,NA,NA,NA,NA
37160,Bedford County,TN,12.777777777777777,NA,NA,NA,NA
37172,Robertson County,TN,37.96296296296296,NA,NA,NA,57.738095238095234
37203,Davidson County,TN,NA,NA,NA,74.573055028463,NA
37207,Davidson County,TN,NA,NA,NA,31.119544592030362,NA
37209,Davidson County,TN,37.5,NA,30.998389694041865,NA,NA
37211,Davidson County,TN,NA,NA,19.243156199677937,NA,NA
37354,Monroe County,TN,NA,NA,35.829307568438004,NA,NA
37379,Hamilton County,TN,32.12962962962963,NA,NA,NA,NA
37412,Hamilton County,TN,65.83333333333333,NA,NA,NA,NA
37601,Washington County,TN,17.314814814814813,21.705426356589147,NA,NA,NA
37617,Sullivan County,TN,NA,72.86821705426357,NA,NA,NA
37620,Sullivan County,TN,NA,42.63565891472868,NA,NA,NA
37643,Carter County,TN,19.35185185185185,NA,NA,NA,NA
37650,Unicoi County,TN,NA,NA,61.91626409017713,NA,NA
37660,Sullivan County,TN,NA,NA,7.568438003220612,NA,NA
37663,Sullivan County,TN,NA,NA,71.01449275362319,NA,NA
37664,Sullivan County,TN,NA,48.837209302325576,NA,NA,NA
37701,Blount County,TN,NA,NA,71.81964573268921,NA,NA
37705,Anderson County,TN,92.12962962962963,NA,NA,NA,NA
37721,Knox County,TN,74.62962962962963,NA,NA,NA,NA
37722,Cocke County,TN,NA,90.50387596899225,NA,NA,NA
37743,Greene County,TN,NA,25.1937984496124,NA,NA,NA
37745,Greene County,TN,17.87037037037037,NA,NA,NA,NA
37814,Hamblen County,TN,35.46296296296296,26.16279069767442,NA,NA,NA
37821,Cocke County,TN,NA,NA,14.331723027375201,NA,NA
37869,Hancock County,TN,85.64814814814815,NA,NA,NA,NA
37873,Hawkins County,TN,NA,NA,NA,NA,99.70238095238095
37912,Knox County,TN,NA,32.945736434108525,NA,NA,NA
37914,Knox County,TN,33.88888888888889,NA,70.69243156199678,NA,NA
37917,Knox County,TN,NA,40.116279069767444,NA,NA,NA
37921,Knox County,TN,NA,NA,28.502415458937197,NA,NA
38024,Dyer County,TN,NA,34.689922480620154,23.510466988727856,37.95066413662239,NA
38053,Shelby County,TN,63.24074074074074,NA,NA,NA,NA
38103,Shelby County,TN,86.11111111111111,NA,NA,NA,NA
38115,Shelby County,TN,1.8518518518518516,NA,NA,NA,NA
38122,Shelby County,TN,NA,31.3953488372093,NA,NA,NA
38127,Shelby County,TN,NA,5.232558139534884,NA,NA,NA
38128,Shelby County,TN,10.185185185185185,NA,NA,NA,NA
38135,Shelby County,TN,NA,NA,NA,69.44971537001898,NA
38141,Shelby County,TN,NA,NA,48.228663446054746,NA,NA
38301,Madison County,TN,NA,NA,9.178743961352657,NA,NA
38305,Madison County,TN,2.4074074074074074,NA,NA,NA,NA
38464,Lawrence County,TN,NA,NA,31.07890499194847,NA,NA
38483,Lawrence County,TN,NA,NA,92.512077294686,NA,NA
38501,Putnam County,TN,NA,NA,NA,18.975332068311197,NA
38544,Putnam County,TN,NA,NA,66.98872785829307,NA,93.15476190476191
38555,Cumberland County,TN,NA,NA,38.969404186795494,NA,NA
75007,Denton County,TX,NA,NA,48.309178743961354,NA,NA
75034,Denton County,TX,54.629629629629626,NA,NA,NA,NA
75039,Dallas County,TX,NA,NA,82.68921095008052,NA,NA
75048,Dallas County,TX,NA,NA,90.49919484702093,NA,NA
75052,Dallas County,TX,NA,NA,NA,12.523719165085389,NA
75056,Denton County,TX,NA,NA,NA,35.10436432637571,NA
75057,Denton County,TX,NA,NA,84.86312399355877,NA,NA
75060,Dallas County,TX,NA,NA,NA,44.022770398481974,NA
75061,Dallas County,TX,NA,NA,51.85185185185185,NA,NA
75063,Dallas County,TX,NA,NA,58.85668276972624,NA,NA
75067,Denton County,TX,11.38888888888889,NA,NA,NA,NA
75070,Collin County,TX,NA,NA,46.61835748792271,NA,NA
75074,Collin County,TX,NA,NA,NA,NA,64.88095238095238
75077,Denton County,TX,NA,67.24806201550388,NA,NA,NA
75093,Collin County,TX,23.61111111111111,NA,NA,NA,NA
75134,Dallas County,TX,NA,NA,65.21739130434783,79.88614800759012,NA
75147,Kaufman County,TX,91.66666666666666,NA,NA,NA,NA
75149,Dallas County,TX,NA,10.852713178294573,NA,NA,NA
75152,Ellis County,TX,83.98148148148148,NA,NA,NA,NA
75156,Henderson County,TX,59.62962962962963,NA,NA,NA,NA
75169,Van Zandt County,TX,NA,NA,NA,74.00379506641366,NA
75181,Dallas County,TX,NA,NA,NA,NA,88.69047619047619
75189,Rockwall County,TX,NA,NA,45.33011272141707,NA,NA
75202,Dallas County,TX,NA,NA,99.8389694041868,NA,NA
75215,Dallas County,TX,NA,NA,NA,64.89563567362428,NA
75216,Dallas County,TX,NA,7.945736434108527,6.280193236714976,NA,NA
75217,Dallas County,TX,NA,NA,8.53462157809984,NA,NA
75218,Dallas County,TX,NA,NA,76.89210950080515,NA,NA
75220,Dallas County,TX,26.01851851851852,NA,NA,NA,NA
75225,Dallas County,TX,NA,NA,78.09983896940419,NA,NA
75228,Dallas County,TX,NA,6.782945736434108,NA,21.25237191650854,NA
75229,Dallas County,TX,NA,NA,76.48953301127214,NA,NA
75234,Dallas County,TX,24.72222222222222,NA,NA,NA,NA
75243,Dallas County,TX,1.1111111111111112,NA,NA,NA,NA
75244,Dallas County,TX,92.77777777777779,NA,NA,NA,NA
75253,Dallas County,TX,30,NA,NA,NA,NA
75455,Titus County,TX,NA,NA,NA,NA,53.86904761904761
75474,Hunt County,TX,73.33333333333333,NA,NA,NA,NA
75501,Bowie County,TX,NA,NA,30.595813204508858,NA,NA
75602,Gregg County,TX,NA,NA,59.25925925925925,NA,NA
75644,Upshur County,TX,78.42592592592592,NA,NA,NA,NA
75662,Gregg County,TX,NA,NA,53.3011272141707,NA,NA
75701,Smith County,TX,53.51851851851852,NA,NA,NA,NA
75766,Cherokee County,TX,NA,NA,NA,NA,6.845238095238096
75801,Anderson County,TX,NA,54.06976744186046,NA,NA,NA
75948,Sabine County,TX,NA,NA,NA,83.49146110056927,NA
75956,Jasper County,TX,81.48148148148148,NA,NA,NA,NA
75966,Newton County,TX,77.31481481481481,NA,NA,NA,NA
75979,Tyler County,TX,92.5,NA,87.60064412238326,NA,NA
76006,Tarrant County,TX,46.111111111111114,NA,70.93397745571659,NA,NA
76010,Tarrant County,TX,NA,NA,16.505636070853463,NA,NA
76011,Tarrant County,TX,NA,46.70542635658915,NA,NA,NA
76014,Tarrant County,TX,19.72222222222222,29.844961240310074,NA,NA,NA
76020,Tarrant County,TX,NA,NA,28.90499194847021,30.740037950664135,NA
76028,Johnson County,TX,NA,NA,10.225442834138486,NA,NA
76031,Johnson County,TX,29.814814814814817,NA,88.64734299516908,NA,NA
76063,Tarrant County,TX,3.148148148148148,NA,NA,NA,NA
76067,Palo Pinto County,TX,81.01851851851852,31.782945736434108,NA,NA,NA
76078,Wise County,TX,NA,NA,NA,NA,96.13095238095238
76086,Parker County,TX,55.46296296296296,NA,NA,NA,NA
76105,Tarrant County,TX,NA,12.984496124031008,NA,24.28842504743833,NA
76106,Tarrant County,TX,NA,21.124031007751938,NA,NA,NA
76107,Tarrant County,TX,NA,NA,41.86795491143317,NA,NA
76111,Tarrant County,TX,NA,NA,NA,75.90132827324479,NA
76112,Tarrant County,TX,18.14814814814815,NA,NA,NA,NA
76116,Tarrant County,TX,NA,NA,22.785829307568438,NA,NA
76117,Tarrant County,TX,NA,NA,33.17230273752013,NA,NA
76126,Tarrant County,TX,45.64814814814815,NA,NA,NA,73.21428571428571
76131,Tarrant County,TX,NA,NA,50.96618357487923,NA,NA
76134,Tarrant County,TX,NA,NA,NA,67.55218216318785,NA
76135,Tarrant County,TX,NA,77.13178294573643,NA,NA,NA
76137,Tarrant County,TX,25.74074074074074,NA,NA,21.44212523719165,NA
76148,Tarrant County,TX,NA,56.58914728682171,NA,NA,NA
76177,Tarrant County,TX,NA,NA,95.41062801932367,NA,NA
76180,Tarrant County,TX,NA,61.240310077519375,NA,NA,NA
76182,Tarrant County,TX,NA,NA,NA,37.00189753320683,NA
76208,Denton County,TX,NA,75,NA,NA,NA
76234,Wise County,TX,NA,90.31007751937985,NA,NA,NA
76240,Cooke County,TX,NA,NA,39.69404186795491,NA,NA
76262,Denton County,TX,NA,NA,45.97423510466989,NA,NA
76424,Stephens County,TX,54.35185185185185,50.3875968992248,73.02737520128825,NA,NA
76426,Wise County,TX,67.03703703703704,NA,NA,NA,NA
76541,Bell County,TX,NA,NA,NA,NA,18.75
76549,Bell County,TX,6.111111111111111,NA,NA,NA,NA
76642,Limestone County,TX,87.03703703703704,NA,NA,NA,NA
76667,Limestone County,TX,38.98148148148148,NA,NA,NA,NA
76706,McLennan County,TX,NA,NA,33.73590982286635,NA,NA
76712,McLennan County,TX,NA,NA,42.109500805152976,NA,NA
77012,Harris County,TX,87.4074074074074,NA,NA,NA,90.47619047619048
77014,Harris County,TX,NA,NA,NA,NA,96.42857142857143
77015,Harris County,TX,NA,18.7984496124031,NA,NA,NA
77017,Harris County,TX,55.648148148148145,NA,NA,NA,NA
77022,Harris County,TX,NA,52.13178294573644,NA,NA,NA
77024,Harris County,TX,NA,NA,87.52012882447666,NA,NA
77026,Harris County,TX,NA,32.55813953488372,NA,NA,NA
77028,Harris County,TX,NA,NA,NA,90.70208728652752,NA
77034,Harris County,TX,17.962962962962965,NA,58.77616747181964,NA,NA
77036,Harris County,TX,26.01851851851852,NA,NA,NA,NA
77037,Harris County,TX,NA,NA,NA,91.65085388994308,NA
77038,Harris County,TX,62.31481481481481,NA,NA,93.16888045540796,NA
77040,Harris County,TX,NA,NA,NA,31.87855787476281,NA
77045,Harris County,TX,NA,NA,NA,70.96774193548387,NA
77048,Harris County,TX,70.74074074074073,NA,NA,NA,NA
77053,Fort Bend County,TX,NA,NA,NA,88.42504743833017,NA
77055,Harris County,TX,NA,NA,59.58132045088567,NA,NA
77060,Harris County,TX,36.666666666666664,NA,NA,NA,NA
77064,Harris County,TX,NA,NA,35.02415458937198,NA,NA
77070,Harris County,TX,NA,NA,46.69887278582931,NA,NA
77072,Harris County,TX,22.314814814814817,NA,NA,NA,NA
77073,Harris County,TX,NA,NA,53.4621578099839,89.56356736242884,NA
77082,Harris County,TX,NA,NA,50.32206119162641,NA,NA
77083,Harris County,TX,NA,NA,NA,28.6527514231499,NA
77085,Harris County,TX,73.79629629629629,79.26356589147287,NA,NA,NA
77088,Harris County,TX,NA,NA,NA,NA,50.297619047619044
77089,Harris County,TX,21.574074074074073,NA,NA,NA,NA
77090,Harris County,TX,43.611111111111114,NA,NA,NA,NA
77091,Harris County,TX,NA,NA,54.106280193236714,NA,NA
77093,Harris County,TX,30.925925925925924,NA,NA,NA,NA
77095,Harris County,TX,NA,NA,NA,14.231499051233396,NA
77301,Montgomery County,TX,NA,40.50387596899225,NA,NA,NA
77306,Montgomery County,TX,77.77777777777779,NA,NA,NA,NA
77345,Harris County,TX,NA,NA,86.23188405797102,NA,NA
77354,Montgomery County,TX,NA,69.57364341085271,NA,NA,NA
77355,Montgomery County,TX,NA,NA,NA,51.04364326375711,NA
77365,Montgomery County,TX,21.666666666666668,NA,50.48309178743962,NA,NA
77386,Montgomery County,TX,25,NA,NA,NA,NA
77407,Fort Bend County,TX,26.666666666666668,NA,NA,NA,NA
77449,Harris County,TX,3.7037037037037033,2.131782945736434,NA,NA,NA
77450,Harris County,TX,NA,69.57364341085271,NA,NA,NA
77471,Fort Bend County,TX,NA,38.17829457364341,NA,NA,NA
77498,Fort Bend County,TX,NA,NA,83.17230273752013,NA,NA
77503,Harris County,TX,NA,35.27131782945737,NA,NA,NA
77506,Harris County,TX,NA,12.015503875968992,NA,NA,NA
77520,Harris County,TX,26.38888888888889,NA,NA,NA,NA
77521,Harris County,TX,18.98148148148148,36.04651162790697,NA,NA,NA
77532,Harris County,TX,46.48148148148148,NA,NA,69.8292220113852,NA
77541,Brazoria County,TX,NA,NA,NA,60.151802656546494,NA
77545,Fort Bend County,TX,NA,NA,69.48470209339774,NA,NA
77546,Galveston County,TX,48.888888888888886,NA,NA,NA,NA
77551,Galveston County,TX,NA,NA,NA,28.46299810246679,NA
77568,Galveston County,TX,38.88888888888889,NA,NA,NA,NA
77573,Galveston County,TX,NA,NA,9.098228663446054,NA,NA
77575,Liberty County,TX,NA,88.17829457364341,NA,NA,NA
77581,Brazoria County,TX,NA,NA,29.307568438003223,NA,NA
77591,Galveston County,TX,NA,32.36434108527132,56.36070853462157,NA,NA
77630,Orange County,TX,22.407407407407405,NA,41.22383252818035,NA,NA
77632,Orange County,TX,61.94444444444444,NA,81.64251207729468,76.0910815939279,NA
77640,Jefferson County,TX,NA,NA,NA,70.77798861480076,68.75
77642,Jefferson County,TX,11.018518518518519,NA,NA,NA,NA
77662,Orange County,TX,31.38888888888889,NA,NA,NA,NA
77706,Jefferson County,TX,NA,83.33333333333334,NA,NA,NA
77707,Jefferson County,TX,67.87037037037037,NA,NA,84.0607210626186,NA
77708,Jefferson County,TX,82.22222222222221,NA,NA,NA,NA
77802,Brazos County,TX,NA,NA,25.28180354267311,NA,NA
77901,Victoria County,TX,40,18.7984496124031,24.476650563607087,23.14990512333966,NA
77904,Victoria County,TX,33.98148148148148,NA,NA,NA,NA
77905,Victoria County,TX,NA,81.78294573643412,63.28502415458937,NA,NA
77954,DeWitt County,TX,66.75925925925927,NA,NA,NA,NA
77963,Goliad County,TX,98.24074074074073,NA,NA,NA,NA
77995,Lavaca County,TX,85.64814814814815,NA,NA,NA,NA
78006,Kendall County,TX,NA,NA,NA,NA,72.61904761904762
78016,Medina County,TX,83.98148148148148,NA,NA,NA,NA
78041,Webb County,TX,25.092592592592595,NA,36.63446054750403,NA,NA
78043,Webb County,TX,5.555555555555555,NA,74.47665056360708,NA,NA
78045,Webb County,TX,6.5740740740740735,NA,75.2818035426731,34.9146110056926,69.64285714285714
78046,Webb County,TX,1.574074074074074,NA,14.573268921095009,NA,NA
78112,Bexar County,TX,NA,NA,92.512077294686,NA,NA
78154,Guadalupe County,TX,71.2037037037037,NA,NA,NA,NA
78201,Bexar County,TX,15.648148148148147,NA,NA,NA,NA
78207,Bexar County,TX,NA,NA,NA,NA,22.321428571428573
78210,Bexar County,TX,61.01851851851852,NA,NA,NA,NA
78211,Bexar County,TX,NA,5.813953488372093,NA,NA,NA
78218,Bexar County,TX,4.444444444444445,19.767441860465116,NA,NA,NA
78219,Bexar County,TX,NA,NA,NA,71.15749525616698,NA
78221,Bexar County,TX,21.38888888888889,NA,NA,NA,NA
78228,Bexar County,TX,NA,4.263565891472868,NA,NA,NA
78230,Bexar County,TX,NA,NA,60.7085346215781,NA,NA
78233,Bexar County,TX,17.685185185185183,NA,NA,NA,NA
78237,Bexar County,TX,43.333333333333336,NA,NA,NA,NA
78240,Bexar County,TX,16.48148148148148,NA,NA,NA,NA
78245,Bexar County,TX,2.685185185185185,NA,NA,NA,NA
78251,Bexar County,TX,43.7962962962963,NA,NA,NA,NA
78253,Bexar County,TX,18.333333333333332,NA,NA,NA,NA
78258,Bexar County,TX,NA,NA,NA,NA,88.98809523809523
78332,Jim Wells County,TX,NA,5.426356589147287,NA,NA,NA
78363,Kleberg County,TX,54.81481481481482,40.50387596899225,59.01771336553945,NA,NA
78368,San Patricio County,TX,84.35185185185186,NA,NA,NA,NA
78372,Jim Wells County,TX,NA,NA,NA,98.10246679316889,NA
78408,Nueces County,TX,NA,NA,NA,85.00948766603416,NA
78410,Nueces County,TX,65.18518518518519,NA,81.96457326892109,NA,NA
78501,Hidalgo County,TX,NA,3.488372093023256,NA,NA,NA
78504,Hidalgo County,TX,34.166666666666664,NA,NA,NA,NA
78516,Hidalgo County,TX,NA,NA,NA,NA,58.333333333333336
78537,Hidalgo County,TX,20.925925925925924,NA,NA,NA,NA
78538,Hidalgo County,TX,67.31481481481481,NA,NA,NA,NA
78539,Hidalgo County,TX,NA,NA,NA,72.48576850094877,NA
78543,Hidalgo County,TX,62.96296296296296,NA,NA,NA,NA
78552,Cameron County,TX,52.5,NA,NA,NA,NA
78570,Hidalgo County,TX,17.5,NA,72.06119162640901,NA,60.416666666666664
78572,Hidalgo County,TX,16.75925925925926,2.3255813953488373,18.19645732689211,20.113851992409867,NA
78573,Hidalgo County,TX,18.51851851851852,9.689922480620156,NA,NA,NA
78574,Hidalgo County,TX,37.407407407407405,NA,34.86312399355877,NA,NA
78577,Hidalgo County,TX,32.68518518518518,NA,NA,NA,NA
78582,Starr County,TX,NA,21.511627906976745,NA,NA,NA
78584,Starr County,TX,92.22222222222223,NA,NA,NA,NA
78586,Cameron County,TX,NA,NA,NA,48.95635673624288,NA
78589,Hidalgo County,TX,37.77777777777778,28.875968992248062,39.93558776167472,NA,NA
78596,Hidalgo County,TX,35.46296296296296,NA,NA,NA,34.226190476190474
78626,Williamson County,TX,45.18518518518518,NA,NA,NA,NA
78648,Caldwell County,TX,NA,83.33333333333334,NA,NA,NA
78654,Burnet County,TX,62.40740740740741,NA,NA,NA,NA
78733,Travis County,TX,96.11111111111111,NA,NA,NA,NA
78745,Travis County,TX,NA,NA,61.03059581320451,NA,NA
78753,Travis County,TX,3.888888888888889,NA,62.15780998389694,76.85009487666035,NA
78839,Zavala County,TX,69.81481481481482,NA,NA,NA,NA
78840,Val Verde County,TX,13.425925925925927,NA,NA,NA,NA
78852,Maverick County,TX,27.314814814814813,NA,NA,NA,NA
79104,Potter County,TX,NA,NA,NA,99.05123339658444,NA
79106,Potter County,TX,41.574074074074076,NA,NA,41.745730550284634,NA
79124,Potter County,TX,91.75925925925927,NA,NA,NA,NA
79201,Childress County,TX,92.5,NA,NA,NA,NA
79323,Yoakum County,TX,NA,NA,80.19323671497585,NA,NA
79347,Bailey County,TX,79.25925925925927,NA,NA,NA,NA
79355,Yoakum County,TX,97.4074074074074,NA,NA,NA,NA
79363,Lubbock County,TX,95.46296296296296,NA,NA,NA,NA
79404,Lubbock County,TX,NA,61.434108527131784,NA,NA,NA
79407,Lubbock County,TX,NA,NA,48.87278582930757,NA,NA
79414,Lubbock County,TX,72.5925925925926,NA,NA,NA,NA
79415,Lubbock County,TX,NA,65.11627906976744,NA,NA,NA
79424,Lubbock County,TX,NA,NA,25.60386473429952,NA,NA
79602,Taylor County,TX,NA,NA,59.82286634460547,57.685009487666036,NA
79714,Andrews County,TX,38.425925925925924,NA,NA,NA,NA
79735,Pecos County,TX,51.94444444444445,NA,71.1755233494364,NA,NA
79763,Ector County,TX,10.37037037037037,NA,33.65539452495974,NA,NA
79764,Ector County,TX,23.796296296296298,NA,NA,NA,NA
79836,El Paso County,TX,NA,86.82170542635659,NA,NA,NA
79849,El Paso County,TX,65.83333333333333,NA,NA,NA,NA
79904,El Paso County,TX,37.96296296296296,NA,NA,NA,NA
79905,El Paso County,TX,76.66666666666667,NA,NA,NA,55.654761904761905
79907,El Paso County,TX,23.51851851851852,NA,NA,NA,NA
79924,El Paso County,TX,NA,11.627906976744185,43.15619967793881,NA,NA
79927,El Paso County,TX,43.98148148148148,NA,NA,NA,NA
79930,El Paso County,TX,42.592592592592595,NA,NA,NA,NA
79936,El Paso County,TX,NA,NA,11.916264090177133,NA,NA
84015,Davis County,UT,NA,NA,54.508856682769725,NA,NA
84044,Salt Lake County,UT,NA,NA,43.55877616747182,NA,NA
84084,Salt Lake County,UT,39.72222222222222,NA,NA,NA,NA
84088,Salt Lake County,UT,15.092592592592593,NA,NA,NA,NA
84092,Salt Lake County,UT,NA,100,NA,NA,NA
84093,Salt Lake County,UT,46.85185185185185,NA,NA,NA,NA
84108,Salt Lake County,UT,NA,NA,86.87600644122384,NA,NA
84118,Salt Lake County,UT,NA,NA,17.23027375201288,NA,NA
84121,Salt Lake County,UT,NA,NA,NA,NA,19.642857142857142
84129,,UT,NA,NA,29.146537842190018,NA,NA
84321,Cache County,UT,13.518518518518519,NA,NA,NA,NA
84501,Carbon County,UT,43.7962962962963,NA,NA,NA,NA
84606,Utah County,UT,NA,NA,NA,NA,99.10714285714286
84738,Washington County,UT,NA,NA,98.30917874396135,NA,NA
05156,Windsor County,VT,NA,NA,66.26409017713365,NA,NA
05201,Bennington County,VT,57.592592592592595,NA,NA,NA,NA
05488,Franklin County,VT,NA,NA,NA,NA,81.25
05701,Rutland County,VT,NA,NA,37.92270531400966,NA,NA
05753,Addison County,VT,NA,NA,89.85507246376811,NA,NA
05819,Caledonia County,VT,NA,NA,NA,81.21442125237192,NA
20105,Loudoun County,VA,62.68518518518519,NA,NA,NA,NA
20109,Prince William County,VA,NA,NA,66.82769726247987,NA,NA
20110,Manassas city,VA,9.351851851851851,NA,NA,NA,NA
20111,Prince William County,VA,NA,79.26356589147287,NA,NA,NA
20136,Prince William County,VA,60.83333333333333,NA,NA,NA,NA
20147,Loudoun County,VA,NA,NA,37.27858293075684,NA,NA
20171,Fairfax County,VA,NA,96.70542635658916,NA,78.17836812144212,NA
20190,Fairfax County,VA,NA,NA,86.39291465378422,NA,NA
20191,Fairfax County,VA,NA,NA,75.44283413848632,NA,NA
22015,Fairfax County,VA,NA,NA,NA,49.71537001897533,NA
22025,Prince William County,VA,NA,NA,NA,85.7685009487666,NA
22033,Fairfax County,VA,60.83333333333333,NA,61.43317230273752,NA,NA
22041,Fairfax County,VA,40.55555555555556,85.46511627906976,98.55072463768117,NA,NA
22079,Fairfax County,VA,NA,NA,98.22866344605475,NA,NA
22101,Fairfax County,VA,NA,NA,52.57648953301127,NA,NA
22102,Fairfax County,VA,85.64814814814815,NA,NA,NA,NA
22191,Prince William County,VA,82.31481481481482,NA,NA,NA,NA
22192,Prince William County,VA,NA,34.689922480620154,NA,NA,NA
22202,Arlington County,VA,NA,NA,78.74396135265701,NA,NA
22204,Arlington County,VA,NA,83.13953488372093,62.56038647342995,NA,NA
22206,Arlington County,VA,62.03703703703704,NA,NA,NA,NA
22207,Arlington County,VA,NA,NA,53.14009661835749,NA,NA
22303,Fairfax County,VA,59.166666666666664,NA,NA,NA,77.38095238095238
22304,Alexandria city,VA,NA,NA,65.13687600644123,36.43263757115749,NA
22306,Fairfax County,VA,35.74074074074074,NA,NA,NA,NA
22308,Fairfax County,VA,74.25925925925925,NA,NA,NA,NA
22401,Fredericksburg city,VA,90.37037037037037,NA,NA,NA,NA
22405,Stafford County,VA,52.22222222222223,NA,NA,NA,NA
22407,Spotsylvania County,VA,89.9074074074074,61.434108527131784,NA,NA,NA
22408,Spotsylvania County,VA,NA,NA,88.72785829307568,NA,NA
22554,Stafford County,VA,49.53703703703704,NA,NA,NA,NA
22580,Caroline County,VA,64.44444444444444,NA,NA,NA,NA
22601,Winchester city,VA,NA,NA,61.27214170692431,NA,NA
22602,Frederick County,VA,NA,NA,52.65700483091788,NA,NA
22712,Fauquier County,VA,80,NA,NA,NA,NA
22842,Shenandoah County,VA,NA,NA,94.60547504025764,NA,NA
22939,Augusta County,VA,NA,NA,91.38486312399355,NA,NA
23075,Henrico County,VA,NA,93.9922480620155,NA,NA,NA
23188,James City County,VA,NA,NA,44.12238325281804,NA,0.8928571428571428
23222,Richmond city,VA,54.074074074074076,NA,NA,NA,NA
23223,Henrico County,VA,76.48148148148148,NA,NA,NA,NA
23224,Richmond city,VA,7.777777777777778,NA,NA,NA,NA
23225,Richmond city,VA,13.796296296296296,NA,NA,NA,NA
23226,Richmond city,VA,88.24074074074075,NA,NA,NA,NA
23227,Henrico County,VA,35.27777777777778,NA,NA,NA,NA
23235,Chesterfield County,VA,57.22222222222222,92.82945736434108,NA,NA,NA
23236,Chesterfield County,VA,NA,NA,NA,NA,61.60714285714286
23320,Chesapeake city,VA,NA,31.3953488372093,26.489533011272144,NA,NA
23434,Suffolk city,VA,17.40740740740741,NA,NA,NA,NA
23435,Suffolk city,VA,NA,NA,49.11433172302738,NA,NA
23454,Virginia Beach city,VA,43.24074074074074,NA,28.34138486312399,NA,NA
23456,Virginia Beach city,VA,NA,NA,NA,11.195445920303605,NA
23504,Norfolk city,VA,69.53703703703704,NA,NA,NA,NA
23508,Norfolk city,VA,NA,NA,77.29468599033817,NA,NA
23510,Norfolk city,VA,NA,NA,95.65217391304348,NA,NA
23805,Petersburg city,VA,58.333333333333336,NA,NA,NA,NA
23860,Hopewell city,VA,56.851851851851855,NA,NA,NA,NA
23924,Mecklenburg County,VA,89.62962962962962,NA,NA,NA,NA
24014,Roanoke city,VA,47.5,NA,NA,NA,NA
24018,Roanoke County,VA,NA,NA,48.631239935587764,NA,NA
24060,Montgomery County,VA,NA,NA,NA,83.68121442125236,NA
24112,Henry County,VA,NA,NA,15.942028985507244,NA,NA
24201,Bristol city,VA,NA,30.813953488372093,NA,NA,NA
24210,Washington County,VA,NA,NA,NA,NA,47.61904761904761
24219,Wise County,VA,NA,40.310077519379846,NA,NA,NA
24228,Dickenson County,VA,NA,NA,NA,NA,47.32142857142857
24244,Scott County,VA,NA,NA,NA,NA,97.32142857142857
24277,Lee County,VA,NA,NA,91.78743961352657,NA,NA
24401,Staunton city,VA,NA,NA,9.98389694041868,NA,NA
24422,Alleghany County,VA,NA,90.89147286821705,NA,NA,82.44047619047619
24592,Halifax County,VA,NA,NA,28.09983896940419,NA,NA
24605,Tazewell County,VA,65.83333333333333,NA,NA,NA,NA
24651,Tazewell County,VA,99.62962962962963,NA,NA,NA,NA
98002,King County,WA,39.166666666666664,NA,NA,NA,41.964285714285715
98003,King County,WA,NA,NA,27.375201288244767,NA,NA
98023,King County,WA,NA,NA,NA,15.559772296015181,NA
98033,King County,WA,NA,NA,NA,32.82732447817837,NA
98036,Snohomish County,WA,NA,NA,NA,NA,36.904761904761905
98042,King County,WA,14.166666666666666,NA,NA,NA,NA
98052,King County,WA,NA,89.34108527131784,NA,NA,NA
98055,King County,WA,82.87037037037037,NA,NA,NA,NA
98058,King County,WA,NA,72.86821705426357,NA,NA,NA
98092,King County,WA,11.296296296296296,NA,NA,NA,NA
98101,King County,WA,NA,NA,70.77294685990339,NA,NA
98103,King County,WA,44.72222222222222,NA,NA,NA,NA
98105,King County,WA,NA,NA,NA,NA,85.71428571428571
98106,King County,WA,NA,NA,NA,73.62428842504744,NA
98109,King County,WA,NA,NA,NA,87.85578747628084,NA
98115,King County,WA,NA,NA,NA,NA,28.869047619047617
98122,King County,WA,NA,NA,NA,NA,55.05952380952381
98155,King County,WA,NA,NA,45.491143317230275,NA,NA
98168,King County,WA,NA,NA,31.72302737520129,71.72675521821633,NA
98178,King County,WA,NA,NA,55.394524959742355,NA,NA
98198,King County,WA,NA,NA,NA,NA,24.107142857142858
98201,Snohomish County,WA,44.25925925925926,NA,NA,NA,NA
98204,Snohomish County,WA,NA,NA,25.684380032206118,NA,NA
98208,Snohomish County,WA,NA,NA,20.77294685990338,NA,NA
98221,Skagit County,WA,NA,NA,NA,NA,18.154761904761905
98223,Snohomish County,WA,13.518518518518519,NA,NA,NA,NA
98233,Skagit County,WA,NA,NA,83.33333333333334,NA,NA
98250,San Juan County,WA,NA,NA,NA,82.16318785578748,NA
98258,Snohomish County,WA,11.203703703703702,NA,NA,NA,NA
98264,Whatcom County,WA,NA,NA,NA,NA,61.011904761904766
98266,Whatcom County,WA,NA,NA,99.6779388083736,NA,NA
98272,Snohomish County,WA,56.851851851851855,75,NA,NA,NA
98273,Skagit County,WA,16.574074074074076,NA,NA,NA,NA
98274,Skagit County,WA,NA,NA,87.92270531400966,NA,NA
98277,Island County,WA,NA,NA,48.06763285024155,25.616698292220114,NA
98290,Snohomish County,WA,NA,NA,75.0402576489533,NA,NA
98294,Snohomish County,WA,NA,NA,NA,NA,88.39285714285714
98296,Snohomish County,WA,NA,NA,NA,73.62428842504744,NA
98311,Kitsap County,WA,NA,NA,62.80193236714976,NA,NA
98366,Kitsap County,WA,NA,NA,23.993558776167472,NA,NA
98367,Kitsap County,WA,NA,NA,49.75845410628019,NA,NA
98391,Pierce County,WA,NA,NA,44.36392914653784,NA,NA
98405,Pierce County,WA,NA,NA,31.88405797101449,NA,NA
98408,Pierce County,WA,NA,NA,NA,62.04933586337761,NA
98409,Pierce County,WA,NA,NA,NA,77.41935483870968,NA
98418,Pierce County,WA,NA,NA,NA,NA,97.02380952380952
98444,Pierce County,WA,NA,67.24806201550388,NA,NA,NA
98467,Pierce County,WA,NA,NA,NA,NA,87.5
98501,Thurston County,WA,NA,NA,NA,77.98861480075901,52.976190476190474
98503,Thurston County,WA,NA,NA,70.20933977455717,NA,NA
98512,Thurston County,WA,64.25925925925927,NA,NA,NA,NA
98516,Thurston County,WA,NA,NA,NA,78.17836812144212,NA
98520,Grays Harbor County,WA,NA,84.49612403100775,92.6731078904992,49.71537001897533,NA
98532,Lewis County,WA,NA,NA,70.45088566827698,NA,NA
98569,Grays Harbor County,WA,NA,NA,NA,NA,94.64285714285714
98597,Thurston County,WA,NA,72.67441860465115,NA,NA,NA
98620,Klickitat County,WA,NA,91.66666666666666,NA,NA,NA
98632,Cowlitz County,WA,NA,NA,18.51851851851852,NA,NA
98684,Clark County,WA,NA,NA,NA,65.2751423149905,NA
98855,Okanogan County,WA,NA,NA,NA,NA,92.26190476190477
98953,Yakima County,WA,93.05555555555556,NA,NA,NA,NA
99114,Stevens County,WA,NA,NA,81.72302737520128,NA,NA
99205,Spokane County,WA,NA,NA,NA,53.889943074003796,51.488095238095234
99218,Spokane County,WA,NA,NA,97.34299516908213,NA,NA
99324,Walla Walla County,WA,NA,NA,NA,NA,70.83333333333334
20001,District of Columbia,DC,NA,NA,20.45088566827697,NA,NA
20003,District of Columbia,DC,NA,NA,NA,46.48956356736243,NA
20008,District of Columbia,DC,NA,NA,83.57487922705315,NA,NA
20016,District of Columbia,DC,NA,NA,NA,55.787476280834916,69.94047619047619
20019,District of Columbia,DC,5.462962962962963,NA,4.025764895330113,NA,NA
20032,District of Columbia,DC,7.4074074074074066,NA,NA,NA,NA
24740,Mercer County,WV,NA,NA,64.97584541062803,NA,NA
25276,Roane County,WV,94.25925925925925,NA,53.864734299516904,NA,NA
25314,Kanawha County,WV,NA,NA,54.267310789049915,NA,NA
25401,Berkeley County,WV,NA,NA,35.748792270531396,NA,NA
25405,Berkeley County,WV,NA,87.98449612403101,NA,NA,NA
25526,Putnam County,WV,NA,NA,37.92270531400966,NA,NA
25541,Cabell County,WV,NA,NA,NA,NA,77.08333333333334
25550,Mason County,WV,NA,NA,50.72463768115942,NA,NA
25560,Putnam County,WV,87.87037037037037,NA,NA,NA,NA
25601,Logan County,WV,97.68518518518519,NA,NA,69.63946869070209,NA
25701,Cabell County,WV,NA,NA,14.975845410628018,NA,NA
25704,Wayne County,WV,64.81481481481481,NA,NA,NA,NA
25951,Summers County,WV,54.166666666666664,NA,NA,NA,NA
26062,Hancock County,WV,39.907407407407405,66.47286821705426,NA,NA,NA
26101,Wood County,WV,7.222222222222221,NA,NA,NA,NA
26104,Wood County,WV,53.05555555555556,NA,NA,NA,NA
26201,Upshur County,WV,23.796296296296298,15.310077519379844,21.81964573268921,NA,NA
26241,Randolph County,WV,32.77777777777778,NA,66.18357487922705,NA,NA
26250,Barbour County,WV,96.66666666666667,NA,87.84219001610306,NA,NA
26253,Randolph County,WV,99.16666666666667,97.48062015503875,NA,NA,NA
26354,Taylor County,WV,NA,NA,50,NA,NA
26431,Harrison County,WV,NA,87.20930232558139,NA,NA,NA
26554,Marion County,WV,10.74074074074074,NA,NA,NA,NA
26651,Nicholas County,WV,NA,NA,NA,87.4762808349146,NA
26764,Preston County,WV,96.66666666666667,NA,NA,NA,NA
53014,Calumet County,WI,NA,NA,74.7987117552335,NA,NA
53024,Ozaukee County,WI,NA,NA,64.65378421900161,NA,NA
53027,Washington County,WI,NA,NA,NA,48.76660341555977,NA
53033,Washington County,WI,96.38888888888889,NA,NA,NA,NA
53090,Washington County,WI,NA,71.51162790697676,NA,NA,NA
53092,Ozaukee County,WI,NA,NA,59.01771336553945,NA,17.559523809523807
53094,Jefferson County,WI,39.53703703703704,NA,41.948470209339774,30.929791271347252,NA
53105,Racine County,WI,NA,NA,NA,12.333965844402277,NA
53115,Walworth County,WI,NA,72.86821705426357,NA,42.8842504743833,NA
53128,Walworth County,WI,46.111111111111114,NA,NA,NA,NA
53140,Kenosha County,WI,NA,NA,NA,24.09867172675522,NA
53150,Waukesha County,WI,NA,NA,66.74718196457327,NA,NA
53158,Kenosha County,WI,NA,71.70542635658916,NA,NA,NA
53179,Kenosha County,WI,79.44444444444444,NA,NA,NA,NA
53189,Waukesha County,WI,NA,NA,56.11916264090178,NA,NA
53202,Milwaukee County,WI,NA,NA,NA,47.81783681214421,NA
53206,Milwaukee County,WI,NA,NA,9.017713365539452,NA,47.023809523809526
53209,Milwaukee County,WI,NA,NA,2.3349436392914655,NA,NA
53210,Milwaukee County,WI,NA,14.147286821705427,NA,NA,NA
53212,Milwaukee County,WI,14.444444444444443,NA,NA,NA,NA
53215,Milwaukee County,WI,2.2222222222222223,NA,NA,3.984819734345351,10.119047619047619
53220,Milwaukee County,WI,NA,NA,30.03220611916264,NA,NA
53223,Milwaukee County,WI,55.00000000000001,NA,NA,NA,15.476190476190476
53225,Milwaukee County,WI,5.833333333333333,NA,NA,NA,NA
53406,Racine County,WI,6.203703703703703,NA,NA,NA,NA
53511,Rock County,WI,NA,NA,0.5636070853462157,NA,NA
53534,Rock County,WI,NA,93.4108527131783,NA,NA,NA
53546,Rock County,WI,NA,NA,16.666666666666664,NA,NA
53548,Rock County,WI,27.962962962962962,NA,NA,25.996204933586338,NA
53549,Jefferson County,WI,NA,NA,NA,NA,91.07142857142857
53718,Dane County,WI,87.22222222222223,NA,NA,NA,NA
53818,Grant County,WI,NA,NA,79.71014492753623,NA,NA
53954,Columbia County,WI,NA,NA,NA,98.10246679316889,NA
53959,Sauk County,WI,NA,63.95348837209303,75.60386473429952,NA,NA
54002,St. Croix County,WI,NA,NA,89.69404186795491,NA,NA
54020,Polk County,WI,81.48148148148148,NA,NA,NA,NA
54143,Marinette County,WI,NA,NA,NA,59.96204933586338,NA
54301,Brown County,WI,NA,NA,81.23993558776168,NA,NA
54403,Marathon County,WI,35.92592592592593,NA,NA,NA,NA
54451,Taylor County,WI,NA,NA,NA,NA,86.01190476190477
54520,Forest County,WI,96.11111111111111,NA,NA,NA,NA
54601,La Crosse County,WI,4.62962962962963,NA,NA,NA,NA
54636,La Crosse County,WI,NA,NA,67.7133655394525,NA,NA
54650,La Crosse County,WI,50,NA,NA,NA,NA
54656,Monroe County,WI,NA,NA,48.87278582930757,NA,20.535714285714285
54848,Rusk County,WI,83.61111111111111,NA,NA,NA,NA
54902,Winnebago County,WI,NA,NA,NA,57.49525616698292,NA
54915,Outagamie County,WI,NA,NA,NA,NA,59.82142857142857
54935,Fond du Lac County,WI,NA,NA,NA,NA,5.952380952380952
82414,Park County,WY,NA,NA,75.68438003220612,NA,NA
82801,Sheridan County,WY,NA,NA,72.78582930756843,NA,33.035714285714285
