ZipCode,county,state,Geriatric
35594,Marion County,AL,90.9090909090909
36575,Mobile County,AL,99.17355371900827
36853,Tallapoosa County,AL,83.05785123966942
85251,Maricopa County,AZ,39.66942148760331
85373,Maricopa County,AZ,21.487603305785125
86505,Apache County,AZ,65.28925619834712
72761,Benton County,AR,82.23140495867769
72936,Sebastian County,AR,89.6694214876033
90650,Los Angeles County,CA,65.70247933884298
90710,Los Angeles County,CA,77.68595041322314
91355,Los Angeles County,CA,67.76859504132231
91361,Ventura County,CA,80.99173553719008
92020,San Diego County,CA,36.77685950413223
92131,San Diego County,CA,88.42975206611571
92307,San Bernardino County,CA,52.066115702479344
92647,Orange County,CA,16.94214876033058
92656,Orange County,CA,84.29752066115702
93063,Ventura County,CA,50.82644628099173
93727,Fresno County,CA,42.561983471074385
94501,Alameda County,CA,26.859504132231404
94533,Solano County,CA,15.702479338842975
94549,Contra Costa County,CA,35.9504132231405
94605,Alameda County,CA,37.1900826446281
95123,Santa Clara County,CA,34.29752066115703
95125,Santa Clara County,CA,30.165289256198346
95476,Sonoma County,CA,26.033057851239672
95503,Humboldt County,CA,59.917355371900825
95742,Sacramento County,CA,99.58677685950413
95826,Sacramento County,CA,84.71074380165288
95827,Sacramento County,CA,72.31404958677686
95945,Nevada County,CA,27.27272727272727
80003,Jefferson County,CO,69.42148760330579
80011,Arapahoe County,CO,53.30578512396694
80109,Douglas County,CO,93.80165289256198
80817,El Paso County,CO,97.10743801652893
81625,Moffat County,CO,92.14876033057851
06492,New Haven County,CT,8.264462809917356
06517,New Haven County,CT,59.50413223140496
06776,Litchfield County,CT,61.57024793388429
06810,Fairfield County,CT,30.57851239669421
19966,Sussex County,DE,16.115702479338843
32714,Seminole County,FL,50
33021,Broward County,FL,7.851239669421488
33126,Miami-Dade County,FL,23.553719008264462
33174,Miami-Dade County,FL,18.181818181818183
33483,Palm Beach County,FL,52.892561983471076
33484,Palm Beach County,FL,2.8925619834710745
33823,Polk County,FL,64.0495867768595
33904,Lee County,FL,9.090909090909092
34219,Manatee County,FL,75.6198347107438
34471,Marion County,FL,54.958677685950406
34609,Hernando County,FL,24.380165289256198
30075,Fulton County,GA,52.47933884297521
30078,Gwinnett County,GA,89.25619834710744
30305,Fulton County,GA,45.45454545454545
30328,Fulton County,GA,36.36363636363637
30577,Stephens County,GA,60.33057851239669
30906,Richmond County,GA,19.00826446280992
31088,Houston County,GA,19.421487603305785
31324,Bryan County,GA,92.97520661157024
31419,Chatham County,GA,54.54545454545454
83442,Jefferson County,ID,79.75206611570248
60016,Cook County,IL,10.330578512396695
60062,Cook County,IL,0.8264462809917356
60090,Cook County,IL,18.59504132231405
60439,Cook County,IL,27.685950413223143
60617,Cook County,IL,2.479338842975207
61016,Winnebago County,IL,98.34710743801654
62832,Perry County,IL,57.02479338842975
47933,Montgomery County,IN,28.512396694214875
50010,Story County,IA,72.72727272727273
50208,Jasper County,IA,53.71900826446281
50248,Story County,IA,87.60330578512396
50595,Hamilton County,IA,75.20661157024794
52240,Johnson County,IA,68.18181818181817
66062,Johnson County,KS,21.074380165289256
66067,Franklin County,KS,48.34710743801653
67002,Butler County,KS,94.21487603305785
40165,Bullitt County,KY,55.371900826446286
40422,Boyle County,KY,61.98347107438017
41076,Campbell County,KY,23.96694214876033
42003,McCracken County,KY,34.710743801652896
42066,Graves County,KY,38.84297520661157
42101,Warren County,KY,67.35537190082644
42748,Larue County,KY,78.51239669421489
70005,Jefferson Parish,LA,9.917355371900827
70119,Orleans Parish,LA,38.01652892561984
70438,Washington Parish,LA,17.768595041322314
71203,Ouachita Parish,LA,38.429752066115704
04901,Kennebec County,ME,7.024793388429752
20906,Montgomery County,MD,14.049586776859504
21042,Howard County,MD,55.78512396694215
21102,Carroll County,MD,92.97520661157024
21215,Baltimore city,MD,11.570247933884298
01030,Hampden County,MA,81.81818181818183
01267,Berkshire County,MA,62.8099173553719
01841,Essex County,MA,5.371900826446281
02081,Norfolk County,MA,44.214876033057855
02139,Middlesex County,MA,14.46280991735537
02452,Middlesex County,MA,57.85123966942148
02465,Middlesex County,MA,49.586776859504134
02719,Bristol County,MA,47.93388429752066
02767,Bristol County,MA,85.9504132231405
02777,Bristol County,MA,43.80165289256198
48062,Macomb County,MI,86.77685950413223
48073,Oakland County,MI,31.818181818181817
48170,Wayne County,MI,4.132231404958678
48214,Wayne County,MI,47.5206611570248
48229,Wayne County,MI,75.6198347107438
48239,Wayne County,MI,47.107438016528924
48315,Macomb County,MI,31.40495867768595
48444,Lapeer County,MI,88.01652892561982
48809,Ionia County,MI,85.12396694214877
49057,Van Buren County,MI,82.64462809917356
49868,Luce County,MI,70.66115702479338
55337,Dakota County,MN,32.64462809917356
55446,Hennepin County,MN,81.40495867768594
56401,Crow Wing County,MN,6.6115702479338845
56472,Crow Wing County,MN,61.15702479338842
56601,Beltrami County,MN,1.2396694214876034
56621,Clearwater County,MN,37.60330578512397
38603,Benton County,MS,100
38637,DeSoto County,MS,73.14049586776859
38834,Alcorn County,MS,39.25619834710744
39110,Madison County,MS,33.88429752066116
39702,Lowndes County,MS,57.438016528925615
63026,St. Louis County,MO,23.140495867768596
63146,St. Louis County,MO,8.677685950413224
63357,Warren County,MO,97.52066115702479
63366,St. Charles County,MO,12.396694214876034
64060,Clay County,MO,70.24793388429752
65202,Boone County,MO,17.355371900826448
59801,Missoula County,MT,62.396694214876035
68133,Sarpy County,NE,91.32231404958677
68776,Dakota County,NE,90.49586776859503
07481,Bergen County,NJ,66.94214876033058
07712,Monmouth County,NJ,29.338842975206614
08873,Somerset County,NJ,22.31404958677686
87108,Bernalillo County,NM,30.991735537190085
87505,Santa Fe County,NM,13.636363636363635
88240,Lea County,NM,32.231404958677686
11224,Kings County,NY,2.066115702479339
11229,Kings County,NY,3.71900826446281
11236,Kings County,NY,9.50413223140496
11520,Nassau County,NY,45.04132231404959
12077,Albany County,NY,95.86776859504133
13021,Cayuga County,NY,19.834710743801654
13642,St. Lawrence County,NY,78.92561983471074
27023,Forsyth County,NC,41.735537190082646
27295,Davidson County,NC,3.3057851239669422
27707,Durham County,NC,21.90082644628099
27712,Durham County,NC,43.388429752066116
27889,Beaufort County,NC,32.64462809917356
28037,Lincoln County,NC,73.55371900826447
28115,Iredell County,NC,35.53719008264463
28214,Mecklenburg County,NC,40.082644628099175
28306,Bladen County,NC,45.867768595041326
28340,Robeson County,NC,74.3801652892562
28607,Watauga County,NC,51.2396694214876
28786,Haywood County,NC,24.793388429752067
58104,Cass County,ND,5.785123966942149
58554,Morton County,ND,12.8099173553719
43062,Licking County,OH,49.17355371900827
43609,Lucas County,OH,79.33884297520662
43613,Lucas County,OH,80.57851239669421
43725,Guernsey County,OH,26.446280991735538
43938,Jefferson County,OH,74.79338842975206
44122,Cuyahoga County,OH,0
44124,Cuyahoga County,OH,0.4132231404958678
44240,Portage County,OH,60.74380165289256
44262,Summit County,OH,96.69421487603306
44405,Mahoning County,OH,69.83471074380165
44485,Trumbull County,OH,42.14876033057851
44612,Tuscarawas County,OH,88.84297520661157
44685,Summit County,OH,29.75206611570248
45701,Athens County,OH,40.909090909090914
73013,Oklahoma County,OK,13.223140495867769
73942,Texas County,OK,95.0413223140496
74017,Rogers County,OK,28.92561983471074
74447,Okmulgee County,OK,51.2396694214876
97080,Multnomah County,OR,41.32231404958678
97214,Multnomah County,OR,97.52066115702479
97236,Multnomah County,OR,63.22314049586777
15139,Allegheny County,PA,66.52892561983471
15228,Allegheny County,PA,71.48760330578511
15235,Allegheny County,PA,11.15702479338843
15717,Indiana County,PA,59.09090909090909
15931,Cambria County,PA,83.05785123966942
17320,Adams County,PA,71.07438016528926
17821,Montour County,PA,4.958677685950414
18017,Northampton County,PA,25.206611570247933
18104,Lehigh County,PA,6.198347107438017
18914,Bucks County,PA,68.59504132231406
19111,Philadelphia County,PA,14.87603305785124
02920,Providence County,RI,11.983471074380166
29303,Spartanburg County,SC,58.26446280991735
29306,Spartanburg County,SC,78.099173553719
29335,Spartanburg County,SC,98.7603305785124
29579,Horry County,SC,46.28099173553719
29654,Anderson County,SC,76.85950413223141
29732,York County,SC,22.727272727272727
57401,Brown County,SD,1.6528925619834711
57702,Pennington County,SD,46.69421487603306
37190,Cannon County,TN,73.96694214876032
37220,Davidson County,TN,96.28099173553719
37321,Rhea County,TN,90.08264462809917
37659,Washington County,TN,27.685950413223143
38571,Cumberland County,TN,63.63636363636363
38583,White County,TN,25.6198347107438
75062,Dallas County,TX,48.760330578512395
75140,Van Zandt County,TX,83.88429752066115
76011,Tarrant County,TX,87.19008264462809
76102,Tarrant County,TX,91.73553719008265
76657,McLennan County,TX,56.611570247933884
77339,Harris County,TX,40.082644628099175
77581,Brazoria County,TX,35.12396694214876
78040,Webb County,TX,20.24793388429752
78233,Bexar County,TX,58.67768595041323
78414,Nueces County,TX,86.36363636363636
78572,Hidalgo County,TX,7.43801652892562
78629,Gonzales County,TX,66.11570247933885
05641,Washington County,VT,16.528925619834713
20147,Loudoun County,VA,15.289256198347106
22003,Fairfax County,VA,55.78512396694215
22960,Orange County,VA,71.900826446281
23451,Virginia Beach city,VA,4.545454545454546
23452,Virginia Beach city,VA,10.743801652892563
23509,Norfolk city,VA,77.27272727272727
23834,Colonial Heights city,VA,64.46280991735537
24019,Roanoke County,VA,50.413223140495866
98230,Whatcom County,WA,80.16528925619835
98597,Thurston County,WA,85.53719008264463
99206,Spokane County,WA,33.47107438016529
25526,Putnam County,WV,42.97520661157025
25840,Fayette County,WV,92.14876033057851
25951,Summers County,WV,76.44628099173553
53005,Waukesha County,WI,54.132231404958674
53120,Walworth County,WI,94.62809917355372
53227,Milwaukee County,WI,20.66115702479339
53536,Rock County,WI,95.45454545454545
54449,Wood County,WI,69.00826446280992
54901,Winnebago County,WI,64.87603305785123
54902,Winnebago County,WI,44.214876033057855
