ZipCode,county,state,Adult,Retirement,Geriatric
35054,St. Clair County,AL,NA,88.77005347593582,NA
35901,Etowah County,AL,NA,71.92513368983957,NA
36544,Mobile County,AL,80.0711743772242,NA,NA
99504,Anchorage Municipality,AK,NA,41.97860962566845,NA
85020,Maricopa County,AZ,36.654804270462634,NA,NA
85083,Maricopa County,AZ,NA,NA,86.6906474820144
85207,Maricopa County,AZ,NA,30.74866310160428,NA
85258,Maricopa County,AZ,NA,NA,90.64748201438849
85260,Maricopa County,AZ,NA,NA,23.381294964028775
85298,Maricopa County,AZ,NA,63.101604278074866,NA
85364,Yuma County,AZ,NA,NA,5.0359712230215825
85365,Yuma County,AZ,NA,24.331550802139038,NA
85375,Maricopa County,AZ,NA,78.07486631016043,NA
85387,Maricopa County,AZ,NA,NA,78.41726618705036
85614,Pima County,AZ,NA,NA,6.115107913669065
85750,Pima County,AZ,NA,49.73262032085562,NA
85929,Navajo County,AZ,NA,87.43315508021391,NA
86303,Yavapai County,AZ,62.63345195729537,NA,NA
86336,Yavapai County,AZ,NA,86.09625668449198,NA
86510,Navajo County,AZ,NA,95.72192513368985,NA
71753,Columbia County,AR,63.70106761565836,NA,NA
71854,Miller County,AR,NA,29.67914438502674,NA
71901,Garland County,AR,NA,44.919786096256686,NA
72019,Saline County,AR,69.3950177935943,NA,NA
72034,Faulkner County,AR,NA,NA,16.906474820143885
72116,Pulaski County,AR,NA,NA,67.62589928057554
72764,Washington County,AR,NA,56.14973262032086,NA
90017,Los Angeles County,CA,NA,83.42245989304813,NA
90020,Los Angeles County,CA,NA,53.7433155080214,NA
90025,Los Angeles County,CA,NA,37.967914438502675,NA
90042,Los Angeles County,CA,52.66903914590747,NA,NA
90069,Los Angeles County,CA,NA,51.60427807486631,NA
90601,Los Angeles County,CA,NA,66.57754010695187,NA
90744,Los Angeles County,CA,NA,NA,62.94964028776978
90807,Los Angeles County,CA,NA,NA,53.23741007194245
91001,Los Angeles County,CA,NA,NA,71.22302158273382
91306,Los Angeles County,CA,NA,50.80213903743316,NA
91325,Los Angeles County,CA,NA,NA,55.03597122302158
91340,Los Angeles County,CA,62.27758007117438,NA,NA
91364,Los Angeles County,CA,NA,NA,43.16546762589928
91604,Los Angeles County,CA,NA,59.09090909090909,44.60431654676259
91711,Los Angeles County,CA,NA,33.42245989304813,NA
91731,Los Angeles County,CA,NA,NA,65.46762589928058
91764,San Bernardino County,CA,NA,61.49732620320856,NA
91789,Los Angeles County,CA,NA,NA,51.798561151079134
91942,San Diego County,CA,NA,NA,24.46043165467626
92014,San Diego County,CA,NA,NA,83.45323741007195
92064,San Diego County,CA,48.04270462633452,NA,NA
92084,San Diego County,CA,56.22775800711744,NA,NA
92115,San Diego County,CA,32.028469750889684,NA,NA
92117,San Diego County,CA,55.16014234875445,NA,NA
92253,Riverside County,CA,NA,NA,39.92805755395683
92335,San Bernardino County,CA,NA,NA,44.96402877697842
92504,Riverside County,CA,69.7508896797153,NA,NA
92618,Orange County,CA,61.20996441281139,NA,NA
92620,Orange County,CA,NA,77.80748663101605,NA
92647,Orange County,CA,NA,25.668449197860966,NA
92649,Orange County,CA,NA,31.550802139037433,NA
92832,Orange County,CA,92.17081850533808,NA,NA
92835,Orange County,CA,NA,95.18716577540107,NA
93003,Ventura County,CA,NA,89.57219251336899,NA
93010,Ventura County,CA,NA,NA,11.870503597122301
93444,San Luis Obispo County,CA,NA,63.36898395721925,NA
93458,Santa Barbara County,CA,16.72597864768683,NA,NA
93551,Los Angeles County,CA,NA,54.278074866310156,NA
93638,Madera County,CA,NA,46.79144385026738,NA
93706,Fresno County,CA,20.99644128113879,NA,NA
93720,Fresno County,CA,NA,NA,75.53956834532374
93905,Monterey County,CA,36.29893238434164,NA,NA
93906,Monterey County,CA,89.6797153024911,NA,NA
94089,Santa Clara County,CA,NA,NA,69.42446043165468
94114,San Francisco County,CA,NA,53.475935828877006,NA
94124,San Francisco County,CA,55.871886120996436,NA,NA
94306,Santa Clara County,CA,82.91814946619218,NA,NA
94541,Alameda County,CA,NA,75.40106951871658,NA
94558,Napa County,CA,30.96085409252669,NA,NA
94603,Alameda County,CA,NA,NA,69.7841726618705
94605,Alameda County,CA,23.487544483985765,NA,NA
94904,Marin County,CA,NA,NA,68.70503597122301
95003,Santa Cruz County,CA,NA,NA,84.89208633093526
95023,San Benito County,CA,NA,70.85561497326202,NA
95037,Santa Clara County,CA,53.736654804270465,NA,NA
95125,Santa Clara County,CA,45.55160142348754,NA,NA
95207,San Joaquin County,CA,NA,65.50802139037432,NA
95337,San Joaquin County,CA,39.14590747330961,NA,NA
95370,Tuolumne County,CA,NA,60.42780748663101,NA
95404,Sonoma County,CA,NA,81.28342245989305,NA
95503,Humboldt County,CA,NA,45.72192513368984,NA
95632,Sacramento County,CA,NA,42.24598930481284,NA
95826,Sacramento County,CA,NA,55.88235294117647,NA
95946,Nevada County,CA,88.25622775800713,NA,NA
95963,Glenn County,CA,NA,73.79679144385027,NA
95966,Butte County,CA,NA,9.090909090909092,NA
95973,Butte County,CA,NA,NA,53.956834532374096
95993,Sutter County,CA,NA,NA,26.258992805755394
96122,Plumas County,CA,97.15302491103202,NA,NA
80004,Jefferson County,CO,54.092526690391466,NA,NA
80012,Arapahoe County,CO,NA,65.24064171122996,NA
80017,Arapahoe County,CO,NA,47.593582887700535,NA
80104,Douglas County,CO,54.44839857651246,NA,NA
80109,Douglas County,CO,86.47686832740213,NA,NA
80112,Arapahoe County,CO,NA,55.61497326203209,NA
80221,Adams County,CO,33.45195729537366,52.406417112299465,NA
80301,Boulder County,CO,58.00711743772242,NA,NA
80524,Larimer County,CO,NA,30.481283422459892,NA
80903,El Paso County,CO,NA,84.49197860962568,NA
81004,Pueblo County,CO,57.29537366548043,NA,NA
81005,Pueblo County,CO,NA,NA,34.53237410071942
81008,Pueblo County,CO,NA,NA,78.77697841726618
81504,Mesa County,CO,83.62989323843416,NA,NA
81520,Mesa County,CO,NA,80.74866310160428,NA
06037,Hartford County,CT,NA,96.52406417112299,NA
06226,Windham County,CT,NA,44.6524064171123,NA
06401,New Haven County,CT,30.604982206405694,NA,NA
06405,New Haven County,CT,41.281138790035584,NA,NA
06418,New Haven County,CT,NA,68.44919786096256,NA
06460,New Haven County,CT,NA,NA,30.935251798561154
06483,New Haven County,CT,NA,NA,66.54676258992805
06489,Hartford County,CT,NA,NA,10.071942446043165
06492,New Haven County,CT,NA,14.973262032085561,NA
06515,New Haven County,CT,NA,NA,38.84892086330935
06604,Fairfield County,CT,NA,38.770053475935825,NA
06787,Litchfield County,CT,NA,80.21390374331551,NA
06851,Fairfield County,CT,NA,NA,27.697841726618705
06902,Fairfield County,CT,NA,13.636363636363635,NA
19701,New Castle County,DE,73.66548042704626,NA,NA
19711,New Castle County,DE,NA,12.566844919786096,NA
19713,New Castle County,DE,NA,82.62032085561498,NA
19720,New Castle County,DE,NA,1.8716577540106951,NA
19805,New Castle County,DE,NA,9.358288770053475,NA
19970,Sussex County,DE,NA,59.62566844919787,NA
32060,Suwannee County,FL,NA,NA,56.4748201438849
32080,St. Johns County,FL,NA,NA,25.899280575539567
32162,Sumter County,FL,NA,21.92513368983957,NA
32202,Duval County,FL,NA,95.98930481283422,NA
32405,Bay County,FL,NA,32.085561497326204,NA
32435,Walton County,FL,76.15658362989323,NA,NA
32526,Escambia County,FL,16.014234875444842,NA,NA
32609,Alachua County,FL,51.60142348754449,NA,NA
32792,Orange County,FL,NA,NA,21.942446043165468
32935,Brevard County,FL,NA,NA,57.9136690647482
32962,Indian River County,FL,NA,41.44385026737968,NA
33023,Broward County,FL,NA,NA,48.561151079136685
33027,Broward County,FL,NA,NA,7.553956834532374
33040,Monroe County,FL,43.06049822064057,NA,NA
33064,Broward County,FL,NA,98.66310160427807,NA
33133,Miami-Dade County,FL,72.59786476868328,NA,NA
33407,Palm Beach County,FL,29.537366548042705,NA,NA
33432,Palm Beach County,FL,NA,NA,87.41007194244604
33436,Palm Beach County,FL,NA,50,NA
33442,Broward County,FL,NA,71.12299465240642,NA
33467,Palm Beach County,FL,NA,61.76470588235294,14.388489208633093
33473,Palm Beach County,FL,99.644128113879,NA,NA
33486,Palm Beach County,FL,NA,94.91978609625669,NA
33578,Hillsborough County,FL,NA,58.82352941176471,NA
33611,Hillsborough County,FL,NA,58.55614973262032,NA
33713,Pinellas County,FL,NA,NA,95.32374100719424
33765,Pinellas County,FL,NA,69.5187165775401,NA
33772,Pinellas County,FL,NA,74.06417112299465,NA
33990,Lee County,FL,NA,40.909090909090914,NA
34219,Manatee County,FL,NA,64.171122994652407,NA
34432,Marion County,FL,NA,74.59893048128342,NA
34448,Citrus County,FL,NA,91.71122994652407,NA
34465,Citrus County,FL,NA,64.43850267379679,NA
34476,Marion County,FL,NA,74.8663101604278,NA
34613,Hernando County,FL,NA,36.36363636363637,NA
34695,Pinellas County,FL,94.30604982206405,NA,NA
34698,Pinellas County,FL,NA,26.47058823529412,NA
34748,Lake County,FL,NA,NA,3.237410071942446
34949,St. Lucie County,FL,NA,81.55080213903744,NA
34990,Martin County,FL,NA,NA,5.39568345323741
30157,Paulding County,GA,26.690391459074732,NA,NA
30238,Clayton County,GA,51.95729537366548,NA,NA
30506,Hall County,GA,NA,55.3475935828877,NA
30528,White County,GA,NA,NA,63.66906474820144
30530,Banks County,GA,NA,93.04812834224599,NA
30605,Clarke County,GA,NA,83.15508021390374,NA
30606,Clarke County,GA,38.43416370106761,NA,NA
30680,Barrow County,GA,NA,NA,28.776978417266186
31055,Telfair County,GA,NA,NA,97.48201438848922
31069,Houston County,GA,40.569395017793596,NA,NA
31088,Houston County,GA,17.793594306049823,NA,17.985611510791365
31516,Pierce County,GA,65.83629893238434,NA,NA
31601,Lowndes County,GA,NA,72.99465240641712,NA
31730,Mitchell County,GA,77.22419928825623,NA,NA
31757,Thomas County,GA,NA,NA,76.97841726618705
96727,Hawaii County,HI,NA,NA,93.88489208633094
83301,Twin Falls County,ID,NA,0.8021390374331552,NA
83544,Clearwater County,ID,NA,75.40106951871658,NA
83617,Gem County,ID,87.54448398576513,NA,NA
83642,Ada County,ID,NA,7.219251336898395,NA
83646,Ada County,ID,39.8576512455516,5.614973262032086,NA
83651,Canyon County,ID,NA,13.903743315508022,NA
83702,Ada County,ID,NA,25.13368983957219,NA
83706,Ada County,ID,NA,27.00534759358289,NA
83815,Kootenai County,ID,NA,NA,15.827338129496402
60004,Cook County,IL,NA,11.497326203208557,NA
60030,Lake County,IL,NA,27.27272727272727,NA
60068,Cook County,IL,NA,NA,21.223021582733814
60076,Cook County,IL,NA,NA,16.18705035971223
60089,Lake County,IL,38.79003558718861,NA,NA
60098,McHenry County,IL,31.672597864768683,NA,NA
60108,DuPage County,IL,NA,NA,29.496402877697843
60142,McHenry County,IL,NA,NA,3.5971223021582732
60172,DuPage County,IL,NA,NA,82.37410071942446
60176,Cook County,IL,78.64768683274022,NA,NA
60177,Kane County,IL,56.93950177935944,NA,NA
60193,Cook County,IL,NA,NA,26.978417266187048
60409,Cook County,IL,NA,34.49197860962567,81.29496402877699
60410,Will County,IL,NA,71.65775401069519,NA
60411,Cook County,IL,14.94661921708185,NA,NA
60423,Will County,IL,68.68327402135232,NA,NA
60453,Cook County,IL,42.34875444839858,NA,7.913669064748201
60462,Cook County,IL,27.046263345195733,NA,NA
60563,DuPage County,IL,44.83985765124555,NA,NA
60611,Cook County,IL,NA,24.86631016042781,NA
60613,Cook County,IL,28.46975088967972,NA,NA
60614,Cook County,IL,NA,20.588235294117645,NA
60625,Cook County,IL,NA,17.11229946524064,NA
60643,Cook County,IL,NA,28.07486631016043,NA
60646,Cook County,IL,47.686832740213525,NA,NA
61282,Rock Island County,IL,NA,NA,87.76978417266187
61832,Vermilion County,IL,NA,11.76470588235294,9.712230215827338
62034,Madison County,IL,NA,79.67914438502673,NA
62301,Adams County,IL,NA,39.037433155080215,NA
62521,Macon County,IL,NA,8.0213903743315509,NA
46220,Marion County,IN,70.8185053380783,NA,NA
46236,Marion County,IN,NA,NA,66.90647482014388
46311,Lake County,IN,NA,21.12299465240642,NA
46320,Lake County,IN,NA,51.87165775401069,NA
46321,Lake County,IN,NA,NA,23.741007194244602
46327,Lake County,IN,NA,58.288770053475936,NA
46383,Porter County,IN,9.9644128113879,NA,NA
46385,Porter County,IN,NA,NA,22.66187050359712
46405,Lake County,IN,40.213523131672595,49.19786096256685,NA
46407,Lake County,IN,45.195729537366546,NA,NA
46408,Lake County,IN,NA,45.98930481283423,NA
46514,Elkhart County,IN,29.8932384341637,NA,NA
46516,Elkhart County,IN,NA,40.64171122994652,NA
46806,Allen County,IN,NA,NA,70.86330935251799
46845,Allen County,IN,NA,45.18716577540107,NA
46914,Miami County,IN,97.86476868327402,NA,NA
47201,Bartholomew County,IN,NA,NA,67.98561151079137
47330,Wayne County,IN,NA,87.16577540106952,NA
47374,Wayne County,IN,5.6939501779359425,NA,NA
47454,Orange County,IN,82.56227758007117,NA,NA
47532,Dubois County,IN,96.44128113879003,NA,NA
50010,Story County,IA,NA,NA,89.568345323741
50588,Buena Vista County,IA,NA,84.75935828877004,NA
51510,Pottawattamie County,IA,NA,98.93048128342245,NA
52060,Jackson County,IA,84.34163701067615,NA,NA
52601,Des Moines County,IA,NA,69.78609625668449,NA
52632,Lee County,IA,NA,37.4331550802139,NA
52761,Muscatine County,IA,NA,92.24598930481284,NA
52778,Muscatine County,IA,97.50889679715303,NA,NA
66018,Johnson County,KS,NA,97.59358288770053,NA
66071,Miami County,KS,70.46263345195729,NA,NA
66112,Wyandotte County,KS,NA,NA,72.66187050359713
66209,Johnson County,KS,NA,43.31550802139038,NA
66212,Johnson County,KS,54.804270462633454,NA,NA
67114,Harvey County,KS,NA,NA,84.53237410071942
67124,Pratt County,KS,NA,NA,91.00719424460432
67220,Sedgwick County,KS,NA,96.2566844919786,NA
67601,Ellis County,KS,NA,NA,34.89208633093525
67654,Norton County,KS,91.45907473309609,NA,NA
40004,Nelson County,KY,NA,NA,39.568345323741006
40511,Fayette County,KY,NA,48.1283422459893,NA
41017,Kenton County,KY,NA,25.40106951871658,NA
41056,Mason County,KY,NA,NA,57.55395683453237
41572,Pike County,KY,NA,94.11764705882352,NA
42050,Fulton County,KY,95.37366548042705,NA,NA
70001,Jefferson Parish,LA,NA,10.695187165775401,NA
70065,Jefferson Parish,LA,NA,24.06417112299465,45.68345323741007
70094,Jefferson Parish,LA,NA,19.25133689839572,NA
70116,Orleans Parish,LA,NA,68.71657754010695,NA
70560,Iberia Parish,LA,2.491103202846975,NA,29.136690647482016
70767,West Baton Rouge Parish,LA,NA,69.25133689839572,NA
70775,West Feliciana Parish,LA,NA,73.52941176470588,NA
70816,East Baton Rouge Parish,LA,NA,35.294117647058826,NA
71064,Bossier Parish,LA,NA,98.1283422459893,NA
71078,De Soto Parish,LA,NA,NA,97.12230215827337
71483,Winn Parish,LA,NA,72.72727272727273,NA
04038,Cumberland County,ME,NA,NA,49.280575539568346
04073,York County,ME,NA,NA,48.201438848920866
04444,Penobscot County,ME,71.53024911032028,NA,NA
04605,Hancock County,ME,42.704626334519574,NA,NA
20744,Prince George's County,MD,NA,40.106951871657756,NA
20817,Montgomery County,MD,NA,NA,61.87050359712231
20874,Montgomery County,MD,NA,NA,70.14388489208633
21076,Anne Arundel County,MD,NA,86.63101604278076,NA
21205,Baltimore city,MD,NA,NA,50.35971223021583
21239,Baltimore city,MD,NA,NA,75.89928057553958
21502,Allegany County,MD,22.419928825622776,NA,NA
21617,Queen Anne's County,MD,NA,91.44385026737967,NA
21742,Washington County,MD,63.345195729537366,NA,NA
21795,Washington County,MD,NA,NA,94.96402877697841
21875,Wicomico County,MD,NA,NA,91.72661870503596
01001,Hampden County,MA,NA,NA,35.97122302158273
01030,Hampden County,MA,95.72953736654804,NA,NA
01056,Hampden County,MA,NA,NA,44.24460431654676
01085,Hampden County,MA,13.523131672597867,NA,NA
01201,Berkshire County,MA,NA,0.267379679144385,NA
01331,Worcester County,MA,6.049822064056939,NA,NA
01453,Worcester County,MA,NA,NA,76.61870503597122
01464,Middlesex County,MA,93.23843416370107,NA,NA
01473,Worcester County,MA,NA,NA,96.76258992805755
01570,Worcester County,MA,74.73309608540926,NA,NA
01604,Worcester County,MA,NA,52.139037433155075,NA
01701,Middlesex County,MA,NA,55.080213903743314,NA
01730,Middlesex County,MA,NA,NA,17.26618705035971
01742,Middlesex County,MA,NA,NA,28.05755395683453
01801,Middlesex County,MA,NA,NA,1.4388489208633095
01803,Middlesex County,MA,NA,2.941176470588235,NA
01876,Middlesex County,MA,NA,1.6042780748663104,NA
01886,Middlesex County,MA,NA,33.68983957219251,NA
01890,Middlesex County,MA,NA,34.22459893048128,NA
01923,Essex County,MA,3.558718861209965,NA,NA
01930,Essex County,MA,NA,NA,8.992805755395683
01940,Essex County,MA,NA,NA,80.2158273381295
02043,Plymouth County,MA,NA,NA,20.503597122302157
02144,Middlesex County,MA,NA,12.032085561497325,NA
02346,Plymouth County,MA,13.167259786476867,NA,NA
02360,Plymouth County,MA,0.7117437722419928,NA,NA
02445,Norfolk County,MA,NA,36.096256684491976,NA
02458,Middlesex County,MA,NA,47.05882352941176,NA
02459,Middlesex County,MA,43.41637010676156,NA,NA
02465,Middlesex County,MA,NA,NA,42.44604316546763
02478,Middlesex County,MA,NA,27.540106951871657,NA
02494,Norfolk County,MA,NA,NA,45.32374100719424
02717,Bristol County,MA,NA,NA,89.20863309352518
02738,Plymouth County,MA,96.79715302491103,NA,99.64028776978418
48044,Macomb County,MI,32.74021352313167,NA,NA
48066,Macomb County,MI,NA,7.4866310160427805,NA
48094,Macomb County,MI,NA,50.26737967914438,NA
48108,Washtenaw County,MI,NA,32.62032085561498,NA
48127,Wayne County,MI,NA,NA,8.633093525179856
48130,Washtenaw County,MI,NA,39.57219251336899,NA
48154,Wayne County,MI,23.487544483985765,NA,NA
48160,Washtenaw County,MI,NA,56.68449197860963,NA
48188,Wayne County,MI,NA,NA,34.172661870503596
48189,Washtenaw County,MI,NA,52.67379679144385,NA
48195,Wayne County,MI,NA,10.427807486631016,NA
48197,Washtenaw County,MI,17.08185053380783,NA,NA
48207,Wayne County,MI,48.39857651245551,NA,NA
48219,Wayne County,MI,22.77580071174377,NA,NA
48220,Oakland County,MI,NA,43.58288770053476,NA
48225,Wayne County,MI,NA,65.77540106951871,NA
48230,Wayne County,MI,NA,NA,56.11510791366906
48239,Wayne County,MI,10.676156583629894,NA,NA
48307,Oakland County,MI,NA,NA,14.028776978417264
48316,Macomb County,MI,NA,NA,19.784172661870503
48328,Oakland County,MI,37.36654804270463,NA,NA
48473,Genesee County,MI,NA,NA,58.63309352517986
48509,Genesee County,MI,NA,80.4812834224599,NA
48601,Saginaw County,MI,NA,2.13903743315508,NA
48603,Saginaw County,MI,NA,NA,40.28776978417266
48616,Saginaw County,MI,NA,48.39572192513369,NA
48651,Roscommon County,MI,NA,NA,86.33093525179856
48756,Ogemaw County,MI,NA,NA,98.56115107913669
48759,Huron County,MI,93.59430604982207,NA,NA
48768,Tuscola County,MI,77.93594306049823,NA,NA
48813,Eaton County,MI,37.72241992882562,NA,NA
48843,Livingston County,MI,NA,2.6737967914438503,NA
48858,Isabella County,MI,7.11743772241993,NA,NA
48893,Isabella County,MI,NA,NA,83.45323741007195
48906,Ingham County,MI,NA,NA,31.294964028776977
49015,Calhoun County,MI,NA,31.818181818181817,NA
49091,St. Joseph County,MI,NA,73.2620320855615,NA
49107,Berrien County,MI,NA,NA,94.24460431654677
49120,Berrien County,MI,NA,18.449197860962567,NA
49201,Jackson County,MI,11.387900355871885,3.4759358288770055,NA
49203,Jackson County,MI,9.608540925266903,NA,NA
49224,Calhoun County,MI,NA,NA,72.3021582733813
49417,Ottawa County,MI,18.505338078291814,NA,NA
49456,Ottawa County,MI,NA,NA,21.58273381294964
49457,Muskegon County,MI,NA,NA,85.25179856115108
49503,Kent County,MI,37.01067615658363,NA,NA
49601,Wexford County,MI,NA,51.33689839572193,NA
49712,Charlevoix County,MI,81.49466192170819,NA,NA
55066,Goodhue County,MN,NA,NA,12.23021582733813
55106,Ramsey County,MN,NA,28.609625668449194,NA
55109,Ramsey County,MN,44.128113879003564,NA,NA
55119,Ramsey County,MN,NA,68.18181818181817,NA
55123,Dakota County,MN,77.58007117437722,NA,NA
55125,Washington County,MN,NA,NA,36.330935251798564
55128,Washington County,MN,47.330960854092524,NA,NA
55305,Hennepin County,MN,NA,NA,33.81294964028777
55350,McLeod County,MN,NA,NA,14.748201438848922
55371,Mille Lacs County,MN,NA,72.45989304812835,NA
55405,Hennepin County,MN,NA,NA,78.05755395683454
55411,Hennepin County,MN,3.202846975088968,NA,NA
55447,Hennepin County,MN,NA,NA,77.33812949640287
55744,Itasca County,MN,NA,NA,7.1942446043165464
55805,St. Louis County,MN,NA,68.71657754010695,NA
55807,St. Louis County,MN,46.263345195729535,NA,NA
55912,Mower County,MN,NA,NA,0.7194244604316548
55976,Olmsted County,MN,NA,NA,73.7410071942446
55981,Wabasha County,MN,NA,NA,50.35971223021583
55987,Winona County,MN,NA,NA,2.877697841726619
56003,Nicollet County,MN,NA,NA,88.48920863309353
56031,Martin County,MN,NA,23.796791443850267,NA
56258,Lyon County,MN,NA,NA,43.52517985611511
56303,Stearns County,MN,NA,46.25668449197861,NA
56329,Benton County,MN,84.69750889679716,NA,NA
56501,Becker County,MN,38.07829181494662,29.946524064171122,NA
39183,Warren County,MS,NA,NA,74.46043165467626
39209,Hinds County,MS,NA,47.05882352941176,NA
39345,Newton County,MS,NA,NA,98.20143884892086
39501,Harrison County,MS,66.54804270462633,NA,NA
63011,St. Louis County,MO,NA,NA,6.474820143884892
63040,St. Louis County,MO,NA,91.97860962566845,NA
63106,St. Louis city,MO,71.53024911032028,NA,NA
63120,St. Louis city,MO,NA,82.88770053475936,NA
63122,St. Louis County,MO,NA,NA,11.151079136690647
63123,St. Louis County,MO,NA,17.647058823529413,NA
63127,St. Louis County,MO,NA,NA,59.352517985611506
63129,St. Louis County,MO,NA,6.149732620320856,10.431654676258994
63130,St. Louis County,MO,50.5338078291815,NA,NA
63132,St. Louis County,MO,NA,NA,46.402877697841724
63141,St. Louis County,MO,NA,NA,88.84892086330936
63146,St. Louis County,MO,NA,35.56149732620321,NA
63303,St. Charles County,MO,21.352313167259787,NA,NA
63368,St. Charles County,MO,NA,25.935828877005346,16.546762589928058
63379,Lincoln County,MO,NA,NA,32.37410071942446
63650,Iron County,MO,NA,92.51336898395722,NA
63670,Ste. Genevieve County,MO,NA,NA,61.15107913669065
63841,Stoddard County,MO,NA,75.1336898395722,NA
64012,Cass County,MO,27.402135231316727,NA,NA
64037,Lafayette County,MO,NA,NA,84.17266187050359
64108,Jackson County,MO,58.362989323843415,NA,NA
64113,Jackson County,MO,NA,64.97326203208557,NA
64117,Clay County,MO,35.94306049822064,43.85026737967914,NA
64155,Clay County,MO,20.640569395017792,NA,NA
64503,Buchanan County,MO,57.65124555160143,NA,NA
65251,Callaway County,MO,NA,54.01069518716578,NA
65807,Greene County,MO,NA,19.786096256684495,NA
59270,Richland County,MT,NA,88.50267379679144,NA
59808,Missoula County,MT,NA,NA,59.352517985611506
59860,Lake County,MT,NA,NA,64.02877697841727
68106,Douglas County,NE,NA,NA,51.438848920863315
68107,Douglas County,NE,NA,54.54545454545454,NA
68123,Sarpy County,NE,62.989323843416365,NA,NA
68521,Lancaster County,NE,NA,78.34224598930481,NA
68847,Buffalo County,NE,76.51245551601423,NA,NA
68901,Adams County,NE,NA,NA,30.575539568345324
89123,Clark County,NV,NA,NA,50
89129,Clark County,NV,NA,75.93582887700535,NA
89134,Clark County,NV,90.0355871886121,NA,NA
03053,Rockingham County,NH,NA,59.35828877005348,NA
03054,Hillsborough County,NH,NA,21.65775401069519,NA
03103,Hillsborough County,NH,6.761565836298933,NA,NA
03104,Hillsborough County,NH,NA,16.844919786096256,NA
03249,Belknap County,NH,85.76512455516014,NA,NA
03301,Merrimack County,NH,NA,14.171122994652407,NA
03743,Sullivan County,NH,53.02491103202846,NA,NA
03766,Grafton County,NH,NA,67.64705882352942,NA
03841,Rockingham County,NH,NA,90.64171122994652,NA
03874,Rockingham County,NH,73.30960854092527,NA,NA
07024,Bergen County,NJ,NA,NA,41.726618705035975
07036,Union County,NJ,NA,NA,65.82733812949641
07039,Essex County,NJ,NA,85.02673796791443,NA
07107,Essex County,NJ,NA,NA,54.31654676258992
07108,Essex County,NJ,NA,23.262032085561497,NA
07430,Bergen County,NJ,NA,90.9090909090909,NA
07461,Sussex County,NJ,NA,59.893048128342244,NA
07465,Passaic County,NJ,NA,77.54010695187165,NA
07522,Passaic County,NJ,NA,32.887700534759354,NA
07628,Bergen County,NJ,96.08540925266904,NA,NA
07728,Monmouth County,NJ,NA,17.914438502673796,NA
07920,Somerset County,NJ,NA,60.16042780748663,NA
07974,Union County,NJ,NA,NA,92.08633093525181
08021,Camden County,NJ,NA,6.684491978609626,NA
08031,Camden County,NJ,NA,NA,77.33812949640287
08046,Burlington County,NJ,7.473309608540925,NA,NA
08060,Burlington County,NJ,NA,35.82887700534759,NA
08094,Gloucester County,NJ,NA,13.368983957219251,NA
08205,Atlantic County,NJ,NA,26.203208556149733,NA
08215,Atlantic County,NJ,NA,NA,80.57553956834532
08318,Salem County,NJ,NA,87.70053475935828,NA
08360,Cumberland County,NJ,NA,8.288770053475936,NA
08520,Mercer County,NJ,50.177935943060504,NA,NA
08611,Mercer County,NJ,98.57651245551602,NA,NA
08618,Mercer County,NJ,NA,NA,33.45323741007194
08619,Mercer County,NJ,NA,56.417112299465245,NA
08701,Ocean County,NJ,2.8469750889679712,NA,NA
08722,Ocean County,NJ,NA,NA,79.49640287769785
08742,Ocean County,NJ,NA,95.45454545454545,NA
08755,Ocean County,NJ,NA,NA,10.79136690647482
08807,Somerset County,NJ,NA,86.36363636363636,NA
08816,Middlesex County,NJ,NA,NA,37.76978417266187
08854,Middlesex County,NJ,NA,44.38502673796791,NA
87105,Bernalillo County,NM,4.6263345195729535,NA,NA
87107,Bernalillo County,NM,NA,NA,41.36690647482014
87108,Bernalillo County,NM,NA,3.7433155080213902,NA
87110,Bernalillo County,NM,NA,9.893048128342247,11.510791366906476
87120,Bernalillo County,NM,NA,16.577540106951872,NA
87532,Santa Fe County,NM,81.13879003558719,NA,NA
88001,Doa Ana County,NM,26.334519572953734,NA,NA
88011,Doa Ana County,NM,NA,88.23529411764706,NA
88021,Doa Ana County,NM,NA,NA,92.80575539568345
88201,Chaves County,NM,34.519572953736656,NA,NA
88203,Chaves County,NM,NA,NA,56.4748201438849
10003,New York County,NY,NA,40.37433155080214,20.14388489208633
10021,New York County,NY,NA,NA,18.705035971223023
10032,New York County,NY,12.811387900355871,70.32085561497327,NA
10034,New York County,NY,NA,20.32085561497326,NA
10304,Richmond County,NY,15.658362989323843,NA,NA
10452,Bronx County,NY,0.3558718861209964,NA,NA
10467,Bronx County,NY,NA,0.53475935828877,NA
10469,Bronx County,NY,NA,5.88235294117647,NA
10472,Bronx County,NY,2.135231316725979,NA,NA
10475,Bronx County,NY,NA,12.299465240641712,NA
10566,Westchester County,NY,NA,NA,63.30935251798561
10583,Westchester County,NY,NA,79.14438502673798,NA
10801,Westchester County,NY,NA,NA,31.654676258992804
10989,Rockland County,NY,NA,NA,80.93525179856115
10994,Rockland County,NY,NA,97.86096256684492,NA
11004,Queens County,NY,NA,NA,64.74820143884892
11212,Kings County,NY,1.0676156583629894,NA,NA
11223,Kings County,NY,NA,15.240641711229946,NA
11225,Kings County,NY,NA,50.534759358288774,NA
11233,Kings County,NY,13.87900355871886,NA,NA
11355,Queens County,NY,NA,21.390374331550802,NA
11374,Queens County,NY,NA,28.342245989304814,NA
11377,Queens County,NY,18.14946619217082,NA,NA
11379,Queens County,NY,NA,85.29411764705883,NA
11415,Queens County,NY,NA,71.3903743315508,NA
11428,Queens County,NY,61.92170818505338,NA,NA
11429,Queens County,NY,NA,NA,65.10791366906474
11566,Nassau County,NY,86.83274021352312,NA,NA
11580,Nassau County,NY,NA,NA,28.41726618705036
11754,Suffolk County,NY,NA,83.9572192513369,NA
11756,Nassau County,NY,NA,NA,71.94244604316546
11779,Suffolk County,NY,NA,48.93048128342246,NA
11791,Nassau County,NY,NA,81.81818181818183,NA
11801,Nassau County,NY,55.51601423487544,NA,NA
11901,Suffolk County,NY,NA,85.56149732620321,NA
12204,Albany County,NY,64.41281138790036,NA,NA
12477,Ulster County,NY,NA,NA,91.36690647482014
12528,Ulster County,NY,NA,99.19786096256684,NA
13027,Onondaga County,NY,NA,82.0855614973262,NA
13316,Oneida County,NY,61.56583629893239,NA,NA
13760,Broome County,NY,1.4234875444839856,NA,1.079136690647482
14031,Erie County,NY,NA,76.47058823529412,NA
14075,Erie County,NY,NA,4.545454545454546,12.589928057553957
14094,Niagara County,NY,NA,NA,25.179856115107913
14108,Niagara County,NY,NA,82.35294117647058,NA
14226,Erie County,NY,30.2491103202847,NA,NA
14425,Ontario County,NY,NA,29.411764705882355,NA
14456,Ontario County,NY,9.252669039145907,NA,NA
14502,Wayne County,NY,27.75800711743772,NA,NA
14534,Monroe County,NY,8.185053380782918,NA,NA
14544,Yates County,NY,92.52669039145907,NA,NA
14612,Monroe County,NY,NA,1.06951871657754,NA
14623,Monroe County,NY,NA,NA,41.007194244604314
14715,Allegany County,NY,NA,93.58288770053476,NA
14867,Tompkins County,NY,60.14234875444839,NA,NA
14879,Steuben County,NY,94.66192170818505,NA,NA
27021,Stokes County,NC,NA,NA,73.02158273381295
27104,Forsyth County,NC,NA,4.81283422459893,NA
27292,Davidson County,NC,5.338078291814947,NA,NA
27312,Chatham County,NC,NA,22.459893048128343,NA
27371,Montgomery County,NC,NA,NA,96.0431654676259
27405,Guilford County,NC,NA,15.508021390374333,NA
27502,Wake County,NC,NA,NA,54.67625899280576
27516,Orange County,NC,NA,NA,23.021582733812952
27517,Orange County,NC,NA,NA,17.62589928057554
27518,Wake County,NC,NA,52.94117647058824,NA
27520,Johnston County,NC,33.096085409252666,NA,NA
27527,Johnston County,NC,NA,99.46524064171123,NA
27542,Johnston County,NC,67.61565836298932,NA,NA
27563,Warren County,NC,NA,NA,94.60431654676259
27587,Wake County,NC,NA,8.823529411764707,NA
27607,Wake County,NC,NA,NA,81.65467625899281
27705,Durham County,NC,NA,NA,55.03597122302158
27707,Durham County,NC,NA,6.951871657754011,NA
27834,Pitt County,NC,8.896797153024911,NA,NA
27889,Beaufort County,NC,NA,90.37433155080214,NA
27909,Pasquotank County,NC,41.637010676156585,NA,NA
27932,Chowan County,NC,NA,44.11764705882353,NA
28021,Gaston County,NC,NA,NA,69.06474820143885
28025,Cabarrus County,NC,66.90391459074732,17.379679144385026,NA
28152,Cleveland County,NC,35.587188612099645,NA,NA
28216,Mecklenburg County,NC,NA,18.181818181818183,NA
28366,Sampson County,NC,NA,NA,73.38129496402878
28461,Brunswick County,NC,NA,36.63101604278075,NA
28602,Catawba County,NC,19.9288256227758,NA,NA
28607,Watauga County,NC,NA,39.3048128342246,NA
28630,Caldwell County,NC,NA,NA,47.84172661870504
28635,Wilkes County,NC,90.39145907473309,NA,100
28645,Caldwell County,NC,4.270462633451958,NA,NA
28673,Catawba County,NC,NA,89.83957219251337,NA
28732,Henderson County,NC,NA,NA,85.25179856115108
28739,Henderson County,NC,NA,15.775401069518717,NA
28901,Cherokee County,NC,NA,NA,75.17985611510791
58103,Cass County,ND,NA,1.3368983957219251,2.5179856115107913
58104,Cass County,ND,NA,NA,4.316546762589928
58201,Grand Forks County,ND,NA,35.02673796791444,NA
58203,Grand Forks County,ND,52.313167259786475,NA,NA
58501,Burleigh County,ND,49.8220640569395,NA,NA
43065,Delaware County,OH,NA,81.01604278074866,NA
43082,Delaware County,OH,NA,76.20320855614973,NA
43113,Pickaway County,OH,NA,14.43850267379679,NA
43160,Fayette County,OH,15.302491103202847,NA,NA
43209,Franklin County,OH,NA,37.16577540106952,NA
43214,Franklin County,OH,NA,NA,47.482014388489205
43224,Franklin County,OH,6.405693950177936,NA,NA
43512,Defiance County,OH,4.98220640569395,2.941176470588235,NA
43526,Defiance County,OH,NA,NA,62.589928057553955
43537,Lucas County,OH,29.181494661921707,NA,NA
43607,Lucas County,OH,25.97864768683274,NA,NA
43616,Lucas County,OH,14.23487544483986,NA,NA
43619,Wood County,OH,NA,70.05347593582889,NA
43623,Lucas County,OH,NA,NA,30.215827338129497
43953,Jefferson County,OH,NA,NA,35.61151079136691
44001,Lorain County,OH,NA,2.406417112299465,NA
44012,Lorain County,OH,NA,5.347593582887701,NA
44035,Lorain County,OH,NA,NA,4.676258992805756
44041,Ashtabula County,OH,NA,NA,58.992805755395686
44060,Lake County,OH,8.540925266903916,NA,NA
44062,Geauga County,OH,NA,NA,89.92805755395683
44067,Summit County,OH,NA,NA,13.309352517985612
44081,Lake County,OH,NA,NA,93.16546762589928
44089,Erie County,OH,35.231316725978644,NA,NA
44095,Lake County,OH,NA,NA,6.83453237410072
44106,Cuyahoga County,OH,12.455516014234876,NA,NA
44122,Cuyahoga County,OH,NA,NA,0.3597122302158274
44124,Cuyahoga County,OH,24.199288256227756,NA,NA
44132,Cuyahoga County,OH,NA,NA,38.489208633093526
44241,Portage County,OH,NA,NA,61.51079136690647
44266,Portage County,OH,NA,5.080213903743315,NA
44312,Summit County,OH,16.370106761565836,NA,NA
44319,Summit County,OH,NA,NA,20.863309352517987
44333,Summit County,OH,NA,43.04812834224599,NA
44406,Mahoning County,OH,NA,NA,24.100719424460433
44410,Trumbull County,OH,NA,62.56684491978609,NA
44425,Trumbull County,OH,NA,29.144385026737968,NA
44460,Columbiana County,OH,NA,7.754010695187167,NA
44511,Mahoning County,OH,21.70818505338078,NA,NA
44512,Mahoning County,OH,NA,16.31016042780749,NA
44514,Mahoning County,OH,45.90747330960854,NA,NA
44663,Tuscarawas County,OH,NA,20.855614973262032,NA
44820,Crawford County,OH,NA,12.834224598930483,NA
44836,Seneca County,OH,100,NA,NA
44870,Erie County,OH,NA,23.52941176470588,NA
45005,Warren County,OH,11.032028469750891,NA,NA
45066,Warren County,OH,91.10320284697508,NA,NA
45103,Clermont County,OH,NA,NA,53.23741007194245
45140,Clermont County,OH,NA,18.71657754010695,NA
45215,Hamilton County,OH,NA,38.50267379679144,NA
45224,Hamilton County,OH,NA,NA,46.043165467625904
45229,Hamilton County,OH,NA,32.35294117647059,NA
45237,Hamilton County,OH,NA,26.737967914438503,NA
45247,Hamilton County,OH,81.85053380782918,NA,NA
45251,Hamilton County,OH,NA,NA,42.086330935251794
45377,Montgomery County,OH,NA,46.25668449197861,NA
45420,Montgomery County,OH,25.622775800711743,NA,NA
45424,Montgomery County,OH,NA,11.229946524064172,NA
45429,Montgomery County,OH,NA,33.9572192513369,NA
45432,Greene County,OH,NA,57.21925133689839,NA
45601,Ross County,OH,0,0,NA
45619,Lawrence County,OH,NA,84.22459893048129,NA
45656,Jackson County,OH,59.7864768683274,NA,NA
45764,Athens County,OH,NA,72.19251336898395,NA
45804,Allen County,OH,NA,NA,22.302158273381295
45831,Putnam County,OH,NA,98.3957219251337,NA
45869,Auglaize County,OH,98.22064056939502,NA,NA
73142,Oklahoma County,OK,79.00355871886121,NA,NA
73401,Carter County,OK,41.99288256227758,NA,NA
73446,Marshall County,OK,NA,NA,85.97122302158273
73501,Comanche County,OK,NA,48.663101604278076,NA
73505,Comanche County,OK,NA,NA,5.755395683453238
74014,Wagoner County,OK,NA,27.807486631016044,NA
74020,Pawnee County,OK,83.27402135231317,NA,NA
74132,Tulsa County,OK,NA,89.3048128342246,NA
74820,Pontotoc County,OK,10.320284697508896,NA,NA
74953,Le Flore County,OK,NA,79.67914438502673,NA
74960,Adair County,OK,24.91103202846975,NA,NA
97045,Clackamas County,OR,NA,63.903743315508024,NA
97058,Wasco County,OR,NA,66.31016042780749,NA
97217,Multnomah County,OR,39.50177935943061,NA,NA
97224,Washington County,OR,86.12099644128114,NA,NA
97322,Linn County,OR,NA,16.042780748663102,NA
97603,Klamath County,OR,49.11032028469751,NA,NA
15012,Westmoreland County,PA,NA,NA,83.09352517985612
15021,Washington County,PA,NA,NA,74.10071942446042
15025,Allegheny County,PA,NA,NA,58.27338129496403
15120,Allegheny County,PA,NA,NA,32.73381294964029
15202,Allegheny County,PA,76.86832740213522,NA,NA
15241,Allegheny County,PA,NA,92.7807486631016,NA
15317,Washington County,PA,60.4982206405694,9.62566844919786,NA
15330,Washington County,PA,NA,97.05882352941177,NA
15717,Indiana County,PA,NA,42.513368983957214,NA
15834,Cameron County,PA,65.12455516014235,NA,NA
16046,Butler County,PA,NA,NA,52.15827338129496
16102,Lawrence County,PA,99.28825622775801,NA,NA
16137,Mercer County,PA,NA,NA,74.82014388489209
16428,Erie County,PA,80.0711743772242,NA,NA
16701,McKean County,PA,46.97508896797153,NA,NA
17011,Cumberland County,PA,25.26690391459075,NA,NA
17013,Cumberland County,PA,NA,NA,52.87769784172662
17042,Lebanon County,PA,NA,4.0106951871657754,NA
17331,York County,PA,NA,NA,2.158273381294964
17517,Lancaster County,PA,NA,NA,66.18705035971223
17543,Lancaster County,PA,22.064056939501782,NA,NA
17821,Montour County,PA,NA,NA,3.9568345323741005
17837,Union County,PA,NA,41.17647058823529,NA
17976,Schuylkill County,PA,NA,90.10695187165776,NA
18011,Lehigh County,PA,87.90035587188612,NA,NA
18202,Luzerne County,PA,88.61209964412812,NA,NA
18235,Carbon County,PA,83.98576512455516,NA,NA
18249,Luzerne County,PA,91.81494661921708,NA,NA
18302,Monroe County,PA,NA,NA,71.58273381294964
18421,Susquehanna County,PA,98.93238434163702,NA,NA
18444,Lackawanna County,PA,NA,94.38502673796792,NA
18657,Wyoming County,PA,NA,NA,60.431654676258994
18840,Bradford County,PA,NA,NA,76.2589928057554
19067,Bucks County,PA,NA,6.417112299465241,NA
19124,Philadelphia County,PA,1.7793594306049825,NA,25.539568345323744
19128,Philadelphia County,PA,19.217081850533805,NA,NA
19422,Montgomery County,PA,NA,NA,48.92086330935252
19454,Montgomery County,PA,NA,NA,43.884892086330936
19465,Chester County,PA,NA,66.0427807486631,NA
19508,Berks County,PA,49.46619217081851,NA,NA
19540,Berks County,PA,NA,57.48663101604278,NA
02840,Newport County,RI,NA,NA,51.07913669064749
02861,Providence County,RI,31.316725978647685,NA,NA
02864,Providence County,RI,NA,20.053475935828878,NA
02920,Providence County,RI,NA,19.518716577540108,NA
29169,Lexington County,SC,NA,94.6524064171123,NA
29302,Spartanburg County,SC,NA,91.17647058823529,NA
29407,Charleston County,SC,NA,NA,15.467625899280577
29412,Charleston County,SC,34.16370106761566,NA,NA
29527,Horry County,SC,75.44483985765125,NA,NA
29579,Horry County,SC,NA,NA,38.1294964028777
29621,Anderson County,SC,34.87544483985765,22.727272727272727,NA
29640,Pickens County,SC,NA,NA,29.856115107913666
29673,Greenville County,SC,NA,22.192513368983956,NA
29702,Cherokee County,SC,NA,NA,79.13669064748201
29707,Lancaster County,SC,88.96797153024912,NA,NA
29910,Beaufort County,SC,NA,39.839572192513366,NA
57106,Minnehaha County,SD,69.03914590747331,NA,NA
57350,Beadle County,SD,79.35943060498221,NA,NA
57401,Brown County,SD,NA,NA,1.7985611510791366
37027,Williamson County,TN,NA,NA,19.06474820143885
37066,Sumner County,TN,12.099644128113878,NA,NA
37128,Rutherford County,TN,28.11387900355872,NA,NA
37221,Davidson County,TN,64.05693950177937,NA,NA
37311,Bradley County,TN,NA,36.898395721925134,NA
37355,Coffee County,TN,NA,51.06951871657755,NA
37421,Hamilton County,TN,NA,NA,24.820143884892087
37708,Grainger County,TN,NA,NA,95.68345323741008
37807,Union County,TN,67.25978647686833,NA,NA
37877,Hamblen County,TN,NA,86.89839572192514,NA
37885,Monroe County,TN,NA,83.68983957219251,NA
37932,Knox County,TN,NA,89.03743315508021,NA
38024,Dyer County,TN,23.131672597864767,NA,NA
38305,Madison County,TN,11.743772241992882,NA,NA
75013,Collin County,TX,NA,67.37967914438502,NA
75040,Dallas County,TX,NA,31.016042780748666,NA
75056,Denton County,TX,NA,NA,62.23021582733813
75189,Rockwall County,TX,43.77224199288256,NA,NA
75217,Dallas County,TX,NA,8.55614973262032,NA
75231,Dallas County,TX,NA,64.70588235294117,NA
75238,Dallas County,TX,64.41281138790036,NA,NA
75706,Smith County,TX,58.718861209964416,NA,NA
75773,Wood County,TX,NA,NA,82.73381294964028
75835,Houston County,TX,NA,78.87700534759358,NA
75964,Nacogdoches County,TX,NA,77.00534759358288,NA
76018,Tarrant County,TX,NA,60.6951871657754,NA
76020,Tarrant County,TX,NA,NA,55.75539568345324
76039,Tarrant County,TX,NA,60.962566844919785,NA
76112,Tarrant County,TX,NA,NA,37.05035971223021
76137,Tarrant County,TX,19.572953736654807,NA,NA
76248,Tarrant County,TX,NA,42.780748663101605,NA
76308,Wichita County,TX,NA,NA,70.50359712230215
76310,Wichita County,TX,67.97153024911033,NA,NA
77003,Harris County,TX,80.78291814946618,NA,NA
77020,Harris County,TX,56.58362989323843,NA,NA
77022,Harris County,TX,53.380782918149464,NA,NA
77029,Harris County,TX,NA,70.58823529411765,NA
77041,Harris County,TX,59.430604982206404,NA,NA
77056,Harris County,TX,71.53024911032028,NA,NA
77320,Walker County,TX,NA,NA,67.26618705035972
77354,Montgomery County,TX,NA,NA,35.25179856115108
77357,Montgomery County,TX,NA,77.27272727272727,NA
77372,Montgomery County,TX,NA,87.96791443850267,NA
77521,Harris County,TX,NA,33.155080213903744,36.69064748201439
77578,Brazoria County,TX,65.12455516014235,NA,NA
77583,Brazoria County,TX,48.754448398576514,NA,NA
77836,Burleson County,TX,NA,NA,68.34532374100719
77871,Leon County,TX,NA,NA,64.38848920863309
77904,Victoria County,TX,NA,37.4331550802139,NA
78006,Kendall County,TX,NA,58.02139037433155,NA
78046,Webb County,TX,17.437722419928825,NA,NA
78052,Atascosa County,TX,93.95017793594306,NA,NA
78148,Bexar County,TX,NA,NA,92.44604316546763
78202,Bexar County,TX,72.95373665480427,NA,NA
78213,Bexar County,TX,NA,63.63636363636363,NA
78232,Bexar County,TX,NA,NA,52.51798561151079
78266,Comal County,TX,NA,93.31550802139037,NA
78412,Nueces County,TX,51.245551601423486,NA,NA
78574,Hidalgo County,TX,NA,38.23529411764706,NA
78584,Starr County,TX,NA,NA,46.76258992805755
78589,Hidalgo County,TX,NA,NA,40.647482014388494
78611,Burnet County,TX,NA,62.299465240641716,NA
78619,Hays County,TX,NA,100,NA
78629,Gonzales County,TX,NA,NA,59.352517985611506
78741,Travis County,TX,68.32740213523132,NA,NA
78801,Uvalde County,TX,NA,61.229946524064175,NA
78945,Fayette County,TX,NA,96.79144385026738,NA
79103,Potter County,TX,89.32384341637011,NA,NA
79316,Terry County,TX,NA,76.7379679144385,NA
79407,Lubbock County,TX,NA,NA,57.194244604316545
79424,Lubbock County,TX,24.555160142348754,10.16042780748663,NA
79706,Midland County,TX,NA,NA,98.92086330935251
79745,Winkler County,TX,85.40925266903915,NA,NA
79905,El Paso County,TX,71.17437722419929,NA,NA
79930,El Paso County,TX,74.37722419928826,NA,NA
79938,El Paso County,TX,32.028469750889684,NA,NA
84111,Salt Lake County,UT,NA,NA,97.84172661870504
84117,Salt Lake County,UT,75.80071174377224,NA,NA
84123,Salt Lake County,UT,20.284697508896798,NA,NA
84404,Weber County,UT,NA,74.33155080213903,NA
05001,Windsor County,VT,82.20640569395017,NA,93.5251798561151
05060,Orange County,VT,92.88256227758008,NA,NA
05403,Chittenden County,VT,NA,NA,26.618705035971225
20176,Loudoun County,VA,46.619217081850536,NA,NA
22032,Fairfax County,VA,NA,NA,96.40287769784173
22151,Fairfax County,VA,NA,NA,90.28776978417267
22192,Prince William County,VA,NA,41.711229946524064,NA
22407,Spotsylvania County,VA,18.86120996441281,NA,NA
22556,Stafford County,VA,NA,93.85026737967914,NA
22645,Frederick County,VA,NA,99.73262032085562,NA
22727,Madison County,VA,NA,97.32620320855615,NA
22815,Rockingham County,VA,50.88967971530249,NA,NA
22842,Shenandoah County,VA,90.74733096085409,NA,NA
22902,Charlottesville city,VA,NA,34.75935828877005,NA
22963,Fluvanna County,VA,NA,NA,47.122302158273385
22980,Waynesboro city,VA,NA,28.87700534759358,NA
23093,Louisa County,VA,59.07473309608541,NA,NA
23112,Chesterfield County,VA,NA,30.213903743315505,NA
23141,New Kent County,VA,NA,NA,88.12949640287769
23222,Richmond city,VA,NA,NA,37.410071942446045
23223,Henrico County,VA,3.9145907473309607,14.705882352941178,NA
23236,Chesterfield County,VA,NA,45.45454545454545,NA
23434,Suffolk city,VA,NA,10.695187165775401,13.66906474820144
23452,Virginia Beach city,VA,NA,NA,9.352517985611511
23875,Prince George County,VA,79.7153024911032,NA,NA
23936,Buckingham County,VA,NA,79.41176470588235,NA
24014,Roanoke city,VA,NA,NA,60.79136690647482
24401,Staunton city,VA,NA,NA,8.273381294964029
24503,Lynchburg city,VA,NA,62.834224598930476,NA
24590,Albemarle County,VA,NA,NA,79.49640287769785
98003,King County,WA,28.825622775800714,NA,NA
98020,Snohomish County,WA,NA,56.951871657754005,NA
98058,King County,WA,NA,57.48663101604278,NA
98077,King County,WA,NA,NA,87.05035971223022
98102,King County,WA,NA,67.11229946524064,NA
98133,King County,WA,NA,24.598930481283425,NA
98198,King County,WA,40.92526690391459,NA,NA
98296,Snohomish County,WA,44.128113879003564,NA,NA
98375,Pierce County,WA,NA,NA,82.01438848920863
98404,Pierce County,WA,33.80782918149466,NA,NA
98513,Thurston County,WA,NA,85.828877005347593,NA
98531,Lewis County,WA,NA,47.860962566844925,NA
98662,Clark County,WA,NA,NA,39.20863309352518
98663,Clark County,WA,74.02135231316726,NA,NA
98686,Clark County,WA,87.18861209964413,NA,NA
98823,Grant County,WA,78.29181494661923,NA,NA
99208,Spokane County,WA,NA,NA,42.805755395683455
20001,District of Columbia,DC,NA,18.983957219251337,NA
25401,Berkeley County,WV,66.19217081850533,NA,NA
25801,Raleigh County,WV,14.590747330960854,NA,NA
26101,Wood County,WV,NA,4.27807486631016,NA
26181,Wood County,WV,85.05338078291815,NA,NA
26537,Preston County,WV,NA,62.03208556149733,NA
53012,Ozaukee County,WI,NA,49.465240641711226,NA
53092,Ozaukee County,WI,NA,NA,15.107913669064748
53126,Racine County,WI,NA,67.9144385026738,NA
53142,Kenosha County,WI,NA,NA,33.093525179856115
53144,Kenosha County,WI,NA,31.283422459893046,NA
53154,Milwaukee County,WI,NA,13.101604278074866,NA
53188,Waukesha County,WI,NA,NA,27.33812949640288
53202,Milwaukee County,WI,NA,78.6096256684492,NA
53216,Milwaukee County,WI,7.829181494661921,NA,NA
53227,Milwaukee County,WI,NA,54.81283422459893,18.345323741007196
53402,Racine County,WI,NA,22.994652406417114,32.014388489208635
53511,Rock County,WI,NA,NA,0
53520,Green County,WI,75.08896797153025,NA,NA
54165,Outagamie County,WI,95.01779359430606,NA,NA
54494,Wood County,WI,NA,NA,19.424460431654676
54751,Dunn County,WI,NA,NA,12.949640287769784
54904,Winnebago County,WI,NA,NA,49.64028776978417
54914,Outagamie County,WI,NA,53.20855614973262,NA
54935,Fond du Lac County,WI,NA,66.84491978609626,NA
54981,Waupaca County,WI,60.854092526690394,NA,99.28057553956835
82001,Laramie County,WY,70.1067615658363,NA,NA
