ZipCode,county,state,Youth,Pediatric,Adult,Retirement,Geriatric
35077,Cullman County,AL,70.27027027027027,NA,NA,NA,NA
35216,Jefferson County,AL,38.91891891891892,NA,NA,NA,NA
35228,Jefferson County,AL,NA,NA,NA,NA,89.65517241379311
35475,Tuscaloosa County,AL,NA,NA,NA,82.45033112582782,NA
35592,Lamar County,AL,20.135135135135133,88.88888888888889,NA,NA,NA
35611,Limestone County,AL,NA,NA,25.65217391304348,NA,NA
35613,Limestone County,AL,NA,NA,NA,NA,78.73563218390804
35630,Lauderdale County,AL,57.027027027027025,NA,NA,NA,NA
35640,Morgan County,AL,23.513513513513516,NA,NA,NA,NA
35645,Lauderdale County,AL,91.21621621621621,NA,NA,NA,NA
35660,Colbert County,AL,NA,NA,71.95652173913044,NA,NA
35758,Madison County,AL,NA,NA,NA,39.40397350993378,NA
35765,Jackson County,AL,99.05405405405405,NA,NA,NA,NA
35802,Madison County,AL,NA,NA,87.60869565217392,NA,NA
35806,Madison County,AL,79.05405405405406,NA,NA,NA,NA
35816,Madison County,AL,NA,NA,NA,70.52980132450331,NA
35824,Madison County,AL,97.97297297297297,NA,NA,NA,NA
35906,Etowah County,AL,NA,NA,88.91304347826086,NA,NA
35950,Marshall County,AL,69.1891891891892,NA,NA,NA,NA
35956,Etowah County,AL,NA,NA,77.39130434782608,NA,NA
35989,DeKalb County,AL,99.72972972972973,NA,NA,NA,NA
36104,Montgomery County,AL,NA,NA,59.34782608695652,NA,NA
36250,Calhoun County,AL,80.94594594594594,NA,NA,NA,NA
36265,Calhoun County,AL,42.2972972972973,NA,NA,NA,NA
36320,Houston County,AL,NA,92.98245614035088,NA,NA,NA
36330,Coffee County,AL,NA,NA,NA,36.423841059602644,NA
36451,Clarke County,AL,NA,NA,88.04347826086956,NA,NA
36467,Covington County,AL,85.67567567567568,NA,NA,NA,NA
36502,Escambia County,AL,NA,58.47953216374269,NA,NA,NA
36507,Baldwin County,AL,46.62162162162162,NA,NA,NA,NA
36526,Baldwin County,AL,35.270270270270274,NA,NA,NA,NA
36532,Baldwin County,AL,68.64864864864865,NA,NA,NA,NA
36541,Mobile County,AL,NA,NA,78.69565217391305,NA,NA
36545,Clarke County,AL,89.1891891891892,NA,NA,NA,NA
36571,Mobile County,AL,NA,NA,92.6086956521739,NA,NA
36580,Baldwin County,AL,NA,NA,96.30434782608695,NA,NA
36784,Clarke County,AL,NA,NA,87.17391304347825,NA,NA
36804,Lee County,AL,NA,NA,NA,NA,87.93103448275862
99501,Anchorage Municipality,AK,24.054054054054056,NA,NA,NA,NA
99508,Anchorage Municipality,AK,NA,18.128654970760234,NA,NA,NA
99645,Matanuska-Susitna Borough,AK,15.675675675675677,NA,NA,NA,NA
99654,Matanuska-Susitna Borough,AK,32.16216216216216,NA,NA,NA,NA
99669,Kenai Peninsula Borough,AK,73.64864864864865,NA,NA,NA,NA
99709,Fairbanks North Star Borough,AK,NA,NA,NA,58.27814569536424,NA
85007,Maricopa County,AZ,NA,NA,9.782608695652174,NA,NA
85018,Maricopa County,AZ,72.83783783783784,NA,NA,NA,NA
85021,Maricopa County,AZ,NA,NA,11.521739130434783,31.125827814569533,NA
85022,Maricopa County,AZ,NA,NA,19.782608695652172,NA,NA
85027,Maricopa County,AZ,NA,NA,43.04347826086957,NA,NA
85029,Maricopa County,AZ,9.18918918918919,NA,NA,NA,NA
85037,Maricopa County,AZ,NA,NA,25.869565217391305,NA,NA
85041,Maricopa County,AZ,25.135135135135133,NA,NA,NA,NA
85044,Maricopa County,AZ,32.16216216216216,NA,NA,NA,NA
85086,Maricopa County,AZ,NA,NA,73.47826086956522,NA,NA
85143,Pinal County,AZ,38.24324324324324,NA,NA,NA,NA
85201,Maricopa County,AZ,13.108108108108107,NA,NA,NA,NA
85202,Maricopa County,AZ,30.54054054054054,NA,NA,NA,NA
85203,Maricopa County,AZ,NA,NA,NA,NA,78.16091954022988
85210,Maricopa County,AZ,NA,27.485380116959064,NA,NA,NA
85225,Maricopa County,AZ,36.08108108108108,NA,NA,NA,NA
85251,Maricopa County,AZ,NA,NA,NA,56.95364238410596,NA
85258,Maricopa County,AZ,87.43243243243242,NA,NA,NA,NA
85296,Maricopa County,AZ,NA,NA,NA,84.43708609271523,NA
85301,Maricopa County,AZ,NA,5.263157894736842,NA,NA,NA
85310,Maricopa County,AZ,67.7027027027027,NA,NA,NA,NA
85321,Pima County,AZ,86.62162162162163,NA,NA,NA,NA
85340,Maricopa County,AZ,33.78378378378378,NA,NA,NA,NA
85374,Maricopa County,AZ,37.567567567567565,NA,NA,NA,NA
85382,Maricopa County,AZ,61.75675675675676,NA,NA,NA,NA
85383,Maricopa County,AZ,73.91891891891892,NA,NA,NA,NA
85539,Gila County,AZ,98.37837837837839,NA,NA,NA,NA
85607,Cochise County,AZ,NA,NA,28.47826086956522,NA,NA
85621,Santa Cruz County,AZ,NA,9.941520467836257,NA,NA,NA
85711,Pima County,AZ,NA,NA,NA,81.45695364238411,NA
85739,Pinal County,AZ,NA,71.34502923976608,NA,NA,NA
85757,Pima County,AZ,NA,19.883040935672515,NA,NA,NA
85901,Navajo County,AZ,NA,NA,91.30434782608695,NA,NA
86001,Coconino County,AZ,3.1081081081081083,NA,NA,NA,NA
86004,Coconino County,AZ,2.4324324324324325,NA,NA,NA,NA
86301,Yavapai County,AZ,NA,NA,NA,25.82781456953642,16.091954022988507
86314,Yavapai County,AZ,NA,NA,16.52173913043478,NA,NA
86322,Yavapai County,AZ,NA,NA,53.91304347826087,NA,NA
86403,Mohave County,AZ,NA,NA,48.91304347826087,NA,NA
86413,Mohave County,AZ,NA,NA,62.60869565217392,NA,NA
71602,Jefferson County,AR,NA,NA,64.78260869565217,NA,NA
71730,Union County,AR,54.729729729729726,NA,NA,NA,NA
72113,Pulaski County,AR,49.45945945945946,NA,NA,NA,NA
72207,Pulaski County,AR,NA,NA,97.60869565217392,NA,NA
72401,Craighead County,AR,NA,NA,14.782608695652174,NA,NA
72450,Greene County,AR,NA,NA,19.34782608695652,NA,NA
72455,Randolph County,AR,NA,NA,81.73913043478261,NA,NA
72704,Washington County,AR,NA,NA,91.08695652173913,NA,NA
72802,Pope County,AR,71.75675675675676,NA,NA,NA,NA
72834,Yell County,AR,NA,NA,NA,NA,73.5632183908046
72956,Crawford County,AR,NA,NA,53.04347826086957,NA,NA
90004,Los Angeles County,CA,NA,NA,46.73913043478261,NA,NA
90033,Los Angeles County,CA,NA,NA,44.78260869565218,NA,NA
90035,Los Angeles County,CA,NA,NA,NA,NA,27.011494252873565
90041,Los Angeles County,CA,NA,NA,NA,80.4635761589404,NA
90047,Los Angeles County,CA,NA,NA,NA,9.933774834437086,NA
90059,Los Angeles County,CA,52.43243243243243,NA,NA,NA,NA
90066,Los Angeles County,CA,NA,NA,NA,NA,29.310344827586203
90068,Los Angeles County,CA,98.1081081081081,NA,NA,NA,NA
90242,Los Angeles County,CA,84.5945945945946,NA,NA,NA,NA
90250,Los Angeles County,CA,NA,18.71345029239766,NA,NA,NA
90274,Los Angeles County,CA,77.16216216216216,NA,NA,NA,NA
90280,Los Angeles County,CA,NA,46.198830409356724,NA,NA,NA
90291,Los Angeles County,CA,NA,NA,NA,62.251655629139066,NA
90631,Orange County,CA,NA,NA,NA,NA,21.26436781609195
90638,Los Angeles County,CA,55.13513513513514,NA,NA,NA,NA
90650,Los Angeles County,CA,NA,NA,52.17391304347826,NA,NA
90713,Los Angeles County,CA,NA,NA,NA,NA,81.03448275862068
90720,Orange County,CA,84.5945945945946,NA,NA,NA,NA
90813,Los Angeles County,CA,NA,NA,33.47826086956522,NA,NA
91006,Los Angeles County,CA,NA,NA,86.08695652173914,NA,NA
91104,Los Angeles County,CA,NA,NA,45.65217391304348,NA,NA
91204,Los Angeles County,CA,NA,NA,83.91304347826087,NA,NA
91362,Ventura County,CA,NA,NA,NA,42.384105960264904,NA
91711,Los Angeles County,CA,90.27027027027027,NA,NA,NA,NA
91748,Los Angeles County,CA,NA,NA,NA,64.90066225165563,NA
91754,Los Angeles County,CA,NA,NA,NA,NA,72.98850574712644
91762,San Bernardino County,CA,NA,NA,35,NA,NA
91764,San Bernardino County,CA,NA,NA,36.73913043478261,NA,NA
91770,Los Angeles County,CA,NA,NA,NA,NA,14.367816091954023
91910,San Diego County,CA,NA,NA,NA,28.807947019867548,NA
91911,San Diego County,CA,28.37837837837838,29.82456140350877,NA,NA,NA
91950,San Diego County,CA,NA,NA,NA,NA,15.517241379310345
92009,San Diego County,CA,52.02702702702703,NA,NA,NA,NA
92019,San Diego County,CA,NA,87.71929824561403,NA,NA,NA
92026,San Diego County,CA,NA,NA,NA,50.331125827814574,NA
92101,San Diego County,CA,NA,NA,NA,NA,49.42528735632184
92113,San Diego County,CA,NA,NA,25,NA,NA
92128,San Diego County,CA,NA,NA,74.56521739130434,NA,NA
92139,San Diego County,CA,NA,NA,73.69565217391305,NA,NA
92220,Riverside County,CA,NA,NA,NA,NA,28.160919540229884
92270,Riverside County,CA,NA,NA,83.26086956521739,NA,NA
92307,San Bernardino County,CA,NA,NA,63.91304347826087,NA,NA
92345,San Bernardino County,CA,28.243243243243242,NA,NA,NA,NA
92395,San Bernardino County,CA,NA,32.16374269005848,NA,NA,NA
92505,Riverside County,CA,63.64864864864865,NA,NA,NA,NA
92509,Riverside County,CA,NA,NA,59.130434782608695,NA,NA
92544,Riverside County,CA,NA,NA,NA,49.337748344370866,NA
92557,Riverside County,CA,NA,73.09941520467837,NA,NA,NA
92562,Riverside County,CA,NA,NA,26.956521739130434,NA,50.57471264367817
92563,Riverside County,CA,NA,NA,NA,43.04635761589404,NA
92630,Orange County,CA,NA,NA,NA,NA,29.88505747126437
92647,Orange County,CA,40.945945945945944,NA,NA,NA,NA
92649,Orange County,CA,NA,90.64327485380117,NA,NA,NA
92673,Orange County,CA,NA,NA,68.69565217391305,NA,NA
92677,Orange County,CA,58.24324324324325,NA,NA,7.28476821192053,NA
92703,Orange County,CA,76.35135135135135,NA,NA,NA,NA
92708,Orange County,CA,NA,77.19298245614034,NA,NA,NA
92780,Orange County,CA,50.810810810810814,NA,NA,61.258278145695364,NA
92804,Orange County,CA,75.94594594594595,NA,NA,NA,24.137931034482758
92805,Orange County,CA,NA,15.789473684210526,NA,NA,NA
92806,Orange County,CA,59.72972972972973,36.25730994152047,NA,NA,NA
92843,Orange County,CA,53.10810810810811,NA,NA,NA,NA
92868,Orange County,CA,80.67567567567568,NA,NA,NA,NA
92870,Orange County,CA,NA,53.80116959064327,NA,NA,NA
92879,Riverside County,CA,NA,69.5906432748538,NA,NA,NA
93065,Ventura County,CA,4.72972972972973,NA,NA,NA,NA
93210,Fresno County,CA,NA,NA,76.30434782608695,NA,NA
93235,Tulare County,CA,NA,97.07602339181285,NA,NA,NA
93245,Kings County,CA,65.54054054054053,NA,NA,NA,NA
93257,Tulare County,CA,14.324324324324325,NA,NA,NA,21.839080459770116
93277,Tulare County,CA,NA,NA,61.52173913043478,NA,NA
93292,Tulare County,CA,NA,NA,NA,30.79470198675497,NA
93308,Kern County,CA,13.918918918918918,NA,NA,NA,NA
93436,Santa Barbara County,CA,NA,8.771929824561402,NA,NA,13.793103448275861
93444,San Luis Obispo County,CA,76.8918918918919,NA,NA,NA,NA
93446,San Luis Obispo County,CA,NA,NA,75.8695652173913,44.03973509933775,NA
93536,Los Angeles County,CA,NA,NA,NA,55.29801324503312,NA
93656,Fresno County,CA,95.4054054054054,NA,NA,NA,NA
93702,Fresno County,CA,NA,NA,29.347826086956523,NA,NA
93723,Fresno County,CA,NA,97.07602339181285,NA,NA,NA
93727,Fresno County,CA,NA,NA,14.347826086956522,NA,NA
94062,San Mateo County,CA,89.72972972972974,NA,NA,NA,NA
94063,San Mateo County,CA,60,NA,NA,NA,NA
94089,Santa Clara County,CA,NA,NA,NA,96.35761589403974,NA
94115,San Francisco County,CA,NA,NA,NA,36.75496688741722,NA
94116,San Francisco County,CA,NA,78.94736842105263,NA,NA,NA
94503,Napa County,CA,NA,NA,90,NA,NA
94506,Contra Costa County,CA,68.24324324324324,NA,NA,NA,NA
94531,Contra Costa County,CA,NA,NA,34.34782608695652,NA,NA
94550,Alameda County,CA,69.72972972972973,NA,NA,NA,NA
94560,Alameda County,CA,85,NA,NA,NA,NA
94577,Alameda County,CA,NA,NA,NA,33.11258278145696,NA
94580,Alameda County,CA,89.72972972972974,NA,NA,NA,NA
94582,Contra Costa County,CA,NA,NA,70.86956521739131,NA,NA
94605,Alameda County,CA,NA,NA,NA,19.867549668874172,NA
94706,Alameda County,CA,NA,NA,NA,86.75496688741721,NA
94901,Marin County,CA,NA,NA,58.47826086956521,NA,NA
95019,Santa Cruz County,CA,NA,NA,93.69565217391305,NA,NA
95050,Santa Clara County,CA,NA,NA,NA,NA,66.0919540229885
95070,Santa Clara County,CA,72.97297297297297,NA,NA,NA,NA
95124,Santa Clara County,CA,67.16216216216216,NA,61.73913043478261,NA,NA
95127,Santa Clara County,CA,NA,43.859649122807014,NA,NA,NA
95219,San Joaquin County,CA,72.16216216216216,NA,NA,NA,NA
95320,San Joaquin County,CA,90.94594594594595,NA,NA,NA,NA
95340,Merced County,CA,72.97297297297297,NA,NA,NA,NA
95361,Stanislaus County,CA,NA,NA,NA,NA,66.66666666666666
95382,Stanislaus County,CA,53.10810810810811,NA,NA,NA,NA
95422,Lake County,CA,NA,NA,63.47826086956522,NA,NA
95437,Mendocino County,CA,NA,85.38011695906432,NA,NA,NA
95608,Sacramento County,CA,NA,NA,NA,NA,8.045977011494253
95621,Sacramento County,CA,NA,NA,43.913043478260875,NA,NA
95660,Sacramento County,CA,NA,NA,41.52173913043478,NA,NA
95667,El Dorado County,CA,NA,60.81871345029239,NA,NA,NA
95695,Yolo County,CA,NA,NA,NA,57.615894039735096,NA
95828,Sacramento County,CA,NA,NA,NA,30.132450331125828,NA
95831,Sacramento County,CA,NA,NA,NA,91.72185430463577,NA
95833,Sacramento County,CA,NA,95.32163742690058,NA,NA,NA
95973,Butte County,CA,NA,NA,22.39130434782609,NA,NA
95991,Sutter County,CA,68.37837837837839,40.93567251461988,NA,NA,NA
96007,Shasta County,CA,72.16216216216216,NA,NA,NA,NA
96041,Trinity County,CA,NA,NA,99.34782608695653,NA,NA
96122,Plumas County,CA,NA,NA,NA,85.43046357615894,NA
96130,Lassen County,CA,93.24324324324324,NA,NA,NA,NA
80014,Arapahoe County,CO,24.054054054054056,NA,NA,NA,NA
80020,Broomfield County,CO,13.243243243243244,NA,NA,NA,NA
80026,Boulder County,CO,75.13513513513513,NA,NA,NA,NA
80108,Douglas County,CO,NA,NA,51.95652173913044,NA,NA
80112,Arapahoe County,CO,NA,NA,56.95652173913044,NA,NA
80113,Arapahoe County,CO,NA,84.21052631578947,NA,NA,NA
80214,Jefferson County,CO,NA,45.614035087719294,NA,NA,NA
80219,Denver County,CO,NA,NA,4.130434782608695,NA,NA
80238,Denver County,CO,45.81081081081081,NA,NA,NA,NA
80260,Adams County,CO,4.45945945945946,NA,NA,NA,NA
80401,Jefferson County,CO,41.75675675675676,NA,71.30434782608695,NA,NA
80504,Boulder County,CO,8.783783783783784,NA,NA,NA,NA
80513,Larimer County,CO,NA,NA,76.30434782608695,NA,NA
80521,Larimer County,CO,78.37837837837837,NA,NA,NA,NA
80524,Larimer County,CO,NA,NA,NA,NA,55.172413793103445
80538,Larimer County,CO,19.864864864864863,NA,NA,NA,NA
80543,Weld County,CO,NA,NA,NA,99.00662251655629,NA
80620,Weld County,CO,49.05405405405405,NA,NA,NA,NA
80631,Weld County,CO,NA,16.374269005847953,NA,NA,NA
80634,Weld County,CO,NA,NA,15.869565217391305,NA,NA
80909,El Paso County,CO,NA,33.91812865497076,NA,NA,NA
80910,El Paso County,CO,NA,NA,NA,59.93377483443708,NA
80916,El Paso County,CO,49.86486486486486,NA,NA,NA,NA
80917,El Paso County,CO,NA,NA,64.56521739130436,NA,NA
81001,Pueblo County,CO,32.972972972972975,NA,NA,NA,NA
81003,Pueblo County,CO,80,NA,NA,NA,NA
81005,Pueblo County,CO,55.4054054054054,NA,71.52173913043478,NA,43.67816091954023
81006,Pueblo County,CO,NA,NA,74.1304347826087,NA,NA
81007,Pueblo County,CO,NA,NA,48.47826086956522,NA,NA
81503,Mesa County,CO,60.945945945945944,NA,NA,NA,NA
81507,Mesa County,CO,67.43243243243244,NA,NA,NA,NA
06010,Hartford County,CT,NA,NA,NA,1.6556291390728477,NA
06016,Hartford County,CT,84.32432432432432,NA,NA,NA,NA
06051,Hartford County,CT,NA,13.450292397660817,NA,NA,NA
06053,Hartford County,CT,19.594594594594593,10.526315789473683,NA,NA,NA
06074,Hartford County,CT,80.4054054054054,NA,NA,NA,NA
06239,Windham County,CT,NA,NA,NA,66.22516556291392,NA
06450,New Haven County,CT,NA,NA,26.73913043478261,NA,NA
06457,Middlesex County,CT,NA,NA,6.956521739130435,NA,NA
06492,New Haven County,CT,NA,NA,20.869565217391305,NA,NA
06516,New Haven County,CT,NA,NA,6.739130434782608,NA,NA
06704,New Haven County,CT,10.54054054054054,NA,NA,NA,NA
06705,New Haven County,CT,36.486486486486484,NA,NA,NA,NA
06770,New Haven County,CT,NA,NA,NA,22.516556291390728,NA
06851,Fairfield County,CT,NA,NA,NA,53.31125827814569,NA
19703,New Castle County,DE,NA,70.76023391812866,NA,NA,NA
19711,New Castle County,DE,NA,NA,66.52173913043478,7.9470198675496695,NA
19807,New Castle County,DE,81.89189189189189,NA,NA,NA,NA
19810,New Castle County,DE,NA,NA,NA,74.50331125827815,NA
19904,Kent County,DE,20,NA,NA,NA,NA
19941,Sussex County,DE,NA,97.07602339181285,NA,NA,NA
19943,Kent County,DE,63.91891891891892,NA,NA,NA,NA
19947,Sussex County,DE,NA,NA,NA,41.05960264900662,NA
19962,Kent County,DE,67.7027027027027,NA,NA,NA,NA
19963,Sussex County,DE,NA,NA,NA,86.42384105960265,NA
19966,Sussex County,DE,37.2972972972973,NA,NA,NA,NA
32025,Columbia County,FL,NA,NA,38.91304347826087,NA,NA
32060,Suwannee County,FL,48.24324324324324,NA,NA,NA,NA
32065,Clay County,FL,NA,NA,NA,37.086092715231786,NA
32068,Clay County,FL,NA,56.72514619883041,NA,6.622516556291391,NA
32097,Nassau County,FL,NA,NA,NA,35.76158940397351,NA
32127,Volusia County,FL,NA,NA,NA,39.0728476821192,NA
32130,Volusia County,FL,NA,NA,NA,97.01986754966887,NA
32137,Flagler County,FL,NA,70.17543859649122,NA,NA,NA
32148,Putnam County,FL,NA,64.32748538011695,NA,NA,NA
32164,Flagler County,FL,NA,NA,35.21739130434783,NA,NA
32168,Volusia County,FL,71.48648648648648,NA,NA,NA,NA
32177,Putnam County,FL,NA,NA,NA,63.576158940397356,NA
32179,Marion County,FL,94.72972972972973,NA,NA,NA,NA
32209,Duval County,FL,NA,NA,3.4782608695652173,NA,NA
32210,Duval County,FL,NA,NA,56.52173913043478,NA,NA
32216,Duval County,FL,25.945945945945947,NA,NA,NA,NA
32226,Duval County,FL,72.97297297297297,NA,NA,NA,NA
32257,Duval County,FL,NA,NA,NA,20.86092715231788,NA
32258,Duval County,FL,76.62162162162161,46.783625730994146,NA,NA,NA
32277,Duval County,FL,85.8108108108108,NA,NA,NA,NA
32303,Leon County,FL,NA,NA,45.869565217391305,NA,NA
32446,Jackson County,FL,NA,NA,NA,88.74172185430463,NA
32456,Gulf County,FL,59.05405405405405,NA,NA,NA,NA
32501,Escambia County,FL,NA,50.877192982456144,NA,NA,NA
32505,Escambia County,FL,NA,NA,17.608695652173914,NA,NA
32514,Escambia County,FL,NA,NA,NA,10.927152317880795,NA
32531,Okaloosa County,FL,NA,NA,NA,77.48344370860927,NA
32547,Okaloosa County,FL,63.24324324324324,NA,NA,NA,NA
32605,Alachua County,FL,33.78378378378378,NA,NA,NA,NA
32607,Alachua County,FL,NA,47.368421052631575,NA,NA,NA
32608,Alachua County,FL,4.324324324324325,NA,NA,NA,NA
32712,Orange County,FL,35.54054054054054,NA,NA,NA,NA
32750,Seminole County,FL,NA,NA,NA,55.62913907284768,NA
32771,Seminole County,FL,NA,NA,NA,33.77483443708609,NA
32804,Orange County,FL,NA,NA,83.69565217391305,NA,NA
32805,Orange County,FL,40.27027027027027,NA,NA,NA,NA
32809,Orange County,FL,NA,49.122807017543856,NA,NA,NA
32907,Brevard County,FL,66.48648648648648,NA,NA,NA,NA
32953,Brevard County,FL,86.21621621621621,NA,NA,NA,NA
32963,Indian River County,FL,NA,NA,NA,NA,14.942528735632186
33020,Broward County,FL,56.89189189189189,NA,NA,NA,NA
33024,Broward County,FL,NA,NA,NA,21.85430463576159,NA
33025,Broward County,FL,NA,NA,NA,57.284768211920536,NA
33026,Broward County,FL,NA,NA,NA,NA,60.91954022988506
33033,Miami-Dade County,FL,NA,NA,NA,55.960264900662246,NA
33056,Miami-Dade County,FL,21.62162162162162,NA,NA,NA,NA
33065,Broward County,FL,NA,NA,50.8695652173913,NA,NA
33069,Broward County,FL,67.02702702702703,NA,NA,NA,NA
33073,Broward County,FL,67.29729729729729,NA,NA,NA,NA
33076,Broward County,FL,62.83783783783784,NA,NA,NA,NA
33142,Miami-Dade County,FL,15.945945945945947,NA,NA,NA,NA
33156,Miami-Dade County,FL,NA,NA,NA,NA,60.3448275862069
33170,Miami-Dade County,FL,NA,NA,83.26086956521739,NA,NA
33176,Miami-Dade County,FL,NA,NA,NA,34.7682119205298,NA
33179,Miami-Dade County,FL,35,NA,NA,NA,NA
33312,Broward County,FL,76.62162162162161,NA,NA,NA,NA
33328,Broward County,FL,NA,NA,84.1304347826087,NA,NA
33334,Broward County,FL,91.48648648648648,NA,NA,NA,NA
33405,Palm Beach County,FL,NA,NA,86.95652173913044,NA,NA
33406,Palm Beach County,FL,NA,61.98830409356725,NA,NA,NA
33414,Palm Beach County,FL,NA,NA,48.26086956521739,NA,NA
33437,Palm Beach County,FL,NA,NA,NA,NA,0.5747126436781609
33442,Broward County,FL,NA,NA,NA,36.092715231788084,NA
33458,Palm Beach County,FL,NA,NA,24.782608695652176,NA,NA
33463,Palm Beach County,FL,NA,15.204678362573098,NA,NA,NA
33473,Palm Beach County,FL,NA,NA,NA,90.39735099337747,NA
33480,Palm Beach County,FL,NA,NA,NA,87.08609271523179,45.97701149425287
33484,Palm Beach County,FL,NA,NA,NA,26.82119205298013,NA
33547,Hillsborough County,FL,75.54054054054053,NA,NA,NA,NA
33598,Hillsborough County,FL,84.45945945945947,NA,NA,NA,NA
33610,Hillsborough County,FL,7.027027027027027,NA,NA,NA,NA
33614,Hillsborough County,FL,NA,17.543859649122805,NA,NA,NA
33619,Hillsborough County,FL,NA,38.01169590643275,NA,NA,NA
33801,Polk County,FL,5.675675675675676,NA,NA,NA,NA
33811,Polk County,FL,30.54054054054054,NA,NA,72.84768211920529,NA
33837,Polk County,FL,NA,39.76608187134503,NA,NA,NA
33852,Highlands County,FL,NA,NA,63.04347826086957,NA,NA
33868,Polk County,FL,NA,77.19298245614034,NA,NA,NA
33880,Polk County,FL,33.648648648648646,NA,NA,NA,NA
33897,Polk County,FL,NA,NA,NA,72.84768211920529,NA
33950,Charlotte County,FL,NA,NA,NA,NA,25.287356321839084
33952,Charlotte County,FL,34.72972972972973,NA,NA,NA,NA
33953,Charlotte County,FL,NA,NA,96.08695652173913,NA,NA
33955,Charlotte County,FL,88.91891891891892,NA,NA,NA,NA
34207,Manatee County,FL,74.05405405405405,NA,NA,NA,NA
34211,Manatee County,FL,NA,NA,93.26086956521739,NA,NA
34223,Sarasota County,FL,NA,NA,NA,NA,34.48275862068966
34236,Sarasota County,FL,NA,NA,NA,NA,16.666666666666664
34237,Sarasota County,FL,NA,NA,83.04347826086956,NA,NA
34286,Sarasota County,FL,NA,NA,NA,NA,82.75862068965517
34434,Citrus County,FL,NA,NA,87.39130434782608,NA,NA
34472,Marion County,FL,26.216216216216214,NA,NA,NA,NA
34698,Pinellas County,FL,NA,NA,NA,19.5364238410596,NA
34711,Lake County,FL,36.891891891891895,NA,21.73913043478261,NA,NA
34771,Osceola County,FL,NA,54.97076023391813,NA,NA,NA
34787,Orange County,FL,29.18918918918919,NA,NA,NA,NA
34974,Okeechobee County,FL,NA,NA,NA,40.728476821192054,NA
34982,St. Lucie County,FL,NA,NA,57.173913043478265,NA,NA
34997,Martin County,FL,NA,NA,NA,NA,4.597701149425287
30022,Fulton County,GA,48.24324324324324,NA,NA,NA,NA
30083,DeKalb County,GA,NA,26.31578947368421,NA,NA,NA
30088,DeKalb County,GA,NA,NA,40.65217391304348,NA,NA
30094,Rockdale County,GA,NA,NA,49.78260869565217,NA,NA
30101,Cobb County,GA,NA,NA,27.173913043478258,NA,NA
30102,Cherokee County,GA,NA,NA,NA,29.13907284768212,NA
30110,Haralson County,GA,NA,NA,NA,83.77483443708608,NA
30115,Cherokee County,GA,NA,NA,40.21739130434783,NA,NA
30116,Carroll County,GA,NA,NA,NA,NA,79.88505747126436
30121,Bartow County,GA,NA,73.68421052631578,NA,NA,NA
30125,Polk County,GA,NA,NA,NA,45.033112582781456,NA
30127,Cobb County,GA,NA,NA,NA,70.19867549668875,NA
30135,Douglas County,GA,NA,NA,13.91304347826087,NA,NA
30217,Heard County,GA,NA,NA,69.78260869565217,NA,NA
30224,Spalding County,GA,73.64864864864865,NA,NA,NA,NA
30248,Henry County,GA,NA,NA,61.95652173913043,NA,NA
30281,Henry County,GA,30.405405405405407,NA,NA,NA,NA
30296,Clayton County,GA,NA,NA,85.43478260869564,NA,NA
30318,Fulton County,GA,NA,NA,NA,26.490066225165563,NA
30338,DeKalb County,GA,NA,NA,NA,NA,37.93103448275862
30340,DeKalb County,GA,68.64864864864865,NA,NA,NA,NA
30345,DeKalb County,GA,NA,NA,NA,NA,94.25287356321839
30349,Fulton County,GA,NA,NA,NA,68.21192052980133,NA
30354,Fulton County,GA,67.43243243243244,NA,NA,NA,NA
30467,Screven County,GA,NA,NA,62.39130434782608,NA,NA
30512,Union County,GA,NA,NA,NA,NA,56.32183908045977
30533,Lumpkin County,GA,93.64864864864865,NA,NA,NA,NA
30542,Hall County,GA,NA,NA,55.21739130434783,NA,NA
30606,Clarke County,GA,NA,NA,NA,NA,30.45977011494253
30620,Barrow County,GA,83.78378378378379,NA,NA,NA,NA
30635,Elbert County,GA,78.78378378378378,NA,NA,NA,NA
30643,Hart County,GA,NA,NA,NA,53.973509933774835,74.71264367816092
30721,Whitfield County,GA,32.972972972972975,NA,NA,NA,NA
30809,Columbia County,GA,NA,NA,NA,9.602649006622517,NA
30815,Richmond County,GA,NA,NA,NA,NA,67.24137931034483
30907,Columbia County,GA,NA,NA,26.521739130434785,NA,NA
31015,Crisp County,GA,79.5945945945946,NA,NA,NA,NA
31064,Jasper County,GA,NA,NA,91.52173913043478,NA,NA
31204,Bibb County,GA,NA,NA,NA,24.503311258278146,NA
31405,Chatham County,GA,NA,NA,NA,NA,39.6551724137931
31406,Chatham County,GA,NA,NA,55.434782608695656,25.496688741721858,NA
31533,Coffee County,GA,NA,74.85380116959064,NA,NA,NA
31750,Ben Hill County,GA,59.32432432432433,NA,NA,NA,NA
31792,Thomas County,GA,NA,NA,NA,NA,72.41379310344827
31903,Muscogee County,GA,NA,NA,NA,46.026490066225165,NA
31907,Muscogee County,GA,NA,NA,33.26086956521739,2.3178807947019866,NA
39837,Miller County,GA,71.21621621621622,NA,NA,NA,NA
96706,Honolulu County,HI,10.27027027027027,NA,NA,NA,NA
96738,Hawaii County,HI,NA,NA,95.21739130434783,NA,NA
96797,Honolulu County,HI,13.648648648648647,NA,NA,NA,NA
96817,Honolulu County,HI,20.405405405405403,NA,NA,NA,NA
83301,Twin Falls County,ID,NA,NA,18.913043478260867,NA,NA
83605,Canyon County,ID,6.216216216216217,NA,NA,NA,NA
83647,Elmore County,ID,NA,NA,NA,51.98675496688742,NA
83714,Ada County,ID,62.83783783783784,NA,NA,NA,NA
83835,Kootenai County,ID,70.67567567567568,NA,NA,NA,NA
83854,Kootenai County,ID,23.783783783783786,NA,NA,NA,NA
60016,Cook County,IL,NA,NA,23.91304347826087,NA,NA
60021,McHenry County,IL,NA,NA,97.82608695652173,NA,NA
60067,Cook County,IL,65.54054054054053,NA,45,NA,NA
60097,McHenry County,IL,NA,NA,85.65217391304348,NA,NA
60108,DuPage County,IL,70.27027027027027,NA,NA,NA,NA
60115,DeKalb County,IL,50.27027027027027,NA,NA,NA,NA
60131,Cook County,IL,66.48648648648648,NA,NA,NA,NA
60140,Kane County,IL,51.08108108108108,NA,NA,NA,NA
60142,McHenry County,IL,NA,NA,43.47826086956522,NA,NA
60181,DuPage County,IL,NA,NA,NA,NA,52.29885057471264
60189,DuPage County,IL,NA,NA,NA,NA,33.90804597701149
60190,DuPage County,IL,70,NA,NA,NA,NA
60435,Will County,IL,20.675675675675677,NA,NA,NA,NA
60436,Will County,IL,NA,NA,NA,59.27152317880795,NA
60438,Cook County,IL,77.97297297297298,NA,NA,NA,NA
60439,Cook County,IL,NA,NA,NA,14.90066225165563,NA
60453,Cook County,IL,10,NA,NA,NA,NA
60473,Cook County,IL,NA,NA,NA,51.65562913907284,NA
60514,DuPage County,IL,80.54054054054053,NA,NA,NA,NA
60545,Kendall County,IL,51.08108108108108,NA,NA,NA,NA
60546,Cook County,IL,NA,NA,51.73913043478261,NA,NA
60565,DuPage County,IL,52.43243243243243,NA,NA,NA,NA
60586,Will County,IL,15.27027027027027,NA,NA,NA,NA
60610,Cook County,IL,NA,NA,NA,60.9271523178808,NA
60614,Cook County,IL,40.54054054054054,NA,NA,NA,NA
60618,Cook County,IL,NA,NA,NA,17.218543046357617,NA
60620,Cook County,IL,NA,NA,NA,2.6490066225165565,NA
60621,Cook County,IL,NA,NA,69.78260869565217,NA,NA
60623,Cook County,IL,NA,NA,NA,8.609271523178808,NA
60625,Cook County,IL,NA,NA,10,NA,NA
60629,Cook County,IL,NA,NA,5.434782608695652,NA,NA
60630,Cook County,IL,NA,NA,NA,9.271523178807946,NA
60652,Cook County,IL,54.864864864864856,NA,NA,NA,NA
60901,Kankakee County,IL,NA,NA,NA,10.596026490066226,NA
61021,Lee County,IL,NA,NA,32.608695652173914,NA,NA
61081,Whiteside County,IL,12.027027027027028,NA,NA,NA,NA
61107,Winnebago County,IL,NA,NA,46.52173913043478,NA,NA
61201,Rock Island County,IL,NA,NA,38.47826086956522,NA,NA
61265,Rock Island County,IL,NA,NA,NA,28.14569536423841,NA
61525,Peoria County,IL,97.83783783783784,NA,NA,NA,NA
61554,Tazewell County,IL,NA,NA,30.217391304347824,NA,NA
61614,Peoria County,IL,NA,NA,NA,NA,24.71264367816092
61615,Peoria County,IL,96.35135135135135,NA,NA,NA,NA
61761,McLean County,IL,44.32432432432433,NA,NA,NA,NA
62040,Madison County,IL,44.5945945945946,NA,NA,NA,NA
62234,Madison County,IL,NA,NA,53.2608695652174,NA,NA
62249,Madison County,IL,NA,NA,NA,69.86754966887418,NA
62450,Richland County,IL,NA,NA,NA,NA,52.87356321839081
62521,Macon County,IL,NA,NA,NA,NA,4.022988505747127
62839,Clay County,IL,NA,NA,NA,80.79470198675497,NA
62864,Jefferson County,IL,57.16216216216217,NA,NA,NA,NA
62948,Williamson County,IL,NA,NA,70.65217391304348,NA,76.4367816091954
46016,Madison County,IN,NA,NA,NA,27.81456953642384,NA
46038,Hamilton County,IN,61.35135135135135,NA,NA,NA,NA
46123,Hendricks County,IN,46.89189189189189,NA,NA,NA,NA
46143,Johnson County,IN,NA,45.02923976608187,NA,NA,NA
46176,Shelby County,IN,72.16216216216216,NA,NA,NA,NA
46205,Marion County,IN,83.1081081081081,NA,NA,NA,NA
46219,Marion County,IN,33.78378378378378,NA,NA,NA,NA
46220,Marion County,IN,78.91891891891892,NA,NA,NA,NA
46224,Marion County,IN,NA,NA,NA,NA,50
46226,Marion County,IN,NA,NA,11.304347826086957,NA,NA
46227,Marion County,IN,16.216216216216218,NA,NA,NA,NA
46260,Marion County,IN,NA,NA,NA,49.00662251655629,NA
46322,Lake County,IN,56.08108108108109,NA,NA,22.185430463576157,NA
46323,Lake County,IN,10.675675675675675,NA,20.434782608695652,NA,NA
46324,Lake County,IN,22.2972972972973,NA,NA,NA,NA
46347,Porter County,IN,95.13513513513514,NA,NA,NA,NA
46368,Porter County,IN,1.6216216216216217,NA,NA,NA,NA
46373,Lake County,IN,48.51351351351351,NA,NA,NA,NA
46375,Lake County,IN,NA,79.53216374269006,NA,NA,NA
46407,Lake County,IN,NA,NA,NA,75.16556291390728,77.58620689655173
46408,Lake County,IN,NA,NA,NA,48.01324503311258,NA
46410,Lake County,IN,14.18918918918919,NA,NA,NA,NA
46506,Marshall County,IN,NA,NA,90.8695652173913,NA,NA
46514,Elkhart County,IN,58.78378378378378,NA,NA,NA,59.195402298850574
46706,DeKalb County,IN,NA,NA,NA,47.682119205298015,NA
46714,Wells County,IN,92.83783783783784,NA,NA,NA,NA
46723,Whitley County,IN,NA,NA,88.47826086956522,NA,NA
46755,Noble County,IN,9.054054054054054,NA,NA,NA,NA
46774,Allen County,IN,NA,NA,NA,44.370860927152314,NA
46807,Allen County,IN,NA,NA,54.130434782608695,NA,NA
46808,Allen County,IN,NA,NA,67.3913043478261,NA,NA
46809,Allen County,IN,64.86486486486487,NA,NA,NA,NA
46835,Allen County,IN,39.32432432432432,NA,33.69565217391305,NA,NA
46901,Howard County,IN,NA,22.22222222222222,NA,NA,NA
46902,Howard County,IN,3.3783783783783785,NA,NA,NA,NA
46992,Wabash County,IN,NA,NA,NA,NA,71.83908045977012
47025,Dearborn County,IN,NA,NA,42.391304347826086,NA,NA
47042,Ripley County,IN,NA,NA,98.69565217391305,NA,NA
47150,Floyd County,IN,15.135135135135137,NA,NA,NA,NA
47165,Washington County,IN,69.5945945945946,NA,NA,NA,NA
47167,Washington County,IN,NA,NA,53.47826086956522,NA,NA
47265,Jennings County,IN,NA,NA,NA,33.443708609271525,NA
47274,Jackson County,IN,26.486486486486488,NA,NA,NA,NA
47303,Delaware County,IN,NA,NA,NA,56.29139072847682,NA
47304,Delaware County,IN,35.54054054054054,73.68421052631578,NA,NA,NA
47331,Fayette County,IN,8.64864864864865,NA,NA,NA,NA
47362,Henry County,IN,NA,NA,21.304347826086957,NA,NA
47371,Jay County,IN,NA,36.25730994152047,NA,NA,NA
47374,Wayne County,IN,NA,NA,NA,NA,1.7241379310344827
47408,Monroe County,IN,98.78378378378379,NA,NA,NA,NA
47421,Lawrence County,IN,NA,NA,NA,16.225165562913908,NA
47460,Owen County,IN,NA,NA,NA,76.49006622516556,NA
47553,Martin County,IN,NA,NA,86.73913043478261,NA,NA
47586,Perry County,IN,NA,NA,NA,92.05298013245033,NA
47630,Warrick County,IN,NA,NA,45.43478260869565,20.52980132450331,NA
47933,Montgomery County,IN,NA,NA,NA,NA,25.862068965517242
50021,Polk County,IA,NA,NA,75,NA,NA
50023,Polk County,IA,65.54054054054053,NA,NA,NA,NA
50035,Polk County,IA,89.1891891891892,NA,NA,NA,NA
50248,Story County,IA,NA,NA,NA,NA,91.37931034482759
50310,Polk County,IA,NA,NA,80.43478260869566,NA,NA
50315,Polk County,IA,NA,NA,NA,65.23178807947019,NA
50316,Polk County,IA,78.10810810810811,NA,NA,NA,NA
50320,Polk County,IA,NA,NA,NA,69.20529801324503,NA
50322,Polk County,IA,65.4054054054054,NA,NA,NA,NA
50401,Cerro Gordo County,IA,2.2972972972972974,NA,NA,NA,NA
50501,Webster County,IA,32.027027027027025,NA,NA,NA,NA
50613,Black Hawk County,IA,45.40540540540541,NA,NA,NA,NA
51442,Crawford County,IA,94.32432432432432,NA,NA,NA,NA
51501,Pottawattamie County,IA,NA,NA,2.608695652173913,NA,NA
51534,Mills County,IA,NA,NA,65,NA,NA
52001,Dubuque County,IA,14.864864864864865,NA,NA,NA,NA
52245,Johnson County,IA,88.91891891891892,NA,NA,40.397350993377486,NA
52317,Johnson County,IA,41.486486486486484,NA,NA,NA,NA
52402,Linn County,IA,NA,NA,18.695652173913043,NA,NA
52404,Linn County,IA,2.9729729729729732,NA,NA,NA,NA
52556,Jefferson County,IA,87.29729729729729,NA,NA,NA,NA
52641,Henry County,IA,NA,76.0233918128655,NA,NA,NA
52645,Henry County,IA,99.5945945945946,NA,NA,NA,NA
52722,Scott County,IA,12.567567567567567,NA,NA,NA,NA
52748,Scott County,IA,NA,NA,86.52173913043478,NA,NA
52753,Scott County,IA,80.27027027027027,NA,NA,NA,NA
52804,Scott County,IA,68.10810810810811,NA,NA,NA,NA
52806,Scott County,IA,31.351351351351354,63.74269005847953,NA,NA,51.724137931034484
52807,Scott County,IA,58.37837837837838,NA,NA,NA,NA
66018,Johnson County,KS,NA,NA,93.69565217391305,NA,NA
66021,Johnson County,KS,NA,NA,100,NA,NA
66061,Johnson County,KS,8.378378378378379,NA,NA,3.642384105960265,NA
66062,Johnson County,KS,11.081081081081082,NA,NA,NA,NA
66227,Johnson County,KS,95.67567567567568,NA,NA,NA,NA
66606,Shawnee County,KS,NA,NA,82.6086956521739,NA,NA
66610,Shawnee County,KS,89.45945945945945,NA,NA,NA,NA
66743,Crawford County,KS,NA,NA,92.82608695652173,NA,NA
67068,Kingman County,KS,96.62162162162163,NA,NA,NA,NA
67530,Barton County,KS,74.32432432432432,NA,NA,NA,NA
40004,Nelson County,KY,28.783783783783782,NA,18.043478260869566,NA,NA
40006,Trimble County,KY,NA,NA,91.73913043478261,NA,NA
40031,Oldham County,KY,NA,NA,33.04347826086956,NA,NA
40065,Shelby County,KY,56.75675675675676,NA,NA,NA,NA
40071,Spencer County,KY,72.97297297297297,NA,NA,NA,NA
40162,Hardin County,KY,NA,NA,NA,94.70198675496688,NA
40204,Jefferson County,KY,79.5945945945946,NA,NA,NA,NA
40207,Jefferson County,KY,NA,NA,NA,31.456953642384107,41.37931034482759
40211,Jefferson County,KY,NA,NA,NA,NA,70.6896551724138
40212,Jefferson County,KY,21.08108108108108,NA,NA,NA,NA
40216,Jefferson County,KY,NA,NA,7.82608695652174,NA,NA
40229,Jefferson County,KY,14.594594594594595,NA,NA,NA,NA
40324,Scott County,KY,31.891891891891895,NA,NA,NA,NA
40342,Anderson County,KY,NA,NA,35.434782608695656,NA,NA
40444,Garrard County,KY,NA,NA,84.56521739130434,NA,NA
40475,Madison County,KY,NA,NA,55.00000000000001,NA,NA
40503,Fayette County,KY,NA,NA,69.1304347826087,NA,32.18390804597701
40504,Fayette County,KY,NA,NA,NA,66.88741721854305,NA
40701,Whitley County,KY,34.45945945945946,NA,NA,NA,NA
40965,Bell County,KY,39.189189189189186,NA,NA,NA,NA
41006,Pendleton County,KY,94.05405405405406,NA,NA,NA,NA
41011,Kenton County,KY,NA,NA,NA,NA,84.48275862068965
41015,Kenton County,KY,NA,NA,NA,64.56953642384106,NA
41018,Kenton County,KY,NA,NA,NA,NA,74.13793103448276
41035,Grant County,KY,NA,NA,49.130434782608695,NA,NA
41042,Boone County,KY,NA,NA,NA,31.788079470198678,NA
41048,Boone County,KY,35.54054054054054,NA,NA,NA,NA
41071,Campbell County,KY,52.2972972972973,NA,NA,NA,NA
41075,Campbell County,KY,94.45945945945947,NA,NA,NA,NA
41076,Campbell County,KY,60.27027027027027,NA,NA,NA,NA
41094,Boone County,KY,NA,NA,NA,70.86092715231787,NA
41339,Breathitt County,KY,76.08108108108108,NA,51.30434782608696,NA,NA
41701,Perry County,KY,81.35135135135135,NA,NA,NA,NA
42001,McCracken County,KY,47.16216216216216,NA,NA,NA,NA
42064,Crittenden County,KY,NA,NA,NA,94.37086092715232,NA
42066,Graves County,KY,47.97297297297297,NA,NA,NA,NA
42071,Calloway County,KY,81.89189189189189,NA,NA,NA,NA
42101,Warren County,KY,NA,NA,NA,13.57615894039735,NA
42134,Simpson County,KY,NA,NA,NA,NA,67.81609195402298
42240,Christian County,KY,24.45945945945946,NA,NA,NA,NA
42303,Daviess County,KY,NA,34.50292397660819,NA,NA,20.689655172413794
42420,Henderson County,KY,NA,NA,8.26086956521739,NA,17.24137931034483
42431,Hopkins County,KY,22.83783783783784,24.561403508771928,NA,NA,NA
42544,Pulaski County,KY,NA,NA,82.3913043478261,NA,NA
42642,Russell County,KY,NA,48.53801169590643,NA,NA,NA
42701,Hardin County,KY,NA,NA,10.652173913043478,NA,NA
42718,Taylor County,KY,34.72972972972973,NA,NA,NA,NA
70002,Jefferson Parish,LA,NA,NA,NA,29.80132450331126,NA
70005,Jefferson Parish,LA,NA,NA,NA,21.192052980132452,NA
70065,Jefferson Parish,LA,NA,NA,20.652173913043477,NA,NA
70072,Jefferson Parish,LA,NA,NA,0.8695652173913043,NA,NA
70114,Orleans Parish,LA,NA,4.678362573099415,NA,NA,NA
70117,Orleans Parish,LA,NA,NA,3.6956521739130435,NA,58.04597701149425
70118,Orleans Parish,LA,NA,11.11111111111111,NA,NA,NA
70119,Orleans Parish,LA,5.675675675675676,NA,3.91304347826087,NA,NA
70127,Orleans Parish,LA,NA,6.432748538011696,NA,NA,NA
70129,Orleans Parish,LA,60,NA,NA,NA,NA
70131,Orleans Parish,LA,NA,NA,NA,NA,62.06896551724138
70301,Lafourche Parish,LA,NA,NA,NA,6.291390728476822,NA
70359,Terrebonne Parish,LA,NA,NA,NA,92.71523178807946,NA
70360,Terrebonne Parish,LA,28.64864864864865,NA,NA,NA,NA
70363,Terrebonne Parish,LA,20.54054054054054,NA,NA,NA,NA
70390,Assumption Parish,LA,31.08108108108108,NA,NA,NA,NA
70395,Terrebonne Parish,LA,95.54054054054055,NA,NA,NA,NA
70420,St. Tammany Parish,LA,84.18918918918918,53.80116959064327,NA,NA,NA
70446,Tangipahoa Parish,LA,87.02702702702703,NA,NA,NA,NA
70460,St. Tammany Parish,LA,NA,NA,NA,NA,59.77011494252874
70508,Lafayette Parish,LA,39.729729729729726,NA,NA,NA,NA
70520,Lafayette Parish,LA,28.10810810810811,NA,NA,NA,NA
70526,Acadia Parish,LA,60.810810810810814,NA,NA,NA,NA
70533,Vermilion Parish,LA,62.29729729729729,NA,NA,NA,NA
70543,Acadia Parish,LA,97.2972972972973,NA,NA,NA,NA
70554,Evangeline Parish,LA,62.16216216216216,NA,NA,NA,NA
70560,Iberia Parish,LA,NA,2.923976608187134,15.434782608695652,NA,NA
70563,Iberia Parish,LA,43.91891891891892,NA,NA,NA,NA
70570,St. Landry Parish,LA,74.45945945945947,NA,1.3043478260869565,NA,NA
70611,Calcasieu Parish,LA,NA,90.64327485380117,NA,NA,NA
70648,Allen Parish,LA,83.37837837837839,NA,NA,NA,NA
70710,West Baton Rouge Parish,LA,90.13513513513513,NA,NA,NA,NA
70760,Pointe Coupee Parish,LA,86.75675675675676,NA,NA,NA,NA
70769,Ascension Parish,LA,82.83783783783784,NA,NA,NA,NA
70805,East Baton Rouge Parish,LA,NA,NA,96.95652173913044,NA,NA
70806,East Baton Rouge Parish,LA,NA,NA,13.043478260869565,NA,NA
70808,East Baton Rouge Parish,LA,NA,NA,NA,NA,58.620689655172406
70816,East Baton Rouge Parish,LA,4.1891891891891895,NA,NA,NA,NA
71006,Bossier Parish,LA,NA,NA,55.65217391304348,72.18543046357617,NA
71203,Ouachita Parish,LA,NA,NA,NA,64.23841059602648,NA
71270,Lincoln Parish,LA,6.216216216216217,NA,24.347826086956523,NA,NA
71303,Rapides Parish,LA,NA,NA,31.08695652173913,NA,NA
71341,Avoyelles Parish,LA,NA,100,NA,NA,NA
71342,La Salle Parish,LA,92.16216216216216,NA,NA,NA,NA
71360,Rapides Parish,LA,13.918918918918918,NA,NA,NA,NA
71457,Natchitoches Parish,LA,NA,NA,5.869565217391305,NA,NA
71465,La Salle Parish,LA,NA,NA,97.17391304347827,NA,NA
04090,York County,ME,NA,NA,NA,27.483443708609272,NA
04106,Cumberland County,ME,NA,NA,35.65217391304348,NA,NA
04253,Androscoggin County,ME,NA,NA,NA,100,NA
04259,Kennebec County,ME,100,NA,NA,NA,NA
04330,Kennebec County,ME,NA,NA,NA,NA,11.494252873563218
04426,Piscataquis County,ME,NA,NA,NA,NA,92.52873563218391
04930,Penobscot County,ME,NA,80.11695906432749,NA,NA,NA
20657,Calvert County,MD,74.72972972972973,NA,NA,NA,NA
20659,St. Mary's County,MD,NA,NA,NA,61.920529801324506,NA
20695,Charles County,MD,NA,NA,95.43478260869566,NA,NA
20748,Prince George's County,MD,NA,NA,46.08695652173913,NA,NA
20772,Prince George's County,MD,62.70270270270271,NA,NA,NA,NA
20814,Montgomery County,MD,75.67567567567568,NA,NA,NA,NA
20852,Montgomery County,MD,85.94594594594595,NA,NA,NA,26.436781609195403
20853,Montgomery County,MD,NA,NA,NA,74.83443708609272,NA
21045,Howard County,MD,50.810810810810814,NA,NA,NA,NA
21054,Anne Arundel County,MD,92.43243243243244,NA,87.82608695652175,NA,NA
21075,Howard County,MD,NA,NA,68.47826086956522,NA,NA
21093,Baltimore County,MD,49.72972972972973,NA,NA,NA,NA
21114,Anne Arundel County,MD,NA,NA,NA,NA,93.67816091954023
21133,Baltimore County,MD,12.837837837837837,NA,NA,NA,NA
21136,Baltimore County,MD,NA,NA,61.08695652173913,NA,NA
21163,Howard County,MD,94.1891891891892,NA,NA,NA,NA
21212,Baltimore city,MD,NA,NA,NA,NA,43.103448275862064
21227,Baltimore County,MD,NA,NA,NA,NA,31.03448275862069
21237,Baltimore County,MD,NA,NA,56.739130434782616,NA,NA
21629,Caroline County,MD,NA,NA,81.08695652173913,NA,NA
21643,Dorchester County,MD,NA,NA,94.1304347826087,NA,NA
21658,Queen Anne's County,MD,99.32432432432432,NA,NA,NA,NA
01040,Hampden County,MA,NA,NA,1.7391304347826086,NA,NA
01085,Hampden County,MA,NA,NA,26.08695652173913,NA,NA
01105,Hampden County,MA,8.108108108108109,NA,NA,NA,NA
01220,Berkshire County,MA,NA,42.10526315789473,NA,NA,NA
01440,Worcester County,MA,NA,NA,NA,92.3841059602649,NA
01460,Middlesex County,MA,NA,NA,42.608695652173914,NA,NA
01604,Worcester County,MA,NA,8.187134502923977,NA,NA,NA
01608,Worcester County,MA,NA,NA,58.913043478260875,NA,NA
01720,Middlesex County,MA,NA,NA,NA,30.4635761589404,NA
01757,Worcester County,MA,NA,NA,2.1739130434782608,NA,NA
01803,Middlesex County,MA,NA,NA,NA,24.834437086092713,NA
01826,Middlesex County,MA,19.45945945945946,NA,NA,NA,NA
01841,Essex County,MA,NA,NA,60.43478260869565,NA,NA
01843,Essex County,MA,3.5135135135135136,NA,NA,NA,NA
01852,Middlesex County,MA,NA,NA,0.21739130434782608,11.589403973509933,NA
01854,Middlesex County,MA,22.162162162162165,NA,NA,NA,NA
01905,Essex County,MA,NA,NA,1.5217391304347827,NA,NA
01938,Essex County,MA,NA,NA,50.21739130434783,NA,NA
02118,Suffolk County,MA,NA,NA,0,NA,NA
02144,Middlesex County,MA,NA,NA,19.565217391304348,NA,18.39080459770115
02148,Middlesex County,MA,0.945945945945946,NA,NA,NA,NA
02149,Middlesex County,MA,NA,NA,NA,NA,45.40229885057471
02169,Norfolk County,MA,NA,NA,0.43478260869565216,NA,NA
02176,Middlesex County,MA,33.24324324324324,NA,NA,NA,NA
02184,Norfolk County,MA,40.945945945945944,NA,47.391304347826086,NA,NA
02302,Plymouth County,MA,18.64864864864865,NA,NA,NA,NA
02332,Plymouth County,MA,NA,NA,NA,NA,64.9425287356322
02343,Norfolk County,MA,61.62162162162163,NA,NA,NA,NA
02347,Plymouth County,MA,NA,NA,NA,89.73509933774835,NA
02382,Plymouth County,MA,NA,81.28654970760235,NA,NA,NA
02478,Middlesex County,MA,NA,NA,22.608695652173914,NA,NA
02554,Nantucket County,MA,NA,NA,67.82608695652173,NA,NA
02718,Bristol County,MA,NA,NA,NA,82.78145695364239,NA
02720,Bristol County,MA,NA,NA,2.391304347826087,NA,NA
02744,Bristol County,MA,NA,NA,37.608695652173914,NA,NA
02780,Bristol County,MA,NA,2.3391812865497075,NA,NA,NA
48017,Oakland County,MI,NA,NA,80,NA,NA
48026,Macomb County,MI,77.7027027027027,NA,NA,NA,NA
48035,Macomb County,MI,NA,NA,8.695652173913043,NA,NA
48043,Macomb County,MI,31.62162162162162,NA,NA,NA,NA
48044,Macomb County,MI,11.081081081081082,NA,NA,NA,22.413793103448278
48045,Macomb County,MI,30.945945945945947,NA,NA,NA,NA
48047,Macomb County,MI,NA,NA,NA,50.66225165562914,NA
48073,Oakland County,MI,NA,NA,NA,32.78145695364238,NA
48076,Oakland County,MI,19.18918918918919,NA,NA,NA,NA
48101,Wayne County,MI,NA,NA,22.608695652173914,NA,NA
48108,Washtenaw County,MI,27.56756756756757,NA,NA,NA,NA
48111,Wayne County,MI,6.891891891891892,NA,NA,4.966887417218543,NA
48126,Wayne County,MI,6.621621621621622,NA,NA,NA,NA
48131,Monroe County,MI,NA,NA,NA,NA,98.85057471264368
48150,Wayne County,MI,NA,NA,NA,18.543046357615893,NA
48152,Wayne County,MI,NA,NA,NA,4.635761589403973,NA
48154,Wayne County,MI,16.756756756756758,NA,NA,NA,NA
48170,Wayne County,MI,58.108108108108105,NA,NA,NA,NA
48174,Wayne County,MI,25.675675675675674,NA,NA,NA,NA
48188,Wayne County,MI,4.864864864864865,NA,12.82608695652174,NA,NA
48212,Wayne County,MI,18.243243243243242,NA,NA,NA,NA
48217,Wayne County,MI,NA,NA,NA,95.36423841059603,NA
48218,Wayne County,MI,94.45945945945947,NA,NA,NA,NA
48227,Wayne County,MI,NA,3.508771929824561,NA,NA,NA
48234,Wayne County,MI,NA,NA,7.391304347826087,NA,NA
48236,Wayne County,MI,NA,NA,31.521739130434785,NA,NA
48306,Oakland County,MI,NA,NA,44.130434782608695,19.205298013245034,NA
48316,Macomb County,MI,NA,NA,40.65217391304348,NA,NA
48322,Oakland County,MI,53.783783783783775,NA,NA,5.629139072847682,NA
48331,Oakland County,MI,NA,NA,36.95652173913043,NA,NA
48340,Oakland County,MI,NA,NA,9.130434782608695,NA,NA
48353,Livingston County,MI,92.43243243243244,NA,NA,NA,NA
48420,Genesee County,MI,71.89189189189189,NA,NA,NA,NA
48423,Genesee County,MI,53.648648648648646,NA,NA,NA,NA
48453,Sanilac County,MI,NA,NA,79.56521739130434,NA,NA
48461,Lapeer County,MI,88.24324324324324,NA,NA,NA,NA
48503,Genesee County,MI,36.486486486486484,NA,NA,NA,NA
48504,Genesee County,MI,NA,NA,NA,NA,63.2183908045977
48505,Genesee County,MI,NA,65.49707602339181,NA,NA,NA
48624,Gladwin County,MI,NA,67.83625730994152,NA,16.55629139072848,NA
48642,Midland County,MI,26.351351351351347,NA,NA,NA,6.896551724137931
48647,Oscoda County,MI,NA,NA,NA,93.37748344370861,NA
48734,Saginaw County,MI,91.8918918918919,NA,NA,NA,NA
48813,Eaton County,MI,NA,NA,NA,14.23841059602649,NA
48823,Ingham County,MI,NA,NA,NA,NA,46.55172413793103
48846,Ionia County,MI,NA,NA,39.565217391304344,NA,NA
48855,Livingston County,MI,NA,NA,NA,82.11920529801324,NA
48858,Isabella County,MI,33.513513513513516,NA,NA,NA,NA
48864,Ingham County,MI,90.67567567567568,NA,NA,NA,NA
48883,Isabella County,MI,NA,95.90643274853801,NA,NA,NA
48910,Ingham County,MI,NA,NA,41.08695652173913,NA,NA
48917,Eaton County,MI,NA,NA,34.56521739130435,NA,NA
49002,Kalamazoo County,MI,67.97297297297298,NA,NA,NA,NA
49008,Kalamazoo County,MI,43.91891891891892,NA,NA,NA,NA
49017,Calhoun County,MI,41.486486486486484,NA,NA,NA,NA
49022,Berrien County,MI,5.405405405405405,NA,NA,NA,NA
49036,Branch County,MI,27.972972972972972,NA,NA,NA,NA
49037,Calhoun County,MI,NA,42.69005847953216,NA,NA,NA
49058,Barry County,MI,48.78378378378378,NA,NA,NA,NA
49128,Berrien County,MI,NA,NA,NA,99.66887417218543,NA
49203,Jackson County,MI,25.405405405405407,NA,NA,NA,NA
49247,Lenawee County,MI,NA,92.39766081871345,NA,NA,NA
49250,Hillsdale County,MI,NA,NA,NA,78.47682119205298,NA
49319,Kent County,MI,49.05405405405405,NA,NA,NA,NA
49346,Mecosta County,MI,NA,NA,NA,71.19205298013244,NA
49423,Ottawa County,MI,NA,NA,11.08695652173913,NA,NA
49426,Ottawa County,MI,NA,NA,41.73913043478261,NA,NA
49431,Mason County,MI,NA,NA,67.6086956521739,NA,NA
49445,Muskegon County,MI,NA,NA,36.30434782608696,NA,NA
49456,Ottawa County,MI,NA,NA,46.30434782608695,NA,NA
49457,Muskegon County,MI,NA,NA,73.26086956521739,NA,NA
49464,Ottawa County,MI,37.567567567567565,NA,NA,NA,NA
49507,Kent County,MI,NA,4.093567251461988,NA,NA,NA
49650,Benzie County,MI,99.72972972972973,NA,NA,NA,NA
49735,Otsego County,MI,79.1891891891892,NA,NA,NA,NA
49738,Crawford County,MI,53.37837837837838,NA,NA,NA,NA
49765,Presque Isle County,MI,96.08108108108108,NA,NA,NA,NA
49770,Emmet County,MI,26.891891891891888,NA,NA,NA,NA
49801,Dickinson County,MI,NA,NA,66.30434782608695,NA,NA
49829,Delta County,MI,NA,NA,33.91304347826087,NA,NA
55021,Rice County,MN,NA,NA,NA,40.06622516556291,NA
55038,Washington County,MN,NA,NA,80.8695652173913,NA,NA
55044,Dakota County,MN,24.594594594594597,NA,NA,NA,NA
55070,Anoka County,MN,89.45945945945945,NA,NA,NA,NA
55106,Ramsey County,MN,NA,NA,6.304347826086956,NA,NA
55110,Ramsey County,MN,NA,22.807017543859647,NA,NA,NA
55379,Scott County,MN,58.648648648648646,NA,NA,NA,NA
55408,Hennepin County,MN,NA,NA,10.434782608695652,NA,NA
55421,Anoka County,MN,NA,67.2514619883041,NA,NA,NA
55434,Anoka County,MN,57.7027027027027,NA,NA,NA,NA
55441,Hennepin County,MN,NA,NA,NA,NA,80.45977011494253
55746,St. Louis County,MN,30.270270270270274,NA,NA,NA,NA
55807,St. Louis County,MN,87.43243243243242,NA,NA,NA,NA
55901,Olmsted County,MN,NA,NA,NA,23.178807947019866,NA
55912,Mower County,MN,NA,NA,6.521739130434782,NA,NA
55963,Goodhue County,MN,NA,NA,NA,89.0728476821192,NA
56001,Blue Earth County,MN,NA,NA,NA,34.437086092715234,60.91954022988506
56093,Waseca County,MN,NA,NA,72.3913043478261,NA,NA
56229,Lyon County,MN,99.1891891891892,NA,NA,NA,NA
56301,Stearns County,MN,24.72972972972973,NA,45,NA,NA
56303,Stearns County,MN,NA,NA,NA,NA,94.82758620689656
56425,Crow Wing County,MN,NA,NA,NA,NA,38.50574712643678
56444,Crow Wing County,MN,NA,NA,NA,NA,64.36781609195403
56537,Otter Tail County,MN,NA,29.82456140350877,NA,NA,NA
56701,Pennington County,MN,63.37837837837837,NA,NA,NA,NA
38651,DeSoto County,MS,NA,NA,92.17391304347827,NA,NA
38654,DeSoto County,MS,23.64864864864865,NA,NA,NA,NA
38866,Lee County,MS,NA,55.55555555555556,NA,NA,NA
38930,Leflore County,MS,25,NA,NA,NA,NA
38941,Leflore County,MS,NA,NA,98.26086956521739,NA,NA
38967,Montgomery County,MS,81.35135135135135,NA,85.21739130434783,NA,NA
39047,Rankin County,MS,NA,NA,NA,76.82119205298014,NA
39191,Copiah County,MS,77.7027027027027,NA,NA,NA,NA
39194,Yazoo County,MS,59.45945945945946,NA,NA,NA,NA
39208,Rankin County,MS,NA,25.146198830409354,NA,NA,NA
39212,Hinds County,MS,53.51351351351351,NA,NA,NA,NA
39339,Winston County,MS,NA,NA,93.47826086956522,NA,NA
39440,Jones County,MS,1.2162162162162162,NA,NA,NA,NA
39465,Forrest County,MS,68.37837837837839,NA,NA,NA,NA
39470,Pearl River County,MS,NA,NA,NA,NA,75.86206896551724
39556,Hancock County,MS,NA,NA,65.65217391304347,NA,NA
39567,Jackson County,MS,96.75675675675676,NA,NA,NA,NA
39701,Lowndes County,MS,NA,NA,NA,NA,93.10344827586206
63033,St. Louis County,MO,17.027027027027028,NA,NA,NA,NA
63044,St. Louis County,MO,81.89189189189189,NA,NA,NA,NA
63074,St. Louis County,MO,NA,NA,NA,54.966887417218544,NA
63108,St. Louis city,MO,NA,NA,NA,56.622516556291394,NA
63120,St. Louis city,MO,NA,76.60818713450293,NA,NA,NA
63303,St. Charles County,MO,22.702702702702705,NA,NA,NA,NA
63366,St. Charles County,MO,NA,NA,NA,3.3112582781456954,NA
63376,St. Charles County,MO,NA,21.637426900584796,8.91304347826087,NA,NA
63385,St. Charles County,MO,13.783783783783784,NA,NA,NA,NA
63670,Ste. Genevieve County,MO,NA,39.1812865497076,NA,NA,NA
63703,Cape Girardeau County,MO,NA,NA,60.86956521739131,NA,NA
63830,Pemiscot County,MO,84.5945945945946,NA,NA,NA,NA
63841,Stoddard County,MO,NA,58.47953216374269,NA,NA,NA
63851,Pemiscot County,MO,NA,NA,81.95652173913044,NA,NA
63869,New Madrid County,MO,97.43243243243244,NA,NA,NA,NA
63901,Butler County,MO,NA,NA,13.260869565217392,NA,NA
63957,Wayne County,MO,NA,59.64912280701754,NA,NA,NA
64037,Lafayette County,MO,62.29729729729729,NA,NA,NA,NA
64052,Jackson County,MO,NA,52.63157894736842,NA,NA,NA
64068,Clay County,MO,7.837837837837839,NA,NA,NA,NA
64089,Clay County,MO,NA,74.85380116959064,NA,NA,NA
64116,Clay County,MO,NA,NA,NA,42.05298013245033,NA
64119,Clay County,MO,8.513513513513514,NA,NA,NA,NA
64127,Jackson County,MO,NA,NA,5.217391304347826,NA,NA
64152,Platte County,MO,NA,NA,19.130434782608695,NA,NA
64157,Clay County,MO,NA,NA,34.130434782608695,NA,NA
64429,Clinton County,MO,NA,NA,52.60869565217391,NA,NA
64836,Jasper County,MO,7.4324324324324325,NA,NA,NA,NA
64870,Jasper County,MO,NA,NA,47.17391304347826,NA,NA
65041,Gasconade County,MO,NA,NA,NA,88.41059602649007,NA
65401,Phelps County,MO,27.837837837837835,NA,37.826086956521735,NA,NA
65605,Lawrence County,MO,NA,NA,75.65217391304347,NA,NA
65619,Greene County,MO,NA,NA,NA,93.70860927152319,NA
65708,Barry County,MO,90.94594594594595,NA,NA,83.77483443708608,NA
65753,Christian County,MO,NA,90.05847953216374,NA,NA,NA
59101,Yellowstone County,MT,6.756756756756757,NA,NA,NA,NA
59701,Silver Bow County,MT,81.35135135135135,NA,NA,NA,NA
68111,Douglas County,NE,NA,NA,20,NA,NA
68503,Lancaster County,NE,55.13513513513514,NA,NA,NA,NA
68516,Lancaster County,NE,NA,NA,NA,47.019867549668874,NA
68601,Platte County,NE,32.83783783783784,NA,NA,NA,NA
68949,Phelps County,NE,78.51351351351352,NA,NA,NA,NA
89102,Clark County,NV,47.56756756756757,NA,88.26086956521739,NA,NA
89117,Clark County,NV,NA,NA,34.78260869565217,NA,NA
89131,Clark County,NV,NA,NA,50,NA,NA
89143,Clark County,NV,91.62162162162161,NA,NA,NA,NA
89146,Clark County,NV,NA,NA,79.78260869565217,NA,NA
89147,Clark County,NV,NA,NA,NA,52.64900662251656,NA
89403,Lyon County,NV,45.54054054054054,NA,NA,NA,NA
89408,Lyon County,NV,53.783783783783775,NA,NA,NA,NA
89423,Douglas County,NV,88.24324324324324,NA,NA,NA,NA
89431,Washoe County,NV,33.78378378378378,NA,21.086956521739133,NA,27.011494252873565
89506,Washoe County,NV,31.08108108108108,NA,NA,NA,NA
89701,Carson City,NV,50.27027027027027,NA,39.130434782608695,NA,NA
89706,Carson City,NV,90,NA,NA,NA,NA
03055,Hillsborough County,NH,NA,NA,NA,50,NA
03062,Hillsborough County,NH,24.324324324324326,NA,NA,NA,NA
03087,Rockingham County,NH,NA,NA,77.82608695652173,NA,NA
03103,Hillsborough County,NH,1.7567567567567568,NA,NA,NA,NA
03301,Merrimack County,NH,NA,NA,16.73913043478261,NA,NA
03865,Rockingham County,NH,NA,NA,NA,73.50993377483444,NA
07011,Passaic County,NJ,NA,NA,NA,NA,44.252873563218394
07030,Hudson County,NJ,47.97297297297297,NA,NA,NA,NA
07042,Essex County,NJ,NA,NA,24.130434782608695,NA,NA
07047,Hudson County,NJ,31.62162162162162,NA,NA,NA,NA
07052,Essex County,NJ,77.43243243243244,NA,NA,NA,NA
07054,Morris County,NJ,85,NA,NA,NA,NA
07087,Hudson County,NJ,NA,NA,68.91304347826087,NA,NA
07104,Essex County,NJ,2.5675675675675675,NA,NA,NA,NA
07106,Essex County,NJ,5,NA,NA,NA,NA
07107,Essex County,NJ,NA,NA,1.0869565217391304,NA,68.96551724137932
07110,Essex County,NJ,NA,NA,74.78260869565217,NA,NA
07203,Union County,NJ,42.027027027027025,NA,99.56521739130434,NA,NA
07305,Hudson County,NJ,NA,1.7543859649122806,NA,NA,NA
07446,Bergen County,NJ,NA,NA,98.91304347826086,NA,NA
07470,Passaic County,NJ,NA,NA,NA,NA,5.747126436781609
07524,Passaic County,NJ,59.72972972972973,NA,NA,NA,NA
07601,Bergen County,NJ,NA,57.30994152046783,NA,NA,NA
07701,Monmouth County,NJ,54.32432432432432,NA,NA,NA,NA
07712,Monmouth County,NJ,NA,7.017543859649122,NA,NA,NA
07760,Monmouth County,NJ,NA,NA,NA,91.05960264900662,NA
07801,Morris County,NJ,71.89189189189189,NA,NA,NA,NA
07840,Warren County,NJ,94.86486486486486,NA,NA,NA,NA
08005,Ocean County,NJ,NA,NA,NA,28.47682119205298,NA
08012,Camden County,NJ,64.05405405405405,NA,4.782608695652174,71.52317880794702,NA
08015,Burlington County,NJ,NA,NA,15,NA,NA
08021,Camden County,NJ,3.9189189189189193,NA,NA,NA,NA
08028,Gloucester County,NJ,NA,NA,17.391304347826086,NA,NA
08051,Gloucester County,NJ,NA,NA,62.17391304347826,NA,NA
08054,Burlington County,NJ,66.21621621621621,NA,NA,NA,NA
08057,Burlington County,NJ,NA,NA,NA,NA,71.26436781609196
08060,Burlington County,NJ,NA,NA,NA,NA,82.18390804597702
08070,Salem County,NJ,81.75675675675676,NA,NA,NA,NA
08080,Gloucester County,NJ,29.594594594594593,NA,NA,NA,NA
08085,Gloucester County,NJ,62.29729729729729,NA,NA,NA,NA
08087,Ocean County,NJ,36.486486486486484,NA,NA,NA,NA
08205,Atlantic County,NJ,79.86486486486486,NA,NA,NA,NA
08215,Atlantic County,NJ,NA,NA,70.43478260869566,NA,NA
08234,Atlantic County,NJ,NA,NA,NA,NA,22.988505747126435
08270,Cape May County,NJ,82.56756756756756,NA,81.52173913043478,NA,NA
08322,Gloucester County,NJ,57.2972972972973,NA,NA,NA,NA
08518,Burlington County,NJ,71.21621621621622,NA,NA,NA,NA
08550,Mercer County,NJ,NA,NA,NA,NA,79.3103448275862
08618,Mercer County,NJ,NA,NA,NA,NA,40.804597701149426
08723,Ocean County,NJ,NA,NA,NA,NA,48.275862068965516
08724,Ocean County,NJ,30,NA,NA,52.980132450331126,NA
08755,Ocean County,NJ,12.702702702702704,NA,NA,NA,NA
08809,Hunterdon County,NJ,NA,NA,NA,98.01324503311258,NA
08830,Middlesex County,NJ,NA,51.461988304093566,NA,NA,NA
08854,Middlesex County,NJ,NA,NA,7.608695652173914,NA,NA
87108,Bernalillo County,NM,NA,12.280701754385964,NA,NA,NA
87111,Bernalillo County,NM,NA,41.52046783625731,NA,NA,NA
87113,Bernalillo County,NM,NA,NA,78.47826086956522,NA,NA
87114,Bernalillo County,NM,10.945945945945947,32.16374269005848,NA,NA,NA
87301,McKinley County,NM,NA,NA,26.304347826086953,NA,NA
87401,San Juan County,NM,NA,NA,NA,38.41059602649007,42.5287356321839
87505,Santa Fe County,NM,16.35135135135135,NA,4.3478260869565215,NA,NA
87508,Santa Fe County,NM,NA,NA,NA,54.3046357615894,NA
88007,Doa Ana County,NM,NA,NA,NA,57.94701986754966,NA
88012,Doa Ana County,NM,NA,20.46783625730994,NA,NA,NA
88220,Eddy County,NM,82.43243243243244,NA,NA,NA,NA
88231,Lea County,NM,NA,98.83040935672514,NA,NA,NA
88240,Lea County,NM,39.5945945945946,NA,NA,NA,NA
10024,New York County,NY,NA,NA,NA,21.52317880794702,NA
10031,New York County,NY,28.783783783783782,NA,NA,NA,NA
10032,New York County,NY,20.675675675675677,NA,NA,NA,NA
10306,Richmond County,NY,32.567567567567565,NA,NA,NA,NA
10452,Bronx County,NY,NA,NA,NA,0.33112582781456956,NA
10455,Bronx County,NY,NA,NA,NA,6.95364238410596,NA
10456,Bronx County,NY,NA,NA,NA,0,NA
10458,Bronx County,NY,0.6756756756756757,NA,NA,NA,NA
10461,Bronx County,NY,NA,NA,10.869565217391305,NA,NA
10462,Bronx County,NY,NA,NA,NA,2.980132450331126,NA
10465,Bronx County,NY,NA,NA,NA,37.74834437086093,NA
10473,Bronx County,NY,NA,NA,21.521739130434785,NA,NA
10520,Westchester County,NY,NA,NA,NA,77.81456953642383,NA
10977,Rockland County,NY,NA,50.29239766081871,NA,NA,NA
11103,Queens County,NY,NA,NA,72.82608695652173,NA,NA
11205,Kings County,NY,52.43243243243243,NA,NA,NA,NA
11219,Kings County,NY,50.67567567567568,NA,NA,NA,NA
11225,Kings County,NY,NA,NA,23.47826086956522,NA,NA
11235,Kings County,NY,20.945945945945947,NA,NA,NA,NA
11236,Kings County,NY,NA,9.35672514619883,NA,NA,NA
11369,Queens County,NY,NA,NA,NA,NA,86.20689655172413
11379,Queens County,NY,NA,NA,NA,63.24503311258278,NA
11420,Queens County,NY,46.89189189189189,34.50292397660819,NA,NA,NA
11691,Queens County,NY,7.837837837837839,NA,NA,NA,NA
11705,Suffolk County,NY,NA,NA,NA,NA,95.97701149425288
11735,Nassau County,NY,NA,NA,NA,NA,62.643678160919535
11763,Suffolk County,NY,NA,NA,46.95652173913044,NA,NA
11798,Suffolk County,NY,NA,NA,NA,95.03311258278146,NA
11953,Suffolk County,NY,95.27027027027027,NA,NA,NA,NA
12009,Albany County,NY,NA,NA,99.1304347826087,NA,NA
12078,Fulton County,NY,NA,23.976608187134502,NA,NA,NA
12110,Albany County,NY,NA,NA,75.43478260869566,NA,NA
12116,Otsego County,NY,95.67567567567568,NA,NA,NA,NA
12202,Albany County,NY,NA,NA,85,NA,NA
12306,Schenectady County,NY,NA,NA,32.826086956521735,NA,NA
12477,Ulster County,NY,91.62162162162161,NA,NA,NA,NA
12563,Putnam County,NY,NA,NA,94.78260869565217,NA,NA
12803,Saratoga County,NY,76.35135135135135,NA,NA,NA,NA
13090,Onondaga County,NY,NA,NA,15.65217391304348,NA,NA
13203,Onondaga County,NY,NA,NA,18.478260869565215,NA,NA
13204,Onondaga County,NY,7.162162162162162,NA,NA,NA,NA
13212,Onondaga County,NY,NA,NA,31.521739130434785,NA,NA
13326,Otsego County,NY,76.08108108108108,NA,NA,NA,NA
13357,Herkimer County,NY,38.91891891891892,NA,NA,NA,NA
13367,Lewis County,NY,NA,NA,39.78260869565217,NA,NA
13411,Chenango County,NY,83.24324324324324,NA,NA,NA,NA
13440,Oneida County,NY,55.67567567567567,NA,NA,NA,NA
13634,Jefferson County,NY,NA,NA,94.78260869565217,NA,NA
13760,Broome County,NY,NA,NA,NA,NA,1.1494252873563218
13827,Tioga County,NY,NA,NA,NA,32.450331125827816,NA
13905,Broome County,NY,NA,NA,27.82608695652174,NA,NA
14004,Erie County,NY,90.4054054054054,NA,63.69565217391304,NA,NA
14020,Genesee County,NY,NA,44.44444444444444,NA,NA,NA
14057,Erie County,NY,NA,NA,NA,85.09933774834437,NA
14072,Erie County,NY,NA,NA,42.82608695652174,NA,NA
14094,Niagara County,NY,NA,NA,1.956521739130435,NA,NA
14111,Erie County,NY,97.56756756756756,NA,NA,NA,NA
14127,Erie County,NY,52.16216216216216,NA,NA,NA,NA
14207,Erie County,NY,NA,NA,NA,NA,83.9080459770115
14211,Erie County,NY,24.72972972972973,NA,NA,NA,NA
14212,Erie County,NY,49.86486486486486,NA,NA,NA,NA
14218,Erie County,NY,NA,NA,NA,41.390728476821195,NA
14304,Niagara County,NY,18.243243243243242,NA,NA,NA,NA
14411,Orleans County,NY,NA,88.88888888888889,NA,NA,NA
14414,Livingston County,NY,NA,NA,NA,48.675496688741724,NA
14424,Ontario County,NY,NA,66.66666666666666,NA,NA,NA
14445,Monroe County,NY,71.48648648648648,NA,NA,NA,NA
14456,Ontario County,NY,NA,71.9298245614035,NA,NA,NA
14502,Wayne County,NY,26.08108108108108,NA,NA,NA,NA
14526,Monroe County,NY,9.594594594594595,NA,NA,NA,NA
14559,Monroe County,NY,10.675675675675675,NA,NA,NA,NA
14568,Wayne County,NY,70.94594594594594,NA,NA,NA,NA
14580,Monroe County,NY,NA,NA,0.6521739130434783,NA,NA
14589,Wayne County,NY,51.08108108108108,NA,NA,44.70198675496689,NA
14606,Monroe County,NY,NA,31.57894736842105,NA,NA,NA
14612,Monroe County,NY,NA,NA,NA,0.9933774834437087,NA
14615,Monroe County,NY,NA,38.01169590643275,NA,NA,NA
14617,Monroe County,NY,8.108108108108109,NA,NA,NA,NA
14620,Monroe County,NY,NA,NA,5,NA,NA
14701,Chautauqua County,NY,4.054054054054054,20.46783625730994,NA,NA,NA
14733,Chautauqua County,NY,NA,NA,82.17391304347827,NA,NA
14895,Allegany County,NY,NA,NA,NA,NA,48.85057471264368
27217,Alamance County,NC,40.27027027027027,NA,NA,NA,NA
27253,Alamance County,NC,NA,NA,NA,13.90728476821192,NA
27320,Rockingham County,NC,15.405405405405407,NA,NA,NA,NA
27360,Davidson County,NC,NA,NA,3.0434782608695654,NA,NA
27379,Caswell County,NC,93.78378378378378,NA,NA,NA,NA
27405,Guilford County,NC,NA,14.035087719298245,NA,NA,NA
27406,Guilford County,NC,NA,23.391812865497073,NA,NA,NA
27410,Guilford County,NC,17.16216216216216,NA,NA,NA,NA
27502,Wake County,NC,55.54054054054054,NA,NA,NA,NA
27511,Wake County,NC,54.864864864864856,NA,NA,NA,NA
27519,Wake County,NC,43.24324324324324,NA,NA,NA,NA
27549,Franklin County,NC,62.027027027027025,NA,NA,NA,NA
27574,Person County,NC,NA,NA,67.17391304347827,NA,NA
27592,Wake County,NC,68.64864864864865,NA,NA,NA,NA
27603,Wake County,NC,12.297297297297298,NA,NA,NA,NA
27613,Wake County,NC,NA,85.38011695906432,NA,NA,NA
27870,Halifax County,NC,NA,NA,21.956521739130437,NA,NA
27893,Wilson County,NC,21.216216216216218,NA,NA,NA,NA
27909,Pasquotank County,NC,15.675675675675677,NA,NA,8.940397350993377,NA
28001,Stanly County,NC,86.48648648648648,NA,NA,NA,NA
28025,Cabarrus County,NC,NA,28.654970760233915,NA,11.258278145695364,NA
28027,Cabarrus County,NC,9.72972972972973,NA,NA,NA,NA
28034,Gaston County,NC,90.67567567567568,NA,NA,NA,NA
28052,Gaston County,NC,15,NA,NA,NA,NA
28054,Gaston County,NC,NA,NA,NA,NA,33.33333333333333
28083,Cabarrus County,NC,NA,53.216374269005854,NA,NA,NA
28090,Cleveland County,NC,70.94594594594594,NA,NA,NA,NA
28120,Gaston County,NC,65.94594594594595,NA,NA,NA,NA
28128,Stanly County,NC,83.37837837837839,NA,NA,NA,NA
28144,Rowan County,NC,42.7027027027027,NA,NA,NA,88.50574712643679
28205,Mecklenburg County,NC,27.027027027027028,NA,NA,NA,NA
28206,Mecklenburg County,NC,NA,NA,41.95652173913044,NA,NA
28210,Mecklenburg County,NC,NA,49.122807017543856,NA,NA,NA
28227,Mecklenburg County,NC,NA,NA,NA,NA,28.735632183908045
28262,Mecklenburg County,NC,29.864864864864867,NA,35.869565217391305,NA,NA
28304,Cumberland County,NC,NA,66.08187134502924,NA,NA,NA
28315,Moore County,NC,NA,NA,NA,NA,100
28328,Sampson County,NC,NA,NA,69.34782608695652,18.874172185430464,NA
28352,Scotland County,NC,NA,NA,NA,NA,64.9425287356322
28372,Robeson County,NC,NA,NA,NA,67.54966887417218,NA
28386,Robeson County,NC,NA,NA,NA,97.35099337748345,NA
28409,New Hanover County,NC,NA,NA,40.43478260869565,NA,NA
28411,New Hanover County,NC,44.5945945945946,NA,NA,NA,NA
28428,New Hanover County,NC,96.08108108108108,NA,NA,NA,NA
28445,Onslow County,NC,NA,86.54970760233918,NA,NA,NA
28451,Brunswick County,NC,29.054054054054053,NA,NA,NA,NA
28513,Pitt County,NC,NA,NA,78.26086956521739,NA,NA
28532,Craven County,NC,NA,NA,NA,87.41721854304636,NA
28560,Craven County,NC,NA,42.69005847953216,NA,NA,NA
28572,Duplin County,NC,NA,NA,84.78260869565217,NA,NA
28580,Greene County,NC,NA,NA,77.17391304347827,NA,NA
28585,Jones County,NC,98.91891891891892,NA,NA,NA,NA
28638,Caldwell County,NC,44.5945945945946,NA,NA,NA,NA
28640,Ashe County,NC,NA,NA,NA,89.40397350993378,NA
28645,Caldwell County,NC,NA,NA,NA,NA,2.2988505747126435
28673,Catawba County,NC,NA,NA,89.78260869565217,NA,NA
28677,Iredell County,NC,NA,NA,48.69565217391305,17.549668874172188,NA
28681,Alexander County,NC,NA,NA,NA,39.40397350993378,NA
28723,Jackson County,NC,NA,NA,90.43478260869566,NA,NA
28734,Macon County,NC,NA,NA,50.65217391304348,NA,NA
28739,Henderson County,NC,NA,NA,NA,69.5364238410596,NA
28752,McDowell County,NC,NA,NA,15.217391304347828,NA,NA
28753,Madison County,NC,NA,NA,NA,79.80132450331125,NA
58201,Grand Forks County,ND,5.540540540540541,NA,NA,NA,NA
58501,Burleigh County,ND,NA,NA,54.347826086956516,NA,NA
58503,Burleigh County,ND,47.16216216216216,NA,NA,NA,NA
43011,Knox County,OH,80.67567567567568,NA,NA,NA,NA
43040,Union County,OH,38.24324324324324,NA,NA,NA,NA
43055,Licking County,OH,NA,NA,NA,0.6622516556291391,NA
43085,Franklin County,OH,NA,NA,NA,NA,63.793103448275865
43110,Franklin County,OH,NA,NA,23.26086956521739,NA,NA
43113,Pickaway County,OH,44.45945945945946,NA,NA,NA,NA
43123,Franklin County,OH,0.5405405405405406,NA,NA,NA,NA
43130,Fairfield County,OH,NA,NA,NA,NA,3.4482758620689653
43206,Franklin County,OH,33.37837837837838,NA,NA,NA,NA
43211,Franklin County,OH,NA,0,NA,NA,NA
43213,Franklin County,OH,0.2702702702702703,NA,NA,NA,NA
43221,Franklin County,OH,NA,NA,NA,76.15894039735099,NA
43223,Franklin County,OH,0.8108108108108109,NA,NA,NA,NA
43224,Franklin County,OH,0,NA,NA,NA,NA
43230,Franklin County,OH,NA,NA,NA,11.920529801324504,NA
43232,Franklin County,OH,0.13513513513513514,NA,NA,NA,NA
43311,Logan County,OH,NA,NA,30.65217391304348,NA,NA
43410,Sandusky County,OH,63.51351351351351,NA,NA,NA,NA
43506,Williams County,OH,64.72972972972974,NA,NA,NA,NA
43528,Lucas County,OH,56.21621621621622,NA,NA,NA,NA
43551,Wood County,OH,11.621621621621623,NA,NA,NA,NA
43571,Lucas County,OH,79.32432432432432,NA,NA,NA,NA
43609,Lucas County,OH,NA,NA,NA,38.741721854304636,NA
43613,Lucas County,OH,1.0810810810810811,NA,NA,NA,NA
43616,Lucas County,OH,NA,NA,NA,NA,20.114942528735632
43793,Monroe County,OH,93.91891891891892,NA,NA,NA,NA
43812,Coshocton County,OH,NA,12.865497076023392,NA,NA,NA
44001,Lorain County,OH,NA,NA,NA,NA,6.321839080459771
44004,Ashtabula County,OH,23.37837837837838,NA,NA,NA,NA
44012,Lorain County,OH,NA,NA,NA,32.11920529801324,NA
44028,Lorain County,OH,NA,NA,NA,72.51655629139073,NA
44035,Lorain County,OH,17.2972972972973,NA,NA,NA,0
44052,Lorain County,OH,17.7027027027027,NA,NA,NA,NA
44057,Lake County,OH,42.16216216216216,NA,NA,NA,NA
44060,Lake County,OH,23.91891891891892,NA,NA,NA,NA
44087,Summit County,OH,NA,NA,NA,12.582781456953644,NA
44089,Erie County,OH,NA,78.3625730994152,NA,NA,NA
44092,Lake County,OH,NA,NA,85.86956521739131,NA,NA
44102,Cuyahoga County,OH,28.513513513513512,NA,NA,NA,NA
44105,Cuyahoga County,OH,NA,NA,NA,NA,53.44827586206896
44106,Cuyahoga County,OH,NA,NA,86.30434782608695,NA,NA
44112,Cuyahoga County,OH,8.91891891891892,NA,NA,NA,NA
44119,Cuyahoga County,OH,NA,NA,NA,45.36423841059602,NA
44122,Cuyahoga County,OH,60.27027027027027,NA,NA,NA,NA
44125,Cuyahoga County,OH,64.45945945945945,NA,NA,NA,NA
44128,Cuyahoga County,OH,NA,NA,NA,1.3245033112582782,NA
44135,Cuyahoga County,OH,2.027027027027027,NA,16.956521739130434,NA,NA
44136,Cuyahoga County,OH,NA,NA,NA,NA,13.218390804597702
44140,Cuyahoga County,OH,57.2972972972973,NA,NA,NA,NA
44256,Medina County,OH,9.45945945945946,NA,NA,NA,NA
44266,Portage County,OH,NA,NA,NA,NA,5.172413793103448
44288,Portage County,OH,87.83783783783784,NA,NA,NA,NA
44303,Summit County,OH,NA,82.45614035087719,NA,NA,NA
44305,Summit County,OH,5,NA,NA,NA,NA
44306,Summit County,OH,4.594594594594595,NA,NA,NA,NA
44307,Summit County,OH,NA,NA,NA,66.55629139072848,NA
44314,Summit County,OH,5.9459459459459465,NA,NA,NA,NA
44321,Summit County,OH,NA,NA,90.65217391304347,NA,NA
44420,Trumbull County,OH,NA,NA,NA,53.31125827814569,NA
44471,Mahoning County,OH,NA,NA,57.608695652173914,NA,NA
44484,Trumbull County,OH,23.243243243243246,NA,NA,NA,NA
44485,Trumbull County,OH,7.567567567567568,NA,NA,NA,NA
44502,Mahoning County,OH,NA,NA,NA,71.8543046357616,NA
44514,Mahoning County,OH,NA,NA,NA,NA,19.54022988505747
44601,Stark County,OH,NA,NA,NA,NA,9.770114942528735
44622,Tuscarawas County,OH,36.21621621621622,NA,NA,NA,NA
44663,Tuscarawas County,OH,NA,NA,12.608695652173912,NA,NA
44667,Wayne County,OH,33.78378378378378,NA,NA,NA,NA
44691,Wayne County,OH,52.972972972972975,NA,NA,NA,NA
44705,Stark County,OH,37.2972972972973,NA,NA,NA,NA
44706,Stark County,OH,NA,25.730994152046783,NA,NA,NA
44720,Stark County,OH,NA,NA,NA,16.887417218543046,NA
44824,Erie County,OH,NA,NA,NA,91.05960264900662,NA
44857,Huron County,OH,NA,NA,NA,35.099337748344375,NA
44906,Richland County,OH,NA,NA,NA,47.35099337748344,NA
45005,Warren County,OH,12.432432432432433,NA,NA,NA,NA
45011,Butler County,OH,0.40540540540540543,NA,NA,1.9867549668874174,NA
45013,Butler County,OH,1.891891891891892,NA,2.8260869565217392,NA,NA
45014,Butler County,OH,41.351351351351354,NA,NA,NA,18.96551724137931
45036,Warren County,OH,NA,NA,20.217391304347824,NA,NA
45067,Butler County,OH,NA,NA,NA,79.13907284768213,NA
45154,Brown County,OH,NA,NA,78.04347826086956,NA,NA
45157,Clermont County,OH,NA,NA,79.13043478260869,NA,NA
45171,Brown County,OH,91.21621621621621,NA,NA,NA,NA
45177,Clinton County,OH,35.270270270270274,NA,NA,NA,NA
45211,Hamilton County,OH,10.27027027027027,NA,NA,NA,NA
45224,Hamilton County,OH,32.567567567567565,NA,NA,NA,NA
45225,Hamilton County,OH,NA,84.7953216374269,NA,NA,NA
45243,Hamilton County,OH,79.32432432432432,NA,NA,NA,NA
45324,Greene County,OH,NA,NA,8.478260869565217,14.56953642384106,NA
45371,Miami County,OH,NA,NA,57.826086956521735,NA,NA
45373,Miami County,OH,NA,NA,6.086956521739131,45.6953642384106,NA
45403,Montgomery County,OH,21.216216216216218,NA,NA,NA,NA
45406,Montgomery County,OH,NA,NA,14.565217391304348,NA,NA
45416,Montgomery County,OH,70,NA,NA,NA,NA
45417,Montgomery County,OH,NA,NA,NA,13.245033112582782,NA
45420,Montgomery County,OH,NA,NA,NA,NA,54.02298850574713
45424,Montgomery County,OH,NA,NA,9.347826086956522,NA,NA
45432,Greene County,OH,NA,NA,71.73913043478261,NA,NA
45449,Montgomery County,OH,NA,NA,NA,NA,54.59770114942529
45503,Clark County,OH,9.18918918918919,NA,NA,NA,NA
45505,Clark County,OH,NA,NA,30.869565217391305,NA,NA
45669,Lawrence County,OH,29.72972972972973,NA,NA,NA,NA
45701,Athens County,OH,NA,57.89473684210527,NA,NA,NA
45784,Washington County,OH,NA,60.23391812865497,NA,96.68874172185431,NA
73034,Oklahoma County,OK,NA,NA,NA,NA,32.758620689655174
73064,Canadian County,OK,63.108108108108105,NA,NA,NA,NA
73069,Cleveland County,OK,NA,NA,98.04347826086956,NA,NA
73072,Cleveland County,OK,38.513513513513516,NA,NA,NA,NA
73107,Oklahoma County,OK,17.43243243243243,NA,NA,NA,NA
73120,Oklahoma County,OK,NA,NA,NA,24.17218543046358,NA
73139,Oklahoma County,OK,NA,63.1578947368421,NA,NA,NA
73142,Oklahoma County,OK,72.97297297297297,NA,NA,NA,NA
73160,Cleveland County,OK,NA,14.619883040935672,NA,NA,NA
72405,NA,NA,98.51351351351352,NA,NA,NA,NA
73162,Oklahoma County,OK,61.35135135135135,NA,NA,NA,NA
73521,Jackson County,OK,46.48648648648649,NA,NA,NA,NA
73527,Comanche County,OK,97.56756756756756,NA,NA,NA,NA
73750,Kingfisher County,OK,85,NA,NA,NA,NA
73945,Texas County,OK,98.24324324324324,NA,NA,NA,NA
74029,Washington County,OK,NA,NA,NA,94.03973509933775,NA
74037,Tulsa County,OK,88.24324324324324,NA,NA,NA,NA
74075,Payne County,OK,NA,64.91228070175438,NA,NA,NA
74129,Tulsa County,OK,43.91891891891892,NA,NA,NA,NA
74354,Ottawa County,OK,64.1891891891892,NA,NA,NA,NA
74801,Pottawatomie County,OK,32.432432432432435,52.046783625730995,NA,NA,NA
74868,Seminole County,OK,NA,68.42105263157895,NA,NA,NA
74954,Sequoyah County,OK,93.24324324324324,NA,NA,NA,NA
97022,Clackamas County,OR,96.89189189189189,NA,NA,NA,NA
97048,Columbia County,OR,97.02702702702702,NA,NA,NA,NA
97055,Clackamas County,OR,80.94594594594594,NA,NA,NA,NA
97086,Clackamas County,OR,77.56756756756756,NA,NA,NA,NA
97124,Washington County,OR,NA,NA,27.608695652173914,NA,NA
97205,Multnomah County,OR,NA,NA,84.34782608695653,NA,NA
97223,Washington County,OR,43.24324324324324,NA,28.913043478260867,NA,NA
97232,Multnomah County,OR,NA,NA,NA,81.78807947019867,NA
97233,Multnomah County,OR,7.297297297297297,NA,NA,NA,NA
97301,Marion County,OR,21.756756756756758,NA,NA,NA,NA
97322,Linn County,OR,51.621621621621614,NA,NA,NA,9.195402298850574
97338,Polk County,OR,NA,NA,76.08695652173914,NA,NA
97352,Marion County,OR,98.51351351351352,NA,NA,NA,NA
97458,Coos County,OR,NA,NA,NA,NA,90.80459770114942
97471,Douglas County,OR,42.567567567567565,NA,NA,NA,NA
97501,Jackson County,OR,22.972972972972975,40.35087719298245,NA,NA,NA
97526,Josephine County,OR,NA,NA,25.217391304347824,NA,NA
97603,Klamath County,OR,17.56756756756757,NA,NA,4.304635761589404,NA
97703,Deschutes County,OR,NA,96.49122807017544,NA,NA,NA
97741,Jefferson County,OR,NA,NA,NA,NA,82.75862068965517
15063,Washington County,PA,NA,NA,65.43478260869566,NA,NA
15084,Allegheny County,PA,74.72972972972973,NA,NA,NA,NA
15102,Allegheny County,PA,NA,NA,65.65217391304347,NA,NA
15228,Allegheny County,PA,NA,NA,91.95652173913044,NA,NA
15229,Allegheny County,PA,43.24324324324324,NA,NA,NA,NA
15301,Washington County,PA,NA,16.95906432748538,NA,NA,12.068965517241379
15317,Washington County,PA,2.7027027027027026,NA,NA,NA,NA
15401,Fayette County,PA,NA,NA,32.17391304347826,68.87417218543047,NA
15425,Fayette County,PA,NA,NA,NA,20.198675496688743,NA
15642,Westmoreland County,PA,56.62162162162162,NA,NA,NA,NA
15650,Westmoreland County,PA,74.1891891891892,NA,NA,NA,10.344827586206897
15857,Elk County,PA,41.891891891891895,NA,NA,NA,NA
16001,Butler County,PA,16.08108108108108,NA,NA,NA,NA
16066,Butler County,PA,42.972972972972975,93.56725146198829,NA,NA,NA
16117,Lawrence County,PA,NA,NA,54.565217391304344,NA,NA
16146,Mercer County,PA,NA,NA,23.043478260869566,NA,NA
16335,Crawford County,PA,NA,NA,60.21739130434782,NA,NA
16365,Warren County,PA,14.594594594594595,NA,NA,NA,NA
16407,Erie County,PA,69.45945945945947,NA,NA,NA,NA
16823,Centre County,PA,75.4054054054054,NA,57.391304347826086,NA,NA
17066,Huntingdon County,PA,NA,NA,73.91304347826086,NA,NA
17067,Lebanon County,PA,54.32432432432432,NA,NA,NA,NA
17078,Lebanon County,PA,6.216216216216217,NA,NA,NA,NA
17109,Dauphin County,PA,NA,NA,NA,NA,31.60919540229885
17112,Dauphin County,PA,NA,NA,NA,3.9735099337748347,12.643678160919542
17202,Franklin County,PA,NA,NA,28.695652173913043,NA,NA
17225,Franklin County,PA,NA,NA,59.78260869565217,NA,NA
17236,Franklin County,PA,NA,NA,NA,74.17218543046357,NA
17241,Cumberland County,PA,NA,NA,NA,83.44370860927152,NA
17356,York County,PA,21.891891891891895,NA,NA,NA,NA
17569,Lancaster County,PA,88.24324324324324,NA,NA,NA,NA
17603,Lancaster County,PA,NA,NA,8.043478260869565,NA,NA
17724,Bradford County,PA,93.24324324324324,NA,NA,NA,NA
17756,Lycoming County,PA,NA,NA,NA,27.1523178807947,NA
17801,Northumberland County,PA,NA,NA,NA,18.211920529801322,NA
17857,Northumberland County,PA,77.02702702702703,NA,NA,NA,NA
18015,Northampton County,PA,5.9459459459459465,NA,NA,NA,NA
18049,Lehigh County,PA,NA,NA,NA,41.72185430463576,NA
18062,Lehigh County,PA,NA,NA,NA,26.158940397350992,NA
18202,Luzerne County,PA,NA,NA,NA,NA,99.42528735632183
18472,Wayne County,PA,96.35135135135135,NA,NA,NA,NA
18504,Lackawanna County,PA,NA,NA,31.30434782608696,NA,NA
18508,Lackawanna County,PA,NA,NA,NA,79.47019867549669,NA
18603,Columbia County,PA,NA,NA,44.34782608695652,NA,NA
18706,Luzerne County,PA,NA,NA,NA,34.105960264900666,NA
18974,Bucks County,PA,NA,NA,NA,NA,2.8735632183908044
19003,Montgomery County,PA,NA,NA,NA,NA,85.0574712643678
19007,Bucks County,PA,NA,NA,25.43478260869565,NA,NA
19015,Delaware County,PA,92.02702702702703,NA,NA,NA,NA
19040,Montgomery County,PA,58.91891891891892,NA,NA,NA,NA
19082,Delaware County,PA,NA,NA,9.565217391304348,NA,NA
19090,Montgomery County,PA,NA,NA,50.43478260869565,80.13245033112582,NA
19119,Philadelphia County,PA,NA,91.81286549707602,NA,NA,NA
19124,Philadelphia County,PA,NA,NA,NA,7.6158940397351,NA
19128,Philadelphia County,PA,NA,NA,17.82608695652174,NA,NA
19131,Philadelphia County,PA,70.67567567567568,NA,NA,NA,NA
19134,Philadelphia County,PA,NA,27.485380116959064,NA,NA,NA
19136,Philadelphia County,PA,NA,NA,10.217391304347826,NA,47.701149425287355
19138,Philadelphia County,PA,NA,NA,12.173913043478262,NA,NA
19140,Philadelphia County,PA,NA,NA,NA,NA,44.827586206896555
19145,Philadelphia County,PA,37.027027027027025,NA,NA,NA,NA
19149,Philadelphia County,PA,29.324324324324323,NA,NA,NA,NA
19320,Chester County,PA,3.783783783783784,NA,NA,NA,NA
19335,Chester County,PA,NA,NA,17.17391304347826,NA,NA
19348,Chester County,PA,37.972972972972975,NA,NA,NA,NA
19363,Chester County,PA,85.54054054054055,NA,NA,NA,70.11494252873564
19405,Montgomery County,PA,NA,NA,98.26086956521739,NA,NA
19406,Montgomery County,PA,NA,82.45614035087719,NA,NA,NA
19438,Montgomery County,PA,NA,NA,49.56521739130435,NA,NA
19446,Montgomery County,PA,NA,NA,NA,12.91390728476821,7.471264367816093
19601,Berks County,PA,NA,37.42690058479532,NA,NA,NA
19606,Berks County,PA,19.054054054054053,NA,NA,NA,NA
19607,Berks County,PA,37.16216216216216,NA,NA,NA,NA
19608,Berks County,PA,27.297297297297295,NA,NA,NA,NA
02840,Newport County,RI,NA,NA,NA,25.165562913907287,NA
02860,Providence County,RI,27.027027027027028,NA,NA,NA,NA
02888,Kent County,RI,NA,NA,NA,77.15231788079471,NA
02895,Providence County,RI,NA,NA,NA,NA,77.01149425287356
02907,Providence County,RI,NA,NA,NA,54.63576158940398,NA
02909,Providence County,RI,NA,NA,18.26086956521739,NA,NA
02920,Providence County,RI,NA,NA,29.565217391304348,NA,NA
29045,Kershaw County,SC,NA,NA,74.34782608695653,NA,NA
29063,Richland County,SC,NA,NA,NA,NA,68.39080459770115
29072,Lexington County,SC,NA,NA,NA,23.841059602649008,NA
29073,Lexington County,SC,40.54054054054054,NA,NA,NA,NA
29154,Sumter County,SC,NA,NA,NA,NA,75.28735632183908
29203,Richland County,SC,23.10810810810811,NA,NA,59.60264900662252,NA
29204,Richland County,SC,38.513513513513516,NA,NA,NA,NA
29229,Richland County,SC,49.86486486486486,NA,NA,NA,NA
29316,Spartanburg County,SC,NA,NA,38.69565217391304,29.47019867549669,NA
29325,Laurens County,SC,NA,81.87134502923976,NA,60.264900662251655,NA
29330,Spartanburg County,SC,NA,NA,NA,NA,96.55172413793103
29485,Dorchester County,SC,NA,NA,28.043478260869563,NA,57.47126436781609
29486,Berkeley County,SC,26.62162162162162,NA,NA,NA,NA
29488,Colleton County,SC,55.945945945945944,NA,NA,NA,NA
29571,Marion County,SC,NA,69.00584795321637,NA,NA,NA
29605,Greenville County,SC,22.432432432432435,NA,NA,NA,NA
29611,Greenville County,SC,NA,NA,12.391304347826088,NA,NA
29627,Anderson County,SC,NA,NA,NA,60.59602649006622,NA
29640,Pickens County,SC,NA,NA,NA,NA,34.48275862068966
29669,Anderson County,SC,NA,NA,NA,63.90728476821192,NA
29681,Greenville County,SC,NA,NA,NA,12.251655629139073,NA
29707,Lancaster County,SC,82.56756756756756,NA,NA,NA,NA
29906,Beaufort County,SC,NA,NA,89.13043478260869,NA,NA
29926,Beaufort County,SC,NA,NA,NA,NA,40.229885057471265
57006,Brookings County,SD,NA,NA,66.08695652173913,NA,NA
57104,Minnehaha County,SD,16.756756756756758,NA,NA,NA,NA
57106,Minnehaha County,SD,NA,NA,22.17391304347826,NA,NA
57201,Codington County,SD,NA,NA,76.73913043478261,NA,56.896551724137936
37013,Davidson County,TN,2.1621621621621623,NA,NA,NA,NA
37027,Williamson County,TN,NA,94.73684210526315,NA,NA,NA
37036,Dickson County,TN,NA,NA,92.3913043478261,97.68211920529801,NA
37040,Montgomery County,TN,NA,NA,24.565217391304348,NA,NA
37042,Montgomery County,TN,NA,NA,23.695652173913043,NA,NA
37064,Williamson County,TN,16.486486486486488,NA,NA,NA,NA
37066,Sumner County,TN,NA,19.298245614035086,NA,NA,NA
37067,Williamson County,TN,77.16216216216216,NA,NA,NA,NA
37086,Rutherford County,TN,25.270270270270267,NA,NA,NA,NA
37087,Wilson County,TN,19.72972972972973,NA,NA,87.41721854304636,NA
37091,Marshall County,TN,NA,NA,40,NA,NA
37130,Rutherford County,TN,18.10810810810811,NA,NA,NA,NA
37135,Williamson County,TN,NA,NA,97.3913043478261,NA,NA
37160,Bedford County,TN,NA,35.67251461988304,NA,NA,NA
37185,Humphreys County,TN,87.16216216216216,NA,NA,NA,NA
37207,Davidson County,TN,10.135135135135135,NA,NA,NA,NA
37209,Davidson County,TN,NA,NA,31.956521739130434,NA,NA
37217,Davidson County,TN,NA,NA,NA,58.609271523178805,NA
37321,Rhea County,TN,26.756756756756754,NA,NA,NA,NA
37327,Sequatchie County,TN,72.70270270270271,NA,NA,NA,NA
37343,Hamilton County,TN,60.27027027027027,NA,NA,NA,NA
37355,Coffee County,TN,82.97297297297297,NA,NA,NA,NA
37404,Hamilton County,TN,45,NA,NA,NA,NA
37407,Hamilton County,TN,74.5945945945946,NA,NA,NA,NA
37601,Washington County,TN,NA,NA,16.304347826086957,NA,NA
37618,Sullivan County,TN,64.86486486486487,NA,NA,NA,NA
37620,Sullivan County,TN,61.08108108108108,NA,NA,NA,NA
37716,Anderson County,TN,NA,NA,37.173913043478265,NA,NA
37743,Greene County,TN,22.027027027027028,NA,NA,NA,10.919540229885058
37766,Campbell County,TN,NA,NA,NA,NA,35.63218390804598
37801,Blount County,TN,18.91891891891892,NA,NA,NA,NA
37814,Hamblen County,TN,39.729729729729726,NA,NA,NA,NA
37854,Roane County,TN,NA,NA,59.56521739130435,NA,NA
37865,Sevier County,TN,NA,NA,41.30434782608695,NA,NA
37877,Hamblen County,TN,NA,NA,96.52173913043478,NA,NA
37918,Knox County,TN,NA,NA,13.695652173913043,86.09271523178808,NA
37920,Knox County,TN,27.432432432432428,NA,NA,NA,NA
37921,Knox County,TN,13.513513513513514,NA,29.782608695652176,NA,NA
37931,Knox County,TN,NA,NA,NA,62.913907284768214,NA
38004,Tipton County,TN,92.29729729729729,NA,NA,NA,NA
38017,Shelby County,TN,NA,NA,47.608695652173914,NA,NA
38018,Shelby County,TN,47.56756756756757,NA,NA,NA,NA
38106,Shelby County,TN,NA,NA,NA,75.49668874172185,NA
38118,Shelby County,TN,30.135135135135133,NA,NA,NA,NA
38126,Shelby County,TN,90.4054054054054,NA,NA,NA,NA
38128,Shelby County,TN,NA,7.017543859649122,NA,NA,NA
38134,Shelby County,TN,34.5945945945946,NA,NA,NA,NA
38305,Madison County,TN,NA,NA,81.30434782608695,NA,NA
38310,McNairy County,TN,NA,NA,NA,83.11258278145695,NA
38363,Decatur County,TN,83.78378378378379,NA,NA,NA,NA
38401,Maury County,TN,NA,NA,NA,5.298013245033113,NA
38464,Lawrence County,TN,NA,NA,32.391304347826086,NA,NA
38478,Giles County,TN,59.45945945945946,NA,NA,NA,NA
38506,Putnam County,TN,78.51351351351352,NA,NA,NA,NA
38551,Clay County,TN,NA,NA,94.34782608695652,NA,NA
75021,Grayson County,TX,NA,NA,NA,NA,97.70114942528735
75023,Collin County,TX,NA,NA,NA,35.430463576158935,NA
75038,Dallas County,TX,57.567567567567565,NA,NA,NA,NA
75052,Dallas County,TX,12.162162162162163,NA,NA,NA,NA
75075,Collin County,TX,38.108108108108105,NA,NA,NA,NA
75077,Denton County,TX,NA,NA,NA,51.324503311258276,NA
75078,Collin County,TX,NA,NA,76.73913043478261,NA,NA
75090,Grayson County,TX,NA,NA,NA,58.94039735099338,NA
75093,Collin County,TX,NA,NA,51.08695652173913,NA,NA
75142,Kaufman County,TX,NA,NA,NA,65.56291390728477,NA
75159,Dallas County,TX,NA,NA,71.08695652173913,NA,NA
75173,Collin County,TX,NA,NA,NA,99.33774834437085,NA
75202,Dallas County,TX,NA,NA,99.78260869565217,NA,NA
75214,Dallas County,TX,50.27027027027027,NA,NA,NA,NA
75217,Dallas County,TX,NA,5.847953216374268,NA,NA,NA
75243,Dallas County,TX,NA,NA,13.478260869565217,NA,NA
75442,Collin County,TX,NA,NA,NA,95.36423841059603,NA
75455,Titus County,TX,NA,30.994152046783626,NA,NA,NA
75457,Franklin County,TX,NA,NA,NA,NA,95.40229885057471
75462,Lamar County,TX,NA,NA,NA,84.76821192052981,NA
75662,Gregg County,TX,25.405405405405407,NA,NA,NA,NA
75672,Harrison County,TX,66.48648648648648,NA,NA,NA,NA
75701,Smith County,TX,NA,NA,69.56521739130434,NA,NA
75702,Smith County,TX,43.24324324324324,NA,NA,NA,NA
75703,Smith County,TX,16.62162162162162,NA,NA,NA,NA
75803,Anderson County,TX,NA,NA,66.73913043478261,NA,NA
75844,Houston County,TX,NA,NA,92.82608695652173,NA,NA
76011,Tarrant County,TX,NA,NA,58.04347826086956,NA,NA
76018,Tarrant County,TX,NA,NA,NA,NA,97.12643678160919
76021,Tarrant County,TX,36.21621621621622,NA,NA,NA,NA
76036,Tarrant County,TX,45.13513513513514,NA,NA,NA,NA
76043,Somervell County,TX,NA,NA,NA,NA,91.37931034482759
76049,Hood County,TX,NA,NA,38.04347826086957,NA,NA
76102,Tarrant County,TX,NA,NA,90.21739130434783,NA,NA
76104,Tarrant County,TX,29.45945945945946,NA,NA,NA,NA
76106,Tarrant County,TX,NA,NA,NA,17.880794701986755,NA
76115,Tarrant County,TX,NA,NA,52.391304347826086,NA,NA
76119,Tarrant County,TX,NA,NA,NA,5.960264900662252,NA
76164,Tarrant County,TX,NA,NA,72.17391304347827,NA,NA
76177,Tarrant County,TX,NA,NA,NA,98.34437086092716,NA
76248,Tarrant County,TX,61.891891891891895,NA,NA,NA,NA
76266,Denton County,TX,NA,NA,NA,NA,89.08045977011494
76302,Wichita County,TX,NA,60.81871345029239,NA,NA,NA
76308,Wichita County,TX,NA,NA,NA,93.04635761589404,NA
76365,Clay County,TX,NA,NA,NA,81.12582781456953,NA
76424,Stephens County,TX,59.05405405405405,NA,NA,NA,NA
76522,Coryell County,TX,9.864864864864865,NA,NA,NA,NA
76633,McLennan County,TX,83.37837837837839,NA,NA,NA,NA
76655,McLennan County,TX,NA,NA,94.56521739130434,NA,NA
76667,Limestone County,TX,45.67567567567568,NA,NA,NA,NA
76712,McLennan County,TX,NA,86.54970760233918,NA,NA,NA
76825,McCulloch County,TX,NA,80.7017543859649,NA,NA,NA
76901,Tom Green County,TX,47.56756756756757,NA,NA,NA,NA
77016,Harris County,TX,NA,NA,NA,NA,55.172413793103445
77027,Harris County,TX,NA,NA,82.82608695652173,NA,NA
77034,Harris County,TX,20.135135135135133,NA,NA,NA,NA
77038,Harris County,TX,65.94594594594595,NA,NA,NA,NA
77040,Harris County,TX,NA,NA,48.04347826086956,NA,NA
77047,Harris County,TX,NA,NA,NA,75.82781456953643,NA
77055,Harris County,TX,51.75675675675676,NA,61.30434782608696,NA,NA
77062,Harris County,TX,NA,NA,63.26086956521739,NA,NA
77064,Harris County,TX,NA,NA,36.08695652173913,NA,NA
77065,Harris County,TX,NA,55.55555555555556,NA,NA,NA
77075,Harris County,TX,55.67567567567567,NA,NA,NA,NA
77077,Harris County,TX,45.13513513513514,NA,NA,NA,NA
77084,Harris County,TX,NA,NA,11.73913043478261,NA,NA
77088,Harris County,TX,NA,NA,30.434782608695656,NA,NA
77095,Harris County,TX,19.18918918918919,NA,NA,NA,NA
77316,Montgomery County,TX,NA,NA,NA,65.89403973509934,NA
77327,Liberty County,TX,49.05405405405405,NA,NA,NA,NA
77338,Harris County,TX,NA,NA,NA,62.58278145695364,NA
77356,Montgomery County,TX,NA,94.15204678362574,NA,NA,NA
77377,Harris County,TX,NA,82.45614035087719,NA,NA,NA
77381,Montgomery County,TX,NA,NA,68.26086956521739,NA,NA
77386,Montgomery County,TX,NA,NA,68.04347826086956,NA,NA
77389,Harris County,TX,NA,NA,58.26086956521739,NA,NA
77433,Harris County,TX,NA,NA,NA,15.562913907284766,NA
77449,Harris County,TX,NA,NA,NA,22.8476821192053,NA
77450,Harris County,TX,NA,NA,NA,NA,51.14942528735632
77469,Fort Bend County,TX,NA,NA,64.34782608695652,NA,NA
77478,Fort Bend County,TX,72.16216216216216,NA,NA,NA,NA
77479,Fort Bend County,TX,NA,NA,NA,15.894039735099339,NA
77494,Fort Bend County,TX,5.27027027027027,NA,NA,NA,NA
77502,Harris County,TX,NA,NA,56.086956521739125,NA,NA
77505,Harris County,TX,NA,NA,NA,67.21854304635761,NA
77510,Galveston County,TX,64.5945945945946,NA,NA,NA,NA
77515,Brazoria County,TX,NA,NA,51.52173913043478,NA,NA
77532,Harris County,TX,52.43243243243243,NA,NA,NA,NA
77536,Harris County,TX,NA,NA,39.34782608695652,NA,NA
77546,Galveston County,TX,NA,NA,NA,8.27814569536424,NA
77573,Galveston County,TX,1.3513513513513513,NA,NA,NA,NA
77584,Brazoria County,TX,46.75675675675676,NA,NA,NA,NA
77640,Jefferson County,TX,NA,NA,NA,67.88079470198676,NA
77642,Jefferson County,TX,11.486486486486488,NA,NA,NA,NA
77662,Orange County,TX,NA,61.98830409356725,NA,NA,NA
77901,Victoria County,TX,13.378378378378377,NA,NA,NA,NA
77964,Lavaca County,TX,80.94594594594594,NA,NA,NA,NA
78052,Atascosa County,TX,NA,NA,96.73913043478261,NA,NA
78121,Wilson County,TX,NA,NA,NA,90.06622516556291,NA
78155,Guadalupe County,TX,NA,NA,NA,NA,39.08045977011494
78204,Bexar County,TX,66.21621621621621,NA,NA,NA,NA
78207,Bexar County,TX,2.837837837837838,NA,NA,50.993377483443716,NA
78223,Bexar County,TX,NA,NA,NA,NA,36.206896551724135
78228,Bexar County,TX,NA,NA,29.130434782608695,NA,NA
78231,Bexar County,TX,NA,NA,95.65217391304348,NA,NA
78247,Bexar County,TX,31.351351351351354,NA,NA,NA,NA
78266,Comal County,TX,NA,NA,NA,96.02649006622516,NA
78410,Nueces County,TX,NA,NA,NA,78.1456953642384,NA
78526,Cameron County,TX,40.945945945945944,NA,NA,NA,NA
78541,Hidalgo County,TX,25.810810810810807,NA,NA,NA,NA
78570,Hidalgo County,TX,54.18918918918919,0.5847953216374269,NA,NA,NA
78574,Hidalgo County,TX,42.7027027027027,NA,NA,NA,NA
78596,Hidalgo County,TX,39.729729729729726,NA,NA,NA,NA
78624,Gillespie County,TX,75.27027027027027,NA,NA,NA,NA
78640,Hays County,TX,NA,NA,43.26086956521739,NA,NA
78641,Williamson County,TX,30.54054054054054,NA,NA,NA,NA
78648,Caldwell County,TX,69.86486486486486,NA,NA,NA,NA
78664,Williamson County,TX,42.2972972972973,NA,NA,NA,NA
78666,Hays County,TX,14.45945945945946,NA,NA,NA,NA
78704,Travis County,TX,NA,NA,70.21739130434783,NA,NA
78732,Travis County,TX,86.75675675675676,NA,NA,NA,NA
78741,Travis County,TX,NA,26.900584795321635,NA,NA,NA
78749,Travis County,TX,NA,NA,89.34782608695652,NA,NA
78758,Travis County,TX,NA,NA,55.869565217391305,NA,NA
78759,Travis County,TX,86.08108108108108,NA,NA,85.43046357615894,NA
79364,Lubbock County,TX,NA,NA,NA,88.0794701986755,NA
79403,Lubbock County,TX,NA,NA,NA,52.317880794701985,NA
79423,Lubbock County,TX,NA,NA,29.782608695652176,NA,36.7816091954023
79549,Scurry County,TX,NA,NA,NA,43.70860927152318,NA
79556,Nolan County,TX,64.32432432432432,NA,NA,NA,NA
79706,Midland County,TX,NA,NA,NA,68.54304635761589,NA
79707,Midland County,TX,12.972972972972974,NA,NA,NA,NA
79720,Howard County,TX,53.783783783783775,NA,NA,NA,NA
79763,Ector County,TX,NA,NA,NA,42.71523178807947,NA
79764,Ector County,TX,NA,NA,58.69565217391305,NA,NA
79782,Martin County,TX,87.70270270270271,NA,NA,NA,NA
79907,El Paso County,TX,NA,NA,37.391304347826086,NA,NA
79912,El Paso County,TX,NA,NA,27.391304347826086,NA,NA
79936,El Paso County,TX,11.081081081081082,1.1695906432748537,11.956521739130435,NA,47.12643678160919
84010,Davis County,UT,40.54054054054054,NA,42.173913043478265,NA,NA
84015,Davis County,UT,15.54054054054054,NA,NA,NA,NA
84041,Davis County,UT,17.83783783783784,NA,36.52173913043478,NA,NA
84047,Salt Lake County,UT,NA,NA,NA,46.35761589403973,NA
84074,Tooele County,UT,NA,NA,3.260869565217391,NA,NA
84078,Uintah County,UT,3.6486486486486487,NA,16.08695652173913,NA,NA
84106,Salt Lake County,UT,51.891891891891895,NA,NA,NA,NA
84108,Salt Lake County,UT,NA,NA,NA,NA,41.95402298850575
84120,Salt Lake County,UT,7.7027027027027035,NA,7.173913043478261,NA,NA
84124,Salt Lake County,UT,NA,NA,78.69565217391305,NA,NA
84501,Carbon County,UT,49.45945945945946,NA,NA,NA,NA
84647,Sanpete County,UT,92.43243243243244,NA,NA,NA,NA
84651,Utah County,UT,NA,NA,73.04347826086956,NA,NA
84738,Washington County,UT,92.97297297297298,NA,NA,NA,NA
84790,Washington County,UT,NA,NA,NA,10.264900662251655,NA
05346,Windham County,VT,NA,NA,NA,NA,85.63218390804597
05452,Chittenden County,VT,83.78378378378379,NA,NA,NA,NA
05468,Chittenden County,VT,87.83783783783784,NA,NA,NA,NA
05733,Rutland County,VT,NA,NA,NA,NA,87.356321839080465
20164,Loudoun County,VA,66.48648648648648,NA,NA,NA,NA
20175,Loudoun County,VA,61.08108108108108,NA,NA,NA,NA
22032,Fairfax County,VA,63.78378378378379,NA,NA,NA,NA
22039,Fairfax County,VA,NA,NA,NA,78.80794701986756,NA
22041,Fairfax County,VA,NA,NA,89.56521739130436,NA,NA
22042,Fairfax County,VA,39.32432432432432,NA,NA,NA,NA
22192,Prince William County,VA,27.56756756756757,NA,NA,NA,NA
22207,Arlington County,VA,NA,NA,NA,43.377483443708606,NA
22302,Alexandria city,VA,69.32432432432432,NA,NA,NA,NA
22304,Alexandria city,VA,NA,47.368421052631575,NA,NA,NA
22308,Fairfax County,VA,78.10810810810811,NA,NA,NA,NA
22401,Fredericksburg city,VA,NA,NA,NA,73.84105960264901,NA
22405,Stafford County,VA,93.10810810810811,NA,NA,NA,NA
22407,Spotsylvania County,VA,NA,NA,NA,15.2317880794702,NA
22443,Westmoreland County,VA,NA,NA,NA,NA,81.60919540229885
22556,Stafford County,VA,NA,NA,72.60869565217392,NA,NA
22580,Caroline County,VA,68.64864864864865,NA,NA,NA,NA
22601,Winchester city,VA,NA,32.16374269005848,NA,NA,NA
22801,Harrisonburg city,VA,46.21621621621622,NA,NA,NA,NA
22815,Rockingham County,VA,NA,NA,54.78260869565217,NA,NA
22968,Greene County,VA,39.729729729729726,NA,NA,NA,90.22988505747126
23059,Henrico County,VA,NA,NA,79.34782608695652,NA,NA
23093,Louisa County,VA,NA,NA,NA,61.58940397350994,NA
23220,Richmond city,VA,NA,NA,NA,NA,86.7816091954023
23238,Henrico County,VA,95,NA,NA,NA,NA
23434,Suffolk city,VA,NA,29.239766081871345,NA,NA,NA
23454,Virginia Beach city,VA,48.78378378378378,NA,NA,NA,NA
23607,Newport News city,VA,35,NA,NA,NA,NA
23662,Poquoson city,VA,NA,NA,NA,NA,69.54022988505747
23704,Portsmouth city,VA,37.567567567567565,NA,NA,NA,NA
23805,Petersburg city,VA,NA,NA,56.086956521739125,NA,NA
23834,Colonial Heights city,VA,NA,NA,49.34782608695652,NA,NA
23842,Prince George County,VA,97.16216216216216,NA,NA,NA,NA
23847,Greensville County,VA,56.21621621621622,NA,NA,NA,NA
24014,Roanoke city,VA,54.59459459459459,NA,NA,NA,NA
24018,Roanoke County,VA,85,NA,NA,NA,NA
24055,Henry County,VA,NA,NA,65.21739130434783,NA,NA
24136,Giles County,VA,99.45945945945947,NA,NA,NA,NA
24151,Franklin County,VA,NA,NA,47.608695652173914,NA,NA
24171,Patrick County,VA,NA,NA,75.21739130434783,NA,NA
24219,Wise County,VA,60.67567567567568,NA,NA,NA,NA
24540,Danville city,VA,NA,NA,28.26086956521739,NA,NA
24572,Amherst County,VA,64.86486486486487,NA,NA,NA,NA
98008,King County,WA,46.35135135135135,NA,NA,NA,NA
98029,King County,WA,NA,NA,64.13043478260869,NA,NA
98092,King County,WA,11.891891891891893,NA,NA,NA,NA
98103,King County,WA,51.08108108108108,NA,NA,NA,NA
98121,King County,WA,NA,NA,NA,NA,98.27586206896551
98208,Snohomish County,WA,18.243243243243242,NA,NA,23.509933774834437,NA
98258,Snohomish County,WA,11.756756756756758,NA,NA,48.34437086092716,NA
98270,Snohomish County,WA,NA,NA,52.826086956521735,NA,NA
98272,Snohomish County,WA,NA,NA,60,NA,NA
98273,Skagit County,WA,18.783783783783782,NA,NA,NA,NA
98311,Kitsap County,WA,65.27027027027027,NA,NA,NA,NA
98374,Pierce County,WA,NA,NA,43.69565217391304,NA,NA
98391,Pierce County,WA,NA,NA,14.130434782608695,NA,NA
98408,Pierce County,WA,NA,NA,62.82608695652174,NA,NA
98607,Clark County,WA,NA,99.41520467836257,77.6086956521739,NA,NA
98685,Clark County,WA,75,NA,NA,NA,NA
98801,Chelan County,WA,38.78378378378378,NA,NA,NA,NA
98926,Kittitas County,WA,80,NA,NA,NA,NA
98930,Yakima County,WA,57.83783783783784,NA,NA,NA,NA
99019,Spokane County,WA,NA,NA,95.86956521739131,NA,NA
99301,Franklin County,WA,1.4864864864864866,NA,NA,NA,NA
99336,Benton County,WA,NA,11.695906432748536,NA,NA,NA
99337,Benton County,WA,21.216216216216218,NA,NA,NA,NA
99338,Benton County,WA,43.108108108108105,NA,NA,NA,NA
99344,Adams County,WA,NA,NA,NA,90.72847682119205,NA
20010,District of Columbia,DC,NA,NA,NA,49.668874172185426,NA
20024,District of Columbia,DC,NA,NA,60.652173913043484,NA,NA
20032,District of Columbia,DC,NA,NA,4.565217391304348,NA,NA
25314,Kanawha County,WV,70.54054054054055,NA,NA,NA,NA
25401,Berkeley County,WV,57.83783783783784,NA,NA,NA,NA
25526,Putnam County,WV,NA,NA,38.26086956521739,NA,NA
25801,Raleigh County,WV,45.94594594594595,NA,NA,NA,NA
26003,Ohio County,WV,NA,NA,NA,38.079470198675494,NA
26037,Brooke County,WV,NA,NA,80.21739130434783,NA,NA
26070,Brooke County,WV,NA,NA,NA,NA,37.35632183908046
26101,Wood County,WV,NA,NA,NA,NA,17.81609195402299
26301,Harrison County,WV,88.10810810810811,NA,NA,NA,NA
26416,Barbour County,WV,58.513513513513516,NA,NA,NA,NA
26426,Harrison County,WV,95.67567567567568,NA,NA,NA,NA
26505,Monongalia County,WV,NA,71.9298245614035,NA,NA,NA
26547,Preston County,WV,88.78378378378379,NA,NA,NA,NA
53014,Calumet County,WI,NA,88.30409356725146,NA,NA,NA
53022,Washington County,WI,NA,NA,66.95652173913044,NA,NA
53095,Washington County,WI,NA,NA,53.69565217391305,NA,NA
53110,Milwaukee County,WI,35.54054054054054,NA,NA,NA,NA
53190,Walworth County,WI,48.64864864864865,NA,NA,NA,NA
53204,Milwaukee County,WI,NA,NA,5.6521739130434785,NA,NA
53209,Milwaukee County,WI,NA,NA,NA,NA,8.620689655172415
53214,Milwaukee County,WI,17.972972972972972,NA,NA,NA,NA
53216,Milwaukee County,WI,3.2432432432432434,NA,NA,NA,NA
53220,Milwaukee County,WI,43.24324324324324,NA,NA,NA,NA
53224,Milwaukee County,WI,47.16216216216216,NA,NA,NA,NA
53551,Jefferson County,WI,86.21621621621621,NA,NA,NA,NA
54002,St. Croix County,WI,NA,NA,88.47826086956522,NA,NA
54022,Pierce County,WI,NA,NA,80.65217391304348,NA,NA
54115,Brown County,WI,81.89189189189189,NA,NA,NA,NA
54143,Marinette County,WI,46.08108108108108,NA,NA,NA,NA
54452,Lincoln County,WI,NA,NA,NA,NA,23.563218390804597
54650,La Crosse County,WI,56.21621621621622,NA,NA,NA,NA
54904,Winnebago County,WI,75.8108108108108,NA,NA,NA,NA
54935,Fond du Lac County,WI,22.56756756756757,NA,NA,NA,NA
54937,Fond du Lac County,WI,NA,NA,44.565217391304344,NA,NA
54940,Waupaca County,WI,NA,NA,NA,98.67549668874173,NA
54952,Winnebago County,WI,NA,NA,NA,37.41721854304636,NA
54961,Waupaca County,WI,NA,NA,NA,46.688741721854306,NA
