ZipCode,county,state,Adult,Retirement
35062,Jefferson County,AL,NA,88.67924528301887
35068,Jefferson County,AL,NA,91.98113207547169
35077,Cullman County,AL,NA,74.52830188679245
35120,St. Clair County,AL,60.24759284731774,NA
35125,St. Clair County,AL,56.808803301237965,NA
35565,Winston County,AL,68.91334250343878,NA
35592,Lamar County,AL,91.88445667125173,NA
35816,Madison County,AL,NA,75
35950,Marshall County,AL,NA,59.905660377358494
35959,Cherokee County,AL,93.53507565337001,NA
35967,DeKalb County,AL,63.411279229711134,NA
36507,Baldwin County,AL,69.60110041265474,NA
36522,Mobile County,AL,85.69463548830811,NA
36703,Dallas County,AL,NA,62.264150943396224
99654,Matanuska-Susitna Borough,AK,37.27647867950481,NA
99835,Sitka City and Borough,AK,59.83493810178817,NA
85020,Maricopa County,AZ,40.44016506189821,NA
85022,Maricopa County,AZ,21.73314993122421,NA
85033,Maricopa County,AZ,17.881705639614857,NA
85044,Maricopa County,AZ,51.031636863823934,NA
85051,Maricopa County,AZ,15.680880330123797,NA
85138,Pinal County,AZ,NA,73.58490566037736
85248,Maricopa County,AZ,NA,33.0188679245283
85301,Maricopa County,AZ,5.364511691884457,NA
85302,Maricopa County,AZ,27.51031636863824,NA
85303,Maricopa County,AZ,76.75378266850069,NA
85344,La Paz County,AZ,40.30261348005502,NA
85345,Maricopa County,AZ,13.480055020632737,NA
85379,Maricopa County,AZ,31.361760660247594,NA
85388,Maricopa County,AZ,66.16231086657497,NA
85621,Santa Cruz County,AZ,46.76753782668501,NA
85648,Santa Cruz County,AZ,51.44429160935351,NA
85713,Pima County,AZ,8.528198074277855,NA
85716,Pima County,AZ,19.80742778541953,29.245283018867923
85718,Pima County,AZ,58.18431911966988,NA
85742,Pima County,AZ,NA,54.71698113207547
85748,Pima County,AZ,79.36726272352132,NA
86004,Coconino County,AZ,8.253094910591471,NA
86326,Yavapai County,AZ,26.13480055020633,NA
86327,Yavapai County,AZ,89.82118294360384,NA
86426,Mohave County,AZ,77.44154057771664,NA
86503,Apache County,AZ,65.74965612104539,NA
86538,Apache County,AZ,89.54607977991746,NA
71753,Columbia County,AR,64.0990371389271,NA
71913,Garland County,AR,NA,27.358490566037734
72117,Pulaski County,AR,52.54470426409904,NA
72360,Lee County,AR,97.24896836313619,NA
72450,Greene County,AR,NA,26.41509433962264
72601,Boone County,AR,54.33287482806052,NA
72901,Sebastian County,AR,52.81980742778541,NA
90002,Los Angeles County,CA,NA,64.62264150943396
90003,Los Angeles County,CA,37.13892709766162,NA
90038,Los Angeles County,CA,74.82806052269602,NA
90047,Los Angeles County,CA,17.05639614855571,NA
90057,Los Angeles County,CA,41.403026134800555,NA
90063,Los Angeles County,CA,50.61898211829436,NA
90254,Los Angeles County,CA,81.01788170563961,NA
90277,Los Angeles County,CA,52.68225584594223,NA
90701,Los Angeles County,CA,87.89546079779917,NA
90706,Los Angeles County,CA,26.960110041265473,NA
90731,Los Angeles County,CA,62.72352132049519,NA
90745,Los Angeles County,CA,NA,34.43396226415094
90805,Los Angeles County,CA,19.669876203576344,NA
91205,Los Angeles County,CA,NA,55.660377358490564
91321,Los Angeles County,CA,67.95048143053644,NA
91340,Los Angeles County,CA,62.86107290233838,NA
91730,San Bernardino County,CA,21.458046767537827,NA
91790,Los Angeles County,CA,51.5818431911967,NA
91910,San Diego County,CA,27.235213204951858,NA
92025,San Diego County,CA,NA,56.60377358490566
92026,San Diego County,CA,NA,52.358490566037744
92108,San Diego County,CA,83.21870701513068,NA
92120,San Diego County,CA,NA,76.88679245283019
92301,San Bernardino County,CA,35.488308115543326,NA
92345,San Bernardino County,CA,11.279229711141678,NA
92404,San Bernardino County,CA,18.982118294360383,NA
92405,San Bernardino County,CA,NA,84.43396226415094
92410,San Bernardino County,CA,NA,73.11320754716981
92539,Riverside County,CA,NA,94.81132075471697
92570,Riverside County,CA,NA,49.056603773584904
92646,Orange County,CA,NA,7.547169811320755
92663,Orange County,CA,77.02888583218707,NA
92683,Orange County,CA,18.707015130674005,NA
92805,Orange County,CA,27.92297111416781,NA
92844,Orange County,CA,87.34525447042641,NA
92860,Riverside County,CA,70.42640990371389,NA
92880,Riverside County,CA,24.484181568088033,NA
93063,Ventura County,CA,36.31361760660248,NA
93065,Ventura County,CA,NA,19.339622641509436
93274,Tulare County,CA,NA,17.452830188679243
93291,Tulare County,CA,22.97111416781293,NA
93422,San Luis Obispo County,CA,48.005502063273724,NA
93442,San Luis Obispo County,CA,80.46767537826685,NA
93444,San Luis Obispo County,CA,59.422283356258596,NA
93446,San Luis Obispo County,CA,59.55983493810179,NA
93534,Los Angeles County,CA,38.239339752407155,NA
93720,Fresno County,CA,NA,26.88679245283019
93905,Monterey County,CA,39.88995873452545,NA
94536,Alameda County,CA,NA,23.58490566037736
94544,Alameda County,CA,20.082530949105916,NA
94551,Alameda County,CA,75.51581843191197,NA
94563,Contra Costa County,CA,83.90646492434664,NA
94565,Contra Costa County,CA,24.071526822558457,NA
95118,Santa Clara County,CA,61.760660247592845,NA
95301,Merced County,CA,47.45529573590097,NA
95336,San Joaquin County,CA,30.81155433287483,NA
95355,Stanislaus County,CA,9.903713892709765,NA
95382,Stanislaus County,CA,26.409903713892707,NA
95492,Sonoma County,CA,62.035763411279234,NA
95603,Placer County,CA,66.57496561210453,NA
95628,Sacramento County,CA,NA,42.45283018867924
95655,Sacramento County,CA,NA,99.52830188679245
95825,Sacramento County,CA,89.95873452544704,NA
95826,Sacramento County,CA,NA,57.54716981132076
95841,Sacramento County,CA,NA,87.73584905660378
95926,Butte County,CA,35.763411279229715,NA
95969,Butte County,CA,32.04951856946355,NA
95991,Sutter County,CA,61.34800550206327,NA
96022,Tehama County,CA,78.1292984869326,NA
96080,Tehama County,CA,44.42916093535076,NA
80011,Arapahoe County,CO,9.353507565337003,NA
80013,Arapahoe County,CO,11.004126547455295,NA
80014,Arapahoe County,CO,32.599724896836314,NA
80015,Arapahoe County,CO,NA,21.69811320754717
80016,Arapahoe County,CO,55.29573590096286,NA
80026,Boulder County,CO,60.79779917469052,NA
80102,Adams County,CO,NA,98.11320754716981
80130,Douglas County,CO,74.82806052269602,NA
80219,Denver County,CO,5.639614855570839,NA
80227,Jefferson County,CO,57.35900962861072,NA
80229,Adams County,CO,15.543328748280604,NA
80521,Larimer County,CO,67.81292984869326,NA
80538,Larimer County,CO,13.067400275103164,NA
80601,Adams County,CO,35.35075653370014,NA
80634,Weld County,CO,3.3012379642365883,NA
80922,El Paso County,CO,55.57083906464925,NA
81050,Otero County,CO,71.52682255845943,NA
81132,Rio Grande County,CO,99.17469050894086,NA
81240,Fremont County,CO,NA,96.22641509433963
81301,La Plata County,CO,54.60797799174691,44.339622641509436
81321,Montezuma County,CO,65.74965612104539,NA
81504,Mesa County,CO,31.49931224209078,NA
81521,Mesa County,CO,68.36313617606602,NA
81632,Eagle County,CO,NA,90.56603773584906
06010,Hartford County,CT,2.7510316368638237,NA
06037,Hartford County,CT,71.52682255845943,NA
06057,Litchfield County,CT,NA,91.50943396226415
06067,Hartford County,CT,67.67537826685007,NA
06082,Hartford County,CT,20.495185694635488,NA
06098,Litchfield County,CT,48.4181568088033,NA
06105,Hartford County,CT,23.93397524071527,NA
06451,New Haven County,CT,NA,40.56603773584906
06475,Middlesex County,CT,NA,61.32075471698113
06810,Fairfield County,CT,16.91884456671252,NA
19802,New Castle County,DE,15.818431911966988,NA
32024,Columbia County,FL,NA,45.28301886792453
32068,Clay County,FL,NA,10.849056603773585
32169,Volusia County,FL,NA,65.56603773584906
32225,Duval County,FL,30.12379642365887,NA
32259,St. Johns County,FL,45.94222833562586,NA
32446,Jackson County,FL,63.13617606602476,NA
32507,Escambia County,FL,39.88995873452545,NA
32641,Alachua County,FL,27.372764786795052,NA
32656,Clay County,FL,69.18844566712518,NA
32725,Volusia County,FL,36.86382393397524,NA
32750,Seminole County,FL,66.02475928473177,NA
32771,Seminole County,FL,18.15680880330124,NA
32822,Orange County,FL,20.77028885832187,NA
32926,Brevard County,FL,71.25171939477303,NA
33010,Miami-Dade County,FL,64.2365887207703,NA
33042,Monroe County,FL,92.57221458046767,NA
33064,Broward County,FL,40.16506189821183,NA
33145,Miami-Dade County,FL,NA,82.54716981132076
33155,Miami-Dade County,FL,NA,35.37735849056604
33157,Miami-Dade County,FL,NA,22.169811320754718
33168,Miami-Dade County,FL,68.6382393397524,NA
33169,Miami-Dade County,FL,43.7414030261348,NA
33177,Miami-Dade County,FL,45.667125171939475,NA
33189,Miami-Dade County,FL,85.14442916093536,NA
33196,Miami-Dade County,FL,63.68638239339752,NA
33311,Broward County,FL,NA,20.754716981132077
33404,Palm Beach County,FL,39.61485557083906,NA
33603,Hillsborough County,FL,60.11004126547456,NA
33613,Hillsborough County,FL,43.328748280605225,NA
33615,Hillsborough County,FL,NA,35.84905660377358
33713,Pinellas County,FL,53.507565337001374,NA
33801,Polk County,FL,25.722145804676757,NA
33810,Polk County,FL,28.61072902338377,NA
33853,Polk County,FL,64.64924346629986,NA
33870,Highlands County,FL,30.39889958734526,NA
33990,Lee County,FL,NA,41.9811320754717
34116,Collier County,FL,48.693259972489685,NA
34429,Citrus County,FL,96.42365887207703,NA
34488,Marion County,FL,NA,80.18867924528303
34613,Hernando County,FL,72.07702888583218,NA
34761,Orange County,FL,NA,43.86792452830189
34772,Osceola County,FL,65.61210453920219,NA
34947,St. Lucie County,FL,53.232462173315,NA
34952,St. Lucie County,FL,NA,9.433962264150944
34974,Okeechobee County,FL,53.782668500687755,NA
30038,DeKalb County,GA,44.29160935350757,NA
30052,Walton County,GA,NA,8.962264150943396
30263,Coweta County,GA,NA,13.20754716981132
30417,Evans County,GA,78.54195323246216,NA
30808,McDuffie County,GA,97.11141678129297,NA
31405,Chatham County,GA,NA,41.0377358490566
31411,Chatham County,GA,99.86244841815682,NA
31701,Dougherty County,GA,46.49243466299862,NA
31773,Thomas County,GA,NA,95.28301886792453
39819,Decatur County,GA,77.57909215955983,NA
96707,Honolulu County,HI,37.41403026134801,NA
96720,Hawaii County,HI,35.213204951856945,NA
96734,Honolulu County,HI,39.47730398899587,NA
96738,Hawaii County,HI,93.25997248968363,NA
96744,Honolulu County,HI,21.73314993122421,NA
96778,Hawaii County,HI,NA,70.28301886792453
96816,Honolulu County,HI,33.97524071526822,NA
83440,Madison County,ID,86.79504814305365,NA
83705,Ada County,ID,NA,14.622641509433961
60013,McHenry County,IL,NA,38.67924528301887
60046,Lake County,IL,41.26547455295736,NA
60053,Cook County,IL,NA,37.264150943396224
60073,Lake County,IL,17.606602475928472,NA
60098,McHenry County,IL,32.737276478679505,NA
60126,DuPage County,IL,11.141678129298487,NA
60137,DuPage County,IL,NA,32.54716981132076
60156,McHenry County,IL,NA,60.84905660377359
60174,Kane County,IL,NA,40.09433962264151
60193,Cook County,IL,41.81568088033013,NA
60403,Will County,IL,59.697386519944985,NA
60441,Will County,IL,25.30949105914718,NA
60445,Cook County,IL,55.84594222833562,NA
60462,Cook County,IL,28.473177441540575,5.660377358490567
60504,DuPage County,IL,NA,63.20754716981132
60510,Kane County,IL,NA,52.83018867924528
60618,Cook County,IL,NA,18.39622641509434
60629,Cook County,IL,7.015130674002751,NA
60631,Cook County,IL,32.874828060522695,NA
60637,Cook County,IL,NA,13.679245283018867
60649,Cook County,IL,NA,8.49056603773585
60901,Kankakee County,IL,18.844566712517192,NA
61244,Rock Island County,IL,NA,78.77358490566037
61603,Peoria County,IL,64.92434662998625,NA
61944,Edgar County,IL,74.82806052269602,NA
62521,Macon County,IL,13.75515818431912,NA
62681,Schuyler County,IL,92.98486932599724,NA
46012,Madison County,IN,NA,19.81132075471698
46123,Hendricks County,IN,74.69050894085282,NA
46241,Marion County,IN,22.145804676753784,NA
46307,Lake County,IN,14.030261348005501,NA
46356,Lake County,IN,62.99862448418156,NA
46360,LaPorte County,IN,6.327372764786795,NA
46375,Lake County,IN,34.11279229711142,NA
46385,Porter County,IN,NA,25.471698113207548
46392,Jasper County,IN,66.71251719394773,NA
46755,Noble County,IN,29.160935350756535,NA
46902,Howard County,IN,21.595598349381017,NA
46953,Grant County,IN,NA,11.79245283018868
47201,Bartholomew County,IN,12.65474552957359,NA
47304,Delaware County,IN,NA,44.81132075471698
47553,Martin County,IN,83.63136176066025,NA
47804,Vigo County,IN,60.52269601100413,NA
47882,Sullivan County,IN,89.2709766162311,NA
50310,Polk County,IA,52.95735900962861,NA
50313,Polk County,IA,NA,71.22641509433963
50315,Polk County,IA,10.041265474552958,NA
50316,Polk County,IA,42.91609353507565,NA
50325,Polk County,IA,87.62035763411279,NA
50702,Black Hawk County,IA,43.7414030261348,83.9622641509434
51501,Pottawattamie County,IA,36.72627235213205,NA
52060,Jackson County,IA,84.04401650618982,NA
52302,Linn County,IA,NA,38.20754716981132
52310,Jones County,IA,88.9958734525447,NA
52404,Linn County,IA,NA,16.9811320754717
52556,Jefferson County,IA,75.24071526822559,NA
52632,Lee County,IA,NA,39.15094339622642
52730,Clinton County,IA,90.78404401650619,NA
52753,Scott County,IA,94.08528198074278,NA
52756,Scott County,IA,98.76203576341128,NA
52806,Scott County,IA,23.24621733149931,NA
66106,Wyandotte County,KS,NA,71.69811320754717
66109,Wyandotte County,KS,53.232462173315,NA
66218,Johnson County,KS,92.1595598349381,NA
66226,Johnson County,KS,NA,96.22641509433963
67207,Sedgwick County,KS,NA,85.84905660377359
40014,Oldham County,KY,NA,70.75471698113208
40118,Jefferson County,KY,54.19532324621733,NA
40165,Bullitt County,KY,15.268225584594223,NA
40175,Hardin County,KY,57.9092159559835,NA
40258,Jefferson County,KY,24.896836313617605,NA
40351,Rowan County,KY,24.346629986244842,NA
40391,Clark County,KY,9.491059147180192,NA
40403,Madison County,KY,25.034387895460796,NA
40444,Garrard County,KY,58.872077028885826,NA
41007,Campbell County,KY,98.62448418156808,NA
41075,Campbell County,KY,NA,84.90566037735849
41129,Boyd County,KY,NA,58.01886792452831
41822,Knott County,KY,99.03713892709766,NA
42001,McCracken County,KY,NA,21.22641509433962
42101,Warren County,KY,30.261348005502064,15.09433962264151
42347,Ohio County,KY,73.86519944979368,NA
42503,Pulaski County,KY,44.70426409903714,NA
42544,Pulaski County,KY,79.6423658872077,NA
42602,Clinton County,KY,NA,76.41509433962264
42717,Cumberland County,KY,NA,80.66037735849056
70043,St. Bernard Parish,LA,63.27372764786795,NA
70072,Jefferson Parish,LA,24.759284731774414,3.30188679245283
70339,Assumption Parish,LA,73.31499312242092,NA
70427,Washington Parish,LA,16.643741403026134,NA
70435,St. Tammany Parish,LA,22.00825309491059,NA
70532,Jefferson Davis Parish,LA,100,NA
71075,Webster Parish,LA,66.43741403026134,NA
71107,Caddo Parish,LA,3.576341127922971,NA
71235,Lincoln Parish,LA,NA,97.16981132075472
71241,Union Parish,LA,88.44566712517194,NA
71373,Concordia Parish,LA,80.05502063273727,NA
71409,Rapides Parish,LA,69.87620357634113,NA
04002,York County,ME,NA,50
04046,York County,ME,79.09215955983494,NA
04743,Aroostook County,ME,NA,85.37735849056604
04901,Kennebec County,ME,NA,3.7735849056603774
20634,St. Mary's County,MD,95.73590096286108,NA
20874,Montgomery County,MD,47.31774415405777,NA
20886,Montgomery County,MD,73.03988995873453,NA
20902,Montgomery County,MD,67.1251719394773,NA
20906,Montgomery County,MD,51.5818431911967,NA
21015,Harford County,MD,70.15130674002751,NA
21074,Carroll County,MD,76.34112792297113,NA
21084,Harford County,MD,97.66162310866575,NA
21231,Baltimore city,MD,64.78679504814305,NA
21236,Baltimore County,MD,NA,43.39622641509434
21403,Anne Arundel County,MD,62.17331499312242,NA
21632,Caroline County,MD,83.08115543328748,NA
21666,Queen Anne's County,MD,90.23383768913342,NA
21703,Frederick County,MD,60.52269601100413,NA
21754,Frederick County,MD,92.84731774415405,NA
21784,Carroll County,MD,78.67950481430537,NA
21793,Frederick County,MD,85.9697386519945,NA
21811,Worcester County,MD,NA,27.830188679245282
21918,Cecil County,MD,97.24896836313619,NA
01056,Hampden County,MA,18.56946354883081,NA
01069,Hampden County,MA,29.848693259972492,NA
01201,Berkshire County,MA,2.200825309491059,NA
01220,Berkshire County,MA,25.034387895460796,NA
01535,Worcester County,MA,78.95460797799174,NA
01571,Worcester County,MA,75.92847317744153,NA
01603,Worcester County,MA,2.4759284731774414,NA
01721,Middlesex County,MA,34.3878954607978,NA
01756,Worcester County,MA,95.59834938101788,NA
01832,Essex County,MA,3.851444291609354,NA
01835,Essex County,MA,33.83768913342504,NA
01852,Middlesex County,MA,0.5502063273727648,NA
01880,Middlesex County,MA,8.940852819807429,NA
01913,Essex County,MA,27.097661623108664,NA
01915,Essex County,MA,13.342503438789546,NA
02021,Norfolk County,MA,87.4828060522696,NA
02093,Norfolk County,MA,56.2585969738652,NA
02109,Suffolk County,MA,NA,98.58490566037736
02118,Suffolk County,MA,0.41265474552957354,NA
02119,Suffolk County,MA,2.3383768913342506,NA
02148,Middlesex County,MA,0,NA
02151,Suffolk County,MA,0.2751031636863824,0
02184,Norfolk County,MA,6.464924346629987,NA
02301,Plymouth County,MA,0.1375515818431912,NA
02332,Plymouth County,MA,70.70151306740028,NA
02339,Plymouth County,MA,69.05089408528198,NA
02341,Plymouth County,MA,43.053645116918844,NA
02476,Middlesex County,MA,NA,28.77358490566038
02481,Norfolk County,MA,56.53370013755158,NA
02601,Barnstable County,MA,5.089408528198074,NA
02648,Barnstable County,MA,73.4525447042641,NA
02723,Bristol County,MA,3.0261348005502064,NA
02748,Bristol County,MA,42.0907840440165,NA
02769,Bristol County,MA,NA,61.79245283018868
02790,Bristol County,MA,23.383768913342504,NA
48005,Macomb County,MI,89.1334250343879,NA
48014,St. Clair County,MI,94.77303988995874,NA
48036,Macomb County,MI,29.298486932599726,67.9245283018868
48040,St. Clair County,MI,70.01375515818432,NA
48043,Macomb County,MI,33.42503438789546,NA
48060,St. Clair County,MI,3.7138927097661623,NA
48072,Oakland County,MI,76.61623108665749,NA
48074,St. Clair County,MI,NA,75.94339622641509
48091,Macomb County,MI,8.11554332874828,NA
48101,Wayne County,MI,55.70839064649243,NA
48116,Livingston County,MI,NA,15.566037735849056
48160,Washtenaw County,MI,NA,58.490566037735846
48167,Oakland County,MI,NA,66.50943396226415
48178,Oakland County,MI,34.3878954607978,NA
48180,Wayne County,MI,3.1636863823933976,NA
48186,Wayne County,MI,6.87757909215956,NA
48192,Wayne County,MI,20.082530949105916,NA
48328,Oakland County,MI,40.852819807427785,NA
48331,Oakland County,MI,38.78954607977992,NA
48346,Oakland County,MI,39.33975240715269,NA
48353,Livingston County,MI,NA,89.15094339622641
48360,Oakland County,MI,NA,66.98113207547169
48381,Oakland County,MI,63.823933975240706,NA
48441,Huron County,MI,90.5089408528198,NA
48617,Clare County,MI,NA,68.86792452830188
48618,Midland County,MI,84.3191196698762,NA
48640,Midland County,MI,10.729023383768913,NA
48642,Midland County,MI,NA,7.0754716981132075
48838,Montcalm County,MI,32.32462173314993,NA
48849,Ionia County,MI,83.49381017881706,NA
48911,Ingham County,MI,8.390646492434662,NA
49001,Kalamazoo County,MI,22.696011004126547,NA
49009,Kalamazoo County,MI,12.792297111416781,NA
49010,Allegan County,MI,NA,46.69811320754717
49017,Calhoun County,MI,30.81155433287483,NA
49022,Berrien County,MI,NA,12.735849056603774
49038,Berrien County,MI,NA,69.33962264150944
49068,Calhoun County,MI,55.98349381017882,NA
49079,Van Buren County,MI,NA,49.528301886792455
49090,Van Buren County,MI,NA,42.45283018867924
49112,Cass County,MI,86.93259972489685,NA
49201,Jackson County,MI,10.178817056396149,NA
49221,Lenawee County,MI,4.53920220082531,NA
49307,Mecosta County,MI,51.169188445667125,NA
49329,Montcalm County,MI,57.22145804676754,NA
49341,Kent County,MI,29.98624484181568,NA
49415,Muskegon County,MI,83.76891334250344,NA
49431,Mason County,MI,34.80055020632737,NA
49445,Muskegon County,MI,NA,20.28301886792453
49503,Kent County,MI,11.691884456671252,NA
49507,Kent County,MI,NA,25
49519,Kent County,MI,18.43191196698762,NA
49649,Grand Traverse County,MI,94.77303988995874,NA
49720,Charlevoix County,MI,80.60522696011004,NA
55119,Ramsey County,MN,14.305364511691884,NA
55303,Anoka County,MN,19.944979367262725,NA
55330,Sherburne County,MN,43.46629986244842,NA
55410,Hennepin County,MN,82.39339752407153,NA
55428,Hennepin County,MN,20.907840440165064,NA
55429,Hennepin County,MN,13.204951856946353,NA
55449,Anoka County,MN,50.06877579092159,NA
55719,St. Louis County,MN,80.19257221458047,NA
55792,St. Louis County,MN,37.551581843191194,NA
55803,St. Louis County,MN,NA,36.32075471698113
55972,Winona County,MN,99.72489683631362,NA
55981,Wabasha County,MN,95.87345254470426,NA
56001,Blue Earth County,MN,33.28748280605227,NA
56031,Martin County,MN,47.04264099037139,NA
56258,Lyon County,MN,88.03301237964236,57.07547169811321
56304,Sherburne County,MN,80.88033012379643,NA
56470,Hubbard County,MN,84.86932599724896,NA
56601,Beltrami County,MN,7.4277854195323245,NA
56636,Itasca County,MN,93.39752407152683,NA
56716,Polk County,MN,31.911966987620353,NA
38829,Prentiss County,MS,47.86795048143054,NA
38834,Alcorn County,MS,50.894085281980736,NA
39074,Scott County,MS,NA,68.39622641509435
39111,Simpson County,MS,72.48968363136176,NA
39212,Hinds County,MS,23.796423658872076,NA
39452,George County,MS,27.785419532324624,NA
39759,Oktibbeha County,MS,64.37414030261348,NA
63379,Lincoln County,MO,30.674002751031637,NA
64050,Jackson County,MO,16.506189821182943,NA
64062,Ray County,MO,57.08390646492435,NA
64076,Lafayette County,MO,67.53782668500688,NA
64117,Clay County,MO,39.20220082530949,NA
64134,Jackson County,MO,13.892709766162312,NA
64601,Livingston County,MO,49.10591471801926,NA
64850,Newton County,MO,17.1939477303989,NA
65560,Dent County,MO,56.671251719394775,NA
65605,Lawrence County,MO,NA,86.79245283018868
65737,Stone County,MO,NA,66.0377358490566
65803,Greene County,MO,NA,12.264150943396226
59047,Park County,MT,89.40852819807428,NA
59105,Yellowstone County,MT,83.35625859697386,NA
59716,Gallatin County,MT,98.34938101788171,NA
68005,Sarpy County,NE,NA,72.64150943396226
68007,Douglas County,NE,NA,94.33962264150944
68118,Douglas County,NE,94.36038514442916,NA
68763,Holt County,NE,98.21182943603851,NA
69101,Lincoln County,NE,25.859697386519947,NA
89120,Clark County,NV,74.41540577716643,NA
89122,Clark County,NV,27.64786795048143,NA
89131,Clark County,NV,73.4525447042641,51.41509433962265
89178,Clark County,NV,NA,91.0377358490566
89429,Lyon County,NV,79.09215955983494,NA
89501,Washoe County,NV,96.01100412654745,NA
89502,Washoe County,NV,21.182943603851445,NA
89503,Washoe County,NV,58.459422283356254,NA
03079,Rockingham County,NH,16.368638239339752,NA
03086,Hillsborough County,NH,98.4869325997249,NA
03103,Hillsborough County,NH,6.740027510316368,NA
07022,Bergen County,NJ,67.2627235213205,NA
07033,Union County,NJ,90.09628610729024,NA
07107,Essex County,NJ,NA,5.188679245283019
07108,Essex County,NJ,2.613480055020633,NA
07202,Union County,NJ,29.02338376891334,NA
07305,Hudson County,NJ,1.5130674002751032,NA
07601,Bergen County,NJ,7.152682255845942,NA
07621,Bergen County,NJ,56.39614855570839,NA
07650,Bergen County,NJ,84.59422283356258,NA
07721,Monmouth County,NJ,99.44979367262724,NA
07731,Monmouth County,NJ,NA,41.509433962264154
07734,Monmouth County,NJ,22.558459422283356,NA
07740,Monmouth County,NJ,NA,6.60377358490566
08002,Camden County,NJ,53.920220082530946,NA
08034,Camden County,NJ,35.900962861072905,NA
08053,Burlington County,NJ,26.822558459422286,NA
08060,Burlington County,NJ,72.62723521320495,NA
08062,Gloucester County,NJ,38.101788170563964,NA
08080,Gloucester County,NJ,12.104539202200826,NA
08088,Burlington County,NJ,NA,29.71698113207547
08092,Ocean County,NJ,98.89958734525447,NA
08094,Gloucester County,NJ,7.565337001375516,NA
08105,Camden County,NJ,9.766162310866575,NA
08109,Camden County,NJ,50.75653370013755,NA
08215,Atlantic County,NJ,66.85006877579092,NA
08629,Mercer County,NJ,32.46217331499312,NA
08731,Ocean County,NJ,39.61485557083906,NA
08742,Ocean County,NJ,61.898211829436036,NA
08753,Ocean County,NJ,2.8885832187070153,NA
08758,Ocean County,NJ,91.74690508940853,NA
08824,Middlesex County,NJ,88.30811554332875,NA
08831,Middlesex County,NJ,31.08665749656121,NA
08872,Middlesex County,NJ,55.43328748280605,NA
87105,Bernalillo County,NM,4.264099037138927,NA
87112,Bernalillo County,NM,14.99312242090784,NA
87505,Santa Fe County,NM,5.777166437414031,NA
87547,,NM,81.56808803301237,NA
88201,Chaves County,NM,36.03851444291609,NA
88346,Lincoln County,NM,99.31224209078404,NA
10002,New York County,NY,4.401650618982118,NA
10009,New York County,NY,10.31636863823934,NA
10026,New York County,NY,26.68500687757909,NA
10029,New York County,NY,1.3755158184319118,NA
10305,Richmond County,NY,20.63273727647868,NA
10309,Richmond County,NY,58.459422283356254,NA
10314,Richmond County,NY,12.929848693259974,NA
10458,Bronx County,NY,0.9628610729023385,NA
10606,Westchester County,NY,82.11829436038515,NA
11207,Kings County,NY,5.502063273727647,NA
11208,Kings County,NY,2.063273727647868,NA
11210,Kings County,NY,NA,22.641509433962266
11234,Kings County,NY,21.320495185694636,NA
11236,Kings County,NY,4.676753782668501,NA
11356,Queens County,NY,74.27785419532324,NA
11421,Queens County,NY,34.93810178817056,NA
11429,Queens County,NY,NA,34.90566037735849
11701,Suffolk County,NY,68.50068775790922,NA
11703,Suffolk County,NY,NA,83.49056603773585
11764,Suffolk County,NY,97.93672627235213,NA
11787,Suffolk County,NY,81.43053645116919,NA
12019,Saratoga County,NY,NA,63.67924528301887
12020,Saratoga County,NY,21.04539202200825,NA
12054,Albany County,NY,86.51994497936725,NA
12209,Albany County,NY,84.4566712517194,NA
12308,Schenectady County,NY,40.852819807427785,NA
12401,Ulster County,NY,22.420907840440165,NA
12508,Dutchess County,NY,74.41540577716643,NA
12831,Saratoga County,NY,47.59284731774415,NA
12839,Washington County,NY,28.885832187070154,NA
12918,Clinton County,NY,85.00687757909216,NA
12946,Essex County,NY,36.86382393397524,NA
12974,Essex County,NY,91.19669876203577,NA
12993,Essex County,NY,95.04814305364512,NA
13036,Oswego County,NY,58.73452544704264,86.32075471698113
13068,Tompkins County,NY,75.51581843191197,NA
13092,Cayuga County,NY,92.02200825309491,NA
13135,Oswego County,NY,61.62310866574966,NA
13143,Wayne County,NY,90.92159559834938,NA
13323,Oneida County,NY,NA,53.77358490566038
13365,Herkimer County,NY,65.06189821182944,NA
13403,Oneida County,NY,NA,77.35849056603774
13408,Madison County,NY,91.60935350756534,NA
13460,Chenango County,NY,49.38101788170564,NA
13642,St. Lawrence County,NY,33.70013755158185,NA
13669,St. Lawrence County,NY,24.20907840440165,NA
13736,Tioga County,NY,94.08528198074278,NA
13778,Chenango County,NY,62.310866574965615,NA
13787,Broome County,NY,82.9436038514443,NA
13827,Tioga County,NY,24.621733149931224,NA
13850,Broome County,NY,NA,4.245283018867925
13862,Broome County,NY,68.7757909215956,NA
14006,Erie County,NY,65.19944979367263,NA
14028,Niagara County,NY,96.28610729023383,NA
14063,Chautauqua County,NY,42.50343878954608,NA
14067,Niagara County,NY,78.2668500687758,NA
14120,Niagara County,NY,5.226960110041266,NA
14127,Erie County,NY,16.23108665749656,NA
14209,Erie County,NY,68.08803301237964,NA
14220,Erie County,NY,14.718019257221457,NA
14221,Erie County,NY,12.379642365887207,NA
14225,Erie County,NY,9.628610729023384,NA
14304,Niagara County,NY,25.447042640990368,NA
14411,Orleans County,NY,28.74828060522696,NA
14437,Livingston County,NY,44.97936726272352,NA
14445,Monroe County,NY,41.67812929848693,NA
14456,Ontario County,NY,9.21595598349381,NA
14482,Genesee County,NY,50.481430536451164,NA
14559,Monroe County,NY,11.829436038514443,NA
14609,Monroe County,NY,1.2379642365887207,NA
14610,Monroe County,NY,NA,25.943396226415093
14624,Monroe County,NY,NA,2.358490566037736
14727,Allegany County,NY,71.80192572214581,NA
14733,Chautauqua County,NY,79.50481430536452,NA
14810,Steuben County,NY,33.42503438789546,NA
27028,Davie County,NC,15.955983493810177,NA
27030,Surry County,NC,7.8404401650618984,NA
27203,Randolph County,NC,28.198074277854197,NA
27292,Davidson County,NC,54.057771664374144,NA
27526,Wake County,NC,NA,23.11320754716981
27608,Wake County,NC,91.05914718019257,NA
27834,Pitt County,NC,NA,54.24528301886793
27870,Halifax County,NC,55.02063273727648,NA
27909,Pasquotank County,NC,13.617606602475929,NA
27959,Dare County,NC,99.58734525447042,NA
28112,Union County,NC,46.9050894085282,NA
28150,Cleveland County,NC,54.470426409903716,NA
28173,Union County,NC,41.54057771664374,NA
28209,Mecklenburg County,NC,NA,75.47169811320755
28304,Cumberland County,NC,31.636863823933975,NA
28306,Bladen County,NC,33.012379642365886,NA
28412,New Hanover County,NC,NA,28.30188679245283
28472,Columbus County,NC,68.22558459422284,NA
28539,Onslow County,NC,71.38927097661623,NA
28602,Catawba County,NC,23.658872077028885,NA
28645,Caldwell County,NC,4.126547455295736,NA
28713,Swain County,NC,70.97661623108665,NA
28786,Haywood County,NC,36.58872077028886,NA
58503,Burleigh County,ND,34.66299862448418,NA
58504,Burleigh County,ND,52.26960110041266,NA
58554,Morton County,ND,NA,67.45283018867924
58763,Mountrail County,ND,95.1856946354883,NA
43019,Knox County,OH,70.83906464924347,NA
43068,Franklin County,OH,10.591471801925723,NA
43204,Franklin County,OH,6.189821182943604,NA
43219,Franklin County,OH,16.09353507565337,NA
43228,Franklin County,OH,3.988995873452544,NA
43230,Franklin County,OH,NA,14.150943396226415
43410,Sandusky County,OH,49.24346629986245,NA
43512,Defiance County,OH,4.814305364511692,NA
43526,Defiance County,OH,47.18019257221458,NA
43571,Lucas County,OH,82.11829436038515,NA
43701,Muskingum County,OH,1.7881705639614855,NA
43812,Coshocton County,OH,6.052269601100413,NA
43938,Jefferson County,OH,50.34387895460798,NA
44011,Lorain County,OH,31.224209078404403,NA
44035,Lorain County,OH,0.6877579092159559,NA
44039,Lorain County,OH,NA,2.8301886792452833
44060,Lake County,OH,NA,0.4716981132075472
44074,Lorain County,OH,NA,50.47169811320755
44089,Erie County,OH,38.239339752407155,10.377358490566039
44102,Cuyahoga County,OH,0.8253094910591471,NA
44109,Cuyahoga County,OH,1.1004126547455295,NA
44137,Cuyahoga County,OH,6.602475928473177,NA
44221,Summit County,OH,15.405777166437415,NA
44230,Wayne County,OH,81.01788170563961,NA
44254,Medina County,OH,NA,82.54716981132076
44305,Summit County,OH,14.855570839064649,NA
44320,Summit County,OH,NA,16.50943396226415
44321,Summit County,OH,NA,46.22641509433962
44403,Trumbull County,OH,81.98074277854195,NA
44446,Trumbull County,OH,14.167812929848694,NA
44451,Mahoning County,OH,97.52407152682255,NA
44601,Stark County,OH,8.665749656121045,NA
44618,Wayne County,OH,NA,82.0754716981132
44662,Stark County,OH,NA,62.735849056603776
44837,Huron County,OH,82.80605226960111,NA
44842,Ashland County,OH,87.75790921595599,NA
45150,Clermont County,OH,NA,31.60377358490566
45177,Clinton County,OH,25.997248968363134,36.79245283018868
45247,Hamilton County,OH,58.872077028885826,NA
45342,Montgomery County,OH,NA,9.90566037735849
45432,Greene County,OH,NA,58.9622641509434
45601,Ross County,OH,1.6506189821182942,NA
45640,Jackson County,OH,NA,6.132075471698113
45662,Scioto County,OH,3.43878954607978,NA
45669,Lawrence County,OH,NA,18.867924528301888
45680,Lawrence County,OH,NA,32.075471698113205
73012,Oklahoma County,OK,48.28060522696011,NA
73080,McClain County,OK,77.30398899587345,NA
73159,Oklahoma County,OK,46.354883081155435,NA
73644,Beckham County,OK,56.121045392022005,NA
74008,Tulsa County,OK,64.51169188445667,NA
74346,Delaware County,OK,86.24484181568089,NA
74429,Wagoner County,OK,75.37826685006877,NA
74432,McIntosh County,OK,78.81705639614856,NA
74804,Pottawatomie County,OK,NA,47.16981132075472
97023,Clackamas County,OR,86.65749656121045,NA
97062,Washington County,OR,57.63411279229711,NA
97080,Multnomah County,OR,26.5474552957359,NA
97132,Yamhill County,OR,NA,30.18867924528302
97146,Clatsop County,OR,NA,79.71698113207547
97239,Multnomah County,OR,84.181568088033,NA
97303,Marion County,OR,42.64099037138927,NA
97403,Lane County,OR,96.14855570839065,NA
97424,Lane County,OR,45.39202200825309,NA
97487,Lane County,OR,93.12242090784044,NA
97818,Morrow County,OR,84.59422283356258,NA
15001,Beaver County,PA,22.283356258596974,NA
15010,Beaver County,PA,22.833562585969737,NA
15122,Allegheny County,PA,49.79367262723521,NA
15133,Allegheny County,PA,87.07015130674003,NA
15211,Allegheny County,PA,85.8321870701513,NA
15237,Allegheny County,PA,48.968363136176066,NA
15238,Allegheny County,PA,NA,55.188679245283026
15666,Westmoreland County,PA,50.20632737276479,NA
15714,Cambria County,PA,76.75378266850069,NA
16057,Butler County,PA,63.96148555708391,NA
16101,Lawrence County,PA,28.335625859697387,NA
16105,Lawrence County,PA,57.49656121045392,NA
16127,Mercer County,PA,69.32599724896836,NA
16242,Clarion County,PA,NA,93.86792452830188
16335,Crawford County,PA,11.416781292984869,NA
16602,Blair County,PA,14.442916093535077,NA
16735,McKean County,PA,88.17056396148556,NA
16823,Centre County,PA,23.108665749656122,NA
17023,Dauphin County,PA,NA,99.05660377358491
17222,Franklin County,PA,76.06602475928473,NA
17322,York County,PA,88.85832187070152,NA
17603,Lancaster County,PA,10.453920220082532,NA
17754,Lycoming County,PA,63.54883081155434,NA
17824,Northumberland County,PA,95.460797799174685,NA
18013,Northampton County,PA,38.514442916093536,NA
18014,Northampton County,PA,44.15405777166438,NA
18017,Northampton County,PA,7.290233837689134,NA
18018,Lehigh County,PA,NA,8.018867924528301
18049,Lehigh County,PA,44.56671251719395,NA
18064,Northampton County,PA,42.77854195323246,NA
18074,Montgomery County,PA,93.6726272352132,NA
18091,Northampton County,PA,81.292984869326,NA
18103,Lehigh County,PA,5.914718019257221,NA
18104,Lehigh County,PA,NA,4.716981132075472
18224,Luzerne County,PA,72.21458046767538,NA
18240,Carbon County,PA,93.8101788170564,NA
18621,Luzerne County,PA,90.37138927097662,NA
18655,Luzerne County,PA,NA,89.62264150943396
18657,Wyoming County,PA,62.58596973865199,NA
18661,Luzerne County,PA,79.7799174690509,NA
18901,Bucks County,PA,72.35213204951857,NA
18914,Bucks County,PA,80.74277854195323,NA
19003,Montgomery County,PA,65.33700137551581,NA
19004,Montgomery County,PA,91.33425034387895,NA
19007,Bucks County,PA,57.77166437414031,NA
19026,Delaware County,PA,19.53232462173315,NA
19036,Delaware County,PA,77.99174690508941,NA
19050,Delaware County,PA,61.21045392022009,NA
19061,Delaware County,PA,29.711141678129298,NA
19063,Delaware County,PA,23.521320495185694,NA
19064,Delaware County,PA,69.46354883081155,NA
19067,Bucks County,PA,49.51856946354883,NA
19082,Delaware County,PA,11.554332874828061,NA
19104,Philadelphia County,PA,40.715268225584595,NA
19116,Philadelphia County,PA,29.436038514442913,NA
19125,Philadelphia County,PA,48.830811554332875,NA
19134,Philadelphia County,PA,19.119669876203577,NA
19135,Philadelphia County,PA,46.217331499312245,NA
19138,Philadelphia County,PA,43.191196698762035,NA
19149,Philadelphia County,PA,9.07840440165062,NA
19151,Philadelphia County,PA,14.580467675378268,NA
19152,Philadelphia County,PA,49.93122420907841,NA
19344,Chester County,PA,77.71664374140302,NA
19440,Montgomery County,PA,60.38514442916093,NA
02825,Providence County,RI,92.43466299862449,NA
02895,Providence County,RI,12.517193947730398,NA
02915,Providence County,RI,74.00275103163686,NA
02920,Providence County,RI,30.536451169188446,NA
29365,Spartanburg County,SC,NA,72.16981132075472
29455,Charleston County,SC,77.16643741403027,NA
29526,Horry County,SC,38.92709766162311,NA
29555,Florence County,SC,93.94773039889958,NA
29577,Horry County,SC,61.485557083906464,NA
29681,Greenville County,SC,59.147180192572215,NA
37098,Hickman County,TN,76.20357634112793,NA
37150,Macon County,TN,95.3232462173315,NA
37214,Davidson County,TN,59.28473177441541,NA
37303,McMinn County,TN,NA,45.75471698113208
37311,Bradley County,TN,35.62585969738652,NA
37331,McMinn County,TN,72.76478679504814,NA
37338,Rhea County,TN,96.56121045392022,NA
37357,Warren County,TN,87.20770288858321,NA
37367,Bledsoe County,TN,NA,69.81132075471697
37379,Hamilton County,TN,42.2283356258597,NA
37387,Grundy County,TN,88.72077028885832,NA
37397,Marion County,TN,80.19257221458047,NA
37416,Hamilton County,TN,53.64511691884457,NA
37645,Hawkins County,TN,88.58321870701513,NA
37748,Roane County,TN,NA,30.660377358490564
37762,Campbell County,TN,97.79917469050893,NA
37847,Scott County,TN,96.8363136176066,NA
37849,Knox County,TN,41.95323246217332,NA
37874,Monroe County,TN,NA,56.132075471698116
37914,Knox County,TN,37.964236588720766,NA
37918,Knox County,TN,14.99312242090784,NA
37919,Knox County,TN,53.0949105914718,NA
37922,Knox County,TN,54.745529573590105,NA
37924,Knox County,TN,86.38239339752407,NA
38002,Shelby County,TN,66.16231086657497,NA
38401,Maury County,TN,8.803301237964236,NA
75025,Collin County,TX,55.15818431911968,NA
75028,Denton County,TX,NA,39.62264150943396
75048,Dallas County,TX,NA,60.37735849056604
75052,Dallas County,TX,19.257221458046768,NA
75104,Dallas County,TX,NA,31.132075471698112
75204,Dallas County,TX,59.97248968363136,NA
75211,Dallas County,TX,NA,24.528301886792452
75216,Dallas County,TX,7.977991746905088,NA
75402,Hunt County,TX,72.90233837689132,NA
75409,Collin County,TX,73.4525447042641,NA
75605,Gregg County,TX,51.30674002751031,NA
75956,Jasper County,TX,81.70563961485557,NA
75965,Nacogdoches County,TX,NA,88.20754716981132
76017,Tarrant County,TX,31.77441540577717,NA
76028,Johnson County,TX,12.242090784044017,NA
76033,Johnson County,TX,37.689133425034385,NA
76133,Tarrant County,TX,20.357634112792297,NA
76148,Tarrant County,TX,42.36588720770289,NA
76230,Montague County,TX,NA,79.24528301886792
76502,Bell County,TX,16.781292984869324,NA
76504,Bell County,TX,10.866574965612106,NA
76513,Bell County,TX,NA,0.9433962264150944
76567,Milam County,TX,81.70563961485557,NA
76655,McLennan County,TX,NA,95.75471698113208
76692,Hill County,TX,89.54607977991746,NA
77073,Harris County,TX,51.5818431911967,NA
77089,Harris County,TX,45.2544704264099,NA
77328,San Jacinto County,TX,75.79092159559835,NA
77338,Harris County,TX,46.07977991746905,NA
77371,San Jacinto County,TX,85.28198074277854,NA
77377,Harris County,TX,45.11691884456671,NA
77396,Harris County,TX,38.65199449793673,NA
77461,Fort Bend County,TX,NA,92.9245283018868
77471,Fort Bend County,TX,41.12792297111417,NA
77488,Wharton County,TX,65.33700137551581,NA
77493,Harris County,TX,61.07290233837689,NA
77535,Liberty County,TX,NA,48.58490566037736
77659,Hardin County,TX,96.97386519944979,NA
77901,Victoria County,TX,NA,59.43396226415094
77963,Goliad County,TX,92.29711141678129,NA
78121,Wilson County,TX,82.39339752407153,NA
78155,Guadalupe County,TX,26.27235213204952,NA
78225,Bexar County,TX,85.41953232462174,NA
78227,Bexar County,TX,37.689133425034385,NA
78573,Hidalgo County,TX,NA,50.943396226415096
78610,Hays County,TX,NA,77.83018867924528
78624,Gillespie County,TX,73.17744154057772,NA
78669,Travis County,TX,NA,81.60377358490565
79756,Ward County,TX,71.11416781292985,NA
79930,El Paso County,TX,74.14030261348006,NA
84009,Salt Lake County,UT,51.99449793672627,NA
84029,Tooele County,UT,58.04676753782668,NA
84078,Uintah County,UT,47.73039889958734,NA
84098,Summit County,UT,NA,51.886792452830186
84116,Salt Lake County,UT,29.573590096286107,NA
84124,Salt Lake County,UT,76.47867950481431,NA
84401,Weber County,UT,82.39339752407153,NA
84405,Weber County,UT,NA,65.09433962264151
05201,Bennington County,VT,48.143053645116915,NA
05701,Rutland County,VT,40.44016506189821,NA
05753,Addison County,VT,86.10729023383769,NA
20147,Loudoun County,VA,39.0646492434663,NA
22039,Fairfax County,VA,78.40440165061898,NA
22193,Prince William County,VA,NA,17.92452830188679
22310,Fairfax County,VA,52.13204951856947,NA
22580,Caroline County,VA,90.64649243466299,NA
22664,Shenandoah County,VA,71.939477303989,NA
23323,Chesapeake city,VA,NA,37.735849056603776
23462,Virginia Beach city,VA,NA,11.320754716981133
23464,Virginia Beach city,VA,17.744154057771663,NA
23701,Portsmouth city,VA,48.55570839064649,NA
24091,Floyd County,VA,91.47180192572215,NA
24112,Henry County,VA,18.019257221458044,NA
24502,Lynchburg city,VA,NA,48.113207547169814
24523,Bedford County,VA,33.14993122420908,NA
98001,King County,WA,43.60385144429161,NA
98002,King County,WA,36.17606602475929,NA
98136,King County,WA,NA,81.13207547169812
98271,Snohomish County,WA,45.529573590096284,NA
98444,Pierce County,WA,36.45116918844566,NA
98532,Lewis County,WA,67.2627235213205,64.15094339622641
98584,Mason County,WA,34.93810178817056,NA
98626,Cowlitz County,WA,44.84181568088033,NA
98682,Clark County,WA,58.32187070151307,NA
98802,Douglas County,WA,49.65612104539202,NA
99206,Spokane County,WA,46.49243466299862,NA
99328,Columbia County,WA,98.07427785419533,NA
99336,Benton County,WA,NA,1.8867924528301887
99337,Benton County,WA,28.060522696011002,NA
99354,Benton County,WA,NA,33.9622641509434
20008,District of Columbia,DC,NA,78.30188679245283
25276,Roane County,WV,52.40715268225584,NA
25425,Jefferson County,WV,77.71664374140302,NA
25530,Wayne County,WV,70.56396148555709,NA
25570,Wayne County,WV,70.2888583218707,NA
26164,Jackson County,WV,60.9353507565337,NA
26330,Harrison County,WV,45.80467675378267,NA
26444,Preston County,WV,96.69876203576341,NA
26554,Marion County,WV,4.951856946354883,NA
26704,Hampshire County,WV,NA,92.45283018867924
53012,Ozaukee County,WI,NA,53.301886792452834
53081,Sheboygan County,WI,17.33149931224209,NA
53110,Milwaukee County,WI,32.18707015130674,NA
53140,Kenosha County,WI,11.966987620357635,NA
53144,Kenosha County,WI,18.29436038514443,NA
53189,Waukesha County,WI,54.88308115543329,NA
53205,Milwaukee County,WI,17.46905089408528,NA
53213,Milwaukee County,WI,NA,33.490566037735846
53226,Milwaukee County,WI,66.98762035763411,NA
53228,Milwaukee County,WI,69.73865199449793,NA
53511,Rock County,WI,1.925722145804677,NA
53523,Dane County,WI,NA,86.79245283018868
53527,Dane County,WI,92.70976616231087,NA
53546,Rock County,WI,19.257221458046768,NA
53704,Dane County,WI,NA,16.037735849056602
53805,Grant County,WI,94.49793672627234,NA
53934,Adams County,WI,NA,93.39622641509435
53959,Sauk County,WI,44.01650618982118,NA
54220,Manitowoc County,WI,7.702888583218708,NA
54409,Langlade County,WI,NA,24.056603773584907
54467,Portage County,WI,62.448418156808806,NA
54482,Portage County,WI,79.91746905089408,NA
54601,La Crosse County,WI,NA,1.4150943396226416
54630,Trempealeau County,WI,85.55708390646492,NA
54728,Barron County,WI,NA,90.09433962264151
54729,Chippewa County,WI,34.25034387895461,NA
54768,Chippewa County,WI,NA,97.64150943396226
54817,Washburn County,WI,NA,100
54822,Barron County,WI,94.63548830811554,NA
54868,Barron County,WI,NA,47.64150943396226
54914,Outagamie County,WI,25.584594222833562,NA
54961,Waupaca County,WI,56.94635488308115,NA
82435,Park County,WY,NA,74.05660377358491
