ZipCode,county,state,Youth,Pediatric,Adult,Retirement,Geriatric
35016,Marshall County,AL,NA,NA,NA,NA,51.55555555555556
35020,Jefferson County,AL,NA,NA,51.120448179271705,NA,NA
35023,Jefferson County,AL,30.083234244946492,NA,NA,NA,NA
35045,Chilton County,AL,NA,NA,NA,76.64233576642336,NA
35068,Jefferson County,AL,NA,NA,93.69747899159664,NA,NA
35184,Bibb County,AL,94.17360285374554,NA,NA,NA,NA
35209,Jefferson County,AL,NA,NA,NA,74.45255474452554,NA
35217,Jefferson County,AL,NA,NA,57.2829131652661,NA,NA
35226,Jefferson County,AL,NA,58.61581920903954,NA,NA,NA
35228,Jefferson County,AL,81.80737217598097,NA,NA,NA,NA
35234,Jefferson County,AL,NA,NA,94.11764705882352,NA,NA
35549,Walker County,AL,NA,99.71751412429379,NA,NA,NA
35578,Walker County,AL,NA,93.50282485875707,NA,NA,NA
35601,Morgan County,AL,NA,NA,18.34733893557423,NA,NA
35633,Lauderdale County,AL,52.675386444708685,NA,63.4453781512605,NA,NA
35646,Colbert County,AL,NA,NA,NA,95.98540145985402,NA
35653,Franklin County,AL,73.48394768133176,NA,NA,NA,NA
35672,Lawrence County,AL,95.95719381688465,NA,NA,NA,NA
35739,Limestone County,AL,90.6064209274673,NA,NA,NA,NA
35758,Madison County,AL,36.86087990487515,NA,NA,NA,NA
35805,Madison County,AL,NA,39.83050847457627,NA,NA,NA
35811,Madison County,AL,NA,NA,NA,NA,42.66666666666667
35967,DeKalb County,AL,NA,NA,71.28851540616246,NA,NA
35986,DeKalb County,AL,NA,84.7457627118644,NA,NA,NA
36025,Elmore County,AL,NA,77.11864406779661,NA,NA,NA
36067,Autauga County,AL,NA,35.87570621468927,NA,NA,NA
36106,Montgomery County,AL,92.39001189060642,NA,NA,NA,NA
36110,Montgomery County,AL,49.34601664684899,NA,NA,NA,NA
36278,Randolph County,AL,NA,87.14689265536724,NA,NA,NA
36303,Houston County,AL,NA,NA,27.450980392156865,NA,56.888888888888886
36322,Dale County,AL,NA,91.10169491525424,NA,NA,NA
36330,Coffee County,AL,NA,52.96610169491526,NA,NA,NA
36360,Dale County,AL,NA,48.30508474576271,NA,NA,NA
36421,Covington County,AL,82.28299643281808,NA,NA,NA,NA
36701,Dallas County,AL,21.997621878715815,NA,NA,NA,59.55555555555555
36784,Clarke County,AL,NA,NA,88.65546218487394,NA,NA
36862,Chambers County,AL,NA,97.03389830508475,NA,NA,NA
99508,Anchorage Municipality,AK,15.101070154577883,NA,NA,NA,NA
99603,Kenai Peninsula Borough,AK,NA,NA,NA,NA,79.11111111111111
85004,Maricopa County,AZ,NA,NA,91.59663865546219,NA,NA
85008,Maricopa County,AZ,NA,7.768361581920905,NA,NA,NA
85009,Maricopa County,AZ,NA,22.598870056497177,NA,NA,NA
85016,Maricopa County,AZ,NA,15.112994350282486,NA,NA,NA
85017,Maricopa County,AZ,15.81450653983353,42.93785310734463,37.39495798319328,NA,NA
85019,Maricopa County,AZ,91.5576694411415,31.07344632768362,NA,NA,NA
85020,Maricopa County,AZ,35.90963139120095,NA,NA,NA,NA
85022,Maricopa County,AZ,NA,NA,24.089635854341736,NA,NA
85023,Maricopa County,AZ,NA,NA,68.4873949579832,NA,NA
85027,Maricopa County,AZ,NA,NA,NA,NA,76.88888888888889
85033,Maricopa County,AZ,NA,6.779661016949152,NA,NA,NA
85042,Maricopa County,AZ,NA,24.717514124293785,NA,NA,NA
85043,Maricopa County,AZ,NA,NA,61.904761904761905,NA,NA
85120,Pinal County,AZ,NA,70.48022598870057,NA,NA,NA
85128,Pinal County,AZ,NA,NA,46.63865546218487,NA,NA
85203,Maricopa County,AZ,56.95600475624257,NA,NA,NA,NA
85204,Maricopa County,AZ,NA,NA,NA,37.591240875912405,NA
85225,Maricopa County,AZ,9.512485136741974,NA,NA,NA,NA
85256,Maricopa County,AZ,NA,NA,90.33613445378151,NA,NA
85281,Maricopa County,AZ,NA,NA,40.33613445378151,NA,NA
85282,Maricopa County,AZ,NA,NA,48.59943977591036,NA,NA
85284,Maricopa County,AZ,45.89774078478002,NA,NA,NA,NA
85295,Maricopa County,AZ,31.03448275862069,NA,NA,NA,NA
85297,Maricopa County,AZ,NA,NA,NA,85.40145985401459,NA
85323,Maricopa County,AZ,19.024970273483948,NA,NA,NA,NA
85339,Maricopa County,AZ,9.988109393579073,NA,NA,63.138686131386855,NA
85350,Yuma County,AZ,NA,NA,58.96358543417367,NA,NA
85351,Maricopa County,AZ,NA,NA,NA,NA,0.8888888888888888
85364,Yuma County,AZ,NA,31.92090395480226,NA,5.474452554744526,NA
85530,Graham County,AZ,NA,NA,87.6750700280112,NA,NA
85552,Graham County,AZ,NA,NA,94.9579831932773,NA,NA
85634,Pima County,AZ,NA,NA,25.770308123249297,NA,NA
85641,Pima County,AZ,NA,NA,66.80672268907563,NA,NA
85650,Cochise County,AZ,NA,NA,NA,NA,48.44444444444444
85710,Pima County,AZ,NA,25.28248587570621,NA,NA,NA
85711,Pima County,AZ,NA,NA,12.885154061624648,NA,NA
85713,Pima County,AZ,5.231866825208085,NA,NA,NA,NA
85715,Pima County,AZ,NA,NA,82.35294117647058,NA,NA
85718,Pima County,AZ,NA,NA,NA,NA,25.77777777777778
85735,Pima County,AZ,NA,NA,74.64985994397759,NA,NA
85741,Pima County,AZ,NA,NA,37.95518207282913,NA,NA
85747,Pima County,AZ,73.7217598097503,NA,NA,NA,NA
85748,Pima County,AZ,NA,78.67231638418079,NA,NA,NA
85941,Apache County,AZ,28.418549346016647,9.03954802259887,NA,NA,NA
86033,Navajo County,AZ,49.82164090368609,12.711864406779661,NA,NA,NA
86045,Coconino County,AZ,NA,3.954802259887006,NA,NA,NA
86047,Navajo County,AZ,NA,NA,39.77591036414566,NA,NA
86322,Yavapai County,AZ,NA,87.42937853107344,NA,NA,NA
86409,Mohave County,AZ,NA,NA,NA,6.569343065693431,NA
71603,Jefferson County,AR,27.824019024970276,NA,NA,NA,NA
71639,Desha County,AR,NA,NA,NA,93.7956204379562,NA
71753,Columbia County,AR,93.34126040428062,NA,NA,NA,NA
71801,Hempstead County,AR,NA,NA,90.05602240896359,NA,NA
71822,Little River County,AR,NA,NA,NA,NA,81.77777777777779
72206,Pulaski County,AR,NA,NA,NA,NA,54.666666666666664
72601,Boone County,AR,70.74910820451844,NA,NA,NA,NA
72761,Benton County,AR,NA,NA,80.53221288515407,NA,NA
72802,Pope County,AR,70.74910820451844,NA,NA,NA,NA
72823,Pope County,AR,NA,NA,NA,NA,90.22222222222223
72927,Logan County,AR,NA,NA,NA,NA,89.33333333333333
72941,Sebastian County,AR,98.5731272294887,NA,NA,NA,NA
72949,Franklin County,AR,NA,NA,97.75910364145658,NA,NA
90001,Los Angeles County,CA,42.33055885850178,NA,NA,NA,NA
90002,Los Angeles County,CA,50.416171224732466,27.683615819209038,NA,NA,NA
90003,Los Angeles County,CA,NA,14.689265536723164,NA,NA,NA
90011,Los Angeles County,CA,NA,26.27118644067797,NA,NA,NA
90018,Los Angeles County,CA,NA,NA,44.25770308123249,NA,NA
90019,Los Angeles County,CA,NA,NA,47.47899159663865,NA,NA
90024,Los Angeles County,CA,NA,NA,NA,NA,8.444444444444445
90026,Los Angeles County,CA,47.56242568370987,NA,NA,NA,NA
90027,Los Angeles County,CA,NA,NA,67.64705882352942,NA,NA
90029,Los Angeles County,CA,NA,NA,NA,77.73722627737226,NA
90033,Los Angeles County,CA,NA,NA,50.56022408963585,NA,NA
90037,Los Angeles County,CA,NA,17.796610169491526,44.11764705882353,NA,NA
90044,Los Angeles County,CA,49.10820451843044,5.084745762711865,NA,NA,NA
90046,Los Angeles County,CA,NA,NA,NA,32.481751824817515,NA
90057,Los Angeles County,CA,NA,NA,45.23809523809524,NA,NA
90059,Los Angeles County,CA,NA,28.954802259887007,NA,NA,NA
90063,Los Angeles County,CA,78.47800237812127,NA,NA,NA,NA
90066,Los Angeles County,CA,NA,NA,NA,NA,32.88888888888889
90201,Los Angeles County,CA,NA,NA,35.154061624649856,NA,NA
90221,Los Angeles County,CA,NA,NA,NA,46.715328467153284,NA
90242,Los Angeles County,CA,NA,91.10169491525424,NA,NA,NA
90249,Los Angeles County,CA,NA,NA,NA,70.8029197080292,NA
90250,Los Angeles County,CA,NA,NA,79.69187675070029,NA,NA
90291,Los Angeles County,CA,95.00594530321045,NA,NA,NA,NA
90501,Los Angeles County,CA,NA,51.836158192090394,NA,NA,NA
90601,Los Angeles County,CA,NA,NA,62.04481792717087,NA,NA
90620,Orange County,CA,16.171224732461358,NA,NA,NA,NA
90630,Orange County,CA,36.86087990487515,NA,NA,NA,NA
90631,Orange County,CA,NA,NA,NA,NA,63.11111111111111
90640,Los Angeles County,CA,NA,NA,40.056022408963585,NA,NA
90706,Los Angeles County,CA,NA,NA,NA,NA,74.66666666666667
90710,Los Angeles County,CA,NA,47.175141242937855,NA,NA,NA
90715,Los Angeles County,CA,NA,NA,87.81512605042016,NA,NA
90731,Los Angeles County,CA,NA,39.548022598870055,NA,NA,NA
90745,Los Angeles County,CA,NA,68.92655367231639,NA,NA,NA
90805,Los Angeles County,CA,NA,NA,21.568627450980394,NA,NA
91001,Los Angeles County,CA,71.8192627824019,NA,NA,NA,NA
91042,Los Angeles County,CA,NA,NA,79.27170868347339,NA,NA
91342,Los Angeles County,CA,NA,NA,NA,22.26277372262774,NA
91343,Los Angeles County,CA,47.91914387633769,NA,NA,NA,NA
91381,Los Angeles County,CA,74.19738406658739,NA,NA,NA,NA
91504,Los Angeles County,CA,78.83472057074911,NA,NA,NA,NA
91505,Los Angeles County,CA,NA,NA,78.57142857142857,NA,NA
91607,Los Angeles County,CA,90.36860879904876,NA,NA,NA,NA
91722,Los Angeles County,CA,NA,NA,90.33613445378151,NA,NA
91733,Los Angeles County,CA,NA,NA,74.08963585434174,76.27737226277372,NA
91746,Los Angeles County,CA,NA,NA,80.95238095238095,NA,NA
91761,San Bernardino County,CA,NA,NA,65.68627450980392,NA,NA
91764,San Bernardino County,CA,45.0653983353151,NA,NA,NA,NA
91767,Los Angeles County,CA,32.22354340071344,NA,46.778711484593835,NA,NA
91790,Los Angeles County,CA,48.989298454221164,NA,NA,NA,NA
91910,San Diego County,CA,NA,NA,NA,NA,14.222222222222221
91941,San Diego County,CA,75.26753864447086,NA,NA,NA,NA
91942,San Diego County,CA,65.2794292508918,NA,NA,NA,NA
91950,San Diego County,CA,NA,NA,42.296918767507,NA,NA
92011,San Diego County,CA,71.10582639714626,NA,NA,NA,NA
92021,San Diego County,CA,NA,NA,19.88795518207283,NA,NA
92024,San Diego County,CA,NA,NA,47.61904761904761,NA,NA
92025,San Diego County,CA,NA,NA,55.88235294117647,NA,NA
92026,San Diego County,CA,NA,NA,62.60504201680672,NA,NA
92028,San Diego County,CA,NA,57.485875706214685,NA,NA,NA
92037,San Diego County,CA,NA,NA,NA,61.67883211678832,NA
92101,San Diego County,CA,NA,NA,NA,14.233576642335766,NA
92105,San Diego County,CA,NA,7.909604519774012,NA,NA,NA
92126,San Diego County,CA,NA,NA,NA,NA,47.11111111111111
92201,Riverside County,CA,NA,33.19209039548023,NA,NA,NA
92227,Imperial County,CA,NA,NA,48.87955182072829,NA,NA
92236,Riverside County,CA,52.080856123662315,NA,NA,NA,NA
92243,Imperial County,CA,NA,NA,28.57142857142857,NA,NA
92260,Riverside County,CA,91.79548156956004,NA,NA,NA,2.2222222222222223
92262,Riverside County,CA,NA,NA,24.92997198879552,NA,NA
92301,San Bernardino County,CA,NA,NA,39.21568627450981,NA,NA
92335,San Bernardino County,CA,NA,10.451977401129943,41.03641456582633,NA,NA
92336,San Bernardino County,CA,NA,NA,14.565826330532214,25.91240875912409,NA
92346,San Bernardino County,CA,NA,NA,31.092436974789916,NA,NA
92395,San Bernardino County,CA,NA,NA,31.512605042016805,NA,NA
92404,San Bernardino County,CA,7.728894173602854,NA,NA,NA,NA
92410,San Bernardino County,CA,NA,NA,72.40896358543417,NA,NA
92505,Riverside County,CA,NA,NA,54.621848739495796,NA,NA
92548,Riverside County,CA,NA,NA,94.53781512605042,NA,NA
92551,Riverside County,CA,NA,56.63841807909604,NA,NA,NA
92563,Riverside County,CA,19.14387633769322,66.24293785310734,NA,NA,NA
92586,Riverside County,CA,NA,96.32768361581921,NA,NA,NA
92614,Orange County,CA,NA,NA,NA,72.26277372262774,NA
92620,Orange County,CA,53.15101070154577,NA,NA,NA,NA
92626,Orange County,CA,NA,NA,49.57983193277311,NA,NA
92629,Orange County,CA,84.78002378121285,NA,NA,NA,NA
92646,Orange County,CA,NA,NA,NA,NA,9.333333333333334
92653,Orange County,CA,NA,84.7457627118644,NA,NA,NA
92675,Orange County,CA,67.18192627824018,NA,NA,NA,NA
92703,Orange County,CA,NA,NA,NA,64.23357664233576,NA
92704,Orange County,CA,NA,15.112994350282486,38.095238095238095,NA,NA
92804,Orange County,CA,45.541022592152196,NA,NA,NA,NA
92805,Orange County,CA,NA,NA,30.11204481792717,NA,NA
92843,Orange County,CA,NA,NA,43.69747899159664,NA,NA
92860,Riverside County,CA,95.24375743162902,NA,NA,NA,NA
92880,Riverside County,CA,32.461355529131986,NA,NA,NA,NA
92882,Riverside County,CA,NA,41.80790960451977,NA,NA,NA
92886,Orange County,CA,NA,NA,34.73389355742297,NA,NA
93001,Ventura County,CA,NA,NA,30.81232492997199,NA,NA
93010,Ventura County,CA,58.50178359096314,NA,NA,NA,NA
93030,Ventura County,CA,NA,30.08474576271186,NA,NA,NA
93033,Ventura County,CA,2.6159334126040426,13.418079096045199,NA,NA,NA
93036,Ventura County,CA,41.85493460166468,NA,NA,NA,NA
93215,Kern County,CA,NA,NA,67.78711484593838,NA,NA
93240,Kern County,CA,NA,98.87005649717514,NA,NA,NA
93257,Tulare County,CA,NA,14.40677966101695,17.787114845938376,NA,27.111111111111114
93291,Tulare County,CA,9.750297265160523,40.96045197740113,NA,NA,31.555555555555554
93292,Tulare County,CA,45.18430439952438,NA,NA,NA,NA
93305,Kern County,CA,NA,NA,92.57703081232494,NA,NA
93307,Kern County,CA,71.70035671819262,NA,NA,NA,NA
93308,Kern County,CA,NA,NA,31.932773109243694,NA,NA
93309,Kern County,CA,NA,79.94350282485875,NA,NA,NA
93311,Kern County,CA,60.64209274673008,NA,NA,NA,NA
93313,Kern County,CA,NA,62.28813559322034,NA,NA,NA
93420,San Luis Obispo County,CA,NA,NA,74.78991596638656,NA,NA
93458,Santa Barbara County,CA,NA,5.649717514124294,NA,NA,NA
93550,Los Angeles County,CA,NA,NA,17.92717086834734,NA,NA
93630,Fresno County,CA,55.29131985731273,NA,NA,NA,NA
93637,Madera County,CA,NA,NA,36.554621848739494,NA,NA
93647,Tulare County,CA,NA,NA,NA,NA,99.55555555555556
93657,Fresno County,CA,61.35552913198573,40.25423728813559,NA,NA,NA
93702,Fresno County,CA,NA,NA,32.49299719887955,NA,NA
93705,Fresno County,CA,NA,NA,38.51540616246499,NA,NA
93706,Fresno County,CA,25.68370986920333,12.288135593220339,26.750700280112046,NA,NA
93905,Monterey County,CA,NA,NA,43.8375350140056,NA,NA
93960,Monterey County,CA,NA,NA,NA,NA,98.22222222222223
94015,San Mateo County,CA,NA,NA,NA,15.693430656934307,NA
94066,San Mateo County,CA,NA,NA,51.26050420168067,NA,NA
94085,Santa Clara County,CA,NA,NA,88.37535014005601,NA,NA
94108,San Francisco County,CA,NA,NA,89.07563025210085,NA,NA
94112,San Francisco County,CA,NA,18.64406779661017,NA,NA,NA
94115,San Francisco County,CA,NA,NA,81.9327731092437,NA,NA
94116,San Francisco County,CA,NA,NA,NA,46.35036496350365,NA
94117,San Francisco County,CA,NA,NA,41.73669467787115,NA,NA
94520,Contra Costa County,CA,NA,85.87570621468926,NA,NA,NA
94538,Alameda County,CA,54.22116527942925,NA,NA,NA,NA
94539,Alameda County,CA,NA,NA,NA,64.96350364963503,NA
94544,Alameda County,CA,NA,17.51412429378531,NA,NA,NA
94550,Alameda County,CA,37.33650416171225,NA,NA,NA,NA
94551,Alameda County,CA,62.544589774078474,NA,NA,NA,NA
94565,Contra Costa County,CA,NA,NA,25.49019607843137,NA,NA
94577,Alameda County,CA,NA,NA,42.436974789915965,NA,NA
94601,Alameda County,CA,NA,44.49152542372881,NA,NA,NA
94605,Alameda County,CA,56.00475624256838,16.666666666666664,28.011204481792717,NA,NA
94609,Alameda County,CA,87.63376932223544,NA,NA,NA,NA
94621,Alameda County,CA,NA,23.30508474576271,NA,NA,NA
94952,Sonoma County,CA,74.19738406658739,NA,NA,NA,NA
95035,Santa Clara County,CA,NA,NA,57.422969187675065,NA,NA
95037,Santa Clara County,CA,NA,NA,NA,43.06569343065693,NA
95051,Santa Clara County,CA,NA,68.64406779661016,NA,NA,NA
95062,Santa Cruz County,CA,NA,NA,78.8515406162465,NA,NA
95111,Santa Clara County,CA,NA,67.2316384180791,NA,NA,43.55555555555555
95117,Santa Clara County,CA,NA,71.89265536723164,NA,NA,NA
95123,Santa Clara County,CA,NA,NA,NA,36.496350364963504,NA
95124,Santa Clara County,CA,NA,NA,NA,48.9051094890511,NA
95127,Santa Clara County,CA,NA,47.31638418079096,NA,NA,NA
95131,Santa Clara County,CA,NA,NA,NA,NA,88.44444444444444
95136,Santa Clara County,CA,62.9013079667063,NA,NA,NA,NA
95205,San Joaquin County,CA,NA,NA,NA,63.868613138686136,NA
95228,Calaveras County,CA,NA,NA,NA,NA,95.55555555555556
95307,Stanislaus County,CA,NA,NA,37.254901960784316,NA,NA
95315,Merced County,CA,NA,74.85875706214689,NA,NA,NA
95337,San Joaquin County,CA,NA,70.90395480225989,NA,NA,NA
95341,Merced County,CA,NA,NA,66.1064425770308,NA,NA
95350,Stanislaus County,CA,NA,47.88135593220339,21.84873949579832,NA,NA
95356,Stanislaus County,CA,NA,NA,NA,54.01459854014598,NA
95376,San Joaquin County,CA,57.78834720570749,NA,NA,NA,NA
95380,Stanislaus County,CA,31.510107015457788,NA,NA,NA,NA
95386,Stanislaus County,CA,NA,NA,85.57422969187675,NA,NA
95422,Lake County,CA,63.614744351961946,NA,NA,NA,NA
95425,Sonoma County,CA,NA,NA,97.3389355742297,NA,NA
95448,Sonoma County,CA,NA,NA,78.99159663865547,NA,NA
95476,Sonoma County,CA,NA,NA,NA,45.25547445255474,NA
95482,Mendocino County,CA,NA,NA,NA,NA,41.333333333333336
95618,Yolo County,CA,NA,NA,NA,NA,69.77777777777779
95630,Sacramento County,CA,NA,NA,NA,27.00729927007299,NA
95660,Sacramento County,CA,NA,NA,NA,67.88321167883211,NA
95687,Solano County,CA,64.68489892984543,NA,NA,NA,NA
95765,Placer County,CA,92.39001189060642,NA,NA,NA,NA
95820,Sacramento County,CA,NA,NA,NA,NA,58.22222222222222
95821,Sacramento County,CA,NA,NA,NA,40.87591240875913,NA
95829,Sacramento County,CA,NA,88.98305084745762,NA,NA,NA
95901,Yuba County,CA,NA,49.43502824858757,NA,NA,NA
95912,Colusa County,CA,NA,95.05649717514125,NA,NA,NA
95971,Plumas County,CA,NA,NA,97.89915966386555,NA,NA
96021,Tehama County,CA,NA,NA,NA,NA,68.44444444444444
80003,Jefferson County,CO,NA,43.64406779661017,NA,NA,NA
80011,Arapahoe County,CO,NA,23.587570621468927,NA,NA,NA
80012,Arapahoe County,CO,NA,21.89265536723164,NA,NA,NA
80022,Adams County,CO,10.344827586206897,15.3954802259887,21.008403361344538,NA,NA
80023,Broomfield County,CO,72.77051129607611,NA,94.67787114845937,NA,NA
80104,Douglas County,CO,30.202140309155766,NA,NA,NA,NA
80113,Arapahoe County,CO,NA,86.7231638418079,NA,NA,NA
80134,Douglas County,CO,7.37217598097503,NA,NA,NA,NA
80204,Denver County,CO,NA,53.53107344632768,NA,NA,NA
80205,Denver County,CO,NA,NA,17.647058823529413,NA,NA
80228,Jefferson County,CO,NA,NA,NA,66.42335766423358,NA
80229,Adams County,CO,NA,43.92655367231638,NA,NA,NA
80233,Adams County,CO,46.611177170035674,35.87570621468927,NA,NA,NA
80241,Adams County,CO,76.45659928656362,NA,NA,NA,NA
80247,Arapahoe County,CO,NA,NA,45.938375350140056,NA,NA
80249,Denver County,CO,NA,40.96045197740113,NA,NA,NA
80403,Jefferson County,CO,NA,NA,NA,85.76642335766424,NA
80501,Boulder County,CO,NA,40.25423728813559,NA,NA,NA
80525,Larimer County,CO,64.3281807372176,NA,20.028011204481793,NA,NA
80538,Larimer County,CO,18.668252080856124,NA,NA,NA,NA
80903,El Paso County,CO,NA,NA,43.417366946778714,NA,NA
80905,El Paso County,CO,NA,68.22033898305084,NA,NA,NA
80906,El Paso County,CO,NA,57.485875706214685,NA,NA,NA
80916,El Paso County,CO,NA,15.819209039548024,42.71708683473389,NA,NA
80918,El Paso County,CO,NA,60.16949152542372,NA,NA,NA
80919,El Paso County,CO,NA,99.29378531073446,NA,NA,NA
81003,Pueblo County,CO,NA,NA,NA,NA,86.66666666666667
81006,Pueblo County,CO,87.63376932223544,NA,NA,NA,NA
81008,Pueblo County,CO,NA,96.75141242937853,NA,NA,NA
81625,Moffat County,CO,51.36741973840666,NA,46.21848739495798,NA,NA
06033,Hartford County,CT,35.315101070154576,NA,NA,NA,NA
06051,Hartford County,CT,NA,NA,6.862745098039216,NA,NA
06067,Hartford County,CT,NA,NA,75.35014005602241,NA,NA
06074,Hartford County,CT,NA,NA,NA,NA,32.44444444444444
06095,Hartford County,CT,NA,NA,46.49859943977591,NA,NA
06111,Hartford County,CT,38.40665873959572,NA,NA,NA,NA
06112,Hartford County,CT,45.18430439952438,NA,NA,NA,NA
06114,Hartford County,CT,NA,NA,21.288515406162464,NA,NA
06118,Hartford County,CT,32.461355529131986,41.80790960451977,NA,NA,NA
06234,Windham County,CT,88.10939357907253,NA,NA,NA,NA
06239,Windham County,CT,53.15101070154577,61.5819209039548,NA,NA,NA
06415,New London County,CT,NA,NA,NA,NA,80
06422,Middlesex County,CT,NA,NA,86.69467787114846,NA,NA
06450,New Haven County,CT,18.7871581450654,NA,NA,NA,NA
06457,Middlesex County,CT,NA,NA,11.204481792717088,NA,NA
06460,New Haven County,CT,NA,NA,NA,25.18248175182482,NA
06513,New Haven County,CT,16.171224732461358,NA,NA,NA,NA
06515,New Haven County,CT,NA,36.29943502824859,NA,NA,NA
06518,New Haven County,CT,87.03923900118906,NA,NA,NA,NA
06604,Fairfield County,CT,39.95243757431629,NA,NA,NA,NA
06605,Fairfield County,CT,NA,NA,NA,71.16788321167883,NA
06614,Fairfield County,CT,75.86206896551724,NA,NA,NA,NA
06615,Fairfield County,CT,NA,NA,58.123249299719895,NA,NA
06704,New Haven County,CT,NA,32.20338983050847,NA,NA,NA
06710,New Haven County,CT,NA,NA,66.66666666666666,NA,NA
06770,New Haven County,CT,59.33412604042806,43.22033898305085,NA,NA,28.888888888888886
06779,Litchfield County,CT,NA,NA,89.07563025210085,NA,NA
06790,Litchfield County,CT,NA,NA,NA,NA,7.555555555555555
06824,Fairfield County,CT,NA,NA,NA,NA,61.77777777777778
06854,Fairfield County,CT,NA,NA,53.0812324929972,NA,NA
06880,Fairfield County,CT,NA,96.32768361581921,NA,NA,NA
06902,Fairfield County,CT,NA,NA,NA,18.248175182481752,NA
19703,New Castle County,DE,NA,72.88135593220339,NA,NA,NA
19711,New Castle County,DE,25.089179548156952,NA,NA,NA,NA
19720,New Castle County,DE,NA,NA,5.182072829131653,NA,NA
19801,New Castle County,DE,74.91082045184304,NA,45.378151260504204,NA,NA
19802,New Castle County,DE,NA,NA,71.00840336134453,NA,NA
19808,New Castle County,DE,NA,NA,NA,NA,8.88888888888889
19939,Sussex County,DE,91.31985731272295,NA,NA,NA,NA
19956,Sussex County,DE,NA,NA,55.46218487394958,NA,NA
19963,Sussex County,DE,NA,NA,84.593837535014,NA,NA
19973,Sussex County,DE,NA,26.836158192090398,NA,NA,NA
32003,Clay County,FL,NA,71.89265536723164,NA,NA,NA
32033,St. Johns County,FL,NA,NA,NA,NA,93.33333333333333
32052,Hamilton County,FL,76.93222354340071,NA,NA,NA,NA
32053,Hamilton County,FL,NA,NA,NA,99.27007299270073,NA
32054,Union County,FL,NA,74.15254237288136,NA,NA,NA
32055,Columbia County,FL,NA,52.96610169491526,NA,NA,NA
32065,Clay County,FL,NA,51.55367231638418,NA,NA,NA
32073,Clay County,FL,34.48275862068966,NA,NA,NA,NA
32084,St. Johns County,FL,NA,NA,33.33333333333333,NA,NA
32112,Putnam County,FL,NA,92.09039548022598,NA,NA,NA
32113,Marion County,FL,84.30439952437574,NA,NA,NA,NA
32119,Volusia County,FL,46.9678953626635,NA,NA,NA,NA
32129,Volusia County,FL,91.67657550535078,NA,NA,NA,NA
32164,Flagler County,FL,35.07728894173603,NA,NA,NA,NA
32174,Volusia County,FL,54.69678953626635,NA,NA,NA,NA
32206,Duval County,FL,NA,NA,NA,NA,80.88888888888889
32207,Duval County,FL,NA,NA,NA,17.51824817518248,NA
32208,Duval County,FL,24.019024970273485,26.69491525423729,NA,NA,NA
32209,Duval County,FL,39.23900118906064,17.51412429378531,NA,NA,NA
32210,Duval County,FL,26.2782401902497,NA,NA,NA,NA
32217,Duval County,FL,20.92746730083234,NA,NA,NA,NA
32218,Duval County,FL,NA,27.966101694915253,NA,NA,NA
32222,Duval County,FL,NA,92.79661016949152,NA,NA,NA
32225,Duval County,FL,19.500594530321045,NA,NA,NA,NA
32244,Duval County,FL,NA,12.146892655367232,NA,NA,NA
32246,Duval County,FL,37.5743162901308,NA,NA,NA,NA
32254,Duval County,FL,NA,65.96045197740112,NA,NA,NA
32257,Duval County,FL,40.66587395957193,NA,NA,NA,NA
32266,Duval County,FL,99.88109393579072,NA,NA,NA,NA
32277,Duval County,FL,64.20927467300832,NA,NA,NA,NA
32303,Leon County,FL,44.1141498216409,NA,NA,NA,61.33333333333333
32309,Leon County,FL,85.37455410225921,NA,NA,NA,NA
32310,Leon County,FL,NA,NA,NA,NA,92.44444444444444
32351,Gadsden County,FL,41.14149821640904,NA,86.41456582633053,89.41605839416059,NA
32401,Bay County,FL,56.00475624256838,NA,NA,NA,NA
32405,Bay County,FL,NA,47.31638418079096,NA,NA,NA
32435,Walton County,FL,NA,90.67796610169492,NA,NA,NA
32448,Jackson County,FL,82.87752675386444,NA,NA,NA,NA
32456,Gulf County,FL,NA,97.59887005649718,NA,NA,NA
32460,Jackson County,FL,98.09750297265161,NA,NA,NA,NA
32462,Washington County,FL,97.02734839476813,NA,NA,NA,NA
32501,Escambia County,FL,NA,52.68361581920904,NA,NA,NA
32526,Escambia County,FL,NA,NA,18.907563025210084,NA,NA
32535,Escambia County,FL,81.56956004756243,NA,NA,NA,NA
32566,Santa Rosa County,FL,NA,NA,74.2296918767507,NA,NA
32577,Escambia County,FL,NA,NA,89.91596638655463,NA,NA
32607,Alachua County,FL,22.35434007134364,NA,NA,NA,NA
32608,Alachua County,FL,NA,NA,11.064425770308123,NA,NA
32619,Gilchrist County,FL,NA,NA,NA,94.8905109489051,NA
32703,Orange County,FL,NA,27.11864406779661,NA,NA,NA
32708,Seminole County,FL,NA,64.54802259887006,NA,NA,NA
32712,Orange County,FL,35.6718192627824,NA,NA,NA,NA
32725,Volusia County,FL,26.991676575505352,NA,NA,NA,NA
32773,Seminole County,FL,NA,NA,56.72268907563025,NA,NA
32808,Orange County,FL,NA,11.299435028248588,NA,NA,NA
32811,Orange County,FL,NA,NA,26.47058823529412,NA,NA
32817,Orange County,FL,NA,49.01129943502825,NA,NA,NA
32818,Orange County,FL,17.360285374554103,24.43502824858757,NA,62.04379562043796,NA
32824,Orange County,FL,NA,NA,NA,NA,44.44444444444444
32836,Orange County,FL,NA,92.09039548022598,NA,NA,NA
32839,Orange County,FL,NA,19.915254237288135,NA,50,NA
32905,Brevard County,FL,52.675386444708685,NA,NA,NA,NA
32907,Brevard County,FL,NA,44.91525423728814,NA,NA,NA
32922,Brevard County,FL,58.50178359096314,NA,NA,NA,NA
32935,Brevard County,FL,NA,NA,NA,54.74452554744526,NA
32962,Indian River County,FL,NA,NA,NA,NA,29.333333333333332
33012,Miami-Dade County,FL,NA,11.158192090395481,NA,NA,NA
33016,Miami-Dade County,FL,NA,NA,62.18487394957983,NA,NA
33018,Miami-Dade County,FL,NA,21.610169491525426,NA,NA,NA
33021,Broward County,FL,NA,NA,NA,NA,7.111111111111111
33023,Broward County,FL,NA,NA,NA,56.20437956204379,NA
33025,Broward County,FL,NA,23.728813559322035,NA,NA,NA
33030,Miami-Dade County,FL,NA,NA,51.9607843137255,NA,NA
33032,Miami-Dade County,FL,14.625445897740786,NA,NA,NA,NA
33033,Miami-Dade County,FL,13.079667063020214,NA,NA,NA,NA
33034,Miami-Dade County,FL,NA,78.38983050847457,NA,88.32116788321169,NA
33054,Miami-Dade County,FL,NA,NA,58.40336134453782,NA,NA
33055,Miami-Dade County,FL,22.829964328180736,NA,NA,NA,NA
33056,Miami-Dade County,FL,NA,29.80225988700565,NA,NA,NA
33060,Broward County,FL,69.32223543400713,NA,NA,NA,NA
33071,Broward County,FL,41.49821640903686,NA,NA,NA,NA
33073,Broward County,FL,NA,NA,77.31092436974791,NA,NA
33126,Miami-Dade County,FL,50.89179548156956,NA,NA,NA,NA
33130,Miami-Dade County,FL,NA,67.65536723163842,NA,NA,NA
33135,Miami-Dade County,FL,NA,31.497175141242938,NA,NA,NA
33142,Miami-Dade County,FL,NA,40.81920903954802,NA,NA,NA
33145,Miami-Dade County,FL,NA,NA,87.39495798319328,NA,NA
33147,Miami-Dade County,FL,NA,NA,71.98879551820728,44.52554744525548,NA
33165,Miami-Dade County,FL,NA,28.24858757062147,NA,NA,NA
33168,Miami-Dade County,FL,NA,47.31638418079096,NA,NA,NA
33179,Miami-Dade County,FL,NA,55.6497175141243,NA,NA,NA
33186,Miami-Dade County,FL,NA,NA,NA,NA,31.11111111111111
33301,Broward County,FL,NA,NA,NA,NA,87.55555555555556
33309,Broward County,FL,NA,18.926553672316384,NA,NA,NA
33311,Broward County,FL,3.804994054696789,NA,NA,NA,NA
33313,Broward County,FL,NA,NA,24.649859943977592,NA,NA
33319,Broward County,FL,66.46848989298454,NA,NA,NA,NA
33325,Broward County,FL,NA,63.84180790960452,NA,NA,NA
33330,Broward County,FL,76.57550535077289,NA,NA,NA,NA
33332,Broward County,FL,NA,NA,96.21848739495799,NA,NA
33334,Broward County,FL,90.01189060642093,NA,NA,NA,NA
33414,Palm Beach County,FL,50.416171224732466,NA,NA,NA,NA
33415,Palm Beach County,FL,45.18430439952438,18.220338983050848,NA,NA,NA
33426,Palm Beach County,FL,NA,NA,NA,NA,55.111111111111114
33433,Palm Beach County,FL,68.48989298454221,NA,NA,NA,NA
33435,Palm Beach County,FL,55.76694411414982,NA,NA,NA,NA
33436,Palm Beach County,FL,NA,62.42937853107344,NA,NA,NA
33440,Hendry County,FL,NA,NA,58.82352941176471,NA,NA
33442,Broward County,FL,93.34126040428062,NA,NA,NA,NA
33444,Palm Beach County,FL,NA,NA,68.34733893557423,NA,NA
33445,Palm Beach County,FL,NA,92.79661016949152,NA,NA,NA
33449,Palm Beach County,FL,NA,NA,NA,NA,84.44444444444444
33460,Palm Beach County,FL,51.60523186682521,NA,NA,NA,NA
33467,Palm Beach County,FL,77.76456599286563,NA,NA,NA,NA
33470,Palm Beach County,FL,NA,NA,71.84873949579831,NA,NA
33484,Palm Beach County,FL,NA,NA,NA,NA,23.555555555555554
33510,Hillsborough County,FL,NA,45.62146892655367,NA,NA,NA
33534,Hillsborough County,FL,72.77051129607611,NA,NA,NA,NA
33549,Hillsborough County,FL,NA,75.98870056497175,NA,NA,NA
33570,Hillsborough County,FL,NA,53.954802259887,NA,NA,NA
33579,Hillsborough County,FL,35.1961950059453,NA,NA,NA,NA
33598,Hillsborough County,FL,NA,62.005649717514125,NA,NA,NA
33602,Hillsborough County,FL,NA,NA,87.53501400560224,NA,NA
33612,Hillsborough County,FL,NA,7.062146892655368,NA,NA,NA
33624,Hillsborough County,FL,63.49583828775267,80.64971751412429,NA,NA,NA
33634,Hillsborough County,FL,NA,NA,74.36974789915966,NA,NA
33708,Pinellas County,FL,NA,NA,92.99719887955182,NA,NA
33711,Pinellas County,FL,NA,57.485875706214685,NA,NA,NA
33712,Pinellas County,FL,NA,NA,40.476190476190474,NA,NA
33771,Pinellas County,FL,59.096313912009514,34.463276836158194,NA,NA,NA
33774,Pinellas County,FL,NA,88.4180790960452,NA,NA,NA
33777,Pinellas County,FL,NA,NA,83.05322128851542,NA,NA
33805,Polk County,FL,NA,21.045197740112993,NA,NA,NA
33825,Highlands County,FL,NA,NA,NA,24.817518248175183,NA
33830,Polk County,FL,25.326991676575506,NA,NA,NA,NA
33844,Polk County,FL,NA,19.63276836158192,NA,NA,NA
33852,Highlands County,FL,NA,82.06214689265536,NA,NA,NA
33853,Polk County,FL,NA,NA,73.38935574229691,NA,NA
33859,Polk County,FL,NA,81.07344632768361,91.31652661064426,NA,NA
33881,Polk County,FL,57.55053507728894,NA,43.977591036414566,NA,NA
33898,Polk County,FL,NA,NA,66.5266106442577,NA,NA
33907,Lee County,FL,NA,NA,55.74229691876751,NA,NA
34102,Collier County,FL,NA,96.75141242937853,NA,NA,NA
34104,Collier County,FL,65.63614744351962,NA,NA,NA,NA
34112,Collier County,FL,NA,NA,63.305322128851536,NA,NA
34113,Collier County,FL,77.28894173602853,NA,NA,NA,NA
34114,Collier County,FL,NA,88.98305084745762,NA,NA,NA
34119,Collier County,FL,63.85255648038049,NA,NA,35.76642335766424,NA
34135,Lee County,FL,77.88347205707491,NA,NA,NA,NA
34205,Manatee County,FL,NA,47.88135593220339,NA,NA,NA
34208,Manatee County,FL,NA,NA,NA,NA,71.11111111111111
34212,Manatee County,FL,57.07491082045184,NA,NA,NA,NA
34287,Sarasota County,FL,NA,NA,NA,NA,21.333333333333336
34291,Sarasota County,FL,NA,NA,91.03641456582633,NA,NA
34293,Sarasota County,FL,NA,79.94350282485875,NA,NA,NA
34452,Citrus County,FL,NA,NA,70.72829131652661,NA,NA
34473,Marion County,FL,NA,30.93220338983051,56.86274509803921,NA,NA
34475,Marion County,FL,NA,77.82485875706215,NA,NA,NA
34491,Marion County,FL,NA,44.49152542372881,NA,NA,NA
34608,Hernando County,FL,59.571938168846614,NA,NA,NA,NA
34639,Pasco County,FL,80.49940546967895,NA,NA,NA,NA
34691,Pasco County,FL,44.1141498216409,NA,52.801120448179276,NA,NA
34698,Pinellas County,FL,NA,NA,61.484593837535016,NA,NA
34741,Osceola County,FL,28.894173602853744,19.2090395480226,NA,NA,NA
34746,Osceola County,FL,NA,26.55367231638418,42.016806722689076,NA,NA
34758,Osceola County,FL,NA,NA,NA,NA,68.88888888888889
34785,Sumter County,FL,NA,46.186440677966104,NA,NA,NA
34950,St. Lucie County,FL,NA,NA,60.50420168067227,NA,NA
34953,St. Lucie County,FL,21.40309155766944,NA,NA,NA,NA
34974,Okeechobee County,FL,NA,NA,61.34453781512605,NA,NA
34984,St. Lucie County,FL,NA,NA,62.46498599439776,NA,NA
34986,St. Lucie County,FL,NA,NA,NA,34.306569343065696,NA
30013,Rockdale County,GA,56.00475624256838,42.2316384180791,NA,NA,NA
30034,DeKalb County,GA,NA,NA,33.753501400560225,NA,NA
30040,Forsyth County,GA,34.839476813317475,NA,NA,NA,NA
30044,Gwinnett County,GA,NA,24.576271186440678,NA,23.722627737226276,NA
30046,Gwinnett County,GA,NA,NA,55.602240896358545,NA,NA
30058,DeKalb County,GA,NA,NA,NA,NA,60.44444444444444
30066,Cobb County,GA,31.98573127229489,NA,NA,NA,NA
30067,Cobb County,GA,58.026159334126035,NA,NA,NA,NA
30068,Cobb County,GA,NA,NA,NA,68.24817518248175,NA
30071,Gwinnett County,GA,61.71224732461356,NA,NA,NA,NA
30075,Fulton County,GA,NA,NA,NA,NA,47.11111111111111
30076,Fulton County,GA,47.91914387633769,NA,NA,NA,NA
30083,DeKalb County,GA,NA,NA,31.23249299719888,NA,NA
30084,DeKalb County,GA,68.13317479191439,NA,NA,NA,NA
30087,DeKalb County,GA,NA,NA,NA,31.386861313868614,NA
30096,Gwinnett County,GA,61.23662306777645,NA,30.952380952380953,NA,NA
30114,Cherokee County,GA,38.16884661117717,NA,NA,NA,NA
30116,Carroll County,GA,46.730083234244944,NA,NA,NA,NA
30125,Polk County,GA,41.85493460166468,NA,NA,NA,NA
30134,Douglas County,GA,NA,NA,NA,NA,62.22222222222222
30135,Douglas County,GA,NA,35.451977401129945,NA,NA,NA
30144,Cobb County,GA,73.12722948870393,NA,NA,NA,NA
30147,Floyd County,GA,NA,95.33898305084746,NA,NA,NA
30161,Floyd County,GA,5.58858501783591,NA,23.249299719887954,NA,NA
30165,Floyd County,GA,NA,NA,28.711484593837532,NA,NA
30180,Carroll County,GA,12.48513674197384,53.24858757062147,NA,NA,NA
30213,Fulton County,GA,NA,NA,NA,NA,88.88888888888889
30223,Spalding County,GA,NA,NA,43.55742296918768,NA,NA
30224,Spalding County,GA,88.46611177170035,NA,NA,NA,NA
30230,Troup County,GA,NA,NA,81.37254901960785,NA,NA
30236,Clayton County,GA,NA,46.89265536723164,36.41456582633053,NA,NA
30274,Clayton County,GA,NA,54.66101694915254,NA,NA,NA
30281,Henry County,GA,NA,36.5819209039548,NA,NA,NA
30292,Pike County,GA,93.69797859690844,NA,NA,NA,NA
30297,Clayton County,GA,35.43400713436385,NA,NA,NA,NA
30305,Fulton County,GA,NA,NA,NA,79.92700729927007,NA
30311,Fulton County,GA,43.75743162901308,NA,NA,31.751824817518248,NA
30314,Fulton County,GA,NA,58.61581920903954,NA,NA,NA
30318,Fulton County,GA,NA,60.02824858757062,NA,NA,NA
30331,Fulton County,GA,NA,23.44632768361582,NA,NA,NA
30337,Fulton County,GA,83.47205707491082,NA,NA,NA,NA
30342,Fulton County,GA,NA,70.05649717514125,NA,NA,NA
30349,Fulton County,GA,NA,NA,11.624649859943977,NA,NA
30415,Bulloch County,GA,NA,98.87005649717514,NA,NA,NA
30436,Toombs County,GA,NA,84.03954802259888,NA,NA,NA
30439,Candler County,GA,94.05469678953627,NA,NA,NA,NA
30461,Bulloch County,GA,NA,88.4180790960452,NA,NA,NA
30501,Hall County,GA,59.096313912009514,NA,NA,NA,NA
30518,Gwinnett County,GA,NA,56.21468926553672,NA,NA,NA
30519,Gwinnett County,GA,50.416171224732466,NA,NA,NA,NA
30531,Habersham County,GA,NA,NA,NA,93.06569343065694,NA
30535,Habersham County,GA,NA,98.72881355932203,NA,NA,NA
30542,Hall County,GA,56.00475624256838,NA,NA,79.1970802919708,NA
30605,Clarke County,GA,NA,NA,62.88515406162465,NA,NA
30721,Whitfield County,GA,NA,NA,27.871148459383754,NA,NA
30736,Catoosa County,GA,15.695600475624257,NA,NA,NA,NA
30741,Walker County,GA,NA,NA,NA,30.29197080291971,NA
30809,Columbia County,GA,26.159334126040427,NA,NA,NA,NA
30813,Columbia County,GA,NA,63.84180790960452,NA,50.36496350364964,NA
30824,McDuffie County,GA,56.00475624256838,NA,57.002801120448176,NA,NA
30907,Columbia County,GA,78.71581450653984,NA,NA,NA,NA
31005,Houston County,GA,85.85017835909632,NA,NA,NA,NA
31008,Peach County,GA,NA,NA,NA,67.15328467153284,NA
31061,Baldwin County,GA,NA,NA,33.0532212885154,NA,NA
31069,Houston County,GA,NA,NA,NA,NA,50.22222222222222
31204,Bibb County,GA,NA,NA,36.83473389355743,NA,NA
31206,Bibb County,GA,26.7538644470868,63.4180790960452,34.593837535014,NA,64.88888888888889
31322,Chatham County,GA,NA,79.37853107344633,NA,NA,NA
31513,Appling County,GA,NA,NA,77.03081232492998,NA,NA
31520,Glynn County,GA,NA,62.71186440677966,NA,NA,NA
31533,Coffee County,GA,NA,NA,69.32773109243698,NA,NA
31548,Camden County,GA,NA,79.51977401129943,NA,NA,NA
31601,Lowndes County,GA,NA,NA,29.271708683473392,47.81021897810219,NA
31620,Cook County,GA,NA,78.53107344632768,NA,NA,NA
31721,Dougherty County,GA,NA,91.10169491525424,NA,NA,NA
31750,Ben Hill County,GA,58.026159334126035,NA,NA,NA,NA
31763,Lee County,GA,NA,84.03954802259888,NA,NA,NA
31774,Irwin County,GA,92.9845422116528,NA,NA,NA,NA
31791,Worth County,GA,NA,77.11864406779661,NA,70.43795620437956,NA
31822,Harris County,GA,97.50297265160523,NA,NA,NA,NA
31833,Troup County,GA,NA,NA,82.07282913165265,NA,NA
31904,Muscogee County,GA,NA,37.570621468926554,NA,NA,NA
31907,Muscogee County,GA,NA,57.34463276836158,NA,NA,NA
96704,Hawaii County,HI,NA,NA,99.57983193277312,NA,NA
96706,Honolulu County,HI,11.414982164090368,NA,NA,20.072992700729927,NA
96746,Kauai County,HI,NA,88.98305084745762,NA,NA,NA
96749,Hawaii County,HI,86.56361474435195,NA,NA,78.83211678832117,NA
96768,Maui County,HI,NA,88.4180790960452,NA,NA,NA
96778,Hawaii County,HI,NA,68.22033898305084,NA,NA,NA
96786,Honolulu County,HI,NA,NA,39.075630252100844,NA,NA
96791,Honolulu County,HI,82.28299643281808,NA,NA,NA,NA
96792,Honolulu County,HI,16.171224732461358,NA,NA,NA,NA
96793,Maui County,HI,NA,65.96045197740112,81.23249299719888,NA,NA
96813,Honolulu County,HI,NA,93.78531073446328,NA,NA,NA
96818,Honolulu County,HI,NA,NA,60.22408963585434,NA,NA
96819,Honolulu County,HI,12.72294887039239,NA,NA,NA,NA
83274,Bingham County,ID,NA,NA,NA,91.970802919708035,NA
83338,Jerome County,ID,37.21759809750297,NA,NA,NA,NA
83501,Nez Perce County,ID,NA,NA,NA,53.284671532846716,NA
83647,Elmore County,ID,NA,NA,51.820728291316534,NA,NA
83709,Ada County,ID,44.351961950059454,NA,NA,NA,NA
83714,Ada County,ID,NA,NA,NA,23.357664233576642,NA
83814,Kootenai County,ID,NA,NA,NA,52.55474452554745,NA
60046,Lake County,IL,NA,NA,44.81792717086835,NA,NA
60050,McHenry County,IL,NA,NA,NA,NA,20.88888888888889
60067,Cook County,IL,33.53151010701546,NA,NA,NA,17.333333333333336
60084,Lake County,IL,65.63614744351962,NA,NA,NA,NA
60089,Lake County,IL,42.80618311533888,NA,NA,NA,NA
60091,Cook County,IL,NA,NA,77.59103641456583,NA,NA
60104,Cook County,IL,NA,NA,46.778711484593835,NA,NA
60115,DeKalb County,IL,48.39476813317479,NA,47.33893557422969,NA,NA
60137,DuPage County,IL,NA,NA,NA,39.05109489051095,15.555555555555555
60145,DeKalb County,IL,98.5731272294887,NA,NA,NA,NA
60156,McHenry County,IL,32.10463733650416,NA,NA,NA,NA
60169,Cook County,IL,29.013079667063018,NA,NA,NA,NA
60188,DuPage County,IL,NA,NA,22.689075630252102,NA,NA
60201,Cook County,IL,NA,NA,51.540616246498594,NA,NA
60403,Will County,IL,62.30677764565993,NA,NA,NA,NA
60404,Will County,IL,48.39476813317479,NA,NA,NA,NA
60409,Cook County,IL,NA,NA,NA,NA,76.44444444444444
60417,Will County,IL,92.15219976218788,NA,NA,NA,NA
60432,Will County,IL,NA,NA,64.84593837535014,NA,NA
60435,Will County,IL,18.90606420927467,NA,NA,NA,NA
60446,Will County,IL,27.824019024970276,NA,NA,NA,NA
60449,Will County,IL,92.62782401902497,NA,NA,NA,NA
60463,Cook County,IL,NA,NA,80.11204481792717,NA,NA
60505,Kane County,IL,NA,NA,35.57422969187675,NA,NA
60506,Kane County,IL,NA,NA,29.551820728291318,NA,NA
60514,DuPage County,IL,80.14268727705112,NA,NA,NA,NA
60515,DuPage County,IL,NA,NA,47.05882352941176,NA,NA
60560,Kendall County,IL,75.98097502972652,NA,NA,NA,NA
60565,DuPage County,IL,17.8359096313912,NA,35.294117647058826,66.05839416058394,NA
60586,Will County,IL,NA,NA,19.187675070028014,NA,NA
60612,Cook County,IL,26.516052318668255,NA,NA,NA,NA
60618,Cook County,IL,6.777645659928656,NA,NA,NA,NA
60621,Cook County,IL,NA,NA,NA,42.700729927007295,NA
60641,Cook County,IL,NA,NA,18.067226890756302,NA,NA
60644,Cook County,IL,24.61355529131986,NA,NA,NA,NA
60707,Cook County,IL,NA,NA,23.809523809523807,14.963503649635038,NA
60714,Cook County,IL,NA,NA,NA,51.09489051094891,NA
60901,Kankakee County,IL,NA,98.58757062146893,NA,NA,NA
61071,Whiteside County,IL,NA,NA,28.851540616246496,NA,NA
61115,Winnebago County,IL,69.67895362663495,NA,NA,NA,NA
61201,Rock Island County,IL,NA,NA,44.537815126050425,NA,NA
61265,Rock Island County,IL,NA,NA,54.34173669467787,NA,NA
61270,Whiteside County,IL,NA,NA,95.51820728291317,NA,NA
61282,Rock Island County,IL,NA,NA,92.01680672268907,NA,NA
61362,Bureau County,IL,NA,NA,NA,NA,46.666666666666664
61611,Tazewell County,IL,NA,NA,NA,NA,48.888888888888886
61705,McLean County,IL,NA,NA,83.8935574229692,NA,NA
61856,Piatt County,IL,NA,NA,NA,NA,46.22222222222222
62040,Madison County,IL,NA,NA,NA,14.5985401459854,NA
62088,Macoupin County,IL,NA,NA,NA,91.6058394160584,NA
62428,Cumberland County,IL,NA,NA,NA,99.63503649635037,NA
62544,Macon County,IL,NA,NA,NA,100,NA
46011,Madison County,IN,NA,NA,57.84313725490197,NA,NA
46033,Hamilton County,IN,NA,NA,NA,39.05109489051095,NA
46060,Hamilton County,IN,NA,NA,NA,NA,40.88888888888889
46077,Boone County,IN,NA,NA,NA,74.81751824817519,NA
46140,Hancock County,IN,36.504161712247324,NA,NA,NA,NA
46201,Marion County,IN,NA,NA,21.988795518207283,NA,NA
46202,Marion County,IN,NA,NA,NA,78.1021897810219,NA
46203,Marion County,IN,NA,NA,13.305322128851541,NA,NA
46204,Marion County,IN,NA,NA,49.01960784313725,NA,NA
46214,Marion County,IN,49.10820451843044,NA,NA,NA,NA
46218,Marion County,IN,NA,NA,NA,30.656934306569344,NA
46219,Marion County,IN,NA,NA,17.22689075630252,NA,NA
46222,Marion County,IN,NA,NA,76.75070028011206,NA,NA
46224,Marion County,IN,20.09512485136742,NA,NA,NA,NA
46227,Marion County,IN,15.457788347205708,NA,NA,NA,NA
46229,Marion County,IN,NA,NA,27.73109243697479,NA,NA
46231,Marion County,IN,89.06064209274673,NA,NA,NA,NA
46256,Marion County,IN,NA,NA,76.89075630252101,NA,NA
46310,Jasper County,IN,NA,94.49152542372882,NA,NA,NA
46342,Lake County,IN,NA,NA,8.403361344537815,NA,NA
46360,LaPorte County,IN,NA,49.43502824858757,8.683473389355742,NA,NA
46375,Lake County,IN,NA,NA,71.56862745098039,NA,NA
46383,Porter County,IN,NA,40.25423728813559,NA,NA,NA
46394,Lake County,IN,67.41973840665874,98.30508474576271,NA,NA,NA
46404,Lake County,IN,97.26516052318668,NA,NA,NA,55.55555555555556
46407,Lake County,IN,NA,76.69491525423729,NA,NA,NA
46516,Elkhart County,IN,34.48275862068966,10.734463276836157,NA,NA,NA
46530,St. Joseph County,IN,NA,NA,82.91316526610645,NA,NA
46574,St. Joseph County,IN,90.1307966706302,NA,NA,NA,NA
46616,St. Joseph County,IN,NA,NA,96.49859943977592,NA,NA
46628,St. Joseph County,IN,NA,44.49152542372881,NA,NA,NA
46635,St. Joseph County,IN,NA,NA,98.8795518207283,NA,NA
46706,DeKalb County,IN,42.33055885850178,NA,NA,NA,NA
46806,Allen County,IN,NA,26.129943502824858,NA,NA,NA
46815,Allen County,IN,40.78478002378122,NA,NA,NA,NA
46816,Allen County,IN,38.64447086801427,NA,NA,NA,NA
46835,Allen County,IN,NA,66.80790960451978,NA,NA,NA
46902,Howard County,IN,40.78478002378122,NA,NA,NA,NA
46928,Grant County,IN,95.48156956004756,NA,NA,NA,NA
46932,Cass County,IN,82.1640903686088,NA,NA,NA,NA
46947,Cass County,IN,0.11890606420927466,NA,NA,NA,NA
46952,Grant County,IN,NA,54.66101694915254,NA,NA,NA
46975,Fulton County,IN,NA,65.3954802259887,NA,NA,NA
46996,Pulaski County,IN,NA,NA,98.17927170868347,NA,NA
47129,Clark County,IN,NA,NA,NA,NA,66.22222222222223
47130,Clark County,IN,NA,NA,14.285714285714285,NA,NA
47201,Bartholomew County,IN,4.161712247324614,NA,NA,NA,NA
47374,Wayne County,IN,5.826397146254459,53.24858757062147,NA,NA,NA
47421,Lawrence County,IN,NA,72.45762711864407,NA,NA,NA
47438,Greene County,IN,NA,NA,NA,97.08029197080292,97.77777777777777
47452,Orange County,IN,92.9845422116528,NA,NA,NA,NA
47501,Daviess County,IN,NA,NA,43.27731092436975,NA,NA
47532,Dubois County,IN,98.5731272294887,NA,NA,NA,NA
47546,Dubois County,IN,43.63852556480381,NA,NA,NA,NA
47586,Perry County,IN,NA,NA,NA,NA,76
47591,Knox County,IN,NA,NA,NA,NA,21.777777777777775
47601,Warrick County,IN,NA,NA,68.62745098039215,NA,NA
47711,Vanderburgh County,IN,46.0166468489893,NA,NA,NA,NA
47712,Vanderburgh County,IN,NA,NA,59.943977591036415,NA,NA
47805,Vigo County,IN,NA,43.92655367231638,NA,NA,NA
47834,Clay County,IN,NA,40.96045197740113,NA,NA,NA
47960,White County,IN,NA,NA,73.52941176470588,NA,43.111111111111114
50022,Cass County,IA,NA,NA,NA,84.67153284671532,NA
50111,Polk County,IA,78.12128418549345,NA,NA,NA,NA
50126,Hardin County,IA,92.9845422116528,NA,NA,NA,NA
50158,Marshall County,IA,NA,NA,NA,NA,34.66666666666667
50213,Clarke County,IA,NA,95.33898305084746,NA,NA,NA
50310,Polk County,IA,NA,58.47457627118644,NA,NA,NA
50313,Polk County,IA,NA,62.71186440677966,NA,NA,NA
50314,Polk County,IA,NA,NA,NA,71.53284671532847,NA
50317,Polk County,IA,24.137931034482758,NA,16.666666666666664,NA,NA
50428,Cerro Gordo County,IA,NA,73.58757062146893,NA,NA,NA
50501,Webster County,IA,NA,NA,NA,NA,31.555555555555554
50701,Black Hawk County,IA,25.564803804994057,NA,NA,NA,NA
50702,Black Hawk County,IA,91.91438763376932,NA,NA,NA,NA
51250,Sioux County,IA,NA,NA,89.77591036414566,NA,51.11111111111111
51501,Pottawattamie County,IA,NA,NA,6.162464985994398,NA,NA
51566,Montgomery County,IA,76.21878715814506,NA,NA,NA,NA
52001,Dubuque County,IA,NA,NA,19.46778711484594,NA,NA
52302,Linn County,IA,NA,46.46892655367232,24.92997198879552,NA,NA
52317,Johnson County,IA,39.23900118906064,NA,NA,NA,NA
52501,Wapello County,IA,NA,49.717514124293785,NA,NA,NA
52544,Appanoose County,IA,NA,NA,NA,NA,52.44444444444445
52627,Lee County,IA,NA,NA,NA,55.839416058394164,58.666666666666664
52632,Lee County,IA,NA,NA,46.358543417366946,NA,NA
52732,Clinton County,IA,55.29131985731273,NA,NA,NA,NA
52804,Scott County,IA,NA,NA,20.868347338935575,NA,NA
52806,Scott County,IA,31.866825208085615,NA,24.509803921568626,NA,NA
52807,Scott County,IA,57.07491082045184,NA,NA,NA,NA
66030,Johnson County,KS,37.93103448275862,NA,NA,NA,NA
66048,Leavenworth County,KS,NA,NA,37.53501400560224,NA,NA
66067,Franklin County,KS,67.18192627824018,NA,NA,NA,NA
66086,Leavenworth County,KS,NA,NA,NA,83.94160583941606,NA
66503,Riley County,KS,NA,NA,NA,90.51094890510949,NA
66614,Shawnee County,KS,NA,NA,40.19607843137255,NA,NA
66762,Crawford County,KS,NA,NA,73.80952380952381,NA,NA
67042,Butler County,KS,NA,NA,69.04761904761905,72.62773722627736,NA
67216,Sedgwick County,KS,NA,NA,80.25210084033614,NA,NA
67420,Mitchell County,KS,98.33531510107015,NA,NA,NA,NA
67502,Reno County,KS,NA,NA,76.47058823529412,68.97810218978103,NA
67601,Ellis County,KS,NA,NA,48.739495798319325,NA,10.222222222222223
67851,Finney County,KS,NA,NA,99.29971988795518,NA,NA
40033,Marion County,KY,54.577883472057074,NA,NA,NA,NA
40047,Bullitt County,KY,61.47443519619501,NA,NA,NA,NA
40065,Shelby County,KY,NA,NA,NA,40.14598540145985,NA
40118,Jefferson County,KY,86.80142687277052,NA,NA,NA,NA
40160,Hardin County,KY,NA,NA,37.81512605042017,NA,NA
40165,Bullitt County,KY,NA,NA,18.76750700280112,NA,NA
40203,Jefferson County,KY,16.76575505350773,NA,NA,NA,NA
40211,Jefferson County,KY,25.208085612366233,NA,NA,NA,NA
40212,Jefferson County,KY,NA,NA,67.22689075630252,NA,NA
40214,Jefferson County,KY,17.00356718192628,NA,NA,NA,NA
40216,Jefferson County,KY,NA,22.175141242937855,NA,NA,NA
40217,Jefferson County,KY,87.39595719381688,NA,NA,NA,NA
40218,Jefferson County,KY,20.80856123662307,NA,NA,NA,NA
40220,Jefferson County,KY,NA,70.05649717514125,NA,NA,NA
40245,Jefferson County,KY,56.59928656361475,NA,NA,NA,NA
40258,Jefferson County,KY,NA,52.68361581920904,26.190476190476193,NA,NA
40299,Jefferson County,KY,39.71462544589774,NA,NA,NA,24.444444444444443
40311,Nicholas County,KY,NA,93.78531073446328,NA,NA,NA
40361,Bourbon County,KY,NA,49.717514124293785,NA,NA,NA
40383,Woodford County,KY,73.7217598097503,NA,NA,NA,NA
40391,Clark County,KY,NA,NA,NA,NA,29.777777777777775
40475,Madison County,KY,25.44589774078478,NA,NA,NA,NA
40505,Fayette County,KY,21.640903686087988,NA,NA,NA,NA
40508,Fayette County,KY,54.9346016646849,NA,39.49579831932773,NA,NA
40511,Fayette County,KY,29.369797859690845,NA,NA,NA,NA
40515,Fayette County,KY,NA,NA,57.56302521008403,NA,NA
40517,Fayette County,KY,NA,23.022598870056495,NA,NA,NA
40701,Whitley County,KY,NA,NA,15.686274509803921,NA,NA
40741,Laurel County,KY,NA,NA,25.910364145658267,NA,NA
40744,Laurel County,KY,NA,NA,33.193277310924366,NA,NA
41008,Carroll County,KY,82.87752675386444,NA,NA,NA,NA
41011,Kenton County,KY,48.870392390011894,NA,NA,NA,NA
41014,Kenton County,KY,NA,73.87005649717514,NA,NA,NA
41018,Kenton County,KY,NA,NA,NA,NA,65.77777777777779
41074,Campbell County,KY,83.82877526753865,NA,NA,NA,NA
41143,Carter County,KY,23.781212841854934,NA,NA,NA,NA
41164,Carter County,KY,NA,32.34463276836158,NA,NA,NA
41230,Lawrence County,KY,NA,NA,NA,NA,75.1111111111111
41339,Breathitt County,KY,NA,NA,56.1624649859944,NA,NA
41472,Morgan County,KY,NA,NA,93.27731092436974,NA,NA
42003,McCracken County,KY,NA,NA,19.047619047619047,NA,NA
42104,Warren County,KY,NA,90.3954802259887,NA,NA,NA
42134,Simpson County,KY,81.80737217598097,NA,NA,NA,NA
42141,Barren County,KY,NA,NA,17.086834733893557,NA,NA
42206,Logan County,KY,NA,NA,94.81792717086834,NA,NA
42240,Christian County,KY,22.94887039239001,NA,NA,NA,NA
42276,Logan County,KY,NA,NA,63.58543417366946,NA,NA
42301,Daviess County,KY,11.890606420927467,NA,13.865546218487395,16.05839416058394,NA
42303,Daviess County,KY,NA,37.994350282485875,41.596638655462186,NA,NA
42420,Henderson County,KY,NA,NA,NA,NA,60
42431,Hopkins County,KY,NA,54.66101694915254,NA,NA,NA
42437,Union County,KY,NA,NA,NA,93.43065693430657,NA
42518,Pulaski County,KY,NA,NA,99.15966386554622,NA,NA
42642,Russell County,KY,NA,50.706214689265536,NA,NA,NA
42718,Taylor County,KY,NA,NA,17.366946778711483,NA,NA
42748,Larue County,KY,NA,NA,86.97478991596638,NA,NA
70002,Jefferson Parish,LA,24.61355529131986,NA,NA,NA,NA
70043,St. Bernard Parish,LA,10.582639714625445,25.98870056497175,19.327731092436977,NA,NA
70053,Jefferson Parish,LA,59.45303210463734,NA,28.291316526610643,NA,NA
70058,Jefferson Parish,LA,0.47562425683709864,NA,NA,NA,NA
70072,Jefferson Parish,LA,NA,0.423728813559322,2.5210084033613445,NA,NA
70114,Orleans Parish,LA,NA,50.1412429378531,NA,NA,NA
70119,Orleans Parish,LA,47.91914387633769,5.508474576271186,NA,NA,NA
70122,Orleans Parish,LA,NA,37.28813559322034,NA,NA,NA
70126,Orleans Parish,LA,NA,21.75141242937853,NA,NA,NA
70127,Orleans Parish,LA,57.55053507728894,NA,NA,NA,NA
70130,Orleans Parish,LA,80.38049940546968,NA,NA,NA,NA
70373,Lafourche Parish,LA,70.27348394768134,NA,NA,NA,NA
70380,St. Mary Parish,LA,70.51129607609988,NA,NA,NA,NA
70394,Lafourche Parish,LA,25.921521997621877,NA,NA,NA,NA
70401,Tangipahoa Parish,LA,10.70154577883472,NA,NA,NA,NA
70420,St. Tammany Parish,LA,61.47443519619501,NA,NA,NA,NA
70422,Tangipahoa Parish,LA,15.219976218787156,NA,NA,NA,NA
70438,Washington Parish,LA,65.51724137931035,NA,NA,NA,NA
70444,Tangipahoa Parish,LA,NA,16.242937853107346,NA,NA,NA
70445,St. Tammany Parish,LA,93.935790725327,NA,NA,NA,NA
70446,Tangipahoa Parish,LA,NA,24.01129943502825,NA,NA,NA
70462,Livingston Parish,LA,99.52437574316289,NA,NA,NA,NA
70506,Lafayette Parish,LA,7.609988109393578,NA,NA,NA,NA
70510,Vermilion Parish,LA,NA,NA,14.985994397759104,NA,NA
70517,St. Martin Parish,LA,NA,14.26553672316384,NA,NA,NA
70526,Acadia Parish,LA,NA,39.40677966101695,NA,NA,NA
70529,Lafayette Parish,LA,38.525564803805,NA,NA,NA,NA
70570,St. Landry Parish,LA,NA,NA,NA,54.379562043795616,NA
70582,St. Martin Parish,LA,37.81212841854934,NA,NA,NA,NA
70601,Calcasieu Parish,LA,6.896551724137931,3.389830508474576,3.221288515406162,NA,NA
70607,Calcasieu Parish,LA,NA,NA,NA,NA,93.77777777777779
70726,Livingston Parish,LA,NA,61.5819209039548,NA,NA,NA
70737,Ascension Parish,LA,14.863258026159334,NA,NA,NA,NA
70754,Livingston Parish,LA,NA,94.35028248587571,NA,NA,NA
70757,Iberville Parish,LA,NA,68.64406779661016,NA,NA,NA
70760,Pointe Coupee Parish,LA,NA,NA,92.43697478991596,NA,NA
70805,East Baton Rouge Parish,LA,5.35077288941736,NA,NA,NA,NA
70806,East Baton Rouge Parish,LA,16.646848989298455,15.3954802259887,NA,NA,NA
70816,East Baton Rouge Parish,LA,NA,8.333333333333332,NA,NA,NA
70820,East Baton Rouge Parish,LA,NA,74.15254237288136,NA,NA,NA
71052,De Soto Parish,LA,43.75743162901308,NA,NA,NA,NA
71105,Caddo Parish,LA,51.843043995243754,NA,NA,NA,NA
71106,Caddo Parish,LA,NA,54.23728813559322,NA,NA,NA
71119,Caddo Parish,LA,NA,NA,66.94677871148458,NA,NA
71241,Union Parish,LA,NA,NA,65.54621848739495,NA,NA
71270,Lincoln Parish,LA,63.73365041617123,NA,NA,NA,NA
71280,Ouachita Parish,LA,94.76813317479191,NA,NA,NA,NA
71302,Rapides Parish,LA,NA,15.96045197740113,NA,NA,NA
71303,Rapides Parish,LA,7.8478002378121285,NA,34.173669467787114,NA,NA
71373,Concordia Parish,LA,NA,83.89830508474576,NA,NA,NA
71417,Grant Parish,LA,NA,73.87005649717514,NA,NA,NA
71457,Natchitoches Parish,LA,9.869203329369798,NA,NA,NA,NA
03901,York County,ME,84.0665873959572,NA,NA,NA,NA
04005,York County,ME,NA,34.18079096045198,NA,NA,NA
04009,Cumberland County,ME,NA,NA,NA,NA,81.33333333333333
04038,Cumberland County,ME,NA,NA,61.06442577030813,NA,NA
04062,Cumberland County,ME,NA,NA,NA,NA,79.55555555555556
04064,York County,ME,70.98692033293698,NA,NA,NA,NA
04092,Cumberland County,ME,NA,NA,45.938375350140056,NA,NA
04102,Cumberland County,ME,20.451843043995243,NA,NA,NA,NA
04106,Cumberland County,ME,NA,NA,NA,44.16058394160584,NA
04210,Androscoggin County,ME,NA,NA,NA,NA,12.88888888888889
04240,Androscoggin County,ME,4.637336504161712,NA,33.89355742296919,NA,NA
04330,Kennebec County,ME,40.07134363852556,NA,NA,NA,NA
04401,Penobscot County,ME,NA,NA,NA,NA,1.3333333333333335
04412,Penobscot County,ME,NA,NA,NA,NA,30.666666666666664
04578,Lincoln County,ME,NA,88.98305084745762,NA,NA,NA
04605,Hancock County,ME,NA,NA,NA,33.21167883211679,NA
04730,Aroostook County,ME,53.983353151010704,NA,NA,NA,NA
04841,Knox County,ME,54.22116527942925,NA,NA,NA,NA
04901,Kennebec County,ME,NA,NA,NA,NA,5.777777777777778
04915,Waldo County,ME,NA,NA,78.29131652661064,NA,NA
20607,Prince George's County,MD,85.85017835909632,NA,NA,NA,NA
20639,Calvert County,MD,76.93222354340071,NA,NA,NA,NA
20657,Calvert County,MD,NA,NA,76.05042016806722,NA,NA
20740,Prince George's County,MD,92.27110582639715,NA,NA,NA,NA
20745,Prince George's County,MD,88.70392390011891,NA,NA,NA,NA
20747,Prince George's County,MD,NA,NA,54.48179271708683,NA,NA
20784,Prince George's County,MD,NA,NA,75.49019607843137,NA,NA
20832,Montgomery County,MD,69.91676575505352,NA,83.75350140056022,NA,NA
20855,Montgomery County,MD,NA,NA,93.41736694677871,NA,NA
20866,Montgomery County,MD,77.28894173602853,NA,NA,NA,NA
21136,Baltimore County,MD,NA,NA,66.24649859943978,NA,NA
21206,Baltimore city,MD,NA,NA,NA,19.34306569343066,NA
21217,Baltimore city,MD,NA,NA,NA,NA,54.22222222222223
21225,Baltimore city,MD,NA,NA,40.476190476190474,NA,NA
21227,Baltimore County,MD,NA,NA,NA,60.21897810218978,NA
21228,Baltimore County,MD,NA,NA,59.66386554621849,NA,NA
21716,Frederick County,MD,NA,NA,99.29971988795518,NA,NA
21740,Washington County,MD,14.030915576694412,NA,NA,NA,NA
21801,Wicomico County,MD,NA,NA,NA,70.07299270072993,NA
21850,Wicomico County,MD,99.16765755053508,NA,NA,NA,NA
21921,Cecil County,MD,52.318668252080855,NA,NA,9.124087591240876,NA
01007,Hampshire County,MA,NA,77.11864406779661,57.98319327731093,NA,NA
01013,Hampden County,MA,NA,24.152542372881356,NA,NA,NA
01033,Hampshire County,MA,96.07609988109394,NA,NA,NA,NA
01040,Hampden County,MA,NA,6.3559322033898304,NA,NA,NA
01108,Hampden County,MA,NA,NA,2.661064425770308,NA,NA
01201,Berkshire County,MA,2.2592152199762188,NA,NA,NA,NA
01230,Berkshire County,MA,NA,NA,NA,61.31386861313869,NA
01301,Franklin County,MA,NA,2.6836158192090394,NA,NA,NA
01420,Worcester County,MA,NA,NA,0.42016806722689076,NA,NA
01453,Worcester County,MA,11.771700356718192,NA,NA,NA,NA
01545,Worcester County,MA,NA,NA,56.582633053221286,NA,NA
01606,Worcester County,MA,74.19738406658739,NA,NA,NA,NA
01752,Middlesex County,MA,NA,6.638418079096045,NA,NA,NA
01760,Middlesex County,MA,NA,NA,NA,87.22627737226277,NA
01801,Middlesex County,MA,NA,NA,2.380952380952381,NA,NA
01803,Middlesex County,MA,50.89179548156956,NA,NA,NA,NA
01821,Middlesex County,MA,29.131985731272298,NA,NA,NA,NA
01826,Middlesex County,MA,NA,25.28248587570621,NA,NA,NA
01830,Essex County,MA,NA,87.85310734463276,NA,NA,NA
01832,Essex County,MA,NA,NA,NA,NA,24.88888888888889
01841,Essex County,MA,NA,10.310734463276836,0.1400560224089636,NA,NA
01843,Essex County,MA,NA,NA,NA,26.277372262773724,NA
01850,Middlesex County,MA,83.35315101070154,NA,NA,NA,NA
01902,Essex County,MA,26.516052318668255,NA,0.5602240896358543,NA,NA
01904,Essex County,MA,NA,NA,15.126050420168067,NA,NA
01906,Essex County,MA,NA,51.9774011299435,NA,NA,NA
01945,Essex County,MA,58.50178359096314,NA,NA,NA,NA
01966,Essex County,MA,NA,NA,73.80952380952381,NA,NA
02019,Norfolk County,MA,NA,NA,41.87675070028011,NA,NA
02072,Norfolk County,MA,68.96551724137932,NA,NA,NA,NA
02116,Suffolk County,MA,NA,NA,NA,5.109489051094891,NA
02118,Suffolk County,MA,NA,NA,0.2801120448179272,NA,NA
02121,Suffolk County,MA,NA,NA,NA,1.094890510948905,NA
02124,Suffolk County,MA,NA,NA,0.9803921568627451,0.36496350364963503,NA
02126,Suffolk County,MA,NA,NA,NA,NA,22.666666666666664
02128,Suffolk County,MA,NA,30.7909604519774,NA,NA,NA
02131,Suffolk County,MA,NA,NA,2.941176470588235,NA,NA
02136,Suffolk County,MA,NA,13.700564971751412,NA,NA,NA
02148,Middlesex County,MA,NA,NA,0,NA,NA
02149,Middlesex County,MA,NA,3.248587570621469,NA,NA,NA
02155,Middlesex County,MA,50.29726516052319,NA,NA,NA,NA
02189,Norfolk County,MA,62.18787158145065,NA,NA,NA,NA
02302,Plymouth County,MA,NA,NA,NA,3.64963503649635,NA
02347,Plymouth County,MA,79.66706302021403,NA,NA,NA,NA
02351,Plymouth County,MA,NA,75.98870056497175,NA,NA,NA
02453,Middlesex County,MA,NA,NA,13.165266106442578,NA,NA
02472,Middlesex County,MA,NA,NA,10.644257703081232,NA,NA
02478,Middlesex County,MA,86.68252080856124,NA,NA,NA,NA
02539,Dukes County,MA,NA,NA,NA,96.35036496350365,NA
02639,Barnstable County,MA,NA,NA,NA,NA,78.22222222222223
02645,Barnstable County,MA,NA,NA,72.54901960784314,NA,NA
02675,Barnstable County,MA,NA,NA,83.61344537815127,NA,NA
02703,Bristol County,MA,1.426872770511296,NA,NA,NA,NA
02719,Bristol County,MA,31.03448275862069,NA,NA,NA,NA
02745,Bristol County,MA,66.34958382877527,NA,NA,NA,NA
02762,Norfolk County,MA,NA,98.0225988700565,63.725490196078425,NA,NA
02767,Bristol County,MA,NA,55.50847457627118,NA,NA,NA
02780,Bristol County,MA,NA,5.367231638418079,NA,NA,NA
48021,Macomb County,MI,NA,NA,14.84593837535014,NA,NA
48025,Oakland County,MI,NA,NA,NA,NA,70.22222222222221
48030,Oakland County,MI,34.244946492271104,NA,49.719887955182074,NA,NA
48038,Macomb County,MI,NA,NA,NA,NA,4.444444444444445
48042,Macomb County,MI,NA,NA,NA,36.13138686131387,NA
48045,Macomb County,MI,NA,NA,28.431372549019606,NA,NA
48060,St. Clair County,MI,NA,29.23728813559322,NA,NA,NA
48062,Macomb County,MI,NA,NA,85.85434173669468,NA,NA
48066,Macomb County,MI,NA,NA,6.302521008403361,NA,NA
48073,Oakland County,MI,30.439952437574313,NA,NA,NA,NA
48081,Macomb County,MI,NA,NA,NA,NA,20
48097,St. Clair County,MI,NA,NA,NA,87.59124087591242,NA
48103,Washtenaw County,MI,NA,NA,NA,NA,2.666666666666667
48104,Washtenaw County,MI,NA,NA,NA,NA,24
48105,Washtenaw County,MI,NA,NA,45.51820728291317,22.99270072992701,NA
48108,Washtenaw County,MI,NA,NA,NA,41.605839416058394,NA
48116,Livingston County,MI,79.66706302021403,NA,NA,NA,NA
48124,Wayne County,MI,NA,NA,NA,69.34306569343066,NA
48126,Wayne County,MI,NA,5.084745762711865,NA,NA,NA
48127,Wayne County,MI,NA,42.2316384180791,NA,NA,NA
48135,Wayne County,MI,NA,NA,NA,NA,23.11111111111111
48137,Livingston County,MI,NA,NA,97.19887955182072,NA,NA
48141,Wayne County,MI,NA,NA,12.324929971988796,NA,NA
48161,Monroe County,MI,7.253269916765754,NA,NA,NA,NA
48180,Wayne County,MI,NA,52.54237288135594,NA,NA,3.5555555555555554
48188,Wayne County,MI,NA,NA,NA,10.948905109489052,NA
48195,Wayne County,MI,36.623067776456594,NA,NA,NA,NA
48201,Wayne County,MI,79.54815695600476,NA,NA,NA,NA
48202,Wayne County,MI,NA,NA,34.03361344537815,NA,NA
48204,Wayne County,MI,13.912009512485138,21.89265536723164,NA,NA,NA
48205,Wayne County,MI,NA,30.36723163841808,NA,NA,NA
48207,Wayne County,MI,13.793103448275861,NA,NA,NA,NA
48208,Wayne County,MI,NA,NA,64.00560224089635,NA,NA
48209,Wayne County,MI,20.09512485136742,NA,NA,NA,NA
48210,Wayne County,MI,NA,22.175141242937855,NA,NA,NA
48213,Wayne County,MI,NA,NA,15.826330532212884,NA,NA
48214,Wayne County,MI,NA,NA,23.669467787114844,NA,NA
48215,Wayne County,MI,57.78834720570749,NA,75.91036414565826,NA,NA
48218,Wayne County,MI,NA,71.46892655367232,NA,NA,NA
48219,Wayne County,MI,NA,36.15819209039548,7.703081232492997,NA,NA
48221,Wayne County,MI,NA,19.774011299435028,NA,NA,NA
48223,Wayne County,MI,12.841854934601665,NA,NA,NA,NA
48224,Wayne County,MI,NA,NA,4.061624649859944,NA,NA
48227,Wayne County,MI,NA,NA,5.742296918767507,NA,NA
48228,Wayne County,MI,NA,NA,2.801120448179272,NA,NA
48237,Oakland County,MI,18.192627824019027,NA,NA,NA,NA
48309,Oakland County,MI,51.12960760998811,NA,NA,NA,NA
48329,Oakland County,MI,49.34601664684899,NA,NA,NA,NA
48334,Oakland County,MI,NA,NA,84.45378151260505,NA,NA
48340,Oakland County,MI,NA,28.954802259887007,NA,NA,NA
48341,Oakland County,MI,22.35434007134364,NA,NA,NA,NA
48357,Oakland County,MI,NA,87.42937853107344,NA,NA,NA
48383,Oakland County,MI,NA,82.90960451977402,NA,NA,NA
48439,Genesee County,MI,NA,NA,NA,24.087591240875913,NA
48473,Genesee County,MI,NA,NA,NA,NA,64
48504,Genesee County,MI,NA,13.135593220338984,NA,NA,NA
48601,Saginaw County,MI,0.356718192627824,NA,NA,NA,NA
48610,Arenac County,MI,NA,NA,99.01960784313727,NA,NA
48622,Clare County,MI,78.95362663495838,NA,NA,NA,NA
48624,Gladwin County,MI,48.75148632580262,NA,NA,NA,NA
48647,Oscoda County,MI,NA,NA,92.71708683473389,NA,NA
48657,Midland County,MI,NA,NA,NA,NA,60.88888888888889
48661,Ogemaw County,MI,55.29131985731273,NA,NA,NA,NA
48836,Livingston County,MI,NA,NA,60.78431372549019,NA,NA
48838,Montcalm County,MI,NA,NA,35.99439775910364,NA,NA
48842,Ingham County,MI,NA,97.88135593220339,NA,NA,NA
48858,Isabella County,MI,NA,87.99435028248588,NA,NA,NA
48867,Shiawassee County,MI,NA,NA,NA,NA,9.777777777777779
48910,Ingham County,MI,NA,NA,16.946778711484594,NA,NA
48911,Ingham County,MI,NA,NA,32.07282913165266,NA,NA
48912,Ingham County,MI,76.57550535077289,NA,NA,NA,NA
49002,Kalamazoo County,MI,NA,NA,NA,40.51094890510949,NA
49006,Kalamazoo County,MI,NA,NA,58.26330532212886,NA,NA
49017,Calhoun County,MI,39.23900118906064,77.82485875706215,NA,NA,NA
49024,Kalamazoo County,MI,NA,NA,30.532212885154063,NA,NA
49048,Kalamazoo County,MI,NA,57.485875706214685,NA,NA,NA
49083,Kalamazoo County,MI,82.87752675386444,NA,NA,NA,NA
49085,Berrien County,MI,NA,NA,63.02521008403361,NA,NA
49202,Jackson County,MI,40.19024970273484,NA,NA,NA,NA
49232,Hillsdale County,MI,97.74078478002379,NA,NA,NA,NA
49345,Kent County,MI,79.19143876337694,NA,NA,NA,NA
49424,Ottawa County,MI,68.72770511296076,NA,NA,NA,NA
49444,Muskegon County,MI,NA,22.175141242937855,14.005602240896359,NA,NA
49450,Allegan County,MI,NA,82.90960451977402,NA,NA,NA
49461,Muskegon County,MI,73.24613555291319,NA,NA,NA,NA
49503,Kent County,MI,NA,38.13559322033898,NA,NA,NA
49504,Kent County,MI,NA,25.28248587570621,NA,20.437956204379564,NA
49505,Kent County,MI,NA,63.13559322033898,NA,NA,NA
49507,Kent County,MI,NA,NA,50.280112044817926,NA,NA
49519,Kent County,MI,NA,NA,NA,NA,40
49548,Kent County,MI,6.539833531510107,NA,NA,NA,NA
49646,Kalkaska County,MI,73.7217598097503,NA,NA,NA,NA
49660,Manistee County,MI,50.416171224732466,NA,NA,NA,NA
49677,Osceola County,MI,81.09393579072533,NA,NA,NA,NA
49721,Cheboygan County,MI,44.946492271105825,NA,NA,NA,NA
49868,Luce County,MI,80.61831153388823,NA,NA,NA,NA
49946,Baraga County,MI,96.07609988109394,NA,NA,NA,NA
55006,Isanti County,MN,NA,98.0225988700565,NA,NA,NA
55066,Goodhue County,MN,NA,NA,NA,NA,45.77777777777778
55106,Ramsey County,MN,NA,60.87570621468926,10.084033613445378,NA,NA
55107,Ramsey County,MN,NA,40.11299435028249,NA,NA,NA
55113,Ramsey County,MN,NA,59.32203389830508,NA,NA,NA
55117,Ramsey County,MN,6.302021403091558,NA,NA,NA,NA
55118,Dakota County,MN,NA,NA,82.6330532212885,NA,NA
55119,Ramsey County,MN,34.126040428061835,NA,NA,NA,NA
55125,Washington County,MN,33.650416171224734,NA,NA,NA,NA
55129,Washington County,MN,NA,NA,78.71148459383754,NA,NA
55303,Anoka County,MN,92.86563614744352,NA,NA,NA,NA
55350,McLeod County,MN,NA,NA,NA,NA,19.555555555555557
55388,Carver County,MN,97.74078478002379,NA,NA,NA,NA
55404,Hennepin County,MN,NA,4.943502824858757,13.725490196078432,NA,NA
55405,Hennepin County,MN,NA,NA,75.63025210084034,NA,NA
55406,Hennepin County,MN,NA,NA,28.15126050420168,NA,NA
55408,Hennepin County,MN,NA,NA,16.386554621848738,NA,NA
55411,Hennepin County,MN,NA,3.1073446327683616,NA,NA,NA
55418,Hennepin County,MN,NA,NA,31.79271708683473,NA,NA
55419,Hennepin County,MN,NA,20.62146892655367,NA,NA,NA
55421,Anoka County,MN,NA,NA,NA,NA,45.33333333333333
55423,Hennepin County,MN,NA,10.875706214689265,NA,NA,NA
55427,Hennepin County,MN,NA,51.12994350282486,NA,NA,NA
55428,Hennepin County,MN,NA,NA,23.389355742296917,NA,NA
55429,Hennepin County,MN,14.74435196195006,NA,NA,NA,NA
55435,Hennepin County,MN,NA,NA,NA,89.78102189781022,NA
55448,Anoka County,MN,24.37574316290131,NA,NA,NA,NA
55734,St. Louis County,MN,NA,71.46892655367232,NA,NA,NA
55744,Itasca County,MN,NA,16.807909604519775,NA,NA,NA
55811,St. Louis County,MN,NA,87.99435028248588,NA,7.664233576642336,NA
55901,Olmsted County,MN,NA,NA,29.971988795518207,NA,NA
55902,Olmsted County,MN,NA,NA,84.31372549019608,NA,NA
55912,Mower County,MN,NA,NA,NA,NA,0
55944,Dodge County,MN,NA,NA,NA,NA,96
56001,Blue Earth County,MN,NA,69.49152542372882,NA,NA,NA
56007,Freeborn County,MN,21.997621878715815,61.29943502824858,NA,NA,NA
56011,Scott County,MN,71.8192627824019,NA,NA,NA,NA
56013,Faribault County,MN,60.64209274673008,NA,NA,NA,NA
56093,Waseca County,MN,NA,NA,NA,NA,30.22222222222222
56187,Nobles County,MN,52.675386444708685,NA,NA,NA,NA
56201,Kandiyohi County,MN,NA,65.3954802259887,NA,NA,NA
56345,Morrison County,MN,42.21165279429251,NA,NA,NA,NA
56401,Crow Wing County,MN,NA,NA,NA,NA,4.888888888888889
56442,Crow Wing County,MN,NA,NA,98.73949579831933,NA,NA
56470,Hubbard County,MN,NA,60.73446327683616,NA,47.08029197080292,NA
56473,Cass County,MN,NA,NA,96.35854341736695,NA,NA
56601,Beltrami County,MN,NA,NA,9.523809523809524,NA,1.7777777777777777
56623,Lake of the Woods County,MN,94.53032104637337,NA,NA,NA,NA
56701,Pennington County,MN,NA,NA,NA,82.11678832116789,NA
38614,Coahoma County,MS,NA,59.32203389830508,NA,NA,NA
38619,Panola County,MS,NA,96.045197740113,NA,NA,NA
38637,DeSoto County,MS,NA,50.706214689265536,NA,NA,NA
38654,DeSoto County,MS,NA,NA,NA,32.11678832116788,NA
38655,Lafayette County,MS,NA,48.44632768361582,NA,NA,NA
38663,Tippah County,MS,71.3436385255648,NA,NA,NA,NA
38671,DeSoto County,MS,NA,54.66101694915254,38.79551820728292,NA,NA
38703,Washington County,MS,48.39476813317479,48.87005649717514,NA,NA,NA
38756,Washington County,MS,NA,83.47457627118644,NA,NA,NA
38849,Lee County,MS,NA,99.71751412429379,NA,NA,NA
38901,Grenada County,MS,NA,NA,85.43417366946778,NA,NA
38916,Calhoun County,MS,NA,91.10169491525424,NA,NA,NA
38967,Montgomery County,MS,NA,NA,87.11484593837535,NA,NA
39046,Madison County,MS,NA,34.03954802259887,NA,NA,NA
39047,Rankin County,MS,NA,77.82485875706215,NA,NA,NA
39110,Madison County,MS,NA,NA,NA,NA,36.44444444444444
39114,Simpson County,MS,NA,90.3954802259887,NA,NA,NA
39120,Adams County,MS,80.97502972651606,64.26553672316385,48.319327731092436,NA,NA
39159,Sharkey County,MS,NA,88.4180790960452,NA,NA,NA
39180,Warren County,MS,NA,35.73446327683616,NA,NA,NA
39202,Hinds County,MS,96.07609988109394,NA,NA,NA,NA
39203,Hinds County,MS,93.69797859690844,NA,NA,NA,NA
39208,Rankin County,MS,67.06302021403091,28.53107344632768,NA,NA,NA
39209,Hinds County,MS,NA,NA,27.030812324929972,NA,NA
39301,Lauderdale County,MS,29.48870392390012,NA,NA,NA,73.33333333333333
39307,Lauderdale County,MS,NA,NA,45.79831932773109,NA,NA
39345,Newton County,MS,NA,84.7457627118644,NA,NA,NA
39350,Neshoba County,MS,NA,NA,30.392156862745097,NA,NA
39422,Jasper County,MS,NA,NA,84.17366946778712,NA,NA
39428,Covington County,MS,NA,78.67231638418079,NA,NA,NA
39429,Marion County,MS,NA,NA,72.82913165266106,NA,NA
39452,George County,MS,NA,NA,29.411764705882355,NA,NA
39466,Pearl River County,MS,84.18549346016647,NA,NA,NA,NA
39501,Harrison County,MS,NA,9.745762711864407,NA,NA,NA
39531,Harrison County,MS,NA,NA,77.45098039215686,NA,NA
39540,Harrison County,MS,NA,91.10169491525424,NA,NA,NA
39553,Jackson County,MS,NA,NA,52.66106442577031,NA,NA
39564,Jackson County,MS,47.205707491082045,40.25423728813559,NA,NA,NA
39744,Webster County,MS,NA,92.79661016949152,NA,NA,NA
39759,Oktibbeha County,MS,NA,NA,72.68907563025209,NA,NA
39773,Clay County,MS,69.91676575505352,NA,73.66946778711485,NA,NA
63021,St. Louis County,MO,26.7538644470868,NA,NA,NA,NA
63110,St. Louis city,MO,NA,88.98305084745762,NA,NA,NA
63115,St. Louis city,MO,33.17479191438763,NA,NA,NA,NA
63122,St. Louis County,MO,43.281807372175976,NA,NA,NA,NA
63129,St. Louis County,MO,54.4589774078478,NA,NA,NA,NA
63134,St. Louis County,MO,52.437574316290124,NA,78.43137254901961,NA,NA
63136,St. Louis County,MO,2.3781212841854935,NA,NA,NA,NA
63137,St. Louis County,MO,21.759809750297265,31.21468926553672,NA,NA,NA
63304,St. Charles County,MO,44.589774078478,NA,NA,NA,NA
63348,St. Charles County,MO,NA,NA,NA,NA,96.88888888888889
63367,St. Charles County,MO,39.23900118906064,NA,NA,NA,27.555555555555557
63376,St. Charles County,MO,NA,23.728813559322035,NA,NA,5.333333333333334
63379,Lincoln County,MO,NA,NA,32.773109243697476,NA,NA
63650,Iron County,MO,NA,NA,NA,94.52554744525547,NA
63664,Washington County,MO,NA,NA,NA,77.37226277372264,NA
63670,Ste. Genevieve County,MO,NA,41.66666666666667,NA,NA,NA
63841,Stoddard County,MO,NA,NA,58.68347338935575,NA,NA
64014,Jackson County,MO,13.555291319857313,NA,NA,NA,NA
64024,Clay County,MO,26.040428061831157,NA,NA,NA,NA
64030,Jackson County,MO,9.274673008323424,27.683615819209038,NA,NA,NA
64057,Jackson County,MO,NA,NA,50,NA,NA
64068,Clay County,MO,NA,54.378531073446325,NA,NA,NA
64075,Jackson County,MO,62.06896551724138,NA,NA,NA,NA
64083,Cass County,MO,29.845422116527942,NA,NA,NA,NA
64089,Clay County,MO,42.092746730083235,74.85875706214689,NA,NA,NA
64106,Jackson County,MO,8.442330558858501,NA,NA,NA,NA
64110,Jackson County,MO,42.80618311533888,55.6497175141243,NA,NA,NA
64124,Jackson County,MO,NA,40.96045197740113,NA,NA,NA
64127,Jackson County,MO,NA,NA,9.38375350140056,NA,NA
64130,Jackson County,MO,57.431629013079665,NA,NA,NA,NA
64131,Jackson County,MO,NA,NA,51.40056022408963,NA,NA
64151,Platte County,MO,NA,NA,NA,25.547445255474454,NA
64152,Platte County,MO,NA,NA,23.389355742296917,NA,NA
64503,Buchanan County,MO,23.18668252080856,NA,NA,NA,NA
64506,Buchanan County,MO,NA,NA,NA,10.218978102189782,NA
64701,Cass County,MO,NA,NA,NA,69.7080291970803,NA
64772,Vernon County,MO,NA,46.04519774011299,48.03921568627451,NA,NA
64836,Jasper County,MO,NA,38.559322033898304,NA,NA,NA
64850,Newton County,MO,NA,NA,20.168067226890756,NA,NA
64870,Jasper County,MO,NA,NA,52.52100840336135,NA,NA
65233,Cooper County,MO,NA,NA,NA,NA,80.44444444444444
65251,Callaway County,MO,NA,NA,NA,64.59854014598541,NA
65265,Audrain County,MO,23.781212841854934,64.54802259887006,NA,NA,NA
65340,Saline County,MO,NA,33.19209039548023,NA,NA,NA
65608,Douglas County,MO,NA,NA,NA,83.21167883211679,NA
65706,Webster County,MO,68.48989298454221,NA,NA,NA,NA
65802,Greene County,MO,NA,13.983050847457626,15.966386554621847,NA,NA
65803,Greene County,MO,5.707491082045184,NA,NA,NA,NA
59101,Yellowstone County,MT,NA,NA,NA,NA,16
59105,Yellowstone County,MT,89.65517241379311,NA,87.95518207282913,NA,NA
59401,Cascade County,MT,NA,NA,NA,NA,41.77777777777778
59875,Ravalli County,MT,NA,NA,NA,NA,100
68104,Douglas County,NE,NA,43.22033898305085,NA,NA,NA
68107,Douglas County,NE,NA,NA,NA,65.32846715328468,NA
68123,Sarpy County,NE,87.99048751486326,NA,NA,NA,NA
68131,Douglas County,NE,65.16052318668251,NA,NA,NA,NA
68154,Douglas County,NE,NA,NA,NA,59.854014598540154,NA
68503,Lancaster County,NE,52.675386444708685,NA,NA,NA,NA
68713,Holt County,NE,99.64328180737218,NA,NA,NA,NA
68801,Hall County,NE,NA,NA,86.1344537815126,NA,NA
68901,Adams County,NE,NA,NA,72.96918767507002,NA,NA
89101,Clark County,NV,NA,52.118644067796616,NA,73.72262773722628,NA
89103,Clark County,NV,60.64209274673008,NA,NA,NA,NA
89104,Clark County,NV,28.418549346016647,67.2316384180791,NA,NA,NA
89108,Clark County,NV,NA,NA,25.350140056022408,NA,NA
89117,Clark County,NV,76.21878715814506,NA,NA,NA,42.22222222222222
89121,Clark County,NV,NA,45.19774011299435,NA,NA,NA
89122,Clark County,NV,NA,63.84180790960452,NA,NA,NA
89144,Clark County,NV,75.50535077288941,NA,NA,NA,NA
89145,Clark County,NV,NA,NA,NA,81.75182481751825,NA
89147,Clark County,NV,NA,84.32203389830508,NA,NA,NA
89149,Clark County,NV,NA,NA,69.88795518207283,NA,NA
89183,Clark County,NV,NA,NA,70.44817927170868,NA,NA
89403,Lyon County,NV,42.80618311533888,NA,NA,NA,NA
89447,Lyon County,NV,NA,88.98305084745762,NA,NA,NA
89460,Douglas County,NV,NA,NA,NA,58.75912408759124,NA
89506,Washoe County,NV,NA,NA,22.128851540616246,NA,NA
89509,Washoe County,NV,51.60523186682521,NA,NA,NA,NA
89701,Carson City,NV,NA,69.49152542372882,NA,NA,NA
89706,Carson City,NV,NA,NA,NA,NA,63.55555555555556
89801,Elko County,NV,NA,NA,72.26890756302521,NA,NA
03051,Hillsborough County,NH,NA,NA,NA,28.467153284671532,NA
03055,Hillsborough County,NH,47.91914387633769,NA,NA,NA,NA
03106,Merrimack County,NH,78.59690844233056,NA,NA,NA,NA
03235,Merrimack County,NH,NA,70.90395480225989,NA,NA,NA
03246,Belknap County,NH,NA,NA,56.1624649859944,NA,NA
03833,Rockingham County,NH,32.461355529131986,NA,NA,NA,NA
07003,Essex County,NJ,NA,14.83050847457627,NA,NA,NA
07016,Union County,NJ,75.98097502972652,NA,NA,NA,NA
07017,Essex County,NJ,NA,NA,3.9215686274509802,NA,NA
07022,Bergen County,NJ,NA,81.77966101694916,NA,NA,NA
07026,Bergen County,NJ,32.22354340071344,NA,NA,NA,NA
07030,Hudson County,NJ,NA,NA,9.943977591036415,NA,NA
07036,Union County,NJ,NA,19.06779661016949,NA,NA,NA
07040,Essex County,NJ,NA,NA,81.79271708683473,NA,NA
07050,Essex County,NJ,NA,9.322033898305085,NA,41.24087591240876,NA
07055,Passaic County,NJ,NA,2.824858757062147,NA,NA,NA
07057,Bergen County,NJ,NA,NA,NA,90.14598540145985,NA
07059,Somerset County,NJ,NA,NA,NA,86.4963503649635,NA
07060,Union County,NJ,NA,32.48587570621469,NA,NA,NA
07083,Union County,NJ,NA,18.785310734463277,NA,NA,NA
07087,Hudson County,NJ,NA,NA,5.602240896358544,NA,NA
07103,Essex County,NJ,21.16527942925089,2.5423728813559325,NA,NA,NA
07104,Essex County,NJ,NA,NA,52.38095238095239,NA,NA
07106,Essex County,NJ,NA,34.88700564971751,NA,NA,NA
07108,Essex County,NJ,1.9024970273483945,NA,NA,NA,NA
07109,Essex County,NJ,NA,8.615819209039548,NA,NA,NA
07111,Essex County,NJ,NA,1.694915254237288,1.8207282913165268,12.408759124087592,NA
07112,Essex County,NJ,18.311533888228297,59.03954802259888,NA,NA,NA
07202,Union County,NJ,NA,0.9887005649717515,NA,NA,NA
07206,Union County,NJ,NA,6.497175141242938,NA,NA,NA
07304,Hudson County,NJ,NA,NA,39.35574229691877,NA,NA
07305,Hudson County,NJ,NA,NA,7.9831932773109235,NA,NA
07306,Hudson County,NJ,NA,7.203389830508475,NA,NA,NA
07307,Hudson County,NJ,69.20332936979786,NA,16.106442577030812,NA,NA
07423,Bergen County,NJ,98.21640903686088,NA,NA,NA,NA
07430,Bergen County,NJ,NA,99.57627118644068,NA,NA,NA
07502,Passaic County,NJ,NA,NA,NA,77.00729927007299,NA
07503,Passaic County,NJ,NA,44.35028248587571,NA,NA,NA
07513,Passaic County,NJ,74.91082045184304,35.451977401129945,85.99439775910365,NA,NA
07522,Passaic County,NJ,NA,37.14689265536723,7.563025210084033,NA,NA
07621,Bergen County,NJ,NA,NA,64.70588235294117,NA,NA
07628,Bergen County,NJ,NA,NA,47.89915966386555,NA,NA
07631,Bergen County,NJ,74.91082045184304,NA,NA,NA,NA
07701,Monmouth County,NJ,NA,NA,53.641456582633054,NA,NA
07724,Monmouth County,NJ,NA,NA,68.0672268907563,NA,NA
07740,Monmouth County,NJ,NA,20.480225988700564,NA,10.583941605839415,NA
07747,Monmouth County,NJ,65.99286563614744,NA,NA,NA,NA
07760,Monmouth County,NJ,95.00594530321045,NA,NA,NA,NA
07828,Morris County,NJ,NA,81.07344632768361,NA,NA,NA
07840,Warren County,NJ,NA,NA,NA,NA,39.111111111111114
08004,Camden County,NJ,NA,NA,63.725490196078425,NA,NA
08016,Burlington County,NJ,NA,19.915254237288135,NA,35.4014598540146,NA
08037,Atlantic County,NJ,NA,29.23728813559322,NA,NA,NA
08053,Burlington County,NJ,NA,NA,66.38655462184873,NA,NA
08054,Burlington County,NJ,33.769322235434004,NA,NA,NA,NA
08063,Gloucester County,NJ,96.6706302021403,NA,NA,NA,NA
08069,Salem County,NJ,44.589774078478,69.35028248587571,NA,NA,NA
08081,Camden County,NJ,NA,NA,3.081232492997199,NA,NA
08087,Ocean County,NJ,NA,NA,NA,NA,18.22222222222222
08096,Gloucester County,NJ,NA,NA,26.610644257703083,NA,NA
08098,Salem County,NJ,NA,NA,NA,NA,86.22222222222223
08104,Camden County,NJ,NA,NA,57.14285714285714,NA,NA
08105,Camden County,NJ,4.875148632580261,NA,NA,NA,NA
08232,Atlantic County,NJ,46.25445897740785,NA,NA,NA,NA
08234,Atlantic County,NJ,NA,2.2598870056497176,NA,NA,NA
08302,Cumberland County,NJ,40.54696789536266,NA,NA,NA,NA
08332,Cumberland County,NJ,17.59809750297265,NA,NA,NA,NA
08360,Cumberland County,NJ,NA,NA,10.364145658263306,NA,NA
08361,Cumberland County,NJ,NA,NA,42.15686274509804,NA,NA
08401,Atlantic County,NJ,NA,NA,32.63305322128851,NA,NA
08527,Ocean County,NJ,NA,NA,13.025210084033615,NA,NA
08610,Mercer County,NJ,NA,NA,10.92436974789916,NA,NA
08611,Mercer County,NJ,NA,NA,NA,75.18248175182481,NA
08648,Mercer County,NJ,NA,69.49152542372882,NA,NA,NA
08701,Ocean County,NJ,NA,NA,5.322128851540616,NA,NA
08753,Ocean County,NJ,NA,NA,4.341736694677871,NA,NA
08755,Ocean County,NJ,NA,NA,NA,NA,11.555555555555555
08812,Middlesex County,NJ,NA,78.67231638418079,NA,NA,NA
08831,Middlesex County,NJ,NA,NA,34.31372549019608,NA,NA
08865,Warren County,NJ,NA,49.01129943502825,NA,NA,NA
08901,Middlesex County,NJ,NA,NA,7.8431372549019605,NA,NA
87026,Valencia County,NM,NA,59.32203389830508,NA,NA,NA
87108,Bernalillo County,NM,NA,NA,NA,38.68613138686132,NA
87111,Bernalillo County,NM,NA,NA,NA,NA,6.222222222222222
87112,Bernalillo County,NM,47.80023781212842,45.19774011299435,NA,NA,NA
87120,Bernalillo County,NM,NA,NA,13.585434173669467,NA,NA
87123,Bernalillo County,NM,NA,14.83050847457627,NA,NA,NA
87124,Sandoval County,NM,NA,29.943502824858758,NA,NA,NA
87301,McKinley County,NM,NA,NA,29.13165266106443,68.61313868613139,NA
87413,San Juan County,NM,NA,NA,59.523809523809526,NA,NA
87416,San Juan County,NM,NA,59.32203389830508,NA,NA,NA
87507,Santa Fe County,NM,57.07491082045184,NA,NA,NA,NA
87701,San Miguel County,NM,61.71224732461356,NA,NA,NA,NA
88001,Doa Ana County,NM,NA,21.045197740112993,NA,NA,NA
88007,Doa Ana County,NM,NA,NA,64.56582633053222,NA,NA
88063,Doa Ana County,NM,78.12128418549345,NA,NA,NA,NA
88072,Doa Ana County,NM,NA,NA,98.45938375350141,NA,NA
88203,Chaves County,NM,16.884661117717002,25.70621468926554,NA,NA,NA
88240,Lea County,NM,10.820451843043994,NA,NA,NA,NA
88310,Otero County,NM,NA,37.570621468926554,NA,NA,NA
10004,New York County,NY,99.0487514863258,NA,92.15686274509804,NA,NA
10011,New York County,NY,NA,NA,NA,NA,16.444444444444446
10026,New York County,NY,NA,13.841807909604519,NA,NA,NA
10030,New York County,NY,68.13317479191439,NA,NA,NA,NA
10031,New York County,NY,NA,NA,11.904761904761903,NA,NA
10033,New York County,NY,28.656361474435194,NA,20.588235294117645,29.927007299270077,NA
10034,New York County,NY,27.824019024970276,NA,38.79551820728292,NA,NA
10035,New York County,NY,NA,16.807909604519775,NA,NA,NA
10038,New York County,NY,NA,NA,NA,51.82481751824818,NA
10039,New York County,NY,NA,8.898305084745763,NA,NA,NA
10040,New York County,NY,NA,11.016949152542372,NA,NA,NA
10306,Richmond County,NY,33.29369797859691,NA,NA,NA,NA
10451,Bronx County,NY,NA,19.2090395480226,NA,9.48905109489051,NA
10452,Bronx County,NY,NA,NA,NA,12.043795620437956,NA
10453,Bronx County,NY,NA,1.8361581920903955,NA,2.18978102189781,NA
10454,Bronx County,NY,NA,2.11864406779661,NA,NA,NA
10456,Bronx County,NY,NA,0,4.761904761904762,0.7299270072992701,NA
10457,Bronx County,NY,NA,2.9661016949152543,NA,NA,12.444444444444445
10458,Bronx County,NY,0.9512485136741973,NA,NA,NA,NA
10459,Bronx County,NY,NA,NA,NA,49.27007299270073,NA
10460,Bronx County,NY,NA,NA,3.361344537815126,NA,NA
10462,Bronx County,NY,NA,NA,9.663865546218489,NA,NA
10465,Bronx County,NY,NA,NA,NA,NA,26.666666666666668
10467,Bronx County,NY,NA,0.2824858757062147,NA,1.4598540145985401,NA
10469,Bronx County,NY,NA,NA,6.022408963585434,NA,NA
10472,Bronx County,NY,NA,NA,3.7815126050420167,NA,NA
10473,Bronx County,NY,NA,4.0960451977401124,NA,NA,NA
10474,Bronx County,NY,NA,45.19774011299435,NA,NA,NA
10520,Westchester County,NY,NA,100,NA,NA,NA
10549,Westchester County,NY,NA,NA,NA,95.25547445255475,NA
10573,Westchester County,NY,64.68489892984543,NA,NA,NA,NA
10701,Westchester County,NY,NA,2.401129943502825,NA,NA,NA
10930,Orange County,NY,87.87158145065398,NA,NA,NA,NA
10954,Rockland County,NY,74.6730083234245,NA,NA,NA,NA
10989,Rockland County,NY,NA,NA,NA,92.7007299270073,NA
11040,Nassau County,NY,NA,81.07344632768361,NA,NA,NA
11096,Nassau County,NY,NA,NA,96.63865546218487,NA,NA
11203,Kings County,NY,NA,30.64971751412429,NA,8.02919708029197,10.666666666666668
11204,Kings County,NY,NA,13.27683615819209,NA,NA,NA
11205,Kings County,NY,NA,NA,48.17927170868347,NA,NA
11206,Kings County,NY,NA,NA,4.481792717086835,2.9197080291970803,NA
11207,Kings County,NY,0.713436385255648,14.124293785310735,NA,NA,NA
11208,Kings County,NY,NA,NA,1.9607843137254901,NA,22.22222222222222
11211,Kings County,NY,NA,NA,NA,29.1970802919708,NA
11212,Kings County,NY,NA,0.847457627118644,1.680672268907563,NA,NA
11216,Kings County,NY,NA,52.40112994350282,NA,NA,NA
11219,Kings County,NY,NA,1.977401129943503,NA,NA,NA
11220,Kings County,NY,4.756242568370987,0.14124293785310735,NA,NA,NA
11221,Kings County,NY,5.469678953626635,NA,NA,NA,NA
11223,Kings County,NY,NA,NA,NA,56.56934306569343,NA
11226,Kings County,NY,NA,NA,NA,NA,13.333333333333334
11229,Kings County,NY,47.681331747919145,72.45762711864407,NA,NA,NA
11232,Kings County,NY,NA,4.80225988700565,NA,NA,NA
11233,Kings County,NY,NA,4.661016949152542,NA,NA,NA
11235,Kings County,NY,NA,15.677966101694915,NA,NA,NA
11236,Kings County,NY,6.896551724137931,11.864406779661017,24.369747899159663,NA,NA
11237,Kings County,NY,11.296076099881095,NA,NA,NA,NA
11238,Kings County,NY,NA,NA,24.2296918767507,21.532846715328464,NA
11355,Queens County,NY,NA,4.519774011299435,NA,NA,NA
11365,Queens County,NY,64.68489892984543,NA,NA,NA,NA
11366,Queens County,NY,NA,NA,NA,94.16058394160584,NA
11367,Queens County,NY,NA,17.796610169491526,NA,58.02919708029197,NA
11368,Queens County,NY,NA,27.401129943502823,10.784313725490197,NA,NA
11372,Queens County,NY,NA,7.627118644067797,NA,NA,NA
11373,Queens County,NY,6.064209274673008,4.378531073446328,NA,NA,NA
11412,Queens County,NY,NA,NA,56.1624649859944,NA,NA
11413,Queens County,NY,NA,NA,NA,NA,69.33333333333334
11414,Queens County,NY,NA,82.7683615819209,NA,NA,NA
11416,Queens County,NY,NA,NA,56.022408963585434,NA,NA
11417,Queens County,NY,NA,42.2316384180791,NA,NA,NA
11418,Queens County,NY,67.65755053507729,NA,NA,NA,NA
11419,Queens County,NY,NA,16.38418079096045,NA,NA,NA
11421,Queens County,NY,NA,11.581920903954803,NA,NA,92.88888888888889
11428,Queens County,NY,NA,74.85875706214689,NA,80.65693430656934,NA
11432,Queens County,NY,NA,NA,NA,11.678832116788321,NA
11436,Queens County,NY,NA,NA,NA,NA,87.1111111111111
11520,Nassau County,NY,NA,NA,36.69467787114846,NA,NA
11550,Nassau County,NY,NA,NA,NA,62.40875912408759,NA
11575,Nassau County,NY,NA,NA,39.91596638655462,NA,NA
11576,Nassau County,NY,NA,NA,NA,98.17518248175182,NA
11580,Nassau County,NY,88.34720570749109,NA,NA,NA,NA
11691,Queens County,NY,NA,NA,12.184873949579831,NA,NA
11704,Suffolk County,NY,79.42925089179548,NA,NA,60.58394160583942,NA
11714,Nassau County,NY,NA,NA,83.33333333333334,NA,NA
11717,Suffolk County,NY,NA,5.790960451977401,NA,NA,NA
11720,Suffolk County,NY,NA,NA,NA,NA,34.22222222222222
11746,Suffolk County,NY,NA,35.31073446327684,NA,NA,NA
11772,Suffolk County,NY,NA,NA,36.134453781512605,NA,NA
11784,Suffolk County,NY,NA,NA,NA,NA,56.44444444444444
12009,Albany County,NY,NA,NA,NA,NA,89.77777777777777
12051,Greene County,NY,99.28656361474435,NA,NA,NA,NA
12189,Albany County,NY,NA,88.98305084745762,NA,NA,NA
12203,Albany County,NY,NA,NA,44.397759103641455,NA,NA
12206,Albany County,NY,NA,74.85875706214689,NA,NA,NA
12401,Ulster County,NY,NA,11.72316384180791,NA,NA,NA
12446,Ulster County,NY,NA,NA,NA,79.56204379562044,NA
12477,Ulster County,NY,90.84423305588585,NA,NA,NA,NA
12553,Orange County,NY,90.6064209274673,NA,NA,NA,NA
12566,Ulster County,NY,NA,97.59887005649718,NA,NA,NA
12771,Orange County,NY,NA,NA,NA,81.38686131386861,NA
12834,Washington County,NY,60.64209274673008,NA,NA,NA,NA
12871,Saratoga County,NY,93.34126040428062,NA,NA,NA,NA
12901,Clinton County,NY,44.827586206896555,NA,NA,NA,NA
12919,Clinton County,NY,NA,NA,93.55742296918767,NA,NA
12928,Essex County,NY,NA,NA,96.77871148459384,NA,NA
13032,Madison County,NY,NA,NA,37.11484593837535,NA,NA
13037,Madison County,NY,77.28894173602853,NA,NA,NA,NA
13045,Cortland County,NY,5.112960760998811,NA,NA,NA,NA
13069,Oswego County,NY,4.0428061831153395,16.38418079096045,NA,NA,NA
13073,Tompkins County,NY,71.3436385255648,NA,NA,NA,NA
13077,Cortland County,NY,NA,NA,68.20728291316527,NA,NA
13090,Onondaga County,NY,NA,NA,54.061624649859944,NA,NA
13092,Cayuga County,NY,89.41736028537456,NA,NA,NA,NA
13112,Onondaga County,NY,97.50297265160523,NA,NA,NA,NA
13131,Oswego County,NY,NA,NA,90.89635854341736,NA,NA
13204,Onondaga County,NY,NA,46.186440677966104,NA,NA,NA
13205,Onondaga County,NY,NA,28.53107344632768,NA,NA,NA
13208,Onondaga County,NY,23.18668252080856,NA,NA,NA,NA
13210,Onondaga County,NY,55.29131985731273,NA,NA,NA,NA
13332,Madison County,NY,96.6706302021403,NA,NA,NA,NA
13439,Otsego County,NY,NA,84.7457627118644,NA,NA,NA
13440,Oneida County,NY,NA,NA,3.6414565826330536,NA,NA
13601,Jefferson County,NY,NA,NA,7.42296918767507,NA,NA
13617,St. Lawrence County,NY,30.202140309155766,NA,NA,NA,NA
13619,Jefferson County,NY,13.317479191438764,NA,NA,NA,NA
13760,Broome County,NY,1.3079667063020213,12.994350282485875,NA,NA,NA
13778,Chenango County,NY,NA,NA,69.74789915966386,NA,NA
13790,Broome County,NY,NA,18.220338983050848,NA,NA,NA
13815,Chenango County,NY,27.46730083234245,NA,NA,NA,NA
13820,Otsego County,NY,NA,NA,14.145658263305322,NA,NA
13830,Chenango County,NY,75.50535077288941,NA,NA,NA,NA
13849,Otsego County,NY,81.80737217598097,NA,NA,NA,NA
13856,Delaware County,NY,NA,NA,NA,45.98540145985402,NA
13905,Broome County,NY,NA,NA,NA,6.934306569343065,NA
14009,Wyoming County,NY,NA,NA,86.83473389355743,NA,NA
14024,Wyoming County,NY,95.71938168846611,NA,NA,NA,NA
14063,Chautauqua County,NY,NA,NA,47.61904761904761,NA,NA
14085,Erie County,NY,89.29845422116529,NA,NA,NA,NA
14136,Chautauqua County,NY,NA,NA,NA,92.33576642335767,NA
14206,Erie County,NY,42.568370986920335,NA,NA,NA,NA
14207,Erie County,NY,NA,38.13559322033898,NA,NA,NA
14211,Erie County,NY,4.9940546967895365,28.389830508474578,NA,NA,NA
14214,Erie County,NY,NA,NA,35.43417366946779,NA,NA
14221,Erie County,NY,16.05231866825208,86.7231638418079,NA,NA,NA
14226,Erie County,NY,NA,NA,33.61344537815126,NA,NA
14304,Niagara County,NY,50.05945303210464,NA,NA,NA,NA
14432,Ontario County,NY,NA,NA,41.45658263305322,NA,NA
14456,Ontario County,NY,NA,NA,NA,7.2992700729927,NA
14470,Orleans County,NY,24.25683709869203,NA,NA,NA,NA
14482,Genesee County,NY,NA,75.56497175141243,NA,NA,NA
14502,Wayne County,NY,NA,NA,31.372549019607842,NA,NA
14513,Wayne County,NY,39.00118906064209,NA,NA,NA,NA
14522,Wayne County,NY,NA,NA,38.37535014005603,NA,NA
14580,Monroe County,NY,NA,NA,1.400560224089636,NA,NA
14607,Monroe County,NY,NA,92.09039548022598,NA,NA,NA
14608,Monroe County,NY,NA,33.75706214689266,NA,NA,NA
14609,Monroe County,NY,3.9239001189060643,NA,0.8403361344537815,NA,NA
14611,Monroe County,NY,NA,NA,10.224089635854341,NA,NA
14617,Monroe County,NY,NA,NA,9.803921568627452,NA,NA
14621,Monroe County,NY,NA,6.073446327683616,1.1204481792717087,NA,NA
14622,Monroe County,NY,NA,NA,NA,29.56204379562044,NA
14706,Cattaraugus County,NY,74.55410225921521,NA,NA,NA,NA
14760,Cattaraugus County,NY,12.960760998810938,NA,NA,NA,NA
14810,Steuben County,NY,23.067776456599287,NA,NA,NA,NA
14830,Steuben County,NY,NA,NA,NA,39.78102189781022,NA
14870,Steuben County,NY,88.94173602853745,NA,NA,NA,NA
27028,Davie County,NC,NA,NA,52.94117647058824,NA,NA
27101,Forsyth County,NC,NA,NA,85.15406162464986,NA,NA
27105,Forsyth County,NC,NA,28.53107344632768,NA,NA,NA
27205,Randolph County,NC,49.58382877526754,NA,NA,35.03649635036496,NA
27215,Alamance County,NC,NA,42.2316384180791,NA,NA,NA
27217,Alamance County,NC,NA,NA,NA,15.328467153284672,NA
27235,Guilford County,NC,NA,NA,NA,98.54014598540147,NA
27239,Davidson County,NC,NA,83.47457627118644,NA,NA,NA
27260,Guilford County,NC,NA,36.29943502824859,26.05042016806723,NA,NA
27262,Guilford County,NC,34.839476813317475,NA,NA,NA,NA
27282,Guilford County,NC,69.91676575505352,NA,NA,NA,NA
27292,Davidson County,NC,8.9179548156956,NA,NA,NA,NA
27330,Lee County,NC,NA,NA,25.630252100840334,NA,NA
27379,Caswell County,NC,NA,NA,96.9187675070028,NA,NA
27405,Guilford County,NC,NA,NA,15.406162464985995,NA,NA
27406,Guilford County,NC,NA,NA,7.142857142857142,NA,NA
27501,Harnett County,NC,80.26159334126041,NA,NA,NA,NA
27502,Wake County,NC,19.2627824019025,NA,NA,NA,NA
27505,Harnett County,NC,97.38406658739595,NA,NA,NA,NA
27511,Wake County,NC,NA,82.06214689265536,NA,NA,NA
27516,Orange County,NC,NA,75.56497175141243,NA,NA,NA
27521,Harnett County,NC,96.07609988109394,NA,NA,NA,NA
27537,Vance County,NC,NA,38.84180790960452,NA,NA,NA
27540,Wake County,NC,NA,NA,53.221288515406165,NA,NA
27565,Granville County,NC,29.25089179548157,NA,62.745098039215684,NA,NA
27569,Johnston County,NC,94.8870392390012,NA,NA,NA,NA
27573,Person County,NC,NA,NA,88.23529411764706,NA,NA
27604,Wake County,NC,NA,NA,NA,NA,62.66666666666667
27610,Wake County,NC,17.47919143876338,NA,33.47338935574229,NA,NA
27705,Durham County,NC,NA,NA,61.76470588235294,18.97810218978102,NA
27801,Edgecombe County,NC,66.70630202140309,NA,45.65826330532213,NA,NA
27804,Nash County,NC,58.026159334126035,83.33333333333334,NA,NA,NA
27817,Beaufort County,NC,91.438763376932215,NA,NA,NA,NA
27855,Hertford County,NC,NA,86.15819209039547,NA,NA,NA
27858,Pitt County,NC,NA,NA,67.08683473389355,NA,NA
27870,Halifax County,NC,51.48632580261593,56.63841807909604,NA,NA,NA
27892,Martin County,NC,NA,70.90395480225989,NA,NA,NA
27893,Wilson County,NC,19.500594530321045,NA,NA,NA,NA
27954,Dare County,NC,96.55172413793103,NA,NA,NA,NA
27983,Bertie County,NC,NA,NA,60.364145658263304,NA,NA
28025,Cabarrus County,NC,NA,NA,NA,21.897810218978105,NA
28043,Rutherford County,NC,NA,NA,NA,NA,49.333333333333336
28052,Gaston County,NC,14.506539833531509,NA,NA,NA,NA
28054,Gaston County,NC,NA,NA,23.10924369747899,NA,37.77777777777778
28092,Lincoln County,NC,25.68370986920333,NA,NA,NA,NA
28098,Gaston County,NC,97.97859690844233,NA,NA,NA,NA
28112,Union County,NC,NA,NA,NA,44.89051094890511,NA
28115,Iredell County,NC,NA,56.63841807909604,NA,NA,NA
28120,Gaston County,NC,NA,NA,64.84593837535014,56.934306569343065,71.55555555555554
28138,Rowan County,NC,NA,NA,68.90756302521008,NA,NA
28144,Rowan County,NC,NA,66.24293785310734,NA,41.97080291970803,NA
28150,Cleveland County,NC,NA,NA,NA,50.72992700729927,NA
28152,Cleveland County,NC,NA,34.88700564971751,NA,NA,NA
28166,Iredell County,NC,NA,82.485875706214685,NA,NA,NA
28174,Union County,NC,79.19143876337694,90.67796610169492,NA,NA,NA
28203,Mecklenburg County,NC,NA,77.82485875706215,NA,NA,NA
28205,Mecklenburg County,NC,60.40428061831153,NA,NA,NA,NA
28208,Mecklenburg County,NC,NA,12.570621468926554,NA,NA,NA
28210,Mecklenburg County,NC,NA,NA,NA,NA,36.888888888888886
28212,Mecklenburg County,NC,14.387633769322235,17.372881355932204,NA,65.69343065693431,NA
28213,Mecklenburg County,NC,NA,NA,NA,NA,82.66666666666667
28215,Mecklenburg County,NC,10.46373365041617,NA,NA,NA,NA
28216,Mecklenburg County,NC,NA,13.418079096045199,NA,NA,NA
28217,Mecklenburg County,NC,NA,60.16949152542372,NA,NA,NA
28273,Mecklenburg County,NC,36.02853745541022,NA,NA,NA,NA
28314,Cumberland County,NC,NA,NA,34.45378151260504,NA,NA
28320,Bladen County,NC,NA,NA,79.41176470588235,NA,NA
28334,Sampson County,NC,70.27348394768134,NA,NA,NA,NA
28390,Harnett County,NC,69.44114149821641,NA,NA,NA,NA
28401,New Hanover County,NC,NA,58.19209039548022,NA,NA,NA
28462,Brunswick County,NC,NA,NA,91.73669467787114,NA,NA
28501,Lenoir County,NC,51.12960760998811,56.21468926553672,NA,NA,NA
28516,Carteret County,NC,77.88347205707491,NA,NA,66.78832116788321,NA
28530,Pitt County,NC,NA,87.14689265536724,NA,NA,NA
28546,Onslow County,NC,53.15101070154577,58.333333333333336,NA,NA,NA
28560,Craven County,NC,NA,NA,NA,NA,53.333333333333336
28562,Craven County,NC,NA,NA,77.73109243697479,NA,NA
28586,Craven County,NC,NA,NA,85.0140056022409,NA,NA
28590,Pitt County,NC,43.99524375743163,NA,NA,NA,NA
28601,Catawba County,NC,22.711058263971463,NA,18.627450980392158,NA,NA
28604,Watauga County,NC,NA,NA,95.37815126050421,NA,NA
28610,Catawba County,NC,NA,83.47457627118644,NA,NA,NA
28642,Yadkin County,NC,NA,NA,88.93557422969187,NA,NA
28645,Caldwell County,NC,NA,NA,NA,1.824817518248175,NA
28651,Wilkes County,NC,NA,NA,86.1344537815126,NA,NA
28732,Henderson County,NC,NA,NA,NA,NA,65.33333333333333
28752,McDowell County,NC,27.348394768133176,NA,NA,NA,NA
58078,Cass County,ND,NA,60.59322033898306,NA,NA,NA
58104,Cass County,ND,51.96195005945303,NA,35.01400560224089,NA,NA
58316,Rolette County,ND,NA,NA,93.8375350140056,NA,NA
58501,Burleigh County,ND,38.049940546967896,NA,NA,NA,NA
58554,Morton County,ND,41.73602853745541,NA,NA,NA,NA
58801,Williams County,ND,NA,77.11864406779661,40.7563025210084,NA,NA
43004,Franklin County,OH,50.178359096313905,NA,NA,NA,NA
43026,Franklin County,OH,10.820451843043994,NA,NA,NA,NA
43050,Knox County,OH,NA,18.07909604519774,NA,NA,NA
43068,Franklin County,OH,NA,8.192090395480225,NA,NA,NA
43072,Champaign County,OH,NA,93.50282485875707,NA,NA,NA
43085,Franklin County,OH,NA,NA,71.42857142857143,NA,NA
43110,Franklin County,OH,0.8323424494649228,NA,NA,NA,NA
43119,Franklin County,OH,NA,8.757062146892656,NA,NA,NA
43123,Franklin County,OH,0.5945303210463734,NA,NA,NA,NA
43204,Franklin County,OH,NA,0.7062146892655368,8.543417366946779,NA,NA
43207,Franklin County,OH,7.966706302021404,NA,NA,NA,NA
43209,Franklin County,OH,36.26634958382878,NA,NA,NA,NA
43214,Franklin County,OH,30.558858501783593,NA,NA,NA,NA
43215,Franklin County,OH,NA,65.67796610169492,NA,NA,NA
43219,Franklin County,OH,NA,10.451977401129943,NA,NA,NA
43223,Franklin County,OH,NA,NA,9.103641456582633,NA,NA
43227,Franklin County,OH,NA,26.412429378531073,NA,NA,NA
43229,Franklin County,OH,0,1.1299435028248588,NA,NA,NA
43231,Franklin County,OH,NA,38.70056497175141,NA,NA,NA
43232,Franklin County,OH,0.23781212841854932,4.23728813559322,NA,NA,NA
43315,Morrow County,OH,53.983353151010704,NA,NA,NA,NA
43406,Wood County,OH,99.64328180737218,NA,NA,NA,NA
43410,Sandusky County,OH,62.30677764565993,NA,NA,NA,NA
43420,Sandusky County,OH,3.0915576694411415,NA,NA,NA,NA
43506,Williams County,OH,NA,NA,65.12605042016807,NA,NA
43512,Defiance County,OH,3.2104637336504163,NA,7.002801120448179,NA,NA
43537,Lucas County,OH,20.57074910820452,NA,NA,NA,NA
43560,Lucas County,OH,NA,NA,NA,NA,28.000000000000004
43606,Lucas County,OH,11.533888228299643,NA,NA,NA,NA
43607,Lucas County,OH,8.204518430439952,NA,NA,NA,NA
43611,Lucas County,OH,30.558858501783593,NA,NA,NA,NA
43614,Lucas County,OH,21.759809750297265,NA,NA,NA,NA
43615,Lucas County,OH,NA,NA,6.582633053221289,NA,NA
43620,Lucas County,OH,NA,NA,78.15126050420169,NA,NA
43701,Muskingum County,OH,NA,3.8135593220338984,NA,NA,NA
43821,Muskingum County,OH,NA,NA,NA,NA,96.44444444444444
43920,Columbiana County,OH,9.512485136741974,NA,NA,NA,NA
43935,Belmont County,OH,NA,27.54237288135593,NA,NA,NA
43950,Belmont County,OH,30.79667063020214,NA,NA,NA,NA
43968,Columbiana County,OH,69.08442330558859,NA,NA,NA,NA
44001,Lorain County,OH,NA,NA,NA,5.839416058394161,NA
44021,Geauga County,OH,NA,NA,NA,91.24087591240875,NA
44035,Lorain County,OH,17.122473246135552,NA,NA,0,NA
44052,Lorain County,OH,NA,NA,5.042016806722689,4.744525547445255,NA
44053,Lorain County,OH,NA,NA,NA,8.394160583941606,NA
44055,Lorain County,OH,2.140309155766944,NA,NA,NA,NA
44070,Cuyahoga County,OH,56.71819262782402,NA,NA,NA,NA
44089,Erie County,OH,NA,NA,NA,13.86861313868613,NA
44094,Lake County,OH,NA,NA,NA,6.204379562043796,NA
44102,Cuyahoga County,OH,NA,0.5649717514124294,NA,NA,NA
44103,Cuyahoga County,OH,NA,NA,12.745098039215685,NA,NA
44104,Cuyahoga County,OH,NA,7.203389830508475,NA,NA,NA
44105,Cuyahoga County,OH,4.280618311533888,NA,NA,NA,NA
44106,Cuyahoga County,OH,NA,NA,NA,NA,25.333333333333336
44109,Cuyahoga County,OH,NA,NA,0.700280112044818,NA,NA
44111,Cuyahoga County,OH,NA,24.152542372881356,NA,NA,NA
44128,Cuyahoga County,OH,NA,NA,NA,3.2846715328467155,NA
44134,Cuyahoga County,OH,3.4482758620689653,NA,NA,NA,NA
44135,Cuyahoga County,OH,2.9726516052318668,NA,NA,NA,NA
44137,Cuyahoga County,OH,NA,NA,8.823529411764707,NA,NA
44143,Cuyahoga County,OH,NA,NA,NA,21.16788321167883,NA
44146,Cuyahoga County,OH,27.705112960760996,NA,NA,NA,NA
44212,Medina County,OH,NA,54.66101694915254,21.708683473389357,2.5547445255474455,NA
44233,Medina County,OH,NA,NA,88.79551820728291,NA,NA
44240,Portage County,OH,NA,29.23728813559322,31.652661064425768,NA,NA
44305,Summit County,OH,NA,NA,18.487394957983195,NA,NA
44306,Summit County,OH,NA,NA,40.896358543417364,NA,NA
44313,Summit County,OH,NA,61.86440677966102,NA,NA,NA
44314,Summit County,OH,6.4209274673008325,NA,NA,NA,NA
44321,Summit County,OH,NA,NA,NA,NA,77.33333333333333
44405,Mahoning County,OH,NA,NA,80.67226890756302,NA,NA
44420,Trumbull County,OH,60.166468489892985,NA,NA,NA,NA
44438,Trumbull County,OH,NA,NA,NA,NA,95.11111111111111
44471,Mahoning County,OH,72.53269916765755,NA,NA,NA,NA
44481,Trumbull County,OH,NA,64.54802259887006,NA,NA,NA
44483,Trumbull County,OH,NA,24.858757062146893,NA,NA,NA
44485,Trumbull County,OH,9.036860879904875,NA,21.1484593837535,NA,NA
44504,Mahoning County,OH,NA,NA,84.73389355742297,NA,NA
44512,Mahoning County,OH,NA,21.045197740112993,NA,NA,NA
44514,Mahoning County,OH,15.457788347205708,NA,NA,NA,NA
44615,Carroll County,OH,NA,82.485875706214685,NA,NA,NA
44622,Tuscarawas County,OH,NA,NA,38.23529411764706,NA,NA
44654,Holmes County,OH,90.1307966706302,NA,83.8935574229692,NA,NA
44667,Wayne County,OH,34.244946492271104,36.5819209039548,NA,NA,NA
44683,Tuscarawas County,OH,NA,NA,67.3669467787115,NA,NA
44691,Wayne County,OH,17.954815695600477,NA,NA,NA,NA
44705,Stark County,OH,NA,24.858757062146893,NA,NA,NA
44706,Stark County,OH,NA,30.225988700564972,NA,NA,NA
44707,Stark County,OH,NA,55.6497175141243,NA,NA,NA
44708,Stark County,OH,NA,34.18079096045198,NA,NA,NA
44720,Stark County,OH,NA,NA,NA,NA,16.88888888888889
44805,Ashland County,OH,NA,20.33898305084746,NA,NA,NA
44820,Crawford County,OH,NA,NA,NA,52.919708029197075,NA
44827,Crawford County,OH,60.523186682520816,NA,NA,NA,NA
44833,Crawford County,OH,NA,NA,NA,NA,38.666666666666664
44857,Huron County,OH,NA,NA,NA,11.313868613138686,NA
44870,Erie County,OH,NA,NA,3.5014005602240896,NA,NA
44906,Richland County,OH,NA,NA,NA,57.66423357664233,NA
45005,Warren County,OH,12.604042806183116,25.70621468926554,NA,NA,NA
45013,Butler County,OH,2.853745541022592,NA,NA,NA,NA
45036,Warren County,OH,8.561236623067776,NA,NA,NA,NA
45040,Warren County,OH,NA,NA,36.134453781512605,NA,NA
45065,Warren County,OH,65.87395957193817,NA,NA,NA,NA
45067,Butler County,OH,NA,50.706214689265536,NA,NA,NA
45103,Clermont County,OH,23.543400713436384,NA,NA,NA,NA
45133,Highland County,OH,NA,33.75706214689266,NA,NA,NA
45204,Hamilton County,OH,NA,72.88135593220339,NA,NA,NA
45207,Hamilton County,OH,NA,NA,84.87394957983193,NA,NA
45208,Hamilton County,OH,92.0332936979786,NA,NA,NA,NA
45211,Hamilton County,OH,NA,10.028248587570623,NA,NA,NA
45214,Hamilton County,OH,NA,61.440677966101696,NA,NA,NA
45215,Hamilton County,OH,NA,NA,65.82633053221288,NA,NA
45223,Hamilton County,OH,NA,73.58757062146893,49.43977591036415,NA,NA
45231,Hamilton County,OH,6.658739595719382,NA,NA,NA,NA
45237,Hamilton County,OH,38.16884661117717,NA,NA,NA,NA
45238,Hamilton County,OH,27.2294887039239,NA,NA,NA,NA
45240,Hamilton County,OH,7.491082045184304,12.288135593220339,NA,NA,NA
45241,Hamilton County,OH,NA,64.54802259887006,NA,48.175182481751825,NA
45245,Clermont County,OH,72.77051129607611,NA,NA,NA,NA
45248,Hamilton County,OH,NA,NA,NA,67.51824817518248,NA
45251,Hamilton County,OH,NA,NA,59.38375350140056,NA,NA
45331,Darke County,OH,36.02853745541022,NA,NA,NA,NA
45342,Montgomery County,OH,NA,NA,NA,13.503649635036496,NA
45356,Miami County,OH,3.56718192627824,38.84180790960452,NA,18.613138686131386,NA
45365,Shelby County,OH,NA,31.21468926553672,NA,NA,NA
45373,Miami County,OH,NA,NA,NA,19.708029197080293,NA
45403,Montgomery County,OH,19.500594530321045,47.03389830508475,NA,NA,NA
45404,Montgomery County,OH,88.70392390011891,NA,NA,NA,NA
45416,Montgomery County,OH,68.72770511296076,NA,NA,NA,NA
45417,Montgomery County,OH,NA,NA,12.044817927170868,24.45255474452555,NA
45424,Montgomery County,OH,NA,17.231638418079097,NA,NA,NA
45426,Montgomery County,OH,33.055885850178356,NA,NA,NA,NA
45440,Montgomery County,OH,73.48394768133176,NA,NA,NA,NA
45601,Ross County,OH,NA,NA,1.2605042016806722,NA,NA
45619,Lawrence County,OH,41.49821640903686,NA,NA,NA,NA
45640,Jackson County,OH,NA,NA,NA,8.75912408759124,NA
45651,Vinton County,OH,NA,61.016949152542374,NA,NA,NA
45662,Scioto County,OH,2.7348394768133173,NA,NA,NA,NA
45692,Jackson County,OH,37.098692033293695,NA,NA,NA,NA
45694,Scioto County,OH,NA,45.90395480225989,NA,NA,NA
45764,Athens County,OH,NA,79.94350282485875,NA,NA,NA
45875,Putnam County,OH,NA,NA,75.7703081232493,NA,NA
45891,Van Wert County,OH,NA,NA,NA,NA,35.11111111111111
73012,Oklahoma County,OK,59.690844233055884,NA,NA,NA,NA
73013,Oklahoma County,OK,NA,NA,NA,13.138686131386862,NA
73015,Caddo County,OK,95.83828775267538,NA,NA,NA,NA
73020,Oklahoma County,OK,NA,76.55367231638418,NA,NA,NA
73044,Logan County,OK,NA,57.485875706214685,NA,NA,NA
73051,Cleveland County,OK,87.39595719381688,NA,NA,NA,NA
73075,Garvin County,OK,NA,69.0677966101695,NA,NA,NA
73080,McClain County,OK,NA,NA,83.4733893557423,NA,NA
73096,Custer County,OK,87.03923900118906,NA,NA,NA,NA
73107,Oklahoma County,OK,17.24137931034483,NA,NA,NA,NA
73112,Oklahoma County,OK,NA,NA,41.17647058823529,NA,NA
73114,Oklahoma County,OK,NA,NA,61.20448179271709,NA,NA
73120,Oklahoma County,OK,40.19024970273484,77.11864406779661,NA,NA,NA
73132,Oklahoma County,OK,NA,NA,61.62464985994398,NA,NA
73401,Carter County,OK,24.494649227110582,NA,NA,NA,NA
73438,Carter County,OK,NA,94.49152542372882,NA,NA,NA
73501,Comanche County,OK,NA,NA,NA,NA,73.77777777777777
73505,Comanche County,OK,NA,62.42937853107344,26.330532212885156,NA,NA
73529,Stephens County,OK,NA,NA,93.13725490196079,NA,NA
73742,Kingfisher County,OK,96.90844233055887,NA,NA,NA,NA
74010,Creek County,OK,58.026159334126035,NA,NA,NA,NA
74017,Rogers County,OK,NA,71.89265536723164,NA,NA,NA
74036,Rogers County,OK,NA,NA,79.55182072829132,NA,NA
74063,Tulsa County,OK,35.43400713436385,NA,NA,NA,NA
74066,Creek County,OK,NA,42.090395480225986,NA,NA,NA
74105,Tulsa County,OK,67.89536266349585,NA,NA,NA,NA
74106,Tulsa County,OK,NA,63.13559322033898,NA,NA,NA
74114,Tulsa County,OK,NA,NA,NA,72.99270072992701,NA
74136,Tulsa County,OK,NA,52.118644067796616,NA,NA,NA
74344,Delaware County,OK,NA,NA,NA,NA,59.111111111111114
74354,Ottawa County,OK,29.845422116527942,NA,NA,NA,NA
74434,Muskogee County,OK,84.30439952437574,NA,NA,NA,NA
74462,Haskell County,OK,NA,NA,81.09243697478992,NA,NA
74467,Wagoner County,OK,NA,NA,95.23809523809523,NA,NA
74501,Pittsburg County,OK,NA,NA,NA,58.3941605839416,NA
74745,McCurtain County,OK,NA,NA,70.58823529411765,NA,NA
74848,Hughes County,OK,82.75862068965517,NA,NA,NA,NA
74851,Pottawatomie County,OK,NA,66.24293785310734,NA,NA,NA
74857,Cleveland County,OK,NA,NA,82.49299719887955,NA,NA
74859,Okfuskee County,OK,NA,80.64971751412429,NA,NA,NA
74960,Adair County,OK,NA,21.468926553672315,NA,NA,NA
97030,Multnomah County,OR,NA,NA,NA,27.00729927007299,NA
97051,Columbia County,OR,65.99286563614744,NA,NA,NA,NA
97078,Washington County,OR,NA,NA,75.21008403361344,NA,NA
97103,Clatsop County,OR,NA,61.016949152542374,NA,NA,NA
97114,Yamhill County,OR,94.53032104637337,NA,NA,NA,NA
97124,Washington County,OR,19.85731272294887,NA,NA,NA,NA
97132,Yamhill County,OR,NA,NA,NA,NA,37.333333333333336
97203,Multnomah County,OR,NA,49.717514124293785,NA,NA,NA
97220,Multnomah County,OR,NA,NA,74.50980392156863,NA,NA
97302,Marion County,OR,36.385255648038054,74.85875706214689,NA,NA,NA
97303,Marion County,OR,40.78478002378122,NA,NA,NA,NA
97305,Marion County,OR,40.19024970273484,NA,NA,NA,NA
97380,Lincoln County,OR,NA,92.09039548022598,NA,NA,NA
97403,Lane County,OR,NA,NA,97.05882352941177,NA,NA
97501,Jackson County,OR,NA,NA,NA,16.78832116788321,NA
97503,Jackson County,OR,NA,NA,88.09523809523809,NA,NA
97520,Jackson County,OR,NA,NA,NA,59.12408759124088,NA
97523,Josephine County,OR,NA,97.03389830508475,NA,NA,NA
97603,Klamath County,OR,NA,49.293785310734464,NA,NA,NA
97702,Deschutes County,OR,NA,NA,79.97198879551821,NA,NA
97703,Deschutes County,OR,NA,NA,NA,NA,84.88888888888889
97741,Jefferson County,OR,NA,NA,79.83193277310924,NA,NA
97814,Baker County,OR,NA,NA,NA,81.02189781021897,NA
15001,Beaver County,PA,NA,48.44632768361582,NA,NA,NA
15003,Beaver County,PA,88.46611177170035,NA,NA,NA,NA
15021,Washington County,PA,90.84423305588585,NA,NA,NA,NA
15025,Allegheny County,PA,NA,93.78531073446328,NA,NA,NA
15066,Beaver County,PA,NA,NA,79.13165266106442,NA,NA
15068,Westmoreland County,PA,NA,NA,22.268907563025213,NA,NA
15148,Allegheny County,PA,100,NA,NA,NA,NA
15220,Allegheny County,PA,NA,NA,77.17086834733894,NA,NA
15221,Allegheny County,PA,NA,70.48022598870057,NA,NA,NA
15401,Fayette County,PA,NA,NA,11.484593837535014,NA,NA
15501,Somerset County,PA,NA,81.07344632768361,NA,NA,NA
15701,Indiana County,PA,52.437574316290124,NA,NA,NA,NA
15714,Cambria County,PA,94.41141498216409,NA,NA,NA,NA
15801,Clearfield County,PA,NA,NA,11.344537815126051,NA,NA
15834,Cameron County,PA,NA,95.90395480225989,NA,NA,NA
15901,Cambria County,PA,NA,88.98305084745762,NA,NA,NA
15905,Cambria County,PA,86.32580261593341,NA,NA,NA,NA
15906,Cambria County,PA,NA,86.15819209039547,NA,NA,NA
16105,Lawrence County,PA,NA,94.49152542372882,NA,NA,NA
16146,Mercer County,PA,NA,NA,27.170868347338935,NA,NA
16201,Armstrong County,PA,NA,NA,35.85434173669468,NA,18.666666666666668
16242,Clarion County,PA,NA,96.045197740113,NA,NA,NA
16314,Crawford County,PA,98.33531510107015,NA,NA,NA,NA
16901,Tioga County,PA,70.63020214030915,NA,NA,NA,NA
17044,Mifflin County,PA,NA,NA,17.507002801120446,NA,NA
17046,Lebanon County,PA,NA,NA,NA,33.57664233576642,NA
17074,Perry County,PA,NA,NA,75.07002801120449,NA,NA
17078,Lebanon County,PA,NA,NA,NA,17.153284671532848,NA
17103,Dauphin County,PA,NA,34.463276836158194,NA,NA,NA
17104,Dauphin County,PA,12.247324613555291,NA,NA,NA,NA
17110,Dauphin County,PA,NA,NA,19.747899159663866,NA,NA
17112,Dauphin County,PA,46.0166468489893,NA,NA,NA,NA
17113,Dauphin County,PA,NA,87.71186440677965,NA,NA,NA
17222,Franklin County,PA,NA,NA,NA,62.77372262773723,NA
17236,Franklin County,PA,92.62782401902497,NA,NA,NA,NA
17268,Franklin County,PA,NA,37.28813559322034,NA,NA,NA
17401,York County,PA,54.69678953626635,NA,NA,NA,NA
17512,Lancaster County,PA,NA,NA,49.159663865546214,NA,NA
17801,Northumberland County,PA,NA,NA,23.949579831932773,NA,NA
18018,Lehigh County,PA,58.50178359096314,NA,NA,NA,NA
18020,Northampton County,PA,NA,NA,NA,NA,28.444444444444443
18052,Lehigh County,PA,NA,NA,59.103641456582636,NA,NA
18067,Northampton County,PA,NA,NA,NA,37.22627737226277,NA
18102,Lehigh County,PA,NA,NA,2.2408963585434174,NA,NA
18103,Lehigh County,PA,1.6646848989298455,NA,NA,NA,NA
18109,Lehigh County,PA,NA,50.1412429378531,29.551820728291318,NA,NA
18324,Pike County,PA,NA,74.15254237288136,NA,NA,NA
18403,Lackawanna County,PA,85.25564803804994,NA,NA,NA,NA
18603,Columbia County,PA,62.66349583828775,NA,NA,NA,NA
18702,Luzerne County,PA,NA,NA,NA,NA,8
18925,Bucks County,PA,NA,NA,97.61904761904762,NA,NA
18940,Bucks County,PA,NA,NA,NA,51.45985401459854,NA
18960,Bucks County,PA,65.2794292508918,NA,NA,NA,NA
19013,Delaware County,PA,NA,NA,6.442577030812324,NA,NA
19023,Delaware County,PA,NA,NA,32.91316526610644,NA,NA
19047,Bucks County,PA,46.4922711058264,NA,NA,NA,NA
19063,Delaware County,PA,60.04756242568371,NA,NA,NA,NA
19072,Montgomery County,PA,83.70986920332936,NA,NA,NA,70.66666666666667
19095,Montgomery County,PA,NA,NA,97.47899159663865,NA,NA
19104,Philadelphia County,PA,NA,20.62146892655367,NA,NA,NA
19111,Philadelphia County,PA,NA,NA,42.997198879551824,NA,15.11111111111111
19116,Philadelphia County,PA,89.179548156956,NA,NA,22.62773722627737,NA
19119,Philadelphia County,PA,NA,NA,65.26610644257703,NA,NA
19120,Philadelphia County,PA,NA,NA,5.46218487394958,NA,NA
19124,Philadelphia County,PA,NA,NA,12.46498599439776,NA,NA
19131,Philadelphia County,PA,NA,NA,9.243697478991598,NA,11.11111111111111
19132,Philadelphia County,PA,NA,NA,8.96358543417367,NA,NA
19133,Philadelphia County,PA,NA,22.74011299435028,NA,NA,NA
19134,Philadelphia County,PA,NA,10.16949152542373,39.635854341736696,NA,NA
19135,Philadelphia County,PA,NA,NA,NA,47.44525547445255,NA
19138,Philadelphia County,PA,NA,36.5819209039548,NA,NA,NA
19139,Philadelphia County,PA,NA,NA,NA,9.854014598540147,NA
19140,Philadelphia County,PA,NA,23.022598870056495,4.201680672268908,NA,NA
19143,Philadelphia County,PA,NA,8.050847457627118,2.100840336134454,NA,NA
19144,Philadelphia County,PA,11.058263971462544,NA,NA,NA,NA
19147,Philadelphia County,PA,61.71224732461356,NA,NA,NA,NA
19148,Philadelphia County,PA,NA,NA,37.53501400560224,NA,17.77777777777778
19149,Philadelphia County,PA,NA,71.32768361581921,NA,NA,NA
19150,Philadelphia County,PA,59.80975029726516,NA,NA,NA,NA
19151,Philadelphia County,PA,NA,NA,18.207282913165265,NA,NA
19153,Philadelphia County,PA,NA,NA,71.1484593837535,NA,NA
19401,Montgomery County,PA,15.338882282996433,32.7683615819209,NA,NA,NA
19422,Montgomery County,PA,NA,NA,NA,NA,56.00000000000001
19440,Montgomery County,PA,79.66706302021403,NA,NA,NA,NA
19446,Montgomery County,PA,NA,NA,52.240896358543424,NA,NA
19464,Montgomery County,PA,NA,NA,8.123249299719888,NA,NA
19508,Berks County,PA,NA,NA,59.2436974789916,NA,NA
19551,Berks County,PA,NA,NA,NA,88.6861313868613,NA
19601,Berks County,PA,NA,7.4858757062146895,5.88235294117647,NA,NA
19602,Berks County,PA,NA,NA,16.246498599439775,NA,NA
02806,Bristol County,RI,NA,NA,78.01120448179272,NA,NA
02852,Washington County,RI,49.58382877526754,NA,NA,NA,NA
02904,Providence County,RI,NA,NA,NA,28.102189781021895,NA
02905,Providence County,RI,33.88822829964328,NA,NA,NA,NA
02906,Providence County,RI,NA,NA,NA,NA,52
02917,Providence County,RI,76.93222354340071,NA,NA,NA,NA
02921,Providence County,RI,NA,NA,NA,86.13138686131386,NA
29045,Kershaw County,SC,NA,95.19774011299435,NA,NA,NA
29054,Lexington County,SC,NA,NA,90.75630252100841,NA,NA
29061,Richland County,SC,NA,71.89265536723164,NA,NA,NA
29108,Newberry County,SC,NA,51.12994350282486,NA,NA,NA
29115,Orangeburg County,SC,69.67895362663495,NA,NA,NA,NA
29118,Orangeburg County,SC,NA,NA,NA,NA,67.55555555555556
29150,Sumter County,SC,NA,NA,NA,71.8978102189781,NA
29154,Sumter County,SC,65.99286563614744,NA,NA,NA,NA
29169,Lexington County,SC,NA,72.45762711864407,NA,NA,NA
29180,Fairfield County,SC,NA,NA,NA,80.2919708029197,NA
29203,Richland County,SC,21.40309155766944,NA,15.266106442577032,NA,NA
29206,Richland County,SC,NA,NA,92.85714285714286,NA,NA
29223,Richland County,SC,NA,63.559322033898304,NA,NA,NA
29325,Laurens County,SC,NA,NA,60.64425770308123,NA,NA
29341,Cherokee County,SC,NA,NA,53.92156862745098,NA,NA
29403,Charleston County,SC,NA,NA,50.42016806722689,NA,NA
29412,Charleston County,SC,NA,NA,38.655462184873954,NA,NA
29420,Dorchester County,SC,31.747919143876334,NA,NA,NA,NA
29431,Berkeley County,SC,83.82877526753865,NA,NA,NA,NA
29440,Georgetown County,SC,NA,NA,53.50140056022409,NA,NA
29461,Berkeley County,SC,NA,40.96045197740113,NA,NA,NA
29477,Dorchester County,SC,84.5422116527943,NA,NA,NA,NA
29483,Dorchester County,SC,NA,32.6271186440678,NA,NA,NA
29488,Colleton County,SC,NA,32.06214689265537,NA,NA,NA
29520,Chesterfield County,SC,NA,84.7457627118644,NA,NA,NA
29526,Horry County,SC,NA,NA,43.13725490196079,NA,NA
29536,Dillon County,SC,NA,NA,NA,84.30656934306569,NA
29555,Florence County,SC,NA,NA,NA,95.62043795620438,NA
29565,Dillon County,SC,NA,96.61016949152543,NA,NA,NA
29566,Horry County,SC,NA,64.54802259887006,NA,NA,NA
29569,Horry County,SC,55.76694411414982,NA,NA,NA,NA
29574,Marion County,SC,NA,NA,67.92717086834735,NA,NA
29576,Horry County,SC,72.17598097502973,NA,NA,NA,NA
29581,Horry County,SC,NA,NA,95.09803921568627,NA,NA
29588,Horry County,SC,39.12009512485137,NA,NA,16.423357664233578,NA
29605,Greenville County,SC,20.57074910820452,NA,NA,NA,NA
29611,Greenville County,SC,NA,38.13559322033898,NA,NA,NA
29624,Anderson County,SC,NA,NA,NA,NA,72.88888888888889
29625,Anderson County,SC,NA,42.2316384180791,NA,NA,NA
29642,Pickens County,SC,NA,76.69491525423729,NA,NA,NA
29709,Chesterfield County,SC,97.14625445897741,NA,NA,NA,99.11111111111111
29801,Aiken County,SC,62.9013079667063,NA,NA,NA,NA
29803,Aiken County,SC,NA,NA,49.85994397759104,NA,NA
29812,Barnwell County,SC,NA,NA,85.71428571428571,NA,NA
29920,Beaufort County,SC,NA,82.90960451977402,NA,NA,NA
29927,Jasper County,SC,88.2282996432818,NA,NA,NA,NA
29944,Hampton County,SC,NA,NA,NA,96.71532846715328,NA
57064,Lincoln County,SD,NA,NA,98.45938375350141,NA,NA
57078,Yankton County,SD,NA,NA,76.19047619047619,NA,NA
57103,Minnehaha County,SD,9.155766944114148,NA,NA,NA,NA
57105,Minnehaha County,SD,28.180737217598097,NA,NA,NA,NA
57301,Davison County,SD,NA,84.7457627118644,NA,NA,NA
57350,Beadle County,SD,NA,NA,63.16526610644257,NA,NA
57702,Pennington County,SD,NA,81.92090395480226,NA,NA,NA
57747,Fall River County,SD,NA,NA,NA,75.54744525547446,NA
57770,Shannon County,SD,NA,14.548022598870055,NA,NA,NA
57772,Shannon County,SD,NA,56.63841807909604,NA,NA,NA
37013,Davidson County,TN,NA,NA,14.705882352941178,NA,NA
37025,Hickman County,TN,NA,NA,87.11484593837535,NA,NA
37040,Montgomery County,TN,NA,NA,65.406162464986,NA,NA
37042,Montgomery County,TN,43.162901307966706,NA,NA,NA,NA
37043,Montgomery County,TN,NA,NA,41.17647058823529,NA,NA
37066,Sumner County,TN,NA,NA,14.425770308123248,NA,NA
37072,Davidson County,TN,NA,67.2316384180791,NA,NA,NA
37075,Sumner County,TN,NA,51.12994350282486,20.30812324929972,NA,NA
37083,Macon County,TN,NA,NA,58.40336134453782,NA,NA
37087,Wilson County,TN,NA,NA,21.428571428571427,NA,NA
37110,Warren County,TN,NA,43.07909604519774,54.90196078431373,NA,NA
37122,Wilson County,TN,NA,60.16949152542372,NA,NA,35.55555555555556
37148,Sumner County,TN,NA,55.6497175141243,NA,NA,NA
37160,Bedford County,TN,13.555291319857313,NA,22.689075630252102,NA,NA
37166,DeKalb County,TN,80.7372175980975,NA,NA,NA,NA
37167,Rutherford County,TN,NA,37.570621468926554,NA,NA,NA
37172,Robertson County,TN,NA,32.7683615819209,NA,NA,NA
37184,Wilson County,TN,NA,NA,NA,NA,94.66666666666667
37185,Humphreys County,TN,85.85017835909632,NA,NA,NA,NA
37228,Davidson County,TN,NA,NA,93.97759103641457,NA,NA
37303,McMinn County,TN,38.64447086801427,NA,NA,NA,NA
37311,Bradley County,TN,NA,82.06214689265536,NA,NA,NA
37327,Sequatchie County,TN,71.8192627824019,NA,NA,NA,NA
37329,McMinn County,TN,89.41736028537456,NA,NA,NA,NA
37367,Bledsoe County,TN,NA,NA,70.30812324929971,NA,NA
37404,Hamilton County,TN,83.23424494649228,NA,NA,NA,NA
37411,Hamilton County,TN,NA,32.7683615819209,44.67787114845939,NA,NA
37618,Sullivan County,TN,NA,NA,91.87675070028011,NA,NA
37705,Anderson County,TN,NA,NA,95.93837535014006,NA,NA
37716,Anderson County,TN,NA,NA,NA,37.95620437956204,NA
37721,Knox County,TN,NA,91.10169491525424,NA,NA,NA
37754,Anderson County,TN,NA,NA,94.25770308123249,NA,NA
37766,Campbell County,TN,NA,NA,NA,34.67153284671533,NA
37772,Loudon County,TN,NA,NA,81.5126050420168,NA,NA
37804,Blount County,TN,NA,NA,NA,NA,36
37861,Grainger County,TN,NA,95.33898305084746,NA,NA,NA
37869,Hancock County,TN,85.01783590963139,NA,NA,NA,NA
37876,Sevier County,TN,46.37336504161712,NA,NA,NA,NA
37917,Knox County,TN,29.48870392390012,71.75141242937853,NA,NA,NA
37922,Knox County,TN,NA,94.49152542372882,NA,NA,NA
37931,Knox County,TN,58.97740784780024,NA,NA,NA,NA
38011,Tipton County,TN,NA,NA,90.61624649859944,NA,NA
38040,Lauderdale County,TN,NA,97.03389830508475,NA,NA,NA
38049,Tipton County,TN,NA,99.15254237288136,NA,NA,NA
38063,Lauderdale County,TN,NA,65.67796610169492,NA,NA,NA
38106,Shelby County,TN,34.00713436385256,33.47457627118644,20.72829131652661,NA,NA
38108,Shelby County,TN,NA,56.21468926553672,NA,NA,NA
38109,Shelby County,TN,NA,8.47457627118644,NA,NA,NA
38115,Shelby County,TN,1.78359096313912,NA,NA,NA,NA
38116,Shelby County,TN,53.62663495838288,16.101694915254235,NA,NA,NA
38118,Shelby County,TN,7.13436385255648,NA,NA,NA,NA
38127,Shelby County,TN,NA,59.887005649717516,13.445378151260504,NA,NA
38134,Shelby County,TN,NA,NA,42.57703081232493,NA,NA
38135,Shelby County,TN,75.26753864447086,NA,NA,NA,NA
38138,Shelby County,TN,NA,85.87570621468926,89.35574229691878,NA,NA
38141,Shelby County,TN,NA,NA,55.04201680672269,NA,NA
38242,Henry County,TN,NA,NA,NA,NA,49.77777777777778
38305,Madison County,TN,2.4970273483947683,NA,NA,17.88321167883212,NA
38320,Benton County,TN,NA,90.67796610169492,NA,NA,NA
38330,Gibson County,TN,NA,NA,95.65826330532214,NA,NA
38343,Gibson County,TN,NA,NA,54.20168067226891,NA,NA
38351,Henderson County,TN,NA,NA,59.80392156862745,NA,NA
38401,Maury County,TN,NA,NA,10.504201680672269,NA,NA
38464,Lawrence County,TN,NA,66.24293785310734,NA,NA,NA
38506,Putnam County,TN,NA,NA,48.4593837535014,NA,NA
38556,Fentress County,TN,NA,70.48022598870057,NA,NA,NA
38562,Jackson County,TN,95.24375743162902,NA,NA,NA,NA
38570,Overton County,TN,NA,NA,NA,74.08759124087592,NA
75002,Collin County,TX,32.936979785969086,NA,NA,NA,NA
75007,Denton County,TX,NA,55.367231638418076,NA,NA,NA
75034,Denton County,TX,NA,NA,76.33053221288515,NA,NA
75039,Dallas County,TX,95.48156956004756,NA,NA,NA,NA
75041,Dallas County,TX,NA,NA,50.98039215686274,NA,NA
75042,Dallas County,TX,NA,NA,69.6078431372549,NA,NA
75043,Dallas County,TX,NA,9.745762711864407,NA,NA,NA
75054,Tarrant County,TX,85.85017835909632,NA,NA,NA,NA
75056,Denton County,TX,NA,NA,NA,NA,72
75062,Dallas County,TX,28.180737217598097,29.66101694915254,NA,NA,NA
75070,Collin County,TX,8.085612366230679,NA,NA,NA,NA
75074,Collin County,TX,NA,47.31638418079096,NA,42.33576642335766,NA
75075,Collin County,TX,NA,84.7457627118644,NA,NA,NA
75077,Denton County,TX,63.13912009512486,NA,50.14005602240896,NA,NA
75089,Dallas County,TX,60.166468489892985,NA,NA,NA,NA
75090,Grayson County,TX,NA,NA,55.32212885154062,NA,NA
75103,Van Zandt County,TX,72.41379310344827,NA,NA,NA,NA
75119,Ellis County,TX,NA,NA,60.924369747899156,NA,NA
75126,Kaufman County,TX,NA,86.15819209039547,NA,NA,NA
75156,Henderson County,TX,NA,66.80790960451978,NA,NA,NA
75189,Rockwall County,TX,43.281807372175976,NA,NA,NA,NA
75208,Dallas County,TX,63.376932223543406,NA,NA,NA,NA
75211,Dallas County,TX,NA,20.19774011299435,NA,NA,NA
75216,Dallas County,TX,NA,NA,NA,12.773722627737227,NA
75219,Dallas County,TX,NA,95.33898305084746,NA,NA,NA
75224,Dallas County,TX,33.29369797859691,NA,NA,NA,NA
75227,Dallas County,TX,NA,NA,22.54901960784314,NA,NA
75228,Dallas County,TX,6.183115338882283,63.70056497175142,NA,NA,NA
75234,Dallas County,TX,NA,50.1412429378531,NA,NA,NA
75243,Dallas County,TX,1.1890606420927468,NA,NA,NA,NA
75253,Dallas County,TX,NA,43.22033898305085,NA,NA,NA
75428,Hunt County,TX,NA,NA,90.19607843137256,NA,NA
75455,Titus County,TX,53.15101070154577,NA,NA,NA,NA
75460,Lamar County,TX,37.45541022592152,NA,NA,NA,NA
75474,Hunt County,TX,NA,51.55367231638418,NA,NA,NA
75601,Gregg County,TX,NA,79.94350282485875,NA,NA,NA
75605,Gregg County,TX,81.6884661117717,NA,NA,NA,NA
75644,Upshur County,TX,NA,84.32203389830508,NA,NA,NA
75650,Harrison County,TX,76.81331747919144,NA,81.65266106442577,NA,NA
75652,Rusk County,TX,54.9346016646849,NA,NA,NA,NA
75701,Smith County,TX,23.543400713436384,NA,NA,NA,NA
75703,Smith County,TX,16.527942925089178,NA,NA,NA,3.111111111111111
75708,Smith County,TX,66.94411414982164,NA,NA,NA,NA
75757,Smith County,TX,63.97146254458978,NA,NA,NA,NA
75766,Cherokee County,TX,NA,12.85310734463277,NA,NA,NA
75771,Smith County,TX,NA,NA,NA,NA,18.666666666666668
75783,Wood County,TX,NA,NA,NA,NA,91.55555555555556
75790,Van Zandt County,TX,NA,NA,97.89915966386555,NA,NA
75860,Freestone County,TX,85.01783590963139,NA,NA,NA,NA
75901,Angelina County,TX,49.82164090368609,NA,NA,NA,NA
75904,Angelina County,TX,NA,69.0677966101695,NA,NA,NA
75951,Jasper County,TX,NA,NA,57.70308123249299,NA,NA
76002,Tarrant County,TX,NA,NA,NA,NA,97.33333333333334
76010,Tarrant County,TX,NA,3.672316384180791,NA,NA,NA
76012,Tarrant County,TX,NA,59.18079096045198,NA,NA,NA
76021,Tarrant County,TX,NA,NA,NA,49.63503649635037,38.22222222222222
76036,Tarrant County,TX,83.47205707491082,NA,NA,NA,NA
76063,Tarrant County,TX,3.686087990487515,NA,NA,NA,NA
76084,Johnson County,TX,NA,NA,91.17647058823529,NA,NA
76086,Parker County,TX,NA,NA,67.50700280112045,NA,NA
76092,Tarrant County,TX,NA,NA,NA,87.95620437956204,NA
76105,Tarrant County,TX,NA,NA,NA,33.57664233576642,NA
76106,Tarrant County,TX,NA,NA,55.182072829131656,31.02189781021898,NA
76116,Tarrant County,TX,NA,22.74011299435028,NA,NA,NA
76117,Tarrant County,TX,NA,34.88700564971751,NA,NA,NA
76119,Tarrant County,TX,NA,5.932203389830509,NA,NA,72
76120,Tarrant County,TX,NA,79.23728813559322,NA,NA,NA
76131,Tarrant County,TX,NA,67.65536723163842,NA,NA,NA
76132,Tarrant County,TX,NA,NA,70.02801120448179,NA,NA
76133,Tarrant County,TX,NA,NA,22.408963585434176,NA,NA
76134,Tarrant County,TX,44.470868014268724,NA,NA,NA,NA
76137,Tarrant County,TX,NA,24.858757062146893,NA,NA,NA
76140,Tarrant County,TX,NA,NA,NA,55.1094890510949,NA
76164,Tarrant County,TX,NA,NA,76.61064425770309,NA,NA
76180,Tarrant County,TX,NA,NA,NA,43.79562043795621,NA
76210,Denton County,TX,71.10582639714626,NA,NA,NA,NA
76262,Denton County,TX,NA,NA,NA,NA,77.77777777777779
76308,Wichita County,TX,77.28894173602853,NA,NA,NA,NA
76309,Wichita County,TX,81.09393579072533,NA,NA,NA,NA
76365,Clay County,TX,82.28299643281808,NA,NA,NA,NA
76426,Wise County,TX,69.44114149821641,NA,NA,NA,NA
76501,Bell County,TX,NA,43.78531073446328,NA,NA,NA
76502,Bell County,TX,NA,39.548022598870055,NA,NA,NA
76504,Bell County,TX,NA,6.214689265536723,NA,NA,NA
76513,Bell County,TX,NA,NA,11.76470588235294,NA,12
76522,Coryell County,TX,NA,72.88135593220339,NA,NA,NA
76537,Williamson County,TX,94.17360285374554,NA,NA,NA,NA
76541,Bell County,TX,NA,NA,NA,55.47445255474452,NA
76542,Bell County,TX,14.26872770511296,NA,NA,NA,NA
76543,Bell County,TX,NA,39.26553672316384,NA,NA,NA
76548,Bell County,TX,NA,NA,51.9607843137255,NA,NA
76549,Bell County,TX,NA,9.463276836158192,NA,NA,NA
76567,Milam County,TX,NA,NA,NA,NA,50.66666666666667
76634,Bosque County,TX,NA,NA,NA,NA,66.66666666666666
76645,Hill County,TX,86.32580261593341,NA,NA,NA,NA
76657,McLennan County,TX,85.61236623067776,NA,NA,NA,52.888888888888886
76706,McLennan County,TX,22.35434007134364,31.497175141242938,NA,NA,NA
76707,McLennan County,TX,NA,53.672316384180796,NA,NA,NA
76801,Brown County,TX,NA,NA,NA,56.934306569343065,NA
77004,Harris County,TX,NA,92.79661016949152,NA,NA,NA
77008,Harris County,TX,NA,NA,NA,NA,67.11111111111111
77016,Harris County,TX,62.66349583828775,53.813559322033896,NA,NA,NA
77026,Harris County,TX,NA,38.84180790960452,NA,NA,NA
77033,Harris County,TX,NA,NA,NA,28.832116788321166,NA
77040,Harris County,TX,NA,70.33898305084746,NA,NA,NA
77041,Harris County,TX,46.9678953626635,NA,NA,NA,NA
77042,Harris County,TX,NA,67.65536723163842,NA,NA,NA
77044,Harris County,TX,21.284185493460168,NA,NA,NA,NA
77055,Harris County,TX,NA,12.005649717514125,NA,NA,NA
77064,Harris County,TX,NA,16.807909604519775,NA,51.82481751824818,NA
77068,Harris County,TX,NA,NA,94.25770308123249,NA,NA
77070,Harris County,TX,NA,53.954802259887,NA,NA,NA
77071,Harris County,TX,NA,75.98870056497175,NA,NA,NA
77075,Harris County,TX,NA,NA,NA,NA,94.22222222222221
77076,Harris County,TX,NA,84.32203389830508,NA,NA,NA
77077,Harris County,TX,NA,NA,51.68067226890757,NA,NA
77082,Harris County,TX,18.549346016646847,NA,NA,NA,NA
77085,Harris County,TX,NA,80.64971751412429,NA,NA,NA
77087,Harris County,TX,NA,54.378531073446325,NA,NA,NA
77090,Harris County,TX,47.205707491082045,NA,NA,NA,NA
77092,Harris County,TX,55.172413793103445,NA,NA,NA,NA
77099,Harris County,TX,NA,19.491525423728813,NA,NA,NA
77301,Montgomery County,TX,64.68489892984543,NA,NA,NA,NA
77356,Montgomery County,TX,NA,NA,73.10924369747899,NA,NA
77375,Harris County,TX,20.92746730083234,48.44632768361582,NA,NA,NA
77377,Harris County,TX,NA,NA,50.84033613445378,NA,NA
77386,Montgomery County,TX,26.397146254458974,NA,NA,NA,NA
77396,Harris County,TX,NA,NA,42.857142857142854,NA,NA
77407,Fort Bend County,TX,NA,NA,NA,82.48175182481752,NA
77423,Waller County,TX,NA,NA,89.6358543417367,NA,NA
77429,Harris County,TX,8.680142687277051,NA,NA,NA,NA
77469,Fort Bend County,TX,NA,NA,NA,43.43065693430657,NA
77489,Fort Bend County,TX,NA,46.46892655367232,NA,NA,NA
77498,Fort Bend County,TX,60.64209274673008,NA,NA,NA,NA
77502,Harris County,TX,NA,31.497175141242938,NA,NA,NA
77511,Brazoria County,TX,NA,NA,19.607843137254903,NA,NA
77515,Brazoria County,TX,NA,NA,NA,NA,44
77521,Harris County,TX,NA,NA,32.35294117647059,NA,NA
77523,Chambers County,TX,19.2627824019025,NA,NA,NA,NA
77536,Harris County,TX,NA,NA,45.09803921568628,NA,NA
77551,Galveston County,TX,NA,NA,30.672268907563026,NA,NA
77562,Harris County,TX,67.77645659928656,NA,NA,NA,NA
77563,Galveston County,TX,NA,79.94350282485875,NA,NA,NA
77568,Galveston County,TX,42.568370986920335,NA,NA,NA,NA
77581,Brazoria County,TX,NA,98.44632768361582,NA,NA,NA
77584,Brazoria County,TX,13.436385255648037,NA,NA,NA,NA
77611,Orange County,TX,NA,91.10169491525424,NA,NA,NA
77640,Jefferson County,TX,NA,79.51977401129943,NA,NA,NA
77642,Jefferson County,TX,NA,30.36723163841808,NA,NA,NA
77651,Jefferson County,TX,74.6730083234245,NA,NA,NA,NA
77656,Hardin County,TX,NA,69.49152542372882,NA,NA,NA
77703,Jefferson County,TX,NA,NA,77.87114845938376,NA,NA
77836,Burleson County,TX,NA,NA,73.24929971988794,NA,NA
77840,Brazos County,TX,38.882282996432814,NA,NA,NA,NA
77868,Grimes County,TX,47.4435196195006,NA,NA,NA,NA
77962,Jackson County,TX,NA,NA,99.71988795518207,NA,NA
77979,Calhoun County,TX,90.36860879904876,NA,NA,NA,NA
78016,Medina County,TX,84.5422116527943,NA,NA,NA,NA
78023,Bexar County,TX,NA,92.09039548022598,NA,NA,NA
78070,Comal County,TX,85.37455410225921,NA,NA,NA,NA
78112,Bexar County,TX,NA,79.51977401129943,NA,NA,NA
78121,Wilson County,TX,68.13317479191439,NA,NA,NA,NA
78132,Comal County,TX,NA,86.15819209039547,NA,NA,NA
78155,Guadalupe County,TX,8.323424494649228,NA,27.591036414565828,NA,NA
78202,Bexar County,TX,86.92033293697978,NA,NA,NA,NA
78207,Bexar County,TX,NA,20.903954802259886,NA,NA,NA
78211,Bexar County,TX,NA,6.9209039548022595,NA,NA,NA
78218,Bexar County,TX,NA,NA,89.49579831932773,NA,NA
78221,Bexar County,TX,NA,NA,80.3921568627451,NA,NA
78222,Bexar County,TX,23.18668252080856,56.63841807909604,NA,NA,NA
78223,Bexar County,TX,12.128418549346016,NA,22.969187675070028,NA,NA
78227,Bexar County,TX,8.799048751486325,NA,NA,NA,NA
78238,Bexar County,TX,NA,NA,NA,83.57664233576642,NA
78245,Bexar County,TX,15.933412604042807,NA,NA,NA,NA
78253,Bexar County,TX,NA,NA,64.42577030812325,NA,NA
78336,San Patricio County,TX,64.44708680142688,NA,NA,NA,NA
78363,Kleberg County,TX,NA,NA,65.96638655462185,NA,NA
78372,Jim Wells County,TX,NA,NA,NA,97.44525547445255,NA
78384,Duval County,TX,84.89892984542212,NA,NA,NA,NA
78405,Nueces County,TX,NA,NA,83.19327731092437,NA,NA
78408,Nueces County,TX,72.17598097502973,NA,NA,NA,NA
78410,Nueces County,TX,NA,44.91525423728814,NA,NA,NA
78412,Nueces County,TX,NA,NA,NA,NA,83.11111111111111
78413,Nueces County,TX,45.65992865636147,NA,NA,NA,NA
78501,Hidalgo County,TX,11.17717003567182,NA,NA,NA,NA
78504,Hidalgo County,TX,36.74197384066588,NA,NA,NA,NA
78516,Hidalgo County,TX,18.07372175980975,NA,NA,NA,NA
78521,Cameron County,TX,12.366230677764566,NA,NA,63.503649635036496,NA
78542,Hidalgo County,TX,NA,1.4124293785310735,NA,NA,NA
78572,Hidalgo County,TX,NA,NA,NA,NA,6.666666666666667
78574,Hidalgo County,TX,NA,1.2711864406779663,NA,NA,NA
78575,Cameron County,TX,NA,NA,98.31932773109243,NA,NA
78576,Hidalgo County,TX,NA,79.09604519774011,NA,NA,NA
78577,Hidalgo County,TX,9.274673008323424,1.5536723163841808,NA,NA,14.666666666666666
78582,Starr County,TX,NA,26.9774011299435,NA,NA,NA
78583,Cameron County,TX,NA,97.03389830508475,NA,NA,NA
78595,Hidalgo County,TX,NA,NA,100,NA,NA
78629,Gonzales County,TX,NA,87.00564971751412,NA,78.46715328467153,NA
78641,Williamson County,TX,31.03448275862069,NA,25.210084033613445,NA,NA
78645,Travis County,TX,NA,NA,88.51540616246498,NA,NA
78724,Travis County,TX,NA,NA,NA,NA,92
78727,Travis County,TX,82.28299643281808,NA,NA,NA,NA
78734,Travis County,TX,85.61236623067776,NA,NA,NA,NA
78738,Travis County,TX,NA,NA,NA,NA,90.66666666666666
78744,Travis County,TX,NA,33.61581920903955,70.86834733893558,NA,NA
78753,Travis County,TX,4.399524375743162,NA,NA,NA,NA
78801,Uvalde County,TX,39.71462544589774,NA,NA,NA,NA
78834,Dimmit County,TX,NA,NA,NA,90.87591240875912,NA
78840,Val Verde County,TX,14.030915576694412,NA,NA,NA,NA
78956,Fayette County,TX,NA,NA,95.7983193277311,NA,NA
79118,Randall County,TX,NA,62.005649717514125,NA,NA,NA
79119,Randall County,TX,NA,NA,NA,NA,91.11111111111111
79339,Lamb County,TX,NA,74.15254237288136,NA,NA,NA
79412,Lubbock County,TX,NA,62.71186440677966,NA,NA,NA
79423,Lubbock County,TX,NA,18.220338983050848,NA,NA,NA
79556,Nolan County,TX,NA,NA,64.28571428571429,NA,NA
79606,Taylor County,TX,NA,NA,68.76750700280112,NA,NA
79701,Midland County,TX,31.510107015457788,NA,NA,NA,NA
79714,Andrews County,TX,71.58145065398335,NA,NA,NA,NA
79763,Ector County,TX,11.652794292508919,27.966101694915253,NA,NA,NA
79764,Ector County,TX,24.97027348394768,NA,NA,NA,NA
79905,El Paso County,TX,NA,NA,80.812324929972,NA,NA
79924,El Paso County,TX,12.009512485136742,NA,NA,NA,NA
79927,El Paso County,TX,NA,11.440677966101696,NA,NA,NA
84009,Salt Lake County,UT,NA,NA,NA,NA,83.55555555555556
84032,Wasatch County,UT,NA,99.43502824858757,NA,NA,NA
84065,Salt Lake County,UT,NA,NA,NA,NA,75.55555555555556
84074,Tooele County,UT,1.070154577883472,NA,NA,NA,33.33333333333333
84078,Uintah County,UT,4.5184304399524375,NA,20.448179271708682,NA,NA
84084,Salt Lake County,UT,NA,NA,53.36134453781513,NA,NA
84095,Salt Lake County,UT,NA,NA,NA,36.86131386861314,NA
84104,Salt Lake County,UT,NA,NA,NA,NA,64.44444444444444
84107,Salt Lake County,UT,NA,NA,47.198879551820724,NA,NA
84117,Salt Lake County,UT,NA,NA,NA,NA,39.55555555555556
84414,Weber County,UT,66.70630202140309,NA,NA,NA,NA
84532,Grand County,UT,NA,NA,NA,89.05109489051095,NA
84624,Millard County,UT,NA,NA,99.85994397759103,NA,NA
84663,Utah County,UT,59.80975029726516,NA,NA,NA,NA
05091,Windsor County,VT,NA,NA,NA,NA,85.77777777777777
05201,Bennington County,VT,NA,NA,NA,NA,40.44444444444444
05401,Chittenden County,VT,NA,NA,NA,82.84671532846716,NA
05450,Franklin County,VT,NA,NA,NA,85.03649635036497,NA
20110,Manassas city,VA,NA,68.07909604519774,NA,NA,NA
20148,Loudoun County,VA,27.46730083234245,64.54802259887006,NA,NA,NA
20171,Fairfax County,VA,52.080856123662315,NA,NA,NA,NA
20194,Fairfax County,VA,90.84423305588585,NA,NA,NA,NA
22152,Fairfax County,VA,NA,NA,62.324929971988794,NA,NA
22181,Fairfax County,VA,79.66706302021403,NA,NA,NA,NA
22193,Prince William County,VA,30.915576694411417,NA,NA,NA,NA
22203,Arlington County,VA,67.41973840665874,NA,NA,NA,NA
22205,Arlington County,VA,72.65160523186682,NA,NA,NA,NA
22207,Arlington County,VA,NA,NA,NA,NA,48
22306,Fairfax County,VA,NA,34.463276836158194,NA,NA,NA
22309,Fairfax County,VA,41.14149821640904,NA,NA,NA,NA
22406,Stafford County,VA,NA,NA,85.29411764705883,NA,NA
22554,Stafford County,VA,19.976218787158146,44.2090395480226,NA,NA,NA
22556,Stafford County,VA,NA,66.80790960451978,NA,NA,78.66666666666666
22601,Winchester city,VA,53.74554102259215,NA,NA,NA,NA
22701,Culpeper County,VA,24.61355529131986,NA,29.831932773109244,NA,NA
22901,Albemarle County,VA,NA,46.46892655367232,NA,NA,NA
22960,Orange County,VA,NA,NA,71.70868347338936,NA,NA
22980,Waynesboro city,VA,NA,NA,12.605042016806722,NA,NA
23075,Henrico County,VA,NA,NA,69.46778711484593,NA,NA
23116,Hanover County,VA,NA,NA,NA,NA,57.77777777777777
23188,James City County,VA,NA,NA,NA,NA,0.4444444444444444
23223,Henrico County,VA,NA,9.180790960451978,6.722689075630252,NA,NA
23224,Richmond city,VA,NA,NA,15.546218487394958,NA,NA
23231,Henrico County,VA,NA,NA,27.310924369747898,NA,NA
23234,Chesterfield County,VA,3.329369797859691,NA,NA,NA,NA
23322,Chesapeake city,VA,NA,NA,NA,NA,20.444444444444446
23325,Chesapeake city,VA,81.09393579072533,NA,NA,NA,NA
23454,Virginia Beach city,VA,46.730083234244944,NA,NA,NA,NA
23508,Norfolk city,VA,81.09393579072533,NA,NA,NA,NA
23523,Norfolk city,VA,NA,39.83050847457627,NA,NA,NA
23608,Newport News city,VA,NA,NA,NA,NA,53.77777777777778
23669,Hampton city,VA,NA,NA,NA,20.802919708029197,NA
23701,Portsmouth city,VA,NA,45.76271186440678,NA,NA,NA
23703,Portsmouth city,VA,NA,58.61581920903954,NA,38.32116788321168,NA
23707,Portsmouth city,VA,31.03448275862069,NA,NA,NA,NA
23803,Petersburg city,VA,NA,NA,16.5266106442577,NA,NA
23805,Petersburg city,VA,63.13912009512486,NA,NA,NA,NA
23834,Colonial Heights city,VA,41.14149821640904,NA,NA,NA,NA
23836,Chesterfield County,VA,NA,88.98305084745762,NA,NA,NA
23847,Greensville County,VA,79.07253269916765,NA,NA,NA,NA
24012,Roanoke city,VA,32.81807372175981,NA,NA,NA,NA
24014,Roanoke city,VA,78.12128418549345,92.79661016949152,NA,NA,68
24017,Roanoke city,VA,29.72651605231867,47.88135593220339,NA,NA,NA
24055,Henry County,VA,NA,NA,NA,75.91240875912408,NA
24151,Franklin County,VA,NA,NA,NA,60.94890510948905,NA
24216,Wise County,VA,99.40546967895362,NA,NA,NA,NA
24277,Lee County,VA,89.89298454221165,NA,NA,NA,NA
24315,Bland County,VA,98.92984542211653,NA,NA,NA,NA
24401,Staunton city,VA,34.720570749108205,NA,NA,NA,NA
24416,Buena Vista city,VA,NA,NA,72.12885154061624,NA,NA
24486,Augusta County,VA,NA,NA,95.93837535014006,NA,NA
24517,Campbell County,VA,NA,NA,92.29691876750701,NA,NA
98006,King County,WA,NA,NA,NA,NA,57.333333333333336
98023,King County,WA,NA,NA,28.851540616246496,NA,NA
98034,King County,WA,75.50535077288941,84.7457627118644,NA,NA,NA
98037,Snohomish County,WA,NA,76.69491525423729,NA,NA,NA
98038,King County,WA,18.430439952437574,NA,NA,NA,NA
98040,King County,WA,NA,NA,NA,NA,44.888888888888886
98042,King County,WA,NA,73.44632768361582,NA,NA,NA
98072,King County,WA,NA,NA,69.187675070028,NA,NA
98104,King County,WA,NA,NA,53.78151260504202,NA,NA
98108,King County,WA,NA,NA,NA,73.35766423357664,NA
98110,Kitsap County,WA,NA,NA,NA,45.62043795620438,NA
98133,King County,WA,NA,NA,NA,NA,13.777777777777779
98168,King County,WA,NA,NA,36.97478991596639,NA,NA
98178,King County,WA,NA,64.26553672316385,NA,NA,NA
98203,Snohomish County,WA,NA,NA,54.761904761904766,NA,NA
98204,Snohomish County,WA,NA,NA,NA,59.48905109489051,NA
98226,Whatcom County,WA,NA,75.98870056497175,NA,NA,NA
98230,Whatcom County,WA,89.65517241379311,NA,NA,NA,NA
98248,Whatcom County,WA,NA,NA,82.77310924369748,NA,NA
98328,Pierce County,WA,NA,NA,86.5546218487395,NA,NA
98362,Clallam County,WA,73.24613555291319,NA,NA,NA,NA
98371,Pierce County,WA,NA,88.2768361581921,NA,NA,NA
98405,Pierce County,WA,26.991676575505352,NA,NA,NA,NA
98503,Thurston County,WA,NA,NA,74.92997198879551,NA,NA
98584,Mason County,WA,NA,NA,NA,NA,33.77777777777778
98626,Cowlitz County,WA,NA,NA,50.56022408963585,NA,NA
98661,Clark County,WA,NA,NA,NA,48.54014598540146,NA
98801,Chelan County,WA,37.5743162901308,NA,NA,NA,NA
98837,Grant County,WA,NA,NA,NA,NA,26.222222222222225
98848,Grant County,WA,80.85612366230677,NA,NA,NA,NA
99163,Whitman County,WA,NA,88.98305084745762,NA,NA,NA
99301,Franklin County,WA,NA,3.531073446327684,NA,NA,NA
99336,Benton County,WA,10.225921521997622,NA,NA,NA,NA
99352,Benton County,WA,NA,NA,NA,NA,4
20003,District of Columbia,DC,NA,NA,NA,53.64963503649635,NA
20010,District of Columbia,DC,NA,68.50282485875707,NA,NA,NA
20011,District of Columbia,DC,14.982164090368608,NA,NA,NA,NA
20017,District of Columbia,DC,64.44708680142688,NA,NA,NA,NA
20019,District of Columbia,DC,28.77526753864447,NA,NA,NA,NA
20020,District of Columbia,DC,5.9453032104637336,NA,NA,NA,NA
20032,District of Columbia,DC,NA,NA,8.123249299719888,NA,NA
25309,Kanawha County,WV,66.46848989298454,NA,NA,NA,NA
25560,Putnam County,WV,87.03923900118906,NA,NA,NA,NA
25670,Mingo County,WV,NA,93.78531073446328,NA,NA,NA
25704,Wayne County,WV,67.89536266349585,NA,32.212885154061624,NA,NA
26003,Ohio County,WV,13.198573127229487,NA,NA,NA,NA
26062,Hancock County,WV,NA,NA,44.81792717086835,NA,NA
26101,Wood County,WV,NA,27.11864406779661,NA,NA,NA
26170,Pleasants County,WV,NA,NA,91.31652661064426,NA,NA
26241,Randolph County,WV,NA,NA,35.714285714285715,NA,NA
26537,Preston County,WV,NA,NA,64.14565826330532,NA,NA
26554,Marion County,WV,NA,NA,7.282913165266107,NA,NA
53024,Ozaukee County,WI,53.74554102259215,NA,NA,NA,NA
53029,Waukesha County,WI,NA,NA,70.02801120448179,NA,NA
53094,Jefferson County,WI,43.51961950059453,NA,NA,NA,NA
53110,Milwaukee County,WI,35.6718192627824,NA,NA,NA,NA
53139,Racine County,WI,90.84423305588585,NA,NA,NA,NA
53146,Waukesha County,WI,NA,NA,NA,NA,84
53154,Milwaukee County,WI,NA,75.56497175141243,NA,NA,NA
53185,Racine County,WI,NA,NA,NA,NA,74.22222222222223
53188,Waukesha County,WI,NA,NA,NA,26.642335766423358,NA
53204,Milwaukee County,WI,10.107015457788346,NA,NA,NA,NA
53205,Milwaukee County,WI,NA,NA,4.901960784313726,NA,NA
53206,Milwaukee County,WI,NA,50.56497175141242,NA,NA,NA
53209,Milwaukee County,WI,1.5457788347205708,NA,4.621848739495799,NA,NA
53210,Milwaukee County,WI,NA,NA,NA,27.73722627737226,NA
53214,Milwaukee County,WI,17.717003567181926,NA,16.80672268907563,NA,NA
53215,Milwaukee County,WI,2.0214030915576697,NA,NA,NA,NA
53218,Milwaukee County,WI,NA,9.463276836158192,NA,NA,NA
53223,Milwaukee County,WI,NA,36.5819209039548,NA,NA,NA
53406,Racine County,WI,NA,NA,NA,4.014598540145985,NA
53511,Rock County,WI,NA,NA,1.5406162464985995,NA,NA
53704,Dane County,WI,20.332936979785966,NA,NA,NA,NA
53713,Dane County,WI,NA,NA,60.08403361344538,NA,NA
53714,Dane County,WI,56.71819262782402,NA,NA,NA,NA
53807,Grant County,WI,NA,NA,NA,NA,98.66666666666667
53954,Columbia County,WI,NA,NA,NA,97.44525547445255,NA
54020,Polk County,WI,NA,NA,NA,NA,88
54022,Pierce County,WI,63.97146254458978,NA,NA,NA,NA
54115,Brown County,WI,NA,81.07344632768361,NA,NA,NA
54153,Oconto County,WI,NA,NA,NA,86.86131386861314,NA
54220,Manitowoc County,WI,NA,NA,NA,4.37956204379562,NA
54304,Brown County,WI,45.65992865636147,NA,NA,NA,NA
54476,Marathon County,WI,21.997621878715815,NA,NA,NA,NA
54494,Wood County,WI,73.7217598097503,NA,34.87394957983193,NA,NA
54495,Wood County,WI,NA,NA,82.21288515406162,NA,82.22222222222221
54603,La Crosse County,WI,NA,NA,NA,32.846715328467155,NA
54701,Eau Claire County,WI,NA,NA,49.299719887955185,NA,NA
54703,Eau Claire County,WI,NA,NA,24.789915966386555,NA,NA
54736,Pepin County,WI,NA,NA,NA,98.90510948905109,NA
54806,Ashland County,WI,NA,72.88135593220339,NA,NA,NA
54914,Outagamie County,WI,NA,NA,26.89075630252101,NA,NA
54956,Winnebago County,WI,NA,74.15254237288136,30.252100840336134,NA,NA
82501,Fremont County,WY,NA,NA,NA,NA,84.88888888888889
