ZipCode,county,state,Adult
35950,Marshall County,AL,48.214285714285715
99504,Anchorage Municipality,AK,30.357142857142854
85013,Maricopa County,AZ,56.547619047619044
85083,Maricopa County,AZ,84.52380952380952
85248,Maricopa County,AZ,69.04761904761905
85296,Maricopa County,AZ,39.88095238095239
85390,Maricopa County,AZ,94.64285714285714
85746,Pima County,AZ,50
71832,Sevier County,AR,91.07142857142857
90002,Los Angeles County,CA,90.47619047619048
90013,Los Angeles County,CA,66.07142857142857
90064,Los Angeles County,CA,70.23809523809523
90221,Los Angeles County,CA,20.833333333333336
90247,Los Angeles County,CA,61.30952380952381
90602,Los Angeles County,CA,72.61904761904762
92019,San Diego County,CA,54.761904761904766
92065,San Diego County,CA,57.14285714285714
92109,San Diego County,CA,77.97619047619048
92677,Orange County,CA,39.285714285714285
92833,Orange County,CA,59.523809523809526
93274,Tulare County,CA,12.5
93727,Fresno County,CA,25
94501,Alameda County,CA,47.023809523809526
94513,Contra Costa County,CA,41.66666666666667
94591,Solano County,CA,73.21428571428571
95060,Santa Cruz County,CA,94.04761904761905
95112,Santa Clara County,CA,92.26190476190477
95113,Santa Clara County,CA,98.21428571428571
95340,Merced County,CA,44.642857142857146
95926,Butte County,CA,86.90476190476191
95991,Sutter County,CA,34.523809523809526
80013,Arapahoe County,CO,19.642857142857142
81003,Pueblo County,CO,43.452380952380956
06096,Hartford County,CT,85.71428571428571
06106,Hartford County,CT,10.714285714285714
06457,Middlesex County,CT,16.071428571428573
06511,New Haven County,CT,10.119047619047619
06605,Fairfield County,CT,40.476190476190474
19711,New Castle County,DE,36.30952380952381
32117,Volusia County,FL,73.80952380952381
32465,Gulf County,FL,93.45238095238095
32578,Okaloosa County,FL,63.69047619047619
33125,Miami-Dade County,FL,53.57142857142857
33127,Miami-Dade County,FL,67.26190476190477
33186,Miami-Dade County,FL,60.11904761904761
34207,Manatee County,FL,65.47619047619048
30126,Cobb County,GA,52.976190476190474
30161,Floyd County,GA,29.761904761904763
30331,Fulton County,GA,27.380952380952383
30542,Hall County,GA,61.904761904761905
30906,Richmond County,GA,15.476190476190476
96817,Honolulu County,HI,22.023809523809522
60406,Cook County,IL,64.88095238095238
60640,Cook County,IL,17.261904761904763
61102,Winnebago County,IL,69.64285714285714
46254,Marion County,IN,30.952380952380953
46256,Marion County,IN,97.02380952380952
46307,Lake County,IN,3.571428571428571
46733,Adams County,IN,51.19047619047619
47501,Daviess County,IN,87.5
50125,Warren County,IA,77.38095238095238
67203,Sedgwick County,KS,78.57142857142857
40078,Washington County,KY,99.40476190476191
41858,Letcher County,KY,68.45238095238095
70112,Orleans Parish,LA,48.214285714285715
70117,Orleans Parish,LA,8.928571428571429
70127,Orleans Parish,LA,14.880952380952381
70131,Orleans Parish,LA,24.404761904761905
70346,Ascension Parish,LA,55.952380952380956
70507,Lafayette Parish,LA,51.78571428571429
70525,Acadia Parish,LA,57.738095238095234
70535,St. Landry Parish,LA,32.142857142857146
70769,Ascension Parish,LA,66.66666666666666
70805,East Baton Rouge Parish,LA,5.357142857142857
70816,East Baton Rouge Parish,LA,11.904761904761903
04350,Kennebec County,ME,95.83333333333334
04950,Somerset County,ME,79.16666666666666
01020,Hampden County,MA,7.142857142857142
01605,Worcester County,MA,2.976190476190476
01826,Middlesex County,MA,8.333333333333332
02150,Suffolk County,MA,0.5952380952380952
02191,Norfolk County,MA,71.42857142857143
02301,Plymouth County,MA,76.78571428571429
48092,Macomb County,MI,35.714285714285715
48197,Washtenaw County,MI,4.761904761904762
48237,Oakland County,MI,62.5
48238,Wayne County,MI,11.30952380952381
48439,Genesee County,MI,22.61904761904762
48626,Saginaw County,MI,88.69047619047619
49331,Kent County,MI,58.333333333333336
55001,Washington County,MN,100
55303,Anoka County,MN,27.976190476190478
55912,Mower County,MN,13.095238095238097
56359,Mille Lacs County,MN,92.85714285714286
56470,Hubbard County,MN,74.40476190476191
38614,Coahoma County,MS,83.33333333333334
38632,DeSoto County,MS,58.92857142857143
39507,Harrison County,MS,76.19047619047619
63136,St. Louis County,MO,14.285714285714285
59828,Ravalli County,MT,98.80952380952381
68127,Douglas County,NE,75
68601,Platte County,NE,70.83333333333334
89145,Clark County,NV,81.54761904761905
07646,Bergen County,NJ,72.02380952380952
08857,Middlesex County,NJ,16.666666666666664
08884,Middlesex County,NJ,91.66666666666666
88101,Curry County,NM,42.857142857142854
10031,New York County,NY,36.904761904761905
10452,Bronx County,NY,1.7857142857142856
10458,Bronx County,NY,0
11203,Kings County,NY,19.047619047619047
11221,Kings County,NY,26.785714285714285
11373,Queens County,NY,23.809523809523807
12303,Schenectady County,NY,46.42857142857143
12589,Ulster County,NY,97.61904761904762
13045,Cortland County,NY,6.547619047619048
13126,Oswego County,NY,5.952380952380952
14005,Genesee County,NY,96.42857142857143
14559,Monroe County,NY,21.428571428571427
14580,Monroe County,NY,2.380952380952381
14621,Monroe County,NY,1.1904761904761905
27028,Davie County,NC,25.595238095238095
27522,Granville County,NC,79.76190476190477
28092,Lincoln County,NC,31.547619047619047
28401,New Hanover County,NC,20.238095238095237
43756,Morgan County,OH,88.69047619047619
44484,Trumbull County,OH,33.92857142857143
44685,Summit County,OH,54.166666666666664
44702,Stark County,OH,89.88095238095238
44903,Richland County,OH,28.57142857142857
45504,Clark County,OH,95.23809523809523
45661,Pike County,OH,55.35714285714286
73644,Beckham County,OK,67.85714285714286
97801,Umatilla County,OR,42.26190476190476
16601,Blair County,PA,18.452380952380953
17025,Cumberland County,PA,38.69047619047619
17406,York County,PA,44.047619047619044
17517,Lancaster County,PA,63.095238095238095
17842,Snyder County,PA,83.92857142857143
18801,Susquehanna County,PA,82.14285714285714
19030,Bucks County,PA,79.76190476190477
19473,Montgomery County,PA,86.30952380952381
29379,Union County,SC,37.5
29550,Darlington County,SC,49.404761904761905
29588,Horry County,SC,45.83333333333333
29707,Lancaster County,SC,80.95238095238095
29720,Lancaster County,SC,26.190476190476193
37148,Sumner County,TN,47.61904761904761
37311,Bradley County,TN,41.07142857142857
37388,Coffee County,TN,38.095238095238095
37818,Greene County,TN,84.52380952380952
37919,Knox County,TN,63.69047619047619
38127,Shelby County,TN,17.857142857142858
75061,Dallas County,TX,60.71428571428571
75228,Dallas County,TX,32.73809523809524
76308,Wichita County,TX,88.09523809523809
78237,Bexar County,TX,35.11904761904761
22079,Fairfax County,VA,50.595238095238095
22204,Arlington County,VA,33.33333333333333
24201,Bristol city,VA,52.38095238095239
98115,King County,WA,45.23809523809524
98248,Whatcom County,WA,82.73809523809523
98270,Snohomish County,WA,29.166666666666668
20020,District of Columbia,DC,4.166666666666666
26187,Wood County,WV,75.59523809523809
26301,Harrison County,WV,13.690476190476192
26554,Marion County,WV,7.738095238095238
53212,Milwaukee County,WI,23.214285714285715
53215,Milwaukee County,WI,9.523809523809524
