ZipCode,county,state,Adult,Retirement,Geriatric
35810,Madison County,AL,NA,NA,21.019108280254777
35951,Marshall County,AL,68.59060402684564,NA,NA
35957,Marshall County,AL,49.7986577181208,NA,NA
36067,Autauga County,AL,40.53691275167785,NA,NA
36078,Elmore County,AL,81.61073825503355,NA,NA
36116,Montgomery County,AL,22.95302013422819,NA,NA
36310,Henry County,AL,NA,91.30434782608695,NA
36426,Escambia County,AL,NA,62.732919254658384,73.88535031847134
36575,Mobile County,AL,NA,77.32919254658384,NA
36609,Mobile County,AL,NA,65.21739130434783,NA
36610,Mobile County,AL,NA,NA,94.90445859872611
36701,Dallas County,AL,31.00671140939597,NA,NA
99502,Anchorage Municipality,AK,NA,NA,75.79617834394905
99507,Anchorage Municipality,AK,37.58389261744966,NA,NA
99576,Dillingham Census Area,AK,92.08053691275168,NA,NA
99654,Matanuska-Susitna Borough,AK,NA,43.16770186335403,NA
99712,Fairbanks North Star Borough,AK,NA,NA,96.81528662420382
85009,Maricopa County,AZ,NA,NA,62.738853503184714
85013,Maricopa County,AZ,78.12080536912752,NA,NA
85020,Maricopa County,AZ,42.41610738255034,NA,NA
85021,Maricopa County,AZ,13.422818791946309,NA,NA
85022,Maricopa County,AZ,22.14765100671141,NA,NA
85035,Maricopa County,AZ,17.85234899328859,NA,NA
85040,Maricopa County,AZ,21.34228187919463,NA,NA
85120,Pinal County,AZ,74.22818791946308,NA,NA
85204,Maricopa County,AZ,NA,31.05590062111801,NA
85215,Maricopa County,AZ,NA,NA,84.39490445859873
85251,Maricopa County,AZ,NA,NA,33.75796178343949
85283,Maricopa County,AZ,19.86577181208054,NA,NA
85286,Maricopa County,AZ,39.73154362416108,NA,NA
85297,Maricopa County,AZ,66.1744966442953,NA,NA
85345,Maricopa County,AZ,NA,12.111801242236025,NA
85353,Maricopa County,AZ,NA,81.05590062111801,NA
85374,Maricopa County,AZ,NA,NA,5.095541401273886
85382,Maricopa County,AZ,NA,44.099378881987576,NA
85542,Gila County,AZ,89.12751677852349,NA,NA
85550,Graham County,AZ,90.60402684563759,97.20496894409938,NA
85711,Pima County,AZ,9.93288590604027,NA,NA
85739,Pinal County,AZ,NA,NA,22.929936305732486
85743,Pima County,AZ,NA,NA,60.19108280254777
85746,Pima County,AZ,13.95973154362416,NA,NA
85756,Pima County,AZ,40.13422818791946,NA,NA
85901,Navajo County,AZ,55.033557046979865,NA,NA
86004,Coconino County,AZ,NA,13.975155279503104,NA
86025,Navajo County,AZ,NA,NA,99.36305732484077
86326,Yavapai County,AZ,60.805369127516784,NA,NA
86409,Mohave County,AZ,9.395973154362416,NA,NA
86510,Navajo County,AZ,61.4765100671141,NA,NA
71639,Desha County,AR,93.4228187919463,NA,NA
71832,Sevier County,AR,85.36912751677852,NA,NA
72086,Lonoke County,AR,NA,93.7888198757764,NA
72450,Greene County,AR,NA,NA,28.980891719745223
72762,Washington County,AR,NA,NA,54.45859872611465
72764,Washington County,AR,NA,NA,72.29299363057325
90007,Los Angeles County,CA,65.23489932885906,NA,NA
90013,Los Angeles County,CA,59.328859060402685,NA,NA
90021,Los Angeles County,CA,99.5973154362416,NA,NA
90023,Los Angeles County,CA,NA,NA,71.3375796178344
90033,Los Angeles County,CA,NA,50.31055900621118,NA
90036,Los Angeles County,CA,70.20134228187919,NA,NA
90043,Los Angeles County,CA,NA,21.73913043478261,NA
90046,Los Angeles County,CA,NA,23.60248447204969,NA
90047,Los Angeles County,CA,68.7248322147651,NA,NA
90048,Los Angeles County,CA,78.25503355704699,NA,NA
90221,Los Angeles County,CA,61.07382550335571,37.267080745341616,NA
90232,Los Angeles County,CA,94.8993288590604,NA,NA
90274,Los Angeles County,CA,NA,NA,44.26751592356688
90277,Los Angeles County,CA,57.18120805369128,NA,NA
90504,Los Angeles County,CA,NA,NA,53.82165605095541
90606,Los Angeles County,CA,56.10738255033557,NA,NA
90631,Orange County,CA,NA,18.32298136645963,NA
90660,Los Angeles County,CA,31.946308724832218,NA,NA
90701,Los Angeles County,CA,NA,NA,90.76433121019109
90804,Los Angeles County,CA,47.38255033557047,NA,NA
90805,Los Angeles County,CA,18.79194630872483,NA,NA
90806,Los Angeles County,CA,NA,58.07453416149069,NA
90807,Los Angeles County,CA,54.49664429530201,NA,NA
91007,Los Angeles County,CA,92.21476510067113,NA,47.77070063694268
91011,Los Angeles County,CA,NA,NA,71.97452229299363
91311,Los Angeles County,CA,NA,84.472049689441,NA
91316,Los Angeles County,CA,NA,NA,24.522292993630572
91387,Los Angeles County,CA,47.651006711409394,NA,NA
91606,Los Angeles County,CA,63.892617449664435,NA,NA
91706,Los Angeles County,CA,29.12751677852349,NA,NA
91710,San Bernardino County,CA,NA,NA,47.452229299363054
91761,San Bernardino County,CA,27.78523489932886,NA,86.62420382165605
91764,San Bernardino County,CA,NA,61.80124223602485,NA
91792,Los Angeles County,CA,70.87248322147651,NA,NA
91902,San Diego County,CA,NA,86.95652173913044,NA
91977,San Diego County,CA,NA,29.503105590062113,NA
92008,San Diego County,CA,53.95973154362416,63.66459627329193,NA
92020,San Diego County,CA,24.026845637583893,NA,NA
92027,San Diego County,CA,NA,NA,46.496815286624205
92101,San Diego County,CA,NA,40.993788819875775,NA
92104,San Diego County,CA,NA,NA,82.48407643312102
92105,San Diego County,CA,18.523489932885905,NA,NA
92109,San Diego County,CA,72.48322147651007,NA,NA
92117,San Diego County,CA,NA,NA,18.152866242038215
92120,San Diego County,CA,NA,71.11801242236024,NA
92154,San Diego County,CA,NA,NA,14.012738853503185
92225,Riverside County,CA,NA,84.78260869565217,NA
92270,Riverside County,CA,NA,10.248447204968944,NA
92307,San Bernardino County,CA,31.409395973154364,NA,NA
92314,San Bernardino County,CA,87.78523489932886,NA,NA
92324,San Bernardino County,CA,22.28187919463087,NA,NA
92325,San Bernardino County,CA,NA,87.88819875776397,NA
92335,San Bernardino County,CA,11.006711409395974,NA,NA
92356,San Bernardino County,CA,99.73154362416108,NA,NA
92392,San Bernardino County,CA,NA,NA,87.89808917197452
92407,San Bernardino County,CA,19.19463087248322,NA,NA
92507,Riverside County,CA,NA,NA,62.738853503184714
92553,Riverside County,CA,63.221476510067106,NA,NA
92570,Riverside County,CA,86.04026845637584,NA,NA
92583,Riverside County,CA,66.71140939597315,NA,NA
92585,Riverside County,CA,79.59731543624162,NA,NA
92648,Orange County,CA,NA,23.29192546583851,NA
92660,Orange County,CA,NA,NA,13.05732484076433
92672,Orange County,CA,88.18791946308725,NA,NA
92677,Orange County,CA,81.20805369127517,NA,NA
92683,Orange County,CA,NA,NA,4.45859872611465
92691,Orange County,CA,NA,21.428571428571427,NA
92694,Orange County,CA,NA,74.22360248447205,NA
92708,Orange County,CA,NA,NA,21.656050955414013
92882,Riverside County,CA,32.75167785234899,NA,NA
93030,Ventura County,CA,51.54362416107383,NA,NA
93041,Ventura County,CA,86.84563758389262,NA,NA
93105,Santa Barbara County,CA,89.93288590604027,NA,NA
93203,Kern County,CA,NA,97.51552795031056,NA
93215,Kern County,CA,84.69798657718121,NA,NA
93277,Tulare County,CA,28.322147651006713,NA,NA
93291,Tulare County,CA,NA,37.577639751552795,NA
93305,Kern County,CA,74.49664429530202,58.38509316770186,NA
93311,Kern County,CA,65.63758389261744,NA,NA
93401,San Luis Obispo County,CA,84.16107382550335,NA,NA
93422,San Luis Obispo County,CA,NA,NA,74.20382165605095
93436,Santa Barbara County,CA,NA,17.391304347826086,NA
93550,Los Angeles County,CA,NA,45.03105590062112,NA
93619,Fresno County,CA,NA,42.857142857142854,NA
93630,Fresno County,CA,83.08724832214766,NA,NA
93705,Fresno County,CA,36.644295302013425,NA,NA
94002,San Mateo County,CA,59.46308724832215,40.683229813664596,NA
94062,San Mateo County,CA,60,NA,NA
94066,San Mateo County,CA,NA,NA,10.828025477707007
94087,Santa Clara County,CA,NA,NA,23.88535031847134
94102,San Francisco County,CA,35.033557046979865,NA,NA
94103,San Francisco County,CA,13.691275167785236,NA,NA
94109,San Francisco County,CA,NA,NA,2.547770700636943
94124,San Francisco County,CA,28.187919463087248,NA,NA
94134,San Francisco County,CA,NA,NA,69.42675159235668
94403,San Mateo County,CA,54.76510067114094,NA,NA
94518,Contra Costa County,CA,79.46308724832215,NA,NA
94547,Contra Costa County,CA,88.45637583892618,NA,NA
94553,Contra Costa County,CA,NA,29.81366459627329,NA
94566,Alameda County,CA,NA,NA,49.681528662420384
94578,Alameda County,CA,79.19463087248322,NA,NA
94583,Contra Costa County,CA,55.302013422818796,NA,NA
94585,Solano County,CA,83.22147651006712,NA,NA
94589,Solano County,CA,62.81879194630873,NA,NA
94605,Alameda County,CA,27.516778523489933,NA,NA
94606,Alameda County,CA,82.95302013422818,NA,NA
94608,Alameda County,CA,NA,NA,59.554140127388536
94610,Alameda County,CA,67.78523489932886,NA,NA
94621,Alameda County,CA,NA,NA,80.57324840764332
94709,Alameda County,CA,97.8523489932886,NA,NA
94949,Marin County,CA,80.67114093959732,NA,NA
94954,Sonoma County,CA,NA,NA,29.936305732484076
95012,Monterey County,CA,86.30872483221476,NA,NA
95035,Santa Clara County,CA,52.080536912751676,NA,NA
95037,Santa Clara County,CA,60.26845637583893,NA,NA
95060,Santa Cruz County,CA,75.03355704697987,NA,NA
95066,Santa Cruz County,CA,NA,NA,90.12738853503186
95121,Santa Clara County,CA,73.8255033557047,NA,NA
95202,San Joaquin County,CA,66.04026845637584,NA,NA
95204,San Joaquin County,CA,59.86577181208054,NA,NA
95207,San Joaquin County,CA,23.355704697986575,NA,NA
95209,San Joaquin County,CA,NA,57.7639751552795,NA
95240,San Joaquin County,CA,NA,80.74534161490683,NA
95358,Stanislaus County,CA,33.95973154362416,NA,NA
95380,Stanislaus County,CA,NA,19.25465838509317,NA
95382,Stanislaus County,CA,NA,65.83850931677019,NA
95409,Sonoma County,CA,NA,NA,14.64968152866242
95608,Sacramento County,CA,NA,NA,37.57961783439491
95620,Solano County,CA,NA,91.61490683229813,NA
95628,Sacramento County,CA,65.77181208053692,NA,NA
95648,Placer County,CA,NA,26.08695652173913,NA
95662,Sacramento County,CA,NA,64.28571428571429,NA
95670,Sacramento County,CA,39.06040268456376,NA,NA
95691,Yolo County,CA,80.80536912751678,NA,NA
95695,Yolo County,CA,69.93288590604027,NA,NA
95776,Yolo County,CA,87.24832214765101,NA,NA
95825,Sacramento County,CA,52.48322147651007,NA,NA
95953,Sutter County,CA,84.02684563758389,NA,NA
95973,Butte County,CA,NA,NA,17.8343949044586
96001,Shasta County,CA,NA,47.51552795031056,NA
96080,Tehama County,CA,45.369127516778526,NA,NA
80010,Arapahoe County,CO,20.268456375838927,NA,NA
80020,Broomfield County,CO,NA,NA,35.98726114649681
80027,Boulder County,CO,NA,52.484472049689444,NA
80033,Jefferson County,CO,78.65771812080537,63.04347826086957,NA
80110,Arapahoe County,CO,69.93288590604027,NA,NA
80120,Arapahoe County,CO,NA,49.68944099378882,NA
80121,Arapahoe County,CO,NA,72.04968944099379,NA
80122,Arapahoe County,CO,NA,NA,51.59235668789809
80126,Douglas County,CO,79.86577181208054,NA,NA
80206,Denver County,CO,NA,NA,82.80254777070064
80210,Denver County,CO,58.52348993288591,NA,NA
80223,Denver County,CO,66.84563758389261,NA,NA
80229,Adams County,CO,15.704697986577182,NA,NA
80230,Denver County,CO,92.61744966442953,NA,NA
80233,Adams County,CO,30.201342281879196,NA,NA
80237,Denver County,CO,NA,60.86956521739131,NA
80241,Adams County,CO,NA,70.1863354037267,NA
80538,Larimer County,CO,44.0268456375839,NA,NA
80631,Weld County,CO,9.53020134228188,NA,NA
80817,El Paso County,CO,56.644295302013425,NA,NA
81004,Pueblo County,CO,28.7248322147651,NA,NA
81301,La Plata County,CO,58.12080536912752,NA,54.77707006369427
81501,Mesa County,CO,75.70469798657719,NA,NA
81625,Moffat County,CO,NA,59.62732919254658,NA
06010,Hartford County,CT,2.013422818791946,NA,NA
06016,Hartford County,CT,96.24161073825503,NA,NA
06019,Hartford County,CT,NA,NA,98.72611464968153
06051,Hartford County,CT,22.416107382550337,NA,NA
06093,Hartford County,CT,97.71812080536913,NA,NA
06106,Hartford County,CT,5.23489932885906,NA,NA
06277,Windham County,CT,84.42953020134229,NA,NA
06410,New Haven County,CT,71.67785234899328,NA,NA
06416,Middlesex County,CT,73.28859060402685,NA,NA
06475,Middlesex County,CT,83.75838926174497,NA,NA
06480,Middlesex County,CT,NA,74.22360248447205,NA
06511,New Haven County,CT,25.100671140939596,NA,NA
06513,New Haven County,CT,NA,NA,19.10828025477707
06604,Fairfield County,CT,NA,NA,69.10828025477707
06708,New Haven County,CT,25.23489932885906,NA,NA
06790,Litchfield County,CT,NA,NA,5.7324840764331215
06825,Fairfield County,CT,98.12080536912752,NA,NA
06831,Fairfield County,CT,NA,NA,67.83439490445859
06878,Fairfield County,CT,NA,95.96273291925466,NA
19701,New Castle County,DE,NA,18.633540372670808,NA
19702,New Castle County,DE,16.91275167785235,NA,55.4140127388535
19711,New Castle County,DE,34.22818791946309,NA,NA
19802,New Castle County,DE,47.51677852348993,NA,NA
19805,New Castle County,DE,3.2214765100671143,NA,NA
19810,New Castle County,DE,58.79194630872483,NA,NA
19966,Sussex County,DE,27.114093959731544,NA,NA
32084,St. Johns County,FL,NA,28.57142857142857,NA
32091,Bradford County,FL,44.83221476510067,NA,NA
32095,St. Johns County,FL,NA,85.71428571428571,NA
32117,Volusia County,FL,37.18120805369127,NA,NA
32137,Flagler County,FL,NA,NA,6.369426751592357
32159,Lake County,FL,NA,23.91304347826087,NA
32205,Duval County,FL,30.335570469798657,NA,NA
32208,Duval County,FL,1.0738255033557047,NA,NA
32218,Duval County,FL,NA,4.3478260869565215,NA
32219,Duval County,FL,48.053691275167786,NA,NA
32226,Duval County,FL,46.71140939597315,NA,NA
32404,Bay County,FL,27.651006711409398,NA,NA
32428,Washington County,FL,NA,51.86335403726709,NA
32466,Bay County,FL,88.32214765100672,NA,NA
32503,Escambia County,FL,22.818791946308725,NA,NA
32507,Escambia County,FL,41.74496644295302,NA,NA
32535,Escambia County,FL,77.98657718120805,NA,NA
32561,Santa Rosa County,FL,89.53020134228188,NA,NA
32580,Okaloosa County,FL,NA,NA,95.85987261146497
32720,Volusia County,FL,NA,39.130434782608695,NA
32738,Volusia County,FL,41.20805369127517,NA,49.044585987261144
32763,Volusia County,FL,NA,NA,66.2420382165605
32801,Orange County,FL,NA,91.92546583850931,NA
32818,Orange County,FL,17.583892617449663,NA,NA
32904,Brevard County,FL,NA,44.409937888198755,NA
32909,Brevard County,FL,NA,NA,42.675159235668794
32937,Brevard County,FL,75.30201342281879,NA,NA
33021,Broward County,FL,50.604026845637584,NA,NA
33040,Monroe County,FL,46.97986577181208,NA,NA
33054,Miami-Dade County,FL,53.02013422818792,73.6024844720497,NA
33161,Miami-Dade County,FL,40,NA,NA
33162,Miami-Dade County,FL,62.41610738255034,NA,47.13375796178344
33169,Miami-Dade County,FL,NA,NA,61.46496815286624
33184,Miami-Dade County,FL,NA,NA,50.318471337579616
33186,Miami-Dade County,FL,NA,NA,67.51592356687898
33317,Broward County,FL,NA,NA,45.85987261146497
33326,Broward County,FL,NA,NA,48.72611464968153
33411,Palm Beach County,FL,NA,NA,20.70063694267516
33414,Palm Beach County,FL,48.322147651006716,NA,NA
33436,Palm Beach County,FL,NA,NA,14.331210191082802
33437,Palm Beach County,FL,NA,NA,0
33484,Palm Beach County,FL,82.81879194630872,NA,NA
33569,Hillsborough County,FL,NA,83.85093167701864,NA
33612,Hillsborough County,FL,NA,NA,40.76433121019109
33614,Hillsborough County,FL,NA,NA,36.94267515923567
33704,Pinellas County,FL,NA,83.22981366459628,NA
33710,Pinellas County,FL,52.75167785234899,NA,NA
33712,Pinellas County,FL,NA,59.3167701863354,NA
33801,Polk County,FL,NA,43.47826086956522,NA
33813,Polk County,FL,NA,NA,70.38216560509554
33872,Highlands County,FL,NA,NA,21.337579617834397
33880,Polk County,FL,26.711409395973156,NA,NA
33908,Lee County,FL,NA,6.521739130434782,8.598726114649681
33909,Lee County,FL,NA,NA,57.64331210191082
33913,Lee County,FL,83.48993288590604,NA,NA
33936,Lee County,FL,51.67785234899329,NA,NA
33990,Lee County,FL,41.47651006711409,NA,NA
34105,Collier County,FL,90.87248322147651,NA,NA
34110,Collier County,FL,NA,50.931677018633536,NA
34135,Lee County,FL,NA,NA,12.101910828025478
34203,Manatee County,FL,NA,NA,16.24203821656051
34211,Manatee County,FL,NA,83.22981366459628,NA
34243,Manatee County,FL,NA,25.77639751552795,NA
34275,Sarasota County,FL,NA,NA,15.92356687898089
34429,Citrus County,FL,93.15436241610739,NA,73.24840764331209
34481,Marion County,FL,NA,27.32919254658385,11.146496815286625
34482,Marion County,FL,68.05369127516778,NA,NA
34609,Hernando County,FL,NA,NA,20.382165605095544
34610,Pasco County,FL,NA,67.70186335403726,NA
34654,Pasco County,FL,NA,53.41614906832298,NA
34689,Pinellas County,FL,NA,NA,18.471337579617835
34698,Pinellas County,FL,NA,22.36024844720497,NA
34746,Osceola County,FL,40.671140939597315,46.273291925465834,NA
34769,Osceola County,FL,49.261744966442954,NA,NA
34972,Okeechobee County,FL,62.95302013422819,NA,NA
34990,Martin County,FL,NA,25.15527950310559,NA
30052,Walton County,GA,NA,NA,25.796178343949045
30062,Cobb County,GA,NA,NA,28.662420382165603
30068,Cobb County,GA,74.36241610738254,NA,NA
30075,Fulton County,GA,84.56375838926175,NA,NA
30083,DeKalb County,GA,NA,66.77018633540372,NA
30108,Carroll County,GA,95.16778523489933,NA,NA
30115,Cherokee County,GA,NA,39.44099378881988,NA
30120,Bartow County,GA,NA,44.72049689440994,58.28025477707006
30134,Douglas County,GA,NA,NA,58.59872611464968
30161,Floyd County,GA,21.20805369127517,NA,NA
30165,Floyd County,GA,28.59060402684564,NA,NA
30188,Cherokee County,GA,24.42953020134228,NA,NA
30252,Henry County,GA,NA,50,NA
30257,Lamar County,GA,NA,99.37888198757764,NA
30308,Fulton County,GA,77.04697986577182,NA,NA
30312,Fulton County,GA,63.624161073825505,NA,NA
30318,Fulton County,GA,32.080536912751676,NA,NA
30324,Fulton County,GA,83.6241610738255,NA,NA
30554,Hall County,GA,NA,NA,99.04458598726114
30813,Columbia County,GA,35.43624161073826,NA,NA
31021,Laurens County,GA,42.95302013422819,NA,NA
31029,Monroe County,GA,73.69127516778524,NA,NA
31032,Jones County,GA,NA,82.6086956521739,NA
31064,Jasper County,GA,80.40268456375838,NA,NA
31069,Houston County,GA,NA,NA,48.089171974522294
31405,Chatham County,GA,NA,39.75155279503105,32.802547770700635
31406,Chatham County,GA,55.70469798657718,NA,NA
31501,Ware County,GA,NA,NA,56.05095541401274
31513,Appling County,GA,NA,NA,78.343949044586
31569,Camden County,GA,96.51006711409396,NA,NA
31605,Lowndes County,GA,NA,NA,79.61783439490446
31721,Dougherty County,GA,NA,NA,70.06369426751591
31791,Worth County,GA,55.83892617449664,NA,NA
39819,Decatur County,GA,80.13422818791946,NA,NA
96749,Hawaii County,HI,81.87919463087249,NA,NA
96792,Honolulu County,HI,43.89261744966443,NA,NA
96815,Honolulu County,HI,NA,63.35403726708074,NA
83201,Bannock County,ID,25.503355704697988,NA,NA
83401,Bonneville County,ID,16.10738255033557,NA,NA
83617,Gem County,ID,NA,NA,30.89171974522293
83646,Ada County,ID,NA,8.695652173913043,3.5031847133757963
83686,Canyon County,ID,36.51006711409396,NA,NA
83704,Ada County,ID,NA,3.7267080745341614,NA
83709,Ada County,ID,16.778523489932887,NA,NA
60002,Lake County,IL,64.56375838926175,NA,NA
60016,Cook County,IL,27.248322147651006,NA,6.687898089171974
60031,Lake County,IL,51.40939597315436,NA,NA
60056,Cook County,IL,NA,15.527950310559005,NA
60070,Cook County,IL,89.12751677852349,NA,NA
60103,DuPage County,IL,NA,24.53416149068323,NA
60134,Kane County,IL,NA,42.54658385093168,NA
60171,Cook County,IL,NA,69.87577639751554,NA
60178,DeKalb County,IL,NA,NA,53.503184713375795
60302,Cook County,IL,87.91946308724832,NA,NA
60431,Will County,IL,43.624161073825505,NA,NA
60442,Will County,IL,NA,85.40372670807453,NA
60478,Cook County,IL,78.52348993288591,NA,NA
60487,Cook County,IL,NA,41.30434782608695,NA
60490,Will County,IL,NA,92.2360248447205,NA
60506,Kane County,IL,29.53020134228188,NA,NA
60525,Cook County,IL,26.44295302013423,NA,NA
60559,DuPage County,IL,NA,45.962732919254655,NA
60609,Cook County,IL,12.080536912751679,NA,NA
60610,Cook County,IL,45.50335570469798,NA,NA
60611,Cook County,IL,NA,NA,9.554140127388536
60614,Cook County,IL,24.563758389261743,NA,NA
60616,Cook County,IL,41.34228187919463,NA,NA
60619,Cook County,IL,NA,NA,1.5923566878980893
60634,Cook County,IL,11.677852348993287,NA,NA
60636,Cook County,IL,37.986577181208055,NA,NA
60640,Cook County,IL,NA,NA,7.643312101910828
60644,Cook County,IL,8.590604026845638,NA,NA
60651,Cook County,IL,NA,NA,15.605095541401273
60657,Cook County,IL,NA,13.354037267080745,NA
60659,Cook County,IL,50.46979865771812,NA,NA
60707,Cook County,IL,NA,NA,8.9171974522293
61032,Stephenson County,IL,NA,NA,12.420382165605096
61111,Winnebago County,IL,53.691275167785236,NA,NA
61244,Rock Island County,IL,NA,NA,39.490445859872615
61705,McLean County,IL,80.93959731543625,NA,NA
61727,De Witt County,IL,NA,NA,46.81528662420382
61920,Coles County,IL,NA,51.5527950310559,NA
61938,Coles County,IL,49.127516778523486,NA,NA
62002,Madison County,IL,NA,NA,14.968152866242038
62226,St. Clair County,IL,46.308724832214764,NA,NA
62249,Madison County,IL,77.4496644295302,NA,NA
62298,Monroe County,IL,NA,64.90683229813664,NA
62626,Macoupin County,IL,92.3489932885906,NA,NA
62650,Morgan County,IL,NA,NA,34.07643312101911
62702,Sangamon County,IL,NA,NA,35.6687898089172
62704,Sangamon County,IL,NA,32.298136645962735,NA
62864,Jefferson County,IL,NA,NA,75.47770700636943
46001,Madison County,IN,NA,NA,56.05095541401274
46011,Madison County,IN,NA,NA,38.853503184713375
46072,Tipton County,IN,NA,NA,64.96815286624204
46113,Marion County,IN,70.46979865771812,NA,NA
46131,Johnson County,IN,34.09395973154362,NA,NA
46203,Marion County,IN,38.65771812080537,14.285714285714285,NA
46218,Marion County,IN,10.738255033557047,NA,24.840764331210192
46222,Marion County,IN,22.01342281879195,30.124223602484474,NA
46237,Marion County,IN,21.073825503355707,NA,NA
46360,LaPorte County,IN,5.906040268456376,NA,NA
46373,Lake County,IN,33.557046979865774,NA,NA
46375,Lake County,IN,35.83892617449664,NA,NA
46394,Lake County,IN,58.25503355704698,NA,NA
46506,Marshall County,IN,NA,88.81987577639751,NA
46507,Elkhart County,IN,NA,89.75155279503106,NA
46517,Elkhart County,IN,51.946308724832214,NA,NA
46750,Huntington County,IN,21.74496644295302,NA,NA
46761,LaGrange County,IN,NA,NA,76.43312101910828
46802,Allen County,IN,81.47651006711409,NA,NA
46804,Allen County,IN,NA,26.39751552795031,NA
46825,Allen County,IN,NA,29.19254658385093,NA
46901,Howard County,IN,33.422818791946305,NA,NA
46952,Grant County,IN,20,NA,NA
47150,Floyd County,IN,12.21476510067114,NA,NA
47274,Jackson County,IN,64.69798657718121,NA,NA
47331,Fayette County,IN,16.241610738255034,13.043478260869565,NA
47421,Lawrence County,IN,NA,NA,32.802547770700635
47620,Posey County,IN,NA,NA,72.92993630573248
47630,Warrick County,IN,46.577181208053695,NA,NA
47712,Vanderburgh County,IN,55.302013422818796,NA,NA
50129,Greene County,IA,98.38926174496643,NA,NA
50248,Story County,IA,NA,NA,89.49044585987261
50317,Polk County,IA,13.020134228187919,NA,NA
50701,Black Hawk County,IA,37.04697986577181,NA,NA
50702,Black Hawk County,IA,74.8993288590604,NA,NA
51104,Woodbury County,IA,48.7248322147651,NA,NA
51566,Montgomery County,IA,77.31543624161074,NA,NA
52240,Johnson County,IA,23.221476510067113,NA,NA
52627,Lee County,IA,47.11409395973155,NA,NA
52641,Henry County,IA,NA,NA,55.095541401273884
52732,Clinton County,IA,57.4496644295302,NA,NA
52806,Scott County,IA,23.08724832214765,NA,NA
66109,Wyandotte County,KS,NA,NA,30.573248407643312
66212,Johnson County,KS,NA,15.838509316770185,NA
66749,Allen County,KS,NA,NA,65.28662420382165
66801,Lyon County,KS,54.09395973154363,NA,NA
67205,Sedgwick County,KS,90.46979865771813,NA,NA
67214,Sedgwick County,KS,72.3489932885906,NA,NA
67460,McPherson County,KS,NA,61.18012422360248,NA
40215,Jefferson County,KY,53.42281879194631,NA,NA
40272,Jefferson County,KY,14.76510067114094,NA,NA
40359,Owen County,KY,NA,90.37267080745342,NA
40383,Woodford County,KY,73.95973154362416,NA,NA
40391,Clark County,KY,8.993288590604028,NA,NA
40484,Lincoln County,KY,NA,NA,85.35031847133759
40505,Fayette County,KY,26.57718120805369,NA,NA
40515,Fayette County,KY,NA,NA,85.03184713375796
41008,Carroll County,KY,79.06040268456375,NA,NA
41071,Campbell County,KY,NA,NA,57.324840764331206
41129,Boyd County,KY,NA,56.2111801242236,NA
41240,Johnson County,KY,60.53691275167785,NA,NA
42122,Warren County,KY,NA,100,NA
42167,Monroe County,KY,NA,NA,92.99363057324841
42171,Warren County,KY,83.35570469798658,NA,NA
42240,Christian County,KY,31.2751677852349,NA,NA
42276,Logan County,KY,59.06040268456376,NA,NA
42327,McLean County,KY,93.69127516778524,NA,NA
42431,Hopkins County,KY,59.19463087248322,NA,NA
42567,Pulaski County,KY,86.97986577181209,NA,NA
70002,Jefferson Parish,LA,NA,33.85093167701863,NA
70047,St. Charles Parish,LA,98.25503355704697,NA,NA
70056,Jefferson Parish,LA,4.697986577181208,NA,NA
70094,Jefferson Parish,LA,94.09395973154362,NA,NA
70117,Orleans Parish,LA,94.63087248322147,NA,NA
70126,Orleans Parish,LA,6.442953020134229,NA,NA
70127,Orleans Parish,LA,33.691275167785236,NA,NA
70359,Terrebonne Parish,LA,34.49664429530201,NA,NA
70363,Terrebonne Parish,LA,NA,NA,40.445859872611464
70471,St. Tammany Parish,LA,98.9261744966443,NA,NA
70503,Lafayette Parish,LA,72.61744966442953,NA,NA
70510,Vermilion Parish,LA,11.946308724832216,NA,NA
70520,Lafayette Parish,LA,59.597315436241615,NA,NA
70563,Iberia Parish,LA,71.94630872483222,NA,NA
70578,Acadia Parish,LA,57.58389261744966,NA,NA
70586,Evangeline Parish,LA,NA,38.19875776397515,NA
70591,Jefferson Davis Parish,LA,85.1006711409396,NA,NA
70605,Calcasieu Parish,LA,19.731543624161073,NA,NA
70634,Beauregard Parish,LA,NA,NA,36.30573248407643
70663,Calcasieu Parish,LA,NA,21.11801242236025,NA
70669,Calcasieu Parish,LA,57.852348993288594,NA,NA
70714,East Baton Rouge Parish,LA,NA,NA,80.89171974522293
70726,Livingston Parish,LA,NA,NA,19.745222929936308
70785,Livingston Parish,LA,18.926174496644297,NA,NA
71105,Caddo Parish,LA,NA,NA,78.6624203821656
71202,Ouachita Parish,LA,26.845637583892618,NA,NA
71203,Ouachita Parish,LA,NA,NA,32.1656050955414
71291,Ouachita Parish,LA,11.812080536912752,32.608695652173914,NA
71292,Ouachita Parish,LA,NA,55.590062111801245,NA
71301,Rapides Parish,LA,7.785234899328859,NA,NA
71457,Natchitoches Parish,LA,6.97986577181208,NA,NA
04210,Androscoggin County,ME,20.40268456375839,NA,NA
04412,Penobscot County,ME,NA,NA,27.070063694267514
04769,Aroostook County,ME,65.36912751677852,NA,NA
04938,Franklin County,ME,54.36241610738255,NA,NA
20735,Prince George's County,MD,NA,67.3913043478261,NA
20747,Prince George's County,MD,NA,NA,98.08917197452229
20781,Prince George's County,MD,91.81208053691276,NA,NA
20874,Montgomery County,MD,NA,60.55900621118012,NA
20876,Montgomery County,MD,71.00671140939598,NA,NA
20912,Montgomery County,MD,95.43624161073826,NA,NA
21009,Harford County,MD,51.006711409395976,NA,NA
21045,Howard County,MD,NA,69.56521739130434,NA
21048,Carroll County,MD,91.94630872483222,NA,NA
21075,Howard County,MD,69.79865771812081,NA,NA
21163,Howard County,MD,NA,NA,99.68152866242038
21207,Baltimore County,MD,24.697986577181208,NA,NA
21208,Baltimore County,MD,NA,NA,12.738853503184714
21221,Baltimore County,MD,21.879194630872483,NA,NA
21225,Baltimore city,MD,NA,NA,54.14012738853503
21229,Baltimore city,MD,NA,NA,19.426751592356688
21231,Baltimore city,MD,NA,67.08074534161491,NA
21234,Baltimore County,MD,17.315436241610737,NA,NA
21703,Frederick County,MD,85.503355704698,NA,NA
21811,Worcester County,MD,61.20805369127517,NA,NA
01001,Hampden County,MA,30.469798657718123,NA,NA
01027,Hampshire County,MA,13.288590604026846,NA,NA
01104,Hampden County,MA,1.476510067114094,NA,NA
01331,Worcester County,MA,4.832214765100671,NA,NA
01545,Worcester County,MA,NA,17.70186335403727,NA
01570,Worcester County,MA,4.295302013422819,NA,NA
01606,Worcester County,MA,19.06040268456376,NA,NA
01610,Worcester County,MA,0.5369127516778524,NA,NA
01742,Middlesex County,MA,90.06711409395973,NA,NA
01824,Middlesex County,MA,NA,7.763975155279502,NA
01826,Middlesex County,MA,4.429530201342282,NA,NA
01854,Middlesex County,MA,NA,NA,4.777070063694268
01860,Essex County,MA,93.8255033557047,NA,NA
01862,Middlesex County,MA,76.77852348993288,NA,NA
01905,Essex County,MA,NA,NA,52.22929936305732
02072,Norfolk County,MA,NA,9.627329192546584,NA
02111,Suffolk County,MA,NA,75.77639751552795,NA
02118,Suffolk County,MA,NA,0.6211180124223602,NA
02119,Suffolk County,MA,NA,0.3105590062111801,NA
02121,Suffolk County,MA,0.2684563758389262,NA,NA
02131,Suffolk County,MA,1.6107382550335572,NA,NA
02134,Suffolk County,MA,63.08724832214765,NA,NA
02169,Norfolk County,MA,0.4026845637583893,NA,NA
02446,Norfolk County,MA,NA,7.453416149068323,NA
02472,Middlesex County,MA,7.38255033557047,NA,NA
02478,Middlesex County,MA,25.906040268456376,NA,NA
02601,Barnstable County,MA,NA,NA,41.71974522292994
02645,Barnstable County,MA,NA,65.21739130434783,NA
02747,Bristol County,MA,NA,50.621118012422365,NA
02780,Bristol County,MA,0.1342281879194631,NA,NA
02790,Bristol County,MA,NA,25.465838509316768,NA
48042,Macomb County,MI,23.89261744966443,NA,28.343949044585987
48043,Macomb County,MI,35.30201342281879,NA,NA
48071,Oakland County,MI,NA,NA,44.904458598726116
48092,Macomb County,MI,NA,NA,30.254777070063692
48111,Wayne County,MI,7.114093959731544,NA,NA
48117,Monroe County,MI,56.510067114093964,NA,NA
48122,Wayne County,MI,82.41610738255034,NA,NA
48138,Wayne County,MI,NA,NA,43.31210191082803
48174,Wayne County,MI,7.516778523489933,NA,NA
48180,Wayne County,MI,2.5503355704697985,NA,NA
48198,Washtenaw County,MI,2.4161073825503356,NA,NA
48209,Wayne County,MI,NA,82.29813664596274,NA
48214,Wayne County,MI,NA,NA,41.40127388535032
48216,Wayne County,MI,96.10738255033557,NA,NA
48223,Wayne County,MI,NA,NA,57.961783439490446
48224,Wayne County,MI,2.2818791946308723,NA,NA
48227,Wayne County,MI,3.6241610738255035,NA,NA
48234,Wayne County,MI,8.322147651006711,NA,NA
48236,Wayne County,MI,NA,NA,9.872611464968154
48340,Oakland County,MI,NA,35.714285714285715,NA
48342,Oakland County,MI,15.973154362416109,NA,NA
48386,Oakland County,MI,65.1006711409396,NA,NA
48439,Genesee County,MI,14.228187919463087,NA,NA
48451,Genesee County,MI,76.3758389261745,NA,NA
48507,Genesee County,MI,NA,90.6832298136646,NA
48601,Saginaw County,MI,NA,4.037267080745342,NA
48640,Midland County,MI,NA,NA,3.821656050955414
48658,Arenac County,MI,94.36241610738256,NA,NA
48813,Eaton County,MI,NA,NA,31.84713375796178
48858,Isabella County,MI,6.308724832214765,NA,NA
48867,Shiawassee County,MI,NA,NA,7.006369426751593
48884,Montcalm County,MI,96.3758389261745,NA,NA
49009,Kalamazoo County,MI,NA,9.937888198757763,NA
49022,Berrien County,MI,10.87248322147651,NA,NA
49055,Van Buren County,MI,NA,73.91304347826086,NA
49083,Kalamazoo County,MI,85.77181208053692,NA,NA
49091,St. Joseph County,MI,47.91946308724832,NA,NA
49107,Berrien County,MI,NA,80.43478260869566,NA
49203,Jackson County,MI,7.919463087248323,NA,NA
49301,Kent County,MI,NA,68.32298136645963,NA
49315,Kent County,MI,49.93288590604027,NA,NA
49333,Barry County,MI,71.40939597315436,NA,NA
49348,Allegan County,MI,NA,NA,78.98089171974523
49424,Ottawa County,MI,16.51006711409396,NA,NA
49504,Kent County,MI,NA,13.664596273291925,NA
49509,Kent County,MI,14.36241610738255,NA,NA
49735,Otsego County,MI,68.99328859060402,NA,NA
49801,Dickinson County,MI,67.24832214765101,NA,NA
55009,Goodhue County,MN,NA,NA,63.69426751592356
55044,Dakota County,MN,53.15436241610738,60.24844720496895,NA
55082,Washington County,MN,37.852348993288594,NA,NA
55101,Ramsey County,MN,NA,86.64596273291926,NA
55104,Ramsey County,MN,16.375838926174495,NA,NA
55105,Ramsey County,MN,75.57046979865771,NA,NA
55124,Dakota County,MN,42.68456375838926,NA,NA
55378,Scott County,MN,58.92617449664429,NA,NA
55379,Scott County,MN,76.24161073825503,NA,NA
55388,Carver County,MN,97.58389261744966,98.75776397515527,NA
55391,Hennepin County,MN,NA,81.67701863354037,NA
55398,Sherburne County,MN,91.2751677852349,NA,NA
55401,Hennepin County,MN,NA,90.06211180124224,NA
55404,Hennepin County,MN,0.9395973154362416,NA,NA
55412,Hennepin County,MN,9.798657718120806,NA,NA
55420,Hennepin County,MN,NA,56.52173913043478,NA
55428,Hennepin County,MN,54.63087248322148,NA,NA
55433,Anoka County,MN,NA,53.72670807453416,NA
56001,Blue Earth County,MN,79.73154362416108,NA,NA
56308,Douglas County,MN,63.35570469798658,NA,NA
56359,Mille Lacs County,MN,90.33557046979865,NA,NA
56470,Hubbard County,MN,70.33557046979865,NA,NA
56573,Otter Tail County,MN,NA,NA,71.01910828025477
56601,Beltrami County,MN,NA,NA,0.9554140127388535
38614,Coahoma County,MS,54.899328859060404,NA,NA
38632,DeSoto County,MS,NA,66.14906832298136,NA
38654,DeSoto County,MS,26.308724832214764,NA,NA
38663,Tippah County,MS,NA,NA,65.60509554140127
38671,DeSoto County,MS,NA,52.79503105590062,NA
38732,Bolivar County,MS,42.5503355704698,NA,NA
38748,Washington County,MS,99.06040268456375,NA,NA
38834,Alcorn County,MS,NA,NA,74.52229299363057
39183,Warren County,MS,66.97986577181209,NA,NA
39204,Hinds County,MS,25.63758389261745,NA,NA
39426,Pearl River County,MS,58.65771812080537,NA,NA
39443,Jones County,MS,87.11409395973155,NA,NA
39507,Harrison County,MS,71.14093959731544,NA,NA
39564,Jackson County,MS,NA,33.54037267080746,NA
39571,Harrison County,MS,72.21476510067114,NA,NA
39705,Lowndes County,MS,70.73825503355705,NA,NA
63042,St. Louis County,MO,50.06711409395973,NA,NA
63122,St. Louis County,MO,62.14765100671141,NA,NA
63124,St. Louis County,MO,99.32885906040269,NA,NA
63128,St. Louis County,MO,NA,21.73913043478261,NA
63376,St. Charles County,MO,NA,2.1739130434782608,NA
63775,Perry County,MO,NA,NA,22.611464968152866
63825,Stoddard County,MO,NA,94.09937888198758,NA
64012,Cass County,MO,76.91275167785236,NA,NA
64062,Ray County,MO,61.61073825503356,NA,NA
64086,Jackson County,MO,38.92617449664429,NA,NA
64118,Clay County,MO,NA,9.316770186335404,NA
64131,Jackson County,MO,46.71140939597315,NA,NA
64136,Jackson County,MO,96.7785234899329,NA,NA
64151,Platte County,MO,34.899328859060404,NA,50.955414012738856
64152,Platte County,MO,NA,NA,61.46496815286624
64503,Buchanan County,MO,29.261744966442954,NA,NA
64804,Jasper County,MO,18.389261744966444,NA,NA
65803,Greene County,MO,11.409395973154362,NA,18.789808917197455
65807,Greene County,MO,NA,NA,6.050955414012739
59102,Yellowstone County,MT,46.442953020134226,NA,NA
59501,Hill County,MT,NA,89.13043478260869,NA
59601,Lewis and Clark County,MT,NA,NA,19.745222929936308
59803,Missoula County,MT,NA,78.88198757763976,NA
59828,Ravalli County,MT,97.4496644295302,NA,NA
68007,Douglas County,NE,86.1744966442953,NA,NA
68127,Douglas County,NE,NA,76.70807453416148,NA
68147,Sarpy County,NE,NA,NA,90.44585987261146
68467,York County,NE,89.39597315436242,NA,NA
68502,Lancaster County,NE,72.08053691275168,NA,NA
68601,Platte County,NE,65.90604026845638,NA,NA
68787,Wayne County,NE,98.65771812080537,NA,NA
68949,Phelps County,NE,NA,NA,68.47133757961782
89117,Clark County,NV,38.65771812080537,NA,NA
89147,Clark County,NV,43.758389261744966,NA,NA
89148,Clark County,NV,48.99328859060403,NA,NA
89156,Clark County,NV,69.53020134228188,NA,NA
89169,Clark County,NV,57.04697986577181,NA,NA
89423,Douglas County,NV,83.75838926174497,NA,NA
89503,Washoe County,NV,62.41610738255034,NA,NA
89506,Washoe County,NV,20.13422818791946,NA,NA
89509,Washoe County,NV,NA,NA,28.980891719745223
03053,Rockingham County,NH,NA,NA,37.261146496815286
03064,Hillsborough County,NH,NA,46.58385093167702,NA
03301,Merrimack County,NH,NA,NA,3.1847133757961785
03741,Grafton County,NH,98.65771812080537,NA,NA
03867,Strafford County,NH,NA,27.639751552795033,NA
07040,Essex County,NJ,NA,88.50931677018633,NA
07043,Essex County,NJ,NA,NA,98.40764331210191
07055,Passaic County,NJ,NA,3.4161490683229814,NA
07070,Bergen County,NJ,NA,NA,68.78980891719745
07306,Hudson County,NJ,NA,NA,17.51592356687898
07422,Sussex County,NJ,95.57046979865773,99.06832298136646,NA
07465,Passaic County,NJ,NA,NA,88.21656050955414
07712,Monmouth County,NJ,3.3557046979865772,NA,NA
07724,Monmouth County,NJ,NA,36.33540372670808,NA
07731,Monmouth County,NJ,NA,40.06211180124223,NA
07740,Monmouth County,NJ,NA,9.006211180124224,NA
07762,Monmouth County,NJ,NA,NA,81.84713375796179
07856,Morris County,NJ,97.98657718120806,NA,NA
07860,Sussex County,NJ,NA,NA,64.3312101910828
07876,Morris County,NJ,91.00671140939596,NA,NA
07932,Morris County,NJ,NA,95.34161490683229,NA
08010,Burlington County,NJ,52.88590604026846,NA,NA
08046,Burlington County,NJ,6.577181208053691,NA,NA
08081,Camden County,NJ,1.74496644295302,NA,NA
08091,Camden County,NJ,87.6510067114094,NA,NA
08105,Camden County,NJ,NA,12.422360248447205,NA
08332,Cumberland County,NJ,NA,18.012422360248447,NA
08611,Mercer County,NJ,NA,NA,77.07006369426752
08620,Mercer County,NJ,NA,NA,82.16560509554141
08701,Ocean County,NJ,37.718120805369125,NA,NA
08759,Ocean County,NJ,NA,1.8633540372670807,NA
08824,Middlesex County,NJ,NA,85.09316770186336,NA
08861,Middlesex County,NJ,52.214765100671144,NA,NA
87002,Valencia County,NM,NA,54.347826086956516,NA
87102,Bernalillo County,NM,23.758389261744966,NA,NA
87107,Bernalillo County,NM,36.10738255033557,NA,NA
87120,Bernalillo County,NM,10.335570469798657,NA,NA
87123,Bernalillo County,NM,NA,NA,16.560509554140125
87124,Sandoval County,NM,12.483221476510067,NA,NA
87420,San Juan County,NM,33.15436241610738,NA,NA
87506,Santa Fe County,NM,84.29530201342283,NA,NA
87528,Rio Arriba County,NM,88.7248322147651,NA,NA
88081,Otero County,NM,NA,NA,100
88210,Eddy County,NM,NA,NA,72.61146496815286
88345,Lincoln County,NM,75.03355704697987,NA,NA
10001,New York County,NY,NA,34.161490683229815,NA
10016,New York County,NY,NA,NA,24.203821656050955
10021,New York County,NY,NA,26.70807453416149,NA
10034,New York County,NY,36.91275167785235,NA,NA
10036,New York County,NY,42.14765100671141,NA,NA
10451,Bronx County,NY,2.953020134228188,NA,NA
10453,Bronx County,NY,NA,1.2422360248447204,NA
10456,Bronx County,NY,0,0,NA
10467,Bronx County,NY,5.503355704697987,NA,NA
10468,Bronx County,NY,1.2080536912751678,NA,NA
10473,Bronx County,NY,NA,6.832298136645963,NA
10562,Westchester County,NY,NA,NA,40.12738853503185
10583,Westchester County,NY,NA,79.5031055900621,NA
10591,Westchester County,NY,NA,NA,64.01273885350318
10701,Westchester County,NY,NA,NA,58.917197452229296
10705,Westchester County,NY,10.604026845637584,NA,29.617834394904456
10940,Orange County,NY,17.449664429530202,NA,NA
10950,Orange County,NY,NA,NA,91.40127388535032
10952,Rockland County,NY,NA,NA,66.87898089171973
10992,Orange County,NY,NA,NA,93.94904458598727
11104,Queens County,NY,NA,NA,85.98726114649682
11201,Kings County,NY,NA,NA,23.56687898089172
11203,Kings County,NY,39.59731543624161,NA,NA
11207,Kings County,NY,NA,1.5527950310559007,NA
11210,Kings County,NY,44.966442953020135,NA,NA
11214,Kings County,NY,17.181208053691275,NA,NA
11216,Kings County,NY,41.87919463087248,NA,NA
11220,Kings County,NY,3.8926174496644297,NA,NA
11221,Kings County,NY,18.25503355704698,NA,NA
11223,Kings County,NY,NA,12.732919254658384,NA
11228,Kings County,NY,NA,77.95031055900621,NA
11229,Kings County,NY,NA,NA,2.229299363057325
11231,Kings County,NY,NA,NA,55.73248407643312
11233,Kings County,NY,30.06711409395973,NA,NA
11235,Kings County,NY,NA,NA,0.6369426751592357
11365,Queens County,NY,NA,22.67080745341615,NA
11366,Queens County,NY,91.40939597315436,NA,NA
11370,Queens County,NY,NA,64.59627329192547,NA
11373,Queens County,NY,15.167785234899329,NA,NA
11416,Queens County,NY,51.2751677852349,NA,NA
11427,Queens County,NY,90.73825503355705,NA,NA
11434,Queens County,NY,NA,17.080745341614907,NA
11545,Nassau County,NY,NA,NA,97.45222929936305
11553,Nassau County,NY,NA,NA,62.101910828025474
11590,Nassau County,NY,NA,NA,60.509554140127385
11598,Nassau County,NY,NA,NA,78.98089171974523
11694,Queens County,NY,NA,86.0248447204969,NA
11706,Suffolk County,NY,24.161073825503358,NA,NA
11714,Nassau County,NY,NA,75.15527950310559,51.910828025477706
11715,Suffolk County,NY,NA,NA,97.77070063694268
11729,Suffolk County,NY,NA,NA,48.40764331210191
11732,Nassau County,NY,NA,97.82608695652173,NA
11763,Suffolk County,NY,76.10738255033557,NA,NA
11901,Suffolk County,NY,52.61744966442953,NA,NA
12010,Montgomery County,NY,45.234899328859065,NA,5.414012738853503
12020,Saratoga County,NY,21.610738255033556,NA,NA
12078,Fulton County,NY,NA,10.559006211180124,NA
12204,Albany County,NY,69.39597315436241,NA,NA
12302,Schenectady County,NY,NA,24.22360248447205,NA
12303,Schenectady County,NY,NA,NA,32.48407643312102
12304,Schenectady County,NY,NA,38.50931677018634,NA
12508,Dutchess County,NY,NA,NA,76.75159235668791
12533,Dutchess County,NY,NA,NA,67.19745222929936
12804,Warren County,NY,8.859060402684564,NA,NA
12832,Washington County,NY,76.64429530201342,NA,NA
12866,Saratoga County,NY,15.302013422818792,NA,NA
13021,Cayuga County,NY,3.7583892617449663,NA,NA
13027,Onondaga County,NY,14.630872483221477,NA,NA
13031,Onondaga County,NY,46.04026845637584,NA,NA
13202,Onondaga County,NY,NA,96.8944099378882,NA
13212,Onondaga County,NY,34.36241610738255,NA,NA
13365,Herkimer County,NY,38.25503355704698,NA,NA
13413,Oneida County,NY,NA,NA,25.477707006369428
13417,Oneida County,NY,95.70469798657719,NA,NA
13492,Oneida County,NY,NA,NA,59.554140127388536
13617,St. Lawrence County,NY,38.12080536912752,NA,NA
13760,Broome County,NY,0.8053691275167786,NA,NA
13905,Broome County,NY,1.8791946308724832,NA,NA
14048,Chautauqua County,NY,NA,42.2360248447205,NA
14127,Erie County,NY,NA,49.06832298136646,NA
14141,Erie County,NY,NA,87.26708074534162,NA
14204,Erie County,NY,44.29530201342282,55.90062111801242,NA
14208,Erie County,NY,NA,NA,73.56687898089172
14209,Erie County,NY,71.54362416107382,NA,NA
14215,Erie County,NY,NA,8.074534161490684,NA
14219,Erie County,NY,NA,NA,89.171974522293
14224,Erie County,NY,NA,NA,10.191082802547772
14228,Erie County,NY,49.664429530201346,NA,NA
14411,Orleans County,NY,30.604026845637584,NA,NA
14416,Genesee County,NY,88.0536912751678,NA,NA
14437,Livingston County,NY,46.1744966442953,NA,NA
14450,Monroe County,NY,3.087248322147651,NA,NA
14467,Monroe County,NY,NA,51.24223602484472,NA
14482,Genesee County,NY,NA,NA,93.31210191082803
14605,Monroe County,NY,NA,54.037267080745345,NA
14609,Monroe County,NY,5.100671140939597,NA,NA
14612,Monroe County,NY,2.1476510067114094,NA,NA
14615,Monroe County,NY,12.751677852348994,NA,NA
14618,Monroe County,NY,17.71812080536913,NA,NA
14626,Monroe County,NY,3.48993288590604,NA,NA
14701,Chautauqua County,NY,37.4496644295302,NA,NA
27025,Rockingham County,NC,NA,NA,53.18471337579618
27215,Alamance County,NC,NA,NA,7.961783439490445
27288,Rockingham County,NC,NA,NA,41.082802547770704
27295,Davidson County,NC,NA,NA,1.910828025477707
27301,Guilford County,NC,NA,82.91925465838509,NA
27332,Lee County,NC,NA,NA,50
27341,Randolph County,NC,NA,96.58385093167702,NA
27518,Wake County,NC,NA,52.17391304347826,NA
27522,Granville County,NC,77.58389261744966,NA,NA
27534,Wayne County,NC,39.46308724832215,NA,NA
27546,Harnett County,NC,NA,81.98757763975155,NA
27549,Franklin County,NC,24.966442953020135,NA,NA
27576,Johnston County,NC,61.34228187919463,NA,NA
27591,Wake County,NC,60.805369127516784,NA,NA
27610,Wake County,NC,NA,NA,26.11464968152866
27617,Wake County,NC,NA,74.84472049689441,NA
27705,Durham County,NC,23.48993288590604,NA,NA
27804,Nash County,NC,NA,NA,36.624203821656046
27834,Pitt County,NC,7.248322147651007,NA,NA
28027,Cabarrus County,NC,NA,8.385093167701864,NA
28081,Cabarrus County,NC,NA,47.82608695652174,34.394904458598724
28105,Mecklenburg County,NC,84.83221476510067,NA,35.03184713375796
28117,Iredell County,NC,33.288590604026844,NA,NA
28127,Stanly County,NC,NA,84.16149068322981,NA
28139,Rutherford County,NC,NA,59.006211180124225,NA
28173,Union County,NC,NA,46.8944099378882,NA
28208,Mecklenburg County,NC,10.201342281879194,NA,NA
28212,Mecklenburg County,NC,27.91946308724832,NA,NA
28270,Mecklenburg County,NC,64.02684563758389,NA,NA
28306,Bladen County,NC,67.91946308724832,NA,NA
28312,Cumberland County,NC,NA,45.3416149068323,NA
28315,Moore County,NC,91.54362416107382,NA,NA
28348,Cumberland County,NC,NA,73.29192546583852,NA
28352,Scotland County,NC,28.859060402684566,NA,NA
28364,Robeson County,NC,NA,NA,82.80254777070064
28401,New Hanover County,NC,11.543624161073826,NA,NA
28405,New Hanover County,NC,39.328859060402685,NA,NA
28412,New Hanover County,NC,NA,NA,27.70700636942675
28422,Brunswick County,NC,NA,70.80745341614907,NA
28540,Onslow County,NC,29.261744966442954,NA,NA
28557,Carteret County,NC,NA,95.65217391304348,NA
28562,Craven County,NC,43.08724832214765,NA,13.694267515923567
28571,Pamlico County,NC,NA,NA,97.13375796178345
28607,Watauga County,NC,NA,NA,43.94904458598726
28625,Iredell County,NC,50.87248322147651,18.944099378881987,NA
28640,Ashe County,NC,NA,95.96273291925466,NA
28645,Caldwell County,NC,NA,0.9316770186335404,NA
28655,Burke County,NC,NA,5.279503105590062,NA
28681,Alexander County,NC,NA,72.98136645962732,NA
28714,Yancey County,NC,NA,NA,62.42038216560509
28782,Polk County,NC,NA,NA,89.80891719745223
58504,Burleigh County,ND,56.77852348993289,NA,NA
43021,Delaware County,OH,NA,NA,81.52866242038218
43113,Pickaway County,OH,14.899328859060404,NA,NA
43123,Franklin County,OH,NA,NA,10.509554140127388
43162,Madison County,OH,NA,NA,79.61783439490446
43205,Franklin County,OH,NA,NA,83.43949044585987
43206,Franklin County,OH,13.557046979865772,54.6583850931677,NA
43223,Franklin County,OH,6.0402684563758395,NA,NA
43228,Franklin County,OH,40.40268456375839,NA,NA
43230,Franklin County,OH,49.395973154362416,NA,NA
43302,Marion County,OH,15.570469798657719,NA,2.8662420382165608
43560,Lucas County,OH,NA,15.217391304347828,NA
43607,Lucas County,OH,29.798657718120808,NA,NA
43609,Lucas County,OH,5.369127516778524,NA,NA
43615,Lucas County,OH,4.026845637583892,NA,NA
43701,Muskingum County,OH,0.6711409395973155,NA,NA
43723,Guernsey County,OH,NA,NA,95.54140127388536
43783,Perry County,OH,97.31543624161074,NA,NA
43953,Jefferson County,OH,35.97315436241611,NA,NA
44001,Lorain County,OH,NA,NA,33.43949044585987
44004,Ashtabula County,OH,15.838926174496645,NA,NA
44022,Cuyahoga County,OH,NA,28.26086956521739,NA
44052,Lorain County,OH,2.8187919463087248,2.7950310559006213,NA
44094,Lake County,OH,NA,NA,1.2738853503184715
44095,Lake County,OH,NA,10.869565217391305,NA
44104,Cuyahoga County,OH,42.81879194630873,NA,NA
44111,Cuyahoga County,OH,1.342281879194631,NA,NA
44115,Cuyahoga County,OH,66.30872483221476,NA,NA
44120,Cuyahoga County,OH,NA,20.80745341614907,NA
44134,Cuyahoga County,OH,NA,NA,26.751592356687897
44141,Cuyahoga County,OH,84.96644295302013,56.52173913043478,NA
44146,Cuyahoga County,OH,6.7114093959731544,NA,NA
44149,Cuyahoga County,OH,75.43624161073825,NA,NA
44202,Portage County,OH,NA,NA,7.32484076433121
44212,Medina County,OH,19.59731543624161,NA,NA
44241,Portage County,OH,NA,20.18633540372671,NA
44281,Medina County,OH,23.48993288590604,NA,NA
44333,Summit County,OH,NA,78.26086956521739,NA
44481,Trumbull County,OH,29.93288590604027,NA,NA
44484,Trumbull County,OH,31.67785234899329,NA,NA
44509,Mahoning County,OH,45.63758389261745,NA,NA
44512,Mahoning County,OH,11.140939597315436,NA,NA
44647,Stark County,OH,NA,NA,57.00636942675159
44685,Summit County,OH,47.651006711409394,NA,NA
44691,Wayne County,OH,NA,NA,11.78343949044586
44718,Stark County,OH,82.14765100671141,NA,NA
44805,Ashland County,OH,NA,5.900621118012422,NA
44811,Sandusky County,OH,NA,86.33540372670807,77.70700636942675
44833,Crawford County,OH,35.57046979865772,NA,NA
44903,Richland County,OH,19.463087248322147,NA,NA
45013,Butler County,OH,NA,3.1055900621118013,NA
45036,Warren County,OH,22.550335570469798,NA,NA
45044,Butler County,OH,5.6375838926174495,NA,NA
45154,Brown County,OH,78.9261744966443,NA,NA
45176,Clermont County,OH,68.85906040268456,NA,NA
45227,Hamilton County,OH,51.14093959731544,NA,NA
45236,Hamilton County,OH,80.26845637583892,NA,NA
45238,Hamilton County,OH,NA,16.77018633540373,NA
45309,Montgomery County,OH,85.23489932885906,NA,NA
45365,Shelby County,OH,63.35570469798658,NA,NA
45377,Montgomery County,OH,NA,NA,59.23566878980891
45381,Preble County,OH,91.6778523489933,NA,NA
45385,Greene County,OH,12.885906040268457,NA,NA
45402,Montgomery County,OH,57.71812080536913,NA,NA
45403,Montgomery County,OH,NA,80.12422360248446,NA
45414,Montgomery County,OH,32.88590604026846,NA,NA
45417,Montgomery County,OH,8.993288590604028,NA,NA
45652,Scioto County,OH,93.02013422818793,NA,NA
45663,Scioto County,OH,NA,62.422360248447205,NA
45801,Allen County,OH,NA,22.981366459627328,NA
45865,Auglaize County,OH,99.19463087248323,NA,NA
73013,Oklahoma County,OK,34.76510067114094,NA,NA
73034,Oklahoma County,OK,31.812080536912752,NA,NA
73036,Canadian County,OK,NA,63.975155279503106,NA
73116,Oklahoma County,OK,NA,NA,74.84076433121018
73159,Oklahoma County,OK,48.322147651006716,NA,NA
73401,Carter County,OK,NA,11.490683229813664,NA
74135,Tulsa County,OK,79.32885906040269,NA,NA
74301,Craig County,OK,NA,NA,92.35668789808918
74331,Delaware County,OK,NA,79.19254658385093,NA
74701,Bryan County,OK,NA,93.16770186335404,NA
97015,Clackamas County,OR,56.375838926174495,NA,NA
97030,Multnomah County,OR,18.65771812080537,NA,NA
97055,Clackamas County,OR,69.53020134228188,NA,NA
97058,Wasco County,OR,NA,NA,39.80891719745223
97078,Washington County,OR,71.14093959731544,NA,NA
97080,Multnomah County,OR,NA,NA,35.35031847133758
97086,Clackamas County,OR,89.66442953020135,NA,NA
97128,Yamhill County,OR,NA,NA,25.159235668789808
97209,Multnomah County,OR,42.013422818791945,NA,NA
97230,Multnomah County,OR,25.369127516778523,NA,NA
97302,Marion County,OR,45.100671140939596,NA,NA
97362,Marion County,OR,NA,98.13664596273291,NA
97405,Lane County,OR,NA,62.11180124223602,NA
97426,Lane County,OR,NA,78.57142857142857,NA
97470,Douglas County,OR,33.8255033557047,NA,NA
97496,Douglas County,OR,NA,NA,88.85350318471338
97501,Jackson County,OR,9.261744966442953,NA,NA
97520,Jackson County,OR,NA,47.20496894409938,NA
97537,Jackson County,OR,93.55704697986577,NA,NA
97603,Klamath County,OR,21.34228187919463,NA,NA
97882,Umatilla County,OR,82.68456375838926,NA,NA
15061,Beaver County,PA,64.96644295302013,NA,NA
15074,Beaver County,PA,67.51677852348993,NA,NA
15122,Allegheny County,PA,53.288590604026844,NA,NA
15136,Allegheny County,PA,NA,36.95652173913043,NA
15206,Allegheny County,PA,NA,56.52173913043478,NA
15234,Allegheny County,PA,NA,NA,49.36305732484077
15401,Fayette County,PA,8.456375838926174,NA,NA
16146,Mercer County,PA,26.040268456375838,NA,NA
16301,Venango County,PA,NA,89.44099378881988,NA
16314,Crawford County,PA,NA,71.42857142857143,NA
16401,Erie County,PA,94.76510067114094,NA,NA
16506,Erie County,PA,NA,NA,42.35668789808918
16601,Blair County,PA,10.06711409395973,NA,NA
16602,Blair County,PA,14.496644295302014,NA,NA
16648,Blair County,PA,NA,NA,84.07643312101911
16686,Blair County,PA,61.87919463087248,NA,NA
17022,Lancaster County,PA,18.120805369127517,NA,NA
17025,Cumberland County,PA,NA,54.96894409937888,NA
17042,Lebanon County,PA,NA,6.211180124223603,NA
17057,Dauphin County,PA,19.328859060402685,NA,NA
17061,Dauphin County,PA,NA,NA,93.63057324840764
17109,Dauphin County,PA,28.456375838926174,NA,NA
17111,Dauphin County,PA,NA,7.142857142857142,38.21656050955414
17327,York County,PA,88.85906040268456,NA,NA
17406,York County,PA,40.26845637583892,NA,NA
17517,Lancaster County,PA,57.18120805369128,NA,NA
17543,Lancaster County,PA,NA,11.801242236024844,NA
17751,Clinton County,PA,73.42281879194631,NA,NA
17847,Northumberland County,PA,NA,NA,52.86624203821656
17901,Schuylkill County,PA,NA,NA,23.248407643312103
18014,Northampton County,PA,NA,NA,80.2547770700637
18017,Northampton County,PA,30.604026845637584,NA,NA
18018,Lehigh County,PA,25.771812080536915,NA,NA
18042,Northampton County,PA,5.771812080536913,NA,NA
18104,Lehigh County,PA,NA,27.018633540372672,21.97452229299363
18109,Lehigh County,PA,29.53020134228188,NA,NA
18901,Bucks County,PA,48.59060402684563,NA,NA
18951,Bucks County,PA,20.93959731543624,NA,NA
18969,Montgomery County,PA,68.32214765100672,NA,NA
19013,Delaware County,PA,20.536912751677853,NA,NA
19027,Montgomery County,PA,45.77181208053691,NA,NA
19030,Bucks County,PA,NA,70.4968944099379,NA
19053,Bucks County,PA,NA,NA,44.5859872611465
19061,Delaware County,PA,32.21476510067114,NA,NA
19104,Philadelphia County,PA,12.348993288590604,NA,NA
19107,Philadelphia County,PA,75.97315436241611,NA,NA
19124,Philadelphia County,PA,22.684563758389263,NA,NA
19132,Philadelphia County,PA,NA,16.149068322981368,NA
19133,Philadelphia County,PA,16.644295302013422,NA,NA
19134,Philadelphia County,PA,NA,14.906832298136646,NA
19138,Philadelphia County,PA,NA,NA,26.43312101910828
19139,Philadelphia County,PA,4.1610738255033555,NA,NA
19141,Philadelphia County,PA,8.187919463087248,NA,NA
19143,Philadelphia County,PA,8.724832214765101,NA,NA
19144,Philadelphia County,PA,4.966442953020135,NA,NA
19147,Philadelphia County,PA,NA,27.95031055900621,NA
19149,Philadelphia County,PA,7.651006711409396,NA,NA
19150,Philadelphia County,PA,35.70469798657718,NA,NA
19317,Delaware County,PA,94.2281879194631,NA,NA
19320,Chester County,PA,10.46979865771812,NA,NA
19335,Chester County,PA,NA,14.596273291925465,NA
19401,Montgomery County,PA,9.664429530201343,NA,34.71337579617834
19606,Berks County,PA,NA,5.590062111801243,NA
02860,Providence County,RI,NA,NA,4.140127388535031
02910,Providence County,RI,NA,NA,65.92356687898089
02921,Providence County,RI,81.74496644295301,NA,NA
29045,Kershaw County,SC,74.09395973154362,NA,NA
29302,Spartanburg County,SC,NA,71.73913043478261,NA
29303,Spartanburg County,SC,NA,NA,52.547770700636946
29365,Spartanburg County,SC,64.29530201342281,NA,NA
29379,Union County,SC,36.375838926174495,NA,NA
29385,Spartanburg County,SC,86.57718120805369,NA,NA
29410,Berkeley County,SC,NA,72.67080745341616,NA
29412,Charleston County,SC,NA,NA,11.146496815286625
29414,Charleston County,SC,36.241610738255034,NA,NA
29461,Berkeley County,SC,NA,34.47204968944099,NA
29520,Chesterfield County,SC,NA,NA,81.21019108280255
29556,Williamsburg County,SC,66.44295302013423,NA,NA
29579,Horry County,SC,NA,34.78260869565217,NA
29588,Horry County,SC,40.939597315436245,11.180124223602485,NA
29607,Greenville County,SC,31.409395973154364,NA,NA
29611,Greenville County,SC,14.093959731543624,NA,NA
29617,Greenville County,SC,NA,36.64596273291926,NA
29642,Pickens County,SC,NA,NA,27.70700636942675
29676,Oconee County,SC,NA,76.3975155279503,NA
29708,York County,SC,NA,NA,78.02547770700637
29936,Jasper County,SC,NA,NA,83.7579617834395
57103,Minnehaha County,SD,NA,4.658385093167702,NA
57702,Pennington County,SD,62.14765100671141,NA,NA
37013,Davidson County,TN,11.275167785234899,NA,NA
37036,Dickson County,TN,93.95973154362416,NA,NA
37042,Montgomery County,TN,NA,38.50931677018634,NA
37064,Williamson County,TN,49.53020134228188,NA,NA
37087,Wilson County,TN,NA,24.84472049689441,NA
37130,Rutherford County,TN,NA,32.91925465838509,NA
37150,Macon County,TN,NA,98.4472049689441,NA
37188,Robertson County,TN,NA,77.63975155279503,NA
37206,Davidson County,TN,37.31543624161074,NA,NA
37210,Davidson County,TN,62.01342281879194,NA,NA
37217,Davidson County,TN,44.42953020134228,NA,NA
37228,Davidson County,TN,92.75167785234899,NA,NA
37303,McMinn County,TN,24.295302013422816,NA,NA
37311,Bradley County,TN,38.38926174496644,NA,NA
37334,Lincoln County,TN,NA,NA,43.63057324840764
37354,Monroe County,TN,71.81208053691275,NA,NA
37357,Warren County,TN,89.7986577181208,NA,NA
37377,Hamilton County,TN,NA,19.565217391304348,NA
37379,Hamilton County,TN,43.48993288590604,NA,NA
37410,Hamilton County,TN,97.18120805369126,NA,NA
37743,Greene County,TN,NA,NA,9.235668789808917
37771,Loudon County,TN,NA,55.27950310559007,NA
37774,Loudon County,TN,48.18791946308725,NA,NA
37818,Greene County,TN,81.0738255033557,NA,NA
37882,Blount County,TN,NA,92.85714285714286,NA
37921,Knox County,TN,32.48322147651007,NA,NA
38016,Shelby County,TN,NA,90.99378881987577,NA
38019,Tipton County,TN,59.73154362416108,NA,NA
38112,Shelby County,TN,NA,72.36024844720497,NA
38120,Shelby County,TN,NA,NA,71.656050955414
38122,Shelby County,TN,NA,68.94409937888199,NA
38138,Shelby County,TN,NA,NA,45.22292993630573
38344,Carroll County,TN,90.20134228187919,87.5776397515528,NA
38363,Decatur County,TN,NA,88.19875776397515,NA
38372,Hardin County,TN,NA,NA,39.171974522293
38464,Lawrence County,TN,35.16778523489933,NA,NA
38562,Jackson County,TN,86.44295302013423,NA,NA
75023,Collin County,TX,NA,NA,87.57961783439491
75034,Denton County,TX,41.61073825503356,NA,NA
75044,Dallas County,TX,NA,30.745341614906835,NA
75056,Denton County,TX,34.630872483221474,NA,NA
75070,Collin County,TX,17.04697986577181,NA,NA
75082,Collin County,TX,75.83892617449665,NA,NA
75104,Dallas County,TX,NA,31.987577639751553,NA
75115,Dallas County,TX,24.832214765100673,NA,NA
75140,Van Zandt County,TX,NA,NA,86.30573248407643
75143,Henderson County,TX,66.57718120805369,NA,NA
75189,Rockwall County,TX,47.24832214765101,NA,NA
75219,Dallas County,TX,NA,NA,42.99363057324841
75224,Dallas County,TX,NA,40.37267080745342,NA
75243,Dallas County,TX,15.436241610738255,NA,NA
75252,Collin County,TX,NA,NA,51.27388535031847
75457,Franklin County,TX,92.3489932885906,NA,NA
75601,Gregg County,TX,74.76510067114094,NA,NA
75702,Smith County,TX,NA,41.92546583850932,NA
75901,Angelina County,TX,NA,NA,37.898089171974526
75935,Shelby County,TX,NA,81.36645962732919,NA
76034,Tarrant County,TX,77.58389261744966,NA,NA
76049,Hood County,TX,42.281879194630875,NA,NA
76065,Ellis County,TX,43.22147651006711,NA,NA
76086,Parker County,TX,62.68456375838927,NA,NA
76117,Tarrant County,TX,38.38926174496644,NA,NA
76119,Tarrant County,TX,8.053691275167784,NA,NA
76120,Tarrant County,TX,54.22818791946309,NA,NA
76182,Tarrant County,TX,68.05369127516778,NA,NA
76207,Denton County,TX,80,NA,NA
76210,Denton County,TX,60.13422818791946,NA,NA
76227,Denton County,TX,69.26174496644295,NA,NA
76302,Wichita County,TX,NA,NA,91.71974522292994
76308,Wichita County,TX,NA,NA,77.38853503184714
76707,McLennan County,TX,72.88590604026845,NA,NA
76708,McLennan County,TX,77.18120805369128,NA,NA
76801,Brown County,TX,56.77852348993289,NA,NA
76901,Tom Green County,TX,NA,NA,66.56050955414013
77007,Harris County,TX,55.16778523489933,NA,NA
77018,Harris County,TX,NA,NA,70.70063694267516
77059,Harris County,TX,NA,NA,60.828025477707
77071,Harris County,TX,64.83221476510067,NA,NA
77074,Harris County,TX,77.85234899328859,NA,NA
77096,Harris County,TX,NA,NA,50.318471337579616
77339,Harris County,TX,60.671140939597315,NA,NA
77354,Montgomery County,TX,51.81208053691275,NA,NA
77380,Montgomery County,TX,NA,NA,94.5859872611465
77386,Montgomery County,TX,NA,48.75776397515528,NA
77493,Harris County,TX,NA,95.03105590062113,NA
77511,Brazoria County,TX,NA,NA,16.878980891719745
77520,Harris County,TX,45.90604026845638,NA,NA
77530,Harris County,TX,60.40268456375839,NA,NA
77545,Fort Bend County,TX,70.46979865771812,NA,NA
77546,Galveston County,TX,28.993288590604028,NA,NA
77581,Brazoria County,TX,33.02013422818792,NA,NA
77611,Orange County,TX,95.9731543624161,NA,NA
77662,Orange County,TX,NA,45.65217391304348,NA
77701,Jefferson County,TX,NA,66.45962732919256,NA
77807,Brazos County,TX,NA,68.32298136645963,NA
77901,Victoria County,TX,NA,NA,27.388535031847134
78065,Atascosa County,TX,NA,93.47826086956522,NA
78204,Bexar County,TX,NA,NA,95.22292993630573
78220,Bexar County,TX,64.29530201342281,NA,NA
78229,Bexar County,TX,NA,NA,91.0828025477707
78232,Bexar County,TX,74.49664429530202,43.7888198757764,NA
78240,Bexar County,TX,NA,59.93788819875776,NA
78242,Bexar County,TX,50.738255033557046,NA,NA
78245,Bexar County,TX,26.97986577181208,NA,NA
78251,Bexar County,TX,NA,NA,64.64968152866241
78412,Nueces County,TX,55.57046979865772,NA,NA
78624,Gillespie County,TX,NA,48.4472049689441,NA
78643,Llano County,TX,NA,NA,56.68789808917197
78722,Travis County,TX,98.52348993288591,NA,NA
78751,Travis County,TX,97.0469798657718,NA,NA
78757,Travis County,TX,91.14093959731544,NA,NA
78759,Travis County,TX,NA,NA,31.210191082802545
78840,Val Verde County,TX,65.50335570469798,NA,NA
79102,Potter County,TX,88.99328859060402,NA,NA
79118,Randall County,TX,NA,NA,92.67515923566879
79331,Dawson County,TX,72.75167785234899,NA,NA
79603,Taylor County,TX,NA,35.40372670807454,NA
79761,Ector County,TX,53.42281879194631,NA,NA
79763,Ector County,TX,39.19463087248322,NA,NA
79772,Reeves County,TX,78.65771812080537,NA,NA
79915,El Paso County,TX,NA,NA,15.286624203821656
79924,El Paso County,TX,NA,28.88198757763975,NA
84003,Utah County,UT,NA,NA,68.15286624203821
84041,Davis County,UT,NA,61.49068322981367,NA
84050,Morgan County,UT,96.91275167785236,NA,NA
84062,Utah County,UT,NA,NA,96.17834394904459
84066,Duchesne County,UT,NA,NA,96.4968152866242
84092,Salt Lake County,UT,NA,NA,76.11464968152866
84094,Salt Lake County,UT,68.32214765100672,NA,75.15923566878982
84098,Summit County,UT,87.24832214765101,NA,NA
84103,Salt Lake County,UT,87.51677852348993,NA,NA
84104,Salt Lake County,UT,50.06711409395973,NA,NA
84107,Salt Lake County,UT,43.355704697986575,NA,NA
84108,Salt Lake County,UT,85.63758389261746,NA,NA
84321,Cache County,UT,NA,NA,92.03821656050955
84405,Weber County,UT,NA,NA,61.146496815286625
84738,Washington County,UT,95.03355704697987,NA,85.6687898089172
05301,Windham County,VT,NA,31.67701863354037,NA
20121,Fairfax County,VA,69.12751677852349,NA,NA
20165,Loudoun County,VA,NA,NA,87.26114649681529
20170,Fairfax County,VA,67.6510067114094,NA,NA
20187,Fauquier County,VA,NA,NA,94.26751592356688
20191,Fairfax County,VA,NA,NA,84.71337579617835
22033,Fairfax County,VA,63.624161073825505,NA,NA
22079,Fairfax County,VA,44.56375838926174,NA,NA
22101,Fairfax County,VA,NA,NA,46.17834394904459
22180,Fairfax County,VA,82.01342281879195,NA,NA
22309,Fairfax County,VA,NA,NA,63.37579617834395
22560,Essex County,VA,66.97986577181209,NA,NA
22712,Fauquier County,VA,86.71140939597315,NA,NA
23093,Louisa County,VA,64.16107382550335,NA,NA
23188,James City County,VA,NA,NA,8.280254777070063
23231,Henrico County,VA,26.174496644295303,NA,NA
23320,Chesapeake city,VA,30.87248322147651,NA,NA
23503,Norfolk city,VA,50.33557046979866,NA,NA
23608,Newport News city,VA,20.671140939597315,NA,NA
23832,Chesterfield County,VA,NA,48.13664596273292,NA
23875,Prince George County,VA,NA,75.46583850931677,NA
24012,Roanoke city,VA,32.348993288590606,NA,NA
24073,Montgomery County,VA,NA,NA,45.54140127388535
24084,Pulaski County,VA,93.28859060402685,NA,NA
24179,Roanoke County,VA,52.348993288590606,NA,NA
24228,Dickenson County,VA,NA,92.54658385093167,NA
24263,Lee County,VA,82.28187919463087,NA,NA
24343,Carroll County,VA,73.55704697986577,NA,NA
24541,Danville city,VA,NA,NA,38.53503184713376
24557,Pittsylvania County,VA,85.77181208053692,NA,NA
24630,Tazewell County,VA,76.51006711409396,NA,NA
98008,King County,WA,NA,68.01242236024845,NA
98033,King County,WA,67.24832214765101,NA,NA
98045,King County,WA,82.5503355704698,NA,NA
98052,King County,WA,NA,19.875776397515526,NA
98058,King County,WA,NA,20.496894409937887,NA
98059,King County,WA,NA,30.434782608695656,NA
98115,King County,WA,40.80536912751678,NA,NA
98178,King County,WA,NA,68.94409937888199,NA
98198,King County,WA,44.16107382550336,NA,22.29299363057325
98337,Kitsap County,WA,92.88590604026845,NA,NA
98372,Pierce County,WA,NA,58.38509316770186,NA
98402,Pierce County,WA,NA,94.72049689440993,NA
98444,Pierce County,WA,39.86577181208054,NA,NA
98570,Lewis County,WA,100,NA,NA
98584,Mason County,WA,36.77852348993289,NA,NA
98632,Cowlitz County,WA,20.80536912751678,NA,NA
98801,Chelan County,WA,27.38255033557047,NA,NA
98901,Yakima County,WA,57.986577181208055,NA,NA
98902,Yakima County,WA,31.140939597315437,NA,NA
98926,Kittitas County,WA,NA,36.024844720496894,NA
99206,Spokane County,WA,48.85906040268456,NA,NA
20001,District of Columbia,DC,NA,16.459627329192546,NA
20002,District of Columbia,DC,28.053691275167786,NA,NA
20015,District of Columbia,DC,95.83892617449663,NA,NA
20017,District of Columbia,DC,55.97315436241611,NA,NA
24701,Mercer County,WV,32.61744966442953,NA,NA
24740,Mercer County,WV,NA,33.22981366459628,NA
25177,Kanawha County,WV,13.825503355704699,35.09316770186335,NA
25276,Roane County,WV,81.34228187919463,NA,NA
25313,Kanawha County,WV,NA,NA,69.7452229299363
25401,Berkeley County,WV,41.07382550335571,NA,NA
25601,Logan County,WV,73.15436241610739,NA,NA
26047,Hancock County,WV,NA,53.105590062111794,NA
26070,Brooke County,WV,NA,NA,31.528662420382165
26101,Wood County,WV,44.69798657718121,NA,NA
26385,Harrison County,WV,99.86577181208054,NA,NA
26582,Marion County,WV,NA,76.70807453416148,NA
26726,Mineral County,WV,NA,37.88819875776397,NA
53022,Washington County,WI,NA,49.378881987577635,NA
53073,Sheboygan County,WI,NA,76.08695652173914,NA
53094,Jefferson County,WI,NA,31.05590062111801,NA
53103,Waukesha County,WI,96.64429530201343,NA,NA
53144,Kenosha County,WI,17.986577181208055,NA,NA
53185,Racine County,WI,61.74496644295302,NA,NA
53204,Milwaukee County,WI,6.845637583892618,NA,NA
53205,Milwaukee County,WI,2.684563758389262,NA,NA
53208,Milwaukee County,WI,12.61744966442953,NA,NA
53210,Milwaukee County,WI,53.691275167785236,NA,NA
53212,Milwaukee County,WI,15.033557046979865,NA,NA
53213,Milwaukee County,WI,78.38926174496645,NA,NA
53214,Milwaukee County,WI,13.154362416107382,NA,NA
53215,Milwaukee County,WI,4.563758389261745,4.968944099378882,NA
53216,Milwaukee County,WI,NA,NA,42.038216560509554
53227,Milwaukee County,WI,NA,NA,17.197452229299362
53233,Milwaukee County,WI,88.59060402684564,NA,NA
53405,Racine County,WI,6.174496644295302,NA,13.375796178343949
53716,Dane County,WI,NA,NA,88.53503184713377
53719,Dane County,WI,58.38926174496645,NA,NA
54028,St. Croix County,WI,99.46308724832214,NA,NA
54157,Marinette County,WI,80.40268456375838,NA,NA
54220,Manitowoc County,WI,NA,2.484472049689441,0.3184713375796179
54455,Marathon County,WI,73.02013422818791,NA,NA
54475,Wood County,WI,NA,99.68944099378882,NA
54495,Wood County,WI,NA,94.40993788819875,NA
54646,Juneau County,WI,94.49664429530202,NA,NA
54729,Chippewa County,WI,NA,57.453416149068325,NA
54730,Dunn County,WI,NA,NA,86.94267515923568
54829,Barron County,WI,95.30201342281879,NA,NA
54868,Barron County,WI,NA,79.8136645962733,NA
54902,Winnebago County,WI,56.10738255033557,NA,NA
82414,Park County,WY,NA,41.61490683229814,NA
