ZipCode,county,state,Adult,Retirement,Geriatric
35007,Shelby County,AL,NA,41.78674351585015,NA
35045,Chilton County,AL,NA,76.0806916426513,NA
35072,Coosa County,AL,NA,82.42074927953891,NA
35116,Jefferson County,AL,94.90445859872611,NA,NA
35211,Jefferson County,AL,NA,23.919308357348704,NA
35462,Greene County,AL,83.43949044585987,NA,NA
35476,Tuscaloosa County,AL,NA,86.74351585014409,NA
35582,Franklin County,AL,NA,NA,98.56733524355302
35634,Lauderdale County,AL,85.6687898089172,NA,NA
35805,Madison County,AL,NA,NA,77.93696275071633
36323,Coffee County,AL,70.70063694267516,NA,NA
36477,Geneva County,AL,98.40764331210191,NA,NA
36535,Baldwin County,AL,43.31210191082803,NA,NA
36551,Baldwin County,AL,NA,89.9135446685879,NA
36619,Mobile County,AL,NA,75.50432276657061,NA
36726,Wilcox County,AL,NA,NA,98.8538681948424
36830,Lee County,AL,NA,NA,89.39828080229226
99501,Anchorage Municipality,AK,21.337579617834397,NA,NA
99508,Anchorage Municipality,AK,18.152866242038215,NA,NA
85014,Maricopa County,AZ,NA,62.824207492795395,NA
85028,Maricopa County,AZ,NA,67.14697406340058,NA
85029,Maricopa County,AZ,NA,NA,50.1432664756447
85032,Maricopa County,AZ,NA,NA,50.429799426934096
85040,Maricopa County,AZ,50.318471337579616,NA,NA
85122,Pinal County,AZ,NA,14.121037463976945,NA
85132,Pinal County,AZ,NA,72.04610951008645,NA
85209,Maricopa County,AZ,NA,NA,19.770773638968482
85257,Maricopa County,AZ,NA,70.60518731988472,43.26647564469914
85373,Maricopa County,AZ,NA,NA,18.05157593123209
85375,Maricopa County,AZ,NA,NA,30.659025787965614
85648,Santa Cruz County,AZ,52.22929936305732,NA,NA
85706,Pima County,AZ,NA,42.363112391930834,NA
85714,Pima County,AZ,NA,64.26512968299711,NA
85741,Pima County,AZ,33.75796178343949,NA,NA
85750,Pima County,AZ,NA,NA,41.260744985673355
85901,Navajo County,AZ,51.27388535031847,NA,NA
86305,Yavapai County,AZ,NA,39.19308357348703,NA
86314,Yavapai County,AZ,NA,22.19020172910663,NA
86324,Yavapai County,AZ,NA,93.0835734870317,NA
86403,Mohave County,AZ,NA,61.67146974063401,NA
71653,Chicot County,AR,NA,94.81268011527378,NA
72032,Faulkner County,AR,NA,48.126801152737755,NA
72034,Faulkner County,AR,NA,NA,16.332378223495702
72117,Pulaski County,AR,NA,NA,84.2406876790831
72450,Greene County,AR,20.063694267515924,NA,NA
90006,Los Angeles County,CA,63.05732484076433,NA,NA
90018,Los Angeles County,CA,NA,34.293948126801155,NA
90027,Los Angeles County,CA,NA,62.53602305475504,NA
90044,Los Angeles County,CA,8.598726114649681,NA,NA
90057,Los Angeles County,CA,NA,23.054755043227665,NA
90069,Los Angeles County,CA,55.4140127388535,NA,NA
90221,Los Angeles County,CA,11.146496815286625,NA,NA
90275,Los Angeles County,CA,NA,NA,10.028653295128938
90404,Los Angeles County,CA,NA,NA,56.73352435530086
90603,Los Angeles County,CA,NA,NA,47.277936962750715
90606,Los Angeles County,CA,52.547770700636946,NA,NA
90631,Orange County,CA,NA,16.42651296829971,NA
90660,Los Angeles County,CA,29.29936305732484,NA,NA
90703,Los Angeles County,CA,NA,36.59942363112392,NA
90804,Los Angeles County,CA,44.5859872611465,NA,NA
91316,Los Angeles County,CA,NA,NA,26.36103151862464
91384,Los Angeles County,CA,71.656050955414,NA,NA
91401,Los Angeles County,CA,NA,NA,63.89684813753582
91706,Los Angeles County,CA,NA,NA,26.36103151862464
91737,San Bernardino County,CA,75.47770700636943,NA,NA
91754,Los Angeles County,CA,NA,NA,24.641833810888254
91773,Los Angeles County,CA,NA,NA,48.99713467048711
91932,San Diego County,CA,73.88535031847134,NA,NA
92010,San Diego County,CA,NA,93.65994236311239,NA
92014,San Diego County,CA,NA,NA,89.68481375358166
92037,San Diego County,CA,NA,55.907780979827095,NA
92083,San Diego County,CA,84.07643312101911,NA,NA
92105,San Diego County,CA,NA,NA,55.30085959885387
92113,San Diego County,CA,23.248407643312103,NA,NA
92120,San Diego County,CA,NA,NA,52.43553008595988
92154,San Diego County,CA,65.60509554140127,NA,NA
92308,San Bernardino County,CA,NA,NA,44.126074498567334
92503,Riverside County,CA,19.745222929936308,NA,NA
92562,Riverside County,CA,NA,36.31123919308357,NA
92604,Orange County,CA,NA,68.01152737752162,NA
92620,Orange County,CA,70.06369426751591,NA,NA
92630,Orange County,CA,35.35031847133758,NA,NA
92637,Orange County,CA,NA,NA,44.985673352435526
92647,Orange County,CA,NA,NA,15.759312320916905
92691,Orange County,CA,NA,NA,47.85100286532951
92707,Orange County,CA,NA,NA,69.62750716332378
92886,Orange County,CA,NA,17.29106628242075,NA
93003,Ventura County,CA,NA,NA,15.472779369627506
93010,Ventura County,CA,35.6687898089172,NA,NA
93060,Ventura County,CA,NA,80.11527377521614,NA
93230,Kings County,CA,48.72611464968153,54.7550432276657,NA
93277,Tulare County,CA,NA,NA,32.37822349570201
93280,Kern County,CA,NA,87.60806916426513,NA
93308,Kern County,CA,NA,32.564841498559076,NA
93313,Kern County,CA,NA,59.36599423631124,NA
93420,San Luis Obispo County,CA,NA,51.008645533141205,NA
93446,San Luis Obispo County,CA,27.388535031847134,NA,NA
93451,San Luis Obispo County,CA,NA,99.71181556195965,NA
93458,Santa Barbara County,CA,NA,32.27665706051873,NA
93637,Madera County,CA,32.48407643312102,NA,NA
93657,Fresno County,CA,79.61783439490446,NA,NA
93728,Fresno County,CA,72.29299363057325,NA,NA
93955,Monterey County,CA,NA,NA,33.5243553008596
94010,San Mateo County,CA,NA,NA,11.174785100286533
94040,Santa Clara County,CA,71.97452229299363,NA,NA
94061,San Mateo County,CA,NA,NA,17.765042979942695
94066,San Mateo County,CA,NA,46.39769452449568,NA
94080,San Mateo County,CA,NA,NA,2.5787965616045847
94110,San Francisco County,CA,NA,NA,25.787965616045845
94117,San Francisco County,CA,37.57961783439491,NA,NA
94510,Solano County,CA,NA,67.72334293948127,NA
94521,Contra Costa County,CA,56.68789808917197,44.09221902017291,24.355300859598856
94530,Contra Costa County,CA,NA,NA,46.13180515759313
94558,Napa County,CA,31.528662420382165,NA,NA
94560,Alameda County,CA,NA,NA,43.83954154727794
94577,Alameda County,CA,NA,38.04034582132565,NA
94578,Alameda County,CA,NA,60.80691642651297,48.71060171919771
94587,Alameda County,CA,NA,21.613832853025936,NA
94920,Marin County,CA,NA,NA,48.42406876790831
94945,Marin County,CA,92.35668789808918,NA,NA
95006,Santa Cruz County,CA,NA,97.11815561959655,NA
95125,Santa Clara County,CA,NA,NA,68.19484240687679
95242,San Joaquin County,CA,NA,59.94236311239193,NA
95355,Stanislaus County,CA,NA,NA,28.08022922636103
95358,Stanislaus County,CA,31.210191082802545,NA,NA
95407,Sonoma County,CA,82.80254777070064,NA,NA
95409,Sonoma County,CA,82.16560509554141,NA,NA
95492,Sonoma County,CA,NA,65.12968299711815,NA
95661,Placer County,CA,NA,61.09510086455331,NA
95667,El Dorado County,CA,32.802547770700635,NA,1.4326647564469914
95757,Sacramento County,CA,NA,63.68876080691642,NA
95822,Sacramento County,CA,NA,NA,23.20916905444126
95841,Sacramento County,CA,NA,NA,80.51575931232091
95966,Butte County,CA,NA,NA,27.793696275071632
96055,Tehama County,CA,NA,93.37175792507205,NA
96137,Lassen County,CA,NA,90.20172910662824,NA
80012,Arapahoe County,CO,NA,NA,18.911174785100286
80017,Arapahoe County,CO,NA,NA,65.0429799426934
80023,Broomfield County,CO,NA,NA,81.9484240687679
80123,Jefferson County,CO,NA,57.636887608069166,36.38968481375358
80132,El Paso County,CO,NA,66.28242074927954,NA
80220,Denver County,CO,NA,70.02881844380403,NA
80246,Denver County,CO,85.98726114649682,NA,NA
80247,Arapahoe County,CO,NA,NA,38.108882521489974
80525,Larimer County,CO,14.968152866242038,NA,NA
80642,Weld County,CO,NA,98.84726224783861,NA
80751,Logan County,CO,NA,NA,73.92550143266476
80903,El Paso County,CO,39.490445859872615,NA,NA
81001,Pueblo County,CO,21.019108280254777,NA,NA
81003,Pueblo County,CO,36.30573248407643,NA,NA
81007,Pueblo County,CO,NA,NA,53.86819484240688
81089,Huerfano County,CO,NA,NA,85.95988538681948
81301,La Plata County,CO,NA,45.821325648414984,NA
81403,Montrose County,CO,75.79617834394905,NA,NA
81501,Mesa County,CO,NA,66.57060518731988,NA
81639,Routt County,CO,NA,100,NA
06067,Hartford County,CT,NA,69.7406340057637,NA
06098,Litchfield County,CT,NA,50.14409221902017,NA
06239,Windham County,CT,37.261146496815286,NA,NA
06249,New London County,CT,NA,91.64265129682997,NA
06416,Middlesex County,CT,67.51592356687898,NA,NA
06419,Middlesex County,CT,NA,91.93083573487031,NA
06457,Middlesex County,CT,NA,NA,9.169054441260744
06468,Fairfield County,CT,93.31210191082803,NA,NA
06488,New Haven County,CT,NA,NA,12.320916905444127
06516,New Haven County,CT,NA,4.610951008645533,NA
06706,New Haven County,CT,58.59872611464968,NA,NA
06897,Fairfield County,CT,NA,NA,58.45272206303726
19702,New Castle County,DE,14.331210191082802,17.579250720461097,NA
19713,New Castle County,DE,NA,NA,37.249283667621775
19802,New Castle County,DE,62.101910828025474,NA,NA
19804,New Castle County,DE,NA,50.43227665706051,NA
19808,New Castle County,DE,21.97452229299363,NA,NA
32091,Bradford County,FL,NA,45.53314121037464,NA
32127,Volusia County,FL,NA,43.22766570605187,NA
32210,Duval County,FL,6.050955414012739,NA,NA
32211,Duval County,FL,20.70063694267516,NA,NA
32221,Duval County,FL,NA,40.05763688760807,NA
32246,Duval County,FL,45.54140127388535,NA,NA
32578,Okaloosa County,FL,NA,NA,20.916905444126073
32667,Alachua County,FL,NA,99.42363112391931,NA
32724,Volusia County,FL,NA,NA,24.92836676217765
32732,Seminole County,FL,99.36305732484077,NA,NA
32828,Orange County,FL,39.80891719745223,NA,NA
32952,Brevard County,FL,NA,NA,19.197707736389685
32976,Brevard County,FL,NA,NA,20.057306590257877
33023,Broward County,FL,19.426751592356688,NA,NA
33026,Broward County,FL,NA,64.26512968299711,NA
33030,Miami-Dade County,FL,NA,NA,91.97707736389685
33040,Monroe County,FL,NA,NA,67.90830945558739
33063,Broward County,FL,NA,30.835734870317005,NA
33145,Miami-Dade County,FL,NA,NA,32.09169054441261
33157,Miami-Dade County,FL,NA,NA,22.636103151862464
33166,Miami-Dade County,FL,NA,NA,83.66762177650429
33169,Miami-Dade County,FL,NA,52.73775216138329,NA
33176,Miami-Dade County,FL,NA,NA,70.20057306590259
33417,Palm Beach County,FL,57.00636942675159,NA,NA
33431,Palm Beach County,FL,82.48407643312102,61.38328530259366,NA
33477,Palm Beach County,FL,NA,NA,41.833810888252145
33483,Palm Beach County,FL,87.89808917197452,NA,NA
33525,Pasco County,FL,NA,NA,76.79083094555874
33549,Hillsborough County,FL,NA,NA,66.4756446991404
33566,Hillsborough County,FL,57.961783439490446,NA,NA
33573,Hillsborough County,FL,NA,NA,2.292263610315186
33705,Pinellas County,FL,NA,61.95965417867435,NA
33707,Pinellas County,FL,NA,NA,25.501432664756447
33709,Pinellas County,FL,NA,NA,51.28939828080229
33774,Pinellas County,FL,NA,NA,60.17191977077364
33844,Polk County,FL,NA,NA,39.541547277936964
33952,Charlotte County,FL,24.522292993630572,NA,NA
34135,Lee County,FL,NA,15.273775216138327,NA
34145,Collier County,FL,NA,NA,29.512893982808023
34234,Sarasota County,FL,41.082802547770704,NA,NA
34235,Sarasota County,FL,NA,63.112391930835734,NA
34238,Sarasota County,FL,NA,NA,34.95702005730659
34241,Sarasota County,FL,NA,NA,49.8567335243553
34287,Sarasota County,FL,51.59235668789809,NA,NA
34293,Sarasota County,FL,47.452229299363054,NA,NA
34428,Citrus County,FL,NA,NA,91.40401146131805
34476,Marion County,FL,NA,NA,29.22636103151863
34606,Hernando County,FL,NA,NA,35.24355300859599
34609,Hernando County,FL,NA,NA,22.063037249283667
34748,Lake County,FL,20.382165605095544,NA,NA
34759,Polk County,FL,NA,48.414985590778095,NA
34972,Okeechobee County,FL,NA,NA,74.21203438395415
34994,Martin County,FL,NA,52.1613832853026,NA
30008,Cobb County,GA,61.78343949044586,NA,NA
30022,Fulton County,GA,NA,NA,53.29512893982808
30076,Fulton County,GA,NA,79.82708933717579,NA
30078,Gwinnett County,GA,NA,NA,68.48137535816619
30102,Cherokee County,GA,46.496815286624205,NA,NA
30125,Polk County,GA,NA,NA,40.40114613180516
30135,Douglas County,GA,NA,NA,44.126074498567334
30144,Cobb County,GA,NA,53.31412103746398,NA
30161,Floyd County,GA,NA,NA,37.53581661891118
30311,Fulton County,GA,NA,20.7492795389049,NA
30354,Fulton County,GA,62.42038216560509,NA,NA
30360,DeKalb County,GA,92.67515923566879,NA,NA
30501,Hall County,GA,62.738853503184714,NA,NA
30504,Hall County,GA,93.63057324840764,NA,NA
30512,Union County,GA,NA,52.44956772334294,NA
30519,Gwinnett County,GA,NA,35.158501440922194,NA
30528,White County,GA,NA,55.04322766570605,NA
30531,Habersham County,GA,NA,NA,78.79656160458453
30566,Hall County,GA,89.171974522293,NA,NA
30736,Catoosa County,GA,11.464968152866243,NA,NA
30906,Richmond County,GA,NA,NA,16.9054441260745
31023,Dodge County,GA,71.01910828025477,NA,NA
31313,Liberty County,GA,NA,78.38616714697406,NA
31632,Lowndes County,GA,78.98089171974523,NA,NA
31642,Atkinson County,GA,99.68152866242038,NA,NA
31904,Muscogee County,GA,NA,18.155619596541786,NA
96744,Honolulu County,HI,NA,4.322766570605188,NA
96746,Kauai County,HI,NA,NA,92.55014326647564
96782,Honolulu County,HI,38.853503184713375,NA,NA
96790,Maui County,HI,96.4968152866242,NA,NA
96813,Honolulu County,HI,NA,39.481268011527376,NA
96816,Honolulu County,HI,NA,NA,6.59025787965616
96825,Honolulu County,HI,NA,NA,5.444126074498568
83263,Franklin County,ID,NA,88.76080691642652,NA
83340,Blaine County,ID,97.77070063694268,NA,NA
83406,Bonneville County,ID,NA,78.09798270893373,NA
83501,Nez Perce County,ID,NA,NA,7.163323782234957
83703,Ada County,ID,NA,NA,85.38681948424069
83706,Ada County,ID,NA,NA,55.587392550143264
60005,Cook County,IL,NA,NA,31.23209169054441
60010,Lake County,IL,40.76433121019109,NA,NA
60014,McHenry County,IL,23.88535031847134,NA,NA
60016,Cook County,IL,NA,68.58789625360231,NA
60085,Lake County,IL,NA,33.429394812680115,NA
60099,Lake County,IL,NA,44.95677233429395,NA
60124,Kane County,IL,NA,30.25936599423631,NA
60126,DuPage County,IL,NA,4.034582132564841,NA
60133,Cook County,IL,NA,NA,79.36962750716332
60201,Cook County,IL,NA,63.40057636887608,NA
60435,Will County,IL,NA,NA,55.014326647564474
60452,Cook County,IL,NA,46.97406340057637,NA
60453,Cook County,IL,NA,10.37463976945245,NA
60544,Will County,IL,NA,24.495677233429394,NA
60585,Will County,IL,56.05095541401274,NA,NA
60618,Cook County,IL,NA,NA,19.484240687679083
60637,Cook County,IL,NA,NA,24.068767908309454
60638,Cook County,IL,10.509554140127388,NA,5.730659025787966
60639,Cook County,IL,NA,9.798270893371757,NA
60645,Cook County,IL,38.21656050955414,NA,NA
60646,Cook County,IL,NA,NA,28.36676217765043
60659,Cook County,IL,47.13375796178344,NA,NA
61008,Boone County,IL,NA,19.30835734870317,NA
61114,Winnebago County,IL,78.02547770700637,NA,NA
61270,Whiteside County,IL,NA,NA,67.0487106017192
61571,Tazewell County,IL,NA,57.34870317002881,NA
61822,Champaign County,IL,NA,NA,21.20343839541547
62221,St. Clair County,IL,NA,NA,68.48137535816619
62305,Adams County,IL,NA,65.70605187319885,NA
62650,Morgan County,IL,53.503184713375795,NA,NA
62704,Sangamon County,IL,NA,31.70028818443804,NA
62801,Marion County,IL,NA,NA,35.816618911174785
46013,Madison County,IN,NA,NA,33.2378223495702
46017,Madison County,IN,NA,80.97982708933718,NA
46120,Putnam County,IN,91.0828025477707,NA,NA
46123,Hendricks County,IN,48.089171974522294,NA,NA
46131,Johnson County,IN,NA,28.530259365994237,NA
46143,Johnson County,IN,NA,NA,6.303724928366762
46158,Morgan County,IN,NA,NA,22.922636103151863
46202,Marion County,IN,60.509554140127385,NA,NA
46217,Marion County,IN,NA,NA,42.12034383954155
46237,Marion County,IN,NA,11.815561959654179,NA
46323,Lake County,IN,NA,NA,36.67621776504298
46356,Lake County,IN,31.84713375796178,38.328530259366,NA
46383,Porter County,IN,NA,7.204610951008646,NA
46516,Elkhart County,IN,NA,43.804034582132566,NA
46703,Steuben County,IN,NA,42.07492795389049,NA
46746,LaGrange County,IN,NA,97.69452449567724,NA
46901,Howard County,IN,NA,77.52161383285303,NA
46947,Cass County,IN,NA,68.87608069164266,NA
46952,Grant County,IN,49.36305732484077,NA,NA
46996,Pulaski County,IN,74.52229299363057,NA,NA
47032,Dearborn County,IN,100,NA,NA
47201,Bartholomew County,IN,12.101910828025478,NA,NA
47374,Wayne County,IN,NA,NA,1.146131805157593
47421,Lawrence County,IN,NA,NA,36.96275071633238
50263,Dallas County,IA,NA,NA,94.55587392550143
50315,Polk County,IA,NA,NA,45.845272206303726
50595,Hamilton County,IA,NA,NA,76.21776504297995
50644,Buchanan County,IA,NA,NA,82.8080229226361
51510,Pottawattamie County,IA,90.76433121019109,NA,NA
52241,Johnson County,IA,NA,NA,87.96561604584528
52245,Johnson County,IA,NA,NA,53.86819484240688
52627,Lee County,IA,NA,48.70317002881844,NA
52732,Clinton County,IA,NA,28.24207492795389,NA
66030,Johnson County,KS,NA,NA,92.55014326647564
66046,Douglas County,KS,81.52866242038218,NA,NA
66053,Miami County,KS,NA,95.38904899135446,NA
66215,Johnson County,KS,NA,NA,40.97421203438395
66547,Pottawatomie County,KS,86.94267515923568,NA,NA
67114,Harvey County,KS,NA,NA,61.891117478510026
67460,McPherson County,KS,NA,NA,71.91977077363897
40008,Nelson County,KY,94.5859872611465,NA,NA
40031,Oldham County,KY,33.12101910828025,NA,NA
40160,Hardin County,KY,NA,59.94236311239193,NA
40212,Jefferson County,KY,25.477707006369428,NA,NA
40216,Jefferson County,KY,9.872611464968154,NA,NA
40217,Jefferson County,KY,NA,NA,86.24641833810888
40243,Jefferson County,KY,NA,NA,56.16045845272206
40324,Scott County,KY,12.738853503184714,NA,NA
40353,Montgomery County,KY,NA,82.70893371757924,NA
40383,Woodford County,KY,68.78980891719745,NA,NA
40962,Clay County,KY,18.471337579617835,NA,NA
40965,Bell County,KY,27.070063694267514,NA,NA
41011,Kenton County,KY,NA,27.089337175792505,NA
41031,Harrison County,KY,NA,43.51585014409222,NA
41042,Boone County,KY,NA,NA,4.011461318051576
41071,Campbell County,KY,NA,NA,57.879656160458445
41311,Lee County,KY,NA,NA,99.14040114613181
41465,Magoffin County,KY,57.64331210191082,NA,NA
41553,Pike County,KY,97.13375796178345,NA,NA
42141,Barren County,KY,NA,10.662824207492795,NA
42240,Christian County,KY,7.961783439490445,NA,NA
42320,Ohio County,KY,50.63694267515923,NA,52.72206303724928
42408,Hopkins County,KY,NA,NA,93.40974212034384
42635,McCreary County,KY,NA,NA,100
70084,St. John the Baptist Parish,LA,63.69426751592356,NA,NA
70125,Orleans Parish,LA,NA,77.23342939481267,NA
70427,Washington Parish,LA,NA,22.478386167146976,NA
70437,St. Tammany Parish,LA,NA,88.18443804034582,NA
70518,Lafayette Parish,LA,NA,NA,80.51575931232091
70570,St. Landry Parish,LA,NA,NA,17.478510028653297
70714,East Baton Rouge Parish,LA,NA,55.61959654178674,NA
70775,West Feliciana Parish,LA,65.92356687898089,NA,NA
70805,East Baton Rouge Parish,LA,3.5031847133757963,NA,NA
70817,East Baton Rouge Parish,LA,NA,15.85014409221902,NA
71055,Webster Parish,LA,94.26751592356688,NA,NA
04102,Cumberland County,ME,NA,NA,65.61604584527221
04605,Hancock County,ME,NA,23.34293948126801,NA
04619,Washington County,ME,NA,NA,83.3810888252149
20602,Charles County,MD,NA,NA,88.53868194842407
20646,Charles County,MD,NA,84.14985590778097,NA
20721,Prince George's County,MD,NA,76.36887608069163,NA
20854,Montgomery County,MD,NA,37.752161383285305,NA
21040,Harford County,MD,NA,NA,93.69627507163324
21045,Howard County,MD,NA,NA,65.32951289398281
21136,Baltimore County,MD,NA,53.89048991354467,NA
21157,Carroll County,MD,NA,NA,21.48997134670487
21158,Carroll County,MD,79.93630573248409,NA,NA
21215,Baltimore city,MD,NA,NA,9.455587392550143
21227,Baltimore County,MD,NA,NA,31.51862464183381
21921,Cecil County,MD,NA,7.780979827089338,NA
01002,Hampshire County,MA,NA,NA,59.598853868194844
01201,Berkshire County,MA,NA,NA,0.8595988538681949
01331,Worcester County,MA,7.006369426751593,NA,NA
01527,Worcester County,MA,54.14012738853503,NA,NA
01532,Worcester County,MA,47.77070063694268,NA,NA
01543,Worcester County,MA,69.7452229299363,NA,NA
01604,Worcester County,MA,NA,NA,2.005730659025788
01605,Worcester County,MA,NA,83.28530259365994,NA
01606,Worcester County,MA,17.51592356687898,NA,NA
01607,Worcester County,MA,97.45222929936305,NA,NA
01721,Middlesex County,MA,34.71337579617834,NA,NA
01730,Middlesex County,MA,NA,NA,16.6189111747851
01773,Middlesex County,MA,NA,NA,96.56160458452722
01776,Middlesex County,MA,42.675159235668794,NA,NA
01826,Middlesex County,MA,NA,47.262247838616716,NA
01830,Essex County,MA,1.5923566878980893,NA,NA
01841,Essex County,MA,NA,0.2881844380403458,NA
01862,Middlesex County,MA,NA,51.873198847262245,NA
01876,Middlesex County,MA,NA,NA,8.595988538681947
01906,Essex County,MA,NA,NA,74.78510028653295
01930,Essex County,MA,4.140127388535031,NA,NA
02021,Norfolk County,MA,NA,34.00576368876081,NA
02062,Norfolk County,MA,NA,12.680115273775217,54.72779369627507
02124,Suffolk County,MA,NA,0,NA
02129,Suffolk County,MA,4.45859872611465,NA,NA
02131,Suffolk County,MA,NA,NA,2.865329512893983
02141,Middlesex County,MA,NA,NA,46.70487106017192
02149,Middlesex County,MA,NA,1.440922190201729,NA
02169,Norfolk County,MA,NA,0.8645533141210375,NA
02171,Norfolk County,MA,NA,NA,42.97994269340974
02343,Norfolk County,MA,NA,NA,72.77936962750717
02346,Plymouth County,MA,NA,13.256484149855908,NA
02364,Plymouth County,MA,50.955414012738856,NA,NA
02421,Middlesex County,MA,NA,41.210374639769455,NA
02451,Middlesex County,MA,24.840764331210192,NA,NA
02536,Barnstable County,MA,NA,NA,14.040114613180515
02540,Barnstable County,MA,NA,NA,75.07163323782235
02571,Plymouth County,MA,NA,42.363112391930834,NA
02721,Bristol County,MA,0.6369426751592357,NA,NA
02740,Bristol County,MA,NA,5.763688760806916,NA
02779,Bristol County,MA,78.6624203821656,NA,NA
48036,Macomb County,MI,NA,NA,17.191977077363894
48067,Oakland County,MI,38.53503184713376,NA,NA
48124,Wayne County,MI,NA,NA,39.25501432664756
48162,Monroe County,MI,NA,NA,14.899713467048711
48173,Wayne County,MI,57.00636942675159,NA,NA
48197,Washtenaw County,MI,13.694267515923567,NA,NA
48203,Wayne County,MI,NA,21.32564841498559,NA
48204,Wayne County,MI,10.828025477707007,NA,NA
48230,Wayne County,MI,NA,40.63400576368876,NA
48307,Oakland County,MI,NA,NA,14.326647564469914
48310,Macomb County,MI,NA,13.544668587896252,NA
48312,Macomb County,MI,NA,NA,8.882521489971348
48313,Macomb County,MI,26.751592356687897,NA,NA
48328,Oakland County,MI,NA,31.12391930835735,NA
48335,Oakland County,MI,NA,NA,36.10315186246418
48357,Oakland County,MI,NA,90.77809798270894,NA
48362,Oakland County,MI,69.42675159235668,NA,NA
48444,Lapeer County,MI,NA,80.403458213256485,NA
48601,Saginaw County,MI,2.547770700636943,NA,NA
48708,Bay County,MI,NA,9.510086455331413,NA
48817,Shiawassee County,MI,86.30573248407643,NA,NA
48823,Ingham County,MI,NA,27.953890489913547,NA
48843,Livingston County,MI,12.420382165605096,6.340057636887608,NA
48850,Montcalm County,MI,NA,87.31988472622479,NA
48881,Ionia County,MI,NA,92.21902017291066,NA
49001,Kalamazoo County,MI,NA,NA,64.75644699140402
49009,Kalamazoo County,MI,NA,NA,48.13753581661891
49013,Van Buren County,MI,NA,98.27089337175792,NA
49036,Branch County,MI,NA,NA,73.06590257879655
49046,Barry County,MI,86.62420382165605,NA,NA
49058,Barry County,MI,NA,42.93948126801153,NA
49090,Van Buren County,MI,56.36942675159236,NA,NA
49099,St. Joseph County,MI,88.85350318471338,NA,NA
49242,Hillsdale County,MI,NA,NA,50.71633237822349
49337,Newaygo County,MI,NA,64.84149855907782,NA
49345,Kent County,MI,NA,NA,81.66189111747852
49426,Ottawa County,MI,NA,41.4985590778098,NA
49690,Grand Traverse County,MI,93.94904458598727,NA,NA
49738,Crawford County,MI,NA,74.35158501440922,NA
49770,Emmet County,MI,NA,NA,31.51862464183381
49783,Chippewa County,MI,NA,NA,42.40687679083094
49829,Delta County,MI,NA,29.68299711815562,NA
49854,Schoolcraft County,MI,NA,NA,67.3352435530086
49913,Houghton County,MI,80.57324840764332,NA,NA
49935,Iron County,MI,NA,71.18155619596543,NA
55313,Wright County,MN,NA,46.10951008645533,NA
55376,Wright County,MN,83.7579617834395,NA,NA
55427,Hennepin County,MN,NA,66.85878962536023,NA
55428,Hennepin County,MN,NA,35.73487031700288,NA
55443,Hennepin County,MN,NA,NA,63.03724928366762
55804,St. Louis County,MN,66.87898089171973,NA,NA
55901,Olmsted County,MN,NA,NA,13.18051575931232
55904,Olmsted County,MN,37.898089171974526,NA,NA
55944,Dodge County,MN,90.44585987261146,NA,NA
56273,Kandiyohi County,MN,NA,NA,89.11174785100286
56304,Sherburne County,MN,81.84713375796179,NA,NA
56334,Pope County,MN,NA,80.69164265129683,NA
56474,Cass County,MN,NA,95.96541786743515,NA
56649,Koochiching County,MN,NA,NA,87.39255014326648
38668,Tate County,MS,69.10828025477707,86.45533141210375,NA
38834,Alcorn County,MS,19.10828025477707,NA,NA
38851,Chickasaw County,MS,NA,NA,95.41547277936962
38866,Lee County,MS,NA,NA,75.93123209169055
39209,Hinds County,MS,22.29299363057325,NA,NA
39301,Lauderdale County,MS,18.789808917197455,NA,NA
39532,Harrison County,MS,43.63057324840764,NA,NA
39601,Lincoln County,MS,45.85987261146497,NA,NA
39666,Pike County,MS,NA,87.03170028818444,NA
39730,Monroe County,MS,72.92993630573248,NA,NA
63010,Jefferson County,MO,NA,NA,20.630372492836678
63043,St. Louis County,MO,52.86624203821656,NA,NA
63303,St. Charles County,MO,NA,NA,8.30945558739255
63552,Macon County,MO,NA,NA,62.46418338108882
63645,Madison County,MO,73.56687898089172,NA,NA
63830,Pemiscot County,MO,NA,NA,94.26934097421203
63901,Butler County,MO,13.05732484076433,NA,NA
64029,Jackson County,MO,NA,81.55619596541787,NA
64050,Jackson County,MO,14.012738853503185,16.714697406340058,NA
64055,Jackson County,MO,NA,9.221902017291066,NA
64068,Clay County,MO,NA,8.645533141210375,NA
64078,Cass County,MO,NA,NA,95.98853868194843
64081,Jackson County,MO,45.22292993630573,NA,NA
64113,Jackson County,MO,NA,69.45244956772333,NA
64119,Clay County,MO,NA,NA,38.39541547277937
64671,Caldwell County,MO,99.04458598726114,NA,NA
65301,Pettis County,MO,5.7324840764331215,NA,NA
65453,Crawford County,MO,NA,NA,81.37535816618912
65619,Greene County,MO,85.35031847133759,NA,NA
65625,Barry County,MO,NA,85.30259365994236,NA
65802,Greene County,MO,NA,18.73198847262248,NA
59405,Cascade County,MT,30.254777070063692,NA,NA
59802,Missoula County,MT,NA,NA,83.95415472779369
68134,Douglas County,NE,NA,NA,57.59312320916905
89118,Clark County,NV,87.57961783439491,NA,NA
89122,Clark County,NV,NA,NA,49.28366762177651
89130,Clark County,NV,54.77707006369427,NA,NA
89134,Clark County,NV,NA,NA,13.753581661891118
89406,Churchill County,NV,41.40127388535032,NA,NA
89429,Lyon County,NV,NA,NA,97.99426934097421
89502,Washoe County,NV,NA,19.88472622478386,NA
03064,Hillsborough County,NH,30.573248407643312,NA,NA
03103,Hillsborough County,NH,NA,11.239193083573488,NA
03842,Rockingham County,NH,67.19745222929936,NA,NA
03848,Rockingham County,NH,NA,NA,96.27507163323781
03867,Strafford County,NH,21.656050955414013,27.6657060518732,NA
07036,Union County,NJ,10.191082802547772,NA,NA
07087,Hudson County,NJ,NA,6.9164265129683,NA
07103,Essex County,NJ,0.9554140127388535,NA,NA
07304,Hudson County,NJ,NA,6.051873198847262,NA
07446,Bergen County,NJ,NA,90.48991354466858,NA
07450,Bergen County,NJ,NA,84.43804034582134,75.35816618911176
07481,Bergen County,NJ,NA,NA,67.3352435530086
07508,Passaic County,NJ,NA,47.55043227665706,NA
07524,Passaic County,NJ,NA,72.91066282420749,NA
07601,Bergen County,NJ,28.343949044585987,NA,NA
07712,Monmouth County,NJ,NA,7.492795389048991,NA
07751,Monmouth County,NJ,NA,NA,90.83094555873924
07828,Morris County,NJ,NA,73.77521613832853,NA
08016,Burlington County,NJ,3.821656050955414,NA,NA
08021,Camden County,NJ,0,NA,NA
08060,Burlington County,NJ,NA,36.887608069164266,NA
08078,Camden County,NJ,NA,NA,84.2406876790831
08234,Atlantic County,NJ,5.414012738853503,NA,NA
08330,Atlantic County,NJ,28.980891719745223,NA,NA
08332,Cumberland County,NJ,1.2738853503184715,NA,NA
08690,Mercer County,NJ,42.038216560509554,NA,NA
08742,Ocean County,NJ,30.89171974522293,NA,NA
08759,Ocean County,NJ,NA,NA,1.7191977077363898
08801,Hunterdon County,NJ,NA,95.67723342939482,NA
08822,Hunterdon County,NJ,NA,37.17579250720461,NA
08889,Hunterdon County,NJ,NA,NA,91.11747851002865
87002,Valencia County,NM,NA,NA,73.35243553008596
87105,Bernalillo County,NM,4.777070063694268,NA,NA
87420,San Juan County,NM,NA,70.31700288184439,52.14899713467048
87701,San Miguel County,NM,74.84076433121018,NA,NA
88063,Doa Ana County,NM,66.56050955414013,NA,NA
10026,New York County,NY,24.203821656050955,NA,NA
10305,Richmond County,NY,NA,16.138328530259365,NA
10466,Bronx County,NY,NA,17.002881844380404,NA
10583,Westchester County,NY,NA,NA,30.08595988538682
10952,Rockland County,NY,NA,NA,69.05444126074498
11005,Queens County,NY,NA,NA,79.65616045845272
11021,Nassau County,NY,NA,NA,53.00859598853869
11206,Kings County,NY,NA,1.729106628242075,NA
11215,Kings County,NY,NA,70.89337175792507,NA
11229,Kings County,NY,NA,19.596541786743515,NA
11230,Kings County,NY,46.17834394904459,NA,6.876790830945559
11235,Kings County,NY,NA,14.985590778097983,12.034383954154727
11375,Queens County,NY,NA,NA,7.4498567335243555
11565,Nassau County,NY,NA,92.79538904899135,NA
11746,Suffolk County,NY,NA,44.668587896253605,NA
12122,Schoharie County,NY,NA,78.6743515850144,NA
12157,Schoharie County,NY,NA,96.25360230547551,NA
12182,Rensselaer County,NY,NA,56.48414985590778,NA
12401,Ulster County,NY,NA,49.279538904899134,NA
12572,Dutchess County,NY,NA,NA,79.94269340974212
12771,Orange County,NY,64.64968152866241,NA,NA
12822,Saratoga County,NY,70.38216560509554,NA,NA
13205,Onondaga County,NY,NA,NA,44.69914040114613
13323,Oneida County,NY,NA,NA,74.49856733524355
13367,Lewis County,NY,40.12738853503185,NA,NA
13452,Montgomery County,NY,81.21019108280255,NA,NA
13601,Jefferson County,NY,6.369426751592357,NA,NA
13733,Chenango County,NY,88.53503184713377,NA,NA
13760,Broome County,NY,NA,0.57636887608069165,NA
13827,Tioga County,NY,55.73248407643312,NA,NA
13838,Delaware County,NY,64.01273885350318,NA,NA
13850,Broome County,NY,NA,5.475504322766571,NA
13905,Broome County,NY,2.229299363057325,29.394812680115272,NA
14048,Chautauqua County,NY,NA,45.24495677233429,NA
14094,Niagara County,NY,2.8662420382165608,NA,NA
14125,Genesee County,NY,84.71337579617835,NA,NA
14131,Niagara County,NY,NA,NA,97.134670487106
14218,Erie County,NY,NA,NA,51.57593123209169
14219,Erie County,NY,NA,57.925072046109506,NA
14226,Erie County,NY,NA,NA,69.34097421203438
14228,Erie County,NY,NA,NA,75.64469914040114
14424,Ontario County,NY,NA,NA,16.045845272206304
14433,Wayne County,NY,NA,79.53890489913545,NA
14472,Monroe County,NY,NA,NA,89.97134670487105
14532,Ontario County,NY,NA,78.96253602305475,NA
14606,Monroe County,NY,NA,NA,35.53008595988539
14611,Monroe County,NY,NA,NA,53.581661891117484
14618,Monroe County,NY,NA,12.968299711815561,15.18624641833811
14623,Monroe County,NY,NA,21.037463976945244,NA
14626,Monroe County,NY,NA,NA,7.736389684813753
14701,Chautauqua County,NY,NA,3.170028818443804,NA
14850,Tompkins County,NY,NA,NA,29.799426934097422
14901,Chemung County,NY,NA,62.2478386167147,NA
14905,Chemung County,NY,78.343949044586,NA,NA
27021,Stokes County,NC,NA,34.5821325648415,NA
27106,Forsyth County,NC,NA,3.7463976945244957,NA
27107,Forsyth County,NC,NA,4.899135446685879,NA
27203,Randolph County,NC,26.11464968152866,NA,NA
27217,Alamance County,NC,NA,11.527377521613833,NA
27249,Guilford County,NC,NA,NA,72.20630372492836
27292,Davidson County,NC,6.687898089171974,NA,NA
27401,Guilford County,NC,NA,NA,59.885386819484246
27455,Guilford County,NC,NA,96.54178674351584,NA
27504,Johnston County,NC,60.828025477707,NA,NA
27545,Wake County,NC,44.26751592356688,NA,NA
27607,Wake County,NC,NA,NA,87.96561604584528
27851,Wilson County,NC,NA,95.10086455331412,NA
27932,Chowan County,NC,NA,48.99135446685879,NA
28025,Cabarrus County,NC,NA,NA,10.601719197707736
28027,Cabarrus County,NC,49.681528662420384,NA,NA
28115,Iredell County,NC,NA,NA,34.097421203438394
28134,Mecklenburg County,NC,91.71974522292994,NA,NA
28164,Gaston County,NC,76.11464968152866,NA,NA
28216,Mecklenburg County,NC,NA,NA,26.93409742120344
28262,Mecklenburg County,NC,NA,75.21613832853026,NA
28277,Mecklenburg County,NC,NA,17.579250720461097,NA
28403,New Hanover County,NC,NA,NA,34.67048710601719
28571,Pamlico County,NC,NA,NA,97.134670487106
28601,Catawba County,NC,NA,NA,18.33810888252149
28715,Buncombe County,NC,NA,53.02593659942363,51.00286532951289
28734,Macon County,NC,NA,NA,4.584527220630372
28901,Cherokee County,NC,NA,96.82997118155619,NA
58201,Grand Forks County,ND,NA,8.069164265129682,NA
58341,Wells County,ND,98.08917197452229,NA,NA
43031,Licking County,OH,NA,89.04899135446685,NA
43085,Franklin County,OH,NA,NA,51.862464183381086
43130,Fairfield County,OH,1.910828025477707,NA,NA
43213,Franklin County,OH,NA,NA,42.693409742120345
43224,Franklin County,OH,NA,15.561959654178676,NA
43326,Hardin County,OH,48.40764331210191,NA,NA
43515,Fulton County,OH,NA,87.89625360230548,NA
43558,Fulton County,OH,NA,NA,63.323782234957015
43566,Lucas County,OH,NA,NA,83.0945558739255
43605,Lucas County,OH,NA,NA,57.02005730659025
43611,Lucas County,OH,NA,30.547550432276655,NA
43614,Lucas County,OH,NA,NA,18.33810888252149
43701,Muskingum County,OH,NA,1.1527377521613833,NA
43713,Belmont County,OH,NA,NA,76.79083094555874
43725,Guernsey County,OH,13.375796178343949,NA,NA
44041,Ashtabula County,OH,NA,37.46397694524496,NA
44047,Ashtabula County,OH,NA,58.789625360230545,NA
44102,Cuyahoga County,OH,0.3184713375796179,NA,NA
44122,Cuyahoga County,OH,NA,NA,0.5730659025787965
44134,Cuyahoga County,OH,NA,NA,4.871060171919771
44224,Summit County,OH,NA,10.086455331412104,NA
44236,Summit County,OH,NA,21.902017291066283,NA
44256,Medina County,OH,5.095541401273886,NA,NA
44266,Portage County,OH,9.554140127388536,NA,32.664756446991404
44305,Summit County,OH,NA,40.92219020172911,NA
44314,Summit County,OH,NA,20.461095100864554,NA
44436,Mahoning County,OH,NA,86.1671469740634,NA
44505,Mahoning County,OH,NA,NA,37.82234957020057
44514,Mahoning County,OH,NA,NA,20.34383954154728
44654,Holmes County,OH,NA,94.23631123919309,NA
44680,Tuscarawas County,OH,95.85987261146497,NA,NA
44683,Tuscarawas County,OH,NA,79.2507204610951,NA
44710,Stark County,OH,NA,83.86167146974063,NA
44718,Stark County,OH,NA,77.80979827089337,NA
44820,Crawford County,OH,NA,NA,25.214899713467048
45066,Warren County,OH,NA,NA,62.17765042979943
45140,Clermont County,OH,NA,NA,22.349570200573066
45211,Hamilton County,OH,NA,31.412103746397698,NA
45230,Hamilton County,OH,51.910828025477706,NA,NA
45231,Hamilton County,OH,9.235668789808917,NA,NA
45241,Hamilton County,OH,66.2420382165605,NA,NA
45373,Miami County,OH,8.280254777070063,NA,NA
45426,Montgomery County,OH,NA,40.345821325648416,NA
45431,Montgomery County,OH,NA,NA,39.82808022922636
45503,Clark County,OH,8.9171974522293,NA,11.461318051575931
45601,Ross County,OH,7.32484076433121,NA,NA
45662,Scioto County,OH,NA,NA,4.297994269340974
45885,Auglaize County,OH,41.71974522292994,NA,NA
45895,Auglaize County,OH,NA,34.87031700288185,NA
73013,Oklahoma County,OK,32.1656050955414,NA,NA
73439,Marshall County,OK,NA,84.72622478386167,NA
73533,Stephens County,OK,NA,13.8328530259366,NA
74017,Rogers County,OK,NA,NA,27.22063037249284
74133,Tulsa County,OK,NA,NA,11.74785100286533
74352,Mayes County,OK,NA,NA,93.98280802292264
74361,Mayes County,OK,NA,NA,85.10028653295129
97058,Wasco County,OR,NA,NA,40.114613180515754
97062,Washington County,OR,NA,NA,61.31805157593123
97080,Multnomah County,OR,NA,NA,38.68194842406877
97206,Multnomah County,OR,NA,22.76657060518732,NA
97211,Multnomah County,OR,NA,NA,71.06017191977078
97214,Multnomah County,OR,68.15286624203821,NA,NA
97220,Multnomah County,OR,NA,NA,45.27220630372493
97317,Marion County,OR,NA,NA,78.22349570200574
97367,Lincoln County,OR,NA,71.75792507204612,NA
97381,Marion County,OR,79.93630573248409,NA,NA
97444,Curry County,OR,90.12738853503186,NA,NA
97471,Douglas County,OR,NA,NA,12.893982808022923
97501,Jackson County,OR,NA,NA,30.945558739255013
97526,Josephine County,OR,NA,36.023054755043226,NA
97601,Klamath County,OR,16.560509554140125,NA,NA
97701,Deschutes County,OR,59.23566878980891,NA,NA
97838,Umatilla County,OR,NA,NA,45.55873925501432
97914,Malheur County,OR,22.611464968152866,NA,NA
15061,Beaver County,PA,83.12101910828027,NA,NA
15090,Allegheny County,PA,NA,76.94524495677233,NA
15133,Allegheny County,PA,NA,NA,90.54441260744986
15206,Allegheny County,PA,16.878980891719745,NA,NA
15216,Allegheny County,PA,NA,57.06051873198847,NA
15226,Allegheny County,PA,65.28662420382165,NA,NA
15229,Allegheny County,PA,NA,NA,54.44126074498568
15237,Allegheny County,PA,NA,NA,5.157593123209169
15301,Washington County,PA,NA,6.628242074927954,NA
15317,Washington County,PA,NA,NA,14.613180515759314
15656,Westmoreland County,PA,NA,NA,78.51002865329512
16354,Crawford County,PA,NA,NA,61.03151862464183
16438,Erie County,PA,NA,74.63976945244957,NA
16801,Centre County,PA,40.445859872611464,NA,NA
17003,Lebanon County,PA,NA,NA,87.67908309455588
17068,Perry County,PA,NA,97.40634005763688,NA
17111,Dauphin County,PA,15.286624203821656,NA,NA
17257,Cumberland County,PA,NA,25.360230547550433,NA
17268,Franklin County,PA,16.24203821656051,NA,NA
17331,York County,PA,NA,2.0172910662824206,NA
17340,Adams County,PA,NA,51.5850144092219,NA
17519,Lancaster County,PA,NA,99.13544668587896,NA
17543,Lancaster County,PA,NA,12.39193083573487,NA
17702,Lycoming County,PA,71.3375796178344,NA,NA
17901,Schuylkill County,PA,NA,NA,25.787965616045845
18014,Northampton County,PA,42.35668789808918,NA,NA
18015,Northampton County,PA,NA,24.78386167146974,NA
18062,Lehigh County,PA,NA,32.85302593659942,NA
18102,Lehigh County,PA,NA,NA,58.73925501432665
18330,Monroe County,PA,NA,85.87896253602305,NA
18337,Pike County,PA,91.40127388535032,NA,NA
18610,Monroe County,PA,76.75159235668791,NA,NA
18642,Luzerne County,PA,NA,NA,90.25787965616045
18938,Bucks County,PA,NA,69.164265129683,NA
18940,Bucks County,PA,59.554140127388536,NA,NA
18951,Bucks County,PA,NA,NA,70.48710601719198
19046,Montgomery County,PA,NA,NA,38.96848137535817
19047,Bucks County,PA,NA,NA,28.939828080229223
19067,Bucks County,PA,NA,8.93371757925072,NA
19074,Delaware County,PA,95.22292993630573,NA,NA
19103,Philadelphia County,PA,44.904458598726116,NA,NA
19136,Philadelphia County,PA,11.78343949044586,NA,NA
19139,Philadelphia County,PA,NA,8.357348703170029,NA
19142,Philadelphia County,PA,NA,NA,86.53295128939828
19335,Chester County,PA,NA,14.697406340057636,NA
19342,Delaware County,PA,46.81528662420382,NA,NA
19363,Chester County,PA,NA,NA,57.879656160458445
19464,Montgomery County,PA,23.56687898089172,NA,NA
19465,Chester County,PA,NA,NA,72.49283667621776
19520,Chester County,PA,NA,NA,79.94269340974212
19610,Berks County,PA,NA,38.61671469740634,NA
02860,Providence County,RI,NA,NA,6.017191977077363
02863,Providence County,RI,NA,NA,63.89684813753582
02891,Washington County,RI,NA,NA,21.776504297994272
29036,Lexington County,SC,NA,NA,76.50429799426934
29349,Spartanburg County,SC,25.159235668789808,NA,NA
29440,Georgetown County,SC,NA,NA,30.37249283667622
29449,Charleston County,SC,NA,NA,93.12320916905445
29455,Charleston County,SC,NA,72.91066282420749,NA
29466,Charleston County,SC,NA,55.3314121037464,NA
29485,Dorchester County,SC,28.662420382165603,NA,NA
29591,Florence County,SC,NA,89.33717579250721,NA
29617,Greenville County,SC,36.94267515923567,NA,NA
29627,Anderson County,SC,NA,NA,62.46418338108882
29646,Greenwood County,SC,NA,NA,28.653295128939828
29706,Chester County,SC,NA,NA,71.63323782234957
29720,Lancaster County,SC,NA,68.29971181556196,NA
29728,Chesterfield County,SC,92.99363057324841,NA,NA
29936,Jasper County,SC,NA,NA,82.52148997134671
37030,Smith County,TN,NA,NA,88.82521489971347
37067,Williamson County,TN,NA,74.92795389048992,NA
37072,Davidson County,TN,NA,26.512968299711815,NA
37073,Robertson County,TN,NA,91.06628242074927,NA
37075,Sumner County,TN,NA,NA,9.742120343839542
37122,Wilson County,TN,29.617834394904456,NA,NA
37129,Rutherford County,TN,15.92356687898089,NA,NA
37167,Rutherford County,TN,27.70700636942675,NA,NA
37204,Davidson County,TN,NA,NA,95.70200573065902
37388,Coffee County,TN,34.394904458598724,NA,NA
37660,Sullivan County,TN,NA,NA,10.888252148997136
37716,Anderson County,TN,NA,NA,63.61031518624641
37722,Cocke County,TN,NA,85.5907780979827,NA
37766,Campbell County,TN,36.624203821656046,NA,NA
37813,Hamblen County,TN,NA,67.43515850144092,NA
37814,Hamblen County,TN,NA,25.936599423631122,NA
37818,Greene County,TN,76.75159235668791,NA,NA
37825,Claiborne County,TN,NA,NA,87.10601719197709
37846,Loudon County,TN,NA,97.98270893371757,NA
37857,Hawkins County,TN,35.03184713375796,NA,NA
37877,Hamblen County,TN,74.20382165605095,NA,NA
37886,Blount County,TN,NA,91.35446685878964,NA
37909,Knox County,TN,80.89171974522293,NA,NA
37922,Knox County,TN,NA,56.48414985590778,NA
38257,Obion County,TN,NA,88.47262247838617,NA
38478,Giles County,TN,NA,NA,65.90257879656161
38551,Clay County,TN,NA,82.9971181556196,NA
38562,Jackson County,TN,NA,NA,91.69054441260745
75006,Dallas County,TX,NA,28.818443804034583,NA
75020,Grayson County,TX,NA,NA,43.553008595988544
75040,Dallas County,TX,17.197452229299362,NA,NA
75044,Dallas County,TX,54.45859872611465,NA,NA
75070,Collin County,TX,14.64968152866242,NA,NA
75071,Collin County,TX,NA,33.71757925072046,NA
75093,Collin County,TX,72.92993630573248,NA,NA
75154,Ellis County,TX,NA,NA,79.08309455587393
75167,Ellis County,TX,77.70700636942675,NA,NA
75209,Dallas County,TX,63.37579617834395,NA,NA
75228,Dallas County,TX,7.643312101910828,NA,NA
75229,Dallas County,TX,43.94904458598726,NA,NA
75235,Dallas County,TX,64.3312101910828,NA,NA
75654,Rusk County,TX,NA,71.46974063400576,NA
75672,Harrison County,TX,NA,NA,59.31232091690545
75706,Smith County,TX,NA,72.62247838616715,NA
75773,Wood County,TX,NA,29.106628242074926,NA
75979,Tyler County,TX,84.07643312101911,NA,NA
76014,Tarrant County,TX,NA,49.85590778097983,NA
76028,Johnson County,TX,NA,5.187319884726225,NA
76108,Tarrant County,TX,NA,25.072046109510087,NA
76114,Tarrant County,TX,42.99363057324841,NA,NA
76205,Denton County,TX,NA,81.26801152737752,NA
76208,Denton County,TX,58.28025477707006,NA,NA
76240,Cooke County,TX,NA,38.904899135446684,NA
76248,Tarrant County,TX,NA,47.83861671469741,NA
76401,Erath County,TX,NA,53.602305475504316,NA
76504,Bell County,TX,NA,3.45821325648415,NA
76522,Coryell County,TX,NA,NA,12.607449856733524
76645,Hill County,TX,75.15923566878982,NA,NA
76706,McLennan County,TX,NA,46.68587896253602,NA
77011,Harris County,TX,79.29936305732484,NA,NA
77051,Harris County,TX,53.82165605095541,NA,NA
77070,Harris County,TX,NA,23.631123919308358,NA
77077,Harris County,TX,NA,NA,77.65042979942693
77304,Montgomery County,TX,NA,60.51873198847262,NA
77365,Montgomery County,TX,NA,NA,99.7134670487106
77377,Harris County,TX,NA,58.789625360230545,NA
77381,Montgomery County,TX,NA,39.76945244956772,NA
77384,Montgomery County,TX,72.29299363057325,NA,69.62750716332378
77386,Montgomery County,TX,NA,NA,85.67335243553008
77388,Harris County,TX,NA,NA,70.77363896848138
77396,Harris County,TX,39.171974522293,NA,NA
77433,Harris County,TX,NA,NA,46.41833810888252
77437,Wharton County,TX,61.46496815286624,NA,82.23495702005731
77449,Harris County,TX,NA,25.64841498559078,NA
77450,Harris County,TX,NA,NA,41.54727793696275
77484,Waller County,TX,NA,NA,92.26361031518626
77551,Galveston County,TX,NA,26.801152737752158,NA
77581,Brazoria County,TX,NA,NA,33.810888252149
77583,Brazoria County,TX,NA,74.06340057636888,NA
77845,Brazos County,TX,NA,NA,55.873925501432666
77868,Grimes County,TX,NA,NA,60.17191977077364
78063,Bandera County,TX,NA,92.507204610951,NA
78155,Guadalupe County,TX,NA,31.988472622478387,NA
78207,Bexar County,TX,NA,NA,23.49570200573066
78231,Bexar County,TX,NA,NA,98.28080229226362
78240,Bexar County,TX,NA,65.70605187319885,NA
78501,Hidalgo County,TX,NA,NA,13.46704871060172
78676,Hays County,TX,NA,76.657060518732,NA
78681,Williamson County,TX,NA,NA,27.507163323782237
78734,Travis County,TX,NA,72.3342939481268,NA
78834,Dimmit County,TX,92.03821656050955,NA,NA
78839,Zavala County,TX,NA,NA,95.12893982808023
79403,Lubbock County,TX,50,NA,NA
79424,Lubbock County,TX,NA,10.951008645533141,NA
79549,Scurry County,TX,NA,NA,57.306590257879655
79705,Midland County,TX,28.02547770700637,NA,NA
79714,Andrews County,TX,NA,73.48703170028818,NA
79830,Brewster County,TX,NA,NA,99.42693409742121
79912,El Paso County,TX,NA,NA,23.78223495702006
79915,El Paso County,TX,NA,55.907780979827095,NA
84070,Salt Lake County,UT,49.044585987261144,NA,NA
84103,Salt Lake County,UT,NA,75.79250720461094,NA
84104,Salt Lake County,UT,NA,89.62536023054754,NA
84117,Salt Lake County,UT,NA,NA,34.097421203438394
84401,Weber County,UT,NA,54.46685878962536,NA
84501,Carbon County,UT,NA,93.94812680115274,NA
84604,Utah County,UT,87.26114649681529,NA,NA
84651,Utah County,UT,67.83439490445859,NA,NA
84721,Iron County,UT,NA,NA,81.08882521489971
84770,Washington County,UT,NA,NA,8.022922636103152
05468,Chittenden County,VT,NA,NA,63.89684813753582
05641,Washington County,VT,33.43949044585987,NA,NA
22209,Arlington County,VA,89.49044585987261,NA,NA
22306,Fairfax County,VA,NA,50.43227665706051,NA
22309,Fairfax County,VA,26.43312101910828,NA,NA
22310,Fairfax County,VA,53.18471337579618,NA,NA
22407,Spotsylvania County,VA,17.8343949044586,NA,NA
22642,Warren County,VA,95.54140127388536,NA,NA
22802,Harrisonburg city,VA,NA,82.13256484149855,NA
22843,Augusta County,VA,96.17834394904459,NA,NA
22980,Waynesboro city,VA,NA,NA,3.7249283667621778
23111,Hanover County,VA,NA,NA,56.446991404011456
23150,Henrico County,VA,NA,81.84438040345822,NA
23192,Hanover County,VA,NA,NA,94.55587392550143
23238,Henrico County,VA,NA,NA,40.68767908309456
23936,Buckingham County,VA,98.72611464968153,NA,NA
24012,Roanoke city,VA,29.936305732484076,NA,NA
24018,Roanoke County,VA,NA,33.14121037463977,NA
24055,Henry County,VA,61.146496815286625,NA,NA
24060,Montgomery County,VA,NA,NA,59.02578796561605
24073,Montgomery County,VA,NA,NA,46.99140401146132
24121,Bedford County,VA,NA,63.68876080691642,NA
24501,Lynchburg city,VA,NA,NA,47.56446991404012
24523,Bedford County,VA,NA,44.38040345821326,NA
24541,Danville city,VA,35.98726114649681,NA,NA
24588,Campbell County,VA,76.43312101910828,NA,NA
24590,Albemarle County,VA,89.80891719745223,NA,NA
24651,Tazewell County,VA,NA,84.72622478386167,NA
98012,Snohomish County,WA,NA,27.37752161383285,NA
98032,King County,WA,NA,49.56772334293948,NA
98223,Snohomish County,WA,NA,18.443804034582133,NA
98225,Whatcom County,WA,55.095541401273884,NA,NA
98260,Island County,WA,NA,NA,84.81375358166189
98273,Skagit County,WA,NA,54.17867435158501,NA
98292,Snohomish County,WA,NA,NA,61.60458452722063
98363,Clallam County,WA,64.96815286624204,NA,NA
98367,Kitsap County,WA,NA,51.29682997118156,NA
98402,Pierce County,WA,NA,NA,97.134670487106
98444,Pierce County,WA,NA,NA,71.34670487106017
98584,Mason County,WA,NA,19.020172910662826,NA
98597,Thurston County,WA,NA,NA,86.81948424068769
98671,Clark County,WA,NA,NA,77.36389684813754
98684,Clark County,WA,NA,65.4178674351585,NA
98801,Chelan County,WA,22.929936305732486,NA,NA
98908,Yakima County,WA,NA,14.409221902017292,NA
99207,Spokane County,WA,NA,NA,66.189111747851
99336,Benton County,WA,NA,2.5936599423631126,NA
99338,Benton County,WA,59.87261146496815,NA,NA
99352,Benton County,WA,NA,NA,3.4383954154727796
20016,District of Columbia,DC,68.47133757961782,NA,NA
25071,Kanawha County,WV,NA,NA,66.7621776504298
25309,Kanawha County,WV,NA,59.654178674351584,NA
25428,Berkeley County,WV,60.19108280254777,NA,NA
25670,Mingo County,WV,85.03184713375796,NA,NA
25880,Raleigh County,WV,NA,83.5734870317003,NA
26187,Wood County,WV,NA,58.21325648414985,NA
26253,Randolph County,WV,96.81528662420382,NA,NA
26301,Harrison County,WV,NA,12.103746397694524,NA
26554,Marion County,WV,NA,2.3054755043227666,3.151862464183381
26651,Nicholas County,WV,77.38853503184714,NA,NA
53151,Waukesha County,WI,NA,20.172910662824208,NA
53172,Milwaukee County,WI,NA,NA,32.95128939828081
53208,Milwaukee County,WI,NA,29.68299711815562,NA
53209,Milwaukee County,WI,3.1847133757961785,2.881844380403458,NA
53217,Milwaukee County,WI,NA,26.22478386167147,NA
53223,Milwaukee County,WI,15.605095541401273,NA,NA
53511,Rock County,WI,NA,NA,0
53520,Green County,WI,NA,NA,73.63896848137536
53534,Rock County,WI,NA,58.501440922190206,NA
53573,Grant County,WI,NA,98.55907780979827,NA
53593,Dane County,WI,NA,NA,60.17191977077364
53913,Sauk County,WI,NA,NA,49.570200573065904
54235,Door County,WI,58.917197452229296,24.207492795389047,NA
54409,Langlade County,WI,NA,NA,10.315186246418339
54568,Vilas County,WI,NA,94.52449567723343,NA
54601,La Crosse County,WI,NA,NA,0.28653295128939826
54729,Chippewa County,WI,34.07643312101911,NA,NA
54929,Waupaca County,WI,88.21656050955414,NA,NA
54956,Winnebago County,WI,25.796178343949045,35.158501440922194,NA
82716,Campbell County,WY,NA,NA,96.84813753581662
