ZipCode,county,state,Adult,Retirement,Geriatric
35022,Jefferson County,AL,NA,NA,20.967741935483872
35111,Tuscaloosa County,AL,NA,30.752688172043012,NA
35127,Jefferson County,AL,NA,61.505376344086024,NA
35242,Shelby County,AL,37.5,NA,NA
35619,Morgan County,AL,NA,90.32258064516128,NA
36064,Montgomery County,AL,NA,NA,97.04301075268818
36067,Autauga County,AL,NA,49.46236559139785,NA
36106,Montgomery County,AL,NA,80,NA
36109,Montgomery County,AL,NA,66.02150537634408,NA
36110,Montgomery County,AL,62.890625,89.03225806451613,NA
36535,Baldwin County,AL,NA,19.78494623655914,NA
36608,Mobile County,AL,NA,49.46236559139785,NA
36801,Lee County,AL,NA,67.0967741935484,NA
85016,Maricopa County,AZ,NA,72.90322580645162,NA
85042,Maricopa County,AZ,NA,NA,74.46236559139786
85249,Maricopa County,AZ,NA,36.55913978494624,NA
85304,Maricopa County,AZ,NA,NA,71.50537634408603
85324,Yavapai County,AZ,NA,95.48387096774194,NA
85351,Maricopa County,AZ,NA,NA,0.5376344086021506
85375,Maricopa County,AZ,85.15625,21.50537634408602,NA
85379,Maricopa County,AZ,NA,60.64516129032258,NA
85383,Maricopa County,AZ,NA,35.913978494623656,NA
85388,Maricopa County,AZ,NA,84.51612903225806,NA
85718,Pima County,AZ,NA,NA,18.817204301075268
86033,Navajo County,AZ,NA,NA,100
86040,Coconino County,AZ,NA,NA,91.39784946236558
86301,Yavapai County,AZ,NA,29.24731182795699,NA
72034,Faulkner County,AR,NA,81.50537634408602,NA
72116,Pulaski County,AR,NA,NA,31.451612903225808
72118,Pulaski County,AR,NA,NA,47.58064516129033
72120,Pulaski County,AR,50.78125,NA,NA
72601,Boone County,AR,NA,NA,18.27956989247312
72712,Benton County,AR,54.6875,NA,NA
72904,Sebastian County,AR,NA,NA,65.86021505376344
72933,Franklin County,AR,97.265625,NA,NA
72936,Sebastian County,AR,78.125,NA,91.93548387096774
90003,Los Angeles County,CA,NA,NA,61.55913978494624
90004,Los Angeles County,CA,NA,NA,50.26881720430107
90036,Los Angeles County,CA,NA,NA,73.11827956989248
90063,Los Angeles County,CA,NA,NA,58.87096774193549
90230,Los Angeles County,CA,NA,51.82795698924731,NA
90240,Los Angeles County,CA,NA,NA,85.75268817204301
90262,Los Angeles County,CA,40.234375,NA,NA
90265,Los Angeles County,CA,NA,NA,81.98924731182797
90274,Los Angeles County,CA,NA,64.51612903225806,NA
90291,Los Angeles County,CA,NA,60.215053763440864,NA
90503,Los Angeles County,CA,NA,NA,75.80645161290323
90603,Los Angeles County,CA,NA,54.83870967741935,47.8494623655914
90623,Orange County,CA,NA,86.66666666666667,NA
90638,Los Angeles County,CA,NA,36.98924731182795,NA
90715,Los Angeles County,CA,NA,79.13978494623656,NA
91344,Los Angeles County,CA,NA,64.08602150537635,NA
91367,Los Angeles County,CA,90.625,NA,NA
91405,Los Angeles County,CA,NA,NA,51.88172043010753
91606,Los Angeles County,CA,NA,56.774193548387096,NA
91762,San Bernardino County,CA,NA,50.10752688172043,NA
91910,San Diego County,CA,NA,NA,8.870967741935484
91942,San Diego County,CA,NA,78.92473118279571,NA
91950,San Diego County,CA,41.796875,NA,NA
92019,San Diego County,CA,NA,NA,38.44086021505376
92020,San Diego County,CA,NA,NA,31.72043010752688
92021,San Diego County,CA,NA,12.473118279569892,NA
92054,San Diego County,CA,NA,NA,81.72043010752688
92064,San Diego County,CA,57.421875,37.634408602150536,NA
92083,San Diego County,CA,NA,NA,79.3010752688172
92101,San Diego County,CA,NA,NA,40.32258064516129
92118,San Diego County,CA,NA,NA,94.89247311827957
92129,San Diego County,CA,NA,NA,52.1505376344086
92250,Imperial County,CA,NA,92.47311827956989,NA
92359,San Bernardino County,CA,NA,97.63440860215053,NA
92407,San Bernardino County,CA,NA,52.68817204301075,NA
92610,Orange County,CA,90.234375,NA,NA
92626,Orange County,CA,NA,46.236559139784944,NA
92629,Orange County,CA,NA,NA,34.946236559139784
92647,Orange County,CA,NA,NA,12.365591397849462
92651,Orange County,CA,83.59375,NA,NA
92653,Orange County,CA,NA,NA,52.41935483870967
92677,Orange County,CA,NA,7.741935483870968,NA
92691,Orange County,CA,59.765625,NA,NA
92804,Orange County,CA,21.09375,NA,NA
93063,Ventura County,CA,NA,24.301075268817204,NA
93065,Ventura County,CA,NA,NA,16.129032258064516
93230,Kings County,CA,NA,14.408602150537634,NA
93257,Tulare County,CA,19.140625,NA,NA
93277,Tulare County,CA,NA,55.91397849462365,NA
93308,Kern County,CA,34.375,NA,NA
93458,Santa Barbara County,CA,NA,29.89247311827957,NA
93463,Santa Barbara County,CA,NA,NA,90.86021505376344
93611,Fresno County,CA,NA,NA,62.634408602150536
93637,Madera County,CA,NA,NA,61.82795698924731
93662,Fresno County,CA,63.671875,NA,NA
93906,Monterey County,CA,NA,42.795698924731184,NA
93933,Monterey County,CA,NA,46.666666666666664,NA
94085,Santa Clara County,CA,NA,NA,93.81720430107528
94114,San Francisco County,CA,54.296875,NA,NA
94121,San Francisco County,CA,NA,NA,9.67741935483871
94127,San Francisco County,CA,99.21875,NA,NA
94132,San Francisco County,CA,NA,69.03225806451613,40.86021505376344
94502,Alameda County,CA,NA,90.75268817204301,NA
94523,Contra Costa County,CA,NA,59.13978494623656,NA
94530,Contra Costa County,CA,NA,NA,82.25806451612904
94533,Solano County,CA,31.640625,NA,NA
94538,Alameda County,CA,NA,44.946236559139784,NA
94558,Napa County,CA,NA,NA,2.1505376344086025
94560,Alameda County,CA,NA,NA,43.81720430107527
94565,Contra Costa County,CA,NA,NA,24.462365591397848
94583,Contra Costa County,CA,NA,NA,72.58064516129032
94589,Solano County,CA,84.375,NA,NA
94590,Solano County,CA,NA,24.946236559139784,NA
94591,Solano County,CA,NA,NA,19.086021505376344
94601,Alameda County,CA,NA,37.204301075268816,NA
94605,Alameda County,CA,NA,22.365591397849464,NA
94608,Alameda County,CA,NA,83.44086021505376,NA
94806,Contra Costa County,CA,NA,NA,20.161290322580644
94901,Marin County,CA,NA,39.13978494623656,NA
94920,Marin County,CA,NA,NA,49.73118279569893
95020,Santa Clara County,CA,NA,30.967741935483872,NA
95050,Santa Clara County,CA,NA,NA,56.451612903225815
95123,Santa Clara County,CA,NA,NA,30.107526881720432
95135,Santa Clara County,CA,NA,NA,54.83870967741935
95148,Santa Clara County,CA,NA,42.365591397849464,NA
95206,San Joaquin County,CA,28.125,NA,NA
95336,San Joaquin County,CA,NA,NA,25.268817204301076
95451,Lake County,CA,NA,NA,69.08602150537635
95503,Humboldt County,CA,NA,NA,86.82795698924731
95540,Humboldt County,CA,NA,57.634408602150536,NA
95688,Solano County,CA,NA,NA,49.46236559139785
95762,El Dorado County,CA,96.484375,NA,NA
95816,Sacramento County,CA,NA,93.33333333333333,NA
95901,Yuba County,CA,NA,NA,67.47311827956989
80125,Douglas County,CO,92.1875,NA,NA
80126,Douglas County,CO,NA,59.56989247311828,NA
80128,Jefferson County,CO,NA,NA,95.16129032258065
80130,Douglas County,CO,79.296875,NA,NA
80134,Douglas County,CO,NA,36.344086021505376,NA
80234,Adams County,CO,NA,71.18279569892472,NA
80237,Denver County,CO,76.953125,NA,NA
80537,Larimer County,CO,NA,13.763440860215054,NA
80904,El Paso County,CO,NA,66.02150537634408,65.05376344086021
81122,La Plata County,CO,NA,94.83870967741936,NA
81650,Garfield County,CO,80.46875,67.31182795698925,NA
06108,Hartford County,CT,NA,58.27956989247311,NA
06513,New Haven County,CT,5.859375,NA,NA
06903,Fairfield County,CT,NA,61.935483870967744,NA
19956,Sussex County,DE,53.90625,NA,77.95698924731182
32040,Baker County,FL,NA,81.93548387096774,NA
32065,Clay County,FL,NA,74.19354838709677,NA
32091,Bradford County,FL,NA,40.64516129032258,NA
32217,Duval County,FL,NA,NA,70.43010752688173
32221,Duval County,FL,NA,NA,81.45161290322581
32222,Duval County,FL,NA,NA,90.05376344086021
32224,Duval County,FL,NA,44.516129032258064,NA
32244,Duval County,FL,NA,8.60215053763441,34.67741935483871
32257,Duval County,FL,NA,22.58064516129032,NA
32433,Walton County,FL,64.84375,NA,NA
32547,Okaloosa County,FL,NA,84.94623655913979,NA
32566,Santa Rosa County,FL,NA,21.72043010752688,NA
32571,Santa Rosa County,FL,NA,50.967741935483865,NA
32656,Clay County,FL,NA,NA,67.20430107526882
32696,Levy County,FL,NA,52.25806451612903,NA
32757,Lake County,FL,NA,29.03225806451613,NA
32796,Brevard County,FL,NA,27.09677419354839,NA
32805,Orange County,FL,NA,43.44086021505376,NA
32821,Orange County,FL,NA,NA,86.55913978494624
32825,Orange County,FL,NA,14.623655913978496,NA
32837,Orange County,FL,NA,NA,56.98924731182796
32905,Brevard County,FL,NA,NA,31.182795698924732
32909,Brevard County,FL,NA,NA,44.086021505376344
32935,Brevard County,FL,26.171875,43.01075268817204,21.50537634408602
32951,Brevard County,FL,NA,87.74193548387098,NA
32952,Brevard County,FL,NA,46.88172043010753,NA
32976,Brevard County,FL,NA,NA,18.010752688172044
33021,Broward County,FL,NA,NA,4.56989247311828
33028,Broward County,FL,82.8125,NA,NA
33055,Miami-Dade County,FL,NA,NA,59.13978494623656
33060,Broward County,FL,88.671875,NA,NA
33062,Broward County,FL,NA,66.66666666666666,NA
33068,Broward County,FL,51.5625,54.83870967741935,NA
33162,Miami-Dade County,FL,NA,NA,51.075268817204304
33180,Miami-Dade County,FL,NA,46.02150537634409,NA
33308,Broward County,FL,NA,14.193548387096774,NA
33312,Broward County,FL,NA,NA,67.74193548387096
33415,Palm Beach County,FL,46.09375,70.75268817204301,NA
33428,Palm Beach County,FL,NA,NA,15.053763440860216
33431,Palm Beach County,FL,NA,NA,64.24731182795699
33433,Palm Beach County,FL,NA,NA,1.3440860215053763
33434,Palm Beach County,FL,NA,NA,4.838709677419355
33483,Palm Beach County,FL,NA,NA,48.38709677419355
33572,Hillsborough County,FL,NA,NA,89.51612903225806
33708,Pinellas County,FL,91.015625,NA,NA
33774,Pinellas County,FL,NA,NA,63.44086021505376
33870,Highlands County,FL,NA,28.172043010752688,NA
33896,Polk County,FL,NA,96.98924731182795,NA
33907,Lee County,FL,NA,NA,60.483870967741936
33908,Lee County,FL,65.234375,NA,0.2688172043010753
33913,Lee County,FL,NA,NA,51.61290322580645
33956,Lee County,FL,NA,NA,89.24731182795699
34202,Manatee County,FL,NA,NA,38.17204301075269
34203,Manatee County,FL,NA,NA,14.24731182795699
34207,Manatee County,FL,NA,NA,54.83870967741935
34223,Sarasota County,FL,95.3125,NA,NA
34228,Sarasota County,FL,NA,NA,43.27956989247312
34235,Sarasota County,FL,NA,59.354838709677416,NA
34239,Sarasota County,FL,NA,NA,48.924731182795696
34275,Sarasota County,FL,NA,NA,13.978494623655912
34698,Pinellas County,FL,NA,20.86021505376344,NA
34748,Lake County,FL,26.953125,NA,NA
34947,St. Lucie County,FL,NA,NA,93.01075268817203
34952,St. Lucie County,FL,NA,NA,6.720430107526881
34974,Okeechobee County,FL,NA,40.215053763440864,NA
30024,Gwinnett County,GA,NA,23.655913978494624,NA
30030,DeKalb County,GA,53.125,NA,NA
30034,DeKalb County,GA,35.9375,NA,NA
30035,DeKalb County,GA,NA,NA,92.20430107526882
30041,Forsyth County,GA,NA,43.225806451612904,NA
30096,Gwinnett County,GA,NA,NA,16.93548387096774
30120,Bartow County,GA,NA,45.376344086021504,NA
30296,Clayton County,GA,NA,74.83870967741936,NA
30327,Fulton County,GA,NA,73.54838709677419,NA
30338,DeKalb County,GA,76.5625,NA,NA
30345,DeKalb County,GA,NA,NA,93.54838709677419
30401,Emanuel County,GA,NA,69.46236559139784,NA
30501,Hall County,GA,NA,NA,71.23655913978494
30504,Hall County,GA,NA,77.84946236559139,NA
30512,Union County,GA,NA,51.61290322580645,NA
30517,Jackson County,GA,NA,86.02150537634408,NA
30519,Gwinnett County,GA,NA,31.827956989247312,78.76344086021506
30528,White County,GA,NA,52.473118279569896,NA
30540,Gilmer County,GA,NA,NA,52.956989247311824
30542,Hall County,GA,NA,89.46236559139786,59.946236559139784
30605,Clarke County,GA,63.28125,NA,71.50537634408603
30606,Clarke County,GA,NA,25.591397849462368,NA
30680,Barrow County,GA,NA,22.1505376344086,72.31182795698925
30904,Richmond County,GA,NA,17.8494623655914,NA
30909,Richmond County,GA,NA,14.838709677419354,NA
31082,Washington County,GA,86.328125,NA,NA
31312,Effingham County,GA,81.25,NA,NA
31501,Ware County,GA,69.140625,NA,NA
31537,Charlton County,GA,87.5,NA,NA
31558,Camden County,GA,NA,NA,80.91397849462365
96797,Honolulu County,HI,13.28125,NA,NA
96826,Honolulu County,HI,NA,31.397849462365592,NA
83402,Bonneville County,ID,60.15625,NA,NA
83716,Ada County,ID,NA,NA,69.35483870967742
60014,McHenry County,IL,NA,NA,21.236559139784948
60047,Lake County,IL,NA,21.0752688172043,NA
60051,McHenry County,IL,NA,24.731182795698924,NA
60073,Lake County,IL,NA,26.451612903225808,NA
60099,Lake County,IL,44.53125,NA,NA
60103,DuPage County,IL,NA,23.010752688172044,NA
60108,DuPage County,IL,NA,NA,30.913978494623656
60174,Kane County,IL,NA,37.8494623655914,NA
60202,Cook County,IL,NA,88.6021505376344,NA
60402,Cook County,IL,NA,NA,30.376344086021508
60410,Will County,IL,NA,NA,76.61290322580645
60449,Will County,IL,83.984375,NA,NA
60450,Grundy County,IL,NA,54.40860215053763,19.623655913978492
60612,Cook County,IL,NA,NA,35.215053763440864
60615,Cook County,IL,NA,NA,17.20430107526882
60619,Cook County,IL,NA,4.301075268817205,NA
60623,Cook County,IL,NA,NA,12.634408602150538
60624,Cook County,IL,21.484375,NA,NA
60626,Cook County,IL,26.5625,NA,NA
60628,Cook County,IL,NA,NA,45.16129032258064
60629,Cook County,IL,10.15625,4.086021505376344,NA
60634,Cook County,IL,NA,6.666666666666667,NA
60653,Cook County,IL,NA,NA,27.688172043010752
60657,Cook County,IL,27.734375,NA,NA
60660,Cook County,IL,33.59375,NA,NA
60942,Vermilion County,IL,NA,NA,83.33333333333334
61032,Stephenson County,IL,NA,16.129032258064516,NA
61048,Stephenson County,IL,NA,95.26881720430107,79.56989247311827
61073,Winnebago County,IL,NA,NA,54.3010752688172
61102,Winnebago County,IL,NA,NA,79.03225806451613
61201,Rock Island County,IL,NA,NA,40.053763440860216
61244,Rock Island County,IL,NA,95.05376344086022,NA
61350,LaSalle County,IL,NA,71.61290322580646,NA
61443,Henry County,IL,NA,53.97849462365591,22.849462365591396
61611,Tazewell County,IL,NA,NA,48.655913978494624
61615,Peoria County,IL,80.078125,NA,NA
62002,Madison County,IL,NA,NA,12.096774193548388
62208,St. Clair County,IL,NA,70.10752688172043,NA
62226,St. Clair County,IL,48.4375,NA,NA
62236,Monroe County,IL,NA,NA,96.23655913978494
62249,Madison County,IL,NA,NA,31.989247311827956
62301,Adams County,IL,39.453125,NA,NA
62363,Pike County,IL,NA,NA,75.53763440860214
62522,Macon County,IL,NA,53.76344086021505,NA
62549,Macon County,IL,NA,87.31182795698925,NA
62670,Sangamon County,IL,NA,100,NA
62702,Sangamon County,IL,NA,NA,37.903225806451616
62711,Sangamon County,IL,NA,NA,46.236559139784944
62946,Saline County,IL,81.640625,NA,NA
62959,Williamson County,IL,45.703125,NA,16.397849462365592
46011,Madison County,IN,NA,NA,38.44086021505376
46012,Madison County,IN,NA,19.13978494623656,NA
46016,Madison County,IN,NA,84.73118279569893,NA
46032,Hamilton County,IN,NA,NA,23.387096774193548
46033,Hamilton County,IN,NA,29.677419354838708,43.54838709677419
46038,Hamilton County,IN,NA,55.26881720430108,NA
46055,Hancock County,IN,NA,98.27956989247312,NA
46069,Hamilton County,IN,NA,94.40860215053763,NA
46107,Marion County,IN,NA,NA,51.344086021505376
46123,Hendricks County,IN,55.078125,NA,NA
46220,Marion County,IN,NA,47.096774193548384,NA
46222,Marion County,IN,NA,27.526881720430108,NA
46250,Marion County,IN,NA,69.03225806451613,NA
46256,Marion County,IN,NA,NA,64.78494623655914
46260,Marion County,IN,NA,48.60215053763441,41.39784946236559
46360,LaPorte County,IN,NA,4.516129032258064,NA
46366,Starke County,IN,NA,NA,90.32258064516128
46383,Porter County,IN,NA,4.731182795698925,NA
46561,St. Joseph County,IN,NA,93.11827956989247,NA
46563,Marshall County,IN,NA,61.72043010752688,NA
46615,St. Joseph County,IN,NA,95.6989247311828,NA
46701,Noble County,IN,75.390625,NA,NA
46815,Allen County,IN,NA,NA,17.741935483870968
46952,Grant County,IN,24.609375,5.161290322580645,18.27956989247312
47201,Bartholomew County,IN,NA,9.89247311827957,NA
47283,Decatur County,IN,99.609375,NA,NA
47362,Henry County,IN,28.515625,43.655913978494624,NA
47421,Lawrence County,IN,40.625,NA,NA
47842,Vermillion County,IN,NA,72.25806451612902,NA
47872,Parke County,IN,NA,85.3763440860215,NA
50323,Dallas County,IA,NA,NA,95.6989247311828
50401,Cerro Gordo County,IA,17.578125,NA,NA
50511,Kossuth County,IA,NA,79.13978494623656,96.7741935483871
50662,Fayette County,IA,71.484375,NA,NA
50701,Black Hawk County,IA,NA,24.086021505376344,13.172043010752688
51031,Plymouth County,IA,NA,NA,52.68817204301075
51301,Clay County,IA,NA,NA,28.225806451612907
51501,Pottawattamie County,IA,4.6875,8.38709677419355,29.838709677419356
51503,Pottawattamie County,IA,38.28125,49.24731182795699,94.6236559139785
51534,Mills County,IA,NA,75.48387096774194,NA
51601,Page County,IA,71.875,NA,NA
52233,Linn County,IA,NA,91.61290322580645,NA
52353,Washington County,IA,NA,NA,62.903225806451616
52402,Linn County,IA,NA,64.94623655913978,NA
52404,Linn County,IA,13.671875,16.344086021505376,NA
52405,Linn County,IA,42.96875,42.365591397849464,NA
52632,Lee County,IA,NA,35.26881720430107,NA
52761,Muscatine County,IA,17.1875,NA,NA
66202,Johnson County,KS,78.515625,NA,NA
66614,Shawnee County,KS,41.015625,NA,NA
67871,Scott County,KS,NA,NA,66.39784946236558
40207,Jefferson County,KY,NA,NA,35.483870967741936
40208,Jefferson County,KY,58.203125,NA,NA
40213,Jefferson County,KY,41.40625,NA,NA
40218,Jefferson County,KY,NA,39.35483870967742,NA
40219,Jefferson County,KY,NA,NA,30.64516129032258
40220,Jefferson County,KY,NA,NA,21.774193548387096
40229,Jefferson County,KY,NA,87.52688172043011,NA
40272,Jefferson County,KY,19.921875,NA,NA
40291,Jefferson County,KY,23.4375,NA,NA
40312,Powell County,KY,82.421875,NA,NA
40360,Bath County,KY,NA,NA,88.97849462365592
40380,Powell County,KY,74.609375,78.27956989247312,NA
40391,Clark County,KY,NA,9.67741935483871,NA
40403,Madison County,KY,29.6875,NA,NA
40475,Madison County,KY,12.890625,7.956989247311828,NA
40517,Fayette County,KY,NA,41.72043010752688,NA
40744,Laurel County,KY,NA,57.41935483870968,NA
41005,Boone County,KY,NA,NA,64.51612903225806
41017,Kenton County,KY,NA,19.56989247311828,NA
41311,Lee County,KY,NA,83.65591397849462,NA
42001,McCracken County,KY,NA,NA,39.784946236559136
42066,Graves County,KY,NA,19.35483870967742,NA
42086,McCracken County,KY,95.703125,NA,NA
42134,Simpson County,KY,NA,NA,57.25806451612904
42431,Hopkins County,KY,NA,25.376344086021508,NA
42445,Caldwell County,KY,NA,68.60215053763442,NA
42717,Cumberland County,KY,NA,76.12903225806451,NA
42718,Taylor County,KY,NA,64.30107526881721,NA
70123,Jefferson Parish,LA,NA,17.634408602150536,NA
70127,Orleans Parish,LA,12.109375,NA,NA
70345,Lafourche Parish,LA,78.90625,NA,NA
70380,St. Mary Parish,LA,NA,29.89247311827957,NA
70448,St. Tammany Parish,LA,NA,28.817204301075268,NA
70663,Calcasieu Parish,LA,NA,20.21505376344086,NA
71037,Bossier Parish,LA,NA,NA,84.40860215053763
71105,Caddo Parish,LA,NA,NA,43.01075268817204
71107,Caddo Parish,LA,NA,18.494623655913976,NA
71108,Caddo Parish,LA,NA,41.50537634408602,NA
71111,Bossier Parish,LA,NA,11.827956989247312,NA
71118,Caddo Parish,LA,NA,NA,15.86021505376344
71328,Rapides Parish,LA,66.40625,NA,NA
71360,Rapides Parish,LA,NA,NA,27.956989247311824
71430,Rapides Parish,LA,100,NA,NA
71463,Allen Parish,LA,NA,89.89247311827957,NA
04002,York County,ME,NA,48.17204301075269,NA
04011,Cumberland County,ME,60.546875,NA,NA
20650,St. Mary's County,MD,NA,NA,75.26881720430107
20774,Prince George's County,MD,NA,NA,47.043010752688176
20814,Montgomery County,MD,79.6875,NA,NA
20815,Montgomery County,MD,NA,NA,40.59139784946236
20876,Montgomery County,MD,70.703125,NA,NA
20879,Montgomery County,MD,NA,91.18279569892474,NA
21113,Anne Arundel County,MD,64.0625,NA,NA
21223,Baltimore city,MD,NA,48.38709677419355,NA
21229,Baltimore city,MD,NA,NA,20.698924731182796
21701,Frederick County,MD,NA,62.1505376344086,41.935483870967744
21755,Frederick County,MD,NA,99.13978494623656,NA
21769,Frederick County,MD,93.75,NA,NA
01020,Hampden County,MA,NA,9.032258064516128,NA
01030,Hampden County,MA,57.8125,NA,NA
01085,Hampden County,MA,NA,97.84946236559139,5.913978494623656
01605,Worcester County,MA,NA,0.21505376344086022,NA
01701,Middlesex County,MA,16.796875,NA,NA
01841,Essex County,MA,0,NA,NA
01915,Essex County,MA,2.734375,NA,NA
01960,Essex County,MA,NA,NA,0
02126,Suffolk County,MA,NA,3.225806451612903,NA
02130,Suffolk County,MA,0.78125,NA,NA
02135,Suffolk County,MA,5.46875,NA,NA
02145,Middlesex County,MA,6.25,NA,NA
02170,Norfolk County,MA,NA,38.494623655913976,NA
02171,Norfolk County,MA,67.1875,NA,NA
02302,Plymouth County,MA,1.171875,NA,NA
02332,Plymouth County,MA,NA,90.10752688172043,NA
02347,Plymouth County,MA,76.171875,NA,NA
02360,Plymouth County,MA,23.046875,NA,NA
02639,Barnstable County,MA,87.890625,NA,NA
02649,Barnstable County,MA,NA,25.161290322580644,NA
48021,Macomb County,MI,16.40625,NA,NA
48026,Macomb County,MI,NA,41.075268817204304,NA
48111,Wayne County,MI,11.71875,NA,NA
48127,Wayne County,MI,NA,NA,5.64516129032258
48150,Wayne County,MI,NA,NA,50.53763440860215
48187,Wayne County,MI,NA,1.5053763440860215,NA
48189,Washtenaw County,MI,NA,NA,76.88172043010752
48195,Wayne County,MI,NA,7.311827956989248,NA
48219,Wayne County,MI,NA,1.935483870967742,NA
48221,Wayne County,MI,7.03125,NA,NA
48227,Wayne County,MI,4.296875,NA,24.731182795698924
48228,Wayne County,MI,NA,6.236559139784946,NA
48235,Wayne County,MI,3.125,NA,NA
48322,Oakland County,MI,NA,NA,3.225806451612903
48326,Oakland County,MI,NA,56.55913978494623,NA
48340,Oakland County,MI,NA,NA,34.13978494623656
48348,Oakland County,MI,NA,45.806451612903224,NA
48375,Oakland County,MI,NA,53.5483870967742,NA
48601,Saginaw County,MI,NA,2.5806451612903225,NA
48609,Saginaw County,MI,NA,65.80645161290323,NA
48623,Saginaw County,MI,47.265625,NA,NA
48817,Shiawassee County,MI,NA,NA,74.73118279569893
48836,Livingston County,MI,NA,55.26881720430108,NA
48837,Eaton County,MI,NA,32.903225806451616,NA
48849,Ionia County,MI,NA,96.34408602150538,NA
48858,Isabella County,MI,NA,NA,7.795698924731183
48875,Ionia County,MI,NA,NA,66.12903225806451
48911,Ingham County,MI,NA,NA,27.1505376344086
48917,Eaton County,MI,14.0625,NA,9.408602150537634
49009,Kalamazoo County,MI,18.359375,NA,NA
49010,Allegan County,MI,NA,NA,53.494623655913976
49058,Barry County,MI,36.328125,NA,NA
49221,Lenawee County,MI,NA,NA,60.752688172043015
49315,Kent County,MI,53.515625,NA,NA
49323,Allegan County,MI,NA,93.54838709677419,NA
49345,Kent County,MI,NA,58.06451612903226,NA
49348,Allegan County,MI,NA,NA,80.64516129032258
49424,Ottawa County,MI,NA,10.10752688172043,NA
49426,Ottawa County,MI,43.359375,NA,NA
49445,Muskegon County,MI,NA,NA,25.537634408602152
49460,Ottawa County,MI,NA,81.72043010752688,NA
49504,Kent County,MI,NA,70.53763440860214,NA
49508,Kent County,MI,NA,NA,7.526881720430108
49509,Kent County,MI,NA,15.698924731182796,NA
49525,Kent County,MI,NA,NA,38.97849462365591
49534,Kent County,MI,64.453125,NA,NA
49548,Kent County,MI,NA,11.612903225806452,NA
49690,Grand Traverse County,MI,NA,NA,80.10752688172043
49738,Crawford County,MI,77.734375,NA,NA
49841,Marquette County,MI,NA,78.49462365591397,NA
55082,Washington County,MN,NA,23.870967741935484,NA
55101,Ramsey County,MN,NA,NA,98.38709677419355
55124,Dakota County,MN,NA,39.784946236559136,50
55125,Washington County,MN,NA,51.3978494623656,NA
55313,Wright County,MN,61.71875,NA,72.04301075268818
55330,Sherburne County,MN,NA,NA,53.76344086021505
55343,Hennepin County,MN,NA,NA,44.086021505376344
55347,Hennepin County,MN,69.53125,NA,NA
55371,Mille Lacs County,MN,58.984375,NA,NA
55403,Hennepin County,MN,30.859375,NA,NA
55408,Hennepin County,MN,NA,41.075268817204304,NA
55448,Anoka County,MN,44.140625,NA,NA
55449,Anoka County,MN,NA,73.11827956989248,NA
55720,Carlton County,MN,37.109375,NA,NA
55731,St. Louis County,MN,NA,NA,94.35483870967742
56320,Stearns County,MN,NA,91.39784946236558,NA
56347,Todd County,MN,NA,85.80645161290322,83.06451612903226
56352,Stearns County,MN,NA,NA,95.96774193548387
56362,Stearns County,MN,NA,93.97849462365592,56.72043010752689
56387,Stearns County,MN,NA,NA,83.33333333333334
56560,Clay County,MN,NA,3.4408602150537635,NA
56601,Beltrami County,MN,NA,0.6451612903225806,NA
39090,Attala County,MS,NA,68.17204301075269,NA
39157,Madison County,MS,NA,83.01075268817203,NA
39170,Hinds County,MS,NA,92.04301075268818,NA
39203,Hinds County,MS,84.765625,NA,NA
39209,Hinds County,MS,31.25,NA,NA
39437,Jones County,MS,NA,NA,73.38709677419355
39503,Harrison County,MS,NA,2.795698924731183,NA
39531,Harrison County,MS,NA,45.16129032258064,NA
39565,Jackson County,MS,NA,NA,78.2258064516129
63010,Jefferson County,MO,NA,NA,19.35483870967742
63011,St. Louis County,MO,NA,NA,3.763440860215054
63016,Jefferson County,MO,NA,90.53763440860216,NA
63021,St. Louis County,MO,NA,8.172043010752688,NA
63025,St. Louis County,MO,NA,75.26881720430107,NA
63026,St. Louis County,MO,NA,45.59139784946237,NA
63049,Jefferson County,MO,NA,67.74193548387096,NA
63080,Franklin County,MO,51.953125,NA,NA
63089,Franklin County,MO,NA,NA,96.50537634408603
63105,St. Louis County,MO,NA,82.58064516129032,NA
63110,St. Louis city,MO,NA,NA,77.41935483870968
63114,St. Louis County,MO,NA,NA,39.247311827956985
63123,St. Louis County,MO,NA,12.258064516129032,NA
63124,St. Louis County,MO,NA,80.64516129032258,NA
63128,St. Louis County,MO,NA,20.43010752688172,NA
63129,St. Louis County,MO,NA,6.021505376344086,41.12903225806452
63301,St. Charles County,MO,NA,NA,1.881720430107527
63303,St. Charles County,MO,NA,8.817204301075268,NA
63379,Lincoln County,MO,NA,NA,32.526881720430104
63601,St. Francois County,MO,47.265625,NA,NA
63628,St. Francois County,MO,NA,NA,70.96774193548387
63640,St. Francois County,MO,NA,35.483870967741936,88.17204301075269
63664,Washington County,MO,NA,NA,68.27956989247312
63701,Cape Girardeau County,MO,42.578125,39.56989247311828,NA
63825,Stoddard County,MO,NA,NA,88.44086021505376
63841,Stoddard County,MO,80.859375,NA,NA
63851,Pemiscot County,MO,NA,NA,98.65591397849462
63876,Dunklin County,MO,NA,99.35483870967742,NA
64015,Jackson County,MO,NA,15.053763440860216,NA
64055,Jackson County,MO,12.5,NA,11.29032258064516
64057,Jackson County,MO,46.875,NA,NA
64060,Clay County,MO,52.734375,NA,NA
64068,Clay County,MO,NA,NA,36.55913978494624
64124,Jackson County,MO,75,NA,NA
64468,Nodaway County,MO,NA,NA,62.903225806451616
64506,Buchanan County,MO,25,NA,NA
64735,Henry County,MO,38.671875,NA,NA
64801,Jasper County,MO,NA,NA,13.440860215053762
64804,Jasper County,MO,NA,NA,8.870967741935484
64850,Newton County,MO,NA,20,NA
64870,Jasper County,MO,NA,61.0752688172043,NA
65201,Boone County,MO,NA,65.16129032258064,NA
65301,Pettis County,MO,NA,6.451612903225806,NA
65340,Saline County,MO,NA,63.2258064516129,NA
65441,Crawford County,MO,96.09375,NA,NA
65536,Laclede County,MO,NA,NA,26.881720430107524
65653,Taney County,MO,NA,NA,86.02150537634408
65656,Stone County,MO,NA,94.19354838709677,NA
59230,Valley County,MT,96.875,NA,NA
59404,Cascade County,MT,51.953125,NA,10.483870967741936
59601,Lewis and Clark County,MT,NA,16.7741935483871,NA
59602,Lewis and Clark County,MT,NA,NA,35.752688172043015
59715,Gallatin County,MT,NA,NA,20.43010752688172
59901,Flathead County,MT,NA,2.1505376344086025,NA
59911,Flathead County,MT,NA,NA,58.06451612903226
68022,Douglas County,NE,77.34375,NA,60.215053763440864
68046,Sarpy County,NE,NA,94.6236559139785,NA
68104,Douglas County,NE,NA,72.68817204301075,NA
68106,Douglas County,NE,NA,79.56989247311827,NA
68107,Douglas County,NE,NA,57.8494623655914,NA
68112,Douglas County,NE,NA,98.49462365591398,NA
68114,Douglas County,NE,NA,81.0752688172043,50.53763440860215
68122,Douglas County,NE,NA,92.90322580645162,NA
68124,Douglas County,NE,NA,NA,97.58064516129032
68128,Sarpy County,NE,NA,75.6989247311828,NA
68130,Douglas County,NE,NA,NA,83.87096774193549
68144,Douglas County,NE,NA,NA,42.74193548387097
68154,Douglas County,NE,NA,50.32258064516129,NA
68410,Otoe County,NE,NA,80.86021505376344,NA
68467,York County,NE,89.0625,68.38709677419355,NA
68506,Lancaster County,NE,NA,50.752688172043015,NA
69301,Box Butte County,NE,72.265625,NA,NA
89108,Clark County,NV,NA,NA,32.795698924731184
89406,Churchill County,NV,NA,29.462365591397848,NA
89512,Washoe County,NV,NA,47.74193548387097,NA
03079,Rockingham County,NH,NA,16.559139784946236,NA
03103,Hillsborough County,NH,NA,7.526881720430108,NA
03104,Hillsborough County,NH,NA,11.397849462365592,NA
03303,Merrimack County,NH,73.4375,NA,NA
03820,Strafford County,NH,NA,38.924731182795696,NA
07032,Hudson County,NJ,NA,NA,70.16129032258065
07071,Bergen County,NJ,NA,NA,74.19354838709677
08087,Ocean County,NJ,NA,NA,11.559139784946236
08221,Atlantic County,NJ,88.28125,NA,NA
08332,Cumberland County,NJ,1.953125,NA,NA
87121,Bernalillo County,NM,NA,NA,26.0752688172043
87420,San Juan County,NM,NA,NA,54.56989247311827
88240,Lea County,NM,9.375,NA,NA
88310,Otero County,NM,NA,3.655913978494624,NA
10001,New York County,NY,18.75,NA,NA
10029,New York County,NY,6.640625,NA,NA
10467,Bronx County,NY,NA,NA,0.8064516129032258
10473,Bronx County,NY,NA,NA,7.258064516129033
10591,Westchester County,NY,67.96875,NA,NA
10708,Westchester County,NY,NA,NA,45.69892473118279
11218,Kings County,NY,NA,NA,5.10752688172043
11360,Queens County,NY,NA,82.15053763440861,NA
12304,Schenectady County,NY,35.546875,NA,NA
12401,Ulster County,NY,27.34375,NA,NA
13045,Cortland County,NY,5.078125,NA,NA
13057,Onondaga County,NY,55.46875,NA,NA
13135,Oswego County,NY,NA,NA,99.46236559139786
13606,Jefferson County,NY,97.265625,NA,NA
13669,St. Lawrence County,NY,29.296875,NA,NA
13754,Broome County,NY,73.828125,NA,NA
13827,Tioga County,NY,NA,33.5483870967742,56.18279569892473
14477,Orleans County,NY,98.046875,NA,NA
14522,Wayne County,NY,NA,26.236559139784948,NA
14623,Monroe County,NY,22.65625,NA,NA
27127,Forsyth County,NC,NA,3.870967741935484,NA
27253,Alamance County,NC,NA,NA,28.763440860215056
27263,Randolph County,NC,NA,56.344086021505376,NA
27370,Randolph County,NC,74.21875,NA,NA
27511,Wake County,NC,NA,NA,35.752688172043015
27514,Orange County,NC,NA,NA,76.34408602150538
27527,Johnston County,NC,NA,83.01075268817203,NA
27591,Wake County,NC,NA,NA,69.6236559139785
27615,Wake County,NC,NA,10.967741935483872,NA
27834,Pitt County,NC,NA,13.978494623655912,NA
27886,Edgecombe County,NC,NA,44.3010752688172,NA
28001,Stanly County,NC,NA,NA,57.52688172043011
28092,Lincoln County,NC,29.6875,NA,NA
28112,Union County,NC,NA,NA,33.60215053763441
28128,Stanly County,NC,NA,NA,90.86021505376344
28129,Stanly County,NC,NA,NA,87.09677419354838
28216,Mecklenburg County,NC,14.453125,NA,NA
28227,Mecklenburg County,NC,NA,15.483870967741936,NA
28337,Bladen County,NC,NA,NA,85.48387096774194
28364,Robeson County,NC,50.390625,NA,NA
28469,Brunswick County,NC,91.796875,NA,NA
28601,Catawba County,NC,20.703125,6.881720430107527,NA
28655,Burke County,NC,7.421875,3.010752688172043,NA
28752,McDowell County,NC,NA,NA,26.61290322580645
28791,Henderson County,NC,NA,NA,11.827956989247312
43050,Knox County,OH,NA,NA,6.182795698924731
43055,Licking County,OH,NA,0.43010752688172044,NA
43078,Champaign County,OH,NA,38.27956989247312,NA
43113,Pickaway County,OH,NA,NA,37.365591397849464
43119,Franklin County,OH,NA,50.967741935483865,NA
43143,Madison County,OH,NA,NA,87.63440860215054
43160,Fayette County,OH,19.53125,NA,NA
43223,Franklin County,OH,8.59375,NA,NA
43229,Franklin County,OH,NA,NA,19.892473118279568
43235,Franklin County,OH,NA,NA,29.03225806451613
43452,Ottawa County,OH,NA,32.25806451612903,NA
43551,Wood County,OH,NA,NA,10.21505376344086
43560,Lucas County,OH,NA,12.688172043010754,NA
43566,Lucas County,OH,NA,86.23655913978494,NA
43605,Lucas County,OH,3.515625,NA,NA
43607,Lucas County,OH,8.984375,NA,NA
43610,Lucas County,OH,68.75,NA,NA
43611,Lucas County,OH,20.3125,27.956989247311824,NA
43701,Muskingum County,OH,0.390625,NA,NA
44035,Lorain County,OH,NA,0,NA
44060,Lake County,OH,10.9375,NA,NA
44072,Geauga County,OH,NA,NA,84.94623655913979
44087,Summit County,OH,NA,13.118279569892474,NA
44104,Cuyahoga County,OH,NA,18.064516129032256,NA
44109,Cuyahoga County,OH,NA,12.903225806451612,NA
44131,Cuyahoga County,OH,NA,NA,4.301075268817205
44138,Cuyahoga County,OH,NA,NA,23.118279569892472
44145,Cuyahoga County,OH,NA,NA,2.956989247311828
44203,Summit County,OH,9.765625,NA,5.376344086021505
44224,Summit County,OH,NA,NA,8.064516129032258
44240,Portage County,OH,NA,76.55913978494624,NA
44278,Summit County,OH,NA,NA,46.50537634408602
44281,Medina County,OH,NA,10.75268817204301,NA
44320,Summit County,OH,NA,NA,22.311827956989248
44420,Trumbull County,OH,42.1875,NA,NA
44444,Trumbull County,OH,59.375,NA,NA
44446,Trumbull County,OH,NA,NA,13.709677419354838
44484,Trumbull County,OH,NA,NA,15.591397849462366
44502,Mahoning County,OH,44.921875,NA,NA
44515,Mahoning County,OH,NA,78.06451612903226,NA
44657,Stark County,OH,NA,89.6774193548387,NA
44710,Stark County,OH,NA,NA,72.84946236559139
44883,Seneca County,OH,23.4375,NA,NA
44903,Richland County,OH,NA,17.419354838709676,NA
45013,Butler County,OH,NA,2.3655913978494625,NA
45014,Butler County,OH,NA,NA,59.67741935483871
45015,Butler County,OH,NA,70.3225806451613,NA
45030,Hamilton County,OH,62.5,NA,NA
45040,Warren County,OH,NA,34.623655913978496,NA
45044,Butler County,OH,NA,10.32258064516129,NA
45121,Brown County,OH,NA,NA,87.36559139784946
45216,Hamilton County,OH,NA,NA,93.27956989247312
45229,Hamilton County,OH,NA,30.53763440860215,NA
45230,Hamilton County,OH,NA,50.53763440860215,NA
45231,Hamilton County,OH,NA,NA,9.946236559139784
45240,Hamilton County,OH,32.421875,NA,NA
45251,Hamilton County,OH,NA,62.795698924731184,NA
45323,Clark County,OH,NA,92.04301075268818,NA
45410,Montgomery County,OH,NA,66.45161290322581,NA
45601,Ross County,OH,7.8125,NA,NA
45640,Jackson County,OH,11.328125,NA,NA
45662,Scioto County,OH,NA,1.0752688172043012,2.4193548387096775
45690,Pike County,OH,NA,NA,25.806451612903224
45692,Jackson County,OH,NA,33.11827956989247,NA
45750,Washington County,OH,2.34375,NA,1.0752688172043012
45827,Putnam County,OH,98.4375,NA,NA
45840,Hancock County,OH,3.90625,1.7204301075268817,NA
73003,Oklahoma County,OK,NA,NA,48.11827956989247
73026,Cleveland County,OK,NA,77.63440860215054,NA
73034,Oklahoma County,OK,NA,12.043010752688172,NA
73036,Canadian County,OK,NA,NA,65.59139784946237
73127,Oklahoma County,OK,58.59375,NA,NA
73439,Marshall County,OK,75.78125,NA,NA
73533,Stephens County,OK,28.90625,9.46236559139785,NA
74008,Tulsa County,OK,NA,52.903225806451616,NA
74017,Rogers County,OK,48.046875,NA,NA
74055,Tulsa County,OK,NA,27.311827956989248,NA
74107,Tulsa County,OK,NA,73.76344086021506,NA
74128,Tulsa County,OK,NA,NA,97.31182795698925
74135,Tulsa County,OK,NA,NA,36.29032258064516
74137,Tulsa County,OK,NA,86.45161290322581,NA
74601,Kay County,OK,NA,NA,77.68817204301075
74948,Sequoyah County,OK,NA,80.21505376344086,NA
97034,Clackamas County,OR,83.203125,NA,NA
97051,Columbia County,OR,NA,77.41935483870968,NA
97123,Washington County,OR,NA,NA,63.97849462365591
97128,Yamhill County,OR,NA,26.881720430107524,NA
97140,Washington County,OR,NA,89.24731182795699,NA
97201,Multnomah County,OR,91.40625,NA,NA
97209,Multnomah County,OR,NA,64.73118279569893,NA
97217,Multnomah County,OR,NA,49.03225806451613,NA
97230,Multnomah County,OR,NA,NA,10.75268817204301
97302,Marion County,OR,NA,NA,69.89247311827957
97330,Benton County,OR,NA,24.516129032258064,NA
97367,Lincoln County,OR,NA,32.043010752688176,NA
97457,Douglas County,OR,92.96875,NA,NA
97501,Jackson County,OR,NA,NA,29.301075268817208
97527,Josephine County,OR,NA,NA,22.043010752688172
97741,Jefferson County,OR,NA,73.9784946236559,NA
97814,Baker County,OR,NA,43.87096774193549,NA
15066,Beaver County,PA,NA,NA,89.78494623655914
15068,Westmoreland County,PA,NA,NA,2.6881720430107525
15106,Allegheny County,PA,NA,NA,68.01075268817203
15108,Allegheny County,PA,NA,54.19354838709678,NA
15122,Allegheny County,PA,NA,NA,17.473118279569892
15236,Allegheny County,PA,NA,NA,8.60215053763441
15801,Clearfield County,PA,NA,5.591397849462366,NA
15853,Elk County,PA,NA,58.49462365591398,NA
16438,Erie County,PA,NA,72.47311827956989,NA
16505,Erie County,PA,NA,58.70967741935483,NA
16510,Erie County,PA,NA,42.1505376344086,NA
17011,Cumberland County,PA,33.203125,NA,NA
17104,Dauphin County,PA,NA,36.774193548387096,NA
17402,York County,PA,NA,7.096774193548387,NA
17408,York County,PA,NA,13.548387096774196,NA
18062,Lehigh County,PA,51.171875,NA,NA
18634,Luzerne County,PA,46.484375,NA,NA
18969,Montgomery County,PA,NA,73.33333333333333,NA
18976,Bucks County,PA,NA,44.73118279569893,NA
19020,Bucks County,PA,NA,NA,47.31182795698925
19056,Bucks County,PA,NA,NA,79.83870967741935
19124,Philadelphia County,PA,1.5625,NA,NA
19131,Philadelphia County,PA,NA,NA,39.516129032258064
19355,Chester County,PA,NA,41.935483870967744,NA
19555,Berks County,PA,NA,97.20430107526882,NA
02888,Kent County,RI,NA,NA,80.3763440860215
29078,Kershaw County,SC,NA,NA,82.79569892473118
29164,Aiken County,SC,NA,NA,98.9247311827957
29360,Laurens County,SC,43.359375,NA,NA
29369,Spartanburg County,SC,72.65625,NA,NA
29466,Charleston County,SC,55.859375,NA,NA
29486,Berkeley County,SC,NA,NA,76.0752688172043
29544,Horry County,SC,92.578125,NA,NA
29556,Williamsburg County,SC,NA,NA,75
29568,Horry County,SC,NA,65.3763440860215,NA
29646,Greenwood County,SC,48.828125,47.31182795698925,NA
29649,Greenwood County,SC,68.359375,98.06451612903226,12.903225806451612
29653,Greenwood County,SC,94.140625,NA,NA
29671,Pickens County,SC,56.25,NA,NA
29745,York County,SC,NA,54.623655913978496,NA
29803,Aiken County,SC,NA,NA,16.666666666666664
29835,McCormick County,SC,93.359375,NA,NA
57042,Lake County,SD,NA,NA,42.204301075268816
57104,Minnehaha County,SD,35.15625,5.376344086021505,NA
57106,Minnehaha County,SD,30.46875,NA,3.494623655913978
57350,Beadle County,SD,NA,72.04301075268818,NA
37013,Davidson County,TN,16.015625,15.268817204301074,NA
37058,Stewart County,TN,89.84375,88.17204301075269,NA
37072,Davidson County,TN,36.71875,NA,NA
37087,Wilson County,TN,NA,23.225806451612904,NA
37115,Davidson County,TN,NA,21.72043010752688,NA
37167,Rutherford County,TN,NA,63.655913978494624,37.096774193548384
37206,Davidson County,TN,39.0625,NA,NA
37207,Davidson County,TN,17.96875,NA,NA
37211,Davidson County,TN,NA,18.27956989247312,NA
37341,Hamilton County,TN,NA,81.29032258064515,NA
37354,Monroe County,TN,NA,NA,53.2258064516129
37411,Hamilton County,TN,NA,62.1505376344086,NA
37412,Hamilton County,TN,NA,NA,58.602150537634415
37421,Hamilton County,TN,NA,27.741935483870968,NA
37604,Washington County,TN,NA,18.9247311827957,NA
37615,Washington County,TN,NA,60.43010752688171,NA
37617,Sullivan County,TN,NA,66.88172043010752,NA
37641,Greene County,TN,NA,59.78494623655914,NA
37721,Knox County,TN,70.3125,NA,NA
37722,Cocke County,TN,NA,87.09677419354838,NA
37725,Jefferson County,TN,NA,60,NA
37766,Campbell County,TN,NA,23.225806451612904,NA
37804,Blount County,TN,NA,16.989247311827956,NA
37807,Union County,TN,NA,NA,84.13978494623656
37821,Cocke County,TN,NA,28.602150537634408,NA
37912,Knox County,TN,NA,56.98924731182796,87.90322580645162
37917,Knox County,TN,NA,21.29032258064516,NA
38024,Dyer County,TN,32.03125,NA,NA
38301,Madison County,TN,15.625,NA,NA
38305,Madison County,TN,14.84375,NA,NA
38464,Lawrence County,TN,NA,30.32258064516129,NA
38544,Putnam County,TN,86.71875,NA,NA
75002,Collin County,TX,NA,NA,45.43010752688172
75007,Denton County,TX,NA,63.44086021505376,34.13978494623656
75019,Dallas County,TX,NA,NA,81.18279569892472
75028,Denton County,TX,NA,37.204301075268816,NA
75056,Denton County,TX,NA,31.61290322580645,NA
75057,Denton County,TX,NA,88.38709677419355,NA
75060,Dallas County,TX,NA,40,NA
75062,Dallas County,TX,NA,NA,44.623655913978496
75070,Collin County,TX,NA,40.86021505376344,NA
75075,Collin County,TX,NA,32.68817204301075,NA
75093,Collin County,TX,NA,31.182795698924732,NA
75098,Collin County,TX,NA,36.12903225806451,NA
75104,Dallas County,TX,NA,82.79569892473118,NA
75154,Ellis County,TX,48.828125,NA,NA
75219,Dallas County,TX,NA,NA,44.89247311827957
75230,Dallas County,TX,NA,47.52688172043011,NA
75232,Dallas County,TX,NA,NA,62.096774193548384
75243,Dallas County,TX,NA,44.086021505376344,NA
75407,Collin County,TX,NA,71.82795698924731,NA
75410,Wood County,TX,89.453125,NA,NA
75482,Hopkins County,TX,NA,56.98924731182796,NA
75605,Gregg County,TX,NA,38.064516129032256,NA
75662,Gregg County,TX,NA,33.33333333333333,NA
75672,Harrison County,TX,85.546875,NA,NA
76011,Tarrant County,TX,61.328125,NA,NA
76021,Tarrant County,TX,39.84375,NA,NA
76040,Tarrant County,TX,NA,NA,86.02150537634408
76052,Tarrant County,TX,NA,87.95698924731182,NA
76054,Tarrant County,TX,NA,78.49462365591397,NA
76073,Wise County,TX,NA,98.9247311827957,NA
76078,Wise County,TX,NA,97.41935483870968,NA
76092,Tarrant County,TX,NA,63.87096774193548,NA
76133,Tarrant County,TX,25,NA,23.655913978494624
76182,Tarrant County,TX,NA,NA,58.333333333333336
76207,Denton County,TX,NA,85.59139784946237,NA
76230,Montague County,TX,NA,75.05376344086021,NA
76234,Wise County,TX,NA,61.0752688172043,NA
76240,Cooke County,TX,NA,34.83870967741935,NA
76401,Erath County,TX,NA,52.04301075268817,84.67741935483872
76543,Bell County,TX,33.984375,NA,NA
76548,Bell County,TX,NA,15.913978494623656,NA
76692,Hill County,TX,NA,NA,63.70967741935484
76707,McLennan County,TX,73.046875,NA,NA
77015,Harris County,TX,NA,46.45161290322581,NA
77016,Harris County,TX,NA,38.70967741935484,NA
77017,Harris County,TX,NA,NA,73.65591397849462
77047,Harris County,TX,NA,76.34408602150538,NA
77070,Harris County,TX,NA,NA,33.064516129032256
77077,Harris County,TX,NA,NA,37.634408602150536
77085,Harris County,TX,NA,NA,98.11827956989248
77092,Harris County,TX,NA,67.52688172043011,NA
77095,Harris County,TX,NA,10.53763440860215,NA
77340,Walker County,TX,85.9375,NA,NA
77377,Harris County,TX,NA,55.6989247311828,NA
77378,Montgomery County,TX,NA,88.81720430107526,NA
77382,Montgomery County,TX,67.578125,NA,NA
77388,Harris County,TX,NA,34.193548387096776,NA
77429,Harris County,TX,NA,NA,23.9247311827957
77441,Fort Bend County,TX,NA,83.87096774193549,NA
77478,Fort Bend County,TX,NA,49.89247311827957,NA
77571,Harris County,TX,NA,NA,55.64516129032258
77611,Orange County,TX,NA,NA,92.74193548387096
78006,Kendall County,TX,NA,58.924731182795696,NA
78043,Webb County,TX,NA,NA,29.56989247311828
78065,Atascosa County,TX,NA,77.20430107526882,NA
78148,Bexar County,TX,NA,95.91397849462365,NA
78223,Bexar County,TX,25.78125,NA,NA
78239,Bexar County,TX,66.796875,NA,NA
78250,Bexar County,TX,NA,NA,78.49462365591397
78251,Bexar County,TX,NA,79.78494623655914,NA
78537,Hidalgo County,TX,NA,NA,61.02150537634409
78538,Hidalgo County,TX,NA,96.12903225806451,NA
78541,Hidalgo County,TX,57.03125,NA,55.64516129032258
78578,Cameron County,TX,NA,91.82795698924731,NA
78611,Burnet County,TX,NA,NA,14.516129032258066
78626,Williamson County,TX,NA,47.74193548387097,NA
78727,Travis County,TX,NA,92.68817204301075,NA
79347,Bailey County,TX,NA,86.66666666666667,NA
79424,Lubbock County,TX,32.8125,NA,NA
79830,Brewster County,TX,NA,98.70967741935483,NA
79912,El Paso County,TX,NA,34.40860215053764,NA
79924,El Paso County,TX,NA,26.021505376344084,NA
79925,El Paso County,TX,NA,82.36559139784946,NA
79927,El Paso County,TX,NA,NA,68.81720430107528
84010,Davis County,UT,NA,NA,24.193548387096776
84115,Salt Lake County,UT,NA,33.97849462365591,NA
84120,Salt Lake County,UT,NA,18.70967741935484,NA
84128,Salt Lake County,UT,NA,71.3978494623656,NA
84129,,UT,NA,28.387096774193548,NA
84721,Iron County,UT,NA,69.89247311827957,82.52688172043011
84765,Washington County,UT,94.53125,NA,NA
84770,Washington County,UT,NA,NA,33.33333333333333
84780,Washington County,UT,NA,48.817204301075265,NA
84790,Washington County,UT,NA,11.182795698924732,4.032258064516129
05753,Addison County,VT,NA,75.91397849462366,NA
05819,Caledonia County,VT,NA,76.98924731182795,NA
05855,Orleans County,VT,87.109375,NA,NA
20111,Prince William County,VA,NA,74.40860215053763,NA
20112,Prince William County,VA,NA,NA,94.08602150537635
20155,Prince William County,VA,NA,NA,57.795698924731184
22025,Prince William County,VA,NA,80.43010752688173,NA
22033,Fairfax County,VA,66.015625,NA,NA
22150,Fairfax County,VA,60.9375,NA,NA
22152,Fairfax County,VA,62.109375,NA,NA
22192,Prince William County,VA,NA,NA,46.774193548387096
22308,Fairfax County,VA,NA,84.08602150537634,NA
22642,Warren County,VA,94.921875,NA,NA
22801,Harrisonburg city,VA,NA,35.053763440860216,22.58064516129032
22812,Rockingham County,VA,NA,NA,66.93548387096774
22815,Rockingham County,VA,NA,69.6774193548387,61.02150537634409
22902,Charlottesville city,VA,NA,32.47311827956989,NA
23059,Henrico County,VA,NA,NA,65.32258064516128
23103,Goochland County,VA,NA,93.76344086021506,NA
23185,James City County,VA,NA,22.795698924731184,6.451612903225806
23188,James City County,VA,48.828125,1.2903225806451613,NA
23228,Henrico County,VA,56.640625,NA,NA
23322,Chesapeake city,VA,NA,60.86021505376345,14.78494623655914
23323,Chesapeake city,VA,NA,33.763440860215056,NA
23325,Chesapeake city,VA,NA,65.59139784946237,NA
23421,Accomack County,VA,NA,NA,99.73118279569893
23434,Suffolk city,VA,21.875,NA,NA
23435,Suffolk city,VA,NA,NA,55.376344086021504
23452,Virginia Beach city,VA,NA,NA,36.82795698924731
23453,Virginia Beach city,VA,NA,35.6989247311828,NA
23454,Virginia Beach city,VA,NA,9.247311827956988,NA
23456,Virginia Beach city,VA,NA,NA,11.021505376344086
23462,Virginia Beach city,VA,24.21875,40.43010752688172,NA
23464,Virginia Beach city,VA,NA,20.64516129032258,1.6129032258064515
23503,Norfolk city,VA,NA,NA,68.54838709677419
23504,Norfolk city,VA,NA,56.12903225806451,54.03225806451613
23505,Norfolk city,VA,NA,NA,32.25806451612903
23518,Norfolk city,VA,45.3125,68.81720430107528,NA
23601,Newport News city,VA,NA,NA,27.419354838709676
23602,Newport News city,VA,NA,26.666666666666668,8.333333333333332
23662,Poquoson city,VA,NA,NA,59.40860215053764
23693,York County,VA,NA,70.96774193548387,NA
23703,Portsmouth city,VA,NA,NA,33.87096774193548
23704,Portsmouth city,VA,34.765625,NA,NA
23803,Petersburg city,VA,NA,13.333333333333334,NA
23851,Franklin city,VA,NA,53.333333333333336,NA
23860,Hopewell city,VA,NA,25.806451612903224,NA
24017,Roanoke city,VA,NA,NA,70.6989247311828
24060,Montgomery County,VA,NA,NA,62.365591397849464
24073,Montgomery County,VA,NA,84.3010752688172,NA
24175,Botetourt County,VA,NA,NA,90.32258064516128
24210,Washington County,VA,NA,NA,45.96774193548387
24228,Dickenson County,VA,NA,53.118279569892465,NA
24244,Scott County,VA,NA,NA,92.47311827956989
24361,Washington County,VA,NA,96.7741935483871,NA
24370,Smyth County,VA,NA,62.58064516129033,NA
98023,King County,WA,NA,NA,25
98026,Snohomish County,WA,82.03125,NA,NA
98047,King County,WA,NA,99.78494623655914,NA
98166,King County,WA,NA,NA,99.19354838709677
98349,Pierce County,WA,NA,NA,95.43010752688173
98404,Pierce County,WA,37.890625,NA,NA
98499,Pierce County,WA,NA,NA,48.924731182795696
98550,Grays Harbor County,WA,NA,76.77419354838709,91.66666666666666
98823,Grant County,WA,NA,NA,85.21505376344086
98901,Yakima County,WA,NA,NA,42.473118279569896
98942,Yakima County,WA,NA,67.95698924731182,NA
98944,Yakima County,WA,NA,NA,66.39784946236558
99301,Franklin County,WA,NA,5.806451612903226,NA
99328,Columbia County,WA,98.828125,NA,NA
20009,District of Columbia,DC,NA,NA,77.15053763440861
20015,District of Columbia,DC,NA,85.16129032258064,73.9247311827957
20020,District of Columbia,DC,NA,4.946236559139785,NA
25425,Jefferson County,WV,NA,90.96774193548387,NA
26105,Wood County,WV,NA,NA,26.344086021505376
26181,Wood County,WV,NA,NA,88.70967741935483
53027,Washington County,WI,69.921875,NA,NA
53051,Waukesha County,WI,50,NA,NA
53089,Waukesha County,WI,NA,74.6236559139785,NA
53095,Washington County,WI,NA,17.20430107526882,NA
53144,Kenosha County,WI,22.265625,NA,NA
53181,Kenosha County,WI,NA,NA,97.84946236559139
53206,Milwaukee County,WI,15.234375,NA,NA
53209,Milwaukee County,WI,NA,0.8602150537634409,NA
53216,Milwaukee County,WI,10.546875,NA,NA
53402,Racine County,WI,8.203125,NA,NA
53532,Dane County,WI,71.09375,NA,NA
53576,Rock County,WI,NA,99.56989247311829,NA
54216,Kewaunee County,WI,NA,96.55913978494624,NA
54235,Door County,WI,65.625,NA,NA
54313,Brown County,WI,NA,NA,28.49462365591398
54401,Marathon County,WI,NA,NA,15.32258064516129
54457,Wood County,WI,NA,63.01075268817205,NA
54481,Portage County,WI,NA,NA,6.989247311827956
82414,Park County,WY,NA,NA,41.66666666666667
