ZipCode,county,state,Adult,Retirement
35055,Cullman County,AL,52.63157894736842,NA
35068,Jefferson County,AL,NA,87.09677419354838
35405,Tuscaloosa County,AL,NA,11.981566820276496
35674,Colbert County,AL,NA,46.54377880184332
35810,Madison County,AL,29.82456140350877,NA
35953,St. Clair County,AL,NA,85.71428571428571
36744,Hale County,AL,NA,98.61751152073732
99645,Matanuska-Susitna Borough,AK,NA,64.0552995391705
85028,Maricopa County,AZ,73.09941520467837,NA
85251,Maricopa County,AZ,38.59649122807017,NA
85282,Maricopa County,AZ,NA,42.857142857142854
85901,Navajo County,AZ,NA,23.502304147465438
85929,Navajo County,AZ,79.53216374269006,NA
71953,Polk County,AR,NA,50.69124423963134
72301,Crittenden County,AR,76.0233918128655,NA
72634,Marion County,AR,NA,97.6958525345622
90024,Los Angeles County,CA,74.26900584795322,NA
90605,Los Angeles County,CA,NA,91.70506912442397
90744,Los Angeles County,CA,NA,55.76036866359447
91362,Ventura County,CA,NA,40.09216589861751
91724,Los Angeles County,CA,67.83625730994152,NA
92115,San Diego County,CA,30.994152046783626,NA
92240,Riverside County,CA,20.46783625730994,NA
92501,Riverside County,CA,73.68421052631578,NA
92504,Riverside County,CA,NA,52.07373271889401
92507,Riverside County,CA,42.10526315789473,NA
92653,Orange County,CA,70.17543859649122,50.23041474654379
92821,Orange County,CA,NA,47.004608294930875
93305,Kern County,CA,NA,54.83870967741935
93711,Fresno County,CA,NA,35.944700460829495
94507,Contra Costa County,CA,NA,86.17511520737328
94583,Contra Costa County,CA,NA,58.986175115207374
94707,Alameda County,CA,NA,84.7926267281106
95014,Santa Clara County,CA,NA,81.5668202764977
95020,Santa Clara County,CA,NA,29.953917050691242
95120,Santa Clara County,CA,NA,49.30875576036866
95126,Santa Clara County,CA,NA,75.11520737327189
95327,Tuolumne County,CA,96.49122807017544,NA
95337,San Joaquin County,CA,NA,69.12442396313364
95370,Tuolumne County,CA,NA,43.77880184331797
95437,Mendocino County,CA,NA,39.1705069124424
95472,Sonoma County,CA,NA,56.68202764976959
95688,Solano County,CA,59.64912280701754,NA
95757,Sacramento County,CA,NA,55.29953917050692
95821,Sacramento County,CA,NA,27.64976958525346
95926,Butte County,CA,NA,22.119815668202765
96101,Modoc County,CA,NA,82.94930875576037
80016,Arapahoe County,CO,NA,16.129032258064516
80026,Boulder County,CO,58.47953216374269,NA
80233,Adams County,CO,26.900584795321635,NA
80513,Larimer County,CO,71.34502923976608,NA
80526,Larimer County,CO,62.57309941520468,NA
80634,Weld County,CO,2.923976608187134,NA
80906,El Paso County,CO,NA,37.78801843317972
81004,Pueblo County,CO,25.146198830409354,NA
81005,Pueblo County,CO,NA,18.433179723502306
81122,La Plata County,CO,NA,88.0184331797235
06053,Hartford County,CT,NA,21.19815668202765
06117,Hartford County,CT,65.49707602339181,NA
06119,Hartford County,CT,NA,73.27188940092167
06226,Windham County,CT,NA,42.3963133640553
06268,Tolland County,CT,91.22807017543859,NA
06450,New Haven County,CT,NA,11.52073732718894
06518,New Haven County,CT,NA,70.04608294930875
06708,New Haven County,CT,22.22222222222222,NA
19901,Kent County,DE,NA,16.589861751152075
19938,Kent County,DE,NA,57.6036866359447
32073,Clay County,FL,NA,24.42396313364055
32082,St. Johns County,FL,NA,63.133640552995395
32119,Volusia County,FL,86.54970760233918,NA
32168,Volusia County,FL,NA,32.71889400921659
32413,Bay County,FL,69.5906432748538,NA
32579,Okaloosa County,FL,NA,80.64516129032258
32618,Alachua County,FL,95.32163742690058,NA
33597,Sumter County,FL,87.13450292397661,NA
33912,Lee County,FL,NA,70.50691244239631
33913,Lee County,FL,NA,27.188940092165897
34234,Sarasota County,FL,NA,41.013824884792626
34293,Sarasota County,FL,NA,5.529953917050691
34606,Hernando County,FL,NA,36.86635944700461
34698,Pinellas County,FL,NA,17.51152073732719
30058,DeKalb County,GA,NA,59.907834101382484
30179,Carroll County,GA,85.38011695906432,NA
30224,Spalding County,GA,NA,47.926267281105986
31021,Laurens County,GA,NA,53.91705069124424
31082,Washington County,GA,97.6608187134503,NA
31525,Glynn County,GA,47.953216374269005,NA
96817,Honolulu County,HI,8.771929824561402,NA
96826,Honolulu County,HI,NA,31.336405529953915
83202,Bannock County,ID,NA,63.594470046082954
83221,Bingham County,ID,27.485380116959064,NA
83338,Jerome County,ID,NA,20.737327188940093
83713,Ada County,ID,37.42690058479532,NA
60030,Lake County,IL,NA,18.89400921658986
60137,DuPage County,IL,NA,25.34562211981567
60139,DuPage County,IL,NA,34.10138248847927
60148,DuPage County,IL,NA,30.414746543778804
60402,Cook County,IL,NA,8.755760368663594
60441,Will County,IL,21.637426900584796,NA
60451,Will County,IL,NA,12.903225806451612
61231,Mercer County,IL,NA,94.93087557603687
61611,Tazewell County,IL,NA,39.63133640552996
61953,Douglas County,IL,91.81286549707602,NA
62024,Madison County,IL,NA,85.25345622119815
62040,Madison County,IL,16.95906432748538,NA
62052,Jersey County,IL,63.74269005847953,NA
62298,Monroe County,IL,NA,83.87096774193549
62650,Morgan County,IL,50.29239766081871,NA
62960,Massac County,IL,NA,71.42857142857143
46112,Hendricks County,IN,NA,46.08294930875576
46143,Johnson County,IN,NA,14.746543778801843
46254,Marion County,IN,21.052631578947366,NA
46368,Porter County,IN,3.508771929824561,NA
46806,Allen County,IN,NA,36.405529953917046
46807,Allen County,IN,48.53801169590643,NA
46818,Allen County,IN,NA,44.23963133640553
47394,Randolph County,IN,NA,80.18433179723502
47421,Lawrence County,IN,61.40350877192983,NA
47933,Montgomery County,IN,NA,43.31797235023041
50129,Greene County,IA,NA,82.02764976958525
50208,Jasper County,IA,NA,61.75115207373272
51503,Pottawattamie County,IA,NA,3.686635944700461
52002,Dubuque County,IA,NA,95.85253456221197
66067,Franklin County,KS,77.77777777777779,NA
67207,Sedgwick County,KS,NA,90.78341013824884
40014,Oldham County,KY,NA,61.29032258064516
40219,Jefferson County,KY,9.941520467836257,NA
40245,Jefferson County,KY,47.368421052631575,NA
40299,Jefferson County,KY,32.748538011695906,NA
40508,Fayette County,KY,31.57894736842105,NA
42134,Simpson County,KY,NA,64.97695852534562
42503,Pulaski County,KY,NA,53.45622119815668
42701,Hardin County,KY,8.187134502923977,NA
70433,St. Tammany Parish,LA,NA,6.451612903225806
70578,Acadia Parish,LA,19.883040935672515,NA
70601,Calcasieu Parish,LA,NA,7.373271889400922
70785,Livingston Parish,LA,NA,35.02304147465438
70814,East Baton Rouge Parish,LA,NA,75.57603686635944
71019,Red River Parish,LA,57.89473684210527,NA
71118,Caddo Parish,LA,76.60818713450293,NA
04412,Penobscot County,ME,NA,67.74193548387096
20817,Montgomery County,MD,71.9298245614035,NA
01201,Berkshire County,MA,NA,2.7649769585253456
01570,Worcester County,MA,18.71345029239766,NA
01867,Middlesex County,MA,NA,37.327188940092164
01876,Middlesex County,MA,NA,1.8433179723502304
01915,Essex County,MA,2.3391812865497075,NA
01960,Essex County,MA,0.5847953216374269,NA
02019,Norfolk County,MA,36.25730994152047,NA
02186,Norfolk County,MA,11.11111111111111,NA
02302,Plymouth County,MA,1.7543859649122806,NA
02346,Plymouth County,MA,54.385964912280706,NA
02351,Plymouth County,MA,14.035087719298245,NA
02492,Norfolk County,MA,NA,23.04147465437788
48094,Macomb County,MI,NA,47.465437788018434
48111,Wayne County,MI,7.017543859649122,NA
48201,Wayne County,MI,92.39766081871345,NA
48239,Wayne County,MI,NA,9.67741935483871
48312,Macomb County,MI,NA,13.36405529953917
48519,Genesee County,MI,NA,76.49769585253456
48642,Midland County,MI,15.204678362573098,NA
48843,Livingston County,MI,40.93567251461988,NA
48848,Shiawassee County,MI,81.28654970760235,NA
48854,Ingham County,MI,NA,52.995391705069125
49090,Van Buren County,MI,56.14035087719298,NA
49230,Jackson County,MI,NA,45.622119815668206
49247,Lenawee County,MI,66.66666666666666,NA
49319,Kent County,MI,29.239766081871345,NA
49331,Kent County,MI,NA,68.66359447004609
49546,Kent County,MI,NA,30.414746543778804
49878,Delta County,MI,94.73684210526315,NA
55110,Ramsey County,MN,NA,35.483870967741936
55128,Washington County,MN,46.783625730994146,NA
55378,Scott County,MN,53.216374269005854,NA
55406,Hennepin County,MN,55.55555555555556,NA
55946,Goodhue County,MN,100,NA
56347,Todd County,MN,78.3625730994152,NA
56401,Crow Wing County,MN,34.50292397660819,NA
56470,Hubbard County,MN,NA,34.56221198156682
56479,Todd County,MN,NA,73.73271889400922
38611,Marshall County,MS,59.06432748538012,NA
38851,Chickasaw County,MS,NA,88.94009216589862
38866,Lee County,MS,94.15204678362574,NA
39094,Leake County,MS,NA,99.07834101382488
39204,Hinds County,MS,22.807017543859647,NA
39466,Pearl River County,MS,NA,14.285714285714285
63123,St. Louis County,MO,NA,72.35023041474655
63366,St. Charles County,MO,9.35672514619883,NA
63640,St. Francois County,MO,NA,33.6405529953917
63901,Butler County,MO,10.526315789473683,NA
64052,Jackson County,MO,84.21052631578947,NA
64086,Jackson County,MO,60.81871345029239,NA
64112,Jackson County,MO,NA,71.88940092165899
64118,Clay County,MO,NA,5.990783410138248
64131,Jackson County,MO,11.695906432748536,NA
64429,Clinton County,MO,NA,49.76958525345622
64503,Buchanan County,MO,25.730994152046783,NA
64834,Jasper County,MO,NA,94.00921658986175
65079,Camden County,MO,NA,86.63594470046083
65265,Audrain County,MO,NA,54.377880184331794
65336,Johnson County,MO,95.90643274853801,NA
65401,Phelps County,MO,NA,15.207373271889402
68522,Lancaster County,NE,NA,93.08755760368663
03246,Belknap County,NH,NA,64.51612903225806
03873,Rockingham County,NH,84.7953216374269,NA
07002,Hudson County,NJ,NA,51.61290322580645
07016,Union County,NJ,NA,40.55299539170507
07067,Middlesex County,NJ,NA,92.16589861751152
07086,Hudson County,NJ,83.04093567251462,NA
07676,Bergen County,NJ,NA,97.23502304147466
88101,Curry County,NM,33.91812865497076,NA
10029,New York County,NY,0,NA
10032,New York County,NY,7.602339181286549,NA
10466,Bronx County,NY,NA,0.4608294930875576
10473,Bronx County,NY,19.298245614035086,NA
11354,Queens County,NY,45.614035087719294,NA
11357,Queens County,NY,67.2514619883041,NA
11530,Nassau County,NY,NA,76.036866359447
11767,Suffolk County,NY,NA,95.39170506912443
11968,Suffolk County,NY,98.83040935672514,NA
12010,Montgomery County,NY,6.432748538011696,NA
12966,Franklin County,NY,80.11695906432749,NA
13167,Oswego County,NY,92.98245614035088,NA
13476,Oneida County,NY,NA,98.15668202764977
14094,Niagara County,NY,NA,0.9216589861751152
14127,Erie County,NY,NA,89.86175115207374
14304,Niagara County,NY,5.263157894736842,NA
14424,Ontario County,NY,NA,0
14489,Wayne County,NY,75.43859649122807,28.110599078341014
14517,Livingston County,NY,NA,94.47004608294931
14738,Chautauqua County,NY,NA,96.7741935483871
14850,Tompkins County,NY,5.847953216374268,NA
27504,Johnston County,NC,88.88888888888889,NA
27529,Wake County,NC,NA,13.82488479262673
27886,Edgecombe County,NC,NA,41.474654377880185
28054,Gaston County,NC,15.789473684210526,NA
28262,Mecklenburg County,NC,35.08771929824561,NA
28334,Sampson County,NC,NA,23.963133640552993
28479,Brunswick County,NC,NA,78.80184331797236
28504,Lenoir County,NC,43.27485380116959,NA
28734,Macon County,NC,46.198830409356724,NA
28779,Jackson County,NC,NA,57.14285714285714
58203,Grand Forks County,ND,49.122807017543856,NA
43026,Franklin County,OH,16.374269005847953,NA
43074,Delaware County,OH,NA,96.31336405529954
43512,Defiance County,OH,4.678362573099415,NA
43516,Henry County,OH,99.41520467836257,NA
43620,Lucas County,OH,66.08187134502924,NA
44077,Lake County,OH,NA,2.3041474654377883
44090,Lorain County,OH,57.30994152046783,NA
44102,Cuyahoga County,OH,NA,0.9216589861751152
44107,Cuyahoga County,OH,28.654970760233915,NA
44109,Cuyahoga County,OH,NA,31.797235023041477
44112,Cuyahoga County,OH,NA,4.147465437788019
44121,Cuyahoga County,OH,NA,41.935483870967744
44125,Cuyahoga County,OH,NA,8.294930875576037
44145,Cuyahoga County,OH,14.619883040935672,NA
44201,Portage County,OH,85.96491228070175,NA
44203,Summit County,OH,NA,6.912442396313365
44320,Summit County,OH,NA,83.41013824884793
44514,Mahoning County,OH,NA,24.88479262672811
44515,Mahoning County,OH,NA,10.599078341013826
44662,Stark County,OH,68.42105263157895,NA
44707,Stark County,OH,NA,69.5852534562212
45015,Butler County,OH,50.877192982456144,NA
45322,Montgomery County,OH,64.91228070175438,NA
73013,Oklahoma County,OK,30.409356725146196,NA
73036,Canadian County,OK,39.76608187134503,NA
73108,Oklahoma County,OK,NA,91.24423963133641
73112,Oklahoma County,OK,35.67251461988304,NA
73159,Oklahoma County,OK,NA,21.658986175115206
74012,Tulsa County,OK,23.391812865497073,NA
74501,Pittsburg County,OK,NA,44.70046082949309
97023,Clackamas County,OR,NA,84.33179723502305
97124,Washington County,OR,NA,17.972350230414747
97223,Washington County,OR,NA,19.81566820276498
97301,Marion County,OR,NA,19.35483870967742
97471,Douglas County,OR,NA,5.0691244239631335
97537,Jackson County,OR,NA,90.32258064516128
97754,Crook County,OR,45.02923976608187,NA
97801,Umatilla County,OR,33.33333333333333,NA
15101,Allegheny County,PA,NA,48.8479262672811
16102,Lawrence County,PA,NA,70.96774193548387
17404,York County,PA,NA,12.442396313364055
18428,Pike County,PA,69.00584795321637,NA
19055,Bucks County,PA,NA,92.16589861751152
19063,Delaware County,PA,NA,59.44700460829493
19072,Montgomery County,PA,NA,58.06451612903226
19073,Delaware County,PA,89.47368421052632,NA
19128,Philadelphia County,PA,NA,58.525345622119815
19129,Philadelphia County,PA,NA,93.54838709677419
19130,Philadelphia County,PA,NA,65.43778801843318
19134,Philadelphia County,PA,4.093567251461988,NA
19143,Philadelphia County,PA,1.1695906432748537,NA
19510,Berks County,PA,NA,79.26267281105991
19560,Berks County,PA,NA,100
02906,Providence County,RI,52.046783625730995,NA
29356,Spartanburg County,SC,83.62573099415205,NA
29407,Charleston County,SC,38.01169590643275,11.059907834101383
29414,Charleston County,SC,NA,20.276497695852534
29429,Charleston County,SC,NA,99.53917050691244
29445,Berkeley County,SC,23.976608187134502,NA
29483,Dorchester County,SC,NA,17.050691244239633
29550,Darlington County,SC,41.52046783625731,NA
29651,Greenville County,SC,17.543859649122805,NA
29715,York County,SC,NA,87.55760368663594
29928,Beaufort County,SC,NA,82.02764976958525
57078,Yankton County,SD,NA,56.22119815668203
37076,Davidson County,TN,NA,28.110599078341014
37172,Robertson County,TN,12.865497076023392,NA
37323,Bradley County,TN,40.35087719298245,48.38709677419355
37329,McMinn County,TN,72.51461988304094,NA
37615,Washington County,TN,56.72514619883041,NA
37887,Morgan County,TN,88.30409356725146,NA
38375,McNairy County,TN,77.19298245614034,NA
75002,Collin County,TX,NA,22.58064516129032
75154,Ellis County,TX,NA,38.70967741935484
75205,Dallas County,TX,NA,65.89861751152074
75252,Collin County,TX,60.23391812865497,NA
75604,Gregg County,TX,39.1812865497076,NA
75771,Smith County,TX,NA,60.82949308755761
76021,Tarrant County,TX,32.16374269005848,NA
76033,Johnson County,TX,36.84210526315789,NA
76240,Cooke County,TX,NA,33.17972350230415
76301,Wichita County,TX,44.44444444444444,NA
77070,Harris County,TX,43.859649122807014,NA
77086,Harris County,TX,NA,62.67281105990783
77336,Harris County,TX,NA,66.82027649769586
77379,Harris County,TX,NA,10.138248847926267
77422,Brazoria County,TX,NA,66.3594470046083
77429,Harris County,TX,NA,4.147465437788019
77511,Brazoria County,TX,12.280701754385964,NA
77705,Jefferson County,TX,42.69005847953216,NA
78228,Bexar County,TX,NA,29.493087557603687
78641,Williamson County,TX,18.128654970760234,NA
78861,Medina County,TX,NA,77.88018433179722
84025,Davis County,UT,NA,88.47926267281106
84037,Davis County,UT,61.98830409356725,NA
84078,Uintah County,UT,13.450292397660817,NA
84081,Salt Lake County,UT,NA,77.41935483870968
84093,Salt Lake County,UT,NA,72.81105990783409
05482,Chittenden County,VT,NA,76.95852534562212
05701,Rutland County,VT,NA,9.216589861751153
22191,Prince William County,VA,NA,26.26728110599078
22192,Prince William County,VA,NA,38.24884792626728
22206,Arlington County,VA,54.97076023391813,NA
22602,Frederick County,VA,NA,51.1520737327189
22603,Frederick County,VA,80.7017543859649,NA
22655,Frederick County,VA,NA,74.65437788018433
23093,Louisa County,VA,87.71929824561403,NA
23117,Louisa County,VA,98.24561403508771,NA
23228,Henrico County,VA,NA,32.25806451612903
23455,Virginia Beach city,VA,NA,7.834101382488479
24266,Russell County,VA,NA,60.36866359447005
24301,Pulaski County,VA,53.80116959064327,NA
24330,Grayson County,VA,90.05847953216374,NA
24523,Bedford County,VA,NA,79.72350230414746
24531,Pittsylvania County,VA,NA,74.19354838709677
24605,Tazewell County,VA,NA,68.20276497695853
98021,Snohomish County,WA,NA,45.16129032258064
98033,King County,WA,82.45614035087719,25.806451612903224
98075,King County,WA,74.85380116959064,NA
98092,King County,WA,NA,15.668202764976957
98223,Snohomish County,WA,23.976608187134502,NA
98328,Pierce County,WA,78.94736842105263,NA
98902,Yakima County,WA,28.07017543859649,NA
98903,Yakima County,WA,63.1578947368421,NA
98942,Yakima County,WA,70.76023391812866,NA
99320,Benton County,WA,81.87134502923976,NA
99337,Benton County,WA,26.31578947368421,NA
99338,Benton County,WA,NA,29.03225806451613
20024,District of Columbia,DC,NA,89.40092165898618
24901,Greenbrier County,WV,NA,62.21198156682027
25302,Kanawha County,WV,51.461988304093566,NA
53149,Waukesha County,WI,64.32748538011695,NA
53151,Waukesha County,WI,NA,67.2811059907834
53546,Rock County,WI,NA,3.225806451612903
53813,Grant County,WI,90.64327485380117,NA
54001,Polk County,WI,NA,52.53456221198156
54015,St. Croix County,WI,97.07602339181285,NA
54401,Marathon County,WI,NA,26.72811059907834
54451,Taylor County,WI,93.56725146198829,NA
54603,La Crosse County,WI,49.707602339181285,NA
54728,Barron County,WI,NA,81.10599078341014
82930,Uinta County,WY,NA,78.3410138248848
