ZipCode,county,state,Adult
99504,Anchorage Municipality,AK,27.027027027027028
85006,Maricopa County,AZ,50.810810810810814
85041,Maricopa County,AZ,10.27027027027027
85207,Maricopa County,AZ,30.810810810810814
85901,Navajo County,AZ,60.54054054054055
86507,Apache County,AZ,94.05405405405406
72715,Benton County,AR,91.35135135135135
90026,Los Angeles County,CA,54.59459459459459
90057,Los Angeles County,CA,48.10810810810811
90248,Los Angeles County,CA,92.43243243243244
90291,Los Angeles County,CA,98.37837837837839
90680,Orange County,CA,68.64864864864865
91402,Los Angeles County,CA,33.513513513513516
91752,Riverside County,CA,61.08108108108108
91950,San Diego County,CA,44.86486486486487
92110,San Diego County,CA,66.48648648648648
92251,Imperial County,CA,80
92345,San Bernardino County,CA,12.432432432432433
93274,Tulare County,CA,32.432432432432435
93728,Fresno County,CA,99.45945945945947
94080,San Mateo County,CA,39.45945945945946
94534,Solano County,CA,75.67567567567568
95209,San Joaquin County,CA,55.13513513513514
95336,San Joaquin County,CA,37.2972972972973
95825,Sacramento County,CA,58.37837837837838
80022,Adams County,CO,20.54054054054054
06042,Hartford County,CT,47.56756756756757
06514,New Haven County,CT,43.24324324324324
19711,New Castle County,DE,38.37837837837838
32179,Marion County,FL,83.78378378378379
32570,Santa Rosa County,FL,12.972972972972974
32726,Lake County,FL,62.70270270270271
32808,Orange County,FL,19.45945945945946
32948,Indian River County,FL,95.67567567567568
33130,Miami-Dade County,FL,87.02702702702703
33142,Miami-Dade County,FL,23.243243243243246
33404,Palm Beach County,FL,45.94594594594595
33458,Palm Beach County,FL,29.72972972972973
33756,Pinellas County,FL,52.972972972972975
33907,Lee County,FL,56.21621621621622
33935,Hendry County,FL,92.97297297297298
34229,Sarasota County,FL,91.8918918918919
34266,DeSoto County,FL,98.91891891891892
34473,Marion County,FL,57.2972972972973
34997,Martin County,FL,36.75675675675676
30017,Gwinnett County,GA,77.29729729729729
30311,Fulton County,GA,18.91891891891892
30830,Burke County,GA,63.24324324324324
31415,Chatham County,GA,83.24324324324324
31601,Lowndes County,GA,30.270270270270274
31903,Muscogee County,GA,40.54054054054054
31907,Muscogee County,GA,38.91891891891892
60640,Cook County,IL,41.08108108108108
60652,Cook County,IL,35.13513513513514
61104,Winnebago County,IL,94.5945945945946
62839,Clay County,IL,88.10810810810811
46201,Marion County,IN,22.702702702702705
46319,Lake County,IN,32.972972972972975
46350,LaPorte County,IN,10.81081081081081
46385,Porter County,IN,37.83783783783784
46404,Lake County,IN,41.62162162162162
46406,Lake County,IN,74.5945945945946
47006,Ripley County,IN,82.16216216216216
47138,Scott County,IN,96.75675675675676
50309,Polk County,IA,69.72972972972973
51360,Dickinson County,IA,97.83783783783784
52601,Des Moines County,IA,15.135135135135137
52803,Scott County,IA,43.78378378378379
40214,Jefferson County,KY,6.486486486486487
40291,Jefferson County,KY,21.62162162162162
40505,Fayette County,KY,29.18918918918919
41314,Owsley County,KY,93.51351351351352
42633,Wayne County,KY,62.16216216216216
70714,East Baton Rouge Parish,LA,28.64864864864865
71112,Bossier Parish,LA,15.675675675675677
21701,Frederick County,MD,67.56756756756756
02124,Suffolk County,MA,0
02343,Norfolk County,MA,100
48015,Macomb County,MI,65.4054054054054
48093,Macomb County,MI,24.324324324324326
48239,Wayne County,MI,9.18918918918919
48439,Genesee County,MI,16.216216216216218
49503,Kent County,MI,13.513513513513514
49601,Wexford County,MI,55.67567567567567
49686,Grand Traverse County,MI,56.75675675675676
55075,Dakota County,MN,81.62162162162161
55417,Hennepin County,MN,57.83783783783784
38614,Coahoma County,MS,60
63628,St. Francois County,MO,73.51351351351352
64079,Platte County,MO,65.94594594594595
65560,Dent County,MO,86.48648648648648
89143,Clark County,NV,97.2972972972973
07050,Essex County,NJ,14.054054054054054
07073,Bergen County,NJ,75.13513513513513
07076,Union County,NJ,87.56756756756758
07093,Hudson County,NJ,5.9459459459459465
07417,Bergen County,NJ,88.64864864864866
08031,Camden County,NJ,81.08108108108108
08817,Middlesex County,NJ,26.486486486486488
08844,Somerset County,NJ,49.18918918918919
87120,Bernalillo County,NM,11.351351351351353
88001,Doa Ana County,NM,31.891891891891895
10037,New York County,NY,47.02702702702703
10303,Richmond County,NY,48.64864864864865
10457,Bronx County,NY,4.324324324324325
10467,Bronx County,NY,2.7027027027027026
10553,Westchester County,NY,90.27027027027027
11212,Kings County,NY,0.5405405405405406
11222,Kings County,NY,70.8108108108108
11234,Kings County,NY,25.405405405405407
11385,Queens County,NY,42.7027027027027
11580,Nassau County,NY,67.02702702702703
12206,Albany County,NY,24.864864864864867
13045,Cortland County,NY,2.1621621621621623
13069,Oswego County,NY,3.783783783783784
13732,Tioga County,NY,51.891891891891895
14770,Cattaraugus County,NY,89.72972972972974
27606,Wake County,NC,53.51351351351351
28365,Wayne County,NC,71.89189189189189
28677,Iredell County,NC,18.37837837837838
43204,Franklin County,OH,4.864864864864865
43232,Franklin County,OH,63.78378378378379
43701,Muskingum County,OH,71.35135135135135
43713,Belmont County,OH,70.27027027027027
44055,Lorain County,OH,9.72972972972973
44410,Trumbull County,OH,45.40540540540541
44601,Stark County,OH,7.027027027027027
44870,Erie County,OH,16.756756756756758
45224,Hamilton County,OH,25.945945945945947
45229,Hamilton County,OH,36.21621621621622
45238,Hamilton County,OH,17.83783783783784
45503,Clark County,OH,8.108108108108109
45659,Lawrence County,OH,95.13513513513514
45895,Auglaize County,OH,72.43243243243244
73129,Oklahoma County,OK,58.91891891891892
74112,Tulsa County,OK,64.32432432432432
74403,Muskogee County,OK,40
74959,Le Flore County,OK,85.94594594594595
15017,Allegheny County,PA,79.45945945945945
15065,Allegheny County,PA,77.83783783783784
16137,Mercer County,PA,78.91891891891892
17057,Dauphin County,PA,78.37837837837837
17104,Dauphin County,PA,22.162162162162165
17331,York County,PA,7.567567567567568
17403,York County,PA,1.0810810810810811
18508,Lackawanna County,PA,68.10810810810811
19082,Delaware County,PA,46.48648648648649
19120,Philadelphia County,PA,1.6216216216216217
19141,Philadelphia County,PA,59.45945945945946
19148,Philadelphia County,PA,8.64864864864865
19151,Philadelphia County,PA,17.2972972972973
19464,Montgomery County,PA,3.2432432432432434
19602,Berks County,PA,14.594594594594595
29456,Dorchester County,SC,44.32432432432433
37030,Smith County,TN,83.78378378378379
38305,Madison County,TN,11.891891891891893
38574,Putnam County,TN,85.4054054054054
75050,Dallas County,TX,50.27027027027027
75052,Dallas County,TX,21.08108108108108
75115,Dallas County,TX,27.56756756756757
77022,Harris County,TX,64.86486486486487
78026,Atascosa County,TX,96.21621621621622
78154,Guadalupe County,TX,82.70270270270271
78201,Bexar County,TX,28.10810810810811
78233,Bexar County,TX,49.72972972972973
78572,Hidalgo County,TX,84.86486486486487
78577,Hidalgo County,TX,34.054054054054056
78586,Cameron County,TX,51.35135135135135
78957,Bastrop County,TX,89.1891891891892
79763,Ector County,TX,42.16216216216216
22192,Prince William County,VA,23.783783783783786
22408,Spotsylvania County,VA,76.21621621621621
23434,Suffolk city,VA,20
23464,Virginia Beach city,VA,54.054054054054056
23704,Portsmouth city,VA,34.5945945945946
24517,Campbell County,VA,90.81081081081082
98011,King County,WA,69.1891891891892
98168,King County,WA,76.75675675675676
99337,Benton County,WA,31.351351351351354
20009,District of Columbia,DC,74.05405405405405
24701,Mercer County,WV,35.67567567567568
25570,Wayne County,WV,80.54054054054053
53029,Waukesha County,WI,72.97297297297297
53216,Milwaukee County,WI,5.405405405405405
53705,Dane County,WI,61.62162162162163
54115,Brown County,WI,52.43243243243243
