ZipCode,county,state,Adult,Retirement
35115,Shelby County,AL,93.93939393939394,NA
35215,Jefferson County,AL,11.313131313131313,NA
35221,Jefferson County,AL,95.95959595959596,NA
35501,Walker County,AL,68.08080808080808,NA
35555,Fayette County,AL,65.85858585858585,NA
36109,Montgomery County,AL,NA,71.98795180722891
36305,Houston County,AL,60,NA
36330,Coffee County,AL,85.25252525252526,NA
36535,Baldwin County,AL,41.81818181818181,NA
36567,Baldwin County,AL,64.44444444444444,NA
85014,Maricopa County,AZ,43.83838383838384,NA
85041,Maricopa County,AZ,32.323232323232325,30.42168674698795
85086,Maricopa County,AZ,NA,48.493975903614455
85201,Maricopa County,AZ,17.17171717171717,NA
85208,Maricopa County,AZ,43.03030303030303,NA
85255,Maricopa County,AZ,51.11111111111111,NA
85283,Maricopa County,AZ,NA,32.53012048192771
85298,Maricopa County,AZ,NA,71.08433734939759
85302,Maricopa County,AZ,NA,33.13253012048193
85338,Maricopa County,AZ,32.525252525252526,81.92771084337349
85344,La Paz County,AZ,35.95959595959596,NA
85345,Maricopa County,AZ,39.1919191919192,NA
85349,Yuma County,AZ,NA,88.85542168674698
85351,Maricopa County,AZ,NA,10.240963855421686
85365,Yuma County,AZ,27.67676767676768,NA
85546,Graham County,AZ,50.70707070707071,NA
85712,Pima County,AZ,23.434343434343436,NA
86413,Mohave County,AZ,NA,34.63855421686747
71822,Little River County,AR,NA,79.81927710843374
71913,Garland County,AR,NA,32.831325301204814
72401,Craighead County,AR,NA,12.048192771084338
72740,Madison County,AR,91.51515151515152,NA
72936,Sebastian County,AR,NA,94.87951807228916
90018,Los Angeles County,CA,35.75757575757576,NA
90034,Los Angeles County,CA,42.22222222222222,NA
90241,Los Angeles County,CA,54.34343434343434,NA
90606,Los Angeles County,CA,NA,93.67469879518072
90621,Orange County,CA,NA,70.48192771084338
90712,Los Angeles County,CA,61.01010101010102,NA
90804,Los Angeles County,CA,43.43434343434344,NA
91311,Los Angeles County,CA,56.96969696969697,NA
91750,Los Angeles County,CA,65.65656565656566,NA
91773,Los Angeles County,CA,75.55555555555556,NA
92102,San Diego County,CA,NA,86.44578313253012
92236,Riverside County,CA,42.62626262626263,NA
92252,San Bernardino County,CA,NA,83.73493975903614
92253,Riverside County,CA,76.36363636363637,NA
92260,Riverside County,CA,56.16161616161616,NA
92320,Riverside County,CA,NA,93.97590361445783
92346,San Bernardino County,CA,61.61616161616161,NA
92405,San Bernardino County,CA,44.24242424242424,NA
92503,Riverside County,CA,NA,66.86746987951807
92506,Riverside County,CA,73.73737373737373,NA
92508,Riverside County,CA,81.21212121212122,NA
92596,Riverside County,CA,NA,86.14457831325302
92612,Orange County,CA,NA,84.03614457831326
92620,Orange County,CA,NA,51.50602409638554
92691,Orange County,CA,52.92929292929293,NA
92708,Orange County,CA,NA,17.46987951807229
92782,Orange County,CA,79.39393939393939,NA
92806,Orange County,CA,81.81818181818183,NA
92886,Orange County,CA,NA,21.686746987951807
93063,Ventura County,CA,NA,31.32530120481928
93245,Kings County,CA,93.13131313131314,NA
93247,Tulare County,CA,94.34343434343434,NA
93257,Tulare County,CA,15.95959595959596,NA
93306,Kern County,CA,53.73737373737374,NA
93307,Kern County,CA,16.565656565656568,NA
93433,San Luis Obispo County,CA,NA,90.06024096385542
93534,Los Angeles County,CA,71.71717171717171,NA
93535,Los Angeles County,CA,NA,46.08433734939759
93561,Kern County,CA,74.34343434343434,NA
93611,Fresno County,CA,NA,42.168674698795186
93619,Fresno County,CA,39.5959595959596,NA
93711,Fresno County,CA,69.6969696969697,NA
93725,Fresno County,CA,NA,81.02409638554217
93726,Fresno County,CA,NA,55.42168674698795
93727,Fresno County,CA,NA,31.024096385542173
93933,Monterey County,CA,NA,53.915662650602414
94019,San Mateo County,CA,91.11111111111111,NA
94133,San Francisco County,CA,NA,55.12048192771084
95035,Santa Clara County,CA,50.101010101010104,NA
95127,Santa Clara County,CA,38.98989898989899,NA
95134,Santa Clara County,CA,78.18181818181819,NA
95139,Santa Clara County,CA,98.7878787878788,NA
95336,San Joaquin County,CA,64.24242424242425,NA
95338,Mariposa County,CA,93.73737373737374,NA
95358,Stanislaus County,CA,28.68686868686869,NA
95401,Sonoma County,CA,59.1919191919192,57.53012048192772
95521,Humboldt County,CA,82.82828282828282,NA
95621,Sacramento County,CA,NA,44.27710843373494
95624,Sacramento County,CA,NA,31.626506024096386
95688,Solano County,CA,67.67676767676768,NA
95827,Sacramento County,CA,NA,77.10843373493977
95833,Sacramento County,CA,73.33333333333333,NA
95838,Sacramento County,CA,NA,75.6024096385542
95843,Sacramento County,CA,NA,73.19277108433735
95912,Colusa County,CA,98.98989898989899,NA
95926,Butte County,CA,NA,34.036144578313255
80007,Jefferson County,CO,87.87878787878788,NA
80012,Arapahoe County,CO,13.737373737373737,NA
80124,Douglas County,CO,66.66666666666666,NA
80204,Denver County,CO,NA,72.28915662650603
80207,Denver County,CO,41.01010101010101,NA
80226,Jefferson County,CO,NA,81.32530120481928
80229,Adams County,CO,18.181818181818183,NA
80465,Jefferson County,CO,84.64646464646465,NA
80550,Weld County,CO,63.83838383838384,NA
80634,Weld County,CO,NA,2.4096385542168677
80923,El Paso County,CO,NA,95.78313253012048
81321,Montezuma County,CO,69.2929292929293,NA
81501,Mesa County,CO,42.42424242424242,NA
06040,Hartford County,CT,34.94949494949495,NA
06051,Hartford County,CT,5.05050505050505,NA
06066,Tolland County,CT,69.2929292929293,NA
06074,Hartford County,CT,NA,61.74698795180723
06110,Hartford County,CT,NA,90.36144578313254
06114,Hartford County,CT,68.68686868686868,NA
06405,New Haven County,CT,NA,35.8433734939759
06489,Hartford County,CT,28.888888888888886,NA
06516,New Haven County,CT,9.090909090909092,NA
06614,Fairfield County,CT,NA,40.06024096385542
06712,New Haven County,CT,NA,82.83132530120481
06801,Fairfield County,CT,NA,64.7590361445783
19702,New Castle County,DE,NA,63.55421686746988
19802,New Castle County,DE,18.98989898989899,NA
19904,Kent County,DE,16.363636363636363,NA
19933,Sussex County,DE,NA,75.90361445783132
32043,Clay County,FL,NA,25.903614457831324
32127,Volusia County,FL,62.02020202020202,NA
32134,Marion County,FL,NA,90.96385542168674
32136,Flagler County,FL,98.38383838383838,NA
32137,Flagler County,FL,NA,7.530120481927711
32218,Duval County,FL,4.848484848484849,NA
32244,Duval County,FL,26.060606060606062,NA
32408,Bay County,FL,NA,74.69879518072288
32526,Escambia County,FL,17.77777777777778,NA
32571,Santa Rosa County,FL,17.373737373737374,NA
32619,Gilchrist County,FL,NA,94.27710843373494
32643,Alachua County,FL,NA,96.08433734939759
32801,Orange County,FL,NA,91.86746987951807
32909,Brevard County,FL,72.92929292929293,37.95180722891566
32953,Brevard County,FL,60.60606060606061,NA
33069,Broward County,FL,NA,72.59036144578313
33142,Miami-Dade County,FL,21.41414141414141,NA
33175,Miami-Dade County,FL,NA,29.518072289156628
33314,Broward County,FL,70.5050505050505,NA
33351,Broward County,FL,73.53535353535354,NA
33411,Palm Beach County,FL,36.56565656565657,NA
33461,Palm Beach County,FL,NA,85.2409638554217
33463,Palm Beach County,FL,49.696969696969695,45.18072289156627
33470,Palm Beach County,FL,90.30303030303031,NA
33540,Pasco County,FL,NA,78.01204819277109
33543,Pasco County,FL,57.17171717171718,NA
33544,Pasco County,FL,90.9090909090909,NA
33611,Hillsborough County,FL,NA,67.46987951807229
33615,Hillsborough County,FL,NA,38.55421686746988
33761,Pinellas County,FL,86.46464646464646,NA
33909,Lee County,FL,40.80808080808081,NA
33914,Lee County,FL,NA,16.566265060240966
33952,Charlotte County,FL,NA,39.45783132530121
34232,Sarasota County,FL,NA,38.855421686746986
34288,Sarasota County,FL,92.92929292929293,NA
34470,Marion County,FL,50.90909090909091,NA
34479,Marion County,FL,67.07070707070707,NA
34689,Pinellas County,FL,59.79797979797979,NA
34947,St. Lucie County,FL,54.54545454545454,NA
30038,DeKalb County,GA,41.41414141414141,NA
30045,Gwinnett County,GA,NA,78.6144578313253
30046,Gwinnett County,GA,NA,62.951807228915655
30052,Walton County,GA,NA,9.036144578313253
30097,Fulton County,GA,62.42424242424243,NA
30114,Cherokee County,GA,33.535353535353536,NA
30153,Polk County,GA,39.39393939393939,NA
30241,Troup County,GA,27.27272727272727,NA
30548,Jackson County,GA,NA,57.53012048192772
30906,Richmond County,GA,29.09090909090909,NA
31302,Effingham County,GA,85.45454545454545,NA
31419,Chatham County,GA,NA,39.1566265060241
31510,Bacon County,GA,77.77777777777779,NA
31525,Glynn County,GA,78.78787878787878,NA
96706,Honolulu County,HI,87.47474747474747,NA
96732,Maui County,HI,NA,89.1566265060241
96789,Honolulu County,HI,NA,44.57831325301205
96792,Honolulu County,HI,14.545454545454545,NA
96815,Honolulu County,HI,NA,32.22891566265061
96816,Honolulu County,HI,66.26262626262627,NA
83301,Twin Falls County,ID,NA,1.2048192771084338
83713,Ada County,ID,NA,60.24096385542169
83858,Kootenai County,ID,79.7979797979798,NA
60014,McHenry County,IL,25.454545454545453,NA
60044,Lake County,IL,82.42424242424242,NA
60048,Lake County,IL,52.92929292929293,NA
60060,Lake County,IL,48.484848484848484,NA
60103,DuPage County,IL,NA,30.120481927710845
60106,DuPage County,IL,NA,87.04819277108435
60108,DuPage County,IL,61.212121212121204,NA
60124,Kane County,IL,NA,36.44578313253012
60139,DuPage County,IL,NA,43.373493975903614
60201,Cook County,IL,42.62626262626263,NA
60435,Will County,IL,35.15151515151515,NA
60446,Will County,IL,19.393939393939394,NA
60465,Cook County,IL,NA,62.951807228915655
60477,Cook County,IL,NA,14.156626506024098
60515,DuPage County,IL,NA,41.86746987951807
60532,DuPage County,IL,45.05050505050505,NA
60542,Kane County,IL,NA,68.07228915662651
60612,Cook County,IL,21.818181818181817,NA
60623,Cook County,IL,NA,12.349397590361445
60652,Cook County,IL,NA,68.97590361445783
60659,Cook County,IL,NA,34.63855421686747
60707,Cook County,IL,53.333333333333336,NA
61109,Winnebago County,IL,NA,90.66265060240963
61354,LaSalle County,IL,NA,60.8433734939759
61443,Henry County,IL,NA,60.54216867469879
62056,Montgomery County,IL,85.05050505050505,NA
62234,Madison County,IL,51.31313131313131,NA
62565,Shelby County,IL,82.82828282828282,NA
62704,Sangamon County,IL,46.26262626262626,NA
46013,Madison County,IN,NA,78.91566265060241
46041,Clinton County,IN,68.88888888888889,NA
46062,Hamilton County,IN,83.23232323232324,NA
46068,Tipton County,IN,91.91919191919192,NA
46106,Johnson County,IN,NA,97.59036144578313
46124,Johnson County,IN,81.61616161616162,NA
46140,Hancock County,IN,NA,22.89156626506024
46142,Johnson County,IN,NA,12.951807228915662
46143,Johnson County,IN,57.97979797979798,NA
46226,Marion County,IN,38.18181818181819,56.92771084337349
46234,Marion County,IN,NA,57.22891566265061
46236,Marion County,IN,NA,56.62650602409639
46239,Marion County,IN,NA,62.65060240963856
46278,Marion County,IN,92.52525252525253,NA
46307,Lake County,IN,NA,2.108433734939759
46341,Porter County,IN,64.64646464646465,NA
46342,Lake County,IN,7.6767676767676765,NA
46350,LaPorte County,IN,11.515151515151516,NA
46405,Lake County,IN,38.78787878787879,NA
46506,Marshall County,IN,96.36363636363636,NA
46628,St. Joseph County,IN,50.505050505050505,NA
46703,Steuben County,IN,78.98989898989899,NA
46805,Allen County,IN,NA,59.036144578313255
46808,Allen County,IN,31.11111111111111,NA
46902,Howard County,IN,22.02020202020202,5.120481927710843
46947,Cass County,IN,62.22222222222222,NA
46970,Miami County,IN,NA,27.40963855421687
47150,Floyd County,IN,NA,43.674698795180724
47167,Washington County,IN,NA,56.024096385542165
47201,Bartholomew County,IN,38.38383838383838,13.253012048192772
47240,Decatur County,IN,NA,26.20481927710843
47304,Delaware County,IN,52.72727272727272,NA
47374,Wayne County,IN,NA,5.421686746987952
47805,Vigo County,IN,63.23232323232323,NA
50322,Polk County,IA,63.63636363636363,NA
50677,Bremer County,IA,79.7979797979798,NA
52240,Johnson County,IA,23.232323232323232,NA
52404,Linn County,IA,31.91919191919192,NA
52641,Henry County,IA,74.54545454545455,NA
66083,Johnson County,KS,NA,93.37349397590361
66204,Johnson County,KS,74.14141414141415,NA
66713,Cherokee County,KS,92.12121212121212,NA
67025,Sedgwick County,KS,NA,98.49397590361446
67530,Barton County,KS,72.32323232323232,NA
40031,Oldham County,KY,67.47474747474747,NA
40069,Washington County,KY,NA,86.74698795180723
40203,Jefferson County,KY,55.55555555555556,NA
40214,Jefferson County,KY,NA,17.771084337349397
40242,Jefferson County,KY,NA,77.71084337349397
40291,Jefferson County,KY,48.888888888888886,NA
40351,Rowan County,KY,23.636363636363637,NA
40505,Fayette County,KY,NA,37.34939759036144
40744,Laurel County,KY,28.484848484848484,NA
41011,Kenton County,KY,86.86868686868688,NA
41030,Grant County,KY,75.95959595959596,NA
41143,Carter County,KY,NA,56.325301204819276
42101,Warren County,KY,NA,18.373493975903614
42261,Butler County,KY,NA,89.7590361445783
42303,Daviess County,KY,12.323232323232324,NA
42348,Hancock County,KY,90.7070707070707,NA
42431,Hopkins County,KY,56.76767676767677,NA
42743,Green County,KY,70.1010101010101,NA
70458,St. Tammany Parish,LA,NA,4.518072289156627
70517,St. Martin Parish,LA,15.757575757575756,NA
70548,Vermilion Parish,LA,32.72727272727273,NA
70560,Iberia Parish,LA,NA,14.457831325301203
70601,Calcasieu Parish,LA,NA,8.734939759036145
70665,Calcasieu Parish,LA,33.131313131313135,NA
70760,Pointe Coupee Parish,LA,NA,85.54216867469879
70806,East Baton Rouge Parish,LA,16.161616161616163,NA
71082,Caddo Parish,LA,NA,92.7710843373494
71105,Caddo Parish,LA,NA,54.21686746987952
71112,Bossier Parish,LA,NA,29.819277108433734
04083,York County,ME,81.41414141414141,NA
04210,Androscoggin County,ME,71.11111111111111,69.27710843373494
04281,Oxford County,ME,NA,73.79518072289156
04864,Knox County,ME,NA,99.09638554216868
20735,Prince George's County,MD,60.2020202020202,NA
20748,Prince George's County,MD,76.16161616161617,NA
20851,Montgomery County,MD,90.1010101010101,NA
20854,Montgomery County,MD,84.24242424242424,NA
21017,Harford County,MD,NA,95.18072289156626
21061,Anne Arundel County,MD,12.121212121212121,NA
21074,Carroll County,MD,78.58585858585857,NA
21075,Howard County,MD,90.5050505050505,NA
21209,Baltimore County,MD,64.04040404040404,NA
21227,Baltimore County,MD,55.15151515151515,NA
21703,Frederick County,MD,NA,91.26506024096386
21784,Carroll County,MD,55.35353535353536,NA
01085,Hampden County,MA,2.0202020202020203,NA
01151,Hampden County,MA,26.666666666666668,NA
01201,Berkshire County,MA,83.43434343434343,NA
01220,Berkshire County,MA,97.97979797979798,NA
01516,Worcester County,MA,NA,93.07228915662651
01550,Worcester County,MA,NA,3.614457831325301
01569,Worcester County,MA,70.70707070707071,NA
01585,Worcester County,MA,77.37373737373737,NA
01605,Worcester County,MA,24.646464646464647,NA
01607,Worcester County,MA,40,NA
01701,Middlesex County,MA,NA,7.228915662650602
01752,Middlesex County,MA,NA,13.855421686746988
01775,Middlesex County,MA,89.0909090909091,NA
01801,Middlesex County,MA,1.6161616161616161,0.9036144578313252
01826,Middlesex County,MA,37.97979797979798,NA
01832,Essex County,MA,4.444444444444445,NA
01843,Essex County,MA,3.6363636363636362,NA
01880,Middlesex County,MA,89.8989898989899,NA
01906,Essex County,MA,32.121212121212125,9.036144578313253
01970,Essex County,MA,0.8080808080808081,NA
02019,Norfolk County,MA,33.939393939393945,NA
02067,Norfolk County,MA,58.58585858585859,NA
02072,Norfolk County,MA,10.909090909090908,8.433734939759036
02128,Suffolk County,MA,NA,1.8072289156626504
02149,Middlesex County,MA,20.2020202020202,NA
02150,Suffolk County,MA,NA,64.1566265060241
02155,Middlesex County,MA,NA,0.30120481927710846
02176,Middlesex County,MA,9.494949494949495,6.927710843373494
02302,Plymouth County,MA,1.4141414141414141,NA
02420,Middlesex County,MA,34.74747474747475,NA
02664,Barnstable County,MA,55.959595959595966,NA
02720,Bristol County,MA,0,NA
02747,Bristol County,MA,NA,58.43373493975904
48045,Macomb County,MI,NA,18.97590361445783
48048,Macomb County,MI,89.29292929292929,NA
48067,Oakland County,MI,34.54545454545455,50.903614457831324
48071,Oakland County,MI,NA,43.07228915662651
48072,Oakland County,MI,52.121212121212125,NA
48127,Wayne County,MI,14.949494949494948,NA
48134,Wayne County,MI,NA,53.31325301204819
48170,Wayne County,MI,NA,27.710843373493976
48197,Washtenaw County,MI,NA,2.710843373493976
48213,Wayne County,MI,59.59595959595959,NA
48219,Wayne County,MI,7.07070707070707,NA
48235,Wayne County,MI,19.19191919191919,NA
48239,Wayne County,MI,NA,10.542168674698797
48312,Macomb County,MI,NA,19.27710843373494
48331,Oakland County,MI,NA,65.36144578313254
48346,Oakland County,MI,NA,58.13253012048193
48356,Oakland County,MI,88.68686868686869,NA
48377,Oakland County,MI,66.86868686868686,NA
48624,Gladwin County,MI,NA,63.85542168674698
48637,Saginaw County,MI,NA,98.79518072289156
48768,Tuscola County,MI,55.757575757575765,NA
48831,Clinton County,MI,96.16161616161617,NA
49002,Kalamazoo County,MI,31.717171717171716,NA
49080,Allegan County,MI,40.60606060606061,NA
49224,Calhoun County,MI,54.74747474747475,NA
49441,Muskegon County,MI,NA,31.92771084337349
49444,Muskegon County,MI,11.91919191919192,24.69879518072289
49455,Oceana County,MI,98.58585858585859,NA
49519,Kent County,MI,20.80808080808081,NA
49685,Grand Traverse County,MI,79.5959595959596,NA
49707,Alpena County,MI,65.05050505050505,NA
49779,Presque Isle County,MI,95.35353535353536,NA
49920,Iron County,MI,NA,67.16867469879519
55068,Dakota County,MN,66.26262626262627,NA
55103,Ramsey County,MN,45.25252525252525,NA
55106,Ramsey County,MN,NA,30.72289156626506
55309,Sherburne County,MN,76.96969696969697,NA
55318,Carver County,MN,NA,72.89156626506023
55420,Hennepin County,MN,36.76767676767677,NA
55428,Hennepin County,MN,NA,84.33734939759037
55904,Olmsted County,MN,34.34343434343434,NA
56048,Waseca County,MN,96.56565656565657,NA
56334,Pope County,MN,NA,82.2289156626506
56501,Becker County,MN,NA,33.734939759036145
39426,Pearl River County,MS,NA,47.89156626506024
39429,Marion County,MS,NA,74.3975903614458
39440,Jones County,MS,NA,65.36144578313254
39503,Harrison County,MS,NA,4.819277108433735
39571,Harrison County,MS,87.27272727272727,NA
39581,Jackson County,MS,NA,83.43373493975903
39652,Pike County,MS,NA,82.83132530120481
63028,Jefferson County,MO,25.050505050505052,NA
63090,Franklin County,MO,NA,55.72289156626506
63125,St. Louis County,MO,40.4040404040404,NA
63301,St. Charles County,MO,NA,29.21686746987952
63366,St. Charles County,MO,14.343434343434344,NA
63376,St. Charles County,MO,12.727272727272727,NA
63461,Marion County,MO,NA,96.98795180722891
63740,Scott County,MO,99.5959595959596,NA
63901,Butler County,MO,16.969696969696972,NA
64133,Jackson County,MO,5.858585858585859,NA
64153,Platte County,MO,NA,99.69879518072288
64633,Carroll County,MO,NA,84.93975903614458
64856,McDonald County,MO,96.96969696969697,NA
64865,Newton County,MO,95.15151515151516,NA
65233,Cooper County,MO,68.28282828282828,NA
65712,Lawrence County,MO,99.19191919191918,NA
65714,Christian County,MO,46.86868686868687,NA
59701,Silver Bow County,MT,NA,46.08433734939759
68048,Cass County,NE,94.94949494949495,NA
68104,Douglas County,NE,NA,76.80722891566265
68111,Douglas County,NE,22.424242424242426,NA
68135,Douglas County,NE,72.72727272727273,NA
68601,Platte County,NE,NA,51.80722891566265
68822,Custer County,NE,NA,100
89106,Clark County,NV,47.27272727272727,NA
89119,Clark County,NV,22.828282828282827,NA
89129,Clark County,NV,47.67676767676768,NA
89130,Clark County,NV,54.94949494949495,NA
89139,Clark County,NV,89.4949494949495,NA
89169,Clark County,NV,53.939393939393945,NA
89503,Washoe County,NV,60.4040404040404,NA
89509,Washoe County,NV,NA,52.108433734939766
89512,Washoe County,NV,NA,54.81927710843374
03042,Rockingham County,NH,NA,95.48192771084338
03051,Hillsborough County,NH,24.242424242424242,NA
07003,Essex County,NJ,NA,34.33734939759036
07013,Passaic County,NJ,NA,42.77108433734939
07033,Union County,NJ,NA,96.6867469879518
07109,Essex County,NJ,NA,19.879518072289155
07305,Hudson County,NJ,0.40404040404040403,NA
07508,Passaic County,NJ,NA,50.602409638554214
07719,Monmouth County,NJ,36.96969696969697,NA
07731,Monmouth County,NJ,29.494949494949495,NA
07735,Monmouth County,NJ,NA,44.87951807228915
07850,Morris County,NJ,77.57575757575758,NA
08002,Camden County,NJ,NA,50.903614457831324
08037,Atlantic County,NJ,45.656565656565654,NA
08055,Burlington County,NJ,69.0909090909091,NA
08077,Burlington County,NJ,80.4040404040404,NA
08108,Camden County,NJ,63.030303030303024,NA
08215,Atlantic County,NJ,100,NA
08260,Cape May County,NJ,91.71717171717172,NA
08302,Cumberland County,NJ,1.8181818181818181,11.44578313253012
08505,Burlington County,NJ,61.81818181818181,NA
08865,Warren County,NJ,6.666666666666667,NA
87124,Sandoval County,NM,13.535353535353536,NA
87501,Santa Fe County,NM,94.74747474747474,NA
88310,Otero County,NM,NA,5.72289156626506
10035,New York County,NY,8.282828282828284,NA
10462,Bronx County,NY,NA,6.325301204819277
10472,Bronx County,NY,2.4242424242424243,NA
10583,Westchester County,NY,84.44444444444444,NA
10605,Westchester County,NY,NA,76.20481927710844
10962,Rockland County,NY,98.18181818181819,NA
11208,Kings County,NY,9.8989898989899,NA
11210,Kings County,NY,NA,25.301204819277107
11216,Kings County,NY,NA,7.83132530120482
11225,Kings County,NY,NA,17.16867469879518
11414,Queens County,NY,NA,54.51807228915663
11520,Nassau County,NY,NA,45.48192771084337
11727,Suffolk County,NY,NA,37.04819277108434
12025,Fulton County,NY,70.9090909090909,NA
12095,Fulton County,NY,NA,75
12180,Rensselaer County,NY,2.6262626262626263,NA
12202,Albany County,NY,NA,70.48192771084338
12992,Clinton County,NY,58.38383838383838,NA
13021,Cayuga County,NY,4.242424242424243,NA
13032,Madison County,NY,NA,81.62650602409639
13040,Cortland County,NY,86.26262626262627,NA
13053,Tompkins County,NY,79.1919191919192,NA
13069,Oswego County,NY,25.252525252525253,NA
13080,Onondaga County,NY,97.17171717171718,NA
13203,Onondaga County,NY,NA,62.048192771084345
13206,Onondaga County,NY,58.78787878787879,NA
13456,Oneida County,NY,93.33333333333333,NA
13471,Oneida County,NY,97.57575757575758,NA
13676,St. Lawrence County,NY,66.06060606060606,NA
13760,Broome County,NY,1.2121212121212122,NA
13905,Broome County,NY,2.2222222222222223,NA
14028,Niagara County,NY,96.76767676767678,NA
14043,Erie County,NY,80.2020202020202,NA
14120,Niagara County,NY,6.0606060606060606,NA
14150,Erie County,NY,8.484848484848486,NA
14216,Erie County,NY,62.62626262626263,47.59036144578313
14224,Erie County,NY,7.878787878787878,NA
14225,Erie County,NY,11.11111111111111,19.57831325301205
14304,Niagara County,NY,6.4646464646464645,4.216867469879518
14305,Niagara County,NY,NA,76.50602409638554
14522,Wayne County,NY,67.87878787878789,NA
14589,Wayne County,NY,NA,52.71084337349398
14606,Monroe County,NY,3.2323232323232323,NA
14621,Monroe County,NY,0.6060606060606061,NA
14624,Monroe County,NY,3.0303030303030303,NA
14701,Chautauqua County,NY,3.4343434343434343,NA
14739,Allegany County,NY,87.87878787878788,NA
14809,Steuben County,NY,94.14141414141413,NA
14810,Steuben County,NY,30.50505050505051,NA
27105,Forsyth County,NC,NA,3.313253012048193
27127,Forsyth County,NC,NA,6.024096385542169
27215,Alamance County,NC,12.525252525252526,NA
27253,Alamance County,NC,45.85858585858586,NA
27295,Davidson County,NC,85.85858585858585,NA
27320,Rockingham County,NC,13.333333333333334,NA
27360,Davidson County,NC,4.646464646464646,NA
27455,Guilford County,NC,50.303030303030305,NA
27520,Johnston County,NC,NA,75.30120481927712
27540,Wake County,NC,44.44444444444444,NA
27583,Person County,NC,NA,87.34939759036145
27604,Wake County,NC,NA,48.19277108433735
27613,Wake County,NC,49.898989898989896,NA
27616,Wake County,NC,NA,43.97590361445783
27892,Martin County,NC,46.666666666666664,NA
27893,Wilson County,NC,18.585858585858585,NA
28012,Gaston County,NC,63.43434343434343,NA
28021,Gaston County,NC,54.141414141414145,NA
28056,Gaston County,NC,44.84848484848485,NA
28078,Mecklenburg County,NC,30.303030303030305,NA
28227,Mecklenburg County,NC,NA,20.180722891566266
28546,Onslow County,NC,25.858585858585858,NA
28714,Yancey County,NC,NA,53.01204819277109
28752,McDowell County,NC,45.45454545454545,15.36144578313253
58474,Dickey County,ND,NA,97.28915662650603
58503,Burleigh County,ND,NA,36.144578313253014
58504,Burleigh County,ND,NA,40.963855421686745
58701,Ward County,ND,12.929292929292929,NA
43026,Franklin County,OH,NA,24.096385542168676
43055,Licking County,OH,26.262626262626267,NA
43119,Franklin County,OH,24.848484848484848,NA
43130,Fairfield County,OH,NA,47.28915662650602
43204,Franklin County,OH,NA,14.759036144578314
43220,Franklin County,OH,94.54545454545455,NA
43224,Franklin County,OH,8.080808080808081,NA
43402,Wood County,OH,NA,16.867469879518072
43420,Sandusky County,OH,NA,18.67469879518072
43605,Lucas County,OH,19.7979797979798,NA
43608,Lucas County,OH,10.505050505050505,NA
44030,Ashtabula County,OH,NA,16.265060240963855
44044,Lorain County,OH,47.878787878787875,45.78313253012048
44054,Lorain County,OH,33.33333333333333,NA
44060,Lake County,OH,NA,0.6024096385542169
44109,Cuyahoga County,OH,0.20202020202020202,NA
44113,Cuyahoga County,OH,9.696969696969697,NA
44125,Cuyahoga County,OH,NA,9.63855421686747
44138,Cuyahoga County,OH,30.707070707070706,NA
44203,Summit County,OH,8.686868686868687,NA
44216,Summit County,OH,NA,68.37349397590361
44231,Portage County,OH,NA,88.25301204819277
44236,Summit County,OH,NA,26.506024096385545
44240,Portage County,OH,27.070707070707073,NA
44256,Medina County,OH,5.252525252525253,NA
44281,Medina County,OH,NA,15.060240963855422
44312,Summit County,OH,NA,9.939759036144578
44436,Mahoning County,OH,99.39393939393939,NA
44460,Columbiana County,OH,53.535353535353536,8.132530120481928
44485,Trumbull County,OH,NA,40.36144578313253
44504,Mahoning County,OH,NA,87.65060240963855
44512,Mahoning County,OH,57.77777777777777,NA
44515,Mahoning County,OH,34.14141414141414,NA
44706,Stark County,OH,NA,49.6987951807229
44709,Stark County,OH,37.37373737373738,NA
44833,Crawford County,OH,NA,21.385542168674696
44870,Erie County,OH,NA,3.0120481927710845
44889,Huron County,OH,NA,68.67469879518072
45014,Butler County,OH,18.383838383838384,NA
45044,Butler County,OH,7.2727272727272725,NA
45214,Hamilton County,OH,NA,74.09638554216868
45309,Montgomery County,OH,92.72727272727272,NA
45342,Montgomery County,OH,13.131313131313133,NA
45356,Miami County,OH,17.97979797979798,NA
45371,Miami County,OH,NA,23.795180722891565
45373,Miami County,OH,NA,12.650602409638553
45424,Montgomery County,OH,NA,11.144578313253012
45439,Montgomery County,OH,NA,80.72289156626506
45503,Clark County,OH,9.292929292929292,NA
45601,Ross County,OH,NA,0
45680,Lawrence County,OH,15.353535353535353,NA
45764,Athens County,OH,71.31313131313132,NA
45891,Van Wert County,OH,28.28282828282828,NA
73044,Logan County,OK,NA,15.66265060240964
73075,Garvin County,OK,84.04040404040404,NA
73160,Cleveland County,OK,14.14141414141414,NA
74014,Wagoner County,OK,33.73737373737374,NA
74346,Delaware County,OK,87.07070707070706,NA
74801,Pottawatomie County,OK,35.35353535353536,NA
97140,Washington County,OR,57.57575757575758,NA
97216,Multnomah County,OR,51.91919191919192,NA
97222,Clackamas County,OR,NA,37.65060240963856
97233,Multnomah County,OR,20.404040404040405,NA
97322,Linn County,OR,16.565656565656568,NA
97404,Lane County,OR,60.80808080808081,NA
97446,Linn County,OR,NA,96.3855421686747
97537,Jackson County,OR,81.01010101010101,NA
97702,Deschutes County,OR,75.75757575757575,NA
97754,Crook County,OR,77.17171717171716,66.26506024096386
15001,Beaver County,PA,22.626262626262626,NA
15010,Beaver County,PA,NA,33.433734939759034
15024,Allegheny County,PA,NA,80.42168674698796
15068,Westmoreland County,PA,21.616161616161616,NA
15106,Allegheny County,PA,58.18181818181818,NA
15132,Allegheny County,PA,NA,28.915662650602407
15203,Allegheny County,PA,92.32323232323232,NA
15206,Allegheny County,PA,21.01010101010101,NA
15210,Allegheny County,PA,18.585858585858585,NA
15212,Allegheny County,PA,NA,46.98795180722892
15234,Allegheny County,PA,NA,78.01204819277109
15425,Fayette County,PA,29.292929292929294,28.313253012048197
15501,Somerset County,PA,56.56565656565656,NA
15531,Somerset County,PA,NA,99.3975903614458
15650,Westmoreland County,PA,44.04040404040404,NA
16066,Butler County,PA,67.07070707070707,NA
16102,Lawrence County,PA,88.48484848484848,NA
16502,Erie County,PA,41.01010101010101,NA
16503,Erie County,PA,32.92929292929293,NA
16506,Erie County,PA,69.8989898989899,NA
16510,Erie County,PA,72.52525252525253,NA
16652,Huntingdon County,PA,NA,22.289156626506024
16735,McKean County,PA,74.94949494949495,NA
16841,Centre County,PA,88.28282828282829,NA
17025,Cumberland County,PA,31.515151515151512,NA
17044,Mifflin County,PA,80.60606060606061,65.06024096385542
17066,Huntingdon County,PA,73.93939393939394,NA
17111,Dauphin County,PA,NA,6.626506024096386
17406,York County,PA,NA,48.795180722891565
17603,Lancaster County,PA,11.717171717171718,NA
17740,Lycoming County,PA,51.515151515151516,NA
17801,Northumberland County,PA,22.22222222222222,NA
17815,Columbia County,PA,NA,11.74698795180723
17866,Northumberland County,PA,NA,67.7710843373494
17872,Northumberland County,PA,37.57575757575757,NA
18015,Northampton County,PA,10.707070707070706,NA
18049,Lehigh County,PA,41.61616161616162,NA
18103,Lehigh County,PA,7.474747474747474,NA
18706,Luzerne County,PA,82.62626262626263,NA
19023,Delaware County,PA,28.08080808080808,NA
19050,Delaware County,PA,83.63636363636363,NA
19053,Bucks County,PA,29.6969696969697,NA
19134,Philadelphia County,PA,3.8383838383838382,NA
19136,Philadelphia County,PA,13.939393939393941,NA
19138,Philadelphia County,PA,NA,26.80722891566265
19139,Philadelphia County,PA,5.454545454545454,NA
19142,Philadelphia County,PA,14.747474747474747,NA
19143,Philadelphia County,PA,10.1010101010101,NA
19144,Philadelphia County,PA,6.262626262626263,NA
19446,Montgomery County,PA,65.45454545454545,NA
19601,Berks County,PA,4.040404040404041,NA
02871,Newport County,RI,NA,46.68674698795181
02895,Providence County,RI,37.77777777777778,NA
29073,Lexington County,SC,23.83838383838384,NA
29172,Lexington County,SC,NA,84.63855421686746
29372,Spartanburg County,SC,NA,97.89156626506023
29445,Berkeley County,SC,NA,70.18072289156626
29461,Berkeley County,SC,31.313131313131315,NA
29532,Darlington County,SC,NA,59.93975903614458
29611,Greenville County,SC,15.555555555555555,NA
29620,Abbeville County,SC,82.02020202020202,NA
29624,Anderson County,SC,71.91919191919192,NA
29625,Anderson County,SC,30.909090909090907,NA
29642,Pickens County,SC,NA,20.783132530120483
29673,Greenville County,SC,36.36363636363637,NA
29860,Edgefield County,SC,78.3838383838384,NA
57104,Minnehaha County,SD,27.878787878787882,NA
37090,Wilson County,TN,64.84848484848484,NA
37172,Robertson County,TN,20,NA
37343,Hamilton County,TN,NA,25.602409638554217
37617,Sullivan County,TN,NA,87.95180722891565
37660,Sullivan County,TN,10.303030303030303,NA
37874,Monroe County,TN,37.17171717171717,NA
37923,Knox County,TN,NA,79.21686746987952
38237,Weakley County,TN,76.76767676767676,NA
38451,Maury County,TN,NA,98.19277108433735
38556,Fentress County,TN,51.717171717171716,NA
75007,Denton County,TX,46.464646464646464,NA
75019,Dallas County,TX,NA,62.048192771084345
75023,Collin County,TX,NA,42.46987951807229
75033,,TX,70.1010101010101,NA
75040,Dallas County,TX,49.09090909090909,NA
75041,Dallas County,TX,42.02020202020202,NA
75051,Dallas County,TX,39.5959595959596,NA
75063,Dallas County,TX,58.98989898989899,NA
75081,Dallas County,TX,86.66666666666667,NA
75093,Collin County,TX,NA,38.25301204819277
75149,Dallas County,TX,NA,36.74698795180723
75150,Dallas County,TX,NA,20.481927710843372
75180,Dallas County,TX,68.48484848484848,NA
75232,Dallas County,TX,43.63636363636363,50
75401,Hunt County,TX,57.17171717171718,NA
75501,Bowie County,TX,30.1010101010101,NA
76013,Tarrant County,TX,83.83838383838383,NA
76017,Tarrant County,TX,29.898989898989896,NA
76031,Johnson County,TX,NA,59.337349397590366
76065,Ellis County,TX,NA,41.566265060240966
76118,Tarrant County,TX,82.22222222222221,NA
76148,Tarrant County,TX,38.58585858585858,NA
76210,Denton County,TX,NA,65.96385542168674
76247,Denton County,TX,80.8080808080808,NA
76273,Grayson County,TX,NA,77.40963855421687
76305,Wichita County,TX,NA,94.57831325301204
76365,Clay County,TX,91.31313131313131,NA
76513,Bell County,TX,NA,1.5060240963855422
76574,Williamson County,TX,49.494949494949495,NA
76643,McLennan County,TX,NA,69.57831325301204
76692,Hill County,TX,NA,66.56626506024097
76705,McLennan County,TX,48.08080808080808,NA
76901,Tom Green County,TX,77.97979797979798,NA
77014,Harris County,TX,NA,71.08433734939759
77045,Harris County,TX,NA,73.19277108433735
77053,Fort Bend County,TX,NA,64.45783132530121
77070,Harris County,TX,NA,28.614457831325304
77073,Harris County,TX,NA,85.8433734939759
77084,Harris County,TX,NA,28.012048192771083
77327,Liberty County,TX,NA,80.12048192771084
77351,Polk County,TX,43.23232323232323,NA
77354,Montgomery County,TX,49.09090909090909,NA
77379,Harris County,TX,25.656565656565654,NA
77433,Harris County,TX,NA,23.19277108433735
77493,Harris County,TX,62.82828282828283,NA
77511,Brazoria County,TX,NA,13.55421686746988
77517,Galveston County,TX,84.84848484848484,NA
77591,Galveston County,TX,NA,53.6144578313253
77630,Orange County,TX,NA,40.66265060240964
77632,Orange County,TX,52.52525252525253,NA
77833,Washington County,TX,76.56565656565657,NA
77864,Madison County,TX,NA,89.45783132530121
78016,Medina County,TX,NA,92.46987951807229
78109,Bexar County,TX,47.474747474747474,NA
78154,Guadalupe County,TX,75.15151515151514,NA
78163,Comal County,TX,95.75757575757575,NA
78207,Bexar County,TX,NA,15.963855421686745
78212,Bexar County,TX,NA,49.096385542168676
78250,Bexar County,TX,40.2020202020202,NA
78254,Bexar County,TX,44.64646464646464,NA
78526,Cameron County,TX,NA,71.6867469879518
78613,Williamson County,TX,NA,21.084337349397593
79109,Randall County,TX,35.55555555555556,52.40963855421686
79915,El Paso County,TX,NA,59.63855421686747
79936,El Paso County,TX,NA,22.590361445783135
84084,Salt Lake County,UT,NA,79.51807228915662
84115,Salt Lake County,UT,36.16161616161616,41.265060240963855
84321,Cache County,UT,86.06060606060606,NA
84405,Weber County,UT,NA,69.87951807228916
05201,Bennington County,VT,NA,27.10843373493976
05401,Chittenden County,VT,89.6969696969697,NA
22209,Arlington County,VA,88.88888888888889,NA
22407,Spotsylvania County,VA,NA,21.987951807228914
22602,Frederick County,VA,NA,61.44578313253012
22625,Frederick County,VA,97.77777777777777,NA
22903,Charlottesville city,VA,NA,23.49397590361446
23040,Cumberland County,VA,99.79797979797979,NA
23061,Gloucester County,VA,65.25252525252525,NA
23111,Hanover County,VA,NA,18.072289156626507
23112,Chesterfield County,VA,74.74747474747475,NA
23225,Richmond city,VA,17.575757575757574,NA
23434,Suffolk city,VA,NA,10.843373493975903
23453,Virginia Beach city,VA,48.282828282828284,NA
23462,Virginia Beach city,VA,21.21212121212121,NA
23464,Virginia Beach city,VA,20.606060606060606,NA
23503,Norfolk city,VA,85.65656565656565,NA
23504,Norfolk city,VA,26.464646464646464,NA
23860,Hopewell city,VA,NA,35.54216867469879
24016,Roanoke city,VA,87.67676767676768,NA
24019,Roanoke County,VA,56.36363636363636,NA
24266,Russell County,VA,71.51515151515152,NA
24340,Washington County,VA,95.55555555555556,NA
24540,Danville city,VA,NA,35.24096385542169
98027,King County,WA,NA,50.30120481927711
98203,Snohomish County,WA,46.06060606060606,NA
98260,Island County,WA,97.37373737373738,NA
98335,Pierce County,WA,61.41414141414141,NA
98338,Pierce County,WA,NA,39.75903614457831
98370,Kitsap County,WA,73.13131313131314,49.39759036144578
98387,Pierce County,WA,24.444444444444443,NA
98409,Pierce County,WA,NA,92.16867469879519
98671,Clark County,WA,NA,82.53012048192771
20019,District of Columbia,DC,5.656565656565657,NA
25177,Kanawha County,WV,15.151515151515152,NA
26101,Wood County,WV,6.8686868686868685,NA
26105,Wood County,WV,48.68686868686869,NA
26150,Wood County,WV,93.53535353535354,NA
53029,Waukesha County,WI,NA,58.43373493975904
53074,Ozaukee County,WI,72.12121212121212,NA
53095,Washington County,WI,52.323232323232325,NA
53105,Racine County,WI,19.5959595959596,NA
53118,Waukesha County,WI,NA,91.26506024096386
53142,Kenosha County,WI,NA,24.397590361445783
53144,Kenosha County,WI,47.070707070707066,NA
53185,Racine County,WI,59.1919191919192,61.14457831325302
53204,Milwaukee County,WI,27.474747474747474,NA
53209,Milwaukee County,WI,2.8282828282828283,NA
53215,Milwaukee County,WI,24.04040404040404,NA
53218,Milwaukee County,WI,8.88888888888889,NA
53511,Rock County,WI,1.0101010101010102,NA
53949,Marquette County,WI,NA,88.55421686746988
54501,Oneida County,WI,NA,25
54703,Eau Claire County,WI,23.03030303030303,NA
54880,Douglas County,WI,NA,3.91566265060241
54901,Winnebago County,WI,26.86868686868687,NA
82001,Laramie County,WY,75.35353535353535,NA
