ZipCode,county,state,Adult,Retirement
35055,Cullman County,AL,NA,64.05959031657356
35068,Jefferson County,AL,NA,91.9925512104283
35085,Chilton County,AL,NA,96.2756052141527
35223,Jefferson County,AL,NA,79.14338919925513
35226,Jefferson County,AL,NA,20.11173184357542
35549,Walker County,AL,96.36363636363636,NA
35811,Madison County,AL,NA,41.71322160148976
36067,Autauga County,AL,32.27272727272727,NA
36104,Montgomery County,AL,53.63636363636364,NA
36117,Montgomery County,AL,NA,36.312849162011176
36265,Calhoun County,AL,75.9090909090909,NA
36272,Calhoun County,AL,NA,74.487895716946
36576,Baldwin County,AL,96.5909090909091,NA
36582,Mobile County,AL,NA,90.31657355679702
36608,Mobile County,AL,40.68181818181818,NA
36609,Mobile County,AL,NA,64.43202979515829
36695,Mobile County,AL,30.454545454545457,29.05027932960894
36862,Chambers County,AL,83.18181818181817,NA
99501,Anchorage Municipality,AK,NA,71.69459962756052
85008,Maricopa County,AZ,39.54545454545455,NA
85016,Maricopa County,AZ,NA,33.89199255121043
85035,Maricopa County,AZ,71.81818181818181,NA
85037,Maricopa County,AZ,23.863636363636363,NA
85118,Pinal County,AZ,NA,65.92178770949721
85119,Pinal County,AZ,NA,43.76163873370577
85142,Maricopa County,AZ,NA,24.767225325884542
85202,Maricopa County,AZ,NA,80.8193668528864
85209,Maricopa County,AZ,NA,60.14897579143389
85248,Maricopa County,AZ,78.86363636363637,NA
85251,Maricopa County,AZ,80.22727272727272,NA
85257,Maricopa County,AZ,NA,66.4804469273743
85258,Maricopa County,AZ,NA,84.17132216014897
85259,Maricopa County,AZ,92.27272727272727,NA
85284,Maricopa County,AZ,NA,82.68156424581005
85303,Maricopa County,AZ,NA,69.6461824953445
85344,La Paz County,AZ,33.86363636363636,NA
85350,Yuma County,AZ,NA,67.97020484171323
85377,Maricopa County,AZ,98.63636363636363,NA
85392,Maricopa County,AZ,NA,81.9366852886406
85607,Cochise County,AZ,80.68181818181817,NA
85705,Pima County,AZ,NA,7.262569832402235
85706,Pima County,AZ,NA,8.379888268156424
85716,Pima County,AZ,NA,24.953445065176908
85746,Pima County,AZ,NA,35.754189944134076
86001,Coconino County,AZ,67.5,NA
86047,Navajo County,AZ,30.909090909090907,NA
86314,Yavapai County,AZ,16.363636363636363,NA
86323,Yavapai County,AZ,NA,60.70763500931099
86409,Mohave County,AZ,NA,4.655493482309125
86505,Apache County,AZ,NA,93.1098696461825
71602,Jefferson County,AR,NA,72.8119180633147
72065,Saline County,AR,97.95454545454545,NA
72081,White County,AR,82.95454545454545,NA
72120,Pulaski County,AR,NA,14.8975791433892
72364,Crittenden County,AR,NA,89.57169459962756
72450,Greene County,AR,19.772727272727273,NA
72501,Independence County,AR,NA,24.20856610800745
72762,Washington County,AR,43.86363636363637,NA
72901,Sebastian County,AR,NA,71.50837988826815
90002,Los Angeles County,CA,58.409090909090914,NA
90003,Los Angeles County,CA,NA,38.17504655493482
90026,Los Angeles County,CA,42.72727272727273,NA
90033,Los Angeles County,CA,NA,49.72067039106145
90057,Los Angeles County,CA,79.31818181818183,NA
90280,Los Angeles County,CA,29.318181818181817,NA
90504,Los Angeles County,CA,66.5909090909091,NA
90606,Los Angeles County,CA,49.77272727272727,NA
90620,Orange County,CA,45.68181818181819,NA
90630,Orange County,CA,44.31818181818182,NA
90650,Los Angeles County,CA,NA,12.849162011173185
90660,Los Angeles County,CA,NA,34.07821229050279
90680,Orange County,CA,NA,75.60521415270019
90706,Los Angeles County,CA,NA,35.19553072625698
90732,Los Angeles County,CA,79.54545454545455,NA
90814,Los Angeles County,CA,NA,100
91104,Los Angeles County,CA,40.45454545454545,NA
91316,Los Angeles County,CA,NA,54.56238361266295
91321,Los Angeles County,CA,NA,64.99068901303538
91335,Los Angeles County,CA,NA,32.588454376163874
91402,Los Angeles County,CA,25.454545454545453,NA
91406,Los Angeles County,CA,85.22727272727273,NA
91604,Los Angeles County,CA,57.27272727272727,NA
91723,Los Angeles County,CA,NA,87.89571694599627
91766,Los Angeles County,CA,NA,45.2513966480447
91784,San Bernardino County,CA,NA,46.927374301675975
91786,San Bernardino County,CA,NA,68.90130353817506
91790,Los Angeles County,CA,50,50.27932960893855
91910,San Diego County,CA,NA,29.42271880819367
91911,San Diego County,CA,NA,16.201117318435752
91913,San Diego County,CA,69.31818181818183,NA
92020,San Diego County,CA,NA,7.4487895716946
92021,San Diego County,CA,15.454545454545453,NA
92028,San Diego County,CA,NA,49.534450651769085
92040,San Diego County,CA,NA,61.452513966480446
92056,San Diego County,CA,NA,32.21601489757914
92064,San Diego County,CA,46.81818181818182,NA
92082,San Diego County,CA,86.5909090909091,NA
92084,San Diego County,CA,56.59090909090909,NA
92105,San Diego County,CA,45,29.236499068901306
92107,San Diego County,CA,NA,95.34450651769087
92109,San Diego County,CA,NA,56.61080074487895
92113,San Diego County,CA,NA,33.33333333333333
92114,San Diego County,CA,NA,62.75605214152699
92129,San Diego County,CA,NA,48.4171322160149
92154,San Diego County,CA,NA,19.180633147113593
92231,Imperial County,CA,62.727272727272734,11.91806331471136
92240,Riverside County,CA,51.590909090909086,NA
92241,Riverside County,CA,NA,82.86778398510242
92277,San Bernardino County,CA,NA,61.26629422718808
92307,San Bernardino County,CA,25.681818181818183,NA
92311,San Bernardino County,CA,NA,53.25884543761639
92314,San Bernardino County,CA,NA,92.73743016759776
92324,San Bernardino County,CA,20.227272727272727,NA
92325,San Bernardino County,CA,NA,86.21973929236499
92336,San Bernardino County,CA,NA,52.1415270018622
92405,San Bernardino County,CA,NA,80.07448789571696
92503,Riverside County,CA,48.18181818181818,NA
92507,Riverside County,CA,38.40909090909091,NA
92545,Riverside County,CA,38.86363636363636,NA
92563,Riverside County,CA,NA,40.9683426443203
92629,Orange County,CA,69.77272727272728,NA
92660,Orange County,CA,NA,40.03724394785848
92692,Orange County,CA,NA,23.277467411545626
92801,Orange County,CA,64.0909090909091,NA
92805,Orange County,CA,NA,42.08566108007449
92860,Riverside County,CA,NA,65.54934823091247
92870,Orange County,CA,NA,22.532588454376164
92883,Riverside County,CA,NA,63.128491620111724
93001,Ventura County,CA,24.545454545454547,NA
93033,Ventura County,CA,NA,40.03724394785848
93036,Ventura County,CA,27.727272727272727,NA
93270,Tulare County,CA,NA,98.69646182495345
93306,Kern County,CA,NA,37.80260707635009
93444,San Luis Obispo County,CA,57.49999999999999,NA
93455,Santa Barbara County,CA,29.545454545454547,NA
93560,Kern County,CA,72.5,NA
93612,Fresno County,CA,41.36363636363637,NA
93702,Fresno County,CA,26.36363636363636,NA
93726,Fresno County,CA,51.13636363636363,NA
93950,Monterey County,CA,NA,68.52886405959032
94019,San Mateo County,CA,77.27272727272727,NA
94041,Santa Clara County,CA,89.77272727272727,NA
94044,San Mateo County,CA,NA,25.69832402234637
94134,San Francisco County,CA,NA,92.36499068901304
94520,Contra Costa County,CA,NA,62.01117318435754
94536,Alameda County,CA,28.863636363636363,NA
94546,Alameda County,CA,48.86363636363637,NA
94551,Alameda County,CA,NA,53.81750465549349
94583,Contra Costa County,CA,NA,63.687150837988824
94587,Alameda County,CA,65.22727272727272,NA
94590,Solano County,CA,NA,25.139664804469277
94901,Marin County,CA,NA,38.547486033519554
95014,Santa Clara County,CA,NA,62.19739292364991
95116,Santa Clara County,CA,NA,82.49534450651768
95117,Santa Clara County,CA,NA,72.43947858472998
95122,Santa Clara County,CA,NA,49.162011173184354
95123,Santa Clara County,CA,NA,25.512104283054004
95132,Santa Clara County,CA,72.72727272727273,NA
95138,Santa Clara County,CA,85.68181818181819,NA
95242,San Joaquin County,CA,NA,54.00372439478585
95380,Stanislaus County,CA,NA,84.5437616387337
95382,Stanislaus County,CA,NA,27.188081936685286
95403,Sonoma County,CA,NA,38.733705772811916
95453,Lake County,CA,68.18181818181817,NA
95501,Humboldt County,CA,49.09090909090909,NA
95603,Placer County,CA,84.0909090909091,NA
95624,Sacramento County,CA,NA,24.022346368715084
95691,Yolo County,CA,NA,54.7486033519553
95758,Sacramento County,CA,50.68181818181819,46.36871508379888
95823,Sacramento County,CA,NA,17.318435754189945
95832,Sacramento County,CA,86.81818181818181,NA
95928,Butte County,CA,76.81818181818181,NA
95953,Sutter County,CA,78.63636363636364,NA
95966,Butte County,CA,10.227272727272728,NA
80014,Arapahoe County,CO,NA,24.581005586592177
80016,Arapahoe County,CO,NA,15.64245810055866
80121,Arapahoe County,CO,NA,72.62569832402235
80226,Jefferson County,CO,NA,77.6536312849162
80236,Denver County,CO,77.5,NA
80260,Adams County,CO,NA,59.96275605214153
80439,Jefferson County,CO,NA,50.65176908752328
80631,Weld County,CO,8.636363636363637,NA
80817,El Paso County,CO,50.227272727272734,NA
80911,El Paso County,CO,NA,77.83985102420856
80923,El Paso County,CO,60,NA
81101,Alamosa County,CO,40.22727272727273,NA
81226,Fremont County,CO,86.36363636363636,NA
81301,La Plata County,CO,NA,94.78584729981378
81623,Garfield County,CO,NA,65.17690875232775
06010,Hartford County,CT,NA,18.063314711359403
06053,Hartford County,CT,NA,24.39478584729981
06108,Hartford County,CT,NA,57.35567970204841
06110,Hartford County,CT,NA,89.94413407821229
06405,New Haven County,CT,NA,25.69832402234637
06416,Middlesex County,CT,97.04545454545455,NA
06473,New Haven County,CT,NA,97.76536312849163
06513,New Haven County,CT,NA,8.56610800744879
06516,New Haven County,CT,NA,3.35195530726257
06790,Litchfield County,CT,NA,16.75977653631285
06820,Fairfield County,CT,70.45454545454545,NA
19958,Sussex County,DE,30.227272727272727,NA
32003,Clay County,FL,NA,50.65176908752328
32025,Columbia County,FL,34.77272727272727,NA
32046,Nassau County,FL,NA,87.52327746741155
32055,Columbia County,FL,38.18181818181819,NA
32114,Volusia County,FL,NA,42.45810055865922
32164,Flagler County,FL,NA,13.03538175046555
32207,Duval County,FL,NA,9.683426443202979
32218,Duval County,FL,NA,3.165735567970205
32233,Duval County,FL,NA,37.61638733705773
32234,Duval County,FL,NA,75.79143389199255
32250,Duval County,FL,NA,30.16759776536313
32257,Duval County,FL,56.36363636363636,NA
32408,Bay County,FL,NA,65.73556797020484
32440,Jackson County,FL,NA,88.26815642458101
32570,Santa Rosa County,FL,NA,5.772811918063315
32571,Santa Rosa County,FL,13.863636363636363,NA
32577,Escambia County,FL,NA,74.11545623836126
32578,Okaloosa County,FL,76.36363636363637,NA
32607,Alachua County,FL,NA,44.320297951582866
32609,Alachua County,FL,NA,51.39664804469274
32669,Alachua County,FL,64.31818181818181,NA
32750,Seminole County,FL,NA,52.513966480446925
32803,Orange County,FL,69.54545454545455,NA
32812,Orange County,FL,NA,78.39851024208566
32825,Orange County,FL,NA,70.39106145251397
32935,Brevard County,FL,19.545454545454547,42.83054003724395
32955,Brevard County,FL,NA,59.40409683426443
33012,Miami-Dade County,FL,NA,22.160148975791433
33029,Broward County,FL,58.86363636363636,NA
33040,Monroe County,FL,40.909090909090914,NA
33064,Broward County,FL,NA,15.64245810055866
33172,Miami-Dade County,FL,NA,59.77653631284916
33311,Broward County,FL,NA,18.808193668528865
33317,Broward County,FL,NA,44.6927374301676
33408,Palm Beach County,FL,70.22727272727273,NA
33542,Pasco County,FL,NA,48.97579143389199
33609,Hillsborough County,FL,NA,58.10055865921788
33703,Pinellas County,FL,55.00000000000001,NA
33708,Pinellas County,FL,87.72727272727273,NA
33709,Pinellas County,FL,73.63636363636363,NA
33774,Pinellas County,FL,NA,69.27374301675978
33801,Polk County,FL,21.818181818181817,NA
33830,Polk County,FL,NA,44.50651769087523
33844,Polk County,FL,67.04545454545455,NA
33884,Polk County,FL,NA,78.02607076350093
33904,Lee County,FL,34.54545454545455,NA
33914,Lee County,FL,NA,12.476722532588454
33928,Lee County,FL,NA,30.353817504655495
33990,Lee County,FL,NA,39.29236499068901
34103,Collier County,FL,NA,66.85288640595903
34112,Collier County,FL,NA,35.38175046554935
34238,Sarasota County,FL,NA,38.361266294227185
34293,Sarasota County,FL,NA,6.890130353817504
34428,Citrus County,FL,NA,83.79888268156425
34473,Marion County,FL,45.22727272727273,NA
34479,Marion County,FL,NA,83.9851024208566
34491,Marion County,FL,NA,32.02979515828678
34607,Hernando County,FL,NA,76.35009310986965
34655,Pasco County,FL,63.40909090909091,NA
34683,Pinellas County,FL,NA,47.486033519553075
34695,Pinellas County,FL,NA,70.7635009310987
34785,Sumter County,FL,NA,79.3296089385475
34957,Martin County,FL,NA,32.774674115456236
34990,Martin County,FL,NA,23.649906890130353
30004,Fulton County,GA,NA,34.45065176908753
30022,Fulton County,GA,NA,44.134078212290504
30045,Gwinnett County,GA,55.90909090909091,NA
30060,Cobb County,GA,35.68181818181818,NA
30076,Fulton County,GA,60.909090909090914,NA
30080,Cobb County,GA,49.31818181818181,NA
30096,Gwinnett County,GA,24.772727272727273,NA
30122,Douglas County,GA,NA,93.29608938547486
30135,Douglas County,GA,NA,46.18249534450652
30152,Cobb County,GA,NA,93.85474860335195
30161,Floyd County,GA,NA,57.54189944134078
30188,Cherokee County,GA,NA,13.780260707635009
30217,Heard County,GA,92.04545454545455,NA
30228,Henry County,GA,NA,60.70763500931099
30233,Butts County,GA,57.04545454545455,NA
30263,Coweta County,GA,NA,10.614525139664805
30350,Fulton County,GA,NA,85.84729981378027
30427,Tattnall County,GA,NA,90.68901303538175
30506,Hall County,GA,27.500000000000004,18.435754189944134
30530,Banks County,GA,92.72727272727272,NA
30533,Lumpkin County,GA,91.13636363636364,NA
30601,Clarke County,GA,NA,70.2048417132216
30721,Whitfield County,GA,22.727272727272727,NA
30814,Columbia County,GA,77.04545454545455,NA
30907,Columbia County,GA,79.77272727272727,NA
31015,Crisp County,GA,NA,31.098696461824954
31047,Houston County,GA,NA,94.41340782122904
31088,Houston County,GA,NA,19.73929236499069
31410,Chatham County,GA,82.27272727272728,NA
31553,Brantley County,GA,NA,99.25512104283054
31788,Colquitt County,GA,93.18181818181817,NA
31794,Tift County,GA,NA,54.37616387337057
96720,Hawaii County,HI,NA,79.51582867783985
96789,Honolulu County,HI,NA,7.82122905027933
96791,Honolulu County,HI,NA,95.7169459962756
96793,Maui County,HI,NA,63.50093109869647
83642,Ada County,ID,NA,7.635009310986965
83686,Canyon County,ID,7.5,NA
83860,Bonner County,ID,NA,87.33705772811918
60008,Cook County,IL,NA,58.47299813780261
60014,McHenry County,IL,NA,12.290502793296088
60016,Cook County,IL,NA,10.05586592178771
60030,Lake County,IL,39.77272727272727,NA
60047,Lake County,IL,33.18181818181819,NA
60061,Lake County,IL,NA,50.09310986964618
60068,Cook County,IL,37.04545454545455,NA
60074,Cook County,IL,38.63636363636363,NA
60085,Lake County,IL,NA,28.677839851024206
60115,DeKalb County,IL,NA,28.11918063314711
60126,DuPage County,IL,9.772727272727273,19.925512104283055
60133,Cook County,IL,82.72727272727273,NA
60134,Kane County,IL,NA,40.78212290502793
60188,DuPage County,IL,NA,21.042830540037244
60190,DuPage County,IL,NA,75.23277467411546
60411,Cook County,IL,39.09090909090909,NA
60423,Will County,IL,NA,21.787709497206702
60442,Will County,IL,NA,83.24022346368714
60443,Cook County,IL,NA,86.96461824953445
60475,Will County,IL,75.45454545454545,NA
60505,Kane County,IL,28.18181818181818,NA
60514,DuPage County,IL,88.63636363636364,NA
60515,DuPage County,IL,NA,33.70577281191806
60521,DuPage County,IL,NA,60.33519553072626
60561,DuPage County,IL,NA,29.608938547486037
60612,Cook County,IL,18.409090909090907,NA
60614,Cook County,IL,52.27272727272727,NA
60622,Cook County,IL,NA,78.77094972067039
60623,Cook County,IL,6.136363636363637,NA
60640,Cook County,IL,8.863636363636363,NA
60804,Cook County,IL,NA,10.986964618249534
61063,Winnebago County,IL,NA,99.81378026070763
61104,Winnebago County,IL,90.68181818181819,NA
61554,Tazewell County,IL,26.590909090909093,NA
61727,De Witt County,IL,67.95454545454545,NA
61938,Coles County,IL,NA,73.55679702048417
62002,Madison County,IL,61.59090909090909,17.690875232774676
62034,Madison County,IL,NA,79.88826815642457
62088,Macoupin County,IL,99.0909090909091,NA
62204,St. Clair County,IL,76.5909090909091,NA
62205,St. Clair County,IL,87.27272727272727,NA
62232,St. Clair County,IL,95.22727272727273,NA
62254,St. Clair County,IL,95.68181818181817,NA
62305,Adams County,IL,85.45454545454545,NA
62924,Jackson County,IL,100,NA
46064,Madison County,IN,66.13636363636364,NA
46072,Tipton County,IN,NA,74.86033519553072
46112,Hendricks County,IN,NA,48.23091247672253
46168,Hendricks County,IN,36.81818181818181,NA
46222,Marion County,IN,NA,26.443202979515828
46226,Marion County,IN,37.27272727272727,NA
46254,Marion County,IN,20.909090909090907,NA
46280,Hamilton County,IN,NA,99.62756052141528
46304,Porter County,IN,NA,16.01489757914339
46342,Lake County,IN,5,NA
46356,Lake County,IN,NA,33.14711359404097
46407,Lake County,IN,42.5,NA
46516,Elkhart County,IN,17.272727272727273,NA
46614,St. Joseph County,IN,NA,83.61266294227188
46825,Allen County,IN,67.27272727272727,NA
46902,Howard County,IN,NA,3.7243947858473
46952,Grant County,IN,NA,6.517690875232775
47031,Ripley County,IN,NA,91.24767225325886
47302,Delaware County,IN,NA,68.34264432029795
47303,Delaware County,IN,NA,53.072625698324025
47371,Jay County,IN,51.81818181818182,NA
47390,Randolph County,IN,NA,92.5512104283054
47403,Monroe County,IN,60.68181818181818,NA
47452,Orange County,IN,NA,90.13035381750466
47630,Warrick County,IN,NA,21.973929236499067
47710,Vanderburgh County,IN,31.818181818181817,NA
47906,Tippecanoe County,IN,52.95454545454545,NA
50327,Polk County,IA,77.95454545454545,NA
50401,Cerro Gordo County,IA,57.95454545454546,NA
51501,Pottawattamie County,IA,3.6363636363636362,NA
52655,Des Moines County,IA,NA,94.59962756052141
66062,Johnson County,KS,NA,13.40782122905028
66202,Johnson County,KS,NA,65.36312849162012
66204,Johnson County,KS,68.63636363636364,NA
66212,Johnson County,KS,54.31818181818182,NA
66216,Johnson County,KS,68.86363636363636,NA
66441,Geary County,KS,NA,64.61824953445065
66749,Allen County,KS,NA,97.57914338919925
67204,Sedgwick County,KS,NA,68.15642458100558
40069,Washington County,KY,NA,97.20670391061452
40165,Bullitt County,KY,NA,14.711359404096836
40211,Jefferson County,KY,13.18181818181818,NA
40342,Anderson County,KY,31.136363636363633,NA
40509,Fayette County,KY,NA,39.47858472998138
40962,Clay County,KY,NA,57.16945996275605
41175,Greenup County,KY,62.5,NA
41522,Pike County,KY,70,NA
42765,Hart County,KY,NA,98.88268156424581
70003,Jefferson Parish,LA,NA,69.83240223463687
70092,St. Bernard Parish,LA,62.272727272727266,NA
70094,Jefferson Parish,LA,4.772727272727273,NA
70119,Orleans Parish,LA,NA,7.076350093109869
70128,Orleans Parish,LA,NA,29.981378026070765
70401,Tangipahoa Parish,LA,56.81818181818182,NA
70403,Tangipahoa Parish,LA,NA,27.560521415270017
70445,St. Tammany Parish,LA,55.45454545454545,NA
70555,Vermilion Parish,LA,NA,98.51024208566108
70592,Lafayette Parish,LA,NA,90.5027932960894
70607,Calcasieu Parish,LA,NA,64.24581005586593
70663,Calcasieu Parish,LA,7.727272727272727,NA
70775,West Feliciana Parish,LA,NA,91.80633147113593
70814,East Baton Rouge Parish,LA,31.363636363636367,NA
71202,Ouachita Parish,LA,4.545454545454546,NA
71292,Ouachita Parish,LA,NA,56.79702048417133
03908,York County,ME,75.68181818181819,NA
04210,Androscoggin County,ME,NA,8.752327746741155
04530,Sagadahoc County,ME,NA,45.43761638733706
20707,Prince George's County,MD,91.81818181818183,NA
20770,Prince George's County,MD,72.04545454545455,NA
20784,Prince George's County,MD,65.9090909090909,NA
20901,Montgomery County,MD,NA,84.72998137802608
20902,Montgomery County,MD,NA,61.82495344506518
21035,Anne Arundel County,MD,89.31818181818181,NA
21122,Anne Arundel County,MD,6.8181818181818175,NA
21131,Baltimore County,MD,NA,91.62011173184358
21550,Garrett County,MD,NA,43.01675977653631
21703,Frederick County,MD,59.31818181818181,NA
21769,Frederick County,MD,92.95454545454545,NA
21791,Carroll County,MD,97.5,NA
21804,Wicomico County,MD,44.09090909090909,NA
21863,Worcester County,MD,93.63636363636364,NA
01040,Hampden County,MA,NA,2.0484171322160147
01082,Hampshire County,MA,NA,99.4413407821229
01109,Hampden County,MA,NA,36.12662942271881
01463,Middlesex County,MA,NA,90.68901303538175
01562,Worcester County,MA,NA,39.85102420856611
01581,Worcester County,MA,NA,54.7486033519553
01583,Worcester County,MA,94.77272727272728,NA
01608,Worcester County,MA,98.18181818181819,NA
01609,Worcester County,MA,2.9545454545454546,NA
01720,Middlesex County,MA,NA,31.471135940409685
01748,Middlesex County,MA,NA,37.43016759776536
01752,Middlesex County,MA,NA,44.878957169459966
01841,Essex County,MA,NA,0.186219739292365
01852,Middlesex County,MA,0.45454545454545453,NA
01854,Middlesex County,MA,NA,6.145251396648044
01879,Middlesex County,MA,81.36363636363636,NA
01915,Essex County,MA,NA,9.869646182495345
01938,Essex County,MA,NA,13.594040968342643
01966,Essex County,MA,91.5909090909091,NA
02035,Norfolk County,MA,75.9090909090909,NA
02148,Middlesex County,MA,0,NA
02149,Middlesex County,MA,NA,0.931098696461825
02151,Suffolk County,MA,0.22727272727272727,NA
02184,Norfolk County,MA,NA,34.63687150837989
02368,Norfolk County,MA,NA,5.95903165735568
02446,Norfolk County,MA,19.090909090909093,NA
02675,Barnstable County,MA,75,NA
02718,Bristol County,MA,NA,81.56424581005587
02771,Bristol County,MA,35.90909090909091,NA
48035,Macomb County,MI,NA,38.91992551210428
48047,Macomb County,MI,13.636363636363635,NA
48088,Macomb County,MI,NA,23.09124767225326
48111,Wayne County,MI,5.909090909090909,NA
48141,Wayne County,MI,8.181818181818182,NA
48158,Washtenaw County,MI,70.68181818181817,NA
48162,Monroe County,MI,NA,2.97951582867784
48173,Wayne County,MI,NA,71.13594040968343
48197,Washtenaw County,MI,2.0454545454545454,2.4208566108007448
48206,Wayne County,MI,NA,27.001862197392924
48209,Wayne County,MI,22.272727272727273,NA
48227,Wayne County,MI,17.727272727272727,NA
48236,Wayne County,MI,74.0909090909091,NA
48239,Wayne County,MI,NA,8.938547486033519
48315,Macomb County,MI,NA,55.679702048417134
48429,Shiawassee County,MI,NA,68.71508379888269
48439,Genesee County,MI,12.5,NA
48444,Lapeer County,MI,NA,78.02607076350093
48624,Gladwin County,MI,35.22727272727273,NA
48638,Saginaw County,MI,NA,43.20297951582867
48706,Bay County,MI,6.363636363636363,NA
48842,Ingham County,MI,NA,35.940409683426445
48858,Isabella County,MI,25.227272727272727,NA
49001,Kalamazoo County,MI,NA,55.865921787709496
49017,Calhoun County,MI,NA,23.83612662942272
49055,Van Buren County,MI,NA,73.9292364990689
49085,Berrien County,MI,52.72727272727272,NA
49417,Ottawa County,MI,45.45454545454545,NA
49765,Presque Isle County,MI,82.5,NA
55024,Dakota County,MN,73.4090909090909,NA
55101,Ramsey County,MN,30,NA
55316,Hennepin County,MN,NA,84.91620111731844
55350,McLeod County,MN,NA,66.29422718808193
55398,Sherburne County,MN,70.9090909090909,NA
55430,Hennepin County,MN,46.590909090909086,NA
55720,Carlton County,MN,29.09090909090909,42.27188081936685
55912,Mower County,MN,NA,3.5381750465549344
56013,Faribault County,MN,87.04545454545455,NA
56387,Stearns County,MN,NA,97.39292364990689
38654,DeSoto County,MS,22.5,NA
38732,Bolivar County,MS,34.31818181818182,NA
39059,Copiah County,MS,74.31818181818181,NA
39452,George County,MS,NA,20.297951582867785
39773,Clay County,MS,NA,67.22532588454376
63114,St. Louis County,MO,23.636363636363637,NA
63367,St. Charles County,MO,53.86363636363637,NA
63801,Scott County,MO,52.5,NA
64030,Jackson County,MO,17.954545454545453,NA
64057,Jackson County,MO,40,NA
64075,Jackson County,MO,NA,65.92178770949721
64080,Cass County,MO,NA,75.41899441340783
64127,Jackson County,MO,5.681818181818182,NA
64801,Jasper County,MO,NA,12.104283054003725
65233,Cooper County,MO,NA,63.128491620111724
65360,Henry County,MO,83.63636363636363,NA
65616,Taney County,MO,NA,32.402234636871505
65705,Lawrence County,MO,96.13636363636363,NA
65706,Webster County,MO,77.72727272727272,NA
65803,Greene County,MO,NA,10.242085661080075
59404,Cascade County,MT,NA,9.31098696461825
59602,Lewis and Clark County,MT,NA,67.0391061452514
68046,Sarpy County,NE,NA,73.18435754189943
68118,Douglas County,NE,95,NA
68801,Hall County,NE,80,NA
89102,Clark County,NV,47.5,NA
89119,Clark County,NV,NA,80.26070763500931
89130,Clark County,NV,NA,55.3072625698324
89145,Clark County,NV,NA,98.32402234636871
89178,Clark County,NV,69.0909090909091,NA
89502,Washoe County,NV,19.772727272727273,NA
03110,Hillsborough County,NH,NA,85.28864059590316
03246,Belknap County,NH,44.77272727272727,NA
03833,Rockingham County,NH,NA,85.47486033519553
07002,Hudson County,NJ,1.1363636363636365,NA
07046,Morris County,NJ,98.4090909090909,NA
07052,Essex County,NJ,NA,48.78957169459962
07054,Morris County,NJ,47.95454545454545,NA
07065,Union County,NJ,21.59090909090909,NA
07080,Middlesex County,NJ,54.54545454545454,NA
07416,Sussex County,NJ,NA,84.35754189944134
07436,Bergen County,NJ,88.4090909090909,NA
07461,Sussex County,NJ,NA,59.5903165735568
07506,Passaic County,NJ,83.86363636363636,NA
07604,Bergen County,NJ,NA,86.77839851024208
07675,Bergen County,NJ,NA,47.486033519553075
07677,Bergen County,NJ,NA,92.17877094972067
07728,Monmouth County,NJ,15,NA
07876,Morris County,NJ,88.18181818181819,NA
08002,Camden County,NJ,NA,42.64432029795158
08004,Camden County,NJ,53.40909090909091,NA
08037,Atlantic County,NJ,15.909090909090908,NA
08052,Burlington County,NJ,59.09090909090909,NA
08069,Salem County,NJ,NA,78.58472998137802
08081,Camden County,NJ,11.59090909090909,NA
08093,Gloucester County,NJ,66.36363636363637,NA
08103,Camden County,NJ,4.318181818181818,NA
08109,Camden County,NJ,NA,36.312849162011176
08210,Cape May County,NJ,33.63636363636363,NA
08302,Cumberland County,NJ,10,NA
08360,Cumberland County,NJ,0.6818181818181818,8.193668528864059
08609,Mercer County,NJ,10.681818181818182,NA
08610,Mercer County,NJ,6.59090909090909,NA
08753,Ocean County,NJ,NA,4.4692737430167595
08844,Somerset County,NJ,NA,85.6610800744879
08879,Middlesex County,NJ,29.772727272727273,NA
87112,Bernalillo County,NM,14.09090909090909,NA
87301,McKinley County,NM,24.31818181818182,NA
87401,San Juan County,NM,63.86363636363637,NA
87420,San Juan County,NM,27.27272727272727,NA
87505,Santa Fe County,NM,NA,6.33147113594041
87701,San Miguel County,NM,45.909090909090914,NA
88061,Grant County,NM,67.72727272727272,NA
88240,Lea County,NM,5.454545454545454,NA
10001,New York County,NY,12.045454545454545,NA
10002,New York County,NY,NA,2.60707635009311
10026,New York County,NY,NA,17.50465549348231
10029,New York County,NY,NA,14.152700186219738
10305,Richmond County,NY,NA,70.94972067039106
10451,Bronx County,NY,16.590909090909093,NA
10456,Bronx County,NY,NA,0
10458,Bronx County,NY,NA,17.13221601489758
10472,Bronx County,NY,NA,2.2346368715083798
10550,Westchester County,NY,NA,58.84543761638734
10589,Westchester County,NY,99.54545454545455,NA
10701,Westchester County,NY,1.3636363636363635,NA
10940,Orange County,NY,16.136363636363637,NA
11101,Queens County,NY,NA,89.75791433891993
11204,Kings County,NY,26.136363636363637,NA
11205,Kings County,NY,37.72727272727273,NA
11207,Kings County,NY,NA,1.1173184357541899
11214,Kings County,NY,15.681818181818183,NA
11222,Kings County,NY,58.409090909090914,NA
11224,Kings County,NY,18.863636363636363,NA
11354,Queens County,NY,NA,31.098696461824954
11355,Queens County,NY,NA,15.27001862197393
11368,Queens County,NY,NA,15.083798882681565
11385,Queens County,NY,NA,9.497206703910614
11412,Queens County,NY,NA,45.06517690875233
11751,Suffolk County,NY,84.54545454545455,NA
12180,Rensselaer County,NY,1.8181818181818181,NA
12203,Albany County,NY,34.090909090909086,NA
12303,Schenectady County,NY,NA,41.154562383612664
12601,Dutchess County,NY,60.22727272727273,NA
12701,Sullivan County,NY,41.13636363636364,NA
12901,Clinton County,NY,NA,4.8417132216014895
12916,Franklin County,NY,NA,96.8342644320298
13027,Onondaga County,NY,NA,14.338919925512103
13076,Oswego County,NY,95.9090909090909,NA
13077,Cortland County,NY,57.72727272727273,NA
13078,Onondaga County,NY,54.090909090909086,NA
13212,Onondaga County,NY,27.954545454545453,NA
13471,Oneida County,NY,NA,95.90316573556798
13760,Broome County,NY,NA,0.37243947858473
13820,Otsego County,NY,9.545454545454547,NA
13856,Delaware County,NY,47.04545454545455,NA
14043,Erie County,NY,NA,26.81564245810056
14092,Niagara County,NY,NA,45.62383612662943
14094,Niagara County,NY,27.045454545454543,NA
14108,Niagara County,NY,NA,82.30912476722533
14120,Niagara County,NY,4.090909090909091,NA
14206,Erie County,NY,12.954545454545455,NA
14218,Erie County,NY,18.181818181818183,NA
14223,Erie County,NY,NA,36.87150837988827
14411,Orleans County,NY,NA,40.59590316573557
14450,Monroe County,NY,16.818181818181817,NA
14505,Wayne County,NY,60.45454545454545,NA
14534,Monroe County,NY,NA,1.86219739292365
14559,Monroe County,NY,10.909090909090908,NA
14605,Monroe County,NY,9.318181818181818,NA
14607,Monroe County,NY,NA,41.899441340782126
14620,Monroe County,NY,NA,13.966480446927374
14621,Monroe County,NY,24.09090909090909,NA
27107,Forsyth County,NC,3.8636363636363633,NA
27205,Randolph County,NC,37.5,NA
27215,Alamance County,NC,NA,5.027932960893855
27295,Davidson County,NC,NA,2.793296089385475
27312,Chatham County,NC,NA,16.573556797020483
27410,Guilford County,NC,28.40909090909091,NA
27526,Wake County,NC,24.772727272727273,NA
27530,Wayne County,NC,14.545454545454545,NA
27536,Vance County,NC,25.90909090909091,NA
28001,Stanly County,NC,28.636363636363637,NA
28023,Rowan County,NC,NA,56.052141527001865
28078,Mecklenburg County,NC,NA,30.91247672253259
28081,Cabarrus County,NC,NA,48.04469273743017
28092,Lincoln County,NC,21.136363636363637,NA
28117,Iredell County,NC,NA,29.7951582867784
28150,Cleveland County,NC,20.681818181818183,NA
28208,Mecklenburg County,NC,NA,23.463687150837988
28212,Mecklenburg County,NC,56.13636363636364,56.98324022346368
28216,Mecklenburg County,NC,NA,12.66294227188082
28277,Mecklenburg County,NC,NA,16.387337057728118
28372,Robeson County,NC,86.13636363636363,NA
28401,New Hanover County,NC,32.5,NA
28429,New Hanover County,NC,78.18181818181819,NA
28445,Onslow County,NC,NA,86.96461824953445
28479,Brunswick County,NC,NA,87.52327746741155
28504,Lenoir County,NC,41.590909090909086,60.52141527001862
28625,Iredell County,NC,17.045454545454543,NA
28638,Caldwell County,NC,NA,89.3854748603352
28723,Jackson County,NC,NA,88.8268156424581
28752,McDowell County,NC,NA,11.1731843575419
28806,Buncombe County,NC,NA,41.340782122905026
58503,Burleigh County,ND,NA,26.0707635009311
43004,Franklin County,OH,68.4090909090909,NA
43062,Licking County,OH,NA,27.37430167597765
43081,Franklin County,OH,NA,9.124767225325884
43207,Franklin County,OH,1.5909090909090908,NA
43213,Franklin County,OH,NA,15.456238361266294
43235,Franklin County,OH,41.590909090909086,NA
43512,Defiance County,OH,20.454545454545457,NA
43567,Fulton County,OH,NA,37.243947858473
43605,Lucas County,OH,2.5,NA
43701,Muskingum County,OH,NA,0.5586592178770949
44089,Erie County,OH,32.72727272727273,NA
44113,Cuyahoga County,OH,NA,37.80260707635009
44128,Cuyahoga County,OH,NA,1.675977653631285
44129,Cuyahoga County,OH,NA,11.731843575418994
44137,Cuyahoga County,OH,5.227272727272727,NA
44260,Portage County,OH,65.45454545454545,NA
44313,Summit County,OH,81.5909090909091,NA
44444,Trumbull County,OH,48.63636363636364,NA
44485,Trumbull County,OH,44.54545454545455,NA
44502,Mahoning County,OH,NA,70.39106145251397
44514,Mahoning County,OH,NA,64.80446927374301
44691,Wayne County,OH,NA,5.400372439478584
44805,Ashland County,OH,12.727272727272727,NA
45011,Butler County,OH,2.5,21.22905027932961
45013,Butler County,OH,46.36363636363636,NA
45042,Butler County,OH,48.18181818181818,NA
45154,Brown County,OH,72.95454545454545,NA
45169,Clinton County,OH,71.5909090909091,NA
45209,Hamilton County,OH,NA,97.02048417132217
45252,Hamilton County,OH,NA,95.15828677839852
45309,Montgomery County,OH,80.45454545454545,NA
45385,Greene County,OH,11.136363636363637,NA
45417,Montgomery County,OH,7.954545454545454,NA
45420,Montgomery County,OH,NA,39.66480446927375
45424,Montgomery County,OH,10.454545454545453,NA
45431,Montgomery County,OH,42.27272727272727,NA
45750,Washington County,OH,NA,0.74487895716946
73003,Oklahoma County,OK,83.4090909090909,NA
73044,Logan County,OK,NA,11.54562383612663
73049,Oklahoma County,OK,NA,85.1024208566108
73112,Oklahoma County,OK,31.818181818181817,NA
73115,Oklahoma County,OK,55.68181818181818,NA
73118,Oklahoma County,OK,NA,93.66852886405958
73160,Cleveland County,OK,11.818181818181818,NA
73942,Texas County,OK,NA,77.09497206703911
74055,Tulsa County,OK,NA,26.256983240223462
74107,Tulsa County,OK,NA,71.88081936685289
74112,Tulsa County,OK,NA,67.59776536312849
74135,Tulsa County,OK,NA,41.527001862197395
74403,Muskogee County,OK,NA,25.32588454376164
74820,Pontotoc County,OK,7.045454545454545,NA
74857,Cleveland County,OK,72.95454545454545,NA
97008,Washington County,OR,NA,53.445065176908756
97055,Clackamas County,OR,63.63636363636363,NA
97078,Washington County,OR,NA,95.53072625698324
97203,Multnomah County,OR,36.59090909090909,NA
97209,Multnomah County,OR,NA,61.08007448789572
97210,Multnomah County,OR,NA,91.06145251396647
97301,Marion County,OR,12.272727272727273,22.905027932960895
97304,Polk County,OR,55.00000000000001,NA
97322,Linn County,OR,13.40909090909091,10.800744878957168
97355,Linn County,OR,36.13636363636364,NA
97367,Lincoln County,OR,NA,31.843575418994412
97424,Lane County,OR,NA,34.82309124767225
97501,Jackson County,OR,8.409090909090908,NA
97523,Josephine County,OR,97.72727272727273,NA
97862,Umatilla County,OR,59.54545454545455,NA
15146,Allegheny County,PA,NA,67.78398510242086
15147,Allegheny County,PA,NA,71.32216014897578
15212,Allegheny County,PA,NA,37.05772811918063
15301,Washington County,PA,NA,5.21415270018622
15642,Westmoreland County,PA,NA,54.18994413407822
15963,Somerset County,PA,NA,56.23836126629422
16002,Butler County,PA,NA,35.00931098696462
16365,Warren County,PA,NA,27.746741154562383
16686,Blair County,PA,NA,62.56983240223464
17033,Dauphin County,PA,NA,19.366852886405958
17036,Dauphin County,PA,21.818181818181817,NA
17104,Dauphin County,PA,NA,72.06703910614524
17112,Dauphin County,PA,NA,5.58659217877095
17362,York County,PA,64.77272727272727,NA
17552,Lancaster County,PA,NA,34.26443202979516
17737,Lycoming County,PA,88.63636363636364,NA
17872,Northumberland County,PA,NA,86.59217877094973
18058,Monroe County,PA,NA,75.04655493482309
18064,Northampton County,PA,NA,59.217877094972074
18102,Lehigh County,PA,0.9090909090909091,NA
18428,Pike County,PA,NA,52.886405959031656
18610,Monroe County,PA,NA,81.56424581005587
19013,Delaware County,PA,18.409090909090907,NA
19022,Delaware County,PA,90.9090909090909,NA
19107,Philadelphia County,PA,NA,47.113594040968344
19119,Philadelphia County,PA,22.954545454545457,NA
19120,Philadelphia County,PA,3.1818181818181817,NA
19121,Philadelphia County,PA,9.090909090909092,NA
19132,Philadelphia County,PA,NA,13.221601489757914
19140,Philadelphia County,PA,2.272727272727273,NA
19143,Philadelphia County,PA,NA,1.303538175046555
19148,Philadelphia County,PA,7.2727272727272725,NA
19149,Philadelphia County,PA,26.81818181818182,NA
19150,Philadelphia County,PA,NA,22.71880819366853
19312,Chester County,PA,NA,46.74115456238361
19320,Chester County,PA,NA,43.575418994413404
19335,Chester County,PA,NA,11.359404096834265
19363,Chester County,PA,54.77272727272727,NA
19460,Chester County,PA,NA,22.160148975791433
19464,Montgomery County,PA,NA,6.70391061452514
19601,Berks County,PA,3.4090909090909087,NA
02882,Washington County,RI,NA,51.955307262569825
02907,Providence County,RI,36.36363636363637,NA
29010,Lee County,SC,NA,81.19180633147114
29036,Lexington County,SC,NA,73.55679702048417
29045,Kershaw County,SC,NA,51.5828677839851
29063,Richland County,SC,NA,47.8584729981378
29070,Lexington County,SC,87.5,NA
29212,Lexington County,SC,NA,76.16387337057728
29323,Spartanburg County,SC,NA,48.60335195530726
29349,Spartanburg County,SC,NA,18.24953445065177
29376,Spartanburg County,SC,NA,94.04096834264432
29412,Charleston County,SC,NA,18.6219739292365
29414,Charleston County,SC,NA,78.95716945996276
29418,Charleston County,SC,35.45454545454545,NA
29449,Charleston County,SC,NA,77.28119180633148
29486,Berkeley County,SC,NA,47.299813780260706
29492,Berkeley County,SC,NA,83.24022346368714
29526,Horry County,SC,32.95454545454545,NA
29611,Greenville County,SC,NA,30.54003724394786
29621,Anderson County,SC,78.18181818181819,NA
29624,Anderson County,SC,NA,52.327746741154556
29650,Greenville County,SC,NA,76.72253258845437
29678,Oconee County,SC,53.18181818181819,NA
29692,Laurens County,SC,89.54545454545455,NA
29707,Lancaster County,SC,72.27272727272728,NA
29720,Lancaster County,SC,14.772727272727273,NA
29803,Aiken County,SC,82.04545454545455,NA
29841,Aiken County,SC,75,NA
29910,Beaufort County,SC,NA,72.99813780260708
37040,Montgomery County,TN,NA,30.726256983240223
37072,Davidson County,TN,NA,80.63314711359403
37080,Davidson County,TN,89.0909090909091,NA
37312,Bradley County,TN,39.31818181818182,NA
37388,Coffee County,TN,63.18181818181819,NA
37412,Hamilton County,TN,47.72727272727273,NA
37663,Sullivan County,TN,84.77272727272728,NA
37743,Greene County,TN,NA,4.0968342644320295
37919,Knox County,TN,NA,35.567970204841714
38017,Shelby County,TN,42.04545454545455,NA
38106,Shelby County,TN,43.18181818181818,NA
38122,Shelby County,TN,NA,68.90130353817506
38135,Shelby County,TN,NA,62.38361266294227
38315,McNairy County,TN,93.4090909090909,NA
38462,Lewis County,TN,66.81818181818183,NA
75052,Dallas County,TX,NA,62.94227188081937
75060,Dallas County,TX,NA,39.10614525139665
75071,Collin County,TX,NA,28.86405959031657
75088,Dallas County,TX,65.68181818181819,NA
75115,Dallas County,TX,NA,17.877094972067038
75211,Dallas County,TX,NA,20.85661080074488
75249,Dallas County,TX,NA,96.46182495344506
75252,Collin County,TX,NA,57.72811918063314
75407,Collin County,TX,NA,98.13780260707635
75455,Titus County,TX,49.54545454545455,NA
75763,Anderson County,TX,94.54545454545455,NA
75789,Smith County,TX,NA,89.01303538175046
75935,Shelby County,TX,71.13636363636363,NA
76009,Johnson County,TX,61.13636363636363,NA
76012,Tarrant County,TX,43.40909090909091,NA
76033,Johnson County,TX,NA,36.6852886405959
76051,Tarrant County,TX,NA,33.33333333333333
76105,Tarrant County,TX,19.090909090909093,NA
76109,Tarrant County,TX,NA,82.12290502793296
76210,Denton County,TX,NA,58.28677839851024
76501,Bell County,TX,NA,31.65735567970205
76706,McLennan County,TX,30.681818181818183,NA
76901,Tom Green County,TX,90.22727272727272,28.49162011173184
77014,Harris County,TX,NA,61.452513966480446
77036,Harris County,TX,74.77272727272727,NA
77039,Harris County,TX,85.9090909090909,NA
77047,Harris County,TX,NA,74.30167597765363
77061,Harris County,TX,NA,81.3780260707635
77064,Harris County,TX,NA,40.4096834264432
77065,Harris County,TX,81.13636363636364,NA
77072,Harris County,TX,NA,51.02420856610801
77075,Harris County,TX,46.13636363636363,NA
77076,Harris County,TX,50.90909090909091,NA
77080,Harris County,TX,NA,67.41154562383612
77083,Harris County,TX,37.95454545454545,NA
77084,Harris County,TX,NA,21.601489757914337
77095,Harris County,TX,17.5,NA
77346,Harris County,TX,NA,32.960893854748605
77354,Montgomery County,TX,NA,43.38919925512104
77355,Montgomery County,TX,87.95454545454545,46.55493482309125
77379,Harris County,TX,23.40909090909091,NA
77429,Harris County,TX,NA,4.283054003724395
77433,Harris County,TX,NA,55.121042830540034
77449,Harris County,TX,NA,79.70204841713222
77511,Brazoria County,TX,15.227272727272728,NA
77541,Brazoria County,TX,42.95454545454545,NA
77581,Brazoria County,TX,NA,19.553072625698324
77583,Brazoria County,TX,74.54545454545455,NA
77836,Burleson County,TX,NA,49.34823091247672
77859,Robertson County,TX,79.0909090909091,NA
77901,Victoria County,TX,23.18181818181818,NA
78006,Kendall County,TX,NA,57.91433891992551
78041,Webb County,TX,NA,20.48417132216015
78061,Frio County,TX,NA,97.95158286778398
78114,Wilson County,TX,51.36363636363637,NA
78201,Bexar County,TX,NA,56.424581005586596
78213,Bexar County,TX,95.45454545454545,NA
78405,Nueces County,TX,90.45454545454545,NA
78503,Hidalgo County,TX,NA,96.64804469273743
78516,Hidalgo County,TX,NA,49.906890130353815
78520,Cameron County,TX,NA,63.87337057728119
78526,Cameron County,TX,NA,88.45437616387338
78537,Hidalgo County,TX,NA,73.3705772811918
78543,Hidalgo County,TX,NA,94.22718808193669
78572,Hidalgo County,TX,NA,16.945996275605214
78596,Hidalgo County,TX,NA,92.73743016759776
78621,Bastrop County,TX,85,NA
78721,Travis County,TX,99.31818181818181,NA
78746,Travis County,TX,71.36363636363636,NA
79107,Potter County,TX,NA,53.63128491620112
79118,Randall County,TX,NA,83.05400372439479
79124,Potter County,TX,94.31818181818183,NA
79363,Lubbock County,TX,97.27272727272728,NA
79703,Midland County,TX,NA,76.90875232774674
79849,El Paso County,TX,96.81818181818181,NA
79901,El Paso County,TX,NA,86.03351955307262
79904,El Paso County,TX,62.04545454545455,NA
79915,El Paso County,TX,NA,51.02420856610801
79925,El Paso County,TX,NA,50.46554934823091
79938,El Paso County,TX,61.81818181818181,NA
84096,Salt Lake County,UT,58.18181818181818,NA
84118,Salt Lake County,UT,NA,51.76908752327747
84655,Utah County,UT,90,NA
84770,Washington County,UT,34.77272727272727,NA
20121,Fairfax County,VA,62.95454545454545,NA
20124,Fairfax County,VA,NA,88.08193668528864
22025,Prince William County,VA,NA,80.44692737430168
22032,Fairfax County,VA,NA,76.53631284916202
22151,Fairfax County,VA,NA,86.40595903165735
22302,Alexandria city,VA,NA,94.97206703910615
22304,Alexandria city,VA,14.318181818181818,NA
22553,Spotsylvania County,VA,92.5,NA
22840,Rockingham County,VA,99.77272727272727,NA
22980,Waynesboro city,VA,NA,3.910614525139665
23223,Henrico County,VA,NA,10.42830540037244
23452,Virginia Beach city,VA,NA,8.007448789571695
23803,Petersburg city,VA,11.136363636363637,NA
24019,Roanoke County,VA,94.0909090909091,NA
24210,Washington County,VA,NA,43.947858472998135
24244,Scott County,VA,80.9090909090909,NA
24273,Norton city,VA,NA,74.487895716946
24301,Pulaski County,VA,NA,52.7001862197393
24477,Augusta County,VA,NA,81.00558659217877
24572,Amherst County,VA,81.81818181818183,NA
98022,King County,WA,NA,21.22905027932961
98056,King County,WA,52.04545454545455,NA
98105,King County,WA,NA,72.25325884543761
98247,Whatcom County,WA,NA,99.06890130353817
98258,Snohomish County,WA,NA,45.81005586592179
98270,Snohomish County,WA,47.27272727272727,NA
98371,Pierce County,WA,NA,55.493482309124765
98390,Pierce County,WA,NA,93.48230912476723
98841,Okanogan County,WA,NA,70.01862197392924
98908,Yakima County,WA,33.409090909090914,NA
98948,Yakima County,WA,84.31818181818181,NA
98951,Yakima County,WA,NA,96.08938547486034
99003,Spokane County,WA,98.86363636363636,NA
99207,Spokane County,WA,NA,58.659217877094974
99217,Spokane County,WA,NA,88.64059590316573
99336,Benton County,WA,NA,1.48975791433892
24740,Mercer County,WV,61.36363636363637,NA
25143,Kanawha County,WV,59.77272727272728,NA
25159,Putnam County,WV,91.36363636363637,NA
25661,Mingo County,WV,43.63636363636363,NA
26104,Wood County,WV,NA,20.670391061452513
26601,Braxton County,WV,NA,89.19925512104282
53094,Jefferson County,WI,NA,26.629422718808193
53142,Kenosha County,WI,NA,18.994413407821227
53207,Milwaukee County,WI,NA,27.932960893854748
53226,Milwaukee County,WI,65,NA
53227,Milwaukee County,WI,31.590909090909093,NA
53533,Iowa County,WI,93.86363636363636,NA
53545,Rock County,WI,64.54545454545455,NA
53551,Jefferson County,WI,NA,77.28119180633148
53718,Dane County,WI,NA,69.27374301675978
53959,Sauk County,WI,NA,75.97765363128491
54476,Marathon County,WI,NA,66.66666666666666
54481,Portage County,WI,NA,14.52513966480447
54487,Lincoln County,WI,73.86363636363636,NA
54646,Juneau County,WI,NA,91.43389199255121
54650,La Crosse County,WI,50.45454545454545,NA
54660,Monroe County,WI,NA,45.99627560521415
54703,Eau Claire County,WI,NA,28.305400372439475
54911,Outagamie County,WI,NA,59.0316573556797
54914,Outagamie County,WI,21.363636363636363,NA
