ZipCode,county,state,Adult
35613,Limestone County,AL,40.289256198347104
35640,Morgan County,AL,33.367768595041326
35661,Colbert County,AL,61.8801652892562
35673,Morgan County,AL,66.63223140495867
35749,Madison County,AL,48.86363636363637
35772,Jackson County,AL,99.17355371900827
35803,Madison County,AL,81.71487603305785
35811,Madison County,AL,39.77272727272727
35903,Etowah County,AL,53.71900826446281
35983,Cherokee County,AL,91.52892561983471
36089,Bullock County,AL,73.34710743801654
36116,Montgomery County,AL,19.62809917355372
36201,Calhoun County,AL,25.826446280991732
36266,Clay County,AL,79.9586776859504
36330,Coffee County,AL,46.074380165289256
36345,Henry County,AL,75.10330578512396
36460,Monroe County,AL,78.4090909090909
36541,Mobile County,AL,74.89669421487604
36608,Mobile County,AL,44.111570247933884
36854,Chambers County,AL,59.400826446280995
36870,Lee County,AL,74.69008264462809
99503,Anchorage Municipality,AK,46.79752066115703
99517,Anchorage Municipality,AK,60.02066115702479
99576,Dillingham Census Area,AK,87.19008264462809
99654,Matanuska-Susitna Borough,AK,35.22727272727273
99705,Fairbanks North Star Borough,AK,86.77685950413223
85017,Maricopa County,AZ,82.23140495867769
85032,Maricopa County,AZ,45.35123966942149
85210,Maricopa County,AZ,22.210743801652892
85234,Maricopa County,AZ,31.818181818181817
85282,Maricopa County,AZ,40.18595041322314
85301,Maricopa County,AZ,62.5
85326,Maricopa County,AZ,58.78099173553719
85338,Maricopa County,AZ,33.057851239669425
85350,Yuma County,AZ,50.51652892561983
85382,Maricopa County,AZ,73.03719008264463
85710,Pima County,AZ,63.946280991735534
85711,Pima County,AZ,7.231404958677685
85714,Pima County,AZ,76.03305785123968
85756,Pima County,AZ,34.29752066115703
86326,Yavapai County,AZ,23.450413223140494
72032,Faulkner County,AR,38.739669421487605
72110,Conway County,AR,77.37603305785123
72120,Pulaski County,AR,44.00826446280991
72150,Grant County,AR,76.65289256198346
72223,Pulaski County,AR,78.20247933884298
72416,Craighead County,AR,80.47520661157024
90059,Los Angeles County,CA,33.67768595041322
90222,Los Angeles County,CA,65.08264462809917
90247,Los Angeles County,CA,51.13636363636363
90403,Los Angeles County,CA,65.49586776859503
90631,Orange County,CA,34.50413223140496
90638,Los Angeles County,CA,77.1694214876033
90720,Orange County,CA,69.42148760330579
90731,Los Angeles County,CA,60.537190082644635
90806,Los Angeles County,CA,54.23553719008265
90810,Los Angeles County,CA,93.38842975206612
91362,Ventura County,CA,62.396694214876035
91381,Los Angeles County,CA,69.93801652892562
91405,Los Angeles County,CA,70.86776859504133
91730,San Bernardino County,CA,18.698347107438014
91752,Riverside County,CA,51.85950413223141
91911,San Diego County,CA,23.34710743801653
92028,San Diego County,CA,92.04545454545455
92067,San Diego County,CA,90.39256198347107
92078,San Diego County,CA,89.46280991735537
92115,San Diego County,CA,30.785123966942145
92122,San Diego County,CA,69.31818181818183
92126,San Diego County,CA,71.69421487603306
92139,San Diego County,CA,85.74380165289256
92227,Imperial County,CA,40.49586776859504
92253,Riverside County,CA,45.66115702479338
92277,San Bernardino County,CA,94.62809917355372
92284,San Bernardino County,CA,25.516528925619834
92301,San Bernardino County,CA,32.64462809917356
92308,San Bernardino County,CA,91.11570247933885
92313,San Bernardino County,CA,92.76859504132231
92342,San Bernardino County,CA,97.72727272727273
92345,San Bernardino County,CA,8.264462809917356
92408,San Bernardino County,CA,88.1198347107438
92504,Riverside County,CA,41.32231404958678
92591,Riverside County,CA,73.55371900826447
92805,Orange County,CA,25.3099173553719
92806,Orange County,CA,54.64876033057852
92867,Orange County,CA,57.128099173553714
92870,Orange County,CA,36.260330578512395
92883,Riverside County,CA,63.63636363636363
93021,Ventura County,CA,56.921487603305785
93030,Ventura County,CA,48.03719008264463
93063,Ventura County,CA,33.98760330578512
93230,Kings County,CA,16.528925619834713
93257,Tulare County,CA,12.086776859504132
93305,Kern County,CA,69.52479338842976
93308,Kern County,CA,27.16942148760331
93458,Santa Barbara County,CA,13.533057851239668
93555,Kern County,CA,24.380165289256198
93662,Fresno County,CA,92.66528925619835
94014,San Mateo County,CA,45.764462809917354
94043,Santa Clara County,CA,70.86776859504133
94087,Santa Clara County,CA,88.7396694214876
94107,San Francisco County,CA,44.421487603305785
94112,San Francisco County,CA,70.14462809917356
94122,San Francisco County,CA,98.86363636363636
94127,San Francisco County,CA,95.86776859504133
94513,Contra Costa County,CA,33.47107438016529
94587,Alameda County,CA,35.0206611570248
94602,Alameda County,CA,75.51652892561982
94605,Alameda County,CA,70.45454545454545
94954,Sonoma County,CA,49.17355371900827
95012,Monterey County,CA,91.73553719008265
95020,Santa Clara County,CA,32.12809917355372
95037,Santa Clara County,CA,77.68595041322314
95062,Santa Cruz County,CA,69.73140495867769
95131,Santa Clara County,CA,75.6198347107438
95134,Santa Clara County,CA,73.86363636363636
95304,San Joaquin County,CA,86.8801652892562
95307,Stanislaus County,CA,31.40495867768595
95351,Stanislaus County,CA,53.099173553719005
95355,Stanislaus County,CA,32.54132231404959
95360,Stanislaus County,CA,77.78925619834712
95367,Stanislaus County,CA,89.87603305785123
95380,Stanislaus County,CA,58.057851239669425
95391,San Joaquin County,CA,77.27272727272727
95437,Mendocino County,CA,86.36363636363636
95476,Sonoma County,CA,68.69834710743802
95546,Humboldt County,CA,97.21074380165288
95677,Placer County,CA,75.72314049586777
95682,El Dorado County,CA,93.28512396694215
95823,Sacramento County,CA,58.16115702479338
95826,Sacramento County,CA,92.25206611570248
95834,Sacramento County,CA,68.07851239669421
95965,Butte County,CA,49.586776859504134
95993,Sutter County,CA,87.08677685950413
96041,Trinity County,CA,98.7603305785124
96080,Tehama County,CA,42.561983471074385
80007,Jefferson County,CO,85.12396694214877
80127,Jefferson County,CO,47.210743801652896
80134,Douglas County,CO,25.206611570247933
80204,Denver County,CO,20.454545454545457
80205,Denver County,CO,11.673553719008265
80206,Denver County,CO,84.400826446281
80209,Denver County,CO,80.88842975206612
80214,Jefferson County,CO,40.70247933884297
80216,Denver County,CO,84.19421487603306
80219,Denver County,CO,3.3057851239669422
80516,Weld County,CO,82.64462809917356
80534,Weld County,CO,66.94214876033058
80550,Weld County,CO,59.917355371900825
80620,Weld County,CO,71.28099173553719
80701,Morgan County,CO,20.971074380165287
81201,Chaffee County,CO,77.37603305785123
81401,Montrose County,CO,47.72727272727273
81416,Delta County,CO,96.79752066115702
81501,Mesa County,CO,44.214876033057855
81507,Mesa County,CO,85.3305785123967
81625,Moffat County,CO,39.0495867768595
06002,Hartford County,CT,48.760330578512395
06040,Hartford County,CT,36.053719008264466
06062,Hartford County,CT,55.888429752066116
06241,Windham County,CT,87.91322314049587
06281,Windham County,CT,63.32644628099173
06492,New Haven County,CT,19.731404958677686
06854,Fairfield County,CT,45.45454545454545
19802,New Castle County,DE,14.049586776859504
19805,New Castle County,DE,1.962809917355372
19901,Kent County,DE,16.32231404958678
19940,Sussex County,DE,84.71074380165288
19963,Sussex County,DE,33.78099173553719
32024,Columbia County,FL,59.71074380165289
32038,Columbia County,FL,74.48347107438018
32068,Clay County,FL,39.87603305785124
32092,St. Johns County,FL,51.652892561983464
32204,Duval County,FL,61.46694214876033
32218,Duval County,FL,18.388429752066116
32244,Duval County,FL,3.925619834710744
32459,Walton County,FL,92.56198347107438
32503,Escambia County,FL,52.582644628099175
32505,Escambia County,FL,16.94214876033058
32506,Escambia County,FL,13.533057851239668
32507,Escambia County,FL,37.5
32563,Santa Rosa County,FL,62.913223140495866
32608,Alachua County,FL,5.8884297520661155
32810,Orange County,FL,38.63636363636363
32817,Orange County,FL,63.7396694214876
32824,Orange County,FL,42.561983471074385
32828,Orange County,FL,37.1900826446281
32837,Orange County,FL,52.68595041322314
32948,Indian River County,FL,91.11570247933885
33030,Miami-Dade County,FL,44.52479338842975
33126,Miami-Dade County,FL,65.9090909090909
33142,Miami-Dade County,FL,17.25206611570248
33161,Miami-Dade County,FL,34.19421487603306
33178,Miami-Dade County,FL,85.84710743801654
33309,Broward County,FL,55.68181818181818
33463,Palm Beach County,FL,49.070247933884296
33511,Hillsborough County,FL,37.8099173553719
33596,Hillsborough County,FL,82.74793388429752
33610,Hillsborough County,FL,13.429752066115702
33615,Hillsborough County,FL,27.685950413223143
33710,Pinellas County,FL,49.89669421487603
33765,Pinellas County,FL,71.17768595041323
33801,Polk County,FL,22.520661157024794
33898,Polk County,FL,55.578512396694215
33913,Lee County,FL,77.58264462809917
33928,Lee County,FL,77.89256198347107
33976,Lee County,FL,85.43388429752066
33990,Lee County,FL,36.77685950413223
34120,Collier County,FL,35.43388429752066
34266,DeSoto County,FL,35.84710743801653
34420,Marion County,FL,90.9090909090909
34432,Marion County,FL,85.9504132231405
34470,Marion County,FL,50.20661157024794
34476,Marion County,FL,57.95454545454546
34653,Pasco County,FL,59.607438016528924
34698,Pinellas County,FL,53.61570247933884
34744,Osceola County,FL,25.929752066115704
34787,Orange County,FL,79.13223140495867
34972,Okeechobee County,FL,57.02479338842975
34996,Martin County,FL,84.29752066115702
30028,Forsyth County,GA,56.50826446280992
30044,Gwinnett County,GA,18.49173553719008
30060,Cobb County,GA,38.1198347107438
30066,Cobb County,GA,47.417355371900825
30094,Rockdale County,GA,47.00413223140496
30116,Carroll County,GA,47.83057851239669
30117,Carroll County,GA,63.01652892561983
30120,Bartow County,GA,67.97520661157024
30217,Heard County,GA,65.28925619834712
30220,Coweta County,GA,86.15702479338843
30228,Henry County,GA,29.64876033057851
30240,Troup County,GA,25
30276,Coweta County,GA,68.38842975206612
30311,Fulton County,GA,14.772727272727273
30349,Fulton County,GA,6.6115702479338845
30436,Toombs County,GA,78.61570247933885
30458,Bulloch County,GA,32.74793388429752
30507,Hall County,GA,43.388429752066116
30534,Dawson County,GA,41.632231404958674
30554,Hall County,GA,86.98347107438018
30906,Richmond County,GA,29.44214876033058
31023,Dodge County,GA,71.900826446281
31061,Baldwin County,GA,28.305785123966942
31510,Bacon County,GA,73.7603305785124
31520,Glynn County,GA,51.03305785123967
31525,Glynn County,GA,50.82644628099173
31558,Camden County,GA,83.57438016528926
96706,Honolulu County,HI,9.50413223140496
96778,Hawaii County,HI,97.31404958677686
96795,Honolulu County,HI,72.31404958677686
83301,Twin Falls County,ID,36.67355371900827
83350,Minidoka County,ID,86.46694214876032
83401,Bonneville County,ID,45.04132231404959
83404,Bonneville County,ID,53.30578512396694
83442,Jefferson County,ID,42.14876033057851
83605,Canyon County,ID,26.962809917355372
83687,Canyon County,ID,21.17768595041322
83704,Ada County,ID,15.805785123966942
83705,Ada County,ID,28.202479338842974
83706,Ada County,ID,58.88429752066116
60014,McHenry County,IL,24.070247933884296
60047,Lake County,IL,37.086776859504134
60087,Lake County,IL,66.52892561983471
60181,DuPage County,IL,81.09504132231406
60202,Cook County,IL,57.541322314049594
60409,Cook County,IL,28.92561983471074
60410,Will County,IL,48.34710743801653
60442,Will County,IL,75.30991735537191
60452,Cook County,IL,49.27685950413223
60478,Cook County,IL,74.17355371900827
60520,DeKalb County,IL,98.4504132231405
60609,Cook County,IL,9.194214876033058
60707,Cook County,IL,18.90495867768595
61611,Tazewell County,IL,69.83471074380165
61832,Vermilion County,IL,36.36363636363637
61944,Edgar County,IL,73.65702479338843
62095,Madison County,IL,78.20247933884298
62269,St. Clair County,IL,64.6694214876033
46013,Madison County,IN,32.85123966942149
46016,Madison County,IN,44.938016528925615
46037,Hamilton County,IN,64.35950413223141
46074,Hamilton County,IN,62.086776859504134
46140,Hancock County,IN,28.09917355371901
46142,Johnson County,IN,42.97520661157025
46224,Marion County,IN,60.74380165289256
46227,Marion County,IN,7.644628099173553
46241,Marion County,IN,19.318181818181817
46254,Marion County,IN,21.17768595041322
46356,Lake County,IN,30.061983471074385
46360,LaPorte County,IN,24.6900826446281
46366,Starke County,IN,93.90495867768594
46368,Porter County,IN,1.756198347107438
46383,Porter County,IN,30.37190082644628
46385,Porter County,IN,5.785123966942149
46403,Lake County,IN,65.599173553719
46540,Elkhart County,IN,85.22727272727273
46816,Allen County,IN,28.615702479338843
46845,Allen County,IN,56.30165289256198
46902,Howard County,IN,19.111570247933884
46919,Miami County,IN,97.10743801652893
46947,Cass County,IN,11.053719008264464
46970,Miami County,IN,35.33057851239669
47150,Floyd County,IN,9.297520661157025
47201,Bartholomew County,IN,10.640495867768596
47203,Bartholomew County,IN,65.18595041322314
47265,Jennings County,IN,23.037190082644628
47390,Randolph County,IN,86.67355371900827
47403,Monroe County,IN,59.09090909090909
47542,Dubois County,IN,92.76859504132231
47586,Perry County,IN,66.32231404958677
47630,Warrick County,IN,43.595041322314046
47710,Vanderburgh County,IN,35.12396694214876
47834,Clay County,IN,31.301652892561982
47909,Tippecanoe County,IN,38.946280991735534
50131,Polk County,IA,74.3801652892562
50226,Polk County,IA,98.96694214876032
50265,Polk County,IA,38.53305785123967
50659,Chickasaw County,IA,88.42975206611571
51106,Woodbury County,IA,48.553719008264466
51503,Pottawattamie County,IA,52.47933884297521
52361,Iowa County,IA,95.97107438016529
52732,Clinton County,IA,20.55785123966942
52761,Muscatine County,IA,10.12396694214876
66044,Douglas County,KS,83.36776859504133
66047,Douglas County,KS,81.40495867768594
66062,Johnson County,KS,8.987603305785125
66215,Johnson County,KS,70.55785123966942
66801,Lyon County,KS,83.98760330578511
40004,Nelson County,KY,17.355371900826448
40019,Henry County,KY,91.01239669421489
40031,Oldham County,KY,31.714876033057855
40150,Bullitt County,KY,87.80991735537191
40203,Jefferson County,KY,20.867768595041323
40218,Jefferson County,KY,12.5
40228,Jefferson County,KY,63.1198347107438
40342,Anderson County,KY,33.78099173553719
41017,Kenton County,KY,30.681818181818183
41018,Kenton County,KY,24.483471074380166
42025,Marshall County,KY,43.078512396694215
42101,Warren County,KY,27.99586776859504
42122,Warren County,KY,96.38429752066115
42701,Hardin County,KY,9.81404958677686
42717,Cumberland County,KY,54.85537190082644
70003,Jefferson Parish,LA,31.611570247933884
70043,St. Bernard Parish,LA,81.50826446280992
70056,Jefferson Parish,LA,21.694214876033058
70065,Jefferson Parish,LA,68.18181818181817
70119,Orleans Parish,LA,54.33884297520662
70126,Orleans Parish,LA,82.33471074380165
70127,Orleans Parish,LA,49.79338842975206
70131,Orleans Parish,LA,91.94214876033058
70458,St. Tammany Parish,LA,95.14462809917356
70589,St. Landry Parish,LA,99.69008264462809
70601,Calcasieu Parish,LA,1.1363636363636365
70663,Calcasieu Parish,LA,94.21487603305785
70739,East Baton Rouge Parish,LA,94.93801652892562
70802,East Baton Rouge Parish,LA,4.4421487603305785
70808,East Baton Rouge Parish,LA,71.38429752066115
70817,East Baton Rouge Parish,LA,32.02479338842975
71105,Caddo Parish,LA,38.22314049586777
71202,Ouachita Parish,LA,92.35537190082644
04038,Cumberland County,ME,53.20247933884298
04240,Androscoggin County,ME,1.2396694214876034
04953,Penobscot County,ME,85.02066115702479
20601,Charles County,MD,83.67768595041323
20619,St. Mary's County,MD,81.30165289256198
21093,Baltimore County,MD,42.35537190082644
21122,Anne Arundel County,MD,6.508264462809918
21132,Harford County,MD,97.00413223140497
21921,Cecil County,MD,14.359504132231404
01062,Hampshire County,MA,70.24793388429752
01075,Hampshire County,MA,2.9958677685950414
01095,Hampden County,MA,71.79752066115702
01151,Hampden County,MA,26.136363636363637
01220,Berkshire County,MA,21.487603305785125
01364,Franklin County,MA,46.90082644628099
01440,Worcester County,MA,10.330578512396695
01702,Middlesex County,MA,0.8264462809917356
01760,Middlesex County,MA,8.677685950413224
01801,Middlesex County,MA,0.7231404958677686
01832,Essex County,MA,2.6859504132231407
01844,Essex County,MA,0.6198347107438017
01852,Middlesex County,MA,61.053719008264466
01867,Middlesex County,MA,26.65289256198347
01921,Essex County,MA,76.85950413223141
01960,Essex County,MA,4.338842975206612
01970,Essex County,MA,0.4132231404958678
02072,Norfolk County,MA,6.921487603305786
02126,Suffolk County,MA,0.10330578512396695
02127,Suffolk County,MA,22.933884297520663
02131,Suffolk County,MA,1.0330578512396695
02148,Middlesex County,MA,23.553719008264462
02155,Middlesex County,MA,16.425619834710744
02375,Bristol County,MA,76.75619834710744
02446,Norfolk County,MA,50.92975206611571
02453,Middlesex County,MA,7.3347107438016534
02492,Norfolk County,MA,26.34297520661157
02532,Barnstable County,MA,76.96280991735537
02537,Barnstable County,MA,99.58677685950413
02702,Bristol County,MA,94.52479338842976
02703,Bristol County,MA,96.17768595041323
02740,Bristol County,MA,67.35537190082644
02745,Bristol County,MA,1.3429752066115703
02777,Bristol County,MA,6.40495867768595
48015,Macomb County,MI,95.76446280991735
48033,Oakland County,MI,40.082644628099175
48060,St. Clair County,MI,2.169421487603306
48065,Macomb County,MI,72.62396694214877
48066,Macomb County,MI,2.37603305785124
48071,Oakland County,MI,24.89669421487603
48075,Oakland County,MI,74.79338842975206
48088,Macomb County,MI,94.00826446280992
48091,Macomb County,MI,4.75206611570248
48101,Wayne County,MI,22.417355371900825
48135,Wayne County,MI,22.004132231404956
48141,Wayne County,MI,6.8181818181818175
48162,Monroe County,MI,11.260330578512397
48166,Monroe County,MI,41.52892561983471
48170,Wayne County,MI,12.706611570247933
48176,Washtenaw County,MI,39.66942148760331
48197,Washtenaw County,MI,1.4462809917355373
48238,Wayne County,MI,3.4090909090909087
48326,Oakland County,MI,50.72314049586777
48340,Oakland County,MI,8.78099173553719
48342,Oakland County,MI,13.842975206611571
48348,Oakland County,MI,66.11570247933885
48420,Genesee County,MI,46.28099173553719
48423,Genesee County,MI,61.36363636363637
48439,Genesee County,MI,41.11570247933884
48446,Lapeer County,MI,71.48760330578511
48506,Genesee County,MI,23.863636363636363
48603,Saginaw County,MI,10.743801652892563
48624,Gladwin County,MI,67.66528925619835
48642,Midland County,MI,17.665289256198346
48867,Shiawassee County,MI,5.371900826446281
49009,Kalamazoo County,MI,11.15702479338843
49047,Cass County,MI,51.652892561983464
49068,Calhoun County,MI,54.442148760330575
49093,St. Joseph County,MI,29.132231404958674
49230,Jackson County,MI,68.90495867768594
49250,Hillsdale County,MI,73.4504132231405
49442,Muskegon County,MI,34.917355371900825
49445,Muskegon County,MI,35.53719008264463
49456,Ottawa County,MI,44.31818181818182
49512,Kent County,MI,85.53719008264463
49519,Kent County,MI,15.599173553719009
49548,Kent County,MI,49.6900826446281
49686,Grand Traverse County,MI,47.93388429752066
49829,Delta County,MI,32.33471074380165
49855,Marquette County,MI,13.739669421487601
55057,Rice County,MN,90.599173553719
55305,Hennepin County,MN,74.07024793388429
55311,Hennepin County,MN,58.367768595041326
55347,Hennepin County,MN,89.6694214876033
55378,Scott County,MN,54.02892561983471
55407,Hennepin County,MN,4.545454545454546
55417,Hennepin County,MN,49.27685950413223
55444,Hennepin County,MN,90.49586776859503
55449,Anoka County,MN,83.98760330578511
55709,Itasca County,MN,97.62396694214877
55744,Itasca County,MN,14.87603305785124
56175,Lyon County,MN,90.08264462809917
56308,Douglas County,MN,26.033057851239672
56671,Beltrami County,MN,98.14049586776859
38654,DeSoto County,MS,22.62396694214876
38866,Lee County,MS,82.02479338842976
38916,Calhoun County,MS,97.41735537190083
38930,Leflore County,MS,88.53305785123968
39120,Adams County,MS,39.9793388429752
39157,Madison County,MS,64.15289256198346
39194,Yazoo County,MS,50.6198347107438
39209,Hinds County,MS,22.31404958677686
63070,Jefferson County,MO,87.60330578512396
63089,Franklin County,MO,94.73140495867769
63136,St. Louis County,MO,5.681818181818182
63301,St. Charles County,MO,42.45867768595041
63368,St. Charles County,MO,41.01239669421488
63389,Lincoln County,MO,84.91735537190083
63601,St. Francois County,MO,42.87190082644628
63645,Madison County,MO,73.24380165289256
63775,Perry County,MO,35.53719008264463
63801,Scott County,MO,21.384297520661157
64068,Clay County,MO,7.024793388429752
64075,Jackson County,MO,42.04545454545455
64079,Platte County,MO,78.099173553719
64093,Johnson County,MO,34.607438016528924
64114,Jackson County,MO,34.81404958677686
64116,Clay County,MO,23.7603305785124
64119,Clay County,MO,37.39669421487603
64156,Clay County,MO,57.64462809917356
64506,Buchanan County,MO,50.3099173553719
64683,Grundy County,MO,94.83471074380165
64701,Cass County,MO,42.768595041322314
64850,Newton County,MO,14.979338842975206
65026,Miller County,MO,64.87603305785123
59602,Lewis and Clark County,MT,78.71900826446281
59718,Gallatin County,MT,65.39256198347107
68007,Douglas County,NE,91.63223140495867
68104,Douglas County,NE,24.793388429752067
68352,Jefferson County,NE,95.45454545454545
68507,Lancaster County,NE,85.64049586776859
69361,Scotts Bluff County,NE,73.86363636363636
89121,Clark County,NV,26.549586776859503
89123,Clark County,NV,51.85950413223141
89436,Washoe County,NV,22.107438016528928
89701,Carson City,NV,38.01652892561984
03038,Rockingham County,NH,11.776859504132231
03063,Hillsborough County,NH,43.69834710743802
03103,Hillsborough County,NH,4.028925619834711
03431,Cheshire County,NH,59.19421487603306
03820,Strafford County,NH,19.834710743801654
07059,Somerset County,NJ,79.64876033057851
07060,Union County,NJ,4.855371900826446
07063,Union County,NJ,80.16528925619835
07104,Essex County,NJ,3.8223140495867765
07112,Essex County,NJ,2.5826446280991737
07601,Bergen County,NJ,46.28099173553719
07740,Monmouth County,NJ,5.1652892561983474
08002,Camden County,NJ,20.144628099173552
08028,Gloucester County,NJ,16.735537190082646
08031,Camden County,NJ,69.11157024793388
08060,Burlington County,NJ,45.867768595041326
08062,Gloucester County,NJ,98.65702479338843
08107,Camden County,NJ,80.37190082644628
08230,Cape May County,NJ,74.58677685950413
08540,Mercer County,NJ,37.1900826446281
08550,Mercer County,NJ,94.11157024793388
08701,Ocean County,NJ,63.53305785123967
08807,Somerset County,NJ,28.40909090909091
08848,Hunterdon County,NJ,88.94628099173553
08857,Middlesex County,NJ,6.301652892561983
87110,Bernalillo County,NM,10.433884297520661
87121,Bernalillo County,NM,60.74380165289256
87123,Bernalillo County,NM,11.363636363636363
88012,Doa Ana County,NM,33.057851239669425
88081,Otero County,NM,74.27685950413223
88130,Roosevelt County,NM,63.7396694214876
88240,Lea County,NM,4.235537190082645
88242,Lea County,NM,87.29338842975206
10309,Richmond County,NY,56.40495867768595
10456,Bronx County,NY,0
10461,Bronx County,NY,39.15289256198347
10462,Bronx County,NY,26.239669421487605
10463,Bronx County,NY,5.991735537190083
10466,Bronx County,NY,20.351239669421485
10468,Bronx County,NY,0.9297520661157025
10473,Bronx County,NY,20.764462809917354
10705,Westchester County,NY,34.40082644628099
10952,Rockland County,NY,66.32231404958677
11103,Queens County,NY,68.28512396694215
11105,Queens County,NY,57.33471074380165
11206,Kings County,NY,14.669421487603307
11212,Kings County,NY,0.5165289256198348
11365,Queens County,NY,48.96694214876033
11377,Queens County,NY,16.012396694214875
12180,Rensselaer County,NY,29.235537190082646
12601,Dutchess County,NY,27.892561983471076
12831,Saratoga County,NY,46.69421487603306
12846,Warren County,NY,96.48760330578511
12866,Saratoga County,NY,12.913223140495866
12885,Warren County,NY,72.31404958677686
13069,Oswego County,NY,3.6157024793388426
13074,Oswego County,NY,75.20661157024794
13104,Onondaga County,NY,51.34297520661158
13126,Oswego County,NY,18.078512396694215
13132,Oswego County,NY,89.97933884297521
13165,Seneca County,NY,72.52066115702479
13212,Onondaga County,NY,29.855371900826444
13471,Oneida County,NY,99.07024793388429
13619,Jefferson County,NY,82.43801652892562
13642,St. Lawrence County,NY,31.09504132231405
13662,St. Lawrence County,NY,6.095041322314049
13732,Tioga County,NY,72.10743801652893
13827,Tioga County,NY,21.074380165289256
14048,Chautauqua County,NY,36.46694214876033
14062,Chautauqua County,NY,97.8305785123967
14086,Erie County,NY,18.285123966942148
14127,Erie County,NY,14.46280991735537
14132,Niagara County,NY,60.9504132231405
14221,Erie County,NY,9.81404958677686
14224,Erie County,NY,3.71900826446281
14226,Erie County,NY,28.719008264462808
14305,Niagara County,NY,24.276859504132233
14424,Ontario County,NY,15.495867768595042
14425,Ontario County,NY,16.115702479338843
14433,Wayne County,NY,78.92561983471074
14456,Ontario County,NY,5.475206611570248
14468,Monroe County,NY,79.44214876033058
14469,Ontario County,NY,79.85537190082644
14505,Wayne County,NY,58.98760330578512
14521,Seneca County,NY,94.42148760330579
14527,Yates County,NY,57.231404958677686
14543,Monroe County,NY,95.24793388429752
14559,Monroe County,NY,67.4586776859504
14564,Ontario County,NY,17.665289256198346
14586,Monroe County,NY,61.77685950413223
14604,Monroe County,NY,51.34297520661158
14609,Monroe County,NY,11.570247933884298
14610,Monroe County,NY,59.50413223140496
14618,Monroe County,NY,62.8099173553719
14620,Monroe County,NY,4.132231404958678
14624,Monroe County,NY,15.082644628099173
14760,Cattaraugus County,NY,7.954545454545454
14837,Yates County,NY,93.07851239669421
14845,Chemung County,NY,15.18595041322314
27106,Forsyth County,NC,11.8801652892562
27203,Randolph County,NC,25.723140495867767
27265,Guilford County,NC,17.97520661157025
27284,Forsyth County,NC,5.06198347107438
27292,Davidson County,NC,39.35950413223141
27320,Rockingham County,NC,9.607438016528926
27330,Lee County,NC,68.80165289256198
27377,Guilford County,NC,88.32644628099173
27406,Guilford County,NC,2.8925619834710745
27410,Guilford County,NC,30.57851239669421
27513,Wake County,NC,58.26446280991735
27520,Johnston County,NC,31.198347107438018
27587,Wake County,NC,20.041322314049587
28081,Cabarrus County,NC,20.66115702479339
28092,Lincoln County,NC,21.487603305785125
28164,Gaston County,NC,88.84297520661157
28205,Mecklenburg County,NC,18.59504132231405
28211,Mecklenburg County,NC,29.028925619834713
28212,Mecklenburg County,NC,24.173553719008265
28216,Mecklenburg County,NC,34.090909090909086
28269,Mecklenburg County,NC,12.293388429752067
28304,Cumberland County,NC,29.75206611570248
28312,Cumberland County,NC,60.33057851239669
28327,Moore County,NC,84.81404958677686
28405,New Hanover County,NC,64.25619834710744
28412,New Hanover County,NC,14.566115702479337
28463,Columbus County,NC,68.90495867768594
28601,Catawba County,NC,13.326446280991735
28635,Wilkes County,NC,89.77272727272727
28705,Mitchell County,NC,79.33884297520662
28715,Buncombe County,NC,48.24380165289256
28786,Haywood County,NC,64.87603305785123
28792,Henderson County,NC,30.165289256198346
58316,Rolette County,ND,95.55785123966942
58501,Burleigh County,ND,51.34297520661158
58701,Ward County,ND,8.367768595041323
43026,Franklin County,OH,18.801652892561986
43028,Knox County,OH,97.93388429752066
43072,Champaign County,OH,83.88429752066115
43110,Franklin County,OH,22.62396694214876
43125,Franklin County,OH,68.59504132231406
43206,Franklin County,OH,10.847107438016529
43344,Union County,OH,92.14876033057851
43402,Wood County,OH,52.892561983471076
43420,Sandusky County,OH,8.574380165289258
43515,Fulton County,OH,82.85123966942149
43604,Lucas County,OH,40.49586776859504
43607,Lucas County,OH,25.6198347107438
43612,Lucas County,OH,3.0991735537190084
43701,Muskingum County,OH,0.30991735537190085
43725,Guernsey County,OH,60.433884297520656
43950,Belmont County,OH,39.25619834710744
44001,Lorain County,OH,58.67768595041323
44011,Lorain County,OH,29.235537190082646
44055,Lorain County,OH,71.07438016528926
44105,Cuyahoga County,OH,0.2066115702479339
44108,Cuyahoga County,OH,73.14049586776859
44117,Cuyahoga County,OH,40.392561983471076
44124,Cuyahoga County,OH,55.371900826446286
44137,Cuyahoga County,OH,25.10330578512397
44138,Cuyahoga County,OH,31.40495867768595
44305,Summit County,OH,12.603305785123966
44306,Summit County,OH,7.747933884297521
44403,Trumbull County,OH,98.24380165289256
44621,Tuscarawas County,OH,84.50413223140497
44702,Stark County,OH,79.54545454545455
44839,Erie County,OH,53.925619834710744
45013,Butler County,OH,2.479338842975207
45014,Butler County,OH,71.5909090909091
45122,Clermont County,OH,70.24793388429752
45133,Highland County,OH,19.421487603305785
45177,Clinton County,OH,23.140495867768596
45229,Hamilton County,OH,28.40909090909091
45251,Hamilton County,OH,51.13636363636363
45365,Shelby County,OH,10.537190082644628
45373,Miami County,OH,4.958677685950414
45424,Montgomery County,OH,9.090909090909092
45631,Gallia County,OH,8.884297520661157
45659,Lawrence County,OH,78.92561983471074
45662,Scioto County,OH,1.859504132231405
45669,Lawrence County,OH,16.632231404958677
45680,Lawrence County,OH,11.466942148760332
45694,Scioto County,OH,27.37603305785124
45805,Allen County,OH,12.190082644628099
45844,Putnam County,OH,99.79338842975206
73003,Oklahoma County,OK,61.15702479338842
73010,McClain County,OK,46.074380165289256
73065,McClain County,OK,82.95454545454545
73072,Cleveland County,OK,26.962809917355372
73078,Canadian County,OK,88.01652892561982
73089,Grady County,OK,76.34297520661157
73096,Custer County,OK,61.67355371900827
73099,Canadian County,OK,12.396694214876034
73110,Oklahoma County,OK,16.83884297520661
73114,Oklahoma County,OK,53.51239669421488
73120,Oklahoma County,OK,41.21900826446281
73135,Oklahoma County,OK,41.942148760330575
73160,Cleveland County,OK,10.950413223140496
73179,Oklahoma County,OK,93.38842975206612
73521,Jackson County,OK,64.0495867768595
73533,Stephens County,OK,20.144628099173552
73651,Kiowa County,OK,92.76859504132231
73717,Woods County,OK,98.55371900826447
74017,Rogers County,OK,70.66115702479338
74019,Rogers County,OK,46.590909090909086
74053,Rogers County,OK,86.57024793388429
74066,Creek County,OK,30.268595041322317
74070,Osage County,OK,89.0495867768595
74128,Tulsa County,OK,72.72727272727273
74403,Muskogee County,OK,32.231404958677686
74464,Cherokee County,OK,7.128099173553719
74601,Kay County,OK,43.078512396694215
97005,Washington County,OR,47.62396694214876
97031,Hood River County,OR,66.63223140495867
97058,Wasco County,OR,39.46280991735537
97128,Yamhill County,OR,17.045454545454543
97132,Yamhill County,OR,79.23553719008265
97222,Clackamas County,OR,59.81404958677686
97378,Yamhill County,OR,80.06198347107438
97401,Lane County,OR,38.32644628099173
97402,Lane County,OR,19.214876033057852
97439,Lane County,OR,57.85123966942148
97479,Douglas County,OR,68.38842975206612
97503,Jackson County,OR,88.63636363636364
97702,Deschutes County,OR,43.80165289256198
97756,Deschutes County,OR,36.15702479338843
97818,Morrow County,OR,83.16115702479338
15063,Washington County,PA,60.12396694214877
15204,Allegheny County,PA,89.25619834710744
15301,Washington County,PA,4.648760330578512
15370,Greene County,PA,50.103305785123965
15522,Bedford County,PA,60.22727272727273
15650,Westmoreland County,PA,45.14462809917356
15767,Jefferson County,PA,58.47107438016529
16105,Lawrence County,PA,55.47520661157025
16125,Mercer County,PA,36.8801652892562
16201,Armstrong County,PA,30.47520661157025
16625,Blair County,PA,95.35123966942149
17013,Cumberland County,PA,52.37603305785123
17032,Dauphin County,PA,91.83884297520662
17046,Lebanon County,PA,53.82231404958677
17202,Franklin County,PA,26.859504132231404
17225,Franklin County,PA,55.268595041322314
17236,Franklin County,PA,96.69421487603306
17257,Cumberland County,PA,54.54545454545454
17313,York County,PA,63.1198347107438
17315,York County,PA,26.75619834710744
17331,York County,PA,5.268595041322314
17401,York County,PA,45.24793388429752
17403,York County,PA,2.066115702479339
17404,York County,PA,38.429752066115704
17601,Lancaster County,PA,33.47107438016529
18104,Lehigh County,PA,13.119834710743802
18444,Lackawanna County,PA,55.78512396694215
18447,Lackawanna County,PA,72.8305785123967
18452,Lackawanna County,PA,99.3801652892562
18603,Columbia County,PA,80.68181818181817
19020,Bucks County,PA,61.57024793388429
19022,Delaware County,PA,89.35950413223141
19036,Delaware County,PA,75.82644628099173
19053,Bucks County,PA,29.958677685950413
19120,Philadelphia County,PA,2.272727272727273
19129,Philadelphia County,PA,80.99173553719008
19135,Philadelphia County,PA,14.256198347107437
19140,Philadelphia County,PA,1.5495867768595042
19141,Philadelphia County,PA,6.198347107438017
19153,Philadelphia County,PA,81.61157024793388
19341,Chester County,PA,69.62809917355372
19382,Chester County,PA,13.842975206611571
19401,Montgomery County,PA,32.438016528925615
19428,Montgomery County,PA,82.12809917355372
19543,Berks County,PA,98.34710743801654
19560,Berks County,PA,76.96280991735537
19605,Berks County,PA,29.44214876033058
02818,Kent County,RI,83.05785123966942
02886,Kent County,RI,30.991735537190085
02889,Kent County,RI,70.76446280991735
02891,Washington County,RI,55.061983471074385
02905,Providence County,RI,69.21487603305785
02909,Providence County,RI,17.458677685950413
29020,Kershaw County,SC,62.1900826446281
29033,Lexington County,SC,97.52066115702479
29067,Lancaster County,SC,81.19834710743802
29203,Richland County,SC,9.400826446280993
29204,Richland County,SC,66.63223140495867
29210,Richland County,SC,40.909090909090914
29353,Union County,SC,96.28099173553719
29379,Union County,SC,31.818181818181817
29405,Charleston County,SC,26.446280991735538
29456,Dorchester County,SC,34.710743801652896
29579,Horry County,SC,52.78925619834711
29605,Greenville County,SC,23.65702479338843
29689,Anderson County,SC,95.66115702479338
29693,Oconee County,SC,62.29338842975206
29720,Lancaster County,SC,14.152892561983471
57104,Minnehaha County,SD,59.29752066115702
57401,Brown County,SD,16.219008264462808
57701,Pennington County,SD,17.56198347107438
37066,Sumner County,TN,8.16115702479339
37074,Trousdale County,TN,64.56611570247934
37087,Wilson County,TN,15.909090909090908
37110,Warren County,TN,15.392561983471072
37216,Davidson County,TN,47.31404958677686
37398,Franklin County,TN,44.731404958677686
37660,Sullivan County,TN,6.714876033057851
37716,Anderson County,TN,36.98347107438016
37745,Greene County,TN,56.19834710743802
37763,Roane County,TN,62.70661157024794
37886,Blount County,TN,81.71487603305785
37918,Knox County,TN,13.119834710743802
38004,Tipton County,TN,84.60743801652893
38111,Shelby County,TN,19.93801652892562
38127,Shelby County,TN,7.43801652892562
38128,Shelby County,TN,18.181818181818183
38141,Shelby County,TN,47.107438016528924
38340,Chester County,TN,61.2603305785124
75043,Dallas County,TX,17.87190082644628
75088,Dallas County,TX,65.80578512396694
75233,Dallas County,TX,94.31818181818183
75241,Dallas County,TX,21.90082644628099
75243,Dallas County,TX,13.016528925619836
75252,Collin County,TX,62.603305785123965
75462,Lamar County,TX,93.18181818181817
75482,Hopkins County,TX,55.99173553719008
75503,Bowie County,TX,50.413223140495866
75602,Gregg County,TX,78.82231404958677
75605,Gregg County,TX,52.16942148760331
75839,Anderson County,TX,90.80578512396694
75951,Jasper County,TX,49.48347107438016
76002,Tarrant County,TX,77.89256198347107
76011,Tarrant County,TX,53.40909090909091
76082,Parker County,TX,54.132231404958674
76086,Parker County,TX,56.611570247933884
76114,Tarrant County,TX,42.25206611570248
76140,Tarrant County,TX,37.70661157024794
76164,Tarrant County,TX,67.25206611570248
76234,Wise County,TX,67.14876033057851
76308,Wichita County,TX,90.70247933884298
76426,Wise County,TX,83.47107438016529
76504,Bell County,TX,8.057851239669422
76901,Tom Green County,TX,48.65702479338843
77013,Harris County,TX,80.78512396694215
77019,Harris County,TX,67.87190082644628
77044,Harris County,TX,35.84710743801653
77062,Harris County,TX,57.438016528925615
77089,Harris County,TX,43.388429752066116
77090,Harris County,TX,27.789256198347108
77096,Harris County,TX,56.71487603305785
77386,Montgomery County,TX,63.42975206611571
77389,Harris County,TX,76.44628099173553
77414,Matagorda County,TX,44.731404958677686
77422,Brazoria County,TX,72.21074380165288
77429,Harris County,TX,10.227272727272728
77441,Fort Bend County,TX,83.26446280991735
77484,Waller County,TX,87.39669421487604
77494,Fort Bend County,TX,15.702479338842975
77506,Harris County,TX,79.75206611570248
77539,Galveston County,TX,18.90495867768595
77573,Galveston County,TX,7.541322314049586
77584,Brazoria County,TX,8.47107438016529
77656,Hardin County,TX,54.75206611570248
77904,Victoria County,TX,38.84297520661157
77995,Lavaca County,TX,75
78041,Webb County,TX,36.570247933884296
78045,Webb County,TX,22.83057851239669
78064,Atascosa County,TX,87.5
78130,Comal County,TX,21.797520661157023
78218,Bexar County,TX,48.4504132231405
78245,Bexar County,TX,23.24380165289256
78250,Bexar County,TX,41.425619834710744
78252,Bexar County,TX,96.5909090909091
78374,San Patricio County,TX,82.5413223140496
78582,Starr County,TX,64.35950413223141
78639,Llano County,TX,75.41322314049587
78644,Caldwell County,TX,64.6694214876033
78744,Travis County,TX,60.64049586776859
78748,Travis County,TX,67.76859504132231
78754,Travis County,TX,76.13636363636364
79106,Potter County,TX,52.99586776859504
79107,Potter County,TX,32.95454545454545
79605,Taylor County,TX,37.913223140495866
79703,Midland County,TX,56.81818181818182
79762,Ector County,TX,27.37603305785124
79938,El Paso County,TX,30.785123966942145
84043,Utah County,UT,44.52479338842975
84058,Utah County,UT,90.18595041322314
84065,Salt Lake County,UT,37.60330578512397
84074,Tooele County,UT,2.7892561983471076
84078,Uintah County,UT,15.289256198347106
84084,Salt Lake County,UT,72.00413223140497
84102,Salt Lake County,UT,75.92975206611571
84107,Salt Lake County,UT,39.56611570247934
84604,Utah County,UT,81.92148760330579
84664,Utah County,UT,95.0413223140496
20176,Loudoun County,VA,48.14049586776859
22015,Fairfax County,VA,52.066115702479344
22044,Fairfax County,VA,92.4586776859504
22308,Fairfax County,VA,76.2396694214876
22406,Stafford County,VA,99.89669421487604
22554,Stafford County,VA,93.69834710743802
22601,Winchester city,VA,57.74793388429752
23220,Richmond city,VA,80.26859504132231
23225,Richmond city,VA,12.8099173553719
23704,Portsmouth city,VA,27.582644628099175
23803,Petersburg city,VA,10.020661157024794
23924,Mecklenburg County,VA,86.05371900826447
24073,Montgomery County,VA,40.80578512396694
24151,Franklin County,VA,45.45454545454545
24401,Staunton city,VA,9.710743801652892
24502,Lynchburg city,VA,41.83884297520662
24563,Pittsylvania County,VA,91.32231404958677
24605,Tazewell County,VA,61.8801652892562
98012,Snohomish County,WA,28.82231404958678
98026,Snohomish County,WA,33.264462809917354
98029,King County,WA,58.574380165289256
98030,King County,WA,24.586776859504134
98032,King County,WA,70.0413223140496
98043,Snohomish County,WA,86.2603305785124
98087,Snohomish County,WA,46.48760330578512
98092,King County,WA,23.96694214876033
98107,King County,WA,66.21900826446281
98208,Snohomish County,WA,19.52479338842975
98258,Snohomish County,WA,88.22314049586777
98266,Whatcom County,WA,99.48347107438018
98270,Snohomish County,WA,17.148760330578515
98273,Skagit County,WA,27.27272727272727
98391,Pierce County,WA,43.904958677685954
98407,Pierce County,WA,65.9090909090909
98467,Pierce County,WA,90.28925619834712
98499,Pierce County,WA,43.285123966942145
98532,Lewis County,WA,93.59504132231406
98541,Grays Harbor County,WA,72.93388429752066
98926,Kittitas County,WA,98.03719008264463
98948,Yakima County,WA,83.78099173553719
99111,Whitman County,WA,100
99114,Stevens County,WA,96.07438016528926
99207,Spokane County,WA,50
20018,District of Columbia,DC,41.735537190082646
20032,District of Columbia,DC,3.512396694214876
24963,Monroe County,WV,99.17355371900827
25071,Kanawha County,WV,76.5495867768595
25311,Kanawha County,WV,67.04545454545455
25504,Cabell County,WV,54.85537190082644
25801,Raleigh County,WV,11.983471074380166
26101,Wood County,WV,3.202479338842975
26104,Wood County,WV,65.70247933884298
26205,Nicholas County,WV,89.15289256198346
26452,Lewis County,WV,55.99173553719008
26704,Hampshire County,WV,91.42561983471074
53092,Ozaukee County,WI,78.51239669421489
53142,Kenosha County,WI,7.851239669421488
53207,Milwaukee County,WI,25.413223140495866
53209,Milwaukee County,WI,1.6528925619834711
53224,Milwaukee County,WI,35.74380165289256
53713,Dane County,WI,52.27272727272727
53805,Grant County,WI,93.80165289256198
53809,Grant County,WI,96.900826446281
54022,Pierce County,WI,89.56611570247934
54115,Brown County,WI,45.97107438016529
54151,Marinette County,WI,87.70661157024794
54601,La Crosse County,WI,5.578512396694215
54615,Jackson County,WI,67.56198347107438
54656,Monroe County,WI,47.5206611570248
54848,Rusk County,WI,80.57851239669421
82718,Campbell County,WY,55.16528925619835
