ZipCode,county,state,Adult
35007,Shelby County,AL,40.5202130993419
35020,Jefferson County,AL,8.429959260419931
35023,Jefferson County,AL,53.588216859918525
35040,Shelby County,AL,72.42243810717643
35046,Chilton County,AL,88.68693199623942
35049,Blount County,AL,95.54998433093074
35055,Cullman County,AL,44.56283296772172
35062,Jefferson County,AL,80.10028204324662
35063,Walker County,AL,95.7066750235036
35080,Shelby County,AL,48.76214352867439
35121,Blount County,AL,53.24349733625823
35124,Shelby County,AL,54.84174240050142
35126,Jefferson County,AL,42.18113444061423
35160,Talladega County,AL,9.996866186148543
35186,Shelby County,AL,98.46443121278597
35206,Jefferson County,AL,52.428705734879344
35209,Jefferson County,AL,72.70448135380758
35210,Jefferson County,AL,61.454089627076144
35211,Jefferson County,AL,9.714822939517392
35214,Jefferson County,AL,21.968035098715134
35228,Jefferson County,AL,50.86179880915074
35235,Jefferson County,AL,44.62550924475086
35401,Tuscaloosa County,AL,16.891256659354433
35405,Tuscaloosa County,AL,4.575368223127546
35406,Tuscaloosa County,AL,87.49608273268568
35570,Marion County,AL,91.66405515512378
35601,Morgan County,AL,8.116577875274208
35622,Morgan County,AL,76.68442494515826
35630,Lauderdale County,AL,21.215919774365403
35633,Lauderdale County,AL,44.62550924475086
35652,Lauderdale County,AL,90.41052961454089
35660,Colbert County,AL,61.454089627076144
35661,Colbert County,AL,55.78188655593858
35673,Morgan County,AL,60.63929802569727
35747,Marshall County,AL,94.578502036979
35748,Madison County,AL,82.35662801629583
35756,Limestone County,AL,72.64180507677844
35757,Madison County,AL,64.27452209338766
35758,Madison County,AL,27.796928862425574
35761,Madison County,AL,68.53650893136948
35763,Madison County,AL,70.60482607333124
35805,Madison County,AL,34.12723284236917
35904,Etowah County,AL,34.597304920087744
35956,Etowah County,AL,72.20307113757443
35959,Cherokee County,AL,94.67251645252271
35967,DeKalb County,AL,94.42181134440614
36054,Elmore County,AL,57.63083672829834
36092,Elmore County,AL,34.84801002820432
36108,Montgomery County,AL,31.4948292071451
36110,Montgomery County,AL,44.37480413663428
36201,Calhoun County,AL,18.050767784393607
36260,Calhoun County,AL,99.37323722970855
36301,Houston County,AL,11.720463804450015
36303,Houston County,AL,45.94171106236289
36502,Escambia County,AL,33.84518959573801
36535,Baldwin County,AL,32.81103102475713
36580,Baldwin County,AL,83.89219680350986
36605,Mobile County,AL,29.081792541523033
36617,Mobile County,AL,68.09777499216545
36804,Lee County,AL,88.24819805703541
36832,Lee County,AL,71.106236289564393
36867,Russell County,AL,60.89000313381385
36870,Lee County,AL,90.34785333751175
99501,Anchorage Municipality,AK,13.914133500470072
99504,Anchorage Municipality,AK,13.851457223440928
99507,Anchorage Municipality,AK,57.31745534315261
99508,Anchorage Municipality,AK,38.45189595738013
99559,Bethel Census Area,AK,85.52178000626762
99576,Dillingham Census Area,AK,89.40770918207458
99615,Kodiak Island Borough,AK,91.91476026324035
99645,Matanuska-Susitna Borough,AK,44.030084612973994
99654,Matanuska-Susitna Borough,AK,25.571921027890944
99669,Kenai Peninsula Borough,AK,64.77593230962081
99709,Fairbanks North Star Borough,AK,54.65371356941397
99801,Juneau City and Borough,AK,72.17173299905986
85006,Maricopa County,AZ,31.745534315261676
85007,Maricopa County,AZ,6.016922594797869
85008,Maricopa County,AZ,65.96678157317454
85014,Maricopa County,AZ,34.18990911939831
85015,Maricopa County,AZ,39.3920401128173
85016,Maricopa County,AZ,32.40363522406769
85017,Maricopa County,AZ,55.68787214039486
85022,Maricopa County,AZ,12.597931682858038
85023,Maricopa County,AZ,80.66436853650893
85024,Maricopa County,AZ,65.93544343465997
85027,Maricopa County,AZ,30.80539015982451
85028,Maricopa County,AZ,72.92384832340959
85029,Maricopa County,AZ,45.502977123158885
85031,Maricopa County,AZ,73.08053901598245
85032,Maricopa County,AZ,68.41115637731119
85033,Maricopa County,AZ,9.96552804763397
85037,Maricopa County,AZ,16.609213412723285
85041,Maricopa County,AZ,4.888749608273269
85042,Maricopa County,AZ,68.66186148542776
85043,Maricopa County,AZ,43.49733625822626
85044,Maricopa County,AZ,12.34722657474146
85051,Maricopa County,AZ,53.650893136947666
85128,Pinal County,AZ,94.86054528361015
85131,Pinal County,AZ,74.11469758696333
85132,Pinal County,AZ,27.232842369163272
85139,Pinal County,AZ,76.1830147289251
85140,Pinal County,AZ,24.788467565026636
85142,Maricopa County,AZ,5.672203071137575
85143,Pinal County,AZ,25.79128799749295
85201,Maricopa County,AZ,8.335944844876215
85203,Maricopa County,AZ,94.20244437480414
85204,Maricopa County,AZ,8.586649952992792
85206,Maricopa County,AZ,35.098715136320905
85207,Maricopa County,AZ,17.612033845189597
85210,Maricopa County,AZ,14.885615794421811
85213,Maricopa County,AZ,51.8019429645879
85225,Maricopa County,AZ,6.925728611720464
85226,Maricopa County,AZ,76.68442494515826
85253,Maricopa County,AZ,82.79536195549984
85255,Maricopa County,AZ,73.1432152930116
85256,Maricopa County,AZ,85.36508931369477
85282,Maricopa County,AZ,30.68003760576622
85286,Maricopa County,AZ,24.41240990285177
85295,Maricopa County,AZ,86.2425571921028
85296,Maricopa County,AZ,23.346913193356315
85297,Maricopa County,AZ,52.52272015042306
85298,Maricopa County,AZ,62.55092447508618
85301,Maricopa County,AZ,56.34597304920088
85302,Maricopa County,AZ,48.13538075838295
85303,Maricopa County,AZ,40.67690379191476
85306,Maricopa County,AZ,43.81071764337198
85326,Maricopa County,AZ,19.586336571607646
85339,Maricopa County,AZ,43.434659981197115
85340,Maricopa County,AZ,56.12660607959887
85344,La Paz County,AZ,27.29551864619242
85345,Maricopa County,AZ,7.458476966468192
85350,Yuma County,AZ,73.39392040112817
85353,Maricopa County,AZ,75.33688498903165
85365,Yuma County,AZ,19.147602632403636
85381,Maricopa County,AZ,54.02695079912253
85383,Maricopa County,AZ,18.301472892510183
85395,Maricopa County,AZ,66.09213412723284
85546,Graham County,AZ,39.48605452836102
85621,Santa Cruz County,AZ,68.81855217800063
85634,Pima County,AZ,14.227514885615793
85705,Pima County,AZ,1.6609213412723283
85706,Pima County,AZ,1.2848636790974615
85711,Pima County,AZ,23.534942024443747
85714,Pima County,AZ,23.096208085239738
85715,Pima County,AZ,72.54779066123473
85716,Pima County,AZ,38.013162018176125
85718,Pima County,AZ,48.1980570354121
85719,Pima County,AZ,23.59761830147289
85730,Pima County,AZ,48.91883422124726
85746,Pima County,AZ,30.774052021309934
85747,Pima County,AZ,62.14352867439674
85748,Pima County,AZ,77.96928862425571
85750,Pima County,AZ,58.94703854591037
85756,Pima County,AZ,24.757129426512066
85941,Apache County,AZ,7.70918207458477
86034,Navajo County,AZ,93.19962394233782
86040,Coconino County,AZ,98.84048887496083
86047,Navajo County,AZ,58.22626136007521
86403,Mohave County,AZ,35.286743967408334
86409,Mohave County,AZ,4.732058915700407
86432,Mohave County,AZ,98.8718270134754
86442,Mohave County,AZ,18.896897524287056
86514,Apache County,AZ,99.46725164525228
86538,Apache County,AZ,89.7210905672203
86556,Apache County,AZ,91.60137887809464
71603,Jefferson County,AR,23.910999686618613
72011,Saline County,AR,99.0911939830774
72042,Arkansas County,AR,98.24506424318396
72104,Hot Spring County,AR,46.59981197116891
72110,Conway County,AR,91.97743654026951
72113,Pulaski County,AR,64.46255092447508
72450,Greene County,AR,12.315888436226889
72455,Randolph County,AR,77.43654026950799
72745,Benton County,AR,80.88373550611094
72758,Benton County,AR,49.200877467878406
72762,Washington County,AR,36.696960200564085
90003,Los Angeles County,CA,25.195863365716075
90004,Los Angeles County,CA,67.69037919147603
90005,Los Angeles County,CA,97.27358194923221
90006,Los Angeles County,CA,94.76653086806644
90011,Los Angeles County,CA,90.72391099968662
90018,Los Angeles County,CA,61.42275148856158
90022,Los Angeles County,CA,25.91664055155124
90025,Los Angeles County,CA,92.69821372610467
90028,Los Angeles County,CA,55.21780006267628
90033,Los Angeles County,CA,66.56220620495142
90037,Los Angeles County,CA,61.36007521153244
90041,Los Angeles County,CA,66.56220620495142
90063,Los Angeles County,CA,74.11469758696333
90064,Los Angeles County,CA,18.458163585083046
90069,Los Angeles County,CA,43.59135067376998
90220,Los Angeles County,CA,55.875900971482295
90221,Los Angeles County,CA,26.60607959887183
90247,Los Angeles County,CA,40.86493262300219
90255,Los Angeles County,CA,72.5791287997493
90262,Los Angeles County,CA,24.193042933249764
90278,Los Angeles County,CA,51.14384205578189
90292,Los Angeles County,CA,65.87276715763085
90293,Los Angeles County,CA,88.27953619554998
90303,Los Angeles County,CA,87.46474459417111
90503,Los Angeles County,CA,38.890629896584144
90620,Orange County,CA,38.51457223440928
90621,Orange County,CA,47.47727984957694
90631,Orange County,CA,58.5709808837355
90640,Los Angeles County,CA,24.506424318395485
90650,Los Angeles County,CA,58.3516139141335
90670,Los Angeles County,CA,94.07709182074585
90703,Los Angeles County,CA,80.75838295205264
90710,Los Angeles County,CA,91.97743654026951
90712,Los Angeles County,CA,48.79348166718897
90713,Los Angeles County,CA,96.42745220933875
90717,Los Angeles County,CA,80.38232528987777
90720,Orange County,CA,65.15198997179567
90723,Los Angeles County,CA,41.867753055468505
90740,Orange County,CA,60.48260733312441
90802,Los Angeles County,CA,40.11281729865246
90805,Los Angeles County,CA,79.81823879661547
90806,Los Angeles County,CA,45.40896270761517
90810,Los Angeles County,CA,88.27953619554998
90813,Los Angeles County,CA,83.26543403321843
90815,Los Angeles County,CA,39.17267314321529
91010,Los Angeles County,CA,81.4791601378878
91030,Los Angeles County,CA,83.67282983390787
91103,Los Angeles County,CA,67.5963647759323
91104,Los Angeles County,CA,33.43779379504858
91206,Los Angeles County,CA,87.77812597931683
91303,Los Angeles County,CA,78.90943277969289
91304,Los Angeles County,CA,38.169852710748984
91325,Los Angeles County,CA,70.69884048887496
91331,Los Angeles County,CA,6.894390473205892
91335,Los Angeles County,CA,54.08962707615168
91342,Los Angeles County,CA,62.14352867439674
91343,Los Angeles County,CA,85.61579442181134
91355,Los Angeles County,CA,63.177687245377626
91362,Ventura County,CA,83.35944844876214
91384,Los Angeles County,CA,69.38263867126292
91387,Los Angeles County,CA,68.34848010028203
91402,Los Angeles County,CA,50.047007207771856
91504,Los Angeles County,CA,64.2118458163585
91505,Los Angeles County,CA,65.30868066436854
91604,Los Angeles County,CA,48.605452836101534
91605,Los Angeles County,CA,36.665622062049515
91607,Los Angeles County,CA,77.0918207458477
91701,San Bernardino County,CA,16.67188968975243
91706,Los Angeles County,CA,48.448762143528675
91710,San Bernardino County,CA,60.545283610153554
91723,Los Angeles County,CA,74.39674083359449
91730,San Bernardino County,CA,41.46035725477907
91731,Los Angeles County,CA,26.543403321842685
91732,Los Angeles County,CA,80.78972109056723
91740,Los Angeles County,CA,54.371670322782826
91761,San Bernardino County,CA,15.888436226888123
91762,San Bernardino County,CA,58.100908806016925
91763,San Bernardino County,CA,54.528361015355685
91764,San Bernardino County,CA,78.31400814791601
91765,Los Angeles County,CA,57.31745534315261
91767,Los Angeles County,CA,29.771231588843623
91768,Los Angeles County,CA,66.43685365089314
91770,Los Angeles County,CA,39.611407082419305
91775,Los Angeles County,CA,83.17141961767472
91780,Los Angeles County,CA,94.32779692886243
91789,Los Angeles County,CA,79.19147602632404
91790,Los Angeles County,CA,42.27514885615795
91792,Los Angeles County,CA,58.44562832967721
91910,San Diego County,CA,16.38984644312128
91915,San Diego County,CA,82.98339078658728
91977,San Diego County,CA,58.5709808837355
92009,San Diego County,CA,56.596678157317456
92019,San Diego County,CA,83.14008147916013
92021,San Diego County,CA,9.558132246944531
92025,San Diego County,CA,71.04356001253525
92026,San Diego County,CA,77.27984957693513
92027,San Diego County,CA,99.05985584456283
92028,San Diego County,CA,82.23127546223753
92054,San Diego County,CA,32.873707301786276
92057,San Diego County,CA,87.59009714822939
92065,San Diego County,CA,38.51457223440928
92082,San Diego County,CA,87.0260106549671
92083,San Diego County,CA,52.209338765277344
92101,San Diego County,CA,8.83735506110937
92102,San Diego County,CA,27.546223754308997
92104,San Diego County,CA,50.51707928549044
92105,San Diego County,CA,37.48041366342839
92109,San Diego County,CA,61.767471012221876
92110,San Diego County,CA,47.069884048887495
92111,San Diego County,CA,43.246631150109685
92113,San Diego County,CA,47.35192729551865
92114,San Diego County,CA,55.531181447822
92115,San Diego County,CA,55.02977123158884
92122,San Diego County,CA,64.49388906298967
92126,San Diego County,CA,68.31714196176748
92127,San Diego County,CA,84.26825446568473
92129,San Diego County,CA,47.602632403635226
92131,San Diego County,CA,62.92698213726104
92139,San Diego County,CA,64.24318395487309
92173,San Diego County,CA,90.37919147602632
92240,Riverside County,CA,14.03948605452836
92243,Imperial County,CA,16.327170166092134
92262,Riverside County,CA,42.9959260419931
92274,Riverside County,CA,88.53024130366656
92284,San Bernardino County,CA,68.6305233469132
92307,San Bernardino County,CA,51.08116577875275
92308,San Bernardino County,CA,38.29520526480727
92316,San Bernardino County,CA,74.42807897210906
92324,San Bernardino County,CA,12.660607959887182
92325,San Bernardino County,CA,80.85239736759637
92336,San Bernardino County,CA,5.6095267941084295
92345,San Bernardino County,CA,60.07521153243497
92346,San Bernardino County,CA,49.73362582262614
92374,San Bernardino County,CA,32.52898777812598
92376,San Bernardino County,CA,90.00313381385145
92392,San Bernardino County,CA,39.73675963647759
92395,San Bernardino County,CA,50.32905045440301
92405,San Bernardino County,CA,34.5346286430586
92407,San Bernardino County,CA,38.29520526480727
92410,San Bernardino County,CA,88.0288310874334
92411,San Bernardino County,CA,88.65559385772485
92503,Riverside County,CA,12.22187402068317
92504,Riverside County,CA,31.400814791601377
92505,Riverside County,CA,69.63334377937952
92507,Riverside County,CA,31.306800376057666
92509,Riverside County,CA,65.02663741773739
92545,Riverside County,CA,65.40269507991225
92551,Riverside County,CA,84.2055781886556
92553,Riverside County,CA,18.08210592290818
92555,Riverside County,CA,88.59291758069571
92562,Riverside County,CA,88.49890316515199
92563,Riverside County,CA,56.3146349106863
92570,Riverside County,CA,81.19711689125666
92571,Riverside County,CA,80.16295832027578
92583,Riverside County,CA,52.9301159511125
92584,Riverside County,CA,33.907865872767154
92591,Riverside County,CA,71.41961767471012
92592,Riverside County,CA,18.990911939830774
92596,Riverside County,CA,66.31150109683485
92602,Orange County,CA,94.64117831400814
92606,Orange County,CA,76.55907239109997
92618,Orange County,CA,53.08680664368537
92620,Orange County,CA,87.93481667188969
92630,Orange County,CA,57.4428078972109
92646,Orange County,CA,68.22312754622375
92647,Orange County,CA,43.904732058915705
92675,Orange County,CA,83.48480100282043
92677,Orange County,CA,23.00219366969602
92683,Orange County,CA,10.310247571294266
92692,Orange County,CA,29.238483234095895
92694,Orange County,CA,78.37668442494515
92701,Orange County,CA,98.1823879661548
92703,Orange County,CA,28.455029771231587
92704,Orange County,CA,56.28329677217173
92707,Orange County,CA,31.96490128486368
92708,Orange County,CA,85.11438420557819
92782,Orange County,CA,90.91193983077405
92801,Orange County,CA,23.628956439987466
92802,Orange County,CA,43.62268881228455
92806,Orange County,CA,78.094641178314
92833,Orange County,CA,90.2851770604826
92835,Orange County,CA,75.46223754308994
92840,Orange County,CA,93.5756816045127
92841,Orange County,CA,67.78439360701974
92867,Orange County,CA,49.294891883422125
92869,Orange County,CA,50.42306486994672
92870,Orange County,CA,60.451269194609836
92881,Riverside County,CA,67.00094014415544
92886,Orange County,CA,53.744907552491384
93003,Ventura County,CA,9.652146662488247
93010,Ventura County,CA,57.59949858978377
93033,Ventura County,CA,6.800376057662175
93041,Ventura County,CA,54.967094954559705
93063,Ventura County,CA,84.23691632717016
93065,Ventura County,CA,9.27608900031338
93210,Fresno County,CA,69.66468191789407
93223,Tulare County,CA,95.51864619241617
93230,Kings County,CA,38.60858664995299
93235,Tulare County,CA,99.68661861485427
93245,Kings County,CA,81.85521780006268
93257,Tulare County,CA,52.083986211219056
93267,Tulare County,CA,98.68379818238796
93274,Tulare County,CA,18.019429645879033
93277,Tulare County,CA,16.42118458163585
93291,Tulare County,CA,13.287370730178626
93304,Kern County,CA,15.481040426198684
93305,Kern County,CA,95.11125039172673
93306,Kern County,CA,89.0629896584143
93307,Kern County,CA,52.55405828893763
93308,Kern County,CA,18.83422124725791
93312,Kern County,CA,62.77029144468818
93314,Kern County,CA,75.65026637417738
93401,San Luis Obispo County,CA,46.380445001566905
93422,San Luis Obispo County,CA,89.31369476653087
93433,San Luis Obispo County,CA,71.57630836728298
93445,San Luis Obispo County,CA,91.47602632403635
93446,San Luis Obispo County,CA,17.988091507364462
93454,Santa Barbara County,CA,21.121905358821685
93458,Santa Barbara County,CA,53.8389219680351
93465,San Luis Obispo County,CA,96.99153870260106
93534,Los Angeles County,CA,26.48072704481354
93551,Los Angeles County,CA,43.46599811971169
93562,San Bernardino County,CA,98.99717956753369
93591,Los Angeles County,CA,97.71231588843622
93618,Tulare County,CA,76.27702914446883
93619,Fresno County,CA,31.36947665308681
93630,Fresno County,CA,95.89470385459103
93635,Merced County,CA,29.58320275775619
93638,Madera County,CA,11.375744280789721
93648,Fresno County,CA,94.45314948292072
93654,Fresno County,CA,42.745220933876524
93662,Fresno County,CA,45.75368223127546
93702,Fresno County,CA,19.304293324976495
93703,Fresno County,CA,33.34377937950486
93706,Fresno County,CA,64.80727044813538
93710,Fresno County,CA,81.54183641491696
93711,Fresno County,CA,84.26825446568473
93720,Fresno County,CA,23.127546223754308
93722,Fresno County,CA,90.09714822939517
93725,Fresno County,CA,94.7038545910373
93726,Fresno County,CA,43.340645565653404
93727,Fresno County,CA,67.40833594484488
93905,Monterey County,CA,78.84675650266374
93927,Monterey County,CA,68.03509871513633
93930,Monterey County,CA,66.812911313068
93955,Monterey County,CA,62.832967721717324
93960,Monterey County,CA,82.63867126292698
94014,San Mateo County,CA,34.72265747414603
94015,San Mateo County,CA,33.28110310247571
94066,San Mateo County,CA,33.46913193356315
94080,San Mateo County,CA,22.532121591977436
94086,Santa Clara County,CA,80.44500156690692
94087,Santa Clara County,CA,90.59855844562833
94103,San Francisco County,CA,64.5565653400188
94110,San Francisco County,CA,7.58382952052648
94112,San Francisco County,CA,15.637731118771544
94116,San Francisco County,CA,92.22814164838609
94117,San Francisco County,CA,25.697273581949233
94123,San Francisco County,CA,82.07458476966468
94124,San Francisco County,CA,16.1391413350047
94131,San Francisco County,CA,54.15230335318082
94134,San Francisco County,CA,28.016295832027577
94158,San Francisco County,CA,92.44750861798809
94403,San Mateo County,CA,74.4907552491382
94501,Alameda County,CA,62.20620495142588
94506,Contra Costa County,CA,68.78721403948606
94509,Contra Costa County,CA,13.976809777499216
94510,Solano County,CA,78.50203697900344
94513,Contra Costa County,CA,24.13036665622062
94518,Contra Costa County,CA,73.26856784706989
94520,Contra Costa County,CA,83.79818238796616
94531,Contra Costa County,CA,23.69163271701661
94534,Solano County,CA,82.76402381698527
94536,Alameda County,CA,74.33406455656534
94538,Alameda County,CA,83.45346286430586
94541,Alameda County,CA,66.12347226574742
94544,Alameda County,CA,38.827953619555004
94545,Alameda County,CA,69.88404888749609
94550,Alameda County,CA,36.97900344719523
94559,Napa County,CA,81.76120338451895
94565,Contra Costa County,CA,91.6327170166092
94566,Alameda County,CA,52.58539642745221
94568,Alameda County,CA,75.49357568160451
94577,Alameda County,CA,26.38671262926982
94580,Alameda County,CA,72.04638044500157
94582,Contra Costa County,CA,59.94985897837668
94583,Contra Costa County,CA,41.33500470072078
94587,Alameda County,CA,59.38577248511439
94588,Alameda County,CA,87.62143528674396
94589,Solano County,CA,49.200877467878406
94590,Solano County,CA,51.92729551864619
94591,Solano County,CA,56.40864932623002
94601,Alameda County,CA,67.75305546850518
94602,Alameda County,CA,74.86681291131306
94603,Alameda County,CA,36.60294578502037
94605,Alameda County,CA,15.825759949858979
94606,Alameda County,CA,77.06048260733313
94611,Alameda County,CA,81.54183641491696
94621,Alameda County,CA,21.842682544656846
94801,Contra Costa County,CA,95.3619554998433
94903,Marin County,CA,68.69319962394233
94928,Sonoma County,CA,51.86461924161705
94947,Marin County,CA,93.10560952679411
94965,Marin County,CA,91.31933563146349
95023,San Benito County,CA,18.677530554685053
95032,Santa Clara County,CA,70.69884048887496
95035,Santa Clara County,CA,72.32842369163272
95046,Santa Clara County,CA,94.89188342212472
95050,Santa Clara County,CA,61.04669382638671
95051,Santa Clara County,CA,68.34848010028203
95060,Santa Cruz County,CA,65.62206204951426
95062,Santa Cruz County,CA,96.02005640864932
95066,Santa Cruz County,CA,88.40488874960826
95070,Santa Clara County,CA,76.1830147289251
95076,Santa Cruz County,CA,74.20871200250704
95110,Santa Clara County,CA,92.5415230335318
95111,Santa Clara County,CA,85.80382325289878
95116,Santa Clara County,CA,66.31150109683485
95120,Santa Clara County,CA,83.79818238796616
95122,Santa Clara County,CA,69.35130053274835
95123,Santa Clara County,CA,27.38953306173613
95127,Santa Clara County,CA,64.52522720150424
95131,Santa Clara County,CA,74.89815104982765
95132,Santa Clara County,CA,71.82701347539955
95133,Santa Clara County,CA,83.67282983390787
95134,Santa Clara County,CA,72.14039486054529
95136,Santa Clara County,CA,79.72422438107176
95204,San Joaquin County,CA,45.3776245691006
95206,San Joaquin County,CA,93.16828580382325
95209,San Joaquin County,CA,89.28235662801629
95210,San Joaquin County,CA,28.20432466311501
95215,San Joaquin County,CA,77.02914446881856
95231,San Joaquin County,CA,99.15387026010654
95304,San Joaquin County,CA,88.74960827326856
95307,Stanislaus County,CA,87.684111563773115
95324,Merced County,CA,94.51582575994986
95336,San Joaquin County,CA,20.557818865559383
95337,San Joaquin County,CA,29.614540896270764
95340,Merced County,CA,59.2604199310561
95341,Merced County,CA,88.06016922594799
95350,Stanislaus County,CA,11.187715449702287
95351,Stanislaus County,CA,89.47038545910372
95356,Stanislaus County,CA,30.178627389533062
95358,Stanislaus County,CA,82.16859918520841
95363,Stanislaus County,CA,52.05264807270448
95366,San Joaquin County,CA,75.99498589783767
95367,Stanislaus County,CA,94.23378251331872
95368,Stanislaus County,CA,76.49639611407082
95370,Tuolumne County,CA,96.83484801002821
95376,San Joaquin County,CA,51.64525227201504
95380,Stanislaus County,CA,50.64243183954873
95382,Stanislaus County,CA,15.951112503917267
95405,Sonoma County,CA,67.9410842995926
95437,Mendocino County,CA,87.87214039486054
95451,Lake County,CA,72.95518646192416
95476,Sonoma County,CA,63.7731118771545
95482,Mendocino County,CA,26.700094014415544
95540,Humboldt County,CA,48.10404261986838
95546,Humboldt County,CA,97.52428705734879
95605,Yolo County,CA,97.90034471952366
95610,Sacramento County,CA,34.97336258226261
95624,Sacramento County,CA,89.43904732058915
95630,Sacramento County,CA,49.294891883422125
95648,Placer County,CA,50.86179880915074
95667,El Dorado County,CA,21.999373237229708
95670,Sacramento County,CA,24.067690379191475
95677,Placer County,CA,91.06863052334691
95678,Placer County,CA,72.20307113757443
95687,Solano County,CA,27.765590723911
95695,Yolo County,CA,58.03823252898778
95747,Placer County,CA,30.241303666562207
95757,Sacramento County,CA,69.00658100908807
95765,Placer County,CA,64.33719837041679
95817,Sacramento County,CA,91.16264493889062
95818,Sacramento County,CA,68.7245377624569
95819,Sacramento County,CA,93.70103415857099
95822,Sacramento County,CA,62.9896584142902
95823,Sacramento County,CA,80.57035412096522
95824,Sacramento County,CA,94.82920714509558
95828,Sacramento County,CA,63.86712629269822
95833,Sacramento County,CA,63.71043560012535
95834,Sacramento County,CA,62.86430586023191
95835,Sacramento County,CA,84.67565026637418
95838,Sacramento County,CA,25.63459730492009
95841,Sacramento County,CA,93.13694766530868
95864,Sacramento County,CA,75.2742087120025
95926,Butte County,CA,95.73801316201818
95928,Butte County,CA,76.43371983704168
95954,Butte County,CA,30.33531808210592
95961,Yuba County,CA,34.252585396427456
95973,Butte County,CA,45.06424318395487
95991,Sutter County,CA,19.586336571607646
95993,Sutter County,CA,36.10153556878721
96002,Shasta County,CA,46.00438733939204
96130,Lassen County,CA,68.22312754622375
80004,Jefferson County,CO,46.00438733939204
80012,Arapahoe County,CO,62.39423378251332
80014,Arapahoe County,CO,54.93575681604512
80015,Arapahoe County,CO,38.13851457223441
80016,Arapahoe County,CO,14.791601378878095
80017,Arapahoe County,CO,27.73425258539643
80020,Broomfield County,CO,33.84518959573801
80033,Jefferson County,CO,38.984644312127855
80127,Jefferson County,CO,36.38357881541837
80134,Douglas County,CO,17.235976183014728
80202,Denver County,CO,41.61704794735193
80211,Denver County,CO,26.76277029144469
80219,Denver County,CO,2.538389219680351
80224,Denver County,CO,53.33751175180195
80231,Denver County,CO,27.859605139454718
80233,Adams County,CO,17.925415230335318
80239,Denver County,CO,15.700407395800688
80241,Adams County,CO,44.53149482920715
80247,Arapahoe County,CO,28.925101848950174
80260,Adams County,CO,69.53932936383579
80435,Summit County,CO,97.7436540269508
80487,Routt County,CO,95.42463177687245
80501,Boulder County,CO,12.879974929489189
80503,Boulder County,CO,56.753368849890315
80525,Larimer County,CO,9.589470385459103
80538,Larimer County,CO,7.145095581322469
80543,Weld County,CO,93.70103415857099
80550,Weld County,CO,20.401128172986525
80602,Adams County,CO,35.976183014728925
80620,Weld County,CO,33.65716076465058
80631,Weld County,CO,66.78157317455343
80634,Weld County,CO,22.500783453462862
80904,El Paso County,CO,54.6223754308994
80908,El Paso County,CO,80.53901598245065
80909,El Paso County,CO,15.919774365402695
80911,El Paso County,CO,30.99341899091194
80925,El Paso County,CO,97.46161078031965
81001,Pueblo County,CO,13.632090253838921
81007,Pueblo County,CO,34.942024443748046
81125,Saguache County,CO,98.8718270134754
81401,Montrose County,CO,37.01034158570981
81501,Mesa County,CO,33.563146349106866
81601,Garfield County,CO,74.71012221874021
81635,Garfield County,CO,89.97179567533689
81647,Garfield County,CO,94.95455969915388
06033,Hartford County,CT,46.7251645252272
06035,Hartford County,CT,94.13976809777499
06037,Hartford County,CT,65.49670949545597
06040,Hartford County,CT,5.734879348166719
06042,Hartford County,CT,62.26888122845503
06053,Hartford County,CT,6.330303979943591
06066,Tolland County,CT,10.748981510498275
06070,Hartford County,CT,73.5819492322156
06076,Tolland County,CT,66.65622062049515
06088,Hartford County,CT,90.7552491382012
06095,Hartford County,CT,29.520526480727042
06112,Hartford County,CT,10.37292384832341
06114,Hartford County,CT,10.341585709808838
06226,Windham County,CT,10.090880601692259
06232,Tolland County,CT,99.43591350673769
06260,Windham County,CT,21.372610466938262
06281,Windham County,CT,56.97273581949233
06405,New Haven County,CT,30.80539015982451
06468,Fairfield County,CT,76.1830147289251
06511,New Haven County,CT,2.256345973049201
06513,New Haven County,CT,28.76841115637731
06514,New Haven County,CT,24.631776872453777
06516,New Haven County,CT,20.62049514258853
06605,Fairfield County,CT,23.8169852710749
06606,Fairfield County,CT,10.842995926041993
06610,Fairfield County,CT,18.489501723597616
06612,Fairfield County,CT,97.7436540269508
06770,New Haven County,CT,15.512378564713256
06790,Litchfield County,CT,17.42400501410216
06801,Fairfield County,CT,62.45691005954246
06810,Fairfield County,CT,83.04606706361642
06854,Fairfield County,CT,34.34659981197117
06896,Fairfield County,CT,99.27922281416484
06902,Fairfield County,CT,13.381385145722344
19702,New Castle County,DE,9.40144155437167
19720,New Castle County,DE,1.4102162331557504
19904,Kent County,DE,32.0589157004074
19950,Sussex County,DE,80.72704481353807
19977,Kent County,DE,87.27671576308367
32011,Nassau County,FL,49.48292071450956
32038,Columbia County,FL,73.01786273895331
32043,Clay County,FL,33.9705421497963
32066,Lafayette County,FL,96.0513945471639
32068,Clay County,FL,7.051081165778752
32084,St. Johns County,FL,19.993732372297085
32092,St. Johns County,FL,41.20965214666249
32117,Volusia County,FL,23.378251331870885
32119,Volusia County,FL,68.09777499216545
32174,Volusia County,FL,36.07019743027264
32208,Duval County,FL,0.5014102162331557
32210,Duval County,FL,1.9429645879034785
32218,Duval County,FL,12.409902851770605
32221,Duval County,FL,86.681291131306807
32224,Duval County,FL,48.417424005014105
32244,Duval County,FL,3.0084612973989344
32256,Duval County,FL,22.626136007521154
32303,Leon County,FL,33.46913193356315
32308,Leon County,FL,66.2488248198057
32310,Leon County,FL,57.94421811344406
32327,Wakulla County,FL,71.51363209025384
32413,Bay County,FL,88.12284550297711
32506,Escambia County,FL,8.743340645565652
32526,Escambia County,FL,33.34377937950486
32533,Escambia County,FL,19.993732372297085
32539,Okaloosa County,FL,29.70855531181448
32547,Okaloosa County,FL,81.2597931682858
32566,Santa Rosa County,FL,58.41429019116264
32607,Alachua County,FL,40.958947038545915
32615,Alachua County,FL,54.528361015355685
32617,Marion County,FL,96.23942337825133
32666,Putnam County,FL,83.54747727984957
32693,Gilchrist County,FL,59.699153870260105
32696,Levy County,FL,52.397367596364774
32701,Seminole County,FL,44.813538075838295
32708,Seminole County,FL,69.00658100908807
32714,Seminole County,FL,57.12942651206519
32725,Volusia County,FL,25.039172673143216
32738,Volusia County,FL,26.449388906298964
32765,Seminole County,FL,46.41178314008148
32784,Lake County,FL,74.89815104982765
32792,Orange County,FL,49.76496396114071
32796,Brevard County,FL,41.58570980883736
32808,Orange County,FL,35.50611093701034
32812,Orange County,FL,26.136007521153243
32822,Orange County,FL,60.545283610153554
32824,Orange County,FL,32.37229708555312
32829,Orange County,FL,70.04073958006894
32836,Orange County,FL,89.59573801316202
32907,Brevard County,FL,36.44625509244751
32922,Brevard County,FL,38.075838295205266
32935,Brevard County,FL,11.971168912566593
32955,Brevard County,FL,39.047320589157
32967,Indian River County,FL,36.634283923534944
33010,Miami-Dade County,FL,56.6593544343466
33014,Miami-Dade County,FL,83.89219680350986
33020,Broward County,FL,53.43152616734565
33021,Broward County,FL,37.07301786273896
33023,Broward County,FL,40.86493262300219
33024,Broward County,FL,72.51645252272016
33025,Broward County,FL,53.21215919774366
33027,Broward County,FL,29.457850203697898
33028,Broward County,FL,77.15449702287684
33032,Miami-Dade County,FL,31.056095267941085
33033,Miami-Dade County,FL,31.588843622688813
33034,Miami-Dade County,FL,47.19523660294578
33040,Monroe County,FL,33.563146349106866
33060,Broward County,FL,26.794108429959262
33068,Broward County,FL,34.06455656534002
33069,Broward County,FL,58.85302413036666
33073,Broward County,FL,62.42557192102789
33126,Miami-Dade County,FL,59.76183014728925
33136,Miami-Dade County,FL,39.48605452836102
33140,Miami-Dade County,FL,73.95800689439046
33142,Miami-Dade County,FL,39.799435913506734
33147,Miami-Dade County,FL,56.032591664055154
33150,Miami-Dade County,FL,41.021623315575056
33162,Miami-Dade County,FL,88.46756502663742
33165,Miami-Dade County,FL,49.858978376684426
33167,Miami-Dade County,FL,53.24349733625823
33168,Miami-Dade County,FL,61.67345659667816
33177,Miami-Dade County,FL,67.18896897524287
33178,Miami-Dade County,FL,64.43121278596051
33196,Miami-Dade County,FL,56.001253525540584
33311,Broward County,FL,19.96239423378251
33312,Broward County,FL,24.53776245691006
33314,Broward County,FL,59.29175806957067
33322,Broward County,FL,62.61360075211533
33324,Broward County,FL,60.01253525540583
33406,Palm Beach County,FL,71.98370416797242
33411,Palm Beach County,FL,27.859605139454718
33414,Palm Beach County,FL,68.53650893136948
33417,Palm Beach County,FL,47.759323096208085
33418,Palm Beach County,FL,43.246631150109685
33426,Palm Beach County,FL,90.53588216859919
33428,Palm Beach County,FL,25.47790661234723
33433,Palm Beach County,FL,49.13820119084926
33436,Palm Beach County,FL,45.75368223127546
33441,Broward County,FL,77.90661234722658
33461,Palm Beach County,FL,48.91883422124726
33463,Palm Beach County,FL,38.29520526480727
33467,Palm Beach County,FL,46.50579755562519
33510,Hillsborough County,FL,45.691005954246315
33511,Hillsborough County,FL,61.892823566280164
33523,Pasco County,FL,59.573801316201816
33525,Pasco County,FL,61.892823566280164
33566,Hillsborough County,FL,79.41084299592605
33567,Hillsborough County,FL,67.43967408335945
33570,Hillsborough County,FL,54.4030084612974
33596,Hillsborough County,FL,94.73519272955187
33604,Hillsborough County,FL,15.449702287684111
33609,Hillsborough County,FL,67.03227828267
33610,Hillsborough County,FL,33.53180821059229
33612,Hillsborough County,FL,27.60890003133814
33614,Hillsborough County,FL,58.88436226888123
33615,Hillsborough County,FL,19.272955186461925
33617,Hillsborough County,FL,57.4428078972109
33626,Hillsborough County,FL,69.97806330303979
33703,Pinellas County,FL,46.53713569413977
33704,Pinellas County,FL,93.6696960200564
33713,Pinellas County,FL,42.96458790347854
33714,Pinellas County,FL,44.71952366029458
33755,Pinellas County,FL,33.31244124099029
33777,Pinellas County,FL,73.5819492322156
33781,Pinellas County,FL,70.13475399561267
33782,Pinellas County,FL,59.041052961454085
33805,Polk County,FL,63.33437793795048
33812,Polk County,FL,70.8868693199624
33813,Polk County,FL,50.767784393607016
33830,Polk County,FL,59.73049200877468
33838,Polk County,FL,97.80633030397993
33841,Polk County,FL,91.1939830774052
33880,Polk County,FL,46.286430586023194
33901,Lee County,FL,42.525853964274525
33904,Lee County,FL,27.702914446881856
33952,Charlotte County,FL,16.327170166092134
33967,Lee County,FL,48.1980570354121
33974,Lee County,FL,75.0548417424005
33976,Lee County,FL,63.459730492008774
33993,Lee County,FL,38.67126292698214
34104,Collier County,FL,75.90097148229395
34109,Collier County,FL,69.38263867126292
34114,Collier County,FL,91.94609840175494
34116,Collier County,FL,71.106236289564393
34120,Collier County,FL,59.636477593230964
34142,Collier County,FL,92.60419931056096
34203,Manatee County,FL,43.68536508931369
34205,Manatee County,FL,23.754308994045754
34221,Manatee County,FL,27.953619554998433
34234,Sarasota County,FL,29.86524600438734
34238,Sarasota County,FL,77.65590723911001
34239,Sarasota County,FL,75.21153243497336
34471,Marion County,FL,41.77373863992479
34473,Marion County,FL,37.73111877154497
34474,Marion County,FL,53.180821059229075
34481,Marion County,FL,65.99811971168913
34491,Marion County,FL,52.272015042306485
34609,Hernando County,FL,21.87402068317142
34654,Pasco County,FL,70.51081165778753
34677,Pinellas County,FL,70.13475399561267
34691,Pasco County,FL,34.252585396427456
34698,Pinellas County,FL,43.371983704167974
34711,Lake County,FL,44.28078972109057
34736,Lake County,FL,94.0144155437167
34741,Osceola County,FL,46.161078031964905
34743,Osceola County,FL,36.91632717016609
34746,Osceola County,FL,25.885302413036666
34753,Lake County,FL,94.578502036979
34758,Osceola County,FL,14.4468818552178
34785,Sumter County,FL,92.60419931056096
34787,Orange County,FL,48.29207145095582
34951,St. Lucie County,FL,79.53619554998433
34952,St. Lucie County,FL,16.26449388906299
34953,St. Lucie County,FL,34.252585396427456
34982,St. Lucie County,FL,75.90097148229395
34990,Martin County,FL,52.58539642745221
34997,Martin County,FL,52.80476339705421
30004,Fulton County,GA,31.4948292071451
30012,Rockdale County,GA,91.4133500470072
30019,Gwinnett County,GA,79.78690065810092
30021,DeKalb County,GA,71.106236289564393
30024,Gwinnett County,GA,13.350047007207772
30025,Walton County,GA,69.88404888749609
30028,Forsyth County,GA,48.542776559072394
30039,Gwinnett County,GA,62.92698213726104
30040,Forsyth County,GA,17.51801942964588
30041,Forsyth County,GA,51.26919460984018
30043,Gwinnett County,GA,77.59323096208085
30044,Gwinnett County,GA,61.328737073017855
30047,Gwinnett County,GA,49.48292071450956
30052,Walton County,GA,38.85929175806957
30060,Cobb County,GA,28.3296772171733
30062,Cobb County,GA,81.69852710748981
30064,Cobb County,GA,52.428705734879344
30067,Cobb County,GA,80.28831087433407
30068,Cobb County,GA,65.40269507991225
30071,Gwinnett County,GA,81.32246944531495
30078,Gwinnett County,GA,50.579755562519594
30083,DeKalb County,GA,49.858978376684426
30084,DeKalb County,GA,81.98057035412096
30087,DeKalb County,GA,51.551237856471325
30088,DeKalb County,GA,63.36571607646506
30092,Gwinnett County,GA,81.51049827640237
30093,Gwinnett County,GA,78.25133187088686
30094,Rockdale County,GA,36.10153556878721
30102,Cherokee County,GA,69.94672516452522
30103,Bartow County,GA,61.767471012221876
30106,Cobb County,GA,57.85020369790035
30110,Haralson County,GA,55.21780006267628
30116,Carroll County,GA,37.10435600125352
30117,Carroll County,GA,23.064869946725164
30120,Bartow County,GA,12.942651206518333
30122,Douglas County,GA,45.12691946098401
30132,Paulding County,GA,75.55625195863365
30143,Pickens County,GA,81.76120338451895
30144,Cobb County,GA,59.35443434659982
30168,Cobb County,GA,49.57693513005327
30188,Cherokee County,GA,14.227514885615793
30204,Lamar County,GA,81.16577875274209
30213,Fulton County,GA,42.745220933876524
30223,Spalding County,GA,26.982137261046695
30230,Troup County,GA,70.38545910372925
30253,Henry County,GA,49.07552491382012
30263,Coweta County,GA,5.89157004073958
30265,Coweta County,GA,40.7395800689439
30268,Fulton County,GA,74.80413663428392
30274,Clayton County,GA,63.58508304606706
30276,Coweta County,GA,63.459730492008774
30311,Fulton County,GA,9.589470385459103
30312,Fulton County,GA,49.95299279222814
30316,DeKalb County,GA,42.682544656847384
30329,DeKalb County,GA,82.45064243183955
30337,Fulton County,GA,73.26856784706989
30341,DeKalb County,GA,60.63929802569727
30349,Fulton County,GA,4.512691946098402
30350,Fulton County,GA,55.531181447822
30360,DeKalb County,GA,90.7552491382012
30417,Evans County,GA,76.37104356001252
30471,Emanuel County,GA,98.58978376684425
30474,Toombs County,GA,88.78094641178313
30504,Hall County,GA,91.5387026010655
30506,Hall County,GA,20.683171419617675
30507,Hall County,GA,81.9492322156064
30512,Union County,GA,66.812911313068
30518,Gwinnett County,GA,61.736132873707305
30520,Franklin County,GA,91.69539329363836
30525,Rabun County,GA,78.56471325603259
30535,Habersham County,GA,90.8492635537449
30542,Hall County,GA,74.99216546537136
30549,Jackson County,GA,35.88216859918521
30554,Hall County,GA,88.81228455029772
30566,Hall County,GA,86.61861485427765
30567,Jackson County,GA,96.86618614854278
30577,Stephens County,GA,34.81667188968976
30601,Clarke County,GA,85.17706048260733
30605,Clarke County,GA,77.3111877154497
30607,Clarke County,GA,78.00062676277028
30622,Oconee County,GA,85.89783766844249
30635,Elbert County,GA,54.497022876841115
30655,Walton County,GA,25.509244750861797
30656,Walton County,GA,54.30899404575368
30705,Murray County,GA,52.89877781259793
30721,Whitfield County,GA,15.5750548417424
30731,Chattooga County,GA,96.1454089627076
30741,Walker County,GA,12.253212159197743
30809,Columbia County,GA,26.010654967094954
30830,Burke County,GA,42.08712002507051
30901,Richmond County,GA,95.2679410842996
30906,Richmond County,GA,21.05922908179254
30907,Columbia County,GA,68.06643685365088
31014,Bleckley County,GA,78.75274208712003
31030,Peach County,GA,69.00658100908807
31061,Baldwin County,GA,52.49138201190849
31079,Wilcox County,GA,98.65246004387339
31088,Houston County,GA,9.840175493575682
31093,Houston County,GA,23.252898777812597
31206,Bibb County,GA,53.682231275462236
31216,Bibb County,GA,78.69006581009089
31220,Bibb County,GA,76.62174866812911
31324,Bryan County,GA,76.62174866812911
31401,Chatham County,GA,57.12942651206519
31404,Chatham County,GA,41.742400501410216
31407,Chatham County,GA,83.95487308053902
31503,Ware County,GA,41.42901911626449
31510,Bacon County,GA,72.1090567220307
31513,Appling County,GA,96.80350987151363
31533,Coffee County,GA,52.3660294578502
31635,Lanier County,GA,93.41899091193983
31709,Sumter County,GA,44.813538075838295
31757,Thomas County,GA,64.71325603259166
31773,Thomas County,GA,95.61266060795988
31792,Thomas County,GA,24.00501410216233
31794,Tift County,GA,50.98715136320903
31806,Schley County,GA,99.93732372297085
31906,Muscogee County,GA,30.492008774678787
31907,Muscogee County,GA,22.375430899404574
96706,Honolulu County,HI,62.04951425885302
96707,Honolulu County,HI,25.60325916640552
96720,Hawaii County,HI,23.127546223754308
96734,Honolulu County,HI,26.888122845502977
96740,Hawaii County,HI,51.73926668755876
96744,Honolulu County,HI,12.597931682858038
96746,Kauai County,HI,57.12942651206519
96766,Kauai County,HI,61.39141335004701
96782,Honolulu County,HI,60.388592917580695
96786,Honolulu County,HI,57.0040739580069
96789,Honolulu County,HI,14.102162331557505
96793,Maui County,HI,70.13475399561267
96813,Honolulu County,HI,23.785647132560324
96815,Honolulu County,HI,38.169852710748984
96817,Honolulu County,HI,6.988404888749608
96818,Honolulu County,HI,42.02444374804137
96819,Honolulu County,HI,10.059542463177687
96822,Honolulu County,HI,80.00626762770291
96825,Honolulu County,HI,42.49451582575995
83211,Power County,ID,79.9122532121592
83221,Bingham County,ID,85.70980883735506
83301,Twin Falls County,ID,1.754935756816045
83350,Minidoka County,ID,66.65622062049515
83501,Nez Perce County,ID,67.28298339078658
83605,Canyon County,ID,18.55217800062676
83616,Ada County,ID,38.29520526480727
83644,Canyon County,ID,84.61297398934504
83646,Ada County,ID,50.07834534628643
83647,Elmore County,ID,33.719837041679725
83686,Canyon County,ID,4.63804450015669
83705,Ada County,ID,19.868379818238797
83709,Ada County,ID,55.1864619241617
60005,Cook County,IL,45.12691946098401
60007,Cook County,IL,76.49639611407082
60014,McHenry County,IL,47.44594171106236
60016,Cook County,IL,46.850517079285495
60025,Cook County,IL,66.53086806643685
60031,Lake County,IL,37.60576621748668
60047,Lake County,IL,26.825446568473833
60051,McHenry County,IL,41.3036665622062
60053,Cook County,IL,70.69884048887496
60060,Lake County,IL,37.543089940457534
60061,Lake County,IL,55.59385772485115
60068,Cook County,IL,29.70855531181448
60073,Lake County,IL,55.938577248511436
60074,Cook County,IL,65.34001880288311
60076,Cook County,IL,34.15857098088374
60077,Cook County,IL,49.70228768411156
60085,Lake County,IL,10.874334064556566
60089,Lake County,IL,29.457850203697898
60090,Cook County,IL,77.49921654653713
60098,McHenry County,IL,21.717329990598557
60102,McHenry County,IL,36.75963647759323
60103,DuPage County,IL,19.21027890943278
60110,Kane County,IL,38.232528987778124
60118,Kane County,IL,87.80946411783141
60120,Kane County,IL,69.97806330303979
60130,Cook County,IL,38.765277342525856
60133,Cook County,IL,82.19993732372298
60152,McHenry County,IL,70.69884048887496
60154,Cook County,IL,41.084299592604204
60160,Cook County,IL,74.64744594171107
60164,Cook County,IL,63.74177373863993
60172,DuPage County,IL,53.52554058288938
60175,Kane County,IL,18.80288310874334
60177,Kane County,IL,48.1980570354121
60181,DuPage County,IL,20.996552804763397
60185,DuPage County,IL,60.984017549357574
60189,DuPage County,IL,25.039172673143216
60191,DuPage County,IL,58.44562832967721
60193,Cook County,IL,28.643058602319023
60404,Will County,IL,33.06173613287371
60409,Cook County,IL,20.74584769664682
60423,Will County,IL,30.397994359135065
60436,Will County,IL,87.90347853337511
60440,Will County,IL,12.441240990285177
60457,Cook County,IL,87.80946411783141
60467,Cook County,IL,40.300846129739895
60471,Cook County,IL,63.146349106863056
60477,Cook County,IL,17.768724537762456
60482,Cook County,IL,92.98025697273582
60501,Cook County,IL,84.11156377311187
60505,Kane County,IL,21.46662488248198
60506,Kane County,IL,17.141961767471013
60510,Kane County,IL,25.383892196803508
60513,Cook County,IL,64.86994672516452
60514,DuPage County,IL,88.96897524287057
60525,Cook County,IL,45.84769664681918
60527,DuPage County,IL,41.021623315575056
60540,DuPage County,IL,71.79567533688498
60543,Kendall County,IL,26.23002193669696
60544,Will County,IL,61.98683798182388
60545,Kendall County,IL,59.00971482293952
60565,DuPage County,IL,54.27765590723911
60585,Will County,IL,44.68818552178001
60605,Cook County,IL,49.38890629896584
60608,Cook County,IL,6.424318395487308
60609,Cook County,IL,61.23472265747415
60614,Cook County,IL,14.290191162644938
60615,Cook County,IL,16.29583202757756
60616,Cook County,IL,60.419931056095265
60617,Cook County,IL,20.213099341899092
60619,Cook County,IL,80.35098715136321
60620,Cook County,IL,20.275775618928236
60622,Cook County,IL,60.8273268567847
60623,Cook County,IL,53.11814478219994
60626,Cook County,IL,40.77091820745848
60629,Cook County,IL,3.2905045440300844
60631,Cook County,IL,54.998433093074276
60632,Cook County,IL,32.46631150109683
60638,Cook County,IL,25.10184895017236
60639,Cook County,IL,81.41648386085866
60640,Cook County,IL,4.857411469758696
60641,Cook County,IL,32.02757756189282
60643,Cook County,IL,23.31557505484174
60644,Cook County,IL,21.811344406142275
60645,Cook County,IL,78.12597931682858
60646,Cook County,IL,38.57724851143842
60647,Cook County,IL,85.23973675963647
60649,Cook County,IL,53.024130366656216
60651,Cook County,IL,22.6888122845503
60652,Cook County,IL,19.398307740520213
60659,Cook County,IL,36.696960200564085
60660,Cook County,IL,69.60200564086493
60714,Cook County,IL,66.812911313068
60804,Cook County,IL,41.52303353180821
61008,Boone County,IL,23.628956439987466
61021,Lee County,IL,22.03071137574428
61080,Winnebago County,IL,80.28831087433407
61101,Winnebago County,IL,36.75963647759323
61102,Winnebago County,IL,48.16671889689753
61104,Winnebago County,IL,91.00595424631777
61111,Winnebago County,IL,39.83077405202131
61115,Winnebago County,IL,41.930429332497646
61201,Rock Island County,IL,27.577561892823567
61301,LaSalle County,IL,53.33751175180195
61354,LaSalle County,IL,43.5600125352554
61604,Peoria County,IL,29.959260419931056
61611,Tazewell County,IL,65.65340018802883
61614,Peoria County,IL,67.03227828267
61704,McLean County,IL,62.36289564399875
61727,De Witt County,IL,63.992478846756505
61761,McLean County,IL,29.301159511125043
61821,Champaign County,IL,31.620181761203387
62040,Madison County,IL,12.785960513945472
62060,Madison County,IL,98.77781259793169
62095,Madison County,IL,78.87809464117831
62226,St. Clair County,IL,66.75023503603886
62234,Madison County,IL,40.11281729865246
62239,St. Clair County,IL,99.81197116891256
62249,Madison County,IL,70.8868693199624
62269,St. Clair County,IL,58.44562832967721
62526,Macon County,IL,6.73769978063303
62568,Christian County,IL,69.72735819492321
62629,Sangamon County,IL,96.36477593230963
62711,Sangamon County,IL,86.83798182387966
62881,Marion County,IL,63.92980256972736
46001,Madison County,IN,84.4249451582576
46037,Hamilton County,IN,58.288937637104354
46038,Hamilton County,IN,79.50485741146976
46062,Hamilton County,IN,88.937637104356
46113,Marion County,IN,58.320275775618924
46151,Morgan County,IN,67.56502663741773
46184,Johnson County,IN,65.99811971168913
46201,Marion County,IN,11.281729865246003
46214,Marion County,IN,47.00720777185835
46218,Marion County,IN,5.452836101535569
46219,Marion County,IN,30.241303666562207
46222,Marion County,IN,12.441240990285177
46224,Marion County,IN,73.70730178627389
46226,Marion County,IN,29.833907865872767
46227,Marion County,IN,5.390159824506425
46228,Marion County,IN,73.64462550924475
46235,Marion County,IN,61.26606079598872
46236,Marion County,IN,51.83328110310248
46237,Marion County,IN,40.457536822312754
46239,Marion County,IN,44.06142275148856
46241,Marion County,IN,12.691946098401754
46250,Marion County,IN,72.7984957693513
46278,Marion County,IN,93.35631463491069
46307,Lake County,IN,0.8461297398934503
46310,Jasper County,IN,85.89783766844249
46320,Lake County,IN,24.349733625822626
46324,Lake County,IN,37.26104669382639
46350,LaPorte County,IN,4.951425885302413
46356,Lake County,IN,98.0883735506111
46368,Porter County,IN,10.278909432779692
46375,Lake County,IN,22.15606392980257
46385,Porter County,IN,4.136634283923534
46403,Lake County,IN,59.479786900658105
46408,Lake County,IN,36.19554998433093
46410,Lake County,IN,4.042619868379818
46514,Elkhart County,IN,20.36979003447195
46516,Elkhart County,IN,57.53682231275462
46526,Elkhart County,IN,78.34534628643058
46530,St. Joseph County,IN,90.44186775305548
46540,Elkhart County,IN,86.36790974616108
46703,Steuben County,IN,40.83359448448762
46711,Adams County,IN,96.74083359448449
46746,LaGrange County,IN,98.21372610466939
46748,Allen County,IN,91.47602632403635
46750,Huntington County,IN,12.190535882168598
46774,Allen County,IN,50.6737699780633
46816,Allen County,IN,20.119084926355374
46825,Allen County,IN,85.80382325289878
46835,Allen County,IN,22.87684111563773
46901,Howard County,IN,0.9088060169225948
46902,Howard County,IN,12.566593544343466
46923,Carroll County,IN,77.15449702287684
46947,Cass County,IN,30.178627389533062
47117,Harrison County,IN,97.14822939517393
47130,Clark County,IN,25.321215919774364
47150,Floyd County,IN,5.9229081792541525
47170,Scott County,IN,49.13820119084926
47303,Delaware County,IN,24.882481980570354
47304,Delaware County,IN,85.36508931369477
47356,Henry County,IN,97.36759636477593
47374,Wayne County,IN,14.415543716703228
47421,Lawrence County,IN,24.349733625822626
47567,Pike County,IN,90.88060169225948
47620,Posey County,IN,95.67533688498902
47670,Gibson County,IN,72.7984957693513
47710,Vanderburgh County,IN,25.509244750861797
47715,Vanderburgh County,IN,53.43152616734565
47842,Vermillion County,IN,59.605139454716394
47909,Tippecanoe County,IN,29.01911626449389
50158,Marshall County,IA,84.9890316515199
50201,Story County,IA,80.38232528987777
50208,Jasper County,IA,46.44312127859605
50213,Clarke County,IA,73.08053901598245
50263,Dallas County,IA,95.86336571607646
50266,Polk County,IA,89.87778125979317
50313,Polk County,IA,63.303039799435915
50315,Polk County,IA,56.784706988404885
50325,Polk County,IA,87.21403948605453
50401,Cerro Gordo County,IA,6.957066750235036
50583,Sac County,IA,99.90598558445627
50613,Black Hawk County,IA,38.95330617361329
50644,Buchanan County,IA,74.20871200250704
50701,Black Hawk County,IA,23.252898777812597
51103,Woodbury County,IA,84.01754935756816
51104,Woodbury County,IA,34.84801002820432
51106,Woodbury County,IA,37.88780946411784
51501,Pottawattamie County,IA,24.9451582575995
51510,Pottawattamie County,IA,87.62143528674396
51537,Shelby County,IA,59.479786900658105
52240,Johnson County,IA,13.506737699780633
52349,Benton County,IA,87.40206831714195
52501,Wapello County,IA,8.398621121905359
52577,Mahaska County,IA,60.8273268567847
52655,Des Moines County,IA,82.70134753995613
52732,Clinton County,IA,63.64775932309621
52803,Scott County,IA,24.913820119084924
52806,Scott County,IA,13.444061422751489
66018,Johnson County,KS,97.93168285803823
66044,Douglas County,KS,58.727671576308374
66047,Douglas County,KS,82.48198057035412
66048,Leavenworth County,KS,22.218740206831715
66049,Douglas County,KS,78.69006581009089
66062,Johnson County,KS,5.828893763710435
66067,Franklin County,KS,47.57129426512065
66102,Wyandotte County,KS,74.58476966468191
66103,Wyandotte County,KS,69.16327170166092
66104,Wyandotte County,KS,51.488561579442184
66202,Johnson County,KS,70.51081165778753
66203,Johnson County,KS,76.27702914446883
66209,Johnson County,KS,76.68442494515826
66212,Johnson County,KS,46.192416170479476
66441,Geary County,KS,86.49326230021937
66502,Riley County,KS,67.12629269821373
66801,Lyon County,KS,73.33124412409903
67042,Butler County,KS,52.02130993418991
67147,Sedgwick County,KS,91.09996866186148
67210,Sedgwick County,KS,98.55844562832968
67211,Sedgwick County,KS,42.83923534942025
67212,Sedgwick County,KS,90.15982450642431
67214,Sedgwick County,KS,61.67345659667816
67216,Sedgwick County,KS,68.09777499216545
67218,Sedgwick County,KS,68.50517079285491
67220,Sedgwick County,KS,91.69539329363836
67226,Sedgwick County,KS,81.98057035412096
67401,Saline County,KS,42.619868379818236
67432,Clay County,KS,92.44750861798809
67467,Ottawa County,KS,99.40457536822312
67550,Pawnee County,KS,87.30805390159824
67801,Ford County,KS,48.38608586649953
67846,Finney County,KS,44.28078972109057
40004,Nelson County,KY,11.689125665935443
40047,Bullitt County,KY,20.181761203384518
40059,Jefferson County,KY,73.83265434033218
40175,Hardin County,KY,47.91601378878095
40213,Jefferson County,KY,24.69445314948292
40214,Jefferson County,KY,19.711689125665934
40215,Jefferson County,KY,11.563773111877154
40216,Jefferson County,KY,5.170792854904419
40218,Jefferson County,KY,8.14791601378878
40229,Jefferson County,KY,7.01974302726418
40272,Jefferson County,KY,8.179254152303352
40299,Jefferson County,KY,24.287057348793482
40313,Rowan County,KY,86.58727671576308
40324,Scott County,KY,7.9598871827013475
40351,Rowan County,KY,13.8827953619555
40403,Madison County,KY,14.509558132246944
40475,Madison County,KY,4.544030084612974
40505,Fayette County,KY,15.198997179567533
40517,Fayette County,KY,13.569413976809777
40729,Laurel County,KY,78.03196490128487
40741,Laurel County,KY,14.4468818552178
40962,Clay County,KY,11.34440614227515
40965,Bell County,KY,17.95675336884989
41011,Kenton County,KY,8.492635537449075
41017,Kenton County,KY,93.01159511125039
41042,Boone County,KY,2.94578502036979
41051,Kenton County,KY,60.984017549357574
41094,Boone County,KY,70.13475399561267
41101,Boyd County,KY,37.76245691005954
41230,Lawrence County,KY,17.11062362895644
41701,Perry County,KY,54.84174240050142
42101,Warren County,KY,19.64901284863679
42127,Barren County,KY,60.13788780946412
42134,Simpson County,KY,41.52303353180821
42171,Warren County,KY,77.46787840802256
42301,Daviess County,KY,44.56283296772172
42420,Henderson County,KY,5.202130993418991
42501,Pulaski County,KY,39.17267314321529
42539,Casey County,KY,88.718270134754
42701,Hardin County,KY,6.518332811031025
42718,Taylor County,KY,7.270448135380758
70006,Jefferson Parish,LA,39.89345032905046
70043,St. Bernard Parish,LA,9.182074584769664
70056,Jefferson Parish,LA,2.2250078345346287
70058,Jefferson Parish,LA,1.065496709495456
70065,Jefferson Parish,LA,13.3187088686932
70068,St. John the Baptist Parish,LA,5.546850517079285
70094,Jefferson Parish,LA,2.6324036352240676
70119,Orleans Parish,LA,45.44030084612974
70122,Orleans Parish,LA,2.7577561892823566
70126,Orleans Parish,LA,3.4158570980883733
70129,Orleans Parish,LA,64.61924161704795
70354,Lafourche Parish,LA,65.87276715763085
70374,Lafourche Parish,LA,27.232842369163272
70390,Assumption Parish,LA,47.97869006581009
70447,St. Tammany Parish,LA,48.04136634283924
70458,St. Tammany Parish,LA,2.8831087433406455
70460,St. Tammany Parish,LA,7.395800689439048
70503,Lafayette Parish,LA,27.483547477279853
70508,Lafayette Parish,LA,9.464117831400815
70518,Lafayette Parish,LA,39.10999686618615
70560,Iberia Parish,LA,1.1595111250391725
70601,Calcasieu Parish,LA,0.7834534628643058
70611,Calcasieu Parish,LA,19.492322156063928
70653,Beauregard Parish,LA,97.30492008774678
70706,Livingston Parish,LA,22.28141648386086
70726,Livingston Parish,LA,17.80006267627703
70739,East Baton Rouge Parish,LA,96.3961140708242
70754,Livingston Parish,LA,46.06706361642118
70769,Ascension Parish,LA,25.82262613600752
70802,East Baton Rouge Parish,LA,3.3218426825446565
70806,East Baton Rouge Parish,LA,52.1466624882482
70808,East Baton Rouge Parish,LA,33.688498903165154
70812,East Baton Rouge Parish,LA,51.425885302413036
70816,East Baton Rouge Parish,LA,48.73080539015982
70818,East Baton Rouge Parish,LA,71.63898464431213
70820,East Baton Rouge Parish,LA,98.49576935130054
71001,Bienville Parish,LA,77.81259793168286
71106,Caddo Parish,LA,3.50987151363209
71108,Caddo Parish,LA,26.198683798182387
71111,Bossier Parish,LA,92.6668755875901
71203,Ouachita Parish,LA,4.700720777185835
71238,Ouachita Parish,LA,78.75274208712003
71292,Ouachita Parish,LA,7.458476966468192
71295,Franklin Parish,LA,59.22908179254153
71301,Rapides Parish,LA,4.1993105609526795
71322,Avoyelles Parish,LA,79.72422438107176
03901,York County,ME,56.40864932623002
04039,Cumberland County,ME,76.37104356001252
04072,York County,ME,28.831087433406456
04073,York County,ME,46.7251645252272
04090,York County,ME,53.30617361328736
04280,Androscoggin County,ME,71.63898464431213
04345,Kennebec County,ME,34.34659981197117
04462,Penobscot County,ME,81.32246944531495
04730,Aroostook County,ME,47.38326543403322
20646,Charles County,MD,67.43967408335945
20657,Calvert County,MD,60.76465057975556
20659,St. Mary's County,MD,81.63585083046067
20706,Prince George's County,MD,47.10122218740207
20707,Prince George's County,MD,58.44562832967721
20740,Prince George's County,MD,88.27953619554998
20743,Prince George's County,MD,58.69633343779379
20747,Prince George's County,MD,35.91350673769978
20772,Prince George's County,MD,37.44907552491382
20782,Prince George's County,MD,78.15731745534316
20785,Prince George's County,MD,44.06142275148856
20852,Montgomery County,MD,67.9410842995926
20854,Montgomery County,MD,53.8389219680351
20906,Montgomery County,MD,42.27514885615795
21009,Harford County,MD,71.23158884362269
21029,Howard County,MD,99.62394233782513
21048,Carroll County,MD,89.09432779692887
21078,Harford County,MD,39.23534942024444
21102,Carroll County,MD,84.76966468191789
21108,Anne Arundel County,MD,94.48448762143529
21113,Anne Arundel County,MD,46.255092447508616
21117,Baltimore County,MD,20.808523973675964
21136,Baltimore County,MD,47.66530868066437
21144,Anne Arundel County,MD,47.2892510184895
21146,Anne Arundel County,MD,60.51394547163898
21158,Carroll County,MD,78.56471325603259
21163,Howard County,MD,96.23942337825133
21206,Baltimore city,MD,6.831714196176747
21207,Baltimore County,MD,14.384205578188656
21217,Baltimore city,MD,14.60357254779066
21222,Baltimore County,MD,31.400814791601377
21225,Baltimore city,MD,24.97649639611407
21228,Baltimore County,MD,40.99028517706048
21236,Baltimore County,MD,28.455029771231587
21239,Baltimore city,MD,22.59479786900658
21617,Queen Anne's County,MD,88.53024130366656
21701,Frederick County,MD,48.35474772798496
21710,Frederick County,MD,97.21090567220307
21771,Frederick County,MD,54.4030084612974
21784,Carroll County,MD,76.68442494515826
21788,Frederick County,MD,75.99498589783767
21851,Worcester County,MD,93.04293324976496
01002,Hampshire County,MA,27.984957693513007
01020,Hampden County,MA,1.9743027264180508
01040,Hampden County,MA,2.9144468818552176
01085,Hampden County,MA,76.93513005327483
01089,Hampden County,MA,82.41930429332498
01104,Hampden County,MA,55.311814478219986
01105,Hampden County,MA,82.3879661548104
01107,Hampden County,MA,90.56722030711376
01108,Hampden County,MA,89.25101848950172
01331,Worcester County,MA,2.319022250078345
01432,Middlesex County,MA,37.16703227828267
01450,Middlesex County,MA,59.94985897837668
01463,Middlesex County,MA,34.75399561266061
01532,Worcester County,MA,37.386399247884675
01545,Worcester County,MA,57.75618928235663
01568,Worcester County,MA,63.39705421497963
01569,Worcester County,MA,25.415230335318086
01590,Worcester County,MA,64.80727044813538
01775,Middlesex County,MA,87.1200250705108
01801,Middlesex County,MA,0.4700720777185835
01821,Middlesex County,MA,90.50454403008462
01826,Middlesex County,MA,2.130993418990912
01841,Essex County,MA,0.3760576621748668
01843,Essex County,MA,83.86085866499529
01844,Essex County,MA,71.60764650579755
01867,Middlesex County,MA,18.426825446568472
01887,Middlesex County,MA,3.8232528987778123
01902,Essex County,MA,44.18677530554685
01905,Essex County,MA,75.74428078972109
01915,Essex County,MA,0.8147916013788781
01930,Essex County,MA,11.438420557818866
01938,Essex County,MA,36.25822626136008
01950,Essex County,MA,12.441240990285177
01982,Essex County,MA,87.93481667188969
02038,Norfolk County,MA,31.68285803823253
02072,Norfolk County,MA,4.794735192729552
02081,Norfolk County,MA,14.008147916013789
02111,Suffolk County,MA,47.947351927295514
02118,Suffolk County,MA,0.8774678784080225
02125,Suffolk County,MA,0.06267627702914447
02128,Suffolk County,MA,92.13412723284236
02131,Suffolk County,MA,16.452522720150423
02134,Suffolk County,MA,6.863052334691319
02135,Suffolk County,MA,13.068003760576621
02136,Suffolk County,MA,86.1172046380445
02139,Middlesex County,MA,66.40551551237857
02148,Middlesex County,MA,0.15669069257286117
02149,Middlesex County,MA,86.99467251645252
02150,Suffolk County,MA,30.742713882795364
02151,Suffolk County,MA,6.612347226574741
02169,Norfolk County,MA,48.04136634283924
02180,Middlesex County,MA,89.53306173613286
02184,Norfolk County,MA,3.0397994359135065
02188,Norfolk County,MA,97.3989345032905
02302,Plymouth County,MA,0.40739580068943904
02339,Plymouth County,MA,62.08085239736759
02343,Norfolk County,MA,99.18520839862111
02382,Plymouth County,MA,17.42400501410216
02453,Middlesex County,MA,5.014102162331557
02460,Middlesex County,MA,52.115324349733626
02468,Middlesex County,MA,84.95769351300532
02474,Middlesex County,MA,7.86587276715763
02478,Middlesex County,MA,14.948292071450956
02639,Barnstable County,MA,84.80100282043247
02702,Bristol County,MA,86.71262926982138
02703,Bristol County,MA,0.31338138514572234
02719,Bristol County,MA,35.56878721403949
02721,Bristol County,MA,0.0940144155437167
02748,Bristol County,MA,93.2309620808524
02771,Bristol County,MA,28.42369163271702
02777,Bristol County,MA,21.7800062676277
02780,Bristol County,MA,0
48036,Macomb County,MI,18.740206831714197
48042,Macomb County,MI,14.070824193042933
48044,Macomb County,MI,4.418677530554685
48045,Macomb County,MI,47.50861798809151
48048,Macomb County,MI,67.34565966781572
48051,Macomb County,MI,47.19523660294578
48066,Macomb County,MI,1.598245064243184
48071,Oakland County,MI,17.047947351927295
48076,Oakland County,MI,55.40582889376371
48084,Oakland County,MI,73.76997806330304
48089,Macomb County,MI,4.387339392040113
48091,Macomb County,MI,36.88498903165152
48092,Macomb County,MI,72.67314321529301
48093,Macomb County,MI,12.096521466624882
48094,Macomb County,MI,73.48793481667188
48101,Wayne County,MI,14.948292071450956
48103,Washtenaw County,MI,8.994045753682231
48111,Wayne County,MI,3.885929175806957
48114,Livingston County,MI,41.11563773111877
48118,Washtenaw County,MI,72.42243810717643
48124,Wayne County,MI,12.378564713256033
48125,Wayne County,MI,45.001566906925724
48126,Wayne County,MI,26.136007521153243
48127,Wayne County,MI,75.11751801942964
48134,Wayne County,MI,18.771544970228767
48141,Wayne County,MI,22.72015042306487
48161,Monroe County,MI,39.29802569727358
48170,Wayne County,MI,8.304606706361643
48178,Oakland County,MI,22.782826700094013
48180,Wayne County,MI,1.2221874020683172
48182,Monroe County,MI,80.6957066750235
48183,Wayne County,MI,5.139454716389846
48185,Wayne County,MI,67.78439360701974
48187,Wayne County,MI,5.703541209652147
48198,Washtenaw County,MI,1.1281729865246004
48203,Wayne County,MI,9.025383892196803
48204,Wayne County,MI,5.578188655593857
48209,Wayne County,MI,15.042306486994672
48210,Wayne County,MI,16.797242243810718
48212,Wayne County,MI,5.515512378564713
48219,Wayne County,MI,2.569727358194923
48223,Wayne County,MI,7.3644625509244745
48228,Wayne County,MI,6.361642118458163
48235,Wayne County,MI,1.0028204324663115
48239,Wayne County,MI,4.606706361642118
48240,Wayne County,MI,12.973989345032905
48307,Oakland County,MI,10.968348480100282
48309,Oakland County,MI,23.503603885929174
48310,Macomb County,MI,55.75054841742401
48323,Oakland County,MI,43.68536508931369
48326,Oakland County,MI,73.67596364775932
48340,Oakland County,MI,5.766217486681291
48375,Oakland County,MI,85.05170792854905
48420,Genesee County,MI,35.4434346599812
48423,Genesee County,MI,21.74866812911313
48430,Genesee County,MI,16.67188968975243
48439,Genesee County,MI,31.27546223754309
48446,Lapeer County,MI,53.99561266060796
48455,Lapeer County,MI,79.94359135067377
48505,Genesee County,MI,38.4832340958947
48601,Saginaw County,MI,7.834534628643058
48625,Clare County,MI,81.22845502977123
48638,Saginaw County,MI,47.41460357254779
48642,Midland County,MI,73.83265434033218
48661,Ogemaw County,MI,43.52867439674083
48706,Bay County,MI,20.77718583516139
48837,Eaton County,MI,46.59981197116891
48843,Livingston County,MI,7.207771858351614
48866,Clinton County,MI,89.65841429019116
48867,Shiawassee County,MI,19.899717956753367
48893,Isabella County,MI,87.43340645565654
48910,Ingham County,MI,74.05202130993419
48911,Ingham County,MI,3.635224067690379
49001,Kalamazoo County,MI,13.224694453149482
49004,Kalamazoo County,MI,32.68567847069884
49015,Calhoun County,MI,36.853650893136944
49022,Berrien County,MI,25.35255405828894
49024,Kalamazoo County,MI,17.67471012221874
49037,Calhoun County,MI,8.931369476653087
49053,Kalamazoo County,MI,75.55625195863365
49058,Barry County,MI,21.090567220307115
49068,Calhoun County,MI,45.471638984644315
49071,Van Buren County,MI,63.80445001566907
49201,Jackson County,MI,4.826073331244124
49202,Jackson County,MI,22.751488561579443
49319,Kent County,MI,20.33845189595738
49323,Allegan County,MI,80.10028204324662
49330,Kent County,MI,97.0542149796302
49401,Ottawa County,MI,47.759323096208085
49420,Oceana County,MI,63.459730492008774
49424,Ottawa County,MI,54.81040426198683
49431,Mason County,MI,22.939517392666875
49441,Muskegon County,MI,7.113757442807897
49442,Muskegon County,MI,25.164525227201505
49444,Muskegon County,MI,5.358821685991852
49450,Allegan County,MI,98.40175493575681
49461,Muskegon County,MI,67.31432152930115
49505,Kent County,MI,15.104982764023816
49507,Kent County,MI,2.6950799122532123
49508,Kent County,MI,3.0711375744280787
49509,Kent County,MI,7.740520213099342
49546,Kent County,MI,27.326856784706987
49646,Kalkaska County,MI,41.99310560952679
49685,Grand Traverse County,MI,41.33500470072078
49712,Charlevoix County,MI,99.52992792228142
49740,Emmet County,MI,88.81228455029772
49779,Presque Isle County,MI,96.08273268567848
49829,Delta County,MI,22.939517392666875
49837,Delta County,MI,42.02444374804137
49855,Marquette County,MI,8.774678784080226
49938,Gogebic County,MI,86.14854277655907
55008,Isanti County,MN,64.1178314008148
55014,Anoka County,MN,54.18364149169539
55021,Rice County,MN,27.04481353807584
55033,Dakota County,MN,20.808523973675964
55041,Wabasha County,MN,82.85803823252898
55042,Washington County,MN,97.08555311814479
55044,Dakota County,MN,39.674083359448446
55057,Rice County,MN,85.64713256032591
55082,Washington County,MN,57.56816045126919
55104,Ramsey County,MN,34.69131933563146
55107,Ramsey County,MN,65.27734252585397
55108,Ramsey County,MN,97.11689125665936
55119,Ramsey County,MN,7.99122532121592
55122,Dakota County,MN,56.50266374177374
55123,Dakota County,MN,76.33970542149797
55128,Washington County,MN,84.08022563459731
55130,Ramsey County,MN,37.98182387966155
55301,Wright County,MN,93.63835788154184
55304,Anoka County,MN,29.67721717329991
55305,Hennepin County,MN,90.03447195236602
55330,Sherburne County,MN,31.212785960513944
55337,Dakota County,MN,23.69163271701661
55345,Hennepin County,MN,86.43058602319023
55347,Hennepin County,MN,57.63083672829834
55350,McLeod County,MN,51.95863365716077
55378,Scott County,MN,44.938890629896584
55379,Scott County,MN,48.98151049827641
55404,Hennepin County,MN,14.16483860858665
55407,Hennepin County,MN,50.172359761830144
55411,Hennepin County,MN,1.472892510184895
55415,Hennepin County,MN,62.86430586023191
55419,Hennepin County,MN,68.8498903165152
55421,Anoka County,MN,13.099341899091193
55422,Hennepin County,MN,53.49420244437481
55423,Hennepin County,MN,61.14070824193043
55426,Hennepin County,MN,18.990911939830774
55429,Hennepin County,MN,7.176433719837042
55430,Hennepin County,MN,39.01598245064243
55431,Hennepin County,MN,52.272015042306485
55446,Hennepin County,MN,78.25133187088686
55449,Anoka County,MN,40.11281729865246
55731,St. Louis County,MN,96.52146662488248
55810,St. Louis County,MN,86.71262926982138
55811,St. Louis County,MN,20.714509558132246
55906,Olmsted County,MN,62.45691005954246
55944,Dodge County,MN,87.08868693199624
56003,Nicollet County,MN,82.29395173926669
56031,Martin County,MN,68.91256659354434
56058,Le Sueur County,MN,85.86649952992792
56082,Nicollet County,MN,65.1206518332811
56164,Pipestone County,MN,93.38765277342526
56265,Chippewa County,MN,69.19460984017549
56303,Stearns County,MN,21.46662488248198
56304,Sherburne County,MN,48.98151049827641
56308,Douglas County,MN,49.82764023816985
56364,Morrison County,MN,97.55562519586336
56401,Crow Wing County,MN,5.3274835474772795
56479,Todd County,MN,91.31933563146349
56721,Polk County,MN,42.93324976496396
38637,DeSoto County,MS,37.88780946411784
38651,DeSoto County,MS,91.82074584769666
38655,Lafayette County,MS,61.861485427765594
38866,Lee County,MS,83.01472892510185
39046,Madison County,MS,18.61485427765591
39059,Copiah County,MS,73.48793481667188
39150,Claiborne County,MS,95.33061736132873
39170,Hinds County,MS,92.69821372610467
39204,Hinds County,MS,14.822939517392667
39206,Hinds County,MS,19.460984017549357
39211,Hinds County,MS,55.092447508617994
39301,Lauderdale County,MS,11.438420557818866
39350,Neshoba County,MS,17.612033845189597
39452,George County,MS,79.66154810404262
39562,Jackson County,MS,45.5969915387026
39563,Jackson County,MS,38.42055781886556
39565,Jackson County,MS,53.40018802883109
39666,Pike County,MS,66.9382638671263
63012,Jefferson County,MO,95.45596991538703
63042,St. Louis County,MO,35.69413976809778
63043,St. Louis County,MO,42.33782513318709
63077,Franklin County,MO,63.05233469131933
63080,Franklin County,MO,34.09589470385459
63088,St. Louis County,MO,91.25665935443435
63111,St. Louis city,MO,57.03541209652146
63119,St. Louis County,MO,56.91005954246317
63129,St. Louis County,MO,68.44249451582576
63136,St. Louis County,MO,20.62049514258853
63141,St. Louis County,MO,90.91193983077405
63146,St. Louis County,MO,40.269507991225325
63301,St. Charles County,MO,8.085239736759636
63348,St. Charles County,MO,92.79222814164838
63376,St. Charles County,MO,45.565653400188026
63385,St. Charles County,MO,36.10153556878721
63389,Lincoln County,MO,86.02319022250077
63461,Marion County,MO,97.58696333437794
63601,St. Francois County,MO,32.59166405515512
63628,St. Francois County,MO,54.02695079912253
63640,St. Francois County,MO,29.395173926668754
63701,Cape Girardeau County,MO,28.267000940144154
63755,Cape Girardeau County,MO,53.8389219680351
63834,Mississippi County,MO,81.6045126919461
63841,Stoddard County,MO,39.89345032905046
64016,Jackson County,MO,98.62112190535882
64056,Jackson County,MO,16.859918520839862
64063,Jackson County,MO,28.20432466311501
64081,Jackson County,MO,35.161391413350046
64082,Jackson County,MO,85.64713256032591
64083,Cass County,MO,26.0733312441241
64089,Clay County,MO,41.930429332497646
64118,Clay County,MO,33.15575054841742
64123,Jackson County,MO,32.2782826700094
64134,Jackson County,MO,7.6465057975556245
64137,Jackson County,MO,67.9410842995926
64151,Platte County,MO,21.529301159511125
64152,Platte County,MO,12.06518332811031
64156,Clay County,MO,49.76496396114071
64158,Clay County,MO,87.99749294891883
64507,Buchanan County,MO,17.51801942964588
64735,Henry County,MO,56.596678157317456
65026,Miller County,MO,84.51895957380131
65202,Boone County,MO,27.64023816985271
65301,Pettis County,MO,1.880288310874334
65336,Johnson County,MO,95.04857411469759
65340,Saline County,MO,24.600438733939203
65706,Webster County,MO,77.84393607019743
65802,Greene County,MO,6.142275148856157
65803,Greene County,MO,46.12973989345033
59047,Park County,MT,71.51363209025384
59840,Ravalli County,MT,71.63898464431213
59901,Flathead County,MT,21.59197743654027
68025,Dodge County,NE,24.788467565026636
68104,Douglas County,NE,16.922594797869007
68105,Douglas County,NE,59.636477593230964
68107,Douglas County,NE,73.39392040112817
68108,Douglas County,NE,64.33719837041679
68116,Douglas County,NE,50.42306486994672
68134,Douglas County,NE,46.7251645252272
68135,Douglas County,NE,86.30523346913193
68147,Sarpy County,NE,86.61861485427765
68154,Douglas County,NE,92.57286117204639
68305,Nemaha County,NE,95.76935130053275
68352,Jefferson County,NE,99.24788467565027
68434,Seward County,NE,89.7210905672203
68462,Lancaster County,NE,99.68661861485427
68512,Lancaster County,NE,90.66123472265747
68516,Lancaster County,NE,83.76684424945158
68601,Platte County,NE,89.90911939830774
68701,Madison County,NE,39.3920401128173
68803,Hall County,NE,60.95267941084299
89101,Clark County,NV,51.30053274835474
89103,Clark County,NV,75.30554685051708
89106,Clark County,NV,70.6675023503604
89108,Clark County,NV,13.788780946411784
89110,Clark County,NV,41.80507677843936
89117,Clark County,NV,57.94421811344406
89121,Clark County,NV,18.3954873080539
89122,Clark County,NV,16.734565966781574
89128,Clark County,NV,84.92635537449075
89131,Clark County,NV,36.19554998433093
89141,Clark County,NV,70.8868693199624
89142,Clark County,NV,91.22532121591978
89145,Clark County,NV,71.35694139768097
89156,Clark County,NV,57.223440927608905
89178,Clark County,NV,65.05797555625196
89183,Clark County,NV,53.776245691005954
89403,Lyon County,NV,27.42087120025071
89433,Washoe County,NV,28.86242557192103
89434,Washoe County,NV,32.74835474772799
89436,Washoe County,NV,14.85427765590724
89502,Washoe County,NV,41.11563773111877
89503,Washoe County,NV,48.448762143528675
89506,Washoe County,NV,59.32309620808523
89511,Washoe County,NV,82.23127546223753
89512,Washoe County,NV,69.50799122532122
89523,Washoe County,NV,75.55625195863365
89701,Carson City,NV,62.3002193669696
89706,Carson City,NV,51.14384205578189
89801,Elko County,NV,56.37731118771545
03033,Hillsborough County,NH,86.49326230021937
03038,Rockingham County,NH,7.615167659041052
03060,Hillsborough County,NH,3.666562206204951
03064,Hillsborough County,NH,19.837041679724223
03079,Rockingham County,NH,9.307427138827954
03103,Hillsborough County,NH,3.1338138514572234
03110,Hillsborough County,NH,47.13256032591664
03743,Sullivan County,NH,42.80789721090567
03801,Rockingham County,NH,40.488874960827324
03811,Rockingham County,NH,77.78125979316829
07002,Hudson County,NJ,0.5954246317768724
07012,Passaic County,NJ,79.31682858038232
07016,Union County,NJ,83.04606706361642
07026,Bergen County,NJ,9.370103415857098
07030,Hudson County,NJ,3.5725477906612344
07032,Hudson County,NJ,13.162018176120338
07036,Union County,NJ,5.264807270448135
07042,Essex County,NJ,15.606392980256972
07050,Essex County,NJ,6.079598871827013
07054,Morris County,NJ,40.5202130993419
07060,Union County,NJ,3.697900344719524
07071,Bergen County,NJ,57.223440927608905
07083,Union County,NJ,35.6628016295832
07087,Hudson County,NJ,10.717643371983703
07093,Hudson County,NJ,3.5412096521466623
07095,Middlesex County,NJ,28.73707301786274
07104,Essex County,NJ,0.21936696960200563
07109,Essex County,NJ,8.649326230021936
07110,Essex County,NJ,67.18896897524287
07202,Union County,NJ,3.478533375117518
07305,Hudson County,NJ,0.1880288310874334
07307,Hudson County,NJ,6.267627702914447
07438,Morris County,NJ,83.23409589470386
07442,Passaic County,NJ,61.54810404261987
07450,Bergen County,NJ,73.95800689439046
07463,Bergen County,NJ,96.45879034785334
07470,Passaic County,NJ,36.28956439987465
07481,Bergen County,NJ,64.58790347853338
07512,Passaic County,NJ,93.26230021936696
07522,Passaic County,NJ,2.4757129426512066
07601,Bergen County,NJ,3.353180821059229
07643,Bergen County,NJ,76.55907239109997
07652,Bergen County,NJ,39.48605452836102
07657,Bergen County,NJ,98.40175493575681
07712,Monmouth County,NJ,1.5355687872140393
07721,Monmouth County,NJ,99.27922281416484
07740,Monmouth County,NJ,3.854591037292385
07748,Monmouth County,NJ,19.680350987151364
07751,Monmouth County,NJ,57.7875274208712
07801,Morris County,NJ,12.002507051081166
07936,Morris County,NJ,86.27389533061735
08003,Camden County,NJ,17.173299905985584
08004,Camden County,NJ,45.0329050454403
08010,Burlington County,NJ,72.98652460043873
08012,Camden County,NJ,2.9771231588843623
08030,Camden County,NJ,13.694766530868066
08034,Camden County,NJ,23.942337825133187
08053,Burlington County,NJ,16.170479473519272
08078,Camden County,NJ,50.767784393607016
08079,Salem County,NJ,32.215606392980256
08081,Camden County,NJ,0.6894390473205891
08088,Burlington County,NJ,37.01034158570981
08094,Gloucester County,NJ,18.332811031024757
08096,Gloucester County,NJ,2.3816985271074897
08107,Camden County,NJ,19.5236602945785
08205,Atlantic County,NJ,10.184895017235975
08230,Cape May County,NJ,97.83766844249452
08302,Cumberland County,NJ,0.5640864932623002
08332,Cumberland County,NJ,5.233469131933563
08401,Atlantic County,NJ,0.031338138514572234
08520,Mercer County,NJ,85.42776559072391
08536,Middlesex County,NJ,44.24945158257599
08540,Mercer County,NJ,26.91946098401755
08550,Mercer County,NJ,75.21153243497336
08611,Mercer County,NJ,15.763083672829833
08620,Mercer County,NJ,79.22281416483861
08690,Mercer County,NJ,31.902225007834534
08701,Ocean County,NJ,1.4415543716703227
08723,Ocean County,NJ,35.19272955186462
08753,Ocean County,NJ,1.0968348480100283
08831,Middlesex County,NJ,20.965214666248823
08854,Middlesex County,NJ,4.450015669069257
08859,Middlesex County,NJ,40.05014102162331
08861,Middlesex County,NJ,0.6267627702914447
08865,Warren County,NJ,2.4443748041366344
08872,Middlesex County,NJ,77.65590723911001
08873,Somerset County,NJ,8.868693199623943
08876,Somerset County,NJ,11.814478219993733
08902,Middlesex County,NJ,83.17141961767472
87026,Valencia County,NM,96.52146662488248
87031,Valencia County,NM,19.053588216859918
87105,Bernalillo County,NM,12.754622375430898
87107,Bernalillo County,NM,22.31275462237543
87113,Bernalillo County,NM,90.44186775305548
87120,Bernalillo County,NM,24.067690379191475
87323,McKinley County,NM,96.74083359448449
87401,San Juan County,NM,37.355061109370105
87402,San Juan County,NM,81.07176433719837
87416,San Juan County,NM,95.45596991538703
87420,San Juan County,NM,53.055468505170786
87505,Santa Fe County,NM,2.6010654967094955
87507,Santa Fe County,NM,22.563459730492006
87544,Los Alamos County,NM,81.44782199937323
88001,Doa Ana County,NM,49.106863052334695
88008,Doa Ana County,NM,92.44750861798809
88030,Luna County,NM,49.858978376684426
88063,Doa Ana County,NM,85.9918520839862
88201,Chaves County,NM,23.973675963647757
88203,Chaves County,NM,40.58288937637104
88220,Eddy County,NM,13.256032591664054
88240,Lea County,NM,3.22782826700094
88242,Lea County,NM,70.60482607333124
88260,Lea County,NM,29.645879034785334
88340,Otero County,NM,84.48762143528674
88352,Otero County,NM,79.97492948918834
10002,New York County,NY,53.149482920714505
10005,New York County,NY,99.8746474459417
10028,New York County,NY,91.85208398621121
10029,New York County,NY,2.5070510811657787
10033,New York County,NY,36.41491695393294
10034,New York County,NY,56.816045126919455
10036,New York County,NY,27.326856784706987
10303,Richmond County,NY,63.20902538389219
10304,Richmond County,NY,32.93638357881542
10306,Richmond County,NY,11.877154497022877
10314,Richmond County,NY,30.30397994359135
10451,Bronx County,NY,23.221560639298026
10453,Bronx County,NY,65.81009088060169
10454,Bronx County,NY,50.61109370103416
10457,Bronx County,NY,47.6339705421498
10458,Bronx County,NY,2.162331557505484
10461,Bronx County,NY,29.144468818552177
10462,Bronx County,NY,18.176120338451895
10466,Bronx County,NY,2.0996552804763398
10467,Bronx County,NY,39.674083359448446
10469,Bronx County,NY,10.93701034158571
10472,Bronx County,NY,8.55531181447822
10591,Westchester County,NY,90.81792541523033
10701,Westchester County,NY,0.6581009088060169
10940,Orange County,NY,10.028204324663115
10950,Orange County,NY,58.194923221560636
10952,Rockland County,NY,60.29457850203698
10965,Rockland County,NY,95.01723597618302
11004,Queens County,NY,95.8320275775619
11040,Nassau County,NY,78.97210905672203
11102,Queens County,NY,83.296772171733
11103,Queens County,NY,86.49326230021937
11204,Kings County,NY,71.20025070510812
11205,Kings County,NY,30.429332497649643
11207,Kings County,NY,7.6778439360701976
11208,Kings County,NY,4.35600125352554
11209,Kings County,NY,22.438107176433718
11212,Kings County,NY,11.219053588216859
11213,Kings County,NY,15.355687872140395
11214,Kings County,NY,9.80883735506111
11218,Kings County,NY,56.941397680977744
11219,Kings County,NY,92.94891883422125
11220,Kings County,NY,82.92071450955814
11221,Kings County,NY,1.3788780946411783
11223,Kings County,NY,75.68160451269195
11226,Kings County,NY,42.14979630209966
11230,Kings County,NY,69.82137261046694
11232,Kings County,NY,80.97774992165465
11234,Kings County,NY,41.27232842369163
11235,Kings County,NY,80.06894390473207
11238,Kings County,NY,12.848636790974616
11354,Queens County,NY,89.37637104356001
11355,Queens County,NY,85.5531181447822
11356,Queens County,NY,89.56439987464745
11358,Queens County,NY,93.88906298965841
11361,Queens County,NY,93.4503290504544
11364,Queens County,NY,97.43027264180508
11367,Queens County,NY,96.49012848636791
11368,Queens County,NY,72.39109996866186
11372,Queens County,NY,20.589157004073957
11373,Queens County,NY,52.86743967408336
11377,Queens County,NY,89.68975242870573
11378,Queens County,NY,95.9260419931056
11385,Queens County,NY,43.87339392040113
11413,Queens County,NY,71.35694139768097
11418,Queens County,NY,67.90974616107803
11420,Queens County,NY,36.32090253838922
11421,Queens County,NY,56.72203071137575
11422,Queens County,NY,84.70698840488875
11423,Queens County,NY,73.39392040112817
11432,Queens County,NY,85.02036979003447
11433,Queens County,NY,17.2673143215293
11435,Queens County,NY,6.142275148856157
11553,Nassau County,NY,76.87245377624569
11554,Nassau County,NY,43.74804136634284
11575,Nassau County,NY,58.257599498589784
11590,Nassau County,NY,69.31996239423378
11596,Nassau County,NY,98.11971168912567
11692,Queens County,NY,38.890629896584144
11706,Suffolk County,NY,43.967408335944846
11710,Nassau County,NY,57.81886555938577
11717,Suffolk County,NY,92.07145095581323
11720,Suffolk County,NY,86.08586649952993
11722,Suffolk County,NY,64.61924161704795
11725,Suffolk County,NY,52.77342525853964
11727,Suffolk County,NY,52.74208712002507
11730,Suffolk County,NY,91.57004073958007
11735,Nassau County,NY,78.47069884048888
11741,Suffolk County,NY,87.21403948605453
11743,Suffolk County,NY,67.5963647759323
11746,Suffolk County,NY,72.89251018489502
11756,Nassau County,NY,78.2199937323723
11772,Suffolk County,NY,54.71638984644313
11779,Suffolk County,NY,63.459730492008774
11967,Suffolk County,NY,55.34315261673457
12010,Montgomery County,NY,2.6637417737386397
12019,Saratoga County,NY,69.7586963334378
12020,Saratoga County,NY,12.096521466624882
12078,Fulton County,NY,2.068317141961767
12095,Fulton County,NY,95.39329363835787
12118,Saratoga County,NY,49.42024443748041
12144,Rensselaer County,NY,63.61642118458164
12180,Rensselaer County,NY,0.940144155437167
12188,Saratoga County,NY,73.3625822626136
12203,Albany County,NY,27.452209338765275
12206,Albany County,NY,41.24099028517706
12208,Albany County,NY,81.72986524600438
12209,Albany County,NY,83.54747727984957
12309,Schenectady County,NY,63.67909746161078
12524,Dutchess County,NY,80.19429645879035
12789,Sullivan County,NY,99.6552804763397
12822,Saratoga County,NY,67.03227828267
12946,Essex County,NY,59.197743654026944
12962,Clinton County,NY,82.07458476966468
13032,Madison County,NY,55.62519586336572
13036,Oswego County,NY,48.542776559072394
13066,Onondaga County,NY,58.38295205264807
13069,Oswego County,NY,2.7264180507677844
13132,Oswego County,NY,97.1795675336885
13166,Cayuga County,NY,75.3995612660608
13340,Herkimer County,NY,44.21811344406142
13350,Herkimer County,NY,24.255719210278908
13367,Lewis County,NY,28.141648386085865
13413,Oneida County,NY,37.198370416797246
13440,Oneida County,NY,8.022563459730492
13492,Oneida County,NY,53.682231275462236
13655,St. Lawrence County,NY,93.07427138827954
13760,Broome County,NY,47.038545910372925
13850,Broome County,NY,35.34942024443748
13905,Broome County,NY,0.7207771858351614
14006,Erie County,NY,57.85020369790035
14020,Genesee County,NY,29.802569727358197
14063,Chautauqua County,NY,30.115951112503918
14070,Erie County,NY,89.81510498276403
14094,Niagara County,NY,8.241930429332497
14108,Niagara County,NY,45.91037292384833
14120,Niagara County,NY,90.9746161078032
14127,Erie County,NY,9.213412723284236
14150,Erie County,NY,3.1024757129426512
14207,Erie County,NY,4.324663115010968
14210,Erie County,NY,68.19178940770918
14211,Erie County,NY,4.7633970542149795
14213,Erie County,NY,59.85584456283297
14214,Erie County,NY,21.309934189909118
14218,Erie County,NY,11.50109683484801
14219,Erie County,NY,40.300846129739895
14220,Erie County,NY,32.309620808523974
14221,Erie County,NY,6.518332811031025
14222,Erie County,NY,77.24851143842055
14223,Erie County,NY,93.54434346599811
14226,Erie County,NY,20.401128172986525
14227,Erie County,NY,46.59981197116891
14228,Erie County,NY,35.53744907552491
14305,Niagara County,NY,16.233155750548416
14420,Monroe County,NY,35.00470072077719
14425,Ontario County,NY,10.404261986837982
14450,Monroe County,NY,1.3475399561266062
14456,Ontario County,NY,4.07395800689439
14466,Ontario County,NY,94.23378251331872
14468,Monroe County,NY,10.623628956439987
14470,Orleans County,NY,97.33625822626136
14487,Livingston County,NY,70.38545910372925
14534,Monroe County,NY,3.603885929175807
14543,Monroe County,NY,98.77781259793169
14551,Wayne County,NY,71.63898464431213
14559,Monroe County,NY,6.048260733312441
14564,Ontario County,NY,11.90849263553745
14580,Monroe County,NY,3.760576621748668
14586,Monroe County,NY,74.83547477279849
14606,Monroe County,NY,1.3162018176120338
14608,Monroe County,NY,30.80539015982451
14609,Monroe County,NY,31.1501096834848
14611,Monroe County,NY,37.66844249451582
14612,Monroe County,NY,8.367282983390787
14615,Monroe County,NY,28.07897210905672
14616,Monroe County,NY,10.78031964901285
14617,Monroe County,NY,18.23879661548104
14618,Monroe County,NY,10.122218740206831
14624,Monroe County,NY,55.907239109996866
14727,Allegany County,NY,65.55938577248511
14735,Allegany County,NY,94.10842995926042
14737,Cattaraugus County,NY,81.88655593857725
14739,Allegany County,NY,86.3365716076465
14787,Chautauqua County,NY,87.18270134753996
14813,Allegany County,NY,99.12253212159197
14840,Steuben County,NY,93.88906298965841
14879,Steuben County,NY,96.20808523973676
14892,Tioga County,NY,39.3920401128173
27021,Stokes County,NC,28.54904418677531
27028,Davie County,NC,9.025383892196803
27045,Forsyth County,NC,65.05797555625196
27103,Forsyth County,NC,8.900031338138515
27104,Forsyth County,NC,19.77436540269508
27105,Forsyth County,NC,1.0341585709808836
27107,Forsyth County,NC,2.036979003447195
27203,Randolph County,NC,79.88091507364462
27205,Randolph County,NC,80.50767784393607
27253,Alamance County,NC,36.0075211532435
27260,Guilford County,NC,44.43748041366343
27288,Rockingham County,NC,7.897210905672203
27295,Davidson County,NC,1.7862738953306172
27301,Guilford County,NC,61.98683798182388
27320,Rockingham County,NC,6.236289564399875
27330,Lee County,NC,14.133500470072077
27360,Davidson County,NC,1.6295832027577561
27407,Guilford County,NC,11.532434973362582
27410,Guilford County,NC,21.623315575054843
27513,Wake County,NC,50.767784393607016
27516,Orange County,NC,21.247257912879974
27520,Johnston County,NC,21.936696960200564
27529,Wake County,NC,15.763083672829833
27530,Wayne County,NC,8.71200250705108
27536,Vance County,NC,19.084926355374492
27539,Wake County,NC,48.605452836101534
72405,NA,NA,98.33907865872767
27542,Johnston County,NC,62.33155750548417
27545,Wake County,NC,82.13726104669382
27560,Wake County,NC,68.22312754622375
27573,Person County,NC,67.78439360701974
27589,Warren County,NC,87.49608273268568
27591,Wake County,NC,78.40802256345974
27596,Franklin County,NC,82.79536195549984
27601,Wake County,NC,91.7580695706675
27606,Wake County,NC,69.47665308680664
27607,Wake County,NC,81.91789407709183
27609,Wake County,NC,25.289877781259797
27610,Wake County,NC,20.087746787840803
27613,Wake County,NC,72.26574741460358
27616,Wake County,NC,42.557192102789095
27704,Durham County,NC,6.45565653400188
27707,Durham County,NC,7.30178627389533
27712,Durham County,NC,62.801629583202754
27870,Halifax County,NC,14.666248824819805
27893,Wilson County,NC,8.962707615167659
27896,Wilson County,NC,40.426198683798184
27909,Pasquotank County,NC,7.552491382011908
28001,Stanly County,NC,74.20871200250704
28012,Gaston County,NC,52.17800062676277
28025,Cabarrus County,NC,5.860231902225007
28027,Cabarrus County,NC,11.407082419304293
28056,Gaston County,NC,34.78533375117518
28078,Mecklenburg County,NC,21.5606392980257
28081,Cabarrus County,NC,76.84111563773112
28086,Cleveland County,NC,66.812911313068
28090,Cleveland County,NC,59.16640551551238
28105,Mecklenburg County,NC,79.81823879661547
28110,Union County,NC,43.77937950485741
28138,Rowan County,NC,51.98997179567534
28147,Rowan County,NC,22.062049514258852
28150,Cleveland County,NC,63.86712629269822
28166,Iredell County,NC,73.2372297085553
28205,Mecklenburg County,NC,41.39768097774992
28212,Mecklenburg County,NC,16.01378878094641
28215,Mecklenburg County,NC,9.244750861798808
28216,Mecklenburg County,NC,24.53776245691006
28227,Mecklenburg County,NC,41.46035725477907
28262,Mecklenburg County,NC,25.13318708868693
28269,Mecklenburg County,NC,7.803196490128486
28273,Mecklenburg County,NC,33.187088686932
28314,Cumberland County,NC,20.996552804763397
28320,Bladen County,NC,66.154810404262
28334,Sampson County,NC,18.20745847696647
28345,Richmond County,NC,48.85615794421811
28348,Cumberland County,NC,58.88436226888123
28352,Scotland County,NC,16.765904105296144
28360,Robeson County,NC,72.70448135380758
28371,Robeson County,NC,88.09150736446256
28372,Robeson County,NC,63.80445001566907
28379,Richmond County,NC,10.153556878721403
28398,Duplin County,NC,78.18865559385773
28403,New Hanover County,NC,29.050454403008462
28443,Pender County,NC,46.317768724537764
28458,Duplin County,NC,86.77530554685052
28465,Brunswick County,NC,85.49044186775305
28472,Columbus County,NC,26.041993105609528
75036,NA,NA,92.1027890943278
28532,Craven County,NC,62.11219053588217
28540,Onslow County,NC,17.07928549044187
28601,Catawba County,NC,82.04324663115011
28602,Catawba County,NC,13.663428392353493
28657,Avery County,NC,84.17424005014102
28690,Burke County,NC,42.557192102789095
28697,Wilkes County,NC,52.9301159511125
28704,Buncombe County,NC,59.072391099968655
28715,Buncombe County,NC,71.85835161391412
28722,Polk County,NC,93.29363835788153
28732,Henderson County,NC,64.08649326230021
28734,Macon County,NC,56.69069257286117
28752,McDowell County,NC,9.68348480100282
28778,Buncombe County,NC,83.98621121905359
28789,Jackson County,NC,84.04888749608274
28806,Buncombe County,NC,28.86242557192103
28906,Cherokee County,NC,37.79379504857411
58078,Cass County,ND,16.922594797869007
58103,Cass County,ND,3.9486054528361016
58201,Grand Forks County,ND,53.8389219680351
58554,Morton County,ND,25.94797869006581
58701,Ward County,ND,26.23002193669696
58763,Mountrail County,ND,95.76935130053275
58801,Williams County,ND,25.007834534628643
43015,Delaware County,OH,33.907865872767154
43016,Franklin County,OH,50.98715136320903
43017,Franklin County,OH,51.30053274835474
43023,Licking County,OH,85.05170792854905
43055,Licking County,OH,6.581009088060169
43078,Champaign County,OH,23.44092760890003
43081,Franklin County,OH,14.290191162644938
43110,Franklin County,OH,45.659667815731744
43123,Franklin County,OH,39.07865872767158
43138,Hocking County,OH,20.49514258853024
43147,Fairfield County,OH,15.41836414916954
43204,Franklin County,OH,2.8517706048260734
43213,Franklin County,OH,5.296145408962707
43219,Franklin County,OH,90.6298965841429
43222,Franklin County,OH,44.71952366029458
43228,Franklin County,OH,11.313068003760577
43229,Franklin County,OH,35.78815418364149
43230,Franklin County,OH,9.746161078031964
43232,Franklin County,OH,1.8176120338451895
43316,Wyandot County,OH,74.99216546537136
43416,Ottawa County,OH,98.71513632090254
43420,Sandusky County,OH,26.355374490755253
43512,Defiance County,OH,2.005640864932623
43551,Wood County,OH,31.996239423378253
43560,Lucas County,OH,16.201817612033846
43571,Lucas County,OH,93.79504857411469
43606,Lucas County,OH,79.09746161078031
43613,Lucas County,OH,11.845816358508305
43616,Lucas County,OH,95.07991225321216
43701,Muskingum County,OH,0.2820432466311501
43724,Noble County,OH,70.13475399561267
43812,Coshocton County,OH,2.7890943277969287
43832,Tuscarawas County,OH,49.263553744907554
43920,Columbiana County,OH,5.108116577875274
43935,Belmont County,OH,70.10341585709808
43943,Jefferson County,OH,84.11156377311187
44001,Lorain County,OH,19.178940770918206
44011,Lorain County,OH,53.619554998433095
44052,Lorain County,OH,9.934189909119398
44054,Lorain County,OH,25.195863365716075
44060,Lake County,OH,3.79191476026324
44070,Cuyahoga County,OH,87.05734879348167
44103,Cuyahoga County,OH,4.920087746787841
44109,Cuyahoga County,OH,0.12535255405828893
44111,Cuyahoga County,OH,92.85490441867753
44113,Cuyahoga County,OH,4.293324976496396
44114,Cuyahoga County,OH,21.685991852083987
44118,Cuyahoga County,OH,6.45565653400188
44125,Cuyahoga County,OH,0.532748354747728
44130,Cuyahoga County,OH,2.1936696960200566
44133,Cuyahoga County,OH,17.737386399247885
44136,Cuyahoga County,OH,18.52083986211219
44143,Cuyahoga County,OH,57.31745534315261
44144,Cuyahoga County,OH,6.7690379191476024
44145,Cuyahoga County,OH,10.592290817925415
44149,Cuyahoga County,OH,32.184268254465685
44202,Portage County,OH,22.093387652773426
44203,Summit County,OH,3.2591664055155123
44212,Medina County,OH,1.5669069257286117
44223,Summit County,OH,35.78815418364149
44256,Medina County,OH,27.922281416483862
44260,Portage County,OH,59.479786900658105
44266,Portage County,OH,4.982764023816985
44306,Summit County,OH,5.421497963020997
44312,Summit County,OH,8.461297398934503
44314,Summit County,OH,17.580695706675023
44403,Trumbull County,OH,81.07176433719837
44408,Columbiana County,OH,65.40269507991225
44438,Trumbull County,OH,62.676277029144465
44440,Trumbull County,OH,82.6073331244124
44483,Trumbull County,OH,9.777499216546538
44484,Trumbull County,OH,18.92823566280163
44506,Mahoning County,OH,95.61266060795988
44509,Mahoning County,OH,32.56032591664055
44514,Mahoning County,OH,71.01222187402068
44615,Carroll County,OH,68.53650893136948
44622,Tuscarawas County,OH,22.814164838608587
44683,Tuscarawas County,OH,16.922594797869007
44688,Stark County,OH,98.52710748981511
44691,Wayne County,OH,4.230648699467252
44705,Stark County,OH,16.045126919460984
44720,Stark County,OH,19.24161704794735
44830,Seneca County,OH,10.560952679410843
44839,Erie County,OH,77.3111877154497
44875,Richland County,OH,29.301159511125043
44890,Huron County,OH,29.395173926668754
44903,Richland County,OH,10.968348480100282
44905,Richland County,OH,57.03541209652146
44906,Richland County,OH,22.469445314948292
45011,Butler County,OH,9.338765277342526
45030,Hamilton County,OH,44.15543716703228
45102,Clermont County,OH,25.697273581949233
45122,Clermont County,OH,66.21748668129112
45211,Hamilton County,OH,5.0454403008461295
45215,Hamilton County,OH,15.98245064243184
45217,Hamilton County,OH,80.97774992165465
45231,Hamilton County,OH,40.64556565340019
45236,Hamilton County,OH,41.89909119398308
45237,Hamilton County,OH,19.36696960200564
45238,Hamilton County,OH,8.210592290817925
45240,Hamilton County,OH,16.640551551237856
45241,Hamilton County,OH,85.58445628329677
45246,Hamilton County,OH,67.50235036038859
45251,Hamilton County,OH,40.86493262300219
45255,Hamilton County,OH,83.61015355687871
45305,Greene County,OH,93.60701974302727
45318,Miami County,OH,89.8464431212786
45320,Preble County,OH,29.520526480727042
45342,Montgomery County,OH,6.2049514258853025
45373,Miami County,OH,3.729238483234096
45385,Greene County,OH,6.643685365089313
45403,Montgomery County,OH,26.324036352240675
45404,Montgomery County,OH,86.21121905358822
45406,Montgomery County,OH,9.150736446255092
45416,Montgomery County,OH,79.53619554998433
45420,Montgomery County,OH,48.88749608273268
45439,Montgomery County,OH,40.08147916013789
45440,Montgomery County,OH,50.23503603885929
45503,Clark County,OH,20.871200250705108
45601,Ross County,OH,0.25070510811657787
45613,Pike County,OH,86.14854277655907
45623,Gallia County,OH,82.88937637104355
45631,Gallia County,OH,78.43936070197431
45638,Lawrence County,OH,2.256345973049201
45659,Lawrence County,OH,79.22281416483861
45669,Lawrence County,OH,11.031024757129426
45750,Washington County,OH,0.7521153243497336
45804,Allen County,OH,6.706361642118458
45822,Mercer County,OH,60.6079598871827
45840,Hancock County,OH,1.2535255405828893
45875,Putnam County,OH,60.29457850203698
45887,Allen County,OH,90.12848636790974
45891,Van Wert County,OH,19.93105609526794
73008,Oklahoma County,OK,55.092447508617994
73010,McClain County,OK,69.28862425571921
73013,Oklahoma County,OK,21.435286743967406
73034,Oklahoma County,OK,51.551237856471325
73045,Oklahoma County,OK,76.15167659041053
73064,Canadian County,OK,39.768097774992164
73069,Cleveland County,OK,55.78188655593858
73072,Cleveland County,OK,50.86179880915074
73086,Murray County,OK,61.892823566280164
73089,Grady County,OK,76.87245377624569
73107,Oklahoma County,OK,74.71012221874021
73109,Oklahoma County,OK,82.54465684738327
73114,Oklahoma County,OK,43.18395487308054
73119,Oklahoma County,OK,14.540896270761516
73127,Oklahoma County,OK,39.89345032905046
73130,Oklahoma County,OK,51.14384205578189
73132,Oklahoma County,OK,43.403321842682544
73135,Oklahoma County,OK,31.870886869319964
73139,Oklahoma County,OK,43.08994045753683
73160,Cleveland County,OK,7.051081165778752
73448,Love County,OK,79.6928862425572
73505,Comanche County,OK,14.540896270761516
73507,Comanche County,OK,98.93450329050454
73529,Stephens County,OK,88.27953619554998
73533,Stephens County,OK,13.75744280789721
73538,Comanche County,OK,100
73601,Custer County,OK,82.70134753995613
73703,Garfield County,OK,41.178314008147915
73750,Kingfisher County,OK,83.42212472579129
74012,Tulsa County,OK,47.32058915700407
74014,Wagoner County,OK,25.665935443434662
74016,Rogers County,OK,93.51300532748354
74017,Rogers County,OK,32.96772171732999
74021,Tulsa County,OK,62.676277029144465
74044,Creek County,OK,73.04920087746788
74055,Tulsa County,OK,42.33782513318709
74079,Lincoln County,OK,97.21090567220307
74110,Tulsa County,OK,80.25697273581949
74112,Tulsa County,OK,42.83923534942025
74116,Tulsa County,OK,98.74647445941712
74127,Tulsa County,OK,52.67941084299592
74128,Tulsa County,OK,70.04073958006894
74132,Tulsa County,OK,95.95738013162018
74403,Muskogee County,OK,22.9081792541523
74601,Kay County,OK,32.81103102475713
74728,McCurtain County,OK,90.22250078345347
74764,McCurtain County,OK,99.74929489188342
74820,Pontotoc County,OK,21.87402068317142
74872,Garvin County,OK,95.11125039172673
97005,Washington County,OR,83.73550611093701
97006,Washington County,OR,52.99279222814165
97008,Washington County,OR,87.74678784080226
97015,Clackamas County,OR,75.3995612660608
97034,Clackamas County,OR,77.3111877154497
97055,Clackamas County,OR,57.223440927608905
97056,Columbia County,OR,60.79598871827013
97070,Clackamas County,OR,81.38514572234409
97071,Marion County,OR,45.691005954246315
97078,Washington County,OR,91.88342212472578
97080,Multnomah County,OR,16.076465057975557
97086,Clackamas County,OR,42.33782513318709
97113,Washington County,OR,62.45691005954246
97124,Washington County,OR,69.19460984017549
97128,Yamhill County,OR,39.29802569727358
97206,Multnomah County,OR,32.152930115951115
97223,Washington County,OR,18.9595738013162
97225,Washington County,OR,86.83798182387966
97230,Multnomah County,OR,14.760263240363521
97233,Multnomah County,OR,9.871513632090254
97267,Clackamas County,OR,59.38577248511439
97301,Marion County,OR,64.68191789407709
97304,Polk County,OR,46.53713569413977
97305,Marion County,OR,67.7217173299906
97306,Marion County,OR,45.5969915387026
97317,Marion County,OR,64.1178314008148
97321,Linn County,OR,18.23879661548104
97330,Benton County,OR,85.11438420557819
97378,Yamhill County,OR,96.70949545596991
97402,Lane County,OR,75.14885615794422
97408,Lane County,OR,90.0658100908806
97420,Coos County,OR,38.73393920401128
97424,Lane County,OR,33.24976496396114
97439,Lane County,OR,50.20369790034472
97470,Douglas County,OR,20.90253838921968
97471,Douglas County,OR,10.466938263867126
97477,Lane County,OR,15.261673456596677
97478,Lane County,OR,27.107489815104984
97504,Jackson County,OR,12.817298652460044
97527,Josephine County,OR,67.53368849890316
97603,Klamath County,OR,12.033845189595738
97741,Jefferson County,OR,66.65622062049515
97801,Umatilla County,OR,24.41240990285177
97838,Umatilla County,OR,71.76433719837043
15001,Beaver County,PA,12.723284236916326
15005,Beaver County,PA,80.63303039799436
15061,Beaver County,PA,51.67659041052961
15090,Allegheny County,PA,89.00031338138514
15108,Allegheny County,PA,29.113130680037607
15110,Allegheny County,PA,77.21717329990598
15217,Allegheny County,PA,48.79348166718897
15221,Allegheny County,PA,10.466938263867126
15226,Allegheny County,PA,85.27107489815104
15227,Allegheny County,PA,26.95079912253212
15235,Allegheny County,PA,40.77091820745848
15301,Washington County,PA,3.447195236602946
15627,Westmoreland County,PA,73.83265434033218
15650,Westmoreland County,PA,9.088060169225948
15666,Westmoreland County,PA,40.39486054528361
15767,Jefferson County,PA,70.47947351927294
15853,Elk County,PA,51.363209025383895
15857,Elk County,PA,16.922594797869007
15963,Somerset County,PA,56.56534001880288
16101,Lawrence County,PA,17.894077091820744
16105,Lawrence County,PA,47.66530868066437
16335,Crawford County,PA,5.797555625195863
16428,Erie County,PA,92.32215606392981
16502,Erie County,PA,32.340958947038544
16503,Erie County,PA,58.79034785333751
16510,Erie County,PA,28.141648386085865
16652,Huntingdon County,PA,28.54904418677531
16693,Blair County,PA,96.30209965528047
16823,Centre County,PA,13.381385145722344
17011,Cumberland County,PA,17.361328737073016
17042,Lebanon County,PA,2.413036665622062
17044,Mifflin County,PA,7.333124412409902
17051,Mifflin County,PA,85.74114697586963
17110,Dauphin County,PA,9.495455969915387
17201,Franklin County,PA,26.731432152930118
17225,Franklin County,PA,46.850517079285495
17257,Cumberland County,PA,45.94171106236289
17313,York County,PA,56.816045126919455
17319,York County,PA,58.00689439047321
17327,York County,PA,84.61297398934504
17331,York County,PA,3.9799435913506738
17356,York County,PA,20.05640864932623
17402,York County,PA,11.595111250391726
17403,York County,PA,1.5042306486994672
17404,York County,PA,28.51770604826073
17512,Lancaster County,PA,31.338138514572233
17522,Lancaster County,PA,16.483860858664993
17527,Lancaster County,PA,95.11125039172673
17543,Lancaster County,PA,15.16765904105296
17552,Lancaster County,PA,28.04763397054215
17601,Lancaster County,PA,24.13036665622062
17603,Lancaster County,PA,24.318395487308052
17751,Clinton County,PA,63.92980256972736
17756,Lycoming County,PA,64.93262300219367
17901,Schuylkill County,PA,16.546537135694138
17954,Schuylkill County,PA,79.03478533375117
17972,Schuylkill County,PA,52.272015042306485
17976,Schuylkill County,PA,92.69821372610467
18015,Northampton County,PA,4.669382638671263
18017,Northampton County,PA,3.3845189595738012
18018,Lehigh County,PA,14.916953932936384
18042,Northampton County,PA,2.820432466311501
18062,Lehigh County,PA,34.00188028831088
18071,Carbon County,PA,39.89345032905046
18102,Lehigh County,PA,22.344092760890003
18252,Schuylkill County,PA,45.12691946098401
18334,Monroe County,PA,97.61830147289251
18436,Wayne County,PA,44.71952366029458
18510,Lackawanna County,PA,55.68787214039486
18603,Columbia County,PA,8.241930429332497
18640,Luzerne County,PA,31.902225007834534
18642,Luzerne County,PA,92.35349420244438
18657,Wyoming County,PA,53.8389219680351
18702,Luzerne County,PA,4.167972422438107
18938,Bucks County,PA,91.25665935443435
18940,Bucks County,PA,51.70792854904419
18974,Bucks County,PA,43.309307427138826
18976,Bucks County,PA,39.580068943904735
19001,Montgomery County,PA,44.813538075838295
19008,Delaware County,PA,40.23816985271075
19015,Delaware County,PA,26.512065183328108
19018,Delaware County,PA,18.11344406142275
19020,Bucks County,PA,4.4813538075838295
19027,Montgomery County,PA,32.68567847069884
19036,Delaware County,PA,42.33782513318709
19046,Montgomery County,PA,34.597304920087744
19056,Bucks County,PA,71.48229395173927
19060,Delaware County,PA,80.97774992165465
19063,Delaware County,PA,13.538075838295205
19067,Bucks County,PA,11.156377311187715
19072,Montgomery County,PA,57.72485114384206
19073,Delaware County,PA,41.67972422438107
19082,Delaware County,PA,5.985584456283297
19083,Delaware County,PA,89.34503290504544
19094,Delaware County,PA,89.09432779692887
19103,Philadelphia County,PA,34.440614227514885
19104,Philadelphia County,PA,6.110937010341585
19111,Philadelphia County,PA,1.723597618301473
19115,Philadelphia County,PA,11.626449388906298
19116,Philadelphia County,PA,70.82419304293325
19120,Philadelphia County,PA,10.686305233469131
19124,Philadelphia County,PA,0.43873393920401127
19125,Philadelphia County,PA,37.26104669382639
19130,Philadelphia County,PA,61.830147289251016
19131,Philadelphia County,PA,3.196490128486368
19132,Philadelphia County,PA,3.1651519899717955
19134,Philadelphia County,PA,10.52961454089627
19138,Philadelphia County,PA,7.42713882795362
19139,Philadelphia County,PA,1.848950172359762
19144,Philadelphia County,PA,2.3503603885929176
19145,Philadelphia County,PA,4.105296145408962
19147,Philadelphia County,PA,11.062362895643998
19149,Philadelphia County,PA,20.275775618928236
19151,Philadelphia County,PA,8.053901598245064
19152,Philadelphia County,PA,11.65778752742087
19153,Philadelphia County,PA,54.84174240050142
19335,Chester County,PA,10.654967094954559
19348,Chester County,PA,45.8163585083046
19355,Chester County,PA,30.0219366969602
19401,Montgomery County,PA,23.03353180821059
19403,Montgomery County,PA,11.125039172673143
19422,Montgomery County,PA,90.69257286117205
19428,Montgomery County,PA,35.31808210592291
19438,Montgomery County,PA,35.850830460670636
19440,Montgomery County,PA,50.86179880915074
19454,Montgomery County,PA,32.40363522406769
19460,Chester County,PA,46.06706361642118
19468,Montgomery County,PA,29.301159511125043
19512,Berks County,PA,50.48574114697587
19522,Berks County,PA,54.21497963020997
19567,Berks County,PA,96.89752428705735
19606,Berks County,PA,27.51488561579442
02816,Kent County,RI,18.364149169539328
02864,Providence County,RI,17.2673143215293
02865,Providence County,RI,85.30241303666563
02886,Kent County,RI,97.02287684111563
02893,Kent County,RI,24.85114384205578
02908,Providence County,RI,29.959260419931056
02909,Providence County,RI,11.751801942964587
29020,Kershaw County,SC,55.938577248511436
29063,Richland County,SC,46.81917894077092
29072,Lexington County,SC,17.80006267627703
29078,Kershaw County,SC,73.83265434033218
29108,Newberry County,SC,46.192416170479476
29154,Sumter County,SC,40.300846129739895
29161,Florence County,SC,63.240363522406774
29169,Lexington County,SC,44.938890629896584
29204,Richland County,SC,60.63929802569727
29205,Richland County,SC,70.13475399561267
29210,Richland County,SC,31.181447821999374
29302,Spartanburg County,SC,70.51081165778753
29303,Spartanburg County,SC,32.09025383892197
29325,Laurens County,SC,42.65120651833281
29349,Spartanburg County,SC,16.546537135694138
29374,Spartanburg County,SC,99.49858978376685
29376,Spartanburg County,SC,91.97743654026951
29385,Spartanburg County,SC,82.29395173926669
29388,Spartanburg County,SC,80.8210592290818
29410,Berkeley County,SC,67.78439360701974
29414,Charleston County,SC,22.406769037919148
29420,Dorchester County,SC,36.44625509244751
29440,Georgetown County,SC,35.03603885929176
29456,Dorchester County,SC,58.79034785333751
29461,Berkeley County,SC,22.814164838608587
29483,Dorchester County,SC,37.1356941397681
29506,Florence County,SC,34.00188028831088
29527,Horry County,SC,38.107176433719836
29536,Dillon County,SC,43.08994045753683
29575,Horry County,SC,87.49608273268568
29579,Horry County,SC,75.8382952052648
29607,Greenville County,SC,51.08116577875275
29611,Greenville County,SC,7.521153243497336
29617,Greenville County,SC,25.415230335318086
29621,Anderson County,SC,92.25947978690066
29624,Anderson County,SC,26.668755875900974
29630,Pickens County,SC,94.92322156063929
29650,Greenville County,SC,61.61078031964902
29651,Greenville County,SC,13.130680037605766
29680,Greenville County,SC,35.19272955186462
29681,Greenville County,SC,17.70604826073331
29692,Laurens County,SC,89.09432779692887
29706,Chester County,SC,23.472265747414603
29707,Lancaster County,SC,71.23158884362269
29710,York County,SC,92.35349420244438
29728,Chesterfield County,SC,74.71012221874021
29730,York County,SC,11.78314008147916
29732,York County,SC,74.30272641805077
29803,Aiken County,SC,65.84142901911626
29902,Beaufort County,SC,70.38545910372925
29910,Beaufort County,SC,61.454089627076144
29924,Hampton County,SC,98.30774052021309
29928,Beaufort County,SC,99.56126606079599
29935,Beaufort County,SC,99.81197116891256
57005,Minnehaha County,SD,77.3111877154497
57078,Yankton County,SD,61.04669382638671
57103,Minnehaha County,SD,45.34628643058603
57104,Minnehaha County,SD,72.04638044500157
57105,Minnehaha County,SD,35.098715136320905
57106,Minnehaha County,SD,14.697586963334377
57201,Codington County,SD,89.7210905672203
57301,Davison County,SD,36.91632717016609
57401,Brown County,SD,58.163585083046065
37013,Davidson County,TN,5.640864932623002
37015,Cheatham County,TN,50.109683484801
37029,Dickson County,TN,98.15104982764024
37040,Montgomery County,TN,15.73174553431526
37042,Montgomery County,TN,15.230335318082105
37055,Dickson County,TN,15.261673456596677
37064,Williamson County,TN,35.4434346599812
37075,Sumner County,TN,9.902851770604826
37076,Davidson County,TN,24.69445314948292
37090,Wilson County,TN,53.776245691005954
37091,Marshall County,TN,28.361015355687876
37101,Humphreys County,TN,65.74741460357255
37127,Rutherford County,TN,80.94641178314008
37128,Rutherford County,TN,70.35412096521466
37129,Rutherford County,TN,10.216233155750547
37148,Sumner County,TN,28.799749294891885
37206,Davidson County,TN,75.90097148229395
37303,McMinn County,TN,14.196176747101221
37323,Bradley County,TN,30.084612973989344
37343,Hamilton County,TN,14.697586963334377
37355,Coffee County,TN,24.0363522406769
37385,Monroe County,TN,90.22250078345347
37415,Hamilton County,TN,78.94077091820746
37416,Hamilton County,TN,43.18395487308054
37421,Hamilton County,TN,18.55217800062676
37650,Unicoi County,TN,50.54841742400501
37721,Knox County,TN,58.97837668442495
37725,Jefferson County,TN,41.836414916953935
37742,Loudon County,TN,66.374177373864
37743,Greene County,TN,30.14728925101849
37757,Campbell County,TN,79.44218113444062
37766,Campbell County,TN,25.195863365716075
37811,Hawkins County,TN,98.96584142901912
37820,Jefferson County,TN,79.22281416483861
37821,Cocke County,TN,9.11939830774052
37830,Anderson County,TN,15.543716703227828
37846,Loudon County,TN,95.29927922281416
37861,Grainger County,TN,73.17455343152616
37874,Monroe County,TN,29.20714509558132
37876,Sevier County,TN,23.378251331870885
37917,Knox County,TN,10.24757129426512
37919,Knox County,TN,42.682544656847384
38016,Shelby County,TN,40.20683171419618
38052,Hardeman County,TN,96.96020056408649
38059,Dyer County,TN,84.39360701974302
38108,Shelby County,TN,43.65402695079912
38111,Shelby County,TN,13.694766530868066
38115,Shelby County,TN,45.28361015355688
38127,Shelby County,TN,5.076778439360702
38134,Shelby County,TN,26.418050767784397
38201,Carroll County,TN,72.29708555311815
38230,Weakley County,TN,97.99435913506738
38301,Madison County,TN,5.484174240050141
38340,Chester County,TN,54.74772798495769
38401,Maury County,TN,4.011281729865246
38462,Lewis County,TN,61.172046380444996
38474,Maury County,TN,71.92102789094328
38506,Putnam County,TN,30.617361328737076
38544,Putnam County,TN,55.62519586336572
38553,Fentress County,TN,99.2165465371357
75006,Dallas County,TX,68.97524287057348
75007,Denton County,TX,36.32090253838922
75019,Dallas County,TX,42.90191162644939
75028,Denton County,TX,44.90755249138201
75034,Denton County,TX,27.07615167659041
75035,Collin County,TX,27.671576308367285
75038,Dallas County,TX,50.6737699780633
75039,Dallas County,TX,91.09996866186148
75041,Dallas County,TX,33.187088686932
75043,Dallas County,TX,12.159197743654026
75044,Dallas County,TX,42.9959260419931
75050,Dallas County,TX,81.2597931682858
75052,Dallas County,TX,58.06957066750235
75060,Dallas County,TX,30.46067063616421
75062,Dallas County,TX,68.75587590097149
75063,Dallas County,TX,47.19523660294578
75065,Denton County,TX,80.60169225947979
75067,Denton County,TX,22.18740206831714
75068,Denton County,TX,21.403948605452836
75069,Collin County,TX,37.386399247884675
75071,Collin County,TX,18.708868693199623
75077,Denton County,TX,32.49764963961141
75081,Dallas County,TX,61.20338451895957
75087,Rockwall County,TX,30.55468505170793
75090,Grayson County,TX,36.5716076465058
75092,Grayson County,TX,36.0075211532435
75098,Collin County,TX,13.945471638984644
75109,Navarro County,TX,98.37041679724224
75110,Navarro County,TX,31.80821059229082
75114,Kaufman County,TX,96.6154810404262
75116,Dallas County,TX,73.20589157004073
75140,Van Zandt County,TX,95.23660294578502
75159,Dallas County,TX,60.13788780946412
75160,Kaufman County,TX,54.12096521466625
75203,Dallas County,TX,99.34189909119398
75208,Dallas County,TX,51.73926668755876
75210,Dallas County,TX,59.072391099968655
75211,Dallas County,TX,59.76183014728925
75212,Dallas County,TX,34.34659981197117
75217,Dallas County,TX,43.05860231902225
75218,Dallas County,TX,67.37699780633031
75220,Dallas County,TX,94.76653086806644
75227,Dallas County,TX,40.01880288310875
75230,Dallas County,TX,62.644938890629895
75231,Dallas County,TX,82.57599498589784
75238,Dallas County,TX,56.816045126919455
75240,Dallas County,TX,60.01253525540583
75243,Dallas County,TX,33.030397994359134
75248,Dallas County,TX,47.66530868066437
75253,Dallas County,TX,83.04606706361642
75402,Hunt County,TX,69.19460984017549
75418,Fannin County,TX,82.67000940144156
75453,Hunt County,TX,99.96866186148543
75605,Gregg County,TX,41.61704794735193
75645,Upshur County,TX,74.67878408022564
75654,Rusk County,TX,78.56471325603259
75662,Gregg County,TX,42.24381071764337
75701,Smith County,TX,58.727671576308374
75751,Henderson County,TX,35.56878721403949
75789,Smith County,TX,93.98307740520212
75803,Anderson County,TX,54.74772798495769
75901,Angelina County,TX,25.853964274522095
75972,San Augustine County,TX,61.29739893450329
76002,Tarrant County,TX,46.44312127859605
76010,Tarrant County,TX,10.435600125352554
76017,Tarrant County,TX,21.341272328423692
76022,Tarrant County,TX,77.53055468505171
76031,Johnson County,TX,55.28047633970542
76033,Johnson County,TX,26.0733312441241
76039,Tarrant County,TX,26.574741460357252
76040,Tarrant County,TX,35.19272955186462
76050,Johnson County,TX,81.07176433719837
76052,Tarrant County,TX,77.93795048574114
76063,Tarrant County,TX,8.586649952992792
76082,Parker County,TX,45.31494829207145
76088,Parker County,TX,74.61610780319648
76092,Tarrant County,TX,55.43716703227828
76104,Tarrant County,TX,63.271701660921345
76105,Tarrant County,TX,85.30241303666563
76106,Tarrant County,TX,36.44625509244751
76107,Tarrant County,TX,30.71137574428079
76110,Tarrant County,TX,32.09025383892197
76115,Tarrant County,TX,72.7984957693513
76116,Tarrant County,TX,15.136320902538388
76117,Tarrant County,TX,23.84832340958947
76119,Tarrant County,TX,21.18458163585083
76134,Tarrant County,TX,17.862738953306174
76148,Tarrant County,TX,64.1178314008148
76164,Tarrant County,TX,61.54810404261987
76180,Tarrant County,TX,64.9012848636791
76182,Tarrant County,TX,55.092447508617994
76227,Denton County,TX,56.12660607959887
76240,Cooke County,TX,28.611720463804453
76259,Denton County,TX,97.99435913506738
76262,Denton County,TX,34.50329050454403
76354,Wichita County,TX,74.89815104982765
76401,Erath County,TX,51.86461924161705
76431,Wise County,TX,99.02851770604826
76501,Bell County,TX,8.774678784080226
76502,Bell County,TX,35.067376997806335
76543,Bell County,TX,50.98715136320903
76549,Bell County,TX,15.0109683484801
76550,Lampasas County,TX,54.21497963020997
76574,Williamson County,TX,38.2638671262927
76645,Hill County,TX,72.76715763083673
76705,McLennan County,TX,37.48041366342839
76706,McLennan County,TX,58.132246944531495
76710,McLennan County,TX,75.99498589783767
76712,McLennan County,TX,31.212785960513944
76901,Tom Green County,TX,38.013162018176125
76903,Tom Green County,TX,30.899404575368223
77004,Harris County,TX,18.64619241617048
77005,Harris County,TX,64.33719837041679
77011,Harris County,TX,77.65590723911001
77015,Harris County,TX,28.674396740833597
77016,Harris County,TX,30.962080852397367
77018,Harris County,TX,32.74835474772799
77029,Harris County,TX,60.29457850203698
77034,Harris County,TX,47.13256032591664
77036,Harris County,TX,93.95173926668757
77038,Harris County,TX,73.73863992478846
77041,Harris County,TX,50.6737699780633
77043,Harris County,TX,75.80695706675023
77044,Harris County,TX,25.979316828580384
77048,Harris County,TX,63.05233469131933
77049,Harris County,TX,55.78188655593858
77053,Fort Bend County,TX,50.32905045440301
77055,Harris County,TX,47.8533375117518
77056,Harris County,TX,69.13193356314635
77060,Harris County,TX,51.425885302413036
77062,Harris County,TX,49.60827326856785
77066,Harris County,TX,84.51895957380131
77067,Harris County,TX,66.2488248198057
77069,Harris County,TX,94.17110623628956
77072,Harris County,TX,75.77561892823567
77073,Harris County,TX,85.96051394547163
77074,Harris County,TX,71.4509558132247
77077,Harris County,TX,33.62582262613601
77080,Harris County,TX,85.74114697586963
77081,Harris County,TX,56.47132560325917
77082,Harris County,TX,38.67126292698214
77084,Harris County,TX,50.015669069257285
77085,Harris County,TX,94.04575368223126
77086,Harris County,TX,57.4428078972109
77088,Harris County,TX,20.46380445001567
77091,Harris County,TX,76.08900031338138
77093,Harris County,TX,65.55938577248511
77095,Harris County,TX,71.88968975242871
77096,Harris County,TX,48.69946725164525
77099,Harris County,TX,76.08900031338138
77301,Montgomery County,TX,44.34346599811971
77303,Montgomery County,TX,95.58132246944531
77304,Montgomery County,TX,80.88373550611094
77336,Harris County,TX,86.93199623942338
77362,Montgomery County,TX,92.29081792541523
77365,Montgomery County,TX,72.61046693826387
77373,Harris County,TX,19.429645879034783
77375,Harris County,TX,13.820119084926356
77386,Montgomery County,TX,23.56628016295832
77396,Harris County,TX,26.6374177373864
77406,Fort Bend County,TX,33.81385145722344
77429,Harris County,TX,29.17580695706675
77433,Harris County,TX,30.053274835474774
77447,Harris County,TX,63.05233469131933
77459,Fort Bend County,TX,83.39078658727671
77469,Fort Bend County,TX,19.304293324976495
77477,Fort Bend County,TX,43.904732058915705
77478,Fort Bend County,TX,80.0376057662175
77479,Fort Bend County,TX,20.244437480413662
77480,Brazoria County,TX,84.80100282043247
77493,Harris County,TX,51.363209025383895
77502,Harris County,TX,42.18113444061423
77503,Harris County,TX,71.29426512065183
77506,Harris County,TX,50.141021623315574
77514,Chambers County,TX,86.80664368536509
77523,Chambers County,TX,46.975869633343784
77539,Galveston County,TX,12.535255405828893
77573,Galveston County,TX,59.072391099968655
77575,Liberty County,TX,56.50266374177374
77578,Brazoria County,TX,57.03541209652146
77581,Brazoria County,TX,20.150423064869948
77584,Brazoria County,TX,26.292698213726105
77586,Harris County,TX,37.60576621748668
77587,Harris County,TX,74.52209338765277
77590,Galveston County,TX,7.771858351613914
77591,Galveston County,TX,77.7499216546537
77611,Orange County,TX,89.5017235976183
77619,Jefferson County,TX,64.02381698527108
77713,Jefferson County,TX,74.11469758696333
77808,Brazos County,TX,50.23503603885929
77840,Brazos County,TX,33.782513318708865
77901,Victoria County,TX,16.076465057975557
77904,Victoria County,TX,28.925101848950174
78016,Medina County,TX,86.96333437793795
78028,Kerr County,TX,26.856784706988407
78040,Webb County,TX,30.55468505170793
78046,Webb County,TX,9.432779692886243
78063,Bandera County,TX,86.43058602319023
78076,Zapata County,TX,83.64149169539328
78130,Comal County,TX,14.60357254779066
78155,Guadalupe County,TX,15.387026010654967
78202,Bexar County,TX,69.66468191789407
78207,Bexar County,TX,13.005327483547477
78209,Bexar County,TX,53.55687872140395
78212,Bexar County,TX,46.317768724537764
78213,Bexar County,TX,35.38075838295205
78214,Bexar County,TX,54.30899404575368
78217,Bexar County,TX,84.36226888122846
78218,Bexar County,TX,37.79379504857411
78223,Bexar County,TX,60.26324036352241
78226,Bexar County,TX,88.81228455029772
78237,Bexar County,TX,52.836101535568794
78240,Bexar County,TX,66.18614854277655
78249,Bexar County,TX,79.59887182701347
78250,Bexar County,TX,31.557505484174243
78255,Bexar County,TX,94.23378251331872
78259,Bexar County,TX,69.85271074898151
78260,Bexar County,TX,76.99780633030397
78372,Jim Wells County,TX,92.8862425571921
78387,San Patricio County,TX,93.70103415857099
78404,Nueces County,TX,83.32811031024757
78411,Nueces County,TX,45.06424318395487
78412,Nueces County,TX,41.67972422438107
78413,Nueces County,TX,64.27452209338766
78414,Nueces County,TX,50.32905045440301
78415,Nueces County,TX,35.38075838295205
78418,Nueces County,TX,64.02381698527108
78504,Hidalgo County,TX,28.07897210905672
78516,Hidalgo County,TX,51.14384205578189
78521,Cameron County,TX,22.124725791287997
78537,Hidalgo County,TX,54.685051707928544
78538,Hidalgo County,TX,88.40488874960826
78539,Hidalgo County,TX,48.448762143528675
78542,Hidalgo County,TX,64.74459417110624
78550,Cameron County,TX,31.46349106863052
78552,Cameron County,TX,92.16546537135693
78559,Cameron County,TX,88.18552178000627
78572,Hidalgo County,TX,39.29802569727358
78574,Hidalgo County,TX,59.38577248511439
78576,Hidalgo County,TX,97.96302099655281
78577,Hidalgo County,TX,91.78940770918207
78586,Cameron County,TX,33.06173613287371
78589,Hidalgo County,TX,62.9896584142902
78595,Hidalgo County,TX,98.27640238169852
78596,Hidalgo County,TX,87.1200250705108
78599,Hidalgo County,TX,79.31682858038232
78612,Bastrop County,TX,88.15418364149168
78621,Bastrop County,TX,60.63929802569727
78624,Gillespie County,TX,69.57066750235036
78628,Williamson County,TX,65.21466624882481
78640,Hays County,TX,30.930742713882797
78641,Williamson County,TX,76.46505797555625
78648,Caldwell County,TX,99.59260419931056
78660,Travis County,TX,49.35756816045127
78664,Williamson County,TX,34.18990911939831
78665,Williamson County,TX,39.10999686618615
78666,Hays County,TX,18.144782199937325
78681,Williamson County,TX,77.0918207458477
78729,Williamson County,TX,72.48511438420557
78744,Travis County,TX,82.5133187088687
78745,Travis County,TX,49.60827326856785
78748,Travis County,TX,62.20620495142588
78753,Travis County,TX,93.48166718896897
78758,Travis County,TX,42.08712002507051
78801,Uvalde County,TX,52.209338765277344
79109,Randall County,TX,27.107489815104984
79110,Randall County,TX,55.49984330930743
79336,Hockley County,TX,62.58226261360075
79403,Lubbock County,TX,73.55061109370104
79404,Lubbock County,TX,68.91256659354434
79415,Lubbock County,TX,57.63083672829834
79423,Lubbock County,TX,19.711689125665934
79556,Nolan County,TX,45.84769664681918
79701,Midland County,TX,31.620181761203387
79705,Midland County,TX,49.67094954559699
79706,Midland County,TX,68.44249451582576
79707,Midland County,TX,23.190222500783452
79714,Andrews County,TX,45.12691946098401
79762,Ector County,TX,51.488561579442184
79763,Ector County,TX,24.193042933249764
79764,Ector County,TX,44.06142275148856
79766,Ector County,TX,91.03729238483234
79782,Martin County,TX,89.21968035098715
79838,El Paso County,TX,89.03165151989971
79901,El Paso County,TX,86.9006581009088
79905,El Paso County,TX,69.00658100908807
79924,El Paso County,TX,32.24694453149483
79928,El Paso County,TX,37.6997806330304
79930,El Paso County,TX,70.8868693199624
79934,El Paso County,TX,76.68442494515826
79936,El Paso County,TX,7.239109996866186
79938,El Paso County,TX,55.02977123158884
84005,Utah County,UT,73.95800689439046
84010,Davis County,UT,29.927922281416485
84015,Davis County,UT,13.60075211532435
84020,Salt Lake County,UT,32.65434033218427
84029,Tooele County,UT,48.01002820432466
84036,Summit County,UT,96.1454089627076
84041,Davis County,UT,60.10654967094955
84043,Utah County,UT,33.751175180194295
84047,Salt Lake County,UT,49.45158257599498
84054,Davis County,UT,87.71544970228769
84057,Utah County,UT,57.31745534315261
84058,Utah County,UT,77.62456910059542
84060,Summit County,UT,97.64963961140708
84065,Salt Lake County,UT,27.2015042306487
84067,Weber County,UT,25.697273581949233
84070,Salt Lake County,UT,38.796615481040426
84074,Tooele County,UT,1.9116264493889061
84081,Salt Lake County,UT,21.15324349733626
84084,Salt Lake County,UT,34.91068630523347
84088,Salt Lake County,UT,60.231902225007836
84094,Salt Lake County,UT,55.37449075524914
84102,Salt Lake County,UT,75.52491382011908
84104,Salt Lake County,UT,35.69413976809778
84107,Salt Lake County,UT,29.89658414290191
84109,Salt Lake County,UT,55.43716703227828
84115,Salt Lake County,UT,61.61078031964902
84117,Salt Lake County,UT,72.35976183014728
84118,Salt Lake County,UT,37.95048574114698
84119,Salt Lake County,UT,30.523346913193354
84123,Salt Lake County,UT,43.15261673456597
84128,Salt Lake County,UT,79.63020996552804
84129,,UT,52.710748981510505
84302,Box Elder County,UT,72.015042306487
84321,Cache County,UT,94.98589783766845
84401,Weber County,UT,65.74741460357255
84404,Weber County,UT,75.68160451269195
84405,Weber County,UT,66.46819178940771
84655,Utah County,UT,89.59573801316202
84663,Utah County,UT,65.6847383265434
84721,Iron County,UT,56.22062049514259
84738,Washington County,UT,93.82638671262927
84780,Washington County,UT,67.12629269821373
84790,Washington County,UT,33.406455656534
20105,Loudoun County,VA,80.19429645879035
20110,Manassas city,VA,58.5709808837355
20111,Prince William County,VA,75.36822312754622
20120,Fairfax County,VA,75.1801942964588
20121,Fairfax County,VA,56.063929802569724
20136,Prince William County,VA,59.91852083986211
20147,Loudoun County,VA,60.89000313381385
20148,Loudoun County,VA,78.81541836414917
20151,Fairfax County,VA,95.11125039172673
20164,Loudoun County,VA,32.905045440300846
20170,Fairfax County,VA,54.465684738326544
20171,Fairfax County,VA,39.83077405202131
20187,Fauquier County,VA,75.08617988091507
22003,Fairfax County,VA,20.933876527734252
22025,Prince William County,VA,84.26825446568473
22031,Fairfax County,VA,82.95205264807271
22032,Fairfax County,VA,54.528361015355685
22033,Fairfax County,VA,49.95299279222814
22042,Fairfax County,VA,73.76997806330304
22044,Fairfax County,VA,94.39047320589157
22066,Fairfax County,VA,88.21685991852084
22079,Fairfax County,VA,65.52804763397054
22101,Fairfax County,VA,74.52209338765277
22153,Fairfax County,VA,47.821999373237226
22182,Fairfax County,VA,56.25195863365716
22191,Prince William County,VA,79.44218113444062
22192,Prince William County,VA,40.61422751488561
22193,Prince William County,VA,7.928549044186775
22204,Arlington County,VA,18.865559385772485
22205,Arlington County,VA,81.8238796615481
22301,Alexandria city,VA,96.11407082419305
22303,Fairfax County,VA,87.37073017862738
22304,Alexandria city,VA,8.680664368536508
22305,Alexandria city,VA,66.9382638671263
22306,Fairfax County,VA,19.805703541209652
22310,Fairfax County,VA,42.46317768724538
22401,Fredericksburg city,VA,71.29426512065183
22405,Stafford County,VA,46.94453149482921
22406,Stafford County,VA,78.50203697900344
22407,Spotsylvania County,VA,10.905672203071138
22553,Spotsylvania County,VA,79.31682858038232
22602,Frederick County,VA,85.45910372923848
22657,Shenandoah County,VA,40.67690379191476
22801,Harrisonburg city,VA,31.7141961767471
22901,Albemarle County,VA,22.657474146035725
22902,Charlottesville city,VA,15.637731118771544
23075,Henrico County,VA,52.58539642745221
23223,Henrico County,VA,1.6922594797869006
23224,Richmond city,VA,27.170166092134128
23228,Henrico County,VA,38.63992478846757
23229,Henrico County,VA,84.45628329677217
23230,Henrico County,VA,95.98871827013475
23231,Henrico County,VA,45.534315261673456
23294,Henrico County,VA,74.42807897210906
23325,Chesapeake city,VA,67.18896897524287
23462,Virginia Beach city,VA,11.250391726731431
23464,Virginia Beach city,VA,35.944844876214354
23505,Norfolk city,VA,27.828267000940144
23664,Hampton city,VA,78.56471325603259
23692,York County,VA,88.59291758069571
23703,Portsmouth city,VA,43.967408335944846
23803,Petersburg city,VA,6.643685365089313
23832,Chesterfield County,VA,67.5963647759323
23834,Colonial Heights city,VA,35.75681604512692
23842,Prince George County,VA,94.359135067377
23860,Hopewell city,VA,21.278596051394548
23875,Prince George County,VA,78.03196490128487
24012,Roanoke city,VA,19.5236602945785
24019,Roanoke County,VA,44.468818552178
24073,Montgomery County,VA,31.11877154497023
24091,Floyd County,VA,92.79222814164838
24175,Botetourt County,VA,88.81228455029772
24201,Bristol city,VA,33.06173613287371
24219,Wise County,VA,29.238483234095895
24301,Pulaski County,VA,46.59981197116891
24315,Bland County,VA,96.89752428705735
24401,Staunton city,VA,6.298965841429019
24426,Alleghany County,VA,69.38263867126292
24450,Rockbridge County,VA,66.46819178940771
24501,Lynchburg city,VA,19.084926355374492
24502,Lynchburg city,VA,31.80821059229082
24504,Lynchburg city,VA,47.8533375117518
24523,Bedford County,VA,74.36540269507991
24614,Buchanan County,VA,49.48292071450956
98002,King County,WA,24.41240990285177
98007,King County,WA,77.56189282356628
98011,King County,WA,48.98151049827641
98012,Snohomish County,WA,92.41617047947351
98023,King County,WA,16.797242243810718
98026,Snohomish County,WA,23.84832340958947
98028,King County,WA,65.15198997179567
98030,King County,WA,16.515198997179567
98031,King County,WA,30.648699467251646
98033,King County,WA,97.46161078031965
98036,Snohomish County,WA,83.516139141335
98042,King County,WA,37.198370416797246
98052,King County,WA,71.92102789094328
98058,King County,WA,21.654653713569413
98059,King County,WA,34.597304920087744
98092,King County,WA,15.85709808837355
98103,King County,WA,35.63146349106863
98107,King County,WA,60.13788780946412
98108,King County,WA,64.99529927922282
98125,King County,WA,28.705734879348167
98188,King County,WA,92.16546537135693
98204,Snohomish County,WA,17.329990598558446
98208,Snohomish County,WA,13.19335631463491
98251,Snohomish County,WA,97.68097774992165
98258,Snohomish County,WA,64.96396114070824
98273,Skagit County,WA,70.82419304293325
98292,Snohomish County,WA,80.4763397054215
98296,Snohomish County,WA,34.440614227514885
98311,Kitsap County,WA,51.551237856471325
98332,Pierce County,WA,84.70698840488875
98338,Pierce County,WA,36.44625509244751
98367,Kitsap County,WA,37.85647132560326
98371,Pierce County,WA,56.063929802569724
98372,Pierce County,WA,48.66812911313068
98387,Pierce County,WA,15.073644625509244
98404,Pierce County,WA,56.18928235662801
98444,Pierce County,WA,24.631776872453777
98445,Pierce County,WA,37.543089940457534
98467,Pierce County,WA,77.84393607019743
98531,Lewis County,WA,65.21466624882481
98541,Grays Harbor County,WA,71.04356001253525
98597,Thurston County,WA,57.85020369790035
98607,Clark County,WA,89.94045753682232
98626,Cowlitz County,WA,66.56220620495142
98663,Clark County,WA,69.7586963334378
98682,Clark County,WA,48.32340958947039
98802,Douglas County,WA,39.642745220933875
98901,Yakima County,WA,43.81071764337198
98908,Yakima County,WA,27.013475399561266
98942,Yakima County,WA,68.8498903165152
98948,Yakima County,WA,84.86367909746161
99037,Spokane County,WA,91.38201190849263
99203,Spokane County,WA,78.97210905672203
99208,Spokane County,WA,28.267000940144154
99301,Franklin County,WA,89.18834221247258
99336,Benton County,WA,50.29771231588843
99338,Benton County,WA,96.67815731745534
99354,Benton County,WA,31.056095267941085
99362,Walla Walla County,WA,17.39266687558759
20001,District of Columbia,DC,13.03666562206205
20011,District of Columbia,DC,22.218740206831715
20016,District of Columbia,DC,87.30805390159824
20018,District of Columbia,DC,31.745534315261676
20019,District of Columbia,DC,12.91131306800376
20020,District of Columbia,DC,0.9714822939517392
25276,Roane County,WV,86.05452836101536
25311,Kanawha County,WV,61.04669382638671
25405,Berkeley County,WV,70.13475399561267
25419,Berkeley County,WV,75.8382952052648
25508,Logan County,WV,65.6847383265434
25705,Cabell County,WV,10.811657787527421
26062,Hancock County,WV,6.392980256972736
26201,Upshur County,WV,93.32497649639612
26431,Harrison County,WV,79.16013788780947
26508,Monongalia County,WV,15.324349733625823
26554,Marion County,WV,28.987778125979318
26836,Hardy County,WV,94.51582575994986
53021,Ozaukee County,WI,98.05703541209651
53045,Waukesha County,WI,79.09746161078031
53080,Ozaukee County,WI,96.30209965528047
53085,Sheboygan County,WI,90.31651519899718
53092,Ozaukee County,WI,47.53995612660608
53094,Jefferson County,WI,30.99341899091194
53095,Washington County,WI,74.08335944844876
53121,Walworth County,WI,32.96772171732999
53128,Walworth County,WI,59.88718270134754
53132,Milwaukee County,WI,28.361015355687876
53143,Kenosha County,WI,11.09370103415857
53158,Kenosha County,WI,62.73895330617362
53177,Racine County,WI,76.9664681917894
53189,Waukesha County,WI,44.468818552178
53209,Milwaukee County,WI,1.1908492635537449
53210,Milwaukee County,WI,4.261986837981824
53212,Milwaukee County,WI,32.59166405515512
53213,Milwaukee County,WI,84.58163585083047
53215,Milwaukee County,WI,14.352867439674084
53217,Milwaukee County,WI,58.66499529927922
53218,Milwaukee County,WI,3.917267314321529
53221,Milwaukee County,WI,11.939830774052021
53224,Milwaukee County,WI,59.82450642431839
53406,Racine County,WI,8.523973675963648
53511,Rock County,WI,0.34471952366029457
53597,Dane County,WI,79.03478533375117
53704,Dane County,WI,5.954246317768725
53716,Dane County,WI,65.99811971168913
53719,Dane County,WI,44.40614227514886
53916,Dodge County,WI,30.3666562206205
54015,St. Croix County,WI,96.52146662488248
54017,St. Croix County,WI,85.2083986211219
54021,Pierce County,WI,92.91758069570668
54022,Pierce County,WI,86.39924788467565
54180,Brown County,WI,99.780633030398
54241,Manitowoc County,WI,81.66718896897524
54302,Brown County,WI,17.173299905985584
54303,Brown County,WI,34.5346286430586
54467,Portage County,WI,90.15982450642431
54481,Portage County,WI,12.284550297712315
54501,Oneida County,WI,39.23534942024444
54601,La Crosse County,WI,20.526480727044813
54656,Monroe County,WI,36.75963647759323
54701,Eau Claire County,WI,65.34001880288311
54703,Eau Claire County,WI,13.47539956126606
54720,Eau Claire County,WI,97.86900658100909
54768,Chippewa County,WI,96.64681917894077
54840,Burnett County,WI,91.44468818552178
54929,Waupaca County,WI,84.89501723597618
54935,Fond du Lac County,WI,9.526794108429959
54952,Winnebago County,WI,37.26104669382639
54956,Winnebago County,WI,17.42400501410216
54961,Waupaca County,WI,46.913193356314636
82009,Laramie County,WY,63.39705421497963
82435,Park County,WY,93.85772485114384
82901,Sweetwater County,WY,45.25227201504231
