ZipCode,county,state,Adult
35046,Chilton County,AL,78.45754542083797
35213,Jefferson County,AL,73.00704486466444
35235,Jefferson County,AL,37.04115684093437
35582,Franklin County,AL,81.53503893214683
35601,Morgan County,AL,6.896551724137931
35747,Marshall County,AL,71.22728958101594
35749,Madison County,AL,31.368186874304783
35756,Limestone County,AL,88.72821653689284
35763,Madison County,AL,79.2732665925102
35773,Madison County,AL,72.26548016314423
35903,Etowah County,AL,36.70745272525028
35967,DeKalb County,AL,45.0129773822766
35976,Marshall County,AL,29.2918057100482
36027,Barbour County,AL,23.692992213570633
36110,Montgomery County,AL,92.06525769373378
36301,Houston County,AL,9.788654060066742
36460,Monroe County,AL,65.7397107897664
36526,Baldwin County,AL,60.697070819429
36532,Baldwin County,AL,39.451242120875044
36582,Mobile County,AL,72.1542454579162
36605,Mobile County,AL,24.063774564330735
36607,Mobile County,AL,67.00037078235076
36695,Mobile County,AL,46.82981090100111
36701,Dallas County,AL,15.572858731924361
36874,Lee County,AL,89.24731182795699
99502,Anchorage Municipality,AK,34.03781979977753
99504,Anchorage Municipality,AK,11.865035224323323
99507,Anchorage Municipality,AK,62.365591397849464
99508,Anchorage Municipality,AK,9.269558769002595
99515,Anchorage Municipality,AK,47.60845383759733
99577,Anchorage Municipality,AK,86.54060066740823
99615,Kodiak Island Borough,AK,63.81164256581386
99835,Sitka City and Borough,AK,94.40118650352242
85006,Maricopa County,AZ,25.695216907675196
85009,Maricopa County,AZ,6.859473489061921
85013,Maricopa County,AZ,31.405265109380792
85022,Maricopa County,AZ,10.75268817204301
85023,Maricopa County,AZ,15.869484612532444
85029,Maricopa County,AZ,12.643678160919542
85031,Maricopa County,AZ,32.44345569150908
85032,Maricopa County,AZ,7.675194660734149
85035,Maricopa County,AZ,8.342602892102335
85040,Maricopa County,AZ,10.307749351130886
85041,Maricopa County,AZ,4.4493882091212456
85042,Maricopa County,AZ,56.4330737856878
85048,Maricopa County,AZ,59.69595847237672
85053,Maricopa County,AZ,28.624397478680013
85122,Pinal County,AZ,19.243604004449388
85128,Pinal County,AZ,92.80682239525399
85140,Pinal County,AZ,83.57434186132741
85202,Maricopa County,AZ,50.50055617352614
85207,Maricopa County,AZ,14.794215795328142
85210,Maricopa County,AZ,91.39784946236558
85212,Maricopa County,AZ,65.48016314423434
85225,Maricopa County,AZ,24.47163515016685
85226,Maricopa County,AZ,36.52206154987023
85234,Maricopa County,AZ,19.39191694475343
85248,Maricopa County,AZ,65.62847608453838
85282,Maricopa County,AZ,53.13311086392287
85296,Maricopa County,AZ,19.873934000741563
85298,Maricopa County,AZ,50.61179087875417
85301,Maricopa County,AZ,24.953652206154985
85303,Maricopa County,AZ,33.37041156840934
85323,Maricopa County,AZ,18.835743418613273
85326,Maricopa County,AZ,16.61104931405265
85331,Maricopa County,AZ,36.89284390063033
85339,Maricopa County,AZ,11.7908787541713
85344,La Paz County,AZ,74.56433073785688
85349,Yuma County,AZ,62.62513904338154
85350,Yuma County,AZ,91.0641453466815
85383,Maricopa County,AZ,15.461624026696331
85392,Maricopa County,AZ,63.18131256952169
85541,Gila County,AZ,31.627734519836853
85546,Graham County,AZ,32.29514275120504
85634,Pima County,AZ,12.013348164627363
85706,Pima County,AZ,19.54022988505747
85710,Pima County,AZ,46.82981090100111
85716,Pima County,AZ,31.25695216907675
85742,Pima County,AZ,32.88839451242121
85743,Pima County,AZ,25.064886911383017
85746,Pima County,AZ,53.24434556915091
85937,Navajo County,AZ,66.11049314052651
85941,Apache County,AZ,6.562847608453838
86005,Coconino County,AZ,73.60029662588062
86033,Navajo County,AZ,43.084909158324066
86035,Coconino County,AZ,99.11012235817576
86047,Navajo County,AZ,20.467185761957733
86305,Yavapai County,AZ,44.75342973674453
86315,Yavapai County,AZ,97.84946236559139
86326,Yavapai County,AZ,13.236929922135706
86327,Yavapai County,AZ,80.42269187986652
86409,Mohave County,AZ,4.078605858361143
86441,Mohave County,AZ,96.32925472747496
86442,Mohave County,AZ,83.64849833147943
86510,Navajo County,AZ,38.561364479050795
86556,Apache County,AZ,93.32591768631812
72002,Saline County,AR,48.9432703003337
72023,Lonoke County,AR,67.1486837226548
72150,Grant County,AR,63.03299962921764
72210,Pulaski County,AR,89.284390063033
72223,Pulaski County,AR,65.55431961438636
72758,Benton County,AR,40.674823878383386
72823,Pope County,AR,81.68335187245087
72903,Sebastian County,AR,53.874675565443084
90006,Los Angeles County,CA,71.82054134223212
90008,Los Angeles County,CA,78.12384130515387
90011,Los Angeles County,CA,54.91286614757137
90019,Los Angeles County,CA,24.50871338524286
90022,Los Angeles County,CA,48.5724879495736
90023,Los Angeles County,CA,49.94438264738598
90025,Los Angeles County,CA,38.78383388950686
90032,Los Angeles County,CA,31.03448275862069
90034,Los Angeles County,CA,77.64182424916574
90037,Los Angeles County,CA,22.58064516129032
90042,Los Angeles County,CA,75.15758249907304
90044,Los Angeles County,CA,3.1516499814608823
90063,Los Angeles County,CA,60.54875787912495
90064,Los Angeles County,CA,15.60993696700037
90065,Los Angeles County,CA,64.07119021134594
90221,Los Angeles County,CA,38.116425658138674
90222,Los Angeles County,CA,47.75676677790137
90242,Los Angeles County,CA,54.46792732665925
90250,Los Angeles County,CA,54.54208379681127
90275,Los Angeles County,CA,77.45643307378569
90278,Los Angeles County,CA,91.62031887282166
90280,Los Angeles County,CA,70.85650723025584
90291,Los Angeles County,CA,73.48906192065257
90303,Los Angeles County,CA,76.64071190211345
90403,Los Angeles County,CA,47.94215795328142
90404,Los Angeles County,CA,47.68261030774935
90602,Los Angeles County,CA,90.47089358546533
90604,Los Angeles County,CA,64.81275491286614
90631,Orange County,CA,72.74749721913237
90670,Los Angeles County,CA,87.05969595847237
90680,Orange County,CA,91.21245828698554
90712,Los Angeles County,CA,66.55543196143864
90720,Orange County,CA,76.56655543196143
90732,Los Angeles County,CA,91.13830181683352
90744,Los Angeles County,CA,66.55543196143864
90802,Los Angeles County,CA,86.02150537634408
90803,Los Angeles County,CA,57.211716722284024
90805,Los Angeles County,CA,30.96032628846867
90806,Los Angeles County,CA,94.77196885428253
90810,Los Angeles County,CA,39.74786800148313
90813,Los Angeles County,CA,94.3270300333704
91030,Los Angeles County,CA,71.56099369670004
91040,Los Angeles County,CA,98.2202447163515
91104,Los Angeles County,CA,27.104189840563592
91203,Los Angeles County,CA,83.83388950685948
91204,Los Angeles County,CA,66.40711902113459
91205,Los Angeles County,CA,74.2677048572488
91206,Los Angeles County,CA,76.97441601779755
91304,Los Angeles County,CA,96.18094178717092
91316,Los Angeles County,CA,92.36188357434186
91325,Los Angeles County,CA,58.06451612903226
91331,Los Angeles County,CA,72.04301075268818
91342,Los Angeles County,CA,34.81646273637375
91343,Los Angeles County,CA,61.62402669632926
91352,Los Angeles County,CA,91.17538005190953
91360,Ventura County,CA,43.60400444938821
91367,Los Angeles County,CA,94.80904708935854
91401,Los Angeles County,CA,96.47756766777901
91423,Los Angeles County,CA,51.20504263997033
91501,Los Angeles County,CA,73.63737486095661
91601,Los Angeles County,CA,72.08008898776419
91709,San Bernardino County,CA,92.25064886911383
91710,San Bernardino County,CA,49.23989618094179
91723,Los Angeles County,CA,60.77122728958102
91730,San Bernardino County,CA,49.90730441230997
91731,Los Angeles County,CA,21.950315164998145
91732,Los Angeles County,CA,53.466814979606966
91740,Los Angeles County,CA,44.12309974045235
91750,Los Angeles County,CA,87.61586948461253
91752,Riverside County,CA,61.03077493511309
91762,San Bernardino County,CA,20.355951056729698
91763,San Bernardino County,CA,81.46088246199481
91764,San Bernardino County,CA,48.9432703003337
91766,Los Angeles County,CA,67.22284019280681
91767,Los Angeles County,CA,85.53948832035594
91768,Los Angeles County,CA,26.362625139043384
91770,Los Angeles County,CA,32.33222098628105
91773,Los Angeles County,CA,77.23396366332963
91776,Los Angeles County,CA,86.13274008157211
91780,Los Angeles County,CA,70.70819428995179
91786,San Bernardino County,CA,81.86874304783093
91910,San Diego County,CA,72.78457545420838
91911,San Diego County,CA,88.50574712643679
91915,San Diego County,CA,87.72710418984056
91941,San Diego County,CA,77.93845012977381
91945,San Diego County,CA,67.29699666295885
91950,San Diego County,CA,79.53281423804228
92008,San Diego County,CA,32.74008157211717
92019,San Diego County,CA,84.6496106785317
92020,San Diego County,CA,85.61364479050798
92021,San Diego County,CA,7.897664071190211
92025,San Diego County,CA,58.28698553948832
92064,San Diego County,CA,72.89581015943641
92065,San Diego County,CA,72.63626251390434
92078,San Diego County,CA,82.72154245457916
92082,San Diego County,CA,98.40563589173156
92083,San Diego County,CA,80.23730070448647
92104,San Diego County,CA,74.60140897293289
92111,San Diego County,CA,89.95179829440119
92113,San Diego County,CA,81.60919540229885
92114,San Diego County,CA,18.798665183537263
92115,San Diego County,CA,60.659992584352985
92122,San Diego County,CA,52.68817204301075
92126,San Diego County,CA,55.951056729699665
92127,San Diego County,CA,83.38895068594735
92129,San Diego County,CA,39.08045977011494
92130,San Diego County,CA,81.42380422691879
92131,San Diego County,CA,51.279199110122356
92139,San Diego County,CA,85.76195773081201
92154,San Diego County,CA,65.44308490915832
92173,San Diego County,CA,43.974786800148316
92201,Riverside County,CA,65.10938079347423
92203,Riverside County,CA,90.91583240637746
92211,Riverside County,CA,84.39006303299963
92220,Riverside County,CA,39.52539859102707
92225,Riverside County,CA,57.50834260289211
92234,Riverside County,CA,83.75973303670744
92243,Imperial County,CA,39.377085650723025
92251,Imperial County,CA,51.94660734149055
92252,San Bernardino County,CA,55.35780496848351
92253,Riverside County,CA,84.20467185761957
92262,Riverside County,CA,79.19911012235818
92276,Riverside County,CA,98.73934000741565
92284,San Bernardino County,CA,14.720059325176122
92301,San Bernardino County,CA,46.162402669632925
92307,San Bernardino County,CA,79.34742306266222
92311,San Bernardino County,CA,48.86911383018168
92316,San Bernardino County,CA,33.70411568409344
92324,San Bernardino County,CA,86.76307007786428
92335,San Bernardino County,CA,37.37486095661847
92336,San Bernardino County,CA,48.68372265480163
92337,San Bernardino County,CA,78.1979977753059
92345,San Bernardino County,CA,64.62736373748609
92346,San Bernardino County,CA,67.07452725250278
92376,San Bernardino County,CA,82.98109010011123
92395,San Bernardino County,CA,85.724879495736
92404,San Bernardino County,CA,66.51835372636262
92405,San Bernardino County,CA,70.6711160548758
92407,San Bernardino County,CA,58.99147200593252
92410,San Bernardino County,CA,88.28327771598072
92411,San Bernardino County,CA,95.32814238042269
92505,Riverside County,CA,57.28587319243604
92506,Riverside County,CA,52.46570263255469
92509,Riverside County,CA,12.606599925843529
92544,Riverside County,CA,30.88616981831665
92545,Riverside County,CA,25.472747497219135
92551,Riverside County,CA,91.36077122728959
92562,Riverside County,CA,56.13644790507972
92582,Riverside County,CA,52.61401557285873
92583,Riverside County,CA,90.28550241008529
92584,Riverside County,CA,70.30033370411569
92596,Riverside County,CA,86.80014831294031
92610,Orange County,CA,96.7741935483871
92620,Orange County,CA,77.27104189840563
92627,Orange County,CA,75.04634779384502
92630,Orange County,CA,82.94401186503522
92647,Orange County,CA,52.169076751946605
92648,Orange County,CA,68.07563959955506
92649,Orange County,CA,37.189469781238415
92656,Orange County,CA,71.93177604746013
92660,Orange County,CA,78.9766407119021
92675,Orange County,CA,45.82869855394883
92677,Orange County,CA,19.725621060437522
92683,Orange County,CA,8.527994067482387
92688,Orange County,CA,22.135706340378196
92701,Orange County,CA,99.22135706340379
92703,Orange County,CA,23.544679273266592
92704,Orange County,CA,93.06637004078607
92705,Orange County,CA,52.61401557285873
92706,Orange County,CA,61.92065257693734
92708,Orange County,CA,21.46829810901001
92782,Orange County,CA,61.0678531701891
92802,Orange County,CA,62.884686688913604
92804,Orange County,CA,77.4935113088617
92805,Orange County,CA,14.68298109010011
92806,Orange County,CA,90.69336299592139
92807,Orange County,CA,77.01149425287356
92821,Orange County,CA,69.26214312198739
92831,Orange County,CA,34.96477567667779
92832,Orange County,CA,64.33073785687802
92840,Orange County,CA,33.18502039302929
92841,Orange County,CA,87.24508713385242
92844,Orange County,CA,51.53874675565443
92866,Orange County,CA,93.69670003707824
92867,Orange County,CA,66.85205784204672
92868,Orange County,CA,44.75342973674453
92869,Orange County,CA,41.34223210975158
92870,Orange County,CA,74.00815721171672
92882,Riverside County,CA,42.78828327771598
92886,Orange County,CA,81.0530218761587
93003,Ventura County,CA,86.05858361142009
93004,Ventura County,CA,37.41193919169448
93013,Santa Barbara County,CA,97.44160177975529
93036,Ventura County,CA,43.71523915461624
93063,Ventura County,CA,72.45087133852428
93109,Santa Barbara County,CA,98.62810530218762
93212,Kings County,CA,72.59918427882833
93215,Kern County,CA,40.30404152762328
93223,Tulare County,CA,74.74972191323694
93234,Fresno County,CA,97.92361883574343
93250,Kern County,CA,77.8272154245458
93257,Tulare County,CA,79.86651835372636
93268,Kern County,CA,80.64516129032258
93274,Tulare County,CA,14.979606970708195
93277,Tulare County,CA,14.200964034111976
93292,Tulare County,CA,53.058954393770854
93304,Kern County,CA,38.37597330367075
93305,Kern County,CA,53.874675565443084
93306,Kern County,CA,75.00926955876899
93307,Kern County,CA,26.251390433815352
93309,Kern County,CA,44.56803856136448
93313,Kern County,CA,34.18613274008157
93401,San Luis Obispo County,CA,64.92398961809418
93402,San Luis Obispo County,CA,89.09899888765295
93422,San Luis Obispo County,CA,90.17426770485724
93442,San Luis Obispo County,CA,66.74082313681868
93446,San Luis Obispo County,CA,87.76418242491657
93454,Santa Barbara County,CA,17.871709306637005
93465,San Luis Obispo County,CA,94.84612532443457
93535,Los Angeles County,CA,68.18687430478309
93543,Los Angeles County,CA,99.36967000370782
93550,Los Angeles County,CA,6.674082313681868
93551,Los Angeles County,CA,36.410826844642195
93552,Los Angeles County,CA,38.89506859473489
93560,Kern County,CA,79.6069707081943
93562,San Bernardino County,CA,89.50685947348906
93591,Los Angeles County,CA,94.36410826844643
93612,Fresno County,CA,70.18909899888766
93620,Merced County,CA,97.07081942899518
93630,Fresno County,CA,63.2183908045977
93635,Merced County,CA,96.58880237300704
93638,Madera County,CA,89.87764182424917
93646,Fresno County,CA,97.81238413051538
93654,Fresno County,CA,82.8698553948832
93662,Fresno County,CA,84.35298479792361
93701,Fresno County,CA,56.24768261030775
93702,Fresno County,CA,42.343344456803855
93703,Fresno County,CA,94.25287356321839
93706,Fresno County,CA,85.98442714126807
93710,Fresno County,CA,96.14386355209493
93711,Fresno County,CA,72.4879495736003
93720,Fresno County,CA,62.1431219873934
93722,Fresno County,CA,95.14275120504264
93725,Fresno County,CA,82.57322951427513
93726,Fresno County,CA,11.753800519095291
93727,Fresno County,CA,70.15202076381163
93905,Monterey County,CA,95.25398591027067
93906,Monterey County,CA,88.39451242120874
93930,Monterey County,CA,99.85168705969596
93933,Monterey County,CA,97.36744530960326
93940,Monterey County,CA,34.297367445309604
93955,Monterey County,CA,95.6989247311828
94010,San Mateo County,CA,93.84501297738228
94014,San Mateo County,CA,28.03114571746385
94015,San Mateo County,CA,83.53726362625139
94024,Santa Clara County,CA,91.8057100482017
94043,Santa Clara County,CA,77.53058954393771
94066,San Mateo County,CA,77.60474601408973
94080,San Mateo County,CA,97.70114942528735
94087,Santa Clara County,CA,60.40044493882091
94103,San Francisco County,CA,94.95736002966258
94108,San Francisco County,CA,71.449758991472
94112,San Francisco County,CA,13.496477567667778
94118,San Francisco County,CA,37.59733036707453
94122,San Francisco County,CA,57.54542083796811
94123,San Francisco County,CA,80.83055246570264
94124,San Francisco County,CA,55.02410085279941
94131,San Francisco County,CA,70.3744901742677
94134,San Francisco County,CA,85.13162773451984
94303,San Mateo County,CA,41.861327400815725
94403,San Mateo County,CA,33.74119391916945
94501,Alameda County,CA,23.17389692250649
94505,Contra Costa County,CA,71.33852428624398
94509,Contra Costa County,CA,62.99592139414164
94518,Contra Costa County,CA,81.27549128661475
94519,Contra Costa County,CA,90.06303299962923
94520,Contra Costa County,CA,82.8327771598072
94521,Contra Costa County,CA,39.04338153503893
94523,Contra Costa County,CA,98.51687059695958
94533,Solano County,CA,90.58212829069336
94534,Solano County,CA,92.69558769002596
94536,Alameda County,CA,44.60511679644049
94538,Alameda County,CA,79.08787541713015
94539,Alameda County,CA,99.2584352984798
94541,Alameda County,CA,86.68891360771227
94544,Alameda County,CA,92.32480533926585
94552,Alameda County,CA,95.58769002595476
94555,Alameda County,CA,72.56210604375232
94558,Napa County,CA,18.13125695216908
94560,Alameda County,CA,75.52836484983315
94563,Contra Costa County,CA,87.65294771968854
94565,Contra Costa County,CA,36.48498331479422
94566,Alameda County,CA,96.55172413793103
94568,Alameda County,CA,97.62699295513534
94577,Alameda County,CA,21.65368928439006
94579,Alameda County,CA,86.91138301816834
94580,Alameda County,CA,80.27437893956247
94582,Contra Costa County,CA,48.720800889877644
94583,Contra Costa County,CA,81.90582128290693
94585,Solano County,CA,99.14720059325177
94587,Alameda County,CA,84.13051538746755
94589,Solano County,CA,40.674823878383386
94591,Solano County,CA,45.86577678902484
94601,Alameda County,CA,27.512050426399703
94602,Alameda County,CA,98.81349647756767
94605,Alameda County,CA,84.87208008898777
94608,Alameda County,CA,89.72932888394513
94609,Alameda County,CA,69.44753429736744
94621,Alameda County,CA,18.650352243233222
94806,Contra Costa County,CA,20.170559881349647
94901,Marin County,CA,76.01038190582128
94903,Marin County,CA,56.470152020763805
94965,Marin County,CA,82.75862068965517
95008,Santa Clara County,CA,44.34556915090842
95012,Monterey County,CA,86.8372265480163
95014,Santa Clara County,CA,45.08713385242862
95060,Santa Cruz County,CA,90.76751946607341
95070,Santa Clara County,CA,82.98109010011123
95111,Santa Clara County,CA,23.02558398220245
95112,Santa Clara County,CA,50.16685205784205
95116,Santa Clara County,CA,26.288468668891362
95117,Santa Clara County,CA,55.54319614386355
95120,Santa Clara County,CA,88.46866889136076
95123,Santa Clara County,CA,22.691879866518352
95127,Santa Clara County,CA,24.619948090470896
95128,Santa Clara County,CA,21.46829810901001
95132,Santa Clara County,CA,58.69484612532443
95205,San Joaquin County,CA,59.733036707452726
95206,San Joaquin County,CA,62.58806080830552
95231,San Joaquin County,CA,99.6662958843159
95240,San Joaquin County,CA,7.9718205413422325
95301,Merced County,CA,56.98924731182796
95307,Stanislaus County,CA,61.32740081572117
95322,Merced County,CA,86.16981831664813
95334,Merced County,CA,69.37337782721542
95337,San Joaquin County,CA,24.32332220986281
95340,Merced County,CA,63.62625139043382
95341,Merced County,CA,39.08045977011494
95358,Stanislaus County,CA,69.9666295884316
95360,Stanislaus County,CA,93.77085650723026
95363,Stanislaus County,CA,42.454579162031884
95367,Stanislaus County,CA,62.66221727845755
95370,Tuolumne County,CA,40.637745643307376
95380,Stanislaus County,CA,41.527623285131625
95382,Stanislaus County,CA,38.969225064886906
95391,San Joaquin County,CA,98.66518353726363
95403,Sonoma County,CA,80.7563959955506
95405,Sonoma County,CA,55.83982202447163
95437,Mendocino County,CA,77.12272895810159
95448,Sonoma County,CA,97.96069707081942
95464,Lake County,CA,99.03596588802372
95476,Sonoma County,CA,75.86206896551724
95482,Mendocino County,CA,49.31405265109381
95501,Humboldt County,CA,74.82387838338896
95540,Humboldt County,CA,66.0734149054505
95608,Sacramento County,CA,24.24916573971079
95610,Sacramento County,CA,89.65517241379311
95618,Yolo County,CA,94.10456062291435
95624,Sacramento County,CA,93.99332591768632
95630,Sacramento County,CA,40.748980348535405
95632,Sacramento County,CA,41.71301446051168
95640,Amador County,CA,99.88876529477196
95655,Sacramento County,CA,99.70337411939192
95660,Sacramento County,CA,90.0259547645532
95661,Placer County,CA,96.51464590285502
95662,Sacramento County,CA,47.868001483129405
95667,El Dorado County,CA,45.16129032258064
95677,Placer County,CA,97.55283648498332
95687,Solano County,CA,65.96218020022246
95695,Yolo County,CA,83.12940304041527
95742,Sacramento County,CA,81.94289951798295
95757,Sacramento County,CA,78.60585836114201
95758,Sacramento County,CA,82.4990730441231
95762,El Dorado County,CA,73.63737486095661
95817,Sacramento County,CA,61.69818316648128
95818,Sacramento County,CA,78.42046718576195
95820,Sacramento County,CA,33.25917686318131
95822,Sacramento County,CA,23.692992213570633
95823,Sacramento County,CA,5.969595847237671
95825,Sacramento County,CA,97.40452354467928
95826,Sacramento County,CA,95.0315164998146
95831,Sacramento County,CA,38.67259918427883
95835,Sacramento County,CA,97.25621060437524
95838,Sacramento County,CA,97.29328883945124
95843,Sacramento County,CA,79.94067482387838
95926,Butte County,CA,62.5139043381535
95928,Butte County,CA,62.4768261030775
95954,Butte County,CA,67.59362254356692
95961,Yuba County,CA,93.65962180200222
95963,Glenn County,CA,53.65220615498703
95973,Butte County,CA,71.15313311086392
95991,Sutter County,CA,16.61104931405265
96001,Shasta County,CA,11.345939933259176
96002,Shasta County,CA,64.6644419725621
96022,Tehama County,CA,62.031887282165364
96097,Siskiyou County,CA,96.88542825361512
80004,Jefferson County,CO,37.78272154245458
80010,Arapahoe County,CO,32.36929922135706
80012,Arapahoe County,CO,74.93511308861697
80015,Arapahoe County,CO,31.29403040415276
80017,Arapahoe County,CO,22.988505747126435
80033,Jefferson County,CO,31.88728216536893
80112,Arapahoe County,CO,35.520949202817945
80128,Jefferson County,CO,40.3781979977753
80138,Douglas County,CO,34.96477567667779
80204,Denver County,CO,11.7908787541713
80223,Denver County,CO,43.30737856878012
80224,Denver County,CO,43.45569150908417
80231,Denver County,CO,23.24805339265851
80239,Denver County,CO,13.644790507971821
80247,Arapahoe County,CO,51.39043381535039
80260,Adams County,CO,29.180571004820173
80501,Boulder County,CO,10.901001112347053
80538,Larimer County,CO,41.564701520207635
80549,Larimer County,CO,96.84835001853912
80631,Weld County,CO,4.115684093437152
80634,Weld County,CO,19.35483870967742
80651,Weld County,CO,92.62143121987393
80906,El Paso County,CO,68.85428253615127
80911,El Paso County,CO,24.990730441230998
80920,El Paso County,CO,77.71598071931776
80923,El Paso County,CO,42.23210975157583
81007,Pueblo County,CO,28.290693362995924
81212,Fremont County,CO,81.68335187245087
81401,Montrose County,CO,58.175750834260285
81501,Mesa County,CO,55.39488320355951
81504,Mesa County,CO,17.871709306637005
81521,Mesa County,CO,49.01742677048572
81601,Garfield County,CO,61.32740081572117
81611,Pitkin County,CO,93.47423062662217
81635,Garfield County,CO,80.57100482017056
81650,Garfield County,CO,59.807193177604745
06001,Hartford County,CT,61.438635520949205
06010,Hartford County,CT,17.018909899888765
06040,Hartford County,CT,37.96811271783463
06042,Hartford County,CT,80.60808305524657
06051,Hartford County,CT,43.196143863552095
06053,Hartford County,CT,5.413422321097515
06067,Hartford County,CT,73.5632183908046
06070,Hartford County,CT,88.98776418242491
06074,Hartford County,CT,64.21950315164999
06082,Hartford County,CT,73.78568780126066
06096,Hartford County,CT,61.92065257693734
06105,Hartford County,CT,36.447905079718204
06106,Hartford County,CT,12.717834631071561
06108,Hartford County,CT,43.233222098628104
06114,Hartford County,CT,71.89469781238414
06117,Hartford County,CT,76.0845383759733
06118,Hartford County,CT,92.99221357063404
06232,Tolland County,CT,98.47979236188358
06248,Tolland County,CT,92.1394141638858
06277,Windham County,CT,91.10122358175751
06413,Middlesex County,CT,68.37226548016314
06415,New London County,CT,36.336670374490176
06418,New Haven County,CT,49.53652206154987
06437,New Haven County,CT,43.38153503893214
06450,New Haven County,CT,2.4471635150166855
06451,New Haven County,CT,65.88802373007044
06457,Middlesex County,CT,3.5224323322209865
06460,New Haven County,CT,16.833518724508714
06479,Hartford County,CT,90.50797182054134
06484,Fairfield County,CT,21.023359288097886
06492,New Haven County,CT,11.457174638487208
06511,New Haven County,CT,2.0022246941045605
06516,New Haven County,CT,31.92436040044494
06519,New Haven County,CT,54.09714497589915
06604,Fairfield County,CT,10.456062291434929
06611,Fairfield County,CT,95.62476826103078
06615,Fairfield County,CT,32.07267334074898
06705,New Haven County,CT,88.09788654060067
06770,New Haven County,CT,38.450129773822766
06810,Fairfield County,CT,56.95216907675194
06811,Fairfield County,CT,28.513162773451985
06880,Fairfield County,CT,58.99147200593252
06902,Fairfield County,CT,82.90693362995921
19801,New Castle County,DE,23.39636633296255
19904,Kent County,DE,86.50352243233222
19939,Sussex County,DE,77.04857248794957
19950,Sussex County,DE,67.853170189099
19966,Sussex County,DE,13.348164627363737
19977,Kent County,DE,76.4553207267334
32055,Columbia County,FL,52.98479792361883
32060,Suwannee County,FL,34.89061920652577
32082,St. Johns County,FL,38.82091212458287
32086,St. Johns County,FL,26.065999258435298
32117,Volusia County,FL,46.125324434556916
32127,Volusia County,FL,41.4163885799036
32205,Duval County,FL,15.016685205784205
32206,Duval County,FL,51.46459028550241
32210,Duval County,FL,1.668520578420467
32216,Duval County,FL,9.862810530218761
32218,Duval County,FL,61.104931405265106
32221,Duval County,FL,69.41045606229143
32225,Duval County,FL,16.57397107897664
32244,Duval County,FL,80.3485354097145
32254,Duval County,FL,30.18168335187245
32277,Duval County,FL,63.62625139043382
32309,Leon County,FL,56.803856136447905
32504,Escambia County,FL,32.74008157211717
32605,Alachua County,FL,68.44642195031516
32609,Alachua County,FL,34.51983685576567
32617,Marion County,FL,99.18427882832778
32640,Putnam County,FL,40.118650352243236
32641,Alachua County,FL,14.238042269187986
32693,Gilchrist County,FL,48.38709677419355
32703,Orange County,FL,12.421208750463478
32724,Volusia County,FL,87.54171301446051
32810,Orange County,FL,66.7779013718947
32835,Orange County,FL,66.14757137560252
32836,Orange County,FL,95.88431590656285
32839,Orange County,FL,15.127919911012237
32901,Brevard County,FL,37.4860956618465
32926,Brevard County,FL,53.281423804226925
32955,Brevard County,FL,72.89581015943641
32958,Indian River County,FL,48.64664441972562
32962,Indian River County,FL,80.05190952910641
32967,Indian River County,FL,29.88505747126437
32968,Indian River County,FL,62.810530218761585
33012,Miami-Dade County,FL,27.289581015943643
33021,Broward County,FL,30.14460511679644
33027,Broward County,FL,24.21208750463478
33030,Miami-Dade County,FL,55.54319614386355
33056,Miami-Dade County,FL,24.2862439747868
33125,Miami-Dade County,FL,27.474972191323694
33126,Miami-Dade County,FL,48.49833147942158
33134,Miami-Dade County,FL,57.36002966258806
33145,Miami-Dade County,FL,68.52057842046719
33147,Miami-Dade County,FL,45.680385613644795
33154,Miami-Dade County,FL,94.51242120875047
33162,Miami-Dade County,FL,66.37004078605858
33165,Miami-Dade County,FL,41.119762699295514
33172,Miami-Dade County,FL,83.9451242120875
33177,Miami-Dade County,FL,55.28364849833148
33179,Miami-Dade County,FL,79.12495365220616
33185,Miami-Dade County,FL,61.179087875417125
33313,Broward County,FL,11.494252873563218
33317,Broward County,FL,91.95402298850574
33404,Palm Beach County,FL,22.469410456062292
33406,Palm Beach County,FL,58.843159065628484
33407,Palm Beach County,FL,17.167222840192807
33409,Palm Beach County,FL,71.56099369670004
33411,Palm Beach County,FL,23.24805339265851
33415,Palm Beach County,FL,26.028921023359285
33417,Palm Beach County,FL,39.15461624026697
33460,Palm Beach County,FL,28.772710418984055
33463,Palm Beach County,FL,31.47942157953281
33525,Pasco County,FL,50.16685205784205
33563,Hillsborough County,FL,58.361142009640346
33566,Hillsborough County,FL,39.67371153133111
33567,Hillsborough County,FL,93.5854653318502
33572,Hillsborough County,FL,84.056358917315535
33579,Hillsborough County,FL,52.24323322209863
33610,Hillsborough County,FL,7.267334074898035
33612,Hillsborough County,FL,65.77678902484242
33617,Hillsborough County,FL,19.948090470893582
33619,Hillsborough County,FL,63.47793845012978
33626,Hillsborough County,FL,57.767890248424166
33713,Pinellas County,FL,35.89173155357805
33813,Polk County,FL,41.601779755283644
33841,Polk County,FL,82.38783833889507
33843,Polk County,FL,81.49796069707081
33881,Polk County,FL,22.54356692621431
33884,Polk County,FL,40.3781979977753
33901,Lee County,FL,35.40971449758992
33908,Lee County,FL,40.971449758991476
33967,Lee County,FL,39.52539859102707
34108,Collier County,FL,74.37893956247683
34109,Collier County,FL,57.10048201705599
34116,Collier County,FL,30.21876158694846
34135,Lee County,FL,31.553578049684834
34142,Collier County,FL,84.72376714868372
34205,Manatee County,FL,20.02224694104561
34208,Manatee County,FL,56.50723025583982
34210,Manatee County,FL,70.55988134964775
34219,Manatee County,FL,37.708565072302555
34222,Manatee County,FL,95.95847237671487
34223,Sarasota County,FL,73.2295142751205
34232,Sarasota County,FL,57.730812013348164
34243,Manatee County,FL,40.86021505376344
34461,Citrus County,FL,85.91027067111605
34471,Marion County,FL,61.512791991101224
34473,Marion County,FL,58.65776789024842
34638,Pasco County,FL,74.3047830923248
34655,Pasco County,FL,45.90285502410085
34731,Lake County,FL,85.87319243604004
34736,Lake County,FL,54.80163144234334
34744,Osceola County,FL,15.276232851316276
34746,Osceola County,FL,84.24175009269558
34748,Lake County,FL,34.705228031145715
34761,Orange County,FL,24.026696329254726
34769,Osceola County,FL,28.735632183908045
34772,Osceola County,FL,47.27474972191324
34785,Sumter County,FL,95.21690767519466
34947,St. Lucie County,FL,35.81757508342603
34952,St. Lucie County,FL,39.302929180571006
34953,St. Lucie County,FL,14.46051167964405
34983,St. Lucie County,FL,12.087504634779386
34986,St. Lucie County,FL,31.145717463848722
30004,Fulton County,GA,25.435669262143122
30005,Fulton County,GA,49.165739710789765
30016,Newton County,GA,6.414534668149797
30022,Fulton County,GA,24.360400444938822
30030,DeKalb County,GA,28.25361512791991
30032,DeKalb County,GA,6.192065257693733
30041,Forsyth County,GA,67.92732665925102
30058,DeKalb County,GA,11.086392287727104
30066,Cobb County,GA,29.773822766036336
30071,Gwinnett County,GA,68.70596959584724
30093,Gwinnett County,GA,38.04226918798665
30106,Cobb County,GA,46.64441972562106
30115,Cherokee County,GA,23.692992213570633
30120,Bartow County,GA,10.938079347423063
30125,Polk County,GA,22.432332220986282
30144,Cobb County,GA,21.060437523173896
30188,Cherokee County,GA,12.013348164627363
30189,Cherokee County,GA,35.15016685205784
30214,Fayette County,GA,36.11420096403411
30248,Henry County,GA,94.9944382647386
30281,Henry County,GA,14.720059325176122
30316,DeKalb County,GA,35.595105672969964
30318,Fulton County,GA,16.35150166852058
30326,Fulton County,GA,91.32369299221357
30328,Fulton County,GA,46.90396737115313
30331,Fulton County,GA,9.084167593622544
30339,Cobb County,GA,56.39599555061179
30349,Fulton County,GA,18.909899888765295
30540,Gilmer County,GA,31.66481275491287
30542,Hall County,GA,34.22321097515758
30620,Barrow County,GA,50.94549499443827
30643,Hart County,GA,44.41972562106044
30701,Gordon County,GA,18.24249165739711
30721,Whitfield County,GA,13.459399332591767
30809,Columbia County,GA,64.44197256210605
30901,Richmond County,GA,74.00815721171672
31030,Peach County,GA,56.69262143121987
31061,Baldwin County,GA,17.055988134964775
31088,Houston County,GA,28.95810159436411
31206,Bibb County,GA,17.723396366332963
31216,Bibb County,GA,65.29477196885428
31313,Liberty County,GA,70.96774193548387
31329,Effingham County,GA,79.79236188357433
31405,Chatham County,GA,31.81312569521691
31406,Chatham County,GA,34.297367445309604
31407,Chatham County,GA,88.5799035965888
31719,Sumter County,GA,75.78791249536522
31750,Ben Hill County,GA,66.14757137560252
31768,Colquitt County,GA,19.317760474601407
31793,Tift County,GA,46.45902855024101
31907,Muscogee County,GA,19.095291064145346
96701,Honolulu County,HI,20.059325176121618
96706,Honolulu County,HI,39.22877271041899
96707,Honolulu County,HI,21.134593993325918
96732,Maui County,HI,59.32517612161661
96734,Honolulu County,HI,49.68483500185391
96744,Honolulu County,HI,50.055617352614014
96746,Kauai County,HI,46.236559139784944
96766,Kauai County,HI,49.83314794215795
96768,Maui County,HI,74.11939191694475
96782,Honolulu County,HI,21.839080459770116
96786,Honolulu County,HI,62.32851316277345
96793,Maui County,HI,57.87912495365221
96797,Honolulu County,HI,19.16944753429737
96815,Honolulu County,HI,31.331108639228773
96816,Honolulu County,HI,18.761586948461254
96817,Honolulu County,HI,60.993696700037084
83338,Jerome County,ID,87.94957360029663
83355,Gooding County,ID,96.1067853170189
83401,Bonneville County,ID,27.697441601779754
83605,Canyon County,ID,15.795328142380422
83616,Ada County,ID,58.99147200593252
83647,Elmore County,ID,27.21542454579162
83702,Ada County,ID,17.53800519095291
83713,Ada County,ID,79.45865776789024
83716,Ada County,ID,60.43752317389692
60004,Cook County,IL,14.052651093807937
60008,Cook County,IL,48.23878383388951
60010,Lake County,IL,23.655913978494624
60013,McHenry County,IL,38.450129773822766
60014,McHenry County,IL,13.904338153503893
60021,McHenry County,IL,92.47311827956989
60025,Cook County,IL,26.436781609195403
60026,Cook County,IL,75.89914720059325
60031,Lake County,IL,30.40415276232851
60035,Lake County,IL,55.69150908416759
60053,Cook County,IL,79.38450129773823
60062,Cook County,IL,23.878383388950684
60076,Cook County,IL,70.48572487949573
60085,Lake County,IL,9.232480533926585
60089,Lake County,IL,51.76121616611049
60102,McHenry County,IL,71.449758991472
60103,DuPage County,IL,16.4256581386726
60106,DuPage County,IL,43.01075268817204
60110,Kane County,IL,58.954393770856505
60120,Kane County,IL,15.721171672228401
60126,DuPage County,IL,4.85724879495736
60133,Cook County,IL,27.1412680756396
60134,Kane County,IL,27.363737486095662
60154,Cook County,IL,33.77827215424546
60177,Kane County,IL,39.52539859102707
60178,DeKalb County,IL,37.00407860585836
60185,DuPage County,IL,22.32109751575825
60188,DuPage County,IL,32.88839451242121
60191,DuPage County,IL,47.53429736744531
60193,Cook County,IL,23.61883574341861
60194,Cook County,IL,87.02261772339637
60406,Cook County,IL,35.89173155357805
60423,Will County,IL,52.76232851316277
60424,Grundy County,IL,99.44382647385984
60429,Cook County,IL,50.16685205784205
60435,Will County,IL,21.764923989618094
60436,Will County,IL,65.62847608453838
60438,Cook County,IL,27.549128661475713
60440,Will County,IL,10.567296996662959
60445,Cook County,IL,37.52317389692251
60450,Grundy County,IL,13.756025213199852
60458,Cook County,IL,83.79681127178347
60462,Cook County,IL,14.942528735632186
60467,Cook County,IL,33.14794215795328
60471,Cook County,IL,85.27994067482388
60475,Will County,IL,82.09121245828699
60477,Cook County,IL,40.78605858361142
60482,Cook County,IL,74.89803485354098
60491,Will County,IL,21.171672228401928
60502,DuPage County,IL,35.03893214682981
60504,DuPage County,IL,48.275862068965516
60505,Kane County,IL,44.30849091583241
60517,DuPage County,IL,24.10085279940675
60520,DeKalb County,IL,98.9247311827957
60521,DuPage County,IL,51.353355580274375
60544,Will County,IL,22.914349276974416
60563,DuPage County,IL,28.550241008527994
60565,DuPage County,IL,18.094178717093065
60586,Will County,IL,7.563959955506118
60612,Cook County,IL,9.825732295142751
60616,Cook County,IL,21.913236929922135
60619,Cook County,IL,2.7808676307007785
60620,Cook County,IL,17.24137931034483
60625,Cook County,IL,5.3392658509454956
60628,Cook County,IL,3.2628846866889134
60629,Cook County,IL,15.090841675936225
60638,Cook County,IL,4.708935854653318
60641,Cook County,IL,6.748238783833889
60643,Cook County,IL,35.483870967741936
60652,Cook County,IL,58.54653318502039
60655,Cook County,IL,16.907675194660733
60656,Cook County,IL,31.145717463848722
60659,Cook County,IL,29.92213570634038
60660,Cook County,IL,57.248794957360026
61073,Winnebago County,IL,45.56915090841676
61080,Winnebago County,IL,67.37115313311087
61264,Rock Island County,IL,96.66295884315906
61350,LaSalle County,IL,31.03448275862069
61354,LaSalle County,IL,75.63959955506118
61455,McDonough County,IL,92.21357063403782
61530,Woodford County,IL,91.91694475342975
61603,Peoria County,IL,46.49610678531702
61607,Peoria County,IL,63.32962550982574
61611,Tazewell County,IL,76.71486837226547
61614,Peoria County,IL,87.09677419354838
61764,Livingston County,IL,50.76010381905821
61801,Champaign County,IL,57.43418613274008
61820,Champaign County,IL,53.281423804226925
62040,Madison County,IL,10.82684464219503
62233,Randolph County,IL,87.5046347793845
62234,Madison County,IL,60.140897293288845
62301,Adams County,IL,20.170559881349647
62448,Jasper County,IL,77.56766777901372
62650,Morgan County,IL,62.031887282165364
62959,Williamson County,IL,25.509825732295145
46072,Tipton County,IN,59.43641082684464
46074,Hamilton County,IN,45.60622914349277
46106,Johnson County,IN,98.10901001112346
46107,Marion County,IN,41.045606229143495
46131,Johnson County,IN,17.945865776789024
46143,Johnson County,IN,13.051538746755654
46222,Marion County,IN,10.567296996662959
46224,Marion County,IN,18.35372636262514
46226,Marion County,IN,5.747126436781609
46227,Marion County,IN,4.6347793845012975
46229,Marion County,IN,38.41305153874676
46237,Marion County,IN,10.085279940674823
46241,Marion County,IN,34.631071560993696
46260,Marion County,IN,28.327771598071934
46268,Marion County,IN,27.623285131627735
46304,Porter County,IN,68.33518724508714
46307,Lake County,IN,16.53689284390063
46310,Jasper County,IN,35.03893214682981
46312,Lake County,IN,45.717463848720804
46320,Lake County,IN,20.541342232109752
46321,Lake County,IN,20.726733407489803
46322,Lake County,IN,13.830181683351872
46342,Lake County,IN,27.067111605487582
46360,LaPorte County,IN,73.08120133481646
46383,Porter County,IN,3.744901742677049
46392,Jasper County,IN,93.51130886169818
46514,Elkhart County,IN,17.27845754542084
46528,Elkhart County,IN,56.09936967000371
46530,St. Joseph County,IN,60.17797552836485
46545,St. Joseph County,IN,30.329996292176492
46706,DeKalb County,IN,28.401928068223953
46825,Allen County,IN,65.92510196514645
46902,Howard County,IN,10.64145346681498
46923,Carroll County,IN,63.2183908045977
46947,Cass County,IN,67.5194660734149
46996,Pulaski County,IN,59.288097886540605
47111,Clark County,IN,37.59733036707453
47117,Harrison County,IN,93.40007415647015
47130,Clark County,IN,4.746014089729329
47240,Decatur County,IN,45.93993325917686
47265,Jennings County,IN,12.829069336299593
47302,Delaware County,IN,9.67741935483871
47438,Greene County,IN,81.97997775305895
47601,Warrick County,IN,41.861327400815725
47711,Vanderburgh County,IN,16.054875787912497
47803,Vigo County,IN,41.787170930663706
47834,Clay County,IN,45.23544679273267
47906,Tippecanoe County,IN,37.11531331108639
50158,Marshall County,IA,40.229885057471265
50211,Warren County,IA,81.68335187245087
50266,Polk County,IA,58.9173155357805
50312,Polk County,IA,70.55988134964775
50315,Polk County,IA,4.412309974045235
50401,Cerro Gordo County,IA,5.784204671857619
50436,Winnebago County,IA,97.4786800148313
50441,Franklin County,IA,80.27437893956247
50501,Webster County,IA,13.941416388579903
50613,Black Hawk County,IA,72.8587319243604
50662,Fayette County,IA,73.2295142751205
50701,Black Hawk County,IA,62.21727845754542
51103,Woodbury County,IA,30.700778642936594
51104,Woodbury County,IA,28.2165368928439
51105,Woodbury County,IA,47.905079718205414
51106,Woodbury County,IA,72.30255839822024
51401,Carroll County,IA,66.88913607712273
51501,Pottawattamie County,IA,9.306637004078606
51503,Pottawattamie County,IA,4.226918798665183
52302,Linn County,IA,36.04004449388209
52349,Benton County,IA,53.65220615498703
52402,Linn County,IA,10.122358175750835
52404,Linn County,IA,4.338153503893214
52544,Appanoose County,IA,25.546903967371154
52577,Mahaska County,IA,65.25769373377828
52627,Lee County,IA,55.72858731924361
52722,Scott County,IA,61.7723396366333
52761,Muscatine County,IA,60.02966258806081
52803,Scott County,IA,20.763811642565813
52804,Scott County,IA,8.416759362254357
66006,Douglas County,KS,88.80237300704486
66047,Douglas County,KS,70.44864664441972
66061,Johnson County,KS,10.418984056358918
66064,Miami County,KS,75.89914720059325
66102,Wyandotte County,KS,33.852428624397476
66203,Johnson County,KS,62.40266963292548
66206,Johnson County,KS,99.07304412309973
66212,Johnson County,KS,37.89395624768261
66213,Johnson County,KS,89.91472005932518
66224,Johnson County,KS,78.45754542083797
66607,Shawnee County,KS,64.84983314794216
66609,Shawnee County,KS,83.42602892102336
67037,Sedgwick County,KS,74.15647015202076
67060,Sedgwick County,KS,83.12940304041527
67209,Sedgwick County,KS,83.83388950685948
67215,Sedgwick County,KS,98.03485354097144
67357,Labette County,KS,31.553578049684834
67432,Clay County,KS,84.57545420837968
67846,Finney County,KS,12.124582869855395
67871,Scott County,KS,45.53207267334075
40006,Trimble County,KY,82.20244716351502
40047,Bullitt County,KY,17.20430107526882
40219,Jefferson County,KY,6.3032999629217645
40220,Jefferson County,KY,22.877271041898407
40222,Jefferson County,KY,59.43641082684464
40291,Jefferson County,KY,66.81497960697071
40324,Scott County,KY,42.751205042639974
40515,Fayette County,KY,31.73896922506489
40517,Fayette County,KY,11.531331108639229
41015,Kenton County,KY,78.60585836114201
41017,Kenton County,KY,81.64627363737486
41018,Kenton County,KY,14.163885799035967
41041,Fleming County,KY,55.61735261401557
41042,Boone County,KY,48.01631442343344
41051,Kenton County,KY,65.40600667408232
41101,Boyd County,KY,66.70374490174268
41102,Boyd County,KY,35.74341861327401
41143,Carter County,KY,25.139043381535036
41240,Johnson County,KY,37.8568780126066
41701,Perry County,KY,18.50203930292918
42066,Graves County,KY,37.33778272154245
42141,Barren County,KY,24.545791620318873
42240,Christian County,KY,29.84797923618836
42431,Hopkins County,KY,37.300704486466444
42701,Hardin County,KY,71.19021134593993
70001,Jefferson Parish,LA,1.92806822395254
70002,Jefferson Parish,LA,29.180571004820173
70043,St. Bernard Parish,LA,78.04968483500186
70053,Jefferson Parish,LA,54.76455320726733
70056,Jefferson Parish,LA,76.23285131627735
70065,Jefferson Parish,LA,1.8168335187245088
70119,Orleans Parish,LA,64.293659621802007
70121,Jefferson Parish,LA,31.776047460140898
70122,Orleans Parish,LA,60.62291434927698
70131,Orleans Parish,LA,7.193177604746014
70301,Lafourche Parish,LA,0.778642936596218
70341,Assumption Parish,LA,99.51798294401186
70359,Terrebonne Parish,LA,18.205413422321097
70360,Terrebonne Parish,LA,5.302187615869484
70363,Terrebonne Parish,LA,10.975157582499072
70364,Terrebonne Parish,LA,3.596588802373007
70456,Tangipahoa Parish,LA,95.29106414534668
70466,Tangipahoa Parish,LA,34.48275862068966
70510,Vermilion Parish,LA,49.38820912124583
70601,Calcasieu Parish,LA,77.41935483870968
70605,Calcasieu Parish,LA,9.343715239154617
70634,Beauregard Parish,LA,55.20949202817946
70647,Calcasieu Parish,LA,27.808676307007786
70665,Calcasieu Parish,LA,47.79384501297738
70668,Calcasieu Parish,LA,98.14608824619948
70706,Livingston Parish,LA,45.45791620318873
70726,Livingston Parish,LA,5.672969966629588
70737,Ascension Parish,LA,3.077493511308862
70739,East Baton Rouge Parish,LA,56.91509084167594
70764,Iberville Parish,LA,20.096403411197628
70775,West Feliciana Parish,LA,84.79792361883575
70791,East Baton Rouge Parish,LA,6.933629959213941
70806,East Baton Rouge Parish,LA,54.02298850574713
70808,East Baton Rouge Parish,LA,70.11494252873564
70809,East Baton Rouge Parish,LA,35.446792732665926
70815,East Baton Rouge Parish,LA,45.05005561735261
70816,East Baton Rouge Parish,LA,87.356321839080465
70818,East Baton Rouge Parish,LA,88.61698183166482
71107,Caddo Parish,LA,1.2235817575083427
71112,Bossier Parish,LA,76.49239896180941
71202,Ouachita Parish,LA,53.9488320355951
71203,Ouachita Parish,LA,4.041527623285131
71220,Morehouse Parish,LA,47.71968854282536
71241,Union Parish,LA,38.70967741935484
03901,York County,ME,88.2461994809047
04032,Cumberland County,ME,67.853170189099
04038,Cumberland County,ME,36.00296625880608
04039,Cumberland County,ME,83.05524657026325
04062,Cumberland County,ME,63.99703374119392
04073,York County,ME,13.385242862439748
04074,Cumberland County,ME,47.1635150166852
04084,Cumberland County,ME,85.31701890989989
04090,York County,ME,97.1449758991472
04280,Androscoggin County,ME,97.8865406006674
04330,Kennebec County,ME,2.521319985168706
04412,Penobscot County,ME,81.79458657767891
04730,Aroostook County,ME,93.95624768261031
20601,Charles County,MD,48.09047089358546
20657,Calvert County,MD,89.17315535780497
20708,Prince George's County,MD,61.73526140155728
20711,Anne Arundel County,MD,76.30700778642937
20743,Prince George's County,MD,78.71709306637004
20748,Prince George's County,MD,27.17834631071561
20871,Montgomery County,MD,93.02929180571005
20874,Montgomery County,MD,56.803856136447905
20882,Montgomery County,MD,69.26214312198739
20902,Montgomery County,MD,83.98220244716352
21015,Harford County,MD,52.24323322209863
21017,Harford County,MD,99.6292176492399
21029,Howard County,MD,83.68557656655543
21040,Harford County,MD,91.28661475713756
21043,Howard County,MD,49.42528735632184
21044,Howard County,MD,31.145717463848722
21045,Howard County,MD,30.81201334816463
21075,Howard County,MD,83.09232480533927
21104,Carroll County,MD,92.76974416017798
21117,Baltimore County,MD,84.68668891360771
21122,Anne Arundel County,MD,3.819058212829069
21144,Anne Arundel County,MD,38.74675565443085
21146,Anne Arundel County,MD,49.165739710789765
21163,Howard County,MD,99.59213941416388
21206,Baltimore city,MD,40.934371523915466
21207,Baltimore County,MD,36.855765665554316
21214,Baltimore city,MD,67.1116054875788
21217,Baltimore city,MD,37.07823507601038
21222,Baltimore County,MD,71.52391546162403
21230,Baltimore city,MD,93.54838709677419
21234,Baltimore County,MD,8.268446421950316
21236,Baltimore County,MD,50.98257322951427
21239,Baltimore city,MD,19.42899517982944
21244,Baltimore County,MD,91.02706711160549
21769,Frederick County,MD,85.31701890989989
21770,Frederick County,MD,92.84390063033
21774,Frederick County,MD,95.99555061179088
21784,Carroll County,MD,36.52206154987023
21811,Worcester County,MD,38.26473859844272
01020,Hampden County,MA,1.7055988134964777
01062,Hampshire County,MA,54.43084909158324
01077,Hampden County,MA,49.05450500556173
01085,Hampden County,MA,82.01705598813497
01089,Hampden County,MA,11.308861698183167
01104,Hampden County,MA,50.018539117538005
01109,Hampden County,MA,3.6707452725250276
01129,Hampden County,MA,50.3522432332221
01331,Worcester County,MA,12.272895810159437
01376,Franklin County,MA,43.084909158324066
01505,Worcester County,MA,85.53948832035594
01581,Worcester County,MA,19.762699295513535
01603,Worcester County,MA,65.18353726362626
01604,Worcester County,MA,0.29662588060808304
01605,Worcester County,MA,13.014460511679642
01721,Middlesex County,MA,77.30812013348165
01746,Middlesex County,MA,11.197626992955136
01749,Middlesex County,MA,10.715609936967
01752,Middlesex County,MA,1.4089729328883944
01760,Middlesex County,MA,48.83203559510567
01775,Middlesex County,MA,94.6607341490545
01801,Middlesex County,MA,65.3318502039303
01810,Essex County,MA,42.5287356321839
01821,Middlesex County,MA,26.177233963663333
01824,Middlesex County,MA,46.978123841305155
01826,Middlesex County,MA,95.92139414163886
01835,Essex County,MA,18.724508713385244
01841,Essex County,MA,69.85539488320356
01843,Essex County,MA,79.68112717834632
01844,Essex County,MA,10.789766407119021
01845,Essex County,MA,41.601779755283644
01850,Middlesex County,MA,65.85094549499443
01854,Middlesex County,MA,25.287356321839084
01864,Middlesex County,MA,30.478309232480534
01867,Middlesex County,MA,57.61957730812013
01876,Middlesex County,MA,30.99740452354468
01880,Middlesex County,MA,17.130144605116797
01887,Middlesex County,MA,2.966258806080831
01902,Essex County,MA,0.07415647015202076
01905,Essex County,MA,0.5190952910641453
01913,Essex County,MA,39.377085650723025
01915,Essex County,MA,24.768261030774934
01930,Essex County,MA,32.25806451612903
01938,Essex County,MA,57.54542083796811
01960,Essex County,MA,0.25954764553207266
01970,Essex County,MA,3.114571746384872
02021,Norfolk County,MA,44.011865035224325
02048,Bristol County,MA,34.14905450500556
02062,Norfolk County,MA,69.78123841305154
02066,Plymouth County,MA,79.71820541342231
02072,Norfolk County,MA,4.1527623285131625
02081,Norfolk County,MA,52.131998516870595
02114,Suffolk County,MA,9.121245828698555
02115,Suffolk County,MA,2.817945865776789
02124,Suffolk County,MA,0
02126,Suffolk County,MA,0.14831294030404152
02128,Suffolk County,MA,5.153874675565443
02129,Suffolk County,MA,1.4831294030404154
02134,Suffolk County,MA,51.87245087133853
02135,Suffolk County,MA,35.37263626251391
02136,Suffolk County,MA,6.488691138301816
02139,Middlesex County,MA,0.03707823507601038
02148,Middlesex County,MA,32.70300333704116
02149,Middlesex County,MA,28.698553948832036
02150,Suffolk County,MA,12.347052280311457
02151,Suffolk County,MA,14.6459028550241
02176,Middlesex County,MA,3.4482758620689653
02180,Middlesex County,MA,24.842417500926956
02184,Norfolk County,MA,27.734519836855764
02188,Norfolk County,MA,91.24953652206155
02301,Plymouth County,MA,73.34074898034854
02339,Plymouth County,MA,84.94623655913979
02343,Norfolk County,MA,22.803114571746384
02346,Plymouth County,MA,22.395253985910273
02356,Bristol County,MA,87.57879124953652
02360,Plymouth County,MA,8.898776418242491
02370,Plymouth County,MA,7.304412309974046
02445,Norfolk County,MA,57.10048201705599
02453,Middlesex County,MA,84.90915832406377
02460,Middlesex County,MA,79.94067482387838
02476,Middlesex County,MA,84.83500185391175
02478,Middlesex County,MA,12.458286985539488
02639,Barnstable County,MA,73.37782721542455
02703,Bristol County,MA,0.37078235076010385
02720,Bristol County,MA,0.7415647015202077
02723,Bristol County,MA,0.8898776418242491
02726,Bristol County,MA,16.944753429736746
02766,Bristol County,MA,9.56618464961068
02771,Bristol County,MA,66.40711902113459
02780,Bristol County,MA,4.894327030033371
48003,Lapeer County,MI,98.77641824249166
48009,Oakland County,MI,33.62995921394142
48014,St. Clair County,MI,89.54393770856507
48023,St. Clair County,MI,80.86763070077865
48033,Oakland County,MI,24.805339265850947
48036,Macomb County,MI,15.943641082684465
48047,Macomb County,MI,6.970708194289951
48049,St. Clair County,MI,78.568780126066
48060,St. Clair County,MI,9.047089358546533
48066,Macomb County,MI,47.830923248053395
48076,Oakland County,MI,60.88246199480905
48080,Macomb County,MI,48.2017055988135
48083,Oakland County,MI,38.26473859844272
48092,Macomb County,MI,17.315535780496848
48093,Macomb County,MI,74.19354838709677
48101,Wayne County,MI,12.458286985539488
48103,Washtenaw County,MI,44.23433444568038
48111,Wayne County,MI,30.552465702632553
48120,Wayne County,MI,90.65628476084538
48124,Wayne County,MI,34.07489803485354
48126,Wayne County,MI,69.89247311827957
48127,Wayne County,MI,6.080830552465702
48133,Monroe County,MI,79.23618835743419
48135,Wayne County,MI,52.947719688542826
48141,Wayne County,MI,4.004449388209121
48150,Wayne County,MI,41.26807563959956
48154,Wayne County,MI,54.579162031887286
48160,Washtenaw County,MI,52.53985910270671
48169,Livingston County,MI,85.0574712643678
48174,Wayne County,MI,3.188728216536893
48180,Wayne County,MI,0.96403411197627
48183,Wayne County,MI,20.28179458657768
48185,Wayne County,MI,55.80274378939563
48188,Wayne County,MI,25.324434556915094
48195,Wayne County,MI,13.311086392287727
48197,Washtenaw County,MI,18.057100482017056
48203,Wayne County,MI,55.98813496477568
48209,Wayne County,MI,64.36781609195403
48210,Wayne County,MI,66.22172784575454
48212,Wayne County,MI,81.83166481275491
48219,Wayne County,MI,25.880608083055247
48223,Wayne County,MI,41.750092695587696
48230,Wayne County,MI,33.33333333333333
48234,Wayne County,MI,33.29625509825732
48235,Wayne County,MI,50.426399703374116
48236,Wayne County,MI,44.086021505376344
48240,Wayne County,MI,35.26140155728587
48306,Oakland County,MI,54.35669262143122
48309,Oakland County,MI,85.79903596588802
48310,Macomb County,MI,45.49499443826474
48317,Macomb County,MI,85.68780126066
48322,Oakland County,MI,53.800519095291065
48326,Oakland County,MI,73.89692250648869
48327,Oakland County,MI,61.14200964034112
48334,Oakland County,MI,75.49128661475713
48335,Oakland County,MI,81.3867259918428
48340,Oakland County,MI,21.764923989618094
48359,Oakland County,MI,43.86355209492028
48360,Oakland County,MI,52.206154987022614
48371,Oakland County,MI,49.2769744160178
48375,Oakland County,MI,32.8513162773452
48377,Oakland County,MI,71.00482017055988
48390,Oakland County,MI,23.099740452354467
48415,Saginaw County,MI,30.923248053392662
48430,Genesee County,MI,90.13718946978125
48439,Genesee County,MI,6.340378197997776
48446,Lapeer County,MI,7.3785687801260655
48455,Lapeer County,MI,94.2899517982944
48458,Genesee County,MI,81.12717834631071
48503,Genesee County,MI,9.492028179458657
48505,Genesee County,MI,59.25101965146459
48506,Genesee County,MI,13.60771227289581
48601,Saginaw County,MI,16.68520578420467
48602,Saginaw County,MI,1.5202076381164256
48603,Saginaw County,MI,5.8212829069336305
48604,Saginaw County,MI,37.44901742677049
48609,Saginaw County,MI,25.213199851687058
48612,Gladwin County,MI,42.12087504634779
48642,Midland County,MI,10.048201705598814
48732,Bay County,MI,61.846496106785324
48848,Shiawassee County,MI,92.1394141638858
48854,Ingham County,MI,59.62180200222469
48875,Ionia County,MI,92.65850945494995
48895,Ingham County,MI,63.144234334445684
48906,Ingham County,MI,6.266221727845754
48910,Ingham County,MI,24.17500926955877
48911,Ingham County,MI,2.8921023359288096
49006,Kalamazoo County,MI,32.18390804597701
49008,Kalamazoo County,MI,44.71635150166852
49010,Allegan County,MI,26.548016314423435
49015,Calhoun County,MI,8.453837597330367
49017,Calhoun County,MI,17.42677048572488
49021,Eaton County,MI,64.6644419725621
49036,Branch County,MI,16.4256581386726
49045,Van Buren County,MI,57.61957730812013
49047,Cass County,MI,33.9265850945495
49057,Van Buren County,MI,93.14052651093809
49068,Calhoun County,MI,37.671486837226546
49127,Berrien County,MI,82.16536892843901
49201,Jackson County,MI,19.836855765665554
49221,Lenawee County,MI,23.35928809788654
49250,Hillsdale County,MI,58.361142009640346
49302,Kent County,MI,76.90025954764553
49319,Kent County,MI,43.01075268817204
49348,Allegan County,MI,61.512791991101224
49417,Ottawa County,MI,58.80608083055247
49420,Oceana County,MI,51.68705969595847
49424,Ottawa County,MI,28.105302187615873
49426,Ottawa County,MI,52.02076381164257
49442,Muskegon County,MI,9.529106414534668
49450,Allegan County,MI,96.403411197627
49451,Muskegon County,MI,82.64738598442715
49457,Muskegon County,MI,51.83537263626251
49464,Ottawa County,MI,86.39228772710419
49504,Kent County,MI,7.341490545050055
49506,Kent County,MI,13.718946978123842
49507,Kent County,MI,2.1505376344086025
49508,Kent County,MI,2.4100852799406747
49509,Kent County,MI,6.5999258435298485
49631,Osceola County,MI,51.01965146459029
49651,Missaukee County,MI,86.61475713756025
49684,Grand Traverse County,MI,64.10826844642195
49735,Otsego County,MI,19.20652576937338
49740,Emmet County,MI,98.5539488320356
49783,Chippewa County,MI,50.46347793845013
49829,Delta County,MI,19.688542825361512
49837,Delta County,MI,34.631071560993696
49855,Marquette County,MI,27.289581015943643
55009,Goodhue County,MN,51.31627734519837
55057,Rice County,MN,50.09269558769003
55082,Washington County,MN,19.985168705969595
55104,Ramsey County,MN,27.99406748238784
55106,Ramsey County,MN,30.292918057100483
55109,Ramsey County,MN,56.17352614015573
55112,Ramsey County,MN,24.582869855394883
55113,Ramsey County,MN,57.47126436781609
55117,Ramsey County,MN,8.194289951798295
55124,Dakota County,MN,23.32220986281053
55130,Ramsey County,MN,72.37671486837226
55306,Dakota County,MN,72.41379310344827
55311,Hennepin County,MN,41.787170930663706
55328,Wright County,MN,78.04968483500186
55336,McLeod County,MN,95.43937708565072
55337,Dakota County,MN,77.97552836484984
55343,Hennepin County,MN,69.6700037078235
55344,Hennepin County,MN,76.78902484241749
55350,McLeod County,MN,91.87986651835372
55358,Wright County,MN,96.29217649239897
55371,Mille Lacs County,MN,89.06192065257694
55379,Scott County,MN,40.56358917315536
55406,Hennepin County,MN,38.82091212458287
55407,Hennepin County,MN,29.14349276974416
55408,Hennepin County,MN,39.71078976640712
55419,Hennepin County,MN,56.58138672599185
55421,Anoka County,MN,87.1338524286244
55424,Hennepin County,MN,87.91249536522061
55425,Hennepin County,MN,93.43715239154616
55429,Hennepin County,MN,52.79940674823879
55430,Hennepin County,MN,31.96143863552095
55433,Anoka County,MN,20.837968112717835
55434,Anoka County,MN,69.59584723767148
55443,Hennepin County,MN,18.39080459770115
55734,St. Louis County,MN,78.79124953652206
55792,St. Louis County,MN,21.28290693362996
55805,St. Louis County,MN,27.586206896551722
55904,Olmsted County,MN,21.39414163885799
55947,Houston County,MN,62.810530218761585
55987,Winona County,MN,3.9302929180571002
56031,Martin County,MN,56.61846496106785
56175,Lyon County,MN,83.68557656655543
56265,Chippewa County,MN,87.80126065999258
56301,Stearns County,MN,26.696329254727473
56308,Douglas County,MN,15.313311086392286
56353,Mille Lacs County,MN,68.70596959584724
56359,Mille Lacs County,MN,90.32258064516128
56479,Todd County,MN,82.75862068965517
56520,Wilkin County,MN,56.803856136447905
56560,Clay County,MN,16.017797552836484
56701,Pennington County,MN,33.5558027437894
56721,Polk County,MN,35.81757508342603
38632,DeSoto County,MS,32.22098628105302
38701,Washington County,MS,89.46978123841305
38863,Pontotoc County,MS,45.42083796811272
38941,Leflore County,MS,93.17760474601408
39150,Claiborne County,MS,89.21023359288098
39180,Warren County,MS,69.18798665183537
39350,Neshoba County,MS,14.794215795328142
39452,George County,MS,55.91397849462365
39503,Harrison County,MS,5.005561735261402
39532,Harrison County,MS,26.622172784575454
39645,Amite County,MS,76.64071190211345
39773,Clay County,MS,46.64441972562106
63040,St. Louis County,MO,89.54393770856507
63088,St. Louis County,MO,82.61030774935114
63090,Franklin County,MO,97.21913236929922
63106,St. Louis city,MO,56.729699666295886
63110,St. Louis city,MO,61.47571375602522
63129,St. Louis County,MO,87.39340007415647
63132,St. Louis County,MO,62.736373748609566
63136,St. Louis County,MO,69.70708194289952
63138,St. Louis County,MO,74.08231368186874
63376,St. Charles County,MO,4.78309232480534
63385,St. Charles County,MO,29.477196885428253
63701,Cape Girardeau County,MO,23.470522803114573
64015,Jackson County,MO,6.525769373377827
64055,Jackson County,MO,3.4853540971449757
64063,Jackson County,MO,66.29588431590656
64064,Jackson County,MO,33.9265850945495
64081,Jackson County,MO,28.587319243604004
64082,Jackson County,MO,50.09269558769003
64086,Jackson County,MO,47.12643678160919
64089,Clay County,MO,74.86095661846495
64106,Jackson County,MO,16.054875787912497
64109,Jackson County,MO,42.04671857619577
64119,Clay County,MO,5.079718205413422
64123,Jackson County,MO,54.39377085650723
64124,Jackson County,MO,85.83611420096403
64132,Jackson County,MO,7.786429365962181
64155,Clay County,MO,12.309974045235448
64503,Buchanan County,MO,14.423433444568037
64804,Jasper County,MO,8.78754171301446
65301,Pettis County,MO,23.43344456803856
65337,Pettis County,MO,93.2517612161661
65340,Saline County,MO,20.61549870226177
65738,Greene County,MO,70.89358546533185
68005,Sarpy County,NE,43.82647385984427
68046,Sarpy County,NE,71.30144605116796
68107,Douglas County,NE,32.96255098257323
68114,Douglas County,NE,59.95550611790878
68116,Douglas County,NE,93.36299592139414
68123,Sarpy County,NE,45.08713385242862
68124,Douglas County,NE,80.42269187986652
68130,Douglas County,NE,65.51724137931035
68134,Douglas County,NE,65.10938079347423
68135,Douglas County,NE,85.16870596959585
68144,Douglas County,NE,94.92028179458659
68147,Sarpy County,NE,75.63959955506118
68154,Douglas County,NE,90.87875417130145
68310,Gage County,NE,95.62476826103078
68503,Lancaster County,NE,54.245457916203186
68504,Lancaster County,NE,59.77011494252874
68506,Lancaster County,NE,55.46903967371153
68516,Lancaster County,NE,82.64738598442715
68801,Hall County,NE,85.3911753800519
89106,Clark County,NV,29.9962921764924
89107,Clark County,NV,33.59288097886541
89108,Clark County,NV,36.373748609566185
89117,Clark County,NV,20.096403411197628
89130,Clark County,NV,36.15127919911012
89142,Clark County,NV,45.97701149425287
89148,Clark County,NV,28.47608453837597
89431,Washoe County,NV,11.568409343715238
89436,Washoe County,NV,12.384130515387467
89506,Washoe County,NV,9.71449758991472
89511,Washoe County,NV,43.67816091954023
89706,Carson City,NV,42.00964034111976
03033,Hillsborough County,NH,75.60252131998517
03038,Rockingham County,NH,62.10604375231738
03053,Rockingham County,NH,15.350389321468297
03055,Hillsborough County,NH,29.32888394512421
03062,Hillsborough County,NH,9.417871709306636
03063,Hillsborough County,NH,26.992955135335556
03079,Rockingham County,NH,7.82350760103819
03264,Grafton County,NH,93.62254356692623
03301,Merrimack County,NH,8.60215053763441
03811,Rockingham County,NH,84.056358917315535
03858,Rockingham County,NH,86.57767890248425
03861,Strafford County,NH,98.33147942157953
03873,Rockingham County,NH,94.03040415276233
07002,Hudson County,NJ,21.39414163885799
07016,Union County,NJ,87.87541713014461
07017,Essex County,NJ,17.834631071560995
07018,Essex County,NJ,40.266963292547274
07024,Bergen County,NJ,19.911012235817573
07029,Hudson County,NJ,39.265850945494996
07032,Hudson County,NJ,11.197626992955136
07034,Morris County,NJ,56.24768261030775
07045,Morris County,NJ,49.573600296625884
07050,Essex County,NJ,22.803114571746384
07052,Essex County,NJ,7.71227289581016
07055,Passaic County,NJ,0.44493882091212456
07057,Bergen County,NJ,64.51612903225806
07060,Union County,NJ,2.92918057100482
07063,Union County,NJ,99.2955135335558
07067,Middlesex County,NJ,77.67890248424175
07083,Union County,NJ,8.045977011494253
07087,Hudson County,NJ,1.3348164627363739
07093,Hudson County,NJ,29.625509825732294
07104,Essex County,NJ,2.3730070448646643
07106,Essex County,NJ,2.0393029291805713
07107,Essex County,NJ,12.754912866147572
07108,Essex County,NJ,0.5932517612161661
07109,Essex County,NJ,70.0037078235076
07110,Essex County,NJ,55.28364849833148
07201,Union County,NJ,3.337041156840934
07206,Union County,NJ,3.8932146829810903
07305,Hudson County,NJ,2.1134593993325916
07306,Hudson County,NJ,2.1876158694846124
07307,Hudson County,NJ,5.3392658509454956
07401,Bergen County,NJ,99.48090470893585
07405,Morris County,NJ,63.62625139043382
07438,Morris County,NJ,71.04189840563589
07440,Morris County,NJ,99.33259176863181
07442,Passaic County,NJ,74.6384872080089
07501,Passaic County,NJ,0.6303299962921765
07502,Passaic County,NJ,48.35001853911754
07508,Passaic County,NJ,80.01483129403042
07512,Passaic County,NJ,94.43826473859845
07601,Bergen County,NJ,2.632554690396737
07621,Bergen County,NJ,38.079347423062664
07624,Bergen County,NJ,98.03485354097144
07628,Bergen County,NJ,67.4823878383389
07646,Bergen County,NJ,43.45569150908417
07675,Bergen County,NJ,88.13496477567668
07712,Monmouth County,NJ,20.24471635150167
07724,Monmouth County,NJ,96.8112717834631
07740,Monmouth County,NJ,3.040415276232851
07746,Monmouth County,NJ,59.10270671116054
07757,Monmouth County,NJ,90.21134593993327
07764,Monmouth County,NJ,94.54949944382648
07801,Morris County,NJ,33.37041156840934
07930,Morris County,NJ,99.92584352984798
07960,Morris County,NJ,9.899888765294772
08002,Camden County,NJ,51.649981460882465
08003,Camden County,NJ,14.497589914720061
08021,Camden County,NJ,0.11123470522803114
08030,Camden County,NJ,11.67964404894327
08037,Atlantic County,NJ,28.95810159436411
08052,Burlington County,NJ,15.75824990730441
08053,Burlington County,NJ,39.19169447534298
08078,Camden County,NJ,89.43270300333704
08080,Gloucester County,NJ,23.2109751575825
08081,Camden County,NJ,51.242120875046346
08094,Gloucester County,NJ,2.743789395624768
08105,Camden County,NJ,0.4078605858361142
08203,Atlantic County,NJ,95.55061179087876
08230,Cape May County,NJ,97.77530589543937
08234,Atlantic County,NJ,11.049314052651093
08260,Cape May County,NJ,60.215053763440864
08302,Cumberland County,NJ,21.357063403781982
08322,Gloucester County,NJ,36.299592139414166
08330,Atlantic County,NJ,16.203188728216535
08332,Cumberland County,NJ,11.976269929551353
08360,Cumberland County,NJ,30.515387467556543
08401,Atlantic County,NJ,22.32109751575825
08520,Mercer County,NJ,95.73600296625881
08527,Ocean County,NJ,4.523544679273266
08536,Middlesex County,NJ,87.83833889506859
08610,Mercer County,NJ,3.4111976269929554
08618,Mercer County,NJ,0.33370411568409347
08638,Mercer County,NJ,24.43455691509084
08701,Ocean County,NJ,1.1865035224323321
08734,Ocean County,NJ,97.99777530589544
08753,Ocean County,NJ,0.8157211716722284
08805,Somerset County,NJ,64.40489432703004
08816,Middlesex County,NJ,47.42306266221728
08837,Middlesex County,NJ,42.93659621802002
08850,Middlesex County,NJ,90.21134593993327
08857,Middlesex County,NJ,33.37041156840934
08861,Middlesex County,NJ,14.015572858731925
08863,Middlesex County,NJ,83.31479421579533
08876,Somerset County,NJ,33.11086392287727
08884,Middlesex County,NJ,68.11271783463107
08901,Middlesex County,NJ,84.50129773822766
87004,Sandoval County,NM,76.60363366703746
87026,Valencia County,NM,91.58324063774565
87105,Bernalillo County,NM,1.5943641082684465
87108,Bernalillo County,NM,2.8550241008527997
87109,Bernalillo County,NM,47.052280311457174
87121,Bernalillo County,NM,1.8909899888765296
87124,Sandoval County,NM,5.450500556173527
87327,Cibola County,NM,72.22840192806822
87401,San Juan County,NM,8.82461994809047
87413,San Juan County,NM,33.66703744901743
87416,San Juan County,NM,89.32146829810901
87417,San Juan County,NM,86.72599184278829
87420,San Juan County,NM,17.46384872080089
87532,Santa Fe County,NM,50.76010381905821
87571,Taos County,NM,76.30700778642937
87701,San Miguel County,NM,31.66481275491287
88005,Doa Ana County,NM,25.917686318131256
88011,Doa Ana County,NM,61.846496106785324
88203,Chaves County,NM,10.233592880978867
88240,Lea County,NM,2.5954764553207266
88242,Lea County,NM,79.2732665925102
88260,Lea County,NM,66.92621431219874
10011,New York County,NY,50.61179087875417
10026,New York County,NY,65.77678902484242
10029,New York County,NY,0.18539117538005193
10031,New York County,NY,34.40860215053764
10032,New York County,NY,70.52280311457174
10034,New York County,NY,46.0511679644049
10039,New York County,NY,17.797552836484982
10040,New York County,NY,19.021134593993324
10302,Richmond County,NY,56.24768261030775
10306,Richmond County,NY,10.011123470522804
10452,Bronx County,NY,22.098628105302186
10453,Bronx County,NY,22.766036336670375
10454,Bronx County,NY,15.684093437152391
10455,Bronx County,NY,11.420096403411199
10456,Bronx County,NY,34.22321097515758
10457,Bronx County,NY,0.22246941045606228
10458,Bronx County,NY,18.946978123841305
10460,Bronx County,NY,34.77938450129774
10461,Bronx County,NY,51.53874675565443
10462,Bronx County,NY,41.19391916944753
10467,Bronx County,NY,13.162773451983686
10468,Bronx County,NY,48.38709677419355
10469,Bronx County,NY,1.371894697812384
10472,Bronx County,NY,17.61216166110493
10473,Bronx County,NY,11.939191694475342
10528,Westchester County,NY,80.05190952910641
10541,Putnam County,NY,96.0697070819429
10566,Westchester County,NY,37.52317389692251
10701,Westchester County,NY,14.126807563959956
10801,Westchester County,NY,45.19836855765666
10977,Rockland County,NY,18.53911753800519
10990,Orange County,NY,75.63959955506118
11102,Queens County,NY,29.32888394512421
11106,Queens County,NY,86.28105302187616
11206,Kings County,NY,18.687430478309235
11207,Kings County,NY,12.940304041527623
11208,Kings County,NY,25.621060437523173
11210,Kings County,NY,25.991842788283275
11212,Kings County,NY,65.3689284390063
11213,Kings County,NY,13.274008157211718
11215,Kings County,NY,77.71598071931776
11218,Kings County,NY,8.565072302558399
11219,Kings County,NY,68.96551724137932
11220,Kings County,NY,41.37931034482759
11221,Kings County,NY,8.63922877271042
11226,Kings County,NY,78.68001483129403
11228,Kings County,NY,67.66777901371894
11229,Kings County,NY,15.239154616240267
11230,Kings County,NY,75.82499073044123
11233,Kings County,NY,40.82313681868743
11234,Kings County,NY,10.493140526510938
11236,Kings County,NY,1.6314423433444567
11237,Kings County,NY,13.199851687059697
11354,Queens County,NY,29.55135335558027
11355,Queens County,NY,57.322951427512045
11356,Queens County,NY,88.43159065628477
11358,Queens County,NY,86.61475713756025
11365,Queens County,NY,31.405265109380792
11368,Queens County,NY,84.42714126807564
11369,Queens County,NY,63.95995550611791
11372,Queens County,NY,43.270300333704114
11373,Queens County,NY,54.69039673711531
11377,Queens County,NY,30.329996292176492
11378,Queens County,NY,80.7193177604746
11385,Queens County,NY,20.57842046718576
11419,Queens County,NY,75.3058954393771
11422,Queens County,NY,83.9080459770115
11423,Queens County,NY,32.96255098257323
11429,Queens County,NY,75.26881720430107
11432,Queens County,NY,93.73377827215424
11434,Queens County,NY,69.81831664812755
11435,Queens County,NY,80.53392658509455
11436,Queens County,NY,73.97107897664071
11550,Nassau County,NY,59.881349647756764
11580,Nassau County,NY,39.52539859102707
11590,Nassau County,NY,93.88209121245829
11596,Nassau County,NY,98.18316648127549
11691,Queens County,NY,3.967371153133111
11706,Suffolk County,NY,36.818687430478306
11713,Suffolk County,NY,86.20689655172413
11757,Suffolk County,NY,25.621060437523173
11787,Suffolk County,NY,67.37115313311087
11901,Suffolk County,NY,32.146829810901004
12018,Rensselaer County,NY,67.5194660734149
12047,Albany County,NY,16.277345198368558
12180,Rensselaer County,NY,7.230255839822025
12208,Albany County,NY,69.26214312198739
12210,Albany County,NY,97.10789766407119
12303,Schenectady County,NY,22.728958101594365
12309,Schenectady County,NY,75.75083426028921
12586,Orange County,NY,81.53503893214683
12801,Warren County,NY,10.381905821282906
12822,Saratoga County,NY,55.13533555802744
12833,Saratoga County,NY,90.06303299962923
12839,Washington County,NY,15.38746755654431
12919,Clinton County,NY,79.01371894697813
12956,Essex County,NY,98.33147942157953
12983,Franklin County,NY,88.69113830181684
13021,Cayuga County,NY,1.4460511679644048
13027,Onondaga County,NY,6.822395253985911
13066,Onondaga County,NY,47.46014089729329
13069,Oswego County,NY,13.793103448275861
13084,Onondaga County,NY,86.4293659621802
13090,Onondaga County,NY,8.083055246570263
13114,Oswego County,NY,40.192806822395255
13126,Oswego County,NY,1.557285873192436
13203,Onondaga County,NY,73.85984427141268
13204,Onondaga County,NY,51.16796440489433
13206,Onondaga County,NY,13.5706340378198
13309,Oneida County,NY,47.64553207267334
13316,Oneida County,NY,93.9191694475343
13332,Madison County,NY,71.56099369670004
13357,Herkimer County,NY,63.51501668520578
13409,Madison County,NY,85.02039302929181
13440,Oneida County,NY,0.6674082313681869
13601,Jefferson County,NY,11.642565813867261
13625,St. Lawrence County,NY,98.99888765294772
13661,Jefferson County,NY,99.77753058954394
13676,St. Lawrence County,NY,44.97589914720059
13753,Delaware County,NY,45.346681497960695
13760,Broome County,NY,73.11827956989248
13815,Chenango County,NY,7.007786429365963
14020,Genesee County,NY,60.77122728958102
14043,Erie County,NY,61.66110493140526
14048,Chautauqua County,NY,91.84278828327773
14054,Genesee County,NY,97.73822766036336
14075,Erie County,NY,85.42825361512793
14086,Erie County,NY,49.75899147200593
14094,Niagara County,NY,36.59621802002225
14098,Orleans County,NY,76.90025954764553
14108,Niagara County,NY,37.745643307378565
14204,Erie County,NY,82.46199480904708
14207,Erie County,NY,44.456803856136446
14211,Erie County,NY,45.79162031887282
14213,Erie County,NY,32.81423804226919
14215,Erie County,NY,5.932517612161662
14217,Erie County,NY,14.275120504263997
14220,Erie County,NY,69.15090841675936
14223,Erie County,NY,15.980719317760474
14224,Erie County,NY,2.2988505747126435
14225,Erie County,NY,4.263997033741194
14304,Niagara County,NY,59.17686318131257
14420,Monroe County,NY,44.864664441972565
14425,Ontario County,NY,46.64441972562106
14437,Livingston County,NY,26.696329254727473
14450,Monroe County,NY,71.70930663700408
14467,Monroe County,NY,65.7026325546904
14468,Monroe County,NY,47.015202076381165
14472,Monroe County,NY,30.03337041156841
14487,Livingston County,NY,57.91620318872822
14502,Wayne County,NY,57.17463848720801
14514,Monroe County,NY,47.34890619206526
14519,Wayne County,NY,12.235817575083425
14534,Monroe County,NY,29.92213570634038
14551,Wayne County,NY,30.589543937708562
14580,Monroe County,NY,16.38857990359659
14591,Wyoming County,NY,87.1709306637004
14605,Monroe County,NY,4.486466444197256
14606,Monroe County,NY,1.1123470522803114
14608,Monroe County,NY,24.916573971078975
14609,Monroe County,NY,19.614386355209493
14610,Monroe County,NY,17.093066370040784
14612,Monroe County,NY,7.119021134593993
14613,Monroe County,NY,40.04449388209122
14616,Monroe County,NY,9.158324063774565
14617,Monroe County,NY,2.7067111605487577
14618,Monroe County,NY,8.305524657026325
14619,Monroe County,NY,43.52984797923619
14620,Monroe County,NY,2.4842417500926954
14621,Monroe County,NY,2.3359288097886544
14622,Monroe County,NY,37.81979977753059
14624,Monroe County,NY,8.120133481646272
14626,Monroe County,NY,1.2977382276603633
14706,Cattaraugus County,NY,38.561364479050795
14712,Chautauqua County,NY,90.39673711531331
14735,Allegany County,NY,99.74045235446792
14775,Chautauqua County,NY,90.54505005561735
14787,Chautauqua County,NY,94.69781238413051
14891,Schuyler County,NY,53.57804968483501
27107,Forsyth County,NC,11.123470522803114
27203,Randolph County,NC,14.868372265480161
27214,Guilford County,NC,64.51612903225806
27217,Alamance County,NC,6.451612903225806
27249,Guilford County,NC,82.4990730441231
27260,Guilford County,NC,36.96700037078235
27263,Randolph County,NC,26.955876900259547
27284,Forsyth County,NC,3.0033370411568407
27292,Davidson County,NC,1.9651464590285501
27295,Davidson County,NC,10.530218761586948
27301,Guilford County,NC,50.31516499814609
27302,Alamance County,NC,59.32517612161661
27349,Alamance County,NC,61.80941787170931
27377,Guilford County,NC,80.86763070077865
27406,Guilford County,NC,1.7797552836484982
27407,Guilford County,NC,81.0901001112347
27513,Wake County,NC,41.601779755283644
27514,Orange County,NC,39.859102706711155
27525,Franklin County,NC,37.96811271783463
27526,Wake County,NC,15.127919911012237
27539,Wake County,NC,39.93325917686318
27549,Franklin County,NC,12.161661104931405
27565,Granville County,NC,12.198739340007416
27573,Person County,NC,94.47534297367444
27587,Wake County,NC,11.71672228401928
27589,Warren County,NC,90.76751946607341
27592,Wake County,NC,92.28772710418984
27603,Wake County,NC,11.865035224323323
27604,Wake County,NC,45.754542083796814
27606,Wake County,NC,29.06933629959214
27609,Wake County,NC,20.949202817945867
27616,Wake County,NC,70.07786429365962
27704,Durham County,NC,39.93325917686318
27909,Pasquotank County,NC,53.39265850945495
27983,Bertie County,NC,34.92769744160178
28012,Gaston County,NC,42.714126807563964
28078,Mecklenburg County,NC,18.46496106785317
28080,Lincoln County,NC,83.42602892102336
28083,Cabarrus County,NC,69.03967371153134
28086,Cleveland County,NC,54.98702261772339
28105,Mecklenburg County,NC,88.91360771227289
28110,Union County,NC,36.67037449017427
28115,Iredell County,NC,11.383018168335187
28120,Gaston County,NC,65.03522432332221
28150,Cleveland County,NC,63.07007786429366
28164,Gaston County,NC,60.47460140897293
28205,Mecklenburg County,NC,69.00259547645533
28206,Mecklenburg County,NC,67.18576195773082
28208,Mecklenburg County,NC,20.318872821653688
28210,Mecklenburg County,NC,34.44568038561365
75036,NA,NA,84.24175009269558
28212,Mecklenburg County,NC,39.00630329996292
28214,Mecklenburg County,NC,42.56581386725992
28215,Mecklenburg County,NC,28.142380422691883
28226,Mecklenburg County,NC,34.11197626992955
28227,Mecklenburg County,NC,78.30923248053394
28269,Mecklenburg County,NC,68.81720430107528
28273,Mecklenburg County,NC,77.38227660363367
28277,Mecklenburg County,NC,52.91064145346681
28278,Mecklenburg County,NC,40.971449758991476
28301,Cumberland County,NC,94.6236559139785
28311,Cumberland County,NC,54.83870967741935
28312,Cumberland County,NC,70.22617723396365
28333,Wayne County,NC,43.86355209492028
28334,Sampson County,NC,83.20355951056729
28360,Robeson County,NC,59.58472376714868
28365,Wayne County,NC,42.862439747868
28376,Hoke County,NC,17.5009269558769
28379,Richmond County,NC,8.342602892102335
28411,New Hanover County,NC,21.579532814238043
28463,Columbus County,NC,52.35446792732667
28501,Lenoir County,NC,26.399703374119394
28546,Onslow County,NC,73.1924360400445
28551,Lenoir County,NC,41.861327400815725
28560,Craven County,NC,68.59473489061921
28601,Catawba County,NC,43.41861327400815
28713,Swain County,NC,76.38116425658139
28726,Henderson County,NC,97.58991472005933
28734,Macon County,NC,71.412680756396
28752,McDowell County,NC,7.934742306266222
28791,Henderson County,NC,58.73192436040044
58075,Richland County,ND,68.26103077493512
58103,Cass County,ND,16.870596959584724
58701,Ward County,ND,4.968483500185391
58703,Ward County,ND,53.98591027067111
58784,Mountrail County,ND,95.77308120133482
43004,Franklin County,OH,82.05413422321098
43015,Delaware County,OH,85.50241008527995
43016,Franklin County,OH,79.12495365220616
43017,Franklin County,OH,67.96440489432703
43021,Delaware County,OH,73.63737486095661
43055,Licking County,OH,32.48053392658509
43119,Franklin County,OH,64.96106785317018
43123,Franklin County,OH,52.31738969225065
43125,Franklin County,OH,51.94660734149055
43138,Hocking County,OH,17.315535780496848
43147,Fairfield County,OH,38.2276603633667
43207,Franklin County,OH,5.635891731553578
43219,Franklin County,OH,7.71227289581016
43224,Franklin County,OH,70.41156840934372
43228,Franklin County,OH,20.986281053021877
43229,Franklin County,OH,2.6696329254727478
43230,Franklin County,OH,45.346681497960695
43231,Franklin County,OH,28.179458657767892
43302,Marion County,OH,17.686318131256954
43311,Logan County,OH,17.38969225064887
43316,Wyandot County,OH,61.512791991101224
43410,Sandusky County,OH,95.10567296996662
43512,Defiance County,OH,1.7426770485724878
43542,Lucas County,OH,94.21579532814238
43551,Wood County,OH,25.954764553207266
43605,Lucas County,OH,50.871338524286244
43612,Lucas County,OH,23.989618094178716
43616,Lucas County,OH,25.361512791991103
43731,Perry County,OH,52.35446792732667
43907,Harrison County,OH,55.65443084909158
43935,Belmont County,OH,98.44271412680756
43943,Jefferson County,OH,72.19132369299221
43945,Columbiana County,OH,97.03374119391917
43968,Columbiana County,OH,72.67334074898035
44001,Lorain County,OH,68.29810901001112
44035,Lorain County,OH,4.189840563589174
44052,Lorain County,OH,1.0011123470522802
44060,Lake County,OH,16.49981460882462
44077,Lake County,OH,9.640341119762699
44090,Lorain County,OH,40.30404152762328
44102,Cuyahoga County,OH,55.24657026325547
44103,Cuyahoga County,OH,35.63218390804598
44107,Cuyahoga County,OH,6.377456433073786
44108,Cuyahoga County,OH,1.1494252873563218
44109,Cuyahoga County,OH,19.058212829069337
44111,Cuyahoga County,OH,44.6421950315165
44118,Cuyahoga County,OH,5.524657026325547
44121,Cuyahoga County,OH,4.560622914349278
44125,Cuyahoga County,OH,0.482017055988135
44126,Cuyahoga County,OH,32.48053392658509
44128,Cuyahoga County,OH,1.0752688172043012
44130,Cuyahoga County,OH,73.9340007415647
44131,Cuyahoga County,OH,25.546903967371154
44134,Cuyahoga County,OH,66.33296255098257
44137,Cuyahoga County,OH,40.08157211716723
44139,Cuyahoga County,OH,25.027808676307007
44140,Cuyahoga County,OH,72.1171672228402
44144,Cuyahoga County,OH,84.16759362254356
44147,Cuyahoga County,OH,88.32035595105673
44149,Cuyahoga County,OH,26.140155728587317
44212,Medina County,OH,59.51056729699666
44221,Summit County,OH,74.45309603262885
44236,Summit County,OH,75.12050426399703
44256,Medina County,OH,57.02632554690397
44310,Summit County,OH,49.128661475713756
44312,Summit County,OH,43.5669262143122
44320,Summit County,OH,8.490915832406378
44406,Mahoning County,OH,76.12161661104932
44413,Columbiana County,OH,93.28883945124213
44428,Trumbull County,OH,96.403411197627
44445,Columbiana County,OH,93.17760474601408
44446,Trumbull County,OH,6.711160548757879
44471,Mahoning County,OH,36.04004449388209
44473,Trumbull County,OH,94.14163885799036
44483,Trumbull County,OH,8.008898776418242
44484,Trumbull County,OH,16.129032258064516
44512,Mahoning County,OH,21.28290693362996
44514,Mahoning County,OH,71.7463848720801
44515,Mahoning County,OH,48.60956618464961
44621,Tuscarawas County,OH,74.74972191323694
44646,Stark County,OH,20.43010752688172
44667,Wayne County,OH,87.28216536892845
44691,Wayne County,OH,73.45198368557658
44706,Stark County,OH,19.50315164998146
44721,Stark County,OH,64.18242491657396
44811,Sandusky County,OH,90.61920652576937
44906,Richland County,OH,19.280682239525397
45005,Warren County,OH,4.375231738969225
45011,Butler County,OH,0.8527994067482388
45013,Butler County,OH,9.380793474230627
45014,Butler County,OH,7.452725250278086
45044,Butler County,OH,26.844642195031515
45050,Butler County,OH,74.23062662217278
45066,Warren County,OH,42.380422691879865
45067,Butler County,OH,38.33889506859474
45102,Clermont County,OH,21.208750463477937
45106,Clermont County,OH,31.47942157953281
45211,Hamilton County,OH,62.55098257322952
45231,Hamilton County,OH,53.726362625139046
45245,Clermont County,OH,86.35520949202818
45247,Hamilton County,OH,66.66666666666666
45320,Preble County,OH,51.79829440118651
45331,Darke County,OH,14.53466814979607
45356,Miami County,OH,27.030033370411566
45373,Miami County,OH,16.277345198368558
45377,Montgomery County,OH,49.72191323692992
45424,Montgomery County,OH,5.042639970337412
45458,Montgomery County,OH,22.914349276974416
45629,Scioto County,OH,63.589173155357805
45634,Vinton County,OH,88.17204301075269
45659,Lawrence County,OH,66.03633667037448
45661,Pike County,OH,57.39710789766407
45669,Lawrence County,OH,59.54764553207267
45680,Lawrence County,OH,6.229143492769744
45692,Jackson County,OH,95.51353355580274
45750,Washington County,OH,0.5561735261401557
45805,Allen County,OH,6.637004078605859
45822,Mercer County,OH,22.17278457545421
45840,Hancock County,OH,1.0381905821282906
73018,Grady County,OK,78.27215424545791
73055,Stephens County,OK,96.73711531331108
73086,Murray County,OK,50.16685205784205
73109,Oklahoma County,OK,44.16017797552836
73110,Oklahoma County,OK,9.454949944382648
73127,Oklahoma County,OK,32.62884686688914
73129,Oklahoma County,OK,59.84427141268076
73130,Oklahoma County,OK,91.62031887282166
73160,Cleveland County,OK,41.490545050055616
73529,Stephens County,OK,77.90137189469782
73533,Stephens County,OK,91.73155357804968
73644,Beckham County,OK,97.18205413422321
73703,Garfield County,OK,94.88320355951056
73942,Texas County,OK,58.06451612903226
74021,Tulsa County,OK,75.23173896922508
74074,Payne County,OK,27.845754542083796
74127,Tulsa County,OK,42.89951798294401
74571,Le Flore County,OK,90.43381535038932
74804,Pottawatomie County,OK,45.64330737856878
74960,Adair County,OK,14.608824619948091
97005,Washington County,OR,30.107526881720432
97051,Columbia County,OR,68.03856136447905
97056,Columbia County,OR,49.42528735632184
97070,Clackamas County,OR,68.78012606599926
97071,Marion County,OR,88.35743418613275
97078,Washington County,OR,73.15535780496847
97113,Washington County,OR,92.39896180941787
97116,Washington County,OR,31.03448275862069
97123,Washington County,OR,50.38932146829811
97124,Washington County,OR,15.016685205784205
97203,Multnomah County,OR,24.137931034482758
97206,Multnomah County,OR,26.103077493511307
97214,Multnomah County,OR,53.20726733407489
97218,Multnomah County,OR,53.058954393770854
97223,Washington County,OR,16.166110493140526
97224,Washington County,OR,61.179087875417125
97229,Washington County,OR,21.09751575824991
97230,Multnomah County,OR,37.226548016314425
97233,Multnomah County,OR,29.03225806451613
97236,Multnomah County,OR,10.344827586206897
97266,Multnomah County,OR,44.827586206896555
97301,Marion County,OR,72.4879495736003
97303,Marion County,OR,76.26992955135336
97305,Marion County,OR,55.76566555431961
97317,Marion County,OR,52.46570263255469
97321,Linn County,OR,67.37115313311087
97322,Linn County,OR,83.24063774564331
97355,Linn County,OR,88.87652947719688
97378,Yamhill County,OR,91.99110122358177
97383,Marion County,OR,80.94178717093067
97402,Lane County,OR,34.55691509084168
97470,Douglas County,OR,17.57508342602892
97502,Jackson County,OR,51.01965146459029
97503,Jackson County,OR,81.23841305153874
97504,Jackson County,OR,78.75417130144605
97524,Jackson County,OR,56.54430849091583
97527,Josephine County,OR,27.40081572117167
97601,Klamath County,OR,30.77493511308862
97603,Klamath County,OR,88.2091212458287
97734,Jefferson County,OR,98.9618094178717
97756,Deschutes County,OR,21.839080459770116
97838,Umatilla County,OR,58.620689655172406
15010,Beaver County,PA,35.558027437893955
15044,Allegheny County,PA,79.82944011865035
15068,Westmoreland County,PA,32.62884686688914
15101,Allegheny County,PA,48.09047089358546
15106,Allegheny County,PA,88.54282536151278
15108,Allegheny County,PA,51.50166852057843
15120,Allegheny County,PA,70.0037078235076
15126,Allegheny County,PA,78.86540600667408
15202,Allegheny County,PA,33.37041156840934
15205,Allegheny County,PA,29.32888394512421
15206,Allegheny County,PA,47.089358546533184
15210,Allegheny County,PA,27.660363366703745
15214,Allegheny County,PA,35.3355580274379
15217,Allegheny County,PA,66.55543196143864
15218,Allegheny County,PA,81.34964775676677
15223,Allegheny County,PA,87.20800889877643
15226,Allegheny County,PA,48.86911383018168
15235,Allegheny County,PA,49.35113088616982
15237,Allegheny County,PA,80.16314423433445
15301,Washington County,PA,29.254727474972192
15317,Washington County,PA,16.722284019280682
15401,Fayette County,PA,44.67927326659251
15650,Westmoreland County,PA,7.601038190582128
15672,Westmoreland County,PA,100
15767,Jefferson County,PA,15.906562847608456
15801,Clearfield County,PA,3.707823507601038
15825,Jefferson County,PA,27.437893956247684
15851,Jefferson County,PA,52.02076381164257
15857,Elk County,PA,39.822024471635146
15905,Cambria County,PA,29.810901001112345
16001,Butler County,PA,67.81609195402298
16101,Lawrence County,PA,14.905450500556173
16146,Mercer County,PA,12.569521690767518
16148,Mercer County,PA,29.514275120504262
16314,Crawford County,PA,92.58435298479793
16428,Erie County,PA,64.9981460882462
16651,Clearfield County,PA,80.64516129032258
16652,Huntingdon County,PA,51.01965146459029
16686,Blair County,PA,39.302929180571006
16830,Clearfield County,PA,42.15795328142381
17003,Lebanon County,PA,29.06933629959214
17019,York County,PA,44.16017797552836
17026,Lebanon County,PA,89.9888765294772
17042,Lebanon County,PA,53.42973674453096
17044,Mifflin County,PA,6.117908787541713
17057,Dauphin County,PA,9.195402298850574
17067,Lebanon County,PA,70.74527252502781
17073,Lebanon County,PA,77.34519836855766
17103,Dauphin County,PA,50.53763440860215
17110,Dauphin County,PA,7.8605858361142005
17257,Cumberland County,PA,12.903225806451612
17313,York County,PA,46.0511679644049
17319,York County,PA,46.90396737115313
17325,Adams County,PA,72.00593251761217
17327,York County,PA,96.25509825732294
17331,York County,PA,77.8642936596218
17356,York County,PA,69.22506488691138
17370,York County,PA,78.45754542083797
17402,York County,PA,32.59176863181313
17403,York County,PA,30.663700407860585
17404,York County,PA,5.561735261401557
17501,Lancaster County,PA,93.80793474230626
17543,Lancaster County,PA,12.940304041527623
17545,Lancaster County,PA,69.44753429736744
17551,Lancaster County,PA,73.00704486466444
17603,Lancaster County,PA,20.39302929180571
17701,Lycoming County,PA,62.95884315906562
17740,Lycoming County,PA,60.28921023359288
17745,Clinton County,PA,51.42751205042641
17751,Clinton County,PA,75.89914720059325
17754,Lycoming County,PA,71.04189840563589
17801,Northumberland County,PA,10.678531701890991
17841,Mifflin County,PA,92.02817945865776
17866,Northumberland County,PA,69.03967371153134
17931,Schuylkill County,PA,88.65406006674083
17963,Schuylkill County,PA,62.43974786800148
17976,Schuylkill County,PA,65.55431961438636
18031,Lehigh County,PA,80.12606599925843
18042,Northampton County,PA,2.261772339636633
18064,Northampton County,PA,24.731182795698924
18078,Lehigh County,PA,83.6114200964034
18088,Northampton County,PA,47.27474972191324
18102,Lehigh County,PA,26.214312198739343
18104,Lehigh County,PA,7.081942899517983
18302,Monroe County,PA,74.52725250278087
18466,Monroe County,PA,36.74453096032629
18603,Columbia County,PA,26.32554690396737
18640,Luzerne County,PA,25.843529847979234
18642,Luzerne County,PA,96.95958472376715
18702,Luzerne County,PA,3.3741193919169445
18704,Luzerne County,PA,57.69373377827215
18706,Luzerne County,PA,50.53763440860215
18914,Bucks County,PA,40.52651093807935
18940,Bucks County,PA,79.56989247311827
18966,Bucks County,PA,8.676307007786429
18974,Bucks County,PA,75.56544308490916
18976,Bucks County,PA,59.91842788283278
19006,Montgomery County,PA,58.47237671486837
19008,Delaware County,PA,86.09566184649611
19015,Delaware County,PA,64.88691138301816
19020,Bucks County,PA,92.91805710048202
19021,Bucks County,PA,95.81015943641083
19023,Delaware County,PA,42.78828327771598
19026,Delaware County,PA,9.010011123470523
19027,Montgomery County,PA,90.95291064145347
19036,Delaware County,PA,89.61809417871709
19038,Montgomery County,PA,63.77456433073786
19053,Bucks County,PA,94.69781238413051
19061,Delaware County,PA,58.435298479792365
19064,Delaware County,PA,80.79347423062663
19072,Montgomery County,PA,71.96885428253616
19073,Delaware County,PA,74.71264367816092
19078,Delaware County,PA,95.47645532072674
19082,Delaware County,PA,49.87022617723396
19083,Delaware County,PA,79.05079718205414
19090,Montgomery County,PA,29.588431590656285
19094,Delaware County,PA,78.93956247682611
19103,Philadelphia County,PA,56.17352614015573
19104,Philadelphia County,PA,5.265109380793474
19115,Philadelphia County,PA,48.46125324434557
19116,Philadelphia County,PA,42.08379681127178
19119,Philadelphia County,PA,13.681868743047831
19120,Philadelphia County,PA,62.77345198368558
19122,Philadelphia County,PA,28.06822395253986
19128,Philadelphia County,PA,73.2295142751205
19131,Philadelphia County,PA,2.5583982202447166
19134,Philadelphia County,PA,1.260659992584353
19135,Philadelphia County,PA,56.0622914349277
19140,Philadelphia County,PA,44.493882091212456
19141,Philadelphia County,PA,3.6336670374490176
19142,Philadelphia County,PA,6.0066740823136815
19143,Philadelphia County,PA,3.781979977753059
19145,Philadelphia County,PA,3.2999629217649242
19150,Philadelphia County,PA,92.880978865406007
19152,Philadelphia County,PA,48.49833147942158
19154,Philadelphia County,PA,56.76677790137189
19320,Chester County,PA,47.23767148683722
19335,Chester County,PA,76.52947719688544
19341,Chester County,PA,54.02298850574713
19342,Delaware County,PA,58.02743789395625
19344,Chester County,PA,82.35076010381906
19355,Chester County,PA,91.54616240266962
19382,Chester County,PA,7.489803485354098
19401,Montgomery County,PA,4.301075268817205
19438,Montgomery County,PA,84.76084538375973
19446,Montgomery County,PA,7.526881720430108
19454,Montgomery County,PA,83.27771598071931
19462,Montgomery County,PA,97.51575824990731
19468,Montgomery County,PA,51.724137931034484
19601,Berks County,PA,20.652576937337784
19604,Berks County,PA,5.598813496477568
19606,Berks County,PA,5.190952910641453
19611,Berks County,PA,57.8420467185762
02816,Kent County,RI,15.53578049684835
02842,Newport County,RI,88.83945124212087
02852,Washington County,RI,26.659251019651464
02861,Providence County,RI,18.31664812754913
02891,Washington County,RI,64.77567667779014
02893,Kent County,RI,47.53429736744531
02909,Providence County,RI,81.31256952169078
02920,Providence County,RI,16.722284019280682
29047,Orangeburg County,SC,95.40229885057471
29150,Sumter County,SC,20.912124582869858
29180,Fairfield County,SC,59.65888023730071
29210,Richland County,SC,25.101965146459026
29212,Lexington County,SC,43.64108268446422
29229,Richland County,SC,22.654801631442343
29306,Spartanburg County,SC,22.17278457545421
29403,Charleston County,SC,26.436781609195403
29405,Charleston County,SC,15.49870226177234
29407,Charleston County,SC,50.723025583982206
29440,Georgetown County,SC,28.401928068223953
29456,Dorchester County,SC,20.800889877641822
29461,Berkeley County,SC,19.577308120133484
29464,Charleston County,SC,54.87578791249537
29466,Charleston County,SC,30.81201334816463
29472,Dorchester County,SC,62.699295513533556
29483,Dorchester County,SC,8.75046347793845
29485,Dorchester County,SC,57.063403781979986
29488,Colleton County,SC,20.504263997033743
29501,Florence County,SC,60.51167964404895
29510,Georgetown County,SC,44.53096032628847
29536,Dillon County,SC,36.15127919911012
29560,Florence County,SC,57.91620318872822
29570,Marlboro County,SC,98.85057471264368
29588,Horry County,SC,88.9506859473489
29605,Greenville County,SC,13.422321097515757
29609,Greenville County,SC,52.094920281794586
29621,Anderson County,SC,21.69076751946607
29626,Anderson County,SC,54.134223210975165
29627,Anderson County,SC,40.00741564701521
29646,Greenwood County,SC,26.807563959955505
29651,Greenville County,SC,11.160548757879125
29680,Greenville County,SC,28.624397478680013
29681,Greenville County,SC,40.60066740823137
29689,Anderson County,SC,92.39896180941787
29706,Chester County,SC,46.199480904708935
29720,Lancaster County,SC,7.638116425658138
29902,Beaufort County,SC,57.91620318872822
57103,Minnehaha County,SD,12.532443455691508
57106,Minnehaha County,SD,37.1523915461624
57107,Minnehaha County,SD,95.99555061179088
57201,Codington County,SD,79.86651835372636
57252,Grant County,SD,77.79013718946977
57301,Davison County,SD,30.070448646644422
57401,Brown County,SD,80.20022246941045
57601,Walworth County,SD,92.5101965146459
37013,Davidson County,TN,4.9314052651093805
37062,Williamson County,TN,84.01928068223953
37064,Williamson County,TN,28.883945124212083
37066,Sumner County,TN,4.820170559881349
37074,Trousdale County,TN,47.4972191323693
37087,Wilson County,TN,8.861698183166482
37128,Rutherford County,TN,15.832406377456435
37130,Rutherford County,TN,10.863922877271042
37167,Rutherford County,TN,15.202076381164256
37208,Davidson County,TN,14.386355209492027
37211,Davidson County,TN,60.734149054505004
37212,Davidson County,TN,80.38561364479051
37342,Coffee County,TN,92.5101965146459
37357,Warren County,TN,75.34297367445309
37388,Coffee County,TN,19.46607341490545
37411,Hamilton County,TN,23.02558398220245
37617,Sullivan County,TN,53.54097144975899
37618,Sullivan County,TN,53.355580274378944
37620,Sullivan County,TN,6.154987022617724
37660,Sullivan County,TN,3.85613644790508
37690,Washington County,TN,70.30033370411569
37725,Jefferson County,TN,34.297367445309604
37745,Greene County,TN,14.349276974416018
37755,Scott County,TN,96.36633296255098
37772,Loudon County,TN,58.175750834260285
37804,Blount County,TN,16.240266963292544
37814,Hamblen County,TN,18.427882832777158
37862,Sevier County,TN,22.28401928068224
37871,Jefferson County,TN,67.74193548387096
37874,Monroe County,TN,51.61290322580645
37921,Knox County,TN,16.796440489432705
37923,Knox County,TN,33.852428624397476
38016,Shelby County,TN,32.96255098257323
38109,Shelby County,TN,5.487578791249536
38134,Shelby County,TN,21.69076751946607
38242,Henry County,TN,29.662588060808304
38462,Lewis County,TN,74.3047830923248
75019,Dallas County,TX,35.78049684835002
75023,Collin County,TX,34.59399332591769
75024,Collin County,TX,89.35854653318502
75034,Denton County,TX,49.79606970708194
75041,Dallas County,TX,69.74416017797553
75043,Dallas County,TX,84.61253244345569
75052,Dallas County,TX,8.935854653318502
75056,Denton County,TX,76.4182424916574
75057,Denton County,TX,65.03522432332221
75060,Dallas County,TX,24.694104560622915
75061,Dallas County,TX,33.2220986281053
75067,Denton County,TX,18.984056358917314
75068,Denton County,TX,18.27956989247312
75080,Dallas County,TX,38.89506859473489
75093,Collin County,TX,71.7834631071561
75110,Navarro County,TX,25.769373377827215
75116,Dallas County,TX,81.16425658138672
75119,Ellis County,TX,35.706340378198
75134,Dallas County,TX,43.71523915461624
75149,Dallas County,TX,9.60326288468669
75159,Dallas County,TX,73.78568780126066
75160,Kaufman County,TX,43.86355209492028
75180,Dallas County,TX,46.236559139784944
75206,Dallas County,TX,81.01594364108269
75208,Dallas County,TX,68.2239525398591
75210,Dallas County,TX,72.89581015943641
75211,Dallas County,TX,81.16425658138672
75217,Dallas County,TX,46.570263255469044
75220,Dallas County,TX,85.09454949944383
75223,Dallas County,TX,68.66889136077123
75227,Dallas County,TX,84.31590656284762
75228,Dallas County,TX,15.60993696700037
75229,Dallas County,TX,26.696329254727473
75230,Dallas County,TX,75.19466073414905
75231,Dallas County,TX,56.025213199851684
75243,Dallas County,TX,7.044864664441973
75253,Dallas County,TX,45.272525027808676
75287,Denton County,TX,51.90952910641453
75407,Collin County,TX,42.93659621802002
75442,Collin County,TX,61.40155728587319
75459,Grayson County,TX,85.46533185020392
75570,Bowie County,TX,78.2350760103819
75654,Rusk County,TX,96.99666295884316
75662,Gregg County,TX,35.03893214682981
75702,Smith County,TX,22.246941045606228
75703,Smith County,TX,18.613274008157212
75704,Smith County,TX,66.96329254727475
75707,Smith County,TX,78.86540600667408
75756,Henderson County,TX,98.25732295142751
75766,Cherokee County,TX,78.34631071560993
75791,Smith County,TX,70.93066370040786
75835,Houston County,TX,46.533185020393034
75904,Angelina County,TX,46.421950315165
76002,Tarrant County,TX,38.15350389321468
76010,Tarrant County,TX,58.5836114200964
76011,Tarrant County,TX,36.22543566926214
76012,Tarrant County,TX,71.37560252131998
76020,Tarrant County,TX,16.981831664812756
76022,Tarrant County,TX,63.552094920281796
76039,Tarrant County,TX,21.987393400074158
76043,Somervell County,TX,71.67222840192807
76085,Parker County,TX,71.22728958101594
76105,Tarrant County,TX,10.159436410826844
76115,Tarrant County,TX,31.99851687059696
76116,Tarrant County,TX,12.866147571375603
76119,Tarrant County,TX,17.982944011865033
76126,Tarrant County,TX,55.83982202447163
76148,Tarrant County,TX,76.15869484612533
76164,Tarrant County,TX,74.6384872080089
76179,Tarrant County,TX,42.677048572487955
76180,Tarrant County,TX,24.879495736002966
76209,Denton County,TX,60.06674082313682
76240,Cooke County,TX,51.13088616981831
76248,Tarrant County,TX,44.048943270300335
76367,Wichita County,TX,77.04857248794957
76401,Erath County,TX,42.23210975157583
76437,Eastland County,TX,90.7304412309974
76444,Comanche County,TX,99.55506117908787
76513,Bell County,TX,45.309603262884686
76520,Milam County,TX,49.42528735632184
76543,Bell County,TX,67.70485724879495
76657,McLennan County,TX,69.55876900259548
76711,McLennan County,TX,87.43047830923248
76712,McLennan County,TX,25.139043381535036
76903,Tom Green County,TX,82.20244716351502
76904,Tom Green County,TX,42.380422691879865
77007,Harris County,TX,34.00074156470152
77009,Harris County,TX,94.58657767890249
77013,Harris County,TX,69.6329254727475
77015,Harris County,TX,23.692992213570633
77018,Harris County,TX,26.436781609195403
77035,Harris County,TX,67.63070077864293
77036,Harris County,TX,89.39562476826103
77040,Harris County,TX,56.358917315535784
77043,Harris County,TX,62.21727845754542
77055,Harris County,TX,92.95513533555803
77060,Harris County,TX,79.42157953281423
77065,Harris County,TX,85.91027067111605
77067,Harris County,TX,54.46792732665925
77074,Harris County,TX,58.47237671486837
77081,Harris County,TX,82.42491657397107
77082,Harris County,TX,59.399332591768626
77083,Harris County,TX,24.657026325546905
77085,Harris County,TX,86.98553948832036
77087,Harris County,TX,63.81164256581386
77093,Harris County,TX,86.4293659621802
77095,Harris County,TX,8.972932888394512
77096,Harris County,TX,40.118650352243236
77099,Harris County,TX,89.76640711902112
77301,Montgomery County,TX,63.32962550982574
77302,Montgomery County,TX,49.6477567667779
77303,Montgomery County,TX,61.92065257693734
77328,San Jacinto County,TX,58.880237300704486
77346,Harris County,TX,35.66926214312199
77365,Montgomery County,TX,95.17982944011865
77379,Harris County,TX,14.052651093807937
77385,Montgomery County,TX,41.30515387467557
77386,Montgomery County,TX,46.34779384501298
77396,Harris County,TX,22.024471635150167
77406,Fort Bend County,TX,70.26325546903968
77407,Fort Bend County,TX,61.253244345569144
77429,Harris County,TX,5.710048201705599
77433,Harris County,TX,5.89543937708565
77437,Wharton County,TX,80.97886540600668
77449,Harris County,TX,5.228031145717464
77459,Fort Bend County,TX,64.14534668149795
77477,Fort Bend County,TX,63.10715609936967
77480,Brazoria County,TX,73.37782721542455
77489,Fort Bend County,TX,43.34445680385613
77494,Fort Bend County,TX,8.71338524286244
77503,Harris County,TX,79.6069707081943
77511,Brazoria County,TX,28.364849833147943
77514,Chambers County,TX,96.62588060808307
77550,Galveston County,TX,10.196514645902855
77573,Galveston County,TX,4.597701149425287
77581,Brazoria County,TX,80.49684835001854
77584,Brazoria County,TX,58.249907304412304
77632,Orange County,TX,86.31813125695217
77642,Jefferson County,TX,42.56581386725992
77802,Brazos County,TX,14.312198739340007
77808,Brazos County,TX,85.65072302558399
77901,Victoria County,TX,13.978494623655912
78002,Bexar County,TX,96.70003707823508
78041,Webb County,TX,22.061549870226177
78045,Webb County,TX,12.791991101223582
78046,Webb County,TX,44.901742677048574
78063,Bandera County,TX,75.45420837968113
78064,Atascosa County,TX,58.28698553948832
78112,Bexar County,TX,79.45865776789024
78119,Karnes County,TX,85.20578420467186
78155,Guadalupe County,TX,38.19058212829069
78207,Bexar County,TX,11.012235817575084
78210,Bexar County,TX,13.830181683351872
78213,Bexar County,TX,28.809788654060064
78214,Bexar County,TX,87.31924360400444
78216,Bexar County,TX,89.13607712272896
78217,Bexar County,TX,83.50018539117539
78218,Bexar County,TX,58.76900259547646
78221,Bexar County,TX,78.16091954022988
78223,Bexar County,TX,60.3633667037449
78227,Bexar County,TX,64.51612903225806
78228,Bexar County,TX,68.52057842046719
78229,Bexar County,TX,74.37893956247683
78239,Bexar County,TX,68.85428253615127
78244,Bexar County,TX,67.25991842788284
78245,Bexar County,TX,13.051538746755654
78249,Bexar County,TX,39.859102706711155
78415,Nueces County,TX,28.809788654060064
78501,Hidalgo County,TX,71.11605487578791
78504,Hidalgo County,TX,50.834260289210235
78521,Cameron County,TX,18.872821653689282
78526,Cameron County,TX,49.05450500556173
78537,Hidalgo County,TX,92.69558769002596
78541,Hidalgo County,TX,31.85020393029292
78542,Hidalgo County,TX,82.09121245828699
78550,Cameron County,TX,53.76344086021505
78552,Cameron County,TX,73.74860956618465
78570,Hidalgo County,TX,74.49017426770486
78572,Hidalgo County,TX,9.75157582499073
78573,Hidalgo County,TX,36.26251390433816
78574,Hidalgo County,TX,48.05339265850945
78584,Starr County,TX,95.84723767148684
78586,Cameron County,TX,26.918798665183534
78589,Hidalgo County,TX,75.38005190952912
78605,Burnet County,TX,86.8372265480163
78610,Hays County,TX,53.57804968483501
78641,Williamson County,TX,11.568409343715238
78664,Williamson County,TX,27.734519836855764
78681,Williamson County,TX,76.0474601408973
78721,Travis County,TX,92.1023359288098
78724,Travis County,TX,52.98479792361883
78741,Travis County,TX,52.576937337782724
78758,Travis County,TX,34.74230626622173
79104,Potter County,TX,96.92250648869114
79106,Potter County,TX,35.89173155357805
79109,Randall County,TX,87.4675565443085
79360,Gaines County,TX,60.91954022988506
79404,Lubbock County,TX,56.61846496106785
79556,Nolan County,TX,64.47905079718205
79701,Midland County,TX,53.83759733036707
79706,Midland County,TX,27.882832777159805
79714,Andrews County,TX,63.99703374119392
79761,Ector County,TX,32.554690396737115
79924,El Paso County,TX,69.11383018168335
79928,El Paso County,TX,30.589543937708562
79934,El Paso County,TX,97.66407119021135
79936,El Paso County,TX,6.043752317389693
84003,Utah County,UT,54.727474972191324
84010,Davis County,UT,90.32258064516128
84020,Salt Lake County,UT,77.15980719317761
84021,Duchesne County,UT,99.40674823878383
84029,Tooele County,UT,39.451242120875044
84041,Davis County,UT,48.79495736002966
84042,Utah County,UT,97.33036707452726
84043,Utah County,UT,27.252502780867633
84057,Utah County,UT,46.34779384501298
84058,Utah County,UT,63.62625139043382
84062,Utah County,UT,37.93103448275862
84067,Weber County,UT,48.31294030404153
84078,Uintah County,UT,8.231368186874304
84087,Davis County,UT,87.65294771968854
84095,Salt Lake County,UT,23.915461624026698
84096,Salt Lake County,UT,41.23099740452354
84106,Salt Lake County,UT,63.44086021505376
84109,Salt Lake County,UT,44.938820912124584
84119,Salt Lake County,UT,52.87356321839081
84120,Salt Lake County,UT,3.5595105672969964
84321,Cache County,UT,47.1635150166852
84405,Weber County,UT,77.19688542825361
84737,Washington County,UT,84.53837597330367
84780,Washington County,UT,55.172413793103445
84790,Washington County,UT,55.098257322951426
05641,Washington County,VT,19.13236929922136
20147,Loudoun County,VA,49.573600296625884
20155,Prince William County,VA,40.89729328883946
20166,Loudoun County,VA,79.75528364849833
20170,Fairfax County,VA,44.27141268075639
20171,Fairfax County,VA,59.9925843529848
22003,Fairfax County,VA,17.64923989618094
22015,Fairfax County,VA,61.253244345569144
22033,Fairfax County,VA,78.82832777159807
22041,Fairfax County,VA,49.981460882461995
22150,Fairfax County,VA,35.15016685205784
22180,Fairfax County,VA,89.80348535409715
22181,Fairfax County,VA,75.08342602892102
22182,Fairfax County,VA,88.06080830552465
22191,Prince William County,VA,94.17871709306637
22192,Prince William County,VA,68.48350018539118
22193,Prince William County,VA,6.7853170189099
22205,Arlington County,VA,69.44753429736744
22301,Alexandria city,VA,54.319614386355205
22304,Alexandria city,VA,55.431961438635525
22309,Fairfax County,VA,91.43492769744161
22310,Fairfax County,VA,35.29847979236188
22311,Alexandria city,VA,65.96218020022246
22314,Alexandria city,VA,17.760474601408973
22315,Fairfax County,VA,64.256581386726
22407,Spotsylvania County,VA,59.13978494623656
22601,Winchester city,VA,41.082684464219504
22602,Frederick County,VA,33.815350389321466
22657,Shenandoah County,VA,33.37041156840934
22701,Culpeper County,VA,14.53466814979607
22902,Charlottesville city,VA,13.496477567667778
22973,Greene County,VA,69.92955135335558
23002,Amelia County,VA,68.00148312940304
23059,Henrico County,VA,60.95661846496107
23060,Henrico County,VA,42.63997033741194
23112,Chesterfield County,VA,68.85428253615127
23185,James City County,VA,21.616611049314052
23223,Henrico County,VA,42.306266221727846
23224,Richmond city,VA,22.617723396366333
23228,Henrico County,VA,72.67334074898035
23231,Henrico County,VA,12.680756395995552
23234,Chesterfield County,VA,68.40934371523916
23294,Henrico County,VA,60.84538375973304
23323,Chesapeake city,VA,46.64441972562106
23451,Virginia Beach city,VA,23.952539859102707
23462,Virginia Beach city,VA,32.07267334074898
23608,Newport News city,VA,9.936967000370782
23662,Poquoson city,VA,91.4720059325176
23664,Hampton city,VA,65.22061549870226
23669,Hampton city,VA,87.98665183537263
23842,Prince George County,VA,95.3652206154987
23860,Hopewell city,VA,18.13125695216908
23875,Prince George County,VA,64.6644419725621
23970,Mecklenburg County,VA,46.01408972932888
24055,Henry County,VA,43.084909158324066
24073,Montgomery County,VA,68.11271783463107
24078,Henry County,VA,66.48127549128662
24090,Botetourt County,VA,98.25732295142751
24148,Henry County,VA,67.29699666295885
24151,Franklin County,VA,27.919911012235815
24301,Pulaski County,VA,76.82610307749351
24333,Galax city,VA,29.662588060808304
24343,Carroll County,VA,52.83648498331479
24502,Lynchburg city,VA,25.769373377827215
24523,Bedford County,VA,18.5761957730812
24541,Danville city,VA,20.689655172413794
98001,King County,WA,25.361512791991103
98002,King County,WA,47.38598442714127
98021,Snohomish County,WA,36.74453096032629
98023,King County,WA,66.22172784575454
98026,Snohomish County,WA,46.60734149054505
98028,King County,WA,86.20689655172413
98031,King County,WA,67.77901371894698
98033,King County,WA,43.78939562476826
98036,Snohomish County,WA,57.767890248424166
98037,Snohomish County,WA,42.49165739710789
98038,King County,WA,62.18020022246941
98042,King County,WA,46.31071560993696
98055,King County,WA,86.91138301816834
98092,King County,WA,54.61624026696329
98103,King County,WA,28.9210233592881
98107,King County,WA,89.02484241750092
98166,King County,WA,60.54875787912495
98188,King County,WA,48.757879124953654
98198,King County,WA,53.17018909899889
98201,Snohomish County,WA,30.255839822024473
98203,Snohomish County,WA,29.32888394512421
98204,Snohomish County,WA,82.20244716351502
98208,Snohomish County,WA,11.271783463107155
98226,Whatcom County,WA,72.33963663329625
98252,Snohomish County,WA,63.81164256581386
98258,Snohomish County,WA,93.10344827586206
98270,Snohomish County,WA,47.97923618835743
98271,Snohomish County,WA,55.02410085279941
98273,Skagit County,WA,58.13867259918428
98290,Snohomish County,WA,25.25027808676307
98292,Snohomish County,WA,41.453466814979606
98296,Snohomish County,WA,27.956989247311824
98335,Pierce County,WA,67.00037078235076
98338,Pierce County,WA,29.736744530960323
98360,Pierce County,WA,54.245457916203186
98368,Jefferson County,WA,84.46421950315165
98372,Pierce County,WA,78.01260659992585
98373,Pierce County,WA,48.09047089358546
98382,Clallam County,WA,82.31368186874305
98391,Pierce County,WA,7.156099369670003
98409,Pierce County,WA,37.226548016314425
98422,Pierce County,WA,89.6922506488691
98446,Pierce County,WA,94.06748238783834
98516,Thurston County,WA,73.5261401557286
98531,Lewis County,WA,98.70226177233964
98584,Mason County,WA,19.762699295513535
98597,Thurston County,WA,46.64441972562106
98607,Clark County,WA,96.21802002224695
98626,Cowlitz County,WA,83.35187245087134
98632,Cowlitz County,WA,9.974045235446791
98665,Clark County,WA,63.32962550982574
98802,Douglas County,WA,32.40637745643307
98837,Grant County,WA,18.020022246941046
98841,Okanogan County,WA,99.81460882461994
98908,Yakima County,WA,22.5064886911383
98932,Yakima County,WA,98.88765294771969
98951,Yakima County,WA,74.972191323693
99111,Whitman County,WA,91.62031887282166
99163,Whitman County,WA,54.61624026696329
99201,Spokane County,WA,42.19503151649982
99202,Spokane County,WA,41.97256210604375
99216,Spokane County,WA,70.63403781979977
99301,Franklin County,WA,63.9228772710419
99336,Benton County,WA,5.85836114200964
99337,Benton County,WA,78.38338895068595
99343,Franklin County,WA,99.96292176492399
99352,Benton County,WA,91.4720059325176
20009,District of Columbia,DC,60.10381905821283
20016,District of Columbia,DC,53.466814979606966
20017,District of Columbia,DC,34.81646273637375
20018,District of Columbia,DC,25.695216907675196
20020,District of Columbia,DC,0.7044864664441972
25064,Kanawha County,WV,32.96255098257323
25387,Kanawha County,WV,59.17686318131257
25401,Berkeley County,WV,21.542454579162033
25419,Berkeley County,WV,62.291434927697445
25508,Logan County,WV,54.17130144605117
26003,Ohio County,WV,2.2246941045606228
26101,Wood County,WV,13.125695216907676
26105,Wood County,WV,30.40415276232851
26201,Upshur County,WV,63.29254727474972
26241,Randolph County,WV,44.38264738598443
26330,Harrison County,WV,55.46903967371153
26426,Harrison County,WV,76.71486837226547
26452,Lewis County,WV,39.74786800148313
26508,Monongalia County,WV,2.0763811642565813
26554,Marion County,WV,1.853911753800519
26836,Hardy County,WV,88.02373007044865
53021,Ozaukee County,WI,95.06859473489062
53051,Waukesha County,WI,26.844642195031515
53120,Walworth County,WI,90.98998887652948
53121,Walworth County,WI,54.94994438264739
53132,Milwaukee County,WI,23.507601038190582
53140,Kenosha County,WI,23.136818687430477
53142,Kenosha County,WI,4.671857619577309
53143,Kenosha County,WI,76.86318131256952
53149,Waukesha County,WI,50.61179087875417
53151,Waukesha County,WI,23.841305153874675
53158,Kenosha County,WI,50.908416759362254
53181,Kenosha County,WI,40.45235446792733
53182,Racine County,WI,70.74527252502781
53189,Waukesha County,WI,76.19577308120134
53205,Milwaukee County,WI,8.157211716722285
53207,Milwaukee County,WI,40.45235446792733
53209,Milwaukee County,WI,0.9269558769002595
53212,Milwaukee County,WI,62.92176492398962
53215,Milwaukee County,WI,52.428624397478686
53218,Milwaukee County,WI,30.700778642936594
53221,Milwaukee County,WI,10.233592880978867
53224,Milwaukee County,WI,21.245828698553947
53227,Milwaukee County,WI,20.875046347793848
53228,Milwaukee County,WI,89.84056358917314
53403,Racine County,WI,19.651464590285503
53405,Racine County,WI,70.81942899517983
53511,Rock County,WI,24.39747868001483
53534,Rock County,WI,38.635520949202814
53538,Jefferson County,WI,31.99851687059696
53558,Dane County,WI,71.82054134223212
53704,Dane County,WI,5.116796440489433
53716,Dane County,WI,90.84167593622544
53719,Dane County,WI,36.89284390063033
53916,Dodge County,WI,52.68817204301075
53963,Dodge County,WI,36.63329625509826
54017,St. Croix County,WI,60.326288468668885
54022,Pierce County,WI,75.41713014460511
54301,Brown County,WI,60.252131998516866
54313,Brown County,WI,41.119762699295514
54411,Marathon County,WI,98.5910270671116
54501,Oneida County,WI,88.76529477196885
54601,La Crosse County,WI,3.225806451612903
54612,Trempealeau County,WI,85.20578420467186
54650,La Crosse County,WI,35.22432332220986
54656,Monroe County,WI,84.98331479421579
54701,Eau Claire County,WI,68.63181312569522
54768,Chippewa County,WI,91.7686318131257
54880,Douglas County,WI,7.415647015202076
54901,Winnebago County,WI,15.42454579162032
54904,Winnebago County,WI,72.82165368928439
54911,Outagamie County,WI,23.544679273266592
54937,Fond du Lac County,WI,26.548016314423435
54961,Waupaca County,WI,38.524286243974785
82414,Park County,WY,54.17130144605117
