ZipCode,county,state,Adult
35049,Blount County,AL,90.79464988198269
35058,Cullman County,AL,61.05428796223447
35160,Talladega County,AL,11.644374508261212
35180,Jefferson County,AL,55.389457120377664
35242,Shelby County,AL,24.390243902439025
35456,Tuscaloosa County,AL,89.8505114083399
35756,Limestone County,AL,66.32572777340677
35758,Madison County,AL,56.726986624704956
35763,Madison County,AL,89.53579858379229
36527,Baldwin County,AL,84.50039339103068
36618,Mobile County,AL,58.85129819040126
36801,Lee County,AL,87.33280881195908
99502,Anchorage Municipality,AK,42.01416207710464
99507,Anchorage Municipality,AK,53.186467348544454
99559,Bethel Census Area,AK,97.0889063729347
99576,Dillingham Census Area,AK,99.213217938631
99577,Anchorage Municipality,AK,60.582218725413064
85019,Maricopa County,AZ,30.44846577498033
85035,Maricopa County,AZ,11.959087332808812
85053,Maricopa County,AZ,62.78520849724626
85086,Maricopa County,AZ,32.25806451612903
85128,Pinal County,AZ,83.94964594807239
85142,Maricopa County,AZ,6.451612903225806
85210,Maricopa County,AZ,70.10228166797798
85224,Maricopa County,AZ,62.39181746656176
85225,Maricopa County,AZ,8.025177025963808
85234,Maricopa County,AZ,94.0991345397325
85248,Maricopa County,AZ,46.42014162077104
85256,Maricopa County,AZ,77.65538945712038
85268,Maricopa County,AZ,70.81038552321007
85282,Maricopa County,AZ,59.08733280881195
85297,Maricopa County,AZ,49.64594807238395
85301,Maricopa County,AZ,73.32808811959087
85308,Maricopa County,AZ,26.435877261998424
85326,Maricopa County,AZ,21.16443745082612
85335,Maricopa County,AZ,26.750590086546026
85340,Maricopa County,AZ,75.92446892210857
85344,La Paz County,AZ,29.74036191974823
85349,Yuma County,AZ,26.593233674272227
85634,Pima County,AZ,16.443745082612114
85706,Pima County,AZ,11.801730920535011
85713,Pima County,AZ,4.720692368214005
85714,Pima County,AZ,52.55704169944925
85741,Pima County,AZ,51.84893784421715
85756,Pima County,AZ,27.61605035405193
86033,Navajo County,AZ,49.96066089693155
86442,Mohave County,AZ,20.220298977183322
86510,Navajo County,AZ,85.83792289535799
86538,Apache County,AZ,99.7639653815893
71801,Hempstead County,AR,90.32258064516128
72019,Saline County,AR,58.929976396538166
72116,Pulaski County,AR,87.411487018096
72364,Crittenden County,AR,76.23918174665619
90001,Los Angeles County,CA,38.00157356412274
90011,Los Angeles County,CA,17.466561762391816
90019,Los Angeles County,CA,92.918961447679
90032,Los Angeles County,CA,65.69630212431157
90035,Los Angeles County,CA,52.08497246262785
90042,Los Angeles County,CA,78.75688434303699
90221,Los Angeles County,CA,6.6876475216365066
90242,Los Angeles County,CA,60.660896931549956
90247,Los Angeles County,CA,84.02832415420929
90255,Los Angeles County,CA,66.16837136113297
90260,Los Angeles County,CA,95.8300550747443
90280,Los Angeles County,CA,24.154209284028326
90293,Los Angeles County,CA,81.03855232100709
90301,Los Angeles County,CA,27.301337529504327
90404,Los Angeles County,CA,90.0865460267506
90602,Los Angeles County,CA,93.62706530291109
90631,Orange County,CA,69.31549960660897
90650,Los Angeles County,CA,12.824547600314713
90660,Los Angeles County,CA,20.45633359559402
90680,Orange County,CA,71.75452399685287
90717,Los Angeles County,CA,72.85601888276946
90720,Orange County,CA,59.48072383949646
90723,Los Angeles County,CA,42.72226593233675
90804,Los Angeles County,CA,74.50826121164438
90805,Los Angeles County,CA,79.70102281667978
90807,Los Angeles County,CA,41.38473642800944
91106,Los Angeles County,CA,83.32022029897719
91325,Los Angeles County,CA,82.21872541306058
91331,Los Angeles County,CA,79.22895357985837
91352,Los Angeles County,CA,46.892210857592445
91607,Los Angeles County,CA,69.23682140047207
91702,Los Angeles County,CA,75.13768686073958
91731,Los Angeles County,CA,29.268292682926827
91733,Los Angeles County,CA,53.89457120377655
91746,Los Angeles County,CA,81.58929976396539
91761,San Bernardino County,CA,46.34146341463415
91762,San Bernardino County,CA,53.97324940991345
91766,Los Angeles County,CA,58.22187254130606
91767,Los Angeles County,CA,57.98583792289536
91770,Los Angeles County,CA,66.64044059795437
91773,Los Angeles County,CA,60.97560975609756
91789,Los Angeles County,CA,71.12509834775767
91790,Los Angeles County,CA,78.59952793076317
91910,San Diego County,CA,61.605035405192766
91911,San Diego County,CA,70.57435090479936
91915,San Diego County,CA,75.21636506687648
91950,San Diego County,CA,55.07474429583006
92021,San Diego County,CA,75.37372147915028
92025,San Diego County,CA,89.77183320220298
92027,San Diego County,CA,38.23760818253344
92064,San Diego County,CA,39.96852871754524
92071,San Diego County,CA,18.174665617623916
92078,San Diego County,CA,96.53815892997639
92102,San Diego County,CA,30.05507474429583
92105,San Diego County,CA,65.30291109362707
92115,San Diego County,CA,75.05900865460268
92203,Riverside County,CA,84.81510621557828
92225,Riverside County,CA,81.74665617623918
92227,Imperial County,CA,79.54366640440598
92234,Riverside County,CA,9.59874114870181
92236,Riverside County,CA,95.0432730133753
92252,San Bernardino County,CA,61.52635719905586
92308,San Bernardino County,CA,39.73249409913454
92335,San Bernardino County,CA,6.294256490952006
92336,San Bernardino County,CA,28.71754523996853
92337,San Bernardino County,CA,71.83320220298978
92345,San Bernardino County,CA,64.67348544453186
92376,San Bernardino County,CA,5.743509047993705
92405,San Bernardino County,CA,36.50668764752164
92408,San Bernardino County,CA,82.92682926829268
92530,Riverside County,CA,27.380015735641226
92570,Riverside County,CA,91.8174665617624
92584,Riverside County,CA,36.03461841070023
92592,Riverside County,CA,48.62313139260424
92618,Orange County,CA,74.11487018095987
92630,Orange County,CA,53.26514555468135
92649,Orange County,CA,45.16129032258064
92677,Orange County,CA,25.570416994492522
92683,Orange County,CA,12.116443745082613
92701,Orange County,CA,95.1219512195122
92703,Orange County,CA,86.70338316286389
92704,Orange County,CA,68.21400472069237
92705,Orange County,CA,58.69394177812745
92707,Orange County,CA,34.303697875688435
92804,Orange County,CA,96.69551534225019
92805,Orange County,CA,18.410700236034618
92806,Orange County,CA,79.93705743509048
92831,Orange County,CA,84.26435877261999
92832,Orange County,CA,70.25963808025178
92869,Orange County,CA,47.91502753737215
92883,Riverside County,CA,98.0330448465775
92886,Orange County,CA,23.052714398111725
93015,Ventura County,CA,77.97010228166798
93033,Ventura County,CA,7.867820613690007
93063,Ventura County,CA,27.222659323367427
93210,Fresno County,CA,63.335955940204556
93234,Fresno County,CA,91.26671911880409
93257,Tulare County,CA,49.09520062942565
93274,Tulare County,CA,55.468135326514556
93304,Kern County,CA,94.3351691581432
93305,Kern County,CA,60.11014948859166
93306,Kern County,CA,43.194335169158144
93307,Kern County,CA,34.77576711250984
93402,San Luis Obispo County,CA,98.7411487018096
93422,San Luis Obispo County,CA,38.158929976396536
93446,San Luis Obispo County,CA,19.040125885129818
93454,Santa Barbara County,CA,50.511408339889854
93458,Santa Barbara County,CA,35.798583792289534
93465,San Luis Obispo County,CA,93.78442171518489
93535,Los Angeles County,CA,5.9008654602675055
93543,Los Angeles County,CA,94.17781274586939
93550,Los Angeles County,CA,9.04799370574351
93551,Los Angeles County,CA,44.453186467348544
93552,Los Angeles County,CA,90.00786782061368
93611,Fresno County,CA,55.861526357199054
93619,Fresno County,CA,79.85837922895358
93638,Madera County,CA,85.12981904012588
93654,Fresno County,CA,43.82376081825334
93702,Fresno County,CA,82.37608182533438
93703,Fresno County,CA,35.483870967741936
93705,Fresno County,CA,76.08182533438239
93710,Fresno County,CA,73.87883556254917
93711,Fresno County,CA,94.6498819826908
93722,Fresno County,CA,53.42250196695515
93725,Fresno County,CA,52.47836349331235
93726,Fresno County,CA,16.207710464201416
93727,Fresno County,CA,61.841070023603464
93737,Fresno County,CA,100
93905,Monterey County,CA,78.04878048780488
93906,Monterey County,CA,32.022029897718326
93930,Monterey County,CA,88.59166011014949
93933,Monterey County,CA,51.691581431943355
94014,San Mateo County,CA,36.821400472069236
94040,Santa Clara County,CA,89.37844217151849
94043,Santa Clara County,CA,61.36900078678206
94066,San Mateo County,CA,94.96459480723838
94103,San Francisco County,CA,92.9976396538159
94121,San Francisco County,CA,57.90715971675846
94131,San Francisco County,CA,50.66876475216365
94301,Santa Clara County,CA,83.00550747442958
94403,San Mateo County,CA,77.73406766325728
94505,Contra Costa County,CA,97.4036191974823
94513,Contra Costa County,CA,68.92210857592447
94520,Contra Costa County,CA,53.029110936270655
94533,Solano County,CA,96.14476789929189
94536,Alameda County,CA,94.8859166011015
94538,Alameda County,CA,96.85287175452399
94539,Alameda County,CA,70.81038552321007
94541,Alameda County,CA,46.18410700236035
94558,Napa County,CA,23.367427222659323
94564,Contra Costa County,CA,72.69866247049566
94568,Alameda County,CA,43.35169158143194
94583,Contra Costa County,CA,96.2234461054288
94585,Solano County,CA,91.42407553107789
94601,Alameda County,CA,92.28953579858378
95012,Monterey County,CA,88.27694728560189
95023,San Benito County,CA,19.90558615263572
95051,Santa Clara County,CA,36.27065302911094
95062,Santa Cruz County,CA,95.4366640440598
95076,Santa Cruz County,CA,14.004720692368213
95123,Santa Clara County,CA,86.23131392604249
95132,Santa Clara County,CA,65.53894571203777
95133,Santa Clara County,CA,98.8985051140834
95139,Santa Clara County,CA,97.4822974036192
95148,Santa Clara County,CA,89.61447678992918
95206,San Joaquin County,CA,16.050354051927616
95207,San Joaquin County,CA,16.129032258064516
95240,San Joaquin County,CA,11.25098347757671
95337,San Joaquin County,CA,57.67112509834775
95351,Stanislaus County,CA,15.892997639653817
95367,Stanislaus County,CA,44.374508261211645
95376,San Joaquin County,CA,20.377655389457118
95380,Stanislaus County,CA,87.411487018096
95382,Stanislaus County,CA,17.545239968528715
95605,Yolo County,CA,80.09441384736428
95624,Sacramento County,CA,96.06608969315499
95630,Sacramento County,CA,18.80409126671912
95648,Placer County,CA,48.151062155782846
95655,Sacramento County,CA,97.8756884343037
95661,Placer County,CA,52.63571990558616
95667,El Dorado County,CA,80.17309205350118
95687,Solano County,CA,30.36978756884343
95691,Yolo County,CA,43.036978756884345
95747,Placer County,CA,58.69394177812745
95757,Sacramento County,CA,81.43194335169159
95765,Placer County,CA,91.58143194335169
95820,Sacramento County,CA,41.14870180959874
95822,Sacramento County,CA,78.91424075531079
95823,Sacramento County,CA,87.64752163650668
95824,Sacramento County,CA,98.1117230527144
95825,Sacramento County,CA,87.17545239968528
95838,Sacramento County,CA,54.366640440597955
95842,Sacramento County,CA,36.821400472069236
95961,Yuba County,CA,92.3682140047207
95993,Sutter County,CA,76.00314712824547
96001,Shasta County,CA,15.656963021243115
96003,Shasta County,CA,35.16915814319434
96094,Siskiyou County,CA,85.36585365853658
80011,Arapahoe County,CO,23.288749016522424
80014,Arapahoe County,CO,51.29819040125885
80018,Arapahoe County,CO,63.099921321793865
80030,Adams County,CO,63.021243115656965
80218,Denver County,CO,47.99370574350905
80602,Adams County,CO,38.080251770259636
80620,Weld County,CO,35.719905586152635
80634,Weld County,CO,1.8095987411487018
80701,Morgan County,CO,16.28638867033832
80751,Logan County,CO,34.461054287962234
81601,Garfield County,CO,90.6372934697089
06001,Hartford County,CT,67.97797010228167
06010,Hartford County,CT,9.12667191188041
06051,Hartford County,CT,14.870180959874116
06053,Hartford County,CT,7.238394964594807
06067,Hartford County,CT,54.602675059008654
06070,Hartford County,CT,90.4012588512982
06106,Hartford County,CT,3.383162863886703
06108,Hartford County,CT,21.87254130605822
06268,Tolland County,CT,85.60188827694729
06405,New Haven County,CT,33.280881195908734
06451,New Haven County,CT,17.62391817466562
06457,Middlesex County,CT,5.035405192761605
06460,New Haven County,CT,73.80015735641227
06492,New Haven County,CT,15.735641227380015
06512,New Haven County,CT,45.476003147128246
06516,New Haven County,CT,22.265932336742722
06606,Fairfield County,CT,65.93233674272227
06608,Fairfield County,CT,50.82612116443745
06610,Fairfield County,CT,19.748229740361918
06706,New Haven County,CT,92.5255704169945
06790,Litchfield County,CT,36.97875688434304
06810,Fairfield County,CT,11.014948859166012
06901,Fairfield County,CT,87.9622344610543
19702,New Castle County,DE,10.700236034618412
19720,New Castle County,DE,2.1243115656963023
19904,Kent County,DE,88.19826907946499
19966,Sussex County,DE,60.50354051927616
32034,Nassau County,FL,40.91266719118804
32038,Columbia County,FL,66.56176239181747
32225,Duval County,FL,21.08575924468922
32303,Leon County,FL,88.67033831628639
32327,Wakulla County,FL,65.38158929976396
32615,Alachua County,FL,74.66561762391818
32796,Brevard County,FL,42.32887490165224
32805,Orange County,FL,25.413060582218726
32818,Orange County,FL,11.880409126671912
32837,Orange County,FL,15.420928402832415
33023,Broward County,FL,14.398111723052715
33025,Broward County,FL,22.34461054287962
33033,Miami-Dade County,FL,60.03147128245476
33060,Broward County,FL,55.625491738788355
33065,Broward County,FL,38.78835562549174
33134,Miami-Dade County,FL,63.49331235247836
33161,Miami-Dade County,FL,27.53737214791503
33162,Miami-Dade County,FL,71.51848937844217
33177,Miami-Dade County,FL,35.562549173878836
33319,Broward County,FL,60.26750590086546
33325,Broward County,FL,60.188827694728566
33440,Hendry County,FL,40.440597954366645
33460,Palm Beach County,FL,37.45082612116444
33470,Palm Beach County,FL,51.927616050354054
33572,Hillsborough County,FL,91.66011014948859
33578,Hillsborough County,FL,27.45869394177813
33612,Hillsborough County,FL,7.081038552321008
33617,Hillsborough County,FL,25.963808025177027
33626,Hillsborough County,FL,81.98269079464988
33760,Pinellas County,FL,64.90952006294256
33801,Polk County,FL,59.48072383949646
33810,Polk County,FL,19.11880409126672
34224,Charlotte County,FL,98.6624704956727
34237,Sarasota County,FL,46.49881982690795
34668,Pasco County,FL,32.65145554681354
34744,Osceola County,FL,19.276160503540517
34761,Orange County,FL,72.06923682140047
34785,Sumter County,FL,85.91660110149488
34947,St. Lucie County,FL,43.98111723052715
34953,St. Lucie County,FL,3.8552321007081036
30004,Fulton County,GA,59.795436664044054
30016,Newton County,GA,8.575924468922109
30022,Fulton County,GA,57.74980330448466
30039,Gwinnett County,GA,31.628638867033832
30040,Forsyth County,GA,62.23446105428796
30044,Gwinnett County,GA,14.712824547600315
30068,Cobb County,GA,59.87411487018096
30102,Cherokee County,GA,81.90401258851298
30122,Douglas County,GA,70.02360346184106
30126,Cobb County,GA,35.24783634933124
30135,Douglas County,GA,9.520062942564909
30204,Lamar County,GA,73.48544453186467
30236,Clayton County,GA,74.74429583005508
30240,Troup County,GA,71.59716758457907
30274,Clayton County,GA,32.10070810385523
30349,Fulton County,GA,5.350118017309206
30501,Hall County,GA,52.32100708103855
30506,Hall County,GA,22.34461054287962
30622,Oconee County,GA,78.52084972462627
30707,Walker County,GA,33.75295043273013
30731,Chattooga County,GA,91.89614476789929
30755,Whitfield County,GA,49.88198269079465
30814,Columbia County,GA,68.68607395751377
31036,Pulaski County,GA,58.379228953579855
31419,Chatham County,GA,26.671911880409127
96701,Honolulu County,HI,26.278520849724625
96706,Honolulu County,HI,7.159716758457907
96734,Honolulu County,HI,55.861526357199054
96749,Hawaii County,HI,84.57907159716758
96761,Maui County,HI,97.7970102281668
96795,Honolulu County,HI,62.78520849724626
96817,Honolulu County,HI,32.41542092840283
96819,Honolulu County,HI,38.47364280094414
96825,Honolulu County,HI,43.58772619984264
83204,Bannock County,ID,43.35169158143194
83211,Power County,ID,72.22659323367428
83607,Canyon County,ID,30.76317859952793
83617,Gem County,ID,79.15027537372148
83713,Ada County,ID,88.74901652242329
60004,Cook County,IL,17.859952793076317
60010,Lake County,IL,31.628638867033832
60060,Lake County,IL,39.10306845003934
60152,McHenry County,IL,64.67348544453186
60188,DuPage County,IL,13.611329661683714
60302,Cook County,IL,25.963808025177027
60402,Cook County,IL,7.553107789142407
60513,Cook County,IL,79.46498819826908
60543,Kendall County,IL,28.87490165224233
60561,DuPage County,IL,46.734854445318646
60601,Cook County,IL,75.68843430369787
60615,Cook County,IL,17.781274586939418
60626,Cook County,IL,14.162077104642016
60629,Cook County,IL,4.248623131392605
60632,Cook County,IL,9.205350118017309
60633,Cook County,IL,54.99606608969315
60638,Cook County,IL,63.257277734067664
60644,Cook County,IL,24.31156569630212
60646,Cook County,IL,39.81117230527144
60656,Cook County,IL,39.65381589299764
60659,Cook County,IL,38.63099921321794
60804,Cook County,IL,14.791502753737214
61350,LaSalle County,IL,82.6121164437451
61356,Bureau County,IL,61.91974822974036
61920,Coles County,IL,69.70889063729348
62206,St. Clair County,IL,54.91738788355626
62703,Sangamon County,IL,22.029897718332023
62711,Sangamon County,IL,91.34539732494099
46011,Madison County,IN,39.96852871754524
46062,Hamilton County,IN,47.52163650668765
46106,Johnson County,IN,88.27694728560189
46226,Marion County,IN,7.946498819826909
46322,Lake County,IN,17.38788355625492
46323,Lake County,IN,15.263571990558617
46356,Lake County,IN,50.90479937057435
46360,LaPorte County,IN,3.6978756884343036
46368,Porter County,IN,2.0456333595594023
46394,Lake County,IN,44.84657749803305
46526,Elkhart County,IN,45.869394177812744
46563,Marshall County,IN,32.966168371361135
46706,DeKalb County,IN,37.136113296616834
46845,Allen County,IN,46.970889063729345
46902,Howard County,IN,2.832415420928403
46996,Pulaski County,IN,66.01101494885917
47356,Henry County,IN,90.4799370574351
47421,Lawrence County,IN,26.986624704956725
47591,Knox County,IN,28.40283241542093
47710,Vanderburgh County,IN,81.74665617623918
50220,Dallas County,IA,57.27773406766325
50317,Polk County,IA,7.631785995279309
50588,Buena Vista County,IA,59.08733280881195
50701,Black Hawk County,IA,25.727773406766325
50702,Black Hawk County,IA,33.91030684500394
51106,Woodbury County,IA,39.57513768686074
51501,Pottawattamie County,IA,2.5177025963808024
52302,Linn County,IA,15.971675845790717
52317,Johnson County,IA,41.46341463414634
52405,Linn County,IA,31.549960660896932
52577,Mahaska County,IA,29.42564909520063
52722,Scott County,IA,15.184893784421716
52761,Muscatine County,IA,7.474429583005507
52804,Scott County,IA,12.037765538945711
66062,Johnson County,KS,6.923682140047208
66502,Riley County,KS,61.447678992918966
66547,Pottawatomie County,KS,74.98033044846576
66609,Shawnee County,KS,84.89378442171518
67042,Butler County,KS,48.78048780487805
67205,Sedgwick County,KS,79.30763178599528
67218,Sedgwick County,KS,62.15578284815106
40143,Breckinridge County,KY,80.56648308418568
41017,Kenton County,KY,74.90165224232888
41048,Boone County,KY,85.68056648308419
41076,Campbell County,KY,91.50275373721479
41094,Boone County,KY,82.06136900078678
41101,Boyd County,KY,12.588512981904012
41144,Greenup County,KY,32.49409913453973
41230,Lawrence County,KY,18.33202202989772
41314,Owsley County,KY,82.14004720692368
42164,Allen County,KY,57.04169944925256
42211,Trigg County,KY,50.03933910306845
42301,Daviess County,KY,28.009441384736427
42633,Wayne County,KY,42.48623131392604
70001,Jefferson Parish,LA,68.76475216365067
70006,Jefferson Parish,LA,83.47757671125098
70030,St. Charles Parish,LA,77.49803304484658
70053,Jefferson Parish,LA,60.89693154996066
70056,Jefferson Parish,LA,87.5688434303698
70072,Jefferson Parish,LA,6.136900078678206
70380,St. Mary Parish,LA,44.76789929189614
70403,Tangipahoa Parish,LA,20.69236821400472
70501,Lafayette Parish,LA,1.3375295043273014
70592,Lafayette Parish,LA,21.321793863099924
70633,Calcasieu Parish,LA,98.2690794649882
70665,Calcasieu Parish,LA,96.6168371361133
70706,Livingston Parish,LA,24.704956726986623
70726,Livingston Parish,LA,41.07002360346184
70806,East Baton Rouge Parish,LA,33.91030684500394
70808,East Baton Rouge Parish,LA,61.762391817466565
70812,East Baton Rouge Parish,LA,78.44217151848937
70816,East Baton Rouge Parish,LA,36.19197482297404
70820,East Baton Rouge Parish,LA,89.14240755310779
71107,Caddo Parish,LA,2.2816679779701023
71111,Bossier Parish,LA,3.6191974822974036
71118,Caddo Parish,LA,15.578284815106217
71119,Caddo Parish,LA,46.813532651455546
71202,Ouachita Parish,LA,92.84028324154208
71322,Avoyelles Parish,LA,71.67584579071598
04062,Cumberland County,ME,45.397324940991346
04103,Cumberland County,ME,57.51376868607396
04330,Kennebec County,ME,4.091266719118805
04345,Kennebec County,ME,61.99842643587726
04412,Penobscot County,ME,83.87096774193549
04462,Penobscot County,ME,93.1549960660897
20636,St. Mary's County,MD,74.42958300550747
20653,St. Mary's County,MD,51.45554681353265
20743,Prince George's County,MD,27.852084972462627
20748,Prince George's County,MD,74.35090479937058
20772,Prince George's County,MD,39.02439024390244
21030,Baltimore County,MD,98.81982690794649
21045,Howard County,MD,39.33910306845004
21117,Baltimore County,MD,22.58064516129032
21122,Anne Arundel County,MD,5.271439811172305
21128,Baltimore County,MD,93.94177812745869
21144,Anne Arundel County,MD,86.07395751376869
21204,Baltimore County,MD,55.704169944925255
21206,Baltimore city,MD,85.20849724626278
21207,Baltimore County,MD,85.05114083398898
21214,Baltimore city,MD,92.6829268292683
21220,Baltimore County,MD,13.217938630999212
21222,Baltimore County,MD,3.461841070023604
21228,Baltimore County,MD,41.699449252557045
21230,Baltimore city,MD,28.08811959087333
21601,Talbot County,MD,55.15342250196695
21784,Carroll County,MD,68.92210857592447
01020,Hampden County,MA,30.99921321793863
01040,Hampden County,MA,54.209284028324156
01107,Hampden County,MA,19.51219512195122
01109,Hampden County,MA,10.149488591660111
01532,Worcester County,MA,38.94571203776554
01545,Worcester County,MA,12.352478363493312
01581,Worcester County,MA,90.95200629425649
01603,Worcester County,MA,64.51612903225806
01702,Middlesex County,MA,0.865460267505901
01721,Middlesex County,MA,52.16365066876475
01760,Middlesex County,MA,29.11093627065303
01778,Middlesex County,MA,84.10700236034619
01801,Middlesex County,MA,15.499606608969316
01843,Essex County,MA,2.2029897718332023
01844,Essex County,MA,42.95830055074744
01863,Middlesex County,MA,43.74508261211644
01867,Middlesex County,MA,48.072383949645946
01904,Essex County,MA,6.845003933910307
01906,Essex County,MA,12.195121951219512
01913,Essex County,MA,76.63257277734068
01915,Essex County,MA,42.87962234461054
01930,Essex County,MA,28.324154209284032
01944,Essex County,MA,95.5940204563336
01949,Essex County,MA,76.16050354051927
01960,Essex County,MA,0.3933910306845004
01970,Essex County,MA,0.6294256490952006
02050,Plymouth County,MA,14.948859166011013
02061,Plymouth County,MA,54.13060582218725
02066,Plymouth County,MA,29.346970889063726
02115,Suffolk County,MA,4.405979543666405
02124,Suffolk County,MA,5.979543666404406
02125,Suffolk County,MA,77.10464201416207
02128,Suffolk County,MA,0.07867820613690008
02134,Suffolk County,MA,91.9748229740362
02135,Suffolk County,MA,57.19905586152636
02136,Suffolk County,MA,8.81195908733281
02145,Middlesex County,MA,3.304484657749803
02148,Middlesex County,MA,0
02149,Middlesex County,MA,17.309205350118017
02169,Norfolk County,MA,2.989771833202203
02180,Middlesex County,MA,48.46577498033045
02184,Norfolk County,MA,54.366640440597955
02189,Norfolk County,MA,17.073170731707318
02339,Plymouth County,MA,56.41227380015735
02343,Norfolk County,MA,30.21243115656963
02452,Middlesex County,MA,50.11801730920536
02453,Middlesex County,MA,44.217151848937846
02472,Middlesex County,MA,4.878048780487805
02474,Middlesex County,MA,34.146341463414636
02702,Bristol County,MA,99.2918961447679
02719,Bristol County,MA,37.68686073957514
02748,Bristol County,MA,57.82848151062156
02771,Bristol County,MA,31.235247836349334
48035,Macomb County,MI,28.560188827694727
48044,Macomb County,MI,5.192761605035405
48048,Macomb County,MI,61.605035405192766
48066,Macomb County,MI,13.296616837136114
48067,Oakland County,MI,28.87490165224233
48076,Oakland County,MI,67.58457907159718
48084,Oakland County,MI,67.26986624704956
48088,Macomb County,MI,81.11723052714397
48092,Macomb County,MI,21.79386309992132
48093,Macomb County,MI,14.319433516915813
48097,St. Clair County,MI,95.2006294256491
48103,Washtenaw County,MI,36.11329661683714
48117,Monroe County,MI,68.29268292682927
48120,Wayne County,MI,59.71675845790716
48125,Wayne County,MI,75.76711250983477
48134,Wayne County,MI,20.06294256490952
48160,Washtenaw County,MI,58.536585365853654
48162,Monroe County,MI,8.418568056648308
48174,Wayne County,MI,21.557828481510622
48178,Oakland County,MI,25.255704169944927
48187,Wayne County,MI,45.790715971675844
48188,Wayne County,MI,33.51691581431943
48203,Wayne County,MI,10.07081038552321
48211,Wayne County,MI,97.5609756097561
48212,Wayne County,MI,64.04405979543665
48223,Wayne County,MI,33.202202989771834
48227,Wayne County,MI,2.4390243902439024
48228,Wayne County,MI,18.09598741148702
48235,Wayne County,MI,9.99213217938631
48310,Macomb County,MI,11.329661683713612
48326,Oakland County,MI,40.91266719118804
48334,Oakland County,MI,94.41384736428009
48335,Oakland County,MI,40.755310778914236
48382,Oakland County,MI,97.3249409913454
48390,Oakland County,MI,78.28481510621558
48416,Sanilac County,MI,93.0763178599528
48453,Sanilac County,MI,68.13532651455547
48505,Genesee County,MI,13.060582218725415
48650,Bay County,MI,68.45003933910306
48661,Ogemaw County,MI,68.84343036978757
48706,Bay County,MI,4.956726986624705
48708,Bay County,MI,5.114083398898505
48808,Clinton County,MI,88.90637293469709
48823,Ingham County,MI,25.885129819040127
48840,Ingham County,MI,84.18568056648309
48884,Montcalm County,MI,98.50511408339891
48893,Isabella County,MI,59.87411487018096
48906,Ingham County,MI,76.71125098347757
48910,Ingham County,MI,7.789142407553109
48911,Ingham County,MI,4.484657749803304
49006,Kalamazoo County,MI,40.12588512981904
49024,Kalamazoo County,MI,18.646734854445317
49053,Kalamazoo County,MI,84.42171518489378
49068,Calhoun County,MI,79.77970102281668
49071,Van Buren County,MI,57.98583792289536
49079,Van Buren County,MI,56.41227380015735
49093,St. Joseph County,MI,22.738001573564123
49107,Berrien County,MI,77.41935483870968
49201,Jackson County,MI,5.664830841856806
49203,Jackson County,MI,22.97403619197482
49323,Allegan County,MI,87.0180959874115
49348,Allegan County,MI,24.862313139260426
49504,Kent County,MI,9.83477576711251
49651,Missaukee County,MI,73.95751376868608
55008,Isanti County,MN,87.25413060582218
55044,Dakota County,MN,40.36191974822974
55104,Ramsey County,MN,10.30684500393391
55108,Ramsey County,MN,76.31785995279307
55119,Ramsey County,MN,60.42486231313926
55130,Ramsey County,MN,91.73878835562549
55303,Anoka County,MN,12.824547600314713
55305,Hennepin County,MN,95.279307631786
55336,McLeod County,MN,97.639653815893
55342,Renville County,MN,99.5279307631786
55343,Hennepin County,MN,61.13296616837136
55347,Hennepin County,MN,53.34382376081825
55350,McLeod County,MN,20.77104642014162
55363,Wright County,MN,91.18804091266719
55379,Scott County,MN,71.91188040912667
55405,Hennepin County,MN,28.79622344610543
55406,Hennepin County,MN,86.15263571990559
55407,Hennepin County,MN,92.7616050354052
55408,Hennepin County,MN,30.68450039339103
55411,Hennepin County,MN,26.12116443745083
55416,Hennepin County,MN,34.539732494099134
55423,Hennepin County,MN,67.66325727773406
55429,Hennepin County,MN,8.339889850511408
55431,Hennepin County,MN,93.3910306845004
55445,Hennepin County,MN,93.70574350904799
55446,Hennepin County,MN,85.4445318646735
55734,St. Louis County,MN,99.1345397324941
55744,Itasca County,MN,11.17230527143981
55912,Mower County,MN,21.24311565696302
55987,Winona County,MN,24.940991345397325
56001,Blue Earth County,MN,23.996852871754523
56011,Scott County,MN,78.67820613690007
56082,Nicollet County,MN,59.323367427222664
56175,Lyon County,MN,98.426435877262
56241,Yellow Medicine County,MN,88.51298190401259
56345,Morrison County,MN,74.11487018095987
56359,Mille Lacs County,MN,98.5837922895358
56479,Todd County,MN,91.10936270653029
56520,Wilkin County,MN,62.78520849724626
56716,Polk County,MN,67.19118804091266
56721,Polk County,MN,43.98111723052715
38801,Lee County,MS,30.84185680566483
38901,Grenada County,MS,70.73170731707317
38941,Leflore County,MS,99.4492525570417
39095,Holmes County,MS,74.03619197482297
39503,Harrison County,MS,6.766325727773406
39565,Jackson County,MS,74.27222659323367
39571,Harrison County,MS,56.17623918174666
39573,Stone County,MS,80.88119590873329
39652,Pike County,MS,59.00865460267506
63025,St. Louis County,MO,73.64280094413847
63116,St. Louis city,MO,26.986624704956725
63119,St. Louis County,MO,52.793076317859956
63146,St. Louis County,MO,67.11250983477576
63343,Lincoln County,MO,93.3123524783635
63376,St. Charles County,MO,54.76003147128245
63383,Warren County,MO,44.138473642800946
63385,St. Charles County,MO,63.72934697088907
63628,St. Francois County,MO,50.59008654602675
64063,Jackson County,MO,30.920535011801732
64079,Platte County,MO,46.02675059008654
64081,Jackson County,MO,37.214791502753734
64083,Cass County,MO,77.26199842643588
64118,Clay County,MO,61.21164437450825
64468,Nodaway County,MO,97.24626278520849
64735,Henry County,MO,89.45712037765539
64744,Cedar County,MO,63.88670338316287
65301,Pettis County,MO,15.263571990558617
65340,Saline County,MO,76.47521636506688
65622,Dallas County,MO,81.19590873328089
65803,Greene County,MO,6.608969315499606
59901,Flathead County,MT,23.603461841070022
68025,Dodge County,NE,27.694728560188832
68116,Douglas County,NE,72.77734067663258
68434,Seward County,NE,97.9543666404406
68818,Hamilton County,NE,99.6852871754524
89121,Clark County,NV,19.590873328088122
89148,Clark County,NV,62.62785208497246
89149,Clark County,NV,50.35405192761605
89434,Washoe County,NV,34.85444531864674
03060,Hillsborough County,NH,4.563335955940205
03079,Rockingham County,NH,51.37686860739576
03103,Hillsborough County,NH,4.012588512981904
03106,Merrimack County,NH,68.52871754523997
03264,Grafton County,NH,85.2871754523997
03301,Merrimack County,NH,12.273800157356412
03867,Strafford County,NH,16.601101494885917
07024,Bergen County,NJ,25.806451612903224
07060,Union County,NJ,4.642014162077104
07104,Essex County,NJ,3.7765538945712036
07108,Essex County,NJ,8.654602675059008
07442,Passaic County,NJ,93.54838709677419
07501,Passaic County,NJ,1.2588512981904012
07508,Passaic County,NJ,82.45476003147128
07601,Bergen County,NJ,19.19748229740362
07675,Bergen County,NJ,52.24232887490166
07747,Monmouth County,NJ,25.177025963808024
07960,Morris County,NJ,40.676632572777336
08030,Camden County,NJ,84.73642800944138
08048,Burlington County,NJ,49.64594807238395
08059,Camden County,NJ,82.84815106215578
08087,Ocean County,NJ,39.88985051140834
08302,Cumberland County,NJ,1.1014948859166012
08318,Salem County,NJ,45.554681353265146
08401,Atlantic County,NJ,14.476789929189614
08520,Mercer County,NJ,77.73406766325728
08648,Mercer County,NJ,34.22501966955153
08753,Ocean County,NJ,1.4162077104642015
08802,Hunterdon County,NJ,99.9213217938631
08817,Middlesex County,NJ,15.814319433516916
08850,Middlesex County,NJ,99.2918961447679
08873,Somerset County,NJ,9.91345397324941
08902,Middlesex County,NJ,51.691581431943355
87107,Bernalillo County,NM,24.783634933123526
87124,Sandoval County,NM,7.317073170731707
87301,McKinley County,NM,71.43981117230527
87323,McKinley County,NM,93.46970889063729
87401,San Juan County,NM,84.65774980330448
87413,San Juan County,NM,41.62077104642014
88240,Lea County,NM,4.169944925255704
88242,Lea County,NM,64.59480723839496
10002,New York County,NY,56.80566483084186
10026,New York County,NY,80.72383949645948
10027,New York County,NY,66.40440597954367
10029,New York County,NY,0.3147128245476003
10452,Bronx County,NY,10.93627065302911
10453,Bronx County,NY,0.47206923682140045
10458,Bronx County,NY,0.15735641227380015
10460,Bronx County,NY,1.1801730920535012
10462,Bronx County,NY,55.78284815106216
10463,Bronx County,NY,23.131392604248624
10467,Bronx County,NY,49.33123524783635
10468,Bronx County,NY,1.0228166797797011
10472,Bronx County,NY,22.659323367427223
10541,Putnam County,NY,76.39653815892997
10552,Westchester County,NY,49.488591660110146
10965,Rockland County,NY,89.92918961447678
10977,Rockland County,NY,23.760818253343825
11105,Queens County,NY,81.51062155782847
11205,Kings County,NY,32.80881195908733
11206,Kings County,NY,51.534225019669556
11207,Kings County,NY,70.33831628638868
11208,Kings County,NY,0.7867820613690008
11219,Kings County,NY,34.382376081825335
11220,Kings County,NY,13.453973249409914
11223,Kings County,NY,91.03068450039339
11224,Kings County,NY,40.83398898505114
11226,Kings County,NY,15.027537372147915
11230,Kings County,NY,11.565696302124312
11356,Queens County,NY,65.06687647521636
11367,Queens County,NY,37.84421715184894
11368,Queens County,NY,57.59244689221086
11372,Queens County,NY,22.029897718332023
11373,Queens County,NY,69.15814319433517
11377,Queens County,NY,79.38630999213217
11420,Queens County,NY,64.12273800157357
11429,Queens County,NY,78.83556254917387
11432,Queens County,NY,18.48937844217152
11435,Queens County,NY,30.291109362706532
11580,Nassau County,NY,86.38867033831629
11717,Suffolk County,NY,54.52399685287176
11722,Suffolk County,NY,16.837136113296616
11743,Suffolk County,NY,80.95987411487017
11772,Suffolk County,NY,51.21951219512195
12180,Rensselaer County,NY,9.67741935483871
12205,Albany County,NY,43.66640440597954
12210,Albany County,NY,86.78206136900079
12303,Schenectady County,NY,30.13375295043273
12901,Clinton County,NY,26.90794649881983
12937,Franklin County,NY,90.16522423288748
12946,Essex County,NY,69.86624704956726
13031,Onondaga County,NY,34.93312352478363
13032,Madison County,NY,24.626278520849727
13152,Onondaga County,NY,33.123524783634934
13754,Broome County,NY,57.27773406766325
13760,Broome County,NY,13.375295043273013
13850,Broome County,NY,11.093627065302911
14086,Erie County,NY,56.01888276947285
14098,Orleans County,NY,80.25177025963808
14204,Erie County,NY,87.8048780487805
14207,Erie County,NY,71.36113296616837
14212,Erie County,NY,32.25806451612903
14221,Erie County,NY,31.31392604248623
14222,Erie County,NY,69.39417781274587
14224,Erie County,NY,18.017309205350116
14226,Erie County,NY,21.71518489378442
14420,Monroe County,NY,10.62155782848151
14424,Ontario County,NY,1.9669551534225018
14425,Ontario County,NY,12.431156569630213
14519,Wayne County,NY,75.60975609756098
14560,Livingston County,NY,94.72856018882769
14580,Monroe County,NY,0.5507474429583006
14586,Monroe County,NY,67.89929189614476
14609,Monroe County,NY,0.23603461841070023
14617,Monroe County,NY,19.43351691581432
14624,Monroe County,NY,1.730920535011802
27106,Forsyth County,NC,8.81195908733281
27107,Forsyth County,NC,31.156569630212434
27203,Randolph County,NC,72.14791502753737
27295,Davidson County,NC,56.33359559402046
27349,Alamance County,NC,68.37136113296617
27406,Guilford County,NC,3.147128245476003
27502,Wake County,NC,48.229740361919745
27514,Orange County,NC,90.2439024390244
27516,Orange County,NC,50.747442958300546
27521,Harnett County,NC,80.80251770259638
27522,Granville County,NC,64.90952006294256
27537,Vance County,NC,28.16679779701023
27592,Wake County,NC,56.56963021243116
27604,Wake County,NC,25.255704169944927
27610,Wake County,NC,4.799370574350905
28012,Gaston County,NC,82.53343823760818
28037,Lincoln County,NC,73.72147915027537
28043,Rutherford County,NC,31.07789142407553
28078,Mecklenburg County,NC,51.140833988985044
28144,Rowan County,NC,26.435877261998424
28150,Cleveland County,NC,44.68922108575924
28164,Gaston County,NC,67.34854445318646
28170,Anson County,NC,69.70889063729348
28205,Mecklenburg County,NC,42.17151848937844
28215,Mecklenburg County,NC,10.38552321007081
28226,Mecklenburg County,NC,42.32887490165224
28227,Mecklenburg County,NC,42.25019669551534
28269,Mecklenburg County,NC,49.252557041699454
28273,Mecklenburg County,NC,35.24783634933124
28328,Sampson County,NC,27.773406766325724
28334,Sampson County,NC,19.35483870967742
28429,New Hanover County,NC,70.41699449252557
28551,Lenoir County,NC,48.38709677419355
28560,Craven County,NC,20.928402832415422
28621,Surry County,NC,61.29032258064516
28657,Avery County,NC,53.73721479150275
28726,Henderson County,NC,99.8426435877262
28752,McDowell County,NC,10.85759244689221
28792,Henderson County,NC,51.06215578284815
58701,Ward County,ND,6.530291109362707
43004,Franklin County,OH,33.044846577498035
43016,Franklin County,OH,48.30841856805665
43081,Franklin County,OH,16.522423288749017
43147,Fairfield County,OH,60.346184107002365
43160,Fayette County,OH,49.173878835562554
43206,Franklin County,OH,47.83634933123525
43211,Franklin County,OH,29.50432730133753
43219,Franklin County,OH,10.22816679779701
43232,Franklin County,OH,15.106215578284814
43512,Defiance County,OH,3.068450039339103
43605,Lucas County,OH,1.4948859166011015
43608,Lucas County,OH,5.428796223446105
43612,Lucas County,OH,3.225806451612903
43613,Lucas County,OH,2.675059008654603
43616,Lucas County,OH,8.733280881195908
43832,Tuscarawas County,OH,47.44295830055075
43845,Coshocton County,OH,49.80330448465775
43943,Jefferson County,OH,98.97718332022029
44011,Lorain County,OH,22.816679779701023
44024,Geauga County,OH,75.29504327301338
44030,Ashtabula County,OH,45.08261211644374
44035,Lorain County,OH,43.115656963021245
44052,Lorain County,OH,83.08418568056648
44055,Lorain County,OH,5.586152635719905
44070,Cuyahoga County,OH,16.758457907159716
44089,Erie County,OH,55.23210070810386
44095,Lake County,OH,88.1195908733281
44102,Cuyahoga County,OH,2.753737214791503
44105,Cuyahoga County,OH,66.48308418568057
44107,Cuyahoga County,OH,20.61369000786782
44111,Cuyahoga County,OH,29.897718332022027
44120,Cuyahoga County,OH,12.745869394177815
44125,Cuyahoga County,OH,0.9441384736428009
44126,Cuyahoga County,OH,66.79779701022817
44130,Cuyahoga County,OH,75.45239968528718
44139,Cuyahoga County,OH,59.24468922108576
44145,Cuyahoga County,OH,39.417781274586936
44146,Cuyahoga County,OH,19.82690794649882
44147,Cuyahoga County,OH,38.552321007081034
44212,Medina County,OH,76.55389457120377
44223,Summit County,OH,37.92289535798584
44256,Medina County,OH,2.911093627065303
44428,Trumbull County,OH,97.1675845790716
44484,Trumbull County,OH,20.298977183320222
44511,Mahoning County,OH,16.99449252557042
44512,Mahoning County,OH,6.372934697088907
44622,Tuscarawas County,OH,25.49173878835563
44646,Stark County,OH,6.058221872541306
44667,Wayne County,OH,83.63493312352477
44706,Stark County,OH,25.019669551534225
44707,Stark County,OH,47.04956726986625
44720,Stark County,OH,20.849724626278523
44857,Huron County,OH,58.45790715971676
44903,Richland County,OH,13.139260424862313
44904,Richland County,OH,83.71361132966169
45005,Warren County,OH,25.649095200629425
45011,Butler County,OH,1.4948859166011015
45044,Butler County,OH,67.50590086546026
45069,Butler County,OH,16.679779701022817
45211,Hamilton County,OH,53.42250196695515
45231,Hamilton County,OH,23.68214004720692
45305,Greene County,OH,59.323367427222664
45373,Miami County,OH,20.53501180173092
45661,Pike County,OH,63.65066876475216
45840,Hancock County,OH,1.8882769472856018
73013,Oklahoma County,OK,74.58693941778127
73170,Cleveland County,OK,23.760818253343825
73538,Comanche County,OK,99.6066089693155
73703,Garfield County,OK,41.935483870967744
74017,Rogers County,OK,35.09047993705743
74019,Rogers County,OK,89.22108575924469
74033,Tulsa County,OK,85.68056648308419
74039,Creek County,OK,89.6931549960661
74044,Creek County,OK,83.24154209284028
74106,Tulsa County,OK,55.31077891424076
74110,Tulsa County,OK,72.61998426435878
97005,Washington County,OR,64.83084185680566
97078,Washington County,OR,76.86860739575138
97113,Washington County,OR,56.884343036978755
97123,Washington County,OR,56.648308418568064
97128,Yamhill County,OR,13.532651455546812
97203,Multnomah County,OR,86.93941778127459
97219,Multnomah County,OR,47.60031471282455
97222,Clackamas County,OR,66.01101494885917
97230,Multnomah County,OR,45.31864673485445
97233,Multnomah County,OR,79.071597167584585
97266,Multnomah County,OR,24.232887490165226
97267,Clackamas County,OR,28.16679779701023
97301,Marion County,OR,32.88749016522423
97303,Marion County,OR,73.09205350118017
97304,Polk County,OR,45.94807238394964
97305,Marion County,OR,18.25334382376082
97330,Benton County,OR,40.597954366640444
97355,Linn County,OR,66.71911880409127
97378,Yamhill County,OR,87.88355625491738
97527,Josephine County,OR,35.95594020456333
97601,Klamath County,OR,12.509834775767112
97603,Klamath County,OR,14.083398898505115
97741,Jefferson County,OR,88.43430369787569
97801,Umatilla County,OR,27.143981117230524
97914,Malheur County,OR,59.63808025177026
15044,Allegheny County,PA,49.01652242328875
15120,Allegheny County,PA,35.641227380015735
15206,Allegheny County,PA,12.588512981904012
15235,Allegheny County,PA,14.162077104642016
16001,Butler County,PA,2.5963808025177024
16403,Crawford County,PA,77.89142407553108
16652,Huntingdon County,PA,94.8072383949646
16749,McKean County,PA,81.27458693941779
17046,Lebanon County,PA,6.215578284815106
17051,Mifflin County,PA,90.87332808811959
17057,Dauphin County,PA,12.981904012588513
17110,Dauphin County,PA,10.778914240755311
17111,Dauphin County,PA,37.60818253343824
17319,York County,PA,53.57985837922895
17325,Adams County,PA,17.151848937844218
17356,York County,PA,21.400472069236823
17370,York County,PA,81.35326514555467
17402,York County,PA,66.95515342250197
17404,York County,PA,7.395751376868607
17501,Lancaster County,PA,85.52321007081038
17522,Lancaster County,PA,71.20377655389457
17527,Lancaster County,PA,96.7741935483871
17701,Lycoming County,PA,44.610542879622344
17954,Schuylkill County,PA,71.04642014162077
17963,Schuylkill County,PA,68.60739575137687
18015,Northampton County,PA,25.098347757671124
18042,Northampton County,PA,17.702596380802518
18088,Northampton County,PA,94.492525570417
18102,Lehigh County,PA,42.56490952006294
18104,Lehigh County,PA,9.44138473642801
18603,Columbia County,PA,9.36270653029111
18702,Luzerne County,PA,58.536585365853654
18704,Luzerne County,PA,11.723052714398111
18976,Bucks County,PA,40.28324154209284
19020,Bucks County,PA,67.74193548387096
19023,Delaware County,PA,49.56726986624705
19064,Delaware County,PA,89.29976396538159
19066,Montgomery County,PA,72.93469708890638
19070,Delaware County,PA,94.02045633359559
19078,Delaware County,PA,51.61290322580645
19082,Delaware County,PA,56.25491738788355
19111,Philadelphia County,PA,41.30605822187255
19120,Philadelphia County,PA,2.3603461841070024
19124,Philadelphia County,PA,5.507474429583006
19131,Philadelphia County,PA,18.568056648308417
19133,Philadelphia County,PA,10.464201416207711
19140,Philadelphia County,PA,62.31313926042487
19141,Philadelphia County,PA,23.446105428796223
19153,Philadelphia County,PA,74.82297403619197
19382,Chester County,PA,87.09677419354838
19422,Montgomery County,PA,77.57671125098348
19438,Montgomery County,PA,63.17859952793077
19465,Chester County,PA,41.46341463414634
19468,Montgomery County,PA,57.43509047993706
19604,Berks County,PA,31.785995279307635
02806,Bristol County,RI,96.3808025177026
02864,Providence County,RI,47.128245476003144
02896,Providence County,RI,72.54130605822188
02911,Providence County,RI,53.73721479150275
29010,Lee County,SC,60.660896931549956
29061,Richland County,SC,66.87647521636507
29063,Richland County,SC,46.10542879622345
29204,Richland County,SC,55.54681353265145
29407,Charleston County,SC,56.963021243115655
29431,Berkeley County,SC,84.89378442171518
29455,Charleston County,SC,41.699449252557045
29456,Dorchester County,SC,81.66797797010229
29472,Dorchester County,SC,68.92210857592447
29483,Dorchester County,SC,52.950432730133755
29488,Colleton County,SC,54.05192761605036
29501,Florence County,SC,23.524783634933126
29540,Darlington County,SC,95.9087332808812
29621,Anderson County,SC,29.189614476789927
29662,Greenville County,SC,50.43273013375295
29708,York County,SC,63.80802517702596
29860,Edgefield County,SC,83.16286388670339
29902,Beaufort County,SC,64.28009441384737
57005,Minnehaha County,SD,69.63021243115656
57006,Brookings County,SD,50.275373721479156
57064,Lincoln County,SD,95.5940204563336
57103,Minnehaha County,SD,16.915814319433515
37110,Warren County,TN,11.48701809598741
37148,Sumner County,TN,31.785995279307635
37160,Bedford County,TN,13.611329661683714
37190,Cannon County,TN,65.85365853658537
37212,Davidson County,TN,82.76947285601888
37412,Hamilton County,TN,41.22738001573564
37643,Carter County,TN,8.261211644374509
37725,Jefferson County,TN,42.64358772619985
37801,Blount County,TN,10.54287962234461
37871,Jefferson County,TN,73.24940991345397
37917,Knox County,TN,38.70967741935484
38106,Shelby County,TN,52.39968528717546
38107,Shelby County,TN,33.43823760818253
38109,Shelby County,TN,30.527143981117234
38128,Shelby County,TN,14.634146341463413
38375,McNairy County,TN,69.94492525570418
38464,Lawrence County,TN,23.996852871754523
38474,Maury County,TN,65.61762391817466
75019,Dallas County,TX,43.90243902439025
75034,Denton County,TX,29.661683713611332
75041,Dallas County,TX,35.24783634933124
75051,Dallas County,TX,33.59559402045633
75071,Collin County,TX,19.98426435877262
75075,Collin County,TX,50.98347757671126
75081,Dallas County,TX,85.99527930763179
75110,Navarro County,TX,34.06766325727774
75142,Kaufman County,TX,73.40676632572777
75159,Dallas County,TX,77.34067663257278
75208,Dallas County,TX,48.70180959874115
75211,Dallas County,TX,54.681353265145546
75212,Dallas County,TX,61.99842643587726
75217,Dallas County,TX,5.822187254130606
75220,Dallas County,TX,38.86703383162864
75228,Dallas County,TX,4.327301337529504
75230,Dallas County,TX,86.54602675059009
75231,Dallas County,TX,36.27065302911094
75238,Dallas County,TX,52.71439811172305
75241,Dallas County,TX,45.23996852871755
75254,Dallas County,TX,86.30999213217939
75287,Denton County,TX,32.17938630999213
75503,Bowie County,TX,40.519276160503544
75645,Upshur County,TX,67.82061369000787
75654,Rusk County,TX,96.45948072383949
75670,Harrison County,TX,58.143194335169156
75701,Smith County,TX,27.930763178599527
76011,Tarrant County,TX,44.295830055074745
76013,Tarrant County,TX,95.5153422501967
76053,Tarrant County,TX,58.300550747442955
76087,Parker County,TX,53.65853658536586
76106,Tarrant County,TX,64.20141620771047
76110,Tarrant County,TX,34.69708890637293
76119,Tarrant County,TX,23.21007081038552
76131,Tarrant County,TX,40.12588512981904
76135,Tarrant County,TX,80.40912667191188
76148,Tarrant County,TX,32.57277734067664
76164,Tarrant County,TX,78.12745869394178
76209,Denton County,TX,67.03383162863886
76227,Denton County,TX,52.006294256490946
76240,Cooke County,TX,31.47128245476003
76301,Wichita County,TX,37.45082612116444
76513,Bell County,TX,24.547600314712824
76543,Bell County,TX,64.35877261998426
76706,McLennan County,TX,26.82926829268293
76903,Tom Green County,TX,33.35955940204563
77004,Harris County,TX,87.7261998426436
77009,Harris County,TX,37.057435090479935
77016,Harris County,TX,84.343036978756885
77023,Harris County,TX,72.22659323367428
77031,Harris County,TX,62.47049567269867
77032,Harris County,TX,98.34775767112511
77036,Harris County,TX,68.05664830841856
77038,Harris County,TX,83.79228953579857
77040,Harris County,TX,36.66404405979544
77062,Harris County,TX,47.67899291896145
77070,Harris County,TX,37.214791502753734
77093,Harris County,TX,80.01573564122738
77301,Montgomery County,TX,69.47285601888277
77328,San Jacinto County,TX,65.77498033044846
77356,Montgomery County,TX,52.87175452399685
77365,Montgomery County,TX,66.24704956726987
77373,Harris County,TX,48.93784421715185
77379,Harris County,TX,17.859952793076317
77406,Fort Bend County,TX,35.877261998426434
77433,Harris County,TX,8.18253343823761
77449,Harris County,TX,46.57749803304485
77450,Harris County,TX,29.81904012588513
77465,Matagorda County,TX,97.0102281667978
77469,Fort Bend County,TX,20.928402832415422
77477,Fort Bend County,TX,95.3579858379229
77479,Fort Bend County,TX,21.636506687647522
77489,Fort Bend County,TX,22.34461054287962
77503,Harris County,TX,65.22423288749016
77506,Harris County,TX,47.75767112509835
77511,Brazoria County,TX,62.54917387883556
77535,Liberty County,TX,72.46262785208498
77541,Brazoria County,TX,38.31628638867034
77578,Brazoria County,TX,96.30212431156569
77581,Brazoria County,TX,21.47915027537372
77584,Brazoria County,TX,29.03225806451613
77590,Galveston County,TX,8.969315499606608
77598,Harris County,TX,46.65617623918175
77707,Jefferson County,TX,62.70653029110937
77904,Victoria County,TX,31.943351691581434
78028,Kerr County,TX,29.58300550747443
78046,Webb County,TX,70.49567269866247
78155,Guadalupe County,TX,17.230527143981117
78202,Bexar County,TX,63.335955940204556
78209,Bexar County,TX,50.19669551534225
78217,Bexar County,TX,98.1904012588513
78219,Bexar County,TX,82.29740361919748
78221,Bexar County,TX,36.42800944138473
78239,Bexar County,TX,49.409913453973246
78501,Hidalgo County,TX,75.84579071597167
78504,Hidalgo County,TX,57.120377655389454
78521,Cameron County,TX,24.468922108575924
78550,Cameron County,TX,33.67427222659323
78570,Hidalgo County,TX,56.09756097560976
78572,Hidalgo County,TX,54.28796223446105
78660,Travis County,TX,18.88276947285602
78753,Travis County,TX,73.17073170731707
78852,Maverick County,TX,44.92525570416995
79106,Potter County,TX,88.82769472856019
79119,Randall County,TX,70.96774193548387
79706,Midland County,TX,89.06372934697089
79902,El Paso County,TX,88.98505114083399
84067,Weber County,UT,28.481510621557828
84095,Salt Lake County,UT,71.99055861526357
84119,Salt Lake County,UT,8.49724626278521
84121,Salt Lake County,UT,32.73013375295044
84302,Box Elder County,UT,82.6121164437451
84414,Weber County,UT,79.62234461054288
84738,Washington County,UT,87.9622344610543
20120,Fairfax County,VA,42.800944138473646
20136,Prince William County,VA,77.18332022029898
20164,Loudoun County,VA,35.01180173092053
22015,Fairfax County,VA,42.09284028324154
22041,Fairfax County,VA,78.20613690007868
22101,Fairfax County,VA,41.856805664830844
22150,Fairfax County,VA,43.194335169158144
22301,Alexandria city,VA,80.25177025963808
22304,Alexandria city,VA,9.75609756097561
22305,Alexandria city,VA,92.13217938630999
22309,Fairfax County,VA,18.96144767899292
22311,Alexandria city,VA,99.0558615263572
22314,Alexandria city,VA,22.895357985837922
22315,Fairfax County,VA,45.633359559402045
22405,Stafford County,VA,80.48780487804879
22553,Spotsylvania County,VA,71.28245476003147
22801,Harrisonburg city,VA,33.83162863886703
22821,Rockingham County,VA,83.55625491738789
23141,New Kent County,VA,90.4799370574351
23229,Henrico County,VA,92.6042486231314
23234,Chesterfield County,VA,13.847364280094416
23237,Chesterfield County,VA,63.96538158929977
23294,Henrico County,VA,93.86309992132179
23321,Chesapeake city,VA,64.43745082612116
23452,Virginia Beach city,VA,16.36506687647522
23464,Virginia Beach city,VA,11.408339889850511
23669,Hampton city,VA,92.44689221085758
24019,Roanoke County,VA,45.00393391030684
24153,Salem city,VA,26.12116443745083
24450,Rockbridge County,VA,60.818253343823756
24523,Bedford County,VA,23.918174665617624
24540,Danville city,VA,72.93469708890638
98011,King County,WA,47.36428009441384
98012,Snohomish County,WA,22.029897718332023
98020,Snohomish County,WA,96.9315499606609
98026,Snohomish County,WA,26.357199055861525
98032,King County,WA,34.61841070023603
98033,King County,WA,83.39889850511409
98036,Snohomish County,WA,38.39496459480724
98042,King County,WA,53.107789142407555
98051,King County,WA,94.57120377655389
98052,King County,WA,39.496459480723836
98059,King County,WA,36.66404405979544
98087,Snohomish County,WA,75.53107789142408
98103,King County,WA,37.76553894571204
98188,King County,WA,54.83870967741935
98201,Snohomish County,WA,65.14555468135327
98204,Snohomish County,WA,47.206923682140044
98252,Snohomish County,WA,95.9874114870181
98272,Snohomish County,WA,70.65302911093627
98273,Skagit County,WA,20.14162077104642
98292,Snohomish County,WA,90.71597167584578
98422,Pierce County,WA,73.56412273800157
98446,Pierce County,WA,78.36349331235249
98467,Pierce County,WA,70.18095987411486
98516,Thurston County,WA,76.94728560188828
98632,Cowlitz County,WA,13.768686073957515
98665,Clark County,WA,69.47285601888277
98682,Clark County,WA,86.46734854445319
98815,Chelan County,WA,97.7183320220299
99114,Stevens County,WA,67.42722265932338
99163,Whitman County,WA,80.64516129032258
99301,Franklin County,WA,63.57199055861527
99336,Benton County,WA,8.103855232100708
99337,Benton County,WA,47.28560188827694
20019,District of Columbia,DC,30.605822187254127
25311,Kanawha County,WV,93.2336742722266
25414,Jefferson County,WV,48.85916601101495
25526,Putnam County,WV,29.976396538158927
25705,Cabell County,WV,72.38394964594808
26041,Marshall County,WV,37.214791502753734
26508,Monongalia County,WV,3.540519276160504
26554,Marion County,WV,78.99291896144767
53021,Ozaukee County,WI,95.5940204563336
53120,Walworth County,WI,92.05350118017309
53158,Kenosha County,WI,86.62470495672699
53186,Waukesha County,WI,19.66955153422502
53204,Milwaukee County,WI,48.54445318646735
53209,Milwaukee County,WI,1.6522423288749015
53212,Milwaukee County,WI,9.284028324154209
53214,Milwaukee County,WI,7.710464201416207
53218,Milwaukee County,WI,39.26042486231314
53221,Milwaukee County,WI,13.847364280094416
53222,Milwaukee County,WI,45.712037765538945
53224,Milwaukee County,WI,28.638867033831627
53402,Racine County,WI,3.9339103068450036
53403,Racine County,WI,92.2108575924469
53405,Racine County,WI,18.72541306058222
53511,Rock County,WI,0.7081038552321007
53534,Rock County,WI,46.26278520849725
53704,Dane County,WI,7.002360346184107
53946,Green Lake County,WI,94.17781274586939
53963,Dodge County,WI,44.531864673485444
54143,Marinette County,WI,39.10306845003934
54151,Marinette County,WI,65.46026750590087
54303,Brown County,WI,36.50668764752164
54481,Portage County,WI,14.555468135326516
54601,La Crosse County,WI,21.87254130605822
54603,La Crosse County,WI,43.50904799370575
54612,Trempealeau County,WI,86.86073957513769
54911,Outagamie County,WI,31.39260424862313
54929,Waupaca County,WI,76.94728560188828
82240,Goshen County,WY,76.78992918961448
