ZipCode,county,state,Adult
35235,Jefferson County,AL,91.20234604105572
35801,Madison County,AL,68.32844574780059
36853,Tallapoosa County,AL,81.81818181818183
36877,Lee County,AL,77.12609970674487
99603,Kenai Peninsula Borough,AK,75.95307917888563
85032,Maricopa County,AZ,14.076246334310852
85286,Maricopa County,AZ,36.950146627565985
85711,Pima County,AZ,8.797653958944283
85941,Apache County,AZ,42.52199413489736
72701,Washington County,AR,62.17008797653959
91016,Los Angeles County,CA,57.478005865102645
91384,Los Angeles County,CA,74.19354838709677
91766,Los Angeles County,CA,41.64222873900293
91945,San Diego County,CA,92.96187683284457
92117,San Diego County,CA,56.598240469208214
92126,San Diego County,CA,73.31378299120234
92253,Riverside County,CA,46.62756598240469
92508,Riverside County,CA,78.88563049853371
92691,Orange County,CA,52.785923753665685
92804,Orange County,CA,44.868035190615835
92805,Orange County,CA,27.27272727272727
92841,Orange County,CA,72.14076246334311
93662,Fresno County,CA,80.35190615835776
93930,Monterey County,CA,89.14956011730204
94112,San Francisco County,CA,24.633431085043988
94505,Contra Costa County,CA,85.33724340175954
94563,Contra Costa County,CA,85.04398826979472
94954,Sonoma County,CA,51.02639296187683
95307,Stanislaus County,CA,32.84457478005865
95360,Stanislaus County,CA,80.93841642228739
95380,Stanislaus County,CA,28.739002932551323
80129,Douglas County,CO,73.02052785923753
80138,Douglas County,CO,53.95894428152492
80219,Denver County,CO,5.571847507331378
80525,Larimer County,CO,14.95601173020528
80526,Larimer County,CO,39.29618768328446
80601,Adams County,CO,34.89736070381232
80620,Weld County,CO,45.45454545454545
06401,New Haven County,CT,31.085043988269796
06413,Middlesex County,CT,59.82404692082112
06450,New Haven County,CT,6.744868035190615
19702,New Castle County,DE,14.66275659824047
19934,Kent County,DE,69.20821114369502
32097,Nassau County,FL,56.30498533724341
32174,Volusia County,FL,48.38709677419355
32218,Duval County,FL,19.941348973607038
32246,Duval County,FL,15.249266862170089
32277,Duval County,FL,22.87390029325513
32609,Alachua County,FL,68.03519061583577
32751,Orange County,FL,69.79472140762464
32837,Orange County,FL,20.527859237536656
32948,Indian River County,FL,97.94721407624634
33403,Palm Beach County,FL,81.52492668621701
33540,Pasco County,FL,86.51026392961877
33569,Hillsborough County,FL,73.90029325513197
33614,Hillsborough County,FL,37.5366568914956
33711,Pinellas County,FL,79.47214076246334
33805,Polk County,FL,41.348973607038126
33870,Highlands County,FL,75.65982404692082
34116,Collier County,FL,50.146627565982406
34203,Manatee County,FL,78.2991202346041
34654,Pasco County,FL,91.78885630498533
34655,Pasco County,FL,34.60410557184751
34741,Osceola County,FL,23.46041055718475
34743,Osceola County,FL,49.853372434017594
34769,Osceola County,FL,47.50733137829912
34953,St. Lucie County,FL,6.451612903225806
34974,Okeechobee County,FL,54.54545454545454
30039,Gwinnett County,GA,40.469208211143695
30096,Gwinnett County,GA,28.445747800586513
30165,Floyd County,GA,25.806451612903224
30281,Henry County,GA,27.56598240469208
30458,Bulloch County,GA,35.483870967741936
30504,Hall County,GA,77.71260997067448
30620,Barrow County,GA,68.91495601173021
30906,Richmond County,GA,7.331378299120235
31406,Chatham County,GA,53.3724340175953
31501,Ware County,GA,63.63636363636363
31768,Colquitt County,GA,34.01759530791789
83263,Franklin County,ID,90.6158357771261
83814,Kootenai County,ID,35.77712609970675
83854,Kootenai County,ID,34.31085043988269
60409,Cook County,IL,30.205278592375368
60447,Grundy County,IL,56.01173020527859
60448,Will County,IL,79.17888563049853
61252,Whiteside County,IL,92.08211143695014
46016,Madison County,IN,13.78299120234604
46068,Tipton County,IN,92.37536656891496
46112,Hendricks County,IN,54.83870967741935
46143,Johnson County,IN,24.04692082111437
46151,Morgan County,IN,26.392961876832842
46163,Hancock County,IN,85.63049853372434
46350,LaPorte County,IN,36.070381231671554
46953,Grant County,IN,10.850439882697946
47167,Washington County,IN,52.49266862170088
47630,Warrick County,IN,71.26099706744868
47710,Vanderburgh County,IN,65.98240469208211
50009,Polk County,IA,67.74193548387096
51501,Pottawattamie County,IA,2.346041055718475
52732,Clinton County,IA,21.407624633431084
67215,Sedgwick County,KS,98.53372434017595
67801,Ford County,KS,58.06451612903226
40228,Jefferson County,KY,63.34310850439883
40313,Rowan County,KY,87.3900293255132
40324,Scott County,KY,12.316715542521994
40403,Madison County,KY,55.13196480938416
40517,Fayette County,KY,21.114369501466275
40962,Clay County,KY,18.475073313782993
41091,Boone County,KY,70.08797653958945
41501,Pike County,KY,11.143695014662756
42104,Warren County,KY,43.10850439882698
42211,Trigg County,KY,60.997067448680355
42539,Casey County,KY,89.44281524926686
70001,Jefferson Parish,LA,4.398826979472141
70043,St. Bernard Parish,LA,95.01466275659824
70123,Jefferson Parish,LA,18.181818181818183
70427,Washington Parish,LA,14.369501466275661
70443,Tangipahoa Parish,LA,99.41348973607037
70461,St. Tammany Parish,LA,74.7800586510264
70601,Calcasieu Parish,LA,0.5865102639296188
70611,Calcasieu Parish,LA,98.24046920821115
70726,Livingston Parish,LA,0.2932551319648094
71201,Ouachita Parish,LA,37.24340175953079
71220,Morehouse Parish,LA,90.9090909090909
71295,Franklin Parish,LA,17.595307917888565
04105,Cumberland County,ME,91.49560117302052
20602,Charles County,MD,72.72727272727273
21122,Anne Arundel County,MD,8.211143695014663
21144,Anne Arundel County,MD,57.18475073313783
21208,Baltimore County,MD,83.57771260997067
21236,Baltimore County,MD,39.882697947214076
01469,Middlesex County,MA,94.13489736070382
01778,Middlesex County,MA,76.53958944281524
01832,Essex County,MA,3.225806451612903
02125,Suffolk County,MA,0
02151,Suffolk County,MA,26.97947214076246
02302,Plymouth County,MA,53.0791788856305
02370,Plymouth County,MA,86.80351906158357
02766,Bristol County,MA,17.888563049853374
48035,Macomb County,MI,38.12316715542522
48039,St. Clair County,MI,82.99120234604106
48091,Macomb County,MI,29.32551319648094
48101,Wayne County,MI,23.16715542521994
48235,Wayne County,MI,0.8797653958944283
48357,Oakland County,MI,83.87096774193549
48375,Oakland County,MI,52.19941348973607
48439,Genesee County,MI,12.023460410557185
48506,Genesee County,MI,70.96774193548387
48609,Saginaw County,MI,88.26979472140762
48623,Saginaw County,MI,43.988269794721404
48809,Ionia County,MI,64.51612903225806
48875,Ionia County,MI,90.32258064516128
49017,Calhoun County,MI,61.29032258064516
49048,Kalamazoo County,MI,17.008797653958943
49285,Ingham County,MI,83.28445747800586
49348,Allegan County,MI,33.724340175953074
49442,Muskegon County,MI,2.932551319648094
55057,Rice County,MN,67.44868035190615
55355,Meeker County,MN,81.23167155425219
55406,Hennepin County,MN,24.926686217008797
55417,Hennepin County,MN,85.92375366568915
55423,Hennepin County,MN,19.64809384164223
55721,Itasca County,MN,100
55808,St. Louis County,MN,79.76539589442815
56201,Kandiyohi County,MN,45.74780058651026
56374,Stearns County,MN,96.18768328445748
56377,Stearns County,MN,96.7741935483871
38632,DeSoto County,MS,51.31964809384164
38637,DeSoto County,MS,50.733137829912025
39047,Rankin County,MS,53.665689149560116
39428,Covington County,MS,75.366568914956
63105,St. Louis County,MO,92.66862170087975
63111,St. Louis city,MO,35.19061583577713
63301,St. Charles County,MO,43.401759530791786
63775,Perry County,MO,38.41642228739003
64055,Jackson County,MO,7.624633431085044
64079,Platte County,MO,56.89149560117303
64089,Clay County,MO,87.09677419354838
64118,Clay County,MO,6.158357771260997
68144,Douglas County,NE,65.6891495601173
68502,Lancaster County,NE,67.15542521994135
89101,Clark County,NV,29.61876832844575
89102,Clark County,NV,51.90615835777126
07047,Hudson County,NJ,5.865102639296188
07050,Essex County,NJ,9.970674486803519
07950,Morris County,NJ,60.117302052785924
08003,Camden County,NJ,58.35777126099707
08876,Somerset County,NJ,18.7683284457478
87120,Bernalillo County,NM,9.3841642228739
11206,Kings County,NY,1.1730205278592376
11222,Kings County,NY,59.2375366568915
11367,Queens County,NY,47.80058651026393
12828,Washington County,NY,42.22873900293255
13208,Onondaga County,NY,11.436950146627565
13416,Herkimer County,NY,95.89442815249268
13460,Chenango County,NY,76.24633431085044
13642,St. Lawrence County,NY,32.55131964809384
13790,Broome County,NY,9.090909090909092
14450,Monroe County,NY,1.466275659824047
14456,Ontario County,NY,7.038123167155426
14546,Monroe County,NY,84.1642228739003
14586,Monroe County,NY,33.43108504398827
14590,Wayne County,NY,71.8475073313783
14609,Monroe County,NY,5.278592375366569
14619,Monroe County,NY,13.196480938416421
14701,Chautauqua County,NY,1.7595307917888565
14873,Steuben County,NY,99.12023460410558
27127,Forsyth County,NC,13.48973607038123
27249,Guilford County,NC,77.41935483870968
27360,Davidson County,NC,3.519061583577713
27516,Orange County,NC,31.378299120234605
27612,Wake County,NC,57.77126099706745
27704,Durham County,NC,10.557184750733137
28090,Cleveland County,NC,86.21700879765396
28092,Lincoln County,NC,21.994134897360702
28128,Stanly County,NC,87.97653958944281
28144,Rowan County,NC,36.36363636363637
28212,Mecklenburg County,NC,25.219941348973606
28340,Robeson County,NC,55.718475073313776
28715,Buncombe County,NC,50.43988269794721
58368,Pierce County,ND,97.65395894428153
43235,Franklin County,OH,46.04105571847507
43606,Lucas County,OH,15.542521994134898
43612,Lucas County,OH,4.105571847507331
43615,Lucas County,OH,19.35483870967742
44104,Cuyahoga County,OH,3.812316715542522
44126,Cuyahoga County,OH,51.61290322580645
44306,Summit County,OH,9.67741935483871
44440,Trumbull County,OH,84.75073313782991
44857,Huron County,OH,21.700879765395893
45013,Butler County,OH,2.6392961876832843
45233,Hamilton County,OH,73.31378299120234
45405,Montgomery County,OH,23.75366568914956
45623,Gallia County,OH,93.54838709677419
45638,Lawrence County,OH,4.69208211143695
45690,Pike County,OH,15.835777126099707
73013,Oklahoma County,OK,31.671554252199414
73078,Canadian County,OK,90.02932551319648
73089,Grady County,OK,78.00586510263929
73112,Oklahoma County,OK,65.98240469208211
73159,Oklahoma County,OK,46.9208211143695
73160,Cleveland County,OK,11.730205278592376
73170,Cleveland County,OK,32.25806451612903
73401,Carter County,OK,12.609970674486803
74106,Tulsa County,OK,39.002932551319645
74601,Kay County,OK,84.4574780058651
97004,Clackamas County,OR,99.70674486803519
97078,Washington County,OR,94.42815249266863
97113,Washington County,OR,68.62170087976538
97124,Washington County,OR,28.152492668621704
97222,Clackamas County,OR,60.410557184750736
97302,Marion County,OR,70.38123167155426
97360,Linn County,OR,98.82697947214076
97386,Linn County,OR,75.0733137829912
97801,Umatilla County,OR,65.10263929618768
97838,Umatilla County,OR,16.129032258064516
97875,Umatilla County,OR,97.36070381231671
15204,Allegheny County,PA,62.75659824046921
15767,Jefferson County,PA,59.530791788856305
17042,Lebanon County,PA,4.9853372434017595
17050,Cumberland County,PA,22.28739002932551
17090,Perry County,PA,95.60117302052787
17403,York County,PA,2.0527859237536656
17745,Clinton County,PA,41.05571847507331
18015,Northampton County,PA,8.504398826979472
18444,Lackawanna County,PA,82.69794721407625
18452,Lackawanna County,PA,93.841642228739
19053,Bucks County,PA,61.87683284457478
19141,Philadelphia County,PA,7.9178885630498534
19335,Chester County,PA,16.422287390029325
19606,Berks County,PA,39.589442815249264
02806,Bristol County,RI,87.68328445747801
02814,Providence County,RI,82.11143695014663
02818,Kent County,RI,64.80938416422288
02863,Providence County,RI,60.70381231671554
29212,Lexington County,SC,61.58357771260997
29440,Georgetown County,SC,47.214076246334315
29486,Berkeley County,SC,82.40469208211144
29536,Dillon County,SC,54.252199413489734
29588,Horry County,SC,80.64516129032258
29621,Anderson County,SC,38.70967741935484
29690,Greenville County,SC,40.17595307917888
57104,Minnehaha County,SD,29.91202346041056
57701,Pennington County,SD,19.06158357771261
37406,Hamilton County,TN,63.63636363636363
37745,Greene County,TN,26.68621700879765
38024,Dyer County,TN,24.34017595307918
38109,Shelby County,TN,10.263929618768328
38141,Shelby County,TN,48.68035190615836
75007,Denton County,TX,48.97360703812317
75028,Denton County,TX,55.42521994134897
75090,Grayson County,TX,49.56011730205279
75241,Dallas County,TX,22.58064516129032
75442,Collin County,TX,76.83284457478005
75501,Bowie County,TX,31.964809384164223
76021,Tarrant County,TX,36.65689149560117
76543,Bell County,TX,29.03225806451613
76704,McLennan County,TX,93.25513196480938
77081,Harris County,TX,63.049853372434015
77346,Harris County,TX,20.821114369501466
77414,Matagorda County,TX,46.33431085043988
77539,Galveston County,TX,20.234604105571847
77573,Galveston County,TX,37.82991202346041
77802,Brazos County,TX,26.099706744868033
77840,Brazos County,TX,71.5542521994135
77901,Victoria County,TX,25.513196480938415
78154,Guadalupe County,TX,88.56304985337243
78586,Cameron County,TX,44.57478005865102
79838,El Paso County,TX,95.30791788856305
79912,El Paso County,TX,27.859237536656888
84020,Salt Lake County,UT,44.28152492668622
84037,Davis County,UT,66.56891495601172
84044,Salt Lake County,UT,43.6950146627566
84057,Utah County,UT,63.63636363636363
84078,Uintah County,UT,48.09384164222874
84095,Salt Lake County,UT,40.76246334310851
84118,Salt Lake County,UT,17.302052785923756
84720,Iron County,UT,97.0674486803519
22003,Fairfax County,VA,30.498533724340177
22314,Alexandria city,VA,30.791788856304986
22408,Spotsylvania County,VA,62.4633431085044
22801,Harrisonburg city,VA,42.81524926686217
22835,Page County,VA,58.65102639296188
23225,Richmond city,VA,12.903225806451612
23229,Henrico County,VA,65.39589442815249
24333,Galax city,VA,49.266862170087975
98031,King County,WA,41.935483870967744
98034,King County,WA,33.137829912023456
98043,Snohomish County,WA,70.67448680351906
98053,King County,WA,89.73607038123167
98115,King County,WA,66.86217008797654
98203,Snohomish County,WA,74.48680351906158
98329,Pierce County,WA,72.14076246334311
98335,Pierce County,WA,58.94428152492669
98391,Pierce County,WA,45.16129032258064
98467,Pierce County,WA,79.76539589442815
99026,Stevens County,WA,94.72140762463343
53120,Walworth County,WI,88.85630498533725
53177,Racine County,WI,78.59237536656892
53219,Milwaukee County,WI,16.715542521994134
54311,Brown County,WI,69.50146627565982
54758,Trempealeau County,WI,96.48093841642229
