ZipCode,county,state,Adult
35014,Talladega County,AL,93.026706231454
35022,Jefferson County,AL,32.34421364985163
35045,Chilton County,AL,83.1973293768546
35051,Shelby County,AL,83.86498516320475
35080,Shelby County,AL,53.63501483679525
35094,Jefferson County,AL,55.26706231454006
35180,Jefferson County,AL,64.72551928783383
35209,Jefferson County,AL,74.85163204747775
35211,Jefferson County,AL,39.02077151335311
35214,Jefferson County,AL,25.48219584569733
35215,Jefferson County,AL,5.600890207715134
35216,Jefferson County,AL,48.516320474777444
35242,Shelby County,AL,60.311572700296736
35475,Tuscaloosa County,AL,75.4080118694362
35652,Lauderdale County,AL,92.06231454005935
35660,Colbert County,AL,65.65281899109793
35758,Madison County,AL,66.060830860534125
35763,Madison County,AL,73.21958456973294
35904,Etowah County,AL,71.66172106824926
35952,Etowah County,AL,97.40356083086054
35967,DeKalb County,AL,60.3486646884273
36054,Elmore County,AL,62.054896142433236
36089,Bullock County,AL,73.66468842729971
36108,Montgomery County,AL,35.459940652818986
36116,Montgomery County,AL,47.70029673590505
36303,Houston County,AL,16.765578635014837
36344,Geneva County,AL,91.46884272997032
36426,Escambia County,AL,51.33531157270029
36477,Geneva County,AL,87.57418397626114
36535,Baldwin County,AL,36.646884272997035
36608,Mobile County,AL,37.5
36613,Mobile County,AL,80.56379821958457
36695,Mobile County,AL,77.93026706231454
36874,Lee County,AL,87.53709198813057
99501,Anchorage Municipality,AK,15.318991097922849
99508,Anchorage Municipality,AK,11.980712166172108
99516,Anchorage Municipality,AK,75
99576,Dillingham Census Area,AK,91.13501483679525
99801,Juneau City and Borough,AK,42.433234421364986
85009,Maricopa County,AZ,8.605341246290802
85015,Maricopa County,AZ,43.80563798219585
85018,Maricopa County,AZ,27.818991097922847
85019,Maricopa County,AZ,31.750741839762615
85024,Maricopa County,AZ,69.58456973293768
85029,Maricopa County,AZ,79.00593471810089
85032,Maricopa County,AZ,9.532640949554896
85033,Maricopa County,AZ,40.17062314540059
85040,Maricopa County,AZ,13.019287833827894
85041,Maricopa County,AZ,5.563798219584569
85042,Maricopa County,AZ,19.473293768545993
85051,Maricopa County,AZ,37.611275964391695
85120,Pinal County,AZ,35.237388724035604
85122,Pinal County,AZ,5.155786350148368
85132,Pinal County,AZ,30.897626112759646
85138,Pinal County,AZ,32.71513353115727
85203,Maricopa County,AZ,87.16617210682493
85204,Maricopa County,AZ,9.08753709198813
85206,Maricopa County,AZ,38.8353115727003
85225,Maricopa County,AZ,7.381305637982195
85253,Maricopa County,AZ,84.19881305637982
85254,Maricopa County,AZ,77.41097922848664
85283,Maricopa County,AZ,12.351632047477745
85296,Maricopa County,AZ,27.04005934718101
85301,Maricopa County,AZ,16.283382789317507
85302,Maricopa County,AZ,18.5459940652819
85323,Maricopa County,AZ,76.29821958456974
85339,Maricopa County,AZ,14.985163204747776
85344,La Paz County,AZ,65.61572700296736
85349,Yuma County,AZ,27.781899109792285
85353,Maricopa County,AZ,77.04005934718101
85364,Yuma County,AZ,2.225519287833828
85388,Maricopa County,AZ,63.019287833827896
85530,Graham County,AZ,83.49406528189911
85634,Pima County,AZ,15.541543026706231
85705,Pima County,AZ,2.2997032640949553
85706,Pima County,AZ,10.756676557863502
85714,Pima County,AZ,26.780415430267063
85737,Pima County,AZ,59.60682492581603
85741,Pima County,AZ,25.927299703264094
85742,Pima County,AZ,44.287833827893174
85746,Pima County,AZ,7.9005934718100885
85749,Pima County,AZ,74.70326409495549
85756,Pima County,AZ,62.908011869436194
85757,Pima County,AZ,19.584569732937684
85901,Navajo County,AZ,45.40059347181009
86004,Coconino County,AZ,40.986646884273
86005,Coconino County,AZ,44.02818991097923
86040,Coconino County,AZ,60.57121661721068
86303,Yavapai County,AZ,59.45845697329377
71832,Sevier County,AR,81.8620178041543
71901,Garland County,AR,40.541543026706236
72002,Saline County,AR,64.57715133531158
72031,Van Buren County,AR,93.28635014836796
72034,Faulkner County,AR,44.65875370919881
72160,Arkansas County,AR,68.84272997032642
72210,Pulaski County,AR,87.57418397626114
72315,Mississippi County,AR,46.77299703264095
72422,Clay County,AR,90.72700296735906
72703,Washington County,AR,72.77448071216617
72764,Washington County,AR,65.54154302670622
72802,Pope County,AR,71.47626112759644
90004,Los Angeles County,CA,37.9080118694362
90019,Los Angeles County,CA,34.124629080118694
90020,Los Angeles County,CA,76.96587537091987
90022,Los Angeles County,CA,79.08011869436203
90023,Los Angeles County,CA,65.46735905044511
90029,Los Angeles County,CA,57.418397626112764
90031,Los Angeles County,CA,87.24035608308606
90032,Los Angeles County,CA,42.24777448071217
90037,Los Angeles County,CA,30.749258160237385
90038,Los Angeles County,CA,73.99851632047478
90043,Los Angeles County,CA,38.57566765578635
90069,Los Angeles County,CA,48.99851632047478
90201,Los Angeles County,CA,24.072700296735906
90221,Los Angeles County,CA,30.267062314540063
90222,Los Angeles County,CA,86.38724035608308
90250,Los Angeles County,CA,17.544510385756677
90266,Los Angeles County,CA,57.60385756676558
90275,Los Angeles County,CA,52.37388724035609
90277,Los Angeles County,CA,77.41097922848664
90280,Los Angeles County,CA,25.07418397626113
90403,Los Angeles County,CA,63.50148367952523
90501,Los Angeles County,CA,41.98813056379822
90604,Los Angeles County,CA,50.63056379821958
90605,Los Angeles County,CA,50.59347181008902
90631,Orange County,CA,28.41246290801187
90640,Los Angeles County,CA,62.72255192878339
90660,Los Angeles County,CA,56.4540059347181
90680,Orange County,CA,80.89762611275965
90701,Los Angeles County,CA,89.79970326409496
90703,Los Angeles County,CA,82.23293768545994
90710,Los Angeles County,CA,78.85756676557864
90723,Los Angeles County,CA,94.58456973293768
90731,Los Angeles County,CA,24.183976261127597
90808,Los Angeles County,CA,51.817507418397625
90813,Los Angeles County,CA,60.94213649851632
91006,Los Angeles County,CA,83.1973293768546
91007,Los Angeles County,CA,91.2833827893175
91030,Los Angeles County,CA,97.51483679525222
91104,Los Angeles County,CA,37.46290801186943
91105,Los Angeles County,CA,94.95548961424333
91201,Los Angeles County,CA,82.75222551928783
91304,Los Angeles County,CA,42.433234421364986
91306,Los Angeles County,CA,33.939169139465875
91320,Ventura County,CA,60.57121661721068
91335,Los Angeles County,CA,23.81305637982196
91350,Los Angeles County,CA,58.976261127596445
91367,Los Angeles County,CA,78.96884272997032
91387,Los Angeles County,CA,38.204747774480715
91401,Los Angeles County,CA,92.39614243323442
91505,Los Angeles County,CA,68.99109792284867
91601,Los Angeles County,CA,92.84124629080118
91702,Los Angeles County,CA,25.111275964391695
91709,San Bernardino County,CA,61.90652818991098
91710,San Bernardino County,CA,79.52522255192879
91730,San Bernardino County,CA,92.28486646884274
91731,Los Angeles County,CA,30.192878338278934
91733,Los Angeles County,CA,85.90504451038575
91737,San Bernardino County,CA,75.03709198813057
91744,Los Angeles County,CA,43.137982195845694
91748,Los Angeles County,CA,93.39762611275965
91761,San Bernardino County,CA,17.69287833827893
91762,San Bernardino County,CA,27.93026706231454
91763,San Bernardino County,CA,59.45845697329377
91764,San Bernardino County,CA,30.08160237388724
91766,Los Angeles County,CA,67.95252225519289
91767,Los Angeles County,CA,33.79080118694362
91768,Los Angeles County,CA,83.38278931750742
91770,Los Angeles County,CA,43.87982195845697
91776,Los Angeles County,CA,82.34421364985162
91786,San Bernardino County,CA,25.59347181008902
91911,San Diego County,CA,69.39910979228486
91941,San Diego County,CA,53.22700296735905
91942,San Diego County,CA,58.976261127596445
92007,San Diego County,CA,89.50296735905044
92020,San Diego County,CA,15.467359050445104
92021,San Diego County,CA,60.3486646884273
92025,San Diego County,CA,85.49703264094956
92026,San Diego County,CA,49.48071216617211
92027,San Diego County,CA,85.20029673590504
92029,San Diego County,CA,94.06528189910979
92057,San Diego County,CA,89.87388724035608
92064,San Diego County,CA,43.32344213649852
92065,San Diego County,CA,42.84124629080119
92075,San Diego County,CA,96.17952522255193
92078,San Diego County,CA,77.52225519287835
92081,San Diego County,CA,66.8026706231454
92104,San Diego County,CA,20.511869436201778
92105,San Diego County,CA,11.350148367952523
92113,San Diego County,CA,86.05341246290801
92114,San Diego County,CA,25.59347181008902
92115,San Diego County,CA,59.97774480712166
92122,San Diego County,CA,68.36053412462908
92126,San Diego County,CA,71.439169139465875
92154,San Diego County,CA,65.1706231454006
92173,San Diego County,CA,58.902077151335305
92211,Riverside County,CA,64.46587537091987
92220,Riverside County,CA,53.04154302670623
92227,Imperial County,CA,34.82937685459941
92234,Riverside County,CA,9.124629080118694
92236,Riverside County,CA,37.64836795252226
92253,Riverside County,CA,38.39020771513353
92254,Riverside County,CA,98.33086053412462
92274,Riverside County,CA,71.6246290801187
92281,Imperial County,CA,99.40652818991099
92301,San Bernardino County,CA,77.59643916913946
92307,San Bernardino County,CA,21.105341246290802
92324,San Bernardino County,CA,13.686943620178042
92335,San Bernardino County,CA,28.931750741839764
92336,San Bernardino County,CA,50.29673590504451
92345,San Bernardino County,CA,50.408011869436194
92376,San Bernardino County,CA,27.41097922848665
92395,San Bernardino County,CA,20.363501483679524
92404,San Bernardino County,CA,62.20326409495549
92408,San Bernardino County,CA,97.1439169139466
92410,San Bernardino County,CA,26.520771513353115
92411,San Bernardino County,CA,71.69881305637982
92503,Riverside County,CA,45.21513353115727
92504,Riverside County,CA,35.42284866468843
92530,Riverside County,CA,90.68991097922849
92532,Riverside County,CA,65.72700296735906
92545,Riverside County,CA,82.45548961424333
92551,Riverside County,CA,92.91543026706232
92553,Riverside County,CA,81.34272997032642
92555,Riverside County,CA,53.8946587537092
92557,Riverside County,CA,30.044510385756677
92571,Riverside County,CA,33.79080118694362
92584,Riverside County,CA,37.87091988130564
92586,Riverside County,CA,76.26112759643917
92591,Riverside County,CA,41.61721068249258
92596,Riverside County,CA,69.95548961424333
92603,Orange County,CA,83.34569732937686
92610,Orange County,CA,89.20623145400593
92614,Orange County,CA,55.712166172106826
92620,Orange County,CA,36.795252225519285
92626,Orange County,CA,35.90504451038576
92627,Orange County,CA,66.35756676557864
92630,Orange County,CA,27.33679525222552
92646,Orange County,CA,19.102373887240358
92648,Orange County,CA,21.439169139465875
92651,Orange County,CA,79.93323442136499
92653,Orange County,CA,70.80860534124629
92656,Orange County,CA,77.78189910979229
92660,Orange County,CA,55.19287833827893
92675,Orange County,CA,85.23738872403561
92677,Orange County,CA,61.53560830860534
92679,Orange County,CA,56.19436201780415
92691,Orange County,CA,87.5
92694,Orange County,CA,50.853115727002965
92703,Orange County,CA,88.0192878338279
92704,Orange County,CA,90.13353115727003
92705,Orange County,CA,68.28635014836796
92780,Orange County,CA,30.37833827893175
92801,Orange County,CA,92.76706231454006
92804,Orange County,CA,8.939169139465877
92805,Orange County,CA,53.746290801186944
92807,Orange County,CA,51.409495548961424
92821,Orange County,CA,57.93768545994066
92833,Orange County,CA,43.9540059347181
92844,Orange County,CA,67.2106824925816
92867,Orange County,CA,54.117210682492576
92870,Orange County,CA,30.155786350148368
92882,Riverside County,CA,57.566765578635014
93003,Ventura County,CA,72.03264094955489
93015,Ventura County,CA,87.42581602373886
93033,Ventura County,CA,7.232937685459941
93036,Ventura County,CA,23.590504451038576
93063,Ventura County,CA,28.152818991097924
93101,Santa Barbara County,CA,70.73442136498517
93103,Santa Barbara County,CA,82.75222551928783
93117,Santa Barbara County,CA,79.52522255192879
93212,Kings County,CA,86.23887240356083
93215,Kern County,CA,81.00890207715133
93230,Kings County,CA,94.25074183976261
93235,Tulare County,CA,99.77744807121661
93257,Tulare County,CA,69.25074183976261
93268,Kern County,CA,97.21810089020771
93270,Tulare County,CA,99.14688427299704
93274,Tulare County,CA,3.672106824925816
93277,Tulare County,CA,18.397626112759642
93304,Kern County,CA,51.149851632047486
93306,Kern County,CA,14.020771513353116
93308,Kern County,CA,21.216617210682493
93309,Kern County,CA,24.88872403560831
93311,Kern County,CA,57.30712166172107
93402,San Luis Obispo County,CA,96.03115727002968
93422,San Luis Obispo County,CA,40.31899109792285
93446,San Luis Obispo County,CA,72.1439169139466
93454,Santa Barbara County,CA,23.664688427299705
93455,Santa Barbara County,CA,25.333827893175076
93534,Los Angeles County,CA,29.970326409495552
93535,Los Angeles County,CA,48.92433234421365
93551,Los Angeles County,CA,88.4272997032641
93552,Los Angeles County,CA,52.040059347181014
93591,Los Angeles County,CA,99.62908011869436
93610,Madera County,CA,68.28635014836796
93619,Fresno County,CA,35.237388724035604
93630,Fresno County,CA,78.3753709198813
93635,Merced County,CA,33.45697329376854
93638,Madera County,CA,86.60979228486647
93646,Fresno County,CA,96.29080118694363
93654,Fresno County,CA,47.8486646884273
93702,Fresno County,CA,73.85014836795251
93705,Fresno County,CA,61.49851632047477
93706,Fresno County,CA,89.1320474777448
93710,Fresno County,CA,83.08605341246292
93720,Fresno County,CA,26.85459940652819
93722,Fresno County,CA,77.93026706231454
93725,Fresno County,CA,92.50741839762611
93727,Fresno County,CA,78.63501483679525
93728,Fresno County,CA,73.21958456973294
93737,Fresno County,CA,99.29525222551929
93905,Monterey County,CA,79.82195845697329
93906,Monterey County,CA,33.01186943620178
93927,Monterey County,CA,71.17952522255193
93930,Monterey County,CA,90.1706231454006
93955,Monterey County,CA,32.52967359050445
93960,Monterey County,CA,84.05044510385757
94014,San Mateo County,CA,84.16172106824926
94015,San Mateo County,CA,70.47477744807121
94024,Santa Clara County,CA,82.41839762611276
94025,San Mateo County,CA,42.69287833827893
94030,San Mateo County,CA,89.39169139465875
94043,Santa Clara County,CA,70.54896142433235
94044,San Mateo County,CA,46.55044510385757
94062,San Mateo County,CA,78.93175074183976
94066,San Mateo County,CA,37.5
94086,Santa Clara County,CA,55.304154302670625
94087,Santa Clara County,CA,75.77893175074183
94089,Santa Clara County,CA,78.30118694362018
94112,San Francisco County,CA,69.7700296735905
94121,San Francisco County,CA,67.80415430267063
94124,San Francisco County,CA,18.06379821958457
94303,San Mateo County,CA,20.99406528189911
94401,San Mateo County,CA,73.47922848664689
94506,Contra Costa County,CA,90.61572700296736
94513,Contra Costa County,CA,94.43620178041543
94533,Solano County,CA,79.00593471810089
94536,Alameda County,CA,59.940652818991104
94538,Alameda County,CA,72.99703264094956
94541,Alameda County,CA,89.98516320474778
94544,Alameda County,CA,12.091988130563799
94555,Alameda County,CA,86.20178041543026
94558,Napa County,CA,24.10979228486647
94559,Napa County,CA,91.83976261127597
94560,Alameda County,CA,88.35311572700296
94561,Contra Costa County,CA,32.34421364985163
94564,Contra Costa County,CA,81.60237388724035
94565,Contra Costa County,CA,15.133531157270031
94566,Alameda County,CA,83.16023738872403
94568,Alameda County,CA,77.26261127596439
94577,Alameda County,CA,87.01780415430267
94583,Contra Costa County,CA,45.77151335311573
94585,Solano County,CA,78.48664688427299
94587,Alameda County,CA,28.96884272997033
94589,Solano County,CA,54.04302670623146
94591,Solano County,CA,61.350148367952514
94602,Alameda County,CA,76.52077151335311
94608,Alameda County,CA,77.63353115727003
94609,Alameda County,CA,98.88724035608308
94611,Alameda County,CA,57.49258160237388
94612,Alameda County,CA,72.47774480712165
94619,Alameda County,CA,76.33531157270029
94621,Alameda County,CA,25.408011869436205
94801,Contra Costa County,CA,87.3887240356083
94804,Contra Costa County,CA,58.41988130563798
94901,Marin County,CA,49.146884272997035
94928,Sonoma County,CA,56.63946587537092
94941,Marin County,CA,69.43620178041543
94947,Marin County,CA,81.08308605341247
94954,Sonoma County,CA,74.44362017804154
94960,Marin County,CA,91.13501483679525
94965,Marin County,CA,92.65578635014838
95003,Santa Cruz County,CA,82.60385756676558
95008,Santa Clara County,CA,84.01335311572701
95014,Santa Clara County,CA,84.53264094955489
95020,Santa Clara County,CA,26.37240356083086
95023,San Benito County,CA,56.12017804154302
95035,Santa Clara County,CA,42.76706231454006
95046,Santa Clara County,CA,95.47477744807121
95051,Santa Clara County,CA,38.204747774480715
95054,Santa Clara County,CA,80.67507418397626
95060,Santa Cruz County,CA,69.3620178041543
95066,Santa Cruz County,CA,90.39317507418397
95076,Santa Cruz County,CA,64.87388724035608
95110,Santa Clara County,CA,93.58308605341247
95111,Santa Clara County,CA,66.02373887240356
95116,Santa Clara County,CA,36.42433234421365
95118,Santa Clara County,CA,57.82640949554896
95120,Santa Clara County,CA,85.53412462908013
95122,Santa Clara County,CA,39.502967359050444
95123,Santa Clara County,CA,65.72700296735906
95125,Santa Clara County,CA,41.023738872403555
95127,Santa Clara County,CA,88.90949554896143
95129,Santa Clara County,CA,82.12166172106825
95130,Santa Clara County,CA,91.91394658753708
95133,Santa Clara County,CA,85.3486646884273
95135,Santa Clara County,CA,97.03264094955489
95139,Santa Clara County,CA,99.0727002967359
95148,Santa Clara County,CA,61.72106824925816
95202,San Joaquin County,CA,22.514836795252226
95203,San Joaquin County,CA,94.21364985163204
95205,San Joaquin County,CA,43.62017804154303
95206,San Joaquin County,CA,67.2106824925816
95207,San Joaquin County,CA,14.910979228486648
95209,San Joaquin County,CA,90.91246290801188
95240,San Joaquin County,CA,10.126112759643917
95301,Merced County,CA,39.28041543026706
95304,San Joaquin County,CA,96.73590504451039
95307,Stanislaus County,CA,25.741839762611274
95316,Stanislaus County,CA,97.25519287833828
95341,Merced County,CA,52.33679525222552
95350,Stanislaus County,CA,43.47181008902077
95351,Stanislaus County,CA,67.13649851632047
95354,Stanislaus County,CA,26.780415430267063
95355,Stanislaus County,CA,47.4406528189911
95356,Stanislaus County,CA,88.83531157270029
95363,Stanislaus County,CA,82.56676557863501
95365,Merced County,CA,98.55341246290801
95368,Stanislaus County,CA,77.8560830860534
95370,Tuolumne County,CA,19.510385756676556
95376,San Joaquin County,CA,73.44213649851632
95380,Stanislaus County,CA,55.60089020771514
95382,Stanislaus County,CA,52.11424332344213
95404,Sonoma County,CA,88.09347181008901
95409,Sonoma County,CA,81.4540059347181
95464,Lake County,CA,99.44362017804154
95501,Humboldt County,CA,46.32789317507419
95503,Humboldt County,CA,74.29525222551929
95519,Humboldt County,CA,69.54747774480711
95540,Humboldt County,CA,52.967359050445104
95605,Yolo County,CA,89.6513353115727
95608,Sacramento County,CA,33.38278931750742
95618,Yolo County,CA,99.14688427299704
95620,Solano County,CA,80.2299703264095
95630,Sacramento County,CA,19.621661721068246
95640,Amador County,CA,94.95548961424333
95655,Sacramento County,CA,99.33234421364985
95660,Sacramento County,CA,33.45697329376854
95667,El Dorado County,CA,25.519287833827892
95687,Solano County,CA,80.1186943620178
95694,Yolo County,CA,95.99406528189911
95747,Placer County,CA,88.87240356083086
95758,Sacramento County,CA,47.10682492581602
95765,Placer County,CA,68.21216617210682
95821,Sacramento County,CA,36.053412462908014
95823,Sacramento County,CA,34.42136498516321
95824,Sacramento County,CA,79.41394658753708
95825,Sacramento County,CA,43.43471810089021
95826,Sacramento County,CA,47.959940652818986
95832,Sacramento County,CA,89.2433234421365
95835,Sacramento County,CA,93.06379821958457
95838,Sacramento County,CA,29.265578635014837
95842,Sacramento County,CA,38.4272997032641
95843,Sacramento County,CA,82.64094955489614
95928,Butte County,CA,62.166172106824924
95965,Butte County,CA,12.20326409495549
95973,Butte County,CA,68.62017804154303
95991,Sutter County,CA,22.143916913946587
96001,Shasta County,CA,14.465875370919882
96021,Tehama County,CA,90.54154302670622
96022,Tehama County,CA,96.4020771513353
96035,Tehama County,CA,98.10830860534125
96101,Modoc County,CA,90.76409495548961
80010,Arapahoe County,CO,75.33382789317507
80013,Arapahoe County,CO,29.488130563798222
80014,Arapahoe County,CO,24.777448071216618
80015,Arapahoe County,CO,62.57418397626113
80016,Arapahoe County,CO,16.097922848664687
80017,Arapahoe County,CO,31.528189910979226
80018,Arapahoe County,CO,72.40356083086054
80021,Jefferson County,CO,81.71364985163204
80022,Adams County,CO,11.127596439169139
80104,Douglas County,CO,50.48219584569733
80122,Arapahoe County,CO,47.8486646884273
80125,Douglas County,CO,92.06231454005935
80211,Denver County,CO,30.37833827893175
80220,Denver County,CO,27.707715133531156
80230,Denver County,CO,91.58011869436203
80239,Denver County,CO,17.50741839762611
80241,Adams County,CO,49.62908011869436
80260,Adams County,CO,84.86646884272997
80504,Boulder County,CO,25.55637982195846
80524,Larimer County,CO,23.516320474777448
80525,Larimer County,CO,9.977744807121661
80528,Larimer County,CO,47.66320474777448
80601,Adams County,CO,27.1513353115727
80602,Adams County,CO,39.94807121661721
80615,Weld County,CO,81.08308605341247
80631,Weld County,CO,5.267062314540059
80910,El Paso County,CO,17.841246290801188
80918,El Paso County,CO,39.09495548961424
80920,El Paso County,CO,52.85608308605341
81001,Pueblo County,CO,14.76261127596439
81007,Pueblo County,CO,38.64985163204748
81008,Pueblo County,CO,82.12166172106825
81067,Otero County,CO,96.84718100890207
81503,Mesa County,CO,60.20029673590505
81504,Mesa County,CO,23.664688427299705
81505,Mesa County,CO,86.83234421364985
81521,Mesa County,CO,64.68842729970326
81526,Mesa County,CO,97.18100890207715
81601,Garfield County,CO,76.40949554896143
81623,Garfield County,CO,88.27893175074183
06016,Hartford County,CT,86.75816023738872
06033,Hartford County,CT,79.63649851632047
06037,Hartford County,CT,89.61424332344214
06042,Hartford County,CT,31.676557863501483
06053,Hartford County,CT,7.010385756676558
06070,Hartford County,CT,75.70474777448071
06082,Hartford County,CT,95.17804154302671
06084,Tolland County,CT,73.47922848664689
06095,Hartford County,CT,33.38278931750742
06098,Litchfield County,CT,41.246290801186944
06106,Hartford County,CT,16.431750741839764
06112,Hartford County,CT,11.275964391691394
06114,Hartford County,CT,11.164688427299703
06118,Hartford County,CT,18.36053412462908
06226,Windham County,CT,80.00741839762611
06250,Tolland County,CT,96.06824925816024
06268,Tolland County,CT,93.39762611275965
06277,Windham County,CT,80.08160237388724
06401,New Haven County,CT,88.98367952522254
06413,Middlesex County,CT,56.75074183976261
06451,New Haven County,CT,18.137982195845698
06460,New Haven County,CT,22.292284866468844
06473,New Haven County,CT,64.94807121661721
06511,New Haven County,CT,3.0044510385756675
06519,New Haven County,CT,16.988130563798222
06604,Fairfield County,CT,13.353115727002967
06606,Fairfield County,CT,11.90652818991098
06704,New Haven County,CT,15.615727002967358
06705,New Haven County,CT,50
06770,New Haven County,CT,17.359050445103858
06807,Fairfield County,CT,96.51335311572701
06824,Fairfield County,CT,96.14243323442136
06825,Fairfield County,CT,80.48961424332344
06831,Fairfield County,CT,76.78041543026706
06854,Fairfield County,CT,38.353115727002965
06902,Fairfield County,CT,47.997032640949556
06906,Fairfield County,CT,98.29376854599407
19702,New Castle County,DE,38.68694362017804
19709,New Castle County,DE,14.354599406528191
19720,New Castle County,DE,1.6691394658753709
19734,New Castle County,DE,74.0727002967359
19801,New Castle County,DE,66.3946587537092
19804,New Castle County,DE,21.624629080118694
19904,Kent County,DE,8.494065281899111
19938,Kent County,DE,61.94362017804155
32025,Columbia County,FL,31.528189910979226
32043,Clay County,FL,37.98219584569733
32060,Suwannee County,FL,46.73590504451038
32068,Clay County,FL,55.34124629080118
32073,Clay County,FL,17.099406528189913
32081,St. Johns County,FL,94.473293768546
32092,St. Johns County,FL,45.54896142433235
32117,Volusia County,FL,27.077151335311573
32119,Volusia County,FL,71.25370919881306
32137,Flagler County,FL,47.218100890207715
32221,Duval County,FL,74.5919881305638
32222,Duval County,FL,91.02373887240356
32224,Duval County,FL,53.26409495548962
32244,Duval County,FL,3.523738872403561
32246,Duval County,FL,10.200296735905043
32266,Duval County,FL,97.81157270029674
32312,Leon County,FL,81.60237388724035
32324,Gadsden County,FL,97.29228486646885
32327,Wakulla County,FL,73.88724035608308
32404,Bay County,FL,17.655786350148368
32405,Bay County,FL,20.066765578635014
32438,Bay County,FL,95.2893175074184
32446,Jackson County,FL,59.38427299703264
32462,Washington County,FL,96.06824925816024
32506,Escambia County,FL,9.235905044510385
32514,Escambia County,FL,17.136498516320476
32526,Escambia County,FL,8.939169139465877
32533,Escambia County,FL,57.90059347181009
32541,Okaloosa County,FL,62.31454005934718
32566,Santa Rosa County,FL,28.338278931750743
32570,Santa Rosa County,FL,51.11275964391692
32606,Alachua County,FL,27.67062314540059
32607,Alachua County,FL,13.16765578635015
32608,Alachua County,FL,4.710682492581602
32609,Alachua County,FL,13.724035608308604
32626,Levy County,FL,88.72403560830861
32669,Alachua County,FL,62.5
32693,Gilchrist County,FL,63.87240356083086
32701,Seminole County,FL,49.77744807121662
32750,Seminole County,FL,62.87091988130564
32765,Seminole County,FL,50.9272997032641
32771,Seminole County,FL,10.83086053412463
32773,Seminole County,FL,41.72848664688427
32803,Orange County,FL,69.13946587537092
32812,Orange County,FL,29.710682492581604
32821,Orange County,FL,78.560830860534125
32822,Orange County,FL,12.98219584569733
32824,Orange County,FL,36.35014836795252
32827,Orange County,FL,96.69881305637982
32837,Orange County,FL,66.58011869436203
32839,Orange County,FL,72.21810089020771
32955,Brevard County,FL,43.32344213649852
32958,Indian River County,FL,64.02077151335311
32962,Indian River County,FL,42.13649851632047
32968,Indian River County,FL,78.18991097922849
33009,Broward County,FL,83.67952522255193
33012,Miami-Dade County,FL,37.833827893175076
33013,Miami-Dade County,FL,88.46439169139467
33015,Miami-Dade County,FL,45.21513353115727
33018,Miami-Dade County,FL,71.69881305637982
33020,Broward County,FL,23.405044510385757
33023,Broward County,FL,13.130563798219585
33029,Broward County,FL,55.45252225519288
33033,Miami-Dade County,FL,69.21364985163204
33060,Broward County,FL,30.489614243323444
33067,Broward County,FL,95.88278931750742
33069,Broward County,FL,63.16765578635015
33126,Miami-Dade County,FL,63.909495548961424
33128,Miami-Dade County,FL,95.62314540059347
33131,Miami-Dade County,FL,91.50593471810089
33134,Miami-Dade County,FL,72.73738872403561
33139,Miami-Dade County,FL,54.117210682492576
33154,Miami-Dade County,FL,94.3620178041543
33157,Miami-Dade County,FL,62.833827893175076
33158,Miami-Dade County,FL,98.2566765578635
33160,Miami-Dade County,FL,62.054896142433236
33161,Miami-Dade County,FL,28.264094955489615
33162,Miami-Dade County,FL,53.338278931750736
33165,Miami-Dade County,FL,54.85905044510386
33166,Miami-Dade County,FL,72.18100890207715
33179,Miami-Dade County,FL,55.97181008902077
33180,Miami-Dade County,FL,77.1513353115727
33187,Miami-Dade County,FL,78.3753709198813
33309,Broward County,FL,52.63353115727003
33313,Broward County,FL,14.6513353115727
33319,Broward County,FL,35.71958456973294
33409,Palm Beach County,FL,85.3486646884273
33415,Palm Beach County,FL,35.97922848664689
33428,Palm Beach County,FL,29.080118694362017
33435,Palm Beach County,FL,40.096439169139465
33436,Palm Beach County,FL,79.19139465875371
33460,Palm Beach County,FL,39.09495548961424
33463,Palm Beach County,FL,42.69287833827893
33477,Palm Beach County,FL,96.81008902077151
33525,Pasco County,FL,65.94955489614243
33527,Hillsborough County,FL,81.4540059347181
33558,Hillsborough County,FL,84.19881305637982
33567,Hillsborough County,FL,70.88278931750742
33572,Hillsborough County,FL,78.74629080118694
33578,Hillsborough County,FL,28.22700296735905
33596,Hillsborough County,FL,95.43768545994065
33605,Hillsborough County,FL,49.85163204747774
33609,Hillsborough County,FL,70.54896142433235
33612,Hillsborough County,FL,31.194362017804156
33613,Hillsborough County,FL,35.089020771513354
33617,Hillsborough County,FL,62.01780415430267
33618,Hillsborough County,FL,74.14688427299704
33619,Hillsborough County,FL,28.672106824925812
33647,Hillsborough County,FL,44.99258160237389
33714,Pinellas County,FL,49.74035608308605
33756,Pinellas County,FL,39.42878338278932
33770,Pinellas County,FL,52.22551928783383
33801,Polk County,FL,16.394658753709198
33810,Polk County,FL,19.99258160237389
33811,Polk County,FL,87.05489614243324
33812,Polk County,FL,73.3679525222552
33823,Polk County,FL,28.74629080118694
33837,Polk County,FL,43.10089020771513
33853,Polk County,FL,85.60830860534125
33873,Hardee County,FL,70.14094955489614
33880,Polk County,FL,50.55637982195845
33904,Lee County,FL,31.454005934718097
33905,Lee County,FL,30.08160237388724
33914,Lee County,FL,33.67952522255193
33936,Lee County,FL,41.95103857566765
33948,Charlotte County,FL,79.41394658753708
33971,Lee County,FL,51.224035608308604
33973,Lee County,FL,84.68100890207715
33974,Lee County,FL,76.6320474777448
34102,Collier County,FL,90.54154302670622
34104,Collier County,FL,47.737388724035604
34112,Collier County,FL,49.666172106824924
34113,Collier County,FL,78.22700296735906
34116,Collier County,FL,73.62759643916914
34135,Lee County,FL,74.44362017804154
34203,Manatee County,FL,95.02967359050444
34237,Sarasota County,FL,79.97032640949556
34243,Manatee County,FL,54.22848664688428
34266,DeSoto County,FL,29.52522255192878
34286,Sarasota County,FL,52.07715133531158
34287,Sarasota County,FL,46.031157270029674
34461,Citrus County,FL,82.04747774480711
34471,Marion County,FL,76.59495548961425
34481,Marion County,FL,69.69584569732937
34654,Pasco County,FL,40.80118694362017
34655,Pasco County,FL,61.461424332344215
34668,Pasco County,FL,7.566765578635016
34684,Pinellas County,FL,66.98813056379822
34698,Pinellas County,FL,48.70178041543027
34711,Lake County,FL,15.764094955489613
34715,Lake County,FL,49.146884272997035
34736,Lake County,FL,70.14094955489614
34746,Osceola County,FL,63.909495548961424
34748,Lake County,FL,13.835311572700295
34758,Osceola County,FL,15.875370919881307
34759,Polk County,FL,32.45548961424332
34761,Orange County,FL,32.974777448071215
34785,Sumter County,FL,65.20771513353115
34787,Orange County,FL,18.620178041543024
34946,St. Lucie County,FL,77.11424332344214
34950,St. Lucie County,FL,47.10682492581602
34951,St. Lucie County,FL,80.526706231454
34956,Martin County,FL,95.77151335311572
34982,St. Lucie County,FL,47.737388724035604
34994,Martin County,FL,74.62908011869436
34997,Martin County,FL,22.811572700296736
30002,DeKalb County,GA,98.62759643916914
30004,Fulton County,GA,69.06528189910979
30005,Fulton County,GA,64.83679525222553
30008,Cobb County,GA,83.9020771513353
30012,Rockdale County,GA,48.14540059347181
30013,Rockdale County,GA,39.05786350148368
30016,Newton County,GA,68.91691394658753
30022,Fulton County,GA,33.568249258160236
30028,Forsyth County,GA,53.41246290801187
30038,DeKalb County,GA,36.31305637982196
30040,Forsyth County,GA,86.83234421364985
30044,Gwinnett County,GA,45.88278931750742
30046,Gwinnett County,GA,73.33086053412462
30047,Gwinnett County,GA,54.41394658753709
30054,Newton County,GA,66.8026706231454
30064,Cobb County,GA,57.6780415430267
30066,Cobb County,GA,40.57863501483679
30067,Cobb County,GA,55.081602373887236
30068,Cobb County,GA,69.13946587537092
30071,Gwinnett County,GA,94.51038575667656
30075,Fulton County,GA,31.93620178041543
30076,Fulton County,GA,57.6780415430267
30080,Cobb County,GA,46.513353115727
30082,Cobb County,GA,70.91988130563797
30083,DeKalb County,GA,54.85905044510386
30088,DeKalb County,GA,33.12314540059347
30093,Gwinnett County,GA,50.70474777448071
30096,Gwinnett County,GA,19.99258160237389
30097,Fulton County,GA,55.60089020771514
30102,Cherokee County,GA,40.43026706231454
30114,Cherokee County,GA,63.46439169139466
30120,Bartow County,GA,47.06973293768546
30121,Bartow County,GA,48.85014836795252
30126,Cobb County,GA,37.0919881305638
30127,Cobb County,GA,12.388724035608309
30153,Polk County,GA,35.05192878338279
30157,Paulding County,GA,19.658753709198812
30188,Cherokee County,GA,15.541543026706231
30189,Cherokee County,GA,46.958456973293764
30214,Fayette County,GA,48.367952522255194
30223,Spalding County,GA,30.637982195845698
30228,Henry County,GA,24.03560830860534
30236,Clayton County,GA,24.666172106824927
30240,Troup County,GA,53.560830860534125
30248,Henry County,GA,53.004451038575674
30297,Clayton County,GA,79.7106824925816
30340,DeKalb County,GA,80.19287833827893
30344,Fulton County,GA,37.35163204747774
30349,Fulton County,GA,5.007418397626113
30360,DeKalb County,GA,92.17359050445104
30474,Toombs County,GA,54.19139465875371
30506,Hall County,GA,23.182492581602375
30519,Gwinnett County,GA,84.75519287833828
30542,Hall County,GA,46.253709198813056
30549,Jackson County,GA,84.90356083086054
30643,Hart County,GA,59.718100890207715
30677,Oconee County,GA,89.2433234421365
30701,Gordon County,GA,75.66765578635015
30705,Murray County,GA,22.922848664688427
30720,Whitfield County,GA,48.775964391691396
30721,Whitfield County,GA,51.298219584569736
30739,Walker County,GA,93.10089020771514
30741,Walker County,GA,13.204747774480714
30830,Burke County,GA,46.66172106824926
30906,Richmond County,GA,23.62759643916914
30909,Richmond County,GA,19.43620178041543
31021,Laurens County,GA,32.86350148367953
31027,Laurens County,GA,95.6973293768546
31047,Houston County,GA,84.9406528189911
31069,Houston County,GA,34.27299703264095
31088,Houston County,GA,10.274480712166172
31204,Bibb County,GA,25.667655786350146
31206,Bibb County,GA,23.55341246290801
31312,Effingham County,GA,75.96439169139467
31331,McIntosh County,GA,93.62017804154303
31407,Chatham County,GA,85.68249258160238
31415,Chatham County,GA,69.8813056379822
31503,Ware County,GA,45.95697329376854
31714,Turner County,GA,72.58902077151336
31719,Sumter County,GA,88.53857566765578
31730,Mitchell County,GA,76.92878338278932
31768,Colquitt County,GA,60.867952522255194
31907,Muscogee County,GA,46.29080118694362
31909,Muscogee County,GA,32.90059347181009
39823,Early County,GA,59.60682492581603
96701,Honolulu County,HI,62.12908011869436
96706,Honolulu County,HI,31.379821958456972
96707,Honolulu County,HI,29.22848664688427
96720,Hawaii County,HI,26.85459940652819
96744,Honolulu County,HI,46.36498516320475
96761,Maui County,HI,97.88575667655786
96766,Kauai County,HI,65.39317507418397
96778,Hawaii County,HI,66.24629080118694
96786,Honolulu County,HI,61.75816023738873
96797,Honolulu County,HI,5.118694362017804
96815,Honolulu County,HI,42.433234421364986
96817,Honolulu County,HI,7.455489614243324
96818,Honolulu County,HI,76.8545994065282
96822,Honolulu County,HI,33.160237388724035
96825,Honolulu County,HI,47.47774480712167
83211,Power County,ID,81.15727002967358
83301,Twin Falls County,ID,2.4109792284866467
83336,Minidoka County,ID,97.4406528189911
83350,Minidoka County,ID,70.25222551928783
83401,Bonneville County,ID,9.458456973293769
83404,Bonneville County,ID,48.47922848664689
83605,Canyon County,ID,20.734421364985163
83617,Gem County,ID,88.39020771513353
83642,Ada County,ID,11.869436201780417
83651,Canyon County,ID,11.795252225519288
83705,Ada County,ID,22.47774480712166
83713,Ada County,ID,29.896142433234424
83815,Kootenai County,ID,29.3026706231454
83854,Kootenai County,ID,26.186943620178045
60004,Cook County,IL,52.74480712166172
60007,Cook County,IL,88.16765578635015
60008,Cook County,IL,63.649851632047486
60010,Lake County,IL,32.640949554896146
60012,McHenry County,IL,80.82344213649851
60014,McHenry County,IL,17.878338278931754
60016,Cook County,IL,17.39614243323442
60018,Cook County,IL,58.160237388724035
60026,Cook County,IL,88.64985163204749
60031,Lake County,IL,73.88724035608308
60050,McHenry County,IL,80.60089020771514
60053,Cook County,IL,73.29376854599407
60056,Cook County,IL,32.566765578635014
60060,Lake County,IL,41.69139465875371
60062,Cook County,IL,32.826409495548965
60064,Lake County,IL,91.20919881305637
60067,Cook County,IL,70.36350148367953
60070,Cook County,IL,87.57418397626114
60073,Lake County,IL,39.910979228486646
60074,Cook County,IL,69.06528189910979
60077,Cook County,IL,54.74777448071217
60101,DuPage County,IL,20.845697329376854
60103,DuPage County,IL,73.70178041543026
60110,Kane County,IL,42.54451038575668
60118,Kane County,IL,90.02225519287835
60120,Kane County,IL,73.03412462908013
60123,Kane County,IL,14.725519287833826
60124,Kane County,IL,58.79080118694362
60131,Cook County,IL,68.69436201780415
60133,Cook County,IL,83.7166172106825
60139,DuPage County,IL,75.37091988130564
60164,Cook County,IL,33.531157270029674
60174,Kane County,IL,84.56973293768546
60177,Kane County,IL,53.04154302670623
60185,DuPage County,IL,65.09643916913946
60193,Cook County,IL,32.603857566765576
60194,Cook County,IL,90.1706231454006
60202,Cook County,IL,54.59940652818991
60402,Cook County,IL,7.158753709198813
60409,Cook County,IL,58.30860534124629
60423,Will County,IL,68.39762611275965
60433,Will County,IL,57.01038575667656
60435,Will County,IL,30.00741839762611
60436,Will County,IL,79.85905044510386
60440,Will County,IL,13.57566765578635
60443,Cook County,IL,39.09495548961424
60446,Will County,IL,9.606824925816024
60455,Cook County,IL,42.87833827893175
60457,Cook County,IL,69.95548961424333
60462,Cook County,IL,19.80712166172107
60467,Cook County,IL,44.547477744807125
60477,Cook County,IL,19.658753709198812
60482,Cook County,IL,66.060830860534125
60506,Kane County,IL,53.597922848664695
60513,Cook County,IL,34.718100890207715
60516,DuPage County,IL,38.68694362017804
60540,DuPage County,IL,22.06973293768546
60543,Kendall County,IL,29.78486646884273
60544,Will County,IL,31.268545994065285
60561,DuPage County,IL,80.30415430267063
60564,Will County,IL,30.93471810089021
60608,Cook County,IL,7.084569732937686
60609,Cook County,IL,6.824925816023739
60613,Cook County,IL,21.179525222551927
60616,Cook County,IL,64.57715133531158
60621,Cook County,IL,28.783382789317507
60622,Cook County,IL,30.452522255192875
60623,Cook County,IL,43.17507418397626
60624,Cook County,IL,39.24332344213649
60625,Cook County,IL,6.973293768545995
60626,Cook County,IL,45.02967359050445
60629,Cook County,IL,19.955489614243323
60632,Cook County,IL,58.04896142433235
60637,Cook County,IL,9.977744807121661
60639,Cook County,IL,5.971810089020772
60641,Cook County,IL,35.94213649851632
60642,Cook County,IL,75.03709198813057
60643,Cook County,IL,5.526706231454006
60644,Cook County,IL,25.29673590504451
60651,Cook County,IL,26.298219584569733
60652,Cook County,IL,56.862017804154306
60707,Cook County,IL,13.649851632047477
60804,Cook County,IL,13.464391691394658
60805,Cook County,IL,68.47181008902076
60901,Kankakee County,IL,10.942136498516321
60914,Kankakee County,IL,26.928783382789316
61073,Winnebago County,IL,60.83086053412463
61108,Winnebago County,IL,50.333827893175076
61111,Winnebago County,IL,44.13946587537092
61115,Winnebago County,IL,46.439169139465875
61201,Rock Island County,IL,31.120178041543028
61254,Henry County,IL,97.58902077151336
61265,Rock Island County,IL,72.55192878338279
61350,LaSalle County,IL,42.24777448071217
61356,Bureau County,IL,71.25370919881306
61401,Knox County,IL,91.3946587537092
61462,Warren County,IL,97.95994065281899
61523,Peoria County,IL,85.97922848664689
61554,Tazewell County,IL,22.440652818991097
61604,Peoria County,IL,81.67655786350149
61611,Tazewell County,IL,69.43620178041543
61614,Peoria County,IL,70.54896142433235
61701,McLean County,IL,25.370919881305635
61761,McLean County,IL,33.27151335311573
61801,Champaign County,IL,72.77448071216617
61866,Champaign County,IL,35.01483679525222
61944,Edgar County,IL,73.99851632047478
61953,Douglas County,IL,93.76854599406528
62040,Madison County,IL,13.909495548961424
62208,St. Clair County,IL,95.21513353115726
62226,St. Clair County,IL,36.90652818991098
62231,Clinton County,IL,90.39317507418397
62232,St. Clair County,IL,96.2166172106825
62441,Clark County,IL,90.0593471810089
62521,Macon County,IL,8.011869436201781
62568,Christian County,IL,90.80118694362018
62650,Morgan County,IL,47.36646884272997
62702,Sangamon County,IL,19.287833827893174
62703,Sangamon County,IL,58.23442136498517
62864,Jefferson County,IL,41.35756676557863
62995,Johnson County,IL,99.92581602373886
46012,Madison County,IN,65.91246290801188
46032,Hamilton County,IN,73.03412462908013
46040,Hancock County,IN,94.80712166172107
46041,Clinton County,IN,27.522255192878337
46106,Johnson County,IN,94.65875370919882
46112,Hendricks County,IN,48.775964391691396
46120,Putnam County,IN,90.1706231454006
46140,Hancock County,IN,22.403560830860535
46214,Marion County,IN,51.44658753709199
46219,Marion County,IN,7.603857566765579
46222,Marion County,IN,13.57566765578635
46227,Marion County,IN,6.045994065281899
46228,Marion County,IN,75.74183976261128
46235,Marion County,IN,13.390207715133531
46241,Marion County,IN,13.798219584569733
46260,Marion County,IN,71.84718100890207
46268,Marion County,IN,71.2166172106825
46304,Porter County,IN,8.086053412462908
46310,Jasper County,IN,46.847181008902076
46312,Lake County,IN,10.682492581602373
46322,Lake County,IN,17.76706231454006
46323,Lake County,IN,14.094955489614245
46324,Lake County,IN,11.201780415430267
46356,Lake County,IN,24.258160237388722
46360,LaPorte County,IN,18.694362017804153
46383,Porter County,IN,4.859050445103858
46405,Lake County,IN,68.06379821958457
46408,Lake County,IN,40.281899109792285
46410,Lake County,IN,4.265578635014837
46514,Elkhart County,IN,22.922848664688427
46528,Elkhart County,IN,71.47626112759644
46545,St. Joseph County,IN,41.72848664688427
46561,St. Joseph County,IN,85.08902077151336
46628,St. Joseph County,IN,42.952522255192875
46703,Steuben County,IN,45.066765578635014
46738,DeKalb County,IN,66.43175074183976
46767,Noble County,IN,87.72255192878339
46774,Allen County,IN,55.712166172106826
46902,Howard County,IN,2.4851632047477747
47172,Clark County,IN,62.908011869436194
47274,Jackson County,IN,56.26854599406528
47302,Delaware County,IN,12.537091988130564
47304,Delaware County,IN,45.140949554896146
47348,Blackford County,IN,61.201780415430264
47374,Wayne County,IN,2.893175074183976
47542,Dubois County,IN,85.3486646884273
47581,Martin County,IN,98.92433234421365
47591,Knox County,IN,29.339762611275965
47601,Warrick County,IN,56.083086053412465
47620,Posey County,IN,66.65430267062314
47710,Vanderburgh County,IN,29.154302670623146
47720,Vanderburgh County,IN,71.03115727002968
47803,Vigo County,IN,82.04747774480711
47842,Vermillion County,IN,63.649851632047486
47904,Tippecanoe County,IN,54.3026706231454
47905,Tippecanoe County,IN,68.5459940652819
50138,Marion County,IA,46.476261127596445
50158,Marshall County,IA,80.93471810089021
50208,Jasper County,IA,51.00148367952523
50211,Warren County,IA,92.13649851632047
50315,Polk County,IA,5.4525222551928785
50316,Polk County,IA,34.718100890207715
50317,Polk County,IA,7.195845697329377
50583,Sac County,IA,99.96290801186943
50588,Buena Vista County,IA,34.64391691394659
50613,Black Hawk County,IA,43.212166172106826
50701,Black Hawk County,IA,26.965875370919886
51104,Woodbury County,IA,71.77299703264094
51106,Woodbury County,IA,91.69139465875371
51501,Pottawattamie County,IA,1.9287833827893175
51555,Harrison County,IA,76.00148367952522
52001,Dubuque County,IA,9.792284866468842
52003,Dubuque County,IA,86.46142433234422
52233,Linn County,IA,96.58753709198812
52302,Linn County,IA,48.21958456973294
52349,Benton County,IA,68.99109792284867
52404,Linn County,IA,5.378338278931751
52632,Lee County,IA,67.58160237388724
52641,Henry County,IA,68.9540059347181
52722,Scott County,IA,46.92136498516321
52730,Clinton County,IA,92.95252225519289
52761,Muscatine County,IA,66.95103857566765
52804,Scott County,IA,40.76409495548962
66006,Douglas County,KS,95.77151335311572
66025,Douglas County,KS,92.65578635014838
66040,Linn County,KS,98.1454005934718
66061,Johnson County,KS,45.474777448071215
66101,Wyandotte County,KS,83.64243323442136
66104,Wyandotte County,KS,21.327893175074184
66204,Johnson County,KS,68.65727002967358
66206,Johnson County,KS,96.99554896142433
66212,Johnson County,KS,50.519287833827896
66441,Geary County,KS,67.35905044510386
66547,Pottawatomie County,KS,84.31008902077151
66618,Shawnee County,KS,89.57715133531158
66801,Lyon County,KS,44.25074183976261
67207,Sedgwick County,KS,78.85756676557864
67210,Sedgwick County,KS,98.92433234421365
67218,Sedgwick County,KS,90.46735905044511
67401,Saline County,KS,14.391691394658753
67460,McPherson County,KS,76.07566765578635
67530,Barton County,KS,65.28189910979229
67601,Ellis County,KS,34.718100890207715
67846,Finney County,KS,15.764094955489613
67951,Stevens County,KS,93.24925816023739
40006,Trimble County,KY,92.47032640949556
40206,Jefferson County,KY,63.909495548961424
40210,Jefferson County,KY,35.16320474777448
40215,Jefferson County,KY,44.02818991097923
40216,Jefferson County,KY,5.86053412462908
40219,Jefferson County,KY,8.048961424332344
40220,Jefferson County,KY,31.194362017804156
40245,Jefferson County,KY,41.98813056379822
40311,Nicholas County,KY,69.65875370919882
40324,Scott County,KY,8.419881305637983
40444,Garrard County,KY,53.82047477744807
40505,Fayette County,KY,16.913946587537094
40511,Fayette County,KY,66.61721068249258
40729,Laurel County,KY,79.26557863501483
40828,Harlan County,KY,94.10237388724035
40965,Bell County,KY,19.881305637982198
41042,Boone County,KY,18.9540059347181
41071,Campbell County,KY,20.140949554896142
41076,Campbell County,KY,68.17507418397626
41091,Boone County,KY,68.06379821958457
41144,Greenup County,KY,34.08753709198813
42066,Graves County,KY,49.925816023738875
42103,Warren County,KY,58.6053412462908
42134,Simpson County,KY,46.031157270029674
42210,Edmonson County,KY,94.84421364985162
42301,Daviess County,KY,28.709198813056382
42303,Daviess County,KY,6.3056379821958455
42330,Muhlenberg County,KY,66.20919881305637
42445,Caldwell County,KY,93.39762611275965
42635,McCreary County,KY,90.31899109792285
42754,Grayson County,KY,55.60089020771514
70001,Jefferson Parish,LA,2.7818991097922847
70056,Jefferson Parish,LA,2.967359050445104
70058,Jefferson Parish,LA,1.3724035608308605
70068,St. John the Baptist Parish,LA,6.528189910979229
70072,Jefferson Parish,LA,0.6676557863501483
70084,St. John the Baptist Parish,LA,62.61127596439169
70118,Orleans Parish,LA,12.314540059347182
70128,Orleans Parish,LA,73.55341246290801
70301,Lafourche Parish,LA,1.446587537091988
70363,Terrebonne Parish,LA,2.559347181008902
70364,Terrebonne Parish,LA,4.821958456973293
70377,Terrebonne Parish,LA,64.3545994065282
70380,St. Mary Parish,LA,15.504451038575667
70456,Tangipahoa Parish,LA,84.08753709198812
70458,St. Tammany Parish,LA,70.84569732937686
70503,Lafayette Parish,LA,31.083086053412462
70520,Lafayette Parish,LA,16.246290801186944
70525,Acadia Parish,LA,74.8887240356083
70546,Jefferson Davis Parish,LA,21.884272997032642
70560,Iberia Parish,LA,10.163204747774481
70563,Iberia Parish,LA,30.56379821958457
70570,St. Landry Parish,LA,0.7047477744807121
70578,Acadia Parish,LA,15.281899109792285
70586,Evangeline Parish,LA,10.05192878338279
70592,Lafayette Parish,LA,22.514836795252226
70601,Calcasieu Parish,LA,0.9272997032640948
70706,Livingston Parish,LA,25.77893175074184
70726,Livingston Parish,LA,0.8531157270029673
70764,Iberville Parish,LA,27.707715133531156
70815,East Baton Rouge Parish,LA,38.79821958456973
70817,East Baton Rouge Parish,LA,26.112759643916917
70820,East Baton Rouge Parish,LA,72.36646884272997
71052,De Soto Parish,LA,30.971810089020774
71112,Bossier Parish,LA,7.974777448071217
71118,Caddo Parish,LA,14.428783382789318
71119,Caddo Parish,LA,80.37833827893175
71220,Morehouse Parish,LA,12.091988130563799
71260,Union Parish,LA,94.65875370919882
71291,Ouachita Parish,LA,6.6765578635014835
71457,Natchitoches Parish,LA,4.080118694362018
04073,York County,ME,17.28486646884273
04090,York County,ME,58.345697329376854
04210,Androscoggin County,ME,12.759643916913946
04412,Penobscot County,ME,59.97774480712166
04843,Knox County,ME,93.99109792284867
20601,Charles County,MD,63.57566765578635
20603,Charles County,MD,62.38872403560831
20659,St. Mary's County,MD,57.60385756676558
20708,Prince George's County,MD,77.07715133531158
20748,Prince George's County,MD,37.68545994065282
20772,Prince George's County,MD,41.580118694362014
20785,Prince George's County,MD,49.295252225519285
20817,Montgomery County,MD,74.33234421364985
20832,Montgomery County,MD,76.78041543026706
20833,Montgomery County,MD,95.4005934718101
20871,Montgomery County,MD,85.01483679525222
20872,Montgomery County,MD,92.24777448071217
21015,Harford County,MD,67.98961424332344
21028,Harford County,MD,98.81305637982196
21030,Baltimore County,MD,66.8026706231454
21042,Howard County,MD,65.02225519287835
21043,Howard County,MD,64.94807121661721
21061,Anne Arundel County,MD,6.231454005934718
21075,Howard County,MD,62.31454005934718
21090,Anne Arundel County,MD,83.56824925816024
21117,Baltimore County,MD,23.33086053412463
21122,Anne Arundel County,MD,4.933234421364985
21128,Baltimore County,MD,84.45845697329378
21136,Baltimore County,MD,95.73442136498517
21144,Anne Arundel County,MD,51.66913946587537
21204,Baltimore County,MD,87.35163204747775
21206,Baltimore city,MD,7.270029673590504
21207,Baltimore County,MD,15.652818991097922
21208,Baltimore County,MD,56.19436201780415
21220,Baltimore County,MD,12.166172106824925
21244,Baltimore County,MD,37.20326409495549
21774,Frederick County,MD,85.79376854599407
21788,Frederick County,MD,77.63353115727003
21801,Wicomico County,MD,58.49406528189911
21817,Somerset County,MD,98.47922848664689
01020,Hampden County,MA,77.37388724035608
01036,Hampden County,MA,89.6513353115727
01077,Hampden County,MA,99.5919881305638
01107,Hampden County,MA,92.87833827893175
01109,Hampden County,MA,0.0370919881305638
01436,Worcester County,MA,99.85163204747775
01501,Worcester County,MA,27.262611275964392
01540,Worcester County,MA,67.02522255192879
01545,Worcester County,MA,11.313056379821958
01581,Worcester County,MA,26.743323442136496
01748,Middlesex County,MA,37.12908011869436
01757,Worcester County,MA,1.261127596439169
01810,Essex County,MA,8.234421364985163
01824,Middlesex County,MA,5.786350148367952
01826,Middlesex County,MA,15.393175074183976
01841,Essex County,MA,23.36795252225519
01844,Essex County,MA,0.5934718100890208
01879,Middlesex County,MA,21.624629080118694
01886,Middlesex County,MA,49.96290801186943
01902,Essex County,MA,42.804154302670625
01913,Essex County,MA,18.28635014836795
01915,Essex County,MA,7.789317507418398
01930,Essex County,MA,75.18545994065282
01944,Essex County,MA,94.84421364985162
01949,Essex County,MA,41.20919881305638
01960,Essex County,MA,0.33382789317507416
01970,Essex County,MA,0.44510385756676557
02021,Norfolk County,MA,23.92433234421365
02026,Norfolk County,MA,3.0415430267062313
02048,Bristol County,MA,13.501483679525222
02115,Suffolk County,MA,3.931750741839762
02120,Suffolk County,MA,3.4866468842729974
02124,Suffolk County,MA,0.25964391691394656
02126,Suffolk County,MA,60.12611275964391
02128,Suffolk County,MA,51.70623145400594
02135,Suffolk County,MA,2.596439169139466
02136,Suffolk County,MA,1.0014836795252227
02139,Middlesex County,MA,0.11127596439169139
02143,Middlesex County,MA,3.4124629080118694
02148,Middlesex County,MA,0.22255192878338279
02149,Middlesex County,MA,0.0741839762611276
02150,Suffolk County,MA,42.989614243323444
02151,Suffolk County,MA,0
02169,Norfolk County,MA,78.82047477744807
02186,Norfolk County,MA,8.902077151335313
02189,Norfolk County,MA,16.468842729970326
02301,Plymouth County,MA,60.534124629080125
02302,Plymouth County,MA,45.6973293768546
02346,Plymouth County,MA,6.787833827893175
02359,Plymouth County,MA,22.663204747774483
02368,Norfolk County,MA,1.0385756676557862
02370,Plymouth County,MA,37.75964391691395
02375,Bristol County,MA,49.22106824925816
02382,Plymouth County,MA,19.32492581602374
02452,Middlesex County,MA,58.41988130563798
02453,Middlesex County,MA,5.675074183976261
02472,Middlesex County,MA,4.339762611275964
02478,Middlesex County,MA,16.320474777448073
02720,Bristol County,MA,1.4094955489614243
02726,Bristol County,MA,94.54747774480711
02766,Bristol County,MA,12.425816023738873
02769,Bristol County,MA,39.725519287833826
02780,Bristol County,MA,0.1483679525222552
48003,Lapeer County,MI,85.6454005934718
48021,Macomb County,MI,50.63056379821958
48035,Macomb County,MI,6.379821958456973
48038,Macomb County,MI,35.57121661721068
48044,Macomb County,MI,25.222551928783382
48049,St. Clair County,MI,96.73590504451039
48060,St. Clair County,MI,1.7804154302670623
48064,St. Clair County,MI,96.439169139465875
48066,Macomb County,MI,1.965875370919881
48067,Oakland County,MI,64.16913946587538
48071,Oakland County,MI,86.64688427299704
48075,Oakland County,MI,24.40652818991098
48076,Oakland County,MI,25.259643916913948
48083,Oakland County,MI,51.038575667655785
48093,Macomb County,MI,13.093471810089023
48097,St. Clair County,MI,88.05637982195846
48103,Washtenaw County,MI,9.495548961424333
48120,Wayne County,MI,89.42878338278932
48124,Wayne County,MI,13.427299703264095
48126,Wayne County,MI,29.710682492581604
48134,Wayne County,MI,21.105341246290802
48135,Wayne County,MI,68.58308605341247
48141,Wayne County,MI,5.229970326409496
48160,Washtenaw County,MI,68.1379821958457
48161,Monroe County,MI,4.673590504451038
48174,Wayne County,MI,4.376854599406528
48178,Oakland County,MI,26.409495548961427
48180,Wayne County,MI,10.422848664688427
48183,Wayne County,MI,5.786350148367952
48185,Wayne County,MI,18.805637982195847
48187,Wayne County,MI,6.602373887240357
48193,Wayne County,MI,77.63353115727003
48197,Washtenaw County,MI,9.347181008902076
48198,Washtenaw County,MI,1.483679525222552
48201,Wayne County,MI,32.12166172106825
48205,Wayne County,MI,2.7077151335311576
48209,Wayne County,MI,68.80563798219585
48212,Wayne County,MI,50.07418397626113
48223,Wayne County,MI,7.752225519287833
48224,Wayne County,MI,1.3353115727002967
48228,Wayne County,MI,0.7789317507418397
48235,Wayne County,MI,71.4020771513353
48240,Wayne County,MI,47.18100890207715
48302,Oakland County,MI,66.65430267062314
48304,Oakland County,MI,61.94362017804155
48306,Oakland County,MI,36.1646884272997
48317,Macomb County,MI,15.727002967359049
48322,Oakland County,MI,35.53412462908012
48323,Oakland County,MI,49.0727002967359
48326,Oakland County,MI,44.58456973293769
48334,Oakland County,MI,48.516320474777444
48335,Oakland County,MI,44.47329376854599
48359,Oakland County,MI,58.79080118694362
48375,Oakland County,MI,44.21364985163205
48377,Oakland County,MI,84.6439169139466
48383,Oakland County,MI,65.3560830860534
48420,Genesee County,MI,72.3293768545994
48423,Genesee County,MI,59.97774480712166
48430,Genesee County,MI,18.5459940652819
48439,Genesee County,MI,35.12611275964392
48507,Genesee County,MI,6.268545994065282
48532,Genesee County,MI,31.528189910979226
48602,Saginaw County,MI,2.262611275964392
48603,Saginaw County,MI,7.418397626112759
48622,Clare County,MI,69.25074183976261
48623,Saginaw County,MI,36.49851632047478
48625,Clare County,MI,56.97329376854599
48642,Midland County,MI,12.870919881305637
48706,Bay County,MI,4.562314540059347
48732,Bay County,MI,46.99554896142433
48848,Shiawassee County,MI,83.1973293768546
48880,Gratiot County,MI,83.79080118694363
48912,Ingham County,MI,46.031157270029674
49010,Allegan County,MI,36.646884272997035
49013,Van Buren County,MI,87.12908011869436
49017,Calhoun County,MI,23.071216617210684
49022,Berrien County,MI,6.1943620178041545
49036,Branch County,MI,56.676557863501486
49045,Van Buren County,MI,72.92284866468842
49047,Cass County,MI,45.54896142433235
49048,Kalamazoo County,MI,11.683976261127595
49053,Kalamazoo County,MI,92.58160237388724
49057,Van Buren County,MI,77.29970326409496
49078,Allegan County,MI,73.77596439169139
49080,Allegan County,MI,69.58456973293768
49093,St. Joseph County,MI,91.95103857566765
49097,Kalamazoo County,MI,59.60682492581603
49127,Berrien County,MI,76.96587537091987
49201,Jackson County,MI,5.489614243323442
49224,Calhoun County,MI,48.21958456973294
49285,Ingham County,MI,81.4540059347181
49302,Kent County,MI,89.94807121661721
49307,Mecosta County,MI,45.73442136498516
49319,Kent County,MI,22.885756676557865
49415,Muskegon County,MI,84.19881305637982
49424,Ottawa County,MI,9.643916913946587
49441,Muskegon County,MI,7.678041543026707
49442,Muskegon County,MI,2.0771513353115725
49445,Muskegon County,MI,29.413946587537094
49505,Kent County,MI,16.654302670623146
49506,Kent County,MI,17.729970326409493
49507,Kent County,MI,3.2640949554896146
49508,Kent County,MI,3.5608308605341246
49534,Kent County,MI,50.9272997032641
49548,Kent County,MI,43.28635014836795
49646,Kalkaska County,MI,46.55044510385757
49685,Grand Traverse County,MI,45.77151335311573
49735,Otsego County,MI,26.001483679525222
49837,Delta County,MI,46.624629080118694
55075,Dakota County,MN,34.49554896142433
55082,Washington County,MN,27.485163204747774
55103,Ramsey County,MN,38.8353115727003
55106,Ramsey County,MN,56.676557863501486
55117,Ramsey County,MN,61.05341246290801
55119,Ramsey County,MN,8.531157270029674
55121,Dakota County,MN,81.93620178041543
55122,Dakota County,MN,61.42433234421365
55129,Washington County,MN,69.32492581602374
55130,Ramsey County,MN,42.359050445103854
55303,Anoka County,MN,62.759643916913944
55305,Hennepin County,MN,74.70326409495549
55306,Dakota County,MN,86.12759643916914
55311,Hennepin County,MN,56.00890207715133
55316,Hennepin County,MN,85.31157270029674
55317,Carver County,MN,74.70326409495549
55337,Dakota County,MN,27.522255192878337
55342,Renville County,MN,98.3679525222552
55350,McLeod County,MN,21.77299703264095
55369,Hennepin County,MN,28.004451038575667
55407,Hennepin County,MN,3.820474777448071
55415,Hennepin County,MN,66.65430267062314
55420,Hennepin County,MN,32.23293768545994
55421,Anoka County,MN,14.280415430267063
55422,Hennepin County,MN,23.44213649851632
55424,Hennepin County,MN,95.14094955489614
55425,Hennepin County,MN,70.14094955489614
55427,Hennepin County,MN,48.85014836795252
55430,Hennepin County,MN,12.240356083086052
55431,Hennepin County,MN,57.45548961424333
55432,Anoka County,MN,16.209198813056382
55433,Anoka County,MN,63.31602373887241
55434,Anoka County,MN,91.87685459940653
55437,Hennepin County,MN,82.2700296735905
55443,Hennepin County,MN,24.51780415430267
55447,Hennepin County,MN,70.25222551928783
55449,Anoka County,MN,86.90652818991099
55721,Itasca County,MN,99.36943620178042
55746,St. Louis County,MN,70.51186943620178
55904,Olmsted County,MN,64.05786350148368
56007,Freeborn County,MN,9.86646884272997
56175,Lyon County,MN,92.98961424332344
56201,Kandiyohi County,MN,71.1053412462908
56241,Yellow Medicine County,MN,94.73293768545994
56303,Stearns County,MN,24.44362017804154
56308,Douglas County,MN,20.10385756676558
56374,Stearns County,MN,92.02522255192879
56378,Stearns County,MN,78.04154302670622
56470,Hubbard County,MN,62.53709198813057
56520,Wilkin County,MN,72.06973293768546
56537,Otter Tail County,MN,12.054896142433234
56567,Otter Tail County,MN,99.03560830860533
56721,Polk County,MN,77.81899109792285
38632,DeSoto County,MS,43.731454005934715
38654,DeSoto County,MS,16.468842729970326
38829,Prentiss County,MS,40.17062314540059
39046,Madison County,MS,20.88278931750742
39059,Copiah County,MS,75.63056379821958
39083,Copiah County,MS,74.70326409495549
39094,Leake County,MS,95.62314540059347
39211,Hinds County,MS,84.42136498516321
39669,Wilkinson County,MS,97.10682492581603
39701,Lowndes County,MS,62.20326409495549
63011,St. Louis County,MO,68.21216617210682
63040,St. Louis County,MO,96.2166172106825
63101,St. Louis city,MO,99.0727002967359
63106,St. Louis city,MO,71.99554896142433
63116,St. Louis city,MO,28.078635014836795
63376,St. Charles County,MO,6.4169139465875364
63601,St. Francois County,MO,70.02967359050444
64012,Cass County,MO,20.252225519287833
64015,Jackson County,MO,8.160237388724036
64055,Jackson County,MO,4.747774480712167
64062,Ray County,MO,51.48367952522255
64064,Jackson County,MO,45.54896142433235
64083,Cass County,MO,29.636498516320476
64089,Clay County,MO,76.70623145400593
64117,Clay County,MO,30.526706231454003
64118,Clay County,MO,37.054896142433236
64119,Clay County,MO,6.862017804154302
64133,Jackson County,MO,14.614243323442135
64151,Platte County,MO,24.5919881305638
64482,Atchison County,MO,99.4807121661721
64485,Andrew County,MO,58.79080118694362
64503,Buchanan County,MO,19.02818991097923
64701,Cass County,MO,36.46142433234421
64735,Henry County,MO,26.63204747774481
64744,Cedar County,MO,72.92284866468842
64801,Jasper County,MO,8.197329376854599
64850,Newton County,MO,10.385756676557865
65203,Boone County,MO,17.39614243323442
65301,Pettis County,MO,14.094955489614245
65337,Pettis County,MO,97.66320474777447
65616,Taney County,MO,29.896142433234424
65622,Dallas County,MO,71.32789317507418
65655,Ozark County,MO,98.51632047477746
65714,Christian County,MO,40.689910979228486
65721,Christian County,MO,49.36943620178042
65757,Greene County,MO,97.03264094955489
59044,Yellowstone County,MT,91.76557863501483
59808,Missoula County,MT,83.75370919881306
59923,Lincoln County,MT,57.27002967359051
68046,Sarpy County,NE,85.23738872403561
68107,Douglas County,NE,44.362017804154306
68111,Douglas County,NE,13.761127596439168
68118,Douglas County,NE,95.91988130563797
68123,Sarpy County,NE,60.42284866468842
68124,Douglas County,NE,91.72848664688428
68132,Douglas County,NE,71.55044510385757
68310,Gage County,NE,61.275964391691396
68434,Seward County,NE,91.54302670623146
68462,Lancaster County,NE,99.77744807121661
68502,Lancaster County,NE,65.13353115727003
68504,Lancaster County,NE,75.1112759643917
68505,Lancaster County,NE,79.3026706231454
68521,Lancaster County,NE,57.195845697329375
68826,Merrick County,NE,97.70029673590504
89101,Clark County,NV,21.290801186943618
89104,Clark County,NV,65.98664688427299
89106,Clark County,NV,40.875370919881306
89107,Clark County,NV,45.140949554896146
89110,Clark County,NV,65.80118694362018
89115,Clark County,NV,47.25519287833828
89119,Clark County,NV,66.76557863501483
89121,Clark County,NV,20.474777448071215
89139,Clark County,NV,72.06973293768546
89141,Clark County,NV,91.35756676557864
89142,Clark County,NV,92.54451038575667
89147,Clark County,NV,34.05044510385757
89148,Clark County,NV,38.761127596439174
89183,Clark County,NV,58.64243323442137
89406,Churchill County,NV,34.347181008902076
89410,Douglas County,NV,84.08753709198812
89436,Washoe County,NV,16.172106824925816
89502,Washoe County,NV,13.27893175074184
89506,Washoe County,NV,12.574183976261127
89512,Washoe County,NV,10.422848664688427
89523,Washoe County,NV,47.36646884272997
89701,Carson City,NV,31.71364985163205
03034,Rockingham County,NH,97.92284866468842
03045,Hillsborough County,NH,63.761127596439174
03060,Hillsborough County,NH,4.005934718100891
03079,Rockingham County,NH,38.61275964391692
03235,Merrimack County,NH,63.4272997032641
03755,Grafton County,NH,97.99703264094956
03801,Rockingham County,NH,44.80712166172107
03820,Strafford County,NH,14.76261127596439
03861,Strafford County,NH,99.74035608308606
07010,Bergen County,NJ,41.431750741839764
07017,Essex County,NJ,1.2240356083086052
07022,Bergen County,NJ,63.649851632047486
07024,Bergen County,NJ,27.1513353115727
07029,Hudson County,NJ,52.52225519287834
07031,Bergen County,NJ,61.75816023738873
07032,Hudson County,NJ,83.79080118694363
07042,Essex County,NJ,17.47032640949555
07055,Passaic County,NJ,0.6305637982195845
07060,Union County,NJ,4.117210682492582
07063,Union County,NJ,57.04747774480712
07073,Bergen County,NJ,59.45845697329377
07083,Union County,NJ,10.237388724035608
07087,Hudson County,NJ,1.8545994065281897
07093,Hudson County,NJ,20.623145400593472
07111,Essex County,NJ,0.556379821958457
07112,Essex County,NJ,2.040059347181009
07202,Union County,NJ,20.437685459940653
07206,Union County,NJ,5.0816023738872405
07305,Hudson County,NJ,3.1899109792284865
07401,Bergen County,NJ,93.73145400593472
07403,Passaic County,NJ,49.36943620178042
07424,Passaic County,NJ,31.824925816023743
07456,Passaic County,NJ,87.27744807121661
07461,Sussex County,NJ,33.04896142433235
07502,Passaic County,NJ,29.376854599406528
07628,Bergen County,NJ,34.27299703264095
07712,Monmouth County,NJ,11.535608308605342
07727,Monmouth County,NJ,74.8887240356083
07728,Monmouth County,NJ,9.56973293768546
07748,Monmouth County,NJ,22.218100890207715
07764,Monmouth County,NJ,88.94658753709199
07960,Morris County,NJ,44.43620178041543
08005,Ocean County,NJ,12.462908011869436
08015,Burlington County,NJ,9.718100890207715
08033,Camden County,NJ,61.68397626112759
08037,Atlantic County,NJ,10.274480712166172
08046,Burlington County,NJ,3.746290801186944
08053,Burlington County,NJ,18.100890207715135
08060,Burlington County,NJ,9.903560830860535
08066,Gloucester County,NJ,20.660237388724035
08075,Burlington County,NJ,9.198813056379821
08078,Camden County,NJ,55.86053412462908
08080,Gloucester County,NJ,7.047477744807122
08085,Gloucester County,NJ,16.839762611275965
08094,Gloucester County,NJ,3.857566765578635
08105,Camden County,NJ,5.341246290801187
08322,Gloucester County,NJ,78.04154302670622
08401,Atlantic County,NJ,2.4480712166172105
08520,Mercer County,NJ,45.326409495548965
08527,Ocean County,NJ,5.637982195845697
08536,Middlesex County,NJ,49.44362017804154
08611,Mercer County,NJ,3.2270029673590503
08619,Mercer County,NJ,41.50593471810089
08721,Ocean County,NJ,52.596439169139465
08805,Somerset County,NJ,79.11721068249258
08816,Middlesex County,NJ,28.18991097922849
08831,Middlesex County,NJ,58.49406528189911
08837,Middlesex County,NJ,57.93768545994066
08844,Somerset County,NJ,33.6053412462908
08846,Middlesex County,NJ,64.50296735905044
08848,Hunterdon County,NJ,92.32195845697329
08852,Middlesex County,NJ,47.589020771513354
08857,Middlesex County,NJ,4.896142433234421
08861,Middlesex County,NJ,0.741839762611276
87002,Valencia County,NM,43.212166172106826
87013,Sandoval County,NM,93.32344213649851
87031,Valencia County,NM,21.550445103857566
87102,Bernalillo County,NM,15.170623145400594
87107,Bernalillo County,NM,25.816023738872403
87108,Bernalillo County,NM,3.968842729970327
87113,Bernalillo County,NM,75.48219584569733
87114,Bernalillo County,NM,5.044510385756676
87120,Bernalillo County,NM,5.934718100890208
87301,McKinley County,NM,18.991097922848667
87327,Cibola County,NM,62.46290801186943
87413,San Juan County,NM,45.21513353115727
87417,San Juan County,NM,94.62166172106825
87420,San Juan County,NM,23.108308605341247
87507,Santa Fe County,NM,60.97922848664689
87532,Santa Fe County,NM,31.93620178041543
88007,Doa Ana County,NM,50.853115727002965
88011,Doa Ana County,NM,46.99554896142433
88012,Doa Ana County,NM,27.596439169139465
88203,Chaves County,NM,44.918397626112764
88220,Eddy County,NM,14.540059347181009
88240,Lea County,NM,3.5979228486646884
10005,New York County,NY,95.06676557863501
10011,New York County,NY,31.862017804154302
10021,New York County,NY,89.46587537091987
10024,New York County,NY,47.25519287833828
10026,New York County,NY,80.04451038575667
10029,New York County,NY,8.382789317507418
10031,New York County,NY,25.927299703264094
10033,New York County,NY,40.467359050445104
10034,New York County,NY,77.48516320474778
10038,New York County,NY,72.51483679525222
10304,Richmond County,NY,8.827893175074184
10314,Richmond County,NY,34.38427299703264
10451,Bronx County,NY,41.060830860534125
10452,Bronx County,NY,19.91839762611276
10453,Bronx County,NY,0.370919881305638
10454,Bronx County,NY,55.56379821958457
10456,Bronx County,NY,10.3486646884273
10457,Bronx County,NY,0.2967359050445104
10458,Bronx County,NY,7.529673590504451
10459,Bronx County,NY,16.951038575667656
10460,Bronx County,NY,7.826409495548961
10461,Bronx County,NY,67.2106824925816
10462,Bronx County,NY,54.933234421364986
10466,Bronx County,NY,48.738872403560826
10467,Bronx County,NY,35.79376854599406
10468,Bronx County,NY,16.357566765578635
10469,Bronx County,NY,12.01780415430267
10472,Bronx County,NY,37.425816023738875
10475,Bronx County,NY,52.1513353115727
10528,Westchester County,NY,91.58011869436203
10538,Westchester County,NY,97.62611275964392
10573,Westchester County,NY,86.09050445103857
10701,Westchester County,NY,31.63946587537092
10801,Westchester County,NY,60.497032640949556
10950,Orange County,NY,85.97922848664689
10952,Rockland County,NY,64.20623145400593
10990,Orange County,NY,88.50148367952522
11101,Queens County,NY,50.22255192878339
11105,Queens County,NY,81.26854599406528
11201,Kings County,NY,14.094955489614245
11204,Kings County,NY,21.735905044510385
11206,Kings County,NY,9.940652818991099
11208,Kings County,NY,53.44955489614244
11210,Kings County,NY,89.83679525222553
11212,Kings County,NY,23.2566765578635
11213,Kings County,NY,3.1528189910979227
11215,Kings County,NY,26.965875370919886
11216,Kings County,NY,30.712166172106826
11217,Kings County,NY,67.7299703264095
11219,Kings County,NY,82.75222551928783
11220,Kings County,NY,28.8946587537092
11224,Kings County,NY,44.510385756676556
11229,Kings County,NY,54.7106824925816
11233,Kings County,NY,44.77002967359051
11234,Kings County,NY,45.660237388724035
11235,Kings County,NY,67.65578635014838
11236,Kings County,NY,14.243323442136498
11237,Kings County,NY,50.77893175074184
11355,Queens County,NY,72.70029673590504
11360,Queens County,NY,97.3293768545994
11364,Queens County,NY,90.80118694362018
11367,Queens County,NY,84.71810089020771
11368,Queens County,NY,67.69287833827893
11369,Queens County,NY,78.74629080118694
11373,Queens County,NY,78.22700296735906
11374,Queens County,NY,95.95697329376854
11375,Queens County,NY,41.246290801186944
11377,Queens County,NY,80.6379821958457
11412,Queens County,NY,73.73887240356083
11419,Queens County,NY,32.418397626112764
11421,Queens County,NY,61.5727002967359
11423,Queens County,NY,75.59347181008901
11426,Queens County,NY,98.21958456973294
11429,Queens County,NY,93.99109792284867
11432,Queens County,NY,94.91839762611276
11434,Queens County,NY,37.31454005934718
11435,Queens County,NY,31.379821958456972
11436,Queens County,NY,64.3545994065282
11550,Nassau County,NY,53.48664688427299
11553,Nassau County,NY,78.11572700296736
11580,Nassau County,NY,53.04154302670623
11691,Queens County,NY,26.224035608308604
11703,Suffolk County,NY,87.68545994065282
11714,Nassau County,NY,76.18694362017804
11717,Suffolk County,NY,43.99109792284867
11722,Suffolk County,NY,49.81454005934718
11726,Suffolk County,NY,90.3560830860534
11763,Suffolk County,NY,38.09347181008902
11772,Suffolk County,NY,59.8293768545994
11784,Suffolk County,NY,86.42433234421365
11789,Suffolk County,NY,99.66617210682493
11801,Nassau County,NY,93.84272997032642
12078,Fulton County,NY,33.1973293768546
12180,Rensselaer County,NY,1.1869436201780417
12210,Albany County,NY,80.78635014836796
12308,Schenectady County,NY,31.268545994065285
12550,Orange County,NY,24.740356083086056
12733,Sullivan County,NY,99.4807121661721
12833,Saratoga County,NY,88.53857566765578
12866,Saratoga County,NY,8.8649851632047465
12901,Clinton County,NY,11.832344213649852
12919,Clinton County,NY,90.94955489614243
12941,Essex County,NY,94.32492581602374
12962,Clinton County,NY,83.6053412462908
12972,Clinton County,NY,50.18545994065282
13021,Cayuga County,NY,1.891691394658754
13037,Madison County,NY,90.98664688427299
13045,Cortland County,NY,13.87240356083086
13057,Onondaga County,NY,41.839762611275965
13069,Oswego County,NY,3.3011869436201784
13074,Oswego County,NY,76.11275964391692
13083,Oswego County,NY,96.92136498516321
13126,Oswego County,NY,13.316023738872405
13135,Oswego County,NY,57.6780415430267
13159,Onondaga County,NY,84.31008902077151
13208,Onondaga County,NY,34.16172106824926
13309,Oneida County,NY,63.09347181008902
13326,Otsego County,NY,67.35905044510386
13332,Madison County,NY,85.3486646884273
13440,Oneida County,NY,1.0756676557863503
13452,Montgomery County,NY,80.97181008902076
13601,Jefferson County,NY,2.744807121661721
13625,St. Lawrence County,NY,96.47626112759644
13676,St. Lawrence County,NY,25.445103857566764
13760,Broome County,NY,0.5192878338278931
13905,Broome County,NY,0.8902077151335311
14004,Erie County,NY,56.00890207715133
14020,Genesee County,NY,7.307121661721068
14048,Chautauqua County,NY,30.30415430267062
14054,Genesee County,NY,97.77448071216617
14057,Erie County,NY,74.96290801186943
14072,Erie County,NY,34.64391691394659
14075,Erie County,NY,5.192878338278932
14080,Erie County,NY,93.10089020771514
14086,Erie County,NY,65.31899109792285
14094,Niagara County,NY,1.112759643916914
14108,Niagara County,NY,50.408011869436194
14111,Erie County,NY,98.3679525222552
14120,Niagara County,NY,2.93026706231454
14208,Erie County,NY,56.82492581602374
14211,Erie County,NY,26.483679525222552
14215,Erie County,NY,0.9643916913946587
14220,Erie County,NY,8.642433234421365
14223,Erie County,NY,21.216617210682493
14225,Erie County,NY,5.304154302670623
14226,Erie County,NY,22.997032640949556
14227,Erie County,NY,17.247774480712167
14228,Erie County,NY,39.502967359050444
14304,Niagara County,NY,16.135014836795254
14305,Niagara County,NY,18.17507418397626
14422,Genesee County,NY,93.10089020771514
14424,Ontario County,NY,1.5949554896142433
14425,Ontario County,NY,85.71958456973294
14428,Monroe County,NY,38.3160237388724
14450,Monroe County,NY,10.979228486646884
14467,Monroe County,NY,51.965875370919875
14468,Monroe County,NY,11.609792284866469
14469,Ontario County,NY,34.532640949554896
14470,Orleans County,NY,38.909495548961424
14472,Monroe County,NY,40.94955489614243
14519,Wayne County,NY,15.949554896142434
14527,Yates County,NY,19.770029673590507
14534,Monroe County,NY,20.99406528189911
14551,Wayne County,NY,85.7566765578635
14580,Monroe County,NY,0.4080118694362018
14586,Monroe County,NY,60.682492581602375
14605,Monroe County,NY,27.33679525222552
14609,Monroe County,NY,3.0786350148367956
14610,Monroe County,NY,22.58902077151335
14612,Monroe County,NY,1.1498516320474776
14617,Monroe County,NY,20.326409495548962
14618,Monroe County,NY,10.867952522255193
14621,Monroe County,NY,3.449554896142433
14624,Monroe County,NY,10.571216617210682
14625,Monroe County,NY,40.57863501483679
14626,Monroe County,NY,1.7433234421364987
14787,Chautauqua County,NY,89.16913946587538
14810,Steuben County,NY,25.18545994065282
14845,Chemung County,NY,10.608308605341247
27020,Yadkin County,NC,66.17210682492582
27055,Yadkin County,NC,59.27299703264095
27209,Montgomery County,NC,98.99851632047478
27214,Guilford County,NC,79.22848664688428
27215,Alamance County,NC,6.342729970326409
27253,Alamance County,NC,61.05341246290801
27260,Guilford County,NC,49.554896142433236
27265,Guilford County,NC,45.326409495548965
27292,Davidson County,NC,2.8189910979228485
27317,Randolph County,NC,47.47774480712167
27406,Guilford County,NC,2.6706231454005933
27410,Guilford County,NC,24.666172106824927
27510,Orange County,NC,53.968842729970326
27524,Johnston County,NC,67.43323442136499
27526,Wake County,NC,54.63649851632047
27529,Wake County,NC,17.618694362017802
27534,Wayne County,NC,28.078635014836795
27536,Vance County,NC,21.624629080118694
27545,Wake County,NC,37.388724035608305
27549,Franklin County,NC,15.838278931750741
27587,Wake County,NC,48.6646884272997
27597,Wake County,NC,43.62017804154303
27604,Wake County,NC,61.31305637982196
27606,Wake County,NC,39.79970326409495
27610,Wake County,NC,4.302670623145401
27615,Wake County,NC,67.54451038575667
27616,Wake County,NC,47.62611275964392
27705,Durham County,NC,14.985163204747776
27801,Edgecombe County,NC,80.74925816023739
27803,Nash County,NC,40.24480712166172
27807,Nash County,NC,91.060830860534125
27893,Wilson County,NC,9.421364985163205
28001,Stanly County,NC,24.777448071216618
28037,Lincoln County,NC,82.9005934718101
28054,Gaston County,NC,75.85311572700296
28078,Mecklenburg County,NC,59.718100890207715
28079,Union County,NC,40.50445103857567
28081,Cabarrus County,NC,15.244807121661722
28105,Mecklenburg County,NC,53.93175074183977
28110,Union County,NC,78.33827893175074
28120,Gaston County,NC,51.07566765578635
28144,Rowan County,NC,62.27744807121661
28205,Mecklenburg County,NC,83.04896142433235
28208,Mecklenburg County,NC,5.897626112759644
28210,Mecklenburg County,NC,76.6320474777448
28211,Mecklenburg County,NC,23.293768545994066
28212,Mecklenburg County,NC,52.188427299703264
28214,Mecklenburg County,NC,22.032640949554896
28215,Mecklenburg County,NC,9.681008902077151
28217,Mecklenburg County,NC,44.62166172106825
28226,Mecklenburg County,NC,46.14243323442137
28269,Mecklenburg County,NC,8.345697329376854
28273,Mecklenburg County,NC,70.4005934718101
28278,Mecklenburg County,NC,54.67359050445104
28334,Sampson County,NC,55.044510385756674
28372,Robeson County,NC,67.84124629080118
28376,Hoke County,NC,23.182492581602375
28391,Cumberland County,NC,89.91097922848664
28403,New Hanover County,NC,32.90059347181009
28443,Pender County,NC,50.77893175074184
28451,Brunswick County,NC,22.06973293768546
28458,Duplin County,NC,88.61275964391692
28463,Columbus County,NC,88.68694362017804
28472,Columbus County,NC,29.59940652818991
28532,Craven County,NC,87.79673590504451
28540,Onslow County,NC,19.02818991097923
28557,Carteret County,NC,75.48219584569733
28560,Craven County,NC,21.847181008902076
28572,Duplin County,NC,81.0459940652819
28601,Catawba County,NC,37.166172106824924
28625,Iredell County,NC,41.32047477744807
28655,Burke County,NC,3.3753709198813056
28659,Wilkes County,NC,14.502967359050444
28681,Alexander County,NC,83.30860534124629
28697,Wilkes County,NC,58.1973293768546
28711,Buncombe County,NC,84.8293768545994
28714,Yancey County,NC,62.68545994065282
28715,Buncombe County,NC,42.06231454005935
28734,Macon County,NC,40.83827893175074
28754,Madison County,NC,93.91691394658753
28777,Mitchell County,NC,79.33976261127597
28791,Henderson County,NC,74.14688427299704
28792,Henderson County,NC,24.480712166172104
28803,Buncombe County,NC,91.98813056379822
58078,Cass County,ND,18.84272997032641
58103,Cass County,ND,22.329376854599406
58201,Grand Forks County,ND,23.664688427299705
58301,Ramsey County,ND,64.20623145400593
58504,Burleigh County,ND,77.33679525222553
58538,Sioux County,ND,96.66172106824926
58554,Morton County,ND,29.451038575667653
43004,Franklin County,OH,68.50890207715133
43015,Delaware County,OH,9.27299703264095
43017,Franklin County,OH,56.30563798219585
43021,Delaware County,OH,86.79525222551929
43055,Licking County,OH,0.8160237388724036
43062,Licking County,OH,28.52373887240356
43082,Delaware County,OH,55.712166172106826
43110,Franklin County,OH,16.468842729970326
43123,Franklin County,OH,4.525222551928784
43138,Hocking County,OH,23.034124629080118
43147,Fairfield County,OH,17.210682492581604
43160,Fayette County,OH,8.271513353115727
43202,Franklin County,OH,74.62908011869436
43213,Franklin County,OH,28.301186943620177
43224,Franklin County,OH,18.768545994065285
43228,Franklin County,OH,2.1142433234421367
43229,Franklin County,OH,3.783382789317508
43230,Franklin County,OH,88.13056379821958
43235,Franklin County,OH,38.05637982195846
43334,Morrow County,OH,71.88427299703264
43410,Sandusky County,OH,74.51780415430267
43452,Ottawa County,OH,37.72255192878338
43512,Defiance County,OH,2.6335311572700295
43551,Wood County,OH,69.51038575667656
43612,Lucas County,OH,59.19881305637982
43615,Lucas County,OH,2.188427299703264
43616,Lucas County,OH,35.237388724035604
43701,Muskingum County,OH,10.645400593471809
43731,Perry County,OH,68.026706231454
43943,Jefferson County,OH,95.51186943620178
43968,Columbiana County,OH,74.55489614243324
44012,Lorain County,OH,27.818991097922847
44052,Lorain County,OH,1.5578635014836795
44060,Lake County,OH,4.191394658753709
44077,Lake County,OH,12.5
44090,Lorain County,OH,53.82047477744807
44102,Cuyahoga County,OH,0.185459940652819
44104,Cuyahoga County,OH,66.54302670623146
44111,Cuyahoga County,OH,6.899109792284866
44130,Cuyahoga County,OH,15.875370919881307
44134,Cuyahoga County,OH,25.037091988130566
44142,Cuyahoga County,OH,20.140949554896142
44143,Cuyahoga County,OH,27.299703264094955
44223,Summit County,OH,39.79970326409495
44224,Summit County,OH,14.688427299703264
44236,Summit County,OH,47.25519287833828
44432,Columbiana County,OH,58.753709198813056
44471,Mahoning County,OH,48.21958456973294
44473,Trumbull County,OH,93.9540059347181
44484,Trumbull County,OH,21.327893175074184
44505,Mahoning County,OH,24.369436201780413
44514,Mahoning County,OH,73.40504451038575
44515,Mahoning County,OH,6.454005934718101
44618,Wayne County,OH,97.70029673590504
44685,Summit County,OH,38.204747774480715
44705,Stark County,OH,17.989614243323444
44706,Stark County,OH,26.149851632047476
44709,Stark County,OH,67.50741839762611
44857,Huron County,OH,15.652818991097922
44889,Huron County,OH,79.52522255192879
44903,Richland County,OH,43.02670623145401
44906,Richland County,OH,26.03857566765579
45005,Warren County,OH,5.415430267062315
45011,Butler County,OH,9.755192878338278
45013,Butler County,OH,2.0029673590504453
45014,Butler County,OH,9.310089020771512
45039,Warren County,OH,41.35756676557863
45066,Warren County,OH,56.862017804154306
45177,Clinton County,OH,16.988130563798222
45205,Hamilton County,OH,14.985163204747776
45212,Hamilton County,OH,22.626112759643917
45215,Hamilton County,OH,17.915430267062316
45227,Hamilton County,OH,41.431750741839764
45231,Hamilton County,OH,24.88872403560831
45238,Hamilton County,OH,8.716617210682493
45243,Hamilton County,OH,85.8679525222552
45244,Hamilton County,OH,75.89020771513353
45246,Hamilton County,OH,70.91988130563797
45248,Hamilton County,OH,48.14540059347181
45327,Montgomery County,OH,73.88724035608308
45341,Clark County,OH,92.80415430267063
45365,Shelby County,OH,54.78486646884273
45373,Miami County,OH,4.154302670623145
45385,Greene County,OH,53.70919881305638
45420,Montgomery County,OH,53.7833827893175
45424,Montgomery County,OH,65.24480712166172
45431,Montgomery County,OH,38.50148367952522
45432,Greene County,OH,65.54154302670622
45503,Clark County,OH,4.599406528189911
45619,Lawrence County,OH,20.511869436201778
45631,Gallia County,OH,6.713649851632048
45634,Vinton County,OH,95.2893175074184
45638,Lawrence County,OH,16.023738872403563
45662,Scioto County,OH,1.6320474777448073
45680,Lawrence County,OH,7.863501483679524
45805,Allen County,OH,8.271513353115727
45817,Allen County,OH,82.75222551928783
45830,Putnam County,OH,93.36053412462908
73005,Caddo County,OK,82.93768545994065
73008,Oklahoma County,OK,60.16320474777448
73010,McClain County,OK,39.28041543026706
73013,Oklahoma County,OK,59.42136498516321
73018,Grady County,OK,38.50148367952522
73069,Cleveland County,OK,60.7566765578635
73072,Cleveland County,OK,20.734421364985163
73099,Canadian County,OK,8.456973293768547
73107,Oklahoma County,OK,45.95697329376854
73110,Oklahoma County,OK,12.277448071216618
73112,Oklahoma County,OK,29.154302670623146
73114,Oklahoma County,OK,78.00445103857567
73115,Oklahoma County,OK,51.965875370919875
73117,Oklahoma County,OK,91.060830860534125
73129,Oklahoma County,OK,75.22255192878339
73139,Oklahoma County,OK,48.44213649851632
73160,Cleveland County,OK,34.23590504451038
73162,Oklahoma County,OK,43.06379821958457
73401,Carter County,OK,8.568249258160238
73460,Johnston County,OK,82.93768545994065
73507,Comanche County,OK,38.13056379821958
73644,Beckham County,OK,50.333827893175076
73703,Garfield County,OK,45.474777448071215
73942,Texas County,OK,91.24629080118694
74003,Osage County,OK,59.161721068249264
74008,Tulsa County,OK,85.53412462908013
74017,Rogers County,OK,36.86943620178042
74104,Tulsa County,OK,81.15727002967358
74105,Tulsa County,OK,31.15727002967359
74106,Tulsa County,OK,64.6513353115727
74110,Tulsa County,OK,81.4540059347181
74134,Tulsa County,OK,67.91543026706232
74135,Tulsa County,OK,75.44510385756676
74136,Tulsa County,OK,49.666172106824924
74146,Tulsa County,OK,60.682492581602375
74354,Ottawa County,OK,46.40207715133531
74429,Wagoner County,OK,74.14688427299704
74432,McIntosh County,OK,78.3753709198813
74467,Wagoner County,OK,81.75074183976261
74820,Pontotoc County,OK,4.9703264094955495
74848,Hughes County,OK,72.58902077151336
74948,Sequoyah County,OK,58.382789317507424
97005,Washington County,OR,41.13501483679525
97007,Washington County,OR,26.63204747774481
97051,Columbia County,OR,82.3813056379822
97058,Wasco County,OR,67.6186943620178
97068,Clackamas County,OR,61.12759643916914
97070,Clackamas County,OR,57.195845697329375
97078,Washington County,OR,86.49851632047478
97080,Multnomah County,OR,52.29970326409495
97089,Clackamas County,OR,78.5979228486647
97113,Washington County,OR,66.24629080118694
97116,Washington County,OR,42.24777448071217
97123,Washington County,OR,83.41988130563797
97124,Washington County,OR,54.56231454005934
97128,Yamhill County,OR,12.611275964391691
97206,Multnomah County,OR,36.12759643916914
97209,Multnomah County,OR,30.823442136498517
97217,Multnomah County,OR,33.86498516320475
97219,Multnomah County,OR,54.41394658753709
97222,Clackamas County,OR,22.737388724035608
97223,Washington County,OR,21.476261127596437
97224,Washington County,OR,45.77151335311573
97229,Washington County,OR,63.61275964391692
97236,Multnomah County,OR,13.056379821958458
97266,Multnomah County,OR,25.111275964391695
97267,Clackamas County,OR,63.538575667655785
97303,Marion County,OR,34.458456973293764
97305,Marion County,OR,53.189910979228486
97306,Marion County,OR,50.259643916913944
97321,Linn County,OR,72.66320474777447
97322,Linn County,OR,36.20178041543027
97330,Benton County,OR,44.287833827893174
97351,Polk County,OR,70.66023738872403
97404,Lane County,OR,53.63501483679525
97471,Douglas County,OR,11.498516320474778
97478,Lane County,OR,30.749258160237385
97501,Jackson County,OR,26.446587537091986
97503,Jackson County,OR,58.939169139465875
97504,Jackson County,OR,66.13501483679525
97702,Deschutes County,OR,37.24035608308605
97756,Deschutes County,OR,64.54005934718101
97838,Umatilla County,OR,11.461424332344214
97914,Malheur County,OR,16.580118694362017
15044,Allegheny County,PA,57.04747774480712
15068,Westmoreland County,PA,12.722551928783382
15074,Beaver County,PA,59.27299703264095
15084,Allegheny County,PA,63.353115727002965
15108,Allegheny County,PA,33.08605341246291
15120,Allegheny County,PA,37.574183976261125
15206,Allegheny County,PA,11.646884272997033
15218,Allegheny County,PA,75.48219584569733
15226,Allegheny County,PA,64.3545994065282
15236,Allegheny County,PA,39.94807121661721
15317,Washington County,PA,22.218100890207715
15644,Westmoreland County,PA,54.933234421364986
15846,Elk County,PA,92.7299703264095
15857,Elk County,PA,18.84272997032641
15905,Cambria County,PA,40.689910979228486
16001,Butler County,PA,2.1513353115727005
16101,Lawrence County,PA,3.635014836795252
16335,Crawford County,PA,6.750741839762611
16407,Erie County,PA,75.25964391691394
16502,Erie County,PA,36.275964391691396
16503,Erie County,PA,63.13056379821958
16509,Erie County,PA,26.3353115727003
16510,Erie County,PA,32.08456973293769
16601,Blair County,PA,5.749258160237389
16701,McKean County,PA,11.387240356083087
16823,Centre County,PA,14.577151335311573
17025,Cumberland County,PA,26.55786350148368
17045,Perry County,PA,98.85014836795251
17068,Perry County,PA,96.6246290801187
17073,Lebanon County,PA,90.1706231454006
17109,Dauphin County,PA,18.43471810089021
17111,Dauphin County,PA,39.61424332344214
17257,Cumberland County,PA,16.765578635014837
17313,York County,PA,61.646884272997035
17315,York County,PA,20.6973293768546
17331,York County,PA,42.54451038575668
17370,York County,PA,90.61572700296736
17402,York County,PA,44.102373887240354
17403,York County,PA,1.7062314540059347
17408,York County,PA,34.903560830860535
17522,Lancaster County,PA,52.89317507418397
17527,Lancaster County,PA,98.73887240356083
17545,Lancaster County,PA,36.53560830860534
17601,Lancaster County,PA,27.89317507418398
17603,Lancaster County,PA,27.967359050445108
17701,Lycoming County,PA,33.753709198813056
17756,Lycoming County,PA,96.55044510385757
17821,Montour County,PA,18.212166172106826
17866,Northumberland County,PA,57.6780415430267
17872,Northumberland County,PA,33.6053412462908
17901,Schuylkill County,PA,18.508902077151333
18017,Northampton County,PA,3.7091988130563793
18031,Lehigh County,PA,91.65430267062314
18045,Northampton County,PA,30.600890207715132
18064,Northampton County,PA,34.56973293768546
18102,Lehigh County,PA,13.538575667655786
18103,Lehigh County,PA,3.3382789317507418
18109,Lehigh County,PA,19.13946587537092
18235,Carbon County,PA,24.295252225519288
18411,Lackawanna County,PA,41.17210682492581
18444,Lackawanna County,PA,52.781899109792285
18603,Columbia County,PA,8.79080118694362
18657,Wyoming County,PA,58.7166172106825
18702,Luzerne County,PA,4.636498516320475
18704,Luzerne County,PA,10.719584569732937
18966,Bucks County,PA,11.016320474777448
18974,Bucks County,PA,14.948071216617212
19006,Montgomery County,PA,41.654302670623146
19012,Montgomery County,PA,87.0919881305638
19021,Bucks County,PA,56.416913946587535
19027,Montgomery County,PA,36.60979228486647
19047,Bucks County,PA,51.224035608308604
19050,Delaware County,PA,21.513353115727003
19053,Bucks County,PA,24.10979228486647
19061,Delaware County,PA,21.810089020771514
19078,Delaware County,PA,60.42284866468842
19082,Delaware County,PA,74.36943620178042
19090,Montgomery County,PA,40.39317507418398
19106,Philadelphia County,PA,81.75074183976261
19111,Philadelphia County,PA,2.3738872403560833
19114,Philadelphia County,PA,12.648367952522255
19115,Philadelphia County,PA,12.685459940652818
19116,Philadelphia County,PA,56.34272997032641
19120,Philadelphia County,PA,1.817507418397626
19146,Philadelphia County,PA,10.497032640949556
19149,Philadelphia County,PA,4.451038575667656
19153,Philadelphia County,PA,59.903560830860535
19154,Philadelphia County,PA,10.089020771513352
19350,Chester County,PA,95.21513353115726
19438,Montgomery County,PA,39.87388724035608
19446,Montgomery County,PA,9.384272997032642
19454,Montgomery County,PA,36.38724035608308
19460,Chester County,PA,16.839762611275965
19462,Montgomery County,PA,39.6513353115727
19468,Montgomery County,PA,33.27151335311573
19522,Berks County,PA,58.976261127596445
19525,Montgomery County,PA,64.20623145400593
19540,Berks County,PA,70.25222551928783
19601,Berks County,PA,11.943620178041543
19608,Berks County,PA,22.181008902077153
02806,Bristol County,RI,67.76706231454006
02859,Providence County,RI,92.35905044510386
02864,Providence County,RI,19.21364985163205
02893,Kent County,RI,28.375370919881306
02896,Providence County,RI,81.37982195845697
02906,Providence County,RI,48.96142433234421
02911,Providence County,RI,85.83086053412462
02921,Providence County,RI,77.5593471810089
29020,Kershaw County,SC,60.867952522255194
29045,Kershaw County,SC,68.76854599406528
29063,Richland County,SC,51.18694362017804
29073,Lexington County,SC,15.43026706231454
29138,Saluda County,SC,82.45548961424333
29150,Sumter County,SC,28.82047477744807
29204,Richland County,SC,64.91097922848664
29205,Richland County,SC,73.18249258160238
29212,Lexington County,SC,58.49406528189911
29223,Richland County,SC,16.72848664688427
29229,Richland County,SC,65.39317507418397
29306,Spartanburg County,SC,30.341246290801188
29316,Spartanburg County,SC,31.454005934718097
29340,Cherokee County,SC,33.345697329376854
29341,Cherokee County,SC,39.762611275964396
29365,Spartanburg County,SC,55.45252225519288
29379,Union County,SC,60.97922848664689
29407,Charleston County,SC,31.899109792284868
29412,Charleston County,SC,26.706231454005934
29414,Charleston County,SC,25.85311572700297
29436,Berkeley County,SC,98.18249258160238
29445,Berkeley County,SC,51.89169139465876
29456,Dorchester County,SC,28.635014836795254
29464,Charleston County,SC,36.795252225519285
29483,Dorchester County,SC,11.090504451038576
29488,Colleton County,SC,28.041543026706233
29492,Berkeley County,SC,86.53560830860533
29501,Florence County,SC,24.554896142433236
29505,Florence County,SC,41.50593471810089
29575,Horry County,SC,89.6513353115727
29588,Horry County,SC,64.09495548961425
29607,Greenville County,SC,56.15727002967359
29609,Greenville County,SC,33.71661721068249
29611,Greenville County,SC,7.937685459940654
29615,Greenville County,SC,53.30118694362018
29617,Greenville County,SC,28.96884272997033
29620,Abbeville County,SC,79.89614243323442
29627,Anderson County,SC,53.523738872403555
29651,Greenville County,SC,14.317507418397627
29653,Greenwood County,SC,95.10385756676558
29670,Anderson County,SC,93.87982195845697
29678,Oconee County,SC,49.888724035608305
29680,Greenville County,SC,38.983679525222556
29693,Oconee County,SC,61.16468842729971
29706,Chester County,SC,61.86943620178042
29710,York County,SC,93.39762611275965
29812,Barnwell County,SC,80.2299703264095
29847,Edgefield County,SC,86.9807121661721
29851,Aiken County,SC,97.36646884272997
29910,Beaufort County,SC,65.65281899109793
29924,Hampton County,SC,98.70178041543026
57069,Clay County,SD,85.16320474777447
57103,Minnehaha County,SD,68.73145400593472
57104,Minnehaha County,SD,22.36646884272997
57107,Minnehaha County,SD,98.66468842729971
57311,Hanson County,SD,100
57339,Buffalo County,SD,99.25816023738872
57401,Brown County,SD,11.72106824925816
57702,Pennington County,SD,52.818991097922854
57703,Pennington County,SD,86.6839762611276
37013,Davidson County,TN,6.5652818991097925
37027,Williamson County,TN,32.789317507418396
37042,Montgomery County,TN,16.988130563798222
37064,Williamson County,TN,39.42878338278932
37066,Sumner County,TN,6.454005934718101
37067,Williamson County,TN,81.15727002967358
37072,Davidson County,TN,23.961424332344215
37091,Marshall County,TN,32.195845697329375
37128,Rutherford County,TN,55.897626112759646
37129,Rutherford County,TN,40.91246290801187
37130,Rutherford County,TN,13.94658753709199
37160,Bedford County,TN,12.79673590504451
37167,Rutherford County,TN,72.25519287833828
37174,Williamson County,TN,41.060830860534125
37205,Davidson County,TN,96.32789317507418
37206,Davidson County,TN,27.225519287833826
37207,Davidson County,TN,7.492581602373888
37208,Davidson County,TN,18.916913946587538
37209,Davidson County,TN,24.88872403560831
37217,Davidson County,TN,35.20029673590505
37311,Bradley County,TN,27.63353115727003
37334,Lincoln County,TN,29.52522255192878
37385,Monroe County,TN,75.25964391691394
37412,Hamilton County,TN,44.80712166172107
37421,Hamilton County,TN,20.734421364985163
37620,Sullivan County,TN,7.71513353115727
37643,Carter County,TN,7.640949554896142
37650,Unicoi County,TN,55.37833827893175
37716,Anderson County,TN,79.74777448071217
37721,Knox County,TN,63.27893175074184
37755,Scott County,TN,98.77596439169139
37766,Campbell County,TN,28.82047477744807
37847,Scott County,TN,97.8486646884273
37849,Knox County,TN,67.06231454005935
37876,Sevier County,TN,27.077151335311573
37877,Hamblen County,TN,74.0727002967359
37909,Knox County,TN,80.67507418397626
37914,Knox County,TN,29.821958456973295
37921,Knox County,TN,57.381305637982194
38016,Shelby County,TN,44.362017804154306
38019,Tipton County,TN,50.11127596439169
38106,Shelby County,TN,10.793768545994064
38111,Shelby County,TN,48.62759643916914
38112,Shelby County,TN,83.53115727002968
38114,Shelby County,TN,49.51780415430267
38118,Shelby County,TN,43.47181008902077
38122,Shelby County,TN,48.03412462908012
38127,Shelby County,TN,5.712166172106825
38134,Shelby County,TN,79.33976261127597
38141,Shelby County,TN,40.31899109792285
38261,Obion County,TN,31.93620178041543
38301,Madison County,TN,6.120178041543026
38340,Chester County,TN,59.86646884272997
38372,Hardin County,TN,43.583086053412465
75002,Collin County,TX,15.207715133531158
75013,Collin County,TX,41.87685459940653
75024,Collin County,TX,55.41543026706231
75034,Denton County,TX,30.675074183976257
75038,Dallas County,TX,55.712166172106826
75040,Dallas County,TX,11.758160237388724
75041,Dallas County,TX,70.4005934718101
75044,Dallas County,TX,48.21958456973294
75051,Dallas County,TX,35.237388724035604
75052,Dallas County,TX,62.42581602373887
75054,Tarrant County,TX,85.01483679525222
75056,Denton County,TX,59.08753709198813
75060,Dallas County,TX,68.43471810089021
75063,Dallas County,TX,51.59495548961425
75065,Denton County,TX,81.89910979228486
75067,Denton County,TX,76.44658753709199
75068,Denton County,TX,24.33234421364985
75074,Collin County,TX,46.88427299703264
75088,Dallas County,TX,63.761127596439174
75089,Dallas County,TX,56.565281899109785
75090,Grayson County,TX,40.57863501483679
75092,Grayson County,TX,40.02225519287833
75094,Collin County,TX,90.46735905044511
75119,Ellis County,TX,47.8486646884273
75137,Dallas County,TX,57.86350148367953
75142,Kaufman County,TX,91.43175074183976
75149,Dallas County,TX,63.39020771513353
75189,Rockwall County,TX,37.98219584569733
75203,Dallas County,TX,71.03115727002968
75206,Dallas County,TX,43.84272997032641
75208,Dallas County,TX,56.4540059347181
75211,Dallas County,TX,82.01038575667656
75220,Dallas County,TX,73.55341246290801
75223,Dallas County,TX,82.52967359050444
75225,Dallas County,TX,71.92136498516321
75228,Dallas County,TX,3.894658753709199
75230,Dallas County,TX,66.46884272997032
75234,Dallas County,TX,62.908011869436194
75240,Dallas County,TX,64.1320474777448
75241,Dallas County,TX,89.02077151335311
75243,Dallas County,TX,36.94362017804154
75409,Collin County,TX,72.8486646884273
75442,Collin County,TX,76.44658753709199
75482,Hopkins County,TX,80.45252225519289
75602,Gregg County,TX,52.48516320474778
75605,Gregg County,TX,46.17952522255193
75644,Upshur County,TX,64.72551928783383
75654,Rusk County,TX,79.67359050445104
75758,Henderson County,TX,78.67210682492582
75904,Angelina County,TX,27.41097922848665
76001,Tarrant County,TX,48.367952522255194
76009,Johnson County,TX,57.93768545994066
76010,Tarrant County,TX,11.387240356083087
76013,Tarrant County,TX,58.08605341246291
76015,Tarrant County,TX,75.14836795252225
76017,Tarrant County,TX,24.22106824925816
76018,Tarrant County,TX,51.780415430267055
76039,Tarrant County,TX,30.229970326409493
76049,Hood County,TX,31.045994065281903
76051,Tarrant County,TX,24.629080118694365
76065,Ellis County,TX,67.2106824925816
76085,Parker County,TX,85.08902077151336
76104,Tarrant County,TX,14.836795252225517
76105,Tarrant County,TX,12.908011869436201
76106,Tarrant County,TX,73.10830860534125
76107,Tarrant County,TX,34.903560830860535
76109,Tarrant County,TX,51.59495548961425
76112,Tarrant County,TX,8.679525222551929
76114,Tarrant County,TX,69.73293768545994
76117,Tarrant County,TX,77.8560830860534
76131,Tarrant County,TX,43.69436201780415
76137,Tarrant County,TX,13.983679525222554
76164,Tarrant County,TX,98.07121661721068
76180,Tarrant County,TX,34.82937685459941
76205,Denton County,TX,82.12166172106825
76207,Denton County,TX,76.55786350148368
76208,Denton County,TX,54.48813056379822
76227,Denton County,TX,61.201780415430264
76244,Tarrant County,TX,18.694362017804153
76301,Wichita County,TX,39.09495548961424
76310,Wichita County,TX,87.94510385756676
76542,Bell County,TX,9.013353115727003
76543,Bell County,TX,20.88278931750742
76574,Williamson County,TX,42.65578635014837
76577,Milam County,TX,99.8887240356083
76706,McLennan County,TX,78.15281899109793
76903,Tom Green County,TX,82.30712166172107
76904,Tom Green County,TX,56.862017804154306
77004,Harris County,TX,20.956973293768545
77015,Harris County,TX,66.91394658753708
77019,Harris County,TX,66.24629080118694
77021,Harris County,TX,28.486646884272997
77023,Harris County,TX,54.04302670623146
77024,Harris County,TX,57.30712166172107
77025,Harris County,TX,63.20474777448071
77029,Harris County,TX,99.55489614243324
77033,Harris County,TX,48.590504451038576
77034,Harris County,TX,51.55786350148368
77038,Harris County,TX,75.77893175074183
77039,Harris County,TX,94.17655786350149
77042,Harris County,TX,67.17359050445104
77049,Harris County,TX,60.7566765578635
77057,Harris County,TX,86.72106824925817
77060,Harris County,TX,56.37982195845698
77061,Harris County,TX,97.47774480712165
77062,Harris County,TX,54.525222551928785
77064,Harris County,TX,29.080118694362017
77066,Harris County,TX,63.019287833827896
77067,Harris County,TX,69.8813056379822
77070,Harris County,TX,38.909495548961424
77074,Harris County,TX,73.77596439169139
77076,Harris County,TX,47.47774480712167
77081,Harris County,TX,61.38724035608308
77084,Harris County,TX,7.344213649851632
77092,Harris County,TX,50
77093,Harris County,TX,35.682492581602375
77095,Harris County,TX,42.09940652818991
77303,Montgomery County,TX,77.22551928783383
77304,Montgomery County,TX,56.52818991097923
77346,Harris County,TX,47.811572700296736
77351,Polk County,TX,37.9080118694362
77365,Montgomery County,TX,86.35014836795251
77373,Harris County,TX,21.921364985163205
77375,Harris County,TX,14.985163204747776
77379,Harris County,TX,18.28635014836795
77385,Montgomery County,TX,55.19287833827893
77389,Harris County,TX,49.03560830860534
77401,Harris County,TX,65.46735905044511
77407,Fort Bend County,TX,76.37240356083086
77423,Waller County,TX,95.58605341246292
77449,Harris County,TX,6.93620178041543
77450,Harris County,TX,30.971810089020774
77477,Fort Bend County,TX,49.10979228486647
77479,Fort Bend County,TX,58.08605341246291
77489,Fort Bend County,TX,58.27151335311572
77494,Fort Bend County,TX,11.053412462908012
77506,Harris County,TX,54.933234421364986
77530,Harris County,TX,89.54005934718101
77535,Liberty County,TX,33.23442136498516
77536,Harris County,TX,31.787833827893174
77539,Galveston County,TX,65.8753709198813
77550,Galveston County,TX,44.881305637982194
77551,Galveston County,TX,19.510385756676556
77573,Galveston County,TX,6.008902077151335
77581,Brazoria County,TX,22.737388724035608
77583,Brazoria County,TX,44.73293768545994
77584,Brazoria County,TX,6.63946587537092
77586,Harris County,TX,41.8026706231454
77598,Harris County,TX,52.52225519287834
77630,Orange County,TX,34.013353115727
77642,Jefferson County,TX,57.15875370919882
77665,Chambers County,TX,85.94213649851632
77705,Jefferson County,TX,36.016320474777444
77802,Brazos County,TX,18.620178041543024
77808,Brazos County,TX,55.081602373887236
77840,Brazos County,TX,70.91988130563797
77901,Victoria County,TX,18.026706231454007
78006,Kendall County,TX,80.41543026706232
78023,Bexar County,TX,88.16765578635015
78041,Webb County,TX,79.48813056379822
78045,Webb County,TX,16.69139465875371
78046,Webb County,TX,9.829376854599406
78130,Comal County,TX,15.986646884272998
78148,Bexar County,TX,82.93768545994065
78155,Guadalupe County,TX,17.173590504451038
78207,Bexar County,TX,14.05786350148368
78210,Bexar County,TX,17.76706231454006
78211,Bexar County,TX,76.8545994065282
78217,Bexar County,TX,62.79673590504451
78218,Bexar County,TX,42.210682492581604
78219,Bexar County,TX,91.2833827893175
78220,Bexar County,TX,55.45252225519288
78221,Bexar County,TX,71.55044510385757
78223,Bexar County,TX,12.833827893175073
78227,Bexar County,TX,29.636498516320476
78229,Bexar County,TX,76.22403560830861
78237,Bexar County,TX,22.8486646884273
78238,Bexar County,TX,69.80712166172107
78239,Bexar County,TX,82.67804154302671
78247,Bexar County,TX,46.66172106824926
78249,Bexar County,TX,53.338278931750736
78250,Bexar County,TX,35.60830860534125
78253,Bexar County,TX,50.70474777448071
78254,Bexar County,TX,38.46439169139466
78259,Bexar County,TX,72.8486646884273
78384,Duval County,TX,94.39910979228486
78412,Nueces County,TX,46.21661721068249
78414,Nueces County,TX,55.155786350148375
78415,Nueces County,TX,39.28041543026706
78501,Hidalgo County,TX,40.02225519287833
78504,Hidalgo County,TX,32.047477744807125
78521,Cameron County,TX,25.667655786350146
78537,Hidalgo County,TX,59.718100890207715
78542,Hidalgo County,TX,89.09495548961425
78552,Cameron County,TX,86.94362017804154
78572,Hidalgo County,TX,43.731454005934715
78573,Hidalgo County,TX,88.27893175074183
78574,Hidalgo County,TX,28.96884272997033
78576,Hidalgo County,TX,94.7700296735905
78577,Hidalgo County,TX,21.068249258160236
78582,Starr County,TX,62.61127596439169
78586,Cameron County,TX,37.01780415430267
78599,Hidalgo County,TX,80.34124629080118
78621,Bastrop County,TX,87.20326409495549
78628,Williamson County,TX,68.84272997032642
78629,Gonzales County,TX,87.72255192878339
78634,Williamson County,TX,54.22848664688428
78660,Travis County,TX,19.658753709198812
78664,Williamson County,TX,71.32789317507418
78724,Travis County,TX,89.05786350148368
78727,Travis County,TX,95.2893175074184
78741,Travis County,TX,88.79821958456974
78744,Travis County,TX,59.23590504451038
78747,Travis County,TX,89.6513353115727
78758,Travis County,TX,87.83382789317507
78834,Dimmit County,TX,90.8753709198813
78840,Val Verde County,TX,21.995548961424333
79108,Potter County,TX,76.00148367952522
79605,Taylor County,TX,31.268545994065285
79720,Howard County,TX,45.103857566765576
79762,Ector County,TX,21.327893175074184
79764,Ector County,TX,49.295252225519285
79765,Ector County,TX,87.42581602373886
79835,El Paso County,TX,93.39762611275965
79901,El Paso County,TX,88.72403560830861
79905,El Paso County,TX,71.95845697329378
79912,El Paso County,TX,19.844213649851632
79924,El Paso County,TX,36.20178041543027
79928,El Paso County,TX,41.87685459940653
79936,El Paso County,TX,81.93620178041543
84005,Utah County,UT,75.9272997032641
84010,Davis County,UT,33.976261127596445
84020,Salt Lake County,UT,36.53560830860534
84029,Tooele County,UT,52.93026706231454
84043,Utah County,UT,37.79673590504451
84045,Utah County,UT,72.40356083086054
84065,Salt Lake County,UT,30.823442136498517
84067,Weber County,UT,63.761127596439174
84074,Tooele County,UT,14.206231454005936
84075,Davis County,UT,67.06231454005935
84081,Salt Lake County,UT,23.775964391691396
84084,Salt Lake County,UT,71.81008902077151
84096,Salt Lake County,UT,20.21513353115727
84104,Salt Lake County,UT,39.688427299703264
84106,Salt Lake County,UT,28.597922848664687
84109,Salt Lake County,UT,92.2106824925816
84120,Salt Lake County,UT,4.78486646884273
84121,Salt Lake County,UT,34.19881305637983
84123,Salt Lake County,UT,14.873887240356082
84128,Salt Lake County,UT,32.23293768545994
84129,,UT,22.700296735905045
84302,Box Elder County,UT,74.25816023738872
84321,Cache County,UT,95.54896142433235
84604,Utah County,UT,84.49554896142433
84780,Washington County,UT,70.66023738872403
05641,Washington County,VT,25.85311572700297
05663,Washington County,VT,99.22106824925817
20105,Loudoun County,VA,81.37982195845697
20110,Manassas city,VA,28.41246290801187
20111,Prince William County,VA,46.810089020771514
20147,Loudoun County,VA,65.02225519287835
20148,Loudoun County,VA,79.78486646884274
20155,Prince William County,VA,54.339762611275965
20165,Loudoun County,VA,64.20623145400593
20166,Loudoun County,VA,96.95845697329378
20170,Fairfax County,VA,83.97626112759644
20171,Fairfax County,VA,44.13946587537092
20186,Fauquier County,VA,79.11721068249258
20187,Fauquier County,VA,76.70623145400593
22003,Fairfax County,VA,23.479228486646882
22015,Fairfax County,VA,45.919881305637986
22032,Fairfax County,VA,59.45845697329377
22039,Fairfax County,VA,77.74480712166172
22041,Fairfax County,VA,65.80118694362018
22042,Fairfax County,VA,44.65875370919881
22079,Fairfax County,VA,35.64540059347181
22102,Fairfax County,VA,71.1053412462908
22150,Fairfax County,VA,77.1513353115727
22191,Prince William County,VA,11.23887240356083
22192,Prince William County,VA,64.79970326409496
22302,Alexandria city,VA,61.75816023738873
22304,Alexandria city,VA,9.161721068249259
22309,Fairfax County,VA,54.339762611275965
22311,Alexandria city,VA,80.1186943620178
22315,Fairfax County,VA,50.14836795252226
22408,Spotsylvania County,VA,60.23738872403561
22485,King George County,VA,59.27299703264095
22554,Stafford County,VA,23.850148367952524
22601,Winchester city,VA,54.78486646884273
22602,Frederick County,VA,45.43768545994065
22630,Warren County,VA,18.212166172106826
22657,Shenandoah County,VA,44.95548961424332
22701,Culpeper County,VA,92.43323442136499
22802,Harrisonburg city,VA,17.28486646884273
23002,Amelia County,VA,98.44213649851632
23005,Hanover County,VA,69.80712166172107
23114,Chesterfield County,VA,87.27744807121661
23185,James City County,VA,29.859050445103858
23188,James City County,VA,36.94362017804154
23223,Henrico County,VA,2.336795252225519
23234,Chesterfield County,VA,12.945103857566764
23294,Henrico County,VA,76.11275964391692
23320,Chesapeake city,VA,20.400593471810087
23324,Chesapeake city,VA,33.90207715133531
23462,Virginia Beach city,VA,43.5459940652819
23518,Norfolk city,VA,35.38575667655786
23601,Newport News city,VA,51.85459940652819
23851,Franklin city,VA,52.37388724035609
23924,Mecklenburg County,VA,89.31750741839762
24016,Roanoke city,VA,92.6186943620178
24017,Roanoke city,VA,17.95252225519288
24019,Roanoke County,VA,49.5919881305638
24060,Montgomery County,VA,83.12314540059347
24219,Wise County,VA,67.47032640949556
24293,Wise County,VA,42.87833827893175
24450,Rockbridge County,VA,70.10385756676558
24502,Lynchburg city,VA,35.75667655786351
24503,Lynchburg city,VA,84.97774480712165
24504,Lynchburg city,VA,52.6706231454006
24523,Bedford County,VA,25
24592,Halifax County,VA,21.958456973293767
98003,King County,WA,21.58753709198813
98007,King County,WA,78.67210682492582
98008,King County,WA,84.60682492581603
98012,Snohomish County,WA,23.14540059347181
98020,Snohomish County,WA,81.30563798219585
98029,King County,WA,56.565281899109785
98030,King County,WA,18.47181008902077
98032,King County,WA,36.053412462908014
98052,King County,WA,42.13649851632047
98056,King County,WA,49.25816023738873
98058,King County,WA,24.777448071216618
98065,King County,WA,93.65727002967358
98072,King County,WA,82.67804154302671
98087,Snohomish County,WA,39.502967359050444
98092,King County,WA,51.7433234421365
98110,Kitsap County,WA,57.49258160237388
98118,King County,WA,34.60682492581602
98122,King County,WA,51.48367952522255
98126,King County,WA,54.00593471810089
98155,King County,WA,38.167655786350146
98198,King County,WA,34.903560830860535
98203,Snohomish County,WA,40.13353115727003
98204,Snohomish County,WA,19.25074183976261
98223,Snohomish County,WA,51.89169139465876
98271,Snohomish County,WA,37.24035608308605
98272,Snohomish County,WA,51.33531157270029
98275,Snohomish County,WA,67.84124629080118
98292,Snohomish County,WA,81.75074183976261
98335,Pierce County,WA,94.28783382789318
98338,Pierce County,WA,73.10830860534125
98366,Kitsap County,WA,17.544510385756677
98374,Pierce County,WA,35.867952522255194
98387,Pierce County,WA,16.580118694362017
98391,Pierce County,WA,9.050445103857568
98404,Pierce County,WA,26.26112759643917
98422,Pierce County,WA,57.04747774480712
98446,Pierce County,WA,87.87091988130564
98520,Grays Harbor County,WA,56.787833827893174
98580,Pierce County,WA,84.31008902077151
98584,Mason County,WA,61.5727002967359
98626,Cowlitz County,WA,36.75816023738873
98642,Clark County,WA,93.65727002967358
98682,Clark County,WA,53.15281899109793
98686,Clark County,WA,88.16765578635015
98802,Douglas County,WA,43.916913946587535
98815,Chelan County,WA,86.23887240356083
98837,Grant County,WA,23.961424332344215
98841,Okanogan County,WA,93.10089020771514
98855,Okanogan County,WA,86.23887240356083
98857,Grant County,WA,98.03412462908013
98902,Yakima County,WA,55.934718100890215
98930,Yakima County,WA,83.939169139465875
98935,Yakima County,WA,99.70326409495549
98951,Yakima County,WA,87.9080118694362
99163,Whitman County,WA,70.02967359050444
99208,Spokane County,WA,32.15875370919881
99301,Franklin County,WA,6.157270029673591
20011,District of Columbia,DC,60.64540059347181
20019,District of Columbia,DC,2.522255192878338
20020,District of Columbia,DC,1.298219584569733
24970,Greenbrier County,WV,96.36498516320475
25411,Morgan County,WV,72.29228486646885
25705,Cabell County,WV,42.618694362017806
25801,Raleigh County,WV,8.123145400593472
25880,Raleigh County,WV,91.76557863501483
25901,Fayette County,WV,39.28041543026706
26101,Wood County,WV,3.115727002967359
26187,Wood County,WV,63.20474777448071
26301,Harrison County,WV,4.413946587537092
26354,Taylor County,WV,74.40652818991099
26508,Monongalia County,WV,35.83086053412463
26554,Marion County,WV,59.08753709198813
53024,Ozaukee County,WI,83.45697329376854
53027,Washington County,WI,86.16468842729971
53040,Washington County,WI,93.76854599406528
53066,Waukesha County,WI,32.640949554896146
53081,Sheboygan County,WI,10.497032640949556
53132,Milwaukee County,WI,66.50593471810089
53142,Kenosha County,WI,6.083086053412463
53144,Kenosha County,WI,10.905044510385757
53150,Waukesha County,WI,60.23738872403561
53151,Waukesha County,WI,32.75222551928783
53182,Racine County,WI,59.97774480712166
53185,Racine County,WI,52.22551928783383
53186,Waukesha County,WI,20.511869436201778
53188,Waukesha County,WI,16.060830860534125
53189,Waukesha County,WI,78.52373887240356
53204,Milwaukee County,WI,4.043026706231454
53207,Milwaukee County,WI,19.399109792284865
53208,Milwaukee County,WI,7.121661721068249
53209,Milwaukee County,WI,1.5207715133531157
53212,Milwaukee County,WI,8.753709198813056
53215,Milwaukee County,WI,2.8560830860534123
53217,Milwaukee County,WI,28.52373887240356
53218,Milwaukee County,WI,4.2284866468842734
53220,Milwaukee County,WI,23.887240356083087
53403,Racine County,WI,26.594955489614243
53511,Rock County,WI,0.4821958456973294
53538,Jefferson County,WI,43.397626112759646
53546,Rock County,WI,11.572700296735905
53559,Dane County,WI,84.75519287833828
53562,Dane County,WI,70.73442136498517
53575,Dane County,WI,87.98219584569733
53593,Dane County,WI,80.82344213649851
53597,Dane County,WI,52.44807121661721
53714,Dane County,WI,86.53560830860533
53946,Green Lake County,WI,97.55192878338279
54015,St. Croix County,WI,96.88427299703264
54022,Pierce County,WI,48.07121661721068
54106,Outagamie County,WI,98.59050445103857
54130,Outagamie County,WI,52.6706231454006
54136,Outagamie County,WI,90.0593471810089
54302,Brown County,WI,19.176557863501483
54304,Brown County,WI,15.356083086053413
54401,Marathon County,WI,32.30712166172107
54481,Portage County,WI,13.241839762611276
54494,Wood County,WI,58.64243323442137
54601,La Crosse County,WI,4.48813056379822
54612,Trempealeau County,WI,94.10237388724035
54660,Monroe County,WI,42.359050445103854
54701,Eau Claire County,WI,35.459940652818986
54703,Eau Claire County,WI,48.10830860534125
54720,Eau Claire County,WI,89.31750741839762
54727,Chippewa County,WI,95.77151335311572
54729,Chippewa County,WI,26.07566765578635
54901,Winnebago County,WI,20.289317507418396
54911,Outagamie County,WI,32.45548961424332
54937,Fond du Lac County,WI,36.646884272997035
54956,Winnebago County,WI,19.32492581602374
