ZipCode,county,state,Adult,Retirement,Geriatric
35630,Lauderdale County,AL,33.76623376623377,NA,NA
35805,Madison County,AL,47.53246753246753,NA,NA
35967,DeKalb County,AL,68.83116883116884,NA,NA
36104,Montgomery County,AL,62.33766233766234,NA,NA
36345,Henry County,AL,82.5974025974026,NA,NA
36549,Baldwin County,AL,NA,NA,81.45695364238411
36611,Mobile County,AL,97.14285714285714,NA,NA
36830,Lee County,AL,70.9090909090909,NA,NA
99577,Anchorage Municipality,AK,77.40259740259741,NA,NA
99705,Fairbanks North Star Borough,AK,NA,NA,97.01986754966887
85008,Maricopa County,AZ,15.844155844155845,NA,NA
85009,Maricopa County,AZ,16.103896103896105,NA,NA
85032,Maricopa County,AZ,18.441558441558442,NA,NA
85041,Maricopa County,AZ,8.831168831168831,NA,NA
85132,Pinal County,AZ,40.25974025974026,NA,NA
85209,Maricopa County,AZ,NA,NA,20.86092715231788
85213,Maricopa County,AZ,NA,68.02721088435374,NA
85251,Maricopa County,AZ,42.857142857142854,NA,NA
85298,Maricopa County,AZ,NA,NA,82.45033112582782
85326,Maricopa County,AZ,32.20779220779221,NA,NA
85351,Maricopa County,AZ,NA,NA,0.9933774834437087
85363,Maricopa County,AZ,85.45454545454545,NA,NA
85390,Maricopa County,AZ,NA,76.53061224489795,NA
85501,Gila County,AZ,78.18181818181819,NA,NA
85643,Cochise County,AZ,NA,89.45578231292517,NA
85705,Pima County,AZ,4.415584415584416,NA,NA
86326,Yavapai County,AZ,63.37662337662338,NA,NA
86401,Mohave County,AZ,9.87012987012987,NA,NA
86406,Mohave County,AZ,NA,NA,31.125827814569533
86441,Mohave County,AZ,100,NA,NA
71603,Jefferson County,AR,37.922077922077925,NA,NA
71653,Chicot County,AR,NA,NA,99.00662251655629
71701,Ouachita County,AR,79.22077922077922,64.62585034013605,NA
71753,Columbia County,AR,69.35064935064935,NA,NA
71822,Little River County,AR,NA,NA,74.17218543046357
72022,Saline County,AR,NA,73.12925170068027,68.21192052980133
72116,Pulaski County,AR,NA,52.38095238095239,NA
72653,Baxter County,AR,46.493506493506494,NA,44.370860927152314
72936,Sebastian County,AR,NA,NA,90.39735099337747
90001,Los Angeles County,CA,49.61038961038961,NA,NA
90006,Los Angeles County,CA,69.87012987012987,NA,NA
90012,Los Angeles County,CA,68.57142857142857,NA,NA
90025,Los Angeles County,CA,NA,NA,11.589403973509933
90032,Los Angeles County,CA,NA,NA,51.98675496688742
90062,Los Angeles County,CA,NA,70.40816326530613,NA
90064,Los Angeles County,CA,30.38961038961039,NA,NA
90201,Los Angeles County,CA,34.02597402597402,NA,NA
90241,Los Angeles County,CA,58.7012987012987,NA,NA
90245,Los Angeles County,CA,NA,NA,84.10596026490066
90623,Orange County,CA,NA,NA,74.50331125827815
90630,Orange County,CA,51.16883116883116,NA,NA
90712,Los Angeles County,CA,NA,58.843537414965986,NA
90746,Los Angeles County,CA,81.2987012987013,NA,NA
91202,Los Angeles County,CA,NA,NA,27.483443708609272
91206,Los Angeles County,CA,77.66233766233766,NA,NA
91303,Los Angeles County,CA,86.49350649350649,NA,NA
91345,Los Angeles County,CA,90.12987012987013,NA,NA
91505,Los Angeles County,CA,76.36363636363637,NA,NA
91730,San Bernardino County,CA,NA,NA,36.423841059602644
91745,Los Angeles County,CA,71.16883116883118,83.6734693877551,NA
91773,Los Angeles County,CA,NA,NA,79.47019867549669
91790,Los Angeles County,CA,NA,59.183673469387756,NA
91977,San Diego County,CA,NA,NA,35.76158940397351
92010,San Diego County,CA,91.94805194805194,NA,NA
92054,San Diego County,CA,45.714285714285715,NA,NA
92056,San Diego County,CA,59.480519480519476,NA,NA
92105,San Diego County,CA,NA,40.136054421768705,NA
92111,San Diego County,CA,99.48051948051948,NA,NA
92113,San Diego County,CA,NA,44.21768707482993,NA
92154,San Diego County,CA,NA,NA,15.894039735099339
92311,San Bernardino County,CA,NA,61.564625850340136,NA
92345,San Bernardino County,CA,NA,NA,26.82119205298013
92359,San Bernardino County,CA,98.7012987012987,NA,NA
92374,San Bernardino County,CA,77.92207792207793,NA,52.317880794701985
92503,Riverside County,CA,NA,25.510204081632654,NA
92544,Riverside County,CA,52.2077922077922,NA,NA
92551,Riverside County,CA,91.42857142857143,NA,NA
92553,Riverside County,CA,29.09090909090909,NA,NA
92570,Riverside County,CA,NA,NA,92.3841059602649
92584,Riverside County,CA,NA,NA,64.56953642384106
92620,Orange County,CA,NA,NA,78.80794701986756
92683,Orange County,CA,NA,NA,5.960264900662252
92692,Orange County,CA,NA,NA,11.920529801324504
92703,Orange County,CA,NA,NA,65.89403973509934
92704,Orange County,CA,35.324675324675326,NA,NA
92707,Orange County,CA,44.935064935064936,NA,NA
92780,Orange County,CA,39.740259740259745,NA,NA
92804,Orange County,CA,17.142857142857142,NA,NA
92833,Orange County,CA,NA,38.435374149659864,NA
92870,Orange County,CA,NA,NA,17.880794701986755
92887,Orange County,CA,93.5064935064935,NA,NA
93001,Ventura County,CA,NA,37.755102040816325,NA
93215,Kern County,CA,87.27272727272727,NA,NA
93401,San Luis Obispo County,CA,NA,NA,54.63576158940398
93551,Los Angeles County,CA,84.93506493506493,NA,NA
93654,Fresno County,CA,NA,81.97278911564626,NA
93657,Fresno County,CA,NA,54.08163265306123,NA
93705,Fresno County,CA,36.103896103896105,NA,NA
93710,Fresno County,CA,NA,58.50340136054422,NA
93905,Monterey County,CA,73.24675324675324,NA,NA
93955,Monterey County,CA,42.077922077922075,NA,NA
94063,San Mateo County,CA,NA,50.68027210884354,NA
94102,San Francisco County,CA,8.571428571428571,9.523809523809524,NA
94112,San Francisco County,CA,27.27272727272727,NA,NA
94124,San Francisco County,CA,NA,NA,53.64238410596026
94131,San Francisco County,CA,68.05194805194805,NA,NA
94134,San Francisco County,CA,NA,33.6734693877551,NA
94520,Contra Costa County,CA,69.87012987012987,NA,NA
94538,Alameda County,CA,50.649350649350644,NA,NA
94550,Alameda County,CA,NA,45.91836734693878,NA
94558,Napa County,CA,NA,NA,3.3112582781456954
94564,Contra Costa County,CA,87.53246753246754,NA,NA
94595,Contra Costa County,CA,NA,60.8843537414966,NA
94603,Alameda County,CA,80,NA,NA
94606,Alameda County,CA,NA,70.40816326530613,NA
94619,Alameda County,CA,83.37662337662337,NA,NA
94960,Marin County,CA,NA,NA,88.74172185430463
95012,Monterey County,CA,89.35064935064935,NA,NA
95037,Santa Clara County,CA,62.5974025974026,NA,NA
95076,Santa Cruz County,CA,20.51948051948052,20.74829931972789,NA
95129,Santa Clara County,CA,88.05194805194805,NA,NA
95136,Santa Clara County,CA,NA,73.80952380952381,NA
95202,San Joaquin County,CA,32.98701298701299,NA,NA
95204,San Joaquin County,CA,61.55844155844156,78.57142857142857,NA
95206,San Joaquin County,CA,23.636363636363637,NA,NA
95307,Stanislaus County,CA,34.80519480519481,55.78231292517006,NA
95351,Stanislaus County,CA,NA,49.65986394557823,NA
95380,Stanislaus County,CA,NA,23.12925170068027,NA
95401,Sonoma County,CA,64.41558441558442,NA,NA
95403,Sonoma County,CA,54.285714285714285,NA,NA
95409,Sonoma County,CA,NA,NA,16.55629139072848
95467,Lake County,CA,NA,NA,96.68874172185431
95472,Sonoma County,CA,NA,70.06802721088435,NA
95501,Humboldt County,CA,NA,44.5578231292517,NA
95620,Solano County,CA,NA,91.83673469387756,NA
95630,Sacramento County,CA,NA,NA,25.82781456953642
95691,Yolo County,CA,83.8961038961039,63.26530612244898,69.5364238410596
95823,Sacramento County,CA,NA,21.768707482993197,NA
95971,Plumas County,CA,NA,NA,91.05960264900662
96001,Shasta County,CA,22.597402597402596,NA,NA
96064,Siskiyou County,CA,98.44155844155844,NA,NA
80012,Arapahoe County,CO,NA,NA,20.52980132450331
80112,Arapahoe County,CO,NA,65.98639455782312,NA
80204,Denver County,CO,24.155844155844157,NA,NA
80211,Denver County,CO,NA,NA,70.52980132450331
80214,Jefferson County,CO,NA,NA,76.82119205298014
80525,Larimer County,CO,NA,NA,9.602649006622517
80603,Weld County,CO,81.03896103896105,NA,NA
80620,Weld County,CO,46.75324675324675,NA,NA
80634,Weld County,CO,NA,NA,10.596026490066226
80906,El Paso County,CO,NA,50.34013605442177,NA
80916,El Paso County,CO,39.48051948051948,NA,NA
80919,El Paso County,CO,NA,62.585034013605444,NA
81004,Pueblo County,CO,28.05194805194805,NA,NA
81147,Archuleta County,CO,NA,NA,67.88079470198676
06109,Hartford County,CT,67.53246753246754,NA,NA
06118,Hartford County,CT,NA,NA,38.079470198675494
06241,Windham County,CT,89.0909090909091,NA,NA
06457,Middlesex County,CT,8.311688311688311,NA,NA
06513,New Haven County,CT,5.714285714285714,NA,NA
06519,New Haven County,CT,26.49350649350649,NA,NA
06901,Fairfield County,CT,95.84415584415584,99.65986394557824,NA
19801,New Castle County,DE,41.2987012987013,NA,NA
19807,New Castle County,DE,98.18181818181819,NA,NA
19904,Kent County,DE,15.584415584415584,NA,NA
19943,Kent County,DE,71.42857142857143,NA,NA
32046,Nassau County,FL,NA,NA,97.68211920529801
32065,Clay County,FL,44.41558441558441,NA,NA
32117,Volusia County,FL,36.62337662337662,NA,NA
32208,Duval County,FL,NA,7.142857142857142,NA
32250,Duval County,FL,NA,41.156462585034014,NA
32303,Leon County,FL,NA,55.44217687074829,NA
32607,Alachua County,FL,56.36363636363636,NA,NA
32641,Alachua County,FL,NA,69.04761904761905,NA
32953,Brevard County,FL,NA,23.809523809523807,NA
33009,Broward County,FL,NA,NA,12.251655629139073
33012,Miami-Dade County,FL,NA,NA,4.304635761589404
33016,Miami-Dade County,FL,NA,NA,26.158940397350992
33021,Broward County,FL,NA,NA,6.622516556291391
33028,Broward County,FL,NA,86.73469387755102,NA
33033,Miami-Dade County,FL,44.15584415584416,NA,NA
33127,Miami-Dade County,FL,62.077922077922075,NA,NA
33137,Miami-Dade County,FL,84.15584415584415,NA,NA
33143,Miami-Dade County,FL,NA,NA,45.36423841059602
33174,Miami-Dade County,FL,76.1038961038961,NA,NA
33175,Miami-Dade County,FL,61.298701298701296,28.2312925170068,NA
33324,Broward County,FL,72.46753246753246,NA,NA
33325,Broward County,FL,NA,77.55102040816327,NA
33409,Palm Beach County,FL,69.61038961038962,NA,NA
33415,Palm Beach County,FL,45.19480519480519,NA,NA
33477,Palm Beach County,FL,NA,NA,43.70860927152318
33486,Palm Beach County,FL,NA,NA,85.43046357615894
33594,Hillsborough County,FL,NA,NA,59.93377483443708
33702,Pinellas County,FL,57.14285714285714,NA,NA
33809,Polk County,FL,NA,59.863945578231295,NA
33825,Highlands County,FL,NA,NA,24.17218543046358
33913,Lee County,FL,NA,39.1156462585034,NA
33914,Lee County,FL,NA,17.687074829931973,NA
33917,Lee County,FL,NA,22.108843537414966,NA
33976,Lee County,FL,NA,NA,99.66887417218543
34116,Collier County,FL,NA,71.42857142857143,NA
34134,Lee County,FL,NA,NA,40.397350993377486
34223,Sarasota County,FL,NA,NA,33.443708609271525
34473,Marion County,FL,NA,72.10884353741497,NA
34677,Pinellas County,FL,NA,NA,59.27152317880795
34731,Lake County,FL,NA,89.1156462585034,NA
34758,Osceola County,FL,25.454545454545453,NA,NA
34990,Martin County,FL,NA,NA,3.642384105960265
34996,Martin County,FL,NA,76.87074829931973,NA
34997,Martin County,FL,NA,NA,5.298013245033113
30009,Fulton County,GA,91.68831168831169,NA,NA
30071,Gwinnett County,GA,88.83116883116882,NA,NA
30082,Cobb County,GA,78.44155844155844,NA,NA
30093,Gwinnett County,GA,63.116883116883116,NA,NA
30125,Polk County,GA,40,NA,NA
30189,Cherokee County,GA,NA,NA,72.51655629139073
30236,Clayton County,GA,NA,50,NA
30297,Clayton County,GA,64.15584415584415,83.33333333333334,NA
30601,Clarke County,GA,NA,NA,89.73509933774835
30705,Murray County,GA,NA,NA,66.55629139072848
30721,Whitfield County,GA,27.01298701298701,NA,NA
30906,Richmond County,GA,NA,6.462585034013606,NA
31008,Peach County,GA,44.675324675324674,NA,NA
31030,Peach County,GA,NA,NA,82.11920529801324
31032,Jones County,GA,NA,85.71428571428571,NA
31055,Telfair County,GA,NA,93.19727891156462,NA
31788,Colquitt County,GA,NA,84.01360544217688,NA
31803,Marion County,GA,NA,98.63945578231292,NA
31909,Muscogee County,GA,42.59740259740259,NA,NA
96734,Honolulu County,HI,NA,NA,10.264900662251655
96789,Honolulu County,HI,NA,10.884353741496598,NA
96822,Honolulu County,HI,NA,65.3061224489796,NA
83616,Ada County,ID,52.98701298701298,NA,NA
83619,Payette County,ID,95.06493506493506,NA,NA
83716,Ada County,ID,55.32467532467532,NA,NA
60030,Lake County,IL,NA,27.89115646258503,NA
60033,McHenry County,IL,NA,NA,73.17880794701986
60106,DuPage County,IL,NA,NA,35.430463576158935
60120,Kane County,IL,30.649350649350648,NA,NA
60134,Kane County,IL,47.01298701298701,NA,NA
60175,Kane County,IL,30.909090909090907,NA,NA
60189,DuPage County,IL,NA,26.87074829931973,NA
60402,Cook County,IL,12.987012987012985,NA,NA
60406,Cook County,IL,84.67532467532467,NA,NA
60430,Cook County,IL,NA,NA,45.6953642384106
60467,Cook County,IL,NA,32.99319727891156,NA
60468,Will County,IL,96.36363636363636,NA,NA
60478,Cook County,IL,NA,NA,53.31125827814569
60501,Cook County,IL,NA,92.51700680272108,NA
60510,Kane County,IL,NA,NA,56.622516556291394
60514,DuPage County,IL,NA,NA,92.71523178807946
60608,Cook County,IL,12.207792207792208,NA,NA
60609,Cook County,IL,11.688311688311687,NA,NA
60611,Cook County,IL,NA,NA,12.91390728476821
60620,Cook County,IL,NA,NA,3.9735099337748347
60621,Cook County,IL,39.22077922077922,NA,NA
60624,Cook County,IL,NA,32.6530612244898,NA
60660,Cook County,IL,29.87012987012987,NA,NA
60707,Cook County,IL,NA,11.904761904761903,NA
60805,Cook County,IL,75.32467532467533,NA,NA
60901,Kankakee County,IL,19.22077922077922,NA,NA
61462,Warren County,IL,NA,88.09523809523809,NA
61520,Fulton County,IL,NA,NA,32.78145695364238
61571,Tazewell County,IL,NA,NA,54.3046357615894
61832,Vermilion County,IL,NA,NA,9.933774834437086
62226,St. Clair County,IL,45.97402597402597,NA,NA
62521,Macon County,IL,NA,NA,4.966887417218543
62703,Sangamon County,IL,NA,36.054421768707485,NA
62704,Sangamon County,IL,50.38961038961038,NA,NA
62952,Union County,IL,NA,96.5986394557823,NA
46012,Madison County,IN,NA,NA,35.099337748344375
46013,Madison County,IN,NA,NA,32.450331125827816
46201,Marion County,IN,NA,44.89795918367347,NA
46202,Marion County,IN,NA,NA,87.74834437086093
46224,Marion County,IN,NA,NA,41.390728476821195
46319,Lake County,IN,NA,NA,61.258278145695364
46350,LaPorte County,IN,9.35064935064935,NA,NA
46360,LaPorte County,IN,7.012987012987012,NA,NA
46701,Noble County,IN,97.92207792207792,NA,NA
46733,Adams County,IN,NA,NA,46.688741721854306
46901,Howard County,IN,NA,NA,8.609271523178808
46936,Howard County,IN,NA,88.43537414965986,NA
47041,Ripley County,IN,NA,90.81632653061224,NA
47265,Jennings County,IN,26.233766233766232,NA,NA
47330,Wayne County,IN,92.20779220779221,NA,NA
47331,Fayette County,IN,18.181818181818183,NA,NA
47441,Greene County,IN,NA,NA,58.94039735099338
47452,Orange County,IN,96.88311688311688,NA,NA
47635,Spencer County,IN,NA,87.07482993197279,NA
47715,Vanderburgh County,IN,33.506493506493506,NA,NA
47909,Tippecanoe County,IN,NA,NA,38.741721854304636
47933,Montgomery County,IN,NA,NA,27.1523178807947
50211,Warren County,IA,NA,99.31972789115646,NA
50310,Polk County,IA,58.18181818181818,NA,NA
50320,Polk County,IA,52.467532467532465,NA,NA
52806,Scott County,IA,NA,46.25850340136054,NA
66049,Douglas County,KS,NA,46.59863945578231,NA
66062,Johnson County,KS,11.428571428571429,NA,NA
66605,Shawnee County,KS,54.02597402597402,NA,NA
67219,Sedgwick County,KS,90.12987012987013,NA,NA
67337,Montgomery County,KS,NA,NA,72.84768211920529
67401,Saline County,KS,22.337662337662337,NA,21.52317880794702
40006,Trimble County,KY,NA,95.91836734693877,NA
40214,Jefferson County,KY,NA,18.367346938775512,NA
40229,Jefferson County,KY,NA,24.149659863945576,NA
40291,Jefferson County,KY,NA,NA,34.7682119205298
40330,Mercer County,KY,57.92207792207792,NA,NA
40336,Estill County,KY,NA,NA,65.56291390728477
40508,Fayette County,KY,37.4025974025974,NA,NA
41042,Boone County,KY,7.2727272727272725,8.16326530612245,NA
41071,Campbell County,KY,29.61038961038961,NA,NA
41094,Boone County,KY,NA,78.91156462585033,NA
41179,Lewis County,KY,65.97402597402598,NA,NA
41701,Perry County,KY,34.285714285714285,NA,NA
42003,McCracken County,KY,17.92207792207792,NA,NA
42066,Graves County,KY,NA,24.489795918367346,NA
42240,Christian County,KY,NA,17.346938775510203,NA
70090,St. James Parish,LA,NA,NA,86.09271523178808
70094,Jefferson Parish,LA,6.493506493506493,NA,NA
70554,Evangeline Parish,LA,NA,86.39455782312925,NA
70578,Acadia Parish,LA,24.675324675324674,NA,NA
70601,Calcasieu Parish,LA,NA,NA,27.81456953642384
70744,Livingston Parish,LA,87.01298701298701,NA,NA
70807,East Baton Rouge Parish,LA,14.805194805194805,NA,NA
71106,Caddo Parish,LA,NA,NA,18.874172185430464
71202,Ouachita Parish,LA,NA,34.01360544217687,NA
71418,Caldwell Parish,LA,NA,NA,71.19205298013244
04043,York County,ME,NA,52.04081632653062,NA
04401,Penobscot County,ME,2.857142857142857,NA,NA
04976,Somerset County,ME,NA,18.027210884353742,NA
20707,Prince George's County,MD,71.68831168831169,NA,NA
20737,Prince George's County,MD,NA,97.95918367346938,NA
20774,Prince George's County,MD,45.97402597402597,NA,NA
20814,Montgomery County,MD,NA,84.6938775510204,NA
20832,Montgomery County,MD,NA,NA,92.05298013245033
20854,Montgomery County,MD,NA,43.197278911564624,NA
20906,Montgomery County,MD,NA,NA,13.90728476821192
21060,Anne Arundel County,MD,NA,51.70068027210885,NA
21122,Anne Arundel County,MD,NA,16.3265306122449,NA
21158,Carroll County,MD,NA,NA,77.48344370860927
21202,Baltimore city,MD,NA,NA,77.81456953642383
21205,Baltimore city,MD,NA,NA,55.29801324503312
21212,Baltimore city,MD,43.37662337662337,NA,NA
21228,Baltimore County,MD,NA,NA,13.57615894039735
21229,Baltimore city,MD,NA,66.66666666666666,NA
21231,Baltimore city,MD,NA,77.89115646258503,NA
21403,Anne Arundel County,MD,NA,NA,63.24503311258278
01085,Hampden County,MA,2.3376623376623376,NA,NA
01089,Hampden County,MA,NA,36.394557823129254,NA
01118,Hampden County,MA,99.22077922077922,NA,NA
01201,Berkshire County,MA,58.44155844155844,NA,NA
01301,Franklin County,MA,94.54545454545455,NA,NA
01440,Worcester County,MA,13.246753246753245,NA,NA
01453,Worcester County,MA,1.5584415584415585,NA,NA
01501,Worcester County,MA,37.142857142857146,NA,NA
01550,Worcester County,MA,NA,NA,2.3178807947019866
01570,Worcester County,MA,NA,NA,83.11258278145695
01603,Worcester County,MA,NA,2.380952380952381,NA
01702,Middlesex County,MA,61.038961038961034,NA,NA
01721,Middlesex County,MA,NA,47.61904761904761,NA
01760,Middlesex County,MA,NA,NA,40.728476821192054
01821,Middlesex County,MA,NA,1.0204081632653061,NA
01854,Middlesex County,MA,NA,5.782312925170068,NA
01867,Middlesex County,MA,NA,49.31972789115646,NA
01902,Essex County,MA,0.5194805194805194,NA,NA
02048,Bristol County,MA,NA,NA,37.74834437086093
02118,Suffolk County,MA,69.0909090909091,NA,6.95364238410596
02124,Suffolk County,MA,NA,0,NA
02125,Suffolk County,MA,1.0389610389610389,NA,NA
02128,Suffolk County,MA,0.7792207792207793,NA,NA
02136,Suffolk County,MA,97.66233766233766,NA,NA
02148,Middlesex County,MA,81.81818181818183,NA,NA
02151,Suffolk County,MA,NA,NA,0.6622516556291391
02301,Plymouth County,MA,0,NA,NA
02420,Middlesex County,MA,NA,NA,48.01324503311258
02492,Norfolk County,MA,NA,34.35374149659864,NA
02633,Barnstable County,MA,NA,91.49659863945578,NA
02740,Bristol County,MA,0.2597402597402597,NA,NA
02746,Bristol County,MA,3.116883116883117,NA,NA
48075,Oakland County,MI,NA,40.476190476190474,NA
48105,Washtenaw County,MI,41.81818181818181,NA,NA
48154,Wayne County,MI,NA,9.863945578231291,NA
48168,Wayne County,MI,NA,48.97959183673469,NA
48186,Wayne County,MI,NA,52.721088435374156,NA
48187,Wayne County,MI,NA,2.7210884353741496,NA
48212,Wayne County,MI,NA,14.965986394557824,NA
48213,Wayne County,MI,64.67532467532467,NA,NA
48214,Wayne County,MI,NA,29.591836734693878,NA
48221,Wayne County,MI,NA,6.122448979591836,NA
48228,Wayne County,MI,2.0779220779220777,NA,NA
48238,Wayne County,MI,NA,20.068027210884352,NA
48442,Oakland County,MI,51.16883116883116,NA,NA
48458,Genesee County,MI,NA,NA,57.284768211920536
48507,Genesee County,MI,10.649350649350648,NA,NA
48601,Saginaw County,MI,NA,3.741496598639456,7.28476821192053
48838,Montcalm County,MI,NA,NA,41.72185430463576
48855,Livingston County,MI,NA,57.48299319727891,NA
49022,Berrien County,MI,10.38961038961039,NA,NA
49048,Kalamazoo County,MI,NA,38.775510204081634,16.887417218543046
49417,Ottawa County,MI,19.480519480519483,NA,NA
49512,Kent County,MI,93.24675324675324,NA,NA
49686,Grand Traverse County,MI,NA,30.952380952380953,NA
49829,Delta County,MI,NA,34.69387755102041,NA
55109,Ramsey County,MN,NA,35.714285714285715,NA
55343,Hennepin County,MN,NA,NA,44.70198675496689
55359,Hennepin County,MN,NA,NA,100
55369,Hennepin County,MN,38.18181818181819,NA,NA
55404,Hennepin County,MN,1.8181818181818181,NA,NA
55408,Hennepin County,MN,12.467532467532468,NA,NA
55409,Hennepin County,MN,76.62337662337663,NA,NA
55412,Hennepin County,MN,9.090909090909092,NA,NA
55421,Anoka County,MN,NA,NA,44.03973509933775
55428,Hennepin County,MN,20.77922077922078,NA,NA
55429,Hennepin County,MN,13.506493506493506,NA,NA
55430,Hennepin County,MN,NA,43.53741496598639,NA
55434,Anoka County,MN,NA,NA,76.15894039735099
55437,Hennepin County,MN,88.31168831168831,NA,NA
55444,Hennepin County,MN,63.896103896103895,NA,NA
55454,Hennepin County,MN,NA,97.61904761904762,NA
55901,Olmsted County,MN,NA,31.292517006802722,NA
55904,Olmsted County,MN,NA,46.93877551020408,NA
56031,Martin County,MN,NA,22.789115646258505,NA
56241,Yellow Medicine County,MN,NA,98.29931972789116,NA
56265,Chippewa County,MN,NA,NA,38.41059602649007
56301,Stearns County,MN,NA,NA,83.44370860927152
56482,Wadena County,MN,NA,66.3265306122449,NA
56501,Becker County,MN,NA,33.33333333333333,NA
56557,Norman County,MN,89.87012987012987,NA,NA
56601,Beltrami County,MN,NA,NA,1.3245033112582782
56633,Hubbard County,MN,NA,NA,80.13245033112582
38834,Alcorn County,MS,NA,30.272108843537417,NA
38901,Grenada County,MS,NA,NA,43.04635761589404
38922,Yalobusha County,MS,94.8051948051948,NA,NA
39046,Madison County,MS,NA,NA,57.615894039735096
39051,Leake County,MS,48.83116883116883,NA,NA
39119,Covington County,MS,NA,NA,95.69536423841059
39157,Madison County,MS,NA,NA,88.41059602649007
39212,Hinds County,MS,NA,NA,97.35099337748345
39350,Neshoba County,MS,NA,NA,36.092715231788084
39367,Wayne County,MS,NA,NA,78.80794701986756
39437,Jones County,MS,NA,94.5578231292517,NA
39440,Jones County,MS,NA,67.68707482993197,NA
39466,Pearl River County,MS,28.83116883116883,NA,NA
39564,Jackson County,MS,35.84415584415584,NA,NA
39567,Jackson County,MS,NA,93.87755102040816,NA
39705,Lowndes County,MS,NA,NA,79.80132450331125
63026,St. Louis County,MO,NA,NA,23.841059602649008
63069,Franklin County,MO,80.25974025974027,NA,NA
63107,St. Louis city,MO,NA,80.95238095238095,NA
63115,St. Louis city,MO,NA,NA,60.9271523178808
63125,St. Louis County,MO,NA,35.034013605442176,NA
63301,St. Charles County,MO,NA,4.081632653061225,NA
63857,Dunklin County,MO,NA,NA,73.50993377483444
63873,New Madrid County,MO,NA,96.93877551020408,NA
64030,Jackson County,MO,20,NA,NA
64055,Jackson County,MO,8.051948051948052,NA,NA
64056,Jackson County,MO,NA,64.28571428571429,NA
64060,Clay County,MO,48.311688311688314,NA,NA
64068,Clay County,MO,NA,8.503401360544217,NA
64081,Jackson County,MO,NA,NA,42.384105960264904
64086,Jackson County,MO,NA,NA,56.29139072847682
64133,Jackson County,MO,NA,4.761904761904762,NA
64152,Platte County,MO,NA,NA,62.251655629139066
64671,Caldwell County,MO,99.74025974025975,NA,NA
64831,McDonald County,MO,NA,92.17687074829932,NA
64836,Jasper County,MO,NA,NA,18.211920529801322
65301,Pettis County,MO,5.194805194805195,NA,NA
65340,Saline County,MO,38.44155844155844,NA,NA
65613,Polk County,MO,63.63636363636363,NA,19.205298013245034
65802,Greene County,MO,NA,63.94557823129252,NA
65803,Greene County,MO,NA,NA,22.8476821192053
59405,Cascade County,MT,NA,NA,9.271523178807946
59701,Silver Bow County,MT,NA,48.29931972789115,NA
59718,Gallatin County,MT,NA,NA,39.40397350993378
68803,Hall County,NE,72.98701298701299,NA,NA
89106,Clark County,NV,50.90909090909091,NA,NA
89108,Clark County,NV,23.896103896103895,NA,NA
89117,Clark County,NV,37.66233766233766,NA,NA
89121,Clark County,NV,30.129870129870127,NA,34.437086092715234
89135,Clark County,NV,90.9090909090909,NA,NA
89141,Clark County,NV,NA,82.99319727891157,NA
89165,Clark County,NV,96.62337662337663,NA,NA
89434,Washoe County,NV,NA,43.87755102040816,NA
89502,Washoe County,NV,21.818181818181817,NA,NA
89509,Washoe County,NV,NA,53.40136054421769,NA
03060,Hillsborough County,NH,NA,12.925170068027212,NA
03301,Merrimack County,NH,NA,13.945578231292515,NA
03431,Cheshire County,NH,NA,NA,8.27814569536424
03820,Strafford County,NH,23.116883116883116,NA,NA
07036,Union County,NJ,NA,61.224489795918366,NA
07054,Morris County,NJ,55.58441558441558,NA,NA
07080,Middlesex County,NJ,NA,68.70748299319727,NA
07087,Hudson County,NJ,19.74025974025974,NA,NA
07106,Essex County,NJ,5.974025974025974,NA,42.05298013245033
07107,Essex County,NJ,10.909090909090908,36.734693877551024,NA
07109,Essex County,NJ,NA,NA,29.13907284768212
07304,Hudson County,NJ,NA,5.1020408163265305,NA
07305,Hudson County,NJ,NA,2.0408163265306123,28.47682119205298
07407,Bergen County,NJ,NA,NA,64.23841059602648
07501,Passaic County,NJ,NA,18.70748299319728,NA
07607,Bergen County,NJ,79.74025974025975,NA,NA
07643,Bergen County,NJ,NA,91.15646258503402,NA
07650,Bergen County,NJ,NA,92.85714285714286,NA
07652,Bergen County,NJ,NA,NA,93.04635761589404
07656,Bergen County,NJ,94.02597402597402,NA,NA
07663,Bergen County,NJ,65.71428571428571,NA,NA
07670,Bergen County,NJ,NA,NA,62.913907284768214
07675,Bergen County,NJ,NA,NA,84.76821192052981
07724,Monmouth County,NJ,29.35064935064935,NA,NA
07733,Monmouth County,NJ,NA,NA,67.21854304635761
07853,Morris County,NJ,NA,96.25850340136054,NA
07930,Morris County,NJ,NA,NA,93.37748344370861
08003,Camden County,NJ,65.1948051948052,NA,21.85430463576159
08016,Burlington County,NJ,38.701298701298704,29.25170068027211,NA
08028,Gloucester County,NJ,53.246753246753244,NA,NA
08030,Camden County,NJ,NA,NA,86.42384105960265
08037,Atlantic County,NJ,NA,NA,24.834437086092713
08043,Camden County,NJ,NA,69.38775510204081,NA
08046,Burlington County,NJ,NA,NA,32.11920529801324
08052,Burlington County,NJ,NA,81.29251700680273,NA
08053,Burlington County,NJ,NA,30.612244897959183,NA
08055,Burlington County,NJ,NA,NA,36.75496688741722
08057,Burlington County,NJ,NA,64.96598639455783,NA
08062,Gloucester County,NJ,72.72727272727273,NA,NA
08080,Gloucester County,NJ,40.77922077922078,NA,NA
08087,Ocean County,NJ,NA,NA,16.225165562913908
08107,Camden County,NJ,31.948051948051948,NA,NA
08110,Camden County,NJ,NA,29.591836734693878,NA
08201,Atlantic County,NJ,NA,NA,95.36423841059603
08203,Atlantic County,NJ,NA,NA,96.35761589403974
08205,Atlantic County,NJ,90.64935064935065,NA,85.76158940397352
08210,Cape May County,NJ,NA,54.421768707483,NA
08230,Cape May County,NJ,NA,NA,90.72847682119205
08232,Atlantic County,NJ,6.753246753246753,31.97278911564626,NA
08234,Atlantic County,NJ,NA,15.306122448979592,75.16556291390728
08242,Cape May County,NJ,96.1038961038961,NA,NA
08270,Cape May County,NJ,60.259740259740255,97.27891156462584,NA
08312,Gloucester County,NJ,NA,NA,95.03311258278146
08318,Salem County,NJ,NA,75.17006802721087,NA
08330,Atlantic County,NJ,80.51948051948052,NA,91.72185430463577
08360,Cumberland County,NJ,NA,NA,22.185430463576157
08361,Cumberland County,NJ,NA,NA,50.66225165562914
08401,Atlantic County,NJ,31.68831168831169,3.061224489795918,NA
08520,Mercer County,NJ,82.85714285714286,NA,NA
08527,Ocean County,NJ,NA,7.8231292517006805,NA
08609,Mercer County,NJ,NA,NA,75.16556291390728
08611,Mercer County,NJ,27.532467532467532,NA,NA
08638,Mercer County,NJ,NA,NA,71.8543046357616
08753,Ocean County,NJ,85.71428571428571,NA,NA
08830,Middlesex County,NJ,NA,NA,52.64900662251656
08831,Middlesex County,NJ,NA,NA,17.549668874172188
08837,Middlesex County,NJ,NA,NA,98.67549668874173
08854,Middlesex County,NJ,NA,54.761904761904766,NA
08873,Somerset County,NJ,17.662337662337663,NA,NA
87106,Bernalillo County,NM,22.857142857142858,51.02040816326531,NA
87123,Bernalillo County,NM,14.545454545454545,NA,NA
87401,San Juan County,NM,NA,NA,37.086092715231786
88011,Doa Ana County,NM,57.66233766233766,NA,NA
88061,Grant County,NM,74.28571428571429,NA,NA
88310,Otero County,NM,26.75324675324675,NA,NA
88345,Lincoln County,NM,77.14285714285715,NA,NA
10002,New York County,NY,NA,24.829931972789115,NA
10004,New York County,NY,97.40259740259741,NA,NA
10014,New York County,NY,89.6103896103896,NA,NA
10025,New York County,NY,NA,NA,1.9867549668874174
10032,New York County,NY,NA,NA,5.629139072847682
10034,New York County,NY,36.36363636363637,NA,NA
10036,New York County,NY,40.519480519480524,NA,NA
10451,Bronx County,NY,3.3766233766233764,NA,NA
10456,Bronx County,NY,NA,0.3401360544217687,NA
10460,Bronx County,NY,NA,15.646258503401361,12.582781456953644
10468,Bronx County,NY,NA,1.7006802721088436,NA
10509,Putnam County,NY,NA,NA,69.86754966887418
10553,Westchester County,NY,92.46753246753246,NA,NA
10927,Rockland County,NY,NA,NA,73.84105960264901
11220,Kings County,NY,NA,NA,15.562913907284766
11224,Kings County,NY,NA,NA,1.6556291390728477
11230,Kings County,NY,NA,NA,7.6158940397351
11236,Kings County,NY,5.454545454545454,NA,NA
11238,Kings County,NY,NA,NA,40.06622516556291
11373,Queens County,NY,16.623376623376622,19.047619047619047,23.509933774834437
11375,Queens County,NY,NA,NA,8.940397350993377
11428,Queens County,NY,NA,NA,76.49006622516556
11550,Nassau County,NY,12.727272727272727,NA,NA
11702,Suffolk County,NY,95.32467532467533,NA,NA
11717,Suffolk County,NY,20.259740259740262,NA,NA
11727,Suffolk County,NY,NA,NA,41.05960264900662
11729,Suffolk County,NY,78.44155844155844,NA,NA
11953,Suffolk County,NY,87.79220779220779,NA,NA
11967,Suffolk County,NY,NA,84.01360544217688,NA
12020,Saratoga County,NY,21.298701298701296,NA,NA
12078,Fulton County,NY,NA,NA,11.258278145695364
12601,Dutchess County,NY,31.428571428571427,NA,NA
12833,Saratoga County,NY,92.98701298701299,NA,NA
13021,Cayuga County,NY,NA,NA,19.5364238410596
13036,Oswego County,NY,64.93506493506493,NA,NA
13126,Oswego County,NY,4.675324675324675,NA,NA
13760,Broome County,NY,NA,6.802721088435375,NA
14043,Erie County,NY,35.064935064935064,NA,NA
14063,Chautauqua County,NY,NA,NA,64.90066225165563
14086,Erie County,NY,NA,22.448979591836736,NA
14094,Niagara County,NY,2.5974025974025974,NA,NA
14174,Niagara County,NY,84.4155844155844,NA,NA
14206,Erie County,NY,15.324675324675324,NA,NA
14228,Erie County,NY,NA,NA,70.86092715231787
14411,Orleans County,NY,NA,NA,69.20529801324503
14534,Monroe County,NY,NA,NA,4.635761589403973
14618,Monroe County,NY,NA,53.06122448979592,NA
27045,Forsyth County,NC,75.84415584415585,NA,NA
27101,Forsyth County,NC,86.23376623376623,NA,NA
27215,Alamance County,NC,NA,5.442176870748299,NA
27249,Guilford County,NC,NA,74.14965986394559,NA
27265,Guilford County,NC,NA,17.006802721088434,NA
27284,Forsyth County,NC,NA,NA,2.6490066225165565
27310,Guilford County,NC,NA,94.21768707482994,NA
27341,Randolph County,NC,NA,NA,98.34437086092716
27519,Wake County,NC,51.94805194805194,NA,NA
27520,Johnston County,NC,34.54545454545455,NA,NA
27534,Wayne County,NC,NA,NA,30.132450331125828
27546,Harnett County,NC,NA,85.37414965986395,NA
27565,Granville County,NC,25.71428571428571,NA,NA
27612,Wake County,NC,NA,48.63945578231292,NA
27615,Wake County,NC,NA,56.4625850340136,NA
27909,Pasquotank County,NC,NA,14.625850340136054,NA
27949,Dare County,NC,92.72727272727272,NA,NA
28023,Rowan County,NC,71.94805194805195,NA,NA
28027,Cabarrus County,NC,NA,8.843537414965986,NA
28092,Lincoln County,NC,NA,NA,43.377483443708606
28138,Rowan County,NC,66.49350649350649,NA,NA
28170,Anson County,NC,NA,73.46938775510205,NA
28205,Mecklenburg County,NC,73.50649350649351,NA,NA
28206,Mecklenburg County,NC,43.116883116883116,72.78911564625851,NA
28207,Mecklenburg County,NC,NA,87.41496598639455,NA
28217,Mecklenburg County,NC,55.064935064935064,NA,NA
28301,Cumberland County,NC,NA,67.3469387755102,NA
28311,Cumberland County,NC,27.79220779220779,NA,NA
28312,Cumberland County,NC,NA,56.12244897959183,NA
28358,Robeson County,NC,18.961038961038962,NA,NA
28387,Moore County,NC,NA,NA,49.337748344370866
28398,Duplin County,NC,NA,NA,89.40397350993378
28429,New Hanover County,NC,NA,86.05442176870748,NA
28540,Onslow County,NC,28.31168831168831,NA,NA
28570,Carteret County,NC,57.4025974025974,NA,NA
28636,Alexander County,NC,93.76623376623377,NA,NA
28650,Catawba County,NC,NA,NA,67.54966887417218
28658,Catawba County,NC,NA,NA,50.993377483443716
28739,Henderson County,NC,54.285714285714285,NA,NA
28779,Jackson County,NC,NA,NA,58.27814569536424
58103,Cass County,ND,7.532467532467532,NA,NA
58501,Burleigh County,ND,56.62337662337662,NA,NA
43054,Franklin County,OH,NA,75.85034013605441,NA
43055,Licking County,OH,NA,0.6802721088435374,NA
43062,Licking County,OH,NA,37.41496598639456,NA
43081,Franklin County,OH,24.935064935064936,NA,NA
43206,Franklin County,OH,NA,65.64625850340136,NA
43207,Franklin County,OH,NA,NA,20.198675496688743
43229,Franklin County,OH,NA,11.564625850340136,NA
43232,Franklin County,OH,4.935064935064935,NA,NA
43235,Franklin County,OH,NA,NA,30.4635761589404
43334,Morrow County,OH,79.48051948051949,NA,NA
43402,Wood County,OH,NA,NA,19.867549668874172
43452,Ottawa County,OH,NA,42.17687074829932,NA
43502,Fulton County,OH,NA,NA,71.52317880794702
43616,Lucas County,OH,NA,NA,22.516556291390728
43968,Columbiana County,OH,NA,74.14965986394559,NA
44003,Ashtabula County,OH,NA,93.5374149659864,NA
44026,Geauga County,OH,NA,60.204081632653065,NA
44044,Lorain County,OH,NA,NA,58.27814569536424
44102,Cuyahoga County,OH,NA,NA,14.23841059602649
44105,Cuyahoga County,OH,1.2987012987012987,NA,NA
44106,Cuyahoga County,OH,11.168831168831169,NA,NA
44108,Cuyahoga County,OH,3.6363636363636362,NA,NA
44120,Cuyahoga County,OH,3.896103896103896,NA,NA
44122,Cuyahoga County,OH,NA,NA,0.33112582781456956
44123,Cuyahoga County,OH,NA,NA,39.0728476821192
44131,Cuyahoga County,OH,NA,21.08843537414966,NA
44134,Cuyahoga County,OH,NA,62.244897959183675,NA
44137,Cuyahoga County,OH,28.57142857142857,NA,NA
44144,Cuyahoga County,OH,NA,10.204081632653061,NA
44221,Summit County,OH,NA,NA,15.2317880794702
44314,Summit County,OH,NA,NA,70.19867549668875
44827,Crawford County,OH,NA,NA,74.83443708609272
44903,Richland County,OH,NA,21.428571428571427,NA
45014,Butler County,OH,17.402597402597404,NA,NA
45216,Hamilton County,OH,NA,NA,91.3907284768212
45304,Darke County,OH,NA,NA,87.08609271523179
45344,Clark County,OH,NA,NA,68.87417218543047
45373,Miami County,OH,NA,14.285714285714285,NA
45431,Montgomery County,OH,48.05194805194805,NA,NA
45601,Ross County,OH,NA,NA,0
45807,Allen County,OH,66.23376623376623,NA,NA
73010,McClain County,OK,49.09090909090909,NA,NA
73069,Cleveland County,OK,NA,NA,46.35761589403973
73122,Oklahoma County,OK,NA,NA,80.79470198675497
73401,Carter County,OK,NA,12.244897959183673,NA
73644,Beckham County,OK,NA,71.08843537414967,NA
74127,Tulsa County,OK,NA,77.21088435374149,NA
74128,Tulsa County,OK,NA,88.77551020408163,NA
74403,Muskogee County,OK,35.58441558441559,NA,NA
74820,Pontotoc County,OK,NA,NA,25.496688741721858
97006,Washington County,OR,NA,39.795918367346935,NA
97008,Washington County,OR,NA,61.904761904761905,NA
97055,Clackamas County,OR,70.3896103896104,NA,NA
97132,Yamhill County,OR,41.03896103896104,NA,NA
97222,Clackamas County,OR,NA,40.816326530612244,NA
97236,Multnomah County,OR,20.77922077922078,NA,NA
97301,Marion County,OR,14.025974025974024,28.57142857142857,NA
97471,Douglas County,OR,NA,NA,14.56953642384106
97801,Umatilla County,OR,NA,31.63265306122449,NA
15012,Westmoreland County,PA,NA,59.523809523809526,NA
15147,Allegheny County,PA,70.64935064935065,NA,NA
15205,Allegheny County,PA,50.12987012987013,NA,NA
15218,Allegheny County,PA,NA,69.72789115646259,NA
15425,Fayette County,PA,NA,26.53061224489796,NA
15613,Westmoreland County,PA,NA,58.16326530612245,NA
15670,Westmoreland County,PA,98.96103896103897,NA,NA
15714,Cambria County,PA,NA,90.1360544217687,NA
15904,Cambria County,PA,NA,45.23809523809524,NA
16146,Mercer County,PA,NA,NA,29.47019867549669
16503,Erie County,PA,38.961038961038966,NA,94.37086092715232
16504,Erie County,PA,NA,NA,66.88741721854305
16601,Blair County,PA,NA,10.54421768707483,NA
16823,Centre County,PA,NA,19.387755102040817,NA
17046,Lebanon County,PA,NA,NA,49.337748344370866
17057,Dauphin County,PA,NA,NA,45.033112582781456
17225,Franklin County,PA,NA,NA,55.960264900662246
17316,Adams County,PA,NA,NA,88.0794701986755
17339,York County,PA,NA,NA,96.02649006622516
18052,Lehigh County,PA,NA,42.517006802721085,NA
18360,Monroe County,PA,NA,NA,17.218543046357617
18407,Lackawanna County,PA,NA,NA,50.993377483443716
18603,Columbia County,PA,16.363636363636363,NA,NA
18612,Luzerne County,PA,61.81818181818181,NA,NA
18964,Montgomery County,PA,75.58441558441558,NA,NA
18974,Bucks County,PA,NA,12.585034013605442,NA
19013,Delaware County,PA,4.1558441558441555,16.666666666666664,NA
19014,Delaware County,PA,NA,NA,47.35099337748344
19054,Bucks County,PA,NA,NA,82.78145695364239
19067,Bucks County,PA,NA,45.57823129251701,NA
19082,Delaware County,PA,11.948051948051948,NA,NA
19131,Philadelphia County,PA,NA,3.4013605442176873,NA
19135,Philadelphia County,PA,18.441558441558442,NA,NA
19138,Philadelphia County,PA,NA,25.170068027210885,NA
19145,Philadelphia County,PA,NA,13.26530612244898,NA
19320,Chester County,PA,9.61038961038961,NA,NA
19348,Chester County,PA,NA,55.10204081632652,NA
19362,Chester County,PA,NA,NA,99.33774834437085
19405,Montgomery County,PA,NA,100,NA
19438,Montgomery County,PA,NA,NA,33.77483443708609
19522,Berks County,PA,NA,NA,54.966887417218544
19551,Berks County,PA,94.28571428571428,NA,NA
19610,Berks County,PA,NA,NA,26.490066225165563
02825,Providence County,RI,NA,94.89795918367348,NA
02860,Providence County,RI,7.792207792207792,13.60544217687075,NA
02907,Providence County,RI,42.33766233766234,NA,NA
29102,Clarendon County,SC,60.77922077922078,NA,55.29801324503312
29108,Newberry County,SC,85.97402597402596,NA,NA
29153,Sumter County,SC,NA,71.7687074829932,NA
29154,Sumter County,SC,54.8051948051948,NA,NA
29303,Spartanburg County,SC,NA,67.00680272108843,NA
29330,Spartanburg County,SC,NA,NA,94.03973509933775
29414,Charleston County,SC,NA,NA,31.456953642384107
29440,Georgetown County,SC,NA,NA,29.80132450331126
29449,Charleston County,SC,NA,82.6530612244898,NA
29512,Marlboro County,SC,NA,72.44897959183673,NA
29611,Greenville County,SC,NA,NA,28.807947019867548
29702,Cherokee County,SC,NA,NA,83.77483443708608
29710,York County,SC,NA,57.82312925170068,NA
29730,York County,SC,NA,NA,48.34437086092716
29732,York County,SC,NA,27.55102040816326,84.43708609271523
29745,York County,SC,55.84415584415584,NA,NA
29801,Aiken County,SC,NA,NA,47.019867549668874
57702,Pennington County,SD,NA,20.408163265306122,NA
37025,Hickman County,TN,88.57142857142857,NA,NA
37090,Wilson County,TN,67.53246753246754,NA,NA
37185,Humphreys County,TN,91.16883116883116,NA,NA
37206,Davidson County,TN,36.883116883116884,NA,86.75496688741721
37379,Hamilton County,TN,NA,37.07482993197279,NA
37398,Franklin County,TN,47.27272727272727,NA,NA
37604,Washington County,TN,NA,NA,33.11258278145696
37618,Sullivan County,TN,NA,82.31292517006803,NA
37620,Sullivan County,TN,14.285714285714285,19.727891156462583,NA
37643,Carter County,TN,NA,11.224489795918368,NA
37766,Campbell County,TN,NA,NA,33.77483443708609
37774,Loudon County,TN,NA,27.2108843537415,30.79470198675497
37779,Union County,TN,NA,98.9795918367347,NA
37807,Union County,TN,NA,NA,77.15231788079471
37821,Cocke County,TN,NA,35.374149659863946,NA
37830,Anderson County,TN,NA,28.91156462585034,NA
37914,Knox County,TN,NA,NA,60.59602649006622
37921,Knox County,TN,32.467532467532465,NA,NA
37922,Knox County,TN,NA,NA,53.973509933774835
37934,Knox County,TN,81.2987012987013,NA,NA
38572,Cumberland County,TN,66.75324675324676,NA,NA
75032,Rockwall County,TX,NA,NA,47.35099337748344
75051,Dallas County,TX,43.896103896103895,NA,NA
75056,Denton County,TX,NA,41.83673469387755,NA
75148,Henderson County,TX,NA,90.47619047619048,NA
75156,Henderson County,TX,NA,75.85034013605441,NA
75219,Dallas County,TX,56.1038961038961,NA,NA
75231,Dallas County,TX,NA,74.82993197278913,NA
75243,Dallas County,TX,16.883116883116884,NA,NA
75751,Henderson County,TX,NA,NA,39.735099337748345
75766,Cherokee County,TX,NA,NA,6.291390728476822
75951,Jasper County,TX,53.246753246753244,NA,NA
76001,Tarrant County,TX,58.96103896103896,NA,NA
76010,Tarrant County,TX,NA,63.60544217687075,NA
76011,Tarrant County,TX,59.22077922077922,NA,NA
76179,Tarrant County,TX,NA,42.857142857142854,NA
76230,Montague County,TX,NA,NA,80.13245033112582
76522,Coryell County,TX,47.79220779220779,NA,NA
76708,McLennan County,TX,49.87012987012987,NA,NA
76712,McLennan County,TX,NA,NA,7.9470198675496695
77008,Harris County,TX,NA,79.59183673469387,NA
77022,Harris County,TX,NA,60.544217687074834,NA
77025,Harris County,TX,NA,NA,65.23178807947019
77028,Harris County,TX,NA,75.51020408163265,NA
77048,Harris County,TX,74.02597402597402,NA,NA
77063,Harris County,TX,NA,79.93197278911565,NA
77081,Harris County,TX,NA,95.23809523809523,NA
77084,Harris County,TX,NA,26.190476190476193,NA
77088,Harris County,TX,33.246753246753244,NA,48.675496688741724
77318,Montgomery County,TX,82.33766233766234,NA,NA
77328,San Jacinto County,TX,NA,87.75510204081633,NA
77354,Montgomery County,TX,52.72727272727272,NA,NA
77375,Harris County,TX,24.155844155844157,NA,NA
77406,Fort Bend County,TX,NA,NA,51.65562913907284
77437,Wharton County,TX,NA,NA,50.331125827814574
77459,Fort Bend County,TX,NA,53.74149659863946,NA
77471,Fort Bend County,TX,NA,NA,52.980132450331126
77530,Harris County,TX,62.857142857142854,NA,NA
77539,Galveston County,TX,22.07792207792208,NA,NA
77562,Harris County,TX,80.77922077922078,NA,NA
77566,Brazoria County,TX,NA,NA,46.026490066225165
77573,Galveston County,TX,10.129870129870131,NA,NA
77590,Galveston County,TX,15.064935064935064,NA,NA
77598,Harris County,TX,NA,NA,90.06622516556291
77612,Jasper County,TX,NA,NA,87.41721854304636
77713,Jefferson County,TX,NA,89.79591836734694,NA
78045,Webb County,TX,NA,41.49659863945578,NA
78046,Webb County,TX,NA,32.31292517006803,NA
78130,Comal County,TX,25.97402597402597,NA,NA
78133,Comal County,TX,NA,79.25170068027211,NA
78224,Bexar County,TX,NA,NA,94.70198675496688
78258,Bexar County,TX,NA,78.2312925170068,NA
78415,Nueces County,TX,NA,NA,85.09933774834437
78418,Nueces County,TX,74.54545454545455,NA,NA
78504,Hidalgo County,TX,41.55844155844156,NA,NA
78577,Hidalgo County,TX,NA,NA,13.245033112582782
78584,Starr County,TX,NA,NA,49.00662251655629
78669,Travis County,TX,NA,81.29251700680273,NA
78723,Travis County,TX,NA,80.27210884353741,NA
78724,Travis County,TX,NA,95.578231292517,NA
78741,Travis County,TX,74.8051948051948,NA,NA
78745,Travis County,TX,NA,68.36734693877551,59.60264900662252
78758,Travis County,TX,NA,NA,62.58278145695364
79762,Ector County,TX,NA,51.36054421768708,NA
79925,El Paso County,TX,73.76623376623377,NA,NA
79930,El Paso County,TX,NA,80.61224489795919,NA
79936,El Paso County,TX,13.766233766233766,NA,NA
84020,Salt Lake County,UT,45.45454545454545,NA,NA
84074,Tooele County,UT,NA,23.46938775510204,NA
84084,Salt Lake County,UT,48.311688311688314,NA,NA
84123,Salt Lake County,UT,23.376623376623375,NA,NA
05403,Chittenden County,VT,NA,57.14285714285714,NA
20170,Fairfax County,VA,68.31168831168831,NA,NA
22101,Fairfax County,VA,56.88311688311688,NA,NA
22180,Fairfax County,VA,NA,NA,65.89403973509934
22311,Alexandria city,VA,NA,NA,68.21192052980133
22485,King George County,VA,NA,NA,89.0728476821192
22603,Frederick County,VA,NA,NA,61.920529801324506
23059,Henrico County,VA,83.11688311688312,NA,NA
23111,Hanover County,VA,NA,NA,20.86092715231788
23112,Chesterfield County,VA,NA,NA,42.71523178807947
23220,Richmond city,VA,NA,NA,78.47682119205298
23227,Henrico County,VA,NA,NA,28.14569536423841
23322,Chesapeake city,VA,NA,NA,18.543046357615893
23434,Suffolk city,VA,NA,NA,14.90066225165563
23453,Virginia Beach city,VA,51.688311688311686,NA,61.258278145695364
23502,Norfolk city,VA,NA,39.1156462585034,NA
23669,Hampton city,VA,NA,15.98639455782313,NA
23704,Portsmouth city,VA,31.16883116883117,NA,NA
24014,Roanoke city,VA,NA,NA,63.576158940397356
24019,Roanoke County,VA,60.259740259740255,NA,NA
24064,Botetourt County,VA,95.58441558441558,NA,NA
24171,Patrick County,VA,NA,NA,60.264900662251655
24179,Roanoke County,VA,53.76623376623376,NA,NA
24228,Dickenson County,VA,72.20779220779221,NA,NA
98021,Snohomish County,WA,59.74025974025974,NA,NA
98022,King County,WA,65.45454545454545,NA,NA
98053,King County,WA,NA,47.95918367346938,NA
98110,Kitsap County,WA,67.01298701298701,NA,NA
98117,King County,WA,NA,NA,81.78807947019867
98118,King County,WA,NA,NA,31.788079470198678
98383,Kitsap County,WA,NA,62.925170068027214,NA
98390,Pierce County,WA,NA,NA,78.1456953642384
98498,Pierce County,WA,60,NA,NA
98513,Thurston County,WA,76.88311688311688,NA,NA
98672,Klickitat County,WA,NA,NA,93.70860927152319
98683,Clark County,WA,NA,NA,75.82781456953643
98926,Kittitas County,WA,NA,NA,25.165562913907287
99114,Stevens County,WA,NA,NA,56.95364238410596
99337,Benton County,WA,NA,9.183673469387756,NA
99352,Benton County,WA,NA,NA,2.980132450331126
99354,Benton County,WA,NA,NA,23.178807947019866
20010,District of Columbia,DC,NA,56.80272108843537,NA
20012,District of Columbia,DC,85.19480519480518,NA,NA
20019,District of Columbia,DC,NA,NA,10.596026490066226
20020,District of Columbia,DC,NA,7.482993197278912,NA
24701,Mercer County,WV,32.72727272727273,NA,NA
25304,Kanawha County,WV,NA,NA,72.18543046357617
25403,Berkeley County,WV,75.06493506493507,NA,NA
25901,Fayette County,WV,49.09090909090909,NA,NA
26155,Wetzel County,WV,83.63636363636363,NA,NA
26201,Upshur County,WV,25.19480519480519,NA,NA
26426,Harrison County,WV,NA,84.6938775510204,NA
26431,Harrison County,WV,86.75324675324674,NA,NA
26508,Monongalia County,WV,6.233766233766234,NA,NA
53066,Waukesha County,WI,NA,NA,24.503311258278146
53094,Jefferson County,WI,43.63636363636363,NA,NA
53150,Waukesha County,WI,NA,47.27891156462585,50
53202,Milwaukee County,WI,NA,NA,37.086092715231786
53207,Milwaukee County,WI,NA,38.095238095238095,NA
53211,Milwaukee County,WI,NA,25.850340136054424,NA
53546,Rock County,WI,NA,4.421768707482993,NA
53563,Rock County,WI,NA,NA,63.90728476821192
53703,Dane County,WI,82.07792207792208,NA,NA
54020,Polk County,WI,78.96103896103897,NA,NA
54220,Manitowoc County,WI,NA,1.3605442176870748,NA
54481,Portage County,WI,21.558441558441558,NA,NA
54913,Outagamie County,WI,NA,NA,80.79470198675497
54952,Winnebago County,WI,NA,NA,57.94701986754966
54981,Waupaca County,WI,67.27272727272727,NA,NA
82520,Fremont County,WY,NA,NA,98.01324503311258
