ZipCode,county,state,Youth,Adult,Retirement,Geriatric
35016,Marshall County,AL,NA,NA,41.737649063032364,NA
35146,St. Clair County,AL,NA,83.29493087557603,NA,NA
35215,Jefferson County,AL,12.033195020746888,NA,NA,NA
35401,Tuscaloosa County,AL,NA,NA,18.739352640545146,NA
35619,Morgan County,AL,NA,NA,88.07495741056218,NA
35630,Lauderdale County,AL,NA,NA,NA,47.94908062234795
35646,Colbert County,AL,NA,95.85253456221197,NA,NA
35749,Madison County,AL,NA,NA,54.34412265758092,NA
35771,Jackson County,AL,NA,98.15668202764977,NA,NA
35960,Cherokee County,AL,NA,75.92165898617512,NA,NA
36010,Pike County,AL,NA,93.77880184331798,NA,NA
36067,Autauga County,AL,NA,39.97695852534562,NA,NA
36092,Elmore County,AL,NA,50.23041474654379,NA,NA
36104,Montgomery County,AL,NA,60.483870967741936,NA,NA
36303,Houston County,AL,NA,25.806451612903224,NA,NA
36420,Covington County,AL,NA,58.17972350230415,NA,61.52758132956153
36502,Escambia County,AL,NA,NA,NA,63.7906647807638
36507,Baldwin County,AL,NA,44.23963133640553,NA,NA
36854,Chambers County,AL,NA,66.47465437788019,NA,NA
99603,Kenai Peninsula Borough,AK,NA,80.99078341013825,NA,NA
99709,Fairbanks North Star Borough,AK,NA,NA,NA,84.44130127298443
99712,Fairbanks North Star Borough,AK,NA,NA,NA,96.60537482319661
99801,Juneau City and Borough,AK,NA,54.03225806451613,NA,NA
85004,Maricopa County,AZ,NA,NA,90.11925042589438,NA
85006,Maricopa County,AZ,NA,NA,45.826235093696766,NA
85009,Maricopa County,AZ,NA,47.58064516129033,NA,NA
85012,Maricopa County,AZ,NA,89.51612903225806,NA,NA
85015,Maricopa County,AZ,NA,21.658986175115206,NA,NA
85024,Maricopa County,AZ,NA,NA,81.26064735945485,NA
85028,Maricopa County,AZ,NA,NA,62.35093696763203,NA
85033,Maricopa County,AZ,NA,18.548387096774192,NA,NA
85041,Maricopa County,AZ,NA,9.56221198156682,NA,NA
85042,Maricopa County,AZ,NA,29.03225806451613,NA,NA
85044,Maricopa County,AZ,NA,22.69585253456221,50.76660988074957,NA
85048,Maricopa County,AZ,NA,81.68202764976958,NA,NA
85128,Pinal County,AZ,60.58091286307054,NA,NA,NA
85143,Pinal County,AZ,NA,72.46543778801843,38.67120954003408,NA
85193,Pinal County,AZ,NA,98.84792626728111,NA,NA
85201,Maricopa County,AZ,NA,NA,NA,37.62376237623762
85203,Maricopa County,AZ,NA,NA,NA,66.05374823196605
85205,Maricopa County,AZ,NA,NA,25.55366269165247,NA
85209,Maricopa County,AZ,29.87551867219917,NA,NA,16.548797736916548
85212,Maricopa County,AZ,NA,NA,64.73594548551958,NA
85233,Maricopa County,AZ,NA,45.39170506912442,NA,84.72418670438473
85248,Maricopa County,AZ,NA,86.52073732718894,NA,NA
85250,Maricopa County,AZ,NA,NA,87.05281090289608,NA
85251,Maricopa County,AZ,NA,44.70046082949309,NA,34.51202263083451
85254,Maricopa County,AZ,NA,NA,NA,47.38330975954738
85257,Maricopa County,AZ,NA,71.88940092165899,NA,NA
85260,Maricopa County,AZ,NA,69.81566820276498,41.90800681431005,21.923620933521924
85262,Maricopa County,AZ,NA,NA,NA,85.85572842998586
85268,Maricopa County,AZ,NA,NA,57.06984667802385,NA
85282,Maricopa County,AZ,NA,76.15207373271889,NA,NA
85283,Maricopa County,AZ,NA,21.08294930875576,26.405451448040886,NA
85286,Maricopa County,AZ,NA,38.70967741935484,NA,94.05940594059405
85296,Maricopa County,AZ,NA,37.327188940092164,NA,NA
85297,Maricopa County,AZ,NA,66.70506912442397,NA,NA
85301,Maricopa County,AZ,NA,4.6082949308755765,20.10221465076661,NA
85302,Maricopa County,AZ,41.078838174273855,NA,26.575809199318567,NA
85339,Maricopa County,AZ,NA,23.847926267281107,NA,NA
85344,La Paz County,AZ,NA,NA,NA,76.66195190947667
85351,Maricopa County,AZ,NA,75.80645161290323,NA,0.8486562942008486
85355,Maricopa County,AZ,NA,87.55760368663594,95.9114139693356,NA
85379,Maricopa County,AZ,NA,NA,NA,83.5926449787836
85388,Maricopa County,AZ,53.941908713692946,NA,NA,NA
85392,Maricopa County,AZ,NA,58.986175115207374,NA,NA
85541,Gila County,AZ,NA,54.26267281105991,NA,NA
85542,Gila County,AZ,93.3609958506224,NA,NA,NA
85550,Graham County,AZ,NA,76.95852534562212,NA,NA
85653,Pima County,AZ,NA,41.474654377880185,NA,NA
85704,Pima County,AZ,NA,NA,NA,21.64073550212164
85705,Pima County,AZ,NA,22.350230414746544,NA,NA
85710,Pima County,AZ,NA,NA,15.1618398637138,NA
85719,Pima County,AZ,NA,37.44239631336406,NA,NA
85730,Pima County,AZ,NA,NA,26.916524701873932,NA
85741,Pima County,AZ,NA,36.175115207373274,NA,NA
85756,Pima County,AZ,NA,NA,63.37308347529813,NA
86001,Coconino County,AZ,NA,NA,49.23339011925042,85.997171145686
86033,Navajo County,AZ,NA,89.28571428571429,NA,NA
86040,Coconino County,AZ,NA,NA,NA,90.52333804809052
86047,Navajo County,AZ,NA,38.594470046082954,69.50596252129472,NA
86305,Yavapai County,AZ,NA,69.35483870967742,NA,NA
86314,Yavapai County,AZ,NA,NA,78.7052810902896,8.628005657708627
86323,Yavapai County,AZ,NA,NA,61.499148211243615,NA
86326,Yavapai County,AZ,NA,26.152073732718893,NA,NA
86335,Yavapai County,AZ,NA,NA,99.31856899488926,NA
86351,Yavapai County,AZ,99.5850622406639,NA,NA,NA
86401,Mohave County,AZ,NA,10.599078341013826,NA,NA
86404,Mohave County,AZ,NA,NA,54.5144804088586,NA
86409,Mohave County,AZ,NA,8.986175115207374,NA,NA
86503,Apache County,AZ,NA,38.47926267281106,NA,NA
71603,Jefferson County,AR,NA,NA,NA,23.62093352192362
71730,Union County,AR,NA,51.1520737327189,NA,NA
71854,Miller County,AR,NA,NA,NA,32.390381895332396
71909,Garland County,AR,NA,NA,33.560477001703575,NA
72002,Saline County,AR,NA,NA,NA,64.49787835926449
72015,Saline County,AR,NA,NA,35.09369676320272,NA
72103,Saline County,AR,NA,85.82949308755761,NA,NA
72112,Jackson County,AR,NA,NA,NA,69.02404526166902
72113,Pulaski County,AR,NA,NA,NA,53.18246110325319
72116,Pulaski County,AR,NA,NA,44.4633730834753,NA
72143,White County,AR,NA,NA,10.562180579216355,NA
72173,Faulkner County,AR,NA,NA,90.63032367972743,NA
72209,Pulaski County,AR,NA,NA,69.84667802385009,NA
72210,Pulaski County,AR,NA,NA,NA,98.58557284299859
72211,Pulaski County,AR,58.50622406639005,NA,NA,NA
72401,Craighead County,AR,NA,NA,NA,13.719943422913719
72404,Craighead County,AR,NA,NA,76.66098807495742,NA
72476,Lawrence County,AR,NA,NA,93.01533219761498,NA
72560,Stone County,AR,NA,79.83870967741935,NA,NA
72601,Boone County,AR,NA,58.6405529953917,NA,NA
72638,Carroll County,AR,NA,NA,NA,97.73691654879774
72650,Searcy County,AR,NA,NA,NA,92.64497878359265
72653,Baxter County,AR,NA,48.963133640552996,NA,42.432814710042436
72734,Benton County,AR,97.5103734439834,NA,NA,NA
72756,Benton County,AR,NA,NA,37.47870528109029,NA
72762,Washington County,AR,NA,NA,59.6252129471891,NA
72949,Franklin County,AR,NA,NA,NA,74.25742574257426
90002,Los Angeles County,CA,NA,NA,60.98807495741057,NA
90003,Los Angeles County,CA,NA,72.35023041474655,NA,NA
90007,Los Angeles County,CA,NA,32.142857142857146,NA,NA
90019,Los Angeles County,CA,NA,45.622119815668206,NA,NA
90031,Los Angeles County,CA,NA,NA,71.89097103918229,NA
90032,Los Angeles County,CA,NA,NA,58.43270868824531,79.9151343705799
90034,Los Angeles County,CA,NA,49.193548387096776,NA,NA
90035,Los Angeles County,CA,NA,NA,39.86371379897785,NA
90043,Los Angeles County,CA,NA,NA,NA,32.67326732673268
90047,Los Angeles County,CA,NA,NA,NA,24.611032531824613
90049,Los Angeles County,CA,NA,NA,48.21124361158432,NA
90222,Los Angeles County,CA,NA,72.00460829493088,NA,NA
90230,Los Angeles County,CA,NA,NA,NA,48.79773691654879
90241,Los Angeles County,CA,NA,NA,NA,60.82036775106082
90247,Los Angeles County,CA,NA,NA,52.640545144804086,NA
90255,Los Angeles County,CA,NA,32.83410138248848,62.6916524701874,NA
90260,Los Angeles County,CA,83.40248962655602,NA,NA,NA
90262,Los Angeles County,CA,NA,NA,NA,58.84016973125884
90293,Los Angeles County,CA,NA,NA,86.54173764906304,NA
90403,Los Angeles County,CA,NA,NA,72.23168654173764,NA
90501,Los Angeles County,CA,NA,80.64516129032258,NA,NA
90505,Los Angeles County,CA,NA,62.096774193548384,NA,NA
90603,Los Angeles County,CA,NA,NA,NA,45.68599717114569
90650,Los Angeles County,CA,NA,NA,NA,22.48939179632249
90660,Los Angeles County,CA,NA,31.566820276497698,NA,NA
90680,Orange County,CA,NA,62.903225806451616,NA,NA
90703,Los Angeles County,CA,NA,NA,35.26405451448041,NA
90717,Los Angeles County,CA,NA,88.47926267281106,NA,56.57708628005658
90720,Orange County,CA,NA,76.49769585253456,NA,NA
90806,Los Angeles County,CA,NA,NA,85.00851788756388,NA
91007,Los Angeles County,CA,NA,93.66359447004609,NA,NA
91106,Los Angeles County,CA,NA,94.5852534562212,NA,NA
91206,Los Angeles County,CA,NA,NA,55.36626916524702,NA
91307,Los Angeles County,CA,NA,NA,83.8160136286201,NA
91316,Los Angeles County,CA,NA,NA,NA,23.33804809052334
91320,Ventura County,CA,39.83402489626556,90.09216589861751,NA,NA
91331,Los Angeles County,CA,NA,45.39170506912442,NA,NA
91342,Los Angeles County,CA,23.651452282157674,57.02764976958525,NA,NA
91362,Ventura County,CA,NA,NA,78.02385008517888,NA
91401,Los Angeles County,CA,NA,NA,33.21976149914821,NA
91701,San Bernardino County,CA,NA,NA,NA,51.76803394625177
91708,San Bernardino County,CA,95.850622406639,NA,NA,NA
91709,San Bernardino County,CA,NA,70.6221198156682,NA,42.998585572843
91711,Los Angeles County,CA,NA,86.05990783410138,NA,NA
91731,Los Angeles County,CA,NA,NA,59.28449744463373,NA
91733,Los Angeles County,CA,NA,71.31336405529954,NA,NA
91761,San Bernardino County,CA,NA,NA,34.923339011925044,NA
91762,San Bernardino County,CA,NA,38.36405529953917,NA,NA
91766,Los Angeles County,CA,NA,NA,47.18909710391823,NA
91767,Los Angeles County,CA,NA,NA,NA,50.07072135785007
91770,Los Angeles County,CA,NA,NA,NA,11.73974540311174
91773,Los Angeles County,CA,NA,NA,NA,48.656294200848656
91941,San Diego County,CA,NA,62.67281105990783,NA,NA
92021,San Diego County,CA,NA,17.3963133640553,NA,NA
92024,San Diego County,CA,NA,45.73732718894009,NA,30.12729844413013
92026,San Diego County,CA,NA,92.16589861751152,NA,NA
92027,San Diego County,CA,NA,51.382488479262676,NA,NA
92069,San Diego County,CA,NA,NA,NA,80.9052333804809
92078,San Diego County,CA,NA,NA,NA,23.47949080622348
92082,San Diego County,CA,NA,NA,NA,72.56011315417256
92101,San Diego County,CA,NA,NA,10.221465076660987,NA
92103,San Diego County,CA,NA,50.806451612903224,NA,NA
92104,San Diego County,CA,57.26141078838174,NA,NA,NA
92107,San Diego County,CA,NA,NA,72.57240204429301,NA
92111,San Diego County,CA,NA,NA,NA,26.025459688826025
92113,San Diego County,CA,NA,NA,NA,54.879773691654876
92115,San Diego County,CA,NA,NA,45.31516183986371,39.74540311173975
92123,San Diego County,CA,NA,70.96774193548387,NA,NA
92128,San Diego County,CA,NA,NA,NA,8.345120226308344
92223,Riverside County,CA,NA,NA,NA,46.11032531824611
92243,Imperial County,CA,NA,27.534562211981566,NA,16.973125884016973
92284,San Bernardino County,CA,NA,28.91705069124424,NA,NA
92301,San Bernardino County,CA,NA,NA,47.700170357751276,NA
92325,San Bernardino County,CA,NA,NA,85.8603066439523,NA
92345,San Bernardino County,CA,NA,11.29032258064516,NA,NA
92374,San Bernardino County,CA,NA,NA,88.24531516183987,NA
92394,San Bernardino County,CA,NA,53.686635944700456,NA,NA
92399,San Bernardino County,CA,NA,NA,19.591141396933562,NA
92404,San Bernardino County,CA,NA,NA,30.83475298126065,NA
92410,San Bernardino County,CA,NA,NA,31.686541737649065,NA
92501,Riverside County,CA,NA,NA,NA,86.84582743988685
92543,Riverside County,CA,NA,NA,NA,52.05091937765205
92544,Riverside County,CA,NA,NA,49.74446337308348,NA
92562,Riverside County,CA,NA,28.341013824884794,NA,NA
92585,Riverside County,CA,80.91286307053942,NA,NA,NA
92591,Riverside County,CA,NA,52.88018433179723,NA,NA
92592,Riverside County,CA,NA,NA,28.79045996592845,NA
92614,Orange County,CA,NA,NA,62.521294718909715,NA
92627,Orange County,CA,NA,NA,NA,14.285714285714285
92637,Orange County,CA,NA,NA,NA,2.828854314002829
92647,Orange County,CA,NA,NA,20.442930153321974,NA
92655,Orange County,CA,NA,NA,NA,95.04950495049505
92672,Orange County,CA,NA,NA,55.195911413969334,NA
92677,Orange County,CA,NA,36.86635944700461,NA,NA
92683,Orange County,CA,NA,NA,NA,4.101838755304102
92691,Orange County,CA,NA,NA,NA,46.81753889674682
92692,Orange County,CA,NA,NA,NA,7.779349363507778
92704,Orange County,CA,30.29045643153527,NA,NA,NA
92705,Orange County,CA,NA,NA,NA,19.377652050919377
92780,Orange County,CA,NA,41.244239631336406,NA,NA
92801,Orange County,CA,NA,NA,NA,42.00848656294201
92821,Orange County,CA,55.601659751037346,NA,NA,NA
92832,Orange County,CA,NA,NA,66.95059625212947,NA
92843,Orange County,CA,NA,73.27188940092167,NA,NA
92860,Riverside County,CA,NA,NA,NA,78.78359264497878
92869,Orange County,CA,NA,NA,50.936967632027255,NA
92870,Orange County,CA,NA,NA,22.82793867120954,12.305516265912306
92880,Riverside County,CA,NA,NA,56.04770017035775,NA
92881,Riverside County,CA,NA,NA,NA,83.73408769448373
92882,Riverside County,CA,NA,NA,NA,63.22489391796322
92883,Riverside County,CA,NA,NA,63.03236797274276,NA
93001,Ventura County,CA,NA,29.262672811059907,NA,NA
93010,Ventura County,CA,NA,37.78801843317972,NA,NA
93111,Santa Barbara County,CA,NA,NA,93.69676320272572,NA
93117,Santa Barbara County,CA,NA,86.17511520737328,NA,NA
93212,Kings County,CA,NA,NA,87.05281090289608,NA
93215,Kern County,CA,NA,87.44239631336406,NA,NA
93230,Kings County,CA,NA,NA,14.65076660988075,NA
93245,Kings County,CA,NA,67.16589861751152,NA,NA
93257,Tulare County,CA,NA,NA,22.14650766609881,NA
93274,Tulare County,CA,NA,5.529953917050691,NA,NA
93291,Tulare County,CA,NA,NA,39.69335604770017,NA
93292,Tulare County,CA,NA,NA,NA,55.58698727015559
93304,Kern County,CA,NA,NA,80.23850085178876,NA
93311,Kern County,CA,NA,NA,85.34923339011925,NA
93433,San Luis Obispo County,CA,NA,NA,89.60817717206133,97.31258840169731
93436,Santa Barbara County,CA,NA,NA,NA,10.74964639321075
93446,San Luis Obispo County,CA,NA,29.953917050691242,NA,51.34370579915134
93455,Santa Barbara County,CA,NA,NA,NA,10.466760961810467
93535,Los Angeles County,CA,NA,9.90783410138249,NA,NA
93555,Kern County,CA,NA,NA,NA,35.92644978783593
93611,Fresno County,CA,NA,NA,37.30834752981261,58.27439886845828
93648,Fresno County,CA,NA,89.97695852534562,NA,NA
93702,Fresno County,CA,NA,32.02764976958525,35.945485519591145,NA
93703,Fresno County,CA,NA,NA,59.11413969335605,NA
93705,Fresno County,CA,NA,36.75115207373272,NA,NA
93710,Fresno County,CA,NA,66.12903225806451,NA,NA
93720,Fresno County,CA,NA,37.21198156682028,NA,NA
93722,Fresno County,CA,22.40663900414938,NA,NA,NA
93727,Fresno County,CA,NA,16.129032258064516,NA,NA
93901,Monterey County,CA,70.95435684647303,NA,NA,NA
93906,Monterey County,CA,NA,74.53917050691244,NA,44.837340876944836
93907,Monterey County,CA,NA,94.12442396313364,NA,NA
93955,Monterey County,CA,NA,43.77880184331797,NA,NA
93960,Monterey County,CA,NA,NA,NA,98.44413012729845
94015,San Mateo County,CA,NA,49.07834101382488,NA,NA
94086,Santa Clara County,CA,NA,NA,NA,55.86987270155587
94102,San Francisco County,CA,NA,7.949308755760369,36.79727427597956,NA
94103,San Francisco County,CA,84.23236514522821,NA,NA,NA
94118,San Francisco County,CA,NA,NA,NA,19.094766619519092
94124,San Francisco County,CA,NA,NA,19.931856899488924,NA
94158,San Francisco County,CA,96.6804979253112,NA,NA,NA
94303,San Mateo County,CA,NA,30.760368663594466,NA,NA
94521,Contra Costa County,CA,NA,NA,NA,22.206506364922205
94526,Contra Costa County,CA,NA,NA,51.618398637137986,NA
94536,Alameda County,CA,NA,35.13824884792627,21.80579216354344,NA
94550,Alameda County,CA,41.49377593360996,NA,NA,NA
94560,Alameda County,CA,NA,NA,49.063032367972745,NA
94565,Contra Costa County,CA,NA,24.193548387096776,NA,NA
94577,Alameda County,CA,NA,NA,35.77512776831346,NA
94591,Solano County,CA,NA,NA,41.396933560477,NA
94597,Contra Costa County,CA,NA,NA,NA,80.19801980198021
94606,Alameda County,CA,NA,85.13824884792626,NA,NA
94611,Alameda County,CA,NA,66.12903225806451,22.657580919931856,NA
94612,Alameda County,CA,NA,79.3778801843318,NA,NA
94621,Alameda County,CA,NA,NA,89.26746166950596,NA
94965,Marin County,CA,NA,NA,NA,95.61527581329563
95037,Santa Clara County,CA,NA,60.59907834101382,NA,NA
95060,Santa Cruz County,CA,NA,NA,NA,71.14568599717114
95073,Santa Cruz County,CA,NA,NA,NA,91.65487977369166
95076,Santa Cruz County,CA,NA,22.465437788018434,53.833049403747864,32.53182461103253
95205,San Joaquin County,CA,NA,NA,NA,78.07637906647807
95207,San Joaquin County,CA,NA,58.41013824884793,NA,77.93493635077795
95209,San Joaquin County,CA,NA,90.43778801843318,NA,NA
95355,Stanislaus County,CA,NA,9.216589861751153,NA,NA
95382,Stanislaus County,CA,NA,26.843317972350228,NA,NA
95403,Sonoma County,CA,69.70954356846472,NA,NA,NA
95404,Sonoma County,CA,NA,NA,81.94207836456559,NA
95405,Sonoma County,CA,NA,NA,56.04770017035775,NA
95458,Lake County,CA,NA,NA,99.65928449744463,NA
95472,Sonoma County,CA,NA,NA,NA,53.46534653465347
95482,Mendocino County,CA,NA,41.12903225806452,NA,NA
95490,Mendocino County,CA,NA,79.26267281105991,NA,NA
95501,Humboldt County,CA,NA,NA,36.45655877342419,NA
95503,Humboldt County,CA,NA,NA,48.21124361158432,NA
95602,Placer County,CA,NA,NA,51.959114139693355,NA
95610,Sacramento County,CA,NA,50.34562211981567,NA,NA
95616,Yolo County,CA,NA,NA,67.12095400340715,NA
95628,Sacramento County,CA,NA,66.01382488479263,NA,NA
95630,Sacramento County,CA,NA,NA,NA,22.913719943422915
95640,Amador County,CA,NA,NA,92.84497444633732,NA
95660,Sacramento County,CA,NA,NA,NA,61.1032531824611
95670,Sacramento County,CA,NA,38.13364055299539,NA,25.601131541725604
95687,Solano County,CA,NA,42.51152073732719,NA,NA
95746,Placer County,CA,NA,NA,77.17206132879046,NA
95820,Sacramento County,CA,NA,55.64516129032258,NA,NA
95821,Sacramento County,CA,NA,47.235023041474655,NA,NA
95825,Sacramento County,CA,NA,81.5668202764977,66.43952299829643,NA
95826,Sacramento County,CA,NA,NA,NA,54.17256011315418
95838,Sacramento County,CA,NA,NA,NA,65.06364922206507
95843,Sacramento County,CA,NA,65.66820276497695,NA,NA
95945,Nevada County,CA,NA,NA,NA,24.328147100424328
95949,Nevada County,CA,NA,NA,NA,78.64214992927863
95965,Butte County,CA,NA,NA,NA,42.57425742574257
96003,Shasta County,CA,NA,NA,NA,25.884016973125885
96007,Shasta County,CA,NA,NA,NA,59.4059405940594
96080,Tehama County,CA,NA,NA,26.74616695059625,75.3889674681754
96130,Lassen County,CA,NA,78.45622119815668,NA,NA
80011,Arapahoe County,CO,NA,7.71889400921659,NA,NA
80020,Broomfield County,CO,16.182572614107883,NA,34.582623509369675,NA
80021,Jefferson County,CO,NA,NA,NA,64.07355021216408
80023,Broomfield County,CO,NA,NA,94.71890971039181,NA
80027,Boulder County,CO,44.398340248962654,NA,NA,NA
80104,Douglas County,CO,NA,60.71428571428571,NA,NA
80108,Douglas County,CO,33.60995850622407,NA,NA,NA
80109,Douglas County,CO,46.47302904564315,NA,NA,NA
80110,Arapahoe County,CO,NA,71.08294930875576,NA,NA
80120,Arapahoe County,CO,NA,NA,51.4480408858603,NA
80121,Arapahoe County,CO,NA,95.16129032258065,NA,NA
80205,Denver County,CO,NA,14.285714285714285,NA,NA
80219,Denver County,CO,NA,NA,21.976149914821125,NA
80221,Adams County,CO,NA,35.8294930875576,NA,NA
80226,Jefferson County,CO,58.921161825726145,53.3410138248848,NA,NA
80231,Denver County,CO,NA,43.08755760368664,NA,NA
80232,Jefferson County,CO,NA,NA,NA,50.21216407355021
80233,Adams County,CO,NA,29.838709677419356,NA,NA
80403,Jefferson County,CO,NA,NA,84.32708688245314,NA
80465,Jefferson County,CO,NA,89.63133640552995,NA,NA
80487,Routt County,CO,NA,97.23502304147466,NA,NA
80504,Boulder County,CO,12.448132780082988,NA,NA,NA
80516,Weld County,CO,NA,70.50691244239631,NA,NA
80521,Larimer County,CO,NA,72.58064516129032,NA,NA
80524,Larimer County,CO,NA,33.6405529953917,NA,NA
80525,Larimer County,CO,NA,NA,NA,37.05799151343705
80537,Larimer County,CO,NA,23.732718894009217,70.52810902896081,NA
80538,Larimer County,CO,NA,13.594470046082948,NA,NA
80550,Weld County,CO,NA,32.94930875576037,NA,NA
80602,Adams County,CO,36.51452282157676,NA,NA,NA
80751,Logan County,CO,NA,NA,NA,67.04384724186704
80906,El Paso County,CO,NA,65.78341013824884,NA,NA
80911,El Paso County,CO,27.800829875518673,NA,NA,NA
80916,El Paso County,CO,NA,40.43778801843318,NA,NA
80918,El Paso County,CO,NA,50.69124423963134,NA,NA
80922,El Paso County,CO,NA,60.023041474654384,NA,NA
81007,Pueblo County,CO,28.63070539419087,NA,NA,NA
81089,Huerfano County,CO,NA,NA,NA,83.87553041018387
81201,Chaffee County,CO,NA,NA,78.53492333901193,NA
81226,Fremont County,CO,NA,NA,NA,94.48373408769449
81301,La Plata County,CO,NA,59.10138248847926,NA,53.46534653465347
81323,Montezuma County,CO,NA,NA,NA,61.24469589816125
81401,Montrose County,CO,NA,NA,43.441226575809196,66.33663366336634
81503,Mesa County,CO,60.16597510373444,NA,NA,NA
81504,Mesa County,CO,NA,33.87096774193548,NA,NA
81520,Mesa County,CO,NA,91.93548387096774,NA,NA
81632,Eagle County,CO,NA,NA,NA,97.45403111739745
81635,Garfield County,CO,NA,94.23963133640552,NA,NA
81650,Garfield County,CO,NA,82.02764976958525,NA,NA
06029,Tolland County,CT,NA,NA,NA,54.596888260254595
06040,Hartford County,CT,NA,NA,18.39863713798978,NA
06074,Hartford County,CT,NA,NA,NA,26.732673267326735
06082,Hartford County,CT,NA,22.119815668202765,NA,NA
06084,Tolland County,CT,NA,NA,NA,59.12305516265912
06095,Hartford County,CT,NA,44.93087557603687,NA,NA
06105,Hartford County,CT,NA,NA,NA,55.72842998585573
06118,Hartford County,CT,NA,27.764976958525345,NA,NA
06255,Windham County,CT,64.31535269709543,NA,NA,NA
06418,New Haven County,CT,NA,72.92626728110599,NA,NA
06443,New Haven County,CT,NA,NA,32.70868824531516,NA
06471,New Haven County,CT,NA,92.62672811059907,NA,NA
06473,New Haven County,CT,NA,NA,32.538330494037474,NA
06489,Hartford County,CT,NA,NA,NA,6.647807637906649
06492,New Haven County,CT,NA,NA,NA,4.526166902404526
06511,New Haven County,CT,NA,4.377880184331797,NA,NA
06512,New Haven County,CT,NA,NA,NA,12.871287128712872
06516,New Haven County,CT,NA,7.142857142857142,NA,NA
06517,New Haven County,CT,65.14522821576763,NA,NA,NA
06519,New Haven County,CT,NA,26.036866359447004,NA,NA
06605,Fairfield County,CT,NA,NA,NA,79.4908062234795
06606,Fairfield County,CT,NA,NA,34.75298126064736,NA
06770,New Haven County,CT,NA,26.497695852534562,NA,NA
06820,Fairfield County,CT,NA,78.3410138248848,NA,NA
06830,Fairfield County,CT,NA,67.85714285714286,NA,NA
06840,Fairfield County,CT,NA,NA,79.21635434412265,NA
06878,Fairfield County,CT,NA,NA,96.42248722316864,NA
06902,Fairfield County,CT,NA,23.387096774193548,NA,NA
19709,New Castle County,DE,NA,NA,NA,28.28854314002829
19713,New Castle County,DE,NA,34.21658986175115,NA,NA
19802,New Castle County,DE,NA,16.705069124423964,NA,NA
19804,New Castle County,DE,NA,31.566820276497698,NA,NA
19805,New Castle County,DE,NA,2.3041474654377883,40.71550255536627,NA
19806,New Castle County,DE,NA,NA,75.46848381601363,NA
19808,New Castle County,DE,34.024896265560166,59.56221198156682,NA,NA
19947,Sussex County,DE,NA,NA,43.441226575809196,NA
32068,Clay County,FL,80.91286307053942,NA,NA,NA
32073,Clay County,FL,NA,NA,NA,19.801980198019802
32082,St. Johns County,FL,NA,61.63594470046083,NA,NA
32084,St. Johns County,FL,NA,NA,NA,33.946251768033946
32086,St. Johns County,FL,NA,NA,17.206132879045995,NA
32087,Baker County,FL,NA,95.39170506912443,NA,NA
32092,St. Johns County,FL,NA,NA,42.759795570698465,NA
32114,Volusia County,FL,NA,NA,44.804088586030666,NA
32148,Putnam County,FL,NA,NA,91.48211243611584,NA
32159,Lake County,FL,NA,NA,22.998296422487225,NA
32177,Putnam County,FL,NA,NA,NA,47.1004243281471
32204,Duval County,FL,NA,NA,96.25212947189097,NA
32205,Duval County,FL,NA,NA,NA,70.43847241867044
32208,Duval County,FL,NA,NA,6.984667802385008,NA
32216,Duval County,FL,NA,21.889400921658986,NA,NA
32218,Duval County,FL,14.107883817427386,NA,23.509369676320272,NA
32221,Duval County,FL,NA,NA,NA,43.42291371994342
32223,Duval County,FL,NA,NA,NA,49.36350777934936
32226,Duval County,FL,NA,NA,56.558773424190804,NA
32244,Duval County,FL,NA,5.299539170506913,NA,NA
32250,Duval County,FL,NA,63.36405529953917,NA,NA
32257,Duval County,FL,NA,27.188940092165897,NA,NA
32258,Duval County,FL,NA,NA,37.13798977853492,NA
32259,St. Johns County,FL,NA,49.423963133640555,NA,NA
32351,Gadsden County,FL,NA,88.24884792626729,NA,NA
32567,Okaloosa County,FL,98.7551867219917,NA,NA,NA
32571,Santa Rosa County,FL,NA,14.976958525345621,NA,NA
32609,Alachua County,FL,NA,NA,52.98126064735945,NA
32696,Levy County,FL,58.09128630705395,NA,52.12947189097103,NA
32701,Seminole County,FL,NA,59.7926267281106,NA,NA
32720,Volusia County,FL,NA,NA,40.54514480408859,NA
32725,Volusia County,FL,NA,39.516129032258064,NA,NA
32780,Brevard County,FL,NA,75,15.843270868824533,3.818953323903819
32806,Orange County,FL,NA,NA,NA,31.541725601131542
32822,Orange County,FL,NA,NA,NA,31.400282885431402
32825,Orange County,FL,NA,35.714285714285715,NA,NA
32901,Brevard County,FL,NA,NA,NA,19.943422913719942
32955,Brevard County,FL,79.66804979253112,54.83870967741935,NA,NA
33009,Broward County,FL,NA,NA,NA,7.920792079207921
33010,Miami-Dade County,FL,NA,NA,NA,8.91089108910891
33014,Miami-Dade County,FL,72.61410788381743,NA,NA,NA
33024,Broward County,FL,NA,NA,23.850085178875638,18.246110325318245
33029,Broward County,FL,NA,64.28571428571429,NA,NA
33054,Miami-Dade County,FL,NA,NA,75.29812606473595,NA
33133,Miami-Dade County,FL,NA,NA,42.4190800681431,NA
33136,Miami-Dade County,FL,NA,NA,83.64565587734242,NA
33140,Miami-Dade County,FL,NA,NA,NA,20.792079207920793
33154,Miami-Dade County,FL,NA,NA,NA,32.10749646393211
33155,Miami-Dade County,FL,NA,NA,NA,9.759547383309759
33165,Miami-Dade County,FL,NA,63.824884792626726,NA,NA
33174,Miami-Dade County,FL,NA,NA,70.86882453151618,NA
33183,Miami-Dade County,FL,NA,82.7188940092166,NA,NA
33185,Miami-Dade County,FL,NA,NA,NA,69.73125884016973
33193,Miami-Dade County,FL,NA,66.93548387096774,NA,NA
33312,Broward County,FL,NA,38.94009216589861,NA,NA
33330,Broward County,FL,NA,94.00921658986175,NA,NA
33331,Broward County,FL,NA,NA,NA,69.44837340876944
33404,Palm Beach County,FL,NA,NA,80.40885860306643,43.14002828854314
33405,Palm Beach County,FL,NA,NA,NA,74.1159830268741
33408,Palm Beach County,FL,NA,78.2258064516129,NA,NA
33433,Palm Beach County,FL,NA,NA,NA,2.4045261669024045
33437,Palm Beach County,FL,NA,NA,NA,0.2828854314002829
33467,Palm Beach County,FL,NA,NA,25.2129471890971,NA
33484,Palm Beach County,FL,NA,84.7926267281106,NA,NA
33544,Pasco County,FL,NA,84.44700460829493,NA,NA
33547,Hillsborough County,FL,NA,NA,NA,67.46817538896747
33573,Hillsborough County,FL,NA,NA,NA,2.6874115983026874
33612,Hillsborough County,FL,NA,NA,85.68994889267462,NA
33614,Hillsborough County,FL,38.17427385892116,NA,NA,NA
33615,Hillsborough County,FL,NA,31.912442396313363,32.87904599659284,NA
33716,Pinellas County,FL,78.83817427385893,NA,NA,NA
33762,Pinellas County,FL,NA,97.58064516129032,NA,NA
33839,Polk County,FL,NA,98.38709677419355,NA,NA
33843,Polk County,FL,NA,94.81566820276498,NA,NA
33852,Highlands County,FL,NA,NA,NA,5.091937765205092
33873,Hardee County,FL,85.47717842323651,NA,NA,NA
33908,Lee County,FL,NA,NA,NA,0.7072135785007072
33914,Lee County,FL,NA,NA,NA,18.81188118811881
33948,Charlotte County,FL,NA,85.9447004608295,NA,NA
33981,Charlotte County,FL,NA,NA,73.93526405451448,NA
34116,Collier County,FL,NA,52.53456221198156,NA,NA
34119,Collier County,FL,NA,NA,NA,16.973125884016973
34207,Manatee County,FL,NA,NA,57.240204429301535,NA
34235,Sarasota County,FL,NA,NA,NA,34.37057991513437
34236,Sarasota County,FL,NA,NA,68.14310051107326,NA
34243,Manatee County,FL,NA,NA,NA,6.082036775106082
34287,Sarasota County,FL,NA,56.68202764976959,NA,NA
34472,Marion County,FL,NA,73.15668202764977,NA,NA
34480,Marion County,FL,NA,NA,NA,78.50070721357851
34601,Hernando County,FL,NA,NA,87.9045996592845,NA
34606,Hernando County,FL,NA,NA,NA,68.88260254596888
34639,Pasco County,FL,NA,83.98617511520737,NA,NA
34677,Pinellas County,FL,NA,NA,81.09028960817717,NA
34690,Pasco County,FL,NA,NA,NA,96.03960396039604
34715,Lake County,FL,NA,NA,73.25383304940375,NA
34744,Osceola County,FL,NA,30.069124423963135,NA,NA
34758,Osceola County,FL,NA,NA,NA,62.51768033946252
34759,Polk County,FL,NA,NA,45.99659284497445,NA
34761,Orange County,FL,NA,44.47004608294931,NA,NA
34950,St. Lucie County,FL,NA,57.48847926267281,NA,NA
34952,St. Lucie County,FL,NA,NA,NA,6.223479490806223
34957,Martin County,FL,NA,NA,35.604770017035776,71.57001414427157
34972,Okeechobee County,FL,NA,63.133640552995395,NA,NA
34974,Okeechobee County,FL,NA,NA,NA,39.17963224893918
34997,Martin County,FL,56.016597510373444,NA,8.858603066439523,3.9603960396039604
30008,Cobb County,GA,NA,NA,73.25383304940375,NA
30016,Newton County,GA,NA,NA,19.08006814310051,NA
30039,Gwinnett County,GA,NA,74.30875576036865,NA,NA
30041,Forsyth County,GA,22.821576763485478,NA,NA,NA
30068,Cobb County,GA,NA,76.84331797235023,NA,NA
30087,DeKalb County,GA,NA,64.97695852534562,NA,NA
30094,Rockdale County,GA,NA,51.1520737327189,31.85689948892675,NA
30101,Cobb County,GA,NA,NA,NA,41.018387553041016
30114,Cherokee County,GA,NA,NA,28.279386712095402,NA
30116,Carroll County,GA,NA,52.30414746543779,NA,NA
30125,Polk County,GA,NA,41.705069124423964,NA,NA
30141,Paulding County,GA,NA,NA,71.7206132879046,NA
30144,Cobb County,GA,NA,39.74654377880184,NA,NA
30153,Polk County,GA,52.282157676348554,NA,82.62350936967631,NA
30168,Cobb County,GA,NA,NA,86.20102214650767,NA
30213,Fulton County,GA,NA,NA,65.58773424190801,NA
30224,Spalding County,GA,71.78423236514523,57.71889400921659,NA,NA
30228,Henry County,GA,NA,34.10138248847927,NA,NA
30240,Troup County,GA,15.352697095435685,NA,NA,NA
30248,Henry County,GA,74.27385892116183,NA,NA,NA
30273,Clayton County,GA,NA,64.86175115207374,NA,NA
30286,Upson County,GA,NA,NA,53.4923339011925,NA
30291,Fulton County,GA,NA,43.4331797235023,NA,NA
30294,DeKalb County,GA,NA,NA,NA,68.17538896746818
30311,Fulton County,GA,NA,NA,NA,15.417256011315416
30328,Fulton County,GA,NA,NA,NA,31.966053748231964
30350,Fulton County,GA,NA,NA,85.51959114139693,NA
30401,Emanuel County,GA,NA,NA,65.75809199318569,NA
30442,Jenkins County,GA,NA,NA,96.9335604770017,NA
30461,Bulloch County,GA,59.75103734439834,78.80184331797236,NA,NA
30518,Gwinnett County,GA,NA,NA,36.96763202725724,NA
30655,Walton County,GA,NA,NA,NA,57.001414427157
30662,Franklin County,GA,NA,95.27649769585254,NA,NA
30683,Clarke County,GA,NA,NA,NA,87.27015558698727
30904,Richmond County,GA,42.738589211618255,NA,NA,NA
30906,Richmond County,GA,NA,7.603686635944701,6.303236797274275,NA
30907,Columbia County,GA,NA,27.99539170506912,NA,NA
31082,Washington County,GA,NA,NA,72.40204429301534,NA
31087,Hancock County,GA,NA,86.63594470046083,NA,NA
31088,Houston County,GA,NA,NA,NA,14.002828854314004
31206,Bibb County,GA,NA,67.97235023041475,NA,NA
31501,Ware County,GA,NA,NA,NA,54.73833097595474
31503,Ware County,GA,NA,NA,NA,54.03111739745403
31510,Bacon County,GA,NA,NA,93.18568994889267,NA
31602,Lowndes County,GA,NA,NA,NA,33.663366336633665
31605,Lowndes County,GA,NA,NA,NA,75.3889674681754
31620,Cook County,GA,NA,NA,91.9931856899489,NA
31763,Lee County,GA,NA,NA,67.12095400340715,NA
31774,Irwin County,GA,NA,NA,91.14139693356049,NA
31792,Thomas County,GA,61.82572614107884,NA,NA,NA
31907,Muscogee County,GA,NA,8.525345622119817,NA,NA
39819,Decatur County,GA,NA,NA,81.7717206132879,NA
96706,Honolulu County,HI,13.278008298755188,NA,NA,NA
96749,Hawaii County,HI,NA,83.75576036866359,NA,NA
96750,Hawaii County,HI,NA,98.50230414746544,NA,NA
96797,Honolulu County,HI,NA,8.640552995391705,NA,NA
96815,Honolulu County,HI,70.12448132780082,NA,NA,NA
96821,Honolulu County,HI,NA,NA,NA,12.729844413012732
83301,Twin Falls County,ID,NA,NA,NA,0.14144271570014144
83318,Cassia County,ID,NA,NA,49.23339011925042,NA
83333,Blaine County,ID,NA,NA,NA,73.55021216407354
83340,Blaine County,ID,NA,NA,58.77342419080068,NA
83647,Elmore County,ID,NA,49.53917050691244,NA,46.39321074964639
83651,Canyon County,ID,26.970954356846473,NA,NA,NA
83686,Canyon County,ID,NA,NA,4.770017035775128,NA
83702,Ada County,ID,NA,NA,19.761499148211243,NA
83709,Ada County,ID,NA,NA,5.45144804088586,3.6775106082036775
83815,Kootenai County,ID,NA,NA,NA,13.295615275813297
83858,Kootenai County,ID,NA,NA,NA,60.96181046676096
83864,Bonner County,ID,NA,NA,NA,52.33380480905233
60010,Lake County,IL,NA,43.894009216589865,NA,NA
60056,Cook County,IL,NA,NA,13.798977853492334,NA
60062,Cook County,IL,NA,NA,NA,0.4243281471004243
60067,Cook County,IL,NA,NA,NA,10.891089108910892
60091,Cook County,IL,NA,NA,NA,12.446958981612447
60093,Cook County,IL,NA,NA,NA,24.045261669024047
60120,Kane County,IL,NA,30.414746543778804,NA,NA
60123,Kane County,IL,NA,NA,14.821124361158432,15.983026874115982
60124,Kane County,IL,NA,NA,NA,40.31117397454031
60131,Cook County,IL,NA,76.38248847926268,NA,NA
60134,Kane County,IL,NA,NA,NA,26.874115983026876
60148,DuPage County,IL,NA,16.589861751152075,NA,NA
60164,Cook County,IL,NA,NA,43.95229982964225,NA
60177,Kane County,IL,NA,62.44239631336406,NA,NA
60181,DuPage County,IL,56.43153526970954,NA,NA,NA
60188,DuPage County,IL,NA,NA,22.31686541737649,NA
60194,Cook County,IL,NA,77.76497695852534,NA,NA
60409,Cook County,IL,NA,33.294930875576036,NA,NA
60411,Cook County,IL,53.941908713692946,NA,NA,NA
60435,Will County,IL,NA,40.55299539170507,NA,NA
60439,Cook County,IL,NA,NA,16.86541737649063,NA
60440,Will County,IL,NA,22.811059907834103,NA,NA
60447,Grundy County,IL,NA,NA,77.8534923339012,NA
60462,Cook County,IL,NA,29.60829493087558,NA,NA
60463,Cook County,IL,NA,NA,NA,62.37623762376238
60471,Cook County,IL,NA,NA,67.80238500851789,NA
60472,Cook County,IL,NA,NA,95.22998296422487,NA
60473,Cook County,IL,NA,60.944700460829495,NA,NA
60477,Cook County,IL,NA,29.377880184331794,NA,NA
60478,Cook County,IL,NA,81.33640552995391,NA,NA
60491,Will County,IL,NA,40.09216589861751,NA,NA
60607,Cook County,IL,NA,NA,49.74446337308348,NA
60613,Cook County,IL,NA,30.87557603686636,NA,NA
60616,Cook County,IL,NA,40.668202764976954,NA,NA
60617,Cook County,IL,NA,NA,2.72572402044293,2.263083451202263
60618,Cook County,IL,NA,8.870967741935484,NA,NA
60619,Cook County,IL,NA,5.990783410138248,NA,1.4144271570014144
60625,Cook County,IL,NA,NA,13.458262350936966,16.124469589816123
60628,Cook County,IL,19.91701244813278,NA,NA,NA
60632,Cook County,IL,NA,NA,29.642248722316864,NA
60637,Cook County,IL,NA,17.51152073732719,NA,NA
60639,Cook County,IL,NA,10.483870967741936,NA,NA
60640,Cook County,IL,NA,9.44700460829493,NA,NA
60641,Cook County,IL,NA,14.631336405529954,NA,NA
60644,Cook County,IL,NA,NA,NA,13.578500707213578
60647,Cook County,IL,NA,55.52995391705069,NA,NA
60649,Cook County,IL,NA,NA,NA,15.275813295615276
60653,Cook County,IL,NA,NA,31.3458262350937,NA
60655,Cook County,IL,NA,32.6036866359447,NA,NA
60660,Cook County,IL,NA,NA,NA,36.77510608203677
60901,Kankakee County,IL,NA,NA,NA,7.213578500707214
60954,Kankakee County,IL,NA,NA,NA,73.97454031117398
60970,Iroquois County,IL,NA,82.37327188940093,NA,NA
61008,Boone County,IL,NA,37.672811059907836,NA,30.834512022630832
61032,Stephenson County,IL,NA,NA,NA,10.325318246110324
61072,Winnebago County,IL,NA,NA,NA,83.30975954738331
61108,Winnebago County,IL,NA,NA,25.04258943781942,NA
61111,Winnebago County,IL,NA,82.25806451612904,NA,NA
61270,Whiteside County,IL,NA,NA,81.26064735945485,NA
61364,LaSalle County,IL,NA,NA,NA,43.28147100424328
61571,Tazewell County,IL,NA,NA,NA,51.34370579915134
61603,Peoria County,IL,NA,70.73732718894009,NA,NA
61604,Peoria County,IL,NA,NA,41.05621805792163,NA
61832,Vermilion County,IL,NA,11.52073732718894,NA,NA
61866,Champaign County,IL,NA,NA,NA,64.92220650636492
62035,Madison County,IL,NA,NA,NA,40.31117397454031
62095,Madison County,IL,NA,NA,82.11243611584327,NA
62232,St. Clair County,IL,NA,NA,NA,88.4016973125884
62439,Lawrence County,IL,NA,NA,NA,82.46110325318247
62441,Clark County,IL,NA,NA,NA,91.51343705799151
62454,Crawford County,IL,NA,NA,76.49063032367974,57.567185289957564
62521,Macon County,IL,NA,14.170506912442397,NA,NA
62561,Sangamon County,IL,NA,NA,NA,98.16124469589816
62702,Sangamon County,IL,NA,28.686635944700463,NA,NA
62707,Sangamon County,IL,NA,NA,99.82964224872232,NA
62966,Jackson County,IL,NA,NA,50.08517887563884,NA
46011,Madison County,IN,NA,NA,21.12436115843271,NA
46033,Hamilton County,IN,NA,NA,NA,42.71570014144272
46060,Hamilton County,IN,43.983402489626556,NA,NA,34.93635077793494
46062,Hamilton County,IN,NA,NA,15.502555366269167,NA
46077,Boone County,IN,76.76348547717843,NA,NA,NA
46135,Putnam County,IN,NA,NA,NA,38.75530410183875
46142,Johnson County,IN,NA,48.27188940092166,NA,NA
46151,Morgan County,IN,NA,NA,NA,28.854314002828858
46203,Marion County,IN,NA,9.7926267281106,NA,NA
46204,Marion County,IN,NA,46.31336405529954,NA,NA
46221,Marion County,IN,NA,NA,NA,67.89250353606789
46237,Marion County,IN,NA,NA,NA,11.598302687411598
46260,Marion County,IN,NA,NA,49.57410562180579,NA
46278,Marion County,IN,NA,NA,NA,91.93776520509194
46312,Lake County,IN,NA,NA,41.56729131175469,NA
46322,Lake County,IN,NA,NA,NA,9.193776520509193
46324,Lake County,IN,NA,NA,27.2572402044293,NA
46327,Lake County,IN,NA,NA,57.921635434412266,75.67185289957567
46341,Porter County,IN,NA,NA,NA,86.98727015558698
46360,LaPorte County,IN,NA,49.76958525345622,NA,NA
46385,Porter County,IN,9.54356846473029,NA,NA,NA
46403,Lake County,IN,NA,NA,62.180579216354346,NA
46526,Elkhart County,IN,NA,61.175115207373274,NA,40.169731258840166
46545,St. Joseph County,IN,NA,53.11059907834101,NA,NA
46562,Kosciusko County,IN,NA,NA,94.8892674616695,NA
46614,St. Joseph County,IN,21.991701244813278,NA,NA,NA
46619,St. Joseph County,IN,NA,NA,NA,75.8132956152758
46706,DeKalb County,IN,NA,89.86175115207374,NA,NA
46721,DeKalb County,IN,NA,93.89400921658986,NA,NA
46725,Whitley County,IN,NA,NA,20.61328790459966,NA
46750,Huntington County,IN,NA,NA,NA,22.065063649222065
46755,Noble County,IN,NA,64.74654377880185,NA,NA
46767,Noble County,IN,88.38174273858921,NA,NA,NA
46806,Allen County,IN,NA,NA,NA,72.56011315417256
46808,Allen County,IN,NA,69.93087557603687,NA,NA
46825,Allen County,IN,7.468879668049793,NA,NA,31.824611032531823
46901,Howard County,IN,9.95850622406639,67.51152073732719,73.59454855195912,4.809052333804809
46902,Howard County,IN,NA,3.8018433179723505,24.87223168654174,NA
46914,Miami County,IN,NA,99.07834101382488,NA,NA
46947,Cass County,IN,0,NA,NA,NA
46952,Grant County,IN,NA,21.19815668202765,NA,NA
46953,Grant County,IN,NA,NA,11.41396933560477,NA
46970,Miami County,IN,NA,NA,NA,68.31683168316832
46979,Howard County,IN,NA,88.70967741935483,NA,NA
46992,Wabash County,IN,52.282157676348554,NA,NA,NA
47112,Harrison County,IN,NA,NA,NA,65.62942008486563
47165,Washington County,IN,NA,87.78801843317973,NA,NA
47201,Bartholomew County,IN,NA,NA,12.265758091993186,NA
47203,Bartholomew County,IN,NA,39.40092165898618,21.29471890971039,NA
47250,Jefferson County,IN,NA,71.7741935483871,NA,NA
47274,Jackson County,IN,NA,30.99078341013825,NA,NA
47302,Delaware County,IN,NA,21.313364055299537,NA,NA
47304,Delaware County,IN,NA,NA,44.29301533219762,NA
47356,Henry County,IN,NA,NA,NA,87.83592644978783
47374,Wayne County,IN,6.224066390041494,NA,25.72402044293015,NA
47403,Monroe County,IN,NA,NA,55.70698466780238,NA
47448,Brown County,IN,NA,NA,91.31175468483816,NA
47807,Vigo County,IN,NA,51.03686635944701,NA,NA
47933,Montgomery County,IN,NA,35.483870967741936,NA,NA
50010,Story County,IA,NA,NA,NA,68.45827439886845
50021,Polk County,IA,NA,78.11059907834101,NA,NA
50035,Polk County,IA,NA,98.50230414746544,NA,NA
50111,Polk County,IA,NA,NA,NA,98.86845827439888
50316,Polk County,IA,NA,46.08294930875576,NA,NA
50320,Polk County,IA,NA,80.87557603686636,NA,NA
50461,Mitchell County,IA,NA,NA,NA,89.3917963224894
50548,Humboldt County,IA,NA,NA,89.09710391822829,NA
50703,Black Hawk County,IA,NA,31.797235023041477,NA,NA
51108,Woodbury County,IA,70.95435684647303,NA,NA,NA
51360,Dickinson County,IA,NA,91.3594470046083,NA,NA
51501,Pottawattamie County,IA,NA,2.7649769585253456,NA,NA
51601,Page County,IA,NA,91.47465437788019,NA,NA
52240,Johnson County,IA,NA,NA,18.909710391822827,NA
52317,Johnson County,IA,NA,NA,75.63884156729131,NA
52537,Davis County,IA,NA,NA,79.38671209540034,NA
52641,Henry County,IA,NA,NA,NA,53.74823196605375
52722,Scott County,IA,NA,23.04147465437788,NA,NA
52761,Muscatine County,IA,NA,12.903225806451612,NA,NA
52804,Scott County,IA,NA,19.00921658986175,NA,NA
66025,Douglas County,KS,NA,NA,NA,94.76661951909476
66049,Douglas County,KS,76.76348547717843,NA,NA,NA
66062,Johnson County,KS,NA,NA,52.29982964224872,14.85148514851485
66202,Johnson County,KS,NA,NA,NA,66.61951909476662
66203,Johnson County,KS,NA,84.10138248847926,NA,NA
66221,Johnson County,KS,48.54771784232365,NA,NA,NA
66605,Shawnee County,KS,NA,81.79723502304147,NA,NA
66611,Shawnee County,KS,NA,NA,NA,69.3069306930693
67042,Butler County,KS,NA,88.82488479262672,NA,NA
67152,Sumner County,KS,NA,NA,NA,78.21782178217822
67156,Cowley County,KS,NA,NA,NA,48.51485148514851
67204,Sedgwick County,KS,NA,NA,NA,77.36916548797737
67214,Sedgwick County,KS,80.08298755186722,NA,NA,NA
67218,Sedgwick County,KS,NA,78.68663594470046,87.73424190800682,NA
67220,Sedgwick County,KS,NA,NA,NA,98.72701555869872
67401,Saline County,KS,NA,NA,20.783645655877343,NA
67410,Dickinson County,KS,NA,NA,NA,67.32673267326733
67530,Barton County,KS,72.19917012448133,NA,NA,NA
40014,Oldham County,KY,51.45228215767634,NA,NA,NA
40203,Jefferson County,KY,NA,24.308755760368665,NA,NA
40206,Jefferson County,KY,NA,NA,80.57921635434411,NA
40213,Jefferson County,KY,NA,39.055299539170505,NA,NA
40330,Mercer County,KY,62.24066390041494,NA,NA,NA
40380,Powell County,KY,NA,NA,NA,86.56294200848656
40422,Boyle County,KY,NA,NA,51.10732538330494,NA
40475,Madison County,KY,NA,8.410138248847925,NA,NA
40504,Fayette County,KY,NA,47.35023041474654,NA,NA
40515,Fayette County,KY,NA,54.493087557603694,NA,NA
40517,Fayette County,KY,NA,NA,NA,45.403111739745405
40906,Knox County,KY,NA,70.04608294930875,NA,NA
41001,Campbell County,KY,40.66390041493776,NA,NA,NA
41074,Campbell County,KY,NA,NA,97.9557069846678,NA
41094,Boone County,KY,NA,NA,69.6763202725724,NA
41097,Grant County,KY,NA,76.61290322580645,NA,NA
41230,Lawrence County,KY,45.22821576763486,NA,NA,NA
41858,Letcher County,KY,NA,61.52073732718893,NA,NA
42003,McCracken County,KY,NA,NA,NA,30.975954738330973
42025,Marshall County,KY,NA,48.50230414746544,NA,NA
42041,Fulton County,KY,NA,90.55299539170507,NA,NA
42044,Marshall County,KY,NA,NA,NA,93.21074964639321
42071,Calloway County,KY,NA,NA,45.144804088586035,NA
42206,Logan County,KY,NA,96.19815668202764,NA,NA
42301,Daviess County,KY,NA,10.599078341013826,NA,NA
42303,Daviess County,KY,NA,NA,18.05792163543441,18.528995756718526
42431,Hopkins County,KY,NA,NA,NA,30.41018387553041
42567,Pulaski County,KY,NA,NA,NA,98.01980198019803
42701,Hardin County,KY,NA,12.672811059907835,NA,NA
70005,Jefferson Parish,LA,NA,NA,NA,5.799151343705799
70037,Plaquemines Parish,LA,NA,46.65898617511521,NA,NA
70058,Jefferson Parish,LA,NA,1.8433179723502304,NA,NA
70072,Jefferson Parish,LA,NA,24.88479262672811,NA,4.667609618104668
70115,Orleans Parish,LA,NA,21.54377880184332,NA,NA
70124,Orleans Parish,LA,NA,NA,NA,57.708628005657715
70359,Terrebonne Parish,LA,NA,NA,74.95741056218058,NA
70360,Terrebonne Parish,LA,32.365145228215766,NA,NA,NA
70363,Terrebonne Parish,LA,4.149377593360995,NA,NA,NA
70380,St. Mary Parish,LA,NA,NA,30.664395229982965,NA
70454,Tangipahoa Parish,LA,NA,NA,NA,30.55162659123055
70466,Tangipahoa Parish,LA,NA,NA,NA,93.21074964639321
70507,Lafayette Parish,LA,NA,48.73271889400922,NA,NA
70508,Lafayette Parish,LA,NA,17.165898617511523,NA,NA
70520,Lafayette Parish,LA,NA,NA,47.35945485519591,NA
70544,Iberia Parish,LA,NA,NA,NA,70.57991513437058
70570,St. Landry Parish,LA,NA,NA,11.243611584327088,NA
70601,Calcasieu Parish,LA,8.29875518672199,NA,NA,NA
70615,Calcasieu Parish,LA,53.941908713692946,NA,NA,NA
70663,Calcasieu Parish,LA,NA,NA,21.465076660988075,NA
70775,West Feliciana Parish,LA,NA,NA,NA,76.94483734087694
70791,East Baton Rouge Parish,LA,NA,14.861751152073733,NA,NA
70802,East Baton Rouge Parish,LA,NA,5.64516129032258,NA,NA
70809,East Baton Rouge Parish,LA,NA,NA,NA,39.46251768033947
71019,Red River Parish,LA,NA,NA,NA,79.77369165487977
71052,De Soto Parish,LA,NA,NA,NA,75.24752475247524
71106,Caddo Parish,LA,NA,NA,NA,13.012729844413013
71129,Caddo Parish,LA,47.30290456431535,NA,NA,NA
71303,Rapides Parish,LA,NA,NA,76.14991482112437,NA
71360,Rapides Parish,LA,NA,12.327188940092165,NA,NA
71417,Grant Parish,LA,NA,88.59447004608295,NA,NA
04043,York County,ME,NA,NA,NA,27.58132956152758
04092,Cumberland County,ME,NA,44.354838709677416,28.109028960817717,NA
04103,Cumberland County,ME,NA,24.078341013824886,NA,NA
04240,Androscoggin County,ME,NA,NA,NA,2.1216407355021216
04256,Androscoggin County,ME,NA,99.53917050691244,NA,NA
04281,Oxford County,ME,NA,NA,64.73594548551958,NA
04282,Androscoggin County,ME,89.21161825726142,NA,NA,NA
04345,Kennebec County,ME,NA,NA,NA,67.75106082036774
04401,Penobscot County,ME,NA,1.497695852534562,NA,NA
04426,Piscataquis County,ME,NA,92.16589861751152,NA,NA
04901,Kennebec County,ME,NA,4.953917050691245,NA,NA
04915,Waldo County,ME,NA,NA,38.33049403747871,NA
20657,Calvert County,MD,72.61410788381743,NA,84.8381601362862,NA
20707,Prince George's County,MD,NA,NA,84.32708688245314,NA
20735,Prince George's County,MD,NA,NA,68.82453151618398,NA
20746,Prince George's County,MD,NA,NA,67.6320272572402,90.24045261669023
20748,Prince George's County,MD,NA,NA,NA,82.17821782178217
20772,Prince George's County,MD,NA,52.764976958525345,NA,NA
20814,Montgomery County,MD,NA,NA,79.7274275979557,NA
20815,Montgomery County,MD,NA,NA,NA,73.4087694483734
20854,Montgomery County,MD,NA,68.20276497695853,NA,NA
20878,Montgomery County,MD,NA,NA,60.477001703577514,NA
21044,Howard County,MD,NA,53.91705069124424,NA,NA
21045,Howard County,MD,77.59336099585063,NA,NA,NA
21061,Anne Arundel County,MD,NA,NA,NA,21.074964639321074
21113,Anne Arundel County,MD,NA,60.944700460829495,NA,NA
21122,Anne Arundel County,MD,NA,NA,NA,25.318246110325322
21209,Baltimore County,MD,NA,67.2811059907834,NA,NA
21211,Baltimore city,MD,NA,NA,NA,76.0961810466761
21212,Baltimore city,MD,NA,NA,NA,36.35077793493635
21221,Baltimore County,MD,NA,NA,NA,28.42998585572843
21227,Baltimore County,MD,NA,58.41013824884793,NA,29.27864214992928
21228,Baltimore County,MD,NA,NA,NA,8.76944837340877
21536,Garrett County,MD,NA,NA,99.48892674616695,NA
21550,Garrett County,MD,96.6804979253112,NA,NA,NA
21804,Wicomico County,MD,NA,51.843317972350235,NA,NA
21904,Cecil County,MD,98.3402489626556,NA,NA,NA
21921,Cecil County,MD,NA,NA,7.155025553662692,NA
01001,Hampden County,MA,NA,NA,19.250425894378196,NA
01020,Hampden County,MA,NA,NA,11.073253833049405,10.183875530410184
01027,Hampshire County,MA,NA,NA,NA,58.981612446958984
01089,Hampden County,MA,NA,NA,NA,25.035360678925034
01201,Berkshire County,MA,NA,NA,0.17035775127768313,0.9900990099009901
01301,Franklin County,MA,NA,12.442396313364055,NA,NA
01420,Worcester County,MA,NA,0.1152073732718894,NA,NA
01463,Middlesex County,MA,NA,78.80184331797236,NA,NA
01524,Worcester County,MA,NA,99.30875576036865,NA,NA
01545,Worcester County,MA,NA,NA,NA,11.456859971711458
01588,Worcester County,MA,NA,98.27188940092167,NA,NA
01603,Worcester County,MA,NA,1.2672811059907834,2.555366269165247,NA
01702,Middlesex County,MA,NA,NA,NA,99.29278642149929
01748,Middlesex County,MA,NA,NA,NA,57.85007072135785
01773,Middlesex County,MA,NA,NA,88.9267461669506,NA
01803,Middlesex County,MA,NA,NA,NA,2.545968882602546
01852,Middlesex County,MA,NA,60.13824884792627,NA,NA
01880,Middlesex County,MA,NA,32.71889400921659,NA,NA
01890,Middlesex County,MA,NA,77.99539170506912,NA,NA
01906,Essex County,MA,20.74688796680498,NA,59.6252129471891,NA
01930,Essex County,MA,NA,3.225806451612903,NA,NA
01960,Essex County,MA,NA,NA,NA,0
02056,Norfolk County,MA,NA,75.46082949308756,NA,NA
02062,Norfolk County,MA,NA,94.47004608294931,NA,NA
02067,Norfolk County,MA,NA,NA,NA,50.636492220650645
02081,Norfolk County,MA,NA,NA,NA,38.189533239038184
02111,Suffolk County,MA,NA,NA,NA,28.57142857142857
02114,Suffolk County,MA,NA,20.506912442396313,NA,NA
02115,Suffolk County,MA,NA,6.221198156682028,NA,NA
02131,Suffolk County,MA,NA,NA,5.792163543441227,NA
02135,Suffolk County,MA,NA,NA,NA,1.272984441301273
02136,Suffolk County,MA,NA,NA,29.3015332197615,NA
02139,Middlesex County,MA,NA,18.317972350230416,NA,NA
02148,Middlesex County,MA,NA,NA,66.09880749574106,NA
02151,Suffolk County,MA,1.2448132780082988,NA,NA,NA
02155,Middlesex County,MA,NA,NA,NA,5.9405940594059405
02189,Norfolk County,MA,NA,NA,NA,80.9052333804809
02191,Norfolk County,MA,47.30290456431535,NA,NA,NA
02301,Plymouth County,MA,NA,0,NA,NA
02324,Plymouth County,MA,NA,96.42857142857143,NA,NA
02351,Plymouth County,MA,NA,NA,23.679727427597953,NA
02368,Norfolk County,MA,NA,NA,NA,19.660537482319658
02649,Barnstable County,MA,NA,NA,NA,15.841584158415841
02703,Bristol County,MA,NA,6.682027649769585,NA,NA
02720,Bristol County,MA,NA,NA,8.347529812606473,NA
02740,Bristol County,MA,NA,NA,0.34071550255536626,NA
02745,Bristol County,MA,NA,96.6589861751152,NA,NA
02766,Bristol County,MA,25.311203319502074,NA,NA,NA
48035,Macomb County,MI,NA,11.059907834101383,NA,NA
48043,Macomb County,MI,NA,35.36866359447004,NA,NA
48060,St. Clair County,MI,NA,20.161290322580644,NA,NA
48070,Oakland County,MI,NA,NA,NA,92.92786421499292
48075,Oakland County,MI,NA,34.67741935483871,NA,NA
48094,Macomb County,MI,NA,NA,NA,59.68882602545968
48104,Washtenaw County,MI,NA,51.49769585253456,NA,NA
48116,Livingston County,MI,NA,31.105990783410135,NA,NA
48133,Monroe County,MI,NA,93.54838709677419,NA,NA
48146,Wayne County,MI,NA,8.294930875576037,NA,NA
48150,Wayne County,MI,30.70539419087137,NA,NA,NA
48161,Monroe County,MI,NA,7.4884792626728105,NA,NA
48166,Monroe County,MI,NA,46.65898617511521,NA,NA
48170,Wayne County,MI,NA,NA,3.577512776831346,NA
48186,Wayne County,MI,NA,5.414746543778802,11.584327086882453,20.509193776520508
48187,Wayne County,MI,NA,11.405529953917052,NA,NA
48204,Wayne County,MI,NA,NA,31.005110732538334,NA
48236,Wayne County,MI,NA,34.331797235023046,NA,NA
48239,Wayne County,MI,NA,NA,NA,40.87694483734088
48307,Oakland County,MI,NA,NA,NA,11.173974540311175
48313,Macomb County,MI,NA,NA,NA,17.82178217821782
48323,Oakland County,MI,NA,NA,NA,34.65346534653465
48336,Oakland County,MI,NA,NA,NA,27.864214992927867
48341,Oakland County,MI,NA,NA,78.19420783645657,NA
48342,Oakland County,MI,NA,NA,38.841567291311755,NA
48377,Oakland County,MI,NA,NA,76.66098807495742,NA
48386,Oakland County,MI,NA,NA,NA,50.35360678925035
48393,Oakland County,MI,NA,NA,NA,80.48090523338048
48430,Genesee County,MI,NA,NA,56.38841567291312,NA
48601,Saginaw County,MI,NA,1.3824884792626728,3.747870528109029,NA
48603,Saginaw County,MI,NA,NA,NA,7.355021216407355
48609,Saginaw County,MI,92.9460580912863,NA,NA,NA
48625,Clare County,MI,NA,NA,21.63543441226576,NA
48626,Saginaw County,MI,NA,NA,73.7649063032368,NA
48655,Saginaw County,MI,NA,90.2073732718894,NA,NA
48708,Bay County,MI,NA,55.414746543778804,NA,NA
48840,Ingham County,MI,NA,83.06451612903226,NA,NA
48843,Livingston County,MI,NA,45.96774193548387,4.940374787052811,NA
48850,Montcalm County,MI,NA,91.12903225806451,NA,NA
48858,Isabella County,MI,NA,NA,7.495741056218058,NA
48872,Shiawassee County,MI,90.87136929460581,NA,NA,NA
48888,Montcalm County,MI,NA,95.96774193548387,NA,NA
48895,Ingham County,MI,NA,84.7926267281106,NA,NA
48910,Ingham County,MI,NA,13.018433179723502,NA,NA
48917,Eaton County,MI,NA,9.67741935483871,NA,NA
49004,Kalamazoo County,MI,NA,NA,NA,55.02121640735502
49009,Kalamazoo County,MI,NA,NA,NA,9.900990099009901
49045,Van Buren County,MI,NA,NA,84.66780238500851,NA
49065,Van Buren County,MI,NA,NA,NA,86.7043847241867
49068,Calhoun County,MI,NA,NA,NA,33.80480905233381
49085,Berrien County,MI,NA,NA,NA,32.248939179632245
49093,St. Joseph County,MI,NA,33.525345622119815,NA,NA
49097,Kalamazoo County,MI,78.83817427385893,NA,NA,NA
49201,Jackson County,MI,NA,9.331797235023041,NA,NA
49221,Lenawee County,MI,NA,23.15668202764977,5.621805792163544,5.233380480905233
49230,Jackson County,MI,NA,NA,50.4258943781942,NA
49341,Kent County,MI,NA,NA,NA,22.63083451202263
49421,Oceana County,MI,NA,84.21658986175116,NA,NA
49424,Ottawa County,MI,NA,NA,NA,7.4964639321074955
49437,Muskegon County,MI,75.93360995850622,NA,NA,NA
49444,Muskegon County,MI,NA,10.829493087557603,NA,NA
49464,Ottawa County,MI,NA,55.875576036866356,NA,NA
49504,Kent County,MI,NA,16.244239631336406,NA,NA
49508,Kent County,MI,NA,NA,9.369676320272573,39.886845827439885
49519,Kent County,MI,NA,19.35483870967742,NA,NA
49548,Kent County,MI,NA,7.258064516129033,NA,NA
49601,Wexford County,MI,24.066390041493776,NA,NA,NA
49635,Benzie County,MI,NA,NA,NA,77.22772277227723
49677,Osceola County,MI,NA,69.35483870967742,NA,NA
49690,Grand Traverse County,MI,NA,96.08294930875576,NA,NA
49735,Otsego County,MI,NA,36.29032258064516,NA,NA
49829,Delta County,MI,NA,NA,28.960817717206133,NA
49855,Marquette County,MI,NA,68.4331797235023,NA,NA
55009,Goodhue County,MN,NA,NA,58.94378194207837,NA
55016,Washington County,MN,11.618257261410788,NA,NA,NA
55040,Isanti County,MN,NA,75.46082949308756,NA,NA
55060,Steele County,MN,NA,NA,NA,49.929278642149924
55066,Goodhue County,MN,NA,NA,17.54684838160136,NA
55070,Anoka County,MN,91.70124481327801,NA,NA,NA
55071,Washington County,MN,NA,95.6221198156682,NA,NA
55106,Ramsey County,MN,3.319502074688797,6.451612903225806,NA,NA
55109,Ramsey County,MN,NA,NA,29.471890971039183,NA
55112,Ramsey County,MN,65.97510373443983,NA,NA,NA
55303,Anoka County,MN,10.78838174273859,NA,NA,NA
55306,Dakota County,MN,NA,NA,71.55025553662692,NA
55318,Carver County,MN,NA,86.63594470046083,NA,NA
55321,Wright County,MN,NA,NA,97.44463373083475,NA
55337,Dakota County,MN,NA,37.903225806451616,NA,28.995756718528998
55340,Hennepin County,MN,87.13692946058092,NA,NA,NA
55343,Hennepin County,MN,NA,NA,NA,42.857142857142854
55379,Scott County,MN,NA,29.147465437788018,46.84838160136286,NA
55398,Sherburne County,MN,NA,78.80184331797236,NA,NA
55404,Hennepin County,MN,NA,1.0368663594470047,NA,NA
55405,Hennepin County,MN,NA,NA,48.55195911413969,NA
55406,Hennepin County,MN,NA,NA,27.938671209540033,NA
55411,Hennepin County,MN,NA,2.4193548387096775,NA,NA
55415,Hennepin County,MN,NA,74.19354838709677,NA,NA
55417,Hennepin County,MN,NA,81.22119815668202,NA,NA
55420,Hennepin County,MN,NA,43.31797235023041,NA,NA
55421,Anoka County,MN,NA,57.83410138248848,NA,42.14992927864215
55422,Hennepin County,MN,NA,33.41013824884793,NA,NA
55424,Hennepin County,MN,NA,NA,NA,99.57567185289957
55427,Hennepin County,MN,NA,NA,NA,53.32390381895332
55429,Hennepin County,MN,NA,NA,NA,57.28429985855728
55434,Anoka County,MN,NA,67.2811059907834,NA,NA
55439,Hennepin County,MN,NA,NA,NA,87.55304101838756
55441,Hennepin County,MN,NA,NA,61.6695059625213,NA
55447,Hennepin County,MN,NA,NA,NA,83.45120226308345
55804,St. Louis County,MN,NA,74.07834101382488,NA,NA
55811,St. Louis County,MN,NA,67.62672811059907,NA,NA
56001,Blue Earth County,MN,NA,NA,36.28620102214651,NA
56143,Jackson County,MN,88.79668049792531,NA,NA,NA
56164,Pipestone County,MN,NA,NA,83.98637137989779,NA
56258,Lyon County,MN,NA,NA,NA,89.95756718528996
56283,Redwood County,MN,NA,91.93548387096774,NA,85.43140028288543
56303,Stearns County,MN,36.92946058091287,NA,NA,NA
56482,Wadena County,MN,NA,NA,56.72913117546848,NA
56484,Cass County,MN,NA,92.74193548387096,NA,NA
56560,Clay County,MN,NA,13.82488479262673,NA,1.1315417256011315
56573,Otter Tail County,MN,NA,66.82027649769586,77.68313458262351,NA
56601,Beltrami County,MN,NA,5.875576036866359,NA,NA
56671,Beltrami County,MN,NA,NA,NA,100
38603,Benton County,MS,NA,99.65437788018433,NA,NA
38632,DeSoto County,MS,NA,81.91244239631337,NA,NA
38866,Lee County,MS,NA,NA,95.40034071550255,NA
38901,Grenada County,MS,NA,NA,89.43781942078365,41.44271570014144
38916,Calhoun County,MS,NA,NA,91.65247018739353,NA
38965,Yalobusha County,MS,NA,87.78801843317973,NA,NA
39042,Rankin County,MS,NA,NA,30.3236797274276,NA
39046,Madison County,MS,23.236514522821576,30.64516129032258,NA,NA
39047,Rankin County,MS,NA,57.25806451612904,NA,NA
39074,Scott County,MS,NA,42.16589861751152,63.202725724020446,NA
39110,Madison County,MS,NA,43.894009216589865,NA,NA
39111,Simpson County,MS,NA,NA,NA,91.23055162659122
39120,Adams County,MS,NA,NA,NA,43.988684582743986
39180,Warren County,MS,NA,NA,50.596252129471885,NA
39211,Hinds County,MS,NA,NA,NA,38.04809052333805
39213,Hinds County,MS,NA,39.285714285714285,NA,79.20792079207921
39272,Hinds County,MS,NA,NA,NA,81.32956152758133
39402,Lamar County,MS,NA,68.77880184331798,NA,NA
39428,Covington County,MS,NA,80.52995391705069,NA,NA
39437,Jones County,MS,NA,NA,NA,67.18528995756718
39440,Jones County,MS,2.904564315352697,NA,NA,NA
39601,Lincoln County,MS,NA,NA,NA,39.886845827439885
39652,Pike County,MS,NA,NA,NA,85.57284299858557
39667,Walthall County,MS,NA,76.72811059907833,NA,NA
39701,Lowndes County,MS,NA,NA,86.88245315161839,NA
39705,Lowndes County,MS,NA,NA,NA,96.18104667609619
39744,Webster County,MS,78.00829875518673,NA,NA,NA
63034,St. Louis County,MO,NA,66.93548387096774,NA,NA
63040,St. Louis County,MO,NA,97.35023041474655,NA,NA
63080,Franklin County,MO,NA,NA,NA,49.78783592644979
63111,St. Louis city,MO,NA,NA,NA,69.58981612446959
63112,St. Louis city,MO,NA,57.25806451612904,NA,NA
63144,St. Louis County,MO,NA,NA,NA,95.8981612446959
63301,St. Charles County,MO,13.692946058091287,NA,NA,NA
63303,St. Charles County,MO,NA,NA,NA,5.657708628005658
63366,St. Charles County,MO,NA,NA,5.110732538330494,NA
63367,St. Charles County,MO,NA,NA,34.41226575809199,NA
63383,Warren County,MO,39.004149377593365,NA,NA,NA
63501,Adair County,MO,64.73029045643153,NA,NA,NA
63552,Macon County,MO,NA,NA,NA,59.971711456859964
63640,St. Francois County,MO,NA,44.70046082949309,NA,NA
63670,Ste. Genevieve County,MO,NA,NA,NA,62.800565770862804
63703,Cape Girardeau County,MO,NA,NA,NA,81.75388967468176
63857,Dunklin County,MO,NA,NA,NA,74.398868458274407
63901,Butler County,MO,NA,NA,NA,35.07779349363508
64030,Jackson County,MO,NA,20.737327188940093,NA,NA
64056,Jackson County,MO,NA,NA,NA,88.96746817538896
64068,Clay County,MO,NA,9.101382488479262,NA,NA
64082,Jackson County,MO,NA,73.50230414746544,NA,NA
64089,Clay County,MO,NA,NA,71.20954003407155,NA
64118,Clay County,MO,11.20331950207469,NA,NA,NA
64123,Jackson County,MO,NA,47.8110599078341,NA,82.31966053748232
64127,Jackson County,MO,NA,NA,37.98977853492334,NA
64128,Jackson County,MO,NA,NA,NA,77.65205091937766
64131,Jackson County,MO,NA,15.668202764976957,NA,NA
64133,Jackson County,MO,NA,NA,NA,28.005657708628007
64138,Jackson County,MO,NA,NA,NA,31.683168316831683
64145,Jackson County,MO,NA,87.67281105990783,NA,NA
64157,Clay County,MO,48.13278008298755,NA,NA,NA
64424,Harrison County,MO,NA,NA,NA,62.94200848656294
64468,Nodaway County,MO,68.46473029045643,NA,NA,NA
64836,Jasper County,MO,NA,NA,28.620102214650768,12.588401697312587
65018,Moniteau County,MO,NA,83.52534562211981,NA,NA
65020,Camden County,MO,NA,NA,70.18739352640544,NA
65201,Boone County,MO,NA,NA,87.39352640545145,NA
65203,Boone County,MO,NA,NA,NA,4.243281471004243
65340,Saline County,MO,NA,NA,60.13628620102215,NA
65401,Phelps County,MO,NA,NA,15.67291311754685,NA
65536,Laclede County,MO,NA,NA,37.819420783645654,25.459688826025463
65605,Lawrence County,MO,NA,NA,NA,85.14851485148515
65656,Stone County,MO,NA,NA,NA,99.71711456859971
65714,Christian County,MO,NA,51.61290322580645,NA,NA
59101,Yellowstone County,MT,NA,43.20276497695853,NA,NA
59102,Yellowstone County,MT,NA,77.76497695852534,NA,NA
59401,Cascade County,MT,NA,NA,67.97274275979557,NA
59425,Pondera County,MT,NA,99.76958525345621,98.80749574105621,NA
59715,Gallatin County,MT,NA,56.10599078341014,NA,NA
59860,Lake County,MT,NA,NA,NA,65.77086280056577
59937,Flathead County,MT,NA,92.3963133640553,72.91311754684838,NA
68025,Dodge County,NE,NA,NA,24.531516183986373,7.072135785007072
68124,Douglas County,NE,NA,NA,NA,64.63932107496464
68144,Douglas County,NE,NA,72.00460829493088,NA,NA
68776,Dakota County,NE,75.93360995850622,NA,NA,NA
89102,Clark County,NV,NA,55.06912442396313,NA,95.19094766619519
89107,Clark County,NV,NA,56.22119815668203,NA,NA
89118,Clark County,NV,NA,90.32258064516128,NA,89.3917963224894
89121,Clark County,NV,NA,79.49308755760369,NA,NA
89128,Clark County,NV,NA,54.953917050691246,NA,NA
89142,Clark County,NV,NA,70.27649769585254,NA,NA
89149,Clark County,NV,NA,NA,53.32197614991482,NA
89166,Clark County,NV,NA,NA,95.74105621805792,NA
89408,Lyon County,NV,NA,41.244239631336406,NA,NA
89434,Washoe County,NV,NA,NA,36.11584327086882,NA
89502,Washoe County,NV,NA,NA,18.56899488926746,NA
89508,Washoe County,NV,NA,72.6958525345622,NA,NA
89512,Washoe County,NV,NA,17.972350230414747,NA,NA
89523,Washoe County,NV,NA,57.6036866359447,NA,NA
03052,Hillsborough County,NH,87.13692946058092,NA,NA,NA
03053,Rockingham County,NH,NA,NA,NA,37.34087694483734
03077,Rockingham County,NH,67.63485477178423,NA,NA,NA
03103,Hillsborough County,NH,NA,NA,NA,17.53889674681754
03229,Merrimack County,NH,NA,99.42396313364056,NA,NA
03249,Belknap County,NH,NA,NA,NA,71.99434229137199
03431,Cheshire County,NH,NA,32.48847926267281,NA,NA
03743,Sullivan County,NH,NA,57.94930875576036,NA,NA
03820,Strafford County,NH,NA,23.617511520737327,NA,NA
03874,Rockingham County,NH,NA,NA,NA,81.8953323903819
03878,Strafford County,NH,NA,84.7926267281106,NA,92.78642149929279
07002,Hudson County,NJ,NA,11.175115207373272,NA,NA
07003,Essex County,NJ,NA,10.138248847926267,NA,NA
07008,Middlesex County,NJ,NA,NA,NA,47.66619519094767
07010,Bergen County,NJ,NA,NA,NA,47.524752475247524
07016,Union County,NJ,NA,NA,NA,71.71145685997172
07026,Bergen County,NJ,NA,NA,NA,43.705799151343705
07031,Bergen County,NJ,NA,NA,NA,70.15558698727015
07036,Union County,NJ,NA,58.75576036866359,16.35434412265758,NA
07070,Bergen County,NJ,NA,NA,98.29642248722317,89.95756718528996
07071,Bergen County,NJ,NA,90.66820276497695,NA,NA
07075,Bergen County,NJ,NA,NA,NA,84.2998585572843
07080,Middlesex County,NJ,NA,NA,NA,68.5997171145686
07087,Hudson County,NJ,NA,NA,NA,4.384724186704385
07095,Middlesex County,NJ,NA,NA,66.43952299829643,NA
07104,Essex County,NJ,NA,5.184331797235023,NA,61.24469589816125
07108,Essex County,NJ,NA,NA,98.46678023850085,NA
07109,Essex County,NJ,NA,15.783410138248849,NA,NA
07201,Union County,NJ,NA,33.17972350230415,NA,NA
07202,Union County,NJ,15.767634854771783,NA,NA,NA
07305,Hudson County,NJ,NA,0.4608294930875576,NA,NA
07504,Passaic County,NJ,NA,NA,93.35604770017035,NA
07601,Bergen County,NJ,75.51867219917013,5.76036866359447,NA,NA
07640,Bergen County,NJ,NA,NA,NA,99.00990099009901
07646,Bergen County,NJ,NA,NA,NA,89.10891089108911
07656,Bergen County,NJ,NA,NA,NA,83.16831683168317
07663,Bergen County,NJ,NA,NA,NA,83.02687411598303
07670,Bergen County,NJ,NA,NA,87.56388415672913,NA
07675,Bergen County,NJ,NA,NA,NA,35.64356435643564
07753,Monmouth County,NJ,NA,5.0691244239631335,NA,NA
07840,Warren County,NJ,NA,NA,31.51618398637138,NA
07860,Sussex County,NJ,NA,NA,27.427597955706982,NA
07869,Morris County,NJ,NA,NA,47.87052810902896,NA
07874,Sussex County,NJ,NA,NA,92.50425894378195,NA
08003,Camden County,NJ,NA,NA,42.93015332197615,NA
08004,Camden County,NJ,NA,59.907834101382484,NA,NA
08010,Burlington County,NJ,NA,98.963133640553,NA,NA
08012,Camden County,NJ,NA,28.110599078341014,14.139693356047701,NA
08015,Burlington County,NJ,NA,16.82027649769585,NA,NA
08016,Burlington County,NJ,NA,2.6497695852534564,NA,NA
08029,Camden County,NJ,NA,NA,96.59284497444634,NA
08030,Camden County,NJ,NA,NA,86.20102214650767,87.97736916548797
08033,Camden County,NJ,NA,NA,NA,63.64922206506365
08034,Camden County,NJ,NA,NA,NA,90.38189533239039
08035,Camden County,NJ,NA,NA,NA,96.60537482319661
08036,Burlington County,NJ,NA,NA,88.41567291311755,NA
08037,Atlantic County,NJ,NA,17.741935483870968,NA,20.226308345120223
08043,Camden County,NJ,NA,NA,NA,55.86987270155587
08046,Burlington County,NJ,NA,NA,61.839863713798984,NA
08051,Gloucester County,NJ,95.4356846473029,62.78801843317973,NA,85.57284299858557
08052,Burlington County,NJ,NA,64.63133640552995,43.95229982964225,NA
08054,Burlington County,NJ,NA,26.382488479262673,NA,NA
08057,Burlington County,NJ,NA,64.51612903225806,NA,NA
08066,Gloucester County,NJ,70.53941908713693,NA,97.78534923339012,NA
08068,Burlington County,NJ,NA,NA,NA,94.2008486562942
08075,Burlington County,NJ,NA,49.30875576036866,29.982964224872234,61.669024045261665
08077,Burlington County,NJ,NA,NA,NA,56.71852899575672
08079,Salem County,NJ,NA,47.69585253456221,NA,NA
08080,Gloucester County,NJ,NA,42.857142857142854,NA,NA
08081,Camden County,NJ,NA,28.456221198156683,8.517887563884157,NA
08083,Camden County,NJ,NA,NA,74.78705281090289,NA
08087,Ocean County,NJ,NA,NA,13.969335604770016,NA
08093,Gloucester County,NJ,59.33609958506224,NA,NA,NA
08102,Camden County,NJ,NA,35.02304147465438,NA,NA
08103,Camden County,NJ,24.896265560165975,85.59907834101382,NA,NA
08104,Camden County,NJ,NA,6.566820276497695,42.58943781942078,NA
08105,Camden County,NJ,25.311203319502074,36.9815668202765,NA,NA
08108,Camden County,NJ,NA,NA,55.5366269165247,NA
08109,Camden County,NJ,NA,55.76036866359447,40.03407155025553,NA
08110,Camden County,NJ,NA,14.746543778801843,NA,NA
08201,Atlantic County,NJ,NA,NA,NA,92.22065063649222
08203,Atlantic County,NJ,NA,NA,NA,80.62234794908062
08204,Cape May County,NJ,NA,NA,NA,29.7029702970297
08205,Atlantic County,NJ,66.39004149377593,19.23963133640553,89.9488926746167,NA
08215,Atlantic County,NJ,NA,39.63133640552996,57.5809199318569,NA
08225,Atlantic County,NJ,NA,NA,93.8671209540034,NA
08230,Cape May County,NJ,NA,94.70046082949308,NA,NA
08232,Atlantic County,NJ,NA,49.65437788018433,NA,67.60961810466762
08234,Atlantic County,NJ,NA,NA,12.60647359454855,NA
08244,Atlantic County,NJ,NA,NA,NA,90.80622347949081
08251,Cape May County,NJ,NA,NA,NA,80.76379066478077
08322,Gloucester County,NJ,NA,NA,80.91993185689948,NA
08330,Atlantic County,NJ,NA,NA,NA,48.373408769448375
08332,Cumberland County,NJ,NA,10.368663594470046,NA,NA
08344,Gloucester County,NJ,NA,NA,94.54855195911414,NA
08360,Cumberland County,NJ,NA,0.6912442396313364,NA,NA
08401,Atlantic County,NJ,NA,3.571428571428571,NA,19.519094766619517
08536,Middlesex County,NJ,NA,85.36866359447005,NA,NA
08540,Mercer County,NJ,NA,NA,NA,29.42008486562942
08611,Mercer County,NJ,NA,NA,68.31345826235093,NA
08618,Mercer County,NJ,NA,20.276497695852534,NA,NA
08619,Mercer County,NJ,NA,52.64976958525346,NA,NA
08638,Mercer County,NJ,NA,75.23041474654379,NA,NA
08648,Mercer County,NJ,NA,NA,NA,51.20226308345121
08724,Ocean County,NJ,34.85477178423236,NA,NA,NA
08753,Ocean County,NJ,10.37344398340249,NA,NA,NA
08758,Ocean County,NJ,NA,NA,NA,66.47807637906648
08816,Middlesex County,NJ,NA,NA,NA,88.68458274398868
08817,Middlesex County,NJ,NA,NA,NA,76.0961810466761
08823,Somerset County,NJ,NA,96.88940092165899,NA,NA
08830,Middlesex County,NJ,NA,75.69124423963135,NA,NA
08854,Middlesex County,NJ,NA,35.59907834101382,NA,80.9052333804809
08857,Middlesex County,NJ,NA,NA,NA,20.65063649222065
08861,Middlesex County,NJ,NA,NA,5.9625212947189095,NA
08863,Middlesex County,NJ,NA,71.54377880184332,NA,NA
08873,Somerset County,NJ,NA,16.474654377880185,NA,NA
08886,Warren County,NJ,83.81742738589212,NA,NA,NA
08889,Hunterdon County,NJ,NA,95.04608294930875,NA,NA
87004,Sandoval County,NM,NA,76.95852534562212,NA,NA
87043,Sandoval County,NM,NA,NA,NA,93.63507779349364
87112,Bernalillo County,NM,NA,15.207373271889402,NA,NA
87122,Bernalillo County,NM,NA,NA,NA,62.0933521923621
87124,Sandoval County,NM,NA,42.74193548387097,NA,NA
87313,McKinley County,NM,NA,NA,NA,99.85855728429985
87505,Santa Fe County,NM,NA,4.838709677419355,NA,NA
87532,Santa Fe County,NM,NA,NA,NA,53.04101838755304
88061,Grant County,NM,NA,75,NA,NA
88203,Chaves County,NM,NA,NA,17.035775127768314,NA
88310,Otero County,NM,NA,26.26728110599078,NA,NA
88345,Lincoln County,NM,NA,77.18894009216591,NA,NA
10001,New York County,NY,NA,NA,6.643952299829642,NA
10013,New York County,NY,NA,87.32718894009217,NA,NA
10014,New York County,NY,NA,89.40092165898618,NA,NA
10019,New York County,NY,NA,67.62672811059907,NA,NA
10026,New York County,NY,NA,NA,17.88756388415673,NA
10028,New York County,NY,NA,NA,NA,17.397454031117398
10033,New York County,NY,NA,18.77880184331797,NA,NA
10039,New York County,NY,NA,33.755760368663594,41.22657580919932,NA
10305,Richmond County,NY,NA,NA,NA,29.985855728429982
10306,Richmond County,NY,NA,NA,14.991482112436117,NA
10312,Richmond County,NY,NA,NA,24.190800681431003,NA
10451,Bronx County,NY,NA,19.5852534562212,NA,NA
10453,Bronx County,NY,NA,6.105990783410138,NA,NA
10456,Bronx County,NY,NA,2.0737327188940093,NA,NA
10458,Bronx County,NY,NA,0.2304147465437788,NA,NA
10460,Bronx County,NY,NA,NA,12.776831345826235,NA
10467,Bronx County,NY,NA,NA,NA,1.6973125884016973
10472,Bronx County,NY,NA,1.6129032258064515,2.2146507666098807,NA
10516,Putnam County,NY,NA,NA,NA,97.59547383309759
10538,Westchester County,NY,NA,NA,NA,70.57991513437058
10552,Westchester County,NY,NA,66.12903225806451,NA,NA
10701,Westchester County,NY,NA,NA,4.088586030664395,NA
10704,Westchester County,NY,NA,NA,NA,46.95898161244696
10965,Rockland County,NY,99.1701244813278,NA,NA,NA
11206,Kings County,NY,NA,NA,1.5332197614991483,NA
11207,Kings County,NY,NA,0.3456221198156682,NA,NA
11217,Kings County,NY,NA,45.046082949308754,NA,NA
11226,Kings County,NY,NA,NA,NA,8.062234794908061
11231,Kings County,NY,NA,NA,NA,54.31400282885431
11232,Kings County,NY,NA,65.32258064516128,NA,NA
11234,Kings County,NY,NA,NA,NA,13.154172560113153
11236,Kings County,NY,NA,NA,NA,5.516265912305516
11354,Queens County,NY,NA,NA,NA,21.35785007072136
11355,Queens County,NY,NA,63.94009216589862,NA,12.022630834512023
11357,Queens County,NY,NA,NA,NA,33.38048090523338
11362,Queens County,NY,NA,NA,NA,73.26732673267327
11364,Queens County,NY,NA,NA,74.44633730834754,NA
11365,Queens County,NY,NA,NA,NA,30.55162659123055
11369,Queens County,NY,NA,NA,NA,78.78359264497878
11373,Queens County,NY,NA,NA,NA,18.67043847241867
11375,Queens County,NY,NA,NA,NA,4.9504950495049505
11378,Queens County,NY,NA,NA,58.09199318568995,NA
11415,Queens County,NY,NA,NA,NA,74.398868458274407
11418,Queens County,NY,NA,49.88479262672811,NA,NA
11421,Queens County,NY,NA,NA,NA,46.25176803394625
11432,Queens County,NY,NA,NA,NA,26.449787835926447
11435,Queens County,NY,NA,11.981566820276496,52.4701873935264,NA
11510,Nassau County,NY,NA,NA,NA,41.86704384724187
11516,Nassau County,NY,NA,NA,NA,97.87835926449789
11520,Nassau County,NY,NA,NA,NA,38.330975954738335
11530,Nassau County,NY,89.21161825726142,NA,NA,NA
11542,Nassau County,NY,NA,64.28571428571429,NA,NA
11596,Nassau County,NY,NA,NA,NA,78.35926449787836
11692,Queens County,NY,NA,81.33640552995391,NA,NA
11704,Suffolk County,NY,NA,60.36866359447005,NA,27.015558698727016
11706,Suffolk County,NY,NA,58.87096774193549,NA,14.71004243281471
11776,Suffolk County,NY,NA,NA,NA,42.14992927864215
11777,Suffolk County,NY,NA,NA,NA,88.26025459688826
11779,Suffolk County,NY,NA,NA,NA,72.13578500707214
11795,Suffolk County,NY,NA,93.4331797235023,NA,NA
11801,Nassau County,NY,NA,61.75115207373272,NA,NA
11901,Suffolk County,NY,48.54771784232365,NA,NA,NA
11950,Suffolk County,NY,NA,NA,NA,98.3026874115983
12065,Saratoga County,NY,NA,NA,NA,21.216407355021218
12203,Albany County,NY,NA,73.38709677419355,43.27086882453152,NA
12303,Schenectady County,NY,NA,NA,NA,33.52192362093352
12564,Dutchess County,NY,NA,NA,NA,80.05657708628006
12901,Clinton County,NY,NA,20.622119815668203,NA,NA
13037,Madison County,NY,NA,64.17050691244239,NA,NA
13045,Cortland County,NY,NA,NA,10.051107325383304,NA
13057,Onondaga County,NY,NA,NA,NA,69.16548797736917
13090,Onondaga County,NY,NA,17.972350230414747,NA,NA
13126,Oswego County,NY,NA,3.686635944700461,7.325383304940375,NA
13208,Onondaga County,NY,NA,NA,74.27597955706985,NA
13367,Lewis County,NY,80.91286307053942,NA,NA,NA
13691,Jefferson County,NY,NA,NA,99.82964224872232,NA
13760,Broome County,NY,NA,0.8064516129032258,6.473594548551959,NA
13803,Cortland County,NY,NA,95.73732718894009,NA,NA
13850,Broome County,NY,NA,NA,NA,3.1117397454031117
13865,Broome County,NY,NA,52.07373271889401,NA,NA
14048,Chautauqua County,NY,NA,40.89861751152073,NA,NA
14075,Erie County,NY,NA,NA,6.814310051107325,NA
14086,Erie County,NY,43.56846473029046,NA,NA,NA
14127,Erie County,NY,53.11203319502075,NA,NA,NA
14150,Erie County,NY,NA,NA,6.132879045996593,NA
14207,Erie County,NY,NA,7.834101382488479,NA,NA
14212,Erie County,NY,NA,NA,77.34241908006815,NA
14221,Erie County,NY,20.33195020746888,NA,3.2367972742759794,10.608203677510609
14304,Niagara County,NY,NA,4.493087557603687,NA,NA
14456,Ontario County,NY,NA,7.027649769585254,NA,NA
14505,Wayne County,NY,NA,65.89861751152074,NA,NA
14513,Wayne County,NY,NA,NA,NA,29.13719943422914
14580,Monroe County,NY,NA,0.5760368663594471,NA,NA
14611,Monroe County,NY,NA,NA,NA,52.75813295615276
14612,Monroe County,NY,NA,15.32258064516129,NA,NA
14621,Monroe County,NY,NA,NA,2.385008517887564,NA
27105,Forsyth County,NC,NA,1.7281105990783412,NA,NA
27106,Forsyth County,NC,NA,46.42857142857143,NA,NA
27203,Randolph County,NC,56.84647302904564,NA,NA,NA
27205,Randolph County,NC,NA,45.852534562211986,NA,NA
27215,Alamance County,NC,NA,NA,NA,6.506364922206506
27262,Guilford County,NC,NA,45.276497695852534,NA,50.919377652050926
27278,Orange County,NC,NA,24.42396313364055,NA,NA
27284,Forsyth County,NC,NA,NA,1.7035775127768313,NA
27312,Chatham County,NC,NA,NA,NA,11.881188118811881
27320,Rockingham County,NC,NA,12.211981566820276,NA,NA
27410,Guilford County,NC,NA,34.90783410138249,NA,NA
27455,Guilford County,NC,NA,NA,83.13458262350937,NA
27501,Harnett County,NC,NA,56.336405529953915,NA,NA
27511,Wake County,NC,NA,NA,32.36797274275979,NA
27518,Wake County,NC,NA,NA,NA,95.47383309759547
27520,Johnston County,NC,24.066390041493776,NA,NA,NA
27530,Wayne County,NC,27.385892116182575,16.013824884792626,NA,NA
27549,Franklin County,NC,NA,NA,NA,34.22913719943423
27557,Nash County,NC,NA,NA,90.28960817717207,NA
27592,Wake County,NC,NA,73.61751152073732,NA,NA
27596,Franklin County,NC,NA,69.12442396313364,NA,75.8132956152758
27603,Wake County,NC,NA,NA,NA,76.66195190947667
27604,Wake County,NC,NA,36.63594470046083,NA,NA
27609,Wake County,NC,NA,NA,68.99488926746167,NA
27613,Wake County,NC,NA,54.14746543778802,NA,NA
27615,Wake County,NC,NA,44.585253456221196,NA,NA
27703,Durham County,NC,NA,NA,NA,60.53748231966054
27713,Durham County,NC,NA,NA,NA,14.144271570014144
27804,Nash County,NC,NA,NA,NA,36.916548797736915
27834,Pitt County,NC,NA,NA,NA,48.23196605374823
27855,Hertford County,NC,NA,NA,92.16354344122658,NA
27856,Nash County,NC,NA,NA,64.39522998296422,76.52050919377652
27858,Pitt County,NC,NA,62.55760368663594,NA,NA
27863,Wayne County,NC,86.30705394190872,NA,NA,NA
27870,Halifax County,NC,NA,25.23041474654378,NA,NA
27889,Beaufort County,NC,NA,34.44700460829493,NA,NA
27909,Pasquotank County,NC,NA,14.055299539170507,12.095400340715502,NA
28016,Gaston County,NC,NA,NA,60.98807495741057,NA
28025,Cabarrus County,NC,NA,11.63594470046083,NA,NA
28081,Cabarrus County,NC,NA,NA,NA,34.794908062234796
28092,Lincoln County,NC,NA,NA,12.43611584327087,NA
28115,Iredell County,NC,NA,23.27188940092166,65.41737649063032,NA
28139,Rutherford County,NC,NA,41.013824884792626,NA,NA
28144,Rowan County,NC,45.643153526970956,NA,NA,NA
28150,Cleveland County,NC,NA,NA,NA,36.35077793493635
28173,Union County,NC,NA,NA,50.08517887563884,41.584158415841586
28209,Mecklenburg County,NC,NA,NA,70.01703577512777,NA
28212,Mecklenburg County,NC,NA,27.07373271889401,NA,NA
28306,Bladen County,NC,57.676348547717836,NA,NA,NA
28328,Sampson County,NC,NA,NA,NA,38.613861386138616
28337,Bladen County,NC,NA,NA,60.81771720613288,NA
28340,Robeson County,NC,NA,NA,NA,69.73125884016973
28366,Sampson County,NC,NA,NA,90.63032367972743,NA
28369,Robeson County,NC,NA,99.19354838709677,NA,NA
28386,Robeson County,NC,NA,97.00460829493088,NA,NA
28409,New Hanover County,NC,NA,44.124423963133644,NA,NA
28411,New Hanover County,NC,NA,NA,NA,46.67609618104668
28461,Brunswick County,NC,90.87136929460581,NA,NA,NA
28470,Brunswick County,NC,NA,NA,71.03918228279386,NA
28504,Lenoir County,NC,NA,NA,61.32879045996593,NA
28530,Pitt County,NC,NA,91.01382488479263,NA,NA
28540,Onslow County,NC,NA,NA,26.064735945485516,NA
28560,Craven County,NC,NA,NA,NA,49.504950495049506
28571,Pamlico County,NC,NA,NA,NA,96.88826025459689
28586,Craven County,NC,94.6058091286307,NA,NA,NA
28590,Pitt County,NC,NA,NA,63.7137989778535,NA
28601,Catawba County,NC,NA,15.43778801843318,NA,NA
28602,Catawba County,NC,NA,NA,NA,63.366336633663366
28604,Watauga County,NC,NA,NA,69.33560477001703,NA
28612,Burke County,NC,NA,68.20276497695853,NA,NA
28625,Iredell County,NC,NA,NA,17.37649063032368,23.196605374823196
28645,Caldwell County,NC,NA,NA,0.8517887563884157,NA
28650,Catawba County,NC,NA,NA,NA,64.63932107496464
28651,Wilkes County,NC,87.96680497925311,NA,NA,NA
28657,Avery County,NC,NA,71.19815668202764,NA,NA
28659,Wilkes County,NC,49.37759336099585,NA,NA,NA
28677,Iredell County,NC,28.63070539419087,NA,NA,44.837340876944836
28694,Ashe County,NC,NA,NA,73.08347529812606,NA
28753,Madison County,NC,NA,83.17972350230414,NA,NA
28756,Polk County,NC,NA,95.50691244239631,NA,NA
28792,Henderson County,NC,NA,68.89400921658986,NA,NA
28801,Buncombe County,NC,NA,97.92626728110599,NA,NA
28804,Buncombe County,NC,NA,NA,76.32027257240205,NA
28806,Buncombe County,NC,NA,NA,44.63373083475298,NA
28906,Cherokee County,NC,NA,NA,NA,16.69024045261669
58104,Cass County,ND,NA,33.986175115207374,NA,NA
58401,Stutsman County,ND,NA,NA,90.45996592844975,NA
58601,Stark County,ND,NA,47.926267281105986,NA,40.5940594059406
58701,Ward County,ND,5.809128630705394,NA,NA,NA
43054,Franklin County,OH,NA,NA,88.75638841567292,NA
43080,Licking County,OH,NA,NA,92.33390119250427,NA
43081,Franklin County,OH,NA,24.65437788018433,NA,NA
43085,Franklin County,OH,NA,NA,NA,50.495049504950494
43110,Franklin County,OH,NA,NA,10.391822827938672,NA
43130,Fairfield County,OH,NA,NA,NA,21.64073550212164
43160,Fayette County,OH,NA,47.004608294930875,NA,NA
43201,Franklin County,OH,NA,NA,95.57069846678023,NA
43204,Franklin County,OH,0.8298755186721992,NA,NA,NA
43207,Franklin County,OH,NA,1.1520737327188941,NA,NA
43211,Franklin County,OH,NA,41.58986175115207,NA,NA
43214,Franklin County,OH,NA,80.4147465437788,NA,NA
43215,Franklin County,OH,NA,73.73271889400922,NA,NA
43221,Franklin County,OH,NA,70.39170506912443,NA,NA
43223,Franklin County,OH,NA,28.57142857142857,NA,60.113154172560115
43228,Franklin County,OH,NA,3.110599078341014,NA,NA
43232,Franklin County,OH,NA,3.9170506912442393,NA,NA
43302,Marion County,OH,NA,NA,2.8960817717206133,3.253182461103253
43440,Ottawa County,OH,NA,97.6958525345622,NA,NA
43512,Defiance County,OH,NA,NA,5.281090289608177,NA
43532,Henry County,OH,NA,NA,99.14821124361158,NA
43537,Lucas County,OH,NA,NA,48.722316865417376,NA
43605,Lucas County,OH,NA,1.9585253456221197,NA,NA
43609,Lucas County,OH,NA,4.723502304147465,NA,NA
43623,Lucas County,OH,NA,28.80184331797235,NA,NA
43701,Muskingum County,OH,0.4149377593360996,18.663594470046082,0.5110732538330494,NA
43793,Monroe County,OH,NA,NA,79.04599659284497,NA
43952,Jefferson County,OH,NA,7.373271889400922,NA,NA
43968,Columbiana County,OH,NA,NA,64.05451448040887,NA
44017,Cuyahoga County,OH,NA,40.2073732718894,NA,NA
44022,Cuyahoga County,OH,67.21991701244814,NA,NA,NA
44035,Lorain County,OH,NA,NA,0,NA
44039,Lorain County,OH,NA,NA,3.4071550255536627,NA
44044,Lorain County,OH,NA,NA,NA,56.43564356435643
44060,Lake County,OH,NA,NA,1.0221465076660987,NA
44070,Cuyahoga County,OH,NA,25.34562211981567,NA,NA
44077,Lake County,OH,NA,2.995391705069124,NA,0.5657708628005658
44089,Erie County,OH,46.88796680497925,NA,NA,NA
44094,Lake County,OH,NA,NA,4.429301533219761,NA
44128,Cuyahoga County,OH,NA,NA,2.0442930153321974,NA
44130,Cuyahoga County,OH,NA,NA,1.362862010221465,NA
44133,Cuyahoga County,OH,NA,79.14746543778803,NA,NA
44135,Cuyahoga County,OH,NA,2.5345622119815667,NA,NA
44144,Cuyahoga County,OH,NA,13.13364055299539,NA,NA
44212,Medina County,OH,NA,NA,1.192504258943782,NA
44216,Summit County,OH,NA,NA,NA,97.02970297029702
44256,Medina County,OH,1.6597510373443984,NA,0.6814310051107325,NA
44281,Medina County,OH,NA,23.847926267281107,NA,NA
44314,Summit County,OH,6.639004149377594,NA,NA,NA
44319,Summit County,OH,NA,NA,NA,17.68033946251768
44402,Trumbull County,OH,NA,NA,97.61499148211243,NA
44425,Trumbull County,OH,NA,NA,NA,45.12022630834512
44432,Columbiana County,OH,NA,68.54838709677419,NA,NA
44446,Trumbull County,OH,NA,14.516129032258066,NA,NA
44460,Columbiana County,OH,NA,22.926267281105993,NA,NA
44484,Trumbull County,OH,NA,31.105990783410135,NA,NA
44485,Trumbull County,OH,NA,NA,34.07155025553663,NA
44505,Mahoning County,OH,NA,34.56221198156682,39.182282793867124,NA
44509,Mahoning County,OH,NA,48.04147465437788,NA,NA
44511,Mahoning County,OH,NA,25.460829493087555,NA,NA
44646,Stark County,OH,NA,10.253456221198157,NA,NA
44685,Summit County,OH,NA,NA,NA,25.176803394625175
44805,Ashland County,OH,NA,14.400921658986174,NA,NA
44839,Erie County,OH,NA,59.331797235023046,NA,NA
44842,Ashland County,OH,96.2655601659751,NA,NA,NA
44857,Huron County,OH,NA,24.76958525345622,NA,NA
44870,Erie County,OH,2.0746887966804977,NA,NA,NA
44875,Richland County,OH,NA,NA,NA,47.94908062234795
45011,Butler County,OH,NA,16.93548387096774,NA,NA
45013,Butler County,OH,NA,2.880184331797235,NA,NA
45014,Butler County,OH,NA,16.359447004608295,NA,16.69024045261669
45066,Warren County,OH,NA,NA,NA,59.68882602545968
45067,Butler County,OH,NA,NA,79.55706984667802,NA
45121,Brown County,OH,NA,73.963133640553,NA,NA
45140,Clermont County,OH,NA,25.691244239631338,NA,NA
45177,Clinton County,OH,NA,NA,33.901192504258944,NA
45211,Hamilton County,OH,NA,NA,NA,37.62376237623762
45215,Hamilton County,OH,NA,26.95852534562212,NA,NA
45236,Hamilton County,OH,NA,56.91244239631337,NA,NA
45255,Hamilton County,OH,NA,NA,NA,44.271570014144274
45320,Preble County,OH,NA,NA,39.522998296422486,NA
45322,Montgomery County,OH,NA,43.4331797235023,NA,NA
45324,Greene County,OH,34.439834024896264,NA,NA,NA
45331,Darke County,OH,NA,28.225806451612907,NA,NA
45342,Montgomery County,OH,7.053941908713693,12.096774193548388,9.710391822827939,NA
45344,Clark County,OH,42.738589211618255,NA,NA,NA
45345,Montgomery County,OH,NA,NA,NA,81.47100424328147
45356,Miami County,OH,NA,NA,11.754684838160136,NA
45365,Shelby County,OH,NA,13.36405529953917,13.287904599659283,NA
45373,Miami County,OH,NA,NA,46.166950596252136,NA
45377,Montgomery County,OH,NA,NA,NA,58.698727015558696
45383,Miami County,OH,97.9253112033195,NA,NA,NA
45402,Montgomery County,OH,51.037344398340245,NA,NA,NA
45404,Montgomery County,OH,82.98755186721992,NA,NA,NA
45405,Montgomery County,OH,NA,25.921658986175117,NA,NA
45406,Montgomery County,OH,37.344398340248965,NA,NA,NA
45415,Montgomery County,OH,NA,79.60829493087557,NA,NA
45417,Montgomery County,OH,18.25726141078838,8.755760368663594,NA,27.722772277227726
45419,Montgomery County,OH,66.80497925311202,NA,NA,NA
45424,Montgomery County,OH,5.394190871369295,NA,NA,5.374823196605375
45426,Montgomery County,OH,NA,NA,38.16013628620102,NA
45430,Greene County,OH,NA,NA,NA,93.06930693069307
45432,Greene County,OH,50.20746887966805,NA,NA,NA
45439,Montgomery County,OH,NA,55.18433179723502,NA,NA
45449,Montgomery County,OH,19.08713692946058,NA,NA,NA
45459,Montgomery County,OH,NA,NA,NA,13.437057991513438
45502,Clark County,OH,63.90041493775933,NA,NA,NA
45619,Lawrence County,OH,NA,NA,55.877342419080065,NA
45662,Scioto County,OH,3.7344398340248963,NA,NA,NA
45663,Scioto County,OH,NA,NA,NA,94.62517680339462
45801,Allen County,OH,NA,12.557603686635947,NA,NA
45804,Allen County,OH,NA,NA,24.020442930153322,NA
45806,Allen County,OH,NA,NA,NA,57.14285714285714
73012,Oklahoma County,OK,NA,52.07373271889401,NA,NA
73013,Oklahoma County,OK,NA,NA,NA,8.203677510608204
73045,Oklahoma County,OK,NA,83.87096774193549,NA,NA
73051,Cleveland County,OK,90.45643153526972,NA,NA,NA
73052,Garvin County,OK,NA,NA,86.03066439522998,NA
73068,Cleveland County,OK,NA,NA,65.07666098807495,NA
73119,Oklahoma County,OK,NA,25.115207373271893,NA,NA
73135,Oklahoma County,OK,44.81327800829876,NA,NA,63.5077793493635
73142,Oklahoma County,OK,NA,NA,NA,57.85007072135785
73160,Cleveland County,OK,NA,NA,NA,8.486562942008486
73162,Oklahoma County,OK,NA,NA,NA,16.265912305516267
73401,Carter County,OK,NA,NA,10.732538330494037,NA
73507,Comanche County,OK,NA,NA,NA,27.439886845827438
74011,Tulsa County,OK,NA,NA,NA,52.192362093352195
74066,Creek County,OK,NA,NA,NA,52.61669024045261
74070,Osage County,OK,NA,NA,NA,92.5035360678925
74075,Payne County,OK,NA,NA,NA,49.08062234794908
74105,Tulsa County,OK,68.04979253112033,NA,NA,NA
74106,Tulsa County,OK,NA,40.78341013824885,NA,NA
74145,Tulsa County,OK,NA,NA,63.88415672913118,NA
74361,Mayes County,OK,NA,NA,63.37308347529813,NA
74429,Wagoner County,OK,NA,80.76036866359448,NA,NA
74441,Cherokee County,OK,NA,89.74654377880185,NA,NA
74451,Cherokee County,OK,NA,NA,NA,96.46393210749646
74464,Cherokee County,OK,NA,NA,NA,41.584158415841586
74501,Pittsburg County,OK,NA,NA,48.040885860306645,NA
74601,Kay County,OK,NA,48.50230414746544,NA,NA
74820,Pontotoc County,OK,NA,8.064516129032258,NA,NA
97008,Washington County,OR,75.10373443983403,NA,NA,NA
97013,Clackamas County,OR,94.1908713692946,NA,NA,NA
97030,Multnomah County,OR,NA,20.046082949308754,NA,NA
97038,Clackamas County,OR,NA,71.6589861751152,NA,NA
97045,Clackamas County,OR,NA,15.898617511520738,NA,NA
97051,Columbia County,OR,NA,64.97695852534562,NA,NA
97080,Multnomah County,OR,NA,27.30414746543779,NA,36.06789250353607
97116,Washington County,OR,62.655601659751035,NA,NA,NA
97128,Yamhill County,OR,NA,NA,NA,23.903818953323906
97206,Multnomah County,OR,NA,66.58986175115207,NA,NA
97215,Multnomah County,OR,NA,NA,NA,74.82319660537482
97219,Multnomah County,OR,NA,63.47926267281107,NA,NA
97233,Multnomah County,OR,NA,17.857142857142858,NA,NA
97266,Multnomah County,OR,NA,35.25345622119816,NA,NA
97303,Marion County,OR,NA,NA,47.018739352640544,NA
97321,Linn County,OR,NA,NA,NA,24.752475247524753
97330,Benton County,OR,NA,NA,26.2350936967632,NA
97365,Lincoln County,OR,NA,NA,NA,51.90947666195191
97402,Lane County,OR,NA,NA,30.153321976149915,NA
97411,Coos County,OR,NA,NA,70.35775127768314,NA
97423,Coos County,OR,NA,NA,78.36456558773425,86.28005657708628
97448,Lane County,OR,95.0207468879668,NA,NA,NA
97479,Douglas County,OR,NA,74.76958525345621,NA,NA
97502,Jackson County,OR,NA,NA,20.954003407155025,NA
97503,Jackson County,OR,NA,68.66359447004609,NA,NA
97838,Umatilla County,OR,NA,53.45622119815668,NA,NA
97850,Union County,OR,NA,NA,NA,47.24186704384724
15012,Westmoreland County,PA,60.58091286307054,NA,NA,NA
15025,Allegheny County,PA,NA,NA,47.52981260647359,NA
15090,Allegheny County,PA,NA,92.97235023041475,NA,NA
15203,Allegheny County,PA,NA,NA,71.89097103918229,NA
15226,Allegheny County,PA,NA,NA,NA,37.9066478076379
15235,Allegheny County,PA,NA,NA,14.480408858603067,NA
15461,Fayette County,PA,NA,96.31336405529954,NA,NA
15632,Westmoreland County,PA,NA,NA,NA,60.25459688826026
15650,Westmoreland County,PA,NA,NA,NA,7.637906647807638
15668,Westmoreland County,PA,NA,NA,NA,33.097595473833096
15717,Indiana County,PA,80.91286307053942,NA,NA,NA
15943,Cambria County,PA,NA,NA,96.76320272572401,NA
16066,Butler County,PA,NA,NA,40.88586030664395,NA
16101,Lawrence County,PA,NA,NA,8.006814310051109,NA
16301,Venango County,PA,NA,51.95852534562212,NA,NA
16502,Erie County,PA,NA,77.41935483870968,NA,NA
16509,Erie County,PA,NA,NA,33.73083475298126,NA
16651,Clearfield County,PA,NA,94.35483870967742,NA,NA
16686,Blair County,PA,NA,61.9815668202765,NA,NA
16801,Centre County,PA,NA,NA,NA,9.618104667609618
17011,Cumberland County,PA,NA,NA,18.228279386712096,NA
17022,Lancaster County,PA,NA,19.70046082949309,NA,NA
17036,Dauphin County,PA,NA,25.57603686635945,NA,NA
17044,Mifflin County,PA,NA,13.709677419354838,NA,NA
17059,Juniata County,PA,84.64730290456431,NA,NA,NA
17109,Dauphin County,PA,NA,27.880184331797235,NA,NA
17111,Dauphin County,PA,NA,NA,7.666098807495741,NA
17241,Cumberland County,PA,NA,NA,NA,73.83309759547383
17331,York County,PA,NA,NA,NA,1.5558698727015559
17362,York County,PA,NA,NA,51.27768313458262,NA
17402,York County,PA,NA,NA,NA,3.3946251768033946
17404,York County,PA,NA,12.788018433179724,NA,11.032531824611032
17408,York County,PA,32.780082987551864,NA,NA,NA
17512,Lancaster County,PA,31.535269709543567,NA,NA,NA
17545,Lancaster County,PA,NA,48.27188940092166,NA,NA
17557,Lancaster County,PA,NA,79.60829493087557,NA,NA
17601,Lancaster County,PA,NA,38.24884792626728,NA,NA
17815,Columbia County,PA,NA,51.728110599078335,NA,NA
17921,Schuylkill County,PA,NA,82.48847926267281,NA,NA
17963,Schuylkill County,PA,NA,NA,NA,87.6944837340877
18017,Northampton County,PA,NA,NA,4.258943781942079,NA
18040,Northampton County,PA,NA,NA,NA,41.15983026874116
18045,Northampton County,PA,NA,NA,NA,6.9306930693069315
18062,Lehigh County,PA,NA,NA,NA,25.742574257425744
18073,Montgomery County,PA,NA,NA,NA,87.12871287128714
18080,Lehigh County,PA,85.89211618257261,NA,NA,NA
18091,Northampton County,PA,NA,NA,NA,64.21499292786422
18102,Lehigh County,PA,NA,NA,7.836456558773425,NA
18403,Lackawanna County,PA,NA,NA,NA,94.34229137199435
18428,Pike County,PA,NA,NA,54.173764906303234,NA
18431,Wayne County,PA,69.29460580912863,NA,NA,NA
18452,Lackawanna County,PA,NA,NA,92.67461669505963,NA
18621,Luzerne County,PA,NA,94.81566820276498,NA,NA
18704,Luzerne County,PA,NA,NA,12.947189097103918,NA
18951,Bucks County,PA,NA,22.235023041474655,NA,26.591230551626595
19010,Delaware County,PA,NA,NA,NA,45.96888260254597
19013,Delaware County,PA,NA,3.3410138248847927,NA,NA
19020,Bucks County,PA,NA,NA,NA,9.335219236209335
19050,Delaware County,PA,NA,31.451612903225808,NA,NA
19066,Montgomery County,PA,NA,NA,NA,85.00707213578501
19073,Delaware County,PA,NA,56.79723502304147,NA,NA
19078,Delaware County,PA,NA,NA,NA,77.5106082036775
19082,Delaware County,PA,17.842323651452283,41.935483870967744,25.894378194207835,65.91230551626592
19096,Montgomery County,PA,NA,NA,NA,59.54738330975955
19111,Philadelphia County,PA,NA,3.4562211981566824,NA,NA
19125,Philadelphia County,PA,NA,NA,NA,91.37199434229137
19128,Philadelphia County,PA,NA,NA,NA,32.95615275813296
19139,Philadelphia County,PA,NA,NA,NA,16.407355021216407
19140,Philadelphia County,PA,NA,NA,NA,36.633663366336634
19142,Philadelphia County,PA,NA,76.036866359447,NA,NA
19143,Philadelphia County,PA,NA,0.9216589861751152,NA,NA
19147,Philadelphia County,PA,31.950207468879665,NA,27.597955706984667,NA
19148,Philadelphia County,PA,NA,8.179723502304148,NA,11.315417256011315
19149,Philadelphia County,PA,NA,NA,65.24701873935264,29.84441301272984
19153,Philadelphia County,PA,NA,69.23963133640552,NA,NA
19154,Philadelphia County,PA,14.937759336099585,17.62672811059908,NA,NA
19320,Chester County,PA,NA,10.023041474654377,NA,NA
19330,Chester County,PA,NA,NA,94.03747870528109,NA
19380,Chester County,PA,NA,13.248847926267281,NA,NA
19422,Montgomery County,PA,NA,NA,38.50085178875639,NA
19425,Chester County,PA,NA,87.09677419354838,NA,NA
19444,Montgomery County,PA,NA,NA,NA,79.4908062234795
19551,Berks County,PA,NA,NA,NA,89.25035360678925
19601,Berks County,PA,NA,20.852534562211982,NA,NA
19602,Berks County,PA,NA,NA,30.494037478705284,NA
19606,Berks County,PA,NA,11.866359447004609,NA,NA
02816,Kent County,RI,51.45228215767634,NA,13.62862010221465,NA
02817,Kent County,RI,NA,90.78341013824884,NA,NA
02818,Kent County,RI,NA,NA,NA,40.5940594059406
02825,Providence County,RI,NA,NA,93.52640545144804,NA
02828,Providence County,RI,NA,NA,NA,68.03394625176803
02840,Newport County,RI,NA,46.88940092165899,NA,NA
02842,Newport County,RI,86.72199170124482,NA,NA,NA
02852,Washington County,RI,NA,77.64976958525345,NA,NA
02860,Providence County,RI,NA,6.797235023041474,NA,NA
02861,Providence County,RI,46.058091286307054,NA,29.81260647359455,NA
02865,Providence County,RI,NA,NA,57.75127768313458,NA
02878,Newport County,RI,33.19502074688796,NA,NA,NA
02888,Kent County,RI,NA,NA,44.97444633730835,NA
02889,Kent County,RI,NA,27.419354838709676,NA,38.47241867043847
02893,Kent County,RI,NA,NA,22.487223168654175,NA
02904,Providence County,RI,NA,NA,17.717206132879046,NA
02910,Providence County,RI,NA,NA,NA,62.65912305516266
02921,Providence County,RI,NA,83.6405529953917,NA,NA
29045,Kershaw County,SC,NA,NA,NA,74.96463932107497
29059,Orangeburg County,SC,NA,88.36405529953917,NA,NA
29067,Lancaster County,SC,NA,NA,NA,92.07920792079209
29069,Darlington County,SC,NA,NA,NA,95.75671852899575
29072,Lexington County,SC,NA,63.24884792626728,NA,NA
29135,Calhoun County,SC,NA,89.0552995391705,NA,NA
29172,Lexington County,SC,NA,88.94009216589862,NA,NA
29203,Richland County,SC,NA,NA,20.10221465076661,NA
29204,Richland County,SC,NA,72.81105990783409,NA,NA
29306,Spartanburg County,SC,NA,NA,NA,73.6916548797737
29307,Spartanburg County,SC,NA,NA,NA,48.939179632248944
29316,Spartanburg County,SC,NA,42.3963133640553,NA,NA
29356,Spartanburg County,SC,NA,NA,75.12776831345826,NA
29388,Spartanburg County,SC,NA,65.2073732718894,NA,NA
29405,Charleston County,SC,NA,NA,42.078364565587734,58.415841584158414
29436,Berkeley County,SC,NA,98.73271889400922,NA,NA
29449,Charleston County,SC,NA,NA,78.87563884156728,NA
29461,Berkeley County,SC,NA,NA,33.04940374787053,NA
29464,Charleston County,SC,NA,48.8479262672811,NA,12.022630834512023
29485,Dorchester County,SC,NA,30.184331797235025,NA,45.26166902404526
29505,Florence County,SC,NA,NA,NA,43.84724186704385
29550,Darlington County,SC,38.17427385892116,NA,NA,NA
29560,Florence County,SC,NA,NA,NA,66.61951909476662
29569,Horry County,SC,NA,NA,NA,70.86280056577087
29577,Horry County,SC,NA,NA,NA,51.34370579915134
29605,Greenville County,SC,NA,NA,NA,27.298444130127297
29607,Greenville County,SC,21.57676348547718,NA,NA,NA
29611,Greenville County,SC,NA,13.940092165898617,NA,NA
29617,Greenville County,SC,NA,NA,37.64906303236798,NA
29625,Anderson County,SC,NA,NA,27.76831345826235,NA
29626,Anderson County,SC,NA,77.18894009216591,NA,NA
29630,Pickens County,SC,NA,NA,NA,89.81612446958982
29640,Pickens County,SC,NA,NA,NA,31.117397454031114
29642,Pickens County,SC,NA,NA,15.332197614991482,NA
29649,Greenwood County,SC,NA,69.5852534562212,NA,NA
29662,Greenville County,SC,NA,68.08755760368663,NA,NA
29666,Greenwood County,SC,NA,NA,89.77853492333901,NA
29678,Oconee County,SC,NA,NA,33.39011925042589,NA
29687,Greenville County,SC,NA,NA,NA,13.861386138613863
29692,Laurens County,SC,NA,93.31797235023042,NA,NA
29706,Chester County,SC,NA,NA,NA,65.2050919377652
29707,Lancaster County,SC,NA,NA,NA,21.4992927864215
29710,York County,SC,NA,61.29032258064516,NA,NA
29728,Chesterfield County,SC,NA,NA,88.58603066439524,NA
29730,York County,SC,NA,NA,NA,45.82743988684583
29732,York County,SC,NA,NA,23.168654173764907,18.95332390381895
29745,York County,SC,NA,NA,NA,72.98444130127298
29847,Edgefield County,SC,NA,91.58986175115207,NA,NA
29928,Beaufort County,SC,NA,NA,NA,45.54455445544555
29936,Jasper County,SC,80.91286307053942,NA,NA,NA
57106,Minnehaha County,SD,NA,NA,NA,3.536067892503536
57201,Codington County,SD,NA,NA,NA,44.554455445544555
57401,Brown County,SD,NA,20.276497695852534,NA,NA
57785,Meade County,SD,NA,NA,NA,79.20792079207921
37027,Williamson County,TN,NA,NA,NA,14.992927864214991
37042,Montgomery County,TN,14.522821576763487,NA,NA,NA
37055,Dickson County,TN,53.52697095435685,NA,NA,NA
37066,Sumner County,TN,NA,NA,NA,24.469589816124472
37072,Davidson County,TN,NA,NA,26.916524701873932,NA
37110,Warren County,TN,NA,18.433179723502306,NA,NA
37135,Williamson County,TN,NA,92.97235023041475,NA,NA
37138,Davidson County,TN,NA,NA,55.02555366269165,NA
37148,Sumner County,TN,NA,NA,46.50766609880749,NA
37207,Davidson County,TN,NA,13.47926267281106,NA,NA
37208,Davidson County,TN,NA,NA,62.01022146507667,NA
37211,Davidson County,TN,NA,NA,NA,17.256011315417254
37215,Davidson County,TN,NA,NA,NA,38.8967468175389
37303,McMinn County,TN,NA,NA,NA,41.15983026874116
37334,Lincoln County,TN,53.941908713692946,NA,NA,NA
37375,Franklin County,TN,NA,100,NA,NA
37385,Monroe County,TN,NA,NA,59.96592844974447,NA
37388,Coffee County,TN,NA,36.52073732718894,NA,NA
37421,Hamilton County,TN,NA,30.52995391705069,NA,NA
37620,Sullivan County,TN,NA,NA,NA,52.475247524752476
37641,Greene County,TN,NA,NA,58.603066439523,NA
37643,Carter County,TN,NA,NA,8.68824531516184,NA
37686,Sullivan County,TN,NA,86.8663594470046,NA,NA
37701,Blount County,TN,NA,NA,NA,68.74115983026874
37745,Greene County,TN,NA,NA,NA,35.36067892503536
37748,Roane County,TN,NA,NA,29.131175468483818,NA
37752,Claiborne County,TN,NA,96.7741935483871,NA,NA
37763,Roane County,TN,NA,NA,NA,54.31400282885431
37772,Loudon County,TN,NA,80.29953917050692,NA,NA
37774,Loudon County,TN,NA,NA,NA,29.56152758132956
37830,Anderson County,TN,NA,NA,24.361158432708688,35.5021216407355
37840,Roane County,TN,NA,NA,54.855195911413965,72.27722772277228
37854,Roane County,TN,NA,NA,NA,77.65205091937766
37874,Monroe County,TN,NA,NA,82.96422487223168,56.85997171145686
37877,Hamblen County,TN,NA,NA,NA,96.32248939179632
37885,Monroe County,TN,NA,98.04147465437788,NA,NA
37909,Knox County,TN,NA,NA,NA,71.85289957567186
37917,Knox County,TN,NA,19.470046082949306,NA,26.166902404526166
37921,Knox County,TN,17.012448132780083,NA,NA,NA
37932,Knox County,TN,NA,NA,NA,94.76661951909476
38008,Hardeman County,TN,85.06224066390041,NA,NA,NA
38106,Shelby County,TN,NA,18.89400921658986,NA,84.15841584158416
38237,Weakley County,TN,NA,93.20276497695853,NA,NA
38320,Benton County,TN,NA,NA,75.97955706984668,NA
38401,Maury County,TN,NA,NA,NA,17.963224893917964
38501,Putnam County,TN,NA,NA,16.183986371379895,NA
38572,Cumberland County,TN,NA,65.55299539170507,NA,NA
38583,White County,TN,NA,NA,28.449744463373083,NA
75013,Collin County,TX,NA,NA,NA,92.36209335219236
75019,Dallas County,TX,NA,58.06451612903226,NA,NA
75020,Grayson County,TX,NA,79.95391705069125,NA,NA
75021,Grayson County,TX,NA,NA,NA,82.6025459688826
75022,Denton County,TX,NA,NA,82.45315161839864,NA
75023,Collin County,TX,NA,NA,NA,56.15275813295615
75033,,TX,NA,NA,68.6541737649063,NA
75035,Collin County,TX,NA,42.28110599078341,NA,NA
75043,Dallas County,TX,39.41908713692946,22.58064516129032,NA,NA
75052,Dallas County,TX,NA,NA,NA,28.71287128712871
75067,Denton County,TX,NA,35.944700460829495,NA,NA
75070,Collin County,TX,NA,17.28110599078341,NA,NA
75076,Grayson County,TX,NA,NA,NA,90.94766619519095
75080,Dallas County,TX,NA,NA,NA,71.42857142857143
75089,Dallas County,TX,NA,NA,68.48381601362861,NA
75092,Grayson County,TX,63.07053941908713,NA,NA,NA
75093,Collin County,TX,28.21576763485477,52.41935483870967,NA,NA
75115,Dallas County,TX,NA,25,NA,22.772277227722775
75119,Ellis County,TX,NA,NA,NA,65.2050919377652
75137,Dallas County,TX,NA,NA,NA,62.23479490806223
75142,Kaufman County,TX,NA,65.43778801843318,NA,61.669024045261665
75154,Ellis County,TX,NA,NA,NA,73.12588401697313
75203,Dallas County,TX,NA,NA,NA,85.2899575671853
75208,Dallas County,TX,NA,NA,54.00340715502555,NA
75210,Dallas County,TX,NA,72.23502304147466,NA,NA
75211,Dallas County,TX,NA,21.774193548387096,NA,NA
75215,Dallas County,TX,NA,64.0552995391705,NA,NA
75216,Dallas County,TX,NA,6.336405529953917,NA,NA
75217,Dallas County,TX,4.979253112033195,NA,NA,NA
75219,Dallas County,TX,NA,55.99078341013824,NA,NA
75223,Dallas County,TX,NA,NA,80.7495741056218,NA
75231,Dallas County,TX,NA,NA,64.5655877342419,NA
75233,Dallas County,TX,NA,NA,83.30494037478705,NA
75243,Dallas County,TX,NA,15.092165898617512,NA,39.603960396039604
75287,Denton County,TX,NA,45.16129032258064,NA,NA
75428,Hunt County,TX,NA,NA,NA,99.43422913719944
75442,Collin County,TX,NA,NA,95.05962521294718,NA
75503,Bowie County,TX,NA,55.29953917050692,NA,NA
75605,Gregg County,TX,NA,NA,40.20442930153322,NA
75633,Panola County,TX,NA,NA,NA,82.74398868458275
75686,Camp County,TX,NA,NA,NA,72.27722772277228
75704,Smith County,TX,NA,NA,NA,91.7963224893918
75707,Smith County,TX,NA,NA,82.28279386712096,NA
75751,Henderson County,TX,NA,50.92165898617511,51.78875638841567,NA
75835,Houston County,TX,NA,70.85253456221197,NA,NA
75904,Angelina County,TX,NA,37.55760368663594,NA,NA
75961,Nacogdoches County,TX,NA,NA,NA,84.86562942008487
76009,Johnson County,TX,63.48547717842323,NA,NA,NA
76014,Tarrant County,TX,NA,52.995391705069125,NA,NA
76016,Tarrant County,TX,NA,NA,NA,32.67326732673268
76017,Tarrant County,TX,35.684647302904565,NA,NA,NA
76021,Tarrant County,TX,NA,38.0184331797235,NA,NA
76028,Johnson County,TX,NA,NA,3.9182282793867125,NA
76040,Tarrant County,TX,NA,50.576036866359445,NA,NA
76051,Tarrant County,TX,36.099585062240664,34.7926267281106,NA,NA
76063,Tarrant County,TX,NA,15.552995391705068,NA,15.417256011315416
76065,Ellis County,TX,NA,NA,36.626916524701876,NA
76086,Parker County,TX,NA,NA,58.262350936967636,NA
76092,Tarrant County,TX,NA,NA,60.30664395229983,NA
76102,Tarrant County,TX,NA,NA,90.9710391822828,NA
76103,Tarrant County,TX,NA,NA,NA,93.77652050919377
76108,Tarrant County,TX,NA,42.626728110599075,NA,NA
76116,Tarrant County,TX,NA,NA,13.1175468483816,NA
76117,Tarrant County,TX,NA,NA,39.01192504258944,NA
76123,Tarrant County,TX,NA,NA,66.26916524701873,84.01697312588402
76140,Tarrant County,TX,NA,NA,45.4855195911414,NA
76179,Tarrant County,TX,17.42738589211618,NA,NA,NA
76244,Tarrant County,TX,NA,NA,53.4923339011925,NA
76247,Denton County,TX,74.27385892116183,NA,NA,NA
76301,Wichita County,TX,NA,NA,NA,90.52333804809052
76309,Wichita County,TX,NA,NA,80.06814310051107,NA
76426,Wise County,TX,NA,91.12903225806451,NA,NA
76522,Coryell County,TX,12.863070539419086,50,NA,NA
76634,Bosque County,TX,NA,NA,NA,61.951909476661946
76667,Limestone County,TX,NA,61.405529953917046,NA,NA
76705,McLennan County,TX,NA,NA,43.100511073253834,28.147100424328148
76706,McLennan County,TX,NA,NA,NA,59.264497878359265
77009,Harris County,TX,NA,50.46082949308756,NA,NA
77012,Harris County,TX,NA,NA,NA,89.67468175388967
77017,Harris County,TX,61.41078838174274,NA,NA,NA
77020,Harris County,TX,NA,62.21198156682027,NA,NA
77021,Harris County,TX,NA,NA,39.182282793867124,49.222065063649225
77026,Harris County,TX,19.502074688796682,NA,NA,NA
77028,Harris County,TX,NA,NA,65.75809199318569,NA
77029,Harris County,TX,NA,NA,NA,99.15134370579915
77030,Harris County,TX,NA,NA,98.12606473594549,NA
77035,Harris County,TX,NA,NA,NA,75.1060820367751
77044,Harris County,TX,NA,40.32258064516129,NA,NA
77054,Harris County,TX,NA,NA,96.08177172061329,NA
77063,Harris County,TX,NA,NA,74.10562180579217,71.28712871287128
77065,Harris County,TX,NA,NA,NA,39.17963224893918
77072,Harris County,TX,26.141078838174277,NA,NA,NA
77075,Harris County,TX,NA,54.60829493087558,NA,NA
77081,Harris County,TX,NA,NA,94.20783645655877,NA
77083,Harris County,TX,NA,NA,NA,33.23903818953324
77088,Harris County,TX,29.460580912863072,NA,NA,NA
77090,Harris County,TX,NA,32.25806451612903,NA,NA
77318,Montgomery County,TX,NA,NA,NA,81.61244695898161
77327,Liberty County,TX,NA,NA,NA,70.29702970297029
77338,Harris County,TX,NA,NA,NA,93.91796322489392
77354,Montgomery County,TX,NA,53.801843317972356,NA,NA
77379,Harris County,TX,NA,27.534562211981566,NA,NA
77384,Montgomery County,TX,NA,80.06912442396313,NA,NA
77401,Harris County,TX,NA,NA,NA,85.997171145686
77414,Matagorda County,TX,NA,NA,NA,53.74823196605375
77423,Waller County,TX,NA,90.89861751152074,NA,NA
77449,Harris County,TX,4.564315352697095,NA,NA,NA
77480,Brazoria County,TX,NA,NA,NA,90.94766619519095
77494,Fort Bend County,TX,NA,19.81566820276498,NA,NA
77498,Fort Bend County,TX,NA,NA,97.27427597955707,NA
77502,Harris County,TX,NA,57.14285714285714,NA,NA
77504,Harris County,TX,NA,70.16129032258065,NA,NA
77506,Harris County,TX,NA,NA,NA,77.08628005657708
77511,Brazoria County,TX,NA,17.050691244239633,NA,NA
77521,Harris County,TX,NA,NA,32.027257240204435,NA
77546,Galveston County,TX,NA,NA,10.90289608177172,NA
77566,Brazoria County,TX,NA,NA,46.678023850085175,44.13012729844413
77568,Galveston County,TX,NA,NA,NA,58.13295615275813
77573,Galveston County,TX,NA,NA,4.599659284497445,NA
77581,Brazoria County,TX,NA,NA,NA,31.117397454031114
77586,Harris County,TX,NA,53.2258064516129,NA,NA
77630,Orange County,TX,26.556016597510375,NA,NA,NA
77651,Jefferson County,TX,73.85892116182573,NA,NA,NA
77656,Hardin County,TX,NA,60.82949308755761,60.6473594548552,NA
77701,Jefferson County,TX,NA,82.14285714285714,NA,NA
77703,Jefferson County,TX,NA,74.65437788018433,NA,NA
77705,Jefferson County,TX,NA,47.11981566820276,NA,NA
77833,Washington County,TX,NA,50.115207373271886,NA,NA
77845,Brazos County,TX,NA,10.944700460829493,NA,NA
77901,Victoria County,TX,16.59751037344398,NA,NA,26.308345120226306
77904,Victoria County,TX,NA,NA,NA,60.67892503536068
77954,DeWitt County,TX,NA,NA,NA,55.3041018387553
78028,Kerr County,TX,NA,NA,14.310051107325384,NA
78045,Webb County,TX,9.12863070539419,NA,NA,NA
78148,Bexar County,TX,NA,NA,NA,95.33239038189534
78210,Bexar County,TX,NA,26.72811059907834,NA,NA
78219,Bexar County,TX,NA,NA,NA,88.82602545968882
78224,Bexar County,TX,NA,NA,NA,84.58274398868458
78228,Bexar County,TX,NA,NA,32.19761499148211,23.055162659123056
78229,Bexar County,TX,NA,56.451612903225815,NA,NA
78244,Bexar County,TX,NA,NA,79.7274275979557,NA
78254,Bexar County,TX,NA,NA,NA,72.84299858557284
78413,Nueces County,TX,NA,NA,NA,65.48797736916548
78414,Nueces County,TX,NA,NA,NA,86.42149929278642
78503,Hidalgo County,TX,NA,73.04147465437788,NA,NA
78504,Hidalgo County,TX,NA,73.84792626728111,46.33730834752981,NA
78520,Cameron County,TX,NA,59.56221198156682,NA,NA
78541,Hidalgo County,TX,NA,54.723502304147466,NA,NA
78550,Cameron County,TX,NA,46.54377880184332,NA,NA
78566,Cameron County,TX,NA,91.82027649769586,NA,NA
78573,Hidalgo County,TX,NA,58.294930875576036,NA,NA
78574,Hidalgo County,TX,NA,39.86175115207373,NA,NA
78584,Starr County,TX,NA,NA,NA,46.39321074964639
78610,Hays County,TX,NA,NA,NA,80.33946251768033
78660,Travis County,TX,21.16182572614108,29.377880184331794,NA,NA
78664,Williamson County,TX,NA,NA,NA,22.34794908062235
78758,Travis County,TX,73.44398340248964,NA,NA,NA
78840,Val Verde County,TX,NA,NA,16.695059625212945,NA
78852,Maverick County,TX,NA,NA,NA,15.700141442715701
79106,Potter County,TX,NA,NA,NA,43.56435643564357
79107,Potter County,TX,NA,NA,NA,64.35643564356435
79110,Randall County,TX,NA,69.70046082949308,NA,NA
79124,Potter County,TX,NA,NA,97.10391822827938,NA
79336,Hockley County,TX,NA,NA,NA,66.19519094766619
79424,Lubbock County,TX,NA,NA,9.880749574105621,NA
79703,Midland County,TX,NA,63.0184331797235,NA,NA
79756,Ward County,TX,NA,76.26728110599078,NA,NA
79762,Ector County,TX,NA,31.105990783410135,NA,NA
79912,El Paso County,TX,NA,29.723502304147466,NA,20.933521923620933
79932,El Paso County,TX,NA,NA,NA,69.73125884016973
79936,El Paso County,TX,NA,NA,NA,39.038189533239034
79938,El Paso County,TX,NA,NA,64.22487223168655,NA
84014,Davis County,UT,80.08298755186722,NA,NA,NA
84020,Salt Lake County,UT,35.26970954356847,NA,NA,NA
84065,Salt Lake County,UT,NA,41.935483870967744,NA,NA
84074,Tooele County,UT,2.4896265560165975,4.147465437788019,NA,NA
84092,Salt Lake County,UT,NA,NA,NA,71.004243281471
84096,Salt Lake County,UT,7.468879668049793,NA,NA,NA
84101,Salt Lake County,UT,NA,97.46543778801843,NA,NA
84106,Salt Lake County,UT,NA,NA,NA,23.62093352192362
84108,Salt Lake County,UT,NA,NA,NA,35.64356435643564
84119,Salt Lake County,UT,NA,NA,NA,36.06789250353607
84121,Salt Lake County,UT,NA,NA,53.15161839863713,NA
84123,Salt Lake County,UT,NA,NA,40.3747870528109,NA
84321,Cache County,UT,NA,71.31336405529954,NA,NA
84532,Grand County,UT,93.3609958506224,NA,NA,NA
84663,Utah County,UT,NA,NA,NA,88.11881188118812
05089,Windsor County,VT,NA,NA,NA,87.41159830268741
05445,Chittenden County,VT,NA,NA,98.9778534923339,NA
05641,Washington County,VT,NA,36.05990783410139,NA,NA
05733,Rutland County,VT,NA,NA,74.61669505962521,NA
05753,Addison County,VT,NA,91.70506912442397,NA,NA
05819,Caledonia County,VT,NA,80.18433179723502,77.00170357751279,66.9024045261669
20110,Manassas city,VA,NA,NA,NA,49.64639321074964
20111,Prince William County,VA,49.79253112033195,NA,NA,NA
20147,Loudoun County,VA,NA,NA,NA,10.042432814710041
22015,Fairfax County,VA,NA,56.5668202764977,NA,NA
22030,Fairfax County,VA,41.90871369294606,NA,NA,NA
22182,Fairfax County,VA,NA,NA,84.15672913117547,NA
22191,Prince William County,VA,NA,19.930875576036865,NA,NA
22192,Prince William County,VA,NA,NA,NA,44.6958981612447
22315,Fairfax County,VA,NA,60.25345622119816,NA,NA
22407,Spotsylvania County,VA,NA,20.852534562211982,NA,NA
22554,Stafford County,VA,NA,NA,45.65587734241908,NA
22556,Stafford County,VA,NA,74.42396313364056,NA,NA
22664,Shenandoah County,VA,NA,NA,85.17887563884156,NA
22827,Rockingham County,VA,NA,NA,69.16524701873935,NA
22835,Page County,VA,NA,NA,82.793867120954,NA
22901,Albemarle County,VA,NA,NA,NA,6.364922206506366
22968,Greene County,VA,NA,NA,72.57240204429301,NA
23060,Henrico County,VA,NA,NA,NA,44.41301272984441
23103,Goochland County,VA,NA,NA,91.82282793867121,NA
23114,Chesterfield County,VA,NA,NA,66.43952299829643,NA
23116,Hanover County,VA,NA,NA,NA,52.899575671852894
23185,James City County,VA,NA,NA,NA,20.084865629420083
23224,Richmond city,VA,NA,NA,67.46166950596252,NA
23235,Chesterfield County,VA,NA,NA,NA,19.094766619519092
23321,Chesapeake city,VA,NA,NA,NA,20.367751060820368
23452,Virginia Beach city,VA,NA,24.53917050691244,9.028960817717206,NA
23455,Virginia Beach city,VA,NA,47.465437788018434,NA,1.9801980198019802
23456,Virginia Beach city,VA,NA,NA,9.540034071550256,NA
23462,Virginia Beach city,VA,18.672199170124482,NA,NA,NA
23464,Virginia Beach city,VA,NA,18.202764976958523,NA,NA
23502,Norfolk city,VA,NA,38.824884792626726,NA,NA
23505,Norfolk city,VA,NA,42.97235023041475,NA,NA
23601,Newport News city,VA,NA,NA,NA,27.157001414427157
23608,Newport News city,VA,NA,22.004608294930875,NA,NA
23851,Franklin city,VA,NA,61.866359447004605,52.81090289608177,NA
24012,Roanoke city,VA,NA,32.373271889400925,NA,NA
24018,Roanoke County,VA,NA,NA,31.175468483816015,NA
24019,Roanoke County,VA,NA,59.44700460829493,NA,NA
24078,Henry County,VA,NA,87.09677419354838,NA,NA
24141,Radford city,VA,NA,NA,NA,57.42574257425742
24153,Salem city,VA,NA,NA,NA,14.56859971711457
24175,Botetourt County,VA,NA,92.74193548387096,NA,NA
24211,Washington County,VA,NA,NA,56.72913117546848,NA
24416,Buena Vista city,VA,NA,NA,NA,76.0961810466761
24450,Rockbridge County,VA,NA,77.53456221198157,NA,NA
24557,Pittsylvania County,VA,NA,NA,NA,81.8953323903819
24558,Halifax County,VA,89.21161825726142,NA,NA,NA
24588,Campbell County,VA,NA,82.94930875576037,NA,NA
24598,Halifax County,VA,NA,99.88479262672811,NA,NA
98003,King County,WA,NA,NA,NA,24.752475247524753
98007,King County,WA,NA,85.71428571428571,NA,NA
98012,Snohomish County,WA,NA,33.064516129032256,NA,NA
98021,Snohomish County,WA,NA,NA,48.89267461669506,NA
98026,Snohomish County,WA,NA,84.21658986175116,NA,51.060820367751056
98045,King County,WA,NA,84.67741935483872,NA,NA
98052,King County,WA,NA,NA,19.420783645655877,NA
98056,King County,WA,NA,NA,NA,60.396039603960396
98057,King County,WA,NA,84.56221198156682,NA,NA
98092,King County,WA,NA,26.61290322580645,16.524701873935264,NA
98116,King County,WA,NA,NA,62.862010221465084,NA
98126,King County,WA,NA,NA,59.454855195911414,NA
98155,King County,WA,NA,NA,43.781942078364565,NA
98177,King County,WA,NA,NA,57.41056218057922,55.02121640735502
98199,King County,WA,NA,88.1336405529954,NA,NA
98203,Snohomish County,WA,NA,NA,35.43441226575809,NA
98221,Skagit County,WA,78.00829875518673,NA,NA,NA
98239,Island County,WA,NA,NA,NA,58.55728429985856
98260,Island County,WA,NA,NA,81.60136286201022,NA
98270,Snohomish County,WA,37.344398340248965,21.428571428571427,NA,NA
98272,Snohomish County,WA,NA,86.29032258064517,NA,63.083451202263085
98274,Skagit County,WA,NA,NA,NA,30.26874115983027
98275,Snohomish County,WA,NA,75.34562211981567,NA,NA
98277,Island County,WA,NA,NA,NA,9.052333804809052
98338,Pierce County,WA,68.87966804979253,NA,NA,NA
98368,Jefferson County,WA,NA,NA,23.339011925042588,NA
98370,Kitsap County,WA,NA,74.76958525345621,NA,NA
98372,Pierce County,WA,NA,NA,NA,55.44554455445545
98382,Clallam County,WA,NA,NA,3.0664395229982966,NA
98404,Pierce County,WA,31.12033195020747,NA,NA,NA
98498,Pierce County,WA,NA,NA,54.68483816013629,NA
98503,Thurston County,WA,NA,NA,NA,35.21923620933522
98550,Grays Harbor County,WA,NA,86.9815668202765,NA,NA
98584,Mason County,WA,NA,37.096774193548384,NA,NA
98607,Clark County,WA,NA,80.99078341013825,NA,NA
98665,Clark County,WA,NA,NA,77.51277683134583,NA
98683,Clark County,WA,NA,88.0184331797235,NA,NA
98686,Clark County,WA,NA,NA,86.71209540034071,NA
98801,Chelan County,WA,42.32365145228216,NA,NA,NA
98841,Okanogan County,WA,NA,NA,71.37989778534923,NA
99019,Spokane County,WA,92.11618257261411,NA,NA,NA
99114,Stevens County,WA,NA,82.83410138248848,NA,NA
99216,Spokane County,WA,NA,69.00921658986175,NA,NA
99336,Benton County,WA,NA,NA,1.8739352640545146,NA
99352,Benton County,WA,NA,NA,24.701873935264054,2.9702970297029703
99354,Benton County,WA,NA,NA,NA,18.104667609618105
99362,Walla Walla County,WA,NA,NA,NA,6.789250353606789
20012,District of Columbia,DC,NA,85.48387096774194,NA,NA
20019,District of Columbia,DC,NA,4.032258064516129,NA,NA
24740,Mercer County,WV,50.20746887966805,NA,NA,47.80763790664781
25071,Kanawha County,WV,65.56016597510373,NA,NA,NA
25276,Roane County,WV,NA,NA,70.6984667802385,NA
25313,Kanawha County,WV,NA,53.57142857142857,NA,NA
25320,Kanawha County,WV,NA,86.40552995391705,NA,NA
25401,Berkeley County,WV,NA,NA,34.241908006814306,NA
25443,Jefferson County,WV,NA,92.51152073732719,NA,NA
25526,Putnam County,WV,NA,NA,NA,37.199434229137204
26101,Wood County,WV,NA,NA,NA,14.427157001414429
26301,Harrison County,WV,NA,6.912442396313365,NA,NA
26416,Barbour County,WV,NA,NA,42.24872231686542,NA
26426,Harrison County,WV,NA,97.81105990783409,NA,NA
26554,Marion County,WV,NA,4.262672811059908,NA,NA
26651,Nicholas County,WV,NA,83.41013824884793,NA,NA
26726,Mineral County,WV,NA,46.19815668202765,NA,NA
26836,Hardy County,WV,NA,NA,NA,82.88543140028288
53022,Washington County,WI,NA,NA,NA,56.294200848656295
53045,Waukesha County,WI,NA,NA,NA,18.387553041018386
53066,Waukesha County,WI,NA,NA,11.925042589437819,NA
53122,Waukesha County,WI,NA,NA,NA,74.68175388967468
53144,Kenosha County,WI,NA,19.00921658986175,NA,NA
53147,Walworth County,WI,NA,NA,NA,50.777934936350775
53186,Waukesha County,WI,NA,30.29953917050691,NA,NA
53188,Waukesha County,WI,NA,NA,16.013628620102217,NA
53205,Milwaukee County,WI,NA,2.1889400921658986,NA,NA
53208,Milwaukee County,WI,NA,62.32718894009217,NA,NA
53212,Milwaukee County,WI,NA,48.15668202764977,NA,NA
53213,Milwaukee County,WI,NA,54.377880184331794,NA,NA
53217,Milwaukee County,WI,NA,39.1705069124424,NA,NA
53218,Milwaukee County,WI,NA,NA,9.19931856899489,37.482319660537485
53219,Milwaukee County,WI,NA,NA,NA,9.476661951909476
53402,Racine County,WI,NA,NA,NA,1.8387553041018387
53533,Iowa County,WI,NA,NA,NA,78.78359264497878
53548,Rock County,WI,NA,NA,25.383304940374785,NA
53558,Dane County,WI,NA,NA,NA,88.54314002828855
53586,Lafayette County,WI,100,NA,NA,NA
53589,Dane County,WI,NA,78.57142857142857,NA,NA
53590,Dane County,WI,NA,NA,NA,24.186704384724187
53704,Dane County,WI,NA,11.751152073732719,NA,NA
53711,Dane County,WI,NA,36.405529953917046,NA,NA
53719,Dane County,WI,NA,59.21658986175116,NA,NA
53805,Grant County,WI,NA,97.11981566820278,NA,NA
53913,Sauk County,WI,NA,41.82027649769585,NA,NA
54136,Outagamie County,WI,NA,NA,NA,93.49363507779348
54162,Brown County,WI,NA,NA,NA,97.17114568599717
54235,Door County,WI,NA,63.70967741935484,NA,NA
54401,Marathon County,WI,NA,43.4331797235023,NA,NA
54457,Wood County,WI,NA,82.6036866359447,NA,NA
54460,Clark County,WI,NA,NA,98.63713798977854,NA
54494,Wood County,WI,NA,NA,8.17717206132879,15.134370579915135
54495,Wood County,WI,NA,NA,83.47529812606473,NA
54703,Eau Claire County,WI,NA,23.502304147465438,NA,NA
54829,Barron County,WI,NA,96.54377880184332,NA,NA
54843,Sawyer County,WI,NA,NA,NA,63.7906647807638
54848,Rusk County,WI,NA,89.17050691244239,NA,NA
54902,Winnebago County,WI,40.24896265560166,NA,NA,NA
54915,Outagamie County,WI,NA,85.25345622119815,NA,NA
54956,Winnebago County,WI,8.71369294605809,NA,NA,34.08769448373409
82007,Laramie County,WY,NA,63.594470046082954,NA,NA
82070,Albany County,WY,NA,NA,75.809199318569,NA
82609,Natrona County,WY,NA,NA,94.37819420783646,NA
82716,Campbell County,WY,92.5311203319502,NA,NA,NA
