ZipCode,county,state,Youth,Adult,Retirement,Geriatric
35022,Jefferson County,AL,81.19658119658119,NA,NA,NA
35055,Cullman County,AL,60.04273504273504,NA,NA,NA
35094,Jefferson County,AL,NA,NA,NA,65.06849315068493
35120,St. Clair County,AL,54.700854700854705,NA,NA,NA
35146,St. Clair County,AL,NA,NA,69.1415313225058,NA
35150,Talladega County,AL,NA,NA,57.540603248259856,NA
35215,Jefferson County,AL,16.025641025641026,NA,NA,NA
35244,Jefferson County,AL,NA,NA,44.08352668213457,NA
35453,Tuscaloosa County,AL,NA,59.66386554621849,NA,NA
35474,Hale County,AL,NA,67.43697478991596,NA,NA
35490,Tuscaloosa County,AL,97.00854700854701,NA,NA,NA
35504,Walker County,AL,NA,71.63865546218487,NA,NA
35640,Morgan County,AL,NA,38.23529411764706,NA,NA
35747,Marshall County,AL,85.8974358974359,NA,NA,NA
35749,Madison County,AL,NA,NA,NA,63.6986301369863
35806,Madison County,AL,80.98290598290599,NA,NA,NA
35956,Etowah County,AL,NA,79.2016806722689,NA,NA
35959,Cherokee County,AL,NA,95.7983193277311,NA,NA
36303,Houston County,AL,35.8974358974359,NA,NA,NA
36522,Mobile County,AL,93.16239316239316,NA,NA,NA
36527,Baldwin County,AL,NA,NA,NA,73.63013698630137
36571,Mobile County,AL,NA,NA,72.15777262180974,NA
36606,Mobile County,AL,NA,66.80672268907563,NA,NA
36877,Lee County,AL,74.35897435897436,NA,NA,NA
99515,Anchorage Municipality,AK,NA,NA,75.63805104408353,NA
99901,Ketchikan Gateway Borough,AK,62.82051282051282,NA,NA,NA
85009,Maricopa County,AZ,67.94871794871796,NA,NA,NA
85023,Maricopa County,AZ,NA,NA,57.30858468677494,NA
85028,Maricopa County,AZ,81.83760683760684,NA,NA,75.68493150684932
85031,Maricopa County,AZ,63.034188034188034,NA,NA,NA
85202,Maricopa County,AZ,65.5982905982906,NA,NA,NA
85210,Maricopa County,AZ,NA,74.36974789915966,NA,NA
85254,Maricopa County,AZ,NA,57.98319327731093,NA,NA
85258,Maricopa County,AZ,NA,NA,54.060324825986086,NA
85301,Maricopa County,AZ,8.76068376068376,NA,NA,NA
85335,Maricopa County,AZ,55.55555555555556,NA,NA,NA
85344,La Paz County,AZ,65.17094017094017,NA,NA,NA
85374,Maricopa County,AZ,NA,NA,22.73781902552204,NA
85381,Maricopa County,AZ,NA,NA,75.1740139211137,NA
85614,Pima County,AZ,NA,NA,NA,4.4520547945205475
85621,Santa Cruz County,AZ,NA,49.57983193277311,NA,NA
85629,Pima County,AZ,82.6923076923077,NA,NA,NA
85634,Pima County,AZ,NA,82.35294117647058,NA,NA
85648,Santa Cruz County,AZ,NA,56.30252100840336,NA,NA
85704,Pima County,AZ,NA,51.89075630252101,NA,NA
85705,Pima County,AZ,NA,55.25210084033614,NA,33.9041095890411
85706,Pima County,AZ,29.48717948717949,20.798319327731093,NA,NA
85710,Pima County,AZ,NA,NA,20.88167053364269,NA
85713,Pima County,AZ,NA,NA,NA,77.3972602739726
85741,Pima County,AZ,NA,NA,NA,56.5068493150685
85743,Pima County,AZ,79.7008547008547,NA,NA,NA
85747,Pima County,AZ,NA,NA,NA,89.38356164383562
85757,Pima County,AZ,53.63247863247863,NA,NA,NA
86406,Mohave County,AZ,69.87179487179486,NA,NA,59.24657534246576
86442,Mohave County,AZ,NA,NA,13.68909512761021,NA
86507,Apache County,AZ,94.23076923076923,NA,NA,NA
71822,Little River County,AR,NA,NA,73.54988399071925,NA
71901,Garland County,AR,NA,51.470588235294116,NA,NA
71909,Garland County,AR,NA,NA,NA,11.643835616438356
71913,Garland County,AR,NA,NA,29.930394431554525,NA
72031,Van Buren County,AR,NA,NA,NA,92.12328767123287
72076,Pulaski County,AR,NA,NA,38.74709976798144,NA
72114,Pulaski County,AR,47.64957264957265,NA,NA,NA
72116,Pulaski County,AR,NA,NA,NA,29.794520547945208
72143,White County,AR,NA,NA,43.851508120649655,NA
72404,Craighead County,AR,37.39316239316239,NA,NA,NA
72472,Poinsett County,AR,NA,NA,NA,83.21917808219177
72601,Boone County,AR,NA,NA,35.498839907192576,NA
72715,Benton County,AR,NA,NA,NA,18.493150684931507
90001,Los Angeles County,CA,49.358974358974365,NA,NA,NA
90002,Los Angeles County,CA,NA,64.07563025210085,NA,NA
90006,Los Angeles County,CA,64.1025641025641,NA,NA,NA
90029,Los Angeles County,CA,NA,65.12605042016807,NA,NA
90241,Los Angeles County,CA,NA,58.82352941176471,NA,NA
90249,Los Angeles County,CA,NA,NA,NA,44.52054794520548
90266,Los Angeles County,CA,NA,NA,NA,25.684931506849317
90291,Los Angeles County,CA,NA,NA,55.91647331786543,NA
90501,Los Angeles County,CA,NA,NA,55.4524361948956,NA
90620,Orange County,CA,24.786324786324787,NA,NA,NA
90630,Orange County,CA,NA,NA,25.754060324825982,NA
90744,Los Angeles County,CA,NA,NA,56.148491879350345,NA
90804,Los Angeles County,CA,NA,NA,NA,94.86301369863014
90805,Los Angeles County,CA,25,NA,NA,NA
90808,Los Angeles County,CA,NA,NA,44.779582366589324,NA
91101,Los Angeles County,CA,76.49572649572649,NA,NA,NA
91304,Los Angeles County,CA,NA,NA,51.972157772621806,NA
91344,Los Angeles County,CA,NA,NA,NA,19.52054794520548
91352,Los Angeles County,CA,82.90598290598291,NA,NA,NA
91354,Los Angeles County,CA,NA,80.0420168067227,NA,NA
91367,Los Angeles County,CA,NA,60.71428571428571,NA,NA
91387,Los Angeles County,CA,NA,48.94957983193277,NA,NA
91606,Los Angeles County,CA,NA,63.65546218487395,NA,NA
91607,Los Angeles County,CA,77.99145299145299,NA,NA,NA
91733,Los Angeles County,CA,90.38461538461539,NA,NA,NA
91750,Los Angeles County,CA,NA,67.22689075630252,NA,NA
91766,Los Angeles County,CA,44.871794871794876,NA,NA,NA
91901,San Diego County,CA,NA,66.17647058823529,NA,NA
91941,San Diego County,CA,NA,NA,94.43155452436194,NA
92020,San Diego County,CA,NA,NA,39.443155452436194,NA
92021,San Diego County,CA,NA,NA,67.05336426914154,NA
92065,San Diego County,CA,62.60683760683761,NA,NA,NA
92081,San Diego County,CA,NA,72.89915966386555,NA,NA
92084,San Diego County,CA,NA,84.45378151260505,NA,NA
92105,San Diego County,CA,NA,52.94117647058824,NA,NA
92250,Imperial County,CA,NA,90.75630252100841,NA,NA
92307,San Bernardino County,CA,67.73504273504274,NA,NA,NA
92311,San Bernardino County,CA,NA,82.98319327731093,NA,NA
92335,San Bernardino County,CA,NA,60.50420168067227,NA,NA
92374,San Bernardino County,CA,NA,NA,61.25290023201856,NA
92392,San Bernardino County,CA,NA,NA,65.66125290023201,NA
92563,Riverside County,CA,NA,37.39495798319328,NA,NA
92567,Riverside County,CA,NA,89.28571428571429,NA,NA
92595,Riverside County,CA,52.13675213675214,NA,NA,NA
92596,Riverside County,CA,84.61538461538461,NA,NA,NA
92625,Orange County,CA,NA,NA,NA,72.6027397260274
92626,Orange County,CA,NA,46.008403361344534,NA,NA
92706,Orange County,CA,NA,NA,NA,56.849315068493155
92831,Orange County,CA,NA,56.72268907563025,NA,NA
92870,Orange County,CA,NA,NA,27.842227378190255,NA
92882,Riverside County,CA,NA,65.33613445378151,NA,NA
93010,Ventura County,CA,NA,NA,NA,67.12328767123287
93015,Ventura County,CA,NA,NA,78.42227378190255,NA
93103,Santa Barbara County,CA,NA,NA,NA,88.35616438356165
93108,Santa Barbara County,CA,NA,NA,NA,93.4931506849315
93230,Kings County,CA,NA,22.478991596638657,NA,NA
93247,Tulare County,CA,87.17948717948718,NA,NA,NA
93257,Tulare County,CA,NA,17.647058823529413,NA,NA
93274,Tulare County,CA,6.623931623931624,NA,NA,NA
93308,Kern County,CA,NA,NA,33.874709976798144,NA
93312,Kern County,CA,55.98290598290598,NA,NA,NA
93455,Santa Barbara County,CA,NA,35.50420168067227,NA,NA
93460,Santa Barbara County,CA,NA,NA,97.21577726218096,NA
93611,Fresno County,CA,74.35897435897436,41.17647058823529,NA,NA
93703,Fresno County,CA,NA,47.89915966386555,NA,NA
93705,Fresno County,CA,70.08547008547008,NA,NA,NA
93725,Fresno County,CA,51.92307692307693,NA,NA,NA
94030,San Mateo County,CA,NA,NA,96.75174013921114,NA
94080,San Mateo County,CA,NA,36.344537815126046,NA,NA
94102,San Francisco County,CA,NA,NA,8.584686774941995,NA
94107,San Francisco County,CA,NA,NA,64.2691415313225,NA
94110,San Francisco County,CA,NA,NA,9.976798143851507,22.602739726027394
94123,San Francisco County,CA,NA,65.96638655462185,NA,NA
94301,Santa Clara County,CA,NA,NA,NA,55.821917808219176
94403,San Mateo County,CA,NA,NA,NA,8.561643835616438
94404,San Mateo County,CA,NA,NA,48.25986078886311,NA
94531,Contra Costa County,CA,NA,68.90756302521008,NA,NA
94542,Alameda County,CA,NA,90.54621848739495,NA,NA
94544,Alameda County,CA,NA,22.899159663865547,NA,NA
94549,Contra Costa County,CA,91.45299145299145,NA,NA,NA
94553,Contra Costa County,CA,NA,NA,31.786542923433874,NA
94564,Contra Costa County,CA,NA,NA,87.23897911832947,NA
94565,Contra Costa County,CA,NA,NA,NA,22.945205479452056
94577,Alameda County,CA,NA,NA,NA,32.534246575342465
94578,Alameda County,CA,63.67521367521367,NA,NA,NA
94904,Marin County,CA,NA,NA,89.0951276102088,NA
95020,Santa Clara County,CA,NA,36.97478991596639,NA,NA
95032,Santa Clara County,CA,NA,NA,NA,42.465753424657535
95070,Santa Clara County,CA,74.35897435897436,NA,NA,16.43835616438356
95110,Santa Clara County,CA,NA,83.19327731092437,NA,NA
95120,Santa Clara County,CA,NA,88.02521008403362,NA,31.506849315068493
95125,Santa Clara County,CA,NA,NA,25.986078886310903,NA
95206,San Joaquin County,CA,40.38461538461539,NA,NA,NA
95207,San Joaquin County,CA,NA,59.03361344537815,33.17865429234338,NA
95242,San Joaquin County,CA,65.8119658119658,NA,NA,NA
95247,Calaveras County,CA,NA,NA,NA,68.4931506849315
95307,Stanislaus County,CA,38.675213675213676,NA,NA,NA
95340,Merced County,CA,50.21367521367522,NA,NA,NA
95348,Merced County,CA,79.27350427350427,NA,NA,NA
95356,Stanislaus County,CA,49.78632478632478,NA,NA,NA
95358,Stanislaus County,CA,48.93162393162393,NA,NA,NA
95370,Tuolumne County,CA,NA,NA,4.640371229698376,NA
95605,Yolo County,CA,96.7948717948718,NA,NA,NA
95620,Solano County,CA,NA,94.74789915966386,NA,NA
95624,Sacramento County,CA,92.52136752136752,NA,NA,NA
95682,El Dorado County,CA,NA,NA,NA,23.28767123287671
95685,Amador County,CA,NA,NA,NA,93.83561643835617
95687,Solano County,CA,NA,41.806722689075634,NA,NA
95817,Sacramento County,CA,98.29059829059828,NA,NA,NA
95834,Sacramento County,CA,NA,NA,77.03016241299304,NA
95901,Yuba County,CA,NA,NA,50.81206496519721,NA
95953,Sutter County,CA,98.50427350427351,NA,NA,NA
96002,Shasta County,CA,NA,NA,NA,39.726027397260275
96067,Siskiyou County,CA,NA,NA,85.38283062645012,NA
80014,Arapahoe County,CO,31.837606837606835,35.08403361344538,NA,NA
80015,Arapahoe County,CO,9.82905982905983,22.268907563025213,NA,NA
80020,Broomfield County,CO,NA,48.319327731092436,NA,NA
80026,Boulder County,CO,NA,NA,NA,81.16438356164383
80130,Douglas County,CO,59.401709401709404,NA,NA,NA
80216,Denver County,CO,83.76068376068376,NA,NA,NA
80301,Boulder County,CO,NA,62.81512605042017,NA,NA
80601,Adams County,CO,NA,37.81512605042017,NA,NA
80903,El Paso County,CO,NA,NA,83.52668213457076,NA
80907,El Paso County,CO,NA,57.14285714285714,NA,NA
80917,El Paso County,CO,41.23931623931624,NA,NA,NA
80919,El Paso County,CO,NA,NA,NA,42.12328767123288
81003,Pueblo County,CO,NA,NA,80.51044083526682,NA
81052,Prowers County,CO,NA,NA,53.82830626450116,NA
81067,Otero County,CO,73.29059829059828,NA,NA,NA
81212,Fremont County,CO,NA,43.90756302521008,NA,NA
06040,Hartford County,CT,33.76068376068376,NA,NA,NA
06112,Hartford County,CT,52.991452991452995,NA,NA,NA
06114,Hartford County,CT,NA,NA,49.187935034802784,NA
06119,Hartford County,CT,NA,NA,96.51972157772622,NA
06281,Windham County,CT,NA,NA,90.48723897911833,NA
06484,Fairfield County,CT,74.14529914529915,NA,NA,NA
06511,New Haven County,CT,NA,7.352941176470589,NA,NA
06513,New Haven County,CT,NA,NA,NA,18.835616438356166
06515,New Haven County,CT,46.794871794871796,NA,NA,NA
06516,New Haven County,CT,NA,NA,4.408352668213457,NA
06708,New Haven County,CT,NA,27.310924369747898,NA,NA
06801,Fairfield County,CT,NA,NA,54.75638051044084,NA
06811,Fairfield County,CT,NA,49.78991596638656,NA,NA
06824,Fairfield County,CT,NA,NA,NA,91.43835616438356
06851,Fairfield County,CT,51.06837606837607,NA,NA,NA
06870,Fairfield County,CT,NA,96.63865546218487,NA,NA
06897,Fairfield County,CT,61.53846153846154,NA,NA,NA
06902,Fairfield County,CT,NA,26.89075630252101,NA,5.47945205479452
19702,New Castle County,DE,NA,NA,NA,47.6027397260274
19720,New Castle County,DE,42.52136752136752,NA,NA,NA
32038,Columbia County,FL,NA,79.41176470588235,NA,NA
32054,Union County,FL,NA,NA,77.9582366589327,NA
32060,Suwannee County,FL,NA,NA,87.93503480278422,NA
32073,Clay County,FL,NA,NA,32.71461716937355,NA
32081,St. Johns County,FL,NA,NA,80.2784222737819,NA
32084,St. Johns County,FL,NA,NA,31.554524361948953,NA
32097,Nassau County,FL,NA,NA,38.2830626450116,NA
32128,Volusia County,FL,NA,NA,58.46867749419954,NA
32136,Flagler County,FL,NA,NA,95.1276102088167,NA
32159,Lake County,FL,NA,NA,57.772621809744784,NA
32162,Sumter County,FL,NA,NA,2.784222737819025,NA
32177,Putnam County,FL,NA,49.159663865546214,NA,NA
32207,Duval County,FL,NA,23.10924369747899,NA,NA
32208,Duval County,FL,NA,50.63025210084034,NA,NA
32209,Duval County,FL,NA,6.722689075630252,NA,NA
32220,Duval County,FL,NA,88.4453781512605,NA,NA
32221,Duval County,FL,NA,NA,NA,79.1095890410959
32224,Duval County,FL,61.75213675213676,84.87394957983193,NA,31.84931506849315
32225,Duval County,FL,NA,NA,19.721577726218097,NA
32233,Duval County,FL,NA,43.27731092436975,NA,NA
32246,Duval County,FL,NA,NA,NA,41.78082191780822
32256,Duval County,FL,NA,36.76470588235294,NA,NA
32257,Duval County,FL,NA,NA,27.37819025522042,41.0958904109589
32259,St. Johns County,FL,NA,NA,40.37122969837587,NA
32310,Leon County,FL,67.09401709401709,NA,NA,NA
32401,Bay County,FL,NA,41.596638655462186,NA,NA
32507,Escambia County,FL,NA,NA,NA,44.86301369863014
32514,Escambia County,FL,NA,NA,66.5893271461717,NA
32533,Escambia County,FL,NA,NA,24.825986078886313,NA
32536,Okaloosa County,FL,NA,63.65546218487395,NA,NA
32565,Santa Rosa County,FL,80.55555555555556,NA,NA,NA
32619,Gilchrist County,FL,NA,NA,NA,90.75342465753424
32656,Clay County,FL,NA,NA,NA,54.109589041095894
32680,Dixie County,FL,NA,NA,75.4060324825986,NA
32693,Gilchrist County,FL,NA,69.9579831932773,NA,NA
32712,Orange County,FL,NA,NA,NA,21.91780821917808
32725,Volusia County,FL,34.82905982905983,NA,NA,NA
32765,Seminole County,FL,NA,61.76470588235294,NA,NA
32771,Seminole County,FL,NA,21.008403361344538,NA,NA
32822,Orange County,FL,NA,25,29.23433874709977,NA
32825,Orange County,FL,NA,35.714285714285715,NA,NA
32829,Orange County,FL,89.52991452991454,NA,NA,NA
32940,Brevard County,FL,NA,NA,NA,6.506849315068493
32958,Indian River County,FL,NA,89.07563025210085,NA,NA
33014,Miami-Dade County,FL,NA,NA,NA,23.63013698630137
33016,Miami-Dade County,FL,40.598290598290596,59.45378151260504,NA,NA
33021,Broward County,FL,NA,52.10084033613446,NA,NA
33027,Broward County,FL,NA,NA,41.067285382830626,NA
33054,Miami-Dade County,FL,38.034188034188034,NA,NA,NA
33125,Miami-Dade County,FL,58.76068376068376,NA,NA,NA
33142,Miami-Dade County,FL,23.717948717948715,NA,NA,NA
33145,Miami-Dade County,FL,NA,NA,75.87006960556845,NA
33160,Miami-Dade County,FL,78.63247863247864,NA,NA,NA
33165,Miami-Dade County,FL,37.82051282051282,NA,NA,NA
33185,Miami-Dade County,FL,NA,NA,NA,98.63013698630137
33309,Broward County,FL,NA,NA,48.027842227378194,NA
33328,Broward County,FL,NA,85.08403361344537,NA,NA
33415,Palm Beach County,FL,NA,46.21848739495798,NA,NA
33432,Palm Beach County,FL,NA,NA,NA,27.054794520547947
33441,Broward County,FL,83.54700854700855,NA,NA,NA
33446,Palm Beach County,FL,NA,83.82352941176471,NA,54.45205479452054
33449,Palm Beach County,FL,NA,92.64705882352942,NA,NA
33483,Palm Beach County,FL,NA,NA,81.67053364269141,NA
33484,Palm Beach County,FL,NA,NA,34.106728538283065,2.73972602739726
33545,Pasco County,FL,NA,87.60504201680672,NA,NA
33604,Hillsborough County,FL,NA,28.57142857142857,41.9953596287703,NA
33611,Hillsborough County,FL,NA,NA,56.61252900232019,NA
33615,Hillsborough County,FL,NA,NA,35.96287703016242,NA
33713,Pinellas County,FL,NA,NA,64.96519721577727,NA
33714,Pinellas County,FL,87.6068376068376,NA,NA,NA
33767,Pinellas County,FL,NA,NA,81.20649651972158,NA
33801,Polk County,FL,NA,NA,45.011600928074245,NA
33830,Polk County,FL,NA,NA,47.79582366589327,NA
33872,Highlands County,FL,NA,NA,NA,21.232876712328768
33875,Highlands County,FL,72.22222222222221,NA,NA,NA
33954,Charlotte County,FL,NA,NA,NA,63.013698630136986
34112,Collier County,FL,NA,NA,NA,18.15068493150685
34120,Collier County,FL,NA,40.33613445378151,46.17169373549884,NA
34207,Manatee County,FL,50.85470085470085,NA,NA,NA
34236,Sarasota County,FL,NA,NA,66.12529002320186,NA
34243,Manatee County,FL,NA,NA,28.538283062645007,7.191780821917808
34286,Sarasota County,FL,NA,NA,NA,85.61643835616438
34471,Marion County,FL,NA,56.09243697478992,NA,NA
34601,Hernando County,FL,NA,NA,NA,40.41095890410959
34607,Hernando County,FL,NA,NA,NA,77.73972602739725
34610,Pasco County,FL,99.14529914529915,NA,NA,NA
34691,Pasco County,FL,NA,48.739495798319325,NA,NA
34741,Osceola County,FL,NA,87.81512605042016,NA,NA
34744,Osceola County,FL,27.136752136752136,NA,NA,NA
34785,Sumter County,FL,NA,71.21848739495799,NA,NA
34950,St. Lucie County,FL,69.65811965811966,NA,NA,NA
34953,St. Lucie County,FL,NA,8.823529411764707,NA,NA
34982,St. Lucie County,FL,NA,NA,70.53364269141531,95.2054794520548
30004,Fulton County,GA,39.31623931623932,NA,NA,NA
30011,Barrow County,GA,NA,NA,NA,80.82191780821918
30013,Rockdale County,GA,NA,NA,58.93271461716937,NA
30014,Newton County,GA,30.34188034188034,NA,NA,NA
30028,Forsyth County,GA,NA,NA,53.36426914153132,NA
30044,Gwinnett County,GA,NA,NA,17.865429234338748,NA
30047,Gwinnett County,GA,NA,NA,29.698375870069604,NA
30083,DeKalb County,GA,NA,NA,35.730858468677496,NA
30108,Carroll County,GA,NA,86.5546218487395,NA,NA
30110,Haralson County,GA,NA,NA,81.20649651972158,NA
30188,Cherokee County,GA,NA,27.100840336134453,NA,NA
30260,Clayton County,GA,79.05982905982906,NA,NA,NA
30263,Coweta County,GA,NA,NA,16.241299303944317,NA
30281,Henry County,GA,NA,62.60504201680672,NA,NA
30296,Clayton County,GA,79.91452991452992,NA,NA,NA
30307,DeKalb County,GA,NA,NA,96.05568445475639,NA
30308,Fulton County,GA,NA,NA,85.61484918793504,NA
30315,Fulton County,GA,NA,87.18487394957984,NA,NA
30327,Fulton County,GA,NA,NA,NA,51.369863013698634
30337,Fulton County,GA,85.25641025641025,NA,NA,NA
30339,Cobb County,GA,NA,NA,79.58236658932715,NA
30434,Jefferson County,GA,NA,NA,NA,98.28767123287672
30529,Jackson County,GA,NA,NA,86.07888631090486,NA
30643,Hart County,GA,56.41025641025641,NA,NA,NA
30735,Gordon County,GA,NA,80.67226890756302,NA,NA
30809,Columbia County,GA,NA,93.90756302521008,NA,NA
30813,Columbia County,GA,NA,NA,NA,54.45205479452054
30815,Richmond County,GA,NA,26.47058823529412,NA,NA
30904,Richmond County,GA,NA,NA,NA,57.87671232876712
30906,Richmond County,GA,NA,33.82352941176471,NA,75
30907,Columbia County,GA,NA,29.6218487394958,NA,NA
31021,Laurens County,GA,NA,42.857142857142854,NA,NA
31023,Dodge County,GA,NA,NA,NA,74.31506849315068
31411,Chatham County,GA,NA,NA,NA,56.16438356164384
31537,Charlton County,GA,NA,69.11764705882352,NA,NA
31639,Berrien County,GA,73.71794871794873,NA,NA,NA
31642,Atkinson County,GA,98.93162393162393,NA,NA,NA
31750,Ben Hill County,GA,82.90598290598291,NA,NA,NA
31757,Thomas County,GA,77.35042735042735,NA,NA,NA
31906,Muscogee County,GA,NA,NA,45.707656612529,NA
31907,Muscogee County,GA,NA,NA,46.8677494199536,NA
96706,Honolulu County,HI,18.162393162393162,NA,NA,NA
96731,Honolulu County,HI,99.57264957264957,NA,NA,NA
96815,Honolulu County,HI,NA,NA,NA,19.17808219178082
83318,Cassia County,ID,NA,NA,48.72389791183295,NA
83440,Madison County,ID,NA,72.26890756302521,NA,NA
83501,Nez Perce County,ID,NA,18.277310924369747,NA,NA
83706,Ada County,ID,NA,32.142857142857146,NA,NA
83709,Ada County,ID,NA,NA,5.800464037122969,NA
60015,Lake County,IL,NA,63.23529411764706,NA,NA
60033,McHenry County,IL,NA,NA,91.1832946635731,65.41095890410958
60035,Lake County,IL,80.12820512820514,NA,NA,NA
60045,Lake County,IL,NA,NA,26.91415313225058,NA
60103,DuPage County,IL,41.452991452991455,NA,NA,NA
60104,Cook County,IL,NA,NA,30.39443155452436,NA
60115,DeKalb County,IL,54.059829059829056,44.11764705882353,NA,NA
60120,Kane County,IL,NA,64.49579831932773,NA,NA
60131,Cook County,IL,NA,NA,NA,72.94520547945206
60134,Kane County,IL,NA,NA,44.31554524361949,NA
60139,DuPage County,IL,NA,54.41176470588235,NA,NA
60148,DuPage County,IL,NA,19.11764705882353,NA,NA
60164,Cook County,IL,NA,NA,NA,96.23287671232876
60178,DeKalb County,IL,NA,90.12605042016807,NA,NA
60202,Cook County,IL,69.01709401709401,NA,NA,NA
60409,Cook County,IL,NA,33.61344537815126,NA,NA
60428,Cook County,IL,NA,NA,92.5754060324826,NA
60451,Will County,IL,NA,NA,18.329466357308586,NA
60452,Cook County,IL,NA,NA,NA,89.04109589041096
60455,Cook County,IL,NA,53.57142857142857,NA,NA
60456,Cook County,IL,NA,NA,91.64733178654292,NA
60463,Cook County,IL,NA,76.47058823529412,NA,NA
60473,Cook County,IL,NA,61.13445378151261,NA,NA
60477,Cook County,IL,NA,NA,NA,67.46575342465754
60525,Cook County,IL,NA,NA,NA,59.93150684931506
60543,Kendall County,IL,NA,40.7563025210084,NA,NA
60563,DuPage County,IL,NA,50,NA,NA
60565,DuPage County,IL,NA,NA,NA,79.7945205479452
60586,Will County,IL,NA,19.537815126050422,NA,NA
60609,Cook County,IL,32.26495726495727,NA,20.417633410672853,NA
60612,Cook County,IL,NA,NA,65.19721577726219,NA
60618,Cook County,IL,NA,NA,24.593967517401392,NA
60620,Cook County,IL,NA,NA,NA,3.767123287671233
60628,Cook County,IL,NA,10.504201680672269,NA,NA
60647,Cook County,IL,NA,NA,NA,32.19178082191781
60655,Cook County,IL,NA,NA,65.66125290023201,NA
60707,Cook County,IL,NA,NA,12.993039443155451,NA
60901,Kankakee County,IL,NA,21.428571428571427,NA,NA
61201,Rock Island County,IL,NA,NA,35.03480278422274,NA
61252,Whiteside County,IL,94.23076923076923,NA,NA,NA
61605,Peoria County,IL,NA,NA,NA,81.84931506849315
61607,Peoria County,IL,NA,NA,NA,83.9041095890411
61761,McLean County,IL,NA,43.48739495798319,NA,NA
62025,Madison County,IL,88.46153846153845,NA,NA,NA
62049,Montgomery County,IL,NA,NA,NA,60.95890410958904
62221,St. Clair County,IL,95.94017094017094,NA,NA,NA
62246,Bond County,IL,NA,NA,77.9582366589327,NA
62450,Richland County,IL,NA,88.23529411764706,NA,NA
62650,Morgan County,IL,NA,NA,96.2877030162413,NA
62704,Sangamon County,IL,52.13675213675214,NA,NA,NA
62864,Jefferson County,IL,NA,NA,41.9953596287703,NA
62902,Jackson County,IL,NA,NA,NA,92.8082191780822
46012,Madison County,IN,NA,NA,25.05800464037123,NA
46013,Madison County,IN,NA,NA,24.129930394431554,NA
46176,Shelby County,IN,NA,NA,14.617169373549885,NA
46214,Marion County,IN,54.48717948717948,NA,NA,NA
46220,Marion County,IN,NA,77.31092436974791,NA,NA
46231,Marion County,IN,91.23931623931624,NA,NA,NA
46241,Marion County,IN,31.41025641025641,NA,NA,NA
46304,Porter County,IN,NA,17.016806722689076,NA,NA
46307,Lake County,IN,NA,2.5210084033613445,2.088167053364269,NA
46321,Lake County,IN,60.256410256410255,NA,NA,NA
46322,Lake County,IN,57.90598290598291,NA,NA,NA
46323,Lake County,IN,NA,25.840336134453786,22.2737819025522,NA
46350,LaPorte County,IN,NA,12.815126050420167,NA,NA
46368,Porter County,IN,NA,NA,18.793503480278424,NA
46383,Porter County,IN,3.632478632478633,NA,6.2645011600928076,NA
46385,Porter County,IN,NA,10.92436974789916,NA,NA
46526,Elkhart County,IN,NA,NA,NA,38.013698630136986
46544,St. Joseph County,IN,NA,52.52100840336135,NA,NA
46637,St. Joseph County,IN,NA,NA,NA,82.53424657534246
46706,DeKalb County,IN,49.358974358974365,NA,NA,NA
46901,Howard County,IN,NA,3.1512605042016806,NA,NA
46975,Fulton County,IN,NA,NA,NA,53.76712328767124
47106,Clark County,IN,99.78632478632478,NA,NA,NA
47167,Washington County,IN,NA,NA,50.11600928074246,NA
47274,Jackson County,IN,NA,64.70588235294117,NA,NA
47901,Tippecanoe County,IN,NA,98.73949579831933,NA,NA
50023,Polk County,IA,NA,97.47899159663865,NA,96.91780821917808
50036,Boone County,IA,NA,NA,53.1322505800464,NA
50049,Lucas County,IA,NA,NA,79.35034802784223,99.65753424657534
50208,Jasper County,IA,NA,NA,64.73317865429235,NA
50213,Clarke County,IA,NA,79.62184873949579,NA,NA
50265,Polk County,IA,NA,NA,56.8445475638051,NA
50310,Polk County,IA,NA,26.680672268907564,NA,NA
50314,Polk County,IA,47.22222222222222,NA,NA,NA
50315,Polk County,IA,NA,68.4873949579832,28.306264501160094,NA
50317,Polk County,IA,NA,15.336134453781513,NA,NA
50401,Cerro Gordo County,IA,NA,15.966386554621847,NA,0.3424657534246575
50428,Cerro Gordo County,IA,NA,81.72268907563026,NA,NA
50501,Webster County,IA,NA,NA,70.06960556844548,NA
50613,Black Hawk County,IA,NA,NA,16.241299303944317,4.10958904109589
50677,Bremer County,IA,NA,80.88235294117648,NA,NA
50701,Black Hawk County,IA,NA,NA,29.00232018561485,12.32876712328767
51334,Emmet County,IA,NA,NA,51.508120649651964,NA
51501,Pottawattamie County,IA,NA,4.831932773109244,NA,NA
51537,Shelby County,IA,NA,93.69747899159664,NA,NA
51560,Pottawattamie County,IA,93.37606837606837,NA,NA,NA
52057,Delaware County,IA,NA,NA,NA,46.917808219178085
52172,Allamakee County,IA,NA,NA,NA,95.8904109589041
52402,Linn County,IA,NA,55.04201680672269,NA,NA
52403,Linn County,IA,NA,NA,43.38747099767982,NA
52404,Linn County,IA,NA,12.184873949579831,NA,NA
52738,Louisa County,IA,75.21367521367522,NA,NA,NA
52748,Scott County,IA,90.17094017094017,NA,NA,NA
52761,Muscatine County,IA,NA,15.126050420168067,NA,NA
52804,Scott County,IA,44.230769230769226,NA,NA,NA
66109,Wyandotte County,KS,84.1880341880342,NA,NA,NA
66212,Johnson County,KS,NA,60.924369747899156,NA,NA
66214,Johnson County,KS,NA,89.70588235294117,NA,NA
66221,Johnson County,KS,NA,72.47899159663865,NA,NA
66801,Lyon County,KS,NA,54.621848739495796,NA,NA
67206,Sedgwick County,KS,NA,NA,NA,86.98630136986301
67502,Reno County,KS,NA,NA,57.076566125290014,NA
40065,Shelby County,KY,NA,44.747899159663866,NA,NA
40165,Bullitt County,KY,NA,18.067226890756302,NA,NA
40212,Jefferson County,KY,29.914529914529915,NA,NA,NA
40218,Jefferson County,KY,30.76923076923077,NA,41.29930394431555,NA
40219,Jefferson County,KY,NA,16.80672268907563,NA,NA
40511,Fayette County,KY,37.17948717948718,NA,NA,NA
40744,Laurel County,KY,NA,32.773109243697476,NA,NA
41056,Mason County,KY,NA,46.84873949579832,NA,NA
41074,Campbell County,KY,86.11111111111111,NA,NA,NA
41101,Boyd County,KY,NA,53.15126050420168,NA,NA
41139,Greenup County,KY,NA,NA,NA,62.671232876712324
41164,Carter County,KY,NA,NA,38.05104408352668,43.83561643835616
42129,Metcalfe County,KY,75.85470085470085,NA,NA,NA
42320,Ohio County,KY,52.56410256410257,NA,NA,NA
70030,St. Charles Parish,LA,97.22222222222221,NA,NA,NA
70113,Orleans Parish,LA,NA,34.66386554621849,67.28538283062645,NA
70119,Orleans Parish,LA,10.897435897435898,7.563025210084033,NA,30.82191780821918
70122,Orleans Parish,LA,NA,NA,14.385150812064964,NA
70127,Orleans Parish,LA,4.05982905982906,NA,NA,NA
70363,Terrebonne Parish,LA,NA,NA,NA,37.67123287671233
70443,Tangipahoa Parish,LA,28.846153846153843,NA,NA,NA
70447,St. Tammany Parish,LA,NA,NA,NA,58.9041095890411
70448,St. Tammany Parish,LA,48.717948717948715,NA,NA,NA
70471,St. Tammany Parish,LA,NA,NA,25.52204176334107,NA
70506,Lafayette Parish,LA,NA,9.033613445378151,21.11368909512761,NA
70520,Lafayette Parish,LA,NA,27.73109243697479,NA,NA
70592,Lafayette Parish,LA,20.299145299145298,NA,NA,NA
70607,Calcasieu Parish,LA,28.418803418803417,NA,NA,NA
70648,Allen Parish,LA,63.24786324786324,NA,NA,NA
71107,Caddo Parish,LA,2.3504273504273505,NA,NA,NA
71115,Caddo Parish,LA,NA,NA,84.91879350348029,NA
71118,Caddo Parish,LA,57.692307692307686,NA,NA,NA
71202,Ouachita Parish,LA,5.982905982905983,NA,NA,NA
71254,East Carroll Parish,LA,NA,99.36974789915966,NA,NA
71350,Avoyelles Parish,LA,NA,NA,93.03944315545245,NA
04064,York County,ME,NA,76.68067226890757,NA,NA
04071,Cumberland County,ME,86.53846153846155,NA,NA,NA
04084,Cumberland County,ME,NA,96.21848739495799,NA,NA
04103,Cumberland County,ME,NA,NA,26.68213457076566,NA
04106,Cumberland County,ME,NA,39.075630252100844,NA,NA
04240,Androscoggin County,ME,NA,17.857142857142858,NA,1.7123287671232876
04253,Androscoggin County,ME,NA,99.57983193277312,NA,NA
04276,Oxford County,ME,NA,NA,NA,65.41095890410958
04330,Kennebec County,ME,7.051282051282051,NA,37.12296983758701,76.02739726027397
04742,Aroostook County,ME,NA,NA,65.4292343387471,NA
20657,Calvert County,MD,NA,94.11764705882352,NA,NA
20659,St. Mary's County,MD,NA,NA,NA,75.34246575342466
20723,Howard County,MD,68.16239316239316,NA,NA,NA
20736,Calvert County,MD,NA,NA,NA,83.56164383561644
20746,Prince George's County,MD,NA,66.38655462184873,NA,NA
20754,Calvert County,MD,NA,NA,98.60788863109049,NA
20772,Prince George's County,MD,NA,52.73109243697479,NA,NA
20816,Montgomery County,MD,NA,NA,NA,67.8082191780822
20878,Montgomery County,MD,NA,NA,58.23665893271461,NA
21030,Baltimore County,MD,NA,NA,NA,61.64383561643836
21114,Anne Arundel County,MD,NA,NA,95.59164733178655,NA
21128,Baltimore County,MD,81.19658119658119,NA,NA,NA
21206,Baltimore city,MD,NA,15.546218487394958,NA,NA
21207,Baltimore County,MD,NA,NA,NA,15.068493150684931
21210,Baltimore city,MD,NA,NA,70.06960556844548,NA
21229,Baltimore city,MD,NA,NA,NA,20.89041095890411
21234,Baltimore County,MD,NA,NA,NA,72.26027397260275
21237,Baltimore County,MD,NA,NA,52.66821345707656,NA
21244,Baltimore County,MD,NA,76.26050420168067,NA,NA
21784,Carroll County,MD,NA,NA,83.75870069605568,NA
01007,Hampshire County,MA,NA,53.99159663865546,NA,NA
01069,Hampden County,MA,99.35897435897436,NA,NA,NA
01105,Hampden County,MA,43.8034188034188,NA,NA,NA
01109,Hampden County,MA,NA,0,NA,NA
01201,Berkshire County,MA,NA,12.605042016806722,NA,39.04109589041096
01220,Berkshire County,MA,NA,NA,86.3109048723898,NA
01225,Berkshire County,MA,NA,NA,97.91183294663574,NA
01226,Berkshire County,MA,NA,NA,60.556844547563806,NA
01267,Berkshire County,MA,NA,NA,NA,50.34246575342466
01420,Worcester County,MA,7.478632478632479,NA,NA,NA
01534,Worcester County,MA,89.31623931623932,NA,NA,NA
01535,Worcester County,MA,82.05128205128204,NA,NA,NA
01562,Worcester County,MA,NA,NA,NA,87.32876712328768
01570,Worcester County,MA,NA,6.932773109243698,NA,NA
01604,Worcester County,MA,NA,NA,2.320185614849188,NA
01702,Middlesex County,MA,10.042735042735043,NA,NA,NA
01746,Middlesex County,MA,NA,26.260504201680675,NA,NA
01801,Middlesex County,MA,NA,1.680672268907563,NA,0.684931506849315
01821,Middlesex County,MA,78.2051282051282,NA,NA,35.95890410958904
01841,Essex County,MA,NA,NA,0,NA
01843,Essex County,MA,30.982905982905983,NA,NA,NA
01854,Middlesex County,MA,NA,NA,6.728538283062645,NA
01867,Middlesex County,MA,NA,NA,11.600928074245939,NA
01876,Middlesex County,MA,82.05128205128204,NA,NA,NA
01905,Essex County,MA,NA,NA,9.048723897911833,NA
01906,Essex County,MA,NA,3.7815126050420167,NA,NA
01913,Essex County,MA,NA,NA,79.81438515081206,NA
01923,Essex County,MA,NA,NA,NA,1.36986301369863
01930,Essex County,MA,27.136752136752136,NA,NA,NA
01949,Essex County,MA,NA,NA,NA,58.21917808219178
01960,Essex County,MA,NA,NA,7.424593967517401,NA
01970,Essex County,MA,NA,NA,0.9280742459396751,NA
01982,Essex County,MA,NA,NA,NA,66.43835616438356
02021,Norfolk County,MA,48.504273504273506,NA,NA,NA
02061,Plymouth County,MA,NA,NA,86.77494199535964,NA
02066,Plymouth County,MA,67.09401709401709,NA,NA,NA
02124,Suffolk County,MA,21.153846153846153,NA,NA,NA
02128,Suffolk County,MA,20.085470085470085,NA,NA,NA
02135,Suffolk County,MA,34.401709401709404,6.302521008403361,NA,NA
02138,Middlesex County,MA,NA,44.32773109243697,NA,NA
02139,Middlesex County,MA,12.82051282051282,NA,NA,NA
02148,Middlesex County,MA,NA,NA,NA,0
02149,Middlesex County,MA,NA,20.3781512605042,NA,2.054794520547945
02150,Suffolk County,MA,91.02564102564102,NA,NA,NA
02155,Middlesex County,MA,NA,1.4705882352941175,0.6960556844547563,NA
02302,Plymouth County,MA,55.12820512820513,NA,NA,NA
02330,Plymouth County,MA,NA,NA,34.33874709976798,NA
02346,Plymouth County,MA,NA,14.285714285714285,NA,NA
02360,Plymouth County,MA,NA,NA,0.46403712296983757,NA
02364,Plymouth County,MA,NA,55.67226890756303,NA,NA
02368,Norfolk County,MA,NA,2.941176470588235,NA,NA
02452,Middlesex County,MA,NA,NA,72.8538283062645,NA
02453,Middlesex County,MA,NA,NA,NA,15.753424657534246
02472,Middlesex County,MA,NA,NA,NA,41.43835616438356
02476,Middlesex County,MA,NA,NA,NA,66.0958904109589
02492,Norfolk County,MA,NA,30.672268907563026,NA,NA
02649,Barnstable County,MA,NA,NA,31.322505800464036,NA
02703,Bristol County,MA,NA,NA,1.3921113689095126,NA
02726,Bristol County,MA,NA,NA,33.4106728538283,NA
02780,Bristol County,MA,NA,NA,67.98143851508121,NA
48038,Macomb County,MI,NA,17.436974789915965,NA,NA
48042,Macomb County,MI,NA,NA,NA,57.1917808219178
48059,St. Clair County,MI,NA,NA,46.403712296983755,NA
48076,Oakland County,MI,27.99145299145299,NA,29.466357308584683,34.24657534246575
48091,Macomb County,MI,15.17094017094017,NA,NA,NA
48105,Washtenaw County,MI,NA,72.68907563025209,NA,NA
48111,Wayne County,MI,13.247863247863249,NA,NA,NA
48116,Livingston County,MI,30.982905982905983,NA,19.489559164733176,NA
48131,Monroe County,MI,NA,NA,NA,90.06849315068493
48135,Wayne County,MI,37.39316239316239,NA,NA,NA
48164,Wayne County,MI,NA,73.73949579831933,NA,NA
48169,Livingston County,MI,NA,NA,33.64269141531322,NA
48178,Oakland County,MI,NA,37.18487394957983,NA,NA
48180,Wayne County,MI,1.9230769230769231,NA,NA,NA
48193,Wayne County,MI,NA,58.40336134453782,NA,NA
48195,Wayne County,MI,70.2991452991453,NA,12.296983758700696,NA
48198,Washtenaw County,MI,4.914529914529915,NA,NA,NA
48204,Wayne County,MI,76.92307692307693,NA,NA,NA
48205,Wayne County,MI,6.837606837606838,NA,NA,NA
48209,Wayne County,MI,30.128205128205128,NA,NA,NA
48212,Wayne County,MI,26.923076923076923,NA,NA,NA
48214,Wayne County,MI,NA,25.210084033613445,NA,NA
48223,Wayne County,MI,50.427350427350426,NA,NA,NA
48224,Wayne County,MI,0.8547008547008548,3.361344537815126,NA,NA
48225,Wayne County,MI,42.73504273504273,42.436974789915965,NA,NA
48227,Wayne County,MI,9.18803418803419,NA,NA,NA
48238,Wayne County,MI,14.102564102564102,NA,NA,NA
48302,Oakland County,MI,NA,NA,NA,27.73972602739726
48310,Macomb County,MI,NA,NA,15.777262180974477,NA
48314,Macomb County,MI,NA,NA,NA,78.42465753424658
48329,Oakland County,MI,NA,NA,NA,24.65753424657534
48331,Oakland County,MI,NA,71.00840336134453,NA,NA
48377,Oakland County,MI,82.05128205128204,NA,NA,NA
48439,Genesee County,MI,NA,NA,18.097447795823665,NA
48446,Lapeer County,MI,NA,NA,NA,17.465753424657535
48453,Sanilac County,MI,88.03418803418803,NA,NA,NA
48462,Oakland County,MI,NA,NA,73.08584686774941,NA
48473,Genesee County,MI,NA,46.42857142857143,NA,NA
48601,Saginaw County,MI,NA,2.73109243697479,NA,NA
48642,Midland County,MI,NA,NA,8.816705336426914,NA
48820,Clinton County,MI,NA,NA,NA,46.57534246575342
48843,Livingston County,MI,4.487179487179487,NA,NA,NA
48864,Ingham County,MI,NA,NA,48.49187935034803,NA
48875,Ionia County,MI,NA,NA,NA,52.73972602739726
49004,Kalamazoo County,MI,NA,47.26890756302521,NA,NA
49017,Calhoun County,MI,NA,NA,28.770301624129928,NA
49037,Calhoun County,MI,NA,19.11764705882353,NA,NA
49201,Jackson County,MI,15.384615384615385,NA,NA,NA
49269,Jackson County,MI,92.94871794871796,NA,NA,NA
49333,Barry County,MI,NA,69.9579831932773,NA,NA
49336,Mecosta County,MI,NA,95.58823529411765,NA,NA
49345,Kent County,MI,NA,73.10924369747899,NA,NA
49424,Ottawa County,MI,46.15384615384615,NA,NA,NA
49444,Muskegon County,MI,NA,13.23529411764706,NA,NA
49504,Kent County,MI,NA,NA,NA,7.534246575342466
49712,Charlevoix County,MI,NA,85.50420168067227,NA,NA
49735,Otsego County,MI,NA,36.134453781512605,NA,NA
49783,Chippewa County,MI,NA,NA,54.292343387471,NA
49801,Dickinson County,MI,NA,NA,43.1554524361949,NA
49829,Delta County,MI,NA,37.60504201680672,NA,NA
49837,Delta County,MI,NA,NA,80.04640371229699,NA
49913,Houghton County,MI,NA,NA,NA,38.6986301369863
49920,Iron County,MI,NA,NA,56.380510440835266,NA
55011,Anoka County,MN,66.45299145299145,NA,NA,NA
55025,Washington County,MN,NA,NA,61.48491879350348,NA
55066,Goodhue County,MN,NA,NA,22.96983758700696,NA
55103,Ramsey County,MN,NA,NA,94.19953596287704,NA
55125,Washington County,MN,NA,NA,NA,36.64383561643836
55309,Sherburne County,MN,NA,96.84873949579831,NA,NA
55337,Dakota County,MN,20.51282051282051,NA,NA,NA
55346,Hennepin County,MN,NA,87.39495798319328,NA,NA
55371,Mille Lacs County,MN,NA,54.83193277310925,NA,NA
55408,Hennepin County,MN,19.871794871794872,NA,NA,NA
55413,Hennepin County,MN,73.50427350427351,NA,NA,NA
55418,Hennepin County,MN,45.94017094017094,NA,NA,NA
55423,Hennepin County,MN,56.1965811965812,NA,NA,NA
55445,Hennepin County,MN,36.965811965811966,NA,NA,NA
55802,St. Louis County,MN,NA,92.01680672268907,NA,NA
55811,St. Louis County,MN,NA,33.403361344537814,NA,NA
56007,Freeborn County,MN,NA,NA,9.280742459396752,NA
56058,Le Sueur County,MN,NA,89.49579831932773,NA,NA
56156,Rock County,MN,76.06837606837607,NA,NA,NA
56265,Chippewa County,MN,NA,NA,54.524361948955914,NA
56303,Stearns County,MN,NA,NA,NA,73.28767123287672
56308,Douglas County,MN,NA,NA,NA,80.13698630136986
56470,Hubbard County,MN,NA,69.32773109243698,NA,NA
56501,Becker County,MN,NA,72.05882352941177,NA,NA
56547,Clay County,MN,NA,100,NA,NA
56560,Clay County,MN,NA,NA,NA,40.06849315068493
56601,Beltrami County,MN,7.6923076923076925,9.663865546218489,NA,NA
56633,Hubbard County,MN,91.66666666666666,NA,NA,NA
56721,Polk County,MN,NA,NA,NA,30.47945205479452
39056,Hinds County,MS,NA,NA,69.37354988399072,NA
39168,Smith County,MS,NA,NA,NA,70.54794520547945
39305,Lauderdale County,MS,NA,NA,NA,44.178082191780824
39426,Pearl River County,MS,NA,NA,42.69141531322506,NA
39428,Covington County,MS,NA,78.78151260504201,NA,NA
39476,Perry County,MS,NA,NA,81.90255220417633,NA
39560,Harrison County,MS,38.88888888888889,NA,12.064965197215777,NA
39652,Pike County,MS,NA,74.15966386554622,NA,NA
63010,Jefferson County,MO,NA,NA,30.8584686774942,NA
63034,St. Louis County,MO,78.41880341880342,NA,NA,NA
63121,St. Louis County,MO,NA,32.983193277310924,NA,NA
63125,St. Louis County,MO,59.18803418803419,NA,NA,NA
63132,St. Louis County,MO,NA,82.14285714285714,NA,NA
63135,St. Louis County,MO,21.367521367521366,NA,NA,NA
63146,St. Louis County,MO,NA,NA,NA,6.8493150684931505
63366,St. Charles County,MO,NA,16.386554621848738,NA,NA
63501,Adair County,MO,NA,NA,62.41299303944315,NA
63780,Scott County,MO,NA,NA,76.5661252900232,NA
63845,Mississippi County,MO,83.97435897435898,NA,NA,NA
63901,Butler County,MO,NA,NA,27.1461716937355,NA
64012,Cass County,MO,26.282051282051285,NA,NA,NA
64014,Jackson County,MO,NA,26.05042016806723,NA,NA
64015,Jackson County,MO,NA,NA,20.649651972157773,NA
64024,Clay County,MO,NA,22.689075630252102,NA,NA
64030,Jackson County,MO,NA,NA,22.041763341067284,NA
64034,Jackson County,MO,NA,NA,91.87935034802784,NA
64052,Jackson County,MO,NA,NA,38.51508120649652,NA
64057,Jackson County,MO,NA,75.84033613445378,NA,47.26027397260274
64068,Clay County,MO,0.4273504273504274,NA,NA,NA
64076,Lafayette County,MO,NA,NA,NA,76.36986301369863
64105,Jackson County,MO,NA,95.16806722689076,NA,NA
64109,Jackson County,MO,55.34188034188035,NA,NA,NA
64119,Clay County,MO,15.598290598290598,NA,NA,NA
64123,Jackson County,MO,57.47863247863248,NA,NA,NA
64130,Jackson County,MO,16.45299145299145,NA,NA,NA
64131,Jackson County,MO,30.555555555555557,18.487394957983195,NA,NA
64134,Jackson County,MO,NA,17.22689075630252,NA,NA
64154,Platte County,MO,NA,75.42016806722688,NA,NA
64503,Buchanan County,MO,32.26495726495727,NA,NA,NA
64506,Buchanan County,MO,NA,23.949579831932773,NA,NA
64701,Cass County,MO,44.01709401709402,NA,NA,NA
64744,Cedar County,MO,80.76923076923077,NA,NA,NA
64772,Vernon County,MO,NA,44.537815126050425,NA,NA
64804,Jasper County,MO,NA,21.84873949579832,10.904872389791183,NA
64850,Newton County,MO,NA,20.588235294117645,NA,NA
65065,Camden County,MO,NA,97.26890756302521,NA,NA
65078,Morgan County,MO,NA,NA,NA,100
65084,Morgan County,MO,NA,NA,NA,88.01369863013699
65233,Cooper County,MO,NA,68.69747899159664,60.78886310904872,NA
65301,Pettis County,MO,NA,NA,9.744779582366588,NA
65325,Benton County,MO,NA,NA,99.30394431554525,NA
65355,Benton County,MO,NA,NA,NA,36.986301369863014
65706,Webster County,MO,NA,NA,66.35730858468676,NA
65714,Christian County,MO,60.68376068376068,NA,NA,NA
65775,Howell County,MO,41.452991452991455,NA,NA,NA
59102,Yellowstone County,MT,NA,NA,NA,10.273972602739725
59405,Cascade County,MT,NA,31.932773109243694,NA,NA
59715,Gallatin County,MT,NA,55.46218487394958,NA,NA
59804,Missoula County,MT,NA,NA,77.7262180974478,NA
68003,Saunders County,NE,89.95726495726495,NA,NA,NA
68105,Douglas County,NE,56.837606837606835,NA,NA,NA
68107,Douglas County,NE,45.2991452991453,NA,NA,NA
68135,Douglas County,NE,NA,NA,68.67749419953596,NA
68845,Buffalo County,NE,NA,NA,63.10904872389791,NA
89110,Clark County,NV,NA,25.630252100840334,NA,NA
89117,Clark County,NV,NA,NA,38.97911832946635,NA
89131,Clark County,NV,NA,NA,48.95591647331787,NA
89138,Clark County,NV,NA,89.91596638655463,NA,NA
89434,Washoe County,NV,NA,NA,68.90951276102089,NA
89441,Washoe County,NV,NA,NA,71.92575406032483,NA
89503,Washoe County,NV,NA,NA,45.93967517401392,NA
89521,Washoe County,NV,NA,NA,NA,60.273972602739725
89703,Carson City,NV,NA,NA,NA,55.13698630136986
03031,Hillsborough County,NH,NA,NA,63.80510440835266,NA
03053,Rockingham County,NH,NA,NA,27.610208816705335,NA
03062,Hillsborough County,NH,32.05128205128205,NA,NA,NA
03104,Hillsborough County,NH,NA,46.63865546218487,NA,NA
03235,Merrimack County,NH,73.07692307692307,NA,NA,NA
03246,Belknap County,NH,NA,NA,66.8213457076566,NA
03766,Grafton County,NH,NA,NA,NA,43.49315068493151
03833,Rockingham County,NH,NA,NA,NA,92.46575342465754
03860,Carroll County,NH,NA,NA,90.48723897911833,NA
07055,Passaic County,NJ,NA,1.8907563025210083,4.176334106728538,NA
07087,Hudson County,NJ,NA,4.621848739495799,NA,NA
07095,Middlesex County,NJ,NA,NA,NA,71.57534246575342
07106,Essex County,NJ,NA,7.773109243697479,NA,NA
07107,Essex County,NJ,34.18803418803419,NA,NA,NA
07306,Hudson County,NJ,NA,8.403361344537815,NA,NA
07417,Bergen County,NJ,NA,NA,NA,77.05479452054794
07924,Somerset County,NJ,NA,NA,95.82366589327145,NA
07932,Morris County,NJ,NA,NA,NA,66.78082191780823
07960,Morris County,NJ,NA,NA,NA,50
08070,Salem County,NJ,NA,NA,51.04408352668214,NA
08080,Gloucester County,NJ,11.965811965811966,NA,NA,NA
08525,Mercer County,NJ,70.72649572649573,NA,NA,NA
08701,Ocean County,NJ,2.1367521367521367,NA,NA,NA
08846,Middlesex County,NJ,NA,NA,NA,91.0958904109589
08854,Middlesex County,NJ,NA,NA,NA,26.027397260273972
08901,Middlesex County,NJ,43.376068376068375,NA,NA,NA
87105,Bernalillo County,NM,NA,5.88235294117647,NA,NA
87114,Bernalillo County,NM,18.58974358974359,NA,NA,NA
87123,Bernalillo County,NM,26.06837606837607,16.596638655462183,NA,NA
87124,Sandoval County,NM,NA,NA,10.672853828306264,NA
87301,McKinley County,NM,61.75213675213676,NA,NA,NA
87401,San Juan County,NM,39.52991452991453,NA,NA,NA
87416,San Juan County,NM,93.37606837606837,NA,NA,NA
87507,Santa Fe County,NM,NA,36.554621848739494,NA,NA
87532,Santa Fe County,NM,51.70940170940172,NA,NA,NA
88210,Eddy County,NM,NA,NA,NA,59.589041095890416
10002,New York County,NY,11.324786324786325,NA,NA,NA
10025,New York County,NY,NA,NA,1.6241299303944314,2.3972602739726026
10027,New York County,NY,60.256410256410255,NA,NA,NA
10031,New York County,NY,36.53846153846153,NA,NA,NA
10035,New York County,NY,23.504273504273502,NA,NA,8.904109589041095
10038,New York County,NY,NA,NA,NA,49.31506849315068
10301,Richmond County,NY,39.95726495726496,NA,NA,NA
10302,Richmond County,NY,92.73504273504274,NA,NA,NA
10304,Richmond County,NY,17.52136752136752,NA,NA,NA
10305,Richmond County,NY,NA,NA,19.953596287703014,NA
10310,Richmond County,NY,47.43589743589743,NA,NA,NA
10452,Bronx County,NY,2.9914529914529915,NA,NA,NA
10453,Bronx County,NY,NA,NA,9.51276102088167,NA
10454,Bronx County,NY,NA,NA,NA,26.71232876712329
10456,Bronx County,NY,NA,0.21008403361344538,NA,NA
10457,Bronx County,NY,61.32478632478633,0.42016806722689076,NA,NA
10458,Bronx County,NY,0.641025641025641,7.142857142857142,NA,NA
10460,Bronx County,NY,NA,2.3109243697478994,NA,NA
10468,Bronx County,NY,5.769230769230769,NA,NA,NA
10469,Bronx County,NY,53.41880341880342,NA,NA,NA
10473,Bronx County,NY,44.44444444444444,73.52941176470588,NA,NA
10514,Westchester County,NY,NA,NA,NA,86.64383561643835
10547,Westchester County,NY,NA,91.17647058823529,NA,NA
10562,Westchester County,NY,NA,NA,NA,37.32876712328767
10705,Westchester County,NY,34.82905982905983,NA,NA,NA
10708,Westchester County,NY,NA,NA,NA,68.15068493150685
10901,Rockland County,NY,87.6068376068376,NA,NA,NA
10965,Rockland County,NY,NA,NA,94.66357308584686,NA
10989,Rockland County,NY,NA,97.05882352941177,NA,NA
10990,Orange County,NY,NA,NA,84.68677494199535,NA
11010,Nassau County,NY,NA,NA,98.83990719257541,99.31506849315068
11206,Kings County,NY,13.88888888888889,NA,NA,NA
11208,Kings County,NY,1.7094017094017095,NA,NA,NA
11209,Kings County,NY,NA,NA,23.897911832946637,NA
11212,Kings County,NY,NA,NA,1.160092807424594,NA
11214,Kings County,NY,26.70940170940171,NA,NA,NA
11216,Kings County,NY,NA,14.705882352941178,NA,NA
11220,Kings County,NY,0,5.042016806722689,30.62645011600928,NA
11221,Kings County,NY,NA,21.638655462184875,NA,NA
11225,Kings County,NY,NA,NA,18.561484918793504,NA
11226,Kings County,NY,33.11965811965812,NA,NA,NA
11232,Kings County,NY,23.717948717948715,NA,NA,NA
11235,Kings County,NY,NA,43.69747899159664,NA,NA
11354,Queens County,NY,75,NA,NA,NA
11357,Queens County,NY,NA,75,NA,NA
11368,Queens County,NY,16.23931623931624,NA,NA,NA
11369,Queens County,NY,66.66666666666666,NA,NA,NA
11373,Queens County,NY,10.256410256410255,NA,NA,NA
11377,Queens County,NY,69.44444444444444,NA,NA,NA
11385,Queens County,NY,13.461538461538462,NA,NA,NA
11413,Queens County,NY,NA,99.15966386554622,NA,NA
11414,Queens County,NY,86.75213675213675,NA,NA,NA
11417,Queens County,NY,64.74358974358975,NA,NA,NA
11419,Queens County,NY,58.333333333333336,NA,NA,NA
11428,Queens County,NY,NA,NA,NA,68.83561643835617
11432,Queens County,NY,18.803418803418804,NA,NA,NA
11433,Queens County,NY,51.06837606837607,NA,NA,NA
11435,Queens County,NY,43.162393162393165,NA,NA,NA
11530,Nassau County,NY,NA,NA,97.4477958236659,NA
11553,Nassau County,NY,65.8119658119658,NA,NA,NA
11559,Nassau County,NY,NA,NA,NA,97.6027397260274
11581,Nassau County,NY,NA,NA,NA,97.94520547945206
11590,Nassau County,NY,93.80341880341881,NA,NA,82.87671232876713
11691,Queens County,NY,NA,NA,NA,17.123287671232877
11692,Queens County,NY,NA,NA,NA,70.2054794520548
11701,Suffolk County,NY,NA,NA,NA,95.54794520547945
11713,Suffolk County,NY,88.24786324786325,NA,NA,NA
11714,Nassau County,NY,NA,92.85714285714286,NA,NA
11725,Suffolk County,NY,NA,NA,NA,49.65753424657534
11729,Suffolk County,NY,NA,77.10084033613445,NA,NA
11735,Nassau County,NY,NA,97.68907563025209,58.0046403712297,NA
11742,Suffolk County,NY,98.71794871794873,NA,NA,NA
11743,Suffolk County,NY,NA,NA,NA,11.986301369863012
11746,Suffolk County,NY,NA,NA,NA,73.97260273972603
11747,Suffolk County,NY,NA,NA,88.16705336426914,NA
11756,Nassau County,NY,NA,61.34453781512605,NA,NA
11762,Nassau County,NY,NA,NA,82.5986078886311,NA
11772,Suffolk County,NY,NA,NA,NA,38.35616438356164
11782,Suffolk County,NY,NA,NA,NA,60.61643835616438
11788,Suffolk County,NY,NA,98.94957983193278,NA,NA
11793,Nassau County,NY,NA,NA,NA,87.67123287671232
11801,Nassau County,NY,NA,94.32773109243698,NA,NA
11944,Suffolk County,NY,NA,NA,NA,71.91780821917808
11963,Suffolk County,NY,NA,NA,NA,78.76712328767124
11967,Suffolk County,NY,NA,NA,76.10208816705337,NA
12019,Saratoga County,NY,NA,NA,95.35962877030161,NA
12110,Albany County,NY,NA,NA,81.90255220417633,NA
12118,Saratoga County,NY,NA,NA,80.74245939675174,NA
12180,Rensselaer County,NY,NA,18.69747899159664,NA,NA
12477,Ulster County,NY,NA,77.94117647058823,NA,NA
12508,Dutchess County,NY,NA,78.36134453781513,NA,NA
12828,Washington County,NY,NA,74.57983193277312,NA,NA
12983,Franklin County,NY,86.11111111111111,NA,NA,NA
13030,Madison County,NY,NA,80.25210084033614,NA,NA
13033,Cayuga County,NY,NA,93.27731092436974,NA,NA
13035,Madison County,NY,NA,NA,74.24593967517401,NA
13041,Onondaga County,NY,NA,96.00840336134453,NA,NA
13045,Cortland County,NY,NA,5.6722689075630255,NA,NA
13069,Oswego County,NY,NA,47.47899159663865,74.70997679814386,NA
13088,Onondaga County,NY,NA,30.252100840336134,NA,NA
13090,Onondaga County,NY,NA,51.26050420168067,NA,NA
13114,Oswego County,NY,NA,NA,80.97447795823666,NA
13212,Onondaga County,NY,NA,NA,NA,51.02739726027398
13323,Oneida County,NY,NA,69.53781512605042,NA,NA
13326,Otsego County,NY,NA,NA,NA,29.794520547945208
13350,Herkimer County,NY,NA,38.655462184873954,NA,NA
13357,Herkimer County,NY,45.51282051282051,NA,NA,NA
13660,St. Lawrence County,NY,NA,96.42857142857143,NA,NA
13676,St. Lawrence County,NY,77.77777777777779,NA,43.619489559164734,NA
13748,Broome County,NY,NA,NA,90.25522041763341,NA
13760,Broome County,NY,NA,NA,7.192575406032482,NA
13790,Broome County,NY,NA,NA,NA,10.95890410958904
13815,Chenango County,NY,NA,NA,16.70533642691415,NA
14032,Erie County,NY,NA,86.34453781512606,NA,NA
14048,Chautauqua County,NY,NA,NA,NA,69.52054794520548
14067,Niagara County,NY,NA,81.5126050420168,NA,NA
14072,Erie County,NY,NA,45.378151260504204,NA,NA
14075,Erie County,NY,NA,11.974789915966387,NA,NA
14150,Erie County,NY,NA,NA,NA,16.095890410958905
14206,Erie County,NY,NA,NA,30.162412993039446,NA
14211,Erie County,NY,NA,56.9327731092437,19.25754060324826,52.3972602739726
14215,Erie County,NY,NA,NA,NA,48.97260273972603
14217,Erie County,NY,NA,NA,23.4338747099768,NA
14221,Erie County,NY,NA,NA,3.480278422273782,NA
14222,Erie County,NY,NA,59.87394957983193,NA,NA
14226,Erie County,NY,NA,NA,39.675174013921115,NA
14432,Ontario County,NY,NA,39.91596638655462,NA,NA
14433,Wayne County,NY,NA,NA,NA,94.17808219178082
14437,Livingston County,NY,NA,NA,NA,58.56164383561644
14450,Monroe County,NY,1.282051282051282,NA,NA,NA
14456,Ontario County,NY,NA,10.294117647058822,NA,NA
14469,Ontario County,NY,67.09401709401709,NA,NA,NA
14470,Orleans County,NY,NA,50.21008403361344,NA,NA
14580,Monroe County,NY,0.2136752136752137,1.2605042016806722,0.23201856148491878,NA
14589,Wayne County,NY,NA,38.865546218487395,NA,NA
14606,Monroe County,NY,12.393162393162394,NA,15.081206496519723,NA
14609,Monroe County,NY,6.41025641025641,NA,NA,NA
14612,Monroe County,NY,NA,NA,1.8561484918793503,NA
14617,Monroe County,NY,NA,NA,5.104408352668213,NA
14618,Monroe County,NY,NA,21.218487394957982,NA,NA
14621,Monroe County,NY,NA,0.6302521008403361,NA,NA
14622,Monroe County,NY,NA,74.78991596638656,23.201856148491878,NA
14624,Monroe County,NY,NA,NA,2.5522041763341066,NA
14715,Allegany County,NY,NA,NA,98.14385150812065,NA
14760,Cattaraugus County,NY,NA,13.445378151260504,NA,NA
14845,Chemung County,NY,26.495726495726498,NA,NA,NA
14850,Tompkins County,NY,NA,7.9831932773109235,6.960556844547564,NA
27017,Surry County,NC,NA,NA,49.419953596287705,NA
27030,Surry County,NC,7.905982905982905,NA,NA,NA
27040,Forsyth County,NC,90.5982905982906,NA,NA,NA
27103,Forsyth County,NC,46.15384615384615,NA,NA,1.0273972602739725
27105,Forsyth County,NC,NA,NA,3.7122969837587005,NA
27106,Forsyth County,NC,NA,NA,3.944315545243619,NA
27215,Alamance County,NC,NA,NA,6.0324825986078885,NA
27284,Forsyth County,NC,NA,NA,68.21345707656613,3.0821917808219177
27302,Alamance County,NC,NA,NA,15.777262180974477,NA
27360,Davidson County,NC,NA,5.2521008403361344,NA,NA
27502,Wake County,NC,57.26495726495726,NA,NA,NA
27530,Wayne County,NC,NA,18.907563025210084,NA,NA
27569,Johnston County,NC,NA,75.21008403361344,NA,NA
27583,Person County,NC,NA,NA,86.5429234338747,NA
27603,Wake County,NC,NA,73.31932773109243,NA,40.75342465753425
27607,Wake County,NC,95.51282051282051,NA,NA,NA
27609,Wake County,NC,35.47008547008547,NA,NA,NA
27613,Wake County,NC,NA,53.36134453781513,NA,NA
27615,Wake County,NC,NA,NA,NA,9.58904109589041
27617,Wake County,NC,50.641025641025635,NA,NA,NA
27703,Durham County,NC,25.427350427350426,NA,NA,NA
27707,Durham County,NC,NA,44.957983193277315,NA,NA
27712,Durham County,NC,NA,NA,41.76334106728538,34.58904109589041
27823,Halifax County,NC,NA,77.73109243697479,NA,NA
27863,Wayne County,NC,NA,NA,89.55916473317865,NA
28054,Gaston County,NC,NA,24.369747899159663,NA,NA
28150,Cleveland County,NC,NA,NA,NA,33.56164383561644
28152,Cleveland County,NC,NA,NA,85.1508120649652,NA
28215,Mecklenburg County,NC,16.45299145299145,NA,22.505800464037122,NA
28226,Mecklenburg County,NC,NA,55.88235294117647,NA,NA
28227,Mecklenburg County,NC,58.54700854700855,NA,NA,NA
28269,Mecklenburg County,NC,16.88034188034188,NA,NA,NA
28327,Moore County,NC,95.94017094017094,NA,NA,NA
28365,Wayne County,NC,NA,NA,71.6937354988399,69.17808219178082
28501,Lenoir County,NC,NA,NA,NA,47.94520547945205
28539,Onslow County,NC,75.21367521367522,NA,NA,NA
28601,Catawba County,NC,NA,NA,11.1368909512761,NA
28645,Caldwell County,NC,NA,5.46218487394958,NA,NA
28677,Iredell County,NC,33.547008547008545,20.168067226890756,NA,NA
28690,Burke County,NC,NA,58.19327731092437,NA,NA
28792,Henderson County,NC,NA,NA,12.529002320185615,NA
28906,Cherokee County,NC,NA,NA,NA,48.28767123287671
58072,Barnes County,ND,70.94017094017094,NA,NA,NA
58078,Cass County,ND,NA,29.411764705882355,NA,NA
58103,Cass County,ND,38.46153846153847,10.084033613445378,63.57308584686775,NA
58104,Cass County,ND,NA,NA,14.849187935034802,NA
58201,Grand Forks County,ND,10.683760683760683,NA,NA,NA
58237,Walsh County,ND,90.5982905982906,NA,NA,NA
58501,Burleigh County,ND,NA,NA,32.01856148491879,NA
58701,Ward County,ND,8.76068376068376,NA,NA,NA
43015,Delaware County,OH,39.1025641025641,NA,NA,NA
43016,Franklin County,OH,65.8119658119658,NA,NA,NA
43068,Franklin County,OH,NA,39.705882352941174,NA,NA
43081,Franklin County,OH,17.94871794871795,NA,NA,NA
43123,Franklin County,OH,NA,10.714285714285714,NA,NA
43125,Franklin County,OH,96.58119658119658,NA,NA,NA
43130,Fairfield County,OH,NA,2.100840336134454,NA,NA
43138,Hocking County,OH,NA,33.193277310924366,62.18097447795824,NA
43143,Madison County,OH,NA,NA,96.98375870069606,NA
43203,Franklin County,OH,68.37606837606837,NA,NA,NA
43204,Franklin County,OH,14.957264957264957,NA,NA,NA
43211,Franklin County,OH,71.7948717948718,14.07563025210084,NA,NA
43213,Franklin County,OH,12.606837606837606,NA,NA,NA
43219,Franklin County,OH,19.230769230769234,NA,NA,NA
43220,Franklin County,OH,47.008547008547005,NA,NA,NA
43224,Franklin County,OH,36.11111111111111,NA,NA,NA
43227,Franklin County,OH,3.418803418803419,NA,NA,36.3013698630137
43228,Franklin County,OH,53.205128205128204,NA,NA,NA
43229,Franklin County,OH,3.8461538461538463,NA,NA,NA
43231,Franklin County,OH,NA,77.31092436974791,NA,NA
43232,Franklin County,OH,8.547008547008547,NA,17.16937354988399,NA
43512,Defiance County,OH,5.3418803418803416,NA,NA,NA
43545,Henry County,OH,NA,67.01680672268907,NA,NA
43605,Lucas County,OH,NA,3.571428571428571,NA,NA
43607,Lucas County,OH,14.316239316239315,9.243697478991598,NA,NA
43611,Lucas County,OH,65.38461538461539,NA,NA,NA
43612,Lucas County,OH,5.555555555555555,NA,NA,NA
43701,Muskingum County,OH,NA,1.050420168067227,53.596287703016245,NA
43764,Perry County,OH,NA,NA,68.44547563805105,NA
43950,Belmont County,OH,86.96581196581197,NA,NA,NA
44044,Lorain County,OH,NA,NA,NA,98.97260273972603
44062,Geauga County,OH,89.52991452991454,NA,NA,NA
44077,Lake County,OH,9.401709401709402,NA,NA,NA
44094,Lake County,OH,35.256410256410255,NA,NA,NA
44105,Cuyahoga County,OH,7.264957264957266,NA,NA,NA
44108,Cuyahoga County,OH,NA,4.201680672268908,6.496519721577726,NA
44111,Cuyahoga County,OH,NA,NA,3.248259860788863,NA
44112,Cuyahoga County,OH,NA,NA,5.56844547563805,NA
44116,Cuyahoga County,OH,NA,NA,NA,5.821917808219178
44121,Cuyahoga County,OH,NA,NA,15.54524361948956,NA
44124,Cuyahoga County,OH,23.076923076923077,NA,NA,NA
44125,Cuyahoga County,OH,21.794871794871796,NA,NA,NA
44128,Cuyahoga County,OH,17.094017094017094,NA,NA,NA
44131,Cuyahoga County,OH,NA,NA,NA,5.136986301369863
44134,Cuyahoga County,OH,55.769230769230774,NA,NA,NA
44135,Cuyahoga County,OH,24.57264957264957,NA,NA,NA
44138,Cuyahoga County,OH,NA,NA,NA,21.575342465753426
44139,Cuyahoga County,OH,NA,45.588235294117645,NA,NA
44140,Cuyahoga County,OH,NA,NA,32.94663573085847,NA
44142,Cuyahoga County,OH,NA,30.462184873949578,NA,NA
44240,Portage County,OH,57.05128205128205,31.092436974789916,NA,NA
44241,Portage County,OH,NA,NA,25.290023201856147,NA
44256,Medina County,OH,NA,NA,8.120649651972158,NA
44260,Portage County,OH,NA,69.74789915966386,NA,NA
44270,Wayne County,OH,48.07692307692308,NA,NA,NA
44303,Summit County,OH,84.61538461538461,NA,NA,NA
44306,Summit County,OH,9.615384615384617,NA,NA,NA
44307,Summit County,OH,NA,49.36974789915966,NA,NA
44312,Summit County,OH,NA,NA,11.36890951276102,NA
44425,Trumbull County,OH,28.846153846153843,NA,NA,NA
44485,Trumbull County,OH,14.743589743589745,NA,NA,NA
44512,Mahoning County,OH,NA,NA,NA,13.698630136986301
44601,Stark County,OH,NA,NA,10.208816705336426,NA
44646,Stark County,OH,NA,NA,15.31322505800464,NA
44721,Stark County,OH,NA,NA,NA,61.986301369863014
44730,Stark County,OH,NA,97.89915966386555,NA,NA
44905,Richland County,OH,49.14529914529914,NA,NA,NA
45005,Warren County,OH,19.230769230769234,12.394957983193278,NA,NA
45013,Butler County,OH,24.358974358974358,NA,NA,NA
45014,Butler County,OH,17.52136752136752,NA,NA,NA
45039,Warren County,OH,NA,52.3109243697479,NA,NA
45040,Warren County,OH,NA,34.87394957983193,NA,NA
45044,Butler County,OH,1.4957264957264957,NA,NA,NA
45211,Hamilton County,OH,18.162393162393162,NA,NA,64.04109589041096
45224,Hamilton County,OH,40.81196581196581,NA,NA,NA
45225,Hamilton County,OH,62.39316239316239,NA,NA,NA
45226,Hamilton County,OH,NA,98.52941176470588,NA,NA
45229,Hamilton County,OH,NA,NA,NA,63.35616438356164
45233,Hamilton County,OH,NA,NA,NA,34.93150684931507
45237,Hamilton County,OH,NA,31.72268907563025,NA,NA
45240,Hamilton County,OH,NA,NA,47.09976798143852,NA
45404,Montgomery County,OH,59.82905982905983,NA,NA,NA
45417,Montgomery County,OH,21.581196581196583,11.76470588235294,NA,NA
45420,Montgomery County,OH,NA,30.04201680672269,NA,NA
45432,Greene County,OH,53.84615384615385,NA,NA,NA
45601,Ross County,OH,0.8547008547008548,0.8403361344537815,NA,NA
45631,Gallia County,OH,NA,NA,NA,6.164383561643835
45638,Lawrence County,OH,NA,NA,28.074245939675173,NA
45662,Scioto County,OH,4.700854700854701,3.9915966386554618,NA,NA
45750,Washington County,OH,32.69230769230769,NA,NA,NA
45784,Washington County,OH,NA,94.9579831932773,NA,NA
45805,Allen County,OH,42.0940170940171,NA,NA,NA
45822,Mercer County,OH,NA,NA,NA,20.205479452054796
45840,Hancock County,OH,20.726495726495727,NA,NA,NA
73008,Oklahoma County,OK,NA,NA,NA,39.38356164383562
73018,Grady County,OK,51.06837606837607,NA,NA,NA
73030,Murray County,OK,NA,86.1344537815126,NA,NA
73071,Cleveland County,OK,39.95726495726496,NA,NA,NA
73072,Cleveland County,OK,NA,NA,NA,33.21917808219178
73107,Oklahoma County,OK,NA,NA,NA,76.71232876712328
73116,Oklahoma County,OK,89.1025641025641,NA,NA,NA
73443,Carter County,OK,NA,NA,99.07192575406032,NA
73772,Blaine County,OK,NA,NA,91.415313225058,NA
74011,Tulsa County,OK,NA,NA,47.56380510440835,NA
74019,Rogers County,OK,76.49572649572649,NA,NA,NA
74063,Tulsa County,OK,NA,62.18487394957983,NA,NA
74074,Payne County,OK,NA,NA,42.92343387470998,NA
74107,Tulsa County,OK,84.1880341880342,NA,NA,NA
74126,Tulsa County,OK,NA,78.78151260504201,NA,NA
74331,Delaware County,OK,NA,NA,NA,84.93150684931507
74344,Delaware County,OK,NA,NA,52.43619489559165,NA
74354,Ottawa County,OK,NA,NA,NA,55.47945205479452
74728,McCurtain County,OK,54.700854700854705,NA,NA,NA
74859,Okfuskee County,OK,NA,NA,87.00696055684455,NA
97006,Washington County,OR,NA,NA,34.80278422273782,NA
97008,Washington County,OR,91.88034188034187,NA,NA,NA
97030,Multnomah County,OR,NA,NA,21.809744779582367,NA
97051,Columbia County,OR,68.80341880341881,NA,NA,NA
97071,Marion County,OR,NA,NA,55.68445475638051,NA
97103,Clatsop County,OR,NA,NA,NA,19.863013698630137
97146,Clatsop County,OR,NA,NA,72.62180974477958,NA
97220,Multnomah County,OR,NA,39.49579831932773,NA,NA
97229,Washington County,OR,13.034188034188036,40.12605042016807,NA,NA
97232,Multnomah County,OR,NA,NA,92.34338747099768,NA
97239,Multnomah County,OR,NA,NA,90.02320185614849,NA
97266,Multnomah County,OR,22.863247863247864,NA,NA,NA
97352,Marion County,OR,NA,NA,89.79118329466357,NA
97415,Curry County,OR,NA,NA,NA,22.26027397260274
97448,Lane County,OR,NA,NA,NA,81.84931506849315
97501,Jackson County,OR,NA,NA,92.11136890951276,NA
97504,Jackson County,OR,NA,NA,NA,81.5068493150685
97520,Jackson County,OR,NA,NA,NA,28.767123287671232
15042,Beaver County,PA,79.27350427350427,NA,NA,NA
15068,Westmoreland County,PA,NA,NA,12.761020881670534,NA
15143,Allegheny County,PA,NA,76.05042016806722,NA,NA
15229,Allegheny County,PA,NA,86.76470588235294,NA,NA
15537,Bedford County,PA,88.88888888888889,NA,NA,NA
15656,Westmoreland County,PA,NA,NA,NA,64.38356164383562
15701,Indiana County,PA,NA,NA,51.27610208816705,NA
15825,Jefferson County,PA,NA,NA,NA,26.36986301369863
15905,Cambria County,PA,NA,NA,NA,20.54794520547945
15946,Cambria County,PA,NA,NA,NA,97.26027397260275
15963,Somerset County,PA,NA,68.0672268907563,NA,NA
16316,Crawford County,PA,NA,84.03361344537815,NA,NA
16601,Blair County,PA,NA,13.025210084033615,NA,NA
16749,McKean County,PA,NA,NA,85.84686774941996,NA
17011,Cumberland County,PA,NA,29.831932773109244,23.665893271461716,NA
17013,Cumberland County,PA,NA,NA,NA,90.41095890410958
17020,Perry County,PA,NA,NA,69.60556844547564,NA
17022,Lancaster County,PA,14.529914529914532,NA,NA,NA
17050,Cumberland County,PA,35.68376068376068,NA,NA,17.80821917808219
17065,Cumberland County,PA,NA,90.96638655462185,NA,NA
17070,Cumberland County,PA,NA,NA,NA,62.328767123287676
17110,Dauphin County,PA,NA,19.747899159663866,NA,NA
17111,Dauphin County,PA,NA,NA,7.65661252900232,NA
17112,Dauphin County,PA,NA,NA,84.45475638051045,NA
17315,York County,PA,NA,NA,17.40139211136891,NA
17322,York County,PA,85.25641025641025,NA,88.39907192575406,NA
17356,York County,PA,NA,NA,73.78190255220419,NA
17402,York County,PA,NA,NA,58.70069605568445,NA
17403,York County,PA,NA,4.411764705882353,NA,NA
17509,Lancaster County,PA,NA,99.78991596638656,NA,NA
17545,Lancaster County,PA,NA,47.05882352941176,NA,NA
17552,Lancaster County,PA,NA,42.226890756302524,NA,NA
17554,Lancaster County,PA,NA,85.29411764705883,NA,NA
17728,Lycoming County,PA,NA,NA,NA,86.3013698630137
17824,Northumberland County,PA,NA,NA,NA,53.082191780821915
17847,Northumberland County,PA,NA,66.59663865546219,NA,NA
17872,Northumberland County,PA,NA,NA,71.22969837587007,NA
18036,Lehigh County,PA,33.97435897435898,NA,NA,NA
18040,Northampton County,PA,NA,NA,NA,84.58904109589042
18042,Northampton County,PA,NA,NA,NA,16.78082191780822
18052,Lehigh County,PA,NA,24.579831932773107,36.89095127610209,NA
18102,Lehigh County,PA,NA,25.42016806722689,NA,NA
18201,Luzerne County,PA,NA,NA,NA,28.08219178082192
18235,Carbon County,PA,NA,NA,32.48259860788863,NA
18353,Monroe County,PA,NA,NA,60.78886310904872,NA
18428,Pike County,PA,94.01709401709401,NA,NA,NA
18431,Wayne County,PA,NA,65.54621848739495,NA,NA
18444,Lackawanna County,PA,NA,NA,71.46171693735499,NA
18447,Lackawanna County,PA,NA,78.15126050420169,NA,NA
18505,Lackawanna County,PA,33.11965811965812,45.79831932773109,NA,NA
18519,Lackawanna County,PA,NA,NA,94.89559164733178,NA
18603,Columbia County,PA,NA,NA,21.57772621809745,NA
18661,Luzerne County,PA,NA,84.66386554621849,NA,NA
18702,Luzerne County,PA,NA,11.134453781512606,NA,NA
18706,Luzerne County,PA,NA,42.016806722689076,NA,NA
18974,Bucks County,PA,NA,NA,45.47563805104408,NA
19027,Montgomery County,PA,NA,NA,37.81902552204176,NA
19061,Delaware County,PA,NA,31.512605042016805,NA,NA
19095,Montgomery County,PA,NA,NA,93.27146171693735,NA
19107,Philadelphia County,PA,NA,NA,49.651972157772626,NA
19119,Philadelphia County,PA,NA,28.991596638655466,NA,NA
19130,Philadelphia County,PA,NA,41.38655462184874,NA,NA
19134,Philadelphia County,PA,NA,22.058823529411764,NA,NA
19139,Philadelphia County,PA,NA,NA,8.352668213457076,NA
19145,Philadelphia County,PA,15.81196581196581,NA,NA,NA
19147,Philadelphia County,PA,NA,NA,NA,89.72602739726028
19148,Philadelphia County,PA,18.803418803418804,NA,NA,NA
19152,Philadelphia County,PA,NA,23.52941176470588,NA,NA
19312,Chester County,PA,NA,NA,99.76798143851508,NA
19348,Chester County,PA,70.51282051282051,NA,NA,NA
19380,Chester County,PA,11.11111111111111,NA,NA,NA
19460,Chester County,PA,NA,28.15126050420168,NA,NA
19464,Montgomery County,PA,NA,8.193277310924369,NA,NA
19475,Chester County,PA,69.01709401709401,NA,NA,NA
19520,Chester County,PA,NA,NA,87.70301624129931,NA
19606,Berks County,PA,27.77777777777778,NA,NA,NA
19608,Berks County,PA,NA,64.91596638655463,NA,NA
02813,Washington County,RI,95.08547008547008,NA,NA,NA
02818,Kent County,RI,NA,NA,NA,84.24657534246576
02822,Washington County,RI,NA,NA,89.32714617169374,NA
02840,Newport County,RI,NA,NA,62.64501160092807,NA
02863,Providence County,RI,NA,NA,NA,53.42465753424658
02889,Kent County,RI,NA,84.24369747899159,NA,NA
02895,Providence County,RI,NA,15.756302521008402,NA,NA
02914,Providence County,RI,NA,NA,44.5475638051044,NA
29003,Bamberg County,SC,NA,NA,NA,88.35616438356165
29010,Lee County,SC,NA,75.63025210084034,NA,NA
29020,Kershaw County,SC,NA,NA,37.58700696055685,NA
29063,Richland County,SC,NA,61.97478991596639,NA,NA
29102,Clarendon County,SC,NA,NA,NA,45.54794520547945
29301,Spartanburg County,SC,45.51282051282051,NA,NA,NA
29303,Spartanburg County,SC,61.75213675213676,NA,NA,NA
29306,Spartanburg County,SC,38.034188034188034,NA,NA,NA
29323,Spartanburg County,SC,77.35042735042735,NA,49.88399071925754,NA
29341,Cherokee County,SC,NA,51.05042016806722,NA,NA
29405,Charleston County,SC,NA,30.88235294117647,42.459396751740144,NA
29412,Charleston County,SC,NA,NA,NA,9.246575342465754
29440,Georgetown County,SC,NA,NA,NA,27.397260273972602
29450,Berkeley County,SC,100,NA,NA,NA
29461,Berkeley County,SC,22.435897435897438,NA,NA,NA
29526,Horry County,SC,NA,NA,14.153132250580047,NA
29579,Horry County,SC,NA,NA,36.42691415313225,NA
29588,Horry County,SC,NA,NA,13.45707656612529,NA
29611,Greenville County,SC,42.73504273504273,NA,NA,NA
29671,Pickens County,SC,NA,NA,NA,32.87671232876712
29692,Laurens County,SC,NA,NA,NA,96.57534246575342
29728,Chesterfield County,SC,71.58119658119658,NA,NA,NA
29730,York County,SC,NA,24.159663865546218,NA,NA
29824,Edgefield County,SC,NA,NA,NA,74.65753424657534
29909,Beaufort County,SC,NA,NA,NA,14.383561643835616
57042,Lake County,SD,NA,94.53781512605042,NA,NA
57106,Minnehaha County,SD,NA,NA,NA,4.794520547945205
57702,Pennington County,SD,NA,62.39495798319328,NA,NA
57785,Meade County,SD,88.67521367521367,NA,NA,NA
37042,Montgomery County,TN,NA,28.361344537815125,NA,NA
37066,Sumner County,TN,NA,13.865546218487395,NA,24.315068493150687
37074,Trousdale County,TN,NA,NA,76.79814385150812,NA
37075,Sumner County,TN,NA,NA,7.888631090487238,NA
37148,Sumner County,TN,NA,NA,47.33178654292343,NA
37188,Robertson County,TN,NA,NA,NA,91.78082191780823
37321,Rhea County,TN,NA,NA,70.99767981438515,NA
37323,Bradley County,TN,NA,NA,50.580046403712295,42.80821917808219
37327,Sequatchie County,TN,NA,NA,60.32482598607889,NA
37659,Washington County,TN,NA,NA,61.94895591647332,NA
37663,Sullivan County,TN,NA,NA,59.62877030162414,NA
37665,Sullivan County,TN,NA,98.10924369747899,NA,NA
37716,Anderson County,TN,NA,NA,78.65429234338747,NA
37932,Knox County,TN,NA,NA,63.80510440835266,NA
38108,Shelby County,TN,44.65811965811966,NA,NA,NA
38109,Shelby County,TN,NA,NA,19.02552204176334,NA
38115,Shelby County,TN,2.7777777777777777,27.521008403361346,NA,NA
38118,Shelby County,TN,12.179487179487179,NA,NA,NA
75010,Denton County,TX,36.75213675213676,NA,NA,NA
75023,Collin County,TX,47.863247863247864,NA,NA,NA
75038,Dallas County,TX,NA,64.28571428571429,NA,NA
75042,Dallas County,TX,NA,NA,61.7169373549884,NA
75067,Denton County,TX,NA,35.924369747899156,NA,NA
75068,Denton County,TX,42.30769230769231,NA,NA,NA
75070,Collin County,TX,NA,19.95798319327731,NA,NA
75078,Collin County,TX,63.67521367521367,NA,NA,NA
75080,Dallas County,TX,46.58119658119658,NA,NA,NA
75082,Collin County,TX,NA,76.68067226890757,NA,NA
75090,Grayson County,TX,NA,51.68067226890757,NA,NA
75119,Ellis County,TX,NA,58.61344537815126,NA,NA
75142,Kaufman County,TX,54.27350427350427,NA,NA,NA
75156,Henderson County,TX,NA,78.57142857142857,NA,NA
75211,Dallas County,TX,NA,23.52941176470588,NA,NA
75214,Dallas County,TX,NA,47.689075630252105,NA,NA
75216,Dallas County,TX,10.47008547008547,NA,NA,NA
75241,Dallas County,TX,31.62393162393162,NA,NA,NA
75254,Dallas County,TX,NA,NA,73.31786542923435,NA
75494,Wood County,TX,84.61538461538461,NA,NA,NA
75657,Marion County,TX,NA,91.59663865546219,88.8631090487239,NA
75703,Smith County,TX,NA,NA,5.336426914153132,NA
75979,Tyler County,TX,NA,86.97478991596638,NA,NA
76006,Tarrant County,TX,NA,70.58823529411765,NA,NA
76016,Tarrant County,TX,NA,68.27731092436974,NA,NA
76022,Tarrant County,TX,NA,82.77310924369748,NA,NA
76048,Hood County,TX,40.81196581196581,NA,NA,NA
76066,Parker County,TX,NA,NA,97.6798143851508,NA
76067,Palo Pinto County,TX,NA,57.773109243697476,NA,NA
76108,Tarrant County,TX,34.401709401709404,NA,NA,NA
76119,Tarrant County,TX,4.273504273504273,NA,NA,NA
76133,Tarrant County,TX,25.64102564102564,NA,NA,NA
76135,Tarrant County,TX,NA,NA,63.341067285382834,NA
76137,Tarrant County,TX,63.46153846153846,NA,NA,NA
76179,Tarrant County,TX,20.94017094017094,32.35294117647059,NA,NA
76209,Denton County,TX,NA,79.83193277310924,NA,NA
76244,Tarrant County,TX,11.752136752136751,29.20168067226891,NA,NA
76426,Wise County,TX,72.43589743589743,NA,NA,NA
76501,Bell County,TX,NA,NA,36.19489559164733,NA
76504,Bell County,TX,11.538461538461538,NA,NA,NA
76513,Bell County,TX,NA,11.554621848739496,NA,NA
76520,Milam County,TX,73.71794871794873,NA,NA,NA
76539,Lampasas County,TX,NA,NA,84.22273781902551,NA
76705,McLennan County,TX,28.63247863247863,NA,NA,NA
77022,Harris County,TX,64.95726495726495,NA,NA,NA
77023,Harris County,TX,NA,85.71428571428571,NA,NA
77033,Harris County,TX,NA,NA,82.36658932714617,NA
77035,Harris County,TX,NA,NA,78.88631090487239,NA
77051,Harris County,TX,58.76068376068376,NA,NA,NA
77059,Harris County,TX,NA,NA,NA,51.71232876712328
77061,Harris County,TX,83.33333333333334,NA,NA,NA
77062,Harris County,TX,NA,63.4453781512605,NA,NA
77070,Harris County,TX,NA,50.21008403361344,NA,NA
77083,Harris County,TX,NA,NA,77.26218097447796,31.164383561643838
77318,Montgomery County,TX,NA,NA,72.38979118329466,NA
77354,Montgomery County,TX,NA,NA,46.635730858468676,NA
77357,Montgomery County,TX,NA,NA,74.0139211136891,NA
77375,Harris County,TX,NA,81.9327731092437,69.83758700696056,79.45205479452055
77379,Harris County,TX,17.094017094017094,NA,NA,8.21917808219178
77389,Harris County,TX,NA,59.2436974789916,NA,NA
77418,Austin County,TX,NA,88.65546218487394,NA,NA
77447,Harris County,TX,NA,NA,98.37587006960557,85.27397260273972
77469,Fort Bend County,TX,29.700854700854702,NA,NA,NA
77505,Harris County,TX,NA,NA,59.39675174013921,NA
77539,Galveston County,TX,8.333333333333332,NA,NA,NA
77551,Galveston County,TX,NA,NA,31.09048723897912,23.972602739726025
77563,Galveston County,TX,72.64957264957265,NA,NA,NA
77573,Galveston County,TX,2.564102564102564,NA,NA,NA
77578,Brazoria County,TX,78.84615384615384,NA,NA,NA
77581,Brazoria County,TX,NA,NA,NA,29.10958904109589
77584,Brazoria County,TX,21.794871794871796,40.96638655462185,NA,NA
77587,Harris County,TX,76.06837606837607,NA,NA,NA
77630,Orange County,TX,32.69230769230769,NA,NA,NA
77705,Jefferson County,TX,45.085470085470085,NA,NA,NA
77836,Burleson County,TX,NA,NA,NA,61.3013698630137
77845,Brazos County,TX,NA,13.655462184873949,NA,NA
77864,Madison County,TX,NA,NA,NA,94.52054794520548
77868,Grimes County,TX,NA,NA,74.47795823665894,NA
77905,Victoria County,TX,NA,NA,NA,80.47945205479452
77979,Calhoun County,TX,NA,NA,59.86078886310905,NA
78045,Webb County,TX,NA,27.941176470588236,NA,NA
78102,Bee County,TX,52.77777777777778,NA,NA,NA
78201,Bexar County,TX,25.213675213675213,NA,NA,NA
78211,Bexar County,TX,NA,56.51260504201681,NA,NA
78212,Bexar County,TX,NA,98.31932773109243,NA,NA
78230,Bexar County,TX,NA,NA,NA,45.89041095890411
78231,Bexar County,TX,NA,NA,NA,93.15068493150685
78240,Bexar County,TX,NA,95.37815126050421,NA,NA
78242,Bexar County,TX,28.846153846153843,NA,NA,NA
78245,Bexar County,TX,5.128205128205128,NA,NA,NA
78254,Bexar County,TX,27.136752136752136,NA,NA,NA
78336,San Patricio County,TX,66.88034188034187,NA,NA,NA
78387,San Patricio County,TX,NA,NA,99.53596287703016,NA
78501,Hidalgo County,TX,NA,NA,26.218097447795824,NA
78520,Cameron County,TX,NA,NA,32.25058004640371,NA
78526,Cameron County,TX,72.00854700854701,NA,NA,NA
78550,Cameron County,TX,64.1025641025641,NA,NA,NA
78611,Burnet County,TX,NA,NA,NA,13.356164383561644
78620,Hays County,TX,NA,NA,87.47099767981439,NA
78660,Travis County,TX,NA,NA,36.65893271461717,NA
78735,Travis County,TX,95.08547008547008,NA,92.80742459396751,NA
78945,Fayette County,TX,NA,NA,NA,64.72602739726028
79364,Lubbock County,TX,75.64102564102564,NA,NA,NA
79415,Lubbock County,TX,NA,NA,67.51740139211137,NA
79424,Lubbock County,TX,NA,NA,11.832946635730858,NA
79556,Nolan County,TX,NA,NA,NA,46.23287671232877
79752,Upton County,TX,95.94017094017094,NA,NA,NA
79765,Ector County,TX,NA,71.42857142857143,NA,NA
79782,Martin County,TX,NA,91.80672268907563,NA,NA
79849,El Paso County,TX,71.15384615384616,NA,NA,NA
79904,El Paso County,TX,NA,NA,83.9907192575406,NA
79925,El Paso County,TX,48.29059829059829,NA,NA,NA
84037,Davis County,UT,36.324786324786324,NA,NA,NA
84062,Utah County,UT,41.452991452991455,NA,NA,NA
84067,Weber County,UT,NA,40.33613445378151,NA,NA
84106,Salt Lake County,UT,25.85470085470086,NA,NA,NA
84120,Salt Lake County,UT,NA,11.344537815126051,NA,NA
84124,Salt Lake County,UT,87.3931623931624,NA,NA,NA
84337,Box Elder County,UT,NA,92.43697478991596,NA,NA
84403,Weber County,UT,NA,NA,60.092807424593964,NA
84405,Weber County,UT,NA,NA,NA,52.054794520547944
84790,Washington County,UT,NA,NA,16.937354988399072,NA
05403,Chittenden County,VT,NA,65.75630252100841,NA,NA
05488,Franklin County,VT,NA,82.56302521008404,NA,NA
05491,Addison County,VT,NA,NA,77.49419953596288,NA
22041,Fairfax County,VA,NA,71.63865546218487,NA,NA
22066,Fairfax County,VA,NA,NA,82.830626450116,NA
22180,Fairfax County,VA,NA,NA,79.11832946635731,NA
22191,Prince William County,VA,NA,NA,34.5707656612529,NA
22306,Fairfax County,VA,NA,32.563025210084035,NA,NA
22405,Stafford County,VA,NA,NA,NA,48.63013698630137
22546,Caroline County,VA,NA,90.12605042016807,NA,NA
22602,Frederick County,VA,NA,NA,52.90023201856149,NA
22902,Charlottesville city,VA,NA,28.781512605042014,NA,NA
22911,Albemarle County,VA,NA,73.94957983193278,NA,NA
23002,Amelia County,VA,97.64957264957265,NA,NA,NA
23060,Henrico County,VA,NA,92.22689075630252,NA,NA
23223,Henrico County,VA,6.196581196581197,70.7983193277311,NA,NA
23224,Richmond city,VA,58.119658119658126,NA,NA,NA
23225,Richmond city,VA,NA,NA,NA,28.424657534246577
23228,Henrico County,VA,NA,NA,37.35498839907193,NA
23234,Chesterfield County,VA,NA,24.789915966386555,NA,NA
23238,Henrico County,VA,92.09401709401709,NA,NA,NA
23323,Chesapeake city,VA,NA,38.02521008403361,NA,NA
23434,Suffolk city,VA,NA,NA,NA,10.616438356164384
23451,Virginia Beach city,VA,NA,43.0672268907563,NA,NA
23452,Virginia Beach city,VA,NA,NA,10.440835266821345,NA
23456,Virginia Beach city,VA,NA,NA,41.53132250580047,NA
23462,Virginia Beach city,VA,NA,23.319327731092436,NA,NA
23508,Norfolk city,VA,94.65811965811966,NA,NA,NA
23707,Portsmouth city,VA,NA,57.35294117647059,NA,NA
23803,Petersburg city,VA,NA,14.915966386554622,17.633410672853827,NA
23805,Petersburg city,VA,64.52991452991454,NA,NA,NA
23824,Nottoway County,VA,NA,NA,NA,70.8904109589041
24012,Roanoke city,VA,NA,NA,NA,29.45205479452055
24018,Roanoke County,VA,NA,NA,NA,7.876712328767123
24073,Montgomery County,VA,NA,NA,51.74013921113689,NA
24179,Roanoke County,VA,NA,53.78151260504202,NA,71.23287671232876
24277,Lee County,VA,NA,91.17647058823529,NA,NA
24279,Wise County,VA,94.87179487179486,NA,NA,NA
24333,Galax city,VA,NA,NA,52.204176334106734,NA
24343,Carroll County,VA,NA,NA,70.76566125290023,NA
24523,Bedford County,VA,NA,35.294117647058826,NA,NA
24541,Danville city,VA,NA,NA,NA,35.61643835616438
24592,Halifax County,VA,68.58974358974359,NA,NA,NA
98012,Snohomish County,WA,13.675213675213676,NA,NA,NA
98052,King County,WA,NA,NA,NA,13.013698630136986
98058,King County,WA,NA,NA,55.22041763341067,NA
98112,King County,WA,NA,60.29411764705882,NA,NA
98118,King County,WA,NA,45.168067226890756,NA,NA
98155,King County,WA,NA,48.529411764705884,NA,NA
98204,Snohomish County,WA,27.99145299145299,NA,NA,NA
98221,Skagit County,WA,NA,NA,83.06264501160094,14.04109589041096
98223,Snohomish County,WA,22.64957264957265,NA,NA,NA
98273,Skagit County,WA,NA,31.30252100840336,NA,NA
98277,Island County,WA,NA,NA,76.33410672853829,NA
98331,Clallam County,WA,92.3076923076923,NA,NA,NA
98338,Pierce County,WA,71.15384615384616,NA,NA,NA
98362,Clallam County,WA,NA,38.445378151260506,NA,NA
98363,Clallam County,WA,NA,70.37815126050421,NA,NA
98382,Clallam County,WA,NA,NA,24.361948955916475,NA
98383,Kitsap County,WA,NA,80.46218487394958,NA,NA
98404,Pierce County,WA,NA,81.09243697478992,45.243619489559165,NA
98408,Pierce County,WA,NA,62.81512605042017,NA,NA
98409,Pierce County,WA,80.34188034188034,NA,NA,NA
98498,Pierce County,WA,NA,60.08403361344538,NA,NA
98501,Thurston County,WA,98.07692307692307,NA,NA,NA
98513,Thurston County,WA,NA,NA,59.164733178654295,NA
98516,Thurston County,WA,95.72649572649573,NA,NA,NA
98626,Cowlitz County,WA,NA,NA,64.50116009280742,43.15068493150685
98815,Chelan County,WA,NA,NA,93.96751740139212,NA
98826,Chelan County,WA,NA,NA,90.95127610208816,NA
98837,Grant County,WA,NA,34.2436974789916,NA,NA
98926,Kittitas County,WA,NA,57.56302521008403,NA,NA
99016,Spokane County,WA,NA,NA,83.29466357308584,NA
99201,Spokane County,WA,85.68376068376068,NA,NA,NA
99301,Franklin County,WA,3.205128205128205,NA,NA,NA
99336,Benton County,WA,NA,16.176470588235293,NA,NA
99352,Benton County,WA,61.111111111111114,NA,NA,3.4246575342465753
20002,District of Columbia,DC,NA,8.61344537815126,NA,NA
20019,District of Columbia,DC,NA,6.092436974789916,NA,NA
25320,Kanawha County,WV,NA,83.61344537815127,NA,NA
25387,Kanawha County,WV,NA,NA,NA,85.95890410958904
25401,Berkeley County,WV,NA,NA,67.74941995359629,NA
25550,Mason County,WV,NA,54.20168067226891,35.266821345707655,NA
26003,Ohio County,WV,NA,NA,3.0162412993039442,NA
26241,Randolph County,WV,NA,34.45378151260504,NA,NA
26330,Harrison County,WV,NA,48.109243697478995,NA,NA
26501,Monongalia County,WV,NA,NA,62.87703016241299,NA
26554,Marion County,WV,NA,6.512605042016808,NA,NA
53012,Ozaukee County,WI,NA,93.0672268907563,50.11600928074246,NA
53024,Ozaukee County,WI,NA,NA,54.988399071925755,NA
53066,Waukesha County,WI,NA,42.64705882352941,NA,NA
53092,Ozaukee County,WI,NA,NA,NA,12.67123287671233
53095,Washington County,WI,NA,NA,NA,25.34246575342466
53129,Milwaukee County,WI,NA,NA,NA,45.20547945205479
53140,Kenosha County,WI,NA,NA,NA,25
53149,Waukesha County,WI,NA,NA,40.835266821345705,NA
53150,Waukesha County,WI,NA,NA,39.90719257540603,69.86301369863014
53154,Milwaukee County,WI,NA,NA,74.94199535962876,NA
53206,Milwaukee County,WI,NA,NA,13.225058004640372,NA
53209,Milwaukee County,WI,NA,NA,20.185614849187935,NA
53210,Milwaukee County,WI,43.58974358974359,NA,NA,NA
53211,Milwaukee County,WI,NA,67.43697478991596,NA,NA
53213,Milwaukee County,WI,NA,88.8655462184874,NA,NA
53215,Milwaukee County,WI,23.29059829059829,NA,NA,NA
53217,Milwaukee County,WI,NA,39.285714285714285,NA,NA
53218,Milwaukee County,WI,7.905982905982905,9.873949579831933,NA,NA
53219,Milwaukee County,WI,19.65811965811966,NA,NA,NA
53220,Milwaukee County,WI,NA,34.03361344537815,NA,NA
53222,Milwaukee County,WI,NA,NA,39.21113689095127,NA
53223,Milwaukee County,WI,60.89743589743589,NA,13.921113689095128,NA
53224,Milwaukee County,WI,22.22222222222222,NA,NA,NA
53225,Milwaukee County,WI,NA,NA,40.60324825986079,NA
53405,Racine County,WI,NA,9.453781512605042,NA,NA
53520,Green County,WI,81.62393162393163,NA,NA,NA
53532,Dane County,WI,NA,93.4873949579832,NA,NA
53545,Rock County,WI,24.145299145299145,NA,NA,NA
53546,Rock County,WI,NA,NA,4.872389791183294,NA
53593,Dane County,WI,49.78632478632478,NA,NA,50.68493150684932
53704,Dane County,WI,NA,14.495798319327733,NA,34.93150684931507
53705,Dane County,WI,NA,NA,NA,9.931506849315069
53711,Dane County,WI,NA,67.85714285714286,NA,11.301369863013697
53718,Dane County,WI,NA,NA,NA,57.534246575342465
53901,Columbia County,WI,72.86324786324786,NA,NA,NA
53955,Columbia County,WI,NA,NA,93.50348027842227,NA
54011,Pierce County,WI,NA,85.92436974789915,NA,NA
54115,Brown County,WI,59.401709401709404,50.84033613445378,NA,NA
54217,Kewaunee County,WI,NA,NA,93.7354988399072,NA
54220,Manitowoc County,WI,NA,NA,21.34570765661253,NA
54241,Manitowoc County,WI,NA,NA,NA,78.08219178082192
54303,Brown County,WI,NA,NA,88.63109048723898,NA
54401,Marathon County,WI,NA,NA,NA,14.726027397260275
54409,Langlade County,WI,97.43589743589743,NA,26.450116009280745,NA
54421,Clark County,WI,NA,NA,100,NA
54451,Taylor County,WI,56.623931623931625,NA,NA,NA
54467,Portage County,WI,NA,NA,40.13921113689095,NA
54501,Oneida County,WI,NA,NA,NA,15.41095890410959
54730,Dunn County,WI,97.86324786324786,NA,NA,NA
54843,Sawyer County,WI,NA,83.40336134453781,NA,NA
54902,Winnebago County,WI,NA,81.30252100840336,NA,NA
54904,Winnebago County,WI,77.13675213675214,NA,NA,NA
54956,Winnebago County,WI,39.52991452991453,NA,NA,NA
82718,Campbell County,WY,NA,61.5546218487395,NA,NA
