ZipCode,county,state,Adult
36201,Calhoun County,AL,28.619528619528616
36870,Lee County,AL,62.96296296296296
85004,Maricopa County,AZ,74.74747474747475
85301,Maricopa County,AZ,4.377104377104377
90020,Los Angeles County,CA,87.87878787878788
90035,Los Angeles County,CA,53.87205387205387
90047,Los Angeles County,CA,41.75084175084175
90640,Los Angeles County,CA,71.71717171717171
91324,Los Angeles County,CA,77.77777777777779
91741,Los Angeles County,CA,63.63636363636363
92040,San Diego County,CA,42.76094276094276
92054,San Diego County,CA,97.64309764309765
92562,Riverside County,CA,27.609427609427613
93306,Kern County,CA,46.12794612794613
94306,Santa Clara County,CA,68.35016835016835
94566,Alameda County,CA,52.18855218855219
94611,Alameda County,CA,67.34006734006735
94801,Contra Costa County,CA,73.06397306397307
80202,Denver County,CO,45.45454545454545
80550,Weld County,CO,61.95286195286195
80634,Weld County,CO,90.9090909090909
06066,Tolland County,CT,19.19191919191919
06096,Hartford County,CT,64.3097643097643
06108,Hartford County,CT,30.976430976430976
06226,Windham County,CT,42.42424242424242
06484,Fairfield County,CT,36.36363636363637
06604,Fairfield County,CT,45.11784511784512
06606,Fairfield County,CT,19.865319865319865
06708,New Haven County,CT,24.242424242424242
06762,New Haven County,CT,92.92929292929293
06905,Fairfield County,CT,62.2895622895623
32653,Alachua County,FL,94.61279461279462
32935,Brevard County,FL,21.21212121212121
33009,Broward County,FL,96.96969696969697
33850,Polk County,FL,71.04377104377105
33860,Polk County,FL,50.841750841750844
34241,Sarasota County,FL,70.37037037037037
34473,Marion County,FL,43.77104377104377
30083,DeKalb County,GA,28.95622895622896
31324,Bryan County,GA,97.3063973063973
60005,Cook County,IL,46.801346801346796
60014,McHenry County,IL,26.262626262626267
60067,Cook County,IL,95.62289562289563
60134,Kane County,IL,40.74074074074074
60190,DuPage County,IL,99.32659932659934
60431,Will County,IL,96.63299663299664
60443,Cook County,IL,41.41414141414141
60565,DuPage County,IL,31.986531986531986
60614,Cook County,IL,23.905723905723907
60618,Cook County,IL,92.25589225589226
60624,Cook County,IL,66.32996632996633
60625,Cook County,IL,80.13468013468014
60645,Cook County,IL,55.55555555555556
60805,Cook County,IL,57.91245791245792
61764,Livingston County,IL,56.56565656565656
62521,Macon County,IL,14.814814814814813
46032,Hamilton County,IN,60.60606060606061
46123,Hendricks County,IN,61.27946127946128
46176,Shelby County,IN,53.535353535353536
46204,Marion County,IN,58.24915824915825
46368,Porter County,IN,67.67676767676768
46373,Lake County,IN,52.52525252525253
46383,Porter County,IN,93.60269360269359
46901,Howard County,IN,55.892255892255896
46947,Cass County,IN,57.57575757575758
50158,Marshall County,IA,72.39057239057239
52302,Linn County,IA,64.98316498316498
52402,Linn County,IA,84.17508417508418
52404,Linn County,IA,70.70707070707071
52732,Clinton County,IA,46.464646464646464
67152,Sumner County,KS,75.42087542087542
67209,Sedgwick County,KS,80.8080808080808
67235,Sedgwick County,KS,98.98989898989899
40214,Jefferson County,KY,7.744107744107744
40242,Jefferson County,KY,65.993265993266
42025,Marshall County,KY,76.43097643097643
70003,Jefferson Parish,LA,78.11447811447812
70118,Orleans Parish,LA,20.53872053872054
70354,Lafourche Parish,LA,91.91919191919192
70607,Calcasieu Parish,LA,15.151515151515152
71202,Ouachita Parish,LA,5.05050505050505
20650,St. Mary's County,MD,93.26599326599326
20735,Prince George's County,MD,82.15488215488216
20743,Prince George's County,MD,36.02693602693603
21054,Anne Arundel County,MD,96.29629629629629
21234,Baltimore County,MD,81.48148148148148
21401,Anne Arundel County,MD,82.82828282828282
01040,Hampden County,MA,26.936026936026934
01834,Essex County,MA,80.47138047138047
01841,Essex County,MA,52.861952861952865
02155,Middlesex County,MA,73.4006734006734
02721,Bristol County,MA,0
48842,Ingham County,MI,37.71043771043771
49441,Muskegon County,MI,13.804713804713806
55412,Hennepin County,MN,9.764309764309765
55426,Hennepin County,MN,78.45117845117845
55803,St. Louis County,MN,55.218855218855225
55912,Mower County,MN,44.107744107744104
39560,Harrison County,MS,49.158249158249156
63017,St. Louis County,MO,69.36026936026936
63111,St. Louis city,MO,34.68013468013468
63132,St. Louis County,MO,65.31986531986533
63367,St. Charles County,MO,47.474747474747474
63701,Cape Girardeau County,MO,90.23569023569024
64019,Johnson County,MO,99.66329966329967
64079,Platte County,MO,48.148148148148145
64110,Jackson County,MO,36.36363636363637
64128,Jackson County,MO,21.548821548821547
64130,Jackson County,MO,30.63973063973064
64133,Jackson County,MO,23.232323232323232
64134,Jackson County,MO,58.58585858585859
64138,Jackson County,MO,38.04713804713805
64402,Gentry County,MO,88.55218855218855
59105,Yellowstone County,MT,69.02356902356902
68701,Madison County,NE,44.44444444444444
89139,Clark County,NV,59.93265993265994
89512,Washoe County,NV,16.4983164983165
03060,Hillsborough County,NH,7.4074074074074066
07011,Passaic County,NJ,19.865319865319865
07052,Essex County,NJ,95.28619528619528
07055,Passaic County,NJ,51.515151515151516
07087,Hudson County,NJ,35.01683501683502
07105,Essex County,NJ,12.121212121212121
07111,Essex County,NJ,67.003367003367
07305,Hudson County,NJ,5.723905723905724
07446,Bergen County,NJ,56.9023569023569
07458,Bergen County,NJ,77.44107744107744
07522,Passaic County,NJ,25.925925925925924
07726,Monmouth County,NJ,85.18518518518519
08037,Atlantic County,NJ,16.161616161616163
08077,Burlington County,NJ,83.5016835016835
08085,Gloucester County,NJ,47.81144781144781
08105,Camden County,NJ,1.3468013468013467
08109,Camden County,NJ,87.20538720538721
08244,Atlantic County,NJ,85.85858585858585
08620,Mercer County,NJ,82.49158249158249
08638,Mercer County,NJ,12.794612794612794
08831,Middlesex County,NJ,89.22558922558923
87031,Valencia County,NM,30.303030303030305
10025,New York County,NY,27.946127946127948
10032,New York County,NY,11.11111111111111
10035,New York County,NY,27.27272727272727
10036,New York County,NY,37.37373737373738
10040,New York County,NY,34.00673400673401
10301,Richmond County,NY,15.824915824915825
10314,Richmond County,NY,13.468013468013467
10451,Bronx County,NY,2.6936026936026933
10454,Bronx County,NY,7.07070707070707
10456,Bronx County,NY,2.356902356902357
10459,Bronx County,NY,4.713804713804714
10460,Bronx County,NY,14.47811447811448
10466,Bronx County,NY,23.56902356902357
10468,Bronx County,NY,25.589225589225588
10472,Bronx County,NY,31.64983164983165
10473,Bronx County,NY,3.7037037037037033
10573,Westchester County,NY,71.38047138047138
10701,Westchester County,NY,95.95959595959596
10705,Westchester County,NY,35.69023569023569
10708,Westchester County,NY,100
10801,Westchester County,NY,33.670033670033675
11201,Kings County,NY,22.895622895622896
11203,Kings County,NY,35.35353535353536
11205,Kings County,NY,38.72053872053872
11212,Kings County,NY,1.0101010101010102
11224,Kings County,NY,44.78114478114478
11226,Kings County,NY,22.22222222222222
11233,Kings County,NY,12.457912457912458
11370,Queens County,NY,78.78787878787878
11435,Queens County,NY,89.8989898989899
11520,Nassau County,NY,70.03367003367003
11751,Suffolk County,NY,93.93939393939394
11772,Suffolk County,NY,32.323232323232325
11950,Suffolk County,NY,60.26936026936027
12010,Montgomery County,NY,5.387205387205387
12072,Montgomery County,NY,88.88888888888889
12118,Saratoga County,NY,50.16835016835017
12307,Schenectady County,NY,79.7979797979798
12586,Orange County,NY,79.12457912457911
12866,Saratoga County,NY,15.488215488215488
13057,Onondaga County,NY,61.61616161616161
13204,Onondaga County,NY,11.784511784511785
13219,Onondaga County,NY,47.13804713804714
13613,St. Lawrence County,NY,63.97306397306397
14215,Erie County,NY,1.6835016835016834
14223,Erie County,NY,29.96632996632997
14224,Erie County,NY,54.882154882154886
14534,Monroe County,NY,29.629629629629626
14580,Monroe County,NY,17.845117845117844
14618,Monroe County,NY,54.20875420875421
14621,Monroe County,NY,0.33670033670033667
14624,Monroe County,NY,16.835016835016837
14626,Monroe County,NY,3.0303030303030303
27278,Orange County,NC,75.08417508417509
27332,Lee County,NC,94.94949494949495
27539,Wake County,NC,49.494949494949495
27834,Pitt County,NC,8.080808080808081
28021,Gaston County,NC,74.41077441077442
28211,Mecklenburg County,NC,31.313131313131315
28277,Mecklenburg County,NC,39.05723905723906
28466,Duplin County,NC,85.52188552188552
28551,Lenoir County,NC,51.178451178451176
28610,Catawba County,NC,65.65656565656566
28613,Catawba County,NC,38.38383838383838
43613,Lucas County,OH,86.86868686868688
44103,Cuyahoga County,OH,10.1010101010101
44105,Cuyahoga County,OH,0.6734006734006733
44112,Cuyahoga County,OH,8.754208754208754
44114,Cuyahoga County,OH,32.996632996633
44115,Cuyahoga County,OH,68.01346801346801
44130,Cuyahoga County,OH,4.040404040404041
44511,Mahoning County,OH,25.252525252525253
44515,Mahoning County,OH,10.774410774410773
45242,Hamilton County,OH,56.22895622895623
45373,Miami County,OH,76.0942760942761
73012,Oklahoma County,OK,43.09764309764309
73162,Oklahoma County,OK,91.58249158249158
73439,Marshall County,OK,75.75757575757575
97123,Washington County,OR,21.885521885521886
97526,Josephine County,OR,26.599326599326602
17104,Dauphin County,PA,19.52861952861953
17372,Adams County,PA,81.14478114478115
17921,Schuylkill County,PA,63.2996632996633
18018,Lehigh County,PA,24.915824915824917
18966,Bucks County,PA,17.17171717171717
19013,Delaware County,PA,90.57239057239057
19014,Delaware County,PA,39.39393939393939
19075,Montgomery County,PA,73.73737373737373
19104,Philadelphia County,PA,11.447811447811448
19111,Philadelphia County,PA,3.3670033670033668
19120,Philadelphia County,PA,18.181818181818183
19124,Philadelphia County,PA,68.68686868686868
19125,Philadelphia County,PA,43.43434343434344
19131,Philadelphia County,PA,6.7340067340067336
19132,Philadelphia County,PA,6.397306397306397
19134,Philadelphia County,PA,49.831649831649834
19135,Philadelphia County,PA,41.07744107744108
19138,Philadelphia County,PA,72.05387205387206
19140,Philadelphia County,PA,32.659932659932664
19144,Philadelphia County,PA,72.72727272727273
19147,Philadelphia County,PA,86.53198653198653
19148,Philadelphia County,PA,9.090909090909092
19149,Philadelphia County,PA,8.417508417508419
19150,Philadelphia County,PA,33.33333333333333
19152,Philadelphia County,PA,20.875420875420875
19154,Philadelphia County,PA,79.46127946127946
19311,Chester County,PA,87.54208754208754
19401,Montgomery County,PA,9.427609427609427
19438,Montgomery County,PA,42.08754208754209
19473,Montgomery County,PA,64.64646464646465
02908,Providence County,RI,57.23905723905723
29072,Lexington County,SC,28.28282828282828
57401,Brown County,SD,18.51851851851852
37138,Davidson County,TN,92.5925925925926
37187,Dickson County,TN,59.59595959595959
37377,Hamilton County,TN,66.66666666666666
37421,Hamilton County,TN,29.292929292929294
37830,Anderson County,TN,48.484848484848484
37922,Knox County,TN,86.19528619528619
75040,Dallas County,TX,18.855218855218855
75074,Collin County,TX,88.21548821548821
75080,Dallas County,TX,48.821548821548824
75143,Henderson County,TX,97.97979797979798
75217,Dallas County,TX,10.437710437710438
76034,Tarrant County,TX,89.56228956228956
76210,Denton County,TX,91.24579124579124
77024,Harris County,TX,51.85185185185185
77093,Harris County,TX,39.73063973063973
77327,Liberty County,TX,53.198653198653204
77385,Montgomery County,TX,50.505050505050505
77433,Harris County,TX,13.131313131313133
77520,Harris County,TX,40.06734006734007
77587,Harris County,TX,94.27609427609428
78613,Williamson County,TX,34.34343434343434
78703,Travis County,TX,69.6969696969697
84014,Davis County,UT,98.31649831649831
84015,Davis County,UT,84.84848484848484
84041,Davis County,UT,37.03703703703704
84075,Davis County,UT,83.16498316498317
84105,Salt Lake County,UT,60.94276094276094
84119,Salt Lake County,UT,14.14141414141414
20110,Manassas city,VA,84.51178451178451
20132,Loudoun County,VA,77.10437710437711
22101,Fairfax County,VA,98.65319865319864
22207,Arlington County,VA,45.79124579124579
23455,Virginia Beach city,VA,59.25925925925925
98011,King County,WA,76.76767676767676
98042,King County,WA,17.50841750841751
98106,King County,WA,83.83838383838383
98338,Pierce County,WA,81.81818181818183
98360,Pierce County,WA,58.92255892255892
99223,Spokane County,WA,54.54545454545454
20001,District of Columbia,DC,22.55892255892256
20002,District of Columbia,DC,6.0606060606060606
20003,District of Columbia,DC,62.62626262626263
20020,District of Columbia,DC,2.0202020202020203
20032,District of Columbia,DC,40.06734006734007
53188,Waukesha County,WI,24.579124579124578
53590,Dane County,WI,74.07407407407408
