ZipCode,county,state,Youth,Adult,Retirement,Geriatric
35020,Jefferson County,AL,NA,NA,28.837209302325583,NA
35022,Jefferson County,AL,NA,NA,15.348837209302326,NA
35023,Jefferson County,AL,NA,NA,13.116279069767442,NA
35043,Shelby County,AL,NA,NA,96.46511627906976,NA
35055,Cullman County,AL,56.48414985590778,55.41044776119403,65.3953488372093,NA
35058,Cullman County,AL,74.35158501440922,73.97388059701493,NA,NA
35062,Jefferson County,AL,NA,84.23507462686567,NA,NA
35080,Shelby County,AL,NA,NA,75.06976744186046,NA
35117,Jefferson County,AL,NA,NA,96.93023255813954,NA
35120,St. Clair County,AL,NA,60.72761194029851,NA,NA
35150,Talladega County,AL,NA,40.11194029850746,NA,NA
35205,Jefferson County,AL,NA,NA,72.27906976744187,NA
35209,Jefferson County,AL,NA,NA,NA,74.12199630314234
35212,Jefferson County,AL,NA,76.77238805970148,NA,NA
35217,Jefferson County,AL,NA,48.69402985074627,49.30232558139535,NA
35218,Jefferson County,AL,NA,NA,90.32558139534885,NA
35228,Jefferson County,AL,NA,NA,82.13953488372093,NA
35244,Jefferson County,AL,NA,NA,75.90697674418605,NA
35401,Tuscaloosa County,AL,NA,58.86194029850746,NA,NA
35476,Tuscaloosa County,AL,NA,63.15298507462687,NA,NA
35555,Fayette County,AL,NA,64.73880597014924,NA,NA
35601,Morgan County,AL,NA,NA,13.395348837209303,NA
35611,Limestone County,AL,NA,22.761194029850746,NA,NA
35614,Limestone County,AL,NA,NA,82.41860465116278,NA
35640,Morgan County,AL,NA,NA,35.906976744186046,NA
35650,Lawrence County,AL,NA,NA,43.06976744186046,NA
35750,Madison County,AL,NA,59.42164179104478,58.325581395348834,NA
35758,Madison County,AL,NA,NA,38.69767441860465,NA
35759,Madison County,AL,NA,91.23134328358209,NA,NA
35801,Madison County,AL,NA,NA,NA,44.36229205175601
35805,Madison County,AL,NA,45.05597014925373,NA,NA
35810,Madison County,AL,NA,NA,57.20930232558139,NA
35816,Madison County,AL,NA,70.52238805970148,NA,NA
35957,Marshall County,AL,NA,NA,57.95348837209302,NA
36066,Autauga County,AL,NA,NA,NA,58.04066543438078
36109,Montgomery County,AL,67.72334293948127,NA,NA,NA
36117,Montgomery County,AL,NA,NA,NA,25.13863216266174
36250,Calhoun County,AL,80.11527377521614,NA,NA,NA
36268,Talladega County,AL,82.70893371757924,NA,NA,NA
36301,Houston County,AL,26.512968299711815,NA,NA,NA
36303,Houston County,AL,NA,NA,40,NA
36305,Houston County,AL,NA,NA,65.76744186046511,NA
36323,Coffee County,AL,NA,74.72014925373134,NA,NA
36340,Geneva County,AL,NA,93.93656716417911,NA,NA
36345,Henry County,AL,NA,78.73134328358209,83.06976744186046,NA
36350,Dale County,AL,NA,90.85820895522389,NA,NA
36360,Dale County,AL,NA,NA,72.09302325581395,NA
36460,Monroe County,AL,NA,82.55597014925374,NA,NA
36530,Baldwin County,AL,NA,85.44776119402985,NA,NA
36535,Baldwin County,AL,NA,NA,57.674418604651166,NA
36575,Mobile County,AL,NA,NA,76.37209302325581,NA
36605,Mobile County,AL,NA,39.27238805970149,NA,NA
36606,Mobile County,AL,NA,NA,78.6046511627907,NA
36609,Mobile County,AL,NA,83.86194029850746,NA,NA
36610,Mobile County,AL,NA,62.96641791044776,NA,NA
36618,Mobile County,AL,NA,72.76119402985076,NA,NA
36701,Dallas County,AL,NA,25.839552238805968,NA,NA
99507,Anchorage Municipality,AK,24.495677233429394,NA,NA,NA
99515,Anchorage Municipality,AK,NA,67.72388059701493,NA,NA
99645,Matanuska-Susitna Borough,AK,NA,NA,68.46511627906978,NA
99654,Matanuska-Susitna Borough,AK,NA,68.84328358208955,NA,NA
85020,Maricopa County,AZ,NA,37.3134328358209,33.02325581395349,NA
85023,Maricopa County,AZ,NA,NA,59.53488372093023,NA
85024,Maricopa County,AZ,NA,NA,79.90697674418604,NA
85027,Maricopa County,AZ,NA,41.13805970149254,NA,NA
85037,Maricopa County,AZ,8.645533141210375,NA,NA,NA
85042,Maricopa County,AZ,NA,NA,NA,73.01293900184844
85048,Maricopa County,AZ,NA,NA,88.93023255813954,NA
85050,Maricopa County,AZ,NA,NA,94.51162790697674,NA
85051,Maricopa County,AZ,23.054755043227665,NA,NA,NA
85086,Maricopa County,AZ,NA,40.01865671641791,41.116279069767444,NA
85120,Pinal County,AZ,NA,NA,NA,33.08687615526802
85132,Pinal County,AZ,NA,NA,68.83720930232559,NA
85143,Pinal County,AZ,NA,NA,35.627906976744185,NA
85209,Maricopa County,AZ,NA,NA,23.441860465116278,NA
85212,Maricopa County,AZ,NA,NA,65.2093023255814,NA
85224,Maricopa County,AZ,NA,NA,44.93023255813953,NA
85255,Maricopa County,AZ,NA,50.18656716417911,NA,NA
85257,Maricopa County,AZ,NA,68.00373134328358,NA,NA
85282,Maricopa County,AZ,NA,NA,NA,74.4916820702403
85283,Maricopa County,AZ,34.5821325648415,NA,NA,NA
85302,Maricopa County,AZ,NA,NA,62.32558139534884,NA
85304,Maricopa County,AZ,NA,NA,66.51162790697674,NA
85308,Maricopa County,AZ,NA,NA,NA,37.52310536044362
85326,Maricopa County,AZ,NA,27.611940298507463,NA,NA
85331,Maricopa County,AZ,91.06628242074927,NA,NA,NA
85338,Maricopa County,AZ,64.55331412103746,NA,NA,NA
85339,Maricopa County,AZ,NA,NA,NA,92.42144177449168
85350,Yuma County,AZ,NA,50.74626865671642,NA,NA
85356,Yuma County,AZ,NA,NA,NA,91.31238447319778
85364,Yuma County,AZ,NA,NA,2.9767441860465116,NA
85373,Maricopa County,AZ,NA,NA,NA,22.181146025878004
85374,Maricopa County,AZ,NA,NA,NA,6.469500924214418
85379,Maricopa County,AZ,NA,28.91791044776119,59.16279069767442,NA
85382,Maricopa County,AZ,NA,NA,44.55813953488372,NA
85614,Pima County,AZ,NA,NA,18.511627906976745,NA
85635,Cochise County,AZ,NA,22.108208955223883,NA,34.93530499075786
85650,Cochise County,AZ,NA,NA,NA,49.35304990757856
85704,Pima County,AZ,NA,NA,66.51162790697674,NA
85706,Pima County,AZ,NA,13.992537313432834,NA,NA
85715,Pima County,AZ,NA,77.70522388059702,NA,NA
85745,Pima County,AZ,NA,NA,16.651162790697676,NA
85750,Pima County,AZ,NA,NA,50.04651162790697,NA
86001,Coconino County,AZ,NA,NA,47.906976744186046,NA
86040,Coconino County,AZ,NA,NA,80.93023255813954,NA
86301,Yavapai County,AZ,NA,NA,89.11627906976744,NA
86303,Yavapai County,AZ,NA,64.4589552238806,NA,NA
86305,Yavapai County,AZ,NA,NA,70.7906976744186,NA
86314,Yavapai County,AZ,NA,46.73507462686567,20.837209302325583,NA
86315,Yavapai County,AZ,NA,NA,71.81395348837209,99.63031423290202
86326,Yavapai County,AZ,NA,20.522388059701495,58.883720930232556,NA
86336,Yavapai County,AZ,NA,NA,62.883720930232556,NA
86401,Mohave County,AZ,NA,8.115671641791044,NA,NA
86511,Apache County,AZ,88.47262247838617,NA,NA,NA
71603,Jefferson County,AR,NA,33.582089552238806,NA,NA
71822,Little River County,AR,NA,NA,74.69767441860465,NA
71854,Miller County,AR,NA,NA,25.302325581395348,NA
71913,Garland County,AR,NA,NA,25.023255813953487,NA
72012,White County,AR,75.21613832853026,NA,NA,NA
72015,Saline County,AR,25.936599423631122,NA,NA,NA
72034,Faulkner County,AR,72.91066282420749,NA,50.32558139534884,NA
72106,Faulkner County,AR,NA,98.97388059701493,NA,NA
72143,White County,AR,NA,36.940298507462686,8.558139534883722,6.654343807763401
72211,Pulaski County,AR,NA,NA,NA,58.78003696857671
72396,Cross County,AR,NA,NA,72.83720930232558,NA
72501,Independence County,AR,NA,NA,24.46511627906977,NA
72631,Carroll County,AR,NA,NA,94.97674418604652,NA
72687,Marion County,AR,NA,NA,NA,98.33641404805915
72715,Benton County,AR,NA,NA,NA,24.76894639556377
72753,Washington County,AR,NA,89.4589552238806,NA,NA
72758,Benton County,AR,NA,NA,55.81395348837209,NA
72761,Benton County,AR,55.04322766570605,NA,NA,NA
72956,Crawford County,AR,NA,NA,27.069767441860463,NA
90003,Los Angeles County,CA,NA,34.701492537313435,NA,NA
90004,Los Angeles County,CA,NA,44.68283582089552,NA,NA
90011,Los Angeles County,CA,NA,21.73507462686567,NA,43.992606284658045
90019,Los Angeles County,CA,NA,NA,NA,46.950092421441774
90024,Los Angeles County,CA,NA,NA,NA,7.208872458410351
90025,Los Angeles County,CA,NA,NA,NA,12.56931608133087
90027,Los Angeles County,CA,NA,NA,57.30232558139535,21.256931608133087
90029,Los Angeles County,CA,NA,NA,NA,39.00184842883549
90035,Los Angeles County,CA,NA,NA,36.55813953488372,NA
90037,Los Angeles County,CA,NA,NA,NA,45.10166358595194
90045,Los Angeles County,CA,NA,64.08582089552239,NA,NA
90048,Los Angeles County,CA,NA,NA,61.20930232558139,NA
90066,Los Angeles County,CA,53.02593659942363,NA,NA,NA
90069,Los Angeles County,CA,NA,NA,NA,54.71349353049908
90210,Los Angeles County,CA,NA,NA,49.02325581395349,NA
90212,Los Angeles County,CA,NA,89.8320895522388,NA,NA
90221,Los Angeles County,CA,NA,36.38059701492538,NA,NA
90230,Los Angeles County,CA,NA,78.07835820895522,NA,NA
90240,Los Angeles County,CA,NA,80.50373134328358,NA,NA
90247,Los Angeles County,CA,72.62247838616715,NA,NA,NA
90250,Los Angeles County,CA,21.613832853025936,NA,NA,NA
90255,Los Angeles County,CA,NA,NA,88.09302325581395,NA
90266,Los Angeles County,CA,NA,NA,49.95348837209303,NA
90274,Los Angeles County,CA,NA,NA,61.302325581395344,NA
90275,Los Angeles County,CA,NA,58.302238805970156,NA,11.460258780036968
90280,Los Angeles County,CA,NA,NA,36.27906976744186,NA
90602,Los Angeles County,CA,NA,NA,NA,89.27911275415896
90603,Los Angeles County,CA,NA,79.2910447761194,NA,NA
90638,Los Angeles County,CA,NA,NA,37.116279069767444,NA
90640,Los Angeles County,CA,NA,NA,28.744186046511626,NA
90716,Los Angeles County,CA,NA,95.98880597014924,NA,NA
90720,Orange County,CA,82.9971181556196,NA,NA,NA
90805,Los Angeles County,CA,NA,NA,22.046511627906977,NA
90807,Los Angeles County,CA,NA,51.399253731343286,NA,NA
90808,Los Angeles County,CA,15.85014409221902,NA,76.27906976744187,NA
90814,Los Angeles County,CA,NA,99.44029850746269,NA,NA
91103,Los Angeles County,CA,NA,91.4179104477612,NA,NA
91107,Los Angeles County,CA,NA,NA,49.860465116279066,NA
91201,Los Angeles County,CA,NA,NA,94.69767441860465,NA
91202,Los Angeles County,CA,NA,NA,90.13953488372093,NA
91207,Los Angeles County,CA,NA,NA,84.55813953488372,77.63401109057301
91208,Los Angeles County,CA,NA,98.88059701492537,NA,NA
91301,Los Angeles County,CA,NA,NA,NA,88.53974121996303
91304,Los Angeles County,CA,NA,48.600746268656714,NA,NA
91306,Los Angeles County,CA,49.85590778097983,NA,NA,NA
91307,Los Angeles County,CA,NA,88.80597014925374,NA,NA
91320,Ventura County,CA,NA,NA,54.13953488372093,NA
91326,Los Angeles County,CA,NA,NA,54.325581395348834,NA
91344,Los Angeles County,CA,NA,NA,23.906976744186046,NA
91345,Los Angeles County,CA,NA,NA,NA,80.22181146025879
91356,Los Angeles County,CA,NA,93.09701492537313,NA,NA
91423,Los Angeles County,CA,NA,71.0820895522388,NA,NA
91604,Los Angeles County,CA,NA,83.5820895522388,93.2093023255814,NA
91740,Los Angeles County,CA,NA,NA,53.95348837209303,NA
91750,Los Angeles County,CA,95.10086455331412,NA,NA,NA
91761,San Bernardino County,CA,NA,57.74253731343284,NA,NA
91766,Los Angeles County,CA,36.023054755043226,NA,46.883720930232556,NA
91770,Los Angeles County,CA,NA,49.906716417910445,NA,17.929759704251385
91786,San Bernardino County,CA,NA,31.156716417910445,NA,NA
91790,Los Angeles County,CA,NA,NA,51.53488372093024,NA
91902,San Diego County,CA,NA,NA,84.18604651162791,NA
91935,San Diego County,CA,NA,NA,93.67441860465117,NA
91942,San Diego County,CA,NA,NA,43.16279069767442,NA
91978,San Diego County,CA,NA,NA,94.13953488372093,NA
92019,San Diego County,CA,NA,NA,47.53488372093023,39.92606284658041
92020,San Diego County,CA,NA,19.029850746268657,NA,NA
92026,San Diego County,CA,NA,55.31716417910447,NA,NA
92027,San Diego County,CA,NA,NA,48.93023255813954,NA
92037,San Diego County,CA,NA,NA,90.79069767441861,NA
92040,San Diego County,CA,NA,NA,24.83720930232558,NA
92054,San Diego County,CA,NA,43.09701492537313,NA,NA
92056,San Diego County,CA,NA,54.850746268656714,NA,NA
92064,San Diego County,CA,NA,49.440298507462686,NA,NA
92078,San Diego County,CA,NA,53.35820895522389,NA,NA
92084,San Diego County,CA,NA,NA,63.813953488372086,NA
92111,San Diego County,CA,70.02881844380403,NA,NA,NA
92113,San Diego County,CA,NA,NA,NA,59.70425138632163
92114,San Diego County,CA,NA,31.156716417910445,NA,NA
92119,San Diego County,CA,NA,NA,76.55813953488372,NA
92129,San Diego County,CA,NA,82.92910447761194,NA,NA
92154,San Diego County,CA,NA,NA,NA,16.820702402957487
92201,Riverside County,CA,NA,NA,15.627906976744185,NA
92223,Riverside County,CA,41.4985590778098,NA,75.16279069767442,NA
92251,Imperial County,CA,44.668587896253605,NA,NA,NA
92308,San Bernardino County,CA,NA,NA,25.488372093023255,NA
92311,San Bernardino County,CA,NA,35.91417910447761,NA,NA
92373,San Bernardino County,CA,65.4178674351585,NA,NA,NA
92374,San Bernardino County,CA,NA,42.723880597014926,88.37209302325581,NA
92376,San Bernardino County,CA,23.919308357348704,NA,NA,NA
92395,San Bernardino County,CA,NA,25.74626865671642,NA,NA
92399,San Bernardino County,CA,51.873198847262245,NA,NA,NA
92501,Riverside County,CA,62.53602305475504,NA,NA,NA
92504,Riverside County,CA,NA,41.6044776119403,NA,NA
92507,Riverside County,CA,60.23054755043228,41.32462686567165,NA,NA
92562,Riverside County,CA,NA,23.88059701492537,NA,NA
92586,Riverside County,CA,NA,NA,NA,28.465804066543438
92625,Orange County,CA,NA,NA,67.25581395348837,NA
92629,Orange County,CA,NA,NA,41.116279069767444,NA
92646,Orange County,CA,NA,23.600746268656717,NA,NA
92648,Orange County,CA,NA,26.958955223880597,59.34883720930233,NA
92651,Orange County,CA,NA,NA,89.76744186046511,NA
92653,Orange County,CA,NA,74.72014925373134,NA,NA
92656,Orange County,CA,NA,NA,49.30232558139535,NA
92660,Orange County,CA,NA,NA,NA,16.635859519408502
92673,Orange County,CA,NA,NA,65.95348837209303,NA
92675,Orange County,CA,NA,NA,46.13953488372093,NA
92677,Orange County,CA,NA,65.85820895522389,NA,NA
92683,Orange County,CA,34.293948126801155,14.17910447761194,NA,NA
92688,Orange County,CA,NA,81.90298507462687,NA,NA
92691,Orange County,CA,NA,94.96268656716418,NA,NA
92692,Orange County,CA,NA,NA,NA,13.123844731977819
92780,Orange County,CA,NA,36.473880597014926,NA,NA
92782,Orange County,CA,NA,79.1044776119403,NA,NA
92804,Orange County,CA,NA,NA,17.953488372093023,NA
92833,Orange County,CA,NA,NA,NA,55.822550831792974
92841,Orange County,CA,NA,NA,89.02325581395348,NA
92880,Riverside County,CA,NA,NA,56.093023255813954,NA
92881,Riverside County,CA,NA,74.44029850746269,NA,NA
92886,Orange County,CA,NA,NA,53.30232558139535,NA
93004,Ventura County,CA,NA,NA,NA,58.9648798521257
93065,Ventura County,CA,NA,NA,NA,21.626617375231053
93105,Santa Barbara County,CA,NA,NA,NA,64.51016635859519
93230,Kings County,CA,NA,15.391791044776118,NA,NA
93274,Tulare County,CA,NA,NA,17.209302325581397,NA
93291,Tulare County,CA,10.662824207492795,NA,NA,NA
93305,Kern County,CA,NA,41.7910447761194,NA,NA
93306,Kern County,CA,NA,NA,38.325581395348834,NA
93312,Kern County,CA,51.008645533141205,NA,NA,NA
93402,San Luis Obispo County,CA,NA,NA,93.30232558139535,NA
93534,Los Angeles County,CA,44.95677233429395,NA,NA,NA
93555,Kern County,CA,31.988472622478387,22.388059701492537,NA,NA
93560,Kern County,CA,NA,76.58582089552239,NA,NA
93561,Kern County,CA,NA,NA,53.674418604651166,64.69500924214418
93618,Tulare County,CA,NA,NA,75.44186046511628,NA
93638,Madera County,CA,NA,NA,NA,57.301293900184845
93654,Fresno County,CA,NA,NA,76.46511627906976,71.1645101663586
93706,Fresno County,CA,NA,NA,40.55813953488372,NA
93720,Fresno County,CA,NA,32.46268656716418,NA,NA
93727,Fresno County,CA,90.20172910662824,NA,NA,NA
93905,Monterey County,CA,80.69164265129683,NA,NA,NA
93955,Monterey County,CA,NA,NA,33.395348837209305,NA
94002,San Mateo County,CA,NA,56.25,NA,NA
94010,San Mateo County,CA,NA,NA,83.81395348837209,NA
94022,Santa Clara County,CA,NA,NA,80,NA
94025,San Mateo County,CA,NA,NA,35.25581395348837,NA
94044,San Mateo County,CA,NA,NA,26.139534883720934,NA
94061,San Mateo County,CA,NA,52.332089552238806,NA,NA
94062,San Mateo County,CA,NA,56.43656716417911,NA,NA
94065,San Mateo County,CA,NA,90.76492537313433,NA,NA
94089,Santa Clara County,CA,NA,NA,83.25581395348837,76.34011090573013
94103,San Francisco County,CA,NA,10.074626865671641,NA,17.005545286506468
94108,San Francisco County,CA,NA,NA,NA,59.51940850277264
94109,San Francisco County,CA,NA,NA,10.325581395348838,NA
94110,San Francisco County,CA,NA,10.727611940298507,NA,NA
94112,San Francisco County,CA,NA,57.36940298507462,5.023255813953488,NA
94115,San Francisco County,CA,NA,47.94776119402985,NA,NA
94122,San Francisco County,CA,NA,NA,19.627906976744185,34.750462107208875
94301,Santa Clara County,CA,NA,NA,NA,67.09796672828097
94306,Santa Clara County,CA,NA,NA,NA,58.41035120147874
94513,Contra Costa County,CA,NA,NA,59.906976744186046,32.71719038817005
94521,Contra Costa County,CA,NA,NA,NA,28.09611829944547
94530,Contra Costa County,CA,NA,92.91044776119402,NA,NA
94533,Solano County,CA,NA,NA,24,NA
94534,Solano County,CA,NA,NA,45.2093023255814,NA
94536,Alameda County,CA,NA,30.410447761194032,NA,NA
94539,Alameda County,CA,NA,NA,55.44186046511628,42.329020332717185
94544,Alameda County,CA,NA,NA,11.627906976744185,25.508317929759706
94546,Alameda County,CA,NA,NA,62.41860465116279,NA
94549,Contra Costa County,CA,NA,NA,NA,72.82809611829944
94558,Napa County,CA,NA,NA,5.3023255813953485,NA
94559,Napa County,CA,NA,NA,NA,51.940850277264325
94560,Alameda County,CA,NA,NA,47.81395348837209,NA
94577,Alameda County,CA,NA,NA,33.2093023255814,NA
94588,Alameda County,CA,61.38328530259366,NA,NA,NA
94591,Solano County,CA,NA,65.67164179104478,NA,NA
94595,Contra Costa County,CA,NA,NA,NA,38.447319778188536
94598,Contra Costa County,CA,NA,NA,55.16279069767441,63.95563770794824
94605,Alameda County,CA,NA,21.175373134328357,NA,NA
94803,Contra Costa County,CA,NA,NA,NA,62.10720887245841
94804,Contra Costa County,CA,NA,NA,42.97674418604651,NA
94939,Marin County,CA,NA,NA,NA,96.67282809611831
94954,Sonoma County,CA,NA,48.78731343283582,NA,NA
95003,Santa Cruz County,CA,NA,85.82089552238806,NA,NA
95008,Santa Clara County,CA,NA,NA,NA,30.499075785582253
95014,Santa Clara County,CA,NA,NA,NA,25.87800369685767
95023,San Benito County,CA,NA,26.492537313432834,NA,NA
95035,Santa Clara County,CA,NA,NA,48.65116279069767,NA
95050,Santa Clara County,CA,NA,70.1492537313433,NA,NA
95051,Santa Clara County,CA,NA,NA,52.372093023255815,NA
95070,Santa Clara County,CA,NA,NA,91.72093023255815,NA
95112,Santa Clara County,CA,NA,NA,40.93023255813954,NA
95113,Santa Clara County,CA,NA,NA,99.16279069767442,NA
95116,Santa Clara County,CA,85.5907780979827,NA,NA,NA
95124,Santa Clara County,CA,NA,58.582089552238806,NA,NA
95126,Santa Clara County,CA,NA,65.20522388059702,NA,NA
95135,Santa Clara County,CA,NA,NA,78.23255813953487,NA
95148,Santa Clara County,CA,NA,NA,NA,62.84658040665434
95336,San Joaquin County,CA,NA,28.544776119402986,19.72093023255814,30.129390018484287
95355,Stanislaus County,CA,NA,32.276119402985074,NA,NA
95356,Stanislaus County,CA,NA,NA,NA,62.47689463955638
95361,Stanislaus County,CA,NA,NA,28.651162790697676,NA
95363,Stanislaus County,CA,NA,62.03358208955224,NA,NA
95370,Tuolumne County,CA,NA,NA,3.1627906976744184,NA
95380,Stanislaus County,CA,NA,NA,18.41860465116279,NA
95391,San Joaquin County,CA,NA,NA,93.76744186046511,NA
95401,Sonoma County,CA,31.70028818443804,58.2089552238806,NA,46.76524953789279
95405,Sonoma County,CA,NA,NA,83.72093023255815,NA
95407,Sonoma County,CA,38.328530259366,NA,NA,NA
95482,Mendocino County,CA,NA,NA,24.651162790697676,NA
95503,Humboldt County,CA,NA,NA,47.44186046511628,NA
95610,Sacramento County,CA,NA,45.7089552238806,NA,NA
95623,El Dorado County,CA,93.94812680115274,NA,NA,NA
95627,Yolo County,CA,100,NA,NA,NA
95630,Sacramento County,CA,NA,24.53358208955224,NA,NA
95660,Sacramento County,CA,NA,39.832089552238806,NA,NA
95661,Placer County,CA,NA,NA,NA,54.15896487985212
95666,Amador County,CA,NA,NA,85.86046511627907,NA
95670,Sacramento County,CA,NA,NA,31.069767441860463,NA
95677,Placer County,CA,NA,NA,NA,84.4731977818854
95678,Placer County,CA,65.4178674351585,NA,NA,NA
95747,Placer County,CA,NA,NA,NA,12.939001848428836
95757,Sacramento County,CA,NA,NA,NA,87.8003696857671
95762,El Dorado County,CA,NA,50.279850746268664,36.18604651162791,NA
95776,Yolo County,CA,95.38904899135446,87.1268656716418,NA,NA
95820,Sacramento County,CA,NA,51.30597014925373,NA,56.931608133086876
95822,Sacramento County,CA,NA,NA,43.53488372093023,26.617375231053604
95823,Sacramento County,CA,NA,NA,17.302325581395348,NA
95841,Sacramento County,CA,NA,NA,81.95348837209302,NA
95928,Butte County,CA,NA,NA,32,NA
95959,Nevada County,CA,NA,93.65671641791045,NA,NA
95991,Sutter County,CA,NA,NA,37.2093023255814,NA
96150,El Dorado County,CA,NA,89.08582089552239,NA,NA
80010,Arapahoe County,CO,NA,16.138059701492537,NA,NA
80104,Douglas County,CO,NA,56.529850746268664,65.86046511627906,NA
80107,Elbert County,CO,93.0835734870317,NA,NA,NA
80108,Douglas County,CO,NA,77.42537313432835,NA,NA
80111,Arapahoe County,CO,55.61959654178674,NA,NA,NA
80129,Douglas County,CO,36.59942363112392,NA,NA,NA
80206,Denver County,CO,NA,NA,88.65116279069768,NA
80207,Denver County,CO,27.37752161383285,NA,NA,NA
80210,Denver County,CO,NA,NA,55.16279069767441,76.15526802218115
80212,Denver County,CO,NA,NA,90.79069767441861,NA
80218,Denver County,CO,NA,NA,81.30232558139535,NA
80220,Denver County,CO,NA,NA,66.13953488372093,NA
80223,Denver County,CO,NA,NA,54.97674418604651,NA
80229,Adams County,CO,32.85302593659942,NA,NA,NA
80230,Denver County,CO,94.52449567723343,NA,NA,NA
80236,Denver County,CO,NA,81.25,NA,NA
80301,Boulder County,CO,NA,NA,96,NA
80403,Jefferson County,CO,NA,88.43283582089553,NA,NA
80424,Summit County,CO,97.69452449567724,NA,NA,NA
80487,Routt County,CO,NA,NA,NA,96.48798521256931
80521,Larimer County,CO,NA,69.21641791044776,NA,79.48243992606284
80526,Larimer County,CO,26.22478386167147,NA,NA,NA
80549,Larimer County,CO,NA,NA,92.93023255813954,NA
80601,Adams County,CO,NA,32.649253731343286,NA,NA
80602,Adams County,CO,NA,NA,56.74418604651162,NA
80603,Weld County,CO,NA,NA,89.95348837209303,NA
80631,Weld County,CO,NA,NA,24.27906976744186,NA
80651,Weld County,CO,NA,97.6679104477612,NA,NA
80817,El Paso County,CO,NA,52.89179104477611,NA,NA
80906,El Paso County,CO,NA,62.31343283582089,NA,NA
80909,El Paso County,CO,NA,NA,50.7906976744186,NA
80910,El Paso County,CO,NA,21.548507462686565,NA,NA
80922,El Paso County,CO,NA,56.156716417910445,NA,NA
81001,Pueblo County,CO,33.71757925072046,18.65671641791045,NA,NA
81005,Pueblo County,CO,NA,36.66044776119403,NA,NA
81008,Pueblo County,CO,NA,85.07462686567165,NA,NA
81101,Alamosa County,CO,NA,NA,NA,79.66728280961183
81122,La Plata County,CO,NA,91.04477611940298,NA,NA
81147,Archuleta County,CO,NA,NA,NA,69.50092421441775
81301,La Plata County,CO,NA,NA,41.95348837209302,NA
81321,Montezuma County,CO,NA,67.07089552238806,NA,NA
81639,Routt County,CO,NA,99.16044776119402,NA,NA
81647,Garfield County,CO,NA,95.8955223880597,NA,NA
81650,Garfield County,CO,NA,NA,96.09302325581396,NA
06010,Hartford County,CT,5.763688760806916,1.4925373134328357,NA,NA
06035,Hartford County,CT,NA,95.33582089552239,NA,NA
06037,Hartford County,CT,NA,NA,85.5813953488372,NA
06053,Hartford County,CT,NA,NA,24.74418604651163,NA
06057,Litchfield County,CT,NA,88.15298507462687,NA,NA
06062,Hartford County,CT,NA,NA,67.72093023255815,NA
06066,Tolland County,CT,NA,NA,NA,25.32347504621072
06067,Hartford County,CT,NA,69.02985074626866,NA,NA
06106,Hartford County,CT,NA,4.850746268656716,NA,NA
06112,Hartford County,CT,NA,NA,54.23255813953488,NA
06117,Hartford County,CT,NA,NA,NA,37.89279112754159
06226,Windham County,CT,NA,NA,78.51162790697674,90.75785582255084
06238,Tolland County,CT,NA,NA,NA,84.84288354898337
06255,Windham County,CT,NA,75.74626865671642,NA,NA
06260,Windham County,CT,40.63400576368876,NA,NA,NA
06277,Windham County,CT,NA,83.11567164179104,NA,NA
06405,New Haven County,CT,NA,NA,26.139534883720934,NA
06450,New Haven County,CT,NA,5.597014925373134,NA,NA
06470,Fairfield County,CT,NA,NA,NA,80.0369685767098
06473,New Haven County,CT,NA,69.96268656716418,NA,NA
06489,Hartford County,CT,NA,29.011194029850746,NA,NA
06492,New Haven County,CT,NA,18.563432835820894,11.255813953488373,NA
06511,New Haven County,CT,NA,4.57089552238806,NA,NA
06513,New Haven County,CT,NA,4.0111940298507465,NA,NA
06606,Fairfield County,CT,NA,15.205223880597016,NA,NA
06776,Litchfield County,CT,NA,NA,69.3953488372093,NA
06787,Litchfield County,CT,NA,NA,NA,75.41589648798521
06790,Litchfield County,CT,49.56772334293948,NA,1.5813953488372092,NA
06831,Fairfield County,CT,NA,NA,67.62790697674419,NA
06877,Fairfield County,CT,NA,78.17164179104478,61.02325581395349,NA
19702,New Castle County,DE,NA,NA,16.558139534883722,NA
19703,New Castle County,DE,NA,NA,70.51162790697674,NA
19711,New Castle County,DE,NA,29.291044776119403,NA,NA
19720,New Castle County,DE,NA,2.1455223880597014,NA,NA
19808,New Castle County,DE,NA,NA,NA,8.133086876155268
19810,New Castle County,DE,NA,55.78358208955224,NA,NA
19901,Kent County,DE,NA,NA,NA,28.835489833641404
19947,Sussex County,DE,NA,NA,74.88372093023256,NA
19958,Sussex County,DE,NA,NA,NA,14.048059149722736
32011,Nassau County,FL,NA,NA,92.46511627906978,NA
32025,Columbia County,FL,NA,37.96641791044777,NA,NA
32034,Nassau County,FL,NA,NA,39.06976744186046,NA
32043,Clay County,FL,NA,44.776119402985074,NA,NA
32055,Columbia County,FL,NA,NA,NA,67.28280961182995
32060,Suwannee County,FL,NA,NA,47.627906976744185,NA
32073,Clay County,FL,NA,20.33582089552239,NA,26.247689463955638
32084,St. Johns County,FL,53.02593659942363,NA,NA,NA
32137,Flagler County,FL,NA,NA,6.1395348837209305,NA
32141,Volusia County,FL,NA,NA,NA,48.059149722735675
32202,Duval County,FL,58.789625360230545,NA,89.5813953488372,NA
32205,Duval County,FL,NA,25.186567164179102,NA,NA
32207,Duval County,FL,NA,NA,9.488372093023257,59.14972273567468
32210,Duval County,FL,NA,3.6380597014925375,5.395348837209302,NA
32211,Duval County,FL,NA,18.470149253731343,NA,NA
32219,Duval County,FL,NA,NA,68.09302325581396,NA
32223,Duval County,FL,NA,71.64179104477611,NA,NA
32226,Duval County,FL,NA,NA,56.55813953488372,NA
32244,Duval County,FL,NA,NA,9.395348837209303,36.96857670979667
32254,Duval County,FL,NA,47.201492537313435,NA,NA
32256,Duval County,FL,NA,31.80970149253731,NA,NA
32257,Duval County,FL,NA,NA,21.953488372093023,NA
32258,Duval County,FL,NA,55.59701492537313,NA,NA
32277,Duval County,FL,NA,19.776119402985074,NA,NA
32309,Leon County,FL,NA,75.46641791044776,NA,NA
32428,Washington County,FL,64.26512968299711,53.26492537313433,52.93023255813954,NA
32455,Walton County,FL,NA,NA,87.44186046511628,NA
32536,Okaloosa County,FL,59.94236311239193,NA,NA,NA
32541,Okaloosa County,FL,NA,66.7910447761194,NA,NA
32550,Walton County,FL,NA,NA,NA,66.17375231053605
32577,Escambia County,FL,NA,88.52611940298507,NA,NA
32578,Okaloosa County,FL,NA,53.82462686567165,NA,26.062846580406656
32605,Alachua County,FL,NA,NA,NA,28.650646950092423
32621,Levy County,FL,78.6743515850144,NA,NA,NA
32666,Putnam County,FL,NA,87.5,NA,NA
32693,Gilchrist County,FL,NA,69.1231343283582,NA,NA
32726,Lake County,FL,NA,52.1455223880597,NA,NA
32754,Brevard County,FL,NA,NA,76.65116279069767,NA
32807,Orange County,FL,NA,NA,61.302325581395344,NA
32812,Orange County,FL,NA,35.5410447761194,NA,NA
32817,Orange County,FL,NA,66.51119402985076,NA,NA
32825,Orange County,FL,NA,30.970149253731343,NA,NA
32905,Brevard County,FL,NA,NA,46.6046511627907,NA
32927,Brevard County,FL,NA,53.54477611940298,NA,NA
32940,Brevard County,FL,NA,NA,NA,6.284658040665435
32955,Brevard County,FL,NA,49.440298507462686,NA,NA
32968,Indian River County,FL,NA,NA,60.46511627906976,NA
33012,Miami-Dade County,FL,NA,NA,21.302325581395348,NA
33021,Broward County,FL,NA,NA,22.41860465116279,NA
33023,Broward County,FL,NA,NA,45.395348837209305,NA
33027,Broward County,FL,NA,39.73880597014926,38.41860465116279,NA
33028,Broward County,FL,NA,NA,82.6046511627907,NA
33037,Monroe County,FL,NA,NA,72.55813953488372,NA
33054,Miami-Dade County,FL,31.412103746397698,NA,NA,NA
33060,Broward County,FL,NA,36.84701492537313,NA,NA
33062,Broward County,FL,NA,70.7089552238806,NA,NA
33063,Broward County,FL,NA,NA,NA,14.417744916820702
33064,Broward County,FL,NA,NA,53.48837209302325,NA
33076,Broward County,FL,NA,NA,67.44186046511628,NA
33141,Miami-Dade County,FL,NA,NA,34.883720930232556,NA
33145,Miami-Dade County,FL,NA,85.44776119402985,NA,NA
33146,Miami-Dade County,FL,NA,NA,96.27906976744185,NA
33154,Miami-Dade County,FL,NA,94.77611940298507,NA,NA
33155,Miami-Dade County,FL,NA,NA,30.046511627906973,NA
33156,Miami-Dade County,FL,NA,NA,56.83720930232559,NA
33162,Miami-Dade County,FL,NA,NA,NA,51.01663585951941
33165,Miami-Dade County,FL,NA,NA,NA,3.512014787430684
33177,Miami-Dade County,FL,NA,NA,51.06976744186047,NA
33179,Miami-Dade County,FL,NA,60.820895522388064,NA,NA
33183,Miami-Dade County,FL,NA,NA,73.5813953488372,NA
33196,Miami-Dade County,FL,NA,NA,64.55813953488372,NA
33308,Broward County,FL,NA,NA,13.767441860465116,NA
33322,Broward County,FL,NA,70.98880597014924,NA,NA
33324,Broward County,FL,NA,NA,NA,55.26802218114602
33326,Broward County,FL,NA,NA,86.04651162790698,NA
33328,Broward County,FL,NA,NA,NA,45.65619223659889
33331,Broward County,FL,NA,92.16417910447761,NA,NA
33409,Palm Beach County,FL,NA,87.59328358208955,NA,NA
33414,Palm Beach County,FL,NA,NA,42.04651162790698,NA
33428,Palm Beach County,FL,NA,34.98134328358209,82.51162790697674,NA
33437,Palm Beach County,FL,NA,NA,NA,0.36968576709796674
33445,Palm Beach County,FL,NA,NA,66.32558139534885,NA
33458,Palm Beach County,FL,NA,21.361940298507463,22.511627906976745,NA
33471,Glades County,FL,97.11815561959655,NA,NA,NA
33477,Palm Beach County,FL,NA,97.38805970149254,NA,NA
33484,Palm Beach County,FL,NA,NA,NA,1.6635859519408502
33487,Palm Beach County,FL,NA,NA,NA,44.54713493530499
33496,Palm Beach County,FL,NA,NA,40.372093023255815,NA
33527,Hillsborough County,FL,NA,84.60820895522389,NA,NA
33558,Hillsborough County,FL,NA,NA,79.62790697674419,NA
33567,Hillsborough County,FL,NA,74.90671641791045,NA,NA
33573,Hillsborough County,FL,NA,NA,NA,2.2181146025878005
33604,Hillsborough County,FL,NA,NA,39.348837209302324,NA
33619,Hillsborough County,FL,NA,34.42164179104478,NA,NA
33624,Hillsborough County,FL,NA,79.94402985074626,NA,NA
33634,Hillsborough County,FL,NA,NA,NA,81.70055452865064
33637,Hillsborough County,FL,NA,82.18283582089553,NA,NA
33707,Pinellas County,FL,NA,NA,29.674418604651166,NA
33759,Pinellas County,FL,NA,90.11194029850746,NA,NA
33777,Pinellas County,FL,NA,NA,NA,92.05175600739372
33860,Polk County,FL,NA,NA,65.2093023255814,NA
33880,Polk County,FL,NA,NA,NA,31.79297597042514
33907,Lee County,FL,NA,47.10820895522388,NA,NA
33908,Lee County,FL,NA,NA,NA,98.8909426987061
33912,Lee County,FL,NA,NA,45.76744186046512,NA
33916,Lee County,FL,NA,NA,NA,95.19408502772643
33952,Charlotte County,FL,NA,22.48134328358209,NA,NA
33956,Lee County,FL,NA,NA,95.81395348837209,NA
33957,Lee County,FL,NA,NA,NA,74.67652495378928
33966,Lee County,FL,NA,NA,NA,85.21256931608133
33974,Lee County,FL,NA,79.47761194029852,NA,NA
34134,Lee County,FL,NA,98.13432835820896,NA,NA
34201,Manatee County,FL,NA,NA,NA,82.43992606284658
34202,Manatee County,FL,NA,67.63059701492537,NA,NA
34205,Manatee County,FL,NA,NA,NA,43.622920517560075
34228,Sarasota County,FL,NA,NA,NA,44.73197781885398
34238,Sarasota County,FL,83.28530259365994,NA,NA,NA
34275,Sarasota County,FL,NA,NA,27.162790697674417,NA
34285,Sarasota County,FL,NA,NA,17.02325581395349,NA
34292,Sarasota County,FL,NA,NA,49.67441860465116,NA
34428,Citrus County,FL,NA,NA,NA,98.15157116451016
34606,Hernando County,FL,NA,42.63059701492538,NA,NA
34609,Hernando County,FL,40.92219020172911,NA,NA,NA
34639,Pasco County,FL,80.11527377521614,NA,NA,NA
34667,Pasco County,FL,NA,44.12313432835821,NA,NA
34669,Pasco County,FL,NA,NA,NA,99.44547134935306
34683,Pinellas County,FL,NA,64.55223880597015,NA,NA
34685,Pinellas County,FL,NA,NA,76.74418604651163,NA
34695,Pinellas County,FL,NA,NA,NA,55.08317929759704
34698,Pinellas County,FL,NA,NA,20.372093023255815,NA
34711,Lake County,FL,NA,19.496268656716417,NA,NA
34741,Osceola County,FL,NA,NA,NA,68.57670979667283
34787,Orange County,FL,30.25936599423631,NA,NA,NA
34952,St. Lucie County,FL,NA,NA,60.09302325581395,NA
34982,St. Lucie County,FL,NA,NA,36.651162790697676,NA
30004,Fulton County,GA,NA,73.22761194029852,NA,NA
30005,Fulton County,GA,NA,69.86940298507463,NA,NA
30012,Rockdale County,GA,NA,54.570895522388064,NA,NA
30014,Newton County,GA,NA,25.093283582089555,NA,NA
30019,Gwinnett County,GA,NA,39.08582089552239,NA,NA
30022,Fulton County,GA,NA,71.82835820895522,NA,NA
30024,Gwinnett County,GA,NA,54.197761194029844,23.162790697674417,41.58964879852125
30025,Walton County,GA,NA,92.07089552238806,NA,NA
30030,DeKalb County,GA,NA,45.615671641791046,NA,NA
30032,DeKalb County,GA,NA,10.354477611940299,10.69767441860465,NA
30034,DeKalb County,GA,NA,NA,77.76744186046511,NA
30041,Forsyth County,GA,22.76657060518732,26.679104477611943,NA,NA
30043,Gwinnett County,GA,NA,19.682835820895523,NA,NA
30045,Gwinnett County,GA,NA,82.55597014925374,NA,NA
30046,Gwinnett County,GA,NA,46.82835820895522,NA,NA
30058,DeKalb County,GA,NA,18.003731343283583,NA,NA
30068,Cobb County,GA,NA,NA,NA,75.23105360443623
30083,DeKalb County,GA,NA,59.98134328358209,NA,52.12569316081331
30084,DeKalb County,GA,NA,NA,87.53488372093024,NA
30092,Gwinnett County,GA,NA,62.593283582089555,NA,NA
30101,Cobb County,GA,NA,24.813432835820894,NA,NA
30114,Cherokee County,GA,NA,34.79477611940299,NA,NA
30126,Cobb County,GA,NA,43.75,NA,NA
30127,Cobb County,GA,NA,NA,30.23255813953488,NA
30132,Paulding County,GA,NA,NA,36.74418604651163,NA
30157,Paulding County,GA,NA,24.62686567164179,NA,NA
30180,Carroll County,GA,NA,NA,36,NA
30188,Cherokee County,GA,NA,NA,14.232558139534884,35.67467652495379
30214,Fayette County,GA,NA,NA,39.81395348837209,NA
30236,Clayton County,GA,NA,NA,NA,63.03142329020333
30238,Clayton County,GA,NA,52.42537313432835,NA,NA
30253,Henry County,GA,NA,NA,NA,45.84103512014787
30265,Coweta County,GA,NA,NA,41.674418604651166,NA
30281,Henry County,GA,NA,24.16044776119403,NA,49.16820702402958
30291,Fulton County,GA,NA,NA,NA,72.64325323475046
30306,Fulton County,GA,NA,NA,75.72093023255813,NA
30311,Fulton County,GA,NA,NA,NA,21.811460258780038
30344,Fulton County,GA,NA,43.9365671641791,NA,NA
30354,Fulton County,GA,NA,NA,NA,94.82439926062847
30401,Emanuel County,GA,NA,71.54850746268657,NA,NA
30427,Tattnall County,GA,NA,NA,90.79069767441861,NA
30458,Bulloch County,GA,NA,NA,34.23255813953489,NA
30461,Bulloch County,GA,81.55619596541787,NA,NA,NA
30506,Hall County,GA,NA,28.73134328358209,NA,15.526802218114602
30507,Hall County,GA,NA,43.656716417910445,NA,NA
30518,Gwinnett County,GA,NA,37.406716417910445,NA,NA
30519,Gwinnett County,GA,NA,NA,30.976744186046513,NA
30538,Stephens County,GA,NA,100,NA,NA
30548,Jackson County,GA,NA,NA,50.41860465116279,NA
30582,Towns County,GA,NA,93.65671641791045,NA,NA
30620,Barrow County,GA,NA,NA,NA,96.30314232902033
30656,Walton County,GA,NA,95.42910447761194,NA,NA
30666,Barrow County,GA,NA,85.26119402985076,NA,NA
30673,Wilkes County,GA,NA,92.3507462686567,NA,NA
30683,Clarke County,GA,NA,NA,97.95348837209302,NA
30705,Murray County,GA,NA,NA,NA,68.76155268022181
30752,Dade County,GA,NA,60.26119402985075,NA,NA
30815,Richmond County,GA,NA,53.45149253731343,NA,NA
30906,Richmond County,GA,NA,6.809701492537314,NA,NA
31088,Houston County,GA,NA,13.712686567164178,57.76744186046512,NA
31210,Bibb County,GA,NA,NA,NA,48.79852125693161
31312,Effingham County,GA,NA,NA,78.97674418604652,NA
31326,Effingham County,GA,NA,63.43283582089553,NA,NA
31406,Chatham County,GA,NA,NA,NA,33.45656192236599
31410,Chatham County,GA,NA,86.00746268656717,NA,NA
31533,Coffee County,GA,NA,NA,69.02325581395348,NA
31558,Camden County,GA,NA,68.47014925373134,NA,NA
31707,Dougherty County,GA,NA,NA,40.74418604651163,53.04990757855823
31721,Dougherty County,GA,NA,NA,63.441860465116285,NA
31730,Mitchell County,GA,NA,NA,84.74418604651163,NA
31794,Tift County,GA,NA,NA,72.93023255813952,NA
31903,Muscogee County,GA,NA,NA,NA,64.14048059149722
31904,Muscogee County,GA,NA,NA,NA,18.853974121996302
31906,Muscogee County,GA,NA,40.57835820895522,NA,NA
31909,Muscogee County,GA,NA,NA,25.581395348837212,NA
96701,Honolulu County,HI,NA,NA,15.906976744186046,NA
96706,Honolulu County,HI,NA,NA,11.348837209302326,NA
96734,Honolulu County,HI,NA,NA,9.209302325581396,NA
96766,Kauai County,HI,NA,NA,74.13953488372093,NA
96789,Honolulu County,HI,NA,NA,6.790697674418604,NA
96793,Maui County,HI,78.96253602305475,NA,NA,NA
96817,Honolulu County,HI,NA,NA,32.372093023255815,31.608133086876155
96819,Honolulu County,HI,NA,76.21268656716418,NA,NA
96822,Honolulu County,HI,NA,84.04850746268657,55.72093023255814,NA
83201,Bannock County,ID,NA,NA,73.39534883720931,NA
83221,Bingham County,ID,NA,26.212686567164177,NA,NA
83301,Twin Falls County,ID,NA,3.078358208955224,NA,NA
83401,Bonneville County,ID,NA,NA,41.581395348837205,NA
83404,Bonneville County,ID,NA,NA,NA,57.301293900184845
83440,Madison County,ID,NA,NA,NA,89.64879852125694
83467,Lemhi County,ID,NA,NA,71.25581395348837,NA
83530,Idaho County,ID,93.65994236311239,NA,NA,NA
83616,Ada County,ID,NA,NA,62.51162790697674,NA
83647,Elmore County,ID,42.65129682997118,NA,NA,NA
83651,Canyon County,ID,80.97982708933718,NA,10.511627906976745,NA
83702,Ada County,ID,NA,NA,NA,41.21996303142329
83706,Ada County,ID,NA,NA,21.209302325581394,NA
83709,Ada County,ID,NA,12.966417910447761,NA,NA
83854,Kootenai County,ID,NA,NA,20.46511627906977,NA
60004,Cook County,IL,27.37752161383285,NA,NA,NA
60005,Cook County,IL,NA,NA,39.162790697674424,NA
60010,Lake County,IL,NA,NA,NA,20.70240295748614
60013,McHenry County,IL,NA,NA,33.95348837209302,NA
60014,McHenry County,IL,NA,21.641791044776117,NA,NA
60016,Cook County,IL,NA,20.80223880597015,NA,8.502772643253234
60030,Lake County,IL,NA,NA,NA,19.408502772643253
60035,Lake County,IL,NA,NA,12.279069767441861,NA
60043,Cook County,IL,99.42363112391931,NA,NA,NA
60047,Lake County,IL,65.99423631123919,NA,NA,NA
60048,Lake County,IL,NA,79.01119402985076,25.116279069767444,NA
60050,McHenry County,IL,NA,NA,31.348837209302328,NA
60060,Lake County,IL,NA,47.76119402985074,NA,NA
60062,Cook County,IL,NA,NA,4.279069767441861,NA
60067,Cook County,IL,NA,43.37686567164179,NA,NA
60087,Lake County,IL,NA,69.68283582089553,NA,NA
60090,Cook County,IL,NA,55.690298507462686,NA,NA
60103,DuPage County,IL,NA,27.238805970149254,NA,NA
60107,Cook County,IL,NA,50.74626865671642,NA,NA
60108,DuPage County,IL,NA,83.76865671641791,NA,NA
60115,DeKalb County,IL,NA,40.298507462686565,NA,NA
60120,Kane County,IL,NA,60.634328358208954,NA,NA
60134,Kane County,IL,NA,44.58955223880597,NA,NA
60142,McHenry County,IL,NA,NA,9.023255813953488,1.478743068391867
60148,DuPage County,IL,18.73198847262248,12.313432835820896,NA,NA
60152,McHenry County,IL,NA,NA,53.02325581395348,NA
60164,Cook County,IL,NA,71.73507462686567,NA,NA
60172,DuPage County,IL,NA,NA,41.86046511627907,NA
60175,Kane County,IL,NA,26.58582089552239,32.74418604651162,NA
60185,DuPage County,IL,NA,37.03358208955223,NA,NA
60189,DuPage County,IL,NA,NA,21.488372093023255,NA
60201,Cook County,IL,NA,NA,58.6046511627907,NA
60403,Will County,IL,NA,59.79477611940298,NA,51.20147874306839
60429,Cook County,IL,NA,70.33582089552239,NA,NA
60431,Will County,IL,NA,NA,NA,70.79482439926062
60433,Will County,IL,NA,NA,NA,83.91866913123845
60436,Will County,IL,37.46397694524496,NA,NA,NA
60443,Cook County,IL,54.17867435158501,NA,NA,NA
60451,Will County,IL,NA,NA,13.674418604651162,NA
60456,Cook County,IL,NA,NA,NA,90.57301293900186
60459,Cook County,IL,NA,33.2089552238806,NA,NA
60462,Cook County,IL,NA,24.813432835820894,NA,NA
60466,Cook County,IL,NA,NA,91.62790697674419,NA
60477,Cook County,IL,NA,NA,11.813953488372093,NA
60480,Cook County,IL,NA,NA,NA,91.1275415896488
60487,Cook County,IL,NA,56.06343283582089,40.27906976744186,NA
60515,DuPage County,IL,NA,40.11194029850746,NA,NA
60523,DuPage County,IL,NA,NA,NA,43.068391866913124
60525,Cook County,IL,NA,NA,12.465116279069766,NA
60526,Cook County,IL,56.77233429394812,NA,76.09302325581395,NA
60527,DuPage County,IL,NA,NA,8.837209302325581,NA
60542,Kane County,IL,47.83861671469741,NA,NA,NA
60559,DuPage County,IL,NA,NA,NA,65.98890942698706
60561,DuPage County,IL,NA,58.67537313432835,94.41860465116278,NA
60608,Cook County,IL,NA,NA,NA,10.35120147874307
60614,Cook County,IL,NA,NA,14.604651162790697,15.341959334565619
60617,Cook County,IL,NA,NA,NA,19.77818853974122
60619,Cook County,IL,NA,6.156716417910448,NA,NA
60620,Cook County,IL,NA,NA,2.883720930232558,4.251386321626617
60621,Cook County,IL,NA,NA,68.55813953488372,NA
60624,Cook County,IL,NA,NA,62.6046511627907,NA
60631,Cook County,IL,NA,30.50373134328358,NA,NA
60633,Cook County,IL,NA,69.49626865671642,NA,NA
60634,Cook County,IL,NA,NA,7.255813953488372,10.720887245841034
60639,Cook County,IL,NA,8.022388059701493,NA,NA
60640,Cook County,IL,NA,NA,NA,10.905730129390019
60643,Cook County,IL,NA,7.742537313432836,NA,NA
60649,Cook County,IL,NA,NA,7.627906976744186,NA
60651,Cook County,IL,NA,NA,7.441860465116279,NA
60652,Cook County,IL,NA,27.33208955223881,NA,NA
60657,Cook County,IL,NA,18.28358208955224,NA,NA
60660,Cook County,IL,NA,NA,14.325581395348838,NA
60707,Cook County,IL,NA,NA,NA,11.829944547134936
60901,Kankakee County,IL,NA,14.272388059701493,NA,NA
61032,Stephenson County,IL,NA,NA,NA,16.45101663585952
61061,Ogle County,IL,NA,94.02985074626866,NA,NA
61103,Winnebago County,IL,NA,54.2910447761194,NA,NA
61107,Winnebago County,IL,NA,NA,30.697674418604652,NA
61115,Winnebago County,IL,NA,NA,26.6046511627907,NA
61350,LaSalle County,IL,NA,48.32089552238806,NA,NA
61401,Knox County,IL,NA,NA,28.37209302325581,NA
61520,Fulton County,IL,NA,NA,56.00000000000001,NA
61603,Peoria County,IL,NA,66.6044776119403,74.6046511627907,NA
61704,McLean County,IL,NA,70.61567164179104,NA,NA
61705,McLean County,IL,NA,93.28358208955224,NA,NA
61802,Champaign County,IL,NA,NA,29.767441860465116,NA
61866,Champaign County,IL,NA,NA,71.16279069767441,NA
61938,Coles County,IL,NA,NA,NA,34.380776340110906
61951,Moultrie County,IL,NA,97.29477611940298,NA,NA
62056,Montgomery County,IL,NA,NA,NA,60.81330868761553
62095,Madison County,IL,NA,NA,94.04651162790698,NA
62220,St. Clair County,IL,NA,NA,NA,77.81885397412199
62234,Madison County,IL,NA,NA,NA,29.75970425138632
62258,St. Clair County,IL,NA,NA,NA,99.07578558225508
62448,Jasper County,IL,NA,NA,87.90697674418605,NA
62454,Crawford County,IL,NA,NA,92.18604651162791,NA
62471,Fayette County,IL,94.23631123919309,NA,NA,NA
62563,Sangamon County,IL,NA,98.22761194029852,NA,NA
62568,Christian County,IL,61.38328530259366,75.93283582089553,NA,NA
62650,Morgan County,IL,NA,NA,31.813953488372093,NA
62702,Sangamon County,IL,NA,75,NA,38.077634011090574
62711,Sangamon County,IL,NA,NA,NA,47.504621072088725
46036,Madison County,IN,NA,NA,NA,78.9279112754159
46037,Hamilton County,IN,NA,67.25746268656717,NA,NA
46038,Hamilton County,IN,NA,58.95522388059702,NA,NA
46120,Putnam County,IN,78.09798270893373,NA,NA,NA
46143,Johnson County,IN,NA,NA,15.534883720930232,NA
46208,Marion County,IN,NA,NA,69.67441860465117,NA
46220,Marion County,IN,NA,91.6044776119403,NA,NA
46237,Marion County,IN,NA,16.69776119402985,NA,NA
46239,Marion County,IN,NA,NA,53.58139534883721,NA
46268,Marion County,IN,NA,NA,46.418604651162795,NA
46307,Lake County,IN,12.39193083573487,NA,1.302325581395349,NA
46319,Lake County,IN,NA,25.466417910447763,NA,NA
46321,Lake County,IN,NA,33.95522388059701,NA,NA
46322,Lake County,IN,NA,NA,NA,15.157116451016636
46373,Lake County,IN,NA,77.98507462686567,NA,NA
46383,Porter County,IN,NA,NA,4.186046511627907,NA
46403,Lake County,IN,NA,NA,87.25581395348837,72.45841035120148
46405,Lake County,IN,NA,40.48507462686567,NA,NA
46544,St. Joseph County,IN,NA,NA,56.37209302325581,NA
46706,DeKalb County,IN,NA,45.80223880597015,NA,NA
46725,Whitley County,IN,NA,NA,18.976744186046513,NA
46783,Huntington County,IN,NA,85.63432835820896,NA,NA
46804,Allen County,IN,NA,NA,NA,39.55637707948244
46805,Allen County,IN,NA,NA,50.97674418604651,NA
46808,Allen County,IN,NA,NA,93.3953488372093,NA
46815,Allen County,IN,NA,NA,NA,22.920517560073936
46818,Allen County,IN,NA,NA,79.16279069767442,NA
46825,Allen County,IN,8.357348703170029,NA,NA,NA
46835,Allen County,IN,NA,32.18283582089552,NA,NA
46845,Allen County,IN,42.07492795389049,NA,NA,NA
46952,Grant County,IN,NA,15.671641791044777,NA,23.290203327171906
47012,Franklin County,IN,NA,87.77985074626866,NA,NA
47043,Switzerland County,IN,NA,NA,98.4186046511628,NA
47060,Dearborn County,IN,NA,NA,95.72093023255815,NA
47130,Clark County,IN,NA,8.30223880597015,NA,NA
47165,Washington County,IN,NA,NA,93.86046511627907,NA
47172,Clark County,IN,NA,67.53731343283582,NA,NA
47302,Delaware County,IN,NA,15.764925373134329,NA,NA
47331,Fayette County,IN,NA,NA,NA,10.166358595194085
47374,Wayne County,IN,6.628242074927954,NA,NA,NA
47396,Delaware County,IN,NA,95.24253731343283,NA,NA
47424,Greene County,IN,89.33717579250721,NA,NA,NA
47441,Greene County,IN,NA,NA,69.95348837209302,NA
47586,Perry County,IN,NA,NA,71.72093023255815,NA
47620,Posey County,IN,NA,NA,63.25581395348837,NA
47712,Vanderburgh County,IN,NA,NA,42.88372093023256,NA
47715,Vanderburgh County,IN,NA,28.824626865671643,NA,NA
47725,Vanderburgh County,IN,NA,86.47388059701493,NA,NA
47909,Tippecanoe County,IN,NA,39.17910447761194,NA,NA
50009,Polk County,IA,73.19884726224784,NA,NA,NA
50022,Cass County,IA,NA,NA,82.88372093023256,NA
50047,Warren County,IA,NA,NA,98.51162790697674,NA
50263,Dallas County,IA,NA,89.6455223880597,NA,NA
50265,Polk County,IA,NA,NA,NA,62.292051756007396
50266,Polk County,IA,60.80691642651297,NA,NA,NA
50428,Cerro Gordo County,IA,NA,NA,NA,81.51571164510166
50511,Kossuth County,IA,NA,NA,77.67441860465117,73.19778188539742
50644,Buchanan County,IA,NA,NA,78.97674418604652,NA
51501,Pottawattamie County,IA,NA,2.5186567164179103,8.930232558139535,NA
51503,Pottawattamie County,IA,NA,NA,3.5348837209302326,30.31423290203327
52057,Delaware County,IA,NA,NA,80.27906976744185,NA
52302,Linn County,IA,46.10951008645533,NA,NA,NA
52402,Linn County,IA,NA,NA,24.186046511627907,NA
52544,Appanoose County,IA,NA,NA,NA,82.62476894639556
52577,Mahaska County,IA,NA,36.66044776119403,NA,NA
52722,Scott County,IA,NA,NA,27.348837209302324,NA
66046,Douglas County,KS,NA,NA,83.53488372093022,NA
66061,Johnson County,KS,NA,17.257462686567166,3.9069767441860463,NA
66062,Johnson County,KS,NA,8.861940298507463,13.86046511627907,NA
66071,Miami County,KS,NA,NA,82.69767441860465,NA
66206,Johnson County,KS,NA,NA,81.86046511627907,NA
66211,Johnson County,KS,NA,NA,99.62790697674419,NA
66223,Johnson County,KS,NA,86.28731343283582,NA,NA
66614,Shawnee County,KS,NA,NA,17.86046511627907,NA
66701,Bourbon County,KS,NA,NA,66.23255813953489,NA
66713,Cherokee County,KS,NA,NA,NA,61.552680221811464
66725,Cherokee County,KS,NA,90.67164179104478,NA,NA
66801,Lyon County,KS,NA,50.46641791044776,NA,NA
67042,Butler County,KS,NA,NA,63.72093023255814,56.56192236598891
67114,Harvey County,KS,NA,NA,60.55813953488373,NA
67217,Sedgwick County,KS,NA,52.23880597014925,NA,NA
67235,Sedgwick County,KS,NA,96.0820895522388,NA,NA
67456,McPherson County,KS,NA,NA,NA,94.45471349353049
67601,Ellis County,KS,NA,NA,16.837209302325583,NA
67665,Russell County,KS,75.50432276657061,NA,NA,NA
67801,Ford County,KS,NA,58.76865671641791,NA,NA
67835,Gray County,KS,NA,99.25373134328358,NA,NA
40059,Jefferson County,KY,NA,78.63805970149254,NA,NA
40203,Jefferson County,KY,NA,NA,74.32558139534883,NA
40205,Jefferson County,KY,NA,93.84328358208955,NA,NA
40218,Jefferson County,KY,NA,11.380597014925373,NA,NA
40219,Jefferson County,KY,NA,NA,21.488372093023255,NA
40220,Jefferson County,KY,NA,NA,18.697674418604652,NA
40223,Jefferson County,KY,NA,65.57835820895522,NA,NA
40241,Jefferson County,KY,NA,NA,40.55813953488372,NA
40313,Rowan County,KY,NA,NA,97.95348837209302,NA
40324,Scott County,KY,NA,NA,NA,37.707948243992604
40391,Clark County,KY,34.87031700288185,NA,NA,NA
40422,Boyle County,KY,NA,NA,NA,61.182994454713494
40701,Whitley County,KY,NA,8.955223880597014,NA,NA
40740,Laurel County,KY,NA,NA,98.97674418604652,NA
40962,Clay County,KY,NA,15.951492537313433,NA,NA
41005,Boone County,KY,NA,61.28731343283582,NA,NA
41018,Kenton County,KY,NA,NA,NA,65.61922365988909
41144,Greenup County,KY,NA,72.29477611940298,NA,NA
41164,Carter County,KY,NA,NA,33.674418604651166,NA
41230,Lawrence County,KY,NA,23.41417910447761,NA,NA
41314,Owsley County,KY,NA,92.16417910447761,NA,NA
41514,Pike County,KY,NA,NA,97.5813953488372,NA
42003,McCracken County,KY,NA,12.406716417910447,NA,NA
42101,Warren County,KY,NA,NA,13.953488372093023,NA
42141,Barren County,KY,NA,NA,7.255813953488372,NA
42303,Daviess County,KY,NA,NA,17.58139534883721,NA
42330,Muhlenberg County,KY,NA,NA,85.30232558139534,NA
42376,Daviess County,KY,NA,82.08955223880598,NA,NA
42413,Hopkins County,KY,NA,99.72014925373134,NA,NA
42503,Pulaski County,KY,NA,73.78731343283582,NA,NA
42567,Pulaski County,KY,86.74351585014409,NA,NA,NA
42647,McCreary County,KY,NA,98.78731343283582,NA,NA
42728,Adair County,KY,NA,52.70522388059702,NA,NA
42743,Green County,KY,NA,68.09701492537313,NA,NA
70001,Jefferson Parish,LA,NA,4.384328358208956,NA,NA
70043,St. Bernard Parish,LA,NA,NA,67.16279069767442,NA
70065,Jefferson Parish,LA,0.8645533141210375,NA,NA,NA
70087,St. Charles Parish,LA,NA,NA,NA,83.54898336414048
70115,Orleans Parish,LA,NA,NA,NA,43.438077634011094
70119,Orleans Parish,LA,NA,NA,70.41860465116278,NA
70123,Jefferson Parish,LA,NA,NA,55.06976744186046,NA
70124,Orleans Parish,LA,75.50432276657061,NA,NA,NA
70345,Lafourche Parish,LA,43.22766570605187,NA,NA,NA
70360,Terrebonne Parish,LA,NA,9.048507462686567,NA,NA
70363,Terrebonne Parish,LA,3.170028818443804,NA,NA,NA
70364,Terrebonne Parish,LA,NA,NA,22.88372093023256,NA
70403,Tangipahoa Parish,LA,NA,6.529850746268656,NA,NA
70433,St. Tammany Parish,LA,6.051873198847262,NA,NA,NA
70438,Washington Parish,LA,NA,11.007462686567164,NA,NA
70452,St. Tammany Parish,LA,NA,17.91044776119403,NA,NA
70454,Tangipahoa Parish,LA,7.492795389048991,NA,NA,NA
70506,Lafayette Parish,LA,NA,5.690298507462686,15.441860465116278,NA
70507,Lafayette Parish,LA,NA,43.09701492537313,NA,NA
70508,Lafayette Parish,LA,NA,13.059701492537313,NA,33.826247689463955
70517,St. Martin Parish,LA,NA,NA,17.488372093023255,NA
70518,Lafayette Parish,LA,NA,NA,91.06976744186046,NA
70520,Lafayette Parish,LA,NA,NA,47.16279069767442,NA
70526,Acadia Parish,LA,NA,21.828358208955223,NA,NA
70542,Vermilion Parish,LA,NA,99.90671641791045,NA,NA
70544,Iberia Parish,LA,NA,32.92910447761194,NA,NA
70560,Iberia Parish,LA,NA,1.9589552238805972,NA,NA
70570,St. Landry Parish,LA,NA,1.0261194029850746,9.86046511627907,NA
70578,Acadia Parish,LA,NA,NA,NA,73.75231053604436
70583,Lafayette Parish,LA,57.34870317002881,NA,NA,NA
70586,Evangeline Parish,LA,NA,NA,37.48837209302325,NA
70592,Lafayette Parish,LA,NA,28.078358208955223,NA,NA
70726,Livingston Parish,LA,NA,1.1194029850746268,NA,NA
70737,Ascension Parish,LA,NA,6.6231343283582085,NA,NA
70754,Livingston Parish,LA,NA,56.623134328358205,NA,NA
70769,Ascension Parish,LA,NA,NA,NA,67.46765249537893
70785,Livingston Parish,LA,NA,48.41417910447761,NA,NA
70805,East Baton Rouge Parish,LA,NA,NA,26.69767441860465,NA
70808,East Baton Rouge Parish,LA,NA,NA,40.83720930232558,48.98336414048059
70815,East Baton Rouge Parish,LA,NA,NA,72.74418604651163,NA
71040,Claiborne Parish,LA,NA,NA,NA,87.06099815157117
71055,Webster Parish,LA,NA,NA,NA,58.04066543438078
71103,Caddo Parish,LA,NA,NA,NA,94.63955637707949
71105,Caddo Parish,LA,NA,NA,46.69767441860465,NA
71106,Caddo Parish,LA,73.48703170028818,NA,NA,NA
71107,Caddo Parish,LA,1.729106628242075,33.3955223880597,NA,NA
71108,Caddo Parish,LA,NA,NA,42.04651162790698,NA
71111,Bossier Parish,LA,NA,4.9440298507462686,12.465116279069766,34.195933456561924
71112,Bossier Parish,LA,7.204610951008646,NA,NA,NA
71115,Caddo Parish,LA,NA,NA,NA,41.0351201478743
71118,Caddo Parish,LA,NA,18.37686567164179,NA,NA
71119,Caddo Parish,LA,NA,NA,NA,70.24029574861368
71203,Ouachita Parish,LA,4.610951008645533,NA,NA,NA
71269,Richland Parish,LA,NA,45.42910447761194,NA,NA
71291,Ouachita Parish,LA,NA,36.19402985074627,NA,27.54158964879852
71303,Rapides Parish,LA,NA,NA,74.51162790697674,NA
71360,Rapides Parish,LA,NA,NA,NA,31.97781885397412
71457,Natchitoches Parish,LA,NA,6.436567164179105,NA,NA
03904,York County,ME,NA,76.30597014925374,NA,NA
04073,York County,ME,NA,20.615671641791046,NA,NA
04074,Cumberland County,ME,NA,66.97761194029852,NA,NA
04093,York County,ME,NA,81.15671641791045,NA,NA
04105,Cumberland County,ME,NA,NA,94.23255813953489,NA
04210,Androscoggin County,ME,NA,NA,60.74418604651163,NA
04240,Androscoggin County,ME,4.899135446685879,NA,NA,NA
04268,Oxford County,ME,NA,NA,85.11627906976744,NA
04294,Franklin County,ME,NA,NA,91.90697674418604,NA
04444,Penobscot County,ME,NA,75.3731343283582,NA,NA
04736,Aroostook County,ME,NA,NA,NA,32.16266173752311
04769,Aroostook County,ME,NA,NA,44.651162790697676,NA
04915,Waldo County,ME,NA,NA,NA,53.789279112754166
04938,Franklin County,ME,NA,NA,NA,80.59149722735674
04976,Somerset County,ME,NA,46.26865671641791,NA,NA
20747,Prince George's County,MD,NA,NA,NA,97.78188539741221
20759,Howard County,MD,NA,98.41417910447761,NA,NA
20833,Montgomery County,MD,NA,NA,NA,95.74861367837339
20853,Montgomery County,MD,NA,NA,73.20930232558139,NA
20855,Montgomery County,MD,NA,91.97761194029852,NA,NA
20871,Montgomery County,MD,NA,87.22014925373134,NA,NA
20876,Montgomery County,MD,NA,68.09701492537313,NA,NA
20877,Montgomery County,MD,NA,77.1455223880597,NA,NA
20886,Montgomery County,MD,NA,NA,NA,88.72458410351202
20906,Montgomery County,MD,NA,NA,38.604651162790695,NA
21030,Baltimore County,MD,NA,NA,81.5813953488372,NA
21042,Howard County,MD,NA,70.05597014925374,NA,NA
21046,Howard County,MD,NA,NA,NA,98.33641404805915
21061,Anne Arundel County,MD,NA,NA,NA,26.98706099815157
21093,Baltimore County,MD,NA,NA,25.209302325581394,NA
21113,Anne Arundel County,MD,58.501440922190206,NA,NA,NA
21206,Baltimore city,MD,NA,9.421641791044776,NA,NA
21215,Baltimore city,MD,44.38040345821326,6.996268656716417,NA,NA
21217,Baltimore city,MD,NA,19.58955223880597,NA,NA
21218,Baltimore city,MD,NA,8.488805970149253,NA,NA
21234,Baltimore County,MD,NA,NA,NA,5.545286506469501
21403,Anne Arundel County,MD,NA,63.526119402985074,NA,NA
21702,Frederick County,MD,NA,69.40298507462687,NA,NA
21842,Worcester County,MD,NA,NA,NA,50.46210720887245
01002,Hampshire County,MA,NA,NA,52.65116279069767,NA
01005,Worcester County,MA,NA,71.26865671641791,NA,NA
01075,Hampshire County,MA,NA,3.9179104477611943,NA,NA
01085,Hampden County,MA,NA,NA,1.3953488372093024,NA
01119,Hampden County,MA,NA,NA,47.627906976744185,NA
01201,Berkshire County,MA,NA,0,3.0697674418604652,NA
01440,Worcester County,MA,NA,1.212686567164179,NA,NA
01510,Worcester County,MA,83.5734870317003,52.052238805970156,NA,NA
01603,Worcester County,MA,NA,1.3059701492537312,NA,NA
01701,Middlesex County,MA,NA,8.768656716417912,5.5813953488372094,NA
01719,Middlesex County,MA,NA,NA,98.32558139534883,NA
01730,Middlesex County,MA,NA,NA,82.04651162790698,NA
01746,Middlesex County,MA,NA,NA,36.46511627906976,NA
01754,Middlesex County,MA,NA,NA,54.79069767441861,NA
01756,Worcester County,MA,NA,90.29850746268657,NA,NA
01776,Middlesex County,MA,NA,NA,42.23255813953488,NA
01803,Middlesex County,MA,NA,NA,3.813953488372093,2.033271719038817
01824,Middlesex County,MA,NA,NA,5.209302325581396,NA
01832,Essex County,MA,NA,15.858208955223882,8.651162790697674,NA
01844,Essex County,MA,NA,NA,2.7906976744186047,NA
01852,Middlesex County,MA,NA,NA,0.9302325581395349,NA
01863,Middlesex County,MA,NA,NA,NA,64.69500924214418
01867,Middlesex County,MA,NA,25.932835820895523,NA,18.299445471349355
01876,Middlesex County,MA,16.138328530259365,NA,2.0465116279069764,NA
01879,Middlesex County,MA,NA,NA,81.11627906976744,NA
01887,Middlesex County,MA,NA,NA,1.9534883720930232,NA
01907,Essex County,MA,NA,51.9589552238806,31.534883720930235,NA
01915,Essex County,MA,NA,NA,9.581395348837209,NA
01930,Essex County,MA,NA,NA,NA,7.948243992606285
01949,Essex County,MA,NA,NA,NA,70.97966728280961
01950,Essex County,MA,NA,NA,60.372093023255815,NA
01969,Essex County,MA,NA,NA,81.48837209302326,NA
01970,Essex County,MA,NA,NA,NA,7.024029574861368
02021,Norfolk County,MA,NA,NA,29.58139534883721,NA
02038,Norfolk County,MA,NA,10.914179104477611,NA,NA
02045,Plymouth County,MA,NA,32.36940298507462,54.51162790697674,NA
02050,Plymouth County,MA,NA,17.63059701492537,NA,NA
02052,Norfolk County,MA,NA,NA,60.18604651162791,NA
02066,Plymouth County,MA,63.68876080691642,NA,NA,NA
02067,Norfolk County,MA,NA,57.276119402985074,72.65116279069768,NA
02081,Norfolk County,MA,NA,18.84328358208955,NA,NA
02116,Suffolk County,MA,NA,NA,2.604651162790698,NA
02119,Suffolk County,MA,NA,0.09328358208955223,NA,NA
02120,Suffolk County,MA,NA,NA,14.69767441860465,NA
02128,Suffolk County,MA,NA,NA,NA,5.914972273567468
02129,Suffolk County,MA,NA,NA,25.674418604651162,NA
02134,Suffolk County,MA,NA,NA,NA,61.92236598890942
02139,Middlesex County,MA,8.93371757925072,NA,74.69767441860465,69.68576709796673
02145,Middlesex County,MA,NA,4.757462686567164,NA,NA
02148,Middlesex County,MA,NA,33.115671641791046,NA,NA
02149,Middlesex County,MA,NA,NA,NA,20.147874306839185
02150,Suffolk County,MA,NA,0.3731343283582089,NA,NA
02151,Suffolk County,MA,92.79538904899135,NA,NA,NA
02152,Suffolk County,MA,NA,40.67164179104478,6.511627906976744,42.513863216266174
02155,Middlesex County,MA,21.32564841498559,NA,0.27906976744186046,NA
02169,Norfolk County,MA,NA,NA,0.09302325581395349,NA
02170,Norfolk County,MA,NA,NA,NA,29.57486136783734
02184,Norfolk County,MA,NA,23.600746268656717,NA,NA
02186,Norfolk County,MA,NA,NA,NA,24.399260628465804
02301,Plymouth County,MA,NA,0.46641791044776115,NA,NA
02302,Plymouth County,MA,NA,17.350746268656717,NA,5.175600739371535
02324,Plymouth County,MA,NA,37.77985074626866,NA,NA
02368,Norfolk County,MA,NA,11.100746268656717,4.465116279069767,NA
02370,Plymouth County,MA,NA,12.220149253731345,24.27906976744186,NA
02379,Plymouth County,MA,NA,81.52985074626866,NA,NA
02446,Norfolk County,MA,NA,NA,5.023255813953488,NA
02452,Middlesex County,MA,NA,NA,NA,53.789279112754166
02460,Middlesex County,MA,NA,62.126865671641795,NA,79.11275415896488
02461,Middlesex County,MA,NA,NA,90.51162790697674,NA
02474,Middlesex County,MA,NA,NA,NA,47.31977818853974
02648,Barnstable County,MA,NA,76.11940298507463,NA,NA
02703,Bristol County,MA,NA,15.111940298507461,0.5581395348837209,NA
02718,Bristol County,MA,NA,79.2910447761194,NA,NA
02720,Bristol County,MA,NA,NA,NA,22.36598890942699
02721,Bristol County,MA,NA,0.2798507462686567,NA,NA
02740,Bristol County,MA,NA,34.60820895522388,NA,NA
02746,Bristol County,MA,NA,NA,35.25581395348837,NA
02762,Norfolk County,MA,95.96541786743515,NA,NA,NA
02767,Bristol County,MA,NA,22.01492537313433,NA,NA
02777,Bristol County,MA,NA,NA,12.651162790697674,NA
02780,Bristol County,MA,NA,2.798507462686567,1.1162790697674418,NA
48025,Oakland County,MI,NA,NA,59.720930232558146,NA
48042,Macomb County,MI,NA,18.936567164179106,NA,NA
48044,Macomb County,MI,NA,NA,4.651162790697675,NA
48047,Macomb County,MI,17.29106628242075,11.473880597014926,NA,NA
48051,Macomb County,MI,54.46685878962536,NA,36.83720930232558,NA
48060,St. Clair County,MI,NA,NA,4.372093023255814,NA
48072,Oakland County,MI,53.89048991354467,NA,NA,NA
48073,Oakland County,MI,NA,27.985074626865668,NA,NA
48083,Oakland County,MI,NA,57.08955223880597,NA,NA
48089,Macomb County,MI,NA,7.08955223880597,NA,NA
48091,Macomb County,MI,NA,NA,NA,46.39556377079482
48092,Macomb County,MI,NA,NA,90.23255813953487,NA
48094,Macomb County,MI,NA,NA,80.74418604651163,NA
48114,Livingston County,MI,NA,51.679104477611936,NA,NA
48116,Livingston County,MI,NA,NA,14.046511627906977,NA
48126,Wayne County,MI,NA,35.5410447761194,NA,NA
48134,Wayne County,MI,26.801152737752158,NA,NA,NA
48135,Wayne County,MI,NA,NA,22.6046511627907,NA
48137,Livingston County,MI,NA,NA,98.79069767441861,NA
48146,Wayne County,MI,NA,7.369402985074627,NA,NA
48168,Wayne County,MI,NA,NA,38.79069767441861,NA
48170,Wayne County,MI,NA,NA,2.511627906976744,NA
48176,Washtenaw County,MI,NA,NA,23.25581395348837,NA
48182,Monroe County,MI,71.18155619596543,NA,NA,NA
48185,Wayne County,MI,NA,5.503731343283582,NA,NA
48186,Wayne County,MI,18.443804034582133,5.8768656716417915,NA,NA
48187,Wayne County,MI,13.256484149855908,NA,1.8604651162790697,NA
48192,Wayne County,MI,NA,NA,29.860465116279073,NA
48197,Washtenaw County,MI,NA,1.7723880597014925,NA,NA
48203,Wayne County,MI,NA,NA,19.906976744186046,NA
48205,Wayne County,MI,NA,3.824626865671642,12.837209302325581,NA
48209,Wayne County,MI,NA,NA,NA,72.08872458410352
48210,Wayne County,MI,NA,22.94776119402985,NA,NA
48212,Wayne County,MI,89.04899135446685,NA,NA,NA
48219,Wayne County,MI,NA,NA,2.1395348837209305,NA
48220,Oakland County,MI,NA,NA,44.18604651162791,NA
48225,Wayne County,MI,NA,38.80597014925373,NA,NA
48227,Wayne County,MI,NA,NA,NA,29.390018484288355
48228,Wayne County,MI,NA,NA,6.325581395348837,NA
48234,Wayne County,MI,NA,NA,NA,29.20517560073937
48235,Wayne County,MI,NA,1.8656716417910446,NA,NA
48237,Oakland County,MI,21.902017291066283,NA,NA,NA
48240,Wayne County,MI,48.414985590778095,NA,NA,NA
48307,Oakland County,MI,NA,15.485074626865671,NA,NA
48312,Macomb County,MI,NA,22.294776119402986,NA,NA
48317,Macomb County,MI,NA,19.30970149253731,NA,NA
48322,Oakland County,MI,NA,NA,6.604651162790698,NA
48324,Oakland County,MI,NA,59.60820895522389,NA,NA
48326,Oakland County,MI,42.93948126801153,NA,NA,NA
48329,Oakland County,MI,NA,32.08955223880597,NA,NA
48336,Oakland County,MI,NA,31.62313432835821,NA,NA
48340,Oakland County,MI,NA,NA,33.58139534883721,NA
48346,Oakland County,MI,NA,37.12686567164179,50.604651162790695,NA
48350,Oakland County,MI,NA,NA,NA,91.68207024029574
48359,Oakland County,MI,NA,NA,95.34883720930233,NA
48377,Oakland County,MI,79.53890489913545,NA,NA,NA
48381,Oakland County,MI,NA,65.48507462686567,NA,NA
48386,Oakland County,MI,NA,61.66044776119403,NA,NA
48390,Oakland County,MI,NA,70.42910447761194,NA,NA
48393,Oakland County,MI,89.9135446685879,NA,NA,NA
48412,Lapeer County,MI,NA,93.47014925373134,NA,NA
48416,Sanilac County,MI,NA,NA,95.53488372093022,NA
48429,Shiawassee County,MI,NA,NA,69.86046511627907,NA
48439,Genesee County,MI,19.88472622478386,10.634328358208956,70.13953488372093,NA
48442,Oakland County,MI,NA,47.29477611940299,NA,NA
48446,Lapeer County,MI,NA,44.40298507462687,NA,NA
48451,Genesee County,MI,NA,NA,77.20930232558139,NA
48453,Sanilac County,MI,NA,NA,93.11627906976744,NA
48458,Genesee County,MI,NA,29.1044776119403,NA,NA
48473,Genesee County,MI,NA,42.44402985074627,38.51162790697674,NA
48506,Genesee County,MI,NA,NA,37.860465116279066,NA
48509,Genesee County,MI,NA,78.73134328358209,NA,NA
48519,Genesee County,MI,NA,85.82089552238806,NA,NA
48602,Saginaw County,MI,NA,2.9850746268656714,63.348837209302324,NA
48603,Saginaw County,MI,NA,NA,38.79069767441861,NA
48610,Arenac County,MI,NA,NA,99.44186046511628,NA
48622,Clare County,MI,NA,73.41417910447761,NA,NA
48632,Clare County,MI,91.64265129682997,NA,NA,NA
48638,Saginaw County,MI,NA,57.929104477611936,NA,NA
48647,Oscoda County,MI,NA,90.39179104477611,NA,NA
48650,Bay County,MI,NA,80.03731343283582,NA,NA
48706,Bay County,MI,NA,NA,1.0232558139534882,2.7726432532347505
48708,Bay County,MI,NA,NA,NA,28.280961182994456
48732,Bay County,MI,NA,52.98507462686567,NA,57.116451016635864
48746,Tuscola County,MI,NA,96.26865671641791,NA,NA
48808,Clinton County,MI,NA,95.42910447761194,NA,NA
48813,Eaton County,MI,NA,37.77985074626866,NA,NA
48843,Livingston County,MI,NA,NA,25.86046511627907,NA
48854,Ingham County,MI,NA,49.06716417910448,NA,NA
48866,Clinton County,MI,NA,92.53731343283582,NA,NA
48867,Shiawassee County,MI,NA,NA,NA,9.242144177449168
48875,Ionia County,MI,NA,NA,75.62790697674419,NA
48912,Ingham County,MI,NA,79.19776119402985,NA,NA
48917,Eaton County,MI,NA,7.835820895522389,NA,NA
49006,Kalamazoo County,MI,NA,49.62686567164179,NA,NA
49024,Kalamazoo County,MI,NA,24.44029850746269,NA,NA
49048,Kalamazoo County,MI,NA,NA,29.116279069767444,NA
49071,Van Buren County,MI,NA,72.01492537313433,NA,NA
49201,Jackson County,MI,NA,NA,NA,8.317929759704251
49245,Calhoun County,MI,NA,96.36194029850746,NA,NA
49286,Lenawee County,MI,35.44668587896253,NA,NA,NA
49319,Kent County,MI,NA,NA,NA,51.571164510166355
49323,Allegan County,MI,NA,NA,91.16279069767442,NA
49333,Barry County,MI,61.38328530259366,NA,NA,NA
49346,Mecosta County,MI,NA,NA,70.04651162790698,NA
49418,Kent County,MI,NA,NA,25.3953488372093,NA
49428,Ottawa County,MI,NA,NA,29.30232558139535,17.929759704251385
49441,Muskegon County,MI,NA,9.981343283582088,NA,NA
49442,Muskegon County,MI,NA,2.6119402985074625,NA,NA
49464,Ottawa County,MI,36.31123919308357,NA,NA,NA
49504,Kent County,MI,NA,NA,12.093023255813954,NA
49506,Kent County,MI,NA,21.455223880597014,NA,NA
49508,Kent County,MI,NA,NA,8.093023255813954,NA
49519,Kent County,MI,23.34293948126801,NA,NA,NA
49660,Manistee County,MI,NA,38.33955223880597,NA,NA
49686,Grand Traverse County,MI,NA,NA,NA,20.51756007393715
49783,Chippewa County,MI,NA,17.723880597014926,NA,NA
49801,Dickinson County,MI,NA,63.71268656716418,40.18604651162791,NA
49855,Marquette County,MI,NA,44.309701492537314,NA,29.02033271719039
49858,Menominee County,MI,NA,NA,71.62790697674419,NA
55008,Isanti County,MN,42.363112391930834,NA,NA,NA
55013,Chisago County,MN,88.76080691642652,NA,NA,NA
55016,Washington County,MN,NA,NA,NA,70.60998151571165
55021,Rice County,MN,48.414985590778095,NA,NA,NA
55040,Isanti County,MN,81.26801152737752,NA,NA,NA
55076,Dakota County,MN,NA,NA,56.46511627906977,NA
55309,Sherburne County,MN,NA,NA,82.97674418604652,NA
55311,Hennepin County,MN,NA,60.91417910447762,NA,NA
55331,Hennepin County,MN,NA,NA,74.04651162790698,NA
55350,McLeod County,MN,39.76945244956772,NA,NA,NA
55362,Wright County,MN,77.80979827089337,87.96641791044776,84.09302325581396,NA
55364,Hennepin County,MN,NA,81.06343283582089,NA,NA
55369,Hennepin County,MN,NA,NA,45.302325581395344,NA
55371,Mille Lacs County,MN,NA,NA,NA,85.39741219963032
55378,Scott County,MN,34.00576368876081,NA,95.16279069767441,NA
55405,Hennepin County,MN,70.31700288184439,NA,NA,NA
55408,Hennepin County,MN,NA,NA,NA,91.49722735674676
55416,Hennepin County,MN,NA,NA,66.97674418604652,NA
55417,Hennepin County,MN,NA,NA,80.65116279069767,NA
55432,Anoka County,MN,69.164265129683,NA,NA,NA
55437,Hennepin County,MN,57.06051873198847,NA,NA,NA
55445,Hennepin County,MN,29.68299711815562,NA,NA,NA
55746,St. Louis County,MN,NA,NA,30.604651162790695,NA
55792,St. Louis County,MN,NA,35.3544776119403,28.55813953488372,NA
55811,St. Louis County,MN,NA,NA,NA,21.441774491682068
55901,Olmsted County,MN,NA,23.88059701492537,NA,NA
55987,Winona County,MN,NA,NA,2.4186046511627906,NA
56001,Blue Earth County,MN,NA,NA,33.76744186046511,NA
56007,Freeborn County,MN,NA,NA,6.883720930232558,NA
56037,Blue Earth County,MN,NA,NA,98.88372093023256,NA
56073,Brown County,MN,NA,19.21641791044776,11.720930232558139,NA
56081,Watonwan County,MN,92.507204610951,NA,NA,NA
56101,Cottonwood County,MN,NA,89.27238805970148,NA,NA
56201,Kandiyohi County,MN,NA,NA,NA,56.19223659889094
56215,Swift County,MN,NA,91.51119402985076,NA,NA
56220,Yellow Medicine County,MN,NA,99.34701492537313,NA,NA
56301,Stearns County,MN,NA,NA,90.4186046511628,NA
56308,Douglas County,MN,NA,NA,11.069767441860465,NA
56345,Morrison County,MN,NA,28.638059701492537,NA,NA
56378,Stearns County,MN,85.30259365994236,NA,NA,NA
56431,Aitkin County,MN,NA,71.36194029850746,NA,NA
56482,Wadena County,MN,NA,48.507462686567166,NA,36.04436229205176
56537,Otter Tail County,MN,NA,NA,NA,1.2939001848428837
56549,Clay County,MN,70.60518731988472,NA,NA,NA
56571,Otter Tail County,MN,NA,NA,98.23255813953489,NA
38632,DeSoto County,MS,NA,49.72014925373134,NA,NA
38654,DeSoto County,MS,NA,NA,NA,33.64140480591497
38668,Tate County,MS,NA,73.0410447761194,NA,NA
38672,DeSoto County,MS,67.14697406340058,NA,NA,NA
38703,Washington County,MS,NA,NA,80.83720930232559,82.2550831792976
38732,Bolivar County,MS,NA,37.593283582089555,NA,NA
38834,Alcorn County,MS,NA,NA,23.813953488372093,NA
38858,Monroe County,MS,NA,NA,97.67441860465115,NA
39042,Rankin County,MS,NA,NA,28.000000000000004,NA
39046,Madison County,MS,NA,NA,54.604651162790695,NA
39051,Leake County,MS,NA,75.55970149253731,NA,NA
39083,Copiah County,MS,NA,NA,86.23255813953489,NA
39117,Scott County,MS,NA,51.77238805970149,77.30232558139535,NA
39157,Madison County,MS,NA,NA,NA,66.91312384473198
39204,Hinds County,MS,NA,19.86940298507463,NA,NA
39208,Rankin County,MS,NA,NA,NA,30.683918669131238
39209,Hinds County,MS,NA,NA,48.18604651162791,NA
39212,Hinds County,MS,NA,NA,87.72093023255813,NA
39301,Lauderdale County,MS,NA,16.044776119402986,NA,NA
39350,Neshoba County,MS,NA,24.347014925373134,NA,NA
39422,Jasper County,MS,NA,NA,92.09302325581396,NA
39429,Marion County,MS,NA,65.95149253731343,NA,NA
39439,Jasper County,MS,NA,91.69776119402985,NA,NA
39466,Pearl River County,MS,NA,NA,NA,23.844731977818853
39503,Harrison County,MS,NA,NA,22.97674418604651,NA
39520,Hancock County,MS,NA,NA,38.139534883720934,NA
39601,Lincoln County,MS,47.83861671469741,NA,NA,NA
39652,Pike County,MS,NA,NA,80.09302325581396,NA
39730,Monroe County,MS,NA,76.49253731343283,NA,NA
63011,St. Louis County,MO,NA,NA,16.186046511627907,4.990757855822551
63016,Jefferson County,MO,NA,91.88432835820896,NA,NA
63017,St. Louis County,MO,47.55043227665706,NA,10.13953488372093,NA
63021,St. Louis County,MO,26.801152737752158,NA,NA,NA
63028,Jefferson County,MO,NA,73.69402985074626,NA,NA
63031,St. Louis County,MO,23.631123919308358,NA,NA,7.578558225508318
63033,St. Louis County,MO,NA,NA,NA,6.839186691312385
63080,Franklin County,MO,NA,NA,52.18604651162791,NA
63090,Franklin County,MO,NA,NA,49.48837209302326,NA
63107,St. Louis city,MO,NA,65.76492537313433,NA,NA
63112,St. Louis city,MO,NA,52.42537313432835,NA,NA
63114,St. Louis County,MO,28.818443804034583,NA,NA,NA
63119,St. Louis County,MO,NA,NA,44.093023255813954,NA
63122,St. Louis County,MO,NA,NA,22.325581395348838,NA
63123,St. Louis County,MO,NA,36.100746268656714,NA,NA
63128,St. Louis County,MO,NA,NA,19.906976744186046,NA
63129,St. Louis County,MO,NA,NA,5.674418604651163,11.275415896487985
63139,St. Louis city,MO,NA,NA,66.04651162790698,NA
63303,St. Charles County,MO,NA,20.05597014925373,NA,NA
63304,St. Charles County,MO,NA,NA,NA,20.33271719038817
63357,Warren County,MO,NA,NA,95.34883720930233,NA
63366,St. Charles County,MO,NA,9.888059701492537,NA,NA
63701,Cape Girardeau County,MO,NA,NA,NA,27.171903881700555
63703,Cape Girardeau County,MO,NA,NA,73.86046511627907,NA
63764,Bollinger County,MO,NA,NA,96.65116279069767,NA
63775,Perry County,MO,20.461095100864554,NA,NA,NA
63863,Dunklin County,MO,NA,NA,89.30232558139535,NA
63901,Butler County,MO,NA,NA,NA,37.15341959334565
64011,Lafayette County,MO,97.98270893371757,NA,NA,NA
64014,Jackson County,MO,NA,18.097014925373134,NA,NA
64034,Jackson County,MO,NA,87.03358208955224,NA,NA
64048,Clay County,MO,NA,90.85820895522389,NA,NA
64050,Jackson County,MO,NA,12.87313432835821,NA,NA
64052,Jackson County,MO,NA,NA,NA,84.10351201478743
64055,Jackson County,MO,NA,NA,NA,17.375231053604438
64056,Jackson County,MO,NA,23.134328358208954,NA,NA
64058,Jackson County,MO,NA,73.97388059701493,NA,NA
64068,Clay County,MO,0.2881844380403458,NA,NA,NA
64109,Jackson County,MO,NA,NA,34.13953488372093,NA
64111,Jackson County,MO,NA,23.507462686567166,NA,NA
64114,Jackson County,MO,NA,NA,41.3953488372093,NA
64119,Clay County,MO,NA,77.05223880597015,NA,NA
64123,Jackson County,MO,NA,42.350746268656714,NA,NA
64124,Jackson County,MO,NA,72.8544776119403,NA,NA
64128,Jackson County,MO,NA,NA,81.76744186046511,NA
64137,Jackson County,MO,NA,NA,75.44186046511628,NA
64145,Jackson County,MO,87.89625360230548,NA,NA,NA
64151,Platte County,MO,NA,NA,14.883720930232558,NA
64152,Platte County,MO,NA,16.884328358208954,34.604651162790695,NA
64157,Clay County,MO,17.002881844380404,NA,NA,NA
64506,Buchanan County,MO,NA,NA,5.488372093023256,NA
64683,Grundy County,MO,NA,59.23507462686567,NA,NA
64801,Jasper County,MO,NA,NA,NA,18.66913123844732
64850,Newton County,MO,NA,13.805970149253731,19.441860465116278,NA
64854,McDonald County,MO,NA,NA,97.39534883720931,NA
65066,Gasconade County,MO,NA,80.31716417910447,NA,NA
65079,Camden County,MO,NA,NA,91.25581395348837,NA
65202,Boone County,MO,2.0172910662824206,NA,NA,NA
65251,Callaway County,MO,NA,NA,NA,54.34380776340111
65301,Pettis County,MO,NA,3.451492537313433,NA,NA
65355,Benton County,MO,NA,NA,NA,40.66543438077634
65459,Pulaski County,MO,NA,98.50746268656717,NA,NA
65616,Taney County,MO,NA,35.72761194029851,NA,NA
65686,Stone County,MO,NA,NA,94.6046511627907,NA
65753,Christian County,MO,99.71181556195965,NA,NA,NA
65807,Greene County,MO,14.121037463976945,NA,NA,NA
59044,Yellowstone County,MT,NA,NA,79.44186046511628,NA
59072,Musselshell County,MT,NA,NA,88,NA
59101,Yellowstone County,MT,NA,NA,22.13953488372093,NA
59102,Yellowstone County,MT,NA,NA,NA,0.9242144177449169
59404,Cascade County,MT,NA,44.96268656716418,NA,NA
59405,Cascade County,MT,NA,27.705223880597014,14.511627906976743,NA
59601,Lewis and Clark County,MT,NA,73.6007462686567,NA,NA
59602,Lewis and Clark County,MT,NA,NA,NA,37.33826247689464
59714,Gallatin County,MT,NA,65.39179104477611,NA,NA
59808,Missoula County,MT,NA,NA,NA,64.69500924214418
59860,Lake County,MT,NA,NA,NA,70.42513863216267
59875,Ravalli County,MT,NA,NA,95.25581395348837,NA
59901,Flathead County,MT,NA,NA,19.348837209302324,0.7393715341959335
59937,Flathead County,MT,NA,NA,71.34883720930233,NA
68048,Cass County,NE,NA,NA,NA,90.0184842883549
68064,Douglas County,NE,NA,NA,99.90697674418605,NA
68124,Douglas County,NE,NA,92.63059701492537,NA,69.31608133086876
68128,Sarpy County,NE,NA,79.66417910447761,NA,NA
68130,Douglas County,NE,39.76945244956772,NA,NA,NA
68131,Douglas County,NE,NA,NA,90.69767441860465,NA
68133,Sarpy County,NE,NA,NA,NA,93.16081330868762
68154,Douglas County,NE,NA,82.27611940298507,NA,60.62846580406654
68355,Richardson County,NE,NA,NA,NA,74.67652495378928
68508,Lancaster County,NE,NA,98.32089552238806,NA,NA
68701,Madison County,NE,43.51585014409222,NA,NA,NA
68901,Adams County,NE,NA,66.04477611940298,43.25581395348837,NA
68949,Phelps County,NE,NA,94.58955223880598,NA,NA
69361,Scotts Bluff County,NE,NA,NA,NA,66.54343807763401
89115,Clark County,NV,61.09510086455331,NA,NA,NA
89117,Clark County,NV,NA,NA,NA,39.00184842883549
89131,Clark County,NV,NA,NA,NA,79.29759704251387
89134,Clark County,NV,NA,80.03731343283582,49.67441860465116,NA
89139,Clark County,NV,NA,NA,NA,87.98521256931609
89146,Clark County,NV,81.84438040345822,79.75746268656717,NA,NA
89156,Clark County,NV,37.17579250720461,NA,NA,NA
89406,Churchill County,NV,NA,72.6679104477612,NA,NA
89423,Douglas County,NV,NA,81.6231343283582,NA,NA
89436,Washoe County,NV,NA,NA,10.790697674418604,NA
89447,Lyon County,NV,NA,NA,NA,86.13678373382625
89502,Washoe County,NV,NA,NA,55.62790697674419,NA
89503,Washoe County,NV,NA,NA,NA,71.90388170055454
89509,Washoe County,NV,NA,49.16044776119403,NA,32.53234750462107
03051,Hillsborough County,NH,32.564841498559076,NA,NA,NA
03054,Hillsborough County,NH,NA,31.156716417910445,NA,NA
03055,Hillsborough County,NH,NA,46.64179104477612,NA,NA
03060,Hillsborough County,NH,16.714697406340058,NA,NA,NA
03062,Hillsborough County,NH,NA,NA,NA,53.41959334565619
03064,Hillsborough County,NH,NA,NA,48.27906976744186,NA
03079,Rockingham County,NH,NA,12.779850746268655,NA,NA
03102,Hillsborough County,NH,NA,17.817164179104477,NA,NA
03235,Merrimack County,NH,NA,68.3768656716418,NA,NA
03246,Belknap County,NH,NA,NA,NA,23.475046210720887
03458,Hillsborough County,NH,NA,92.81716417910447,NA,NA
03833,Rockingham County,NH,NA,38.15298507462687,34.7906976744186,NA
03835,Strafford County,NH,NA,85.3544776119403,NA,NA
03842,Rockingham County,NH,NA,NA,27.44186046511628,NA
03874,Rockingham County,NH,NA,NA,56.27906976744186,NA
07002,Hudson County,NJ,NA,0.9328358208955223,NA,NA
07006,Essex County,NJ,NA,NA,NA,52.31053604436229
07017,Essex County,NJ,NA,NA,NA,19.593345656192238
07026,Bergen County,NJ,62.824207492795395,NA,NA,NA
07054,Morris County,NJ,NA,NA,NA,36.78373382624769
07059,Somerset County,NJ,NA,84.23507462686567,NA,NA
07069,Somerset County,NJ,NA,NA,NA,96.11829944547135
07075,Bergen County,NJ,NA,90.01865671641791,NA,NA
07083,Union County,NJ,NA,13.619402985074627,NA,NA
07087,Hudson County,NJ,NA,NA,27.813953488372096,NA
07103,Essex County,NJ,NA,0.6529850746268656,NA,NA
07105,Essex County,NJ,NA,NA,28.837209302325583,NA
07202,Union County,NJ,NA,NA,NA,99.81515711645102
07204,Union County,NJ,NA,NA,99.06976744186046,NA
07306,Hudson County,NJ,NA,5.037313432835821,NA,NA
07410,Bergen County,NJ,NA,NA,24.558139534883722,NA
07430,Bergen County,NJ,NA,66.13805970149254,NA,NA
07470,Passaic County,NJ,NA,NA,23.348837209302324,NA
07480,Passaic County,NJ,NA,NA,73.48837209302326,NA
07506,Passaic County,NJ,NA,NA,NA,67.65249537892791
07524,Passaic County,NJ,NA,28.451492537313435,NA,NA
07601,Bergen County,NJ,NA,NA,53.76744186046511,NA
07624,Bergen County,NJ,NA,NA,NA,97.04251386321626
07666,Bergen County,NJ,NA,NA,41.02325581395349,NA
07670,Bergen County,NJ,NA,86.75373134328358,NA,NA
07677,Bergen County,NJ,NA,97.20149253731343,NA,NA
07701,Monmouth County,NJ,51.29682997118156,NA,NA,NA
07722,Monmouth County,NJ,NA,NA,99.81395348837209,NA
07726,Monmouth County,NJ,40.92219020172911,NA,24.930232558139533,NA
07728,Monmouth County,NJ,NA,12.5,NA,NA
07740,Monmouth County,NJ,NA,NA,NA,36.59889094269871
07746,Monmouth County,NJ,NA,NA,73.0232558139535,72.2735674676525
07747,Monmouth County,NJ,NA,31.99626865671642,NA,NA
07751,Monmouth County,NJ,NA,NA,80.27906976744185,NA
07753,Monmouth County,NJ,NA,94.30970149253731,7.906976744186046,NA
07757,Monmouth County,NJ,NA,96.73507462686567,NA,NA
08009,Camden County,NJ,NA,NA,62.13953488372093,NA
08016,Burlington County,NJ,NA,NA,97.0232558139535,NA
08021,Camden County,NJ,NA,0.18656716417910446,NA,NA
08028,Gloucester County,NJ,24.78386167146974,NA,NA,NA
08033,Camden County,NJ,72.04610951008645,NA,NA,NA
08034,Camden County,NJ,NA,NA,78.13953488372093,NA
08055,Burlington County,NJ,NA,NA,58.7906976744186,NA
08062,Gloucester County,NJ,NA,NA,79.25581395348837,NA
08075,Burlington County,NJ,NA,NA,27.62790697674419,NA
08080,Gloucester County,NJ,NA,9.14179104477612,NA,NA
08090,Gloucester County,NJ,NA,68.28358208955224,NA,NA
08096,Gloucester County,NJ,NA,NA,37.95348837209303,NA
08108,Camden County,NJ,NA,NA,55.44186046511628,NA
08110,Camden County,NJ,NA,NA,78.88372093023256,NA
08204,Cape May County,NJ,NA,NA,NA,97.22735674676525
08215,Atlantic County,NJ,NA,NA,NA,85.76709796672827
08234,Atlantic County,NJ,NA,NA,NA,27.35674676524954
08244,Atlantic County,NJ,73.77521613832853,NA,NA,NA
08251,Cape May County,NJ,NA,NA,NA,82.80961182994456
08312,Gloucester County,NJ,NA,57.83582089552238,NA,NA
08401,Atlantic County,NJ,NA,NA,57.395348837209305,NA
08505,Burlington County,NJ,NA,60.3544776119403,NA,NA
08618,Mercer County,NJ,NA,NA,6.232558139534883,NA
08620,Mercer County,NJ,NA,83.30223880597015,NA,NA
08742,Ocean County,NJ,NA,28.264925373134332,NA,NA
08759,Ocean County,NJ,NA,NA,NA,65.4343807763401
08831,Middlesex County,NJ,NA,NA,NA,18.484288354898336
08876,Somerset County,NJ,NA,50.93283582089553,NA,NA
87031,Valencia County,NM,NA,27.05223880597015,NA,NA
87043,Sandoval County,NM,NA,NA,94.32558139534883,NA
87059,Bernalillo County,NM,NA,NA,83.62790697674419,NA
87105,Bernalillo County,NM,8.93371757925072,NA,NA,NA
87106,Bernalillo County,NM,NA,71.17537313432835,NA,NA
87108,Bernalillo County,NM,NA,6.343283582089552,NA,NA
87110,Bernalillo County,NM,NA,NA,NA,12.754158964879853
87111,Bernalillo County,NM,NA,NA,43.348837209302324,NA
87120,Bernalillo County,NM,NA,NA,NA,27.726432532347506
87123,Bernalillo County,NM,49.279538904899134,NA,4.093023255813953,NA
87301,McKinley County,NM,NA,23.32089552238806,59.25581395348837,NA
87401,San Juan County,NM,NA,NA,38.23255813953488,NA
87420,San Juan County,NM,NA,NA,NA,83.73382624768946
87571,Taos County,NM,NA,NA,80.55813953488372,NA
88007,Doa Ana County,NM,NA,NA,54.69767441860465,NA
88030,Luna County,NM,66.57060518731988,NA,NA,NA
88240,Lea County,NM,NA,5.7835820895522385,NA,NA
10002,New York County,NY,NA,NA,2.2325581395348837,NA
10009,New York County,NY,NA,33.02238805970149,NA,NA
10010,New York County,NY,NA,NA,NA,82.99445471349352
10023,New York County,NY,NA,NA,NA,4.436229205175601
10024,New York County,NY,NA,NA,22.232558139534884,NA
10025,New York County,NY,NA,NA,0.6511627906976745,NA
10029,New York County,NY,NA,20.42910447761194,NA,NA
10031,New York County,NY,NA,NA,50.04651162790697,NA
10065,New York County,NY,NA,NA,60.93023255813953,NA
10457,Bronx County,NY,NA,NA,5.8604651162790695,NA
10458,Bronx County,NY,NA,NA,0.18604651162790697,NA
10460,Bronx County,NY,10.951008645533141,10.44776119402985,NA,13.67837338262477
10463,Bronx County,NY,NA,NA,NA,2.5878003696857674
10472,Bronx County,NY,28.24207492795389,NA,NA,NA
10509,Putnam County,NY,NA,NA,NA,73.19778188539742
10530,Westchester County,NY,NA,NA,NA,58.41035120147874
10541,Putnam County,NY,NA,87.8731343283582,NA,NA
10550,Westchester County,NY,NA,74.16044776119402,NA,NA
10567,Westchester County,NY,NA,NA,NA,87.24584103512015
10589,Westchester County,NY,NA,NA,NA,51.386321626617374
10591,Westchester County,NY,NA,NA,75.72093023255813,NA
10603,Westchester County,NY,NA,74.25373134328358,NA,NA
10605,Westchester County,NY,NA,NA,94.7906976744186,NA
10606,Westchester County,NY,NA,85.63432835820896,NA,NA
10701,Westchester County,NY,4.322766570605188,NA,NA,NA
10901,Rockland County,NY,NA,NA,NA,43.622920517560075
10977,Rockland County,NY,NA,NA,57.86046511627907,NA
11096,Nassau County,NY,NA,97.10820895522389,NA,NA
11102,Queens County,NY,NA,NA,NA,44.91682070240296
11104,Queens County,NY,NA,NA,NA,83.3641404805915
11204,Kings County,NY,NA,NA,NA,7.393715341959335
11208,Kings County,NY,NA,NA,0.8372093023255814,NA
11209,Kings County,NY,NA,31.716417910447763,NA,NA
11211,Kings County,NY,NA,43.00373134328358,NA,NA
11214,Kings County,NY,49.85590778097983,NA,NA,8.687615526802219
11218,Kings County,NY,29.971181556195965,NA,NA,NA
11219,Kings County,NY,NA,NA,NA,49.53789279112754
11220,Kings County,NY,NA,NA,3.627906976744186,NA
11226,Kings County,NY,NA,NA,1.6744186046511629,13.493530499075785
11229,Kings County,NY,NA,25.37313432835821,18.046511627906977,NA
11232,Kings County,NY,NA,NA,96.46511627906976,NA
11235,Kings County,NY,NA,NA,13.30232558139535,NA
11236,Kings County,NY,NA,3.544776119402985,NA,NA
11368,Queens County,NY,0.57636887608069165,NA,NA,NA
11372,Queens County,NY,46.39769452449568,NA,NA,NA
11377,Queens County,NY,NA,NA,NA,24.953789279112755
11385,Queens County,NY,NA,NA,9.11627906976744,NA
11412,Queens County,NY,NA,NA,46.7906976744186,NA
11418,Queens County,NY,NA,NA,NA,47.689463955637706
11420,Queens County,NY,72.3342939481268,NA,NA,NA
11421,Queens County,NY,79.2507204610951,NA,NA,NA
11428,Queens County,NY,NA,NA,92.55813953488372,NA
11432,Queens County,NY,41.4985590778098,NA,NA,NA
11691,Queens County,NY,NA,91.13805970149254,NA,NA
11715,Suffolk County,NY,NA,NA,NA,97.22735674676525
11746,Suffolk County,NY,NA,NA,NA,11.645101663585953
11772,Suffolk County,NY,NA,30.317164179104477,NA,NA
11778,Suffolk County,NY,NA,84.14179104477611,NA,NA
11784,Suffolk County,NY,NA,NA,NA,55.822550831792974
11788,Suffolk County,NY,NA,NA,77.86046511627906,NA
11946,Suffolk County,NY,NA,NA,92.65116279069767,NA
12020,Saratoga County,NY,NA,NA,NA,40.110905730129396
12065,Saratoga County,NY,39.76945244956772,NA,NA,NA
12078,Fulton County,NY,NA,4.291044776119403,NA,NA
12090,Rensselaer County,NY,NA,NA,81.3953488372093,77.07948243992607
12144,Rensselaer County,NY,NA,NA,42.604651162790695,NA
12198,Rensselaer County,NY,NA,NA,86.13953488372093,NA
12303,Schenectady County,NY,NA,NA,NA,35.85951940850277
12428,Ulster County,NY,NA,NA,92.83720930232559,NA
12518,Orange County,NY,98.27089337175792,NA,NA,NA
12590,Dutchess County,NY,NA,NA,65.11627906976744,NA
12771,Orange County,NY,NA,NA,NA,73.19778188539742
12866,Saratoga County,NY,NA,11.66044776119403,NA,NA
12901,Clinton County,NY,NA,NA,4,NA
12953,Franklin County,NY,NA,NA,17.674418604651162,NA
13021,Cayuga County,NY,NA,2.425373134328358,NA,NA
13032,Madison County,NY,NA,NA,44.46511627906977,NA
13039,Onondaga County,NY,NA,NA,64.18604651162791,NA
13041,Onondaga County,NY,60.23054755043228,NA,NA,NA
13084,Onondaga County,NY,97.11815561959655,NA,NA,NA
13126,Oswego County,NY,NA,3.171641791044776,4.930232558139535,NA
13203,Onondaga County,NY,NA,16.511194029850746,NA,NA
13208,Onondaga County,NY,NA,NA,37.67441860465116,NA
13320,Otsego County,NY,NA,NA,97.67441860465115,NA
13339,Montgomery County,NY,NA,NA,53.3953488372093,NA
13357,Herkimer County,NY,NA,34.51492537313433,NA,NA
13367,Lewis County,NY,NA,NA,63.627906976744185,NA
13413,Oneida County,NY,NA,NA,28.27906976744186,NA
13425,Oneida County,NY,NA,NA,99.72093023255813,NA
13440,Oneida County,NY,NA,1.585820895522388,75.34883720930232,NA
13660,St. Lawrence County,NY,NA,98.69402985074626,NA,NA
13669,St. Lawrence County,NY,NA,NA,20.558139534883722,NA
13676,St. Lawrence County,NY,NA,30.87686567164179,NA,NA
13730,Chenango County,NY,94.81268011527378,NA,NA,NA
13783,Delaware County,NY,96.25360230547551,NA,NA,NA
13815,Chenango County,NY,NA,11.753731343283583,NA,NA
13820,Otsego County,NY,NA,8.208955223880597,NA,56.74676524953789
13850,Broome County,NY,25.64841498559078,13.526119402985074,23.627906976744185,3.8817005545286505
14006,Erie County,NY,NA,NA,87.16279069767442,NA
14047,Erie County,NY,NA,NA,78.04651162790698,NA
14051,Erie County,NY,NA,NA,48,NA
14052,Erie County,NY,NA,56.343283582089555,NA,NA
14072,Erie County,NY,NA,40.951492537313435,NA,NA
14085,Erie County,NY,NA,83.11567164179104,NA,NA
14092,Niagara County,NY,NA,NA,47.348837209302324,NA
14094,Niagara County,NY,NA,1.6791044776119404,NA,NA
14120,Niagara County,NY,NA,4.477611940298507,32.18604651162791,NA
14127,Erie County,NY,NA,12.593283582089551,NA,NA
14211,Erie County,NY,NA,NA,NA,63.77079482439926
14214,Erie County,NY,NA,29.570895522388057,NA,NA
14219,Erie County,NY,NA,51.026119402985074,NA,NA
14221,Erie County,NY,NA,9.235074626865671,NA,NA
14304,Niagara County,NY,21.037463976945244,4.664179104477612,NA,NA
14305,Niagara County,NY,NA,5.317164179104478,NA,NA
14414,Livingston County,NY,NA,62.873134328358205,NA,NA
14420,Monroe County,NY,NA,NA,18.976744186046513,NA
14424,Ontario County,NY,NA,NA,0.46511627906976744,NA
14427,Wyoming County,NY,NA,NA,99.53488372093024,NA
14450,Monroe County,NY,NA,NA,0.7441860465116279,NA
14468,Monroe County,NY,NA,NA,18.13953488372093,NA
14481,Livingston County,NY,NA,NA,98.69767441860465,NA
14482,Genesee County,NY,84.14985590778097,NA,NA,NA
14489,Wayne County,NY,NA,31.436567164179102,NA,NA
14513,Wayne County,NY,NA,NA,2.697674418604651,NA
14522,Wayne County,NY,NA,NA,NA,95.19408502772643
14527,Yates County,NY,NA,NA,62.7906976744186,NA
14534,Monroe County,NY,2.881844380403458,NA,NA,NA
14569,Wyoming County,NY,NA,NA,61.76744186046511,NA
14572,Steuben County,NY,NA,NA,73.76744186046513,NA
14580,Monroe County,NY,NA,0.5597014925373134,NA,NA
14605,Monroe County,NY,NA,NA,54.418604651162795,NA
14610,Monroe County,NY,NA,28.171641791044777,NA,NA
14618,Monroe County,NY,NA,NA,10.046511627906977,NA
14619,Monroe County,NY,NA,11.940298507462686,NA,NA
14624,Monroe County,NY,2.5936599423631126,NA,NA,NA
14701,Chautauqua County,NY,NA,2.2388059701492535,NA,NA
14706,Cattaraugus County,NY,NA,57.36940298507462,NA,NA
14733,Chautauqua County,NY,NA,NA,89.86046511627906,NA
14760,Cattaraugus County,NY,NA,8.395522388059701,11.906976744186046,NA
14770,Cattaraugus County,NY,NA,NA,97.20930232558139,NA
14850,Tompkins County,NY,NA,42.07089552238806,NA,NA
14870,Steuben County,NY,NA,60.07462686567165,NA,NA
27012,Forsyth County,NC,NA,NA,NA,36.41404805914972
27018,Yadkin County,NC,NA,73.88059701492537,NA,NA
27023,Forsyth County,NC,NA,NA,58.04651162790697,NA
27028,Davie County,NC,NA,NA,36.093023255813954,NA
27055,Yadkin County,NC,33.429394812680115,NA,NA,NA
27104,Forsyth County,NC,NA,27.89179104477612,NA,NA
27106,Forsyth County,NC,NA,10.820895522388058,NA,NA
27214,Guilford County,NC,NA,94.1231343283582,NA,NA
27253,Alamance County,NC,NA,NA,15.069767441860465,NA
27262,Guilford County,NC,NA,39.92537313432835,NA,NA
27284,Forsyth County,NC,NA,NA,NA,2.957486136783734
27292,Davidson County,NC,10.37463976945245,NA,NA,NA
27295,Davidson County,NC,NA,3.264925373134328,NA,NA
27302,Alamance County,NC,NA,NA,11.162790697674419,NA
27349,Alamance County,NC,NA,NA,NA,93.53049907578558
27358,Guilford County,NC,NA,NA,67.44186046511628,NA
27370,Randolph County,NC,NA,NA,59.81395348837209,NA
27379,Caswell County,NC,NA,NA,78.69767441860465,NA
27406,Guilford County,NC,NA,3.731343283582089,NA,NA
27407,Guilford County,NC,NA,NA,34.04651162790698,NA
27408,Guilford County,NC,95.67723342939482,NA,NA,NA
27504,Johnston County,NC,NA,62.68656716417911,NA,NA
27505,Harnett County,NC,NA,NA,NA,100
27514,Orange County,NC,NA,59.14179104477611,NA,NA
27517,Orange County,NC,52.1613832853026,NA,NA,57.67097966728281
27518,Wake County,NC,NA,NA,82.7906976744186,NA
27521,Harnett County,NC,NA,91.23134328358209,NA,NA
27524,Johnston County,NC,NA,71.36194029850746,NA,NA
27525,Franklin County,NC,NA,56.71641791044776,61.02325581395349,NA
27529,Wake County,NC,NA,21.082089552238806,NA,NA
27530,Wayne County,NC,NA,44.21641791044777,NA,NA
27537,Vance County,NC,NA,34.88805970149254,NA,NA
27574,Person County,NC,NA,NA,NA,71.53419593345656
27587,Wake County,NC,NA,NA,7.720930232558139,NA
27592,Wake County,NC,NA,NA,NA,80.77634011090574
27597,Wake County,NC,NA,NA,58.41860465116279,NA
27603,Wake County,NC,NA,54.94402985074627,NA,NA
27610,Wake County,NC,NA,NA,4.55813953488372,NA
27612,Wake County,NC,NA,NA,91.53488372093024,NA
27615,Wake County,NC,NA,39.6455223880597,NA,NA
27617,Wake County,NC,NA,NA,74.4186046511628,NA
27705,Durham County,NC,NA,NA,10.604651162790697,NA
27707,Durham County,NC,NA,10.261194029850747,6.6976744186046515,NA
27801,Edgecombe County,NC,NA,NA,56.55813953488372,NA
27856,Nash County,NC,NA,NA,65.02325581395348,NA
27925,Tyrrell County,NC,NA,NA,100,NA
27944,Perquimans County,NC,NA,NA,51.25581395348837,NA
27949,Dare County,NC,NA,96.64179104477611,NA,NA
27954,Dare County,NC,NA,97.76119402985076,84.27906976744185,NA
28012,Gaston County,NC,NA,62.5,NA,NA
28027,Cabarrus County,NC,NA,NA,55.906976744186046,NA
28031,Mecklenburg County,NC,NA,83.95522388059702,76.83720930232558,NA
28036,Mecklenburg County,NC,NA,81.80970149253731,NA,NA
28144,Rowan County,NC,NA,33.48880597014926,NA,NA
28147,Rowan County,NC,NA,31.063432835820898,NA,NA
28202,Mecklenburg County,NC,NA,89.73880597014924,NA,NA
28207,Mecklenburg County,NC,NA,NA,83.44186046511628,NA
28211,Mecklenburg County,NC,NA,NA,58.139534883720934,40.29574861367837
28215,Mecklenburg County,NC,NA,NA,16.651162790697676,NA
28226,Mecklenburg County,NC,NA,NA,44,NA
28262,Mecklenburg County,NC,NA,NA,70.97674418604652,NA
28269,Mecklenburg County,NC,NA,62.220149253731336,NA,NA
28304,Cumberland County,NC,NA,29.47761194029851,NA,NA
28306,Bladen County,NC,NA,NA,NA,42.14417744916821
28314,Cumberland County,NC,NA,NA,NA,47.13493530499076
28315,Moore County,NC,90.48991354466858,NA,NA,NA
28334,Sampson County,NC,NA,NA,26.976744186046513,NA
28340,Robeson County,NC,NA,NA,69.48837209302326,NA
28348,Cumberland County,NC,NA,NA,38.97674418604652,NA
28358,Robeson County,NC,NA,NA,27.53488372093023,NA
28365,Wayne County,NC,NA,NA,73.0232558139535,NA
28366,Sampson County,NC,NA,NA,NA,98.70609981515712
28383,Robeson County,NC,NA,NA,85.20930232558139,NA
28403,New Hanover County,NC,NA,NA,54.88372093023256,NA
28422,Brunswick County,NC,NA,NA,71.53488372093022,NA
28445,Onslow County,NC,NA,NA,85.67441860465117,NA
28470,Brunswick County,NC,NA,NA,70.51162790697674,NA
28557,Carteret County,NC,NA,NA,76,NA
28601,Catawba County,NC,NA,43.843283582089555,7.813953488372093,NA
28610,Catawba County,NC,52.73775216138329,80.8768656716418,NA,NA
28625,Iredell County,NC,19.020172910662826,NA,NA,NA
28630,Caldwell County,NC,NA,NA,74.9767441860465,NA
28645,Caldwell County,NC,NA,3.3582089552238807,5.953488372093023,NA
28655,Burke County,NC,NA,5.410447761194029,3.255813953488372,NA
28657,Avery County,NC,NA,NA,64.93023255813954,NA
28681,Alexander County,NC,NA,NA,73.67441860465117,NA
28712,Transylvania County,NC,NA,NA,NA,12.199630314232902
28715,Buncombe County,NC,NA,48.22761194029851,NA,NA
28722,Polk County,NC,NA,NA,NA,90.9426987060998
28734,Macon County,NC,NA,NA,NA,4.066543438077634
28741,Macon County,NC,NA,NA,NA,89.83364140480592
28752,McDowell County,NC,NA,NA,48.093023255813954,NA
28753,Madison County,NC,NA,NA,96.83720930232558,NA
28785,Haywood County,NC,NA,NA,67.34883720930233,NA
28792,Henderson County,NC,NA,30.130597014925375,8.372093023255815,NA
28803,Buncombe County,NC,NA,50,30.325581395348838,NA
28804,Buncombe County,NC,76.0806916426513,NA,NA,NA
28906,Cherokee County,NC,NA,NA,NA,23.10536044362292
58104,Cass County,ND,NA,NA,NA,3.1423290203327174
58203,Grand Forks County,ND,NA,53.07835820895522,NA,NA
58503,Burleigh County,ND,NA,NA,26.41860465116279,NA
43004,Franklin County,OH,NA,NA,60.18604651162791,NA
43015,Delaware County,OH,NA,NA,31.906976744186043,5.730129390018484
43017,Franklin County,OH,NA,NA,34.97674418604651,NA
43031,Licking County,OH,NA,79.8507462686567,NA,NA
43035,Delaware County,OH,NA,NA,NA,88.35489833641404
43068,Franklin County,OH,38.904899135446684,NA,NA,NA
43103,Pickaway County,OH,NA,74.53358208955224,NA,NA
43130,Fairfield County,OH,63.112391930835734,NA,NA,NA
43140,Madison County,OH,NA,35.91417910447761,68.93023255813954,NA
43202,Franklin County,OH,NA,77.70522388059702,NA,NA
43206,Franklin County,OH,NA,9.60820895522388,NA,NA
43209,Franklin County,OH,66.85878962536023,NA,NA,NA
43211,Franklin County,OH,NA,NA,NA,66.72828096118299
43212,Franklin County,OH,NA,75.09328358208955,NA,NA
43215,Franklin County,OH,NA,38.43283582089552,NA,NA
43221,Franklin County,OH,NA,NA,NA,38.817005545286506
43223,Franklin County,OH,12.968299711815561,NA,NA,NA
43228,Franklin County,OH,3.45821325648415,NA,NA,23.844731977818853
43231,Franklin County,OH,NA,45.52238805970149,NA,NA
43232,Franklin County,OH,NA,NA,12.930232558139535,NA
43402,Wood County,OH,NA,54.01119402985075,NA,NA
43440,Ottawa County,OH,NA,96.92164179104478,NA,85.58225508317929
43447,Wood County,OH,NA,NA,98.6046511627907,NA
43469,Sandusky County,OH,NA,97.57462686567165,NA,NA
43506,Williams County,OH,NA,20.708955223880597,23.53488372093023,NA
43512,Defiance County,OH,2.3054755043227666,NA,NA,NA
43528,Lucas County,OH,NA,NA,43.81395348837209,NA
43545,Henry County,OH,NA,64.6455223880597,NA,NA
43560,Lucas County,OH,NA,22.201492537313435,13.023255813953488,NA
43567,Fulton County,OH,NA,48.0410447761194,NA,NA
43604,Lucas County,OH,NA,41.04477611940299,NA,NA
43605,Lucas County,OH,NA,30.783582089552237,NA,NA
43606,Lucas County,OH,NA,NA,NA,49.90757855822551
43607,Lucas County,OH,NA,24.253731343283583,NA,NA
43608,Lucas County,OH,NA,7.555970149253731,NA,NA
43612,Lucas County,OH,NA,4.197761194029851,NA,NA
43613,Lucas County,OH,1.1527377521613833,2.8917910447761193,NA,NA
43614,Lucas County,OH,NA,NA,42.23255813953488,NA
43615,Lucas County,OH,NA,NA,NA,9.981515711645102
43619,Wood County,OH,NA,NA,NA,89.09426987060998
43620,Lucas County,OH,NA,NA,88.46511627906976,NA
43623,Lucas County,OH,NA,24.067164179104477,NA,NA
43793,Monroe County,OH,NA,88.71268656716418,NA,NA
43832,Tuscarawas County,OH,59.36599423631124,NA,NA,NA
43912,Belmont County,OH,NA,53.17164179104478,NA,NA
43935,Belmont County,OH,39.19308357348703,NA,NA,NA
43938,Jefferson County,OH,NA,51.11940298507462,70.51162790697674,NA
43947,Belmont County,OH,NA,NA,81.67441860465117,NA
43953,Jefferson County,OH,NA,NA,61.67441860465116,NA
43968,Columbiana County,OH,NA,48.88059701492538,NA,NA
44001,Lorain County,OH,NA,61.84701492537313,NA,NA
44011,Lorain County,OH,50.720461095100866,NA,NA,NA
44017,Cuyahoga County,OH,85.87896253602305,NA,NA,NA
44022,Cuyahoga County,OH,NA,83.02238805970148,25.76744186046512,NA
44023,Geauga County,OH,NA,NA,43.348837209302324,NA
44028,Lorain County,OH,NA,85.1679104477612,NA,NA
44035,Lorain County,OH,NA,NA,7.162790697674419,NA
44052,Lorain County,OH,NA,13.899253731343283,NA,NA
44054,Lorain County,OH,NA,NA,37.2093023255814,NA
44067,Summit County,OH,NA,33.86194029850746,NA,NA
44077,Lake County,OH,NA,2.7052238805970146,NA,NA
44087,Summit County,OH,NA,NA,13.488372093023257,NA
44090,Lorain County,OH,NA,NA,NA,86.69131238447319
44092,Lake County,OH,NA,42.257462686567166,30.883720930232556,NA
44102,Cuyahoga County,OH,NA,NA,1.4883720930232558,14.972273567467653
44103,Cuyahoga County,OH,NA,NA,NA,35.304990757855826
44104,Cuyahoga County,OH,NA,NA,55.348837209302324,NA
44105,Cuyahoga County,OH,NA,13.432835820895523,NA,NA
44107,Cuyahoga County,OH,79.82708933717579,NA,NA,NA
44109,Cuyahoga County,OH,0,NA,NA,NA
44111,Cuyahoga County,OH,NA,NA,NA,16.266173752310536
44120,Cuyahoga County,OH,NA,NA,2.3255813953488373,NA
44122,Cuyahoga County,OH,NA,NA,NA,0.18484288354898337
44125,Cuyahoga County,OH,NA,NA,8,NA
44126,Cuyahoga County,OH,NA,NA,NA,38.262476894639555
44129,Cuyahoga County,OH,NA,NA,NA,22.55083179297597
44130,Cuyahoga County,OH,NA,NA,8.465116279069768,NA
44133,Cuyahoga County,OH,NA,NA,10.976744186046512,NA
44134,Cuyahoga County,OH,NA,NA,NA,4.621072088724584
44136,Cuyahoga County,OH,55.907780979827095,NA,6.976744186046512,NA
44137,Cuyahoga County,OH,NA,NA,39.627906976744185,NA
44139,Cuyahoga County,OH,NA,NA,NA,17.744916820702404
44140,Cuyahoga County,OH,NA,NA,27.906976744186046,NA
44142,Cuyahoga County,OH,NA,NA,16.465116279069765,NA
44145,Cuyahoga County,OH,NA,NA,26.046511627906977,NA
44146,Cuyahoga County,OH,NA,6.25,1.2093023255813953,NA
44149,Cuyahoga County,OH,NA,NA,15.069767441860465,16.081330868761555
44203,Summit County,OH,NA,NA,37.02325581395349,NA
44212,Medina County,OH,NA,2.332089552238806,NA,NA
44216,Summit County,OH,NA,60.5410447761194,NA,NA
44221,Summit County,OH,NA,12.126865671641792,15.813953488372093,NA
44236,Summit County,OH,NA,NA,20.27906976744186,NA
44241,Portage County,OH,NA,NA,18.790697674418606,NA
44256,Medina County,OH,NA,NA,0.27906976744186046,NA
44260,Portage County,OH,92.21902017291066,NA,NA,NA
44305,Summit County,OH,6.9164265129683,11.473880597014926,NA,NA
44310,Summit County,OH,NA,8.582089552238806,NA,NA
44319,Summit County,OH,NA,NA,NA,24.58410351201479
44406,Mahoning County,OH,NA,55.03731343283582,NA,NA
44420,Trumbull County,OH,NA,36.28731343283582,NA,NA
44432,Columbiana County,OH,NA,63.899253731343286,NA,NA
44471,Mahoning County,OH,NA,NA,74.23255813953489,NA
44473,Trumbull County,OH,NA,NA,85.76744186046513,NA
44481,Trumbull County,OH,NA,59.51492537313433,NA,NA
44483,Trumbull County,OH,NA,NA,44.74418604651163,NA
44484,Trumbull County,OH,54.7550432276657,NA,NA,NA
44502,Mahoning County,OH,NA,41.51119402985074,NA,NA
44504,Mahoning County,OH,NA,NA,88.18604651162791,NA
44511,Mahoning County,OH,NA,NA,67.90697674418604,NA
44514,Mahoning County,OH,NA,46.92164179104478,28.186046511627904,NA
44601,Stark County,OH,6.340057636887608,NA,NA,NA
44614,Stark County,OH,NA,NA,68.65116279069767,NA
44663,Tuscarawas County,OH,NA,10.541044776119403,NA,NA
44667,Wayne County,OH,NA,NA,86.23255813953489,78.37338262476895
44705,Stark County,OH,NA,NA,35.44186046511628,NA
44714,Stark County,OH,NA,NA,91.44186046511628,NA
44718,Stark County,OH,NA,NA,73.30232558139535,NA
44811,Sandusky County,OH,NA,30.223880597014922,NA,NA
44813,Richland County,OH,77.23342939481267,NA,NA,NA
44830,Seneca County,OH,NA,48.134328358208954,NA,NA
44870,Erie County,OH,NA,1.3992537313432836,NA,NA
44883,Seneca County,OH,NA,NA,NA,23.65988909426987
45013,Butler County,OH,19.30835734870317,NA,NA,4.805914972273567
45039,Warren County,OH,NA,NA,64.18604651162791,NA
45103,Clermont County,OH,NA,25,NA,NA
45120,Clermont County,OH,96.25360230547551,NA,NA,NA
45123,Highland County,OH,NA,NA,NA,78.74306839186691
45133,Highland County,OH,15.273775216138327,NA,NA,NA
45140,Clermont County,OH,NA,NA,13.581395348837209,NA
45154,Brown County,OH,63.40057636887608,NA,NA,NA
45202,Hamilton County,OH,NA,17.44402985074627,NA,NA
45209,Hamilton County,OH,NA,NA,91.72093023255815,NA
45217,Hamilton County,OH,NA,NA,NA,97.96672828096118
45223,Hamilton County,OH,NA,41.884328358208954,84,NA
45229,Hamilton County,OH,NA,NA,NA,77.26432532347505
45241,Hamilton County,OH,NA,NA,NA,47.874306839186694
45244,Hamilton County,OH,NA,NA,46.51162790697674,NA
45252,Hamilton County,OH,NA,NA,94.88372093023256,NA
45385,Greene County,OH,NA,NA,7.069767441860465,NA
45403,Montgomery County,OH,NA,35.72761194029851,NA,NA
45424,Montgomery County,OH,NA,NA,40.46511627906977,NA
45429,Montgomery County,OH,NA,NA,30.511627906976745,NA
45431,Montgomery County,OH,NA,NA,NA,38.632162661737524
45449,Montgomery County,OH,NA,NA,NA,46.58040665434381
45459,Montgomery County,OH,NA,NA,18.976744186046513,NA
45502,Clark County,OH,NA,77.51865671641791,NA,NA
45601,Ross County,OH,11.239193083573488,NA,0,NA
45612,Ross County,OH,NA,97.94776119402985,NA,NA
45619,Lawrence County,OH,NA,NA,NA,89.46395563770795
45628,Ross County,OH,NA,NA,56.093023255813954,NA
45640,Jackson County,OH,14.985590778097983,NA,4.744186046511628,NA
45645,Lawrence County,OH,NA,93.19029850746269,NA,NA
45648,Scioto County,OH,NA,NA,17.3953488372093,NA
45660,Adams County,OH,67.43515850144092,NA,NA,NA
45669,Lawrence County,OH,NA,48.973880597014926,NA,NA
45680,Lawrence County,OH,NA,61.100746268656714,NA,76.89463955637707
45690,Pike County,OH,NA,14.55223880597015,NA,NA
45692,Jackson County,OH,NA,34.14179104477612,NA,NA
45822,Mercer County,OH,74.92795389048992,NA,NA,25.693160813308687
45830,Putnam County,OH,NA,94.21641791044776,NA,NA
45840,Hancock County,OH,NA,2.0522388059701493,NA,NA
45879,Paulding County,OH,NA,NA,NA,84.28835489833642
45885,Auglaize County,OH,NA,72.94776119402985,NA,NA
73010,McClain County,OK,NA,46.082089552238806,NA,NA
73034,Oklahoma County,OK,NA,61.38059701492538,48.74418604651163,NA
73064,Canadian County,OK,NA,50.093283582089555,44.27906976744186,NA
73069,Cleveland County,OK,NA,NA,NA,48.428835489833645
73072,Cleveland County,OK,NA,26.119402985074625,NA,NA
73080,McClain County,OK,76.657060518732,NA,NA,NA
73084,Oklahoma County,OK,NA,NA,84.65116279069768,NA
73099,Canadian County,OK,NA,11.194029850746269,NA,NA
73114,Oklahoma County,OK,NA,NA,77.02325581395348,NA
73160,Cleveland County,OK,NA,9.794776119402986,NA,NA
73521,Jackson County,OK,NA,NA,58.23255813953489,NA
73533,Stephens County,OK,NA,NA,NA,19.963031423290204
74003,Osage County,OK,NA,NA,77.30232558139535,NA
74008,Tulsa County,OK,NA,NA,51.72093023255814,55.637707948244
74011,Tulsa County,OK,NA,NA,45.95348837209302,56.19223659889094
74012,Tulsa County,OK,NA,NA,10.883720930232558,NA
74014,Wagoner County,OK,NA,NA,22.697674418604652,52.865064695009245
74016,Rogers County,OK,NA,NA,NA,95.93345656192237
74017,Rogers County,OK,NA,NA,80.27906976744185,NA
74019,Rogers County,OK,NA,46.36194029850746,NA,NA
74044,Creek County,OK,NA,NA,86.69767441860465,NA
74055,Tulsa County,OK,NA,NA,26.51162790697674,NA
74063,Tulsa County,OK,NA,NA,NA,54.89833641404805
74066,Creek County,OK,NA,NA,35.72093023255814,NA
74074,Payne County,OK,NA,NA,39.906976744186046,76.52495378927911
74075,Payne County,OK,NA,NA,58.69767441860465,NA
74105,Tulsa County,OK,NA,37.5,79.34883720930233,NA
74112,Tulsa County,OK,NA,54.2910447761194,68,71.1645101663586
74133,Tulsa County,OK,NA,29.850746268656714,56.93023255813954,13.863216266173753
74134,Tulsa County,OK,71.46974063400576,89.55223880597015,NA,NA
74135,Tulsa County,OK,NA,78.35820895522389,NA,NA
74136,Tulsa County,OK,NA,55.41044776119403,NA,69.13123844731977
74137,Tulsa County,OK,NA,NA,NA,41.95933456561922
74145,Tulsa County,OK,NA,NA,64.65116279069767,NA
74344,Delaware County,OK,76.36887608069163,NA,NA,NA
74403,Muskogee County,OK,38.04034582132565,NA,NA,NA
74464,Cherokee County,OK,NA,32.55597014925373,NA,NA
74571,Le Flore County,OK,NA,NA,88.74418604651163,NA
74701,Bryan County,OK,NA,NA,NA,48.24399260628466
74820,Pontotoc County,OK,8.069164265129682,7.182835820895522,NA,NA
74851,Pottawatomie County,OK,NA,NA,NA,86.50646950092421
74948,Sequoyah County,OK,NA,63.61940298507462,NA,NA
74959,Le Flore County,OK,NA,78.9179104477612,NA,NA
97015,Clackamas County,OR,NA,52.61194029850746,NA,NA
97027,Clackamas County,OR,NA,NA,79.72093023255815,NA
97030,Multnomah County,OR,NA,14.738805970149254,16.093023255813954,NA
97045,Clackamas County,OR,NA,NA,9.30232558139535,NA
97071,Marion County,OR,NA,NA,58.51162790697675,NA
97080,Multnomah County,OR,NA,21.921641791044777,NA,NA
97123,Washington County,OR,NA,NA,13.209302325581396,NA
97132,Yamhill County,OR,NA,38.526119402985074,NA,NA
97206,Multnomah County,OR,19.596541786743515,11.287313432835822,NA,NA
97212,Multnomah County,OR,NA,NA,NA,90.20332717190388
97221,Multnomah County,OR,NA,NA,84.93023255813954,NA
97223,Washington County,OR,NA,NA,22.697674418604652,NA
97236,Multnomah County,OR,NA,16.884328358208954,NA,NA
97267,Clackamas County,OR,NA,68.56343283582089,NA,NA
97303,Marion County,OR,NA,84.79477611940298,NA,NA
97305,Marion County,OR,NA,22.94776119402985,NA,NA
97317,Marion County,OR,NA,72.38805970149254,NA,NA
97322,Linn County,OR,NA,NA,12,41.58964879852125
97361,Polk County,OR,NA,NA,NA,93.71534195933457
97402,Lane County,OR,NA,17.537313432835823,NA,NA
97405,Lane County,OR,NA,NA,61.48837209302326,NA
97415,Curry County,OR,NA,NA,24.093023255813954,NA
97471,Douglas County,OR,NA,14.925373134328357,NA,NA
97502,Jackson County,OR,NA,NA,NA,35.48983364140481
97503,Jackson County,OR,NA,64.17910447761194,NA,NA
97526,Josephine County,OR,NA,22.48134328358209,31.720930232558143,50.27726432532348
97527,Josephine County,OR,NA,NA,NA,26.432532347504623
97703,Deschutes County,OR,NA,81.43656716417911,NA,NA
15009,Beaver County,PA,NA,NA,37.76744186046512,NA
15010,Beaver County,PA,NA,53.73134328358209,NA,NA
15059,Beaver County,PA,NA,NA,97.48837209302326,NA
15065,Allegheny County,PA,NA,NA,65.3953488372093,NA
15102,Allegheny County,PA,NA,NA,25.953488372093027,NA
15106,Allegheny County,PA,74.35158501440922,NA,NA,NA
15108,Allegheny County,PA,NA,39.365671641791046,15.720930232558139,NA
15110,Allegheny County,PA,91.93083573487031,NA,NA,NA
15147,Allegheny County,PA,NA,NA,71.34883720930233,NA
15202,Allegheny County,PA,NA,51.49253731343284,NA,NA
15210,Allegheny County,PA,NA,NA,NA,52.68022181146026
15216,Allegheny County,PA,NA,NA,52.27906976744187,NA
15228,Allegheny County,PA,NA,80.59701492537313,NA,NA
15237,Allegheny County,PA,NA,NA,21.674418604651162,NA
15238,Allegheny County,PA,NA,NA,51.348837209302324,NA
15301,Washington County,PA,NA,6.063432835820896,NA,NA
15401,Fayette County,PA,NA,30.69029850746269,NA,NA
15501,Somerset County,PA,64.84149855907782,NA,NA,NA
15632,Westmoreland County,PA,87.60806916426513,88.99253731343283,NA,NA
15679,Westmoreland County,PA,NA,99.53358208955224,NA,NA
15767,Jefferson County,PA,NA,26.399253731343286,NA,NA
15857,Elk County,PA,NA,23.227611940298505,NA,NA
15931,Cambria County,PA,NA,68.93656716417911,NA,NA
16001,Butler County,PA,NA,NA,NA,3.3271719038817005
16066,Butler County,PA,NA,65.29850746268657,NA,NA
16150,Mercer County,PA,NA,70.24253731343283,NA,NA
16229,Armstrong County,PA,NA,92.44402985074626,NA,NA
16314,Crawford County,PA,NA,NA,71.81395348837209,NA
16335,Crawford County,PA,NA,8.675373134328359,NA,22.73567467652495
16441,Erie County,PA,NA,NA,76.83720930232558,NA
16506,Erie County,PA,NA,67.91044776119402,65.58139534883722,NA
16686,Blair County,PA,NA,58.3955223880597,NA,NA
16801,Centre County,PA,NA,NA,27.25581395348837,NA
16830,Clearfield County,PA,NA,27.1455223880597,NA,NA
16866,Centre County,PA,NA,63.059701492537314,NA,NA
17003,Lebanon County,PA,NA,46.45522388059701,NA,NA
17019,York County,PA,NA,64.36567164179104,NA,NA
17022,Lancaster County,PA,NA,14.365671641791044,NA,19.223659889094268
17036,Dauphin County,PA,NA,NA,43.906976744186046,NA
17042,Lebanon County,PA,47.262247838616716,NA,NA,NA
17055,Cumberland County,PA,NA,76.67910447761194,NA,9.796672828096119
17078,Lebanon County,PA,NA,14.645522388059701,NA,NA
17110,Dauphin County,PA,NA,13.246268656716417,NA,46.02587800369686
17112,Dauphin County,PA,NA,47.38805970149254,NA,NA
17319,York County,PA,NA,NA,70.88372093023256,NA
17327,York County,PA,NA,88.33955223880598,NA,NA
17331,York County,PA,NA,6.7164179104477615,NA,NA
17401,York County,PA,91.35446685878964,NA,NA,NA
17404,York County,PA,NA,9.328358208955224,NA,NA
17502,Lancaster County,PA,NA,NA,95.53488372093022,NA
17603,Lancaster County,PA,62.2478386167147,NA,NA,8.872458410351202
17702,Lycoming County,PA,77.52161383285303,NA,NA,NA
17777,Northumberland County,PA,89.62536023054754,NA,NA,NA
17815,Columbia County,PA,NA,14.085820895522389,NA,NA
17837,Union County,PA,NA,NA,40,NA
17921,Schuylkill County,PA,NA,78.45149253731343,NA,NA
18013,Northampton County,PA,NA,NA,42.51162790697675,NA
18015,Northampton County,PA,7.780979827089338,NA,NA,NA
18017,Northampton County,PA,NA,5.970149253731343,3.3488372093023258,NA
18032,Lehigh County,PA,NA,NA,92.74418604651163,NA
18037,Lehigh County,PA,NA,75.65298507462687,NA,NA
18045,Northampton County,PA,NA,NA,NA,12.014787430683919
18055,Northampton County,PA,68.29971181556196,89.36567164179104,NA,NA
18064,Northampton County,PA,NA,40.76492537313433,NA,NA
18066,Lehigh County,PA,NA,95.1492537313433,NA,NA
18069,Lehigh County,PA,NA,86.38059701492537,NA,NA
18102,Lehigh County,PA,NA,7.462686567164178,NA,NA
18103,Lehigh County,PA,NA,5.130597014925374,NA,NA
18104,Lehigh County,PA,NA,11.847014925373134,NA,NA
18222,Luzerne County,PA,NA,NA,NA,75.41589648798521
18301,Monroe County,PA,NA,33.67537313432835,NA,NA
18360,Monroe County,PA,NA,NA,11.348837209302326,NA
18411,Lackawanna County,PA,NA,76.3992537313433,NA,NA
18444,Lackawanna County,PA,NA,58.48880597014925,NA,NA
18466,Monroe County,PA,NA,NA,66.88372093023256,NA
18505,Lackawanna County,PA,NA,41.417910447761194,NA,NA
18512,Lackawanna County,PA,NA,NA,77.11627906976744,NA
18517,Lackawanna County,PA,NA,97.8544776119403,NA,NA
18643,Luzerne County,PA,NA,54.47761194029851,NA,NA
18644,Luzerne County,PA,NA,NA,NA,81.1460258780037
18651,Luzerne County,PA,81.84438040345822,67.44402985074626,NA,NA
18810,Bradford County,PA,NA,83.67537313432835,NA,NA
18840,Bradford County,PA,NA,86.66044776119402,NA,NA
18925,Bucks County,PA,NA,93.3768656716418,NA,NA
18929,Bucks County,PA,NA,89.08582089552239,NA,NA
18944,Bucks County,PA,74.06340057636888,NA,NA,NA
18951,Bucks County,PA,NA,16.6044776119403,NA,NA
18974,Bucks County,PA,NA,NA,42.7906976744186,2.4029574861367835
19006,Montgomery County,PA,NA,NA,NA,45.28650646950093
19008,Delaware County,PA,NA,NA,35.81395348837209,NA
19015,Delaware County,PA,51.5850144092219,NA,NA,NA
19034,Montgomery County,PA,NA,NA,84.37209302325581,NA
19046,Montgomery County,PA,NA,45.33582089552239,NA,NA
19056,Bucks County,PA,NA,47.667910447761194,NA,NA
19064,Delaware County,PA,11.815561959654179,70.8955223880597,NA,NA
19066,Montgomery County,PA,NA,NA,96.18604651162791,NA
19067,Bucks County,PA,NA,15.578358208955223,6.4186046511627906,NA
19087,Chester County,PA,29.394812680115272,NA,NA,NA
19115,Philadelphia County,PA,NA,NA,16.27906976744186,NA
19116,Philadelphia County,PA,43.804034582132566,26.77238805970149,NA,NA
19119,Philadelphia County,PA,NA,20.988805970149254,NA,NA
19120,Philadelphia County,PA,5.187319884726225,NA,4.837209302325581,NA
19124,Philadelphia County,PA,NA,0.8395522388059702,8.744186046511627,NA
19126,Philadelphia County,PA,46.68587896253602,NA,NA,NA
19133,Philadelphia County,PA,NA,12.686567164179104,NA,NA
19138,Philadelphia County,PA,NA,NA,NA,31.23844731977819
19139,Philadelphia County,PA,9.510086455331413,NA,NA,NA
19141,Philadelphia County,PA,NA,29.66417910447761,NA,NA
19143,Philadelphia County,PA,NA,0.7462686567164178,NA,NA
19149,Philadelphia County,PA,NA,NA,NA,34.011090573012936
19151,Philadelphia County,PA,NA,NA,15.906976744186046,NA
19152,Philadelphia County,PA,NA,50.279850746268664,18.325581395348838,14.78743068391867
19312,Chester County,PA,NA,65.11194029850746,48.55813953488372,NA
19355,Chester County,PA,25.360230547550433,40.39179104477612,NA,53.60443622920518
19380,Chester County,PA,31.12391930835735,NA,NA,NA
19390,Chester County,PA,NA,78.26492537313433,NA,NA
19401,Montgomery County,PA,NA,NA,19.53488372093023,NA
19403,Montgomery County,PA,NA,49.25373134328358,NA,NA
19406,Montgomery County,PA,NA,45.8955223880597,NA,NA
19422,Montgomery County,PA,NA,NA,NA,54.34380776340111
19444,Montgomery County,PA,NA,95.61567164179104,NA,NA
19446,Montgomery County,PA,NA,64.27238805970148,NA,NA
19454,Montgomery County,PA,NA,42.53731343283582,47.16279069767442,NA
19460,Chester County,PA,NA,NA,21.302325581395348,NA
19465,Chester County,PA,NA,51.58582089552238,NA,NA
19468,Montgomery County,PA,NA,NA,32.55813953488372,NA
19473,Montgomery County,PA,NA,80.22388059701493,NA,NA
19506,Berks County,PA,NA,NA,76.18604651162791,NA
19512,Berks County,PA,NA,NA,NA,59.33456561922365
19525,Montgomery County,PA,NA,69.58955223880598,44.83720930232558,NA
19530,Berks County,PA,NA,90.39179104477611,NA,NA
19565,Berks County,PA,NA,77.89179104477611,64.46511627906976,61.367837338262476
19607,Berks County,PA,NA,26.026119402985078,NA,NA
02806,Bristol County,RI,NA,71.92164179104478,NA,NA
02828,Providence County,RI,NA,94.49626865671642,NA,NA
02830,Providence County,RI,NA,94.40298507462687,NA,NA
02835,Newport County,RI,NA,NA,84.83720930232558,NA
02864,Providence County,RI,NA,23.787313432835823,NA,NA
02871,Newport County,RI,NA,62.779850746268664,NA,NA
02878,Newport County,RI,NA,77.1455223880597,NA,NA
02886,Kent County,RI,33.14121037463977,NA,NA,NA
02895,Providence County,RI,NA,9.514925373134329,NA,NA
02904,Providence County,RI,NA,NA,17.116279069767444,NA
02906,Providence County,RI,NA,NA,43.72093023255814,NA
02909,Providence County,RI,NA,16.23134328358209,NA,NA
02911,Providence County,RI,NA,NA,57.48837209302325,NA
02914,Providence County,RI,NA,44.02985074626866,NA,NA
02915,Providence County,RI,87.89625360230548,NA,NA,NA
29016,Richland County,SC,NA,NA,77.48837209302326,NA
29070,Lexington County,SC,NA,NA,83.06976744186046,NA
29072,Lexington County,SC,NA,24.720149253731343,NA,NA
29135,Calhoun County,SC,NA,NA,NA,84.84288354898337
29169,Lexington County,SC,NA,55.876865671641795,NA,NA
29209,Richland County,SC,NA,NA,49.116279069767444,NA
29301,Spartanburg County,SC,NA,30.037313432835823,NA,NA
29405,Charleston County,SC,NA,NA,39.44186046511628,NA
29407,Charleston County,SC,24.78386167146974,NA,45.674418604651166,NA
29412,Charleston County,SC,NA,NA,18.6046511627907,15.711645101663585
29414,Charleston County,SC,NA,NA,60.651162790697676,NA
29418,Charleston County,SC,NA,NA,58.97674418604652,NA
29455,Charleston County,SC,NA,NA,31.441860465116278,NA
29456,Dorchester County,SC,NA,34.32835820895522,NA,NA
29464,Charleston County,SC,NA,NA,20.651162790697676,NA
29466,Charleston County,SC,15.561959654178676,NA,NA,39.55637707948244
29470,Charleston County,SC,NA,96.36194029850746,NA,NA
29483,Dorchester County,SC,27.953890489913547,14.458955223880595,NA,NA
29485,Dorchester County,SC,NA,25.55970149253731,29.209302325581394,NA
29486,Berkeley County,SC,58.21325648414985,NA,NA,NA
29501,Florence County,SC,NA,NA,14.13953488372093,NA
29506,Florence County,SC,NA,44.86940298507462,NA,NA
29511,Horry County,SC,NA,91.69776119402985,NA,NA
29526,Horry County,SC,NA,36.56716417910448,NA,NA
29532,Darlington County,SC,NA,NA,52.093023255813954,NA
29536,Dillon County,SC,98.55907780979827,NA,NA,NA
29566,Horry County,SC,NA,NA,51.162790697674424,NA
29588,Horry County,SC,NA,NA,NA,27.911275415896487
29615,Greenville County,SC,NA,59.04850746268657,NA,NA
29630,Pickens County,SC,86.74351585014409,NA,NA,NA
29640,Pickens County,SC,NA,19.12313432835821,NA,NA
29642,Pickens County,SC,NA,NA,15.255813953488373,NA
29649,Greenwood County,SC,NA,64.8320895522388,NA,NA
29650,Greenville County,SC,57.925072046109506,NA,88.55813953488372,NA
29651,Greenville County,SC,NA,18.19029850746269,NA,NA
29654,Anderson County,SC,56.195965417867434,NA,NA,NA
29681,Greenville County,SC,NA,NA,49.2093023255814,NA
29690,Greenville County,SC,NA,NA,34.418604651162795,NA
29708,York County,SC,NA,76.02611940298507,NA,NA
29715,York County,SC,NA,NA,NA,68.39186691312385
29730,York County,SC,NA,50.65298507462687,NA,NA
29745,York County,SC,NA,NA,53.116279069767444,NA
29801,Aiken County,SC,NA,NA,47.06976744186046,NA
29926,Beaufort County,SC,NA,NA,62.23255813953489,NA
29944,Hampton County,SC,NA,95.7089552238806,NA,NA
57104,Minnehaha County,SD,NA,NA,NA,17.56007393715342
57108,Lincoln County,SD,NA,NA,NA,7.763401109057301
57110,Minnehaha County,SD,NA,52.70522388059702,NA,NA
57501,Hughes County,SD,NA,NA,64.37209302325581,NA
57701,Pennington County,SD,NA,16.324626865671643,NA,NA
37043,Montgomery County,TN,NA,35.07462686567165,NA,NA
37046,Williamson County,TN,NA,NA,99.34883720930232,NA
37075,Sumner County,TN,NA,NA,NA,11.090573012939002
37076,Davidson County,TN,NA,NA,29.48837209302326,NA
37087,Wilson County,TN,NA,47.57462686567165,NA,NA
37130,Rutherford County,TN,20.7492795389049,NA,NA,NA
37160,Bedford County,TN,16.42651296829971,NA,NA,NA
37167,Rutherford County,TN,NA,25.279850746268657,NA,NA
37179,Williamson County,TN,NA,NA,89.20930232558139,NA
37211,Davidson County,TN,NA,16.884328358208954,NA,NA
37214,Davidson County,TN,NA,NA,NA,64.14048059149722
37310,Bradley County,TN,NA,99.6268656716418,NA,NA
37321,Rhea County,TN,NA,27.425373134328357,NA,NA
37334,Lincoln County,TN,NA,35.167910447761194,28.093023255813954,NA
37341,Hamilton County,TN,NA,NA,80.18604651162791,NA
37343,Hamilton County,TN,NA,NA,19.813953488372093,NA
37397,Marion County,TN,76.657060518732,NA,NA,NA
37405,Hamilton County,TN,66.28242074927954,NA,NA,NA
37406,Hamilton County,TN,NA,NA,72,NA
37604,Washington County,TN,NA,NA,18.23255813953488,34.56561922365989
37617,Sullivan County,TN,NA,NA,63.90697674418605,NA
37618,Sullivan County,TN,NA,NA,77.58139534883722,NA
37643,Carter County,TN,NA,NA,NA,21.996303142329023
37659,Washington County,TN,NA,NA,26.883720930232556,NA
37660,Sullivan County,TN,NA,NA,NA,13.308687615526802
37686,Sullivan County,TN,NA,83.3955223880597,NA,NA
37701,Blount County,TN,NA,NA,68.74418604651163,NA
37716,Anderson County,TN,17.86743515850144,NA,NA,NA
37766,Campbell County,TN,NA,NA,22.97674418604651,NA
37769,Anderson County,TN,NA,81.71641791044776,NA,NA
37830,Anderson County,TN,NA,20.8955223880597,NA,NA
37840,Roane County,TN,NA,NA,NA,77.44916820702403
37843,Cocke County,TN,NA,95.05597014925374,NA,NA
37849,Knox County,TN,NA,NA,50.604651162790695,NA
37854,Roane County,TN,NA,56.809701492537314,NA,NA
37860,Hamblen County,TN,NA,97.01492537313433,NA,NA
37861,Grainger County,TN,NA,NA,66.4186046511628,NA
37876,Sevier County,TN,44.95677233429395,NA,NA,NA
37879,Claiborne County,TN,NA,51.865671641791046,NA,NA
37919,Knox County,TN,NA,53.82462686567165,NA,NA
37923,Knox County,TN,NA,NA,39.72093023255814,NA
37931,Knox County,TN,NA,41.69776119402985,59.06976744186046,NA
37932,Knox County,TN,NA,NA,NA,94.08502772643253
37938,Knox County,TN,NA,NA,64.09302325581395,NA
38002,Shelby County,TN,NA,88.24626865671642,NA,NA
38016,Shelby County,TN,NA,NA,NA,75.78558225508318
38017,Shelby County,TN,NA,45.149253731343286,NA,NA
38024,Dyer County,TN,NA,57.08955223880597,NA,NA
38053,Shelby County,TN,NA,46.92164179104478,NA,NA
38112,Shelby County,TN,NA,NA,NA,93.3456561922366
38114,Shelby County,TN,NA,NA,30.418604651162788,NA
38120,Shelby County,TN,NA,93.56343283582089,NA,NA
38125,Shelby County,TN,NA,53.54477611940298,NA,NA
38305,Madison County,TN,NA,NA,9.674418604651162,NA
38344,Carroll County,TN,NA,72.01492537313433,NA,NA
38501,Putnam County,TN,NA,69.77611940298507,NA,NA
38506,Putnam County,TN,NA,40.85820895522388,NA,NA
75007,Denton County,TX,28.530259365994237,NA,NA,NA
75020,Grayson County,TX,NA,NA,34.69767441860465,NA
75038,Dallas County,TX,55.04322766570605,NA,NA,NA
75044,Dallas County,TX,31.988472622478387,NA,NA,NA
75052,Dallas County,TX,NA,15.018656716417912,NA,NA
75069,Collin County,TX,86.45533141210375,47.48134328358209,31.25581395348837,NA
75070,Collin County,TX,10.086455331412104,13.339552238805972,NA,NA
75074,Collin County,TX,NA,NA,68.18604651162791,NA
75075,Collin County,TX,NA,NA,31.627906976744185,NA
75076,Grayson County,TX,NA,NA,92,NA
75080,Dallas County,TX,NA,58.02238805970149,NA,NA
75082,Collin County,TX,NA,NA,41.116279069767444,NA
75090,Grayson County,TX,NA,NA,NA,60.44362292051756
75092,Grayson County,TX,NA,46.548507462686565,NA,55.45286506469501
75093,Collin County,TX,NA,NA,68.37209302325581,NA
75098,Collin County,TX,NA,NA,NA,63.21626617375231
75103,Van Zandt County,TX,NA,NA,NA,91.86691312384472
75104,Dallas County,TX,NA,NA,27.72093023255814,NA
75115,Dallas County,TX,NA,19.402985074626866,NA,NA
75126,Kaufman County,TX,NA,29.757462686567166,NA,NA
75149,Dallas County,TX,3.7463976945244957,NA,NA,NA
75150,Dallas County,TX,NA,NA,14.883720930232558,NA
75154,Ellis County,TX,NA,NA,NA,78.18853974121997
75165,Ellis County,TX,NA,26.30597014925373,NA,NA
75180,Dallas County,TX,45.53314121037464,NA,69.67441860465117,NA
75203,Dallas County,TX,NA,NA,68.27906976744185,NA
75205,Dallas County,TX,NA,NA,72.27906976744187,NA
75206,Dallas County,TX,NA,49.8134328358209,86.79069767441861,NA
75209,Dallas County,TX,NA,67.16417910447761,NA,50.83179297597042
75212,Dallas County,TX,NA,NA,NA,53.04990757855823
75214,Dallas County,TX,NA,43.5634328358209,NA,66.35859519408503
75216,Dallas County,TX,NA,NA,NA,9.611829944547134
75217,Dallas County,TX,NA,7.929104477611941,NA,NA
75218,Dallas County,TX,NA,74.6268656716418,NA,NA
75225,Dallas County,TX,NA,75.27985074626866,NA,NA
75228,Dallas County,TX,NA,NA,NA,29.944547134935306
75230,Dallas County,TX,NA,NA,NA,52.495378927911275
75232,Dallas County,TX,NA,NA,42.604651162790695,NA
75234,Dallas County,TX,NA,NA,NA,49.72273567467653
75244,Dallas County,TX,NA,88.61940298507463,NA,NA
75248,Dallas County,TX,NA,NA,79.81395348837209,NA
75253,Dallas County,TX,NA,NA,83.25581395348837,NA
75428,Hunt County,TX,NA,NA,NA,99.26062846580407
75457,Franklin County,TX,NA,NA,NA,94.82439926062847
75501,Bowie County,TX,NA,29.94402985074627,20.837209302325583,NA
75503,Bowie County,TX,NA,50.46641791044776,NA,NA
75602,Gregg County,TX,NA,NA,NA,80.96118299445472
75604,Gregg County,TX,NA,NA,85.30232558139534,NA
75647,Gregg County,TX,NA,86.1007462686567,NA,NA
75701,Smith County,TX,NA,NA,NA,6.099815157116451
75703,Smith County,TX,NA,NA,NA,1.8484288354898337
75751,Henderson County,TX,NA,NA,50.23255813953489,NA
75752,Henderson County,TX,NA,96.82835820895522,82.23255813953489,NA
75757,Smith County,TX,NA,NA,NA,40.48059149722736
75766,Cherokee County,TX,69.45244956772333,NA,NA,NA
75771,Smith County,TX,NA,54.75746268656716,NA,NA
75783,Wood County,TX,NA,NA,28.46511627906977,NA
75835,Houston County,TX,NA,66.69776119402985,NA,NA
75901,Angelina County,TX,NA,NA,86.6046511627907,NA
75904,Angelina County,TX,NA,66.4179104477612,12.744186046511627,NA
75965,Nacogdoches County,TX,NA,69.21641791044776,NA,NA
76006,Tarrant County,TX,NA,NA,91.34883720930233,NA
76010,Tarrant County,TX,NA,14.738805970149254,NA,NA
76011,Tarrant County,TX,46.68587896253602,54.66417910447762,NA,NA
76013,Tarrant County,TX,NA,NA,NA,31.42329020332717
76016,Tarrant County,TX,NA,NA,59.627906976744185,NA
76018,Tarrant County,TX,NA,57.649253731343286,NA,NA
76020,Tarrant County,TX,NA,NA,NA,60.258780036968574
76021,Tarrant County,TX,NA,NA,39.25581395348837,NA
76028,Johnson County,TX,35.158501440922194,NA,NA,NA
76031,Johnson County,TX,90.77809798270894,NA,NA,NA
76034,Tarrant County,TX,NA,NA,61.48837209302326,NA
76048,Hood County,TX,NA,42.81716417910448,NA,NA
76050,Johnson County,TX,NA,NA,93.48837209302326,NA
76053,Tarrant County,TX,NA,NA,69.20930232558139,NA
76065,Ellis County,TX,NA,39.4589552238806,NA,NA
76088,Parker County,TX,NA,NA,NA,88.909426987061
76092,Tarrant County,TX,NA,65.01865671641791,NA,NA
76103,Tarrant County,TX,59.654178674351584,NA,NA,NA
76110,Tarrant County,TX,NA,42.16417910447761,NA,NA
76112,Tarrant County,TX,NA,NA,NA,41.40480591497228
76116,Tarrant County,TX,11.815561959654179,NA,NA,NA
76132,Tarrant County,TX,NA,NA,57.581395348837205,NA
76133,Tarrant County,TX,NA,NA,19.25581395348837,NA
76180,Tarrant County,TX,NA,NA,NA,32.34750462107209
76182,Tarrant County,TX,NA,NA,32.83720930232558,NA
76209,Denton County,TX,NA,NA,NA,81.88539741219964
76240,Cooke County,TX,NA,NA,33.86046511627907,NA
76244,Tarrant County,TX,NA,NA,NA,78.55822550831792
76258,Denton County,TX,NA,NA,95.06976744186046,NA
76262,Denton County,TX,NA,45.242537313432834,NA,NA
76426,Wise County,TX,NA,NA,70.32558139534883,NA
76502,Bell County,TX,14.697406340057636,13.152985074626866,NA,NA
76504,Bell County,TX,NA,NA,NA,30.683918669131238
76513,Bell County,TX,NA,7.276119402985075,NA,NA
76522,Coryell County,TX,NA,NA,9.953488372093023,14.602587800369685
76543,Bell County,TX,12.680115273775217,NA,NA,NA
76571,Bell County,TX,NA,NA,60.837209302325576,NA
76633,McLennan County,TX,NA,90.11194029850746,NA,NA
76645,Hill County,TX,NA,NA,67.81395348837209,NA
76657,McLennan County,TX,NA,NA,NA,51.75600739371534
76667,Limestone County,TX,NA,57.55597014925373,NA,NA
76901,Tom Green County,TX,NA,NA,67.06976744186046,NA
76903,Tom Green County,TX,35.73487031700288,NA,NA,NA
76904,Tom Green County,TX,NA,61.940298507462686,36.93023255813954,NA
77003,Harris County,TX,NA,81.99626865671642,NA,NA
77005,Harris County,TX,NA,72.57462686567165,NA,NA
77016,Harris County,TX,NA,41.23134328358209,NA,NA
77019,Harris County,TX,NA,70.7089552238806,NA,86.87615526802219
77025,Harris County,TX,NA,NA,70.23255813953489,NA
77027,Harris County,TX,NA,82.74253731343283,NA,NA
77034,Harris County,TX,NA,NA,65.67441860465117,NA
77036,Harris County,TX,NA,NA,21.02325581395349,NA
77043,Harris County,TX,NA,NA,78.69767441860465,NA
77044,Harris County,TX,24.207492795389047,35.167910447761194,NA,NA
77063,Harris County,TX,NA,NA,NA,76.7097966728281
77065,Harris County,TX,NA,60.91417910447762,42.41860465116279,NA
77066,Harris County,TX,NA,67.72388059701493,NA,NA
77067,Harris County,TX,NA,NA,81.02325581395348,NA
77069,Harris County,TX,NA,NA,45.76744186046512,NA
77070,Harris County,TX,NA,45.98880597014926,NA,NA
77071,Harris County,TX,NA,61.38059701492538,NA,NA
77073,Harris County,TX,NA,NA,85.0232558139535,NA
77083,Harris County,TX,NA,NA,62.97674418604651,NA
77092,Harris County,TX,NA,NA,93.95348837209302,NA
77095,Harris County,TX,NA,NA,66.79069767441861,NA
77099,Harris County,TX,NA,54.1044776119403,NA,NA
77318,Montgomery County,TX,NA,NA,NA,83.1792975970425
77346,Harris County,TX,NA,NA,33.116279069767444,NA
77351,Polk County,TX,NA,NA,20.74418604651163,NA
77355,Montgomery County,TX,52.44956772334294,NA,NA,NA
77356,Montgomery County,TX,NA,NA,37.2093023255814,NA
77357,Montgomery County,TX,NA,NA,92.27906976744185,NA
77371,San Jacinto County,TX,NA,NA,88.18604651162791,NA
77379,Harris County,TX,NA,22.48134328358209,61.95348837209303,NA
77381,Montgomery County,TX,NA,NA,34.418604651162795,NA
77382,Montgomery County,TX,NA,NA,62.04651162790697,NA
77386,Montgomery County,TX,NA,32.742537313432834,NA,NA
77401,Harris County,TX,NA,88.8992537313433,NA,NA
77407,Fort Bend County,TX,29.106628242074926,NA,NA,NA
77414,Matagorda County,TX,78.38616714697406,NA,NA,NA
77423,Waller County,TX,NA,88.05970149253731,NA,NA
77429,Harris County,TX,NA,NA,3.7209302325581395,NA
77433,Harris County,TX,NA,9.701492537313433,16.930232558139537,NA
77447,Harris County,TX,NA,NA,87.81395348837209,NA
77450,Harris County,TX,NA,37.22014925373134,NA,NA
77459,Fort Bend County,TX,NA,NA,10.232558139534884,NA
77469,Fort Bend County,TX,NA,NA,32.93023255813953,NA
77479,Fort Bend County,TX,13.544668587896252,28.35820895522388,NA,NA
77489,Fort Bend County,TX,NA,63.24626865671642,NA,NA
77493,Harris County,TX,NA,61.19402985074627,NA,NA
77511,Brazoria County,TX,NA,NA,11.534883720930232,NA
77518,Galveston County,TX,NA,89.8320895522388,NA,NA
77531,Brazoria County,TX,NA,NA,82.32558139534883,NA
77539,Galveston County,TX,5.475504322766571,NA,9.767441860465116,NA
77568,Galveston County,TX,NA,NA,NA,62.661737523105366
77573,Galveston County,TX,NA,NA,3.441860465116279,NA
77583,Brazoria County,TX,NA,NA,NA,88.17005545286506
77587,Harris County,TX,71.75792507204612,NA,NA,93.90018484288355
77591,Galveston County,TX,NA,55.970149253731336,NA,NA
77627,Jefferson County,TX,NA,NA,86.51162790697674,NA
77640,Jefferson County,TX,NA,NA,63.90697674418605,NA
77642,Jefferson County,TX,NA,27.51865671641791,NA,NA
77705,Jefferson County,TX,NA,41.97761194029851,NA,NA
77802,Brazos County,TX,NA,22.8544776119403,NA,NA
77808,Brazos County,TX,NA,NA,NA,80.40665434380776
77833,Washington County,TX,NA,NA,63.06976744186047,NA
77836,Burleson County,TX,NA,66.23134328358209,NA,NA
77840,Brazos County,TX,NA,44.49626865671642,NA,95.56377079482439
77845,Brazos County,TX,NA,NA,NA,40.85027726432532
77901,Victoria County,TX,NA,NA,18.88372093023256,NA
77979,Calhoun County,TX,NA,NA,62.697674418604656,NA
78006,Kendall County,TX,NA,83.48880597014924,NA,NA
78040,Webb County,TX,NA,NA,38.04651162790697,NA
78041,Webb County,TX,NA,NA,20.186046511627907,NA
78045,Webb County,TX,NA,20.242537313432834,NA,NA
78046,Webb County,TX,NA,64.92537313432835,NA,NA
78063,Bandera County,TX,96.82997118155619,NA,NA,96.85767097966729
78207,Bexar County,TX,4.034582132564841,NA,NA,NA
78210,Bexar County,TX,NA,NA,51.90697674418605,NA
78213,Bexar County,TX,NA,46.082089552238806,NA,NA
78218,Bexar County,TX,NA,76.86567164179104,NA,NA
78222,Bexar County,TX,NA,66.32462686567165,NA,NA
78227,Bexar County,TX,NA,35.44776119402985,NA,NA
78239,Bexar County,TX,NA,NA,69.02325581395348,NA
78245,Bexar County,TX,57.636887608069166,73.50746268656717,NA,50.09242144177449
78251,Bexar County,TX,NA,NA,NA,65.61922365988909
78253,Bexar County,TX,22.478386167146976,56.809701492537314,NA,NA
78260,Bexar County,TX,NA,NA,86.4186046511628,NA
78501,Hidalgo County,TX,NA,NA,NA,15.89648798521257
78504,Hidalgo County,TX,NA,38.61940298507462,45.02325581395349,NA
78541,Hidalgo County,TX,NA,NA,61.86046511627907,NA
78542,Hidalgo County,TX,30.547550432276655,NA,NA,NA
78550,Cameron County,TX,NA,NA,NA,33.271719038817004
78552,Cameron County,TX,NA,NA,71.06976744186046,NA
78574,Hidalgo County,TX,NA,NA,35.16279069767442,NA
78578,Cameron County,TX,NA,NA,89.3953488372093,NA
78589,Hidalgo County,TX,NA,38.992537313432834,NA,NA
78596,Hidalgo County,TX,NA,NA,NA,35.12014787430684
78611,Burnet County,TX,NA,NA,NA,19.038817005545287
78617,Travis County,TX,48.414985590778095,NA,NA,NA
78620,Hays County,TX,NA,NA,89.48837209302326,NA
78629,Gonzales County,TX,NA,NA,NA,64.69500924214418
78641,Williamson County,TX,NA,18.75,16.37209302325581,NA
78657,Llano County,TX,NA,NA,NA,86.32162661737523
78723,Travis County,TX,NA,60.447761194029844,NA,NA
78748,Travis County,TX,NA,NA,NA,73.93715341959334
78754,Travis County,TX,NA,80.31716417910447,NA,NA
78852,Maverick County,TX,30.835734870317005,NA,NA,NA
78934,Colorado County,TX,NA,87.40671641791045,NA,NA
78942,Lee County,TX,NA,NA,NA,79.66728280961183
78945,Fayette County,TX,NA,92.72388059701493,NA,NA
78956,Fayette County,TX,NA,NA,92.93023255813954,NA
79107,Potter County,TX,NA,32.83582089552239,NA,NA
79109,Randall County,TX,NA,NA,44.27906976744186,NA
79121,Randall County,TX,NA,NA,95.90697674418604,NA
79124,Potter County,TX,NA,95.80223880597015,NA,NA
79316,Terry County,TX,NA,86.75373134328358,NA,NA
79416,Lubbock County,TX,39.481268011527376,NA,NA,NA
79423,Lubbock County,TX,NA,27.798507462686565,NA,NA
79424,Lubbock County,TX,NA,NA,8.186046511627906,20.88724584103512
79602,Taylor County,TX,NA,NA,53.116279069767444,75.04621072088725
79605,Taylor County,TX,36.887608069164266,37.6865671641791,NA,NA
79707,Midland County,TX,NA,NA,43.53488372093023,NA
79764,Ector County,TX,NA,55.03731343283582,NA,NA
79838,El Paso County,TX,NA,NA,NA,97.59704251386322
79925,El Paso County,TX,NA,NA,51.72093023255814,NA
79930,El Paso County,TX,NA,NA,73.95348837209302,NA
79936,El Paso County,TX,NA,10.167910447761194,NA,NA
79938,El Paso County,TX,NA,30.597014925373134,64.83720930232558,NA
84003,Utah County,UT,NA,42.91044776119403,NA,NA
84004,Utah County,UT,NA,97.48134328358209,NA,NA
84009,Salt Lake County,UT,NA,NA,59.44186046511628,81.33086876155268
84037,Davis County,UT,93.37175792507205,NA,NA,NA
84041,Davis County,UT,20.172910662824208,NA,NA,NA
84054,Davis County,UT,87.31988472622479,NA,NA,NA
84065,Salt Lake County,UT,NA,NA,NA,71.71903881700554
84081,Salt Lake County,UT,NA,29.1044776119403,NA,NA
84095,Salt Lake County,UT,NA,NA,26.325581395348834,NA
84096,Salt Lake County,UT,NA,75.83955223880598,NA,NA
84098,Summit County,UT,NA,NA,48.372093023255815,NA
84106,Salt Lake County,UT,NA,34.14179104477612,NA,NA
84108,Salt Lake County,UT,NA,84.98134328358209,NA,NA
84120,Salt Lake County,UT,NA,6.902985074626866,NA,NA
84121,Salt Lake County,UT,NA,NA,14.790697674418604,NA
84401,Weber County,UT,NA,NA,50.883720930232556,NA
84404,Weber County,UT,14.409221902017292,NA,37.48837209302325,NA
84651,Utah County,UT,NA,NA,93.5813953488372,NA
84663,Utah County,UT,NA,NA,NA,87.43068391866913
84770,Washington County,UT,NA,37.96641791044777,NA,NA
84790,Washington County,UT,NA,NA,12.186046511627907,NA
05156,Windsor County,VT,NA,NA,64.65116279069767,NA
05468,Chittenden County,VT,NA,67.3507462686567,NA,NA
05701,Rutland County,VT,NA,NA,8.279069767441861,NA
05753,Addison County,VT,NA,NA,NA,63.4011090573013
20105,Loudoun County,VA,84.72622478386167,84.51492537313433,NA,NA
20111,Prince William County,VA,45.53314121037464,NA,NA,NA
20132,Loudoun County,VA,NA,NA,90.60465116279069,NA
20136,Prince William County,VA,NA,NA,86.88372093023256,NA
20169,Prince William County,VA,NA,93.00373134328358,NA,NA
20181,Prince William County,VA,NA,96.54850746268657,NA,NA
20186,Fauquier County,VA,NA,NA,72.46511627906976,NA
20191,Fairfax County,VA,NA,73.32089552238806,NA,NA
22015,Fairfax County,VA,NA,NA,46.97674418604651,NA
22025,Prince William County,VA,NA,NA,79.53488372093022,NA
22033,Fairfax County,VA,NA,60.07462686567165,NA,NA
22041,Fairfax County,VA,NA,NA,NA,68.20702402957485
22042,Fairfax County,VA,NA,51.11940298507462,NA,NA
22102,Fairfax County,VA,NA,NA,78.4186046511628,NA
22152,Fairfax County,VA,NA,55.03731343283582,NA,NA
22192,Prince William County,VA,NA,16.791044776119403,NA,NA
22193,Prince William County,VA,NA,NA,17.767441860465116,NA
22201,Arlington County,VA,NA,59.32835820895522,NA,NA
22204,Arlington County,VA,NA,26.77238805970149,NA,NA
22205,Arlington County,VA,70.60518731988472,NA,NA,NA
22302,Alexandria city,VA,NA,NA,NA,92.79112754158965
22305,Alexandria city,VA,NA,74.25373134328358,NA,NA
22310,Fairfax County,VA,NA,NA,66.69767441860465,NA
22311,Alexandria city,VA,NA,NA,NA,69.87060998151571
22314,Alexandria city,VA,NA,NA,50.51162790697674,NA
22407,Spotsylvania County,VA,NA,15.298507462686567,NA,NA
22443,Westmoreland County,VA,NA,86.94029850746269,NA,NA
22554,Stafford County,VA,NA,63.99253731343284,NA,NA
22560,Essex County,VA,NA,NA,85.86046511627907,NA
22602,Frederick County,VA,53.602305475504316,NA,NA,NA
22620,Clarke County,VA,99.13544668587896,NA,NA,NA
22630,Warren County,VA,9.798270893371757,NA,32.27906976744186,NA
22801,Harrisonburg city,VA,NA,NA,34.325581395348834,26.80221811460259
22802,Harrisonburg city,VA,NA,NA,NA,32.90203327171904
22815,Rockingham County,VA,NA,NA,NA,61.737523105360445
22827,Rockingham County,VA,NA,NA,69.48837209302326,NA
22901,Albemarle County,VA,NA,31.902985074626866,NA,NA
22968,Greene County,VA,68.87608069164266,NA,NA,85.76709796672827
22980,Waynesboro city,VA,NA,7.649253731343284,NA,3.6968576709796674
23093,Louisa County,VA,NA,84.70149253731343,NA,NA
23113,Chesterfield County,VA,NA,NA,52.55813953488372,NA
23168,James City County,VA,NA,87.22014925373134,NA,NA
23188,James City County,VA,NA,NA,1.7674418604651163,0.5545286506469501
23223,Henrico County,VA,NA,NA,45.48837209302326,NA
23229,Henrico County,VA,NA,NA,41.3953488372093,NA
23231,Henrico County,VA,NA,20.149253731343283,NA,NA
23234,Chesterfield County,VA,NA,NA,30.697674418604652,NA
23236,Chesterfield County,VA,NA,NA,46.325581395348834,NA
23294,Henrico County,VA,NA,NA,96.37209302325581,NA
23321,Chesapeake city,VA,NA,NA,29.3953488372093,NA
23322,Chesapeake city,VA,NA,NA,21.11627906976744,NA
23323,Chesapeake city,VA,NA,NA,32.46511627906977,NA
23435,Suffolk city,VA,NA,NA,33.30232558139535,NA
23452,Virginia Beach city,VA,NA,NA,7.534883720930233,9.426987060998151
23453,Virginia Beach city,VA,NA,NA,35.06976744186046,NA
23455,Virginia Beach city,VA,NA,NA,NA,1.1090573012939002
23456,Virginia Beach city,VA,NA,NA,NA,17.190388170055453
23502,Norfolk city,VA,NA,33.76865671641791,NA,NA
23504,Norfolk city,VA,NA,NA,54.04651162790698,NA
23505,Norfolk city,VA,NA,38.24626865671642,30.046511627906973,NA
23608,Newport News city,VA,NA,16.417910447761194,NA,NA
23666,Hampton city,VA,NA,NA,NA,9.057301293900185
23704,Portsmouth city,VA,NA,61.56716417910447,NA,NA
23834,Colonial Heights city,VA,NA,NA,63.441860465116285,NA
24066,Botetourt County,VA,NA,NA,97.30232558139534,NA
24078,Henry County,VA,NA,NA,NA,92.97597042513863
24095,Bedford County,VA,NA,96.17537313432835,NA,NA
24134,Giles County,VA,NA,NA,NA,78.00369685767097
24179,Roanoke County,VA,NA,NA,46.04651162790698,NA
24202,Washington County,VA,NA,NA,53.860465116279066,NA
24210,Washington County,VA,NA,NA,45.48837209302326,NA
24219,Wise County,VA,NA,39.55223880597015,NA,NA
24228,Dickenson County,VA,NA,68.75,NA,NA
24244,Scott County,VA,NA,84.88805970149254,NA,NA
24260,Russell County,VA,NA,NA,NA,70.0554528650647
24319,Smyth County,VA,NA,NA,84.46511627906976,NA
24333,Galax city,VA,NA,NA,52.83720930232558,NA
24343,Carroll County,VA,NA,NA,72.18604651162791,NA
24502,Lynchburg city,VA,68.29971181556196,NA,NA,NA
24517,Campbell County,VA,NA,NA,NA,82.0702402957486
24523,Bedford County,VA,NA,NA,39.53488372093023,NA
24550,Campbell County,VA,NA,NA,86.88372093023256,NA
24651,Tazewell County,VA,NA,87.59328358208955,NA,NA
98019,King County,WA,NA,NA,97.86046511627907,NA
98026,Snohomish County,WA,NA,33.30223880597015,NA,NA
98029,King County,WA,NA,NA,87.25581395348837,NA
98030,King County,WA,37.46397694524496,NA,NA,NA
98032,King County,WA,NA,NA,46.23255813953489,NA
98034,King County,WA,NA,31.529850746268657,12.372093023255815,NA
98045,King County,WA,NA,80.69029850746269,NA,NA
98065,King County,WA,NA,82.36940298507463,NA,NA
98092,King County,WA,NA,21.26865671641791,NA,NA
98102,King County,WA,NA,72.48134328358209,NA,NA
98103,King County,WA,NA,NA,NA,48.613678373382626
98115,King County,WA,65.12968299711815,NA,NA,NA
98117,King County,WA,NA,61.66044776119403,NA,NA
98126,King County,WA,NA,NA,59.906976744186046,NA
98146,King County,WA,NA,59.70149253731343,NA,NA
98155,King County,WA,NA,NA,NA,43.253234750462106
98166,King County,WA,NA,NA,51.44186046511627,NA
98203,Snohomish County,WA,NA,NA,32.651162790697676,NA
98251,Snohomish County,WA,NA,98.0410447761194,NA,NA
98252,Snohomish County,WA,NA,81.25,NA,NA
98274,Skagit County,WA,NA,63.33955223880597,41.76744186046511,NA
98284,Skagit County,WA,NA,78.54477611940298,NA,NA
98294,Snohomish County,WA,NA,90.57835820895522,NA,NA
98328,Pierce County,WA,NA,NA,NA,90.38817005545286
98333,Pierce County,WA,NA,NA,99.25581395348837,NA
98335,Pierce County,WA,NA,59.79477611940298,NA,NA
98346,Kitsap County,WA,NA,94.86940298507463,NA,NA
98360,Pierce County,WA,NA,NA,85.48837209302326,NA
98366,Kitsap County,WA,NA,NA,NA,68.94639556377079
98367,Kitsap County,WA,NA,76.9589552238806,NA,NA
98372,Pierce County,WA,NA,NA,NA,60.0739371534196
98373,Pierce County,WA,NA,68.65671641791045,NA,NA
98391,Pierce County,WA,NA,12.033582089552239,NA,NA
98407,Pierce County,WA,NA,NA,89.67441860465117,NA
98466,Pierce County,WA,NA,NA,33.48837209302326,NA
98499,Pierce County,WA,NA,43.28358208955223,NA,NA
98501,Thurston County,WA,NA,NA,36.27906976744186,NA
98502,Thurston County,WA,NA,62.406716417910445,NA,NA
98512,Thurston County,WA,NA,80.78358208955224,NA,NA
98531,Lewis County,WA,NA,73.13432835820896,NA,NA
98661,Clark County,WA,NA,NA,NA,42.69870609981516
98682,Clark County,WA,NA,NA,45.02325581395349,36.22920517560074
98801,Chelan County,WA,NA,NA,6.046511627906977,NA
98802,Douglas County,WA,NA,NA,NA,59.88909426987061
98855,Okanogan County,WA,NA,NA,NA,92.2365988909427
99016,Spokane County,WA,NA,86.19402985074626,NA,NA
99203,Spokane County,WA,NA,82.74253731343283,NA,NA
99206,Spokane County,WA,59.0778097982709,NA,NA,NA
99217,Spokane County,WA,NA,77.1455223880597,NA,NA
99301,Franklin County,WA,NA,NA,32.093023255813954,NA
99336,Benton County,WA,11.527377521613833,NA,NA,NA
99337,Benton County,WA,NA,NA,5.674418604651163,NA
99338,Benton County,WA,NA,NA,NA,67.8373382624769
20003,District of Columbia,DC,NA,49.25373134328358,NA,NA
20010,District of Columbia,DC,NA,NA,48.372093023255815,NA
20011,District of Columbia,DC,NA,NA,NA,5.360443622920517
20015,District of Columbia,DC,38.61671469740634,NA,NA,NA
25143,Kanawha County,WV,NA,NA,69.30232558139535,NA
25271,Jackson County,WV,NA,66.88432835820896,NA,NA
25302,Kanawha County,WV,NA,NA,57.02325581395349,NA
25303,Kanawha County,WV,NA,NA,78.23255813953487,NA
25312,Kanawha County,WV,NA,NA,52,NA
25411,Morgan County,WV,NA,NA,52.46511627906977,NA
25413,Berkeley County,WV,NA,80.8768656716418,NA,NA
25438,Jefferson County,WV,NA,NA,NA,92.60628465804066
25541,Cabell County,WV,NA,NA,77.95348837209303,NA
25570,Wayne County,WV,NA,72.20149253731343,89.95348837209303,NA
25678,Mingo County,WV,NA,98.6007462686567,NA,NA
25705,Cabell County,WV,NA,94.68283582089553,NA,NA
25801,Raleigh County,WV,NA,NA,NA,12.384473197781885
26003,Ohio County,WV,NA,5.223880597014925,NA,NA
26062,Hancock County,WV,NA,NA,23.72093023255814,NA
26101,Wood County,WV,NA,NA,29.953488372093023,NA
26105,Wood County,WV,NA,NA,NA,31.053604436229204
26155,Wetzel County,WV,NA,79.57089552238806,NA,NA
26181,Wood County,WV,NA,NA,87.62790697674419,NA
26187,Wood County,WV,67.72334293948127,NA,NA,NA
26354,Taylor County,WV,44.09221902017291,NA,NA,NA
26508,Monongalia County,WV,22.19020172910663,NA,NA,NA
26554,Marion County,WV,NA,4.104477611940299,49.58139534883721,NA
53005,Waukesha County,WI,NA,NA,48.837209302325576,NA
53014,Calumet County,WI,85.87896253602305,NA,NA,NA
53024,Ozaukee County,WI,NA,NA,NA,24.214417744916823
53051,Waukesha County,WI,18.155619596541786,NA,NA,NA
53061,Calumet County,WI,98.84726224783861,NA,NA,NA
53066,Waukesha County,WI,NA,38.899253731343286,10.325581395348838,NA
53072,Waukesha County,WI,NA,NA,75.25581395348837,NA
53073,Sheboygan County,WI,NA,82.36940298507463,NA,NA
53081,Sheboygan County,WI,NA,NA,21.674418604651162,NA
53086,Washington County,WI,NA,NA,92.37209302325581,NA
53090,Washington County,WI,NA,NA,NA,63.58595194085028
53115,Walworth County,WI,NA,NA,NA,45.28650646950093
53121,Walworth County,WI,NA,43.37686567164179,NA,NA
53132,Milwaukee County,WI,NA,38.71268656716418,NA,NA
53140,Kenosha County,WI,NA,NA,21.86046511627907,NA
53142,Kenosha County,WI,NA,NA,NA,75.97042513863215
53143,Kenosha County,WI,NA,NA,26.790697674418606,NA
53144,Kenosha County,WI,NA,NA,NA,94.08502772643253
53168,Kenosha County,WI,63.976945244956774,58.115671641791046,NA,NA
53186,Waukesha County,WI,82.42074927953891,NA,NA,NA
53188,Waukesha County,WI,13.8328530259366,NA,NA,NA
53208,Milwaukee County,WI,NA,NA,NA,60.81330868761553
53209,Milwaukee County,WI,1.440922190201729,NA,NA,NA
53213,Milwaukee County,WI,50.43227665706051,NA,NA,NA
53216,Milwaukee County,WI,NA,NA,NA,43.992606284658045
53217,Milwaukee County,WI,NA,34.048507462686565,NA,NA
53220,Milwaukee County,WI,69.7406340057637,29.384328358208954,NA,NA
53221,Milwaukee County,WI,NA,NA,NA,14.232902033271719
53224,Milwaukee County,WI,NA,NA,51.53488372093024,NA
53227,Milwaukee County,WI,NA,NA,NA,21.072088724584106
53511,Rock County,WI,NA,NA,NA,0
53538,Jefferson County,WI,NA,NA,35.44186046511628,NA
53549,Jefferson County,WI,NA,NA,52.74418604651163,NA
53578,Sauk County,WI,NA,99.81343283582089,NA,NA
53597,Dane County,WI,NA,NA,87.06976744186046,NA
53704,Dane County,WI,NA,NA,14.418604651162791,NA
53711,Dane County,WI,17.579250720461097,NA,NA,NA
53718,Dane County,WI,NA,77.51865671641791,NA,NA
53807,Grant County,WI,NA,NA,98.13953488372093,NA
53916,Dodge County,WI,NA,NA,NA,68.02218114602587
54016,St. Croix County,WI,NA,75.18656716417911,NA,46.21072088724584
54110,Calumet County,WI,NA,NA,96.74418604651163,NA
54136,Outagamie County,WI,84.43804034582134,NA,NA,NA
54143,Marinette County,WI,NA,47.76119402985074,NA,42.883548983364136
54153,Oconto County,WI,NA,NA,83.90697674418604,NA
54154,Oconto County,WI,NA,NA,88.74418604651163,NA
54162,Brown County,WI,85.01440922190201,NA,NA,NA
54166,Shawano County,WI,NA,NA,NA,50.64695009242144
54313,Brown County,WI,NA,84.42164179104478,31.16279069767442,NA
54409,Langlade County,WI,NA,NA,20.093023255813954,NA
54481,Portage County,WI,NA,17.16417910447761,NA,10.536044362292053
54494,Wood County,WI,NA,63.71268656716418,NA,NA
54636,La Crosse County,WI,NA,NA,NA,57.85582255083179
54669,La Crosse County,WI,NA,NA,NA,74.3068391866913
54703,Eau Claire County,WI,NA,NA,29.023255813953487,NA
54812,Barron County,WI,83.86167146974063,NA,NA,NA
54843,Sawyer County,WI,NA,NA,81.11627906976744,NA
54891,Bayfield County,WI,NA,NA,97.11627906976744,NA
54893,Burnett County,WI,NA,NA,NA,84.4731977818854
54901,Winnebago County,WI,NA,25.652985074626866,NA,NA
54902,Winnebago County,WI,NA,NA,NA,39.37153419593346
54914,Outagamie County,WI,NA,19.962686567164177,NA,NA
82072,Albany County,WY,NA,NA,NA,87.43068391866913
82633,Converse County,WY,NA,NA,57.02325581395349,NA
82718,Campbell County,WY,NA,56.99626865671642,NA,NA
82801,Sheridan County,WY,NA,NA,63.16279069767442,NA
82930,Uinta County,WY,NA,86.47388059701493,NA,NA
82941,Sublette County,WY,NA,99.06716417910447,NA,NA
