ZipCode,county,state,Adult,Retirement,Geriatric
35020,Jefferson County,AL,NA,29.023746701846964,NA
35023,Jefferson County,AL,31.372549019607842,NA,NA
35058,Cullman County,AL,NA,NA,91.20370370370371
35206,Jefferson County,AL,NA,NA,58.333333333333336
35207,Jefferson County,AL,96.56862745098039,NA,NA
35208,Jefferson County,AL,40.19607843137255,NA,NA
35218,Jefferson County,AL,NA,84.69656992084433,NA
35242,Shelby County,AL,NA,10.554089709762533,NA
35553,Winston County,AL,NA,98.94459102902374,NA
35570,Marion County,AL,NA,76.51715039577837,NA
35603,Morgan County,AL,NA,NA,26.620370370370374
35661,Colbert County,AL,NA,89.44591029023746,NA
35802,Madison County,AL,NA,NA,18.75
35904,Etowah County,AL,NA,NA,70.13888888888889
36081,Pike County,AL,NA,NA,91.66666666666666
36201,Calhoun County,AL,NA,48.02110817941953,NA
36330,Coffee County,AL,NA,NA,74.76851851851852
36526,Baldwin County,AL,NA,NA,27.77777777777778
36535,Baldwin County,AL,NA,NA,78.93518518518519
36575,Mobile County,AL,58.333333333333336,NA,NA
36604,Mobile County,AL,NA,85.75197889182058,NA
36703,Dallas County,AL,NA,80.21108179419525,NA
36830,Lee County,AL,NA,NA,53.93518518518518
99508,Anchorage Municipality,AK,NA,36.93931398416886,NA
99603,Kenai Peninsula Borough,AK,75.98039215686273,NA,NA
85022,Maricopa County,AZ,NA,26.649076517150394,NA
85029,Maricopa County,AZ,NA,82.84960422163589,NA
85032,Maricopa County,AZ,NA,NA,46.99074074074074
85206,Maricopa County,AZ,47.549019607843135,NA,NA
85208,Maricopa County,AZ,NA,NA,57.407407407407405
85226,Maricopa County,AZ,NA,NA,69.67592592592592
85234,Maricopa County,AZ,NA,NA,81.25
85258,Maricopa County,AZ,66.17647058823529,NA,NA
85260,Maricopa County,AZ,NA,81.00263852242745,NA
85338,Maricopa County,AZ,94.11764705882352,NA,NA
85390,Maricopa County,AZ,NA,61.74142480211082,NA
85541,Gila County,AZ,NA,69.65699208443272,NA
85653,Pima County,AZ,NA,NA,90.50925925925925
85713,Pima County,AZ,NA,NA,19.444444444444446
85719,Pima County,AZ,NA,37.46701846965699,NA
85730,Pima County,AZ,NA,25.857519788918204,NA
85737,Pima County,AZ,NA,73.35092348284961,NA
71832,Sevier County,AR,NA,72.0316622691293,NA
72012,White County,AR,NA,66.2269129287599,NA
72432,Poinsett County,AR,NA,NA,75
72450,Greene County,AR,NA,NA,27.083333333333332
72653,Baxter County,AR,NA,NA,9.49074074074074
72762,Washington County,AR,NA,NA,49.53703703703704
90008,Los Angeles County,CA,NA,NA,23.84259259259259
90011,Los Angeles County,CA,57.35294117647059,NA,NA
90018,Los Angeles County,CA,NA,30.343007915567284,NA
90025,Los Angeles County,CA,NA,NA,9.25925925925926
90044,Los Angeles County,CA,NA,NA,32.870370370370374
90212,Los Angeles County,CA,NA,NA,60.416666666666664
90220,Los Angeles County,CA,NA,54.88126649076517,NA
90280,Los Angeles County,CA,NA,34.82849604221636,NA
90305,Los Angeles County,CA,NA,NA,66.43518518518519
90503,Los Angeles County,CA,NA,NA,32.407407407407405
90605,Los Angeles County,CA,NA,67.28232189973615,NA
90631,Orange County,CA,NA,13.456464379947231,NA
90706,Los Angeles County,CA,NA,34.300791556728235,NA
90723,Los Angeles County,CA,53.431372549019606,NA,NA
90745,Los Angeles County,CA,67.64705882352942,NA,NA
90805,Los Angeles County,CA,NA,NA,48.148148148148145
90806,Los Angeles County,CA,NA,55.67282321899736,NA
90807,Los Angeles County,CA,52.94117647058824,NA,NA
91214,Los Angeles County,CA,NA,NA,46.06481481481482
91304,Los Angeles County,CA,97.05882352941177,NA,NA
91326,Los Angeles County,CA,NA,NA,39.81481481481482
91331,Los Angeles County,CA,NA,NA,30.555555555555557
91352,Los Angeles County,CA,NA,41.68865435356201,NA
91709,San Bernardino County,CA,NA,26.385224274406333,NA
91724,Los Angeles County,CA,NA,NA,68.75
91733,Los Angeles County,CA,NA,64.37994722955145,NA
91744,Los Angeles County,CA,NA,24.80211081794195,NA
91745,Los Angeles County,CA,NA,NA,59.72222222222222
91762,San Bernardino County,CA,NA,NA,48.842592592592595
91765,Los Angeles County,CA,63.725490196078425,NA,50.46296296296296
91902,San Diego County,CA,84.80392156862744,NA,NA
91935,San Diego County,CA,NA,NA,92.36111111111111
92029,San Diego County,CA,NA,NA,63.19444444444444
92054,San Diego County,CA,NA,NA,90.27777777777779
92111,San Diego County,CA,NA,75.19788918205805,NA
92126,San Diego County,CA,47.05882352941176,NA,NA
92129,San Diego County,CA,NA,46.17414248021108,NA
92154,San Diego County,CA,NA,NA,12.731481481481483
92201,Riverside County,CA,NA,NA,59.02777777777778
92220,Riverside County,CA,NA,NA,24.76851851851852
92240,Riverside County,CA,NA,35.09234828496042,NA
92274,Riverside County,CA,NA,NA,72.68518518518519
92335,San Bernardino County,CA,NA,12.137203166226913,NA
92359,San Bernardino County,CA,NA,NA,97.22222222222221
92376,San Bernardino County,CA,NA,NA,87.96296296296296
92382,San Bernardino County,CA,NA,NA,98.8425925925926
92410,San Bernardino County,CA,NA,30.606860158311346,NA
92508,Riverside County,CA,NA,NA,80.32407407407408
92563,Riverside County,CA,NA,39.31398416886543,NA
92585,Riverside County,CA,NA,NA,90.04629629629629
92596,Riverside County,CA,71.07843137254902,NA,NA
92626,Orange County,CA,NA,42.21635883905013,29.166666666666668
92629,Orange County,CA,NA,NA,67.5925925925926
92677,Orange County,CA,33.82352941176471,NA,NA
92683,Orange County,CA,NA,NA,5.555555555555555
92821,Orange County,CA,88.23529411764706,NA,NA
92831,Orange County,CA,NA,NA,92.5925925925926
92833,Orange County,CA,NA,29.551451187335093,NA
93023,Ventura County,CA,NA,NA,51.85185185185185
93286,Tulare County,CA,NA,97.62532981530343,NA
93307,Kern County,CA,10.784313725490197,NA,NA
93308,Kern County,CA,NA,NA,37.96296296296296
93309,Kern County,CA,NA,NA,30.324074074074076
93427,Santa Barbara County,CA,NA,NA,95.60185185185185
93535,Los Angeles County,CA,6.372549019607843,NA,NA
93722,Fresno County,CA,NA,11.609498680738787,NA
93906,Monterey County,CA,NA,40.369393139841684,NA
94080,San Mateo County,CA,NA,NA,71.75925925925925
94103,San Francisco County,CA,NA,NA,46.52777777777778
94109,San Francisco County,CA,NA,NA,4.62962962962963
94114,San Francisco County,CA,NA,NA,87.03703703703704
94117,San Francisco County,CA,NA,40.633245382585756,NA
94121,San Francisco County,CA,NA,NA,10.416666666666668
94303,San Mateo County,CA,NA,NA,25.23148148148148
94404,San Mateo County,CA,NA,43.007915567282325,NA
94505,Contra Costa County,CA,NA,NA,82.87037037037037
94506,Contra Costa County,CA,NA,NA,75.23148148148148
94510,Solano County,CA,NA,59.63060686015831,NA
94544,Alameda County,CA,NA,NA,53.47222222222222
94545,Alameda County,CA,NA,NA,56.018518518518526
94564,Contra Costa County,CA,NA,NA,62.03703703703704
94580,Alameda County,CA,NA,NA,55.32407407407407
94611,Alameda County,CA,NA,20.844327176781004,NA
94619,Alameda County,CA,NA,58.04749340369393,NA
94702,Alameda County,CA,NA,NA,65.50925925925925
94806,Contra Costa County,CA,NA,56.72823218997362,NA
94949,Marin County,CA,NA,66.49076517150397,NA
94954,Sonoma County,CA,NA,32.98153034300791,28.703703703703702
95076,Santa Cruz County,CA,NA,14.24802110817942,NA
95206,San Joaquin County,CA,21.07843137254902,NA,NA
95207,San Joaquin County,CA,21.568627450980394,NA,NA
95210,San Joaquin County,CA,NA,NA,65.04629629629629
95351,Stanislaus County,CA,NA,67.81002638522428,NA
95380,Stanislaus County,CA,NA,NA,53.24074074074075
95383,Tuolumne County,CA,NA,80.47493403693932,NA
95422,Lake County,CA,NA,NA,88.42592592592592
95476,Sonoma County,CA,NA,33.773087071240106,NA
95661,Placer County,CA,NA,53.29815303430079,NA
95662,Sacramento County,CA,NA,NA,36.11111111111111
95678,Placer County,CA,NA,NA,56.481481481481474
95746,Placer County,CA,NA,NA,68.51851851851852
95762,El Dorado County,CA,NA,NA,37.26851851851852
95822,Sacramento County,CA,NA,NA,19.90740740740741
95829,Sacramento County,CA,NA,NA,44.44444444444444
95833,Sacramento County,CA,NA,81.26649076517151,NA
95843,Sacramento County,CA,NA,NA,72.22222222222221
95926,Butte County,CA,NA,93.13984168865436,NA
95965,Butte County,CA,NA,NA,38.88888888888889
95973,Butte County,CA,NA,NA,51.620370370370374
96001,Shasta County,CA,NA,73.08707124010554,NA
96097,Siskiyou County,CA,NA,NA,70.13888888888889
80007,Jefferson County,CO,NA,79.68337730870712,NA
80013,Arapahoe County,CO,NA,NA,41.43518518518518
80020,Broomfield County,CO,NA,32.189973614775724,NA
80027,Boulder County,CO,NA,50.3957783641161,NA
80030,Adams County,CO,NA,72.55936675461741,NA
80205,Denver County,CO,NA,NA,99.07407407407408
80260,Adams County,CO,NA,58.31134564643799,NA
80503,Boulder County,CO,NA,NA,100
80904,El Paso County,CO,NA,60.15831134564644,NA
81506,Mesa County,CO,NA,83.64116094986808,NA
81601,Garfield County,CO,NA,74.67018469656992,NA
06106,Hartford County,CT,NA,10.817941952506596,NA
06117,Hartford County,CT,NA,NA,33.56481481481482
06470,Fairfield County,CT,NA,NA,95.13888888888889
06514,New Haven County,CT,NA,92.34828496042216,NA
06519,New Haven County,CT,NA,70.71240105540898,NA
06610,Fairfield County,CT,NA,55.145118733509236,NA
06759,Litchfield County,CT,88.72549019607843,NA,NA
06830,Fairfield County,CT,NA,35.35620052770449,NA
19720,New Castle County,DE,1.9607843137254901,2.9023746701846966,NA
19810,New Castle County,DE,NA,36.147757255936675,NA
19973,Sussex County,DE,NA,18.997361477572557,NA
32025,Columbia County,FL,NA,NA,61.111111111111114
32095,St. Johns County,FL,NA,77.30870712401055,NA
32159,Lake County,FL,NA,NA,6.25
32205,Duval County,FL,NA,32.45382585751979,NA
32277,Duval County,FL,NA,NA,58.10185185185185
32456,Gulf County,FL,NA,NA,71.06481481481481
32465,Gulf County,FL,NA,72.29551451187335,NA
32501,Escambia County,FL,NA,NA,51.388888888888886
32507,Escambia County,FL,NA,10.29023746701847,NA
32526,Escambia County,FL,NA,7.12401055408971,NA
32566,Santa Rosa County,FL,NA,20.316622691292878,NA
32621,Levy County,FL,NA,NA,99.30555555555556
32714,Seminole County,FL,63.23529411764706,NA,NA
32720,Volusia County,FL,NA,37.73087071240106,NA
32750,Seminole County,FL,NA,50.131926121372025,NA
32771,Seminole County,FL,NA,33.24538258575198,38.425925925925924
32909,Brevard County,FL,NA,NA,40.0462962962963
32926,Brevard County,FL,NA,NA,17.12962962962963
32958,Indian River County,FL,NA,9.234828496042216,NA
33004,Broward County,FL,74.50980392156863,NA,NA
33014,Miami-Dade County,FL,NA,65.17150395778364,NA
33016,Miami-Dade County,FL,NA,NA,22.685185185185187
33064,Broward County,FL,NA,15.567282321899736,NA
33065,Broward County,FL,NA,NA,34.25925925925926
33127,Miami-Dade County,FL,NA,62.532981530343015,NA
33138,Miami-Dade County,FL,NA,NA,45.13888888888889
33142,Miami-Dade County,FL,17.647058823529413,NA,NA
33162,Miami-Dade County,FL,80.88235294117648,NA,NA
33165,Miami-Dade County,FL,NA,NA,3.935185185185185
33174,Miami-Dade County,FL,NA,64.1160949868074,NA
33177,Miami-Dade County,FL,NA,47.4934036939314,NA
33186,Miami-Dade County,FL,NA,77.04485488126649,NA
33311,Broward County,FL,NA,18.733509234828496,NA
33319,Broward County,FL,97.54901960784314,NA,NA
33334,Broward County,FL,NA,NA,67.12962962962963
33408,Palm Beach County,FL,NA,NA,35.18518518518518
33417,Palm Beach County,FL,NA,NA,20.13888888888889
33435,Palm Beach County,FL,48.529411764705884,NA,52.083333333333336
33625,Hillsborough County,FL,58.82352941176471,NA,NA
33756,Pinellas County,FL,NA,36.675461741424805,NA
33803,Polk County,FL,60.29411764705882,55.93667546174142,NA
33853,Polk County,FL,NA,NA,76.85185185185185
33880,Polk County,FL,56.372549019607845,NA,NA
33881,Polk County,FL,NA,NA,13.425925925925927
33908,Lee County,FL,NA,NA,0.4629629629629629
33981,Charlotte County,FL,NA,NA,62.5
33991,Lee County,FL,NA,37.203166226912934,NA
34135,Lee County,FL,NA,NA,12.268518518518519
34210,Manatee County,FL,83.33333333333334,NA,NA
34237,Sarasota County,FL,NA,87.33509234828496,NA
34285,Sarasota County,FL,NA,66.75461741424802,NA
34434,Citrus County,FL,NA,88.39050131926122,NA
34446,Citrus County,FL,NA,57.25593667546174,NA
34481,Marion County,FL,NA,NA,11.574074074074074
34761,Orange County,FL,41.17647058823529,NA,NA
34769,Osceola County,FL,NA,NA,45.601851851851855
34953,St. Lucie County,FL,3.9215686274509802,NA,NA
34986,St. Lucie County,FL,NA,NA,7.87037037037037
30012,Rockdale County,GA,NA,96.30606860158312,NA
30028,Forsyth County,GA,NA,51.71503957783641,NA
30030,DeKalb County,GA,NA,NA,74.07407407407408
30034,DeKalb County,GA,NA,21.108179419525065,NA
30047,Gwinnett County,GA,NA,NA,38.19444444444444
30075,Fulton County,GA,NA,17.678100263852244,NA
30087,DeKalb County,GA,NA,NA,30.787037037037035
30106,Cobb County,GA,NA,69.92084432717678,NA
30107,Cherokee County,GA,NA,NA,77.31481481481481
30236,Clayton County,GA,NA,38.522427440633244,NA
30306,Fulton County,GA,NA,69.39313984168865,NA
30311,Fulton County,GA,NA,NA,16.435185185185187
30317,DeKalb County,GA,69.6078431372549,NA,NA
30318,Fulton County,GA,29.411764705882355,29.287598944591032,NA
30329,DeKalb County,GA,NA,NA,63.888888888888886
30517,Jackson County,GA,NA,94.1952506596306,NA
30518,Gwinnett County,GA,37.745098039215684,NA,NA
30909,Richmond County,GA,NA,12.928759894459102,NA
31069,Houston County,GA,NA,45.382585751978894,45.83333333333333
31419,Chatham County,GA,83.82352941176471,NA,NA
31705,Dougherty County,GA,30.88235294117647,NA,NA
31779,Mitchell County,GA,85.7843137254902,NA,NA
31904,Muscogee County,GA,NA,NA,14.351851851851851
39842,Terrell County,GA,NA,63.3245382585752,NA
96701,Honolulu County,HI,NA,14.775725593667547,NA
96706,Honolulu County,HI,8.333333333333332,61.477572559366756,NA
96743,Hawaii County,HI,NA,NA,96.06481481481481
96761,Maui County,HI,NA,NA,94.67592592592592
96782,Honolulu County,HI,NA,23.7467018469657,NA
96786,Honolulu County,HI,NA,94.72295514511873,NA
96789,Honolulu County,HI,22.54901960784314,NA,NA
96797,Honolulu County,HI,NA,31.398416886543533,10.185185185185185
83440,Madison County,ID,NA,65.4353562005277,NA
83536,Idaho County,ID,NA,77.57255936675462,NA
83607,Canyon County,ID,NA,76.2532981530343,NA
83617,Gem County,ID,NA,NA,31.25
83642,Ada County,ID,NA,6.068601583113456,7.175925925925926
83706,Ada County,ID,NA,NA,50.231481481481474
83843,Latah County,ID,NA,52.5065963060686,NA
60004,Cook County,IL,25.49019607843137,NA,NA
60010,Lake County,IL,NA,NA,15.277777777777779
60014,McHenry County,IL,NA,11.081794195250659,NA
60016,Cook County,IL,24.509803921568626,NA,NA
60026,Cook County,IL,NA,NA,81.71296296296296
60067,Cook County,IL,NA,17.41424802110818,NA
60070,Cook County,IL,85.29411764705883,NA,NA
60085,Lake County,IL,NA,NA,25.23148148148148
60104,Cook County,IL,69.11764705882352,NA,NA
60110,Kane County,IL,50.49019607843137,NA,NA
60131,Cook County,IL,NA,NA,76.38888888888889
60134,Kane County,IL,NA,NA,25.694444444444443
60137,DuPage County,IL,NA,NA,44.675925925925924
60152,McHenry County,IL,NA,49.86807387862797,NA
60169,Cook County,IL,NA,NA,74.53703703703704
60401,Will County,IL,NA,72.82321899736148,NA
60404,Will County,IL,NA,82.58575197889182,NA
60411,Cook County,IL,NA,NA,17.59259259259259
60423,Will County,IL,NA,20.58047493403694,NA
60436,Will County,IL,90.19607843137256,NA,NA
60439,Cook County,IL,46.07843137254902,NA,NA
60452,Cook County,IL,NA,NA,70.83333333333334
60458,Cook County,IL,NA,98.41688654353563,NA
60461,Cook County,IL,NA,NA,70.13888888888889
60517,DuPage County,IL,NA,NA,43.51851851851852
60548,DeKalb County,IL,79.90196078431373,NA,NA
60558,Cook County,IL,NA,NA,55.78703703703704
60609,Cook County,IL,NA,NA,18.055555555555554
60619,Cook County,IL,NA,68.33773087071239,NA
60620,Cook County,IL,30.392156862745097,NA,NA
60622,Cook County,IL,NA,42.480211081794195,NA
60623,Cook County,IL,NA,NA,13.657407407407407
60624,Cook County,IL,14.215686274509803,NA,NA
60625,Cook County,IL,NA,NA,17.12962962962963
60631,Cook County,IL,32.35294117647059,NA,NA
60632,Cook County,IL,11.27450980392157,NA,NA
60647,Cook County,IL,NA,NA,32.175925925925924
60652,Cook County,IL,NA,22.95514511873351,NA
60653,Cook County,IL,NA,29.815303430079155,NA
60654,Cook County,IL,NA,78.10026385224275,NA
60656,Cook County,IL,NA,NA,71.99074074074075
60659,Cook County,IL,NA,NA,41.2037037037037
60660,Cook County,IL,73.52941176470588,NA,NA
60804,Cook County,IL,20.098039215686274,NA,NA
61065,Boone County,IL,NA,NA,88.6574074074074
61201,Rock Island County,IL,NA,NA,35.879629629629626
61571,Tazewell County,IL,NA,49.340369393139845,NA
61614,Peoria County,IL,NA,NA,21.75925925925926
61615,Peoria County,IL,75.49019607843137,NA,NA
61821,Champaign County,IL,NA,NA,11.11111111111111
61953,Douglas County,IL,91.17647058823529,NA,NA
62095,Madison County,IL,NA,93.40369393139841,NA
62204,St. Clair County,IL,95.09803921568627,NA,NA
62226,St. Clair County,IL,NA,88.39050131926122,25
62232,St. Clair County,IL,NA,NA,81.01851851851852
62254,St. Clair County,IL,95.58823529411765,NA,NA
62471,Fayette County,IL,NA,54.61741424802111,NA
62644,Mason County,IL,NA,84.1688654353562,NA
62650,Morgan County,IL,53.92156862745098,NA,NA
62902,Jackson County,IL,NA,92.61213720316623,NA
46012,Madison County,IN,NA,18.46965699208443,NA
46124,Johnson County,IN,80.3921568627451,NA,NA
46218,Marion County,IN,NA,18.20580474934037,NA
46219,Marion County,IN,NA,NA,93.98148148148148
46320,Lake County,IN,34.31372549019608,NA,NA
46356,Lake County,IN,NA,NA,78.47222222222221
46404,Lake County,IN,62.745098039215684,NA,NA
46406,Lake County,IN,61.274509803921575,NA,NA
46407,Lake County,IN,48.529411764705884,NA,NA
46619,St. Joseph County,IN,98.0392156862745,NA,NA
46628,St. Joseph County,IN,50.98039215686274,NA,62.731481481481474
46818,Allen County,IN,NA,44.06332453825858,NA
46902,Howard County,IN,NA,76.78100263852242,NA
46923,Carroll County,IN,NA,NA,79.39814814814815
46947,Cass County,IN,9.313725490196079,NA,NA
46970,Miami County,IN,NA,NA,64.35185185185185
47240,Decatur County,IN,NA,NA,59.49074074074075
47711,Vanderburgh County,IN,NA,82.32189973614776,NA
47804,Vigo County,IN,NA,NA,76.85185185185185
47834,Clay County,IN,NA,48.54881266490765,NA
50049,Lucas County,IA,NA,NA,68.05555555555556
50112,Poweshiek County,IA,NA,NA,80.78703703703704
50273,Madison County,IA,NA,96.56992084432717,NA
50310,Polk County,IA,NA,NA,40.50925925925926
50613,Black Hawk County,IA,NA,NA,4.166666666666666
50701,Black Hawk County,IA,NA,NA,13.88888888888889
51401,Carroll County,IA,NA,NA,54.39814814814815
52060,Jackson County,IA,NA,NA,98.14814814814815
52172,Allamakee County,IA,NA,NA,89.35185185185185
52310,Jones County,IA,NA,NA,95.37037037037037
52405,Linn County,IA,NA,70.44854881266491,NA
66006,Douglas County,KS,NA,88.91820580474933,NA
66608,Shawnee County,KS,98.52941176470588,NA,NA
66609,Shawnee County,KS,NA,NA,86.80555555555556
67124,Pratt County,KS,NA,NA,68.98148148148148
67206,Sedgwick County,KS,NA,80.73878627968337,NA
67501,Reno County,KS,NA,NA,82.17592592592592
40212,Jefferson County,KY,NA,NA,85.87962962962963
40217,Jefferson County,KY,NA,NA,78.24074074074075
40218,Jefferson County,KY,NA,67.54617414248021,NA
40219,Jefferson County,KY,10.294117647058822,NA,NA
40361,Bourbon County,KY,36.76470588235294,NA,NA
40391,Clark County,KY,NA,9.762532981530343,NA
40475,Madison County,KY,NA,7.9155672823219,NA
41011,Kenton County,KY,45.588235294117645,NA,NA
41179,Lewis County,KY,60.78431372549019,NA,NA
41311,Lee County,KY,NA,74.40633245382587,NA
41465,Magoffin County,KY,NA,63.58839050131926,NA
42071,Calloway County,KY,NA,NA,37.03703703703704
42301,Daviess County,KY,35.294117647058826,NA,NA
42303,Daviess County,KY,NA,NA,18.51851851851852
42701,Hardin County,KY,39.705882352941174,NA,NA
70001,Jefferson Parish,LA,NA,7.387862796833773,NA
70056,Jefferson Parish,LA,3.431372549019608,NA,NA
70068,St. John the Baptist Parish,LA,NA,13.720316622691293,NA
70094,Jefferson Parish,LA,NA,NA,76.1574074074074
70126,Orleans Parish,LA,48.03921568627451,NA,NA
70433,St. Tammany Parish,LA,NA,NA,5.092592592592593
70444,Tangipahoa Parish,LA,NA,97.0976253298153,NA
70503,Lafayette Parish,LA,NA,24.274406332453825,NA
70507,Lafayette Parish,LA,NA,45.64643799472295,NA
70807,East Baton Rouge Parish,LA,NA,60.94986807387863,NA
70810,East Baton Rouge Parish,LA,NA,NA,53.00925925925925
71251,Jackson Parish,LA,NA,NA,73.61111111111111
04043,York County,ME,NA,NA,25.925925925925924
04736,Aroostook County,ME,NA,40.89709762532981,NA
04901,Kennebec County,ME,NA,NA,59.95370370370371
04950,Somerset County,ME,NA,NA,45.370370370370374
20653,St. Mary's County,MD,61.76470588235294,71.2401055408971,NA
20772,Prince George's County,MD,NA,NA,80.55555555555556
20877,Montgomery County,MD,NA,NA,54.861111111111114
20906,Montgomery County,MD,NA,NA,42.36111111111111
21117,Baltimore County,MD,NA,NA,37.5
21210,Baltimore city,MD,NA,NA,76.38888888888889
21212,Baltimore city,MD,NA,NA,33.7962962962963
21223,Baltimore city,MD,93.62745098039215,NA,NA
21502,Allegany County,MD,NA,52.770448548812666,6.481481481481481
21727,Frederick County,MD,NA,NA,87.26851851851852
21740,Washington County,MD,16.666666666666664,NA,NA
21769,Frederick County,MD,91.66666666666666,NA,NA
01028,Hampden County,MA,NA,NA,46.75925925925926
01104,Hampden County,MA,1.4705882352941175,NA,NA
01106,Hampden County,MA,NA,NA,42.592592592592595
01420,Worcester County,MA,NA,NA,5.787037037037037
01523,Worcester County,MA,NA,NA,88.88888888888889
01588,Worcester County,MA,67.15686274509804,NA,NA
01609,Worcester County,MA,64.2156862745098,NA,NA
01773,Middlesex County,MA,NA,83.90501319261213,NA
01810,Essex County,MA,NA,NA,15.046296296296296
01821,Middlesex County,MA,NA,NA,7.638888888888889
01845,Essex County,MA,NA,NA,20.60185185185185
02026,Norfolk County,MA,NA,64.90765171503958,NA
02081,Norfolk County,MA,NA,NA,34.49074074074074
02118,Suffolk County,MA,NA,NA,28.240740740740737
02125,Suffolk County,MA,NA,NA,8.101851851851851
02129,Suffolk County,MA,59.80392156862745,NA,NA
02131,Suffolk County,MA,NA,NA,3.2407407407407405
02132,Suffolk County,MA,NA,1.0554089709762533,NA
02139,Middlesex County,MA,NA,38.78627968337731,NA
02141,Middlesex County,MA,NA,NA,43.28703703703704
02150,Suffolk County,MA,NA,NA,4.861111111111112
02155,Middlesex County,MA,NA,NA,0.23148148148148145
02301,Plymouth County,MA,NA,1.8469656992084433,NA
02631,Barnstable County,MA,NA,NA,36.342592592592595
02632,Barnstable County,MA,NA,NA,68.28703703703704
02633,Barnstable County,MA,NA,NA,91.89814814814815
02675,Barnstable County,MA,NA,NA,84.02777777777779
02745,Bristol County,MA,NA,NA,81.94444444444444
48033,Oakland County,MI,NA,NA,19.444444444444446
48043,Macomb County,MI,NA,53.562005277044854,NA
48092,Macomb County,MI,NA,19.525065963060687,NA
48150,Wayne County,MI,27.450980392156865,NA,NA
48167,Oakland County,MI,NA,NA,11.805555555555555
48176,Washtenaw County,MI,42.15686274509804,NA,NA
48187,Wayne County,MI,7.8431372549019605,NA,NA
48197,Washtenaw County,MI,NA,1.58311345646438,NA
48207,Wayne County,MI,NA,33.50923482849604,NA
48219,Wayne County,MI,NA,NA,12.962962962962962
48221,Wayne County,MI,90.68627450980392,NA,2.7777777777777777
48228,Wayne County,MI,NA,5.277044854881266,NA
48234,Wayne County,MI,5.392156862745098,NA,NA
48240,Wayne County,MI,NA,NA,77.54629629629629
48329,Oakland County,MI,NA,19.261213720316622,NA
48374,Oakland County,MI,NA,96.04221635883906,NA
48473,Genesee County,MI,43.627450980392155,NA,NA
48505,Genesee County,MI,NA,50.92348284960422,NA
48519,Genesee County,MI,NA,NA,82.4074074074074
48872,Shiawassee County,MI,82.35294117647058,NA,NA
49053,Kalamazoo County,MI,NA,95.25065963060686,NA
49058,Barry County,MI,NA,36.41160949868074,NA
49079,Van Buren County,MI,NA,43.27176781002638,NA
49093,St. Joseph County,MI,NA,NA,31.712962962962965
49099,St. Joseph County,MI,NA,NA,97.45370370370371
49441,Muskegon County,MI,NA,NA,2.5462962962962963
49505,Kent County,MI,NA,71.50395778364116,NA
49507,Kent County,MI,71.56862745098039,NA,NA
49685,Grand Traverse County,MI,NA,46.437994722955146,NA
49802,Dickinson County,MI,72.54901960784314,NA,NA
49858,Menominee County,MI,76.9607843137255,NA,NA
49913,Houghton County,MI,NA,NA,38.88888888888889
55024,Dakota County,MN,NA,NA,78.93518518518519
55057,Rice County,MN,NA,59.36675461741425,NA
55063,Pine County,MN,93.13725490196079,NA,NA
55118,Dakota County,MN,NA,39.577836411609496,21.52777777777778
55124,Dakota County,MN,38.72549019607843,NA,NA
55303,Anoka County,MN,15.196078431372548,NA,NA
55405,Hennepin County,MN,NA,71.76781002638522,NA
55407,Hennepin County,MN,NA,4.221635883905013,NA
55428,Hennepin County,MN,19.11764705882353,NA,NA
55744,Itasca County,MN,NA,NA,6.018518518518518
55804,St. Louis County,MN,NA,NA,20.37037037037037
55987,Winona County,MN,33.33333333333333,NA,NA
56537,Otter Tail County,MN,NA,NA,89.81481481481481
38878,Calhoun County,MS,NA,100,NA
39046,Madison County,MS,28.431372549019606,NA,NA
39059,Copiah County,MS,76.9607843137255,NA,NA
39074,Scott County,MS,NA,60.68601583113457,NA
39110,Madison County,MS,NA,58.575197889182064,NA
39401,Forrest County,MS,32.84313725490196,51.97889182058047,NA
39531,Harrison County,MS,NA,41.952506596306065,NA
39567,Jackson County,MS,81.37254901960785,NA,NA
39573,Stone County,MS,86.76470588235294,NA,NA
39601,Lincoln County,MS,NA,41.42480211081794,NA
39638,Amite County,MS,100,NA,NA
39648,Pike County,MS,NA,48.284960422163586,NA
39701,Lowndes County,MS,NA,81.26649076517151,NA
39773,Clay County,MS,NA,62.796833773087066,NA
63005,St. Louis County,MO,NA,NA,56.71296296296296
63028,Jefferson County,MO,25,21.372031662269126,NA
63077,Franklin County,MO,NA,NA,88.19444444444444
63106,St. Louis city,MO,73.0392156862745,NA,NA
63110,St. Louis city,MO,NA,NA,87.5
63112,St. Louis city,MO,NA,62.26912928759894,NA
63124,St. Louis County,MO,NA,NA,29.86111111111111
63137,St. Louis County,MO,38.23529411764706,NA,NA
63301,St. Charles County,MO,NA,NA,3.4722222222222223
63601,St. Francois County,MO,NA,53.825857519788926,NA
63857,Dunklin County,MO,NA,48.812664907651715,NA
64024,Clay County,MO,NA,NA,49.074074074074076
64050,Jackson County,MO,NA,49.6042216358839,NA
64085,Ray County,MO,51.470588235294116,NA,NA
64114,Jackson County,MO,35.78431372549019,NA,NA
64151,Platte County,MO,NA,NA,47.68518518518518
64152,Platte County,MO,19.11764705882353,NA,NA
64507,Buchanan County,MO,26.47058823529412,NA,NA
64628,Linn County,MO,82.84313725490196,NA,NA
65065,Camden County,MO,NA,65.96306068601582,NA
65355,Benton County,MO,NA,NA,35.41666666666667
65746,Webster County,MO,NA,NA,90.97222222222221
59101,Yellowstone County,MT,NA,NA,12.5
59405,Cascade County,MT,NA,12.66490765171504,NA
68104,Douglas County,NE,NA,NA,44.21296296296296
68355,Richardson County,NE,NA,NA,65.74074074074075
68512,Lancaster County,NE,NA,NA,94.9074074074074
68516,Lancaster County,NE,NA,NA,72.91666666666666
68601,Platte County,NE,NA,94.45910290237467,NA
68801,Hall County,NE,NA,NA,62.03703703703704
68803,Hall County,NE,NA,NA,50.69444444444444
89121,Clark County,NV,NA,28.49604221635884,NA
89503,Washoe County,NV,NA,NA,92.82407407407408
03063,Hillsborough County,NH,NA,40.105540897097626,NA
03079,Rockingham County,NH,NA,NA,23.61111111111111
07002,Hudson County,NJ,0.9803921568627451,NA,9.722222222222223
07017,Essex County,NJ,NA,NA,14.814814814814813
07020,Bergen County,NJ,NA,NA,99.76851851851852
07036,Union County,NJ,NA,13.984168865435356,NA
07039,Essex County,NJ,NA,65.69920844327177,NA
07065,Union County,NJ,23.52941176470588,NA,NA
07067,Middlesex County,NJ,NA,68.86543535620054,NA
07106,Essex County,NJ,NA,77.83641160949868,NA
07407,Bergen County,NJ,NA,NA,57.870370370370374
07506,Passaic County,NJ,NA,NA,58.56481481481482
07719,Monmouth County,NJ,68.13725490196079,NA,NA
07748,Monmouth County,NJ,87.74509803921569,NA,NA
07932,Morris County,NJ,NA,NA,89.58333333333334
08031,Camden County,NJ,NA,91.2928759894459,NA
08104,Camden County,NJ,NA,NA,83.56481481481481
08105,Camden County,NJ,NA,91.82058047493403,NA
08108,Camden County,NJ,NA,NA,85.18518518518519
08109,Camden County,NJ,NA,35.62005277044855,NA
08302,Cumberland County,NJ,0.49019607843137253,NA,73.8425925925926
08527,Ocean County,NJ,NA,82.05804749340369,NA
08534,Mercer County,NJ,NA,99.47229551451187,NA
08724,Ocean County,NJ,54.41176470588235,NA,NA
08854,Middlesex County,NJ,NA,9.498680738786279,NA
87048,Sandoval County,NM,89.70588235294117,NA,NA
10002,New York County,NY,NA,NA,0.9259259259259258
10009,New York County,NY,NA,NA,4.398148148148148
10019,New York County,NY,NA,57.519788918205805,NA
10026,New York County,NY,NA,NA,33.101851851851855
10029,New York County,NY,NA,NA,17.824074074074073
10032,New York County,NY,NA,89.9736147757256,5.324074074074074
10033,New York County,NY,NA,16.62269129287599,NA
10306,Richmond County,NY,18.137254901960784,NA,NA
10308,Richmond County,NY,NA,53.03430079155673,69.21296296296296
10451,Bronx County,NY,NA,4.485488126649076,NA
10456,Bronx County,NY,NA,0,NA
10457,Bronx County,NY,NA,0.5277044854881267,NA
10458,Bronx County,NY,NA,0.2638522427440633,NA
10466,Bronx County,NY,NA,14.511873350923482,NA
10472,Bronx County,NY,NA,NA,14.583333333333334
10473,Bronx County,NY,NA,4.749340369393139,35.648148148148145
10475,Bronx County,NY,NA,59.10290237467019,NA
10573,Westchester County,NY,NA,NA,28.935185185185187
10701,Westchester County,NY,NA,NA,18.75
10703,Westchester County,NY,NA,NA,50.92592592592593
10708,Westchester County,NY,NA,NA,41.66666666666667
10923,Rockland County,NY,NA,NA,79.62962962962963
10954,Rockland County,NY,NA,NA,47.22222222222222
10956,Rockland County,NY,NA,64.64379947229551,24.074074074074073
11040,Nassau County,NY,NA,85.4881266490765,NA
11203,Kings County,NY,NA,NA,7.4074074074074066
11207,Kings County,NY,NA,25.32981530343008,NA
11214,Kings County,NY,NA,NA,6.944444444444445
11216,Kings County,NY,NA,5.540897097625329,NA
11221,Kings County,NY,NA,NA,27.314814814814813
11224,Kings County,NY,NA,NA,1.1574074074074074
11355,Queens County,NY,NA,NA,14.120370370370368
11361,Queens County,NY,NA,NA,64.12037037037037
11367,Queens County,NY,NA,43.53562005277045,NA
11379,Queens County,NY,NA,NA,46.2962962962963
11413,Queens County,NY,49.50980392156863,NA,NA
11418,Queens County,NY,NA,NA,72.22222222222221
11510,Nassau County,NY,NA,NA,37.73148148148148
11550,Nassau County,NY,8.823529411764707,NA,NA
11566,Nassau County,NY,NA,NA,43.05555555555556
11703,Suffolk County,NY,NA,NA,55.092592592592595
11731,Suffolk County,NY,NA,63.852242744063325,NA
12095,Fulton County,NY,81.86274509803921,NA,NA
12198,Rensselaer County,NY,NA,95.77836411609498,NA
12211,Albany County,NY,NA,90.23746701846966,NA
12302,Schenectady County,NY,NA,NA,26.851851851851855
12303,Schenectady County,NY,NA,NA,31.944444444444443
12901,Clinton County,NY,NA,26.912928759894463,NA
13142,Oswego County,NY,NA,85.75197889182058,NA
13601,Jefferson County,NY,41.66666666666667,NA,NA
13619,Jefferson County,NY,NA,59.63060686015831,NA
13850,Broome County,NY,NA,NA,23.37962962962963
14047,Erie County,NY,NA,92.0844327176781,NA
14063,Chautauqua County,NY,NA,45.11873350923483,NA
14094,Niagara County,NY,12.254901960784313,NA,NA
14208,Erie County,NY,NA,26.121372031662272,NA
14221,Erie County,NY,NA,2.1108179419525066,NA
14222,Erie County,NY,NA,62.00527704485488,NA
14445,Monroe County,NY,NA,NA,99.53703703703704
14519,Wayne County,NY,NA,NA,73.14814814814815
14621,Monroe County,NY,0,NA,NA
14624,Monroe County,NY,NA,NA,39.351851851851855
14626,Monroe County,NY,NA,3.16622691292876,NA
14891,Schuyler County,NY,NA,89.18205804749341,NA
27040,Forsyth County,NC,NA,NA,55.55555555555556
27103,Forsyth County,NC,NA,NA,0.6944444444444444
27105,Forsyth County,NC,NA,2.3746701846965697,NA
27107,Forsyth County,NC,NA,NA,1.6203703703703702
27262,Guilford County,NC,NA,NA,47.4537037037037
27295,Davidson County,NC,NA,2.638522427440633,2.314814814814815
27405,Guilford County,NC,NA,61.21372031662269,NA
27407,Guilford County,NC,17.15686274509804,NA,NA
27504,Johnston County,NC,NA,NA,64.81481481481481
27545,Wake County,NC,NA,45.91029023746702,NA
27565,Granville County,NC,NA,16.094986807387862,NA
27703,Durham County,NC,NA,8.443271767810026,21.99074074074074
27707,Durham County,NC,9.803921568627452,NA,NA
27713,Durham County,NC,NA,75.98944591029023,NA
27801,Edgecombe County,NC,NA,78.89182058047494,NA
27822,Wilson County,NC,NA,NA,90.74074074074075
27870,Halifax County,NC,NA,27.96833773087071,NA
27910,Hertford County,NC,NA,75.46174142480211,NA
28081,Cabarrus County,NC,NA,NA,32.63888888888889
28117,Iredell County,NC,NA,63.06068601583114,NA
28138,Rowan County,NC,NA,75.72559366754618,NA
28150,Cleveland County,NC,NA,NA,80.0925925925926
28152,Cleveland County,NC,NA,NA,49.76851851851852
28173,Union County,NC,NA,NA,81.48148148148148
28205,Mecklenburg County,NC,NA,25.593667546174142,NA
28207,Mecklenburg County,NC,NA,NA,96.29629629629629
28214,Mecklenburg County,NC,29.901960784313726,NA,79.86111111111111
28262,Mecklenburg County,NC,35.78431372549019,NA,NA
28304,Cumberland County,NC,NA,NA,85.64814814814815
28340,Robeson County,NC,55.88235294117647,NA,NA
28371,Robeson County,NC,NA,86.80738786279683,NA
28405,New Hanover County,NC,NA,30.07915567282322,NA
28463,Columbus County,NC,NA,68.07387862796834,NA
28501,Lenoir County,NC,NA,NA,51.157407407407405
28513,Pitt County,NC,NA,NA,86.3425925925926
28516,Carteret County,NC,NA,NA,66.66666666666666
28572,Duplin County,NC,NA,NA,86.11111111111111
28607,Watauga County,NC,51.9607843137255,NA,NA
28609,Catawba County,NC,NA,88.12664907651715,NA
28613,Catawba County,NC,NA,37.994722955145114,NA
28625,Iredell County,NC,14.705882352941178,NA,NA
28635,Wilkes County,NC,NA,99.73614775725594,NA
28645,Caldwell County,NC,NA,NA,1.3888888888888888
28677,Iredell County,NC,13.725490196078432,55.4089709762533,NA
28739,Henderson County,NC,NA,NA,8.564814814814815
28906,Cherokee County,NC,50,NA,NA
58075,Richland County,ND,NA,NA,84.95370370370371
58104,Cass County,ND,NA,8.970976253298153,NA
43068,Franklin County,OH,6.862745098039216,NA,NA
43110,Franklin County,OH,NA,69.12928759894459,NA
43160,Fayette County,OH,NA,NA,20.833333333333336
43205,Franklin County,OH,NA,94.9868073878628,NA
43219,Franklin County,OH,12.745098039215685,NA,NA
43231,Franklin County,OH,NA,97.36147757255937,NA
43235,Franklin County,OH,NA,NA,27.546296296296298
43528,Lucas County,OH,NA,NA,64.58333333333334
43551,Wood County,OH,NA,5.013192612137203,NA
43701,Muskingum County,OH,54.90196078431373,NA,NA
44052,Lorain County,OH,NA,NA,6.712962962962964
44074,Lorain County,OH,NA,NA,48.379629629629626
44105,Cuyahoga County,OH,4.411764705882353,NA,NA
44113,Cuyahoga County,OH,31.862745098039213,NA,NA
44124,Cuyahoga County,OH,NA,NA,0
44132,Cuyahoga County,OH,NA,NA,71.29629629629629
44144,Cuyahoga County,OH,94.6078431372549,NA,NA
44203,Summit County,OH,NA,6.860158311345646,NA
44212,Medina County,OH,NA,NA,3.009259259259259
44224,Summit County,OH,20.588235294117645,NA,9.027777777777777
44260,Portage County,OH,NA,56.200527704485495,NA
44306,Summit County,OH,NA,32.71767810026385,NA
44446,Trumbull County,OH,NA,NA,66.20370370370371
44460,Columbiana County,OH,NA,6.596306068601583,NA
44514,Mahoning County,OH,NA,28.232189973614773,NA
44706,Stark County,OH,NA,90.76517150395779,NA
44708,Stark County,OH,NA,31.6622691292876,NA
44820,Crawford County,OH,22.058823529411764,NA,NA
44875,Richland County,OH,NA,NA,44.907407407407405
44903,Richland County,OH,65.68627450980392,NA,38.657407407407405
45011,Butler County,OH,NA,41.16094986807388,NA
45013,Butler County,OH,16.176470588235293,NA,NA
45214,Hamilton County,OH,75,NA,NA
45225,Hamilton County,OH,84.31372549019608,NA,NA
45237,Hamilton County,OH,NA,20.052770448548813,NA
45238,Hamilton County,OH,NA,47.229551451187334,NA
45239,Hamilton County,OH,NA,NA,36.80555555555556
45241,Hamilton County,OH,NA,NA,42.129629629629626
45305,Greene County,OH,70.58823529411765,NA,NA
45410,Montgomery County,OH,NA,NA,85.41666666666666
45449,Montgomery County,OH,NA,44.59102902374671,NA
45638,Lawrence County,OH,NA,NA,22.916666666666664
45710,Athens County,OH,NA,NA,98.61111111111111
45887,Allen County,OH,NA,NA,87.73148148148148
74012,Tulsa County,OK,NA,NA,8.333333333333332
74105,Tulsa County,OK,NA,NA,57.17592592592593
74128,Tulsa County,OK,NA,79.41952506596306,NA
74145,Tulsa County,OK,NA,NA,54.629629629629626
74857,Cleveland County,OK,76.47058823529412,NA,NA
97005,Washington County,OR,NA,NA,39.351851851851855
97030,Multnomah County,OR,NA,NA,52.77777777777778
97045,Clackamas County,OR,NA,NA,65.27777777777779
97124,Washington County,OR,92.64705882352942,NA,NA
97215,Multnomah County,OR,NA,87.86279683377309,NA
97217,Multnomah County,OR,NA,NA,73.14814814814815
97305,Marion County,OR,NA,NA,56.018518518518526
97322,Linn County,OR,NA,10.026385224274406,NA
97402,Lane County,OR,NA,27.70448548812665,NA
97448,Lane County,OR,86.27450980392157,NA,NA
15001,Beaver County,PA,NA,13.192612137203167,NA
15104,Allegheny County,PA,66.66666666666666,NA,NA
15206,Allegheny County,PA,NA,NA,48.61111111111111
15227,Allegheny County,PA,NA,NA,26.15740740740741
15642,Westmoreland County,PA,68.62745098039215,NA,NA
15801,Clearfield County,PA,NA,93.66754617414247,NA
16001,Butler County,PA,NA,NA,21.296296296296298
16056,Butler County,PA,NA,NA,94.21296296296296
16601,Blair County,PA,5.88235294117647,5.804749340369393,NA
16635,Blair County,PA,NA,NA,61.80555555555556
17011,Cumberland County,PA,NA,17.150395778364118,NA
17050,Cumberland County,PA,NA,84.96042216358839,NA
17055,Cumberland County,PA,NA,NA,34.02777777777778
17074,Perry County,PA,96.07843137254902,NA,NA
17112,Dauphin County,PA,NA,NA,11.342592592592593
17512,Lancaster County,PA,NA,NA,69.44444444444444
18045,Northampton County,PA,NA,NA,8.796296296296296
18064,Northampton County,PA,NA,22.163588390501317,16.203703703703702
18840,Bradford County,PA,NA,NA,75.46296296296296
18901,Bucks County,PA,NA,NA,9.953703703703704
19008,Delaware County,PA,NA,NA,40.97222222222222
19034,Montgomery County,PA,NA,NA,82.63888888888889
19038,Montgomery County,PA,NA,23.482849604221638,NA
19072,Montgomery County,PA,NA,NA,57.638888888888886
19083,Delaware County,PA,NA,NA,22.453703703703702
19115,Philadelphia County,PA,NA,15.303430079155673,NA
19119,Philadelphia County,PA,NA,15.8311345646438,NA
19120,Philadelphia County,PA,2.941176470588235,81.79419525065963,NA
19125,Philadelphia County,PA,NA,NA,84.49074074074075
19134,Philadelphia County,PA,2.450980392156863,NA,NA
19138,Philadelphia County,PA,NA,19.788918205804748,NA
19141,Philadelphia County,PA,NA,NA,78.00925925925925
19143,Philadelphia County,PA,NA,0.79155672823219,NA
19144,Philadelphia County,PA,NA,NA,18.287037037037038
19145,Philadelphia County,PA,NA,83.11345646437994,NA
19152,Philadelphia County,PA,NA,17.941952506596305,61.342592592592595
19154,Philadelphia County,PA,NA,15.03957783641161,NA
19348,Chester County,PA,NA,42.74406332453825,28.009259259259263
19401,Montgomery County,PA,NA,NA,33.33333333333333
19446,Montgomery County,PA,NA,11.87335092348285,NA
19551,Berks County,PA,89.2156862745098,NA,NA
02840,Newport County,RI,43.13725490196079,NA,NA
29053,Lexington County,SC,NA,NA,92.12962962962963
29072,Lexington County,SC,26.96078431372549,NA,NA
29229,Richland County,SC,NA,51.97889182058047,NA
29414,Charleston County,SC,NA,NA,28.47222222222222
29501,Florence County,SC,NA,12.137203166226913,NA
29506,Florence County,SC,NA,78.3641160949868,NA
29566,Horry County,SC,NA,NA,52.54629629629629
29611,Greenville County,SC,NA,NA,26.38888888888889
29631,Pickens County,SC,NA,NA,91.43518518518519
29715,York County,SC,64.70588235294117,NA,NA
29732,York County,SC,NA,22.691292875989447,NA
29745,York County,SC,52.450980392156865,NA,NA
29810,Allendale County,SC,99.01960784313727,NA,NA
57108,Lincoln County,SD,NA,NA,65.97222222222221
37066,Sumner County,TN,7.352941176470589,NA,NA
37076,Davidson County,TN,34.80392156862745,NA,NA
37083,Macon County,TN,NA,NA,60.18518518518518
37185,Humphreys County,TN,NA,NA,75.92592592592592
37218,Davidson County,TN,NA,NA,63.19444444444444
37311,Bradley County,TN,NA,79.15567282321899,NA
37343,Hamilton County,TN,23.03921568627451,NA,NA
37355,Coffee County,TN,NA,NA,53.70370370370371
37660,Sullivan County,TN,NA,57.78364116094987,NA
37764,Sevier County,TN,NA,NA,67.12962962962963
37774,Loudon County,TN,NA,22.427440633245382,NA
37804,Blount County,TN,NA,51.187335092348285,NA
37813,Hamblen County,TN,27.941176470588236,NA,NA
37830,Anderson County,TN,NA,24.010554089709764,NA
37923,Knox County,TN,NA,38.258575197889186,NA
38068,Fayette County,TN,NA,73.61477572559367,NA
38115,Shelby County,TN,24.019607843137255,NA,NA
38134,Shelby County,TN,NA,54.35356200527705,NA
38141,Shelby County,TN,NA,NA,83.79629629629629
38201,Carroll County,TN,NA,67.01846965699208,NA
38555,Cumberland County,TN,39.21568627450981,NA,NA
75034,Denton County,TX,NA,NA,34.9537037037037
75048,Dallas County,TX,NA,NA,75.46296296296296
75056,Denton County,TX,NA,31.13456464379947,NA
75061,Dallas County,TX,NA,NA,42.824074074074076
75062,Dallas County,TX,NA,30.87071240105541,NA
75065,Denton County,TX,NA,NA,97.91666666666666
75075,Collin County,TX,NA,78.62796833773086,NA
75148,Henderson County,TX,NA,NA,71.52777777777779
75212,Dallas County,TX,NA,44.327176781002635,NA
75225,Dallas County,TX,NA,NA,31.01851851851852
75232,Dallas County,TX,46.568627450980394,NA,NA
75233,Dallas County,TX,NA,NA,77.77777777777779
75234,Dallas County,TX,NA,46.701846965699204,NA
75428,Hunt County,TX,NA,90.23746701846966,NA
75640,Upshur County,TX,99.50980392156863,NA,NA
75657,Marion County,TX,NA,87.59894459102902,NA
75686,Camp County,TX,NA,56.464379947229546,NA
75703,Smith County,TX,NA,NA,2.083333333333333
75707,Smith County,TX,NA,47.75725593667546,NA
75904,Angelina County,TX,NA,NA,34.72222222222222
75941,Angelina County,TX,92.15686274509804,NA,NA
75972,San Augustine County,TX,NA,NA,84.25925925925925
76016,Tarrant County,TX,NA,21.899736147757256,31.48148148148148
76028,Johnson County,TX,NA,3.430079155672823,NA
76104,Tarrant County,TX,NA,NA,62.96296296296296
76133,Tarrant County,TX,NA,NA,21.064814814814813
76207,Denton County,TX,78.43137254901961,NA,NA
76301,Wichita County,TX,NA,NA,82.87037037037037
76458,Jack County,TX,NA,NA,97.68518518518519
76504,Bell County,TX,NA,NA,24.305555555555554
76642,Limestone County,TX,NA,93.93139841688655,NA
76707,McLennan County,TX,NA,NA,96.99074074074075
76712,McLennan County,TX,NA,NA,29.629629629629626
76825,McCulloch County,TX,NA,70.18469656992085,NA
76903,Tom Green County,TX,NA,49.07651715039577,NA
77004,Harris County,TX,NA,70.97625329815304,NA
77006,Harris County,TX,NA,NA,95.83333333333334
77015,Harris County,TX,40.68627450980392,NA,NA
77026,Harris County,TX,NA,NA,59.25925925925925
77033,Harris County,TX,NA,NA,36.574074074074076
77035,Harris County,TX,70.09803921568627,NA,NA
77045,Harris County,TX,56.86274509803921,NA,NA
77377,Harris County,TX,72.05882352941177,NA,NA
77396,Harris County,TX,37.254901960784316,NA,NA
77414,Matagorda County,TX,NA,39.050131926121374,NA
77433,Harris County,TX,NA,16.358839050131927,NA
77461,Fort Bend County,TX,NA,NA,84.72222222222221
77477,Fort Bend County,TX,55.392156862745104,NA,NA
77518,Galveston County,TX,NA,NA,96.52777777777779
77532,Harris County,TX,NA,60.4221635883905,NA
77536,Harris County,TX,NA,68.60158311345647,NA
77546,Galveston County,TX,NA,8.70712401055409,NA
77562,Harris County,TX,NA,87.0712401055409,NA
77573,Galveston County,TX,NA,24.538258575197887,NA
77584,Brazoria County,TX,NA,97.8891820580475,NA
77587,Harris County,TX,77.94117647058823,NA,98.37962962962963
77904,Victoria County,TX,NA,NA,22.22222222222222
77954,DeWitt County,TX,NA,56.99208443271768,NA
77963,Goliad County,TX,NA,84.43271767810026,NA
78045,Webb County,TX,NA,NA,60.879629629629626
78046,Webb County,TX,13.23529411764706,25.065963060686013,NA
78109,Bexar County,TX,NA,79.94722955145119,NA
78250,Bexar County,TX,42.64705882352941,NA,NA
78254,Bexar County,TX,NA,NA,69.9074074074074
78255,Bexar County,TX,NA,89.70976253298153,NA
78577,Hidalgo County,TX,NA,21.372031662269126,NA
78586,Cameron County,TX,45.09803921568628,NA,NA
78611,Burnet County,TX,NA,58.839050131926115,NA
78628,Williamson County,TX,NA,NA,1.8518518518518516
78629,Gonzales County,TX,NA,NA,56.94444444444444
78754,Travis County,TX,NA,85.22427440633246,NA
78852,Maverick County,TX,NA,NA,16.666666666666664
79403,Lubbock County,TX,NA,46.965699208443276,NA
79424,Lubbock County,TX,NA,NA,15.50925925925926
79705,Midland County,TX,NA,31.926121372031663,NA
79720,Howard County,TX,NA,NA,49.30555555555556
79915,El Paso County,TX,78.92156862745098,NA,NA
84020,Salt Lake County,UT,44.11764705882353,NA,NA
84092,Salt Lake County,UT,NA,NA,67.82407407407408
84094,Salt Lake County,UT,NA,NA,66.66666666666666
84129,,UT,NA,27.176781002638524,NA
84404,Weber County,UT,79.41176470588235,NA,NA
20132,Loudoun County,VA,NA,86.54353562005277,NA
22193,Prince William County,VA,NA,16.886543535620053,NA
22304,Alexandria city,VA,NA,NA,40.0462962962963
22407,Spotsylvania County,VA,NA,83.37730870712402,NA
22655,Frederick County,VA,57.84313725490197,NA,NA
22701,Culpeper County,VA,25.98039215686275,NA,NA
23075,Henrico County,VA,NA,74.93403693931398,NA
23150,Henrico County,VA,74.01960784313727,NA,NA
23227,Henrico County,VA,NA,34.03693931398417,NA
23228,Henrico County,VA,NA,NA,22.916666666666664
23229,Henrico County,VA,NA,NA,54.166666666666664
23234,Chesterfield County,VA,18.627450980392158,NA,NA
23430,Isle of Wight County,VA,64.70588235294117,NA,NA
23456,Virginia Beach city,VA,NA,NA,13.194444444444445
23462,Virginia Beach city,VA,NA,7.651715039577836,NA
23503,Norfolk city,VA,NA,34.56464379947229,NA
23663,Hampton city,VA,NA,54.089709762532976,NA
23803,Petersburg city,VA,NA,11.345646437994723,NA
24012,Roanoke city,VA,NA,NA,29.86111111111111
24153,Salem city,VA,NA,NA,15.972222222222221
24501,Lynchburg city,VA,28.921568627450984,NA,43.75
98012,Snohomish County,WA,NA,NA,16.89814814814815
98020,Snohomish County,WA,NA,NA,63.657407407407405
98032,King County,WA,NA,NA,60.64814814814815
98104,King County,WA,NA,35.88390501319261,NA
98108,King County,WA,NA,NA,52.31481481481482
98122,King County,WA,NA,NA,47.91666666666667
98277,Island County,WA,NA,NA,61.57407407407407
98332,Pierce County,WA,NA,NA,78.70370370370371
98366,Kitsap County,WA,NA,27.440633245382585,NA
98367,Kitsap County,WA,NA,44.854881266490764,NA
98368,Jefferson County,WA,NA,NA,41.898148148148145
98371,Pierce County,WA,62.254901960784316,NA,NA
98404,Pierce County,WA,NA,39.84168865435356,NA
98503,Thurston County,WA,NA,NA,93.75
98520,Grays Harbor County,WA,NA,43.79947229551451,NA
98632,Cowlitz County,WA,NA,3.95778364116095,NA
98662,Clark County,WA,87.25490196078431,NA,NA
98674,Cowlitz County,WA,NA,NA,83.33333333333334
98903,Yakima County,WA,NA,96.83377308707124,NA
98930,Yakima County,WA,NA,73.87862796833772,NA
99005,Spokane County,WA,NA,NA,96.75925925925925
99019,Spokane County,WA,NA,98.15303430079155,NA
99207,Spokane County,WA,NA,95.51451187335093,NA
99320,Benton County,WA,NA,NA,74.30555555555556
99352,Benton County,WA,NA,NA,3.7037037037037033
20002,District of Columbia,DC,NA,6.33245382585752,NA
20010,District of Columbia,DC,NA,98.68073878627969,NA
20019,District of Columbia,DC,NA,3.6939313984168867,NA
25901,Fayette County,WV,NA,86.2796833773087,NA
26554,Marion County,WV,NA,NA,40.74074074074074
26847,Grant County,WV,NA,NA,93.51851851851852
53010,Fond du Lac County,WI,NA,NA,93.05555555555556
53027,Washington County,WI,NA,NA,93.28703703703704
53066,Waukesha County,WI,NA,NA,19.212962962962962
53085,Sheboygan County,WI,NA,NA,94.44444444444444
53095,Washington County,WI,NA,51.45118733509235,24.537037037037038
53130,Milwaukee County,WI,NA,99.2084432717678,NA
53143,Kenosha County,WI,15.686274509803921,NA,NA
53172,Milwaukee County,WI,NA,NA,29.398148148148145
53207,Milwaukee County,WI,NA,28.759894459102902,NA
53209,Milwaukee County,WI,NA,1.3192612137203166,NA
53212,Milwaukee County,WI,11.76470588235294,NA,NA
53213,Milwaukee County,WI,NA,NA,43.98148148148148
53216,Milwaukee County,WI,59.31372549019608,NA,NA
53220,Milwaukee County,WI,NA,23.218997361477573,NA
53221,Milwaukee County,WI,NA,NA,10.87962962962963
53223,Milwaukee County,WI,NA,8.179419525065963,NA
53227,Milwaukee County,WI,NA,NA,15.74074074074074
53511,Rock County,WI,4.901960784313726,NA,NA
53548,Rock County,WI,NA,92.87598944591029,NA
53705,Dane County,WI,NA,NA,12.037037037037036
53821,Crawford County,WI,NA,74.14248021108179,NA
54636,La Crosse County,WI,NA,NA,49.76851851851852
54667,Vernon County,WI,NA,91.55672823218998,NA
54751,Dunn County,WI,NA,NA,10.416666666666668
54914,Outagamie County,WI,NA,50.65963060686016,NA
54937,Fond du Lac County,WI,44.6078431372549,NA,NA
54952,Winnebago County,WI,NA,NA,89.12037037037037
54956,Winnebago County,WI,NA,NA,86.57407407407408
82601,Natrona County,WY,NA,NA,58.79629629629629
82701,Weston County,WY,NA,91.02902374670184,NA
