ZipCode,county,state,Retirement,Geriatric
35007,Shelby County,AL,42.731277533039645,NA
35242,Shelby County,AL,NA,12.804878048780488
35603,Morgan County,AL,NA,37.19512195121951
85139,Pinal County,AZ,93.83259911894272,NA
85308,Maricopa County,AZ,20.26431718061674,NA
85614,Pima County,AZ,24.229074889867842,NA
72031,Van Buren County,AR,98.6784140969163,NA
90005,Los Angeles County,CA,NA,76.82926829268293
90024,Los Angeles County,CA,NA,9.75609756097561
90059,Los Angeles County,CA,61.67400881057269,NA
90272,Los Angeles County,CA,91.18942731277532,NA
90640,Los Angeles County,CA,NA,39.63414634146341
90740,Orange County,CA,NA,68.90243902439023
91367,Los Angeles County,CA,NA,29.268292682926827
91767,Los Angeles County,CA,NA,59.14634146341463
92009,San Diego County,CA,48.89867841409692,NA
92109,San Diego County,CA,NA,66.46341463414635
92345,San Bernardino County,CA,NA,34.146341463414636
92703,Orange County,CA,NA,73.17073170731707
92832,Orange County,CA,69.60352422907489,NA
92879,Riverside County,CA,NA,70.1219512195122
92882,Riverside County,CA,41.409691629955944,NA
93291,Tulare County,CA,41.85022026431718,NA
93535,Los Angeles County,CA,43.61233480176212,NA
94109,San Francisco County,CA,NA,4.2682926829268295
94114,San Francisco County,CA,NA,61.58536585365854
95667,El Dorado County,CA,7.048458149779736,NA
95726,El Dorado County,CA,55.947136563876654,NA
80015,Arapahoe County,CO,NA,89.02439024390245
80123,Jefferson County,CO,56.82819383259912,NA
80221,Adams County,CO,NA,68.29268292682927
80302,Boulder County,CO,NA,78.04878048780488
80513,Larimer County,CO,NA,90.85365853658537
80516,Weld County,CO,66.07929515418502,NA
80908,El Paso County,CO,85.90308370044053,NA
81008,Pueblo County,CO,NA,97.5609756097561
06119,Hartford County,CT,NA,81.70731707317073
06401,New Haven County,CT,64.75770925110133,NA
06413,Middlesex County,CT,NA,56.09756097560976
06513,New Haven County,CT,12.334801762114537,NA
06902,Fairfield County,CT,NA,7.317073170731707
19720,New Castle County,DE,NA,11.585365853658537
19734,New Castle County,DE,82.81938325991189,NA
19805,New Castle County,DE,45.81497797356828,NA
32080,St. Johns County,FL,29.074889867841406,NA
32118,Volusia County,FL,68.28193832599119,NA
32162,Sumter County,FL,22.90748898678414,NA
32168,Volusia County,FL,40.08810572687225,NA
32174,Volusia County,FL,15.418502202643172,NA
32244,Duval County,FL,14.096916299559473,NA
32333,Gadsden County,FL,96.0352422907489,NA
32348,Taylor County,FL,84.58149779735683,NA
32460,Jackson County,FL,88.10572687224669,NA
32808,Orange County,FL,31.277533039647576,NA
32905,Brevard County,FL,NA,42.073170731707314
32958,Indian River County,FL,NA,8.536585365853659
33018,Miami-Dade County,FL,60.792951541850215,53.04878048780488
33140,Miami-Dade County,FL,NA,31.70731707317073
33315,Broward County,FL,88.54625550660793,NA
33418,Palm Beach County,FL,33.92070484581498,NA
33463,Palm Beach County,FL,42.290748898678416,NA
33484,Palm Beach County,FL,NA,1.8292682926829267
33542,Pasco County,FL,NA,54.268292682926834
33647,Hillsborough County,FL,50.66079295154186,NA
33825,Highlands County,FL,55.50660792951542,NA
33908,Lee County,FL,8.370044052863436,NA
34224,Charlotte County,FL,64.31718061674009,NA
34746,Osceola County,FL,52.863436123348016,NA
34953,St. Lucie County,FL,10.572687224669604,NA
34957,Martin County,FL,39.647577092511014,NA
30030,DeKalb County,GA,NA,57.3170731707317
30204,Lamar County,GA,88.98678414096916,NA
30338,DeKalb County,GA,NA,43.90243902439025
30453,Tattnall County,GA,97.79735682819384,NA
30506,Hall County,GA,NA,20.121951219512198
30680,Barrow County,GA,26.87224669603524,NA
31326,Effingham County,GA,70.04405286343612,NA
31419,Chatham County,GA,NA,54.87804878048781
31525,Glynn County,GA,NA,81.09756097560977
31553,Brantley County,GA,NA,98.78048780487805
31709,Sumter County,GA,77.97356828193833,NA
96815,Honolulu County,HI,NA,31.097560975609756
60012,McHenry County,IL,65.19823788546255,NA
60047,Lake County,IL,26.431718061674008,NA
60062,Cook County,IL,NA,0
60142,McHenry County,IL,13.656387665198238,NA
60148,DuPage County,IL,9.251101321585903,NA
60459,Cook County,IL,59.471365638766514,NA
60466,Cook County,IL,NA,56.70731707317073
60608,Cook County,IL,NA,13.414634146341465
60611,Cook County,IL,NA,18.29268292682927
60643,Cook County,IL,6.167400881057269,NA
60651,Cook County,IL,NA,24.390243902439025
61704,McLean County,IL,48.458149779735685,NA
61821,Champaign County,IL,NA,19.51219512195122
62223,St. Clair County,IL,NA,85.97560975609755
46307,Lake County,IN,NA,2.4390243902439024
46375,Lake County,IN,19.823788546255507,NA
46516,Elkhart County,IN,NA,82.92682926829268
46530,St. Joseph County,IN,NA,98.17073170731707
46755,Noble County,IN,43.17180616740088,NA
46816,Allen County,IN,NA,96.95121951219512
46947,Cass County,IN,14.537444933920703,NA
47112,Harrison County,IN,62.11453744493392,NA
47203,Bartholomew County,IN,NA,20.73170731707317
47546,Dubois County,IN,87.22466960352423,NA
47714,Vanderburgh County,IN,NA,40.853658536585364
50036,Boone County,IA,57.70925110132159,NA
50125,Warren County,IA,NA,77.4390243902439
50322,Polk County,IA,NA,67.07317073170732
50613,Black Hawk County,IA,NA,3.6585365853658534
51012,Cherokee County,IA,96.47577092511013,NA
51103,Woodbury County,IA,89.86784140969164,NA
51104,Woodbury County,IA,NA,85.36585365853658
52804,Scott County,IA,NA,48.78048780487805
67207,Sedgwick County,KS,NA,84.7560975609756
67735,Sherman County,KS,NA,92.6829268292683
40361,Bourbon County,KY,NA,71.34146341463415
40422,Boyle County,KY,NA,65.2439024390244
40505,Fayette County,KY,35.68281938325991,NA
40962,Clay County,KY,24.669603524229075,NA
41040,Pendleton County,KY,92.51101321585902,NA
41042,Boone County,KY,NA,3.048780487804878
42001,McCracken County,KY,25.11013215859031,NA
70117,Orleans Parish,LA,21.58590308370044,NA
70433,St. Tammany Parish,LA,NA,58.536585365853654
70437,St. Tammany Parish,LA,66.51982378854625,NA
70785,Livingston Parish,LA,NA,65.85365853658537
71105,Caddo Parish,LA,NA,48.170731707317074
71109,Caddo Parish,LA,31.718061674008812,NA
71303,Rapides Parish,LA,NA,64.02439024390245
71343,Catahoula Parish,LA,NA,95.73170731707317
03901,York County,ME,96.91629955947137,NA
04083,York County,ME,91.62995594713657,NA
04401,Penobscot County,ME,2.2026431718061676,NA
20640,Charles County,MD,NA,96.34146341463415
21131,Baltimore County,MD,92.95154185022027,NA
21214,Baltimore city,MD,72.24669603524228,NA
21228,Baltimore County,MD,NA,18.902439024390244
21550,Garrett County,MD,NA,26.21951219512195
21811,Worcester County,MD,32.59911894273127,NA
01028,Hampden County,MA,NA,57.92682926829268
01776,Middlesex County,MA,48.01762114537445,NA
01841,Essex County,MA,0.4405286343612335,NA
01852,Middlesex County,MA,1.762114537444934,NA
01887,Middlesex County,MA,3.9647577092511015,NA
01960,Essex County,MA,0.881057268722467,NA
02118,Suffolk County,MA,87.66519823788546,NA
02152,Suffolk County,MA,11.013215859030836,NA
02762,Norfolk County,MA,99.11894273127754,NA
48021,Macomb County,MI,22.46696035242291,NA
48066,Macomb County,MI,11.894273127753303,NA
48073,Oakland County,MI,NA,36.58536585365854
48118,Washtenaw County,MI,NA,37.80487804878049
48138,Wayne County,MI,NA,51.21951219512195
48173,Wayne County,MI,NA,70.73170731707317
48238,Wayne County,MI,92.07048458149781,NA
48307,Oakland County,MI,NA,22.5609756097561
48309,Oakland County,MI,33.03964757709251,NA
48442,Oakland County,MI,53.30396475770925,NA
48532,Genesee County,MI,46.25550660792951,NA
48625,Clare County,MI,25.991189427312776,NA
48661,Ogemaw County,MI,58.590308370044056,NA
48867,Shiawassee County,MI,10.13215859030837,NA
49221,Lenawee County,MI,NA,9.146341463414634
49341,Kent County,MI,NA,33.53658536585366
49418,Kent County,MI,NA,35.36585365853659
49504,Kent County,MI,52.42290748898678,NA
49508,Kent County,MI,NA,14.02439024390244
55011,Anoka County,MN,93.3920704845815,NA
55122,Dakota County,MN,67.40088105726872,NA
55304,Anoka County,MN,49.33920704845815,NA
55330,Sherburne County,MN,47.136563876651984,NA
55429,Hennepin County,MN,46.69603524229075,NA
55432,Anoka County,MN,NA,71.95121951219512
56621,Clearwater County,MN,NA,43.292682926829265
38751,Sunflower County,MS,76.2114537444934,NA
38865,Alcorn County,MS,97.3568281938326,NA
63113,St. Louis city,MO,NA,78.65853658536585
63117,St. Louis County,MO,NA,87.1951219512195
63304,St. Charles County,MO,NA,27.439024390243905
63825,Stoddard County,MO,NA,89.63414634146342
63901,Butler County,MO,28.193832599118945,NA
64014,Jackson County,MO,37.44493392070485,NA
64730,Bates County,MO,71.80616740088107,NA
64801,Jasper County,MO,18.06167400881057,NA
65807,Greene County,MO,NA,10.365853658536585
59102,Yellowstone County,MT,7.929515418502203,NA
59935,Lincoln County,MT,99.55947136563876,NA
68025,Dodge County,NE,NA,14.634146341463413
68147,Sarpy County,NE,NA,92.07317073170732
68701,Madison County,NE,NA,50
89139,Clark County,NV,79.73568281938326,NA
03833,Rockingham County,NH,NA,40.243902439024396
07080,Middlesex County,NJ,62.55506607929515,NA
07208,Union County,NJ,NA,51.829268292682926
07751,Monmouth County,NJ,80.1762114537445,NA
08069,Salem County,NJ,NA,67.6829268292683
08322,Gloucester County,NJ,95.59471365638767,NA
08648,Mercer County,NJ,NA,59.756097560975604
08873,Somerset County,NJ,27.312775330396477,NA
87043,Sandoval County,NM,83.25991189427313,NA
88240,Lea County,NM,NA,38.41463414634146
10026,New York County,NY,23.788546255506606,NA
10306,Richmond County,NY,18.94273127753304,NA
10455,Bronx County,NY,NA,25
10468,Bronx County,NY,22.026431718061673,NA
10469,Bronx County,NY,NA,4.878048780487805
10510,Westchester County,NY,NA,74.39024390243902
10512,Putnam County,NY,70.48458149779736,NA
10801,Westchester County,NY,NA,42.68292682926829
11003,Nassau County,NY,85.46255506607929,NA
11216,Kings County,NY,NA,30.48780487804878
11221,Kings County,NY,NA,6.707317073170732
11235,Kings County,NY,53.74449339207048,0.6097560975609756
11236,Kings County,NY,11.45374449339207,NA
11368,Queens County,NY,NA,23.78048780487805
11414,Queens County,NY,NA,60.36585365853659
11720,Suffolk County,NY,74.8898678414097,NA
11788,Suffolk County,NY,78.41409691629956,NA
12078,Fulton County,NY,NA,15.24390243902439
12090,Rensselaer County,NY,81.93832599118943,NA
12206,Albany County,NY,54.62555066079295,NA
13021,Cayuga County,NY,NA,26.82926829268293
13662,St. Lawrence County,NY,NA,45.73170731707317
14047,Erie County,NY,78.8546255506608,NA
14067,Niagara County,NY,NA,83.53658536585365
14075,Erie County,NY,83.70044052863436,NA
14450,Monroe County,NY,NA,7.926829268292683
14615,Monroe County,NY,38.32599118942731,NA
14701,Chautauqua County,NY,55.947136563876654,NA
14806,Allegany County,NY,100,NA
27105,Forsyth County,NC,NA,12.195121951219512
27107,Forsyth County,NC,NA,1.2195121951219512
27127,Forsyth County,NC,7.488986784140969,NA
27288,Rockingham County,NC,NA,47.5609756097561
27536,Vance County,NC,36.12334801762114,NA
27615,Wake County,NC,NA,75.60975609756098
27804,Nash County,NC,40.52863436123348,NA
27889,Beaufort County,NC,28.634361233480178,NA
28021,Gaston County,NC,90.30837004405286,NA
28112,Union County,NC,85.02202643171806,NA
28164,Gaston County,NC,76.65198237885463,NA
28208,Mecklenburg County,NC,30.837004405286343,NA
28301,Cumberland County,NC,NA,62.19512195121951
28328,Sampson County,NC,NA,46.34146341463415
28379,Richmond County,NC,NA,41.46341463414634
28560,Craven County,NC,45.37444933920705,NA
28586,Craven County,NC,80.61674008810573,NA
28602,Catawba County,NC,75.77092511013215,NA
28640,Ashe County,NC,NA,88.41463414634147
28690,Burke County,NC,81.05726872246696,NA
43231,Franklin County,OH,NA,86.58536585365853
43912,Belmont County,OH,55.06607929515418,NA
44004,Ashtabula County,OH,NA,23.170731707317074
44026,Geauga County,OH,NA,39.02439024390244
44035,Lorain County,OH,0,NA
44041,Ashtabula County,OH,NA,32.926829268292686
44053,Lorain County,OH,8.81057268722467,NA
44057,Lake County,OH,21.145374449339208,NA
44077,Lake County,OH,4.405286343612335,NA
44107,Cuyahoga County,OH,4.845814977973569,NA
44118,Cuyahoga County,OH,NA,5.487804878048781
44133,Cuyahoga County,OH,NA,16.463414634146343
44512,Mahoning County,OH,17.180616740088105,NA
45044,Butler County,OH,15.859030837004406,NA
45069,Butler County,OH,NA,21.341463414634145
45429,Montgomery County,OH,36.56387665198238,NA
45656,Jackson County,OH,NA,79.8780487804878
73018,Grady County,OK,NA,93.29268292682927
73160,Cleveland County,OK,NA,17.073170731707318
74110,Tulsa County,OK,79.29515418502203,NA
97030,Multnomah County,OR,57.268722466960355,NA
97060,Multnomah County,OR,51.10132158590308,NA
97124,Washington County,OR,62.99559471365639,NA
97210,Multnomah County,OR,NA,99.39024390243902
97301,Marion County,OR,29.955947136563875,NA
97302,Marion County,OR,49.77973568281938,NA
97439,Lane County,OR,NA,28.04878048780488
97523,Josephine County,OR,95.15418502202643,NA
97527,Josephine County,OR,23.348017621145374,NA
15033,Washington County,PA,98.23788546255507,NA
15042,Beaver County,PA,NA,94.51219512195121
15084,Allegheny County,PA,90.7488986784141,NA
15227,Allegheny County,PA,25.55066079295154,NA
15236,Allegheny County,PA,NA,15.853658536585366
15425,Fayette County,PA,27.75330396475771,NA
15601,Westmoreland County,PA,1.3215859030837005,NA
15825,Jefferson County,PA,50.22026431718062,NA
16127,Mercer County,PA,60.352422907488986,NA
16201,Armstrong County,PA,12.77533039647577,NA
16652,Huntingdon County,PA,59.03083700440529,NA
16735,McKean County,PA,68.72246696035242,NA
17356,York County,PA,NA,45.1219512195122
17701,Lycoming County,PA,9.691629955947137,NA
18104,Lehigh County,PA,6.607929515418502,NA
18640,Luzerne County,PA,37.88546255506608,NA
19013,Delaware County,PA,17.62114537444934,NA
19036,Delaware County,PA,77.09251101321586,NA
19047,Bucks County,PA,19.383259911894275,NA
19053,Bucks County,PA,39.20704845814978,NA
19063,Delaware County,PA,NA,17.682926829268293
19355,Chester County,PA,77.5330396475771,NA
29036,Lexington County,SC,73.12775330396477,NA
29072,Lexington County,SC,33.480176211453745,NA
29073,Lexington County,SC,44.93392070484582,NA
29532,Darlington County,SC,82.37885462555066,NA
29609,Greenville County,SC,NA,53.65853658536586
29615,Greenville County,SC,NA,29.878048780487802
29662,Greenville County,SC,63.436123348017624,NA
57108,Lincoln County,SD,NA,10.975609756097562
37203,Davidson County,TN,71.36563876651982,NA
37206,Davidson County,TN,47.57709251101321,NA
37209,Davidson County,TN,61.23348017621145,NA
37618,Sullivan County,TN,94.27312775330397,NA
37659,Washington County,TN,NA,34.756097560975604
37701,Blount County,TN,70.92511013215858,NA
37752,Claiborne County,TN,NA,95.1219512195122
37774,Loudon County,TN,29.515418502202646,NA
37917,Knox County,TN,NA,35.97560975609756
38080,Lake County,TN,NA,100
38225,Weakley County,TN,NA,80.48780487804879
38464,Lawrence County,TN,34.801762114537446,NA
75165,Ellis County,TX,32.158590308370044,NA
75181,Dallas County,TX,NA,90.2439024390244
75234,Dallas County,TX,54.18502202643172,NA
75244,Dallas County,TX,86.78414096916299,NA
76028,Johnson County,TX,5.726872246696035,NA
76063,Tarrant County,TX,16.299559471365637,NA
76065,Ellis County,TX,NA,75
76424,Stephens County,TX,75.33039647577093,NA
76504,Bell County,TX,3.524229074889868,NA
77057,Harris County,TX,84.14096916299559,NA
77063,Harris County,TX,NA,79.26829268292683
77095,Harris County,TX,16.740088105726873,NA
77494,Fort Bend County,TX,18.502202643171806,NA
77954,DeWitt County,TX,86.34361233480176,NA
78230,Bexar County,TX,NA,62.80487804878049
78233,Bexar County,TX,59.91189427312775,NA
78249,Bexar County,TX,NA,82.3170731707317
78504,Hidalgo County,TX,NA,69.51219512195121
78526,Cameron County,TX,65.19823788546255,NA
78539,Hidalgo County,TX,69.16299559471366,NA
78574,Hidalgo County,TX,NA,49.390243902439025
78613,Williamson County,TX,20.704845814977972,NA
78744,Travis County,TX,NA,91.46341463414635
79106,Potter County,TX,44.052863436123346,NA
79316,Terry County,TX,74.44933920704845,NA
79549,Scurry County,TX,89.42731277533039,NA
79605,Taylor County,TX,44.49339207048458,NA
84010,Davis County,UT,NA,32.31707317073171
84096,Salt Lake County,UT,63.87665198237885,NA
84108,Salt Lake County,UT,58.14977973568281,NA
20121,Fairfax County,VA,74.00881057268722,NA
22030,Fairfax County,VA,34.36123348017621,NA
22201,Arlington County,VA,NA,93.90243902439023
22601,Winchester city,VA,NA,72.5609756097561
22942,Louisa County,VA,72.68722466960352,NA
23185,James City County,VA,5.286343612334802,NA
23222,Richmond city,VA,NA,46.95121951219512
23454,Virginia Beach city,VA,14.977973568281937,NA
23456,Virginia Beach city,VA,73.568281938326,NA
23462,Virginia Beach city,VA,NA,6.097560975609756
23834,Colonial Heights city,VA,66.96035242290749,NA
23890,Sussex County,VA,94.7136563876652,NA
24588,Campbell County,VA,NA,87.8048780487805
98012,Snohomish County,WA,NA,28.65853658536585
98058,King County,WA,NA,44.51219512195122
98122,King County,WA,NA,60.97560975609756
98229,Whatcom County,WA,67.84140969162996,NA
98520,Grays Harbor County,WA,51.98237885462555,NA
98685,Clark County,WA,NA,76.21951219512195
24740,Mercer County,WV,35.24229074889868,NA
25177,Kanawha County,WV,NA,25.609756097560975
53110,Milwaukee County,WI,37.00440528634361,NA
53115,Walworth County,WI,NA,50.609756097560975
53182,Racine County,WI,NA,84.14634146341463
53209,Milwaukee County,WI,2.643171806167401,NA
53212,Milwaukee County,WI,NA,52.4390243902439
53214,Milwaukee County,WI,13.215859030837004,NA
53220,Milwaukee County,WI,30.396475770925107,NA
53226,Milwaukee County,WI,38.76651982378855,NA
53597,Dane County,WI,NA,64.63414634146342
53913,Sauk County,WI,NA,21.951219512195124
54166,Shawano County,WI,NA,55.487804878048784
54220,Manitowoc County,WI,3.0837004405286343,NA
54302,Brown County,WI,51.541850220264315,NA
54449,Wood County,WI,NA,73.17073170731707
54665,Vernon County,WI,NA,63.41463414634146
54843,Sawyer County,WI,81.4977973568282,NA
54904,Winnebago County,WI,40.969162995594715,NA
