ZipCode,county,state,Adult,Retirement,Geriatric
35007,Shelby County,AL,NA,38.481675392670155,NA
35010,Tallapoosa County,AL,NA,NA,31.67701863354037
35016,Marshall County,AL,NA,90.57591623036649,NA
35022,Jefferson County,AL,NA,17.801047120418847,NA
35216,Jefferson County,AL,NA,51.57068062827225,NA
35406,Tuscaloosa County,AL,NA,NA,39.75155279503105
35950,Marshall County,AL,NA,58.90052356020943,NA
35962,DeKalb County,AL,NA,95.54973821989529,NA
36091,Chilton County,AL,100,NA,NA
36272,Calhoun County,AL,52.400000000000006,NA,NA
36320,Houston County,AL,NA,96.8586387434555,NA
36345,Henry County,AL,NA,NA,96.8944099378882
36467,Covington County,AL,78,NA,NA
36756,Perry County,AL,NA,81.41361256544502,NA
36784,Clarke County,AL,NA,NA,92.54658385093167
36870,Lee County,AL,NA,NA,71.11801242236024
99502,Anchorage Municipality,AK,NA,NA,67.70186335403726
85009,Maricopa County,AZ,NA,NA,58.07453416149069
85033,Maricopa County,AZ,17.599999999999998,NA,NA
85040,Maricopa County,AZ,NA,86.64921465968587,NA
85083,Maricopa County,AZ,NA,NA,83.22981366459628
85120,Pinal County,AZ,NA,35.602094240837694,NA
85213,Maricopa County,AZ,NA,NA,61.49068322981367
85260,Maricopa County,AZ,NA,NA,23.60248447204969
85323,Maricopa County,AZ,33.6,NA,NA
85326,Maricopa County,AZ,NA,44.50261780104712,NA
85339,Maricopa County,AZ,NA,NA,87.88819875776397
85351,Maricopa County,AZ,NA,10.471204188481675,NA
85375,Maricopa County,AZ,NA,NA,0.9316770186335404
85546,Graham County,AZ,NA,NA,80.12422360248446
85745,Pima County,AZ,NA,55.497382198952884,NA
86001,Coconino County,AZ,22,NA,NA
86403,Mohave County,AZ,NA,56.80628272251309,NA
72210,Pulaski County,AR,NA,65.44502617801047,NA
72401,Craighead County,AR,NA,11.780104712041885,NA
72801,Pope County,AR,NA,83.7696335078534,NA
72837,Pope County,AR,91.2,NA,NA
90003,Los Angeles County,CA,72.39999999999999,NA,NA
90008,Los Angeles County,CA,80,NA,NA
90018,Los Angeles County,CA,NA,NA,68.63354037267081
90024,Los Angeles County,CA,NA,99.73821989528795,NA
90035,Los Angeles County,CA,NA,NA,26.70807453416149
90221,Los Angeles County,CA,NA,79.05759162303664,77.63975155279503
90230,Los Angeles County,CA,83.2,NA,NA
90249,Los Angeles County,CA,NA,81.67539267015707,NA
90605,Los Angeles County,CA,NA,70.94240837696336,NA
90680,Orange County,CA,NA,72.5130890052356,64.90683229813664
91006,Los Angeles County,CA,96.39999999999999,NA,NA
91030,Los Angeles County,CA,NA,NA,79.5031055900621
91106,Los Angeles County,CA,NA,NA,92.54658385093167
91206,Los Angeles County,CA,NA,NA,43.47826086956522
91302,Los Angeles County,CA,NA,NA,59.3167701863354
91304,Los Angeles County,CA,NA,NA,18.32298136645963
91306,Los Angeles County,CA,NA,NA,47.51552795031056
91344,Los Angeles County,CA,NA,24.345549738219894,NA
91355,Los Angeles County,CA,NA,52.09424083769634,NA
91702,Los Angeles County,CA,33.2,NA,NA
91710,San Bernardino County,CA,NA,18.32460732984293,NA
91754,Los Angeles County,CA,NA,NA,24.22360248447205
91761,San Bernardino County,CA,NA,33.50785340314136,NA
91780,Los Angeles County,CA,NA,NA,47.20496894409938
91942,San Diego County,CA,NA,44.76439790575916,NA
92064,San Diego County,CA,NA,38.7434554973822,NA
92065,San Diego County,CA,NA,66.75392670157068,NA
92120,San Diego County,CA,NA,69.3717277486911,NA
92126,San Diego County,CA,NA,77.4869109947644,NA
92154,San Diego County,CA,NA,20.418848167539267,NA
92201,Riverside County,CA,NA,53.92670157068062,NA
92262,Riverside County,CA,NA,NA,74.22360248447205
92335,San Bernardino County,CA,10.4,NA,NA
92376,San Bernardino County,CA,10,NA,NA
92555,Riverside County,CA,63.6,NA,NA
92557,Riverside County,CA,39.6,NA,NA
92596,Riverside County,CA,NA,92.93193717277487,NA
92626,Orange County,CA,NA,NA,31.987577639751553
92651,Orange County,CA,NA,48.69109947643979,NA
92660,Orange County,CA,NA,NA,15.217391304347828
92683,Orange County,CA,52,NA,NA
92802,Orange County,CA,58.4,NA,NA
93012,Ventura County,CA,NA,46.33507853403142,NA
93065,Ventura County,CA,NA,84.03141361256544,NA
93250,Kern County,CA,NA,93.97905759162303,NA
93277,Tulare County,CA,28.000000000000004,NA,NA
93442,San Luis Obispo County,CA,NA,NA,81.67701863354037
93555,Kern County,CA,NA,NA,37.577639751552795
93705,Fresno County,CA,NA,NA,56.83229813664597
93720,Fresno County,CA,NA,73.82198952879581,NA
94025,San Mateo County,CA,NA,36.38743455497382,NA
94080,San Mateo County,CA,34.4,NA,NA
94087,Santa Clara County,CA,NA,90.31413612565446,NA
94124,San Francisco County,CA,27.200000000000003,NA,NA
94506,Contra Costa County,CA,NA,NA,99.06832298136646
94526,Contra Costa County,CA,NA,NA,44.72049689440994
94531,Contra Costa County,CA,35.199999999999996,NA,NA
94534,Solano County,CA,NA,NA,40.683229813664596
94541,Alameda County,CA,NA,18.586387434554975,NA
94559,Napa County,CA,NA,NA,48.4472049689441
94565,Contra Costa County,CA,NA,NA,24.84472049689441
94578,Alameda County,CA,96,NA,NA
94609,Alameda County,CA,NA,95.81151832460732,NA
94705,Alameda County,CA,NA,NA,91.61490683229813
94928,Sonoma County,CA,NA,NA,44.409937888198755
95008,Santa Clara County,CA,NA,NA,75.77639751552795
95076,Santa Cruz County,CA,NA,54.45026178010471,NA
95111,Santa Clara County,CA,NA,NA,40.06211180124223
95407,Sonoma County,CA,64.8,NA,NA
95476,Sonoma County,CA,76.8,NA,NA
95501,Humboldt County,CA,NA,35.07853403141361,NA
95667,El Dorado County,CA,NA,NA,1.8633540372670807
95670,Sacramento County,CA,NA,32.460732984293195,NA
95678,Placer County,CA,53.6,NA,NA
95685,Amador County,CA,97.6,NA,NA
95827,Sacramento County,CA,NA,NA,64.59627329192547
95832,Sacramento County,CA,98.8,NA,NA
95932,Colusa County,CA,NA,NA,88.81987577639751
95961,Yuba County,CA,NA,NA,98.13664596273291
80011,Arapahoe County,CO,8,NA,NA
80110,Arapahoe County,CO,70.39999999999999,NA,NA
80111,Arapahoe County,CO,NA,64.65968586387434,NA
80112,Arapahoe County,CO,NA,98.1675392670157,NA
80120,Arapahoe County,CO,NA,NA,47.82608695652174
80129,Douglas County,CO,NA,81.93717277486911,NA
80229,Adams County,CO,14.799999999999999,43.717277486910994,NA
80260,Adams County,CO,NA,60.47120418848168,NA
80521,Larimer County,CO,73.2,NA,NA
80524,Larimer County,CO,NA,26.17801047120419,NA
80528,Larimer County,CO,NA,70.41884816753927,NA
80537,Larimer County,CO,NA,16.75392670157068,NA
80620,Weld County,CO,48,NA,NA
81003,Pueblo County,CO,NA,76.70157068062828,NA
81005,Pueblo County,CO,74.8,NA,NA
81008,Pueblo County,CO,NA,NA,79.19254658385093
81212,Fremont County,CO,42.4,NA,NA
81252,Custer County,CO,NA,NA,94.40993788819875
81401,Montrose County,CO,NA,41.8848167539267,NA
06076,Tolland County,CT,96.8,NA,NA
06415,New London County,CT,57.99999999999999,NA,NA
06437,New Haven County,CT,NA,96.33507853403141,NA
06443,New Haven County,CT,NA,NA,63.04347826086957
06484,Fairfield County,CT,NA,28.534031413612563,NA
06488,New Haven County,CT,NA,37.95811518324607,NA
06511,New Haven County,CT,4.3999999999999995,NA,NA
06512,New Haven County,CT,NA,79.31937172774869,NA
06513,New Haven County,CT,NA,NA,23.29192546583851
06515,New Haven County,CT,NA,NA,40.37267080745342
06770,New Haven County,CT,NA,NA,96.58385093167702
06790,Litchfield County,CT,NA,2.6178010471204187,NA
06851,Fairfield County,CT,NA,NA,31.05590062111801
19701,New Castle County,DE,NA,NA,45.3416149068323
19711,New Castle County,DE,31.2,NA,NA
19713,New Castle County,DE,NA,NA,36.64596273291926
19720,New Castle County,DE,3.2,NA,NA
19810,New Castle County,DE,NA,NA,34.47204968944099
19952,Kent County,DE,88.8,NA,NA
19966,Sussex County,DE,NA,40.05235602094241,NA
19970,Sussex County,DE,NA,59.947643979057595,NA
19977,Kent County,DE,NA,NA,45.65217391304348
32034,Nassau County,FL,NA,NA,18.633540372670808
32141,Volusia County,FL,75.6,NA,NA
32162,Sumter County,FL,NA,2.356020942408377,20.18633540372671
32211,Duval County,FL,23.200000000000003,NA,NA
32303,Leon County,FL,NA,NA,53.105590062111794
32327,Wakulla County,FL,NA,80.36649214659685,76.08695652173914
32408,Bay County,FL,92.80000000000001,NA,NA
32444,Bay County,FL,74,NA,NA
32547,Okaloosa County,FL,NA,55.235602094240846,NA
32608,Alachua County,FL,7.6,NA,NA
32618,Alachua County,FL,NA,96.07329842931938,NA
32725,Volusia County,FL,37.6,NA,NA
32726,Lake County,FL,NA,NA,38.81987577639752
32812,Orange County,FL,39.2,NA,NA
32839,Orange County,FL,NA,71.46596858638743,NA
32905,Brevard County,FL,NA,47.12041884816754,NA
32922,Brevard County,FL,53.2,NA,NA
32931,Brevard County,FL,NA,66.49214659685863,NA
32940,Brevard County,FL,NA,NA,32.91925465838509
32952,Brevard County,FL,NA,47.64397905759162,NA
33036,Monroe County,FL,99.6,NA,NA
33062,Broward County,FL,NA,26.439790575916227,NA
33063,Broward County,FL,NA,27.486910994764397,12.732919254658384
33133,Miami-Dade County,FL,NA,41.62303664921466,NA
33139,Miami-Dade County,FL,NA,52.879581151832454,NA
33140,Miami-Dade County,FL,NA,NA,93.16770186335404
33142,Miami-Dade County,FL,NA,19.895287958115183,20.496894409937887
33157,Miami-Dade County,FL,NA,21.465968586387437,NA
33162,Miami-Dade County,FL,NA,81.15183246073299,NA
33165,Miami-Dade County,FL,NA,35.86387434554974,24.53416149068323
33185,Miami-Dade County,FL,NA,NA,95.03105590062113
33308,Broward County,FL,NA,NA,4.037267080745342
33313,Broward County,FL,NA,NA,43.7888198757764
33321,Broward County,FL,NA,NA,6.211180124223603
33323,Broward County,FL,NA,NA,87.5776397515528
33324,Broward County,FL,73.6,NA,NA
33325,Broward County,FL,NA,NA,90.37267080745342
33404,Palm Beach County,FL,NA,NA,43.16770186335403
33436,Palm Beach County,FL,NA,NA,15.527950310559005
33440,Hendry County,FL,NA,67.5392670157068,NA
33446,Palm Beach County,FL,NA,NA,4.658385093167702
33461,Palm Beach County,FL,NA,92.40837696335078,NA
33566,Hillsborough County,FL,NA,67.01570680628272,NA
33573,Hillsborough County,FL,NA,NA,2.7950310559006213
33611,Hillsborough County,FL,NA,NA,53.41614906832298
33704,Pinellas County,FL,NA,75.91623036649214,NA
33709,Pinellas County,FL,54.800000000000004,NA,NA
33756,Pinellas County,FL,NA,39.26701570680628,NA
33760,Pinellas County,FL,NA,NA,85.71428571428571
33770,Pinellas County,FL,NA,57.32984293193717,NA
33778,Pinellas County,FL,NA,67.27748691099477,NA
33805,Polk County,FL,NA,NA,58.38509316770186
33823,Polk County,FL,36.8,NA,NA
33860,Polk County,FL,NA,NA,71.42857142857143
33876,Highlands County,FL,NA,NA,77.32919254658384
33897,Polk County,FL,NA,NA,68.01242236024845
33905,Lee County,FL,NA,24.345549738219894,NA
33952,Charlotte County,FL,27.6,NA,NA
34113,Collier County,FL,88,NA,NA
34117,Collier County,FL,69.19999999999999,NA,NA
34207,Manatee County,FL,NA,NA,49.378881987577635
34208,Manatee County,FL,29.599999999999998,NA,NA
34209,Manatee County,FL,NA,21.98952879581152,NA
34235,Sarasota County,FL,NA,NA,36.95652173913043
34275,Sarasota County,FL,NA,NA,16.149068322981368
34285,Sarasota County,FL,NA,NA,13.043478260869565
34432,Marion County,FL,NA,70.15706806282722,NA
34465,Citrus County,FL,67.2,NA,NA
34606,Hernando County,FL,46.800000000000004,NA,NA
34608,Hernando County,FL,NA,50,NA
34613,Hernando County,FL,NA,NA,34.78260869565217
34711,Lake County,FL,59.199999999999996,NA,NA
34736,Lake County,FL,NA,NA,50.931677018633536
34746,Osceola County,FL,38.800000000000004,NA,NA
34947,St. Lucie County,FL,NA,NA,86.0248447204969
34986,St. Lucie County,FL,NA,NA,10.869565217391305
34997,Martin County,FL,NA,NA,6.521739130434782
30039,Gwinnett County,GA,NA,55.75916230366492,NA
30047,Gwinnett County,GA,NA,92.14659685863874,NA
30052,Walton County,GA,NA,9.424083769633508,NA
30080,Cobb County,GA,NA,88.21989528795811,NA
30093,Gwinnett County,GA,98,NA,NA
30108,Carroll County,GA,NA,NA,90.99378881987577
30117,Carroll County,GA,NA,32.72251308900523,NA
30135,Douglas County,GA,NA,14.136125654450263,NA
30157,Paulding County,GA,NA,24.86910994764398,NA
30161,Floyd County,GA,20.4,NA,NA
30180,Carroll County,GA,NA,36.910994764397905,NA
30223,Spalding County,GA,NA,NA,32.298136645962735
30238,Clayton County,GA,NA,95.28795811518324,NA
30248,Henry County,GA,NA,NA,65.83850931677019
30268,Fulton County,GA,85.6,NA,NA
30281,Henry County,GA,29.2,NA,NA
30307,DeKalb County,GA,NA,74.86910994764398,NA
30339,Cobb County,GA,NA,NA,95.34161490683229
30341,DeKalb County,GA,NA,89.00523560209425,NA
30439,Candler County,GA,NA,75.13089005235602,NA
30507,Hall County,GA,47.199999999999996,NA,NA
30534,Dawson County,GA,NA,34.29319371727749,NA
30559,Fannin County,GA,NA,86.91099476439791,NA
30741,Walker County,GA,NA,19.3717277486911,NA
31028,Houston County,GA,NA,93.97905759162303,NA
31047,Houston County,GA,NA,NA,87.26708074534162
31061,Baldwin County,GA,NA,26.701570680628272,NA
31088,Houston County,GA,NA,NA,19.25465838509317
31305,McIntosh County,GA,NA,94.50261780104712,NA
31639,Berrien County,GA,NA,73.56020942408377,NA
31907,Muscogee County,GA,NA,3.1413612565445024,NA
96701,Honolulu County,HI,36,NA,NA
96789,Honolulu County,HI,NA,58.63874345549738,NA
96793,Maui County,HI,81.2,NA,NA
96819,Honolulu County,HI,NA,15.44502617801047,NA
83617,Gem County,ID,NA,48.167539267015705,NA
83642,Ada County,ID,NA,8.115183246073299,NA
60018,Cook County,IL,66,NA,NA
60050,McHenry County,IL,NA,NA,18.012422360248447
60056,Cook County,IL,NA,16.49214659685864,NA
60073,Lake County,IL,NA,64.3979057591623,NA
60077,Cook County,IL,NA,NA,70.80745341614907
60085,Lake County,IL,19.6,NA,NA
60123,Kane County,IL,NA,NA,21.428571428571427
60137,DuPage County,IL,NA,NA,14.285714285714285
60171,Cook County,IL,NA,95.02617801047121,NA
60189,DuPage County,IL,NA,22.25130890052356,NA
60191,DuPage County,IL,NA,53.141361256544506,NA
60417,Will County,IL,NA,85.34031413612566,NA
60430,Cook County,IL,NA,52.617801047120416,NA
60441,Will County,IL,24.8,NA,NA
60443,Cook County,IL,80.4,NA,NA
60448,Will County,IL,59.599999999999994,NA,NA
60453,Cook County,IL,NA,NA,32.608695652173914
60463,Cook County,IL,NA,NA,26.39751552795031
60543,Kendall County,IL,NA,NA,69.87577639751554
60558,Cook County,IL,NA,NA,56.2111801242236
60586,Will County,IL,15.6,NA,NA
60615,Cook County,IL,NA,NA,21.73913043478261
60617,Cook County,IL,6.800000000000001,NA,NA
60618,Cook County,IL,NA,NA,89.13043478260869
60620,Cook County,IL,7.199999999999999,NA,4.968944099378882
60621,Cook County,IL,37.2,NA,NA
60637,Cook County,IL,50.8,NA,NA
60645,Cook County,IL,NA,NA,54.96894409937888
60647,Cook County,IL,32,NA,NA
60652,Cook County,IL,NA,60.20942408376963,NA
60707,Cook County,IL,21.2,NA,NA
60914,Kankakee County,IL,NA,NA,28.57142857142857
61021,Lee County,IL,NA,7.068062827225131,NA
61072,Winnebago County,IL,NA,84.29319371727748,NA
61201,Rock Island County,IL,40.400000000000006,NA,NA
61603,Peoria County,IL,70,NA,NA
62260,St. Clair County,IL,NA,NA,83.85093167701864
62832,Perry County,IL,NA,73.03664921465969,NA
62864,Jefferson County,IL,NA,40.83769633507853,NA
46037,Hamilton County,IN,NA,69.10994764397905,NA
46143,Johnson County,IN,NA,NA,7.142857142857142
46203,Marion County,IN,NA,14.659685863874344,NA
46220,Marion County,IN,NA,47.90575916230366,NA
46227,Marion County,IN,NA,5.2356020942408374,NA
46228,Marion County,IN,94,NA,NA
46360,LaPorte County,IN,5.2,4.18848167539267,NA
46383,Porter County,IN,8.799999999999999,NA,NA
46392,Jasper County,IN,71.6,NA,NA
46563,Marshall County,IN,NA,73.29842931937172,NA
46807,Allen County,IN,NA,81.93717277486911,NA
46901,Howard County,IN,2.8000000000000003,NA,NA
46902,Howard County,IN,NA,NA,8.695652173913043
46952,Grant County,IN,NA,5.7591623036649215,NA
47150,Floyd County,IN,11.600000000000001,NA,NA
47331,Fayette County,IN,NA,13.612565445026178,NA
47362,Henry County,IN,23.599999999999998,NA,NA
47408,Monroe County,IN,NA,89.26701570680629,NA
50315,Polk County,IA,NA,23.82198952879581,NA
50317,Polk County,IA,12.4,NA,NA
51503,Pottawattamie County,IA,NA,3.926701570680628,NA
52501,Wapello County,IA,14.399999999999999,NA,NA
52803,Scott County,IA,36.4,NA,NA
66047,Douglas County,KS,NA,76.43979057591623,NA
66061,Johnson County,KS,20.8,NA,NA
66106,Wyandotte County,KS,NA,NA,66.45962732919256
66441,Geary County,KS,76,NA,NA
66604,Shawnee County,KS,82,NA,NA
67214,Sedgwick County,KS,75.2,NA,NA
67226,Sedgwick County,KS,90.4,NA,NA
67502,Reno County,KS,NA,NA,51.86335403726709
40059,Jefferson County,KY,84.39999999999999,NA,NA
40215,Jefferson County,KY,NA,46.07329842931937,NA
40216,Jefferson County,KY,NA,12.56544502617801,NA
40229,Jefferson County,KY,NA,20.157068062827225,NA
40272,Jefferson County,KY,NA,87.95811518324608,NA
40342,Anderson County,KY,NA,NA,72.98136645962732
40456,Rockcastle County,KY,NA,68.06282722513089,NA
40503,Fayette County,KY,NA,65.70680628272252,NA
40741,Laurel County,KY,NA,71.98952879581152,NA
40769,Whitley County,KY,NA,NA,64.90683229813664
41018,Kenton County,KY,NA,25.13089005235602,NA
41042,Boone County,KY,NA,6.544502617801047,NA
41143,Carter County,KY,NA,NA,81.05590062111801
41240,Johnson County,KY,NA,70.68062827225131,NA
41501,Pike County,KY,NA,14.397905759162304,NA
42025,Marshall County,KY,NA,43.97905759162304,NA
42345,Muhlenberg County,KY,NA,NA,56.2111801242236
70090,St. James Parish,LA,NA,74.08376963350786,NA
70128,Orleans Parish,LA,NA,31.413612565445025,NA
70359,Terrebonne Parish,LA,31.6,NA,NA
70445,St. Tammany Parish,LA,NA,67.80104712041884,NA
70582,St. Martin Parish,LA,NA,82.98429319371728,NA
70583,Lafayette Parish,LA,NA,NA,73.6024844720497
70601,Calcasieu Parish,LA,NA,8.638743455497382,NA
70611,Calcasieu Parish,LA,30.4,NA,NA
70615,Calcasieu Parish,LA,NA,85.07853403141361,NA
70767,West Baton Rouge Parish,LA,51.2,NA,NA
03908,York County,ME,86,NA,NA
04032,Cumberland County,ME,NA,NA,66.77018633540372
04401,Penobscot County,ME,NA,NA,0
20708,Prince George's County,MD,86.4,NA,NA
20720,Prince George's County,MD,88.4,NA,NA
20876,Montgomery County,MD,NA,91.8848167539267,NA
20902,Montgomery County,MD,NA,62.82722513089005,NA
20906,Montgomery County,MD,94.39999999999999,NA,NA
21133,Baltimore County,MD,62.8,NA,NA
21209,Baltimore County,MD,NA,61.518324607329845,NA
21214,Baltimore city,MD,64.4,NA,NA
21218,Baltimore city,MD,10.8,NA,NA
21236,Baltimore County,MD,40.8,NA,NA
01013,Hampden County,MA,NA,NA,54.347826086956516
01085,Hampden County,MA,2,NA,NA
01105,Hampden County,MA,NA,78.01047120418848,NA
01118,Hampden County,MA,NA,NA,50
01247,Berkshire County,MA,NA,NA,55.590062111801245
01420,Worcester County,MA,NA,1.832460732984293,NA
01453,Worcester County,MA,1.6,NA,17.391304347826086
01581,Worcester County,MA,NA,91.09947643979058,NA
01746,Middlesex County,MA,22.400000000000002,NA,NA
01801,Middlesex County,MA,NA,79.84293193717278,NA
01821,Middlesex County,MA,NA,78.27225130890052,NA
01824,Middlesex County,MA,99.2,NA,NA
01826,Middlesex County,MA,NA,NA,22.67080745341615
01850,Middlesex County,MA,NA,18.586387434554975,NA
01864,Middlesex County,MA,NA,NA,57.7639751552795
01880,Middlesex County,MA,NA,6.020942408376963,NA
01887,Middlesex County,MA,NA,94.76439790575915,NA
01906,Essex County,MA,NA,NA,8.074534161490684
01907,Essex County,MA,NA,33.246073298429316,NA
01952,Essex County,MA,NA,59.16230366492147,NA
02048,Bristol County,MA,NA,13.874345549738221,NA
02090,Norfolk County,MA,NA,NA,42.54658385093168
02124,Suffolk County,MA,0,NA,NA
02169,Norfolk County,MA,NA,0.5235602094240838,NA
02191,Norfolk County,MA,NA,87.69633507853402,NA
02301,Plymouth County,MA,NA,0,NA
02421,Middlesex County,MA,NA,NA,13.975155279503104
02451,Middlesex County,MA,NA,NA,95.96273291925466
02493,Middlesex County,MA,NA,NA,53.72670807453416
02540,Barnstable County,MA,NA,37.43455497382199,NA
02720,Bristol County,MA,NA,1.0471204188481675,NA
02740,Bristol County,MA,1.2,NA,NA
02744,Bristol County,MA,NA,31.93717277486911,NA
02747,Bristol County,MA,NA,51.30890052356021,NA
02766,Bristol County,MA,NA,9.162303664921465,NA
02780,Bristol County,MA,0.4,NA,NA
48033,Oakland County,MI,44,NA,NA
48045,Macomb County,MI,26.400000000000002,NA,NA
48065,Macomb County,MI,93.60000000000001,NA,NA
48072,Oakland County,MI,55.2,NA,NA
48073,Oakland County,MI,NA,34.29319371727749,NA
48080,Macomb County,MI,NA,14.921465968586386,NA
48081,Macomb County,MI,NA,NA,16.149068322981368
48089,Macomb County,MI,NA,23.036649214659686,NA
48091,Macomb County,MI,5.6000000000000005,NA,NA
48101,Wayne County,MI,NA,27.748691099476442,NA
48103,Washtenaw County,MI,NA,1.3089005235602094,NA
48105,Washtenaw County,MI,NA,NA,2.484472049689441
48127,Wayne County,MI,NA,56.54450261780105,NA
48150,Wayne County,MI,NA,21.20418848167539,NA
48162,Monroe County,MI,NA,45.54973821989529,NA
48166,Monroe County,MI,NA,37.43455497382199,NA
48168,Wayne County,MI,NA,71.20418848167539,NA
48169,Livingston County,MI,NA,99.47643979057592,NA
48183,Wayne County,MI,NA,5.49738219895288,NA
48184,Wayne County,MI,16.400000000000002,NA,NA
48195,Wayne County,MI,NA,10.209424083769633,NA
48203,Wayne County,MI,NA,21.727748691099478,NA
48209,Wayne County,MI,60.8,50.78534031413613,NA
48210,Wayne County,MI,28.4,NA,NA
48212,Wayne County,MI,72.8,NA,NA
48213,Wayne County,MI,12,NA,NA
48221,Wayne County,MI,NA,NA,3.1055900621118013
48228,Wayne County,MI,NA,7.591623036649215,NA
48234,Wayne County,MI,NA,NA,25.465838509316768
48239,Wayne County,MI,9.2,NA,NA
48304,Oakland County,MI,NA,NA,28.88198757763975
48309,Oakland County,MI,86.8,NA,NA
48312,Macomb County,MI,NA,NA,10.559006211180124
48348,Oakland County,MI,NA,NA,57.453416149068325
48413,Huron County,MI,NA,53.403141361256544,NA
48415,Saginaw County,MI,52.800000000000004,NA,NA
48439,Genesee County,MI,NA,NA,13.664596273291925
48446,Lapeer County,MI,48.4,NA,NA
48503,Genesee County,MI,NA,19.63350785340314,NA
48504,Genesee County,MI,20,45.287958115183244,NA
48638,Saginaw County,MI,NA,46.596858638743456,NA
48746,Tuscola County,MI,NA,NA,82.91925465838509
49009,Kalamazoo County,MI,13.200000000000001,NA,14.906832298136646
49022,Berrien County,MI,38,NA,NA
49047,Cass County,MI,NA,NA,63.35403726708074
49085,Berrien County,MI,NA,NA,35.09316770186335
49090,Van Buren County,MI,NA,42.40837696335078,NA
49201,Jackson County,MI,NA,NA,9.316770186335404
49307,Mecosta County,MI,NA,NA,45.03105590062112
49348,Allegan County,MI,NA,NA,73.29192546583852
49418,Kent County,MI,NA,NA,99.37888198757764
49424,Ottawa County,MI,NA,12.827225130890053,NA
49431,Mason County,MI,34.8,NA,NA
49651,Missaukee County,MI,NA,NA,59.62732919254658
49738,Crawford County,MI,NA,NA,81.98757763975155
49862,Alger County,MI,NA,NA,97.82608695652173
55021,Rice County,MN,NA,40.31413612565445,NA
55118,Dakota County,MN,NA,NA,23.91304347826087
55403,Hennepin County,MN,25.2,NA,NA
55414,Hennepin County,MN,56.00000000000001,NA,NA
55416,Hennepin County,MN,45.6,NA,NA
55446,Hennepin County,MN,NA,80.10471204188482,NA
55808,St. Louis County,MN,94.8,NA,NA
55811,St. Louis County,MN,NA,NA,2.1739130434782608
56085,Brown County,MN,NA,74.3455497382199,NA
56093,Waseca County,MN,NA,51.832460732984295,59.006211180124225
56401,Crow Wing County,MN,NA,4.973821989528796,NA
39466,Pearl River County,MS,NA,17.277486910994764,NA
39560,Harrison County,MS,NA,9.68586387434555,NA
39601,Lincoln County,MS,NA,NA,39.44099378881988
63017,St. Louis County,MO,NA,12.30366492146597,NA
63135,St. Louis County,MO,30.8,NA,NA
63136,St. Louis County,MO,NA,10.732984293193718,NA
63137,St. Louis County,MO,NA,44.24083769633508,NA
63376,St. Charles County,MO,NA,2.094240837696335,NA
64030,Jackson County,MO,19.2,NA,NA
64037,Lafayette County,MO,NA,90.0523560209424,NA
64058,Jackson County,MO,NA,NA,93.7888198757764
64083,Cass County,MO,NA,NA,48.75776397515528
64114,Jackson County,MO,NA,NA,33.85093167701863
64130,Jackson County,MO,6.4,NA,NA
64138,Jackson County,MO,NA,17.015706806282722,NA
64151,Platte County,MO,32.4,NA,NA
64157,Clay County,MO,NA,NA,93.47826086956522
65616,Taney County,MO,NA,NA,26.08695652173913
59901,Flathead County,MT,NA,NA,0.3105590062111801
89102,Clark County,NV,NA,NA,89.44099378881988
89108,Clark County,NV,NA,NA,67.08074534161491
89110,Clark County,NV,NA,NA,59.93788819875776
89119,Clark County,NV,22.8,NA,NA
89123,Clark County,NV,NA,32.98429319371728,NA
89149,Clark County,NV,NA,NA,60.86956521739131
89403,Lyon County,NV,40,NA,NA
89408,Lyon County,NV,NA,36.64921465968586,NA
89431,Washoe County,NV,NA,NA,26.70807453416149
89445,Humboldt County,NV,82.8,NA,NA
89503,Washoe County,NV,NA,NA,86.33540372670807
89506,Washoe County,NV,NA,29.31937172774869,NA
89508,Washoe County,NV,NA,72.25130890052355,NA
89512,Washoe County,NV,NA,48.42931937172775,75.46583850931677
89523,Washoe County,NV,NA,NA,88.19875776397515
03833,Rockingham County,NH,NA,36.12565445026178,NA
03865,Rockingham County,NH,91.60000000000001,NA,NA
03867,Strafford County,NH,NA,NA,5.590062111801243
03874,Rockingham County,NH,80.80000000000001,NA,NA
07012,Passaic County,NJ,NA,83.24607329842932,NA
07020,Bergen County,NJ,NA,76.96335078534031,NA
07040,Essex County,NJ,NA,62.04188481675392,NA
07059,Somerset County,NJ,NA,NA,77.95031055900621
07060,Union County,NJ,6,NA,NA
07073,Bergen County,NJ,NA,87.43455497382199,NA
07480,Passaic County,NJ,NA,NA,95.65217391304348
07601,Bergen County,NJ,74.4,NA,NA
07728,Monmouth County,NJ,49.6,NA,82.29813664596274
07840,Warren County,NJ,NA,NA,33.85093167701863
07849,Morris County,NJ,NA,97.64397905759162,NA
08021,Camden County,NJ,NA,7.853403141361256,NA
08052,Burlington County,NJ,NA,43.19371727748691,NA
08086,Gloucester County,NJ,79.2,NA,NA
08088,Burlington County,NJ,NA,63.61256544502618,NA
08096,Gloucester County,NJ,NA,8.900523560209423,NA
08106,Camden County,NJ,NA,NA,97.51552795031056
08330,Atlantic County,NJ,NA,28.01047120418848,92.2360248447205
08610,Mercer County,NJ,NA,49.73821989528796,NA
08691,Mercer County,NJ,NA,85.6020942408377,NA
08731,Ocean County,NJ,NA,NA,62.11180124223602
08755,Ocean County,NJ,25.6,NA,NA
08848,Hunterdon County,NJ,NA,NA,84.472049689441
08872,Middlesex County,NJ,NA,80.6282722513089,NA
08876,Somerset County,NJ,NA,79.58115183246073,NA
08902,Middlesex County,NJ,68.4,NA,NA
87004,Sandoval County,NM,NA,NA,70.1863354037267
87108,Bernalillo County,NM,NA,NA,29.81366459627329
87317,McKinley County,NM,NA,NA,99.68944099378882
87505,Santa Fe County,NM,NA,NA,60.55900621118012
87547,,NM,NA,NA,89.75155279503106
88007,Doa Ana County,NM,NA,56.02094240837696,NA
88008,Doa Ana County,NM,NA,NA,94.72049689440993
88011,Doa Ana County,NM,NA,NA,27.95031055900621
88310,Otero County,NM,NA,3.664921465968586,NA
10001,New York County,NY,43.2,NA,NA
10025,New York County,NY,NA,NA,19.875776397515526
10029,New York County,NY,NA,NA,8.385093167701864
10034,New York County,NY,95.6,NA,NA
10035,New York County,NY,28.799999999999997,NA,NA
10308,Richmond County,NY,NA,NA,69.25465838509317
10452,Bronx County,NY,0.8,NA,NA
10455,Bronx County,NY,NA,NA,17.70186335403727
10458,Bronx County,NY,4,NA,35.40372670807454
10463,Bronx County,NY,NA,NA,3.4161490683229814
10469,Bronx County,NY,78.4,NA,NA
10472,Bronx County,NY,NA,17.539267015706805,NA
10475,Bronx County,NY,26.400000000000002,NA,NA
10801,Westchester County,NY,NA,31.675392670157066,NA
10941,Orange County,NY,79.60000000000001,NA,NA
10989,Rockland County,NY,NA,NA,80.43478260869566
11021,Nassau County,NY,NA,86.38743455497382,NA
11206,Kings County,NY,NA,NA,31.366459627329192
11214,Kings County,NY,16.8,NA,NA
11237,Kings County,NY,NA,15.968586387434556,NA
11364,Queens County,NY,NA,NA,60.24844720496895
11411,Queens County,NY,NA,NA,63.66459627329193
11557,Nassau County,NY,NA,NA,88.50931677018633
11580,Nassau County,NY,62.4,NA,NA
11735,Nassau County,NY,NA,60.73298429319372,NA
11746,Suffolk County,NY,NA,NA,11.490683229813664
11762,Nassau County,NY,NA,91.36125654450262,NA
11764,Suffolk County,NY,NA,NA,80.74534161490683
11772,Suffolk County,NY,32.800000000000004,NA,NA
11961,Suffolk County,NY,NA,NA,36.024844720496894
12211,Albany County,NY,NA,NA,83.54037267080744
12304,Schenectady County,NY,NA,39.00523560209424,NA
12401,Ulster County,NY,NA,NA,33.54037267080746
13069,Oswego County,NY,NA,11.2565445026178,NA
13088,Onondaga County,NY,NA,48.952879581151834,NA
13224,Onondaga County,NY,NA,89.52879581151832,NA
13760,Broome County,NY,NA,NA,12.422360248447205
13827,Tioga County,NY,NA,NA,78.26086956521739
14031,Erie County,NY,NA,86.12565445026178,NA
14051,Erie County,NY,NA,49.21465968586388,NA
14063,Chautauqua County,NY,89.60000000000001,NA,NA
14094,Niagara County,NY,2.4,NA,NA
14127,Erie County,NY,NA,16.230366492146597,NA
14201,Erie County,NY,81.2,NA,NA
14502,Wayne County,NY,NA,NA,67.3913043478261
14526,Monroe County,NY,NA,15.44502617801047,NA
14564,Ontario County,NY,92,NA,NA
14580,Monroe County,NY,NA,4.712041884816754,NA
14870,Steuben County,NY,NA,90.83769633507853,NA
27030,Surry County,NC,NA,1.5706806282722512,0.6211180124223602
27127,Forsyth County,NC,15.2,NA,NA
27217,Alamance County,NC,NA,42.67015706806283,NA
27263,Randolph County,NC,47.599999999999994,NA,NA
27330,Lee County,NC,24.4,NA,NA
27406,Guilford County,NC,3.5999999999999996,NA,NA
27408,Guilford County,NC,NA,NA,72.36024844720497
27525,Franklin County,NC,61.199999999999996,NA,NA
27529,Wake County,NC,NA,NA,52.484472049689444
27615,Wake County,NC,76.4,NA,NA
27801,Edgecombe County,NC,NA,57.59162303664922,NA
27893,Wilson County,NC,NA,22.5130890052356,NA
28016,Gaston County,NC,NA,NA,64.90683229813664
28037,Lincoln County,NC,NA,51.047120418848166,NA
28104,Union County,NC,NA,NA,48.13664596273292
28110,Union County,NC,58.8,NA,NA
28168,Lincoln County,NC,NA,NA,86.95652173913044
28211,Mecklenburg County,NC,NA,58.1151832460733,NA
28273,Mecklenburg County,NC,NA,69.63350785340315,NA
28311,Cumberland County,NC,NA,43.455497382198956,NA
28372,Robeson County,NC,NA,62.56544502617801,73.91304347826086
28405,New Hanover County,NC,NA,29.84293193717277,NA
28462,Brunswick County,NC,NA,88.48167539267016,NA
28467,Brunswick County,NC,NA,63.87434554973822,NA
28602,Catawba County,NC,NA,41.8848167539267,NA
28605,Watauga County,NC,NA,78.79581151832461,NA
28607,Watauga County,NC,NA,37.17277486910995,NA
28694,Ashe County,NC,92.4,NA,NA
28716,Haywood County,NC,97.2,NA,NA
58201,Grand Forks County,ND,NA,NA,38.50931677018634
43015,Delaware County,OH,NA,NA,5.900621118012422
43017,Franklin County,OH,NA,NA,65.83850931677019
43068,Franklin County,OH,NA,10.99476439790576,NA
43082,Delaware County,OH,65.2,41.361256544502616,NA
43147,Fairfield County,OH,NA,NA,45.962732919254655
43223,Franklin County,OH,NA,88.7434554973822,NA
43416,Ottawa County,OH,98.4,NA,NA
43528,Lucas County,OH,NA,45.0261780104712,NA
43606,Lucas County,OH,18,NA,NA
43611,Lucas County,OH,NA,26.96335078534031,NA
43614,Lucas County,OH,NA,NA,21.11801242236025
43701,Muskingum County,OH,NA,0.7853403141361256,NA
43935,Belmont County,OH,NA,62.30366492146597,NA
43950,Belmont County,OH,41.199999999999996,NA,NA
44012,Lorain County,OH,NA,6.806282722513089,NA
44039,Lorain County,OH,8.4,NA,NA
44047,Ashtabula County,OH,43.6,NA,NA
44094,Lake County,OH,NA,NA,1.5527950310559007
44105,Cuyahoga County,OH,NA,NA,3.7267080745341614
44107,Cuyahoga County,OH,NA,NA,9.937888198757763
44128,Cuyahoga County,OH,NA,NA,15.838509316770185
44142,Cuyahoga County,OH,NA,18.06282722513089,NA
44144,Cuyahoga County,OH,12.8,NA,NA
44203,Summit County,OH,NA,NA,7.453416149068323
44224,Summit County,OH,NA,8.37696335078534,NA
44233,Medina County,OH,NA,NA,91.30434782608695
44255,Portage County,OH,NA,49.47643979057592,NA
44307,Summit County,OH,50,NA,NA
44446,Trumbull County,OH,14.000000000000002,NA,NA
44515,Mahoning County,OH,NA,NA,20.80745341614907
44663,Tuscarawas County,OH,13.600000000000001,NA,NA
44890,Huron County,OH,41.6,NA,NA
44906,Richland County,OH,NA,47.38219895287958,NA
44907,Richland County,OH,NA,29.05759162303665,NA
45011,Butler County,OH,NA,2.8795811518324608,NA
45036,Warren County,OH,21.6,25.654450261780106,NA
45040,Warren County,OH,NA,NA,25.15527950310559
45050,Butler County,OH,NA,84.81675392670157,NA
45103,Clermont County,OH,NA,22.5130890052356,NA
45107,Clinton County,OH,NA,NA,64.28571428571429
45150,Clermont County,OH,NA,NA,37.267080745341616
45212,Hamilton County,OH,NA,58.37696335078534,NA
45359,Miami County,OH,NA,100,NA
45409,Montgomery County,OH,NA,98.42931937172776,NA
45414,Montgomery County,OH,NA,52.35602094240838,NA
45417,Montgomery County,OH,9.6,NA,NA
45426,Montgomery County,OH,55.60000000000001,NA,NA
45429,Montgomery County,OH,46.400000000000006,NA,NA
45459,Montgomery County,OH,NA,20.94240837696335,NA
45662,Scioto County,OH,NA,NA,4.3478260869565215
45750,Washington County,OH,NA,19.10994764397906,17.080745341614907
73010,McClain County,OK,NA,82.4607329842932,NA
73018,Grady County,OK,NA,30.36649214659686,NA
73026,Cleveland County,OK,84.8,NA,NA
73119,Oklahoma County,OK,NA,40.575916230366495,NA
73120,Oklahoma County,OK,44.800000000000004,NA,NA
73162,Oklahoma County,OK,NA,54.973821989528794,NA
73505,Comanche County,OK,77.60000000000001,NA,27.639751552795033
74012,Tulsa County,OK,26,NA,NA
74016,Rogers County,OK,NA,NA,90.6832298136646
74044,Creek County,OK,83.6,NA,NA
74104,Tulsa County,OK,NA,85.86387434554975,NA
74107,Tulsa County,OK,NA,68.84816753926701,NA
74136,Tulsa County,OK,NA,NA,30.434782608695656
74145,Tulsa County,OK,NA,64.92146596858639,NA
74434,Muskogee County,OK,NA,78.53403141361257,NA
74820,Pontotoc County,OK,NA,NA,57.14285714285714
74881,Lincoln County,OK,NA,97.38219895287958,NA
97056,Columbia County,OR,NA,NA,85.09316770186336
97124,Washington County,OR,NA,NA,30.124223602484474
97233,Multnomah County,OR,NA,35.340314136125656,NA
97322,Linn County,OR,NA,13.350785340314136,NA
97370,Benton County,OR,NA,89.79057591623037,NA
97601,Klamath County,OR,NA,11.518324607329843,NA
97754,Crook County,OR,NA,NA,35.714285714285715
97801,Umatilla County,OR,NA,93.45549738219894,NA
97814,Baker County,OR,NA,45.811518324607334,NA
15146,Allegheny County,PA,51.6,30.628272251308903,NA
15201,Allegheny County,PA,NA,75.39267015706807,NA
15213,Allegheny County,PA,NA,93.19371727748691,NA
15237,Allegheny County,PA,NA,59.68586387434554,5.279503105590062
15238,Allegheny County,PA,NA,NA,38.19875776397515
15501,Somerset County,PA,60,NA,NA
15537,Bedford County,PA,NA,NA,83.85093167701864
15668,Westmoreland County,PA,87.2,NA,NA
15683,Westmoreland County,PA,NA,NA,69.56521739130434
16101,Lawrence County,PA,NA,34.031413612565444,NA
16635,Blair County,PA,NA,NA,61.80124223602485
16652,Huntingdon County,PA,NA,NA,22.981366459627328
16830,Clearfield County,PA,NA,28.272251308900525,NA
17015,Cumberland County,PA,NA,28.79581151832461,NA
17042,Lebanon County,PA,4.8,NA,NA
17055,Cumberland County,PA,NA,NA,9.627329192546584
17113,Dauphin County,PA,NA,NA,76.3975155279503
17584,Lancaster County,PA,NA,NA,42.857142857142854
18036,Lehigh County,PA,NA,33.7696335078534,NA
18062,Lehigh County,PA,NA,NA,29.19254658385093
18109,Lehigh County,PA,NA,50.26178010471204,NA
18249,Luzerne County,PA,NA,98.95287958115183,NA
18640,Luzerne County,PA,NA,32.19895287958115,NA
18643,Luzerne County,PA,57.599999999999994,NA,NA
18702,Luzerne County,PA,66.8,NA,NA
18704,Luzerne County,PA,NA,NA,10.248447204968944
18705,Luzerne County,PA,NA,NA,30.745341614906835
18901,Bucks County,PA,NA,NA,12.111801242236025
18974,Bucks County,PA,90.8,NA,NA
19002,Montgomery County,PA,NA,87.17277486910994,NA
19006,Montgomery County,PA,NA,31.151832460732987,NA
19020,Bucks County,PA,NA,NA,13.354037267080745
19067,Bucks County,PA,NA,NA,44.099378881987576
19083,Delaware County,PA,NA,NA,25.77639751552795
19111,Philadelphia County,PA,NA,4.450261780104712,NA
19145,Philadelphia County,PA,NA,12.041884816753926,NA
19341,Chester County,PA,NA,NA,51.24223602484472
19355,Chester County,PA,NA,NA,77.01863354037268
19382,Chester County,PA,NA,NA,19.565217391304348
19428,Montgomery County,PA,NA,NA,70.4968944099379
19446,Montgomery County,PA,NA,NA,9.006211180124224
19462,Montgomery County,PA,NA,68.58638743455498,52.17391304347826
19464,Montgomery County,PA,NA,6.282722513089005,NA
19560,Berks County,PA,NA,97.12041884816755,NA
19565,Berks County,PA,NA,NA,55.27950310559007
29010,Lee County,SC,NA,NA,52.79503105590062
29072,Lexington County,SC,NA,25.916230366492147,NA
29212,Lexington County,SC,NA,NA,49.378881987577635
29303,Spartanburg County,SC,46,NA,NA
29445,Berkeley County,SC,NA,NA,41.30434782608695
29532,Darlington County,SC,NA,76.17801047120419,NA
29566,Horry County,SC,NA,75.6544502617801,NA
29605,Greenville County,SC,78.8,13.089005235602095,NA
29615,Greenville County,SC,NA,38.21989528795812,NA
29657,Pickens County,SC,NA,60.994764397905755,NA
29697,Anderson County,SC,NA,NA,62.422360248447205
29732,York County,SC,NA,23.56020942408377,NA
57006,Brookings County,SD,NA,42.93193717277487,NA
57042,Lake County,SD,NA,NA,41.30434782608695
57105,Minnehaha County,SD,NA,NA,7.763975155279502
57401,Brown County,SD,NA,NA,1.2422360248447204
57701,Pennington County,SD,84,NA,NA
57702,Pennington County,SD,NA,NA,11.180124223602485
57703,Pennington County,SD,NA,NA,72.04968944099379
37013,Davidson County,TN,11.200000000000001,NA,NA
37043,Montgomery County,TN,38.4,NA,NA
37087,Wilson County,TN,NA,24.083769633507853,NA
37110,Warren County,TN,17.2,NA,NA
37211,Davidson County,TN,NA,NA,22.049689440993788
37217,Davidson County,TN,NA,56.282722513089,NA
37312,Bradley County,TN,NA,74.60732984293193,36.33540372670808
37377,Hamilton County,TN,NA,NA,49.06832298136646
37421,Hamilton County,TN,NA,NA,27.32919254658385
37601,Washington County,TN,NA,NA,29.503105590062113
37660,Sullivan County,TN,NA,39.79057591623037,NA
37683,Johnson County,TN,NA,82.72251308900523,NA
37722,Cocke County,TN,NA,NA,96.27329192546584
37743,Greene County,TN,NA,3.4031413612565444,NA
37748,Roane County,TN,NA,27.225130890052355,NA
37774,Loudon County,TN,NA,23.298429319371728,NA
37807,Union County,TN,NA,NA,74.53416149068323
37814,Hamblen County,TN,NA,25.392670157068064,NA
37880,Meigs County,TN,NA,93.717277486911,NA
37931,Knox County,TN,45.2,NA,NA
38017,Shelby County,TN,NA,NA,46.58385093167702
38053,Shelby County,TN,NA,54.712041884816756,NA
38105,Shelby County,TN,NA,NA,98.75776397515527
38114,Shelby County,TN,NA,NA,54.037267080745345
38127,Shelby County,TN,NA,NA,63.975155279503106
75028,Denton County,TX,60.4,NA,NA
75052,Dallas County,TX,18.8,NA,NA
75070,Collin County,TX,NA,NA,16.149068322981368
75080,Dallas County,TX,NA,NA,18.944099378881987
75126,Kaufman County,TX,NA,72.77486910994764,NA
75160,Kaufman County,TX,NA,NA,55.90062111801242
75209,Dallas County,TX,70.8,NA,NA
75229,Dallas County,TX,NA,46.8586387434555,NA
75766,Cherokee County,TX,NA,NA,6.832298136645963
75904,Angelina County,TX,NA,NA,39.130434782608695
76088,Parker County,TX,85.2,NA,NA
76116,Tarrant County,TX,NA,NA,22.36024844720497
76135,Tarrant County,TX,NA,65.96858638743456,NA
76262,Denton County,TX,49.2,NA,NA
76504,Bell County,TX,NA,NA,28.26086956521739
77021,Harris County,TX,NA,NA,86.64596273291926
77033,Harris County,TX,87.6,NA,NA
77036,Harris County,TX,56.39999999999999,NA,NA
77049,Harris County,TX,68.4,NA,NA
77062,Harris County,TX,NA,57.85340314136126,NA
77065,Harris County,TX,NA,98.69109947643979,NA
77082,Harris County,TX,54,NA,NA
77303,Montgomery County,TX,NA,NA,94.09937888198758
77346,Harris County,TX,57.199999999999996,NA,NA
77505,Harris County,TX,NA,61.78010471204188,NA
77515,Brazoria County,TX,NA,NA,40.993788819875775
77550,Galveston County,TX,NA,15.18324607329843,NA
77551,Galveston County,TX,NA,NA,75.15527950310559
77562,Harris County,TX,82.39999999999999,NA,NA
77568,Galveston County,TX,35.6,NA,NA
77571,Harris County,TX,65.60000000000001,NA,NA
77591,Galveston County,TX,NA,NA,51.5527950310559
77640,Jefferson County,TX,64,NA,NA
77833,Washington County,TX,50,63.35078534031413,76.70807453416148
78043,Webb County,TX,44,NA,85.40372670807453
78046,Webb County,TX,16,NA,NA
78209,Bexar County,TX,NA,NA,42.2360248447205
78210,Bexar County,TX,NA,NA,50.621118012422365
78227,Bexar County,TX,NA,53.66492146596858,NA
78258,Bexar County,TX,NA,84.29319371727748,NA
78404,Nueces County,TX,NA,NA,81.36645962732919
78521,Cameron County,TX,34,NA,NA
78701,Travis County,TX,NA,NA,98.4472049689441
78704,Travis County,TX,72,NA,NA
78741,Travis County,TX,77.2,NA,NA
78840,Val Verde County,TX,NA,NA,41.92546583850932
79110,Randall County,TX,68,NA,NA
79119,Randall County,TX,NA,77.74869109947645,NA
79347,Bailey County,TX,NA,77.22513089005236,NA
79415,Lubbock County,TX,69.6,NA,NA
79424,Lubbock County,TX,63.2,41.09947643979058,NA
79606,Taylor County,TX,NA,54.18848167539267,NA
79765,Ector County,TX,NA,97.90575916230367,NA
84014,Davis County,UT,NA,NA,90.06211180124224
84095,Salt Lake County,UT,NA,64.13612565445025,NA
84109,Salt Lake County,UT,NA,NA,33.22981366459628
84116,Salt Lake County,UT,30,NA,NA
84119,Salt Lake County,UT,NA,NA,37.88819875776397
84121,Salt Lake County,UT,42.8,NA,NA
84501,Carbon County,UT,66,NA,NA
05701,Rutland County,VT,NA,9.947643979057592,NA
20111,Prince William County,VA,56.8,NA,NA
22191,Prince William County,VA,18.4,NA,NA
22312,Fairfax County,VA,NA,66.2303664921466,NA
22314,Alexandria city,VA,NA,NA,58.69565217391305
23117,Louisa County,VA,NA,57.06806282722513,NA
23227,Henrico County,VA,NA,68.32460732984293,NA
23294,Henrico County,VA,NA,NA,78.88198757763976
23505,Norfolk city,VA,NA,30.89005235602094,NA
23838,Chesterfield County,VA,90,NA,NA
23924,Mecklenburg County,VA,NA,NA,82.29813664596274
24014,Roanoke city,VA,NA,NA,91.92546583850931
24018,Roanoke County,VA,NA,29.581151832460733,NA
24121,Bedford County,VA,NA,NA,71.73913043478261
24151,Franklin County,VA,48.8,NA,NA
24210,Washington County,VA,71.2,NA,NA
24277,Lee County,VA,NA,92.67015706806284,NA
24354,Smyth County,VA,42,NA,NA
24441,Rockingham County,VA,NA,69.89528795811518,NA
24501,Lynchburg city,VA,NA,39.52879581151832,NA
98007,King County,WA,NA,NA,50
98012,Snohomish County,WA,NA,63.089005235602095,NA
98032,King County,WA,NA,NA,100
98125,King County,WA,NA,34.81675392670157,NA
98251,Snohomish County,WA,NA,99.21465968586386,NA
98272,Snohomish County,WA,61.6,NA,NA
98290,Snohomish County,WA,NA,50.523560209424076,NA
98444,Pierce County,WA,NA,65.18324607329843,NA
98466,Pierce County,WA,NA,NA,46.273291925465834
98550,Grays Harbor County,WA,95.19999999999999,NA,NA
98589,Thurston County,WA,NA,NA,97.20496894409938
98604,Clark County,WA,67.60000000000001,NA,NA
98660,Clark County,WA,NA,NA,74.53416149068323
98671,Clark County,WA,NA,NA,68.32298136645963
98951,Yakima County,WA,NA,83.50785340314137,NA
99022,Spokane County,WA,NA,80.89005235602095,NA
99205,Spokane County,WA,NA,NA,46.8944099378882
99206,Spokane County,WA,NA,NA,62.422360248447205
99207,Spokane County,WA,NA,59.424083769633505,NA
99224,Spokane County,WA,NA,71.72774869109948,NA
20003,District of Columbia,DC,54.400000000000006,NA,NA
20037,District of Columbia,DC,NA,NA,78.57142857142857
24740,Mercer County,WV,NA,30.104712041884817,NA
26062,Hancock County,WV,NA,NA,11.801242236024844
26155,Wetzel County,WV,NA,61.25654450261781,NA
26452,Lewis County,WV,93.2,NA,NA
53083,Sheboygan County,WI,NA,NA,72.36024844720497
53208,Milwaukee County,WI,NA,NA,54.6583850931677
53221,Milwaukee County,WI,NA,20.680628272251308,NA
53223,Milwaukee County,WI,NA,NA,14.596273291925465
53511,Rock County,WI,NA,0.2617801047120419,NA
53534,Rock County,WI,62,NA,NA
54011,Pierce County,WI,NA,96.59685863874346,NA
54217,Kewaunee County,WI,NA,91.62303664921467,NA
54304,Brown County,WI,24,NA,NA
54457,Wood County,WI,NA,NA,61.18012422360248
54494,Wood County,WI,NA,7.329842931937172,NA
54840,Burnett County,WI,NA,NA,84.472049689441
82007,Laramie County,WY,NA,NA,68.94409937888199
82609,Natrona County,WY,89.2,NA,NA
82633,Converse County,WY,NA,NA,79.8136645962733
