ZipCode,county,state,Adult,Retirement,Geriatric
35603,Morgan County,AL,NA,37.160120845921455,NA
35768,Jackson County,AL,NA,58.006042296072515,NA
35811,Madison County,AL,NA,46.22356495468278,NA
36117,Montgomery County,AL,NA,NA,21.965317919075144
36502,Escambia County,AL,49.25925925925926,NA,NA
36507,Baldwin County,AL,NA,68.58006042296071,NA
36535,Baldwin County,AL,NA,NA,33.52601156069364
99504,Anchorage Municipality,AK,NA,45.9214501510574,NA
85006,Maricopa County,AZ,47.40740740740741,NA,NA
85007,Maricopa County,AZ,NA,37.764350453172206,NA
85017,Maricopa County,AZ,35.55555555555556,NA,NA
85020,Maricopa County,AZ,NA,NA,49.13294797687861
85021,Maricopa County,AZ,NA,NA,47.398843930635834
85033,Maricopa County,AZ,17.40740740740741,NA,NA
85085,Maricopa County,AZ,NA,86.10271903323263,NA
85138,Pinal County,AZ,42.96296296296296,NA,NA
85206,Maricopa County,AZ,NA,34.44108761329305,NA
85209,Maricopa County,AZ,NA,87.00906344410876,NA
85257,Maricopa County,AZ,NA,69.48640483383686,NA
85326,Maricopa County,AZ,NA,46.82779456193353,NA
85345,Maricopa County,AZ,NA,12.990936555891238,NA
85363,Maricopa County,AZ,NA,NA,83.23699421965318
85364,Yuma County,AZ,NA,4.229607250755287,NA
85367,Yuma County,AZ,NA,55.2870090634441,NA
85375,Maricopa County,AZ,NA,NA,0.5780346820809248
85395,Maricopa County,AZ,NA,49.848942598187314,NA
85501,Gila County,AZ,NA,69.18429003021149,NA
85614,Pima County,AZ,NA,NA,6.9364161849710975
85705,Pima County,AZ,NA,NA,36.99421965317919
85710,Pima County,AZ,8.88888888888889,NA,NA
85715,Pima County,AZ,NA,61.631419939577036,NA
85757,Pima County,AZ,29.629629629629626,NA,NA
86503,Apache County,AZ,NA,56.19335347432024,NA
71923,Clark County,AR,NA,67.6737160120846,NA
72010,White County,AR,94.07407407407408,NA,NA
72701,Washington County,AR,68.51851851851852,NA,NA
72714,Benton County,AR,NA,71.90332326283988,NA
72908,Sebastian County,AR,83.33333333333334,NA,NA
90037,Los Angeles County,CA,NA,NA,42.19653179190752
90062,Los Angeles County,CA,55.55555555555556,NA,NA
90069,Los Angeles County,CA,60.370370370370374,NA,NA
90266,Los Angeles County,CA,NA,54.0785498489426,NA
90404,Los Angeles County,CA,NA,NA,56.64739884393064
90602,Los Angeles County,CA,85.92592592592592,NA,NA
90630,Orange County,CA,NA,22.356495468277945,NA
90680,Orange County,CA,62.96296296296296,NA,NA
91006,Los Angeles County,CA,98.14814814814815,NA,NA
91303,Los Angeles County,CA,NA,96.97885196374622,NA
91344,Los Angeles County,CA,NA,NA,22.54335260115607
91350,Los Angeles County,CA,68.14814814814815,NA,NA
91384,Los Angeles County,CA,NA,NA,98.84393063583815
91402,Los Angeles County,CA,30,NA,NA
91711,Los Angeles County,CA,NA,NA,20.809248554913296
91767,Los Angeles County,CA,44.81481481481481,NA,NA
91945,San Diego County,CA,65.18518518518519,NA,NA
92011,San Diego County,CA,NA,67.06948640483384,NA
92056,San Diego County,CA,NA,37.46223564954683,NA
92081,San Diego County,CA,NA,NA,57.22543352601156
92111,San Diego County,CA,59.25925925925925,NA,NA
92227,Imperial County,CA,45.925925925925924,NA,NA
92234,Riverside County,CA,15.925925925925927,NA,NA
92262,Riverside County,CA,25.185185185185183,11.48036253776435,NA
92345,San Bernardino County,CA,NA,NA,26.011560693641616
92373,San Bernardino County,CA,72.5925925925926,NA,NA
92557,Riverside County,CA,40,NA,NA
92587,Riverside County,CA,87.4074074074074,NA,NA
92637,Orange County,CA,NA,35.95166163141994,NA
92648,Orange County,CA,NA,24.773413897280967,NA
92688,Orange County,CA,NA,74.92447129909365,NA
93033,Ventura County,CA,NA,10.27190332326284,NA
93060,Ventura County,CA,NA,NA,72.25433526011561
93103,Santa Barbara County,CA,NA,96.37462235649546,NA
93546,Mono County,CA,89.62962962962962,NA,NA
93704,Fresno County,CA,54.81481481481482,NA,NA
93726,Fresno County,CA,NA,81.57099697885197,NA
94010,San Mateo County,CA,NA,38.066465256797585,NA
94087,Santa Clara County,CA,NA,NA,25.43352601156069
94116,San Francisco County,CA,NA,41.08761329305136,NA
94158,San Francisco County,CA,95.92592592592592,NA,NA
94552,Alameda County,CA,92.5925925925926,NA,NA
94558,Napa County,CA,NA,NA,5.780346820809249
94590,Solano County,CA,NA,NA,46.82080924855491
94619,Alameda County,CA,81.11111111111111,NA,NA
94903,Marin County,CA,NA,NA,14.450867052023122
95023,San Benito County,CA,NA,NA,50.28901734104046
95033,Santa Cruz County,CA,NA,NA,100
95205,San Joaquin County,CA,NA,57.70392749244713,NA
95207,San Joaquin County,CA,25.925925925925924,NA,NA
95252,Calaveras County,CA,NA,NA,94.21965317919076
95458,Lake County,CA,100,NA,NA
95521,Humboldt County,CA,NA,NA,92.48554913294798
95608,Sacramento County,CA,44.44444444444444,NA,NA
95667,El Dorado County,CA,34.44444444444444,NA,NA
95687,Solano County,CA,NA,23.26283987915408,NA
95816,Sacramento County,CA,57.77777777777777,NA,NA
80007,Jefferson County,CO,NA,99.09365558912387,NA
80017,Arapahoe County,CO,42.22222222222222,NA,NA
80021,Jefferson County,CO,NA,93.35347432024169,66.47398843930635
80111,Arapahoe County,CO,NA,NA,91.90751445086705
80112,Arapahoe County,CO,58.51851851851851,NA,NA
80260,Adams County,CO,51.48148148148148,NA,NA
80723,Morgan County,CO,NA,75.22658610271903,NA
80916,El Paso County,CO,39.62962962962963,NA,NA
80918,El Paso County,CO,50.74074074074074,NA,NA
06010,Hartford County,CT,NA,2.416918429003021,NA
06051,Hartford County,CT,23.333333333333332,NA,NA
06095,Hartford County,CT,NA,32.62839879154079,NA
06226,Windham County,CT,NA,49.546827794561935,NA
06268,Tolland County,CT,NA,NA,74.56647398843931
06460,New Haven County,CT,NA,16.61631419939577,NA
06470,Fairfield County,CT,NA,NA,78.03468208092485
06513,New Haven County,CT,NA,9.365558912386707,NA
06515,New Haven County,CT,31.851851851851855,NA,NA
06517,New Haven County,CT,NA,47.129909365558916,NA
06606,Fairfield County,CT,52.96296296296297,NA,NA
06820,Fairfield County,CT,NA,85.1963746223565,NA
19804,New Castle County,DE,NA,89.72809667673715,NA
19805,New Castle County,DE,1.8518518518518516,NA,NA
32055,Columbia County,FL,NA,NA,89.01734104046243
32080,St. Johns County,FL,NA,25.377643504531722,NA
32174,Volusia County,FL,NA,12.688821752265861,NA
32206,Duval County,FL,25.555555555555554,NA,NA
32210,Duval County,FL,NA,6.948640483383686,NA
32221,Duval County,FL,32.22222222222222,NA,NA
32459,Walton County,FL,NA,34.13897280966767,NA
32533,Escambia County,FL,NA,20.54380664652568,NA
32570,Santa Rosa County,FL,10,NA,NA
32578,Okaloosa County,FL,NA,19.939577039274926,NA
32608,Alachua County,FL,32.96296296296296,17.220543806646525,NA
32720,Volusia County,FL,NA,43.202416918429,NA
32724,Volusia County,FL,59.62962962962963,NA,NA
32736,Lake County,FL,NA,77.34138972809667,NA
32746,Seminole County,FL,NA,46.52567975830816,NA
32771,Seminole County,FL,17.77777777777778,NA,NA
32822,Orange County,FL,NA,27.794561933534744,31.79190751445087
32927,Brevard County,FL,NA,51.66163141993958,NA
32937,Brevard County,FL,NA,NA,28.901734104046245
32962,Indian River County,FL,NA,43.80664652567976,NA
32963,Indian River County,FL,NA,NA,16.76300578034682
33010,Miami-Dade County,FL,70,NA,NA
33015,Miami-Dade County,FL,NA,NA,43.35260115606936
33050,Monroe County,FL,91.11111111111111,63.74622356495468,NA
33067,Broward County,FL,80,NA,NA
33125,Miami-Dade County,FL,NA,41.389728096676734,NA
33131,Miami-Dade County,FL,NA,NA,94.79768786127167
33134,Miami-Dade County,FL,77.4074074074074,NA,NA
33138,Miami-Dade County,FL,NA,64.6525679758308,NA
33139,Miami-Dade County,FL,NA,NA,13.872832369942195
33143,Miami-Dade County,FL,81.48148148148148,NA,NA
33145,Miami-Dade County,FL,84.44444444444444,NA,NA
33157,Miami-Dade County,FL,71.11111111111111,NA,NA
33160,Miami-Dade County,FL,NA,40.181268882175225,NA
33186,Miami-Dade County,FL,NA,35.64954682779456,NA
33404,Palm Beach County,FL,41.11111111111111,NA,NA
33412,Palm Beach County,FL,NA,83.08157099697885,NA
33467,Palm Beach County,FL,60.74074074074074,NA,NA
33534,Hillsborough County,FL,NA,93.05135951661632,NA
33566,Hillsborough County,FL,NA,89.42598187311178,NA
33573,Hillsborough County,FL,NA,NA,3.4682080924855487
33610,Hillsborough County,FL,NA,42.296072507552864,NA
33613,Hillsborough County,FL,46.666666666666664,NA,NA
33615,Hillsborough County,FL,NA,36.85800604229607,NA
33618,Hillsborough County,FL,NA,82.4773413897281,NA
33706,Pinellas County,FL,NA,71.6012084592145,NA
33770,Pinellas County,FL,NA,NA,80.34682080924856
33805,Polk County,FL,43.7037037037037,NA,NA
33843,Polk County,FL,NA,80.96676737160121,NA
33844,Polk County,FL,NA,NA,37.57225433526011
33873,Hardee County,FL,NA,NA,53.75722543352601
33912,Lee County,FL,NA,NA,21.38728323699422
33916,Lee County,FL,NA,72.20543806646525,NA
33976,Lee County,FL,74.44444444444444,NA,NA
34120,Collier County,FL,NA,47.43202416918429,NA
34135,Lee County,FL,NA,NA,15.606936416184972
34231,Sarasota County,FL,58.14814814814815,18.429003021148034,NA
34234,Sarasota County,FL,NA,NA,41.61849710982659
34286,Sarasota County,FL,NA,61.329305135951664,NA
34482,Marion County,FL,NA,65.25679758308158,NA
34685,Pinellas County,FL,89.25925925925927,NA,NA
34691,Pasco County,FL,NA,95.46827794561933,NA
34711,Lake County,FL,NA,5.438066465256798,NA
34785,Sumter County,FL,NA,80.66465256797582,NA
34788,Lake County,FL,NA,32.3262839879154,NA
34997,Martin County,FL,NA,NA,8.092485549132949
30040,Forsyth County,GA,NA,58.30815709969789,NA
30064,Cobb County,GA,NA,NA,67.05202312138728
30066,Cobb County,GA,NA,NA,34.104046242774565
30116,Carroll County,GA,NA,54.68277945619335,NA
30189,Cherokee County,GA,57.03703703703704,NA,NA
30253,Henry County,GA,63.33333333333333,56.797583081571,NA
30327,Fulton County,GA,NA,73.111782477341393,NA
30329,DeKalb County,GA,86.29629629629629,NA,NA
30354,Fulton County,GA,69.62962962962963,NA,NA
30417,Evans County,GA,NA,88.21752265861026,NA
30517,Jackson County,GA,83.7037037037037,NA,NA
31021,Laurens County,GA,NA,60.42296072507553,NA
31024,Putnam County,GA,NA,43.50453172205438,NA
31904,Muscogee County,GA,NA,NA,52.02312138728323
96707,Honolulu County,HI,NA,34.74320241691843,NA
96734,Honolulu County,HI,82.5925925925926,NA,NA
96744,Honolulu County,HI,73.70370370370371,NA,NA
96793,Maui County,HI,77.77777777777779,NA,NA
96797,Honolulu County,HI,7.777777777777778,NA,NA
96817,Honolulu County,HI,12.592592592592592,NA,NA
96818,Honolulu County,HI,56.2962962962963,NA,NA
96822,Honolulu County,HI,93.33333333333333,NA,NA
96826,Honolulu County,HI,75.92592592592592,NA,NA
83202,Bannock County,ID,57.407407407407405,NA,NA
83440,Madison County,ID,NA,73.41389728096676,NA
83501,Nez Perce County,ID,NA,NA,10.404624277456648
83672,Washington County,ID,NA,NA,64.16184971098265
83815,Kootenai County,ID,NA,19.335347432024168,17.341040462427745
83854,Kootenai County,ID,36.666666666666664,NA,NA
60004,Cook County,IL,29.259259259259256,NA,NA
60008,Cook County,IL,NA,62.839879154078545,NA
60050,McHenry County,IL,NA,70.39274924471299,NA
60142,McHenry County,IL,NA,NA,2.312138728323699
60436,Will County,IL,NA,58.91238670694864,NA
60605,Cook County,IL,64.07407407407408,NA,NA
60608,Cook County,IL,NA,52.567975830815705,NA
60619,Cook County,IL,NA,5.740181268882175,NA
60628,Cook County,IL,NA,4.833836858006042,NA
60631,Cook County,IL,NA,53.17220543806647,NA
60651,Cook County,IL,NA,9.06344410876133,NA
60659,Cook County,IL,NA,NA,44.50867052023121
60660,Cook County,IL,NA,NA,36.41618497109826
61443,Henry County,IL,66.2962962962963,NA,NA
62040,Madison County,IL,NA,10.574018126888216,NA
62221,St. Clair County,IL,NA,94.25981873111783,NA
62526,Macon County,IL,NA,NA,8.670520231213873
62549,Macon County,IL,NA,85.49848942598187,NA
62906,Union County,IL,NA,77.64350453172206,NA
46052,Boone County,IN,NA,NA,47.97687861271676
46235,Marion County,IN,NA,91.54078549848943,NA
46324,Lake County,IN,19.25925925925926,NA,NA
46514,Elkhart County,IN,NA,23.564954682779458,NA
46936,Howard County,IN,78.14814814814814,NA,NA
46992,Wabash County,IN,NA,NA,86.1271676300578
47167,Washington County,IN,NA,NA,65.89595375722543
47240,Decatur County,IN,37.407407407407405,NA,NA
47374,Wayne County,IN,4.074074074074074,NA,NA
47635,Spencer County,IN,NA,83.98791540785498,NA
50315,Polk County,IA,NA,25.6797583081571,NA
52405,Linn County,IA,42.592592592592595,NA,NA
52722,Scott County,IA,56.666666666666664,NA,NA
52804,Scott County,IA,18.14814814814815,NA,NA
66047,Douglas County,KS,NA,NA,59.53757225433526
66062,Johnson County,KS,NA,NA,18.497109826589593
66763,Crawford County,KS,NA,100,NA
40047,Bullitt County,KY,31.48148148148148,NA,NA
40071,Spencer County,KY,NA,55.89123867069487,NA
40160,Hardin County,KY,NA,57.40181268882175,84.97109826589595
40203,Jefferson County,KY,26.296296296296294,NA,NA
40212,Jefferson County,KY,NA,NA,69.94219653179191
40219,Jefferson County,KY,NA,24.773413897280967,NA
40403,Madison County,KY,26.666666666666668,NA,NA
40962,Clay County,KY,21.48148148148148,NA,NA
41017,Kenton County,KY,34.074074074074076,NA,NA
41042,Boone County,KY,5.9259259259259265,NA,NA
41169,Greenup County,KY,71.85185185185186,NA,NA
42101,Warren County,KY,NA,16.314199395770395,NA
42164,Allen County,KY,NA,59.21450151057401,NA
42210,Edmonson County,KY,NA,97.88519637462235,NA
42376,Daviess County,KY,NA,NA,97.10982658959537
42408,Hopkins County,KY,NA,85.80060422960725,NA
42501,Pulaski County,KY,53.70370370370371,NA,NA
42726,Grayson County,KY,NA,74.01812688821752,NA
70058,Jefferson Parish,LA,NA,13.897280966767372,NA
70090,St. James Parish,LA,76.29629629629629,NA,NA
70119,Orleans Parish,LA,4.814814814814815,NA,NA
70122,Orleans Parish,LA,5.555555555555555,NA,NA
70360,Terrebonne Parish,LA,10.74074074074074,30.211480362537763,NA
70364,Terrebonne Parish,LA,7.4074074074074066,NA,NA
70420,St. Tammany Parish,LA,NA,NA,75.72254335260115
70422,Tangipahoa Parish,LA,NA,45.61933534743202,NA
70454,Tangipahoa Parish,LA,NA,NA,69.36416184971098
70560,Iberia Parish,LA,NA,50.755287009063444,NA
70770,East Baton Rouge Parish,LA,93.7037037037037,NA,NA
70808,East Baton Rouge Parish,LA,NA,44.10876132930513,NA
71119,Caddo Parish,LA,62.22222222222222,NA,NA
71303,Rapides Parish,LA,NA,NA,55.49132947976878
71457,Natchitoches Parish,LA,NA,25.6797583081571,NA
04092,Cumberland County,ME,NA,30.815709969788518,NA
20653,St. Mary's County,MD,NA,80.06042296072508,NA
20721,Prince George's County,MD,76.66666666666667,NA,NA
20723,Howard County,MD,NA,78.85196374622356,NA
20743,Prince George's County,MD,38.51851851851852,NA,NA
20744,Prince George's County,MD,50.37037037037037,NA,NA
20774,Prince George's County,MD,NA,45.01510574018127,NA
20782,Prince George's County,MD,82.22222222222221,NA,NA
20878,Montgomery County,MD,51.11111111111111,63.44410876132931,NA
21044,Howard County,MD,52.59259259259259,NA,NA
21078,Harford County,MD,NA,56.49546827794561,NA
21093,Baltimore County,MD,48.51851851851852,NA,NA
21117,Baltimore County,MD,NA,27.492447129909365,NA
21146,Anne Arundel County,MD,NA,NA,88.4393063583815
21204,Baltimore County,MD,NA,80.06042296072508,NA
21218,Baltimore city,MD,NA,NA,9.248554913294797
21219,Baltimore County,MD,96.29629629629629,NA,NA
21220,Baltimore County,MD,21.11111111111111,NA,NA
21222,Baltimore County,MD,27.77777777777778,1.812688821752266,NA
21230,Baltimore city,MD,NA,NA,71.67630057803468
21502,Allegany County,MD,NA,NA,11.560693641618498
21532,Allegany County,MD,NA,NA,73.98843930635837
21619,Queen Anne's County,MD,NA,94.86404833836858,NA
21635,Kent County,MD,NA,99.69788519637463,NA
21788,Frederick County,MD,NA,NA,95.37572254335261
21842,Worcester County,MD,NA,NA,50.86705202312138
01085,Hampden County,MA,79.25925925925927,NA,NA
01089,Hampden County,MA,NA,31.722054380664655,NA
01430,Worcester County,MA,80.37037037037037,NA,NA
01757,Worcester County,MA,16.666666666666664,NA,NA
01801,Middlesex County,MA,NA,NA,1.1560693641618496
01826,Middlesex County,MA,NA,3.3232628398791544,NA
01844,Essex County,MA,8.148148148148149,NA,NA
01902,Essex County,MA,2.5925925925925926,NA,NA
01904,Essex County,MA,NA,NA,27.74566473988439
01952,Essex County,MA,94.44444444444444,NA,NA
02048,Bristol County,MA,73.33333333333333,NA,NA
02130,Suffolk County,MA,NA,NA,6.358381502890173
02139,Middlesex County,MA,0,NA,NA
02301,Plymouth County,MA,1.4814814814814816,NA,NA
02445,Norfolk County,MA,64.81481481481481,NA,NA
02744,Bristol County,MA,NA,35.95166163141994,NA
02747,Bristol County,MA,NA,91.8429003021148,NA
48038,Macomb County,MI,14.444444444444443,NA,NA
48066,Macomb County,MI,2.9629629629629632,NA,NA
48070,Oakland County,MI,94.81481481481482,NA,NA
48084,Oakland County,MI,NA,NA,93.64161849710982
48094,Macomb County,MI,NA,NA,62.42774566473989
48103,Washtenaw County,MI,NA,15.407854984894259,NA
48141,Wayne County,MI,NA,17.82477341389728,NA
48154,Wayne County,MI,61.111111111111114,NA,NA
48162,Monroe County,MI,12.962962962962962,3.927492447129909,NA
48197,Washtenaw County,MI,1.1111111111111112,NA,NA
48214,Wayne County,MI,NA,26.888217522658607,NA
48221,Wayne County,MI,NA,NA,4.046242774566474
48225,Wayne County,MI,NA,67.37160120845923,NA
48239,Wayne County,MI,NA,9.969788519637463,NA
48307,Oakland County,MI,20.74074074074074,NA,NA
48322,Oakland County,MI,NA,8.157099697885197,NA
48505,Genesee County,MI,20.37037037037037,NA,NA
48506,Genesee County,MI,NA,42.59818731117825,NA
48617,Clare County,MI,NA,66.16314199395771,NA
48626,Saginaw County,MI,NA,74.32024169184291,NA
48638,Saginaw County,MI,NA,48.338368580060425,NA
48706,Bay County,MI,7.037037037037037,NA,NA
48880,Gratiot County,MI,85.55555555555556,NA,NA
48917,Eaton County,MI,8.518518518518519,NA,NA
49002,Kalamazoo County,MI,70.37037037037037,NA,NA
49085,Berrien County,MI,NA,NA,32.947976878612714
49306,Kent County,MI,86.66666666666667,NA,NA
49437,Muskegon County,MI,NA,74.62235649546828,NA
49504,Kent County,MI,16.296296296296298,NA,NA
49546,Kent County,MI,NA,NA,15.028901734104046
49802,Dickinson County,MI,NA,NA,71.09826589595376
56359,Mille Lacs County,MN,88.51851851851852,NA,NA
56601,Beltrami County,MN,NA,1.5105740181268883,1.7341040462427744
38611,Marshall County,MS,NA,65.86102719033232,NA
38668,Tate County,MS,NA,NA,79.76878612716763
39047,Rankin County,MS,NA,NA,39.30635838150289
39560,Harrison County,MS,NA,9.667673716012084,NA
63043,St. Louis County,MO,NA,NA,28.32369942196532
63049,Jefferson County,MO,NA,66.46525679758308,NA
63109,St. Louis city,MO,NA,77.0392749244713,NA
63146,St. Louis County,MO,NA,NA,12.138728323699421
63368,St. Charles County,MO,NA,22.9607250755287,NA
63640,St. Francois County,MO,44.074074074074076,NA,NA
63645,Madison County,MO,NA,76.13293051359517,NA
64024,Clay County,MO,NA,40.78549848942598,NA
64055,Jackson County,MO,NA,7.854984894259818,NA
64082,Jackson County,MO,NA,NA,81.5028901734104
64093,Johnson County,MO,NA,39.87915407854985,NA
64128,Jackson County,MO,NA,NA,79.1907514450867
64154,Platte County,MO,90.37037037037037,NA,NA
65301,Pettis County,MO,3.7037037037037033,NA,NA
65355,Benton County,MO,NA,21.45015105740181,NA
65672,Taney County,MO,NA,79.7583081570997,NA
65714,Christian County,MO,78.14814814814814,51.057401812688816,NA
65810,Greene County,MO,NA,NA,65.3179190751445
59405,Cascade County,MT,NA,72.50755287009063,35.83815028901734
59803,Missoula County,MT,NA,79.15407854984893,NA
59901,Flathead County,MT,NA,3.0211480362537766,NA
68111,Douglas County,NE,NA,39.274924471299094,NA
89102,Clark County,NV,54.44444444444444,NA,NA
89119,Clark County,NV,58.88888888888889,NA,NA
89121,Clark County,NV,NA,NA,32.369942196531795
89122,Clark County,NV,NA,81.87311178247734,NA
89134,Clark County,NV,NA,NA,49.13294797687861
89142,Clark County,NV,NA,93.65558912386706,NA
89178,Clark County,NV,NA,90.6344410876133,NA
89408,Lyon County,NV,40.74074074074074,NA,NA
89436,Washoe County,NV,NA,13.293051359516618,NA
89502,Washoe County,NV,NA,19.939577039274926,NA
89706,Carson City,NV,NA,NA,60.115606936416185
03060,Hillsborough County,NH,NA,84.89425981873111,NA
07011,Passaic County,NJ,NA,64.95468277945619,NA
07055,Passaic County,NJ,NA,3.625377643504532,NA
07071,Bergen County,NJ,NA,44.41087613293052,NA
07105,Essex County,NJ,12.222222222222221,68.27794561933534,NA
07607,Bergen County,NJ,NA,82.17522658610272,NA
07643,Bergen County,NJ,NA,89.12386706948641,NA
07850,Morris County,NJ,NA,NA,87.28323699421965
07866,Morris County,NJ,NA,NA,45.08670520231214
07874,Sussex County,NJ,NA,92.44712990936556,NA
07921,Somerset County,NJ,NA,98.18731117824774,NA
07932,Morris County,NJ,NA,96.67673716012085,NA
07974,Union County,NJ,NA,96.07250755287009,NA
08046,Burlington County,NJ,6.296296296296296,NA,NA
08083,Camden County,NJ,47.77777777777778,NA,NA
08085,Gloucester County,NJ,28.51851851851852,NA,NA
08223,Cape May County,NJ,99.62962962962963,NA,NA
08360,Cumberland County,NJ,NA,42.90030211480362,NA
08401,Atlantic County,NJ,NA,2.719033232628399,NA
08540,Mercer County,NJ,NA,39.577039274924466,NA
08701,Ocean County,NJ,NA,NA,17.91907514450867
08837,Middlesex County,NJ,NA,62.53776435045317,NA
87015,Santa Fe County,NM,NA,81.2688821752266,NA
87313,McKinley County,NM,78.88888888888889,NA,NA
87505,Santa Fe County,NM,5.185185185185185,NA,NA
88012,Doa Ana County,NM,38.148148148148145,NA,NA
88063,Doa Ana County,NM,NA,91.23867069486404,NA
88101,Curry County,NM,NA,NA,10.982658959537572
88345,Lincoln County,NM,NA,86.404833836858,NA
10023,New York County,NY,NA,14.803625377643503,NA
10065,New York County,NY,87.03703703703704,NA,NA
10301,Richmond County,NY,17.037037037037038,NA,NA
10471,Bronx County,NY,NA,NA,39.884393063583815
10474,Bronx County,NY,NA,97.58308157099698,NA
10475,Bronx County,NY,NA,11.178247734138973,NA
10541,Putnam County,NY,NA,76.43504531722054,NA
10703,Westchester County,NY,NA,NA,54.91329479768786
10801,Westchester County,NY,NA,35.34743202416919,NA
11003,Nassau County,NY,NA,60.12084592145015,NA
11105,Queens County,NY,NA,57.09969788519638,NA
11216,Kings County,NY,NA,7.552870090634441,NA
11224,Kings County,NY,22.22222222222222,NA,NA
11235,Kings County,NY,NA,16.012084592145015,0
11418,Queens County,NY,49.629629629629626,NA,NA
11520,Nassau County,NY,69.25925925925925,NA,NA
11691,Queens County,NY,NA,7.250755287009064,NA
11694,Queens County,NY,90,NA,NA
11722,Suffolk County,NY,NA,88.82175226586104,NA
11769,Suffolk County,NY,98.51851851851852,NA,NA
11789,Suffolk County,NY,NA,NA,93.0635838150289
12065,Saratoga County,NY,NA,NA,24.85549132947977
12180,Rensselaer County,NY,NA,8.761329305135952,NA
12203,Albany County,NY,41.48148148148148,NA,NA
12208,Albany County,NY,67.03703703703704,NA,NA
12866,Saratoga County,NY,48.888888888888886,NA,NA
13030,Madison County,NY,NA,95.77039274924472,NA
13031,Onondaga County,NY,NA,59.21450151057401,NA
13104,Onondaga County,NY,NA,49.244712990936556,NA
13110,Onondaga County,NY,NA,99.39577039274926,NA
13152,Onondaga County,NY,45.55555555555556,NA,NA
13212,Onondaga County,NY,NA,NA,61.27167630057804
13215,Onondaga County,NY,NA,NA,72.83236994219652
13413,Oneida County,NY,NA,32.93051359516616,NA
13801,Chenango County,NY,NA,98.79154078549848,NA
13905,Broome County,NY,0.7407407407407408,NA,NA
14043,Erie County,NY,35.92592592592593,NA,NA
14206,Erie County,NY,14.814814814814813,NA,NA
14226,Erie County,NY,NA,73.71601208459214,NA
14425,Ontario County,NY,19.62962962962963,NA,NA
14467,Monroe County,NY,61.48148148148148,NA,NA
14469,Ontario County,NY,NA,98.48942598187311,NA
14489,Wayne County,NY,34.81481481481482,NA,NA
14522,Wayne County,NY,37.03703703703704,NA,NA
14559,Monroe County,NY,10.37037037037037,NA,NA
14580,Monroe County,NY,NA,0.3021148036253776,NA
14606,Monroe County,NY,NA,48.6404833836858,NA
14609,Monroe County,NY,NA,0.906344410876133,19.653179190751445
14610,Monroe County,NY,NA,26.888217522658607,NA
14612,Monroe County,NY,15.555555555555555,63.141993957703924,68.20809248554913
14615,Monroe County,NY,11.11111111111111,NA,NA
14616,Monroe County,NY,20,8.459214501510575,NA
14622,Monroe County,NY,28.14814814814815,75.83081570996978,NA
14624,Monroe County,NY,NA,18.731117824773413,NA
14626,Monroe County,NY,2.2222222222222223,4.531722054380665,34.68208092485549
27295,Davidson County,NC,NA,NA,2.8901734104046244
27317,Randolph County,NC,NA,NA,75.14450867052022
27360,Davidson County,NC,NA,NA,42.77456647398844
27517,Orange County,NC,NA,30.513595166163142,NA
27603,Wake County,NC,NA,28.09667673716012,NA
27616,Wake County,NC,24.814814814814813,NA,NA
27891,Nash County,NC,96.66666666666667,NA,NA
28079,Union County,NC,NA,53.47432024169184,NA
28146,Rowan County,NC,36.2962962962963,NA,NA
28173,Union County,NC,NA,52.26586102719033,NA
28216,Mecklenburg County,NC,9.25925925925926,NA,NA
28269,Mecklenburg County,NC,NA,29.607250755287005,NA
28320,Bladen County,NC,NA,NA,83.23699421965318
28412,New Hanover County,NC,NA,29.003021148036257,NA
28530,Pitt County,NC,NA,84.29003021148036,NA
28650,Catawba County,NC,NA,NA,67.63005780346822
28704,Buncombe County,NC,NA,NA,54.33526011560693
28712,Transylvania County,NC,53.333333333333336,NA,NA
28723,Jackson County,NC,91.48148148148148,NA,NA
28804,Buncombe County,NC,NA,NA,68.78612716763006
43055,Licking County,OH,NA,1.2084592145015105,NA
43146,Pickaway County,OH,88.14814814814815,NA,NA
43551,Wood County,OH,15.185185185185185,NA,NA
43616,Lucas County,OH,14.074074074074074,NA,NA
43731,Perry County,OH,74.81481481481481,NA,NA
43756,Morgan County,OH,NA,NA,99.42196531791907
43952,Jefferson County,OH,NA,10.876132930513595,NA
44035,Lorain County,OH,NA,0,NA
44067,Summit County,OH,NA,19.033232628398792,NA
44105,Cuyahoga County,OH,NA,NA,4.624277456647398
44113,Cuyahoga County,OH,NA,75.52870090634441,NA
44119,Cuyahoga County,OH,22.962962962962962,NA,NA
44127,Cuyahoga County,OH,66.66666666666666,NA,NA
44131,Cuyahoga County,OH,NA,NA,52.601156069364166
44278,Summit County,OH,NA,NA,45.664739884393065
44301,Summit County,OH,79.62962962962963,NA,NA
44313,Summit County,OH,NA,18.12688821752266,NA
44319,Summit County,OH,NA,24.169184290030213,NA
44320,Summit County,OH,NA,NA,23.699421965317917
44403,Trumbull County,OH,NA,77.94561933534743,NA
44820,Crawford County,OH,NA,11.782477341389729,NA
44870,Erie County,OH,NA,2.1148036253776437,NA
45202,Hamilton County,OH,NA,68.8821752265861,NA
45305,Greene County,OH,75.55555555555556,NA,NA
45385,Greene County,OH,11.481481481481481,NA,NA
45638,Lawrence County,OH,4.444444444444445,NA,NA
45680,Lawrence County,OH,13.703703703703704,NA,NA
45750,Washington County,OH,NA,0.6042296072507553,NA
73025,Oklahoma County,OK,NA,61.933534743202415,NA
73064,Canadian County,OK,NA,48.036253776435046,NA
73099,Canadian County,OK,NA,6.646525679758309,NA
73159,Oklahoma County,OK,NA,29.305135951661633,NA
73644,Beckham County,OK,NA,87.61329305135952,NA
74014,Wagoner County,OK,39.25925925925926,NA,NA
74029,Washington County,OK,NA,94.5619335347432,NA
74066,Creek County,OK,NA,72.80966767371602,NA
74129,Tulsa County,OK,NA,NA,76.30057803468208
74132,Tulsa County,OK,NA,NA,96.53179190751445
74501,Pittsburg County,OK,NA,NA,35.26011560693642
74851,Pottawatomie County,OK,NA,70.69486404833837,NA
74881,Lincoln County,OK,98.88888888888889,NA,NA
97068,Clackamas County,OR,NA,NA,58.38150289017341
97123,Washington County,OR,23.703703703703706,NA,NA
97229,Washington County,OR,38.88888888888889,NA,NA
97301,Marion County,OR,13.333333333333334,NA,NA
97325,Marion County,OR,84.81481481481481,NA,NA
97330,Benton County,OR,NA,28.3987915407855,NA
97404,Lane County,OR,62.59259259259259,NA,NA
97426,Lane County,OR,NA,78.24773413897282,NA
97439,Lane County,OR,65.18518518518519,NA,NA
97471,Douglas County,OR,NA,6.3444108761329305,NA
97477,Lane County,OR,NA,33.53474320241692,NA
97478,Lane County,OR,NA,50.453172205438065,NA
97504,Jackson County,OR,24.074074074074073,NA,NA
97527,Josephine County,OR,NA,NA,23.121387283236995
97756,Deschutes County,OR,NA,NA,38.15028901734104
97814,Baker County,OR,NA,NA,46.24277456647399
97838,Umatilla County,OR,NA,17.522658610271904,NA
15101,Allegheny County,PA,NA,55.58912386706949,NA
15110,Allegheny County,PA,NA,93.95770392749245,NA
15122,Allegheny County,PA,54.074074074074076,NA,NA
15227,Allegheny County,PA,NA,60.72507552870091,NA
15235,Allegheny County,PA,22.59259259259259,NA,12.716763005780345
15236,Allegheny County,PA,NA,82.77945619335347,NA
15237,Allegheny County,PA,NA,NA,7.514450867052023
15642,Westmoreland County,PA,NA,6.042296072507553,9.826589595375722
15714,Cambria County,PA,NA,NA,86.70520231213872
16354,Crawford County,PA,NA,NA,60.69364161849711
16428,Erie County,PA,NA,NA,89.59537572254335
16510,Erie County,PA,NA,NA,24.277456647398843
17084,Mifflin County,PA,92.96296296296296,NA,NA
17954,Schuylkill County,PA,82.96296296296296,NA,NA
17961,Schuylkill County,PA,NA,90.03021148036254,NA
18049,Lehigh County,PA,NA,44.71299093655589,NA
18421,Susquehanna County,PA,NA,NA,95.95375722543352
19022,Delaware County,PA,95.18518518518519,NA,NA
19040,Montgomery County,PA,NA,NA,29.47976878612717
19047,Bucks County,PA,NA,16.91842900302115,NA
19055,Bucks County,PA,NA,NA,76.878612716763
19118,Philadelphia County,PA,NA,76.73716012084593,NA
19124,Philadelphia County,PA,0.3703703703703704,NA,NA
19130,Philadelphia County,PA,NA,38.972809667673715,NA
19134,Philadelphia County,PA,NA,NA,77.45664739884393
19145,Philadelphia County,PA,NA,12.386706948640484,NA
19148,Philadelphia County,PA,NA,14.501510574018129,NA
19602,Berks County,PA,NA,33.23262839879154,NA
19604,Berks County,PA,11.851851851851853,NA,NA
02886,Kent County,RI,68.88888888888889,NA,NA
02906,Providence County,RI,60,NA,NA
02907,Providence County,RI,43.333333333333336,NA,NA
02909,Providence County,RI,NA,NA,40.46242774566474
29067,Lancaster County,SC,NA,87.91540785498489,98.26589595375722
29204,Richland County,SC,NA,70.09063444108762,NA
29223,Richland County,SC,NA,NA,16.184971098265898
29307,Spartanburg County,SC,NA,70.99697885196375,NA
29316,Spartanburg County,SC,NA,35.04531722054381,NA
29445,Berkeley County,SC,28.888888888888886,NA,NA
29483,Dorchester County,SC,NA,NA,53.179190751445084
29605,Greenville County,SC,NA,14.19939577039275,NA
29611,Greenville County,SC,46.2962962962963,NA,NA
29651,Greenville County,SC,NA,15.105740181268882,NA
29681,Greenville County,SC,NA,53.776435045317214,NA
57702,Pennington County,SD,61.85185185185185,NA,NA
37027,Williamson County,TN,NA,NA,19.07514450867052
37043,Montgomery County,TN,NA,59.818731117824775,NA
37128,Rutherford County,TN,NA,54.98489425981873,NA
37160,Bedford County,TN,21.85185185185185,NA,NA
37167,Rutherford County,TN,NA,26.586102719033235,NA
37184,Wilson County,TN,NA,90.93655589123867,NA
37604,Washington County,TN,NA,NA,31.213872832369944
37615,Washington County,TN,NA,NA,63.005780346820806
37618,Sullivan County,TN,NA,78.54984894259819,NA
37663,Sullivan County,TN,NA,65.55891238670695,NA
37664,Sullivan County,TN,NA,NA,27.167630057803464
37683,Johnson County,TN,NA,NA,90.7514450867052
37738,Sevier County,TN,97.4074074074074,NA,NA
37748,Roane County,TN,NA,NA,41.040462427745666
37917,Knox County,TN,18.51851851851852,NA,NA
37934,Knox County,TN,NA,45.31722054380665,NA
38002,Shelby County,TN,NA,69.78851963746223,NA
38115,Shelby County,TN,NA,62.2356495468278,NA
38305,Madison County,TN,NA,12.084592145015106,NA
75001,Dallas County,TX,88.88888888888889,NA,NA
75002,Collin County,TX,NA,NA,43.93063583815029
75006,Dallas County,TX,50,NA,NA
75007,Denton County,TX,NA,26.283987915407852,NA
75023,Collin County,TX,55.925925925925924,NA,NA
75051,Dallas County,TX,47.03703703703704,NA,NA
75089,Dallas County,TX,65.92592592592592,NA,NA
75104,Dallas County,TX,27.40740740740741,NA,NA
75216,Dallas County,TX,6.666666666666667,NA,NA
75227,Dallas County,TX,NA,38.670694864048336,NA
75243,Dallas County,TX,NA,47.73413897280967,NA
75252,Collin County,TX,NA,NA,82.65895953757226
75402,Hunt County,TX,NA,83.38368580060424,NA
75497,Wood County,TX,99.25925925925925,NA,NA
75501,Bowie County,TX,NA,24.47129909365559,NA
75644,Upshur County,TX,NA,64.04833836858006,NA
75785,Cherokee County,TX,71.48148148148148,NA,NA
75801,Anderson County,TX,NA,NA,70.52023121387283
75904,Angelina County,TX,NA,NA,38.72832369942196
76014,Tarrant County,TX,51.85185185185185,NA,NA
76039,Tarrant County,TX,NA,NA,63.58381502890174
76052,Tarrant County,TX,81.85185185185185,NA,NA
76132,Tarrant County,TX,67.77777777777779,NA,NA
76134,Tarrant County,TX,NA,NA,64.73988439306359
76177,Tarrant County,TX,97.03703703703704,NA,NA
76208,Denton County,TX,NA,52.87009063444109,NA
76367,Wichita County,TX,90.74074074074075,NA,NA
76384,Wilbarger County,TX,92.22222222222223,NA,NA
76502,Bell County,TX,NA,13.595166163141995,NA
76634,Bosque County,TX,NA,NA,87.861271676300575
76642,Limestone County,TX,74.07407407407408,NA,NA
77006,Harris County,TX,77.03703703703704,NA,NA
77007,Harris County,TX,55.18518518518518,NA,NA
77008,Harris County,TX,NA,92.14501510574019,NA
77020,Harris County,TX,NA,NA,90.17341040462428
77045,Harris County,TX,NA,88.51963746223565,NA
77056,Harris County,TX,91.85185185185185,NA,48.554913294797686
77057,Harris County,TX,NA,58.610271903323266,NA
77062,Harris County,TX,NA,61.027190332326285,NA
77099,Harris County,TX,87.77777777777777,NA,NA
77318,Montgomery County,TX,NA,NA,80.92485549132948
77328,San Jacinto County,TX,NA,84.59214501510573,NA
77351,Polk County,TX,NA,NA,30.63583815028902
77375,Harris County,TX,NA,40.483383685800604,NA
77382,Montgomery County,TX,NA,64.35045317220543,73.41040462427746
77388,Harris County,TX,NA,38.368580060422964,NA
77396,Harris County,TX,40.370370370370374,NA,NA
77550,Galveston County,TX,NA,15.709969788519636,NA
77566,Brazoria County,TX,NA,48.94259818731118,NA
77573,Galveston County,TX,NA,5.13595166163142,NA
77581,Brazoria County,TX,NA,22.054380664652566,NA
77584,Brazoria County,TX,9.62962962962963,NA,NA
77586,Harris County,TX,52.22222222222223,NA,NA
77640,Jefferson County,TX,63.70370370370371,NA,NA
77642,Jefferson County,TX,31.11111111111111,35.95166163141994,NA
77802,Brazos County,TX,NA,19.637462235649547,NA
77808,Brazos County,TX,84.07407407407408,NA,NA
78009,Medina County,TX,97.77777777777777,NA,NA
78043,Webb County,TX,NA,31.419939577039273,NA
78046,Webb County,TX,NA,28.700906344410875,NA
78130,Comal County,TX,NA,21.75226586102719,NA
78201,Bexar County,TX,NA,21.148036253776432,NA
78209,Bexar County,TX,67.4074074074074,NA,NA
78516,Hidalgo County,TX,NA,NA,56.06936416184971
78521,Cameron County,TX,34.81481481481482,NA,NA
78537,Hidalgo County,TX,NA,NA,58.95953757225434
78727,Travis County,TX,NA,90.33232628398792,NA
78749,Travis County,TX,NA,NA,84.39306358381504
79404,Lubbock County,TX,NA,92.74924471299094,NA
79415,Lubbock County,TX,70.74074074074073,NA,NA
79603,Taylor County,TX,32.592592592592595,NA,NA
79756,Ward County,TX,75.18518518518519,NA,NA
79907,El Paso County,TX,NA,NA,30.057803468208093
84066,Duchesne County,UT,64.44444444444444,NA,NA
84107,Salt Lake County,UT,45.18518518518518,NA,NA
84401,Weber County,UT,NA,54.38066465256798,NA
22101,Fairfax County,VA,80.37037037037037,51.963746223564954,NA
22181,Fairfax County,VA,NA,94.86404833836858,NA
22204,Arlington County,VA,NA,50.15105740181269,NA
22312,Fairfax County,VA,85.18518518518519,NA,NA
22443,Westmoreland County,VA,NA,97.2809667673716,NA
22556,Stafford County,VA,NA,71.29909365558912,NA
22827,Rockingham County,VA,NA,NA,85.54913294797689
22903,Charlottesville city,VA,30.74074074074074,NA,NA
23231,Henrico County,VA,27.037037037037038,NA,NA
23451,Virginia Beach city,VA,NA,NA,5.202312138728324
23455,Virginia Beach city,VA,48.148148148148145,NA,NA
23518,Norfolk city,VA,NA,32.02416918429003,NA
24333,Galax city,VA,NA,NA,61.849710982658955
24540,Danville city,VA,30.37037037037037,NA,NA
24557,Pittsylvania County,VA,NA,NA,82.08092485549133
98005,King County,WA,NA,NA,51.445086705202314
98028,King County,WA,NA,66.76737160120845,NA
98042,King County,WA,18.88888888888889,NA,NA
98101,King County,WA,72.22222222222221,NA,NA
98109,King County,WA,NA,NA,57.80346820809249
98198,King County,WA,NA,31.1178247734139,NA
98221,Skagit County,WA,NA,20.84592145015106,NA
98239,Island County,WA,NA,87.00906344410876,NA
98258,Snohomish County,WA,NA,51.3595166163142,NA
98270,Snohomish County,WA,NA,NA,97.6878612716763
98312,Kitsap County,WA,41.85185185185185,NA,NA
98584,Mason County,WA,37.77777777777778,NA,NA
98674,Cowlitz County,WA,NA,86.70694864048339,NA
98837,Grant County,WA,NA,33.8368580060423,NA
99037,Spokane County,WA,NA,83.68580060422961,NA
99208,Spokane County,WA,NA,NA,13.294797687861271
99217,Spokane County,WA,NA,NA,78.61271676300578
20001,District of Columbia,DC,24.444444444444443,NA,NA
20003,District of Columbia,DC,NA,NA,91.32947976878613
20009,District of Columbia,DC,33.7037037037037,NA,NA
20019,District of Columbia,DC,3.3333333333333335,NA,NA
25526,Putnam County,WV,NA,41.69184290030212,NA
25951,Summers County,WV,72.96296296296296,NA,NA
26070,Brooke County,WV,NA,67.97583081570997,NA
26105,Wood County,WV,NA,NA,26.589595375722542
53024,Ozaukee County,WI,NA,NA,20.23121387283237
53132,Milwaukee County,WI,NA,22.658610271903324,NA
53202,Milwaukee County,WI,NA,79.45619335347432,NA
53210,Milwaukee County,WI,33.33333333333333,NA,NA
53211,Milwaukee County,WI,NA,23.867069486404834,NA
53225,Milwaukee County,WI,NA,41.99395770392749,NA
54162,Brown County,WI,95.55555555555556,NA,NA
54311,Brown County,WI,NA,29.909365558912388,NA
