ZipCode,county,state,Adult,Retirement,Geriatric
35173,Jefferson County,AL,43.042071197411005,NA,NA
35242,Shelby County,AL,NA,11.817168338907468,NA
35470,Sumter County,AL,NA,90.18952062430323,NA
35474,Hale County,AL,NA,NA,98.58757062146893
35475,Tuscaloosa County,AL,43.36569579288026,NA,NA
35630,Lauderdale County,AL,NA,30.211817168338907,NA
35652,Lauderdale County,AL,NA,NA,99.71751412429379
35673,Morgan County,AL,NA,76.36566332218506,NA
35768,Jackson County,AL,51.61812297734628,NA,NA
35769,Jackson County,AL,NA,NA,60.73446327683616
35810,Madison County,AL,NA,18.9520624303233,NA
36079,Pike County,AL,71.03559870550163,NA,NA
36108,Montgomery County,AL,NA,77.59197324414716,NA
36111,Montgomery County,AL,NA,NA,89.83050847457628
36274,Randolph County,AL,NA,72.24080267558529,NA
36303,Houston County,AL,20.388349514563107,NA,NA
36442,Covington County,AL,NA,92.97658862876254,NA
36467,Covington County,AL,NA,NA,67.79661016949152
36526,Baldwin County,AL,43.85113268608414,32.21850613154961,NA
36535,Baldwin County,AL,NA,NA,29.37853107344633
36567,Baldwin County,AL,NA,NA,57.909604519774014
36695,Mobile County,AL,NA,NA,39.548022598870055
36867,Russell County,AL,NA,92.7536231884058,NA
99654,Matanuska-Susitna Borough,AK,NA,34.11371237458194,NA
99686,Valdez-Cordova Census Area,AK,92.71844660194175,NA,NA
99901,Ketchikan Gateway Borough,AK,NA,43.25529542920847,NA
85007,Maricopa County,AZ,10.517799352750808,NA,NA
85023,Maricopa County,AZ,82.20064724919094,NA,NA
85028,Maricopa County,AZ,NA,51.05908584169454,NA
85053,Maricopa County,AZ,NA,73.91304347826086,NA
85122,Pinal County,AZ,NA,11.259754738015609,NA
85142,Maricopa County,AZ,10.032362459546926,NA,NA
85226,Maricopa County,AZ,47.249190938511326,NA,NA
85248,Maricopa County,AZ,NA,NA,66.10169491525424
85251,Maricopa County,AZ,NA,89.96655518394648,NA
85253,Maricopa County,AZ,NA,88.07134894091416,NA
85331,Maricopa County,AZ,NA,43.701226309921964,NA
85345,Maricopa County,AZ,NA,71.12597547380156,NA
85364,Yuma County,AZ,16.828478964401295,NA,NA
85375,Maricopa County,AZ,NA,NA,0.847457627118644
85541,Gila County,AZ,42.71844660194174,NA,NA
85607,Cochise County,AZ,NA,NA,52.54237288135594
85635,Cochise County,AZ,NA,94.7603121516165,NA
85653,Pima County,AZ,32.038834951456316,NA,NA
85711,Pima County,AZ,NA,12.82051282051282,NA
85757,Pima County,AZ,NA,NA,87.57062146892656
85901,Navajo County,AZ,NA,NA,51.41242937853108
86004,Coconino County,AZ,24.271844660194176,77.25752508361204,NA
86314,Yavapai County,AZ,NA,NA,10.734463276836157
86325,Yavapai County,AZ,91.42394822006472,NA,NA
86403,Mohave County,AZ,NA,NA,62.71186440677966
86406,Mohave County,AZ,NA,22.073578595317723,NA
86409,Mohave County,AZ,NA,4.570791527313267,NA
86440,Mohave County,AZ,87.70226537216828,NA,NA
86442,Mohave County,AZ,NA,9.92196209587514,NA
86505,Apache County,AZ,NA,61.315496098104795,NA
72010,White County,AR,NA,NA,65.5367231638418
72022,Saline County,AR,NA,75.69676700111484,NA
72103,Saline County,AR,NA,NA,56.779661016949156
72150,Grant County,AR,70.3883495145631,NA,NA
72364,Crittenden County,AR,NA,NA,88.4180790960452
72758,Benton County,AR,50.970873786407765,NA,NA
72802,Pope County,AR,NA,53.400222965440356,NA
90008,Los Angeles County,CA,38.996763754045304,NA,NA
90024,Los Angeles County,CA,NA,NA,5.932203389830509
90026,Los Angeles County,CA,40.1294498381877,NA,NA
90034,Los Angeles County,CA,75.40453074433657,NA,NA
90035,Los Angeles County,CA,NA,NA,25.141242937853107
90046,Los Angeles County,CA,NA,NA,5.649717514124294
90241,Los Angeles County,CA,NA,NA,53.10734463276836
90265,Los Angeles County,CA,NA,NA,64.12429378531074
90277,Los Angeles County,CA,45.63106796116505,69.78818283166109,NA
90660,Los Angeles County,CA,NA,NA,23.44632768361582
90710,Los Angeles County,CA,NA,96.65551839464884,NA
91006,Los Angeles County,CA,74.75728155339806,NA,NA
91040,Los Angeles County,CA,NA,NA,61.29943502824858
91335,Los Angeles County,CA,27.508090614886733,NA,NA
91355,Los Angeles County,CA,NA,41.248606465997774,NA
91403,Los Angeles County,CA,69.25566343042071,NA,NA
91504,Los Angeles County,CA,61.003236245954696,NA,NA
91710,San Bernardino County,CA,NA,16.61092530657748,NA
91739,San Bernardino County,CA,53.398058252427184,NA,NA
91740,Los Angeles County,CA,NA,45.039018952062435,NA
91766,Los Angeles County,CA,NA,37.9041248606466,30.508474576271187
92040,San Diego County,CA,NA,65.3288740245262,NA
92056,San Diego County,CA,46.763754045307444,NA,NA
92075,San Diego County,CA,NA,NA,69.77401129943502
92123,San Diego County,CA,NA,36.78929765886287,NA
92128,San Diego County,CA,NA,NA,38.13559322033898
92154,San Diego County,CA,58.89967637540453,NA,NA
92201,Riverside County,CA,20.87378640776699,NA,26.836158192090398
92211,Riverside County,CA,NA,NA,0.2824858757062147
92223,Riverside County,CA,53.23624595469255,NA,NA
92234,Riverside County,CA,37.37864077669903,NA,62.14689265536724
92253,Riverside County,CA,94.1747572815534,NA,NA
92260,Riverside County,CA,NA,38.684503901895205,NA
92262,Riverside County,CA,46.116504854368934,NA,NA
92264,Riverside County,CA,NA,10.590858416945373,71.46892655367232
92336,San Bernardino County,CA,30.906148867313917,NA,NA
92395,San Bernardino County,CA,NA,35.22853957636566,NA
92505,Riverside County,CA,88.3495145631068,NA,NA
92626,Orange County,CA,62.62135922330098,NA,NA
92627,Orange County,CA,18.446601941747574,NA,NA
92663,Orange County,CA,NA,NA,50.56497175141242
92677,Orange County,CA,NA,9.47603121516165,NA
92691,Orange County,CA,NA,NA,68.07909604519774
92705,Orange County,CA,NA,44.03567447045708,NA
92708,Orange County,CA,31.06796116504854,NA,NA
92802,Orange County,CA,NA,35.45150501672241,NA
92805,Orange County,CA,50.64724919093852,NA,NA
93003,Ventura County,CA,14.401294498381878,NA,NA
93060,Ventura County,CA,NA,82.94314381270902,NA
93110,Santa Barbara County,CA,NA,76.03121516164994,NA
93210,Fresno County,CA,NA,82.6086956521739,NA
93433,San Luis Obispo County,CA,98.05825242718447,NA,NA
93436,Santa Barbara County,CA,NA,NA,12.429378531073446
93505,Kern County,CA,NA,87.40245261984393,NA
93555,Kern County,CA,49.51456310679612,92.08472686733556,NA
93619,Fresno County,CA,NA,33.55629877369008,NA
93637,Madera County,CA,28.155339805825243,NA,NA
93647,Tulare County,CA,NA,93.08807134894091,NA
93703,Fresno County,CA,63.59223300970874,NA,NA
93711,Fresno County,CA,NA,NA,31.63841807909605
93930,Monterey County,CA,NA,NA,93.22033898305084
93940,Monterey County,CA,NA,NA,20.903954802259886
94010,San Mateo County,CA,NA,NA,79.94350282485875
94015,San Mateo County,CA,63.43042071197411,NA,NA
94027,San Mateo County,CA,NA,96.43255295429208,NA
94070,San Mateo County,CA,NA,54.06911928651059,NA
94110,San Francisco County,CA,12.297734627831716,NA,52.824858757062145
94118,San Francisco County,CA,48.381877022653725,NA,NA
94127,San Francisco County,CA,97.57281553398059,NA,NA
94507,Contra Costa County,CA,NA,59.42028985507246,NA
94531,Contra Costa County,CA,NA,87.17948717948718,NA
94533,Solano County,CA,20.22653721682848,NA,81.92090395480226
94550,Alameda County,CA,NA,30.88071348940914,NA
94590,Solano County,CA,NA,23.076923076923077,NA
94603,Alameda County,CA,NA,45.59643255295429,NA
94708,Alameda County,CA,90.45307443365695,NA,NA
94939,Marin County,CA,NA,NA,88.70056497175142
94941,Marin County,CA,NA,33.8907469342252,NA
94945,Marin County,CA,NA,58.082497212932,NA
94952,Sonoma County,CA,66.99029126213593,NA,42.090395480225986
95019,Santa Cruz County,CA,NA,85.5072463768116,NA
95120,Santa Clara County,CA,NA,NA,29.66101694915254
95123,Santa Clara County,CA,83.00970873786407,NA,NA
95124,Santa Clara County,CA,50,73.57859531772574,NA
95127,Santa Clara County,CA,NA,37.012263099219624,NA
95132,Santa Clara County,CA,NA,54.18060200668896,NA
95223,Calaveras County,CA,NA,78.26086956521739,NA
95370,Tuolumne County,CA,NA,NA,66.66666666666666
95404,Sonoma County,CA,60.19417475728155,NA,NA
95476,Sonoma County,CA,NA,98.10479375696767,NA
95672,El Dorado County,CA,100,NA,NA
95726,El Dorado County,CA,NA,NA,85.59322033898306
95823,Sacramento County,CA,NA,NA,27.401129943502823
95829,Sacramento County,CA,65.85760517799353,NA,NA
95926,Butte County,CA,NA,NA,32.7683615819209
95928,Butte County,CA,29.126213592233007,NA,NA
95954,Butte County,CA,35.59870550161812,NA,61.016949152542374
95963,Glenn County,CA,62.13592233009708,60.0891861761427,NA
95969,Butte County,CA,27.831715210355988,7.1348940914158305,26.27118644067797
96019,Shasta County,CA,64.40129449838187,NA,NA
80104,Douglas County,CO,NA,53.06577480490524,NA
80107,Elbert County,CO,NA,NA,86.15819209039547
80123,Jefferson County,CO,NA,NA,29.943502824858758
80209,Denver County,CO,NA,53.17725752508361,NA
80224,Denver County,CO,NA,97.88182831661094,NA
80227,Jefferson County,CO,NA,55.62987736900781,NA
80236,Denver County,CO,NA,NA,92.65536723163842
80238,Denver County,CO,66.99029126213593,NA,NA
80401,Jefferson County,CO,NA,40.691192865105904,NA
80465,Jefferson County,CO,NA,94.20289855072464,NA
80524,Larimer County,CO,NA,75.36231884057972,38.983050847457626
80534,Weld County,CO,58.7378640776699,NA,NA
80537,Larimer County,CO,19.25566343042071,NA,NA
80550,Weld County,CO,NA,63.43366778149387,NA
80634,Weld County,CO,NA,NA,54.23728813559322
80909,El Paso County,CO,NA,66.88963210702342,NA
80917,El Paso County,CO,NA,45.59643255295429,NA
80918,El Paso County,CO,NA,79.041248606466,36.72316384180791
80922,El Paso County,CO,47.896440129449836,NA,NA
81004,Pueblo County,CO,NA,53.62318840579711,NA
81212,Fremont County,CO,34.95145631067961,NA,NA
81321,Montezuma County,CO,NA,51.17056856187291,92.37288135593221
81403,Montrose County,CO,NA,92.53065774804905,NA
81419,Delta County,CO,NA,99.77703455964325,NA
81504,Mesa County,CO,NA,NA,59.6045197740113
81625,Moffat County,CO,78.64077669902912,NA,NA
06010,Hartford County,CT,NA,32.441471571906355,65.2542372881356
06026,Hartford County,CT,89.48220064724919,NA,NA
06040,Hartford County,CT,31.715210355987054,NA,NA
06053,Hartford County,CT,11.003236245954692,NA,NA
06057,Litchfield County,CT,77.18446601941747,NA,NA
06074,Hartford County,CT,48.05825242718447,NA,56.49717514124294
06082,Hartford County,CT,NA,NA,70.05649717514125
06084,Tolland County,CT,NA,NA,76.55367231638418
06098,Litchfield County,CT,NA,37.45819397993311,NA
06239,Windham County,CT,30.42071197411003,NA,NA
06416,Middlesex County,CT,NA,62.430323299888514,NA
06419,Middlesex County,CT,NA,91.63879598662207,NA
06443,New Haven County,CT,77.831715210356,55.74136008918617,NA
06451,New Haven County,CT,NA,31.661092530657747,NA
06460,New Haven County,CT,NA,NA,28.8135593220339
06461,New Haven County,CT,NA,63.322185061315494,NA
06472,New Haven County,CT,NA,NA,80.7909604519774
06477,New Haven County,CT,NA,63.21070234113713,NA
06480,Middlesex County,CT,NA,81.04793756967669,NA
06484,Fairfield County,CT,30.258899676375407,76.47714604236343,NA
06489,Hartford County,CT,87.86407766990291,15.719063545150503,NA
06610,Fairfield County,CT,NA,NA,48.30508474576271
06614,Fairfield County,CT,NA,NA,25.98870056497175
06756,Litchfield County,CT,NA,97.77034559643255,NA
06762,New Haven County,CT,NA,78.92976588628763,NA
06798,Litchfield County,CT,NA,73.69007803790413,NA
06810,Fairfield County,CT,NA,46.3768115942029,NA
06811,Fairfield County,CT,NA,23.634336677814936,NA
06820,Fairfield County,CT,NA,70.68004459308807,NA
06831,Fairfield County,CT,NA,85.17279821627648,NA
06870,Fairfield County,CT,NA,95.76365663322186,NA
06897,Fairfield County,CT,NA,91.75027870680044,NA
19904,Kent County,DE,12.944983818770226,NA,NA
19947,Sussex County,DE,38.02588996763754,32.887402452619845,NA
19963,Sussex County,DE,NA,79.26421404682274,NA
32003,Clay County,FL,NA,NA,87.85310734463276
32063,Baker County,FL,NA,67.22408026755853,NA
32066,Lafayette County,FL,95.9546925566343,NA,NA
32073,Clay County,FL,NA,24.30323299888517,NA
32082,St. Johns County,FL,49.19093851132686,NA,NA
32127,Volusia County,FL,NA,80.60200668896321,NA
32141,Volusia County,FL,NA,43.03232998885173,NA
32145,St. Johns County,FL,NA,94.64882943143813,NA
32169,Volusia County,FL,NA,NA,50.847457627118644
32207,Duval County,FL,NA,10.479375696767,NA
32210,Duval County,FL,4.692556634304207,NA,NA
32217,Duval County,FL,NA,NA,57.34463276836158
32221,Duval County,FL,NA,NA,38.4180790960452
32225,Duval County,FL,25.40453074433657,NA,NA
32233,Duval County,FL,34.14239482200647,NA,NA
32258,Duval County,FL,47.57281553398058,NA,NA
32277,Duval County,FL,19.741100323624593,NA,NA
32428,Washington County,FL,NA,NA,40.96045197740113
32435,Walton County,FL,NA,80.49052396878483,NA
32439,Walton County,FL,NA,57.19063545150501,NA
32456,Gulf County,FL,NA,49.38684503901895,NA
32514,Escambia County,FL,NA,93.75696767001115,NA
32526,Escambia County,FL,NA,NA,7.344632768361582
32536,Okaloosa County,FL,NA,22.1850613154961,NA
32547,Okaloosa County,FL,NA,44.14715719063545,NA
32561,Santa Rosa County,FL,77.99352750809061,NA,NA
32563,Santa Rosa County,FL,NA,20.401337792642142,NA
32583,Santa Rosa County,FL,NA,48.16053511705686,NA
32607,Alachua County,FL,17.313915857605178,NA,NA
32615,Alachua County,FL,NA,NA,59.32203389830508
32669,Alachua County,FL,NA,NA,71.1864406779661
32712,Orange County,FL,54.20711974110033,NA,NA
32765,Seminole County,FL,NA,NA,40.11299435028249
32922,Brevard County,FL,42.394822006472495,NA,NA
32931,Brevard County,FL,NA,NA,33.89830508474576
33021,Broward County,FL,NA,20.735785953177256,NA
33027,Broward County,FL,NA,NA,4.23728813559322
33139,Miami-Dade County,FL,NA,42.14046822742475,NA
33155,Miami-Dade County,FL,NA,NA,11.581920903954803
33301,Broward County,FL,NA,56.07580824972129,NA
33323,Broward County,FL,84.62783171521036,NA,NA
33334,Broward County,FL,NA,42.36343366778149,NA
33401,Palm Beach County,FL,NA,NA,55.08474576271186
33418,Palm Beach County,FL,46.44012944983819,24.1917502787068,NA
33445,Palm Beach County,FL,NA,NA,26.55367231638418
33455,Martin County,FL,NA,20.178372352285397,NA
33469,Palm Beach County,FL,NA,98.55072463768117,NA
33471,Glades County,FL,NA,NA,85.87570621468926
33549,Hillsborough County,FL,64.56310679611651,NA,NA
33570,Hillsborough County,FL,NA,45.819397993311036,NA
33606,Hillsborough County,FL,76.2135922330097,NA,NA
33615,Hillsborough County,FL,NA,55.852842809364546,NA
33702,Pinellas County,FL,NA,50.94760312151616,NA
33705,Pinellas County,FL,NA,71.23745819397993,NA
33813,Polk County,FL,51.7799352750809,NA,NA
33825,Highlands County,FL,NA,40.802675585284284,NA
33852,Highlands County,FL,NA,16.9453734671126,NA
33873,Hardee County,FL,NA,57.859531772575245,NA
33880,Polk County,FL,NA,38.01560758082497,NA
33905,Lee County,FL,31.87702265372168,NA,87.28813559322035
33908,Lee County,FL,NA,NA,24.293785310734464
33913,Lee County,FL,NA,26.08695652173913,NA
34102,Collier County,FL,81.22977346278317,NA,NA
34104,Collier County,FL,NA,79.71014492753623,NA
34117,Collier County,FL,55.98705501618123,NA,NA
34120,Collier County,FL,NA,35.005574136008924,NA
34135,Lee County,FL,NA,13.26644370122631,NA
34228,Sarasota County,FL,NA,NA,37.85310734463277
34238,Sarasota County,FL,NA,73.8015607580825,NA
34243,Manatee County,FL,NA,NA,32.48587570621469
34266,DeSoto County,FL,30.582524271844658,66.22073578595318,NA
34275,Sarasota County,FL,NA,NA,14.689265536723164
34287,Sarasota County,FL,NA,25.08361204013378,NA
34293,Sarasota County,FL,NA,NA,2.5423728813559325
34446,Citrus County,FL,NA,73.13266443701227,NA
34470,Marion County,FL,43.203883495145625,NA,NA
34683,Pinellas County,FL,75.72815533980582,NA,NA
34690,Pasco County,FL,78.96440129449837,NA,NA
34759,Polk County,FL,NA,36.231884057971016,NA
34772,Osceola County,FL,NA,54.626532887402455,NA
34950,St. Lucie County,FL,NA,40.802675585284284,NA
34956,Martin County,FL,NA,NA,81.07344632768361
34957,Martin County,FL,NA,NA,16.101694915254235
34986,St. Lucie County,FL,NA,21.181716833890746,NA
34990,Martin County,FL,NA,21.516164994425864,3.1073446327683616
34994,Martin County,FL,NA,40.022296544035676,NA
34996,Martin County,FL,NA,NA,55.932203389830505
34997,Martin County,FL,26.860841423948216,NA,NA
30004,Fulton County,GA,NA,86.06465997770346,NA
30019,Gwinnett County,GA,NA,32.77591973244147,NA
30021,DeKalb County,GA,67.63754045307444,NA,NA
30024,Gwinnett County,GA,18.77022653721683,NA,NA
30028,Forsyth County,GA,86.56957928802589,NA,96.61016949152543
30040,Forsyth County,GA,22.491909385113267,NA,NA
30058,DeKalb County,GA,NA,52.39687848383501,NA
30062,Cobb County,GA,36.56957928802589,40.245261984392414,NA
30088,DeKalb County,GA,33.980582524271846,NA,NA
30135,Douglas County,GA,37.055016181229774,NA,NA
30233,Butts County,GA,NA,87.29096989966555,NA
30277,Coweta County,GA,NA,56.85618729096989,NA
30350,Fulton County,GA,88.18770226537217,NA,NA
30415,Bulloch County,GA,NA,88.40579710144928,NA
30542,Hall County,GA,NA,NA,48.58757062146893
30606,Clarke County,GA,NA,23.299888517279822,NA
30680,Barrow County,GA,45.307443365695796,NA,NA
30683,Clarke County,GA,78.15533980582524,NA,NA
30720,Whitfield County,GA,NA,50.278706800445924,NA
30741,Walker County,GA,NA,17.16833890746934,NA
30753,Chattooga County,GA,NA,88.7402452619844,NA
30906,Richmond County,GA,NA,26.53288740245262,NA
31015,Crisp County,GA,NA,NA,47.175141242937855
31061,Baldwin County,GA,26.375404530744333,NA,NA
31092,Dooly County,GA,NA,81.4938684503902,NA
31216,Bibb County,GA,72.00647249190939,NA,NA
31406,Chatham County,GA,NA,24.637681159420293,NA
31411,Chatham County,GA,NA,62.76477146042363,NA
31503,Ware County,GA,NA,85.61872909698997,NA
31516,Pierce County,GA,NA,78.70680044593088,NA
31520,Glynn County,GA,NA,85.73021181716834,NA
31636,Lowndes County,GA,NA,50.50167224080268,NA
31707,Dougherty County,GA,NA,32.99888517279822,NA
31750,Ben Hill County,GA,50.48543689320388,NA,NA
31791,Worth County,GA,NA,50.055741360089186,NA
31820,Muscogee County,GA,84.9514563106796,NA,NA
31822,Harris County,GA,NA,NA,97.45762711864407
96707,Honolulu County,HI,NA,26.644370122630995,NA
96786,Honolulu County,HI,76.69902912621359,NA,NA
83204,Bannock County,ID,45.14563106796117,NA,NA
83301,Twin Falls County,ID,4.207119741100324,1.1148272017837235,NA
83340,Blaine County,ID,NA,47.491638795986624,NA
83350,Minidoka County,ID,63.26860841423948,NA,NA
83401,Bonneville County,ID,38.673139158576056,NA,NA
83501,Nez Perce County,ID,NA,51.50501672240802,NA
83544,Clearwater County,ID,NA,NA,95.76271186440678
83616,Ada County,ID,NA,91.19286510590858,NA
83634,Ada County,ID,NA,65.10590858416946,NA
83642,Ada County,ID,15.6957928802589,NA,NA
83646,Ada County,ID,35.275080906148865,NA,NA
83660,Canyon County,ID,NA,83.61204013377926,NA
83703,Ada County,ID,93.68932038834951,NA,NA
83704,Ada County,ID,NA,3.5674470457079153,NA
83814,Kootenai County,ID,NA,75.0278706800446,NA
83861,Benewah County,ID,92.88025889967638,75.47380156075808,NA
60002,Lake County,IL,NA,28.87402452619844,NA
60004,Cook County,IL,49.676375404530745,NA,NA
60013,McHenry County,IL,NA,29.54292084726867,NA
60015,Lake County,IL,NA,NA,46.89265536723164
60026,Cook County,IL,NA,NA,25.70621468926554
60045,Lake County,IL,NA,19.955406911928648,NA
60048,Lake County,IL,44.49838187702265,NA,NA
60060,Lake County,IL,67.79935275080906,13.377926421404682,NA
60062,Cook County,IL,NA,53.51170568561873,NA
60070,Cook County,IL,NA,62.65328874024526,NA
60076,Cook County,IL,38.51132686084142,NA,NA
60077,Cook County,IL,NA,25.30657748049052,NA
60085,Lake County,IL,NA,25.975473801560756,NA
60093,Cook County,IL,NA,NA,24.576271186440678
60102,McHenry County,IL,NA,34.448160535117054,NA
60103,DuPage County,IL,NA,21.40468227424749,NA
60108,DuPage County,IL,NA,NA,28.24858757062147
60120,Kane County,IL,NA,NA,45.19774011299435
60139,DuPage County,IL,NA,58.97435897435898,NA
60152,McHenry County,IL,NA,43.47826086956522,NA
60177,Kane County,IL,NA,NA,50
60187,DuPage County,IL,32.847896440129446,30.76923076923077,NA
60189,DuPage County,IL,NA,NA,74.01129943502825
60404,Will County,IL,NA,34.225195094760316,NA
60411,Cook County,IL,12.62135922330097,NA,19.2090395480226
60426,Cook County,IL,NA,NA,45.76271186440678
60439,Cook County,IL,NA,15.942028985507244,NA
60450,Grundy County,IL,NA,15.607580824972128,NA
60463,Cook County,IL,NA,64.88294314381271,NA
60467,Cook County,IL,NA,NA,14.40677966101695
60471,Cook County,IL,NA,54.84949832775919,NA
60477,Cook County,IL,51.1326860841424,NA,NA
60490,Will County,IL,51.94174757281553,NA,NA
60505,Kane County,IL,NA,82.16276477146043,NA
60527,DuPage County,IL,NA,NA,15.254237288135593
60534,Cook County,IL,NA,72.35228539576366,NA
60555,DuPage County,IL,NA,66.44370122630993,NA
60558,Cook County,IL,NA,95.9866220735786,NA
60563,DuPage County,IL,NA,31.438127090301005,NA
60610,Cook County,IL,NA,NA,48.87005649717514
60613,Cook County,IL,NA,28.762541806020064,NA
60618,Cook County,IL,8.414239482200648,17.05685618729097,NA
60620,Cook County,IL,NA,3.455964325529543,NA
60634,Cook County,IL,NA,NA,51.69491525423729
60643,Cook County,IL,NA,3.901895206243032,NA
60649,Cook County,IL,NA,NA,18.07909604519774
60655,Cook County,IL,26.051779935275082,26.978818283166113,NA
60656,Cook County,IL,42.23300970873786,NA,NA
60657,Cook County,IL,18.6084142394822,NA,NA
60659,Cook County,IL,NA,NA,38.70056497175141
60901,Kankakee County,IL,NA,12.263099219620958,NA
60957,Ford County,IL,NA,NA,78.53107344632768
61068,Ogle County,IL,NA,80.15607580824971,NA
61071,Whiteside County,IL,NA,42.69788182831661,NA
61107,Winnebago County,IL,37.86407766990291,27.759197324414714,NA
61111,Winnebago County,IL,NA,NA,44.35028248587571
61341,LaSalle County,IL,NA,87.62541806020067,NA
61350,LaSalle County,IL,NA,27.870680044593087,NA
61354,LaSalle County,IL,NA,42.80936454849498,NA
61604,Peoria County,IL,60.84142394822006,NA,NA
61704,McLean County,IL,86.40776699029125,NA,NA
61802,Champaign County,IL,53.72168284789643,NA,NA
61821,Champaign County,IL,NA,39.35340022296544,NA
61874,Champaign County,IL,NA,NA,80.50847457627118
62040,Madison County,IL,NA,9.03010033444816,NA
62208,St. Clair County,IL,NA,NA,52.259887005649716
62231,Clinton County,IL,NA,99.66555183946488,NA
62269,St. Clair County,IL,56.79611650485437,NA,NA
62557,Christian County,IL,NA,68.45039018952063,NA
62681,Schuyler County,IL,NA,NA,95.48022598870057
62959,Williamson County,IL,62.297734627831716,NA,NA
62966,Jackson County,IL,NA,99.21962095875139,NA
46036,Madison County,IN,NA,81.60535117056857,NA
46037,Hamilton County,IN,56.310679611650485,NA,NA
46038,Hamilton County,IN,NA,44.14715719063545,NA
46052,Boone County,IN,36.24595469255664,NA,NA
46077,Boone County,IN,NA,76.92307692307693,NA
46112,Hendricks County,IN,NA,NA,27.966101694915253
46120,Putnam County,IN,NA,NA,96.045197740113
46151,Morgan County,IN,21.68284789644013,NA,NA
46168,Hendricks County,IN,34.627831715210355,NA,39.83050847457627
46176,Shelby County,IN,NA,NA,31.92090395480226
46202,Marion County,IN,NA,79.48717948717949,NA
46203,Marion County,IN,NA,12.597547380156076,27.11864406779661
46208,Marion County,IN,NA,NA,59.887005649717516
46218,Marion County,IN,NA,17.94871794871795,NA
46237,Marion County,IN,NA,9.698996655518394,NA
46303,Lake County,IN,65.0485436893204,NA,NA
46304,Porter County,IN,NA,15.942028985507244,NA
46368,Porter County,IN,NA,1.7837235228539576,NA
46383,Porter County,IN,NA,24.972129319955407,NA
46392,Jasper County,IN,77.50809061488673,NA,NA
46406,Lake County,IN,NA,54.626532887402455,NA
46614,St. Joseph County,IN,50.80906148867314,NA,NA
46725,Whitley County,IN,NA,18.84057971014493,NA
46750,Huntington County,IN,NA,22.40802675585284,NA
46797,Allen County,IN,97.24919093851133,NA,NA
46805,Allen County,IN,55.8252427184466,41.1371237458194,NA
46808,Allen County,IN,NA,50.390189520624304,NA
46901,Howard County,IN,2.4271844660194173,NA,NA
46902,Howard County,IN,4.368932038834951,NA,NA
46933,Grant County,IN,NA,61.76142697881828,NA
46953,Grant County,IN,NA,35.340022296544035,NA
46992,Wabash County,IN,NA,33.667781493868446,NA
47111,Clark County,IN,48.381877022653725,NA,NA
47172,Clark County,IN,77.02265372168284,NA,NA
47203,Bartholomew County,IN,NA,NA,12.146892655367232
47274,Jackson County,IN,24.433656957928804,NA,NA
47302,Delaware County,IN,90.77669902912622,94.87179487179486,NA
47401,Monroe County,IN,NA,82.05128205128204,NA
47421,Lawrence County,IN,NA,70.23411371237458,NA
47501,Daviess County,IN,NA,NA,22.598870056497177
47711,Vanderburgh County,IN,NA,23.18840579710145,NA
47714,Vanderburgh County,IN,NA,NA,73.1638418079096
47725,Vanderburgh County,IN,NA,57.52508361204013,NA
47882,Sullivan County,IN,66.8284789644013,64.1025641025641,NA
47909,Tippecanoe County,IN,NA,37.79264214046823,NA
50213,Clarke County,IA,NA,98.7736900780379,NA
50613,Black Hawk County,IA,NA,NA,3.389830508474576
52101,Winneshiek County,IA,NA,52.73132664437013,NA
52317,Johnson County,IA,95.63106796116504,NA,NA
52402,Linn County,IA,17.15210355987055,21.850613154960982,30.225988700564972
52501,Wapello County,IA,13.592233009708737,NA,NA
52544,Appanoose County,IA,NA,39.130434782608695,NA
52738,Louisa County,IA,NA,95.5406911928651,NA
52804,Scott County,IA,14.886731391585762,NA,NA
66071,Miami County,KS,NA,NA,95.19774011299435
66212,Johnson County,KS,NA,13.489409141583057,NA
66215,Johnson County,KS,NA,34.894091415830545,NA
66508,Marshall County,KS,NA,94.31438127090301,NA
66614,Shawnee County,KS,NA,NA,14.971751412429379
67114,Harvey County,KS,NA,49.49832775919732,NA
67156,Cowley County,KS,NA,68.33890746934225,NA
67213,Sedgwick County,KS,NA,NA,79.37853107344633
67901,Seward County,KS,65.21035598705501,NA,NA
40165,Bullitt County,KY,53.883495145631066,42.474916387959865,NA
40175,Hardin County,KY,NA,78.03790412486065,76.27118644067797
40219,Jefferson County,KY,NA,20.066889632107024,NA
40223,Jefferson County,KY,NA,NA,44.91525423728814
40242,Jefferson County,KY,NA,NA,75.98870056497175
40245,Jefferson County,KY,89.32038834951457,NA,NA
40299,Jefferson County,KY,NA,47.82608695652174,NA
40385,Madison County,KY,94.33656957928802,NA,NA
40391,Clark County,KY,NA,11.148272017837236,NA
40422,Boyle County,KY,NA,39.46488294314381,NA
40502,Fayette County,KY,53.07443365695793,42.920847268673356,NA
40744,Laurel County,KY,26.699029126213592,92.86510590858417,NA
40769,Whitley County,KY,84.46601941747572,NA,NA
41011,Kenton County,KY,13.754045307443366,22.965440356744704,NA
41017,Kenton County,KY,27.993527508090615,NA,NA
41035,Grant County,KY,85.92233009708737,NA,NA
41042,Boone County,KY,5.825242718446602,NA,NA
41051,Kenton County,KY,NA,NA,42.3728813559322
41076,Campbell County,KY,NA,40.468227424749166,NA
41101,Boyd County,KY,NA,NA,94.0677966101695
41144,Greenup County,KY,NA,44.481605351170565,NA
41164,Carter County,KY,NA,29.208472686733554,NA
41501,Pike County,KY,NA,NA,58.75706214689266
41701,Perry County,KY,NA,50.836120401337794,NA
42066,Graves County,KY,19.902912621359224,71.57190635451505,NA
42071,Calloway County,KY,NA,62.87625418060201,NA
42141,Barren County,KY,11.812297734627832,NA,NA
42167,Monroe County,KY,NA,72.68673355629878,NA
42240,Christian County,KY,23.948220064724918,NA,24.01129943502825
42301,Daviess County,KY,9.546925566343042,NA,NA
42718,Taylor County,KY,NA,NA,9.887005649717514
42743,Green County,KY,NA,52.06243032329989,NA
70002,Jefferson Parish,LA,NA,27.536231884057973,NA
70053,Jefferson Parish,LA,NA,49.275362318840585,NA
70072,Jefferson Parish,LA,NA,3.0100334448160537,NA
70094,Jefferson Parish,LA,NA,14.15830546265329,NA
70131,Orleans Parish,LA,13.915857605177994,NA,NA
70339,Assumption Parish,LA,65.53398058252428,NA,NA
70343,Terrebonne Parish,LA,NA,98.32775919732441,NA
70346,Ascension Parish,LA,NA,55.18394648829431,NA
70359,Terrebonne Parish,LA,27.669902912621357,NA,NA
70360,Terrebonne Parish,LA,49.35275080906149,NA,NA
70394,Lafourche Parish,LA,17.96116504854369,NA,NA
70422,Tangipahoa Parish,LA,NA,34.33667781493868,NA
70438,Washington Parish,LA,NA,NA,15.53672316384181
70446,Tangipahoa Parish,LA,89.15857605177993,NA,NA
70448,St. Tammany Parish,LA,NA,24.526198439241917,NA
70458,St. Tammany Parish,LA,5.6634304207119746,NA,NA
70466,Tangipahoa Parish,LA,NA,87.62541806020067,NA
70471,St. Tammany Parish,LA,NA,NA,45.48022598870056
70520,Lafayette Parish,LA,NA,NA,72.59887005649718
70535,St. Landry Parish,LA,NA,35.8974358974359,58.19209039548022
70554,Evangeline Parish,LA,81.71521035598705,68.00445930880713,NA
70570,St. Landry Parish,LA,1.9417475728155338,35.005574136008924,NA
70583,Lafayette Parish,LA,NA,59.19732441471572,NA
70584,St. Landry Parish,LA,56.148867313915865,NA,NA
70663,Calcasieu Parish,LA,62.944983818770226,NA,NA
70744,Livingston Parish,LA,NA,90.85841694537346,NA
70809,East Baton Rouge Parish,LA,NA,40.13377926421405,NA
70817,East Baton Rouge Parish,LA,NA,13.935340022296543,NA
71019,Red River Parish,LA,NA,98.43924191750278,NA
71106,Caddo Parish,LA,23.462783171521036,NA,NA
71115,Caddo Parish,LA,NA,NA,35.31073446327684
71220,Morehouse Parish,LA,77.34627831715211,NA,NA
71254,East Carroll Parish,LA,93.85113268608414,NA,NA
71270,Lincoln Parish,LA,96.44012944983818,NA,NA
71302,Rapides Parish,LA,NA,NA,43.22033898305085
71343,Catahoula Parish,LA,NA,NA,85.31073446327684
71463,Allen Parish,LA,NA,87.84838350055742,NA
03901,York County,ME,97.89644012944983,NA,NA
04005,York County,ME,NA,62.095875139353396,NA
04009,Cumberland County,ME,96.27831715210357,NA,NA
04011,Cumberland County,ME,NA,65.77480490523969,NA
04210,Androscoggin County,ME,NA,8.695652173913043,NA
04280,Androscoggin County,ME,NA,NA,55.367231638418076
04281,Oxford County,ME,NA,NA,60.16949152542372
04345,Kennebec County,ME,NA,43.58974358974359,NA
04364,Kennebec County,ME,48.86731391585761,NA,NA
04444,Penobscot County,ME,93.52750809061489,NA,NA
04743,Aroostook County,ME,NA,89.18617614269789,NA
04967,Somerset County,ME,NA,NA,97.17514124293785
20705,Prince George's County,MD,NA,80.82497212931996,NA
20706,Prince George's County,MD,49.029126213592235,NA,NA
20708,Prince George's County,MD,NA,NA,80.22598870056498
20711,Anne Arundel County,MD,79.44983818770227,NA,NA
20906,Montgomery County,MD,NA,80.71348940914159,NA
21037,Anne Arundel County,MD,NA,59.977703455964324,NA
21057,Baltimore County,MD,NA,93.08807134894091,86.4406779661017
21093,Baltimore County,MD,NA,22.630992196209586,NA
21122,Anne Arundel County,MD,NA,12.040133779264215,NA
21128,Baltimore County,MD,NA,74.24749163879598,NA
21136,Baltimore County,MD,NA,40.57971014492754,NA
21206,Baltimore city,MD,NA,36.56633221850613,25.423728813559322
21207,Baltimore County,MD,NA,20.51282051282051,NA
21208,Baltimore County,MD,NA,56.41025641025641,NA
21218,Baltimore city,MD,30.74433656957929,NA,3.954802259887006
21226,Anne Arundel County,MD,89.64401294498381,NA,NA
21230,Baltimore city,MD,NA,NA,83.33333333333334
21234,Baltimore County,MD,NA,7.6923076923076925,NA
21237,Baltimore County,MD,NA,93.64548494983278,NA
21286,Baltimore County,MD,NA,NA,91.52542372881356
21401,Anne Arundel County,MD,NA,27.09030100334448,NA
21601,Talbot County,MD,NA,94.53734671125974,NA
21620,Kent County,MD,NA,NA,89.26553672316385
21655,Caroline County,MD,NA,92.41917502787068,NA
01002,Hampshire County,MA,33.33333333333333,NA,NA
01027,Hampshire County,MA,NA,33.44481605351171,NA
01040,Hampden County,MA,NA,NA,57.06214689265536
01056,Hampden County,MA,NA,72.79821627647715,NA
01069,Hampden County,MA,24.919093851132686,NA,NA
01085,Hampden County,MA,NA,2.229654403567447,NA
01118,Hampden County,MA,23.13915857605178,NA,NA
01201,Berkshire County,MA,1.6181229773462782,0,NA
01247,Berkshire County,MA,58.090614886731395,8.58416945373467,NA
01267,Berkshire County,MA,NA,89.74358974358975,NA
01440,Worcester County,MA,NA,8.138238573021182,NA
01453,Worcester County,MA,NA,0.33444816053511706,84.4632768361582
01504,Worcester County,MA,NA,98.66220735785953,NA
01520,Worcester County,MA,NA,41.58305462653289,NA
01524,Worcester County,MA,NA,88.18283166109254,NA
01535,Worcester County,MA,99.35275080906149,NA,NA
01562,Worcester County,MA,NA,32.6644370122631,NA
01569,Worcester County,MA,NA,87.5139353400223,NA
01602,Worcester County,MA,NA,18.394648829431436,NA
01609,Worcester County,MA,NA,43.366778149386846,NA
01610,Worcester County,MA,0.6472491909385114,NA,NA
01701,Middlesex County,MA,NA,6.911928651059086,NA
01702,Middlesex County,MA,NA,5.4626532887402455,NA
01749,Middlesex County,MA,59.54692556634305,NA,NA
01760,Middlesex County,MA,NA,7.469342251950947,NA
01778,Middlesex County,MA,69.09385113268608,65.66332218506132,NA
01801,Middlesex County,MA,76.53721682847896,0.8918617614269788,NA
01803,Middlesex County,MA,NA,5.016722408026756,NA
01810,Essex County,MA,12.7831715210356,58.41694537346711,NA
01821,Middlesex County,MA,NA,NA,34.18079096045198
01824,Middlesex County,MA,NA,NA,7.062146892655368
01826,Middlesex County,MA,47.41100323624595,NA,NA
01841,Essex County,MA,NA,NA,2.2598870056497176
01843,Essex County,MA,NA,59.86622073578596,NA
01844,Essex County,MA,8.25242718446602,NA,NA
01845,Essex County,MA,23.624595469255663,NA,NA
01851,Middlesex County,MA,2.750809061488673,2.787068004459309,22.033898305084744
01852,Middlesex County,MA,NA,55.964325529542926,NA
01862,Middlesex County,MA,NA,99.44258639910814,NA
01863,Middlesex County,MA,NA,NA,53.672316384180796
01864,Middlesex County,MA,41.42394822006473,NA,NA
01867,Middlesex County,MA,NA,77.70345596432553,NA
01876,Middlesex County,MA,NA,32.55295429208473,NA
01880,Middlesex County,MA,6.957928802588997,6.131549609810479,NA
01886,Middlesex County,MA,NA,27.424749163879596,NA
01890,Middlesex County,MA,NA,NA,99.15254237288136
01906,Essex County,MA,15.210355987055015,8.02675585284281,NA
01913,Essex County,MA,49.676375404530745,31.88405797101449,NA
01923,Essex County,MA,NA,44.927536231884055,NA
01930,Essex County,MA,NA,0.5574136008918618,NA
01944,Essex County,MA,NA,71.90635451505017,NA
01945,Essex County,MA,NA,17.391304347826086,NA
01952,Essex County,MA,NA,86.2876254180602,NA
01960,Essex County,MA,NA,NA,0
01970,Essex County,MA,NA,38.12709030100335,NA
01983,Essex County,MA,NA,69.11928651059085,NA
02021,Norfolk County,MA,NA,26.30992196209587,NA
02043,Plymouth County,MA,33.00970873786408,67.00111482720177,NA
02050,Plymouth County,MA,NA,20.958751393534,NA
02062,Norfolk County,MA,NA,62.54180602006689,16.94915254237288
02118,Suffolk County,MA,25.88996763754045,NA,NA
02121,Suffolk County,MA,69.57928802588997,NA,NA
02122,Suffolk County,MA,NA,NA,8.47457627118644
02124,Suffolk County,MA,NA,2.6755852842809364,NA
02126,Suffolk County,MA,0.3236245954692557,NA,17.231638418079097
02127,Suffolk County,MA,1.779935275080906,NA,NA
02129,Suffolk County,MA,16.34304207119741,NA,NA
02132,Suffolk County,MA,NA,1.89520624303233,NA
02148,Middlesex County,MA,0,3.79041248606466,NA
02149,Middlesex County,MA,0.16181229773462785,NA,NA
02151,Suffolk County,MA,NA,76.14269788182831,NA
02155,Middlesex County,MA,NA,NA,63.2768361581921
02170,Norfolk County,MA,NA,NA,23.728813559322035
02180,Middlesex County,MA,61.6504854368932,NA,NA
02341,Plymouth County,MA,35.760517799352755,NA,NA
02343,Norfolk County,MA,NA,NA,58.47457627118644
02346,Plymouth County,MA,10.355987055016183,NA,NA
02347,Plymouth County,MA,NA,NA,76.8361581920904
02356,Bristol County,MA,64.72491909385113,NA,NA
02359,Plymouth County,MA,26.537216828478964,97.9933110367893,NA
02360,Plymouth County,MA,NA,15.16164994425864,1.1299435028248588
02364,Plymouth County,MA,NA,51.616499442586395,NA
02370,Plymouth County,MA,NA,NA,49.43502824858757
02382,Plymouth County,MA,NA,45.1505016722408,NA
02421,Middlesex County,MA,NA,NA,11.864406779661017
02445,Norfolk County,MA,NA,28.651059085841695,NA
02452,Middlesex County,MA,NA,61.09253065774804,42.93785310734463
02453,Middlesex County,MA,8.89967637540453,NA,NA
02458,Middlesex County,MA,40.614886731391586,NA,NA
02459,Middlesex County,MA,64.07766990291263,NA,NA
02460,Middlesex County,MA,82.52427184466019,NA,NA
02467,Norfolk County,MA,67.47572815533981,NA,NA
02474,Middlesex County,MA,NA,NA,64.97175141242938
02481,Norfolk County,MA,NA,68.78483835005575,NA
02492,Norfolk County,MA,23.300970873786408,NA,NA
02493,Middlesex County,MA,55.663430420711975,NA,NA
02536,Barnstable County,MA,61.165048543689316,12.486064659977703,NA
02537,Barnstable County,MA,NA,NA,63.84180790960452
02632,Barnstable County,MA,NA,39.46488294314381,NA
02645,Barnstable County,MA,NA,52.95429208472687,NA
02648,Barnstable County,MA,NA,54.515050167224075,NA
02702,Bristol County,MA,NA,NA,100
02703,Bristol County,MA,1.132686084142395,NA,NA
02719,Bristol County,MA,NA,39.910813823857296,NA
02740,Bristol County,MA,1.4563106796116505,NA,NA
02747,Bristol County,MA,67.31391585760518,NA,NA
02762,Norfolk County,MA,NA,95.65217391304348,NA
02766,Bristol County,MA,57.44336569579288,NA,NA
02767,Bristol County,MA,21.197411003236247,81.82831661092531,NA
02769,Bristol County,MA,NA,93.5340022296544,NA
02771,Bristol County,MA,33.65695792880259,NA,NA
02777,Bristol County,MA,NA,NA,33.61581920903955
02790,Bristol County,MA,75.5663430420712,NA,NA
48001,St. Clair County,MI,NA,58.862876254180605,NA
48021,Macomb County,MI,NA,69.3422519509476,NA
48025,Oakland County,MI,NA,49.05239687848383,NA
48035,Macomb County,MI,9.70873786407767,NA,NA
48036,Macomb County,MI,NA,23.522853957636567,16.666666666666664
48038,Macomb County,MI,12.459546925566343,NA,NA
48044,Macomb County,MI,NA,5.797101449275362,NA
48045,Macomb County,MI,21.035598705501616,67.11259754738016,NA
48047,Macomb County,MI,36.73139158576052,77.8149386845039,NA
48051,Macomb County,MI,NA,31.32664437012263,NA
48060,St. Clair County,MI,3.3980582524271843,5.574136008918618,NA
48067,Oakland County,MI,31.3915857605178,NA,NA
48082,Macomb County,MI,NA,30.992196209587515,NA
48092,Macomb County,MI,NA,19.286510590858416,NA
48104,Washtenaw County,MI,66.66666666666666,NA,NA
48111,Wayne County,MI,NA,84.61538461538461,NA
48127,Wayne County,MI,NA,17.279821627647713,NA
48134,Wayne County,MI,NA,36.677814938684506,NA
48135,Wayne County,MI,47.73462783171521,NA,NA
48141,Wayne County,MI,NA,14.938684503901895,NA
48146,Wayne County,MI,NA,85.95317725752508,NA
48154,Wayne County,MI,NA,7.246376811594203,4.519774011299435
48162,Monroe County,MI,NA,3.3444816053511706,NA
48164,Wayne County,MI,61.326860841423944,NA,NA
48168,Wayne County,MI,NA,60.98104793756968,NA
48170,Wayne County,MI,NA,3.2329988851727984,NA
48180,Wayne County,MI,2.912621359223301,NA,NA
48183,Wayne County,MI,9.06148867313916,NA,NA
48185,Wayne County,MI,NA,6.465997770345597,NA
48187,Wayne County,MI,83.65695792880258,NA,NA
48203,Wayne County,MI,NA,NA,35.31073446327684
48207,Wayne County,MI,NA,NA,16.38418079096045
48220,Oakland County,MI,76.05177993527508,NA,NA
48228,Wayne County,MI,NA,29.87736900780379,NA
48236,Wayne County,MI,NA,55.51839464882943,NA
48238,Wayne County,MI,20.711974110032365,NA,NA
48306,Oakland County,MI,NA,47.38015607580825,NA
48312,Macomb County,MI,63.75404530744336,NA,NA
48313,Macomb County,MI,73.30097087378641,19.620958751393534,NA
48315,Macomb County,MI,34.95145631067961,NA,NA
48316,Macomb County,MI,NA,36.00891861761427,NA
48322,Oakland County,MI,NA,7.58082497212932,NA
48323,Oakland County,MI,NA,NA,31.35593220338983
48329,Oakland County,MI,NA,18.61761426978818,NA
48336,Oakland County,MI,28.640776699029125,NA,NA
48340,Oakland County,MI,NA,57.30211817168339,NA
48360,Oakland County,MI,60.679611650485434,NA,NA
48362,Oakland County,MI,NA,NA,90.96045197740112
48382,Oakland County,MI,42.55663430420712,NA,78.24858757062147
48393,Oakland County,MI,82.03883495145631,98.88517279821627,NA
48413,Huron County,MI,NA,NA,89.54802259887006
48415,Saginaw County,MI,41.74757281553398,84.39241917502787,NA
48421,Lapeer County,MI,NA,95.31772575250837,NA
48430,Genesee County,MI,NA,17.725752508361204,NA
48433,Genesee County,MI,44.82200647249191,19.50947603121516,NA
48439,Genesee County,MI,70.06472491909385,NA,NA
48453,Sanilac County,MI,NA,82.83166109253067,NA
48462,Oakland County,MI,NA,81.27090301003345,NA
48473,Genesee County,MI,NA,60.758082497212925,51.9774011299435
48602,Saginaw County,MI,NA,10.033444816053512,NA
48603,Saginaw County,MI,11.650485436893204,8.361204013377927,NA
48617,Clare County,MI,60.35598705501618,NA,NA
48706,Bay County,MI,7.443365695792881,1.3377926421404682,NA
48732,Bay County,MI,NA,39.24191750278707,NA
48820,Clinton County,MI,NA,NA,72.88135593220339
48823,Ingham County,MI,NA,23.411371237458194,NA
48840,Ingham County,MI,69.7411003236246,NA,NA
48843,Livingston County,MI,NA,4.793756967670011,NA
48854,Ingham County,MI,NA,45.93088071348941,NA
48858,Isabella County,MI,NA,6.354515050167224,NA
48864,Ingham County,MI,NA,38.238573021181715,NA
48867,Shiawassee County,MI,NA,78.37235228539576,NA
48880,Gratiot County,MI,NA,NA,66.94915254237289
48883,Isabella County,MI,97.73462783171522,NA,NA
48895,Ingham County,MI,99.51456310679612,NA,NA
48917,Eaton County,MI,8.737864077669903,NA,NA
49009,Kalamazoo County,MI,NA,31.215161649944257,NA
49010,Allegan County,MI,63.10679611650486,36.12040133779264,NA
49013,Van Buren County,MI,NA,86.73355629877369,NA
49015,Calhoun County,MI,NA,NA,13.27683615819209
49017,Calhoun County,MI,NA,21.627647714604237,NA
49022,Berrien County,MI,NA,NA,18.64406779661017
49036,Branch County,MI,24.75728155339806,NA,NA
49047,Cass County,MI,NA,24.74916387959866,NA
49048,Kalamazoo County,MI,NA,NA,13.27683615819209
49080,Allegan County,MI,NA,NA,49.717514124293785
49082,Branch County,MI,96.60194174757282,NA,NA
49286,Lenawee County,MI,NA,38.35005574136009,NA
49315,Kent County,MI,NA,59.53177257525084,NA
49321,Kent County,MI,NA,NA,91.80790960451978
49327,Newaygo County,MI,NA,63.65663322185061,NA
49415,Muskegon County,MI,NA,64.32552954292085,NA
49441,Muskegon County,MI,NA,NA,1.694915254237288
49442,Muskegon County,MI,3.7216828478964405,NA,NA
49445,Muskegon County,MI,NA,18.06020066889632,NA
49503,Kent County,MI,10.679611650485436,NA,NA
49509,Kent County,MI,NA,NA,46.32768361581921
49682,Leelanau County,MI,NA,83.38907469342251,NA
49684,Grand Traverse County,MI,NA,51.28205128205128,NA
49686,Grand Traverse County,MI,NA,21.962095875139354,NA
49720,Charlevoix County,MI,NA,NA,44.632768361581924
49727,Charlevoix County,MI,NA,68.22742474916387,NA
49730,Antrim County,MI,NA,97.32441471571906,NA
49854,Schoolcraft County,MI,NA,57.971014492753625,NA
49855,Marquette County,MI,NA,14.492753623188406,NA
49858,Menominee County,MI,NA,79.37569676700112,NA
55051,Kanabec County,MN,NA,NA,88.13559322033898
55060,Steele County,MN,NA,53.84615384615385,NA
55066,Goodhue County,MN,NA,NA,9.322033898305085
55068,Dakota County,MN,54.53074433656958,NA,NA
55076,Dakota County,MN,NA,46.265328874024526,NA
55113,Ramsey County,MN,40.45307443365696,NA,NA
55119,Ramsey County,MN,NA,85.28428093645485,NA
55363,Wright County,MN,99.67637540453075,NA,NA
55406,Hennepin County,MN,NA,23.968784838350054,NA
55407,Hennepin County,MN,NA,5.908584169453734,NA
55412,Hennepin County,MN,8.576051779935275,NA,NA
55413,Hennepin County,MN,74.4336569579288,NA,NA
55431,Hennepin County,MN,NA,64.32552954292085,NA
55432,Anoka County,MN,88.51132686084142,NA,NA
55447,Hennepin County,MN,NA,48.04905239687848,NA
55449,Anoka County,MN,NA,89.40914158305463,NA
55731,St. Louis County,MN,NA,NA,84.7457627118644
55744,Itasca County,MN,14.563106796116504,NA,NA
56007,Freeborn County,MN,NA,47.60312151616499,NA
56258,Lyon County,MN,NA,45.373467112597545,NA
56303,Stearns County,MN,NA,NA,43.78531073446328
56320,Stearns County,MN,NA,95.20624303232998,NA
56334,Pope County,MN,75.24271844660194,NA,NA
56345,Morrison County,MN,78.80258899676376,NA,NA
56482,Wadena County,MN,NA,NA,30.7909604519774
56537,Otter Tail County,MN,NA,31.77257525083612,NA
38643,Quitman County,MS,96.92556634304206,NA,NA
39209,Hinds County,MS,83.1715210355987,NA,NA
39355,Clarke County,MS,NA,NA,85.02824858757062
39360,Clarke County,MS,NA,99.88851727982163,NA
39365,Neshoba County,MS,NA,NA,91.24293785310734
39452,George County,MS,NA,72.5752508361204,NA
39466,Pearl River County,MS,NA,14.827201783723524,NA
39531,Harrison County,MS,NA,85.84169453734671,NA
39560,Harrison County,MS,NA,NA,12.994350282485875
39564,Jackson County,MS,NA,55.29542920847269,NA
39565,Jackson County,MS,NA,60.423634336677814,NA
63011,St. Louis County,MO,91.2621359223301,NA,3.672316384180791
63026,St. Louis County,MO,NA,11.036789297658862,NA
63040,St. Louis County,MO,NA,82.6086956521739,NA
63077,Franklin County,MO,NA,59.643255295429206,NA
63119,St. Louis County,MO,NA,35.785953177257525,NA
63122,St. Louis County,MO,80.58252427184466,20.624303232998887,NA
63126,St. Louis County,MO,NA,NA,41.52542372881356
63129,St. Louis County,MO,38.83495145631068,NA,8.192090395480225
63136,St. Louis County,MO,NA,9.141583054626533,NA
63146,St. Louis County,MO,NA,28.539576365663322,NA
63301,St. Charles County,MO,36.407766990291265,NA,NA
63703,Cape Girardeau County,MO,NA,90.63545150501672,NA
64057,Jackson County,MO,NA,66.33221850613154,NA
64064,Jackson County,MO,NA,97.10144927536231,NA
64067,Lafayette County,MO,55.33980582524271,NA,NA
64075,Jackson County,MO,79.6116504854369,NA,NA
64081,Jackson County,MO,NA,90.3010033444816,37.005649717514125
64108,Jackson County,MO,51.29449838187702,NA,NA
64111,Jackson County,MO,22.168284789644012,NA,NA
64113,Jackson County,MO,NA,NA,97.74011299435028
64138,Jackson County,MO,33.49514563106796,NA,NA
64151,Platte County,MO,NA,15.27313266443701,NA
64152,Platte County,MO,NA,84.05797101449275,NA
64156,Clay County,MO,51.45631067961165,NA,NA
64468,Nodaway County,MO,55.50161812297735,NA,NA
64507,Buchanan County,MO,89.96763754045307,NA,NA
65401,Phelps County,MO,32.68608414239482,NA,NA
65560,Dent County,MO,NA,NA,94.91525423728814
65704,Wright County,MO,NA,NA,96.89265536723164
65721,Christian County,MO,NA,NA,68.64406779661016
65775,Howell County,MO,NA,56.187290969899664,NA
65804,Greene County,MO,26.21359223300971,NA,NA
65807,Greene County,MO,NA,74.91638795986621,NA
65810,Greene County,MO,NA,53.17725752508361,NA
59047,Park County,MT,NA,54.18060200668896,NA
59102,Yellowstone County,MT,84.78964401294499,NA,NA
59270,Richland County,MT,76.86084142394822,NA,NA
59330,Dawson County,MT,NA,84.83835005574136,NA
59404,Cascade County,MT,NA,62.207357859531776,NA
59405,Cascade County,MT,25.5663430420712,NA,NA
59634,Jefferson County,MT,NA,98.21627647714605,NA
59711,Deer Lodge County,MT,NA,NA,53.954802259887
59714,Gallatin County,MT,55.016181229773466,NA,NA
59718,Gallatin County,MT,30.097087378640776,74.02452619843925,NA
59752,Gallatin County,MT,98.54368932038835,NA,NA
59803,Missoula County,MT,NA,82.94314381270902,NA
59828,Ravalli County,MT,NA,72.01783723522854,NA
59864,Lake County,MT,NA,88.96321070234113,NA
59875,Ravalli County,MT,NA,NA,98.30508474576271
59901,Flathead County,MT,NA,19.175027870680044,NA
59912,Flathead County,MT,61.48867313915858,NA,NA
59935,Lincoln County,MT,NA,93.86845039018952,NA
68046,Sarpy County,NE,NA,60.535117056856194,NA
68104,Douglas County,NE,NA,29.431438127090303,NA
68114,Douglas County,NE,68.44660194174757,NA,NA
68134,Douglas County,NE,71.68284789644012,NA,NA
68136,Sarpy County,NE,72.49190938511327,NA,NA
68661,Colfax County,NE,NA,100,NA
68701,Madison County,NE,NA,91.30434782608695,NA
68845,Buffalo County,NE,NA,NA,93.78531073446328
89123,Clark County,NV,NA,77.8149386845039,NA
89129,Clark County,NV,40.93851132686084,NA,NA
89130,Clark County,NV,NA,NA,40.67796610169492
89179,Clark County,NV,92.07119741100324,NA,NA
89406,Churchill County,NV,35.43689320388349,NA,NA
89410,Douglas County,NV,NA,68.56187290969899,NA
89433,Washoe County,NV,NA,47.93756967670011,NA
89434,Washoe County,NV,36.89320388349515,NA,NA
89441,Washoe County,NV,83.81877022653723,NA,NA
89447,Lyon County,NV,NA,73.24414715719062,NA
89460,Douglas County,NV,65.37216828478964,NA,NA
89506,Washoe County,NV,16.019417475728158,NA,NA
89508,Washoe County,NV,NA,61.98439241917503,NA
03038,Rockingham County,NH,35.92233009708738,NA,NA
03051,Hillsborough County,NH,NA,16.49944258639911,NA
03053,Rockingham County,NH,NA,48.82943143812709,NA
03054,Hillsborough County,NH,NA,NA,39.26553672316384
03055,Hillsborough County,NH,65.85760517799353,NA,NA
03060,Hillsborough County,NH,NA,NA,17.796610169491526
03076,Hillsborough County,NH,38.349514563106794,NA,NA
03079,Rockingham County,NH,39.482200647249186,NA,NA
03102,Hillsborough County,NH,18.284789644012946,NA,NA
03103,Hillsborough County,NH,5.9870550161812295,NA,NA
03222,Grafton County,NH,98.86731391585761,NA,NA
03234,Merrimack County,NH,NA,NA,93.50282485875707
03249,Belknap County,NH,NA,92.64214046822742,NA
03264,Grafton County,NH,NA,NA,99.43502824858757
03303,Merrimack County,NH,59.8705501618123,NA,83.05084745762711
03458,Hillsborough County,NH,NA,94.42586399108139,NA
03773,Sullivan County,NH,70.87378640776699,NA,NA
03820,Strafford County,NH,18.932038834951456,98.99665551839465,NA
03842,Rockingham County,NH,NA,24.74916387959866,NA
03844,Rockingham County,NH,NA,95.87513935340021,NA
03865,Rockingham County,NH,NA,59.308807134894096,NA
03874,Rockingham County,NH,66.18122977346277,NA,NA
07002,Hudson County,NJ,NA,2.341137123745819,NA
07010,Bergen County,NJ,41.10032362459547,NA,NA
07086,Hudson County,NJ,NA,NA,74.57627118644068
07093,Hudson County,NJ,NA,NA,5.084745762711865
07103,Essex County,NJ,NA,1.6722408026755853,NA
07205,Union County,NJ,NA,97.54738015607582,NA
07470,Passaic County,NJ,NA,NA,4.80225988700565
07501,Passaic County,NJ,2.103559870550162,NA,NA
07504,Passaic County,NJ,52.265372168284784,NA,NA
07601,Bergen County,NJ,90.93851132686083,NA,NA
07740,Monmouth County,NJ,NA,NA,84.18079096045197
07801,Morris County,NJ,NA,25.30657748049052,NA
07827,Sussex County,NJ,NA,89.40914158305463,NA
07871,Sussex County,NJ,71.19741100323624,NA,NA
07930,Morris County,NJ,NA,74.24749163879598,NA
08002,Camden County,NJ,46.763754045307444,NA,NA
08003,Camden County,NJ,22.330097087378643,NA,NA
08054,Burlington County,NJ,NA,12.709030100334449,NA
08081,Camden County,NJ,11.326860841423949,NA,NA
08087,Ocean County,NJ,NA,74.13600891861762,NA
08094,Gloucester County,NJ,40.29126213592233,NA,NA
08108,Camden County,NJ,NA,80.93645484949833,NA
08201,Atlantic County,NJ,NA,66.10925306577481,NA
08203,Atlantic County,NJ,NA,53.957636566332226,NA
08221,Atlantic County,NJ,NA,NA,98.87005649717514
08226,Cape May County,NJ,NA,80.37904124860647,NA
08234,Atlantic County,NJ,NA,11.928651059085842,22.88135593220339
08251,Cape May County,NJ,NA,64.99442586399108,NA
08360,Cumberland County,NJ,0.9708737864077669,NA,NA
08610,Mercer County,NJ,NA,39.01895206243032,NA
08638,Mercer County,NJ,60.517799352750814,NA,NA
08724,Ocean County,NJ,NA,14.046822742474916,NA
08742,Ocean County,NJ,NA,NA,82.20338983050848
08857,Middlesex County,NJ,7.9288025889967635,NA,NA
87020,Cibola County,NM,68.12297734627832,NA,NA
87110,Bernalillo County,NM,NA,8.807134894091416,NA
87401,San Juan County,NM,NA,86.84503901895206,NA
87505,Santa Fe County,NM,NA,6.0200668896321075,NA
87507,Santa Fe County,NM,28.802588996763756,NA,NA
88012,Doa Ana County,NM,80.90614886731392,NA,NA
88061,Grant County,NM,NA,57.63656633221851,NA
88220,Eddy County,NM,NA,19.84392419175028,NA
88310,Otero County,NM,NA,4.3478260869565215,NA
10002,New York County,NY,NA,2.898550724637681,NA
10036,New York County,NY,33.17152103559871,NA,NA
10039,New York County,NY,NA,NA,37.570621468926554
10305,Richmond County,NY,58.252427184466015,NA,NA
10451,Bronx County,NY,15.048543689320388,NA,NA
10454,Bronx County,NY,6.634304207119741,NA,NA
10465,Bronx County,NY,27.346278317152105,NA,NA
10466,Bronx County,NY,34.3042071197411,NA,NA
10469,Bronx County,NY,NA,NA,42.65536723163842
10473,Bronx County,NY,NA,6.243032329988852,7.909604519774012
10510,Westchester County,NY,99.02912621359224,NA,NA
10703,Westchester County,NY,NA,NA,47.740112994350284
10940,Orange County,NY,NA,NA,18.361581920903955
10992,Orange County,NY,NA,NA,82.7683615819209
11004,Queens County,NY,NA,77.03455964325529,NA
11106,Queens County,NY,99.19093851132686,NA,NA
11205,Kings County,NY,11.974110032362459,NA,NA
11207,Kings County,NY,0.48543689320388345,NA,NA
11211,Kings County,NY,13.268608414239482,NA,NA
11223,Kings County,NY,NA,NA,5.367231638418079
11231,Kings County,NY,NA,NA,47.45762711864407
11238,Kings County,NY,18.12297734627832,NA,NA
11373,Queens County,NY,NA,NA,20.62146892655367
11375,Queens County,NY,NA,25.195094760312152,NA
11411,Queens County,NY,NA,61.53846153846154,NA
11418,Queens County,NY,64.23948220064725,NA,NA
11419,Queens County,NY,60.03236245954693,NA,NA
11420,Queens County,NY,NA,29.654403567447048,NA
11566,Nassau County,NY,90.29126213592234,NA,NA
11590,Nassau County,NY,NA,NA,77.40112994350282
11727,Suffolk County,NY,NA,NA,36.15819209039548
11772,Suffolk County,NY,NA,21.73913043478261,NA
11787,Suffolk County,NY,NA,88.51727982162765,NA
11934,Suffolk County,NY,87.2168284789644,NA,NA
11967,Suffolk County,NY,NA,64.77146042363434,NA
12010,Montgomery County,NY,5.339805825242718,5.128205128205128,NA
12065,Saratoga County,NY,NA,93.42251950947603,NA
12077,Albany County,NY,78.15533980582524,NA,NA
12078,Fulton County,NY,47.0873786407767,NA,NA
12117,Fulton County,NY,NA,88.62876254180601,NA
12125,Columbia County,NY,NA,97.43589743589743,NA
12144,Rensselaer County,NY,NA,75.25083612040135,NA
12203,Albany County,NY,NA,81.38238573021181,NA
12208,Albany County,NY,NA,75.91973244147158,NA
12414,Greene County,NY,NA,86.51059085841695,83.61581920903954
12524,Dutchess County,NY,NA,NA,69.2090395480226
12534,Columbia County,NY,39.15857605177994,NA,NA
12790,Sullivan County,NY,NA,89.85507246376811,NA
12801,Warren County,NY,NA,49.83277591973244,NA
12804,Warren County,NY,NA,9.47603121516165,NA
12809,Washington County,NY,83.98058252427184,NA,NA
12828,Washington County,NY,74.27184466019418,NA,NA
12839,Washington County,NY,NA,38.90746934225195,NA
12845,Warren County,NY,NA,85.0613154960981,NA
12866,Saratoga County,NY,13.430420711974108,NA,NA
12885,Warren County,NY,81.71521035598705,NA,NA
12887,Washington County,NY,85.59870550161813,NA,NA
12901,Clinton County,NY,3.559870550161812,52.508361204013376,NA
12946,Essex County,NY,29.93527508090615,NA,NA
12953,Franklin County,NY,NA,16.722408026755854,NA
13021,Cayuga County,NY,NA,14.604236343366777,NA
13033,Cayuga County,NY,NA,95.31772575250837,NA
13045,Cortland County,NY,72.81553398058253,NA,NA
13069,Oswego County,NY,5.501618122977346,NA,NA
13088,Onondaga County,NY,22.97734627831715,NA,50.282485875706215
13090,Onondaga County,NY,54.85436893203883,NA,NA
13126,Oswego County,NY,17.475728155339805,NA,NA
13135,Oswego County,NY,52.9126213592233,NA,NA
13148,Seneca County,NY,NA,67.44704570791528,NA
13165,Seneca County,NY,NA,18.283166109253067,NA
13308,Oneida County,NY,80.74433656957929,NA,NA
13339,Montgomery County,NY,70.22653721682848,NA,NA
13343,Lewis County,NY,95.14563106796116,NA,NA
13357,Herkimer County,NY,NA,NA,73.72881355932203
13365,Herkimer County,NY,NA,28.093645484949832,NA
13413,Oneida County,NY,NA,NA,54.51977401129944
13421,Madison County,NY,20.550161812297734,NA,NA
13601,Jefferson County,NY,19.093851132686083,43.92419175027871,NA
13617,St. Lawrence County,NY,NA,78.59531772575251,NA
13624,Jefferson County,NY,NA,96.7670011148272,NA
13676,St. Lawrence County,NY,28.317152103559874,NA,NA
13743,Tioga County,NY,84.9514563106796,NA,NA
13760,Broome County,NY,7.605177993527508,50.16722408026756,NA
13820,Otsego County,NY,NA,6.800445930880714,NA
13901,Broome County,NY,NA,4.013377926421405,NA
14009,Wyoming County,NY,73.7864077669903,NA,NA
14031,Erie County,NY,NA,93.31103678929766,NA
14043,Erie County,NY,NA,52.84280936454849,NA
14047,Erie County,NY,91.9093851132686,NA,NA
14051,Erie County,NY,NA,38.57302118171683,NA
14094,Niagara County,NY,13.106796116504855,NA,NA
14098,Orleans County,NY,79.77346278317152,NA,NA
14108,Niagara County,NY,NA,67.7814938684504,NA
14127,Erie County,NY,NA,13.154960981047935,NA
14141,Erie County,NY,NA,72.79821627647715,NA
14150,Erie County,NY,NA,5.68561872909699,46.61016949152542
14201,Erie County,NY,NA,59.08584169453734,NA
14206,Erie County,NY,NA,22.519509476031217,NA
14214,Erie County,NY,NA,82.49721293199555,NA
14217,Erie County,NY,21.521035598705502,NA,NA
14225,Erie County,NY,44.983818770226534,58.751393534002226,NA
14304,Niagara County,NY,NA,NA,12.711864406779661
14411,Orleans County,NY,NA,91.08138238573021,NA
14416,Genesee County,NY,99.83818770226537,NA,NA
14424,Ontario County,NY,NA,0.6688963210702341,NA
14425,Ontario County,NY,15.372168284789645,NA,NA
14428,Monroe County,NY,NA,93.9799331103679,NA
14432,Ontario County,NY,57.60517799352751,NA,NA
14450,Monroe County,NY,NA,11.705685618729097,NA
14456,Ontario County,NY,7.281553398058252,41.36008918617614,NA
14468,Monroe County,NY,NA,70.79152731326644,NA
14516,Wayne County,NY,NA,82.38573021181716,NA
14522,Wayne County,NY,NA,23.857302118171685,NA
14534,Monroe County,NY,24.110032362459545,2.0066889632107023,NA
14559,Monroe County,NY,NA,71.46042363433668,NA
14564,Ontario County,NY,NA,14.715719063545151,34.463276836158194
14568,Wayne County,NY,54.69255663430421,NA,NA
14589,Wayne County,NY,29.449838187702266,NA,NA
14608,Monroe County,NY,12.135922330097088,NA,NA
14609,Monroe County,NY,NA,1.0033444816053512,NA
14610,Monroe County,NY,NA,49.72129319955407,NA
14612,Monroe County,NY,2.5889967637540456,13.043478260869565,NA
14615,Monroe County,NY,11.165048543689322,NA,NA
14617,Monroe County,NY,NA,4.23634336677815,NA
14622,Monroe County,NY,71.52103559870551,NA,NA
14624,Monroe County,NY,NA,2.118171683389075,NA
14625,Monroe County,NY,NA,63.54515050167224,NA
14626,Monroe County,NY,3.2362459546925564,NA,NA
14701,Chautauqua County,NY,NA,51.39353400222966,NA
14727,Allegany County,NY,62.45954692556634,NA,NA
27012,Forsyth County,NC,83.33333333333334,NA,NA
27017,Surry County,NC,NA,NA,94.35028248587571
27023,Forsyth County,NC,NA,47.045707915273134,NA
27025,Rockingham County,NC,NA,83.27759197324414,NA
27030,Surry County,NC,NA,1.560758082497213,NA
27045,Forsyth County,NC,61.97411003236246,NA,NA
27051,Forsyth County,NC,NA,61.42697881828316,NA
27105,Forsyth County,NC,NA,2.564102564102564,NA
27106,Forsyth County,NC,NA,NA,11.299435028248588
27127,Forsyth County,NC,NA,80.04459308807135,NA
27265,Guilford County,NC,68.77022653721683,12.931995540691194,NA
27282,Guilford County,NC,NA,NA,96.32768361581921
27292,Davidson County,NC,19.41747572815534,10.702341137123746,NA
27302,Alamance County,NC,26.860841423948216,NA,NA
27310,Guilford County,NC,86.08414239482201,NA,NA
27325,Moore County,NC,NA,99.10813823857302,NA
27332,Lee County,NC,59.22330097087378,NA,NA
27504,Johnston County,NC,NA,50.50167224080268,NA
27509,Granville County,NC,NA,79.48717948717949,NA
27510,Orange County,NC,NA,83.835005574136,NA
27511,Wake County,NC,NA,69.23076923076923,NA
27516,Orange County,NC,NA,NA,63.559322033898304
27518,Wake County,NC,NA,68.89632107023411,NA
27525,Franklin County,NC,85.76051779935275,49.944258639910814,77.68361581920904
27526,Wake County,NC,NA,19.39799331103679,NA
27529,Wake County,NC,NA,41.80602006688963,NA
27540,Wake County,NC,39.32038834951456,NA,NA
27549,Franklin County,NC,NA,27.982162764771463,NA
27557,Nash County,NC,80.42071197411003,NA,NA
27577,Johnston County,NC,37.702265372168284,NA,NA
27597,Wake County,NC,NA,97.21293199554069,NA
27608,Wake County,NC,93.042071197411,NA,NA
27615,Wake County,NC,34.46601941747573,NA,NA
27705,Durham County,NC,NA,36.34336677814939,NA
27712,Durham County,NC,NA,92.3076923076923,NA
27803,Nash County,NC,NA,36.45484949832776,NA
27889,Beaufort County,NC,NA,48.60646599777034,NA
27892,Martin County,NC,NA,86.95652173913044,NA
27948,Dare County,NC,73.94822006472492,NA,NA
28027,Cabarrus County,NC,16.181229773462782,NA,NA
28052,Gaston County,NC,NA,22.296544035674472,NA
28075,Cabarrus County,NC,NA,61.87290969899666,NA
28110,Union County,NC,NA,NA,14.124293785310735
28117,Iredell County,NC,NA,87.06800445930881,NA
28144,Rowan County,NC,NA,27.201783723522855,NA
28147,Rowan County,NC,NA,94.09141583054627,NA
28205,Mecklenburg County,NC,17.637540453074433,NA,NA
28209,Mecklenburg County,NC,NA,56.85618729096989,NA
28227,Mecklenburg County,NC,90.1294498381877,NA,NA
28312,Cumberland County,NC,NA,83.72352285395763,NA
28320,Bladen County,NC,NA,63.09921962095875,NA
28340,Robeson County,NC,48.05825242718447,NA,NA
28345,Richmond County,NC,NA,86.62207357859532,NA
28364,Robeson County,NC,37.2168284789644,NA,NA
28403,New Hanover County,NC,NA,70.5685618729097,NA
28422,Brunswick County,NC,91.74757281553399,NA,NA
28463,Columbus County,NC,NA,90.74693422519509,79.09604519774011
28612,Burke County,NC,94.66019417475728,NA,NA
28625,Iredell County,NC,NA,16.387959866220736,NA
28645,Caldwell County,NC,NA,NA,15.819209039548024
28651,Wilkes County,NC,NA,68.11594202898551,NA
28657,Avery County,NC,NA,52.06243032329989,NA
28658,Catawba County,NC,NA,32.99888517279822,NA
28681,Alexander County,NC,17.79935275080906,NA,NA
28704,Buncombe County,NC,57.28155339805825,NA,NA
28715,Buncombe County,NC,82.68608414239482,NA,NA
28717,Jackson County,NC,96.92556634304206,NA,NA
28752,McDowell County,NC,NA,NA,69.49152542372882
28786,Haywood County,NC,56.957928802588995,NA,NA
28787,Buncombe County,NC,NA,87.84838350055742,NA
28791,Henderson County,NC,82.84789644012946,NA,NA
58072,Barnes County,ND,NA,67.22408026755853,NA
43016,Franklin County,OH,NA,70.45707915273132,NA
43056,Licking County,OH,NA,30.434782608695656,NA
43068,Franklin County,OH,NA,NA,21.75141242937853
43082,Delaware County,OH,NA,NA,35.87570621468927
43110,Franklin County,OH,NA,9.364548494983277,NA
43123,Franklin County,OH,NA,7.357859531772576,NA
43162,Madison County,OH,NA,61.20401337792642,NA
43219,Franklin County,OH,NA,NA,35.02824858757062
43223,Franklin County,OH,6.148867313915858,NA,NA
43420,Sandusky County,OH,10.194174757281553,NA,NA
43512,Defiance County,OH,NA,NA,41.80790960451977
43537,Lucas County,OH,NA,12.151616499442586,NA
43560,Lucas County,OH,NA,NA,83.89830508474576
43607,Lucas County,OH,NA,46.15384615384615,NA
43612,Lucas County,OH,46.27831715210356,NA,NA
43613,Lucas County,OH,4.0453074433656955,NA,NA
43616,Lucas County,OH,NA,10.256410256410255,NA
43701,Muskingum County,OH,0.8090614886731391,0.11148272017837235,NA
43719,Belmont County,OH,98.2200647249191,NA,NA
43731,Perry County,OH,86.73139158576052,NA,NA
43907,Harrison County,OH,NA,NA,75.42372881355932
43938,Jefferson County,OH,43.689320388349515,NA,NA
43950,Belmont County,OH,NA,NA,87.00564971751412
43953,Jefferson County,OH,28.478964401294498,NA,NA
44001,Lorain County,OH,NA,3.678929765886288,6.497175141242938
44039,Lorain County,OH,NA,18.729096989966553,NA
44040,Cuyahoga County,OH,NA,84.94983277591973,NA
44041,Ashtabula County,OH,NA,28.87402452619844,NA
44052,Lorain County,OH,3.074433656957929,NA,NA
44054,Lorain County,OH,95.79288025889967,NA,NA
44056,Summit County,OH,NA,46.04236343366778,NA
44077,Lake County,OH,3.8834951456310676,NA,NA
44094,Lake County,OH,NA,NA,1.4124293785310735
44105,Cuyahoga County,OH,NA,0.2229654403567447,NA
44109,Cuyahoga County,OH,NA,1.4492753623188406,NA
44111,Cuyahoga County,OH,80.09708737864078,NA,NA
44112,Cuyahoga County,OH,NA,NA,61.5819209039548
44118,Cuyahoga County,OH,NA,9.253065774804906,NA
44128,Cuyahoga County,OH,NA,NA,31.07344632768362
44130,Cuyahoga County,OH,5.016181229773463,0.7803790412486065,NA
44133,Cuyahoga County,OH,NA,NA,9.6045197740113
44144,Cuyahoga County,OH,11.488673139158575,NA,NA
44149,Cuyahoga County,OH,NA,15.384615384615385,NA
44212,Medina County,OH,NA,NA,1.977401129943503
44221,Summit County,OH,14.077669902912621,NA,NA
44241,Portage County,OH,NA,77.36900780379041,NA
44255,Portage County,OH,NA,65.44035674470457,NA
44256,Medina County,OH,NA,0.4459308807134894,NA
44260,Portage County,OH,57.60517799352751,NA,NA
44311,Summit County,OH,NA,90.52396878483835,NA
44312,Summit County,OH,NA,8.4726867335563,NA
44319,Summit County,OH,NA,73.24414715719062,NA
44432,Columbiana County,OH,NA,60.64659977703456,NA
44483,Trumbull County,OH,NA,10.813823857302118,NA
44511,Mahoning County,OH,NA,26.755852842809364,NA
44515,Mahoning County,OH,9.870550161812297,NA,NA
44601,Stark County,OH,NA,7.803790412486064,NA
44622,Tuscarawas County,OH,NA,NA,74.29378531073446
44632,Stark County,OH,NA,91.86176142697882,NA
44663,Tuscarawas County,OH,NA,NA,11.016949152542372
44691,Wayne County,OH,NA,5.2396878483835,NA
44824,Erie County,OH,NA,78.48383500557414,NA
44833,Crawford County,OH,NA,NA,28.24858757062147
44870,Erie County,OH,2.26537216828479,NA,NA
44883,Seneca County,OH,15.53398058252427,NA,20.056497175141246
44907,Richland County,OH,NA,53.734671125975474,NA
45013,Butler County,OH,NA,3.121516164994426,NA
45044,Butler County,OH,NA,11.482720178372352,NA
45121,Brown County,OH,78.47896440129449,NA,NA
45169,Clinton County,OH,95.46925566343042,NA,NA
45205,Hamilton County,OH,NA,69.56521739130434,NA
45238,Hamilton County,OH,NA,41.02564102564102,NA
45320,Preble County,OH,NA,NA,34.74576271186441
45377,Montgomery County,OH,59.06148867313916,NA,NA
45417,Montgomery County,OH,NA,66.66666666666666,NA
45430,Greene County,OH,NA,96.54403567447045,NA
45432,Greene County,OH,NA,71.7948717948718,NA
45449,Montgomery County,OH,NA,65.21739130434783,NA
45694,Scioto County,OH,NA,46.711259754738016,NA
45764,Athens County,OH,57.92880258899677,NA,NA
45769,Meigs County,OH,NA,63.76811594202898,NA
45804,Allen County,OH,NA,NA,21.468926553672315
45822,Mercer County,OH,NA,26.867335562987737,NA
45833,Allen County,OH,52.42718446601942,NA,NA
45891,Van Wert County,OH,NA,64.65997770345597,NA
73034,Oklahoma County,OK,24.59546925566343,NA,NA
73055,Stephens County,OK,61.81229773462783,NA,NA
73068,Cleveland County,OK,59.385113268608414,NA,NA
73072,Cleveland County,OK,NA,NA,32.20338983050847
73086,Murray County,OK,NA,51.83946488294314,NA
73120,Oklahoma County,OK,NA,23.634336677814936,NA
73160,Cleveland County,OK,NA,NA,10.16949152542373
73507,Comanche County,OK,85.43689320388349,NA,NA
73533,Stephens County,OK,NA,36.90078037904125,NA
73701,Garfield County,OK,NA,28.31661092530658,NA
73703,Garfield County,OK,NA,NA,9.03954802259887
73750,Kingfisher County,OK,NA,64.21404682274247,NA
74017,Rogers County,OK,NA,NA,24.858757062146893
74501,Pittsburg County,OK,43.52750809061489,NA,NA
74604,Kay County,OK,NA,48.94091415830547,NA
74804,Pottawatomie County,OK,NA,63.99108138238573,NA
74820,Pontotoc County,OK,8.090614886731391,NA,NA
74848,Hughes County,OK,65.53398058252428,NA,NA
97015,Clackamas County,OR,NA,58.082497212932,NA
97045,Clackamas County,OR,NA,70.1226309921962,NA
97123,Washington County,OR,44.66019417475729,NA,NA
97210,Multnomah County,OR,95.30744336569579,NA,NA
97223,Washington County,OR,NA,21.29319955406912,NA
97229,Washington County,OR,NA,30.657748049052397,NA
97305,Marion County,OR,22.006472491909385,NA,NA
97330,Benton County,OR,77.66990291262135,NA,NA
97333,Benton County,OR,NA,NA,48.0225988700565
97355,Linn County,OR,NA,91.9732441471572,6.779661016949152
97365,Lincoln County,OR,87.37864077669903,NA,NA
97381,Marion County,OR,71.84466019417476,NA,NA
97386,Linn County,OR,NA,32.32998885172798,NA
97504,Jackson County,OR,NA,11.37123745819398,NA
97520,Jackson County,OR,NA,77.48049052396878,NA
97526,Josephine County,OR,21.35922330097087,NA,NA
97527,Josephine County,OR,NA,NA,22.316384180790962
97603,Klamath County,OR,NA,43.812709030100336,NA
97756,Deschutes County,OR,NA,17.502787068004462,NA
97801,Umatilla County,OR,56.63430420711975,NA,NA
15010,Beaver County,PA,NA,22.74247491638796,NA
15012,Westmoreland County,PA,NA,42.028985507246375,NA
15021,Washington County,PA,79.12621359223301,NA,NA
15024,Allegheny County,PA,NA,62.31884057971014,NA
15085,Westmoreland County,PA,NA,NA,72.03389830508475
15102,Allegheny County,PA,NA,NA,13.841807909604519
15108,Allegheny County,PA,96.11650485436894,15.496098104793758,NA
15147,Allegheny County,PA,NA,89.63210702341136,NA
15205,Allegheny County,PA,NA,45.48494983277592,NA
15206,Allegheny County,PA,NA,18.506131549609812,NA
15213,Allegheny County,PA,59.70873786407766,NA,NA
15237,Allegheny County,PA,67.96116504854369,NA,NA
15241,Allegheny County,PA,63.915857605178,NA,NA
15301,Washington County,PA,6.472491909385113,41.69453734671126,NA
15317,Washington County,PA,NA,NA,70.33898305084746
15431,Fayette County,PA,79.93527508090615,NA,NA
15522,Bedford County,PA,54.0453074433657,NA,NA
15601,Westmoreland County,PA,4.53074433656958,12.37458193979933,NA
15613,Westmoreland County,PA,NA,40.356744704570794,NA
15627,Westmoreland County,PA,68.6084142394822,NA,NA
15717,Indiana County,PA,NA,34.6711259754738,NA
15801,Clearfield County,PA,NA,NA,70.90395480225989
15834,Cameron County,PA,NA,56.52173913043478,NA
15905,Cambria County,PA,40.77669902912621,72.12931995540691,NA
16001,Butler County,PA,16.50485436893204,83.5005574136009,NA
16033,Butler County,PA,94.98381877022653,NA,NA
16101,Lawrence County,PA,NA,6.688963210702341,NA
16102,Lawrence County,PA,NA,64.54849498327759,NA
16201,Armstrong County,PA,NA,9.810479375696767,NA
16323,Venango County,PA,44.01294498381877,29.31995540691193,NA
16365,Warren County,PA,29.61165048543689,25.64102564102564,NA
16510,Erie County,PA,72.97734627831716,NA,NA
16601,Blair County,PA,29.28802588996764,47.26867335562987,NA
16648,Blair County,PA,50.323624595469255,NA,41.24293785310734
16652,Huntingdon County,PA,NA,16.276477146042364,NA
16662,Blair County,PA,NA,84.16945373467112,65.81920903954803
16823,Centre County,PA,NA,14.381270903010032,NA
16866,Centre County,PA,NA,NA,71.75141242937853
16875,Centre County,PA,98.70550161812298,NA,NA
17011,Cumberland County,PA,84.30420711974111,NA,NA
17013,Cumberland County,PA,NA,NA,17.51412429378531
17015,Cumberland County,PA,NA,25.52954292084727,NA
17019,York County,PA,54.36893203883495,NA,NA
17022,Lancaster County,PA,NA,13.712374581939798,NA
17032,Dauphin County,PA,NA,71.01449275362319,NA
17065,Cumberland County,PA,81.06796116504854,NA,NA
17067,Lebanon County,PA,NA,62.98773690078038,NA
17202,Franklin County,PA,23.78640776699029,NA,NA
17225,Franklin County,PA,NA,NA,46.04519774011299
17241,Cumberland County,PA,NA,NA,62.42937853107344
17314,York County,PA,93.20388349514563,NA,NA
17325,Adams County,PA,NA,5.351170568561873,NA
17331,York County,PA,6.796116504854369,1.2263099219620959,NA
17406,York County,PA,29.773462783171524,NA,NA
17516,Lancaster County,PA,NA,NA,92.09039548022598
17540,Lancaster County,PA,NA,90.07803790412487,NA
17543,Lancaster County,PA,NA,70.01114827201785,NA
17545,Lancaster County,PA,NA,26.421404682274247,NA
17737,Lycoming County,PA,81.55339805825243,NA,NA
17740,Lycoming County,PA,NA,42.58639910813824,NA
17847,Northumberland County,PA,NA,NA,72.31638418079096
17901,Schuylkill County,PA,NA,NA,66.38418079096046
17972,Schuylkill County,PA,52.58899676375405,46.48829431438127,NA
18042,Northampton County,PA,NA,NA,19.491525423728813
18045,Northampton County,PA,91.58576051779936,NA,NA
18064,Northampton County,PA,NA,20.28985507246377,NA
18069,Lehigh County,PA,NA,74.69342251950948,NA
18337,Pike County,PA,80.2588996763754,NA,NA
18433,Lackawanna County,PA,NA,73.46711259754738,NA
18444,Lackawanna County,PA,NA,60.31215161649944,NA
18603,Columbia County,PA,NA,15.830546265328874,NA
18640,Luzerne County,PA,NA,NA,21.1864406779661
18644,Luzerne County,PA,74.11003236245955,NA,NA
18702,Luzerne County,PA,NA,4.682274247491638,NA
18708,Luzerne County,PA,NA,84.72686733556299,NA
18901,Bucks County,PA,NA,NA,10.451977401129943
18974,Bucks County,PA,NA,NA,19.774011299435028
19002,Montgomery County,PA,58.57605177993528,NA,NA
19006,Montgomery County,PA,NA,27.313266443701227,NA
19008,Delaware County,PA,NA,31.103678929765888,NA
19026,Delaware County,PA,41.90938511326861,NA,NA
19038,Montgomery County,PA,NA,94.98327759197325,NA
19063,Delaware County,PA,NA,35.67447045707915,NA
19064,Delaware County,PA,NA,37.12374581939799,NA
19067,Bucks County,PA,42.88025889967638,NA,NA
19103,Philadelphia County,PA,NA,48.49498327759198,NA
19107,Philadelphia County,PA,38.18770226537217,NA,NA
19114,Philadelphia County,PA,NA,18.171683389074694,NA
19131,Philadelphia County,PA,6.310679611650485,NA,NA
19132,Philadelphia County,PA,NA,13.600891861761427,NA
19144,Philadelphia County,PA,5.177993527508091,NA,NA
19147,Philadelphia County,PA,15.857605177993527,NA,NA
19320,Chester County,PA,9.223300970873787,10.925306577480491,NA
19343,Chester County,PA,NA,75.0278706800446,NA
19348,Chester County,PA,NA,37.56967670011148,NA
19380,Chester County,PA,34.78964401294498,NA,NA
19454,Montgomery County,PA,75.08090614886731,NA,NA
19460,Chester County,PA,NA,48.3835005574136,NA
19508,Berks County,PA,NA,33.8907469342252,NA
19518,Berks County,PA,NA,69.67670011148273,NA
19540,Berks County,PA,NA,46.93422519509476,NA
19551,Berks County,PA,NA,NA,78.8135593220339
19604,Berks County,PA,33.81877022653722,NA,NA
19606,Berks County,PA,10.841423948220065,4.9052396878483835,NA
02809,Bristol County,RI,NA,28.205128205128204,NA
02816,Kent County,RI,NA,39.68784838350056,NA
02857,Providence County,RI,NA,80.2675585284281,NA
02865,Providence County,RI,NA,47.15719063545151,NA
02871,Newport County,RI,52.75080906148867,NA,64.68926553672316
02879,Washington County,RI,NA,29.76588628762542,29.09604519774011
02886,Kent County,RI,NA,63.87959866220736,NA
02889,Kent County,RI,90.614886731391593,NA,NA
02906,Providence County,RI,NA,35.56298773690078,NA
02919,Providence County,RI,NA,NA,18.926553672316384
02920,Providence County,RI,NA,NA,8.757062146892656
29044,Richland County,SC,NA,90.85841694537346,NA
29053,Lexington County,SC,NA,NA,90.11299435028248
29067,Lancaster County,SC,NA,74.80490523968784,NA
29072,Lexington County,SC,NA,65.88628762541806,NA
29153,Sumter County,SC,NA,NA,54.80225988700565
29154,Sumter County,SC,NA,NA,55.6497175141243
29340,Cherokee County,SC,94.01294498381877,NA,NA
29349,Spartanburg County,SC,50.161812297734635,17.61426978818283,NA
29407,Charleston County,SC,92.39482200647248,NA,NA
29414,Charleston County,SC,69.41747572815534,NA,NA
29440,Georgetown County,SC,NA,37.12374581939799,NA
29448,Dorchester County,SC,NA,99.55406911928651,NA
29455,Charleston County,SC,44.1747572815534,NA,NA
29532,Darlington County,SC,NA,67.67001114827201,NA
29569,Horry County,SC,39.967637540453076,NA,NA
29575,Horry County,SC,NA,NA,68.36158192090396
29579,Horry County,SC,NA,28.31661092530658,NA
29585,Georgetown County,SC,NA,39.79933110367893,NA
29591,Florence County,SC,85.27508090614887,NA,NA
29605,Greenville County,SC,NA,11.594202898550725,NA
29617,Greenville County,SC,NA,30.211817168338907,NA
29620,Abbeville County,SC,NA,NA,50.847457627118644
29621,Anderson County,SC,31.55339805825243,NA,NA
29642,Pickens County,SC,84.14239482200647,NA,NA
29693,Oconee County,SC,55.17799352750809,60.200668896321076,NA
29706,Chester County,SC,28.964401294498384,NA,NA
29730,York County,SC,NA,30.100334448160538,NA
29803,Aiken County,SC,NA,8.249721293199554,NA
29926,Beaufort County,SC,NA,83.94648829431438,NA
29936,Jasper County,SC,NA,71.3489409141583,68.92655367231639
57005,Minnehaha County,SD,70.71197411003236,NA,NA
57104,Minnehaha County,SD,NA,NA,98.0225988700565
57719,Pennington County,SD,NA,44.3701226309922,NA
37027,Williamson County,TN,NA,86.39910813823857,NA
37064,Williamson County,TN,NA,74.47045707915272,NA
37066,Sumner County,TN,NA,31.549609810479375,NA
37067,Williamson County,TN,NA,57.74804905239688,NA
37076,Davidson County,TN,NA,26.198439241917505,NA
37138,Davidson County,TN,NA,45.26198439241917,NA
37160,Bedford County,TN,16.666666666666664,NA,NA
37172,Robertson County,TN,NA,27.647714604236345,NA
37357,Warren County,TN,NA,88.2943143812709,NA
37615,Washington County,TN,89.80582524271846,NA,NA
37663,Sullivan County,TN,58.41423948220065,NA,NA
37725,Jefferson County,TN,NA,47.71460423634337,NA
37821,Cocke County,TN,NA,24.414715719063544,NA
37853,Blount County,TN,NA,95.09476031215162,NA
37921,Knox County,TN,25.728155339805824,NA,NA
37923,Knox County,TN,44.336569579288025,32.10702341137124,NA
38002,Shelby County,TN,56.957928802588995,NA,NA
38063,Lauderdale County,TN,NA,54.40356744704571,NA
38133,Shelby County,TN,66.50485436893204,NA,NA
38256,Henry County,TN,87.05501618122977,NA,NA
38401,Maury County,TN,NA,NA,20.33898305084746
38462,Lewis County,TN,NA,NA,75.70621468926554
38464,Lawrence County,TN,NA,25.75250836120401,NA
38501,Putnam County,TN,16.990291262135923,NA,NA
75019,Dallas County,TX,45.9546925566343,NA,NA
75052,Dallas County,TX,NA,10.367892976588628,NA
75119,Ellis County,TX,NA,56.52173913043478,NA
75150,Dallas County,TX,20.06472491909385,NA,NA
75214,Dallas County,TX,NA,49.05239687848383,NA
75219,Dallas County,TX,NA,49.609810479375696,NA
75402,Hunt County,TX,NA,67.89297658862876,NA
75455,Titus County,TX,NA,38.46153846153847,NA
75559,Bowie County,TX,NA,77.14604236343366,NA
75633,Panola County,TX,66.34304207119742,NA,NA
75647,Gregg County,TX,74.91909385113269,NA,81.63841807909604
75686,Camp County,TX,NA,82.2742474916388,NA
75701,Smith County,TX,NA,NA,27.683615819209038
75702,Smith County,TX,32.200647249190936,NA,NA
75707,Smith County,TX,NA,NA,60.451977401129945
75751,Henderson County,TX,NA,66.5551839464883,NA
75752,Henderson County,TX,NA,NA,79.66101694915254
75758,Henderson County,TX,NA,34.6711259754738,NA
75771,Smith County,TX,46.601941747572816,NA,NA
75773,Wood County,TX,NA,51.83946488294314,NA
75840,Freestone County,TX,NA,65.99777034559644,NA
75860,Freestone County,TX,NA,90.41248606465999,NA
76012,Tarrant County,TX,NA,NA,40.3954802259887
76033,Johnson County,TX,31.22977346278317,NA,NA
76043,Somervell County,TX,76.37540453074433,NA,NA
76244,Tarrant County,TX,21.68284789644013,NA,NA
76504,Bell County,TX,NA,31.995540691192865,NA
76513,Bell County,TX,62.7831715210356,NA,NA
77038,Harris County,TX,NA,NA,86.7231638418079
77099,Harris County,TX,45.79288025889968,NA,NA
77302,Montgomery County,TX,NA,NA,77.11864406779661
77346,Harris County,TX,NA,NA,67.2316384180791
77351,Polk County,TX,NA,19.732441471571907,NA
77354,Montgomery County,TX,NA,NA,33.05084745762712
77360,Polk County,TX,NA,NA,92.93785310734464
77371,San Jacinto County,TX,NA,75.58528428093646,NA
77378,Montgomery County,TX,NA,96.98996655518395,NA
77406,Fort Bend County,TX,NA,81.15942028985508,NA
77414,Matagorda County,TX,NA,33.33333333333333,NA
77429,Harris County,TX,NA,4.459308807134894,64.40677966101694
77433,Harris County,TX,NA,76.2541806020067,NA
77437,Wharton County,TX,NA,50.72463768115942,NA
77484,Waller County,TX,NA,84.50390189520624,NA
77489,Fort Bend County,TX,27.184466019417474,NA,NA
77546,Galveston County,TX,NA,10.144927536231885,NA
77590,Galveston County,TX,36.084142394822,NA,NA
77632,Orange County,TX,NA,78.81828316610925,NA
77640,Jefferson County,TX,NA,NA,57.34463276836158
77642,Jefferson County,TX,25.24271844660194,NA,NA
77651,Jefferson County,TX,NA,59.75473801560758,NA
77657,Hardin County,TX,48.70550161812297,NA,NA
78028,Kerr County,TX,NA,NA,6.214689265536723
78045,Webb County,TX,71.35922330097088,NA,NA
78380,Nueces County,TX,73.62459546925567,NA,NA
78412,Nueces County,TX,83.49514563106796,NA,NA
78542,Hidalgo County,TX,NA,24.08026755852843,NA
78582,Starr County,TX,56.310679611650485,NA,NA
78633,Williamson County,TX,98.38187702265373,NA,NA
78645,Travis County,TX,75.88996763754045,NA,NA
78665,Williamson County,TX,68.28478964401295,NA,NA
78840,Val Verde County,TX,25.080906148867317,NA,NA
78945,Fayette County,TX,NA,67.55852842809364,NA
79364,Lubbock County,TX,NA,74.5819397993311,NA
79415,Lubbock County,TX,NA,56.29877369007804,NA
79605,Taylor County,TX,NA,NA,23.163841807909606
79606,Taylor County,TX,86.89320388349515,NA,NA
79763,Ector County,TX,NA,NA,59.03954802259888
79903,El Paso County,TX,87.54045307443366,NA,NA
79907,El Paso County,TX,32.5242718446602,NA,NA
79912,El Paso County,TX,22.815533980582526,NA,NA
79925,El Paso County,TX,NA,41.917502787068,NA
79928,El Paso County,TX,41.58576051779935,NA,NA
84010,Davis County,UT,NA,48.272017837235225,NA
84014,Davis County,UT,79.12621359223301,NA,NA
84062,Utah County,UT,NA,54.96098104793757,NA
84070,Salt Lake County,UT,NA,48.717948717948715,NA
84074,Tooele County,UT,NA,17.837235228539576,NA
84078,Uintah County,UT,14.724919093851133,NA,NA
84098,Summit County,UT,NA,38.79598662207358,NA
84105,Salt Lake County,UT,NA,NA,62.994350282485875
84108,Salt Lake County,UT,NA,44.81605351170568,NA
84116,Salt Lake County,UT,NA,70.34559643255295,NA
84120,Salt Lake County,UT,7.766990291262135,NA,NA
84121,Salt Lake County,UT,NA,15.050167224080269,NA
84404,Weber County,UT,45.307443365695796,79.93311036789298,NA
84721,Iron County,UT,NA,76.70011148272017,NA
84790,Washington County,UT,NA,55.072463768115945,NA
05301,Windham County,VT,NA,52.61984392419174,NA
05446,Chittenden County,VT,NA,75.8082497212932,NA
05452,Chittenden County,VT,NA,29.988851727982162,NA
05465,Chittenden County,VT,96.76375404530745,NA,NA
05602,Washington County,VT,NA,58.52842809364549,82.485875706214685
05701,Rutland County,VT,NA,8.918617614269788,NA
20109,Prince William County,VA,NA,97.65886287625418,NA
20148,Loudoun County,VA,NA,76.81159420289855,NA
20169,Prince William County,VA,68.93203883495146,NA,NA
22192,Prince William County,VA,NA,81.71683389074693,NA
22201,Arlington County,VA,NA,56.74470457079153,NA
22204,Arlington County,VA,NA,37.68115942028986,53.38983050847458
22304,Alexandria city,VA,14.239482200647249,NA,NA
22508,Orange County,VA,72.168284789644,NA,NA
22802,Harrisonburg city,VA,NA,NA,90.67796610169492
22851,Page County,VA,73.46278317152104,NA,NA
22932,Albemarle County,VA,NA,88.85172798216277,NA
22963,Fluvanna County,VA,NA,41.47157190635451,NA
22980,Waynesboro city,VA,NA,NA,2.824858757062147
23093,Louisa County,VA,NA,86.17614269788183,NA
23188,James City County,VA,NA,2.4526198439241917,0.5649717514124294
23325,Chesapeake city,VA,NA,NA,81.35593220338984
23435,Suffolk city,VA,NA,29.09698996655518,NA
23452,Virginia Beach city,VA,NA,7.915273132664437,NA
23462,Virginia Beach city,VA,NA,NA,43.50282485875706
23503,Norfolk city,VA,NA,NA,88.98305084745762
23504,Norfolk city,VA,NA,NA,70.62146892655367
23692,York County,VA,NA,65.55183946488295,NA
23824,Nottoway County,VA,NA,85.39576365663322,NA
23831,Chesterfield County,VA,97.41100323624595,NA,NA
24121,Bedford County,VA,NA,73.0211817168339,NA
24348,Grayson County,VA,NA,89.29765886287625,NA
24370,Smyth County,VA,NA,99.33110367892976,NA
24401,Staunton city,VA,NA,6.577480490523968,NA
24422,Alleghany County,VA,72.168284789644,NA,NA
24572,Amherst County,VA,NA,68.89632107023411,NA
24592,Halifax County,VA,NA,78.14938684503902,NA
24614,Buchanan County,VA,NA,61.53846153846154,NA
98002,King County,WA,NA,58.52842809364549,NA
98005,King County,WA,72.65372168284789,NA,NA
98007,King County,WA,NA,NA,44.06779661016949
98020,Snohomish County,WA,73.13915857605178,46.599777034559644,NA
98027,King County,WA,53.55987055016181,NA,NA
98036,Snohomish County,WA,NA,60.86956521739131,NA
98038,King County,WA,NA,91.5273132664437,NA
98072,King County,WA,74.59546925566343,NA,NA
98108,King County,WA,NA,52.28539576365663,NA
98116,King County,WA,NA,51.727982162764775,NA
98117,King County,WA,52.103559870550164,NA,NA
98126,King County,WA,NA,NA,61.86440677966102
98221,Skagit County,WA,NA,70.903010033444815,NA
98230,Whatcom County,WA,NA,57.079152731326644,NA
98233,Skagit County,WA,NA,79.82162764771459,NA
98270,Snohomish County,WA,NA,25.863991081382387,NA
98273,Skagit County,WA,NA,NA,7.627118644067797
98327,Pierce County,WA,NA,NA,94.63276836158192
98332,Pierce County,WA,NA,68.67335562987736,75.14124293785311
98368,Jefferson County,WA,NA,20.735785953177256,NA
98370,Kitsap County,WA,NA,33.77926421404682,NA
98374,Pierce County,WA,NA,33.22185061315496,NA
98383,Kitsap County,WA,NA,69.45373467112597,NA
98404,Pierce County,WA,NA,34.55964325529543,NA
98408,Pierce County,WA,NA,46.82274247491639,NA
98424,Pierce County,WA,82.36245954692556,NA,NA
98512,Thurston County,WA,NA,91.41583054626533,NA
98532,Lewis County,WA,NA,96.32107023411372,NA
98612,Wahkiakum County,WA,NA,NA,90.11299435028248
98672,Klickitat County,WA,88.02588996763754,NA,NA
98812,Okanogan County,WA,91.10032362459548,NA,NA
98816,Chelan County,WA,88.83495145631069,NA,NA
98826,Chelan County,WA,NA,81.93979933110369,NA
98901,Yakima County,WA,NA,96.20958751393533,37.28813559322034
98902,Yakima County,WA,NA,21.070234113712374,NA
98926,Kittitas County,WA,NA,57.41360089186176,NA
99163,Whitman County,WA,NA,NA,77.96610169491525
99201,Spokane County,WA,NA,NA,67.2316384180791
99337,Benton County,WA,NA,7.023411371237458,NA
99362,Walla Walla County,WA,NA,NA,36.440677966101696
20009,District of Columbia,DC,NA,37.34671125975474,NA
20037,District of Columbia,DC,NA,NA,73.44632768361582
25213,Putnam County,WV,86.24595469255664,NA,NA
25306,Kanawha County,WV,NA,71.68338907469342,NA
25309,Kanawha County,WV,NA,44.70457079152732,NA
25312,Kanawha County,WV,NA,42.25195094760312,NA
25541,Cabell County,WV,NA,83.16610925306578,NA
25701,Cabell County,WV,NA,14.15830546265329,NA
25704,Wayne County,WV,NA,30.434782608695656,NA
26034,Hancock County,WV,NA,72.35228539576366,NA
26041,Marshall County,WV,39.80582524271845,NA,NA
26047,Hancock County,WV,94.8220064724919,NA,NA
26101,Wood County,WV,NA,44.593088071348944,NA
26105,Wood County,WV,41.262135922330096,NA,NA
26155,Wetzel County,WV,69.90291262135922,NA,NA
26301,Harrison County,WV,7.119741100323624,NA,NA
26330,Harrison County,WV,37.54045307443366,NA,NA
26501,Monongalia County,WV,92.55663430420712,NA,NA
26505,Monongalia County,WV,9.385113268608414,NA,NA
26554,Marion County,WV,4.854368932038835,NA,NA
53115,Walworth County,WI,42.07119741100323,NA,NA
53126,Racine County,WI,93.36569579288026,55.406911928651056,NA
53132,Milwaukee County,WI,NA,19.063545150501675,NA
53154,Milwaukee County,WI,19.57928802588997,NA,NA
53188,Waukesha County,WI,NA,43.1438127090301,NA
53207,Milwaukee County,WI,22.653721682847898,NA,NA
53210,Milwaukee County,WI,NA,16.16499442586399,NA
53213,Milwaukee County,WI,NA,76.58862876254182,NA
53217,Milwaukee County,WI,NA,22.74247491638796,NA
53405,Racine County,WI,64.88673139158576,NA,NA
53511,Rock County,WI,1.2944983818770228,NA,NA
53545,Rock County,WI,NA,16.833890746934223,NA
53546,Rock County,WI,NA,4.124860646599777,NA
53589,Dane County,WI,NA,58.30546265328874,NA
53711,Dane County,WI,NA,13.823857302118173,NA
53719,Dane County,WI,70.55016181229773,NA,NA
53821,Crawford County,WI,NA,66.77814938684504,NA
54016,St. Croix County,WI,39.64401294498382,NA,NA
54139,Oconto County,WI,NA,89.07469342251952,NA
54302,Brown County,WI,94.49838187702265,NA,NA
54303,Brown County,WI,NA,79.15273132664437,NA
54409,Langlade County,WI,32.362459546925564,NA,NA
54455,Marathon County,WI,NA,96.09810479375696,NA
54481,Portage County,WI,NA,NA,33.33333333333333
54494,Wood County,WI,92.23300970873787,NA,NA
54729,Chippewa County,WI,NA,NA,56.21468926553672
54806,Ashland County,WI,81.3915857605178,NA,NA
54923,Green Lake County,WI,NA,NA,74.85875706214689
54952,Winnebago County,WI,NA,NA,49.152542372881356
54956,Winnebago County,WI,NA,69.89966555183946,NA
54986,Winnebago County,WI,88.67313915857605,NA,NA
82604,Natrona County,WY,NA,92.19620958751393,NA
82716,Campbell County,WY,NA,96.87848383500557,NA
82718,Campbell County,WY,88.9967637540453,NA,NA
82801,Sheridan County,WY,NA,84.2809364548495,NA
