ZipCode,county,state,Adult,Retirement,Geriatric
35058,Cullman County,AL,88.4920634920635,NA,NA
35125,St. Clair County,AL,NA,NA,56.779661016949156
35206,Jefferson County,AL,NA,47.67025089605735,NA
36701,Dallas County,AL,27.77777777777778,NA,NA
36830,Lee County,AL,66.66666666666666,NA,NA
99701,Fairbanks North Star Borough,AK,NA,NA,75
85013,Maricopa County,AZ,84.92063492063492,NA,NA
85037,Maricopa County,AZ,25.396825396825395,NA,NA
85040,Maricopa County,AZ,21.03174603174603,NA,NA
85202,Maricopa County,AZ,52.38095238095239,NA,NA
85204,Maricopa County,AZ,61.904761904761905,NA,NA
85209,Maricopa County,AZ,NA,24.372759856630825,NA
85210,Maricopa County,AZ,23.809523809523807,NA,NA
85255,Maricopa County,AZ,NA,NA,24.576271186440678
85260,Maricopa County,AZ,NA,40.14336917562724,NA
85297,Maricopa County,AZ,61.111111111111114,NA,NA
85304,Maricopa County,AZ,NA,84.58781362007169,NA
85365,Yuma County,AZ,NA,NA,10.59322033898305
85383,Maricopa County,AZ,NA,36.200716845878134,NA
85546,Graham County,AZ,NA,NA,75.42372881355932
85621,Santa Cruz County,AZ,NA,44.44444444444444,NA
85735,Pima County,AZ,67.46031746031747,NA,NA
72335,St. Francis County,AR,NA,NA,92.37288135593221
72370,Mississippi County,AR,NA,NA,89.83050847457628
72701,Washington County,AR,63.49206349206349,NA,NA
72834,Yell County,AR,NA,NA,78.8135593220339
90015,Los Angeles County,CA,NA,93.54838709677419,NA
90041,Los Angeles County,CA,NA,94.98207885304659,NA
90065,Los Angeles County,CA,NA,34.76702508960574,NA
90241,Los Angeles County,CA,NA,NA,53.813559322033896
90245,Los Angeles County,CA,NA,62.365591397849464,NA
90249,Los Angeles County,CA,78.96825396825396,NA,NA
90293,Los Angeles County,CA,NA,92.1146953405018,NA
90404,Los Angeles County,CA,36.11111111111111,NA,48.30508474576271
90631,Orange County,CA,NA,17.562724014336915,NA
90805,Los Angeles County,CA,NA,22.22222222222222,NA
91016,Los Angeles County,CA,58.333333333333336,NA,NA
91107,Los Angeles County,CA,NA,49.46236559139785,NA
91307,Los Angeles County,CA,NA,89.6057347670251,NA
91355,Los Angeles County,CA,NA,51.25448028673835,NA
91390,Los Angeles County,CA,NA,92.831541218638,NA
91405,Los Angeles County,CA,46.03174603174603,NA,NA
91748,Los Angeles County,CA,NA,NA,30.08474576271186
91750,Los Angeles County,CA,NA,NA,27.966101694915253
91776,Los Angeles County,CA,NA,96.05734767025089,NA
91789,Los Angeles County,CA,NA,59.49820788530465,NA
91790,Los Angeles County,CA,52.77777777777778,NA,NA
92008,San Diego County,CA,NA,NA,38.13559322033898
92040,San Diego County,CA,NA,24.731182795698924,NA
92111,San Diego County,CA,NA,52.32974910394266,NA
92264,Riverside County,CA,NA,NA,15.254237288135593
92324,San Bernardino County,CA,21.825396825396826,NA,NA
92394,San Bernardino County,CA,48.80952380952381,NA,NA
92395,San Bernardino County,CA,27.380952380952383,NA,NA
92399,San Bernardino County,CA,NA,55.19713261648745,NA
92407,San Bernardino County,CA,19.047619047619047,NA,NA
92411,San Bernardino County,CA,NA,NA,73.72881355932203
92549,Riverside County,CA,NA,NA,93.22033898305084
92567,Riverside County,CA,NA,89.24731182795699,NA
92571,Riverside County,CA,42.06349206349206,NA,NA
92646,Orange County,CA,NA,38.35125448028674,NA
92655,Orange County,CA,NA,95.6989247311828,NA
92660,Orange County,CA,NA,NA,59.7457627118644
92806,Orange County,CA,57.14285714285714,NA,38.983050847457626
92882,Riverside County,CA,NA,NA,56.355932203389834
93063,Ventura County,CA,35.317460317460316,NA,NA
93225,Kern County,CA,100,NA,NA
93250,Kern County,CA,NA,98.56630824372759,NA
93308,Kern County,CA,NA,29.749103942652326,NA
93405,San Luis Obispo County,CA,NA,NA,66.52542372881356
93446,San Luis Obispo County,CA,NA,43.727598566308245,NA
93449,San Luis Obispo County,CA,NA,NA,63.559322033898304
93555,Kern County,CA,NA,20.43010752688172,NA
93654,Fresno County,CA,NA,NA,58.89830508474576
94066,San Mateo County,CA,NA,NA,76.27118644067797
94115,San Francisco County,CA,NA,NA,86.4406779661017
94116,San Francisco County,CA,NA,NA,39.83050847457627
94131,San Francisco County,CA,NA,NA,52.118644067796616
94521,Contra Costa County,CA,NA,40.50179211469534,NA
94579,Alameda County,CA,NA,NA,84.7457627118644
94587,Alameda County,CA,NA,21.50537634408602,NA
94603,Alameda County,CA,NA,NA,85.59322033898306
94621,Alameda County,CA,32.93650793650794,NA,NA
95035,Santa Clara County,CA,49.60317460317461,NA,19.915254237288135
95066,Santa Cruz County,CA,NA,NA,79.66101694915254
95123,Santa Clara County,CA,NA,26.881720430107524,NA
95133,Santa Clara County,CA,98.01587301587301,NA,NA
95134,Santa Clara County,CA,NA,94.6236559139785,NA
95212,San Joaquin County,CA,NA,NA,95.33898305084746
95351,Stanislaus County,CA,NA,39.784946236559136,NA
95370,Tuolumne County,CA,26.58730158730159,NA,NA
95377,San Joaquin County,CA,NA,69.53405017921148,NA
95380,Stanislaus County,CA,NA,NA,50.847457627118644
95503,Humboldt County,CA,NA,NA,47.88135593220339
95521,Humboldt County,CA,80.55555555555556,NA,NA
95677,Placer County,CA,97.61904761904762,NA,NA
95814,Sacramento County,CA,NA,81.00358422939068,NA
95820,Sacramento County,CA,NA,71.32616487455196,NA
95821,Sacramento County,CA,NA,30.46594982078853,NA
95954,Butte County,CA,NA,67.02508960573476,NA
95959,Nevada County,CA,92.06349206349206,NA,NA
95966,Butte County,CA,74.60317460317461,NA,NA
95973,Butte County,CA,NA,22.58064516129032,NA
95991,Sutter County,CA,NA,NA,37.28813559322034
80015,Arapahoe County,CO,NA,NA,51.69491525423729
80205,Denver County,CO,NA,NA,88.5593220338983
80224,Denver County,CO,NA,75.62724014336918,NA
80525,Larimer County,CO,NA,90.32258064516128,NA
80537,Larimer County,CO,NA,17.20430107526882,NA
80759,Yuma County,CO,NA,99.2831541218638,NA
81416,Delta County,CO,NA,NA,86.01694915254238
06082,Hartford County,CT,NA,NA,13.983050847457626
06095,Hartford County,CT,NA,29.03225806451613,NA
06109,Hartford County,CT,NA,NA,27.54237288135593
06260,Windham County,CT,31.746031746031743,NA,NA
06415,New London County,CT,53.96825396825397,NA,NA
06473,New Haven County,CT,NA,NA,20.33898305084746
06475,Middlesex County,CT,NA,58.06451612903226,NA
06478,New Haven County,CT,NA,NA,85.16949152542372
06489,Hartford County,CT,NA,17.921146953405017,NA
06512,New Haven County,CT,NA,NA,15.677966101694915
06704,New Haven County,CT,NA,54.48028673835126,NA
06706,New Haven County,CT,60.317460317460316,NA,NA
06712,New Haven County,CT,NA,75.26881720430107,NA
06770,New Haven County,CT,57.53968253968254,NA,NA
06787,Litchfield County,CT,96.82539682539682,NA,NA
19713,New Castle County,DE,30.952380952380953,NA,NA
19808,New Castle County,DE,NA,NA,87.71186440677965
19958,Sussex County,DE,NA,NA,11.016949152542372
32110,Flagler County,FL,69.44444444444444,NA,NA
32159,Lake County,FL,NA,NA,4.661016949152542
32168,Volusia County,FL,NA,66.66666666666666,NA
32308,Leon County,FL,72.22222222222221,62.00716845878136,NA
32435,Walton County,FL,NA,NA,58.47457627118644
32514,Escambia County,FL,24.206349206349206,NA,NA
32539,Okaloosa County,FL,41.66666666666667,NA,NA
32570,Santa Rosa County,FL,38.095238095238095,NA,NA
32765,Seminole County,FL,NA,42.29390681003584,NA
32808,Orange County,FL,NA,24.014336917562723,NA
32825,Orange County,FL,NA,NA,41.94915254237288
32903,Brevard County,FL,91.26984126984127,NA,NA
32909,Brevard County,FL,70.63492063492063,NA,NA
33026,Broward County,FL,NA,NA,72.03389830508475
33027,Broward County,FL,NA,39.06810035842294,NA
33062,Broward County,FL,NA,NA,23.30508474576271
33125,Miami-Dade County,FL,46.82539682539682,NA,NA
33139,Miami-Dade County,FL,80.55555555555556,NA,NA
33143,Miami-Dade County,FL,NA,NA,68.22033898305084
33155,Miami-Dade County,FL,NA,65.94982078853047,NA
33161,Miami-Dade County,FL,35.714285714285715,NA,NA
33180,Miami-Dade County,FL,78.57142857142857,NA,NA
33189,Miami-Dade County,FL,NA,79.56989247311827,NA
33417,Palm Beach County,FL,58.730158730158735,NA,NA
33437,Palm Beach County,FL,NA,NA,25.847457627118644
33445,Palm Beach County,FL,NA,NA,80.08474576271186
33463,Palm Beach County,FL,NA,37.992831541218635,NA
33476,Palm Beach County,FL,94.04761904761905,NA,NA
33496,Palm Beach County,FL,NA,NA,5.932203389830509
33542,Pasco County,FL,55.55555555555556,NA,NA
33596,Hillsborough County,FL,NA,91.75627240143369,NA
33702,Pinellas County,FL,76.19047619047619,NA,NA
33705,Pinellas County,FL,82.93650793650794,NA,NA
33765,Pinellas County,FL,NA,97.1326164874552,NA
33903,Lee County,FL,NA,76.34408602150538,NA
33916,Lee County,FL,39.682539682539684,NA,NA
33950,Charlotte County,FL,NA,NA,71.61016949152543
34119,Collier County,FL,NA,NA,18.220338983050848
34202,Manatee County,FL,NA,NA,33.47457627118644
34231,Sarasota County,FL,NA,NA,2.5423728813559325
34446,Citrus County,FL,NA,NA,30.93220338983051
34689,Pinellas County,FL,59.12698412698413,NA,NA
34986,St. Lucie County,FL,NA,NA,7.627118644067797
30005,Fulton County,GA,69.04761904761905,NA,NA
30032,DeKalb County,GA,NA,NA,21.1864406779661
30033,DeKalb County,GA,92.46031746031747,NA,NA
30097,Fulton County,GA,96.42857142857143,NA,NA
30183,Cherokee County,GA,NA,93.9068100358423,NA
30542,Hall County,GA,NA,41.21863799283154,NA
30605,Clarke County,GA,55.952380952380956,NA,NA
30906,Richmond County,GA,NA,6.451612903225806,NA
31206,Bibb County,GA,NA,NA,54.23728813559322
31419,Chatham County,GA,34.92063492063492,NA,NA
31522,Glynn County,GA,NA,NA,92.79661016949152
31707,Dougherty County,GA,97.22222222222221,NA,NA
31714,Turner County,GA,NA,NA,64.40677966101694
31906,Muscogee County,GA,NA,43.01075268817204,NA
31907,Muscogee County,GA,NA,3.584229390681003,NA
96734,Honolulu County,HI,38.88888888888889,12.544802867383511,NA
83530,Idaho County,ID,NA,78.49462365591397,NA
83646,Ada County,ID,12.698412698412698,NA,NA
83651,Canyon County,ID,18.650793650793652,NA,NA
83686,Canyon County,ID,NA,26.523297491039425,NA
83702,Ada County,ID,30.158730158730158,NA,NA
60005,Cook County,IL,NA,70.96774193548387,NA
60041,Lake County,IL,77.38095238095238,NA,NA
60077,Cook County,IL,NA,NA,8.050847457627118
60139,DuPage County,IL,NA,68.81720430107528,NA
60153,Cook County,IL,40.476190476190474,NA,NA
60169,Cook County,IL,NA,NA,72.45762711864407
60171,Cook County,IL,83.73015873015873,86.02150537634408,NA
60410,Will County,IL,48.80952380952381,NA,NA
60443,Cook County,IL,73.80952380952381,NA,NA
60502,DuPage County,IL,78.17460317460318,NA,NA
60515,DuPage County,IL,NA,34.40860215053764,NA
60521,DuPage County,IL,NA,82.79569892473118,55.932203389830505
60543,Kendall County,IL,NA,46.95340501792115,NA
60555,DuPage County,IL,86.90476190476191,NA,NA
60610,Cook County,IL,NA,21.14695340501792,NA
60624,Cook County,IL,64.68253968253968,NA,NA
60626,Cook County,IL,NA,8.960573476702509,NA
60639,Cook County,IL,NA,10.03584229390681,NA
60651,Cook County,IL,NA,NA,14.83050847457627
61019,Stephenson County,IL,NA,86.73835125448028,NA
61108,Winnebago County,IL,NA,NA,24.152542372881356
61554,Tazewell County,IL,NA,13.261648745519713,NA
61701,McLean County,IL,NA,28.31541218637993,NA
61866,Champaign County,IL,43.65079365079365,NA,NA
62033,Macoupin County,IL,NA,79.21146953405018,NA
62274,Perry County,IL,NA,NA,99.15254237288136
62626,Macoupin County,IL,NA,86.37992831541219,NA
62650,Morgan County,IL,NA,NA,63.13559322033898
62946,Saline County,IL,NA,NA,73.30508474576271
62951,Williamson County,IL,NA,NA,82.62711864406779
46013,Madison County,IN,34.12698412698413,NA,NA
46072,Tipton County,IN,NA,NA,54.66101694915254
46124,Johnson County,IN,NA,94.26523297491039,NA
46135,Putnam County,IN,67.06349206349206,NA,NA
46160,Brown County,IN,NA,83.15412186379928,NA
46217,Marion County,IN,NA,NA,36.86440677966102
46224,Marion County,IN,NA,50.53763440860215,NA
46235,Marion County,IN,NA,66.30824372759857,NA
46254,Marion County,IN,NA,NA,72.88135593220339
46319,Lake County,IN,NA,60.57347670250897,NA
46322,Lake County,IN,NA,NA,11.440677966101696
46350,LaPorte County,IN,8.73015873015873,NA,NA
46406,Lake County,IN,NA,NA,69.49152542372882
46407,Lake County,IN,NA,72.04301075268818,NA
46706,DeKalb County,IN,48.01587301587302,NA,NA
46725,Whitley County,IN,NA,NA,26.69491525423729
46750,Huntington County,IN,NA,NA,20.76271186440678
46815,Allen County,IN,33.33333333333333,NA,NA
46818,Allen County,IN,NA,45.878136200716845,NA
46901,Howard County,IN,NA,NA,5.508474576271186
47129,Clark County,IN,76.98412698412699,NA,NA
47591,Knox County,IN,NA,NA,16.101694915254235
47711,Vanderburgh County,IN,74.20634920634922,NA,17.372881355932204
47904,Tippecanoe County,IN,NA,NA,67.37288135593221
47909,Tippecanoe County,IN,NA,45.51971326164875,77.96610169491525
50315,Polk County,IA,NA,23.655913978494624,NA
50320,Polk County,IA,NA,63.799283154121866,NA
50327,Polk County,IA,92.85714285714286,NA,NA
50662,Fayette County,IA,NA,83.51254480286738,NA
51503,Pottawattamie County,IA,NA,5.376344086021505,NA
51534,Mills County,IA,NA,70.60931899641577,NA
51632,Page County,IA,NA,NA,66.10169491525424
52501,Wapello County,IA,NA,NA,58.05084745762712
52537,Davis County,IA,NA,73.83512544802868,NA
66204,Johnson County,KS,NA,61.29032258064516,NA
66607,Shawnee County,KS,93.25396825396825,NA,NA
67357,Labette County,KS,NA,NA,49.152542372881356
67456,McPherson County,KS,88.88888888888889,NA,NA
67846,Finney County,KS,NA,21.863799283154123,NA
40059,Jefferson County,KY,NA,NA,62.71186440677966
40175,Hardin County,KY,59.523809523809526,NA,NA
40447,Jackson County,KY,NA,NA,88.5593220338983
40475,Madison County,KY,7.936507936507936,12.186379928315413,NA
40769,Whitley County,KY,NA,NA,62.28813559322034
41056,Mason County,KY,45.63492063492063,NA,NA
70043,St. Bernard Parish,LA,NA,64.51612903225806,NA
70065,Jefferson Parish,LA,NA,2.867383512544803,NA
70130,Orleans Parish,LA,NA,69.17562724014337,NA
70390,Assumption Parish,LA,NA,67.74193548387096,NA
70458,St. Tammany Parish,LA,NA,89.96415770609319,NA
70506,Lafayette Parish,LA,4.761904761904762,NA,NA
70582,St. Martin Parish,LA,29.761904761904763,NA,NA
71105,Caddo Parish,LA,69.84126984126983,NA,NA
71106,Caddo Parish,LA,NA,45.16129032258064,NA
71119,Caddo Parish,LA,NA,NA,82.20338983050848
04096,Cumberland County,ME,99.20634920634922,NA,NA
04976,Somerset County,ME,NA,NA,46.61016949152542
20782,Prince George's County,MD,NA,NA,91.10169491525424
20815,Montgomery County,MD,NA,NA,34.32203389830508
20854,Montgomery County,MD,NA,32.97491039426524,NA
21037,Anne Arundel County,MD,NA,NA,65.67796610169492
21122,Anne Arundel County,MD,7.5396825396825395,15.770609318996415,NA
21206,Baltimore city,MD,NA,13.620071684587815,NA
21218,Baltimore city,MD,87.6984126984127,NA,NA
21244,Baltimore County,MD,NA,NA,83.47457627118644
21401,Anne Arundel County,MD,25.793650793650798,NA,NA
01007,Hampshire County,MA,50.39682539682539,NA,NA
01020,Hampden County,MA,NA,12.903225806451612,NA
01027,Hampshire County,MA,11.904761904761903,NA,NA
01106,Hampden County,MA,NA,NA,69.91525423728814
01129,Hampden County,MA,NA,99.6415770609319,NA
01247,Berkshire County,MA,NA,NA,19.491525423728813
01532,Worcester County,MA,NA,NA,47.03389830508475
01569,Worcester County,MA,67.85714285714286,NA,NA
01590,Worcester County,MA,NA,74.91039426523297,NA
01752,Middlesex County,MA,NA,85.30465949820788,NA
01821,Middlesex County,MA,NA,NA,99.57627118644068
01826,Middlesex County,MA,NA,3.225806451612903,NA
01854,Middlesex County,MA,NA,NA,4.23728813559322
01880,Middlesex County,MA,NA,91.0394265232975,NA
01887,Middlesex County,MA,5.952380952380952,NA,NA
01945,Essex County,MA,42.857142857142854,NA,NA
01970,Essex County,MA,NA,1.4336917562724014,NA
02119,Suffolk County,MA,NA,0.35842293906810035,NA
02121,Suffolk County,MA,NA,0.7168458781362007,NA
02122,Suffolk County,MA,0.7936507936507936,NA,NA
02128,Suffolk County,MA,NA,NA,3.8135593220338984
02132,Suffolk County,MA,13.095238095238097,NA,NA
02135,Suffolk County,MA,NA,11.827956989247312,NA
02138,Middlesex County,MA,43.25396825396825,6.810035842293908,NA
02140,Middlesex County,MA,17.46031746031746,NA,NA
02144,Middlesex County,MA,21.428571428571427,NA,NA
02180,Middlesex County,MA,NA,NA,69.0677966101695
02184,Norfolk County,MA,NA,9.31899641577061,NA
02191,Norfolk County,MA,61.50793650793651,NA,NA
02356,Bristol County,MA,73.4126984126984,62.72401433691756,NA
02382,Plymouth County,MA,NA,97.4910394265233,NA
02421,Middlesex County,MA,82.14285714285714,NA,NA
02453,Middlesex County,MA,NA,16.48745519713262,NA
02465,Middlesex County,MA,NA,NA,38.559322033898304
02482,Norfolk County,MA,94.84126984126983,NA,NA
02664,Barnstable County,MA,55.158730158730165,35.842293906810035,NA
02740,Bristol County,MA,NA,NA,80.9322033898305
02771,Bristol County,MA,NA,46.236559139784944,NA
48042,Macomb County,MI,NA,88.17204301075269,NA
48080,Macomb County,MI,36.904761904761905,NA,NA
48089,Macomb County,MI,80.15873015873017,NA,43.64406779661017
48164,Wayne County,MI,NA,69.89247311827957,NA
48178,Oakland County,MI,77.77777777777779,NA,NA
48186,Wayne County,MI,5.158730158730158,NA,NA
48203,Wayne County,MI,NA,56.98924731182796,NA
48205,Wayne County,MI,3.968253968253968,NA,NA
48212,Wayne County,MI,NA,15.412186379928317,NA
48227,Wayne County,MI,NA,36.55913978494624,NA
48230,Wayne County,MI,NA,35.483870967741936,NA
48235,Wayne County,MI,1.1904761904761905,NA,NA
48238,Wayne County,MI,NA,NA,91.94915254237289
48313,Macomb County,MI,NA,NA,18.64406779661017
48315,Macomb County,MI,NA,18.63799283154122,NA
48322,Oakland County,MI,NA,9.67741935483871,NA
48331,Oakland County,MI,37.698412698412696,NA,NA
48341,Oakland County,MI,NA,73.47670250896059,NA
48342,Oakland County,MI,15.873015873015872,NA,NA
48383,Oakland County,MI,NA,80.64516129032258,NA
48423,Genesee County,MI,NA,NA,35.16949152542373
48430,Genesee County,MI,NA,54.83870967741935,NA
48462,Oakland County,MI,75.39682539682539,NA,NA
48506,Genesee County,MI,NA,38.70967741935484,NA
48532,Genesee County,MI,NA,39.42652329749104,43.22033898305085
48604,Saginaw County,MI,56.74603174603175,NA,NA
48655,Saginaw County,MI,NA,NA,98.30508474576271
48732,Bay County,MI,NA,74.55197132616487,NA
48820,Clinton County,MI,93.65079365079364,NA,NA
49127,Berrien County,MI,NA,NA,91.52542372881356
49201,Jackson County,MI,NA,NA,6.3559322033898304
49203,Jackson County,MI,NA,8.60215053763441,NA
49316,Kent County,MI,50.79365079365079,NA,NA
49333,Barry County,MI,NA,67.38351254480287,NA
49435,Ottawa County,MI,98.80952380952381,NA,NA
49442,Muskegon County,MI,NA,NA,5.084745762711865
49507,Kent County,MI,4.365079365079365,NA,NA
49721,Cheboygan County,MI,NA,37.634408602150536,NA
55122,Dakota County,MN,NA,60.93189964157706,NA
55317,Carver County,MN,NA,93.1899641577061,NA
55420,Hennepin County,MN,NA,NA,39.40677966101695
55421,Anoka County,MN,NA,NA,37.71186440677966
55428,Hennepin County,MN,51.98412698412699,NA,NA
55443,Hennepin County,MN,NA,84.22939068100358,NA
55720,Carlton County,MN,NA,43.36917562724014,NA
56201,Kandiyohi County,MN,47.22222222222222,NA,NA
56283,Redwood County,MN,NA,NA,75.84745762711864
56308,Douglas County,MN,NA,14.336917562724013,NA
56353,Mille Lacs County,MN,83.33333333333334,NA,NA
56401,Crow Wing County,MN,NA,NA,2.11864406779661
38671,DeSoto County,MS,NA,77.77777777777779,NA
38732,Bolivar County,MS,39.285714285714285,NA,NA
39157,Madison County,MS,66.26984126984127,NA,NA
39507,Harrison County,MS,NA,NA,10.16949152542373
39571,Harrison County,MS,NA,NA,31.779661016949152
39759,Oktibbeha County,MS,NA,NA,57.6271186440678
63129,St. Louis County,MO,NA,33.691756272401435,NA
63141,St. Louis County,MO,NA,NA,27.11864406779661
63601,St. Francois County,MO,NA,NA,59.32203389830508
64068,Clay County,MO,8.333333333333332,NA,NA
64075,Jackson County,MO,NA,NA,74.57627118644068
64128,Jackson County,MO,NA,NA,88.5593220338983
64130,Jackson County,MO,NA,19.71326164874552,NA
64131,Jackson County,MO,NA,33.33333333333333,NA
64133,Jackson County,MO,NA,5.734767025089606,NA
64154,Platte County,MO,88.09523809523809,NA,NA
64801,Jasper County,MO,NA,16.129032258064516,NA
64836,Jasper County,MO,NA,NA,44.91525423728814
65708,Barry County,MO,NA,76.70250896057348,NA
59102,Yellowstone County,MT,NA,6.093189964157706,NA
59912,Flathead County,MT,71.42857142857143,NA,NA
68048,Cass County,NE,NA,NA,80.50847457627118
68128,Sarpy County,NE,NA,71.68458781362007,NA
68144,Douglas County,NE,NA,75.98566308243727,NA
68147,Sarpy County,NE,NA,87.45519713261649,NA
69101,Lincoln County,NE,NA,NA,11.864406779661017
69153,Keith County,NE,94.44444444444444,NA,68.64406779661016
89122,Clark County,NV,NA,48.028673835125446,NA
89128,Clark County,NV,51.19047619047619,NA,NA
89521,Washoe County,NV,NA,31.54121863799283,NA
03053,Rockingham County,NH,NA,58.78136200716846,NA
03076,Hillsborough County,NH,96.03174603174604,NA,NA
03079,Rockingham County,NH,NA,NA,22.88135593220339
03249,Belknap County,NH,85.71428571428571,NA,NA
03254,Carroll County,NH,NA,91.39784946236558,NA
03811,Rockingham County,NH,NA,NA,88.13559322033898
07009,Essex County,NJ,NA,NA,46.186440677966104
07082,Morris County,NJ,NA,96.415770609319,NA
07093,Hudson County,NJ,28.174603174603174,NA,NA
07111,Essex County,NJ,20.634920634920633,NA,NA
07442,Passaic County,NJ,NA,73.11827956989248,NA
07621,Bergen County,NJ,NA,NA,40.67796610169492
07724,Monmouth County,NJ,26.984126984126984,NA,NA
07726,Monmouth County,NJ,29.365079365079367,25.089605734767023,NA
07730,Monmouth County,NJ,NA,NA,60.59322033898306
07733,Monmouth County,NJ,NA,NA,57.20338983050848
07876,Morris County,NJ,89.28571428571429,NA,NA
07930,Morris County,NJ,NA,NA,87.28813559322035
08002,Camden County,NJ,NA,NA,64.83050847457628
08021,Camden County,NJ,0,NA,NA
08104,Camden County,NJ,0.3968253968253968,NA,NA
08234,Atlantic County,NJ,NA,46.59498207885305,52.54237288135594
08270,Cape May County,NJ,56.34920634920635,NA,NA
08322,Gloucester County,NJ,53.57142857142857,NA,NA
08330,Atlantic County,NJ,NA,29.39068100358423,NA
08505,Burlington County,NJ,NA,56.272401433691755,NA
08753,Ocean County,NJ,1.984126984126984,48.38709677419355,NA
08757,Ocean County,NJ,NA,NA,0.423728813559322
08865,Warren County,NJ,NA,NA,42.3728813559322
08876,Somerset County,NJ,20.238095238095237,NA,NA
87120,Bernalillo County,NM,9.126984126984127,NA,NA
87124,Sandoval County,NM,NA,11.11111111111111,NA
87301,McKinley County,NM,26.190476190476193,NA,NA
87507,Santa Fe County,NM,76.5873015873016,NA,NA
88007,Doa Ana County,NM,NA,NA,83.89830508474576
88130,Roosevelt County,NM,NA,NA,55.50847457627118
88310,Otero County,NM,NA,25.806451612903224,NA
10021,New York County,NY,NA,NA,90.2542372881356
10451,Bronx County,NY,NA,7.526881720430108,NA
10452,Bronx County,NY,NA,1.7921146953405016,NA
10456,Bronx County,NY,NA,0,NA
10463,Bronx County,NY,NA,4.659498207885305,19.06779661016949
10528,Westchester County,NY,90.47619047619048,NA,NA
10549,Westchester County,NY,NA,90.68100358422939,NA
10591,Westchester County,NY,63.888888888888886,NA,NA
10701,Westchester County,NY,NA,4.301075268817205,NA
10708,Westchester County,NY,NA,NA,40.25423728813559
11020,Nassau County,NY,NA,NA,94.91525423728814
11023,Nassau County,NY,NA,NA,79.23728813559322
11106,Queens County,NY,NA,NA,34.74576271186441
11218,Kings County,NY,65.47619047619048,NA,NA
11225,Kings County,NY,NA,50.89605734767025,NA
11226,Kings County,NY,3.571428571428571,NA,9.322033898305085
11230,Kings County,NY,17.063492063492063,NA,NA
11378,Queens County,NY,NA,57.34767025089605,NA
11426,Queens County,NY,NA,74.19354838709677,NA
11434,Queens County,NY,15.079365079365079,NA,NA
11553,Nassau County,NY,54.36507936507936,NA,NA
11590,Nassau County,NY,NA,NA,70.33898305084746
11598,Nassau County,NY,NA,100,NA
11714,Nassau County,NY,NA,NA,45.33898305084746
11784,Suffolk County,NY,NA,78.85304659498208,NA
12020,Saratoga County,NY,NA,NA,33.89830508474576
12204,Albany County,NY,NA,NA,66.94915254237289
12508,Dutchess County,NY,75,NA,NA
12534,Columbia County,NY,NA,NA,14.40677966101695
12866,Saratoga County,NY,14.285714285714285,NA,NA
13027,Onondaga County,NY,NA,68.45878136200717,NA
13205,Onondaga County,NY,13.88888888888889,NA,NA
13219,Onondaga County,NY,NA,NA,61.440677966101696
13224,Onondaga County,NY,89.68253968253968,NA,NA
13413,Oneida County,NY,NA,NA,55.08474576271186
13624,Jefferson County,NY,NA,97.84946236559139,NA
14120,Niagara County,NY,NA,NA,21.610169491525426
14212,Erie County,NY,NA,72.40143369175627,NA
14424,Ontario County,NY,NA,NA,44.06779661016949
14437,Livingston County,NY,NA,NA,83.05084745762711
14519,Wayne County,NY,NA,98.9247311827957,NA
14559,Monroe County,NY,10.714285714285714,NA,95.76271186440678
14615,Monroe County,NY,11.11111111111111,NA,NA
14626,Monroe County,NY,NA,NA,50
14904,Chemung County,NY,NA,41.57706093189964,NA
27030,Surry County,NC,NA,NA,0.847457627118644
27105,Forsyth County,NC,NA,2.5089605734767026,NA
27312,Chatham County,NC,NA,18.27956989247312,NA
27519,Wake County,NC,NA,52.68817204301075,NA
27526,Wake County,NC,NA,NA,17.796610169491526
27565,Granville County,NC,23.015873015873016,NA,NA
27707,Durham County,NC,NA,36.91756272401434,NA
28092,Lincoln County,NC,NA,NA,36.440677966101696
28170,Anson County,NC,NA,61.648745519713266,NA
28210,Mecklenburg County,NC,NA,56.63082437275986,NA
28269,Mecklenburg County,NC,44.84126984126984,NA,NA
28304,Cumberland County,NC,31.349206349206348,NA,NA
28376,Hoke County,NC,NA,32.61648745519714,NA
28379,Richmond County,NC,NA,26.16487455197133,NA
28398,Duplin County,NC,NA,NA,94.49152542372882
28470,Brunswick County,NC,86.5079365079365,NA,NA
28472,Columbus County,NC,NA,44.086021505376344,NA
28590,Pitt County,NC,60.71428571428571,NA,NA
28655,Burke County,NC,NA,3.942652329749104,NA
28785,Haywood County,NC,NA,NA,94.0677966101695
28901,Cherokee County,NC,NA,87.81362007168458,NA
58054,Ransom County,ND,NA,98.2078853046595,NA
43015,Delaware County,OH,NA,NA,2.9661016949152543
43054,Franklin County,OH,90.87301587301587,NA,NA
43537,Lucas County,OH,NA,65.59139784946237,NA
43614,Lucas County,OH,38.492063492063494,NA,NA
43701,Muskingum County,OH,NA,NA,1.2711864406779663
44004,Ashtabula County,OH,NA,64.87455197132617,NA
44012,Lorain County,OH,NA,7.885304659498208,NA
44039,Lorain County,OH,6.746031746031746,NA,NA
44053,Lorain County,OH,NA,NA,26.27118644067797
44077,Lake County,OH,2.7777777777777777,NA,NA
44103,Cuyahoga County,OH,53.17460317460318,NA,NA
44104,Cuyahoga County,OH,NA,18.996415770609318,NA
44109,Cuyahoga County,OH,NA,NA,3.389830508474576
44112,Cuyahoga County,OH,NA,NA,16.94915254237288
44122,Cuyahoga County,OH,NA,NA,0
44133,Cuyahoga County,OH,NA,NA,9.745762711864407
44141,Cuyahoga County,OH,NA,NA,33.05084745762712
44413,Columbiana County,OH,NA,68.10035842293907,NA
44460,Columbiana County,OH,NA,10.39426523297491,NA
44483,Trumbull County,OH,NA,13.978494623655912,NA
44515,Mahoning County,OH,10.317460317460316,NA,NA
44614,Stark County,OH,72.61904761904762,NA,NA
44654,Holmes County,OH,NA,77.41935483870968,NA
44662,Stark County,OH,NA,81.72043010752688,NA
44720,Stark County,OH,NA,NA,13.559322033898304
45039,Warren County,OH,NA,NA,71.1864406779661
45205,Hamilton County,OH,22.61904761904762,NA,NA
45230,Hamilton County,OH,NA,48.74551971326165,NA
45231,Hamilton County,OH,32.142857142857146,NA,NA
45232,Hamilton County,OH,73.01587301587301,NA,NA
45324,Greene County,OH,9.523809523809524,NA,NA
45385,Greene County,OH,NA,NA,32.6271186440678
45410,Montgomery County,OH,44.44444444444444,NA,NA
45503,Clark County,OH,30.555555555555557,NA,NA
45638,Lawrence County,OH,23.41269841269841,NA,NA
45694,Scioto County,OH,28.57142857142857,NA,NA
45714,Washington County,OH,NA,NA,60.16949152542372
45750,Washington County,OH,NA,1.0752688172043012,NA
45805,Allen County,OH,NA,60.215053763440864,NA
45891,Van Wert County,OH,NA,23.297491039426525,NA
73012,Oklahoma County,OK,NA,NA,51.271186440677965
73036,Canadian County,OK,42.46031746031746,NA,NA
73533,Stephens County,OK,71.03174603174604,NA,NA
74075,Payne County,OK,NA,57.70609318996416,NA
74137,Tulsa County,OK,NA,54.121863799283155,NA
74401,Muskogee County,OK,NA,55.55555555555556,NA
97223,Washington County,OR,NA,82.07885304659499,NA
97471,Douglas County,OR,NA,7.168458781362006,NA
15033,Washington County,PA,NA,87.09677419354838,81.77966101694916
15068,Westmoreland County,PA,19.841269841269842,NA,NA
15102,Allegheny County,PA,NA,27.24014336917563,NA
15120,Allegheny County,PA,46.42857142857143,NA,NA
15204,Allegheny County,PA,65.07936507936508,NA,NA
15301,Washington County,PA,5.555555555555555,NA,NA
15401,Fayette County,PA,NA,NA,6.779661016949152
15613,Westmoreland County,PA,NA,NA,84.32203389830508
15668,Westmoreland County,PA,NA,NA,29.66101694915254
15714,Cambria County,PA,NA,NA,97.03389830508475
15857,Elk County,PA,NA,NA,53.38983050847458
16301,Venango County,PA,NA,41.935483870967744,NA
17019,York County,PA,62.301587301587304,NA,NA
17033,Dauphin County,PA,NA,NA,78.38983050847457
17067,Lebanon County,PA,NA,NA,48.728813559322035
17268,Franklin County,PA,18.253968253968253,NA,NA
17408,York County,PA,NA,50.179211469534046,NA
17509,Lancaster County,PA,NA,96.7741935483871,NA
17777,Northumberland County,PA,NA,NA,67.37288135593221
18040,Northampton County,PA,NA,NA,36.016949152542374
18104,Lehigh County,PA,NA,5.017921146953405,NA
18202,Luzerne County,PA,NA,42.65232974910394,NA
18360,Monroe County,PA,NA,14.695340501792115,NA
18426,Pike County,PA,NA,NA,97.45762711864407
18447,Lackawanna County,PA,NA,69.89247311827957,NA
18702,Luzerne County,PA,6.349206349206349,NA,NA
18704,Luzerne County,PA,NA,NA,7.203389830508475
19013,Delaware County,PA,NA,NA,28.389830508474578
19018,Delaware County,PA,NA,35.12544802867383,NA
19139,Philadelphia County,PA,40.07936507936508,NA,NA
19140,Philadelphia County,PA,1.5873015873015872,NA,NA
19142,Philadelphia County,PA,13.492063492063492,NA,NA
19143,Philadelphia County,PA,7.142857142857142,NA,8.47457627118644
19144,Philadelphia County,PA,NA,11.469534050179211,NA
19145,Philadelphia County,PA,NA,NA,29.23728813559322
19382,Chester County,PA,15.873015873015872,NA,NA
02818,Kent County,RI,NA,NA,35.59322033898305
02852,Washington County,RI,NA,NA,30.508474576271187
02861,Providence County,RI,NA,28.673835125448026,NA
02886,Kent County,RI,32.53968253968254,NA,NA
02889,Kent County,RI,24.6031746031746,NA,NA
02895,Providence County,RI,41.269841269841265,NA,NA
02904,Providence County,RI,33.730158730158735,NA,NA
02908,Providence County,RI,NA,NA,25
29033,Lexington County,SC,NA,NA,77.11864406779661
29040,Sumter County,SC,95.23809523809523,NA,NA
29045,Kershaw County,SC,71.82539682539682,NA,NA
29102,Clarendon County,SC,NA,53.76344086021505,NA
29210,Richland County,SC,NA,NA,44.49152542372881
29223,Richland County,SC,NA,25.448028673835125,NA
29301,Spartanburg County,SC,62.698412698412696,NA,NA
29412,Charleston County,SC,NA,NA,13.135593220338984
29466,Charleston County,SC,NA,51.61290322580645,NA
29621,Anderson County,SC,NA,53.04659498207885,NA
29710,York County,SC,NA,49.82078853046595,NA
29801,Aiken County,SC,40.87301587301587,NA,NA
29851,Aiken County,SC,NA,85.66308243727599,NA
37087,Wilson County,TN,17.857142857142858,NA,NA
37172,Robertson County,TN,NA,31.182795698924732,NA
37211,Davidson County,TN,NA,19.35483870967742,NA
37659,Washington County,TN,NA,NA,22.45762711864407
37692,Unicoi County,TN,95.63492063492063,NA,NA
37779,Union County,TN,98.4126984126984,NA,NA
37874,Monroe County,TN,NA,NA,50.42372881355932
37890,Jefferson County,TN,87.3015873015873,NA,NA
38108,Shelby County,TN,54.761904761904766,NA,NA
38116,Shelby County,TN,19.444444444444446,NA,NA
38343,Gibson County,TN,NA,51.971326164874554,NA
38478,Giles County,TN,NA,59.85663082437276,NA
75010,Denton County,TX,91.66666666666666,NA,NA
75061,Dallas County,TX,NA,NA,41.10169491525424
75069,Collin County,TX,NA,NA,22.033898305084744
75071,Collin County,TX,NA,NA,61.86440677966102
75076,Grayson County,TX,NA,NA,97.88135593220339
75116,Dallas County,TX,NA,NA,77.54237288135593
75243,Dallas County,TX,14.682539682539684,NA,NA
75455,Titus County,TX,NA,47.31182795698925,NA
75457,Franklin County,TX,NA,NA,86.86440677966102
75789,Smith County,TX,NA,NA,76.27118644067797
76020,Tarrant County,TX,28.968253968253972,NA,NA
76039,Tarrant County,TX,68.65079365079364,NA,NA
76067,Palo Pinto County,TX,NA,55.91397849462365,NA
76117,Tarrant County,TX,NA,80.28673835125448,NA
76135,Tarrant County,TX,79.36507936507937,NA,NA
76180,Tarrant County,TX,NA,34.05017921146953,NA
76302,Wichita County,TX,70.23809523809523,NA,NA
76501,Bell County,TX,86.11111111111111,NA,NA
76504,Bell County,TX,9.920634920634921,NA,NA
77005,Harris County,TX,NA,NA,52.96610169491526
77029,Harris County,TX,NA,NA,74.15254237288136
77044,Harris County,TX,37.301587301587304,NA,90.67796610169492
77069,Harris County,TX,NA,44.80286738351255,NA
77075,Harris County,TX,50,NA,NA
77077,Harris County,TX,NA,65.23297491039428,NA
77084,Harris County,TX,12.3015873015873,NA,NA
77089,Harris County,TX,NA,32.25806451612903,NA
77302,Montgomery County,TX,NA,95.3405017921147,NA
77356,Montgomery County,TX,NA,NA,96.61016949152543
77381,Montgomery County,TX,65.87301587301587,NA,NA
77515,Brazoria County,TX,48.41269841269841,NA,NA
77523,Chambers County,TX,NA,63.08243727598566,NA
77632,Orange County,TX,75.79365079365078,NA,NA
77802,Brazos County,TX,NA,NA,8.898305084745763
77864,Madison County,TX,NA,84.58781362007169,NA
78065,Atascosa County,TX,85.31746031746032,NA,NA
78260,Bexar County,TX,NA,NA,81.35593220338984
78384,Duval County,TX,NA,NA,98.72881355932203
78416,Nueces County,TX,79.76190476190477,NA,NA
78633,Williamson County,TX,NA,15.053763440860216,NA
78645,Travis County,TX,84.52380952380952,NA,NA
78839,Zavala County,TX,NA,NA,96.1864406779661
78934,Colorado County,TX,NA,64.15770609318996,NA
79413,Lubbock County,TX,NA,NA,28.8135593220339
79414,Lubbock County,TX,NA,NA,49.57627118644068
79907,El Paso County,TX,NA,20.07168458781362,NA
84070,Salt Lake County,UT,NA,81.36200716845879,NA
05001,Windsor County,VT,81.74603174603175,NA,NA
05701,Rutland County,VT,NA,40.86021505376344,NA
22042,Fairfax County,VA,51.587301587301596,NA,NA
22408,Spotsylvania County,VA,64.28571428571429,NA,NA
22508,Orange County,VA,NA,NA,70.76271186440678
22973,Greene County,VA,NA,83.87096774193549,NA
23061,Gloucester County,VA,NA,NA,47.45762711864407
23116,Hanover County,VA,NA,53.40501792114696,NA
23223,Henrico County,VA,3.1746031746031744,NA,NA
23225,Richmond city,VA,NA,20.78853046594982,NA
23324,Chesapeake city,VA,NA,NA,32.20338983050847
23434,Suffolk city,VA,16.666666666666664,NA,NA
23452,Virginia Beach city,VA,NA,10.75268817204301,NA
23509,Norfolk city,VA,NA,NA,65.2542372881356
23707,Portsmouth city,VA,99.60317460317461,NA,NA
24013,Roanoke city,VA,NA,NA,93.64406779661016
24201,Bristol city,VA,NA,NA,41.52542372881356
98001,King County,WA,82.53968253968253,NA,NA
98037,Snohomish County,WA,90.07936507936508,NA,NA
98059,King County,WA,NA,27.956989247311824,NA
98126,King County,WA,59.92063492063492,NA,NA
98208,Snohomish County,WA,22.22222222222222,NA,NA
98260,Island County,WA,NA,88.5304659498208,NA
98282,Island County,WA,NA,82.43727598566308,NA
98296,Snohomish County,WA,47.61904761904761,NA,NA
98391,Pierce County,WA,NA,63.44086021505376,NA
98501,Thurston County,WA,NA,NA,42.79661016949153
99037,Spokane County,WA,NA,77.06093189964157,NA
99207,Spokane County,WA,NA,58.422939068100355,NA
99216,Spokane County,WA,63.095238095238095,NA,NA
99337,Benton County,WA,NA,8.24372759856631,NA
99338,Benton County,WA,NA,30.824372759856633,NA
99354,Benton County,WA,44.047619047619044,NA,NA
20015,District of Columbia,DC,NA,NA,60.59322033898306
25271,Jackson County,WV,NA,59.13978494623656,NA
25301,Kanawha County,WV,NA,NA,100
25510,Cabell County,WV,81.34920634920636,NA,NA
25661,Mingo County,WV,NA,72.75985663082437,NA
26003,Ohio County,WV,NA,2.1505376344086025,1.694915254237288
26037,Brooke County,WV,NA,NA,63.559322033898304
26101,Wood County,WV,45.23809523809524,NA,16.52542372881356
26150,Wood County,WV,NA,79.92831541218638,NA
26452,Lewis County,WV,NA,30.107526881720432,NA
26554,Marion County,WV,NA,16.845878136200717,NA
53012,Ozaukee County,WI,NA,49.10394265232975,NA
53051,Waukesha County,WI,NA,22.939068100358423,NA
53072,Waukesha County,WI,57.936507936507944,NA,NA
53090,Washington County,WI,NA,92.47311827956989,NA
53098,Dodge County,WI,84.12698412698413,NA,NA
53128,Walworth County,WI,68.25396825396825,NA,NA
53129,Milwaukee County,WI,NA,NA,45.76271186440678
53140,Kenosha County,WI,NA,NA,23.728813559322035
53188,Waukesha County,WI,NA,NA,25.423728813559322
53205,Milwaukee County,WI,2.380952380952381,NA,NA
53210,Milwaukee County,WI,NA,77.77777777777779,NA
53214,Milwaukee County,WI,11.507936507936508,NA,NA
53227,Milwaukee County,WI,36.507936507936506,NA,NA
53406,Racine County,WI,NA,37.27598566308244,NA
53548,Rock County,WI,25,NA,NA
54403,Marathon County,WI,NA,NA,12.288135593220339
54601,La Crosse County,WI,NA,NA,12.711864406779661
54703,Eau Claire County,WI,NA,NA,31.35593220338983
54751,Dunn County,WI,34.523809523809526,NA,NA
54880,Douglas County,WI,15.476190476190476,NA,NA
54901,Winnebago County,WI,NA,27.598566308243726,NA
54956,Winnebago County,WI,NA,31.899641577060933,NA
54983,Waupaca County,WI,NA,88.5304659498208,NA
