ZipCode,county,state,Adult
35055,Cullman County,AL,65.0314465408805
35150,Talladega County,AL,51.19496855345912
35401,Tuscaloosa County,AL,34.71698113207547
36116,Montgomery County,AL,28.050314465408803
36477,Geneva County,AL,92.57861635220127
36575,Mobile County,AL,68.80503144654088
36580,Baldwin County,AL,97.35849056603773
36854,Chambers County,AL,72.45283018867924
85015,Maricopa County,AZ,25.534591194968552
85050,Maricopa County,AZ,64.90566037735849
85201,Maricopa County,AZ,19.49685534591195
85210,Maricopa County,AZ,66.16352201257861
85302,Maricopa County,AZ,34.33962264150943
85364,Yuma County,AZ,5.031446540880504
85381,Maricopa County,AZ,73.45911949685534
85552,Graham County,AZ,89.05660377358491
85635,Cochise County,AZ,33.58490566037736
85706,Pima County,AZ,3.5220125786163523
85710,Pima County,AZ,12.830188679245284
85716,Pima County,AZ,24.654088050314467
85718,Pima County,AZ,68.55345911949685
85719,Pima County,AZ,75.59748427672956
86040,Coconino County,AZ,74.59119496855345
71854,Miller County,AR,48.42767295597484
90007,Los Angeles County,CA,38.23899371069183
90044,Los Angeles County,CA,9.937106918238994
90221,Los Angeles County,CA,14.339622641509434
90245,Los Angeles County,CA,96.72955974842768
90260,Los Angeles County,CA,83.27044025157232
90501,Los Angeles County,CA,59.11949685534591
90640,Los Angeles County,CA,98.86792452830188
90744,Los Angeles County,CA,88.93081761006289
90745,Los Angeles County,CA,79.87421383647799
91042,Los Angeles County,CA,81.50943396226415
91104,Los Angeles County,CA,54.84276729559748
91203,Los Angeles County,CA,95.72327044025157
91335,Los Angeles County,CA,73.58490566037736
91387,Los Angeles County,CA,55.59748427672956
91731,Los Angeles County,CA,46.918238993710695
91911,San Diego County,CA,31.82389937106918
92019,San Diego County,CA,57.10691823899371
92240,Riverside County,CA,29.68553459119497
92252,San Bernardino County,CA,82.26415094339623
92284,San Bernardino County,CA,69.0566037735849
92374,San Bernardino County,CA,81.88679245283019
92399,San Bernardino County,CA,40.62893081761006
92404,San Bernardino County,CA,58.74213836477987
92606,Orange County,CA,87.16981132075472
92630,Orange County,CA,43.89937106918239
92704,Orange County,CA,74.96855345911949
93036,Ventura County,CA,40.503144654088054
93401,San Luis Obispo County,CA,93.83647798742139
93436,Santa Barbara County,CA,22.641509433962266
93555,Kern County,CA,33.9622641509434
93657,Fresno County,CA,66.54088050314465
93703,Fresno County,CA,54.465408805031444
93705,Fresno County,CA,43.39622641509434
93720,Fresno County,CA,43.522012578616355
93722,Fresno County,CA,12.830188679245284
93726,Fresno County,CA,28.553459119496853
93727,Fresno County,CA,20.628930817610065
94063,San Mateo County,CA,53.20754716981132
94105,San Francisco County,CA,97.10691823899371
94127,San Francisco County,CA,90.9433962264151
94509,Contra Costa County,CA,29.559748427672954
94519,Contra Costa County,CA,93.08176100628931
94565,Contra Costa County,CA,29.056603773584904
94590,Solano County,CA,37.61006289308176
94609,Alameda County,CA,90.81761006289308
95060,Santa Cruz County,CA,93.58490566037736
95240,San Joaquin County,CA,22.51572327044025
95626,Sacramento County,CA,99.24528301886792
95648,Placer County,CA,70.31446540880502
95687,Solano County,CA,79.11949685534591
95757,Sacramento County,CA,83.52201257861635
95822,Sacramento County,CA,49.81132075471698
95823,Sacramento County,CA,17.61006289308176
95831,Sacramento County,CA,67.79874213836477
95864,Sacramento County,CA,86.41509433962264
95973,Butte County,CA,30.566037735849054
96001,Shasta County,CA,28.17610062893082
96122,Plumas County,CA,99.49685534591195
80012,Arapahoe County,CO,15.849056603773585
80204,Denver County,CO,28.67924528301887
80221,Adams County,CO,41.63522012578616
80525,Larimer County,CO,56.477987421383645
80547,Larimer County,CO,99.62264150943396
80601,Adams County,CO,43.77358490566038
80907,El Paso County,CO,62.76729559748427
80909,El Paso County,CO,32.83018867924528
80919,El Paso County,CO,79.37106918238995
81504,Mesa County,CO,40.75471698113208
81625,Moffat County,CO,50.56603773584906
06040,Hartford County,CT,14.08805031446541
06082,Hartford County,CT,25.91194968553459
06106,Hartford County,CT,6.7924528301886795
06226,Windham County,CT,23.39622641509434
06281,Windham County,CT,75.47169811320755
06457,Middlesex County,CT,40.88050314465409
06511,New Haven County,CT,6.540880503144654
06513,New Haven County,CT,6.037735849056604
06518,New Haven County,CT,88.55345911949686
06604,Fairfield County,CT,26.79245283018868
06605,Fairfield County,CT,44.27672955974843
06611,Fairfield County,CT,84.15094339622642
06776,Litchfield County,CT,37.735849056603776
19701,New Castle County,DE,36.10062893081761
19720,New Castle County,DE,4.0251572327044025
32011,Nassau County,FL,69.68553459119497
32097,Nassau County,FL,66.91823899371069
32128,Volusia County,FL,91.44654088050315
32208,Duval County,FL,13.20754716981132
32210,Duval County,FL,27.79874213836478
32277,Duval County,FL,30.440251572327043
32303,Leon County,FL,82.26415094339623
32308,Leon County,FL,81.76100628930818
32446,Jackson County,FL,73.83647798742138
32505,Escambia County,FL,59.62264150943396
32536,Okaloosa County,FL,70.062893081761
32539,Okaloosa County,FL,51.069182389937104
32548,Okaloosa County,FL,74.33962264150942
32567,Okaloosa County,FL,99.87421383647799
32608,Alachua County,FL,96.47798742138365
32680,Dixie County,FL,97.73584905660377
32703,Orange County,FL,30.81761006289308
32708,Seminole County,FL,56.35220125786164
32766,Seminole County,FL,96.98113207547169
32940,Brevard County,FL,76.47798742138366
33037,Monroe County,FL,92.95597484276729
33040,Monroe County,FL,55.094339622641506
33056,Miami-Dade County,FL,50.81761006289308
33138,Miami-Dade County,FL,79.62264150943396
33147,Miami-Dade County,FL,42.26415094339623
33157,Miami-Dade County,FL,76.72955974842768
33160,Miami-Dade County,FL,75.84905660377359
33175,Miami-Dade County,FL,65.53459119496856
33176,Miami-Dade County,FL,76.9811320754717
33309,Broward County,FL,68.30188679245282
33311,Broward County,FL,9.811320754716983
33407,Palm Beach County,FL,39.119496855345915
33413,Palm Beach County,FL,89.68553459119497
33527,Hillsborough County,FL,89.937106918239
33563,Hillsborough County,FL,58.61635220125786
33573,Hillsborough County,FL,96.22641509433963
33606,Hillsborough County,FL,91.57232704402516
33613,Hillsborough County,FL,52.075471698113205
33624,Hillsborough County,FL,63.39622641509434
33637,Hillsborough County,FL,88.0503144654088
33801,Polk County,FL,31.19496855345912
33823,Polk County,FL,46.0377358490566
33953,Charlotte County,FL,97.23270440251572
34221,Manatee County,FL,48.930817610062896
34287,Sarasota County,FL,62.0125786163522
34442,Citrus County,FL,86.54088050314466
34476,Marion County,FL,70.18867924528301
34655,Pasco County,FL,43.144654088050316
34974,Okeechobee County,FL,64.27672955974842
34997,Martin County,FL,39.24528301886793
30004,Fulton County,GA,52.327044025157235
30019,Gwinnett County,GA,49.937106918238996
30066,Cobb County,GA,57.9874213836478
30116,Carroll County,GA,58.23899371069182
30122,Douglas County,GA,65.9119496855346
30134,Douglas County,GA,33.83647798742138
30213,Fulton County,GA,63.64779874213836
30240,Troup County,GA,34.84276729559748
30263,Coweta County,GA,14.716981132075471
30291,Fulton County,GA,49.685534591194966
30344,Fulton County,GA,54.71698113207547
30517,Jackson County,GA,89.05660377358491
30655,Walton County,GA,46.540880503144656
30705,Murray County,GA,39.62264150943396
30750,Walker County,GA,98.49056603773585
30755,Whitfield County,GA,72.70440251572326
30904,Richmond County,GA,45.0314465408805
31503,Ware County,GA,61.76100628930817
31602,Lowndes County,GA,48.0503144654088
96825,Honolulu County,HI,63.270440251572325
83605,Canyon County,ID,70.31446540880502
83706,Ada County,ID,38.61635220125786
60087,Lake County,IL,77.9874213836478
60110,Kane County,IL,59.37106918238994
60123,Kane County,IL,28.427672955974842
60142,McHenry County,IL,52.83018867924528
60148,DuPage County,IL,21.132075471698116
60152,McHenry County,IL,84.52830188679246
60175,Kane County,IL,36.72955974842767
60411,Cook County,IL,18.364779874213834
60438,Cook County,IL,82.8930817610063
60447,Grundy County,IL,66.41509433962264
60463,Cook County,IL,82.13836477987422
60487,Cook County,IL,66.0377358490566
60609,Cook County,IL,47.924528301886795
60615,Cook County,IL,68.42767295597484
60622,Cook County,IL,47.16981132075472
60629,Cook County,IL,35.72327044025157
60632,Cook County,IL,19.245283018867926
60637,Cook County,IL,56.477987421383645
60641,Cook County,IL,18.742138364779873
60643,Cook County,IL,12.327044025157234
60649,Cook County,IL,19.622641509433965
60651,Cook County,IL,42.89308176100629
60804,Cook County,IL,27.169811320754718
60901,Kankakee County,IL,23.52201257861635
61008,Boone County,IL,75.72327044025158
61282,Rock Island County,IL,93.45911949685535
61704,McLean County,IL,48.80503144654088
62088,Macoupin County,IL,94.46540880503144
62206,St. Clair County,IL,77.73584905660378
62254,St. Clair County,IL,98.11320754716981
62301,Adams County,IL,44.65408805031446
62521,Macon County,IL,18.238993710691823
62526,Macon County,IL,16.60377358490566
46012,Madison County,IN,78.74213836477988
46041,Clinton County,IN,75.84905660377359
46222,Marion County,IN,27.29559748427673
46224,Marion County,IN,85.78616352201259
46226,Marion County,IN,17.10691823899371
46235,Marion County,IN,26.91823899371069
46324,Lake County,IN,23.647798742138367
46526,Elkhart County,IN,66.79245283018868
46614,St. Joseph County,IN,89.05660377358491
46723,Whitley County,IN,92.32704402515724
46901,Howard County,IN,2.515723270440252
46902,Howard County,IN,48.55345911949686
47129,Clark County,IN,62.38993710691824
47150,Floyd County,IN,14.842767295597485
47909,Tippecanoe County,IN,50.44025157232704
50021,Polk County,IA,82.76729559748428
50035,Polk County,IA,99.11949685534591
50220,Dallas County,IA,80.12578616352202
50315,Polk County,IA,12.20125786163522
50461,Mitchell County,IA,94.9685534591195
51360,Dickinson County,IA,92.20125786163523
51501,Pottawattamie County,IA,4.40251572327044
51503,Pottawattamie County,IA,11.823899371069183
52349,Benton County,IA,81.13207547169812
52404,Linn County,IA,12.075471698113208
52501,Wapello County,IA,20.37735849056604
52732,Clinton County,IA,29.30817610062893
66106,Wyandotte County,KS,57.73584905660377
67217,Sedgwick County,KS,62.38993710691824
40165,Bullitt County,KY,20.125786163522015
40214,Jefferson County,KY,9.433962264150944
40216,Jefferson County,KY,45.15723270440252
40291,Jefferson County,KY,24.528301886792452
40311,Nicholas County,KY,81.25786163522012
40330,Mercer County,KY,63.14465408805031
40504,Fayette County,KY,53.333333333333336
41018,Kenton County,KY,34.21383647798742
42164,Allen County,KY,49.18238993710692
70006,Jefferson Parish,LA,60.37735849056604
70113,Orleans Parish,LA,98.74213836477988
70117,Orleans Parish,LA,29.81132075471698
70122,Orleans Parish,LA,7.421383647798742
70125,Orleans Parish,LA,46.666666666666664
70127,Orleans Parish,LA,10.440251572327044
70364,Terrebonne Parish,LA,10.943396226415095
70433,St. Tammany Parish,LA,9.30817610062893
70501,Lafayette Parish,LA,93.33333333333333
70548,Vermilion Parish,LA,45.28301886792453
70706,Livingston Parish,LA,42.138364779874216
70726,Livingston Parish,LA,1.8867924528301887
70814,East Baton Rouge Parish,LA,45.534591194968556
71040,Claiborne Parish,LA,77.23270440251572
71064,Bossier Parish,LA,99.37106918238993
71101,Caddo Parish,LA,59.496855345911946
71203,Ouachita Parish,LA,11.572327044025158
71291,Ouachita Parish,LA,14.213836477987421
71409,Rapides Parish,LA,80.62893081761007
04769,Aroostook County,ME,71.82389937106917
20707,Prince George's County,MD,92.0754716981132
20740,Prince George's County,MD,94.21383647798743
20747,Prince George's County,MD,57.61006289308176
20832,Montgomery County,MD,86.28930817610063
21032,Anne Arundel County,MD,95.09433962264151
21044,Howard County,MD,59.24528301886792
21128,Baltimore County,MD,91.06918238993711
21220,Baltimore County,MD,24.90566037735849
21224,Baltimore city,MD,23.270440251572328
21226,Anne Arundel County,MD,97.86163522012579
21228,Baltimore County,MD,61.50943396226415
21703,Frederick County,MD,70.69182389937106
01104,Hampden County,MA,1.6352201257861636
01108,Hampden County,MA,48.679245283018865
01226,Berkshire County,MA,84.65408805031447
01247,Berkshire County,MA,8.176100628930817
01610,Worcester County,MA,0.7547169811320755
01776,Middlesex County,MA,53.459119496855344
01824,Middlesex County,MA,97.48427672955975
01826,Middlesex County,MA,95.34591194968553
01832,Essex County,MA,4.654088050314465
01841,Essex County,MA,25.157232704402517
01844,Essex County,MA,27.547169811320753
01886,Middlesex County,MA,30.69182389937107
01887,Middlesex County,MA,9.182389937106917
01930,Essex County,MA,4.779874213836479
01940,Essex County,MA,72.20125786163521
01960,Essex County,MA,1.0062893081761006
02062,Norfolk County,MA,20.251572327044027
02119,Suffolk County,MA,34.9685534591195
02122,Suffolk County,MA,67.9245283018868
02124,Suffolk County,MA,39.37106918238994
02125,Suffolk County,MA,0.5031446540880503
02128,Suffolk County,MA,0.37735849056603776
02129,Suffolk County,MA,4.905660377358491
02130,Suffolk County,MA,1.3836477987421385
02132,Suffolk County,MA,17.358490566037734
02134,Suffolk County,MA,16.9811320754717
02136,Suffolk County,MA,2.138364779874214
02138,Middlesex County,MA,96.35220125786164
02139,Middlesex County,MA,0.25157232704402516
02141,Middlesex County,MA,38.742138364779876
02143,Middlesex County,MA,7.672955974842767
02149,Middlesex County,MA,0.12578616352201258
02186,Norfolk County,MA,19.87421383647799
02301,Plymouth County,MA,0
02474,Middlesex County,MA,93.71069182389937
02481,Norfolk County,MA,66.91823899371069
02632,Barnstable County,MA,98.36477987421384
02703,Bristol County,MA,9.685534591194969
02721,Bristol County,MA,0.628930817610063
02769,Bristol County,MA,57.23270440251572
48009,Oakland County,MI,61.38364779874214
48044,Macomb County,MI,41.509433962264154
48060,St. Clair County,MI,4.150943396226415
48094,Macomb County,MI,60.880503144654085
48117,Monroe County,MI,62.76729559748427
48118,Washtenaw County,MI,85.40880503144655
48161,Monroe County,MI,10.566037735849058
48170,Wayne County,MI,19.371069182389938
48185,Wayne County,MI,7.79874213836478
48186,Wayne County,MI,8.30188679245283
48197,Washtenaw County,MI,21.0062893081761
48207,Wayne County,MI,26.163522012578618
48212,Wayne County,MI,13.584905660377359
48213,Wayne County,MI,15.220125786163521
48221,Wayne County,MI,33.081761006289305
48224,Wayne County,MI,55.471698113207545
48228,Wayne County,MI,1.7610062893081762
48317,Macomb County,MI,30.062893081761004
48374,Oakland County,MI,82.51572327044026
48420,Genesee County,MI,56.9811320754717
48446,Lapeer County,MI,20.88050314465409
48503,Genesee County,MI,25.031446540880502
48506,Genesee County,MI,32.32704402515723
48529,Genesee County,MI,94.59119496855347
48601,Saginaw County,MI,2.2641509433962264
48623,Saginaw County,MI,53.71069182389937
48650,Bay County,MI,86.66666666666667
48706,Bay County,MI,10.314465408805033
48746,Tuscola County,MI,86.16352201257862
48827,Eaton County,MI,52.327044025157235
49004,Kalamazoo County,MI,53.83647798742138
49009,Kalamazoo County,MI,17.48427672955975
49048,Kalamazoo County,MI,24.40251572327044
49221,Lenawee County,MI,5.660377358490567
49236,Lenawee County,MI,95.84905660377359
49420,Oceana County,MI,80.25157232704403
49424,Ottawa County,MI,21.761006289308177
49426,Ottawa County,MI,50.943396226415096
49442,Muskegon County,MI,46.28930817610063
49460,Ottawa County,MI,95.59748427672956
49503,Kent County,MI,15.09433962264151
49504,Kent County,MI,20.754716981132077
49507,Kent County,MI,7.169811320754717
49508,Kent County,MI,8.050314465408805
49849,Marquette County,MI,58.11320754716981
55126,Ramsey County,MN,71.0691823899371
55128,Washington County,MN,58.9937106918239
55304,Anoka County,MN,80.50314465408806
55350,McLeod County,MN,71.57232704402516
55364,Hennepin County,MN,87.79874213836479
55371,Mille Lacs County,MN,61.0062893081761
55404,Hennepin County,MN,1.509433962264151
55406,Hennepin County,MN,32.70440251572327
55418,Hennepin County,MN,36.35220125786163
55423,Hennepin County,MN,61.63522012578616
55441,Hennepin County,MN,80.75471698113208
55444,Hennepin County,MN,67.54716981132076
55447,Hennepin County,MN,82.0125786163522
55448,Anoka County,MN,51.57232704402516
55744,Itasca County,MN,22.38993710691824
55746,St. Louis County,MN,33.459119496855344
55805,St. Louis County,MN,55.34591194968554
56073,Brown County,MN,29.937106918238992
56470,Hubbard County,MN,76.47798742138366
56472,Crow Wing County,MN,78.49056603773586
56633,Hubbard County,MN,91.69811320754717
56636,Itasca County,MN,83.64779874213836
56671,Beltrami County,MN,95.09433962264151
56721,Polk County,MN,86.9182389937107
38751,Sunflower County,MS,88.17610062893083
39111,Simpson County,MS,83.14465408805032
39120,Adams County,MS,51.82389937106918
39154,Hinds County,MS,90.44025157232704
39648,Pike County,MS,61.886792452830186
63033,St. Louis County,MO,22.767295597484278
63841,Stoddard County,MO,60.37735849056604
64063,Jackson County,MO,49.43396226415094
64080,Cass County,MO,72.70440251572326
64109,Jackson County,MO,36.855345911949684
68134,Douglas County,NE,67.29559748427673
68135,Douglas County,NE,79.74842767295598
89148,Clark County,NV,56.10062893081761
89166,Clark County,NV,72.95597484276729
89801,Elko County,NV,75.09433962264151
07055,Passaic County,NJ,56.22641509433962
07060,Union County,NJ,98.23899371069183
07087,Hudson County,NJ,4.276729559748428
07105,Essex County,NJ,16.729559748427672
07304,Hudson County,NJ,68.67924528301886
07305,Hudson County,NJ,7.044025157232705
07522,Passaic County,NJ,31.69811320754717
07726,Monmouth County,NJ,40
07869,Morris County,NJ,86.66666666666667
07924,Somerset County,NJ,98.61635220125787
08010,Burlington County,NJ,59.74842767295597
08030,Camden County,NJ,94.71698113207547
08034,Camden County,NJ,44.905660377358494
08046,Burlington County,NJ,8.427672955974842
08053,Burlington County,NJ,33.71069182389937
08096,Gloucester County,NJ,6.666666666666667
08103,Camden County,NJ,6.415094339622642
08104,Camden County,NJ,9.559748427672957
08527,Ocean County,NJ,12.70440251572327
08854,Middlesex County,NJ,11.320754716981133
08872,Middlesex County,NJ,65.66037735849056
87102,Bernalillo County,NM,29.18238993710692
87416,San Juan County,NM,97.9874213836478
88001,Doa Ana County,NM,69.43396226415094
88063,Doa Ana County,NM,79.49685534591195
10017,New York County,NY,97.61006289308176
10032,New York County,NY,47.29559748427673
10033,New York County,NY,57.861635220125784
10038,New York County,NY,57.484276729559745
10039,New York County,NY,73.33333333333333
10303,Richmond County,NY,50.314465408805034
10453,Bronx County,NY,1.1320754716981132
10455,Bronx County,NY,28.30188679245283
10457,Bronx County,NY,0.8805031446540881
10458,Bronx County,NY,41.76100628930818
10466,Bronx County,NY,6.163522012578617
10467,Bronx County,NY,18.49056603773585
10977,Rockland County,NY,41.38364779874214
11212,Kings County,NY,1.257861635220126
11213,Kings County,NY,31.949685534591193
11221,Kings County,NY,43.64779874213836
11226,Kings County,NY,5.4088050314465415
11229,Kings County,NY,69.81132075471697
11236,Kings County,NY,5.786163522012579
11372,Queens County,NY,40.125786163522015
11377,Queens County,NY,23.89937106918239
11412,Queens County,NY,84.77987421383648
11420,Queens County,NY,84.40251572327044
11691,Queens County,NY,74.84276729559748
11735,Nassau County,NY,67.29559748427673
11798,Suffolk County,NY,85.66037735849056
12020,Saratoga County,NY,26.41509433962264
12051,Greene County,NY,93.20754716981132
12202,Albany County,NY,35.471698113207545
12534,Columbia County,NY,21.50943396226415
12839,Washington County,NY,35.9748427672956
12946,Essex County,NY,46.16352201257862
13027,Onondaga County,NY,18.9937106918239
13053,Tompkins County,NY,86.0377358490566
13074,Oswego County,NY,85.9119496855346
13209,Onondaga County,NY,56.855345911949684
13323,Oneida County,NY,77.10691823899371
13365,Herkimer County,NY,44.40251572327044
13617,St. Lawrence County,NY,76.10062893081762
13655,St. Lawrence County,NY,89.43396226415095
13820,Otsego County,NY,13.459119496855346
13901,Broome County,NY,5.283018867924529
13905,Broome County,NY,2.0125786163522013
14043,Erie County,NY,74.71698113207546
14048,Chautauqua County,NY,47.0440251572327
14094,Niagara County,NY,2.3899371069182394
14120,Niagara County,NY,30.18867924528302
14208,Erie County,NY,37.86163522012579
14209,Erie County,NY,77.61006289308176
14210,Erie County,NY,68.93081761006289
14211,Erie County,NY,11.69811320754717
14213,Erie County,NY,77.48427672955975
14215,Erie County,NY,51.698113207547166
14224,Erie County,NY,34.088050314465406
14225,Erie County,NY,11.949685534591195
14414,Livingston County,NY,72.57861635220125
14420,Monroe County,NY,22.0125786163522
14424,Ontario County,NY,3.647798742138365
14450,Monroe County,NY,3.89937106918239
14456,Ontario County,NY,10.18867924528302
14526,Monroe County,NY,21.635220125786166
14534,Monroe County,NY,8.930817610062892
14559,Monroe County,NY,15.345911949685535
14580,Monroe County,NY,9.056603773584905
14586,Monroe County,NY,42.0125786163522
14612,Monroe County,NY,2.6415094339622645
14617,Monroe County,NY,8.679245283018867
14620,Monroe County,NY,35.22012578616352
14624,Monroe County,NY,22.89308176100629
14850,Tompkins County,NY,6.918238993710692
27006,Davie County,NC,71.32075471698113
27051,Forsyth County,NC,85.15723270440252
27107,Forsyth County,NC,5.911949685534592
27263,Randolph County,NC,54.21383647798742
27288,Rockingham County,NC,18.61635220125786
27320,Rockingham County,NC,15.723270440251572
27406,Guilford County,NC,27.92452830188679
27510,Orange County,NC,69.30817610062893
27526,Wake County,NC,35.84905660377358
27529,Wake County,NC,32.57861635220126
27603,Wake County,NC,29.433962264150942
27604,Wake County,NC,43.0188679245283
27614,Wake County,NC,76.22641509433963
27705,Durham County,NC,64.52830188679245
27707,Durham County,NC,17.9874213836478
27713,Durham County,NC,32.20125786163522
27889,Beaufort County,NC,41.0062893081761
28078,Mecklenburg County,NC,73.9622641509434
28203,Mecklenburg County,NC,88.42767295597484
28208,Mecklenburg County,NC,13.081761006289309
28211,Mecklenburg County,NC,40.25157232704403
28215,Mecklenburg County,NC,21.88679245283019
28227,Mecklenburg County,NC,27.044025157232703
28301,Cumberland County,NC,47.54716981132076
28320,Bladen County,NC,81.63522012578616
28383,Robeson County,NC,87.29559748427673
28532,Craven County,NC,78.8679245283019
28546,Onslow County,NC,34.59119496855346
28560,Craven County,NC,37.9874213836478
28590,Pitt County,NC,90.18867924528303
28607,Watauga County,NC,61.0062893081761
28645,Caldwell County,NC,5.157232704402516
28801,Buncombe County,NC,94.0880503144654
58554,Morton County,ND,46.79245283018868
43015,Delaware County,OH,87.9245283018868
43062,Licking County,OH,45.78616352201258
43110,Franklin County,OH,31.32075471698113
43211,Franklin County,OH,14.59119496855346
43213,Franklin County,OH,45.660377358490564
43215,Franklin County,OH,49.056603773584904
43219,Franklin County,OH,21.38364779874214
43222,Franklin County,OH,65.28301886792453
43229,Franklin County,OH,8.553459119496855
43232,Franklin County,OH,27.67295597484277
43302,Marion County,OH,2.767295597484277
43311,Logan County,OH,39.87421383647799
43420,Sandusky County,OH,13.962264150943396
43517,Williams County,OH,91.19496855345912
43528,Lucas County,OH,50.18867924528302
43537,Lucas County,OH,37.35849056603773
43605,Lucas County,OH,2.8930817610062896
43607,Lucas County,OH,35.34591194968553
43608,Lucas County,OH,11.446540880503145
43950,Belmont County,OH,80.25157232704403
44012,Lorain County,OH,44.77987421383648
44035,Lorain County,OH,3.7735849056603774
44039,Lorain County,OH,11.069182389937108
44052,Lorain County,OH,3.1446540880503147
44103,Cuyahoga County,OH,12.578616352201259
44111,Cuyahoga County,OH,33.20754716981132
44115,Cuyahoga County,OH,96.85534591194968
44119,Cuyahoga County,OH,27.42138364779874
44123,Cuyahoga County,OH,84.27672955974843
44128,Cuyahoga County,OH,3.3962264150943398
44137,Cuyahoga County,OH,7.9245283018867925
44139,Cuyahoga County,OH,81.00628930817611
44221,Summit County,OH,20.50314465408805
44223,Summit County,OH,57.35849056603774
44270,Wayne County,OH,71.19496855345912
44281,Medina County,OH,28.67924528301887
44310,Summit County,OH,14.465408805031446
44314,Summit County,OH,92.45283018867924
44405,Mahoning County,OH,83.39622641509435
44502,Mahoning County,OH,52.20125786163522
44512,Mahoning County,OH,13.836477987421384
44691,Wayne County,OH,40.37735849056604
45011,Butler County,OH,2.8930817610062896
45013,Butler County,OH,4.528301886792453
45066,Warren County,OH,71.69811320754717
45211,Hamilton County,OH,64.0251572327044
45227,Hamilton County,OH,58.490566037735846
45229,Hamilton County,OH,38.9937106918239
45231,Hamilton County,OH,11.19496855345912
45232,Hamilton County,OH,83.01886792452831
45237,Hamilton County,OH,38.113207547169814
45342,Montgomery County,OH,15.59748427672956
45347,Preble County,OH,83.64779874213836
45385,Greene County,OH,16.352201257861633
45417,Montgomery County,OH,42.515723270440255
45424,Montgomery County,OH,47.79874213836478
45619,Lawrence County,OH,36.22641509433962
45840,Hancock County,OH,3.270440251572327
73025,Oklahoma County,OK,78.36477987421384
73089,Grady County,OK,87.54716981132076
73114,Oklahoma County,OK,64.15094339622641
73127,Oklahoma County,OK,60.37735849056604
74074,Payne County,OK,55.59748427672956
74075,Payne County,OK,70.81761006289308
97103,Clatsop County,OR,63.899371069182386
97116,Washington County,OR,85.03144654088051
97206,Multnomah County,OR,18.867924528301888
97230,Multnomah County,OR,30.31446540880503
97305,Marion County,OR,34.465408805031444
97330,Benton County,OR,60.75471698113207
97496,Douglas County,OR,64.77987421383648
97601,Klamath County,OR,24.150943396226417
97624,Klamath County,OR,98.9937106918239
97818,Morrow County,OR,91.82389937106919
97838,Umatilla County,OR,24.0251572327044
15068,Westmoreland County,PA,25.660377358490567
15074,Beaver County,PA,73.71069182389937
15120,Allegheny County,PA,54.9685534591195
15122,Allegheny County,PA,60
15202,Allegheny County,PA,61.257861635220124
15208,Allegheny County,PA,62.64150943396226
15239,Allegheny County,PA,88.30188679245283
15642,Westmoreland County,PA,28.930817610062892
16101,Lawrence County,PA,35.59748427672956
16412,Erie County,PA,93.9622641509434
16502,Erie County,PA,53.58490566037736
17046,Lebanon County,PA,13.333333333333334
17057,Dauphin County,PA,24.77987421383648
17067,Lebanon County,PA,74.21383647798741
17110,Dauphin County,PA,22.138364779874216
17257,Cumberland County,PA,31.572327044025155
17315,York County,PA,36.477987421383645
17406,York County,PA,45.911949685534594
18020,Northampton County,PA,53.081761006289305
18045,Northampton County,PA,47.54716981132076
18424,Lackawanna County,PA,95.47169811320755
18518,Lackawanna County,PA,89.55974842767296
18914,Bucks County,PA,69.18238993710692
19013,Delaware County,PA,25.78616352201258
19023,Delaware County,PA,38.86792452830189
19050,Delaware County,PA,90.31446540880503
19119,Philadelphia County,PA,32.45283018867924
19121,Philadelphia County,PA,12.452830188679245
19132,Philadelphia County,PA,35.094339622641506
19135,Philadelphia County,PA,21.257861635220127
19136,Philadelphia County,PA,16.10062893081761
19139,Philadelphia County,PA,5.534591194968554
19142,Philadelphia County,PA,17.735849056603772
19149,Philadelphia County,PA,39.49685534591195
19151,Philadelphia County,PA,19.119496855345915
19335,Chester County,PA,24.27672955974843
19355,Chester County,PA,51.44654088050314
19526,Berks County,PA,92.70440251572327
19604,Berks County,PA,16.47798742138365
02860,Providence County,RI,10.062893081761008
02907,Providence County,RI,50.062893081761004
02914,Providence County,RI,55.22012578616352
29135,Calhoun County,SC,90.69182389937107
29170,Lexington County,SC,76.35220125786164
29203,Richland County,SC,14.968553459119496
29334,Spartanburg County,SC,85.53459119496856
29405,Charleston County,SC,84.0251572327044
29445,Berkeley County,SC,32.9559748427673
29501,Florence County,SC,41.132075471698116
29611,Greenville County,SC,18.11320754716981
29646,Greenwood County,SC,53.9622641509434
29649,Greenwood County,SC,74.46540880503144
29680,Greenville County,SC,56.72955974842767
29710,York County,SC,67.16981132075472
29715,York County,SC,91.9496855345912
29926,Beaufort County,SC,95.9748427672956
29940,Beaufort County,SC,100
57783,Lawrence County,SD,79.24528301886792
37066,Sumner County,TN,13.71069182389937
37075,Sumner County,TN,23.144654088050316
37122,Wilson County,TN,37.484276729559745
37172,Robertson County,TN,22.264150943396228
37209,Davidson County,TN,41.25786163522013
37327,Sequatchie County,TN,51.9496855345912
37343,Hamilton County,TN,65.40880503144653
37388,Coffee County,TN,42.38993710691824
37604,Washington County,TN,26.666666666666668
37663,Sullivan County,TN,78.11320754716982
37748,Roane County,TN,44.0251572327044
37766,Campbell County,TN,46.41509433962264
37865,Sevier County,TN,50.691823899371066
37909,Knox County,TN,88.80503144654088
37919,Knox County,TN,63.52201257861635
37920,Knox County,TN,16.22641509433962
38004,Tipton County,TN,92.83018867924528
38109,Shelby County,TN,15.974842767295597
38115,Shelby County,TN,66.28930817610062
38501,Putnam County,TN,26.037735849056602
38555,Cumberland County,TN,49.308176100628934
75043,Dallas County,TX,26.540880503144653
75149,Dallas County,TX,25.28301886792453
75154,Ellis County,TX,53.9622641509434
75159,Dallas County,TX,77.86163522012579
75165,Ellis County,TX,36.60377358490566
75212,Dallas County,TX,55.84905660377358
75217,Dallas County,TX,44.528301886792455
75218,Dallas County,TX,82.64150943396227
75228,Dallas County,TX,8.80503144654088
75243,Dallas County,TX,19.87421383647799
75249,Dallas County,TX,78.61635220125787
75482,Hopkins County,TX,88.67924528301887
75803,Anderson County,TX,74.0880503144654
76247,Denton County,TX,87.67295597484276
76446,Erath County,TX,94.33962264150944
76476,Hood County,TX,99.74842767295597
76706,McLennan County,TX,45.28301886792453
77033,Harris County,TX,64.27672955974842
77036,Harris County,TX,62.13836477987421
77064,Harris County,TX,77.35849056603774
77065,Harris County,TX,70.94339622641509
77081,Harris County,TX,75.34591194968554
77088,Harris County,TX,39.74842767295598
77090,Harris County,TX,38.36477987421384
77093,Harris County,TX,52.9559748427673
77429,Harris County,TX,16.855345911949684
77450,Harris County,TX,48.301886792452834
77459,Fort Bend County,TX,30.81761006289308
77498,Fort Bend County,TX,63.77358490566037
77504,Harris County,TX,75.09433962264151
77523,Chambers County,TX,67.67295597484276
77539,Galveston County,TX,62.264150943396224
77568,Galveston County,TX,44.15094339622642
77591,Galveston County,TX,65.78616352201257
77642,Jefferson County,TX,71.9496855345912
77703,Jefferson County,TX,80
77901,Victoria County,TX,33.33333333333333
78155,Guadalupe County,TX,32.075471698113205
78250,Bexar County,TX,52.57861635220126
78380,Nueces County,TX,90.062893081761
78613,Williamson County,TX,42.64150943396226
78721,Travis County,TX,94.84276729559748
78753,Travis County,TX,70.31446540880502
78754,Travis County,TX,87.04402515723271
79603,Taylor County,TX,73.0817610062893
79761,Ector County,TX,60.12578616352201
79762,Ector County,TX,37.10691823899371
79928,El Paso County,TX,58.867924528301884
84062,Utah County,UT,66.66666666666666
84107,Salt Lake County,UT,51.320754716981135
84119,Salt Lake County,UT,17.861635220125784
84120,Salt Lake County,UT,10.817610062893083
84128,Salt Lake County,UT,49.55974842767296
05478,Franklin County,VT,64.65408805031446
20171,Fairfax County,VA,60.25157232704402
20190,Fairfax County,VA,89.68553459119497
22204,Arlington County,VA,36.9811320754717
22309,Fairfax County,VA,69.55974842767296
22801,Harrisonburg city,VA,52.70440251572327
23222,Richmond city,VA,23.77358490566038
23225,Richmond city,VA,19.748427672955977
23231,Henrico County,VA,31.069182389937104
23454,Virginia Beach city,VA,38.49056603773585
23455,Virginia Beach city,VA,81.38364779874215
23462,Virginia Beach city,VA,76.85534591194968
23601,Newport News city,VA,68.0503144654088
23666,Hampton city,VA,15.471698113207546
23704,Portsmouth city,VA,37.23270440251572
24382,Wythe County,VA,55.9748427672956
98008,King County,WA,91.32075471698113
98032,King County,WA,90.56603773584906
98105,King County,WA,87.42138364779875
98110,Kitsap County,WA,72.32704402515722
98112,King County,WA,65.15723270440252
98117,King County,WA,71.44654088050314
98201,Snohomish County,WA,58.36477987421384
98270,Snohomish County,WA,25.40880503144654
98271,Snohomish County,WA,54.465408805031444
98335,Pierce County,WA,69.937106918239
98387,Pierce County,WA,31.446540880503143
98404,Pierce County,WA,42.76729559748428
98405,Pierce County,WA,41.88679245283019
98502,Thurston County,WA,72.0754716981132
98683,Clark County,WA,96.1006289308176
99207,Spokane County,WA,59.74842767295597
99336,Benton County,WA,17.232704402515722
20002,District of Columbia,DC,7.547169811320755
20016,District of Columbia,DC,80.88050314465409
20032,District of Columbia,DC,7.29559748427673
25306,Kanawha County,WV,78.8679245283019
25311,Kanawha County,WV,78.23899371069183
25411,Morgan County,WV,83.8993710691824
25880,Raleigh County,WV,85.28301886792453
53086,Washington County,WI,96.60377358490567
53168,Kenosha County,WI,68.17610062893081
53205,Milwaukee County,WI,23.0188679245283
53210,Milwaukee County,WI,10.69182389937107
53215,Milwaukee County,WI,6.289308176100629
53221,Milwaukee County,WI,26.28930817610063
53403,Racine County,WI,43.144654088050316
53913,Sauk County,WI,48.17610062893082
54151,Marinette County,WI,84.90566037735849
54403,Marathon County,WI,54.21383647798742
54409,Langlade County,WI,47.42138364779874
54467,Portage County,WI,73.20754716981132
54603,La Crosse County,WI,63.0188679245283
