ZipCode,county,state,Adult,Retirement,Geriatric
35007,Shelby County,AL,81.58205430932703,NA,NA
35020,Jefferson County,AL,NA,30.40629095674967,NA
35040,Shelby County,AL,NA,NA,83.97683397683397
35055,Cullman County,AL,58.559622195985824,NA,NA
35062,Jefferson County,AL,95.63164108618653,NA,NA
35064,Jefferson County,AL,62.69185360094451,NA,NA
35124,Shelby County,AL,66.58795749704841,NA,NA
35125,St. Clair County,AL,NA,72.34600262123197,NA
35150,Talladega County,AL,NA,60.68152031454783,NA
35206,Jefferson County,AL,NA,81.52031454783749,NA
35215,Jefferson County,AL,NA,73.91874180865007,NA
35221,Jefferson County,AL,93.27036599763872,NA,NA
35401,Tuscaloosa County,AL,28.689492325855966,NA,82.04633204633205
35405,Tuscaloosa County,AL,NA,NA,43.43629343629344
35501,Walker County,AL,68.12278630460449,NA,NA
35503,Walker County,AL,67.65053128689492,NA,NA
35565,Winston County,AL,71.78276269185359,NA,NA
35601,Morgan County,AL,NA,14.809960681520314,28.957528957528954
35603,Morgan County,AL,NA,33.02752293577982,NA
35614,Limestone County,AL,NA,84.27260812581913,NA
35748,Madison County,AL,NA,NA,93.82239382239382
35749,Madison County,AL,51.71192443919716,NA,NA
35769,Jackson County,AL,NA,NA,74.9034749034749
35824,Madison County,AL,NA,98.82044560943643,NA
35901,Etowah County,AL,69.53955135773317,NA,NA
35904,Etowah County,AL,NA,59.76408912188729,NA
35906,Etowah County,AL,96.45808736717828,NA,NA
35952,Etowah County,AL,88.42975206611571,NA,NA
35961,DeKalb County,AL,NA,97.37876802096986,NA
36033,Butler County,AL,NA,98.2961992136304,NA
36108,Montgomery County,AL,74.49822904368358,NA,NA
36117,Montgomery County,AL,37.78040141676505,NA,NA
36265,Calhoun County,AL,NA,59.501965923984265,NA
36278,Randolph County,AL,97.52066115702479,NA,NA
36420,Covington County,AL,83.58913813459267,NA,NA
36445,Monroe County,AL,NA,NA,97.68339768339769
36526,Baldwin County,AL,NA,40.1048492791612,NA
36530,Baldwin County,AL,NA,91.48099606815204,NA
36541,Mobile County,AL,94.09681227863047,NA,NA
36695,Mobile County,AL,NA,NA,44.98069498069498
36804,Lee County,AL,NA,74.70511140235911,NA
36832,Lee County,AL,NA,97.50982961992136,NA
36853,Tallapoosa County,AL,85.12396694214877,NA,NA
99507,Anchorage Municipality,AK,38.252656434474616,NA,NA
99508,Anchorage Municipality,AK,NA,NA,63.7065637065637
99515,Anchorage Municipality,AK,69.77567886658795,NA,NA
99701,Fairbanks North Star Borough,AK,69.65761511216057,NA,NA
99709,Fairbanks North Star Borough,AK,NA,NA,84.74903474903475
85009,Maricopa County,AZ,NA,NA,63.899613899613904
85018,Maricopa County,AZ,NA,92.39842726081258,NA
85032,Maricopa County,AZ,48.28807556080284,NA,NA
85040,Maricopa County,AZ,NA,57.40498034076016,NA
85044,Maricopa County,AZ,23.140495867768596,NA,NA
85050,Maricopa County,AZ,58.20543093270366,NA,NA
85083,Maricopa County,AZ,NA,92.26736566186108,NA
85119,Pinal County,AZ,NA,NA,45.173745173745175
85139,Pinal County,AZ,56.90672963400236,NA,NA
85142,Maricopa County,AZ,NA,26.34338138925295,NA
85207,Maricopa County,AZ,NA,NA,50.77220077220077
85224,Maricopa County,AZ,48.642266824085006,NA,NA
85233,Maricopa County,AZ,NA,NA,85.32818532818533
85254,Maricopa County,AZ,56.31641086186541,34.07601572739188,NA
85257,Maricopa County,AZ,NA,68.15203145478375,NA
85259,Maricopa County,AZ,84.29752066115702,NA,NA
85262,Maricopa County,AZ,NA,77.58846657929227,NA
85323,Maricopa County,AZ,35.891381345926796,NA,NA
85331,Maricopa County,AZ,NA,53.997378768020965,NA
85339,Maricopa County,AZ,24.321133412042503,NA,NA
85340,Maricopa County,AZ,88.78394332939787,NA,NA
85351,Maricopa County,AZ,NA,NA,1.3513513513513513
85364,Yuma County,AZ,4.958677685950414,3.5386631716906947,NA
85367,Yuma County,AZ,NA,NA,11.583011583011583
85379,Maricopa County,AZ,34.002361275088546,NA,NA
85382,Maricopa County,AZ,NA,NA,14.864864864864865
85387,Maricopa County,AZ,82.88075560802834,NA,NA
85388,Maricopa County,AZ,NA,84.01048492791612,NA
85390,Maricopa County,AZ,NA,67.10353866317169,NA
85396,Maricopa County,AZ,NA,58.0602883355177,NA
85621,Santa Cruz County,AZ,NA,NA,34.16988416988417
85648,Santa Cruz County,AZ,55.72609208972845,NA,NA
85653,Pima County,AZ,NA,37.22149410222805,NA
85710,Pima County,AZ,NA,NA,7.142857142857142
85711,Pima County,AZ,NA,14.285714285714285,NA
85747,Pima County,AZ,71.900826446281,NA,NA
86004,Coconino County,AZ,NA,12.7129750982962,NA
86303,Yavapai County,AZ,66.23376623376623,NA,NA
86323,Yavapai County,AZ,NA,88.59764089121887,NA
86336,Yavapai County,AZ,NA,94.10222804718218,NA
86404,Mohave County,AZ,NA,NA,41.891891891891895
71753,Columbia County,AR,NA,68.41415465268676,NA
71854,Miller County,AR,NA,NA,85.52123552123551
72015,Saline County,AR,NA,33.94495412844037,NA
72116,Pulaski County,AR,NA,42.201834862385326,NA
72120,Pulaski County,AR,75.91499409681228,16.644823066841415,NA
72335,St. Francis County,AR,NA,79.03014416775885,86.10038610038609
72401,Craighead County,AR,18.417945690672962,NA,NA
72442,Mississippi County,AR,97.16646989374263,NA,NA
72560,Stone County,AR,NA,60.81258191349934,NA
72701,Washington County,AR,NA,NA,78.18532818532819
72758,Benton County,AR,NA,NA,51.15830115830116
72762,Washington County,AR,50.413223140495866,NA,NA
72956,Crawford County,AR,NA,NA,47.68339768339768
90018,Los Angeles County,CA,41.91263282172373,NA,NA
90026,Los Angeles County,CA,NA,75.75360419397117,NA
90028,Los Angeles County,CA,66.7060212514758,NA,NA
90042,Los Angeles County,CA,NA,91.74311926605505,NA
90046,Los Angeles County,CA,54.42739079102715,NA,NA
90047,Los Angeles County,CA,19.00826446280992,NA,NA
90065,Los Angeles County,CA,NA,NA,57.14285714285714
90247,Los Angeles County,CA,54.89964580873672,NA,NA
90260,Los Angeles County,CA,92.79811097992916,NA,NA
90266,Los Angeles County,CA,NA,NA,25.482625482625483
90270,Los Angeles County,CA,NA,NA,95.55984555984556
90505,Los Angeles County,CA,NA,40.89121887287025,31.66023166023166
90601,Los Angeles County,CA,NA,67.2346002621232,NA
90660,Los Angeles County,CA,NA,NA,22.00772200772201
90731,Los Angeles County,CA,NA,26.605504587155966,NA
90744,Los Angeles County,CA,61.747343565525384,NA,NA
90802,Los Angeles County,CA,53.246753246753244,NA,NA
90808,Los Angeles County,CA,NA,NA,36.486486486486484
91203,Los Angeles County,CA,NA,92.92267365661861,NA
91204,Los Angeles County,CA,NA,97.77195281782438,NA
91206,Los Angeles County,CA,NA,NA,12.355212355212355
91344,Los Angeles County,CA,NA,24.50851900393185,19.111969111969113
91355,Los Angeles County,CA,NA,NA,67.18146718146718
91364,Los Angeles County,CA,85.12396694214877,NA,NA
91367,Los Angeles County,CA,59.74025974025974,NA,NA
91406,Los Angeles County,CA,55.01770956316411,NA,NA
91504,Los Angeles County,CA,73.55371900826447,NA,NA
91710,San Bernardino County,CA,NA,18.34862385321101,NA
91748,Los Angeles County,CA,71.31050767414405,NA,32.04633204633205
91761,San Bernardino County,CA,NA,70.64220183486239,NA
91768,Los Angeles County,CA,46.75324675324675,NA,NA
91770,Los Angeles County,CA,NA,NA,14.092664092664092
91790,Los Angeles County,CA,NA,51.50720838794234,NA
91911,San Diego County,CA,NA,17.82437745740498,NA
91941,San Diego County,CA,61.27508854781583,NA,NA
91942,San Diego County,CA,NA,NA,24.903474903474905
91977,San Diego County,CA,NA,28.309305373525557,NA
92009,San Diego County,CA,67.88665879574971,43.774574049803405,NA
92019,San Diego County,CA,NA,NA,36.87258687258687
92037,San Diego County,CA,NA,52.031454783748366,NA
92102,San Diego County,CA,42.14876033057851,NA,NA
92106,San Diego County,CA,NA,65.53079947575361,NA
92154,San Diego County,CA,41.44037780401417,NA,NA
92260,Riverside County,CA,NA,12.975098296199214,NA
92307,San Bernardino County,CA,NA,NA,43.62934362934363
92308,San Bernardino County,CA,NA,27.78505897771953,NA
92324,San Bernardino County,CA,NA,NA,65.83011583011583
92345,San Bernardino County,CA,12.750885478158205,NA,NA
92363,San Bernardino County,CA,NA,80.47182175622542,NA
92411,San Bernardino County,CA,76.85950413223141,NA,NA
92506,Riverside County,CA,NA,NA,55.21235521235521
92562,Riverside County,CA,NA,NA,40.34749034749035
92563,Riverside County,CA,NA,NA,43.050193050193045
92592,Riverside County,CA,31.995277449822908,NA,NA
92602,Orange County,CA,77.68595041322314,NA,NA
92647,Orange County,CA,NA,NA,14.285714285714285
92656,Orange County,CA,38.72491145218418,50.06553079947575,NA
92675,Orange County,CA,NA,46.13368283093054,NA
92703,Orange County,CA,44.03778040141677,NA,NA
92704,Orange County,CA,NA,72.21494102228047,NA
92808,Orange County,CA,79.456906729634,NA,NA
92840,Orange County,CA,NA,38.00786369593709,NA
92867,Orange County,CA,92.91617473435655,NA,NA
92869,Orange County,CA,NA,49.54128440366973,NA
92887,Orange County,CA,74.97048406139315,NA,NA
93003,Ventura County,CA,NA,19.921363040629096,NA
93030,Ventura County,CA,20.77922077922078,NA,NA
93063,Ventura County,CA,NA,24.901703800786372,NA
93105,Santa Barbara County,CA,96.93034238488784,91.87418086500655,NA
93280,Kern County,CA,77.92207792207793,NA,NA
93307,Kern County,CA,NA,17.169069462647442,54.24710424710425
93436,Santa Barbara County,CA,19.480519480519483,NA,NA
93446,San Luis Obispo County,CA,62.33766233766234,NA,NA
93458,Santa Barbara County,CA,NA,30.144167758846656,NA
93550,Los Angeles County,CA,NA,47.05111402359109,NA
93657,Fresno County,CA,NA,45.085190039318476,NA
93901,Monterey County,CA,NA,NA,54.054054054054056
94022,Santa Clara County,CA,NA,NA,70.27027027027027
94025,San Mateo County,CA,NA,36.69724770642202,NA
94040,Santa Clara County,CA,NA,79.55439056356488,NA
94070,San Mateo County,CA,82.52656434474616,NA,NA
94080,San Mateo County,CA,36.36363636363637,NA,NA
94103,San Francisco County,CA,15.230224321133413,NA,NA
94107,San Francisco County,CA,NA,NA,51.54440154440154
94133,San Francisco County,CA,NA,47.44429882044561,NA
94503,Napa County,CA,91.97166469893743,NA,NA
94510,Solano County,CA,85.00590318772137,NA,NA
94519,Contra Costa County,CA,NA,85.3211009174312,NA
94521,Contra Costa County,CA,NA,NA,21.428571428571427
94546,Alameda County,CA,55.371900826446286,NA,NA
94558,Napa County,CA,NA,NA,3.667953667953668
94559,Napa County,CA,65.05312868949233,NA,NA
94560,Alameda County,CA,NA,NA,42.471042471042466
94577,Alameda County,CA,NA,NA,33.204633204633204
94578,Alameda County,CA,NA,56.09436435124508,NA
94579,Alameda County,CA,NA,78.1127129750983,NA
94587,Alameda County,CA,NA,21.231979030144167,NA
94590,Solano County,CA,NA,NA,90.34749034749035
94599,Napa County,CA,NA,NA,69.6911196911197
94608,Alameda County,CA,56.552538370720185,NA,NA
94611,Alameda County,CA,64.46280991735537,NA,NA
94621,Alameda County,CA,35.53719008264463,NA,NA
94901,Marin County,CA,NA,39.31847968545216,36.293436293436294
95003,Santa Cruz County,CA,87.36717827626919,NA,NA
95035,Santa Clara County,CA,NA,NA,19.498069498069498
95037,Santa Clara County,CA,59.85832349468713,NA,NA
95070,Santa Clara County,CA,NA,NA,17.374517374517374
95111,Santa Clara County,CA,NA,NA,39.96138996138996
95112,Santa Clara County,CA,42.3848878394333,NA,NA
95133,Santa Clara County,CA,89.02007083825265,NA,NA
95205,San Joaquin County,CA,NA,54.914809960681524,NA
95247,Calaveras County,CA,NA,96.85452162516383,NA
95350,Stanislaus County,CA,21.95985832349469,NA,NA
95370,Tuolumne County,CA,NA,NA,6.370656370656371
95377,San Joaquin County,CA,NA,75.22935779816514,NA
95389,Mariposa County,CA,98.34710743801654,NA,NA
95391,San Joaquin County,CA,84.53364817001182,NA,NA
95422,Lake County,CA,NA,53.21100917431193,NA
95603,Placer County,CA,NA,NA,68.91891891891892
95605,Yolo County,CA,92.44391971664699,NA,NA
95650,Placer County,CA,NA,NA,86.67953667953668
95666,Amador County,CA,NA,NA,86.2934362934363
95678,Placer County,CA,51.82998819362455,NA,NA
95688,Solano County,CA,NA,NA,46.91119691119691
95747,Placer County,CA,NA,NA,11.389961389961389
95817,Sacramento County,CA,NA,95.28178243774575,NA
95827,Sacramento County,CA,69.77567886658795,NA,NA
95833,Sacramento County,CA,72.96340023612751,NA,NA
95901,Yuba County,CA,26.80047225501771,NA,NA
95973,Butte County,CA,25.6198347107438,NA,NA
96001,Shasta County,CA,NA,48.62385321100918,NA
96003,Shasta County,CA,47.107438016528924,NA,NA
96007,Shasta County,CA,NA,NA,61.38996138996139
80002,Jefferson County,CO,NA,NA,82.23938223938224
80005,Jefferson County,CO,61.747343565525384,NA,NA
80015,Arapahoe County,CO,NA,20.70773263433814,NA
80017,Arapahoe County,CO,NA,49.0170380078637,NA
80128,Jefferson County,CO,61.98347107438017,NA,NA
80130,Douglas County,CO,78.74852420306966,NA,NA
80138,Douglas County,CO,NA,NA,74.7104247104247
80204,Denver County,CO,24.321133412042503,NA,NA
80205,Denver County,CO,46.162927981109796,NA,NA
80216,Denver County,CO,90.31877213695395,NA,NA
80222,Denver County,CO,NA,94.4954128440367,NA
80260,Adams County,CO,49.586776859504134,NA,NA
80401,Jefferson County,CO,70.95631641086186,NA,NA
80504,Boulder County,CO,NA,NA,73.35907335907336
80524,Larimer County,CO,NA,NA,79.34362934362935
80525,Larimer County,CO,NA,NA,8.687258687258687
80550,Weld County,CO,NA,NA,81.85328185328186
80631,Weld County,CO,10.38961038961039,NA,NA
80904,El Paso County,CO,NA,NA,94.20849420849422
80920,El Paso County,CO,NA,61.9921363040629,NA
81321,Montezuma County,CO,NA,NA,51.35135135135135
81506,Mesa County,CO,NA,NA,65.25096525096525
81650,Garfield County,CO,NA,64.61336828309305,NA
06040,Hartford County,CT,NA,NA,23.552123552123554
06052,Hartford County,CT,81.70011806375442,NA,NA
06053,Hartford County,CT,NA,62.516382699868934,NA
06066,Tolland County,CT,NA,NA,18.91891891891892
06067,Hartford County,CT,NA,66.05504587155964,NA
06074,Hartford County,CT,59.268004722550174,NA,NA
06082,Hartford County,CT,22.43211334120425,NA,NA
06106,Hartford County,CT,NA,12.450851900393186,27.027027027027028
06108,Hartford County,CT,33.41204250295159,NA,NA
06260,Windham County,CT,34.35655253837072,NA,NA
06277,Windham County,CT,NA,96.72346002621232,NA
06489,Hartford County,CT,NA,53.604193971166445,NA
06608,Fairfield County,CT,87.95749704840614,NA,NA
06611,Fairfield County,CT,NA,64.87549148099608,NA
06615,Fairfield County,CT,52.18417945690673,NA,NA
06705,New Haven County,CT,NA,29.61992136304063,NA
06708,New Haven County,CT,NA,35.38663171690695,NA
06716,New Haven County,CT,NA,NA,53.861003861003866
06902,Fairfield County,CT,NA,NA,4.826254826254826
19701,New Castle County,DE,NA,NA,45.559845559845556
19713,New Castle County,DE,NA,66.97247706422019,NA
19720,New Castle County,DE,4.250295159386068,NA,NA
19734,New Castle County,DE,78.98465171192444,NA,NA
19803,New Castle County,DE,NA,NA,28.57142857142857
19952,Kent County,DE,NA,87.4180865006553,NA
19958,Sussex County,DE,NA,NA,12.548262548262548
19960,Sussex County,DE,NA,91.34993446920052,NA
19966,Sussex County,DE,NA,7.339449541284404,NA
19973,Sussex County,DE,49.23258559622196,20.18348623853211,52.316602316602314
32025,Columbia County,FL,42.97520661157025,NA,NA
32060,Suwannee County,FL,NA,47.575360419397114,NA
32073,Clay County,FL,NA,NA,19.69111969111969
32082,St. Johns County,FL,NA,31.585845347313235,NA
32084,St. Johns County,FL,NA,28.04718217562254,NA
32086,St. Johns County,FL,46.63518299881936,NA,NA
32128,Volusia County,FL,NA,62.123197903014415,NA
32137,Flagler County,FL,NA,NA,6.94980694980695
32141,Volusia County,FL,NA,NA,44.4015444015444
32174,Volusia County,FL,49.70484061393152,9.960681520314548,NA
32195,Marion County,FL,97.99291617473436,NA,NA
32207,Duval County,FL,21.841794569067297,NA,NA
32217,Duval County,FL,72.72727272727273,NA,NA
32218,Duval County,FL,5.312868949232586,NA,NA
32220,Duval County,FL,69.0672963400236,54.6526867627785,NA
32221,Duval County,FL,80.04722550177095,NA,NA
32250,Duval County,FL,NA,32.37221494102228,NA
32258,Duval County,FL,NA,NA,64.28571428571429
32301,Leon County,FL,66.82408500590319,NA,NA
32317,Leon County,FL,NA,90.56356487549148,NA
32431,Jackson County,FL,NA,87.2870249017038,NA
32505,Escambia County,FL,NA,NA,72.58687258687259
32506,Escambia County,FL,NA,17.431192660550458,NA
32514,Escambia County,FL,27.15466351829988,13.630406290956751,NA
32526,Escambia County,FL,NA,7.863695937090433,NA
32536,Okaloosa County,FL,NA,25.557011795543904,NA
32570,Santa Rosa County,FL,12.987012987012985,4.849279161205767,NA
32680,Dixie County,FL,NA,78.50589777195282,NA
32708,Seminole County,FL,48.99645808736718,NA,NA
32720,Volusia County,FL,NA,NA,26.44787644787645
32751,Orange County,FL,NA,53.473132372214934,NA
32765,Seminole County,FL,NA,42.201834862385326,46.52509652509653
32778,Lake County,FL,NA,NA,28.57142857142857
32780,Brevard County,FL,45.218417945690675,NA,NA
32784,Lake County,FL,NA,68.93840104849279,NA
32789,Orange County,FL,NA,79.94757536041939,NA
32803,Orange County,FL,NA,NA,77.7992277992278
32818,Orange County,FL,20.188902007083826,NA,NA
32820,Orange County,FL,NA,98.0340760157274,NA
32832,Orange County,FL,NA,92.66055045871559,NA
32931,Brevard County,FL,NA,NA,36.67953667953668
32937,Brevard County,FL,75.08854781582053,NA,NA
32962,Indian River County,FL,NA,76.4089121887287,23.93822393822394
32967,Indian River County,FL,NA,NA,44.20849420849421
32968,Indian River County,FL,NA,61.20576671035387,NA
33012,Miami-Dade County,FL,NA,NA,3.861003861003861
33021,Broward County,FL,50.531286894923255,NA,NA
33024,Broward County,FL,NA,23.591087811271297,NA
33031,Miami-Dade County,FL,NA,95.80602883355176,NA
33063,Broward County,FL,NA,NA,12.934362934362934
33064,Broward County,FL,42.03069657615112,NA,NA
33076,Broward County,FL,NA,68.41415465268676,NA
33133,Miami-Dade County,FL,NA,NA,82.81853281853282
33139,Miami-Dade County,FL,NA,51.900393184796854,NA
33147,Miami-Dade County,FL,36.599763872491145,NA,NA
33157,Miami-Dade County,FL,NA,NA,20.27027027027027
33160,Miami-Dade County,FL,NA,NA,16.216216216216218
33167,Miami-Dade County,FL,65.28925619834712,NA,NA
33175,Miami-Dade County,FL,NA,NA,16.023166023166024
33301,Broward County,FL,NA,69.98689384010484,NA
33312,Broward County,FL,NA,NA,66.40926640926641
33431,Palm Beach County,FL,NA,NA,61.003861003861005
33435,Palm Beach County,FL,49.70484061393152,NA,NA
33444,Palm Beach County,FL,NA,NA,89.76833976833977
33496,Palm Beach County,FL,NA,NA,7.335907335907336
33511,Hillsborough County,FL,71.66469893742621,NA,NA
33549,Hillsborough County,FL,NA,84.92791612057667,NA
33558,Hillsborough County,FL,NA,81.91349934469201,NA
33563,Hillsborough County,FL,NA,61.07470511140236,NA
33576,Pasco County,FL,NA,95.41284403669725,NA
33578,Hillsborough County,FL,39.315230224321134,NA,NA
33579,Hillsborough County,FL,73.31759149940969,NA,NA
33603,Hillsborough County,FL,63.16410861865407,NA,NA
33610,Hillsborough County,FL,NA,75.36041939711664,NA
33615,Hillsborough County,FL,NA,32.89646133682831,NA
33629,Hillsborough County,FL,NA,82.56880733944955,NA
33647,Hillsborough County,FL,54.42739079102715,NA,NA
33755,Pinellas County,FL,NA,97.11664482306685,NA
33756,Pinellas County,FL,NA,38.79423328964614,NA
33772,Pinellas County,FL,80.7556080283353,NA,NA
33781,Pinellas County,FL,78.04014167650531,NA,NA
33782,Pinellas County,FL,70.01180637544275,NA,NA
33805,Polk County,FL,NA,34.338138925294885,NA
33844,Polk County,FL,NA,35.77981651376147,NA
33880,Polk County,FL,26.68240850059032,NA,NA
33904,Lee County,FL,42.857142857142854,NA,NA
33931,Lee County,FL,NA,NA,59.84555984555985
33952,Charlotte County,FL,NA,33.68283093053736,NA
33957,Lee County,FL,NA,76.14678899082568,NA
33993,Lee County,FL,51.94805194805194,NA,NA
34105,Collier County,FL,NA,73.78768020969856,NA
34145,Collier County,FL,NA,78.76802096985584,NA
34212,Manatee County,FL,NA,56.74967234600262,NA
34221,Manatee County,FL,72.25501770956316,NA,NA
34223,Sarasota County,FL,89.96458087367178,NA,NA
34275,Sarasota County,FL,NA,82.83093053735256,NA
34293,Sarasota County,FL,NA,NA,3.2818532818532815
34446,Citrus County,FL,NA,NA,33.011583011583014
34474,Marion County,FL,65.17119244391971,NA,NA
34476,Marion County,FL,63.04604486422668,NA,NA
34479,Marion County,FL,NA,85.71428571428571,NA
34480,Marion County,FL,62.573789846517116,NA,NA
34639,Pasco County,FL,NA,57.66710353866317,NA
34652,Pasco County,FL,NA,55.04587155963303,NA
34683,Pinellas County,FL,66.46989374262101,NA,48.06949806949807
34684,Pinellas County,FL,NA,11.926605504587156,45.75289575289575
34689,Pinellas County,FL,NA,39.973787680209696,NA
34744,Osceola County,FL,NA,38.663171690694625,NA
34747,Osceola County,FL,86.30460448642266,NA,NA
34957,Martin County,FL,52.066115702479344,NA,16.409266409266408
34987,St. Lucie County,FL,NA,NA,77.41312741312741
34996,Martin County,FL,NA,NA,25.28957528957529
34997,Martin County,FL,NA,6.946264744429882,NA
30004,Fulton County,GA,NA,36.04193971166448,NA
30008,Cobb County,GA,NA,74.31192660550458,NA
30017,Gwinnett County,GA,NA,70.51114023591087,NA
30019,Gwinnett County,GA,NA,40.36697247706422,48.84169884169884
30022,Fulton County,GA,NA,79.16120576671035,NA
30032,DeKalb County,GA,NA,10.878112712975097,NA
30035,DeKalb County,GA,NA,46.00262123197903,NA
30043,Gwinnett County,GA,25.38370720188902,14.02359108781127,NA
30047,Gwinnett County,GA,62.21959858323495,NA,NA
30052,Walton County,GA,NA,NA,24.13127413127413
30062,Cobb County,GA,75.44273907910272,NA,NA
30064,Cobb County,GA,64.69893742621015,NA,NA
30066,Cobb County,GA,NA,27.260812581913502,NA
30071,Gwinnett County,GA,87.36717827626919,NA,NA
30076,Fulton County,GA,64.69893742621015,NA,NA
30082,Cobb County,GA,NA,NA,76.25482625482626
30094,Rockdale County,GA,NA,NA,63.12741312741312
30096,Gwinnett County,GA,30.696576151121608,NA,NA
30101,Cobb County,GA,30.22432113341204,NA,NA
30102,Cherokee County,GA,49.94096812278631,NA,NA
30117,Carroll County,GA,NA,NA,29.53667953667954
30125,Polk County,GA,NA,NA,38.030888030888036
30126,Cobb County,GA,NA,NA,67.76061776061776
30135,Douglas County,GA,NA,12.58191349934469,NA
30144,Cobb County,GA,40.023612750885476,50.58977719528178,NA
30152,Cobb County,GA,84.4155844155844,78.63695937090432,NA
30223,Spalding County,GA,NA,NA,30.30888030888031
30224,Spalding County,GA,NA,NA,63.32046332046332
30252,Henry County,GA,44.27390791027155,NA,71.81467181467181
30263,Coweta County,GA,NA,NA,27.7992277992278
30268,Fulton County,GA,NA,NA,87.83783783783784
30269,Fayette County,GA,72.01889020070838,NA,NA
30286,Upson County,GA,NA,53.21100917431193,NA
30292,Pike County,GA,NA,98.55832241153341,NA
30308,Fulton County,GA,77.56788665879574,NA,NA
30310,Fulton County,GA,73.90791027154664,NA,NA
30312,Fulton County,GA,NA,52.8178243774574,NA
30318,Fulton County,GA,32.467532467532465,NA,NA
30501,Hall County,GA,67.41440377804014,NA,NA
30517,Jackson County,GA,NA,85.19003931847968,92.27799227799228
30523,Habersham County,GA,NA,NA,63.899613899613904
30530,Banks County,GA,95.51357733175915,NA,98.84169884169884
30531,Habersham County,GA,NA,NA,75.67567567567568
30542,Hall County,GA,55.489964580873675,NA,NA
30559,Fannin County,GA,NA,92.79161205766711,NA
30606,Clarke County,GA,NA,27.916120576671034,NA
30635,Elbert County,GA,NA,88.85976408912188,NA
30655,Walton County,GA,40.141676505312866,29.226736566186105,NA
30736,Catoosa County,GA,43.32939787485242,NA,NA
30809,Columbia County,GA,40.85005903187721,NA,NA
30814,Columbia County,GA,NA,NA,78.95752895752895
30815,Richmond County,GA,23.96694214876033,NA,NA
31063,Macon County,GA,NA,93.57798165137615,NA
31088,Houston County,GA,19.244391971664697,NA,NA
31320,Liberty County,GA,93.86068476977569,NA,NA
31404,Chatham County,GA,NA,40.49803407601573,NA
31520,Glynn County,GA,NA,NA,89.96138996138995
31525,Glynn County,GA,NA,NA,75.2895752895753
31636,Lowndes County,GA,NA,88.72870249017038,NA
31750,Ben Hill County,GA,NA,29.48885976408912,NA
31763,Lee County,GA,52.77449822904369,NA,NA
31791,Worth County,GA,55.84415584415584,NA,NA
31793,Tift County,GA,68.59504132231406,NA,NA
31903,Muscogee County,GA,37.66233766233766,NA,NA
31906,Muscogee County,GA,NA,NA,59.45945945945946
39823,Early County,GA,66.35182998819363,NA,NA
96701,Honolulu County,HI,38.961038961038966,NA,NA
96706,Honolulu County,HI,13.45926800472255,NA,15.444015444015443
96707,Honolulu County,HI,40.37780401416765,NA,NA
96708,Maui County,HI,NA,99.08256880733946,NA
96734,Honolulu County,HI,41.55844155844156,9.698558322411534,NA
96740,Hawaii County,HI,64.1086186540732,NA,NA
96743,Hawaii County,HI,84.17945690672963,71.03538663171692,NA
96786,Honolulu County,HI,38.13459268004723,NA,NA
96792,Honolulu County,HI,14.994096812278631,NA,NA
96793,Maui County,HI,78.04014167650531,NA,NA
96816,Honolulu County,HI,35.773317591499406,NA,NA
96817,Honolulu County,HI,NA,6.290956749672345,NA
83263,Franklin County,ID,NA,90.30144167758847,NA
83301,Twin Falls County,ID,NA,NA,0.3861003861003861
83333,Blaine County,ID,NA,NA,76.83397683397683
83402,Bonneville County,ID,NA,NA,63.51351351351351
83605,Canyon County,ID,NA,NA,37.64478764478765
83686,Canyon County,ID,NA,NA,3.474903474903475
83705,Ada County,ID,NA,15.465268676277852,NA
83814,Kootenai County,ID,NA,41.67758846657929,NA
83843,Latah County,ID,NA,55.96330275229357,NA
83864,Bonner County,ID,NA,51.63826998689384,NA
60004,Cook County,IL,NA,8.91218872870249,NA
60005,Cook County,IL,58.913813459268006,NA,NA
60007,Cook County,IL,57.14285714285714,NA,NA
60008,Cook County,IL,NA,60.15727391874181,NA
60010,Lake County,IL,NA,13.106159895150721,NA
60016,Cook County,IL,27.390791027154666,NA,NA
60025,Cook County,IL,NA,4.587155963302752,NA
60033,McHenry County,IL,72.49114521841794,NA,NA
60045,Lake County,IL,NA,22.14941022280472,48.455598455598455
60046,Lake County,IL,43.09327036599764,NA,NA
60062,Cook County,IL,NA,NA,0.7722007722007722
60064,Lake County,IL,78.27626918536009,NA,NA
60067,Cook County,IL,46.989374262101535,NA,NA
60087,Lake County,IL,70.6021251475797,NA,NA
60090,Cook County,IL,58.67768595041323,NA,NA
60091,Cook County,IL,NA,NA,52.8957528957529
60107,Cook County,IL,NA,NA,61.58301158301158
60115,DeKalb County,IL,45.336481700118064,NA,NA
60126,DuPage County,IL,NA,3.014416775884666,NA
60137,DuPage County,IL,NA,29.882044560943644,NA
60142,McHenry County,IL,NA,NA,2.3166023166023164
60152,McHenry County,IL,NA,53.86631716906947,NA
60169,Cook County,IL,NA,NA,50.19305019305019
60181,DuPage County,IL,33.88429752066116,NA,42.471042471042466
60188,DuPage County,IL,NA,22.018348623853214,NA
60192,Cook County,IL,NA,NA,89.1891891891892
60402,Cook County,IL,14.285714285714285,NA,NA
60438,Cook County,IL,48.05194805194805,NA,NA
60439,Cook County,IL,47.93388429752066,NA,24.324324324324326
60453,Cook County,IL,NA,7.208387942332896,NA
60462,Cook County,IL,30.22432113341204,NA,10.617760617760617
60477,Cook County,IL,29.988193624557262,46.52686762778506,NA
60481,Will County,IL,89.728453364817,NA,NA
60506,Kane County,IL,29.279811097992912,NA,NA
60527,DuPage County,IL,NA,9.305373525557012,NA
60532,DuPage County,IL,NA,NA,44.01544401544402
60534,Cook County,IL,NA,86.76277850589777,NA
60544,Will County,IL,42.621015348288076,NA,NA
60558,Cook County,IL,NA,64.22018348623854,NA
60608,Cook County,IL,13.695395513577333,NA,NA
60613,Cook County,IL,31.641086186540733,NA,NA
60614,Cook County,IL,NA,NA,13.127413127413126
60619,Cook County,IL,8.146399055489963,NA,NA
60620,Cook County,IL,NA,3.4076015727391877,NA
60630,Cook County,IL,26.446280991735538,NA,NA
60631,Cook County,IL,34.946871310507674,49.0170380078637,NA
60637,Cook County,IL,NA,11.533420707732635,NA
60638,Cook County,IL,11.92443919716647,NA,NA
60642,Cook County,IL,80.51948051948052,NA,NA
60644,Cook County,IL,NA,NA,15.83011583011583
60647,Cook County,IL,NA,19.528178243774576,NA
60653,Cook County,IL,NA,31.061598951507207,NA
60655,Cook County,IL,32.93978748524203,NA,NA
60657,Cook County,IL,24.08500590318772,NA,NA
60950,Kankakee County,IL,74.3801652892562,NA,NA
60954,Kankakee County,IL,78.51239669421489,NA,NA
61008,Boone County,IL,NA,76.01572739187418,NA
61021,Lee County,IL,NA,34.20707732634338,NA
61102,Winnebago County,IL,NA,NA,92.47104247104248
61107,Winnebago County,IL,NA,NA,57.33590733590733
61114,Winnebago County,IL,NA,70.7732634338139,NA
61265,Rock Island County,IL,NA,31.323722149410223,NA
61356,Bureau County,IL,NA,65.13761467889908,NA
61520,Fulton County,IL,NA,NA,30.501930501930502
61554,Tazewell County,IL,NA,NA,9.266409266409266
61607,Peoria County,IL,NA,81.38925294888598,NA
61615,Peoria County,IL,NA,NA,55.79150579150579
61704,McLean County,IL,NA,NA,86.48648648648648
62002,Madison County,IL,33.76623376623377,NA,NA
62033,Macoupin County,IL,93.5064935064935,NA,NA
62234,Madison County,IL,NA,NA,22.779922779922778
62236,Monroe County,IL,NA,NA,94.4015444015444
62269,St. Clair County,IL,89.6103896103896,NA,NA
62294,Madison County,IL,NA,84.53473132372214,NA
62467,Effingham County,IL,98.22904368358914,NA,NA
62522,Macon County,IL,59.268004722550174,NA,NA
62681,Schuyler County,IL,95.98583234946871,NA,NA
62690,Macoupin County,IL,NA,99.34469200524246,NA
62704,Sangamon County,IL,NA,29.750982961992133,NA
62902,Jackson County,IL,97.75678866587958,NA,NA
46033,Hamilton County,IN,NA,29.882044560943644,NA
46037,Hamilton County,IN,NA,36.959370904325034,NA
46040,Hancock County,IN,NA,89.90825688073394,NA
46041,Clinton County,IN,NA,55.307994757536036,NA
46060,Hamilton County,IN,NA,63.826998689384006,NA
46074,Hamilton County,IN,NA,61.861074705111406,NA
46077,Boone County,IN,NA,NA,58.301158301158296
46124,Johnson County,IN,NA,73.65661861074705,NA
46140,Hancock County,IN,33.057851239669425,NA,NA
46151,Morgan County,IN,NA,77.19528178243775,NA
46158,Morgan County,IN,NA,NA,20.656370656370658
46163,Hancock County,IN,NA,70.24901703800786,NA
46203,Marion County,IN,10.861865407319952,NA,NA
46214,Marion County,IN,NA,NA,37.06563706563706
46218,Marion County,IN,NA,NA,23.166023166023166
46219,Marion County,IN,14.87603305785124,18.479685452162517,NA
46221,Marion County,IN,NA,43.11926605504588,NA
46229,Marion County,IN,27.27272727272727,NA,38.61003861003861
46250,Marion County,IN,NA,66.57929226736566,NA
46303,Lake County,IN,NA,NA,53.0888030888031
46307,Lake County,IN,16.174734356552538,NA,NA
46311,Lake County,IN,36.12750885478158,NA,NA
46322,Lake County,IN,NA,61.46788990825688,NA
46324,Lake County,IN,20.543093270365997,NA,NA
46356,Lake County,IN,34.238488783943325,NA,NA
46368,Porter County,IN,NA,2.0969855832241153,NA
46383,Porter County,IN,NA,4.718217562254259,NA
46385,Porter County,IN,NA,3.2765399737876804,NA
46394,Lake County,IN,58.087367178276274,NA,NA
46404,Lake County,IN,38.01652892561984,NA,51.737451737451735
46511,Marshall County,IN,96.81227863046044,NA,NA
46552,St. Joseph County,IN,95.74970484061393,NA,NA
46580,Kosciusko County,IN,NA,NA,29.72972972972973
46725,Whitley County,IN,NA,20.31454783748362,NA
46755,Noble County,IN,NA,NA,66.40926640926641
46804,Allen County,IN,88.19362455726092,NA,NA
46805,Allen County,IN,NA,NA,52.123552123552116
46807,Allen County,IN,81.93624557260921,62.38532110091744,NA
46815,Allen County,IN,36.835891381345924,NA,NA
46819,Allen County,IN,89.49232585596222,NA,NA
46902,Howard County,IN,5.430932703659976,3.669724770642202,NA
46923,Carroll County,IN,97.28453364817001,NA,NA
46947,Cass County,IN,NA,9.82961992136304,NA
46962,Wabash County,IN,NA,NA,72.00772200772201
46970,Miami County,IN,NA,59.501965923984265,NA
47025,Dearborn County,IN,45.57260920897285,NA,58.108108108108105
47102,Scott County,IN,90.20070838252656,NA,NA
47167,Washington County,IN,NA,NA,67.56756756756756
47203,Bartholomew County,IN,NA,58.71559633027523,NA
47374,Wayne County,IN,6.375442739079102,25.032765399737876,1.7374517374517375
47404,Monroe County,IN,NA,NA,80.8880308880309
47441,Greene County,IN,NA,NA,58.68725868725869
47446,Lawrence County,IN,70.3659976387249,73.00131061598951,NA
47586,Perry County,IN,95.39551357733176,NA,NA
47591,Knox County,IN,NA,NA,16.602316602316602
47714,Vanderburgh County,IN,NA,18.086500655307994,NA
47803,Vigo County,IN,NA,57.14285714285714,NA
47872,Parke County,IN,NA,84.79685452162516,NA
47904,Tippecanoe County,IN,62.10153482880756,NA,NA
47933,Montgomery County,IN,35.30106257378985,46.26474442988204,NA
47978,Jasper County,IN,NA,NA,82.62548262548263
50021,Polk County,IA,76.15112160566706,NA,NA
50158,Marshall County,IA,NA,NA,69.4980694980695
50312,Polk County,IA,NA,88.20445609436435,NA
50315,Polk County,IA,10.743801652892563,NA,NA
50316,Polk County,IA,45.92680047225502,55.04587155963303,NA
50401,Cerro Gordo County,IA,14.639905548996456,NA,NA
50616,Floyd County,IA,68.35891381345927,NA,NA
50801,Union County,IA,NA,84.40366972477065,NA
51250,Sioux County,IA,NA,NA,49.034749034749034
51501,Pottawattamie County,IA,NA,9.567496723460026,NA
51503,Pottawattamie County,IA,NA,NA,25.096525096525095
52060,Jackson County,IA,88.5478158205431,NA,87.45173745173746
52101,Winneshiek County,IA,NA,90.17038007863695,NA
52233,Linn County,IA,92.20779220779221,NA,NA
52342,Tama County,IA,NA,99.73787680209698,NA
52501,Wapello County,IA,NA,30.275229357798167,NA
52544,Appanoose County,IA,92.32585596221959,NA,NA
52772,Cedar County,IA,NA,97.90301441677587,NA
66062,Johnson County,KS,NA,50.720838794233295,NA
66067,Franklin County,KS,61.038961038961034,NA,NA
66207,Johnson County,KS,85.36009445100355,NA,NA
66213,Johnson County,KS,NA,NA,62.35521235521235
66215,Johnson County,KS,75.5608028335301,NA,NA
66535,Pottawatomie County,KS,NA,100,NA
66604,Shawnee County,KS,NA,40.76015727391874,NA
66618,Shawnee County,KS,NA,95.01965923984272,NA
66801,Lyon County,KS,53.246753246753244,NA,NA
66839,Coffey County,KS,NA,96.3302752293578,NA
66846,Morris County,KS,NA,99.60681520314549,NA
67010,Butler County,KS,NA,89.25294888597641,NA
67214,Sedgwick County,KS,NA,88.9908256880734,NA
67216,Sedgwick County,KS,76.50531286894923,NA,NA
67217,Sedgwick County,KS,55.96221959858324,NA,NA
67401,Saline County,KS,NA,NA,17.760617760617762
67530,Barton County,KS,NA,59.10878112712975,NA
67846,Finney County,KS,24.675324675324674,NA,NA
40071,Spencer County,KY,NA,52.293577981651374,NA
40203,Jefferson County,KY,NA,NA,62.74131274131274
40210,Jefferson County,KY,NA,58.19134993446921,NA
40214,Jefferson County,KY,NA,15.59633027522936,NA
40217,Jefferson County,KY,73.67178276269185,90.43250327653998,NA
40220,Jefferson County,KY,42.502951593860686,NA,20.463320463320464
40223,Jefferson County,KY,NA,79.42332896461338,NA
40299,Jefferson County,KY,NA,21.887287024901703,NA
40324,Scott County,KY,46.39905548996458,NA,NA
40330,Mercer County,KY,56.19834710743802,NA,NA
40353,Montgomery County,KY,NA,30.799475753604195,NA
40409,Rockcastle County,KY,98.11097992916174,NA,NA
40422,Boyle County,KY,NA,49.67234600262123,NA
40475,Madison County,KY,NA,9.174311926605505,NA
40504,Fayette County,KY,NA,62.90956749672346,NA
40505,Fayette County,KY,26.564344746162927,NA,NA
40509,Fayette County,KY,37.54427390791027,NA,NA
40511,Fayette County,KY,44.15584415584416,NA,NA
40701,Whitley County,KY,13.223140495867769,NA,NA
40769,Whitley County,KY,NA,57.27391874180865,NA
40906,Knox County,KY,NA,79.81651376146789,NA
40962,Clay County,KY,NA,19.65923984272608,NA
41015,Kenton County,KY,NA,NA,37.06563706563706
41017,Kenton County,KY,34.828807556080285,NA,NA
41042,Boone County,KY,28.92561983471074,NA,NA
41101,Boyd County,KY,21.133412042502954,NA,NA
41102,Boyd County,KY,NA,56.618610747051115,NA
41171,Elliott County,KY,94.68713105076742,NA,NA
41230,Lawrence County,KY,NA,44.692005242463956,NA
42003,McCracken County,KY,17.945690672963398,NA,NA
42025,Marshall County,KY,NA,42.988204456094365,NA
42044,Marshall County,KY,NA,NA,91.5057915057915
42101,Warren County,KY,8.736717827626919,NA,NA
42167,Monroe County,KY,NA,87.02490170380078,NA
42261,Butler County,KY,NA,NA,96.33204633204633
42301,Daviess County,KY,11.688311688311687,NA,NA
42303,Daviess County,KY,12.278630460448642,NA,NA
42345,Muhlenberg County,KY,57.6151121605667,NA,NA
42408,Hopkins County,KY,81.34592680047226,NA,NA
42539,Casey County,KY,NA,75.62254259501967,NA
42653,McCreary County,KY,93.97874852420307,NA,NA
42701,Hardin County,KY,13.81345926800472,NA,NA
42717,Cumberland County,KY,NA,76.2778505897772,NA
42718,Taylor County,KY,NA,NA,11.96911196911197
42754,Grayson County,KY,NA,39.580602883355176,NA
70001,Jefferson Parish,LA,NA,8.650065530799477,NA
70037,Plaquemines Parish,LA,NA,NA,84.74903474903475
70058,Jefferson Parish,LA,3.4238488783943333,NA,NA
70339,Assumption Parish,LA,96.22195985832349,NA,NA
70363,Terrebonne Parish,LA,NA,NA,39.575289575289574
70374,Lafourche Parish,LA,NA,90.03931847968545,NA
70401,Tangipahoa Parish,LA,NA,NA,60.61776061776062
70422,Tangipahoa Parish,LA,27.863046044864227,NA,NA
70431,St. Tammany Parish,LA,NA,73.52555701179554,NA
70438,Washington Parish,LA,16.41086186540732,NA,NA
70450,Washington Parish,LA,NA,99.8689384010485,NA
70452,St. Tammany Parish,LA,NA,NA,61.196911196911195
70460,St. Tammany Parish,LA,NA,66.05504587155964,NA
70517,St. Martin Parish,LA,NA,56.356487549148106,NA
70533,Vermilion Parish,LA,NA,97.24770642201835,NA
70570,St. Landry Parish,LA,1.8890200708382525,NA,NA
70601,Calcasieu Parish,LA,2.479338842975207,NA,NA
70607,Calcasieu Parish,LA,17.001180637544273,NA,NA
70663,Calcasieu Parish,LA,10.271546635182998,NA,NA
70669,Calcasieu Parish,LA,57.37898465171193,NA,NA
70737,Ascension Parish,LA,8.85478158205431,NA,NA
71104,Caddo Parish,LA,NA,69.46264744429882,NA
71105,Caddo Parish,LA,43.80165289256198,NA,NA
71109,Caddo Parish,LA,31.87721369539551,NA,NA
71111,Bossier Parish,LA,NA,13.368283093053734,NA
71282,Madison Parish,LA,52.77449822904369,NA,NA
71291,Ouachita Parish,LA,NA,30.668414154652684,NA
71302,Rapides Parish,LA,94.56906729634002,NA,NA
71303,Rapides Parish,LA,65.4073199527745,NA,NA
71457,Natchitoches Parish,LA,NA,23.98427260812582,NA
71483,Winn Parish,LA,44.391971664698936,NA,NA
03901,York County,ME,67.41440377804014,NA,NA
03908,York County,ME,82.64462809917356,NA,NA
04071,Cumberland County,ME,96.34002361275088,NA,NA
04250,Androscoggin County,ME,NA,99.21363040629096,NA
04281,Oxford County,ME,NA,NA,91.31274131274131
04401,Penobscot County,ME,NA,1.834862385321101,NA
04605,Hancock County,ME,NA,22.804718217562254,18.725868725868725
04736,Aroostook County,ME,55.608028335301064,NA,NA
20601,Charles County,MD,NA,86.63171690694627,NA
20634,St. Mary's County,MD,97.40259740259741,NA,NA
20646,Charles County,MD,NA,84.92791612057667,NA
20659,St. Mary's County,MD,NA,59.37090432503277,NA
20705,Prince George's County,MD,81.34592680047226,NA,NA
20740,Prince George's County,MD,NA,NA,81.46718146718148
20743,Prince George's County,MD,39.55135773317591,NA,NA
20785,Prince George's County,MD,57.85123966942148,NA,NA
20850,Montgomery County,MD,68.00472255017709,NA,NA
20854,Montgomery County,MD,NA,71.29750982961993,NA
20877,Montgomery County,MD,79.22077922077922,NA,NA
20904,Montgomery County,MD,NA,NA,58.301158301158296
21030,Baltimore County,MD,NA,NA,74.13127413127413
21040,Harford County,MD,NA,NA,92.08494208494209
21061,Anne Arundel County,MD,NA,26.86762778505898,NA
21114,Anne Arundel County,MD,NA,89.1218872870249,NA
21133,Baltimore County,MD,NA,51.24508519003932,NA
21207,Baltimore County,MD,NA,22.93577981651376,NA
21208,Baltimore County,MD,63.75442739079102,NA,NA
21215,Baltimore city,MD,NA,NA,9.845559845559846
21218,Baltimore city,MD,NA,10.091743119266056,NA
21220,Baltimore County,MD,NA,31.45478374836173,NA
21228,Baltimore County,MD,NA,11.009174311926607,NA
21550,Garrett County,MD,NA,44.56094364351245,NA
21620,Kent County,MD,NA,NA,50
21660,Caroline County,MD,99.05548996458087,NA,NA
01007,Hampshire County,MA,80.40141676505313,NA,NA
01013,Hampden County,MA,NA,13.892529488859765,NA
01057,Hampden County,MA,NA,NA,89.38223938223938
01060,Hampshire County,MA,NA,49.803407601572744,NA
01062,Hampshire County,MA,NA,NA,85.13513513513513
01082,Hampshire County,MA,NA,37.876802096985585,NA
01119,Hampden County,MA,NA,47.575360419397114,NA
01247,Berkshire County,MA,NA,NA,19.305019305019304
01440,Worcester County,MA,NA,NA,11.196911196911197
01453,Worcester County,MA,9.917355371900827,NA,NA
01501,Worcester County,MA,NA,NA,19.884169884169882
01532,Worcester County,MA,50.88547815820543,NA,NA
01540,Worcester County,MA,NA,50.8519003931848,NA
01605,Worcester County,MA,NA,0.7863695937090431,NA
01609,Worcester County,MA,38.488783943329395,NA,NA
01719,Middlesex County,MA,96.93034238488784,NA,NA
01747,Worcester County,MA,NA,NA,85.9073359073359
01756,Worcester County,MA,NA,NA,99.61389961389962
01830,Essex County,MA,NA,NA,33.97683397683397
01832,Essex County,MA,NA,9.043250327653997,NA
01835,Essex County,MA,35.655253837072024,NA,NA
01841,Essex County,MA,1.1806375442739079,NA,NA
01843,Essex County,MA,4.368358913813459,NA,NA
01851,Middlesex County,MA,17.473435655253837,NA,60.424710424710426
01852,Middlesex County,MA,NA,1.5727391874180863,NA
01854,Middlesex County,MA,32.585596221959854,4.980340760157274,NA
01887,Middlesex County,MA,8.618654073199528,NA,NA
01930,Essex County,MA,NA,6.8152031454783755,NA
01940,Essex County,MA,NA,NA,18.53281853281853
01950,Essex County,MA,NA,NA,18.146718146718147
01960,Essex County,MA,NA,NA,0.19305019305019305
01970,Essex County,MA,NA,0.39318479685452157,NA
02048,Bristol County,MA,NA,12.057667103538664,NA
02119,Suffolk County,MA,NA,NA,3.088803088803089
02125,Suffolk County,MA,5.548996458087367,NA,NA
02127,Suffolk County,MA,1.770956316410862,NA,NA
02136,Suffolk County,MA,NA,51.11402359108781,92.66409266409266
02143,Middlesex County,MA,NA,NA,75.0965250965251
02148,Middlesex County,MA,NA,NA,1.1583011583011582
02149,Middlesex County,MA,NA,1.0484927916120577,NA
02151,Suffolk County,MA,0.11806375442739078,NA,NA
02152,Suffolk County,MA,15.466351829988193,NA,NA
02170,Norfolk County,MA,34.47461629279811,NA,NA
02180,Middlesex County,MA,15.584415584415584,21.62516382699869,NA
02302,Plymouth County,MA,9.799291617473434,NA,NA
02346,Plymouth County,MA,NA,10.35386631716907,NA
02360,Plymouth County,MA,1.062573789846517,NA,NA
02452,Middlesex County,MA,65.52538370720188,NA,NA
02453,Middlesex County,MA,NA,14.678899082568808,NA
02466,Middlesex County,MA,87.83943329397876,NA,NA
02481,Norfolk County,MA,NA,NA,56.37065637065637
02536,Barnstable County,MA,NA,12.844036697247708,NA
02540,Barnstable County,MA,58.20543093270366,NA,NA
02563,Barnstable County,MA,NA,95.93709043250328,NA
02601,Barnstable County,MA,NA,22.280471821756226,NA
02675,Barnstable County,MA,82.40850059031877,NA,NA
02724,Bristol County,MA,5.194805194805195,NA,NA
02740,Bristol County,MA,0,NA,NA
02767,Bristol County,MA,NA,41.284403669724774,NA
02780,Bristol County,MA,12.632821723730814,NA,NA
48034,Oakland County,MI,39.66942148760331,NA,NA
48035,Macomb County,MI,12.396694214876034,NA,10.038610038610038
48044,Macomb County,MI,NA,5.373525557011796,NA
48051,Macomb County,MI,NA,37.745740498034074,NA
48065,Macomb County,MI,77.33175914994096,NA,NA
48071,Oakland County,MI,29.161747343565526,NA,NA
48080,Macomb County,MI,40.25974025974026,NA,NA
48081,Macomb County,MI,NA,23.46002621231979,NA
48083,Oakland County,MI,60.33057851239669,NA,NA
48089,Macomb County,MI,NA,NA,50.965250965250966
48093,Macomb County,MI,22.904368358913814,NA,NA
48104,Washtenaw County,MI,NA,NA,84.55598455598455
48105,Washtenaw County,MI,NA,NA,2.5096525096525095
48111,Wayne County,MI,NA,5.6356487549148095,NA
48114,Livingston County,MI,NA,27.522935779816514,NA
48118,Washtenaw County,MI,NA,NA,27.027027027027028
48133,Monroe County,MI,NA,89.38401048492791,NA
48138,Wayne County,MI,NA,NA,43.24324324324324
48140,Monroe County,MI,99.64580873671783,NA,NA
48150,Wayne County,MI,NA,20.445609436435124,NA
48166,Monroe County,MI,NA,37.61467889908257,NA
48170,Wayne County,MI,NA,NA,2.7027027027027026
48174,Wayne County,MI,9.208972845336481,NA,NA
48182,Monroe County,MI,NA,77.32634338138925,NA
48183,Wayne County,MI,10.979929161747345,5.766710353866317,NA
48185,Wayne County,MI,7.201889020070838,NA,NA
48187,Wayne County,MI,NA,NA,8.108108108108109
48192,Wayne County,MI,21.723730814639904,NA,NA
48195,Wayne County,MI,NA,8.51900393184797,NA
48197,Washtenaw County,MI,NA,2.2280471821756227,NA
48202,Wayne County,MI,33.64817001180638,NA,NA
48204,Wayne County,MI,NA,NA,29.922779922779924
48205,Wayne County,MI,6.02125147579693,NA,NA
48206,Wayne County,MI,NA,NA,97.49034749034749
48207,Wayne County,MI,NA,35.12450851900393,NA
48212,Wayne County,MI,12.160566706021251,NA,NA
48221,Wayne County,MI,NA,5.111402359108781,NA
48225,Wayne County,MI,43.80165289256198,NA,NA
48228,Wayne County,MI,NA,NA,32.818532818532816
48234,Wayne County,MI,NA,NA,22.586872586872587
48235,Wayne County,MI,NA,21.494102228047183,NA
48238,Wayne County,MI,NA,NA,31.08108108108108
48239,Wayne County,MI,10.15348288075561,NA,NA
48240,Wayne County,MI,NA,57.929226736566186,NA
48301,Oakland County,MI,88.07556080283354,NA,NA
48302,Oakland County,MI,NA,NA,27.99227799227799
48310,Macomb County,MI,19.36245572609209,NA,NA
48313,Macomb County,MI,30.57851239669421,21.363040629095675,NA
48323,Oakland County,MI,57.37898465171193,NA,NA
48324,Oakland County,MI,NA,NA,53.66795366795367
48335,Oakland County,MI,53.8370720188902,52.424639580602886,NA
48341,Oakland County,MI,33.293978748524204,NA,NA
48356,Oakland County,MI,91.73553719008265,NA,NA
48386,Oakland County,MI,NA,NA,52.509652509652504
48390,Oakland County,MI,NA,NA,35.907335907335906
48393,Oakland County,MI,NA,NA,81.66023166023166
48430,Genesee County,MI,NA,19.39711664482307,NA
48453,Sanilac County,MI,NA,NA,79.15057915057915
48461,Lapeer County,MI,71.07438016528926,NA,NA
48505,Genesee County,MI,21.605667060212514,NA,NA
48506,Genesee County,MI,NA,38.53211009174312,NA
48507,Genesee County,MI,12.04250295159386,NA,NA
48601,Saginaw County,MI,2.833530106257379,NA,NA
48602,Saginaw County,MI,5.076741440377805,NA,NA
48604,Saginaw County,MI,59.149940968122785,53.604193971166445,NA
48612,Gladwin County,MI,NA,NA,76.25482625482626
48656,Roscommon County,MI,NA,NA,95.36679536679536
48661,Ogemaw County,MI,57.26092089728453,NA,NA
48813,Eaton County,MI,NA,NA,31.467181467181465
48817,Shiawassee County,MI,NA,NA,71.42857142857143
48827,Eaton County,MI,87.13105076741441,33.28964613368283,NA
48843,Livingston County,MI,NA,NA,9.652509652509652
48855,Livingston County,MI,NA,49.93446920052425,NA
48858,Isabella County,MI,30.814639905548997,NA,NA
48888,Montcalm County,MI,NA,82.30668414154653,NA
48906,Ingham County,MI,15.702479338842975,NA,NA
48910,Ingham County,MI,14.403778040141676,NA,NA
49006,Kalamazoo County,MI,NA,NA,88.22393822393822
49045,Van Buren County,MI,93.03423848878394,NA,NA
49085,Berrien County,MI,NA,43.381389252948885,NA
49120,Berrien County,MI,NA,15.203145478374836,NA
49221,Lenawee County,MI,NA,NA,6.563706563706563
49242,Hillsdale County,MI,NA,80.60288335517694,NA
49286,Lenawee County,MI,59.268004722550174,NA,NA
49307,Mecosta County,MI,55.1357733175915,NA,NA
49316,Kent County,MI,52.6564344746163,NA,NA
49337,Newaygo County,MI,70.12987012987013,NA,NA
49417,Ottawa County,MI,NA,NA,72.77992277992279
49420,Oceana County,MI,72.84533648170012,NA,NA
49424,Ottawa County,MI,18.299881936245573,NA,NA
49441,Muskegon County,MI,15.11216056670602,25.4259501965924,NA
49508,Kent County,MI,NA,7.99475753604194,NA
49548,Kent County,MI,NA,NA,72.39382239382239
49696,Grand Traverse County,MI,77.44982290436836,NA,NA
49707,Alpena County,MI,65.87957497048406,NA,NA
49740,Emmet County,MI,NA,NA,76.06177606177607
49801,Dickinson County,MI,87.72136953955135,NA,NA
49855,Marquette County,MI,17.591499409681226,NA,NA
49858,Menominee County,MI,81.10979929161746,NA,NA
55013,Chisago County,MN,NA,97.64089121887287,NA
55037,Pine County,MN,NA,NA,99.8069498069498
55040,Isanti County,MN,73.0814639905549,NA,NA
55060,Steele County,MN,NA,NA,51.737451737451735
55063,Pine County,MN,NA,NA,65.44401544401545
55066,Goodhue County,MN,88.31168831168831,NA,NA
55103,Ramsey County,MN,NA,NA,93.43629343629344
55106,Ramsey County,MN,8.500590318772137,NA,NA
55109,Ramsey County,MN,76.74144037780401,NA,NA
55110,Ramsey County,MN,51.2396694214876,NA,NA
55122,Dakota County,MN,67.65053128689492,NA,NA
55129,Washington County,MN,74.85242030696575,NA,NA
55304,Anoka County,MN,NA,NA,70.07722007722008
55328,Wright County,MN,NA,94.62647444298821,NA
55337,Dakota County,MN,38.60684769775679,22.542595019659238,NA
55362,Wright County,MN,69.3034238488784,NA,NA
55369,Hennepin County,MN,39.19716646989374,NA,NA
55379,Scott County,MN,29.87012987012987,NA,NA
55416,Hennepin County,MN,NA,67.75884665792923,NA
55417,Hennepin County,MN,NA,NA,83.97683397683397
55423,Hennepin County,MN,NA,NA,33.397683397683394
55425,Hennepin County,MN,75.79693034238488,NA,NA
55426,Hennepin County,MN,NA,39.18741808650065,NA
55428,Hennepin County,MN,54.66351829988194,NA,NA
55429,Hennepin County,MN,15.348288075560804,NA,NA
55432,Anoka County,MN,NA,NA,66.02316602316603
55449,Anoka County,MN,53.246753246753244,NA,90.15444015444015
55807,St. Louis County,MN,89.25619834710744,NA,NA
55904,Olmsted County,MN,NA,87.54914809960681,NA
55912,Mower County,MN,64.46280991735537,NA,NA
56001,Blue Earth County,MN,35.064935064935064,NA,NA
56187,Nobles County,MN,69.42148760330579,NA,NA
56479,Todd County,MN,83.23494687131051,NA,NA
56501,Becker County,MN,43.21133412042503,NA,17.18146718146718
56529,Clay County,MN,88.90200708382527,NA,NA
56701,Pennington County,MN,22.904368358913814,NA,NA
38618,Tate County,MS,NA,71.69069462647444,NA
38701,Washington County,MS,63.400236127508855,NA,NA
38801,Lee County,MS,NA,NA,38.996138996138995
38829,Prentiss County,MS,NA,43.381389252948885,NA
38834,Alcorn County,MS,54.66351829988194,NA,NA
38852,Tishomingo County,MS,NA,NA,59.65250965250966
38965,Yalobusha County,MS,NA,NA,70.65637065637065
39042,Rankin County,MS,39.07910271546635,NA,NA
39083,Copiah County,MS,80.16528925619835,NA,NA
39180,Warren County,MS,NA,48.75491480996068,NA
39204,Hinds County,MS,25.737898465171195,NA,NA
39209,Hinds County,MS,NA,47.83748361730013,NA
39305,Lauderdale County,MS,NA,55.83224115334207,NA
39426,Pearl River County,MS,NA,40.23591087811271,NA
39428,Covington County,MS,78.74852420306966,NA,NA
39429,Marion County,MS,NA,67.4967234600262,NA
39443,Jones County,MS,NA,62.77850589777195,NA
39465,Forrest County,MS,NA,NA,69.1119691119691
39666,Pike County,MS,NA,87.68020969855831,NA
63010,Jefferson County,MO,43.68358913813459,NA,NA
63069,Franklin County,MO,NA,NA,65.63706563706563
63074,St. Louis County,MO,63.87249114521841,52.94888597640891,NA
63119,St. Louis County,MO,NA,44.42988204456094,NA
63121,St. Louis County,MO,NA,50.19659239842726,NA
63123,St. Louis County,MO,40.968122786304605,NA,NA
63130,St. Louis County,MO,NA,57.798165137614674,NA
63136,St. Louis County,MO,NA,NA,30.694980694980696
63137,St. Louis County,MO,42.26682408500591,NA,NA
63147,St. Louis city,MO,NA,NA,91.6988416988417
63301,St. Charles County,MO,NA,NA,2.8957528957528957
63304,St. Charles County,MO,NA,14.416775884665793,NA
63367,St. Charles County,MO,NA,NA,21.62162162162162
63379,Lincoln County,MO,NA,29.095674967234604,NA
63385,St. Charles County,MO,NA,11.66448230668414,NA
63645,Madison County,MO,NA,NA,55.5984555984556
63755,Cape Girardeau County,MO,NA,NA,33.78378378378378
63801,Scott County,MO,24.793388429752067,NA,NA
63825,Stoddard County,MO,NA,93.97116644823068,NA
63935,Ripley County,MO,83.23494687131051,NA,NA
64012,Cass County,MO,NA,24.639580602883353,NA
64052,Jackson County,MO,12.868949232585598,36.04193971166448,NA
64055,Jackson County,MO,9.445100354191263,NA,NA
64060,Clay County,MO,48.760330578512395,NA,NA
64064,Jackson County,MO,NA,47.182175622542594,NA
64068,Clay County,MO,NA,6.422018348623854,NA
64085,Ray County,MO,52.30224321133412,NA,NA
64093,Johnson County,MO,39.43329397874852,NA,NA
64127,Jackson County,MO,30.10625737898465,NA,NA
64130,Jackson County,MO,8.382526564344746,NA,NA
64145,Jackson County,MO,86.42266824085006,NA,NA
64151,Platte County,MO,34.710743801652896,NA,53.0888030888031
64468,Nodaway County,MO,67.17827626918536,NA,NA
64506,Buchanan County,MO,NA,6.553079947575361,NA
65202,Boone County,MO,13.34120425029516,NA,NA
65301,Pettis County,MO,NA,7.077326343381389,NA
65355,Benton County,MO,NA,NA,38.41698841698842
65608,Douglas County,MO,86.77685950413223,NA,NA
65625,Barry County,MO,88.5478158205431,NA,NA
59715,Gallatin County,MT,NA,34.862385321100916,NA
59722,Powell County,MT,NA,NA,98.64864864864865
59804,Missoula County,MT,NA,94.23328964613368,NA
59870,Ravalli County,MT,NA,82.96199213630406,NA
68025,Dodge County,NE,NA,24.11533420707733,NA
68046,Sarpy County,NE,NA,75.49148099606815,NA
68137,Douglas County,NE,NA,NA,61.77606177606177
68144,Douglas County,NE,NA,52.16251638269986,NA
68310,Gage County,NE,NA,53.07994757536042,NA
68352,Jefferson County,NE,NA,NA,96.52509652509652
68355,Richardson County,NE,NA,87.94233289646134,NA
89121,Clark County,NV,31.52302243211334,NA,NA
89122,Clark County,NV,28.217237308146398,NA,NA
89178,Clark County,NV,NA,90.956749672346,NA
89436,Washoe County,NV,NA,NA,45.366795366795365
89508,Washoe County,NV,71.07438016528926,NA,NA
89512,Washoe County,NV,NA,47.313237221494106,NA
89521,Washoe County,NV,80.28335301062573,NA,NA
03036,Rockingham County,NH,99.40968122786305,NA,NA
03222,Grafton County,NH,NA,85.58322411533422,94.5945945945946
03235,Merrimack County,NH,NA,70.9043250327654,NA
03249,Belknap County,NH,90.55489964580875,NA,NA
03451,Cheshire County,NH,96.57615112160568,NA,NA
03865,Rockingham County,NH,NA,NA,96.91119691119691
03867,Strafford County,NH,25.02951593860685,NA,NA
07009,Essex County,NJ,82.64462809917356,NA,NA
07018,Essex County,NJ,29.634002361275087,NA,NA
07039,Essex County,NJ,NA,37.09043250327654,NA
07047,Hudson County,NJ,NA,NA,99.42084942084942
07070,Bergen County,NJ,70.83825265643448,NA,NA
07083,Union County,NJ,19.126328217237308,NA,NA
07103,Essex County,NJ,1.2987012987012987,98.95150720838795,NA
07104,Essex County,NJ,0.8264462809917356,NA,23.745173745173744
07105,Essex County,NJ,NA,30.40629095674967,NA
07106,Essex County,NJ,NA,NA,39.768339768339764
07108,Essex County,NJ,NA,NA,71.62162162162163
07111,Essex County,NJ,74.14403778040142,NA,NA
07208,Union County,NJ,NA,93.18479685452162,NA
07305,Hudson County,NJ,6.8476977567886665,2.621231979030144,NA
07430,Bergen County,NJ,NA,83.4862385321101,NA
07501,Passaic County,NJ,2.715466351829988,NA,NA
07666,Bergen County,NJ,NA,NA,13.8996138996139
07675,Bergen County,NJ,NA,81.7824377457405,NA
07701,Monmouth County,NJ,NA,35.255570117955436,NA
07719,Monmouth County,NJ,91.61747343565526,NA,NA
07726,Monmouth County,NJ,33.53010625737898,NA,NA
07739,Monmouth County,NJ,NA,NA,88.22393822393822
07849,Morris County,NJ,68.12278630460449,NA,NA
07856,Morris County,NJ,NA,96.19921363040629,NA
07866,Morris County,NJ,NA,43.774574049803405,NA
08005,Ocean County,NJ,NA,31.585845347313235,NA
08009,Camden County,NJ,NA,NA,97.87644787644788
08012,Camden County,NJ,7.319952774498228,NA,41.312741312741316
08052,Burlington County,NJ,NA,77.32634338138925,NA
08077,Burlington County,NJ,NA,NA,57.72200772200772
08081,Camden County,NJ,14.167650531286895,NA,NA
08094,Gloucester County,NJ,8.028335301062574,64.35124508519003,NA
08205,Atlantic County,NJ,NA,NA,35.714285714285715
08244,Atlantic County,NJ,NA,63.04062909567497,NA
08260,Cape May County,NJ,NA,26.08125819134993,NA
08332,Cumberland County,NJ,1.6528925619834711,NA,NA
08402,Atlantic County,NJ,NA,NA,78.76447876447877
08527,Ocean County,NJ,NA,NA,31.27413127413127
08540,Mercer County,NJ,NA,35.64875491480996,NA
08619,Mercer County,NJ,50.88547815820543,NA,NA
08701,Ocean County,NJ,NA,7.732634338138926,NA
08753,Ocean County,NJ,3.659976387249114,4.193971166448231,NA
08755,Ocean County,NJ,74.2621015348288,NA,NA
08820,Middlesex County,NJ,49.11452184179457,NA,17.953667953667953
08822,Hunterdon County,NJ,NA,NA,81.27413127413128
08831,Middlesex County,NJ,NA,NA,1.9305019305019304
08854,Middlesex County,NJ,NA,94.75753604193972,25.675675675675674
08861,Middlesex County,NJ,2.0070838252656436,NA,NA
08873,Somerset County,NJ,17.827626918536012,NA,NA
08901,Middlesex County,NJ,NA,63.95806028833552,NA
87105,Bernalillo County,NM,5.667060212514758,NA,NA
87106,Bernalillo County,NM,NA,NA,58.88030888030889
87111,Bernalillo County,NM,NA,NA,26.640926640926644
87112,Bernalillo County,NM,17.237308146399055,NA,NA
87120,Bernalillo County,NM,11.097992916174734,NA,21.235521235521233
87121,Bernalillo County,NM,6.139315230224321,31.847968545216254,NA
87124,Sandoval County,NM,NA,NA,11.96911196911197
87144,Sandoval County,NM,NA,19.65923984272608,NA
87301,McKinley County,NM,29.043683589138137,NA,NA
87401,San Juan County,NM,20.66115702479339,NA,35.13513513513514
87505,Santa Fe County,NM,NA,5.897771952817824,NA
88260,Lea County,NM,44.98229043683589,NA,NA
10002,New York County,NY,23.258559622195985,NA,NA
10012,New York County,NY,85.9504132231405,NA,NA
10022,New York County,NY,NA,NA,23.166023166023166
10024,New York County,NY,NA,NA,4.054054054054054
10025,New York County,NY,NA,1.310615989515072,NA
10027,New York County,NY,6.493506493506493,NA,NA
10029,New York County,NY,0.47225501770956313,NA,NA
10031,New York County,NY,NA,14.941022280471822,NA
10033,New York County,NY,19.952774498229044,NA,NA
10035,New York County,NY,28.80755608028335,NA,NA
10044,New York County,NY,NA,NA,98.06949806949807
10075,New York County,NY,NA,NA,55.01930501930502
10305,Richmond County,NY,NA,15.858453473132371,NA
10452,Bronx County,NY,7.792207792207792,0.9174311926605505,NA
10454,Bronx County,NY,8.264462809917356,NA,NA
10456,Bronx County,NY,3.896103896103896,0,NA
10457,Bronx County,NY,0.5903187721369539,0.5242463958060288,NA
10458,Bronx County,NY,0.23612750885478156,NA,NA
10459,Bronx County,NY,NA,NA,65.05791505791507
10460,Bronx County,NY,2.5974025974025974,NA,NA
10462,Bronx County,NY,NA,NA,7.5289575289575295
10467,Bronx County,NY,0.3541912632821724,NA,NA
10468,Bronx County,NY,NA,2.490170380078637,7.722007722007722
10472,Bronx County,NY,NA,16.382699868938403,NA
10473,Bronx County,NY,6.257378984651712,NA,NA
10567,Westchester County,NY,92.08972845336481,NA,NA
10598,Westchester County,NY,NA,NA,32.239382239382245
10605,Westchester County,NY,89.8465171192444,NA,NA
10606,Westchester County,NY,87.2491145218418,NA,NA
10701,Westchester County,NY,2.125147579693034,NA,NA
10704,Westchester County,NY,NA,NA,46.91119691119691
10954,Rockland County,NY,NA,83.09305373525558,NA
10960,Rockland County,NY,NA,96.59239842726082,NA
10962,Rockland County,NY,NA,96.06815203145477,NA
10977,Rockland County,NY,NA,58.97771952817824,NA
11005,Queens County,NY,NA,NA,77.22007722007721
11040,Nassau County,NY,NA,NA,26.254826254826252
11101,Queens County,NY,NA,NA,100
11203,Kings County,NY,11.334120425029516,NA,NA
11204,Kings County,NY,NA,NA,31.85328185328185
11207,Kings County,NY,16.05667060212515,NA,NA
11208,Kings County,NY,1.4167650531286895,NA,NA
11212,Kings County,NY,NA,0.655307994757536,5.984555984555985
11217,Kings County,NY,NA,24.246395806028833,NA
11219,Kings County,NY,16.528925619834713,56.88073394495413,NA
11226,Kings County,NY,5.785123966942149,NA,NA
11230,Kings County,NY,19.71664698937426,NA,5.405405405405405
11233,Kings County,NY,2.2432113341204247,NA,NA
11234,Kings County,NY,NA,44.29882044560944,NA
11236,Kings County,NY,NA,59.23984272608126,NA
11238,Kings County,NY,23.494687131050767,13.499344692005241,38.030888030888036
11354,Queens County,NY,NA,NA,21.042471042471043
11355,Queens County,NY,31.286894923258558,NA,14.671814671814673
11369,Queens County,NY,84.53364817001182,NA,NA
11372,Queens County,NY,NA,21.100917431192663,NA
11374,Queens County,NY,NA,80.07863695937091,NA
11375,Queens County,NY,NA,NA,6.177606177606178
11379,Queens County,NY,NA,60.28833551769331,NA
11414,Queens County,NY,76.38724911452184,NA,NA
11417,Queens County,NY,NA,51.76933158584534,NA
11420,Queens County,NY,NA,NA,29.343629343629345
11421,Queens County,NY,37.42621015348288,57.01179554390564,NA
11423,Queens County,NY,NA,45.87155963302752,NA
11426,Queens County,NY,NA,80.73394495412845,NA
11433,Queens County,NY,29.39787485242031,NA,NA
11520,Nassau County,NY,35.41912632821724,NA,NA
11542,Nassau County,NY,NA,NA,35.521235521235525
11550,Nassau County,NY,NA,52.55570117955439,NA
11552,Nassau County,NY,NA,NA,56.75675675675676
11590,Nassau County,NY,NA,68.28309305373526,NA
11692,Queens County,NY,NA,NA,94.98069498069498
11713,Suffolk County,NY,NA,NA,94.78764478764478
11720,Suffolk County,NY,72.60920897284534,NA,NA
11722,Suffolk County,NY,25.265643447461628,NA,NA
11725,Suffolk County,NY,NA,67.88990825688074,NA
11726,Suffolk County,NY,NA,NA,70.84942084942085
11746,Suffolk County,NY,NA,41.02228047182175,NA
11776,Suffolk County,NY,NA,NA,42.084942084942085
11788,Suffolk County,NY,NA,78.89908256880734,NA
11901,Suffolk County,NY,80.6375442739079,NA,NA
12010,Montgomery County,NY,6.729634002361275,NA,NA
12047,Albany County,NY,32.349468713105075,58.322411533420706,NA
12065,Saratoga County,NY,26.210153482880756,NA,NA
12306,Schenectady County,NY,NA,71.16644823066841,NA
12414,Greene County,NY,54.30932703659976,NA,NA
12534,Columbia County,NY,18.181818181818183,NA,NA
12701,Sullivan County,NY,47.69775678866588,NA,NA
12804,Warren County,NY,9.681227863046045,NA,NA
12831,Saratoga County,NY,NA,82.56880733944955,NA
12839,Washington County,NY,NA,47.96854521625164,NA
12866,Saratoga County,NY,NA,8.387942332896461,NA
12883,Essex County,NY,79.5749704840614,NA,NA
12972,Clinton County,NY,NA,75.09829619921364,NA
13031,Onondaga County,NY,NA,58.45347313237221,NA
13041,Onondaga County,NY,NA,80.86500655307994,NA
13045,Cortland County,NY,NA,8.256880733944955,NA
13057,Onondaga County,NY,NA,NA,73.16602316602317
13066,Onondaga County,NY,NA,54.521625163827004,NA
13074,Oswego County,NY,82.0543093270366,NA,NA
13148,Seneca County,NY,27.744982290436838,29.226736566186105,NA
13166,Cayuga County,NY,82.99881936245572,NA,NA
13167,Oswego County,NY,95.86776859504133,NA,NA
13208,Onondaga County,NY,NA,38.1389252948886,NA
13308,Oneida County,NY,92.68004722550177,NA,NA
13350,Herkimer County,NY,NA,33.81389252948886,NA
13367,Lewis County,NY,NA,63.564875491481,NA
13492,Oneida County,NY,65.64344746162928,NA,NA
13601,Jefferson County,NY,NA,17.693315858453474,NA
13691,Jefferson County,NY,99.29161747343565,NA,NA
13760,Broome County,NY,9.327036599763874,NA,NA
13815,Chenango County,NY,NA,12.18872870249017,NA
13850,Broome County,NY,NA,3.800786369593709,NA
13862,Broome County,NY,71.54663518299881,NA,NA
13905,Broome County,NY,2.3612750885478158,NA,NA
14004,Erie County,NY,63.63636363636363,NA,NA
14006,Erie County,NY,68.83116883116884,NA,NA
14043,Erie County,NY,36.24557260920897,NA,NA
14047,Erie County,NY,NA,NA,96.13899613899613
14072,Erie County,NY,45.80873671782763,NA,NA
14103,Orleans County,NY,NA,NA,78.57142857142857
14120,Niagara County,NY,NA,NA,62.54826254826254
14208,Erie County,NY,NA,27.12975098296199,NA
14209,Erie County,NY,70.24793388429752,NA,NA
14215,Erie County,NY,NA,NA,57.52895752895753
14217,Erie County,NY,28.09917355371901,NA,NA
14220,Erie County,NY,16.646989374262102,25.032765399737876,NA
14221,Erie County,NY,NA,NA,13.320463320463322
14305,Niagara County,NY,NA,NA,56.56370656370656
14437,Livingston County,NY,NA,NA,95.94594594594594
14472,Monroe County,NY,NA,28.70249017038008,NA
14482,Genesee County,NY,54.07319952774499,NA,NA
14489,Wayne County,NY,36.00944510035419,NA,NA
14510,Livingston County,NY,62.8099173553719,NA,NA
14527,Yates County,NY,NA,26.605504587155966,NA
14564,Ontario County,NY,NA,NA,37.45173745173745
14580,Monroe County,NY,0.9445100354191263,NA,NA
14586,Monroe County,NY,NA,66.84141546526867,NA
14606,Monroe County,NY,4.132231404958678,10.484927916120576,NA
14609,Monroe County,NY,NA,1.1795543905635648,NA
14610,Monroe County,NY,NA,24.37745740498034,NA
14612,Monroe County,NY,2.95159386068477,1.7038007863695939,NA
14616,Monroe County,NY,4.6044864226682405,NA,NA
14617,Monroe County,NY,7.910271546635183,4.062909567496723,30.115830115830118
14618,Monroe County,NY,NA,65.79292267365662,NA
14619,Monroe County,NY,17.355371900826448,NA,NA
14621,Monroe County,NY,0.70838252656434475,NA,15.444015444015443
14622,Monroe County,NY,NA,18.610747051114025,NA
14623,Monroe County,NY,20.425029515938604,NA,NA
14624,Monroe County,NY,NA,17.300131061598954,NA
14738,Chautauqua County,NY,94.45100354191264,NA,NA
14904,Chemung County,NY,31.16883116883117,NA,NA
27006,Davie County,NC,64.1086186540732,NA,NA
27018,Yadkin County,NC,75.5608028335301,NA,NA
27030,Surry County,NC,NA,1.9659239842726082,1.5444015444015444
27105,Forsyth County,NC,3.3057851239669422,NA,NA
27106,Forsyth County,NC,15.938606847697756,NA,NA
27282,Guilford County,NC,76.62337662337663,NA,NA
27288,Rockingham County,NC,NA,NA,40.73359073359074
27306,Montgomery County,NC,73.78984651711924,NA,NA
27317,Randolph County,NC,NA,73.26343381389253,NA
27320,Rockingham County,NC,13.57733175914994,NA,NA
27358,Guilford County,NC,NA,68.41415465268676,NA
27407,Guilford County,NC,NA,34.99344692005242,NA
27455,Guilford County,NC,NA,NA,49.80694980694981
27510,Orange County,NC,NA,81.25819134993448,NA
27519,Wake County,NC,78.63046044864227,NA,NA
27526,Wake County,NC,62.455726092089726,NA,NA
27529,Wake County,NC,NA,15.727391874180865,NA
27536,Vance County,NC,32.1133412042503,32.11009174311927,NA
27537,Vance County,NC,NA,26.86762778505898,NA
27542,Johnston County,NC,97.87485242030696,NA,NA
27577,Johnston County,NC,47.4616292798111,NA,NA
27596,Franklin County,NC,NA,NA,78.37837837837837
27604,Wake County,NC,36.717827626918535,NA,NA
27610,Wake County,NC,9.090909090909092,32.634338138925294,NA
27614,Wake County,NC,NA,36.566186107470514,NA
27616,Wake County,NC,NA,36.82830930537352,NA
27701,Durham County,NC,NA,87.1559633027523,NA
27703,Durham County,NC,13.105076741440378,NA,NA
27705,Durham County,NC,NA,44.95412844036697,NA
27707,Durham County,NC,NA,NA,17.56756756756757
27817,Beaufort County,NC,NA,93.70904325032765,NA
27834,Pitt County,NC,8.972845336481699,NA,48.26254826254826
27856,Nash County,NC,93.15230224321134,NA,NA
27858,Pitt County,NC,28.45336481700118,41.41546526867628,NA
27863,Wayne County,NC,NA,74.96723460026212,NA
27886,Edgecombe County,NC,40.61393152302244,NA,79.92277992277992
27909,Pasquotank County,NC,NA,11.140235910878113,NA
27932,Chowan County,NC,NA,45.60943643512451,NA
28052,Gaston County,NC,29.515938606847698,62.647444298820446,NA
28054,Gaston County,NC,22.55017709563164,27.391874180865006,84.36293436293437
28079,Union County,NC,50.17709563164109,NA,NA
28083,Cabarrus County,NC,NA,20.96985583224115,NA
28086,Cleveland County,NC,NA,33.551769331585845,NA
28104,Union County,NC,68.47697756788665,NA,NA
28105,Mecklenburg County,NC,NA,91.08781127129751,NA
28115,Iredell County,NC,24.20306965761511,NA,NA
28117,Iredell County,NC,NA,NA,54.440154440154444
28120,Gaston County,NC,60.44864226682408,NA,NA
28134,Mecklenburg County,NC,NA,NA,88.22393822393822
28152,Cleveland County,NC,NA,NA,55.98455598455598
28208,Mecklenburg County,NC,NA,23.722149410222805,NA
28216,Mecklenburg County,NC,NA,15.072083879423328,NA
28226,Mecklenburg County,NC,55.25383707201888,NA,NA
28277,Mecklenburg County,NC,45.69067296340024,NA,NA
28304,Cumberland County,NC,NA,NA,49.22779922779923
28306,Bladen County,NC,NA,NA,39.189189189189186
28311,Cumberland County,NC,NA,41.8086500655308,NA
28320,Bladen County,NC,75.20661157024794,NA,NA
28337,Bladen County,NC,NA,NA,83.3976833976834
28352,Scotland County,NC,28.33530106257379,NA,NA
28372,Robeson County,NC,NA,NA,79.72972972972973
28405,New Hanover County,NC,NA,31.19266055045872,NA
28412,New Hanover County,NC,18.654073199527748,NA,NA
28451,Brunswick County,NC,NA,23.32896461336828,NA
28461,Brunswick County,NC,46.51711924439197,NA,NA
28467,Brunswick County,NC,NA,89.77719528178244,NA
28562,Craven County,NC,NA,NA,49.42084942084942
28605,Watauga County,NC,NA,86.76277850589777,NA
28607,Watauga County,NC,NA,37.48361730013106,NA
28625,Iredell County,NC,NA,55.70117955439057,NA
28658,Catawba County,NC,NA,40.49803407601573,NA
28712,Transylvania County,NC,NA,NA,10.81081081081081
28715,Buncombe County,NC,51.357733175915,NA,NA
28806,Buncombe County,NC,44.510035419126325,NA,NA
58103,Cass County,ND,NA,39.44954128440367,NA
58201,Grand Forks County,ND,34.120425029515935,6.028833551769332,NA
58237,Walsh County,ND,94.33293978748523,NA,NA
58301,Ramsey County,ND,70.4840613931523,NA,NA
43015,Delaware County,OH,NA,6.159895150720838,NA
43016,Franklin County,OH,63.518299881936244,NA,NA
43040,Union County,OH,28.57142857142857,NA,NA
43056,Licking County,OH,41.79456906729634,NA,NA
43072,Champaign County,OH,90.08264462809917,NA,NA
43082,Delaware County,OH,63.282172373081465,NA,NA
43113,Pickaway County,OH,NA,45.478374836173,8.301158301158301
43119,Franklin County,OH,27.036599763872495,NA,NA
43123,Franklin County,OH,NA,6.684141546526867,NA
43147,Fairfield County,OH,NA,NA,46.33204633204633
43160,Fayette County,OH,NA,20.0524246395806,NA
43204,Franklin County,OH,7.083825265643448,NA,NA
43206,Franklin County,OH,14.757969303423849,NA,NA
43220,Franklin County,OH,NA,NA,40.15444015444015
43232,Franklin County,OH,NA,NA,54.826254826254825
43302,Marion County,OH,3.0696576151121606,NA,NA
43351,Wyandot County,OH,NA,NA,49.61389961389961
43410,Sandusky County,OH,NA,NA,74.5173745173745
43431,Sandusky County,OH,91.1452184179457,NA,NA
43532,Henry County,OH,NA,99.47575360419397,NA
43608,Lucas County,OH,10.035419126328216,NA,NA
43609,Lucas County,OH,26.210153482880756,NA,NA
43616,Lucas County,OH,15.820543093270366,NA,NA
43619,Wood County,OH,67.17827626918536,NA,NA
43724,Noble County,OH,NA,78.24377457404981,NA
43812,Coshocton County,OH,6.965761511216057,NA,NA
43938,Jefferson County,OH,NA,71.95281782437746,NA
43952,Jefferson County,OH,NA,9.436435124508519,NA
44004,Ashtabula County,OH,3.187721369539551,NA,NA
44035,Lorain County,OH,NA,2.3591087811271296,NA
44039,Lorain County,OH,9.563164108618654,NA,NA
44047,Ashtabula County,OH,NA,NA,91.11969111969111
44052,Lorain County,OH,4.014167650531287,NA,NA
44094,Lake County,OH,22.07792207792208,NA,NA
44105,Cuyahoga County,OH,NA,0.1310615989515072,NA
44106,Cuyahoga County,OH,NA,13.237221494102227,NA
44107,Cuyahoga County,OH,NA,2.7522935779816518,NA
44109,Cuyahoga County,OH,NA,NA,4.633204633204633
44113,Cuyahoga County,OH,NA,NA,86.67953667953668
44120,Cuyahoga County,OH,NA,42.463958060288334,NA
44122,Cuyahoga County,OH,NA,4.3250327653997385,NA
44130,Cuyahoga County,OH,NA,NA,0.5791505791505791
44134,Cuyahoga County,OH,35.18299881936245,NA,NA
44137,Cuyahoga County,OH,7.55608028335301,NA,NA
44142,Cuyahoga County,OH,30.932703659976386,17.955439056356486,NA
44143,Cuyahoga County,OH,NA,NA,2.1235521235521233
44145,Cuyahoga County,OH,NA,28.178243774574053,NA
44147,Cuyahoga County,OH,50.29515938606848,NA,NA
44202,Portage County,OH,NA,18.74180865006553,NA
44203,Summit County,OH,7.674144037780402,NA,NA
44212,Medina County,OH,4.7225501770956315,NA,NA
44240,Portage County,OH,31.40495867768595,NA,NA
44241,Portage County,OH,65.99763872491145,NA,NA
44287,Wayne County,OH,85.71428571428571,NA,NA
44305,Summit County,OH,17.001180637544273,NA,NA
44307,Summit County,OH,NA,62.254259501965926,NA
44311,Summit County,OH,NA,85.4521625163827,NA
44438,Trumbull County,OH,NA,80.99606815203146,NA
44446,Trumbull County,OH,16.292798110979927,NA,NA
44460,Columbiana County,OH,23.376623376623375,NA,NA
44512,Mahoning County,OH,12.514757969303425,NA,NA
44514,Mahoning County,OH,89.13813459268005,NA,NA
44601,Stark County,OH,NA,NA,10.231660231660232
44612,Tuscarawas County,OH,NA,94.88859764089122,NA
44646,Stark County,OH,NA,45.085190039318476,NA
44709,Stark County,OH,NA,46.92005242463958,NA
44720,Stark County,OH,32.70365997638725,NA,NA
44811,Sandusky County,OH,34.5926800472255,NA,NA
44824,Erie County,OH,94.21487603305785,NA,NA
44833,Crawford County,OH,NA,16.90694626474443,NA
44870,Erie County,OH,NA,NA,4.440154440154441
44883,Seneca County,OH,21.251475796930343,NA,NA
44890,Huron County,OH,44.8642266824085,NA,NA
44906,Richland County,OH,NA,46.788990825688074,NA
45005,Warren County,OH,10.625737898465172,NA,28.957528957528954
45069,Butler County,OH,NA,NA,13.513513513513514
45106,Clermont County,OH,NA,65.66186107470512,NA
45113,Clinton County,OH,98.7012987012987,NA,NA
45122,Clermont County,OH,NA,83.74836173001312,NA
45140,Clermont County,OH,26.092089728453367,NA,20.077220077220076
45150,Clermont County,OH,NA,NA,34.36293436293436
45152,Warren County,OH,NA,NA,93.05019305019306
45208,Hamilton County,OH,NA,83.74836173001312,NA
45215,Hamilton County,OH,NA,72.870249017038,NA
45231,Hamilton County,OH,NA,NA,45.94594594594595
45237,Hamilton County,OH,NA,21.756225425950195,NA
45238,Hamilton County,OH,16.76505312868949,NA,NA
45239,Hamilton County,OH,19.834710743801654,NA,40.92664092664093
45244,Hamilton County,OH,NA,46.65792922673656,NA
45309,Montgomery County,OH,NA,88.07339449541286,NA
45324,Greene County,OH,NA,16.775884665792923,NA
45344,Clark County,OH,NA,NA,90.54054054054053
45345,Montgomery County,OH,NA,77.85058977719528,NA
45365,Shelby County,OH,14.521841794569069,NA,NA
45385,Greene County,OH,13.931523022432113,NA,NA
45417,Montgomery County,OH,NA,15.334207077326342,NA
45424,Montgomery County,OH,NA,NA,32.625482625482626
45458,Montgomery County,OH,42.621015348288076,10.747051114023591,NA
45601,Ross County,OH,7.43801652892562,NA,NA
45631,Gallia County,OH,NA,NA,5.212355212355212
45648,Scioto County,OH,27.390791027154666,NA,NA
45656,Jackson County,OH,93.38842975206612,NA,NA
45669,Lawrence County,OH,NA,85.84534731323721,NA
45694,Scioto County,OH,31.759149940968122,NA,NA
45714,Washington County,OH,21.369539551357732,NA,NA
45750,Washington County,OH,NA,0.2621231979030144,NA
45771,Meigs County,OH,82.99881936245572,NA,NA
45805,Allen County,OH,NA,25.950196592398427,NA
45822,Mercer County,OH,41.086186540731994,NA,NA
45843,Hardin County,OH,98.46517119244392,NA,NA
45885,Auglaize County,OH,NA,NA,53.0888030888031
73010,McClain County,OK,77.09563164108619,NA,NA
73013,Oklahoma County,OK,NA,NA,11.776061776061777
73051,Cleveland County,OK,NA,89.64613368283094,NA
73071,Cleveland County,OK,25.97402597402597,49.41022280471822,NA
73096,Custer County,OK,NA,80.2096985583224,NA
73115,Oklahoma County,OK,60.68476977567887,NA,NA
73119,Oklahoma County,OK,NA,NA,71.04247104247105
73150,Oklahoma County,OK,NA,81.52031454783749,NA
73159,Oklahoma County,OK,NA,26.212319790301443,NA
73505,Comanche County,OK,25.14757969303424,NA,NA
73701,Garfield County,OK,NA,33.158584534731325,NA
74033,Tulsa County,OK,84.88783943329398,NA,NA
74053,Rogers County,OK,NA,NA,99.03474903474904
74127,Tulsa County,OK,NA,68.02096985583223,NA
74137,Tulsa County,OK,NA,56.09436435124508,NA
74145,Tulsa County,OK,68.71310507674144,NA,NA
74344,Delaware County,OK,76.03305785123968,NA,NA
74354,Ottawa County,OK,91.02715466351829,NA,NA
74361,Mayes County,OK,NA,64.48230668414155,NA
74451,Cherokee County,OK,NA,94.36435124508519,NA
74467,Wagoner County,OK,NA,58.58453473132372,NA
74525,Atoka County,OK,NA,83.22411533420708,NA
74745,McCurtain County,OK,NA,86.23853211009175,NA
74804,Pottawatomie County,OK,NA,NA,91.8918918918919
74851,Pottawatomie County,OK,NA,70.38007863695938,NA
74959,Le Flore County,OK,82.29043683589138,NA,NA
97013,Clackamas County,OR,61.511216056670605,NA,NA
97051,Columbia County,OR,NA,77.58846657929227,NA
97068,Clackamas County,OR,67.06021251475796,NA,NA
97070,Clackamas County,OR,64.34474616292798,NA,NA
97080,Multnomah County,OR,NA,NA,35.13513513513514
97086,Clackamas County,OR,56.08028335301063,NA,NA
97123,Washington County,OR,NA,14.547837483617302,NA
97128,Yamhill County,OR,NA,NA,64.86486486486487
97132,Yamhill County,OR,NA,28.57142857142857,NA
97203,Multnomah County,OR,44.74616292798111,NA,NA
97209,Multnomah County,OR,90.79102715466351,NA,NA
97236,Multnomah County,OR,NA,NA,60.03861003861004
97304,Polk County,OR,60.2125147579693,NA,NA
97361,Polk County,OR,NA,96.98558322411533,NA
97404,Lane County,OR,NA,82.0445609436435,NA
97415,Curry County,OR,49.46871310507674,NA,NA
97423,Coos County,OR,98.58323494687131,NA,NA
97424,Lane County,OR,NA,NA,34.55598455598455
97459,Coos County,OR,85.59622195985833,NA,NA
97487,Lane County,OR,NA,91.21887287024902,NA
97601,Klamath County,OR,NA,NA,41.50579150579151
97603,Klamath County,OR,NA,NA,21.814671814671815
97707,Deschutes County,OR,99.17355371900827,NA,NA
97801,Umatilla County,OR,NA,25.688073394495415,NA
97838,Umatilla County,OR,NA,15.98951507208388,NA
15010,Beaver County,PA,NA,NA,50.57915057915058
15025,Allegheny County,PA,51.59386068476978,NA,NA
15044,Allegheny County,PA,NA,55.43905635648755,NA
15061,Beaver County,PA,NA,NA,59.26640926640927
15063,Washington County,PA,NA,NA,88.8030888030888
15065,Allegheny County,PA,NA,65.79292267365662,NA
15068,Westmoreland County,PA,NA,8.781127129750983,NA
15139,Allegheny County,PA,NA,NA,66.21621621621621
15221,Allegheny County,PA,21.01534828807556,NA,NA
15235,Allegheny County,PA,NA,NA,9.073359073359073
15239,Allegheny County,PA,85.71428571428571,NA,NA
15317,Washington County,PA,NA,7.601572739187418,NA
15461,Fayette County,PA,99.76387249114522,NA,NA
15642,Westmoreland County,PA,24.557260920897285,5.242463958060288,5.019305019305019
15666,Westmoreland County,PA,NA,32.241153342070774,NA
15767,Jefferson County,PA,NA,NA,62.93436293436293
15853,Elk County,PA,63.990554899645815,NA,NA
15906,Cambria County,PA,NA,69.20052424639582,NA
16063,Butler County,PA,NA,NA,59.07335907335908
16121,Mercer County,PA,72.13695395513578,NA,NA
16125,Mercer County,PA,NA,NA,11.003861003861005
16137,Mercer County,PA,NA,NA,48.64864864864865
16146,Mercer County,PA,NA,NA,27.413127413127413
16232,Clarion County,PA,NA,NA,80.6949806949807
16314,Crawford County,PA,NA,73.91874180865007,NA
16412,Erie County,PA,92.56198347107438,NA,NA
16415,Erie County,PA,NA,92.52948885976409,NA
16438,Erie County,PA,89.37426210153482,91.61205766710354,NA
16441,Erie County,PA,81.81818181818183,NA,NA
16509,Erie County,PA,NA,33.420707732634334,NA
16602,Blair County,PA,NA,11.402359108781127,NA
16652,Huntingdon County,PA,NA,54.78374836173001,NA
17011,Cumberland County,PA,NA,NA,14.478764478764477
17046,Lebanon County,PA,11.570247933884298,NA,NA
17103,Dauphin County,PA,72.37308146399056,NA,NA
17202,Franklin County,PA,NA,16.120576671035387,NA
17225,Franklin County,PA,NA,NA,55.4054054054054
17241,Cumberland County,PA,NA,83.22411533420708,NA
17331,York County,PA,NA,1.4416775884665793,NA
17408,York County,PA,NA,93.05373525557012,NA
17522,Lancaster County,PA,NA,NA,8.880308880308881
17552,Lancaster County,PA,NA,35.91087811271297,NA
17603,Lancaster County,PA,NA,NA,7.915057915057915
17801,Northumberland County,PA,NA,NA,30.888030888030887
17814,Columbia County,PA,NA,NA,99.22779922779922
17961,Schuylkill County,PA,NA,90.69462647444298,NA
17963,Schuylkill County,PA,83.47107438016529,NA,NA
75036,NA,NA,95.15938606847698,NA,NA
18045,Northampton County,PA,41.55844155844156,NA,NA
18071,Carbon County,PA,53.010625737898465,NA,NA
18102,Lehigh County,PA,1.5348288075560803,NA,NA
18104,Lehigh County,PA,NA,25.81913499344692,NA
18201,Luzerne County,PA,22.668240850059032,NA,NA
18255,Carbon County,PA,90.9090909090909,NA,NA
18328,Pike County,PA,98.93742621015348,NA,NA
18330,Monroe County,PA,NA,86.10747051114024,NA
18466,Monroe County,PA,NA,67.4967234600262,NA
18655,Luzerne County,PA,95.27744982290437,NA,NA
18657,Wyoming County,PA,NA,87.81127129750983,NA
18661,Luzerne County,PA,NA,NA,79.53667953667953
18902,Bucks County,PA,NA,NA,75.86872586872587
18940,Bucks County,PA,86.89492325855961,NA,NA
19001,Montgomery County,PA,NA,48.099606815203146,NA
19006,Montgomery County,PA,51.12160566706021,NA,42.857142857142854
19008,Delaware County,PA,53.71900826446281,NA,NA
19013,Delaware County,PA,4.8406139315230226,NA,NA
19027,Montgomery County,PA,NA,71.69069462647444,NA
19033,Delaware County,PA,97.63872491145219,NA,NA
19038,Montgomery County,PA,39.7874852420307,NA,NA
19046,Montgomery County,PA,48.40613931523022,NA,NA
19047,Bucks County,PA,NA,NA,25.868725868725868
19060,Delaware County,PA,87.01298701298701,NA,NA
19063,Delaware County,PA,57.02479338842975,NA,NA
19064,Delaware County,PA,NA,NA,40.54054054054054
19075,Montgomery County,PA,NA,95.67496723460026,NA
19104,Philadelphia County,PA,NA,54.12844036697248,NA
19107,Philadelphia County,PA,NA,48.36173001310616,NA
19115,Philadelphia County,PA,NA,NA,12.741312741312742
19116,Philadelphia County,PA,NA,49.279161205766705,24.517374517374517
19118,Philadelphia County,PA,NA,NA,80.11583011583011
19125,Philadelphia County,PA,NA,NA,90.92664092664093
19126,Philadelphia County,PA,37.308146399055495,NA,NA
19128,Philadelphia County,PA,NA,82.17562254259502,NA
19131,Philadelphia County,PA,NA,2.8833551769331587,NA
19134,Philadelphia County,PA,4.4864226682408495,48.75491480996068,NA
19138,Philadelphia County,PA,46.04486422668241,NA,NA
19140,Philadelphia County,PA,3.541912632821724,NA,NA
19143,Philadelphia County,PA,NA,30.930537352555703,NA
19148,Philadelphia County,PA,NA,12.319790301441676,NA
19153,Philadelphia County,PA,NA,NA,69.3050193050193
19320,Chester County,PA,11.216056670602125,NA,NA
19355,Chester County,PA,NA,41.9397116644823,NA
19401,Montgomery County,PA,10.50767414403778,NA,NA
19460,Chester County,PA,NA,22.411533420707734,NA
19526,Berks County,PA,NA,59.8951507208388,NA
19601,Berks County,PA,21.487603305785125,13.630406290956751,NA
19607,Berks County,PA,NA,19.134993446920053,NA
02814,Providence County,RI,85.47815820543093,NA,NA
02860,Providence County,RI,NA,10.222804718217562,NA
02888,Kent County,RI,NA,44.03669724770643,NA
02904,Providence County,RI,37.07201889020071,NA,NA
02905,Providence County,RI,NA,42.857142857142854,NA
29053,Lexington County,SC,NA,72.608125819135,NA
29078,Kershaw County,SC,81.22786304604487,NA,NA
29108,Newberry County,SC,NA,NA,94.01544401544402
29118,Orangeburg County,SC,NA,74.83617300131061,NA
29204,Richland County,SC,NA,69.3315858453473,NA
29209,Richland County,SC,76.26918536009445,NA,NA
29306,Spartanburg County,SC,41.086186540731994,NA,NA
29330,Spartanburg County,SC,NA,84.66579292267366,NA
29349,Spartanburg County,SC,27.98110979929162,NA,22.2007722007722
29369,Spartanburg County,SC,NA,63.69593709043251,NA
29379,Union County,SC,NA,42.59501965923984,NA
29388,Spartanburg County,SC,NA,82.43774574049803,NA
29410,Berkeley County,SC,NA,NA,72.97297297297297
29461,Berkeley County,SC,36.95395513577332,NA,NA
29472,Dorchester County,SC,83.70720188902007,NA,NA
29506,Florence County,SC,48.05194805194805,NA,NA
29550,Darlington County,SC,NA,58.84665792922673,NA
29579,Horry County,SC,NA,NA,77.02702702702703
29585,Georgetown County,SC,91.26328217237308,NA,NA
29591,Florence County,SC,94.9232585596222,NA,NA
29605,Greenville County,SC,NA,11.795543905635649,NA
29607,Greenville County,SC,NA,NA,89.57528957528957
29615,Greenville County,SC,61.393152302243216,NA,NA
29617,Greenville County,SC,NA,86.36959370904324,NA
29620,Abbeville County,SC,NA,NA,60.810810810810814
29627,Anderson County,SC,61.511216056670605,NA,NA
29651,Greenville County,SC,23.84887839433294,48.23066841415466,90.73359073359073
29662,Greenville County,SC,NA,60.28833551769331,NA
29669,Anderson County,SC,NA,60.550458715596335,NA
29702,Cherokee County,SC,NA,93.84010484927916,NA
29707,Lancaster County,SC,NA,48.492791612057665,NA
29720,Lancaster County,SC,18.06375442739079,NA,NA
29730,York County,SC,NA,NA,46.13899613899614
29732,York County,SC,NA,22.93577981651376,NA
29936,Jasper County,SC,84.06139315230224,NA,NA
57078,Yankton County,SD,71.42857142857143,NA,NA
57103,Minnehaha County,SD,NA,NA,5.7915057915057915
57104,Minnehaha County,SD,NA,NA,50.38610038610039
57201,Codington County,SD,NA,NA,44.5945945945946
57350,Beadle County,SD,58.44155844155844,NA,NA
57702,Pennington County,SD,61.15702479338842,17.03800786369594,10.424710424710424
57747,Fall River County,SD,NA,NA,68.72586872586872
57772,Shannon County,SD,NA,98.68938401048493,NA
37058,Stewart County,TN,NA,86.50065530799476,NA
37066,Sumner County,TN,NA,7.470511140235911,NA
37072,Davidson County,TN,NA,26.34338138925295,NA
37075,Sumner County,TN,19.59858323494687,NA,NA
37080,Davidson County,TN,77.09563164108619,NA,NA
37129,Rutherford County,TN,20.30696576151122,NA,NA
37138,Davidson County,TN,NA,NA,69.88416988416989
37148,Sumner County,TN,NA,45.74049803407602,NA
37160,Bedford County,TN,22.31404958677686,NA,NA
37172,Robertson County,TN,NA,32.765399737876805,NA
37186,Sumner County,TN,66.94214876033058,NA,NA
37329,McMinn County,TN,NA,92.13630406290957,NA
37336,Bradley County,TN,NA,NA,96.71814671814671
37355,Coffee County,TN,NA,50.982961992136296,NA
37406,Hamilton County,TN,NA,74.5740498034076,NA
37415,Hamilton County,TN,60.80283353010626,NA,NA
37604,Washington County,TN,NA,19.26605504587156,NA
37643,Carter County,TN,45.45454545454545,NA,NA
37659,Washington County,TN,40.49586776859504,65.3997378768021,NA
37663,Sullivan County,TN,70.72018890200708,NA,NA
37664,Sullivan County,TN,23.73081463990555,NA,NA
37716,Anderson County,TN,41.32231404958678,66.31716906946265,NA
37742,Loudon County,TN,NA,79.29226736566186,NA
37743,Greene County,TN,NA,25.29488859764089,NA
37748,Roane County,TN,38.84297520661157,28.833551769331585,NA
37766,Campbell County,TN,39.90554899645809,NA,NA
37774,Loudon County,TN,NA,22.673656618610746,NA
37801,Blount County,TN,18.536009445100355,NA,NA
37804,Blount County,TN,32.231404958677686,NA,28.37837837837838
37813,Hamblen County,TN,NA,63.17169069462647,NA
37820,Jefferson County,TN,NA,NA,92.85714285714286
37830,Anderson County,TN,NA,NA,34.74903474903475
37854,Roane County,TN,60.09445100354191,NA,NA
37861,Grainger County,TN,80.99173553719008,NA,NA
37870,Claiborne County,TN,NA,95.15072083879423,NA
37918,Knox County,TN,NA,20.838794233289644,NA
38018,Shelby County,TN,NA,76.93315858453474,NA
38019,Tipton County,TN,59.268004722550174,NA,NA
38063,Lauderdale County,TN,75.32467532467533,NA,NA
38106,Shelby County,TN,20.070838252656433,NA,NA
38107,Shelby County,TN,NA,60.94364351245085,NA
38108,Shelby County,TN,83.82526564344747,NA,NA
38111,Shelby County,TN,NA,NA,43.82239382239382
38114,Shelby County,TN,24.911452184179456,NA,NA
38115,Shelby County,TN,25.85596221959858,NA,NA
38117,Shelby County,TN,91.85360094451003,NA,NA
38122,Shelby County,TN,56.78866587957497,NA,NA
38133,Shelby County,TN,NA,90.82568807339449,NA
38201,Carroll County,TN,79.69303423848878,NA,NA
38242,Henry County,TN,50.0590318772137,38.40104849279161,NA
38301,Madison County,TN,NA,16.51376146788991,NA
38330,Gibson County,TN,96.1038961038961,NA,NA
38363,Decatur County,TN,NA,NA,87.25868725868726
38372,Hardin County,TN,52.30224321133412,NA,NA
38555,Cumberland County,TN,43.565525383707204,NA,NA
38556,Fentress County,TN,54.07319952774499,NA,NA
38558,Cumberland County,TN,NA,NA,39.38223938223938
38562,Jackson County,TN,NA,85.97640891218873,NA
38571,Cumberland County,TN,NA,43.381389252948885,NA
75020,Grayson County,TX,NA,NA,42.277992277992276
75034,Denton County,TX,NA,NA,37.83783783783784
75042,Dallas County,TX,NA,65.26867627785059,NA
75043,Dallas County,TX,NA,NA,26.833976833976834
75048,Dallas County,TX,73.19952774498229,NA,NA
75056,Denton County,TX,NA,NA,67.95366795366795
75061,Dallas County,TX,53.955135773317586,NA,NA
75092,Grayson County,TX,NA,50.32765399737876,82.43243243243244
75115,Dallas County,TX,73.43565525383707,NA,22.393822393822393
75119,Ellis County,TX,56.67060212514758,NA,NA
75143,Henderson County,TX,NA,NA,67.37451737451737
75149,Dallas County,TX,52.5383707201889,NA,NA
75160,Kaufman County,TX,65.76151121605666,NA,NA
75203,Dallas County,TX,NA,69.72477064220183,NA
75211,Dallas County,TX,22.195985832349468,NA,41.11969111969112
75216,Dallas County,TX,NA,38.92529488859764,NA
75228,Dallas County,TX,NA,NA,22.972972972972975
75237,Dallas County,TX,47.34356552538371,NA,NA
75251,Dallas County,TX,100,NA,NA
75287,Denton County,TX,44.98229043683589,NA,NA
75409,Collin County,TX,77.68595041322314,NA,NA
75503,Bowie County,TX,53.246753246753244,NA,NA
75601,Gregg County,TX,74.61629279811099,NA,NA
75602,Gregg County,TX,NA,68.80733944954129,NA
75605,Gregg County,TX,NA,NA,27.606177606177607
75647,Gregg County,TX,64.93506493506493,NA,NA
75763,Anderson County,TX,NA,NA,74.32432432432432
75803,Anderson County,TX,NA,NA,83.01158301158301
75904,Angelina County,TX,38.370720188902006,NA,NA
76008,Parker County,TX,79.92916174734357,NA,NA
76010,Tarrant County,TX,20.89728453364817,NA,NA
76040,Tarrant County,TX,NA,73.26343381389253,NA
76048,Hood County,TX,46.871310507674146,NA,NA
76049,Hood County,TX,NA,19.003931847968545,NA
76053,Tarrant County,TX,NA,70.11795543905636,NA
76105,Tarrant County,TX,NA,23.197903014416777,NA
76180,Tarrant County,TX,NA,34.60026212319791,NA
76240,Cooke County,TX,NA,34.73132372214941,NA
76266,Denton County,TX,NA,NA,83.3976833976834
76301,Wichita County,TX,76.97756788665879,NA,NA
76365,Clay County,TX,NA,NA,80.8880308880309
76706,McLennan County,TX,NA,42.72608125819135,20.84942084942085
76712,McLennan County,TX,NA,NA,5.598455598455598
76834,Coleman County,TX,95.0413223140496,NA,NA
77008,Harris County,TX,NA,73.91874180865007,NA
77015,Harris County,TX,NA,NA,66.98841698841699
77025,Harris County,TX,NA,71.55963302752293,NA
77041,Harris County,TX,NA,39.05635648754915,NA
77045,Harris County,TX,NA,64.87549148099608,85.71428571428571
77047,Harris County,TX,58.79574970484062,76.67103538663171,NA
77048,Harris County,TX,NA,79.55439056356488,NA
77055,Harris County,TX,86.18654073199528,NA,NA
77056,Harris County,TX,NA,NA,46.71814671814672
77071,Harris County,TX,NA,NA,68.33976833976834
77092,Harris County,TX,59.031877213695395,NA,NA
77328,San Jacinto County,TX,79.22077922077922,NA,NA
77339,Harris County,TX,NA,NA,33.397683397683394
77365,Montgomery County,TX,NA,61.33682830930537,NA
77381,Montgomery County,TX,NA,72.47706422018348,NA
77469,Fort Bend County,TX,32.82172373081464,NA,NA
77511,Brazoria County,TX,18.772136953955133,NA,NA
77515,Brazoria County,TX,NA,32.50327653997378,NA
77530,Harris County,TX,84.7697756788666,NA,NA
77531,Brazoria County,TX,NA,NA,80.5019305019305
77554,Galveston County,TX,NA,46.395806028833555,NA
77571,Harris County,TX,NA,NA,54.633204633204635
77573,Galveston County,TX,11.80637544273908,NA,NA
77581,Brazoria County,TX,33.175914994096814,NA,NA
77586,Harris County,TX,NA,66.44823066841415,NA
77642,Jefferson County,TX,NA,NA,83.78378378378379
77665,Chambers County,TX,NA,89.51507208387942,NA
77713,Jefferson County,TX,NA,88.46657929226737,NA
77840,Brazos County,TX,47.81582054309327,NA,NA
78028,Kerr County,TX,NA,NA,6.756756756756757
78040,Webb County,TX,NA,NA,16.988416988416986
78155,Guadalupe County,TX,NA,NA,32.432432432432435
78209,Bexar County,TX,NA,60.026212319790304,NA
78213,Bexar County,TX,NA,63.30275229357798,NA
78218,Bexar County,TX,51.47579693034239,NA,NA
78219,Bexar County,TX,78.39433293978747,NA,NA
78223,Bexar County,TX,NA,66.71035386631718,NA
78232,Bexar County,TX,NA,43.25032765399738,NA
78245,Bexar County,TX,26.80047225501771,NA,NA
78253,Bexar County,TX,NA,NA,72.2007722007722
78254,Bexar County,TX,48.52420306965762,NA,NA
78260,Bexar County,TX,83.94332939787486,NA,NA
78263,Bexar County,TX,98.8193624557261,NA,NA
78332,Jim Wells County,TX,NA,64.74442988204456,NA
78363,Kleberg County,TX,60.80283353010626,NA,66.79536679536679
78380,Nueces County,TX,NA,68.93840104849279,NA
78382,Aransas County,TX,NA,NA,83.20463320463321
78408,Nueces County,TX,NA,81.12712975098296,NA
78504,Hidalgo County,TX,43.44746162927981,45.34731323722149,NA
78521,Cameron County,TX,NA,17.562254259501966,NA
78538,Hidalgo County,TX,NA,NA,88.03088803088804
78572,Hidalgo County,TX,NA,18.2175622542595,NA
78573,Hidalgo County,TX,NA,NA,24.71042471042471
78574,Hidalgo County,TX,NA,36.435124508519,NA
78576,Hidalgo County,TX,NA,98.0340760157274,NA
78584,Starr County,TX,NA,56.4875491480996,NA
78586,Cameron County,TX,47.22550177095632,NA,NA
78589,Hidalgo County,TX,NA,36.04193971166448,NA
78628,Williamson County,TX,NA,24.770642201834864,NA
78717,Williamson County,TX,86.06847697756788,NA,NA
78723,Travis County,TX,62.92798110979929,NA,NA
78749,Travis County,TX,90.55489964580875,NA,NA
78801,Uvalde County,TX,NA,88.33551769331585,NA
79109,Randall County,TX,NA,44.82306684141547,NA
79323,Yoakum County,TX,79.10271546635182,NA,NA
79416,Lubbock County,TX,56.31641086186541,NA,NA
79556,Nolan County,TX,59.85832349468713,NA,NA
79602,Taylor County,TX,NA,NA,73.55212355212355
79707,Midland County,TX,37.78040141676505,NA,NA
84054,Davis County,UT,NA,76.4089121887287,NA
84074,Tooele County,UT,5.90318772136954,NA,NA
84096,Salt Lake County,UT,31.05076741440378,NA,93.62934362934364
84103,Salt Lake County,UT,NA,72.7391874180865,NA
84128,Salt Lake County,UT,NA,69.85583224115334,NA
84302,Box Elder County,UT,NA,NA,73.55212355212355
84337,Box Elder County,UT,93.74262101534829,NA,NA
84341,Cache County,UT,NA,NA,77.60617760617761
84663,Utah County,UT,NA,NA,88.996138996139
05452,Chittenden County,VT,NA,35.51769331585846,NA
05491,Addison County,VT,93.6245572609209,NA,NA
05676,Washington County,VT,NA,93.31585845347313,NA
05753,Addison County,VT,90.43683589138135,NA,NA
20112,Prince William County,VA,NA,NA,98.45559845559846
20175,Loudoun County,VA,NA,74.4429882044561,NA
20181,Prince William County,VA,NA,NA,98.26254826254826
22031,Fairfax County,VA,NA,80.2096985583224,NA
22039,Fairfax County,VA,NA,93.44692005242464,NA
22066,Fairfax County,VA,NA,NA,86.67953667953668
22152,Fairfax County,VA,57.85123966942148,NA,NA
22192,Prince William County,VA,22.786304604486425,NA,44.78764478764479
22193,Prince William County,VA,NA,18.872870249017037,NA
22309,Fairfax County,VA,30.460448642266826,NA,NA
22312,Fairfax County,VA,47.4616292798111,NA,NA
22485,King George County,VA,66.11570247933885,NA,NA
22560,Essex County,VA,NA,NA,95.75289575289575
22603,Frederick County,VA,87.60330578512396,NA,NA
22630,Warren County,VA,NA,NA,35.907335907335906
22851,Page County,VA,86.65879574970484,NA,NA
22901,Albemarle County,VA,NA,27.653997378768018,NA
22902,Charlottesville city,VA,27.62691853600944,NA,NA
22963,Fluvanna County,VA,NA,NA,47.49034749034749
22968,Greene County,VA,NA,73.00131061598951,NA
23103,Goochland County,VA,NA,NA,97.2972972972973
23116,Hanover County,VA,NA,55.57011795543906,NA
23168,James City County,VA,NA,NA,95.17374517374517
23185,James City County,VA,NA,NA,0.9652509652509652
23223,Henrico County,VA,NA,11.140235910878113,NA
23227,Henrico County,VA,NA,NA,26.061776061776058
23294,Henrico County,VA,82.0543093270366,NA,NA
23322,Chesapeake city,VA,NA,NA,15.250965250965251
23435,Suffolk city,VA,50.649350649350644,NA,NA
23451,Virginia Beach city,VA,44.62809917355372,NA,NA
23464,Virginia Beach city,VA,NA,3.1454783748361725,NA
23504,Norfolk city,VA,NA,NA,52.509652509652504
23606,Newport News city,VA,NA,NA,16.795366795366796
23703,Portsmouth city,VA,57.73317591499409,NA,NA
23803,Petersburg city,VA,13.931523022432113,NA,NA
23834,Colonial Heights city,VA,NA,63.433813892529486,NA
23847,Greensville County,VA,91.49940968122786,NA,NA
23970,Mecklenburg County,VA,NA,NA,64.67181467181467
24012,Roanoke city,VA,NA,41.41546526867628,NA
24153,Salem city,VA,NA,54.39056356487549,NA
24230,Wise County,VA,48.87839433293979,NA,NA
24426,Alleghany County,VA,49.35064935064935,NA,NA
24450,Rockbridge County,VA,NA,54.25950196592398,NA
24523,Bedford County,VA,NA,39.71166448230669,NA
24558,Halifax County,VA,NA,NA,70.46332046332047
24630,Tazewell County,VA,NA,78.24377457404981,NA
98001,King County,WA,46.28099173553719,NA,68.53281853281852
98023,King County,WA,NA,14.154652686762779,NA
98028,King County,WA,73.90791027154664,NA,NA
98072,King County,WA,NA,NA,57.91505791505791
98101,King County,WA,NA,NA,34.942084942084946
98115,King County,WA,NA,23.853211009174313,NA
98122,King County,WA,60.56670602125147,NA,NA
98125,King County,WA,NA,34.469200524246396,NA
98168,King County,WA,NA,28.964613368283093,NA
98201,Snohomish County,WA,50.76741440377804,NA,NA
98229,Whatcom County,WA,NA,NA,38.803088803088805
98239,Island County,WA,NA,61.730013106159895,NA
98248,Whatcom County,WA,80.87367178276268,NA,NA
98258,Snohomish County,WA,NA,NA,61.969111969111964
98321,Pierce County,WA,NA,71.42857142857143,NA
98370,Kitsap County,WA,NA,42.070773263433814,NA
98390,Pierce County,WA,NA,96.46133682830931,NA
98501,Thurston County,WA,69.0672963400236,NA,NA
98502,Thurston County,WA,NA,67.2346002621232,NA
98506,Thurston County,WA,NA,75.88466579292268,NA
98512,Thurston County,WA,NA,77.98165137614679,NA
98516,Thurston County,WA,NA,NA,87.64478764478764
98597,Thurston County,WA,68.83116883116884,NA,NA
98611,Cowlitz County,WA,NA,76.80209698558322,NA
98620,Klickitat County,WA,NA,NA,67.95366795366795
98802,Douglas County,WA,NA,28.440366972477065,NA
98902,Yakima County,WA,NA,NA,13.706563706563706
98926,Kittitas County,WA,NA,72.08387942332897,NA
99003,Spokane County,WA,NA,95.41284403669725,NA
99206,Spokane County,WA,NA,61.59895150720839,NA
99217,Spokane County,WA,NA,NA,80.3088803088803
99337,Benton County,WA,NA,NA,8.494208494208493
20001,District of Columbia,DC,23.61275088547816,NA,NA
20003,District of Columbia,DC,NA,44.167758846657925,NA
20005,District of Columbia,DC,NA,NA,77.99227799227799
20011,District of Columbia,DC,NA,NA,4.247104247104247
20019,District of Columbia,DC,NA,4.456094364351245,NA
20020,District of Columbia,DC,NA,5.5045871559633035,NA
20032,District of Columbia,DC,NA,NA,76.64092664092664
24701,Mercer County,WV,NA,NA,28.185328185328185
24740,Mercer County,WV,NA,31.97903014416776,47.87644787644788
24970,Greenbrier County,WV,96.69421487603306,NA,NA
25213,Putnam County,WV,NA,92.00524246395806,NA
25313,Kanawha County,WV,NA,51.37614678899083,NA
25411,Morgan County,WV,NA,52.6867627785059,NA
25414,Jefferson County,WV,NA,NA,61.969111969111964
25601,Logan County,WV,91.38134592680048,NA,NA
25661,Mingo County,WV,NA,77.06422018348624,NA
25801,Raleigh County,WV,NA,8.125819134993446,NA
25880,Raleigh County,WV,79.81109799291617,NA,NA
25962,Greenbrier County,WV,94.8051948051948,NA,NA
26101,Wood County,WV,6.6115702479338845,NA,NA
26201,Upshur County,WV,NA,16.25163826998689,14.864864864864865
26378,Lewis County,WV,NA,98.42726081258192,NA
26416,Barbour County,WV,NA,39.71166448230669,NA
26505,Monongalia County,WV,11.452184179456907,NA,NA
26726,Mineral County,WV,NA,NA,64.47876447876449
53014,Calumet County,WI,NA,63.95806028833552,NA
53024,Ozaukee County,WI,NA,NA,18.33976833976834
53066,Waukesha County,WI,NA,10.615989515072084,NA
53072,Waukesha County,WI,NA,NA,41.6988416988417
53126,Racine County,WI,NA,69.59370904325033,NA
53143,Kenosha County,WI,NA,NA,71.04247104247105
53147,Walworth County,WI,NA,37.352555701179554,NA
53188,Waukesha County,WI,25.50177095631641,NA,NA
53206,Milwaukee County,WI,NA,41.15334207077326,NA
53209,Milwaukee County,WI,3.778040141676505,NA,NA
53212,Milwaukee County,WI,16.883116883116884,NA,NA
53215,Milwaukee County,WI,NA,NA,9.45945945945946
53224,Milwaukee County,WI,40.731995277449826,NA,NA
53235,Milwaukee County,WI,NA,NA,75.4826254826255
53403,Racine County,WI,37.1900826446281,NA,NA
53511,Rock County,WI,NA,NA,0
53546,Rock County,WI,NA,3.9318479685452163,NA
53549,Jefferson County,WI,74.61629279811099,84.14154652686763,NA
53559,Dane County,WI,NA,NA,93.24324324324324
53581,Richland County,WI,NA,83.6173001310616,NA
53716,Dane County,WI,NA,NA,60.03861003861004
53901,Columbia County,WI,NA,NA,47.2972972972973
54001,Polk County,WI,NA,NA,55.98455598455598
54156,Marinette County,WI,99.88193624557262,NA,NA
54166,Shawano County,WI,NA,50.45871559633027,NA
54174,Oconto County,WI,99.52774498229043,NA,NA
54487,Lincoln County,WI,53.128689492325854,NA,NA
54501,Oneida County,WI,NA,20.57667103538663,NA
54729,Chippewa County,WI,36.481700118063756,NA,NA
54829,Barron County,WI,NA,NA,97.1042471042471
54880,Douglas County,WI,17.70956316410862,NA,NA
54914,Outagamie County,WI,NA,NA,73.93822393822393
54935,Fond du Lac County,WI,18.890200708382526,NA,NA
54952,Winnebago County,WI,NA,38.269986893840105,NA
54956,Winnebago County,WI,29.75206611570248,NA,NA
82009,Laramie County,WY,NA,57.536041939711666,NA
82070,Albany County,WY,86.54073199527745,NA,NA
82604,Natrona County,WY,NA,NA,56.94980694980695
