ZipCode,county,state,Adult,Retirement,Geriatric
35405,Tuscaloosa County,AL,30.666666666666664,NA,NA
35654,Franklin County,AL,99,NA,NA
36207,Calhoun County,AL,NA,NA,68.10344827586206
36567,Baldwin County,AL,58.666666666666664,NA,NA
36575,Mobile County,AL,NA,71.77914110429448,NA
36854,Chambers County,AL,NA,61.34969325153374,NA
99669,Kenai Peninsula Borough,AK,NA,52.760736196319016,NA
85023,Maricopa County,AZ,NA,55.21472392638037,NA
85027,Maricopa County,AZ,79.66666666666666,NA,NA
85119,Pinal County,AZ,NA,43.558282208588956,NA
85122,Pinal County,AZ,7.333333333333333,NA,NA
85128,Pinal County,AZ,36.333333333333336,NA,NA
85139,Pinal County,AZ,NA,70.85889570552148,NA
85213,Maricopa County,AZ,NA,53.37423312883436,NA
85254,Maricopa County,AZ,50.66666666666667,NA,NA
85258,Maricopa County,AZ,61.66666666666667,NA,NA
85621,Santa Cruz County,AZ,NA,NA,38.793103448275865
85745,Pima County,AZ,NA,19.018404907975462,NA
85749,Pima County,AZ,73,NA,NA
86305,Yavapai County,AZ,NA,NA,58.189655172413794
72019,Saline County,AR,NA,44.47852760736196,NA
72118,Pulaski County,AR,NA,56.44171779141104,NA
72204,Pulaski County,AR,NA,NA,45.689655172413794
72223,Pulaski County,AR,NA,58.58895705521472,NA
90016,Los Angeles County,CA,NA,22.699386503067483,NA
90067,Los Angeles County,CA,NA,NA,76.29310344827587
90291,Los Angeles County,CA,NA,NA,71.55172413793103
90503,Los Angeles County,CA,84.33333333333334,NA,NA
90601,Los Angeles County,CA,NA,NA,46.12068965517241
90606,Los Angeles County,CA,49.666666666666664,NA,NA
90746,Los Angeles County,CA,73.33333333333333,NA,NA
91106,Los Angeles County,CA,NA,80.06134969325154,NA
91205,Los Angeles County,CA,NA,47.54601226993865,NA
91320,Ventura County,CA,NA,88.95705521472392,NA
91335,Los Angeles County,CA,28.666666666666668,NA,NA
91505,Los Angeles County,CA,67.33333333333333,NA,NA
91701,San Bernardino County,CA,NA,30.368098159509206,NA
91744,Los Angeles County,CA,17,NA,NA
92114,San Diego County,CA,30.333333333333336,NA,NA
92203,Riverside County,CA,68,NA,NA
92260,Riverside County,CA,NA,13.190184049079754,NA
92503,Riverside County,CA,48.333333333333336,NA,NA
92614,Orange County,CA,57.333333333333336,NA,NA
92629,Orange County,CA,NA,40.1840490797546,NA
92648,Orange County,CA,NA,23.31288343558282,NA
92660,Orange County,CA,NA,NA,12.931034482758621
92675,Orange County,CA,60,NA,NA
92780,Orange County,CA,NA,53.987730061349694,NA
92802,Orange County,CA,NA,NA,44.827586206896555
92869,Orange County,CA,NA,92.94478527607362,NA
92870,Orange County,CA,NA,74.23312883435584,NA
92880,Riverside County,CA,NA,52.14723926380368,NA
93030,Ventura County,CA,NA,21.779141104294478,NA
93035,Ventura County,CA,NA,NA,71.98275862068965
93611,Fresno County,CA,35.66666666666667,NA,NA
93619,Fresno County,CA,38,NA,NA
93702,Fresno County,CA,NA,34.04907975460122,NA
94014,San Mateo County,CA,NA,28.52760736196319,NA
94015,San Mateo County,CA,NA,NA,3.8793103448275863
94025,San Mateo County,CA,44.666666666666664,NA,NA
94027,San Mateo County,CA,NA,96.0122699386503,NA
94066,San Mateo County,CA,NA,NA,11.206896551724139
94080,San Mateo County,CA,NA,NA,1.293103448275862
94109,San Francisco County,CA,NA,10.736196319018406,NA
94118,San Francisco County,CA,NA,NA,23.70689655172414
94122,San Francisco County,CA,NA,21.472392638036812,NA
94134,San Francisco County,CA,NA,59.8159509202454,NA
94546,Alameda County,CA,NA,59.20245398773007,NA
94550,Alameda County,CA,43.333333333333336,NA,NA
94583,Contra Costa County,CA,48.66666666666667,NA,NA
94588,Alameda County,CA,NA,70.24539877300614,NA
94601,Alameda County,CA,NA,69.32515337423312,NA
94619,Alameda County,CA,89.33333333333333,NA,NA
94954,Sonoma County,CA,NA,NA,33.62068965517241
94960,Marin County,CA,NA,78.83435582822086,NA
95120,Santa Clara County,CA,NA,NA,37.5
95122,Santa Clara County,CA,NA,NA,76.72413793103449
95204,San Joaquin County,CA,NA,65.33742331288343,NA
95222,Calaveras County,CA,NA,97.85276073619632,NA
95247,Calaveras County,CA,99.66666666666667,NA,NA
95307,Stanislaus County,CA,NA,75.76687116564416,NA
95355,Stanislaus County,CA,NA,7.05521472392638,NA
95356,Stanislaus County,CA,37,NA,NA
95370,Tuolumne County,CA,NA,44.171779141104295,NA
95382,Stanislaus County,CA,NA,77.60736196319019,NA
95383,Tuolumne County,CA,NA,82.82208588957054,NA
95472,Sonoma County,CA,NA,54.90797546012271,NA
95610,Sacramento County,CA,41.333333333333336,NA,NA
95948,Butte County,CA,96.66666666666667,NA,NA
95969,Butte County,CA,NA,NA,3.0172413793103448
95993,Sutter County,CA,NA,NA,31.896551724137932
96064,Siskiyou County,CA,NA,NA,99.13793103448276
96067,Siskiyou County,CA,NA,83.12883435582822,NA
96094,Siskiyou County,CA,NA,65.03067484662577,NA
96097,Siskiyou County,CA,NA,NA,72.84482758620689
80124,Douglas County,CO,59.66666666666667,NA,NA
80134,Douglas County,CO,69,NA,NA
80301,Boulder County,CO,NA,71.47239263803681,NA
80521,Larimer County,CO,NA,NA,92.67241379310344
80525,Larimer County,CO,14.333333333333334,NA,NA
80526,Larimer County,CO,NA,65.95092024539878,NA
80550,Weld County,CO,NA,73.31288343558282,NA
80601,Adams County,CO,60.66666666666667,NA,NA
80634,Weld County,CO,NA,1.2269938650306749,NA
80645,Weld County,CO,NA,99.69325153374233,NA
80817,El Paso County,CO,50.33333333333333,NA,NA
80919,El Paso County,CO,NA,49.38650306748466,NA
81001,Pueblo County,CO,NA,42.63803680981595,NA
81082,Las Animas County,CO,NA,NA,59.48275862068966
81301,La Plata County,CO,NA,40.49079754601227,NA
06066,Tolland County,CT,16.666666666666664,NA,NA
06074,Hartford County,CT,54.333333333333336,NA,NA
06082,Hartford County,CT,NA,NA,13.36206896551724
06260,Windham County,CT,NA,43.86503067484663,NA
06415,New London County,CT,53.333333333333336,NA,NA
06457,Middlesex County,CT,NA,7.361963190184049,NA
06460,New Haven County,CT,NA,NA,84.05172413793103
06518,New Haven County,CT,NA,NA,34.48275862068966
06779,Litchfield County,CT,NA,NA,73.70689655172413
06787,Litchfield County,CT,NA,97.54601226993866,NA
06880,Fairfield County,CT,44.666666666666664,NA,NA
19901,Kent County,DE,NA,NA,27.155172413793103
32024,Columbia County,FL,NA,40.79754601226993,NA
32034,Nassau County,FL,NA,NA,16.810344827586206
32141,Volusia County,FL,63.33333333333333,NA,NA
32164,Flagler County,FL,32.33333333333333,NA,NA
32219,Duval County,FL,NA,NA,91.37931034482759
32225,Duval County,FL,NA,48.15950920245399,NA
32244,Duval County,FL,NA,10.122699386503067,NA
32503,Escambia County,FL,NA,NA,20.689655172413794
32504,Escambia County,FL,NA,28.834355828220858,24.568965517241377
32505,Escambia County,FL,NA,NA,37.06896551724138
32507,Escambia County,FL,NA,NA,15.086206896551724
32514,Escambia County,FL,NA,NA,43.103448275862064
32526,Escambia County,FL,13.333333333333334,38.65030674846626,40.94827586206897
32533,Escambia County,FL,NA,20.245398773006134,NA
32534,Escambia County,FL,40.33333333333333,NA,NA
32539,Okaloosa County,FL,36.666666666666664,27.300613496932513,NA
32563,Santa Rosa County,FL,NA,23.92638036809816,NA
32566,Santa Rosa County,FL,33,23.006134969325153,32.758620689655174
32569,Okaloosa County,FL,NA,91.1042944785276,NA
32571,Santa Rosa County,FL,13,15.337423312883436,NA
32608,Alachua County,FL,6.333333333333334,NA,NA
32703,Orange County,FL,NA,NA,38.362068965517246
32726,Lake County,FL,NA,76.68711656441718,NA
32751,Orange County,FL,65.33333333333333,NA,NA
32811,Orange County,FL,NA,41.104294478527606,NA
32817,Orange County,FL,NA,NA,78.01724137931035
32822,Orange County,FL,NA,NA,35.3448275862069
32825,Orange County,FL,NA,NA,93.53448275862068
32926,Brevard County,FL,NA,NA,21.120689655172413
32940,Brevard County,FL,NA,25.4601226993865,NA
32951,Brevard County,FL,NA,81.59509202453987,87.06896551724138
33012,Miami-Dade County,FL,NA,NA,2.586206896551724
33019,Broward County,FL,NA,NA,62.93103448275862
33024,Broward County,FL,28.000000000000004,NA,NA
33067,Broward County,FL,73.66666666666667,NA,NA
33138,Miami-Dade County,FL,63,NA,NA
33140,Miami-Dade County,FL,NA,87.73006134969326,NA
33160,Miami-Dade County,FL,NA,NA,17.24137931034483
33162,Miami-Dade County,FL,NA,NA,81.03448275862068
33166,Miami-Dade County,FL,NA,50,NA
33172,Miami-Dade County,FL,NA,NA,45.258620689655174
33177,Miami-Dade County,FL,NA,NA,25.862068965517242
33328,Broward County,FL,NA,NA,75.86206896551724
33525,Pasco County,FL,85,NA,NA
33570,Hillsborough County,FL,82.33333333333334,NA,NA
33573,Hillsborough County,FL,NA,21.165644171779142,NA
33578,Hillsborough County,FL,NA,54.601226993865026,NA
33594,Hillsborough County,FL,NA,NA,84.91379310344827
33714,Pinellas County,FL,77.33333333333333,NA,NA
33761,Pinellas County,FL,NA,NA,75
33774,Pinellas County,FL,65.66666666666666,NA,NA
33852,Highlands County,FL,NA,51.22699386503068,NA
33872,Highlands County,FL,NA,NA,25
33901,Lee County,FL,NA,NA,64.65517241379311
33908,Lee County,FL,NA,4.601226993865031,9.051724137931034
33919,Lee County,FL,NA,14.417177914110429,NA
33928,Lee County,FL,NA,NA,22.844827586206897
33931,Lee County,FL,NA,NA,61.206896551724135
33955,Charlotte County,FL,NA,NA,81.89655172413794
33957,Lee County,FL,NA,NA,70.25862068965517
33966,Lee County,FL,NA,96.62576687116564,NA
34112,Collier County,FL,NA,NA,23.275862068965516
34145,Collier County,FL,NA,NA,65.08620689655173
34201,Manatee County,FL,99.33333333333333,NA,NA
34239,Sarasota County,FL,74.66666666666667,NA,50.86206896551724
34285,Sarasota County,FL,84.66666666666667,NA,NA
34291,Sarasota County,FL,85.66666666666667,NA,NA
34461,Citrus County,FL,NA,83.43558282208589,NA
34465,Citrus County,FL,NA,60.73619631901841,NA
34481,Marion County,FL,NA,26.993865030674847,NA
34482,Marion County,FL,NA,NA,66.8103448275862
34761,Orange County,FL,NA,NA,34.48275862068966
34983,St. Lucie County,FL,NA,29.141104294478527,NA
34987,St. Lucie County,FL,NA,NA,74.13793103448276
34996,Martin County,FL,97.33333333333334,NA,NA
34997,Martin County,FL,NA,NA,4.310344827586207
30044,Gwinnett County,GA,18.333333333333332,NA,NA
30062,Cobb County,GA,NA,15.644171779141105,NA
30127,Cobb County,GA,NA,NA,30.17241379310345
30135,Douglas County,GA,NA,12.883435582822086,NA
30152,Cobb County,GA,NA,NA,75.43103448275862
30228,Henry County,GA,NA,91.41104294478528,NA
30269,Fayette County,GA,62.66666666666667,NA,NA
30310,Fulton County,GA,NA,NA,53.44827586206896
30324,Fulton County,GA,NA,NA,89.22413793103449
30536,Gilmer County,GA,NA,76.38036809815951,NA
30646,Madison County,GA,83,NA,NA
30741,Walker County,GA,18,NA,NA
30809,Columbia County,GA,62,NA,NA
96786,Honolulu County,HI,NA,NA,48.706896551724135
96816,Honolulu County,HI,NA,NA,5.603448275862069
83404,Bonneville County,ID,NA,47.239263803680984,NA
83442,Jefferson County,ID,NA,72.69938650306749,NA
83647,Elmore County,ID,NA,87.42331288343557,93.96551724137932
83687,Canyon County,ID,NA,85.58282208588957,NA
83716,Ada County,ID,NA,39.87730061349693,NA
60004,Cook County,IL,NA,8.588957055214724,NA
60046,Lake County,IL,NA,56.74846625766872,NA
60069,Lake County,IL,NA,NA,37.93103448275862
60076,Cook County,IL,NA,NA,15.948275862068966
60083,Lake County,IL,NA,67.48466257668711,90.51724137931035
60085,Lake County,IL,NA,64.11042944785275,NA
60091,Cook County,IL,NA,22.085889570552148,NA
60115,DeKalb County,IL,NA,30.67484662576687,NA
60126,DuPage County,IL,10,NA,NA
60152,McHenry County,IL,NA,NA,63.793103448275865
60185,DuPage County,IL,35,NA,NA
60191,DuPage County,IL,NA,NA,55.172413793103445
60201,Cook County,IL,NA,NA,60.3448275862069
60402,Cook County,IL,10.333333333333334,NA,NA
60410,Will County,IL,NA,67.79141104294479,NA
60417,Will County,IL,NA,68.71165644171779,NA
60420,Livingston County,IL,NA,96.31901840490798,NA
60422,Cook County,IL,78.33333333333333,NA,84.48275862068965
60441,Will County,IL,NA,NA,42.241379310344826
60462,Cook County,IL,25,NA,NA
60463,Cook County,IL,NA,45.0920245398773,NA
60517,DuPage County,IL,64,NA,NA
60614,Cook County,IL,NA,NA,11.206896551724139
60615,Cook County,IL,68.33333333333333,NA,NA
60617,Cook County,IL,6,NA,NA
60621,Cook County,IL,NA,32.515337423312886,NA
60632,Cook County,IL,NA,29.754601226993866,NA
60646,Cook County,IL,NA,NA,31.03448275862069
60657,Cook County,IL,20.666666666666668,NA,NA
60805,Cook County,IL,66,NA,NA
61021,Lee County,IL,NA,6.134969325153374,NA
61032,Stephenson County,IL,NA,17.791411042944784,NA
61065,Boone County,IL,92,NA,NA
61103,Winnebago County,IL,NA,NA,47.8448275862069
61832,Vermilion County,IL,NA,8.895705521472392,62.5
61834,Vermilion County,IL,NA,96.93251533742331,96.55172413793103
62040,Madison County,IL,NA,NA,17.67241379310345
62656,Logan County,IL,68.66666666666667,NA,NA
62812,Franklin County,IL,74.33333333333333,NA,NA
62837,Wayne County,IL,NA,NA,67.67241379310344
62881,Marion County,IL,65,NA,NA
46143,Johnson County,IN,NA,NA,57.327586206896555
46160,Brown County,IN,NA,84.3558282208589,NA
46168,Hendricks County,IN,NA,48.77300613496933,NA
46236,Marion County,IN,NA,98.15950920245399,NA
46307,Lake County,IN,NA,34.66257668711656,43.96551724137931
46312,Lake County,IN,NA,NA,28.879310344827587
46319,Lake County,IN,56.666666666666664,NA,NA
46320,Lake County,IN,NA,NA,74.56896551724138
46322,Lake County,IN,NA,NA,10.775862068965516
46342,Lake County,IN,4.333333333333334,NA,NA
46356,Lake County,IN,NA,34.355828220858896,NA
46410,Lake County,IN,NA,59.8159509202454,28.448275862068968
46706,DeKalb County,IN,NA,NA,69.39655172413794
46774,Allen County,IN,NA,73.00613496932516,NA
46814,Allen County,IN,NA,NA,78.87931034482759
46815,Allen County,IN,NA,69.6319018404908,NA
46835,Allen County,IN,NA,41.41104294478527,NA
46845,Allen County,IN,55.333333333333336,74.5398773006135,NA
46923,Carroll County,IN,NA,94.78527607361963,NA
46962,Wabash County,IN,NA,83.74233128834356,NA
47111,Clark County,IN,87.66666666666667,NA,NA
47136,Harrison County,IN,NA,100,NA
47172,Clark County,IN,84,NA,NA
47371,Jay County,IN,NA,30.981595092024538,NA
47711,Vanderburgh County,IN,NA,NA,21.551724137931032
47715,Vanderburgh County,IN,NA,39.57055214723926,NA
47802,Vigo County,IN,22.666666666666664,NA,NA
47834,Clay County,IN,30,NA,NA
47906,Tippecanoe County,IN,NA,NA,68.96551724137932
50014,Story County,IA,NA,NA,85.34482758620689
50158,Marshall County,IA,NA,70.5521472392638,NA
50263,Dallas County,IA,86.33333333333333,NA,NA
50801,Union County,IA,63.66666666666667,NA,NA
51501,Pottawattamie County,IA,33.33333333333333,NA,NA
52246,Johnson County,IA,NA,61.65644171779141,NA
52404,Linn County,IA,NA,NA,65.94827586206897
52655,Des Moines County,IA,82.66666666666667,NA,NA
52722,Scott County,IA,20,NA,NA
67212,Sedgwick County,KS,93.66666666666667,NA,NA
67601,Ellis County,KS,NA,NA,62.06896551724138
40175,Hardin County,KY,NA,65.6441717791411,NA
41017,Kenton County,KY,29.666666666666668,NA,NA
41031,Harrison County,KY,NA,38.34355828220859,NA
41051,Kenton County,KY,35,NA,NA
41101,Boyd County,KY,16.333333333333332,NA,NA
41472,Morgan County,KY,88.33333333333333,NA,NA
42647,McCreary County,KY,98.66666666666667,NA,NA
70094,Jefferson Parish,LA,88,NA,NA
70422,Tangipahoa Parish,LA,NA,NA,96.98275862068965
70435,St. Tammany Parish,LA,NA,18.098159509202453,NA
70445,St. Tammany Parish,LA,NA,66.25766871165644,NA
70447,St. Tammany Parish,LA,55.00000000000001,NA,NA
70458,St. Tammany Parish,LA,NA,2.147239263803681,NA
70461,St. Tammany Parish,LA,16,NA,NA
70560,Iberia Parish,LA,NA,63.80368098159509,NA
70601,Calcasieu Parish,LA,NA,6.441717791411043,NA
70663,Calcasieu Parish,LA,NA,NA,77.58620689655173
70726,Livingston Parish,LA,10.666666666666668,NA,NA
71457,Natchitoches Parish,LA,26.333333333333332,NA,NA
04086,Sagadahoc County,ME,89,NA,NA
20708,Prince George's County,MD,75,NA,NA
20736,Calvert County,MD,NA,NA,90.94827586206897
21054,Anne Arundel County,MD,83.66666666666667,NA,NA
21158,Carroll County,MD,NA,62.26993865030674,NA
21201,Baltimore city,MD,70.66666666666667,NA,NA
21209,Baltimore County,MD,NA,84.04907975460122,NA
21213,Baltimore city,MD,NA,13.803680981595093,43.53448275862069
21228,Baltimore County,MD,NA,11.042944785276074,NA
21791,Carroll County,MD,NA,NA,97.84482758620689
01028,Hampden County,MA,NA,24.846625766871167,NA
01056,Hampden County,MA,NA,36.50306748466258,NA
01077,Hampden County,MA,NA,80.67484662576688,NA
01235,Berkshire County,MA,NA,98.77300613496932,NA
01440,Worcester County,MA,0.6666666666666667,NA,NA
01469,Middlesex County,MA,71.33333333333334,NA,NA
01524,Worcester County,MA,NA,60.42944785276073,NA
01605,Worcester County,MA,NA,95.70552147239265,NA
01748,Middlesex County,MA,39.33333333333333,NA,NA
01773,Middlesex County,MA,NA,NA,79.74137931034483
01843,Essex County,MA,2.666666666666667,NA,NA
01862,Middlesex County,MA,NA,46.31901840490797,NA
01930,Essex County,MA,NA,0.3067484662576687,NA
01950,Essex County,MA,18.666666666666668,NA,21.982758620689655
02072,Norfolk County,MA,7.666666666666666,NA,NA
02114,Suffolk County,MA,NA,37.423312883435585,NA
02118,Suffolk County,MA,NA,19.938650306748464,NA
02360,Plymouth County,MA,NA,0,NA
02465,Middlesex County,MA,52.666666666666664,NA,NA
02673,Barnstable County,MA,NA,NA,55.603448275862064
02720,Bristol County,MA,1.6666666666666667,NA,NA
02777,Bristol County,MA,6.666666666666667,NA,NA
48036,Macomb County,MI,85.33333333333334,NA,NA
48038,Macomb County,MI,12.666666666666668,3.9877300613496933,NA
48044,Macomb County,MI,7.000000000000001,5.214723926380368,NA
48047,Macomb County,MI,58.333333333333336,14.723926380368098,35.775862068965516
48073,Oakland County,MI,NA,33.74233128834356,NA
48076,Oakland County,MI,NA,25.766871165644172,NA
48081,Macomb County,MI,NA,55.52147239263804,NA
48082,Macomb County,MI,42.333333333333336,NA,NA
48089,Macomb County,MI,NA,23.619631901840492,NA
48101,Wayne County,MI,NA,30.061349693251532,NA
48111,Wayne County,MI,5.666666666666666,NA,NA
48127,Wayne County,MI,NA,NA,6.4655172413793105
48135,Wayne County,MI,22,NA,NA
48141,Wayne County,MI,NA,17.484662576687114,NA
48152,Wayne County,MI,NA,NA,8.189655172413794
48162,Monroe County,MI,NA,NA,53.01724137931034
48168,Wayne County,MI,NA,38.95705521472393,NA
48183,Wayne County,MI,92.33333333333333,NA,NA
48192,Wayne County,MI,17.333333333333336,NA,NA
48193,Wayne County,MI,51.33333333333333,NA,NA
48195,Wayne County,MI,NA,8.282208588957054,NA
48197,Washtenaw County,MI,NA,NA,56.03448275862068
48218,Wayne County,MI,66.33333333333333,NA,NA
48230,Wayne County,MI,NA,68.09815950920245,NA
48236,Wayne County,MI,NA,13.496932515337424,47.41379310344828
48301,Oakland County,MI,94,NA,NA
48302,Oakland County,MI,NA,NA,33.189655172413794
48312,Macomb County,MI,NA,16.56441717791411,7.758620689655173
48329,Oakland County,MI,60.333333333333336,NA,NA
48348,Oakland County,MI,NA,NA,63.36206896551724
48420,Genesee County,MI,NA,42.331288343558285,NA
48428,Lapeer County,MI,NA,82.20858895705521,NA
48430,Genesee County,MI,23.666666666666668,NA,NA
48433,Genesee County,MI,50,NA,NA
48442,Oakland County,MI,44,86.80981595092024,NA
48446,Lapeer County,MI,13.666666666666666,NA,NA
48451,Genesee County,MI,70,NA,NA
48461,Lapeer County,MI,NA,93.55828220858896,NA
48603,Saginaw County,MI,11.333333333333332,NA,NA
48626,Saginaw County,MI,91.33333333333333,NA,NA
48632,Clare County,MI,91,NA,NA
48642,Midland County,MI,80.66666666666666,NA,NA
48820,Clinton County,MI,62.33333333333333,NA,NA
48823,Ingham County,MI,31.333333333333336,NA,NA
48836,Livingston County,MI,51,NA,NA
48838,Montcalm County,MI,29.333333333333332,NA,NA
49004,Kalamazoo County,MI,NA,NA,58.620689655172406
49008,Kalamazoo County,MI,NA,47.85276073619632,NA
49009,Kalamazoo County,MI,NA,NA,12.5
49010,Allegan County,MI,38.666666666666664,NA,NA
49036,Branch County,MI,27,NA,NA
49083,Kalamazoo County,MI,NA,62.57668711656442,NA
49085,Berrien County,MI,NA,NA,36.637931034482754
49091,St. Joseph County,MI,NA,NA,52.58620689655172
49097,Kalamazoo County,MI,NA,NA,83.1896551724138
49224,Calhoun County,MI,52,NA,NA
49441,Muskegon County,MI,NA,3.374233128834356,NA
49505,Kent County,MI,NA,25.153374233128833,NA
49508,Kent County,MI,NA,7.668711656441718,NA
49546,Kent County,MI,NA,31.28834355828221,NA
49635,Benzie County,MI,NA,NA,78.44827586206897
49684,Grand Traverse County,MI,NA,27.607361963190186,NA
49696,Grand Traverse County,MI,NA,69.93865030674846,NA
49749,Cheboygan County,MI,95.66666666666667,NA,NA
49783,Chippewa County,MI,19.333333333333332,NA,NA
49931,Houghton County,MI,81,NA,NA
49935,Iron County,MI,64.33333333333333,NA,NA
55033,Dakota County,MN,28.333333333333332,NA,NA
55391,Hennepin County,MN,83.33333333333334,NA,NA
55413,Hennepin County,MN,81.33333333333333,NA,NA
55414,Hennepin County,MN,74,NA,NA
55417,Hennepin County,MN,45.666666666666664,NA,NA
55434,Anoka County,MN,NA,NA,79.3103448275862
55438,Hennepin County,MN,NA,73.61963190184049,NA
55811,St. Louis County,MN,NA,NA,0.8620689655172413
55902,Olmsted County,MN,NA,57.97546012269939,NA
55912,Mower County,MN,NA,2.7607361963190185,NA
38637,DeSoto County,MS,72.66666666666667,NA,NA
39051,Leake County,MS,NA,NA,77.15517241379311
39208,Rankin County,MS,NA,NA,30.603448275862068
39428,Covington County,MS,NA,85.88957055214725,NA
39503,Harrison County,MS,34.333333333333336,NA,NA
39525,Hancock County,MS,82,NA,NA
39532,Harrison County,MS,NA,50.306748466257666,NA
39540,Harrison County,MS,NA,NA,83.1896551724138
39560,Harrison County,MS,90.66666666666666,71.16564417177914,NA
39564,Jackson County,MS,NA,64.41717791411043,NA
39571,Harrison County,MS,NA,NA,39.6551724137931
39667,Walthall County,MS,NA,97.23926380368098,NA
63119,St. Louis County,MO,NA,NA,41.37931034482759
63304,St. Charles County,MO,NA,NA,18.103448275862068
63366,St. Charles County,MO,11.666666666666666,NA,NA
64056,Jackson County,MO,24,NA,NA
64105,Jackson County,MO,93.33333333333333,NA,NA
64110,Jackson County,MO,33.666666666666664,NA,NA
64111,Jackson County,MO,NA,76.07361963190185,NA
64138,Jackson County,MO,NA,16.87116564417178,NA
64145,Jackson County,MO,NA,NA,89.65517241379311
64836,Jasper County,MO,NA,NA,14.655172413793101
65340,Saline County,MO,61.33333333333333,NA,NA
65401,Phelps County,MO,NA,NA,65.51724137931035
65459,Pulaski County,MO,NA,NA,91.8103448275862
59301,Custer County,MT,90,NA,NA
59701,Silver Bow County,MT,NA,38.036809815950924,NA
59715,Gallatin County,MT,NA,35.2760736196319,NA
59801,Missoula County,MT,NA,62.88343558282209,NA
68025,Dodge County,NE,32.666666666666664,NA,NA
69101,Lincoln County,NE,NA,24.233128834355828,NA
89110,Clark County,NV,19,NA,NA
89117,Clark County,NV,NA,36.19631901840491,NA
89138,Clark County,NV,86.33333333333333,NA,NA
89148,Clark County,NV,70.33333333333334,NA,NA
89423,Douglas County,NV,NA,NA,59.91379310344828
89503,Washoe County,NV,NA,72.08588957055214,NA
89521,Washoe County,NV,NA,32.515337423312886,NA
03045,Hillsborough County,NH,NA,66.87116564417178,NA
03051,Hillsborough County,NH,21.666666666666668,19.32515337423313,NA
03235,Merrimack County,NH,NA,NA,50
03844,Rockingham County,NH,100,NA,NA
07013,Passaic County,NJ,NA,NA,98.27586206896551
07086,Hudson County,NJ,NA,90.1840490797546,NA
07305,Hudson County,NJ,0.33333333333333337,NA,NA
07621,Bergen County,NJ,NA,NA,49.137931034482754
07643,Bergen County,NJ,NA,NA,92.24137931034483
07739,Monmouth County,NJ,NA,95.39877300613497,NA
07748,Monmouth County,NJ,NA,82.51533742331289,NA
07827,Sussex County,NJ,NA,NA,90.08620689655173
07882,Warren County,NJ,NA,NA,70.6896551724138
07924,Somerset County,NJ,NA,93.55828220858896,NA
08034,Camden County,NJ,NA,42.944785276073624,NA
08108,Camden County,NJ,57.99999999999999,NA,NA
08401,Atlantic County,NJ,0,NA,NA
08701,Ocean County,NJ,NA,NA,0.43103448275862066
08757,Ocean County,NJ,NA,3.067484662576687,NA
87105,Bernalillo County,NM,3.3333333333333335,NA,NA
87120,Bernalillo County,NM,NA,NA,86.63793103448276
87401,San Juan County,NM,NA,NA,85.77586206896551
87413,San Juan County,NM,NA,50.61349693251533,NA
87506,Santa Fe County,NM,NA,45.39877300613497,NA
88101,Curry County,NM,NA,50.920245398773,NA
88130,Roosevelt County,NM,61,NA,NA
88242,Lea County,NM,88.66666666666667,NA,NA
10002,New York County,NY,3.6666666666666665,NA,NA
10013,New York County,NY,78.33333333333333,NA,NA
10033,New York County,NY,15.333333333333332,NA,NA
10451,Bronx County,NY,NA,NA,36.206896551724135
10452,Bronx County,NY,NA,36.809815950920246,NA
10453,Bronx County,NY,5.333333333333334,NA,54.310344827586206
10455,Bronx County,NY,NA,NA,15.086206896551724
10456,Bronx County,NY,NA,31.901840490797547,88.79310344827587
10457,Bronx County,NY,NA,NA,10.344827586206897
10458,Bronx County,NY,NA,NA,6.0344827586206895
10459,Bronx County,NY,NA,55.828220858895705,NA
10467,Bronx County,NY,NA,43.25153374233129,NA
10473,Bronx County,NY,NA,5.521472392638037,NA
10530,Westchester County,NY,95.33333333333334,NA,NA
10954,Rockland County,NY,NA,NA,53.879310344827594
11216,Kings County,NY,NA,94.1717791411043,NA
11238,Kings County,NY,NA,NA,42.241379310344826
11435,Queens County,NY,NA,16.257668711656443,NA
11732,Nassau County,NY,NA,98.46625766871165,NA
11757,Suffolk County,NY,67.66666666666666,NA,NA
11967,Suffolk County,NY,59.333333333333336,NA,NA
12053,Schenectady County,NY,NA,NA,94.82758620689656
12095,Fulton County,NY,NA,31.595092024539877,NA
12414,Greene County,NY,NA,37.11656441717792,NA
12508,Dutchess County,NY,NA,73.92638036809815,NA
13114,Oswego County,NY,55.666666666666664,NA,NA
13316,Oneida County,NY,NA,63.49693251533742,NA
13335,Otsego County,NY,87.33333333333333,NA,NA
13440,Oneida County,NY,NA,4.294478527607362,NA
13656,Jefferson County,NY,94.66666666666667,NA,NA
13669,St. Lawrence County,NY,NA,22.392638036809817,NA
13827,Tioga County,NY,NA,NA,56.46551724137932
13905,Broome County,NY,NA,3.6809815950920246,NA
14020,Genesee County,NY,NA,12.576687116564417,29.74137931034483
14047,Erie County,NY,NA,NA,95.6896551724138
14094,Niagara County,NY,1,NA,NA
14127,Erie County,NY,14.000000000000002,NA,NA
14224,Erie County,NY,5,NA,NA
14450,Monroe County,NY,NA,NA,5.172413793103448
14468,Monroe County,NY,NA,51.84049079754601,NA
14472,Monroe County,NY,NA,29.447852760736197,NA
14505,Wayne County,NY,81.66666666666667,NA,NA
14543,Monroe County,NY,96,NA,NA
14606,Monroe County,NY,2.3333333333333335,NA,NA
14609,Monroe County,NY,NA,10.429447852760736,NA
14616,Monroe County,NY,3,NA,NA
14622,Monroe County,NY,NA,19.631901840490798,NA
14626,Monroe County,NY,NA,2.147239263803681,NA
14760,Cattaraugus County,NY,NA,11.96319018404908,NA
14895,Allegany County,NY,NA,NA,73.27586206896551
27006,Davie County,NC,NA,NA,18.96551724137931
27105,Forsyth County,NC,1.3333333333333335,NA,NA
27107,Forsyth County,NC,20.333333333333332,NA,NA
27518,Wake County,NC,NA,49.079754601226995,NA
27519,Wake County,NC,44.333333333333336,NA,NA
27520,Johnston County,NC,NA,32.20858895705521,NA
27560,Wake County,NC,NA,NA,88.36206896551724
27703,Durham County,NC,NA,NA,27.586206896551722
27713,Durham County,NC,NA,18.404907975460123,NA
28025,Cabarrus County,NC,NA,NA,9.913793103448276
28037,Lincoln County,NC,NA,77.30061349693251,NA
28208,Mecklenburg County,NC,8.333333333333332,NA,NA
28306,Bladen County,NC,NA,67.17791411042946,NA
28334,Sampson County,NC,56.99999999999999,NA,NA
28469,Brunswick County,NC,NA,NA,82.75862068965517
28734,Macon County,NC,43,NA,NA
28739,Henderson County,NC,NA,NA,44.396551724137936
58103,Cass County,ND,NA,1.5337423312883436,NA
43064,Madison County,OH,NA,81.90184049079755,NA
43072,Champaign County,OH,NA,90.79754601226993,NA
43078,Champaign County,OH,31,NA,NA
43085,Franklin County,OH,NA,NA,54.741379310344826
43105,Fairfield County,OH,NA,NA,99.56896551724138
43119,Franklin County,OH,NA,46.62576687116564,NA
43130,Fairfield County,OH,NA,NA,1.7241379310344827
43209,Franklin County,OH,NA,35.58282208588957,NA
43213,Franklin County,OH,8.666666666666668,NA,NA
43214,Franklin County,OH,NA,NA,51.724137931034484
43223,Franklin County,OH,NA,57.05521472392638,NA
43402,Wood County,OH,NA,15.030674846625766,NA
43460,Wood County,OH,72.33333333333334,NA,NA
43512,Defiance County,OH,NA,NA,13.793103448275861
43607,Lucas County,OH,NA,NA,48.275862068965516
43616,Lucas County,OH,NA,9.815950920245399,NA
43723,Guernsey County,OH,NA,NA,100
43952,Jefferson County,OH,NA,9.202453987730062,NA
44001,Lorain County,OH,NA,1.8404907975460123,NA
44024,Geauga County,OH,NA,14.11042944785276,NA
44039,Lorain County,OH,NA,NA,3.4482758620689653
44041,Ashtabula County,OH,NA,80.98159509202453,NA
44074,Lorain County,OH,NA,NA,56.46551724137932
44107,Cuyahoga County,OH,NA,NA,7.327586206896551
44117,Cuyahoga County,OH,NA,44.785276073619634,NA
44124,Cuyahoga County,OH,NA,20.858895705521473,NA
44133,Cuyahoga County,OH,24.666666666666668,NA,46.55172413793103
44212,Medina County,OH,NA,0.6134969325153374,NA
44223,Summit County,OH,41.66666666666667,NA,NA
44256,Medina County,OH,4,NA,NA
44281,Medina County,OH,21.333333333333336,NA,NA
44313,Summit County,OH,27.666666666666668,NA,NA
44408,Columbiana County,OH,NA,66.56441717791411,NA
44460,Columbiana County,OH,NA,NA,25.43103448275862
44515,Mahoning County,OH,9.666666666666666,NA,NA
44601,Stark County,OH,NA,6.748466257668712,NA
44646,Stark County,OH,NA,NA,19.396551724137932
44654,Holmes County,OH,NA,79.4478527607362,NA
44714,Stark County,OH,89.66666666666666,NA,NA
44718,Stark County,OH,75.66666666666667,NA,NA
44720,Stark County,OH,27.333333333333332,NA,NA
44805,Ashland County,OH,12.333333333333334,NA,NA
44830,Seneca County,OH,NA,78.22085889570552,NA
45044,Butler County,OH,23,NA,NA
45106,Clermont County,OH,44.666666666666664,NA,NA
45211,Hamilton County,OH,31.666666666666664,NA,NA
45215,Hamilton County,OH,NA,35.88957055214724,NA
45231,Hamilton County,OH,NA,18.711656441717793,12.068965517241379
45239,Hamilton County,OH,15,NA,NA
45248,Hamilton County,OH,NA,NA,26.29310344827586
45403,Montgomery County,OH,NA,74.5398773006135,NA
45424,Montgomery County,OH,NA,NA,6.896551724137931
45503,Clark County,OH,NA,11.349693251533742,NA
45504,Clark County,OH,96.33333333333334,NA,NA
45750,Washington County,OH,NA,NA,98.70689655172413
45801,Allen County,OH,NA,NA,41.810344827586206
45805,Allen County,OH,NA,26.380368098159508,NA
45806,Allen County,OH,NA,93.25153374233128,NA
45807,Allen County,OH,92.66666666666666,NA,NA
45840,Hancock County,OH,2,NA,NA
45844,Putnam County,OH,91.66666666666666,NA,NA
73044,Logan County,OK,47.66666666666667,NA,NA
73072,Cleveland County,OK,NA,NA,39.224137931034484
73142,Oklahoma County,OK,76.66666666666667,NA,NA
73159,Oklahoma County,OK,41,26.68711656441718,NA
73165,Cleveland County,OK,90.33333333333333,NA,NA
73446,Marshall County,OK,80.33333333333333,NA,NA
74129,Tulsa County,OK,76.33333333333333,NA,NA
74429,Wagoner County,OK,NA,NA,97.41379310344827
74701,Bryan County,OK,57.666666666666664,NA,NA
97013,Clackamas County,OR,NA,68.40490797546013,NA
97060,Multnomah County,OR,37.666666666666664,NA,NA
97080,Multnomah County,OR,23.333333333333332,51.533742331288344,NA
97124,Washington County,OR,25.333333333333336,NA,NA
97209,Multnomah County,OR,NA,NA,86.20689655172413
97213,Multnomah County,OR,NA,53.68098159509203,NA
97229,Washington County,OR,34,NA,NA
97303,Marion County,OR,NA,NA,40.08620689655172
97321,Linn County,OR,25.666666666666664,NA,NA
97322,Linn County,OR,38.333333333333336,NA,NA
97415,Curry County,OR,NA,NA,26.72413793103448
97471,Douglas County,OR,NA,4.9079754601226995,NA
97501,Jackson County,OR,NA,9.509202453987731,NA
97504,Jackson County,OR,19.666666666666664,11.65644171779141,NA
97520,Jackson County,OR,77,45.70552147239264,NA
97530,Jackson County,OR,NA,79.14110429447852,NA
97540,Jackson County,OR,NA,NA,82.32758620689656
97862,Umatilla County,OR,80,NA,NA
97868,Umatilla County,OR,NA,99.38650306748467,NA
15021,Washington County,PA,87,NA,NA
15065,Allegheny County,PA,NA,61.04294478527608,NA
15068,Westmoreland County,PA,NA,NA,2.1551724137931036
15084,Allegheny County,PA,NA,94.47852760736197,NA
15108,Allegheny County,PA,36,NA,NA
15235,Allegheny County,PA,NA,15.950920245398773,NA
15239,Allegheny County,PA,77.66666666666666,NA,NA
15501,Somerset County,PA,NA,46.012269938650306,NA
15601,Westmoreland County,PA,NA,0.9202453987730062,NA
15683,Westmoreland County,PA,72,NA,NA
15701,Indiana County,PA,21,17.177914110429448,NA
15717,Indiana County,PA,59,41.717791411042946,NA
15801,Clearfield County,PA,NA,5.828220858895705,24.137931034482758
15857,Elk County,PA,NA,7.975460122699387,NA
15905,Cambria County,PA,42.66666666666667,NA,NA
16146,Mercer County,PA,NA,NA,32.327586206896555
16314,Crawford County,PA,NA,NA,95.25862068965517
16323,Venango County,PA,48,NA,NA
17015,Cumberland County,PA,NA,78.52760736196319,NA
17257,Cumberland County,PA,NA,57.05521472392638,NA
17362,York County,PA,NA,46.93251533742331,NA
17601,Lancaster County,PA,32,NA,NA
17801,Northumberland County,PA,49.333333333333336,NA,NA
18042,Northampton County,PA,4.666666666666667,NA,59.05172413793104
18058,Monroe County,PA,69.33333333333334,NA,NA
18229,Carbon County,PA,64.33333333333333,NA,NA
18328,Pike County,PA,NA,NA,87.93103448275862
18411,Lackawanna County,PA,NA,NA,29.310344827586203
18428,Pike County,PA,NA,NA,57.758620689655174
18517,Lackawanna County,PA,NA,NA,87.5
18951,Bucks County,PA,NA,NA,31.46551724137931
19006,Montgomery County,PA,NA,64.7239263803681,NA
19007,Bucks County,PA,NA,84.96932515337423,NA
19054,Bucks County,PA,NA,80.3680981595092,NA
19114,Philadelphia County,PA,46.666666666666664,NA,NA
19154,Philadelphia County,PA,14.666666666666666,NA,NA
19460,Chester County,PA,22.333333333333332,NA,NA
19526,Berks County,PA,NA,54.29447852760736,NA
02895,Providence County,RI,11,NA,NA
29115,Orangeburg County,SC,NA,NA,52.1551724137931
29414,Charleston County,SC,NA,75.15337423312883,NA
29576,Horry County,SC,NA,NA,14.224137931034484
29585,Georgetown County,SC,NA,87.11656441717791,NA
29591,Florence County,SC,NA,86.50306748466258,NA
29646,Greenwood County,SC,39,NA,NA
29842,Aiken County,SC,97.66666666666667,NA,NA
29927,Jasper County,SC,NA,NA,80.17241379310344
57005,Minnehaha County,SD,NA,72.39263803680981,NA
57106,Minnehaha County,SD,NA,84.66257668711657,NA
57785,Meade County,SD,NA,94.78527607361963,NA
37083,Macon County,TN,46.33333333333333,NA,NA
37303,McMinn County,TN,53.666666666666664,NA,NA
37620,Sullivan County,TN,12,NA,NA
37645,Hawkins County,TN,NA,90.49079754601227,NA
37663,Sullivan County,TN,NA,59.50920245398773,NA
37771,Loudon County,TN,52,NA,NA
37774,Loudon County,TN,40.666666666666664,NA,NA
37813,Hamblen County,TN,26,NA,NA
37909,Knox County,TN,78,NA,NA
37917,Knox County,TN,15.666666666666668,NA,NA
37932,Knox County,TN,75.33333333333333,NA,NA
38053,Shelby County,TN,43.666666666666664,NA,NA
38135,Shelby County,TN,NA,91.71779141104295,NA
38242,Henry County,TN,42,NA,NA
75002,Collin County,TX,NA,27.914110429447852,NA
75006,Dallas County,TX,NA,28.22085889570552,NA
75013,Collin County,TX,NA,86.1963190184049,NA
75116,Dallas County,TX,NA,NA,96.12068965517241
75126,Kaufman County,TX,28.999999999999996,NA,NA
75173,Collin County,TX,94.33333333333334,NA,NA
75228,Dallas County,TX,NA,NA,28.01724137931034
75428,Hunt County,TX,NA,89.87730061349694,NA
75709,Smith County,TX,NA,79.75460122699386,NA
75766,Cherokee County,TX,NA,NA,4.741379310344827
76067,Palo Pinto County,TX,NA,81.28834355828221,NA
76092,Tarrant County,TX,98,NA,NA
76120,Tarrant County,TX,47.333333333333336,NA,NA
77026,Harris County,TX,51.66666666666667,NA,NA
77044,Harris County,TX,NA,57.668711656441715,NA
77053,Fort Bend County,TX,NA,52.45398773006135,NA
77302,Montgomery County,TX,NA,NA,93.10344827586206
77339,Harris County,TX,54.666666666666664,NA,NA
77396,Harris County,TX,34.333333333333336,NA,NA
77479,Fort Bend County,TX,NA,NA,34.05172413793103
77550,Galveston County,TX,17.666666666666668,NA,NA
77562,Harris County,TX,NA,88.03680981595092,NA
77573,Galveston County,TX,9.333333333333334,NA,NA
77627,Jefferson County,TX,86,NA,NA
77802,Brazos County,TX,NA,NA,9.482758620689655
77964,Lavaca County,TX,NA,NA,60.775862068965516
78045,Webb County,TX,NA,32.515337423312886,NA
78046,Webb County,TX,NA,26.07361963190184,NA
78520,Cameron County,TX,NA,NA,61.63793103448276
78539,Hidalgo County,TX,NA,63.190184049079754,NA
78570,Hidalgo County,TX,NA,57.97546012269939,NA
78640,Hays County,TX,37.333333333333336,NA,NA
79424,Lubbock County,TX,24.333333333333336,NA,NA
79536,Taylor County,TX,98.33333333333333,NA,NA
79764,Ector County,TX,54,NA,NA
79905,El Paso County,TX,97,NA,NA
79927,El Paso County,TX,NA,NA,64.22413793103449
84045,Utah County,UT,71,NA,NA
84108,Salt Lake County,UT,NA,49.38650306748466,NA
84119,Salt Lake County,UT,NA,88.34355828220859,NA
84404,Weber County,UT,NA,NA,50.43103448275862
84790,Washington County,UT,39.666666666666664,NA,NA
05001,Windsor County,VT,79.33333333333333,NA,NA
05346,Windham County,VT,NA,NA,80.17241379310344
20164,Loudoun County,VA,NA,NA,66.8103448275862
20191,Fairfax County,VA,NA,NA,94.39655172413794
22015,Fairfax County,VA,49,NA,NA
22124,Fairfax County,VA,NA,75.4601226993865,NA
22309,Fairfax County,VA,56.333333333333336,NA,NA
22556,Stafford County,VA,NA,NA,72.41379310344827
22801,Harrisonburg city,VA,93,NA,NA
22942,Louisa County,VA,76,NA,NA
22980,Waynesboro city,VA,8,NA,NA
23231,Henrico County,VA,66.66666666666666,NA,68.53448275862068
23504,Norfolk city,VA,56.00000000000001,NA,NA
23606,Newport News city,VA,46,NA,NA
23669,Hampton city,VA,NA,12.269938650306749,NA
23805,Petersburg city,VA,NA,56.13496932515337,NA
24201,Bristol city,VA,NA,NA,49.56896551724138
24202,Washington County,VA,NA,NA,70.6896551724138
24301,Pulaski County,VA,NA,48.466257668711656,NA
98028,King County,WA,67,NA,NA
98133,King County,WA,26.666666666666668,NA,NA
98188,King County,WA,NA,53.06748466257669,NA
98233,Skagit County,WA,NA,NA,51.293103448275865
98282,Island County,WA,NA,39.263803680981596,NA
98292,Snohomish County,WA,NA,37.73006134969325,NA
98407,Pierce County,WA,NA,NA,46.98275862068966
98541,Grays Harbor County,WA,71.66666666666667,NA,NA
98930,Yakima County,WA,NA,76.99386503067484,NA
99201,Spokane County,WA,NA,99.079754601227,NA
99324,Walla Walla County,WA,79,NA,66.37931034482759
99337,Benton County,WA,NA,34.96932515337423,NA
99362,Walla Walla County,WA,69.66666666666667,92.63803680981594,8.620689655172415
25071,Kanawha County,WV,NA,77.60736196319019,NA
25177,Kanawha County,WV,NA,33.43558282208589,16.379310344827587
25302,Kanawha County,WV,53,NA,NA
25313,Kanawha County,WV,NA,92.02453987730061,NA
25526,Putnam County,WV,NA,69.01840490797547,40.51724137931034
25705,Cabell County,WV,NA,20.552147239263803,NA
26003,Ohio County,WV,40,NA,NA
26037,Brooke County,WV,NA,61.963190184049076,NA
26105,Wood County,WV,NA,NA,81.46551724137932
26505,Monongalia County,WV,9,NA,NA
53074,Ozaukee County,WI,NA,89.2638036809816,NA
53089,Waukesha County,WI,NA,88.65030674846625,NA
53154,Milwaukee County,WI,NA,NA,69.82758620689656
53170,Kenosha County,WI,95,NA,NA
53402,Racine County,WI,NA,NA,0
53405,Racine County,WI,NA,24.539877300613497,NA
53406,Racine County,WI,NA,NA,20.25862068965517
53566,Green County,WI,47,NA,NA
53949,Marquette County,WI,NA,85.2760736196319,NA
53959,Sauk County,WI,NA,42.02453987730061,NA
54235,Door County,WI,NA,NA,22.413793103448278
54482,Portage County,WI,NA,58.895705521472394,NA
54494,Wood County,WI,NA,NA,19.82758620689655
54495,Wood County,WI,NA,92.33128834355828,NA
54501,Oneida County,WI,NA,NA,18.53448275862069
82070,Albany County,WY,NA,89.57055214723927,NA
