ZipCode,county,state,Retirement
35613,Limestone County,AL,52.02020202020202
85286,Maricopa County,AZ,98.48484848484848
85295,Maricopa County,AZ,75.25252525252525
90062,Los Angeles County,CA,59.09090909090909
91701,San Bernardino County,CA,64.14141414141415
91741,Los Angeles County,CA,56.060606060606055
92118,San Diego County,CA,66.16161616161617
93955,Monterey County,CA,70.70707070707071
94062,San Mateo County,CA,95.45454545454545
94112,San Francisco County,CA,42.42424242424242
94582,Contra Costa County,CA,91.41414141414141
95376,San Joaquin County,CA,43.93939393939394
95382,Stanislaus County,CA,37.878787878787875
95608,Sacramento County,CA,26.262626262626267
95662,Sacramento County,CA,62.121212121212125
95946,Nevada County,CA,69.1919191919192
80122,Arapahoe County,CO,56.56565656565656
06098,Litchfield County,CT,50
06468,Fairfield County,CT,93.93939393939394
06902,Fairfield County,CT,16.161616161616163
19711,New Castle County,DE,15.151515151515152
19963,Sussex County,DE,44.44444444444444
32210,Duval County,FL,9.595959595959595
32404,Bay County,FL,28.28282828282828
32907,Brevard County,FL,26.767676767676768
32966,Indian River County,FL,66.66666666666666
33012,Miami-Dade County,FL,58.58585858585859
34145,Collier County,FL,49.494949494949495
34285,Sarasota County,FL,25.252525252525253
34609,Hernando County,FL,31.818181818181817
30560,Fannin County,GA,94.94949494949495
30635,Elbert County,GA,60.1010101010101
30815,Richmond County,GA,19.19191919191919
31032,Jones County,GA,78.78787878787878
83651,Canyon County,ID,63.63636363636363
83686,Canyon County,ID,6.565656565656567
60002,Lake County,IL,94.44444444444444
60031,Lake County,IL,29.797979797979796
60189,DuPage County,IL,31.313131313131315
60402,Cook County,IL,46.96969696969697
60462,Cook County,IL,7.575757575757576
60481,Will County,IL,57.57575757575758
60614,Cook County,IL,22.22222222222222
60616,Cook County,IL,14.646464646464647
60631,Cook County,IL,77.77777777777779
60652,Cook County,IL,85.85858585858585
60804,Cook County,IL,18.68686868686869
61802,Champaign County,IL,67.17171717171718
62056,Montgomery County,IL,72.22222222222221
46184,Johnson County,IN,74.24242424242425
46307,Lake County,IN,1.5151515151515151
46375,Lake County,IN,23.737373737373737
46795,LaGrange County,IN,84.34343434343434
46805,Allen County,IN,54.54545454545454
46825,Allen County,IN,36.36363636363637
47501,Daviess County,IN,59.59595959595959
47725,Vanderburgh County,IN,71.21212121212122
47909,Tippecanoe County,IN,50.505050505050505
50677,Bremer County,IA,64.64646464646465
40241,Jefferson County,KY,47.474747474747474
40324,Scott County,KY,30.303030303030305
41179,Lewis County,KY,91.91919191919192
42134,Simpson County,KY,69.6969696969697
42330,Muhlenberg County,KY,84.84848484848484
42754,Grayson County,KY,90.40404040404042
70339,Assumption Parish,LA,83.83838383838383
70433,St. Tammany Parish,LA,44.94949494949495
70510,Vermilion Parish,LA,46.464646464646464
70525,Acadia Parish,LA,92.42424242424242
04072,York County,ME,82.82828282828282
01523,Worcester County,MA,79.7979797979798
01545,Worcester County,MA,21.71717171717172
01701,Middlesex County,MA,10.1010101010101
01830,Essex County,MA,10.606060606060606
01890,Middlesex County,MA,40.909090909090914
01915,Essex County,MA,15.656565656565657
02122,Suffolk County,MA,16.666666666666664
02360,Plymouth County,MA,0
02769,Bristol County,MA,85.35353535353535
48072,Oakland County,MI,81.31313131313132
48084,Oakland County,MI,75.25252525252525
48116,Livingston County,MI,20.2020202020202
48162,Monroe County,MI,5.05050505050505
48170,Wayne County,MI,4.545454545454546
48238,Wayne County,MI,55.55555555555556
48306,Oakland County,MI,29.292929292929294
48455,Lapeer County,MI,73.73737373737373
48609,Saginaw County,MI,61.111111111111114
48801,Gratiot County,MI,88.88888888888889
48846,Ionia County,MI,52.52525252525253
48875,Ionia County,MI,97.97979797979798
48917,Eaton County,MI,12.121212121212121
49024,Kalamazoo County,MI,28.78787878787879
49203,Jackson County,MI,11.11111111111111
49341,Kent County,MI,33.33333333333333
49686,Grand Traverse County,MI,34.34343434343434
49913,Houghton County,MI,67.67676767676768
55118,Dakota County,MN,47.97979797979798
55976,Olmsted County,MN,89.39393939393939
39525,Hancock County,MS,89.8989898989899
63034,St. Louis County,MO,81.81818181818183
63348,St. Charles County,MO,93.43434343434343
07632,Bergen County,NJ,97.47474747474747
07753,Monmouth County,NJ,13.636363636363635
08028,Gloucester County,NJ,57.07070707070707
08401,Atlantic County,NJ,4.040404040404041
87111,Bernalillo County,NM,48.98989898989899
10009,New York County,NY,61.61616161616161
11102,Queens County,NY,51.515151515151516
11217,Kings County,NY,32.323232323232325
12866,Saratoga County,NY,14.14141414141414
13036,Oswego County,NY,79.29292929292929
13114,Oswego County,NY,98.98989898989899
13901,Broome County,NY,6.0606060606060606
14075,Erie County,NY,8.585858585858585
14221,Erie County,NY,3.535353535353535
14424,Ontario County,NY,0.5050505050505051
14445,Monroe County,NY,62.62626262626263
14450,Monroe County,NY,1.0101010101010102
14456,Ontario County,NY,7.07070707070707
14467,Monroe County,NY,80.3030303030303
14502,Wayne County,NY,53.03030303030303
14505,Wayne County,NY,72.72727272727273
14564,Ontario County,NY,22.727272727272727
14607,Monroe County,NY,48.484848484848484
14626,Monroe County,NY,5.555555555555555
14843,Steuben County,NY,39.8989898989899
27104,Forsyth County,NC,41.41414141414141
27517,Orange County,NC,35.858585858585855
28037,Lincoln County,NC,54.04040404040404
58601,Stark County,ND,68.68686868686868
43062,Licking County,OH,38.88888888888889
43420,Sandusky County,OH,20.707070707070706
43502,Fulton County,OH,86.86868686868688
44108,Cuyahoga County,OH,8.080808080808081
44111,Cuyahoga County,OH,3.0303030303030303
44131,Cuyahoga County,OH,24.747474747474747
44136,Cuyahoga County,OH,11.616161616161616
44256,Medina County,OH,9.090909090909092
44813,Richland County,OH,82.32323232323232
73045,Oklahoma County,OK,68.18181818181817
97351,Polk County,OR,83.33333333333334
15065,Allegheny County,PA,63.13131313131313
15108,Allegheny County,PA,24.242424242424242
15301,Washington County,PA,55.05050505050505
16001,Butler County,PA,2.0202020202020203
16159,Mercer County,PA,86.36363636363636
16505,Erie County,PA,58.080808080808076
16601,Blair County,PA,87.37373737373737
17004,Mifflin County,PA,100
17112,Dauphin County,PA,39.39393939393939
18644,Luzerne County,PA,65.65656565656566
19003,Montgomery County,PA,71.21212121212122
19008,Delaware County,PA,45.45454545454545
19013,Delaware County,PA,18.181818181818183
19020,Bucks County,PA,13.131313131313133
19027,Montgomery County,PA,42.92929292929293
19311,Chester County,PA,92.92929292929293
19320,Chester County,PA,17.67676767676768
19382,Chester County,PA,12.626262626262626
19607,Berks County,PA,25.757575757575758
19608,Berks County,PA,30.808080808080806
19609,Berks County,PA,90.9090909090909
02879,Washington County,RI,43.43434343434344
02885,Bristol County,RI,96.46464646464646
02920,Providence County,RI,21.21212121212121
29072,Lexington County,SC,35.35353535353536
29440,Georgetown County,SC,87.87878787878788
37186,Sumner County,TN,78.28282828282829
37745,Greene County,TN,74.74747474747475
75212,Dallas County,TX,51.010101010101
75223,Dallas County,TX,77.27272727272727
76012,Tarrant County,TX,96.96969696969697
76504,Bell County,TX,88.38383838383838
77449,Harris County,TX,33.83838383838384
77573,Galveston County,TX,34.84848484848485
77578,Brazoria County,TX,80.8080808080808
77630,Orange County,TX,41.91919191919192
77901,Victoria County,TX,27.77777777777778
78629,Gonzales County,TX,73.23232323232324
23703,Portsmouth city,VA,38.38383838383838
24540,Danville city,VA,60.60606060606061
98003,King County,WA,27.27272727272727
98034,King County,WA,76.76767676767676
98059,King County,WA,36.868686868686865
98273,Skagit County,WA,19.696969696969695
98321,Pierce County,WA,69.6969696969697
98569,Grays Harbor County,WA,76.26262626262627
97003,NA,NA,95.95959595959596
98661,Clark County,WA,45.95959595959596
98908,Yakima County,WA,65.15151515151516
99338,Benton County,WA,40.4040404040404
26062,Hancock County,WV,32.82828282828283
26201,Upshur County,WV,23.232323232323232
53066,Waukesha County,WI,17.17171717171717
53094,Jefferson County,WI,37.37373737373738
53402,Racine County,WI,2.525252525252525
54015,St. Croix County,WI,99.4949494949495
54452,Lincoln County,WI,53.03030303030303
