ZipCode,county,state,Youth,Adult,Retirement
35007,Shelby County,AL,NA,46.96180555555556,NA
35043,Shelby County,AL,NA,NA,82.73381294964028
35064,Jefferson County,AL,NA,56.423611111111114,NA
35085,Chilton County,AL,81.11111111111111,NA,NA
35206,Jefferson County,AL,NA,58.24652777777778,NA
35216,Jefferson County,AL,NA,50.520833333333336,NA
35504,Walker County,AL,NA,86.89236111111111,NA
35603,Morgan County,AL,NA,NA,62.94964028776978
35611,Limestone County,AL,NA,21.614583333333336,NA
35614,Limestone County,AL,NA,71.44097222222221,NA
35620,Limestone County,AL,NA,79.51388888888889,NA
35756,Limestone County,AL,NA,75.78125,NA
35757,Madison County,AL,NA,88.10763888888889,NA
35761,Madison County,AL,NA,73.09027777777779,NA
35956,Etowah County,AL,NA,75.26041666666666,NA
35957,Marshall County,AL,NA,42.79513888888889,NA
36037,Butler County,AL,NA,53.125,NA
36201,Calhoun County,AL,NA,23.09027777777778,NA
36303,Houston County,AL,NA,20.3125,NA
36305,Houston County,AL,NA,54.947916666666664,NA
36441,Escambia County,AL,NA,99.73958333333334,NA
36532,Baldwin County,AL,NA,55.12152777777778,NA
36575,Mobile County,AL,NA,NA,91.36690647482014
36607,Mobile County,AL,NA,82.37847222222221,NA
36608,Mobile County,AL,NA,40.79861111111111,NA
36617,Mobile County,AL,NA,72.65625,NA
36801,Lee County,AL,55.00000000000001,NA,NA
99501,Anchorage Municipality,AK,NA,92.1875,NA
85024,Maricopa County,AZ,NA,70.65972222222221,NA
85033,Maricopa County,AZ,13.333333333333334,NA,NA
85119,Pinal County,AZ,NA,NA,41.726618705035975
85140,Pinal County,AZ,NA,30.90277777777778,NA
85207,Maricopa County,AZ,NA,55.729166666666664,NA
85233,Maricopa County,AZ,NA,NA,50.719424460431654
85282,Maricopa County,AZ,NA,37.76041666666667,NA
85344,La Paz County,AZ,NA,NA,31.654676258992804
85349,Yuma County,AZ,NA,63.020833333333336,NA
85350,Yuma County,AZ,NA,95.92013888888889,NA
85364,Yuma County,AZ,NA,NA,21.223021582733814
85546,Graham County,AZ,NA,NA,60.431654676258994
85711,Pima County,AZ,NA,NA,15.107913669064748
85713,Pima County,AZ,NA,45.05208333333333,NA
85735,Pima County,AZ,NA,85.67708333333334,NA
86322,Yavapai County,AZ,NA,76.90972222222221,NA
71602,Jefferson County,AR,80,NA,NA
72143,White County,AR,NA,33.68055555555556,NA
72223,Pulaski County,AR,NA,80.72916666666666,NA
72756,Benton County,AR,NA,56.25,NA
72764,Washington County,AR,NA,66.84027777777779,NA
90019,Los Angeles County,CA,NA,NA,23.741007194244602
90025,Los Angeles County,CA,NA,54.166666666666664,NA
90029,Los Angeles County,CA,NA,57.89930555555556,NA
90036,Los Angeles County,CA,NA,63.107638888888886,NA
90039,Los Angeles County,CA,NA,81.33680555555556,NA
90047,Los Angeles County,CA,NA,13.10763888888889,NA
90048,Los Angeles County,CA,NA,75.60763888888889,55.39568345323741
90049,Los Angeles County,CA,NA,NA,45.32374100719424
90062,Los Angeles County,CA,65.55555555555556,NA,NA
90212,Los Angeles County,CA,NA,NA,83.09352517985612
90275,Los Angeles County,CA,NA,NA,67.26618705035972
90278,Los Angeles County,CA,NA,57.03125,NA
90503,Los Angeles County,CA,NA,NA,40.28776978417266
90602,Los Angeles County,CA,NA,NA,80.2158273381295
90603,Los Angeles County,CA,NA,77.77777777777779,NA
90712,Los Angeles County,CA,NA,55.642361111111114,NA
90731,Los Angeles County,CA,NA,27.604166666666668,24.100719424460433
90746,Los Angeles County,CA,NA,75.95486111111111,50.35971223021583
90802,Los Angeles County,CA,NA,46.44097222222222,NA
90804,Los Angeles County,CA,NA,41.23263888888889,NA
90805,Los Angeles County,CA,NA,NA,20.863309352517987
91104,Los Angeles County,CA,NA,40.71180555555556,NA
91384,Los Angeles County,CA,NA,73.87152777777779,NA
91405,Los Angeles County,CA,NA,71.875,NA
91604,Los Angeles County,CA,NA,81.68402777777779,NA
91709,San Bernardino County,CA,NA,30.12152777777778,NA
91724,Los Angeles County,CA,NA,NA,91.00719424460432
91732,Los Angeles County,CA,29.444444444444446,70.13888888888889,NA
91737,San Bernardino County,CA,NA,90.71180555555556,52.15827338129496
91766,Los Angeles County,CA,28.333333333333332,NA,NA
91784,San Bernardino County,CA,NA,69.35763888888889,NA
91790,Los Angeles County,CA,NA,49.04513888888889,NA
92028,San Diego County,CA,NA,90.79861111111111,NA
92037,San Diego County,CA,NA,NA,75.89928057553958
92040,San Diego County,CA,NA,44.01041666666667,NA
92056,San Diego County,CA,NA,50.69444444444444,NA
92109,San Diego County,CA,73.88888888888889,NA,NA
92113,San Diego County,CA,NA,21.180555555555554,NA
92115,San Diego County,CA,NA,28.211805555555557,NA
92128,San Diego County,CA,43.333333333333336,NA,NA
92139,San Diego County,CA,NA,NA,64.74820143884892
92220,Riverside County,CA,NA,81.51041666666666,NA
92223,Riverside County,CA,NA,25.78125,NA
92225,Riverside County,CA,NA,74.13194444444444,NA
92227,Imperial County,CA,NA,37.93402777777778,52.87769784172662
92236,Riverside County,CA,NA,40.97222222222222,NA
92240,Riverside County,CA,NA,51.12847222222222,NA
92270,Riverside County,CA,NA,NA,34.53237410071942
92307,San Bernardino County,CA,NA,56.94444444444444,NA
92316,San Bernardino County,CA,NA,47.65625,NA
92324,San Bernardino County,CA,NA,NA,37.05035971223021
92337,San Bernardino County,CA,NA,81.94444444444444,NA
92376,San Bernardino County,CA,NA,50,NA
92505,Riverside County,CA,NA,74.04513888888889,NA
92507,Riverside County,CA,NA,38.28125,NA
92551,Riverside County,CA,NA,63.541666666666664,NA
92592,Riverside County,CA,NA,57.291666666666664,NA
92604,Orange County,CA,NA,NA,58.27338129496403
92646,Orange County,CA,NA,22.04861111111111,NA
92649,Orange County,CA,60,NA,NA
92675,Orange County,CA,NA,NA,87.05035971223022
92677,Orange County,CA,NA,78.38541666666666,NA
92694,Orange County,CA,76.11111111111111,NA,NA
92707,Orange County,CA,NA,39.0625,NA
92782,Orange County,CA,NA,77.43055555555556,NA
92806,Orange County,CA,NA,79.94791666666666,NA
92833,Orange County,CA,77.77777777777779,NA,NA
92868,Orange County,CA,NA,60.677083333333336,NA
92880,Riverside County,CA,NA,79.07986111111111,NA
93117,Santa Barbara County,CA,NA,80.29513888888889,NA
93312,Kern County,CA,NA,35.59027777777778,NA
93433,San Luis Obispo County,CA,NA,74.91319444444444,NA
93535,Los Angeles County,CA,NA,30.64236111111111,NA
93612,Fresno County,CA,NA,93.92361111111111,NA
93619,Fresno County,CA,NA,38.36805555555556,NA
93725,Fresno County,CA,NA,62.326388888888886,NA
93940,Monterey County,CA,NA,94.96527777777779,NA
94019,San Mateo County,CA,NA,79.42708333333334,NA
94024,Santa Clara County,CA,NA,83.42013888888889,NA
94070,San Mateo County,CA,95,NA,NA
94109,San Francisco County,CA,NA,24.56597222222222,NA
94124,San Francisco County,CA,NA,21.44097222222222,NA
94131,San Francisco County,CA,NA,59.635416666666664,NA
94158,San Francisco County,CA,NA,92.88194444444444,NA
94303,San Mateo County,CA,NA,23.958333333333336,NA
94401,San Mateo County,CA,NA,NA,62.23021582733813
94403,San Mateo County,CA,38.88888888888889,NA,NA
94513,Contra Costa County,CA,50,NA,NA
94538,Alameda County,CA,NA,NA,41.007194244604314
94539,Alameda County,CA,NA,80.98958333333334,NA
94541,Alameda County,CA,NA,71.00694444444444,NA
94559,Napa County,CA,NA,58.59375,NA
94561,Contra Costa County,CA,NA,81.77083333333334,NA
94564,Contra Costa County,CA,NA,82.72569444444444,NA
94566,Alameda County,CA,NA,58.420138888888886,NA
94568,Alameda County,CA,NA,49.30555555555556,NA
94580,Alameda County,CA,NA,75.17361111111111,NA
94588,Alameda County,CA,NA,88.62847222222221,NA
94602,Alameda County,CA,NA,77.69097222222221,NA
94609,Alameda County,CA,NA,83.94097222222221,NA
94803,Contra Costa County,CA,96.11111111111111,NA,NA
95008,Santa Clara County,CA,NA,60.15625,NA
95076,Santa Cruz County,CA,NA,47.22222222222222,NA
95117,Santa Clara County,CA,NA,93.75,NA
95125,Santa Clara County,CA,NA,95.48611111111111,NA
95127,Santa Clara County,CA,NA,NA,42.086330935251794
95128,Santa Clara County,CA,NA,98.69791666666666,NA
95207,San Joaquin County,CA,NA,18.14236111111111,NA
95337,San Joaquin County,CA,NA,82.29166666666666,NA
95350,Stanislaus County,CA,NA,NA,14.748201438848922
95367,Stanislaus County,CA,NA,50.69444444444444,NA
95376,San Joaquin County,CA,NA,24.39236111111111,NA
95476,Sonoma County,CA,NA,NA,32.73381294964029
95628,Sacramento County,CA,NA,57.986111111111114,NA
95630,Sacramento County,CA,NA,22.916666666666664,NA
95811,Sacramento County,CA,NA,95.3125,NA
95815,Sacramento County,CA,57.22222222222222,NA,NA
95816,Sacramento County,CA,NA,49.47916666666667,NA
95820,Sacramento County,CA,NA,46.78819444444444,NA
95828,Sacramento County,CA,NA,36.89236111111111,NA
95831,Sacramento County,CA,NA,92.96875,NA
95945,Nevada County,CA,NA,NA,34.89208633093525
95961,Yuba County,CA,NA,41.49305555555556,NA
96067,Siskiyou County,CA,NA,94.79166666666666,NA
80011,Arapahoe County,CO,NA,6.770833333333333,NA
80015,Arapahoe County,CO,NA,15.104166666666666,NA
80017,Arapahoe County,CO,NA,NA,46.043165467625904
80018,Arapahoe County,CO,NA,73.87152777777779,NA
80127,Jefferson County,CO,NA,NA,74.82014388489209
80128,Jefferson County,CO,31.11111111111111,NA,NA
80219,Denver County,CO,NA,4.166666666666666,NA
80221,Adams County,CO,16.666666666666664,NA,NA
80231,Denver County,CO,NA,67.27430555555556,NA
80439,Jefferson County,CO,NA,92.36111111111111,NA
80550,Weld County,CO,NA,26.302083333333332,NA
80602,Adams County,CO,45,NA,NA
80620,Weld County,CO,NA,41.05902777777778,NA
80634,Weld County,CO,NA,2.34375,1.4388489208633095
80751,Logan County,CO,NA,39.23611111111111,NA
80829,El Paso County,CO,99.44444444444444,NA,NA
80904,El Paso County,CO,NA,NA,58.63309352517986
80907,El Paso County,CO,43.888888888888886,NA,NA
80910,El Paso County,CO,NA,NA,79.49640287769785
80919,El Paso County,CO,NA,67.36111111111111,NA
81504,Mesa County,CO,NA,27.083333333333332,NA
81520,Mesa County,CO,42.77777777777778,NA,NA
06033,Hartford County,CT,NA,53.385416666666664,NA
06051,Hartford County,CT,NA,17.274305555555554,NA
06082,Hartford County,CT,NA,46.52777777777778,NA
06096,Hartford County,CT,NA,78.21180555555556,NA
06106,Hartford County,CT,NA,3.90625,NA
06111,Hartford County,CT,NA,34.72222222222222,NA
06226,Windham County,CT,NA,NA,42.086330935251794
06241,Windham County,CT,NA,58.072916666666664,NA
06255,Windham County,CT,NA,73.78472222222221,NA
06410,New Haven County,CT,NA,NA,39.20863309352518
06457,Middlesex County,CT,NA,6.857638888888889,NA
06489,Hartford County,CT,NA,26.822916666666668,NA
06611,Fairfield County,CT,NA,NA,98.20143884892086
06708,New Haven County,CT,NA,19.18402777777778,NA
06716,New Haven County,CT,NA,60.50347222222222,NA
06820,Fairfield County,CT,NA,72.30902777777779,NA
06902,Fairfield County,CT,NA,49.91319444444444,NA
19702,New Castle County,DE,NA,12.67361111111111,NA
19803,New Castle County,DE,NA,57.8125,NA
19805,New Castle County,DE,NA,NA,9.352517985611511
19808,New Castle County,DE,NA,19.18402777777778,NA
19901,Kent County,DE,NA,15.104166666666666,NA
19947,Sussex County,DE,NA,84.11458333333334,NA
19968,Sussex County,DE,NA,NA,44.24460431654676
19973,Sussex County,DE,NA,12.934027777777779,NA
32034,Nassau County,FL,NA,NA,9.712230215827338
32060,Suwannee County,FL,NA,48.78472222222222,NA
32073,Clay County,FL,NA,20.74652777777778,NA
32082,St. Johns County,FL,NA,NA,61.15107913669065
32137,Flagler County,FL,NA,78.29861111111111,NA
32211,Duval County,FL,NA,18.055555555555554,NA
32218,Duval County,FL,NA,3.2118055555555554,NA
32220,Duval County,FL,NA,62.93402777777778,NA
32224,Duval County,FL,NA,81.59722222222221,NA
32233,Duval County,FL,NA,36.37152777777778,NA
32250,Duval County,FL,NA,89.67013888888889,NA
32256,Duval County,FL,NA,61.979166666666664,NA
32258,Duval County,FL,NA,NA,31.654676258992804
32466,Bay County,FL,NA,85.41666666666666,NA
32503,Escambia County,FL,NA,NA,15.827338129496402
32514,Escambia County,FL,NA,20.833333333333336,NA
32605,Alachua County,FL,NA,24.913194444444446,NA
32656,Clay County,FL,NA,87.15277777777779,NA
32703,Orange County,FL,NA,19.70486111111111,NA
32707,Seminole County,FL,NA,64.0625,NA
32757,Lake County,FL,NA,NA,26.618705035971225
32773,Seminole County,FL,71.66666666666667,NA,NA
32796,Brevard County,FL,NA,48.17708333333333,NA
32807,Orange County,FL,NA,84.46180555555556,NA
32909,Brevard County,FL,NA,NA,77.6978417266187
32935,Brevard County,FL,NA,76.99652777777779,NA
32952,Brevard County,FL,NA,NA,87.76978417266187
32962,Indian River County,FL,72.77777777777777,NA,NA
33012,Miami-Dade County,FL,NA,NA,19.784172661870503
33025,Broward County,FL,NA,26.475694444444443,NA
33032,Miami-Dade County,FL,NA,70.3125,NA
33040,Monroe County,FL,NA,40.88541666666667,NA
33064,Broward County,FL,NA,66.75347222222221,NA
33168,Miami-Dade County,FL,NA,67.01388888888889,NA
33308,Broward County,FL,NA,NA,16.546762589928058
33311,Broward County,FL,NA,6.25,NA
33324,Broward County,FL,NA,NA,72.3021582733813
33418,Palm Beach County,FL,NA,NA,25.899280575539567
33440,Hendry County,FL,NA,46.35416666666667,NA
33441,Broward County,FL,NA,51.822916666666664,NA
33442,Broward County,FL,NA,78.55902777777779,NA
33461,Palm Beach County,FL,NA,55.81597222222222,NA
33496,Palm Beach County,FL,NA,70.05208333333334,NA
33510,Hillsborough County,FL,NA,NA,76.97841726618705
33614,Hillsborough County,FL,NA,31.163194444444443,NA
33765,Pinellas County,FL,NA,89.0625,NA
33777,Pinellas County,FL,NA,NA,65.46762589928058
33853,Polk County,FL,NA,62.760416666666664,NA
33896,Polk County,FL,NA,NA,89.568345323741
33909,Lee County,FL,25,NA,NA
33917,Lee County,FL,NA,47.74305555555556,NA
33990,Lee County,FL,64.44444444444444,NA,NA
34104,Collier County,FL,NA,87.41319444444444,NA
34108,Collier County,FL,NA,NA,52.51798561151079
34120,Collier County,FL,NA,32.63888888888889,NA
34229,Sarasota County,FL,NA,NA,63.66906474820144
34232,Sarasota County,FL,NA,43.40277777777778,NA
34242,Sarasota County,FL,NA,97.74305555555556,NA
34266,DeSoto County,FL,NA,32.8125,NA
34285,Sarasota County,FL,NA,86.02430555555556,NA
34741,Osceola County,FL,NA,20.48611111111111,NA
34744,Osceola County,FL,NA,23.26388888888889,NA
34771,Osceola County,FL,NA,NA,78.05755395683454
30009,Fulton County,GA,NA,NA,67.98561151079137
30040,Forsyth County,GA,NA,22.30902777777778,NA
30064,Cobb County,GA,NA,58.24652777777778,NA
30078,Gwinnett County,GA,NA,82.98611111111111,NA
30083,DeKalb County,GA,NA,23.350694444444446,NA
30116,Carroll County,GA,37.77777777777778,NA,NA
30180,Carroll County,GA,NA,19.87847222222222,NA
30214,Fayette County,GA,NA,50.260416666666664,NA
30228,Henry County,GA,NA,27.256944444444443,NA
30233,Butts County,GA,70,NA,NA
30305,Fulton County,GA,NA,77.95138888888889,NA
30310,Fulton County,GA,NA,52.083333333333336,NA
30318,Fulton County,GA,NA,57.46527777777778,NA
30331,Fulton County,GA,NA,14.84375,NA
30349,Fulton County,GA,NA,48.09027777777778,NA
30453,Tattnall County,GA,NA,96.18055555555556,NA
30458,Bulloch County,GA,NA,84.89583333333334,NA
30519,Gwinnett County,GA,NA,84.63541666666666,NA
30540,Gilmer County,GA,NA,75.69444444444444,NA
30605,Clarke County,GA,NA,79.34027777777779,NA
30736,Catoosa County,GA,NA,9.114583333333332,NA
30809,Columbia County,GA,NA,79.77430555555556,NA
30824,McDuffie County,GA,NA,44.96527777777778,NA
30909,Richmond County,GA,NA,22.569444444444446,NA
31008,Peach County,GA,NA,38.97569444444444,NA
31757,Thomas County,GA,NA,69.70486111111111,NA
31804,Harris County,GA,90,NA,NA
39817,Decatur County,GA,NA,59.80902777777778,NA
96707,Honolulu County,HI,NA,32.55208333333333,NA
96789,Honolulu County,HI,NA,18.663194444444446,NA
96797,Honolulu County,HI,NA,29.07986111111111,NA
96821,Honolulu County,HI,93.33333333333333,NA,NA
96822,Honolulu County,HI,NA,36.28472222222222,NA
96825,Honolulu County,HI,NA,78.47222222222221,NA
96826,Honolulu County,HI,NA,39.40972222222222,NA
83201,Bannock County,ID,NA,19.53125,NA
83301,Twin Falls County,ID,NA,16.666666666666664,0.3597122302158274
83336,Minidoka County,ID,NA,96.70138888888889,NA
83634,Ada County,ID,NA,36.97916666666667,NA
83642,Ada County,ID,NA,75.26041666666666,NA
83647,Elmore County,ID,NA,NA,84.17266187050359
83661,Payette County,ID,NA,NA,93.16546762589928
83687,Canyon County,ID,NA,18.836805555555554,NA
83702,Ada County,ID,NA,58.94097222222222,NA
83709,Ada County,ID,NA,NA,3.5971223021582732
83869,Kootenai County,ID,NA,NA,96.76258992805755
60002,Lake County,IL,NA,NA,29.856115107913666
60012,McHenry County,IL,91.66666666666666,NA,NA
60021,McHenry County,IL,NA,NA,97.12230215827337
60025,Cook County,IL,NA,40.01736111111111,NA
60031,Lake County,IL,33.88888888888889,NA,NA
60053,Cook County,IL,NA,90.27777777777779,NA
60062,Cook County,IL,NA,35.76388888888889,4.316546762589928
60077,Cook County,IL,NA,82.37847222222221,NA
60085,Lake County,IL,NA,63.802083333333336,NA
60091,Cook County,IL,NA,67.70833333333334,NA
60098,McHenry County,IL,20.555555555555554,NA,15.467625899280577
60099,Lake County,IL,NA,37.5,NA
60104,Cook County,IL,47.22222222222222,NA,NA
60110,Kane County,IL,41.66666666666667,NA,NA
60130,Cook County,IL,NA,45.48611111111111,NA
60148,DuPage County,IL,NA,59.982638888888886,5.39568345323741
60151,Kane County,IL,NA,99.13194444444444,NA
60164,Cook County,IL,NA,68.57638888888889,NA
60174,Kane County,IL,NA,42.53472222222222,NA
60175,Kane County,IL,NA,57.03125,NA
60181,DuPage County,IL,NA,59.201388888888886,NA
60187,DuPage County,IL,27.77777777777778,66.57986111111111,NA
60201,Cook County,IL,26.111111111111114,NA,NA
60406,Cook County,IL,NA,50.08680555555556,NA
60411,Cook County,IL,NA,11.197916666666668,NA
60425,Cook County,IL,NA,NA,66.18705035971223
60435,Will County,IL,NA,NA,37.76978417266187
60441,Will County,IL,NA,19.09722222222222,NA
60442,Will County,IL,NA,77.43055555555556,NA
60447,Grundy County,IL,NA,52.517361111111114,NA
60453,Cook County,IL,10,NA,65.82733812949641
60465,Cook County,IL,NA,45.3125,NA
60471,Cook County,IL,NA,NA,61.51079136690647
60505,Kane County,IL,NA,27.77777777777778,NA
60510,Kane County,IL,NA,32.03125,NA
60521,DuPage County,IL,NA,87.58680555555556,81.65467625899281
60560,Kendall County,IL,NA,40.19097222222222,NA
60563,DuPage County,IL,NA,42.44791666666667,NA
60564,Will County,IL,NA,34.02777777777778,22.66187050359712
60608,Cook County,IL,51.11111111111111,35.15625,NA
60617,Cook County,IL,NA,6.423611111111111,NA
60619,Cook County,IL,NA,23.61111111111111,NA
60621,Cook County,IL,NA,31.510416666666668,NA
60630,Cook County,IL,NA,20.399305555555554,NA
60631,Cook County,IL,NA,60.416666666666664,NA
60639,Cook County,IL,NA,63.888888888888886,NA
60642,Cook County,IL,NA,75.86805555555556,NA
60645,Cook County,IL,NA,65.625,NA
60659,Cook County,IL,NA,43.75,NA
60915,Kankakee County,IL,59.44444444444444,NA,NA
61008,Boone County,IL,NA,85.06944444444444,NA
61032,Stephenson County,IL,51.66666666666667,NA,17.26618705035971
61108,Winnebago County,IL,NA,52.34375,NA
61354,LaSalle County,IL,NA,50.954861111111114,NA
61853,Champaign County,IL,NA,NA,94.24460431654677
61866,Champaign County,IL,71.11111111111111,NA,NA
61920,Coles County,IL,NA,51.388888888888886,NA
61938,Coles County,IL,NA,42.27430555555556,NA
62088,Macoupin County,IL,NA,89.75694444444444,NA
62246,Bond County,IL,NA,86.97916666666666,NA
62704,Sangamon County,IL,NA,43.14236111111111,NA
62896,Franklin County,IL,NA,71.70138888888889,NA
62959,Williamson County,IL,NA,83.68055555555556,NA
46011,Madison County,IN,NA,45.83333333333333,NA
46077,Boone County,IN,NA,83.59375,NA
46163,Hancock County,IN,NA,84.80902777777779,NA
46176,Shelby County,IN,NA,NA,70.86330935251799
46181,Johnson County,IN,NA,98.00347222222221,NA
46204,Marion County,IN,NA,38.19444444444444,NA
46219,Marion County,IN,NA,9.98263888888889,NA
46228,Marion County,IN,NA,76.47569444444444,NA
46256,Marion County,IN,NA,67.01388888888889,NA
46303,Lake County,IN,NA,42.1875,NA
46307,Lake County,IN,NA,11.371527777777777,NA
46319,Lake County,IN,NA,23.177083333333336,NA
46322,Lake County,IN,NA,21.26736111111111,NA
46323,Lake County,IN,NA,49.65277777777778,NA
46324,Lake County,IN,NA,14.149305555555555,NA
46383,Porter County,IN,NA,7.03125,NA
46403,Lake County,IN,NA,64.75694444444444,NA
46410,Lake County,IN,NA,NA,24.820143884892087
46528,Elkhart County,IN,23.88888888888889,NA,NA
46530,St. Joseph County,IN,NA,76.30208333333334,NA
46563,Marshall County,IN,NA,69.61805555555556,NA
46714,Wells County,IN,78.88888888888889,NA,NA
46835,Allen County,IN,NA,29.86111111111111,NA
46901,Howard County,IN,NA,1.6493055555555556,NA
46952,Grant County,IN,NA,NA,6.115107913669065
46970,Miami County,IN,NA,8.246527777777777,NA
47129,Clark County,IN,NA,48.52430555555556,NA
47274,Jackson County,IN,NA,24.131944444444446,NA
47546,Dubois County,IN,NA,95.05208333333334,NA
47567,Pike County,IN,NA,91.14583333333334,NA
47591,Knox County,IN,25.555555555555554,NA,NA
47711,Vanderburgh County,IN,37.22222222222222,NA,NA
47720,Vanderburgh County,IN,NA,NA,53.23741007194245
47834,Clay County,IN,61.66666666666667,88.62847222222221,NA
47906,Tippecanoe County,IN,NA,NA,25.539568345323744
50010,Story County,IA,47.77777777777778,NA,NA
50131,Polk County,IA,66.66666666666666,NA,NA
50436,Winnebago County,IA,NA,91.14583333333334,NA
51351,Dickinson County,IA,NA,NA,87.41007194244604
51503,Pottawattamie County,IA,NA,29.947916666666668,NA
52402,Linn County,IA,NA,16.57986111111111,NA
52632,Lee County,IA,NA,68.40277777777779,NA
52722,Scott County,IA,NA,49.21875,NA
52730,Clinton County,IA,NA,97.13541666666666,NA
66002,Atchison County,KS,NA,NA,53.956834532374096
66048,Leavenworth County,KS,NA,61.71875,NA
66062,Johnson County,KS,NA,91.75347222222221,NA
66086,Leavenworth County,KS,NA,97.56944444444444,NA
66205,Johnson County,KS,NA,85.59027777777779,NA
66208,Johnson County,KS,51.66666666666667,NA,NA
66210,Johnson County,KS,NA,90.19097222222221,NA
66212,Johnson County,KS,NA,52.604166666666664,NA
66221,Johnson County,KS,NA,NA,72.66187050359713
66402,Shawnee County,KS,NA,98.87152777777779,NA
66434,Brown County,KS,NA,88.97569444444444,NA
67460,McPherson County,KS,NA,NA,54.67625899280576
40071,Spencer County,KY,NA,51.302083333333336,NA
40216,Jefferson County,KY,NA,7.8125,NA
40219,Jefferson County,KY,NA,NA,20.503597122302157
40222,Jefferson County,KY,62.22222222222222,NA,NA
40245,Jefferson County,KY,NA,44.70486111111111,NA
40291,Jefferson County,KY,NA,14.84375,NA
40356,Jessamine County,KY,NA,12.065972222222223,NA
40383,Woodford County,KY,NA,70.39930555555556,NA
40447,Jackson County,KY,NA,94.18402777777779,NA
40475,Madison County,KY,NA,7.204861111111111,NA
40505,Fayette County,KY,NA,20.572916666666664,NA
40977,Bell County,KY,NA,49.82638888888889,NA
41001,Campbell County,KY,NA,NA,64.02877697841727
41015,Kenton County,KY,NA,NA,54.31654676258992
41018,Kenton County,KY,NA,21.614583333333336,NA
41051,Kenton County,KY,NA,66.31944444444444,NA
41075,Campbell County,KY,NA,67.70833333333334,NA
41091,Boone County,KY,NA,68.92361111111111,NA
41171,Elliott County,KY,NA,98.35069444444444,NA
41465,Magoffin County,KY,NA,55.03472222222222,NA
42025,Marshall County,KY,NA,40.19097222222222,NA
42101,Warren County,KY,NA,5.989583333333334,NA
42129,Metcalfe County,KY,NA,54.25347222222222,NA
42240,Christian County,KY,NA,5.555555555555555,NA
42301,Daviess County,KY,NA,8.072916666666668,NA
70006,Jefferson Parish,LA,NA,86.02430555555556,NA
70037,Plaquemines Parish,LA,92.77777777777779,NA,NA
70065,Jefferson Parish,LA,NA,74.30555555555556,NA
70068,St. John the Baptist Parish,LA,NA,32.98611111111111,NA
70087,St. Charles Parish,LA,NA,45.74652777777778,NA
70119,Orleans Parish,LA,NA,NA,30.935251798561154
70125,Orleans Parish,LA,NA,64.93055555555556,NA
70126,Orleans Parish,LA,NA,NA,70.14388489208633
70130,Orleans Parish,LA,NA,39.75694444444444,NA
70301,Lafourche Parish,LA,NA,2.170138888888889,NA
70390,Assumption Parish,LA,82.22222222222221,NA,NA
70395,Terrebonne Parish,LA,NA,99.91319444444444,NA
70401,Tangipahoa Parish,LA,NA,21.961805555555554,NA
70438,Washington Parish,LA,65,NA,NA
70466,Tangipahoa Parish,LA,NA,48.4375,NA
70508,Lafayette Parish,LA,30.555555555555557,NA,NA
70517,St. Martin Parish,LA,NA,10.850694444444445,NA
70533,Vermilion Parish,LA,NA,56.770833333333336,NA
70538,St. Mary Parish,LA,NA,39.32291666666667,NA
70570,St. Landry Parish,LA,NA,NA,11.510791366906476
70583,Lafayette Parish,LA,NA,74.65277777777779,NA
70607,Calcasieu Parish,LA,NA,11.805555555555555,NA
70634,Beauregard Parish,LA,NA,NA,35.25179856115108
70737,Ascension Parish,LA,NA,6.076388888888888,NA
70769,Ascension Parish,LA,NA,8.333333333333332,NA
70791,East Baton Rouge Parish,LA,NA,71.18055555555556,NA
70809,East Baton Rouge Parish,LA,NA,49.73958333333333,NA
70810,East Baton Rouge Parish,LA,NA,48.00347222222222,NA
70817,East Baton Rouge Parish,LA,NA,29.34027777777778,NA
71055,Webster Parish,LA,NA,14.496527777777779,NA
71075,Webster Parish,LA,80,NA,NA
71105,Caddo Parish,LA,NA,NA,92.80575539568345
71241,Union Parish,LA,NA,53.99305555555556,NA
71295,Franklin Parish,LA,NA,15.625,NA
71405,Rapides Parish,LA,92.22222222222223,NA,NA
71463,Allen Parish,LA,NA,82.89930555555556,NA
03909,York County,ME,NA,50.43402777777778,NA
04002,York County,ME,46.666666666666664,73.69791666666666,NA
04038,Cumberland County,ME,53.888888888888886,NA,NA
04092,Cumberland County,ME,NA,35.85069444444444,NA
04103,Cumberland County,ME,NA,18.31597222222222,NA
04282,Androscoggin County,ME,NA,NA,99.64028776978418
04330,Kennebec County,ME,NA,22.48263888888889,29.136690647482016
04401,Penobscot County,ME,24.444444444444443,NA,NA
04654,Washington County,ME,NA,99.04513888888889,NA
04950,Somerset County,ME,NA,NA,66.54676258992805
04967,Somerset County,ME,NA,91.57986111111111,NA
20603,Charles County,MD,NA,63.107638888888886,NA
20751,Anne Arundel County,MD,NA,99.82638888888889,NA
20774,Prince George's County,MD,NA,40.45138888888889,NA
20832,Montgomery County,MD,NA,NA,74.10071942446042
20855,Montgomery County,MD,NA,90.10416666666666,NA
20876,Montgomery County,MD,NA,64.49652777777779,NA
20910,Montgomery County,MD,NA,55.295138888888886,NA
21014,Harford County,MD,NA,37.15277777777778,NA
21035,Anne Arundel County,MD,NA,89.84375,NA
21040,Harford County,MD,NA,82.03125,NA
21044,Howard County,MD,NA,45.22569444444444,NA
21085,Harford County,MD,NA,NA,91.72661870503596
21113,Anne Arundel County,MD,55.55555555555556,NA,NA
21117,Baltimore County,MD,NA,26.649305555555557,NA
21122,Anne Arundel County,MD,NA,7.118055555555555,NA
21128,Baltimore County,MD,NA,NA,80.57553956834532
21206,Baltimore city,MD,NA,9.635416666666668,NA
21212,Baltimore city,MD,NA,38.10763888888889,NA
21213,Baltimore city,MD,NA,65.97222222222221,NA
21218,Baltimore city,MD,NA,8.42013888888889,59.71223021582733
21219,Baltimore County,MD,NA,NA,78.41726618705036
21224,Baltimore city,MD,60,NA,NA
21231,Baltimore city,MD,NA,85.15625,NA
21234,Baltimore County,MD,NA,13.802083333333334,NA
21601,Talbot County,MD,NA,NA,39.568345323741006
21701,Frederick County,MD,NA,55.208333333333336,NA
21804,Wicomico County,MD,46.111111111111114,NA,NA
01089,Hampden County,MA,NA,3.4722222222222223,NA
01104,Hampden County,MA,22.22222222222222,NA,NA
01105,Hampden County,MA,NA,NA,11.870503597122301
01109,Hampden County,MA,NA,0.08680555555555555,NA
01151,Hampden County,MA,NA,56.423611111111114,NA
01247,Berkshire County,MA,NA,5.295138888888888,NA
01450,Middlesex County,MA,NA,65.27777777777779,NA
01463,Middlesex County,MA,NA,41.84027777777778,NA
01605,Worcester County,MA,NA,NA,90.28776978417267
01610,Worcester County,MA,NA,0.5208333333333333,NA
01701,Middlesex County,MA,18.333333333333332,NA,7.913669064748201
01719,Middlesex County,MA,NA,95.22569444444444,NA
01721,Middlesex County,MA,NA,29.51388888888889,NA
01742,Middlesex County,MA,NA,50.34722222222222,NA
01757,Worcester County,MA,15.555555555555555,1.9965277777777777,60.07194244604317
01773,Middlesex County,MA,NA,91.84027777777779,NA
01775,Middlesex County,MA,NA,NA,80.93525179856115
01776,Middlesex County,MA,NA,39.49652777777778,NA
01801,Middlesex County,MA,NA,17.96875,NA
01803,Middlesex County,MA,NA,17.36111111111111,NA
01810,Essex County,MA,NA,11.284722222222223,NA
01821,Middlesex County,MA,NA,4.340277777777778,NA
01824,Middlesex County,MA,NA,7.725694444444445,NA
01833,Essex County,MA,NA,78.73263888888889,NA
01843,Essex County,MA,NA,2.7777777777777777,NA
01844,Essex County,MA,NA,0.8680555555555556,NA
01845,Essex County,MA,NA,74.39236111111111,NA
01860,Essex County,MA,NA,80.20833333333334,NA
01862,Middlesex County,MA,NA,84.54861111111111,NA
01876,Middlesex County,MA,NA,25.260416666666668,NA
01880,Middlesex County,MA,NA,NA,6.474820143884892
01890,Middlesex County,MA,NA,71.96180555555556,NA
01902,Essex County,MA,NA,38.88888888888889,NA
01906,Essex County,MA,NA,69.01041666666666,NA
01907,Essex County,MA,NA,48.26388888888889,NA
01913,Essex County,MA,NA,NA,10.071942446043165
01915,Essex County,MA,NA,1.4756944444444444,NA
01923,Essex County,MA,1.6666666666666667,16.319444444444446,28.05755395683453
01938,Essex County,MA,NA,43.31597222222222,NA
01945,Essex County,MA,NA,37.15277777777778,NA
01966,Essex County,MA,NA,NA,88.48920863309353
01970,Essex County,MA,NA,36.45833333333333,NA
02026,Norfolk County,MA,NA,75.52083333333334,NA
02043,Plymouth County,MA,NA,33.94097222222222,NA
02045,Plymouth County,MA,NA,62.41319444444444,NA
02048,Bristol County,MA,90,NA,NA
02067,Norfolk County,MA,NA,53.47222222222222,NA
02093,Norfolk County,MA,NA,NA,93.88489208633094
02108,Suffolk County,MA,NA,97.39583333333334,NA
02113,Suffolk County,MA,NA,98.4375,NA
02114,Suffolk County,MA,32.22222222222222,NA,NA
02116,Suffolk County,MA,NA,12.586805555555555,NA
02119,Suffolk County,MA,NA,0,NA
02121,Suffolk County,MA,38.333333333333336,0.3472222222222222,NA
02124,Suffolk County,MA,NA,1.5625,NA
02125,Suffolk County,MA,NA,NA,0.7194244604316548
02127,Suffolk County,MA,NA,1.0416666666666665,NA
02128,Suffolk County,MA,NA,8.76736111111111,14.388489208633093
02129,Suffolk County,MA,NA,76.04166666666666,NA
02130,Suffolk County,MA,NA,0.78125,NA
02131,Suffolk County,MA,NA,1.215277777777778,NA
02132,Suffolk County,MA,NA,69.18402777777779,NA
02135,Suffolk County,MA,NA,67.62152777777779,NA
02136,Suffolk County,MA,NA,70.48611111111111,NA
02140,Middlesex County,MA,NA,88.19444444444444,NA
02141,Middlesex County,MA,NA,25.17361111111111,NA
02143,Middlesex County,MA,NA,4.774305555555555,NA
02145,Middlesex County,MA,NA,3.732638888888889,NA
02148,Middlesex County,MA,NA,16.05902777777778,NA
02149,Middlesex County,MA,NA,0.26041666666666663,NA
02150,Suffolk County,MA,NA,0.4340277777777778,NA
02151,Suffolk County,MA,NA,35.67708333333333,NA
02155,Middlesex County,MA,NA,25.868055555555557,56.83453237410072
02170,Norfolk County,MA,NA,97.91666666666666,NA
02171,Norfolk County,MA,NA,92.70833333333334,NA
02176,Middlesex County,MA,NA,80.90277777777779,NA
02186,Norfolk County,MA,NA,71.52777777777779,NA
02189,Norfolk County,MA,58.88888888888889,20.052083333333336,NA
02190,Norfolk County,MA,NA,23.87152777777778,NA
02324,Plymouth County,MA,NA,9.027777777777777,NA
02332,Plymouth County,MA,NA,69.44444444444444,NA
02343,Norfolk County,MA,NA,90.625,NA
02364,Plymouth County,MA,NA,86.63194444444444,NA
02421,Middlesex County,MA,NA,65.79861111111111,65.10791366906474
02446,Norfolk County,MA,NA,86.37152777777779,7.553956834532374
02453,Middlesex County,MA,NA,30.46875,NA
02460,Middlesex County,MA,NA,57.72569444444444,NA
02467,Norfolk County,MA,NA,44.09722222222222,NA
02472,Middlesex County,MA,57.77777777777777,6.336805555555555,NA
02478,Middlesex County,MA,NA,19.791666666666664,NA
02481,Norfolk County,MA,NA,52.864583333333336,NA
02494,Norfolk County,MA,NA,83.24652777777779,NA
02649,Barnstable County,MA,NA,NA,24.46043165467626
02720,Bristol County,MA,NA,0.1736111111111111,NA
02724,Bristol County,MA,NA,16.927083333333336,NA
02738,Plymouth County,MA,NA,NA,83.81294964028777
02743,Bristol County,MA,NA,79.6875,NA
02746,Bristol County,MA,NA,1.7361111111111112,NA
02747,Bristol County,MA,NA,NA,47.84172661870504
02766,Bristol County,MA,19.444444444444446,NA,NA
02767,Bristol County,MA,78.33333333333333,NA,NA
48009,Oakland County,MI,NA,NA,55.75539568345324
48021,Macomb County,MI,NA,8.59375,NA
48025,Oakland County,MI,NA,NA,53.597122302158276
48038,Macomb County,MI,NA,11.024305555555555,NA
48039,St. Clair County,MI,83.88888888888889,NA,NA
48040,St. Clair County,MI,NA,68.75,NA
48042,Macomb County,MI,NA,18.57638888888889,NA
48044,Macomb County,MI,NA,28.47222222222222,NA
48051,Macomb County,MI,NA,53.99305555555556,NA
48054,St. Clair County,MI,NA,88.28125,NA
48072,Oakland County,MI,NA,76.82291666666666,NA
48073,Oakland County,MI,NA,58.15972222222222,NA
48080,Macomb County,MI,NA,32.46527777777778,NA
48084,Oakland County,MI,NA,76.5625,92.08633093525181
48088,Macomb County,MI,NA,NA,21.58273381294964
48091,Macomb County,MI,NA,24.04513888888889,16.906474820143885
48098,Oakland County,MI,NA,NA,33.093525179856115
48101,Wayne County,MI,NA,70.22569444444444,NA
48105,Washtenaw County,MI,NA,NA,16.18705035971223
48111,Wayne County,MI,44.44444444444444,NA,NA
48116,Livingston County,MI,NA,24.21875,NA
48127,Wayne County,MI,NA,10.15625,NA
48141,Wayne County,MI,NA,29.427083333333332,NA
48180,Wayne County,MI,NA,2.256944444444444,NA
48184,Wayne County,MI,48.333333333333336,NA,NA
48188,Wayne County,MI,NA,83.50694444444444,NA
48193,Wayne County,MI,NA,87.5,NA
48202,Wayne County,MI,NA,26.5625,NA
48207,Wayne County,MI,NA,16.40625,NA
48212,Wayne County,MI,NA,8.159722222222223,NA
48213,Wayne County,MI,NA,34.375,NA
48219,Wayne County,MI,NA,4.253472222222222,NA
48224,Wayne County,MI,NA,2.083333333333333,NA
48225,Wayne County,MI,NA,35.50347222222222,NA
48229,Wayne County,MI,NA,NA,98.56115107913669
48302,Oakland County,MI,NA,87.32638888888889,NA
48306,Oakland County,MI,NA,39.58333333333333,NA
48315,Macomb County,MI,NA,68.66319444444444,NA
48316,Macomb County,MI,NA,68.22916666666666,NA
48317,Macomb County,MI,NA,18.75,NA
48322,Oakland County,MI,NA,38.62847222222222,NA
48327,Oakland County,MI,NA,28.645833333333332,NA
48329,Oakland County,MI,NA,29.774305555555557,NA
48335,Oakland County,MI,NA,NA,48.201438848920866
48336,Oakland County,MI,NA,28.819444444444443,NA
48346,Oakland County,MI,NA,33.76736111111111,NA
48359,Oakland County,MI,NA,59.375,NA
48371,Oakland County,MI,NA,66.05902777777779,NA
48374,Oakland County,MI,NA,72.04861111111111,NA
48393,Oakland County,MI,75,NA,NA
48439,Genesee County,MI,NA,10.590277777777777,NA
48461,Lapeer County,MI,NA,86.45833333333334,NA
48505,Genesee County,MI,NA,15.364583333333334,NA
48602,Saginaw County,MI,NA,16.493055555555554,NA
48617,Clare County,MI,NA,68.14236111111111,NA
48624,Gladwin County,MI,NA,34.80902777777778,NA
48642,Midland County,MI,NA,46.78819444444444,NA
48650,Bay County,MI,NA,78.64583333333334,NA
48831,Clinton County,MI,NA,99.30555555555556,NA
48837,Eaton County,MI,NA,53.21180555555556,NA
48854,Ingham County,MI,40.55555555555556,NA,NA
48867,Shiawassee County,MI,NA,25.60763888888889,NA
48875,Ionia County,MI,NA,NA,68.70503597122301
48906,Ingham County,MI,18.88888888888889,NA,NA
48910,Ingham County,MI,NA,9.461805555555555,NA
48911,Ingham County,MI,NA,5.729166666666666,NA
49014,Calhoun County,MI,23.333333333333332,NA,NA
49021,Eaton County,MI,NA,79.86111111111111,NA
49024,Kalamazoo County,MI,NA,55.90277777777778,NA
49036,Branch County,MI,NA,24.82638888888889,NA
49047,Cass County,MI,45.55555555555556,NA,NA
49048,Kalamazoo County,MI,NA,14.756944444444445,NA
49079,Van Buren County,MI,36.666666666666664,NA,NA
49080,Allegan County,MI,69.44444444444444,NA,NA
49090,Van Buren County,MI,NA,54.427083333333336,NA
49097,Kalamazoo County,MI,NA,60.24305555555556,NA
49120,Berrien County,MI,NA,12.152777777777777,NA
49201,Jackson County,MI,NA,7.378472222222222,3.9568345323741005
49203,Jackson County,MI,NA,6.597222222222222,NA
49233,Hillsdale County,MI,NA,100,NA
49247,Lenawee County,MI,67.77777777777779,NA,NA
49315,Kent County,MI,NA,42.88194444444444,NA
49319,Kent County,MI,NA,26.21527777777778,NA
49329,Montcalm County,MI,NA,NA,59.352517985611506
49348,Allegan County,MI,NA,28.993055555555557,NA
49401,Ottawa County,MI,NA,54.60069444444444,NA
49419,Allegan County,MI,NA,94.27083333333334,NA
49421,Oceana County,MI,NA,78.90625,NA
49423,Ottawa County,MI,NA,9.54861111111111,NA
49435,Ottawa County,MI,NA,99.47916666666666,NA
49441,Muskegon County,MI,NA,NA,3.237410071942446
49445,Muskegon County,MI,NA,32.72569444444444,NA
49456,Ottawa County,MI,NA,89.14930555555556,NA
49464,Ottawa County,MI,NA,77.25694444444444,NA
49507,Kent County,MI,0.5555555555555556,NA,19.784172661870503
49512,Kent County,MI,NA,87.84722222222221,NA
49534,Kent County,MI,NA,52.864583333333336,NA
49546,Kent County,MI,NA,66.92708333333334,NA
49548,Kent County,MI,NA,6.510416666666667,NA
49660,Manistee County,MI,NA,35.06944444444444,NA
49783,Chippewa County,MI,NA,17.53472222222222,NA
49837,Delta County,MI,NA,48.52430555555556,NA
49866,Marquette County,MI,NA,81.25,NA
55021,Rice County,MN,NA,33.85416666666667,NA
55025,Washington County,MN,NA,52.34375,NA
55045,Chisago County,MN,NA,93.57638888888889,NA
55068,Dakota County,MN,NA,61.197916666666664,NA
55112,Ramsey County,MN,26.666666666666668,NA,NA
55119,Ramsey County,MN,NA,11.631944444444445,NA
55125,Washington County,MN,NA,37.06597222222222,NA
55313,Wright County,MN,NA,NA,38.84892086330935
55318,Carver County,MN,NA,54.77430555555556,NA
55330,Sherburne County,MN,NA,NA,36.69064748201439
55372,Scott County,MN,52.77777777777778,NA,NA
55412,Hennepin County,MN,NA,7.465277777777778,NA
55421,Anoka County,MN,NA,17.79513888888889,NA
55804,St. Louis County,MN,NA,67.88194444444444,NA
55811,St. Louis County,MN,NA,58.854166666666664,NA
55912,Mower County,MN,NA,6.163194444444445,NA
56007,Freeborn County,MN,NA,73.52430555555556,NA
56013,Faribault County,MN,NA,97.48263888888889,NA
56031,Martin County,MN,NA,42.10069444444444,NA
56301,Stearns County,MN,NA,40.36458333333333,NA
56352,Stearns County,MN,NA,84.20138888888889,NA
56484,Cass County,MN,NA,89.58333333333334,NA
56537,Otter Tail County,MN,NA,15.538194444444445,NA
56573,Otter Tail County,MN,NA,58.59375,NA
56716,Polk County,MN,63.888888888888886,NA,NA
38762,Bolivar County,MS,NA,98.95833333333334,NA
39090,Attala County,MS,NA,65.88541666666666,NA
39170,Hinds County,MS,NA,80.72916666666666,NA
39213,Hinds County,MS,NA,31.07638888888889,NA
39402,Lamar County,MS,NA,60.06944444444444,NA
39439,Jasper County,MS,NA,89.84375,NA
39466,Pearl River County,MS,NA,22.30902777777778,NA
39564,Jackson County,MS,NA,NA,27.33812949640288
39648,Pike County,MS,NA,17.100694444444446,NA
39701,Lowndes County,MS,NA,62.84722222222222,NA
39702,Lowndes County,MS,NA,33.50694444444444,NA
39735,Choctaw County,MS,94.44444444444444,93.22916666666666,NA
39773,Clay County,MS,NA,85.32986111111111,NA
63011,St. Louis County,MO,NA,NA,49.64028776978417
63017,St. Louis County,MO,NA,NA,12.589928057553957
63033,St. Louis County,MO,NA,13.28125,NA
63108,St. Louis city,MO,NA,85.85069444444444,NA
63121,St. Louis County,MO,NA,25.95486111111111,NA
63357,Warren County,MO,NA,96.96180555555556,NA
63366,St. Charles County,MO,NA,9.895833333333332,NA
63601,St. Francois County,MO,NA,39.84375,NA
63775,Perry County,MO,NA,65.01736111111111,30.575539568345324
63901,Butler County,MO,NA,78.99305555555556,NA
64012,Cass County,MO,NA,23.4375,NA
64015,Jackson County,MO,NA,11.11111111111111,NA
64055,Jackson County,MO,83.33333333333334,NA,8.633093525179856
64057,Jackson County,MO,NA,NA,46.76258992805755
64064,Jackson County,MO,NA,47.82986111111111,NA
64078,Cass County,MO,77.22222222222223,NA,NA
64110,Jackson County,MO,NA,32.11805555555556,NA
64111,Jackson County,MO,NA,NA,44.60431654676259
64116,Clay County,MO,NA,21.09375,NA
64152,Platte County,MO,NA,16.75347222222222,NA
64485,Andrew County,MO,NA,59.375,NA
65203,Boone County,MO,NA,20.92013888888889,NA
65610,Christian County,MO,97.22222222222221,NA,NA
65622,Dallas County,MO,NA,72.82986111111111,NA
65775,Howell County,MO,NA,NA,28.776978417266186
59330,Dawson County,MT,NA,94.09722222222221,NA
59405,Cascade County,MT,NA,25,NA
59715,Gallatin County,MT,NA,47.30902777777778,NA
59741,Gallatin County,MT,NA,NA,100
59801,Missoula County,MT,NA,58.767361111111114,NA
59901,Flathead County,MT,NA,28.038194444444443,NA
68005,Sarpy County,NE,NA,93.83680555555556,NA
68025,Dodge County,NE,NA,NA,55.03597122302158
68104,Douglas County,NE,22.77777777777778,NA,NA
68105,Douglas County,NE,NA,85.9375,NA
68123,Sarpy County,NE,NA,61.111111111111114,NA
68124,Douglas County,NE,NA,NA,78.77697841726618
68127,Douglas County,NE,NA,92.53472222222221,NA
68135,Douglas County,NE,NA,67.96875,NA
68138,Sarpy County,NE,NA,92.44791666666666,NA
68372,Lancaster County,NE,NA,99.39236111111111,NA
68505,Lancaster County,NE,NA,80.03472222222221,NA
68803,Hall County,NE,61.111111111111114,66.23263888888889,NA
89110,Clark County,NV,36.11111111111111,NA,NA
89119,Clark County,NV,NA,NA,45.68345323741007
89403,Lyon County,NV,NA,34.11458333333333,NA
89410,Douglas County,NV,NA,84.28819444444444,NA
89503,Washoe County,NV,NA,NA,86.33093525179856
89506,Washoe County,NV,NA,15.885416666666666,NA
89509,Washoe County,NV,NA,45.65972222222222,NA
89701,Carson City,NV,NA,67.1875,NA
03032,Rockingham County,NH,NA,80.98958333333334,NA
03051,Hillsborough County,NH,NA,NA,18.345323741007196
03054,Hillsborough County,NH,NA,61.458333333333336,NA
03062,Hillsborough County,NH,NA,NA,8.992805755395683
03063,Hillsborough County,NH,NA,84.02777777777779,NA
03076,Hillsborough County,NH,NA,41.40625,NA
03079,Rockingham County,NH,NA,73.35069444444444,NA
03103,Hillsborough County,NH,NA,5.121527777777778,NA
03104,Hillsborough County,NH,NA,NA,14.028776978417264
03755,Grafton County,NH,NA,99.56597222222221,NA
03766,Grafton County,NH,86.11111111111111,NA,NA
03873,Rockingham County,NH,NA,87.06597222222221,NA
03874,Rockingham County,NH,NA,43.14236111111111,NA
03878,Strafford County,NH,NA,79.16666666666666,NA
07039,Essex County,NJ,NA,NA,33.81294964028777
07047,Hudson County,NJ,NA,NA,1.079136690647482
07060,Union County,NJ,NA,5.815972222222222,NA
07087,Hudson County,NJ,NA,45.13888888888889,NA
07112,Essex County,NJ,16.11111111111111,NA,NA
07304,Hudson County,NJ,NA,2.6909722222222223,NA
07306,Hudson County,NJ,NA,4.513888888888888,NA
07450,Bergen County,NJ,NA,76.64930555555556,NA
07470,Passaic County,NJ,NA,NA,2.877697841726619
07716,Monmouth County,NJ,NA,NA,82.37410071942446
07836,Morris County,NJ,NA,NA,85.61151079136691
08012,Camden County,NJ,NA,4.947916666666666,NA
08033,Camden County,NJ,NA,62.5,56.11510791366906
08035,Camden County,NJ,NA,95.74652777777779,NA
08053,Burlington County,NJ,NA,NA,23.021582733812952
08080,Gloucester County,NJ,NA,34.89583333333333,NA
08105,Camden County,NJ,NA,NA,12.949640287769784
08232,Atlantic County,NJ,NA,4.861111111111112,NA
08234,Atlantic County,NJ,NA,35.32986111111111,NA
08302,Cumberland County,NJ,NA,NA,10.79136690647482
08318,Salem County,NJ,NA,51.90972222222222,NA
08723,Ocean County,NJ,NA,61.197916666666664,NA
08736,Monmouth County,NJ,NA,NA,89.92805755395683
08755,Ocean County,NJ,12.777777777777777,NA,NA
08757,Ocean County,NJ,NA,9.809027777777777,NA
08861,Middlesex County,NJ,NA,1.128472222222222,NA
08863,Middlesex County,NJ,74.44444444444444,NA,NA
08876,Somerset County,NJ,NA,16.145833333333336,NA
87102,Bernalillo County,NM,NA,50.86805555555556,NA
87109,Bernalillo County,NM,NA,44.87847222222222,NA
87112,Bernalillo County,NM,NA,11.979166666666668,NA
87114,Bernalillo County,NM,NA,28.90625,NA
87121,Bernalillo County,NM,NA,NA,5.0359712230215825
87413,San Juan County,NM,NA,47.56944444444444,NA
87529,Taos County,NM,NA,98.78472222222221,NA
87547,,NM,NA,NA,88.12949640287769
88001,Doa Ana County,NM,NA,55.989583333333336,NA
88007,Doa Ana County,NM,NA,52.77777777777778,NA
88012,Doa Ana County,NM,NA,30.381944444444443,NA
88101,Curry County,NM,NA,NA,7.1942446043165464
88310,Otero County,NM,79.44444444444444,NA,NA
10002,New York County,NY,NA,34.98263888888889,NA
10016,New York County,NY,NA,32.29166666666667,NA
10022,New York County,NY,NA,80.55555555555556,NA
10023,New York County,NY,NA,44.53125,NA
10025,New York County,NY,NA,NA,75.53956834532374
10029,New York County,NY,5.555555555555555,NA,NA
10301,Richmond County,NY,NA,42.62152777777778,NA
10303,Richmond County,NY,NA,35.85069444444444,NA
10305,Richmond County,NY,NA,16.23263888888889,NA
10310,Richmond County,NY,31.666666666666664,NA,NA
10451,Bronx County,NY,NA,NA,62.589928057553955
10456,Bronx County,NY,NA,13.194444444444445,NA
10457,Bronx County,NY,NA,0.607638888888889,NA
10461,Bronx County,NY,NA,36.11111111111111,NA
10463,Bronx County,NY,NA,6.684027777777778,NA
10467,Bronx County,NY,NA,4.079861111111112,0
10468,Bronx County,NY,NA,0.9548611111111112,NA
10469,Bronx County,NY,NA,15.45138888888889,NA
10470,Bronx County,NY,56.666666666666664,NA,NA
10523,Westchester County,NY,NA,97.65625,NA
10603,Westchester County,NY,NA,71.61458333333334,NA
10977,Rockland County,NY,NA,77.17013888888889,NA
11102,Queens County,NY,NA,42.96875,NA
11201,Kings County,NY,NA,67.53472222222221,NA
11205,Kings County,NY,NA,10.069444444444445,NA
11210,Kings County,NY,NA,39.14930555555556,NA
11220,Kings County,NY,NA,15.79861111111111,NA
11231,Kings County,NY,NA,37.58680555555556,NA
11234,Kings County,NY,NA,47.91666666666667,NA
11238,Kings County,NY,NA,48.95833333333333,NA
11355,Queens County,NY,NA,23.524305555555554,NA
11368,Queens County,NY,NA,26.041666666666668,NA
11370,Queens County,NY,NA,44.61805555555556,NA
11372,Queens County,NY,NA,92.79513888888889,NA
11373,Queens County,NY,NA,11.71875,NA
11418,Queens County,NY,NA,41.31944444444444,NA
11420,Queens County,NY,NA,NA,32.37410071942446
11428,Queens County,NY,NA,NA,69.06474820143885
11743,Suffolk County,NY,NA,72.30902777777779,NA
11757,Suffolk County,NY,NA,70.57291666666666,NA
11934,Suffolk County,NY,NA,NA,96.40287769784173
12010,Montgomery County,NY,NA,4.427083333333334,NA
12015,Greene County,NY,NA,99.21875,NA
12078,Fulton County,NY,NA,18.229166666666664,NA
12110,Albany County,NY,NA,72.91666666666666,NA
12144,Rensselaer County,NY,NA,68.31597222222221,NA
12180,Rensselaer County,NY,NA,1.9097222222222223,NA
12302,Schenectady County,NY,NA,91.66666666666666,NA
12414,Greene County,NY,NA,47.13541666666667,NA
12553,Orange County,NY,87.22222222222223,NA,NA
12571,Dutchess County,NY,96.11111111111111,NA,NA
12701,Sullivan County,NY,NA,41.14583333333333,63.30935251798561
12946,Essex County,NY,NA,31.68402777777778,NA
13027,Onondaga County,NY,NA,83.76736111111111,NA
13030,Madison County,NY,NA,76.99652777777779,NA
13032,Madison County,NY,NA,NA,71.22302158273382
13036,Oswego County,NY,NA,NA,75.17985611510791
13041,Onondaga County,NY,NA,66.14583333333334,NA
13045,Cortland County,NY,NA,3.298611111111111,10.431654676258994
13068,Tompkins County,NY,NA,94.44444444444444,NA
13104,Onondaga County,NY,NA,47.48263888888889,NA
13126,Oswego County,NY,NA,17.01388888888889,51.438848920863315
13166,Cayuga County,NY,NA,78.125,NA
13207,Onondaga County,NY,NA,26.90972222222222,NA
13208,Onondaga County,NY,53.333333333333336,37.32638888888889,NA
13210,Onondaga County,NY,NA,64.40972222222221,NA
13212,Onondaga County,NY,NA,27.51736111111111,NA
13440,Oneida County,NY,NA,39.67013888888889,NA
13601,Jefferson County,NY,NA,3.5590277777777777,NA
13617,St. Lawrence County,NY,NA,NA,30.215827338129497
13642,St. Lawrence County,NY,NA,60.9375,NA
13760,Broome County,NY,NA,15.711805555555555,17.62589928057554
13790,Broome County,NY,NA,7.638888888888889,NA
13808,Otsego County,NY,NA,NA,94.60431654676259
13815,Chenango County,NY,NA,11.89236111111111,NA
13820,Otsego County,NY,NA,31.59722222222222,NA
13905,Broome County,NY,NA,9.722222222222223,NA
14048,Chautauqua County,NY,NA,33.24652777777778,NA
14063,Chautauqua County,NY,NA,69.18402777777779,NA
14150,Erie County,NY,NA,5.034722222222222,NA
14211,Erie County,NY,NA,7.291666666666667,NA
14216,Erie County,NY,NA,NA,35.97122302158273
14219,Erie County,NY,NA,46.61458333333333,NA
14221,Erie County,NY,NA,9.375,73.02158273381295
14224,Erie County,NY,NA,64.32291666666666,NA
14425,Ontario County,NY,NA,14.583333333333334,NA
14519,Wayne County,NY,NA,NA,57.55395683453237
14526,Monroe County,NY,NA,12.5,NA
14551,Wayne County,NY,NA,75,NA
14568,Wayne County,NY,NA,NA,74.10071942446042
14580,Monroe County,NY,6.111111111111111,0.6944444444444444,NA
14606,Monroe County,NY,7.222222222222221,2.604166666666667,NA
14609,Monroe County,NY,17.77777777777778,NA,NA
14610,Monroe County,NY,NA,NA,22.302158273381295
14620,Monroe County,NY,NA,5.208333333333334,NA
14621,Monroe County,NY,2.7777777777777777,NA,NA
14701,Chautauqua County,NY,NA,30.208333333333332,NA
14710,Chautauqua County,NY,NA,NA,98.92086330935251
14739,Allegany County,NY,NA,NA,93.5251798561151
14760,Cattaraugus County,NY,NA,31.944444444444443,NA
14810,Steuben County,NY,NA,60.85069444444444,NA
14845,Chemung County,NY,NA,13.368055555555555,NA
14850,Tompkins County,NY,NA,NA,4.676258992805756
14882,Tompkins County,NY,NA,82.63888888888889,NA
14892,Tioga County,NY,NA,46.18055555555556,NA
14904,Chemung County,NY,NA,NA,38.1294964028777
27006,Davie County,NC,NA,57.37847222222222,NA
27013,Rowan County,NC,72.22222222222221,NA,NA
27053,Stokes County,NC,NA,NA,79.13669064748201
27103,Forsyth County,NC,68.33333333333333,NA,NA
27106,Forsyth County,NC,NA,10.76388888888889,2.5179856115107913
27253,Alamance County,NC,NA,13.628472222222221,NA
27284,Forsyth County,NC,29.444444444444446,5.902777777777778,NA
27312,Chatham County,NC,88.33333333333333,NA,17.985611510791365
27360,Davidson County,NC,NA,NA,25.179856115107913
27502,Wake County,NC,NA,56.857638888888886,NA
27527,Johnston County,NC,NA,86.80555555555556,NA
27529,Wake County,NC,NA,71.26736111111111,NA
27536,Vance County,NC,NA,NA,27.697841726618705
27596,Franklin County,NC,NA,60.329861111111114,NA
27597,Wake County,NC,NA,45.92013888888889,NA
27604,Wake County,NC,NA,29.51388888888889,NA
27606,Wake County,NC,NA,84.72222222222221,NA
27617,Wake County,NC,NA,83.07291666666666,NA
27701,Durham County,NC,NA,NA,79.85611510791367
27704,Durham County,NC,21.666666666666668,9.20138888888889,NA
27707,Durham County,NC,50.55555555555556,NA,73.38129496402878
27804,Nash County,NC,NA,78.81944444444444,NA
27932,Chowan County,NC,NA,NA,41.36690647482014
28016,Gaston County,NC,NA,41.75347222222222,NA
28027,Cabarrus County,NC,NA,15.972222222222221,NA
28056,Gaston County,NC,NA,42.01388888888889,NA
28078,Mecklenburg County,NC,NA,27.95138888888889,NA
28081,Cabarrus County,NC,NA,18.40277777777778,NA
28146,Rowan County,NC,NA,29.166666666666668,NA
28147,Rowan County,NC,NA,61.37152777777778,NA
28168,Lincoln County,NC,87.77777777777777,NA,NA
28208,Mecklenburg County,NC,8.88888888888889,NA,NA
28262,Mecklenburg County,NC,NA,31.85763888888889,NA
28269,Mecklenburg County,NC,NA,11.458333333333332,NA
28304,Cumberland County,NC,NA,76.21527777777779,NA
28333,Wayne County,NC,NA,95.57291666666666,NA
28334,Sampson County,NC,33.33333333333333,NA,NA
28401,New Hanover County,NC,NA,33.15972222222222,NA
28403,New Hanover County,NC,NA,36.02430555555556,NA
28405,New Hanover County,NC,NA,30.81597222222222,NA
28540,Onslow County,NC,NA,55.38194444444444,NA
28607,Watauga County,NC,NA,76.38888888888889,NA
28681,Alexander County,NC,NA,48.35069444444444,NA
28730,Buncombe County,NC,NA,94.87847222222221,NA
28759,Henderson County,NC,NA,96.44097222222221,NA
58701,Ward County,ND,NA,8.506944444444445,NA
43015,Delaware County,OH,NA,12.32638888888889,NA
43068,Franklin County,OH,NA,31.770833333333332,11.151079136690647
43081,Franklin County,OH,NA,51.21527777777778,NA
43110,Franklin County,OH,NA,20.052083333333336,NA
43130,Fairfield County,OH,1.1111111111111112,NA,NA
43147,Fairfield County,OH,NA,NA,23.381294964028775
43207,Franklin County,OH,NA,1.3020833333333335,6.83453237410072
43212,Franklin County,OH,93.88888888888889,NA,NA
43213,Franklin County,OH,0,NA,NA
43228,Franklin County,OH,NA,3.038194444444444,NA
43302,Marion County,OH,NA,1.8229166666666667,NA
43316,Wyandot County,OH,95.55555555555556,NA,NA
43406,Wood County,OH,NA,98.26388888888889,NA
43537,Lucas County,OH,NA,24.739583333333336,NA
43566,Lucas County,OH,NA,88.45486111111111,NA
43701,Muskingum County,OH,NA,13.88888888888889,NA
43773,Guernsey County,OH,NA,98.09027777777779,NA
43832,Tuscarawas County,OH,NA,89.40972222222221,NA
43920,Columbiana County,OH,NA,7.552083333333333,NA
43935,Belmont County,OH,NA,74.47916666666666,NA
43938,Jefferson County,OH,NA,46.70138888888889,NA
44004,Ashtabula County,OH,NA,NA,18.705035971223023
44012,Lorain County,OH,NA,30.555555555555557,NA
44030,Ashtabula County,OH,NA,18.92361111111111,NA
44039,Lorain County,OH,NA,NA,2.158273381294964
44052,Lorain County,OH,NA,2.430555555555556,NA
44053,Lorain County,OH,NA,27.34375,NA
44074,Lorain County,OH,NA,NA,71.94244604316546
44102,Cuyahoga County,OH,NA,33.07291666666667,NA
44105,Cuyahoga County,OH,NA,12.847222222222221,NA
44107,Cuyahoga County,OH,NA,10.677083333333332,NA
44109,Cuyahoga County,OH,NA,81.42361111111111,NA
44112,Cuyahoga County,OH,NA,NA,57.194244604316545
44115,Cuyahoga County,OH,NA,58.420138888888886,NA
44118,Cuyahoga County,OH,NA,93.05555555555556,NA
44119,Cuyahoga County,OH,NA,83.85416666666666,NA
44124,Cuyahoga County,OH,NA,NA,19.06474820143885
44126,Cuyahoga County,OH,NA,NA,38.489208633093526
44131,Cuyahoga County,OH,NA,38.71527777777778,NA
44133,Cuyahoga County,OH,NA,22.82986111111111,NA
44134,Cuyahoga County,OH,28.888888888888886,47.39583333333333,NA
44138,Cuyahoga County,OH,NA,61.63194444444444,NA
44142,Cuyahoga County,OH,98.33333333333333,NA,NA
44143,Cuyahoga County,OH,NA,62.673611111111114,NA
44145,Cuyahoga County,OH,NA,14.67013888888889,NA
44146,Cuyahoga County,OH,NA,5.642361111111112,NA
44212,Medina County,OH,NA,2.951388888888889,NA
44260,Portage County,OH,NA,64.75694444444444,NA
44306,Summit County,OH,NA,31.42361111111111,NA
44320,Summit County,OH,NA,43.92361111111111,NA
44445,Columbiana County,OH,86.66666666666667,NA,NA
44446,Trumbull County,OH,NA,11.54513888888889,NA
44484,Trumbull County,OH,49.44444444444444,24.21875,NA
44663,Tuscarawas County,OH,NA,10.503472222222223,NA
44667,Wayne County,OH,NA,59.895833333333336,NA
44706,Stark County,OH,NA,NA,85.97122302158273
44709,Stark County,OH,NA,36.54513888888889,NA
44820,Crawford County,OH,NA,18.489583333333336,NA
44890,Huron County,OH,NA,36.71875,NA
45036,Warren County,OH,9.444444444444445,17.447916666666664,NA
45067,Butler County,OH,NA,53.298611111111114,NA
45122,Clermont County,OH,NA,NA,76.61870503597122
45133,Highland County,OH,12.222222222222221,17.708333333333336,NA
45140,Clermont County,OH,NA,NA,47.122302158273385
45176,Clermont County,OH,NA,61.80555555555556,NA
45212,Hamilton County,OH,NA,25.694444444444443,NA
45225,Hamilton County,OH,NA,63.454861111111114,NA
45238,Hamilton County,OH,3.888888888888889,NA,NA
45239,Hamilton County,OH,NA,13.975694444444445,NA
45246,Hamilton County,OH,88.33333333333333,NA,NA
45249,Hamilton County,OH,NA,89.23611111111111,NA
45315,Montgomery County,OH,NA,NA,92.44604316546763
45344,Clark County,OH,NA,53.90625,NA
45365,Shelby County,OH,NA,36.80555555555556,NA
45405,Montgomery County,OH,NA,NA,42.086330935251794
45409,Montgomery County,OH,NA,88.88888888888889,NA
45415,Montgomery County,OH,NA,74.21875,NA
45458,Montgomery County,OH,NA,34.46180555555556,NA
45503,Clark County,OH,NA,NA,13.309352517985612
45601,Ross County,OH,NA,12.413194444444445,NA
45631,Gallia County,OH,NA,8.680555555555555,NA
45750,Washington County,OH,NA,1.3888888888888888,NA
45801,Allen County,OH,NA,9.288194444444445,NA
45807,Allen County,OH,NA,57.204861111111114,NA
45840,Hancock County,OH,NA,2.517361111111111,NA
45856,Putnam County,OH,NA,97.74305555555556,NA
45891,Van Wert County,OH,67.22222222222223,NA,NA
73055,Stephens County,OK,NA,93.40277777777779,NA
73064,Canadian County,OK,58.333333333333336,NA,NA
73080,McClain County,OK,NA,NA,70.50359712230215
73099,Canadian County,OK,NA,NA,5.755395683453238
73165,Cleveland County,OK,NA,80.12152777777779,NA
73505,Comanche County,OK,NA,19.010416666666664,NA
74036,Rogers County,OK,NA,71.09375,NA
74337,Mayes County,OK,NA,95.83333333333334,NA
74354,Ottawa County,OK,NA,77.86458333333334,NA
74429,Wagoner County,OK,NA,90.45138888888889,NA
74701,Bryan County,OK,NA,83.07291666666666,NA
74728,McCurtain County,OK,41.66666666666667,NA,NA
74804,Pottawatomie County,OK,NA,NA,82.01438848920863
97006,Washington County,OR,NA,26.38888888888889,NA
97013,Clackamas County,OR,NA,55.46875,NA
97024,Multnomah County,OR,NA,NA,84.53237410071942
97045,Clackamas County,OR,NA,12.239583333333332,NA
97051,Columbia County,OR,NA,90.36458333333334,85.25179856115108
97058,Wasco County,OR,NA,NA,26.978417266187048
97062,Washington County,OR,NA,NA,56.4748201438849
97078,Washington County,OR,NA,96.26736111111111,NA
97080,Multnomah County,OR,NA,21.354166666666664,NA
97124,Washington County,OR,NA,23.00347222222222,NA
97132,Yamhill County,OR,NA,35.24305555555556,NA
97141,Tillamook County,OR,NA,59.114583333333336,NA
97225,Washington County,OR,NA,87.93402777777779,NA
97230,Multnomah County,OR,NA,19.444444444444446,NA
97239,Multnomah County,OR,NA,NA,95.32374100719424
97266,Multnomah County,OR,NA,60.763888888888886,NA
97267,Clackamas County,OR,NA,32.29166666666667,NA
97305,Marion County,OR,NA,NA,47.482014388489205
97386,Linn County,OR,NA,44.44444444444444,NA
97405,Lane County,OR,NA,69.79166666666666,NA
97501,Jackson County,OR,NA,29.6875,NA
97524,Jackson County,OR,NA,73.4375,NA
97526,Josephine County,OR,NA,21.52777777777778,NA
97913,Malheur County,OR,NA,91.14583333333334,NA
97914,Malheur County,OR,NA,52.170138888888886,NA
15001,Beaver County,PA,NA,48.69791666666667,NA
15102,Allegheny County,PA,NA,NA,58.992805755395686
15112,Allegheny County,PA,NA,96.35416666666666,NA
15122,Allegheny County,PA,NA,76.12847222222221,NA
15126,Allegheny County,PA,NA,90.01736111111111,NA
15205,Allegheny County,PA,NA,42.96875,NA
15216,Allegheny County,PA,27.22222222222222,NA,NA
15301,Washington County,PA,7.777777777777778,5.381944444444445,NA
15332,Washington County,PA,NA,82.20486111111111,NA
15401,Fayette County,PA,NA,60.59027777777778,NA
15425,Fayette County,PA,NA,26.90972222222222,NA
15478,Fayette County,PA,NA,66.49305555555556,NA
15501,Somerset County,PA,NA,51.5625,NA
15537,Bedford County,PA,NA,92.01388888888889,NA
15601,Westmoreland County,PA,NA,34.63541666666667,NA
15644,Westmoreland County,PA,NA,NA,29.496402877697843
15666,Westmoreland County,PA,NA,90.88541666666666,NA
15904,Cambria County,PA,NA,56.16319444444444,NA
16001,Butler County,PA,NA,3.125,1.7985611510791366
16117,Lawrence County,PA,NA,NA,43.884892086330936
16201,Armstrong County,PA,NA,27.864583333333332,NA
16301,Venango County,PA,NA,44.18402777777778,69.7841726618705
75072,NA,NA,NA,NA,94.96402877697841
16335,Crawford County,PA,NA,33.59375,NA
16505,Erie County,PA,NA,66.66666666666666,NA
16602,Blair County,PA,NA,NA,13.66906474820144
16801,Centre County,PA,NA,35.41666666666667,NA
16841,Centre County,PA,NA,87.76041666666666,NA
16866,Centre County,PA,NA,NA,64.38848920863309
16870,Centre County,PA,NA,86.28472222222221,NA
17011,Cumberland County,PA,NA,22.22222222222222,NA
17013,Cumberland County,PA,NA,48.87152777777778,NA
17042,Lebanon County,PA,NA,3.8194444444444446,NA
17044,Mifflin County,PA,NA,10.243055555555555,NA
17050,Cumberland County,PA,NA,51.388888888888886,NA
17061,Dauphin County,PA,NA,83.24652777777779,NA
17066,Huntingdon County,PA,NA,69.01041666666666,NA
17078,Lebanon County,PA,NA,44.27083333333333,NA
17103,Dauphin County,PA,11.11111111111111,NA,NA
17104,Dauphin County,PA,NA,15.277777777777779,NA
17111,Dauphin County,PA,NA,91.49305555555556,NA
17112,Dauphin County,PA,NA,14.23611111111111,NA
17325,Adams County,PA,NA,53.03819444444444,NA
17340,Adams County,PA,NA,NA,46.402877697841724
17347,York County,PA,NA,86.71875,NA
17350,Adams County,PA,NA,54.6875,NA
17408,York County,PA,NA,38.02083333333333,NA
17522,Lancaster County,PA,NA,21.875,NA
17538,Lancaster County,PA,NA,NA,80.93525179856115
17543,Lancaster County,PA,14.444444444444443,NA,NA
17545,Lancaster County,PA,NA,39.93055555555556,NA
17547,Lancaster County,PA,NA,93.14236111111111,NA
17578,Lancaster County,PA,NA,85.41666666666666,NA
17584,Lancaster County,PA,NA,NA,68.34532374100719
17601,Lancaster County,PA,NA,30.64236111111111,NA
17603,Lancaster County,PA,NA,7.899305555555555,NA
17837,Union County,PA,NA,NA,67.62589928057554
17961,Schuylkill County,PA,NA,93.48958333333334,NA
18015,Northampton County,PA,39.44444444444444,NA,NA
18036,Lehigh County,PA,NA,63.888888888888886,NA
18037,Lehigh County,PA,NA,96.09375,NA
18042,Northampton County,PA,NA,4.6875,NA
18103,Lehigh County,PA,NA,NA,60.79136690647482
18301,Monroe County,PA,NA,92.27430555555556,NA
18360,Monroe County,PA,NA,23.78472222222222,NA
18403,Lackawanna County,PA,NA,93.66319444444444,NA
18428,Pike County,PA,NA,71.70138888888889,NA
18452,Lackawanna County,PA,NA,94.01041666666666,NA
18705,Luzerne County,PA,NA,77.95138888888889,NA
18707,Luzerne County,PA,NA,53.55902777777778,NA
18951,Bucks County,PA,10.555555555555555,NA,NA
18974,Bucks County,PA,NA,50.607638888888886,NA
19002,Montgomery County,PA,NA,33.42013888888889,NA
19003,Montgomery County,PA,NA,63.28125,NA
19008,Delaware County,PA,NA,96.52777777777779,NA
19012,Montgomery County,PA,NA,94.70486111111111,NA
19018,Delaware County,PA,NA,NA,33.45323741007194
19020,Bucks County,PA,NA,28.55902777777778,NA
19023,Delaware County,PA,NA,25.43402777777778,NA
19040,Montgomery County,PA,NA,85.24305555555556,NA
19047,Bucks County,PA,NA,53.55902777777778,NA
19067,Bucks County,PA,NA,NA,8.273381294964029
19076,Delaware County,PA,NA,95.39930555555556,NA
19082,Delaware County,PA,34.44444444444444,8.854166666666668,NA
19085,Delaware County,PA,NA,94.53125,NA
19095,Montgomery County,PA,NA,NA,88.84892086330936
19111,Philadelphia County,PA,NA,72.22222222222221,NA
19123,Philadelphia County,PA,NA,51.041666666666664,NA
19128,Philadelphia County,PA,NA,46.09375,NA
19131,Philadelphia County,PA,NA,41.84027777777778,NA
19138,Philadelphia County,PA,NA,10.416666666666668,NA
19141,Philadelphia County,PA,56.111111111111114,NA,NA
19145,Philadelphia County,PA,NA,NA,12.23021582733813
19151,Philadelphia County,PA,NA,86.19791666666666,NA
19312,Chester County,PA,NA,61.02430555555556,NA
19352,Chester County,PA,NA,94.35763888888889,NA
19355,Chester County,PA,NA,68.83680555555556,NA
19382,Chester County,PA,NA,72.48263888888889,NA
19468,Montgomery County,PA,NA,36.54513888888889,NA
19507,Berks County,PA,NA,98.52430555555556,NA
19541,Berks County,PA,NA,NA,97.48201438848922
19601,Berks County,PA,NA,2.864583333333333,NA
19606,Berks County,PA,NA,8.940972222222223,NA
19607,Berks County,PA,NA,23.697916666666664,NA
19608,Berks County,PA,NA,25.086805555555557,NA
02864,Providence County,RI,NA,22.135416666666664,NA
02895,Providence County,RI,75.55555555555556,NA,NA
02907,Providence County,RI,NA,87.58680555555556,NA
02908,Providence County,RI,NA,82.8125,NA
02909,Providence County,RI,NA,65.19097222222221,NA
29003,Bamberg County,SC,NA,NA,96.0431654676259
29063,Richland County,SC,NA,80.46875,NA
29102,Clarendon County,SC,NA,NA,51.07913669064749
29115,Orangeburg County,SC,NA,NA,28.41726618705036
29223,Richland County,SC,NA,20.225694444444446,NA
29374,Spartanburg County,SC,NA,99.65277777777779,NA
29403,Charleston County,SC,NA,40.01736111111111,NA
29412,Charleston County,SC,NA,30.03472222222222,NA
29466,Charleston County,SC,NA,75.08680555555556,NA
29486,Berkeley County,SC,NA,54.513888888888886,NA
29505,Florence County,SC,NA,44.35763888888889,NA
29550,Darlington County,SC,NA,37.76041666666667,NA
29571,Marion County,SC,NA,63.71527777777778,NA
29607,Greenville County,SC,15,NA,NA
29624,Anderson County,SC,NA,86.54513888888889,NA
29625,Anderson County,SC,NA,28.73263888888889,NA
29626,Anderson County,SC,NA,88.54166666666666,NA
29650,Greenville County,SC,NA,34.11458333333333,NA
29671,Pickens County,SC,NA,44.79166666666667,NA
29681,Greenville County,SC,NA,22.743055555555554,NA
29697,Anderson County,SC,68.88888888888889,NA,NA
29803,Aiken County,SC,NA,NA,35.61151079136691
57108,Lincoln County,SD,NA,95.65972222222221,NA
57110,Minnehaha County,SD,NA,49.13194444444444,NA
57201,Codington County,SD,70.55555555555556,NA,NA
57401,Brown County,SD,NA,15.01736111111111,NA
37013,Davidson County,TN,NA,NA,48.201438848920866
37040,Montgomery County,TN,NA,80.64236111111111,NA
37064,Williamson County,TN,NA,42.70833333333333,NA
37075,Sumner County,TN,NA,13.45486111111111,NA
37090,Wilson County,TN,NA,NA,73.7410071942446
37146,Cheatham County,TN,NA,91.05902777777779,NA
37172,Robertson County,TN,NA,42.36111111111111,NA
37331,McMinn County,TN,NA,73.61111111111111,NA
37334,Lincoln County,TN,NA,32.8125,NA
37343,Hamilton County,TN,NA,19.35763888888889,NA
37354,Monroe County,TN,NA,65.53819444444444,NA
37367,Bledsoe County,TN,3.3333333333333335,NA,NA
37620,Sullivan County,TN,NA,10.32986111111111,NA
37659,Washington County,TN,32.22222222222222,NA,NA
37771,Loudon County,TN,NA,50.173611111111114,NA
37922,Knox County,TN,40,NA,NA
37931,Knox County,TN,20,NA,NA
38004,Tipton County,TN,NA,87.23958333333334,NA
38201,Carroll County,TN,NA,75.43402777777779,NA
38310,McNairy County,TN,NA,79.60069444444444,NA
38506,Putnam County,TN,NA,69.79166666666666,NA
38570,Overton County,TN,62.77777777777778,NA,NA
75035,Collin County,TX,NA,34.46180555555556,NA
75043,Dallas County,TX,NA,16.84027777777778,NA
75052,Dallas County,TX,11.666666666666666,NA,NA
75068,Denton County,TX,NA,27.69097222222222,NA
75090,Grayson County,TX,21.11111111111111,NA,NA
75150,Dallas County,TX,NA,19.618055555555554,NA
75160,Kaufman County,TX,NA,59.375,49.280575539568346
75167,Ellis County,TX,NA,NA,89.20863309352518
75181,Dallas County,TX,NA,49.39236111111111,NA
75252,Collin County,TX,NA,62.15277777777778,NA
75482,Hopkins County,TX,NA,89.32291666666666,NA
75494,Wood County,TX,81.66666666666667,NA,NA
75670,Harrison County,TX,35,NA,NA
75703,Smith County,TX,NA,28.385416666666668,NA
75706,Smith County,TX,NA,56.68402777777778,NA
75791,Smith County,TX,NA,91.14583333333334,NA
76020,Tarrant County,TX,NA,25.520833333333332,NA
76119,Tarrant County,TX,NA,59.28819444444444,NA
76126,Tarrant County,TX,41.11111111111111,NA,NA
76137,Tarrant County,TX,NA,17.62152777777778,NA
76248,Tarrant County,TX,NA,59.72222222222222,NA
76549,Bell County,TX,NA,51.99652777777778,NA
76705,McLennan County,TX,NA,14.409722222222221,NA
77003,Harris County,TX,NA,80.29513888888889,NA
77022,Harris County,TX,NA,NA,48.92086330935252
77023,Harris County,TX,NA,56.076388888888886,NA
77024,Harris County,TX,NA,NA,36.330935251798564
77025,Harris County,TX,NA,64.14930555555556,NA
77057,Harris County,TX,NA,85.76388888888889,NA
77066,Harris County,TX,84.44444444444444,NA,NA
77078,Harris County,TX,NA,73.00347222222221,NA
77083,Harris County,TX,NA,37.41319444444444,NA
77095,Harris County,TX,NA,88.36805555555556,NA
77096,Harris County,TX,NA,55.55555555555556,NA
77338,Harris County,TX,NA,41.57986111111111,NA
77339,Harris County,TX,NA,52.69097222222222,NA
77356,Montgomery County,TX,NA,62.58680555555556,NA
77380,Montgomery County,TX,NA,68.48958333333334,NA
77396,Harris County,TX,NA,33.33333333333333,NA
77406,Fort Bend County,TX,NA,72.13541666666666,NA
77429,Harris County,TX,NA,36.19791666666667,NA
77469,Fort Bend County,TX,NA,74.73958333333334,NA
77479,Fort Bend County,TX,NA,26.12847222222222,NA
77504,Harris County,TX,NA,62.15277777777778,NA
77539,Galveston County,TX,NA,17.1875,NA
77550,Galveston County,TX,NA,47.04861111111111,NA
77573,Galveston County,TX,NA,31.336805555555557,NA
77584,Brazoria County,TX,35.55555555555556,NA,NA
77612,Jasper County,TX,NA,84.89583333333334,NA
77845,Brazos County,TX,NA,32.20486111111111,NA
78043,Webb County,TX,NA,69.96527777777779,NA
78046,Webb County,TX,NA,12.760416666666666,NA
78154,Guadalupe County,TX,NA,70.74652777777779,NA
78245,Bexar County,TX,NA,20.65972222222222,NA
78336,San Patricio County,TX,63.33333333333333,NA,NA
78552,Cameron County,TX,NA,65.36458333333334,NA
78599,Hidalgo County,TX,85,NA,NA
78639,Llano County,TX,NA,NA,40.647482014388494
78852,Maverick County,TX,NA,79.25347222222221,NA
79107,Potter County,TX,NA,30.29513888888889,NA
79360,Gaines County,TX,NA,77.34375,NA
79407,Lubbock County,TX,NA,43.83680555555556,NA
79765,Ector County,TX,NA,66.40625,NA
79772,Reeves County,TX,48.888888888888886,NA,NA
79901,El Paso County,TX,100,NA,NA
79934,El Paso County,TX,NA,92.10069444444444,NA
79938,El Paso County,TX,NA,28.211805555555557,NA
84005,Utah County,UT,NA,76.64930555555556,NA
84014,Davis County,UT,NA,87.93402777777779,NA
84025,Davis County,UT,NA,72.65625,NA
84041,Davis County,UT,NA,65.45138888888889,NA
84066,Duchesne County,UT,NA,82.11805555555556,NA
84074,Tooele County,UT,NA,3.3854166666666665,NA
84078,Uintah County,UT,NA,13.715277777777779,NA
84081,Salt Lake County,UT,NA,27.17013888888889,NA
84095,Salt Lake County,UT,17.22222222222222,NA,NA
84106,Salt Lake County,UT,NA,30.989583333333332,NA
84109,Salt Lake County,UT,NA,84.375,NA
84119,Salt Lake County,UT,NA,37.58680555555556,NA
84120,Salt Lake County,UT,NA,6.944444444444445,NA
84335,Cache County,UT,NA,96.61458333333334,NA
84404,Weber County,UT,NA,17.79513888888889,NA
84601,Utah County,UT,NA,NA,90.64748201438849
84653,Utah County,UT,NA,97.04861111111111,NA
84721,Iron County,UT,NA,62.06597222222222,NA
05403,Chittenden County,VT,98.88888888888889,NA,NA
05488,Franklin County,VT,54.44444444444444,NA,NA
05743,Rutland County,VT,NA,98.61111111111111,NA
20109,Prince William County,VA,5,NA,NA
20171,Fairfax County,VA,NA,46.26736111111111,NA
22102,Fairfax County,VA,NA,72.48263888888889,NA
22191,Prince William County,VA,NA,14.23611111111111,NA
22207,Arlington County,VA,NA,NA,39.92805755395683
22306,Fairfax County,VA,NA,25.34722222222222,NA
22311,Alexandria city,VA,73.33333333333333,NA,NA
22314,Alexandria city,VA,NA,26.73611111111111,NA
22405,Stafford County,VA,NA,53.81944444444444,NA
22630,Warren County,VA,NA,54.861111111111114,NA
22801,Harrisonburg city,VA,NA,38.71527777777778,NA
23111,Hanover County,VA,NA,45.3125,NA
23168,James City County,VA,97.77777777777777,NA,NA
23221,Richmond city,VA,NA,97.30902777777779,NA
23225,Richmond city,VA,13.88888888888889,NA,NA
23231,Henrico County,VA,NA,19.96527777777778,NA
23321,Chesapeake city,VA,NA,43.66319444444444,NA
23417,Accomack County,VA,NA,NA,84.89208633093526
23434,Suffolk city,VA,NA,13.020833333333334,NA
23453,Virginia Beach city,VA,82.77777777777777,NA,NA
23455,Virginia Beach city,VA,NA,70.83333333333334,NA
23456,Virginia Beach city,VA,NA,NA,66.90647482014388
23464,Virginia Beach city,VA,4.444444444444445,13.541666666666666,NA
23504,Norfolk city,VA,NA,22.569444444444446,NA
23518,Norfolk city,VA,NA,38.54166666666667,NA
23608,Newport News city,VA,NA,NA,31.294964028776977
23704,Portsmouth city,VA,NA,24.479166666666664,NA
23834,Colonial Heights city,VA,NA,NA,57.9136690647482
23851,Franklin city,VA,NA,NA,75.89928057553958
24088,Franklin County,VA,NA,NA,97.84172661870504
24112,Henry County,VA,NA,14.0625,NA
24175,Botetourt County,VA,NA,96.00694444444444,NA
24333,Galax city,VA,NA,43.57638888888889,NA
24486,Augusta County,VA,NA,94.61805555555556,NA
24502,Lynchburg city,VA,NA,NA,43.52517985611511
24605,Tazewell County,VA,NA,61.80555555555556,NA
24609,Tazewell County,VA,NA,81.85763888888889,NA
98001,King County,WA,NA,38.36805555555556,NA
98002,King County,WA,NA,89.49652777777779,NA
98003,King County,WA,NA,24.56597222222222,NA
98022,King County,WA,NA,NA,19.424460431654676
98029,King County,WA,NA,57.46527777777778,NA
98036,Snohomish County,WA,NA,43.48958333333333,NA
98058,King County,WA,NA,28.125,NA
98092,King County,WA,NA,71.35416666666666,NA
98107,King County,WA,NA,65.625,NA
98115,King County,WA,NA,NA,21.942446043165468
98117,King County,WA,NA,NA,50
98119,King County,WA,NA,NA,71.58273381294964
98125,King County,WA,NA,68.05555555555556,NA
98232,Skagit County,WA,NA,98.17708333333334,NA
98274,Skagit County,WA,NA,58.94097222222222,NA
98296,Snohomish County,WA,NA,NA,61.87050359712231
98328,Pierce County,WA,NA,NA,77.33812949640287
98335,Pierce County,WA,NA,56.25,NA
98363,Clallam County,WA,NA,65.10416666666666,NA
98373,Pierce County,WA,NA,64.67013888888889,NA
98374,Pierce County,WA,NA,NA,37.410071942446045
98391,Pierce County,WA,NA,40.625,NA
98407,Pierce County,WA,NA,92.62152777777779,NA
98408,Pierce County,WA,NA,96.875,NA
98409,Pierce County,WA,NA,51.64930555555556,NA
98520,Grays Harbor County,WA,NA,57.638888888888886,NA
98607,Clark County,WA,NA,90.53819444444444,NA
98661,Clark County,WA,NA,NA,34.172661870503596
98683,Clark County,WA,NA,82.37847222222221,NA
98801,Chelan County,WA,NA,21.006944444444446,NA
98826,Chelan County,WA,NA,93.31597222222221,NA
99027,Spokane County,WA,76.66666666666667,NA,NA
99037,Spokane County,WA,NA,91.92708333333334,NA
99109,Stevens County,WA,NA,97.22222222222221,NA
99203,Spokane County,WA,NA,81.16319444444444,NA
99223,Spokane County,WA,NA,64.14930555555556,NA
99301,Franklin County,WA,NA,51.736111111111114,NA
20001,District of Columbia,DC,NA,49.56597222222222,NA
20002,District of Columbia,DC,NA,4.600694444444445,NA
20009,District of Columbia,DC,NA,27.430555555555557,NA
20024,District of Columbia,DC,NA,54.34027777777778,NA
25309,Kanawha County,WV,66.11111111111111,63.36805555555556,NA
25403,Berkeley County,WV,NA,69.53125,NA
25428,Berkeley County,WV,NA,NA,83.45323741007195
25526,Putnam County,WV,NA,34.11458333333333,NA
25801,Raleigh County,WV,NA,10.9375,NA
26101,Wood County,WV,8.333333333333332,3.9930555555555554,NA
26505,Monongalia County,WV,NA,7.986111111111111,NA
26537,Preston County,WV,NA,52.25694444444444,NA
26554,Marion County,WV,NA,NA,69.42446043165468
26847,Grant County,WV,88.33333333333333,NA,NA
53022,Washington County,WI,NA,61.458333333333336,NA
53027,Washington County,WI,NA,63.62847222222222,NA
53072,Waukesha County,WI,NA,88.80208333333334,NA
53121,Walworth County,WI,NA,NA,26.258992805755394
53126,Racine County,WI,NA,77.60416666666666,NA
53149,Waukesha County,WI,NA,67.36111111111111,NA
53151,Waukesha County,WI,NA,NA,51.798561151079134
53182,Racine County,WI,NA,90.97222222222221,NA
53202,Milwaukee County,WI,NA,NA,95.68345323741008
53215,Milwaukee County,WI,2.2222222222222223,3.6458333333333335,NA
53216,Milwaukee County,WI,NA,5.46875,NA
53226,Milwaukee County,WI,NA,64.58333333333334,NA
53402,Racine County,WI,NA,41.66666666666667,NA
53545,Rock County,WI,NA,31.25,NA
53548,Rock County,WI,NA,21.788194444444446,NA
53551,Jefferson County,WI,NA,NA,99.28057553956835
53563,Rock County,WI,NA,95.13888888888889,NA
53716,Dane County,WI,NA,70.83333333333334,NA
54016,St. Croix County,WI,NA,NA,44.60431654676259
54020,Polk County,WI,NA,73.26388888888889,NA
54024,Polk County,WI,NA,96.78819444444444,NA
54140,Outagamie County,WI,85.55555555555556,NA,NA
54143,Marinette County,WI,NA,74.73958333333334,NA
54313,Brown County,WI,NA,56.423611111111114,NA
54403,Marathon County,WI,NA,40.53819444444444,NA
54501,Oneida County,WI,NA,45.92013888888889,NA
54601,La Crosse County,WI,NA,45.57291666666667,NA
54615,Jackson County,WI,NA,NA,86.6906474820144
54729,Chippewa County,WI,NA,29.166666666666668,NA
54868,Barron County,WI,NA,NA,43.16546762589928
54880,Douglas County,WI,6.666666666666667,NA,NA
54952,Winnebago County,WI,91.11111111111111,74.56597222222221,NA
54956,Winnebago County,WI,NA,73.17708333333334,NA
54961,Waupaca County,WI,NA,53.55902777777778,NA
