ZipCode,county,state,Youth,Adult,Retirement,Geriatric
35004,St. Clair County,AL,NA,85.84070796460178,NA,NA
35055,Cullman County,AL,63.670411985018724,NA,NA,NA
35115,Shelby County,AL,67.04119850187266,NA,NA,NA
35125,St. Clair County,AL,78.65168539325843,NA,NA,NA
35133,Blount County,AL,NA,NA,97.04545454545455,NA
35204,Jefferson County,AL,NA,73.89380530973452,NA,NA
35206,Jefferson County,AL,NA,NA,NA,63.68000000000001
35215,Jefferson County,AL,NA,NA,42.95454545454545,NA
35228,Jefferson County,AL,NA,67.03539823008849,NA,NA
35404,Tuscaloosa County,AL,NA,NA,36.81818181818181,NA
35473,Tuscaloosa County,AL,NA,92.69911504424779,NA,NA
35570,Marion County,AL,92.13483146067416,NA,NA,NA
35601,Morgan County,AL,NA,NA,18.409090909090907,NA
35614,Limestone County,AL,NA,NA,84.54545454545455,NA
35630,Lauderdale County,AL,62.546816479400746,NA,40.45454545454545,NA
35633,Lauderdale County,AL,62.172284644194754,NA,NA,NA
35660,Colbert County,AL,NA,73.67256637168141,NA,NA
35805,Madison County,AL,NA,NA,71.36363636363636,NA
35904,Etowah County,AL,NA,NA,NA,72.48
35906,Etowah County,AL,91.76029962546816,NA,NA,NA
35950,Marshall County,AL,72.65917602996255,NA,NA,NA
36010,Pike County,AL,NA,NA,NA,99.36
36022,Elmore County,AL,NA,NA,NA,96.8
36104,Montgomery County,AL,NA,63.495575221238944,NA,NA
36117,Montgomery County,AL,NA,NA,NA,22.08
36265,Calhoun County,AL,50.936329588014985,NA,NA,NA
36274,Randolph County,AL,NA,NA,87.5,NA
36507,Baldwin County,AL,NA,47.123893805309734,NA,NA
36549,Baldwin County,AL,NA,NA,NA,83.2
36567,Baldwin County,AL,NA,NA,NA,64.8
36608,Mobile County,AL,NA,NA,NA,60.480000000000004
99502,Anchorage Municipality,AK,90.2621722846442,NA,80.9090909090909,NA
99515,Anchorage Municipality,AK,NA,NA,79.0909090909091,NA
99709,Fairbanks North Star Borough,AK,NA,69.02654867256636,NA,NA
85029,Maricopa County,AZ,NA,NA,NA,51.35999999999999
85041,Maricopa County,AZ,NA,12.610619469026549,NA,NA
85128,Pinal County,AZ,NA,NA,63.86363636363637,NA
85140,Pinal County,AZ,NA,41.5929203539823,NA,NA
85203,Maricopa County,AZ,29.588014981273407,NA,NA,NA
85204,Maricopa County,AZ,NA,NA,NA,47.36
85205,Maricopa County,AZ,NA,NA,29.318181818181817,NA
85208,Maricopa County,AZ,NA,NA,NA,26.72
85248,Maricopa County,AZ,NA,65.7079646017699,NA,NA
85268,Maricopa County,AZ,NA,NA,NA,71.2
85286,Maricopa County,AZ,NA,NA,NA,92.80000000000001
85297,Maricopa County,AZ,NA,67.69911504424779,NA,NA
85339,Maricopa County,AZ,NA,28.761061946902654,NA,NA
85361,Maricopa County,AZ,89.13857677902621,NA,NA,NA
85374,Maricopa County,AZ,46.441947565543074,NA,NA,NA
85375,Maricopa County,AZ,NA,NA,NA,0.96
85641,Pima County,AZ,78.27715355805243,NA,NA,NA
85710,Pima County,AZ,45.69288389513109,12.831858407079647,NA,NA
85719,Pima County,AZ,NA,NA,44.77272727272727,NA
85730,Pima County,AZ,NA,66.1504424778761,NA,NA
85737,Pima County,AZ,NA,NA,NA,46.239999999999995
85743,Pima County,AZ,NA,NA,NA,60.64000000000001
86045,Coconino County,AZ,NA,NA,45.909090909090914,NA
86301,Yavapai County,AZ,NA,NA,NA,17.119999999999997
86305,Yavapai County,AZ,NA,NA,39.31818181818182,NA
71822,Little River County,AR,NA,NA,76.81818181818181,NA
71854,Miller County,AR,38.57677902621723,NA,NA,NA
71957,Montgomery County,AR,NA,NA,NA,99.52
72034,Faulkner County,AR,NA,NA,NA,17.44
72401,Craighead County,AR,NA,NA,NA,55.52
72472,Poinsett County,AR,NA,NA,NA,92.32000000000001
72476,Lawrence County,AR,NA,NA,NA,91.03999999999999
72560,Stone County,AR,NA,NA,NA,87.2
72601,Boone County,AR,74.53183520599251,NA,NA,NA
72727,Washington County,AR,NA,NA,NA,96.48
90002,Los Angeles County,CA,NA,NA,NA,72.8
90003,Los Angeles County,CA,NA,NA,45,58.56
90008,Los Angeles County,CA,NA,NA,NA,27.200000000000003
90022,Los Angeles County,CA,NA,43.584070796460175,NA,NA
90035,Los Angeles County,CA,NA,NA,NA,27.04
90045,Los Angeles County,CA,NA,NA,NA,45.6
90047,Los Angeles County,CA,NA,21.01769911504425,NA,NA
90048,Los Angeles County,CA,NA,NA,NA,47.839999999999996
90063,Los Angeles County,CA,NA,NA,51.590909090909086,NA
90201,Los Angeles County,CA,43.07116104868914,NA,NA,NA
90220,Los Angeles County,CA,NA,NA,NA,41.6
90250,Los Angeles County,CA,NA,NA,NA,35.36
90270,Los Angeles County,CA,NA,89.15929203539822,NA,NA
90272,Los Angeles County,CA,NA,90.929203539823,NA,NA
90301,Los Angeles County,CA,NA,NA,NA,62.56
90404,Los Angeles County,CA,NA,NA,63.18181818181819,NA
90505,Los Angeles County,CA,NA,NA,47.72727272727273,NA
90638,Los Angeles County,CA,NA,62.83185840707964,NA,NA
90660,Los Angeles County,CA,NA,NA,NA,24.32
90731,Los Angeles County,CA,NA,NA,NA,52.64
90745,Los Angeles County,CA,NA,NA,35,NA
90805,Los Angeles County,CA,NA,NA,27.500000000000004,NA
91321,Los Angeles County,CA,NA,NA,NA,44.16
91324,Los Angeles County,CA,NA,78.76106194690266,NA,NA
91367,Los Angeles County,CA,NA,NA,NA,20.8
91710,San Bernardino County,CA,13.108614232209737,NA,22.954545454545457,NA
91746,Los Angeles County,CA,NA,77.87610619469027,NA,NA
91761,San Bernardino County,CA,NA,NA,37.95454545454545,NA
91768,Los Angeles County,CA,NA,NA,NA,81.44
91790,Los Angeles County,CA,NA,NA,56.81818181818182,NA
91902,San Diego County,CA,NA,NA,87.04545454545455,NA
91911,San Diego County,CA,NA,30.973451327433626,NA,NA
91935,San Diego County,CA,NA,NA,NA,96
91950,San Diego County,CA,NA,NA,NA,15.840000000000002
92008,San Diego County,CA,NA,81.85840707964603,NA,NA
92020,San Diego County,CA,NA,62.16814159292036,NA,34.56
92024,San Diego County,CA,NA,NA,52.04545454545455,NA
92054,San Diego County,CA,NA,NA,NA,76.96
92058,San Diego County,CA,NA,NA,NA,85.6
92071,San Diego County,CA,NA,NA,NA,25.6
92078,San Diego County,CA,NA,NA,NA,25.44
92102,San Diego County,CA,NA,NA,65.68181818181819,NA
92105,San Diego County,CA,85.0187265917603,NA,NA,NA
92109,San Diego County,CA,NA,NA,NA,59.040000000000006
92115,San Diego County,CA,NA,NA,49.54545454545455,NA
92116,San Diego County,CA,NA,NA,84.77272727272728,NA
92117,San Diego County,CA,NA,NA,NA,20.96
92173,San Diego County,CA,NA,NA,77.95454545454545,NA
92227,Imperial County,CA,NA,NA,64.0909090909091,NA
92240,Riverside County,CA,53.93258426966292,NA,NA,NA
92260,Riverside County,CA,NA,NA,17.045454545454543,NA
92264,Riverside County,CA,NA,NA,15.681818181818183,NA
92316,San Bernardino County,CA,NA,82.96460176991151,NA,NA
92324,San Bernardino County,CA,35.95505617977528,NA,NA,NA
92335,San Bernardino County,CA,NA,NA,19.545454545454547,NA
92373,San Bernardino County,CA,NA,73.45132743362832,NA,NA
92404,San Bernardino County,CA,NA,22.123893805309734,NA,NA
92501,Riverside County,CA,68.91385767790263,NA,NA,NA
92509,Riverside County,CA,NA,NA,NA,43.84
92570,Riverside County,CA,NA,49.336283185840706,NA,NA
92630,Orange County,CA,89.51310861423221,39.823008849557525,NA,NA
92646,Orange County,CA,NA,NA,NA,7.04
92653,Orange County,CA,58.052434456928836,NA,NA,NA
92657,Orange County,CA,NA,NA,94.77272727272728,NA
92688,Orange County,CA,NA,NA,NA,57.440000000000005
92703,Orange County,CA,NA,46.46017699115044,NA,NA
93001,Ventura County,CA,NA,33.6283185840708,NA,NA
93065,Ventura County,CA,NA,NA,NA,18.88
93108,Santa Barbara County,CA,NA,NA,NA,75.03999999999999
93230,Kings County,CA,NA,22.787610619469024,NA,NA
93274,Tulare County,CA,27.715355805243448,NA,NA,NA
93291,Tulare County,CA,NA,27.43362831858407,NA,NA
93401,San Luis Obispo County,CA,NA,NA,NA,54.72
93420,San Luis Obispo County,CA,NA,NA,NA,46.72
93454,Santa Barbara County,CA,NA,68.36283185840708,NA,NA
93536,Los Angeles County,CA,NA,50.88495575221239,NA,NA
93543,Los Angeles County,CA,NA,NA,92.72727272727272,NA
93555,Kern County,CA,NA,NA,24.09090909090909,38.72
93705,Fresno County,CA,20.973782771535582,NA,NA,NA
93706,Fresno County,CA,32.20973782771536,NA,47.27272727272727,NA
93723,Fresno County,CA,NA,NA,96.5909090909091,NA
93726,Fresno County,CA,35.2059925093633,28.539823008849556,NA,NA
93901,Monterey County,CA,NA,NA,NA,54.400000000000006
93908,Monterey County,CA,NA,NA,NA,90.24
94015,San Mateo County,CA,NA,NA,47.95454545454545,NA
94080,San Mateo County,CA,NA,NA,NA,2.88
94086,Santa Clara County,CA,84.6441947565543,NA,NA,NA
94102,San Francisco County,CA,NA,11.061946902654867,NA,NA
94103,San Francisco County,CA,NA,17.699115044247787,22.272727272727273,NA
94112,San Francisco County,CA,NA,NA,NA,3.52
94115,San Francisco County,CA,NA,NA,NA,13.120000000000001
94124,San Francisco County,CA,44.9438202247191,NA,NA,52.800000000000004
94520,Contra Costa County,CA,59.176029962546814,NA,NA,NA
94531,Contra Costa County,CA,NA,NA,56.59090909090909,NA
94533,Solano County,CA,53.18352059925093,NA,28.863636363636363,NA
94534,Solano County,CA,68.53932584269663,NA,NA,NA
94536,Alameda County,CA,NA,38.716814159292035,NA,NA
94541,Alameda County,CA,NA,NA,NA,77.12
94549,Contra Costa County,CA,NA,83.8495575221239,NA,NA
94558,Napa County,CA,NA,NA,9.772727272727273,NA
94588,Alameda County,CA,NA,NA,75.68181818181819,NA
94603,Alameda County,CA,NA,55.530973451327434,60.45454545454545,NA
94608,Alameda County,CA,NA,NA,57.95454545454546,NA
94619,Alameda County,CA,NA,NA,65.9090909090909,78.72
94703,Alameda County,CA,93.25842696629213,NA,NA,NA
94804,Contra Costa County,CA,NA,NA,NA,41.44
94901,Marin County,CA,NA,NA,45.22727272727273,NA
94947,Marin County,CA,NA,NA,NA,31.52
95030,Santa Clara County,CA,NA,NA,NA,68.32000000000001
95076,Santa Cruz County,CA,NA,NA,21.818181818181817,NA
95129,Santa Clara County,CA,NA,NA,NA,48
95134,Santa Clara County,CA,NA,80.53097345132744,NA,NA
95351,Stanislaus County,CA,NA,28.097345132743364,NA,NA
95354,Stanislaus County,CA,21.722846441947567,NA,NA,NA
95355,Stanislaus County,CA,NA,60.17699115044248,NA,NA
95403,Sonoma County,CA,NA,NA,NA,15.52
95409,Sonoma County,CA,NA,NA,NA,14.399999999999999
95451,Lake County,CA,NA,NA,56.36363636363636,NA
95482,Mendocino County,CA,NA,NA,30.454545454545457,NA
95501,Humboldt County,CA,NA,NA,NA,77.75999999999999
95620,Solano County,CA,NA,86.50442477876106,NA,NA
95630,Sacramento County,CA,NA,NA,NA,24.48
95631,Placer County,CA,NA,NA,92.04545454545455,NA
95632,Sacramento County,CA,NA,NA,NA,90.72
95662,Sacramento County,CA,NA,NA,NA,73.11999999999999
95670,Sacramento County,CA,NA,41.150442477876105,NA,NA
95678,Placer County,CA,NA,NA,37.27272727272727,NA
95815,Sacramento County,CA,NA,NA,NA,78.56
95821,Sacramento County,CA,NA,NA,84.31818181818181,NA
95825,Sacramento County,CA,NA,NA,92.95454545454545,NA
95965,Butte County,CA,NA,57.07964601769911,NA,NA
95988,Glenn County,CA,NA,NA,73.18181818181819,NA
95993,Sutter County,CA,NA,NA,46.81818181818182,30.56
96001,Shasta County,CA,NA,NA,NA,48.32
80003,Jefferson County,CO,NA,53.98230088495575,NA,NA
80013,Arapahoe County,CO,10.112359550561797,NA,NA,NA
80016,Arapahoe County,CO,NA,NA,91.5909090909091,NA
80030,Adams County,CO,NA,NA,81.36363636363636,NA
80033,Jefferson County,CO,NA,NA,67.72727272727272,NA
80111,Arapahoe County,CO,NA,NA,NA,70.88
80121,Arapahoe County,CO,NA,NA,NA,56.16
80126,Douglas County,CO,NA,NA,64.31818181818181,NA
80205,Denver County,CO,NA,NA,38.40909090909091,NA
80228,Jefferson County,CO,58.42696629213483,61.94690265486725,NA,NA
80260,Adams County,CO,NA,NA,66.36363636363637,NA
80401,Jefferson County,CO,49.063670411985015,44.469026548672566,NA,NA
80524,Larimer County,CO,30.337078651685395,NA,NA,NA
80631,Weld County,CO,NA,11.946902654867257,29.772727272727273,NA
80634,Weld County,CO,6.741573033707865,NA,2.9545454545454546,NA
80643,Weld County,CO,98.50187265917603,NA,NA,NA
80817,El Paso County,CO,67.79026217228464,NA,NA,NA
81003,Pueblo County,CO,NA,41.8141592920354,NA,NA
81321,Montezuma County,CO,NA,NA,69.0909090909091,NA
06002,Hartford County,CT,NA,NA,33.18181818181819,NA
06032,Hartford County,CT,NA,81.63716814159292,NA,NA
06037,Hartford County,CT,NA,NA,NA,45.12
06067,Hartford County,CT,86.89138576779027,NA,NA,NA
06095,Hartford County,CT,26.217228464419474,NA,NA,NA
06111,Hartford County,CT,NA,NA,NA,70.88
06117,Hartford County,CT,NA,NA,NA,71.36
06249,New London County,CT,NA,NA,NA,88.48
06401,New Haven County,CT,NA,NA,NA,53.12
06403,New Haven County,CT,NA,NA,93.4090909090909,NA
06437,New Haven County,CT,NA,NA,NA,37.6
06443,New Haven County,CT,NA,NA,NA,32.800000000000004
06468,Fairfield County,CT,NA,NA,NA,77.92
06478,New Haven County,CT,NA,NA,NA,92.16
06480,Middlesex County,CT,NA,NA,76.36363636363637,NA
06484,Fairfield County,CT,NA,72.56637168141593,NA,NA
06498,Middlesex County,CT,NA,NA,86.5909090909091,NA
06512,New Haven County,CT,NA,NA,NA,16
06518,New Haven County,CT,NA,86.94690265486726,NA,NA
06604,Fairfield County,CT,NA,59.070796460176986,NA,NA
06606,Fairfield County,CT,NA,NA,37.72727272727273,NA
06708,New Haven County,CT,43.82022471910113,NA,NA,NA
06787,Litchfield County,CT,NA,82.30088495575221,NA,NA
06790,Litchfield County,CT,NA,NA,4.090909090909091,NA
06801,Fairfield County,CT,NA,NA,61.13636363636363,NA
06810,Fairfield County,CT,NA,20.353982300884958,NA,NA
06811,Fairfield County,CT,74.15730337078652,NA,NA,NA
06820,Fairfield County,CT,NA,NA,85.22727272727273,NA
06840,Fairfield County,CT,NA,NA,79.54545454545455,67.36
06854,Fairfield County,CT,NA,NA,75.9090909090909,NA
19711,New Castle County,DE,NA,NA,14.545454545454545,NA
19720,New Castle County,DE,NA,3.0973451327433628,NA,NA
19801,New Castle County,DE,77.15355805243446,NA,NA,NA
19802,New Castle County,DE,NA,NA,26.81818181818182,55.04
19805,New Castle County,DE,NA,3.3185840707964607,NA,NA
19806,New Castle County,DE,NA,NA,NA,50.88
19807,New Castle County,DE,NA,99.77876106194691,NA,NA
19940,Sussex County,DE,NA,NA,93.63636363636364,NA
19960,Sussex County,DE,NA,78.09734513274337,NA,NA
32011,Nassau County,FL,NA,NA,61.81818181818181,NA
32065,Clay County,FL,NA,NA,NA,76.32
32066,Lafayette County,FL,NA,NA,98.4090909090909,NA
32082,St. Johns County,FL,NA,NA,NA,25.28
32084,St. Johns County,FL,NA,NA,NA,36.96
32086,St. Johns County,FL,NA,NA,NA,13.919999999999998
32092,St. Johns County,FL,NA,NA,46.36363636363636,NA
32117,Volusia County,FL,NA,NA,NA,37.12
32118,Volusia County,FL,NA,84.51327433628319,NA,NA
32124,Volusia County,FL,NA,NA,100,NA
32169,Volusia County,FL,NA,NA,68.4090909090909,NA
32174,Volusia County,FL,NA,NA,NA,8.959999999999999
32176,Volusia County,FL,NA,NA,NA,56.32
32207,Duval County,FL,NA,NA,15.454545454545453,NA
32216,Duval County,FL,31.46067415730337,NA,NA,NA
32219,Duval County,FL,95.50561797752809,NA,NA,NA
32250,Duval County,FL,NA,NA,35.90909090909091,NA
32256,Duval County,FL,NA,NA,NA,32.800000000000004
32317,Leon County,FL,NA,NA,NA,90.4
32407,Bay County,FL,NA,NA,NA,69.12
32466,Bay County,FL,NA,NA,91.36363636363637,NA
32505,Escambia County,FL,NA,24.11504424778761,NA,NA
32550,Walton County,FL,NA,91.1504424778761,NA,NA
32578,Okaloosa County,FL,NA,NA,NA,22.720000000000002
32765,Seminole County,FL,NA,NA,NA,48.480000000000004
32776,Lake County,FL,NA,NA,83.63636363636363,NA
32780,Brevard County,FL,NA,47.78761061946903,21.363636363636363,NA
32806,Orange County,FL,NA,NA,82.04545454545455,NA
32819,Orange County,FL,66.29213483146067,NA,NA,NA
32822,Orange County,FL,NA,NA,29.545454545454547,NA
32835,Orange County,FL,NA,NA,NA,56.8
32953,Brevard County,FL,NA,NA,24.31818181818182,NA
33056,Miami-Dade County,FL,NA,NA,54.31818181818182,NA
33139,Miami-Dade County,FL,NA,NA,NA,11.68
33143,Miami-Dade County,FL,64.04494382022472,NA,NA,NA
33147,Miami-Dade County,FL,NA,NA,NA,43.04
33156,Miami-Dade County,FL,NA,NA,NA,80.96
33172,Miami-Dade County,FL,NA,NA,NA,44
33178,Miami-Dade County,FL,NA,75.4424778761062,NA,NA
33186,Miami-Dade County,FL,NA,NA,NA,28.48
33187,Miami-Dade County,FL,NA,83.8495575221239,NA,NA
33401,Palm Beach County,FL,49.812734082397,NA,NA,NA
33407,Palm Beach County,FL,NA,36.94690265486726,NA,89.28
33408,Palm Beach County,FL,NA,NA,NA,41.760000000000005
33418,Palm Beach County,FL,NA,61.504424778761056,NA,NA
33430,Palm Beach County,FL,NA,NA,NA,73.92
33437,Palm Beach County,FL,NA,NA,NA,0
33442,Broward County,FL,NA,NA,NA,10.24
33458,Palm Beach County,FL,NA,NA,NA,30.240000000000002
33460,Palm Beach County,FL,NA,NA,67.04545454545455,NA
33470,Palm Beach County,FL,NA,NA,NA,86.88
33541,Pasco County,FL,NA,NA,40.22727272727273,NA
33559,Hillsborough County,FL,82.02247191011236,NA,NA,NA
33566,Hillsborough County,FL,NA,NA,NA,83.84
33598,Hillsborough County,FL,NA,NA,73.63636363636363,NA
33611,Hillsborough County,FL,NA,NA,88.4090909090909,NA
33612,Hillsborough County,FL,NA,15.04424778761062,NA,NA
33617,Hillsborough County,FL,NA,39.823008849557525,NA,NA
33634,Hillsborough County,FL,NA,72.12389380530973,NA,NA
33637,Hillsborough County,FL,85.76779026217228,NA,NA,NA
33702,Pinellas County,FL,NA,59.95575221238938,NA,NA
33713,Pinellas County,FL,NA,61.06194690265486,NA,NA
33777,Pinellas County,FL,NA,NA,74.31818181818181,NA
33859,Polk County,FL,NA,NA,NA,77.92
33872,Highlands County,FL,NA,NA,NA,23.36
33880,Polk County,FL,43.445692883895134,NA,NA,NA
33881,Polk County,FL,NA,NA,NA,14.24
33896,Polk County,FL,NA,NA,NA,88.64
33905,Lee County,FL,NA,73.23008849557522,NA,NA
33909,Lee County,FL,NA,NA,NA,58.24
33936,Lee County,FL,NA,NA,NA,49.120000000000005
33973,Lee County,FL,72.28464419475655,NA,NA,NA
33981,Charlotte County,FL,NA,95.35398230088495,NA,NA
34237,Sarasota County,FL,79.7752808988764,NA,NA,NA
34606,Hernando County,FL,NA,NA,NA,92
34609,Hernando County,FL,NA,NA,27.954545454545453,NA
34652,Pasco County,FL,NA,NA,59.77272727272728,NA
34669,Pasco County,FL,NA,95.13274336283186,NA,NA
34772,Osceola County,FL,NA,NA,NA,76.16000000000001
34785,Sumter County,FL,NA,NA,NA,65.28
34788,Lake County,FL,NA,NA,NA,68.16
30013,Rockdale County,GA,NA,NA,NA,62.72
30016,Newton County,GA,NA,NA,NA,52.480000000000004
30022,Fulton County,GA,NA,NA,51.590909090909086,NA
30038,DeKalb County,GA,19.101123595505616,NA,NA,NA
30039,Gwinnett County,GA,NA,NA,60.22727272727273,NA
30058,DeKalb County,GA,NA,26.991150442477874,NA,NA
30114,Cherokee County,GA,NA,NA,31.363636363636367,NA
30127,Cobb County,GA,17.228464419475657,NA,NA,NA
30179,Carroll County,GA,79.02621722846442,NA,NA,NA
30223,Spalding County,GA,44.569288389513105,NA,NA,NA
30228,Henry County,GA,NA,NA,67.27272727272727,NA
30233,Butts County,GA,NA,87.61061946902655,NA,NA
30241,Troup County,GA,NA,NA,57.27272727272727,NA
30305,Fulton County,GA,31.086142322097377,NA,NA,NA
30315,Fulton County,GA,NA,NA,NA,40.8
30318,Fulton County,GA,NA,35.39823008849557,NA,33.76
30324,Fulton County,GA,NA,84.95575221238938,NA,NA
30340,DeKalb County,GA,NA,NA,94.0909090909091,NA
30344,Fulton County,GA,NA,52.21238938053098,NA,NA
30349,Fulton County,GA,8.614232209737828,NA,16.136363636363637,NA
30350,Fulton County,GA,NA,NA,87.95454545454545,NA
30415,Bulloch County,GA,95.13108614232209,NA,NA,NA
30458,Bulloch County,GA,NA,NA,39.77272727272727,NA
30529,Jackson County,GA,NA,NA,89.31818181818181,NA
30701,Gordon County,GA,NA,NA,NA,54.559999999999995
30904,Richmond County,GA,47.565543071161045,NA,NA,NA
31061,Baldwin County,GA,NA,36.72566371681416,NA,NA
31063,Macon County,GA,NA,NA,NA,99.2
31092,Dooly County,GA,NA,88.27433628318585,NA,NA
31093,Houston County,GA,NA,NA,NA,44.800000000000004
31204,Bibb County,GA,NA,NA,NA,40.8
31410,Chatham County,GA,NA,NA,50,NA
31503,Ware County,GA,NA,NA,92.5,NA
31516,Pierce County,GA,85.39325842696628,NA,NA,NA
31545,Wayne County,GA,NA,NA,58.86363636363636,NA
31714,Turner County,GA,NA,78.31858407079646,NA,NA
31757,Thomas County,GA,NA,NA,72.72727272727273,NA
31763,Lee County,GA,NA,NA,NA,82.88
31779,Mitchell County,GA,NA,NA,77.04545454545455,NA
31907,Muscogee County,GA,NA,NA,NA,3.36
39819,Decatur County,GA,71.16104868913857,NA,NA,NA
39837,Miller County,GA,NA,93.36283185840708,NA,NA
96701,Honolulu County,HI,49.063670411985015,NA,NA,NA
96734,Honolulu County,HI,NA,44.911504424778755,NA,9.120000000000001
96782,Honolulu County,HI,NA,NA,NA,11.200000000000001
96791,Honolulu County,HI,NA,NA,88.63636363636364,NA
96792,Honolulu County,HI,19.475655430711612,NA,NA,NA
96814,Honolulu County,HI,NA,NA,87.27272727272727,NA
96815,Honolulu County,HI,NA,NA,NA,22.24
96822,Honolulu County,HI,NA,47.34513274336283,23.40909090909091,NA
83274,Bingham County,ID,NA,88.05309734513274,NA,NA
83301,Twin Falls County,ID,NA,25.88495575221239,NA,NA
83336,Minidoka County,ID,98.87640449438202,NA,NA,NA
83440,Madison County,ID,NA,74.11504424778761,NA,NA
83642,Ada County,ID,NA,NA,11.363636363636363,NA
83686,Canyon County,ID,NA,11.725663716814159,NA,NA
83702,Ada County,ID,NA,37.83185840707964,NA,NA
60010,Lake County,IL,NA,46.902654867256636,NA,NA
60045,Lake County,IL,NA,NA,NA,13.600000000000001
60051,McHenry County,IL,NA,59.51327433628318,NA,NA
60056,Cook County,IL,NA,NA,NA,6.5600000000000005
60062,Cook County,IL,NA,NA,NA,0.32
60087,Lake County,IL,NA,NA,NA,60.31999999999999
60103,DuPage County,IL,NA,35.84070796460177,NA,NA
60107,Cook County,IL,NA,57.9646017699115,NA,60.160000000000004
60110,Kane County,IL,NA,56.63716814159292,NA,NA
60120,Kane County,IL,NA,NA,31.590909090909093,NA
60123,Kane County,IL,NA,NA,19.772727272727273,NA
60137,DuPage County,IL,NA,40.707964601769916,NA,NA
60142,McHenry County,IL,NA,NA,NA,2.4
60148,DuPage County,IL,NA,NA,NA,12
60153,Cook County,IL,NA,46.68141592920354,NA,NA
60155,Cook County,IL,NA,NA,69.77272727272728,NA
60156,McHenry County,IL,NA,NA,NA,75.84
60193,Cook County,IL,NA,NA,13.40909090909091,NA
60304,Cook County,IL,NA,65.2654867256637,NA,NA
60411,Cook County,IL,NA,NA,NA,20.64
60430,Cook County,IL,NA,NA,NA,46.400000000000006
60435,Will County,IL,NA,14.15929203539823,NA,NA
60443,Cook County,IL,NA,NA,44.54545454545455,NA
60447,Grundy County,IL,NA,64.15929203539822,NA,NA
60452,Cook County,IL,NA,NA,48.63636363636364,NA
60453,Cook County,IL,NA,NA,11.818181818181818,6.08
60459,Cook County,IL,NA,NA,NA,45.440000000000005
60461,Cook County,IL,NA,NA,NA,72.48
60462,Cook County,IL,NA,NA,NA,9.6
60477,Cook County,IL,NA,33.849557522123895,NA,11.52
60504,DuPage County,IL,NA,43.141592920353986,NA,NA
60515,DuPage County,IL,NA,48.008849557522126,NA,NA
60542,Kane County,IL,NA,NA,65.45454545454545,NA
60564,Will County,IL,30.711610486891384,NA,NA,NA
60609,Cook County,IL,NA,14.601769911504425,NA,21.6
60612,Cook County,IL,NA,24.557522123893804,NA,NA
60613,Cook County,IL,NA,NA,NA,42.72
60616,Cook County,IL,NA,NA,13.18181818181818,NA
60617,Cook County,IL,NA,10.176991150442479,NA,2.2399999999999998
60618,Cook County,IL,8.98876404494382,NA,NA,NA
60619,Cook County,IL,NA,9.29203539823009,NA,1.44
60623,Cook County,IL,NA,NA,NA,14.719999999999999
60626,Cook County,IL,NA,NA,10.454545454545453,NA
60638,Cook County,IL,NA,13.716814159292035,NA,NA
60640,Cook County,IL,NA,12.389380530973451,NA,NA
60644,Cook County,IL,NA,11.283185840707963,NA,NA
60659,Cook County,IL,NA,NA,NA,45.92
60804,Cook County,IL,39.325842696629216,NA,NA,NA
60901,Kankakee County,IL,NA,NA,16.818181818181817,9.92
60950,Kankakee County,IL,NA,NA,NA,42.24
60954,Kankakee County,IL,NA,NA,NA,73.76
60970,Iroquois County,IL,NA,NA,NA,83.04
61072,Winnebago County,IL,NA,81.19469026548673,NA,NA
61073,Winnebago County,IL,NA,70.35398230088495,NA,NA
61074,Carroll County,IL,97.75280898876404,NA,NA,NA
61080,Winnebago County,IL,80.14981273408239,NA,NA,NA
61081,Whiteside County,IL,NA,NA,19.090909090909093,3.6799999999999997
61101,Winnebago County,IL,NA,NA,50.68181818181819,NA
61354,LaSalle County,IL,NA,NA,58.18181818181818,NA
61523,Peoria County,IL,NA,NA,NA,69.92
61604,Peoria County,IL,NA,NA,NA,16.64
61832,Vermilion County,IL,NA,NA,NA,8
61874,Champaign County,IL,92.13483146067416,NA,NA,NA
62034,Madison County,IL,NA,NA,NA,59.36
62226,St. Clair County,IL,NA,NA,NA,28.32
62230,Clinton County,IL,NA,NA,NA,69.76
62703,Sangamon County,IL,NA,37.610619469026545,NA,NA
62918,Williamson County,IL,NA,NA,NA,65.60000000000001
46001,Madison County,IN,NA,71.90265486725663,NA,NA
46016,Madison County,IN,NA,NA,NA,44.800000000000004
46131,Johnson County,IN,NA,NA,NA,12.16
46135,Putnam County,IN,NA,NA,NA,41.120000000000005
46173,Rush County,IN,59.925093632958806,NA,NA,NA
46201,Marion County,IN,NA,23.672566371681416,NA,NA
46219,Marion County,IN,NA,17.035398230088493,NA,49.6
46220,Marion County,IN,NA,NA,NA,53.28000000000001
46227,Marion County,IN,NA,NA,NA,28.799999999999997
46237,Marion County,IN,NA,25.442477876106196,NA,NA
46241,Marion County,IN,NA,NA,40,NA
46254,Marion County,IN,NA,62.38938053097345,32.72727272727273,NA
46256,Marion County,IN,NA,NA,49.31818181818181,NA
46304,Porter County,IN,NA,NA,NA,28.64
46307,Lake County,IN,1.4981273408239701,NA,NA,NA
46320,Lake County,IN,59.55056179775281,NA,NA,NA
46407,Lake County,IN,NA,NA,NA,95.84
46517,Elkhart County,IN,69.66292134831461,NA,NA,NA
46538,Kosciusko County,IN,NA,97.78761061946902,NA,NA
46614,St. Joseph County,IN,NA,94.24778761061947,NA,NA
46952,Grant County,IN,NA,NA,NA,21.279999999999998
47111,Clark County,IN,NA,NA,NA,69.44
47250,Jefferson County,IN,NA,NA,NA,58.4
47265,Jennings County,IN,NA,30.53097345132743,NA,NA
47331,Fayette County,IN,NA,NA,NA,7.5200000000000005
47362,Henry County,IN,NA,NA,NA,9.28
47586,Perry County,IN,NA,NA,NA,68.96
47710,Vanderburgh County,IN,NA,72.78761061946902,NA,NA
47715,Vanderburgh County,IN,NA,NA,45.68181818181819,NA
47802,Vigo County,IN,6.367041198501873,NA,NA,NA
47909,Tippecanoe County,IN,NA,NA,NA,40.48
50036,Boone County,IA,NA,71.23893805309734,NA,NA
50125,Warren County,IA,NA,NA,NA,69.6
50158,Marshall County,IA,NA,33.1858407079646,NA,NA
50314,Polk County,IA,NA,NA,68.18181818181817,NA
50315,Polk County,IA,23.220973782771537,NA,NA,NA
50461,Mitchell County,IA,NA,NA,89.54545454545455,NA
50613,Black Hawk County,IA,NA,NA,16.590909090909093,NA
50703,Black Hawk County,IA,52.05992509363296,NA,NA,NA
51503,Pottawattamie County,IA,NA,NA,6.136363636363637,NA
51534,Mills County,IA,67.79026217228464,NA,NA,NA
52205,Jones County,IA,94.3820224719101,NA,NA,NA
52302,Linn County,IA,NA,NA,NA,44.48
52333,Johnson County,IA,NA,NA,NA,98.72
52501,Wapello County,IA,NA,NA,34.090909090909086,NA
52803,Scott County,IA,NA,NA,NA,69.92
52804,Scott County,IA,NA,NA,41.36363636363637,NA
52806,Scott County,IA,NA,27.654867256637168,NA,NA
52807,Scott County,IA,62.92134831460674,83.4070796460177,NA,NA
66002,Atchison County,KS,75.65543071161048,NA,NA,73.44000000000001
66061,Johnson County,KS,NA,NA,6.8181818181818175,NA
66101,Wyandotte County,KS,NA,NA,NA,94.39999999999999
66606,Shawnee County,KS,NA,NA,NA,65.12
66607,Shawnee County,KS,NA,85.61946902654867,NA,NA
67156,Cowley County,KS,NA,79.64601769911505,NA,NA
67216,Sedgwick County,KS,NA,77.21238938053098,NA,NA
67502,Reno County,KS,NA,NA,65.22727272727272,NA
40047,Bullitt County,KY,34.08239700374532,NA,NA,NA
40211,Jefferson County,KY,NA,50.22123893805309,NA,NA
40215,Jefferson County,KY,NA,73.00884955752213,NA,NA
40219,Jefferson County,KY,NA,18.36283185840708,NA,NA
40228,Jefferson County,KY,67.04119850187266,NA,NA,NA
40291,Jefferson County,KY,49.812734082397,NA,NA,NA
40324,Scott County,KY,40.44943820224719,NA,NA,NA
40342,Anderson County,KY,NA,NA,NA,74.72
40356,Jessamine County,KY,29.213483146067414,NA,NA,NA
40391,Clark County,KY,45.31835205992509,NA,NA,NA
40422,Boyle County,KY,NA,NA,55.00000000000001,NA
40511,Fayette County,KY,NA,NA,NA,71.84
40513,Fayette County,KY,NA,95.79646017699115,NA,NA
40517,Fayette County,KY,NA,28.097345132743364,NA,NA
40741,Laurel County,KY,NA,29.646017699115045,NA,50.080000000000005
41011,Kenton County,KY,NA,NA,30.909090909090907,NA
41164,Carter County,KY,50.56179775280899,NA,NA,NA
41169,Greenup County,KY,NA,NA,NA,95.04
41175,Greenup County,KY,NA,69.69026548672566,NA,NA
41311,Lee County,KY,NA,NA,NA,90.88000000000001
41653,Floyd County,KY,NA,NA,NA,88.16000000000001
41858,Letcher County,KY,NA,65.48672566371681,NA,NA
42167,Monroe County,KY,NA,69.24778761061947,NA,NA
42211,Trigg County,KY,NA,NA,NA,56.48
42301,Daviess County,KY,14.606741573033707,NA,NA,NA
42345,Muhlenberg County,KY,NA,NA,NA,59.84
42420,Henderson County,KY,NA,13.274336283185843,NA,NA
42602,Clinton County,KY,NA,NA,NA,81.6
42743,Green County,KY,NA,NA,NA,51.2
70002,Jefferson Parish,LA,NA,54.64601769911505,NA,NA
70003,Jefferson Parish,LA,NA,NA,5.454545454545454,NA
70006,Jefferson Parish,LA,NA,NA,50.227272727272734,NA
70065,Jefferson Parish,LA,1.8726591760299627,NA,NA,NA
70119,Orleans Parish,LA,NA,6.1946902654867255,NA,35.199999999999996
70123,Jefferson Parish,LA,NA,NA,NA,9.44
70125,Orleans Parish,LA,NA,42.92035398230089,NA,NA
70131,Orleans Parish,LA,56.92883895131086,19.469026548672566,NA,NA
70339,Assumption Parish,LA,NA,78.31858407079646,NA,NA
70356,Terrebonne Parish,LA,99.25093632958801,NA,NA,NA
70392,St. Mary Parish,LA,NA,NA,76.5909090909091,NA
70401,Tangipahoa Parish,LA,12.734082397003746,NA,NA,NA
70427,Washington Parish,LA,46.06741573033708,NA,NA,NA
70458,St. Tammany Parish,LA,NA,NA,NA,10.4
70460,St. Tammany Parish,LA,NA,17.920353982300885,NA,NA
70535,St. Landry Parish,LA,NA,NA,NA,67.04
70760,Pointe Coupee Parish,LA,57.30337078651685,NA,NA,NA
70791,East Baton Rouge Parish,LA,25.0936329588015,NA,NA,NA
70805,East Baton Rouge Parish,LA,NA,NA,31.818181818181817,NA
70806,East Baton Rouge Parish,LA,NA,NA,43.63636363636363,41.92
70807,East Baton Rouge Parish,LA,NA,NA,NA,72.32
70809,East Baton Rouge Parish,LA,NA,60.39823008849557,NA,NA
70816,East Baton Rouge Parish,LA,5.992509363295881,NA,NA,NA
71055,Webster Parish,LA,NA,21.902654867256636,NA,NA
71107,Caddo Parish,LA,NA,3.5398230088495577,NA,NA
71109,Caddo Parish,LA,NA,NA,NA,41.120000000000005
71118,Caddo Parish,LA,NA,NA,66.81818181818183,NA
71220,Morehouse Parish,LA,NA,NA,49.77272727272727,NA
71457,Natchitoches Parish,LA,11.985018726591761,NA,NA,NA
71463,Allen Parish,LA,NA,NA,90,NA
03901,York County,ME,87.26591760299625,NA,NA,NA
04011,Cumberland County,ME,NA,NA,NA,18.56
04240,Androscoggin County,ME,NA,2.2123893805309733,NA,NA
04401,Penobscot County,ME,NA,NA,18.181818181818183,NA
04416,Hancock County,ME,NA,NA,87.72727272727273,NA
04530,Sagadahoc County,ME,73.03370786516854,NA,NA,NA
20657,Calvert County,MD,NA,NA,NA,92.64
20659,St. Mary's County,MD,NA,NA,NA,84.64
20706,Prince George's County,MD,NA,NA,NA,85.44
20721,Prince George's County,MD,NA,NA,73.4090909090909,NA
20723,Howard County,MD,NA,NA,NA,93.12
20735,Prince George's County,MD,NA,NA,NA,66.24
20759,Howard County,MD,NA,98.67256637168141,NA,NA
20785,Prince George's County,MD,NA,NA,NA,91.84
20815,Montgomery County,MD,NA,84.7345132743363,NA,NA
20853,Montgomery County,MD,NA,NA,NA,58.08
20886,Montgomery County,MD,NA,NA,81.13636363636364,NA
20902,Montgomery County,MD,NA,72.34513274336283,NA,NA
20904,Montgomery County,MD,NA,NA,56.13636363636364,21.92
20905,Montgomery County,MD,NA,NA,NA,83.2
20910,Montgomery County,MD,NA,NA,NA,52.959999999999994
21013,Baltimore County,MD,NA,NA,NA,97.28
21043,Howard County,MD,NA,NA,NA,55.2
21044,Howard County,MD,NA,56.415929203539825,NA,NA
21114,Anne Arundel County,MD,NA,NA,89.77272727272727,NA
21120,Baltimore County,MD,NA,NA,98.18181818181819,NA
21128,Baltimore County,MD,NA,NA,NA,66.56
21140,Anne Arundel County,MD,NA,99.33628318584071,NA,NA
21158,Carroll County,MD,NA,NA,NA,80
21217,Baltimore city,MD,NA,29.867256637168143,NA,52.16
21218,Baltimore city,MD,NA,NA,NA,5.4399999999999995
21220,Baltimore County,MD,NA,NA,NA,33.6
21221,Baltimore County,MD,NA,NA,NA,31.36
21222,Baltimore County,MD,NA,NA,3.8636363636363633,NA
21236,Baltimore County,MD,47.19101123595505,NA,47.5,NA
21239,Baltimore city,MD,NA,NA,NA,29.28
21601,Talbot County,MD,NA,NA,48.86363636363637,NA
21666,Queen Anne's County,MD,NA,95.57522123893806,NA,NA
21713,Washington County,MD,NA,NA,95.22727272727273,NA
21742,Washington County,MD,83.52059925093633,NA,NA,NA
21784,Carroll County,MD,NA,61.72566371681416,NA,51.04
21788,Frederick County,MD,NA,83.1858407079646,NA,NA
21921,Cecil County,MD,NA,NA,8.863636363636363,NA
01060,Hampshire County,MA,NA,NA,NA,68
01085,Hampden County,MA,NA,86.72566371681415,NA,NA
01089,Hampden County,MA,NA,NA,NA,27.52
01105,Hampden County,MA,NA,3.761061946902655,15.909090909090908,NA
01201,Berkshire County,MA,NA,NA,NA,0.64
01420,Worcester County,MA,NA,NA,NA,5.28
01430,Worcester County,MA,NA,NA,80.45454545454545,NA
01453,Worcester County,MA,NA,26.327433628318587,NA,NA
01532,Worcester County,MA,NA,NA,NA,56.00000000000001
01603,Worcester County,MA,NA,NA,NA,18.08
01610,Worcester County,MA,NA,0.6637168141592921,NA,NA
01747,Worcester County,MA,NA,NA,90.45454545454545,NA
01752,Middlesex County,MA,8.239700374531834,4.20353982300885,NA,NA
01756,Worcester County,MA,87.64044943820225,NA,NA,NA
01760,Middlesex County,MA,NA,NA,NA,8.32
01810,Essex County,MA,NA,NA,NA,17.76
01880,Middlesex County,MA,NA,NA,NA,12.64
01902,Essex County,MA,NA,0.22123893805309736,NA,NA
01915,Essex County,MA,NA,NA,1.5909090909090908,NA
01923,Essex County,MA,NA,44.24778761061947,NA,NA
01930,Essex County,MA,NA,NA,1.3636363636363635,NA
01945,Essex County,MA,NA,NA,NA,31.840000000000003
01960,Essex County,MA,5.2434456928838955,NA,NA,NA
01970,Essex County,MA,NA,NA,NA,99.03999999999999
02108,Suffolk County,MA,NA,92.47787610619469,NA,NA
02115,Suffolk County,MA,NA,9.513274336283185,5.909090909090909,NA
02124,Suffolk County,MA,NA,NA,0.22727272727272727,NA
02130,Suffolk County,MA,NA,1.1061946902654867,NA,NA
02138,Middlesex County,MA,NA,NA,NA,13.28
02169,Norfolk County,MA,NA,NA,NA,0.48
02171,Norfolk County,MA,NA,37.389380530973455,23.18181818181818,NA
02184,Norfolk County,MA,NA,NA,NA,39.519999999999996
02301,Plymouth County,MA,NA,NA,0,NA
02302,Plymouth County,MA,NA,NA,94.31818181818183,NA
02360,Plymouth County,MA,NA,NA,0.45454545454545453,NA
02382,Plymouth County,MA,NA,NA,NA,97.11999999999999
02452,Middlesex County,MA,98.12734082397003,NA,NA,NA
02472,Middlesex County,MA,34.45692883895131,NA,NA,NA
02482,Norfolk County,MA,NA,NA,NA,81.6
02532,Barnstable County,MA,NA,NA,NA,53.6
02540,Barnstable County,MA,NA,NA,NA,35.04
02664,Barnstable County,MA,NA,NA,41.81818181818181,NA
02673,Barnstable County,MA,NA,NA,NA,53.92
02720,Bristol County,MA,NA,NA,1.1363636363636365,NA
02721,Bristol County,MA,NA,87.83185840707965,NA,NA
02743,Bristol County,MA,NA,63.716814159292035,NA,NA
02745,Bristol County,MA,NA,NA,74.0909090909091,NA
02746,Bristol County,MA,NA,NA,NA,67.67999999999999
02748,Bristol County,MA,NA,NA,NA,25.6
02760,Bristol County,MA,NA,15.929203539823009,NA,NA
02766,Bristol County,MA,NA,NA,12.5,NA
02777,Bristol County,MA,NA,NA,95,NA
02780,Bristol County,MA,NA,0.4424778761061947,NA,NA
48045,Macomb County,MI,NA,32.07964601769911,NA,NA
48071,Oakland County,MI,NA,NA,NA,47.52
48076,Oakland County,MI,NA,38.93805309734513,NA,39.04
48114,Livingston County,MI,NA,58.849557522123895,NA,NA
48134,Wayne County,MI,NA,NA,51.13636363636363,NA
48150,Wayne County,MI,NA,NA,24.772727272727273,NA
48154,Wayne County,MI,NA,NA,10.681818181818182,NA
48165,Oakland County,MI,NA,96.90265486725663,NA,NA
48170,Wayne County,MI,NA,NA,NA,3.2
48195,Wayne County,MI,NA,31.194690265486724,NA,NA
48197,Washtenaw County,MI,3.3707865168539324,NA,NA,15.68
48198,Washtenaw County,MI,NA,NA,NA,25.119999999999997
48207,Wayne County,MI,NA,NA,NA,17.599999999999998
48209,Wayne County,MI,28.08988764044944,NA,NA,NA
48221,Wayne County,MI,NA,NA,8.409090909090908,NA
48227,Wayne County,MI,NA,NA,11.136363636363637,NA
48238,Wayne County,MI,NA,NA,NA,34.4
48239,Wayne County,MI,NA,NA,NA,89.12
48313,Macomb County,MI,NA,NA,NA,21.759999999999998
48314,Macomb County,MI,NA,49.336283185840706,NA,NA
48329,Oakland County,MI,NA,NA,NA,26.88
48336,Oakland County,MI,NA,NA,NA,30.72
48340,Oakland County,MI,NA,14.15929203539823,NA,NA
48375,Oakland County,MI,NA,NA,NA,55.67999999999999
48390,Oakland County,MI,NA,NA,40.909090909090914,NA
48439,Genesee County,MI,NA,NA,NA,12.959999999999999
48473,Genesee County,MI,NA,50.66371681415929,NA,NA
48506,Genesee County,MI,NA,31.41592920353982,NA,NA
48601,Saginaw County,MI,1.1235955056179776,1.991150442477876,NA,5.6000000000000005
48610,Arenac County,MI,NA,98.89380530973452,NA,NA
48616,Saginaw County,MI,83.14606741573034,NA,55.22727272727273,NA
48624,Gladwin County,MI,NA,45.79646017699115,NA,NA
48626,Saginaw County,MI,NA,NA,NA,95.67999999999999
48632,Clare County,MI,NA,86.06194690265487,NA,NA
48858,Isabella County,MI,NA,9.070796460176991,NA,NA
48867,Shiawassee County,MI,NA,9.955752212389381,NA,38.56
48881,Ionia County,MI,NA,NA,95.45454545454545,NA
49009,Kalamazoo County,MI,NA,NA,NA,13.28
49017,Calhoun County,MI,NA,NA,28.18181818181818,NA
49031,Cass County,MI,NA,86.28318584070797,NA,NA
49036,Branch County,MI,NA,NA,27.727272727272727,NA
49091,St. Joseph County,MI,NA,NA,43.40909090909091,NA
49097,Kalamazoo County,MI,80.52434456928839,NA,NA,NA
49120,Berrien County,MI,14.232209737827715,NA,NA,16.16
49202,Jackson County,MI,NA,NA,35.22727272727273,NA
49286,Lenawee County,MI,NA,63.27433628318584,NA,NA
49348,Allegan County,MI,NA,NA,54.77272727272727,NA
49418,Kent County,MI,NA,NA,NA,26.400000000000002
49505,Kent County,MI,NA,NA,NA,19.2
49506,Kent County,MI,NA,31.858407079646017,NA,NA
49519,Kent County,MI,25.0936329588015,NA,NA,NA
49807,Delta County,MI,NA,NA,99.77272727272727,NA
49829,Delta County,MI,NA,NA,NA,30.880000000000003
55038,Washington County,MN,NA,NA,NA,98.24000000000001
55066,Goodhue County,MN,NA,NA,NA,11.04
55082,Washington County,MN,NA,40.26548672566372,NA,NA
55103,Ramsey County,MN,NA,54.424778761061944,NA,94.08
55104,Ramsey County,MN,NA,NA,NA,48.8
55109,Ramsey County,MN,NA,NA,NA,32
55118,Dakota County,MN,NA,57.52212389380531,NA,NA
55119,Ramsey County,MN,NA,NA,NA,43.68
55130,Ramsey County,MN,32.958801498127336,NA,NA,NA
55301,Wright County,MN,NA,96.46017699115043,NA,NA
55303,Anoka County,MN,NA,NA,38.18181818181819,NA
55316,Hennepin County,MN,65.91760299625467,NA,NA,NA
55343,Hennepin County,MN,NA,51.991150442477874,NA,NA
55344,Hennepin County,MN,NA,NA,NA,92.47999999999999
55401,Hennepin County,MN,NA,NA,NA,99.83999999999999
55406,Hennepin County,MN,NA,31.63716814159292,NA,NA
55411,Hennepin County,MN,NA,NA,20.681818181818183,NA
55413,Hennepin County,MN,NA,50,NA,NA
55418,Hennepin County,MN,NA,NA,41.13636363636364,NA
55420,Hennepin County,MN,NA,NA,62.04545454545455,NA
55426,Hennepin County,MN,NA,NA,NA,40.32
55429,Hennepin County,MN,17.97752808988764,NA,NA,NA
55438,Hennepin County,MN,NA,NA,78.86363636363637,NA
55439,Hennepin County,MN,NA,97.12389380530973,NA,NA
55442,Hennepin County,MN,NA,82.07964601769912,NA,NA
55906,Olmsted County,MN,NA,NA,NA,63.68000000000001
56001,Blue Earth County,MN,NA,NA,NA,50.239999999999995
56011,Scott County,MN,NA,NA,NA,87.03999999999999
56031,Martin County,MN,NA,NA,NA,78.24
56037,Blue Earth County,MN,97.37827715355806,NA,NA,NA
56220,Yellow Medicine County,MN,NA,NA,99.54545454545455,NA
56283,Redwood County,MN,NA,NA,NA,86.4
56301,Stearns County,MN,29.962546816479403,NA,72.5,NA
56379,Benton County,MN,NA,NA,83.18181818181817,NA
56441,Crow Wing County,MN,NA,NA,NA,98.88
56501,Becker County,MN,NA,NA,NA,18.72
56649,Koochiching County,MN,NA,NA,NA,86.56
38606,Panola County,MS,NA,NA,82.27272727272728,NA
38652,Union County,MS,NA,NA,NA,84.16
38843,Itawamba County,MS,NA,77.43362831858407,NA,NA
38852,Tishomingo County,MS,NA,NA,NA,59.519999999999996
38921,Tallahatchie County,MS,NA,NA,NA,91.67999999999999
39046,Madison County,MS,NA,NA,NA,57.599999999999994
39206,Hinds County,MS,NA,NA,NA,73.28
39213,Hinds County,MS,NA,NA,NA,49.120000000000005
39426,Pearl River County,MS,NA,NA,46.13636363636363,NA
39452,George County,MS,12.359550561797752,NA,NA,NA
39474,Jefferson Davis County,MS,NA,NA,90.68181818181819,NA
39532,Harrison County,MS,NA,51.54867256637168,NA,NA
39565,Jackson County,MS,NA,NA,88.86363636363637,NA
39730,Monroe County,MS,71.53558052434457,NA,NA,NA
39759,Oktibbeha County,MS,NA,NA,NA,65.75999999999999
63026,St. Louis County,MO,NA,42.69911504424779,NA,NA
63031,St. Louis County,MO,28.46441947565543,NA,NA,36
63052,Jefferson County,MO,NA,NA,65,NA
63111,St. Louis city,MO,NA,39.60176991150443,NA,NA
63134,St. Louis County,MO,NA,NA,NA,66.88
63136,St. Louis County,MO,NA,10.398230088495575,NA,NA
63147,St. Louis city,MO,NA,NA,91.13636363636364,NA
63301,St. Charles County,MO,14.981273408239701,NA,NA,NA
63401,Marion County,MO,NA,NA,NA,74.88
63801,Scott County,MO,NA,NA,NA,18.4
63841,Stoddard County,MO,NA,NA,NA,61.12
63873,New Madrid County,MO,NA,NA,96.81818181818181,NA
64106,Jackson County,MO,NA,34.73451327433628,NA,NA
64130,Jackson County,MO,NA,NA,NA,87.52
64131,Jackson County,MO,NA,NA,NA,64.48
64132,Jackson County,MO,NA,NA,NA,79.36
64134,Jackson County,MO,NA,NA,41.590909090909086,NA
65536,Laclede County,MO,NA,74.77876106194691,NA,NA
65706,Webster County,MO,73.78277153558052,NA,NA,NA
65711,Wright County,MO,96.62921348314607,NA,NA,NA
65803,Greene County,MO,NA,13.938053097345133,NA,NA
59404,Cascade County,MT,NA,NA,14.318181818181818,NA
59711,Deer Lodge County,MT,NA,NA,NA,61.6
59718,Gallatin County,MT,NA,42.256637168141594,NA,NA
59725,Beaverhead County,MT,NA,NA,NA,75.84
59912,Flathead County,MT,NA,75.88495575221239,NA,NA
68104,Douglas County,NE,NA,NA,39.54545454545455,NA
68108,Douglas County,NE,NA,75.22123893805309,NA,NA
68110,Douglas County,NE,NA,79.20353982300885,NA,NA
68112,Douglas County,NE,81.64794007490637,NA,NA,NA
68127,Douglas County,NE,NA,NA,78.18181818181819,NA
68134,Douglas County,NE,NA,NA,NA,57.92
68144,Douglas County,NE,NA,NA,57.04545454545455,NA
68521,Lancaster County,NE,NA,67.47787610619469,NA,NA
69162,Cheyenne County,NE,NA,82.7433628318584,NA,NA
69337,Dawes County,NE,NA,NA,85.68181818181819,NA
89123,Clark County,NV,NA,59.29203539823009,NA,NA
89145,Clark County,NV,74.90636704119851,NA,NA,NA
89408,Lyon County,NV,NA,NA,42.27272727272727,NA
89433,Washoe County,NV,NA,NA,NA,74.4
89460,Douglas County,NV,81.27340823970037,NA,NA,NA
89815,Elko County,NV,NA,87.16814159292035,NA,NA
03053,Rockingham County,NH,NA,NA,27.27272727272727,NA
03062,Hillsborough County,NH,NA,23.451327433628318,NA,14.719999999999999
03246,Belknap County,NH,NA,NA,NA,21.44
03867,Strafford County,NH,31.46067415730337,NA,NA,NA
07002,Hudson County,NJ,7.116104868913857,NA,NA,NA
07003,Essex County,NJ,NA,13.053097345132745,NA,NA
07017,Essex County,NJ,52.05992509363296,2.433628318584071,NA,NA
07039,Essex County,NJ,NA,26.548672566371685,NA,NA
07052,Essex County,NJ,NA,NA,NA,18.240000000000002
07060,Union County,NJ,NA,NA,26.136363636363637,NA
07070,Bergen County,NJ,NA,NA,NA,64.8
07083,Union County,NJ,NA,NA,NA,29.599999999999998
07102,Essex County,NJ,NA,10.84070796460177,NA,NA
07105,Essex County,NJ,NA,16.371681415929203,NA,NA
07106,Essex County,NJ,NA,NA,NA,88.96
07107,Essex County,NJ,NA,NA,7.2727272727272725,NA
07108,Essex County,NJ,NA,1.7699115044247788,NA,NA
07307,Hudson County,NJ,NA,NA,NA,35.52
07407,Bergen County,NJ,NA,NA,NA,63.04
07422,Sussex County,NJ,NA,NA,NA,94.24
07436,Bergen County,NJ,NA,NA,NA,78.72
07438,Morris County,NJ,NA,89.60176991150442,NA,NA
07446,Bergen County,NJ,NA,92.2566371681416,NA,NA
07470,Passaic County,NJ,NA,NA,NA,5.92
07652,Bergen County,NJ,NA,NA,NA,11.84
07722,Monmouth County,NJ,NA,NA,99.0909090909091,NA
07724,Monmouth County,NJ,NA,34.070796460176986,NA,NA
07747,Monmouth County,NJ,NA,NA,NA,58.56
07823,Warren County,NJ,NA,69.91150442477876,NA,NA
07869,Morris County,NJ,NA,NA,53.40909090909091,NA
07882,Warren County,NJ,NA,NA,62.272727272727266,NA
08002,Camden County,NJ,NA,NA,49.09090909090909,NA
08016,Burlington County,NJ,NA,NA,28.40909090909091,NA
08034,Camden County,NJ,NA,NA,NA,65.92
08055,Burlington County,NJ,NA,71.46017699115043,NA,38.4
08081,Camden County,NJ,NA,NA,NA,96.16
08088,Burlington County,NJ,NA,NA,NA,52.16
08096,Gloucester County,NJ,24.344569288389515,NA,NA,NA
08103,Camden County,NJ,NA,NA,NA,61.44
08108,Camden County,NJ,NA,NA,NA,68.64
08203,Atlantic County,NJ,NA,NA,71.13636363636363,NA
08205,Atlantic County,NJ,NA,79.42477876106194,NA,NA
08225,Atlantic County,NJ,NA,NA,80,NA
08234,Atlantic County,NJ,NA,5.3097345132743365,NA,NA
08361,Cumberland County,NJ,NA,96.01769911504425,NA,49.919999999999995
08505,Burlington County,NJ,NA,NA,62.272727272727266,NA
08514,Monmouth County,NJ,NA,NA,NA,97.76
08527,Ocean County,NJ,NA,40.48672566371682,9.318181818181818,NA
08628,Mercer County,NJ,88.76404494382022,NA,NA,NA
08701,Ocean County,NJ,NA,NA,NA,2.56
08730,Monmouth County,NJ,NA,NA,NA,98.08
08757,Ocean County,NJ,NA,NA,NA,0.16
08809,Hunterdon County,NJ,NA,80.75221238938053,NA,NA
08822,Hunterdon County,NJ,NA,76.10619469026548,NA,NA
08831,Middlesex County,NJ,NA,NA,NA,15.36
08852,Middlesex County,NJ,73.40823970037454,NA,NA,NA
08859,Middlesex County,NJ,NA,NA,NA,47.04
87109,Bernalillo County,NM,NA,NA,18.636363636363637,NA
87110,Bernalillo County,NM,NA,16.8141592920354,NA,NA
87111,Bernalillo County,NM,NA,NA,NA,4.64
87112,Bernalillo County,NM,NA,NA,NA,4.8
87505,Santa Fe County,NM,NA,6.637168141592921,NA,NA
10001,New York County,NY,NA,17.47787610619469,8.636363636363637,NA
10002,New York County,NY,NA,NA,NA,1.76
10003,New York County,NY,NA,59.73451327433629,NA,NA
10026,New York County,NY,NA,NA,NA,38.24
10035,New York County,NY,NA,8.4070796460177,NA,NA
10040,New York County,NY,NA,39.15929203539823,NA,NA
10075,New York County,NY,NA,NA,NA,17.28
10304,Richmond County,NY,NA,NA,25,NA
10314,Richmond County,NY,NA,NA,28.636363636363637,NA
10456,Bronx County,NY,NA,0,NA,2.7199999999999998
10458,Bronx County,NY,NA,NA,0.9090909090909091,NA
10462,Bronx County,NY,NA,NA,6.363636363636363,NA
10466,Bronx County,NY,NA,NA,22.045454545454547,10.72
10467,Bronx County,NY,NA,NA,NA,1.92
10471,Bronx County,NY,NA,NA,NA,42.559999999999995
10512,Putnam County,NY,NA,NA,NA,63.36000000000001
10520,Westchester County,NY,NA,NA,NA,62.08
10528,Westchester County,NY,NA,NA,NA,80.80000000000001
10570,Westchester County,NY,NA,NA,NA,77.44
10580,Westchester County,NY,NA,NA,NA,36.8
10589,Westchester County,NY,NA,NA,NA,50.72
10605,Westchester County,NY,NA,NA,NA,70.56
10701,Westchester County,NY,NA,NA,NA,22.88
10703,Westchester County,NY,NA,NA,NA,56.96
10705,Westchester County,NY,NA,NA,68.86363636363636,NA
10710,Westchester County,NY,NA,NA,64.54545454545455,NA
10804,Westchester County,NY,NA,93.58407079646017,NA,NA
10940,Orange County,NY,NA,NA,NA,20.16
10954,Rockland County,NY,NA,NA,84.0909090909091,NA
10956,Rockland County,NY,NA,97.34513274336283,NA,27.839999999999996
11001,Nassau County,NY,NA,NA,NA,72.96000000000001
11005,Queens County,NY,NA,NA,NA,73.6
11021,Nassau County,NY,NA,NA,NA,54.24
11208,Kings County,NY,NA,NA,2.0454545454545454,NA
11211,Kings County,NY,NA,51.32743362831859,NA,NA
11214,Kings County,NY,NA,21.01769911504425,NA,NA
11215,Kings County,NY,NA,39.38053097345133,NA,NA
11218,Kings County,NY,37.07865168539326,NA,NA,NA
11219,Kings County,NY,36.70411985018727,NA,NA,12.8
11224,Kings County,NY,NA,82.52212389380531,7.954545454545454,NA
11225,Kings County,NY,NA,NA,55.90909090909091,NA
11226,Kings County,NY,NA,NA,NA,10.879999999999999
11229,Kings County,NY,NA,NA,NA,3.04
11230,Kings County,NY,NA,NA,NA,6.08
11234,Kings County,NY,NA,NA,NA,16.48
11235,Kings County,NY,NA,47.56637168141593,NA,NA
11237,Kings County,NY,13.48314606741573,NA,NA,NA
11356,Queens County,NY,NA,NA,86.36363636363636,NA
11365,Queens County,NY,NA,NA,NA,33.44
11368,Queens County,NY,NA,NA,NA,15.2
11373,Queens County,NY,NA,NA,20,NA
11385,Queens County,NY,NA,NA,15,NA
11414,Queens County,NY,NA,NA,52.72727272727272,54.08
11422,Queens County,NY,86.51685393258427,NA,NA,NA
11426,Queens County,NY,NA,NA,NA,67.84
11427,Queens County,NY,NA,76.76991150442478,NA,NA
11520,Nassau County,NY,NA,NA,NA,40.64
11566,Nassau County,NY,NA,NA,NA,47.68
11580,Nassau County,NY,NA,NA,59.31818181818181,NA
11706,Suffolk County,NY,NA,NA,NA,18.88
11716,Suffolk County,NY,NA,NA,95.68181818181817,NA
11726,Suffolk County,NY,NA,76.99115044247787,NA,NA
11727,Suffolk County,NY,NA,67.92035398230088,NA,NA
11752,Suffolk County,NY,NA,NA,NA,89.44
11753,Nassau County,NY,NA,97.56637168141593,NA,NA
11757,Suffolk County,NY,NA,NA,NA,62.88
11776,Suffolk County,NY,NA,NA,86.13636363636363,NA
11780,Suffolk County,NY,NA,NA,NA,95.19999999999999
11798,Suffolk County,NY,91.38576779026218,81.41592920353983,NA,NA
11801,Nassau County,NY,NA,NA,NA,49.76
11901,Suffolk County,NY,NA,NA,NA,59.68
11949,Suffolk County,NY,99.625468164794,NA,NA,NA
11963,Suffolk County,NY,NA,NA,NA,89.60000000000001
11967,Suffolk County,NY,NA,69.46902654867256,NA,NA
12010,Montgomery County,NY,NA,7.079646017699115,7.727272727272727,NA
12054,Albany County,NY,NA,92.03539823008849,NA,NA
12189,Albany County,NY,NA,NA,NA,58.879999999999995
12198,Rensselaer County,NY,NA,NA,NA,88.8
12203,Albany County,NY,NA,45.35398230088495,NA,NA
12204,Albany County,NY,NA,NA,NA,75.52
12205,Albany County,NY,NA,NA,NA,45.28
12210,Albany County,NY,NA,65.929203539823,NA,NA
12302,Schenectady County,NY,NA,NA,NA,31.2
12303,Schenectady County,NY,NA,45.57522123893805,NA,NA
12304,Schenectady County,NY,NA,37.16814159292036,NA,NA
12306,Schenectady County,NY,NA,NA,NA,46.08
12508,Dutchess County,NY,NA,80.08849557522124,79.31818181818183,NA
12524,Dutchess County,NY,NA,NA,NA,81.28
12533,Dutchess County,NY,NA,NA,NA,63.2
12566,Ulster County,NY,NA,NA,NA,98.56
12590,Dutchess County,NY,NA,NA,NA,50.4
12603,Dutchess County,NY,NA,NA,NA,38.080000000000005
12754,Sullivan County,NY,NA,NA,NA,61.12
12804,Warren County,NY,NA,NA,13.863636363636363,NA
12816,Washington County,NY,NA,NA,NA,76.8
12866,Saratoga County,NY,NA,NA,12.954545454545455,83.52000000000001
12953,Franklin County,NY,NA,NA,NA,23.84
13021,Cayuga County,NY,NA,NA,3.4090909090909087,NA
13027,Onondaga County,NY,NA,NA,57.49999999999999,NA
13039,Onondaga County,NY,NA,NA,NA,85.11999999999999
13045,Cortland County,NY,NA,4.867256637168142,NA,NA
13066,Onondaga County,NY,NA,NA,NA,76.64
13069,Oswego County,NY,NA,7.52212389380531,NA,NA
13074,Oswego County,NY,93.63295880149812,NA,NA,NA
13082,Madison County,NY,NA,76.32743362831859,NA,NA
13088,Onondaga County,NY,NA,NA,NA,87.83999999999999
13090,Onondaga County,NY,46.81647940074906,NA,NA,NA
13092,Cayuga County,NY,NA,NA,99.31818181818181,NA
13126,Oswego County,NY,NA,NA,9.090909090909092,NA
13140,Cayuga County,NY,96.25468164794007,NA,NA,NA
13204,Onondaga County,NY,41.57303370786517,NA,NA,NA
13205,Onondaga County,NY,NA,18.58407079646018,NA,NA
13208,Onondaga County,NY,NA,NA,44.09090909090909,NA
13209,Onondaga County,NY,94.00749063670412,NA,NA,NA
13440,Oneida County,NY,NA,50.442477876106196,32.5,8.48
13669,St. Lawrence County,NY,NA,NA,25.90909090909091,NA
13760,Broome County,NY,NA,NA,0.6818181818181818,NA
13795,Broome County,NY,NA,76.54867256637168,NA,NA
13830,Chenango County,NY,NA,NA,NA,70.39999999999999
14048,Chautauqua County,NY,NA,NA,NA,79.84
14051,Erie County,NY,NA,48.23008849557522,NA,NA
14052,Erie County,NY,65.54307116104869,NA,NA,NA
14094,Niagara County,NY,NA,NA,NA,27.68
14150,Erie County,NY,NA,NA,8.181818181818182,NA
14204,Erie County,NY,NA,NA,61.13636363636363,NA
14212,Erie County,NY,NA,NA,77.72727272727272,NA
14215,Erie County,NY,NA,NA,9.772727272727273,NA
14217,Erie County,NY,NA,NA,NA,52
14220,Erie County,NY,NA,19.24778761061947,NA,NA
14224,Erie County,NY,NA,32.743362831858406,NA,NA
14227,Erie County,NY,NA,NA,30.227272727272727,NA
14437,Livingston County,NY,75.65543071161048,NA,50.45454545454545,NA
14454,Livingston County,NY,NA,75,NA,NA
14513,Wayne County,NY,NA,6.8584070796460175,5.227272727272727,NA
14589,Wayne County,NY,NA,NA,NA,96.32
14606,Monroe County,NY,39.70037453183521,NA,NA,NA
14612,Monroe County,NY,7.490636704119851,NA,2.5,NA
14620,Monroe County,NY,NA,8.849557522123893,NA,NA
14621,Monroe County,NY,2.6217228464419478,NA,NA,NA
14624,Monroe County,NY,NA,NA,3.6363636363636362,NA
14625,Monroe County,NY,NA,NA,NA,62.4
14733,Chautauqua County,NY,NA,85.39823008849558,NA,NA
14760,Cattaraugus County,NY,NA,NA,NA,57.28
14843,Steuben County,NY,NA,NA,NA,82.56
14901,Chemung County,NY,NA,NA,60.909090909090914,NA
27023,Forsyth County,NC,NA,NA,63.63636363636363,NA
27025,Rockingham County,NC,NA,NA,NA,84
27030,Surry County,NC,NA,9.734513274336283,2.727272727272727,0.8
27040,Forsyth County,NC,NA,91.3716814159292,NA,NA
27043,Stokes County,NC,74.90636704119851,NA,NA,NA
27106,Forsyth County,NC,NA,18.805309734513273,NA,1.1199999999999999
27107,Forsyth County,NC,NA,NA,NA,16.8
27215,Alamance County,NC,NA,NA,NA,8.799999999999999
27253,Alamance County,NC,NA,21.460176991150444,NA,32
27262,Guilford County,NC,NA,NA,NA,53.6
27265,Guilford County,NC,NA,26.10619469026549,NA,NA
27288,Rockingham County,NC,NA,NA,26.36363636363636,NA
27292,Davidson County,NC,NA,NA,1.8181818181818181,NA
27299,Davidson County,NC,NA,NA,NA,91.52
27360,Davidson County,NC,NA,4.424778761061947,NA,NA
27401,Guilford County,NC,NA,NA,94.54545454545455,NA
27406,Guilford County,NC,NA,5.530973451327434,NA,20
27407,Guilford County,NC,NA,NA,NA,38.879999999999995
27410,Guilford County,NC,NA,NA,NA,36.16
27455,Guilford County,NC,NA,NA,NA,81.92
27517,Orange County,NC,NA,60.61946902654868,NA,NA
27565,Granville County,NC,NA,NA,22.727272727272727,NA
27576,Johnston County,NC,NA,64.82300884955751,NA,NA
27583,Person County,NC,NA,NA,90.22727272727272,NA
27609,Wake County,NC,NA,42.47787610619469,NA,NA
27703,Durham County,NC,20.59925093632959,NA,NA,NA
27705,Durham County,NC,NA,NA,NA,21.12
27707,Durham County,NC,NA,NA,NA,20.48
27828,Pitt County,NC,NA,NA,98.86363636363636,NA
27850,Halifax County,NC,NA,NA,81.5909090909091,NA
27893,Wilson County,NC,26.96629213483146,NA,NA,NA
27909,Pasquotank County,NC,NA,NA,16.363636363636363,NA
28001,Stanly County,NC,NA,38.49557522123894,47.04545454545455,NA
28052,Gaston County,NC,NA,33.4070796460177,NA,NA
28054,Gaston County,NC,NA,25.221238938053098,NA,NA
28081,Cabarrus County,NC,NA,29.20353982300885,NA,37.76
28120,Gaston County,NC,NA,NA,NA,63.519999999999996
28144,Rowan County,NC,NA,NA,35.68181818181818,NA
28146,Rowan County,NC,NA,NA,NA,39.839999999999996
28210,Mecklenburg County,NC,NA,NA,62.95454545454545,NA
28212,Mecklenburg County,NC,NA,32.30088495575221,NA,NA
28214,Mecklenburg County,NC,20.224719101123593,NA,NA,NA
28215,Mecklenburg County,NC,NA,20.13274336283186,60,NA
28216,Mecklenburg County,NC,10.486891385767791,13.495575221238937,NA,NA
28303,Cumberland County,NC,37.453183520599254,NA,NA,NA
28306,Bladen County,NC,NA,NA,38.63636363636363,NA
28314,Cumberland County,NC,5.617977528089887,NA,NA,NA
28328,Sampson County,NC,NA,NA,25.681818181818183,NA
28340,Robeson County,NC,NA,NA,NA,96.96000000000001
28383,Robeson County,NC,86.14232209737828,NA,NA,NA
28411,New Hanover County,NC,NA,44.02654867256637,NA,NA
28412,New Hanover County,NC,41.947565543071164,NA,NA,NA
28441,Sampson County,NC,NA,100,NA,NA
28445,Onslow County,NC,90.63670411985018,NA,NA,NA
28469,Brunswick County,NC,NA,NA,NA,84.96000000000001
28562,Craven County,NC,NA,NA,NA,14.08
28580,Greene County,NC,NA,NA,NA,72.16
28655,Burke County,NC,NA,8.185840707964601,NA,8.16
28715,Buncombe County,NC,NA,56.19469026548673,NA,NA
28756,Polk County,NC,NA,NA,92.27272727272727,NA
28786,Haywood County,NC,NA,NA,NA,23.200000000000003
28787,Buncombe County,NC,64.41947565543072,NA,NA,NA
58503,Burleigh County,ND,NA,NA,NA,7.359999999999999
58554,Morton County,ND,NA,43.80530973451327,NA,NA
58701,Ward County,ND,NA,NA,12.272727272727273,2.08
43021,Delaware County,OH,NA,NA,85,NA
43026,Franklin County,OH,NA,NA,NA,49.120000000000005
43050,Knox County,OH,NA,NA,NA,6.72
43085,Franklin County,OH,NA,NA,NA,53.44
43130,Fairfield County,OH,NA,NA,4.772727272727273,NA
43201,Franklin County,OH,35.2059925093633,NA,NA,NA
43205,Franklin County,OH,NA,NA,NA,79.67999999999999
43219,Franklin County,OH,NA,19.911504424778762,NA,NA
43224,Franklin County,OH,0.37453183520599254,NA,NA,NA
43229,Franklin County,OH,0,NA,NA,NA
43230,Franklin County,OH,NA,NA,NA,23.68
43537,Lucas County,OH,NA,35.176991150442475,NA,NA
43543,Williams County,OH,NA,NA,NA,77.44
43611,Lucas County,OH,NA,NA,91.81818181818183,NA
43725,Guernsey County,OH,NA,NA,9.545454545454547,NA
43832,Tuscarawas County,OH,NA,NA,NA,84.8
43950,Belmont County,OH,39.70037453183521,NA,NA,NA
44017,Cuyahoga County,OH,NA,43.36283185840708,42.5,NA
44057,Lake County,OH,NA,NA,21.136363636363637,NA
44094,Lake County,OH,NA,23.893805309734514,NA,1.28
44102,Cuyahoga County,OH,0.7490636704119851,NA,NA,NA
44110,Cuyahoga County,OH,NA,NA,10.909090909090908,NA
44117,Cuyahoga County,OH,NA,NA,NA,44.32
44120,Cuyahoga County,OH,NA,3.982300884955752,NA,NA
44122,Cuyahoga County,OH,NA,30.30973451327434,76.13636363636364,NA
44125,Cuyahoga County,OH,NA,NA,NA,39.839999999999996
44128,Cuyahoga County,OH,NA,2.8761061946902653,NA,NA
44129,Cuyahoga County,OH,NA,NA,17.272727272727273,NA
44131,Cuyahoga County,OH,NA,NA,NA,4.96
44135,Cuyahoga County,OH,NA,NA,NA,24.8
44138,Cuyahoga County,OH,NA,NA,27.045454545454543,NA
44221,Summit County,OH,NA,NA,NA,13.76
44224,Summit County,OH,NA,27.876106194690266,NA,NA
44278,Summit County,OH,NA,NA,NA,46.88
44310,Summit County,OH,24.344569288389515,NA,NA,NA
44311,Summit County,OH,63.29588014981273,NA,NA,NA
44312,Summit County,OH,NA,NA,12.727272727272727,NA
44321,Summit County,OH,NA,80.30973451327434,NA,NA
44406,Mahoning County,OH,NA,NA,NA,24
44410,Trumbull County,OH,NA,NA,29.09090909090909,NA
44425,Trumbull County,OH,NA,NA,30,NA
44502,Mahoning County,OH,NA,NA,NA,81.12
44505,Mahoning County,OH,NA,NA,NA,70.72
44618,Wayne County,OH,NA,NA,78.63636363636364,NA
44622,Tuscarawas County,OH,NA,NA,NA,19.68
44646,Stark County,OH,NA,NA,NA,19.52
44685,Summit County,OH,NA,NA,NA,28.000000000000004
44691,Wayne County,OH,NA,10.619469026548673,NA,NA
44705,Stark County,OH,NA,32.52212389380531,NA,NA
44870,Erie County,OH,NA,19.02654867256637,NA,NA
44883,Seneca County,OH,23.595505617977526,NA,NA,NA
44903,Richland County,OH,NA,23.008849557522122,NA,NA
45011,Butler County,OH,NA,NA,5,NA
45013,Butler County,OH,NA,NA,NA,4.16
45036,Warren County,OH,11.235955056179774,NA,NA,NA
45044,Butler County,OH,NA,7.7433628318584065,NA,NA
45122,Clermont County,OH,NA,NA,96.36363636363636,NA
45150,Clermont County,OH,NA,NA,32.95454545454545,NA
45176,Clermont County,OH,NA,NA,82.72727272727273,NA
45203,Hamilton County,OH,NA,94.46902654867256,NA,NA
45215,Hamilton County,OH,NA,NA,NA,34.239999999999995
45216,Hamilton County,OH,NA,NA,NA,91.2
45371,Miami County,OH,NA,NA,NA,34.88
45402,Montgomery County,OH,NA,NA,NA,96.64
45403,Montgomery County,OH,NA,NA,80.22727272727272,NA
45410,Montgomery County,OH,NA,NA,69.54545454545455,NA
45419,Montgomery County,OH,NA,NA,77.04545454545455,NA
45601,Ross County,OH,NA,0.8849557522123894,NA,NA
45631,Gallia County,OH,NA,NA,NA,5.76
45638,Lawrence County,OH,NA,5.752212389380531,NA,NA
45662,Scioto County,OH,NA,NA,NA,3.84
45663,Scioto County,OH,NA,NA,67.5,NA
45669,Lawrence County,OH,NA,23.23008849557522,NA,NA
45692,Jackson County,OH,NA,NA,37.5,NA
45840,Hancock County,OH,NA,NA,NA,7.68
45856,Putnam County,OH,NA,NA,NA,88.32
73096,Custer County,OK,NA,NA,NA,77.28
73112,Oklahoma County,OK,NA,NA,55.45454545454545,NA
73114,Oklahoma County,OK,NA,61.283185840707965,NA,NA
73120,Oklahoma County,OK,NA,49.11504424778761,NA,NA
73127,Oklahoma County,OK,NA,NA,NA,68.8
73159,Oklahoma County,OK,NA,NA,30.681818181818183,NA
73701,Garfield County,OK,NA,53.76106194690266,NA,NA
73750,Kingfisher County,OK,NA,NA,79.54545454545455,NA
74006,Washington County,OK,NA,NA,45.45454545454545,NA
74017,Rogers County,OK,16.10486891385768,NA,NA,NA
74129,Tulsa County,OK,52.80898876404494,NA,NA,NA
74421,Okmulgee County,OK,96.62921348314607,NA,NA,NA
74464,Cherokee County,OK,NA,12.168141592920353,NA,NA
74467,Wagoner County,OK,NA,NA,62.727272727272734,NA
74501,Pittsburg County,OK,42.69662921348314,NA,NA,NA
74601,Kay County,OK,NA,NA,NA,72
74743,Choctaw County,OK,NA,NA,89.0909090909091,NA
97005,Washington County,OR,NA,79.86725663716814,NA,NA
97045,Clackamas County,OR,NA,19.690265486725664,NA,NA
97058,Wasco County,OR,NA,NA,33.86363636363636,NA
97141,Tillamook County,OR,NA,NA,85.45454545454545,NA
97215,Multnomah County,OR,NA,93.80530973451327,74.54545454545455,NA
97220,Multnomah County,OR,NA,42.0353982300885,NA,NA
97333,Benton County,OR,NA,NA,NA,57.120000000000005
97401,Lane County,OR,55.0561797752809,NA,NA,NA
97439,Lane County,OR,NA,NA,NA,17.919999999999998
97756,Deschutes County,OR,NA,NA,NA,39.68
15025,Allegheny County,PA,NA,NA,52.95454545454545,NA
15042,Beaver County,PA,NA,NA,77.5,NA
15108,Allegheny County,PA,NA,NA,58.409090909090914,NA
15120,Allegheny County,PA,NA,52.43362831858407,NA,NA
15132,Allegheny County,PA,9.363295880149813,NA,NA,NA
15145,Allegheny County,PA,NA,NA,NA,99.68
15146,Allegheny County,PA,NA,NA,35.45454545454545,NA
15210,Allegheny County,PA,66.29213483146067,NA,NA,NA
15234,Allegheny County,PA,NA,NA,NA,51.68000000000001
15301,Washington County,PA,NA,NA,NA,12.479999999999999
15314,Washington County,PA,100,NA,NA,NA
15417,Fayette County,PA,NA,NA,NA,79.2
15425,Fayette County,PA,NA,NA,NA,37.44
15601,Westmoreland County,PA,4.119850187265917,4.646017699115045,2.272727272727273,10.08
15626,Westmoreland County,PA,NA,NA,NA,75.2
15668,Westmoreland County,PA,NA,NA,NA,35.68
15683,Westmoreland County,PA,NA,NA,NA,93.28
15748,Indiana County,PA,NA,NA,NA,88
15853,Elk County,PA,NA,NA,NA,86.08
15901,Cambria County,PA,NA,NA,NA,82.72
15905,Cambria County,PA,NA,NA,40.68181818181818,NA
15909,Cambria County,PA,NA,90.04424778761062,NA,NA
16117,Lawrence County,PA,NA,NA,52.5,NA
16365,Warren County,PA,17.228464419475657,NA,NA,NA
16407,Erie County,PA,NA,NA,71.81818181818181,NA
16510,Erie County,PA,NA,46.017699115044245,NA,NA
16828,Centre County,PA,NA,91.5929203539823,NA,NA
16933,Tioga County,PA,NA,NA,NA,93.60000000000001
17015,Cumberland County,PA,NA,NA,33.63636363636363,NA
17059,Juniata County,PA,NA,NA,85.9090909090909,NA
17066,Huntingdon County,PA,NA,NA,88.18181818181819,NA
17070,Cumberland County,PA,NA,NA,48.18181818181818,NA
17201,Franklin County,PA,NA,NA,23.863636363636363,NA
17202,Franklin County,PA,60.2996254681648,NA,NA,NA
17257,Cumberland County,PA,NA,30.752212389380528,NA,37.92
17319,York County,PA,NA,NA,72.95454545454545,NA
17331,York County,PA,NA,NA,NA,1.6
17356,York County,PA,NA,NA,NA,39.2
17408,York County,PA,NA,NA,18.636363636363637,NA
17754,Lycoming County,PA,NA,NA,NA,64.32
17756,Lycoming County,PA,NA,NA,NA,80.32000000000001
17870,Snyder County,PA,NA,NA,NA,42.4
18013,Northampton County,PA,NA,NA,48.40909090909091,NA
18015,Northampton County,PA,NA,NA,NA,15.040000000000001
18017,Northampton County,PA,NA,83.6283185840708,5.681818181818182,45.76
18020,Northampton County,PA,NA,NA,NA,61.760000000000005
18040,Northampton County,PA,NA,NA,NA,43.36
18041,Montgomery County,PA,NA,NA,NA,100
18042,Northampton County,PA,NA,7.964601769911504,NA,NA
18045,Northampton County,PA,NA,NA,NA,9.6
18064,Northampton County,PA,NA,NA,NA,19.36
18066,Lehigh County,PA,NA,NA,81.81818181818183,NA
18080,Lehigh County,PA,NA,53.31858407079646,NA,NA
18088,Northampton County,PA,NA,NA,66.13636363636364,NA
18201,Luzerne County,PA,NA,25.442477876106196,NA,NA
18202,Luzerne County,PA,NA,NA,NA,48.96
18252,Schuylkill County,PA,NA,NA,59.54545454545455,NA
18337,Pike County,PA,NA,NA,72.27272727272728,NA
18353,Monroe County,PA,NA,NA,NA,95.36
18411,Lackawanna County,PA,NA,NA,NA,26.08
18509,Lackawanna County,PA,NA,NA,71.5909090909091,NA
18610,Monroe County,PA,NA,NA,96.13636363636363,NA
18644,Luzerne County,PA,NA,NA,NA,79.03999999999999
18705,Luzerne County,PA,NA,NA,NA,31.04
18822,Susquehanna County,PA,NA,NA,NA,91.36
18901,Bucks County,PA,NA,NA,NA,11.360000000000001
18951,Bucks County,PA,NA,58.1858407079646,NA,29.12
18974,Bucks County,PA,NA,NA,15.227272727272728,NA
19002,Montgomery County,PA,NA,NA,25.454545454545453,NA
19003,Montgomery County,PA,NA,NA,NA,80.16
19020,Bucks County,PA,NA,11.504424778761061,NA,NA
19021,Bucks County,PA,89.8876404494382,NA,NA,NA
19040,Montgomery County,PA,NA,NA,NA,32.48
19041,Delaware County,PA,NA,NA,NA,74.4
19044,Montgomery County,PA,NA,68.14159292035397,NA,NA
19060,Delaware County,PA,77.15355805243446,NA,NA,NA
19072,Montgomery County,PA,NA,NA,NA,89.60000000000001
19086,Delaware County,PA,NA,NA,75.22727272727273,NA
19104,Philadelphia County,PA,NA,15.04424778761062,NA,NA
19107,Philadelphia County,PA,NA,53.09734513274337,53.86363636363637,NA
19115,Philadelphia County,PA,NA,NA,22.5,NA
19116,Philadelphia County,PA,NA,NA,17.954545454545453,NA
19119,Philadelphia County,PA,NA,NA,NA,42.72
19120,Philadelphia County,PA,NA,22.345132743362832,NA,47.199999999999996
19122,Philadelphia County,PA,NA,NA,NA,82.08
19124,Philadelphia County,PA,NA,1.5486725663716814,14.09090909090909,28.16
19128,Philadelphia County,PA,NA,24.336283185840706,NA,NA
19130,Philadelphia County,PA,NA,NA,38.63636363636363,NA
19134,Philadelphia County,PA,NA,NA,17.5,NA
19138,Philadelphia County,PA,33.70786516853933,NA,NA,NA
19139,Philadelphia County,PA,NA,5.0884955752212395,NA,NA
19143,Philadelphia County,PA,NA,1.3274336283185841,NA,NA
19144,Philadelphia County,PA,NA,5.9734513274336285,NA,NA
19342,Delaware County,PA,61.04868913857678,NA,80.68181818181817,NA
19380,Chester County,PA,NA,NA,NA,4
19440,Montgomery County,PA,NA,NA,69.31818181818183,NA
19460,Chester County,PA,NA,NA,NA,23.04
19462,Montgomery County,PA,76.77902621722846,NA,NA,NA
19512,Berks County,PA,NA,66.8141592920354,NA,NA
19518,Berks County,PA,51.68539325842697,NA,NA,NA
19522,Berks County,PA,NA,NA,39.09090909090909,NA
19605,Berks County,PA,NA,NA,NA,24.8
19610,Berks County,PA,NA,NA,NA,25.919999999999998
02813,Washington County,RI,NA,NA,70.68181818181817,NA
02861,Providence County,RI,NA,NA,70,NA
02864,Providence County,RI,NA,NA,20.227272727272727,NA
02893,Kent County,RI,44.19475655430712,NA,NA,NA
02895,Providence County,RI,NA,NA,NA,29.759999999999998
02904,Providence County,RI,NA,NA,NA,19.84
02909,Providence County,RI,NA,24.778761061946902,NA,NA
29053,Lexington County,SC,NA,63.05309734513275,NA,NA
29072,Lexington County,SC,NA,NA,NA,32.64
29115,Orangeburg County,SC,NA,NA,NA,80.64
29118,Orangeburg County,SC,NA,96.68141592920354,NA,NA
29130,Fairfield County,SC,NA,90.48672566371681,NA,NA
29150,Sumter County,SC,NA,NA,NA,22.56
29203,Richland County,SC,NA,NA,24.545454545454547,36.480000000000004
29209,Richland County,SC,NA,52.654867256637175,NA,NA
29212,Lexington County,SC,70.0374531835206,NA,NA,NA
29229,Richland County,SC,NA,45.13274336283185,NA,NA
29306,Spartanburg County,SC,NA,NA,72.04545454545455,NA
29369,Spartanburg County,SC,NA,NA,90.9090909090909,NA
29407,Charleston County,SC,NA,NA,NA,16.16
29410,Berkeley County,SC,NA,NA,NA,70.24000000000001
29418,Charleston County,SC,NA,NA,NA,87.68
29429,Charleston County,SC,95.88014981273409,NA,NA,NA
29440,Georgetown County,SC,NA,54.20353982300885,52.27272727272727,NA
29464,Charleston County,SC,NA,51.76991150442478,NA,NA
29488,Colleton County,SC,NA,41.3716814159292,NA,NA
29501,Florence County,SC,NA,38.27433628318584,NA,NA
29510,Georgetown County,SC,84.26966292134831,NA,NA,NA
29526,Horry County,SC,NA,NA,14.772727272727273,NA
29550,Darlington County,SC,NA,NA,25.227272727272727,NA
29611,Greenville County,SC,NA,18.141592920353983,NA,NA
29624,Anderson County,SC,NA,NA,58.63636363636363,NA
29631,Pickens County,SC,NA,98.00884955752213,NA,NA
29646,Greenwood County,SC,NA,NA,93.18181818181817,28.96
29654,Anderson County,SC,NA,NA,70.45454545454545,NA
29657,Pickens County,SC,NA,NA,66.5909090909091,NA
29707,Lancaster County,SC,NA,NA,54.090909090909086,NA
29710,York County,SC,NA,NA,NA,51.519999999999996
29715,York County,SC,NA,NA,NA,64
29730,York County,SC,NA,25,NA,NA
29805,Aiken County,SC,NA,NA,97.72727272727273,NA
29829,Aiken County,SC,77.15355805243446,NA,NA,NA
29835,McCormick County,SC,NA,NA,73.86363636363636,NA
57401,Brown County,SD,7.865168539325842,NA,NA,NA
37013,Davidson County,TN,2.9962546816479403,NA,NA,NA
37061,Houston County,TN,NA,89.82300884955751,NA,NA
37062,Williamson County,TN,NA,NA,NA,84.48
37066,Sumner County,TN,NA,NA,NA,26.240000000000002
37083,Macon County,TN,NA,NA,37.04545454545455,NA
37091,Marshall County,TN,NA,NA,NA,61.919999999999995
37110,Warren County,TN,NA,NA,NA,29.759999999999998
37115,Davidson County,TN,NA,16.371681415929203,NA,NA
37128,Rutherford County,TN,NA,NA,NA,65.44
37130,Rutherford County,TN,20.973782771535582,NA,NA,NA
37160,Bedford County,TN,NA,NA,NA,40.160000000000004
37174,Williamson County,TN,NA,55.75221238938053,NA,NA
37206,Davidson County,TN,NA,NA,46.590909090909086,NA
37221,Davidson County,TN,60.67415730337079,NA,NA,35.839999999999996
37329,McMinn County,TN,92.88389513108615,NA,NA,NA
37416,Hamilton County,TN,76.40449438202246,NA,NA,74.24
37601,Washington County,TN,NA,21.68141592920354,NA,NA
37642,Hawkins County,TN,NA,NA,NA,69.28
37643,Carter County,TN,NA,17.25663716814159,11.59090909090909,NA
37650,Unicoi County,TN,NA,NA,50.90909090909091,NA
37663,Sullivan County,TN,NA,NA,68.63636363636364,NA
37664,Sullivan County,TN,NA,27.212389380530972,NA,NA
37738,Sevier County,TN,88.38951310861424,NA,NA,NA
37769,Anderson County,TN,NA,85.17699115044249,NA,NA
37771,Loudon County,TN,NA,NA,NA,76.48
37777,Blount County,TN,NA,NA,NA,86.72
37803,Blount County,TN,41.19850187265918,NA,NA,NA
37814,Hamblen County,TN,47.940074906367045,NA,NA,NA
37849,Knox County,TN,NA,74.5575221238938,NA,NA
37862,Sevier County,TN,NA,NA,NA,43.519999999999996
37879,Claiborne County,TN,55.80524344569289,NA,NA,NA
37919,Knox County,TN,NA,NA,42.72727272727273,NA
37920,Knox County,TN,NA,NA,NA,34.72
37934,Knox County,TN,NA,NA,NA,48.64
38017,Shelby County,TN,NA,NA,57.49999999999999,NA
38107,Shelby County,TN,NA,48.89380530973451,NA,NA
38108,Shelby County,TN,NA,NA,61.59090909090909,NA
38109,Shelby County,TN,3.7453183520599254,NA,NA,NA
38115,Shelby County,TN,16.479400749063668,NA,64.77272727272727,NA
38128,Shelby County,TN,NA,NA,NA,66.08000000000001
38134,Shelby County,TN,NA,NA,NA,84.16
38141,Shelby County,TN,53.558052434456926,NA,NA,NA
38225,Weakley County,TN,NA,NA,NA,97.6
38242,Henry County,TN,NA,55.088495575221245,NA,NA
38340,Chester County,TN,NA,NA,NA,67.52
38401,Maury County,TN,NA,NA,10.227272727272728,NA
38501,Putnam County,TN,32.58426966292135,NA,NA,NA
38583,White County,TN,NA,NA,NA,24
75025,Collin County,TX,56.55430711610487,NA,NA,NA
75032,Rockwall County,TX,NA,66.5929203539823,NA,NA
75050,Dallas County,TX,NA,49.7787610619469,NA,NA
75069,Collin County,TX,NA,55.97345132743363,NA,NA
75092,Grayson County,TX,NA,54.86725663716814,NA,NA
75126,Kaufman County,TX,NA,NA,NA,66.4
75146,Dallas County,TX,NA,NA,NA,66.72
75148,Henderson County,TX,NA,98.45132743362832,NA,NA
75165,Ellis County,TX,NA,34.51327433628318,NA,24.64
75204,Dallas County,TX,54.30711610486891,NA,NA,NA
75206,Dallas County,TX,NA,57.52212389380531,NA,NA
75214,Dallas County,TX,NA,NA,NA,62.239999999999995
75217,Dallas County,TX,4.868913857677903,NA,NA,NA
75220,Dallas County,TX,34.831460674157306,NA,NA,NA
75223,Dallas County,TX,NA,88.49557522123894,NA,NA
75231,Dallas County,TX,NA,NA,NA,64
75241,Dallas County,TX,NA,NA,NA,22.400000000000002
75287,Denton County,TX,NA,NA,55.68181818181818,NA
75501,Bowie County,TX,NA,68.80530973451327,NA,NA
75605,Gregg County,TX,NA,NA,44.31818181818182,NA
75647,Gregg County,TX,NA,NA,75.22727272727273,NA
75654,Rusk County,TX,NA,NA,NA,60.96
75672,Harrison County,TX,NA,88.71681415929203,NA,NA
75702,Smith County,TX,NA,44.690265486725664,NA,NA
75708,Smith County,TX,NA,NA,NA,94.72
75783,Wood County,TX,NA,NA,33.409090909090914,NA
75785,Cherokee County,TX,NA,NA,86.81818181818181,NA
75966,Newton County,TX,NA,NA,NA,82.39999999999999
76002,Tarrant County,TX,41.947565543071164,NA,NA,NA
76006,Tarrant County,TX,58.80149812734082,NA,NA,NA
76014,Tarrant County,TX,NA,NA,NA,71.52
76052,Tarrant County,TX,NA,NA,NA,97.44
76078,Wise County,TX,NA,NA,NA,94.88
76110,Tarrant County,TX,36.329588014981276,NA,NA,NA
76134,Tarrant County,TX,NA,NA,67.95454545454545,NA
76179,Tarrant County,TX,NA,36.50442477876106,NA,NA
76180,Tarrant County,TX,NA,NA,NA,31.680000000000003
76208,Denton County,TX,56.17977528089888,NA,NA,NA
76234,Wise County,TX,70.0374531835206,NA,NA,NA
76244,Tarrant County,TX,NA,32.9646017699115,59.09090909090909,NA
76548,Bell County,TX,NA,NA,20.909090909090907,NA
76550,Lampasas County,TX,NA,68.58407079646017,NA,NA
76633,McLennan County,TX,NA,93.14159292035397,NA,NA
76642,Limestone County,TX,90.63670411985018,NA,NA,NA
76877,San Saba County,TX,NA,99.11504424778761,NA,NA
77012,Harris County,TX,NA,NA,NA,90.08
77017,Harris County,TX,64.7940074906367,NA,NA,NA
77080,Harris County,TX,48.31460674157304,NA,NA,NA
77082,Harris County,TX,NA,56.85840707964602,NA,NA
77301,Montgomery County,TX,NA,84.2920353982301,NA,NA
77304,Montgomery County,TX,NA,NA,NA,55.84
77339,Harris County,TX,NA,64.60176991150442,NA,NA
77354,Montgomery County,TX,NA,NA,NA,39.36
77355,Montgomery County,TX,61.79775280898876,NA,NA,NA
77375,Harris County,TX,NA,28.761061946902654,NA,NA
77429,Harris County,TX,NA,NA,6.59090909090909,NA
77449,Harris County,TX,NA,14.823008849557523,NA,NA
77469,Fort Bend County,TX,NA,36.283185840707965,NA,NA
77478,Fort Bend County,TX,NA,NA,54.54545454545454,NA
77498,Fort Bend County,TX,65.1685393258427,NA,NA,NA
77521,Harris County,TX,NA,35.84070796460177,NA,NA
77523,Chambers County,TX,NA,65.04424778761062,NA,NA
77530,Harris County,TX,61.04868913857678,NA,NA,NA
77532,Harris County,TX,NA,NA,NA,71.67999999999999
77546,Galveston County,TX,25.0936329588015,NA,NA,NA
77640,Jefferson County,TX,71.91011235955057,NA,NA,NA
77833,Washington County,TX,NA,53.53982300884957,NA,NA
78002,Bexar County,TX,NA,NA,98.63636363636363,NA
78013,Kendall County,TX,NA,99.5575221238938,NA,NA
78040,Webb County,TX,NA,48.451327433628315,NA,NA
78043,Webb County,TX,NA,NA,NA,33.12
78045,Webb County,TX,NA,NA,36.59090909090909,NA
78064,Atascosa County,TX,NA,NA,83.63636363636363,NA
78076,Zapata County,TX,NA,NA,97.5,NA
78148,Bexar County,TX,80.89887640449437,NA,NA,NA
78155,Guadalupe County,TX,NA,NA,NA,36.32
78213,Bexar County,TX,NA,NA,NA,51.68000000000001
78217,Bexar County,TX,NA,71.68141592920354,NA,NA
78237,Bexar County,TX,18.726591760299627,NA,26.590909090909093,NA
78244,Bexar County,TX,NA,66.3716814159292,NA,NA
78259,Bexar County,TX,70.78651685393258,NA,NA,NA
78405,Nueces County,TX,48.68913857677903,NA,NA,NA
78410,Nueces County,TX,NA,NA,NA,89.92
78550,Cameron County,TX,15.730337078651685,NA,NA,NA
78570,Hidalgo County,TX,22.846441947565545,NA,NA,NA
78572,Hidalgo County,TX,22.09737827715356,NA,NA,5.12
78573,Hidalgo County,TX,NA,NA,NA,26.56
78580,Willacy County,TX,NA,NA,NA,92.96
78617,Travis County,TX,57.67790262172284,NA,NA,NA
78641,Williamson County,TX,NA,NA,NA,34.08
78660,Travis County,TX,19.850187265917604,NA,NA,NA
78666,Hays County,TX,16.853932584269664,NA,NA,NA
78681,Williamson County,TX,NA,NA,NA,27.200000000000003
78701,Travis County,TX,NA,NA,95.9090909090909,NA
78702,Travis County,TX,NA,78.98230088495575,NA,78.4
78723,Travis County,TX,51.31086142322098,NA,NA,NA
78746,Travis County,TX,NA,94.69026548672566,NA,NA
78752,Travis County,TX,NA,94.02654867256636,NA,NA
78754,Travis County,TX,NA,NA,93.86363636363636,NA
78852,Maverick County,TX,37.82771535580524,NA,NA,NA
79201,Childress County,TX,94.7565543071161,NA,NA,NA
79556,Nolan County,TX,NA,63.93805309734514,NA,NA
79756,Ward County,TX,NA,NA,NA,68.32000000000001
79763,Ector County,TX,13.857677902621724,NA,NA,NA
79772,Reeves County,TX,NA,NA,NA,93.92
79915,El Paso County,TX,NA,NA,NA,14.56
79924,El Paso County,TX,NA,NA,31.136363636363633,NA
79928,El Paso County,TX,23.970037453183522,NA,NA,NA
79938,El Paso County,TX,55.430711610486895,NA,NA,NA
84015,Davis County,UT,NA,NA,NA,67.2
84098,Summit County,UT,NA,70.57522123893806,NA,NA
84103,Salt Lake County,UT,NA,70.79646017699115,NA,NA
84121,Salt Lake County,UT,NA,NA,NA,20.32
84405,Weber County,UT,54.30711610486891,NA,NA,60.8
84737,Washington County,UT,NA,NA,NA,75.52
05250,Bennington County,VT,NA,NA,97.27272727272728,NA
05401,Chittenden County,VT,NA,NA,NA,50.56
05452,Chittenden County,VT,NA,NA,NA,46.56
20124,Fairfax County,VA,NA,NA,NA,95.52000000000001
20155,Prince William County,VA,NA,NA,NA,56.64
20171,Fairfax County,VA,NA,NA,NA,86.24000000000001
20176,Loudoun County,VA,NA,NA,NA,55.36
22030,Fairfax County,VA,NA,NA,70.22727272727273,75.36
22151,Fairfax County,VA,82.39700374531836,NA,NA,NA
22193,Prince William County,VA,9.737827715355806,NA,NA,NA
22202,Arlington County,VA,NA,NA,NA,82.24000000000001
22308,Fairfax County,VA,79.40074906367042,NA,NA,NA
22312,Fairfax County,VA,NA,NA,NA,90.56
22407,Spotsylvania County,VA,NA,22.566371681415927,NA,29.439999999999998
22408,Spotsylvania County,VA,NA,NA,63.40909090909091,NA
22443,Westmoreland County,VA,NA,89.38053097345133,NA,NA
22546,Caroline County,VA,NA,75.4424778761062,NA,NA
22554,Stafford County,VA,27.340823970037455,38.05309734513274,NA,NA
22902,Charlottesville city,VA,NA,NA,NA,41.92
22903,Charlottesville city,VA,NA,34.95575221238938,NA,NA
22911,Albemarle County,VA,NA,NA,NA,30.4
23093,Louisa County,VA,NA,NA,NA,59.199999999999996
23117,Louisa County,VA,NA,NA,60.68181818181818,NA
23227,Henrico County,VA,NA,NA,NA,30.080000000000002
23233,Henrico County,VA,NA,NA,75,NA
23314,Isle of Wight County,VA,NA,NA,82.5,NA
23320,Chesapeake city,VA,NA,NA,NA,8.48
23430,Isle of Wight County,VA,NA,NA,35.90909090909091,NA
23434,Suffolk city,VA,NA,20.575221238938052,NA,NA
23452,Virginia Beach city,VA,NA,29.424778761061948,12.045454545454545,7.199999999999999
23462,Virginia Beach city,VA,NA,NA,13.636363636363635,NA
23502,Norfolk city,VA,NA,NA,34.77272727272727,NA
23503,Norfolk city,VA,NA,NA,42.04545454545455,NA
23666,Hampton city,VA,NA,15.486725663716813,NA,6.88
23832,Chesterfield County,VA,NA,52.654867256637175,NA,NA
23847,Greensville County,VA,82.77153558052434,NA,NA,NA
23947,Charlotte County,VA,NA,NA,NA,97.92
24055,Henry County,VA,NA,NA,NA,64.64
24112,Henry County,VA,NA,55.309734513274336,NA,NA
24401,Staunton city,VA,NA,NA,NA,6.4
24523,Bedford County,VA,NA,NA,NA,37.28
24540,Danville city,VA,NA,34.292035398230084,NA,43.2
24551,Bedford County,VA,NA,87.16814159292035,NA,NA
24577,Halifax County,VA,NA,NA,NA,83.67999999999999
24592,Halifax County,VA,NA,NA,NA,32.32
24605,Tazewell County,VA,NA,70.13274336283186,NA,NA
98008,King County,WA,NA,NA,NA,33.92
98021,Snohomish County,WA,NA,NA,53.63636363636364,NA
98040,King County,WA,NA,74.33628318584071,NA,NA
98053,King County,WA,NA,77.65486725663717,NA,NA
98121,King County,WA,NA,NA,70.9090909090909,NA
98133,King County,WA,NA,NA,23.636363636363637,NA
98198,King County,WA,NA,48.67256637168141,NA,NA
98204,Snohomish County,WA,22.47191011235955,NA,NA,NA
98261,San Juan County,WA,NA,NA,97.95454545454545,NA
98270,Snohomish County,WA,NA,NA,34.54545454545455,NA
98274,Skagit County,WA,NA,NA,NA,33.28
98332,Pierce County,WA,NA,NA,NA,85.92
98362,Clallam County,WA,NA,40.929203539823014,NA,NA
98373,Pierce County,WA,28.83895131086142,NA,NA,NA
98375,Pierce County,WA,NA,58.62831858407079,NA,NA
98406,Pierce County,WA,NA,NA,NA,48.16
98407,Pierce County,WA,NA,NA,53.18181818181819,NA
98446,Pierce County,WA,NA,91.8141592920354,NA,NA
98498,Pierce County,WA,NA,62.61061946902655,NA,NA
98528,Mason County,WA,NA,NA,NA,74.08
98620,Klickitat County,WA,NA,80.97345132743364,NA,NA
98626,Cowlitz County,WA,NA,NA,34.090909090909086,NA
98632,Cowlitz County,WA,NA,NA,7.5,NA
98661,Clark County,WA,40.823970037453186,NA,NA,NA
99201,Spokane County,WA,NA,NA,NA,79.52
99328,Columbia County,WA,NA,NA,NA,94.56
99336,Benton County,WA,NA,NA,NA,4.4799999999999995
20001,District of Columbia,DC,NA,26.769911504424783,NA,36.64
20010,District of Columbia,DC,NA,NA,NA,93.76
20011,District of Columbia,DC,18.352059925093634,NA,NA,4.32
20019,District of Columbia,DC,NA,NA,7.045454545454545,NA
20024,District of Columbia,DC,NA,NA,NA,85.28
20032,District of Columbia,DC,10.486891385767791,7.300884955752212,NA,NA
24986,Greenbrier County,WV,NA,NA,NA,93.44
25123,Mason County,WV,NA,98.23008849557522,NA,NA
25302,Kanawha County,WV,88.01498127340824,NA,NA,NA
25311,Kanawha County,WV,NA,NA,NA,60
25404,Berkeley County,WV,NA,46.23893805309734,NA,NA
25414,Jefferson County,WV,NA,67.2566371681416,NA,NA
25504,Cabell County,WV,NA,64.38053097345133,NA,NA
25510,Cabell County,WV,NA,96.23893805309734,NA,NA
25530,Wayne County,WV,NA,NA,NA,87.36
25550,Mason County,WV,NA,57.30088495575221,NA,NA
25702,Cabell County,WV,NA,90.7079646017699,NA,NA
25704,Wayne County,WV,NA,35.39823008849557,NA,NA
25801,Raleigh County,WV,15.355805243445692,NA,NA,NA
25901,Fayette County,WV,NA,NA,NA,85.76
26003,Ohio County,WV,NA,NA,4.318181818181818,NA
26062,Hancock County,WV,NA,NA,NA,10.56
26101,Wood County,WV,NA,6.415929203539823,NA,NA
26187,Wood County,WV,NA,NA,NA,54.72
26541,Monongalia County,WV,NA,92.92035398230088,NA,NA
26726,Mineral County,WV,NA,NA,43.18181818181818,NA
53022,Washington County,WI,NA,NA,NA,57.76
53095,Washington County,WI,26.217228464419474,58.4070796460177,NA,NA
53110,Milwaukee County,WI,NA,NA,36.36363636363637,NA
53121,Walworth County,WI,NA,NA,32.27272727272727,NA
53130,Milwaukee County,WI,NA,88.93805309734513,NA,NA
53140,Kenosha County,WI,NA,15.70796460176991,NA,NA
53143,Kenosha County,WI,NA,NA,32.04545454545455,NA
53188,Waukesha County,WI,NA,30.08849557522124,21.59090909090909,NA
53205,Milwaukee County,WI,33.33333333333333,2.6548672566371683,NA,NA
53209,Milwaukee County,WI,2.247191011235955,20.79646017699115,3.1818181818181817,NA
53210,Milwaukee County,WI,11.610486891385769,NA,NA,NA
53212,Milwaukee County,WI,NA,51.10619469026548,17.727272727272727,NA
53214,Milwaukee County,WI,NA,16.150442477876105,NA,NA
53216,Milwaukee County,WI,NA,NA,NA,44.64
53218,Milwaukee County,WI,4.49438202247191,NA,NA,NA
53225,Milwaukee County,WI,NA,NA,74.77272727272727,NA
53228,Milwaukee County,WI,NA,NA,51.13636363636363,NA
53402,Racine County,WI,NA,8.628318584070795,4.318181818181818,NA
53527,Dane County,WI,83.52059925093633,NA,NA,NA
53532,Dane County,WI,NA,NA,NA,80.32000000000001
53545,Rock County,WI,NA,NA,NA,16.96
53704,Dane County,WI,NA,NA,20.454545454545457,NA
53711,Dane County,WI,NA,NA,19.318181818181817,NA
53821,Crawford County,WI,NA,NA,83.4090909090909,NA
54017,St. Croix County,WI,38.951310861423224,NA,NA,NA
54022,Pierce County,WI,68.91385767790263,NA,NA,NA
54151,Marinette County,WI,NA,NA,NA,98.4
54217,Kewaunee County,WI,NA,90.2654867256637,NA,NA
54311,Brown County,WI,NA,NA,NA,23.52
54449,Wood County,WI,NA,NA,78.4090909090909,NA
54467,Portage County,WI,NA,NA,43.86363636363637,NA
54481,Portage County,WI,NA,NA,NA,7.84
54636,La Crosse County,WI,NA,71.01769911504425,NA,NA
54703,Eau Claire County,WI,NA,60.84070796460177,NA,NA
54751,Dunn County,WI,NA,NA,NA,12.32
54914,Outagamie County,WI,37.82771535580524,NA,NA,NA
82520,Fremont County,WY,NA,94.91150442477876,NA,NA
82935,Sweetwater County,WY,NA,NA,82.95454545454545,NA
