ZipCode,county,state,Youth
35131,St. Clair County,AL,96.21848739495799
35160,Talladega County,AL,9.243697478991598
35650,Lawrence County,AL,62.18487394957983
85009,Maricopa County,AZ,10.084033613445378
85022,Maricopa County,AZ,37.39495798319328
85040,Maricopa County,AZ,27.73109243697479
85043,Maricopa County,AZ,48.319327731092436
85044,Maricopa County,AZ,69.74789915966386
85298,Maricopa County,AZ,63.86554621848739
85308,Maricopa County,AZ,22.689075630252102
85353,Maricopa County,AZ,78.57142857142857
72450,Greene County,AR,28.15126050420168
90012,Los Angeles County,CA,78.15126050420169
90061,Los Angeles County,CA,93.69747899159664
90275,Los Angeles County,CA,74.78991596638656
90804,Los Angeles County,CA,67.22689075630252
91208,Los Angeles County,CA,92.85714285714286
91942,San Diego County,CA,86.1344537815126
92040,San Diego County,CA,52.94117647058824
92107,San Diego County,CA,81.09243697478992
92116,San Diego County,CA,63.4453781512605
92124,San Diego County,CA,83.61344537815127
92130,San Diego County,CA,58.82352941176471
92223,Riverside County,CA,47.05882352941176
92243,Imperial County,CA,35.294117647058826
92316,San Bernardino County,CA,89.49579831932773
92335,San Bernardino County,CA,15.546218487394958
92583,Riverside County,CA,43.69747899159664
92614,Orange County,CA,97.05882352941177
92679,Orange County,CA,87.39495798319328
92707,Orange County,CA,47.89915966386555
92708,Orange County,CA,58.40336134453782
92870,Orange County,CA,57.98319327731093
93307,Kern County,CA,26.47058823529412
93308,Kern County,CA,17.647058823529413
93465,San Luis Obispo County,CA,86.97478991596638
93635,Merced County,CA,86.5546218487395
93720,Fresno County,CA,28.991596638655466
94588,Alameda County,CA,68.0672268907563
94952,Sonoma County,CA,76.47058823529412
95206,San Joaquin County,CA,39.91596638655462
95843,Sacramento County,CA,94.9579831932773
95965,Butte County,CA,38.23529411764706
80016,Arapahoe County,CO,5.88235294117647
80214,Jefferson County,CO,38.655462184873954
80231,Denver County,CO,39.91596638655462
80234,Adams County,CO,50.42016806722689
80260,Adams County,CO,7.142857142857142
80503,Boulder County,CO,54.621848739495796
80525,Larimer County,CO,19.747899159663866
80634,Weld County,CO,6.722689075630252
81503,Mesa County,CO,65.96638655462185
06070,Hartford County,CT,83.19327731092437
06108,Hartford County,CT,36.134453781512605
06512,New Haven County,CT,68.0672268907563
19809,New Castle County,DE,90.75630252100841
32025,Columbia County,FL,34.45378151260504
32055,Columbia County,FL,52.52100840336135
32216,Duval County,FL,30.672268907563026
32428,Washington County,FL,70.58823529411765
32501,Escambia County,FL,25.630252100840334
32571,Santa Rosa County,FL,51.68067226890757
32751,Orange County,FL,89.91596638655463
32771,Seminole County,FL,44.957983193277315
32909,Brevard County,FL,74.36974789915966
33040,Monroe County,FL,62.60504201680672
33160,Miami-Dade County,FL,93.27731092436974
33444,Palm Beach County,FL,82.35294117647058
33976,Lee County,FL,76.47058823529412
34946,St. Lucie County,FL,87.81512605042016
30127,Cobb County,GA,18.907563025210084
30135,Douglas County,GA,10.92436974789916
30188,Cherokee County,GA,46.21848739495798
30228,Henry County,GA,73.10924369747899
30252,Henry County,GA,68.0672268907563
30620,Barrow County,GA,84.45378151260505
31803,Marion County,GA,95.7983193277311
60015,Lake County,IL,60.50420168067227
60126,DuPage County,IL,15.126050420168067
60440,Will County,IL,66.38655462184873
60462,Cook County,IL,20.588235294117645
60504,DuPage County,IL,42.857142857142854
60543,Kendall County,IL,26.05042016806723
60555,DuPage County,IL,75.63025210084034
60647,Cook County,IL,19.747899159663866
61571,Tazewell County,IL,97.89915966386555
62234,Madison County,IL,78.99159663865547
46036,Madison County,IN,84.87394957983193
46947,Cass County,IN,0
47006,Ripley County,IN,84.03361344537815
47523,Spencer County,IN,98.73949579831933
47905,Tippecanoe County,IN,65.54621848739495
50003,Dallas County,IA,96.63865546218487
51566,Montgomery County,IA,77.73109243697479
40229,Jefferson County,KY,18.907563025210084
40361,Bourbon County,KY,64.70588235294117
41011,Kenton County,KY,56.30252100840336
41071,Campbell County,KY,57.56302521008403
42071,Calloway County,KY,81.9327731092437
42101,Warren County,KY,16.80672268907563
70501,Lafayette Parish,LA,0.42016806722689076
70634,Beauregard Parish,LA,8.403361344537815
70647,Calcasieu Parish,LA,75.21008403361344
70791,East Baton Rouge Parish,LA,23.52941176470588
71446,Vernon Parish,LA,31.512605042016805
21012,Anne Arundel County,MD,71.84873949579831
21212,Baltimore city,MD,54.20168067226891
21239,Baltimore city,MD,21.84873949579832
01507,Worcester County,MA,45.378151260504204
01605,Worcester County,MA,77.31092436974791
02140,Middlesex County,MA,39.91596638655462
02746,Bristol County,MA,32.773109243697476
02766,Bristol County,MA,26.89075630252101
48043,Macomb County,MI,38.655462184873954
48091,Macomb County,MI,10.504201680672269
48176,Washtenaw County,MI,31.092436974789916
48188,Wayne County,MI,7.563025210084033
48342,Oakland County,MI,15.546218487394958
49424,Ottawa County,MI,44.537815126050425
55103,Ramsey County,MN,91.17647058823529
55109,Ramsey County,MN,64.28571428571429
55406,Hennepin County,MN,61.76470588235294
56537,Otter Tail County,MN,21.008403361344538
38606,Panola County,MS,71.84873949579831
39159,Sharkey County,MS,100
39212,Hinds County,MS,37.81512605042017
39355,Clarke County,MS,76.05042016806722
39482,Lamar County,MS,80.67226890756302
63012,Jefferson County,MO,94.53781512605042
63077,Franklin County,MO,72.68907563025209
63122,St. Louis County,MO,48.319327731092436
64024,Clay County,MO,31.512605042016805
64040,Johnson County,MO,88.23529411764706
64050,Jackson County,MO,11.76470588235294
64158,Clay County,MO,89.91596638655463
59323,Rosebud County,MT,97.47899159663865
89115,Clark County,NV,36.554621848739494
89506,Washoe County,NV,69.32773109243698
89801,Elko County,NV,73.94957983193278
07202,Union County,NJ,16.386554621848738
07470,Passaic County,NJ,92.01680672268907
08807,Somerset County,NJ,56.72268907563025
87124,Sandoval County,NM,27.310924369747898
10457,Bronx County,NY,1.680672268907563
10977,Rockland County,NY,33.61344537815126
11235,Kings County,NY,23.10924369747899
12304,Schenectady County,NY,54.621848739495796
14450,Monroe County,NY,1.2605042016806722
14519,Wayne County,NY,41.596638655462186
14534,Monroe County,NY,3.7815126050420167
14624,Monroe County,NY,3.361344537815126
14701,Chautauqua County,NY,49.57983193277311
14806,Allegany County,NY,88.65546218487394
27105,Forsyth County,NC,43.27731092436975
27106,Forsyth County,NC,14.285714285714285
27265,Guilford County,NC,53.36134453781513
27713,Durham County,NC,57.14285714285714
27817,Beaufort County,NC,99.15966386554622
27834,Pitt County,NC,30.252100840336134
43206,Franklin County,OH,2.5210084033613445
43613,Lucas County,OH,13.865546218487395
44113,Cuyahoga County,OH,67.64705882352942
44125,Cuyahoga County,OH,18.487394957983195
44281,Medina County,OH,32.35294117647059
44833,Crawford County,OH,39.91596638655462
45202,Hamilton County,OH,34.03361344537815
45248,Hamilton County,OH,49.159663865546214
45344,Clark County,OH,44.11764705882353
45503,Clark County,OH,12.184873949579831
45750,Washington County,OH,6.302521008403361
74137,Tulsa County,OK,66.80672268907563
97041,Hood River County,OR,98.31932773109243
97230,Multnomah County,OR,34.87394957983193
97301,Marion County,OR,23.949579831932773
97321,Linn County,OR,50.84033613445378
97520,Jackson County,OR,89.07563025210085
97838,Umatilla County,OR,24.369747899159663
15122,Allegheny County,PA,35.714285714285715
15136,Allegheny County,PA,53.78151260504202
15147,Allegheny County,PA,59.2436974789916
17036,Dauphin County,PA,5.46218487394958
17053,Perry County,PA,84.87394957983193
17104,Dauphin County,PA,14.705882352941178
17111,Dauphin County,PA,21.428571428571427
17202,Franklin County,PA,59.2436974789916
17268,Franklin County,PA,28.15126050420168
17701,Lycoming County,PA,8.823529411764707
18102,Lehigh County,PA,0.8403361344537815
18508,Lackawanna County,PA,70.16806722689076
19015,Delaware County,PA,59.2436974789916
19082,Delaware County,PA,17.647058823529413
29209,Richland County,SC,61.34453781512605
29505,Florence County,SC,80.25210084033614
29605,Greenville County,SC,25.210084033613445
29680,Greenville County,SC,79.83193277310924
29715,York County,SC,63.02521008403361
57022,Minnehaha County,SD,95.37815126050421
37013,Davidson County,TN,2.941176470588235
37074,Trousdale County,TN,46.21848739495798
37172,Robertson County,TN,45.378151260504204
37211,Davidson County,TN,13.445378151260504
38261,Obion County,TN,29.831932773109244
38351,Henderson County,TN,17.22689075630252
38401,Maury County,TN,13.025210084033615
38478,Giles County,TN,65.12605042016807
75006,Dallas County,TX,39.49579831932773
75060,Dallas County,TX,42.016806722689076
75149,Dallas County,TX,4.621848739495799
75154,Ellis County,TX,55.46218487394958
75165,Ellis County,TX,24.789915966386555
75180,Dallas County,TX,85.71428571428571
75243,Dallas County,TX,2.100840336134454
75758,Henderson County,TX,47.47899159663865
75935,Shelby County,TX,81.5126050420168
76063,Tarrant County,TX,4.201680672268908
77018,Harris County,TX,60.50420168067227
77042,Harris County,TX,50.84033613445378
77094,Harris County,TX,82.35294117647058
77096,Harris County,TX,52.10084033613446
77449,Harris County,TX,5.042016806722689
77459,Fort Bend County,TX,55.88235294117647
78073,Bexar County,TX,79.41176470588235
78217,Bexar County,TX,9.663865546218489
78572,Hidalgo County,TX,21.84873949579832
78595,Hidalgo County,TX,92.43697478991596
78599,Hidalgo County,TX,11.344537815126051
78665,Williamson County,TX,28.991596638655466
78729,Williamson County,TX,71.00840336134453
79423,Lubbock County,TX,36.97478991596639
20105,Loudoun County,VA,71.00840336134453
22192,Prince William County,VA,33.193277310924366
22801,Harrisonburg city,VA,50
98022,King County,WA,73.52941176470588
20010,District of Columbia,DC,94.11764705882352
20019,District of Columbia,DC,7.9831932773109235
53151,Waukesha County,WI,42.436974789915965
53184,Walworth County,WI,99.57983193277312
53405,Racine County,WI,12.605042016806722
82604,Natrona County,WY,91.17647058823529
