ZipCode,county,state,Youth,Adult,Retirement
35010,Tallapoosa County,AL,NA,39.526411657559194,NA
35204,Jefferson County,AL,NA,71.03825136612022,NA
35206,Jefferson County,AL,NA,63.752276867030965,NA
35235,Jefferson County,AL,77.36625514403292,NA,NA
35652,Lauderdale County,AL,NA,92.16757741347905,NA
35763,Madison County,AL,NA,NA,52.336448598130836
35771,Jackson County,AL,96.70781893004116,NA,NA
35802,Madison County,AL,NA,67.03096539162114,NA
35803,Madison County,AL,NA,65.20947176684882,NA
36078,Elmore County,AL,NA,56.284153005464475,NA
36117,Montgomery County,AL,NA,36.79417122040073,NA
36445,Monroe County,AL,NA,94.89981785063752,NA
36527,Baldwin County,AL,NA,80.14571948998179,NA
36532,Baldwin County,AL,NA,82.69581056466302,NA
36551,Baldwin County,AL,NA,NA,91.58878504672897
99515,Anchorage Municipality,AK,NA,67.75956284153006,NA
85009,Maricopa County,AZ,NA,NA,29.439252336448597
85014,Maricopa County,AZ,79.42386831275721,NA,NA
85019,Maricopa County,AZ,NA,42.80510018214937,NA
85023,Maricopa County,AZ,NA,32.05828779599271,NA
85031,Maricopa County,AZ,31.68724279835391,NA,NA
85033,Maricopa County,AZ,NA,19.30783242258652,NA
85037,Maricopa County,AZ,NA,29.326047358834245,NA
85041,Maricopa County,AZ,NA,NA,27.570093457943923
85044,Maricopa County,AZ,67.48971193415639,NA,NA
85048,Maricopa County,AZ,NA,77.59562841530054,NA
85122,Pinal County,AZ,NA,35.33697632058288,NA
85138,Pinal County,AZ,NA,44.080145719489984,61.21495327102804
85142,Maricopa County,AZ,NA,40.255009107468126,NA
85205,Maricopa County,AZ,NA,31.876138433515482,NA
85234,Maricopa County,AZ,36.21399176954733,NA,NA
85302,Maricopa County,AZ,NA,29.508196721311474,NA
85304,Maricopa County,AZ,NA,NA,58.87850467289719
85364,Yuma County,AZ,NA,6.0109289617486334,NA
85381,Maricopa County,AZ,NA,NA,69.62616822429906
85395,Maricopa County,AZ,NA,NA,42.99065420560748
85546,Graham County,AZ,NA,54.09836065573771,NA
85629,Pima County,AZ,62.139917695473244,NA,NA
85648,Santa Cruz County,AZ,50.20576131687243,NA,NA
85937,Navajo County,AZ,NA,82.87795992714025,NA
86440,Mohave County,AZ,NA,98.72495446265937,NA
86503,Apache County,AZ,NA,88.70673952641167,NA
71923,Clark County,AR,NA,NA,57.943925233644855
72335,St. Francis County,AR,NA,88.52459016393442,NA
72560,Stone County,AR,NA,NA,55.140186915887845
72616,Carroll County,AR,NA,NA,75.23364485981308
72949,Franklin County,AR,NA,98.36065573770492,NA
90001,Los Angeles County,CA,NA,87.43169398907104,NA
90028,Los Angeles County,CA,NA,65.02732240437157,NA
90044,Los Angeles County,CA,NA,10.746812386156648,NA
90061,Los Angeles County,CA,79.83539094650206,NA,NA
90248,Los Angeles County,CA,NA,91.2568306010929,NA
90303,Los Angeles County,CA,NA,90.89253187613843,NA
90606,Los Angeles County,CA,NA,NA,53.73831775700935
90630,Orange County,CA,43.62139917695473,NA,22.897196261682243
90631,Orange County,CA,77.36625514403292,NA,NA
91301,Los Angeles County,CA,NA,74.31693989071039,NA
91355,Los Angeles County,CA,NA,71.40255009107467,NA
91387,Los Angeles County,CA,NA,74.86338797814209,NA
91706,Los Angeles County,CA,44.8559670781893,NA,NA
91737,San Bernardino County,CA,NA,77.77777777777779,NA
91739,San Bernardino County,CA,87.24279835390946,NA,NA
91744,Los Angeles County,CA,NA,21.311475409836063,NA
91911,San Diego County,CA,NA,28.233151183970858,NA
91950,San Diego County,CA,NA,40.619307832422585,NA
91977,San Diego County,CA,NA,38.61566484517304,NA
92054,San Diego County,CA,NA,49.72677595628415,NA
92069,San Diego County,CA,NA,68.85245901639344,NA
92284,San Bernardino County,CA,NA,NA,30.373831775700932
92345,San Bernardino County,CA,NA,NA,17.289719626168225
92395,San Bernardino County,CA,NA,31.147540983606557,NA
92407,San Bernardino County,CA,41.9753086419753,NA,NA
92410,San Bernardino County,CA,59.67078189300411,NA,NA
92503,Riverside County,CA,NA,55.19125683060109,NA
92532,Riverside County,CA,NA,69.2167577413479,NA
92557,Riverside County,CA,NA,NA,46.728971962616825
92612,Orange County,CA,NA,99.63570127504553,NA
92614,Orange County,CA,NA,62.295081967213115,NA
92647,Orange County,CA,NA,26.229508196721312,22.429906542056074
92657,Orange County,CA,NA,96.90346083788707,NA
92692,Orange County,CA,NA,NA,83.64485981308411
92707,Orange County,CA,NA,73.04189435336977,NA
92867,Orange County,CA,NA,60.4735883424408,NA
92869,Orange County,CA,79.01234567901234,NA,NA
92886,Orange County,CA,42.79835390946502,NA,NA
93041,Ventura County,CA,66.66666666666666,NA,NA
93063,Ventura County,CA,NA,37.88706739526412,NA
93103,Santa Barbara County,CA,NA,85.61020036429873,NA
93304,Kern County,CA,NA,28.59744990892532,NA
93422,San Luis Obispo County,CA,65.4320987654321,NA,NA
93433,San Luis Obispo County,CA,NA,76.50273224043715,NA
93436,Santa Barbara County,CA,NA,19.12568306010929,NA
93442,San Luis Obispo County,CA,NA,NA,73.83177570093457
93625,Fresno County,CA,NA,94.1712204007286,NA
93631,Fresno County,CA,NA,91.07468123861567,NA
93654,Fresno County,CA,NA,NA,84.57943925233646
93662,Fresno County,CA,46.09053497942387,NA,NA
93705,Fresno County,CA,58.8477366255144,NA,NA
93725,Fresno County,CA,NA,87.7959927140255,NA
93727,Fresno County,CA,NA,18.21493624772313,NA
93950,Monterey County,CA,NA,87.97814207650273,NA
94115,San Francisco County,CA,83.9506172839506,NA,NA
94133,San Francisco County,CA,NA,75.0455373406193,NA
94531,Contra Costa County,CA,NA,NA,47.66355140186916
94534,Solano County,CA,NA,NA,41.1214953271028
94542,Alameda County,CA,NA,90.34608378870675,NA
94559,Napa County,CA,NA,64.11657559198542,NA
94583,Contra Costa County,CA,64.60905349794238,NA,NA
94941,Marin County,CA,74.8971193415638,NA,NA
95003,Santa Cruz County,CA,NA,NA,68.69158878504673
95014,Santa Clara County,CA,96.29629629629629,NA,NA
95035,Santa Clara County,CA,NA,53.36976320582878,NA
95351,Stanislaus County,CA,NA,25.318761384335154,NA
95361,Stanislaus County,CA,NA,NA,33.64485981308411
95366,San Joaquin County,CA,70.78189300411523,NA,NA
95391,San Joaquin County,CA,NA,81.23861566484517,NA
95503,Humboldt County,CA,65.02057613168725,NA,NA
95610,Sacramento County,CA,NA,51.73041894353369,NA
95648,Placer County,CA,66.2551440329218,NA,28.037383177570092
95677,Placer County,CA,NA,79.78142076502732,NA
95822,Sacramento County,CA,NA,NA,40.654205607476634
95993,Sutter County,CA,NA,52.09471766848816,NA
96003,Shasta County,CA,56.79012345679012,NA,NA
96022,Tehama County,CA,NA,92.89617486338798,NA
80010,Arapahoe County,CO,NA,22.404371584699454,NA
80011,Arapahoe County,CO,NA,NA,34.112149532710276
80026,Boulder County,CO,NA,62.659380692167574,NA
80128,Jefferson County,CO,NA,60.29143897996357,NA
80215,Jefferson County,CO,NA,NA,74.29906542056075
80226,Jefferson County,CO,NA,NA,86.44859813084112
80230,Denver County,CO,NA,NA,97.66355140186917
80241,Adams County,CO,NA,81.05646630236795,NA
80504,Boulder County,CO,NA,NA,26.635514018691588
80525,Larimer County,CO,20.16460905349794,18.579234972677597,38.78504672897196
80526,Larimer County,CO,27.983539094650205,NA,NA
80528,Larimer County,CO,NA,80.14571948998179,NA
80910,El Paso County,CO,NA,28.77959927140255,NA
80915,El Paso County,CO,30.864197530864196,NA,NA
80919,El Paso County,CO,NA,89.79963570127505,NA
80921,El Paso County,CO,NA,98.54280510018215,NA
81201,Chaffee County,CO,NA,93.44262295081968,NA
06098,Litchfield County,CT,NA,52.64116575591985,NA
06108,Hartford County,CT,37.03703703703704,NA,NA
06112,Hartford County,CT,NA,20.40072859744991,NA
06239,Windham County,CT,NA,39.34426229508197,NA
06461,New Haven County,CT,NA,89.43533697632058,NA
06514,New Haven County,CT,NA,38.25136612021858,NA
06608,Fairfield County,CT,NA,NA,87.85046728971963
06614,Fairfield County,CT,NA,59.56284153005464,NA
06790,Litchfield County,CT,NA,9.47176684881603,NA
06804,Fairfield County,CT,NA,73.04189435336977,NA
06855,Fairfield County,CT,NA,NA,90.65420560747664
32038,Columbia County,FL,NA,NA,79.43925233644859
32082,St. Johns County,FL,NA,59.19854280510018,NA
32129,Volusia County,FL,NA,NA,64.48598130841121
32209,Duval County,FL,NA,NA,14.953271028037381
32218,Duval County,FL,NA,6.375227686703097,NA
32259,St. Johns County,FL,38.2716049382716,NA,NA
32347,Taylor County,FL,NA,86.88524590163934,NA
32409,Bay County,FL,NA,75.22768670309654,NA
32561,Santa Rosa County,FL,NA,NA,92.05607476635514
32563,Santa Rosa County,FL,NA,36.42987249544626,NA
32607,Alachua County,FL,NA,23.13296903460838,NA
32738,Volusia County,FL,NA,40.80145719489982,NA
32824,Orange County,FL,NA,49.362477231329684,NA
32920,Brevard County,FL,NA,83.06010928961749,NA
33018,Miami-Dade County,FL,NA,NA,50.467289719626166
33029,Broward County,FL,NA,61.93078324225865,NA
33040,Monroe County,FL,NA,50.45537340619308,NA
33064,Broward County,FL,NA,NA,20.5607476635514
33147,Miami-Dade County,FL,NA,NA,34.57943925233645
33170,Miami-Dade County,FL,NA,82.5136612021858,NA
33175,Miami-Dade County,FL,24.279835390946502,NA,NA
33177,Miami-Dade County,FL,NA,50.27322404371585,NA
33186,Miami-Dade County,FL,NA,54.462659380692166,NA
33187,Miami-Dade County,FL,NA,80.87431693989072,NA
33326,Broward County,FL,NA,79.05282331511839,NA
33440,Hendry County,FL,NA,54.28051001821493,NA
33460,Palm Beach County,FL,80.65843621399176,NA,NA
33556,Hillsborough County,FL,NA,74.13479052823315,NA
33570,Hillsborough County,FL,NA,86.70309653916212,NA
33606,Hillsborough County,FL,88.06584362139918,NA,NA
33634,Hillsborough County,FL,NA,NA,80.8411214953271
33647,Hillsborough County,FL,NA,54.826958105646625,NA
33825,Highlands County,FL,NA,78.87067395264117,NA
33830,Polk County,FL,NA,39.89071038251366,NA
34135,Lee County,FL,NA,NA,16.822429906542055
34207,Manatee County,FL,NA,56.64845173041895,NA
34208,Manatee County,FL,NA,30.2367941712204,NA
34480,Marion County,FL,NA,84.15300546448088,NA
34956,Martin County,FL,NA,96.53916211293262,NA
30004,Fulton County,GA,NA,47.72313296903461,NA
30019,Gwinnett County,GA,NA,NA,36.915887850467286
30097,Fulton County,GA,NA,62.11293260473588,84.11214953271028
30120,Bartow County,GA,NA,24.59016393442623,NA
30153,Polk County,GA,NA,NA,83.17757009345794
30168,Cobb County,GA,NA,61.02003642987249,NA
30233,Butts County,GA,NA,NA,74.76635514018692
30253,Henry County,GA,NA,30.2367941712204,NA
30269,Fayette County,GA,NA,70.67395264116576,NA
30315,Fulton County,GA,55.144032921810705,NA,NA
30360,DeKalb County,GA,NA,NA,88.3177570093458
30747,Chattooga County,GA,NA,NA,59.813084112149525
31407,Chatham County,GA,71.19341563786008,NA,NA
31620,Cook County,GA,NA,75.591985428051,NA
31705,Dougherty County,GA,NA,NA,29.906542056074763
31730,Mitchell County,GA,90.94650205761316,NA,NA
31768,Colquitt County,GA,NA,35.51912568306011,NA
31904,Muscogee County,GA,NA,92.53187613843352,NA
31906,Muscogee County,GA,NA,NA,39.719626168224295
96701,Honolulu County,HI,NA,NA,19.626168224299064
96734,Honolulu County,HI,NA,NA,10.74766355140187
83202,Bannock County,ID,37.86008230452675,NA,NA
83607,Canyon County,ID,NA,NA,60.747663551401864
83628,Owyhee County,ID,NA,NA,92.5233644859813
83642,Ada County,ID,NA,21.129326047358834,NA
83706,Ada County,ID,NA,33.33333333333333,NA
83713,Ada County,ID,NA,40.43715846994536,NA
60004,Cook County,IL,NA,29.143897996357016,NA
60010,Lake County,IL,NA,43.89799635701275,NA
60013,McHenry County,IL,NA,58.834244080145716,NA
60030,Lake County,IL,NA,49.18032786885246,25.233644859813083
60035,Lake County,IL,NA,NA,13.551401869158877
60062,Cook County,IL,NA,44.26229508196721,NA
60068,Cook County,IL,NA,NA,35.046728971962615
60074,Cook County,IL,NA,47.72313296903461,NA
60077,Cook County,IL,NA,61.20218579234973,NA
60102,McHenry County,IL,32.92181069958848,NA,NA
60103,DuPage County,IL,39.91769547325103,NA,NA
60126,DuPage County,IL,14.814814814814813,13.661202185792352,NA
60137,DuPage County,IL,NA,37.52276867030965,NA
60140,Kane County,IL,NA,NA,63.55140186915887
60143,DuPage County,IL,NA,NA,67.7570093457944
60171,Cook County,IL,NA,NA,82.2429906542056
60411,Cook County,IL,NA,17.122040072859747,NA
60438,Cook County,IL,NA,74.68123861566485,NA
60447,Grundy County,IL,NA,58.46994535519126,NA
60477,Cook County,IL,NA,30.601092896174865,NA
60504,DuPage County,IL,NA,97.0856102003643,NA
60513,Cook County,IL,NA,NA,90.18691588785047
60525,Cook County,IL,NA,58.28779599271403,NA
60540,DuPage County,IL,NA,NA,30.8411214953271
60560,Kendall County,IL,NA,49.544626593806925,NA
60601,Cook County,IL,NA,NA,77.57009345794393
60609,Cook County,IL,NA,NA,18.69158878504673
60613,Cook County,IL,61.72839506172839,NA,NA
60614,Cook County,IL,48.148148148148145,NA,NA
60626,Cook County,IL,NA,55.009107468123865,NA
60628,Cook County,IL,NA,53.551912568306015,NA
60630,Cook County,IL,NA,27.86885245901639,NA
60638,Cook County,IL,19.34156378600823,NA,NA
60640,Cook County,IL,NA,NA,72.42990654205607
60643,Cook County,IL,NA,NA,3.7383177570093453
60646,Cook County,IL,NA,NA,42.05607476635514
60707,Cook County,IL,NA,23.861566484517304,NA
61081,Whiteside County,IL,NA,95.08196721311475,NA
61109,Winnebago County,IL,NA,NA,44.85981308411215
62521,Macon County,IL,NA,16.757741347905284,NA
46011,Madison County,IN,NA,NA,23.83177570093458
46060,Hamilton County,IN,NA,NA,57.009345794392516
46072,Tipton County,IN,NA,NA,68.22429906542055
46131,Johnson County,IN,NA,64.66302367941712,NA
46173,Rush County,IN,NA,NA,42.523364485981304
46237,Marion County,IN,52.2633744855967,NA,NA
46256,Marion County,IN,NA,69.58105646630237,NA
46268,Marion County,IN,NA,NA,43.45794392523364
46304,Porter County,IN,NA,NA,49.06542056074766
46733,Adams County,IN,61.31687242798354,NA,NA
46737,Steuben County,IN,NA,78.68852459016394,NA
46901,Howard County,IN,9.465020576131687,NA,NA
47240,Decatur County,IN,NA,36.247723132969035,NA
47359,Blackford County,IN,99.58847736625515,NA,NA
47711,Vanderburgh County,IN,NA,32.42258652094718,NA
50613,Black Hawk County,IA,NA,53.73406193078324,NA
50662,Fayette County,IA,NA,68.30601092896174,NA
52601,Des Moines County,IA,35.390946502057616,NA,NA
52627,Lee County,IA,51.440329218106996,NA,NA
52722,Scott County,IA,NA,NA,31.308411214953267
66106,Wyandotte County,KS,NA,52.459016393442624,NA
66210,Johnson County,KS,NA,75.77413479052824,NA
66215,Johnson County,KS,NA,73.77049180327869,NA
66216,Johnson County,KS,44.8559670781893,NA,NA
66434,Brown County,KS,NA,NA,79.90654205607477
66547,Pottawatomie County,KS,NA,NA,85.98130841121495
66614,Shawnee County,KS,NA,38.069216757741344,NA
66720,Neosho County,KS,NA,NA,85.04672897196261
66839,Coffey County,KS,NA,98.90710382513662,NA
67601,Ellis County,KS,NA,46.63023679417122,NA
67846,Finney County,KS,NA,26.59380692167577,NA
67871,Scott County,KS,NA,65.39162112932605,NA
40014,Oldham County,KY,57.61316872427984,NA,NA
40210,Jefferson County,KY,NA,46.994535519125684,NA
40505,Fayette County,KY,NA,28.051001821493628,NA
40517,Fayette County,KY,NA,25.318761384335154,NA
40701,Whitley County,KY,NA,41.8943533697632,NA
40740,Laurel County,KY,NA,NA,95.7943925233645
41143,Carter County,KY,NA,97.26775956284153,NA
42038,Lyon County,KY,NA,NA,89.25233644859813
42164,Allen County,KY,NA,NA,51.4018691588785
42320,Ohio County,KY,NA,55.373406193078324,NA
70047,St. Charles Parish,LA,76.5432098765432,NA,NA
70072,Jefferson Parish,LA,4.11522633744856,NA,NA
70128,Orleans Parish,LA,17.695473251028808,NA,NA
70301,Lafourche Parish,LA,NA,78.5063752276867,NA
70441,St. Helena Parish,LA,98.35390946502058,NA,NA
70452,St. Tammany Parish,LA,NA,24.772313296903462,NA
70570,St. Landry Parish,LA,NA,14.025500910746814,NA
70583,Lafayette Parish,LA,NA,NA,64.95327102803739
70586,Evangeline Parish,LA,NA,18.761384335154826,NA
70605,Calcasieu Parish,LA,NA,88.88888888888889,NA
70607,Calcasieu Parish,LA,NA,73.95264116575592,NA
70726,Livingston Parish,LA,NA,2.73224043715847,NA
70769,Ascension Parish,LA,NA,13.296903460837886,NA
71112,Bossier Parish,LA,NA,16.57559198542805,NA
71220,Morehouse Parish,LA,NA,21.493624772313296,NA
71225,Ouachita Parish,LA,NA,99.4535519125683,NA
71282,Madison Parish,LA,NA,99.27140255009107,NA
71295,Franklin Parish,LA,NA,22.040072859744992,NA
71360,Rapides Parish,LA,NA,14.754098360655737,NA
71457,Natchitoches Parish,LA,NA,10.018214936247723,NA
04043,York County,ME,NA,64.84517304189436,NA
04062,Cumberland County,ME,81.89300411522635,NA,NA
04074,Cumberland County,ME,NA,67.21311475409836,NA
04092,Cumberland County,ME,NA,44.44444444444444,NA
04280,Androscoggin County,ME,78.60082304526749,76.68488160291439,NA
04462,Penobscot County,ME,NA,85.24590163934425,NA
04927,Kennebec County,ME,NA,NA,92.99065420560748
20678,Calvert County,MD,NA,90.7103825136612,NA
20735,Prince George's County,MD,NA,NA,62.149532710280376
20744,Prince George's County,MD,NA,NA,35.981308411214954
20815,Montgomery County,MD,NA,NA,70.09345794392523
20850,Montgomery County,MD,NA,NA,65.42056074766354
21030,Baltimore County,MD,NA,71.22040072859745,NA
21053,Baltimore County,MD,NA,100,NA
21206,Baltimore city,MD,NA,15.300546448087433,12.149532710280374
21221,Baltimore County,MD,NA,55.73770491803278,NA
21771,Frederick County,MD,82.3045267489712,NA,NA
01089,Hampden County,MA,29.629629629629626,NA,NA
01105,Hampden County,MA,NA,4.371584699453552,NA
01107,Hampden County,MA,NA,31.51183970856102,NA
01201,Berkshire County,MA,3.7037037037037033,NA,NA
01220,Berkshire County,MA,NA,NA,37.850467289719624
01230,Berkshire County,MA,NA,NA,47.19626168224299
01420,Worcester County,MA,NA,0.36429872495446264,NA
01440,Worcester County,MA,NA,2.914389799635701,NA
01450,Middlesex County,MA,NA,68.6703096539162,NA
01453,Worcester County,MA,NA,NA,6.5420560747663545
01507,Worcester County,MA,NA,83.42440801457195,NA
01566,Worcester County,MA,NA,61.384335154826964,NA
01570,Worcester County,MA,NA,7.103825136612022,NA
01581,Worcester County,MA,NA,36.6120218579235,75.70093457943925
01602,Worcester County,MA,NA,11.293260473588344,NA
01604,Worcester County,MA,NA,1.4571948998178506,NA
01608,Worcester County,MA,NA,97.99635701275045,NA
01752,Middlesex County,MA,NA,4.735883424408015,NA
01772,Worcester County,MA,NA,91.62112932604735,NA
01803,Middlesex County,MA,NA,24.225865209471767,NA
01810,Essex County,MA,NA,97.44990892531877,NA
01821,Middlesex County,MA,95.06172839506173,8.19672131147541,NA
01850,Middlesex County,MA,NA,NA,21.02803738317757
01854,Middlesex County,MA,NA,3.278688524590164,NA
01867,Middlesex County,MA,34.5679012345679,NA,NA
01876,Middlesex County,MA,NA,10.382513661202186,2.803738317757009
01886,Middlesex County,MA,28.39506172839506,87.61384335154827,NA
01902,Essex County,MA,NA,4.553734061930783,NA
01906,Essex County,MA,NA,19.489981785063755,NA
01930,Essex County,MA,NA,NA,0.46728971962616817
01940,Essex County,MA,51.85185185185185,NA,NA
01945,Essex County,MA,NA,45.71948998178507,NA
02026,Norfolk County,MA,NA,NA,17.75700934579439
02035,Norfolk County,MA,NA,35.88342440801457,NA
02050,Plymouth County,MA,93.00411522633745,NA,NA
02052,Norfolk County,MA,NA,64.29872495446266,NA
02067,Norfolk County,MA,NA,NA,66.35514018691589
02119,Suffolk County,MA,NA,0,NA
02120,Suffolk County,MA,NA,50.81967213114754,NA
02124,Suffolk County,MA,0.411522633744856,NA,NA
02125,Suffolk County,MA,54.32098765432099,6.557377049180328,NA
02127,Suffolk County,MA,22.22222222222222,NA,NA
02131,Suffolk County,MA,NA,2.5500910746812386,NA
02132,Suffolk County,MA,NA,15.482695810564662,NA
02139,Middlesex County,MA,NA,0.18214936247723132,NA
02155,Middlesex County,MA,NA,1.639344262295082,7.009345794392523
02169,Norfolk County,MA,NA,6.739526411657559,NA
02180,Middlesex County,MA,NA,NA,96.72897196261682
02301,Plymouth County,MA,0,NA,NA
02324,Plymouth County,MA,NA,77.23132969034609,NA
02359,Plymouth County,MA,NA,94.35336976320583,NA
02421,Middlesex County,MA,93.4156378600823,NA,NA
02445,Norfolk County,MA,NA,30.965391621129324,NA
02446,Norfolk County,MA,NA,22.950819672131146,NA
02451,Middlesex County,MA,97.11934156378601,NA,NA
02459,Middlesex County,MA,NA,NA,24.766355140186917
02460,Middlesex County,MA,84.77366255144034,NA,NA
02467,Norfolk County,MA,NA,NA,91.1214953271028
02472,Middlesex County,MA,34.15637860082305,NA,NA
02539,Dukes County,MA,91.76954732510289,NA,NA
02717,Bristol County,MA,NA,84.69945355191257,NA
02721,Bristol County,MA,21.810699588477366,NA,NA
02723,Bristol County,MA,NA,3.825136612021858,5.14018691588785
02724,Bristol County,MA,NA,6.193078324225866,NA
02740,Bristol County,MA,NA,NA,0
02780,Bristol County,MA,NA,5.646630236794172,NA
48036,Macomb County,MI,46.09053497942387,NA,NA
48038,Macomb County,MI,NA,16.939890710382514,NA
48060,St. Clair County,MI,NA,20.9471766848816,NA
48066,Macomb County,MI,NA,21.67577413479053,NA
48070,Oakland County,MI,NA,92.71402550091075,NA
48076,Oakland County,MI,NA,34.97267759562842,NA
48080,Macomb County,MI,NA,39.162112932604735,NA
48082,Macomb County,MI,NA,NA,35.51401869158878
48088,Macomb County,MI,NA,51.183970856102,NA
48101,Wayne County,MI,NA,57.92349726775956,NA
48103,Washtenaw County,MI,NA,18.397085610200364,NA
48104,Washtenaw County,MI,85.59670781893004,NA,NA
48108,Washtenaw County,MI,33.33333333333333,NA,NA
48133,Monroe County,MI,NA,91.80327868852459,NA
48138,Wayne County,MI,86.41975308641975,NA,NA
48162,Monroe County,MI,NA,46.44808743169399,NA
48178,Oakland County,MI,NA,65.57377049180327,NA
48185,Wayne County,MI,NA,NA,7.476635514018691
48197,Washtenaw County,MI,NA,3.642987249544627,NA
48209,Wayne County,MI,26.748971193415638,27.322404371584703,NA
48219,Wayne County,MI,2.880658436213992,NA,NA
48228,Wayne County,MI,30.45267489711934,NA,NA
48230,Wayne County,MI,NA,78.32422586520947,NA
48302,Oakland County,MI,NA,NA,43.925233644859816
48331,Oakland County,MI,NA,41.16575591985428,NA
48340,Oakland County,MI,NA,14.207650273224044,NA
48348,Oakland County,MI,NA,40.07285974499089,NA
48375,Oakland County,MI,73.66255144032921,NA,NA
48386,Oakland County,MI,NA,NA,39.25233644859813
48430,Genesee County,MI,70.37037037037037,NA,NA
48601,Saginaw County,MI,NA,3.4608378870673953,NA
48616,Saginaw County,MI,NA,NA,45.32710280373832
48768,Tuscola County,MI,NA,57.01275045537341,NA
48837,Eaton County,MI,80.65843621399176,82.14936247723132,NA
48843,Livingston County,MI,NA,46.26593806921676,NA
48847,Gratiot County,MI,89.7119341563786,NA,NA
48849,Ionia County,MI,NA,NA,71.02803738317756
48858,Isabella County,MI,NA,9.65391621129326,NA
48872,Shiawassee County,MI,NA,86.520947176684885,NA
49010,Allegan County,MI,52.674897119341566,NA,NA
49036,Branch County,MI,33.744855967078195,32.78688524590164,NA
49038,Berrien County,MI,NA,72.49544626593807,NA
49093,St. Joseph County,MI,53.90946502057613,NA,NA
49203,Jackson County,MI,29.218106995884774,NA,NA
49240,Jackson County,MI,NA,85.06375227686704,NA
49247,Lenawee County,MI,NA,72.31329690346084,NA
49301,Kent County,MI,72.42798353909465,NA,NA
49307,Mecosta County,MI,55.96707818930041,NA,NA
49330,Kent County,MI,90.12345679012346,NA,NA
49418,Kent County,MI,54.73251028806584,NA,NA
49442,Muskegon County,MI,NA,5.2823315118397085,NA
49444,Muskegon County,MI,NA,57.5591985428051,NA
49506,Kent County,MI,NA,NA,69.1588785046729
49525,Kent County,MI,NA,NA,25.70093457943925
49548,Kent County,MI,NA,11.475409836065573,NA
55016,Washington County,MN,NA,45.90163934426229,NA
55106,Ramsey County,MN,21.39917695473251,NA,NA
55305,Hennepin County,MN,NA,77.41347905282332,NA
55313,Wright County,MN,NA,57.19489981785064,NA
55343,Hennepin County,MN,NA,NA,36.915887850467286
55346,Hennepin County,MN,NA,87.24954462659382,NA
55411,Hennepin County,MN,NA,20.58287795992714,NA
55792,St. Louis County,MN,NA,81.78506375227687,NA
55802,St. Louis County,MN,NA,76.13843351548269,NA
55912,Mower County,MN,43.20987654320987,NA,NA
56353,Mille Lacs County,MN,NA,85.24590163934425,NA
38606,Panola County,MS,NA,NA,72.89719626168224
38671,DeSoto County,MS,NA,36.79417122040073,NA
38829,Prentiss County,MS,48.148148148148145,NA,NA
38834,Alcorn County,MS,NA,NA,28.504672897196258
38849,Lee County,MS,NA,99.81785063752277,NA
38851,Chickasaw County,MS,NA,NA,85.51401869158879
38852,Tishomingo County,MS,63.37448559670782,57.74134790528234,NA
39069,Jefferson County,MS,NA,93.26047358834244,NA
39168,Smith County,MS,NA,NA,80.37383177570094
39567,Jackson County,MS,91.35802469135803,NA,NA
39653,Franklin County,MS,NA,NA,100
39667,Walthall County,MS,NA,93.98907103825137,NA
39735,Choctaw County,MS,95.47325102880659,NA,NA
39759,Oktibbeha County,MS,48.971193415637856,NA,50
63021,St. Louis County,MO,NA,48.816029143898,NA
63119,St. Louis County,MO,NA,66.3023679417122,NA
63125,St. Louis County,MO,62.139917695473244,NA,NA
63128,St. Louis County,MO,92.18106995884774,NA,NA
63131,St. Louis County,MO,NA,90.52823315118397,NA
63146,St. Louis County,MO,NA,NA,64.01869158878505
63303,St. Charles County,MO,NA,NA,11.214953271028037
63376,St. Charles County,MO,NA,13.479052823315119,1.8691588785046727
63670,Ste. Genevieve County,MO,NA,83.24225865209472,NA
63701,Cape Girardeau County,MO,NA,43.533697632058285,NA
63801,Scott County,MO,11.522633744855968,NA,NA
64050,Jackson County,MO,11.934156378600823,NA,NA
64056,Jackson County,MO,NA,29.690346083788704,NA
64061,Johnson County,MO,97.94238683127571,NA,NA
64064,Jackson County,MO,NA,55.55555555555556,NA
64078,Cass County,MO,81.48148148148148,NA,NA
64089,Clay County,MO,74.07407407407408,NA,NA
64128,Jackson County,MO,NA,23.67941712204007,NA
64133,Jackson County,MO,NA,6.9216757741347905,NA
64138,Jackson County,MO,NA,14.93624772313297,NA
64155,Clay County,MO,18.106995884773664,NA,NA
64501,Buchanan County,MO,64.19753086419753,NA,NA
65020,Camden County,MO,69.1358024691358,NA,NA
65672,Taney County,MO,97.53086419753086,NA,NA
65806,Greene County,MO,92.5925925925926,NA,NA
65807,Greene County,MO,NA,31.329690346083787,NA
59068,Carbon County,MT,NA,NA,93.92523364485982
59405,Cascade County,MT,NA,33.1511839708561,NA
68110,Douglas County,NE,NA,75.95628415300546,NA
68116,Douglas County,NE,44.44444444444444,NA,NA
68135,Douglas County,NE,39.09465020576132,NA,NA
89121,Clark County,NV,NA,NA,32.71028037383177
89148,Clark County,NV,NA,51.91256830601093,NA
89502,Washoe County,NV,20.5761316872428,NA,NA
03036,Rockingham County,NH,NA,NA,97.19626168224299
03062,Hillsborough County,NH,NA,21.85792349726776,NA
03811,Rockingham County,NH,NA,81.23861566484517,95.32710280373831
03820,Strafford County,NH,NA,25.683060109289617,NA
07003,Essex County,NJ,82.71604938271605,12.932604735883423,NA
07018,Essex County,NJ,NA,9.107468123861565,NA
07043,Essex County,NJ,86.41975308641975,NA,NA
07047,Hudson County,NJ,NA,NA,0.9345794392523363
07055,Passaic County,NJ,NA,13.114754098360656,NA
07065,Union County,NJ,NA,NA,87.38317757009347
07105,Essex County,NJ,NA,44.990892531876135,NA
07112,Essex County,NJ,23.456790123456788,NA,NA
07304,Hudson County,NJ,NA,20.036429872495447,NA
07307,Hudson County,NJ,NA,42.25865209471767,NA
07424,Passaic County,NJ,NA,43.169398907103826,NA
07436,Bergen County,NJ,NA,91.43897996357013,NA
07501,Passaic County,NJ,13.991769547325102,NA,NA
07504,Passaic County,NJ,NA,63.20582877959927,NA
07740,Monmouth County,NJ,2.05761316872428,NA,NA
07764,Monmouth County,NJ,NA,90.1639344262295,NA
07928,Morris County,NJ,86.0082304526749,NA,NA
07981,Morris County,NJ,NA,95.81056466302368,NA
08012,Camden County,NJ,NA,8.743169398907105,NA
08033,Camden County,NJ,NA,NA,93.45794392523365
08037,Atlantic County,NJ,80.24691358024691,NA,NA
08046,Burlington County,NJ,45.67901234567901,NA,NA
08054,Burlington County,NJ,40.74074074074074,NA,NA
08104,Camden County,NJ,10.699588477366255,NA,2.336448598130841
08105,Camden County,NJ,5.761316872427984,2.185792349726776,NA
08302,Cumberland County,NJ,NA,79.41712204007287,NA
08332,Cumberland County,NJ,NA,56.830601092896174,NA
08360,Cumberland County,NJ,NA,NA,89.7196261682243
08401,Atlantic County,NJ,NA,41.53005464480874,NA
08610,Mercer County,NJ,16.46090534979424,NA,NA
08724,Ocean County,NJ,NA,12.750455373406194,NA
08807,Somerset County,NJ,NA,33.51548269581057,NA
08861,Middlesex County,NJ,NA,14.571948998178508,48.13084112149533
08865,Warren County,NJ,NA,84.51730418943534,NA
08901,Middlesex County,NJ,22.633744855967077,NA,NA
87031,Valencia County,NM,NA,63.02367941712204,NA
87110,Bernalillo County,NM,NA,15.1183970856102,NA
87111,Bernalillo County,NM,18.106995884773664,NA,NA
87121,Bernalillo County,NM,4.938271604938271,NA,NA
87123,Bernalillo County,NM,23.045267489711936,NA,NA
87301,McKinley County,NM,30.04115226337449,NA,NA
88012,Doa Ana County,NM,NA,NA,46.26168224299065
88210,Eddy County,NM,NA,48.08743169398907,NA
88220,Eddy County,NM,28.80658436213992,NA,NA
88240,Lea County,NM,NA,30.05464480874317,NA
10002,New York County,NY,NA,42.62295081967213,3.2710280373831773
10011,New York County,NY,NA,43.35154826958106,NA
10025,New York County,NY,NA,9.289617486338798,NA
10027,New York County,NY,NA,8.014571948998178,NA
10029,New York County,NY,34.97942386831276,NA,NA
10032,New York County,NY,NA,NA,7.943925233644859
10034,New York County,NY,NA,66.12021857923497,NA
10037,New York County,NY,72.0164609053498,42.4408014571949,NA
10454,Bronx County,NY,NA,NA,76.63551401869158
10455,Bronx County,NY,47.73662551440329,NA,NA
10457,Bronx County,NY,NA,0.9107468123861567,NA
10460,Bronx County,NY,NA,3.096539162112933,NA
10463,Bronx County,NY,NA,11.657559198542804,NA
10467,Bronx County,NY,NA,0.7285974499089253,NA
10468,Bronx County,NY,NA,2.3679417122040074,NA
10473,Bronx County,NY,NA,7.285974499089254,NA
10512,Putnam County,NY,NA,76.86703096539162,NA
11001,Nassau County,NY,NA,83.97085610200364,NA
11103,Queens County,NY,NA,NA,56.074766355140184
11205,Kings County,NY,NA,15.846994535519126,NA
11208,Kings County,NY,NA,2.0036429872495445,NA
11213,Kings County,NY,27.572016460905353,NA,NA
11219,Kings County,NY,NA,NA,21.49532710280374
11374,Queens County,NY,NA,68.48816029143899,NA
11427,Queens County,NY,NA,NA,62.616822429906534
11710,Nassau County,NY,NA,66.66666666666666,NA
12118,Saratoga County,NY,NA,60.65573770491803,NA
12144,Rensselaer County,NY,NA,45.3551912568306,NA
12206,Albany County,NY,NA,23.31511839708561,NA
12208,Albany County,NY,NA,63.934426229508205,NA
12804,Warren County,NY,NA,35.154826958105645,NA
12816,Washington County,NY,NA,NA,77.10280373831776
12883,Essex County,NY,NA,77.04918032786885,NA
12944,Essex County,NY,NA,74.4990892531876,NA
13021,Cayuga County,NY,NA,4.918032786885246,NA
13029,Onondaga County,NY,NA,73.58834244080145,NA
13033,Cayuga County,NY,NA,93.0783242258652,NA
13036,Oswego County,NY,NA,59.92714025500911,NA
13039,Onondaga County,NY,60.90534979423868,NA,NA
13092,Cayuga County,NY,89.30041152263375,NA,NA
13206,Onondaga County,NY,NA,82.33151183970855,NA
13207,Onondaga County,NY,NA,34.60837887067395,NA
13210,Onondaga County,NY,NA,38.79781420765027,NA
13350,Herkimer County,NY,NA,67.39526411657559,NA
13413,Oneida County,NY,NA,52.82331511839708,NA
13421,Madison County,NY,NA,28.415300546448087,NA
13440,Oneida County,NY,NA,48.998178506375226,NA
13648,Lewis County,NY,NA,93.6247723132969,NA
13732,Tioga County,NY,NA,51.54826958105647,NA
13760,Broome County,NY,NA,1.8214936247723135,NA
13815,Chenango County,NY,NA,17.66848816029144,NA
14051,Erie County,NY,NA,46.083788706739526,NA
14086,Erie County,NY,NA,23.497267759562842,NA
14120,Niagara County,NY,NA,7.650273224043716,NA
14211,Erie County,NY,NA,36.0655737704918,NA
14212,Erie County,NY,NA,71.94899817850637,NA
14219,Erie County,NY,NA,78.14207650273224,NA
14220,Erie County,NY,NA,17.48633879781421,NA
14225,Erie County,NY,NA,12.568306010928962,NA
14425,Ontario County,NY,NA,20.76502732240437,NA
14454,Livingston County,NY,NA,72.1311475409836,NA
14456,Ontario County,NY,NA,11.11111111111111,5.607476635514018
14471,Ontario County,NY,98.76543209876543,NA,NA
14506,Monroe County,NY,NA,98.1785063752277,NA
14513,Wayne County,NY,NA,8.378870673952642,NA
14532,Ontario County,NY,NA,56.466302367941715,NA
14534,Monroe County,NY,NA,9.836065573770492,NA
14544,Yates County,NY,NA,96.35701275045537,NA
14561,Ontario County,NY,NA,80.69216757741347,NA
14580,Monroe County,NY,1.2345679012345678,NA,NA
14608,Monroe County,NY,NA,46.81238615664845,NA
14609,Monroe County,NY,NA,0.546448087431694,NA
14611,Monroe County,NY,NA,NA,19.158878504672895
14621,Monroe County,NY,NA,1.092896174863388,NA
14626,Monroe County,NY,NA,NA,27.102803738317753
14737,Cattaraugus County,NY,NA,85.97449908925319,NA
14813,Allegany County,NY,85.18518518518519,NA,NA
14830,Steuben County,NY,NA,27.504553734061933,33.177570093457945
14843,Steuben County,NY,NA,24.95446265938069,NA
27107,Forsyth County,NC,9.876543209876543,NA,NA
27127,Forsyth County,NC,NA,18.0327868852459,NA
27295,Davidson County,NC,6.995884773662551,NA,NA
27332,Lee County,NC,NA,41.712204007285976,NA
27407,Guilford County,NC,38.68312757201646,NA,NA
27410,Guilford County,NC,NA,87.06739526411657,NA
27526,Wake County,NC,31.275720164609055,NA,NA
27539,Wake County,NC,NA,60.10928961748634,NA
27587,Wake County,NC,NA,NA,9.345794392523365
27591,Wake County,NC,71.60493827160494,NA,NA
27597,Wake County,NC,53.086419753086425,NA,52.80373831775701
27606,Wake County,NC,NA,75.40983606557377,NA
27707,Durham County,NC,27.160493827160494,NA,NA
27844,Halifax County,NC,NA,99.08925318761385,NA
27886,Edgecombe County,NC,NA,39.708561020036434,NA
28073,Cleveland County,NC,NA,84.8816029143898,NA
28139,Rutherford County,NC,NA,40.98360655737705,NA
28152,Cleveland County,NC,NA,41.34790528233151,NA
28174,Union County,NC,NA,NA,99.53271028037383
28270,Mecklenburg County,NC,NA,NA,41.58878504672897
28314,Cumberland County,NC,NA,34.42622950819672,NA
28358,Robeson County,NC,NA,NA,31.775700934579437
28365,Wayne County,NC,67.90123456790124,NA,NA
28376,Hoke County,NC,NA,NA,81.30841121495327
28469,Brunswick County,NC,NA,NA,73.36448598130842
28560,Craven County,NC,NA,NA,36.44859813084112
28572,Duplin County,NC,94.65020576131687,NA,NA
28730,Buncombe County,NC,NA,NA,82.71028037383178
28734,Macon County,NC,NA,NA,8.878504672897195
28762,McDowell County,NC,NA,79.59927140255009,NA
28792,Henderson County,NC,NA,NA,88.78504672897196
58103,Cass County,ND,NA,10.564663023679417,NA
58554,Morton County,ND,49.382716049382715,81.60291438979964,NA
43081,Franklin County,OH,13.580246913580247,NA,NA
43221,Franklin County,OH,NA,65.7559198542805,NA
43230,Franklin County,OH,NA,18.94353369763206,NA
43506,Williams County,OH,66.66666666666666,NA,NA
43570,Williams County,OH,NA,NA,99.06542056074767
43613,Lucas County,OH,NA,5.828779599271402,NA
43616,Lucas County,OH,NA,47.35883424408014,NA
43912,Belmont County,OH,NA,56.102003642987256,NA
43950,Belmont County,OH,NA,45.173041894353375,NA
43952,Jefferson County,OH,NA,77.95992714025502,NA
44004,Ashtabula County,OH,2.4691358024691357,NA,NA
44011,Lorain County,OH,NA,34.244080145719494,NA
44030,Ashtabula County,OH,NA,57.377049180327866,15.887850467289718
44035,Lorain County,OH,1.646090534979424,NA,NA
44053,Lorain County,OH,NA,12.2040072859745,NA
44094,Lake County,OH,NA,22.040072859744992,4.672897196261682
44095,Lake County,OH,NA,NA,9.813084112149532
44102,Cuyahoga County,OH,NA,22.586520947176687,NA
44104,Cuyahoga County,OH,15.637860082304528,NA,NA
44105,Cuyahoga County,OH,5.349794238683128,1.2750455373406193,NA
44107,Cuyahoga County,OH,NA,NA,38.31775700934579
44108,Cuyahoga County,OH,NA,4.189435336976321,NA
44130,Cuyahoga County,OH,NA,7.468123861566485,NA
44133,Cuyahoga County,OH,NA,NA,12.616822429906541
44203,Summit County,OH,6.172839506172839,NA,NA
44221,Summit County,OH,41.56378600823045,NA,NA
44312,Summit County,OH,NA,17.850637522768668,NA
44333,Summit County,OH,NA,69.76320582877959,NA
44512,Mahoning County,OH,NA,13.661202185792352,NA
44601,Stark County,OH,6.584362139917696,NA,NA
44824,Erie County,OH,NA,NA,81.77570093457945
44857,Huron County,OH,NA,NA,8.411214953271028
45013,Butler County,OH,NA,5.100182149362477,NA
45036,Warren County,OH,NA,NA,28.971962616822427
45039,Warren County,OH,NA,NA,78.50467289719626
45123,Highland County,OH,60.49382716049383,NA,NA
45133,Highland County,OH,NA,NA,21.962616822429908
45150,Clermont County,OH,NA,NA,32.242990654205606
45205,Hamilton County,OH,NA,26.04735883424408,NA
45230,Hamilton County,OH,NA,79.23497267759562,NA
45237,Hamilton County,OH,46.09053497942387,NA,53.271028037383175
45406,Montgomery County,OH,39.91769547325103,NA,NA
45410,Montgomery County,OH,73.25102880658436,NA,NA
45502,Clark County,OH,NA,NA,51.86915887850467
45601,Ross County,OH,NA,8.925318761384334,NA
45638,Lawrence County,OH,NA,27.140255009107467,NA
45640,Jackson County,OH,NA,10.200364298724955,NA
45694,Scioto County,OH,NA,32.60473588342441,NA
45771,Meigs County,OH,NA,79.96357012750455,NA
45804,Allen County,OH,25.102880658436217,NA,NA
45840,Hancock County,OH,16.872427983539097,NA,NA
73020,Oklahoma County,OK,NA,96.17486338797814,NA
73116,Oklahoma County,OK,88.47736625514403,NA,NA
73119,Oklahoma County,OK,NA,26.958105646630237,NA
73162,Oklahoma County,OK,63.78600823045267,NA,NA
73401,Carter County,OK,NA,17.304189435336976,NA
73460,Johnston County,OK,NA,85.79234972677595,NA
74447,Okmulgee County,OK,NA,67.94171220400729,NA
97007,Washington County,OR,19.753086419753085,NA,NA
97045,Clackamas County,OR,20.5761316872428,NA,NA
97219,Multnomah County,OR,NA,60.83788706739527,NA
97223,Washington County,OR,NA,76.32058287795994,NA
97236,Multnomah County,OR,53.497942386831276,NA,NA
97301,Marion County,OR,NA,16.21129326047359,NA
97321,Linn County,OR,NA,61.56648451730419,NA
97402,Lane County,OR,NA,24.043715846994534,NA
97470,Douglas County,OR,NA,33.87978142076503,NA
15001,Beaver County,PA,NA,70.30965391621129,NA
15003,Beaver County,PA,NA,69.2167577413479,NA
15213,Allegheny County,PA,NA,70.49180327868852,NA
15522,Bedford County,PA,NA,NA,70.56074766355141
16001,Butler County,PA,NA,5.46448087431694,NA
16148,Mercer County,PA,NA,52.27686703096539,NA
16602,Blair County,PA,NA,95.99271402550092,NA
16652,Huntingdon County,PA,NA,43.71584699453552,NA
16823,Centre County,PA,NA,25.136612021857925,NA
16827,Centre County,PA,93.82716049382715,NA,NA
16875,Centre County,PA,99.58847736625515,NA,NA
17003,Lebanon County,PA,NA,NA,45.32710280373832
17011,Cumberland County,PA,32.098765432098766,NA,NA
17013,Cumberland County,PA,24.279835390946502,NA,NA
17022,Lancaster County,PA,NA,19.672131147540984,NA
17042,Lebanon County,PA,8.23045267489712,NA,NA
17046,Lebanon County,PA,10.2880658436214,NA,NA
17055,Cumberland County,PA,NA,63.387978142076506,NA
17112,Dauphin County,PA,NA,20.036429872495447,NA
17268,Franklin County,PA,NA,94.53551912568307,NA
17406,York County,PA,75.30864197530865,NA,NA
17512,Lancaster County,PA,NA,46.994535519125684,NA
17543,Lancaster County,PA,NA,27.686703096539162,NA
17554,Lancaster County,PA,NA,83.60655737704919,NA
17601,Lancaster County,PA,42.38683127572017,NA,NA
17603,Lancaster County,PA,18.930041152263374,NA,NA
17745,Clinton County,PA,NA,44.626593806921676,NA
17821,Montour County,PA,NA,NA,16.355140186915886
17851,Northumberland County,PA,78.18930041152264,NA,NA
17948,Schuylkill County,PA,NA,89.25318761384335,NA
18014,Northampton County,PA,NA,48.63387978142077,NA
18201,Luzerne County,PA,37.4485596707819,NA,NA
18222,Luzerne County,PA,83.1275720164609,NA,NA
18337,Pike County,PA,NA,97.632058287796,NA
18603,Columbia County,PA,NA,NA,20.093457943925234
18612,Luzerne County,PA,NA,58.1056466302368,NA
18706,Luzerne County,PA,NA,42.98724954462659,NA
18966,Bucks County,PA,NA,19.854280510018217,NA
19047,Bucks County,PA,NA,NA,18.22429906542056
19064,Delaware County,PA,12.345679012345679,NA,NA
19116,Philadelphia County,PA,76.95473251028807,NA,NA
19142,Philadelphia County,PA,NA,15.846994535519126,NA
19144,Philadelphia County,PA,NA,7.832422586520947,NA
19147,Philadelphia County,PA,NA,NA,56.54205607476636
19150,Philadelphia County,PA,NA,NA,54.20560747663551
19320,Chester County,PA,NA,37.704918032786885,NA
19530,Berks County,PA,NA,NA,58.41121495327103
19606,Berks County,PA,NA,14.389799635701275,NA
19609,Berks County,PA,NA,97.81420765027322,NA
02816,Kent County,RI,NA,NA,15.42056074766355
02852,Washington County,RI,58.43621399176955,NA,NA
02879,Washington County,RI,83.9506172839506,NA,NA
02889,Kent County,RI,NA,28.96174863387978,NA
02908,Providence County,RI,NA,45.537340619307834,NA
29036,Lexington County,SC,NA,69.03460837887067,67.28971962616822
29063,Richland County,SC,68.72427983539094,NA,NA
29108,Newberry County,SC,NA,58.65209471766849,NA
29306,Spartanburg County,SC,NA,NA,61.6822429906542
29445,Berkeley County,SC,12.757201646090536,NA,NA
29456,Dorchester County,SC,35.80246913580247,NA,NA
29505,Florence County,SC,NA,NA,48.598130841121495
29527,Horry County,SC,36.62551440329218,NA,NA
29550,Darlington County,SC,NA,NA,24.299065420560748
29607,Greenville County,SC,NA,32.240437158469945,NA
29615,Greenville County,SC,NA,96.72131147540983,NA
29620,Abbeville County,SC,NA,NA,59.345794392523366
29651,Greenville County,SC,NA,NA,14.018691588785046
29681,Greenville County,SC,39.50617283950617,NA,NA
29732,York County,SC,NA,34.790528233151186,NA
29801,Aiken County,SC,NA,44.80874316939891,NA
57103,Minnehaha County,SD,NA,NA,26.168224299065418
57785,Meade County,SD,87.65432098765432,NA,NA
37098,Hickman County,TN,NA,NA,96.26168224299066
37179,Williamson County,TN,NA,95.44626593806922,NA
37334,Lincoln County,TN,60.08230452674898,NA,NA
37388,Coffee County,TN,NA,35.701275045537336,NA
37407,Hamilton County,TN,76.13168724279835,NA,NA
37643,Carter County,TN,NA,15.664845173041893,NA
37721,Knox County,TN,NA,68.12386156648452,NA
37722,Cocke County,TN,NA,88.16029143897997,NA
37766,Campbell County,TN,NA,38.97996357012751,NA
37814,Hamblen County,TN,47.325102880658434,NA,NA
37840,Roane County,TN,NA,72.85974499089252,NA
37873,Hawkins County,TN,NA,NA,94.85981308411215
38105,Shelby County,TN,83.1275720164609,NA,NA
38118,Shelby County,TN,NA,53.916211293260474,NA
38122,Shelby County,TN,50.617283950617285,NA,NA
38305,Madison County,TN,NA,NA,11.682242990654206
75038,Dallas County,TX,NA,62.295081967213115,NA
75061,Dallas County,TX,11.11111111111111,54.644808743169406,NA
75110,Navarro County,TX,NA,48.26958105646631,NA
75115,Dallas County,TX,NA,26.41165755919854,NA
75125,Ellis County,TX,NA,94.71766848816029,NA
75159,Dallas County,TX,NA,NA,71.49532710280374
75214,Dallas County,TX,56.79012345679012,NA,NA
75228,Dallas County,TX,7.818930041152264,NA,NA
75662,Gregg County,TX,NA,55.919854280510016,NA
75951,Jasper County,TX,58.8477366255144,NA,NA
76049,Hood County,TX,NA,42.07650273224044,NA
76102,Tarrant County,TX,88.88888888888889,NA,NA
76104,Tarrant County,TX,NA,25.865209471766846,NA
76120,Tarrant County,TX,NA,92.34972677595628,NA
76137,Tarrant County,TX,NA,24.408014571949,NA
76209,Denton County,TX,NA,NA,86.91588785046729
76310,Wichita County,TX,NA,NA,71.96261682242991
76384,Wilbarger County,TX,NA,NA,54.67289719626168
76501,Bell County,TX,NA,64.48087431693989,NA
76528,Coryell County,TX,NA,NA,14.485981308411214
76543,Bell County,TX,13.168724279835391,NA,NA
77020,Harris County,TX,NA,59.74499089253188,NA
77033,Harris County,TX,41.1522633744856,NA,NA
77042,Harris County,TX,NA,NA,63.084112149532714
77318,Montgomery County,TX,NA,NA,66.82242990654206
77377,Harris County,TX,NA,49.90892531876138,NA
77386,Montgomery County,TX,NA,37.15846994535519,NA
77388,Harris County,TX,NA,51.001821493624774,NA
77389,Harris County,TX,55.96707818930041,NA,NA
77469,Fort Bend County,TX,25.514403292181072,NA,NA
77471,Fort Bend County,TX,62.96296296296296,NA,NA
77494,Fort Bend County,TX,7.4074074074074066,NA,NA
77515,Brazoria County,TX,NA,53.18761384335154,NA
77546,Galveston County,TX,NA,NA,10.2803738317757
78223,Bexar County,TX,14.40329218106996,22.768670309653917,NA
78228,Bexar County,TX,4.526748971193416,NA,NA
78232,Bexar County,TX,NA,72.6775956284153,40.18691588785047
78237,Bexar County,TX,NA,33.697632058287795,NA
78258,Bexar County,TX,23.868312757201647,NA,NA
78408,Nueces County,TX,74.48559670781893,NA,NA
78550,Cameron County,TX,NA,47.540983606557376,NA
78610,Hays County,TX,NA,NA,65.88785046728972
78628,Williamson County,TX,NA,NA,55.60747663551402
78633,Williamson County,TX,NA,NA,1.4018691588785046
78746,Travis County,TX,NA,NA,78.03738317757009
79107,Potter County,TX,NA,37.340619307832426,NA
79413,Lubbock County,TX,NA,67.57741347905282,NA
79714,Andrews County,TX,49.794238683127574,NA,NA
79912,El Paso County,TX,NA,30.783242258652095,NA
79932,El Paso County,TX,NA,81.9672131147541,NA
84070,Salt Lake County,UT,51.028806584362144,NA,NA
84084,Salt Lake County,UT,NA,51.36612021857923,NA
84092,Salt Lake County,UT,69.54732510288066,NA,NA
84097,Utah County,UT,NA,NA,78.97196261682244
84119,Salt Lake County,UT,15.22633744855967,16.39344262295082,NA
84120,Salt Lake County,UT,NA,12.021857923497267,NA
84321,Cache County,UT,NA,88.34244080145719,NA
84401,Weber County,UT,NA,48.451730418943534,NA
84720,Iron County,UT,NA,NA,98.13084112149532
84737,Washington County,UT,NA,NA,57.476635514018696
84790,Washington County,UT,NA,50.09107468123861,13.084112149532709
20147,Loudoun County,VA,25.925925925925924,NA,NA
22180,Fairfax County,VA,NA,80.51001821493625,NA
22308,Fairfax County,VA,NA,NA,98.5981308411215
22312,Fairfax County,VA,NA,50.63752276867031,NA
22932,Albemarle County,VA,NA,84.3351548269581,NA
22980,Waynesboro city,VA,NA,65.93806921675774,4.205607476635514
23139,Powhatan County,VA,NA,NA,44.39252336448598
23237,Chesterfield County,VA,75.7201646090535,NA,NA
23238,Henrico County,VA,90.53497942386831,NA,NA
23462,Virginia Beach city,VA,17.28395061728395,NA,NA
23502,Norfolk city,VA,69.95884773662551,NA,NA
23669,Hampton city,VA,NA,26.775956284153008,NA
23847,Greensville County,VA,NA,71.58469945355192,NA
24060,Montgomery County,VA,67.90123456790124,NA,NA
24340,Washington County,VA,72.8395061728395,NA,NA
24368,Wythe County,VA,94.23868312757202,NA,NA
24540,Danville city,VA,NA,31.693989071038253,NA
24592,Halifax County,VA,NA,32.96903460837887,NA
98001,King County,WA,55.144032921810705,NA,NA
98006,King County,WA,NA,59.01639344262295,NA
98020,Snohomish County,WA,NA,83.7887067395264,NA
98056,King County,WA,NA,NA,50.93457943925234
98107,King County,WA,95.88477366255144,NA,NA
98110,Kitsap County,WA,NA,63.57012750455373,NA
98177,King County,WA,NA,71.76684881602914,NA
98201,Snohomish County,WA,NA,53.00546448087432,NA
98273,Skagit County,WA,NA,89.61748633879782,NA
98292,Snohomish County,WA,NA,61.74863387978142,NA
98366,Kitsap County,WA,65.84362139917695,NA,NA
98374,Pierce County,WA,NA,73.04189435336977,NA
98418,Pierce County,WA,NA,NA,76.16822429906543
98501,Thurston County,WA,NA,66.8488160291439,NA
98577,Pacific County,WA,NA,NA,94.39252336448598
98948,Yakima County,WA,NA,89.07103825136612,NA
99337,Benton County,WA,26.337448559670783,NA,NA
20011,District of Columbia,DC,NA,12.386156648451731,NA
20024,District of Columbia,DC,NA,59.38069216757741,NA
24701,Mercer County,WV,58.0246913580247,NA,NA
24740,Mercer County,WV,NA,34.06193078324226,NA
25143,Kanawha County,WV,NA,62.841530054644814,NA
25306,Kanawha County,WV,NA,69.76320582877959,NA
26003,Ohio County,WV,NA,8.561020036429873,NA
26301,Harrison County,WV,NA,10.92896174863388,NA
26330,Harrison County,WV,NA,86.33879781420765,NA
26505,Monongalia County,WV,NA,38.43351548269581,NA
26547,Preston County,WV,NA,95.26411657559198,NA
53072,Waukesha County,WI,44.03292181069959,NA,NA
53132,Milwaukee County,WI,32.098765432098766,NA,23.364485981308412
53179,Kenosha County,WI,NA,66.48451730418944,NA
53202,Milwaukee County,WI,NA,91.98542805100182,NA
53205,Milwaukee County,WI,NA,4.007285974499089,NA
53210,Milwaukee County,WI,NA,11.839708561020036,NA
53215,Milwaukee County,WI,3.292181069958848,NA,NA
53219,Milwaukee County,WI,16.049382716049383,NA,NA
53225,Milwaukee County,WI,9.053497942386832,NA,NA
53402,Racine County,WI,8.641975308641975,NA,NA
53511,Rock County,WI,0.823045267489712,NA,6.074766355140187
53566,Green County,WI,NA,NA,49.532710280373834
53590,Dane County,WI,NA,69.76320582877959,NA
53719,Dane County,WI,NA,95.62841530054644,NA
53901,Columbia County,WI,NA,NA,60.280373831775705
53934,Adams County,WI,NA,89.98178506375227,NA
53950,Juneau County,WI,NA,86.15664845173042,NA
54121,Florence County,WI,NA,93.80692167577413,NA
54666,Monroe County,WI,99.1769547325103,NA,NA
54956,Winnebago County,WI,NA,29.87249544626594,NA
82801,Sheridan County,WY,NA,70.85610200364299,NA
