ZipCode,county,state,Adult,Retirement,Geriatric
35004,St. Clair County,AL,NA,NA,93.03571428571429
35007,Shelby County,AL,NA,42.20055710306407,NA
35020,Jefferson County,AL,NA,NA,38.035714285714285
35023,Jefferson County,AL,NA,52.78551532033426,NA
35085,Chilton County,AL,83.0122591943958,NA,NA
35150,Talladega County,AL,86.33975481611208,NA,NA
35179,Cullman County,AL,83.18739054290718,86.62952646239555,NA
35217,Jefferson County,AL,NA,53.06406685236769,97.67857142857143
35218,Jefferson County,AL,66.72504378283712,NA,NA
35221,Jefferson County,AL,90.01751313485113,NA,NA
35242,Shelby County,AL,67.0753064798599,NA,NA
35406,Tuscaloosa County,AL,NA,52.089136490250695,NA
35475,Tuscaloosa County,AL,NA,54.317548746518106,NA
35504,Walker County,AL,71.45359019264448,69.49860724233984,NA
35565,Winston County,AL,NA,81.33704735376045,NA
35611,Limestone County,AL,NA,64.76323119777159,NA
35630,Lauderdale County,AL,NA,39.55431754874652,NA
35763,Madison County,AL,NA,88.02228412256268,NA
35769,Jackson County,AL,NA,NA,95.35714285714286
35806,Madison County,AL,76.70753064798599,NA,NA
35904,Etowah County,AL,NA,62.116991643454035,NA
35953,St. Clair County,AL,NA,NA,89.10714285714286
35960,Cherokee County,AL,NA,NA,84.28571428571429
36078,Elmore County,AL,NA,NA,80.17857142857143
36092,Elmore County,AL,50.0875656742557,NA,NA
36105,Montgomery County,AL,NA,NA,94.64285714285714
36201,Calhoun County,AL,NA,NA,60.71428571428571
36206,Calhoun County,AL,74.43082311733801,NA,NA
36301,Houston County,AL,NA,16.852367688022284,NA
36305,Houston County,AL,NA,69.08077994428969,NA
36323,Coffee County,AL,NA,96.51810584958217,NA
36340,Geneva County,AL,91.94395796847635,NA,NA
36360,Dale County,AL,51.83887915936952,NA,NA
36375,Geneva County,AL,NA,NA,86.96428571428572
36502,Escambia County,AL,74.78108581436076,NA,NA
36532,Baldwin County,AL,NA,82.31197771587743,NA
36605,Mobile County,AL,NA,NA,66.25
36610,Mobile County,AL,64.44833625218914,NA,NA
36617,Mobile County,AL,NA,89.27576601671309,NA
36693,Mobile County,AL,58.844133099824866,NA,NA
36701,Dallas County,AL,NA,NA,50.71428571428571
36726,Wilcox County,AL,85.11383537653239,NA,NA
99503,Anchorage Municipality,AK,51.138353765324,NA,NA
99517,Anchorage Municipality,AK,NA,82.59052924791087,NA
99603,Kenai Peninsula Borough,AK,NA,NA,67.32142857142858
99654,Matanuska-Susitna Borough,AK,40.4553415061296,46.10027855153203,NA
85009,Maricopa County,AZ,16.46234676007005,NA,NA
85016,Maricopa County,AZ,NA,39.4150417827298,NA
85033,Maricopa County,AZ,20.490367775831874,NA,NA
85037,Maricopa County,AZ,28.896672504378284,NA,NA
85044,Maricopa County,AZ,NA,52.22841225626741,NA
85048,Maricopa County,AZ,77.93345008756567,NA,NA
85205,Maricopa County,AZ,NA,26.740947075208915,NA
85207,Maricopa County,AZ,NA,NA,47.32142857142857
85224,Maricopa County,AZ,49.91243432574431,NA,NA
85266,Maricopa County,AZ,NA,94.5682451253482,NA
85326,Maricopa County,AZ,33.62521891418564,NA,NA
85367,Yuma County,AZ,NA,NA,11.428571428571429
85648,Santa Cruz County,AZ,55.51663747810858,NA,NA
85745,Pima County,AZ,85.28896672504378,NA,NA
86043,Navajo County,AZ,100,NA,NA
86047,Navajo County,AZ,NA,37.1866295264624,NA
86305,Yavapai County,AZ,NA,38.71866295264624,NA
86336,Yavapai County,AZ,79.15936952714536,NA,NA
71603,Jefferson County,AR,NA,NA,25.357142857142854
71857,Nevada County,AR,95.6217162872154,NA,NA
71909,Garland County,AR,NA,35.515320334261844,NA
72113,Pulaski County,AR,NA,51.532033426183844,NA
72117,Pulaski County,AR,NA,83.008356545961007,NA
72143,White County,AR,NA,NA,6.785714285714286
72204,Pulaski County,AR,NA,33.70473537604457,NA
72206,Pulaski County,AR,NA,31.47632311977716,NA
72315,Mississippi County,AR,56.3922942206655,NA,NA
72455,Randolph County,AR,NA,NA,79.82142857142858
72560,Stone County,AR,NA,64.20612813370474,NA
72601,Boone County,AR,58.66900175131349,NA,NA
72715,Benton County,AR,NA,65.73816155988858,NA
72736,Benton County,AR,NA,NA,93.03571428571429
72801,Pope County,AR,NA,NA,74.10714285714286
72837,Pope County,AR,NA,93.7325905292479,NA
72855,Logan County,AR,84.58844133099825,92.75766016713092,NA
72903,Sebastian County,AR,NA,NA,53.035714285714285
72904,Sebastian County,AR,NA,NA,57.67857142857142
90008,Los Angeles County,CA,NA,46.10027855153203,NA
90011,Los Angeles County,CA,NA,50.13927576601671,NA
90015,Los Angeles County,CA,NA,84.26183844011142,NA
90019,Los Angeles County,CA,NA,27.99442896935933,NA
90025,Los Angeles County,CA,NA,39.83286908077994,NA
90026,Los Angeles County,CA,51.48861646234676,NA,NA
90027,Los Angeles County,CA,NA,60.863509749303624,18.392857142857146
90029,Los Angeles County,CA,NA,75.34818941504177,NA
90033,Los Angeles County,CA,NA,54.317548746518106,NA
90041,Los Angeles County,CA,74.43082311733801,NA,NA
90059,Los Angeles County,CA,39.92994746059544,NA,61.78571428571429
90064,Los Angeles County,CA,NA,NA,23.75
90201,Los Angeles County,CA,65.8493870402802,NA,NA
90250,Los Angeles County,CA,NA,25.90529247910863,NA
90255,Los Angeles County,CA,NA,NA,66.42857142857143
90277,Los Angeles County,CA,NA,NA,51.07142857142857
90740,Orange County,CA,NA,NA,56.785714285714285
90807,Los Angeles County,CA,54.64098073555166,NA,NA
91024,Los Angeles County,CA,NA,96.93593314763231,NA
91331,Los Angeles County,CA,NA,20.055710306406684,NA
91335,Los Angeles County,CA,NA,NA,11.964285714285715
91344,Los Angeles County,CA,NA,NA,21.428571428571427
91401,Los Angeles County,CA,NA,NA,83.57142857142857
91702,Los Angeles County,CA,NA,NA,51.964285714285715
91723,Los Angeles County,CA,NA,89.55431754874652,NA
91730,San Bernardino County,CA,NA,75.4874651810585,NA
91910,San Diego County,CA,NA,NA,12.142857142857142
91911,San Diego County,CA,NA,NA,67.85714285714286
91942,San Diego County,CA,65.8493870402802,NA,NA
91945,San Diego County,CA,89.14185639229422,NA,NA
91977,San Diego County,CA,NA,NA,34.64285714285714
92026,San Diego County,CA,NA,52.50696378830083,NA
92027,San Diego County,CA,51.66374781085814,NA,NA
92056,San Diego County,CA,NA,36.49025069637883,NA
92065,San Diego County,CA,NA,69.77715877437326,NA
92101,San Diego County,CA,NA,NA,38.57142857142858
92109,San Diego County,CA,NA,59.888579387186624,NA
92113,San Diego County,CA,NA,NA,52.32142857142858
92117,San Diego County,CA,NA,NA,68.92857142857143
92129,San Diego County,CA,NA,52.64623955431755,NA
92211,Riverside County,CA,NA,NA,4.107142857142857
92301,San Bernardino County,CA,68.30122591943957,NA,NA
92311,San Bernardino County,CA,41.33099824868651,NA,NA
92394,San Bernardino County,CA,NA,NA,74.82142857142857
92395,San Bernardino County,CA,89.31698774080562,NA,NA
92397,San Bernardino County,CA,NA,90.94707520891365,NA
92548,Riverside County,CA,NA,NA,99.46428571428572
92553,Riverside County,CA,31.34851138353765,NA,NA
92591,Riverside County,CA,NA,61.00278551532033,NA
92626,Orange County,CA,NA,49.30362116991643,NA
92646,Orange County,CA,NA,NA,55.35714285714286
92688,Orange County,CA,NA,76.46239554317549,NA
92704,Orange County,CA,37.828371278458846,NA,NA
92801,Orange County,CA,NA,NA,40.714285714285715
92804,Orange County,CA,47.98598949211909,NA,NA
92844,Orange County,CA,95.44658493870402,NA,NA
92870,Orange County,CA,NA,24.512534818941504,NA
93001,Ventura County,CA,NA,32.729805013927574,NA
93021,Ventura County,CA,NA,55.29247910863509,NA
93110,Santa Barbara County,CA,NA,NA,80.53571428571429
93215,Kern County,CA,NA,97.07520891364902,NA
93230,Kings County,CA,NA,NA,23.392857142857142
93257,Tulare County,CA,NA,23.676880222841227,NA
93274,Tulare County,CA,NA,20.334261838440113,26.785714285714285
93311,Kern County,CA,63.92294220665499,NA,NA
93312,Kern County,CA,43.78283712784589,NA,NA
93402,San Luis Obispo County,CA,NA,NA,81.25
93422,San Luis Obispo County,CA,NA,50.41782729805014,NA
93455,Santa Barbara County,CA,36.42732049036778,NA,NA
93534,Los Angeles County,CA,NA,42.757660167130915,NA
93535,Los Angeles County,CA,11.208406304728546,77.15877437325905,NA
93620,Merced County,CA,92.6444833625219,NA,NA
93638,Madera County,CA,NA,51.25348189415042,NA
93705,Fresno County,CA,NA,47.910863509749305,NA
93907,Monterey County,CA,77.23292469352015,NA,NA
93923,Monterey County,CA,NA,NA,11.071428571428571
93940,Monterey County,CA,NA,30.22284122562674,NA
94066,San Mateo County,CA,NA,NA,12.678571428571427
94103,San Francisco County,CA,NA,18.94150417827298,NA
94108,San Francisco County,CA,NA,94.01114206128133,NA
94112,San Francisco County,CA,NA,NA,3.75
94116,San Francisco County,CA,NA,NA,12.321428571428573
94118,San Francisco County,CA,NA,39.27576601671309,NA
94301,Santa Clara County,CA,NA,89.69359331476323,NA
94303,San Mateo County,CA,NA,NA,27.857142857142858
94513,Contra Costa County,CA,NA,NA,30.178571428571427
94519,Contra Costa County,CA,NA,86.90807799442896,NA
94521,Contra Costa County,CA,NA,43.73259052924791,NA
94530,Contra Costa County,CA,NA,65.59888579387186,NA
94531,Contra Costa County,CA,NA,NA,41.42857142857143
94538,Alameda County,CA,NA,NA,20.17857142857143
94589,Solano County,CA,NA,NA,72.5
94590,Solano County,CA,NA,NA,73.75
94598,Contra Costa County,CA,NA,58.91364902506964,NA
94602,Alameda County,CA,NA,63.370473537604454,NA
94607,Alameda County,CA,NA,82.8690807799443,NA
94610,Alameda County,CA,NA,73.25905292479109,NA
94611,Alameda County,CA,NA,24.094707520891365,NA
94702,Alameda County,CA,NA,NA,64.28571428571429
94804,Contra Costa County,CA,NA,90.80779944289694,NA
94806,Contra Costa County,CA,NA,NA,20.892857142857142
94952,Sonoma County,CA,NA,NA,76.25
95032,Santa Clara County,CA,NA,72.98050139275766,NA
95076,Santa Cruz County,CA,NA,57.242339832869085,NA
95120,Santa Clara County,CA,NA,85.79387186629526,NA
95127,Santa Clara County,CA,NA,NA,26.25
95222,Calaveras County,CA,NA,NA,67.14285714285714
95252,Calaveras County,CA,80.73555166374781,NA,NA
95391,San Joaquin County,CA,NA,NA,97.5
95401,Sonoma County,CA,NA,54.038997214484674,NA
95403,Sonoma County,CA,NA,NA,48.57142857142857
95407,Sonoma County,CA,NA,87.74373259052925,NA
95476,Sonoma County,CA,NA,74.93036211699165,NA
95482,Mendocino County,CA,NA,66.29526462395543,NA
95490,Mendocino County,CA,NA,NA,57.14285714285714
95603,Placer County,CA,NA,50.69637883008357,NA
95624,Sacramento County,CA,NA,NA,69.28571428571428
95630,Sacramento County,CA,NA,NA,24.642857142857146
95661,Placer County,CA,83.88791593695272,NA,NA
95688,Solano County,CA,67.77583187390543,NA,NA
95726,El Dorado County,CA,NA,86.0724233983287,NA
95747,Placer County,CA,NA,44.01114206128134,NA
95816,Sacramento County,CA,56.74255691768827,NA,NA
95823,Sacramento County,CA,NA,20.473537604456823,NA
95825,Sacramento County,CA,NA,NA,39.107142857142854
95831,Sacramento County,CA,NA,NA,23.92857142857143
95953,Sutter County,CA,NA,97.21448467966573,NA
95954,Butte County,CA,86.51488616462348,NA,NA
95991,Sutter County,CA,NA,42.20055710306407,70.17857142857142
96001,Shasta County,CA,NA,NA,44.46428571428571
80010,Arapahoe County,CO,NA,48.74651810584958,NA
80011,Arapahoe County,CO,10.157618213660244,37.74373259052925,NA
80113,Arapahoe County,CO,NA,94.84679665738162,NA
80126,Douglas County,CO,54.81611208406305,NA,NA
80132,El Paso County,CO,NA,63.64902506963789,NA
80206,Denver County,CO,71.2784588441331,NA,NA
80214,Jefferson County,CO,NA,73.81615598885793,NA
80219,Denver County,CO,5.078809106830122,NA,NA
80231,Denver County,CO,NA,NA,53.39285714285714
80550,Weld County,CO,34.32574430823117,NA,NA
80602,Adams County,CO,51.31348511383538,NA,NA
80634,Weld County,CO,NA,17.13091922005571,NA
80817,El Paso County,CO,NA,88.99721448467966,NA
80831,El Paso County,CO,NA,78.27298050139275,NA
80903,El Paso County,CO,NA,87.88300835654597,NA
80910,El Paso County,CO,NA,NA,67.67857142857143
80918,El Paso County,CO,NA,38.85793871866296,NA
80922,El Paso County,CO,59.54465849387041,NA,NA
81006,Pueblo County,CO,NA,NA,72.14285714285714
81226,Fremont County,CO,NA,91.5041782729805,NA
81230,Gunnison County,CO,NA,NA,81.96428571428571
81321,Montezuma County,CO,NA,67.27019498607241,NA
81521,Mesa County,CO,NA,72.98050139275766,68.03571428571429
06026,Hartford County,CT,NA,NA,99.10714285714286
06053,Hartford County,CT,12.95971978984238,NA,NA
06084,Tolland County,CT,76.5323992994746,NA,NA
06095,Hartford County,CT,NA,31.894150417827298,NA
06120,Hartford County,CT,77.5831873905429,NA,NA
06238,Tolland County,CT,NA,NA,78.75
06260,Windham County,CT,66.19964973730298,NA,NA
06477,New Haven County,CT,NA,81.05849582172702,NA
06489,Hartford County,CT,NA,18.662952646239557,NA
06513,New Haven County,CT,24.34325744308231,NA,NA
06514,New Haven County,CT,NA,87.04735376044567,NA
06518,New Haven County,CT,NA,NA,32.67857142857143
06519,New Haven County,CT,NA,80.64066852367688,NA
06605,Fairfield County,CT,NA,65.87743732590529,NA
06708,New Haven County,CT,NA,38.99721448467967,NA
06787,Litchfield County,CT,NA,96.7966573816156,NA
06810,Fairfield County,CT,NA,NA,28.035714285714285
06811,Fairfield County,CT,NA,29.526462395543174,NA
06880,Fairfield County,CT,NA,94.42896935933148,NA
19701,New Castle County,DE,NA,NA,43.57142857142857
19711,New Castle County,DE,NA,11.002785515320335,NA
19713,New Castle County,DE,NA,69.63788300835655,NA
19720,New Castle County,DE,NA,3.203342618384401,NA
19734,New Castle County,DE,90.36777583187391,NA,NA
19970,Sussex County,DE,NA,NA,54.64285714285714
19973,Sussex County,DE,NA,60.44568245125348,NA
32060,Suwannee County,FL,NA,51.25348189415042,NA
32068,Clay County,FL,14.535901926444833,NA,NA
32137,Flagler County,FL,56.56742556917689,7.938718662952645,NA
32162,Sumter County,FL,NA,2.3676880222841223,NA
32177,Putnam County,FL,NA,62.95264623955432,NA
32205,Duval County,FL,NA,NA,65.17857142857143
32206,Duval County,FL,NA,NA,70
32209,Duval County,FL,NA,15.181058495821729,NA
32219,Duval County,FL,NA,NA,95.71428571428572
32250,Duval County,FL,NA,34.958217270194986,NA
32256,Duval County,FL,NA,NA,31.607142857142854
32351,Gadsden County,FL,NA,NA,88.03571428571428
32401,Bay County,FL,NA,NA,70.53571428571429
32504,Escambia County,FL,NA,30.779944289693596,NA
32526,Escambia County,FL,NA,9.88857938718663,NA
32563,Santa Rosa County,FL,38.353765323992995,NA,NA
32578,Okaloosa County,FL,NA,21.16991643454039,NA
32605,Alachua County,FL,NA,71.86629526462396,NA
32725,Volusia County,FL,69.35201401050787,NA,NA
32750,Seminole County,FL,NA,NA,95.89285714285715
32767,Lake County,FL,NA,99.86072423398329,NA
32776,Lake County,FL,81.08581436077058,NA,NA
32808,Orange County,FL,19.264448336252187,NA,NA
32809,Orange County,FL,52.1891418563923,NA,NA
32811,Orange County,FL,NA,NA,79.10714285714285
32817,Orange County,FL,NA,70.75208913649024,NA
32818,Orange County,FL,20.84063047285464,55.84958217270195,NA
32922,Brevard County,FL,NA,92.61838440111421,NA
32940,Brevard County,FL,NA,NA,6.25
32955,Brevard County,FL,53.94045534150613,NA,NA
33004,Broward County,FL,76.18213660245185,NA,NA
33023,Broward County,FL,NA,48.74651810584958,NA
33054,Miami-Dade County,FL,NA,NA,66.07142857142857
33155,Miami-Dade County,FL,NA,34.26183844011142,NA
33174,Miami-Dade County,FL,NA,NA,16.25
33176,Miami-Dade County,FL,69.52714535901926,NA,NA
33181,Miami-Dade County,FL,NA,NA,70.71428571428572
33189,Miami-Dade County,FL,NA,NA,65
33311,Broward County,FL,NA,22.42339832869081,NA
33322,Broward County,FL,NA,33.28690807799443,NA
33407,Palm Beach County,FL,NA,58.07799442896936,NA
33471,Glades County,FL,NA,96.37883008356546,NA
33496,Palm Beach County,FL,NA,NA,7.5
33525,Pasco County,FL,NA,47.63231197771588,NA
33572,Hillsborough County,FL,NA,63.091922005571035,NA
33604,Hillsborough County,FL,27.495621716287218,NA,NA
33707,Pinellas County,FL,NA,NA,24.285714285714285
33755,Pinellas County,FL,NA,68.66295264623955,NA
33801,Polk County,FL,26.444833625218916,NA,NA
33815,Polk County,FL,NA,NA,83.75
33825,Highlands County,FL,54.81611208406305,NA,NA
33837,Polk County,FL,NA,53.06406685236769,NA
33841,Polk County,FL,91.41856392294221,NA,NA
33872,Highlands County,FL,70.40280210157619,NA,NA
33876,Highlands County,FL,NA,93.59331476323119,NA
33881,Polk County,FL,NA,36.629526462395546,NA
33928,Lee County,FL,NA,35.23676880222841,NA
33976,Lee County,FL,72.67950963222417,NA,NA
33983,Charlotte County,FL,NA,94.15041782729804,57.14285714285714
34108,Collier County,FL,NA,NA,32.142857142857146
34110,Collier County,FL,NA,NA,14.107142857142858
34112,Collier County,FL,NA,40.947075208913645,NA
34120,Collier County,FL,NA,NA,83.21428571428572
34145,Collier County,FL,NA,NA,29.107142857142858
34205,Manatee County,FL,39.05429071803853,NA,NA
34207,Manatee County,FL,NA,NA,48.92857142857142
34210,Manatee County,FL,96.8476357267951,NA,NA
34231,Sarasota County,FL,57.09281961471103,NA,NA
34232,Sarasota County,FL,NA,NA,58.57142857142858
34233,Sarasota County,FL,NA,NA,26.607142857142858
34234,Sarasota County,FL,45.18388791593696,NA,NA
34236,Sarasota County,FL,NA,NA,50.535714285714285
34239,Sarasota County,FL,NA,NA,44.82142857142858
34243,Manatee County,FL,NA,NA,55.17857142857143
34428,Citrus County,FL,NA,NA,84.10714285714286
34432,Marion County,FL,NA,NA,85.53571428571428
34450,Citrus County,FL,NA,NA,61.78571428571429
34484,Sumter County,FL,NA,NA,98.21428571428571
34606,Hernando County,FL,47.46059544658494,NA,NA
34610,Pasco County,FL,68.65148861646234,NA,NA
34668,Pasco County,FL,14.36077057793345,NA,NA
34684,Pinellas County,FL,NA,13.649025069637883,NA
34689,Pinellas County,FL,NA,43.871866295264624,NA
34698,Pinellas County,FL,NA,NA,16.607142857142858
34744,Osceola County,FL,NA,NA,47.67857142857143
34947,St. Lucie County,FL,57.61821366024519,NA,87.85714285714286
34957,Martin County,FL,NA,87.46518105849582,NA
34990,Martin County,FL,NA,NA,25.892857142857146
30012,Rockdale County,GA,NA,NA,63.035714285714285
30014,Newton County,GA,NA,33.98328690807799,NA
30016,Newton County,GA,15.236427320490368,NA,NA
30024,Gwinnett County,GA,NA,25.62674094707521,NA
30035,DeKalb County,GA,NA,49.16434540389972,NA
30041,Forsyth County,GA,NA,NA,19.82142857142857
30044,Gwinnett County,GA,23.117338003502628,NA,NA
30062,Cobb County,GA,47.285464098073554,NA,NA
30076,Fulton County,GA,NA,47.77158774373259,NA
30103,Bartow County,GA,NA,84.81894150417827,NA
30114,Cherokee County,GA,40.280210157618214,NA,NA
30115,Cherokee County,GA,72.50437828371278,NA,NA
30117,Carroll County,GA,38.528896672504374,35.93314763231198,NA
30188,Cherokee County,GA,25.04378283712785,NA,NA
30217,Heard County,GA,NA,90.5292479108635,NA
30233,Butts County,GA,NA,55.571030640668525,NA
30236,Clayton County,GA,66.54991243432575,NA,NA
30238,Clayton County,GA,NA,64.06685236768801,NA
30240,Troup County,GA,30.297723292469353,64.9025069637883,NA
30241,Troup County,GA,32.57443082311734,NA,NA
30248,Henry County,GA,NA,65.18105849582173,NA
30277,Coweta County,GA,NA,NA,76.78571428571429
30286,Upson County,GA,NA,57.10306406685237,NA
30294,DeKalb County,GA,NA,58.63509749303621,NA
30295,Pike County,GA,NA,100,NA
30314,Fulton County,GA,48.161120840630474,NA,NA
30319,DeKalb County,GA,NA,NA,28.214285714285715
30339,Cobb County,GA,75.30647985989492,NA,NA
30344,Fulton County,GA,NA,44.56824512534819,NA
30345,DeKalb County,GA,NA,83.42618384401113,NA
30354,Fulton County,GA,83.71278458844134,NA,NA
30542,Hall County,GA,NA,44.428969359331475,NA
30577,Stephens County,GA,83.53765323992994,NA,NA
30650,Morgan County,GA,84.23817863397548,NA,NA
30701,Gordon County,GA,NA,30.919220055710305,NA
30707,Walker County,GA,NA,66.85236768802228,NA
30728,Walker County,GA,NA,72.56267409470752,NA
30736,Catoosa County,GA,13.485113835376533,NA,NA
30809,Columbia County,GA,NA,49.86072423398329,NA
30906,Richmond County,GA,NA,5.8495821727019495,NA
31021,Laurens County,GA,NA,61.28133704735376,NA
31024,Putnam County,GA,60.07005253940455,NA,NA
31052,Bibb County,GA,91.59369527145358,NA,NA
31055,Telfair County,GA,97.37302977232925,NA,NA
31068,Macon County,GA,NA,99.58217270194986,NA
31093,Houston County,GA,NA,NA,71.07142857142857
31204,Bibb County,GA,36.952714535901926,NA,37.67857142857143
31211,Bibb County,GA,73.20490367775831,87.3259052924791,NA
31217,Bibb County,GA,82.66199649737302,NA,NA
31329,Effingham County,GA,90.19264448336253,NA,NA
31408,Chatham County,GA,97.72329246935202,NA,NA
31415,Chatham County,GA,74.25569176882661,NA,NA
31545,Wayne County,GA,NA,56.96378830083565,NA
31601,Lowndes County,GA,NA,41.364902506963794,NA
31636,Lowndes County,GA,NA,66.01671309192201,NA
31730,Mitchell County,GA,NA,88.44011142061281,NA
31757,Thomas County,GA,NA,73.3983286908078,NA
31794,Tift County,GA,32.399299474605954,NA,NA
96701,Honolulu County,HI,39.57968476357268,NA,NA
96707,Honolulu County,HI,NA,NA,52.85714285714286
96732,Maui County,HI,NA,91.36490250696379,NA
96744,Honolulu County,HI,55.51663747810858,NA,NA
96750,Hawaii County,HI,NA,94.70752089136491,NA
96756,Kauai County,HI,96.32224168126095,NA,NA
96766,Kauai County,HI,70.92819614711033,NA,92.32142857142858
96786,Honolulu County,HI,NA,NA,73.03571428571428
96789,Honolulu County,HI,NA,9.192200557103064,NA
96795,Honolulu County,HI,88.79159369527146,NA,NA
96797,Honolulu County,HI,NA,6.406685236768802,NA
96813,Honolulu County,HI,39.404553415061294,NA,NA
96816,Honolulu County,HI,36.77758318739055,NA,NA
96817,Honolulu County,HI,NA,37.60445682451253,48.214285714285715
96818,Honolulu County,HI,NA,37.46518105849582,NA
96819,Honolulu County,HI,20.665499124343256,15.32033426183844,NA
96821,Honolulu County,HI,NA,NA,15.892857142857142
96822,Honolulu County,HI,NA,59.33147632311978,NA
96825,Honolulu County,HI,NA,NA,4.821428571428572
83350,Minidoka County,ID,NA,NA,75.89285714285714
83401,Bonneville County,ID,18.388791593695274,NA,NA
83402,Bonneville County,ID,NA,50.55710306406686,NA
83501,Nez Perce County,ID,NA,11.559888579387186,NA
83607,Canyon County,ID,72.3292469352014,NA,NA
83686,Canyon County,ID,NA,NA,4.285714285714286
83687,Canyon County,ID,NA,19.220055710306408,NA
83854,Kootenai County,ID,NA,NA,18.571428571428573
60007,Cook County,IL,58.14360770577933,NA,NA
60010,Lake County,IL,44.13309982486865,NA,NA
60015,Lake County,IL,NA,66.29526462395543,NA
60016,Cook County,IL,NA,11.699164345403899,NA
60025,Cook County,IL,NA,5.153203342618385,NA
60030,Lake County,IL,NA,63.92757660167131,NA
60047,Lake County,IL,NA,80.36211699164345,NA
60062,Cook County,IL,NA,NA,8.035714285714286
60074,Cook County,IL,NA,NA,42.5
60097,McHenry County,IL,NA,NA,78.21428571428571
60101,DuPage County,IL,NA,NA,17.32142857142857
60126,DuPage County,IL,NA,NA,5
60134,Kane County,IL,48.86164623467601,NA,NA
60136,Kane County,IL,92.46935201401051,NA,NA
60142,McHenry County,IL,NA,NA,2.857142857142857
60148,DuPage County,IL,17.68826619964974,NA,NA
60172,DuPage County,IL,NA,NA,55.53571428571429
60175,Kane County,IL,NA,37.88300835654596,36.964285714285715
60185,DuPage County,IL,NA,NA,46.25
60193,Cook County,IL,NA,NA,61.60714285714286
60426,Cook County,IL,NA,25.487465181058493,NA
60432,Will County,IL,61.12084063047285,NA,NA
60439,Cook County,IL,49.036777583187394,NA,NA
60440,Will County,IL,23.46760070052539,NA,NA
60443,Cook County,IL,NA,42.618384401114206,NA
60445,Cook County,IL,NA,56.26740947075209,NA
60451,Will County,IL,NA,16.15598885793872,NA
60452,Cook County,IL,NA,46.65738161559889,NA
60455,Cook County,IL,NA,NA,70.71428571428572
60462,Cook County,IL,NA,NA,10
60467,Cook County,IL,NA,NA,15.714285714285714
60477,Cook County,IL,30.998248686514884,NA,NA
60482,Cook County,IL,71.97898423817864,NA,NA
60506,Kane County,IL,30.472854640980735,NA,NA
60517,DuPage County,IL,NA,NA,44.107142857142854
60521,DuPage County,IL,NA,65.32033426183844,NA
60525,Cook County,IL,26.619964973730298,NA,NA
60534,Cook County,IL,90.71803852889667,NA,NA
60540,DuPage County,IL,NA,31.197771587743734,NA
60558,Cook County,IL,NA,90.66852367688021,NA
60563,DuPage County,IL,50.43782837127846,NA,NA
60601,Cook County,IL,NA,NA,84.82142857142857
60609,Cook County,IL,NA,NA,19.642857142857142
60616,Cook County,IL,NA,NA,23.035714285714285
60619,Cook County,IL,NA,4.596100278551532,1.7857142857142856
60620,Cook County,IL,NA,3.4818941504178276,4.464285714285714
60626,Cook County,IL,NA,NA,54.107142857142854
60628,Cook County,IL,9.807355516637479,NA,3.571428571428571
60630,Cook County,IL,27.145359019264447,NA,NA
60633,Cook County,IL,70.05253940455341,71.44846796657382,NA
60636,Cook County,IL,NA,29.108635097493035,NA
60637,Cook County,IL,NA,NA,22.857142857142858
60639,Cook County,IL,11.558669001751314,NA,NA
60641,Cook County,IL,NA,17.270194986072422,NA
60804,Cook County,IL,NA,14.206128133704734,NA
61061,Ogle County,IL,92.29422066549913,NA,NA
61101,Winnebago County,IL,NA,NA,42.142857142857146
61115,Winnebago County,IL,NA,68.10584958217271,NA
61265,Rock Island County,IL,NA,33.56545961002785,NA
61301,LaSalle County,IL,NA,69.08077994428969,NA
61350,LaSalle County,IL,NA,35.37604456824512,NA
61571,Tazewell County,IL,NA,56.128133704735376,NA
61822,Champaign County,IL,NA,NA,21.964285714285715
61834,Vermilion County,IL,NA,NA,66.78571428571428
61846,Vermilion County,IL,NA,81.47632311977716,NA
61920,Coles County,IL,59.01926444833625,NA,NA
62035,Madison County,IL,NA,60.58495821727019,NA
62226,St. Clair County,IL,NA,28.690807799442897,NA
62298,Monroe County,IL,NA,NA,63.74999999999999
62526,Macon County,IL,NA,NA,5.357142857142857
62704,Sangamon County,IL,NA,NA,14.464285714285715
62896,Franklin County,IL,NA,NA,48.75
46012,Madison County,IN,NA,22.14484679665738,34.10714285714286
46072,Tipton County,IN,77.40805604203153,NA,NA
46131,Johnson County,IN,35.20140105078809,29.247910863509752,NA
46151,Morgan County,IN,29.422066549912433,NA,NA
46176,Shelby County,IN,NA,12.116991643454039,NA
46214,Marion County,IN,NA,49.58217270194986,NA
46219,Marion County,IN,NA,NA,13.928571428571429
46222,Marion County,IN,NA,NA,55.714285714285715
46234,Marion County,IN,81.9614711033275,NA,NA
46237,Marion County,IN,NA,NA,14.821428571428571
46260,Marion County,IN,NA,51.81058495821726,NA
46319,Lake County,IN,NA,NA,56.42857142857143
46350,LaPorte County,IN,NA,8.07799442896936,NA
46360,LaPorte County,IN,6.304728546409807,NA,NA
46375,Lake County,IN,37.478108581436075,NA,NA
46383,Porter County,IN,NA,31.75487465181058,NA
46385,Porter County,IN,NA,3.3426183844011144,NA
46404,Lake County,IN,NA,56.68523676880223,NA
46408,Lake County,IN,NA,NA,71.07142857142857
46410,Lake County,IN,9.106830122591944,NA,25
46580,Kosciusko County,IN,50.61295971978984,NA,NA
46714,Wells County,IN,61.99649737302977,NA,NA
46733,Adams County,IN,74.08056042031524,NA,NA
46803,Allen County,IN,NA,98.74651810584957,NA
46808,Allen County,IN,37.65323992994746,NA,NA
46901,Howard County,IN,16.81260945709282,NA,NA
46947,Cass County,IN,NA,NA,38.92857142857143
47130,Clark County,IN,NA,32.17270194986072,NA
47167,Washington County,IN,54.115586690017516,NA,NA
47201,Bartholomew County,IN,14.185639229422067,NA,46.785714285714285
47203,Bartholomew County,IN,NA,NA,13.392857142857142
47265,Jennings County,IN,26.79509632224168,NA,NA
47394,Randolph County,IN,NA,NA,78.57142857142857
47438,Greene County,IN,NA,98.60724233983287,NA
47501,Daviess County,IN,42.03152364273205,NA,NA
47591,Knox County,IN,NA,26.880222841225628,NA
47601,Warrick County,IN,NA,46.37883008356546,NA
47670,Gibson County,IN,77.75831873905429,NA,NA
47906,Tippecanoe County,IN,NA,NA,79.28571428571428
50036,Boone County,IA,NA,NA,56.07142857142857
50112,Poweshiek County,IA,NA,93.17548746518106,NA
50248,Story County,IA,NA,NA,82.32142857142857
50315,Polk County,IA,NA,25.348189415041784,NA
50401,Cerro Gordo County,IA,NA,10.30640668523677,NA
51301,Clay County,IA,NA,NA,61.42857142857143
51351,Dickinson County,IA,NA,NA,83.03571428571429
51360,Dickinson County,IA,NA,66.71309192200557,NA
52241,Johnson County,IA,NA,NA,80.35714285714286
52405,Linn County,IA,NA,47.21448467966574,NA
52641,Henry County,IA,73.90542907180385,NA,NA
52761,Muscatine County,IA,NA,NA,25.892857142857146
66018,Johnson County,KS,94.22066549912435,NA,NA
66046,Douglas County,KS,NA,NA,86.07142857142858
66102,Wyandotte County,KS,78.28371278458845,NA,NA
66104,Wyandotte County,KS,32.9246935201401,NA,NA
66212,Johnson County,KS,NA,NA,45.89285714285714
66606,Shawnee County,KS,NA,NA,61.07142857142858
67042,Butler County,KS,NA,67.68802228412257,NA
67218,Sedgwick County,KS,75.13134851138354,89.97214484679665,NA
40004,Nelson County,KY,NA,29.38718662952646,NA
40165,Bullitt County,KY,17.162872154115586,NA,NA
40211,Jefferson County,KY,16.112084063047284,NA,NA
40216,Jefferson County,KY,NA,NA,12.5
40222,Jefferson County,KY,NA,NA,27.142857142857142
40241,Jefferson County,KY,NA,44.28969359331476,NA
40245,Jefferson County,KY,52.53940455341506,NA,NA
40291,Jefferson County,KY,NA,NA,33.75
40324,Scott County,KY,NA,62.39554317548747,NA
40361,Bourbon County,KY,70.2276707530648,NA,NA
40391,Clark County,KY,NA,12.952646239554316,NA
40403,Madison County,KY,73.38003502626971,NA,NA
40484,Lincoln County,KY,NA,61.6991643454039,NA
40503,Fayette County,KY,NA,NA,31.428571428571427
40517,Fayette County,KY,NA,45.82172701949861,NA
41005,Boone County,KY,NA,NA,82.14285714285714
41040,Pendleton County,KY,NA,93.45403899721448,NA
41042,Boone County,KY,6.47985989492119,NA,NA
41101,Boyd County,KY,21.541155866900176,NA,NA
41164,Carter County,KY,38.704028021015766,NA,NA
41230,Lawrence County,KY,30.122591943957964,NA,NA
42029,Marshall County,KY,88.61646234676007,NA,NA
42127,Barren County,KY,NA,84.67966573816156,NA
42141,Barren County,KY,NA,NA,40.17857142857143
42262,Christian County,KY,92.99474605954467,NA,NA
42420,Henderson County,KY,NA,13.231197771587745,NA
70003,Jefferson Parish,LA,NA,NA,3.214285714285714
70058,Jefferson Parish,LA,NA,12.674094707520892,NA
70065,Jefferson Parish,LA,NA,2.785515320334262,NA
70068,St. John the Baptist Parish,LA,NA,NA,30.892857142857146
70072,Jefferson Parish,LA,NA,NA,6.428571428571428
70084,St. John the Baptist Parish,LA,NA,NA,83.92857142857143
70094,Jefferson Parish,LA,5.42907180385289,NA,NA
70114,Orleans Parish,LA,NA,37.32590529247911,NA
70128,Orleans Parish,LA,NA,34.81894150417828,NA
70431,St. Tammany Parish,LA,NA,75.6267409470752,NA
70433,St. Tammany Parish,LA,8.581436077057793,9.052924791086351,NA
70447,St. Tammany Parish,LA,62.34676007005254,NA,NA
70454,Tangipahoa Parish,LA,10.85814360770578,NA,NA
70460,St. Tammany Parish,LA,NA,31.058495821727018,NA
70466,Tangipahoa Parish,LA,NA,90.3899721448468,NA
70501,Lafayette Parish,LA,NA,26.323119777158777,NA
70526,Acadia Parish,LA,NA,71.03064066852369,NA
70560,Iberia Parish,LA,19.439579684763572,NA,NA
70570,St. Landry Parish,LA,1.4010507880910683,NA,NA
70592,Lafayette Parish,LA,NA,98.88579387186628,NA
70648,Allen Parish,LA,88.44133099824869,NA,NA
70726,Livingston Parish,LA,NA,NA,55.00000000000001
70737,Ascension Parish,LA,NA,56.40668523676881,NA
70744,Livingston Parish,LA,NA,97.35376044568244,NA
70764,Iberville Parish,LA,93.6952714535902,NA,NA
70767,West Baton Rouge Parish,LA,NA,NA,84.64285714285714
70791,East Baton Rouge Parish,LA,64.79859894921191,NA,NA
70807,East Baton Rouge Parish,LA,15.411558669001751,NA,NA
71019,Red River Parish,LA,81.78633975481611,NA,NA
71040,Claiborne Parish,LA,69.70227670753066,NA,NA
71104,Caddo Parish,LA,NA,71.72701949860725,NA
71106,Caddo Parish,LA,NA,NA,49.107142857142854
71118,Caddo Parish,LA,NA,NA,18.21428571428571
71251,Jackson Parish,LA,89.49211908931699,NA,NA
71260,Union Parish,LA,94.39579684763572,NA,NA
71270,Lincoln Parish,LA,NA,NA,51.24999999999999
71351,Avoyelles Parish,LA,35.72679509632224,NA,NA
71360,Rapides Parish,LA,NA,NA,29.28571428571429
71457,Natchitoches Parish,LA,NA,NA,35.17857142857143
03908,York County,ME,NA,61.28133704735376,NA
04076,York County,ME,NA,99.44289693593315,NA
04083,York County,ME,79.85989492119089,NA,NA
04103,Cumberland County,ME,NA,NA,64.64285714285715
04105,Cumberland County,ME,NA,85.37604456824512,NA
04210,Androscoggin County,ME,NA,NA,11.25
04240,Androscoggin County,ME,NA,NA,2.6785714285714284
04457,Penobscot County,ME,NA,NA,96.78571428571429
04742,Aroostook County,ME,78.10858143607706,NA,NA
04756,Aroostook County,ME,NA,NA,96.25
04841,Knox County,ME,NA,NA,51.42857142857142
04937,Somerset County,ME,NA,67.96657381615599,NA
04976,Somerset County,ME,19.78984238178634,NA,NA
04989,Kennebec County,ME,NA,99.16434540389972,NA
20637,Charles County,MD,97.19789842381786,NA,NA
20743,Prince George's County,MD,NA,73.67688022284122,NA
20744,Prince George's County,MD,NA,43.03621169916435,NA
20748,Prince George's County,MD,48.33625218914185,NA,NA
20774,Prince George's County,MD,NA,NA,43.03571428571429
20815,Montgomery County,MD,NA,81.75487465181058,NA
20902,Montgomery County,MD,NA,NA,88.21428571428571
20904,Montgomery County,MD,62.87215411558669,NA,NA
21009,Harford County,MD,NA,92.33983286908078,NA
21040,Harford County,MD,NA,78.13370473537604,NA
21113,Anne Arundel County,MD,60.42031523642733,NA,NA
21117,Baltimore County,MD,NA,NA,40.535714285714285
21157,Carroll County,MD,NA,50.27855153203342,NA
21204,Baltimore County,MD,NA,94.28969359331477,NA
21213,Baltimore city,MD,54.290718038528894,14.902506963788301,NA
21215,Baltimore city,MD,NA,10.167130919220057,9.464285714285714
21217,Baltimore city,MD,25.569176882662,NA,47.5
21226,Anne Arundel County,MD,99.29947460595446,NA,NA
21228,Baltimore County,MD,NA,12.534818941504177,NA
21237,Baltimore County,MD,NA,57.520891364902504,NA
21286,Baltimore County,MD,NA,74.23398328690809,NA
21401,Anne Arundel County,MD,29.947460595446586,NA,NA
21663,Talbot County,MD,98.42381786339755,NA,NA
21740,Washington County,MD,NA,NA,29.464285714285715
21811,Worcester County,MD,NA,27.57660167130919,NA
21817,Somerset County,MD,NA,NA,93.57142857142857
21851,Worcester County,MD,92.99474605954467,NA,NA
01040,Hampden County,MA,0.17513134851138354,0,NA
01056,Hampden County,MA,21.015761821366024,NA,NA
01095,Hampden County,MA,NA,NA,15.357142857142858
01105,Hampden County,MA,3.677758318739054,12.256267409470752,NA
01108,Hampden County,MA,28.021015761821367,NA,NA
01201,Berkshire County,MA,0,NA,NA
01331,Worcester County,MA,NA,36.908077994428965,NA
01440,Worcester County,MA,1.926444833625219,NA,NA
01501,Worcester County,MA,NA,NA,22.142857142857142
01604,Worcester County,MA,NA,NA,3.0357142857142856
01702,Middlesex County,MA,1.2259194395796849,NA,NA
01752,Middlesex County,MA,4.028021015761821,NA,NA
01760,Middlesex County,MA,60.42031523642733,NA,NA
01801,Middlesex County,MA,NA,NA,12.857142857142856
01803,Middlesex County,MA,23.992994746059544,4.735376044568245,NA
01824,Middlesex County,MA,NA,7.242339832869081,NA
01841,Essex County,MA,0.8756567425569177,0.4178272980501393,NA
01850,Middlesex County,MA,NA,20.891364902506965,NA
01852,Middlesex County,MA,NA,1.9498607242339834,NA
01860,Essex County,MA,NA,NA,98.92857142857143
01862,Middlesex County,MA,50.78809106830122,52.92479108635098,NA
01867,Middlesex County,MA,NA,NA,15.535714285714286
01876,Middlesex County,MA,NA,21.72701949860724,66.60714285714285
01886,Middlesex County,MA,NA,34.958217270194986,NA
01887,Middlesex County,MA,8.40630472854641,NA,NA
01890,Middlesex County,MA,NA,NA,43.92857142857143
01902,Essex County,MA,NA,0.9749303621169917,NA
01904,Essex County,MA,42.38178633975482,NA,NA
01905,Essex County,MA,1.5761821366024518,NA,NA
01923,Essex County,MA,4.378283712784588,86.49025069637884,35.892857142857146
01938,Essex County,MA,NA,16.991643454038996,41.25
02021,Norfolk County,MA,NA,NA,8.75
02035,Norfolk County,MA,NA,NA,54.82142857142858
02038,Norfolk County,MA,15.761821366024517,NA,NA
02062,Norfolk County,MA,NA,NA,17.857142857142858
02081,Norfolk County,MA,NA,51.11420612813371,NA
02114,Suffolk County,MA,NA,NA,43.75
02119,Suffolk County,MA,NA,0.2785515320334262,42.32142857142857
02121,Suffolk County,MA,NA,0.5571030640668524,NA
02122,Suffolk County,MA,NA,1.2534818941504178,NA
02126,Suffolk County,MA,0.3502626970227671,NA,NA
02129,Suffolk County,MA,NA,NA,72.67857142857143
02130,Suffolk County,MA,NA,NA,26.42857142857143
02134,Suffolk County,MA,44.833625218914186,NA,NA
02141,Middlesex County,MA,33.97548161120841,NA,NA
02148,Middlesex County,MA,NA,24.930362116991645,1.0714285714285714
02169,Norfolk County,MA,NA,0.6963788300835655,NA
02180,Middlesex County,MA,14.886164623467602,23.53760445682451,NA
02184,Norfolk County,MA,NA,8.913649025069638,NA
02301,Plymouth County,MA,NA,0.1392757660167131,NA
02324,Plymouth County,MA,NA,NA,49.464285714285715
02346,Plymouth County,MA,NA,NA,31.96428571428571
02368,Norfolk County,MA,16.28721541155867,70.33426183844011,NA
02375,Bristol County,MA,NA,88.71866295264624,NA
02421,Middlesex County,MA,NA,41.92200557103064,NA
02451,Middlesex County,MA,28.546409807355516,NA,NA
02472,Middlesex County,MA,NA,7.7994428969359335,NA
02481,Norfolk County,MA,60.770577933450085,NA,NA
02536,Barnstable County,MA,NA,NA,13.571428571428571
02631,Barnstable County,MA,NA,50.69637883008357,NA
02649,Barnstable County,MA,NA,83.98328690807799,NA
02703,Bristol County,MA,8.93169877408056,NA,NA
02721,Bristol County,MA,NA,NA,11.607142857142858
02724,Bristol County,MA,22.942206654991242,NA,NA
02746,Bristol County,MA,2.9772329246935203,NA,NA
02747,Bristol County,MA,NA,54.73537604456824,NA
02748,Bristol County,MA,NA,NA,25.535714285714285
02760,Bristol County,MA,13.309982486865149,NA,NA
48026,Macomb County,MI,NA,45.543175487465184,NA
48060,St. Clair County,MI,NA,5.710306406685237,NA
48066,Macomb County,MI,NA,NA,65.89285714285714
48075,Oakland County,MI,NA,NA,74.28571428571429
48076,Oakland County,MI,NA,NA,36.607142857142854
48091,Macomb County,MI,7.530647985989491,NA,NA
48098,Oakland County,MI,NA,40.11142061281337,NA
48105,Washtenaw County,MI,43.957968476357266,NA,NA
48125,Wayne County,MI,25.74430823117338,NA,NA
48126,Wayne County,MI,NA,78.6908077994429,NA
48150,Wayne County,MI,63.22241681260946,NA,NA
48152,Wayne County,MI,NA,6.128133704735376,NA
48164,Wayne County,MI,NA,NA,71.60714285714286
48174,Wayne County,MI,NA,NA,38.21428571428571
48198,Washtenaw County,MI,3.327495621716287,NA,NA
48201,Wayne County,MI,NA,NA,98.75
48203,Wayne County,MI,NA,NA,38.21428571428571
48206,Wayne County,MI,31.698774080560423,NA,NA
48207,Wayne County,MI,NA,NA,17.67857142857143
48209,Wayne County,MI,NA,52.22841225626741,NA
48214,Wayne County,MI,NA,26.044568245125348,NA
48217,Wayne County,MI,NA,NA,64.82142857142857
48219,Wayne County,MI,NA,2.9247910863509747,NA
48221,Wayne County,MI,NA,80.50139275766016,NA
48228,Wayne County,MI,NA,8.495821727019498,NA
48236,Wayne County,MI,35.551663747810856,14.763231197771587,11.785714285714285
48239,Wayne County,MI,10.683012259194395,NA,NA
48312,Macomb County,MI,28.19614711033275,NA,NA
48313,Macomb County,MI,NA,NA,20.357142857142858
48317,Macomb County,MI,25.39404553415061,21.58774373259053,NA
48326,Oakland County,MI,NA,NA,85.71428571428571
48331,Oakland County,MI,41.68126094570928,NA,NA
48334,Oakland County,MI,NA,38.579387186629525,NA
48340,Oakland County,MI,12.784588441331,NA,NA
48341,Oakland County,MI,34.50087565674256,NA,68.75
48357,Oakland County,MI,NA,76.04456824512535,NA
48362,Oakland County,MI,NA,58.21727019498607,NA
48380,Oakland County,MI,NA,82.72980501392759,NA
48429,Shiawassee County,MI,NA,NA,100
48504,Genesee County,MI,NA,NA,48.035714285714285
48601,Saginaw County,MI,2.4518388791593697,NA,5.892857142857142
48609,Saginaw County,MI,46.409807355516634,NA,NA
48622,Clare County,MI,NA,NA,67.5
48642,Midland County,MI,NA,NA,7.678571428571429
48763,Iosco County,MI,NA,82.03342618384401,NA
48809,Ionia County,MI,NA,NA,78.39285714285714
48823,Ingham County,MI,38.879159369527144,NA,NA
48842,Ingham County,MI,NA,NA,53.39285714285714
48854,Ingham County,MI,NA,59.47075208913649,NA
48864,Ingham County,MI,72.85464098073555,NA,NA
48867,Shiawassee County,MI,34.15061295971979,NA,NA
48910,Ingham County,MI,NA,14.066852367688023,NA
48912,Ingham County,MI,55.34150612959719,NA,NA
49010,Allegan County,MI,47.635726795096325,NA,NA
49017,Calhoun County,MI,NA,NA,59.464285714285715
49036,Branch County,MI,33.274956217162874,NA,NA
49037,Calhoun County,MI,17.68826619964974,NA,NA
49080,Allegan County,MI,NA,45.96100278551532,NA
49083,Kalamazoo County,MI,NA,96.65738161559888,NA
49090,Van Buren County,MI,NA,89.83286908077994,65.71428571428571
49127,Berrien County,MI,NA,75.06963788300835,NA
49418,Kent County,MI,42.90718038528897,NA,NA
49428,Ottawa County,MI,55.166374781085814,NA,NA
49431,Mason County,MI,68.1260945709282,NA,NA
49441,Muskegon County,MI,NA,4.178272980501393,NA
49456,Ottawa County,MI,NA,NA,21.25
49505,Kent County,MI,NA,65.45961002785515,NA
49507,Kent County,MI,5.779334500875657,NA,NA
49525,Kent County,MI,NA,25.069637883008355,NA
49534,Kent County,MI,NA,NA,88.75
49660,Manistee County,MI,43.25744308231174,NA,NA
49684,Grand Traverse County,MI,NA,NA,23.57142857142857
49712,Charlevoix County,MI,81.26094570928196,NA,NA
49721,Cheboygan County,MI,NA,NA,36.964285714285715
49829,Delta County,MI,38.17863397548161,NA,NA
49837,Delta County,MI,NA,56.824512534818936,NA
49854,Schoolcraft County,MI,NA,NA,59.82142857142857
49855,Marquette County,MI,48.68651488616462,NA,NA
49953,Ontonagon County,MI,NA,NA,60.535714285714285
55051,Kanabec County,MN,NA,77.85515320334262,NA
55106,Ramsey County,MN,8.231173380035026,NA,46.964285714285715
55108,Ramsey County,MN,NA,NA,91.60714285714285
55121,Dakota County,MN,NA,NA,91.07142857142857
55124,Dakota County,MN,72.15411558669001,NA,NA
55125,Washington County,MN,45.53415061295972,NA,NA
55130,Ramsey County,MN,NA,NA,90
55336,McLeod County,MN,71.62872154115587,76.32311977715878,NA
55337,Dakota County,MN,NA,NA,30.53571428571429
55371,Mille Lacs County,MN,NA,NA,79.46428571428571
55406,Hennepin County,MN,NA,29.944289693593312,NA
55407,Hennepin County,MN,7.005253940455342,NA,NA
55443,Hennepin County,MN,35.90192644483363,NA,NA
55720,Carlton County,MN,NA,NA,39.285714285714285
55744,Itasca County,MN,19.089316987740805,NA,NA
55812,St. Louis County,MN,NA,NA,77.5
55904,Olmsted County,MN,NA,41.364902506963794,NA
55906,Olmsted County,MN,NA,69.91643454038997,NA
55912,Mower County,MN,NA,NA,0.8928571428571428
55963,Goodhue County,MN,90.54290718038528,NA,NA
56003,Nicollet County,MN,NA,74.3732590529248,NA
56007,Freeborn County,MN,NA,NA,1.9642857142857142
56081,Watonwan County,MN,NA,NA,41.07142857142857
56308,Douglas County,MN,NA,NA,5.535714285714286
56334,Pope County,MN,NA,NA,92.85714285714286
56362,Stearns County,MN,NA,NA,50.89285714285714
56560,Clay County,MN,NA,NA,1.25
56601,Beltrami County,MN,NA,2.0891364902506964,1.607142857142857
56701,Pennington County,MN,22.76707530647986,NA,33.57142857142857
38619,Panola County,MS,94.04553415061297,NA,NA
38632,DeSoto County,MS,NA,70.05571030640668,NA
38663,Tippah County,MS,71.80385288966725,NA,NA
38703,Washington County,MS,NA,85.23676880222841,NA
38751,Sunflower County,MS,NA,78.96935933147631,NA
38756,Washington County,MS,94.92119089316988,NA,NA
38901,Grenada County,MS,NA,NA,40
39042,Rankin County,MS,NA,NA,64.46428571428572
39047,Rankin County,MS,NA,45.26462395543175,NA
39114,Simpson County,MS,NA,NA,71.78571428571429
39120,Adams County,MS,73.73029772329247,NA,NA
39194,Yazoo County,MS,NA,NA,74.64285714285714
39212,Hinds County,MS,58.49387040280211,NA,NA
39305,Lauderdale County,MS,58.31873905429072,58.35654596100278,NA
39350,Neshoba County,MS,NA,NA,35.35714285714286
39367,Wayne County,MS,91.06830122591944,NA,NA
39422,Jasper County,MS,78.6339754816112,NA,NA
39426,Pearl River County,MS,NA,NA,61.25000000000001
39428,Covington County,MS,76.88266199649738,NA,NA
39540,Harrison County,MS,NA,NA,78.92857142857143
39553,Jackson County,MS,74.95621716287215,NA,NA
39563,Jackson County,MS,53.239929947460595,NA,NA
39645,Amite County,MS,98.07355516637479,NA,NA
39666,Pike County,MS,96.14711033274956,NA,NA
39701,Lowndes County,MS,NA,NA,87.32142857142857
39702,Lowndes County,MS,NA,54.1782729805014,NA
63017,St. Louis County,MO,65.67425569176882,12.395543175487465,NA
63021,St. Louis County,MO,NA,10.86350974930362,NA
63034,St. Louis County,MO,64.973730297723293,NA,NA
63051,Jefferson County,MO,NA,92.47910863509749,NA
63052,Jefferson County,MO,NA,62.53481894150418,NA
63103,St. Louis city,MO,NA,97.63231197771589,NA
63107,St. Louis city,MO,NA,79.24791086350976,NA
63115,St. Louis city,MO,NA,58.495821727019504,NA
63121,St. Louis County,MO,NA,53.48189415041783,NA
63132,St. Louis County,MO,79.15936952714536,NA,NA
63376,St. Charles County,MO,12.259194395796849,NA,NA
63383,Warren County,MO,57.96847635726795,NA,NA
63401,Marion County,MO,NA,NA,70.35714285714286
63857,Dunklin County,MO,47.8108581436077,NA,NA
64012,Cass County,MO,NA,26.6016713091922,NA
64015,Jackson County,MO,NA,NA,41.964285714285715
64030,Jackson County,MO,NA,19.080779944289695,NA
64052,Jackson County,MO,12.609457092819614,NA,NA
64130,Jackson County,MO,8.056042031523642,NA,NA
64132,Jackson County,MO,18.739054290718038,NA,NA
64401,Buchanan County,MO,95.7968476357268,NA,NA
64601,Livingston County,MO,53.06479859894922,NA,NA
64804,Jasper County,MO,NA,NA,91.07142857142857
64836,Jasper County,MO,NA,30.08356545961003,NA
65018,Moniteau County,MO,NA,NA,93.75
65203,Boone County,MO,NA,NA,32.32142857142858
65301,Pettis County,MO,NA,62.25626740947076,NA
65802,Greene County,MO,NA,20.752089136490252,NA
59401,Cascade County,MT,NA,NA,66.96428571428571
59635,Lewis and Clark County,MT,89.66725043782837,NA,NA
59701,Silver Bow County,MT,65.14886164623468,NA,NA
59711,Deer Lodge County,MT,NA,NA,58.92857142857143
59725,Beaverhead County,MT,NA,77.43732590529248,90.71428571428571
68005,Sarpy County,NE,65.32399299474606,NA,NA
68114,Douglas County,NE,NA,83.84401114206128,NA
68137,Douglas County,NE,NA,51.949860724233986,NA
68310,Gage County,NE,67.42556917688266,NA,NA
68512,Lancaster County,NE,NA,NA,97.32142857142857
68826,Merrick County,NE,NA,92.75766016713092,NA
89102,Clark County,NV,NA,83.56545961002786,NA
89108,Clark County,NV,NA,NA,35.35714285714286
89115,Clark County,NV,NA,74.5125348189415,NA
89121,Clark County,NV,NA,NA,63.21428571428571
89131,Clark County,NV,NA,NA,97.14285714285714
89166,Clark County,NV,NA,95.26462395543176,NA
89169,Clark County,NV,56.91768826619965,NA,NA
89436,Washoe County,NV,NA,NA,73.75
89502,Washoe County,NV,NA,21.16991643454039,NA
89508,Washoe County,NV,70.57793345008757,NA,NA
89521,Washoe County,NV,53.76532399299475,72.14484679665738,NA
89523,Washoe County,NV,NA,NA,50.17857142857143
89703,Carson City,NV,88.09106830122592,NA,NA
03051,Hillsborough County,NH,NA,20.194986072423397,NA
03060,Hillsborough County,NH,7.705779334500876,11.838440111420613,NA
03102,Hillsborough County,NH,NA,53.899721448467965,NA
03253,Belknap County,NH,NA,76.74094707520891,NA
03868,Strafford County,NH,92.6444833625219,NA,NA
07001,Middlesex County,NJ,67.95096322241682,NA,NA
07002,Hudson County,NJ,NA,2.2284122562674096,NA
07005,Morris County,NJ,78.45884413309983,NA,NA
07017,Essex County,NJ,NA,16.434540389972145,NA
07020,Bergen County,NJ,NA,NA,97.85714285714285
07026,Bergen County,NJ,75.65674255691769,NA,NA
07030,Hudson County,NJ,7.355516637478108,NA,NA
07039,Essex County,NJ,NA,41.08635097493036,NA
07050,Essex County,NJ,NA,33.844011142061284,NA
07063,Union County,NJ,63.74781085814361,NA,NA
07087,Hudson County,NJ,NA,31.615598885793872,NA
07108,Essex County,NJ,2.276707530647986,NA,NA
07206,Union County,NJ,NA,NA,95.53571428571429
07452,Bergen County,NJ,NA,99.72144846796658,NA
07601,Bergen County,NJ,NA,NA,16.428571428571427
07604,Bergen County,NJ,NA,95.82172701949861,NA
07666,Bergen County,NJ,NA,44.986072423398326,NA
07724,Monmouth County,NJ,31.523642732049034,NA,NA
07726,Monmouth County,NJ,82.83712784588442,NA,NA
07730,Monmouth County,NJ,NA,49.721448467966574,NA
07731,Monmouth County,NJ,NA,89.41504178272982,NA
07748,Monmouth County,NJ,33.80035026269702,63.50974930362116,NA
07755,Monmouth County,NJ,NA,NA,86.78571428571429
07840,Warren County,NJ,39.229422066549915,NA,NA
07857,Morris County,NJ,99.64973730297724,NA,NA
08012,Camden County,NJ,NA,16.016713091922004,NA
08080,Gloucester County,NJ,13.134851138353765,NA,NA
08087,Ocean County,NJ,NA,NA,46.42857142857143
08232,Atlantic County,NJ,NA,NA,98.03571428571428
08527,Ocean County,NJ,NA,6.8245125348189415,NA
08530,Hunterdon County,NJ,NA,NA,69.82142857142857
08611,Mercer County,NJ,5.604203152364273,NA,NA
08618,Mercer County,NJ,NA,8.07799442896936,NA
08620,Mercer County,NJ,80.9106830122592,NA,NA
08735,Ocean County,NJ,NA,NA,94.64285714285714
08742,Ocean County,NJ,64.09807355516638,NA,NA
08753,Ocean County,NJ,NA,4.3175487465181055,NA
08757,Ocean County,NJ,NA,NA,0.35714285714285715
08759,Ocean County,NJ,NA,1.8105849582172702,7.142857142857142
08852,Middlesex County,NJ,57.26795096322241,NA,NA
08857,Middlesex County,NJ,NA,NA,22.321428571428573
08861,Middlesex County,NJ,NA,NA,20.535714285714285
08882,Middlesex County,NJ,81.43607705779334,NA,NA
87002,Valencia County,NM,NA,NA,62.5
87105,Bernalillo County,NM,NA,3.8997214484679668,48.392857142857146
87106,Bernalillo County,NM,NA,44.84679665738162,NA
87120,Bernalillo County,NM,11.033274956217163,NA,NA
87121,Bernalillo County,NM,NA,5.8495821727019495,NA
87505,Santa Fe County,NM,5.253940455341506,6.267409470752089,NA
87507,Santa Fe County,NM,NA,60.306406685236766,NA
87571,Taos County,NM,NA,84.958217270195,NA
87701,San Miguel County,NM,NA,53.62116991643454,NA
88101,Curry County,NM,40.10507880910683,NA,NA
88130,Roosevelt County,NM,NA,78.55153203342618,NA
88310,Otero County,NM,NA,27.85515320334262,NA
10001,New York County,NY,NA,NA,46.07142857142857
10002,New York County,NY,NA,NA,2.142857142857143
10003,New York County,NY,NA,NA,19.28571428571429
10009,New York County,NY,NA,NA,4.642857142857143
10023,New York County,NY,NA,14.623955431754876,NA
10030,New York County,NY,86.69001751313485,NA,51.60714285714286
10031,New York County,NY,NA,15.87743732590529,NA
10032,New York County,NY,NA,7.381615598885793,NA
10037,New York County,NY,NA,NA,42.67857142857142
10303,Richmond County,NY,NA,50,NA
10306,Richmond County,NY,NA,17.40947075208914,NA
10309,Richmond County,NY,62.521891418563925,NA,NA
10454,Bronx County,NY,NA,34.401114206128135,NA
10457,Bronx County,NY,NA,0.8356545961002786,NA
10462,Bronx County,NY,NA,NA,7.857142857142857
10465,Bronx County,NY,NA,77.43732590529248,NA
10469,Bronx County,NY,21.891418563922944,7.66016713091922,NA
10590,Westchester County,NY,NA,NA,99.28571428571429
10701,Westchester County,NY,NA,NA,21.785714285714285
10965,Rockland County,NY,NA,95.68245125348189,NA
11203,Kings County,NY,11.38353765323993,NA,NA
11204,Kings County,NY,NA,NA,7.321428571428572
11208,Kings County,NY,NA,NA,17.32142857142857
11212,Kings County,NY,NA,1.1142061281337048,NA
11214,Kings County,NY,NA,46.93593314763231,NA
11221,Kings County,NY,21.19089316987741,NA,NA
11224,Kings County,NY,NA,5.571030640668524,NA
11233,Kings County,NY,NA,11.977715877437326,NA
11239,Kings County,NY,NA,NA,34.82142857142857
11419,Queens County,NY,NA,68.24512534818942,NA
11422,Queens County,NY,NA,63.231197771587745,NA
11434,Queens County,NY,NA,16.573816155988858,NA
11553,Nassau County,NY,NA,NA,57.85714285714286
11590,Nassau County,NY,NA,33.28690807799443,NA
11713,Suffolk County,NY,NA,98.18941504178274,NA
11717,Suffolk County,NY,NA,NA,28.749999999999996
11720,Suffolk County,NY,NA,NA,90.35714285714286
11746,Suffolk County,NY,NA,NA,9.821428571428571
11933,Suffolk County,NY,NA,NA,63.92857142857142
12020,Saratoga County,NY,NA,27.715877437325904,NA
12144,Rensselaer County,NY,NA,46.51810584958218,NA
12180,Rensselaer County,NY,NA,9.331476323119778,NA
12202,Albany County,NY,30.823117338003502,NA,NA
12414,Greene County,NY,NA,41.78272980501393,NA
12563,Putnam County,NY,NA,98.46796657381616,NA
12804,Warren County,NY,NA,66.57381615598887,NA
12809,Washington County,NY,90.89316987740806,NA,NA
12831,Saratoga County,NY,NA,54.317548746518106,NA
13053,Tompkins County,NY,NA,NA,99.64285714285714
13054,Oneida County,NY,99.12434325744309,NA,NA
13057,Onondaga County,NY,NA,88.3008356545961,NA
13076,Oswego County,NY,NA,99.30362116991644,NA
13088,Onondaga County,NY,NA,83.008356545961007,NA
13126,Oswego County,NY,NA,36.35097493036212,NA
13142,Oswego County,NY,NA,93.31476323119777,NA
13332,Madison County,NY,84.0630472854641,NA,NA
13350,Herkimer County,NY,NA,NA,53.214285714285715
13440,Oneida County,NY,2.626970227670753,NA,NA
13732,Tioga County,NY,50.26269702276708,NA,NA
13760,Broome County,NY,NA,NA,1.4285714285714286
13790,Broome County,NY,NA,NA,13.750000000000002
13815,Chenango County,NY,16.81260945709282,NA,77.32142857142857
13820,Otsego County,NY,11.733800350262696,NA,NA
13827,Tioga County,NY,NA,93.03621169916435,NA
13901,Broome County,NY,23.817863397548162,NA,NA
13905,Broome County,NY,NA,NA,21.607142857142858
14057,Erie County,NY,95.27145359019265,NA,NA
14072,Erie County,NY,46.05954465849387,NA,NA
14092,Niagara County,NY,NA,NA,45.535714285714285
14120,Niagara County,NY,NA,7.103064066852367,NA
14216,Erie County,NY,32.22416812609457,NA,95.17857142857142
14221,Erie County,NY,13.835376532399298,2.6462395543175488,NA
14222,Erie County,NY,NA,70.61281337047353,NA
14224,Erie County,NY,NA,9.47075208913649,NA
14226,Erie County,NY,NA,NA,60.357142857142854
14414,Livingston County,NY,NA,NA,82.67857142857142
14424,Ontario County,NY,NA,10.584958217270195,NA
14425,Ontario County,NY,NA,27.019498607242337,NA
14428,Monroe County,NY,NA,87.1866295264624,NA
14433,Wayne County,NY,NA,81.19777158774373,NA
14450,Monroe County,NY,NA,13.370473537604457,NA
14456,Ontario County,NY,9.457092819614711,NA,NA
14522,Wayne County,NY,38.003502626970224,NA,NA
14526,Monroe County,NY,18.739054290718038,NA,26.96428571428571
14527,Yates County,NY,NA,28.27298050139276,NA
14534,Monroe County,NY,NA,17.96657381615599,27.67857142857143
14564,Ontario County,NY,22.241681260945708,NA,NA
14580,Monroe County,NY,0.7005253940455342,NA,NA
14606,Monroe County,NY,NA,NA,34.464285714285715
14610,Monroe County,NY,NA,NA,32.857142857142854
14612,Monroe County,NY,2.8021015761821366,NA,NA
14615,Monroe County,NY,13.660245183887914,NA,NA
14621,Monroe County,NY,0.5253940455341506,NA,NA
14625,Monroe County,NY,NA,48.05013927576602,NA
14735,Allegany County,NY,94.57092819614711,NA,NA
14760,Cattaraugus County,NY,11.908931698774081,NA,NA
14830,Steuben County,NY,NA,70.19498607242339,42.857142857142854
14845,Chemung County,NY,NA,29.805013927576603,NA
14904,Chemung County,NY,NA,45.26462395543175,NA
27011,Yadkin County,NC,82.13660245183888,NA,NA
27107,Forsyth County,NC,4.903677758318739,NA,NA
27205,Randolph County,NC,45.709281961471106,NA,NA
27215,Alamance County,NC,12.084063047285463,NA,9.642857142857144
27217,Alamance County,NC,15.586690017513135,45.12534818941504,NA
27249,Guilford County,NC,NA,NA,62.32142857142857
27253,Alamance County,NC,20.31523642732049,18.245125348189415,NA
27262,Guilford County,NC,NA,62.67409470752089,NA
27284,Forsyth County,NC,NA,15.73816155988858,22.5
27292,Davidson County,NC,NA,1.392757660167131,NA
27295,Davidson County,NC,23.29246935201401,NA,NA
27360,Davidson County,NC,4.553415061295972,NA,NA
27401,Guilford County,NC,NA,76.88022284122563,NA
27403,Guilford County,NC,NA,71.3091922005571,NA
27405,Guilford County,NC,NA,49.44289693593314,NA
27517,Orange County,NC,NA,29.66573816155989,NA
27520,Johnston County,NC,36.602451838879155,NA,NA
27526,Wake County,NC,NA,23.398328690807798,NA
27534,Wayne County,NC,NA,NA,29.82142857142857
27565,Granville County,NC,NA,NA,60.89285714285714
27573,Person County,NC,NA,58.63509749303621,NA
27576,Johnston County,NC,61.471103327495626,NA,NA
27592,Wake County,NC,NA,NA,73.39285714285714
27609,Wake County,NC,80.03502626970229,NA,NA
27614,Wake County,NC,NA,40.25069637883008,NA
27617,Wake County,NC,NA,78.41225626740948,NA
27713,Durham County,NC,NA,NA,17.142857142857142
27801,Edgecombe County,NC,NA,60.16713091922006,NA
27830,Wayne County,NC,NA,97.9108635097493,NA
27850,Halifax County,NC,NA,83.70473537604457,NA
27889,Beaufort County,NC,NA,NA,30.53571428571429
27893,Wilson County,NC,18.038528896672503,NA,NA
27909,Pasquotank County,NC,15.061295971978982,NA,NA
27932,Chowan County,NC,NA,48.607242339832865,NA
27944,Perquimans County,NC,91.24343257443083,NA,NA
27962,Washington County,NC,NA,85.93314763231199,NA
28016,Gaston County,NC,49.73730297723292,NA,NA
28054,Gaston County,NC,NA,28.412256267409468,NA
28078,Mecklenburg County,NC,36.077057793345006,NA,NA
28081,Cabarrus County,NC,24.518388791593697,NA,NA
28139,Rutherford County,NC,70.75306479859896,NA,NA
28168,Lincoln County,NC,NA,88.57938718662952,NA
28216,Mecklenburg County,NC,NA,NA,25.71428571428571
28312,Cumberland County,NC,NA,50.69637883008357,NA
28320,Bladen County,NC,NA,80.91922005571031,NA
28339,Harnett County,NC,NA,NA,83.39285714285715
28352,Scotland County,NC,29.597197898423815,NA,49.82142857142857
28358,Robeson County,NC,NA,31.337047353760443,NA
28365,Wayne County,NC,NA,77.71587743732591,NA
28371,Robeson County,NC,99.47460595446584,NA,NA
28372,Robeson County,NC,NA,NA,72.32142857142857
28376,Hoke County,NC,NA,36.211699164345404,NA
28384,Bladen County,NC,NA,82.45125348189416,NA
28461,Brunswick County,NC,NA,7.520891364902507,NA
28462,Brunswick County,NC,NA,NA,92.5
28470,Brunswick County,NC,NA,73.95543175487465,NA
28560,Craven County,NC,NA,43.31476323119777,46.964285714285715
28609,Catawba County,NC,82.48686514886164,NA,NA
28613,Catawba County,NC,45.008756567425564,NA,NA
28658,Catawba County,NC,46.760070052539405,NA,NA
28675,Alleghany County,NC,NA,55.013927576601674,NA
28677,Iredell County,NC,NA,NA,91.42857142857143
28752,McDowell County,NC,NA,NA,27.32142857142857
28786,Haywood County,NC,NA,57.799442896935936,NA
28906,Cherokee County,NC,NA,NA,19.107142857142854
58503,Burleigh County,ND,NA,NA,36.42857142857142
58701,Ward County,ND,NA,NA,2.5
43026,Franklin County,OH,NA,22.284122562674096,NA
43031,Licking County,OH,NA,NA,80.89285714285714
43050,Knox County,OH,NA,76.18384401114207,NA
43123,Franklin County,OH,NA,8.635097493036211,NA
43160,Fayette County,OH,15.936952714535902,22.56267409470752,NA
43207,Franklin County,OH,1.7513134851138354,NA,NA
43224,Franklin County,OH,NA,NA,25.178571428571427
43231,Franklin County,OH,NA,NA,76.60714285714286
43235,Franklin County,OH,NA,39.136490250696376,NA
43326,Hardin County,OH,NA,79.94428969359332,NA
43410,Sandusky County,OH,77.05779334500875,NA,NA
43452,Ottawa County,OH,NA,NA,45.714285714285715
43512,Defiance County,OH,NA,4.735376044568245,NA
43551,Wood County,OH,NA,6.963788300835655,13.035714285714286
43560,Lucas County,OH,NA,15.459610027855152,NA
43604,Lucas County,OH,NA,57.381615598885794,NA
43607,Lucas County,OH,NA,21.866295264623954,NA
43608,Lucas County,OH,10.507880910683012,NA,NA
43616,Lucas County,OH,NA,11.28133704735376,NA
43623,Lucas County,OH,NA,26.18384401114206,NA
43906,Belmont County,OH,NA,95.54317548746518,NA
43920,Columbiana County,OH,NA,NA,14.285714285714285
43968,Columbiana County,OH,NA,96.23955431754875,NA
44035,Lorain County,OH,3.502626970227671,NA,NA
44041,Ashtabula County,OH,NA,38.022284122562674,NA
44050,Lorain County,OH,73.02977232924694,NA,NA
44053,Lorain County,OH,NA,NA,5.535714285714286
44057,Lake County,OH,NA,NA,15
44060,Lake County,OH,NA,NA,0.17857142857142858
44092,Lake County,OH,NA,NA,10.535714285714286
44094,Lake County,OH,22.066549912434326,NA,NA
44095,Lake County,OH,NA,10.445682451253482,NA
44103,Cuyahoga County,OH,NA,81.89415041782729,NA
44104,Cuyahoga County,OH,4.728546409807356,NA,NA
44105,Cuyahoga County,OH,NA,NA,41.785714285714285
44106,Cuyahoga County,OH,NA,14.345403899721449,NA
44107,Cuyahoga County,OH,2.1015761821366024,NA,NA
44111,Cuyahoga County,OH,NA,NA,45
44122,Cuyahoga County,OH,26.09457092819615,NA,NA
44123,Cuyahoga County,OH,63.397548161120845,NA,NA
44124,Cuyahoga County,OH,NA,NA,0.5357142857142857
44125,Cuyahoga County,OH,NA,10.027855153203342,NA
44128,Cuyahoga County,OH,NA,NA,2.3214285714285716
44130,Cuyahoga County,OH,NA,NA,0.7142857142857143
44135,Cuyahoga County,OH,NA,8.774373259052924,58.03571428571429
44137,Cuyahoga County,OH,6.654991243432574,NA,NA
44139,Cuyahoga County,OH,NA,13.509749303621168,15.178571428571427
44141,Cuyahoga County,OH,NA,NA,37.32142857142857
44202,Portage County,OH,NA,NA,9.107142857142856
44203,Summit County,OH,NA,NA,6.607142857142858
44212,Medina County,OH,53.59019264448336,NA,53.75
44221,Summit County,OH,NA,18.52367688022284,NA
44241,Portage County,OH,NA,22.98050139275766,NA
44281,Medina County,OH,NA,13.788300835654596,NA
44301,Summit County,OH,34.676007005253936,NA,NA
44413,Columbiana County,OH,87.39054290718039,NA,NA
44420,Trumbull County,OH,41.5061295971979,NA,NA
44444,Trumbull County,OH,NA,NA,68.39285714285714
44481,Trumbull County,OH,NA,NA,72.85714285714285
44483,Trumbull County,OH,19.614711033274958,NA,NA
44485,Trumbull County,OH,NA,72.70194986072424,NA
44505,Mahoning County,OH,NA,40.66852367688023,NA
44511,Mahoning County,OH,NA,NA,52.5
44601,Stark County,OH,NA,NA,58.392857142857146
44705,Stark County,OH,27.670753064798596,40.52924791086351,62.142857142857146
44721,Stark County,OH,NA,79.66573816155989,NA
44857,Huron County,OH,NA,8.356545961002785,NA
44870,Erie County,OH,NA,NA,5
44890,Huron County,OH,NA,64.48467966573817,NA
44906,Richland County,OH,NA,NA,27.500000000000004
45005,Warren County,OH,NA,NA,31.25
45011,Butler County,OH,3.1523642732049035,NA,NA
45013,Butler County,OH,4.203152364273205,NA,NA
45014,Butler County,OH,NA,59.05292479108635,NA
45015,Butler County,OH,57.4430823117338,70.89136490250696,NA
45240,Hamilton County,OH,29.071803852889666,NA,NA
45324,Greene County,OH,NA,NA,21.071428571428573
45335,Greene County,OH,NA,NA,92.14285714285714
45356,Miami County,OH,NA,NA,84.46428571428571
45373,Miami County,OH,NA,48.32869080779944,NA
45385,Greene County,OH,NA,NA,9.285714285714286
45403,Montgomery County,OH,NA,NA,96.96428571428571
45406,Montgomery County,OH,NA,NA,55.714285714285715
45417,Montgomery County,OH,NA,NA,28.92857142857143
45440,Montgomery County,OH,NA,75.90529247910864,NA
45601,Ross County,OH,NA,NA,0
45638,Lawrence County,OH,NA,NA,24.821428571428573
45640,Jackson County,OH,8.756567425569177,72.00557103064067,NA
45662,Scioto County,OH,NA,2.5069637883008355,NA
45694,Scioto County,OH,32.9246935201401,NA,NA
45801,Allen County,OH,88.2661996497373,NA,NA
45895,Auglaize County,OH,35.02626970227671,NA,NA
73036,Canadian County,OK,NA,67.27019498607241,NA
73105,Oklahoma County,OK,98.59894921190893,NA,NA
73106,Oklahoma County,OK,85.98949211908932,NA,NA
73130,Oklahoma County,OK,NA,49.02506963788301,NA
73159,Oklahoma County,OK,NA,28.133704735376046,NA
73401,Carter County,OK,46.93520140105078,NA,NA
73507,Comanche County,OK,49.38704028021016,NA,NA
73701,Garfield County,OK,NA,35.65459610027855,NA
74012,Tulsa County,OK,NA,NA,39.82142857142857
74464,Cherokee County,OK,NA,19.91643454038997,NA
74604,Kay County,OK,NA,NA,77.14285714285715
74701,Bryan County,OK,NA,NA,73.21428571428571
74745,McCurtain County,OK,65.49912434325745,NA,NA
97009,Clackamas County,OR,NA,NA,94.10714285714286
97030,Multnomah County,OR,52.364273204903675,NA,NA
97045,Clackamas County,OR,17.513134851138354,NA,NA
97058,Wasco County,OR,NA,32.590529247910865,NA
97103,Clatsop County,OR,78.98423817863399,NA,54.285714285714285
97116,Washington County,OR,NA,NA,49.28571428571429
97132,Yamhill County,OR,NA,30.64066852367688,NA
97141,Tillamook County,OR,NA,59.19220055710307,NA
97216,Multnomah County,OR,NA,NA,38.75
97218,Multnomah County,OR,NA,89.97214484679665,NA
97222,Clackamas County,OR,NA,34.67966573816156,NA
97224,Washington County,OR,NA,NA,28.392857142857142
97230,Multnomah County,OR,25.74430823117338,NA,NA
97236,Multnomah County,OR,22.59194395796848,NA,NA
97303,Marion County,OR,45.884413309982484,NA,NA
97321,Linn County,OR,NA,25.20891364902507,NA
97424,Lane County,OR,NA,NA,36.07142857142857
97502,Jackson County,OR,NA,NA,63.92857142857142
97601,Klamath County,OR,NA,NA,40.35714285714286
97603,Klamath County,OR,22.416812609457093,NA,NA
97702,Deschutes County,OR,NA,NA,87.67857142857143
97741,Jefferson County,OR,NA,NA,71.96428571428571
97914,Malheur County,OR,NA,NA,75.17857142857143
15022,Washington County,PA,NA,NA,85.35714285714285
15045,Allegheny County,PA,98.24868651488616,NA,NA
15066,Beaver County,PA,NA,NA,60.17857142857142
15140,Allegheny County,PA,96.6725043782837,NA,NA
15145,Allegheny County,PA,NA,NA,93.39285714285714
15204,Allegheny County,PA,67.60070052539405,NA,NA
15210,Allegheny County,PA,18.038528896672503,NA,NA
15213,Allegheny County,PA,NA,NA,81.07142857142857
15217,Allegheny County,PA,NA,23.119777158774372,NA
15219,Allegheny County,PA,36.25218914185639,NA,NA
15221,Allegheny County,PA,NA,25.62674094707521,NA
15239,Allegheny County,PA,80.56042031523643,NA,NA
15301,Washington County,PA,7.180385288966725,5.2924791086350975,NA
15401,Fayette County,PA,NA,5.43175487465181,8.571428571428571
15417,Fayette County,PA,NA,88.85793871866295,91.78571428571428
15537,Bedford County,PA,NA,67.1309192200557,NA
15601,Westmoreland County,PA,NA,NA,10.178571428571429
15642,Westmoreland County,PA,NA,NA,32.5
15650,Westmoreland County,PA,18.563922942206652,NA,10.714285714285714
15683,Westmoreland County,PA,NA,NA,89.46428571428572
15801,Clearfield County,PA,NA,NA,3.392857142857143
15853,Elk County,PA,NA,61.00278551532033,NA
15904,Cambria County,PA,NA,NA,20.714285714285715
15906,Cambria County,PA,NA,NA,75.35714285714286
16066,Butler County,PA,NA,43.5933147632312,NA
16125,Mercer County,PA,NA,NA,60
16146,Mercer County,PA,26.26970227670753,NA,NA
16335,Crawford County,PA,NA,NA,87.5
16506,Erie County,PA,NA,NA,40.89285714285714
16652,Huntingdon County,PA,NA,19.77715877437326,NA
16701,McKean County,PA,21.36602451838879,NA,NA
16801,Centre County,PA,NA,30.501392757660167,44.285714285714285
16823,Centre County,PA,NA,55.71030640668524,NA
16875,Centre County,PA,99.82486865148861,NA,NA
16933,Tioga County,PA,87.56567425569177,NA,NA
17013,Cumberland County,PA,NA,17.548746518105848,NA
17019,York County,PA,66.37478108581436,NA,NA
17032,Dauphin County,PA,NA,87.60445682451254,NA
17044,Mifflin County,PA,14.711033274956216,NA,NA
17061,Dauphin County,PA,93.6952714535902,NA,NA
17078,Lebanon County,PA,NA,NA,6.071428571428571
17109,Dauphin County,PA,NA,NA,31.071428571428573
17110,Dauphin County,PA,NA,27.298050139275766,NA
17236,Franklin County,PA,NA,NA,59.10714285714286
17327,York County,PA,NA,NA,98.57142857142858
17356,York County,PA,NA,NA,36.78571428571429
17520,Lancaster County,PA,NA,99.025069637883007,NA
17522,Lancaster County,PA,NA,NA,8.928571428571429
17543,Lancaster County,PA,NA,NA,8.214285714285714
17545,Lancaster County,PA,NA,NA,16.964285714285715
17566,Lancaster County,PA,93.34500875656742,NA,NA
17701,Lycoming County,PA,NA,NA,33.214285714285715
17702,Lycoming County,PA,NA,76.46239554317549,NA
17821,Montour County,PA,NA,15.598885793871867,NA
17851,Northumberland County,PA,NA,NA,45.357142857142854
17901,Schuylkill County,PA,NA,NA,24.46428571428571
17954,Schuylkill County,PA,NA,NA,90.53571428571429
18017,Northampton County,PA,NA,4.03899721448468,22.678571428571427
18042,Northampton County,PA,6.129597197898424,4.456824512534819,NA
18045,Northampton County,PA,42.556917688266196,NA,NA
18072,Northampton County,PA,NA,91.92200557103064,NA
18201,Luzerne County,PA,NA,24.79108635097493,NA
18301,Monroe County,PA,NA,32.03342618384401,NA
18324,Pike County,PA,NA,93.87186629526462,NA
18447,Lackawanna County,PA,NA,NA,57.49999999999999
18504,Lackawanna County,PA,NA,80.64066852367688,NA
18610,Monroe County,PA,NA,NA,95
18612,Luzerne County,PA,59.89492119089317,NA,NA
18642,Luzerne County,PA,NA,NA,81.60714285714286
18643,Luzerne County,PA,NA,NA,76.42857142857142
18704,Luzerne County,PA,NA,13.92757660167131,NA
18705,Luzerne County,PA,NA,47.49303621169916,29.642857142857142
18706,Luzerne County,PA,NA,NA,65.53571428571429
19001,Montgomery County,PA,79.6847635726795,NA,NA
19002,Montgomery County,PA,42.20665499124343,NA,NA
19032,Delaware County,PA,80.03502626970229,NA,NA
19036,Delaware County,PA,NA,79.38718662952647,NA
19040,Montgomery County,PA,84.76357267950964,NA,NA
19047,Bucks County,PA,NA,17.68802228412256,NA
19078,Delaware County,PA,NA,NA,73.57142857142858
19118,Philadelphia County,PA,NA,79.38718662952647,NA
19119,Philadelphia County,PA,NA,19.637883008356546,NA
19122,Philadelphia County,PA,NA,77.85515320334262,NA
19124,Philadelphia County,PA,1.0507880910683012,66.991643454038993,NA
19131,Philadelphia County,PA,NA,3.064066852367688,NA
19133,Philadelphia County,PA,NA,72.84122562674095,NA
19139,Philadelphia County,PA,NA,59.749303621169915,52.67857142857143
19140,Philadelphia County,PA,NA,9.749303621169917,NA
19143,Philadelphia County,PA,NA,1.6713091922005572,NA
19146,Philadelphia County,PA,NA,24.37325905292479,47.85714285714286
19149,Philadelphia County,PA,53.41506129597198,NA,NA
19150,Philadelphia County,PA,NA,NA,37.5
19320,Chester County,PA,NA,NA,18.75
19335,Chester County,PA,NA,14.484679665738161,NA
19390,Chester County,PA,NA,NA,94.28571428571428
19551,Berks County,PA,NA,NA,85
19601,Berks County,PA,3.852889667250438,NA,NA
19605,Berks County,PA,NA,42.4791086350975,NA
19610,Berks County,PA,NA,NA,59.64285714285714
02860,Providence County,RI,NA,NA,30
02889,Kent County,RI,27.845884413309985,NA,NA
02891,Washington County,RI,NA,27.158774373259053,NA
02914,Providence County,RI,48.33625218914185,NA,NA
02915,Providence County,RI,NA,NA,88.92857142857142
02917,Providence County,RI,NA,81.61559888579387,NA
02919,Providence County,RI,44.483362521891415,NA,NA
02921,Providence County,RI,NA,NA,90.17857142857143
29010,Lee County,SC,NA,NA,51.60714285714286
29053,Lexington County,SC,59.19439579684763,NA,NA
29054,Lexington County,SC,NA,95.96100278551532,NA
29059,Orangeburg County,SC,NA,NA,99.82142857142857
29061,Richland County,SC,97.8984238178634,NA,NA
29070,Lexington County,SC,NA,86.76880222841226,NA
29073,Lexington County,SC,24.69352014010508,NA,NA
29108,Newberry County,SC,NA,53.760445682451255,NA
29138,Saluda County,SC,NA,NA,82.67857142857142
29150,Sumter County,SC,NA,NA,54.46428571428571
29180,Fairfield County,SC,NA,79.10863509749304,77.85714285714286
29203,Richland County,SC,42.73204903677758,22.841225626740947,NA
29206,Richland County,SC,87.74080560420316,NA,NA
29209,Richland County,SC,49.036777583187394,NA,NA
29223,Richland County,SC,26.970227670753065,NA,NA
29325,Laurens County,SC,86.1646234676007,NA,NA
29330,Spartanburg County,SC,79.50963222416813,NA,NA
29340,Cherokee County,SC,44.65849387040281,NA,NA
29349,Spartanburg County,SC,28.7215411558669,NA,23.92857142857143
29365,Spartanburg County,SC,63.57267950963222,NA,NA
29405,Charleston County,SC,31.873905429071804,NA,NA
29445,Berkeley County,SC,NA,NA,69.64285714285714
29456,Dorchester County,SC,69.00175131348512,NA,NA
29466,Charleston County,SC,52.53940455341506,NA,NA
29477,Dorchester County,SC,87.04028021015762,NA,NA
29479,Berkeley County,SC,87.91593695271453,NA,NA
29485,Dorchester County,SC,63.04728546409807,NA,NA
29488,Colleton County,SC,NA,38.440111420612816,50
29526,Horry County,SC,41.85639229422067,NA,NA
29556,Williamsburg County,SC,NA,76.88022284122563,NA
29575,Horry County,SC,NA,NA,45.17857142857143
29579,Horry County,SC,NA,35.65459610027855,NA
29588,Horry County,SC,40.80560420315236,10.724233983286908,NA
29617,Greenville County,SC,NA,39.55431754874652,NA
29630,Pickens County,SC,84.93870402802102,NA,NA
29640,Pickens County,SC,NA,80.22284122562674,88.57142857142857
29645,Laurens County,SC,NA,NA,81.25
29650,Greenville County,SC,NA,47.353760445682454,NA
29702,Cherokee County,SC,NA,NA,79.46428571428571
29745,York County,SC,NA,86.35097493036211,NA
29812,Barnwell County,SC,NA,59.47075208913649,NA
29841,Aiken County,SC,55.86690017513135,NA,NA
29851,Aiken County,SC,NA,NA,89.82142857142857
29909,Beaufort County,SC,NA,17.827298050139277,16.607142857142858
57006,Brookings County,SD,NA,45.682451253481894,NA
57106,Minnehaha County,SD,NA,6.545961002785515,NA
57301,Davison County,SD,NA,36.768802228412255,NA
57350,Beadle County,SD,NA,NA,39.64285714285714
57401,Brown County,SD,21.71628721541156,NA,NA
57719,Pennington County,SD,NA,57.66016713091921,NA
37042,Montgomery County,TN,27.32049036777583,NA,NA
37064,Williamson County,TN,NA,16.295264623955433,NA
37066,Sumner County,TN,12.43432574430823,NA,NA
37067,Williamson County,TN,NA,74.5125348189415,NA
37075,Sumner County,TN,NA,6.685236768802229,NA
37083,Macon County,TN,85.46409807355516,NA,NA
37110,Warren County,TN,NA,26.46239554317549,NA
37166,DeKalb County,TN,NA,NA,56.96428571428571
37174,Williamson County,TN,NA,NA,74.28571428571429
37203,Davidson County,TN,81.61120840630473,NA,NA
37215,Davidson County,TN,NA,NA,37.857142857142854
37216,Davidson County,TN,NA,90.25069637883009,NA
37218,Davidson County,TN,54.46584938704028,NA,NA
37303,McMinn County,TN,24.86865148861646,NA,NA
37324,Franklin County,TN,73.5551663747811,NA,NA
37334,Lincoln County,TN,40.63047285464098,NA,NA
37362,Polk County,TN,97.54816112084063,NA,NA
37412,Hamilton County,TN,NA,NA,52.142857142857146
37617,Sullivan County,TN,NA,NA,75
37620,Sullivan County,TN,NA,18.105849582172702,NA
37641,Greene County,TN,NA,61.83844011142061,NA
37725,Jefferson County,TN,NA,61.97771587743732,NA
37743,Greene County,TN,NA,NA,10.892857142857142
37814,Hamblen County,TN,NA,NA,33.39285714285714
37830,Anderson County,TN,NA,NA,36.25
37849,Knox County,TN,NA,NA,43.214285714285715
37857,Hawkins County,TN,78.80910683012259,NA,82.5
37869,Hancock County,TN,NA,NA,86.60714285714286
37919,Knox County,TN,NA,41.22562674094708,NA
37920,Knox County,TN,NA,NA,63.57142857142857
37932,Knox County,TN,NA,NA,89.46428571428572
38063,Lauderdale County,TN,47.110332749562176,NA,NA
38107,Shelby County,TN,46.234676007005255,NA,NA
38117,Shelby County,TN,NA,72.28412256267409,NA
38125,Shelby County,TN,NA,NA,94.46428571428571
38133,Shelby County,TN,NA,92.20055710306406,NA
38237,Weakley County,TN,NA,67.82729805013928,NA
38358,Gibson County,TN,NA,68.52367688022284,NA
38372,Hardin County,TN,NA,83.008356545961007,NA
38571,Cumberland County,TN,NA,47.07520891364902,NA
75040,Dallas County,TX,NA,NA,18.928571428571427
75090,Grayson County,TX,NA,60.02785515320335,NA
75104,Dallas County,TX,NA,NA,69.10714285714286
75140,Van Zandt County,TX,NA,NA,76.96428571428572
75143,Henderson County,TX,NA,NA,85.17857142857143
75146,Dallas County,TX,NA,66.15598885793872,NA
75210,Dallas County,TX,NA,97.7715877437326,NA
75215,Dallas County,TX,32.04903677758319,NA,NA
75227,Dallas County,TX,NA,73.53760445682451,NA
75241,Dallas County,TX,NA,37.04735376044568,NA
75244,Dallas County,TX,85.81436077057793,NA,NA
75248,Dallas County,TX,NA,84.12256267409471,NA
75460,Lamar County,TX,NA,74.79108635097494,NA
75501,Bowie County,TX,NA,23.81615598885794,NA
75602,Gregg County,TX,61.646234676007005,NA,NA
75862,Trinity County,TX,NA,84.40111420612814,NA
75961,Nacogdoches County,TX,NA,80.08356545961003,NA
76002,Tarrant County,TX,60.94570928196147,NA,NA
76017,Tarrant County,TX,NA,32.45125348189415,NA
76023,Wise County,TX,NA,91.08635097493037,NA
76033,Johnson County,TX,40.98073555166375,NA,NA
76048,Hood County,TX,NA,34.540389972144844,NA
76060,Tarrant County,TX,89.84238178633976,NA,NA
76063,Tarrant County,TX,17.338003502626968,NA,NA
76092,Tarrant County,TX,NA,NA,86.07142857142858
76105,Tarrant County,TX,NA,24.651810584958216,NA
76119,Tarrant County,TX,9.98248686514886,NA,NA
76133,Tarrant County,TX,NA,23.25905292479109,NA
76134,Tarrant County,TX,31.17338003502627,NA,NA
76137,Tarrant County,TX,24.168126094570926,NA,NA
76244,Tarrant County,TX,NA,NA,69.46428571428571
76309,Wichita County,TX,76.00700525394045,NA,NA
76354,Wichita County,TX,NA,88.02228412256268,NA
76426,Wise County,TX,NA,NA,56.25
76448,Eastland County,TX,NA,NA,89.28571428571429
76513,Bell County,TX,10.332749562171628,NA,NA
76522,Coryell County,TX,49.56217162872154,NA,NA
76543,Bell County,TX,NA,21.030640668523677,NA
76549,Bell County,TX,59.719789842381786,NA,NA
76802,Brown County,TX,NA,98.32869080779945,NA
76904,Tom Green County,TX,NA,42.061281337047355,NA
77004,Harris County,TX,32.57443082311734,NA,NA
77005,Harris County,TX,NA,NA,56.607142857142854
77013,Harris County,TX,NA,NA,86.96428571428572
77016,Harris County,TX,NA,43.17548746518106,NA
77020,Harris County,TX,62.17162872154116,NA,NA
77033,Harris County,TX,NA,20.61281337047354,96.42857142857143
77061,Harris County,TX,NA,85.37604456824512,NA
77067,Harris County,TX,NA,85.65459610027855,NA
77084,Harris County,TX,NA,NA,62.857142857142854
77095,Harris County,TX,NA,13.09192200557103,49.642857142857146
77096,Harris County,TX,62.6970227670753,NA,NA
77339,Harris County,TX,NA,NA,35.714285714285715
77401,Harris County,TX,71.10332749562171,NA,NA
77418,Austin County,TX,NA,78.8300835654596,NA
77469,Fort Bend County,TX,33.45008756567426,NA,NA
77479,Fort Bend County,TX,NA,NA,62.67857142857143
77498,Fort Bend County,TX,57.61821366024519,NA,NA
77511,Brazoria County,TX,NA,NA,16.071428571428573
77535,Liberty County,TX,44.30823117338004,NA,NA
77539,Galveston County,TX,23.642732049036777,NA,33.035714285714285
77586,Harris County,TX,NA,68.80222841225627,NA
77591,Galveston County,TX,59.36952714535902,NA,NA
77598,Harris County,TX,61.82136602451839,NA,NA
77627,Jefferson County,TX,NA,64.62395543175488,NA
77656,Hardin County,TX,60.24518388791593,NA,NA
77657,Hardin County,TX,61.29597197898424,NA,NA
77802,Brazos County,TX,29.246935201401055,NA,NA
77833,Washington County,TX,NA,NA,46.60714285714286
77836,Burleson County,TX,84.41330998248687,NA,NA
77845,Brazos County,TX,NA,51.67130919220055,NA
78016,Medina County,TX,NA,NA,86.07142857142858
78043,Webb County,TX,NA,NA,31.785714285714285
78046,Webb County,TX,NA,27.437325905292482,NA
78213,Bexar County,TX,NA,67.54874651810584,NA
78222,Bexar County,TX,68.47635726795096,NA,NA
78227,Bexar County,TX,40.98073555166375,NA,NA
78239,Bexar County,TX,NA,72.42339832869081,NA
78258,Bexar County,TX,NA,NA,58.214285714285715
78363,Kleberg County,TX,NA,63.788300835654596,NA
78380,Nueces County,TX,NA,71.44846796657382,NA
78414,Nueces County,TX,NA,NA,80.53571428571429
78521,Cameron County,TX,36.952714535901926,NA,NA
78559,Cameron County,TX,NA,NA,88.21428571428571
78613,Williamson County,TX,NA,NA,34.285714285714285
78629,Gonzales County,TX,NA,NA,58.75
78633,Williamson County,TX,NA,1.532033426183844,NA
78641,Williamson County,TX,NA,19.35933147632312,NA
78669,Travis County,TX,NA,79.80501392757661,NA
78734,Travis County,TX,91.59369527145358,NA,NA
78748,Travis County,TX,NA,NA,63.39285714285714
78840,Val Verde County,TX,NA,NA,10.357142857142858
79413,Lubbock County,TX,NA,NA,33.75
79512,Mitchell County,TX,NA,NA,78.03571428571429
79556,Nolan County,TX,NA,54.874651810584965,NA
79902,El Paso County,TX,NA,86.2116991643454,NA
84010,Davis County,UT,NA,62.8133704735376,NA
84104,Salt Lake County,UT,50.96322241681261,NA,NA
84107,Salt Lake County,UT,45.359019264448335,48.05013927576602,NA
84109,Salt Lake County,UT,66.90017513134852,NA,NA
84120,Salt Lake County,UT,NA,21.448467966573816,NA
84124,Salt Lake County,UT,96.8476357267951,NA,NA
84606,Utah County,UT,95.09632224168126,NA,NA
84780,Washington County,UT,NA,NA,44.642857142857146
20110,Manassas city,VA,68.82661996497373,NA,NA
20148,Loudoun County,VA,NA,91.78272980501393,NA
20194,Fairfax County,VA,NA,97.9108635097493,NA
22039,Fairfax County,VA,NA,82.17270194986072,NA
22151,Fairfax County,VA,80.38528896672504,NA,NA
22204,Arlington County,VA,NA,91.64345403899722,91.96428571428571
22207,Arlington County,VA,NA,NA,43.392857142857146
22407,Spotsylvania County,VA,NA,NA,76.07142857142857
22580,Caroline County,VA,NA,NA,93.75
22602,Frederick County,VA,NA,NA,50.357142857142854
22630,Warren County,VA,28.371278458844134,NA,NA
22902,Charlottesville city,VA,NA,36.07242339832869,68.21428571428572
22960,Orange County,VA,67.25043782837128,NA,NA
22963,Fluvanna County,VA,NA,55.15320334261838,NA
22980,Waynesboro city,VA,NA,NA,3.9285714285714284
23103,Goochland County,VA,NA,NA,96.60714285714286
23111,Hanover County,VA,NA,16.71309192200557,NA
23112,Chesterfield County,VA,NA,28.551532033426184,NA
23185,James City County,VA,NA,3.6211699164345403,NA
23188,James City County,VA,NA,NA,39.464285714285715
23220,Richmond city,VA,82.31173380035027,NA,NA
23223,Henrico County,VA,NA,12.813370473537605,NA
23227,Henrico County,VA,NA,40.389972144846794,28.57142857142857
23231,Henrico County,VA,NA,18.384401114206128,NA
23233,Henrico County,VA,NA,77.15877437325905,NA
23320,Chesapeake city,VA,NA,55.43175487465181,NA
23321,Chesapeake city,VA,NA,33.147632311977716,NA
23322,Chesapeake city,VA,NA,23.955431754874652,NA
23324,Chesapeake city,VA,NA,57.938718662952645,NA
23434,Suffolk city,VA,NA,44.15041782729805,NA
23435,Suffolk city,VA,NA,38.3008356545961,NA
23452,Virginia Beach city,VA,NA,9.610027855153204,8.392857142857142
23453,Virginia Beach city,VA,NA,39.97214484679666,NA
23464,Virginia Beach city,VA,20.140105078809107,NA,NA
23487,Isle of Wight County,VA,98.9492119089317,NA,NA
23503,Norfolk city,VA,NA,40.807799442896936,NA
23504,Norfolk city,VA,30.64798598949212,NA,NA
23662,Poquoson city,VA,96.49737302977232,NA,NA
23666,Hampton city,VA,43.08231173380035,NA,NA
23701,Portsmouth city,VA,NA,24.233983286908078,20
23704,Portsmouth city,VA,NA,55.98885793871866,NA
23803,Petersburg city,VA,14.010507880910684,NA,NA
23805,Petersburg city,VA,56.21716287215411,NA,NA
23847,Greensville County,VA,NA,70.47353760445682,NA
24014,Roanoke city,VA,69.1768826619965,NA,NA
24019,Roanoke County,VA,NA,28.969359331476323,NA
24073,Montgomery County,VA,NA,56.54596100278552,NA
24368,Wythe County,VA,92.11908931698774,95.12534818941504,NA
24501,Lynchburg city,VA,NA,42.89693593314763,NA
24541,Danville city,VA,NA,34.12256267409471,NA
98012,Snohomish County,WA,NA,28.690807799442897,NA
98023,King County,WA,29.772329246935204,NA,NA
98026,Snohomish County,WA,39.754816112084065,92.06128133704735,NA
98053,King County,WA,75.83187390542906,NA,NA
98059,King County,WA,NA,68.38440111420613,NA
98092,King County,WA,NA,18.802228412256266,NA
98144,King County,WA,NA,95.40389972144847,NA
98155,King County,WA,NA,44.70752089136491,NA
98168,King County,WA,37.3029772329247,NA,NA
98177,King County,WA,NA,60.724233983286915,NA
98178,King County,WA,NA,NA,75.71428571428571
98239,Island County,WA,NA,64.9025069637883,NA
98270,Snohomish County,WA,NA,33.00835654596101,NA
98290,Snohomish County,WA,46.58493870402802,NA,NA
98335,Pierce County,WA,NA,38.16155988857939,NA
98338,Pierce County,WA,52.01401050788091,NA,NA
98366,Kitsap County,WA,NA,68.80222841225627,NA
98402,Pierce County,WA,NA,NA,92.67857142857143
98406,Pierce County,WA,64.09807355516638,NA,NA
98407,Pierce County,WA,85.63922942206655,NA,41.60714285714286
98409,Pierce County,WA,86.86514886164623,NA,NA
98506,Thurston County,WA,88.96672504378283,NA,NA
98524,Mason County,WA,NA,NA,77.67857142857143
98580,Pierce County,WA,NA,91.22562674094708,NA
98620,Klickitat County,WA,NA,71.1699164345404,NA
98640,Pacific County,WA,NA,84.40111420612814,NA
98837,Grant County,WA,NA,32.86908077994429,NA
98908,Yakima County,WA,NA,NA,13.214285714285715
98926,Kittitas County,WA,NA,74.09470752089136,NA
98930,Yakima County,WA,83.36252189141857,NA,81.78571428571428
99019,Spokane County,WA,NA,94.98607242339833,NA
99362,Walla Walla County,WA,NA,NA,59.285714285714285
20002,District of Columbia,DC,NA,75.76601671309191,NA
20008,District of Columbia,DC,NA,NA,71.42857142857143
20009,District of Columbia,DC,35.37653239929948,NA,NA
20010,District of Columbia,DC,56.042031523642734,NA,NA
20018,District of Columbia,DC,NA,NA,90.89285714285714
20019,District of Columbia,DC,43.43257443082312,5.013927576601671,NA
20032,District of Columbia,DC,5.954465849387041,NA,68.57142857142857
20037,District of Columbia,DC,98.77408056042032,NA,NA
24701,Mercer County,WV,NA,NA,30.357142857142854
24740,Mercer County,WV,34.85113835376533,NA,NA
25053,Boone County,WV,93.52014010507881,NA,NA
25313,Kanawha County,WV,52.88966725043783,NA,NA
25404,Berkeley County,WV,43.6077057793345,NA,NA
25430,Jefferson County,WV,69.87740805604203,NA,NA
25704,Wayne County,WV,95.97197898423818,NA,NA
25705,Cabell County,WV,NA,22.00557103064067,NA
26426,Harrison County,WV,87.215411558669,NA,NA
26726,Mineral County,WV,NA,41.64345403899721,NA
26757,Hampshire County,WV,NA,85.0974930362117,NA
26847,Grant County,WV,NA,NA,65.35714285714286
53024,Ozaukee County,WI,NA,NA,19.464285714285715
53073,Sheboygan County,WI,NA,96.10027855153204,NA
53083,Sheboygan County,WI,NA,61.55988857938719,NA
53105,Racine County,WI,NA,11.420612813370473,NA
53115,Walworth County,WI,NA,43.45403899721448,NA
53190,Walworth County,WI,NA,64.34540389972145,NA
53202,Milwaukee County,WI,76.35726795096322,48.467966573816156,NA
53204,Milwaukee County,WI,7.880910683012258,NA,NA
53208,Milwaukee County,WI,NA,30.362116991643457,NA
53212,Milwaukee County,WI,16.637478108581437,15.041782729805014,NA
53214,Milwaukee County,WI,NA,11.142061281337048,NA
53215,Milwaukee County,WI,25.21891418563923,NA,NA
53216,Milwaukee County,WI,NA,19.498607242339833,NA
53221,Milwaukee County,WI,NA,22.701949860724234,NA
53223,Milwaukee County,WI,19.96497373029772,NA,NA
53402,Racine County,WI,NA,69.35933147632312,NA
53405,Racine County,WI,6.830122591943957,3.7604456824512535,NA
53511,Rock County,WI,9.281961471103326,NA,NA
53546,Rock County,WI,NA,NA,6.964285714285714
53913,Sauk County,WI,NA,NA,14.642857142857144
53959,Sauk County,WI,NA,46.796657381615596,NA
54020,Polk County,WI,75.30647985989492,89.13649025069638,NA
54217,Kewaunee County,WI,NA,NA,98.39285714285714
54403,Marathon County,WI,NA,32.31197771587744,NA
54452,Lincoln County,WI,NA,53.34261838440112,23.214285714285715
54467,Portage County,WI,NA,NA,80
54482,Portage County,WI,NA,NA,53.92857142857142
54501,Oneida County,WI,NA,NA,18.035714285714285
54601,La Crosse County,WI,9.632224168126093,NA,NA
54701,Eau Claire County,WI,NA,NA,35
54755,Buffalo County,WI,NA,97.49303621169916,NA
54801,Washburn County,WI,NA,NA,96.07142857142857
54840,Burnett County,WI,NA,NA,85.89285714285714
54913,Outagamie County,WI,NA,NA,75.53571428571428
54981,Waupaca County,WI,64.44833625218914,NA,NA
54986,Winnebago County,WI,94.7460595446585,NA,NA
82501,Fremont County,WY,NA,75.20891364902506,NA
