ZipCode,county,state,Adult,Retirement,Geriatric
35124,Shelby County,AL,65.34653465346535,NA,NA
35215,Jefferson County,AL,11.386138613861387,NA,NA
35235,Jefferson County,AL,89.10891089108911,NA,NA
35242,Shelby County,AL,NA,18.181818181818183,NA
35401,Tuscaloosa County,AL,NA,23.75366568914956,NA
35453,Tuscaloosa County,AL,NA,NA,100
35614,Limestone County,AL,NA,NA,98.39357429718876
36203,Calhoun County,AL,NA,55.42521994134897,NA
36603,Mobile County,AL,NA,NA,85.14056224899599
36726,Wilcox County,AL,86.63366336633663,NA,NA
85260,Maricopa County,AZ,NA,NA,29.71887550200803
85364,Yuma County,AZ,NA,NA,6.827309236947792
86510,Navajo County,AZ,NA,NA,99.19678714859438
71953,Polk County,AR,NA,NA,43.77510040160642
72076,Pulaski County,AR,57.42574257425742,NA,NA
72116,Pulaski County,AR,NA,46.9208211143695,NA
72176,Lonoke County,AR,88.61386138613861,NA,NA
72206,Pulaski County,AR,NA,34.01759530791789,NA
90018,Los Angeles County,CA,NA,35.19061583577713,NA
90027,Los Angeles County,CA,63.366336633663366,NA,NA
90044,Los Angeles County,CA,55.940594059405946,NA,NA
90045,Los Angeles County,CA,NA,58.35777126099707,NA
90255,Los Angeles County,CA,NA,NA,71.4859437751004
90715,Los Angeles County,CA,NA,95.60117302052787,NA
91106,Los Angeles County,CA,NA,86.51026392961877,NA
91306,Los Angeles County,CA,NA,52.49266862170088,NA
91311,Los Angeles County,CA,NA,54.83870967741935,NA
91360,Ventura County,CA,NA,83.28445747800586,NA
91362,Ventura County,CA,NA,45.45454545454545,NA
91501,Los Angeles County,CA,87.12871287128714,NA,NA
91739,San Bernardino County,CA,NA,65.39589442815249,NA
91748,Los Angeles County,CA,NA,NA,40.16064257028113
91978,San Diego County,CA,NA,96.18768328445748,NA
92028,San Diego County,CA,NA,NA,77.10843373493977
92119,San Diego County,CA,NA,78.59237536656892,NA
92234,Riverside County,CA,18.81188118811881,NA,NA
92253,Riverside County,CA,50,NA,NA
92260,Riverside County,CA,NA,NA,2.0080321285140563
92374,San Bernardino County,CA,NA,66.56891495601172,50.602409638554214
92386,San Bernardino County,CA,NA,100,NA
92507,Riverside County,CA,47.02970297029702,NA,NA
92545,Riverside County,CA,NA,NA,21.686746987951807
92626,Orange County,CA,NA,NA,81.92771084337349
92707,Orange County,CA,NA,54.252199413489734,63.85542168674698
93210,Fresno County,CA,76.23762376237624,NA,NA
93422,San Luis Obispo County,CA,53.960396039603964,NA,NA
93454,Santa Barbara County,CA,NA,51.31964809384164,NA
93458,Santa Barbara County,CA,19.801980198019802,NA,NA
93535,Los Angeles County,CA,NA,NA,55.82329317269076
93555,Kern County,CA,NA,NA,42.168674698795186
93726,Fresno County,CA,NA,NA,58.23293172690763
93940,Monterey County,CA,80.6930693069307,NA,NA
93960,Monterey County,CA,84.15841584158416,NA,NA
94087,Santa Clara County,CA,78.21782178217822,NA,NA
94108,San Francisco County,CA,NA,NA,82.32931726907631
94109,San Francisco County,CA,NA,NA,8.032128514056225
94112,San Francisco County,CA,NA,NA,6.024096385542169
94122,San Francisco County,CA,NA,NA,38.55421686746988
94521,Contra Costa County,CA,NA,44.57478005865102,NA
94536,Alameda County,CA,NA,NA,24.899598393574294
94560,Alameda County,CA,NA,97.65395894428153,NA
94595,Contra Costa County,CA,NA,NA,13.253012048192772
94608,Alameda County,CA,NA,53.665689149560116,NA
94618,Alameda County,CA,NA,NA,70.28112449799197
94803,Contra Costa County,CA,NA,NA,59.43775100401606
94806,Contra Costa County,CA,NA,NA,25.702811244979916
94901,Marin County,CA,NA,NA,43.373493975903614
94930,Marin County,CA,NA,NA,99.59839357429718
94954,Sonoma County,CA,55.44554455445545,NA,NA
95117,Santa Clara County,CA,NA,74.7800586510264,NA
95128,Santa Clara County,CA,68.8118811881188,NA,NA
95336,San Joaquin County,CA,36.13861386138614,NA,NA
95370,Tuolumne County,CA,NA,NA,10.441767068273093
95490,Mendocino County,CA,NA,55.42521994134897,NA
95540,Humboldt County,CA,61.88118811881188,NA,NA
95765,Placer County,CA,71.28712871287128,NA,NA
95822,Sacramento County,CA,NA,79.47214076246334,NA
95823,Sacramento County,CA,46.03960396039604,NA,NA
95969,Butte County,CA,NA,10.263929618768328,NA
95991,Sutter County,CA,NA,42.22873900293255,NA
96003,Shasta County,CA,NA,29.61876832844575,NA
96067,Siskiyou County,CA,NA,NA,91.56626506024097
96073,Shasta County,CA,NA,98.82697947214076,NA
80012,Arapahoe County,CO,NA,NA,23.694779116465863
80030,Adams County,CO,NA,NA,86.34538152610442
80033,Jefferson County,CO,NA,NA,69.87951807228916
80538,Larimer County,CO,NA,11.436950146627565,NA
80817,El Paso County,CO,NA,89.73607038123167,NA
80911,El Paso County,CO,NA,79.76539589442815,NA
80919,El Paso County,CO,NA,NA,51.40562248995983
81226,Fremont County,CO,NA,91.78885630498533,NA
81521,Mesa County,CO,NA,NA,73.09236947791165
06042,Hartford County,CT,NA,81.52492668621701,NA
06470,Fairfield County,CT,NA,84.75073313782991,NA
06511,New Haven County,CT,NA,14.66275659824047,NA
06513,New Haven County,CT,NA,13.48973607038123,26.104417670682732
06615,Fairfield County,CT,77.72277227722772,NA,NA
06762,New Haven County,CT,NA,92.96187683284457,NA
06776,Litchfield County,CT,NA,69.79472140762464,NA
06870,Fairfield County,CT,NA,95.89442815249268,NA
06902,Fairfield County,CT,NA,15.249266862170089,NA
19720,New Castle County,DE,NA,NA,11.646586345381527
32055,Columbia County,FL,NA,NA,63.05220883534136
32159,Lake County,FL,NA,29.03225806451613,NA
32164,Flagler County,FL,NA,NA,16.46586345381526
32189,Putnam County,FL,NA,NA,72.69076305220884
32218,Duval County,FL,NA,5.278592375366569,NA
32223,Duval County,FL,NA,39.29618768328446,NA
32244,Duval County,FL,5.9405940594059405,NA,NA
32257,Duval County,FL,27.22772277227723,NA,NA
32352,Gadsden County,FL,NA,NA,98.79518072289156
32428,Washington County,FL,NA,56.598240469208214,NA
32504,Escambia County,FL,NA,33.43108504398827,NA
32506,Escambia County,FL,NA,75.0733137829912,NA
32526,Escambia County,FL,NA,NA,71.8875502008032
32533,Escambia County,FL,NA,24.04692082111437,NA
32807,Orange County,FL,NA,NA,44.57831325301205
32818,Orange County,FL,NA,NA,61.44578313253012
32926,Brevard County,FL,NA,NA,74.29718875502009
32953,Brevard County,FL,62.37623762376238,NA,NA
32955,Brevard County,FL,NA,61.58357771260997,NA
32967,Indian River County,FL,NA,NA,48.19277108433735
33037,Monroe County,FL,NA,94.72140762463343,NA
33060,Broward County,FL,NA,54.83870967741935,NA
33133,Miami-Dade County,FL,NA,NA,36.54618473895582
33311,Broward County,FL,NA,26.68621700879765,NA
33415,Palm Beach County,FL,48.01980198019802,NA,NA
33478,Palm Beach County,FL,NA,NA,97.59036144578313
33634,Hillsborough County,FL,NA,NA,97.99196787148594
33852,Highlands County,FL,NA,NA,57.831325301204814
33872,Highlands County,FL,87.62376237623762,NA,NA
33912,Lee County,FL,NA,NA,24.497991967871485
33913,Lee County,FL,NA,68.91495601173021,NA
33956,Lee County,FL,NA,NA,85.94377510040161
33983,Charlotte County,FL,NA,96.7741935483871,NA
34108,Collier County,FL,NA,NA,37.75100401606426
34114,Collier County,FL,NA,40.469208211143695,49.39759036144578
34228,Sarasota County,FL,NA,94.42815249266863,NA
34233,Sarasota County,FL,NA,NA,32.93172690763052
34235,Sarasota County,FL,NA,NA,83.93574297188755
34613,Hernando County,FL,NA,39.589442815249264,NA
34772,Osceola County,FL,NA,NA,76.70682730923694
34974,Okeechobee County,FL,59.4059405940594,NA,NA
34982,St. Lucie County,FL,NA,NA,53.01204819277109
34986,St. Lucie County,FL,NA,29.32551319648094,NA
30058,DeKalb County,GA,NA,NA,56.62650602409639
30078,Gwinnett County,GA,NA,49.266862170087975,NA
30083,DeKalb County,GA,31.18811881188119,NA,NA
30126,Cobb County,GA,NA,66.27565982404691,NA
30213,Fulton County,GA,58.415841584158414,NA,NA
30253,Henry County,GA,30.693069306930692,NA,NA
30281,Henry County,GA,30.198019801980198,NA,NA
30531,Habersham County,GA,NA,93.25513196480938,NA
30540,Gilmer County,GA,NA,77.12609970674487,NA
30606,Clarke County,GA,70.79207920792079,NA,NA
30721,Whitfield County,GA,NA,48.68035190615836,NA
30740,Whitfield County,GA,NA,93.54838709677419,NA
30830,Burke County,GA,NA,NA,75.1004016064257
31061,Baldwin County,GA,35.64356435643564,NA,NA
31204,Bibb County,GA,NA,33.137829912023456,NA
31302,Effingham County,GA,NA,96.48093841642229,NA
31313,Liberty County,GA,NA,76.24633431085044,NA
31553,Brantley County,GA,97.52475247524752,NA,NA
31605,Lowndes County,GA,72.27722772277228,NA,NA
31620,Cook County,GA,NA,NA,84.33734939759037
31643,Brooks County,GA,NA,84.4574780058651,NA
31707,Dougherty County,GA,78.71287128712872,NA,NA
31906,Muscogee County,GA,71.78217821782178,NA,NA
39828,Grady County,GA,69.80198019801979,NA,NA
39845,Seminole County,GA,75.24752475247524,NA,NA
96706,Honolulu County,HI,NA,NA,21.285140562248998
96734,Honolulu County,HI,NA,65.6891495601173,NA
96743,Hawaii County,HI,NA,71.26099706744868,NA
96744,Honolulu County,HI,NA,3.812316715542522,NA
96782,Honolulu County,HI,42.57425742574257,NA,NA
96786,Honolulu County,HI,NA,NA,48.59437751004016
96792,Honolulu County,HI,45.04950495049505,NA,NA
96813,Honolulu County,HI,39.603960396039604,NA,NA
96815,Honolulu County,HI,NA,NA,26.506024096385545
96816,Honolulu County,HI,38.11881188118812,NA,NA
96817,Honolulu County,HI,NA,9.3841642228739,NA
96819,Honolulu County,HI,NA,NA,27.309236947791167
96826,Honolulu County,HI,NA,36.950146627565985,NA
83467,Lemhi County,ID,NA,73.31378299120234,NA
83501,Nez Perce County,ID,NA,14.95601173020528,NA
83704,Ada County,ID,NA,NA,4.016064257028113
60002,Lake County,IL,NA,87.09677419354838,NA
60004,Cook County,IL,NA,NA,13.654618473895583
60013,McHenry County,IL,NA,39.882697947214076,NA
60016,Cook County,IL,NA,15.542521994134898,NA
60030,Lake County,IL,NA,80.64516129032258,NA
60069,Lake County,IL,NA,84.1642228739003,NA
60077,Cook County,IL,NA,NA,73.49397590361446
60085,Lake County,IL,NA,34.89736070381232,NA
60089,Lake County,IL,NA,14.369501466275661,NA
60098,McHenry County,IL,NA,NA,17.269076305220885
60134,Kane County,IL,NA,45.16129032258064,NA
60143,DuPage County,IL,NA,75.366568914956,NA
60175,Kane County,IL,33.16831683168317,NA,NA
60419,Cook County,IL,50.495049504950494,NA,NA
60426,Cook County,IL,NA,29.91202346041056,NA
60451,Will County,IL,22.772277227722775,20.234604105571847,NA
60504,DuPage County,IL,41.089108910891085,NA,NA
60563,DuPage County,IL,NA,NA,31.32530120481928
60609,Cook County,IL,NA,53.3724340175953,NA
60611,Cook County,IL,NA,26.392961876832842,NA
60616,Cook County,IL,NA,NA,28.11244979919679
60619,Cook County,IL,NA,32.55131964809384,2.8112449799196786
60620,Cook County,IL,8.91089108910891,4.9853372434017595,NA
60623,Cook County,IL,NA,NA,19.67871485943775
60628,Cook County,IL,9.405940594059405,NA,NA
60636,Cook County,IL,NA,82.69794721407625,NA
60640,Cook County,IL,39.10891089108911,NA,NA
60643,Cook County,IL,NA,NA,12.048192771084338
60644,Cook County,IL,NA,17.008797653958943,NA
60645,Cook County,IL,NA,NA,25.301204819277107
60649,Cook County,IL,18.316831683168317,NA,NA
60655,Cook County,IL,NA,35.77712609970675,NA
60660,Cook County,IL,NA,21.114369501466275,NA
61048,Stephenson County,IL,NA,NA,74.69879518072288
61350,LaSalle County,IL,NA,37.24340175953079,NA
62012,Macoupin County,IL,NA,NA,90.76305220883533
62206,St. Clair County,IL,NA,73.90029325513197,NA
62644,Mason County,IL,NA,92.37536656891496,NA
62711,Sangamon County,IL,NA,79.76539589442815,NA
62801,Marion County,IL,NA,NA,39.3574297188755
46011,Madison County,IN,56.930693069306926,NA,NA
46013,Madison County,IN,NA,NA,38.152610441767074
46124,Johnson County,IN,NA,74.48680351906158,NA
46218,Marion County,IN,NA,NA,32.1285140562249
46241,Marion County,IN,NA,72.72727272727273,NA
46311,Lake County,IN,NA,NA,33.734939759036145
46323,Lake County,IN,NA,NA,40.963855421686745
46406,Lake County,IN,83.66336633663366,NA,NA
46408,Lake County,IN,NA,NA,76.30522088353415
46748,Allen County,IN,NA,98.24046920821115,NA
46750,Huntington County,IN,NA,31.378299120234605,NA
46804,Allen County,IN,NA,30.791788856304986,NA
46805,Allen County,IN,66.33663366336634,NA,NA
46845,Allen County,IN,NA,80.93841642228739,NA
46975,Fulton County,IN,NA,50.43988269794721,NA
47150,Floyd County,IN,NA,10.850439882697946,NA
47441,Greene County,IN,NA,NA,93.97590361445783
47546,Dubois County,IN,NA,41.935483870967744,NA
47620,Posey County,IN,NA,NA,69.07630522088354
47909,Tippecanoe County,IN,NA,81.81818181818183,NA
50219,Marion County,IA,85.64356435643565,NA,NA
50317,Polk County,IA,NA,19.64809384164223,NA
50536,Palo Alto County,IA,NA,NA,77.51004016064257
50616,Floyd County,IA,NA,NA,88.35341365461848
52240,Johnson County,IA,NA,24.633431085043988,NA
52738,Louisa County,IA,92.57425742574257,NA,NA
66104,Wyandotte County,KS,33.663366336633665,NA,NA
67665,Russell County,KS,NA,82.99120234604106,NA
40069,Washington County,KY,NA,NA,94.77911646586345
40204,Jefferson County,KY,NA,85.63049853372434,NA
40380,Powell County,KY,NA,78.88563049853371,NA
40391,Clark County,KY,10.891089108910892,NA,NA
40437,Lincoln County,KY,95.04950495049505,NA,NA
40505,Fayette County,KY,NA,35.77712609970675,NA
40509,Fayette County,KY,NA,NA,75.90361445783132
42240,Christian County,KY,NA,19.06158357771261,NA
42701,Hardin County,KY,NA,NA,39.75903614457831
42743,Green County,KY,NA,67.15542521994135,NA
42754,Grayson County,KY,NA,43.988269794721404,NA
70003,Jefferson Parish,LA,NA,4.69208211143695,NA
70005,Jefferson Parish,LA,NA,61.87683284457478,NA
70056,Jefferson Parish,LA,45.54455445544555,NA,NA
70058,Jefferson Parish,LA,NA,87.68328445747801,NA
70072,Jefferson Parish,LA,NA,NA,9.236947791164658
70121,Jefferson Parish,LA,NA,NA,60.6425702811245
70427,Washington Parish,LA,20.792079207920793,NA,NA
70433,St. Tammany Parish,LA,7.920792079207921,NA,NA
70447,St. Tammany Parish,LA,NA,91.49560117302052,NA
70452,St. Tammany Parish,LA,NA,38.41642228739003,NA
70517,St. Martin Parish,LA,NA,23.46041055718475,NA
70570,St. Landry Parish,LA,1.4851485148514851,NA,NA
70584,St. Landry Parish,LA,67.32673267326733,NA,NA
70647,Calcasieu Parish,LA,NA,92.66862170087975,NA
70767,West Baton Rouge Parish,LA,NA,70.96774193548387,NA
70807,East Baton Rouge Parish,LA,16.33663366336634,NA,NA
71055,Webster Parish,LA,NA,NA,96.78714859437751
71302,Rapides Parish,LA,28.71287128712871,NA,NA
71449,Sabine Parish,LA,NA,99.12023460410558,NA
03908,York County,ME,NA,59.530791788856305,NA
04086,Sagadahoc County,ME,NA,56.01173020527859,NA
04090,York County,ME,NA,34.60410557184751,NA
04345,Kennebec County,ME,74.25742574257426,NA,NA
04457,Penobscot County,ME,NA,NA,87.14859437751004
04976,Somerset County,ME,85.14851485148515,NA,NA
20657,Calvert County,MD,NA,87.3900293255132,NA
20744,Prince George's County,MD,NA,43.10850439882698,NA
20747,Prince George's County,MD,NA,62.4633431085044,NA
20852,Montgomery County,MD,NA,NA,32.53012048192771
21057,Baltimore County,MD,99.5049504950495,NA,NA
21113,Anne Arundel County,MD,89.60396039603961,NA,NA
21117,Baltimore County,MD,NA,NA,46.58634538152611
21205,Baltimore city,MD,54.95049504950495,NA,NA
21206,Baltimore city,MD,NA,16.422287390029325,NA
21213,Baltimore city,MD,NA,NA,45.38152610441767
01056,Hampden County,MA,NA,74.19354838709677,NA
01085,Hampden County,MA,NA,NA,11.244979919678714
01095,Hampden County,MA,NA,66.86217008797654,NA
01105,Hampden County,MA,NA,15.835777126099707,NA
01201,Berkshire County,MA,NA,NA,0.8032128514056224
01440,Worcester County,MA,NA,12.903225806451612,NA
01569,Worcester County,MA,NA,NA,60.24096385542169
01604,Worcester County,MA,34.65346534653465,NA,NA
01742,Middlesex County,MA,NA,41.64222873900293,NA
01801,Middlesex County,MA,NA,0.5865102639296188,NA
01810,Essex County,MA,NA,NA,22.89156626506024
01824,Middlesex County,MA,12.376237623762377,NA,NA
01834,Essex County,MA,NA,78.2991202346041,NA
01850,Middlesex County,MA,10.396039603960396,NA,NA
01862,Middlesex County,MA,52.475247524752476,NA,NA
01867,Middlesex County,MA,32.67326732673268,NA,NA
01904,Essex County,MA,NA,17.888563049853374,NA
01905,Essex County,MA,1.9801980198019802,NA,NA
01906,Essex County,MA,NA,12.023460410557185,NA
01915,Essex County,MA,NA,NA,1.6064257028112447
01945,Essex County,MA,NA,NA,65.86345381526104
01960,Essex County,MA,NA,NA,0
02115,Suffolk County,MA,NA,5.865102639296188,NA
02116,Suffolk County,MA,NA,4.398826979472141,NA
02118,Suffolk County,MA,NA,65.10263929618768,NA
02119,Suffolk County,MA,NA,0.2932551319648094,5.220883534136546
02128,Suffolk County,MA,NA,1.1730205278592376,NA
02136,Suffolk County,MA,NA,53.0791788856305,NA
02139,Middlesex County,MA,NA,58.06451612903226,NA
02151,Suffolk County,MA,NA,NA,0.4016064257028112
02170,Norfolk County,MA,NA,11.730205278592376,NA
02176,Middlesex County,MA,NA,9.090909090909092,NA
02180,Middlesex County,MA,NA,60.70381231671554,NA
02184,Norfolk County,MA,NA,NA,12.851405622489958
02301,Plymouth County,MA,NA,0,NA
02446,Norfolk County,MA,NA,8.797653958944283,NA
02453,Middlesex County,MA,11.881188118811881,NA,NA
02467,Norfolk County,MA,NA,NA,67.06827309236948
02536,Barnstable County,MA,NA,NA,16.867469879518072
02540,Barnstable County,MA,NA,41.05571847507331,NA
02649,Barnstable County,MA,NA,31.964809384164223,NA
02703,Bristol County,MA,0.49504950495049505,NA,NA
02745,Bristol County,MA,NA,NA,87.95180722891565
02760,Bristol County,MA,NA,NA,80.72289156626506
48009,Oakland County,MI,NA,63.929618768328446,NA
48045,Macomb County,MI,NA,NA,72.28915662650603
48067,Oakland County,MI,42.07920792079208,NA,NA
48073,Oakland County,MI,35.148514851485146,71.5542521994135,NA
48082,Macomb County,MI,NA,NA,62.24899598393574
48103,Washtenaw County,MI,NA,NA,20.883534136546185
48152,Wayne County,MI,NA,7.624633431085044,NA
48161,Monroe County,MI,NA,24.34017595307918,NA
48162,Monroe County,MI,15.346534653465346,NA,NA
48176,Washtenaw County,MI,NA,NA,30.522088353413658
48183,Wayne County,MI,NA,37.5366568914956,NA
48197,Washtenaw County,MI,NA,NA,20.080321285140563
48198,Washtenaw County,MI,3.4653465346534658,NA,NA
48202,Wayne County,MI,36.633663366336634,NA,NA
48205,Wayne County,MI,23.762376237623762,NA,NA
48206,Wayne County,MI,NA,NA,63.45381526104418
48214,Wayne County,MI,NA,30.205278592375368,NA
48219,Wayne County,MI,4.455445544554455,NA,NA
48221,Wayne County,MI,NA,NA,4.819277108433735
48223,Wayne County,MI,NA,43.6950146627566,NA
48228,Wayne County,MI,2.4752475247524752,10.557184750733137,NA
48312,Macomb County,MI,27.722772277227726,NA,NA
48458,Genesee County,MI,64.85148514851485,NA,NA
48506,Genesee County,MI,NA,42.52199413489736,53.81526104417671
48601,Saginaw County,MI,17.82178217821782,NA,NA
48622,Clare County,MI,NA,97.36070381231671,NA
48706,Bay County,MI,9.900990099009901,NA,NA
48739,Iosco County,MI,NA,NA,90.76305220883533
48746,Tuscola County,MI,NA,76.53958944281524,NA
48867,Shiawassee County,MI,8.415841584158416,NA,NA
48895,Ingham County,MI,81.68316831683168,NA,NA
48911,Ingham County,MI,NA,19.941348973607038,NA
49010,Allegan County,MI,NA,NA,52.208835341365464
49201,Jackson County,MI,NA,6.451612903225806,NA
49224,Calhoun County,MI,58.91089108910891,NA,NA
49242,Hillsdale County,MI,54.45544554455446,NA,NA
49333,Barry County,MI,NA,73.02052785923753,NA
49401,Ottawa County,MI,61.386138613861384,NA,NA
49423,Ottawa County,MI,14.85148514851485,NA,NA
49464,Ottawa County,MI,80.19801980198021,40.76246334310851,NA
49858,Menominee County,MI,NA,73.60703812316716,NA
49953,Ontonagon County,MI,NA,NA,95.58232931726907
55060,Steele County,MN,43.06930693069307,NA,NA
55103,Ramsey County,MN,50.99009900990099,NA,NA
55404,Hennepin County,MN,0.9900990099009901,NA,NA
55407,Hennepin County,MN,31.683168316831683,NA,NA
55416,Hennepin County,MN,48.51485148514851,NA,NA
55423,Hennepin County,MN,22.277227722772277,NA,NA
55428,Hennepin County,MN,NA,38.12316715542522,NA
55963,Goodhue County,MN,91.0891089108911,NA,NA
56308,Douglas County,MN,NA,NA,8.835341365461847
56364,Morrison County,MN,NA,99.41348973607037,NA
56401,Crow Wing County,MN,NA,NA,7.228915662650602
38671,DeSoto County,MS,NA,57.18475073313783,NA
38732,Bolivar County,MS,43.56435643564357,NA,NA
39042,Rankin County,MS,66.83168316831683,NA,NA
39120,Adams County,MS,46.53465346534654,NA,NA
39194,Yazoo County,MS,NA,75.95307917888563,NA
39204,Hinds County,MS,59.900990099009896,NA,NA
39339,Winston County,MS,NA,NA,66.66666666666666
39367,Wayne County,MS,NA,NA,78.714859437751
63017,St. Louis County,MO,NA,16.129032258064516,NA
63115,St. Louis city,MO,NA,57.478005865102645,NA
63125,St. Louis County,MO,NA,NA,17.670682730923694
63128,St. Louis County,MO,NA,27.27272727272727,NA
63129,St. Louis County,MO,NA,NA,14.457831325301203
63301,St. Charles County,MO,NA,5.571847507331378,NA
64050,Jackson County,MO,NA,54.252199413489734,NA
64052,Jackson County,MO,12.871287128712872,NA,NA
64058,Jackson County,MO,72.77227722772277,NA,NA
64063,Jackson County,MO,NA,75.366568914956,NA
64085,Ray County,MO,57.920792079207914,NA,NA
64093,Johnson County,MO,NA,NA,47.791164658634536
64110,Jackson County,MO,NA,41.348973607038126,NA
64151,Platte County,MO,NA,21.700879765395893,NA
64730,Bates County,MO,NA,71.8475073313783,NA
64836,Jasper County,MO,NA,32.84457478005865,NA
65043,Callaway County,MO,NA,90.9090909090909,NA
65548,Howell County,MO,NA,NA,89.5582329317269
65810,Greene County,MO,NA,68.32844574780059,NA
59047,Park County,MT,NA,92.08211143695014,NA
59404,Cascade County,MT,NA,45.45454545454545,NA
59601,Lewis and Clark County,MT,NA,22.58064516129032,NA
59602,Lewis and Clark County,MT,60.89108910891089,NA,NA
59901,Flathead County,MT,NA,NA,16.06425702811245
68154,Douglas County,NE,NA,51.61290322580645,NA
69301,Box Butte County,NE,100,NA,NA
89145,Clark County,NV,NA,NA,89.1566265060241
89403,Lyon County,NV,NA,42.81524926686217,NA
89445,Humboldt County,NV,91.58415841584159,NA,NA
03103,Hillsborough County,NH,29.7029702970297,NA,NA
03431,Cheshire County,NH,90.5940594059406,NA,NA
03748,Grafton County,NH,NA,99.70674486803519,NA
07109,Essex County,NJ,NA,NA,36.144578313253014
07110,Essex County,NJ,73.26732673267327,NA,NA
07524,Passaic County,NJ,NA,NA,86.74698795180723
07712,Monmouth County,NJ,NA,36.65689149560117,NA
07740,Monmouth County,NJ,NA,9.970674486803519,NA
07850,Morris County,NJ,NA,NA,95.98393574297188
08037,Atlantic County,NJ,NA,NA,26.907630522088354
08046,Burlington County,NJ,52.97029702970298,NA,NA
08204,Cape May County,NJ,NA,NA,37.34939759036144
08234,Atlantic County,NJ,NA,NA,28.514056224899598
08302,Cumberland County,NJ,68.31683168316832,NA,NA
08723,Ocean County,NJ,NA,NA,44.97991967871486
08759,Ocean County,NJ,NA,1.466275659824047,NA
08816,Middlesex County,NJ,NA,63.049853372434015,NA
08876,Somerset County,NJ,NA,NA,64.65863453815261
08882,Middlesex County,NJ,82.17821782178217,NA,NA
87048,Sandoval County,NM,97.02970297029702,NA,NA
87108,Bernalillo County,NM,6.9306930693069315,NA,NA
87144,Sandoval County,NM,NA,58.65102639296188,NA
87401,San Juan County,NM,NA,43.401759530791786,NA
87505,Santa Fe County,NM,NA,NA,15.66265060240964
87506,Santa Fe County,NM,NA,NA,84.73895582329317
87508,Santa Fe County,NM,NA,NA,58.63453815261044
87532,Santa Fe County,NM,NA,47.214076246334315,NA
87571,Taos County,NM,NA,83.57771260997067,NA
88005,Doa Ana County,NM,NA,44.28152492668622,NA
88101,Curry County,NM,NA,8.504398826979472,NA
88210,Eddy County,NM,47.524752475247524,NA,NA
88310,Otero County,NM,NA,NA,10.040160642570282
10003,New York County,NY,NA,NA,57.42971887550201
10019,New York County,NY,NA,NA,30.923694779116467
10023,New York County,NY,NA,NA,7.630522088353414
10025,New York County,NY,NA,NA,3.614457831325301
10027,New York County,NY,NA,NA,79.11646586345381
10030,New York County,NY,25.247524752475247,NA,NA
10456,Bronx County,NY,44.554455445544555,NA,NA
10457,Bronx County,NY,NA,26.099706744868033,NA
10460,Bronx County,NY,NA,0.8797653958944283,NA
10461,Bronx County,NY,14.356435643564355,NA,NA
10466,Bronx County,NY,NA,2.0527859237536656,NA
10473,Bronx County,NY,NA,8.211143695014663,NA
10509,Putnam County,NY,NA,NA,69.07630522088354
11217,Kings County,NY,NA,NA,55.42168674698795
11225,Kings County,NY,99.00990099009901,NA,NA
11235,Kings County,NY,NA,NA,1.2048192771084338
11356,Queens County,NY,NA,NA,71.08433734939759
11435,Queens County,NY,NA,NA,35.7429718875502
11550,Nassau County,NY,NA,NA,40.16064257028113
11554,Nassau County,NY,NA,NA,31.72690763052209
11729,Suffolk County,NY,NA,63.34310850439883,NA
11743,Suffolk County,NY,NA,NA,18.473895582329316
12010,Montgomery County,NY,5.445544554455446,NA,NA
12078,Fulton County,NY,NA,13.196480938416421,NA
12118,Saratoga County,NY,NA,94.13489736070382,NA
12211,Albany County,NY,NA,76.83284457478005,NA
12524,Dutchess County,NY,NA,NA,79.51807228915662
12828,Washington County,NY,NA,70.67448680351906,NA
12831,Saratoga County,NY,NA,52.19941348973607,NA
13057,Onondaga County,NY,NA,60.117302052785924,NA
13126,Oswego County,NY,NA,37.82991202346041,NA
13326,Otsego County,NY,NA,59.82404692082112,NA
13642,St. Lawrence County,NY,37.62376237623762,NA,NA
13815,Chenango County,NY,NA,NA,36.94779116465863
13820,Otsego County,NY,NA,NA,92.3694779116466
13850,Broome County,NY,51.48514851485149,NA,NA
13856,Delaware County,NY,NA,NA,62.65060240963856
14208,Erie County,NY,NA,31.671554252199414,NA
14304,Niagara County,NY,NA,NA,51.00401606425703
14425,Ontario County,NY,NA,31.085043988269796,NA
14510,Livingston County,NY,82.67326732673267,NA,NA
14527,Yates County,NY,NA,64.51612903225806,NA
14580,Monroe County,NY,7.425742574257425,NA,NA
14609,Monroe County,NY,NA,NA,24.096385542168676
14621,Monroe County,NY,NA,2.346041055718475,NA
14623,Monroe County,NY,21.782178217821784,NA,NA
14626,Monroe County,NY,NA,NA,10.843373493975903
14850,Tompkins County,NY,4.9504950495049505,NA,NA
14870,Steuben County,NY,NA,NA,67.8714859437751
27030,Surry County,NC,6.435643564356436,1.7595307917888565,NA
27105,Forsyth County,NC,2.9702970297029703,NA,NA
27127,Forsyth County,NC,NA,NA,9.63855421686747
27217,Alamance County,NC,16.831683168316832,NA,NA
27253,Alamance County,NC,NA,NA,90.36144578313254
27260,Guilford County,NC,24.752475247524753,NA,NA
27284,Forsyth County,NC,NA,NA,27.710843373493976
27295,Davidson County,NC,NA,4.105571847507331,NA
27405,Guilford County,NC,13.366336633663368,NA,NA
27517,Orange County,NC,81.1881188118812,32.25806451612903,NA
27530,Wayne County,NC,19.306930693069308,NA,NA
27536,Vance County,NC,NA,36.36363636363637,NA
27589,Warren County,NC,NA,NA,73.89558232931726
27817,Beaufort County,NC,NA,81.23167155425219,NA
28117,Iredell County,NC,NA,NA,54.21686746987952
28164,Gaston County,NC,79.20792079207921,NA,NA
28304,Cumberland County,NC,NA,79.76539589442815,NA
28334,Sampson County,NC,NA,67.44868035190615,45.38152610441767
28340,Robeson County,NC,NA,70.08797653958945,NA
28358,Robeson County,NC,NA,67.74193548387096,NA
28379,Richmond County,NC,21.287128712871286,NA,NA
28384,Bladen County,NC,90.0990099009901,NA,NA
28465,Brunswick County,NC,NA,58.94428152492669,NA
28532,Craven County,NC,70.29702970297029,NA,NA
28712,Transylvania County,NC,77.22772277227723,NA,NA
28713,Swain County,NC,NA,NA,68.27309236947792
28714,Yancey County,NC,NA,NA,61.84738955823293
28739,Henderson County,NC,NA,17.302052785923756,NA
28752,McDowell County,NC,NA,NA,34.13654618473896
28759,Henderson County,NC,NA,NA,56.22489959839358
58078,Cass County,ND,NA,NA,22.48995983935743
58601,Stark County,ND,49.00990099009901,NA,NA
58703,Ward County,ND,NA,46.04105571847507,NA
58801,Williams County,ND,40.5940594059406,NA,NA
43028,Knox County,OH,NA,82.11143695014663,NA
43068,Franklin County,OH,NA,13.78299120234604,NA
43076,Perry County,OH,NA,NA,88.75502008032129
43130,Fairfield County,OH,NA,NA,29.31726907630522
43231,Franklin County,OH,84.65346534653465,NA,NA
43326,Hardin County,OH,NA,46.33431085043988,NA
43410,Sandusky County,OH,56.43564356435643,NA,NA
43537,Lucas County,OH,NA,NA,33.33333333333333
43607,Lucas County,OH,NA,25.219941348973606,NA
43615,Lucas County,OH,3.9603960396039604,NA,NA
44028,Lorain County,OH,NA,NA,55.020080321285135
44094,Lake County,OH,NA,NA,2.4096385542168677
44105,Cuyahoga County,OH,0,NA,NA
44110,Cuyahoga County,OH,74.75247524752476,NA,NA
44113,Cuyahoga County,OH,37.12871287128713,NA,NA
44124,Cuyahoga County,OH,NA,2.932551319648094,NA
44131,Cuyahoga County,OH,NA,NA,8.433734939759036
44139,Cuyahoga County,OH,NA,NA,51.80722891566265
44224,Summit County,OH,NA,NA,14.859437751004014
44278,Summit County,OH,63.86138613861386,NA,NA
44281,Medina County,OH,NA,49.853372434017594,NA
44287,Wayne County,OH,NA,NA,77.91164658634538
44707,Stark County,OH,62.87128712871287,NA,NA
44718,Stark County,OH,NA,NA,81.12449799196787
44906,Richland County,OH,NA,49.56011730205279,NA
45013,Butler County,OH,NA,NA,35.34136546184739
45133,Highland County,OH,NA,25.806451612903224,NA
45236,Hamilton County,OH,NA,48.97360703812317,NA
45238,Hamilton County,OH,NA,20.527859237536656,NA
45502,Clark County,OH,NA,95.30791788856305,NA
45750,Washington County,OH,NA,NA,3.2128514056224895
73026,Cleveland County,OK,79.70297029702971,NA,NA
73034,Oklahoma County,OK,34.15841584158416,NA,NA
73084,Oklahoma County,OK,NA,88.56304985337243,NA
73160,Cleveland County,OK,NA,6.158357771260997,NA
74003,Osage County,OK,NA,79.17888563049853,NA
74021,Tulsa County,OK,NA,NA,79.91967871485943
74075,Payne County,OK,NA,60.997067448680355,NA
74344,Delaware County,OK,73.76237623762376,NA,NA
74525,Atoka County,OK,NA,NA,67.46987951807229
97008,Washington County,OR,NA,56.89149560117303,NA
97030,Multnomah County,OR,NA,21.994134897360702,NA
97031,Hood River County,OR,69.3069306930693,NA,NA
97038,Clackamas County,OR,NA,86.80351906158357,NA
97230,Multnomah County,OR,NA,NA,18.072289156626507
97233,Multnomah County,OR,65.84158415841584,NA,NA
97317,Marion County,OR,NA,88.26979472140762,NA
97459,Coos County,OR,NA,NA,93.57429718875501
97467,Douglas County,OR,NA,70.38123167155426,65.06024096385542
97524,Jackson County,OR,NA,60.410557184750736,NA
97537,Jackson County,OR,NA,NA,96.3855421686747
97850,Union County,OR,NA,NA,49.79919678714859
15010,Beaver County,PA,NA,NA,18.87550200803213
15017,Allegheny County,PA,NA,NA,53.41365461847389
15074,Beaver County,PA,NA,59.2375366568915,NA
15120,Allegheny County,PA,NA,NA,41.76706827309237
15122,Allegheny County,PA,NA,NA,82.73092369477911
15201,Allegheny County,PA,NA,52.785923753665685,NA
15206,Allegheny County,PA,NA,26.97947214076246,NA
15221,Allegheny County,PA,NA,62.75659824046921,NA
15236,Allegheny County,PA,NA,34.31085043988269,NA
15238,Allegheny County,PA,NA,83.87096774193549,NA
15401,Fayette County,PA,NA,6.744868035190615,NA
15552,Somerset County,PA,NA,NA,80.32128514056225
15904,Cambria County,PA,NA,40.17595307917888,NA
16509,Erie County,PA,38.613861386138616,NA,NA
17044,Mifflin County,PA,NA,NA,15.261044176706829
17055,Cumberland County,PA,NA,NA,12.449799196787147
17112,Dauphin County,PA,NA,7.038123167155426,NA
17201,Franklin County,PA,NA,25.513196480938415,NA
17257,Cumberland County,PA,NA,30.498533724340177,NA
17356,York County,PA,NA,NA,42.971887550200805
17402,York County,PA,NA,NA,34.93975903614458
17403,York County,PA,NA,3.225806451612903,NA
17408,York County,PA,NA,NA,19.27710843373494
17970,Schuylkill County,PA,95.54455445544554,NA,NA
18045,Northampton County,PA,NA,20.821114369501466,NA
18224,Luzerne County,PA,NA,89.44281524926686,NA
18353,Monroe County,PA,NA,65.98240469208211,NA
18452,Lackawanna County,PA,NA,98.53372434017595,NA
18504,Lackawanna County,PA,NA,47.50733137829912,NA
18706,Luzerne County,PA,NA,72.14076246334311,NA
18708,Luzerne County,PA,NA,NA,83.13253012048193
18974,Bucks County,PA,24.257425742574256,NA,NA
18976,Bucks County,PA,NA,48.09384164222874,NA
19072,Montgomery County,PA,NA,97.94721407624634,NA
19119,Philadelphia County,PA,NA,22.87390029325513,NA
19120,Philadelphia County,PA,NA,7.9178885630498534,NA
19124,Philadelphia County,PA,NA,14.076246334310852,NA
19132,Philadelphia County,PA,NA,NA,50.20080321285141
19134,Philadelphia County,PA,NA,NA,46.98795180722892
19139,Philadelphia County,PA,23.26732673267327,9.67741935483871,NA
19140,Philadelphia County,PA,NA,12.316715542521994,NA
19143,Philadelphia County,PA,NA,NA,14.056224899598394
19145,Philadelphia County,PA,NA,NA,38.95582329317269
19335,Chester County,PA,NA,18.7683284457478,NA
19380,Chester County,PA,NA,7.331378299120235,NA
19446,Montgomery County,PA,20.2970297029703,NA,NA
19460,Chester County,PA,NA,28.152492668621704,NA
19547,Berks County,PA,96.53465346534654,NA,NA
19565,Berks County,PA,NA,NA,59.036144578313255
02809,Bristol County,RI,NA,NA,44.17670682730924
02816,Kent County,RI,32.17821782178218,19.35483870967742,NA
02865,Providence County,RI,87.62376237623762,NA,NA
02885,Bristol County,RI,NA,87.97653958944281,NA
02886,Kent County,RI,NA,28.445747800586513,NA
02889,Kent County,RI,NA,22.28739002932551,NA
02891,Washington County,RI,NA,64.22287390029325,NA
02904,Providence County,RI,NA,23.16715542521994,NA
02909,Providence County,RI,NA,72.43401759530792,NA
29102,Clarendon County,SC,NA,NA,54.61847389558233
29115,Orangeburg County,SC,41.584158415841586,NA,NA
29130,Fairfield County,SC,86.13861386138613,NA,NA
29204,Richland County,SC,NA,69.20821114369502,NA
29330,Spartanburg County,SC,93.06930693069307,NA,NA
29405,Charleston County,SC,NA,NA,59.83935742971887
29445,Berkeley County,SC,26.732673267326735,NA,NA
29505,Florence County,SC,76.73267326732673,NA,NA
29605,Greenville County,SC,NA,17.595307917888565,NA
29640,Pickens County,SC,NA,27.859237536656888,NA
29650,Greenville County,SC,NA,47.80058651026393,NA
29676,Oconee County,SC,NA,78.00586510263929,NA
29687,Greenville County,SC,NA,27.56598240469208,NA
29702,Cherokee County,SC,NA,NA,83.53413654618474
29707,Lancaster County,SC,NA,NA,28.915662650602407
29909,Beaufort County,SC,NA,21.407624633431084,22.08835341365462
37013,Davidson County,TN,NA,NA,92.7710843373494
37027,Williamson County,TN,NA,89.14956011730204,NA
37064,Williamson County,TN,51.98019801980198,NA,30.120481927710845
37185,Humphreys County,TN,NA,85.33724340175954,NA
37203,Davidson County,TN,83.16831683168317,NA,NA
37801,Blount County,TN,NA,68.62170087976538,NA
38116,Shelby County,TN,NA,NA,57.028112449799195
38139,Shelby County,TN,NA,NA,78.3132530120482
38237,Weakley County,TN,75.24752475247524,NA,NA
38583,White County,TN,28.217821782178216,NA,NA
75087,Rockwall County,TX,NA,57.77126099706745,NA
75150,Dallas County,TX,25.742574257425744,NA,46.1847389558233
75216,Dallas County,TX,NA,12.609970674486803,NA
75217,Dallas County,TX,NA,62.17008797653959,NA
75235,Dallas County,TX,NA,69.50146627565982,NA
75287,Denton County,TX,NA,NA,87.55020080321285
75652,Rusk County,TX,NA,51.90615835777126,NA
75662,Gregg County,TX,NA,39.002932551319645,NA
76085,Parker County,TX,NA,NA,95.18072289156626
76119,Tarrant County,TX,NA,11.143695014662756,NA
76179,Tarrant County,TX,NA,38.70967741935484,NA
76365,Clay County,TX,93.56435643564357,NA,NA
76501,Bell County,TX,49.504950495049506,NA,NA
77060,Harris County,TX,NA,NA,93.17269076305222
77471,Fort Bend County,TX,NA,61.29032258064516,NA
77531,Brazoria County,TX,NA,NA,97.18875502008032
77590,Galveston County,TX,17.326732673267326,NA,NA
77630,Orange County,TX,NA,NA,47.389558232931726
77803,Brazos County,TX,NA,NA,68.67469879518072
77868,Grimes County,TX,NA,77.41935483870968,NA
77984,Lavaca County,TX,98.51485148514851,NA,NA
78213,Bexar County,TX,NA,91.20234604105572,NA
78216,Bexar County,TX,NA,NA,61.044176706827315
78582,Starr County,TX,NA,46.62756598240469,NA
78639,Llano County,TX,NA,48.38709677419355,NA
84057,Utah County,UT,NA,NA,89.95983935742971
84092,Salt Lake County,UT,NA,NA,70.68273092369478
84094,Salt Lake County,UT,NA,NA,91.96787148594377
84095,Salt Lake County,UT,44.05940594059406,NA,NA
84119,Salt Lake County,UT,15.841584158415841,NA,NA
84129,,UT,NA,33.724340175953074,NA
84601,Utah County,UT,98.01980198019803,NA,NA
05401,Chittenden County,VT,NA,51.02639296187683,NA
05450,Franklin County,VT,NA,85.92375366568915,NA
20110,Manassas city,VA,40.099009900990104,NA,NA
22182,Fairfax County,VA,NA,86.21700879765396,NA
22207,Arlington County,VA,NA,NA,48.99598393574297
22443,Westmoreland County,VA,96.03960396039604,NA,NA
22701,Culpeper County,VA,29.207920792079207,NA,NA
23223,Henrico County,VA,NA,16.715542521994134,NA
23231,Henrico County,VA,26.237623762376238,NA,NA
23322,Chesapeake city,VA,NA,NA,20.481927710843372
23325,Chesapeake city,VA,NA,64.80938416422288,NA
23453,Virginia Beach city,VA,NA,NA,85.54216867469879
23464,Virginia Beach city,VA,53.46534653465347,3.519061583577713,NA
23663,Hampton city,VA,94.05940594059405,NA,NA
23666,Hampton city,VA,13.861386138613863,NA,NA
23669,Hampton city,VA,NA,18.475073313782993,NA
23692,York County,VA,NA,82.40469208211144,NA
24330,Grayson County,VA,92.07920792079209,NA,NA
24450,Rockbridge County,VA,NA,85.04398826979472,NA
24517,Campbell County,VA,NA,90.6158357771261,NA
98030,King County,WA,NA,44.868035190615835,NA
98110,Kitsap County,WA,64.35643564356435,NA,NA
98126,King County,WA,NA,90.02932551319648,NA
98146,King County,WA,NA,35.483870967741936,NA
98221,Skagit County,WA,NA,24.926686217008797,NA
98310,Kitsap County,WA,NA,68.03519061583577,NA
98363,Clallam County,WA,67.82178217821783,NA,NA
98382,Clallam County,WA,NA,2.6392961876832843,NA
98407,Pierce County,WA,NA,50.146627565982406,NA
98516,Thurston County,WA,94.55445544554455,NA,NA
98528,Mason County,WA,NA,NA,75.50200803212851
98632,Cowlitz County,WA,NA,NA,4.417670682730924
98640,Pacific County,WA,NA,NA,66.26506024096386
99141,Stevens County,WA,NA,95.01466275659824,NA
99338,Benton County,WA,NA,NA,65.46184738955823
20001,District of Columbia,DC,NA,NA,41.365461847389554
20018,District of Columbia,DC,NA,63.63636363636363,NA
25401,Berkeley County,WV,NA,NA,63.85542168674698
26034,Hancock County,WV,NA,88.85630498533725,NA
26201,Upshur County,WV,NA,53.95894428152492,NA
53120,Walworth County,WI,NA,NA,94.37751004016064
53121,Walworth County,WI,NA,NA,52.208835341365464
53202,Milwaukee County,WI,NA,NA,42.570281124497996
53207,Milwaukee County,WI,NA,NA,34.53815261044177
53227,Milwaukee County,WI,NA,NA,23.293172690763054
53549,Jefferson County,WI,NA,56.30498533724341,NA
53575,Dane County,WI,NA,93.841642228739,NA
53590,Dane County,WI,NA,90.32258064516128,NA
53965,Sauk County,WI,NA,77.41935483870968,NA
54001,Polk County,WI,NA,NA,81.52610441767068
54121,Florence County,WI,NA,97.0674486803519,NA
54601,La Crosse County,WI,NA,NA,6.425702811244979
54603,La Crosse County,WI,NA,28.739002932551323,NA
54650,La Crosse County,WI,NA,NA,5.622489959839357
54660,Monroe County,WI,NA,50.733137829912025,NA
54961,Waupaca County,WI,60.396039603960396,NA,NA
