ZipCode,county,state,Adult,Retirement
35020,Jefferson County,AL,17.317073170731707,NA
35023,Jefferson County,AL,NA,14.130434782608695
35128,St. Clair County,AL,72.6829268292683,NA
35466,Pickens County,AL,NA,81.52173913043478
35475,Tuscaloosa County,AL,52.6829268292683,NA
35652,Lauderdale County,AL,90.48780487804878,NA
36303,Houston County,AL,NA,36.684782608695656
36330,Coffee County,AL,83.17073170731707,NA
36507,Baldwin County,AL,NA,63.04347826086957
99502,Anchorage Municipality,AK,53.90243902439025,NA
99669,Kenai Peninsula Borough,AK,NA,54.891304347826086
85044,Maricopa County,AZ,NA,45.108695652173914
85048,Maricopa County,AZ,51.707317073170735,NA
85295,Maricopa County,AZ,40.731707317073166,NA
85392,Maricopa County,AZ,77.8048780487805,NA
85756,Pima County,AZ,37.073170731707314,NA
86327,Yavapai County,AZ,96.09756097560975,NA
86351,Yavapai County,AZ,NA,88.31521739130434
86409,Mohave County,AZ,55.365853658536594,NA
72032,Faulkner County,AR,NA,82.88043478260869
72120,Pulaski County,AR,NA,15.217391304347828
72417,Craighead County,AR,NA,98.6413043478261
72501,Independence County,AR,83.65853658536585,NA
72601,Boone County,AR,NA,29.891304347826086
72756,Benton County,AR,NA,68.75
90024,Los Angeles County,CA,NA,54.61956521739131
90025,Los Angeles County,CA,NA,33.42391304347826
90035,Los Angeles County,CA,NA,35.05434782608695
90047,Los Angeles County,CA,NA,13.586956521739129
90280,Los Angeles County,CA,NA,34.78260869565217
90291,Los Angeles County,CA,84.39024390243902,57.065217391304344
90621,Orange County,CA,NA,59.2391304347826
91316,Los Angeles County,CA,NA,52.17391304347826
91335,Los Angeles County,CA,32.926829268292686,NA
91423,Los Angeles County,CA,69.7560975609756,NA
91710,San Bernardino County,CA,39.02439024390244,NA
91762,San Bernardino County,CA,36.09756097560975,NA
91773,Los Angeles County,CA,NA,26.6304347826087
91977,San Diego County,CA,66.34146341463415,NA
92101,San Diego County,CA,18.048780487804876,NA
92129,San Diego County,CA,NA,46.46739130434783
92201,Riverside County,CA,NA,15.489130434782608
92236,Riverside County,CA,47.3170731707317,73.91304347826086
92324,San Bernardino County,CA,22.439024390243905,NA
92408,San Bernardino County,CA,90,NA
92677,Orange County,CA,NA,9.510869565217392
92707,Orange County,CA,45.1219512195122,NA
92835,Orange County,CA,NA,59.78260869565217
92870,Orange County,CA,NA,21.73913043478261
92882,Riverside County,CA,NA,34.23913043478261
92886,Orange County,CA,NA,16.032608695652172
93247,Tulare County,CA,75.60975609756098,NA
93458,Santa Barbara County,CA,NA,27.445652173913043
93614,Madera County,CA,NA,75.81521739130434
93635,Merced County,CA,NA,41.84782608695652
93727,Fresno County,CA,17.804878048780488,NA
94066,San Mateo County,CA,46.82926829268293,NA
94103,San Francisco County,CA,14.878048780487804,NA
94123,San Francisco County,CA,81.46341463414633,NA
94127,San Francisco County,CA,NA,67.93478260869566
94551,Alameda County,CA,50.48780487804878,NA
94577,Alameda County,CA,92.4390243902439,NA
94580,Alameda County,CA,NA,61.95652173913043
94582,Contra Costa County,CA,NA,71.19565217391305
94920,Marin County,CA,99.02439024390245,NA
95010,Santa Cruz County,CA,NA,84.78260869565217
95337,San Joaquin County,CA,NA,39.40217391304348
95382,Stanislaus County,CA,26.585365853658537,75
95519,Humboldt County,CA,NA,48.09782608695652
95616,Yolo County,CA,NA,64.40217391304348
95670,Sacramento County,CA,35.853658536585364,NA
95673,Sacramento County,CA,NA,67.11956521739131
95841,Sacramento County,CA,NA,89.67391304347827
96150,El Dorado County,CA,69.26829268292683,NA
80015,Arapahoe County,CO,50.73170731707317,NA
80112,Arapahoe County,CO,NA,54.347826086956516
80126,Douglas County,CO,53.65853658536586,NA
80134,Douglas County,CO,28.292682926829265,NA
80209,Denver County,CO,NA,62.22826086956522
80302,Boulder County,CO,93.41463414634147,69.29347826086956
80524,Larimer County,CO,NA,60.597826086956516
80602,Adams County,CO,NA,91.84782608695652
80621,Weld County,CO,72.4390243902439,NA
80701,Morgan County,CO,24.390243902439025,NA
80904,El Paso County,CO,63.90243902439025,NA
81212,Fremont County,CO,42.4390243902439,NA
81526,Mesa County,CO,NA,91.57608695652173
81601,Garfield County,CO,94.6341463414634,NA
81623,Garfield County,CO,NA,62.77173913043478
06410,New Haven County,CT,92.19512195121952,NA
06770,New Haven County,CT,NA,23.097826086956523
06776,Litchfield County,CT,NA,30.706521739130434
06804,Fairfield County,CT,71.46341463414633,NA
06880,Fairfield County,CT,50.97560975609756,NA
06883,Fairfield County,CT,NA,89.13043478260869
19943,Kent County,DE,66.09756097560975,NA
19963,Sussex County,DE,NA,33.69565217391305
32055,Columbia County,FL,43.90243902439025,NA
32205,Duval County,FL,60.97560975609756,NA
32210,Duval County,FL,NA,5.978260869565218
32226,Duval County,FL,47.073170731707314,NA
32244,Duval County,FL,8.536585365853659,NA
32348,Taylor County,FL,74.63414634146342,77.98913043478261
32440,Jackson County,FL,95.36585365853658,NA
32607,Alachua County,FL,88.78048780487805,NA
32608,Alachua County,FL,95.85365853658536,NA
32609,Alachua County,FL,54.87804878048781,NA
32640,Putnam County,FL,60,NA
32641,Alachua County,FL,79.75609756097562,NA
32701,Seminole County,FL,NA,69.02173913043478
32725,Volusia County,FL,NA,36.141304347826086
32824,Orange County,FL,NA,84.51086956521739
32835,Orange County,FL,59.756097560975604,NA
33071,Broward County,FL,NA,60.05434782608695
33144,Miami-Dade County,FL,NA,66.03260869565217
33157,Miami-Dade County,FL,36.829268292682926,NA
33187,Miami-Dade County,FL,78.04878048780488,NA
33190,Miami-Dade County,FL,98.29268292682927,NA
33304,Broward County,FL,NA,62.5
33433,Palm Beach County,FL,NA,55.70652173913043
33473,Palm Beach County,FL,NA,84.23913043478261
33484,Palm Beach County,FL,NA,28.26086956521739
33510,Hillsborough County,FL,57.3170731707317,NA
33809,Polk County,FL,NA,48.91304347826087
33815,Polk County,FL,42.926829268292686,NA
33830,Polk County,FL,NA,95.92391304347827
33860,Polk County,FL,NA,82.06521739130434
33904,Lee County,FL,NA,15.760869565217392
34103,Collier County,FL,NA,64.67391304347827
34610,Pasco County,FL,65.60975609756098,NA
34714,Lake County,FL,87.8048780487805,NA
34746,Osceola County,FL,NA,43.75
34953,St. Lucie County,FL,8.780487804878048,NA
30008,Cobb County,GA,NA,70.38043478260869
30032,DeKalb County,GA,15.609756097560975,NA
30034,DeKalb County,GA,NA,20.92391304347826
30087,DeKalb County,GA,NA,19.565217391304348
30092,Gwinnett County,GA,62.68292682926829,NA
30101,Cobb County,GA,28.780487804878046,NA
30115,Cherokee County,GA,41.70731707317073,NA
30253,Henry County,GA,NA,50
30281,Henry County,GA,NA,17.391304347826086
30291,Fulton County,GA,NA,68.20652173913044
30295,Pike County,GA,NA,100
30329,DeKalb County,GA,81.95121951219512,NA
30349,Fulton County,GA,12.195121951219512,NA
30350,Fulton County,GA,NA,79.8913043478261
30519,Gwinnett County,GA,NA,66.84782608695652
30531,Habersham County,GA,NA,85.32608695652173
30680,Barrow County,GA,23.65853658536585,NA
30721,Whitfield County,GA,58.78048780487804,NA
30750,Walker County,GA,NA,99.18478260869566
31082,Washington County,GA,82.92682926829268,NA
31721,Dougherty County,GA,NA,60.32608695652174
31788,Colquitt County,GA,NA,94.02173913043478
31833,Troup County,GA,NA,97.55434782608695
39842,Terrell County,GA,64.39024390243902,NA
96734,Honolulu County,HI,79.51219512195122,NA
96744,Honolulu County,HI,NA,39.130434782608695
96761,Maui County,HI,84.6341463414634,NA
83338,Jerome County,ID,56.82926829268292,NA
83340,Blaine County,ID,NA,56.79347826086957
83467,Lemhi County,ID,NA,69.56521739130434
83704,Ada County,ID,19.51219512195122,NA
60026,Cook County,IL,NA,44.29347826086957
60099,Lake County,IL,43.65853658536585,NA
60126,DuPage County,IL,NA,1.6304347826086956
60137,DuPage County,IL,65.85365853658537,NA
60139,DuPage County,IL,52.19512195121951,NA
60148,DuPage County,IL,18.29268292682927,NA
60402,Cook County,IL,NA,9.239130434782608
60410,Will County,IL,50.24390243902439,NA
60439,Cook County,IL,NA,17.119565217391305
60446,Will County,IL,18.78048780487805,NA
60448,Will County,IL,NA,44.29347826086957
60506,Kane County,IL,NA,23.91304347826087
60513,Cook County,IL,44.146341463414636,NA
60517,DuPage County,IL,42.19512195121951,NA
60521,DuPage County,IL,70,NA
60527,DuPage County,IL,NA,38.04347826086957
60542,Kane County,IL,64.63414634146342,NA
60607,Cook County,IL,51.21951219512195,NA
60610,Cook County,IL,71.70731707317073,NA
60612,Cook County,IL,21.21951219512195,NA
60618,Cook County,IL,34.8780487804878,NA
60619,Cook County,IL,9.512195121951219,3.260869565217391
60620,Cook County,IL,10.24390243902439,40.76086956521739
60628,Cook County,IL,10.731707317073171,NA
60630,Cook County,IL,NA,41.57608695652174
60637,Cook County,IL,NA,13.043478260869565
60638,Cook County,IL,NA,8.152173913043478
60639,Cook County,IL,NA,7.880434782608696
60657,Cook County,IL,23.902439024390244,NA
61282,Rock Island County,IL,87.07317073170732,NA
61727,De Witt County,IL,86.58536585365853,NA
61802,Champaign County,IL,NA,29.347826086956523
46033,Hamilton County,IN,NA,26.902173913043477
46064,Madison County,IN,67.07317073170732,NA
46122,Hendricks County,IN,91.21951219512195,NA
46205,Marion County,IN,38.78048780487805,NA
46221,Marion County,IN,NA,38.858695652173914
46222,Marion County,IN,NA,25.543478260869566
46307,Lake County,IN,16.82926829268293,NA
46310,Jasper County,IN,55.365853658536594,78.53260869565217
46327,Lake County,IN,62.926829268292686,NA
46350,LaPorte County,IN,NA,6.521739130434782
46360,LaPorte County,IN,NA,3.532608695652174
46385,Porter County,IN,NA,1.9021739130434785
46410,Lake County,IN,10,NA
46733,Adams County,IN,44.87804878048781,88.58695652173914
46975,Fulton County,IN,53.41463414634147,NA
47006,Ripley County,IN,70.97560975609755,NA
47904,Tippecanoe County,IN,60.48780487804878,NA
50315,Polk County,IA,NA,22.82608695652174
50801,Union County,IA,70.24390243902438,NA
51503,Pottawattamie County,IA,NA,2.717391304347826
51555,Harrison County,IA,94.39024390243902,NA
52404,Linn County,IA,86.09756097560975,NA
52405,Linn County,IA,NA,72.28260869565217
66062,Johnson County,KS,13.658536585365855,NA
66067,Franklin County,KS,59.512195121951216,NA
66106,Wyandotte County,KS,NA,63.315217391304344
66213,Johnson County,KS,70.48780487804878,NA
66224,Johnson County,KS,NA,96.46739130434783
66436,Jackson County,KS,NA,93.75
67855,Stanton County,KS,99.51219512195122,NA
40143,Breckinridge County,KY,87.5609756097561,NA
40220,Jefferson County,KY,40,NA
40291,Jefferson County,KY,NA,16.847826086956523
40502,Fayette County,KY,95.1219512195122,NA
40503,Fayette County,KY,NA,61.141304347826086
42220,Todd County,KY,NA,77.44565217391305
42301,Daviess County,KY,12.926829268292684,NA
42320,Ohio County,KY,NA,48.641304347826086
42330,Muhlenberg County,KY,92.6829268292683,NA
70058,Jefferson Parish,LA,33.65853658536586,NA
70119,Orleans Parish,LA,6.829268292682928,NA
70435,St. Tammany Parish,LA,54.63414634146342,16.304347826086957
70592,Lafayette Parish,LA,NA,67.11956521739131
71047,Caddo Parish,LA,NA,88.8586956521739
71112,Bossier Parish,LA,NA,22.282608695652172
71201,Ouachita Parish,LA,36.58536585365854,NA
04072,York County,ME,41.951219512195124,NA
04086,Sagadahoc County,ME,75.1219512195122,NA
04239,Franklin County,ME,69.02439024390243,NA
04350,Kennebec County,ME,91.70731707317074,NA
04901,Kennebec County,ME,NA,22.01086956521739
20852,Montgomery County,MD,NA,58.69565217391305
01001,Hampden County,MA,NA,19.293478260869566
01040,Hampden County,MA,NA,0
01069,Hampden County,MA,NA,38.315217391304344
01073,Hampshire County,MA,NA,92.93478260869566
01082,Hampshire County,MA,71.95121951219512,NA
01504,Worcester County,MA,68.29268292682927,NA
01519,Worcester County,MA,NA,89.94565217391305
01536,Worcester County,MA,73.90243902439025,NA
01560,Worcester County,MA,97.3170731707317,NA
01570,Worcester County,MA,24.146341463414632,NA
01571,Worcester County,MA,32.19512195121951,NA
01603,Worcester County,MA,NA,18.478260869565215
01604,Worcester County,MA,19.75609756097561,1.358695652173913
01605,Worcester County,MA,58.536585365853654,NA
01609,Worcester County,MA,4.146341463414634,NA
01701,Middlesex County,MA,NA,32.880434782608695
01730,Middlesex County,MA,NA,50
01775,Middlesex County,MA,NA,98.09782608695652
01801,Middlesex County,MA,1.2195121951219512,NA
01810,Essex County,MA,44.63414634146341,NA
01841,Essex County,MA,0,NA
01845,Essex County,MA,80,NA
01945,Essex County,MA,42.68292682926829,NA
01960,Essex County,MA,NA,0.5434782608695652
02026,Norfolk County,MA,89.26829268292683,NA
02072,Norfolk County,MA,NA,8.423913043478262
02081,Norfolk County,MA,NA,43.20652173913043
02118,Suffolk County,MA,NA,53.2608695652174
02122,Suffolk County,MA,NA,0.8152173913043478
02128,Suffolk County,MA,0.7317073170731708,NA
02138,Middlesex County,MA,NA,30.434782608695656
02139,Middlesex County,MA,0.4878048780487805,NA
02148,Middlesex County,MA,2.195121951219512,NA
02151,Suffolk County,MA,1.707317073170732,NA
02152,Suffolk County,MA,NA,7.336956521739131
02169,Norfolk County,MA,NA,0.2717391304347826
02170,Norfolk County,MA,63.65853658536585,NA
02368,Norfolk County,MA,1.951219512195122,NA
02481,Norfolk County,MA,NA,93.47826086956522
02492,Norfolk County,MA,29.51219512195122,NA
02635,Barnstable County,MA,NA,99.72826086956522
02723,Bristol County,MA,3.1707317073170733,NA
02760,Bristol County,MA,13.902439024390246,NA
48015,Macomb County,MI,57.56097560975609,NA
48044,Macomb County,MI,NA,4.891304347826087
48073,Oakland County,MI,31.951219512195124,NA
48082,Macomb County,MI,NA,33.96739130434783
48089,Macomb County,MI,11.951219512195122,NA
48094,Macomb County,MI,NA,74.72826086956522
48154,Wayne County,MI,NA,6.7934782608695645
48185,Wayne County,MI,NA,5.434782608695652
48197,Washtenaw County,MI,NA,14.673913043478262
48198,Washtenaw County,MI,2.9268292682926833,NA
48219,Wayne County,MI,8.048780487804878,NA
48223,Wayne County,MI,15.365853658536585,NA
48235,Wayne County,MI,2.4390243902439024,NA
48236,Wayne County,MI,76.09756097560975,NA
48240,Wayne County,MI,23.414634146341466,NA
48327,Oakland County,MI,NA,37.5
48340,Oakland County,MI,38.53658536585366,NA
48363,Oakland County,MI,80.2439024390244,NA
48413,Huron County,MI,NA,76.3586956521739
48433,Genesee County,MI,NA,20.380434782608695
48471,Sanilac County,MI,89.02439024390245,NA
48638,Saginaw County,MI,59.26829268292683,NA
48640,Midland County,MI,NA,45.380434782608695
48858,Isabella County,MI,NA,30.978260869565215
49038,Berrien County,MI,71.21951219512195,NA
49047,Cass County,MI,NA,61.41304347826087
49093,St. Joseph County,MI,NA,92.3913043478261
49321,Kent County,MI,NA,79.61956521739131
49333,Barry County,MI,84.8780487804878,NA
49445,Muskegon County,MI,37.80487804878049,NA
49546,Kent County,MI,39.75609756097561,NA
49684,Grand Traverse County,MI,57.073170731707314,NA
49829,Delta County,MI,NA,25.815217391304344
49855,Marquette County,MI,47.80487804878049,NA
55008,Isanti County,MN,NA,77.17391304347827
55130,Ramsey County,MN,93.17073170731707,NA
55313,Wright County,MN,NA,87.22826086956522
55411,Hennepin County,MN,4.390243902439024,NA
55719,St. Louis County,MN,92.92682926829269,NA
55744,Itasca County,MN,NA,5.706521739130435
55811,St. Louis County,MN,NA,4.3478260869565215
55901,Olmsted County,MN,NA,23.641304347826086
56172,Murray County,MN,99.7560975609756,NA
56301,Stearns County,MN,46.09756097560976,NA
56308,Douglas County,MN,61.21951219512195,NA
56401,Crow Wing County,MN,12.682926829268293,NA
56470,Hubbard County,MN,NA,34.51086956521739
56501,Becker County,MN,NA,25
38829,Prentiss County,MS,49.26829268292683,NA
38967,Montgomery County,MS,NA,95.1086956521739
39452,George County,MS,27.80487804878049,NA
63080,Franklin County,MO,NA,75.54347826086956
63084,Franklin County,MO,55.85365853658537,NA
63108,St. Louis city,MO,NA,86.1413043478261
63138,St. Louis County,MO,NA,46.19565217391305
63366,St. Charles County,MO,NA,85.05434782608695
63640,St. Francois County,MO,NA,33.15217391304348
64024,Clay County,MO,NA,70.1086956521739
64029,Jackson County,MO,41.21951219512195,NA
64055,Jackson County,MO,11.219512195121952,NA
64056,Jackson County,MO,27.31707317073171,NA
64064,Jackson County,MO,NA,42.66304347826087
64068,Clay County,MO,12.439024390243903,NA
64111,Jackson County,MO,28.04878048780488,NA
64124,Jackson County,MO,86.82926829268293,NA
64126,Jackson County,MO,93.90243902439023,NA
64137,Jackson County,MO,NA,71.46739130434783
64145,Jackson County,MO,NA,76.90217391304348
64505,Buchanan County,MO,34.390243902439025,NA
64701,Cass County,MO,45.609756097560975,NA
64801,Jasper County,MO,16.585365853658537,NA
65043,Callaway County,MO,76.82926829268293,NA
65251,Callaway County,MO,32.4390243902439,NA
65355,Benton County,MO,54.390243902439025,NA
65605,Lawrence County,MO,NA,89.40217391304348
65610,Christian County,MO,NA,86.68478260869566
65686,Stone County,MO,NA,91.30434782608695
65804,Greene County,MO,74.39024390243902,NA
59911,Flathead County,MT,NA,57.608695652173914
68410,Otoe County,NE,NA,73.6413043478261
89106,Clark County,NV,49.51219512195122,NA
89145,Clark County,NV,73.41463414634146,NA
89436,Washoe County,NV,NA,11.684782608695652
03049,Hillsborough County,NH,91.46341463414635,NA
03052,Hillsborough County,NH,NA,72.82608695652173
03053,Rockingham County,NH,29.024390243902438,NA
03874,Rockingham County,NH,NA,54.07608695652174
07050,Essex County,NJ,NA,64.94565217391305
07054,Morris County,NJ,53.170731707317074,NA
07106,Essex County,NJ,7.073170731707316,NA
07107,Essex County,NJ,1.4634146341463417,NA
07111,Essex County,NJ,11.707317073170733,NA
07506,Passaic County,NJ,NA,56.52173913043478
07514,Passaic County,NJ,81.70731707317073,NA
07642,Bergen County,NJ,100,NA
08087,Ocean County,NJ,20.48780487804878,NA
08105,Camden County,NJ,NA,11.41304347826087
08251,Cape May County,NJ,76.34146341463415,NA
08638,Mercer County,NJ,14.634146341463413,NA
08861,Middlesex County,NJ,95.60975609756098,NA
87102,Bernalillo County,NM,NA,43.47826086956522
87122,Bernalillo County,NM,97.07317073170731,NA
87317,McKinley County,NM,98.04878048780488,NA
10017,New York County,NY,NA,66.57608695652173
10038,New York County,NY,NA,70.92391304347827
10456,Bronx County,NY,0.24390243902439024,NA
10459,Bronx County,NY,7.560975609756097,NA
10550,Westchester County,NY,90.97560975609757,NA
10805,Westchester County,NY,89.75609756097562,NA
11207,Kings County,NY,NA,10.326086956521738
11209,Kings County,NY,NA,18.206521739130434
11215,Kings County,NY,65.1219512195122,NA
11236,Kings County,NY,5.853658536585367,NA
11238,Kings County,NY,NA,13.858695652173914
11377,Queens County,NY,NA,14.402173913043478
11421,Queens County,NY,NA,53.53260869565217
11433,Queens County,NY,NA,26.358695652173914
11510,Nassau County,NY,63.170731707317074,NA
11703,Suffolk County,NY,85.36585365853658,NA
11720,Suffolk County,NY,85.85365853658537,NA
11725,Suffolk County,NY,NA,63.858695652173914
11757,Suffolk County,NY,44.390243902439025,NA
11949,Suffolk County,NY,NA,79.07608695652173
12306,Schenectady County,NY,NA,67.66304347826086
12571,Dutchess County,NY,NA,91.03260869565217
12801,Warren County,NY,21.951219512195124,NA
12822,Saratoga County,NY,88.29268292682927,NA
12901,Clinton County,NY,20.243902439024392,3.804347826086957
12946,Essex County,NY,37.31707317073171,NA
13045,Cortland County,NY,5.609756097560976,NA
13057,Onondaga County,NY,83.90243902439025,NA
13077,Cortland County,NY,NA,95.65217391304348
13205,Onondaga County,NY,NA,41.30434782608695
13219,Onondaga County,NY,79.02439024390245,NA
13327,Lewis County,NY,NA,97.28260869565217
13346,Madison County,NY,65.1219512195122,NA
13350,Herkimer County,NY,36.34146341463415,32.065217391304344
13357,Herkimer County,NY,NA,52.44565217391305
13662,St. Lawrence County,NY,11.463414634146343,NA
13760,Broome County,NY,10.975609756097562,NA
13787,Broome County,NY,80.73170731707317,NA
13827,Tioga County,NY,82.68292682926828,NA
13905,Broome County,NY,14.390243902439023,NA
14020,Genesee County,NY,61.46341463414634,NA
14063,Chautauqua County,NY,43.170731707317074,NA
14120,Niagara County,NY,6.585365853658537,NA
14132,Niagara County,NY,NA,74.18478260869566
14218,Erie County,NY,20.975609756097562,NA
14219,Erie County,NY,NA,50.54347826086957
14424,Ontario County,NY,35.12195121951219,NA
14450,Monroe County,NY,3.6585365853658534,NA
14534,Monroe County,NY,30.48780487804878,NA
14580,Monroe County,NY,NA,4.076086956521739
14606,Monroe County,NY,3.414634146341464,NA
14609,Monroe County,NY,15.853658536585366,NA
14620,Monroe County,NY,9.268292682926829,NA
14622,Monroe County,NY,58.292682926829265,NA
14701,Chautauqua County,NY,3.902439024390244,NA
14727,Allegany County,NY,NA,73.09782608695652
14850,Tompkins County,NY,NA,4.619565217391304
14892,Tioga County,NY,51.951219512195124,NA
27104,Forsyth County,NC,31.70731707317073,NA
27105,Forsyth County,NC,2.682926829268293,NA
27107,Forsyth County,NC,6.097560975609756,NA
27217,Alamance County,NC,NA,9.782608695652174
27360,Davidson County,NC,5.365853658536586,NA
27524,Johnston County,NC,NA,68.47826086956522
27536,Vance County,NC,NA,29.891304347826086
27540,Wake County,NC,NA,47.01086956521739
27701,Durham County,NC,83.41463414634146,NA
27707,Durham County,NC,NA,7.608695652173914
28083,Cabarrus County,NC,NA,20.108695652173914
28173,Union County,NC,40.487804878048784,NA
28174,Union County,NC,NA,83.42391304347827
28334,Sampson County,NC,29.268292682926827,NA
28513,Pitt County,NC,75.60975609756098,NA
28715,Buncombe County,NC,50,NA
28751,Haywood County,NC,98.78048780487805,NA
28792,Henderson County,NC,33.90243902439025,NA
43017,Franklin County,OH,61.951219512195124,NA
43026,Franklin County,OH,NA,71.73913043478261
43040,Union County,OH,27.5609756097561,NA
43055,Licking County,OH,41.46341463414634,NA
43068,Franklin County,OH,NA,10.054347826086957
43110,Franklin County,OH,25.121951219512194,NA
43130,Fairfield County,OH,14.146341463414632,NA
43138,Hocking County,OH,75.36585365853658,NA
43147,Fairfield County,OH,NA,23.91304347826087
43232,Franklin County,OH,23.170731707317074,NA
43607,Lucas County,OH,28.536585365853657,NA
43609,Lucas County,OH,7.317073170731707,NA
43615,Lucas County,OH,5.121951219512195,NA
44001,Lorain County,OH,NA,2.1739130434782608
44028,Lorain County,OH,NA,69.56521739130434
44030,Ashtabula County,OH,NA,46.46739130434783
44087,Summit County,OH,43.41463414634146,NA
44103,Cuyahoga County,OH,NA,12.5
44107,Cuyahoga County,OH,16.097560975609756,NA
44130,Cuyahoga County,OH,6.341463414634147,NA
44139,Cuyahoga County,OH,NA,13.31521739130435
44149,Cuyahoga County,OH,NA,14.945652173913043
44212,Medina County,OH,4.634146341463414,NA
44221,Summit County,OH,17.560975609756095,NA
44230,Wayne County,OH,NA,75.81521739130434
44240,Portage County,OH,NA,53.80434782608695
44256,Medina County,OH,22.926829268292686,NA
44310,Summit County,OH,13.414634146341465,NA
44440,Trumbull County,OH,NA,79.34782608695652
44685,Summit County,OH,NA,57.33695652173913
44707,Stark County,OH,60,NA
44709,Stark County,OH,NA,42.119565217391305
44720,Stark County,OH,31.463414634146343,19.021739130434785
44805,Ashland County,OH,16.34146341463415,NA
44820,Crawford County,OH,NA,38.58695652173913
44839,Erie County,OH,78.29268292682927,NA
44870,Erie County,OH,NA,86.41304347826086
45066,Warren County,OH,96.82926829268293,NA
45242,Hamilton County,OH,NA,60.86956521739131
45315,Montgomery County,OH,NA,94.29347826086956
45406,Montgomery County,OH,18.536585365853657,NA
45424,Montgomery County,OH,68.04878048780488,NA
45431,Montgomery County,OH,NA,52.71739130434783
45503,Clark County,OH,NA,11.956521739130435
45640,Jackson County,OH,9.75609756097561,NA
45651,Vinton County,OH,76.58536585365854,NA
45764,Athens County,OH,66.58536585365854,NA
45780,Athens County,OH,96.58536585365853,NA
45830,Putnam County,OH,NA,82.06521739130434
45891,Van Wert County,OH,NA,22.554347826086957
73012,Oklahoma County,OK,NA,45.65217391304348
73026,Cleveland County,OK,96.34146341463415,NA
73064,Canadian County,OK,52.4390243902439,NA
73068,Cleveland County,OK,NA,82.6086956521739
73099,Canadian County,OK,17.073170731707318,5.163043478260869
73107,Oklahoma County,OK,54.146341463414636,NA
73130,Oklahoma County,OK,61.70731707317073,NA
73142,Oklahoma County,OK,78.29268292682927,NA
73533,Stephens County,OK,NA,12.228260869565217
73737,Major County,OK,NA,97.82608695652173
74012,Tulsa County,OK,26.34146341463415,NA
74014,Wagoner County,OK,89.51219512195122,NA
74133,Tulsa County,OK,33.41463414634146,NA
74354,Ottawa County,OK,NA,42.391304347826086
74365,Mayes County,OK,NA,81.79347826086956
74647,Kay County,OK,97.5609756097561,NA
74801,Pottawatomie County,OK,39.268292682926834,NA
97006,Washington County,OR,32.6829268292683,NA
97062,Washington County,OR,88.53658536585365,NA
97068,Clackamas County,OR,NA,78.80434782608695
97080,Multnomah County,OR,26.82926829268293,NA
97203,Multnomah County,OR,NA,59.5108695652174
97223,Washington County,OR,30.73170731707317,NA
97236,Multnomah County,OR,21.70731707317073,24.728260869565215
97266,Multnomah County,OR,82.4390243902439,NA
97355,Linn County,OR,NA,27.717391304347828
97415,Curry County,OR,NA,23.369565217391305
97462,Douglas County,OR,NA,87.5
97814,Baker County,OR,NA,39.94565217391305
97838,Umatilla County,OR,49.75609756097561,NA
97882,Umatilla County,OR,77.3170731707317,NA
15102,Allegheny County,PA,63.41463414634146,NA
15122,Allegheny County,PA,NA,77.71739130434783
15214,Allegheny County,PA,NA,55.434782608695656
15237,Allegheny County,PA,NA,21.195652173913043
16001,Butler County,PA,4.878048780487805,NA
16417,Erie County,PA,77.07317073170732,NA
16830,Clearfield County,PA,30.975609756097562,NA
17025,Cumberland County,PA,35.36585365853659,NA
17361,York County,PA,NA,95.38043478260869
17366,York County,PA,80.97560975609757,NA
17522,Lancaster County,PA,27.073170731707318,NA
17545,Lancaster County,PA,NA,29.076086956521742
17603,Lancaster County,PA,NA,8.695652173913043
18020,Northampton County,PA,45.36585365853659,NA
18045,Northampton County,PA,NA,48.369565217391305
18052,Lehigh County,PA,NA,30.978260869565215
18102,Lehigh County,PA,64.14634146341463,NA
18104,Lehigh County,PA,NA,2.4456521739130435
18202,Luzerne County,PA,NA,72.01086956521739
18237,Schuylkill County,PA,97.80487804878048,NA
18360,Monroe County,PA,30.24390243902439,NA
18702,Luzerne County,PA,NA,2.989130434782609
18974,Bucks County,PA,56.34146341463414,NA
19013,Delaware County,PA,38.048780487804876,NA
19014,Delaware County,PA,NA,36.95652173913043
19015,Delaware County,PA,NA,40.48913043478261
19050,Delaware County,PA,73.17073170731707,NA
19063,Delaware County,PA,NA,11.141304347826086
19082,Delaware County,PA,39.51219512195122,NA
19083,Delaware County,PA,72.92682926829268,83.69565217391305
19111,Philadelphia County,PA,21.463414634146343,NA
19119,Philadelphia County,PA,NA,17.391304347826086
19132,Philadelphia County,PA,9.024390243902438,NA
19142,Philadelphia County,PA,14.878048780487804,NA
19147,Philadelphia County,PA,90.2439024390244,NA
19149,Philadelphia County,PA,10.24390243902439,NA
19403,Montgomery County,PA,20.73170731707317,NA
19446,Montgomery County,PA,NA,80.97826086956522
19460,Chester County,PA,25.365853658536587,NA
19464,Montgomery County,PA,8.292682926829269,NA
19605,Berks County,PA,NA,35.32608695652174
19606,Berks County,PA,68.53658536585367,NA
02816,Kent County,RI,30,NA
02893,Kent County,RI,NA,20.652173913043477
29108,Newberry County,SC,NA,47.28260869565217
29405,Charleston County,SC,29.756097560975608,NA
29582,Horry County,SC,NA,52.9891304347826
29585,Georgetown County,SC,85.60975609756098,NA
29680,Greenville County,SC,NA,27.717391304347828
57078,Yankton County,SD,67.8048780487805,NA
57103,Minnehaha County,SD,24.878048780487806,NA
37055,Dickson County,TN,25.609756097560975,NA
37064,Williamson County,TN,NA,47.55434782608695
37129,Rutherford County,TN,19.26829268292683,NA
37130,Rutherford County,TN,22.682926829268293,NA
37172,Robertson County,TN,19.024390243902438,NA
37179,Williamson County,TN,NA,83.15217391304348
37204,Davidson County,TN,NA,81.25
37604,Washington County,TN,67.5609756097561,NA
37756,Scott County,TN,NA,99.45652173913044
37865,Sevier County,TN,NA,39.67391304347826
37918,Knox County,TN,NA,19.83695652173913
38201,Carroll County,TN,74.63414634146342,NA
38242,Henry County,TN,NA,35.59782608695652
38562,Jackson County,TN,81.21951219512195,NA
38570,Overton County,TN,67.31707317073172,NA
75068,Denton County,TX,NA,86.95652173913044
75075,Collin County,TX,NA,31.793478260869566
75154,Ellis County,TX,NA,37.22826086956522
75160,Kaufman County,TX,NA,96.19565217391305
75216,Dallas County,TX,NA,8.967391304347826
75503,Bowie County,TX,52.926829268292686,NA
75757,Smith County,TX,NA,90.76086956521739
75783,Wood County,TX,NA,27.173913043478258
75956,Jasper County,TX,80.48780487804879,NA
76016,Tarrant County,TX,64.8780487804878,NA
76020,Tarrant County,TX,NA,26.08695652173913
76033,Johnson County,TX,38.29268292682927,NA
76082,Parker County,TX,NA,44.02173913043478
76208,Denton County,TX,NA,44.83695652173913
76210,Denton County,TX,57.80487804878048,NA
76227,Denton County,TX,NA,72.55434782608695
76244,Tarrant County,TX,NA,50.54347826086957
76247,Denton County,TX,NA,88.04347826086956
76504,Bell County,TX,13.170731707317074,NA
76548,Bell County,TX,NA,49.184782608695656
76550,Lampasas County,TX,NA,98.91304347826086
76708,McLennan County,TX,NA,76.63043478260869
76901,Tom Green County,TX,NA,63.58695652173913
77004,Harris County,TX,NA,40.21739130434783
77024,Harris County,TX,62.4390243902439,NA
77026,Harris County,TX,56.09756097560976,NA
77051,Harris County,TX,NA,56.25
77058,Harris County,TX,NA,75.27173913043478
77064,Harris County,TX,37.5609756097561,NA
77075,Harris County,TX,51.463414634146346,NA
77079,Harris County,TX,88.04878048780488,NA
77471,Fort Bend County,TX,40.243902439024396,NA
77498,Fort Bend County,TX,NA,49.45652173913043
77566,Brazoria County,TX,NA,41.03260869565217
77662,Orange County,TX,NA,42.934782608695656
77836,Burleson County,TX,NA,74.45652173913044
77905,Victoria County,TX,NA,58.152173913043484
77963,Goliad County,TX,NA,83.96739130434783
78226,Bexar County,TX,NA,90.48913043478261
78254,Bexar County,TX,48.292682926829265,NA
78537,Hidalgo County,TX,82.1951219512195,NA
78654,Burnet County,TX,NA,35.869565217391305
78840,Val Verde County,TX,NA,16.57608695652174
84003,Utah County,UT,NA,58.96739130434783
84015,Davis County,UT,NA,73.36956521739131
84020,Salt Lake County,UT,45.85365853658537,NA
84041,Davis County,UT,NA,58.42391304347826
84105,Salt Lake County,UT,NA,61.41304347826087
84108,Salt Lake County,UT,NA,51.63043478260869
84335,Cache County,UT,90.73170731707317,NA
84651,Utah County,UT,70.73170731707317,NA
05091,Windsor County,VT,NA,92.66304347826086
05478,Franklin County,VT,NA,31.521739130434785
05753,Addison County,VT,85.1219512195122,NA
20112,Prince William County,VA,72.1951219512195,NA
20136,Prince William County,VA,66.58536585365854,NA
22041,Fairfax County,VA,NA,65.76086956521739
22802,Harrisonburg city,VA,25.853658536585368,NA
22812,Rockingham County,VA,NA,78.26086956521739
22902,Charlottesville city,VA,79.26829268292683,NA
23040,Cumberland County,VA,NA,93.20652173913044
23236,Chesterfield County,VA,60.731707317073166,NA
23321,Chesapeake city,VA,NA,64.13043478260869
23454,Virginia Beach city,VA,NA,10.869565217391305
23505,Norfolk city,VA,NA,29.6195652173913
23607,Newport News city,VA,22.195121951219512,NA
23666,Hampton city,VA,NA,37.77173913043478
23669,Hampton city,VA,NA,65.21739130434783
23831,Chesterfield County,VA,NA,28.532608695652172
23868,Brunswick County,VA,87.3170731707317,NA
24124,Giles County,VA,NA,94.83695652173914
24151,Franklin County,VA,48.048780487804876,NA
24211,Washington County,VA,NA,55.16304347826087
24301,Pulaski County,VA,NA,51.08695652173913
24421,Augusta County,VA,NA,80.16304347826086
24426,Alleghany County,VA,49.02439024390244,NA
24450,Rockbridge County,VA,NA,51.358695652173914
24477,Augusta County,VA,NA,45.92391304347826
24592,Halifax County,VA,62.19512195121951,NA
98004,King County,WA,NA,66.30434782608695
98020,Snohomish County,WA,NA,94.56521739130434
98058,King County,WA,34.146341463414636,NA
98092,King County,WA,26.097560975609756,NA
98103,King County,WA,48.78048780487805,NA
98117,King County,WA,NA,51.902173913043484
98133,King County,WA,31.21951219512195,NA
98225,Whatcom County,WA,56.58536585365853,NA
98264,Whatcom County,WA,NA,92.11956521739131
98312,Kitsap County,WA,NA,57.88043478260869
98335,Pierce County,WA,NA,32.33695652173913
98362,Clallam County,WA,NA,7.065217391304348
98382,Clallam County,WA,NA,18.75
98445,Pierce County,WA,73.65853658536585,NA
98467,Pierce County,WA,78.78048780487805,NA
98801,Chelan County,WA,NA,6.25
98908,Yakima County,WA,NA,12.771739130434783
99217,Spokane County,WA,74.14634146341463,NA
99323,Walla Walla County,WA,99.26829268292683,NA
99338,Benton County,WA,NA,28.804347826086957
99349,Grant County,WA,98.53658536585365,NA
20009,District of Columbia,DC,33.170731707317074,NA
20010,District of Columbia,DC,55.1219512195122,NA
20016,District of Columbia,DC,NA,47.82608695652174
25302,Kanawha County,WV,NA,55.97826086956522
25411,Morgan County,WV,NA,49.72826086956522
25413,Berkeley County,WV,91.95121951219512,NA
26181,Wood County,WV,84.14634146341463,NA
26201,Upshur County,WV,24.634146341463413,NA
26330,Harrison County,WV,47.3170731707317,NA
26416,Barbour County,WV,NA,36.41304347826087
26505,Monongalia County,WV,NA,32.608695652173914
26508,Monongalia County,WV,7.804878048780488,NA
26554,Marion County,WV,NA,1.0869565217391304
53095,Washington County,WI,NA,17.934782608695652
53097,Ozaukee County,WI,NA,96.73913043478261
53126,Racine County,WI,NA,90.21739130434783
53132,Milwaukee County,WI,69.51219512195121,NA
53147,Walworth County,WI,46.58536585365854,NA
53154,Milwaukee County,WI,77.5609756097561,10.597826086956522
53219,Milwaukee County,WI,20,NA
53222,Milwaukee County,WI,58.048780487804876,NA
53511,Rock County,WI,0.975609756097561,NA
53545,Rock County,WI,NA,70.65217391304348
53562,Dane County,WI,NA,24.456521739130434
53575,Dane County,WI,94.8780487804878,NA
53578,Sauk County,WI,NA,80.70652173913044
53704,Dane County,WI,59.02439024390244,NA
53805,Grant County,WI,94.14634146341463,NA
53963,Dodge County,WI,86.34146341463415,NA
54011,Pierce County,WI,93.65853658536587,NA
54017,St. Croix County,WI,NA,85.86956521739131
54115,Brown County,WI,48.536585365853654,NA
54140,Outagamie County,WI,NA,97.01086956521739
54151,Marinette County,WI,NA,65.48913043478261
54303,Brown County,WI,NA,85.59782608695652
54311,Brown County,WI,NA,25.271739130434785
54403,Marathon County,WI,46.34146341463415,NA
54729,Chippewa County,WI,34.63414634146341,NA
54751,Dunn County,WI,35.609756097560975,NA
54880,Douglas County,WI,NA,21.467391304347828
54911,Outagamie County,WI,40.97560975609756,87.77173913043478
54944,Outagamie County,WI,NA,98.36956521739131
54986,Winnebago County,WI,NA,80.43478260869566
82801,Sheridan County,WY,68.78048780487805,NA
