ZipCode,county,state,Youth,Pediatric,Adult,Retirement
35005,Jefferson County,AL,NA,NA,79.14847161572052,NA
35040,Shelby County,AL,NA,NA,45.19650655021834,NA
35045,Chilton County,AL,49.88399071925754,NA,93.77729257641921,NA
35080,Shelby County,AL,NA,89.3103448275862,NA,NA
35127,Jefferson County,AL,NA,NA,NA,59.401709401709404
35211,Jefferson County,AL,NA,58.9655172413793,NA,NA
35212,Jefferson County,AL,NA,78.27586206896552,NA,NA
35213,Jefferson County,AL,NA,NA,NA,64.1025641025641
35215,Jefferson County,AL,NA,38.96551724137931,NA,NA
35244,Jefferson County,AL,NA,NA,72.70742358078603,NA
35466,Pickens County,AL,NA,84.13793103448276,NA,NA
35504,Walker County,AL,51.04408352668214,NA,NA,NA
35555,Fayette County,AL,60.78886310904872,55.86206896551724,NA,NA
35620,Limestone County,AL,NA,NA,76.9650655021834,NA
35648,Lauderdale County,AL,91.87935034802784,NA,NA,NA
35673,Morgan County,AL,NA,NA,65.17467248908298,NA
35768,Jackson County,AL,NA,NA,55.567685589519655,NA
35801,Madison County,AL,NA,78.62068965517241,NA,NA
35811,Madison County,AL,NA,NA,68.01310043668121,NA
35901,Etowah County,AL,NA,NA,62.66375545851528,NA
35904,Etowah County,AL,NA,NA,71.2882096069869,NA
35907,Etowah County,AL,75.4060324825986,NA,NA,NA
35951,Marshall County,AL,NA,NA,60.37117903930132,88.46153846153845
35957,Marshall County,AL,NA,NA,43.01310043668122,NA
35976,Marshall County,AL,NA,60.689655172413794,NA,35.8974358974359
35980,Marshall County,AL,95.59164733178655,NA,NA,NA
35986,DeKalb County,AL,NA,NA,74.67248908296943,NA
36066,Autauga County,AL,NA,NA,NA,79.91452991452992
36116,Montgomery County,AL,NA,NA,49.78165938864629,NA
36206,Calhoun County,AL,NA,NA,70.52401746724891,NA
36272,Calhoun County,AL,NA,64.82758620689654,NA,NA
36274,Randolph County,AL,NA,76.55172413793103,NA,NA
36580,Baldwin County,AL,NA,NA,95.41484716157204,NA
36582,Mobile County,AL,NA,NA,44.54148471615721,NA
36605,Mobile County,AL,48.95591647331787,NA,NA,NA
36786,Perry County,AL,NA,NA,96.17903930131004,NA
99507,Anchorage Municipality,AK,16.70533642691415,NA,NA,NA
99701,Fairbanks North Star Borough,AK,NA,NA,32.751091703056765,NA
85016,Maricopa County,AZ,NA,NA,NA,35.47008547008547
85138,Pinal County,AZ,NA,NA,66.92139737991266,NA
85213,Maricopa County,AZ,28.770301624129928,NA,NA,NA
85301,Maricopa County,AZ,2.784222737819025,NA,22.270742358078603,NA
85305,Maricopa County,AZ,81.67053364269141,NA,NA,NA
85326,Maricopa County,AZ,NA,NA,27.62008733624454,NA
85382,Maricopa County,AZ,76.33410672853829,NA,43.995633187772924,NA
85711,Pima County,AZ,NA,NA,NA,14.957264957264957
85730,Pima County,AZ,NA,NA,25.109170305676855,NA
85739,Pinal County,AZ,NA,NA,60.58951965065502,NA
85757,Pima County,AZ,NA,NA,25.327510917030565,NA
85901,Navajo County,AZ,NA,NA,NA,27.77777777777778
85941,Apache County,AZ,NA,98.27586206896551,NA,NA
86004,Coconino County,AZ,NA,NA,6.986899563318777,NA
86314,Yavapai County,AZ,NA,NA,16.70305676855895,NA
86322,Yavapai County,AZ,NA,NA,83.4061135371179,NA
71701,Ouachita County,AR,NA,NA,NA,55.55555555555556
71832,Sevier County,AR,NA,NA,80.24017467248909,NA
72002,Saline County,AR,NA,NA,NA,68.80341880341881
72023,Lonoke County,AR,81.90255220417633,NA,NA,NA
72150,Grant County,AR,NA,NA,76.41921397379913,NA
72204,Pulaski County,AR,NA,NA,NA,29.48717948717949
72209,Pulaski County,AR,NA,NA,48.799126637554586,NA
72390,Phillips County,AR,NA,NA,NA,84.1880341880342
72472,Poinsett County,AR,95.82366589327145,NA,NA,NA
72730,Washington County,AR,85.61484918793504,NA,NA,NA
90027,Los Angeles County,CA,NA,NA,95.85152838427948,NA
90041,Los Angeles County,CA,NA,NA,86.24454148471615,NA
90744,Los Angeles County,CA,NA,NA,54.14847161572053,NA
90745,Los Angeles County,CA,NA,NA,83.9519650655022,NA
91362,Ventura County,CA,40.60324825986079,NA,NA,NA
91752,Riverside County,CA,NA,NA,NA,62.82051282051282
91766,Los Angeles County,CA,NA,NA,NA,47.008547008547005
91941,San Diego County,CA,NA,NA,86.46288209606988,NA
91977,San Diego County,CA,55.68445475638051,NA,NA,NA
92014,San Diego County,CA,NA,NA,90.72052401746726,NA
92026,San Diego County,CA,NA,NA,76.63755458515283,NA
92120,San Diego County,CA,NA,NA,74.235807860262,NA
92122,San Diego County,CA,NA,NA,68.44978165938865,NA
92154,San Diego County,CA,NA,NA,34.49781659388647,NA
92223,Riverside County,CA,NA,NA,NA,40.17094017094017
92345,San Bernardino County,CA,NA,NA,33.624454148471614,NA
92509,Riverside County,CA,NA,NA,69.32314410480349,NA
92618,Orange County,CA,NA,NA,58.29694323144105,NA
92626,Orange County,CA,NA,NA,38.1004366812227,NA
92630,Orange County,CA,59.39675174013921,NA,NA,NA
92656,Orange County,CA,NA,NA,61.46288209606987,NA
92660,Orange County,CA,NA,NA,55.786026200873366,NA
92683,Orange County,CA,NA,NA,NA,20.085470085470085
92887,Orange County,CA,NA,NA,97.27074235807859,NA
93277,Tulare County,CA,NA,NA,24.126637554585155,NA
93304,Kern County,CA,12.993039443155451,30,NA,NA
93536,Los Angeles County,CA,NA,NA,38.75545851528384,NA
93550,Los Angeles County,CA,NA,NA,13.100436681222707,NA
93636,Madera County,CA,NA,64.13793103448275,NA,NA
93701,Fresno County,CA,NA,82.06896551724138,NA,NA
93722,Fresno County,CA,NA,NA,9.170305676855897,NA
94030,San Mateo County,CA,NA,NA,NA,60.256410256410255
94066,San Mateo County,CA,NA,NA,40.28384279475983,NA
94086,Santa Clara County,CA,NA,NA,NA,73.07692307692307
94102,San Francisco County,CA,NA,NA,30.021834061135372,NA
94103,San Francisco County,CA,NA,NA,11.899563318777293,NA
94116,San Francisco County,CA,NA,NA,51.7467248908297,NA
94124,San Francisco County,CA,NA,NA,52.94759825327511,NA
94507,Contra Costa County,CA,NA,NA,94.43231441048034,NA
94542,Alameda County,CA,NA,NA,84.93449781659389,NA
94549,Contra Costa County,CA,49.651972157772626,NA,NA,NA
94553,Contra Costa County,CA,22.96983758700696,NA,NA,NA
94556,Contra Costa County,CA,NA,NA,84.49781659388647,NA
94577,Alameda County,CA,NA,NA,33.95196506550218,NA
94612,Alameda County,CA,82.5986078886311,NA,NA,NA
94925,Marin County,CA,80.04640371229699,NA,NA,NA
94949,Marin County,CA,83.29466357308584,NA,NA,NA
95357,Stanislaus County,CA,NA,75.51724137931033,NA,NA
95370,Tuolumne County,CA,NA,NA,NA,3.418803418803419
95470,Mendocino County,CA,NA,NA,98.90829694323145,NA
95482,Mendocino County,CA,NA,NA,34.27947598253275,NA
95610,Sacramento County,CA,74.94199535962876,NA,NA,NA
95623,El Dorado County,CA,NA,NA,95.96069868995633,NA
95626,Sacramento County,CA,NA,100,NA,NA
95841,Sacramento County,CA,NA,NA,79.47598253275109,NA
95969,Butte County,CA,NA,NA,NA,57.692307692307686
96003,Shasta County,CA,NA,NA,39.62882096069869,NA
96080,Tehama County,CA,NA,NA,NA,26.06837606837607
96094,Siskiyou County,CA,NA,NA,NA,65.8119658119658
80017,Arapahoe County,CO,NA,NA,35.043668122270745,NA
80124,Douglas County,CO,57.30858468677494,NA,NA,NA
80210,Denver County,CO,NA,NA,51.20087336244541,NA
80222,Denver County,CO,NA,80.6896551724138,NA,NA
80236,Denver County,CO,NA,NA,77.29257641921397,NA
80239,Denver County,CO,NA,NA,23.471615720524017,NA
80247,Arapahoe County,CO,NA,NA,NA,48.29059829059829
80401,Jefferson County,CO,NA,NA,34.1703056768559,NA
80904,El Paso County,CO,NA,77.93103448275862,NA,NA
80909,El Paso County,CO,31.554524361948953,NA,NA,NA
81003,Pueblo County,CO,74.47795823665894,NA,NA,NA
81007,Pueblo County,CO,NA,NA,41.92139737991266,NA
81201,Chaffee County,CO,95.1276102088167,NA,NA,NA
81212,Fremont County,CO,NA,NA,36.790393013100434,NA
06001,Hartford County,CT,31.09048723897912,NA,NA,NA
06010,Hartford County,CT,NA,NA,38.427947598253276,NA
06019,Hartford County,CT,NA,NA,88.1004366812227,NA
06040,Hartford County,CT,19.25754060324826,NA,NA,55.98290598290598
06066,Tolland County,CT,NA,NA,17.685589519650655,NA
06106,Hartford County,CT,NA,NA,22.489082969432314,NA
06110,Hartford County,CT,NA,63.793103448275865,NA,NA
06112,Hartford County,CT,NA,NA,17.139737991266376,NA
06118,Hartford County,CT,NA,NA,53.16593886462883,NA
06234,Windham County,CT,NA,NA,59.06113537117904,NA
06255,Windham County,CT,NA,NA,72.0524017467249,NA
06260,Windham County,CT,NA,NA,29.366812227074234,45.2991452991453
06415,New London County,CT,NA,NA,76.2008733624454,NA
06416,Middlesex County,CT,NA,NA,67.03056768558952,87.17948717948718
06483,New Haven County,CT,NA,NA,NA,87.6068376068376
06484,Fairfield County,CT,NA,NA,63.864628820960704,NA
06511,New Haven County,CT,NA,NA,5.349344978165939,NA
06513,New Haven County,CT,NA,11.379310344827587,NA,NA
06604,Fairfield County,CT,32.94663573085847,NA,NA,NA
06606,Fairfield County,CT,NA,NA,17.79475982532751,NA
06610,Fairfield County,CT,NA,61.724137931034484,NA,NA
06611,Fairfield County,CT,NA,NA,NA,63.24786324786324
06612,Fairfield County,CT,NA,NA,NA,90.5982905982906
06614,Fairfield County,CT,NA,71.37931034482759,86.35371179039302,NA
06705,New Haven County,CT,NA,NA,69.21397379912663,NA
06706,New Haven County,CT,NA,NA,86.79039301310044,NA
06708,New Haven County,CT,28.770301624129928,NA,NA,NA
06759,Litchfield County,CT,NA,NA,97.70742358078603,NA
06779,Litchfield County,CT,NA,NA,96.06986899563319,NA
06787,Litchfield County,CT,NA,NA,73.68995633187772,NA
06790,Litchfield County,CT,80.97447795823666,NA,NA,NA
06810,Fairfield County,CT,NA,NA,15.611353711790393,NA
06850,Fairfield County,CT,NA,NA,67.79475982532752,NA
19701,New Castle County,DE,76.79814385150812,NA,NA,NA
19702,New Castle County,DE,10.208816705336426,NA,15.502183406113538,NA
19709,New Castle County,DE,NA,NA,49.56331877729257,NA
19711,New Castle County,DE,19.02552204176334,NA,29.03930131004367,11.538461538461538
19713,New Castle County,DE,16.937354988399072,NA,59.06113537117904,NA
19801,New Castle County,DE,NA,NA,66.26637554585153,82.47863247863248
19802,New Castle County,DE,NA,NA,41.26637554585153,22.64957264957265
19804,New Castle County,DE,NA,NA,27.183406113537117,NA
19805,New Castle County,DE,4.176334106728538,NA,44.213973799126634,NA
19808,New Castle County,DE,NA,NA,21.83406113537118,NA
19810,New Castle County,DE,34.106728538283065,NA,NA,NA
19904,Kent County,DE,15.54524361948956,NA,38.209606986899566,NA
19933,Sussex County,DE,NA,NA,65.82969432314411,NA
19934,Kent County,DE,NA,NA,67.35807860262008,NA
19945,Sussex County,DE,NA,NA,NA,61.53846153846154
19958,Sussex County,DE,NA,NA,31.877729257641924,NA
19962,Kent County,DE,NA,NA,71.06986899563319,NA
19973,Sussex County,DE,NA,NA,NA,20.51282051282051
19977,Kent County,DE,NA,NA,51.52838427947598,NA
32043,Clay County,FL,98.83990719257541,NA,NA,NA
32053,Hamilton County,FL,NA,NA,98.47161572052401,NA
32060,Suwannee County,FL,40.37122969837587,NA,NA,NA
32073,Clay County,FL,NA,NA,23.144104803493452,NA
32118,Volusia County,FL,NA,NA,77.51091703056768,NA
32168,Volusia County,FL,63.57308584686775,NA,57.314410480349345,NA
32207,Duval County,FL,NA,NA,17.903930131004365,NA
32258,Duval County,FL,68.90951276102089,NA,NA,NA
32277,Duval County,FL,57.772621809744784,NA,NA,NA
32404,Bay County,FL,NA,NA,52.7292576419214,NA
32405,Bay County,FL,NA,NA,25.655021834061138,NA
32424,Calhoun County,FL,NA,NA,65.39301310043668,NA
32446,Jackson County,FL,NA,75.51724137931033,NA,NA
32503,Escambia County,FL,NA,NA,20.633187772925766,NA
32504,Escambia County,FL,31.322505800464036,NA,NA,NA
32526,Escambia County,FL,33.4106728538283,NA,58.73362445414847,NA
32533,Escambia County,FL,36.42691415313225,NA,NA,NA
32570,Santa Rosa County,FL,NA,NA,10.37117903930131,NA
32608,Alachua County,FL,NA,NA,8.078602620087336,NA
32609,Alachua County,FL,NA,NA,48.36244541484716,NA
32720,Volusia County,FL,NA,NA,53.38427947598253,NA
32738,Volusia County,FL,NA,NA,34.06113537117904,NA
32750,Seminole County,FL,NA,NA,62.772925764192145,NA
32757,Lake County,FL,NA,NA,52.29257641921398,NA
32780,Brevard County,FL,NA,NA,37.00873362445415,NA
32803,Orange County,FL,NA,NA,85.80786026200873,NA
32805,Orange County,FL,NA,NA,31.222707423580786,NA
32817,Orange County,FL,NA,25.17241379310345,NA,NA
32824,Orange County,FL,NA,NA,70.19650655021834,NA
32828,Orange County,FL,NA,NA,34.60698689956332,NA
32927,Brevard County,FL,NA,NA,49.672489082969435,NA
32966,Indian River County,FL,NA,NA,71.83406113537117,NA
33016,Miami-Dade County,FL,NA,NA,50.65502183406113,NA
33020,Broward County,FL,NA,55.172413793103445,NA,NA
33128,Miami-Dade County,FL,NA,NA,NA,85.47008547008546
33136,Miami-Dade County,FL,NA,NA,45.96069868995633,NA
33150,Miami-Dade County,FL,NA,35.86206896551724,NA,NA
33174,Miami-Dade County,FL,NA,57.24137931034483,NA,NA
33176,Miami-Dade County,FL,NA,NA,63.64628820960698,NA
33186,Miami-Dade County,FL,NA,NA,47.27074235807861,NA
33309,Broward County,FL,NA,22.413793103448278,NA,NA
33313,Broward County,FL,NA,19.655172413793103,NA,NA
33327,Broward County,FL,NA,85.17241379310346,NA,NA
33351,Broward County,FL,38.97911832946635,NA,NA,NA
33460,Palm Beach County,FL,NA,32.068965517241374,NA,NA
33487,Palm Beach County,FL,66.12529002320186,NA,NA,NA
33523,Pasco County,FL,NA,53.79310344827586,NA,NA
33544,Pasco County,FL,NA,86.55172413793103,NA,NA
33566,Hillsborough County,FL,NA,NA,53.82096069868996,NA
33584,Hillsborough County,FL,NA,NA,50.87336244541485,NA
33618,Hillsborough County,FL,NA,82.75862068965517,NA,NA
33647,Hillsborough County,FL,36.89095127610209,NA,NA,NA
33770,Pinellas County,FL,NA,NA,NA,57.26495726495726
33782,Pinellas County,FL,NA,NA,63.20960698689956,NA
33825,Highlands County,FL,NA,NA,NA,16.23931623931624
33830,Polk County,FL,50.580046403712295,NA,NA,NA
33870,Highlands County,FL,89.0951276102088,NA,NA,NA
33875,Highlands County,FL,NA,NA,NA,67.09401709401709
33907,Lee County,FL,NA,NA,43.88646288209607,NA
33909,Lee County,FL,NA,NA,38.318777292576414,NA
33954,Charlotte County,FL,NA,NA,94.65065502183407,NA
33955,Charlotte County,FL,84.22273781902551,NA,NA,NA
33983,Charlotte County,FL,NA,66.55172413793103,NA,NA
34103,Collier County,FL,NA,NA,NA,82.05128205128204
34224,Charlotte County,FL,NA,NA,NA,61.111111111111114
34231,Sarasota County,FL,NA,NA,NA,17.94871794871795
34232,Sarasota County,FL,89.79118329466357,NA,72.37991266375546,NA
34234,Sarasota County,FL,NA,40.689655172413794,NA,NA
34243,Manatee County,FL,NA,NA,54.80349344978166,NA
34275,Sarasota County,FL,71.22969837587007,NA,NA,NA
34287,Sarasota County,FL,47.33178654292343,53.103448275862064,48.03493449781659,28.63247863247863
34288,Sarasota County,FL,78.88631090487239,NA,NA,NA
34293,Sarasota County,FL,NA,74.13793103448276,NA,NA
34461,Citrus County,FL,NA,NA,NA,81.19658119658119
34465,Citrus County,FL,63.57308584686775,NA,NA,NA
34470,Marion County,FL,NA,NA,46.17903930131004,NA
34472,Marion County,FL,96.75174013921114,NA,NA,NA
34476,Marion County,FL,NA,NA,55.67685589519651,NA
34488,Marion County,FL,NA,NA,68.66812227074236,NA
34491,Marion County,FL,NA,42.06896551724138,NA,NA
34609,Hernando County,FL,NA,NA,30.67685589519651,NA
34667,Pasco County,FL,NA,NA,40.39301310043668,NA
34668,Pasco County,FL,NA,30.689655172413794,11.790393013100436,NA
34946,St. Lucie County,FL,NA,NA,75.10917030567686,NA
34951,St. Lucie County,FL,NA,NA,78.82096069868996,NA
34997,Martin County,FL,NA,NA,28.16593886462882,NA
30005,Fulton County,GA,32.25058004640371,NA,NA,NA
30024,Gwinnett County,GA,NA,NA,20.96069868995633,NA
30034,DeKalb County,GA,NA,NA,28.38427947598253,NA
30035,DeKalb County,GA,NA,58.620689655172406,NA,NA
30044,Gwinnett County,GA,NA,NA,NA,15.384615384615385
30052,Walton County,GA,27.842227378190255,NA,NA,NA
30120,Bartow County,GA,NA,70.34482758620689,NA,NA
30127,Cobb County,GA,NA,NA,NA,31.196581196581196
30132,Paulding County,GA,56.8445475638051,NA,NA,NA
30134,Douglas County,GA,NA,NA,NA,30.76923076923077
30168,Cobb County,GA,NA,52.758620689655174,NA,NA
30213,Fulton County,GA,NA,51.724137931034484,NA,NA
30236,Clayton County,GA,NA,NA,29.912663755458514,NA
30273,Clayton County,GA,52.43619489559165,NA,56.4410480349345,NA
30291,Fulton County,GA,NA,53.103448275862064,35.480349344978166,NA
30318,Fulton County,GA,NA,31.724137931034484,27.40174672489083,NA
30319,DeKalb County,GA,NA,NA,89.95633187772926,NA
30328,Fulton County,GA,NA,NA,61.79039301310044,NA
30331,Fulton County,GA,NA,NA,44.65065502183406,NA
30341,DeKalb County,GA,53.82830626450116,NA,NA,NA
30349,Fulton County,GA,4.408352668213457,NA,NA,NA
30453,Tattnall County,GA,NA,NA,NA,98.29059829059828
30527,Hall County,GA,92.80742459396751,NA,NA,NA
30536,Gilmer County,GA,NA,NA,91.5938864628821,NA
30577,Stephens County,GA,NA,84.48275862068965,NA,NA
30633,Madison County,GA,70.76566125290023,NA,NA,NA
30747,Chattooga County,GA,NA,NA,NA,64.95726495726495
30813,Columbia County,GA,NA,NA,NA,80.76923076923077
30817,Lincoln County,GA,97.91183294663574,NA,78.05676855895196,NA
30906,Richmond County,GA,3.480278422273782,NA,46.288209606986904,NA
31204,Bibb County,GA,22.041763341067284,NA,74.56331877729258,NA
31320,Liberty County,GA,NA,NA,NA,79.05982905982906
31328,Chatham County,GA,NA,NA,99.0174672489083,NA
31405,Chatham County,GA,NA,NA,NA,39.31623931623932
31533,Coffee County,GA,94.89559164733178,NA,NA,NA
31546,Wayne County,GA,87.23897911832947,NA,NA,NA
31632,Lowndes County,GA,NA,NA,76.63755458515283,NA
31721,Dougherty County,GA,NA,NA,NA,62.39316239316239
31757,Thomas County,GA,NA,NA,68.77729257641921,NA
31763,Lee County,GA,NA,NA,46.39737991266376,NA
31794,Tift County,GA,NA,NA,26.855895196506552,NA
31904,Muscogee County,GA,89.55916473317865,NA,NA,NA
39828,Grady County,GA,NA,72.75862068965517,NA,NA
96748,Maui County,HI,NA,NA,87.99126637554585,NA
96786,Honolulu County,HI,NA,NA,31.65938864628821,NA
96792,Honolulu County,HI,NA,36.896551724137936,NA,NA
96813,Honolulu County,HI,NA,NA,NA,35.04273504273504
96819,Honolulu County,HI,NA,NA,16.48471615720524,NA
83341,Twin Falls County,ID,NA,NA,89.08296943231441,NA
83634,Ada County,ID,NA,NA,37.117903930131,NA
83687,Canyon County,ID,NA,NA,51.09170305676856,NA
60002,Lake County,IL,NA,94.48275862068965,NA,NA
60005,Cook County,IL,56.380510440835266,NA,NA,NA
60014,McHenry County,IL,59.164733178654295,NA,NA,NA
60016,Cook County,IL,NA,NA,52.40174672489083,NA
60025,Cook County,IL,NA,96.55172413793103,NA,NA
60030,Lake County,IL,79.58236658932715,NA,NA,NA
60035,Lake County,IL,NA,NA,40.72052401746725,NA
60041,Lake County,IL,86.5429234338747,NA,NA,NA
60044,Lake County,IL,NA,NA,78.60262008733623,NA
60047,Lake County,IL,29.23433874709977,NA,NA,NA
60050,McHenry County,IL,75.1740139211137,NA,NA,NA
60056,Cook County,IL,NA,NA,35.80786026200873,NA
60061,Lake County,IL,NA,NA,60.1528384279476,NA
60067,Cook County,IL,73.31786542923435,95.51724137931035,39.41048034934498,NA
60076,Cook County,IL,NA,NA,41.15720524017467,NA
60085,Lake County,IL,NA,76.89655172413794,NA,NA
60090,Cook County,IL,NA,NA,77.07423580786026,NA
60101,DuPage County,IL,NA,88.27586206896552,NA,NA
60107,Cook County,IL,61.48491879350348,NA,NA,NA
60118,Kane County,IL,71.46171693735499,NA,NA,NA
60123,Kane County,IL,70.06960556844548,NA,NA,NA
60134,Kane County,IL,46.403712296983755,NA,NA,NA
60148,DuPage County,IL,NA,NA,14.737991266375547,NA
60162,Cook County,IL,85.38283062645012,NA,NA,NA
60169,Cook County,IL,53.596287703016245,NA,NA,NA
60185,DuPage County,IL,NA,98.9655172413793,34.38864628820961,NA
60193,Cook County,IL,52.90023201856149,NA,NA,NA
60302,Cook County,IL,58.70069605568445,NA,NA,NA
60304,Cook County,IL,66.35730858468676,NA,NA,NA
60403,Will County,IL,53.82830626450116,NA,55.021834061135365,NA
60411,Cook County,IL,NA,NA,12.554585152838428,NA
60415,Cook County,IL,NA,NA,NA,85.8974358974359
60416,Grundy County,IL,52.204176334106734,NA,NA,NA
60420,Livingston County,IL,NA,NA,91.48471615720524,NA
60426,Cook County,IL,NA,NA,51.419213973799124,NA
60428,Cook County,IL,NA,NA,82.42358078602619,NA
60431,Will County,IL,21.11368909512761,NA,NA,NA
60432,Will County,IL,47.79582366589327,NA,NA,NA
60435,Will County,IL,NA,NA,10.262008733624455,NA
60447,Grundy County,IL,NA,NA,51.85589519650655,NA
60451,Will County,IL,NA,NA,48.14410480349345,NA
60453,Cook County,IL,NA,NA,14.301310043668122,NA
60466,Cook County,IL,NA,NA,44.86899563318777,NA
60467,Cook County,IL,NA,NA,47.161572052401745,NA
60472,Cook County,IL,NA,96.89655172413794,91.92139737991266,NA
60481,Will County,IL,46.403712296983755,NA,NA,NA
60487,Cook County,IL,NA,NA,NA,70.08547008547008
60505,Kane County,IL,NA,NA,NA,41.02564102564102
60506,Kane County,IL,NA,71.03448275862068,NA,NA
60532,DuPage County,IL,NA,NA,NA,46.15384615384615
60559,DuPage County,IL,NA,NA,40.72052401746725,NA
60564,Will County,IL,18.561484918793504,NA,NA,NA
60586,Will County,IL,75.63805104408353,NA,NA,NA
60601,Cook County,IL,NA,NA,92.24890829694323,NA
60608,Cook County,IL,NA,NA,53.60262008733624,NA
60609,Cook County,IL,NA,NA,10.58951965065502,17.094017094017094
60610,Cook County,IL,NA,NA,38.646288209606986,NA
60611,Cook County,IL,86.07888631090486,NA,NA,NA
60615,Cook County,IL,NA,NA,NA,51.70940170940172
60616,Cook County,IL,NA,NA,64.8471615720524,NA
60619,Cook County,IL,NA,NA,6.877729257641921,NA
60629,Cook County,IL,NA,NA,6.768558951965066,NA
60631,Cook County,IL,45.93967517401392,NA,NA,NA
60634,Cook County,IL,9.280742459396752,NA,NA,NA
60637,Cook County,IL,NA,NA,42.35807860262008,NA
60639,Cook County,IL,3.7122969837587005,NA,NA,NA
60640,Cook County,IL,29.930394431554525,NA,NA,NA
60644,Cook County,IL,NA,NA,8.624454148471617,NA
60645,Cook County,IL,NA,NA,64.62882096069869,NA
60649,Cook County,IL,NA,NA,39.19213973799127,NA
60652,Cook County,IL,NA,NA,27.510917030567683,NA
60653,Cook County,IL,NA,NA,NA,29.059829059829063
60655,Cook County,IL,NA,NA,72.81659388646288,NA
60657,Cook County,IL,NA,NA,20.74235807860262,NA
60707,Cook County,IL,NA,NA,19.65065502183406,NA
60970,Iroquois County,IL,NA,NA,88.64628820960698,NA
61008,Boone County,IL,NA,NA,NA,19.65811965811966
61081,Whiteside County,IL,NA,96.89655172413794,NA,NA
61350,LaSalle County,IL,NA,NA,44.75982532751092,NA
61401,Knox County,IL,NA,NA,57.096069868995635,NA
61443,Henry County,IL,NA,NA,NA,50.85470085470085
61615,Peoria County,IL,NA,NA,NA,61.965811965811966
61701,McLean County,IL,37.81902552204176,NA,NA,NA
61727,De Witt County,IL,NA,NA,67.46724890829694,NA
61832,Vermilion County,IL,NA,NA,77.9475982532751,NA
61920,Coles County,IL,NA,NA,NA,52.13675213675214
61938,Coles County,IL,NA,NA,42.13973799126637,NA
61953,Douglas County,IL,NA,NA,89.51965065502183,NA
62298,Monroe County,IL,NA,NA,77.40174672489083,NA
62363,Pike County,IL,NA,NA,99.89082969432314,NA
62521,Macon County,IL,77.49419953596288,98.62068965517241,12.22707423580786,NA
62550,Shelby County,IL,99.30394431554525,NA,NA,NA
62650,Morgan County,IL,NA,NA,49.12663755458515,NA
62701,Sangamon County,IL,NA,92.75862068965517,NA,NA
62704,Sangamon County,IL,NA,NA,43.44978165938865,NA
62801,Marion County,IL,NA,NA,46.943231441048034,NA
46001,Madison County,IN,NA,NA,98.14410480349345,NA
46016,Madison County,IN,NA,NA,14.847161572052403,NA
46037,Hamilton County,IN,NA,NA,62.44541484716157,NA
46041,Clinton County,IN,43.38747099767982,NA,NA,NA
46058,Clinton County,IN,98.37587006960557,NA,NA,NA
46131,Johnson County,IN,NA,NA,81.33187772925764,NA
46140,Hancock County,IN,NA,NA,27.947598253275107,NA
46158,Morgan County,IN,NA,NA,76.31004366812228,NA
46203,Marion County,IN,NA,26.89655172413793,NA,NA
46204,Marion County,IN,87.70301624129931,NA,NA,NA
46219,Marion County,IN,NA,NA,NA,54.27350427350427
46227,Marion County,IN,NA,NA,9.82532751091703,53.41880341880342
46250,Marion County,IN,NA,NA,88.31877729257643,NA
46307,Lake County,IN,0,NA,NA,NA
46311,Lake County,IN,23.665893271461716,NA,NA,NA
46312,Lake County,IN,9.976798143851507,83.79310344827586,NA,NA
46342,Lake County,IN,NA,NA,6.331877729257641,NA
46368,Porter County,IN,25.05800464037123,NA,NA,NA
46394,Lake County,IN,60.32482598607889,NA,50.87336244541485,NA
46406,Lake County,IN,NA,99.3103448275862,NA,NA
46408,Lake County,IN,29.930394431554525,NA,NA,NA
46410,Lake County,IN,38.05104408352668,NA,7.641921397379912,NA
46517,Elkhart County,IN,NA,NA,72.92576419213974,NA
46528,Elkhart County,IN,23.201856148491878,NA,NA,NA
46550,Elkhart County,IN,NA,95.86206896551724,NA,NA
46561,St. Joseph County,IN,NA,66.55172413793103,NA,NA
46580,Kosciusko County,IN,NA,NA,86.8995633187773,NA
46617,St. Joseph County,IN,NA,NA,92.57641921397381,NA
46637,St. Joseph County,IN,NA,NA,NA,89.74358974358975
46725,Whitley County,IN,NA,NA,81.22270742358079,NA
46750,Huntington County,IN,92.34338747099768,NA,80.78602620087337,NA
46755,Noble County,IN,NA,NA,26.746724890829693,NA
46803,Allen County,IN,NA,NA,80.89519650655022,NA
46809,Allen County,IN,NA,NA,52.183406113537124,NA
46835,Allen County,IN,91.1832946635731,NA,NA,NA
46902,Howard County,IN,91.415313225058,NA,NA,NA
46947,Cass County,IN,25.52204176334107,NA,NA,NA
46952,Grant County,IN,54.292343387471,NA,80.02183406113537,32.47863247863248
46953,Grant County,IN,NA,NA,79.36681222707423,NA
46970,Miami County,IN,NA,NA,10.152838427947598,NA
46975,Fulton County,IN,NA,NA,93.3406113537118,NA
47001,Dearborn County,IN,77.9582366589327,NA,NA,NA
47012,Franklin County,IN,NA,NA,NA,78.2051282051282
47025,Dearborn County,IN,NA,67.24137931034483,NA,NA
47042,Ripley County,IN,NA,97.58620689655172,NA,NA
47130,Clark County,IN,38.2830626450116,NA,NA,NA
47138,Scott County,IN,87.93503480278422,NA,NA,NA
47167,Washington County,IN,NA,NA,47.05240174672489,NA
47201,Bartholomew County,IN,0.9280742459396751,NA,NA,NA
47240,Decatur County,IN,NA,NA,75.32751091703057,NA
47302,Delaware County,IN,NA,NA,18.340611353711793,76.92307692307693
47303,Delaware County,IN,NA,NA,32.86026200873363,NA
47305,Delaware County,IN,NA,NA,97.16157205240175,NA
47330,Wayne County,IN,NA,NA,98.2532751091703,NA
47331,Fayette County,IN,NA,NA,15.065502183406112,73.93162393162393
47356,Henry County,IN,NA,NA,96.39737991266377,NA
47362,Henry County,IN,NA,NA,21.2882096069869,NA
47374,Wayne County,IN,NA,NA,60.26200873362445,NA
47401,Monroe County,IN,73.54988399071925,NA,NA,NA
47403,Monroe County,IN,NA,NA,57.53275109170306,NA
47424,Greene County,IN,NA,NA,84.06113537117903,NA
47441,Greene County,IN,NA,NA,NA,67.09401709401709
47460,Owen County,IN,NA,NA,NA,91.02564102564102
47501,Daviess County,IN,NA,NA,NA,23.504273504273502
47660,Gibson County,IN,NA,NA,NA,92.3076923076923
47713,Vanderburgh County,IN,NA,NA,58.842794759825324,NA
47714,Vanderburgh County,IN,54.988399071925755,NA,13.864628820960698,NA
47802,Vigo County,IN,NA,34.13793103448276,NA,NA
47834,Clay County,IN,NA,NA,74.45414847161572,NA
47842,Vermillion County,IN,NA,NA,64.08296943231441,NA
47909,Tippecanoe County,IN,NA,NA,36.02620087336245,NA
47933,Montgomery County,IN,NA,NA,30.349344978165938,NA
47960,White County,IN,42.92343387470998,NA,NA,NA
50010,Story County,IA,47.56380510440835,NA,NA,NA
50126,Hardin County,IA,NA,NA,90.82969432314411,NA
50158,Marshall County,IA,NA,NA,24.890829694323145,NA
50213,Clarke County,IA,NA,87.24137931034483,NA,NA
50311,Polk County,IA,NA,NA,NA,91.45299145299145
50313,Polk County,IA,41.9953596287703,NA,NA,NA
50317,Polk County,IA,NA,NA,11.462882096069869,NA
50322,Polk County,IA,NA,NA,57.86026200873362,NA
50401,Cerro Gordo County,IA,13.921113689095128,NA,NA,NA
50613,Black Hawk County,IA,64.96519721577727,NA,NA,NA
50662,Fayette County,IA,60.556844547563806,NA,NA,NA
50677,Bremer County,IA,NA,NA,NA,63.67521367521367
52240,Johnson County,IA,1.3921113689095126,NA,75.54585152838428,NA
52349,Benton County,IA,NA,NA,85.58951965065502,NA
52601,Des Moines County,IA,NA,NA,37.44541484716157,NA
52632,Lee County,IA,NA,NA,36.572052401746724,NA
52761,Muscatine County,IA,64.03712296983758,NA,NA,NA
66030,Johnson County,KS,NA,NA,NA,58.54700854700855
66049,Douglas County,KS,NA,NA,NA,36.75213675213676
66086,Leavenworth County,KS,NA,NA,NA,74.78632478632478
66112,Wyandotte County,KS,NA,NA,NA,70.94017094017094
66202,Johnson County,KS,77.26218097447796,NA,NA,64.1025641025641
66204,Johnson County,KS,NA,NA,69.10480349344978,NA
66207,Johnson County,KS,NA,NA,NA,72.64957264957265
66209,Johnson County,KS,NA,NA,NA,41.88034188034188
66215,Johnson County,KS,NA,NA,NA,41.452991452991455
66611,Shawnee County,KS,NA,NA,84.60698689956332,NA
66762,Crawford County,KS,90.95127610208816,NA,NA,NA
67217,Sedgwick County,KS,NA,88.27586206896552,NA,NA
67401,Saline County,KS,NA,NA,NA,21.367521367521366
40118,Jefferson County,KY,NA,NA,50.43668122270743,NA
40165,Bullitt County,KY,NA,61.37931034482759,NA,NA
40203,Jefferson County,KY,NA,37.58620689655172,NA,NA
40206,Jefferson County,KY,NA,55.51724137931034,NA,NA
40211,Jefferson County,KY,NA,NA,13.318777292576419,NA
40216,Jefferson County,KY,11.1368909512761,NA,NA,NA
40219,Jefferson County,KY,NA,37.93103448275862,NA,NA
40220,Jefferson County,KY,NA,NA,34.93449781659388,NA
40223,Jefferson County,KY,93.7354988399072,NA,NA,NA
40241,Jefferson County,KY,NA,NA,83.1877729257642,NA
40299,Jefferson County,KY,32.71461716937355,NA,NA,NA
40337,Montgomery County,KY,NA,66.20689655172414,NA,NA
40361,Bourbon County,KY,NA,NA,33.84279475982533,NA
40422,Boyle County,KY,17.633410672853827,NA,NA,NA
40508,Fayette County,KY,NA,NA,31.986899563318776,NA
40511,Fayette County,KY,NA,NA,35.69868995633188,NA
40823,Harlan County,KY,NA,73.44827586206897,NA,NA
40935,Knox County,KY,NA,85.17241379310346,NA,NA
41001,Campbell County,KY,NA,NA,NA,68.37606837606837
41011,Kenton County,KY,NA,NA,14.41048034934498,NA
41014,Kenton County,KY,NA,NA,48.580786026200876,NA
41015,Kenton County,KY,51.972157772621806,NA,25.54585152838428,NA
41017,Kenton County,KY,NA,80,59.49781659388647,NA
41051,Kenton County,KY,NA,54.137931034482754,NA,NA
41071,Campbell County,KY,43.851508120649655,NA,25.76419213973799,NA
41094,Boone County,KY,NA,NA,NA,66.66666666666666
41101,Boyd County,KY,NA,NA,17.46724890829694,NA
41311,Lee County,KY,NA,96.20689655172414,NA,NA
41465,Magoffin County,KY,NA,NA,53.275109170305676,NA
42164,Allen County,KY,49.88399071925754,NA,NA,NA
42301,Daviess County,KY,NA,NA,9.716157205240176,NA
42303,Daviess County,KY,NA,NA,33.29694323144105,NA
42408,Hopkins County,KY,NA,NA,74.0174672489083,NA
42420,Henderson County,KY,NA,48.96551724137931,9.606986899563319,NA
42501,Pulaski County,KY,NA,NA,45.633187772925766,NA
70002,Jefferson Parish,LA,66.8213457076566,NA,NA,NA
70006,Jefferson Parish,LA,41.76334106728538,NA,NA,NA
70043,St. Bernard Parish,LA,NA,NA,15.174672489082969,NA
70053,Jefferson Parish,LA,NA,NA,NA,59.82905982905983
70058,Jefferson Parish,LA,NA,NA,2.947598253275109,NA
70094,Jefferson Parish,LA,NA,NA,5.895196506550218,NA
70115,Orleans Parish,LA,NA,NA,18.44978165938865,23.076923076923077
70116,Orleans Parish,LA,NA,NA,45.30567685589519,NA
70118,Orleans Parish,LA,NA,17.93103448275862,NA,NA
70121,Jefferson Parish,LA,51.27610208816705,NA,NA,NA
70127,Orleans Parish,LA,NA,NA,7.860262008733625,NA
70341,Assumption Parish,LA,NA,NA,93.5589519650655,NA
70380,St. Mary Parish,LA,NA,NA,21.50655021834061,NA
70394,Lafourche Parish,LA,NA,NA,NA,31.62393162393162
70446,Tangipahoa Parish,LA,NA,46.89655172413793,NA,NA
70454,Tangipahoa Parish,LA,NA,3.793103448275862,NA,NA
70466,Tangipahoa Parish,LA,30.39443155452436,NA,NA,NA
70508,Lafayette Parish,LA,NA,31.03448275862069,NA,NA
70533,Vermilion Parish,LA,NA,69.3103448275862,NA,NA
70535,St. Landry Parish,LA,NA,NA,26.52838427947598,NA
70560,Iberia Parish,LA,NA,6.551724137931035,NA,NA
70570,St. Landry Parish,LA,NA,42.41379310344828,NA,NA
70584,St. Landry Parish,LA,NA,NA,61.8995633187773,NA
70601,Calcasieu Parish,LA,NA,4.482758620689655,NA,NA
70605,Calcasieu Parish,LA,NA,NA,63.1004366812227,NA
70633,Calcasieu Parish,LA,NA,23.79310344827586,NA,NA
70663,Calcasieu Parish,LA,NA,14.482758620689657,NA,NA
70669,Calcasieu Parish,LA,NA,39.6551724137931,NA,NA
70775,West Feliciana Parish,LA,NA,NA,65.50218340611353,NA
70806,East Baton Rouge Parish,LA,NA,NA,12.77292576419214,NA
70810,East Baton Rouge Parish,LA,NA,28.620689655172416,NA,NA
70811,East Baton Rouge Parish,LA,NA,NA,NA,69.23076923076923
70817,East Baton Rouge Parish,LA,24.825986078886313,NA,NA,NA
71047,Caddo Parish,LA,NA,NA,NA,48.717948717948715
71055,Webster Parish,LA,NA,NA,44.43231441048035,NA
71104,Caddo Parish,LA,NA,NA,39.956331877729255,NA
71105,Caddo Parish,LA,NA,NA,NA,46.58119658119658
71108,Caddo Parish,LA,NA,NA,33.73362445414847,NA
71111,Bossier Parish,LA,NA,5.172413793103448,NA,NA
71112,Bossier Parish,LA,NA,NA,37.77292576419214,NA
71119,Caddo Parish,LA,NA,33.44827586206897,NA,NA
71201,Ouachita Parish,LA,NA,NA,32.532751091703055,NA
71202,Ouachita Parish,LA,NA,3.4482758620689653,NA,NA
71232,Richland Parish,LA,NA,NA,NA,94.01709401709401
71251,Jackson Parish,LA,32.48259860788863,NA,NA,NA
71351,Avoyelles Parish,LA,NA,29.310344827586203,29.694323144104807,NA
71360,Rapides Parish,LA,NA,4.827586206896552,11.026200873362445,NA
71417,Grant Parish,LA,NA,NA,80.34934497816593,NA
71457,Natchitoches Parish,LA,81.4385150812065,NA,NA,NA
03908,York County,ME,NA,92.41379310344827,NA,NA
04073,York County,ME,NA,28.965517241379313,NA,NA
04102,Cumberland County,ME,NA,NA,62.227074235807855,NA
04103,Cumberland County,ME,NA,NA,21.397379912663755,NA
04240,Androscoggin County,ME,1.8561484918793503,11.724137931034482,NA,NA
04254,Androscoggin County,ME,NA,NA,91.15720524017468,NA
04268,Oxford County,ME,76.33410672853829,NA,NA,NA
04282,Androscoggin County,ME,82.13457076566125,NA,NA,NA
04330,Kennebec County,ME,NA,NA,64.51965065502183,NA
04401,Penobscot County,ME,NA,NA,82.20524017467248,NA
04915,Waldo County,ME,NA,NA,68.12227074235808,NA
04976,Somerset County,ME,25.05800464037123,NA,NA,NA
20602,Charles County,MD,NA,NA,70.85152838427948,NA
20816,Montgomery County,MD,72.38979118329466,NA,NA,NA
20850,Montgomery County,MD,NA,NA,61.135371179039296,NA
20904,Montgomery County,MD,NA,NA,NA,49.14529914529914
21113,Anne Arundel County,MD,76.10208816705337,NA,NA,NA
21136,Baltimore County,MD,61.48491879350348,NA,NA,NA
21201,Baltimore city,MD,90.02320185614849,NA,42.248908296943235,NA
21212,Baltimore city,MD,NA,NA,80.56768558951966,76.49572649572649
21222,Baltimore County,MD,NA,NA,80.67685589519651,NA
21225,Baltimore city,MD,34.80278422273782,NA,NA,NA
21239,Baltimore city,MD,14.385150812064964,NA,NA,NA
21244,Baltimore County,MD,13.68909512761021,NA,70.63318777292577,NA
21771,Frederick County,MD,84.45475638051045,NA,NA,NA
21801,Wicomico County,MD,55.22041763341067,NA,NA,NA
21830,Wicomico County,MD,90.48723897911833,NA,NA,NA
01082,Hampshire County,MA,NA,NA,23.689956331877728,NA
01089,Hampden County,MA,NA,NA,4.912663755458515,NA
01104,Hampden County,MA,NA,NA,10.807860262008735,NA
01105,Hampden County,MA,88.8631090487239,NA,NA,NA
01107,Hampden County,MA,NA,90.3448275862069,NA,NA
01108,Hampden County,MA,NA,NA,75.9825327510917,NA
01109,Hampden County,MA,12.296983758700696,NA,NA,NA
01201,Berkshire County,MA,26.91415313225058,NA,1.5283842794759825,NA
01420,Worcester County,MA,NA,NA,31.33187772925764,NA
01440,Worcester County,MA,NA,NA,54.91266375545851,NA
01464,Middlesex County,MA,70.76566125290023,NA,NA,NA
01545,Worcester County,MA,NA,NA,NA,16.666666666666664
01566,Worcester County,MA,NA,NA,90.17467248908298,NA
01568,Worcester County,MA,NA,NA,93.66812227074236,NA
01603,Worcester County,MA,69.1415313225058,NA,68.99563318777294,NA
01605,Worcester County,MA,NA,NA,1.8558951965065504,NA
01609,Worcester County,MA,19.953596287703014,NA,68.5589519650655,NA
01756,Worcester County,MA,NA,NA,NA,95.2991452991453
01757,Worcester County,MA,14.153132250580047,NA,NA,NA
01801,Middlesex County,MA,10.208816705336426,NA,NA,NA
01832,Essex County,MA,NA,NA,4.25764192139738,NA
01840,Essex County,MA,NA,NA,47.59825327510917,NA
01843,Essex County,MA,1.160092807424594,NA,NA,NA
01852,Middlesex County,MA,NA,NA,70.96069868995633,NA
01887,Middlesex County,MA,NA,NA,7.314410480349346,NA
01906,Essex County,MA,NA,NA,3.602620087336245,NA
02021,Norfolk County,MA,9.744779582366588,NA,NA,NA
02026,Norfolk County,MA,NA,67.93103448275862,NA,NA
02048,Bristol County,MA,NA,NA,97.59825327510917,NA
02054,Norfolk County,MA,NA,NA,85.1528384279476,NA
02131,Suffolk County,MA,NA,81.72413793103448,NA,NA
02132,Suffolk County,MA,NA,NA,NA,50
02140,Middlesex County,MA,26.68213457076566,NA,NA,NA
02143,Middlesex County,MA,12.064965197215777,NA,6.441048034934497,96.58119658119658
02150,Suffolk County,MA,NA,NA,0.32751091703056767,NA
02151,Suffolk County,MA,NA,NA,0,NA
02351,Plymouth County,MA,NA,NA,16.157205240174672,NA
02368,Norfolk County,MA,NA,NA,2.1834061135371177,NA
02476,Middlesex County,MA,NA,48.96551724137931,78.38427947598254,NA
02492,Norfolk County,MA,NA,NA,26.200873362445414,NA
02720,Bristol County,MA,NA,NA,3.056768558951965,NA
02747,Bristol County,MA,42.22737819025522,NA,NA,NA
02777,Bristol County,MA,3.944315545243619,NA,NA,94.44444444444444
02780,Bristol County,MA,NA,6.206896551724138,NA,NA
48035,Macomb County,MI,NA,NA,33.4061135371179,NA
48044,Macomb County,MI,NA,NA,NA,6.41025641025641
48071,Oakland County,MI,NA,NA,24.563318777292576,NA
48088,Macomb County,MI,NA,72.75862068965517,NA,NA
48105,Washtenaw County,MI,NA,NA,35.58951965065502,NA
48154,Wayne County,MI,NA,NA,23.580786026200872,NA
48170,Wayne County,MI,17.40139211136891,NA,NA,NA
48182,Monroe County,MI,37.35498839907193,NA,NA,NA
48197,Washtenaw County,MI,NA,NA,2.8384279475982535,NA
48198,Washtenaw County,MI,0.23201856148491878,NA,NA,NA
48220,Oakland County,MI,NA,NA,42.903930131004365,NA
48221,Wayne County,MI,NA,23.448275862068964,NA,NA
48223,Wayne County,MI,10.208816705336426,NA,NA,NA
48224,Wayne County,MI,NA,16.896551724137932,NA,NA
48227,Wayne County,MI,NA,7.586206896551724,NA,NA
48238,Wayne County,MI,NA,48.96551724137931,NA,NA
48309,Oakland County,MI,44.779582366589324,NA,NA,NA
48310,Macomb County,MI,NA,NA,16.048034934497817,NA
48341,Oakland County,MI,NA,63.44827586206897,NA,NA
48433,Genesee County,MI,NA,NA,48.68995633187773,NA
48532,Genesee County,MI,50.81206496519721,NA,NA,NA
48603,Saginaw County,MI,NA,NA,11.681222707423581,NA
48612,Gladwin County,MI,NA,NA,56.76855895196506,NA
48623,Saginaw County,MI,NA,NA,38.864628820960704,NA
48642,Midland County,MI,19.489559164733176,NA,NA,NA
48708,Bay County,MI,NA,NA,8.296943231441048,NA
48768,Tuscola County,MI,NA,NA,50.545851528384276,NA
48843,Livingston County,MI,NA,35.86206896551724,NA,NA
48880,Gratiot County,MI,80.04640371229699,NA,NA,NA
49013,Van Buren County,MI,NA,NA,83.29694323144105,NA
49201,Jackson County,MI,NA,NA,8.951965065502183,NA
49202,Jackson County,MI,NA,NA,NA,30.34188034188034
49221,Lenawee County,MI,NA,NA,20.305676855895197,NA
49508,Kent County,MI,0.6960556844547563,NA,NA,NA
49738,Crawford County,MI,96.05568445475639,NA,NA,NA
49746,Montmorency County,MI,99.76798143851508,NA,NA,NA
55016,Washington County,MN,NA,NA,37.33624454148472,NA
55024,Dakota County,MN,NA,NA,45.74235807860262,NA
55044,Dakota County,MN,NA,44.13793103448276,NA,NA
55063,Pine County,MN,NA,NA,71.61572052401746,NA
55101,Ramsey County,MN,NA,NA,31.55021834061135,NA
55104,Ramsey County,MN,4.640371229698376,NA,77.72925764192141,NA
55107,Ramsey County,MN,NA,72.41379310344827,69.54148471615721,NA
55112,Ramsey County,MN,NA,NA,88.75545851528385,NA
55116,Ramsey County,MN,NA,NA,96.72489082969432,NA
55128,Washington County,MN,NA,NA,NA,56.41025641025641
55303,Anoka County,MN,NA,24.482758620689655,NA,NA
55330,Sherburne County,MN,NA,NA,85.37117903930131,NA
55336,McLeod County,MN,83.52668213457076,NA,NA,NA
55355,Meeker County,MN,NA,NA,98.68995633187772,94.87179487179486
55362,Wright County,MN,NA,NA,62.00873362445415,NA
55372,Scott County,MN,85.1508120649652,NA,NA,NA
55373,Wright County,MN,87.00696055684455,NA,NA,NA
55398,Sherburne County,MN,NA,NA,71.39737991266377,NA
55401,Hennepin County,MN,NA,NA,91.8122270742358,NA
55404,Hennepin County,MN,NA,NA,1.6375545851528384,NA
55406,Hennepin County,MN,NA,NA,NA,27.350427350427353
55418,Hennepin County,MN,8.120649651972158,NA,26.419213973799128,NA
55419,Hennepin County,MN,NA,24.137931034482758,NA,NA
55426,Hennepin County,MN,NA,NA,NA,38.88888888888889
55427,Hennepin County,MN,42.459396751740144,NA,NA,NA
55428,Hennepin County,MN,NA,NA,19.213973799126638,NA
55429,Hennepin County,MN,NA,NA,12.008733624454148,NA
55430,Hennepin County,MN,NA,NA,NA,34.18803418803419
55432,Anoka County,MN,NA,NA,NA,73.50427350427351
55441,Hennepin County,MN,22.505800464037122,NA,84.38864628820961,NA
55443,Hennepin County,MN,NA,NA,73.90829694323145,NA
55449,Anoka County,MN,56.148491879350345,NA,NA,NA
55804,St. Louis County,MN,NA,NA,96.61572052401746,NA
55806,St. Louis County,MN,35.266821345707655,NA,NA,60.68376068376068
55807,St. Louis County,MN,NA,NA,NA,55.12820512820513
55811,St. Louis County,MN,NA,NA,NA,51.28205128205128
55901,Olmsted County,MN,NA,NA,71.17903930131004,NA
55904,Olmsted County,MN,27.37819025522042,NA,NA,NA
55912,Mower County,MN,NA,NA,27.838427947598255,NA
55987,Winona County,MN,68.67749419953596,NA,NA,NA
56001,Blue Earth County,MN,NA,NA,30.240174672489083,NA
56007,Freeborn County,MN,NA,NA,42.03056768558952,NA
56071,Scott County,MN,NA,NA,81.6593886462882,NA
56073,Brown County,MN,NA,NA,90.39301310043668,NA
56093,Waseca County,MN,NA,NA,NA,49.572649572649574
56187,Nobles County,MN,NA,NA,62.227074235807855,NA
56258,Lyon County,MN,NA,NA,97.37991266375546,NA
56303,Stearns County,MN,73.54988399071925,33.10344827586207,29.694323144104807,NA
56308,Douglas County,MN,NA,NA,55.13100436681223,43.58974358974359
56379,Benton County,MN,NA,NA,99.45414847161572,NA
56401,Crow Wing County,MN,NA,21.72413793103448,NA,NA
56621,Clearwater County,MN,NA,NA,99.78165938864629,NA
56721,Polk County,MN,NA,NA,75.65502183406113,NA
38632,DeSoto County,MS,NA,75.17241379310344,NA,NA
39301,Lauderdale County,MS,NA,NA,45.851528384279476,NA
39345,Newton County,MS,NA,NA,77.18340611353712,NA
39401,Forrest County,MS,NA,NA,85.91703056768559,NA
39437,Jones County,MS,NA,NA,57.20524017467249,NA
39465,Forrest County,MS,NA,NA,98.0349344978166,NA
39466,Pearl River County,MS,23.897911832946637,NA,54.58515283842795,NA
63011,St. Louis County,MO,NA,NA,NA,18.37606837606838
63077,Franklin County,MO,58.93271461716937,NA,NA,NA
63090,Franklin County,MO,NA,NA,72.16157205240175,NA
63111,St. Louis city,MO,NA,32.758620689655174,61.24454148471615,NA
63112,St. Louis city,MO,NA,NA,NA,91.88034188034187
63113,St. Louis city,MO,NA,45.86206896551724,NA,83.33333333333334
63119,St. Louis County,MO,39.675174013921115,NA,NA,NA
63120,St. Louis city,MO,52.43619489559165,NA,NA,NA
63125,St. Louis County,MO,NA,NA,69.65065502183407,NA
63134,St. Louis County,MO,NA,NA,37.66375545851528,NA
63136,St. Louis County,MO,NA,NA,28.602620087336245,NA
63138,St. Louis County,MO,NA,42.758620689655174,NA,NA
63146,St. Louis County,MO,NA,NA,73.68995633187772,NA
63367,St. Charles County,MO,NA,NA,85.69868995633188,NA
63501,Adair County,MO,NA,NA,89.62882096069869,NA
63701,Cape Girardeau County,MO,NA,NA,35.37117903930131,NA
63755,Cape Girardeau County,MO,98.14385150812065,NA,58.842794759825324,NA
63801,Scott County,MO,NA,NA,91.92139737991266,NA
63825,Stoddard County,MO,NA,NA,97.92576419213974,NA
63841,Stoddard County,MO,NA,NA,73.58078602620087,NA
63877,Pemiscot County,MO,99.07192575406032,NA,NA,NA
63901,Butler County,MO,NA,NA,13.646288209606988,22.22222222222222
63957,Wayne County,MO,NA,55.86206896551724,NA,NA
64052,Jackson County,MO,NA,30,NA,NA
64093,Johnson County,MO,29.23433874709977,NA,NA,NA
64106,Jackson County,MO,NA,NA,56.659388646288214,NA
64109,Jackson County,MO,NA,NA,72.48908296943232,NA
64111,Jackson County,MO,48.027842227378194,NA,NA,NA
64131,Jackson County,MO,NA,64.48275862068965,NA,NA
64133,Jackson County,MO,NA,NA,21.069868995633186,NA
64150,Platte County,MO,94.43155452436194,NA,NA,NA
64155,Clay County,MO,11.832946635730858,NA,NA,NA
64506,Buchanan County,MO,NA,NA,NA,7.6923076923076925
64772,Vernon County,MO,NA,43.79310344827586,NA,NA
64804,Jasper County,MO,NA,NA,16.921397379912666,NA
64836,Jasper County,MO,6.496519721577726,NA,63.75545851528385,NA
64850,Newton County,MO,NA,NA,43.340611353711786,NA
65037,Morgan County,MO,NA,NA,88.42794759825327,NA
65201,Boone County,MO,NA,NA,41.5938864628821,NA
65203,Boone County,MO,67.51740139211137,NA,78.16593886462883,NA
65265,Audrain County,MO,18.097447795823665,NA,NA,NA
65542,Texas County,MO,NA,NA,95.3056768558952,NA
65548,Howell County,MO,NA,NA,92.79475982532752,NA
65560,Dent County,MO,NA,NA,NA,83.76068376068376
65606,Oregon County,MO,NA,NA,96.94323144104804,NA
65746,Webster County,MO,90.02320185614849,NA,NA,NA
65775,Howell County,MO,NA,NA,30.567685589519648,NA
65781,Greene County,MO,72.8538283062645,NA,NA,NA
65802,Greene County,MO,NA,NA,53.05676855895196,NA
59405,Cascade County,MT,56.380510440835266,NA,NA,NA
59860,Lake County,MT,NA,NA,NA,44.871794871794876
68104,Douglas County,NE,NA,41.724137931034484,NA,NA
68117,Douglas County,NE,NA,NA,87.77292576419214,NA
68123,Sarpy County,NE,NA,NA,60.043668122270745,NA
68137,Douglas County,NE,34.33874709976798,NA,47.70742358078602,NA
68310,Gage County,NE,NA,NA,81.87772925764192,NA
68516,Lancaster County,NE,NA,NA,82.09606986899564,NA
68803,Hall County,NE,NA,NA,89.41048034934498,NA
68850,Dawson County,NE,54.292343387471,NA,NA,NA
69153,Keith County,NE,NA,NA,NA,88.03418803418803
89106,Clark County,NV,NA,NA,43.777292576419214,NA
89406,Churchill County,NV,NA,NA,68.3406113537118,NA
89431,Washoe County,NV,NA,NA,21.17903930131004,NA
89433,Washoe County,NV,NA,NA,NA,58.97435897435898
89445,Humboldt County,NV,NA,NA,73.2532751091703,NA
89502,Washoe County,NV,NA,NA,19.323144104803493,NA
89506,Washoe County,NV,25.754060324825982,NA,NA,NA
03031,Hillsborough County,NH,NA,NA,72.92576419213974,NA
03060,Hillsborough County,NH,NA,NA,7.20524017467249,NA
03431,Cheshire County,NH,NA,NA,27.729257641921397,NA
07002,Hudson County,NJ,NA,NA,1.7467248908296942,1.7094017094017095
07005,Morris County,NJ,NA,NA,31.113537117903928,NA
07011,Passaic County,NJ,NA,9.655172413793103,NA,NA
07018,Essex County,NJ,NA,31.379310344827587,NA,NA
07020,Bergen County,NJ,NA,NA,99.12663755458514,NA
07024,Bergen County,NJ,NA,NA,31.65938864628821,NA
07026,Bergen County,NJ,NA,57.58620689655173,NA,NA
07036,Union County,NJ,NA,NA,32.4235807860262,NA
07054,Morris County,NJ,NA,NA,47.379912663755455,NA
07055,Passaic County,NJ,NA,0,NA,NA
07060,Union County,NJ,NA,NA,27.074235807860266,NA
07067,Middlesex County,NJ,45.011600928074245,NA,NA,NA
07087,Hudson County,NJ,NA,NA,3.9301310043668125,NA
07102,Essex County,NJ,53.36426914153132,50.3448275862069,NA,NA
07103,Essex County,NJ,16.241299303944317,13.448275862068964,NA,NA
07104,Essex County,NJ,NA,NA,14.628820960698691,NA
07106,Essex County,NJ,NA,17.586206896551722,NA,NA
07108,Essex County,NJ,NA,NA,2.074235807860262,NA
07111,Essex County,NJ,NA,NA,1.0917030567685588,NA
07112,Essex County,NJ,NA,NA,18.12227074235808,NA
07201,Union County,NJ,NA,7.586206896551724,NA,NA
07202,Union County,NJ,NA,35.51724137931034,81.76855895196506,9.82905982905983
07206,Union County,NJ,NA,8.620689655172415,NA,NA
07305,Hudson County,NJ,3.248259860788863,0.6896551724137931,NA,NA
07407,Bergen County,NJ,NA,NA,59.388646288209614,NA
07410,Bergen County,NJ,83.52668213457076,NA,NA,NA
07416,Sussex County,NJ,NA,69.6551724137931,NA,NA
07420,Passaic County,NJ,NA,NA,NA,89.74358974358975
07424,Passaic County,NJ,NA,NA,35.1528384279476,NA
07446,Bergen County,NJ,70.30162412993039,NA,NA,NA
07450,Bergen County,NJ,67.98143851508121,NA,NA,NA
07462,Sussex County,NJ,NA,NA,95.74235807860262,NA
07502,Passaic County,NJ,69.60556844547564,NA,NA,NA
07601,Bergen County,NJ,NA,NA,65.28384279475983,NA
07607,Bergen County,NJ,NA,NA,87.117903930131,NA
07644,Bergen County,NJ,NA,68.27586206896552,NA,NA
07646,Bergen County,NJ,97.6798143851508,NA,NA,NA
07649,Bergen County,NJ,94.66357308584686,NA,NA,NA
07663,Bergen County,NJ,NA,NA,79.80349344978166,NA
07675,Bergen County,NJ,NA,NA,NA,95.72649572649573
07676,Bergen County,NJ,NA,NA,95.19650655021834,NA
07712,Monmouth County,NJ,NA,12.413793103448276,NA,NA
07726,Monmouth County,NJ,NA,NA,NA,25.213675213675213
07731,Monmouth County,NJ,NA,NA,NA,69.65811965811966
07751,Monmouth County,NJ,NA,NA,61.572052401746724,NA
07823,Warren County,NJ,NA,NA,60.58951965065502,NA
07834,Morris County,NJ,98.60788863109049,NA,82.75109170305677,NA
07836,Morris County,NJ,96.2877030162413,NA,NA,NA
07840,Warren County,NJ,NA,NA,NA,29.914529914529915
07860,Sussex County,NJ,NA,NA,25,NA
07921,Somerset County,NJ,NA,NA,98.36244541484717,NA
08004,Camden County,NJ,NA,NA,51.310043668122276,NA
08005,Ocean County,NJ,NA,NA,18.231441048034934,NA
08016,Burlington County,NJ,NA,NA,4.148471615720524,NA
08021,Camden County,NJ,NA,3.103448275862069,NA,NA
08030,Camden County,NJ,NA,NA,91.70305676855895,NA
08031,Camden County,NJ,NA,NA,67.68558951965066,NA
08034,Camden County,NJ,36.42691415313225,NA,NA,NA
08054,Burlington County,NJ,NA,NA,23.253275109170303,NA
08059,Camden County,NJ,NA,87.93103448275862,NA,NA
08060,Burlington County,NJ,NA,NA,59.82532751091703,NA
08069,Salem County,NJ,38.74709976798144,NA,NA,NA
08070,Salem County,NJ,NA,NA,44.32314410480349,NA
08081,Camden County,NJ,NA,NA,1.9650655021834063,NA
08085,Gloucester County,NJ,NA,86.20689655172413,NA,NA
08087,Ocean County,NJ,NA,NA,17.903930131004365,NA
08093,Gloucester County,NJ,NA,NA,64.73799126637554,NA
08096,Gloucester County,NJ,NA,NA,22.05240174672489,NA
08102,Camden County,NJ,NA,NA,8.51528384279476,NA
08103,Camden County,NJ,NA,NA,84.82532751091702,NA
08105,Camden County,NJ,NA,NA,1.4192139737991267,NA
08201,Atlantic County,NJ,NA,NA,NA,92.73504273504274
08204,Cape May County,NJ,56.8445475638051,NA,49.34497816593886,NA
08205,Atlantic County,NJ,28.538283062645007,NA,NA,NA
08210,Cape May County,NJ,NA,90.6896551724138,NA,NA
08215,Atlantic County,NJ,NA,51.03448275862069,63.53711790393013,78.63247863247864
08232,Atlantic County,NJ,40.60324825986079,NA,40.50218340611353,NA
08234,Atlantic County,NJ,60.092807424593964,NA,78.7117903930131,NA
08322,Gloucester County,NJ,48.25986078886311,NA,NA,NA
08332,Cumberland County,NJ,NA,4.137931034482759,NA,NA
08361,Cumberland County,NJ,NA,NA,NA,47.863247863247864
08401,Atlantic County,NJ,14.617169373549885,NA,87.33624454148472,2.564102564102564
08402,Atlantic County,NJ,62.87703016241299,NA,NA,NA
08527,Ocean County,NJ,47.09976798143852,NA,NA,NA
08530,Hunterdon County,NJ,NA,NA,91.26637554585153,NA
08540,Mercer County,NJ,NA,NA,99.34497816593887,NA
08609,Mercer County,NJ,NA,NA,NA,33.33333333333333
08618,Mercer County,NJ,NA,NA,0.7641921397379913,NA
08690,Mercer County,NJ,NA,NA,86.1353711790393,NA
08721,Ocean County,NJ,51.508120649651964,NA,23.90829694323144,NA
08723,Ocean County,NJ,26.218097447795824,NA,NA,NA
08724,Ocean County,NJ,23.897911832946637,NA,NA,NA
08736,Monmouth County,NJ,NA,NA,95.08733624454149,NA
08742,Ocean County,NJ,82.36658932714617,NA,NA,NA
08753,Ocean County,NJ,79.11832946635731,NA,15.393013100436681,NA
08755,Ocean County,NJ,NA,NA,22.707423580786028,NA
08805,Somerset County,NJ,NA,21.379310344827587,NA,NA
08807,Somerset County,NJ,42.92343387470998,NA,NA,NA
08816,Middlesex County,NJ,NA,NA,32.532751091703055,NA
08817,Middlesex County,NJ,86.3109048723898,NA,NA,NA
08820,Middlesex County,NJ,NA,NA,42.685589519650655,NA
08822,Hunterdon County,NJ,48.72389791183295,NA,NA,NA
08831,Middlesex County,NJ,93.96751740139212,NA,NA,NA
08844,Somerset County,NJ,51.74013921113689,NA,36.8995633187773,NA
08854,Middlesex County,NJ,80.51044083526682,NA,NA,NA
08861,Middlesex County,NJ,NA,2.0689655172413794,NA,NA
08863,Middlesex County,NJ,NA,86.89655172413792,NA,NA
08865,Warren County,NJ,NA,25.17241379310345,NA,NA
08869,Somerset County,NJ,77.9582366589327,NA,99.67248908296943,NA
08873,Somerset County,NJ,75.87006960556845,NA,14.519650655021834,NA
08882,Middlesex County,NJ,NA,64.82758620689654,55.34934497816594,NA
08901,Middlesex County,NJ,NA,NA,5.676855895196507,NA
87004,Sandoval County,NM,NA,78.96551724137932,NA,NA
87048,Sandoval County,NM,NA,97.93103448275862,NA,NA
87102,Bernalillo County,NM,68.44547563805105,NA,NA,NA
87105,Bernalillo County,NM,25.986078886310903,NA,4.6943231441048034,NA
87106,Bernalillo County,NM,NA,NA,49.890829694323145,NA
87108,Bernalillo County,NM,NA,NA,7.096069868995633,NA
87109,Bernalillo County,NM,NA,27.241379310344826,NA,NA
87110,Bernalillo County,NM,3.0162412993039442,NA,67.24890829694323,NA
87111,Bernalillo County,NM,NA,NA,19.541484716157207,NA
87112,Bernalillo County,NM,NA,NA,14.08296943231441,NA
87120,Bernalillo County,NM,NA,NA,50.32751091703057,NA
87123,Bernalillo County,NM,NA,20.344827586206897,NA,NA
87401,San Juan County,NM,NA,NA,17.03056768558952,NA
87507,Santa Fe County,NM,NA,NA,60.91703056768559,NA
87508,Santa Fe County,NM,NA,NA,84.60698689956332,NA
88001,Doa Ana County,NM,NA,NA,25.218340611353714,NA
88203,Chaves County,NM,NA,NA,19.104803493449783,NA
10001,New York County,NY,96.98375870069606,NA,88.8646288209607,NA
10002,New York County,NY,NA,NA,20.087336244541483,NA
10010,New York County,NY,NA,NA,NA,86.75213675213675
10013,New York County,NY,NA,NA,90.06550218340611,NA
10016,New York County,NY,NA,NA,33.18777292576419,NA
10019,New York County,NY,84.91879350348029,NA,NA,NA
10024,New York County,NY,NA,NA,49.0174672489083,NA
10025,New York County,NY,NA,NA,NA,0
10029,New York County,NY,NA,1.7241379310344827,0.5458515283842794,NA
10035,New York County,NY,NA,NA,NA,8.974358974358974
10038,New York County,NY,NA,NA,94.54148471615721,NA
10044,New York County,NY,89.32714617169374,NA,NA,NA
10301,Richmond County,NY,NA,NA,96.83406113537117,NA
10303,Richmond County,NY,NA,19.310344827586206,67.13973799126637,NA
10304,Richmond County,NY,NA,NA,58.18777292576419,NA
10305,Richmond County,NY,NA,NA,98.58078602620087,NA
10306,Richmond County,NY,NA,NA,92.35807860262008,NA
10310,Richmond County,NY,63.10904872389791,27.586206896551722,NA,NA
10314,Richmond County,NY,NA,NA,80.13100436681223,NA
10451,Bronx County,NY,NA,NA,3.4934497816593884,NA
10452,Bronx County,NY,NA,18.620689655172416,0.6550218340611353,NA
10453,Bronx County,NY,NA,NA,16.593886462882097,NA
10455,Bronx County,NY,8.584686774941995,NA,5.021834061135371,NA
10456,Bronx County,NY,NA,NA,8.842794759825328,NA
10457,Bronx County,NY,NA,NA,14.192139737991265,NA
10458,Bronx County,NY,NA,NA,5.240174672489083,NA
10461,Bronx County,NY,NA,NA,36.24454148471616,52.56410256410257
10463,Bronx County,NY,NA,NA,46.50655021834061,NA
10467,Bronx County,NY,NA,6.896551724137931,0.43668122270742354,79.48717948717949
10469,Bronx County,NY,NA,NA,45.08733624454149,NA
10532,Westchester County,NY,NA,NA,NA,100
10570,Westchester County,NY,NA,NA,96.2882096069869,NA
10701,Westchester County,NY,NA,12.068965517241379,NA,NA
10703,Westchester County,NY,NA,21.03448275862069,NA,NA
10705,Westchester County,NY,NA,14.827586206896552,NA,NA
10710,Westchester County,NY,NA,NA,92.90393013100436,NA
10801,Westchester County,NY,NA,18.96551724137931,NA,NA
10940,Orange County,NY,NA,NA,16.375545851528383,NA
10941,Orange County,NY,67.74941995359629,NA,NA,NA
10956,Rockland County,NY,67.98143851508121,93.79310344827586,NA,NA
10962,Rockland County,NY,NA,NA,100,NA
10977,Rockland County,NY,20.88167053364269,NA,NA,NA
10984,Rockland County,NY,NA,NA,NA,97.00854700854701
11050,Nassau County,NY,80.74245939675174,NA,NA,NA
11201,Kings County,NY,NA,NA,20.41484716157205,NA
11206,Kings County,NY,NA,52.06896551724138,NA,0.4273504273504274
11207,Kings County,NY,NA,0.3448275862068966,NA,NA
11208,Kings County,NY,NA,10.344827586206897,1.2008733624454149,NA
11212,Kings County,NY,NA,45.17241379310345,0.9825327510917031,NA
11213,Kings County,NY,NA,15.517241379310345,92.68558951965066,93.16239316239316
11214,Kings County,NY,NA,NA,15.938864628820962,12.393162393162394
11215,Kings County,NY,NA,NA,NA,99.14529914529915
11217,Kings County,NY,NA,NA,36.681222707423586,24.358974358974358
11219,Kings County,NY,NA,NA,89.73799126637554,NA
11220,Kings County,NY,NA,NA,NA,3.8461538461538463
11222,Kings County,NY,NA,NA,NA,81.62393162393163
11223,Kings County,NY,NA,NA,20.52401746724891,NA
11224,Kings County,NY,NA,NA,18.777292576419214,NA
11226,Kings County,NY,NA,16.206896551724135,NA,NA
11229,Kings County,NY,41.29930394431555,NA,NA,NA
11233,Kings County,NY,NA,5.172413793103448,NA,NA
11234,Kings County,NY,27.842227378190255,NA,NA,NA
11236,Kings County,NY,NA,NA,4.8034934497816595,NA
11357,Queens County,NY,NA,NA,91.37554585152839,45.72649572649573
11368,Queens County,NY,NA,1.3793103448275863,28.056768558951966,NA
11377,Queens County,NY,NA,14.13793103448276,NA,NA
11385,Queens County,NY,NA,10,NA,NA
11421,Queens County,NY,NA,NA,NA,56.837606837606835
11432,Queens County,NY,NA,NA,86.68122270742357,NA
11433,Queens County,NY,NA,41.37931034482759,NA,NA
11434,Queens County,NY,73.08584686774941,NA,94.10480349344978,NA
11510,Nassau County,NY,NA,NA,81.11353711790393,NA
11542,Nassau County,NY,NA,NA,87.55458515283843,NA
11545,Nassau County,NY,NA,NA,89.19213973799127,NA
11550,Nassau County,NY,NA,NA,11.135371179039302,NA
11554,Nassau County,NY,74.0139211136891,NA,NA,NA
11703,Suffolk County,NY,NA,NA,93.44978165938865,NA
11704,Suffolk County,NY,NA,NA,85.48034934497817,NA
11717,Suffolk County,NY,NA,NA,18.5589519650655,NA
11726,Suffolk County,NY,NA,58.9655172413793,NA,NA
11779,Suffolk County,NY,NA,NA,36.46288209606987,NA
11782,Suffolk County,NY,NA,NA,90.50218340611353,NA
11788,Suffolk County,NY,94.19953596287704,NA,66.15720524017468,NA
11797,Nassau County,NY,NA,NA,97.0524017467249,NA
11798,Suffolk County,NY,NA,46.206896551724135,NA,NA
11949,Suffolk County,NY,NA,71.72413793103448,NA,NA
11950,Suffolk County,NY,NA,59.6551724137931,NA,NA
11967,Suffolk County,NY,NA,NA,30.349344978165938,NA
12010,Montgomery County,NY,NA,NA,81.00436681222706,NA
12020,Saratoga County,NY,NA,45.51724137931035,NA,NA
12047,Albany County,NY,65.4292343387471,NA,94.86899563318777,NA
12065,Saratoga County,NY,NA,54.137931034482754,NA,NA
12118,Saratoga County,NY,NA,NA,79.58515283842796,NA
12180,Rensselaer County,NY,NA,NA,2.6200873362445414,38.034188034188034
12182,Rensselaer County,NY,NA,NA,93.01310043668121,NA
12205,Albany County,NY,93.50348027842227,NA,NA,NA
12206,Albany County,NY,NA,NA,65.50218340611353,NA
12304,Schenectady County,NY,NA,NA,58.07860262008734,38.46153846153847
12306,Schenectady County,NY,NA,NA,30.89519650655022,NA
12401,Ulster County,NY,NA,15.862068965517242,66.48471615720524,NA
12563,Putnam County,NY,95.35962877030161,NA,NA,NA
12571,Dutchess County,NY,NA,NA,94.97816593886463,NA
12601,Dutchess County,NY,NA,10.689655172413794,NA,NA
12603,Dutchess County,NY,NA,NA,69.86899563318777,52.991452991452995
12828,Washington County,NY,NA,94.82758620689656,NA,NA
12901,Clinton County,NY,38.97911832946635,NA,NA,NA
13021,Cayuga County,NY,NA,NA,NA,1.282051282051282
13027,Onondaga County,NY,NA,NA,13.537117903930133,NA
13069,Oswego County,NY,78.42227378190255,NA,87.66375545851528,89.31623931623932
13078,Onondaga County,NY,NA,NA,51.85589519650655,NA
13114,Oswego County,NY,NA,NA,97.48908296943232,75.21367521367522
13116,Onondaga County,NY,NA,NA,87.44541484716157,NA
13126,Oswego County,NY,NA,32.41379310344827,85.04366812227074,NA
13142,Oswego County,NY,NA,NA,63.97379912663755,NA
13148,Seneca County,NY,NA,89.3103448275862,NA,NA
13203,Onondaga County,NY,NA,NA,18.88646288209607,NA
13211,Onondaga County,NY,NA,74.48275862068967,NA,NA
13212,Onondaga County,NY,57.540603248259856,NA,NA,NA
13350,Herkimer County,NY,20.417633410672853,NA,NA,NA
13440,Oneida County,NY,NA,NA,2.292576419213974,5.555555555555555
13619,Jefferson County,NY,11.36890951276102,NA,NA,NA
13655,St. Lawrence County,NY,NA,NA,79.03930131004367,NA
13662,St. Lawrence County,NY,48.49187935034803,NA,NA,NA
13667,St. Lawrence County,NY,85.61484918793504,NA,78.93013100436681,NA
13669,St. Lawrence County,NY,NA,NA,NA,21.794871794871796
13730,Chenango County,NY,92.80742459396751,NA,NA,NA
13850,Broome County,NY,93.27146171693735,NA,NA,NA
13905,Broome County,NY,13.225058004640372,NA,NA,NA
14004,Erie County,NY,NA,NA,56.222707423580786,NA
14094,Niagara County,NY,NA,NA,2.4017467248908297,NA
14120,Niagara County,NY,21.57772621809745,NA,NA,NA
14202,Erie County,NY,NA,NA,79.25764192139738,NA
14210,Erie County,NY,NA,NA,24.67248908296943,NA
14211,Erie County,NY,NA,51.37931034482759,NA,NA
14214,Erie County,NY,24.361948955916475,NA,NA,NA
14215,Erie County,NY,NA,NA,82.86026200873363,NA
14218,Erie County,NY,NA,NA,45.96069868995633,NA
14223,Erie County,NY,36.89095127610209,NA,NA,NA
14224,Erie County,NY,NA,NA,24.017467248908297,NA
14304,Niagara County,NY,NA,NA,37.55458515283843,2.9914529914529915
14470,Orleans County,NY,NA,NA,42.5764192139738,NA
14502,Wayne County,NY,NA,92.06896551724138,NA,NA
14513,Wayne County,NY,NA,NA,78.27510917030568,67.94871794871796
14532,Ontario County,NY,NA,NA,75.43668122270742,NA
14559,Monroe County,NY,64.2691415313225,NA,NA,NA
14572,Steuben County,NY,NA,NA,74.78165938864629,NA
14607,Monroe County,NY,NA,NA,73.36244541484717,NA
14611,Monroe County,NY,NA,NA,7.423580786026202,NA
14612,Monroe County,NY,NA,NA,2.5109170305676853,0.8547008547008548
14613,Monroe County,NY,NA,NA,11.244541484716157,NA
14616,Monroe County,NY,49.187935034802784,NA,4.039301310043668,NA
14618,Monroe County,NY,50.34802784222738,NA,NA,NA
14620,Monroe County,NY,NA,NA,75.21834061135371,NA
14621,Monroe County,NY,0.46403712296983757,8.275862068965518,NA,NA
14623,Monroe County,NY,NA,69.6551724137931,NA,NA
14701,Chautauqua County,NY,2.5522041763341066,26.20689655172414,NA,NA
14706,Cattaraugus County,NY,67.05336426914154,NA,NA,NA
14727,Allegany County,NY,NA,NA,69.65065502183407,NA
14737,Cattaraugus County,NY,77.03016241299304,NA,NA,NA
14760,Cattaraugus County,NY,10.904872389791183,NA,NA,NA
14850,Tompkins County,NY,NA,NA,5.786026200873363,NA
14867,Tompkins County,NY,NA,NA,56.87772925764192,NA
14870,Steuben County,NY,NA,NA,87.00873362445415,NA
14895,Allegany County,NY,53.1322505800464,NA,NA,NA
14901,Chemung County,NY,NA,NA,28.49344978165939,NA
27012,Forsyth County,NC,NA,NA,28.711790393013096,NA
27013,Rowan County,NC,67.05336426914154,NA,NA,NA
27030,Surry County,NC,1.6241299303944314,NA,NA,NA
27045,Forsyth County,NC,NA,91.72413793103448,NA,NA
27104,Forsyth County,NC,NA,NA,NA,6.837606837606838
27214,Guilford County,NC,65.66125290023201,NA,NA,NA
27292,Davidson County,NC,6.728538283062645,NA,NA,NA
27295,Davidson County,NC,NA,22.413793103448278,NA,NA
27350,Randolph County,NC,NA,NA,88.53711790393012,NA
27401,Guilford County,NC,NA,NA,26.965065502183407,NA
27403,Guilford County,NC,NA,NA,62.772925764192145,NA
27407,Guilford County,NC,NA,34.13793103448276,NA,NA
27408,Guilford County,NC,NA,NA,NA,77.35042735042735
27455,Guilford County,NC,NA,NA,44.86899563318777,NA
27514,Orange County,NC,NA,NA,54.03930131004366,NA
27516,Orange County,NC,NA,NA,29.148471615720524,NA
27536,Vance County,NC,NA,NA,27.183406113537117,NA
27705,Durham County,NC,45.707656612529,NA,NA,NA
27712,Durham County,NC,NA,NA,66.5938864628821,NA
27834,Pitt County,NC,NA,NA,7.532751091703056,NA
27910,Hertford County,NC,NA,NA,36.135371179039296,NA
28001,Stanly County,NC,NA,NA,81.4410480349345,NA
28012,Gaston County,NC,61.94895591647332,NA,NA,NA
28092,Lincoln County,NC,NA,NA,NA,13.675213675213676
28110,Union County,NC,18.561484918793504,NA,NA,NA
28210,Mecklenburg County,NC,NA,NA,48.25327510917031,NA
28213,Mecklenburg County,NC,NA,NA,54.366812227074234,NA
28215,Mecklenburg County,NC,NA,NA,15.283842794759824,NA
28217,Mecklenburg County,NC,21.809744779582367,NA,NA,NA
28273,Mecklenburg County,NC,NA,NA,39.737991266375545,NA
28304,Cumberland County,NC,NA,NA,29.148471615720524,NA
28314,Cumberland County,NC,NA,NA,28.93013100436681,NA
28364,Robeson County,NC,NA,NA,40.06550218340612,NA
28401,New Hanover County,NC,12.529002320185615,NA,72.59825327510917,NA
28601,Catawba County,NC,NA,NA,NA,10.256410256410255
28625,Iredell County,NC,NA,NA,16.812227074235807,NA
28681,Alexander County,NC,NA,NA,19.759825327510917,NA
28711,Buncombe County,NC,62.18097447795824,NA,NA,NA
28716,Haywood County,NC,38.51508120649652,NA,45.5240174672489,NA
28731,Henderson County,NC,NA,91.0344827586207,NA,NA
28778,Buncombe County,NC,NA,NA,82.53275109170306,NA
58078,Cass County,ND,NA,NA,53.930131004366814,NA
58501,Burleigh County,ND,NA,NA,47.48908296943232,NA
58554,Morton County,ND,9.51276102088167,NA,NA,NA
58701,Ward County,ND,NA,NA,NA,9.401709401709402
58763,Mountrail County,ND,NA,NA,93.88646288209607,NA
43015,Delaware County,OH,5.104408352668213,NA,NA,NA
43025,Licking County,OH,NA,NA,87.882096069869,NA
43068,Franklin County,OH,NA,NA,33.07860262008734,NA
43072,Champaign County,OH,NA,94.13793103448276,NA,NA
43113,Pickaway County,OH,NA,NA,13.755458515283841,NA
43160,Fayette County,OH,NA,NA,12.882096069868995,NA
43204,Franklin County,OH,NA,NA,40.174672489082965,47.43589743589743
43206,Franklin County,OH,28.306264501160094,NA,NA,NA
43215,Franklin County,OH,21.34570765661253,NA,NA,NA
43224,Franklin County,OH,NA,NA,24.344978165938866,NA
43228,Franklin County,OH,NA,2.7586206896551726,NA,NA
43230,Franklin County,OH,4.872389791183294,NA,15.72052401746725,NA
43449,Ottawa County,OH,NA,NA,65.72052401746726,NA
43465,Wood County,OH,NA,NA,74.12663755458514,NA
43551,Wood County,OH,NA,NA,13.209606986899564,NA
43607,Lucas County,OH,NA,NA,6.6593886462882095,NA
43611,Lucas County,OH,NA,NA,13.973799126637553,NA
43613,Lucas County,OH,33.17865429234338,NA,4.366812227074235,NA
43614,Lucas County,OH,64.73317865429235,NA,NA,NA
43615,Lucas County,OH,NA,NA,4.475982532751091,NA
43713,Belmont County,OH,64.96519721577727,NA,NA,NA
43912,Belmont County,OH,NA,NA,49.23580786026201,NA
43917,Jefferson County,OH,87.23897911832947,NA,NA,NA
43947,Belmont County,OH,NA,87.24137931034483,NA,NA
43950,Belmont County,OH,24.593967517401392,NA,NA,NA
44011,Lorain County,OH,NA,NA,28.82096069868996,NA
44017,Cuyahoga County,OH,NA,NA,NA,36.75213675213676
44026,Geauga County,OH,NA,NA,95.63318777292577,NA
44052,Lorain County,OH,NA,NA,3.2751091703056767,NA
44092,Lake County,OH,NA,NA,38.53711790393013,NA
44102,Cuyahoga County,OH,NA,5.862068965517241,0.10917030567685589,NA
44103,Cuyahoga County,OH,NA,NA,NA,12.82051282051282
44106,Cuyahoga County,OH,NA,NA,99.235807860262,14.529914529914532
44108,Cuyahoga County,OH,NA,NA,82.31441048034934,NA
44109,Cuyahoga County,OH,NA,2.413793103448276,0.21834061135371177,NA
44111,Cuyahoga County,OH,NA,NA,NA,2.1367521367521367
44112,Cuyahoga County,OH,NA,NA,NA,4.273504273504273
44113,Cuyahoga County,OH,77.7262180974478,NA,NA,NA
44114,Cuyahoga County,OH,NA,NA,59.60698689956332,NA
44119,Cuyahoga County,OH,NA,NA,19.868995633187772,NA
44122,Cuyahoga County,OH,NA,NA,22.161572052401745,NA
44130,Cuyahoga County,OH,NA,9.310344827586208,21.724890829694324,NA
44131,Cuyahoga County,OH,NA,NA,NA,18.803418803418804
44133,Cuyahoga County,OH,32.01856148491879,NA,83.07860262008734,43.162393162393165
44135,Cuyahoga County,OH,NA,NA,NA,8.11965811965812
44144,Cuyahoga County,OH,NA,65.51724137931035,11.572052401746726,NA
44147,Cuyahoga County,OH,NA,70.34482758620689,NA,NA
44149,Cuyahoga County,OH,NA,NA,NA,17.52136752136752
44202,Portage County,OH,NA,NA,30.786026200873362,NA
44212,Medina County,OH,NA,50.689655172413794,NA,NA
44224,Summit County,OH,NA,NA,50,NA
44236,Summit County,OH,NA,61.03448275862069,NA,NA
44256,Medina County,OH,8.352668213457076,NA,NA,NA
44266,Portage County,OH,NA,NA,NA,7.264957264957266
44278,Summit County,OH,NA,NA,54.25764192139738,NA
44307,Summit County,OH,NA,NA,41.70305676855895,NA
44440,Trumbull County,OH,97.21577726218096,NA,NA,NA
44483,Trumbull County,OH,NA,NA,15.829694323144105,NA
44512,Mahoning County,OH,NA,NA,NA,14.102564102564102
44601,Stark County,OH,NA,10.689655172413794,NA,NA
44647,Stark County,OH,NA,NA,NA,72.22222222222221
44654,Holmes County,OH,NA,NA,NA,75.64102564102564
44718,Stark County,OH,NA,NA,75.764192139738,NA
44805,Ashland County,OH,NA,NA,12.336244541484715,NA
44830,Seneca County,OH,15.777262180974477,NA,NA,NA
44833,Crawford County,OH,NA,NA,59.93449781659389,NA
44903,Richland County,OH,NA,18.275862068965516,NA,NA
45011,Butler County,OH,6.2645011600928076,NA,NA,NA
45036,Warren County,OH,88.39907192575406,NA,19.978165938864628,NA
45040,Warren County,OH,6.0324825986078885,NA,NA,NA
45044,Butler County,OH,NA,NA,23.799126637554586,NA
45050,Butler County,OH,NA,NA,83.51528384279476,NA
45056,Butler County,OH,NA,62.41379310344828,NA,NA
45102,Clermont County,OH,NA,43.44827586206896,NA,NA
45103,Clermont County,OH,NA,17.24137931034483,NA,NA
45122,Clermont County,OH,61.25290023201856,NA,NA,NA
45154,Brown County,OH,NA,NA,73.14410480349345,NA
45202,Hamilton County,OH,NA,NA,19.432314410480352,NA
45208,Hamilton County,OH,NA,NA,78.49344978165938,NA
45212,Hamilton County,OH,NA,NA,57.751091703056765,NA
45214,Hamilton County,OH,97.4477958236659,33.44827586206897,NA,NA
45216,Hamilton County,OH,NA,NA,77.83842794759825,NA
45224,Hamilton County,OH,NA,28.27586206896552,NA,NA
45225,Hamilton County,OH,NA,78.96551724137932,NA,NA
45229,Hamilton County,OH,NA,25.862068965517242,NA,NA
45231,Hamilton County,OH,NA,15.172413793103448,NA,NA
45232,Hamilton County,OH,NA,60.3448275862069,86.57205240174673,NA
45237,Hamilton County,OH,NA,20,NA,NA
45238,Hamilton County,OH,20.185614849187935,13.793103448275861,NA,NA
45239,Hamilton County,OH,45.47563805104408,23.103448275862068,NA,NA
45240,Hamilton County,OH,5.336426914153132,NA,NA,NA
45241,Hamilton County,OH,45.93967517401392,NA,NA,NA
45251,Hamilton County,OH,NA,54.82758620689655,NA,NA
45318,Miami County,OH,NA,NA,NA,84.61538461538461
45331,Darke County,OH,NA,NA,24.781659388646286,NA
45347,Preble County,OH,NA,NA,71.94323144104804,NA
45420,Montgomery County,OH,NA,27.93103448275862,NA,NA
45638,Lawrence County,OH,NA,NA,5.349344978165939,NA
45697,Adams County,OH,NA,NA,94.21397379912663,NA
45750,Washington County,OH,2.320185614849188,NA,NA,NA
45805,Allen County,OH,NA,NA,12.882096069868995,25.64102564102564
45807,Allen County,OH,NA,NA,56.98689956331878,NA
45840,Hancock County,OH,NA,NA,3.384279475982533,NA
73034,Oklahoma County,OK,NA,73.44827586206897,NA,NA
73044,Logan County,OK,17.16937354988399,NA,NA,NA
73049,Oklahoma County,OK,NA,NA,NA,77.77777777777779
73077,Noble County,OK,NA,89.3103448275862,NA,NA
73108,Oklahoma County,OK,NA,NA,60.58951965065502,NA
73120,Oklahoma County,OK,NA,82.41379310344827,NA,NA
73132,Oklahoma County,OK,NA,NA,50.21834061135371,42.73504273504273
73159,Oklahoma County,OK,41.29930394431555,NA,NA,NA
73179,Oklahoma County,OK,NA,NA,NA,97.43589743589743
73507,Comanche County,OK,33.64269141531322,NA,NA,NA
73701,Garfield County,OK,45.011600928074245,NA,41.81222707423581,76.06837606837607
73801,Woodward County,OK,NA,67.24137931034483,NA,NA
74023,Payne County,OK,NA,NA,59.71615720524017,NA
74037,Tulsa County,OK,NA,NA,93.12227074235808,NA
74075,Payne County,OK,NA,NA,56.00436681222707,NA
74107,Tulsa County,OK,NA,NA,57.64192139737992,NA
74110,Tulsa County,OK,49.419953596287705,NA,NA,NA
74133,Tulsa County,OK,NA,NA,29.475982532751093,20.94017094017094
74135,Tulsa County,OK,59.86078886310905,NA,NA,NA
74401,Muskogee County,OK,NA,NA,70.08733624454149,NA
74820,Pontotoc County,OK,NA,NA,8.73362445414847,NA
74884,Seminole County,OK,NA,NA,88.97379912663756,NA
97030,Multnomah County,OR,NA,NA,17.358078602620086,NA
97045,Clackamas County,OR,NA,57.931034482758626,NA,NA
97206,Multnomah County,OR,NA,NA,13.427947598253276,NA
97229,Washington County,OR,5.800464037122969,NA,NA,NA
97322,Linn County,OR,NA,81.37931034482759,NA,NA
97477,Lane County,OR,NA,NA,23.034934497816593,NA
97520,Jackson County,OR,NA,NA,76.85589519650655,NA
97527,Josephine County,OR,NA,NA,40.61135371179039,NA
97701,Deschutes County,OR,NA,NA,56.00436681222707,NA
97703,Deschutes County,OR,70.30162412993039,NA,NA,NA
15009,Beaver County,PA,88.16705336426914,NA,NA,NA
15010,Beaver County,PA,NA,NA,20.851528384279476,NA
15108,Allegheny County,PA,NA,NA,84.17030567685589,NA
15112,Allegheny County,PA,NA,75.51724137931033,NA,NA
15132,Allegheny County,PA,NA,40.3448275862069,11.353711790393014,NA
15136,Allegheny County,PA,NA,NA,28.27510917030568,NA
15146,Allegheny County,PA,NA,47.93103448275862,43.5589519650655,NA
15148,Allegheny County,PA,NA,82.75862068965517,NA,NA
15202,Allegheny County,PA,NA,68.27586206896552,NA,NA
15207,Allegheny County,PA,NA,NA,53.60262008733624,NA
15212,Allegheny County,PA,NA,NA,23.362445414847162,NA
15220,Allegheny County,PA,NA,NA,83.73362445414847,NA
15221,Allegheny County,PA,NA,NA,NA,23.931623931623932
15222,Allegheny County,PA,NA,NA,81.55021834061135,NA
15236,Allegheny County,PA,83.06264501160094,NA,NA,NA
15238,Allegheny County,PA,NA,NA,92.13973799126637,50.427350427350426
15301,Washington County,PA,NA,NA,25.982532751091703,5.128205128205128
15401,Fayette County,PA,NA,NA,30.021834061135372,NA
15417,Fayette County,PA,NA,78.96551724137932,NA,NA
15601,Westmoreland County,PA,64.2691415313225,NA,71.72489082969432,NA
15642,Westmoreland County,PA,NA,NA,NA,5.982905982905983
15644,Westmoreland County,PA,NA,NA,55.45851528384279,NA
15650,Westmoreland County,PA,NA,48.275862068965516,NA,NA
15681,Indiana County,PA,NA,93.44827586206897,NA,NA
15801,Clearfield County,PA,NA,34.82758620689655,8.406113537117903,NA
15825,Jefferson County,PA,NA,NA,40.72052401746725,NA
15851,Jefferson County,PA,NA,NA,84.27947598253274,NA
15902,Cambria County,PA,39.675174013921115,NA,NA,NA
15931,Cambria County,PA,NA,NA,64.19213973799127,NA
16001,Butler County,PA,NA,NA,56.33187772925764,NA
16066,Butler County,PA,NA,NA,60.480349344978166,NA
16105,Lawrence County,PA,NA,NA,52.838427947598255,NA
16121,Mercer County,PA,NA,NA,65.93886462882097,NA
16148,Mercer County,PA,34.33874709976798,NA,NA,NA
16150,Mercer County,PA,NA,88.27586206896552,NA,NA
16201,Armstrong County,PA,NA,NA,89.8471615720524,NA
16214,Clarion County,PA,NA,NA,70.3056768558952,NA
16232,Clarion County,PA,NA,NA,90.28384279475983,NA
16314,Crawford County,PA,NA,NA,NA,85.04273504273505
16335,Crawford County,PA,NA,41.03448275862069,10.480349344978166,NA
16503,Erie County,PA,58.23665893271461,NA,NA,NA
16510,Erie County,PA,NA,63.10344827586207,NA,NA
16601,Blair County,PA,NA,NA,9.388646288209607,NA
16625,Blair County,PA,NA,99.6551724137931,NA,NA
16648,Blair County,PA,NA,NA,53.38427947598253,NA
16651,Clearfield County,PA,NA,NA,88.20960698689956,NA
16652,Huntingdon County,PA,NA,NA,66.70305676855895,NA
16827,Centre County,PA,NA,NA,97.81659388646288,NA
16915,Potter County,PA,NA,93.10344827586206,NA,NA
17013,Cumberland County,PA,NA,47.241379310344826,NA,NA
17019,York County,PA,NA,NA,59.279475982532745,NA
17020,Perry County,PA,NA,NA,75,NA
17044,Mifflin County,PA,NA,NA,12.117903930131005,NA
17057,Dauphin County,PA,NA,NA,NA,93.58974358974359
17103,Dauphin County,PA,79.81438515081206,56.896551724137936,NA,NA
17104,Dauphin County,PA,NA,NA,62.55458515283843,NA
17257,Cumberland County,PA,NA,NA,22.816593886462883,NA
17315,York County,PA,NA,NA,55.895196506550214,NA
17325,Adams County,PA,NA,NA,69.97816593886463,NA
17327,York County,PA,NA,NA,82.96943231441048,NA
17361,York County,PA,NA,NA,NA,86.32478632478633
17362,York County,PA,74.0139211136891,NA,NA,NA
17403,York County,PA,NA,NA,3.711790393013101,NA
17404,York County,PA,42.459396751740144,NA,NA,NA
17522,Lancaster County,PA,NA,NA,24.23580786026201,NA
17545,Lancaster County,PA,NA,NA,NA,98.71794871794873
17603,Lancaster County,PA,NA,NA,9.497816593886462,NA
17756,Lycoming County,PA,NA,65.86206896551724,NA,NA
17815,Columbia County,PA,NA,NA,NA,11.11111111111111
17901,Schuylkill County,PA,NA,NA,NA,74.35897435897436
17963,Schuylkill County,PA,NA,NA,75.764192139738,NA
18015,Northampton County,PA,NA,36.896551724137936,NA,NA
18040,Northampton County,PA,82.5986078886311,NA,64.30131004366812,NA
18041,Montgomery County,PA,100,NA,NA,NA
18052,Lehigh County,PA,NA,NA,64.95633187772926,NA
18058,Monroe County,PA,NA,83.44827586206897,NA,NA
18062,Lehigh County,PA,NA,NA,41.04803493449782,NA
18091,Northampton County,PA,NA,NA,79.91266375545851,NA
18102,Lehigh County,PA,6.728538283062645,NA,NA,NA
18103,Lehigh County,PA,NA,NA,6.11353711790393,NA
18235,Carbon County,PA,35.266821345707655,NA,NA,NA
18252,Schuylkill County,PA,81.20649651972158,NA,NA,NA
18301,Monroe County,PA,NA,NA,32.314410480349345,NA
18411,Lackawanna County,PA,35.96287703016242,NA,NA,NA
18421,Susquehanna County,PA,NA,95.17241379310344,NA,NA
18512,Lackawanna County,PA,NA,NA,57.42358078602619,NA
18519,Lackawanna County,PA,NA,NA,94.65065502183407,NA
18643,Luzerne County,PA,71.92575406032483,NA,NA,NA
18702,Luzerne County,PA,12.761020881670534,NA,7.969432314410481,NA
18705,Luzerne County,PA,NA,NA,48.47161572052402,NA
18840,Bradford County,PA,NA,80.3448275862069,NA,NA
18848,Bradford County,PA,NA,NA,74.34497816593887,NA
18951,Bucks County,PA,NA,NA,18.995633187772924,NA
18960,Bucks County,PA,79.35034802784223,NA,NA,NA
19013,Delaware County,PA,NA,12.413793103448276,NA,NA
19018,Delaware County,PA,22.73781902552204,NA,25.87336244541485,NA
19026,Delaware County,PA,NA,NA,17.5764192139738,NA
19027,Montgomery County,PA,NA,NA,NA,34.61538461538461
19040,Montgomery County,PA,NA,NA,NA,43.58974358974359
19055,Bucks County,PA,66.35730858468676,NA,NA,NA
19061,Delaware County,PA,83.9907192575406,NA,NA,NA
19063,Delaware County,PA,NA,NA,50.109170305676855,NA
19082,Delaware County,PA,NA,NA,10.698689956331878,NA
19086,Delaware County,PA,NA,NA,82.64192139737992,NA
19087,Chester County,PA,22.2737819025522,NA,NA,NA
19102,Philadelphia County,PA,NA,38.275862068965516,NA,NA
19111,Philadelphia County,PA,NA,NA,4.585152838427948,NA
19121,Philadelphia County,PA,NA,NA,9.06113537117904,NA
19125,Philadelphia County,PA,NA,NA,44.10480349344978,NA
19131,Philadelphia County,PA,62.64501160092807,NA,NA,NA
19134,Philadelphia County,PA,NA,NA,3.820960698689956,NA
19135,Philadelphia County,PA,NA,20.689655172413794,41.48471615720524,NA
19136,Philadelphia County,PA,NA,NA,10.91703056768559,NA
19141,Philadelphia County,PA,NA,36.55172413793103,NA,NA
19143,Philadelphia County,PA,NA,NA,1.3100436681222707,NA
19144,Philadelphia County,PA,NA,NA,21.943231441048034,NA
19311,Chester County,PA,NA,NA,81.87772925764192,NA
19320,Chester County,PA,2.088167053364269,NA,NA,NA
19380,Chester County,PA,23.4338747099768,NA,NA,NA
19401,Montgomery County,PA,NA,NA,31.4410480349345,NA
19403,Montgomery County,PA,17.865429234338748,NA,NA,NA
19422,Montgomery County,PA,55.22041763341067,NA,91.0480349344978,NA
19426,Montgomery County,PA,NA,NA,32.20524017467249,NA
19464,Montgomery County,PA,35.03480278422274,NA,NA,NA
19604,Berks County,PA,NA,8.96551724137931,NA,NA
19606,Berks County,PA,NA,NA,NA,4.700854700854701
19610,Berks County,PA,78.65429234338747,NA,NA,NA
02852,Washington County,RI,43.38747099767982,NA,NA,26.495726495726498
02861,Providence County,RI,NA,NA,29.58515283842795,NA
02920,Providence County,RI,31.786542923433874,NA,NA,NA
29203,Richland County,SC,NA,NA,34.71615720524017,NA
29223,Richland County,SC,26.450116009280745,NA,NA,NA
29307,Spartanburg County,SC,NA,NA,56.55021834061136,NA
29335,Spartanburg County,SC,91.87935034802784,NA,NA,NA
29405,Charleston County,SC,NA,NA,26.31004366812227,NA
29464,Charleston County,SC,46.8677494199536,NA,39.30131004366812,NA
29625,Anderson County,SC,29.698375870069604,NA,NA,NA
29709,Chesterfield County,SC,NA,NA,83.62445414847161,96.15384615384616
57103,Minnehaha County,SD,NA,NA,22.37991266375546,NA
57105,Minnehaha County,SD,20.649651972157773,NA,42.467248908296945,NA
57380,Charles Mix County,SD,NA,60,NA,NA
37086,Rutherford County,TN,18.329466357308586,NA,NA,NA
37129,Rutherford County,TN,44.08352668213457,NA,NA,NA
37130,Rutherford County,TN,NA,NA,20.087336244541483,NA
37187,Dickson County,TN,NA,NA,71.39737991266377,NA
37208,Davidson County,TN,NA,NA,24.45414847161572,NA
37212,Davidson County,TN,NA,NA,99.56331877729258,NA
37214,Davidson County,TN,NA,NA,54.69432314410481,53.41880341880342
37217,Davidson County,TN,NA,NA,69.43231441048034,NA
37228,Davidson County,TN,NA,62.06896551724138,NA,NA
37303,McMinn County,TN,NA,NA,50.76419213973799,NA
37343,Hamilton County,TN,NA,NA,90.61135371179039,NA
37363,Hamilton County,TN,NA,NA,37.22707423580786,NA
37397,Marion County,TN,71.92575406032483,NA,NA,NA
37406,Hamilton County,TN,NA,NA,61.35371179039302,NA
37415,Hamilton County,TN,NA,NA,NA,58.119658119658126
37601,Washington County,TN,14.849187935034802,NA,16.266375545851528,NA
37659,Washington County,TN,63.341067285382834,NA,NA,NA
37664,Sullivan County,TN,NA,52.06896551724138,NA,NA
37665,Sullivan County,TN,NA,NA,77.62008733624454,NA
37763,Roane County,TN,NA,NA,94.32314410480349,NA
37772,Loudon County,TN,NA,77.24137931034483,NA,NA
37821,Cocke County,TN,NA,NA,14.956331877729257,NA
37830,Anderson County,TN,NA,NA,95.52401746724891,NA
37879,Claiborne County,TN,69.60556844547564,NA,NA,NA
37924,Knox County,TN,NA,NA,83.84279475982532,NA
38112,Shelby County,TN,NA,NA,58.515283842794766,NA
38114,Shelby County,TN,NA,44.48275862068966,NA,NA
38118,Shelby County,TN,NA,12.413793103448276,NA,NA
38127,Shelby County,TN,NA,NA,9.27947598253275,NA
38301,Madison County,TN,NA,NA,9.934497816593886,NA
38305,Madison County,TN,NA,NA,76.52838427947599,NA
38320,Benton County,TN,NA,NA,70.41484716157204,NA
38506,Putnam County,TN,44.5475638051044,NA,NA,NA
75023,Collin County,TX,33.874709976798144,NA,NA,NA
75033,,TX,19.721577726218097,NA,NA,NA
75041,Dallas County,TX,NA,NA,39.737991266375545,NA
75087,Rockwall County,TX,30.8584686774942,NA,NA,NA
75090,Grayson County,TX,NA,NA,43.66812227074236,NA
75093,Collin County,TX,NA,NA,NA,32.05128205128205
75098,Collin County,TX,13.45707656612529,NA,NA,NA
75211,Dallas County,TX,5.56844547563805,NA,NA,NA
75236,Dallas County,TX,37.58700696055685,NA,NA,NA
75241,Dallas County,TX,NA,24.82758620689655,NA,NA
75243,Dallas County,TX,NA,NA,NA,42.30769230769231
75503,Bowie County,TX,NA,NA,46.83406113537118,NA
75662,Gregg County,TX,NA,NA,NA,32.9059829059829
75751,Henderson County,TX,NA,NA,43.01310043668122,NA
75773,Wood County,TX,NA,NA,NA,26.923076923076923
75790,Van Zandt County,TX,NA,NA,NA,80.34188034188034
75801,Anderson County,TX,NA,NA,58.515283842794766,NA
75840,Freestone County,TX,35.96287703016242,NA,NA,NA
75901,Angelina County,TX,NA,NA,33.51528384279476,NA
76010,Tarrant County,TX,NA,NA,NA,54.700854700854705
76022,Tarrant County,TX,NA,NA,89.30131004366812,NA
76028,Johnson County,TX,7.65661252900232,NA,NA,NA
76049,Hood County,TX,NA,NA,34.825327510917035,NA
76063,Tarrant County,TX,NA,NA,NA,13.247863247863249
76109,Tarrant County,TX,NA,NA,52.62008733624454,NA
76115,Tarrant County,TX,NA,39.310344827586206,NA,NA
76116,Tarrant County,TX,7.888631090487238,NA,NA,NA
76117,Tarrant County,TX,NA,NA,32.096069868995635,NA
76119,Tarrant County,TX,NA,NA,46.61572052401747,NA
76120,Tarrant County,TX,58.46867749419954,NA,NA,NA
76123,Tarrant County,TX,72.62180974477958,NA,87.22707423580786,NA
76133,Tarrant County,TX,NA,NA,18.66812227074236,NA
76148,Tarrant County,TX,NA,NA,67.79475982532752,NA
76180,Tarrant County,TX,NA,NA,80.45851528384279,NA
76301,Wichita County,TX,NA,NA,42.685589519650655,NA
76501,Bell County,TX,NA,NA,70.74235807860262,NA
76504,Bell County,TX,NA,NA,64.41048034934498,NA
76513,Bell County,TX,NA,NA,47.92576419213974,NA
76522,Coryell County,TX,NA,NA,41.26637554585153,NA
76633,McLennan County,TX,NA,NA,85.26200873362446,NA
76643,McLennan County,TX,NA,NA,66.8122270742358,NA
76667,Limestone County,TX,35.266821345707655,47.241379310344826,52.51091703056768,NA
76705,McLennan County,TX,15.31322505800464,NA,17.248908296943235,NA
76712,McLennan County,TX,NA,NA,NA,97.86324786324786
76904,Tom Green County,TX,NA,NA,NA,37.60683760683761
77033,Harris County,TX,NA,NA,NA,19.230769230769234
77054,Harris County,TX,96.51972157772622,NA,NA,NA
77065,Harris County,TX,NA,NA,NA,71.7948717948718
77076,Harris County,TX,NA,NA,49.454148471615724,NA
77090,Harris County,TX,NA,34.82758620689655,NA,NA
77377,Harris County,TX,NA,77.24137931034483,NA,NA
77469,Fort Bend County,TX,NA,NA,NA,33.76068376068376
77590,Galveston County,TX,NA,NA,12.663755458515283,NA
77598,Harris County,TX,39.675174013921115,62.41379310344828,NA,NA
77656,Hardin County,TX,69.37354988399072,NA,52.07423580786026,NA
77807,Brazos County,TX,NA,85.17241379310346,NA,NA
77845,Brazos County,TX,NA,NA,10.043668122270741,NA
77901,Victoria County,TX,NA,26.551724137931032,NA,NA
78216,Bexar County,TX,59.62877030162414,NA,38.97379912663755,NA
78221,Bexar County,TX,NA,29.655172413793103,NA,NA
78229,Bexar County,TX,NA,NA,47.70742358078602,NA
78245,Bexar County,TX,NA,NA,22.925764192139738,NA
78254,Bexar County,TX,44.08352668213457,NA,NA,NA
78384,Duval County,TX,NA,71.72413793103448,NA,NA
78413,Nueces County,TX,NA,NA,68.12227074235808,NA
78418,Nueces County,TX,NA,NA,67.57641921397381,NA
78526,Cameron County,TX,NA,NA,65.06550218340611,NA
78541,Hidalgo County,TX,NA,NA,45.414847161572055,NA
78542,Hidalgo County,TX,NA,7.241379310344828,NA,NA
78570,Hidalgo County,TX,NA,16.551724137931036,NA,NA
78574,Hidalgo County,TX,NA,1.0344827586206897,NA,NA
78577,Hidalgo County,TX,7.192575406032482,NA,NA,NA
78586,Cameron County,TX,NA,50,NA,NA
78589,Hidalgo County,TX,NA,55.86206896551724,NA,NA
78596,Hidalgo County,TX,NA,NA,68.77729257641921,NA
78599,Hidalgo County,TX,NA,22.06896551724138,NA,NA
78648,Caldwell County,TX,NA,NA,90.93886462882097,NA
78704,Travis County,TX,NA,NA,63.31877729257642,NA
78759,Travis County,TX,86.77494199535964,NA,NA,NA
79761,Ector County,TX,NA,NA,46.724890829694324,NA
79762,Ector County,TX,NA,NA,NA,40.598290598290596
79763,Ector County,TX,8.816705336426914,NA,NA,NA
79927,El Paso County,TX,41.067285382830626,NA,NA,NA
79936,El Paso County,TX,9.048723897911833,NA,NA,NA
84003,Utah County,UT,NA,NA,39.082969432314414,NA
84120,Salt Lake County,UT,NA,NA,8.187772925764191,NA
84664,Utah County,UT,88.63109048723898,NA,NA,NA
20190,Fairfax County,VA,NA,NA,79.6943231441048,NA
22033,Fairfax County,VA,NA,NA,55.24017467248908,NA
22305,Alexandria city,VA,58.0046403712297,NA,NA,NA
22310,Fairfax County,VA,NA,NA,48.90829694323144,NA
22802,Harrisonburg city,VA,16.009280742459396,NA,NA,NA
22968,Greene County,VA,NA,NA,57.96943231441048,NA
22973,Greene County,VA,NA,74.82758620689656,NA,NA
23024,Louisa County,VA,NA,NA,86.02620087336244,NA
23072,Gloucester County,VA,NA,NA,96.50655021834062,NA
23229,Henrico County,VA,NA,NA,62.99126637554585,NA
23434,Suffolk city,VA,15.081206496519723,NA,NA,NA
23462,Virginia Beach city,VA,11.600928074245939,NA,NA,NA
24012,Roanoke city,VA,27.1461716937355,NA,NA,NA
24015,Roanoke city,VA,71.6937354988399,NA,NA,NA
24073,Montgomery County,VA,NA,NA,37.882096069869,NA
24121,Bedford County,VA,90.71925754060325,NA,NA,NA
24179,Roanoke County,VA,62.18097447795824,NA,NA,NA
24315,Bland County,VA,99.53596287703016,NA,NA,NA
24426,Alleghany County,VA,NA,NA,43.23144104803494,NA
24540,Danville city,VA,NA,NA,26.637554585152838,NA
24590,Albemarle County,VA,60.78886310904872,NA,93.99563318777294,NA
24609,Tazewell County,VA,NA,NA,54.366812227074234,NA
98001,King County,WA,NA,NA,37.99126637554585,NA
98036,Snohomish County,WA,NA,NA,NA,39.743589743589745
98204,Snohomish County,WA,NA,48.275862068965516,NA,NA
98270,Snohomish County,WA,27.610208816705335,NA,NA,NA
98275,Snohomish County,WA,38.97911832946635,NA,NA,NA
98371,Pierce County,WA,NA,NA,61.02620087336245,NA
98387,Pierce County,WA,NA,NA,22.59825327510917,NA
98390,Pierce County,WA,NA,NA,NA,70.51282051282051
98498,Pierce County,WA,30.62645011600928,NA,NA,NA
98501,Thurston County,WA,NA,NA,61.68122270742358,NA
98531,Lewis County,WA,NA,57.931034482758626,NA,NA
98597,Thurston County,WA,65.89327146171694,NA,NA,NA
98662,Clark County,WA,NA,NA,92.46724890829694,NA
98822,Chelan County,WA,NA,NA,NA,99.57264957264957
98948,Yakima County,WA,NA,NA,NA,70.94017094017094
99022,Spokane County,WA,NA,NA,98.7991266375546,NA
99037,Spokane County,WA,74.70997679814386,NA,NA,NA
20002,District of Columbia,DC,NA,NA,6.004366812227074,NA
20003,District of Columbia,DC,NA,44.827586206896555,NA,NA
20019,District of Columbia,DC,NA,NA,35.262008733624455,NA
20020,District of Columbia,DC,NA,NA,2.7292576419213974,NA
25309,Kanawha County,WV,NA,NA,62.117903930131,NA
25401,Berkeley County,WV,NA,NA,NA,66.23931623931624
25801,Raleigh County,WV,NA,NA,12.445414847161572,10.683760683760683
26003,Ohio County,WV,NA,NA,6.222707423580786,NA
26101,Wood County,WV,NA,NA,5.567685589519651,NA
26201,Upshur County,WV,NA,NA,21.61572052401747,NA
53005,Waukesha County,WI,7.424593967517401,NA,36.353711790393014,NA
53090,Washington County,WI,NA,NA,58.406113537117896,NA
53094,Jefferson County,WI,NA,NA,NA,28.205128205128204
53105,Racine County,WI,NA,46.206896551724135,NA,NA
53121,Walworth County,WI,NA,NA,39.41048034934498,NA
53142,Kenosha County,WI,NA,NA,32.96943231441048,NA
53151,Waukesha County,WI,NA,NA,35.917030567685586,NA
53204,Milwaukee County,WI,NA,NA,66.0480349344978,NA
53205,Milwaukee County,WI,NA,NA,3.1659388646288207,NA
53209,Milwaukee County,WI,NA,NA,31.004366812227076,NA
53214,Milwaukee County,WI,NA,NA,NA,11.965811965811966
53215,Milwaukee County,WI,NA,NA,5.131004366812228,NA
53217,Milwaukee County,WI,16.473317865429234,NA,NA,NA
53220,Milwaukee County,WI,NA,NA,73.47161572052401,NA
53222,Milwaukee County,WI,NA,39.6551724137931,51.637554585152834,NA
53223,Milwaukee County,WI,NA,38.62068965517241,NA,NA
53402,Racine County,WI,NA,NA,6.550218340611353,NA
53405,Racine County,WI,NA,NA,25.327510917030565,NA
53511,Rock County,WI,NA,NA,0.8733624454148471,NA
53532,Dane County,WI,NA,NA,63.31877729257642,NA
53538,Jefferson County,WI,NA,NA,NA,36.324786324786324
53548,Rock County,WI,55.91647331786543,NA,NA,24.786324786324787
53566,Green County,WI,NA,NA,NA,88.88888888888889
53590,Dane County,WI,NA,84.82758620689656,NA,NA
53711,Dane County,WI,NA,42.758620689655174,NA,15.81196581196581
53901,Columbia County,WI,NA,81.03448275862068,NA,NA
53950,Juneau County,WI,84.45475638051045,NA,NA,NA
54157,Marinette County,WI,NA,NA,74.89082969432314,NA
54313,Brown County,WI,54.292343387471,NA,NA,NA
54452,Lincoln County,WI,NA,91.37931034482759,NA,NA
54455,Marathon County,WI,NA,NA,66.37554585152839,NA
54456,Clark County,WI,91.64733178654292,NA,NA,NA
54476,Marathon County,WI,NA,NA,72.27074235807859,65.38461538461539
54601,La Crosse County,WI,NA,NA,7.751091703056769,43.58974358974359
54650,La Crosse County,WI,NA,NA,NA,8.547008547008547
54727,Chippewa County,WI,NA,NA,93.12227074235808,NA
54751,Dunn County,WI,NA,NA,76.09170305676855,NA
54848,Rusk County,WI,NA,NA,NA,82.90598290598291
54901,Winnebago County,WI,NA,68.96551724137932,25.982532751091703,NA
82240,Goshen County,WY,92.5754060324826,NA,NA,NA
