ZipCode,county,state,Adult,Retirement,Geriatric
35010,Tallapoosa County,AL,29.491525423728817,NA,NA
35023,Jefferson County,AL,NA,10.030165912518854,NA
35033,Cullman County,AL,NA,98.71794871794873,NA
35046,Chilton County,AL,NA,81.07088989441931,NA
35077,Cullman County,AL,NA,61.16138763197587,NA
35079,Blount County,AL,85.50847457627118,NA,NA
35117,Jefferson County,AL,84.83050847457628,NA,NA
35124,Shelby County,AL,NA,30.46757164404223,NA
35208,Jefferson County,AL,NA,NA,77.53623188405797
35212,Jefferson County,AL,NA,82.50377073906485,NA
35243,Jefferson County,AL,74.7457627118644,NA,NA
35474,Hale County,AL,NA,80.6184012066365,NA
35633,Lauderdale County,AL,NA,53.16742081447964,NA
35645,Lauderdale County,AL,NA,95.24886877828054,NA
35646,Colbert County,AL,95.50847457627118,NA,NA
35661,Colbert County,AL,NA,65.68627450980392,NA
35673,Morgan County,AL,61.94915254237288,NA,NA
35749,Madison County,AL,NA,47.134238310708895,NA
35757,Madison County,AL,NA,70.2865761689291,NA
35763,Madison County,AL,NA,NA,69.20289855072464
35801,Madison County,AL,63.305084745762706,NA,NA
35810,Madison County,AL,NA,16.7420814479638,NA
35954,Etowah County,AL,NA,50,NA
35976,Marshall County,AL,40.42372881355932,77.97888386123681,NA
36033,Butler County,AL,96.94915254237289,NA,NA
36037,Butler County,AL,NA,55.88235294117647,NA
36092,Elmore County,AL,NA,76.8476621417798,NA
36093,Elmore County,AL,70.25423728813558,NA,NA
36201,Calhoun County,AL,NA,44.57013574660634,NA
36305,Houston County,AL,NA,57.54147812971342,NA
36375,Geneva County,AL,NA,69.1553544494721,NA
36526,Baldwin County,AL,45.08474576271186,NA,NA
36535,Baldwin County,AL,36.69491525423729,NA,NA
36571,Mobile County,AL,62.37288135593221,NA,NA
36608,Mobile County,AL,37.3728813559322,NA,NA
36863,Chambers County,AL,92.54237288135593,NA,NA
36869,Russell County,AL,74.91525423728814,NA,NA
36870,Lee County,AL,71.77966101694915,NA,NA
99577,Anchorage Municipality,AK,66.52542372881356,NA,NA
99603,Kenai Peninsula Borough,AK,NA,86.57616892911011,NA
99669,Kenai Peninsula Borough,AK,65.42372881355932,77.22473604826547,NA
99705,Fairbanks North Star Borough,AK,NA,85.67119155354449,NA
99712,Fairbanks North Star Borough,AK,75.59322033898304,NA,NA
99835,Sitka City and Borough,AK,NA,71.71945701357465,NA
99901,Ketchikan Gateway Borough,AK,35.08474576271187,NA,NA
85014,Maricopa County,AZ,38.389830508474574,NA,NA
85018,Maricopa County,AZ,NA,66.13876319758673,NA
85021,Maricopa County,AZ,52.88135593220339,NA,NA
85041,Maricopa County,AZ,NA,20.060331825037707,NA
85048,Maricopa County,AZ,NA,57.39064856711915,NA
85053,Maricopa County,AZ,NA,53.01659125188537,NA
85086,Maricopa County,AZ,NA,34.31372549019608,NA
85087,Maricopa County,AZ,NA,87.33031674208145,NA
85118,Pinal County,AZ,93.47457627118644,NA,NA
85205,Maricopa County,AZ,NA,20.66365007541478,NA
85213,Maricopa County,AZ,54.83050847457627,NA,NA
85224,Maricopa County,AZ,NA,38.23529411764706,NA
85233,Maricopa County,AZ,NA,48.114630467571644,NA
85251,Maricopa County,AZ,NA,47.28506787330316,NA
85258,Maricopa County,AZ,NA,76.696832579185525,NA
85259,Maricopa County,AZ,75.16949152542372,69.90950226244344,NA
85260,Maricopa County,AZ,NA,32.880844645550525,NA
85304,Maricopa County,AZ,NA,58.748114630467576,NA
85310,Maricopa County,AZ,69.74576271186442,NA,NA
85326,Maricopa County,AZ,NA,36.80241327300151,NA
85351,Maricopa County,AZ,NA,33.710407239819006,NA
85365,Yuma County,AZ,23.050847457627118,NA,NA
85375,Maricopa County,AZ,NA,18.099547511312217,NA
85382,Maricopa County,AZ,NA,38.009049773755656,NA
85546,Graham County,AZ,NA,89.74358974358975,NA
85614,Pima County,AZ,NA,15.535444947209653,NA
85615,Cochise County,AZ,NA,72.473604826546,NA
85710,Pima County,AZ,6.3559322033898304,NA,NA
85713,Pima County,AZ,NA,31.598793363499244,NA
85714,Pima County,AZ,27.11864406779661,NA,NA
85718,Pima County,AZ,NA,15.007541478129713,NA
85745,Pima County,AZ,NA,13.725490196078432,NA
85757,Pima County,AZ,52.28813559322034,NA,NA
86004,Coconino County,AZ,41.440677966101696,8.89894419306184,NA
86005,Coconino County,AZ,NA,64.63046757164405,NA
86045,Coconino County,AZ,NA,33.18250377073906,NA
86315,Yavapai County,AZ,NA,64.40422322775264,NA
86324,Yavapai County,AZ,NA,88.15987933634992,NA
86327,Yavapai County,AZ,NA,NA,43.11594202898551
86401,Mohave County,AZ,29.067796610169495,NA,NA
86403,Mohave County,AZ,NA,49.62292609351433,NA
86406,Mohave County,AZ,42.71186440677966,NA,NA
86413,Mohave County,AZ,51.864406779661024,NA,NA
86440,Mohave County,AZ,NA,88.31070889894418,NA
71603,Jefferson County,AR,NA,78.65761689291101,NA
71635,Ashley County,AR,88.13559322033898,NA,NA
71854,Miller County,AR,88.89830508474577,NA,NA
71909,Garland County,AR,NA,94.34389140271493,NA
71913,Garland County,AR,30.847457627118647,NA,NA
71921,Clark County,AR,99.49152542372882,NA,NA
71953,Polk County,AR,NA,46.757164404223225,NA
72012,White County,AR,NA,NA,67.3913043478261
72019,Saline County,AR,NA,39.44193061840121,NA
72076,Pulaski County,AR,43.898305084745765,NA,NA
72120,Pulaski County,AR,NA,11.91553544494721,NA
72173,Faulkner County,AR,80.25423728813558,NA,NA
72335,St. Francis County,AR,NA,87.55656108597285,NA
72396,Cross County,AR,NA,65.38461538461539,NA
72404,Craighead County,AR,NA,67.19457013574662,NA
72450,Greene County,AR,14.915254237288137,NA,NA
72454,Clay County,AR,NA,73.83107088989442,NA
72472,Poinsett County,AR,75.84745762711864,NA,NA
72543,Cleburne County,AR,58.8135593220339,NA,NA
72601,Boone County,AR,48.47457627118644,NA,NA
72653,Baxter County,AR,NA,49.84917043740573,NA
72703,Washington County,AR,69.49152542372882,NA,NA
72704,Washington County,AR,72.37288135593221,NA,NA
72730,Washington County,AR,99.32203389830508,NA,95.65217391304348
72745,Benton County,AR,NA,91.47812971342383,NA
72756,Benton County,AR,52.62711864406779,NA,NA
72761,Benton County,AR,NA,61.38763197586727,NA
72762,Washington County,AR,41.01694915254237,NA,NA
72774,Washington County,AR,NA,90.04524886877829,NA
72830,Johnson County,AR,NA,85.74660633484163,NA
90002,Los Angeles County,CA,53.22033898305085,NA,NA
90008,Los Angeles County,CA,NA,NA,26.811594202898554
90019,Los Angeles County,CA,NA,21.342383107088988,NA
90026,Los Angeles County,CA,NA,32.35294117647059,NA
90034,Los Angeles County,CA,37.45762711864407,NA,NA
90035,Los Angeles County,CA,NA,64.5550527903469,NA
90039,Los Angeles County,CA,NA,71.94570135746606,NA
90044,Los Angeles County,CA,NA,13.423831070889895,NA
90045,Los Angeles County,CA,NA,86.27450980392157,NA
90057,Los Angeles County,CA,NA,52.488687782805435,54.347826086956516
90062,Los Angeles County,CA,45.593220338983045,NA,NA
90222,Los Angeles County,CA,NA,56.18401206636501,NA
90240,Los Angeles County,CA,NA,63.80090497737556,NA
90250,Los Angeles County,CA,NA,53.77073906485671,NA
90266,Los Angeles County,CA,96.4406779661017,NA,NA
90275,Los Angeles County,CA,51.355932203389834,NA,NA
90277,Los Angeles County,CA,NA,61.31221719457014,NA
90501,Los Angeles County,CA,42.28813559322034,NA,NA
90503,Los Angeles County,CA,NA,69.00452488687783,NA
90602,Los Angeles County,CA,NA,51.734539969834096,NA
90603,Los Angeles County,CA,87.45762711864407,NA,NA
90606,Los Angeles County,CA,NA,52.6395173453997,NA
90620,Orange County,CA,NA,64.25339366515837,NA
90630,Orange County,CA,NA,16.59125188536953,NA
90640,Los Angeles County,CA,28.8135593220339,NA,NA
90650,Los Angeles County,CA,NA,NA,72.10144927536231
90712,Los Angeles County,CA,NA,44.11764705882353,NA
90713,Los Angeles County,CA,NA,49.095022624434385,NA
90802,Los Angeles County,CA,44.237288135593225,NA,NA
90807,Los Angeles County,CA,45,NA,NA
91030,Los Angeles County,CA,NA,88.15987933634992,NA
91202,Los Angeles County,CA,82.45762711864407,NA,NA
91304,Los Angeles County,CA,81.86440677966101,NA,NA
91320,Ventura County,CA,58.220338983050844,NA,NA
91335,Los Angeles County,CA,NA,27.37556561085973,NA
91354,Los Angeles County,CA,NA,73.45399698340876,NA
91355,Los Angeles County,CA,NA,44.2684766214178,NA
91360,Ventura County,CA,NA,43.13725490196079,NA
91402,Los Angeles County,CA,21.949152542372882,NA,NA
91701,San Bernardino County,CA,NA,58.144796380090504,NA
91709,San Bernardino County,CA,27.54237288135593,21.71945701357466,NA
91730,San Bernardino County,CA,NA,NA,89.13043478260869
91750,Los Angeles County,CA,NA,35.06787330316742,NA
91767,Los Angeles County,CA,34.067796610169495,NA,NA
91773,Los Angeles County,CA,66.86440677966101,NA,NA
91790,Los Angeles County,CA,NA,44.79638009049774,NA
91792,Los Angeles County,CA,81.94915254237289,NA,NA
91910,San Diego County,CA,NA,25.339366515837103,NA
91915,San Diego County,CA,NA,92.23227752639518,NA
91932,San Diego County,CA,70.50847457627118,77.14932126696833,NA
92009,San Diego County,CA,NA,95.55052790346909,NA
92010,San Diego County,CA,83.22033898305085,NA,NA
92021,San Diego County,CA,NA,9.351432880844646,NA
92067,San Diego County,CA,NA,86.8024132730015,NA
92105,San Diego County,CA,NA,25.1131221719457,NA
92111,San Diego County,CA,NA,NA,27.173913043478258
92116,San Diego County,CA,NA,75.56561085972851,NA
92120,San Diego County,CA,NA,85.21870286576168,NA
92124,San Diego County,CA,82.88135593220339,NA,NA
92130,San Diego County,CA,57.45762711864407,NA,NA
92201,Riverside County,CA,85.42372881355932,12.141779788838612,NA
92203,Riverside County,CA,66.77966101694915,76.2443438914027,NA
92211,Riverside County,CA,NA,6.259426847662142,NA
92243,Imperial County,CA,NA,25.64102564102564,NA
92253,Riverside County,CA,NA,83.0316742081448,NA
92262,Riverside County,CA,16.271186440677965,NA,NA
92264,Riverside County,CA,NA,56.48567119155354,NA
92276,Riverside County,CA,NA,89.96983408748115,NA
92277,San Bernardino County,CA,NA,NA,78.62318840579711
92284,San Bernardino County,CA,51.94915254237288,91.17647058823529,NA
92336,San Bernardino County,CA,6.9491525423728815,NA,NA
92352,San Bernardino County,CA,92.88135593220339,98.86877828054298,NA
92395,San Bernardino County,CA,NA,37.254901960784316,NA
92405,San Bernardino County,CA,NA,71.64404223227753,NA
92407,San Bernardino County,CA,13.389830508474576,NA,NA
92539,Riverside County,CA,97.11864406779661,NA,NA
92544,Riverside County,CA,42.54237288135593,41.40271493212669,NA
92545,Riverside County,CA,NA,32.503770739064855,NA
92557,Riverside County,CA,NA,NA,61.59420289855072
92562,Riverside County,CA,51.69491525423729,NA,NA
92595,Riverside County,CA,34.23728813559322,NA,NA
92610,Orange County,CA,NA,91.17647058823529,NA
92612,Orange County,CA,NA,75.7918552036199,NA
92614,Orange County,CA,53.474576271186436,NA,NA
92629,Orange County,CA,NA,67.57164404223228,NA
92630,Orange County,CA,NA,47.66214177978884,NA
92646,Orange County,CA,NA,5.656108597285068,NA
92647,Orange County,CA,17.457627118644066,50.301659125188536,NA
92651,Orange County,CA,NA,40.497737556561084,32.2463768115942
92656,Orange County,CA,27.966101694915253,NA,NA
92673,Orange County,CA,96.27118644067797,NA,NA
92694,Orange County,CA,50.25423728813559,NA,NA
92707,Orange County,CA,35.932203389830505,NA,NA
92708,Orange County,CA,29.745762711864405,43.74057315233786,NA
92782,Orange County,CA,72.96610169491525,NA,NA
92801,Orange County,CA,NA,61.990950226244344,NA
92868,Orange County,CA,NA,89.06485671191554,NA
92870,Orange County,CA,30.338983050847457,NA,NA
92880,Riverside County,CA,17.372881355932204,NA,NA
92881,Riverside County,CA,67.28813559322035,NA,NA
93010,Ventura County,CA,NA,NA,11.231884057971014
93015,Ventura County,CA,62.28813559322034,NA,NA
93021,Ventura County,CA,NA,73.22775263951733,NA
93030,Ventura County,CA,12.88135593220339,NA,NA
93060,Ventura County,CA,30.254237288135595,NA,NA
93210,Fresno County,CA,86.1864406779661,NA,NA
93219,Tulare County,CA,NA,99.01960784313727,NA
93257,Tulare County,CA,9.40677966101695,NA,NA
93267,Tulare County,CA,NA,94.7209653092006,NA
93277,Tulare County,CA,51.52542372881356,NA,NA
93292,Tulare County,CA,NA,61.91553544494721,NA
93306,Kern County,CA,15.593220338983052,31.674208144796378,NA
93309,Kern County,CA,NA,24.43438914027149,NA
93312,Kern County,CA,32.54237288135593,NA,NA
93401,San Luis Obispo County,CA,NA,47.05882352941176,NA
93444,San Luis Obispo County,CA,NA,88.38612368024133,NA
93455,Santa Barbara County,CA,NA,NA,13.768115942028986
93465,San Luis Obispo County,CA,72.6271186440678,NA,NA
93551,Los Angeles County,CA,NA,49.47209653092006,NA
93552,Los Angeles County,CA,NA,70.51282051282051,NA
93555,Kern County,CA,20.677966101694913,NA,NA
93618,Tulare County,CA,47.45762711864407,NA,NA
93675,Fresno County,CA,98.13559322033898,NA,NA
93705,Fresno County,CA,26.864406779661014,37.631975867269986,NA
93727,Fresno County,CA,NA,20.66365007541478,NA
94002,San Mateo County,CA,NA,33.10708898944193,NA
94015,San Mateo County,CA,NA,NA,4.3478260869565215
94040,Santa Clara County,CA,NA,70.36199095022624,NA
94044,San Mateo County,CA,NA,22.322775263951737,NA
94063,San Mateo County,CA,NA,NA,64.13043478260869
94066,San Mateo County,CA,NA,35.52036199095023,NA
94070,San Mateo County,CA,87.54237288135593,NA,NA
94080,San Mateo County,CA,NA,4.826546003016592,NA
94087,Santa Clara County,CA,NA,44.645550527903474,NA
94102,San Francisco County,CA,NA,4.751131221719457,NA
94103,San Francisco County,CA,NA,12.368024132730016,NA
94108,San Francisco County,CA,81.01694915254237,NA,NA
94109,San Francisco County,CA,NA,8.220211161387631,NA
94115,San Francisco County,CA,NA,30.165912518853695,NA
94122,San Francisco County,CA,40.67796610169492,NA,NA
94502,Alameda County,CA,92.79661016949152,NA,NA
94517,Contra Costa County,CA,90.59322033898304,NA,NA
94519,Contra Costa County,CA,84.4915254237288,NA,NA
94534,Solano County,CA,57.711864406779654,NA,NA
94536,Alameda County,CA,NA,17.49622926093514,NA
94539,Alameda County,CA,NA,90.9502262443439,37.68115942028986
94541,Alameda County,CA,NA,14.404223227752638,NA
94542,Alameda County,CA,NA,90.19607843137256,NA
94545,Alameda County,CA,NA,NA,56.52173913043478
94550,Alameda County,CA,41.52542372881356,64.02714932126696,NA
94561,Contra Costa County,CA,32.6271186440678,NA,NA
94565,Contra Costa County,CA,NA,5.3544494720965305,NA
94566,Alameda County,CA,55.59322033898305,NA,NA
94580,Alameda County,CA,NA,57.466063348416284,NA
94595,Contra Costa County,CA,NA,74.35897435897436,NA
94598,Contra Costa County,CA,NA,48.717948717948715,NA
94611,Alameda County,CA,55.42372881355932,18.552036199095024,NA
94706,Alameda County,CA,NA,NA,92.7536231884058
94709,Alameda County,CA,NA,92.00603318250377,NA
94804,Contra Costa County,CA,NA,36.5761689291101,NA
94903,Marin County,CA,NA,47.5867269984917,NA
94947,Marin County,CA,NA,42.835595776772244,NA
94954,Sonoma County,CA,NA,27.601809954751133,NA
95003,Santa Cruz County,CA,NA,67.72247360482655,NA
95020,Santa Clara County,CA,26.525423728813557,NA,NA
95062,Santa Cruz County,CA,NA,86.87782805429865,NA
95076,Santa Cruz County,CA,72.28813559322033,12.217194570135746,NA
95120,Santa Clara County,CA,NA,45.17345399698341,NA
95127,Santa Clara County,CA,NA,38.91402714932127,NA
95228,Calaveras County,CA,NA,97.5867269984917,NA
95240,San Joaquin County,CA,NA,39.59276018099548,NA
95242,San Joaquin County,CA,61.186440677966104,47.737556561085974,NA
95304,San Joaquin County,CA,NA,88.83861236802413,NA
95336,San Joaquin County,CA,NA,17.26998491704374,NA
95350,Stanislaus County,CA,NA,NA,19.565217391304348
95355,Stanislaus County,CA,59.32203389830508,NA,NA
95357,Stanislaus County,CA,78.64406779661017,NA,NA
95370,Tuolumne County,CA,NA,1.9607843137254901,NA
95382,Stanislaus County,CA,20.16949152542373,NA,NA
95403,Sonoma County,CA,44.06779661016949,NA,NA
95422,Lake County,CA,53.050847457627114,NA,NA
95472,Sonoma County,CA,NA,52.26244343891403,NA
95490,Mendocino County,CA,NA,85.06787330316742,NA
95618,Yolo County,CA,89.0677966101695,NA,NA
95624,Sacramento County,CA,40.847457627118644,NA,NA
95631,Placer County,CA,97.28813559322033,NA,NA
95648,Placer County,CA,NA,NA,9.420289855072465
95662,Sacramento County,CA,61.27118644067797,NA,NA
95667,El Dorado County,CA,NA,2.413273001508296,NA
95678,Placer County,CA,43.050847457627114,NA,NA
95709,El Dorado County,CA,NA,74.96229260935144,NA
95747,Placer County,CA,NA,66.7420814479638,NA
95757,Sacramento County,CA,NA,51.58371040723983,NA
95762,El Dorado County,CA,NA,30.392156862745097,NA
95765,Placer County,CA,NA,63.12217194570135,NA
95835,Sacramento County,CA,NA,NA,46.3768115942029
95838,Sacramento County,CA,NA,93.36349924585218,NA
95928,Butte County,CA,NA,26.69683257918552,NA
95949,Nevada County,CA,NA,44.72096530920061,NA
95954,Butte County,CA,NA,NA,34.42028985507246
95969,Butte County,CA,NA,4.600301659125189,NA
95973,Butte County,CA,NA,19.3815987933635,NA
95993,Sutter County,CA,40.50847457627118,NA,NA
96150,El Dorado County,CA,83.98305084745763,59.57767722473605,NA
80003,Jefferson County,CO,NA,49.17043740573152,NA
80007,Jefferson County,CO,84.15254237288136,NA,NA
80016,Arapahoe County,CO,18.389830508474574,NA,NA
80022,Adams County,CO,12.54237288135593,NA,NA
80026,Boulder County,CO,53.813559322033896,NA,NA
80030,Adams County,CO,68.72881355932203,NA,84.78260869565217
80031,Adams County,CO,NA,50.98039215686274,NA
80102,Adams County,CO,NA,97.96380090497738,NA
80111,Arapahoe County,CO,64.15254237288136,NA,NA
80126,Douglas County,CO,NA,51.28205128205128,NA
80130,Douglas County,CO,71.27118644067797,NA,NA
80134,Douglas County,CO,21.440677966101696,NA,NA
80138,Douglas County,CO,NA,58.22021116138764,NA
80205,Denver County,CO,9.152542372881356,NA,NA
80206,Denver County,CO,NA,81.44796380090497,NA
80210,Denver County,CO,NA,48.717948717948715,NA
80218,Denver County,CO,NA,93.74057315233786,NA
80219,Denver County,CO,NA,17.94871794871795,NA
80220,Denver County,CO,NA,57.76772247360482,NA
80221,Adams County,CO,26.1864406779661,NA,NA
80224,Denver County,CO,56.525423728813564,NA,NA
80239,Denver County,CO,50.67796610169491,NA,NA
80501,Boulder County,CO,15.508474576271187,NA,NA
80504,Boulder County,CO,NA,19.834087481146305,NA
80513,Larimer County,CO,69.15254237288136,NA,NA
80525,Larimer County,CO,NA,7.616892911010558,NA
80526,Larimer County,CO,30.42372881355932,NA,NA
80538,Larimer County,CO,NA,5.580693815987934,NA
80549,Larimer County,CO,80,NA,NA
80634,Weld County,CO,NA,0.9803921568627451,NA
80701,Morgan County,CO,17.203389830508474,39.06485671191554,NA
80907,El Paso County,CO,NA,54.14781297134238,NA
80918,El Paso County,CO,39.83050847457627,NA,NA
81004,Pueblo County,CO,NA,NA,44.565217391304344
81006,Pueblo County,CO,65.2542372881356,NA,NA
81008,Pueblo County,CO,NA,83.40874811463047,NA
81052,Prowers County,CO,90,NA,NA
81101,Alamosa County,CO,NA,85.82202111613876,NA
81212,Fremont County,CO,NA,90.12066365007541,NA
81403,Montrose County,CO,NA,71.94570135746606,NA
81413,Delta County,CO,NA,72.62443438914026,NA
81416,Delta County,CO,66.27118644067797,NA,NA
81623,Garfield County,CO,NA,58.82352941176471,NA
81632,Eagle County,CO,94.32203389830508,NA,NA
06001,Hartford County,CT,NA,62.44343891402715,NA
06042,Hartford County,CT,31.52542372881356,NA,NA
06051,Hartford County,CT,3.389830508474576,NA,NA
06066,Tolland County,CT,13.220338983050848,14.102564102564102,NA
06422,Middlesex County,CT,NA,82.42835595776772,NA
06423,Middlesex County,CT,NA,92.38310708898945,NA
06437,New Haven County,CT,56.440677966101696,NA,NA
06450,New Haven County,CT,NA,NA,26.08695652173913
06471,New Haven County,CT,NA,73.303167420814475,NA
06513,New Haven County,CT,3.8135593220338984,NA,NA
06515,New Haven County,CT,23.898305084745765,NA,NA
06525,New Haven County,CT,NA,84.61538461538461,NA
06607,Fairfield County,CT,75.50847457627118,NA,NA
06708,New Haven County,CT,18.05084745762712,NA,NA
06770,New Haven County,CT,NA,20.361990950226243,NA
06810,Fairfield County,CT,11.440677966101696,NA,NA
06880,Fairfield County,CT,NA,55.052790346908,NA
06897,Fairfield County,CT,NA,69.45701357466064,NA
19711,New Castle County,DE,NA,7.390648567119156,NA
19933,Sussex County,DE,62.62711864406779,NA,NA
19945,Sussex County,DE,NA,80.3921568627451,NA
19970,Sussex County,DE,NA,NA,54.710144927536234
32034,Nassau County,FL,NA,32.27752639517345,NA
32043,Clay County,FL,NA,17.345399698340874,NA
32064,Suwannee County,FL,NA,68.32579185520362,NA
32084,St. Johns County,FL,23.728813559322035,NA,NA
32113,Marion County,FL,98.22033898305085,NA,NA
32114,Volusia County,FL,NA,37.028657616892914,NA
32118,Volusia County,FL,NA,NA,31.88405797101449
32163,Sumter County,FL,NA,83.78582202111615,NA
32176,Volusia County,FL,83.98305084745763,NA,NA
32205,Duval County,FL,NA,26.772247360482655,NA
32218,Duval County,FL,NA,19.457013574660635,NA
32220,Duval County,FL,59.83050847457627,NA,NA
32221,Duval County,FL,NA,77.82805429864254,NA
32223,Duval County,FL,NA,27.22473604826546,NA
32257,Duval County,FL,51.271186440677965,NA,NA
32405,Bay County,FL,21.779661016949152,NA,NA
32413,Bay County,FL,67.45762711864407,NA,NA
32505,Escambia County,FL,NA,7.013574660633484,NA
32526,Escambia County,FL,10.338983050847457,NA,NA
32539,Okaloosa County,FL,64.57627118644068,96.68174962292609,NA
32548,Okaloosa County,FL,NA,49.924585218702866,NA
32550,Walton County,FL,NA,48.41628959276018,NA
32561,Santa Rosa County,FL,99.83050847457628,NA,NA
32563,Santa Rosa County,FL,26.949152542372882,19.004524886877828,NA
32566,Santa Rosa County,FL,95.9322033898305,NA,NA
32570,Santa Rosa County,FL,7.203389830508475,NA,NA
32571,Santa Rosa County,FL,NA,98.0392156862745,NA
32578,Okaloosa County,FL,NA,15.082956259426847,NA
32579,Okaloosa County,FL,NA,92.00603318250377,NA
32606,Alachua County,FL,NA,98.26546003016591,NA
32607,Alachua County,FL,97.96610169491525,38.83861236802414,NA
32608,Alachua County,FL,24.661016949152543,NA,NA
32609,Alachua County,FL,NA,73.7556561085973,NA
32615,Alachua County,FL,87.03389830508475,51.13122171945701,NA
32669,Alachua County,FL,60.25423728813559,82.05128205128204,NA
32696,Levy County,FL,55.50847457627118,NA,NA
32708,Seminole County,FL,NA,NA,25.724637681159418
32724,Volusia County,FL,NA,52.4132730015083,NA
32765,Seminole County,FL,NA,NA,44.927536231884055
32784,Lake County,FL,NA,59.95475113122172,NA
32818,Orange County,FL,NA,45.47511312217195,NA
32828,Orange County,FL,NA,54.52488687782805,NA
32837,Orange County,FL,47.03389830508475,NA,NA
32907,Brevard County,FL,NA,NA,21.73913043478261
32909,Brevard County,FL,33.220338983050844,NA,NA
32926,Brevard County,FL,NA,38.3107088989442,NA
32927,Brevard County,FL,47.20338983050848,41.17647058823529,57.2463768115942
32952,Brevard County,FL,NA,39.89441930618401,NA
32958,Indian River County,FL,NA,69.75867269984917,NA
32960,Indian River County,FL,NA,34.69079939668175,NA
33020,Broward County,FL,NA,21.19155354449472,NA
33023,Broward County,FL,14.661016949152541,NA,NA
33040,Monroe County,FL,67.79661016949152,NA,NA
33060,Broward County,FL,30.593220338983052,NA,NA
33066,Broward County,FL,NA,NA,21.014492753623188
33134,Miami-Dade County,FL,69.40677966101696,NA,NA
33138,Miami-Dade County,FL,63.64406779661017,NA,NA
33139,Miami-Dade County,FL,52.3728813559322,NA,NA
33166,Miami-Dade County,FL,NA,NA,46.73913043478261
33175,Miami-Dade County,FL,NA,19.53242835595777,NA
33182,Miami-Dade County,FL,97.54237288135593,NA,NA
33184,Miami-Dade County,FL,91.69491525423729,NA,NA
33305,Broward County,FL,NA,92.68476621417798,NA
33308,Broward County,FL,NA,10.85972850678733,NA
33312,Broward County,FL,NA,66.06334841628959,NA
33319,Broward County,FL,NA,24.132730015082956,NA
33321,Broward County,FL,NA,71.56862745098039,NA
33407,Palm Beach County,FL,NA,47.88838612368024,NA
33410,Palm Beach County,FL,NA,27.149321266968325,NA
33411,Palm Beach County,FL,31.610169491525426,NA,NA
33414,Palm Beach County,FL,NA,35.06787330316742,NA
33417,Palm Beach County,FL,NA,NA,23.91304347826087
33418,Palm Beach County,FL,NA,56.711915535444945,NA
33483,Palm Beach County,FL,NA,75.18853695324283,NA
33486,Palm Beach County,FL,NA,43.51432880844646,NA
33487,Palm Beach County,FL,NA,35.822021116138764,NA
33496,Palm Beach County,FL,65.5084745762712,NA,NA
33498,Palm Beach County,FL,NA,80.1659125188537,NA
33510,Hillsborough County,FL,50.08474576271187,NA,NA
33511,Hillsborough County,FL,76.69491525423729,NA,NA
33544,Pasco County,FL,74.32203389830508,NA,NA
33556,Hillsborough County,FL,67.71186440677967,NA,NA
33565,Hillsborough County,FL,NA,NA,60.14492753623188
33569,Hillsborough County,FL,68.47457627118644,NA,NA
33613,Hillsborough County,FL,35.16949152542373,NA,NA
33704,Pinellas County,FL,78.47457627118644,NA,NA
33755,Pinellas County,FL,37.03389830508475,NA,NA
33762,Pinellas County,FL,NA,92.53393665158372,NA
33767,Pinellas County,FL,NA,75.1131221719457,NA
33770,Pinellas County,FL,NA,76.99849170437406,NA
33774,Pinellas County,FL,NA,62.66968325791855,NA
33778,Pinellas County,FL,NA,60.40723981900452,NA
33823,Polk County,FL,NA,39.366515837104075,NA
33825,Highlands County,FL,NA,NA,22.10144927536232
33850,Polk County,FL,81.35593220338984,NA,NA
33860,Polk County,FL,NA,NA,95.28985507246377
33881,Polk County,FL,30.847457627118647,NA,NA
33884,Polk County,FL,NA,38.38612368024133,NA
33896,Polk County,FL,82.11864406779661,NA,NA
33907,Lee County,FL,41.610169491525426,NA,NA
33913,Lee County,FL,NA,24.962292609351433,NA
33914,Lee County,FL,NA,42.38310708898944,NA
33928,Lee County,FL,NA,26.018099547511316,NA
33954,Charlotte County,FL,NA,81.74962292609351,NA
33973,Lee County,FL,NA,84.46455505279035,NA
34105,Collier County,FL,NA,85.21870286576168,NA
34108,Collier County,FL,NA,NA,30.07246376811594
34109,Collier County,FL,91.52542372881356,NA,NA
34135,Lee County,FL,NA,NA,13.043478260869565
34145,Collier County,FL,95.6779661016949,NA,NA
34202,Manatee County,FL,NA,31.825037707390646,NA
34207,Manatee County,FL,93.05084745762711,NA,NA
34208,Manatee County,FL,NA,42.76018099547511,NA
34231,Sarasota County,FL,46.86440677966102,NA,NA
34241,Sarasota County,FL,NA,57.23981900452488,NA
34266,DeSoto County,FL,29.576271186440678,NA,NA
34431,Marion County,FL,NA,79.78883861236802,NA
34442,Citrus County,FL,73.22033898305085,NA,NA
34474,Marion County,FL,NA,79.93966817496229,NA
34481,Marion County,FL,NA,55.052790346908,NA
34601,Hernando County,FL,NA,80.54298642533936,NA
34608,Hernando County,FL,32.20338983050847,NA,NA
34690,Pasco County,FL,NA,93.43891402714932,NA
34695,Pinellas County,FL,NA,84.84162895927602,NA
34785,Sumter County,FL,NA,70.96530920060331,NA
34786,Orange County,FL,NA,99.17043740573152,NA
34788,Lake County,FL,59.66101694915255,NA,NA
34950,St. Lucie County,FL,NA,43.81598793363499,NA
34953,St. Lucie County,FL,NA,4.298642533936651,NA
34983,St. Lucie County,FL,NA,23.453996983408747,NA
34984,St. Lucie County,FL,NA,NA,74.63768115942028
30004,Fulton County,GA,NA,28.582202111613874,NA
30014,Newton County,GA,21.610169491525426,NA,NA
30016,Newton County,GA,NA,15.686274509803921,NA
30025,Walton County,GA,NA,97.88838612368023,NA
30032,DeKalb County,GA,8.898305084745763,NA,NA
30041,Forsyth County,GA,NA,56.78733031674208,NA
30043,Gwinnett County,GA,18.220338983050848,9.276018099547512,NA
30045,Gwinnett County,GA,50.93220338983051,NA,NA
30052,Walton County,GA,NA,6.033182503770739,NA
30064,Cobb County,GA,79.0677966101695,NA,NA
30067,Cobb County,GA,95.25423728813558,NA,NA
30078,Gwinnett County,GA,53.38983050847458,NA,NA
30080,Cobb County,GA,46.016949152542374,NA,NA
30082,Cobb County,GA,NA,78.05429864253394,NA
30087,DeKalb County,GA,NA,NA,31.521739130434785
30094,Rockdale County,GA,NA,25.414781297134237,NA
30096,Gwinnett County,GA,NA,24.58521870286576,NA
30101,Cobb County,GA,NA,80.69381598793363,NA
30115,Cherokee County,GA,NA,31.90045248868778,NA
30127,Cobb County,GA,13.813559322033896,NA,NA
30132,Paulding County,GA,27.033898305084747,30.76923076923077,NA
30161,Floyd County,GA,NA,16.59125188536953,NA
30188,Cherokee County,GA,NA,84.69079939668175,NA
30204,Lamar County,GA,NA,95.1734539969834,NA
30215,Fayette County,GA,55.16949152542373,NA,NA
30223,Spalding County,GA,NA,29.411764705882355,NA
30240,Troup County,GA,21.35593220338983,NA,NA
30265,Coweta County,GA,NA,34.464555052790345,NA
30286,Upson County,GA,NA,46.15384615384615,NA
30290,Fayette County,GA,95.08474576271186,NA,NA
30291,Fulton County,GA,32.45762711864407,NA,NA
30294,DeKalb County,GA,NA,48.49170437405731,NA
30309,Fulton County,GA,75.08474576271186,NA,NA
30310,Fulton County,GA,18.983050847457626,NA,NA
30314,Fulton County,GA,37.20338983050848,NA,NA
30324,Fulton County,GA,NA,91.93061840120663,NA
30327,Fulton County,GA,90.2542372881356,64.1025641025641,NA
30337,Fulton County,GA,71.94915254237289,NA,NA
30350,Fulton County,GA,NA,94.79638009049773,NA
30457,Treutlen County,GA,90.42372881355932,NA,NA
30513,Fannin County,GA,69.15254237288136,NA,NA
30519,Gwinnett County,GA,40.25423728813559,NA,NA
30523,Habersham County,GA,NA,67.87330316742081,NA
30656,Walton County,GA,90.67796610169492,NA,NA
30701,Gordon County,GA,25.254237288135595,56.86274509803921,NA
30720,Whitfield County,GA,NA,96.60633484162896,NA
30721,Whitfield County,GA,19.745762711864405,NA,NA
30725,Walker County,GA,NA,97.1342383107089,NA
30809,Columbia County,GA,29.66101694915254,NA,NA
30830,Burke County,GA,46.101694915254235,NA,NA
30906,Richmond County,GA,NA,3.544494720965309,NA
31021,Laurens County,GA,NA,50.60331825037707,NA
31036,Pulaski County,GA,65,NA,97.46376811594203
31064,Jasper County,GA,NA,71.87028657616892,NA
31088,Houston County,GA,11.525423728813559,NA,NA
31093,Houston County,GA,NA,26.395173453996986,NA
31510,Bacon County,GA,NA,68.55203619909503,NA
31533,Coffee County,GA,NA,61.53846153846154,NA
31537,Charlton County,GA,81.69491525423729,NA,NA
31545,Wayne County,GA,NA,46.07843137254902,NA
31602,Lowndes County,GA,NA,37.93363499245852,NA
31605,Lowndes County,GA,NA,70.58823529411765,NA
31719,Sumter County,GA,64.49152542372882,NA,NA
31757,Thomas County,GA,NA,62.89592760180995,NA
31774,Irwin County,GA,NA,84.99245852187029,NA
31794,Tift County,GA,NA,13.574660633484163,NA
31903,Muscogee County,GA,NA,38.159879336349924,NA
31904,Muscogee County,GA,25.508474576271183,NA,NA
31906,Muscogee County,GA,77.79661016949152,NA,NA
31907,Muscogee County,GA,NA,18.929110105580694,NA
31909,Muscogee County,GA,NA,22.09653092006033,NA
96701,Honolulu County,HI,28.135593220338983,NA,NA
96706,Honolulu County,HI,NA,NA,18.115942028985508
96707,Honolulu County,HI,NA,NA,53.2608695652174
96738,Hawaii County,HI,NA,89.59276018099548,NA
96740,Hawaii County,HI,NA,54.44947209653092,NA
96768,Maui County,HI,NA,NA,94.20289855072464
96793,Maui County,HI,NA,56.334841628959275,NA
96797,Honolulu County,HI,NA,3.8461538461538463,NA
96825,Honolulu County,HI,NA,3.9215686274509802,NA
83201,Bannock County,ID,49.74576271186441,NA,NA
83202,Bannock County,ID,NA,60.030165912518854,NA
83204,Bannock County,ID,46.69491525423729,NA,NA
83210,Bingham County,ID,96.35593220338983,NA,NA
83221,Bingham County,ID,22.6271186440678,NA,NA
83263,Franklin County,ID,NA,NA,75.72463768115942
83274,Bingham County,ID,89.66101694915254,NA,NA
83301,Twin Falls County,ID,3.1355932203389827,NA,NA
83333,Blaine County,ID,97.45762711864407,NA,NA
83402,Bonneville County,ID,45.847457627118644,NA,NA
83404,Bonneville County,ID,73.98305084745763,83.710407239819,NA
83607,Canyon County,ID,31.949152542372882,NA,NA
83634,Ada County,ID,NA,40.874811463046754,NA
83642,Ada County,ID,NA,5.279034690799397,NA
83646,Ada County,ID,34.152542372881356,NA,5.072463768115942
83647,Elmore County,ID,37.71186440677966,NA,NA
83661,Payette County,ID,79.40677966101694,NA,NA
83676,Canyon County,ID,92.28813559322035,NA,NA
83686,Canyon County,ID,NA,2.7149321266968327,NA
83702,Ada County,ID,24.23728813559322,NA,36.95652173913043
83705,Ada County,ID,23.559322033898304,NA,NA
83706,Ada County,ID,55.33898305084746,69.3815987933635,NA
83805,Boundary County,ID,98.38983050847457,NA,NA
83814,Kootenai County,ID,NA,34.53996983408748,NA
83858,Kootenai County,ID,NA,NA,85.5072463768116
83861,Benewah County,ID,NA,80.99547511312217,NA
83864,Bonner County,ID,63.389830508474574,NA,NA
60002,Lake County,IL,53.64406779661017,NA,NA
60004,Cook County,IL,67.62711864406779,NA,NA
60026,Cook County,IL,84.66101694915254,72.09653092006033,NA
60042,McHenry County,IL,74.23728813559322,NA,NA
60050,McHenry County,IL,63.983050847457626,NA,NA
60053,Cook County,IL,NA,26.772247360482655,NA
60060,Lake County,IL,NA,10.33182503770739,NA
60089,Lake County,IL,33.728813559322035,7.315233785822022,NA
60090,Cook County,IL,49.23728813559322,NA,NA
60098,McHenry County,IL,NA,72.39819004524887,14.130434782608695
60102,McHenry County,IL,41.186440677966104,35.97285067873303,NA
60103,DuPage County,IL,NA,NA,39.85507246376812
60106,DuPage County,IL,NA,55.35444947209653,NA
60108,DuPage County,IL,NA,22.624434389140273,NA
60118,Kane County,IL,NA,59.276018099547514,NA
60119,Kane County,IL,NA,89.44193061840122,NA
60123,Kane County,IL,16.271186440677965,NA,NA
60124,Kane County,IL,56.779661016949156,56.86274509803921,NA
60143,DuPage County,IL,78.05084745762711,NA,NA
60153,Cook County,IL,NA,NA,51.08695652173913
60156,McHenry County,IL,29.40677966101695,NA,NA
60171,Cook County,IL,79.23728813559322,NA,NA
60172,DuPage County,IL,NA,34.76621417797888,NA
60177,Kane County,IL,NA,NA,55.79710144927537
60188,DuPage County,IL,14.237288135593221,NA,NA
60193,Cook County,IL,NA,6.862745098039216,NA
60302,Cook County,IL,27.71186440677966,9.57767722473605,NA
60422,Cook County,IL,NA,40.27149321266968,NA
60428,Cook County,IL,81.27118644067797,NA,NA
60439,Cook County,IL,NA,13.197586726998493,NA
60449,Will County,IL,NA,74.2081447963801,NA
60453,Cook County,IL,10.423728813559322,NA,NA
60525,Cook County,IL,19.152542372881356,NA,NA
60527,DuPage County,IL,45.16949152542373,NA,NA
60542,Kane County,IL,NA,87.48114630467572,NA
60544,Will County,IL,NA,53.242835595776775,NA
60561,DuPage County,IL,NA,25.565610859728505,NA
60563,DuPage County,IL,39.66101694915255,NA,NA
60585,Will County,IL,49.23728813559322,NA,NA
60586,Will County,IL,75.33898305084745,NA,NA
60609,Cook County,IL,7.288135593220339,11.312217194570136,NA
60616,Cook County,IL,NA,6.711915535444947,NA
60617,Cook County,IL,5.338983050847458,NA,NA
60628,Cook County,IL,NA,NA,3.260869565217391
60634,Cook County,IL,NA,5.806938159879336,NA
60639,Cook County,IL,NA,5.429864253393665,NA
60640,Cook County,IL,NA,NA,9.782608695652174
60652,Cook County,IL,NA,19.607843137254903,NA
60654,Cook County,IL,NA,76.31975867269985,NA
60659,Cook County,IL,41.01694915254237,NA,NA
60707,Cook County,IL,NA,74.58521870286576,NA
60915,Kankakee County,IL,NA,54.374057315233784,47.46376811594203
61010,Ogle County,IL,NA,83.63499245852188,NA
61021,Lee County,IL,25.932203389830512,NA,NA
61032,Stephenson County,IL,28.644067796610166,64.47963800904978,NA
61073,Winnebago County,IL,NA,NA,48.55072463768116
61080,Winnebago County,IL,77.62711864406779,NA,NA
61088,Winnebago County,IL,91.77966101694915,NA,NA
61101,Winnebago County,IL,70.16949152542374,NA,NA
61107,Winnebago County,IL,37.88135593220339,NA,NA
61301,LaSalle County,IL,NA,57.54147812971342,NA
61356,Bureau County,IL,NA,NA,39.130434782608695
61520,Fulton County,IL,NA,49.47209653092006,NA
61554,Tazewell County,IL,NA,NA,9.057971014492754
61571,Tazewell County,IL,NA,NA,50
61604,Peoria County,IL,NA,32.05128205128205,NA
61727,De Witt County,IL,NA,66.44042232277526,NA
61744,McLean County,IL,NA,100,NA
61821,Champaign County,IL,NA,NA,43.47826086956522
62002,Madison County,IL,24.491525423728813,NA,NA
62056,Montgomery County,IL,NA,NA,53.62318840579711
62075,Montgomery County,IL,NA,99.77375565610859,NA
62221,St. Clair County,IL,NA,37.48114630467572,NA
62223,St. Clair County,IL,NA,62.44343891402715,NA
62234,Madison County,IL,NA,69.8340874811463,NA
62236,Monroe County,IL,94.0677966101695,NA,NA
62269,St. Clair County,IL,60.76271186440678,33.03167420814479,NA
62294,Madison County,IL,NA,75.18853695324283,NA
62448,Jasper County,IL,85.67796610169492,NA,NA
62521,Macon County,IL,9.067796610169491,5.731523378582202,4.710144927536232
62526,Macon County,IL,8.305084745762711,NA,NA
62684,Sangamon County,IL,NA,99.62292609351434,NA
62703,Sangamon County,IL,NA,NA,41.66666666666667
62960,Massac County,IL,79.83050847457626,NA,NA
62966,Jackson County,IL,NA,41.6289592760181,NA
46013,Madison County,IN,73.8135593220339,NA,NA
46034,Hamilton County,IN,NA,NA,87.31884057971014
46037,Hamilton County,IN,60.50847457627119,NA,NA
46038,Hamilton County,IN,76.94915254237287,NA,NA
46052,Boone County,IN,35.847457627118644,NA,NA
46060,Hamilton County,IN,79.91525423728814,NA,NA
46062,Hamilton County,IN,52.45762711864407,NA,NA
46112,Hendricks County,IN,48.22033898305085,NA,NA
46123,Hendricks County,IN,42.20338983050848,36.199095022624434,NA
46143,Johnson County,IN,NA,NA,6.884057971014493
46163,Hancock County,IN,NA,97.73755656108597,NA
46168,Hendricks County,IN,33.64406779661017,46.757164404223225,NA
46176,Shelby County,IN,11.694915254237289,NA,NA
46201,Marion County,IN,NA,28.054298642533936,NA
46203,Marion County,IN,47.96610169491525,NA,NA
46218,Marion County,IN,NA,NA,25.36231884057971
46219,Marion County,IN,NA,14.177978883861236,NA
46222,Marion County,IN,NA,22.850678733031675,NA
46224,Marion County,IN,NA,84.08748114630468,NA
46229,Marion County,IN,NA,26.998491704374057,NA
46231,Marion County,IN,79.66101694915254,92.98642533936652,NA
46234,Marion County,IN,54.57627118644067,NA,NA
46307,Lake County,IN,1.4406779661016949,NA,NA
46321,Lake County,IN,74.57627118644068,NA,NA
46323,Lake County,IN,NA,12.895927601809957,NA
46342,Lake County,IN,4.406779661016949,NA,NA
46356,Lake County,IN,25.254237288135595,NA,NA
46360,LaPorte County,IN,4.576271186440678,NA,NA
46368,Porter County,IN,NA,0.904977375565611,NA
46373,Lake County,IN,24.152542372881356,NA,NA
46375,Lake County,IN,NA,11.689291101055806,NA
46383,Porter County,IN,NA,3.092006033182504,NA
46392,Jasper County,IN,61.016949152542374,NA,NA
46404,Lake County,IN,27.372881355932204,NA,NA
46408,Lake County,IN,40.59322033898305,NA,NA
46528,Elkhart County,IN,NA,96.38009049773756,NA
46614,St. Joseph County,IN,51.77966101694915,NA,NA
46615,St. Joseph County,IN,NA,67.72247360482655,NA
46619,St. Joseph County,IN,NA,82.57918552036199,NA
46701,Noble County,IN,85.33898305084746,NA,NA
46706,DeKalb County,IN,NA,92.83559577677225,NA
46767,Noble County,IN,83.38983050847457,NA,NA
46835,Allen County,IN,NA,35.8974358974359,NA
46901,Howard County,IN,1.694915254237288,NA,NA
46953,Grant County,IN,8.389830508474576,NA,NA
46962,Wabash County,IN,NA,80.31674208144797,NA
46970,Miami County,IN,6.779661016949152,NA,NA
46975,Fulton County,IN,NA,71.34238310708899,NA
47006,Ripley County,IN,NA,55.957767722473605,NA
47025,Dearborn County,IN,34.57627118644068,NA,NA
47111,Clark County,IN,49.91525423728814,NA,NA
47119,Floyd County,IN,NA,NA,99.27536231884058
47122,Floyd County,IN,NA,85.97285067873304,NA
47130,Clark County,IN,NA,3.2428355957767727,NA
47150,Floyd County,IN,7.372881355932204,5.128205128205128,NA
47302,Delaware County,IN,NA,26.546003016591253,NA
47330,Wayne County,IN,96.10169491525423,NA,NA
47353,Union County,IN,NA,98.49170437405732,NA
47362,Henry County,IN,16.610169491525422,NA,NA
47374,Wayne County,IN,4.1525423728813555,NA,NA
47404,Monroe County,IN,57.54237288135593,NA,NA
47711,Vanderburgh County,IN,22.966101694915253,22.021116138763198,NA
47714,Vanderburgh County,IN,10,NA,NA
47725,Vanderburgh County,IN,NA,84.53996983408749,NA
47842,Vermillion County,IN,NA,63.19758672699849,NA
47872,Parke County,IN,NA,75.64102564102564,NA
47905,Tippecanoe County,IN,34.91525423728813,NA,NA
47918,Fountain County,IN,99.0677966101695,NA,NA
47933,Montgomery County,IN,NA,39.21568627450981,NA
50023,Polk County,IA,59.7457627118644,NA,NA
50208,Jasper County,IA,NA,59.502262443438916,NA
50248,Story County,IA,NA,NA,84.05797101449275
50265,Polk County,IA,33.05084745762712,NA,NA
50309,Polk County,IA,NA,89.36651583710407,NA
50313,Polk County,IA,NA,58.44645550527904,NA
50315,Polk County,IA,6.271186440677965,NA,NA
50322,Polk County,IA,55.67796610169492,86.72699849170438,NA
50511,Kossuth County,IA,NA,69.23076923076923,NA
50677,Bremer County,IA,NA,58.22021116138764,NA
50701,Black Hawk County,IA,27.288135593220336,NA,NA
50702,Black Hawk County,IA,35.76271186440678,NA,NA
51104,Woodbury County,IA,NA,85.4449472096531,NA
51301,Clay County,IA,NA,81.14630467571644,NA
51401,Carroll County,IA,77.3728813559322,NA,NA
51501,Pottawattamie County,IA,2.6271186440677963,NA,NA
51555,Harrison County,IA,72.37288135593221,NA,NA
51560,Pottawattamie County,IA,98.05084745762713,NA,NA
52060,Jackson County,IA,NA,79.41176470588235,NA
52205,Jones County,IA,85.2542372881356,NA,NA
52245,Johnson County,IA,NA,66.59125188536953,NA
52402,Linn County,IA,NA,20.81447963800905,NA
52403,Linn County,IA,NA,33.63499245852187,NA
52405,Linn County,IA,32.79661016949152,36.87782805429865,NA
52722,Scott County,IA,NA,23.604826546003014,NA
52730,Clinton County,IA,87.88135593220339,NA,NA
66002,Atchison County,KS,NA,79.63800904977376,NA
66047,Douglas County,KS,NA,NA,55.79710144927537
66061,Johnson County,KS,NA,22.92609351432881,NA
66067,Franklin County,KS,76.52542372881356,NA,40.21739130434783
66083,Johnson County,KS,91.44067796610169,NA,NA
66112,Wyandotte County,KS,80.42372881355932,NA,NA
66202,Johnson County,KS,70,NA,NA
66210,Johnson County,KS,NA,60.10558069381599,NA
66216,Johnson County,KS,65.59322033898304,NA,NA
66219,Johnson County,KS,NA,90.42232277526395,NA
66223,Johnson County,KS,NA,91.70437405731523,NA
66503,Riley County,KS,NA,NA,91.66666666666666
66547,Pottawatomie County,KS,NA,94.87179487179486,NA
66614,Shawnee County,KS,NA,14.55505279034691,NA
66749,Allen County,KS,69.74576271186442,NA,NA
67005,Cowley County,KS,47.71186440677966,NA,NA
67010,Butler County,KS,69.0677966101695,NA,NA
67401,Saline County,KS,15.932203389830507,50.52790346907994,NA
67501,Reno County,KS,61.35593220338983,NA,NA
67530,Barton County,KS,NA,78.28054298642535,NA
67601,Ellis County,KS,NA,47.963800904977376,NA
67665,Russell County,KS,85.76271186440678,NA,69.92753623188406
67846,Finney County,KS,17.88135593220339,NA,24.637681159420293
40008,Nelson County,KY,91.35593220338983,NA,NA
40013,Nelson County,KY,NA,94.26847662141779,NA
40033,Marion County,KY,77.03389830508475,NA,NA
40057,Henry County,KY,92.28813559322035,NA,NA
40059,Jefferson County,KY,NA,NA,93.84057971014492
40160,Hardin County,KY,80.67796610169492,NA,NA
40203,Jefferson County,KY,16.94915254237288,NA,NA
40207,Jefferson County,KY,NA,26.923076923076923,NA
40222,Jefferson County,KY,71.52542372881356,NA,NA
40228,Jefferson County,KY,NA,92.76018099547511,NA
40241,Jefferson County,KY,44.66101694915254,NA,NA
40258,Jefferson County,KY,NA,66.289592760181,NA
40299,Jefferson County,KY,NA,18.17496229260935,NA
40324,Scott County,KY,NA,18.250377073906485,NA
40356,Jessamine County,KY,67.20338983050847,NA,NA
40371,Bath County,KY,92.96610169491527,NA,NA
40403,Madison County,KY,49.06779661016949,NA,NA
40502,Fayette County,KY,NA,46.003016591251885,NA
40965,Bell County,KY,86.10169491525423,NA,NA
41011,Kenton County,KY,NA,NA,72.46376811594203
41015,Kenton County,KY,NA,52.94117647058824,NA
41017,Kenton County,KY,NA,16.21417797888386,NA
41042,Boone County,KY,61.440677966101696,NA,NA
41091,Boone County,KY,65.16949152542372,NA,NA
41101,Boyd County,KY,60.16949152542372,NA,NA
41179,Lewis County,KY,54.15254237288135,NA,NA
41522,Pike County,KY,NA,92.15686274509804,NA
42001,McCracken County,KY,NA,16.289592760180994,NA
42101,Warren County,KY,5.2542372881355925,NA,NA
42104,Warren County,KY,35.67796610169491,NA,NA
42134,Simpson County,KY,NA,62.971342383107086,NA
42164,Allen County,KY,NA,50.2262443438914,NA
42211,Trigg County,KY,56.1864406779661,NA,NA
42217,Christian County,KY,95.33898305084746,NA,NA
42301,Daviess County,KY,29.067796610169495,NA,NA
42347,Ohio County,KY,NA,61.76470588235294,NA
42437,Union County,KY,69.15254237288136,NA,81.15942028985508
42445,Caldwell County,KY,88.38983050847457,NA,NA
70002,Jefferson Parish,LA,40.33898305084746,NA,NA
70005,Jefferson Parish,LA,NA,52.56410256410257,NA
70053,Jefferson Parish,LA,20,NA,NA
70062,Jefferson Parish,LA,NA,NA,79.71014492753623
70117,Orleans Parish,LA,NA,12.44343891402715,NA
70359,Terrebonne Parish,LA,25.169491525423727,66.21417797888385,NA
70360,Terrebonne Parish,LA,7.796610169491526,NA,NA
70373,Lafourche Parish,LA,NA,58.44645550527904,NA
70374,Lafourche Parish,LA,62.96610169491525,56.25942684766214,NA
70380,St. Mary Parish,LA,17.627118644067796,NA,NA
70435,St. Tammany Parish,LA,NA,12.594268476621417,NA
70437,St. Tammany Parish,LA,NA,55.7315233785822,NA
70458,St. Tammany Parish,LA,NA,2.0361990950226243,NA
70508,Lafayette Parish,LA,11.35593220338983,15.384615384615385,NA
70520,Lafayette Parish,LA,18.728813559322035,NA,NA
70538,St. Mary Parish,LA,NA,45.625942684766216,NA
70560,Iberia Parish,LA,NA,59.42684766214178,NA
70570,St. Landry Parish,LA,7.033898305084746,NA,NA
70633,Calcasieu Parish,LA,57.11864406779661,NA,NA
70791,East Baton Rouge Parish,LA,NA,23.906485671191554,NA
71037,Bossier Parish,LA,13.644067796610168,74.96229260935144,73.91304347826086
71078,De Soto Parish,LA,NA,69.30618401206637,NA
71106,Caddo Parish,LA,5.084745762711865,82.27752639517345,NA
71108,Caddo Parish,LA,86.4406779661017,NA,NA
71111,Bossier Parish,LA,NA,9.049773755656108,NA
71301,Rapides Parish,LA,5.677966101694915,NA,NA
71303,Rapides Parish,LA,NA,86.19909502262443,NA
71360,Rapides Parish,LA,8.135593220338983,NA,NA
03901,York County,ME,NA,76.47058823529412,NA
04002,York County,ME,NA,40.64856711915535,NA
04072,York County,ME,33.13559322033898,NA,NA
04083,York County,ME,NA,84.76621417797888,NA
04084,Cumberland County,ME,NA,78.28054298642535,NA
04092,Cumberland County,ME,NA,NA,45.289855072463766
04240,Androscoggin County,ME,36.86440677966102,1.4328808446455505,NA
04401,Penobscot County,ME,24.06779661016949,0.8295625942684767,NA
04605,Hancock County,ME,37.54237288135593,NA,NA
04901,Kennebec County,ME,83.72881355932203,NA,NA
04915,Waldo County,ME,89.7457627118644,NA,NA
04938,Franklin County,ME,44.83050847457627,NA,NA
04958,Somerset County,ME,NA,99.92458521870287,NA
20602,Charles County,MD,NA,63.42383107088989,NA
20720,Prince George's County,MD,74.66101694915255,NA,NA
20744,Prince George's County,MD,NA,31.447963800904976,NA
20878,Montgomery County,MD,40.08474576271187,NA,NA
20906,Montgomery County,MD,46.440677966101696,NA,NA
21015,Harford County,MD,NA,51.35746606334841,NA
21085,Harford County,MD,NA,NA,70.28985507246377
21117,Baltimore County,MD,24.322033898305083,NA,NA
21128,Baltimore County,MD,80.50847457627118,NA,NA
21204,Baltimore County,MD,NA,70.66365007541478,NA
21207,Baltimore County,MD,NA,19.079939668174962,NA
21210,Baltimore city,MD,NA,64.17797888386124,NA
21221,Baltimore County,MD,15.169491525423728,17.11915535444947,NA
21227,Baltimore County,MD,48.13559322033898,NA,NA
21234,Baltimore County,MD,NA,5.505279034690799,NA
21502,Allegany County,MD,19.406779661016948,NA,NA
21658,Queen Anne's County,MD,97.71186440677965,NA,NA
21702,Frederick County,MD,61.52542372881356,NA,NA
21774,Frederick County,MD,81.44067796610169,NA,NA
21784,Carroll County,MD,48.30508474576271,NA,NA
01001,Hampden County,MA,NA,15.912518853695323,NA
01027,Hampshire County,MA,52.54237288135594,NA,NA
01075,Hampshire County,MA,NA,97.66214177978884,NA
01226,Berkshire County,MA,70.25423728813558,NA,NA
01238,Berkshire County,MA,47.11864406779661,NA,NA
01247,Berkshire County,MA,39.32203389830509,NA,NA
01360,Franklin County,MA,96.69491525423729,NA,NA
01376,Franklin County,MA,56.016949152542374,NA,NA
01420,Worcester County,MA,NA,11.840120663650074,NA
01440,Worcester County,MA,1.1864406779661016,6.108597285067873,NA
01462,Worcester County,MA,44.40677966101695,NA,NA
01510,Worcester County,MA,NA,37.33031674208145,NA
01564,Worcester County,MA,NA,93.96681749622925,NA
01607,Worcester County,MA,9.322033898305085,NA,NA
01720,Middlesex County,MA,28.220338983050848,NA,NA
01747,Worcester County,MA,NA,80.8446455505279,NA
01752,Middlesex County,MA,13.728813559322035,NA,NA
01757,Worcester County,MA,25,3.469079939668175,NA
01760,Middlesex County,MA,NA,4.901960784313726,NA
01776,Middlesex County,MA,NA,80.76923076923077,NA
01778,Middlesex County,MA,NA,41.77978883861237,NA
01803,Middlesex County,MA,NA,43.36349924585219,NA
01826,Middlesex County,MA,48.644067796610166,83.48416289592761,NA
01830,Essex County,MA,0.7627118644067797,NA,NA
01834,Essex County,MA,NA,68.17496229260935,NA
01841,Essex County,MA,NA,NA,3.6231884057971016
01843,Essex County,MA,2.3728813559322033,NA,NA
01845,Essex County,MA,NA,NA,88.76811594202898
01852,Middlesex County,MA,NA,0.6787330316742082,NA
01863,Middlesex County,MA,NA,54.07239819004525,NA
01864,Middlesex County,MA,NA,27.90346907993967,NA
01879,Middlesex County,MA,NA,73.45399698340876,NA
01880,Middlesex County,MA,NA,NA,62.31884057971014
01886,Middlesex County,MA,NA,NA,48.188405797101446
01890,Middlesex County,MA,NA,90.64856711915536,NA
01906,Essex County,MA,2.11864406779661,31.372549019607842,NA
01915,Essex County,MA,1.3559322033898304,NA,NA
01923,Essex County,MA,3.050847457627119,3.619909502262444,NA
01930,Essex County,MA,NA,0.3770739064856712,NA
01960,Essex County,MA,NA,26.31975867269985,NA
01970,Essex County,MA,NA,4.524886877828054,NA
02026,Norfolk County,MA,NA,89.2156862745098,NA
02035,Norfolk County,MA,26.610169491525426,19.306184012066367,NA
02038,Norfolk County,MA,35.59322033898305,NA,NA
02043,Plymouth County,MA,31.101694915254235,NA,NA
02045,Plymouth County,MA,NA,48.19004524886878,NA
02048,Bristol County,MA,NA,40.19607843137255,NA
02090,Norfolk County,MA,NA,NA,40.57971014492754
02115,Suffolk County,MA,NA,40.120663650075414,NA
02116,Suffolk County,MA,11.186440677966102,NA,NA
02118,Suffolk County,MA,16.101694915254235,0.1508295625942685,NA
02119,Suffolk County,MA,0,NA,NA
02121,Suffolk County,MA,NA,NA,6.159420289855073
02124,Suffolk County,MA,0.5084745762711864,NA,NA
02126,Suffolk County,MA,17.033898305084747,2.1116138763197587,NA
02129,Suffolk County,MA,2.7966101694915255,NA,NA
02131,Suffolk County,MA,0.9322033898305085,NA,NA
02136,Suffolk County,MA,9.23728813559322,NA,NA
02148,Middlesex County,MA,0.423728813559322,NA,NA
02149,Middlesex County,MA,NA,NA,2.1739130434782608
02150,Suffolk County,MA,NA,NA,60.507246376811594
02152,Suffolk County,MA,NA,5.052790346907994,NA
02171,Norfolk County,MA,NA,48.64253393665158,NA
02176,Middlesex County,MA,24.576271186440678,NA,NA
02189,Norfolk County,MA,19.06779661016949,NA,NA
02190,Norfolk County,MA,22.71186440677966,NA,NA
02301,Plymouth County,MA,NA,NA,0.7246376811594203
02302,Plymouth County,MA,5.932203389830509,NA,NA
02346,Plymouth County,MA,NA,8.144796380090497,NA
02368,Norfolk County,MA,NA,68.25037707390649,NA
02420,Middlesex County,MA,29.830508474576273,NA,NA
02452,Middlesex County,MA,NA,32.57918552036199,NA
02459,Middlesex County,MA,37.6271186440678,NA,NA
02467,Norfolk County,MA,NA,73.90648567119156,NA
02472,Middlesex County,MA,NA,NA,73.55072463768117
02476,Middlesex County,MA,NA,21.417797888386122,NA
02478,Middlesex County,MA,NA,NA,35.14492753623188
02536,Barnstable County,MA,NA,60.633484162895925,NA
02537,Barnstable County,MA,NA,79.78883861236802,NA
02540,Barnstable County,MA,48.898305084745765,NA,NA
02554,Nantucket County,MA,NA,99.3212669683258,NA
02571,Plymouth County,MA,9.661016949152543,NA,NA
02601,Barnstable County,MA,17.71186440677966,NA,NA
02632,Barnstable County,MA,NA,42.15686274509804,NA
02635,Barnstable County,MA,NA,93.21266968325791,NA
02655,Barnstable County,MA,NA,93.58974358974359,NA
02664,Barnstable County,MA,NA,29.411764705882355,NA
02673,Barnstable County,MA,47.62711864406779,NA,NA
02703,Bristol County,MA,84.32203389830508,75.49019607843137,NA
02720,Bristol County,MA,0.0847457627118644,0.301659125188537,NA
02721,Bristol County,MA,3.728813559322034,NA,NA
02724,Bristol County,MA,3.2203389830508473,3.3936651583710407,NA
02762,Norfolk County,MA,49.57627118644068,NA,NA
02780,Bristol County,MA,2.8813559322033897,NA,NA
48003,Lapeer County,MI,91.77966101694915,NA,NA
48044,Macomb County,MI,5.8474576271186445,NA,NA
48045,Macomb County,MI,NA,11.010558069381599,NA
48047,Macomb County,MI,NA,9.879336349924586,NA
48054,St. Clair County,MI,NA,63.49924585218702,NA
48059,St. Clair County,MI,82.03389830508473,NA,NA
48060,St. Clair County,MI,2.5423728813559325,NA,NA
48075,Oakland County,MI,25.423728813559322,NA,NA
48079,St. Clair County,MI,56.69491525423729,79.11010558069381,NA
48080,Macomb County,MI,NA,8.974358974358974,58.333333333333336
48085,Oakland County,MI,NA,56.63650075414781,NA
48101,Wayne County,MI,18.8135593220339,NA,23.55072463768116
48117,Monroe County,MI,NA,60.18099547511312,NA
48124,Wayne County,MI,15.084745762711865,19.230769230769234,NA
48127,Wayne County,MI,NA,15.158371040723981,NA
48135,Wayne County,MI,18.305084745762713,NA,NA
48138,Wayne County,MI,86.61016949152543,NA,NA
48161,Monroe County,MI,5.593220338983051,NA,NA
48162,Monroe County,MI,8.813559322033898,1.7345399698340875,NA
48167,Oakland County,MI,33.389830508474574,NA,NA
48168,Wayne County,MI,73.5593220338983,NA,NA
48170,Wayne County,MI,NA,NA,2.898550724637681
48182,Monroe County,MI,53.983050847457626,NA,NA
48183,Wayne County,MI,NA,NA,11.956521739130435
48195,Wayne County,MI,66.35593220338983,6.787330316742081,NA
48197,Washtenaw County,MI,NA,1.0558069381598794,NA
48203,Wayne County,MI,68.30508474576271,NA,NA
48208,Wayne County,MI,88.30508474576271,NA,NA
48215,Wayne County,MI,30.16949152542373,NA,NA
48219,Wayne County,MI,19.576271186440678,1.6591251885369533,NA
48221,Wayne County,MI,66.94915254237289,NA,NA
48224,Wayne County,MI,NA,16.138763197586727,NA
48225,Wayne County,MI,NA,57.993966817496236,NA
48227,Wayne County,MI,NA,NA,57.608695652173914
48228,Wayne County,MI,0.847457627118644,NA,NA
48234,Wayne County,MI,NA,10.633484162895927,NA
48236,Wayne County,MI,NA,NA,12.318840579710146
48301,Oakland County,MI,57.28813559322033,NA,NA
48302,Oakland County,MI,NA,39.59276018099548,NA
48310,Macomb County,MI,40.16949152542373,81.82503770739065,NA
48315,Macomb County,MI,NA,14.479638009049776,NA
48317,Macomb County,MI,17.796610169491526,NA,NA
48327,Oakland County,MI,26.101694915254235,NA,NA
48329,Oakland County,MI,NA,16.440422322775262,NA
48335,Oakland County,MI,NA,45.47511312217195,NA
48336,Oakland County,MI,NA,34.23831070889894,NA
48371,Oakland County,MI,NA,40.497737556561084,NA
48382,Oakland County,MI,42.96610169491525,77.60180995475113,NA
48390,Oakland County,MI,NA,28.582202111613874,NA
48420,Genesee County,MI,68.89830508474576,36.95324283559578,NA
48422,Sanilac County,MI,86.1864406779661,NA,NA
48423,Genesee County,MI,NA,17.194570135746606,NA
48430,Genesee County,MI,NA,15.460030165912519,NA
48436,Genesee County,MI,97.6271186440678,NA,NA
48439,Genesee County,MI,35.33898305084745,NA,NA
48446,Lapeer County,MI,10.847457627118644,NA,NA
48532,Genesee County,MI,NA,NA,46.73913043478261
48612,Gladwin County,MI,54.23728813559322,NA,NA
48642,Midland County,MI,72.03389830508475,NA,NA
48768,Tuscola County,MI,NA,93.06184012066365,NA
48817,Shiawassee County,MI,79.49152542372882,75.94268476621417,NA
48827,Eaton County,MI,35.42372881355932,NA,NA
48843,Livingston County,MI,NA,22.2473604826546,NA
48850,Montcalm County,MI,92.20338983050847,NA,NA
48858,Isabella County,MI,4.830508474576272,NA,NA
48892,Ingham County,MI,86.77966101694915,NA,NA
49001,Kalamazoo County,MI,47.28813559322034,NA,NA
49006,Kalamazoo County,MI,NA,NA,56.88405797101449
49010,Allegan County,MI,NA,37.782805429864254,NA
49013,Van Buren County,MI,NA,98.41628959276018,NA
49022,Berrien County,MI,6.694915254237288,38.612368024132735,NA
49024,Kalamazoo County,MI,NA,17.49622926093514,NA
49037,Calhoun County,MI,38.13559322033898,NA,NA
49068,Calhoun County,MI,NA,38.91402714932127,NA
49078,Allegan County,MI,NA,79.56259426847662,NA
49085,Berrien County,MI,NA,81.2971342383107,NA
49087,Kalamazoo County,MI,85.08474576271186,NA,NA
49090,Van Buren County,MI,NA,66.9683257918552,NA
49093,St. Joseph County,MI,NA,30.015082956259427,NA
49112,Cass County,MI,NA,79.7134238310709,NA
49202,Jackson County,MI,26.440677966101696,NA,NA
49229,Lenawee County,MI,93.89830508474576,NA,NA
49327,Newaygo County,MI,71.4406779661017,NA,NA
49331,Kent County,MI,NA,36.50075414781297,NA
49349,Newaygo County,MI,52.118644067796616,NA,NA
49412,Newaygo County,MI,NA,50.452488687782804,NA
49418,Kent County,MI,NA,21.794871794871796,NA
49423,Ottawa County,MI,8.64406779661017,NA,NA
49424,Ottawa County,MI,38.983050847457626,NA,NA
49428,Ottawa County,MI,72.96610169491525,NA,NA
49431,Mason County,MI,NA,70.88989441930619,NA
49441,Muskegon County,MI,NA,2.262443438914027,NA
49442,Muskegon County,MI,2.711864406779661,NA,NA
49445,Muskegon County,MI,NA,15.987933634992457,NA
49457,Muskegon County,MI,NA,NA,85.86956521739131
49461,Muskegon County,MI,NA,82.73001508295626,NA
49508,Kent County,MI,4.745762711864407,NA,NA
49534,Kent County,MI,NA,68.92911010558069,NA
49601,Wexford County,MI,NA,93.66515837104072,NA
49657,Missaukee County,MI,98.47457627118644,NA,NA
49660,Manistee County,MI,NA,22.171945701357465,NA
49677,Osceola County,MI,57.96610169491525,NA,NA
49707,Alpena County,MI,NA,16.36500754147813,NA
49720,Charlevoix County,MI,NA,55.052790346908,NA
49829,Delta County,MI,NA,NA,27.898550724637683
49870,Dickinson County,MI,94.15254237288136,NA,NA
49920,Iron County,MI,NA,78.88386123680242,NA
49935,Iron County,MI,NA,61.0105580693816,NA
55008,Isanti County,MN,NA,NA,67.3913043478261
55025,Washington County,MN,NA,56.56108597285068,NA
55041,Wabasha County,MN,91.27118644067797,NA,NA
55060,Steele County,MN,61.86440677966102,82.12669683257919,NA
55066,Goodhue County,MN,NA,13.951734539969834,11.594202898550725
55108,Ramsey County,MN,NA,NA,98.91304347826086
55112,Ramsey County,MN,NA,NA,20.652173913043477
55119,Ramsey County,MN,NA,25.94268476621418,NA
55123,Dakota County,MN,NA,NA,90.21739130434783
55124,Dakota County,MN,NA,NA,46.01449275362319
55126,Ramsey County,MN,NA,62.14177978883861,NA
55128,Washington County,MN,NA,48.86877828054298,NA
55304,Anoka County,MN,33.98305084745763,NA,NA
55313,Wright County,MN,NA,35.294117647058826,NA
55336,McLeod County,MN,NA,94.11764705882352,NA
55364,Hennepin County,MN,75,NA,NA
55376,Wright County,MN,78.72881355932203,NA,NA
55379,Scott County,MN,52.03389830508475,NA,NA
55386,Carver County,MN,96.61016949152543,NA,NA
55404,Hennepin County,MN,NA,36.3499245852187,NA
55405,Hennepin County,MN,NA,40.64856711915535,NA
55408,Hennepin County,MN,NA,34.91704374057315,NA
55412,Hennepin County,MN,NA,65.61085972850678,NA
55418,Hennepin County,MN,NA,28.95927601809955,NA
55437,Hennepin County,MN,NA,74.43438914027149,NA
55709,Itasca County,MN,96.52542372881356,NA,NA
55744,Itasca County,MN,NA,4.374057315233785,NA
55806,St. Louis County,MN,22.033898305084744,NA,NA
55811,St. Louis County,MN,NA,24.509803921568626,NA
55963,Goodhue County,MN,NA,81.37254901960785,NA
56031,Martin County,MN,NA,14.93212669683258,NA
56156,Rock County,MN,85.50847457627118,NA,NA
56187,Nobles County,MN,60.42372881355932,NA,NA
56303,Stearns County,MN,NA,NA,50
56308,Douglas County,MN,21.864406779661017,NA,NA
56345,Morrison County,MN,NA,30.995475113122172,NA
56378,Stearns County,MN,74.15254237288136,NA,NA
56425,Crow Wing County,MN,NA,NA,66.30434782608695
56484,Cass County,MN,NA,NA,86.59420289855072
56537,Otter Tail County,MN,13.559322033898304,NA,NA
56621,Clearwater County,MN,NA,54.67571644042232,NA
56623,Lake of the Woods County,MN,99.57627118644068,NA,NA
38611,Marshall County,MS,NA,NA,80.43478260869566
38668,Tate County,MS,65.84745762711864,NA,NA
38683,Tippah County,MS,62.62711864406779,NA,NA
38801,Lee County,MS,32.03389830508475,NA,NA
38821,Monroe County,MS,NA,60.93514328808446,NA
38829,Prentiss County,MS,NA,36.65158371040724,NA
38834,Alcorn County,MS,14.491525423728813,NA,NA
39117,Scott County,MS,NA,68.77828054298642,NA
39120,Adams County,MS,65.33898305084746,NA,NA
39145,Rankin County,MS,NA,90.27149321266968,NA
39191,Copiah County,MS,82.28813559322033,NA,NA
39204,Hinds County,MS,NA,91.77978883861236,NA
39211,Hinds County,MS,NA,NA,35.507246376811594
39330,Clarke County,MS,98.64406779661017,NA,NA
39452,George County,MS,21.1864406779661,NA,NA
39503,Harrison County,MS,NA,19.984917043740573,NA
39525,Hancock County,MS,NA,46.90799396681749,NA
39565,Jackson County,MS,NA,31.297134238310708,NA
63010,Jefferson County,MO,63.983050847457626,NA,NA
63011,St. Louis County,MO,NA,12.82051282051282,NA
63012,Jefferson County,MO,NA,80.09049773755656,NA
63017,St. Louis County,MO,NA,57.16440422322775,NA
63021,St. Louis County,MO,NA,7.239819004524888,NA
63034,St. Louis County,MO,55.932203389830505,NA,NA
63043,St. Louis County,MO,NA,43.06184012066365,NA
63044,St. Louis County,MO,NA,NA,51.81159420289855
63050,Jefferson County,MO,NA,63.725490196078425,NA
63077,Franklin County,MO,NA,64.32880844645551,NA
63080,Franklin County,MO,NA,74.05731523378583,NA
63084,Franklin County,MO,NA,85.52036199095022,NA
63089,Franklin County,MO,NA,96.83257918552036,NA
63131,St. Louis County,MO,NA,66.89291101055807,NA
63133,St. Louis County,MO,NA,93.81598793363499,NA
63136,St. Louis County,MO,NA,34.16289592760181,NA
63139,St. Louis city,MO,63.64406779661017,NA,NA
63141,St. Louis County,MO,NA,NA,31.15942028985507
63301,St. Charles County,MO,9.745762711864407,1.809954751131222,NA
63303,St. Charles County,MO,NA,36.27450980392157,NA
63304,St. Charles County,MO,94.15254237288136,NA,NA
63376,St. Charles County,MO,NA,1.1312217194570136,NA
63379,Lincoln County,MO,NA,73.60482654600303,NA
63383,Warren County,MO,47.71186440677966,NA,NA
63385,St. Charles County,MO,12.203389830508476,NA,NA
63501,Adair County,MO,63.13559322033898,NA,NA
63552,Macon County,MO,NA,77.45098039215686,NA
63640,St. Francois County,MO,NA,28.28054298642534,NA
63873,New Madrid County,MO,88.38983050847457,NA,NA
63935,Ripley County,MO,73.5593220338983,NA,NA
64015,Jackson County,MO,NA,NA,41.30434782608695
64024,Clay County,MO,13.474576271186441,NA,NA
64029,Jackson County,MO,32.71186440677966,72.32277526395173,NA
64030,Jackson County,MO,NA,12.669683257918551,NA
64034,Jackson County,MO,NA,87.78280542986425,NA
64037,Lafayette County,MO,NA,NA,83.69565217391305
64048,Clay County,MO,NA,95.77677224736048,NA
64050,Jackson County,MO,39.40677966101695,11.91553544494721,NA
64055,Jackson County,MO,NA,4.97737556561086,NA
64056,Jackson County,MO,67.96610169491527,NA,NA
64060,Clay County,MO,NA,89.29110105580695,NA
64063,Jackson County,MO,32.11864406779661,NA,NA
64064,Jackson County,MO,NA,40.346907993966816,NA
64068,Clay County,MO,NA,4.44947209653092,NA
64085,Ray County,MO,43.983050847457626,NA,NA
64086,Jackson County,MO,NA,33.40874811463046,NA
64110,Jackson County,MO,NA,64.93212669683258,NA
64116,Clay County,MO,NA,34.99245852187028,NA
64117,Clay County,MO,62.03389830508475,NA,NA
64119,Clay County,MO,7.372881355932204,NA,NA
64131,Jackson County,MO,NA,77.0739064856712,NA
64133,Jackson County,MO,NA,2.564102564102564,NA
64151,Platte County,MO,25.593220338983052,NA,NA
64503,Buchanan County,MO,21.10169491525424,NA,NA
64505,Buchanan County,MO,57.88135593220339,NA,NA
64506,Buchanan County,MO,NA,27.450980392156865,NA
64735,Henry County,MO,NA,34.841628959276015,NA
64801,Jasper County,MO,NA,9.728506787330318,16.304347826086957
64804,Jasper County,MO,41.86440677966102,5.88235294117647,NA
64831,McDonald County,MO,NA,83.93665158371041,NA
64870,Jasper County,MO,38.30508474576271,NA,NA
65049,Camden County,MO,NA,76.47058823529412,NA
65065,Camden County,MO,NA,64.63046757164405,NA
65201,Boone County,MO,38.64406779661017,NA,NA
65202,Boone County,MO,7.627118644067797,NA,NA
65270,Randolph County,MO,70.76271186440678,33.78582202111614,NA
65613,Polk County,MO,NA,28.88386123680241,NA
65616,Taney County,MO,29.830508474576273,NA,NA
65686,Stone County,MO,NA,76.16892911010558,NA
65689,Texas County,MO,86.94915254237287,NA,NA
65708,Barry County,MO,NA,NA,97.82608695652173
65711,Wright County,MO,NA,NA,73.18840579710145
65714,Christian County,MO,NA,39.81900452488688,NA
65785,Cedar County,MO,NA,97.43589743589743,NA
65802,Greene County,MO,7.711864406779662,NA,NA
65803,Greene County,MO,NA,NA,53.62318840579711
59047,Park County,MT,70.9322033898305,NA,NA
59101,Yellowstone County,MT,NA,79.48717948717949,NA
59102,Yellowstone County,MT,NA,43.288084464555055,NA
59401,Cascade County,MT,NA,60.33182503770739,NA
59457,Fergus County,MT,NA,NA,30.434782608695656
59601,Lewis and Clark County,MT,NA,13.273001508295627,22.82608695652174
59718,Gallatin County,MT,NA,32.65460030165912,NA
59804,Missoula County,MT,NA,72.54901960784314,NA
59840,Ravalli County,MT,71.01694915254238,NA,NA
59901,Flathead County,MT,25.677966101694917,NA,NA
68008,Washington County,NE,NA,56.10859728506787,NA
68025,Dodge County,NE,NA,87.63197586726999,NA
68028,Sarpy County,NE,NA,91.6289592760181,NA
68037,Cass County,NE,98.98305084745763,NA,NA
68046,Sarpy County,NE,58.89830508474576,65.53544494720965,NA
68059,Sarpy County,NE,NA,99.84917043740573,NA
68107,Douglas County,NE,NA,49.62292609351433,NA
68122,Douglas County,NE,83.30508474576271,NA,NA
68123,Sarpy County,NE,NA,NA,63.76811594202898
68124,Douglas County,NE,NA,91.10105580693816,NA
68154,Douglas County,NE,NA,42.15686274509804,NA
69361,Scotts Bluff County,NE,NA,NA,59.42028985507246
89108,Clark County,NV,16.694915254237287,NA,NA
89115,Clark County,NV,15.677966101694915,NA,NA
89117,Clark County,NV,NA,29.33634992458522,NA
89130,Clark County,NV,47.88135593220339,NA,NA
89141,Clark County,NV,NA,NA,93.47826086956522
89148,Clark County,NV,39.49152542372881,NA,NA
89169,Clark County,NV,46.779661016949156,NA,NA
89178,Clark County,NV,NA,82.88084464555054,NA
89406,Churchill County,NV,NA,24.20814479638009,NA
89408,Lyon County,NV,NA,29.71342383107089,NA
89436,Washoe County,NV,NA,8.3710407239819,NA
89508,Washoe County,NV,NA,67.11915535444946,NA
89512,Washoe County,NV,11.779661016949152,NA,NA
89703,Carson City,NV,NA,63.57466063348416,59.05797101449275
89801,Elko County,NV,58.89830508474576,NA,NA
03051,Hillsborough County,NH,NA,14.027149321266968,NA
03063,Hillsborough County,NH,37.11864406779661,NA,NA
03079,Rockingham County,NH,39.23728813559322,NA,NA
03110,Hillsborough County,NH,50.76271186440678,NA,NA
03276,Merrimack County,NH,NA,NA,61.23188405797102
03301,Merrimack County,NH,NA,38.08446455505279,NA
03773,Sullivan County,NH,NA,61.990950226244344,NA
03841,Rockingham County,NH,87.71186440677965,NA,NA
03844,Rockingham County,NH,NA,97.81297134238311,NA
03858,Rockingham County,NH,NA,92.91101055806938,NA
07013,Passaic County,NJ,34.40677966101695,NA,NA
07031,Bergen County,NJ,NA,63.19758672699849,NA
07039,Essex County,NJ,NA,30.09049773755656,NA
07040,Essex County,NJ,NA,55.42986425339367,NA
07046,Morris County,NJ,97.20338983050848,NA,NA
07050,Essex County,NJ,NA,25.188536953242835,NA
07064,Middlesex County,NJ,98.5593220338983,NA,NA
07080,Middlesex County,NJ,94.74576271186442,NA,NA
07087,Hudson County,NJ,NA,NA,7.608695652173914
07092,Union County,NJ,72.20338983050848,NA,NA
07093,Hudson County,NJ,NA,95.09803921568627,NA
07107,Essex County,NJ,NA,45.022624434389144,NA
07111,Essex County,NJ,NA,5.88235294117647,NA
07205,Union County,NJ,NA,96.4555052790347,NA
07304,Hudson County,NJ,NA,83.2579185520362,NA
07407,Bergen County,NJ,NA,51.432880844645545,NA
07424,Passaic County,NJ,NA,76.01809954751131,NA
07442,Passaic County,NJ,63.05084745762712,NA,NA
07458,Bergen County,NJ,86.35593220338983,NA,NA
07470,Passaic County,NJ,NA,NA,30.79710144927536
07514,Passaic County,NJ,NA,61.68929110105581,NA
07522,Passaic County,NJ,NA,74.81146304675717,NA
07601,Bergen County,NJ,NA,3.770739064856712,NA
07646,Bergen County,NJ,NA,60.633484162895925,NA
07660,Bergen County,NJ,98.30508474576271,NA,NA
07666,Bergen County,NJ,NA,80.46757164404224,NA
07724,Monmouth County,NJ,NA,27.978883861236802,NA
07728,Monmouth County,NJ,NA,9.653092006033184,NA
07731,Monmouth County,NJ,25.08474576271186,32.880844645550525,NA
07738,Monmouth County,NJ,NA,91.55354449472097,NA
07747,Monmouth County,NJ,NA,32.20211161387632,NA
07821,Sussex County,NJ,77.88135593220339,NA,NA
07920,Somerset County,NJ,NA,52.865761689291105,NA
07928,Morris County,NJ,NA,95.47511312217195,NA
07974,Union County,NJ,99.23728813559322,NA,NA
08003,Camden County,NJ,90.93220338983052,NA,NA
08021,Camden County,NJ,0.1694915254237288,NA,NA
08034,Camden County,NJ,28.389830508474578,NA,NA
08085,Gloucester County,NJ,19.322033898305087,NA,NA
08096,Gloucester County,NJ,18.47457627118644,NA,NA
08105,Camden County,NJ,0.6779661016949152,NA,NA
08107,Camden County,NJ,23.389830508474578,NA,NA
08201,Atlantic County,NJ,48.559322033898304,NA,NA
08226,Cape May County,NJ,NA,48.03921568627451,NA
08330,Atlantic County,NJ,NA,86.50075414781297,NA
08332,Cumberland County,NJ,6.610169491525424,NA,NA
08551,Hunterdon County,NJ,97.71186440677965,NA,NA
08638,Mercer County,NJ,NA,30.920060331825038,NA
08701,Ocean County,NJ,2.288135593220339,NA,NA
08721,Ocean County,NJ,20.508474576271183,NA,NA
08751,Ocean County,NJ,98.72881355932203,NA,NA
08757,Ocean County,NJ,NA,2.1870286576168927,NA
08816,Middlesex County,NJ,28.8135593220339,20.28657616892911,NA
08817,Middlesex County,NJ,NA,18.024132730015083,NA
08840,Middlesex County,NJ,NA,65.00754147812971,NA
08854,Middlesex County,NJ,NA,97.3604826546003,NA
08859,Middlesex County,NJ,NA,55.5052790346908,NA
08861,Middlesex County,NJ,NA,3.2428355957767727,NA
08873,Somerset County,NJ,NA,18.32579185520362,NA
08879,Middlesex County,NJ,NA,47.28506787330316,NA
87020,Cibola County,NM,86.86440677966102,NA,NA
87043,Sandoval County,NM,NA,74.43438914027149,NA
87104,Bernalillo County,NM,NA,86.1236802413273,NA
87105,Bernalillo County,NM,3.4745762711864407,NA,16.666666666666664
87108,Bernalillo County,NM,5.169491525423728,NA,NA
87109,Bernalillo County,NM,NA,10.48265460030166,NA
87110,Bernalillo County,NM,NA,6.485671191553545,NA
87112,Bernalillo County,NM,NA,53.84615384615385,NA
87120,Bernalillo County,NM,28.474576271186443,8.823529411764707,NA
87121,Bernalillo County,NM,16.440677966101696,NA,NA
87123,Bernalillo County,NM,8.983050847457626,23.52941176470588,NA
87124,Sandoval County,NM,7.966101694915253,NA,NA
87327,Cibola County,NM,NA,72.77526395173453,NA
87410,San Juan County,NM,58.30508474576271,NA,NA
87420,San Juan County,NM,NA,59.04977375565611,49.275362318840585
88130,Roosevelt County,NM,NA,33.78582202111614,NA
88310,Otero County,NM,NA,2.413273001508296,NA
10002,New York County,NY,NA,NA,14.492753623188406
10011,New York County,NY,NA,13.122171945701359,NA
10027,New York County,NY,4.322033898305085,NA,NA
10028,New York County,NY,NA,25.037707390648567,NA
10030,New York County,NY,18.135593220338983,NA,NA
10033,New York County,NY,NA,14.25339366515837,NA
10304,Richmond County,NY,NA,16.817496229260936,NA
10306,Richmond County,NY,14.322033898305083,NA,NA
10452,Bronx County,NY,NA,42.684766214177976,NA
10453,Bronx County,NY,NA,0.4524886877828055,NA
10457,Bronx County,NY,NA,0.22624434389140274,NA
10458,Bronx County,NY,0.2542372881355932,NA,NA
10471,Bronx County,NY,NA,NA,37.31884057971014
10472,Bronx County,NY,NA,NA,17.391304347826086
10473,Bronx County,NY,4.067796610169491,NA,NA
10520,Westchester County,NY,NA,70.21116138763198,NA
10562,Westchester County,NY,NA,81.52337858220211,NA
10703,Westchester County,NY,NA,58.59728506787331,NA
10708,Westchester County,NY,93.38983050847457,NA,NA
10801,Westchester County,NY,NA,90.49773755656109,NA
10901,Rockland County,NY,92.03389830508475,NA,NA
10950,Orange County,NY,NA,78.28054298642535,NA
11205,Kings County,NY,NA,NA,68.47826086956522
11209,Kings County,NY,NA,14.630467571644044,NA
11216,Kings County,NY,30.76271186440678,NA,NA
11220,Kings County,NY,13.898305084745763,NA,NA
11221,Kings County,NY,NA,NA,6.521739130434782
11226,Kings County,NY,3.5593220338983054,NA,NA
11355,Queens County,NY,22.372881355932204,12.29260935143288,NA
11379,Queens County,NY,NA,52.111613876319765,NA
11413,Queens County,NY,NA,94.41930618401206,NA
11561,Nassau County,NY,NA,25.49019607843137,71.37681159420289
11566,Nassau County,NY,NA,41.55354449472097,NA
11691,Queens County,NY,6.101694915254238,NA,NA
11758,Nassau County,NY,NA,29.86425339366516,NA
11763,Suffolk County,NY,NA,NA,43.84057971014493
11777,Suffolk County,NY,NA,87.17948717948718,NA
12027,Saratoga County,NY,94.91525423728814,NA,NA
12095,Fulton County,NY,67.54237288135593,NA,NA
12303,Schenectady County,NY,95.16949152542374,NA,NA
12885,Warren County,NY,68.64406779661016,NA,NA
12920,Franklin County,NY,87.62711864406779,NA,NA
12953,Franklin County,NY,NA,NA,24.27536231884058
12983,Franklin County,NY,NA,96.22926093514329,NA
13021,Cayuga County,NY,52.71186440677966,11.236802413273002,NA
13031,Onondaga County,NY,NA,77.90346907993967,NA
13044,Oswego County,NY,90.67796610169492,NA,NA
13045,Cortland County,NY,NA,33.257918552036195,NA
13066,Onondaga County,NY,60.67796610169491,NA,NA
13084,Onondaga County,NY,NA,94.4947209653092,NA
13090,Onondaga County,NY,11.779661016949152,NA,NA
13108,Onondaga County,NY,NA,84.16289592760181,NA
13159,Onondaga County,NY,80.33898305084746,NA,NA
13165,Seneca County,NY,21.694915254237287,NA,NA
13203,Onondaga County,NY,NA,47.28506787330316,NA
13206,Onondaga County,NY,19.830508474576273,NA,NA
13207,Onondaga County,NY,24.74576271186441,NA,NA
13210,Onondaga County,NY,61.016949152542374,NA,NA
13309,Oneida County,NY,NA,69.45701357466064,NA
13326,Otsego County,NY,NA,50.829562594268474,NA
13346,Madison County,NY,NA,NA,66.66666666666666
13367,Lewis County,NY,76.86440677966102,NA,NA
13403,Oneida County,NY,82.20338983050848,NA,NA
13440,Oneida County,NY,1.5254237288135595,NA,NA
13471,Oneida County,NY,NA,92.60935143288084,NA
13476,Oneida County,NY,83.13559322033899,NA,NA
13478,Oneida County,NY,NA,95.77677224736048,NA
13601,Jefferson County,NY,16.52542372881356,NA,NA
13620,Lewis County,NY,93.98305084745763,NA,NA
13660,St. Lawrence County,NY,93.47457627118644,NA,NA
13667,St. Lawrence County,NY,89.23728813559322,NA,NA
13676,St. Lawrence County,NY,72.71186440677965,NA,NA
13732,Tioga County,NY,NA,35.74660633484163,NA
13746,Broome County,NY,NA,85.14328808446456,NA
13748,Broome County,NY,NA,98.64253393665159,NA
13760,Broome County,NY,NA,13.34841628959276,NA
13803,Cortland County,NY,NA,93.21266968325791,NA
13815,Chenango County,NY,10.084745762711865,NA,NA
13905,Broome County,NY,NA,2.790346907993967,NA
14042,Cattaraugus County,NY,NA,94.4947209653092,NA
14047,Erie County,NY,NA,69.68325791855203,NA
14059,Erie County,NY,88.98305084745762,NA,NA
14085,Erie County,NY,76.77966101694915,NA,NA
14086,Erie County,NY,15,14.781297134238311,NA
14094,Niagara County,NY,1.6101694915254237,NA,NA
14105,Niagara County,NY,80,NA,NA
14120,Niagara County,NY,4.23728813559322,4.147812971342383,NA
14127,Erie County,NY,11.101694915254237,NA,NA
14132,Niagara County,NY,57.3728813559322,NA,NA
14150,Erie County,NY,NA,NA,19.202898550724637
14210,Erie County,NY,21.271186440677965,NA,NA
14218,Erie County,NY,14.067796610169491,NA,NA
14220,Erie County,NY,36.016949152542374,NA,NA
14223,Erie County,NY,NA,31.221719457013574,NA
14226,Erie County,NY,23.983050847457626,NA,NA
14304,Niagara County,NY,NA,18.778280542986426,NA
14411,Orleans County,NY,NA,34.087481146304675,NA
14414,Livingston County,NY,NA,41.02564102564102,NA
14420,Monroe County,NY,11.271186440677965,NA,NA
14424,Ontario County,NY,NA,20.889894419306184,NA
14425,Ontario County,NY,12.796610169491526,71.49321266968326,NA
14433,Wayne County,NY,51.610169491525426,NA,NA
14437,Livingston County,NY,NA,NA,63.04347826086957
14450,Monroe County,NY,2.2033898305084745,0.603318250377074,NA
14456,Ontario County,NY,5.508474576271186,3.0165912518853695,NA
14464,Monroe County,NY,NA,NA,81.52173913043478
14466,Ontario County,NY,91.10169491525424,NA,NA
14468,Monroe County,NY,12.966101694915256,49.321266968325794,NA
14469,Ontario County,NY,NA,76.77224736048267,NA
14472,Monroe County,NY,41.35593220338983,NA,NA
14482,Genesee County,NY,44.57627118644068,NA,NA
14487,Livingston County,NY,NA,96.98340874811463,NA
14512,Ontario County,NY,NA,NA,92.02898550724638
14514,Monroe County,NY,81.77966101694916,NA,NA
14519,Wayne County,NY,NA,21.87028657616893,NA
14526,Monroe County,NY,11.016949152542372,NA,NA
14534,Monroe County,NY,74.49152542372882,28.582202111613874,NA
14543,Monroe County,NY,NA,89.51734539969834,NA
14550,Wyoming County,NY,87.37288135593221,NA,NA
14559,Monroe County,NY,NA,77.37556561085974,NA
14564,Ontario County,NY,14.40677966101695,11.38763197586727,NA
14569,Wyoming County,NY,NA,80.24132730015083,NA
14580,Monroe County,NY,31.864406779661014,10.935143288084465,1.8115942028985508
14586,Monroe County,NY,26.27118644067797,NA,NA
14605,Monroe County,NY,27.71186440677966,NA,NA
14612,Monroe County,NY,NA,42.60935143288084,NA
14615,Monroe County,NY,8.050847457627118,NA,NA
14617,Monroe County,NY,NA,2.3378582202111615,NA
14619,Monroe County,NY,NA,66.66666666666666,NA
14620,Monroe County,NY,NA,11.085972850678733,NA
14623,Monroe County,NY,NA,17.043740573152338,NA
14624,Monroe County,NY,NA,12.518853695324283,NA
14727,Allegany County,NY,66.10169491525424,71.71945701357465,NA
14733,Chautauqua County,NY,75.9322033898305,NA,NA
14735,Allegany County,NY,NA,96.53092006033182,NA
14737,Cattaraugus County,NY,90.5084745762712,NA,NA
14760,Cattaraugus County,NY,49.66101694915254,8.672699849170437,NA
14770,Cattaraugus County,NY,82.54237288135593,NA,NA
14812,Schuyler County,NY,78.72881355932203,NA,NA
14823,Steuben County,NY,NA,90.72398190045249,NA
14830,Steuben County,NY,19.237288135593218,58.898944193061844,NA
14843,Steuben County,NY,NA,24.811463046757165,NA
14847,Seneca County,NY,94.40677966101696,NA,NA
14850,Tompkins County,NY,19.661016949152543,NA,NA
14870,Steuben County,NY,77.54237288135593,NA,NA
14895,Allegany County,NY,55.00000000000001,NA,36.594202898550726
14905,Chemung County,NY,NA,89.89441930618402,NA
27006,Davie County,NC,54.66101694915254,NA,NA
27020,Yadkin County,NC,83.64406779661017,NA,NA
27028,Davie County,NC,NA,30.316742081447963,NA
27040,Forsyth County,NC,NA,23.001508295625943,NA
27103,Forsyth County,NC,NA,NA,1.0869565217391304
27127,Forsyth County,NC,10.677966101694915,NA,NA
27249,Guilford County,NC,73.38983050847457,NA,NA
27253,Alamance County,NC,12.11864406779661,11.76470588235294,NA
27265,Guilford County,NC,14.83050847457627,NA,NA
27284,Forsyth County,NC,NA,0.7541478129713424,NA
27288,Rockingham County,NC,9.576271186440678,NA,NA
27292,Davidson County,NC,3.9830508474576267,0.5279034690799397,NA
27295,Davidson County,NC,3.305084745762712,NA,NA
27301,Guilford County,NC,63.22033898305085,NA,NA
27302,Alamance County,NC,NA,8.597285067873303,NA
27312,Chatham County,NC,NA,13.800904977375566,15.579710144927535
27325,Moore County,NC,79.57627118644068,NA,NA
27344,Chatham County,NC,70.08474576271186,36.65158371040724,NA
27376,Moore County,NC,NA,78.73303167420815,NA
27405,Guilford County,NC,NA,81.90045248868778,NA
27502,Wake County,NC,53.813559322033896,NA,NA
27518,Wake County,NC,NA,47.134238310708895,NA
27519,Wake County,NC,NA,74.6606334841629,NA
27520,Johnston County,NC,NA,61.085972850678736,NA
27524,Johnston County,NC,64.32203389830508,NA,NA
27526,Wake County,NC,68.8135593220339,NA,NA
27530,Wayne County,NC,10.762711864406779,NA,NA
27534,Wayne County,NC,NA,44.34389140271493,NA
27565,Granville County,NC,NA,13.8763197586727,NA
27576,Johnston County,NC,NA,48.86877828054298,NA
27596,Franklin County,NC,NA,54.90196078431373,NA
27603,Wake County,NC,16.864406779661017,NA,NA
27608,Wake County,NC,88.22033898305085,NA,NA
27616,Wake County,NC,15.847457627118644,NA,NA
27804,Nash County,NC,28.05084745762712,NA,NA
27822,Wilson County,NC,78.38983050847457,NA,NA
27889,Beaufort County,NC,79.74576271186442,NA,62.68115942028986
27892,Martin County,NC,40.76271186440678,NA,NA
27896,Wilson County,NC,NA,68.40120663650076,NA
27949,Dare County,NC,84.40677966101696,NA,NA
28001,Stanly County,NC,25.76271186440678,NA,NA
28012,Gaston County,NC,NA,45.85218702865762,NA
28025,Cabarrus County,NC,50.593220338983045,9.200603318250378,NA
28027,Cabarrus County,NC,13.983050847457626,NA,NA
28031,Mecklenburg County,NC,89.57627118644068,NA,NA
28034,Gaston County,NC,36.77966101694915,NA,NA
28043,Rutherford County,NC,63.898305084745765,NA,NA
28052,Gaston County,NC,NA,21.040723981900452,NA
28083,Cabarrus County,NC,23.47457627118644,NA,NA
28128,Stanly County,NC,NA,96.75716440422323,NA
28146,Rowan County,NC,26.35593220338983,NA,NA
28147,Rowan County,NC,26.016949152542374,NA,NA
28203,Mecklenburg County,NC,76.61016949152543,NA,NA
28205,Mecklenburg County,NC,NA,21.568627450980394,NA
28216,Mecklenburg County,NC,NA,10.407239819004525,NA
28226,Mecklenburg County,NC,NA,37.405731523378584,NA
28227,Mecklenburg County,NC,NA,11.463046757164404,NA
28270,Mecklenburg County,NC,NA,38.763197586727,NA
28273,Mecklenburg County,NC,67.11864406779661,NA,NA
28312,Cumberland County,NC,NA,40.42232277526395,NA
28320,Bladen County,NC,NA,NA,79.34782608695652
28337,Bladen County,NC,NA,80.01508295625943,NA
28339,Harnett County,NC,NA,NA,84.78260869565217
28340,Robeson County,NC,49.83050847457628,NA,NA
28349,Duplin County,NC,NA,98.11463046757164,NA
28352,Scotland County,NC,20.847457627118644,NA,NA
28372,Robeson County,NC,NA,55.65610859728507,NA
28376,Hoke County,NC,NA,NA,40.94202898550724
28405,New Hanover County,NC,NA,NA,52.17391304347826
28412,New Hanover County,NC,NA,21.266968325791854,NA
28431,Columbus County,NC,68.38983050847457,NA,94.56521739130434
28463,Columbus County,NC,NA,66.51583710407239,NA
28544,Onslow County,NC,99.40677966101696,NA,NA
28604,Watauga County,NC,NA,62.14177978883861,NA
28625,Iredell County,NC,NA,65.83710407239819,NA
28638,Caldwell County,NC,NA,57.76772247360482,NA
28645,Caldwell County,NC,NA,4.675716440422323,NA
28659,Wilkes County,NC,47.37288135593221,21.945701357466064,NA
28676,Surry County,NC,NA,98.19004524886877,NA
28712,Transylvania County,NC,92.11864406779661,NA,NA
28716,Haywood County,NC,NA,33.4841628959276,NA
28719,Jackson County,NC,NA,54.97737556561086,NA
28731,Henderson County,NC,NA,43.58974358974359,NA
28734,Macon County,NC,12.288135593220339,NA,NA
28786,Haywood County,NC,NA,75.41478129713424,NA
28791,Henderson County,NC,96.01694915254238,NA,NA
58078,Cass County,ND,68.22033898305084,NA,NA
58201,Grand Forks County,ND,24.83050847457627,NA,NA
58301,Ramsey County,ND,NA,56.86274509803921,NA
58401,Stutsman County,ND,64.40677966101694,NA,NA
58501,Burleigh County,ND,NA,23.001508295625943,10.144927536231885
58503,Burleigh County,ND,NA,22.699849170437407,NA
58504,Burleigh County,ND,83.81355932203391,NA,NA
58601,Stark County,ND,36.35593220338983,NA,NA
58703,Ward County,ND,NA,35.36953242835596,NA
58854,McKenzie County,ND,92.45762711864407,NA,NA
43011,Knox County,OH,NA,84.01206636500754,NA
43015,Delaware County,OH,10.932203389830509,NA,NA
43023,Licking County,OH,82.62711864406779,NA,NA
43055,Licking County,OH,1.0169491525423728,NA,NA
43081,Franklin County,OH,NA,7.088989441930618,NA
43085,Franklin County,OH,NA,54.826546003016595,NA
43113,Pickaway County,OH,9.915254237288137,NA,NA
43119,Franklin County,OH,NA,42.53393665158371,NA
43123,Franklin County,OH,43.813559322033896,NA,NA
43130,Fairfield County,OH,1.1016949152542372,1.3574660633484164,NA
43138,Hocking County,OH,NA,23.30316742081448,NA
43160,Fayette County,OH,73.72881355932203,NA,NA
43204,Franklin County,OH,37.28813559322034,NA,NA
43205,Franklin County,OH,38.559322033898304,NA,NA
43207,Franklin County,OH,NA,NA,20.28985507246377
43219,Franklin County,OH,NA,27.677224736048267,NA
43221,Franklin County,OH,59.40677966101695,NA,NA
43229,Franklin County,OH,5,NA,NA
43232,Franklin County,OH,15.423728813559324,NA,NA
43402,Wood County,OH,16.016949152542374,10.105580693815988,NA
43460,Wood County,OH,NA,88.76319758672699,NA
43506,Williams County,OH,NA,20.13574660633484,NA
43551,Wood County,OH,9.491525423728813,4.072398190045249,NA
43557,Williams County,OH,NA,99.47209653092006,NA
43558,Fulton County,OH,85,NA,NA
43560,Lucas County,OH,51.4406779661017,NA,NA
43606,Lucas County,OH,69.91525423728814,NA,NA
43607,Lucas County,OH,38.983050847457626,NA,NA
43608,Lucas County,OH,45.76271186440678,NA,NA
43611,Lucas County,OH,10.16949152542373,NA,NA
43612,Lucas County,OH,3.898305084745763,NA,NA
43615,Lucas County,OH,2.9661016949152543,NA,NA
43623,Lucas County,OH,NA,20.211161387631975,NA
43723,Guernsey County,OH,NA,89.66817496229261,NA
43725,Guernsey County,OH,56.949152542372886,NA,NA
43920,Columbiana County,OH,NA,6.93815987933635,NA
43953,Jefferson County,OH,NA,90.87481146304675,NA
43964,Jefferson County,OH,NA,25.26395173453997,NA
44004,Ashtabula County,OH,1.864406779661017,NA,NA
44011,Lorain County,OH,NA,20.588235294117645,NA
44017,Cuyahoga County,OH,NA,29.939668174962293,NA
44035,Lorain County,OH,6.186440677966102,0,NA
44039,Lorain County,OH,5.762711864406779,NA,NA
44052,Lorain County,OH,NA,1.206636500754148,NA
44053,Lorain County,OH,57.03389830508474,NA,NA
44077,Lake County,OH,NA,1.583710407239819,0.36231884057971014
44087,Summit County,OH,34.66101694915254,86.95324283559577,NA
44089,Erie County,OH,NA,6.561085972850679,10.869565217391305
44109,Cuyahoga County,OH,0.3389830508474576,NA,NA
44110,Cuyahoga County,OH,NA,29.034690799396685,NA
44113,Cuyahoga County,OH,44.32203389830509,NA,NA
44118,Cuyahoga County,OH,32.3728813559322,NA,5.434782608695652
44121,Cuyahoga County,OH,NA,8.521870286576169,22.10144927536232
44122,Cuyahoga County,OH,75.42372881355932,NA,NA
44126,Cuyahoga County,OH,NA,NA,34.78260869565217
44128,Cuyahoga County,OH,NA,NA,17.02898550724638
44135,Cuyahoga County,OH,NA,5.203619909502263,NA
44136,Cuyahoga County,OH,69.57627118644068,NA,NA
44137,Cuyahoga County,OH,NA,6.636500754147813,NA
44139,Cuyahoga County,OH,35.16949152542373,NA,NA
44140,Cuyahoga County,OH,NA,57.9185520361991,NA
44144,Cuyahoga County,OH,8.559322033898304,NA,NA
44145,Cuyahoga County,OH,42.45762711864407,NA,NA
44212,Medina County,OH,NA,18.627450980392158,NA
44236,Summit County,OH,NA,17.722473604826547,NA
44256,Medina County,OH,NA,0.07541478129713425,NA
44262,Summit County,OH,88.8135593220339,NA,NA
44278,Summit County,OH,NA,37.55656108597285,NA
44311,Summit County,OH,71.86440677966101,NA,NA
44312,Summit County,OH,NA,53.69532428355958,NA
44313,Summit County,OH,NA,45.70135746606335,NA
44319,Summit County,OH,NA,18.47662141779789,NA
44432,Columbiana County,OH,NA,65.68627450980392,NA
44511,Mahoning County,OH,18.89830508474576,NA,NA
44646,Stark County,OH,6.525423728813559,8.446455505279035,NA
44683,Tuscarawas County,OH,21.01694915254237,NA,NA
44691,Wayne County,OH,NA,3.092006033182504,NA
44705,Stark County,OH,20.33898305084746,NA,NA
44714,Stark County,OH,NA,NA,70.65217391304348
44805,Ashland County,OH,NA,2.941176470588235,NA
44870,Erie County,OH,NA,1.5082956259426847,NA
44875,Richland County,OH,33.47457627118644,NA,NA
45011,Butler County,OH,1.9491525423728815,62.745098039215684,NA
45013,Butler County,OH,43.728813559322035,NA,NA
45039,Warren County,OH,NA,81.22171945701358,NA
45052,Hamilton County,OH,99.66101694915255,NA,NA
45066,Warren County,OH,NA,NA,90.94202898550725
45069,Butler County,OH,17.966101694915253,12.97134238310709,NA
45106,Clermont County,OH,43.13559322033898,NA,NA
45135,Highland County,OH,92.62711864406779,NA,NA
45140,Clermont County,OH,NA,NA,23.18840579710145
45177,Clinton County,OH,19.491525423728813,NA,NA
45208,Hamilton County,OH,NA,96.07843137254902,NA
45212,Hamilton County,OH,23.64406779661017,51.20663650075414,NA
45215,Hamilton County,OH,NA,78.2051282051282,NA
45216,Hamilton County,OH,75.76271186440678,NA,NA
45224,Hamilton County,OH,NA,NA,44.20289855072464
45237,Hamilton County,OH,23.135593220338983,NA,NA
45238,Hamilton County,OH,9.830508474576272,NA,NA
45315,Montgomery County,OH,NA,82.20211161387631,NA
45322,Montgomery County,OH,NA,NA,32.608695652173914
45331,Darke County,OH,21.440677966101696,NA,NA
45335,Greene County,OH,NA,85.59577677224736,NA
45342,Montgomery County,OH,NA,6.41025641025641,NA
45365,Shelby County,OH,64.66101694915254,NA,NA
45373,Miami County,OH,54.91525423728814,NA,NA
45377,Montgomery County,OH,NA,40.64856711915535,NA
45403,Montgomery County,OH,29.830508474576273,NA,NA
45406,Montgomery County,OH,85.84745762711864,34.61538461538461,NA
45415,Montgomery County,OH,NA,51.9607843137255,NA
45424,Montgomery County,OH,NA,NA,8.695652173913043
45426,Montgomery County,OH,NA,29.11010558069382,NA
45430,Greene County,OH,93.72881355932203,NA,NA
45431,Montgomery County,OH,NA,85.8974358974359,NA
45432,Greene County,OH,NA,77.7526395173454,NA
45449,Montgomery County,OH,NA,40.95022624434389,NA
45458,Montgomery County,OH,NA,8.295625942684765,NA
45459,Montgomery County,OH,55.08474576271186,NA,NA
45601,Ross County,OH,4.661016949152542,NA,NA
45631,Gallia County,OH,NA,55.2790346907994,NA
45640,Jackson County,OH,NA,26.168929110105584,NA
45648,Scioto County,OH,NA,14.328808446455504,NA
45662,Scioto County,OH,NA,1.282051282051282,NA
45669,Lawrence County,OH,NA,15.309200603318251,NA
45690,Pike County,OH,12.627118644067798,NA,NA
45692,Jackson County,OH,74.83050847457628,NA,NA
45714,Washington County,OH,13.305084745762713,45.399698340874814,NA
45729,Washington County,OH,96.77966101694915,NA,NA
45750,Washington County,OH,1.2711864406779663,NA,NA
45769,Meigs County,OH,56.016949152542374,NA,NA
45801,Allen County,OH,8.220338983050848,18.32579185520362,NA
45850,Allen County,OH,98.89830508474576,NA,NA
45891,Van Wert County,OH,NA,19.683257918552037,NA
73003,Oklahoma County,OK,57.6271186440678,NA,NA
73013,Oklahoma County,OK,NA,6.184012066365008,NA
73018,Grady County,OK,38.983050847457626,NA,NA
73020,Oklahoma County,OK,NA,21.040723981900452,NA
73025,Oklahoma County,OK,62.118644067796616,51.65912518853696,NA
73034,Oklahoma County,OK,54.40677966101695,NA,NA
73044,Logan County,OK,NA,9.125188536953242,NA
73051,Cleveland County,OK,83.55932203389831,NA,NA
73065,McClain County,OK,NA,NA,88.40579710144928
73068,Cleveland County,OK,62.881355932203384,NA,NA
73069,Cleveland County,OK,NA,61.38763197586727,NA
73071,Cleveland County,OK,NA,9.502262443438914,NA
73072,Cleveland County,OK,53.64406779661017,NA,NA
73080,McClain County,OK,72.79661016949153,68.55203619909503,NA
73096,Custer County,OK,87.28813559322035,NA,NA
73099,Canadian County,OK,NA,26.244343891402718,NA
73105,Oklahoma County,OK,NA,94.19306184012066,NA
73106,Oklahoma County,OK,NA,65.08295625942685,NA
73109,Oklahoma County,OK,57.11864406779661,NA,NA
73115,Oklahoma County,OK,NA,36.1236802413273,NA
73119,Oklahoma County,OK,NA,32.80542986425339,NA
73120,Oklahoma County,OK,65.93220338983052,NA,15.217391304347828
73129,Oklahoma County,OK,44.152542372881356,NA,NA
73139,Oklahoma County,OK,NA,55.5052790346908,NA
73159,Oklahoma County,OK,NA,21.417797888386122,NA
73160,Cleveland County,OK,8.728813559322033,2.865761689291101,NA
73165,Cleveland County,OK,76.10169491525424,NA,NA
73501,Comanche County,OK,75.67796610169492,42.30769230769231,NA
73507,Comanche County,OK,38.22033898305085,24.283559577677224,NA
73521,Jackson County,OK,59.91525423728814,94.64555052790347,NA
73538,Comanche County,OK,98.8135593220339,NA,NA
73703,Garfield County,OK,NA,NA,59.78260869565217
73801,Woodward County,OK,NA,67.64705882352942,NA
74006,Washington County,OK,48.389830508474574,NA,29.347826086956523
74012,Tulsa County,OK,19.915254237288135,NA,NA
74017,Rogers County,OK,NA,NA,26.44927536231884
74019,Rogers County,OK,NA,48.56711915535445,NA
74055,Tulsa County,OK,NA,22.77526395173454,NA
74063,Tulsa County,OK,NA,65.15837104072398,NA
74066,Creek County,OK,NA,63.87631975867269,NA
74074,Payne County,OK,38.474576271186436,33.55957767722473,NA
74075,Payne County,OK,90.08474576271186,NA,NA
74126,Tulsa County,OK,86.69491525423729,NA,NA
74129,Tulsa County,OK,48.728813559322035,NA,NA
74136,Tulsa County,OK,NA,NA,27.536231884057973
74344,Delaware County,OK,NA,46.45550527903469,NA
74354,Ottawa County,OK,45.847457627118644,NA,NA
74604,Kay County,OK,NA,NA,49.63768115942029
74631,Kay County,OK,76.35593220338983,NA,NA
74647,Kay County,OK,NA,98.79336349924586,NA
74701,Bryan County,OK,53.559322033898304,NA,NA
74801,Pottawatomie County,OK,NA,NA,38.04347826086957
74804,Pottawatomie County,OK,NA,69.98491704374057,NA
74857,Cleveland County,OK,NA,79.03469079939669,NA
74965,Adair County,OK,NA,87.02865761689291,NA
97006,Washington County,OR,79.3220338983051,NA,NA
97009,Clackamas County,OR,NA,73.68024132730015,NA
97030,Multnomah County,OR,NA,46.68174962292609,NA
97056,Columbia County,OR,NA,78.12971342383108,NA
97058,Wasco County,OR,NA,97.28506787330316,NA
97078,Washington County,OR,82.37288135593221,NA,NA
97103,Clatsop County,OR,47.96610169491525,82.35294117647058,NA
97113,Washington County,OR,NA,97.20965309200604,68.84057971014492
97123,Washington County,OR,NA,10.180995475113122,NA
97124,Washington County,OR,82.96610169491525,NA,NA
97138,Clatsop County,OR,NA,88.46153846153845,NA
97146,Clatsop County,OR,89.7457627118644,NA,NA
97203,Multnomah County,OR,NA,NA,80.79710144927536
97206,Multnomah County,OR,NA,NA,82.97101449275362
97216,Multnomah County,OR,44.66101694915254,NA,NA
97223,Washington County,OR,78.22033898305085,NA,NA
97225,Washington County,OR,NA,NA,76.81159420289855
97229,Washington County,OR,NA,29.260935143288087,NA
97233,Multnomah County,OR,11.610169491525424,NA,NA
97236,Multnomah County,OR,14.491525423728813,NA,NA
97267,Clackamas County,OR,NA,31.52337858220211,NA
97306,Marion County,OR,50,NA,NA
97321,Linn County,OR,22.28813559322034,NA,NA
97365,Lincoln County,OR,NA,32.73001508295626,NA
97367,Lincoln County,OR,NA,NA,82.2463768115942
97370,Benton County,OR,NA,95.62594268476622,NA
97381,Marion County,OR,76.1864406779661,NA,NA
97404,Lane County,OR,77.11864406779661,NA,NA
97411,Coos County,OR,NA,83.86123680241327,NA
97420,Coos County,OR,43.474576271186436,NA,NA
97424,Lane County,OR,NA,29.562594268476623,NA
97439,Lane County,OR,53.050847457627114,18.702865761689292,18.84057971014493
97470,Douglas County,OR,24.40677966101695,NA,NA
97471,Douglas County,OR,77.20338983050847,75.71644042232278,NA
97501,Jackson County,OR,NA,NA,28.6231884057971
97504,Jackson County,OR,46.271186440677965,NA,NA
97526,Josephine County,OR,20.76271186440678,NA,NA
97537,Jackson County,OR,NA,NA,86.23188405797102
97814,Baker County,OR,66.01694915254237,NA,NA
97850,Union County,OR,32.88135593220339,NA,NA
15025,Allegheny County,PA,42.88135593220339,NA,NA
15068,Westmoreland County,PA,14.152542372881355,NA,NA
15071,Allegheny County,PA,NA,95.39969834087482,NA
15089,Westmoreland County,PA,89.49152542372882,NA,NA
15136,Allegheny County,PA,NA,28.808446455505276,NA
15143,Allegheny County,PA,93.8135593220339,NA,NA
15146,Allegheny County,PA,NA,25.716440422322773,NA
15236,Allegheny County,PA,NA,23.981900452488688,NA
15237,Allegheny County,PA,42.6271186440678,NA,NA
15239,Allegheny County,PA,76.27118644067797,NA,NA
15241,Allegheny County,PA,NA,54.29864253393665,NA
15243,Allegheny County,PA,NA,69.00452488687783,NA
75072,NA,NA,75.2542372881356,NA,NA
15301,Washington County,PA,NA,NA,42.7536231884058
15342,Washington County,PA,NA,87.40573152337858,NA
15501,Somerset County,PA,NA,42.00603318250377,NA
15601,Westmoreland County,PA,15.338983050847457,NA,NA
15626,Westmoreland County,PA,NA,86.42533936651584,NA
15666,Westmoreland County,PA,44.49152542372881,NA,NA
15668,Westmoreland County,PA,NA,52.1870286576169,NA
15905,Cambria County,PA,NA,28.50678733031674,NA
16001,Butler County,PA,NA,NA,3.985507246376811
16046,Butler County,PA,NA,86.65158371040724,NA
16055,Butler County,PA,NA,78.58220211161388,NA
16066,Butler County,PA,58.47457627118644,NA,NA
16127,Mercer County,PA,63.559322033898304,NA,NA
16214,Clarion County,PA,NA,60.40723981900452,NA
16438,Erie County,PA,81.52542372881356,NA,NA
16505,Erie County,PA,NA,50.678733031674206,NA
16601,Blair County,PA,6.440677966101695,NA,NA
16635,Blair County,PA,68.98305084745763,NA,NA
16652,Huntingdon County,PA,NA,13.499245852187029,NA
16735,McKean County,PA,NA,58.59728506787331,NA
16743,McKean County,PA,84.23728813559322,NA,NA
16801,Centre County,PA,NA,23.30316742081448,NA
17020,Perry County,PA,95,NA,NA
17022,Lancaster County,PA,12.372881355932204,NA,NA
17036,Dauphin County,PA,NA,8.069381598793363,NA
17038,Lebanon County,PA,66.69491525423729,65.23378582202112,NA
17044,Mifflin County,PA,NA,28.12971342383107,NA
17046,Lebanon County,PA,NA,19.1553544494721,NA
17057,Dauphin County,PA,43.22033898305085,NA,NA
17078,Lebanon County,PA,NA,7.6923076923076925,52.89855072463768
17094,Juniata County,PA,NA,99.39668174962293,NA
17103,Dauphin County,PA,31.779661016949152,NA,NA
17111,Dauphin County,PA,NA,26.395173453996986,NA
17112,Dauphin County,PA,NA,NA,12.681159420289855
17201,Franklin County,PA,7.118644067796611,15.686274509803921,NA
17241,Cumberland County,PA,NA,74.13273001508296,NA
17331,York County,PA,NA,NA,1.4492753623188406
17340,Adams County,PA,NA,42.081447963800905,NA
17349,York County,PA,NA,86.3499245852187,NA
17362,York County,PA,NA,72.85067873303167,NA
17543,Lancaster County,PA,NA,7.7677224736048265,NA
17601,Lancaster County,PA,28.559322033898304,NA,NA
17701,Lycoming County,PA,17.11864406779661,3.619909502262444,7.971014492753622
17740,Lycoming County,PA,NA,45.77677224736048,NA
17751,Clinton County,PA,84.66101694915254,NA,NA
17801,Northumberland County,PA,15.254237288135593,16.063348416289593,NA
17844,Union County,PA,65.08474576271186,NA,NA
17857,Northumberland County,PA,59.06779661016949,NA,NA
18015,Northampton County,PA,NA,19.834087481146305,NA
18017,Northampton County,PA,4.915254237288136,NA,NA
18018,Lehigh County,PA,NA,NA,10.507246376811594
18020,Northampton County,PA,NA,24.057315233785822,57.971014492753625
18032,Lehigh County,PA,50.847457627118644,NA,NA
18038,Northampton County,PA,96.1864406779661,NA,NA
18042,Northampton County,PA,4.491525423728813,42.835595776772244,NA
18045,Northampton County,PA,88.5593220338983,NA,NA
18049,Lehigh County,PA,36.186440677966104,NA,NA
18058,Monroe County,PA,85.9322033898305,NA,NA
18062,Lehigh County,PA,68.05084745762711,NA,NA
18066,Lehigh County,PA,NA,72.2473604826546,NA
18088,Northampton County,PA,81.52542372881356,NA,NA
18102,Lehigh County,PA,6.016949152542373,4.223227752639517,NA
18103,Lehigh County,PA,NA,46.30467571644042,NA
18104,Lehigh County,PA,10.254237288135592,NA,NA
18109,Lehigh County,PA,NA,41.8552036199095,NA
18201,Luzerne County,PA,78.30508474576271,NA,NA
18202,Luzerne County,PA,NA,NA,45.65217391304348
18214,Schuylkill County,PA,NA,98.94419306184012,NA
18222,Luzerne County,PA,88.72881355932203,NA,97.10144927536231
18235,Carbon County,PA,NA,23.227752639517345,NA
18428,Pike County,PA,67.28813559322035,NA,NA
18436,Wayne County,PA,NA,56.334841628959275,NA
18447,Lackawanna County,PA,70.25423728813558,NA,NA
18507,Lackawanna County,PA,NA,89.14027149321268,NA
18510,Lackawanna County,PA,58.389830508474574,NA,NA
18512,Lackawanna County,PA,55.254237288135585,NA,NA
18603,Columbia County,PA,NA,46.60633484162896,NA
18702,Luzerne County,PA,88.64406779661017,NA,NA
18810,Bradford County,PA,89.40677966101694,NA,NA
18840,Bradford County,PA,NA,73.00150829562594,NA
18940,Bucks County,PA,NA,33.78582202111614,NA
18951,Bucks County,PA,NA,92.3076923076923,NA
18966,Bucks County,PA,NA,7.541478129713424,NA
19006,Montgomery County,PA,NA,60.85972850678733,NA
19008,Delaware County,PA,NA,29.71342383107089,NA
19010,Delaware County,PA,50.16949152542372,NA,NA
19018,Delaware County,PA,NA,29.185520361990953,NA
19021,Bucks County,PA,90.16949152542372,71.41779788838612,NA
19036,Delaware County,PA,46.61016949152542,NA,NA
19038,Montgomery County,PA,NA,53.09200603318251,NA
19046,Montgomery County,PA,38.728813559322035,NA,NA
19061,Delaware County,PA,70.6779661016949,NA,NA
19079,Delaware County,PA,59.91525423728814,NA,NA
19083,Delaware County,PA,53.30508474576271,NA,NA
19104,Philadelphia County,PA,NA,12.669683257918551,NA
19120,Philadelphia County,PA,NA,NA,42.391304347826086
19122,Philadelphia County,PA,38.813559322033896,NA,NA
19125,Philadelphia County,PA,NA,49.7737556561086,NA
19134,Philadelphia County,PA,2.457627118644068,NA,NA
19135,Philadelphia County,PA,NA,30.618401206636502,NA
19139,Philadelphia County,PA,3.6440677966101696,NA,NA
19140,Philadelphia County,PA,38.89830508474576,NA,NA
19145,Philadelphia County,PA,56.355932203389834,NA,NA
19146,Philadelphia County,PA,80.76271186440678,NA,NA
19147,Philadelphia County,PA,91.18644067796609,NA,NA
19148,Philadelphia County,PA,NA,82.65460030165912,NA
19149,Philadelphia County,PA,5.423728813559322,NA,NA
19150,Philadelphia County,PA,NA,52.71493212669684,NA
19154,Philadelphia County,PA,39.74576271186441,NA,NA
19335,Chester County,PA,13.135593220338984,NA,NA
19341,Chester County,PA,NA,65.38461538461539,NA
19342,Delaware County,PA,80.84745762711864,NA,NA
19403,Montgomery County,PA,43.64406779661017,NA,NA
19406,Montgomery County,PA,68.55932203389831,30.165912518853695,NA
19426,Montgomery County,PA,NA,24.660633484162897,NA
19428,Montgomery County,PA,39.83050847457627,95.70135746606336,NA
19446,Montgomery County,PA,NA,10.558069381598793,NA
19454,Montgomery County,PA,NA,39.969834087481146,NA
19464,Montgomery County,PA,20.084745762711865,NA,NA
19468,Montgomery County,PA,33.47457627118644,NA,NA
19473,Montgomery County,PA,NA,91.8552036199095,NA
19518,Berks County,PA,70.84745762711864,NA,NA
19522,Berks County,PA,NA,27.7526395173454,NA
19530,Berks County,PA,NA,NA,71.73913043478261
19606,Berks County,PA,NA,NA,18.478260869565215
02816,Kent County,RI,22.54237288135593,9.95475113122172,NA
02818,Kent County,RI,60.08474576271187,NA,NA
02835,Newport County,RI,NA,78.50678733031674,NA
02840,Newport County,RI,NA,NA,51.449275362318836
02879,Washington County,RI,NA,77.60180995475113,NA
02888,Kent County,RI,NA,NA,39.130434782608695
02895,Providence County,RI,NA,21.644042232277528,NA
02904,Providence County,RI,26.779661016949152,NA,NA
29036,Lexington County,SC,62.62711864406779,NA,NA
29073,Lexington County,SC,17.28813559322034,NA,NA
29102,Clarendon County,SC,49.152542372881356,NA,NA
29153,Sumter County,SC,NA,54.22322775263952,NA
29203,Richland County,SC,NA,50.15082956259427,NA
29204,Richland County,SC,83.05084745762711,NA,NA
29206,Richland County,SC,NA,69.98491704374057,NA
29379,Union County,SC,NA,35.97285067873303,NA
29406,Charleston County,SC,20.423728813559322,NA,NA
29407,Charleston County,SC,NA,NA,17.753623188405797
29418,Charleston County,SC,31.694915254237287,NA,NA
29440,Georgetown County,SC,NA,70.43740573152338,NA
29456,Dorchester County,SC,60.932203389830505,NA,NA
29461,Berkeley County,SC,26.69491525423729,NA,NA
29466,Charleston County,SC,42.28813559322034,NA,NA
29483,Dorchester County,SC,12.45762711864407,NA,NA
29485,Dorchester County,SC,NA,24.73604826546003,NA
29488,Colleton County,SC,60.33898305084746,NA,NA
29505,Florence County,SC,NA,46.380090497737555,NA
29506,Florence County,SC,68.05084745762711,NA,NA
29511,Horry County,SC,NA,89.81900452488688,NA
29532,Darlington County,SC,NA,45.32428355957768,NA
29536,Dillon County,SC,73.89830508474576,NA,NA
29540,Darlington County,SC,91.61016949152543,NA,NA
29550,Darlington County,SC,35,NA,NA
29576,Horry County,SC,36.271186440677965,NA,NA
29585,Georgetown County,SC,NA,42.458521870286575,NA
29607,Greenville County,SC,NA,NA,25
29617,Greenville County,SC,29.322033898305083,28.431372549019606,NA
29621,Anderson County,SC,30.08474576271186,NA,NA
29640,Pickens County,SC,17.457627118644066,NA,NA
29650,Greenville County,SC,NA,37.17948717948718,NA
29651,Greenville County,SC,NA,41.704374057315235,NA
29654,Anderson County,SC,NA,57.692307692307686,NA
29678,Oconee County,SC,49.49152542372882,NA,NA
29687,Greenville County,SC,NA,17.420814479638008,NA
29696,Oconee County,SC,95.59322033898306,NA,NA
29708,York County,SC,NA,88.5369532428356,NA
29720,Lancaster County,SC,NA,22.39819004524887,NA
29745,York County,SC,NA,46.53092006033182,NA
29812,Barnwell County,SC,NA,49.24585218702866,NA
29909,Beaufort County,SC,NA,11.161387631975868,NA
29926,Beaufort County,SC,NA,54.67571644042232,NA
29944,Hampton County,SC,NA,NA,98.18840579710145
57005,Minnehaha County,SD,87.96610169491525,NA,NA
57042,Lake County,SD,NA,39.51734539969834,NA
57078,Yankton County,SD,NA,51.88536953242836,NA
57103,Minnehaha County,SD,NA,19.75867269984917,NA
57105,Minnehaha County,SD,NA,7.993966817496228,NA
57108,Lincoln County,SD,NA,NA,8.333333333333332
57110,Minnehaha County,SD,NA,55.80693815987934,NA
57301,Davison County,SD,NA,61.76470588235294,NA
57701,Pennington County,SD,NA,11.463046757164404,NA
57783,Lawrence County,SD,NA,NA,33.69565217391305
37015,Cheatham County,TN,NA,38.46153846153847,NA
37020,Bedford County,TN,NA,99.5475113122172,NA
37027,Williamson County,TN,32.96610169491526,NA,19.92753623188406
37064,Williamson County,TN,NA,10.633484162895927,NA
37075,Sumner County,TN,11.949152542372882,3.996983408748114,NA
37087,Wilson County,TN,12.711864406779661,NA,NA
37129,Rutherford County,TN,NA,74.28355957767722,NA
37186,Sumner County,TN,58.728813559322035,NA,NA
37190,Cannon County,TN,71.35593220338983,NA,NA
37205,Davidson County,TN,NA,73.98190045248869,NA
37207,Davidson County,TN,34.32203389830508,NA,NA
37218,Davidson County,TN,44.91525423728814,NA,NA
37221,Davidson County,TN,NA,88.08446455505279,NA
37355,Coffee County,TN,NA,44.34389140271493,NA
37370,McMinn County,TN,NA,83.10708898944193,NA
37379,Hamilton County,TN,64.83050847457628,57.993966817496236,NA
37406,Hamilton County,TN,NA,85.36953242835595,NA
37407,Hamilton County,TN,79.15254237288136,NA,NA
37415,Hamilton County,TN,51.101694915254235,NA,NA
37616,Greene County,TN,NA,93.51432880844645,NA
37641,Greene County,TN,83.89830508474576,NA,NA
37716,Anderson County,TN,NA,23.68024132730015,NA
37743,Greene County,TN,NA,NA,92.3913043478261
37745,Greene County,TN,20.93220338983051,NA,NA
37774,Loudon County,TN,NA,NA,29.71014492753623
37779,Union County,TN,95.84745762711864,NA,NA
37803,Blount County,TN,73.13559322033898,NA,NA
37826,McMinn County,TN,71.61016949152543,NA,NA
37830,Anderson County,TN,NA,53.39366515837104,NA
37857,Hawkins County,TN,27.627118644067792,NA,NA
37865,Sevier County,TN,33.728813559322035,NA,NA
37876,Sevier County,TN,27.372881355932204,NA,NA
37885,Monroe County,TN,NA,76.09351432880844,NA
37918,Knox County,TN,NA,16.968325791855204,NA
37923,Knox County,TN,NA,33.33333333333333,NA
37931,Knox County,TN,35.50847457627119,NA,NA
38008,Hardeman County,TN,66.44067796610169,65.30920060331825,NA
38019,Tipton County,TN,NA,43.96681749622926,NA
38024,Dyer County,TN,50.42372881355932,NA,NA
38063,Lauderdale County,TN,36.10169491525424,NA,NA
38106,Shelby County,TN,59.237288135593225,NA,NA
38115,Shelby County,TN,18.64406779661017,NA,NA
38221,Benton County,TN,NA,96.9079939668175,NA
38242,Henry County,TN,NA,31.14630467571644,NA
38305,Madison County,TN,NA,NA,15.942028985507244
38344,Carroll County,TN,64.66101694915254,NA,NA
38355,Gibson County,TN,94.57627118644068,NA,NA
38363,Decatur County,TN,NA,79.26093514328808,NA
38464,Lawrence County,TN,72.54237288135593,58.898944193061844,NA
38570,Overton County,TN,61.694915254237294,NA,NA
75002,Collin County,TX,16.779661016949152,NA,NA
75013,Collin County,TX,71.01694915254238,NA,NA
75019,Dallas County,TX,47.45762711864407,NA,NA
75021,Grayson County,TX,81.10169491525424,NA,NA
75023,Collin County,TX,NA,28.28054298642534,NA
75025,Collin County,TX,NA,NA,96.01449275362319
75034,Denton County,TX,30.677966101694913,NA,NA
75035,Collin County,TX,31.271186440677965,NA,NA
75043,Dallas County,TX,14.661016949152541,NA,NA
75052,Dallas County,TX,NA,7.8431372549019605,NA
75060,Dallas County,TX,34.83050847457627,NA,NA
75062,Dallas County,TX,NA,26.09351432880845,NA
75070,Collin County,TX,58.05084745762712,NA,NA
75071,Collin County,TX,NA,24.8868778280543,NA
75077,Denton County,TX,36.35593220338983,NA,NA
75081,Dallas County,TX,NA,42.835595776772244,NA
75082,Collin County,TX,NA,34.31372549019608,NA
75087,Rockwall County,TX,NA,48.340874811463046,58.69565217391305
75088,Dallas County,TX,NA,39.29110105580694,NA
75089,Dallas County,TX,97.88135593220339,61.16138763197587,NA
75110,Navarro County,TX,NA,71.11613876319758,NA
75115,Dallas County,TX,NA,14.856711915535445,NA
75125,Ellis County,TX,NA,96.30467571644043,NA
75146,Dallas County,TX,54.40677966101695,NA,NA
75159,Dallas County,TX,NA,70.66365007541478,NA
75160,Kaufman County,TX,56.779661016949156,NA,NA
75189,Rockwall County,TX,37.96610169491525,NA,NA
75205,Dallas County,TX,NA,64.85671191553544,NA
75218,Dallas County,TX,67.88135593220339,NA,NA
75220,Dallas County,TX,41.69491525423729,NA,NA
75228,Dallas County,TX,NA,15.610859728506787,NA
75230,Dallas County,TX,63.813559322033896,40.04524886877828,NA
75232,Dallas County,TX,38.05084745762712,NA,NA
75235,Dallas County,TX,NA,60.633484162895925,NA
75244,Dallas County,TX,NA,78.80844645550528,NA
75248,Dallas County,TX,NA,NA,34.05797101449276
75252,Collin County,TX,NA,50.678733031674206,NA
75407,Collin County,TX,55.762711864406775,NA,NA
75418,Fannin County,TX,87.11864406779661,NA,NA
75428,Hunt County,TX,82.79661016949153,NA,NA
75454,Collin County,TX,NA,98.56711915535445,NA
75457,Franklin County,TX,86.52542372881355,NA,NA
75462,Lamar County,TX,NA,76.6214177978884,NA
75497,Wood County,TX,99.91525423728814,NA,NA
75604,Gregg County,TX,33.89830508474576,NA,NA
75605,Gregg County,TX,NA,NA,28.26086956521739
75654,Rusk County,TX,NA,83.18250377073907,NA
75683,Upshur County,TX,99.15254237288136,NA,NA
75702,Smith County,TX,30.508474576271187,NA,NA
75704,Smith County,TX,NA,NA,65.21739130434783
75708,Smith County,TX,NA,91.4027149321267,NA
75751,Henderson County,TX,NA,43.21266968325792,NA
75752,Henderson County,TX,93.22033898305084,NA,96.37681159420289
75754,Van Zandt County,TX,NA,68.09954751131222,NA
75757,Smith County,TX,NA,35.52036199095023,NA
75762,Smith County,TX,NA,NA,48.91304347826087
75771,Smith County,TX,74.0677966101695,23.755656108597282,NA
75791,Smith County,TX,58.13559322033899,36.425339366515836,NA
75803,Anderson County,TX,NA,NA,77.17391304347827
75835,Houston County,TX,NA,NA,69.56521739130434
75904,Angelina County,TX,59.57627118644068,9.42684766214178,NA
75951,Jasper County,TX,NA,37.85822021116139,36.231884057971016
75979,Tyler County,TX,NA,63.348416289592755,NA
76001,Tarrant County,TX,NA,71.04072398190046,NA
76012,Tarrant County,TX,40.932203389830505,NA,NA
76014,Tarrant County,TX,42.11864406779661,NA,NA
76016,Tarrant County,TX,NA,18.85369532428356,NA
76017,Tarrant County,TX,NA,24.358974358974358,NA
76021,Tarrant County,TX,86.01694915254238,NA,NA
76039,Tarrant County,TX,NA,53.46907993966818,NA
76043,Somervell County,TX,81.1864406779661,NA,NA
76053,Tarrant County,TX,64.83050847457628,NA,NA
76065,Ellis County,TX,95.42372881355932,27.828054298642535,61.95652173913043
76078,Wise County,TX,NA,98.34087481146304,NA
76085,Parker County,TX,NA,51.50829562594268,NA
76092,Tarrant County,TX,NA,53.619909502262445,NA
76109,Tarrant County,TX,91.94915254237289,NA,NA
76118,Tarrant County,TX,NA,NA,77.89855072463769
76133,Tarrant County,TX,NA,16.89291101055807,NA
76137,Tarrant County,TX,NA,67.49622926093515,NA
76148,Tarrant County,TX,NA,47.28506787330316,NA
76205,Denton County,TX,77.96610169491525,NA,NA
76209,Denton County,TX,94.83050847457626,NA,NA
76248,Tarrant County,TX,NA,37.10407239819005,NA
76302,Wichita County,TX,64.23728813559322,66.9683257918552,NA
76308,Wichita County,TX,NA,67.94871794871796,NA
76426,Wise County,TX,NA,84.23831070889895,NA
76458,Jack County,TX,NA,88.91402714932126,NA
76502,Bell County,TX,39.57627118644068,NA,NA
76504,Bell County,TX,6.864406779661017,NA,NA
76548,Bell County,TX,NA,NA,38.768115942028984
76643,McLennan County,TX,NA,53.92156862745098,NA
76667,Limestone County,TX,50.50847457627119,NA,NA
76707,McLennan County,TX,63.47457627118644,NA,NA
76849,Kimble County,TX,NA,85.97285067873304,NA
76904,Tom Green County,TX,78.5593220338983,NA,NA
77004,Harris County,TX,NA,37.70739064856712,NA
77007,Harris County,TX,45.33898305084746,NA,NA
77022,Harris County,TX,NA,45.85218702865762,NA
77024,Harris County,TX,NA,66.36500754147812,NA
77035,Harris County,TX,34.66101694915254,NA,NA
77036,Harris County,TX,45.67796610169491,NA,NA
77041,Harris County,TX,NA,31.74962292609351,NA
77044,Harris County,TX,NA,93.89140271493213,NA
77049,Harris County,TX,58.55932203389831,NA,NA
77061,Harris County,TX,NA,NA,90.94202898550725
77064,Harris County,TX,NA,34.01206636500754,NA
77065,Harris County,TX,NA,35.52036199095023,NA
77072,Harris County,TX,NA,45.17345399698341,NA
77076,Harris County,TX,NA,59.35143288084465,NA
77079,Harris County,TX,NA,95.92760180995475,NA
77081,Harris County,TX,59.06779661016949,NA,NA
77085,Harris County,TX,NA,90.34690799396682,NA
77094,Harris County,TX,NA,NA,99.63768115942028
77095,Harris County,TX,12.966101694915256,8.672699849170437,NA
77302,Montgomery County,TX,NA,88.00904977375565,NA
77318,Montgomery County,TX,NA,65.91251885369532,NA
77320,Walker County,TX,NA,62.14177978883861,NA
77338,Harris County,TX,NA,51.80995475113123,NA
77355,Montgomery County,TX,NA,41.17647058823529,NA
77365,Montgomery County,TX,43.559322033898304,53.31825037707391,NA
77378,Montgomery County,TX,72.03389830508475,NA,NA
77380,Montgomery County,TX,NA,50.90497737556561,NA
77382,Montgomery County,TX,NA,54.52488687782805,NA
77386,Montgomery County,TX,NA,72.6998491704374,NA
77389,Harris County,TX,NA,79.11010558069381,NA
77407,Fort Bend County,TX,45.42372881355932,NA,NA
77414,Matagorda County,TX,NA,67.34539969834088,NA
77429,Harris County,TX,8.47457627118644,2.6395173453996983,NA
77447,Harris County,TX,NA,80.8446455505279,NA
77449,Harris County,TX,7.5423728813559325,20.437405731523377,NA
77450,Harris County,TX,31.186440677966104,NA,NA
77459,Fort Bend County,TX,18.559322033898304,NA,NA
77478,Fort Bend County,TX,NA,41.93061840120664,47.82608695652174
77479,Fort Bend County,TX,NA,81.59879336349924,NA
77494,Fort Bend County,TX,NA,NA,67.02898550724638
77498,Fort Bend County,TX,NA,96.15384615384616,NA
77505,Harris County,TX,80.59322033898304,NA,NA
77510,Galveston County,TX,NA,57.315233785822016,NA
77532,Harris County,TX,34.49152542372882,NA,NA
77535,Liberty County,TX,33.30508474576271,NA,NA
77550,Galveston County,TX,NA,9.728506787330318,NA
77551,Galveston County,TX,52.20338983050847,NA,NA
77565,Galveston County,TX,94.49152542372882,62.14177978883861,NA
77566,Brazoria County,TX,NA,38.46153846153847,NA
77571,Harris County,TX,22.88135593220339,71.19155354449472,NA
77573,Galveston County,TX,29.23728813559322,41.101055806938156,NA
77581,Brazoria County,TX,23.813559322033896,16.515837104072396,NA
77584,Brazoria County,TX,61.610169491525426,NA,NA
77591,Galveston County,TX,NA,81.67420814479638,NA
77627,Jefferson County,TX,NA,53.46907993966818,NA
77630,Orange County,TX,NA,NA,90.57971014492753
77632,Orange County,TX,NA,NA,98.55072463768117
77662,Orange County,TX,37.71186440677966,NA,NA
77706,Jefferson County,TX,41.779661016949156,27.07390648567119,NA
77801,Brazos County,TX,73.22033898305085,NA,NA
77833,Washington County,TX,NA,NA,14.855072463768115
77840,Brazos County,TX,NA,83.55957767722474,NA
77879,Burleson County,TX,NA,84.38914027149322,NA
77904,Victoria County,TX,NA,28.205128205128204,NA
77905,Victoria County,TX,97.37288135593221,NA,NA
77954,DeWitt County,TX,NA,NA,89.85507246376811
77963,Goliad County,TX,NA,82.80542986425338,NA
78016,Medina County,TX,NA,NA,87.68115942028986
78028,Kerr County,TX,NA,10.784313725490197,NA
78076,Zapata County,TX,80.9322033898305,NA,NA
78108,Guadalupe County,TX,65.76271186440678,NA,NA
78154,Guadalupe County,TX,66.52542372881356,NA,NA
78209,Bexar County,TX,56.61016949152542,NA,NA
78210,Bexar County,TX,NA,45.09803921568628,NA
78216,Bexar County,TX,36.610169491525426,NA,NA
78244,Bexar County,TX,52.96610169491526,NA,NA
78261,Bexar County,TX,84.57627118644068,NA,NA
78415,Nueces County,TX,NA,44.11764705882353,NA
78520,Cameron County,TX,49.40677966101695,NA,NA
78560,Hidalgo County,TX,NA,99.09502262443439,NA
78577,Hidalgo County,TX,22.796610169491522,NA,NA
78602,Bastrop County,TX,55.762711864406775,NA,NA
78617,Travis County,TX,67.03389830508475,NA,NA
78628,Williamson County,TX,NA,20.51282051282051,NA
78636,Blanco County,TX,NA,95.32428355957768,NA
78644,Caldwell County,TX,60.76271186440678,NA,NA
78660,Travis County,TX,NA,NA,52.53623188405797
78665,Williamson County,TX,NA,23.001508295625943,NA
78681,Williamson County,TX,NA,25.867269984917048,NA
78728,Travis County,TX,NA,99.24585218702866,NA
78739,Travis County,TX,90.84745762711864,NA,NA
78741,Travis County,TX,NA,68.47662141779789,NA
78747,Travis County,TX,NA,88.61236802413272,NA
78750,Travis County,TX,NA,70.66365007541478,54.710144927536234
78801,Uvalde County,TX,NA,87.70739064856711,NA
78840,Val Verde County,TX,23.30508474576271,13.046757164404225,NA
78852,Maverick County,TX,NA,31.975867269984914,NA
79107,Potter County,TX,27.881355932203387,NA,NA
79109,Randall County,TX,31.016949152542374,69.45701357466064,NA
79118,Randall County,TX,NA,74.8868778280543,NA
79331,Dawson County,TX,NA,65.98793363499246,NA
79360,Gaines County,TX,45.2542372881356,NA,NA
79412,Lubbock County,TX,77.28813559322035,NA,NA
79413,Lubbock County,TX,NA,48.19004524886878,NA
79415,Lubbock County,TX,NA,NA,86.95652173913044
79416,Lubbock County,TX,46.94915254237288,NA,NA
79556,Nolan County,TX,NA,73.1523378582202,NA
79602,Taylor County,TX,NA,74.73604826546003,NA
79606,Taylor County,TX,NA,46.22926093514329,NA
79705,Midland County,TX,NA,NA,41.66666666666667
79707,Midland County,TX,27.203389830508474,NA,NA
79714,Andrews County,TX,NA,62.594268476621416,NA
79731,Crane County,TX,94.66101694915254,NA,NA
79735,Pecos County,TX,61.77966101694915,NA,84.42028985507247
79761,Ector County,TX,NA,50.075414781297134,NA
79762,Ector County,TX,54.32203389830509,NA,NA
79782,Martin County,TX,NA,99.69834087481146,NA
79902,El Paso County,TX,91.01694915254237,NA,NA
79915,El Paso County,TX,46.186440677966104,NA,NA
79936,El Paso County,TX,NA,13.650075414781297,NA
84003,Utah County,UT,NA,53.92156862745098,NA
84009,Salt Lake County,UT,46.52542372881356,NA,NA
84014,Davis County,UT,NA,73.07692307692307,NA
84015,Davis County,UT,16.1864406779661,NA,NA
84029,Tooele County,UT,NA,75.3393665158371,NA
84054,Davis County,UT,NA,66.81749622926093,NA
84066,Duchesne County,UT,NA,78.88386123680242,NA
84074,Tooele County,UT,15.76271186440678,88.61236802413272,NA
84081,Salt Lake County,UT,24.91525423728814,NA,NA
84092,Salt Lake County,UT,59.49152542372881,NA,NA
84093,Salt Lake County,UT,NA,NA,60.86956521739131
84095,Salt Lake County,UT,NA,22.39819004524887,NA
84096,Salt Lake County,UT,22.118644067796613,NA,NA
84098,Summit County,UT,58.644067796610166,41.47812971342383,NA
84121,Salt Lake County,UT,77.71186440677967,11.463046757164404,NA
84128,Salt Lake County,UT,32.28813559322034,NA,NA
84321,Cache County,UT,NA,84.23831070889895,63.40579710144928
84332,Cache County,UT,NA,NA,96.73913043478261
84333,Cache County,UT,100,NA,NA
84401,Weber County,UT,NA,43.81598793363499,NA
84770,Washington County,UT,31.440677966101692,NA,NA
05091,Windsor County,VT,NA,NA,75
05403,Chittenden County,VT,NA,72.17194570135746,NA
05443,Addison County,VT,NA,68.02413273001508,NA
05446,Chittenden County,VT,56.1864406779661,NA,NA
05450,Franklin County,VT,77.3728813559322,NA,NA
05482,Chittenden County,VT,NA,91.32730015082956,NA
05488,Franklin County,VT,NA,51.055806938159876,NA
05676,Washington County,VT,NA,NA,81.88405797101449
05819,Caledonia County,VT,NA,67.26998491704374,NA
20109,Prince William County,VA,NA,NA,80.07246376811594
20111,Prince William County,VA,46.271186440677965,NA,NA
20120,Fairfax County,VA,NA,NA,65.57971014492753
20147,Loudoun County,VA,NA,49.39668174962293,13.405797101449277
20151,Fairfax County,VA,NA,NA,89.4927536231884
20152,Loudoun County,VA,70.59322033898306,NA,NA
20169,Prince William County,VA,72.88135593220339,63.95173453996983,NA
20186,Fauquier County,VA,NA,94.0422322775264,NA
22003,Fairfax County,VA,NA,20.96530920060332,NA
22032,Fairfax County,VA,NA,87.25490196078431,NA
22046,Falls Church city,VA,78.98305084745762,NA,NA
22066,Fairfax County,VA,NA,NA,82.2463768115942
22101,Fairfax County,VA,NA,41.32730015082956,NA
22152,Fairfax County,VA,48.8135593220339,NA,NA
22192,Prince William County,VA,NA,67.42081447963801,NA
22204,Arlington County,VA,54.067796610169495,NA,NA
22304,Alexandria city,VA,10.59322033898305,26.621417797888387,NA
22306,Fairfax County,VA,NA,39.59276018099548,NA
22310,Fairfax County,VA,NA,81.97586726998492,NA
22314,Alexandria city,VA,NA,43.43891402714932,NA
22401,Fredericksburg city,VA,42.03389830508474,NA,NA
22503,Lancaster County,VA,NA,88.91402714932126,NA
22603,Frederick County,VA,78.89830508474577,NA,NA
22630,Warren County,VA,20.593220338983052,NA,NA
22645,Frederick County,VA,93.64406779661016,NA,NA
22701,Culpeper County,VA,NA,NA,28.985507246376812
22801,Harrisonburg city,VA,NA,77.526395173454,NA
22802,Harrisonburg city,VA,NA,43.58974358974359,NA
22815,Rockingham County,VA,NA,96.00301659125189,NA
22835,Page County,VA,NA,44.871794871794876,NA
22842,Shenandoah County,VA,89.23728813559322,NA,NA
23002,Amelia County,VA,78.13559322033899,NA,NA
23030,Charles City County,VA,93.22033898305084,NA,NA
23059,Henrico County,VA,NA,59.653092006033184,NA
23093,Louisa County,VA,NA,NA,55.434782608695656
23111,Hanover County,VA,43.30508474576271,NA,21.3768115942029
23112,Chesterfield County,VA,66.18644067796609,NA,NA
23113,Chesterfield County,VA,NA,NA,74.27536231884058
23150,Henrico County,VA,69.57627118644068,NA,NA
23185,James City County,VA,NA,NA,0
23224,Richmond city,VA,NA,59.80392156862745,NA
23228,Henrico County,VA,43.389830508474574,27.22473604826546,NA
23231,Henrico County,VA,NA,12.066365007541478,NA
23235,Chesterfield County,VA,NA,38.68778280542987,NA
23238,Henrico County,VA,NA,NA,38.405797101449274
23320,Chesapeake city,VA,22.45762711864407,NA,NA
23435,Suffolk city,VA,NA,27.526395173454,50.72463768115942
23451,Virginia Beach city,VA,NA,10.256410256410255,NA
23454,Virginia Beach city,VA,NA,7.918552036199094,NA
23456,Virginia Beach city,VA,NA,6.334841628959276,NA
23502,Norfolk city,VA,28.728813559322035,NA,NA
23503,Norfolk city,VA,NA,29.638009049773757,NA
23504,Norfolk city,VA,82.71186440677965,NA,NA
23661,Hampton city,VA,NA,NA,71.01449275362319
23666,Hampton city,VA,NA,7.164404223227752,NA
23692,York County,VA,NA,NA,35.869565217391305
23824,Nottoway County,VA,87.71186440677965,NA,NA
23842,Prince George County,VA,NA,91.02564102564102,NA
24014,Roanoke city,VA,NA,23.83107088989442,NA
24017,Roanoke city,VA,20.25423728813559,NA,NA
24019,Roanoke County,VA,48.983050847457626,56.03318250377074,NA
24073,Montgomery County,VA,65.67796610169492,NA,NA
24083,Botetourt County,VA,NA,NA,88.04347826086956
24112,Henry County,VA,NA,NA,76.08695652173914
24151,Franklin County,VA,NA,43.96681749622926,NA
24202,Washington County,VA,NA,47.81297134238311,NA
24210,Washington County,VA,28.983050847457626,70.13574660633483,NA
24256,Dickenson County,VA,NA,NA,75.36231884057972
24381,Carroll County,VA,NA,90.79939668174963,NA
24401,Staunton city,VA,7.88135593220339,62.745098039215684,NA
24523,Bedford County,VA,25.847457627118644,NA,NA
24541,Danville city,VA,NA,25.791855203619914,NA
24574,Amherst County,VA,NA,97.51131221719457,100
24592,Halifax County,VA,71.1864406779661,NA,NA
98020,Snohomish County,WA,NA,NA,64.4927536231884
98024,King County,WA,NA,95.02262443438913,NA
98032,King County,WA,NA,39.14027149321267,NA
98036,Snohomish County,WA,NA,32.05128205128205,NA
98053,King County,WA,NA,31.070889894419306,NA
98058,King County,WA,57.79661016949152,NA,NA
98109,King County,WA,NA,75.86726998491704,NA
98177,King County,WA,NA,50.301659125188536,NA
98201,Snohomish County,WA,41.94915254237288,NA,NA
98233,Skagit County,WA,NA,46.98340874811463,NA
98247,Whatcom County,WA,NA,NA,94.92753623188406
98275,Snohomish County,WA,NA,63.65007541478129,NA
98282,Island County,WA,NA,32.42835595776772,NA
98296,Snohomish County,WA,80,60.55806938159879,NA
98321,Pierce County,WA,NA,62.971342383107086,NA
98335,Pierce County,WA,NA,76.92307692307693,NA
98362,Clallam County,WA,NA,87.10407239819004,NA
98367,Kitsap County,WA,42.79661016949153,NA,NA
98368,Jefferson County,WA,NA,52.79034690799397,NA
98370,Kitsap County,WA,NA,35.36953242835596,NA
98382,Clallam County,WA,NA,49.01960784313725,NA
98391,Pierce County,WA,10.508474576271185,NA,NA
98422,Pierce County,WA,NA,NA,65.94202898550725
98502,Thurston County,WA,NA,59.125188536953246,NA
98524,Mason County,WA,99.7457627118644,NA,NA
98569,Grays Harbor County,WA,NA,87.93363499245852,NA
98620,Klickitat County,WA,NA,59.72850678733032,NA
98632,Cowlitz County,WA,NA,NA,2.536231884057971
98801,Chelan County,WA,NA,NA,7.246376811594203
98826,Chelan County,WA,89.7457627118644,NA,NA
98903,Yakima County,WA,62.20338983050847,76.39517345399697,NA
98930,Yakima County,WA,NA,72.9260935143288,NA
98944,Yakima County,WA,76.4406779661017,NA,NA
99006,Spokane County,WA,NA,82.95625942684767,NA
99141,Stevens County,WA,NA,97.05882352941177,NA
99207,Spokane County,WA,71.69491525423729,79.26093514328808,NA
99208,Spokane County,WA,NA,22.54901960784314,NA
99338,Benton County,WA,54.66101694915254,NA,NA
99362,Walla Walla County,WA,NA,57.088989441930615,NA
20003,District of Columbia,DC,NA,92.45852187028657,NA
20008,District of Columbia,DC,74.40677966101696,NA,NA
20011,District of Columbia,DC,NA,NA,5.797101449275362
20019,District of Columbia,DC,NA,44.4947209653092,NA
20020,District of Columbia,DC,1.7796610169491527,NA,NA
20037,District of Columbia,DC,NA,NA,78.98550724637681
24901,Greenbrier County,WV,87.96610169491525,NA,NA
25064,Kanawha County,WV,NA,NA,76.44927536231883
25071,Kanawha County,WV,NA,73.3785822021116,NA
25143,Kanawha County,WV,NA,61.613876319758674,NA
25303,Kanawha County,WV,83.47457627118644,NA,NA
25387,Kanawha County,WV,NA,68.85369532428356,NA
25419,Berkeley County,WV,73.47457627118644,71.26696832579185,NA
25508,Logan County,WV,NA,59.879336349924586,NA
25550,Mason County,WV,NA,60.256410256410255,NA
25570,Wayne County,WV,96.86440677966101,NA,NA
25801,Raleigh County,WV,NA,NA,78.26086956521739
25832,Raleigh County,WV,NA,90.57315233785822,NA
26037,Brooke County,WV,NA,NA,68.11594202898551
26041,Marshall County,WV,NA,15.686274509803921,NA
26104,Wood County,WV,NA,17.873303167420815,NA
26170,Pleasants County,WV,NA,64.63046757164405,NA
26301,Harrison County,WV,NA,35.21870286576169,NA
26525,Preston County,WV,84.83050847457628,NA,NA
53024,Ozaukee County,WI,NA,77.3001508295626,NA
53027,Washington County,WI,60.59322033898306,NA,NA
53037,Washington County,WI,97.03389830508475,NA,NA
53051,Waukesha County,WI,36.94915254237288,NA,NA
53061,Calumet County,WI,NA,NA,72.82608695652173
53090,Washington County,WI,NA,44.94720965309201,NA
53092,Ozaukee County,WI,51.101694915254235,NA,NA
53095,Washington County,WI,92.71186440677967,NA,NA
53147,Walworth County,WI,NA,30.46757164404223,NA
53150,Waukesha County,WI,NA,30.844645550527904,NA
53151,Waukesha County,WI,NA,15.233785822021115,NA
53154,Milwaukee County,WI,NA,NA,32.971014492753625
53168,Kenosha County,WI,51.01694915254237,NA,NA
53204,Milwaukee County,WI,NA,84.91704374057315,NA
53209,Milwaukee County,WI,2.0338983050847457,NA,NA
53212,Milwaukee County,WI,36.525423728813564,NA,NA
53214,Milwaukee County,WI,NA,7.46606334841629,NA
53216,Milwaukee County,WI,62.45762711864407,NA,NA
53218,Milwaukee County,WI,23.220338983050848,NA,NA
53223,Milwaukee County,WI,12.033898305084746,NA,NA
53405,Racine County,WI,NA,1.885369532428356,64.85507246376811
53511,Rock County,WI,0.5932203389830508,NA,NA
53545,Rock County,WI,NA,14.705882352941178,NA
53555,Columbia County,WI,93.13559322033899,NA,NA
53558,Dane County,WI,NA,87.85822021116138,NA
53590,Dane County,WI,31.35593220338983,NA,NA
53704,Dane County,WI,62.54237288135593,NA,NA
53705,Dane County,WI,45.42372881355932,NA,NA
53717,Dane County,WI,NA,51.9607843137255,NA
53948,Juneau County,WI,NA,59.125188536953246,NA
53950,Juneau County,WI,NA,NA,93.11594202898551
54005,Polk County,WI,95.76271186440678,NA,NA
54110,Calumet County,WI,87.20338983050847,NA,NA
54115,Brown County,WI,39.83050847457627,NA,NA
54140,Outagamie County,WI,85.08474576271186,NA,NA
54220,Manitowoc County,WI,NA,30.693815987933636,NA
54313,Brown County,WI,52.71186440677966,83.33333333333334,NA
54409,Langlade County,WI,NA,17.647058823529413,NA
54656,Monroe County,WI,41.186440677966104,NA,NA
54701,Eau Claire County,WI,NA,17.79788838612368,NA
54751,Dunn County,WI,28.30508474576271,NA,NA
54755,Buffalo County,WI,NA,68.7028657616893,NA
54830,Burnett County,WI,NA,NA,83.33333333333334
54901,Winnebago County,WI,22.203389830508474,NA,NA
54911,Outagamie County,WI,NA,52.33785822021117,NA
54913,Outagamie County,WI,89.15254237288136,NA,NA
54915,Outagamie County,WI,90.33898305084746,NA,NA
54935,Fond du Lac County,WI,76.01694915254237,NA,NA
54956,Winnebago County,WI,NA,NA,33.33333333333333
82718,Campbell County,WY,50.25423728813559,NA,NA
82834,Johnson County,WY,NA,93.13725490196079,NA
82901,Sweetwater County,WY,NA,58.22021116138764,NA
82930,Uinta County,WY,NA,94.947209653092,NA
