ZipCode,county,state,Adult
35016,Marshall County,AL,44.460641399416915
35023,Jefferson County,AL,22.339650145772595
35045,Chilton County,AL,55.43002915451895
35111,Tuscaloosa County,AL,37.31778425655977
35124,Shelby County,AL,57.7259475218659
35203,Jefferson County,AL,98.46938775510205
35209,Jefferson County,AL,71.39212827988338
35211,Jefferson County,AL,9.948979591836734
35213,Jefferson County,AL,84.03790087463557
35216,Jefferson County,AL,45.77259475218659
35226,Jefferson County,AL,39.57725947521865
35242,Shelby County,AL,23.97959183673469
35462,Greene County,AL,80.43002915451895
35466,Pickens County,AL,82.98104956268222
35601,Morgan County,AL,8.673469387755102
35614,Limestone County,AL,67.31049562682216
35630,Lauderdale County,AL,22.667638483965014
35740,Jackson County,AL,99.63556851311954
35757,Madison County,AL,65.37900874635568
35758,Madison County,AL,30.06559766763848
35805,Madison County,AL,36.3338192419825
35810,Madison County,AL,22.740524781341108
35903,Etowah County,AL,46.39212827988338
35968,DeKalb County,AL,91.10787172011662
36092,Elmore County,AL,68.47667638483965
36108,Montgomery County,AL,33.41836734693878
36344,Geneva County,AL,88.77551020408163
36467,Covington County,AL,66.21720116618076
36526,Baldwin County,AL,42.78425655976677
36535,Baldwin County,AL,67.09183673469387
36575,Mobile County,AL,51.12973760932945
36605,Mobile County,AL,31.195335276967928
36606,Mobile County,AL,57.32507288629738
36609,Mobile County,AL,51.89504373177842
36610,Mobile County,AL,55.61224489795919
36618,Mobile County,AL,65.41545189504373
36693,Mobile County,AL,75.98396501457727
36695,Mobile County,AL,25.69241982507289
36832,Lee County,AL,94.20553935860059
36867,Russell County,AL,62.390670553935855
99501,Anchorage Municipality,AK,15.306122448979592
99515,Anchorage Municipality,AK,60.56851311953353
99603,Kenai Peninsula Borough,AK,71.100583090379
99654,Matanuska-Susitna Borough,AK,27.58746355685131
99835,Sitka City and Borough,AK,52.7332361516035
85006,Maricopa County,AZ,33.819241982507286
85009,Maricopa County,AZ,34.54810495626822
85015,Maricopa County,AZ,41.47230320699708
85019,Maricopa County,AZ,30.102040816326532
85022,Maricopa County,AZ,13.629737609329446
85028,Maricopa County,AZ,71.61078717201165
85029,Maricopa County,AZ,16.18075801749271
85032,Maricopa County,AZ,36.552478134110785
85033,Maricopa County,AZ,38.33819241982507
85035,Maricopa County,AZ,10.677842565597667
85037,Maricopa County,AZ,17.93002915451895
85043,Maricopa County,AZ,45.95481049562682
85048,Maricopa County,AZ,71.68367346938776
85051,Maricopa County,AZ,35.714285714285715
85122,Pinal County,AZ,74.01603498542273
85128,Pinal County,AZ,31.851311953352766
85132,Pinal County,AZ,29.44606413994169
85202,Maricopa County,AZ,13.957725947521865
85203,Maricopa County,AZ,62.244897959183675
85204,Maricopa County,AZ,35.64139941690962
85205,Maricopa County,AZ,79.62827988338192
85207,Maricopa County,AZ,18.768221574344025
85210,Maricopa County,AZ,15.998542274052477
85212,Maricopa County,AZ,49.088921282798836
85225,Maricopa County,AZ,7.61661807580175
85226,Maricopa County,AZ,46.02769679300292
85257,Maricopa County,AZ,83.89212827988338
85281,Maricopa County,AZ,26.785714285714285
85282,Maricopa County,AZ,79.77405247813411
85283,Maricopa County,AZ,61.00583090379009
85286,Maricopa County,AZ,26.166180758017493
85297,Maricopa County,AZ,55.35714285714286
85301,Maricopa County,AZ,2.4052478134110786
85302,Maricopa County,AZ,18.002915451895042
85323,Maricopa County,AZ,24.125364431486883
85326,Maricopa County,AZ,20.809037900874635
85345,Maricopa County,AZ,32.798833819241985
85350,Yuma County,AZ,42.018950437317784
85364,Yuma County,AZ,54.22740524781341
85374,Maricopa County,AZ,38.6661807580175
85379,Maricopa County,AZ,56.66909620991254
85530,Graham County,AZ,81.08600583090379
85621,Santa Cruz County,AZ,37.06268221574344
85704,Pima County,AZ,38.994169096209916
85706,Pima County,AZ,1.348396501457726
85711,Pima County,AZ,67.82069970845481
85713,Pima County,AZ,55.10204081632652
85714,Pima County,AZ,59.25655976676385
85737,Pima County,AZ,57.61661807580175
85745,Pima County,AZ,17.63848396501458
85756,Pima County,AZ,60.49562682215743
85901,Navajo County,AZ,73.32361516034986
85925,Apache County,AZ,90.45189504373178
85936,Apache County,AZ,93.84110787172013
85941,Apache County,AZ,54.66472303206997
86001,Coconino County,AZ,44.606413994169095
86004,Coconino County,AZ,19.93440233236152
86042,Navajo County,AZ,99.12536443148689
86322,Yavapai County,AZ,42.67492711370263
86401,Mohave County,AZ,5.86734693877551
71635,Ashley County,AR,76.60349854227405
72019,Saline County,AR,65.52478134110787
72034,Faulkner County,AR,42.31049562682216
72211,Pulaski County,AR,76.45772594752187
72416,Craighead County,AR,80.68513119533527
72454,Clay County,AR,91.36297376093295
72714,Benton County,AR,89.50437317784257
72727,Washington County,AR,98.10495626822157
72758,Benton County,AR,52.00437317784257
72764,Washington County,AR,78.02478134110787
72903,Sebastian County,AR,66.29008746355684
90003,Los Angeles County,CA,88.5204081632653
90005,Los Angeles County,CA,83.96501457725948
90007,Los Angeles County,CA,70.55393586005832
90018,Los Angeles County,CA,29.409620991253643
90022,Los Angeles County,CA,61.51603498542274
90026,Los Angeles County,CA,69.02332361516035
90027,Los Angeles County,CA,78.71720116618076
90032,Los Angeles County,CA,70.91836734693877
90036,Los Angeles County,CA,59.98542274052478
90043,Los Angeles County,CA,81.88775510204081
90044,Los Angeles County,CA,4.045189504373178
90047,Los Angeles County,CA,10.204081632653061
90056,Los Angeles County,CA,97.52186588921283
90057,Los Angeles County,CA,63.33819241982507
90059,Los Angeles County,CA,25.983965014577258
90061,Los Angeles County,CA,63.92128279883382
90063,Los Angeles County,CA,42.63848396501458
90064,Los Angeles County,CA,69.31486880466473
90065,Los Angeles County,CA,47.41253644314869
90201,Los Angeles County,CA,57.03352769679301
90221,Los Angeles County,CA,28.49854227405248
90222,Los Angeles County,CA,60.82361516034985
90245,Los Angeles County,CA,80.50291545189503
90255,Los Angeles County,CA,56.0131195335277
90280,Los Angeles County,CA,73.21428571428571
90301,Los Angeles County,CA,26.311953352769677
90501,Los Angeles County,CA,40.01457725947522
90640,Los Angeles County,CA,26.20262390670554
90650,Los Angeles County,CA,11.73469387755102
90701,Los Angeles County,CA,87.13556851311954
90731,Los Angeles County,CA,22.84985422740525
90740,Orange County,CA,62.09912536443149
90744,Los Angeles County,CA,51.34839650145773
90746,Los Angeles County,CA,71.7930029154519
90804,Los Angeles County,CA,36.078717201166185
90808,Los Angeles County,CA,49.59912536443149
91001,Los Angeles County,CA,49.48979591836735
91103,Los Angeles County,CA,67.85714285714286
91203,Los Angeles County,CA,91.14431486880467
91205,Los Angeles County,CA,95.0072886297376
91208,Los Angeles County,CA,89.79591836734694
91304,Los Angeles County,CA,88.9941690962099
91306,Los Angeles County,CA,31.96064139941691
91307,Los Angeles County,CA,84.58454810495627
91335,Los Angeles County,CA,72.15743440233237
91340,Los Angeles County,CA,57.25218658892128
91342,Los Angeles County,CA,13.848396501457728
91345,Los Angeles County,CA,81.63265306122449
91352,Los Angeles County,CA,18.221574344023324
91354,Los Angeles County,CA,89.57725947521867
91362,Ventura County,CA,58.74635568513119
91504,Los Angeles County,CA,65.26967930029156
91605,Los Angeles County,CA,38.921282798833815
91606,Los Angeles County,CA,52.91545189504373
91702,Los Angeles County,CA,23.688046647230323
91706,Los Angeles County,CA,18.330903790087465
91708,San Bernardino County,CA,97.92274052478133
91710,San Bernardino County,CA,28.753644314868804
91722,Los Angeles County,CA,62.35422740524781
91730,San Bernardino County,CA,43.69533527696793
91731,Los Angeles County,CA,62.062682215743436
91733,Los Angeles County,CA,83.56413994169097
91741,Los Angeles County,CA,73.68804664723032
91744,Los Angeles County,CA,11.916909620991254
91746,Los Angeles County,CA,68.73177842565597
91748,Los Angeles County,CA,62.17201166180758
91754,Los Angeles County,CA,82.17930029154519
91755,Los Angeles County,CA,88.44752186588921
91768,Los Angeles County,CA,34.876093294460645
91773,Los Angeles County,CA,67.05539358600583
91786,San Bernardino County,CA,24.088921282798832
92020,San Diego County,CA,15.488338192419826
92021,San Diego County,CA,9.839650145772595
92025,San Diego County,CA,70.0801749271137
92028,San Diego County,CA,89.21282798833819
92054,San Diego County,CA,67.16472303206997
92057,San Diego County,CA,48.76093294460642
92071,San Diego County,CA,50.583090379008745
92084,San Diego County,CA,50.218658892128275
92101,San Diego County,CA,9.293002915451895
92103,San Diego County,CA,37.572886297376094
92105,San Diego County,CA,11.151603498542274
92109,San Diego County,CA,92.09183673469387
92114,San Diego County,CA,73.5058309037901
92115,San Diego County,CA,23.542274052478135
92127,San Diego County,CA,60.34985422740525
92129,San Diego County,CA,49.927113702623906
92201,Riverside County,CA,17.018950437317784
92227,Imperial County,CA,65.7798833819242
92234,Riverside County,CA,9.147230320699709
92240,Riverside County,CA,46.28279883381924
92243,Imperial County,CA,17.674927113702623
92262,Riverside County,CA,14.941690962099125
92301,San Bernardino County,CA,25.218658892128282
92307,San Bernardino County,CA,19.86151603498542
92311,San Bernardino County,CA,77.332361516035
92316,San Bernardino County,CA,43.221574344023324
92324,San Bernardino County,CA,13.666180758017493
92335,San Bernardino County,CA,6.049562682215743
92336,San Bernardino County,CA,6.19533527696793
92337,San Bernardino County,CA,87.93731778425656
92345,San Bernardino County,CA,6.2682215743440235
92376,San Bernardino County,CA,45.33527696793003
92394,San Bernardino County,CA,40.123906705539355
92503,Riverside County,CA,43.075801749271136
92504,Riverside County,CA,33.27259475218659
92505,Riverside County,CA,38.0466472303207
92509,Riverside County,CA,16.144314868804667
92532,Riverside County,CA,84.98542274052478
92545,Riverside County,CA,33.52769679300292
92553,Riverside County,CA,79.26384839650146
92591,Riverside County,CA,39.467930029154516
92592,Riverside County,CA,70.04373177842565
92595,Riverside County,CA,65.12390670553935
92618,Orange County,CA,56.19533527696793
92626,Orange County,CA,34.2201166180758
92627,Orange County,CA,14.067055393586006
92660,Orange County,CA,79.55539358600583
92677,Orange County,CA,24.963556851311953
92701,Orange County,CA,68.87755102040816
92703,Orange County,CA,63.73906705539358
92704,Orange County,CA,58.85568513119534
92804,Orange County,CA,35.45918367346938
92805,Orange County,CA,18.47667638483965
92831,Orange County,CA,74.27113702623906
92840,Orange County,CA,42.237609329446066
92843,Orange County,CA,29.300291545189506
92844,Orange County,CA,64.46793002915452
92866,Orange County,CA,76.74927113702624
92867,Orange County,CA,52.15014577259475
92870,Orange County,CA,28.389212827988334
92880,Riverside County,CA,81.96064139941691
92881,Riverside County,CA,67.60204081632652
92882,Riverside County,CA,21.100583090379008
92887,Orange County,CA,87.09912536443149
93001,Ventura County,CA,52.04081632653062
93033,Ventura County,CA,83.19970845481049
93035,Ventura County,CA,61.11516034985422
93036,Ventura County,CA,72.01166180758017
93060,Ventura County,CA,28.316326530612244
93065,Ventura County,CA,9.620991253644315
93101,Santa Barbara County,CA,67.67492711370262
93117,Santa Barbara County,CA,95.91836734693877
93210,Fresno County,CA,68.95043731778425
93215,Kern County,CA,51.6399416909621
93221,Tulare County,CA,72.44897959183673
93230,Kings County,CA,11.880466472303207
93257,Tulare County,CA,8.454810495626822
93263,Kern County,CA,70.40816326530613
93277,Tulare County,CA,17.747813411078717
93280,Kern County,CA,69.46064139941691
93291,Tulare County,CA,45.298833819241985
93305,Kern County,CA,33.637026239067055
93306,Kern County,CA,13.994169096209912
93308,Kern County,CA,69.78862973760933
93312,Kern County,CA,30.794460641399418
93436,Santa Barbara County,CA,58.345481049562686
93444,San Luis Obispo County,CA,52.295918367346935
93446,San Luis Obispo County,CA,52.47813411078717
93454,Santa Barbara County,CA,72.08454810495627
93455,Santa Barbara County,CA,81.99708454810497
93458,Santa Barbara County,CA,9.220116618075803
93514,Inyo County,CA,94.09620991253644
93535,Los Angeles County,CA,25.911078717201164
93550,Los Angeles County,CA,8.527696793002915
93560,Kern County,CA,96.46501457725948
93618,Tulare County,CA,45.44460641399417
93619,Fresno County,CA,66.1807580174927
93630,Fresno County,CA,75.61953352769679
93631,Fresno County,CA,66.83673469387756
93637,Madera County,CA,23.79737609329446
93705,Fresno County,CA,24.927113702623906
93722,Fresno County,CA,5.430029154518951
93737,Fresno County,CA,96.42857142857143
93927,Monterey County,CA,68.14868804664724
93930,Monterey County,CA,93.29446064139941
93933,Monterey County,CA,82.39795918367348
93950,Monterey County,CA,83.23615160349854
94010,San Mateo County,CA,42.78425655976677
94015,San Mateo County,CA,81.19533527696792
94019,San Mateo County,CA,75.91107871720116
94043,Santa Clara County,CA,67.63848396501457
94044,San Mateo County,CA,44.02332361516035
94062,San Mateo County,CA,47.704081632653065
94066,San Mateo County,CA,81.34110787172013
94070,San Mateo County,CA,74.16180758017494
94080,San Mateo County,CA,58.49125364431487
94089,Santa Clara County,CA,75.43731778425656
94102,San Francisco County,CA,23.61516034985423
94105,San Francisco County,CA,93.5131195335277
94110,San Francisco County,CA,33.05393586005831
94115,San Francisco County,CA,39.75947521865889
94118,San Francisco County,CA,47.77696793002916
94122,San Francisco County,CA,82.68950437317784
94123,San Francisco County,CA,81.26822157434403
94501,Alameda County,CA,63.15597667638484
94505,Contra Costa County,CA,82.79883381924198
94531,Contra Costa County,CA,74.89067055393586
94536,Alameda County,CA,23.432944606413994
94538,Alameda County,CA,38.593294460641395
94541,Alameda County,CA,48.97959183673469
94544,Alameda County,CA,11.989795918367346
94553,Contra Costa County,CA,33.27259475218659
94556,Contra Costa County,CA,86.18804664723032
94568,Alameda County,CA,74.52623906705539
94577,Alameda County,CA,28.279883381924197
94578,Alameda County,CA,41.54518950437318
94587,Alameda County,CA,27.441690962099123
94597,Contra Costa County,CA,65.26967930029156
94601,Alameda County,CA,36.042274052478135
94605,Alameda County,CA,17.20116618075802
94606,Alameda County,CA,46.53790087463557
94608,Alameda County,CA,85.56851311953353
94611,Alameda County,CA,55.211370262390666
94619,Alameda County,CA,73.54227405247813
94621,Alameda County,CA,23.9067055393586
94804,Contra Costa County,CA,56.41399416909621
94952,Sonoma County,CA,69.60641399416909
95014,Santa Clara County,CA,82.14285714285714
95023,San Benito County,CA,53.862973760932945
95060,Santa Cruz County,CA,66.43586005830903
95110,Santa Clara County,CA,77.55102040816327
95112,Santa Clara County,CA,29.77405247813411
95125,Santa Clara County,CA,39.10349854227405
95127,Santa Clara County,CA,90.19679300291546
95131,Santa Clara County,CA,73.79737609329446
95133,Santa Clara County,CA,96.90233236151603
95203,San Joaquin County,CA,78.93586005830903
95204,San Joaquin County,CA,47.667638483965014
95307,Stanislaus County,CA,58.16326530612245
95315,Merced County,CA,85.71428571428571
95326,Stanislaus County,CA,88.88483965014578
95336,San Joaquin County,CA,21.865889212827987
95337,San Joaquin County,CA,31.778425655976676
95340,Merced County,CA,27.259475218658892
95350,Stanislaus County,CA,87.35422740524781
95351,Stanislaus County,CA,14.832361516034986
95354,Stanislaus County,CA,25.036443148688047
95355,Stanislaus County,CA,5.211370262390671
95360,Stanislaus County,CA,77.36880466472303
95363,Stanislaus County,CA,54.70116618075802
95366,San Joaquin County,CA,90.67055393586006
95367,Stanislaus County,CA,45.91836734693878
95382,Stanislaus County,CA,17.38338192419825
95401,Sonoma County,CA,78.06122448979592
95403,Sonoma County,CA,41.2536443148688
95407,Sonoma County,CA,92.71137026239067
95503,Humboldt County,CA,83.600583090379
95603,Placer County,CA,60.75072886297376
95660,Sacramento County,CA,31.705539358600582
95667,El Dorado County,CA,24.05247813411079
95670,Sacramento County,CA,25.87463556851312
95757,Sacramento County,CA,68.54956268221575
95758,Sacramento County,CA,93.36734693877551
95821,Sacramento County,CA,34.36588921282799
95824,Sacramento County,CA,77.40524781341108
95831,Sacramento County,CA,49.30758017492711
95833,Sacramento County,CA,64.79591836734694
95835,Sacramento County,CA,60.8600583090379
95842,Sacramento County,CA,36.77113702623907
95917,Butte County,CA,96.7930029154519
95926,Butte County,CA,74.96355685131195
95928,Butte County,CA,59.7667638483965
95948,Butte County,CA,89.43148688046647
95991,Sutter County,CA,20.809037900874635
96002,Shasta County,CA,86.9533527696793
96003,Shasta County,CA,35.13119533527696
96097,Siskiyou County,CA,77.25947521865889
80003,Jefferson County,CO,36.98979591836735
80010,Arapahoe County,CO,12.463556851311953
80013,Arapahoe County,CO,47.99562682215743
80014,Arapahoe County,CO,57.762390670553934
80020,Broomfield County,CO,35.96938775510204
80021,Jefferson County,CO,53.024781341107875
80022,Adams County,CO,10.860058309037901
80030,Adams County,CO,68.73177842565597
80102,Adams County,CO,94.60641399416909
80104,Douglas County,CO,48.2871720116618
80111,Arapahoe County,CO,63.73906705539358
80127,Jefferson County,CO,38.593294460641395
80128,Jefferson County,CO,51.7128279883382
80130,Douglas County,CO,70.69970845481049
80132,El Paso County,CO,92.45626822157435
80138,Douglas County,CO,44.424198250728864
80205,Denver County,CO,8.236151603498543
80219,Denver County,CO,16.800291545189506
80221,Adams County,CO,24.198250728862973
80229,Adams County,CO,35.677842565597665
80231,Denver County,CO,30.102040816326532
80239,Denver County,CO,49.34402332361516
80241,Adams County,CO,46.82944606413994
80501,Boulder County,CO,44.49708454810495
80513,Larimer County,CO,68.95043731778425
80524,Larimer County,CO,22.2667638483965
80526,Larimer County,CO,28.79008746355685
80534,Weld County,CO,62.46355685131195
80601,Adams County,CO,59.511661807580175
80631,Weld County,CO,24.78134110787172
80645,Weld County,CO,93.65889212827987
80918,El Paso County,CO,37.427113702623906
80921,El Paso County,CO,92.93002915451895
80922,El Paso County,CO,47.48542274052478
81001,Pueblo County,CO,45.626822157434404
81005,Pueblo County,CO,28.86297376093295
81403,Montrose County,CO,72.15743440233237
81416,Delta County,CO,66.50874635568513
81520,Mesa County,CO,65.19679300291546
06002,Hartford County,CT,40.41545189504373
06010,Hartford County,CT,0.8746355685131195
06033,Hartford County,CT,48.79737609329446
06040,Hartford County,CT,6.486880466472303
06051,Hartford County,CT,13.739067055393587
06082,Hartford County,CT,12.718658892128278
06095,Hartford County,CT,31.559766763848394
06119,Hartford County,CT,76.16618075801749
06120,Hartford County,CT,40.816326530612244
06234,Windham County,CT,57.03352769679301
06239,Windham County,CT,27.660349854227405
06281,Windham County,CT,90.59766763848397
06437,New Haven County,CT,89.10349854227405
06451,New Haven County,CT,17.52915451895044
06492,New Haven County,CT,45.33527696793003
06511,New Haven County,CT,2.1501457725947524
06516,New Haven County,CT,4.118075801749272
06604,Fairfield County,CT,13.301749271137025
06606,Fairfield County,CT,11.73469387755102
06615,Fairfield County,CT,71.68367346938776
06779,Litchfield County,CT,82.98104956268222
06795,Litchfield County,CT,79.9927113702624
06830,Fairfield County,CT,56.52332361516035
06854,Fairfield County,CT,68.33090379008746
06877,Fairfield County,CT,89.21282798833819
06905,Fairfield County,CT,89.067055393586
19702,New Castle County,DE,37.13556851311953
19703,New Castle County,DE,88.19241982507289
19709,New Castle County,DE,44.970845481049565
19711,New Castle County,DE,56.88775510204081
19713,New Castle County,DE,22.70408163265306
19801,New Castle County,DE,30.43002915451895
19802,New Castle County,DE,36.406705539358605
19805,New Castle County,DE,83.30903790087464
19901,Kent County,DE,71.02769679300292
19904,Kent County,DE,55.17492711370262
19956,Sussex County,DE,69.64285714285714
19963,Sussex County,DE,26.129737609329446
19966,Sussex County,DE,16.982507288629737
19973,Sussex County,DE,10.058309037900875
19977,Kent County,DE,65.88921282798835
32011,Nassau County,FL,52.36880466472304
32024,Columbia County,FL,55.75801749271137
32065,Clay County,FL,33.637026239067055
32081,St. Johns County,FL,92.89358600583091
32084,St. Johns County,FL,55.539358600583085
32092,St. Johns County,FL,43.403790087463555
32097,Nassau County,FL,48.61516034985422
32118,Volusia County,FL,76.67638483965014
32119,Volusia County,FL,93.62244897959184
32127,Volusia County,FL,53.316326530612244
32164,Flagler County,FL,25.94752186588921
32174,Volusia County,FL,38.19241982507289
32177,Putnam County,FL,36.62536443148688
32205,Duval County,FL,19.059766763848394
32208,Duval County,FL,5.830903790087463
32209,Duval County,FL,2.0408163265306123
32210,Duval County,FL,30.612244897959183
32211,Duval County,FL,14.759475218658894
32216,Duval County,FL,12.645772594752186
32217,Duval County,FL,64.32215743440233
32221,Duval County,FL,21.610787172011662
32223,Duval County,FL,64.75947521865889
32244,Duval County,FL,2.9518950437317786
32254,Duval County,FL,39.35860058309038
32256,Duval County,FL,24.635568513119534
32257,Duval County,FL,49.78134110787172
32258,Duval County,FL,47.08454810495627
32277,Duval County,FL,47.303206997084544
32301,Leon County,FL,58.52769679300292
32327,Wakulla County,FL,70.44460641399417
32404,Bay County,FL,17.27405247813411
32405,Bay County,FL,19.169096209912535
32425,Holmes County,FL,45.88192419825073
32505,Escambia County,FL,12.244897959183673
32506,Escambia County,FL,9.220116618075803
32514,Escambia County,FL,16.8731778425656
32526,Escambia County,FL,8.965014577259476
32547,Okaloosa County,FL,33.56413994169096
32569,Okaloosa County,FL,84.80320699708454
32571,Santa Rosa County,FL,8.855685131195337
32606,Alachua County,FL,59.803206997084544
32607,Alachua County,FL,13.155976676384839
32615,Alachua County,FL,57.54373177842565
32643,Alachua County,FL,43.25801749271137
32693,Gilchrist County,FL,84.2930029154519
32703,Orange County,FL,16.034985422740526
32708,Seminole County,FL,82.06997084548105
32712,Orange County,FL,56.70553935860059
32713,Volusia County,FL,79.33673469387756
32720,Volusia County,FL,50.437317784256564
32724,Volusia County,FL,85.96938775510205
32725,Volusia County,FL,27.113702623906704
32754,Brevard County,FL,93.73177842565597
32757,Lake County,FL,48.505830903790084
32765,Seminole County,FL,48.61516034985422
32771,Seminole County,FL,38.84839650145773
32773,Seminole County,FL,39.6865889212828
32789,Orange County,FL,65.81632653061224
32801,Orange County,FL,80.21137026239067
32808,Orange County,FL,10.021865889212828
32809,Orange County,FL,39.467930029154516
32810,Orange County,FL,31.08600583090379
32812,Orange County,FL,28.17055393586006
32817,Orange County,FL,59.65743440233236
32818,Orange County,FL,10.641399416909621
32824,Orange County,FL,34.69387755102041
32825,Orange County,FL,24.016034985422742
32827,Orange County,FL,96.1734693877551
32828,Orange County,FL,29.11807580174927
32835,Orange County,FL,50.72886297376093
32837,Orange County,FL,14.395043731778426
32839,Orange County,FL,79.1545189504373
32905,Brevard County,FL,52.15014577259475
32927,Brevard County,FL,74.81778425655978
32955,Brevard County,FL,41.07142857142857
32966,Indian River County,FL,68.69533527696792
33010,Miami-Dade County,FL,90.52478134110787
33012,Miami-Dade County,FL,91.3265306122449
33015,Miami-Dade County,FL,43.075801749271136
33023,Broward County,FL,73.06851311953353
33024,Broward County,FL,21.537900874635568
33054,Miami-Dade County,FL,72.01166180758017
33055,Miami-Dade County,FL,89.75947521865889
33056,Miami-Dade County,FL,86.0058309037901
33062,Broward County,FL,85.20408163265306
33065,Broward County,FL,39.17638483965015
33067,Broward County,FL,71.97521865889213
33068,Broward County,FL,68.03935860058309
33125,Miami-Dade County,FL,67.85714285714286
33126,Miami-Dade County,FL,94.82507288629738
33127,Miami-Dade County,FL,76.96793002915452
33135,Miami-Dade County,FL,68.5131195335277
33142,Miami-Dade County,FL,95.40816326530613
33143,Miami-Dade County,FL,73.79737609329446
33147,Miami-Dade County,FL,58.637026239067055
33150,Miami-Dade County,FL,84.6938775510204
33155,Miami-Dade County,FL,67.74781341107871
33161,Miami-Dade County,FL,26.42128279883382
33162,Miami-Dade County,FL,78.64431486880467
33165,Miami-Dade County,FL,52.84256559766764
33168,Miami-Dade County,FL,92.05539358600583
33169,Miami-Dade County,FL,33.89212827988338
33170,Miami-Dade County,FL,78.3527696793003
33173,Miami-Dade County,FL,76.16618075801749
33174,Miami-Dade County,FL,66.10787172011662
33176,Miami-Dade County,FL,94.60641399416909
33177,Miami-Dade County,FL,35.60495626822158
33181,Miami-Dade County,FL,77.44169096209913
33184,Miami-Dade County,FL,69.56997084548105
33185,Miami-Dade County,FL,95.04373177842565
33187,Miami-Dade County,FL,75.61953352769679
33309,Broward County,FL,50.29154518950437
33311,Broward County,FL,55.46647230320699
33312,Broward County,FL,26.239067055393583
33313,Broward County,FL,64.17638483965014
33319,Broward County,FL,66.399416909621
33324,Broward County,FL,61.698250728862966
33334,Broward County,FL,44.71574344023323
33351,Broward County,FL,65.01457725947522
33401,Palm Beach County,FL,82.72594752186589
33406,Palm Beach County,FL,70.88192419825073
33407,Palm Beach County,FL,21.465014577259474
33409,Palm Beach County,FL,83.05393586005832
33415,Palm Beach County,FL,34.25655976676385
33417,Palm Beach County,FL,78.09766763848397
33431,Palm Beach County,FL,79.48250728862973
33432,Palm Beach County,FL,78.4256559766764
33435,Palm Beach County,FL,82.61661807580175
33436,Palm Beach County,FL,48.032069970845484
33440,Hendry County,FL,41.94606413994169
33444,Palm Beach County,FL,53.352769679300295
33460,Palm Beach County,FL,37.427113702623906
33461,Palm Beach County,FL,51.82215743440233
33463,Palm Beach County,FL,89.03061224489795
33510,Hillsborough County,FL,47.95918367346938
33527,Hillsborough County,FL,79.40962099125365
33542,Pasco County,FL,46.79300291545189
33545,Pasco County,FL,82.54373177842565
33548,Hillsborough County,FL,95.66326530612244
33563,Hillsborough County,FL,92.23760932944607
33572,Hillsborough County,FL,91.47230320699708
33578,Hillsborough County,FL,60.38629737609329
33584,Hillsborough County,FL,46.647230320699705
33603,Hillsborough County,FL,53.2798833819242
33604,Hillsborough County,FL,16.909620991253643
33611,Hillsborough County,FL,64.86880466472303
33614,Hillsborough County,FL,26.712827988338194
33617,Hillsborough County,FL,25.364431486880466
33619,Hillsborough County,FL,26.676384839650147
33710,Pinellas County,FL,41.39941690962099
33712,Pinellas County,FL,26.931486880466473
33714,Pinellas County,FL,76.05685131195335
33716,Pinellas County,FL,88.01020408163265
33755,Pinellas County,FL,35.42274052478135
33760,Pinellas County,FL,69.86151603498543
33763,Pinellas County,FL,79.73760932944607
33765,Pinellas County,FL,67.71137026239067
33777,Pinellas County,FL,89.57725947521867
33801,Polk County,FL,16.217201166180757
33805,Polk County,FL,31.268221574344025
33810,Polk County,FL,52.55102040816326
33811,Polk County,FL,62.026239067055386
33825,Highlands County,FL,43.25801749271137
33837,Polk County,FL,40.816326530612244
33841,Polk County,FL,90.45189504373178
33873,Hardee County,FL,87.4271137026239
33881,Polk County,FL,62.572886297376094
33904,Lee County,FL,29.919825072886297
33908,Lee County,FL,52.58746355685131
33952,Charlotte County,FL,17.674927113702623
33990,Lee County,FL,28.717201166180757
34108,Collier County,FL,84.7667638483965
34117,Collier County,FL,59.25655976676385
34142,Collier County,FL,77.76967930029156
34203,Manatee County,FL,46.1734693877551
34208,Manatee County,FL,78.86297376093295
34211,Manatee County,FL,92.60204081632652
34221,Manatee County,FL,30.174927113702626
34222,Manatee County,FL,70.59037900874635
34237,Sarasota County,FL,49.927113702623906
34442,Citrus County,FL,90.41545189504373
34471,Marion County,FL,43.87755102040816
34472,Marion County,FL,29.26384839650146
34475,Marion County,FL,57.03352769679301
34488,Marion County,FL,65.52478134110787
34613,Hernando County,FL,67.966472303207
34614,Hernando County,FL,92.38338192419825
34652,Pasco County,FL,32.25218658892128
34667,Pasco County,FL,35.82361516034985
34677,Pinellas County,FL,69.49708454810497
34684,Pinellas County,FL,64.067055393586
34691,Pasco County,FL,36.406705539358605
34741,Osceola County,FL,48.3600583090379
34746,Osceola County,FL,27.806122448979593
34753,Lake County,FL,93.9868804664723
34772,Osceola County,FL,60.05830903790087
34788,Lake County,FL,59.693877551020414
34953,St. Lucie County,FL,18.403790087463555
34972,Okeechobee County,FL,52.07725947521866
34994,Martin County,FL,71.28279883381924
30004,Fulton County,GA,33.41836734693878
30011,Barrow County,GA,64.39504373177843
30016,Newton County,GA,33.09037900874635
30019,Gwinnett County,GA,64.03061224489795
30021,DeKalb County,GA,70.1530612244898
30034,DeKalb County,GA,56.19533527696793
30040,Forsyth County,GA,18.622448979591837
30041,Forsyth County,GA,19.97084548104956
30046,Gwinnett County,GA,39.17638483965015
30052,Walton County,GA,12.062682215743441
30062,Cobb County,GA,34.73032069970846
30067,Cobb County,GA,53.024781341107875
30075,Fulton County,GA,30.357142857142854
30083,DeKalb County,GA,19.205539358600582
30114,Cherokee County,GA,27.405247813411076
30115,Cherokee County,GA,31.013119533527693
30120,Bartow County,GA,14.103498542274053
30125,Polk County,GA,29.081632653061224
30126,Cobb County,GA,67.4927113702624
30127,Cobb County,GA,41.21720116618076
30165,Floyd County,GA,50.583090379008745
30179,Carroll County,GA,49.81778425655977
30187,Douglas County,GA,70.37172011661808
30215,Fayette County,GA,54.70116618075802
30223,Spalding County,GA,29.190962099125368
30236,Clayton County,GA,57.68950437317785
30238,Clayton County,GA,44.31486880466473
30252,Henry County,GA,30.903790087463555
30253,Henry County,GA,18.841107871720116
30263,Coweta County,GA,6.705539358600583
30265,Coweta County,GA,42.78425655976677
30274,Clayton County,GA,31.41399416909621
30276,Coweta County,GA,64.57725947521867
30281,Henry County,GA,18.69533527696793
30286,Upson County,GA,41.61807580174927
30309,Fulton County,GA,76.16618075801749
30310,Fulton County,GA,47.886297376093296
30311,Fulton County,GA,9.876093294460642
30316,DeKalb County,GA,45.22594752186589
30318,Fulton County,GA,20.371720116618075
30319,DeKalb County,GA,63.92128279883382
30331,Fulton County,GA,11.406705539358601
30341,DeKalb County,GA,62.31778425655977
30577,Stephens County,GA,36.916909620991255
30666,Barrow County,GA,79.95626822157435
30680,Barrow County,GA,44.788629737609334
30740,Whitfield County,GA,80.10204081632652
30809,Columbia County,GA,27.988338192419825
30830,Burke County,GA,44.16909620991253
31015,Crisp County,GA,70.29883381924198
31061,Baldwin County,GA,21.282798833819243
31217,Bibb County,GA,55.50291545189504
31329,Effingham County,GA,88.84839650145773
31405,Chatham County,GA,40.92565597667638
31406,Chatham County,GA,73.9067055393586
31513,Appling County,GA,62.937317784256564
31535,Coffee County,GA,77.7332361516035
31546,Wayne County,GA,80.97667638483965
31643,Brooks County,GA,61.4067055393586
31707,Dougherty County,GA,42.31049562682216
31709,Sumter County,GA,47.23032069970846
31750,Ben Hill County,GA,50.72886297376093
31806,Schley County,GA,99.96355685131195
31831,Harris County,GA,98.28717201166181
31903,Muscogee County,GA,25.072886297376094
31907,Muscogee County,GA,4.810495626822157
39819,Decatur County,GA,73.94314868804665
96706,Honolulu County,HI,6.851311953352769
96708,Maui County,HI,94.533527696793
96720,Hawaii County,HI,25.109329446064137
96756,Kauai County,HI,96.06413994169097
96792,Honolulu County,HI,7.835276967930029
96793,Maui County,HI,69.49708454810497
96819,Honolulu County,HI,59.001457725947525
96822,Honolulu County,HI,31.341107871720116
83201,Bannock County,ID,15.962099125364432
83301,Twin Falls County,ID,13.010204081632654
83330,Gooding County,ID,99.01603498542273
83338,Jerome County,ID,75.83819241982506
83402,Bonneville County,ID,74.08892128279884
83442,Jefferson County,ID,80.64868804664724
83467,Lemhi County,ID,92.60204081632652
83605,Canyon County,ID,53.64431486880466
83616,Ada County,ID,71.06413994169097
83634,Ada County,ID,31.924198250728864
83642,Ada County,ID,11.62536443148688
83644,Canyon County,ID,83.85568513119533
83646,Ada County,ID,31.887755102040817
83647,Elmore County,ID,35.8600583090379
83651,Canyon County,ID,11.588921282798834
83686,Canyon County,ID,4.846938775510204
83702,Ada County,ID,56.34110787172012
83704,Ada County,ID,83.3454810495627
83705,Ada County,ID,21.246355685131196
83709,Ada County,ID,9.6574344023323615
83815,Kootenai County,ID,84.2201166180758
83843,Latah County,ID,80.90379008746356
60030,Lake County,IL,34.58454810495627
60060,Lake County,IL,39.613702623906704
60064,Lake County,IL,94.09620991253644
60074,Cook County,IL,33.41836734693878
60089,Lake County,IL,64.72303206997084
60091,Cook County,IL,63.5932944606414
60098,McHenry County,IL,23.432944606413994
60101,DuPage County,IL,19.67930029154519
60103,DuPage County,IL,20.481049562682216
60106,DuPage County,IL,55.940233236151606
60120,Kane County,IL,69.38775510204081
60124,Kane County,IL,56.960641399416915
60126,DuPage County,IL,27.951895043731778
60134,Kane County,IL,35.932944606414
60136,Kane County,IL,91.50874635568513
60137,DuPage County,IL,25.765306122448976
60140,Kane County,IL,87.02623906705539
60148,DuPage County,IL,9.365889212827987
60174,Kane County,IL,37.35422740524781
60178,DeKalb County,IL,46.82944606413994
60181,DuPage County,IL,22.448979591836736
60185,DuPage County,IL,29.008746355685133
60188,DuPage County,IL,61.66180758017493
60304,Cook County,IL,49.088921282798836
60402,Cook County,IL,64.21282798833819
60428,Cook County,IL,83.38192419825073
60430,Cook County,IL,58.454810495626816
60435,Will County,IL,6.559766763848396
60440,Will County,IL,13.520408163265307
60442,Will County,IL,73.46938775510205
60445,Cook County,IL,76.74927113702624
60446,Will County,IL,9.548104956268222
60447,Grundy County,IL,48.32361516034985
60453,Cook County,IL,9.001457725947521
60462,Cook County,IL,18.986880466472304
60463,Cook County,IL,87.5
60466,Cook County,IL,40.67055393586006
60473,Cook County,IL,48.432944606414
60501,Cook County,IL,83.49125364431487
60505,Kane County,IL,23.104956268221574
60516,DuPage County,IL,37.13556851311953
60525,Cook County,IL,16.399416909620992
60526,Cook County,IL,66.98250728862973
60544,Will County,IL,29.81049562682216
60546,Cook County,IL,70.8454810495627
60560,Kendall County,IL,35.021865889212826
60564,Will County,IL,29.518950437317788
60608,Cook County,IL,6.997084548104956
60614,Cook County,IL,46.57434402332362
60617,Cook County,IL,71.20991253644316
60618,Cook County,IL,5.1020408163265305
60619,Cook County,IL,3.4256559766763846
60621,Cook County,IL,27.040816326530614
60629,Cook County,IL,19.096209912536445
60631,Cook County,IL,57.83527696793003
60634,Cook County,IL,6.450437317784257
60647,Cook County,IL,23.068513119533527
60651,Cook County,IL,5.029154518950437
60652,Cook County,IL,54.55539358600583
60660,Cook County,IL,19.387755102040817
60714,Cook County,IL,67.4198250728863
60804,Cook County,IL,13.48396501457726
60914,Kankakee County,IL,87.5728862973761
61008,Boone County,IL,25.400874635568517
61061,Ogle County,IL,91.36297376093295
61072,Winnebago County,IL,71.24635568513119
61073,Winnebago County,IL,90.19679300291546
61254,Henry County,IL,90.634110787172
61364,LaSalle County,IL,47.8134110787172
61832,Vermilion County,IL,6.596209912536444
62095,Madison County,IL,77.95189504373178
62549,Macon County,IL,84.9125364431487
62565,Shelby County,IL,78.899416909621
62704,Sangamon County,IL,38.33819241982507
46012,Madison County,IN,29.701166180758015
46016,Madison County,IN,9.402332361516034
46032,Hamilton County,IN,69.38775510204081
46060,Hamilton County,IN,72.74052478134111
46107,Marion County,IN,52.696793002915456
46135,Putnam County,IN,60.27696793002916
46140,Hancock County,IN,55.24781341107872
46151,Morgan County,IN,50.69241982507289
46168,Hendricks County,IN,31.486880466472307
46201,Marion County,IN,12.17201166180758
46203,Marion County,IN,5.393586005830904
46205,Marion County,IN,28.607871720116616
46221,Marion County,IN,56.04956268221575
46235,Marion County,IN,43.54956268221574
46241,Marion County,IN,13.77551020408163
46268,Marion County,IN,36.26093294460642
46307,Lake County,IN,20.73615160349854
46321,Lake County,IN,26.53061224489796
46323,Lake County,IN,14.176384839650147
46324,Lake County,IN,78.60787172011662
46342,Lake County,IN,17.56559766763848
46350,LaPorte County,IN,25.5466472303207
46360,LaPorte County,IN,18.075801749271136
46366,Starke County,IN,73.68804664723032
46368,Porter County,IN,1.4212827988338192
46373,Lake County,IN,71.5743440233236
46383,Porter County,IN,4.446064139941691
46385,Porter County,IN,22.157434402332363
46394,Lake County,IN,46.647230320699705
46407,Lake County,IN,38.19241982507289
46516,Elkhart County,IN,11.005830903790088
46563,Marshall County,IN,79.66472303206997
46580,Kosciusko County,IN,37.82798833819242
46721,DeKalb County,IN,88.88483965014578
46725,Whitley County,IN,22.2667638483965
46750,Huntington County,IN,43.00291545189505
46767,Noble County,IN,85.02186588921283
46774,Allen County,IN,88.55685131195335
46803,Allen County,IN,80.39358600583091
46808,Allen County,IN,24.489795918367346
46815,Allen County,IN,74.38046647230321
46901,Howard County,IN,22.011661807580175
46902,Howard County,IN,13.5932944606414
46928,Grant County,IN,98.10495626822157
46953,Grant County,IN,7.3979591836734695
47129,Clark County,IN,44.096209912536445
47167,Washington County,IN,42.09183673469388
47172,Clark County,IN,60.49562682215743
47203,Bartholomew County,IN,26.82215743440233
47246,Bartholomew County,IN,98.68804664723032
47265,Jennings County,IN,16.43586005830904
47371,Jay County,IN,46.465014577259474
47374,Wayne County,IN,2.077259475218659
47394,Randolph County,IN,65.81632653061224
47454,Orange County,IN,80.21137026239067
47546,Dubois County,IN,93.22157434402332
47620,Posey County,IN,63.84839650145773
47630,Warrick County,IN,35.3134110787172
47710,Vanderburgh County,IN,27.51457725947522
47715,Vanderburgh County,IN,22.193877551020407
47720,Vanderburgh County,IN,67.78425655976676
47802,Vigo County,IN,16.690962099125365
47904,Tippecanoe County,IN,52.22303206997084
47909,Tippecanoe County,IN,31.158892128279884
50009,Polk County,IA,62.937317784256564
50010,Story County,IA,49.70845481049563
50022,Cass County,IA,82.79883381924198
50158,Marshall County,IA,18.47667638483965
50208,Jasper County,IA,77.51457725947522
50219,Marion County,IA,98.9067055393586
50310,Polk County,IA,45.11661807580175
50313,Polk County,IA,31.231778425655975
50320,Polk County,IA,92.3469387755102
50436,Winnebago County,IA,89.832361516035
50501,Webster County,IA,49.67201166180758
50613,Black Hawk County,IA,40.99854227405248
50703,Black Hawk County,IA,20.408163265306122
51103,Woodbury County,IA,39.90524781341108
51105,Woodbury County,IA,61.04227405247813
51106,Woodbury County,IA,40.2332361516035
51334,Emmet County,IA,83.1268221574344
51501,Pottawattamie County,IA,1.5670553935860059
51503,Pottawattamie County,IA,24.89067055393586
51632,Page County,IA,69.67930029154519
52002,Dubuque County,IA,87.68221574344022
52246,Johnson County,IA,52.76967930029155
52403,Linn County,IA,34.62099125364432
52405,Linn County,IA,30.903790087463555
52577,Mahaska County,IA,28.86297376093295
52625,Lee County,IA,99.85422740524781
52627,Lee County,IA,36.005830903790084
52732,Clinton County,IA,46.02769679300292
52748,Scott County,IA,81.30466472303208
52761,Muscatine County,IA,51.60349854227405
52804,Scott County,IA,10.750728862973762
66002,Atchison County,KS,97.04810495626822
66007,Leavenworth County,KS,91.83673469387756
66012,Wyandotte County,KS,97.15743440233237
66061,Johnson County,KS,13.26530612244898
66212,Johnson County,KS,48.39650145772595
66219,Johnson County,KS,82.90816326530613
66611,Shawnee County,KS,86.4067055393586
66614,Shawnee County,KS,26.311953352769677
66720,Neosho County,KS,72.55830903790087
66736,Wilson County,KS,87.46355685131195
67205,Sedgwick County,KS,86.18804664723032
67212,Sedgwick County,KS,56.52332361516035
67216,Sedgwick County,KS,68.18513119533527
67218,Sedgwick County,KS,68.36734693877551
67401,Saline County,KS,14.540816326530612
67501,Reno County,KS,61.07871720116618
67701,Thomas County,KS,88.33819241982506
67846,Finney County,KS,15.670553935860058
40033,Marion County,KY,51.12973760932945
40065,Shelby County,KY,32.50728862973761
40143,Breckinridge County,KY,87.39067055393586
40160,Hardin County,KY,24.453352769679302
40203,Jefferson County,KY,15.342565597667637
40205,Jefferson County,KY,75.25510204081633
40214,Jefferson County,KY,3.899416909620991
40241,Jefferson County,KY,42.49271137026239
40324,Scott County,KY,34.25655976676385
40330,Mercer County,KY,85.42274052478133
40351,Rowan County,KY,15.269679300291545
40391,Clark County,KY,4.956268221574344
40475,Madison County,KY,4.701166180758017
40502,Fayette County,KY,55.39358600583091
40504,Fayette County,KY,34.43877551020408
40505,Fayette County,KY,16.654518950437318
40509,Fayette County,KY,59.25655976676385
40511,Fayette County,KY,78.6807580174927
40514,Fayette County,KY,88.37463556851311
40517,Fayette County,KY,14.832361516034986
40729,Laurel County,KY,77.18658892128279
40744,Laurel County,KY,21.392128279883384
40759,Whitley County,KY,94.533527696793
40769,Whitley County,KY,25.255102040816325
41016,Kenton County,KY,75.47376093294461
41018,Kenton County,KY,50.36443148688047
41042,Boone County,KY,2.9154518950437316
41101,Boyd County,KY,70.80903790087464
41129,Boyd County,KY,44.49708454810495
41230,Lawrence County,KY,51.05685131195335
41635,Floyd County,KY,98.94314868804665
41858,Letcher County,KY,49.56268221574344
42064,Crittenden County,KY,85.64139941690962
42101,Warren County,KY,40.08746355685131
42240,Christian County,KY,19.715743440233236
42276,Logan County,KY,76.16618075801749
42301,Daviess County,KY,5.86734693877551
42376,Daviess County,KY,97.1938775510204
42420,Henderson County,KY,46.137026239067055
42445,Caldwell County,KY,62.17201166180758
42602,Clinton County,KY,96.28279883381924
42701,Hardin County,KY,7.106413994169096
70037,Plaquemines Parish,LA,98.32361516034986
70047,St. Charles Parish,LA,63.62973760932945
70056,Jefferson Parish,LA,93.25801749271136
70058,Jefferson Parish,LA,0.9475218658892128
70065,Jefferson Parish,LA,92.27405247813411
70068,St. John the Baptist Parish,LA,98.87026239067055
70072,Jefferson Parish,LA,95.22594752186589
70094,Jefferson Parish,LA,59.94897959183674
70119,Orleans Parish,LA,32.94460641399417
70125,Orleans Parish,LA,27.62390670553936
70126,Orleans Parish,LA,3.316326530612245
70129,Orleans Parish,LA,98.61516034985422
70301,Lafourche Parish,LA,92.74781341107871
70343,Terrebonne Parish,LA,85.20408163265306
70345,Lafourche Parish,LA,69.67930029154519
70426,Washington Parish,LA,96.53790087463557
70427,Washington Parish,LA,9.693877551020408
70433,St. Tammany Parish,LA,39.54081632653062
70445,St. Tammany Parish,LA,49.052478134110785
70462,Livingston Parish,LA,96.20991253644316
70501,Lafayette Parish,LA,47.15743440233236
70503,Lafayette Parish,LA,98.57871720116617
70517,St. Martin Parish,LA,96.93877551020408
70520,Lafayette Parish,LA,86.77113702623906
70535,St. Landry Parish,LA,98.79737609329446
70560,Iberia Parish,LA,80.06559766763849
70570,St. Landry Parish,LA,0.7288629737609329
70586,Evangeline Parish,LA,89.94169096209913
70601,Calcasieu Parish,LA,90.99854227405247
70634,Beauregard Parish,LA,96.02769679300292
70663,Calcasieu Parish,LA,4.88338192419825
70668,Calcasieu Parish,LA,97.99562682215743
70767,West Baton Rouge Parish,LA,95.29883381924198
70791,East Baton Rouge Parish,LA,8.746355685131196
70802,East Baton Rouge Parish,LA,89.28571428571429
70805,East Baton Rouge Parish,LA,59.73032069970845
70806,East Baton Rouge Parish,LA,90.7069970845481
70807,East Baton Rouge Parish,LA,95.80903790087464
70810,East Baton Rouge Parish,LA,4.591836734693878
70816,East Baton Rouge Parish,LA,18.440233236151606
71052,De Soto Parish,LA,91.94606413994168
71075,Webster Parish,LA,97.52186588921283
71106,Caddo Parish,LA,69.27842565597668
71109,Caddo Parish,LA,3.6443148688046647
71111,Bossier Parish,LA,34.803206997084544
71112,Bossier Parish,LA,8.199708454810496
71202,Ouachita Parish,LA,2.5145772594752187
71203,Ouachita Parish,LA,5.065597667638484
71269,Richland Parish,LA,36.77113702623907
71280,Ouachita Parish,LA,99.67201166180757
71292,Ouachita Parish,LA,93.76822157434403
71295,Franklin Parish,LA,12.208454810495626
71302,Rapides Parish,LA,94.67930029154519
71411,Natchitoches Parish,LA,98.25072886297376
71430,Rapides Parish,LA,100
71457,Natchitoches Parish,LA,3.6807580174927113
71483,Winn Parish,LA,64.067055393586
04005,York County,ME,9.98542274052478
04021,Cumberland County,ME,96.75655976676384
04073,York County,ME,48.79737609329446
04083,York County,ME,95.6268221574344
04101,Cumberland County,ME,26.567055393586003
04105,Cumberland County,ME,91.43586005830903
04364,Kennebec County,ME,77.55102040816327
04401,Penobscot County,ME,8.892128279883382
04462,Penobscot County,ME,80.21137026239067
04463,Piscataquis County,ME,97.4125364431487
04901,Kennebec County,ME,17.128279883381925
04950,Somerset County,ME,93.4402332361516
04953,Penobscot County,ME,85.53206997084548
20603,Charles County,MD,83.45481049562682
20721,Prince George's County,MD,68.40379008746356
20735,Prince George's County,MD,78.4256559766764
20743,Prince George's County,MD,26.567055393586003
20764,Anne Arundel County,MD,97.667638483965
20784,Prince George's County,MD,61.51603498542274
20832,Montgomery County,MD,74.12536443148689
20852,Montgomery County,MD,68.07580174927114
20872,Montgomery County,MD,89.94169096209913
20877,Montgomery County,MD,70.99125364431487
20895,Montgomery County,MD,85.167638483965
20901,Montgomery County,MD,69.86151603498543
20906,Montgomery County,MD,74.41690962099126
20912,Montgomery County,MD,97.59475218658892
21015,Harford County,MD,65.01457725947522
21044,Howard County,MD,40.30612244897959
21108,Anne Arundel County,MD,82.5072886297376
21208,Baltimore County,MD,53.97230320699708
21215,Baltimore city,MD,4.555393586005831
21216,Baltimore city,MD,76.12973760932945
21224,Baltimore city,MD,10.422740524781341
21227,Baltimore County,MD,45.84548104956268
21229,Baltimore city,MD,11.916909620991254
21230,Baltimore city,MD,26.931486880466473
21771,Frederick County,MD,57.39795918367348
21804,Wicomico County,MD,39.03061224489796
01002,Hampshire County,MA,30.247813411078717
01007,Hampshire County,MA,41.10787172011662
01040,Hampden County,MA,2.7696793002915454
01060,Hampshire County,MA,34.25655976676385
01062,Hampshire County,MA,66.76384839650146
01082,Hampshire County,MA,67.3469387755102
01104,Hampden County,MA,17.456268221574344
01108,Hampden County,MA,29.88338192419825
01109,Hampden County,MA,0.9839650145772596
01119,Hampden County,MA,10.495626822157435
01301,Franklin County,MA,96.865889212828
01420,Worcester County,MA,17.49271137026239
01440,Worcester County,MA,7.434402332361516
01453,Worcester County,MA,0.43731778425655976
01462,Worcester County,MA,42.201166180758015
01566,Worcester County,MA,88.30174927113703
01571,Worcester County,MA,21.683673469387756
01581,Worcester County,MA,25
01590,Worcester County,MA,65.74344023323616
01604,Worcester County,MA,0.2915451895043732
01605,Worcester County,MA,16.61807580174927
01606,Worcester County,MA,11.51603498542274
01609,Worcester County,MA,11.042274052478133
01701,Middlesex County,MA,70.73615160349854
01741,Middlesex County,MA,95.88192419825073
01746,Middlesex County,MA,14.504373177842567
01748,Middlesex County,MA,67.56559766763849
01752,Middlesex County,MA,1.530612244897959
01760,Middlesex County,MA,70.0072886297376
01778,Middlesex County,MA,96.68367346938776
01801,Middlesex County,MA,0.4737609329446064
01803,Middlesex County,MA,13.81195335276968
01826,Middlesex County,MA,75.40087463556851
01841,Essex County,MA,70.22594752186589
01844,Essex County,MA,4.919825072886297
01845,Essex County,MA,53.498542274052475
01850,Middlesex County,MA,4.373177842565598
01852,Middlesex County,MA,53.170553935860056
01860,Essex County,MA,98.3600583090379
01876,Middlesex County,MA,3.9358600583090384
01880,Middlesex County,MA,85.932944606414
01887,Middlesex County,MA,3.7900874635568513
01890,Middlesex County,MA,35.532069970845484
01902,Essex County,MA,5.75801749271137
01905,Essex County,MA,6.74198250728863
01907,Essex County,MA,98.76093294460642
01923,Essex County,MA,1.7128279883381923
01938,Essex County,MA,69.24198250728864
01945,Essex County,MA,32.06997084548105
01982,Essex County,MA,67.20116618075802
02021,Norfolk County,MA,56.99708454810496
02026,Norfolk County,MA,2.3323615160349855
02035,Norfolk County,MA,24.744897959183675
02038,Norfolk County,MA,8.418367346938775
02111,Suffolk County,MA,78.38921282798835
02118,Suffolk County,MA,58.709912536443156
02119,Suffolk County,MA,0.7653061224489796
02120,Suffolk County,MA,2.806122448979592
02121,Suffolk County,MA,6.814868804664723
02124,Suffolk County,MA,34.7667638483965
02125,Suffolk County,MA,50.18221574344023
02126,Suffolk County,MA,0.0728862973760933
02127,Suffolk County,MA,0.6924198250728864
02128,Suffolk County,MA,80.61224489795919
02130,Suffolk County,MA,23.651603498542272
02131,Suffolk County,MA,50.40087463556851
02135,Suffolk County,MA,14.24927113702624
02140,Middlesex County,MA,10.823615160349854
02143,Middlesex County,MA,73.76093294460642
02144,Middlesex County,MA,94.24198250728864
02145,Middlesex County,MA,2.368804664723032
02148,Middlesex County,MA,8.564139941690962
02149,Middlesex County,MA,1.2026239067055393
02150,Suffolk County,MA,2.295918367346939
02151,Suffolk County,MA,30.86734693877551
02152,Suffolk County,MA,8.053935860058308
02155,Middlesex County,MA,21.428571428571427
02169,Norfolk County,MA,63.301749271137034
02176,Middlesex County,MA,22.448979591836736
02180,Middlesex County,MA,8.090379008746355
02184,Norfolk County,MA,90.37900874635568
02190,Norfolk County,MA,19.752186588921283
02301,Plymouth County,MA,14.723032069970845
02302,Plymouth County,MA,13.411078717201166
02324,Plymouth County,MA,6.924198250728864
02332,Plymouth County,MA,65.41545189504373
02359,Plymouth County,MA,21.355685131195333
02379,Plymouth County,MA,76.85860058309038
02445,Norfolk County,MA,19.24198250728863
02452,Middlesex County,MA,89.17638483965014
02468,Middlesex County,MA,94.78862973760933
02474,Middlesex County,MA,54.88338192419825
02478,Middlesex County,MA,47.55830903790088
02481,Norfolk County,MA,87.17201166180757
02493,Middlesex County,MA,58.89212827988338
02554,Nantucket County,MA,87.5728862973761
02664,Barnstable County,MA,97.3396501457726
02703,Bristol County,MA,40.59766763848396
02721,Bristol County,MA,93.54956268221575
02745,Bristol County,MA,76.05685131195335
02747,Bristol County,MA,20.00728862973761
02780,Bristol County,MA,48.177842565597665
48021,Macomb County,MI,6.486880466472303
48034,Oakland County,MI,26.82215743440233
48035,Macomb County,MI,47.849854227405245
48036,Macomb County,MI,53.93586005830904
48043,Macomb County,MI,23.72448979591837
48067,Oakland County,MI,28.206997084548107
48071,Oakland County,MI,50.947521865889215
48073,Oakland County,MI,21.1734693877551
48075,Oakland County,MI,57.50728862973761
48076,Oakland County,MI,23.833819241982507
48079,St. Clair County,MI,56.74198250728863
48080,Macomb County,MI,61.224489795918366
48081,Macomb County,MI,78.49854227405247
48082,Macomb County,MI,38.81195335276968
48089,Macomb County,MI,43.18513119533527
48091,Macomb County,MI,19.897959183673468
48093,Macomb County,MI,13.119533527696792
48103,Washtenaw County,MI,9.438775510204081
48104,Washtenaw County,MI,38.6661807580175
48108,Washtenaw County,MI,29.44606413994169
48111,Wayne County,MI,20.6268221574344
48122,Wayne County,MI,90.96209912536443
48124,Wayne County,MI,13.447521865889211
48126,Wayne County,MI,6.3046647230320705
48146,Wayne County,MI,4.664723032069971
48150,Wayne County,MI,53.134110787172006
48154,Wayne County,MI,17.20116618075802
48162,Monroe County,MI,7.981049562682216
48176,Washtenaw County,MI,86.15160349854227
48180,Wayne County,MI,1.2755102040816326
48183,Wayne County,MI,5.575801749271137
48184,Wayne County,MI,10.167638483965016
48185,Wayne County,MI,2.879008746355685
48186,Wayne County,MI,3.2434402332361514
48187,Wayne County,MI,6.341107871720117
48188,Wayne County,MI,8.272594752186588
48192,Wayne County,MI,11.989795918367346
48198,Washtenaw County,MI,37.09912536443149
48202,Wayne County,MI,22.084548104956266
48203,Wayne County,MI,36.47959183673469
48204,Wayne County,MI,6.158892128279883
48205,Wayne County,MI,63.81195335276968
48207,Wayne County,MI,42.4198250728863
48209,Wayne County,MI,47.92274052478135
48210,Wayne County,MI,50.801749271137034
48212,Wayne County,MI,27.660349854227405
48213,Wayne County,MI,29.701166180758015
48219,Wayne County,MI,34.11078717201166
48223,Wayne County,MI,65.634110787172
48227,Wayne County,MI,11.552478134110787
48228,Wayne County,MI,71.42857142857143
48234,Wayne County,MI,23.214285714285715
48235,Wayne County,MI,23.03206997084548
48236,Wayne County,MI,22.813411078717202
48237,Oakland County,MI,63.26530612244898
48239,Wayne County,MI,24.599125364431487
48306,Oakland County,MI,66.6545189504373
48307,Oakland County,MI,40.70699708454811
48309,Oakland County,MI,25.32798833819242
48310,Macomb County,MI,37.86443148688047
48313,Macomb County,MI,52.332361516034986
48314,Macomb County,MI,33.38192419825073
48317,Macomb County,MI,15.597667638483964
48341,Oakland County,MI,21.756559766763846
48342,Oakland County,MI,9.329446064139942
48360,Oakland County,MI,64.97813411078717
48381,Oakland County,MI,58.673469387755105
48386,Oakland County,MI,54.40962099125365
48413,Huron County,MI,92.52915451895043
48455,Lapeer County,MI,96.3192419825073
48503,Genesee County,MI,12.099125364431487
48505,Genesee County,MI,11.844023323615161
48506,Genesee County,MI,49.234693877551024
48507,Genesee County,MI,27.55102040816326
48603,Saginaw County,MI,7.653061224489796
48624,Gladwin County,MI,78.31632653061224
48640,Midland County,MI,27.1865889212828
48642,Midland County,MI,61.98979591836735
48650,Bay County,MI,74.85422740524781
48657,Midland County,MI,75.03644314868805
48708,Bay County,MI,4.409620991253645
48813,Eaton County,MI,29.956268221574344
48823,Ingham County,MI,92.78425655976676
48836,Livingston County,MI,45.18950437317784
48838,Montcalm County,MI,23.25072886297376
48843,Livingston County,MI,7.944606413994169
48858,Isabella County,MI,37.5
48867,Shiawassee County,MI,4.0087463556851315
48875,Ionia County,MI,72.84985422740526
48879,Clinton County,MI,41.3265306122449
48893,Isabella County,MI,93.03935860058309
48895,Ingham County,MI,75.51020408163265
48917,Eaton County,MI,45.481049562682216
49001,Kalamazoo County,MI,45.04373177842565
49002,Kalamazoo County,MI,59.183673469387756
49022,Berrien County,MI,6.013119533527697
49024,Kalamazoo County,MI,90.56122448979592
49036,Branch County,MI,80.13848396501457
49047,Cass County,MI,43.403790087463555
49048,Kalamazoo County,MI,11.370262390670554
49071,Van Buren County,MI,86.07871720116617
49083,Kalamazoo County,MI,79.88338192419825
49087,Kalamazoo County,MI,86.44314868804665
49091,St. Joseph County,MI,36.51603498542274
49201,Jackson County,MI,5.247813411078718
49202,Jackson County,MI,58.782798833819236
49203,Jackson County,MI,4.227405247813411
49221,Lenawee County,MI,13.994169096209912
49224,Calhoun County,MI,45.51749271137026
49230,Jackson County,MI,65.0874635568513
49286,Lenawee County,MI,47.59475218658892
49307,Mecosta County,MI,90.05102040816327
49341,Kent County,MI,54.55539358600583
49346,Mecosta County,MI,92.966472303207
49348,Allegan County,MI,24.41690962099125
49412,Newaygo County,MI,58.1997084548105
49418,Kent County,MI,62.937317784256564
49420,Oceana County,MI,64.57725947521867
49423,Ottawa County,MI,7.470845481049563
49456,Ottawa County,MI,91.1807580174927
49457,Muskegon County,MI,86.04227405247813
49464,Ottawa County,MI,42.78425655976677
49505,Kent County,MI,16.362973760932945
49506,Kent County,MI,17.31049562682216
49509,Kent County,MI,33.78279883381924
49519,Kent County,MI,38.957725947521865
49525,Kent County,MI,75.5466472303207
49546,Kent County,MI,62.718658892128275
49548,Kent County,MI,56.268221574344025
49660,Manistee County,MI,30.174927113702626
49685,Grand Traverse County,MI,43.58600583090379
49706,Emmet County,MI,92.60204081632652
49707,Alpena County,MI,22.558309037900877
49720,Charlevoix County,MI,92.38338192419825
49727,Charlevoix County,MI,82.17930029154519
49849,Marquette County,MI,39.249271137026234
49854,Schoolcraft County,MI,91.94606413994168
55021,Rice County,MN,77.87900874635568
55038,Washington County,MN,74.9271137026239
55041,Wabasha County,MN,96.6472303206997
55055,Washington County,MN,99.52623906705539
55063,Pine County,MN,68.62244897959184
55109,Ramsey County,MN,36.62536443148688
55110,Ramsey County,MN,70.77259475218659
55113,Ramsey County,MN,69.0597667638484
55116,Ramsey County,MN,90.9256559766764
55117,Ramsey County,MN,77.91545189504373
55119,Ramsey County,MN,66.61807580174927
55303,Anoka County,MN,11.73469387755102
55311,Hennepin County,MN,53.826530612244895
55316,Hennepin County,MN,59.037900874635575
55318,Carver County,MN,78.2069970845481
55337,Dakota County,MN,25.473760932944607
55343,Hennepin County,MN,35.09475218658892
55376,Wright County,MN,80.466472303207
55378,Scott County,MN,86.55247813411079
55404,Hennepin County,MN,46.42857142857143
55407,Hennepin County,MN,90.88921282798835
55410,Hennepin County,MN,93.07580174927114
55411,Hennepin County,MN,11.115160349854229
55413,Hennepin County,MN,33.965014577259474
55415,Hennepin County,MN,63.84839650145773
55420,Hennepin County,MN,97.2667638483965
55421,Anoka County,MN,63.55685131195335
55423,Hennepin County,MN,43.36734693877551
55426,Hennepin County,MN,20.11661807580175
55427,Hennepin County,MN,45.99125364431487
55443,Hennepin County,MN,72.70408163265306
55445,Hennepin County,MN,72.15743440233237
55447,Hennepin County,MN,67.20116618075802
55792,St. Louis County,MN,61.62536443148689
55806,St. Louis County,MN,95.77259475218659
55901,Olmsted County,MN,51.49416909620991
55944,Dodge County,MN,95.55393586005832
56081,Watonwan County,MN,76.16618075801749
56164,Pipestone County,MN,86.37026239067055
56187,Nobles County,MN,60.204081632653065
56273,Kandiyohi County,MN,99.56268221574344
56301,Stearns County,MN,67.27405247813411
56353,Mille Lacs County,MN,80.21137026239067
56358,Kanabec County,MN,99.59912536443149
56701,Pennington County,MN,42.93002915451895
38606,Panola County,MS,96.24635568513119
38614,Coahoma County,MS,43.25801749271137
38637,DeSoto County,MS,70.95481049562682
38654,DeSoto County,MS,16.29008746355685
38655,Lafayette County,MS,62.82798833819242
38663,Tippah County,MS,63.046647230320694
38801,Lee County,MS,85.3862973760933
38865,Alcorn County,MS,94.02332361516035
38930,Leflore County,MS,30.75801749271137
38965,Yalobusha County,MS,79.00874635568513
39038,Humphreys County,MS,89.94169096209913
39074,Scott County,MS,29.628279883381925
39180,Warren County,MS,34.62099125364432
39194,Yazoo County,MS,72.55830903790087
39208,Rankin County,MS,30.721574344023324
39213,Hinds County,MS,26.567055393586003
39272,Hinds County,MS,72.48542274052478
39301,Lauderdale County,MS,41.50874635568513
39305,Lauderdale County,MS,45.6997084548105
39330,Clarke County,MS,99.16180758017494
39345,Newton County,MS,91.21720116618076
39443,Jones County,MS,58.1997084548105
39455,Lamar County,MS,72.63119533527697
39466,Pearl River County,MS,51.74927113702624
39503,Harrison County,MS,48.724489795918366
39530,Harrison County,MS,94.46064139941691
39563,Jackson County,MS,40.63411078717201
39573,Stone County,MS,87.68221574344022
39701,Lowndes County,MS,59.803206997084544
39759,Oktibbeha County,MS,59.365889212827994
63028,Jefferson County,MO,66.80029154518951
63031,St. Louis County,MO,40.26967930029154
63033,St. Louis County,MO,10.276967930029155
63077,Franklin County,MO,85.60495626822157
63115,St. Louis city,MO,40.30612244897959
63119,St. Louis County,MO,83.09037900874635
63124,St. Louis County,MO,97.12099125364432
63132,St. Louis County,MO,75.25510204081633
63138,St. Louis County,MO,72.92274052478133
63348,St. Charles County,MO,91.90962099125365
63366,St. Charles County,MO,7.762390670553936
63367,St. Charles County,MO,48.214285714285715
63368,St. Charles County,MO,32.981049562682216
63775,Perry County,MO,27.769679300291543
63901,Butler County,MO,8.78279883381924
64014,Jackson County,MO,14.358600583090379
64034,Jackson County,MO,81.99708454810497
64055,Jackson County,MO,4.263848396501458
64056,Jackson County,MO,50.83819241982507
64063,Jackson County,MO,30.502915451895046
64080,Cass County,MO,55.86734693877551
64082,Jackson County,MO,62.82798833819242
64086,Jackson County,MO,83.52769679300292
64111,Jackson County,MO,18.367346938775512
64117,Clay County,MO,28.972303206997086
64118,Clay County,MO,2.696793002915452
64119,Clay County,MO,6.74198250728863
64130,Jackson County,MO,20.262390670553938
64132,Jackson County,MO,9.548104956268222
64134,Jackson County,MO,8.345481049562682
64152,Platte County,MO,13.0466472303207
64153,Platte County,MO,81.77842565597668
64155,Clay County,MO,15.925655976676383
64156,Clay County,MO,79.30029154518951
64429,Clinton County,MO,71.7930029154519
64468,Nodaway County,MO,58.819241982507286
64482,Atchison County,MO,99.74489795918367
64506,Buchanan County,MO,41.83673469387755
64701,Cass County,MO,34.803206997084544
64850,Newton County,MO,37.93731778425656
65026,Miller County,MO,60.56851311953353
65251,Callaway County,MO,21.756559766763846
65301,Pettis County,MO,14.176384839650147
65340,Saline County,MO,26.384839650145775
65355,Benton County,MO,84.94897959183673
65775,Howell County,MO,23.870262390670554
65802,Greene County,MO,6.851311953352769
65803,Greene County,MO,6.377551020408164
59404,Cascade County,MT,36.18804664723032
59601,Lewis and Clark County,MT,66.72740524781341
59602,Lewis and Clark County,MT,50
59635,Lewis and Clark County,MT,88.5932944606414
68104,Douglas County,NE,18.25801749271137
68105,Douglas County,NE,61.37026239067055
68111,Douglas County,NE,44.059766763848394
68142,Douglas County,NE,98.17784256559767
68372,Lancaster County,NE,99.34402332361516
68503,Lancaster County,NE,87.31778425655978
68504,Lancaster County,NE,71.7930029154519
68505,Lancaster County,NE,77.25947521865889
68516,Lancaster County,NE,59.475218658892125
68521,Lancaster County,NE,54.8469387755102
68776,Dakota County,NE,73.28717201166181
68801,Hall County,NE,79.00874635568513
68850,Dawson County,NE,76.74927113702624
68873,Howard County,NE,99.9271137026239
69153,Keith County,NE,91.83673469387756
69162,Cheyenne County,NE,72.74052478134111
89101,Clark County,NV,54.045189504373184
89107,Clark County,NV,43.00291545189505
89108,Clark County,NV,15.123906705539358
89110,Clark County,NV,13.556851311953352
89115,Clark County,NV,14.139941690962099
89118,Clark County,NV,82.47084548104957
89119,Clark County,NV,14.577259475218659
89120,Clark County,NV,70.33527696793003
89128,Clark County,NV,72.08454810495627
89129,Clark County,NV,39.285714285714285
89131,Clark County,NV,69.16909620991254
89149,Clark County,NV,56.63265306122449
89166,Clark County,NV,56.15889212827988
89169,Clark County,NV,74.59912536443149
89178,Clark County,NV,65.96209912536443
89183,Clark County,NV,81.41399416909621
89445,Humboldt County,NV,89.1399416909621
89506,Washoe County,NV,12.317784256559767
89509,Washoe County,NV,71.46501457725948
89801,Elko County,NV,58.92857142857143
03053,Rockingham County,NH,52.87900874635568
03077,Rockingham County,NH,85.31341107871721
03079,Rockingham County,NH,57.87172011661808
03103,Hillsborough County,NH,3.061224489795918
03106,Merrimack County,NH,90.74344023323616
03458,Hillsborough County,NH,89.65014577259474
03801,Rockingham County,NH,42.49271137026239
03820,Strafford County,NH,14.978134110787172
03858,Rockingham County,NH,80.79446064139941
07002,Hudson County,NJ,0.6559766763848397
07011,Passaic County,NJ,91.07142857142857
07017,Essex County,NJ,0.9110787172011662
07035,Morris County,NJ,55.28425655976677
07045,Morris County,NJ,62.390670553935855
07055,Passaic County,NJ,0.5466472303206997
07075,Bergen County,NJ,86.66180758017494
07082,Morris County,NJ,97.84985422740526
07087,Hudson County,NJ,75.36443148688046
07093,Hudson County,NJ,82.76239067055393
07094,Hudson County,NJ,97.81341107871721
07103,Essex County,NJ,56.88775510204081
07104,Essex County,NJ,43.98688046647231
07108,Essex County,NJ,33.126822157434404
07112,Essex County,NJ,1.6034985422740524
07201,Union County,NJ,86.26093294460642
07203,Union County,NJ,96.13702623906705
07206,Union County,NJ,4.774052478134111
07302,Hudson County,NJ,88.44752186588921
07304,Hudson County,NJ,70.26239067055393
07305,Hudson County,NJ,8.637026239067055
07461,Sussex County,NJ,31.268221574344025
07503,Passaic County,NJ,93.14868804664724
07522,Passaic County,NJ,2.5510204081632653
07601,Bergen County,NJ,37.755102040816325
07631,Bergen County,NJ,20.408163265306122
07734,Monmouth County,NJ,74.78134110787173
07825,Warren County,NJ,99.48979591836735
07860,Sussex County,NJ,87.97376093294461
07885,Morris County,NJ,75.14577259475219
07960,Morris County,NJ,95.99125364431487
08010,Burlington County,NJ,71.90233236151603
08021,Camden County,NJ,46.975218658892125
08060,Burlington County,NJ,85.45918367346938
08094,Gloucester County,NJ,3.389212827988338
08102,Camden County,NJ,4.518950437317784
08104,Camden County,NJ,89.46793002915452
08105,Camden County,NJ,52.988338192419825
08107,Camden County,NJ,20.77259475218659
08108,Camden County,NJ,54.62827988338192
08109,Camden County,NJ,12.900874635568513
08201,Atlantic County,NJ,91.03498542274052
08215,Atlantic County,NJ,27.1865889212828
08302,Cumberland County,NJ,0.619533527696793
08330,Atlantic County,NJ,20.153061224489797
08332,Cumberland County,NJ,0.5102040816326531
08401,Atlantic County,NJ,65.48833819241983
08540,Mercer County,NJ,29.11807580174927
08611,Mercer County,NJ,95.59037900874635
08618,Mercer County,NJ,0.32798833819241985
08701,Ocean County,NJ,97.8862973760933
08724,Ocean County,NJ,75.18221574344022
08731,Ocean County,NJ,29.190962099125368
08753,Ocean County,NJ,1.0568513119533527
08807,Somerset County,NJ,55.68513119533528
08816,Middlesex County,NJ,93.00291545189503
08830,Middlesex County,NJ,86.11516034985422
08861,Middlesex County,NJ,94.97084548104957
08865,Warren County,NJ,2.441690962099125
87002,Valencia County,NM,40.99854227405248
87004,Sandoval County,NM,66.21720116618076
87013,Sandoval County,NM,97.08454810495627
87020,Cibola County,NM,71.100583090379
87021,Cibola County,NM,98.65160349854227
87031,Valencia County,NM,20.18950437317784
87059,Bernalillo County,NM,86.69825072886297
87105,Bernalillo County,NM,1.8950437317784257
87107,Bernalillo County,NM,24.34402332361516
87110,Bernalillo County,NM,31.377551020408163
87114,Bernalillo County,NM,24.38046647230321
87120,Bernalillo County,NM,5.612244897959184
87121,Bernalillo County,NM,2.0043731778425657
87122,Bernalillo County,NM,84.32944606413994
87401,San Juan County,NM,10.96938775510204
87410,San Juan County,NM,82.25218658892129
87413,San Juan County,NM,43.075801749271136
87420,San Juan County,NM,21.902332361516034
87501,Santa Fe County,NM,95.11661807580175
87505,Santa Fe County,NM,2.587463556851312
87507,Santa Fe County,NM,24.526239067055393
87528,Rio Arriba County,NM,83.78279883381924
87571,Taos County,NM,86.4795918367347
88005,Doa Ana County,NM,34.147230320699705
88007,Doa Ana County,NM,48.542274052478135
88012,Doa Ana County,NM,25.583090379008745
88081,Otero County,NM,71.61078717201165
88135,Curry County,NM,99.05247813411079
88201,Chaves County,NM,25.801749271137027
88203,Chaves County,NM,12.900874635568513
88240,Lea County,NM,3.1705539358600583
10009,New York County,NY,5.357142857142857
10011,New York County,NY,63.37463556851311
10017,New York County,NY,94.38775510204081
10027,New York County,NY,48.214285714285715
10029,New York County,NY,0.1457725947521866
10030,New York County,NY,47.2667638483965
10032,New York County,NY,6.669096209912537
10034,New York County,NY,74.70845481049562
10039,New York County,NY,22.521865889212826
10302,Richmond County,NY,87.90087463556851
10305,Richmond County,NY,12.755102040816327
10309,Richmond County,NY,50.947521865889215
10314,Richmond County,NY,53.42565597667639
10452,Bronx County,NY,0.25510204081632654
10453,Bronx County,NY,10.604956268221574
10454,Bronx County,NY,3.498542274052478
10455,Bronx County,NY,14.759475218658894
10456,Bronx County,NY,0
10458,Bronx County,NY,32.17930029154519
10459,Bronx County,NY,66.3265306122449
10460,Bronx County,NY,8.126822157434402
10466,Bronx County,NY,15.160349854227405
10468,Bronx County,NY,27.733236151603496
10469,Bronx County,NY,26.494169096209912
10472,Bronx County,NY,9.074344023323615
10553,Westchester County,NY,95.37172011661808
10573,Westchester County,NY,60.204081632653065
10605,Westchester County,NY,84.0743440233236
10701,Westchester County,NY,6.96064139941691
10918,Orange County,NY,98.06851311953353
10952,Rockland County,NY,61.88046647230321
10960,Rockland County,NY,92.85714285714286
10977,Rockland County,NY,23.542274052478135
11003,Nassau County,NY,91.76384839650146
11102,Queens County,NY,38.265306122448976
11103,Queens County,NY,64.54081632653062
11106,Queens County,NY,89.68658892128279
11201,Kings County,NY,44.642857142857146
11203,Kings County,NY,46.20991253644315
11205,Kings County,NY,7.871720116618077
11206,Kings County,NY,1.1661807580174928
11207,Kings County,NY,0.10932944606413994
11210,Kings County,NY,66.54518950437318
11211,Kings County,NY,56.08600583090379
11212,Kings County,NY,32.06997084548105
11213,Kings County,NY,16.83673469387755
11216,Kings County,NY,62.53644314868805
11217,Kings County,NY,31.705539358600582
11218,Kings County,NY,69.82507288629738
11221,Kings County,NY,25.182215743440235
11224,Kings County,NY,42.12827988338192
11226,Kings County,NY,13.884839650145771
11229,Kings County,NY,52.660349854227405
11230,Kings County,NY,10.53206997084548
11231,Kings County,NY,32.470845481049565
11232,Kings County,NY,88.73906705539358
11233,Kings County,NY,18.950437317784257
11234,Kings County,NY,13.338192419825074
11235,Kings County,NY,31.669096209912535
11236,Kings County,NY,44.75218658892128
11354,Queens County,NY,38.411078717201164
11355,Queens County,NY,19.460641399416907
11370,Queens County,NY,39.795918367346935
11372,Queens County,NY,21.93877551020408
11373,Queens County,NY,8.81924198250729
11379,Queens County,NY,77.04081632653062
11385,Queens County,NY,5.685131195335277
11413,Queens County,NY,39.43148688046647
11419,Queens County,NY,63.70262390670553
11433,Queens County,NY,51.42128279883382
11436,Queens County,NY,61.916909620991255
11552,Nassau County,NY,77.1137026239067
11553,Nassau County,NY,75.25510204081633
11575,Nassau County,NY,26.056851311953356
11577,Nassau County,NY,86.91690962099126
11580,Nassau County,NY,50.65597667638484
11590,Nassau County,NY,82.28862973760933
11701,Suffolk County,NY,62.244897959183675
11706,Suffolk County,NY,15.561224489795919
11713,Suffolk County,NY,96.46501457725948
11717,Suffolk County,NY,61.33381924198251
11727,Suffolk County,NY,55.61224489795919
11731,Suffolk County,NY,77.44169096209913
11743,Suffolk County,NY,67.85714285714286
11746,Suffolk County,NY,41.14431486880466
11754,Suffolk County,NY,76.85860058309038
11755,Suffolk County,NY,93.18513119533527
11757,Suffolk County,NY,33.70991253644315
11950,Suffolk County,NY,69.35131195335276
11967,Suffolk County,NY,23.760932944606413
12019,Saratoga County,NY,69.09620991253644
12065,Saratoga County,NY,16.545189504373177
12078,Fulton County,NY,15.087463556851313
12083,Greene County,NY,98.68804664723032
12205,Albany County,NY,44.934402332361515
12208,Albany County,NY,55.75801749271137
12209,Albany County,NY,82.90816326530613
12303,Schenectady County,NY,62.90087463556851
12304,Schenectady County,NY,21.610787172011662
12534,Columbia County,NY,9.511661807580175
12589,Ulster County,NY,95.18950437317784
12801,Warren County,NY,13.228862973760933
12828,Washington County,NY,80.17492711370262
12983,Franklin County,NY,40.45189504373178
12992,Clinton County,NY,48.61516034985422
13036,Oswego County,NY,51.05685131195335
13045,Cortland County,NY,1.858600583090379
13069,Oswego County,NY,2.6603498542274053
13204,Onondaga County,NY,7.215743440233237
13206,Onondaga County,NY,49.088921282798836
13209,Onondaga County,NY,37.39067055393586
13210,Onondaga County,NY,26.895043731778422
13211,Onondaga County,NY,73.06851311953353
13335,Otsego County,NY,86.62536443148689
13402,Madison County,NY,95.48104956268222
13697,St. Lawrence County,NY,97.77696793002916
13760,Broome County,NY,0.4008746355685131
13790,Broome County,NY,5.539358600583091
13820,Otsego County,NY,27.077259475218657
13827,Tioga County,NY,46.50145772594752
13838,Delaware County,NY,60.64139941690962
13901,Broome County,NY,1.8221574344023324
13905,Broome County,NY,0.8017492711370262
14020,Genesee County,NY,73.25072886297376
14025,Erie County,NY,95.44460641399417
14042,Cattaraugus County,NY,83.70991253644316
14047,Erie County,NY,74.67201166180757
14072,Erie County,NY,32.6530612244898
14085,Erie County,NY,78.2069970845481
14094,Niagara County,NY,21.720116618075803
14120,Niagara County,NY,2.1137026239067054
14131,Niagara County,NY,89.72303206997084
14206,Erie County,NY,34.03790087463557
14207,Erie County,NY,4.482507288629738
14211,Erie County,NY,5.1384839650145775
14213,Erie County,NY,12.572886297376092
14216,Erie County,NY,19.6064139941691
14217,Erie County,NY,18.039358600583093
14221,Erie County,NY,7.106413994169096
14224,Erie County,NY,2.7332361516034984
14304,Niagara County,NY,2.259475218658892
14420,Monroe County,NY,9.730320699708454
14423,Livingston County,NY,83.63702623906705
14424,Ontario County,NY,1.3848396501457727
14425,Ontario County,NY,70.44460641399417
14427,Wyoming County,NY,94.0597667638484
14428,Monroe County,NY,68.29446064139941
14464,Monroe County,NY,84.6938775510204
14467,Monroe County,NY,49.63556851311953
14472,Monroe County,NY,39.03061224489796
14564,Ontario County,NY,12.791545189504372
14568,Wayne County,NY,93.91399416909621
14580,Monroe County,NY,3.7536443148688043
14586,Monroe County,NY,24.30758017492711
14605,Monroe County,NY,5.320699708454811
14607,Monroe County,NY,12.5
14609,Monroe County,NY,2.478134110787172
14611,Monroe County,NY,3.826530612244898
14615,Monroe County,NY,7.069970845481049
14616,Monroe County,NY,26.02040816326531
14621,Monroe County,NY,0.18221574344023322
14626,Monroe County,NY,1.4577259475218658
14701,Chautauqua County,NY,10.896501457725947
14738,Chautauqua County,NY,96.7930029154519
14750,Chautauqua County,NY,80.50291545189503
14817,Tompkins County,NY,95.51749271137027
14830,Steuben County,NY,16.50874635568513
14843,Steuben County,NY,63.99416909620991
14895,Allegany County,NY,54.48250728862973
27023,Forsyth County,NC,84.365889212828
27028,Davie County,NC,57.47084548104956
27052,Stokes County,NC,93.95043731778425
27105,Forsyth County,NC,9.475218658892128
27203,Randolph County,NC,18.877551020408163
27214,Guilford County,NC,77.1137026239067
27215,Alamance County,NC,6.08600583090379
27217,Alamance County,NC,74.63556851311954
27288,Rockingham County,NC,34.183673469387756
27292,Davidson County,NC,31.523323615160347
27295,Davidson County,NC,1.749271137026239
27302,Alamance County,NC,21.501457725947525
27325,Moore County,NC,81.59620991253644
27370,Randolph County,NC,65.19679300291546
27405,Guilford County,NC,49.52623906705539
27406,Guilford County,NC,1.9679300291545192
27407,Guilford County,NC,12.536443148688047
27410,Guilford County,NC,23.323615160349853
27501,Harnett County,NC,43.51311953352769
27502,Wake County,NC,53.75364431486881
27513,Wake County,NC,53.498542274052475
27517,Orange County,NC,45.04373177842565
27519,Wake County,NC,39.6865889212828
27534,Wayne County,NC,26.056851311953356
27546,Harnett County,NC,53.60787172011662
27549,Franklin County,NC,15.706997084548105
27560,Wake County,NC,68.22157434402332
27565,Granville County,NC,15.743440233236154
27573,Person County,NC,36.078717201166185
27576,Johnston County,NC,48.870262390670554
27577,Johnston County,NC,35.750728862973766
27587,Wake County,NC,15.014577259475217
27591,Wake County,NC,48.578717201166185
27606,Wake County,NC,38.01020408163265
27607,Wake County,NC,81.08600583090379
27615,Wake County,NC,31.41399416909621
27616,Wake County,NC,14.431486880466474
27703,Durham County,NC,49.27113702623907
27707,Durham County,NC,53.717201166180764
27712,Durham County,NC,63.62973760932945
27834,Pitt County,NC,21.06413994169096
27983,Bertie County,NC,44.35131195335277
28012,Gaston County,NC,88.95772594752187
28056,Gaston County,NC,36.88046647230321
28081,Cabarrus County,NC,15.2332361516035
28083,Cabarrus County,NC,21.20991253644315
28092,Lincoln County,NC,15.779883381924197
28105,Mecklenburg County,NC,78.79008746355684
28110,Union County,NC,15.451895043731778
28115,Iredell County,NC,14.650145772594753
28139,Rutherford County,NC,28.680758017492714
28144,Rowan County,NC,25.65597667638484
28173,Union County,NC,30.32069970845481
28205,Mecklenburg County,NC,43.65889212827989
28208,Mecklenburg County,NC,25.838192419825074
28210,Mecklenburg County,NC,43.95043731778426
28211,Mecklenburg County,NC,22.120991253644316
28213,Mecklenburg County,NC,18.58600583090379
28215,Mecklenburg County,NC,36.84402332361516
28216,Mecklenburg County,NC,26.239067055393583
28217,Mecklenburg County,NC,42.27405247813411
28227,Mecklenburg County,NC,43.69533527696793
28262,Mecklenburg County,NC,76.34839650145773
28269,Mecklenburg County,NC,34.00145772594752
28304,Cumberland County,NC,22.740524781341108
28334,Sampson County,NC,79.44606413994168
28351,Scotland County,NC,87.24489795918367
28352,Scotland County,NC,18.112244897959183
28377,Robeson County,NC,73.94314868804665
28379,Richmond County,NC,10.677842565597667
28382,Sampson County,NC,72.99562682215743
28390,Harnett County,NC,94.89795918367348
28425,Pender County,NC,60.13119533527696
28467,Brunswick County,NC,89.50437317784257
28501,Lenoir County,NC,34.91253644314869
28560,Craven County,NC,54.518950437317784
28604,Watauga County,NC,97.48542274052478
28645,Caldwell County,NC,43.80466472303207
28712,Transylvania County,NC,71.3192419825073
28715,Buncombe County,NC,40.05102040816326
28752,McDowell County,NC,9.912536443148689
28771,Graham County,NC,65.59766763848397
58103,Cass County,ND,64.28571428571429
58104,Cass County,ND,22.631195335276967
58503,Burleigh County,ND,24.817784256559765
58703,Ward County,ND,80.35714285714286
58801,Williams County,ND,27.004373177842567
43035,Delaware County,OH,65.26967930029156
43040,Union County,OH,18.185131195335277
43050,Knox County,OH,4.081632653061225
43055,Licking County,OH,7.179300291545189
43056,Licking County,OH,77.84256559766763
43068,Franklin County,OH,27.15014577259475
43072,Champaign County,OH,84.25655976676384
43081,Franklin County,OH,65.1603498542274
43123,Franklin County,OH,4.154518950437318
43125,Franklin County,OH,64.832361516035
43130,Fairfield County,OH,51.567055393586
43160,Fayette County,OH,8.491253644314869
43207,Franklin County,OH,7.325072886297376
43211,Franklin County,OH,6.63265306122449
43223,Franklin County,OH,3.097667638483965
43224,Franklin County,OH,2.8425655976676385
43228,Franklin County,OH,12.28134110787172
43229,Franklin County,OH,19.35131195335277
43230,Franklin County,OH,37.53644314868805
43302,Marion County,OH,9.183673469387756
43420,Sandusky County,OH,28.24344023323615
43558,Fulton County,OH,46.82944606413994
43604,Lucas County,OH,79.81049562682216
43605,Lucas County,OH,1.0932944606413995
43606,Lucas County,OH,10.787172011661808
43607,Lucas County,OH,3.1341107871720117
43611,Lucas County,OH,35.27696793002916
43613,Lucas County,OH,12.682215743440233
43615,Lucas County,OH,1.6763848396501457
43616,Lucas County,OH,8.309037900874635
43620,Lucas County,OH,92.56559766763849
43832,Tuscarawas County,OH,52.07725947521866
43920,Columbiana County,OH,5.502915451895044
43938,Jefferson County,OH,42.31049562682216
43950,Belmont County,OH,85.78717201166181
44011,Lorain County,OH,22.412536443148685
44035,Lorain County,OH,0.03644314868804665
44053,Lorain County,OH,4.336734693877551
44056,Summit County,OH,82.39795918367348
44077,Lake County,OH,27.332361516034986
44092,Lake County,OH,34.511661807580175
44102,Cuyahoga County,OH,42.12827988338192
44104,Cuyahoga County,OH,14.322157434402333
44106,Cuyahoga County,OH,6.2317784256559765
44107,Cuyahoga County,OH,0.8381924198250729
44109,Cuyahoga County,OH,7.798833819241982
44110,Cuyahoga County,OH,5.721574344023324
44111,Cuyahoga County,OH,40.524781341107875
44112,Cuyahoga County,OH,23.432944606413994
44113,Cuyahoga County,OH,22.995626822157433
44118,Cuyahoga County,OH,30.685131195335273
44119,Cuyahoga County,OH,13.666180758017493
44125,Cuyahoga County,OH,0.5830903790087464
44137,Cuyahoga County,OH,2.988338192419825
44139,Cuyahoga County,OH,32.90816326530612
44146,Cuyahoga County,OH,3.5349854227405246
44203,Summit County,OH,3.206997084548105
44230,Wayne County,OH,79.1545189504373
44233,Medina County,OH,82.36151603498543
44236,Summit County,OH,74.56268221574344
44260,Portage County,OH,84.11078717201165
44262,Summit County,OH,91.94606413994168
44270,Wayne County,OH,54.33673469387755
44278,Summit County,OH,51.42128279883382
44303,Summit County,OH,64.57725947521867
44306,Summit County,OH,5.940233236151603
44314,Summit County,OH,18.69533527696793
44485,Trumbull County,OH,10.932944606413994
44514,Mahoning County,OH,69.86151603498543
44615,Carroll County,OH,68.40379008746356
44622,Tuscarawas County,OH,58.96501457725948
44646,Stark County,OH,5.64868804664723
44663,Tuscarawas County,OH,8.16326530612245
44703,Stark County,OH,41.29008746355685
44820,Crawford County,OH,15.379008746355685
44824,Erie County,OH,89.832361516035
44830,Seneca County,OH,39.978134110787174
44837,Huron County,OH,80.68513119533527
44883,Seneca County,OH,40.196793002915456
44907,Richland County,OH,31.559766763848394
45011,Butler County,OH,1.0932944606413995
45040,Warren County,OH,23.28717201166181
45042,Butler County,OH,13.192419825072887
45069,Butler County,OH,15.779883381924197
45103,Clermont County,OH,19.02332361516035
45135,Highland County,OH,94.93440233236151
45177,Clinton County,OH,16.72740524781341
45203,Hamilton County,OH,88.01020408163265
45207,Hamilton County,OH,76.0204081632653
45211,Hamilton County,OH,5.430029154518951
45212,Hamilton County,OH,21.31924198250729
45214,Hamilton County,OH,70.1530612244898
45224,Hamilton County,OH,45.11661807580175
45229,Hamilton County,OH,55.68513119533528
45237,Hamilton County,OH,20.590379008746357
45239,Hamilton County,OH,38.48396501457726
45240,Hamilton County,OH,17.966472303207
45247,Hamilton County,OH,51.6399416909621
45327,Montgomery County,OH,70.44460641399417
45365,Shelby County,OH,52.76967930029155
45373,Miami County,OH,3.717201166180758
45417,Montgomery County,OH,4.956268221574344
45440,Montgomery County,OH,53.024781341107875
45458,Montgomery County,OH,29.81049562682216
45503,Clark County,OH,4.190962099125365
45601,Ross County,OH,0.21865889212827988
45619,Lawrence County,OH,69.13265306122449
45631,Gallia County,OH,28.57142857142857
45638,Lawrence County,OH,2.1501457725947524
45661,Pike County,OH,38.30174927113703
45714,Washington County,OH,11.698250728862973
45750,Washington County,OH,7.543731778425657
45780,Athens County,OH,90.1603498542274
45804,Allen County,OH,7.252186588921283
45805,Allen County,OH,33.92857142857143
45840,Hancock County,OH,1.3119533527696794
73010,McClain County,OK,91.69096209912536
73030,Murray County,OK,92.82069970845481
73034,Oklahoma County,OK,20.043731778425656
73045,Oklahoma County,OK,95.26239067055393
73047,,OK,97.92274052478133
73068,Cleveland County,OK,62.68221574344023
73069,Cleveland County,OK,58.381924198250736
73071,Cleveland County,OK,16.217201166180757
73072,Cleveland County,OK,53.64431486880466
73084,Oklahoma County,OK,72.74052478134111
73107,Oklahoma County,OK,84.87609329446065
73111,Oklahoma County,OK,57.434402332361515
73114,Oklahoma County,OK,45.77259475218659
73119,Oklahoma County,OK,47.011661807580175
73129,Oklahoma County,OK,71.93877551020408
73142,Oklahoma County,OK,75.87463556851311
73173,Cleveland County,OK,99.05247813411079
73505,Comanche County,OK,15.852769679300291
73529,Stephens County,OK,97.63119533527697
73573,Jefferson County,OK,99.41690962099126
74008,Tulsa County,OK,59.54810495626822
74015,Rogers County,OK,95.33527696793003
74020,Pawnee County,OK,81.41399416909621
74021,Tulsa County,OK,63.52040816326531
74066,Creek County,OK,23.17784256559767
74106,Tulsa County,OK,28.352769679300295
74115,Tulsa County,OK,30.903790087463555
74127,Tulsa County,OK,80.9402332361516
74129,Tulsa County,OK,46.319241982507286
74135,Tulsa County,OK,72.4125364431487
74136,Tulsa County,OK,47.011661807580175
74146,Tulsa County,OK,58.309037900874635
74403,Muskogee County,OK,24.854227405247816
74437,Okmulgee County,OK,77.6603498542274
74464,Cherokee County,OK,59.40233236151603
74525,Atoka County,OK,96.39212827988338
74601,Kay County,OK,81.04956268221575
74701,Bryan County,OK,53.498542274052475
74820,Pontotoc County,OK,58.05393586005832
74857,Cleveland County,OK,71.53790087463557
74859,Okfuskee County,OK,85.82361516034986
74955,Sequoyah County,OK,50.437317784256564
97005,Washington County,OR,39.1399416909621
97006,Washington County,OR,21.829446064139944
97007,Washington County,OR,59.110787172011655
97008,Washington County,OR,49.01603498542274
97023,Clackamas County,OR,97.23032069970844
97024,Multnomah County,OR,81.85131195335276
97030,Multnomah County,OR,11.224489795918368
97031,Hood River County,OR,84.62099125364432
97038,Clackamas County,OR,60.42274052478134
97041,Hood River County,OR,98.3600583090379
97058,Wasco County,OR,31.559766763848394
97060,Multnomah County,OR,33.16326530612245
97062,Washington County,OR,50.255102040816325
97080,Multnomah County,OR,49.89067055393586
97113,Washington County,OR,92.20116618075802
97132,Yamhill County,OR,63.411078717201164
97206,Multnomah County,OR,8.60058309037901
97211,Multnomah County,OR,67.4198250728863
97212,Multnomah County,OR,57.36151603498543
97218,Multnomah County,OR,65.7069970845481
97219,Multnomah County,OR,79.08163265306123
97223,Washington County,OR,20.080174927113703
97224,Washington County,OR,90.0874635568513
97225,Washington County,OR,86.29737609329446
97232,Multnomah County,OR,77.18658892128279
97233,Multnomah County,OR,10.240524781341108
97239,Multnomah County,OR,93.84110787172013
97301,Marion County,OR,32.434402332361515
97306,Marion County,OR,76.96793002915452
97321,Linn County,OR,19.424198250728864
97404,Lane County,OR,51.31195335276968
97405,Lane County,OR,65.67055393586006
97415,Curry County,OR,37.93731778425656
97424,Lane County,OR,35.386297376093296
97459,Coos County,OR,91.80029154518951
97467,Douglas County,OR,82.54373177842565
97477,Lane County,OR,66.47230320699708
97478,Lane County,OR,29.373177842565596
97487,Lane County,OR,93.33090379008746
97503,Jackson County,OR,93.58600583090379
97703,Deschutes County,OR,76.60349854227405
97707,Deschutes County,OR,97.70408163265306
97756,Deschutes County,OR,84.47521865889213
97761,Jefferson County,OR,99.16180758017494
97818,Morrow County,OR,94.35131195335276
97850,Union County,OR,78.75364431486881
15010,Beaver County,PA,14.613702623906704
15012,Westmoreland County,PA,79.70116618075802
15024,Allegheny County,PA,81.66909620991254
15061,Beaver County,PA,54.3002915451895
15071,Allegheny County,PA,77.04081632653062
15101,Allegheny County,PA,61.11516034985422
15102,Allegheny County,PA,56.4868804664723
15110,Allegheny County,PA,75.69241982507289
15132,Allegheny County,PA,31.049562682215743
15145,Allegheny County,PA,81.37755102040816
15207,Allegheny County,PA,50.51020408163265
15210,Allegheny County,PA,36.29737609329446
15212,Allegheny County,PA,17.091836734693878
15213,Allegheny County,PA,85.13119533527697
15214,Allegheny County,PA,44.642857142857146
15216,Allegheny County,PA,47.08454810495627
15220,Allegheny County,PA,63.22886297376093
15222,Allegheny County,PA,96.7201166180758
15236,Allegheny County,PA,38.11953352769679
15239,Allegheny County,PA,77.98833819241983
15243,Allegheny County,PA,84.1472303206997
15301,Washington County,PA,3.3527696793002915
15317,Washington County,PA,54.99271137026239
15370,Greene County,PA,41.43586005830904
15552,Somerset County,PA,93.4402332361516
15601,Westmoreland County,PA,1.7857142857142856
15642,Westmoreland County,PA,64.68658892128279
15714,Cambria County,PA,73.03206997084548
15853,Elk County,PA,54.118075801749264
15905,Cambria County,PA,38.88483965014578
16025,Butler County,PA,94.27842565597668
16145,Mercer County,PA,99.78134110787173
16157,Lawrence County,PA,97.30320699708454
16214,Clarion County,PA,66.90962099125365
16503,Erie County,PA,60.67784256559767
16506,Erie County,PA,60.71428571428571
16601,Blair County,PA,85.71428571428571
16648,Blair County,PA,87.64577259475219
16701,McKean County,PA,11.224489795918368
16803,Centre County,PA,53.24344023323615
16823,Centre County,PA,14.686588921282798
16866,Centre County,PA,55.86734693877551
16901,Tioga County,PA,60.8600583090379
16947,Bradford County,PA,88.77551020408163
17011,Cumberland County,PA,18.47667638483965
17015,Cumberland County,PA,34.475218658892125
17044,Mifflin County,PA,8.017492711370263
17046,Lebanon County,PA,46.75655976676385
17103,Dauphin County,PA,30.284256559766764
17104,Dauphin County,PA,40.488338192419825
17109,Dauphin County,PA,17.82069970845481
17111,Dauphin County,PA,10.09475218658892
17202,Franklin County,PA,19.6064139941691
17225,Franklin County,PA,77.55102040816327
17315,York County,PA,19.56997084548105
17331,York County,PA,3.9723032069970845
17402,York County,PA,61.4067055393586
17408,York County,PA,32.72594752186589
17512,Lancaster County,PA,66.07142857142857
17522,Lancaster County,PA,17.82069970845481
17552,Lancaster County,PA,85.34985422740526
17569,Lancaster County,PA,94.42419825072886
17847,Northumberland County,PA,57.03352769679301
17954,Schuylkill County,PA,78.134110787172
17972,Schuylkill County,PA,55.13848396501457
18013,Northampton County,PA,28.425655976676385
18015,Northampton County,PA,44.16909620991253
18017,Northampton County,PA,3.279883381924198
18020,Northampton County,PA,87.20845481049562
18042,Northampton County,PA,35.56851311953353
18052,Lehigh County,PA,42.565597667638485
18058,Monroe County,PA,97.01166180758017
18071,Carbon County,PA,41.76384839650146
18073,Montgomery County,PA,71.1734693877551
18088,Northampton County,PA,60.05830903790087
18102,Lehigh County,PA,4.737609329446064
18201,Luzerne County,PA,12.82798833819242
18235,Carbon County,PA,22.95918367346939
18237,Schuylkill County,PA,97.37609329446065
18360,Monroe County,PA,88.62973760932945
18407,Lackawanna County,PA,38.0466472303207
18431,Wayne County,PA,93.11224489795919
18434,Lackawanna County,PA,90.34256559766763
18472,Wayne County,PA,99.4533527696793
18508,Lackawanna County,PA,87.86443148688046
18634,Luzerne County,PA,34.36588921282799
18640,Luzerne County,PA,34.07434402332362
18702,Luzerne County,PA,22.230320699708457
18705,Luzerne County,PA,95.1530612244898
18969,Montgomery County,PA,57.981049562682216
18974,Bucks County,PA,15.051020408163266
19001,Montgomery County,PA,91.29008746355684
19013,Delaware County,PA,1.639941690962099
19018,Delaware County,PA,19.278425655976676
19023,Delaware County,PA,21.100583090379008
19026,Delaware County,PA,40.160349854227405
19036,Delaware County,PA,74.4533527696793
19064,Delaware County,PA,63.447521865889215
19073,Delaware County,PA,73.79737609329446
19087,Chester County,PA,71.75655976676384
19090,Montgomery County,PA,38.52040816326531
19104,Philadelphia County,PA,50.109329446064145
19111,Philadelphia County,PA,12.973760932944606
19115,Philadelphia County,PA,41.65451895043732
19120,Philadelphia County,PA,11.443148688046648
19121,Philadelphia County,PA,5.284256559766764
19124,Philadelphia County,PA,5.174927113702624
19128,Philadelphia County,PA,12.354227405247814
19129,Philadelphia County,PA,56.37755102040817
19130,Philadelphia County,PA,29.628279883381925
19133,Philadelphia County,PA,81.92419825072886
19134,Philadelphia County,PA,39.94169096209912
19136,Philadelphia County,PA,30.3935860058309
19138,Philadelphia County,PA,54.08163265306123
19140,Philadelphia County,PA,1.0204081632653061
19141,Philadelphia County,PA,57.21574344023323
19142,Philadelphia County,PA,7.871720116618077
19143,Philadelphia County,PA,33.85568513119534
19144,Philadelphia County,PA,2.2230320699708455
19145,Philadelphia County,PA,56.30466472303207
19146,Philadelphia County,PA,10.3134110787172
19148,Philadelphia County,PA,4.628279883381924
19149,Philadelphia County,PA,21.537900874635568
19150,Philadelphia County,PA,58.05393586005832
19341,Chester County,PA,87.06268221574344
19348,Chester County,PA,48.06851311953353
19401,Montgomery County,PA,44.56997084548105
19422,Montgomery County,PA,72.92274052478133
19460,Chester County,PA,16.581632653061224
19522,Berks County,PA,57.03352769679301
19565,Berks County,PA,94.49708454810497
19601,Berks County,PA,1.4941690962099126
19604,Berks County,PA,7.288629737609329
19605,Berks County,PA,56.74198250728863
19607,Berks County,PA,53.462099125364425
02809,Bristol County,RI,49.416909620991255
02814,Providence County,RI,77.76967930029156
02817,Kent County,RI,94.31486880466473
02840,Newport County,RI,66.36297376093295
02871,Newport County,RI,96.5743440233236
02879,Washington County,RI,91.21720116618076
02891,Washington County,RI,48.46938775510204
02895,Providence County,RI,7.507288629737609
02920,Providence County,RI,20.88192419825073
29003,Bamberg County,SC,97.44897959183673
29006,Lexington County,SC,75.58309037900874
29010,Lee County,SC,66.83673469387756
29059,Orangeburg County,SC,79.48250728862973
29061,Richland County,SC,72.15743440233237
29072,Lexington County,SC,18.91399416909621
29115,Orangeburg County,SC,61.80758017492711
29123,Lexington County,SC,84.40233236151603
29150,Sumter County,SC,27.29591836734694
29161,Florence County,SC,64.32215743440233
29210,Richland County,SC,86.80758017492711
29223,Richland County,SC,16.472303206997086
29229,Richland County,SC,84.8396501457726
29323,Spartanburg County,SC,45.51749271137026
29388,Spartanburg County,SC,54.26384839650146
29403,Charleston County,SC,34.94897959183674
29405,Charleston County,SC,19.497084548104958
29410,Berkeley County,SC,87.82798833819243
29412,Charleston County,SC,59.147230320699705
29420,Dorchester County,SC,38.73906705539358
29445,Berkeley County,SC,67.12827988338192
29486,Berkeley County,SC,50
29526,Horry County,SC,28.8265306122449
29541,Florence County,SC,72.15743440233237
29556,Williamsburg County,SC,55.940233236151606
29565,Dillon County,SC,87.79154518950438
29568,Horry County,SC,74.01603498542273
29569,Horry County,SC,37.572886297376094
29588,Horry County,SC,28.024781341107875
29621,Anderson County,SC,61.953352769679306
29646,Greenwood County,SC,67.38338192419825
29651,Greenville County,SC,14.431486880466474
29666,Greenwood County,SC,86.4795918367347
29691,Oconee County,SC,81.08600583090379
29706,Chester County,SC,25.255102040816325
29730,York County,SC,41.98250728862974
29732,York County,SC,23.3600583090379
29745,York County,SC,42.60204081632653
29841,Aiken County,SC,85.05830903790087
29910,Beaufort County,SC,62.718658892128275
57042,Lake County,SD,92.16472303206997
57078,Yankton County,SD,91.72740524781341
57104,Minnehaha County,SD,21.027696793002914
57106,Minnehaha County,SD,47.19387755102041
57350,Beadle County,SD,46.82944606413994
57717,Butte County,SD,86.84402332361516
37013,Davidson County,TN,61.698250728862966
37025,Hickman County,TN,79.9927113702624
37042,Montgomery County,TN,16.72740524781341
37074,Trousdale County,TN,83.74635568513119
37075,Sumner County,TN,10.386297376093294
37076,Davidson County,TN,26.457725947521865
37087,Wilson County,TN,11.078717201166182
37090,Wilson County,TN,56.81486880466472
37110,Warren County,TN,10.459183673469388
37130,Rutherford County,TN,13.92128279883382
37138,Davidson County,TN,41.65451895043732
37160,Bedford County,TN,12.609329446064141
37167,Rutherford County,TN,19.132653061224488
37172,Robertson County,TN,9.80320699708455
37204,Davidson County,TN,89.832361516035
37208,Davidson County,TN,18.294460641399418
37209,Davidson County,TN,23.3600583090379
37211,Davidson County,TN,13.0466472303207
37321,Rhea County,TN,20.699708454810494
37334,Lincoln County,TN,27.91545189504373
37343,Hamilton County,TN,15.889212827988338
37355,Coffee County,TN,60.02186588921283
37381,Rhea County,TN,78.2069970845481
37411,Hamilton County,TN,30.029154518950435
37601,Washington County,TN,10.568513119533527
37617,Sullivan County,TN,95.73615160349854
37683,Johnson County,TN,46.319241982507286
37687,Carter County,TN,91.58163265306123
37743,Greene County,TN,7.725947521865889
37748,Roane County,TN,25.510204081632654
37760,Jefferson County,TN,52.22303206997084
37766,Campbell County,TN,76.42128279883383
37803,Blount County,TN,24.271137026239067
37804,Blount County,TN,20.33527696793003
37818,Greene County,TN,74.4533527696793
37820,Jefferson County,TN,78.53498542274052
37886,Blount County,TN,82.06997084548105
37918,Knox County,TN,8.928571428571429
37938,Knox County,TN,64.067055393586
38012,Haywood County,TN,70.66326530612244
38018,Shelby County,TN,60.42274052478134
38019,Tipton County,TN,47.59475218658892
38024,Dyer County,TN,16.909620991253643
38060,Fayette County,TN,87.5
38115,Shelby County,TN,16.071428571428573
38116,Shelby County,TN,60.75072886297376
38118,Shelby County,TN,41.180758017492714
38125,Shelby County,TN,45.00728862973761
38127,Shelby County,TN,25.728862973760936
38128,Shelby County,TN,43.47667638483965
38134,Shelby County,TN,88.70262390670554
38301,Madison County,TN,5.97667638483965
38320,Benton County,TN,66.98250728862973
38343,Gibson County,TN,68.84110787172013
38469,Lawrence County,TN,93.40379008746356
38478,Giles County,TN,47.704081632653065
38506,Putnam County,TN,32.54373177842565
38555,Cumberland County,TN,30.466472303207
38562,Jackson County,TN,81.23177842565597
75006,Dallas County,TX,37.244897959183675
75007,Denton County,TX,38.52040816326531
75034,Denton County,TX,29.336734693877553
75040,Dallas County,TX,11.479591836734695
75041,Dallas County,TX,67.4927113702624
75042,Dallas County,TX,56.12244897959183
75043,Dallas County,TX,42.966472303207
75044,Dallas County,TX,45.51749271137026
75050,Dallas County,TX,33.56413994169096
75051,Dallas County,TX,33.1997084548105
75052,Dallas County,TX,11.29737609329446
75057,Denton County,TX,91.6545189504373
75060,Dallas County,TX,32.36151603498542
75067,Denton County,TX,58.27259475218659
75071,Collin County,TX,19.825072886297377
75098,Collin County,TX,15.379008746355685
75115,Dallas County,TX,15.634110787172013
75126,Kaufman County,TX,22.92274052478134
75154,Ellis County,TX,35.13119533527696
75159,Dallas County,TX,61.84402332361516
75180,Dallas County,TX,83.16326530612244
75204,Dallas County,TX,53.2069970845481
75210,Dallas County,TX,60.932944606414
75211,Dallas County,TX,41.76384839650146
75212,Dallas County,TX,36.588921282798836
75216,Dallas County,TX,3.571428571428571
75217,Dallas County,TX,25.61953352769679
75220,Dallas County,TX,70.11661807580175
75224,Dallas County,TX,37.755102040816325
75227,Dallas County,TX,41.90962099125365
75228,Dallas County,TX,3.462099125364432
75236,Dallas County,TX,80.79446064139941
75243,Dallas County,TX,35.13119533527696
75248,Dallas County,TX,50
75287,Denton County,TX,31.814868804664727
75401,Hunt County,TX,47.41253644314869
75409,Collin County,TX,69.16909620991254
75418,Fannin County,TX,57.6530612244898
75462,Lamar County,TX,83.63702623906705
75501,Bowie County,TX,23.104956268221574
75551,Cass County,TX,75.76530612244898
75603,Gregg County,TX,95.04373177842565
75645,Upshur County,TX,73.54227405247813
75650,Harrison County,TX,69.86151603498543
75686,Camp County,TX,76.567055393586
75708,Smith County,TX,88.15597667638484
75766,Cherokee County,TX,88.11953352769679
75901,Angelina County,TX,61.47959183673469
75946,Nacogdoches County,TX,98.83381924198251
75964,Nacogdoches County,TX,55.83090379008746
76010,Tarrant County,TX,59.91253644314869
76011,Tarrant County,TX,45.6997084548105
76017,Tarrant County,TX,22.886297376093296
76028,Johnson County,TX,7.033527696793003
76033,Johnson County,TX,28.061224489795915
76039,Tarrant County,TX,28.462099125364432
76051,Tarrant County,TX,72.8862973760933
76053,Tarrant County,TX,31.997084548104954
76063,Tarrant County,TX,9.110787172011662
76065,Ellis County,TX,64.46793002915452
76086,Parker County,TX,51.23906705539358
76106,Tarrant County,TX,38.73906705539358
76107,Tarrant County,TX,32.72594752186589
76112,Tarrant County,TX,8.709912536443149
76119,Tarrant County,TX,4.300291545189505
76131,Tarrant County,TX,41.362973760932945
76133,Tarrant County,TX,41.83673469387755
76148,Tarrant County,TX,32.142857142857146
76179,Tarrant County,TX,20.918367346938776
76180,Tarrant County,TX,32.68950437317784
76205,Denton County,TX,79.81049562682216
76210,Denton County,TX,48.06851311953353
76273,Grayson County,TX,84.43877551020408
76401,Erath County,TX,54.44606413994168
76426,Wise County,TX,83.89212827988338
76442,Comanche County,TX,83.78279883381924
76502,Bell County,TX,37.28134110787172
76504,Bell County,TX,6.122448979591836
76542,Bell County,TX,75.69241982507289
76548,Bell County,TX,35.89650145772595
76549,Bell County,TX,16.107871720116616
76550,Lampasas County,TX,81.70553935860059
76705,McLennan County,TX,11.151603498542274
76710,McLennan County,TX,45.22594752186589
76711,McLennan County,TX,81.77842565597668
76712,McLennan County,TX,32.981049562682216
76901,Tom Green County,TX,40.37900874635568
76903,Tom Green County,TX,32.83527696793003
77009,Harris County,TX,37.13556851311953
77011,Harris County,TX,76.45772594752187
77018,Harris County,TX,34.94897959183674
77022,Harris County,TX,99.30758017492711
77028,Harris County,TX,71.3192419825073
77034,Harris County,TX,49.38046647230321
77036,Harris County,TX,43.84110787172011
77038,Harris County,TX,72.63119533527697
77043,Harris County,TX,74.74489795918367
77049,Harris County,TX,58.381924198250736
77055,Harris County,TX,50.32798833819242
77063,Harris County,TX,59.43877551020408
77064,Harris County,TX,27.478134110787174
77068,Harris County,TX,90.19679300291546
77070,Harris County,TX,68.65889212827987
77072,Harris County,TX,44.89795918367347
77075,Harris County,TX,40.88921282798834
77077,Harris County,TX,35.750728862973766
77080,Harris County,TX,85.09475218658892
77083,Harris County,TX,32.32507288629737
77084,Harris County,TX,7.580174927113703
77086,Harris County,TX,59.62099125364432
77089,Harris County,TX,35.13119533527696
77096,Harris County,TX,51.275510204081634
77301,Montgomery County,TX,46.7201166180758
77327,Liberty County,TX,57.90816326530612
77365,Montgomery County,TX,40.74344023323615
77373,Harris County,TX,20.66326530612245
77375,Harris County,TX,15.19679300291545
77388,Harris County,TX,36.078717201166185
77396,Harris County,TX,28.534985422740526
77407,Fort Bend County,TX,73.61516034985422
77414,Matagorda County,TX,36.18804664723032
77433,Harris County,TX,7.689504373177843
77441,Fort Bend County,TX,98.5058309037901
77469,Fort Bend County,TX,20.55393586005831
77474,Austin County,TX,90.0874635568513
77484,Waller County,TX,88.66618075801749
77493,Harris County,TX,54.118075801749264
77502,Harris County,TX,44.278425655976676
77506,Harris County,TX,79.3731778425656
77515,Brazoria County,TX,39.832361516034986
77530,Harris County,TX,86.98979591836735
77531,Brazoria County,TX,62.09912536443149
77546,Galveston County,TX,50.87463556851311
77550,Galveston County,TX,12.864431486880468
77566,Brazoria County,TX,42.67492711370263
77575,Liberty County,TX,59.037900874635575
77583,Brazoria County,TX,42.45626822157435
77584,Brazoria County,TX,6.41399416909621
77591,Galveston County,TX,76.53061224489795
77598,Harris County,TX,78.17055393586006
77627,Jefferson County,TX,64.21282798833819
77630,Orange County,TX,31.997084548104954
77642,Jefferson County,TX,54.81049562682215
77662,Orange County,TX,81.41399416909621
77803,Brazos County,TX,51.78571428571429
77904,Victoria County,TX,31.122448979591837
78009,Medina County,TX,98.432944606414
78015,Bexar County,TX,88.19241982507289
78028,Kerr County,TX,29.045189504373177
78041,Webb County,TX,28.607871720116616
78046,Webb County,TX,9.7667638483965
78070,Comal County,TX,89.39504373177843
78108,Guadalupe County,TX,65.96209912536443
78119,Karnes County,TX,92.27405247813411
78148,Bexar County,TX,80.50291545189503
78207,Bexar County,TX,63.447521865889215
78211,Bexar County,TX,44.096209912536445
78213,Bexar County,TX,37.572886297376094
78214,Bexar County,TX,57.25218658892128
78221,Bexar County,TX,36.62536443148688
78227,Bexar County,TX,28.061224489795915
78228,Bexar County,TX,20.517492711370263
78229,Bexar County,TX,73.432944606414
78230,Bexar County,TX,78.8265306122449
78239,Bexar County,TX,54.88338192419825
78242,Bexar County,TX,39.285714285714285
78244,Bexar County,TX,52.91545189504373
78247,Bexar County,TX,44.16909620991253
78251,Bexar County,TX,46.2463556851312
78264,Bexar County,TX,81.41399416909621
78332,Jim Wells County,TX,55.065597667638485
78363,Kleberg County,TX,49.70845481049563
78372,Jim Wells County,TX,92.09183673469387
78380,Nueces County,TX,79.59183673469387
78415,Nueces County,TX,37.572886297376094
78501,Hidalgo County,TX,38.15597667638484
78516,Hidalgo County,TX,53.97230320699708
78521,Cameron County,TX,24.161807580174926
78526,Cameron County,TX,84.54810495626822
78537,Hidalgo County,TX,93.69533527696792
78539,Hidalgo County,TX,50.947521865889215
78543,Hidalgo County,TX,92.45626822157435
78550,Cameron County,TX,33.34548104956268
78552,Cameron County,TX,61.698250728862966
78570,Hidalgo County,TX,62.572886297376094
78572,Hidalgo County,TX,12.354227405247814
78577,Hidalgo County,TX,19.788629737609327
78582,Starr County,TX,60.27696793002916
78596,Hidalgo County,TX,86.58892128279884
78599,Hidalgo County,TX,78.57142857142857
78628,Williamson County,TX,66.10787172011662
78634,Williamson County,TX,78.97230320699708
78639,Llano County,TX,73.65160349854227
78640,Hays County,TX,86.73469387755102
78641,Williamson County,TX,45.66326530612245
78653,Travis County,TX,68.87755102040816
78664,Williamson County,TX,36.370262390670554
78666,Hays County,TX,19.314868804664723
78723,Travis County,TX,88.41107871720116
78737,Hays County,TX,96.06413994169097
78738,Travis County,TX,75.03644314868805
78852,Maverick County,TX,75.80174927113703
78942,Lee County,TX,90.8527696793003
79102,Potter County,TX,84.1472303206997
79107,Potter County,TX,25.437317784256557
79109,Randall County,TX,62.64577259475219
79110,Randall County,TX,58.1268221574344
79316,Terry County,TX,81.41399416909621
79403,Lubbock County,TX,42.05539358600583
79412,Lubbock County,TX,51.53061224489795
79413,Lubbock County,TX,60.167638483965014
79416,Lubbock County,TX,44.82507288629737
79424,Lubbock County,TX,68.25801749271136
79512,Mitchell County,TX,79.11807580174927
79549,Scurry County,TX,32.21574344023323
79603,Taylor County,TX,22.011661807580175
79705,Midland County,TX,52.58746355685131
79714,Andrews County,TX,47.339650145772595
79720,Howard County,TX,73.06851311953353
79761,Ector County,TX,72.15743440233237
79765,Ector County,TX,62.5
79772,Reeves County,TX,71.50145772594753
79903,El Paso County,TX,81.0131195335277
79904,El Paso County,TX,57.94460641399417
79905,El Paso County,TX,68.54956268221575
79915,El Paso County,TX,44.35131195335277
79924,El Paso County,TX,66.69096209912536
79927,El Paso County,TX,47.521865889212826
79928,El Paso County,TX,39.86880466472304
79934,El Paso County,TX,75.21865889212827
79936,El Paso County,TX,32.39795918367347
84004,Utah County,UT,98.54227405247813
84005,Utah County,UT,96.61078717201165
84015,Davis County,UT,14.90524781341108
84044,Salt Lake County,UT,66.94606413994168
84058,Utah County,UT,76.38483965014578
84066,Duchesne County,UT,52.44169096209913
84070,Salt Lake County,UT,40.92565597667638
84074,Tooele County,UT,30.53935860058309
84078,Uintah County,UT,58.60058309037901
84081,Salt Lake County,UT,56.85131195335277
84093,Salt Lake County,UT,90.19679300291546
84103,Salt Lake County,UT,82.6530612244898
84105,Salt Lake County,UT,69.67930029154519
84115,Salt Lake County,UT,29.555393586005827
84129,,UT,55.539358600583085
84312,Box Elder County,UT,99.38046647230321
84319,Cache County,UT,89.32215743440233
84341,Cache County,UT,98.03206997084548
84403,Weber County,UT,89.32215743440233
84532,Grand County,UT,84.65743440233237
84624,Millard County,UT,97.70408163265306
84651,Utah County,UT,85.82361516034986
84663,Utah County,UT,66.54518950437318
84737,Washington County,UT,91.61807580174927
84765,Washington County,UT,94.09620991253644
84770,Washington County,UT,29.99271137026239
05401,Chittenden County,VT,40.56122448979592
05408,Chittenden County,VT,77.6603498542274
20109,Prince William County,VA,23.9067055393586
20147,Loudoun County,VA,28.93586005830904
20148,Loudoun County,VA,49.416909620991255
20169,Prince William County,VA,73.39650145772595
20170,Fairfax County,VA,81.74198250728864
20171,Fairfax County,VA,41.65451895043732
20175,Loudoun County,VA,85.64139941690962
22003,Fairfax County,VA,56.45043731778425
22015,Fairfax County,VA,43.62244897959184
22031,Fairfax County,VA,58.01749271137027
22032,Fairfax County,VA,57.54373177842565
22046,Falls Church city,VA,80.68513119533527
22079,Fairfax County,VA,33.70991253644315
22151,Fairfax County,VA,76.85860058309038
22191,Prince William County,VA,39.39504373177842
22192,Prince William County,VA,42.67492711370263
22202,Arlington County,VA,68.80466472303208
22206,Arlington County,VA,49.088921282798836
22207,Arlington County,VA,96.35568513119533
22303,Fairfax County,VA,65.96209912536443
22306,Fairfax County,VA,20.99125364431487
22401,Fredericksburg city,VA,83.27259475218659
22405,Stafford County,VA,48.94314868804665
22408,Spotsylvania County,VA,93.80466472303208
22485,King George County,VA,95.69970845481049
22630,Warren County,VA,17.602040816326532
22655,Frederick County,VA,49.85422740524781
22701,Culpeper County,VA,51.38483965014578
22802,Harrisonburg city,VA,17.018950437317784
22901,Albemarle County,VA,24.67201166180758
22903,Charlottesville city,VA,99.70845481049562
23002,Amelia County,VA,79.9198250728863
23059,Henrico County,VA,73.3600583090379
23227,Henrico County,VA,32.87172011661808
23236,Chesterfield County,VA,52.47813411078717
23237,Chesterfield County,VA,38.411078717201164
23323,Chesapeake city,VA,74.96355685131195
23452,Virginia Beach city,VA,64.94169096209913
23454,Virginia Beach city,VA,54.88338192419825
23462,Virginia Beach city,VA,12.135568513119534
23504,Norfolk city,VA,18.768221574344025
23505,Norfolk city,VA,63.19241982507289
23508,Norfolk city,VA,68.00291545189503
23602,Newport News city,VA,20.918367346938776
23607,Newport News city,VA,13.338192419825074
23834,Colonial Heights city,VA,37.90087463556851
23860,Hopewell city,VA,94.86151603498543
23974,Lunenburg County,VA,88.01020408163265
24017,Roanoke city,VA,17.419825072886297
24210,Washington County,VA,26.749271137026238
24501,Lynchburg city,VA,20.29883381924198
24517,Campbell County,VA,95.8454810495627
24540,Danville city,VA,19.533527696793
24549,Pittsylvania County,VA,99.81778425655978
24588,Campbell County,VA,73.06851311953353
24590,Albemarle County,VA,86.29737609329446
24637,Tazewell County,VA,90.81632653061224
24641,Tazewell County,VA,90.74344023323616
98001,King County,WA,33.1997084548105
98003,King County,WA,20.22594752186589
98012,Snohomish County,WA,21.93877551020408
98023,King County,WA,18.14868804664723
98030,King County,WA,17.8935860058309
98031,King County,WA,32.61661807580175
98037,Snohomish County,WA,54.7740524781341
98038,King County,WA,25.145772594752184
98058,King County,WA,57.762390670553934
98087,Snohomish County,WA,82.32507288629738
98105,King County,WA,75.03644314868805
98109,King County,WA,50.911078717201164
98115,King County,WA,27.879008746355684
98118,King County,WA,32.54373177842565
98126,King County,WA,51.93148688046647
98146,King County,WA,52.40524781341108
98168,King County,WA,24.198250728862973
98177,King County,WA,64.43148688046647
98221,Skagit County,WA,55.02915451895044
98223,Snohomish County,WA,17.346938775510203
97003,NA,NA,44.82507288629737
98258,Snohomish County,WA,65.9256559766764
98264,Whatcom County,WA,86.84402332361516
98270,Snohomish County,WA,12.427113702623908
98271,Snohomish County,WA,35.45918367346938
98275,Snohomish County,WA,64.90524781341108
98292,Snohomish County,WA,53.352769679300295
98294,Snohomish County,WA,87.24489795918367
98310,Kitsap County,WA,59.876093294460645
98311,Kitsap County,WA,54.190962099125365
98332,Pierce County,WA,84.00145772594753
98338,Pierce County,WA,82.87172011661808
98368,Jefferson County,WA,84.51166180758017
98372,Pierce County,WA,51.20262390670553
98373,Pierce County,WA,61.11516034985422
98387,Pierce County,WA,16.3265306122449
98390,Pierce County,WA,68.07580174927114
98391,Pierce County,WA,9.037900874635568
98404,Pierce County,WA,24.67201166180758
98408,Pierce County,WA,51.93148688046647
98445,Pierce County,WA,39.613702623906704
98467,Pierce County,WA,76.67638483965014
98503,Thurston County,WA,60.96938775510205
98516,Thurston County,WA,94.71574344023324
98569,Grays Harbor County,WA,95.95481049562682
98584,Mason County,WA,59.2201166180758
98597,Thurston County,WA,83.41836734693877
98675,Clark County,WA,99.89067055393586
98682,Clark County,WA,87.75510204081633
98683,Clark County,WA,79.22740524781341
98801,Chelan County,WA,17.16472303206997
98802,Douglas County,WA,41.58163265306122
98902,Yakima County,WA,53.75364431486881
98935,Yakima County,WA,99.23469387755102
99022,Spokane County,WA,91.54518950437318
99202,Spokane County,WA,53.862973760932945
99206,Spokane County,WA,36.98979591836735
99208,Spokane County,WA,30.575801749271136
99301,Franklin County,WA,27.368804664723033
99337,Benton County,WA,51.82215743440233
99338,Benton County,WA,54.3731778425656
20010,District of Columbia,DC,74.16180758017494
20011,District of Columbia,DC,43.768221574344025
20012,District of Columbia,DC,75.91107871720116
20017,District of Columbia,DC,74.23469387755102
20019,District of Columbia,DC,1.9314868804664722
20020,District of Columbia,DC,72.37609329446065
20032,District of Columbia,DC,2.623906705539359
24740,Mercer County,WV,22.339650145772595
25306,Kanawha County,WV,63.046647230320694
25401,Berkeley County,WV,28.134110787172013
25425,Jefferson County,WV,74.34402332361516
25430,Jefferson County,WV,61.26093294460642
25526,Putnam County,WV,62.79154518950437
25701,Cabell County,WV,10.131195335276969
25705,Cabell County,WV,11.661807580174926
25801,Raleigh County,WV,8.38192419825073
25901,Fayette County,WV,37.572886297376094
26101,Wood County,WV,59.58454810495627
26104,Wood County,WV,61.29737609329447
26142,Wood County,WV,98.9795918367347
26205,Nicholas County,WV,98.21428571428571
26505,Monongalia County,WV,5.794460641399417
53105,Racine County,WI,36.9533527696793
53121,Walworth County,WI,35.05830903790088
53132,Milwaukee County,WI,30.648688046647234
53149,Waukesha County,WI,85.27696793002916
53154,Milwaukee County,WI,15.488338192419826
53158,Kenosha County,WI,14.285714285714285
53170,Kenosha County,WI,94.71574344023324
53204,Milwaukee County,WI,3.6078717201166186
53205,Milwaukee County,WI,10.349854227405247
53207,Milwaukee County,WI,18.658892128279884
53208,Milwaukee County,WI,50.546647230320694
53209,Milwaukee County,WI,1.239067055393586
53213,Milwaukee County,WI,40.74344023323615
53214,Milwaukee County,WI,7.3615160349854225
53215,Milwaukee County,WI,46.61078717201166
53218,Milwaukee County,WI,3.8629737609329444
53219,Milwaukee County,WI,11.333819241982507
53220,Milwaukee County,WI,22.558309037900877
53222,Milwaukee County,WI,48.14139941690962
53224,Milwaukee County,WI,27.84256559766764
53225,Milwaukee County,WI,29.591836734693878
53402,Racine County,WI,3.0247813411078717
53511,Rock County,WI,0.36443148688046645
53548,Rock County,WI,17.784256559766764
53575,Dane County,WI,85.49562682215743
53590,Dane County,WI,63.046647230320694
53597,Dane County,WI,50.109329446064145
53711,Dane County,WI,24.56268221574344
53713,Dane County,WI,43.91399416909621
53813,Grant County,WI,96.97521865889213
53916,Dodge County,WI,32.288629737609334
53965,Sauk County,WI,61.588921282798836
54022,Pierce County,WI,45.40816326530612
54025,St. Croix County,WI,88.26530612244898
54151,Marinette County,WI,70.59037900874635
54171,Oconto County,WI,99.27113702623906
54241,Manitowoc County,WI,55.28425655976677
54303,Brown County,WI,36.734693877551024
54304,Brown County,WI,46.10058309037901
54403,Marathon County,WI,35.3134110787172
54457,Wood County,WI,72.52186588921283
54467,Portage County,WI,56.52332361516035
54729,Chippewa County,WI,58.56413994169096
54812,Barron County,WI,85.82361516034986
54902,Winnebago County,WI,74.27113702623906
54911,Outagamie County,WI,30.830903790087465
54914,Outagamie County,WI,47.376093294460645
54961,Waupaca County,WI,48.906705539358605
82435,Park County,WY,80.79446064139941
