ZipCode,county,state,Youth,Pediatric
35043,Shelby County,AL,80.83333333333333,NA
35045,Chilton County,AL,NA,92.09039548022598
35211,Jefferson County,AL,52,NA
35216,Jefferson County,AL,41.833333333333336,NA
35224,Jefferson County,AL,99.33333333333333,NA
36575,Mobile County,AL,76.16666666666667,NA
99504,Anchorage Municipality,AK,17.333333333333336,NA
99507,Anchorage Municipality,AK,27.500000000000004,NA
99508,Anchorage Municipality,AK,21,NA
99801,Juneau City and Borough,AK,69.16666666666667,NA
85007,Maricopa County,AZ,75.33333333333333,NA
85008,Maricopa County,AZ,54.833333333333336,NA
85017,Maricopa County,AZ,NA,28.8135593220339
85021,Maricopa County,AZ,66.16666666666666,NA
85033,Maricopa County,AZ,77.16666666666666,NA
85035,Maricopa County,AZ,76.33333333333333,NA
85122,Pinal County,AZ,6.833333333333333,NA
85123,Pinal County,AZ,39.5,NA
85128,Pinal County,AZ,64.66666666666666,NA
85225,Maricopa County,AZ,11.333333333333332,NA
85301,Maricopa County,AZ,NA,12.429378531073446
85339,Maricopa County,AZ,NA,33.33333333333333
85350,Yuma County,AZ,93,NA
85381,Maricopa County,AZ,71.66666666666667,NA
85635,Cochise County,AZ,79.16666666666666,NA
85704,Pima County,AZ,49,NA
85705,Pima County,AZ,37.5,NA
86047,Navajo County,AZ,NA,37.28813559322034
71603,Jefferson County,AR,30.833333333333336,NA
72034,Faulkner County,AR,77.5,NA
90008,Los Angeles County,CA,84.66666666666667,NA
90011,Los Angeles County,CA,68.83333333333333,NA
90017,Los Angeles County,CA,NA,87.57062146892656
90023,Los Angeles County,CA,47.5,NA
90029,Los Angeles County,CA,NA,62.71186440677966
90041,Los Angeles County,CA,83.5,NA
90044,Los Angeles County,CA,8.5,NA
90250,Los Angeles County,CA,NA,35.02824858757062
90255,Los Angeles County,CA,45.5,NA
90802,Los Angeles County,CA,80.5,NA
91105,Los Angeles County,CA,NA,100
91320,Ventura County,CA,40.666666666666664,NA
91325,Los Angeles County,CA,94.33333333333334,NA
91423,Los Angeles County,CA,92.83333333333333,NA
91910,San Diego County,CA,37.333333333333336,NA
92020,San Diego County,CA,84.5,NA
92021,San Diego County,CA,75.66666666666667,NA
92056,San Diego County,CA,46.5,NA
92103,San Diego County,CA,69.16666666666667,NA
92111,San Diego County,CA,NA,88.70056497175142
92113,San Diego County,CA,27.666666666666668,NA
92123,San Diego County,CA,NA,94.35028248587571
92128,San Diego County,CA,55.166666666666664,88.70056497175142
92139,San Diego County,CA,91.16666666666666,NA
92154,San Diego County,CA,NA,68.92655367231639
92335,San Bernardino County,CA,NA,18.07909604519774
92336,San Bernardino County,CA,19.666666666666664,NA
92395,San Bernardino County,CA,NA,53.672316384180796
92504,Riverside County,CA,53,NA
92571,Riverside County,CA,82.66666666666667,NA
92707,Orange County,CA,NA,41.24293785310734
93001,Ventura County,CA,NA,51.41242937853108
93210,Fresno County,CA,74.33333333333333,NA
93221,Tulare County,CA,66.5,NA
93446,San Luis Obispo County,CA,NA,13.559322033898304
93454,Santa Barbara County,CA,41.333333333333336,NA
93463,Santa Barbara County,CA,98.16666666666667,NA
93638,Madera County,CA,7.833333333333334,NA
93705,Fresno County,CA,22.833333333333332,NA
93722,Fresno County,CA,4.166666666666666,NA
93726,Fresno County,CA,32.33333333333333,NA
94014,San Mateo County,CA,84,NA
94061,San Mateo County,CA,87,NA
94063,San Mateo County,CA,NA,31.63841807909605
94085,Santa Clara County,CA,97.83333333333334,NA
94086,Santa Clara County,CA,85.16666666666667,NA
94103,San Francisco County,CA,84,NA
94110,San Francisco County,CA,88.83333333333333,42.93785310734463
94112,San Francisco County,CA,79.5,NA
94115,San Francisco County,CA,NA,84.7457627118644
94130,San Francisco County,CA,NA,96.045197740113
94134,San Francisco County,CA,NA,62.14689265536724
94401,San Mateo County,CA,90.83333333333333,NA
94531,Contra Costa County,CA,NA,94.91525423728814
94577,Alameda County,CA,66.16666666666666,NA
94601,Alameda County,CA,24.5,29.37853107344633
94608,Alameda County,CA,NA,91.52542372881356
94610,Alameda County,CA,85.83333333333333,NA
94804,Contra Costa County,CA,73.33333333333333,NA
95128,Santa Clara County,CA,95.5,NA
95370,Tuolumne County,CA,46,NA
95758,Sacramento County,CA,56.00000000000001,NA
80215,Jefferson County,CO,78.33333333333333,NA
80233,Adams County,CO,NA,54.23728813559322
80236,Denver County,CO,88.5,NA
80239,Denver County,CO,23.5,NA
80503,Boulder County,CO,52.33333333333333,NA
80524,Larimer County,CO,NA,63.2768361581921
80903,El Paso County,CO,72.5,NA
81625,Moffat County,CO,54.50000000000001,NA
06040,Hartford County,CT,64,32.7683615819209
06066,Tolland County,CT,74.66666666666667,63.84180790960452
06084,Tolland County,CT,NA,99.43502824858757
06105,Hartford County,CT,52.666666666666664,NA
06114,Hartford County,CT,78.66666666666666,NA
06120,Hartford County,CT,67.5,NA
06513,New Haven County,CT,NA,40.67796610169492
06516,New Haven County,CT,20.833333333333336,NA
06705,New Haven County,CT,NA,52.54237288135594
06708,New Haven County,CT,38.83333333333333,NA
06790,Litchfield County,CT,22.333333333333332,NA
19971,Sussex County,DE,84.66666666666667,NA
32164,Flagler County,FL,NA,41.80790960451977
32217,Duval County,FL,27,NA
32708,Seminole County,FL,62.5,NA
32726,Lake County,FL,72,NA
33010,Miami-Dade County,FL,46.5,NA
33016,Miami-Dade County,FL,37.166666666666664,NA
33128,Miami-Dade County,FL,NA,66.66666666666666
33136,Miami-Dade County,FL,73,NA
33145,Miami-Dade County,FL,83.5,NA
33147,Miami-Dade County,FL,21.833333333333332,48.58757062146893
33157,Miami-Dade County,FL,18.333333333333332,NA
33165,Miami-Dade County,FL,34.833333333333336,NA
33167,Miami-Dade County,FL,59.833333333333336,NA
33169,Miami-Dade County,FL,38.83333333333333,NA
33172,Miami-Dade County,FL,48.5,NA
33317,Broward County,FL,NA,61.016949152542374
33325,Broward County,FL,74.83333333333333,NA
33563,Hillsborough County,FL,40.166666666666664,NA
33712,Pinellas County,FL,NA,70.62146892655367
33771,Pinellas County,FL,63.5,NA
33853,Polk County,FL,61.16666666666667,NA
33884,Polk County,FL,66,NA
33952,Charlotte County,FL,81.83333333333334,NA
34473,Marion County,FL,33.166666666666664,NA
34761,Orange County,FL,17,NA
30047,Gwinnett County,GA,57.666666666666664,NA
30084,DeKalb County,GA,NA,78.53107344632768
30122,Douglas County,GA,30.166666666666668,NA
30168,Cobb County,GA,NA,68.36158192090396
30293,Meriwether County,GA,98.33333333333333,NA
30310,Fulton County,GA,42.5,NA
30311,Fulton County,GA,47.66666666666667,NA
30344,Fulton County,GA,60.66666666666667,NA
30349,Fulton County,GA,34,NA
30354,Fulton County,GA,70.5,NA
30710,Whitfield County,GA,89.66666666666666,NA
30904,Richmond County,GA,NA,81.35593220338984
30906,Richmond County,GA,NA,32.20338983050847
31032,Jones County,GA,NA,89.83050847457628
31204,Bibb County,GA,32.666666666666664,NA
31211,Bibb County,GA,87.83333333333333,NA
96761,Maui County,HI,91.16666666666666,NA
96817,Honolulu County,HI,25,NA
83402,Bonneville County,ID,2.666666666666667,NA
60030,Lake County,IL,38.166666666666664,NA
60091,Cook County,IL,55.50000000000001,NA
60191,DuPage County,IL,86.16666666666667,NA
60487,Cook County,IL,54.50000000000001,NA
60504,DuPage County,IL,38.83333333333333,NA
60618,Cook County,IL,8.666666666666668,NA
60630,Cook County,IL,44.5,NA
61081,Whiteside County,IL,45.5,NA
46203,Marion County,IN,34.66666666666667,NA
46563,Marshall County,IN,67.83333333333333,NA
46975,Fulton County,IN,49.833333333333336,NA
50317,Polk County,IA,29.833333333333336,NA
51503,Pottawattamie County,IA,6.166666666666667,NA
52333,Johnson County,IA,95,NA
52738,Louisa County,IA,76.66666666666667,NA
66202,Johnson County,KS,86.66666666666667,NA
40229,Jefferson County,KY,19.5,NA
40508,Fayette County,KY,59.833333333333336,NA
41015,Kenton County,KY,NA,49.152542372881356
41042,Boone County,KY,14.666666666666666,NA
41164,Carter County,KY,44.333333333333336,NA
41301,Wolfe County,KY,86.83333333333333,NA
41465,Magoffin County,KY,57.99999999999999,NA
42129,Metcalfe County,KY,76.83333333333333,NA
42141,Barren County,KY,25.333333333333336,NA
42376,Daviess County,KY,91.16666666666666,NA
42754,Grayson County,KY,44.666666666666664,NA
70003,Jefferson Parish,LA,24,NA
70058,Jefferson Parish,LA,NA,3.389830508474576
70065,Jefferson Parish,LA,14.333333333333334,NA
70068,St. John the Baptist Parish,LA,NA,4.519774011299435
70072,Jefferson Parish,LA,NA,15.254237288135593
70118,Orleans Parish,LA,92.16666666666666,NA
70119,Orleans Parish,LA,8.333333333333332,31.07344632768362
70121,Jefferson Parish,LA,64.66666666666666,NA
70122,Orleans Parish,LA,1.8333333333333333,NA
70126,Orleans Parish,LA,49.666666666666664,NA
70127,Orleans Parish,LA,50.5,NA
70128,Orleans Parish,LA,49.166666666666664,NA
70130,Orleans Parish,LA,NA,83.61581920903954
70403,Tangipahoa Parish,LA,NA,7.344632768361582
70458,St. Tammany Parish,LA,3,NA
70501,Lafayette Parish,LA,0.33333333333333337,NA
70512,St. Landry Parish,LA,NA,59.32203389830508
70517,St. Martin Parish,LA,18,NA
70769,Ascension Parish,LA,36,NA
70777,East Feliciana Parish,LA,100,NA
70808,East Baton Rouge Parish,LA,66.83333333333333,NA
70815,East Baton Rouge Parish,LA,13,NA
71078,De Soto Parish,LA,99.16666666666667,NA
71107,Caddo Parish,LA,2.166666666666667,NA
71109,Caddo Parish,LA,9,NA
71118,Caddo Parish,LA,NA,11.299435028248588
71291,Ouachita Parish,LA,36.666666666666664,NA
71292,Ouachita Parish,LA,79.16666666666666,NA
71423,Grant Parish,LA,83.83333333333334,NA
04090,York County,ME,NA,97.17514124293785
04106,Cumberland County,ME,NA,76.8361581920904
04240,Androscoggin County,ME,5.666666666666666,NA
04274,Androscoggin County,ME,95.16666666666667,NA
04841,Knox County,ME,57.99999999999999,NA
04930,Penobscot County,ME,90,NA
20634,St. Mary's County,MD,96.66666666666667,NA
20874,Montgomery County,MD,53.666666666666664,NA
21029,Howard County,MD,85.16666666666667,NA
21157,Carroll County,MD,30.166666666666668,NA
01040,Hampden County,MA,2.5,NA
01105,Hampden County,MA,11.166666666666666,NA
01107,Hampden County,MA,NA,16.94915254237288
01108,Hampden County,MA,0.6666666666666667,NA
01109,Hampden County,MA,NA,12.994350282485875
01119,Hampden County,MA,53.166666666666664,NA
01201,Berkshire County,MA,3.5000000000000004,NA
01523,Worcester County,MA,90,NA
01605,Worcester County,MA,NA,72.31638418079096
01803,Middlesex County,MA,54,NA
01821,Middlesex County,MA,31.833333333333336,NA
01835,Essex County,MA,29.166666666666668,NA
01864,Middlesex County,MA,61.83333333333333,NA
01906,Essex County,MA,NA,53.10734463276836
01960,Essex County,MA,NA,22.033898305084744
02021,Norfolk County,MA,16.666666666666664,NA
02121,Suffolk County,MA,7.5,NA
02124,Suffolk County,MA,0.16666666666666669,0.5649717514124294
02125,Suffolk County,MA,NA,24.858757062146893
02128,Suffolk County,MA,76.5,NA
02129,Suffolk County,MA,93.83333333333333,NA
02131,Suffolk County,MA,60.66666666666667,NA
02140,Middlesex County,MA,36.5,NA
02149,Middlesex County,MA,9.333333333333334,23.163841807909606
02150,Suffolk County,MA,30.666666666666664,NA
02151,Suffolk County,MA,1,NA
02155,Middlesex County,MA,91.83333333333333,38.983050847457626
02368,Norfolk County,MA,NA,46.32768361581921
48021,Macomb County,MI,19.833333333333332,NA
48030,Oakland County,MI,38.83333333333333,NA
48035,Macomb County,MI,NA,75.70621468926554
48038,Macomb County,MI,77.66666666666666,NA
48043,Macomb County,MI,36.16666666666667,NA
48060,St. Clair County,MI,NA,44.06779661016949
48089,Macomb County,MI,6.666666666666667,NA
48111,Wayne County,MI,36.666666666666664,NA
48114,Livingston County,MI,NA,98.30508474576271
48124,Wayne County,MI,48.16666666666667,NA
48185,Wayne County,MI,8.166666666666666,NA
48188,Wayne County,MI,7.166666666666667,NA
48197,Washtenaw County,MI,4,NA
48201,Wayne County,MI,59,NA
48202,Wayne County,MI,91,NA
48206,Wayne County,MI,NA,74.01129943502825
48207,Wayne County,MI,18.833333333333332,NA
48210,Wayne County,MI,13.833333333333334,NA
48213,Wayne County,MI,NA,67.79661016949152
48216,Wayne County,MI,93.33333333333333,NA
48219,Wayne County,MI,1.1666666666666667,NA
48220,Oakland County,MI,NA,97.17514124293785
48223,Wayne County,MI,17.666666666666668,NA
48225,Wayne County,MI,NA,58.19209039548022
48228,Wayne County,MI,2,NA
48234,Wayne County,MI,6.5,47.45762711864407
48235,Wayne County,MI,NA,14.124293785310735
48237,Oakland County,MI,54.166666666666664,NA
48238,Wayne County,MI,10.166666666666666,NA
48239,Wayne County,MI,9.833333333333332,NA
48375,Oakland County,MI,89.16666666666667,NA
48855,Livingston County,MI,71,NA
49082,Branch County,MI,79.66666666666666,NA
49203,Jackson County,MI,29.166666666666668,NA
49319,Kent County,MI,51.5,NA
49321,Kent County,MI,78.5,NA
49417,Ottawa County,MI,38.333333333333336,NA
49423,Ottawa County,MI,41.66666666666667,NA
49424,Ottawa County,MI,62.33333333333333,NA
49441,Muskegon County,MI,NA,55.367231638418076
49503,Kent County,MI,41,NA
49505,Kent County,MI,65.5,NA
49507,Kent County,MI,35.66666666666667,NA
49508,Kent County,MI,4.666666666666667,NA
49519,Kent County,MI,56.166666666666664,NA
49858,Menominee County,MI,83.33333333333334,NA
55112,Ramsey County,MN,81,NA
55341,Wright County,MN,96.33333333333334,NA
55404,Hennepin County,MN,85.66666666666667,NA
55406,Hennepin County,MN,26.666666666666668,NA
55407,Hennepin County,MN,28.999999999999996,21.468926553672315
55411,Hennepin County,MN,NA,19.774011299435028
55425,Hennepin County,MN,95.33333333333334,NA
55428,Hennepin County,MN,NA,46.89265536723164
55430,Hennepin County,MN,89.83333333333333,NA
55431,Hennepin County,MN,92.66666666666666,NA
55443,Hennepin County,MN,40.33333333333333,NA
55901,Olmsted County,MN,50.5,NA
55912,Mower County,MN,11.833333333333334,NA
56007,Freeborn County,MN,94.16666666666667,NA
56401,Crow Wing County,MN,29.5,NA
56633,Hubbard County,MN,97.33333333333334,NA
38915,Calhoun County,MS,99,NA
39046,Madison County,MS,26.833333333333332,NA
39150,Claiborne County,MS,80.5,NA
39204,Hinds County,MS,NA,36.72316384180791
39206,Hinds County,MS,19,NA
39211,Hinds County,MS,NA,54.80225988700565
39212,Hinds County,MS,9.166666666666666,NA
39213,Hinds County,MS,NA,28.24858757062147
39350,Neshoba County,MS,17.666666666666668,NA
39503,Harrison County,MS,NA,14.689265536723164
39507,Harrison County,MS,NA,70.05649717514125
39645,Amite County,MS,NA,84.18079096045197
63026,St. Louis County,MO,70,NA
63028,Jefferson County,MO,37.833333333333336,NA
63033,St. Louis County,MO,22,NA
63110,St. Louis city,MO,50,NA
63112,St. Louis city,MO,48.833333333333336,NA
63135,St. Louis County,MO,18.5,38.4180790960452
63136,St. Louis County,MO,3.6666666666666665,NA
63301,St. Charles County,MO,16.833333333333332,NA
63624,St. Francois County,MO,95.83333333333334,NA
64081,Jackson County,MO,NA,96.045197740113
64089,Clay County,MO,46,NA
64109,Jackson County,MO,NA,85.87570621468926
64111,Jackson County,MO,59,NA
64127,Jackson County,MO,11.5,NA
64128,Jackson County,MO,20.333333333333332,NA
64130,Jackson County,MO,71.83333333333334,26.55367231638418
64132,Jackson County,MO,31.833333333333336,NA
64133,Jackson County,MO,42.333333333333336,NA
64134,Jackson County,MO,6,NA
64155,Clay County,MO,49.5,NA
64503,Buchanan County,MO,28.333333333333332,NA
64505,Buchanan County,MO,69.66666666666667,NA
64804,Jasper County,MO,67.66666666666666,NA
65583,Pulaski County,MO,93.16666666666666,NA
65804,Greene County,MO,NA,57.6271186440678
89403,Lyon County,NV,47,NA
89410,Douglas County,NV,79,NA
89503,Washoe County,NV,80.16666666666666,NA
03063,Hillsborough County,NH,NA,86.4406779661017
03102,Hillsborough County,NH,15.333333333333332,NA
03598,Coos County,NH,99.33333333333333,NA
07026,Bergen County,NJ,36.333333333333336,NA
07111,Essex County,NJ,16,NA
08030,Camden County,NJ,64.33333333333333,NA
08069,Salem County,NJ,49.333333333333336,NA
08360,Cumberland County,NJ,7.333333333333333,NA
08755,Ocean County,NJ,NA,55.932203389830505
08840,Middlesex County,NJ,90,NA
87020,Cibola County,NM,NA,73.44632768361582
87112,Bernalillo County,NM,21.666666666666668,NA
87113,Bernalillo County,NM,89.33333333333333,NA
87123,Bernalillo County,NM,22.166666666666668,NA
87301,McKinley County,NM,NA,50.847457627118644
87528,Rio Arriba County,NM,92,NA
88240,Lea County,NM,42.833333333333336,NA
10009,New York County,NY,39.666666666666664,NA
10024,New York County,NY,84,NA
10027,New York County,NY,82.83333333333334,NA
10029,New York County,NY,32.666666666666664,0
10031,New York County,NY,67.16666666666666,NA
10032,New York County,NY,55.833333333333336,NA
10033,New York County,NY,78.16666666666666,NA
10036,New York County,NY,80.33333333333333,NA
10037,New York County,NY,94.66666666666667,NA
10310,Richmond County,NY,74,NA
10451,Bronx County,NY,62.83333333333333,3.954802259887006
10452,Bronx County,NY,68.33333333333333,1.694915254237288
10454,Bronx County,NY,9.666666666666666,NA
10455,Bronx County,NY,62.66666666666667,9.6045197740113
10456,Bronx County,NY,75.16666666666667,NA
10457,Bronx County,NY,1.3333333333333335,NA
10458,Bronx County,NY,70.83333333333334,7.909604519774012
10459,Bronx County,NY,32.33333333333333,NA
10460,Bronx County,NY,11.666666666666666,NA
10462,Bronx County,NY,58.666666666666664,NA
10463,Bronx County,NY,77.33333333333333,NA
10466,Bronx County,NY,60.66666666666667,NA
10467,Bronx County,NY,78,NA
10468,Bronx County,NY,24.333333333333336,NA
10469,Bronx County,NY,50.5,NA
10472,Bronx County,NY,65.66666666666666,10.734463276836157
10475,Bronx County,NY,82.16666666666667,NA
11003,Nassau County,NY,72,NA
11040,Nassau County,NY,NA,85.31073446327684
11201,Kings County,NY,NA,80.22598870056498
11203,Kings County,NY,63.5,NA
11206,Kings County,NY,56.666666666666664,NA
11207,Kings County,NY,38,2.2598870056497176
11208,Kings County,NY,31,2.824858757062147
11212,Kings County,NY,57.166666666666664,NA
11220,Kings County,NY,0,1.1299435028248588
11221,Kings County,NY,85.5,NA
11223,Kings County,NY,61.66666666666667,NA
11225,Kings County,NY,33.166666666666664,NA
11226,Kings County,NY,48,NA
11230,Kings County,NY,33.83333333333333,NA
11232,Kings County,NY,21.333333333333336,NA
11233,Kings County,NY,NA,6.214689265536723
11236,Kings County,NY,53.833333333333336,20.33898305084746
11237,Kings County,NY,14.499999999999998,8.47457627118644
11249,Kings County,NY,87.66666666666667,NA
11354,Queens County,NY,61.5,34.463276836158194
11355,Queens County,NY,12.5,5.649717514124294
11358,Queens County,NY,NA,71.1864406779661
11367,Queens County,NY,98,NA
11368,Queens County,NY,41.16666666666667,NA
11372,Queens County,NY,83.16666666666667,NA
11373,Queens County,NY,8,NA
11377,Queens County,NY,78.83333333333333,NA
11385,Queens County,NY,9.5,NA
11413,Queens County,NY,58.5,NA
11414,Queens County,NY,87.16666666666667,NA
11415,Queens County,NY,NA,90.3954802259887
11416,Queens County,NY,71.5,NA
11418,Queens County,NY,NA,64.97175141242938
11434,Queens County,NY,25.666666666666664,NA
11435,Queens County,NY,38.666666666666664,NA
11520,Nassau County,NY,54.333333333333336,NA
11550,Nassau County,NY,4.5,NA
11575,Nassau County,NY,86.5,NA
11691,Queens County,NY,11,NA
11763,Suffolk County,NY,NA,58.75706214689266
11766,Suffolk County,NY,98.5,NA
11801,Nassau County,NY,87.16666666666667,NA
12010,Montgomery County,NY,13.333333333333334,NA
12047,Albany County,NY,47.16666666666667,NA
12307,Schenectady County,NY,76.83333333333333,NA
12534,Columbia County,NY,41.333333333333336,NA
13205,Onondaga County,NY,NA,43.50282485875706
13439,Otsego County,NY,88.16666666666667,NA
13790,Broome County,NY,22.333333333333332,NA
13901,Broome County,NY,69,NA
14009,Wyoming County,NY,93.83333333333333,NA
14070,Erie County,NY,97.5,NA
14120,Niagara County,NY,31.5,NA
14207,Erie County,NY,31.666666666666664,NA
14211,Erie County,NY,96.5,NA
14215,Erie County,NY,NA,95.48022598870057
14428,Monroe County,NY,44.166666666666664,NA
14450,Monroe County,NY,12,NA
14551,Wayne County,NY,69.5,NA
14580,Monroe County,NY,NA,65.5367231638418
14608,Monroe County,NY,40,69.49152542372882
14623,Monroe County,NY,13.5,NA
14867,Tompkins County,NY,83,NA
14901,Chemung County,NY,50.5,NA
27012,Forsyth County,NC,71,NA
27017,Surry County,NC,73.33333333333333,NA
27106,Forsyth County,NC,16.166666666666664,66.10169491525424
27215,Alamance County,NC,18.666666666666668,NA
27284,Forsyth County,NC,NA,60.451977401129945
27522,Granville County,NC,82.16666666666667,NA
27560,Wake County,NC,64.33333333333333,NA
27701,Durham County,NC,NA,45.76271186440678
27703,Durham County,NC,NA,51.9774011299435
27705,Durham County,NC,24.5,NA
27886,Edgecombe County,NC,63,NA
28075,Cabarrus County,NC,74.5,NA
28086,Cleveland County,NC,59,NA
28206,Mecklenburg County,NC,43.666666666666664,NA
28208,Mecklenburg County,NC,9.833333333333332,NA
28209,Mecklenburg County,NC,53.5,NA
28215,Mecklenburg County,NC,12.333333333333334,NA
28278,Mecklenburg County,NC,57.333333333333336,NA
28306,Bladen County,NC,28.666666666666668,33.89830508474576
28382,Sampson County,NC,92.33333333333333,NA
28403,New Hanover County,NC,50.33333333333333,NA
28645,Caldwell County,NC,NA,25.423728813559322
58078,Cass County,ND,10.666666666666668,NA
58103,Cass County,ND,2.3333333333333335,NA
58104,Cass County,ND,NA,45.19774011299435
43004,Franklin County,OH,23,NA
43026,Franklin County,OH,42.833333333333336,NA
43065,Delaware County,OH,69.83333333333334,NA
43068,Franklin County,OH,13.833333333333334,NA
43081,Franklin County,OH,43.833333333333336,NA
43110,Franklin County,OH,10.833333333333334,NA
43130,Fairfield County,OH,2.833333333333333,NA
43147,Fairfield County,OH,27.833333333333332,NA
43201,Franklin County,OH,66.66666666666666,NA
43204,Franklin County,OH,NA,6.779661016949152
43207,Franklin County,OH,37.666666666666664,NA
43211,Franklin County,OH,25.666666666666664,NA
43213,Franklin County,OH,NA,19.2090395480226
43228,Franklin County,OH,34.166666666666664,44.632768361581924
43229,Franklin County,OH,3.3333333333333335,NA
43231,Franklin County,OH,NA,39.548022598870055
43232,Franklin County,OH,18.166666666666668,NA
43311,Logan County,OH,25,NA
43606,Lucas County,OH,15.666666666666668,NA
43620,Lucas County,OH,NA,78.53107344632768
44011,Lorain County,OH,35.833333333333336,NA
44026,Geauga County,OH,59,NA
44035,Lorain County,OH,0.5,NA
44039,Lorain County,OH,42.5,NA
44092,Lake County,OH,NA,64.40677966101694
44102,Cuyahoga County,OH,48.5,NA
44103,Cuyahoga County,OH,26.333333333333332,NA
44104,Cuyahoga County,OH,46.833333333333336,NA
44105,Cuyahoga County,OH,27.166666666666668,NA
44106,Cuyahoga County,OH,51.16666666666667,NA
44107,Cuyahoga County,OH,23.666666666666668,NA
44115,Cuyahoga County,OH,88.5,NA
44122,Cuyahoga County,OH,63.83333333333333,NA
44123,Cuyahoga County,OH,NA,37.85310734463277
44125,Cuyahoga County,OH,87.5,49.717514124293785
44128,Cuyahoga County,OH,13.666666666666666,NA
44130,Cuyahoga County,OH,58.833333333333336,NA
44135,Cuyahoga County,OH,3.833333333333333,NA
44137,Cuyahoga County,OH,81.66666666666667,NA
44143,Cuyahoga County,OH,21.166666666666668,NA
44144,Cuyahoga County,OH,21.333333333333336,79.66101694915254
44146,Cuyahoga County,OH,65.33333333333333,57.06214689265536
44203,Summit County,OH,7.000000000000001,NA
44221,Summit County,OH,81.16666666666667,NA
44256,Medina County,OH,13,NA
44266,Portage County,OH,15.833333333333332,NA
44303,Summit County,OH,86.16666666666667,NA
44305,Summit County,OH,72.83333333333334,NA
44308,Summit County,OH,99.83333333333333,NA
44310,Summit County,OH,55.666666666666664,27.11864406779661
44314,Summit County,OH,NA,18.64406779661017
44320,Summit County,OH,NA,23.728813559322035
44440,Trumbull County,OH,57.333333333333336,NA
44646,Stark County,OH,15,NA
44709,Stark County,OH,20.5,NA
44710,Stark County,OH,NA,56.49717514124294
44903,Richland County,OH,27.333333333333332,NA
45040,Warren County,OH,37,50.282485875706215
45044,Butler County,OH,14.833333333333334,NA
45211,Hamilton County,OH,15.333333333333332,NA
45215,Hamilton County,OH,NA,36.15819209039548
45231,Hamilton County,OH,53.333333333333336,NA
45232,Hamilton County,OH,NA,61.5819209039548
45239,Hamilton County,OH,72.33333333333334,NA
45240,Hamilton County,OH,NA,20.903954802259886
45338,Preble County,OH,NA,93.78531073446328
45640,Jackson County,OH,16.5,NA
45660,Adams County,OH,NA,67.2316384180791
73096,Custer County,OK,56.49999999999999,NA
74344,Delaware County,OK,79.83333333333333,NA
97016,Columbia County,OR,97.16666666666667,NA
97216,Multnomah County,OR,75.83333333333333,NA
97219,Multnomah County,OR,NA,90.3954802259887
97233,Multnomah County,OR,10.5,NA
97236,Multnomah County,OR,77.83333333333333,NA
97477,Lane County,OR,NA,83.05084745762711
97838,Umatilla County,OR,26.5,NA
15317,Washington County,PA,4.833333333333333,NA
16146,Mercer County,PA,57.666666666666664,NA
17022,Lancaster County,PA,10.333333333333334,NA
17038,Lebanon County,PA,70.66666666666667,NA
17045,Perry County,PA,92.5,NA
17104,Dauphin County,PA,45,NA
18018,Lehigh County,PA,29.833333333333336,NA
18102,Lehigh County,PA,0.8333333333333334,NA
18201,Luzerne County,PA,68.5,NA
18447,Lackawanna County,PA,97.66666666666667,NA
18512,Lackawanna County,PA,74.16666666666667,NA
18612,Luzerne County,PA,75.83333333333333,NA
18640,Luzerne County,PA,40.833333333333336,NA
18969,Montgomery County,PA,90,NA
19050,Delaware County,PA,29.5,NA
19121,Philadelphia County,PA,17.333333333333336,NA
19122,Philadelphia County,PA,66.83333333333333,NA
19124,Philadelphia County,PA,5.166666666666667,NA
19132,Philadelphia County,PA,33.166666666666664,NA
19135,Philadelphia County,PA,50,25.98870056497175
19139,Philadelphia County,PA,NA,17.51412429378531
19141,Philadelphia County,PA,16.333333333333332,NA
19143,Philadelphia County,PA,1.6666666666666667,11.864406779661017
19147,Philadelphia County,PA,31.166666666666664,NA
19601,Berks County,PA,5,NA
02893,Kent County,RI,93.66666666666667,NA
29036,Lexington County,SC,82.16666666666667,NA
29115,Orangeburg County,SC,73.66666666666667,NA
29180,Fairfield County,SC,70,NA
29201,Richland County,SC,99.33333333333333,NA
29301,Spartanburg County,SC,41.833333333333336,NA
29303,Spartanburg County,SC,64.16666666666667,NA
29405,Charleston County,SC,43.166666666666664,NA
29464,Charleston County,SC,26,NA
29571,Marion County,SC,81.33333333333333,NA
29624,Anderson County,SC,39.666666666666664,NA
29801,Aiken County,SC,NA,93.22033898305084
29803,Aiken County,SC,NA,81.92090395480226
29906,Beaufort County,SC,40.5,NA
37096,Perry County,TN,95.5,NA
37716,Anderson County,TN,20,NA
37915,Knox County,TN,93.33333333333333,NA
38107,Shelby County,TN,68.16666666666666,NA
38119,Shelby County,TN,NA,72.88135593220339
38127,Shelby County,TN,4.166666666666666,9.03954802259887
38128,Shelby County,TN,15.166666666666668,NA
75038,Dallas County,TX,60.333333333333336,NA
75040,Dallas County,TX,5.5,NA
75043,Dallas County,TX,NA,16.38418079096045
75052,Dallas County,TX,45.83333333333333,NA
75071,Collin County,TX,24.5,NA
75115,Dallas County,TX,NA,80.7909604519774
75126,Kaufman County,TX,34.333333333333336,NA
75143,Henderson County,TX,60.333333333333336,NA
75150,Dallas County,TX,55.00000000000001,35.02824858757062
75206,Dallas County,TX,56.166666666666664,NA
75217,Dallas County,TX,5.833333333333333,NA
75227,Dallas County,TX,6.333333333333334,NA
75231,Dallas County,TX,17.166666666666668,NA
75243,Dallas County,TX,1.5,NA
75701,Smith County,TX,28.499999999999996,NA
75789,Smith County,TX,84.66666666666667,NA
76012,Tarrant County,TX,28.166666666666668,NA
76053,Tarrant County,TX,48.333333333333336,NA
76104,Tarrant County,TX,34.333333333333336,NA
76106,Tarrant County,TX,88,NA
76112,Tarrant County,TX,NA,30.508474576271187
76117,Tarrant County,TX,65.83333333333333,NA
76131,Tarrant County,TX,20.5,NA
76137,Tarrant County,TX,31.166666666666664,NA
76140,Tarrant County,TX,NA,40.11299435028249
76207,Denton County,TX,NA,88.13559322033898
76522,Coryell County,TX,NA,59.887005649717516
76543,Bell County,TX,63,NA
76692,Hill County,TX,97,NA
76706,McLennan County,TX,NA,48.0225988700565
77017,Harris County,TX,65,NA
77021,Harris County,TX,96.16666666666667,NA
77036,Harris County,TX,31.833333333333336,NA
77071,Harris County,TX,NA,82.485875706214685
77082,Harris County,TX,24.166666666666668,NA
77090,Harris County,TX,51.66666666666667,NA
77095,Harris County,TX,23.666666666666668,NA
77303,Montgomery County,TX,45.166666666666664,NA
77373,Harris County,TX,73.16666666666667,NA
77382,Montgomery County,TX,63,NA
77447,Harris County,TX,94.5,NA
77502,Harris County,TX,35.16666666666667,NA
77503,Harris County,TX,65.16666666666666,NA
77506,Harris County,TX,45.166666666666664,NA
77511,Brazoria County,TX,NA,10.16949152542373
77518,Galveston County,TX,91.66666666666666,NA
77563,Galveston County,TX,73.66666666666667,NA
77566,Brazoria County,TX,67.83333333333333,NA
77581,Brazoria County,TX,33.666666666666664,NA
77590,Galveston County,TX,12.833333333333332,24.293785310734464
77840,Brazos County,TX,43.5,NA
78070,Comal County,TX,96,NA
78109,Bexar County,TX,NA,27.683615819209038
78130,Comal County,TX,25.5,NA
78207,Bexar County,TX,5.333333333333334,NA
78209,Bexar County,TX,59.833333333333336,NA
78219,Bexar County,TX,74.83333333333333,NA
78220,Bexar County,TX,52.83333333333333,NA
78224,Bexar County,TX,NA,77.40112994350282
78225,Bexar County,TX,89,NA
78240,Bexar County,TX,23,NA
78641,Williamson County,TX,98.83333333333333,NA
78727,Travis County,TX,85.83333333333333,NA
79407,Lubbock County,TX,71.33333333333334,NA
79423,Lubbock County,TX,35.16666666666667,NA
79763,Ector County,TX,NA,42.3728813559322
79772,Reeves County,TX,59,NA
79927,El Paso County,TX,52.166666666666664,NA
84081,Salt Lake County,UT,19,NA
84096,Salt Lake County,UT,35,NA
05408,Chittenden County,VT,NA,87.00564971751412
05446,Chittenden County,VT,72.66666666666667,NA
20109,Prince William County,VA,51.83333333333333,NA
22101,Fairfax County,VA,44.83333333333333,NA
22701,Culpeper County,VA,30.166666666666668,NA
22911,Albemarle County,VA,80,NA
22980,Waynesboro city,VA,33,NA
23075,Henrico County,VA,56.99999999999999,NA
23320,Chesapeake city,VA,NA,71.75141242937853
23602,Newport News city,VA,19.333333333333332,NA
23930,Nottoway County,VA,82,NA
24014,Roanoke city,VA,55.166666666666664,NA
24540,Danville city,VA,28.833333333333332,NA
98023,King County,WA,NA,77.96610169491525
98030,King County,WA,41.833333333333336,NA
98032,King County,WA,61.33333333333333,NA
98052,King County,WA,56.833333333333336,NA
98055,King County,WA,NA,74.57627118644068
98115,King County,WA,38.5,NA
98118,King County,WA,89.5,NA
98125,King County,WA,47.66666666666667,NA
98144,King County,WA,NA,98.87005649717514
98198,King County,WA,52.33333333333333,NA
98273,Skagit County,WA,23.333333333333332,NA
98418,Pierce County,WA,94.66666666666667,NA
98444,Pierce County,WA,46.33333333333333,NA
98501,Thurston County,WA,NA,92.65536723163842
98948,Yakima County,WA,NA,74.57627118644068
97003,NA,NA,62,NA
99336,Benton County,WA,12.166666666666668,22.598870056497177
99337,Benton County,WA,26.166666666666664,NA
99354,Benton County,WA,27.833333333333332,NA
20011,District of Columbia,DC,20,NA
20016,District of Columbia,DC,51.16666666666667,NA
20019,District of Columbia,DC,7.666666666666666,NA
25514,Wayne County,WV,98.5,NA
53092,Ozaukee County,WI,67.33333333333333,NA
53144,Kenosha County,WI,43.333333333333336,NA
53179,Kenosha County,WI,62,NA
53204,Milwaukee County,WI,NA,15.819209039548024
53206,Milwaukee County,WI,12.5,NA
53210,Milwaukee County,WI,NA,29.37853107344633
53214,Milwaukee County,WI,22.666666666666664,NA
53215,Milwaukee County,WI,3.166666666666667,5.084745762711865
53219,Milwaukee County,WI,47.333333333333336,NA
53221,Milwaukee County,WI,57.99999999999999,NA
53225,Milwaukee County,WI,8.833333333333334,NA
53227,Milwaukee County,WI,68.66666666666667,NA
53405,Racine County,WI,14.166666666666666,NA
53406,Racine County,WI,35.5,NA
53590,Dane County,WI,NA,76.27118644067797
53593,Dane County,WI,75.5,NA
54166,Shawano County,WI,70.33333333333334,NA
54311,Brown County,WI,96.83333333333334,NA
54603,La Crosse County,WI,90.66666666666666,NA
54650,La Crosse County,WI,81.33333333333333,NA
54952,Winnebago County,WI,43.833333333333336,NA
82601,Natrona County,WY,88.33333333333333,NA
