ZipCode,county,state,Adult
35020,Jefferson County,AL,15.41318477251625
35120,St. Clair County,AL,86.0724233983287
35211,Jefferson County,AL,16.991643454038996
35216,Jefferson County,AL,58.5886722376973
35555,Fayette County,AL,68.52367688022284
35670,Morgan County,AL,82.17270194986072
35805,Madison County,AL,78.64438254410399
35810,Madison County,AL,34.81894150417828
35904,Etowah County,AL,50.0464252553389
35907,Etowah County,AL,85.05106778087278
35971,DeKalb County,AL,96.28597957288764
36078,Elmore County,AL,57.84586815227484
36092,Elmore County,AL,50.324976787372336
36110,Montgomery County,AL,59.33147632311978
36111,Montgomery County,AL,87.09377901578459
36117,Montgomery County,AL,37.697307335190345
36303,Houston County,AL,60.6313834726091
36360,Dale County,AL,51.71773444753946
36460,Monroe County,AL,84.67966573816156
36582,Mobile County,AL,53.57474466109564
36605,Mobile County,AL,74.65181058495823
36610,Mobile County,AL,66.20241411327761
36618,Mobile County,AL,75.85886722376974
36695,Mobile County,AL,38.347260909935
36703,Dallas County,AL,86.53667595171774
99502,Anchorage Municipality,AK,55.98885793871866
99623,,AK,83.56545961002786
85008,Maricopa County,AZ,14.484679665738161
85017,Maricopa County,AZ,36.025998142989785
85020,Maricopa County,AZ,41.78272980501393
85027,Maricopa County,AZ,45.58960074280409
85029,Maricopa County,AZ,25.90529247910863
85032,Maricopa County,AZ,16.434540389972145
85037,Maricopa County,AZ,28.50510677808728
85042,Maricopa County,AZ,29.619312906220983
85128,Pinal County,AZ,43.91829155060353
85201,Maricopa County,AZ,15.041782729805014
85203,Maricopa County,AZ,73.25905292479109
85204,Maricopa County,AZ,48.74651810584958
85233,Maricopa County,AZ,44.01114206128134
85281,Maricopa County,AZ,71.86629526462396
85303,Maricopa County,AZ,93.77901578458682
85305,Maricopa County,AZ,94.80037140204271
85326,Maricopa County,AZ,32.590529247910865
85353,Maricopa County,AZ,37.04735376044568
85364,Yuma County,AZ,20.984215413184774
85378,Maricopa County,AZ,98.60724233983287
85379,Maricopa County,AZ,34.63324048282266
85396,Maricopa County,AZ,85.70102135561746
85634,Pima County,AZ,24.88393686165274
85706,Pima County,AZ,2.692664809656453
85711,Pima County,AZ,8.07799442896936
85756,Pima County,AZ,71.49489322191272
85937,Navajo County,AZ,85.1439182915506
86001,Coconino County,AZ,22.46982358402971
86033,Navajo County,AZ,66.57381615598887
86314,Yavapai County,AZ,17.920148560817083
86538,Apache County,AZ,93.31476323119777
72740,Madison County,AR,95.45032497678737
72834,Yell County,AR,87.83658310120705
90008,Los Angeles County,CA,49.9535747446611
90015,Los Angeles County,CA,84.86536675951719
90017,Los Angeles County,CA,88.3008356545961
90044,Los Angeles County,CA,6.128133704735376
90057,Los Angeles County,CA,42.52553389043639
90059,Los Angeles County,CA,98.70009285051069
90063,Los Angeles County,CA,55.71030640668524
90064,Los Angeles County,CA,30.919220055710305
90201,Los Angeles County,CA,34.72609099350046
90221,Los Angeles County,CA,40.947075208913645
90255,Los Angeles County,CA,33.61188486536676
90280,Los Angeles County,CA,35.56174558960074
90601,Los Angeles County,CA,58.96007428040855
90602,Los Angeles County,CA,67.68802228412257
90701,Los Angeles County,CA,91.4577530176416
91303,Los Angeles County,CA,84.77251624883937
91356,Los Angeles County,CA,82.26555246053854
91402,Los Angeles County,CA,30.362116991643457
91405,Los Angeles County,CA,48.56081708449396
91506,Los Angeles County,CA,93.50046425255339
91605,Los Angeles County,CA,79.85143918291551
91724,Los Angeles County,CA,77.25162488393687
91730,San Bernardino County,CA,21.81987000928505
91732,Los Angeles County,CA,45.868152274837506
91744,Los Angeles County,CA,19.498607242339833
91768,Los Angeles County,CA,47.63231197771588
91910,San Diego County,CA,28.226555246053852
92028,San Diego County,CA,67.22376973073352
92029,San Diego County,CA,95.7288765088208
92069,San Diego County,CA,72.70194986072424
92084,San Diego County,CA,62.302692664809655
92105,San Diego County,CA,70.28783658310121
92115,San Diego County,CA,35.468895078922934
92139,San Diego County,CA,75.4874651810585
92227,Imperial County,CA,45.496750232126274
92231,Imperial County,CA,36.58310120705664
92243,Imperial County,CA,28.040854224698236
92262,Riverside County,CA,58.40297121634169
92301,San Bernardino County,CA,37.97585886722377
92316,San Bernardino County,CA,81.70844939647168
92335,San Bernardino County,CA,9.656453110492109
92345,San Bernardino County,CA,10.21355617455896
92373,San Bernardino County,CA,73.16620241411329
92376,San Bernardino County,CA,8.170844939647168
92530,Riverside County,CA,38.90436397400185
92551,Riverside County,CA,70.93779015784587
92571,Riverside County,CA,44.01114206128134
92582,Riverside County,CA,75.67316620241411
92595,Riverside County,CA,44.38254410399257
92704,Orange County,CA,37.14020427112349
92805,Orange County,CA,63.416898792943364
92807,Orange County,CA,61.652739090065
92870,Orange County,CA,40.76137418755803
92881,Riverside County,CA,77.8087279480037
93110,Santa Barbara County,CA,91.17920148560817
93215,Kern County,CA,63.50974930362116
93291,Tulare County,CA,23.212627669452182
93311,Kern County,CA,65.73816155988858
93313,Kern County,CA,56.453110492107704
93535,Los Angeles County,CA,8.635097493036211
93550,Los Angeles County,CA,14.391829155060353
93618,Tulare County,CA,94.61467038068709
93637,Madera County,CA,68.61652739090064
93638,Madera County,CA,72.330547818013
93644,Madera County,CA,96.75023212627669
93727,Fresno County,CA,15.87743732590529
93927,Monterey County,CA,78.55153203342618
93933,Monterey County,CA,69.08077994428969
93960,Monterey County,CA,87.37233054781801
94541,Alameda County,CA,27.019498607242337
94544,Alameda County,CA,19.68430826369545
94588,Alameda County,CA,76.78737233054783
95123,Santa Clara County,CA,41.689879294336116
95205,San Joaquin County,CA,80.87279480037141
95215,San Joaquin County,CA,83.37975858867223
95301,Merced County,CA,51.0677808727948
95307,Stanislaus County,CA,35.840297121634165
95340,Merced County,CA,83.84401114206128
95351,Stanislaus County,CA,23.491179201485608
95403,Sonoma County,CA,54.41039925719592
95616,Yolo County,CA,92.94336118848653
95667,El Dorado County,CA,35.65459610027855
95953,Sutter County,CA,84.40111420612814
95959,Nevada County,CA,94.70752089136491
95965,Butte County,CA,54.22469823584029
96080,Tehama County,CA,91.82915506035283
80012,Arapahoe County,CO,11.606313834726091
80017,Arapahoe County,CO,42.246982358402974
80104,Douglas County,CO,60.724233983286915
80138,Douglas County,CO,56.91736304549675
80205,Denver County,CO,13.556174558960073
80207,Denver County,CO,47.168059424326835
80221,Adams County,CO,35.74744661095636
80223,Denver County,CO,66.85236768802228
80302,Boulder County,CO,95.82172701949861
80524,Larimer County,CO,34.44753946146704
80537,Larimer County,CO,24.233983286908078
80603,Weld County,CO,80.40854224698236
80631,Weld County,CO,7.520891364902507
80634,Weld County,CO,2.5998142989786444
80645,Weld County,CO,96.19312906220983
80910,El Paso County,CO,27.57660167130919
81212,Fremont County,CO,43.82544103992572
06010,Hartford County,CT,1.8570102135561743
06108,Hartford County,CT,33.98328690807799
06405,New Haven County,CT,45.58960074280409
06516,New Haven County,CT,6.313834726090993
06519,New Haven County,CT,26.83379758588672
19703,New Castle County,DE,64.15970287836583
19804,New Castle County,DE,31.940575673166204
19808,New Castle County,DE,25.348189415041784
19934,Kent County,DE,74.93036211699165
19947,Sussex County,DE,49.675023212627664
32011,Nassau County,FL,64.25255338904364
32025,Columbia County,FL,42.246982358402974
32065,Clay County,FL,46.239554317548745
32091,Bradford County,FL,46.88950789229341
32092,St. Johns County,FL,81.89415041782729
32095,St. Johns County,FL,89.97214484679665
32117,Volusia County,FL,37.88300835654596
32134,Marion County,FL,90.34354688950789
32205,Duval County,FL,29.99071494893222
32208,Duval County,FL,0.9285051067780872
32209,Duval County,FL,24.419684308263694
32210,Duval County,FL,3.5283194057567315
32216,Duval County,FL,20.705663881151345
32217,Duval County,FL,74.5589600742804
32250,Duval County,FL,64.06685236768801
32256,Duval County,FL,69.35933147632312
32259,St. Johns County,FL,49.21077065923863
32304,Leon County,FL,60.53853296193129
32305,Leon County,FL,67.31662024141133
32308,Leon County,FL,77.34447539461468
32310,Leon County,FL,70.56638811513464
32317,Leon County,FL,96.93593314763231
32401,Bay County,FL,41.875580315691735
32448,Jackson County,FL,62.48839368616528
32505,Escambia County,FL,54.50324976787372
32526,Escambia County,FL,15.32033426183844
32641,Alachua County,FL,28.412256267409468
32703,Orange County,FL,76.23026926648096
32707,Seminole County,FL,71.58774373259052
32712,Orange County,FL,67.40947075208913
32714,Seminole County,FL,70.00928505106778
32720,Volusia County,FL,62.7669452181987
32765,Seminole County,FL,61.28133704735376
32773,Seminole County,FL,95.636025998143
32801,Orange County,FL,86.62952646239555
32808,Orange County,FL,79.48003714020427
32810,Orange County,FL,43.26833797585887
32811,Orange County,FL,25.5338904363974
32819,Orange County,FL,73.90900649953575
32822,Orange County,FL,21.448467966573816
32824,Orange County,FL,47.353760445682454
32826,Orange County,FL,83.008356545961007
32828,Orange County,FL,41.504178272980504
32908,Brevard County,FL,92.38625812441968
32940,Brevard County,FL,71.12349117920148
32962,Indian River County,FL,53.66759517177344
33023,Broward County,FL,21.72701949860724
33025,Broward County,FL,66.94521819870009
33030,Miami-Dade County,FL,49.30362116991643
33033,Miami-Dade County,FL,76.50882079851439
33054,Miami-Dade County,FL,54.78180129990715
33056,Miami-Dade County,FL,75.02321262766945
33136,Miami-Dade County,FL,54.68895078922934
33162,Miami-Dade County,FL,85.23676880222841
33166,Miami-Dade County,FL,79.29433611884865
33167,Miami-Dade County,FL,67.03806870937791
33169,Miami-Dade County,FL,91.36490250696379
33187,Miami-Dade County,FL,83.47260909935005
33311,Broward County,FL,33.05478180129991
33313,Broward County,FL,23.30547818012999
33319,Broward County,FL,86.72237697307335
33325,Broward County,FL,76.6016713091922
33326,Broward County,FL,81.98700092850511
33407,Palm Beach County,FL,33.33333333333333
33441,Broward County,FL,60.07428040854224
33442,Broward County,FL,82.72980501392759
33541,Pasco County,FL,80.31569173630456
33563,Hillsborough County,FL,53.017641597028785
33566,Hillsborough County,FL,62.85979572887651
33578,Hillsborough County,FL,71.40204271123491
33607,Hillsborough County,FL,55.80315691736305
33612,Hillsborough County,FL,42.061281337047355
33619,Hillsborough County,FL,39.3686165273909
33701,Pinellas County,FL,52.36768802228412
33710,Pinellas County,FL,54.59610027855153
33712,Pinellas County,FL,72.05199628597957
33713,Pinellas County,FL,58.21727019498607
33714,Pinellas County,FL,83.65831012070566
33759,Pinellas County,FL,76.23026926648096
33776,Pinellas County,FL,96.8430826369545
33805,Polk County,FL,74.74466109563602
33810,Polk County,FL,30.08356545961003
33811,Polk County,FL,72.98050139275766
33813,Polk County,FL,64.9025069637883
33815,Polk County,FL,44.475394614670385
33841,Polk County,FL,94.42896935933148
33843,Polk County,FL,93.59331476323119
33850,Polk County,FL,88.3936861652739
33852,Highlands County,FL,63.97400185701021
33881,Polk County,FL,41.59702878365831
33901,Lee County,FL,57.66016713091921
33928,Lee County,FL,84.49396471680595
33952,Charlotte County,FL,28.040854224698236
33973,Lee County,FL,87.74373259052925
33974,Lee County,FL,82.26555246053854
34105,Collier County,FL,91.73630454967501
34114,Collier County,FL,84.12256267409471
34208,Manatee County,FL,29.71216341689879
34234,Sarasota County,FL,44.28969359331476
34667,Pasco County,FL,49.02506963788301
34668,Pasco County,FL,12.720519962859797
34677,Pinellas County,FL,79.66573816155989
34698,Pinellas County,FL,58.77437325905292
34741,Osceola County,FL,60.90993500464252
34748,Lake County,FL,22.098421541318476
34761,Orange County,FL,43.45403899721448
34771,Osceola County,FL,90.4363974001857
34950,St. Lucie County,FL,57.28876508820798
34974,Okeechobee County,FL,58.681522748375116
34982,St. Lucie County,FL,57.938718662952645
30016,Newton County,GA,13.834726090993502
30032,DeKalb County,GA,13.09192200557103
30034,DeKalb County,GA,34.076137418755806
30054,Newton County,GA,74.28040854224697
30058,DeKalb County,GA,22.56267409470752
30062,Cobb County,GA,47.44661095636026
30064,Cobb County,GA,66.01671309192201
30083,DeKalb County,GA,30.176415970287835
30088,DeKalb County,GA,43.6397400185701
30094,Rockdale County,GA,79.57288765088208
30106,Cobb County,GA,70.47353760445682
30116,Carroll County,GA,52.73909006499535
30126,Cobb County,GA,48.467966573816156
30165,Floyd County,GA,28.690807799442897
30253,Henry County,GA,29.71216341689879
30257,Lamar County,GA,99.72144846796658
30281,Henry County,GA,29.433611884865368
30312,Fulton County,GA,64.43825441039925
30318,Fulton County,GA,32.03342618384401
30331,Fulton County,GA,19.03435468895079
30349,Fulton County,GA,6.963788300835655
30350,Fulton County,GA,68.89507892293408
30549,Jackson County,GA,51.34633240482822
30904,Richmond County,GA,38.53296193129062
31015,Crisp County,GA,53.017641597028785
31210,Bibb County,GA,65.45961002785515
31211,Bibb County,GA,75.20891364902506
31404,Chatham County,GA,56.54596100278552
31415,Chatham County,GA,77.34447539461468
31503,Ware County,GA,56.26740947075209
31707,Dougherty County,GA,55.524605385329615
31763,Lee County,GA,54.874651810584965
31907,Muscogee County,GA,7.242339832869081
39819,Decatur County,GA,94.15041782729804
39842,Terrell County,GA,69.26648096564531
96720,Hawaii County,HI,37.60445682451253
96778,Hawaii County,HI,73.90900649953575
96782,Honolulu County,HI,72.88765088207984
83204,Bannock County,ID,57.381615598885794
83211,Power County,ID,85.42246982358404
83404,Bonneville County,ID,58.495821727019504
83815,Kootenai County,ID,40.20427112349118
60193,Cook County,IL,43.17548746518106
60402,Cook County,IL,12.163416898792944
60466,Cook County,IL,54.038997214484674
60490,Will County,IL,65.27390900649954
60505,Kane County,IL,68.24512534818942
60619,Cook County,IL,5.385329619312906
60639,Cook County,IL,9.006499535747446
60655,Cook County,IL,32.86908077994429
46013,Madison County,IN,38.16155988857939
46052,Boone County,IN,46.796657381615596
46218,Marion County,IN,39.74001857010214
46219,Marion County,IN,12.813370473537605
46221,Marion County,IN,33.89043639740019
46226,Marion County,IN,12.534818941504177
46307,Lake County,IN,1.7641597028783658
46311,Lake County,IN,36.49025069637883
46342,Lake County,IN,27.948003714020427
46360,LaPorte County,IN,4.735376044568245
46405,Lake County,IN,44.56824512534819
46410,Lake County,IN,6.035283194057568
46501,Marshall County,IN,97.67873723305478
46516,Elkhart County,IN,80.12999071494893
46616,St. Joseph County,IN,97.40018570102136
46723,Whitley County,IN,89.41504178272982
46777,Wells County,IN,94.24326833797586
46795,LaGrange County,IN,93.31476323119777
46803,Allen County,IN,86.81522748375116
46816,Allen County,IN,33.24048282265552
46952,Grant County,IN,20.055710306406684
47167,Washington County,IN,55.246053853296196
47639,Gibson County,IN,99.81429897864437
47720,Vanderburgh County,IN,78.18012999071496
47918,Fountain County,IN,87.46518105849582
50310,Polk County,IA,22.934076137418753
50314,Polk County,IA,50.23212627669452
50595,Hamilton County,IA,80.9656453110492
51103,Woodbury County,IA,80.22284122562674
51503,Pottawattamie County,IA,7.613741875580315
51510,Pottawattamie County,IA,91.64345403899722
52001,Dubuque County,IA,50.603528319405754
52240,Johnson County,IA,23.398328690807798
52404,Linn County,IA,7.706592386258125
66062,Johnson County,KS,10.95636025998143
66112,Wyandotte County,KS,87.55803156917364
67735,Sherman County,KS,91.92200557103064
40203,Jefferson County,KY,24.79108635097493
40212,Jefferson County,KY,63.04549675023212
40216,Jefferson County,KY,8.449396471680593
40218,Jefferson County,KY,14.763231197771587
40219,Jefferson County,KY,13.649025069637883
40272,Jefferson County,KY,14.856081708449395
40517,Fayette County,KY,23.491179201485608
40701,Whitley County,KY,11.234911792014856
41011,Kenton County,KY,15.506035283194059
41017,Kenton County,KY,35.37604456824512
41018,Kenton County,KY,28.319405756731662
41042,Boone County,KY,4.828226555246054
41230,Lawrence County,KY,63.13834726090993
42206,Logan County,KY,95.54317548746518
42420,Henderson County,KY,8.72794800371402
42519,Pulaski County,KY,98.9786443825441
70006,Jefferson Parish,LA,81.24419684308263
70056,Jefferson Parish,LA,44.84679665738162
70058,Jefferson Parish,LA,16.341689879294336
70062,Jefferson Parish,LA,20.798514391829155
70085,St. Bernard Parish,LA,99.9071494893222
70094,Jefferson Parish,LA,88.48653667595173
70114,Orleans Parish,LA,10.677808727948005
70118,Orleans Parish,LA,99.53574744661096
70119,Orleans Parish,LA,4.178272980501393
70122,Orleans Parish,LA,88.76508820798514
70127,Orleans Parish,LA,90.80779944289694
70128,Orleans Parish,LA,18.29155060352832
70131,Orleans Parish,LA,15.598885793871867
70360,Terrebonne Parish,LA,11.513463324048283
70364,Terrebonne Parish,LA,6.592386258124419
70438,Washington Parish,LA,91.55060352831941
70458,St. Tammany Parish,LA,97.7715877437326
70461,St. Tammany Parish,LA,18.105849582172702
70466,Tangipahoa Parish,LA,97.21448467966573
70501,Lafayette Parish,LA,78.08727948003714
70510,Vermilion Parish,LA,41.318477251624884
70529,Lafayette Parish,LA,53.85329619312906
70560,Iberia Parish,LA,2.414113277623027
70605,Calcasieu Parish,LA,71.95914577530176
70647,Calcasieu Parish,LA,98.51439182915506
70665,Calcasieu Parish,LA,39.46146703806871
70668,Calcasieu Parish,LA,70.38068709377902
70706,Livingston Parish,LA,36.1188486536676
70802,East Baton Rouge Parish,LA,89.78644382544104
70807,East Baton Rouge Parish,LA,86.44382544103992
70808,East Baton Rouge Parish,LA,97.02878365831012
70814,East Baton Rouge Parish,LA,38.99721448467967
70816,East Baton Rouge Parish,LA,78.7372330547818
71040,Claiborne Parish,LA,89.22934076137419
71107,Caddo Parish,LA,2.785515320334262
71203,Ouachita Parish,LA,69.54503249767873
71292,Ouachita Parish,LA,13.370473537604457
71301,Rapides Parish,LA,92.29340761374188
71303,Rapides Parish,LA,34.26183844011142
04103,Cumberland County,ME,24.419684308263694
04274,Androscoggin County,ME,93.03621169916435
04953,Penobscot County,ME,90.4363974001857
20711,Anne Arundel County,MD,90.99350046425255
20902,Montgomery County,MD,72.2376973073352
21061,Anne Arundel County,MD,9.563602599814299
21090,Anne Arundel County,MD,87.09377901578459
21136,Baltimore County,MD,62.20984215413184
21215,Baltimore city,MD,6.778087279480037
21229,Baltimore city,MD,19.498607242339833
21230,Baltimore city,MD,39.647168059424324
21234,Baltimore County,MD,17.45589600742804
01085,Hampden County,MA,1.2070566388115136
01105,Hampden County,MA,19.312906220984217
01752,Middlesex County,MA,3.064066852367688
01843,Essex County,MA,93.22191272051997
01915,Essex County,MA,12.999071494893222
01960,Essex County,MA,0.5571030640668524
02090,Norfolk County,MA,69.73073351903436
02118,Suffolk County,MA,58.12441968430826
02129,Suffolk County,MA,3.2497678737233056
02155,Middlesex County,MA,0.6499535747446611
02180,Middlesex County,MA,13.184772516248838
02301,Plymouth County,MA,0
02346,Plymouth County,MA,11.049210770659238
02601,Barnstable County,MA,89.50789229340761
48021,Macomb County,MI,10.584958217270195
48033,Oakland County,MI,45.12534818941504
48045,Macomb County,MI,27.669452181987005
48088,Macomb County,MI,92.10770659238626
48091,Macomb County,MI,5.478180129990715
48126,Wayne County,MI,10.30640668523677
48146,Wayne County,MI,7.056638811513463
48150,Wayne County,MI,30.64066852367688
48180,Wayne County,MI,17.177344475394616
48198,Washtenaw County,MI,16.898792943361187
48204,Wayne County,MI,9.842154131847725
48205,Wayne County,MI,42.89693593314763
48206,Wayne County,MI,30.64066852367688
48207,Wayne County,MI,21.16991643454039
48208,Wayne County,MI,91.27205199628598
48210,Wayne County,MI,62.95264623955432
48217,Wayne County,MI,69.63788300835655
48221,Wayne County,MI,4.642525533890436
48224,Wayne County,MI,2.2284122562674096
48227,Wayne County,MI,38.625812441968435
48228,Wayne County,MI,1.1142061281337048
48234,Wayne County,MI,6.685236768802229
48237,Oakland County,MI,22.376973073351902
48238,Wayne County,MI,4.456824512534819
48239,Wayne County,MI,7.428040854224697
48316,Macomb County,MI,85.51532033426183
48331,Oakland County,MI,41.13277623026927
48335,Oakland County,MI,81.42989786443825
48341,Oakland County,MI,80.50139275766016
48342,Oakland County,MI,16.248839368616526
48439,Genesee County,MI,13.741875580315691
48451,Genesee County,MI,98.14298978644382
48503,Genesee County,MI,19.87000928505107
48507,Genesee County,MI,9.749303621169917
48529,Genesee County,MI,92.47910863509749
48601,Saginaw County,MI,32.68337975858867
48602,Saginaw County,MI,21.262766945218196
48603,Saginaw County,MI,64.62395543175488
48604,Saginaw County,MI,60.25998142989787
48616,Saginaw County,MI,59.888579387186624
48617,Clare County,MI,74.4661095636026
48655,Saginaw County,MI,94.05756731662024
48838,Montcalm County,MI,35.19034354688951
48858,Isabella County,MI,5.10677808727948
48875,Ionia County,MI,81.52274837511607
48906,Ingham County,MI,13.463324048282265
48911,Ingham County,MI,5.571030640668524
48917,Eaton County,MI,8.263695450324978
49002,Kalamazoo County,MI,37.511606313834726
49014,Calhoun County,MI,20.334261838440113
49015,Calhoun County,MI,18.012999071494892
49022,Berrien County,MI,39.92571959145776
49042,St. Joseph County,MI,97.12163416898792
49120,Berrien County,MI,15.784586815227483
49201,Jackson County,MI,7.892293407613741
49319,Kent County,MI,33.519034354688955
49348,Allegan County,MI,36.30454967502321
49424,Ottawa County,MI,16.62024141132776
49428,Ottawa County,MI,56.08170844939647
49444,Muskegon County,MI,9.192200557103064
49504,Kent County,MI,15.970287836583102
49505,Kent County,MI,26.369545032497676
49509,Kent County,MI,14.206128133704734
49519,Kent County,MI,17.827298050139277
55102,Ramsey County,MN,33.147632311977716
55103,Ramsey County,MN,50.88207985143919
55104,Ramsey County,MN,16.527390900649955
55117,Ramsey County,MN,17.270194986072422
55378,Scott County,MN,59.70287836583101
55404,Hennepin County,MN,0.8356545961002786
55411,Hennepin County,MN,18.477251624883937
55412,Hennepin County,MN,7.985143918291551
55421,Anoka County,MN,22.748375116063137
55422,Hennepin County,MN,34.35468895078923
55426,Hennepin County,MN,31.66202414113278
55443,Hennepin County,MN,35.097493036211695
55448,Anoka County,MN,44.661095636026
56472,Crow Wing County,MN,73.63045496750232
56573,Otter Tail County,MN,66.29526462395543
38668,Tate County,MS,76.41597028783659
38671,DeSoto County,MS,37.697307335190345
38676,Tunica County,MS,95.35747446610957
38732,Bolivar County,MS,42.061281337047355
38801,Lee County,MS,42.618384401114206
38930,Leflore County,MS,42.71123491179202
39038,Humphreys County,MS,93.96471680594243
39059,Copiah County,MS,81.33704735376045
39191,Copiah County,MS,88.95078922934077
39209,Hinds County,MS,60.07428040854224
39213,Hinds County,MS,39.18291550603528
39426,Pearl River County,MS,59.42432683379758
39556,Hancock County,MS,67.1309192200557
63133,St. Louis County,MO,83.84401114206128
63137,St. Louis County,MO,41.96843082636955
63146,St. Louis County,MO,55.246053853296196
63147,St. Louis city,MO,62.48839368616528
64029,Jackson County,MO,42.98978644382544
64079,Platte County,MO,61.46703806870938
64080,Cass County,MO,66.48096564531104
64119,Clay County,MO,11.142061281337048
64133,Jackson County,MO,3.6211699164345403
64134,Jackson County,MO,14.113277623026926
64137,Jackson County,MO,78.36583101207056
64138,Jackson County,MO,11.884865366759517
64150,Platte County,MO,94.98607242339833
64468,Nodaway County,MO,88.02228412256268
64501,Buchanan County,MO,86.35097493036211
64776,St. Clair County,MO,98.23584029712164
64804,Jasper County,MO,52.92479108635098
65251,Callaway County,MO,33.79758588672237
65340,Saline County,MO,39.09006499535748
65803,Greene County,MO,10.399257195914577
59804,Missoula County,MT,97.8644382544104
68134,Douglas County,NE,61.46703806870938
68503,Lancaster County,NE,76.88022284122563
68521,Lancaster County,NE,65.64531104921078
89103,Clark County,NV,56.73166202414113
89108,Clark County,NV,24.233983286908078
89110,Clark County,NV,22.00557103064067
89128,Clark County,NV,54.967502321262764
89135,Clark County,NV,88.57938718662952
89148,Clark County,NV,50.78922934076138
89406,Churchill County,NV,44.753946146703804
89433,Washoe County,NV,43.361188486536676
03062,Hillsborough County,NH,54.317548746518106
07011,Passaic County,NJ,19.405756731662024
07026,Bergen County,NJ,96.37883008356546
07050,Essex County,NJ,11.327762302692665
07060,Union County,NJ,65.36675951717734
07063,Union County,NJ,99.62859795728876
07087,Hudson County,NJ,2.8783658310120708
07102,Essex County,NJ,76.13741875580315
07103,Essex County,NJ,0.7428040854224698
07104,Essex County,NJ,90.06499535747446
07107,Essex County,NJ,1.021355617455896
07108,Essex County,NJ,1.6713091922005572
07109,Essex County,NJ,15.691736304549675
07203,Union County,NJ,97.95728876508821
07305,Hudson County,NJ,70.75208913649024
07306,Hudson County,NJ,27.85515320334262
07461,Sussex County,NJ,43.546889507892296
07501,Passaic County,NJ,82.91550603528319
07503,Passaic County,NJ,21.91272051996286
07508,Passaic County,NJ,32.404828226555246
07514,Passaic County,NJ,34.540389972144844
07801,Morris County,NJ,21.541318477251625
08075,Burlington County,NJ,94.89322191272052
08081,Camden County,NJ,1.2999071494893222
08096,Gloucester County,NJ,3.8997214484679668
08105,Camden County,NJ,48.653667595171775
08242,Cape May County,NJ,87.00092850510678
08302,Cumberland County,NJ,10.027855153203342
08401,Atlantic County,NJ,3.3426183844011144
08505,Burlington County,NJ,64.71680594243269
08610,Mercer County,NJ,6.499535747446611
08611,Mercer County,NJ,4.549675023212628
08638,Mercer County,NJ,12.44196843082637
87002,Valencia County,NM,54.13184772516249
87106,Bernalillo County,NM,23.026926648096566
87120,Bernalillo County,NM,78.92293407613742
87413,San Juan County,NM,55.89600742804085
87505,Santa Fe County,NM,4.36397400185701
87567,Santa Fe County,NM,99.35004642525533
88063,Doa Ana County,NM,74.18755803156918
88220,Eddy County,NM,23.026926648096566
88240,Lea County,NM,5.013927576601671
88346,Lincoln County,NM,99.16434540389972
10029,New York County,NY,0.4642525533890436
10453,Bronx County,NY,17.64159702878366
10458,Bronx County,NY,0.18570102135561745
10460,Bronx County,NY,13.27762302692665
10462,Bronx County,NY,5.199628597957289
10472,Bronx County,NY,1.9498607242339834
10605,Westchester County,NY,89.13649025069638
10705,Westchester County,NY,9.099350046425256
11003,Nassau County,NY,61.745589600742804
11103,Queens County,NY,74.83751160631384
11207,Kings County,NY,0.3714020427112349
11218,Kings County,NY,52.55338904363974
11224,Kings County,NY,72.60909935004642
11225,Kings County,NY,26.46239554317549
11233,Kings County,NY,1.4856081708449396
11354,Queens County,NY,51.71773444753946
11365,Queens County,NY,53.946146703806875
11369,Queens County,NY,59.888579387186624
11377,Queens County,NY,18.662952646239557
11419,Queens County,NY,42.804085422469825
11433,Queens County,NY,29.155060352831942
11691,Queens County,NY,36.86165273909007
11704,Suffolk County,NY,60.35283194057567
11726,Suffolk County,NY,78.27298050139275
11788,Suffolk County,NY,73.81615598885793
12189,Albany County,NY,43.73259052924791
12831,Saratoga County,NY,51.25348189415042
12839,Washington County,NY,30.45496750232126
13021,Cayuga County,NY,3.1569173630454963
13027,Onondaga County,NY,14.577530176415971
13036,Oswego County,NY,63.13834726090993
13066,Onondaga County,NY,96.65738161559888
13114,Oswego County,NY,63.32404828226556
13164,Onondaga County,NY,98.42154131847725
13202,Onondaga County,NY,63.69545032497679
13204,Onondaga County,NY,11.977715877437326
13601,Jefferson County,NY,23.955431754874652
13669,St. Lawrence County,NY,58.867223769730735
13865,Broome County,NY,52.64623955431755
14048,Chautauqua County,NY,73.07335190343547
14057,Erie County,NY,80.77994428969359
14072,Erie County,NY,45.40389972144847
14207,Erie County,NY,35.28319405756732
14215,Erie County,NY,1.5784586815227482
14304,Niagara County,NY,3.9925719591457756
14609,Monroe County,NY,0.2785515320334262
14750,Chautauqua County,NY,86.90807799442896
27106,Forsyth County,NC,14.020427112349118
27127,Forsyth County,NC,48.83936861652739
27203,Randolph County,NC,79.10863509749304
27215,Alamance County,NC,40.29712163416899
27249,Guilford County,NC,94.52181987000928
27253,Alamance County,NC,17.270194986072422
27260,Guilford County,NC,24.97678737233055
27330,Lee County,NC,59.05292479108635
27360,Davidson County,NC,21.07706592386258
27401,Guilford County,NC,31.47632311977716
27405,Guilford County,NC,61.93129062209842
27407,Guilford County,NC,20.42711234911792
27522,Granville County,NC,80.03714020427113
27529,Wake County,NC,27.298050139275766
27530,Wayne County,NC,49.11792014856082
27534,Wayne County,NC,38.71866295264624
27587,Wake County,NC,24.141132776230272
27601,Wake County,NC,98.79294336118849
27603,Wake County,NC,24.605385329619313
27616,Wake County,NC,22.841225626740947
27803,Nash County,NC,51.532033426183844
27807,Nash County,NC,92.85051067780873
27828,Pitt County,NC,72.14484679665738
27834,Pitt County,NC,5.8495821727019495
27886,Edgecombe County,NC,40.389972144846794
27889,Beaufort County,NC,34.91179201485608
27893,Wilson County,NC,68.05942432683379
28012,Gaston County,NC,65.9238625812442
28034,Gaston County,NC,48.18941504178273
28081,Cabarrus County,NC,24.698235840297123
28083,Cabarrus County,NC,32.9619312906221
28086,Cleveland County,NC,77.71587743732591
28112,Union County,NC,50.51067780872794
28144,Rowan County,NC,70.56638811513464
28206,Mecklenburg County,NC,75.11606313834726
28208,Mecklenburg County,NC,8.542246982358403
28212,Mecklenburg County,NC,27.762302692664807
28215,Mecklenburg County,NC,16.71309192200557
28269,Mecklenburg County,NC,46.70380687093779
28301,Cumberland County,NC,41.41132776230269
28305,Cumberland County,NC,86.1652739090065
28311,Cumberland County,NC,27.483751160631382
28314,Cumberland County,NC,87.2794800371402
28327,Moore County,NC,74.09470752089136
28333,Wayne County,NC,67.87372330547818
28376,Hoke County,NC,34.16898792943361
28386,Robeson County,NC,96.47168059424327
28387,Moore County,NC,79.20148560817084
28401,New Hanover County,NC,10.492107706592387
28422,Brunswick County,NC,88.2079851439183
28443,Pender County,NC,61.00278551532033
28466,Duplin County,NC,72.42339832869081
28470,Brunswick County,NC,90.25069637883009
28472,Columbus County,NC,40.4828226555246
28501,Lenoir County,NC,47.725162488393686
28540,Onslow County,NC,28.969359331476323
28560,Craven County,NC,32.12627669452182
28572,Duplin County,NC,85.32961931290622
28586,Craven County,NC,84.30826369545032
28625,Iredell County,NC,52.831940575673165
28721,Haywood County,NC,77.90157845868151
58203,Grand Forks County,ND,57.567316620241414
58538,Sioux County,ND,99.44289693593315
43015,Delaware County,OH,16.06313834726091
43110,Franklin County,OH,26.18384401114206
43113,Pickaway County,OH,47.539461467038066
43130,Fairfield County,OH,1.392757660167131
43160,Fayette County,OH,14.298978644382544
43203,Franklin County,OH,72.51624883936861
43206,Franklin County,OH,12.627669452181985
43209,Franklin County,OH,53.29619312906221
43211,Franklin County,OH,10.86350974930362
43212,Franklin County,OH,79.01578458681523
43222,Franklin County,OH,59.610027855153206
43223,Franklin County,OH,4.921077065923862
43228,Franklin County,OH,20.2414113277623
43229,Franklin County,OH,30.45496750232126
43230,Franklin County,OH,17.084493964716806
43302,Marion County,OH,2.042711234911792
43452,Ottawa County,OH,77.90157845868151
43608,Lucas County,OH,7.3351903435468895
43611,Lucas County,OH,15.22748375116063
43612,Lucas County,OH,23.769730733519033
43615,Lucas County,OH,20.891364902506965
43616,Lucas County,OH,13.92757660167131
43620,Lucas County,OH,75.39461467038069
43713,Belmont County,OH,63.88115134633241
43724,Noble County,OH,79.66573816155989
43731,Perry County,OH,75.30176415970288
43764,Perry County,OH,89.69359331476323
44035,Lorain County,OH,0.09285051067780872
44060,Lake County,OH,5.7567316620241415
44070,Cuyahoga County,OH,25.441039925719593
44104,Cuyahoga County,OH,22.65552460538533
44110,Cuyahoga County,OH,8.913649025069638
44120,Cuyahoga County,OH,38.81151346332405
44123,Cuyahoga County,OH,30.8263695450325
44128,Cuyahoga County,OH,17.548746518105848
44130,Cuyahoga County,OH,3.8068709377901575
44132,Cuyahoga County,OH,26.740947075208915
44138,Cuyahoga County,OH,35.840297121634165
44144,Cuyahoga County,OH,12.349117920148561
44212,Medina County,OH,2.971216341689879
44256,Medina County,OH,3.4354688950789227
44305,Summit County,OH,66.66666666666666
44310,Summit County,OH,41.03992571959146
44512,Mahoning County,OH,9.842154131847725
44646,Stark County,OH,8.72794800371402
44654,Holmes County,OH,82.54410399257196
44685,Summit County,OH,49.86072423398329
45005,Warren County,OH,7.7994428969359335
45011,Butler County,OH,2.321262766945218
45014,Butler County,OH,16.15598885793872
45067,Butler County,OH,61.374187558031565
45203,Hamilton County,OH,92.20055710306406
45204,Hamilton County,OH,86.25812441968431
45211,Hamilton County,OH,8.356545961002785
45215,Hamilton County,OH,62.024141132776236
45225,Hamilton County,OH,70.84493964716806
45237,Hamilton County,OH,32.21912720519963
45238,Hamilton County,OH,14.948932219127206
45240,Hamilton County,OH,28.597957288765087
45247,Hamilton County,OH,63.50974930362116
45344,Clark County,OH,61.83844011142061
45420,Montgomery County,OH,29.247910863509752
45631,Gallia County,OH,10.770659238625813
45656,Jackson County,OH,65.18105849582173
45742,Washington County,OH,91.08635097493037
45804,Allen County,OH,12.070566388115136
45822,Mercer County,OH,41.22562674094708
45875,Putnam County,OH,72.79480037140205
73034,Oklahoma County,OK,31.47632311977716
73036,Canadian County,OK,44.19684308263695
73051,Cleveland County,OK,90.15784586815228
73071,Cleveland County,OK,26.090993500464254
73099,Canadian County,OK,46.982358402971215
73119,Oklahoma County,OK,25.162488393686168
73120,Oklahoma County,OK,46.05385329619313
73130,Oklahoma County,OK,65.08820798514392
73505,Comanche County,OK,25.162488393686168
73521,Jackson County,OK,88.57938718662952
73529,Stephens County,OK,92.01485608170844
74132,Tulsa County,OK,97.58588672237697
74403,Muskogee County,OK,37.41875580315692
74547,Pittsburg County,OK,100
74745,McCurtain County,OK,67.78087279480037
74857,Cleveland County,OK,80.68709377901578
74873,Pottawatomie County,OK,62.116991643454035
74881,Lincoln County,OK,99.07149489322191
97086,Clackamas County,OR,57.195914577530175
97123,Washington County,OR,22.191272051996286
97218,Multnomah County,OR,76.04456824512535
97224,Washington County,OR,56.174558960074286
97478,Lane County,OR,89.87929433611885
97501,Jackson County,OR,37.2330547818013
97527,Josephine County,OR,49.48932219127205
97601,Klamath County,OR,18.848653667595173
97603,Klamath County,OR,21.634168987929435
15062,Westmoreland County,PA,85.60817084493965
15085,Westmoreland County,PA,88.85793871866295
15106,Allegheny County,PA,61.18848653667596
15136,Allegheny County,PA,33.61188486536676
15301,Washington County,PA,5.2924791086350975
15767,Jefferson County,PA,31.10492107706592
16365,Warren County,PA,71.3091922005571
16502,Erie County,PA,47.168059424326835
16503,Erie County,PA,71.77344475394615
16504,Erie County,PA,64.43825441039925
16509,Erie County,PA,36.954503249767875
16701,McKean County,PA,18.755803156917363
17013,Cumberland County,PA,22.284122562674096
17015,Cumberland County,PA,47.07520891364902
17038,Lebanon County,PA,77.15877437325905
17042,Lebanon County,PA,4.085422469823584
17044,Mifflin County,PA,12.906220984215414
17401,York County,PA,78.8300835654596
17403,York County,PA,38.440111420612816
17847,Northumberland County,PA,67.96657381615599
18015,Northampton County,PA,36.768802228412255
18706,Luzerne County,PA,42.43268337975859
19056,Bucks County,PA,53.38904363974002
19143,Philadelphia County,PA,6.8709377901578454
19145,Philadelphia County,PA,6.406685236768802
19464,Montgomery County,PA,47.910863509749305
29053,Lexington County,SC,84.0297121634169
29123,Lexington County,SC,89.60074280408541
29150,Sumter County,SC,39.83286908077994
29307,Spartanburg County,SC,64.9953574744661
29403,Charleston County,SC,47.910863509749305
29420,Dorchester County,SC,51.99628597957289
29456,Dorchester County,SC,39.27576601671309
29461,Berkeley County,SC,37.32590529247911
29483,Dorchester County,SC,18.105849582172702
29485,Dorchester County,SC,30.269266480965644
29488,Colleton County,SC,71.03064066852369
29565,Dillon County,SC,98.05013927576601
29607,Greenville County,SC,31.29062209842154
29625,Anderson County,SC,36.1188486536676
29626,Anderson County,SC,76.69452181987
29644,Greenville County,SC,55.43175487465181
29649,Greenwood County,SC,68.61652739090064
29730,York County,SC,20.61281337047354
29920,Beaufort County,SC,85.79387186629526
57078,Yankton County,SD,73.4447539461467
57380,Charles Mix County,SD,98.79294336118849
37013,Davidson County,TN,10.12070566388115
37040,Montgomery County,TN,27.20519962859796
37043,Montgomery County,TN,40.11142061281337
37087,Wilson County,TN,18.384401114206128
37130,Rutherford County,TN,56.824512534818936
37204,Davidson County,TN,93.87186629526462
37216,Davidson County,TN,52.18198700092851
37312,Bradley County,TN,46.425255338904364
37388,Coffee County,TN,36.67595171773444
37406,Hamilton County,TN,70.1021355617456
37660,Sullivan County,TN,7.149489322191272
37857,Hawkins County,TN,38.06870937790158
37914,Knox County,TN,40.66852367688023
37915,Knox County,TN,95.26462395543176
37920,Knox County,TN,11.792014856081709
38002,Shelby County,TN,71.68059424326833
38107,Shelby County,TN,45.96100278551532
38111,Shelby County,TN,24.04828226555246
38115,Shelby County,TN,25.719591457753015
38118,Shelby County,TN,19.77715877437326
38358,Gibson County,TN,60.35283194057567
38401,Maury County,TN,5.942432683379758
38462,Lewis County,TN,73.53760445682451
38478,Giles County,TN,84.21541318477252
38583,White County,TN,28.783658310120707
75006,Dallas County,TX,50.69637883008357
75040,Dallas County,TX,19.127205199628598
75042,Dallas County,TX,66.75951717734448
75050,Dallas County,TX,46.14670380687094
75060,Dallas County,TX,44.93964716805942
75062,Dallas County,TX,50.41782729805014
75068,Denton County,TX,35.00464252553389
75069,Collin County,TX,53.017641597028785
75074,Collin County,TX,57.10306406685237
75104,Dallas County,TX,26.27669452181987
75125,Ellis County,TX,96.00742804085422
75142,Kaufman County,TX,65.55246053853297
75149,Dallas County,TX,20.148560817084494
75154,Ellis County,TX,77.53017641597029
75167,Ellis County,TX,82.63695450324977
75211,Dallas County,TX,55.06035283194058
75224,Dallas County,TX,51.16063138347261
75227,Dallas County,TX,55.15320334261838
75228,Dallas County,TX,51.62488393686166
75231,Dallas County,TX,95.07892293407613
75233,Dallas County,TX,90.71494893221913
75236,Dallas County,TX,66.01671309192201
75241,Dallas County,TX,25.62674094707521
75243,Dallas County,TX,15.134633240482822
75254,Dallas County,TX,84.958217270195
75605,Gregg County,TX,56.36025998142989
75791,Smith County,TX,68.80222841225627
75862,Trinity County,TX,88.11513463324049
75964,Nacogdoches County,TX,66.29526462395543
76012,Tarrant County,TX,52.27483751160631
76028,Johnson County,TX,11.699164345403899
76039,Tarrant County,TX,40.85422469823584
76104,Tarrant County,TX,23.862581244196843
76106,Tarrant County,TX,51.99628597957289
76111,Tarrant County,TX,77.06592386258124
76112,Tarrant County,TX,14.670380687093779
76116,Tarrant County,TX,26.46239554317549
76123,Tarrant County,TX,51.43918291550603
76131,Tarrant County,TX,81.05849582172702
76132,Tarrant County,TX,67.40947075208913
76133,Tarrant County,TX,20.51996285979573
76137,Tarrant County,TX,57.01021355617456
76240,Cooke County,TX,43.08263695450325
76305,Wichita County,TX,99.25719591457754
76543,Bell County,TX,31.012070566388118
76549,Bell County,TX,25.81244196843083
76903,Tom Green County,TX,45.77530176415971
77014,Harris County,TX,63.788300835654596
77021,Harris County,TX,92.47910863509749
77032,Harris County,TX,83.28690807799443
77039,Harris County,TX,74.3732590529248
77070,Harris County,TX,50.974930362116986
77072,Harris County,TX,57.66016713091921
77077,Harris County,TX,48.9322191272052
77080,Harris County,TX,73.72330547818014
77081,Harris County,TX,69.82358402971217
77086,Harris County,TX,70.19498607242339
77087,Harris County,TX,59.795728876508825
77089,Harris County,TX,48.37511606313834
77095,Harris County,TX,18.94150417827298
77351,Polk County,TX,49.58217270194986
77372,Montgomery County,TX,88.95078922934077
77414,Matagorda County,TX,78.36583101207056
77429,Harris County,TX,12.256267409470752
77486,Brazoria County,TX,95.91457753017642
77506,Harris County,TX,85.88672237697307
77510,Galveston County,TX,67.40947075208913
77520,Harris County,TX,47.910863509749305
77530,Harris County,TX,60.724233983286915
77573,Galveston County,TX,9.192200557103064
77587,Harris County,TX,81.8012999071495
77598,Harris County,TX,62.302692664809655
77701,Jefferson County,TX,81.15134633240483
77833,Washington County,TX,50.0464252553389
77840,Brazos County,TX,49.396471680594246
78040,Webb County,TX,45.03249767873723
78109,Bexar County,TX,52.460538532961934
78112,Bexar County,TX,98.32869080779945
78155,Guadalupe County,TX,26.92664809656453
78201,Bexar County,TX,26.648096564531105
78212,Bexar County,TX,61.00278551532033
78216,Bexar County,TX,47.725162488393686
78218,Bexar County,TX,53.760445682451255
78219,Bexar County,TX,79.94428969359332
78227,Bexar County,TX,40.575673166202414
78233,Bexar County,TX,45.31104921077066
78237,Bexar County,TX,33.42618384401114
78239,Bexar County,TX,65.73816155988858
78258,Bexar County,TX,69.17363045496751
78520,Cameron County,TX,83.65831012070566
78537,Hidalgo County,TX,68.43082636954503
78542,Hidalgo County,TX,45.12534818941504
78574,Hidalgo County,TX,40.01857010213556
78577,Hidalgo County,TX,31.197771587743734
78582,Starr County,TX,71.21634168987929
78584,Starr County,TX,69.91643454038997
78642,Williamson County,TX,89.322191272052
78664,Williamson County,TX,49.76787372330548
78728,Travis County,TX,82.07985143918292
78741,Travis County,TX,90.90064995357474
78744,Travis County,TX,68.15227483751161
78840,Val Verde County,TX,32.31197771587744
79106,Potter County,TX,58.21727019498607
79364,Lubbock County,TX,90.4363974001857
79424,Lubbock County,TX,29.06220984215413
79549,Scurry County,TX,75.5803156917363
79705,Midland County,TX,79.38718662952647
79762,Ector County,TX,31.38347260909935
79782,Martin County,TX,92.75766016713092
79928,El Paso County,TX,53.48189415041783
79934,El Paso County,TX,83.19405756731662
84015,Davis County,UT,23.676880222841227
84029,Tooele County,UT,62.67409470752089
84118,Salt Lake County,UT,19.220055710306408
84335,Cache County,UT,93.68616527390901
05641,Washington County,VT,36.397400185701024
20132,Loudoun County,VA,92.6648096564531
20147,Loudoun County,VA,73.35190343546888
22032,Fairfax County,VA,68.33797585886722
22079,Fairfax County,VA,46.425255338904364
22308,Fairfax County,VA,83.008356545961007
22309,Fairfax County,VA,29.897864438254413
22310,Fairfax County,VA,57.381615598885794
22546,Caroline County,VA,75.67316620241411
22580,Caroline County,VA,94.33611884865367
22601,Winchester city,VA,64.34540389972145
22657,Shenandoah County,VA,81.61559888579387
22801,Harrisonburg city,VA,46.239554317548745
22902,Charlottesville city,VA,27.112349117920147
22960,Orange County,VA,68.98792943361188
23093,Louisa County,VA,85.97957288765087
23222,Richmond city,VA,18.570102135561743
23225,Richmond city,VA,48.282265552460544
23231,Henrico County,VA,25.998142989786444
23234,Chesterfield County,VA,21.35561745589601
23235,Chesterfield County,VA,58.03156917363046
23237,Chesterfield County,VA,51.71773444753946
23323,Chesapeake city,VA,38.254410399257196
23430,Isle of Wight County,VA,96.56453110492109
23452,Virginia Beach city,VA,59.14577530176416
23462,Virginia Beach city,VA,19.96285979572888
23504,Norfolk city,VA,29.526462395543174
23601,Newport News city,VA,84.58681522748375
23602,Newport News city,VA,32.776230269266485
23605,Newport News city,VA,80.59424326833798
23666,Hampton city,VA,11.420612813370473
23669,Hampton city,VA,25.069637883008355
23703,Portsmouth city,VA,59.23862581244197
23704,Portsmouth city,VA,31.66202414113278
23805,Petersburg city,VA,82.45125348189416
24012,Roanoke city,VA,32.49767873723305
24016,Roanoke city,VA,82.72980501392759
24019,Roanoke County,VA,59.51717734447539
24112,Henry County,VA,17.734447539461467
24141,Radford city,VA,75.95171773444754
24503,Lynchburg city,VA,87.92943361188486
24540,Danville city,VA,64.80965645311049
98003,King County,WA,31.847725162488395
98023,King County,WA,28.783658310120707
98223,Snohomish County,WA,27.390900649953576
98404,Pierce County,WA,69.45218198700093
98951,Yakima County,WA,97.30733519034355
99022,Spokane County,WA,95.17177344475395
99301,Franklin County,WA,9.47075208913649
20010,District of Columbia,DC,56.638811513463324
20018,District of Columbia,DC,46.61095636025998
20020,District of Columbia,DC,2.1355617455896008
24870,Wyoming County,WV,97.49303621169916
25314,Kanawha County,WV,96.10027855153204
25901,Fayette County,WV,87.65088207985144
26101,Wood County,WV,4.2711234911792015
53095,Washington County,WI,55.61745589600743
53105,Racine County,WI,16.80594243268338
53142,Kenosha County,WI,9.377901578458681
53204,Milwaukee County,WI,5.663881151346333
53205,Milwaukee County,WI,2.5069637883008355
53206,Milwaukee County,WI,39.55431754874652
53207,Milwaukee County,WI,29.340761374187558
53215,Milwaukee County,WI,3.7140204271123487
54114,Marinette County,WI,93.12906220984215
54153,Oconto County,WI,77.53017641597029
54601,La Crosse County,WI,6.220984215413185
82001,Laramie County,WY,76.97307335190344
