ZipCode,county,state,Adult,Retirement
35020,Jefferson County,AL,NA,29.47976878612717
35080,Shelby County,AL,61.979166666666664,NA
35127,Jefferson County,AL,81.77083333333334,NA
35404,Tuscaloosa County,AL,14.583333333333334,NA
35473,Tuscaloosa County,AL,57.291666666666664,NA
35474,Hale County,AL,NA,86.1271676300578
35603,Morgan County,AL,15.625,NA
35758,Madison County,AL,40.625,NA
35763,Madison County,AL,78.125,NA
35957,Marshall County,AL,51.041666666666664,NA
36109,Montgomery County,AL,NA,60.115606936416185
36619,Mobile County,AL,78.64583333333334,NA
36695,Mobile County,AL,33.85416666666667,NA
85206,Maricopa County,AZ,49.47916666666667,NA
85212,Maricopa County,AZ,NA,61.849710982658955
85715,Pima County,AZ,80.72916666666666,NA
85901,Navajo County,AZ,NA,27.74566473988439
86315,Yavapai County,AZ,NA,68.78612716763006
86403,Mohave County,AZ,50,NA
71602,Jefferson County,AR,65.10416666666666,NA
71854,Miller County,AR,39.0625,NA
72034,Faulkner County,AR,NA,47.398843930635834
72113,Pulaski County,AR,NA,74.56647398843931
72956,Crawford County,AR,NA,28.32369942196532
90043,Los Angeles County,CA,NA,21.38728323699422
90650,Los Angeles County,CA,NA,13.294797687861271
91301,Los Angeles County,CA,NA,69.94219653179191
91307,Los Angeles County,CA,NA,79.1907514450867
91321,Los Angeles County,CA,88.54166666666666,NA
91405,Los Angeles County,CA,NA,41.040462427745666
92021,San Diego County,CA,NA,12.716763005780345
92064,San Diego County,CA,NA,32.369942196531795
92646,Orange County,CA,23.4375,NA
92656,Orange County,CA,33.33333333333333,NA
93230,Kings County,CA,53.125,NA
93309,Kern County,CA,28.125,NA
94502,Alameda County,CA,NA,86.70520231213872
94603,Alameda County,CA,NA,54.33526011560693
94928,Sonoma County,CA,64.58333333333334,NA
95203,San Joaquin County,CA,NA,83.8150289017341
95391,San Joaquin County,CA,NA,93.64161849710982
95401,Sonoma County,CA,NA,47.97687861271676
95610,Sacramento County,CA,48.4375,NA
95670,Sacramento County,CA,34.89583333333333,NA
95682,El Dorado County,CA,NA,35.26011560693642
95965,Butte County,CA,16.666666666666664,NA
95993,Sutter County,CA,77.08333333333334,36.41618497109826
80026,Boulder County,CO,NA,46.82080924855491
80232,Jefferson County,CO,79.16666666666666,NA
80246,Denver County,CO,NA,97.6878612716763
80513,Larimer County,CO,76.5625,NA
80921,El Paso County,CO,82.8125,NA
06070,Hartford County,CT,NA,79.76878612716763
06226,Windham County,CT,NA,42.19653179190752
06457,Middlesex County,CT,NA,8.092485549132949
06468,Fairfield County,CT,93.75,NA
06484,Fairfield County,CT,36.45833333333333,NA
06604,Fairfield County,CT,71.35416666666666,NA
06708,New Haven County,CT,74.47916666666666,NA
06811,Fairfield County,CT,NA,27.167630057803464
06854,Fairfield County,CT,47.91666666666667,NA
19720,New Castle County,DE,16.145833333333336,NA
32068,Clay County,FL,10.9375,NA
32222,Duval County,FL,77.60416666666666,NA
32226,Duval County,FL,46.35416666666667,NA
32259,St. Johns County,FL,47.39583333333333,NA
32507,Escambia County,FL,38.54166666666667,NA
32703,Orange County,FL,NA,90.7514450867052
32927,Brevard County,FL,NA,45.664739884393065
32952,Brevard County,FL,NA,73.41040462427746
33067,Broward County,FL,92.70833333333334,NA
33176,Miami-Dade County,FL,88.02083333333334,NA
33547,Hillsborough County,FL,NA,94.79768786127167
33916,Lee County,FL,40.10416666666667,NA
34110,Collier County,FL,NA,50.86705202312138
34655,Pasco County,FL,31.25,NA
34684,Pinellas County,FL,71.875,NA
34787,Orange County,FL,60.416666666666664,NA
30028,Forsyth County,GA,NA,95.37572254335261
30032,DeKalb County,GA,11.458333333333332,NA
30041,Forsyth County,GA,NA,82.08092485549133
30087,DeKalb County,GA,64.0625,NA
30093,Gwinnett County,GA,57.8125,NA
30281,Henry County,GA,NA,16.76300578034682
30314,Fulton County,GA,45.83333333333333,NA
30518,Gwinnett County,GA,39.58333333333333,NA
30606,Clarke County,GA,NA,26.011560693641616
30701,Gordon County,GA,26.041666666666668,NA
31093,Houston County,GA,31.770833333333332,NA
31768,Colquitt County,GA,29.6875,NA
31833,Troup County,GA,NA,75.14450867052022
39817,Decatur County,GA,66.66666666666666,NA
83318,Cassia County,ID,NA,75.72254335260115
83402,Bonneville County,ID,NA,45.08670520231214
83406,Bonneville County,ID,NA,91.32947976878613
83854,Kootenai County,ID,30.208333333333332,NA
60025,Cook County,IL,NA,4.046242774566474
60062,Cook County,IL,NA,5.202312138728324
60089,Lake County,IL,41.66666666666667,NA
60155,Cook County,IL,NA,62.42774566473989
60302,Cook County,IL,32.8125,NA
60438,Cook County,IL,NA,32.947976878612714
60462,Cook County,IL,62.5,NA
60465,Cook County,IL,52.604166666666664,NA
61073,Winnebago County,IL,NA,35.83815028901734
61356,Bureau County,IL,75.52083333333334,NA
61362,Bureau County,IL,NA,64.73988439306359
61520,Fulton County,IL,73.95833333333334,NA
62401,Effingham County,IL,NA,53.75722543352601
62702,Sangamon County,IL,NA,31.79190751445087
46062,Hamilton County,IN,NA,15.606936416184972
46064,Madison County,IN,NA,57.22543352601156
46383,Porter County,IN,5.208333333333334,NA
46514,Elkhart County,IN,NA,21.965317919075144
46774,Allen County,IN,63.541666666666664,NA
46970,Miami County,IN,7.8125,NA
47025,Dearborn County,IN,NA,53.179190751445084
47591,Knox County,IN,NA,23.699421965317917
47933,Montgomery County,IN,NA,42.77456647398844
52402,Linn County,IA,NA,23.121387283236995
52404,Linn County,IA,6.25,NA
66044,Douglas County,KS,70.3125,NA
66112,Wyandotte County,KS,NA,70.52023121387283
66713,Cherokee County,KS,NA,89.59537572254335
67203,Sedgwick County,KS,72.91666666666666,NA
40026,Oldham County,KY,NA,98.26589595375722
40059,Jefferson County,KY,NA,63.005780346820806
40272,Jefferson County,KY,12.5,15.028901734104046
40312,Powell County,KY,NA,96.53179190751445
40356,Jessamine County,KY,13.020833333333334,NA
40769,Whitley County,KY,32.29166666666667,NA
41501,Pike County,KY,NA,65.3179190751445
42003,McCracken County,KY,13.541666666666666,NA
42134,Simpson County,KY,NA,67.05202312138728
42503,Pulaski County,KY,44.79166666666667,NA
70339,Assumption Parish,LA,NA,95.95375722543352
70422,Tangipahoa Parish,LA,22.916666666666664,NA
70431,St. Tammany Parish,LA,90.10416666666666,NA
70433,St. Tammany Parish,LA,NA,6.358381502890173
70506,Lafayette Parish,LA,3.125,NA
70615,Calcasieu Parish,LA,20.833333333333336,NA
70669,Calcasieu Parish,LA,NA,61.27167630057804
70726,Livingston Parish,LA,NA,6.9364161849710975
04011,Cumberland County,ME,NA,24.85549132947977
20602,Charles County,MD,NA,67.63005780346822
20723,Howard County,MD,NA,72.83236994219652
20770,Prince George's County,MD,NA,84.97109826589595
21218,Baltimore city,MD,8.333333333333332,NA
21620,Kent County,MD,84.375,NA
21710,Frederick County,MD,97.91666666666666,NA
01069,Hampden County,MA,NA,71.09826589595376
01602,Worcester County,MA,91.14583333333334,NA
01746,Middlesex County,MA,91.66666666666666,NA
02062,Norfolk County,MA,NA,9.826589595375722
02169,Norfolk County,MA,NA,0.5780346820809248
02301,Plymouth County,MA,0,0
02370,Plymouth County,MA,NA,58.95953757225434
02453,Middlesex County,MA,6.770833333333333,NA
02571,Plymouth County,MA,11.979166666666668,NA
02721,Bristol County,MA,NA,2.8901734104046244
48038,Macomb County,MI,NA,3.4682080924855487
48116,Livingston County,MI,NA,50.28901734104046
48170,Wayne County,MI,NA,2.312138728323699
48234,Wayne County,MI,NA,78.03468208092485
48239,Wayne County,MI,5.729166666666666,NA
48336,Oakland County,MI,28.645833333333332,NA
48383,Oakland County,MI,NA,84.39306358381504
48463,Genesee County,MI,NA,98.26589595375722
48838,Montcalm County,MI,27.604166666666668,NA
49021,Eaton County,MI,81.25,NA
49431,Mason County,MI,87.5,NA
49783,Chippewa County,MI,NA,18.497109826589593
49855,Marquette County,MI,NA,14.450867052023122
55313,Wright County,MN,56.25,NA
55410,Hennepin County,MN,83.85416666666666,NA
55417,Hennepin County,MN,NA,48.554913294797686
55432,Anoka County,MN,21.875,NA
38829,Prentiss County,MS,NA,38.15028901734104
39157,Madison County,MS,68.75,NA
39702,Lowndes County,MS,NA,48.554913294797686
39705,Lowndes County,MS,NA,80.34682080924856
63049,Jefferson County,MO,NA,60.69364161849711
63074,St. Louis County,MO,NA,52.601156069364166
63136,St. Louis County,MO,3.6458333333333335,NA
63401,Marion County,MO,NA,49.71098265895954
63670,Ste. Genevieve County,MO,61.458333333333336,NA
64153,Platte County,MO,85.41666666666666,NA
64836,Jasper County,MO,53.645833333333336,NA
65565,Crawford County,MO,93.22916666666666,NA
65810,Greene County,MO,86.97916666666666,NA
68620,Boone County,NE,99.47916666666666,NA
68713,Holt County,NE,NA,100
89134,Clark County,NV,NA,76.878612716763
89502,Washoe County,NV,NA,54.91329479768786
03051,Hillsborough County,NH,NA,17.91907514450867
03820,Strafford County,NH,18.229166666666664,NA
07108,Essex County,NJ,1.0416666666666665,NA
08034,Camden County,NJ,68.22916666666666,NA
08863,Middlesex County,NJ,NA,94.21965317919076
10002,New York County,NY,NA,1.7341040462427744
11228,Kings County,NY,NA,38.72832369942196
11365,Queens County,NY,80.20833333333334,NA
11377,Queens County,NY,NA,13.872832369942195
11590,Nassau County,NY,50.520833333333336,NA
11727,Suffolk County,NY,65.625,NA
12833,Saratoga County,NY,96.35416666666666,NA
13090,Onondaga County,NY,15.104166666666666,NA
13208,Onondaga County,NY,10.416666666666668,NA
13210,Onondaga County,NY,NA,90.17341040462428
13363,Oneida County,NY,96.875,NA
14001,Erie County,NY,NA,81.5028901734104
14450,Monroe County,NY,1.5625,NA
27107,Forsyth County,NC,2.083333333333333,NA
27258,Alamance County,NC,94.27083333333334,NA
27577,Johnston County,NC,NA,30.057803468208093
27587,Wake County,NC,18.75,NA
28079,Union County,NC,52.083333333333336,NA
28092,Lincoln County,NC,21.354166666666664,NA
28115,Iredell County,NC,NA,28.901734104046245
28269,Mecklenburg County,NC,NA,25.43352601156069
28315,Moore County,NC,100,NA
28412,New Hanover County,NC,NA,24.277456647398843
28638,Caldwell County,NC,NA,63.58381502890174
28690,Burke County,NC,55.208333333333336,NA
58701,Ward County,ND,NA,7.514450867052023
58801,Williams County,ND,35.9375,NA
43123,Franklin County,OH,4.166666666666666,NA
43420,Sandusky County,OH,37.5,NA
43452,Ottawa County,OH,46.875,NA
43460,Wood County,OH,79.6875,NA
43615,Lucas County,OH,36.97916666666667,NA
43906,Belmont County,OH,NA,43.93063583815029
43947,Belmont County,OH,98.4375,NA
44011,Lorain County,OH,25.520833333333332,NA
44012,Lorain County,OH,NA,5.780346820809249
44039,Lorain County,OH,4.6875,NA
44146,Cuyahoga County,OH,NA,1.1560693641618496
44212,Medina County,OH,NA,22.54335260115607
44253,Medina County,OH,NA,99.42196531791907
44310,Summit County,OH,NA,20.809248554913296
44511,Mahoning County,OH,22.395833333333336,NA
44512,Mahoning County,OH,8.854166666666668,NA
44622,Tuscarawas County,OH,30.729166666666668,NA
44811,Sandusky County,OH,27.083333333333332,NA
45044,Butler County,OH,NA,10.982658959537572
45133,Highland County,OH,NA,19.07514450867052
45205,Hamilton County,OH,19.270833333333336,NA
45236,Hamilton County,OH,89.0625,NA
45373,Miami County,OH,NA,10.404624277456648
45601,Ross County,OH,0.5208333333333333,NA
73030,Murray County,OK,NA,85.54913294797689
73064,Canadian County,OK,NA,41.61849710982659
73069,Cleveland County,OK,86.45833333333334,NA
73077,Noble County,OK,NA,83.23699421965318
73112,Oklahoma County,OK,70.83333333333334,NA
73120,Oklahoma County,OK,44.27083333333333,NA
73446,Marshall County,OK,NA,89.01734104046243
73662,Beckham County,OK,95.3125,NA
74055,Tulsa County,OK,54.6875,NA
74501,Pittsburg County,OK,54.166666666666664,NA
97266,Multnomah County,OR,67.1875,NA
97303,Marion County,OR,43.22916666666667,NA
97367,Lincoln County,OR,89.58333333333334,NA
97478,Lane County,OR,NA,43.35260115606936
97487,Lane County,OR,98.95833333333334,NA
15220,Allegheny County,PA,NA,69.36416184971098
15853,Elk County,PA,NA,92.48554913294798
16201,Armstrong County,PA,NA,9.248554913294797
16735,McKean County,PA,95.83333333333334,NA
17112,Dauphin County,PA,NA,4.624277456647398
17201,Franklin County,PA,9.375,NA
17363,York County,PA,NA,64.16184971098265
17404,York County,PA,NA,11.560693641618498
17522,Lancaster County,PA,NA,39.884393063583815
17603,Lancaster County,PA,35.41666666666667,NA
17872,Northumberland County,PA,42.1875,NA
18052,Lehigh County,PA,17.708333333333336,NA
18058,Monroe County,PA,90.625,NA
19148,Philadelphia County,PA,67.70833333333334,NA
19365,Chester County,PA,97.39583333333334,NA
19406,Montgomery County,PA,48.95833333333333,NA
19464,Montgomery County,PA,2.604166666666667,NA
02908,Providence County,RI,82.29166666666666,NA
29102,Clarendon County,SC,56.770833333333336,NA
29379,Union County,SC,NA,36.99421965317919
29388,Spartanburg County,SC,NA,77.45664739884393
29412,Charleston County,SC,NA,19.653179190751445
29414,Charleston County,SC,29.166666666666668,NA
29651,Greenville County,SC,NA,12.138728323699421
29702,Cherokee County,SC,76.04166666666666,NA
37160,Bedford County,TN,17.1875,NA
37303,McMinn County,TN,20.3125,NA
37323,Bradley County,TN,NA,50.86705202312138
37327,Sequatchie County,TN,43.75,NA
37363,Hamilton County,TN,42.70833333333333,NA
37367,Bledsoe County,TN,66.14583333333334,NA
37370,McMinn County,TN,NA,88.4393063583815
37412,Hamilton County,TN,NA,57.80346820809249
37801,Blount County,TN,14.0625,NA
37804,Blount County,TN,NA,17.341040462427745
37912,Knox County,TN,NA,54.91329479768786
37920,Knox County,TN,60.9375,NA
38018,Shelby County,TN,69.27083333333334,NA
38320,Benton County,TN,75,NA
38462,Lewis County,TN,NA,76.30057803468208
75041,Dallas County,TX,84.89583333333334,NA
75062,Dallas County,TX,NA,30.63583815028902
75098,Collin County,TX,19.791666666666664,NA
75110,Navarro County,TX,NA,73.98843930635837
75146,Dallas County,TX,NA,59.53757225433526
75216,Dallas County,TX,NA,8.670520231213873
75217,Dallas County,TX,NA,33.52601156069364
75225,Dallas County,TX,NA,56.06936416184971
75501,Bowie County,TX,26.5625,NA
75654,Rusk County,TX,NA,65.89595375722543
75702,Smith County,TX,38.02083333333333,NA
75844,Houston County,TX,94.79166666666666,NA
75901,Angelina County,TX,NA,34.104046242774565
76021,Tarrant County,TX,34.375,NA
76050,Johnson County,TX,83.33333333333334,NA
76208,Denton County,TX,NA,46.24277456647399
77346,Harris County,TX,55.729166666666664,NA
77517,Galveston County,TX,85.41666666666666,NA
77536,Harris County,TX,NA,34.68208092485549
77642,Jefferson County,TX,NA,80.92485549132948
77657,Hardin County,TX,58.333333333333336,NA
78613,Williamson County,TX,NA,16.184971098265898
79110,Randall County,TX,NA,82.65895953757226
79549,Scurry County,TX,NA,39.30635838150289
79603,Taylor County,TX,24.479166666666664,NA
79849,El Paso County,TX,92.1875,93.0635838150289
79915,El Paso County,TX,NA,52.02312138728323
20148,Loudoun County,VA,59.375,NA
22003,Fairfax County,VA,25,NA
22206,Arlington County,VA,NA,91.90751445086705
22551,Spotsylvania County,VA,63.020833333333336,NA
23005,Hanover County,VA,NA,72.25433526011561
23229,Henrico County,VA,69.79166666666666,NA
23237,Chesterfield County,VA,51.5625,NA
23503,Norfolk city,VA,NA,31.213872832369944
23602,Newport News city,VA,23.958333333333336,NA
23847,Greensville County,VA,72.39583333333334,NA
24175,Botetourt County,VA,NA,87.861271676300575
24630,Tazewell County,VA,NA,71.67630057803468
98006,King County,WA,58.854166666666664,NA
98055,King County,WA,NA,65.89595375722543
98532,Lewis County,WA,NA,58.38150289017341
98840,Okanogan County,WA,NA,97.10982658959537
98848,Grant County,WA,NA,78.61271676300578
98901,Yakima County,WA,NA,44.50867052023121
98944,Yakima County,WA,59.895833333333336,NA
20032,District of Columbia,DC,NA,20.23121387283237
25570,Wayne County,WV,NA,87.28323699421965
26431,Harrison County,WV,NA,68.20809248554913
53005,Waukesha County,WI,41.14583333333333,NA
53024,Ozaukee County,WI,NA,56.64739884393064
53051,Waukesha County,WI,45.3125,NA
53154,Milwaukee County,WI,NA,37.57225433526011
53158,Kenosha County,WI,NA,26.589595375722542
53206,Milwaukee County,WI,7.291666666666667,NA
53219,Milwaukee County,WI,NA,40.46242774566474
53704,Dane County,WI,9.895833333333332,NA
54311,Brown County,WI,73.4375,NA
