ZipCode,county,state,Youth,Pediatric,Adult
35020,Jefferson County,AL,NA,33.532934131736525,NA
35131,St. Clair County,AL,NA,81.73652694610777,NA
35210,Jefferson County,AL,NA,NA,59.610027855153206
35215,Jefferson County,AL,6.282722513089005,56.287425149700596,NA
35242,Shelby County,AL,62.82722513089005,NA,NA
35501,Walker County,AL,86.38743455497382,NA,NA
35672,Lawrence County,AL,NA,94.311377245509,NA
35802,Madison County,AL,NA,NA,57.66016713091921
35805,Madison County,AL,NA,33.83233532934132,NA
35907,Etowah County,AL,73.29842931937172,NA,NA
35976,Marshall County,AL,NA,55.38922155688623,NA
36107,Montgomery County,AL,NA,71.55688622754491,NA
36117,Montgomery County,AL,NA,NA,29.38718662952646
36271,Calhoun County,AL,81.41361256544502,NA,NA
36420,Covington County,AL,NA,NA,47.21448467966574
36502,Escambia County,AL,33.246073298429316,NA,NA
36541,Mobile County,AL,NA,NA,69.35933147632312
36608,Mobile County,AL,22.774869109947645,NA,NA
36703,Dallas County,AL,NA,NA,52.92479108635098
36786,Perry County,AL,NA,NA,96.23955431754875
99503,Anchorage Municipality,AK,56.54450261780105,NA,NA
85022,Maricopa County,AZ,NA,NA,18.105849582172702
85033,Maricopa County,AZ,NA,NA,14.902506963788301
85051,Maricopa County,AZ,NA,NA,96.65738161559888
85201,Maricopa County,AZ,NA,23.053892215568865,NA
85203,Maricopa County,AZ,NA,NA,31.894150417827298
85206,Maricopa County,AZ,NA,NA,39.693593314763234
85210,Maricopa County,AZ,NA,48.50299401197605,NA
85284,Maricopa County,AZ,36.64921465968586,NA,NA
85308,Maricopa County,AZ,11.780104712041885,NA,NA
85365,Yuma County,AZ,NA,64.67065868263472,NA
85546,Graham County,AZ,NA,NA,68.52367688022284
85711,Pima County,AZ,NA,NA,9.749303621169917
85719,Pima County,AZ,25.654450261780106,NA,NA
85730,Pima County,AZ,24.60732984293194,NA,NA
85941,Apache County,AZ,NA,NA,98.88579387186628
86510,Navajo County,AZ,NA,NA,72.84122562674095
71603,Jefferson County,AR,51.047120418848166,NA,NA
71742,Dallas County,AR,89.52879581151832,NA,NA
72019,Saline County,AR,85.07853403141361,NA,NA
72104,Hot Spring County,AR,85.34031413612566,NA,NA
72114,Pulaski County,AR,82.98429319371728,NA,NA
72143,White County,AR,50.26178010471204,NA,NA
72704,Washington County,AR,73.03664921465969,NA,NA
90025,Los Angeles County,CA,NA,NA,49.86072423398329
90041,Los Angeles County,CA,NA,NA,83.42618384401113
90504,Los Angeles County,CA,NA,NA,91.64345403899722
90606,Los Angeles County,CA,56.02094240837696,NA,NA
90660,Los Angeles County,CA,NA,NA,25.348189415041784
90808,Los Angeles County,CA,85.6020942408377,NA,NA
91406,Los Angeles County,CA,NA,NA,45.96100278551532
91711,Los Angeles County,CA,73.56020942408377,NA,NA
91746,Los Angeles County,CA,NA,NA,65.87743732590529
92083,San Diego County,CA,NA,NA,53.2033426183844
92123,San Diego County,CA,26.701570680628272,NA,NA
92506,Riverside County,CA,NA,NA,62.39554317548747
92509,Riverside County,CA,NA,NA,20.055710306406684
92532,Riverside County,CA,NA,NA,59.888579387186624
92570,Riverside County,CA,40.83769633507853,NA,NA
92571,Riverside County,CA,NA,NA,35.65459610027855
92592,Riverside County,CA,7.591623036649215,NA,NA
92647,Orange County,CA,NA,NA,18.94150417827298
92883,Riverside County,CA,90.31413612565446,NA,NA
93003,Ventura County,CA,NA,NA,14.206128133704734
93010,Ventura County,CA,NA,NA,29.805013927576603
93230,Kings County,CA,69.10994764397905,NA,NA
93277,Tulare County,CA,NA,43.11377245508982,NA
93304,Kern County,CA,73.82198952879581,NA,NA
93308,Kern County,CA,7.853403141361256,NA,NA
93536,Los Angeles County,CA,NA,NA,64.48467966573817
93725,Fresno County,CA,NA,54.49101796407185,NA
94061,San Mateo County,CA,NA,NA,46.93593314763231
94102,San Francisco County,CA,NA,NA,45.26462395543175
94130,San Francisco County,CA,NA,NA,96.93593314763231
94131,San Francisco County,CA,66.49214659685863,NA,NA
94303,San Mateo County,CA,NA,NA,24.512534818941504
94507,Contra Costa County,CA,NA,NA,84.54038997214485
94521,Contra Costa County,CA,NA,NA,50.13927576601671
94561,Contra Costa County,CA,23.82198952879581,NA,NA
94577,Alameda County,CA,19.895287958115183,NA,NA
94605,Alameda County,CA,NA,15.568862275449103,NA
94607,Alameda County,CA,NA,29.34131736526946,NA
95726,El Dorado County,CA,70.15706806282722,NA,NA
95864,Sacramento County,CA,54.45026178010471,NA,NA
95926,Butte County,CA,13.089005235602095,NA,NA
95954,Butte County,CA,67.80104712041884,NA,NA
96003,Shasta County,CA,NA,NA,38.16155988857939
80011,Arapahoe County,CO,87.17277486910994,NA,NA
80013,Arapahoe County,CO,41.09947643979058,NA,NA
80016,Arapahoe County,CO,NA,NA,19.498607242339833
80211,Denver County,CO,NA,NA,72.56267409470752
80224,Denver County,CO,NA,NA,75.90529247910864
80301,Boulder County,CO,42.14659685863874,NA,NA
80543,Weld County,CO,NA,NA,89.97214484679665
80807,Kit Carson County,CO,NA,92.21556886227546,NA
80915,El Paso County,CO,NA,NA,56.40668523676881
81004,Pueblo County,CO,NA,NA,50.69637883008357
81101,Alamosa County,CO,NA,NA,38.022284122562674
06010,Hartford County,CT,NA,NA,26.18384401114206
06019,Hartford County,CT,NA,NA,85.23676880222841
06066,Tolland County,CT,NA,NA,16.434540389972145
06106,Hartford County,CT,NA,12.275449101796406,NA
06118,Hartford County,CT,NA,NA,21.448467966573816
06239,Windham County,CT,NA,NA,31.615598885793872
06405,New Haven County,CT,69.63350785340315,56.58682634730538,NA
06416,Middlesex County,CT,83.50785340314137,NA,NA
06451,New Haven County,CT,NA,38.32335329341318,NA
06514,New Haven County,CT,NA,NA,31.058495821727018
06515,New Haven County,CT,NA,54.79041916167665,NA
06517,New Haven County,CT,NA,NA,68.66295264623955
06604,Fairfield County,CT,30.89005235602094,NA,NA
06605,Fairfield County,CT,NA,NA,30.08356545961003
06607,Fairfield County,CT,NA,NA,72.28412256267409
06608,Fairfield County,CT,NA,54.191616766467064,NA
06705,New Haven County,CT,NA,NA,19.77715877437326
06770,New Haven County,CT,NA,NA,20.61281337047354
06790,Litchfield County,CT,NA,NA,70.47353760445682
06795,Litchfield County,CT,NA,NA,74.93036211699165
06801,Fairfield County,CT,NA,NA,60.306406685236766
19701,New Castle County,DE,50,NA,23.53760445682451
19711,New Castle County,DE,NA,NA,55.013927576601674
19713,New Castle County,DE,NA,NA,76.46239554317549
19720,New Castle County,DE,NA,15.868263473053892,3.3426183844011144
19801,New Castle County,DE,NA,NA,60.58495821727019
19805,New Castle County,DE,2.6178010471204187,NA,NA
19806,New Castle County,DE,NA,NA,99.72144846796658
19808,New Castle County,DE,NA,NA,19.35933147632312
19963,Sussex County,DE,NA,NA,71.3091922005571
19973,Sussex County,DE,NA,NA,14.484679665738161
32043,Clay County,FL,78.27225130890052,NA,NA
32086,St. Johns County,FL,NA,75.74850299401199,NA
32117,Volusia County,FL,NA,77.54491017964071,57.10306406685237
32129,Volusia County,FL,NA,60.778443113772454,NA
32164,Flagler County,FL,NA,23.652694610778443,NA
32277,Duval County,FL,79.05759162303664,NA,NA
32303,Leon County,FL,NA,69.16167664670658,NA
32305,Leon County,FL,NA,62.5748502994012,NA
32401,Bay County,FL,NA,70.65868263473054,NA
32405,Bay County,FL,NA,39.221556886227546,NA
32425,Holmes County,FL,NA,NA,47.49303621169916
32431,Jackson County,FL,NA,81.73652694610777,NA
32433,Walton County,FL,NA,NA,51.11420612813371
32501,Escambia County,FL,NA,NA,81.33704735376045
32503,Escambia County,FL,NA,NA,18.52367688022284
32505,Escambia County,FL,NA,20.65868263473054,NA
32507,Escambia County,FL,NA,98.20359281437125,NA
32606,Alachua County,FL,29.581151832460733,NA,NA
32725,Volusia County,FL,NA,41.01796407185629,NA
32726,Lake County,FL,NA,NA,80.22284122562674
32738,Volusia County,FL,NA,49.40119760479042,72.42339832869081
32763,Volusia County,FL,NA,NA,74.5125348189415
32765,Seminole County,FL,NA,68.562874251497007,NA
32766,Seminole County,FL,87.43455497382199,NA,NA
32773,Seminole County,FL,NA,42.21556886227545,43.03621169916435
32803,Orange County,FL,NA,NA,63.64902506963789
32808,Orange County,FL,15.968586387434556,NA,NA
32817,Orange County,FL,NA,40.41916167664671,NA
32821,Orange County,FL,NA,NA,72.00557103064067
32824,Orange County,FL,NA,NA,37.32590529247911
32825,Orange County,FL,NA,19.46107784431138,NA
32829,Orange County,FL,NA,71.55688622754491,NA
33009,Broward County,FL,NA,45.808383233532936,NA
33012,Miami-Dade County,FL,NA,NA,38.71866295264624
33026,Broward County,FL,76.96335078534031,NA,NA
33054,Miami-Dade County,FL,NA,17.365269461077844,NA
33128,Miami-Dade County,FL,NA,NA,91.36490250696379
33136,Miami-Dade County,FL,NA,NA,44.28969359331476
33147,Miami-Dade County,FL,NA,10.479041916167663,NA
33155,Miami-Dade County,FL,NA,NA,65.18105849582173
33324,Broward County,FL,NA,45.808383233532936,NA
33410,Palm Beach County,FL,NA,NA,94.01114206128133
33415,Palm Beach County,FL,NA,16.46706586826347,NA
33511,Hillsborough County,FL,NA,41.91616766467065,NA
33541,Pasco County,FL,NA,79.34131736526946,NA
33614,Hillsborough County,FL,NA,NA,58.21727019498607
33618,Hillsborough County,FL,NA,84.73053892215569,NA
33701,Pinellas County,FL,NA,NA,41.92200557103064
33765,Pinellas County,FL,NA,45.209580838323355,NA
33782,Pinellas County,FL,NA,NA,78.96935933147631
33813,Polk County,FL,28.79581151832461,NA,NA
33868,Polk County,FL,NA,NA,81.75487465181058
33907,Lee County,FL,NA,NA,42.4791086350975
33916,Lee County,FL,NA,NA,33.28690807799443
33919,Lee County,FL,26.17801047120419,NA,NA
33971,Lee County,FL,NA,NA,49.58217270194986
34120,Collier County,FL,NA,NA,58.63509749303621
34202,Manatee County,FL,58.37696335078534,NA,NA
34234,Sarasota County,FL,NA,34.4311377245509,NA
34242,Sarasota County,FL,89.00523560209425,NA,NA
34286,Sarasota County,FL,NA,51.49700598802395,NA
34287,Sarasota County,FL,44.24083769633508,NA,NA
34480,Marion County,FL,NA,NA,51.67130919220055
34491,Marion County,FL,40.575916230366495,NA,NA
34668,Pasco County,FL,NA,25.149700598802394,12.256267409470752
34689,Pinellas County,FL,NA,NA,50.27855153203342
34951,St. Lucie County,FL,NA,NA,73.81615598885793
34952,St. Lucie County,FL,NA,61.97604790419161,NA
34997,Martin County,FL,NA,NA,26.6016713091922
30024,Gwinnett County,GA,11.518324607329843,NA,NA
30034,DeKalb County,GA,NA,NA,26.880222841225628
30046,Gwinnett County,GA,NA,36.227544910179645,NA
30060,Cobb County,GA,NA,34.13173652694611,NA
30064,Cobb County,GA,NA,NA,75.34818941504177
30080,Cobb County,GA,NA,79.64071856287424,NA
30125,Polk County,GA,NA,NA,32.31197771587744
30315,Fulton County,GA,NA,NA,26.740947075208915
30331,Fulton County,GA,NA,NA,16.15598885793872
30349,Fulton County,GA,NA,NA,8.913649025069638
30504,Hall County,GA,NA,49.700598802395206,NA
30542,Hall County,GA,NA,NA,46.51810584958218
30643,Hart County,GA,NA,79.64071856287424,NA
30656,Walton County,GA,NA,90.41916167664671,NA
30705,Murray County,GA,19.10994764397906,NA,NA
30720,Whitfield County,GA,NA,62.27544910179641,NA
30809,Columbia County,GA,48.952879581151834,NA,NA
30904,Richmond County,GA,NA,NA,30.501392757660167
30906,Richmond County,GA,NA,NA,54.874651810584965
30907,Columbia County,GA,NA,NA,50.83565459610028
31061,Baldwin County,GA,NA,NA,67.96657381615599
31096,Johnson County,GA,NA,NA,88.44011142061281
31401,Chatham County,GA,NA,61.07784431137725,NA
31520,Glynn County,GA,NA,53.293413173652695,NA
31553,Brantley County,GA,NA,87.72455089820359,NA
31632,Lowndes County,GA,NA,NA,92.61838440111421
31705,Dougherty County,GA,NA,50.29940119760479,NA
31763,Lee County,GA,NA,NA,44.428969359331475
31768,Colquitt County,GA,NA,NA,56.128133704735376
31833,Troup County,GA,NA,77.24550898203593,NA
96720,Hawaii County,HI,32.72251308900523,NA,NA
96727,Hawaii County,HI,74.86910994764398,NA,93.31476323119777
96740,Hawaii County,HI,NA,51.19760479041916,NA
83642,Ada County,ID,NA,NA,16.573816155988858
83686,Canyon County,ID,NA,19.760479041916167,NA
83687,Canyon County,ID,37.696335078534034,NA,NA
60007,Cook County,IL,61.25654450261781,NA,NA
60044,Lake County,IL,NA,NA,88.16155988857939
60050,McHenry County,IL,NA,NA,33.844011142061284
60060,Lake County,IL,NA,NA,42.89693593314763
60064,Lake County,IL,NA,85.02994011976048,NA
60076,Cook County,IL,NA,NA,87.1866295264624
60084,Lake County,IL,NA,NA,64.34540389972145
60101,DuPage County,IL,NA,NA,24.37325905292479
60108,DuPage County,IL,62.04188481675392,NA,NA
60115,DeKalb County,IL,NA,NA,35.79387186629526
60120,Kane County,IL,NA,82.63473053892216,NA
60123,Kane County,IL,37.696335078534034,NA,NA
60169,Cook County,IL,NA,91.01796407185628,NA
60193,Cook County,IL,51.30890052356021,NA,NA
60302,Cook County,IL,24.86910994764398,NA,NA
60402,Cook County,IL,NA,NA,69.08077994428969
60411,Cook County,IL,NA,NA,13.231197771587745
60448,Will County,IL,NA,NA,81.47632311977716
60452,Cook County,IL,NA,NA,43.5933147632312
60477,Cook County,IL,47.38219895287958,NA,NA
60506,Kane County,IL,NA,72.45508982035929,NA
60523,DuPage County,IL,65.44502617801047,NA,NA
60546,Cook County,IL,90.83769633507853,NA,NA
60564,Will County,IL,17.277486910994764,NA,NA
60607,Cook County,IL,NA,NA,68.24512534818942
60609,Cook County,IL,NA,NA,32.45125348189415
60612,Cook County,IL,NA,79.64071856287424,68.94150417827298
60613,Cook County,IL,NA,NA,24.79108635097493
60616,Cook County,IL,NA,88.32335329341318,NA
60617,Cook County,IL,NA,75.74850299401199,7.381615598885793
60622,Cook County,IL,NA,NA,32.17270194986072
60623,Cook County,IL,NA,NA,7.520891364902507
60625,Cook County,IL,NA,78.44311377245509,NA
60626,Cook County,IL,NA,96.40718562874252,17.96657381615599
60629,Cook County,IL,41.8848167539267,NA,6.545961002785515
60631,Cook County,IL,42.67015706806283,NA,NA
60634,Cook County,IL,50.78534031413613,NA,NA
60637,Cook County,IL,19.63350785340314,NA,NA
60639,Cook County,IL,NA,NA,10.445682451253482
60640,Cook County,IL,NA,NA,29.526462395543174
60641,Cook County,IL,NA,46.706586826347305,NA
60644,Cook County,IL,NA,NA,8.774373259052924
60646,Cook County,IL,NA,NA,43.73259052924791
60647,Cook County,IL,9.162303664921465,NA,NA
60649,Cook County,IL,NA,85.02994011976048,NA
60651,Cook County,IL,NA,NA,29.108635097493035
60656,Cook County,IL,78.53403141361257,NA,NA
60659,Cook County,IL,NA,44.61077844311377,NA
60714,Cook County,IL,NA,NA,64.76323119777159
60804,Cook County,IL,22.5130890052356,NA,NA
61101,Winnebago County,IL,NA,NA,42.20055710306407
61102,Winnebago County,IL,63.61256544502618,NA,NA
61401,Knox County,IL,NA,NA,52.64623955431755
61866,Champaign County,IL,NA,NA,63.231197771587745
62203,St. Clair County,IL,NA,NA,79.94428969359332
62206,St. Clair County,IL,NA,NA,79.52646239554318
62236,Monroe County,IL,NA,NA,93.17548746518106
62471,Fayette County,IL,NA,NA,79.66573816155989
62557,Christian County,IL,NA,96.40718562874252,NA
62626,Macoupin County,IL,NA,NA,85.0974930362117
62644,Mason County,IL,NA,NA,98.46796657381616
62650,Morgan County,IL,NA,NA,70.75208913649024
62801,Marion County,IL,NA,NA,44.70752089136491
62812,Franklin County,IL,NA,NA,69.91643454038997
62882,Marion County,IL,NA,NA,100
46011,Madison County,IN,NA,NA,85.65459610027855
46012,Madison County,IN,NA,NA,73.25905292479109
46016,Madison County,IN,NA,NA,38.85793871866296
46017,Madison County,IN,NA,NA,95.82172701949861
46036,Madison County,IN,NA,NA,74.79108635097494
46041,Clinton County,IN,NA,88.32335329341318,NA
46112,Hendricks County,IN,81.41361256544502,NA,NA
46201,Marion County,IN,NA,35.62874251497006,NA
46203,Marion County,IN,NA,NA,30.362116991643457
46227,Marion County,IN,NA,NA,10.724233983286908
46241,Marion County,IN,NA,NA,46.65738161559889
46303,Lake County,IN,35.86387434554974,NA,NA
46307,Lake County,IN,17.539267015706805,NA,NA
46312,Lake County,IN,NA,29.94011976047904,NA
46322,Lake County,IN,NA,NA,83.56545961002786
46405,Lake County,IN,NA,97.30538922155688,NA
46410,Lake County,IN,55.497382198952884,NA,NA
46514,Elkhart County,IN,47.12041884816754,NA,NA
46516,Elkhart County,IN,NA,NA,15.598885793871867
46580,Kosciusko County,IN,NA,NA,92.06128133704735
46619,St. Joseph County,IN,NA,NA,86.49025069637884
46725,Whitley County,IN,NA,32.035928143712574,NA
46750,Huntington County,IN,NA,NA,69.63788300835655
46774,Allen County,IN,NA,62.5748502994012,NA
46825,Allen County,IN,NA,NA,33.00835654596101
46901,Howard County,IN,NA,NA,2.2284122562674096
46952,Grant County,IN,NA,NA,82.59052924791087
46953,Grant County,IN,NA,NA,69.22005571030641
46975,Fulton County,IN,NA,NA,45.543175487465184
47025,Dearborn County,IN,NA,68.26347305389223,NA
47102,Scott County,IN,NA,84.13173652694611,NA
47130,Clark County,IN,NA,NA,31.47632311977716
47150,Floyd County,IN,NA,NA,49.721448467966574
47201,Bartholomew County,IN,14.397905759162304,NA,NA
47240,Decatur County,IN,24.345549738219894,NA,NA
47331,Fayette County,IN,46.07329842931937,NA,NA
47362,Henry County,IN,NA,NA,71.1699164345404
47371,Jay County,IN,NA,33.23353293413174,NA
47374,Wayne County,IN,NA,NA,36.07242339832869
47404,Monroe County,IN,NA,NA,76.74094707520891
47501,Daviess County,IN,NA,NA,32.03342618384401
47520,Perry County,IN,NA,NA,97.7715877437326
47630,Warrick County,IN,81.15183246073299,NA,NA
47714,Vanderburgh County,IN,54.18848167539267,NA,13.649025069637883
47805,Vigo County,IN,97.12041884816755,NA,NA
47834,Clay County,IN,NA,NA,28.969359331476323
47904,Tippecanoe County,IN,NA,NA,74.09470752089136
47918,Fountain County,IN,NA,NA,76.88022284122563
50158,Marshall County,IA,NA,57.48502994011976,NA
50313,Polk County,IA,39.26701570680628,NA,NA
50322,Polk County,IA,NA,58.38323353293413,NA
50401,Cerro Gordo County,IA,NA,16.16766467065868,NA
50428,Cerro Gordo County,IA,59.424083769633505,NA,70.89136490250696
50436,Winnebago County,IA,NA,NA,99.86072423398329
50613,Black Hawk County,IA,33.7696335078534,NA,NA
50701,Black Hawk County,IA,74.3455497382199,NA,NA
51012,Cherokee County,IA,NA,NA,88.3008356545961
51503,Pottawattamie County,IA,15.706806282722512,NA,29.247910863509752
52001,Dubuque County,IA,NA,NA,14.066852367688023
52241,Johnson County,IA,88.21989528795811,NA,NA
52310,Jones County,IA,84.81675392670157,NA,NA
52402,Linn County,IA,NA,61.377245508982035,NA
52601,Des Moines County,IA,52.879581151832454,NA,62.95264623955432
66085,Johnson County,KS,84.29319371727748,NA,NA
66219,Johnson County,KS,95.28795811518324,NA,NA
66609,Shawnee County,KS,NA,NA,86.90807799442896
66713,Cherokee County,KS,97.64397905759162,NA,NA
67216,Sedgwick County,KS,34.55497382198953,NA,NA
67217,Sedgwick County,KS,NA,NA,46.65738161559889
40059,Jefferson County,KY,NA,86.52694610778443,NA
40065,Shelby County,KY,NA,69.46107784431138,NA
40078,Washington County,KY,NA,94.61077844311377,NA
40118,Jefferson County,KY,NA,NA,48.05013927576602
40206,Jefferson County,KY,NA,51.49700598802395,NA
40207,Jefferson County,KY,71.98952879581152,NA,NA
40208,Jefferson County,KY,NA,74.55089820359282,NA
40212,Jefferson County,KY,13.612565445026178,NA,NA
40213,Jefferson County,KY,NA,66.1676646706587,NA
40215,Jefferson County,KY,NA,NA,44.56824512534819
40216,Jefferson County,KY,NA,NA,30.64066852367688
40218,Jefferson County,KY,NA,26.646706586826348,NA
40229,Jefferson County,KY,NA,84.4311377245509,12.395543175487465
40241,Jefferson County,KY,53.141361256544506,NA,89.69359331476323
40272,Jefferson County,KY,NA,57.18562874251497,NA
40291,Jefferson County,KY,NA,NA,43.31476323119777
40337,Montgomery County,KY,NA,83.53293413173652,NA
40502,Fayette County,KY,NA,NA,53.62116991643454
40511,Fayette County,KY,NA,24.251497005988025,NA
40906,Knox County,KY,NA,36.227544910179645,NA
41008,Carroll County,KY,NA,52.69461077844312,NA
41011,Kenton County,KY,NA,NA,38.579387186629525
41015,Kenton County,KY,49.73821989528796,28.143712574850298,NA
41035,Grant County,KY,NA,42.81437125748503,40.389972144846794
41041,Fleming County,KY,NA,65.26946107784431,NA
41042,Boone County,KY,NA,26.34730538922156,NA
41051,Kenton County,KY,NA,49.101796407185624,NA
41071,Campbell County,KY,NA,27.54491017964072,NA
41311,Lee County,KY,NA,93.7125748502994,NA
42301,Daviess County,KY,NA,NA,58.35654596100278
42635,McCreary County,KY,NA,NA,83.70473537604457
42728,Adair County,KY,NA,61.67664670658682,NA
70002,Jefferson Parish,LA,66.2303664921466,NA,NA
70065,Jefferson Parish,LA,17.801047120418847,NA,NA
70127,Orleans Parish,LA,NA,NA,7.7994428969359335
70301,Lafourche Parish,LA,NA,4.790419161676647,NA
70339,Assumption Parish,LA,46.33507853403142,NA,NA
70374,Lafourche Parish,LA,20.157068062827225,NA,NA
70446,Tangipahoa Parish,LA,NA,79.04191616766467,NA
70517,St. Martin Parish,LA,NA,NA,13.09192200557103
70520,Lafayette Parish,LA,2.8795811518324608,NA,NA
70533,Vermilion Parish,LA,NA,22.15568862275449,NA
70535,St. Landry Parish,LA,NA,NA,23.676880222841227
70601,Calcasieu Parish,LA,NA,63.17365269461078,1.8105849582172702
70607,Calcasieu Parish,LA,NA,14.67065868263473,NA
70669,Calcasieu Parish,LA,58.90052356020943,88.02395209580838,NA
70806,East Baton Rouge Parish,LA,NA,76.64670658682635,NA
70810,East Baton Rouge Parish,LA,NA,22.15568862275449,NA
71006,Bossier Parish,LA,NA,NA,70.19498607242339
71037,Bossier Parish,LA,6.806282722513089,18.562874251497004,NA
71108,Caddo Parish,LA,NA,4.191616766467066,NA
71111,Bossier Parish,LA,3.1413612565445024,4.491017964071856,5.710306406685237
71119,Caddo Parish,LA,NA,28.443113772455092,NA
71203,Ouachita Parish,LA,NA,NA,86.0724233983287
71302,Rapides Parish,LA,NA,NA,50.974930362116986
71351,Avoyelles Parish,LA,NA,7.48502994011976,NA
71360,Rapides Parish,LA,NA,14.37125748502994,NA
03906,York County,ME,99.21465968586386,NA,NA
04009,Cumberland County,ME,NA,67.66467065868264,NA
04073,York County,ME,64.3979057591623,NA,NA
04092,Cumberland County,ME,NA,NA,90.94707520891365
04101,Cumberland County,ME,NA,NA,94.84679665738162
04102,Cumberland County,ME,87.95811518324608,NA,NA
04103,Cumberland County,ME,NA,NA,47.910863509749305
04240,Androscoggin County,ME,15.44502617801047,NA,NA
04268,Oxford County,ME,90.0523560209424,NA,NA
04280,Androscoggin County,ME,NA,NA,91.22562674094708
04330,Kennebec County,ME,NA,NA,23.119777158774372
04401,Penobscot County,ME,53.92670157068062,NA,37.88300835654596
04462,Penobscot County,ME,NA,NA,75.06963788300835
04736,Aroostook County,ME,83.7696335078534,NA,NA
04915,Waldo County,ME,NA,NA,62.8133704735376
04938,Franklin County,ME,NA,55.98802395209581,NA
04976,Somerset County,ME,23.036649214659686,NA,NA
20723,Howard County,MD,87.69633507853402,NA,NA
21046,Howard County,MD,65.44502617801047,NA,NA
21131,Baltimore County,MD,98.95287958115183,NA,NA
21212,Baltimore city,MD,NA,NA,63.370473537604454
21229,Baltimore city,MD,32.19895287958115,NA,NA
21613,Dorchester County,MD,53.141361256544506,NA,NA
21740,Washington County,MD,8.900523560209423,NA,16.991643454038996
21773,Frederick County,MD,NA,NA,94.28969359331477
21801,Wicomico County,MD,54.45026178010471,NA,NA
01069,Hampden County,MA,NA,NA,25.62674094707521
01082,Hampshire County,MA,NA,NA,21.030640668523677
01089,Hampden County,MA,NA,NA,4.596100278551532
01105,Hampden County,MA,NA,NA,30.779944289693596
01119,Hampden County,MA,NA,NA,14.902506963788301
01201,Berkshire County,MA,0.2617801047120419,NA,4.735376044568245
01420,Worcester County,MA,NA,2.694610778443114,3.203342618384401
01464,Middlesex County,MA,98.42931937172776,NA,NA
01510,Worcester County,MA,35.86387434554974,NA,NA
01540,Worcester County,MA,NA,NA,34.958217270194986
01545,Worcester County,MA,NA,NA,15.73816155988858
01550,Worcester County,MA,68.06282722513089,NA,59.749303621169915
01562,Worcester County,MA,NA,NA,92.89693593314763
01566,Worcester County,MA,NA,NA,88.85793871866295
01603,Worcester County,MA,51.57068062827225,NA,NA
01605,Worcester County,MA,NA,NA,1.2534818941504178
01701,Middlesex County,MA,NA,90.71856287425149,NA
01754,Middlesex County,MA,NA,NA,86.35097493036211
01756,Worcester County,MA,NA,NA,98.18941504178274
01803,Middlesex County,MA,NA,NA,18.245125348189415
01832,Essex County,MA,NA,NA,16.852367688022284
01845,Essex County,MA,NA,NA,23.81615598885794
01852,Middlesex County,MA,NA,2.095808383233533,48.8857938718663
01867,Middlesex County,MA,52.617801047120416,NA,NA
01880,Middlesex County,MA,NA,NA,7.242339832869081
01915,Essex County,MA,NA,NA,1.9498607242339834
02030,Norfolk County,MA,79.84293193717278,NA,NA
02118,Suffolk County,MA,NA,NA,64.06685236768801
02129,Suffolk County,MA,NA,NA,4.03899721448468
02136,Suffolk County,MA,NA,1.7964071856287425,12.952646239554316
02150,Suffolk County,MA,NA,NA,0.2785515320334262
02151,Suffolk County,MA,NA,NA,1.532033426183844
02155,Middlesex County,MA,NA,NA,35.37604456824512
02301,Plymouth County,MA,1.0471204188481675,NA,NA
02339,Plymouth County,MA,NA,NA,96.7966573816156
02351,Plymouth County,MA,NA,NA,14.902506963788301
02368,Norfolk County,MA,NA,NA,36.908077994428965
02382,Plymouth County,MA,NA,NA,22.701949860724234
02453,Middlesex County,MA,NA,NA,10.167130919220057
02476,Middlesex County,MA,NA,NA,94.42896935933148
02601,Barnstable County,MA,NA,NA,5.013927576601671
02657,Barnstable County,MA,NA,64.67065868263472,NA
02720,Bristol County,MA,NA,NA,0
02723,Bristol County,MA,NA,24.550898203592812,NA
02745,Bristol County,MA,NA,NA,76.32311977715878
02748,Bristol County,MA,NA,NA,61.83844011142061
02777,Bristol County,MA,2.356020942408377,NA,NA
48036,Macomb County,MI,NA,41.31736526946108,NA
48071,Oakland County,MI,NA,75.44910179640718,NA
48074,St. Clair County,MI,75.13089005235602,NA,NA
48091,Macomb County,MI,NA,21.55688622754491,NA
48097,St. Clair County,MI,92.93193717277487,NA,NA
48144,Monroe County,MI,NA,NA,80.22284122562674
48168,Wayne County,MI,76.43979057591623,NA,NA
48185,Wayne County,MI,NA,NA,21.866295264623954
48198,Washtenaw County,MI,10.471204188481675,NA,NA
48225,Wayne County,MI,NA,NA,34.12256267409471
48312,Macomb County,MI,NA,NA,21.309192200557103
48336,Oakland County,MI,25.13089005235602,NA,NA
48638,Saginaw County,MI,NA,72.45508982035929,NA
48661,Ogemaw County,MI,45.0261780104712,NA,NA
48768,Tuscola County,MI,NA,NA,48.18941504178273
49007,Kalamazoo County,MI,NA,NA,34.26183844011142
49047,Cass County,MI,43.19371727748691,NA,NA
49071,Van Buren County,MI,NA,NA,61.97771587743732
49082,Branch County,MI,NA,89.52095808383234,NA
49646,Kalkaska County,MI,65.44502617801047,NA,NA
55008,Isanti County,MN,NA,NA,62.39554317548747
55024,Dakota County,MN,NA,NA,68.38440111420613
55063,Pine County,MN,NA,NA,84.54038997214485
55104,Ramsey County,MN,NA,NA,80.64066852367688
55107,Ramsey County,MN,NA,NA,81.89415041782729
55109,Ramsey County,MN,NA,NA,39.136490250696376
55110,Ramsey County,MN,NA,NA,43.17548746518106
55112,Ramsey County,MN,NA,NA,36.211699164345404
55118,Dakota County,MN,NA,NA,79.24791086350976
55121,Dakota County,MN,NA,NA,88.99721448467966
55122,Dakota County,MN,84.29319371727748,NA,NA
55129,Washington County,MN,NA,NA,63.92757660167131
55303,Anoka County,MN,5.2356020942408374,NA,68.10584958217271
55321,Wright County,MN,NA,NA,97.49303621169916
55330,Sherburne County,MN,8.115183246073299,NA,NA
55347,Hennepin County,MN,56.80628272251309,NA,NA
55355,Meeker County,MN,NA,NA,87.60445682451254
55403,Hennepin County,MN,NA,NA,19.77715877437326
55404,Hennepin County,MN,NA,NA,0.9749303621169917
55406,Hennepin County,MN,NA,NA,83.28690807799443
55407,Hennepin County,MN,NA,3.293413173652695,NA
55412,Hennepin County,MN,NA,31.437125748502993,NA
55415,Hennepin County,MN,NA,NA,80.77994428969359
55416,Hennepin County,MN,NA,NA,37.1866295264624
55417,Hennepin County,MN,NA,26.94610778443114,NA
55429,Hennepin County,MN,NA,NA,70.05571030640668
55431,Hennepin County,MN,NA,NA,53.34261838440112
55437,Hennepin County,MN,NA,NA,89.41504178272982
55446,Hennepin County,MN,NA,93.11377245508982,NA
55449,Anoka County,MN,3.664921465968586,NA,NA
55792,St. Louis County,MN,42.14659685863874,NA,NA
55804,St. Louis County,MN,NA,NA,61.00278551532033
55807,St. Louis County,MN,NA,NA,67.68802228412257
55811,St. Louis County,MN,NA,NA,27.019498607242337
55904,Olmsted County,MN,NA,24.850299401197603,NA
55912,Mower County,MN,NA,5.688622754491018,43.45403899721448
55987,Winona County,MN,37.17277486910995,NA,77.57660167130919
56082,Nicollet County,MN,NA,94.91017964071857,NA
56201,Kandiyohi County,MN,74.60732984293193,NA,90.66852367688021
56241,Yellow Medicine County,MN,NA,NA,90.25069637883009
56308,Douglas County,MN,NA,NA,66.29526462395543
56560,Clay County,MN,NA,NA,25.069637883008355
56601,Beltrami County,MN,NA,NA,6.685236768802229
56671,Beltrami County,MN,NA,NA,96.37883008356546
56701,Pennington County,MN,NA,NA,59.19220055710307
39110,Madison County,MS,NA,NA,34.67966573816156
39212,Hinds County,MS,3.926701570680628,8.982035928143713,NA
39345,Newton County,MS,NA,NA,72.14484679665738
39443,Jones County,MS,35.602094240837694,NA,NA
39520,Hancock County,MS,NA,NA,54.456824512534816
39532,Harrison County,MS,14.921465968586386,NA,NA
63017,St. Louis County,MO,39.26701570680628,NA,NA
63031,St. Louis County,MO,NA,73.95209580838323,NA
63034,St. Louis County,MO,NA,72.45508982035929,NA
63074,St. Louis County,MO,NA,NA,52.50696378830083
63132,St. Louis County,MO,NA,76.94610778443113,NA
63136,St. Louis County,MO,NA,9.580838323353294,7.66016713091922
63139,St. Louis city,MO,NA,NA,95.54317548746518
63146,St. Louis County,MO,NA,59.281437125748504,NA
63366,St. Charles County,MO,6.544502617801047,NA,NA
63501,Adair County,MO,NA,NA,60.02785515320335
63650,Iron County,MO,NA,85.02994011976048,NA
63701,Cape Girardeau County,MO,0.7853403141361256,NA,NA
63801,Scott County,MO,NA,NA,77.29805013927576
64106,Jackson County,MO,NA,NA,25.20891364902507
64109,Jackson County,MO,NA,NA,24.930362116991645
64114,Jackson County,MO,NA,55.08982035928144,NA
64118,Clay County,MO,NA,8.08383233532934,NA
64503,Buchanan County,MO,NA,NA,22.14484679665738
64735,Henry County,MO,NA,NA,56.68523676880223
64836,Jasper County,MO,NA,NA,79.10863509749304
64870,Jasper County,MO,NA,NA,38.99721448467967
65202,Boone County,MO,NA,NA,32.86908077994429
65203,Boone County,MO,NA,NA,20.752089136490252
65301,Pettis County,MO,NA,NA,4.456824512534819
65340,Saline County,MO,17.015706806282722,NA,NA
65360,Henry County,MO,NA,NA,78.27298050139275
65401,Phelps County,MO,NA,NA,32.590529247910865
65559,Phelps County,MO,NA,42.21556886227545,NA
65606,Oregon County,MO,NA,NA,88.02228412256268
65608,Douglas County,MO,NA,NA,74.65181058495823
65613,Polk County,MO,NA,NA,94.5682451253482
65616,Taney County,MO,55.497382198952884,NA,NA
65775,Howell County,MO,NA,64.37125748502994,28.690807799442897
59102,Yellowstone County,MT,NA,NA,38.3008356545961
68025,Dodge County,NE,74.08376963350786,NA,NA
68137,Douglas County,NE,86.64921465968587,NA,46.10027855153203
68310,Gage County,NE,NA,NA,77.85515320334262
68801,Hall County,NE,NA,65.26946107784431,NA
68901,Adams County,NE,NA,NA,56.96378830083565
89106,Clark County,NV,NA,NA,67.40947075208913
89703,Carson City,NV,91.62303664921467,NA,NA
03031,Hillsborough County,NH,78.53403141361257,NA,NA
03053,Rockingham County,NH,NA,91.01796407185628,NA
03060,Hillsborough County,NH,NA,14.97005988023952,NA
03062,Hillsborough County,NH,45.287958115183244,NA,NA
03276,Merrimack County,NH,NA,63.47305389221557,NA
03301,Merrimack County,NH,13.874345549738221,NA,NA
03833,Rockingham County,NH,24.083769633507853,NA,33.42618384401114
07011,Passaic County,NJ,NA,32.634730538922156,NA
07017,Essex County,NJ,NA,30.538922155688624,NA
07024,Bergen County,NJ,NA,NA,29.66573816155989
07040,Essex County,NJ,61.78010471204188,NA,NA
07067,Middlesex County,NJ,NA,NA,65.041782729805007
07076,Union County,NJ,NA,92.51497005988024,NA
07080,Middlesex County,NJ,NA,NA,82.03342618384401
07083,Union County,NJ,8.37696335078534,NA,14.623955431754876
07102,Essex County,NJ,51.832460732984295,NA,NA
07104,Essex County,NJ,NA,3.8922155688622757,0.4178272980501393
07105,Essex County,NJ,39.26701570680628,NA,NA
07107,Essex County,NJ,NA,32.33532934131736,NA
07202,Union County,NJ,7.329842931937172,NA,66.57381615598887
07305,Hudson County,NJ,NA,NA,97.63231197771589
07306,Hudson County,NJ,12.30366492146597,NA,NA
07403,Passaic County,NJ,NA,NA,81.19777158774373
07407,Bergen County,NJ,NA,NA,27.85515320334262
07410,Bergen County,NJ,82.72251308900523,NA,NA
07438,Morris County,NJ,97.38219895287958,NA,NA
07446,Bergen County,NJ,NA,NA,62.116991643454035
07450,Bergen County,NJ,77.4869109947644,NA,NA
07461,Sussex County,NJ,NA,18.862275449101794,NA
07501,Passaic County,NJ,NA,0.29940119760479045,NA
07503,Passaic County,NJ,NA,36.82634730538922,NA
07506,Passaic County,NJ,69.3717277486911,NA,NA
07601,Bergen County,NJ,NA,11.377245508982035,NA
07604,Bergen County,NJ,91.36125654450262,NA,NA
07660,Bergen County,NJ,NA,NA,54.59610027855153
07701,Monmouth County,NJ,41.361256544502616,NA,NA
07712,Monmouth County,NJ,15.18324607329843,NA,NA
07726,Monmouth County,NJ,84.03141361256544,NA,NA
07727,Monmouth County,NJ,NA,38.92215568862276,NA
07731,Monmouth County,NJ,26.96335078534031,NA,NA
07735,Monmouth County,NJ,NA,NA,28.830083565459606
07740,Monmouth County,NJ,25.392670157068064,NA,NA
07801,Morris County,NJ,NA,15.269461077844312,NA
07823,Warren County,NJ,NA,NA,55.84958217270195
07834,Morris County,NJ,NA,NA,86.62952646239555
07836,Morris County,NJ,86.12565445026178,NA,NA
07860,Sussex County,NJ,NA,NA,22.98050139275766
07869,Morris County,NJ,NA,NA,80.91922005571031
07871,Sussex County,NJ,NA,NA,98.05013927576601
07874,Sussex County,NJ,NA,NA,84.958217270195
07922,Union County,NJ,94.24083769633508,NA,NA
08015,Burlington County,NJ,NA,NA,13.788300835654596
08021,Camden County,NJ,NA,2.9940119760479043,NA
08034,Camden County,NJ,34.55497382198953,NA,NA
08036,Burlington County,NJ,NA,64.07185628742515,NA
08037,Atlantic County,NJ,NA,NA,81.05849582172702
08046,Burlington County,NJ,NA,13.47305389221557,NA
08050,Ocean County,NJ,NA,91.61676646706587,NA
08054,Burlington County,NJ,NA,NA,20.473537604456823
08059,Camden County,NJ,NA,52.69461077844312,NA
08063,Gloucester County,NJ,96.07329842931938,NA,NA
08078,Camden County,NJ,NA,NA,52.089136490250695
08080,Gloucester County,NJ,NA,78.1437125748503,NA
08085,Gloucester County,NJ,NA,11.377245508982035,NA
08093,Gloucester County,NJ,47.90575916230366,NA,90.5292479108635
08096,Gloucester County,NJ,NA,NA,19.637883008356546
08105,Camden County,NJ,NA,NA,0.8356545961002786
08110,Camden County,NJ,NA,68.562874251497007,NA
08205,Atlantic County,NJ,NA,NA,41.92200557103064
08210,Cape May County,NJ,NA,31.736526946107784,NA
08232,Atlantic County,NJ,37.43455497382199,57.784431137724546,NA
08234,Atlantic County,NJ,18.06282722513089,NA,89.13649025069638
08332,Cumberland County,NJ,NA,60.47904191616767,NA
08360,Cumberland County,NJ,NA,NA,0.5571030640668524
08401,Atlantic County,NJ,NA,NA,11.559888579387186
08527,Ocean County,NJ,13.874345549738221,NA,9.88857938718663
08540,Mercer County,NJ,NA,NA,72.98050139275766
08619,Mercer County,NJ,30.104712041884817,NA,NA
08620,Mercer County,NJ,NA,NA,94.70752089136491
08701,Ocean County,NJ,NA,NA,87.46518105849582
08721,Ocean County,NJ,7.068062827225131,NA,64.9025069637883
08722,Ocean County,NJ,46.596858638743456,NA,NA
08723,Ocean County,NJ,23.56020942408377,NA,39.97214484679666
08731,Ocean County,NJ,NA,NA,79.80501392757661
08734,Ocean County,NJ,NA,NA,72.70194986072424
08742,Ocean County,NJ,28.272251308900525,NA,NA
08753,Ocean County,NJ,4.973821989528796,NA,2.5069637883008355
08755,Ocean County,NJ,34.29319371727749,NA,49.02506963788301
08757,Ocean County,NJ,NA,NA,12.116991643454039
08801,Hunterdon County,NJ,81.41361256544502,NA,NA
08816,Middlesex County,NJ,NA,NA,89.83286908077994
08822,Hunterdon County,NJ,72.77486910994764,NA,NA
08824,Middlesex County,NJ,NA,NA,82.72980501392759
08844,Somerset County,NJ,48.952879581151834,NA,35.515320334261844
08854,Middlesex County,NJ,NA,29.34131736526946,NA
08857,Middlesex County,NJ,69.89528795811518,NA,NA
08863,Middlesex County,NJ,NA,NA,96.10027855153204
08873,Somerset County,NJ,NA,48.80239520958084,NA
08879,Middlesex County,NJ,NA,NA,83.70473537604457
87048,Sandoval County,NM,NA,99.40119760479041,NA
87102,Bernalillo County,NM,NA,NA,18.802228412256266
87105,Bernalillo County,NM,4.18848167539267,NA,60.16713091922006
87108,Bernalillo County,NM,NA,NA,6.963788300835655
87110,Bernalillo County,NM,66.75392670157068,NA,51.25348189415042
87120,Bernalillo County,NM,NA,23.053892215568865,NA
87401,San Juan County,NM,NA,NA,73.67688022284122
87501,Santa Fe County,NM,96.59685863874346,NA,NA
87505,Santa Fe County,NM,NA,NA,49.44289693593314
88007,Doa Ana County,NM,NA,NA,49.30362116991643
88012,Doa Ana County,NM,NA,NA,30.08356545961003
10001,New York County,NY,NA,NA,85.93314763231199
10011,New York County,NY,NA,NA,33.56545961002785
10014,New York County,NY,NA,NA,75.76601671309191
10018,New York County,NY,95.02617801047121,NA,91.78272980501393
10027,New York County,NY,NA,NA,20.194986072423397
10029,New York County,NY,NA,0,NA
10035,New York County,NY,NA,NA,22.00557103064067
10038,New York County,NY,NA,NA,40.807799442896936
10304,Richmond County,NY,NA,NA,71.44846796657382
10305,Richmond County,NY,NA,NA,90.80779944289694
10309,Richmond County,NY,NA,NA,83.98328690807799
10310,Richmond County,NY,30.628272251308903,21.25748502994012,40.52924791086351
10314,Richmond County,NY,89.26701570680629,NA,78.8300835654596
10453,Bronx County,NY,NA,NA,85.37604456824512
10454,Bronx County,NY,NA,NA,41.364902506963794
10455,Bronx County,NY,NA,2.3952095808383236,34.81894150417828
10456,Bronx County,NY,NA,NA,2.785515320334262
10457,Bronx County,NY,NA,NA,6.128133704735376
10458,Bronx County,NY,NA,9.281437125748502,51.949860724233986
10459,Bronx County,NY,93.45549738219894,NA,NA
10467,Bronx County,NY,NA,NA,75.20891364902506
10504,Westchester County,NY,NA,NA,99.025069637883007
10570,Westchester County,NY,NA,NA,96.51810584958217
10573,Westchester County,NY,57.85340314136126,NA,NA
10595,Westchester County,NY,NA,NA,99.44289693593315
10606,Westchester County,NY,NA,NA,99.30362116991644
10701,Westchester County,NY,NA,NA,1.392757660167131
10705,Westchester County,NY,NA,NA,71.72701949860725
10940,Orange County,NY,NA,NA,41.504178272980504
10980,Rockland County,NY,72.25130890052355,NA,NA
11003,Nassau County,NY,82.19895287958116,NA,NA
11103,Queens County,NY,NA,NA,61.55988857938719
11201,Kings County,NY,NA,NA,84.81894150417827
11203,Kings County,NY,NA,26.047904191616766,NA
11204,Kings County,NY,NA,44.31137724550898,NA
11205,Kings County,NY,40.05235602094241,NA,12.534818941504177
11206,Kings County,NY,NA,NA,39.55431754874652
11208,Kings County,NY,NA,NA,0.6963788300835655
11211,Kings County,NY,NA,5.389221556886228,NA
11212,Kings County,NY,NA,39.82035928143712,NA
11214,Kings County,NY,NA,11.077844311377245,NA
11220,Kings County,NY,NA,NA,92.20055710306406
11221,Kings County,NY,2.094240837696335,14.071856287425149,NA
11223,Kings County,NY,NA,29.041916167664674,NA
11224,Kings County,NY,NA,NA,17.548746518105848
11226,Kings County,NY,NA,NA,4.3175487465181055
11229,Kings County,NY,79.84293193717278,NA,NA
11237,Kings County,NY,NA,17.964071856287426,NA
11249,Kings County,NY,77.4869109947644,NA,NA
11366,Queens County,NY,NA,NA,84.40111420612814
11368,Queens County,NY,NA,NA,26.46239554317549
11373,Queens County,NY,NA,NA,37.74373259052925
11377,Queens County,NY,NA,37.72455089820359,NA
11412,Queens County,NY,NA,NA,42.618384401114206
11414,Queens County,NY,NA,NA,65.32033426183844
11419,Queens County,NY,NA,60.17964071856288,NA
11428,Queens County,NY,75.91623036649214,NA,NA
11432,Queens County,NY,NA,NA,22.56267409470752
11434,Queens County,NY,13.350785340314136,6.88622754491018,NA
11545,Nassau County,NY,NA,NA,87.04735376044567
11550,Nassau County,NY,NA,NA,84.26183844011142
11554,Nassau County,NY,43.455497382198956,NA,NA
11563,Nassau County,NY,NA,NA,73.95543175487465
11692,Queens County,NY,59.947643979057595,NA,NA
11703,Suffolk County,NY,NA,87.42514970059881,NA
11717,Suffolk County,NY,NA,5.9880239520958085,NA
11720,Suffolk County,NY,NA,NA,60.863509749303624
11754,Suffolk County,NY,NA,NA,87.3259052924791
11758,Nassau County,NY,62.30366492146597,NA,NA
11798,Suffolk County,NY,NA,66.76646706586826,NA
11934,Suffolk County,NY,NA,NA,89.55431754874652
11951,Suffolk County,NY,60.994764397905755,NA,NA
11967,Suffolk County,NY,NA,NA,28.551532033426184
12009,Albany County,NY,NA,NA,92.33983286908078
12018,Rensselaer County,NY,93.717277486911,NA,NA
12020,Saratoga County,NY,NA,NA,45.40389972144847
12025,Fulton County,NY,NA,NA,95.40389972144847
12078,Fulton County,NY,NA,NA,4.874651810584958
12138,Rensselaer County,NY,NA,NA,94.98607242339833
12180,Rensselaer County,NY,NA,NA,27.158774373259053
12189,Albany County,NY,86.91099476439791,NA,NA
12203,Albany County,NY,79.05759162303664,NA,32.729805013927574
12205,Albany County,NY,89.79057591623037,NA,NA
12208,Albany County,NY,35.07853403141361,NA,53.760445682451255
12209,Albany County,NY,NA,NA,78.13370473537604
12303,Schenectady County,NY,NA,19.760479041916167,NA
12304,Schenectady County,NY,38.21989528795812,NA,75.6267409470752
12401,Ulster County,NY,NA,94.01197604790418,76.04456824512535
12414,Greene County,NY,NA,NA,45.12534818941504
12522,Dutchess County,NY,NA,97.60479041916167,NA
12534,Columbia County,NY,27.225130890052355,NA,NA
12553,Orange County,NY,NA,93.11377245508982,NA
12563,Putnam County,NY,93.97905759162303,NA,NA
12571,Dutchess County,NY,NA,NA,93.7325905292479
12590,Dutchess County,NY,NA,99.7005988023952,NA
12828,Washington County,NY,98.1675392670157,67.36526946107784,NA
12832,Washington County,NY,NA,NA,65.59888579387186
12871,Saratoga County,NY,NA,NA,91.5041782729805
12901,Clinton County,NY,8.638743455497382,NA,NA
12953,Franklin County,NY,30.104712041884817,NA,NA
13031,Onondaga County,NY,NA,81.1377245508982,NA
13032,Madison County,NY,64.13612565445025,NA,NA
13045,Cortland County,NY,1.832460732984293,NA,18.384401114206128
13069,Oswego County,NY,63.35078534031413,NA,57.938718662952645
13074,Oswego County,NY,95.54973821989529,NA,NA
13083,Oswego County,NY,NA,NA,99.58217270194986
13114,Oswego County,NY,70.68062827225131,NA,NA
13126,Oswego County,NY,NA,NA,81.61559888579387
13135,Oswego County,NY,NA,96.10778443113772,NA
13148,Seneca County,NY,91.09947643979058,NA,NA
13203,Onondaga County,NY,96.33507853403141,NA,17.68802228412256
13206,Onondaga County,NY,82.4607329842932,NA,NA
13207,Onondaga County,NY,NA,98.80239520958084,NA
13208,Onondaga County,NY,NA,25.149700598802394,NA
13339,Montgomery County,NY,NA,66.46706586826348,NA
13350,Herkimer County,NY,NA,NA,86.76880222841226
13425,Oneida County,NY,92.14659685863874,NA,NA
13440,Oneida County,NY,NA,NA,2.0891364902506964
13493,Oswego County,NY,100,NA,NA
13617,St. Lawrence County,NY,NA,NA,57.381615598885794
13820,Otsego County,NY,NA,NA,48.467966573816156
13905,Broome County,NY,NA,NA,1.6713091922005572
14059,Erie County,NY,68.58638743455498,NA,NA
14068,Erie County,NY,NA,NA,83.14763231197772
14094,Niagara County,NY,4.450261780104712,NA,37.60445682451253
14207,Erie County,NY,NA,NA,8.495821727019498
14209,Erie County,NY,NA,80.83832335329342,NA
14211,Erie County,NY,NA,NA,9.47075208913649
14213,Erie County,NY,NA,NA,17.40947075208914
14214,Erie County,NY,NA,NA,27.437325905292482
14224,Erie County,NY,NA,NA,76.18384401114207
14425,Ontario County,NY,NA,NA,16.016713091922004
14512,Ontario County,NY,64.65968586387434,NA,NA
14513,Wayne County,NY,NA,NA,5.571030640668524
14519,Wayne County,NY,94.76439790575915,NA,NA
14551,Wayne County,NY,NA,NA,78.55153203342618
14569,Wyoming County,NY,NA,NA,77.71587743732591
14586,Monroe County,NY,21.465968586387437,NA,NA
14608,Monroe County,NY,NA,90.11976047904191,NA
14611,Monroe County,NY,NA,20.65868263473054,NA
14613,Monroe County,NY,47.38219895287958,NA,NA
14616,Monroe County,NY,NA,NA,63.50974930362116
14620,Monroe County,NY,NA,NA,70.33426183844011
14623,Monroe County,NY,NA,70.65868263473054,NA
14624,Monroe County,NY,NA,NA,85.51532033426183
14757,Chautauqua County,NY,NA,95.50898203592814,NA
14760,Cattaraugus County,NY,NA,92.51497005988024,11.002785515320335
14843,Steuben County,NY,77.22513089005236,NA,NA
14845,Chemung County,NY,NA,NA,14.763231197771587
14901,Chemung County,NY,NA,NA,54.038997214484674
14904,Chemung County,NY,NA,NA,95.12534818941504
27045,Forsyth County,NC,NA,69.46107784431138,NA
27048,Rockingham County,NC,NA,NA,62.25626740947076
27295,Davidson County,NC,NA,17.065868263473057,NA
27614,Wake County,NC,44.50261780104712,NA,NA
27701,Durham County,NC,NA,25.748502994011975,NA
27817,Beaufort County,NC,NA,89.52095808383234,NA
27834,Pitt County,NC,NA,10.179640718562874,NA
27892,Martin County,NC,NA,NA,41.504178272980504
27958,Currituck County,NC,76.17801047120419,NA,NA
27983,Bertie County,NC,67.5392670157068,NA,NA
28018,Rutherford County,NC,90.57591623036649,NA,NA
28025,Cabarrus County,NC,NA,27.844311377245507,11.699164345403899
28037,Lincoln County,NC,NA,NA,53.06406685236769
28105,Mecklenburg County,NC,38.481675392670155,NA,NA
28210,Mecklenburg County,NC,52.09424083769634,NA,NA
28215,Mecklenburg County,NC,NA,NA,39.27576601671309
28270,Mecklenburg County,NC,NA,NA,51.81058495821726
28304,Cumberland County,NC,NA,NA,55.15320334261838
28379,Richmond County,NC,19.10994764397906,NA,NA
28384,Bladen County,NC,NA,NA,93.45403899721448
28401,New Hanover County,NC,NA,NA,31.75487465181058
28425,Pender County,NC,NA,NA,57.799442896935936
28428,New Hanover County,NC,72.5130890052356,NA,NA
28625,Iredell County,NC,NA,NA,15.32033426183844
28657,Avery County,NC,NA,NA,57.520891364902504
28792,Henderson County,NC,NA,NA,27.99442896935933
58201,Grand Forks County,ND,20.680628272251308,NA,NA
58203,Grand Forks County,ND,33.7696335078534,NA,NA
58501,Burleigh County,ND,NA,NA,45.682451253481894
58503,Burleigh County,ND,NA,NA,56.54596100278552
58763,Mountrail County,ND,NA,NA,97.21448467966573
43035,Delaware County,OH,NA,NA,62.67409470752089
43065,Delaware County,OH,NA,49.700598802395206,NA
43110,Franklin County,OH,NA,23.952095808383234,NA
43206,Franklin County,OH,0.5235602094240838,NA,NA
43213,Franklin County,OH,NA,NA,65.73816155988858
43230,Franklin County,OH,NA,NA,14.345403899721449
43402,Wood County,OH,NA,48.20359281437126,NA
43607,Lucas County,OH,43.717277486910994,NA,NA
43614,Lucas County,OH,NA,NA,11.28133704735376
43950,Belmont County,OH,NA,NA,61.6991643454039
43953,Jefferson County,OH,62.30366492146597,NA,NA
44017,Cuyahoga County,OH,NA,32.634730538922156,NA
44052,Lorain County,OH,NA,47.00598802395209,2.9247910863509747
44055,Lorain County,OH,9.424083769633508,13.17365269461078,NA
44057,Lake County,OH,NA,NA,24.233983286908078
44087,Summit County,OH,NA,NA,36.35097493036212
44092,Lake County,OH,NA,NA,82.45125348189416
44102,Cuyahoga County,OH,NA,NA,0.1392757660167131
44105,Cuyahoga County,OH,NA,NA,6.406685236768802
44108,Cuyahoga County,OH,NA,NA,15.459610027855152
44109,Cuyahoga County,OH,NA,NA,5.153203342618385
44110,Cuyahoga County,OH,NA,NA,30.919220055710305
44112,Cuyahoga County,OH,27.748691099476442,NA,NA
44114,Cuyahoga County,OH,NA,NA,28.27298050139276
44117,Cuyahoga County,OH,NA,NA,63.091922005571035
44121,Cuyahoga County,OH,NA,17.664670658682635,NA
44122,Cuyahoga County,OH,NA,NA,48.607242339832865
44125,Cuyahoga County,OH,NA,NA,1.1142061281337048
44129,Cuyahoga County,OH,NA,86.22754491017965,NA
44130,Cuyahoga County,OH,NA,NA,77.15877437325905
44131,Cuyahoga County,OH,39.00523560209424,NA,NA
44133,Cuyahoga County,OH,28.79581151832461,NA,88.57938718662952
44135,Cuyahoga County,OH,NA,NA,3.6211699164345403
44137,Cuyahoga County,OH,NA,NA,22.42339832869081
44138,Cuyahoga County,OH,NA,NA,69.77715877437326
44144,Cuyahoga County,OH,10.209424083769633,NA,NA
44146,Cuyahoga County,OH,NA,35.32934131736527,NA
44147,Cuyahoga County,OH,NA,81.437125748502993,NA
44256,Medina County,OH,16.75392670157068,NA,NA
44266,Portage County,OH,NA,NA,10.027855153203342
44270,Wayne County,OH,NA,NA,52.78551532033426
44303,Summit County,OH,75.6544502617801,NA,NA
44305,Summit County,OH,NA,12.574850299401197,NA
44306,Summit County,OH,NA,NA,10.86350974930362
44313,Summit County,OH,NA,NA,25.766016713091922
44438,Trumbull County,OH,NA,NA,60.724233983286915
44440,Trumbull County,OH,NA,NA,98.32869080779945
44615,Carroll County,OH,NA,NA,65.45961002785515
44720,Stark County,OH,NA,NA,25.487465181058493
44870,Erie County,OH,NA,8.383233532934131,NA
44883,Seneca County,OH,NA,NA,16.15598885793872
45002,Hamilton County,OH,21.20418848167539,NA,NA
45011,Butler County,OH,49.47643979057592,18.263473053892216,13.92757660167131
45013,Butler County,OH,NA,NA,3.8997214484679668
45030,Hamilton County,OH,71.46596858638743,NA,NA
45036,Warren County,OH,43.97905759162304,NA,NA
45044,Butler County,OH,NA,NA,5.988857938718663
45056,Butler County,OH,NA,58.08383233532935,NA
45069,Butler County,OH,NA,22.15568862275449,NA
45103,Clermont County,OH,NA,12.874251497005988,51.392757660167135
45150,Clermont County,OH,NA,34.73053892215569,NA
45152,Warren County,OH,71.20418848167539,NA,NA
45154,Brown County,OH,NA,37.4251497005988,NA
45176,Clermont County,OH,79.05759162303664,77.84431137724552,55.98885793871866
45205,Hamilton County,OH,NA,38.622754491017965,NA
45211,Hamilton County,OH,NA,27.245508982035926,NA
45212,Hamilton County,OH,NA,NA,26.323119777158777
45213,Hamilton County,OH,NA,86.52694610778443,NA
45214,Hamilton County,OH,31.413612565445025,80.53892215568862,NA
45215,Hamilton County,OH,80.36649214659685,NA,21.030640668523677
45223,Hamilton County,OH,56.282722513089,NA,NA
45224,Hamilton County,OH,NA,58.68263473053892,NA
45225,Hamilton County,OH,NA,46.40718562874252,NA
45227,Hamilton County,OH,NA,43.712574850299404,NA
45229,Hamilton County,OH,NA,40.718562874251496,NA
45230,Hamilton County,OH,NA,NA,46.239554317548745
45231,Hamilton County,OH,NA,10.778443113772456,8.635097493036211
45238,Hamilton County,OH,NA,NA,13.370473537604457
45239,Hamilton County,OH,41.361256544502616,82.33532934131736,NA
45240,Hamilton County,OH,23.298429319371728,NA,21.72701949860724
45241,Hamilton County,OH,42.67015706806283,NA,NA
45242,Hamilton County,OH,NA,51.49700598802395,NA
45244,Hamilton County,OH,NA,50.29940119760479,NA
45255,Hamilton County,OH,NA,NA,56.68523676880223
45347,Preble County,OH,NA,NA,66.01671309192201
45420,Montgomery County,OH,14.659685863874344,NA,NA
45503,Clark County,OH,NA,34.73053892215569,NA
45505,Clark County,OH,NA,NA,54.317548746518106
45601,Ross County,OH,NA,NA,22.284122562674096
45640,Jackson County,OH,NA,NA,42.757660167130915
45693,Adams County,OH,NA,73.65269461077844,NA
45764,Athens County,OH,NA,NA,79.38718662952647
45840,Hancock County,OH,NA,NA,3.064066852367688
45895,Auglaize County,OH,57.59162303664922,NA,54.73537604456824
73008,Oklahoma County,OK,NA,6.287425149700598,NA
73068,Cleveland County,OK,NA,NA,59.47075208913649
73119,Oklahoma County,OK,NA,NA,19.220055710306408
73129,Oklahoma County,OK,NA,13.77245508982036,NA
73701,Garfield County,OK,NA,NA,39.4150417827298
74074,Payne County,OK,NA,NA,91.92200557103064
74107,Tulsa County,OK,NA,NA,53.48189415041783
74421,Okmulgee County,OK,NA,NA,97.35376044568244
74447,Okmulgee County,OK,57.32984293193717,NA,NA
74464,Cherokee County,OK,16.230366492146597,NA,NA
74941,Haskell County,OK,NA,97.0059880239521,NA
74955,Sequoyah County,OK,NA,NA,50.41782729805014
97006,Washington County,OR,NA,NA,53.899721448467965
97220,Multnomah County,OR,NA,NA,31.337047353760443
97415,Curry County,OR,NA,NA,40.66852367688023
97420,Coos County,OR,NA,NA,43.871866295264624
97504,Jackson County,OR,21.98952879581152,NA,47.07520891364902
97702,Deschutes County,OR,NA,NA,38.440111420612816
15001,Beaver County,PA,NA,39.52095808383233,NA
15010,Beaver County,PA,NA,NA,18.662952646239557
15014,Allegheny County,PA,NA,98.50299401197606,NA
15066,Beaver County,PA,NA,NA,90.11142061281338
15068,Westmoreland County,PA,NA,NA,17.13091922005571
15089,Westmoreland County,PA,75.13089005235602,NA,NA
15146,Allegheny County,PA,NA,NA,40.947075208913645
15203,Allegheny County,PA,NA,NA,74.23398328690809
15205,Allegheny County,PA,NA,78.44311377245509,NA
15206,Allegheny County,PA,45.54973821989529,NA,NA
15207,Allegheny County,PA,NA,NA,73.3983286908078
15212,Allegheny County,PA,NA,47.604790419161674,NA
15220,Allegheny County,PA,NA,NA,80.50139275766016
15237,Allegheny County,PA,18.586387434554975,NA,NA
15238,Allegheny County,PA,NA,NA,77.43732590529248
15301,Washington County,PA,NA,53.89221556886228,6.8245125348189415
15370,Greene County,PA,NA,NA,44.15041782729805
15401,Fayette County,PA,29.84293193717277,NA,NA
15431,Fayette County,PA,NA,NA,82.8690807799443
15478,Fayette County,PA,NA,NA,59.33147632311978
15601,Westmoreland County,PA,NA,NA,4.178272980501393
15642,Westmoreland County,PA,NA,75.1497005988024,NA
15714,Cambria County,PA,NA,NA,69.49860724233984
15801,Clearfield County,PA,NA,NA,55.43175487465181
15902,Cambria County,PA,NA,NA,37.04735376044568
15905,Cambria County,PA,60.20942408376963,NA,NA
15931,Cambria County,PA,NA,NA,58.63509749303621
16001,Butler County,PA,NA,NA,52.22841225626741
16066,Butler County,PA,NA,59.281437125748504,NA
16101,Lawrence County,PA,NA,35.62874251497006,NA
16125,Mercer County,PA,NA,74.55089820359282,NA
16146,Mercer County,PA,71.72774869109948,30.83832335329341,NA
16148,Mercer County,PA,NA,NA,41.08635097493036
16254,Clarion County,PA,94.50261780104712,NA,NA
16301,Venango County,PA,NA,NA,67.54874651810584
16335,Crawford County,PA,NA,NA,11.420612813370473
16346,Venango County,PA,97.90575916230367,NA,NA
16506,Erie County,PA,NA,NA,98.60724233983287
16601,Blair County,PA,NA,NA,47.49303621169916
16602,Blair County,PA,NA,30.239520958083833,NA
16648,Blair County,PA,NA,NA,50.41782729805014
16652,Huntingdon County,PA,NA,NA,34.540389972144844
17036,Dauphin County,PA,44.76439790575916,NA,NA
17046,Lebanon County,PA,5.49738219895288,NA,NA
17057,Dauphin County,PA,NA,40.119760479041915,NA
17061,Dauphin County,PA,NA,NA,89.27576601671309
17066,Huntingdon County,PA,68.84816753926701,NA,NA
17103,Dauphin County,PA,31.93717277486911,NA,NA
17109,Dauphin County,PA,NA,NA,21.58774373259053
17110,Dauphin County,PA,NA,NA,77.01949860724234
17257,Cumberland County,PA,NA,NA,20.334261838440113
17268,Franklin County,PA,NA,31.137724550898206,NA
17315,York County,PA,NA,NA,23.955431754874652
17331,York County,PA,NA,NA,7.103064066852367
17361,York County,PA,98.69109947643979,NA,NA
17403,York County,PA,NA,NA,3.4818941504178276
17728,Lycoming County,PA,91.8848167539267,NA,NA
17901,Schuylkill County,PA,NA,45.209580838323355,NA
17963,Schuylkill County,PA,NA,NA,70.89136490250696
17972,Schuylkill County,PA,57.06806282722513,NA,NA
18013,Northampton County,PA,47.90575916230366,NA,NA
18015,Northampton County,PA,63.089005235602095,NA,9.331476323119778
18017,Northampton County,PA,NA,NA,66.43454038997214
18037,Lehigh County,PA,NA,NA,66.15598885793872
18040,Northampton County,PA,NA,NA,58.91364902506964
18041,Montgomery County,PA,99.47643979057592,NA,NA
18042,Northampton County,PA,NA,NA,6.267409470752089
18055,Northampton County,PA,NA,NA,35.097493036211695
18102,Lehigh County,PA,0,3.592814371257485,NA
18201,Luzerne County,PA,NA,NA,44.84679665738162
18252,Schuylkill County,PA,59.68586387434554,NA,NA
18407,Lackawanna County,PA,NA,63.47305389221557,NA
18431,Wayne County,PA,NA,NA,75.4874651810585
18504,Lackawanna County,PA,46.8586387434555,NA,NA
18505,Lackawanna County,PA,NA,70.05988023952095,NA
18510,Lackawanna County,PA,NA,70.65868263473054,NA
18517,Lackawanna County,PA,83.24607329842932,NA,NA
18634,Luzerne County,PA,NA,56.886227544910184,NA
18640,Luzerne County,PA,NA,65.26946107784431,NA
18657,Wyoming County,PA,80.89005235602095,NA,NA
18702,Luzerne County,PA,NA,NA,7.938718662952645
18947,Bucks County,PA,88.48167539267016,NA,NA
18951,Bucks County,PA,48.69109947643979,NA,NA
18960,Bucks County,PA,58.37696335078534,NA,59.05292479108635
19018,Delaware County,PA,NA,NA,23.398328690807798
19044,Montgomery County,PA,54.45026178010471,NA,NA
19056,Bucks County,PA,57.85340314136126,NA,NA
19061,Delaware County,PA,20.94240837696335,NA,NA
19064,Delaware County,PA,NA,97.90419161676647,33.70473537604457
19073,Delaware County,PA,NA,NA,46.37883008356546
19074,Delaware County,PA,85.86387434554975,NA,NA
19104,Philadelphia County,PA,NA,NA,11.838440111420613
19119,Philadelphia County,PA,NA,NA,20.891364902506965
19120,Philadelphia County,PA,1.5706806282722512,7.784431137724551,3.7604456824512535
19123,Philadelphia County,PA,50.26178010471204,NA,NA
19140,Philadelphia County,PA,NA,NA,2.3676880222841223
19141,Philadelphia County,PA,NA,NA,8.356545961002785
19320,Chester County,PA,1.3089005235602094,NA,NA
19341,Chester County,PA,NA,NA,82.17270194986072
19352,Chester County,PA,NA,NA,91.08635097493037
19355,Chester County,PA,NA,NA,74.3732590529248
19380,Chester County,PA,21.727748691099478,NA,NA
19390,Chester County,PA,NA,NA,68.80222841225627
19401,Montgomery County,PA,9.947643979057592,NA,9.610027855153204
19403,Montgomery County,PA,16.49214659685864,NA,NA
19422,Montgomery County,PA,54.45026178010471,NA,NA
19460,Chester County,PA,11.2565445026178,NA,NA
19464,Montgomery County,PA,NA,NA,5.8495821727019495
19465,Chester County,PA,NA,75.74850299401199,45.682451253481894
19475,Chester County,PA,80.6282722513089,NA,NA
19518,Berks County,PA,31.413612565445025,NA,NA
19601,Berks County,PA,NA,7.18562874251497,16.71309192200557
19602,Berks County,PA,32.72251308900523,NA,NA
19604,Berks County,PA,27.225130890052355,NA,NA
02806,Bristol County,RI,NA,NA,88.71866295264624
02840,Newport County,RI,NA,NA,36.768802228412255
02861,Providence County,RI,NA,NA,27.715877437325904
02878,Newport County,RI,NA,NA,67.82729805013928
02895,Providence County,RI,NA,NA,11.977715877437326
02915,Providence County,RI,NA,NA,66.991643454038993
29036,Lexington County,SC,NA,NA,80.08356545961003
29102,Clarendon County,SC,60.20942408376963,NA,NA
29160,Lexington County,SC,NA,89.22155688622755,NA
29204,Richland County,SC,28.01047120418848,NA,NA
29301,Spartanburg County,SC,28.272251308900525,NA,NA
29303,Spartanburg County,SC,48.42931937172775,NA,NA
29307,Spartanburg County,SC,NA,NA,52.36768802228412
29709,Chesterfield County,SC,88.7434554973822,NA,NA
29710,York County,SC,61.25654450261781,NA,NA
29732,York County,SC,NA,NA,28.412256267409468
57006,Brookings County,SD,NA,NA,85.79387186629526
57069,Clay County,SD,NA,NA,95.68245125348189
57078,Yankton County,SD,92.67015706806284,NA,NA
57105,Minnehaha County,SD,NA,NA,39.693593314763234
37087,Wilson County,TN,12.56544502617801,NA,NA
37160,Bedford County,TN,NA,55.688622754491014,NA
37208,Davidson County,TN,70.68062827225131,NA,NA
37214,Davidson County,TN,NA,47.90419161676647,NA
37218,Davidson County,TN,NA,NA,44.986072423398326
37303,McMinn County,TN,29.31937172774869,NA,19.080779944289695
37385,Monroe County,TN,70.15706806282722,NA,NA
37404,Hamilton County,TN,33.50785340314136,NA,NA
37601,Washington County,TN,NA,NA,41.22562674094708
37660,Sullivan County,TN,NA,NA,9.192200557103064
37716,Anderson County,TN,9.68586387434555,NA,NA
37813,Hamblen County,TN,NA,NA,24.094707520891365
37820,Jefferson County,TN,NA,70.35928143712576,NA
37830,Anderson County,TN,NA,NA,64.20612813370474
37869,Hancock County,TN,NA,47.30538922155689,NA
37874,Monroe County,TN,NA,NA,35.23676880222841
37886,Blount County,TN,NA,95.80838323353294,NA
37912,Knox County,TN,NA,85.92814371257485,NA
37920,Knox County,TN,NA,38.02395209580838,NA
37921,Knox County,TN,NA,NA,26.044568245125348
38019,Tipton County,TN,NA,NA,48.74651810584958
38058,Tipton County,TN,76.70157068062828,NA,NA
38060,Fayette County,TN,NA,88.32335329341318,NA
38079,Lake County,TN,NA,95.20958083832335,NA
38127,Shelby County,TN,NA,NA,47.353760445682454
38301,Madison County,TN,NA,43.41317365269461,NA
38305,Madison County,TN,NA,NA,10.30640668523677
38340,Chester County,TN,NA,NA,55.571030640668525
38451,Maury County,TN,NA,NA,87.74373259052925
38501,Putnam County,TN,NA,NA,17.827298050139277
38571,Cumberland County,TN,NA,NA,47.77158774373259
75043,Dallas County,TX,5.7591623036649215,NA,NA
75052,Dallas County,TX,NA,NA,78.6908077994429
75090,Grayson County,TX,NA,NA,41.78272980501393
75092,Grayson County,TX,52.35602094240838,NA,NA
75236,Dallas County,TX,65.18324607329843,NA,NA
75501,Bowie County,TX,18.586387434554975,NA,NA
75605,Gregg County,TX,31.151832460732987,NA,NA
75686,Camp County,TX,NA,44.61077844311377,NA
75801,Anderson County,TX,NA,NA,54.1782729805014
76017,Tarrant County,TX,NA,NA,27.57660167130919
76018,Tarrant County,TX,NA,NA,93.03621169916435
76051,Tarrant County,TX,NA,NA,55.571030640668525
76052,Tarrant County,TX,NA,NA,92.75766016713092
76106,Tarrant County,TX,NA,NA,67.1309192200557
76109,Tarrant County,TX,NA,NA,73.11977715877437
76112,Tarrant County,TX,NA,37.12574850299401,37.46518105849582
76119,Tarrant County,TX,NA,NA,8.07799442896936
76133,Tarrant County,TX,NA,NA,17.270194986072422
76134,Tarrant County,TX,NA,NA,23.25905292479109
76148,Tarrant County,TX,NA,NA,35.93314763231198
76240,Cooke County,TX,20.418848167539267,NA,NA
76501,Bell County,TX,NA,NA,93.59331476323119
76504,Bell County,TX,NA,NA,11.142061281337048
76513,Bell County,TX,18.32460732984293,NA,9.052924791086351
76550,Lampasas County,TX,NA,NA,76.46239554317549
76705,McLennan County,TX,NA,NA,15.87743732590529
76903,Tom Green County,TX,NA,NA,36.49025069637883
77007,Harris County,TX,NA,NA,95.26462395543176
77063,Harris County,TX,NA,NA,78.41225626740948
77067,Harris County,TX,NA,NA,82.8690807799443
77086,Harris County,TX,NA,NA,57.242339832869085
77469,Fort Bend County,TX,NA,73.95209580838323,NA
77562,Harris County,TX,NA,NA,97.9108635097493
77573,Galveston County,TX,NA,44.01197604790419,NA
77802,Brazos County,TX,36.64921465968586,NA,NA
77901,Victoria County,TX,NA,18.862275449101794,NA
77904,Victoria County,TX,NA,66.76646706586826,NA
78014,La Salle County,TX,NA,82.63473053892216,NA
78040,Webb County,TX,10.732984293193718,NA,NA
78109,Bexar County,TX,NA,NA,42.33983286908078
78130,Comal County,TX,NA,NA,48.32869080779944
78163,Comal County,TX,NA,NA,99.16434540389972
78212,Bexar County,TX,NA,NA,49.16434540389972
78216,Bexar County,TX,25.654450261780106,NA,NA
78223,Bexar County,TX,NA,NA,94.15041782729804
78232,Bexar County,TX,NA,NA,63.788300835654596
78253,Bexar County,TX,NA,51.49700598802395,NA
78259,Bexar County,TX,NA,NA,66.71309192200557
78332,Jim Wells County,TX,NA,6.58682634730539,NA
78408,Nueces County,TX,NA,73.35329341317365,NA
78415,Nueces County,TX,NA,NA,40.11142061281337
78418,Nueces County,TX,NA,59.281437125748504,NA
78504,Hidalgo County,TX,26.17801047120419,NA,NA
78520,Cameron County,TX,NA,5.089820359281437,NA
78521,Cameron County,TX,NA,0.5988023952095809,NA
78526,Cameron County,TX,NA,20.359281437125748,NA
78541,Hidalgo County,TX,NA,21.55688622754491,NA
78542,Hidalgo County,TX,NA,1.1976047904191618,NA
78570,Hidalgo County,TX,11.780104712041885,11.976047904191617,NA
78574,Hidalgo County,TX,NA,0.8982035928143712,NA
78577,Hidalgo County,TX,NA,1.4970059880239521,24.651810584958216
78589,Hidalgo County,TX,NA,67.66467065868264,NA
78599,Hidalgo County,TX,NA,16.766467065868262,NA
78620,Hays County,TX,96.8586387434555,NA,NA
78744,Travis County,TX,NA,28.74251497005988,NA
79336,Hockley County,TX,NA,NA,60.44568245125348
79936,El Paso County,TX,NA,NA,12.674094707520892
84081,Salt Lake County,UT,36.38743455497382,NA,NA
84105,Salt Lake County,UT,NA,100,NA
84108,Salt Lake County,UT,77.4869109947644,NA,NA
84118,Salt Lake County,UT,12.56544502617801,NA,NA
84128,Salt Lake County,UT,NA,NA,33.844011142061284
84664,Utah County,UT,95.81151832460732,NA,NA
22079,Fairfax County,VA,NA,NA,36.629526462395546
22302,Alexandria city,VA,60.20942408376963,NA,NA
22485,King George County,VA,NA,NA,55.29247910863509
22963,Fluvanna County,VA,53.66492146596858,NA,NA
23072,Gloucester County,VA,NA,NA,84.12256267409471
24012,Roanoke city,VA,NA,NA,25.90529247910863
24013,Roanoke city,VA,59.16230366492147,NA,NA
24015,Roanoke city,VA,92.40837696335078,NA,NA
24153,Salem city,VA,NA,NA,29.944289693593312
24179,Roanoke County,VA,NA,50.29940119760479,NA
24501,Lynchburg city,VA,NA,58.982035928143716,NA
24502,Lynchburg city,VA,NA,72.15568862275448,NA
24540,Danville city,VA,NA,NA,66.85236768802228
24557,Pittsylvania County,VA,NA,53.293413173652695,NA
24614,Buchanan County,VA,NA,NA,51.392757660167135
98040,King County,WA,NA,NA,61.00278551532033
98257,Skagit County,WA,99.73821989528795,NA,NA
98335,Pierce County,WA,45.54973821989529,NA,NA
98371,Pierce County,WA,NA,NA,56.26740947075209
98372,Pierce County,WA,NA,86.52694610778443,NA
98374,Pierce County,WA,NA,NA,86.2116991643454
98501,Thurston County,WA,38.7434554973822,NA,NA
98550,Grays Harbor County,WA,NA,NA,73.53760445682451
20020,District of Columbia,DC,NA,9.880239520958083,NA
20024,District of Columbia,DC,NA,NA,97.07520891364902
24901,Greenbrier County,WV,NA,NA,71.86629526462396
25177,Kanawha County,WV,NA,NA,12.813370473537605
25405,Berkeley County,WV,NA,NA,67.27019498607241
25901,Fayette County,WV,NA,NA,40.11142061281337
26101,Wood County,WV,4.712041884816754,NA,5.2924791086350975
26170,Pleasants County,WV,NA,83.23353293413174,NA
26201,Upshur County,WV,NA,NA,71.58774373259052
26426,Harrison County,WV,NA,NA,82.31197771587743
26501,Monongalia County,WV,68.32460732984293,NA,NA
26508,Monongalia County,WV,NA,NA,5.43175487465181
53005,Waukesha County,WI,6.020942408376963,NA,61.42061281337048
53010,Fond du Lac County,WI,NA,99.10179640718563,NA
53027,Washington County,WI,NA,NA,58.07799442896936
53083,Sheboygan County,WI,NA,NA,61.28133704735376
53092,Ozaukee County,WI,NA,NA,50
53105,Racine County,WI,NA,41.61676646706587,NA
53110,Milwaukee County,WI,NA,NA,28.133704735376046
53140,Kenosha County,WI,NA,NA,33.147632311977716
53142,Kenosha County,WI,3.4031413612565444,NA,NA
53190,Walworth County,WI,NA,NA,77.99442896935933
53206,Milwaukee County,WI,NA,NA,10.584958217270195
53209,Milwaukee County,WI,NA,NA,2.6462395543175488
53210,Milwaukee County,WI,NA,NA,8.217270194986073
53212,Milwaukee County,WI,NA,NA,13.509749303621168
53214,Milwaukee County,WI,10.99476439790576,NA,NA
53217,Milwaukee County,WI,NA,NA,31.197771587743734
53218,Milwaukee County,WI,32.460732984293195,8.682634730538922,NA
53227,Milwaukee County,WI,NA,91.91616766467065,NA
53403,Racine County,WI,NA,NA,70.61281337047353
53406,Racine County,WI,40.31413612565445,NA,NA
53511,Rock County,WI,NA,NA,44.01114206128134
53532,Dane County,WI,NA,NA,58.495821727019504
53534,Rock County,WI,64.92146596858639,NA,NA
53950,Juneau County,WI,NA,NA,90.3899721448468
54143,Marinette County,WI,35.340314136125656,NA,NA
54220,Manitowoc County,WI,22.25130890052356,NA,NA
54241,Manitowoc County,WI,67.27748691099477,NA,NA
54409,Langlade County,WI,NA,NA,87.88300835654597
54449,Wood County,WI,NA,NA,92.47910863509749
54494,Wood County,WI,NA,NA,27.298050139275766
54650,La Crosse County,WI,NA,NA,95.96100278551532
54727,Chippewa County,WI,NA,NA,98.74651810584957
54801,Washburn County,WI,NA,NA,93.87186629526462
54843,Sawyer County,WI,92.93193717277487,NA,NA
54911,Outagamie County,WI,NA,NA,34.26183844011142
54913,Outagamie County,WI,63.87434554973822,NA,NA
54915,Outagamie County,WI,NA,83.8323353293413,NA
54937,Fond du Lac County,WI,NA,NA,64.62395543175488
54956,Winnebago County,WI,NA,NA,22.701949860724234
82009,Laramie County,WY,67.01570680628272,NA,NA
