ZipCode,county,state,Adult,Retirement,Geriatric
35004,St. Clair County,AL,NA,NA,80.48780487804879
35094,Jefferson County,AL,NA,45.241379310344826,NA
35228,Jefferson County,AL,NA,76.13793103448275,NA
35401,Tuscaloosa County,AL,23.828125,NA,NA
35601,Morgan County,AL,NA,8,NA
35758,Madison County,AL,NA,63.724137931034484,NA
35761,Madison County,AL,NA,NA,81.09756097560977
35802,Madison County,AL,NA,NA,12.195121951219512
35811,Madison County,AL,NA,27.310344827586206,NA
36301,Houston County,AL,18.359375,NA,NA
36303,Houston County,AL,NA,NA,33.53658536585366
36426,Escambia County,AL,NA,NA,49.796747967479675
36467,Covington County,AL,87.5,NA,NA
36502,Escambia County,AL,57.421875,NA,NA
36551,Baldwin County,AL,NA,88.82758620689654,NA
36571,Mobile County,AL,NA,NA,85.97560975609755
36605,Mobile County,AL,NA,32.41379310344827,NA
99501,Anchorage Municipality,AK,NA,78.3448275862069,NA
99503,Anchorage Municipality,AK,36.71875,NA,NA
99507,Anchorage Municipality,AK,NA,75.58620689655172,NA
99701,Fairbanks North Star Borough,AK,NA,NA,96.13821138211382
85003,Maricopa County,AZ,NA,70.89655172413794,NA
85006,Maricopa County,AZ,NA,72.55172413793105,NA
85009,Maricopa County,AZ,NA,16.96551724137931,NA
85014,Maricopa County,AZ,57.8125,38.758620689655174,NA
85032,Maricopa County,AZ,NA,NA,31.50406504065041
85033,Maricopa County,AZ,16.796875,NA,NA
85037,Maricopa County,AZ,23.4375,NA,NA
85051,Maricopa County,AZ,NA,24.137931034482758,NA
85254,Maricopa County,AZ,NA,21.793103448275865,NA
85255,Maricopa County,AZ,62.5,NA,NA
85260,Maricopa County,AZ,NA,25.24137931034483,NA
85331,Maricopa County,AZ,NA,NA,69.71544715447155
85345,Maricopa County,AZ,NA,28.13793103448276,NA
85351,Maricopa County,AZ,NA,5.241379310344827,NA
85375,Maricopa County,AZ,NA,85.37931034482759,NA
85387,Maricopa County,AZ,NA,72.6896551724138,NA
85648,Santa Cruz County,AZ,NA,46.206896551724135,NA
85704,Pima County,AZ,NA,44.55172413793104,NA
85748,Pima County,AZ,NA,NA,41.86991869918699
85755,Pima County,AZ,96.09375,NA,NA
86047,Navajo County,AZ,NA,21.517241379310345,NA
86301,Yavapai County,AZ,NA,NA,88.00813008130082
86314,Yavapai County,AZ,17.1875,NA,NA
86351,Yavapai County,AZ,NA,55.31034482758621,NA
86404,Mohave County,AZ,NA,NA,56.09756097560976
71957,Montgomery County,AR,NA,NA,94.3089430894309
72032,Faulkner County,AR,NA,NA,46.7479674796748
72067,Cleburne County,AR,NA,62.206896551724135,NA
72450,Greene County,AR,NA,16,71.95121951219512
72601,Boone County,AR,NA,20,NA
72758,Benton County,AR,NA,36.689655172413794,NA
72947,Crawford County,AR,NA,NA,78.04878048780488
72956,Crawford County,AR,84.765625,NA,NA
90002,Los Angeles County,CA,NA,88.13793103448276,NA
90004,Los Angeles County,CA,NA,82.06896551724138,NA
90005,Los Angeles County,CA,NA,NA,48.983739837398375
90012,Los Angeles County,CA,NA,58.48275862068966,NA
90013,Los Angeles County,CA,NA,80.6896551724138,NA
90014,Los Angeles County,CA,NA,NA,93.29268292682927
90016,Los Angeles County,CA,NA,87.58620689655172,NA
90017,Los Angeles County,CA,NA,59.03448275862069,NA
90018,Los Angeles County,CA,NA,89.10344827586208,NA
90019,Los Angeles County,CA,NA,NA,5.894308943089431
90020,Los Angeles County,CA,NA,59.310344827586206,NA
90023,Los Angeles County,CA,NA,38.758620689655174,NA
90027,Los Angeles County,CA,NA,NA,34.756097560975604
90042,Los Angeles County,CA,NA,NA,83.33333333333334
90046,Los Angeles County,CA,NA,NA,36.38211382113821
90047,Los Angeles County,CA,NA,88.55172413793103,NA
90057,Los Angeles County,CA,NA,NA,67.6829268292683
90059,Los Angeles County,CA,NA,37.6551724137931,NA
90064,Los Angeles County,CA,NA,32.275862068965516,NA
90066,Los Angeles County,CA,NA,20.689655172413794,NA
90210,Los Angeles County,CA,NA,NA,81.70731707317073
90262,Los Angeles County,CA,NA,96.13793103448276,NA
90280,Los Angeles County,CA,27.34375,NA,NA
90504,Los Angeles County,CA,NA,43.310344827586206,NA
90604,Los Angeles County,CA,NA,38.068965517241374,NA
90630,Orange County,CA,NA,12.96551724137931,NA
90631,Orange County,CA,NA,NA,58.13008130081301
90650,Los Angeles County,CA,17.96875,8.413793103448276,NA
90717,Los Angeles County,CA,NA,65.79310344827586,NA
90723,Los Angeles County,CA,NA,49.37931034482759,NA
90746,Los Angeles County,CA,NA,35.44827586206897,NA
90802,Los Angeles County,CA,NA,47.03448275862069,NA
91006,Los Angeles County,CA,NA,NA,46.138211382113816
91007,Los Angeles County,CA,NA,NA,72.5609756097561
91030,Los Angeles County,CA,NA,95.72413793103448,NA
91107,Los Angeles County,CA,NA,31.03448275862069,NA
91301,Los Angeles County,CA,NA,NA,84.14634146341463
91331,Los Angeles County,CA,NA,91.86206896551724,NA
91342,Los Angeles County,CA,NA,NA,24.1869918699187
91355,Los Angeles County,CA,NA,32.13793103448276,NA
91360,Ventura County,CA,NA,31.448275862068964,NA
91706,Los Angeles County,CA,NA,68,NA
91731,Los Angeles County,CA,NA,NA,48.577235772357724
91737,San Bernardino County,CA,62.109375,NA,NA
91750,Los Angeles County,CA,NA,85.10344827586206,NA
91755,Los Angeles County,CA,NA,NA,29.471544715447155
91762,San Bernardino County,CA,49.609375,NA,NA
91765,Los Angeles County,CA,NA,NA,35.36585365853659
91770,Los Angeles County,CA,NA,80.13793103448276,NA
92020,San Diego County,CA,20.703125,NA,NA
92054,San Diego County,CA,NA,42.48275862068965,NA
92056,San Diego County,CA,NA,47.44827586206897,NA
92104,San Diego County,CA,NA,61.6551724137931,NA
92105,San Diego County,CA,NA,NA,34.959349593495936
92126,San Diego County,CA,NA,47.724137931034484,NA
92129,San Diego County,CA,NA,NA,79.8780487804878
92154,San Diego County,CA,NA,12.827586206896552,NA
92231,Imperial County,CA,NA,86.62068965517241,NA
92234,Riverside County,CA,NA,11.448275862068966,NA
92241,Riverside County,CA,NA,58.34482758620689,NA
92243,Imperial County,CA,NA,72.13793103448276,NA
92316,San Bernardino County,CA,NA,NA,52.642276422764226
92335,San Bernardino County,CA,10.15625,NA,NA
92336,San Bernardino County,CA,NA,88.6896551724138,NA
92345,San Bernardino County,CA,68.359375,NA,NA
92359,San Bernardino County,CA,NA,NA,89.22764227642277
92376,San Bernardino County,CA,NA,9.379310344827587,85.77235772357723
92399,San Bernardino County,CA,NA,12.413793103448276,NA
92407,San Bernardino County,CA,NA,32.96551724137931,NA
92544,Riverside County,CA,NA,NA,39.43089430894309
92551,Riverside County,CA,NA,72.27586206896551,NA
92557,Riverside County,CA,NA,67.86206896551724,NA
92563,Riverside County,CA,NA,NA,27.235772357723576
92570,Riverside County,CA,NA,30.20689655172414,NA
92587,Riverside County,CA,NA,78.75862068965517,78.65853658536585
92618,Orange County,CA,NA,NA,83.73983739837398
92627,Orange County,CA,NA,44.827586206896555,NA
92630,Orange County,CA,NA,34.62068965517241,NA
92648,Orange County,CA,NA,NA,10.975609756097562
92677,Orange County,CA,NA,64.6896551724138,NA
92691,Orange County,CA,NA,14.06896551724138,NA
92704,Orange County,CA,NA,NA,75.8130081300813
92832,Orange County,CA,NA,45.37931034482759,NA
92840,Orange County,CA,NA,NA,60.16260162601627
92843,Orange County,CA,31.640625,NA,NA
92860,Riverside County,CA,NA,44.96551724137931,NA
92868,Orange County,CA,NA,56.41379310344827,NA
92869,Orange County,CA,NA,NA,62.19512195121951
92882,Riverside County,CA,25,NA,NA
93015,Ventura County,CA,NA,56.68965517241379,83.130081300813
93063,Ventura County,CA,NA,16.275862068965516,NA
93230,Kings County,CA,NA,NA,14.02439024390244
93313,Kern County,CA,NA,34.48275862068966,NA
93422,San Luis Obispo County,CA,NA,73.6551724137931,50
93446,San Luis Obispo County,CA,NA,76.96551724137932,NA
93455,Santa Barbara County,CA,NA,19.17241379310345,NA
93458,Santa Barbara County,CA,15.234375,NA,NA
93612,Fresno County,CA,NA,41.241379310344826,26.6260162601626
93615,Tulare County,CA,NA,NA,99.39024390243902
93635,Merced County,CA,NA,78.06896551724138,NA
93657,Fresno County,CA,NA,28.551724137931032,NA
93704,Fresno County,CA,NA,37.79310344827586,NA
93727,Fresno County,CA,NA,79.3103448275862,NA
93730,Fresno County,CA,76.171875,NA,NA
93901,Monterey County,CA,NA,NA,64.02439024390245
93906,Monterey County,CA,NA,NA,28.455284552845526
93955,Monterey County,CA,NA,22.344827586206897,NA
94002,San Mateo County,CA,NA,64.27586206896552,NA
94019,San Mateo County,CA,NA,NA,67.47967479674797
94041,Santa Clara County,CA,NA,99.03448275862068,NA
94061,San Mateo County,CA,NA,NA,8.739837398373984
94062,San Mateo County,CA,NA,32.689655172413794,NA
94080,San Mateo County,CA,NA,NA,0.8130081300813009
94087,Santa Clara County,CA,NA,32.827586206896555,NA
94112,San Francisco County,CA,NA,48.137931034482754,NA
94122,San Francisco County,CA,NA,NA,19.51219512195122
94131,San Francisco County,CA,86.71875,NA,NA
94132,San Francisco County,CA,NA,NA,24.796747967479675
94401,San Mateo County,CA,NA,46.3448275862069,NA
94509,Contra Costa County,CA,NA,6.896551724137931,NA
94521,Contra Costa County,CA,NA,51.58620689655172,NA
94571,Solano County,CA,NA,41.793103448275865,NA
94577,Alameda County,CA,NA,22.06896551724138,NA
94585,Solano County,CA,NA,53.103448275862064,NA
94607,Alameda County,CA,NA,NA,54.47154471544715
94608,Alameda County,CA,NA,57.793103448275865,NA
94801,Contra Costa County,CA,NA,98.20689655172414,NA
95035,Santa Clara County,CA,NA,NA,11.991869918699187
95076,Santa Cruz County,CA,19.140625,NA,NA
95116,Santa Clara County,CA,NA,91.72413793103448,38.82113821138211
95120,Santa Clara County,CA,NA,NA,95.32520325203252
95121,Santa Clara County,CA,NA,71.3103448275862,NA
95132,Santa Clara County,CA,NA,45.793103448275865,NA
95148,Santa Clara County,CA,NA,96.6896551724138,NA
95228,Calaveras County,CA,NA,NA,76.42276422764228
95330,San Joaquin County,CA,NA,58.20689655172414,NA
95334,Merced County,CA,67.96875,NA,79.47154471544715
95355,Stanislaus County,CA,NA,4.551724137931035,NA
95403,Sonoma County,CA,38.28125,NA,NA
95490,Mendocino County,CA,NA,33.793103448275865,NA
95531,Del Norte County,CA,46.875,NA,20.73170731707317
95616,Yolo County,CA,NA,NA,26.82926829268293
95624,Sacramento County,CA,NA,97.24137931034483,NA
95628,Sacramento County,CA,NA,70.48275862068965,NA
95632,Sacramento County,CA,NA,NA,45.52845528455284
95746,Placer County,CA,NA,71.03448275862068,NA
95831,Sacramento County,CA,NA,56.96551724137932,NA
95835,Sacramento County,CA,NA,82.89655172413794,NA
95838,Sacramento County,CA,NA,47.86206896551724,NA
96150,El Dorado County,CA,NA,45.51724137931035,NA
80013,Arapahoe County,CO,NA,NA,28.252032520325205
80031,Adams County,CO,NA,38.62068965517241,NA
80123,Jefferson County,CO,NA,34.06896551724138,NA
80124,Douglas County,CO,NA,NA,74.79674796747967
80127,Jefferson County,CO,NA,NA,40.243902439024396
80129,Douglas County,CO,NA,NA,75.60975609756098
80130,Douglas County,CO,NA,92.6896551724138,NA
80210,Denver County,CO,NA,36.27586206896552,NA
80249,Denver County,CO,NA,NA,88.6178861788618
80525,Larimer County,CO,58.203125,NA,NA
80538,Larimer County,CO,NA,NA,80.08130081300813
80550,Weld County,CO,NA,NA,32.31707317073171
80631,Weld County,CO,NA,16.413793103448278,NA
80634,Weld County,CO,NA,NA,41.46341463414634
80701,Morgan County,CO,54.296875,29.655172413793103,NA
80917,El Paso County,CO,46.09375,NA,36.58536585365854
80922,El Paso County,CO,NA,54.48275862068965,NA
81001,Pueblo County,CO,NA,27.586206896551722,NA
81089,Huerfano County,CO,NA,89.37931034482759,NA
81211,Chaffee County,CO,NA,NA,85.56910569105692
81504,Mesa County,CO,NA,37.103448275862064,NA
06010,Hartford County,CT,14.453125,36.82758620689655,1.4227642276422763
06051,Hartford County,CT,3.90625,NA,NA
06085,Hartford County,CT,NA,NA,91.869918699187
06096,Hartford County,CT,NA,NA,58.333333333333336
06426,Middlesex County,CT,NA,79.58620689655173,NA
06473,New Haven County,CT,NA,46.62068965517241,12.601626016260163
06513,New Haven County,CT,NA,NA,56.50406504065041
06516,New Haven County,CT,NA,1.7931034482758619,NA
06519,New Haven County,CT,NA,NA,46.95121951219512
06708,New Haven County,CT,NA,22.482758620689655,NA
06762,New Haven County,CT,NA,NA,99.79674796747967
06784,Fairfield County,CT,NA,100,NA
06830,Fairfield County,CT,NA,NA,6.300813008130081
06840,Fairfield County,CT,NA,80.82758620689656,NA
06902,Fairfield County,CT,NA,5.793103448275862,NA
19701,New Castle County,DE,NA,9.655172413793103,NA
19720,New Castle County,DE,2.734375,NA,NA
19802,New Castle County,DE,16.015625,NA,NA
19803,New Castle County,DE,NA,NA,18.089430894308943
19810,New Castle County,DE,NA,NA,19.715447154471544
19901,Kent County,DE,NA,11.724137931034482,14.227642276422763
19904,Kent County,DE,NA,8.551724137931034,NA
19938,Kent County,DE,NA,41.51724137931034,NA
19943,Kent County,DE,NA,48.689655172413794,NA
19945,Sussex County,DE,NA,41.93103448275862,NA
19958,Sussex County,DE,NA,17.517241379310345,NA
19968,Sussex County,DE,NA,NA,53.04878048780488
19973,Sussex County,DE,NA,12.551724137931034,NA
32011,Nassau County,FL,NA,NA,93.4959349593496
32034,Nassau County,FL,NA,NA,33.739837398373986
32097,Nassau County,FL,42.578125,NA,NA
32209,Duval County,FL,NA,NA,7.317073170731707
32340,Madison County,FL,NA,91.17241379310344,NA
32407,Bay County,FL,NA,66.75862068965517,NA
32408,Bay County,FL,NA,45.10344827586207,NA
32526,Escambia County,FL,NA,4.9655172413793105,NA
32548,Okaloosa County,FL,NA,NA,51.016260162601625
32570,Santa Rosa County,FL,NA,3.724137931034482,NA
32607,Alachua County,FL,NA,28.965517241379313,NA
32702,Lake County,FL,NA,95.86206896551724,NA
32714,Seminole County,FL,71.875,NA,NA
32725,Volusia County,FL,NA,51.44827586206897,52.235772357723576
32763,Volusia County,FL,NA,NA,16.463414634146343
32765,Seminole County,FL,NA,NA,61.17886178861789
32776,Lake County,FL,NA,NA,76.21951219512195
32779,Seminole County,FL,NA,25.517241379310345,NA
32807,Orange County,FL,70.3125,NA,NA
32817,Orange County,FL,NA,NA,86.1788617886179
32825,Orange County,FL,NA,NA,60.56910569105691
32832,Orange County,FL,NA,70.48275862068965,NA
32837,Orange County,FL,NA,31.310344827586206,NA
32901,Brevard County,FL,NA,30.620689655172413,12.398373983739837
32907,Brevard County,FL,NA,60.689655172413794,NA
32935,Brevard County,FL,NA,NA,13.008130081300814
33009,Broward County,FL,NA,28.827586206896548,NA
33019,Broward County,FL,NA,NA,39.63414634146341
33024,Broward County,FL,NA,NA,11.585365853658537
33025,Broward County,FL,NA,35.172413793103445,NA
33027,Broward County,FL,NA,24.96551724137931,NA
33028,Broward County,FL,NA,NA,51.6260162601626
33029,Broward County,FL,NA,93.51724137931035,NA
33032,Miami-Dade County,FL,67.578125,NA,NA
33060,Broward County,FL,NA,NA,21.951219512195124
33063,Broward County,FL,NA,18.89655172413793,NA
33066,Broward County,FL,NA,NA,35.77235772357724
33068,Broward County,FL,NA,34.206896551724135,NA
33137,Miami-Dade County,FL,NA,NA,42.27642276422765
33140,Miami-Dade County,FL,NA,NA,68.69918699186992
33142,Miami-Dade County,FL,NA,12.275862068965518,NA
33143,Miami-Dade County,FL,NA,NA,27.64227642276423
33146,Miami-Dade County,FL,NA,87.44827586206897,NA
33155,Miami-Dade County,FL,NA,19.862068965517242,NA
33156,Miami-Dade County,FL,NA,37.93103448275862,NA
33161,Miami-Dade County,FL,NA,55.86206896551724,23.170731707317074
33319,Broward County,FL,NA,NA,9.146341463414634
33436,Palm Beach County,FL,NA,NA,31.300813008130078
33437,Palm Beach County,FL,NA,NA,0
33444,Palm Beach County,FL,80.078125,NA,NA
33446,Palm Beach County,FL,NA,67.3103448275862,15.853658536585366
33463,Palm Beach County,FL,NA,23.862068965517242,NA
33511,Hillsborough County,FL,75,NA,NA
33578,Hillsborough County,FL,29.6875,NA,NA
33607,Hillsborough County,FL,NA,NA,40.853658536585364
33609,Hillsborough County,FL,NA,38.48275862068966,NA
33612,Hillsborough County,FL,12.109375,NA,NA
33613,Hillsborough County,FL,NA,32,NA
33615,Hillsborough County,FL,NA,NA,35.97560975609756
33619,Hillsborough County,FL,79.6875,NA,NA
33704,Pinellas County,FL,NA,75.3103448275862,NA
33755,Pinellas County,FL,35.15625,NA,NA
33756,Pinellas County,FL,58.984375,NA,NA
33764,Pinellas County,FL,76.5625,NA,42.073170731707314
33770,Pinellas County,FL,NA,37.103448275862064,NA
33810,Polk County,FL,NA,22.206896551724135,16.869918699186993
33812,Polk County,FL,59.765625,NA,NA
33870,Highlands County,FL,NA,NA,5.691056910569105
33898,Polk County,FL,NA,86.06896551724138,NA
33904,Lee County,FL,NA,NA,3.6585365853658534
33908,Lee County,FL,NA,19.310344827586206,73.98373983739837
33991,Lee County,FL,NA,24.689655172413794,NA
34104,Collier County,FL,NA,NA,59.756097560975604
34112,Collier County,FL,NA,NA,11.38211382113821
34205,Manatee County,FL,28.515625,NA,NA
34207,Manatee County,FL,NA,38.3448275862069,NA
34236,Sarasota County,FL,NA,46.3448275862069,NA
34243,Manatee County,FL,NA,15.586206896551724,NA
34293,Sarasota County,FL,NA,84.27586206896551,NA
34481,Marion County,FL,NA,42.3448275862069,NA
34606,Hernando County,FL,NA,25.103448275862068,NA
34653,Pasco County,FL,NA,NA,7.113821138211382
34667,Pasco County,FL,NA,17.655172413793103,NA
34668,Pasco County,FL,NA,NA,17.88617886178862
34685,Pinellas County,FL,NA,54.068965517241374,NA
34689,Pinellas County,FL,NA,NA,10.569105691056912
34698,Pinellas County,FL,NA,14.482758620689657,NA
34761,Orange County,FL,53.515625,NA,NA
34786,Orange County,FL,42.96875,NA,NA
34787,Orange County,FL,NA,13.655172413793103,NA
34974,Okeechobee County,FL,NA,25.517241379310345,NA
34982,St. Lucie County,FL,NA,NA,33.33333333333333
34986,St. Lucie County,FL,NA,NA,4.67479674796748
34990,Martin County,FL,NA,NA,1.6260162601626018
30004,Fulton County,GA,NA,22.758620689655174,NA
30022,Fulton County,GA,53.90625,NA,NA
30034,DeKalb County,GA,26.171875,NA,NA
30044,Gwinnett County,GA,19.53125,NA,91.26016260162602
30062,Cobb County,GA,NA,NA,92.88617886178862
30067,Cobb County,GA,NA,98.75862068965517,NA
30075,Fulton County,GA,32.8125,NA,NA
30096,Gwinnett County,GA,NA,NA,9.552845528455284
30134,Douglas County,GA,NA,19.586206896551726,NA
30141,Paulding County,GA,NA,NA,68.08943089430895
30152,Cobb County,GA,NA,28.000000000000004,NA
30161,Floyd County,GA,NA,12.96551724137931,NA
30214,Fayette County,GA,NA,NA,25
30240,Troup County,GA,NA,55.172413793103445,NA
30253,Henry County,GA,NA,NA,27.03252032520325
30260,Clayton County,GA,NA,64.55172413793103,NA
30265,Coweta County,GA,NA,NA,39.22764227642276
30268,Fulton County,GA,NA,53.51724137931034,NA
30274,Clayton County,GA,NA,NA,73.17073170731707
30281,Henry County,GA,NA,NA,29.268292682926827
30310,Fulton County,GA,NA,9.10344827586207,NA
30327,Fulton County,GA,NA,89.24137931034483,NA
30458,Bulloch County,GA,NA,68.55172413793103,NA
30467,Screven County,GA,NA,43.03448275862069,NA
30521,Franklin County,GA,78.125,NA,NA
30643,Hart County,GA,NA,97.79310344827586,NA
30705,Murray County,GA,NA,25.93103448275862,NA
30755,Whitfield County,GA,NA,NA,95.52845528455285
30809,Columbia County,GA,NA,6.620689655172414,NA
30906,Richmond County,GA,NA,3.8620689655172415,NA
31021,Laurens County,GA,66.015625,NA,NA
31024,Putnam County,GA,NA,70.34482758620689,NA
31032,Jones County,GA,NA,56.137931034482754,NA
31055,Telfair County,GA,NA,NA,84.95934959349594
31061,Baldwin County,GA,NA,56.27586206896552,NA
31088,Houston County,GA,NA,NA,53.2520325203252
31217,Bibb County,GA,NA,31.862068965517242,NA
31305,McIntosh County,GA,NA,NA,90.4471544715447
31320,Liberty County,GA,NA,61.793103448275865,NA
31326,Effingham County,GA,NA,NA,94.71544715447155
31331,McIntosh County,GA,NA,NA,79.0650406504065
31404,Chatham County,GA,NA,NA,30.48780487804878
31535,Coffee County,GA,NA,NA,78.86178861788618
31707,Dougherty County,GA,NA,NA,31.910569105691057
31763,Lee County,GA,NA,76.27586206896552,NA
31768,Colquitt County,GA,NA,57.655172413793096,NA
31794,Tift County,GA,NA,NA,25.406504065040654
96701,Honolulu County,HI,NA,NA,5.08130081300813
96720,Hawaii County,HI,NA,16.137931034482758,NA
96818,Honolulu County,HI,NA,NA,19.91869918699187
96821,Honolulu County,HI,NA,NA,77.4390243902439
83221,Bingham County,ID,NA,10.896551724137932,NA
83616,Ada County,ID,NA,NA,48.983739837398375
83642,Ada County,ID,NA,NA,4.0650406504065035
83687,Canyon County,ID,NA,10.344827586206897,NA
83709,Ada County,ID,NA,NA,2.2357723577235773
83843,Latah County,ID,NA,NA,44.105691056910565
60007,Cook County,IL,NA,NA,81.91056910569105
60025,Cook County,IL,NA,3.1724137931034484,NA
60033,McHenry County,IL,NA,NA,55.6910569105691
60044,Lake County,IL,NA,65.10344827586206,NA
60048,Lake County,IL,NA,NA,21.341463414634145
60056,Cook County,IL,52.734375,NA,NA
60099,Lake County,IL,NA,26.75862068965517,NA
60164,Cook County,IL,NA,79.86206896551724,NA
60188,DuPage County,IL,18.75,93.65517241379311,NA
60189,DuPage County,IL,NA,90.89655172413794,NA
60193,Cook County,IL,NA,58.06896551724138,17.479674796747968
60409,Cook County,IL,NA,20.96551724137931,NA
60423,Will County,IL,NA,40,71.54471544715447
60428,Cook County,IL,NA,NA,39.83739837398374
60430,Cook County,IL,NA,33.10344827586207,NA
60432,Will County,IL,92.578125,NA,NA
60435,Will County,IL,NA,42.206896551724135,NA
60440,Will County,IL,NA,NA,90.65040650406505
60443,Cook County,IL,78.90625,NA,NA
60445,Cook County,IL,64.84375,NA,NA
60464,Cook County,IL,94.53125,NA,NA
60467,Cook County,IL,NA,17.24137931034483,NA
60482,Cook County,IL,82.8125,NA,NA
60487,Cook County,IL,NA,NA,79.0650406504065
60501,Cook County,IL,93.75,NA,NA
60516,DuPage County,IL,NA,43.724137931034484,NA
60523,DuPage County,IL,NA,84.13793103448276,NA
60564,Will County,IL,32.03125,NA,NA
60586,Will County,IL,15.625,NA,NA
60609,Cook County,IL,NA,NA,10.365853658536585
60613,Cook County,IL,NA,82.75862068965517,NA
60614,Cook County,IL,NA,57.51724137931035,NA
60616,Cook County,IL,NA,80.41379310344827,13.414634146341465
60630,Cook County,IL,NA,44.41379310344827,60.56910569105691
60631,Cook County,IL,NA,55.58620689655173,NA
60634,Cook County,IL,NA,NA,22.76422764227642
60638,Cook County,IL,9.765625,NA,NA
60646,Cook County,IL,61.328125,NA,NA
60647,Cook County,IL,NA,NA,21.138211382113823
61016,Winnebago County,IL,NA,84.9655172413793,NA
61101,Winnebago County,IL,NA,NA,71.34146341463415
61107,Winnebago County,IL,NA,NA,9.959349593495935
61108,Winnebago County,IL,NA,15.862068965517242,NA
61761,McLean County,IL,NA,NA,20.32520325203252
61938,Coles County,IL,NA,24.82758620689655,NA
62002,Madison County,IL,NA,51.86206896551724,NA
62220,St. Clair County,IL,NA,68.96551724137932,NA
62230,Clinton County,IL,NA,NA,81.30081300813008
62232,St. Clair County,IL,NA,92.27586206896552,NA
62298,Monroe County,IL,NA,NA,81.5040650406504
62301,Adams County,IL,NA,NA,13.211382113821138
62471,Fayette County,IL,NA,36.55172413793103,NA
62549,Macon County,IL,NA,60.275862068965516,NA
62565,Shelby County,IL,NA,NA,56.91056910569105
62832,Perry County,IL,NA,NA,62.80487804878049
62864,Jefferson County,IL,NA,64,NA
62896,Franklin County,IL,NA,NA,95.73170731707317
62966,Jackson County,IL,NA,73.79310344827587,NA
46032,Hamilton County,IN,NA,39.86206896551724,NA
46107,Marion County,IN,NA,84.55172413793105,NA
46120,Putnam County,IN,93.359375,NA,NA
46124,Johnson County,IN,NA,49.93103448275862,NA
46203,Marion County,IN,41.40625,NA,NA
46217,Marion County,IN,NA,19.448275862068964,NA
46224,Marion County,IN,48.046875,NA,NA
46231,Marion County,IN,NA,76.41379310344828,NA
46256,Marion County,IN,NA,95.3103448275862,NA
46360,LaPorte County,IN,NA,NA,35.56910569105691
46544,St. Joseph County,IN,NA,70.75862068965517,NA
46738,DeKalb County,IN,51.953125,NA,NA
46755,Noble County,IN,NA,62.89655172413793,NA
46761,LaGrange County,IN,NA,86.48275862068967,NA
46902,Howard County,IN,NA,77.65517241379311,50.20325203252033
46947,Cass County,IN,NA,5.931034482758621,NA
47138,Scott County,IN,NA,78.62068965517241,NA
47250,Jefferson County,IN,NA,NA,37.39837398373984
47302,Delaware County,IN,NA,59.586206896551715,NA
47348,Blackford County,IN,NA,92,NA
47362,Henry County,IN,NA,68.82758620689656,NA
47374,Wayne County,IN,NA,2.6206896551724137,NA
47501,Daviess County,IN,31.25,NA,NA
47714,Vanderburgh County,IN,NA,11.172413793103448,NA
47918,Fountain County,IN,NA,60.41379310344828,NA
50317,Polk County,IA,NA,NA,25.406504065040654
50322,Polk County,IA,NA,NA,38.41463414634146
50501,Webster County,IA,NA,23.448275862068964,NA
50613,Black Hawk County,IA,NA,NA,1.8292682926829267
50616,Floyd County,IA,NA,NA,85.36585365853658
52031,Jackson County,IA,NA,NA,94.91869918699187
52060,Jackson County,IA,NA,63.03448275862069,NA
52101,Winneshiek County,IA,90.625,NA,NA
52349,Benton County,IA,NA,78.48275862068965,NA
52402,Linn County,IA,NA,NA,20.934959349593495
52556,Jefferson County,IA,NA,41.93103448275862,NA
52722,Scott County,IA,NA,56.827586206896555,NA
52803,Scott County,IA,30.859375,NA,NA
66101,Wyandotte County,KS,NA,63.310344827586206,NA
66208,Johnson County,KS,65.625,NA,98.78048780487805
66214,Johnson County,KS,NA,99.58620689655172,NA
66749,Allen County,KS,59.375,NA,NA
66762,Crawford County,KS,99.609375,NA,NA
67037,Sedgwick County,KS,NA,60.827586206896555,NA
67152,Sumner County,KS,NA,NA,61.382113821138205
67203,Sedgwick County,KS,53.125,NA,NA
67204,Sedgwick County,KS,NA,93.37931034482759,NA
67220,Sedgwick County,KS,NA,82.48275862068965,NA
67501,Reno County,KS,NA,NA,71.13821138211382
40014,Oldham County,KY,NA,44,NA
40031,Oldham County,KY,NA,NA,96.54471544715447
40211,Jefferson County,KY,NA,NA,88.21138211382113
40214,Jefferson County,KY,6.25,NA,NA
40216,Jefferson County,KY,NA,6.344827586206897,NA
40218,Jefferson County,KY,NA,63.724137931034484,NA
40242,Jefferson County,KY,NA,98.62068965517241,NA
40353,Montgomery County,KY,NA,96.55172413793103,NA
40403,Madison County,KY,NA,92.82758620689656,NA
40422,Boyle County,KY,37.109375,NA,NA
40484,Lincoln County,KY,74.21875,NA,NA
41144,Greenup County,KY,NA,34.3448275862069,NA
42001,McCracken County,KY,25.390625,NA,NA
42003,McCracken County,KY,NA,NA,19.10569105691057
42141,Barren County,KY,NA,50.206896551724135,NA
42348,Hancock County,KY,NA,90.3448275862069,NA
42376,Daviess County,KY,NA,69.6551724137931,NA
42420,Henderson County,KY,NA,6.758620689655172,NA
42701,Hardin County,KY,NA,26.20689655172414,NA
70065,Jefferson Parish,LA,NA,73.37931034482759,NA
70119,Orleans Parish,LA,NA,4.137931034482759,NA
70122,Orleans Parish,LA,56.640625,NA,NA
70130,Orleans Parish,LA,NA,23.310344827586206,NA
70345,Lafourche Parish,LA,71.09375,NA,NA
70363,Terrebonne Parish,LA,NA,NA,55.08130081300813
70403,Tangipahoa Parish,LA,NA,NA,15.853658536585366
70420,St. Tammany Parish,LA,NA,83.86206896551724,NA
70458,St. Tammany Parish,LA,NA,1.9310344827586208,NA
70460,St. Tammany Parish,LA,14.0625,NA,NA
70526,Acadia Parish,LA,43.75,NA,NA
70533,Vermilion Parish,LA,45.3125,NA,NA
70555,Vermilion Parish,LA,66.40625,NA,NA
70570,St. Landry Parish,LA,NA,6.068965517241379,NA
70605,Calcasieu Parish,LA,80.859375,18.758620689655174,NA
70647,Calcasieu Parish,LA,NA,NA,83.53658536585365
70726,Livingston Parish,LA,NA,NA,12.804878048780488
70817,East Baton Rouge Parish,LA,NA,NA,75.40650406504065
71040,Claiborne Parish,LA,NA,81.24137931034483,NA
71107,Caddo Parish,LA,NA,66.89655172413794,NA
71109,Caddo Parish,LA,NA,69.10344827586206,NA
71203,Ouachita Parish,LA,NA,14.896551724137929,NA
71360,Rapides Parish,LA,NA,NA,45.1219512195122
04002,York County,ME,58.59375,NA,NA
04072,York County,ME,NA,36,NA
04105,Cumberland County,ME,NA,56.55172413793104,NA
04345,Kennebec County,ME,NA,99.44827586206897,NA
04950,Somerset County,ME,NA,50.89655172413793,NA
20705,Prince George's County,MD,NA,70.20689655172414,NA
20706,Prince George's County,MD,NA,81.37931034482759,NA
20708,Prince George's County,MD,NA,69.79310344827586,NA
20783,Prince George's County,MD,82.421875,NA,NA
20853,Montgomery County,MD,NA,NA,98.17073170731707
21001,Harford County,MD,NA,NA,45.52845528455284
21015,Harford County,MD,NA,NA,64.83739837398373
21040,Harford County,MD,NA,51.724137931034484,NA
21108,Anne Arundel County,MD,NA,NA,97.96747967479675
21117,Baltimore County,MD,NA,NA,56.30081300813008
21136,Baltimore County,MD,NA,NA,53.65853658536586
21206,Baltimore city,MD,NA,28.413793103448278,NA
21221,Baltimore County,MD,NA,13.793103448275861,NA
21227,Baltimore County,MD,NA,NA,65.2439024390244
21236,Baltimore County,MD,NA,26.344827586206897,NA
21244,Baltimore County,MD,NA,94.75862068965517,NA
21701,Frederick County,MD,NA,40.689655172413794,NA
21702,Frederick County,MD,NA,67.17241379310344,NA
21901,Cecil County,MD,NA,49.6551724137931,NA
21921,Cecil County,MD,NA,NA,10.772357723577237
01020,Hampden County,MA,NA,NA,86.99186991869918
01075,Hampshire County,MA,41.015625,NA,NA
01108,Hampden County,MA,73.828125,NA,NA
01220,Berkshire County,MA,NA,NA,92.07317073170732
01238,Berkshire County,MA,NA,47.310344827586206,NA
01453,Worcester County,MA,NA,NA,8.333333333333332
01510,Worcester County,MA,19.921875,NA,NA
01540,Worcester County,MA,NA,NA,43.69918699186992
01581,Worcester County,MA,NA,89.65517241379311,NA
01702,Middlesex County,MA,NA,3.5862068965517238,NA
01748,Middlesex County,MA,34.765625,NA,NA
01760,Middlesex County,MA,NA,90.75862068965517,NA
01821,Middlesex County,MA,NA,71.58620689655173,NA
01841,Essex County,MA,22.265625,NA,NA
01862,Middlesex County,MA,NA,56.00000000000001,NA
01863,Middlesex County,MA,82.03125,NA,NA
01902,Essex County,MA,0.390625,NA,NA
01929,Essex County,MA,NA,81.93103448275862,NA
01960,Essex County,MA,NA,NA,63.00813008130082
02019,Norfolk County,MA,NA,83.17241379310344,NA
02043,Plymouth County,MA,74.609375,NA,NA
02053,Norfolk County,MA,89.0625,NA,NA
02066,Plymouth County,MA,NA,97.37931034482759,NA
02118,Suffolk County,MA,NA,0.41379310344827586,NA
02124,Suffolk County,MA,NA,NA,38.61788617886179
02132,Suffolk County,MA,33.203125,NA,NA
02138,Middlesex County,MA,NA,20.137931034482758,NA
02139,Middlesex County,MA,8.59375,NA,NA
02141,Middlesex County,MA,NA,NA,88.8211382113821
02148,Middlesex County,MA,2.34375,0.13793103448275862,NA
02150,Suffolk County,MA,NA,0.5517241379310345,NA
02151,Suffolk County,MA,0,NA,61.58536585365854
02155,Middlesex County,MA,NA,0.27586206896551724,31.097560975609756
02360,Plymouth County,MA,NA,57.931034482758626,NA
02382,Plymouth County,MA,NA,87.86206896551724,NA
02476,Middlesex County,MA,NA,16.82758620689655,98.3739837398374
02664,Barnstable County,MA,NA,NA,82.11382113821138
02740,Bristol County,MA,NA,24,NA
02748,Bristol County,MA,NA,34.758620689655174,NA
02780,Bristol County,MA,0.78125,NA,NA
48001,St. Clair County,MI,NA,48.96551724137931,NA
48033,Oakland County,MI,NA,20.413793103448278,NA
48035,Macomb County,MI,10.9375,NA,NA
48066,Macomb County,MI,NA,NA,87.60162601626016
48091,Macomb County,MI,NA,NA,92.27642276422763
48101,Wayne County,MI,NA,19.034482758620687,NA
48105,Washtenaw County,MI,NA,NA,9.75609756097561
48120,Wayne County,MI,75.78125,NA,NA
48150,Wayne County,MI,NA,13.517241379310343,NA
48168,Wayne County,MI,NA,NA,97.35772357723577
48176,Washtenaw County,MI,NA,NA,69.10569105691057
48180,Wayne County,MI,NA,0.9655172413793104,NA
48186,Wayne County,MI,NA,6.206896551724138,NA
48188,Wayne County,MI,NA,NA,22.15447154471545
48191,Washtenaw County,MI,NA,NA,96.7479674796748
48195,Wayne County,MI,NA,52.41379310344828,NA
48212,Wayne County,MI,10.546875,NA,NA
48225,Wayne County,MI,NA,66.62068965517241,NA
48228,Wayne County,MI,NA,4.413793103448276,NA
48234,Wayne County,MI,NA,NA,15.040650406504067
48235,Wayne County,MI,NA,NA,76.82926829268293
48240,Wayne County,MI,NA,NA,46.54471544715447
48312,Macomb County,MI,NA,57.103448275862064,NA
48317,Macomb County,MI,21.09375,12,NA
48322,Oakland County,MI,NA,NA,16.260162601626014
48331,Oakland County,MI,NA,12.96551724137931,NA
48336,Oakland County,MI,NA,26.620689655172413,NA
48350,Oakland County,MI,NA,NA,86.58536585365853
48390,Oakland County,MI,NA,49.10344827586207,53.45528455284553
48433,Genesee County,MI,NA,NA,23.3739837398374
48444,Lapeer County,MI,NA,NA,69.3089430894309
48446,Lapeer County,MI,86.328125,NA,NA
48453,Sanilac County,MI,NA,NA,95.1219512195122
48455,Lapeer County,MI,NA,51.310344827586206,NA
48458,Genesee County,MI,26.953125,NA,NA
48612,Gladwin County,MI,NA,30.344827586206897,NA
48622,Clare County,MI,NA,NA,54.0650406504065
48625,Clare County,MI,NA,87.3103448275862,NA
48631,Bay County,MI,NA,NA,97.15447154471545
48768,Tuscola County,MI,NA,NA,93.90243902439023
48837,Eaton County,MI,NA,NA,87.39837398373984
48843,Livingston County,MI,NA,30.896551724137932,NA
48854,Ingham County,MI,37.890625,NA,NA
48858,Isabella County,MI,NA,21.241379310344826,NA
48911,Ingham County,MI,NA,7.862068965517241,NA
48917,Eaton County,MI,NA,NA,6.097560975609756
49008,Kalamazoo County,MI,NA,NA,36.17886178861789
49048,Kalamazoo County,MI,NA,NA,7.520325203252034
49203,Jackson County,MI,NA,4.275862068965517,4.2682926829268295
49221,Lenawee County,MI,4.296875,NA,3.4552845528455287
49423,Ottawa County,MI,NA,NA,34.34959349593496
49431,Mason County,MI,NA,15.724137931034482,NA
49442,Muskegon County,MI,NA,2.7586206896551726,NA
49456,Ottawa County,MI,NA,17.93103448275862,NA
49507,Kent County,MI,NA,40.13793103448276,NA
49548,Kent County,MI,7.03125,NA,NA
49709,Montmorency County,MI,84.375,NA,NA
49829,Delta County,MI,NA,NA,63.82113821138211
49854,Schoolcraft County,MI,NA,48.82758620689655,NA
49855,Marquette County,MI,NA,8.96551724137931,NA
55044,Dakota County,MN,NA,40.827586206896555,NA
55103,Ramsey County,MN,NA,NA,93.08943089430895
55116,Ramsey County,MN,NA,NA,32.52032520325203
55122,Dakota County,MN,NA,42.896551724137936,40.447154471544714
55125,Washington County,MN,NA,NA,23.983739837398375
55304,Anoka County,MN,NA,76.82758620689654,NA
55347,Hennepin County,MN,NA,73.93103448275862,NA
55362,Wright County,MN,NA,77.37931034482759,NA
55431,Hennepin County,MN,NA,80.96551724137932,NA
55438,Hennepin County,MN,NA,NA,67.27642276422763
55441,Hennepin County,MN,NA,NA,75
55448,Anoka County,MN,NA,NA,37.19512195121951
55975,Fillmore County,MN,95.703125,NA,NA
55981,Wabasha County,MN,NA,94.62068965517241,NA
56007,Freeborn County,MN,NA,39.724137931034484,NA
56303,Stearns County,MN,69.140625,NA,NA
56329,Benton County,MN,73.4375,NA,NA
56560,Clay County,MN,NA,NA,91.05691056910568
38655,Lafayette County,MS,NA,NA,57.3170731707317
38701,Washington County,MS,NA,NA,64.43089430894308
38828,Union County,MS,96.484375,NA,NA
39042,Rankin County,MS,NA,75.72413793103449,NA
39157,Madison County,MS,49.21875,NA,NA
39204,Hinds County,MS,54.6875,NA,NA
39206,Hinds County,MS,NA,NA,54.67479674796748
39209,Hinds County,MS,NA,30.758620689655174,NA
39440,Jones County,MS,NA,NA,32.72357723577235
39452,George County,MS,NA,85.24137931034483,NA
39503,Harrison County,MS,NA,2.0689655172413794,NA
39531,Harrison County,MS,NA,73.10344827586206,NA
39532,Harrison County,MS,NA,35.58620689655172,NA
39540,Harrison County,MS,NA,42.62068965517241,NA
39560,Harrison County,MS,NA,25.379310344827587,NA
39730,Monroe County,MS,NA,89.93103448275862,NA
39759,Oktibbeha County,MS,NA,36.96551724137931,NA
63050,Jefferson County,MO,55.859375,NA,NA
63108,St. Louis city,MO,NA,58.620689655172406,NA
63109,St. Louis city,MO,NA,83.03448275862068,NA
63112,St. Louis city,MO,NA,81.65517241379311,NA
63113,St. Louis city,MO,NA,48.41379310344828,NA
63125,St. Louis County,MO,NA,NA,30.89430894308943
63146,St. Louis County,MO,NA,NA,90.04065040650406
63301,St. Charles County,MO,NA,15.310344827586206,NA
63628,St. Francois County,MO,NA,66.06896551724138,NA
63801,Scott County,MO,NA,18.20689655172414,NA
64037,Lafayette County,MO,NA,NA,68.90243902439023
64052,Jackson County,MO,NA,22.758620689655174,NA
64089,Clay County,MO,NA,NA,94.51219512195121
64118,Clay County,MO,NA,61.241379310344826,NA
64130,Jackson County,MO,NA,12.137931034482758,NA
64429,Clinton County,MO,39.0625,NA,NA
64490,DeKalb County,MO,NA,99.86206896551724,NA
64683,Grundy County,MO,NA,NA,69.91869918699187
64735,Henry County,MO,NA,98.48275862068967,NA
64804,Jasper County,MO,NA,NA,76.42276422764228
65026,Miller County,MO,NA,NA,60.36585365853659
65536,Laclede County,MO,NA,NA,70.9349593495935
65608,Douglas County,MO,95.3125,NA,NA
65616,Taney County,MO,NA,NA,60.97560975609756
65653,Taney County,MO,NA,71.72413793103448,NA
65804,Greene County,MO,NA,77.24137931034483,NA
59072,Musselshell County,MT,NA,NA,91.46341463414635
59711,Deer Lodge County,MT,NA,NA,83.94308943089432
68118,Douglas County,NE,97.65625,NA,NA
68131,Douglas County,NE,NA,83.58620689655173,NA
68133,Sarpy County,NE,NA,NA,73.78048780487805
68135,Douglas County,NE,NA,68.13793103448276,NA
68138,Sarpy County,NE,NA,71.17241379310344,NA
69162,Cheyenne County,NE,62.890625,NA,NA
89103,Clark County,NV,NA,NA,42.886178861788615
89107,Clark County,NV,NA,NA,59.14634146341463
89117,Clark County,NV,NA,NA,22.76422764227642
89134,Clark County,NV,63.671875,NA,NA
89141,Clark County,NV,NA,54.89655172413793,NA
89147,Clark County,NV,NA,31.586206896551722,NA
89447,Lyon County,NV,NA,62.3448275862069,NA
89502,Washoe County,NV,88.671875,NA,NA
89521,Washoe County,NV,NA,20.551724137931036,NA
03079,Rockingham County,NH,NA,10.482758620689655,NA
03087,Rockingham County,NH,92.96875,NA,NA
03103,Hillsborough County,NH,77.34375,NA,NA
03811,Rockingham County,NH,NA,40.96551724137931,NA
03824,Strafford County,NH,NA,NA,80.89430894308943
07001,Middlesex County,NJ,NA,79.44827586206897,NA
07002,Hudson County,NJ,NA,NA,27.439024390243905
07006,Essex County,NJ,NA,NA,72.96747967479675
07024,Bergen County,NJ,96.875,NA,5.284552845528456
07043,Essex County,NJ,NA,68.6896551724138,NA
07044,Essex County,NJ,NA,NA,62.601626016260155
07047,Hudson County,NJ,NA,0.6896551724137931,NA
07052,Essex County,NJ,16.40625,NA,NA
07055,Passaic County,NJ,NA,14.620689655172415,NA
07066,Union County,NJ,NA,94.06896551724138,NA
07067,Middlesex County,NJ,NA,52.689655172413794,NA
07080,Middlesex County,NJ,NA,NA,49.390243902439025
07083,Union County,NJ,NA,18.344827586206897,NA
07094,Hudson County,NJ,83.203125,NA,NA
07104,Essex County,NJ,NA,82.20689655172414,NA
07304,Hudson County,NJ,NA,NA,25.8130081300813
07403,Passaic County,NJ,NA,73.51724137931035,NA
07442,Passaic County,NJ,NA,NA,92.6829268292683
07456,Passaic County,NJ,NA,90.62068965517241,NA
07604,Bergen County,NJ,NA,62.62068965517241,NA
07605,Bergen County,NJ,87.890625,NA,NA
07628,Bergen County,NJ,NA,NA,29.878048780487802
07666,Bergen County,NJ,64.453125,NA,NA
07712,Monmouth County,NJ,NA,NA,61.99186991869918
07728,Monmouth County,NJ,NA,7.586206896551724,NA
07748,Monmouth County,NJ,NA,NA,43.49593495934959
07882,Warren County,NJ,NA,38.20689655172414,NA
07932,Morris County,NJ,78.515625,NA,NA
07936,Morris County,NJ,NA,60,NA
08008,Ocean County,NJ,NA,NA,47.357723577235774
08012,Camden County,NJ,NA,NA,55.894308943089435
08016,Burlington County,NJ,NA,NA,21.544715447154474
08046,Burlington County,NJ,NA,NA,18.495934959349594
08050,Ocean County,NJ,NA,NA,41.66666666666667
08070,Salem County,NJ,37.5,NA,NA
08080,Gloucester County,NJ,NA,NA,65.04065040650406
08081,Camden County,NJ,NA,94.20689655172414,NA
08094,Gloucester County,NJ,NA,5.655172413793103,NA
08104,Camden County,NJ,1.5625,NA,NA
08105,Camden County,NJ,1.953125,NA,NA
08204,Cape May County,NJ,NA,NA,18.29268292682927
08210,Cape May County,NJ,NA,72.9655172413793,NA
08234,Atlantic County,NJ,NA,30.482758620689655,NA
08260,Cape May County,NJ,NA,16.689655172413794,NA
08540,Mercer County,NJ,51.5625,NA,NA
08618,Mercer County,NJ,6.640625,NA,NA
08753,Ocean County,NJ,NA,2.896551724137931,NA
08759,Ocean County,NJ,NA,NA,73.3739837398374
08805,Somerset County,NJ,NA,NA,84.5528455284553
08807,Somerset County,NJ,NA,64.96551724137932,NA
08810,Middlesex County,NJ,89.84375,NA,NA
08835,Somerset County,NJ,87.109375,NA,NA
08837,Middlesex County,NJ,NA,NA,41.05691056910569
08844,Somerset County,NJ,NA,39.44827586206897,NA
08854,Middlesex County,NJ,NA,44.13793103448276,NA
08865,Warren County,NJ,NA,53.103448275862064,NA
08872,Middlesex County,NJ,42.1875,NA,NA
87020,Cibola County,NM,60.546875,NA,NA
87031,Valencia County,NM,NA,NA,36.78861788617886
87107,Bernalillo County,NM,NA,14.758620689655173,NA
87112,Bernalillo County,NM,57.03125,NA,NA
87420,San Juan County,NM,25.78125,NA,NA
88005,Doa Ana County,NM,NA,64,NA
88021,Doa Ana County,NM,90.234375,NA,NA
88030,Luna County,NM,NA,29.24137931034483,NA
88061,Grant County,NM,NA,98.34482758620689,NA
88220,Eddy County,NM,NA,NA,14.43089430894309
10002,New York County,NY,NA,NA,6.910569105691057
10016,New York County,NY,NA,NA,15.24390243902439
10023,New York County,NY,NA,7.310344827586207,NA
10025,New York County,NY,NA,NA,53.86178861788618
10030,New York County,NY,NA,65.51724137931035,NA
10031,New York County,NY,NA,67.72413793103448,NA
10034,New York County,NY,NA,93.10344827586206,NA
10040,New York County,NY,NA,11.310344827586206,NA
10456,Bronx County,NY,NA,0,NA
10457,Bronx County,NY,5.46875,NA,NA
10460,Bronx County,NY,NA,7.1724137931034475,NA
10462,Bronx County,NY,NA,17.379310344827587,NA
10467,Bronx County,NY,NA,NA,0.40650406504065045
10469,Bronx County,NY,NA,NA,73.57723577235772
10472,Bronx County,NY,NA,1.103448275862069,NA
10473,Bronx County,NY,20.3125,NA,NA
10474,Bronx County,NY,NA,88.96551724137932,NA
10538,Westchester County,NY,NA,NA,50.81300813008131
10547,Westchester County,NY,77.734375,NA,NA
10591,Westchester County,NY,94.921875,NA,NA
10605,Westchester County,NY,NA,NA,88.41463414634147
10701,Westchester County,NY,NA,2.344827586206897,NA
10705,Westchester County,NY,NA,74.20689655172413,NA
10801,Westchester County,NY,NA,20.275862068965516,NA
10983,Rockland County,NY,NA,NA,98.57723577235772
11001,Nassau County,NY,98.828125,NA,NA
11040,Nassau County,NY,NA,NA,44.918699186991866
11209,Kings County,NY,NA,NA,89.63414634146342
11210,Kings County,NY,NA,13.93103448275862,NA
11211,Kings County,NY,NA,NA,7.926829268292683
11212,Kings County,NY,43.359375,NA,NA
11218,Kings County,NY,NA,NA,3.048780487804878
11226,Kings County,NY,NA,NA,5.487804878048781
11228,Kings County,NY,NA,71.86206896551724,NA
11229,Kings County,NY,NA,52.137931034482754,NA
11231,Kings County,NY,NA,NA,35.16260162601626
11235,Kings County,NY,NA,NA,17.073170731707318
11236,Kings County,NY,NA,23.586206896551722,NA
11237,Kings County,NY,NA,NA,33.94308943089431
11355,Queens County,NY,NA,9.931034482758621,7.723577235772358
11356,Queens County,NY,NA,NA,51.42276422764228
11360,Queens County,NY,81.25,NA,NA
11361,Queens County,NY,92.1875,NA,NA
11373,Queens County,NY,NA,8.689655172413794,NA
11375,Queens County,NY,NA,NA,3.2520325203252036
11377,Queens County,NY,NA,68.41379310344827,NA
11378,Queens County,NY,NA,62.06896551724138,NA
11413,Queens County,NY,NA,64.41379310344828,NA
11419,Queens County,NY,NA,NA,59.34959349593496
11423,Queens County,NY,NA,NA,39.02439024390244
11510,Nassau County,NY,NA,NA,26.422764227642276
11520,Nassau County,NY,NA,24.275862068965516,NA
11530,Nassau County,NY,NA,NA,80.28455284552845
11552,Nassau County,NY,NA,NA,66.66666666666666
11580,Nassau County,NY,NA,34.758620689655174,NA
11596,Nassau County,NY,NA,78.89655172413794,NA
11753,Nassau County,NY,NA,75.86206896551724,NA
11757,Suffolk County,NY,NA,28.68965517241379,NA
11772,Suffolk County,NY,NA,41.6551724137931,NA
11787,Suffolk County,NY,66.40625,NA,NA
11792,Suffolk County,NY,NA,99.3103448275862,NA
11795,Suffolk County,NY,NA,91.58620689655173,NA
11901,Suffolk County,NY,38.671875,NA,NA
11937,Suffolk County,NY,NA,NA,72.76422764227642
11942,Suffolk County,NY,NA,83.72413793103448,NA
11946,Suffolk County,NY,NA,NA,40.040650406504064
11952,Suffolk County,NY,NA,NA,71.7479674796748
12010,Montgomery County,NY,NA,3.310344827586207,NA
12020,Saratoga County,NY,NA,NA,23.577235772357724
12054,Albany County,NY,NA,NA,55.28455284552846
12065,Saratoga County,NY,NA,NA,13.821138211382115
12143,Albany County,NY,NA,99.72413793103449,NA
12189,Albany County,NY,NA,NA,37.80487804878049
12202,Albany County,NY,24.21875,NA,NA
12302,Schenectady County,NY,NA,15.03448275862069,NA
12306,Schenectady County,NY,27.734375,NA,NA
12401,Ulster County,NY,NA,29.379310344827587,NA
12553,Orange County,NY,NA,46.758620689655174,NA
12580,Dutchess County,NY,NA,NA,86.78861788617887
12603,Dutchess County,NY,55.46875,59.17241379310345,NA
12801,Warren County,NY,NA,97.6551724137931,NA
13021,Cayuga County,NY,3.125,NA,NA
13073,Tompkins County,NY,NA,46.06896551724138,NA
13215,Onondaga County,NY,NA,76,NA
13440,Oneida County,NY,14.84375,NA,NA
13601,Jefferson County,NY,NA,10.206896551724139,NA
13733,Chenango County,NY,NA,41.37931034482759,NA
13760,Broome County,NY,NA,10.620689655172413,NA
13820,Otsego County,NY,9.375,NA,NA
13850,Broome County,NY,NA,NA,15.447154471544716
13901,Broome County,NY,NA,2.4827586206896552,NA
13905,Broome County,NY,NA,NA,1.0162601626016259
14103,Orleans County,NY,NA,95.17241379310344,NA
14150,Erie County,NY,NA,NA,8.94308943089431
14202,Erie County,NY,NA,69.24137931034483,NA
14206,Erie County,NY,NA,NA,100
14217,Erie County,NY,NA,NA,31.70731707317073
14221,Erie County,NY,12.890625,NA,NA
14223,Erie County,NY,NA,50.48275862068966,NA
14225,Erie County,NY,40.625,NA,NA
14420,Monroe County,NY,NA,13.379310344827585,NA
14428,Monroe County,NY,NA,69.93103448275862,NA
14456,Ontario County,NY,75.390625,NA,NA
14502,Wayne County,NY,NA,88.41379310344828,NA
14580,Monroe County,NY,1.171875,NA,NA
14613,Monroe County,NY,NA,21.931034482758623,NA
14620,Monroe County,NY,NA,8.827586206896552,NA
14621,Monroe County,NY,NA,11.03448275862069,NA
14706,Cattaraugus County,NY,NA,43.44827586206896,NA
14810,Steuben County,NY,NA,NA,77.03252032520325
14830,Steuben County,NY,NA,44.689655172413794,NA
14850,Tompkins County,NY,NA,88.27586206896552,NA
14905,Chemung County,NY,NA,45.51724137931035,NA
27012,Forsyth County,NC,NA,2.206896551724138,NA
27048,Rockingham County,NC,NA,42.758620689655174,NA
27103,Forsyth County,NC,NA,40.55172413793103,0.20325203252032523
27249,Guilford County,NC,NA,65.65517241379311,NA
27253,Alamance County,NC,81.640625,NA,NA
27262,Guilford County,NC,NA,99.17241379310346,NA
27284,Forsyth County,NC,24.609375,NA,NA
27360,Davidson County,NC,NA,18.068965517241377,NA
27501,Harnett County,NC,NA,NA,48.3739837398374
27518,Wake County,NC,NA,NA,57.113821138211385
27707,Durham County,NC,NA,49.79310344827586,NA
27823,Halifax County,NC,NA,NA,69.51219512195121
27850,Halifax County,NC,NA,74.06896551724138,NA
27855,Hertford County,NC,NA,94.89655172413794,NA
27870,Halifax County,NC,NA,92.41379310344827,NA
27874,Halifax County,NC,NA,79.72413793103448,NA
28027,Cabarrus County,NC,NA,65.24137931034483,NA
28043,Rutherford County,NC,NA,NA,72.35772357723577
28081,Cabarrus County,NC,NA,89.51724137931035,NA
28104,Union County,NC,NA,77.79310344827586,NA
28129,Stanly County,NC,NA,NA,67.07317073170732
28211,Mecklenburg County,NC,NA,39.17241379310345,NA
28215,Mecklenburg County,NC,NA,50.62068965517241,NA
28216,Mecklenburg County,NC,NA,8.137931034482758,NA
28269,Mecklenburg County,NC,NA,93.24137931034483,NA
28306,Bladen County,NC,NA,NA,24.390243902439025
28364,Robeson County,NC,35.546875,NA,NA
28372,Robeson County,NC,NA,NA,58.536585365853654
28409,New Hanover County,NC,NA,9.241379310344827,42.68292682926829
28460,Onslow County,NC,NA,94.48275862068965,NA
28472,Columbus County,NC,NA,NA,28.65853658536585
28551,Lenoir County,NC,NA,NA,63.617886178861795
28586,Craven County,NC,NA,74.62068965517241,NA
28607,Watauga County,NC,NA,NA,58.536585365853654
28625,Iredell County,NC,NA,NA,14.83739837398374
28630,Caldwell County,NC,NA,26.482758620689655,NA
28658,Catawba County,NC,NA,NA,62.398373983739845
28704,Buncombe County,NC,NA,69.51724137931035,NA
28787,Buncombe County,NC,NA,NA,50.40650406504065
58104,Cass County,ND,NA,NA,13.617886178861788
43017,Franklin County,OH,NA,NA,20.528455284552845
43019,Knox County,OH,NA,NA,55.487804878048784
43055,Licking County,OH,13.28125,NA,NA
43062,Licking County,OH,89.453125,NA,NA
43065,Delaware County,OH,98.4375,NA,NA
43147,Fairfield County,OH,NA,NA,30.284552845528456
43213,Franklin County,OH,30.078125,NA,NA
43214,Franklin County,OH,NA,NA,30.691056910569102
43220,Franklin County,OH,NA,32.41379310344827,NA
43224,Franklin County,OH,35.9375,NA,NA
43227,Franklin County,OH,NA,24.551724137931036,NA
43229,Franklin County,OH,5.859375,NA,NA
43231,Franklin County,OH,NA,NA,63.41463414634146
43232,Franklin County,OH,NA,7.724137931034483,NA
43420,Sandusky County,OH,NA,NA,11.788617886178862
43465,Wood County,OH,88.28125,NA,NA
43512,Defiance County,OH,NA,18.482758620689655,NA
43606,Lucas County,OH,NA,NA,29.878048780487802
43608,Lucas County,OH,NA,27.448275862068964,NA
43609,Lucas County,OH,NA,50.89655172413793,57.92682926829268
43724,Noble County,OH,NA,NA,67.88617886178862
44003,Ashtabula County,OH,71.875,NA,NA
44012,Lorain County,OH,NA,55.03448275862068,NA
44022,Cuyahoga County,OH,NA,NA,10.16260162601626
44035,Lorain County,OH,NA,NA,6.707317073170732
44044,Lorain County,OH,NA,69.37931034482759,NA
44060,Lake County,OH,NA,NA,2.8455284552845526
44095,Lake County,OH,NA,NA,2.4390243902439024
44103,Cuyahoga County,OH,NA,29.10344827586207,NA
44107,Cuyahoga County,OH,NA,1.5172413793103448,NA
44109,Cuyahoga County,OH,NA,0.8275862068965517,NA
44124,Cuyahoga County,OH,NA,1.3793103448275863,NA
44125,Cuyahoga County,OH,NA,NA,4.471544715447155
44130,Cuyahoga County,OH,NA,5.517241379310345,NA
44143,Cuyahoga County,OH,NA,NA,0.6097560975609756
44149,Cuyahoga County,OH,NA,NA,68.4959349593496
44256,Medina County,OH,NA,29.517241379310345,NA
44312,Summit County,OH,NA,79.17241379310344,NA
44425,Trumbull County,OH,NA,NA,59.959349593495936
44438,Trumbull County,OH,52.34375,NA,NA
44442,Mahoning County,OH,NA,74.89655172413792,NA
44484,Trumbull County,OH,NA,NA,34.552845528455286
44507,Mahoning County,OH,NA,54.62068965517241,NA
44907,Richland County,OH,NA,67.0344827586207,NA
45011,Butler County,OH,NA,1.6551724137931034,NA
45042,Butler County,OH,39.84375,NA,NA
45044,Butler County,OH,5.078125,NA,NA
45056,Butler County,OH,NA,NA,51.21951219512195
45216,Hamilton County,OH,NA,80.13793103448276,NA
45219,Hamilton County,OH,NA,59.862068965517246,NA
45231,Hamilton County,OH,8.203125,NA,NA
45243,Hamilton County,OH,NA,NA,47.764227642276424
45356,Miami County,OH,NA,27.86206896551724,NA
45383,Miami County,OH,NA,NA,90.2439024390244
45387,Greene County,OH,NA,49.24137931034483,NA
45424,Montgomery County,OH,NA,26.068965517241377,NA
45434,Greene County,OH,NA,48.275862068965516,NA
45656,Jackson County,OH,NA,NA,91.66666666666666
45669,Lawrence County,OH,NA,11.862068965517242,77.64227642276423
45750,Washington County,OH,NA,NA,42.47967479674797
45805,Allen County,OH,NA,NA,64.22764227642277
73003,Oklahoma County,OK,48.4375,NA,NA
73115,Oklahoma County,OK,NA,27.034482758620687,NA
73130,Oklahoma County,OK,83.59375,NA,NA
73439,Marshall County,OK,55.078125,NA,NA
73533,Stephens County,OK,NA,6.482758620689655,NA
73801,Woodward County,OK,NA,NA,57.72357723577236
74023,Payne County,OK,48.828125,NA,NA
74074,Payne County,OK,NA,25.79310344827586,NA
74403,Muskogee County,OK,NA,NA,17.682926829268293
74447,Okmulgee County,OK,NA,66.48275862068965,NA
74525,Atoka County,OK,NA,NA,48.170731707317074
97034,Clackamas County,OR,100,NA,NA
97045,Clackamas County,OR,NA,84.6896551724138,NA
97055,Clackamas County,OR,NA,33.37931034482759,NA
97201,Multnomah County,OR,NA,73.24137931034483,NA
97202,Multnomah County,OR,NA,NA,59.552845528455286
97221,Multnomah County,OR,NA,61.793103448275865,NA
97222,Clackamas County,OR,NA,97.51724137931035,NA
97230,Multnomah County,OR,41.796875,62.48275862068966,NA
97322,Linn County,OR,NA,30.06896551724138,NA
97330,Benton County,OR,NA,16.551724137931036,NA
97402,Lane County,OR,NA,43.58620689655173,NA
97426,Lane County,OR,NA,54.206896551724135,NA
97457,Douglas County,OR,NA,52,NA
97479,Douglas County,OR,NA,35.03448275862069,NA
97526,Josephine County,OR,22.65625,NA,NA
97527,Josephine County,OR,NA,11.586206896551724,NA
97707,Deschutes County,OR,NA,86.89655172413792,NA
97862,Umatilla County,OR,NA,41.10344827586207,NA
15042,Beaver County,PA,NA,53.6551724137931,NA
15057,Washington County,PA,NA,90.20689655172414,NA
15062,Westmoreland County,PA,NA,NA,97.5609756097561
15071,Allegheny County,PA,NA,74.48275862068967,NA
15090,Allegheny County,PA,NA,NA,78.45528455284553
15101,Allegheny County,PA,50.390625,NA,NA
15104,Allegheny County,PA,50.78125,NA,NA
15108,Allegheny County,PA,NA,9.793103448275863,NA
15132,Allegheny County,PA,NA,15.172413793103448,NA
15133,Allegheny County,PA,NA,92.13793103448276,NA
15201,Allegheny County,PA,NA,NA,51.6260162601626
15202,Allegheny County,PA,NA,NA,84.7560975609756
15237,Allegheny County,PA,NA,68.27586206896552,NA
15301,Washington County,PA,NA,53.37931034482759,NA
15401,Fayette County,PA,NA,84.82758620689656,NA
15613,Westmoreland County,PA,NA,NA,89.83739837398373
15642,Westmoreland County,PA,91.796875,NA,18.902439024390244
15650,Westmoreland County,PA,NA,NA,43.90243902439025
15824,Jefferson County,PA,NA,NA,64.63414634146342
15857,Elk County,PA,NA,90.06896551724138,NA
16066,Butler County,PA,NA,51.172413793103445,NA
16117,Lawrence County,PA,NA,29.793103448275858,NA
16146,Mercer County,PA,21.484375,NA,NA
16148,Mercer County,PA,NA,NA,3.861788617886179
16335,Crawford County,PA,11.71875,NA,NA
16602,Blair County,PA,NA,96,NA
17003,Lebanon County,PA,NA,NA,87.8048780487805
17053,Perry County,PA,NA,87.17241379310346,NA
17057,Dauphin County,PA,NA,77.79310344827586,NA
17112,Dauphin County,PA,17.578125,3.4482758620689653,NA
17325,Adams County,PA,NA,NA,44.3089430894309
17402,York County,PA,NA,5.103448275862069,2.0325203252032518
17555,Lancaster County,PA,NA,NA,99.59349593495935
17777,Northumberland County,PA,NA,NA,98.98373983739837
17847,Northumberland County,PA,NA,55.44827586206896,NA
17851,Northumberland County,PA,NA,93.93103448275862,NA
18017,Northampton County,PA,44.53125,NA,NA
18067,Northampton County,PA,NA,78.20689655172414,NA
18102,Lehigh County,PA,NA,4,NA
18201,Luzerne County,PA,NA,NA,47.5609756097561
18210,Carbon County,PA,NA,52.55172413793103,NA
18301,Monroe County,PA,NA,NA,21.747967479674795
18512,Lackawanna County,PA,46.484375,NA,NA
18702,Luzerne County,PA,7.421875,NA,NA
18707,Luzerne County,PA,NA,91.44827586206897,NA
18977,Bucks County,PA,NA,NA,66.26016260162602
19014,Delaware County,PA,NA,NA,29.065040650406505
19057,Bucks County,PA,NA,96.27586206896551,NA
19067,Bucks County,PA,NA,85.6551724137931,NA
19070,Delaware County,PA,NA,NA,93.69918699186992
19081,Delaware County,PA,NA,NA,95.9349593495935
19085,Delaware County,PA,94.140625,NA,NA
19095,Montgomery County,PA,NA,57.24137931034483,NA
19104,Philadelphia County,PA,12.109375,58.758620689655174,NA
19111,Philadelphia County,PA,3.515625,3.0344827586206895,6.504065040650407
19119,Philadelphia County,PA,NA,NA,54.87804878048781
19126,Philadelphia County,PA,NA,NA,38.00813008130081
19133,Philadelphia County,PA,NA,21.379310344827587,NA
19137,Philadelphia County,PA,NA,54.62068965517241,NA
19140,Philadelphia County,PA,NA,NA,22.35772357723577
19141,Philadelphia County,PA,7.8125,NA,NA
19142,Philadelphia County,PA,83.984375,NA,NA
19143,Philadelphia County,PA,NA,7.03448275862069,25.203252032520325
19145,Philadelphia County,PA,26.5625,NA,NA
19473,Montgomery County,PA,NA,97.10344827586206,NA
19512,Berks County,PA,44.921875,NA,NA
19526,Berks County,PA,NA,NA,94.10569105691057
19606,Berks County,PA,NA,94.34482758620689,NA
19607,Berks County,PA,NA,70.06896551724138,NA
19610,Berks County,PA,NA,86.20689655172413,NA
02895,Providence County,RI,44.140625,17.103448275862068,NA
02906,Providence County,RI,NA,27.72413793103448,NA
02908,Providence County,RI,NA,84,NA
29010,Lee County,SC,NA,93.79310344827586,NA
29154,Sumter County,SC,NA,NA,43.292682926829265
29212,Lexington County,SC,47.265625,NA,NA
29307,Spartanburg County,SC,NA,67.58620689655173,NA
29360,Laurens County,SC,NA,52.275862068965516,NA
29372,Spartanburg County,SC,78.90625,NA,NA
29401,Charleston County,SC,NA,63.172413793103445,NA
29456,Dorchester County,SC,NA,NA,50.609756097560975
29483,Dorchester County,SC,NA,74.34482758620689,NA
29505,Florence County,SC,NA,NA,27.84552845528455
29579,Horry County,SC,NA,20.82758620689655,NA
29605,Greenville County,SC,NA,29.931034482758623,NA
29607,Greenville County,SC,NA,NA,41.05691056910569
29624,Anderson County,SC,NA,33.93103448275862,NA
29669,Anderson County,SC,NA,72.82758620689656,66.05691056910568
29687,Greenville County,SC,NA,14.206896551724139,NA
29710,York County,SC,NA,31.17241379310345,NA
29920,Beaufort County,SC,NA,79.0344827586207,NA
29928,Beaufort County,SC,NA,NA,28.86178861788618
57501,Hughes County,SD,NA,NA,47.15447154471545
57701,Pennington County,SD,NA,33.51724137931035,NA
37074,Trousdale County,TN,NA,NA,82.52032520325203
37138,Davidson County,TN,NA,35.724137931034484,NA
37209,Davidson County,TN,NA,60.55172413793104,NA
37221,Davidson County,TN,70.703125,NA,NA
37405,Hamilton County,TN,NA,98.89655172413792,NA
37415,Hamilton County,TN,NA,NA,78.2520325203252
37419,Hamilton County,TN,NA,72,NA
37421,Hamilton County,TN,NA,18.620689655172416,NA
37643,Carter County,TN,NA,NA,9.34959349593496
37645,Hawkins County,TN,NA,NA,72.15447154471545
37660,Sullivan County,TN,NA,NA,76.01626016260163
37663,Sullivan County,TN,NA,NA,54.268292682926834
37711,Hawkins County,TN,NA,61.37931034482759,NA
37748,Roane County,TN,28.90625,NA,NA
37760,Jefferson County,TN,NA,54.344827586206904,NA
37820,Jefferson County,TN,NA,NA,75.20325203252033
37861,Grainger County,TN,NA,NA,92.47967479674797
37912,Knox County,TN,NA,NA,36.99186991869919
37920,Knox County,TN,NA,NA,20.121951219512198
37923,Knox County,TN,40.234375,NA,NA
38017,Shelby County,TN,69.53125,NA,NA
38063,Lauderdale County,TN,56.25,NA,NA
38106,Shelby County,TN,NA,82.62068965517241,NA
38107,Shelby County,TN,34.375,NA,NA
38111,Shelby County,TN,NA,NA,28.04878048780488
38117,Shelby County,TN,NA,47.03448275862069,NA
38127,Shelby County,TN,NA,23.724137931034484,NA
38134,Shelby County,TN,NA,36.41379310344828,NA
38261,Obion County,TN,NA,NA,47.96747967479675
38305,Madison County,TN,8.984375,NA,NA
38344,Carroll County,TN,NA,NA,65.65040650406505
75020,Grayson County,TX,NA,22.620689655172413,NA
75022,Denton County,TX,NA,87.0344827586207,NA
75043,Dallas County,TX,NA,10.068965517241379,NA
75070,Collin County,TX,NA,NA,8.130081300813007
75071,Collin County,TX,NA,NA,49.59349593495935
75104,Dallas County,TX,NA,80.55172413793103,NA
75126,Kaufman County,TX,85.546875,NA,NA
75143,Henderson County,TX,NA,39.44827586206897,NA
75210,Dallas County,TX,NA,NA,66.46341463414635
75217,Dallas County,TX,NA,4.689655172413794,NA
75219,Dallas County,TX,NA,NA,57.52032520325203
75225,Dallas County,TX,NA,NA,66.869918699187
75233,Dallas County,TX,NA,57.37931034482758,NA
75238,Dallas County,TX,71.484375,NA,NA
75243,Dallas County,TX,NA,72.41379310344827,NA
75605,Gregg County,TX,NA,24.413793103448274,NA
75652,Rusk County,TX,NA,NA,84.14634146341463
75662,Gregg County,TX,NA,21.655172413793103,NA
75840,Freestone County,TX,NA,55.72413793103448,NA
75949,Angelina County,TX,63.28125,NA,NA
75961,Nacogdoches County,TX,NA,98.06896551724138,NA
76009,Johnson County,TX,NA,64.82758620689654,NA
76010,Tarrant County,TX,73.046875,NA,NA
76015,Tarrant County,TX,NA,49.37931034482759,NA
76028,Johnson County,TX,65.234375,NA,NA
76049,Hood County,TX,32.421875,NA,NA
76086,Parker County,TX,NA,39.310344827586206,NA
76105,Tarrant County,TX,NA,83.44827586206897,NA
76107,Tarrant County,TX,67.1875,NA,NA
76182,Tarrant County,TX,NA,NA,74.1869918699187
76305,Wichita County,TX,NA,75.3103448275862,NA
76310,Wichita County,TX,NA,NA,70.73170731707317
76504,Bell County,TX,11.328125,NA,NA
76550,Lampasas County,TX,47.65625,NA,NA
76657,McLennan County,TX,NA,60.13793103448276,NA
76705,McLennan County,TX,72.65625,NA,NA
76706,McLennan County,TX,NA,27.034482758620687,NA
76903,Tom Green County,TX,33.984375,NA,NA
77008,Harris County,TX,NA,NA,97.76422764227642
77015,Harris County,TX,NA,NA,79.67479674796748
77017,Harris County,TX,NA,62.758620689655174,NA
77019,Harris County,TX,NA,NA,68.29268292682927
77021,Harris County,TX,30.46875,NA,NA
77024,Harris County,TX,NA,NA,23.78048780487805
77070,Harris County,TX,36.328125,NA,NA
77083,Harris County,TX,NA,82.34482758620689,NA
77086,Harris County,TX,NA,NA,85.16260162601627
77328,San Jacinto County,TX,60.15625,NA,NA
77346,Harris County,TX,NA,48.55172413793103,NA
77354,Montgomery County,TX,NA,NA,22.5609756097561
77356,Montgomery County,TX,NA,NA,32.72357723577235
77360,Polk County,TX,91.40625,52.96551724137931,NA
77365,Montgomery County,TX,NA,89.79310344827586,NA
77373,Harris County,TX,80.46875,17.79310344827586,NA
77375,Harris County,TX,NA,NA,29.471544715447155
77378,Montgomery County,TX,NA,63.44827586206897,NA
77478,Fort Bend County,TX,NA,NA,32.113821138211385
77479,Fort Bend County,TX,NA,96.82758620689656,NA
77510,Galveston County,TX,NA,NA,96.34146341463415
77554,Galveston County,TX,NA,85.79310344827587,NA
77868,Grimes County,TX,NA,76.6896551724138,NA
77957,Jackson County,TX,NA,NA,46.34146341463415
78052,Atascosa County,TX,NA,NA,89.43089430894308
78154,Guadalupe County,TX,NA,53.79310344827586,NA
78163,Comal County,TX,NA,92.96551724137932,NA
78201,Bexar County,TX,21.875,NA,NA
78210,Bexar County,TX,NA,33.241379310344826,NA
78219,Bexar County,TX,NA,NA,70.32520325203252
78225,Bexar County,TX,NA,NA,82.92682926829268
78228,Bexar County,TX,NA,NA,14.634146341463413
78233,Bexar County,TX,NA,36.137931034482754,NA
78239,Bexar County,TX,NA,NA,52.4390243902439
78242,Bexar County,TX,NA,83.3103448275862,NA
78363,Kleberg County,TX,NA,NA,43.08943089430895
78372,Jim Wells County,TX,NA,NA,99.1869918699187
78404,Nueces County,TX,NA,96.9655172413793,NA
78415,Nueces County,TX,NA,75.0344827586207,NA
78526,Cameron County,TX,51.171875,NA,NA
78537,Hidalgo County,TX,NA,NA,37.39837398373984
78550,Cameron County,TX,NA,85.51724137931035,NA
78572,Hidalgo County,TX,NA,91.0344827586207,2.642276422764228
78574,Hidalgo County,TX,NA,23.03448275862069,56.70731707317073
78617,Travis County,TX,NA,NA,86.3821138211382
78639,Llano County,TX,NA,28.27586206896552,NA
78640,Hays County,TX,NA,52.82758620689655,NA
78645,Travis County,TX,NA,44.275862068965516,NA
78660,Travis County,TX,NA,20.96551724137931,34.146341463414636
78666,Hays County,TX,NA,23.17241379310345,NA
78676,Hays County,TX,NA,NA,63.21138211382114
78759,Travis County,TX,NA,60.827586206896555,NA
78852,Maverick County,TX,NA,63.58620689655172,NA
79107,Potter County,TX,28.125,NA,NA
79124,Potter County,TX,91.015625,NA,NA
79415,Lubbock County,TX,NA,47.58620689655172,NA
79706,Midland County,TX,NA,43.862068965517246,NA
79761,Ector County,TX,NA,37.51724137931035,NA
79762,Ector County,TX,NA,76.55172413793103,NA
79765,Ector County,TX,85.9375,NA,NA
79901,El Paso County,TX,NA,NA,44.3089430894309
79934,El Paso County,TX,64.0625,NA,NA
79936,El Paso County,TX,13.671875,NA,NA
84015,Davis County,UT,NA,67.44827586206897,NA
84109,Salt Lake County,UT,NA,33.6551724137931,NA
84129,,UT,60.9375,NA,NA
05478,Franklin County,VT,NA,95.44827586206897,15.650406504065039
05488,Franklin County,VT,NA,39.03448275862069,NA
05495,Chittenden County,VT,NA,43.172413793103445,NA
20175,Loudoun County,VA,NA,91.3103448275862,NA
22031,Fairfax County,VA,NA,81.51724137931035,NA
22032,Fairfax County,VA,NA,NA,82.3170731707317
22042,Fairfax County,VA,39.453125,NA,NA
22124,Fairfax County,VA,69.921875,NA,NA
22150,Fairfax County,VA,NA,NA,61.78861788617886
22182,Fairfax County,VA,NA,NA,80.6910569105691
22203,Arlington County,VA,NA,NA,52.642276422764226
22204,Arlington County,VA,45.703125,NA,NA
22303,Fairfax County,VA,NA,88,NA
22304,Alexandria city,VA,NA,48,NA
22407,Spotsylvania County,VA,NA,10.758620689655173,NA
22553,Spotsylvania County,VA,NA,46.758620689655174,NA
22644,Shenandoah County,VA,97.265625,NA,NA
22727,Madison County,VA,NA,NA,65.85365853658537
23093,Louisa County,VA,NA,NA,38.21138211382114
23112,Chesterfield County,VA,NA,NA,26.01626016260163
23185,James City County,VA,NA,15.448275862068966,NA
23222,Richmond city,VA,NA,NA,24.59349593495935
23227,Henrico County,VA,NA,NA,17.276422764227643
23434,Suffolk city,VA,NA,5.379310344827586,NA
23452,Virginia Beach city,VA,NA,50.3448275862069,NA
23464,Virginia Beach city,VA,NA,14.344827586206895,NA
23513,Norfolk city,VA,NA,NA,11.178861788617885
23606,Newport News city,VA,NA,NA,8.536585365853659
23803,Petersburg city,VA,NA,8.275862068965518,NA
24014,Roanoke city,VA,NA,NA,70.52845528455285
24018,Roanoke County,VA,NA,NA,4.878048780487805
24277,Lee County,VA,NA,NA,90.85365853658537
24382,Wythe County,VA,NA,31.724137931034484,NA
24422,Alleghany County,VA,NA,59.44827586206897,NA
24450,Rockbridge County,VA,NA,84.41379310344827,NA
24540,Danville city,VA,NA,86.75862068965517,NA
24541,Danville city,VA,NA,19.724137931034484,NA
24557,Pittsylvania County,VA,NA,66.06896551724138,NA
24563,Pittsylvania County,VA,NA,NA,77.03252032520325
98002,King County,WA,NA,61.10344827586207,NA
98012,Snohomish County,WA,NA,NA,74.59349593495935
98020,Snohomish County,WA,NA,NA,19.308943089430894
98021,Snohomish County,WA,NA,NA,33.13008130081301
98026,Snohomish County,WA,29.296875,NA,NA
98028,King County,WA,NA,NA,44.71544715447154
98030,King County,WA,23.046875,NA,NA
98037,Snohomish County,WA,NA,87.72413793103449,NA
98042,King County,WA,NA,65.37931034482759,NA
98056,King County,WA,NA,37.37931034482759,40.65040650406504
98058,King County,WA,NA,75.17241379310344,NA
98117,King County,WA,NA,58.896551724137936,NA
98118,King County,WA,33.59375,NA,NA
98122,King County,WA,NA,26.89655172413793,NA
98148,King County,WA,NA,95.58620689655173,NA
98198,King County,WA,NA,77.51724137931035,NA
98272,Snohomish County,WA,NA,97.93103448275862,NA
98292,Snohomish County,WA,NA,81.79310344827586,NA
98370,Kitsap County,WA,NA,NA,96.95121951219512
98371,Pierce County,WA,NA,35.86206896551724,NA
98466,Pierce County,WA,NA,NA,82.72357723577237
98506,Thurston County,WA,NA,NA,87.1951219512195
98512,Thurston County,WA,NA,NA,45.32520325203252
98513,Thurston County,WA,NA,NA,51.6260162601626
98579,Thurston County,WA,NA,81.10344827586206,NA
98612,Wahkiakum County,WA,NA,95.03448275862068,NA
98801,Chelan County,WA,NA,86.34482758620689,NA
98822,Chelan County,WA,98.046875,NA,NA
99163,Whitman County,WA,NA,NA,89.02439024390245
99207,Spokane County,WA,NA,40.13793103448276,NA
99212,Spokane County,WA,NA,50.758620689655174,NA
99353,Benton County,WA,NA,40.41379310344828,NA
20007,District of Columbia,DC,NA,NA,48.78048780487805
20011,District of Columbia,DC,NA,45.93103448275862,NA
20019,District of Columbia,DC,NA,65.93103448275862,NA
25313,Kanawha County,WV,NA,NA,45.9349593495935
25801,Raleigh County,WV,NA,NA,26.21951219512195
25880,Raleigh County,WV,99.21875,NA,NA
26003,Ohio County,WV,76.953125,35.310344827586206,NA
26101,Wood County,WV,NA,NA,65.4471544715447
26105,Wood County,WV,NA,96.41379310344827,16.666666666666664
26170,Pleasants County,WV,NA,50.06896551724138,NA
26501,Monongalia County,WV,50,NA,NA
26554,Marion County,WV,NA,NA,1.2195121951219512
53073,Sheboygan County,WI,NA,71.3103448275862,NA
53098,Dodge County,WI,NA,59.724137931034484,NA
53128,Walworth County,WI,NA,66.3448275862069,NA
53142,Kenosha County,WI,NA,12.689655172413794,NA
53158,Kenosha County,WI,68.75,NA,NA
53212,Milwaukee County,WI,NA,7.448275862068964,77.84552845528455
53213,Milwaukee County,WI,61.71875,NA,NA
53215,Milwaukee County,WI,4.6875,NA,NA
53218,Milwaukee County,WI,NA,4.827586206896552,NA
53219,Milwaukee County,WI,NA,77.10344827586208,NA
53221,Milwaukee County,WI,NA,85.93103448275862,NA
53406,Racine County,WI,NA,1.2413793103448276,NA
53558,Dane County,WI,NA,NA,70.1219512195122
53566,Green County,WI,NA,NA,58.94308943089431
53572,Dane County,WI,NA,53.93103448275862,NA
53705,Dane County,WI,NA,NA,74.39024390243902
53965,Sauk County,WI,NA,80,NA
54481,Portage County,WI,NA,9.517241379310343,NA
54724,Chippewa County,WI,NA,61.51724137931035,NA
82716,Campbell County,WY,85.15625,90.48275862068965,NA
82801,Sheridan County,WY,NA,NA,18.69918699186992
82901,Sweetwater County,WY,NA,92.55172413793103,NA
82935,Sweetwater County,WY,NA,74.62068965517241,NA
