ZipCode,county,state,Youth,Pediatric,Adult
35062,Jefferson County,AL,90.57591623036649,NA,NA
35127,Jefferson County,AL,91.62303664921467,NA,NA
35653,Franklin County,AL,74.86910994764398,NA,NA
36116,Montgomery County,AL,NA,69.31818181818183,31.491712707182316
36744,Hale County,AL,NA,NA,83.42541436464089
99504,Anchorage Municipality,AK,NA,NA,32.59668508287293
99567,Anchorage Municipality,AK,NA,NA,93.92265193370166
99705,Fairbanks North Star Borough,AK,NA,77.27272727272727,NA
85042,Maricopa County,AZ,62.82722513089005,NA,NA
85128,Pinal County,AZ,62.30366492146597,61.36363636363637,NA
85131,Pinal County,AZ,89.52879581151832,NA,NA
85201,Maricopa County,AZ,NA,NA,22.099447513812155
85281,Maricopa County,AZ,49.47643979057592,NA,NA
85298,Maricopa County,AZ,NA,97.72727272727273,NA
85542,Gila County,AZ,92.14659685863874,NA,NA
85621,Santa Cruz County,AZ,77.74869109947645,NA,NA
85719,Pima County,AZ,NA,NA,50.82872928176796
85730,Pima County,AZ,39.26701570680628,NA,NA
86033,Navajo County,AZ,78.53403141361257,NA,NA
86045,Coconino County,AZ,NA,NA,38.12154696132597
71901,Garland County,AR,56.282722513089,NA,NA
72113,Pulaski County,AR,54.18848167539267,NA,NA
72209,Pulaski County,AR,98.69109947643979,NA,NA
72212,Pulaski County,AR,77.4869109947644,NA,NA
72442,Mississippi County,AR,97.64397905759162,NA,NA
72450,Greene County,AR,29.581151832460733,NA,NA
72501,Independence County,AR,48.167539267015705,NA,NA
90013,Los Angeles County,CA,NA,NA,70.71823204419888
90032,Los Angeles County,CA,NA,NA,85.0828729281768
90037,Los Angeles County,CA,NA,NA,55.24861878453039
90062,Los Angeles County,CA,68.58638743455498,NA,NA
90201,Los Angeles County,CA,40.31413612565445,NA,NA
90266,Los Angeles County,CA,NA,NA,93.37016574585635
90745,Los Angeles County,CA,64.65968586387434,NA,NA
91360,Ventura County,CA,NA,NA,75.69060773480662
91405,Los Angeles County,CA,NA,57.95454545454546,NA
91910,San Diego County,CA,NA,NA,39.226519337016576
91913,San Diego County,CA,NA,NA,82.32044198895028
91945,San Diego County,CA,NA,81.81818181818183,NA
92028,San Diego County,CA,NA,NA,76.24309392265194
92064,San Diego County,CA,72.25130890052355,NA,NA
92118,San Diego County,CA,89.00523560209425,NA,NA
92131,San Diego County,CA,72.77486910994764,NA,NA
92335,San Bernardino County,CA,NA,NA,18.23204419889503
92337,San Bernardino County,CA,72.5130890052356,NA,NA
92562,Riverside County,CA,35.340314136125656,NA,NA
92887,Orange County,CA,91.36125654450262,NA,NA
93001,Ventura County,CA,NA,46.02272727272727,NA
93003,Ventura County,CA,NA,NA,23.204419889502763
93004,Ventura County,CA,NA,NA,71.27071823204419
93030,Ventura County,CA,16.230366492146597,NA,NA
93035,Ventura County,CA,NA,NA,79.00552486187846
93212,Kings County,CA,73.29842931937172,NA,NA
93245,Kings County,CA,67.80104712041884,NA,NA
93274,Tulare County,CA,NA,NA,12.154696132596685
93446,San Luis Obispo County,CA,74.60732984293193,NA,NA
93550,Los Angeles County,CA,50.78534031413613,NA,NA
93552,Los Angeles County,CA,NA,NA,72.92817679558011
93612,Fresno County,CA,NA,48.29545454545455,NA
94066,San Mateo County,CA,70.68062827225131,NA,NA
94086,Santa Clara County,CA,83.24607329842932,NA,NA
94109,San Francisco County,CA,95.81151832460732,NA,NA
94110,San Francisco County,CA,NA,66.47727272727273,NA
94112,San Francisco County,CA,NA,58.52272727272727,72.37569060773481
94118,San Francisco County,CA,NA,NA,96.68508287292818
94122,San Francisco County,CA,NA,NA,97.23756906077348
94124,San Francisco County,CA,69.10994764397905,NA,NA
94132,San Francisco County,CA,NA,NA,85.6353591160221
94133,San Francisco County,CA,96.33507853403141,NA,NA
94501,Alameda County,CA,75.91623036649214,NA,NA
94533,Solano County,CA,NA,NA,34.806629834254146
94601,Alameda County,CA,24.345549738219894,26.704545454545453,NA
94607,Alameda County,CA,86.91099476439791,NA,NA
94611,Alameda County,CA,63.35078534031413,NA,NA
94612,Alameda County,CA,NA,91.47727272727273,NA
95307,Stanislaus County,CA,NA,59.65909090909091,49.171270718232044
95320,San Joaquin County,CA,89.79057591623037,NA,NA
95621,Sacramento County,CA,32.460732984293195,NA,NA
95630,Sacramento County,CA,NA,NA,40.88397790055249
95811,Sacramento County,CA,100,NA,NA
95821,Sacramento County,CA,NA,NA,61.87845303867403
95835,Sacramento County,CA,NA,NA,78.45303867403315
96097,Siskiyou County,CA,89.00523560209425,NA,NA
80011,Arapahoe County,CO,64.3979057591623,12.5,NA
80015,Arapahoe County,CO,8.115183246073299,NA,NA
80016,Arapahoe County,CO,5.7591623036649215,NA,NA
80026,Boulder County,CO,NA,76.70454545454545,NA
80138,Douglas County,CO,39.79057591623037,NA,NA
80219,Denver County,CO,NA,NA,9.94475138121547
80221,Adams County,CO,NA,24.431818181818183,NA
80224,Denver County,CO,78.79581151832461,NA,NA
80227,Jefferson County,CO,85.86387434554975,NA,NA
80236,Denver County,CO,NA,NA,86.74033149171271
80241,Adams County,CO,NA,78.97727272727273,NA
80247,Arapahoe County,CO,69.63350785340315,NA,NA
80403,Jefferson County,CO,80.36649214659685,NA,NA
80503,Boulder County,CO,76.96335078534031,NA,NA
80542,Weld County,CO,96.8586387434555,NA,NA
80620,Weld County,CO,NA,NA,64.08839779005525
80903,El Paso County,CO,71.98952879581152,NA,NA
80909,El Paso County,CO,NA,49.43181818181818,NA
06029,Tolland County,CT,78.79581151832461,NA,NA
06066,Tolland County,CT,NA,64.77272727272727,NA
06082,Hartford County,CT,26.96335078534031,NA,NA
06109,Hartford County,CT,NA,NA,76.79558011049724
06111,Hartford County,CT,NA,72.1590909090909,NA
06118,Hartford County,CT,NA,NA,38.67403314917127
06410,New Haven County,CT,NA,NA,79.55801104972376
06443,New Haven County,CT,NA,NA,100
06457,Middlesex County,CT,NA,42.61363636363637,NA
06514,New Haven County,CT,42.14659685863874,NA,NA
06606,Fairfield County,CT,NA,100,NA
06705,New Haven County,CT,NA,NA,34.25414364640884
06770,New Haven County,CT,61.518324607329845,NA,NA
06790,Litchfield County,CT,NA,35.79545454545455,NA
06804,Fairfield County,CT,NA,NA,82.87292817679558
19973,Sussex County,DE,44.24083769633508,NA,NA
32063,Baker County,FL,NA,NA,80.66298342541437
32209,Duval County,FL,14.397905759162304,NA,NA
32344,Jefferson County,FL,87.95811518324608,NA,NA
32571,Santa Rosa County,FL,52.35602094240838,NA,NA
32811,Orange County,FL,46.8586387434555,NA,NA
33015,Miami-Dade County,FL,NA,22.727272727272727,NA
33023,Broward County,FL,NA,NA,28.176795580110497
33025,Broward County,FL,NA,NA,46.408839779005525
33029,Broward County,FL,62.04188481675392,NA,NA
33033,Miami-Dade County,FL,17.539267015706805,NA,NA
33136,Miami-Dade County,FL,NA,77.8409090909091,NA
33176,Miami-Dade County,FL,37.17277486910995,NA,NA
33185,Miami-Dade County,FL,57.85340314136126,NA,NA
33405,Palm Beach County,FL,79.58115183246073,NA,NA
33498,Palm Beach County,FL,96.8586387434555,NA,NA
33576,Pasco County,FL,99.73821989528795,NA,NA
33612,Hillsborough County,FL,15.706806282722512,NA,NA
33619,Hillsborough County,FL,37.696335078534034,NA,NA
33714,Pinellas County,FL,86.38743455497382,NA,NA
33781,Pinellas County,FL,NA,NA,66.29834254143645
33868,Polk County,FL,90.83769633507853,NA,NA
33919,Lee County,FL,NA,NA,74.03314917127072
33983,Charlotte County,FL,NA,84.0909090909091,NA
34744,Osceola County,FL,23.82198952879581,NA,NA
34759,Polk County,FL,NA,NA,56.9060773480663
30016,Newton County,GA,NA,NA,20.994475138121548
30034,DeKalb County,GA,NA,NA,45.85635359116022
30058,DeKalb County,GA,43.455497382198956,NA,NA
30291,Fulton County,GA,65.70680628272252,NA,NA
30309,Fulton County,GA,NA,NA,95.58011049723757
30314,Fulton County,GA,68.32460732984293,NA,NA
30318,Fulton County,GA,NA,40.909090909090914,NA
30340,DeKalb County,GA,NA,73.29545454545455,NA
30342,Fulton County,GA,NA,80.11363636363636,NA
30655,Walton County,GA,28.01047120418848,NA,NA
30901,Richmond County,GA,NA,NA,91.71270718232044
30906,Richmond County,GA,NA,28.40909090909091,14.3646408839779
31030,Peach County,GA,NA,85.22727272727273,NA
31052,Bibb County,GA,NA,98.86363636363636,NA
31082,Washington County,GA,NA,90.9090909090909,NA
31632,Lowndes County,GA,69.63350785340315,NA,NA
31904,Muscogee County,GA,NA,NA,47.51381215469613
31906,Muscogee County,GA,NA,NA,60.22099447513812
96740,Hawaii County,HI,92.40837696335078,NA,NA
96816,Honolulu County,HI,72.77486910994764,NA,NA
60010,Lake County,IL,40.83769633507853,NA,NA
60056,Cook County,IL,32.72251308900523,NA,NA
60062,Cook County,IL,NA,NA,58.5635359116022
60067,Cook County,IL,NA,NA,62.98342541436463
60102,McHenry County,IL,34.55497382198953,NA,NA
60137,DuPage County,IL,30.104712041884817,NA,NA
60181,DuPage County,IL,NA,NA,46.96132596685083
60428,Cook County,IL,NA,NA,90.60773480662984
60441,Will County,IL,NA,NA,70.1657458563536
60504,DuPage County,IL,41.361256544502616,NA,NA
60513,Cook County,IL,NA,NA,81.21546961325967
60605,Cook County,IL,74.08376963350786,NA,NA
60628,Cook County,IL,21.727748691099478,NA,NA
60638,Cook County,IL,19.10994764397906,NA,NA
60643,Cook County,IL,25.654450261780106,NA,NA
60651,Cook County,IL,45.811518324607334,NA,NA
60657,Cook County,IL,48.69109947643979,NA,NA
61822,Champaign County,IL,NA,NA,86.1878453038674
62226,St. Clair County,IL,NA,NA,63.53591160220995
62702,Sangamon County,IL,NA,NA,40.331491712707184
46013,Madison County,IN,NA,NA,51.38121546961326
46227,Marion County,IN,21.465968586387437,NA,NA
46268,Marion County,IN,NA,NA,64.64088397790056
46733,Adams County,IN,59.16230366492147,NA,NA
46845,Allen County,IN,NA,NA,87.84530386740332
46901,Howard County,IN,NA,NA,4.41988950276243
47130,Clark County,IN,NA,NA,17.12707182320442
47710,Vanderburgh County,IN,NA,72.72727272727273,NA
47909,Tippecanoe County,IN,37.43455497382199,NA,NA
50158,Marshall County,IA,41.8848167539267,NA,NA
50616,Floyd County,IA,NA,83.52272727272727,NA
52253,Linn County,IA,98.69109947643979,NA,NA
52804,Scott County,IA,43.717277486910994,NA,NA
66006,Douglas County,KS,92.93193717277487,NA,NA
40504,Fayette County,KY,NA,51.13636363636363,NA
41035,Grant County,KY,NA,NA,65.74585635359117
41074,Campbell County,KY,84.81675392670157,NA,NA
41774,Perry County,KY,NA,NA,99.4475138121547
42167,Monroe County,KY,84.81675392670157,NA,NA
70003,Jefferson Parish,LA,NA,6.8181818181818175,NA
70032,St. Bernard Parish,LA,NA,93.18181818181817,NA
70056,Jefferson Parish,LA,1.0471204188481675,NA,NA
70085,St. Bernard Parish,LA,95.02617801047121,NA,NA
70094,Jefferson Parish,LA,4.712041884816754,NA,NA
70115,Orleans Parish,LA,30.36649214659686,NA,NA
70122,Orleans Parish,LA,14.921465968586386,NA,NA
70422,Tangipahoa Parish,LA,53.92670157068062,NA,NA
70427,Washington Parish,LA,NA,14.204545454545455,NA
70441,St. Helena Parish,LA,NA,27.84090909090909,NA
70445,St. Tammany Parish,LA,94.76439790575915,NA,NA
70777,East Feliciana Parish,LA,92.93193717277487,NA,NA
70805,East Baton Rouge Parish,LA,NA,39.20454545454545,7.18232044198895
70808,East Baton Rouge Parish,LA,35.340314136125656,NA,NA
70811,East Baton Rouge Parish,LA,88.21989528795811,NA,NA
71104,Caddo Parish,LA,31.93717277486911,NA,NA
71107,Caddo Parish,LA,2.356020942408377,NA,NA
71109,Caddo Parish,LA,NA,NA,13.812154696132598
71201,Ouachita Parish,LA,48.42931937172775,NA,NA
71269,Richland Parish,LA,NA,63.63636363636363,NA
04039,Cumberland County,ME,76.43979057591623,NA,NA
04240,Androscoggin County,ME,NA,14.772727272727273,4.972375690607735
04901,Kennebec County,ME,NA,52.27272727272727,NA
20871,Montgomery County,MD,80.10471204188482,NA,NA
21122,Anne Arundel County,MD,NA,NA,15.469613259668508
21223,Baltimore city,MD,NA,NA,50.27624309392266
21230,Baltimore city,MD,58.37696335078534,NA,NA
01040,Hampden County,MA,2.6178010471204187,NA,NA
01095,Hampden County,MA,NA,NA,84.5303867403315
01105,Hampden County,MA,12.041884816753926,NA,NA
01108,Hampden County,MA,38.481675392670155,NA,NA
01201,Berkshire County,MA,59.68586387434554,NA,NA
01604,Worcester County,MA,5.2356020942408374,NA,NA
01607,Worcester County,MA,82.19895287958116,NA,NA
01610,Worcester County,MA,NA,2.840909090909091,NA
01778,Middlesex County,MA,82.72251308900523,NA,NA
01803,Middlesex County,MA,NA,NA,29.83425414364641
01810,Essex County,MA,63.089005235602095,NA,NA
01824,Middlesex County,MA,NA,NA,16.574585635359114
01834,Essex County,MA,NA,NA,94.47513812154696
01835,Essex County,MA,60.20942408376963,NA,NA
01854,Middlesex County,MA,NA,NA,3.314917127071823
01863,Middlesex County,MA,74.3455497382199,NA,NA
01886,Middlesex County,MA,30.36649214659686,NA,NA
01902,Essex County,MA,7.068062827225131,NA,NA
01905,Essex County,MA,51.047120418848166,NA,NA
02025,Norfolk County,MA,87.17277486910994,NA,NA
02026,Norfolk County,MA,36.910994764397905,NA,NA
02118,Suffolk County,MA,45.287958115183244,NA,NA
02119,Suffolk County,MA,26.17801047120419,NA,NA
02120,Suffolk County,MA,4.973821989528796,NA,NA
02121,Suffolk County,MA,7.329842931937172,3.4090909090909087,NA
02130,Suffolk County,MA,NA,NA,0.5524861878453038
02136,Suffolk County,MA,NA,NA,3.867403314917127
02302,Plymouth County,MA,55.75916230366492,NA,NA
02368,Norfolk County,MA,NA,88.06818181818183,NA
02453,Middlesex County,MA,NA,NA,16.022099447513813
02460,Middlesex County,MA,83.24607329842932,NA,NA
02467,Norfolk County,MA,NA,NA,67.40331491712708
02474,Middlesex County,MA,45.54973821989529,NA,NA
02717,Bristol County,MA,80.89005235602095,NA,NA
02718,Bristol County,MA,97.64397905759162,NA,NA
02745,Bristol County,MA,NA,41.47727272727273,NA
48030,Oakland County,MI,NA,75.56818181818183,NA
48033,Oakland County,MI,96.07329842931938,NA,NA
48035,Macomb County,MI,NA,NA,18.784530386740332
48066,Macomb County,MI,50.523560209424076,NA,NA
48071,Oakland County,MI,93.717277486911,NA,NA
48080,Macomb County,MI,82.4607329842932,NA,NA
48091,Macomb County,MI,NA,32.38636363636363,NA
48141,Wayne County,MI,18.848167539267017,NA,NA
48170,Wayne County,MI,NA,NA,62.430939226519335
48185,Wayne County,MI,8.37696335078534,NA,NA
48198,Washtenaw County,MI,NA,22.15909090909091,5.524861878453039
48212,Wayne County,MI,NA,NA,54.69613259668509
48217,Wayne County,MI,NA,96.5909090909091,NA
48223,Wayne County,MI,NA,55.11363636363637,NA
48227,Wayne County,MI,NA,11.363636363636363,7.734806629834254
48228,Wayne County,MI,NA,NA,2.209944751381215
48235,Wayne County,MI,62.56544502617801,NA,NA
48239,Wayne County,MI,10.209424083769633,NA,NA
48240,Wayne County,MI,55.497382198952884,NA,NA
48310,Macomb County,MI,52.09424083769634,NA,NA
48317,Macomb County,MI,44.50261780104712,NA,NA
48322,Oakland County,MI,56.54450261780105,NA,NA
48393,Oakland County,MI,91.09947643979058,NA,NA
48505,Genesee County,MI,NA,53.40909090909091,NA
48655,Saginaw County,MI,90.31413612565446,NA,NA
48837,Eaton County,MI,79.84293193717278,NA,NA
49009,Kalamazoo County,MI,NA,81.25,NA
49315,Kent County,MI,49.21465968586388,NA,NA
49444,Muskegon County,MI,NA,NA,52.48618784530387
49504,Kent County,MI,16.75392670157068,NA,NA
49508,Kent County,MI,NA,NA,11.049723756906078
55107,Ramsey County,MN,53.141361256544506,NA,NA
55112,Ramsey County,MN,40.05235602094241,NA,NA
55350,McLeod County,MN,NA,65.3409090909091,NA
55418,Hennepin County,MN,12.827225130890053,NA,NA
55428,Hennepin County,MN,NA,40.340909090909086,NA
55443,Hennepin County,MN,69.10994764397905,NA,NA
55904,Olmsted County,MN,NA,34.090909090909086,NA
56074,Nicollet County,MN,98.42931937172776,NA,NA
56671,Beltrami County,MN,98.1675392670157,98.29545454545455,NA
38666,Panola County,MS,99.47643979057592,NA,NA
39074,Scott County,MS,23.56020942408377,NA,NA
39180,Warren County,MS,NA,48.29545454545455,NA
39183,Warren County,MS,82.98429319371728,NA,NA
39204,Hinds County,MS,7.329842931937172,NA,NA
39209,Hinds County,MS,19.895287958115183,NA,NA
39503,Harrison County,MS,59.424083769633505,NA,NA
39560,Harrison County,MS,NA,NA,73.48066298342542
39645,Amite County,MS,NA,87.5,NA
63010,Jefferson County,MO,37.95811518324607,NA,NA
63136,St. Louis County,MO,38.7434554973822,NA,NA
63137,St. Louis County,MO,28.272251308900525,NA,NA
63147,St. Louis city,MO,84.29319371727748,NA,NA
63366,St. Charles County,MO,NA,96.02272727272727,NA
63385,St. Charles County,MO,NA,70.45454545454545,NA
64055,Jackson County,MO,NA,35.79545454545455,NA
64082,Jackson County,MO,83.7696335078534,NA,NA
64119,Clay County,MO,NA,89.20454545454545,NA
64130,Jackson County,MO,NA,25.568181818181817,NA
64134,Jackson County,MO,29.05759162303665,31.818181818181817,NA
64145,Jackson County,MO,88.48167539267016,NA,NA
64151,Platte County,MO,58.1151832460733,NA,NA
64506,Buchanan County,MO,NA,NA,26.519337016574585
64701,Cass County,MO,42.93193717277487,NA,NA
64735,Henry County,MO,60.20942408376963,NA,NA
64804,Jasper County,MO,17.801047120418847,33.52272727272727,24.861878453038674
64836,Jasper County,MO,11.2565445026178,NA,25.96685082872928
65202,Boone County,MO,2.8795811518324608,NA,NA
65338,Benton County,MO,99.21465968586386,NA,NA
65560,Dent County,MO,NA,61.93181818181818,NA
65613,Polk County,MO,NA,44.88636363636363,NA
65738,Greene County,MO,52.879581151832454,70.45454545454545,NA
59718,Gallatin County,MT,NA,NA,53.03867403314917
89138,Clark County,NV,93.97905759162303,NA,NA
89403,Lyon County,NV,49.47643979057592,NA,NA
89406,Churchill County,NV,75.39267015706807,NA,NA
07470,Passaic County,NJ,NA,NA,92.26519337016575
08004,Camden County,NJ,NA,NA,86.74033149171271
08012,Camden County,NJ,NA,NA,39.77900552486188
08052,Burlington County,NJ,28.272251308900525,NA,NA
08103,Camden County,NJ,NA,NA,9.392265193370166
87111,Bernalillo County,NM,NA,59.09090909090909,NA
87114,Bernalillo County,NM,15.44502617801047,NA,NA
87121,Bernalillo County,NM,24.86910994764398,NA,NA
88340,Otero County,NM,84.55497382198953,NA,NA
10002,New York County,NY,36.38743455497382,7.954545454545454,NA
10003,New York County,NY,NA,97.1590909090909,NA
10009,New York County,NY,42.14659685863874,27.27272727272727,NA
10016,New York County,NY,NA,NA,53.591160220994475
10023,New York County,NY,NA,68.18181818181817,NA
10026,New York County,NY,NA,NA,37.569060773480665
10027,New York County,NY,31.151832460732987,NA,NA
10029,New York County,NY,8.638743455497382,0,NA
10030,New York County,NY,NA,23.295454545454543,NA
10032,New York County,NY,NA,10.227272727272728,NA
10033,New York County,NY,63.35078534031413,21.59090909090909,NA
10034,New York County,NY,34.29319371727749,NA,NA
10037,New York County,NY,NA,NA,56.353591160220994
10039,New York County,NY,NA,16.477272727272727,NA
10451,Bronx County,NY,NA,18.181818181818183,NA
10452,Bronx County,NY,NA,1.7045454545454544,NA
10453,Bronx County,NY,0.7853403141361256,NA,NA
10454,Bronx County,NY,9.947643979057592,3.977272727272727,NA
10455,Bronx County,NY,45.811518324607334,NA,NA
10456,Bronx County,NY,29.31937172774869,0.5681818181818182,NA
10457,Bronx County,NY,NA,1.1363636363636365,NA
10459,Bronx County,NY,NA,5.681818181818182,35.91160220994475
10460,Bronx County,NY,NA,NA,2.7624309392265194
10462,Bronx County,NY,67.01570680628272,NA,NA
10466,Bronx County,NY,NA,NA,8.83977900552486
10467,Bronx County,NY,61.78010471204188,5.113636363636364,NA
10468,Bronx County,NY,64.92146596858639,NA,NA
10472,Bronx County,NY,34.81675392670157,NA,NA
10550,Westchester County,NY,27.486910994764397,NA,NA
10705,Westchester County,NY,33.7696335078534,NA,NA
11102,Queens County,NY,56.54450261780105,NA,NA
11203,Kings County,NY,NA,17.613636363636363,NA
11205,Kings County,NY,78.79581151832461,30.113636363636363,NA
11207,Kings County,NY,10.471204188481675,15.340909090909092,NA
11208,Kings County,NY,1.832460732984293,NA,NA
11210,Kings County,NY,77.74869109947645,NA,NA
11211,Kings County,NY,NA,29.545454545454547,NA
11213,Kings County,NY,NA,19.886363636363637,NA
11218,Kings County,NY,36.12565445026178,NA,66.85082872928176
11220,Kings County,NY,0.5235602094240838,NA,NA
11221,Kings County,NY,NA,NA,6.629834254143646
11225,Kings County,NY,NA,45.45454545454545,NA
11226,Kings County,NY,6.544502617801047,NA,NA
11229,Kings County,NY,76.96335078534031,NA,NA
11232,Kings County,NY,20.94240837696335,NA,NA
11233,Kings County,NY,6.020942408376963,NA,NA
11234,Kings County,NY,NA,24.431818181818183,NA
11235,Kings County,NY,NA,23.863636363636363,NA
11236,Kings County,NY,9.424083769633508,20.454545454545457,NA
11237,Kings County,NY,NA,11.931818181818182,NA
11355,Queens County,NY,NA,8.522727272727272,NA
11368,Queens County,NY,1.3089005235602094,2.272727272727273,NA
11369,Queens County,NY,NA,28.97727272727273,NA
11370,Queens County,NY,86.12565445026178,NA,NA
11372,Queens County,NY,68.06282722513089,NA,NA
11373,Queens County,NY,NA,7.386363636363637,NA
11377,Queens County,NY,22.774869109947645,NA,NA
11378,Queens County,NY,85.6020942408377,NA,NA
11385,Queens County,NY,NA,13.636363636363635,NA
11412,Queens County,NY,45.0261780104712,NA,NA
11416,Queens County,NY,70.41884816753927,NA,NA
11420,Queens County,NY,52.35602094240838,NA,NA
11422,Queens County,NY,84.81675392670157,NA,NA
11429,Queens County,NY,65.96858638743456,NA,NA
11433,Queens County,NY,51.047120418848166,NA,NA
11435,Queens County,NY,NA,15.909090909090908,NA
11510,Nassau County,NY,46.33507853403142,NA,75.13812154696133
11550,Nassau County,NY,NA,9.090909090909092,NA
11553,Nassau County,NY,67.01570680628272,NA,NA
11575,Nassau County,NY,NA,89.77272727272727,NA
11596,Nassau County,NY,NA,94.31818181818183,NA
11692,Queens County,NY,NA,NA,68.50828729281768
11716,Suffolk County,NY,92.40837696335078,NA,NA
12118,Saratoga County,NY,46.8586387434555,NA,NA
12167,Delaware County,NY,NA,NA,98.89502762430939
12180,Rensselaer County,NY,65.18324607329843,NA,NA
12211,Albany County,NY,NA,NA,88.39779005524862
13206,Onondaga County,NY,NA,73.86363636363636,36.46408839779006
13208,Onondaga County,NY,NA,NA,19.337016574585636
13440,Oneida County,NY,10.732984293193718,NA,NA
13676,St. Lawrence County,NY,76.70157068062828,NA,NA
13753,Delaware County,NY,NA,NA,90.05524861878453
13790,Broome County,NY,78.27225130890052,NA,NA
14020,Genesee County,NY,17.015706806282722,NA,NA
14211,Erie County,NY,50.26178010471204,NA,NA
14213,Erie County,NY,NA,65.9090909090909,NA
14502,Wayne County,NY,NA,NA,41.43646408839779
14564,Ontario County,NY,NA,NA,27.624309392265197
14605,Monroe County,NY,33.246073298429316,NA,NA
14624,Monroe County,NY,3.926701570680628,NA,NA
14810,Steuben County,NY,NA,NA,48.61878453038674
27127,Forsyth County,NC,NA,NA,22.65193370165746
27263,Randolph County,NC,75.39267015706807,NA,NA
27509,Granville County,NC,91.62303664921467,NA,NA
27613,Wake County,NC,60.73298429319372,NA,NA
27705,Durham County,NC,NA,NA,32.04419889502763
27863,Wayne County,NC,NA,NA,89.50276243093923
27874,Halifax County,NC,93.45549738219894,NA,NA
27896,Wilson County,NC,75.13089005235602,NA,NA
27932,Chowan County,NC,NA,88.63636363636364,NA
28205,Mecklenburg County,NC,NA,NA,29.2817679558011
28226,Mecklenburg County,NC,54.45026178010471,NA,NA
28311,Cumberland County,NC,NA,50.56818181818182,NA
28314,Cumberland County,NC,6.282722513089005,NA,NA
28584,Carteret County,NC,NA,81.81818181818183,NA
28645,Caldwell County,NC,70.94240837696336,NA,NA
28779,Jackson County,NC,NA,NA,71.8232044198895
43055,Licking County,OH,4.450261780104712,NA,NA
43081,Franklin County,OH,46.596858638743456,NA,NA
43202,Franklin County,OH,96.59685863874346,NA,NA
43204,Franklin County,OH,11.780104712041885,NA,NA
43206,Franklin County,OH,3.1413612565445024,NA,NA
43211,Franklin County,OH,4.18848167539267,NA,NA
43213,Franklin County,OH,NA,42.04545454545455,NA
43224,Franklin County,OH,35.07853403141361,NA,NA
43228,Franklin County,OH,0.2617801047120419,4.545454545454546,NA
43326,Hardin County,OH,NA,62.5,NA
43607,Lucas County,OH,10.99476439790576,NA,NA
43612,Lucas County,OH,3.664921465968586,NA,77.34806629834254
43614,Lucas County,OH,28.272251308900525,NA,NA
43950,Belmont County,OH,66.49214659685863,NA,NA
43952,Jefferson County,OH,NA,56.81818181818182,NA
44001,Lorain County,OH,47.38219895287958,NA,NA
44053,Lorain County,OH,NA,NA,69.06077348066299
44089,Erie County,OH,94.50261780104712,NA,NA
44102,Cuyahoga County,OH,0,NA,NA
44105,Cuyahoga County,OH,NA,NA,0
44108,Cuyahoga County,OH,66.75392670157068,NA,NA
44109,Cuyahoga County,OH,23.036649214659686,NA,NA
44110,Cuyahoga County,OH,42.93193717277487,NA,NA
44111,Cuyahoga County,OH,NA,NA,1.6574585635359116
44112,Cuyahoga County,OH,12.56544502617801,NA,NA
44113,Cuyahoga County,OH,NA,NA,14.917127071823206
44114,Cuyahoga County,OH,NA,NA,48.06629834254144
44115,Cuyahoga County,OH,94.24083769633508,34.659090909090914,NA
44122,Cuyahoga County,OH,61.25654450261781,64.20454545454545,NA
44123,Cuyahoga County,OH,NA,NA,41.988950276243095
44125,Cuyahoga County,OH,NA,NA,1.1049723756906076
44126,Cuyahoga County,OH,71.20418848167539,NA,NA
44128,Cuyahoga County,OH,13.089005235602095,9.659090909090908,NA
44129,Cuyahoga County,OH,27.748691099476442,NA,NA
44130,Cuyahoga County,OH,NA,13.068181818181818,NA
44137,Cuyahoga County,OH,NA,NA,65.19337016574586
44144,Cuyahoga County,OH,NA,39.77272727272727,NA
44146,Cuyahoga County,OH,34.031413612565444,54.54545454545454,43.0939226519337
44203,Summit County,OH,NA,10.227272727272728,NA
44221,Summit County,OH,80.6282722513089,NA,NA
44313,Summit County,OH,NA,NA,45.30386740331492
44320,Summit County,OH,NA,NA,24.30939226519337
44405,Mahoning County,OH,NA,76.13636363636364,NA
44408,Columbiana County,OH,88.48167539267016,NA,NA
44646,Stark County,OH,14.659685863874344,NA,NA
44685,Summit County,OH,47.64397905759162,NA,NA
45013,Butler County,OH,3.4031413612565444,NA,NA
45014,Butler County,OH,13.874345549738221,NA,NA
45015,Butler County,OH,NA,42.61363636363637,NA
45044,Butler County,OH,14.136125654450263,NA,NA
45204,Hamilton County,OH,81.41361256544502,NA,NA
45206,Hamilton County,OH,29.84293193717277,NA,NA
45211,Hamilton County,OH,15.18324607329843,NA,NA
45224,Hamilton County,OH,39.00523560209424,NA,NA
45225,Hamilton County,OH,NA,67.04545454545455,NA
45229,Hamilton County,OH,54.712041884816756,NA,NA
45230,Hamilton County,OH,51.832460732984295,NA,NA
45231,Hamilton County,OH,9.162303664921465,NA,NA
45240,Hamilton County,OH,NA,47.159090909090914,NA
45251,Hamilton County,OH,24.345549738219894,44.31818181818182,NA
45440,Montgomery County,OH,51.047120418848166,NA,NA
45663,Scioto County,OH,73.56020942408377,NA,NA
45879,Paulding County,OH,NA,NA,67.95580110497238
45895,Auglaize County,OH,37.95811518324607,NA,NA
73064,Canadian County,OK,63.87434554973822,NA,NA
73160,Cleveland County,OK,NA,NA,19.88950276243094
73438,Carter County,OK,NA,94.31818181818183,NA
74354,Ottawa County,OK,NA,42.61363636363637,NA
74902,Le Flore County,OK,95.28795811518324,NA,NA
97128,Yamhill County,OR,42.67015706806283,NA,NA
97140,Washington County,OR,56.02094240837696,NA,NA
97202,Multnomah County,OR,NA,NA,42.5414364640884
97206,Multnomah County,OR,NA,75,21.54696132596685
97216,Multnomah County,OR,NA,99.43181818181817,NA
97470,Douglas County,OR,NA,78.4090909090909,NA
15001,Beaver County,PA,NA,NA,29.83425414364641
15120,Allegheny County,PA,NA,NA,88.95027624309392
15132,Allegheny County,PA,NA,NA,58.011049723756905
15226,Allegheny County,PA,NA,NA,80.11049723756905
16214,Clarion County,PA,NA,84.6590909090909,NA
16415,Erie County,PA,NA,NA,92.81767955801105
16438,Erie County,PA,81.15183246073299,NA,NA
17013,Cumberland County,PA,NA,NA,30.939226519337016
17022,Lancaster County,PA,39.52879581151832,NA,NA
17025,Cumberland County,PA,NA,NA,49.72375690607735
17042,Lebanon County,PA,35.86387434554974,NA,NA
17109,Dauphin County,PA,NA,71.5909090909091,NA
17202,Franklin County,PA,87.43455497382199,NA,NA
17331,York County,PA,6.806282722513089,NA,NA
17356,York County,PA,25.916230366492147,NA,NA
17372,Adams County,PA,95.28795811518324,NA,NA
17403,York County,PA,59.947643979057595,NA,NA
17522,Lancaster County,PA,7.853403141361256,NA,NA
17545,Lancaster County,PA,33.50785340314136,NA,NA
17701,Lycoming County,PA,NA,NA,33.14917127071823
17756,Lycoming County,PA,NA,NA,81.76795580110497
17821,Montour County,PA,32.19895287958115,NA,NA
18015,Northampton County,PA,NA,47.159090909090914,NA
18249,Luzerne County,PA,NA,NA,96.13259668508287
18324,Pike County,PA,97.38219895287958,NA,NA
18466,Monroe County,PA,67.5392670157068,NA,NA
18621,Luzerne County,PA,NA,86.36363636363636,NA
19013,Delaware County,PA,16.49214659685864,NA,NA
19050,Delaware County,PA,31.413612565445025,NA,44.19889502762431
19104,Philadelphia County,PA,18.586387434554975,NA,NA
19131,Philadelphia County,PA,NA,NA,11.602209944751381
19139,Philadelphia County,PA,NA,NA,8.287292817679557
19143,Philadelphia County,PA,1.5706806282722512,NA,NA
19151,Philadelphia County,PA,19.63350785340314,NA,NA
19508,Berks County,PA,NA,NA,69.61325966850829
19604,Berks County,PA,12.30366492146597,NA,NA
02840,Newport County,RI,NA,NA,61.32596685082873
02889,Kent County,RI,NA,NA,37.01657458563536
29072,Lexington County,SC,32.98429319371728,NA,NA
29203,Richland County,SC,NA,56.81818181818182,NA
29405,Charleston County,SC,NA,31.25,NA
29461,Berkeley County,SC,19.3717277486911,NA,NA
29472,Dorchester County,SC,NA,95.45454545454545,NA
29569,Horry County,SC,NA,52.84090909090909,NA
29591,Florence County,SC,NA,NA,95.02762430939227
29617,Greenville County,SC,NA,NA,53.591160220994475
29625,Anderson County,SC,68.84816753926701,NA,NA
29710,York County,SC,71.20418848167539,NA,NA
29841,Aiken County,SC,8.900523560209423,NA,NA
57103,Minnehaha County,SD,41.62303664921466,NA,NA
57701,Pennington County,SD,NA,NA,27.071823204419886
57770,Shannon County,SD,86.64921465968587,NA,NA
37066,Sumner County,TN,17.015706806282722,NA,NA
37363,Hamilton County,TN,47.90575916230366,NA,NA
37406,Hamilton County,TN,NA,NA,77.90055248618785
37415,Hamilton County,TN,58.37696335078534,NA,NA
38105,Shelby County,TN,NA,86.93181818181817,NA
38109,Shelby County,TN,26.439790575916227,NA,NA
38114,Shelby County,TN,23.298429319371728,NA,NA
38116,Shelby County,TN,NA,NA,25.41436464088398
38127,Shelby County,TN,25.13089005235602,NA,NA
38135,Shelby County,TN,76.17801047120419,NA,NA
75034,Denton County,TX,30.89005235602094,NA,NA
75042,Dallas County,TX,53.66492146596858,NA,NA
75043,Dallas County,TX,NA,NA,28.176795580110497
75062,Dallas County,TX,87.69633507853402,NA,NA
75077,Denton County,TX,65.96858638743456,NA,NA
75090,Grayson County,TX,NA,53.97727272727273,NA
75217,Dallas County,TX,5.49738219895288,NA,NA
75240,Dallas County,TX,65.18324607329843,NA,NA
75249,Dallas County,TX,NA,67.61363636363636,NA
75287,Denton County,TX,57.32984293193717,NA,NA
75703,Smith County,TX,22.5130890052356,NA,NA
75791,Smith County,TX,60.994764397905755,NA,NA
76040,Tarrant County,TX,NA,80.68181818181817,NA
76103,Tarrant County,TX,64.13612565445025,NA,NA
76106,Tarrant County,TX,21.20418848167539,NA,NA
76117,Tarrant County,TX,15.968586387434556,NA,NA
76119,Tarrant County,TX,20.680628272251308,NA,NA
76140,Tarrant County,TX,NA,30.681818181818183,NA
76227,Denton County,TX,NA,68.18181818181817,NA
76522,Coryell County,TX,13.612565445026178,NA,NA
76549,Bell County,TX,9.68586387434555,38.06818181818182,NA
76692,Hill County,TX,NA,92.61363636363636,NA
76705,McLennan County,TX,24.083769633507853,NA,NA
76706,McLennan County,TX,NA,69.88636363636364,NA
76707,McLennan County,TX,44.76439790575916,NA,NA
77021,Harris County,TX,NA,78.97727272727273,NA
77034,Harris County,TX,NA,26.136363636363637,NA
77040,Harris County,TX,40.83769633507853,NA,NA
77044,Harris County,TX,27.225130890052355,NA,NA
77055,Harris County,TX,55.235602094240846,NA,NA
77086,Harris County,TX,25.392670157068064,NA,NA
77091,Harris County,TX,48.69109947643979,NA,NA
77354,Montgomery County,TX,31.413612565445025,NA,NA
77357,Montgomery County,TX,54.712041884816756,NA,NA
77379,Harris County,TX,13.089005235602095,NA,NA
77414,Matagorda County,TX,58.37696335078534,NA,NA
77447,Harris County,TX,81.93717277486911,NA,NA
77521,Harris County,TX,NA,55.68181818181818,NA
77530,Harris County,TX,NA,37.5,NA
77590,Galveston County,TX,NA,50,NA
77627,Jefferson County,TX,56.54450261780105,85.79545454545455,NA
77630,Orange County,TX,NA,56.25,59.66850828729282
78108,Guadalupe County,TX,84.03141361256544,NA,NA
78112,Bexar County,TX,NA,93.75,NA
78114,Wilson County,TX,57.59162303664922,NA,NA
78216,Bexar County,TX,43.97905759162304,NA,NA
78227,Bexar County,TX,11.518324607329843,32.95454545454545,NA
78237,Bexar County,TX,20.418848167539267,NA,NA
78264,Bexar County,TX,71.20418848167539,NA,NA
78633,Williamson County,TX,81.67539267015707,NA,NA
78840,Val Verde County,TX,NA,35.79545454545455,NA
79107,Potter County,TX,NA,NA,51.93370165745856
79707,Midland County,TX,18.32460732984293,NA,NA
79762,Ector County,TX,NA,NA,43.646408839779006
84009,Salt Lake County,UT,53.403141361256544,NA,NA
84043,Utah County,UT,20.157068062827225,NA,NA
84088,Salt Lake County,UT,22.25130890052356,NA,NA
84119,Salt Lake County,UT,NA,NA,20.441988950276244
22204,Arlington County,VA,70.15706806282722,NA,NA
22207,Arlington County,VA,50,NA,NA
22306,Fairfax County,VA,NA,46.02272727272727,NA
22405,Stafford County,VA,NA,90.3409090909091,NA
22802,Harrisonburg city,VA,26.439790575916227,NA,NA
22901,Albemarle County,VA,NA,60.79545454545454,NA
23224,Richmond city,VA,NA,19.318181818181817,NA
23231,Henrico County,VA,NA,NA,35.35911602209944
23322,Chesapeake city,VA,NA,59.65909090909091,NA
23324,Chesapeake city,VA,NA,NA,59.11602209944752
23434,Suffolk city,VA,NA,NA,23.756906077348066
23832,Chesterfield County,VA,NA,38.06818181818182,NA
23924,Mecklenburg County,VA,89.79057591623037,NA,NA
98003,King County,WA,NA,NA,44.751381215469614
98031,King County,WA,NA,NA,60.773480662983424
98118,King County,WA,NA,62.5,NA
98126,King County,WA,NA,NA,74.58563535911603
98155,King County,WA,NA,NA,83.97790055248619
98178,King County,WA,NA,74.43181818181817,NA
98579,Thurston County,WA,NA,NA,97.79005524861878
98855,Okanogan County,WA,NA,NA,91.16022099447514
99301,Franklin County,WA,NA,6.25,17.12707182320442
20024,District of Columbia,DC,NA,81.81818181818183,NA
26003,Ohio County,WV,NA,NA,10.497237569060774
26201,Upshur County,WV,NA,NA,33.70165745856354
53204,Milwaukee County,WI,NA,17.045454545454543,13.259668508287293
53207,Milwaukee County,WI,40.31413612565445,NA,NA
53209,Milwaukee County,WI,2.094240837696335,18.75,6.077348066298343
53212,Milwaukee County,WI,NA,35.22727272727273,NA
53216,Milwaukee County,WI,NA,20.454545454545457,12.70718232044199
53219,Milwaukee County,WI,17.801047120418847,92.04545454545455,NA
53222,Milwaukee County,WI,73.56020942408377,51.70454545454546,NA
53225,Milwaukee County,WI,36.64921465968586,NA,NA
53545,Rock County,WI,21.727748691099478,NA,NA
53590,Dane County,WI,NA,NA,55.80110497237569
53946,Green Lake County,WI,NA,NA,98.34254143646409
54911,Outagamie County,WI,NA,NA,56.9060773480663
