ZipCode,county,state,Youth,Adult,Retirement
35235,Jefferson County,AL,NA,67.3469387755102,NA
35582,Franklin County,AL,NA,NA,96.91629955947137
35976,Marshall County,AL,NA,59.7667638483965,NA
36580,Baldwin County,AL,NA,91.83673469387756,NA
36869,Russell County,AL,NA,66.76384839650146,NA
85008,Maricopa County,AZ,NA,24.489795918367346,NA
85041,Maricopa County,AZ,10.648148148148149,NA,NA
85044,Maricopa County,AZ,NA,30.612244897959183,NA
85203,Maricopa County,AZ,34.72222222222222,NA,NA
85248,Maricopa County,AZ,NA,NA,43.17180616740088
85283,Maricopa County,AZ,NA,NA,38.32599118942731
85303,Maricopa County,AZ,NA,NA,77.09251101321586
85326,Maricopa County,AZ,14.351851851851851,NA,NA
85392,Maricopa County,AZ,22.685185185185187,NA,NA
85750,Pima County,AZ,NA,NA,59.03083700440529
85901,Navajo County,AZ,NA,64.72303206997084,NA
71603,Jefferson County,AR,NA,48.39650145772595,NA
72007,Lonoke County,AR,NA,93.00291545189503,NA
72103,Saline County,AR,93.51851851851852,NA,NA
72404,Craighead County,AR,42.592592592592595,NA,NA
90001,Los Angeles County,CA,NA,NA,75.33039647577093
90020,Los Angeles County,CA,NA,NA,62.55506607929515
90245,Los Angeles County,CA,NA,NA,72.24669603524228
90650,Los Angeles County,CA,NA,27.988338192419825,NA
91345,Los Angeles County,CA,NA,90.96209912536443,NA
91403,Los Angeles County,CA,NA,NA,70.92511013215858
91411,Los Angeles County,CA,98.14814814814815,NA,NA
91767,Los Angeles County,CA,NA,NA,59.91189427312775
91935,San Diego County,CA,NA,96.50145772594753,NA
92019,San Diego County,CA,39.81481481481482,NA,NA
92530,Riverside County,CA,NA,48.97959183673469,NA
92651,Orange County,CA,NA,NA,57.268722466960355
92706,Orange County,CA,NA,NA,92.95154185022027
92782,Orange County,CA,NA,87.17201166180757,NA
92841,Orange County,CA,65.27777777777779,NA,NA
93277,Tulare County,CA,NA,39.650145772594755,NA
93420,San Luis Obispo County,CA,NA,NA,56.38766519823789
93534,Los Angeles County,CA,59.25925925925925,NA,NA
93550,Los Angeles County,CA,NA,23.61516034985423,NA
94015,San Mateo County,CA,NA,57.434402332361515,NA
94124,San Francisco County,CA,NA,37.90087463556851,NA
94401,San Mateo County,CA,NA,NA,74.8898678414097
94928,Sonoma County,CA,86.11111111111111,NA,NA
95307,Stanislaus County,CA,43.98148148148148,NA,NA
95425,Sonoma County,CA,NA,NA,89.42731277533039
95624,Sacramento County,CA,NA,NA,37.44493392070485
95815,Sacramento County,CA,NA,NA,71.36563876651982
95834,Sacramento County,CA,NA,NA,84.58149779735683
95901,Yuba County,CA,NA,35.8600583090379,NA
95966,Butte County,CA,NA,19.24198250728863,NA
96137,Lassen County,CA,NA,99.41690962099126,NA
96150,El Dorado County,CA,NA,79.88338192419825,NA
80011,Arapahoe County,CO,NA,NA,48.01762114537445
80012,Arapahoe County,CO,NA,NA,40.969162995594715
80016,Arapahoe County,CO,NA,34.11078717201166,NA
80110,Arapahoe County,CO,NA,76.0932944606414,NA
80205,Denver County,CO,29.166666666666668,NA,NA
80207,Denver County,CO,NA,NA,76.65198237885463
80210,Denver County,CO,NA,NA,62.99559471365639
80233,Adams County,CO,NA,40.816326530612244,NA
80401,Jefferson County,CO,NA,50.437317784256564,NA
80516,Weld County,CO,56.481481481481474,NA,NA
80525,Larimer County,CO,28.240740740740737,NA,NA
80634,Weld County,CO,11.11111111111111,NA,NA
81403,Montrose County,CO,87.96296296296296,NA,NA
06002,Hartford County,CT,NA,NA,42.290748898678416
06010,Hartford County,CT,NA,4.664723032069971,7.929515418502203
06040,Hartford County,CT,37.96296296296296,NA,NA
06066,Tolland County,CT,NA,62.09912536443149,NA
06119,Hartford County,CT,NA,NA,85.90308370044053
06226,Windham County,CT,NA,27.113702623906704,NA
06260,Windham County,CT,54.166666666666664,NA,NA
06492,New Haven County,CT,66.20370370370371,NA,NA
06704,New Haven County,CT,NA,32.94460641399417,NA
06790,Litchfield County,CT,31.01851851851852,NA,7.048458149779736
06902,Fairfield County,CT,NA,32.36151603498542,NA
19802,New Castle County,DE,NA,NA,33.92070484581498
19810,New Castle County,DE,NA,NA,50.66079295154186
19901,Kent County,DE,NA,NA,28.193832599118945
32025,Columbia County,FL,41.66666666666667,NA,NA
32080,St. Johns County,FL,NA,NA,34.36123348017621
32137,Flagler County,FL,NA,NA,14.977973568281937
32162,Sumter County,FL,NA,NA,6.167400881057269
32210,Duval County,FL,NA,8.454810495626822,NA
32216,Duval County,FL,NA,NA,41.85022026431718
32504,Escambia County,FL,NA,63.55685131195335,NA
32536,Okaloosa County,FL,NA,NA,37.88546255506608
32640,Putnam County,FL,98.61111111111111,NA,NA
32805,Orange County,FL,NA,NA,55.50660792951542
32960,Indian River County,FL,NA,61.224489795918366,NA
33018,Miami-Dade County,FL,NA,84.25655976676384,NA
33143,Miami-Dade County,FL,NA,NA,74.44933920704845
33149,Miami-Dade County,FL,NA,95.04373177842565,NA
33160,Miami-Dade County,FL,NA,NA,48.89867841409692
33175,Miami-Dade County,FL,NA,68.22157434402332,NA
33177,Miami-Dade County,FL,30.555555555555557,57.7259475218659,NA
33183,Miami-Dade County,FL,90.27777777777779,NA,NA
33185,Miami-Dade County,FL,NA,NA,79.73568281938326
33573,Hillsborough County,FL,NA,94.75218658892129,NA
33578,Hillsborough County,FL,NA,49.27113702623907,NA
33612,Hillsborough County,FL,NA,20.11661807580175,NA
33880,Polk County,FL,49.53703703703704,NA,NA
33905,Lee County,FL,NA,NA,36.12334801762114
33935,Hendry County,FL,79.62962962962963,NA,NA
34142,Collier County,FL,NA,NA,94.27312775330397
34288,Sarasota County,FL,74.53703703703704,NA,NA
34690,Pasco County,FL,NA,NA,85.46255506607929
34946,St. Lucie County,FL,NA,87.75510204081633,NA
34952,St. Lucie County,FL,NA,38.48396501457726,NA
30121,Bartow County,GA,NA,65.88921282798835,NA
30125,Polk County,GA,56.481481481481474,NA,NA
30310,Fulton County,GA,NA,82.21574344023324,NA
30318,Fulton County,GA,NA,NA,44.49339207048458
30434,Jefferson County,GA,NA,NA,88.10572687224669
30642,Greene County,GA,NA,86.88046647230321,NA
30815,Richmond County,GA,NA,NA,58.590308370044056
30906,Richmond County,GA,NA,NA,46.25550660792951
31093,Houston County,GA,NA,47.521865889212826,NA
31206,Bibb County,GA,NA,43.14868804664723,NA
31405,Chatham County,GA,75.46296296296296,NA,NA
31620,Cook County,GA,NA,84.8396501457726,NA
31705,Dougherty County,GA,NA,NA,39.20704845814978
31721,Dougherty County,GA,80.55555555555556,NA,NA
96740,Hawaii County,HI,84.25925925925925,NA,NA
96744,Honolulu County,HI,NA,NA,32.59911894273127
96825,Honolulu County,HI,NA,NA,12.77533039647577
83318,Cassia County,ID,NA,NA,58.14977973568281
83333,Blaine County,ID,NA,NA,69.60352422907489
83338,Jerome County,ID,50.92592592592593,NA,NA
83854,Kootenai County,ID,NA,NA,65.19823788546255
60002,Lake County,IL,52.77777777777778,NA,NA
60103,DuPage County,IL,NA,NA,35.24229074889868
60115,DeKalb County,IL,NA,53.64431486880466,NA
60137,DuPage County,IL,NA,48.68804664723032,NA
60142,McHenry County,IL,NA,NA,19.823788546255507
60148,DuPage County,IL,NA,25.65597667638484,NA
60440,Will County,IL,NA,30.903790087463555,NA
60462,Cook County,IL,NA,40.524781341107875,NA
60543,Kendall County,IL,33.7962962962963,NA,NA
60561,DuPage County,IL,NA,NA,91.62995594713657
60615,Cook County,IL,54.629629629629626,38.775510204081634,NA
60617,Cook County,IL,NA,42.857142857142854,NA
60618,Cook County,IL,NA,17.49271137026239,NA
60638,Cook County,IL,26.851851851851855,NA,NA
60827,Cook County,IL,NA,85.42274052478133,NA
61073,Winnebago County,IL,NA,91.54518950437318,NA
61364,LaSalle County,IL,NA,68.80466472303208,NA
61603,Peoria County,IL,NA,75.51020408163265,NA
62226,St. Clair County,IL,NA,56.559766763848394,NA
62439,Lawrence County,IL,NA,NA,80.61674008810573
62650,Morgan County,IL,NA,92.4198250728863,NA
62966,Jackson County,IL,73.14814814814815,NA,NA
46036,Madison County,IN,89.35185185185185,NA,NA
46220,Marion County,IN,83.33333333333334,NA,NA
46323,Lake County,IN,70.37037037037037,NA,NA
46783,Huntington County,IN,NA,90.67055393586006,NA
46793,DeKalb County,IN,NA,97.37609329446065,NA
46947,Cass County,IN,NA,22.157434402332363,NA
47274,Jackson County,IN,NA,41.39941690962099,NA
47371,Jay County,IN,NA,88.0466472303207,NA
47546,Dubois County,IN,NA,87.46355685131195,NA
47710,Vanderburgh County,IN,NA,49.85422740524781,NA
50023,Polk County,IA,NA,97.95918367346938,NA
50035,Polk County,IA,92.5925925925926,NA,NA
50036,Boone County,IA,NA,NA,62.11453744493392
50126,Hardin County,IA,NA,90.37900874635568,NA
50213,Clarke County,IA,NA,86.58892128279884,NA
50311,Polk County,IA,NA,64.1399416909621,NA
50312,Polk County,IA,NA,91.25364431486881,NA
50401,Cerro Gordo County,IA,NA,53.352769679300295,NA
50436,Winnebago County,IA,91.66666666666666,NA,NA
50648,Buchanan County,IA,NA,98.25072886297376,NA
50701,Black Hawk County,IA,38.425925925925924,NA,NA
51351,Dickinson County,IA,NA,NA,84.14096916299559
51360,Dickinson County,IA,NA,NA,70.48458149779736
51503,Pottawattamie County,IA,10.185185185185185,NA,NA
51566,Montgomery County,IA,NA,85.13119533527697,NA
52240,Johnson County,IA,NA,80.75801749271136,NA
52241,Johnson County,IA,NA,NA,67.40088105726872
52402,Linn County,IA,39.351851851851855,29.44606413994169,NA
52544,Appanoose County,IA,93.98148148148148,NA,NA
52601,Des Moines County,IA,NA,22.448979591836736,NA
52627,Lee County,IA,NA,58.309037900874635,NA
52806,Scott County,IA,NA,32.6530612244898,NA
66207,Johnson County,KS,NA,88.92128279883383,NA
40014,Oldham County,KY,NA,79.30029154518951,NA
40031,Oldham County,KY,NA,46.06413994169096,NA
40202,Jefferson County,KY,NA,NA,97.3568281938326
40422,Boyle County,KY,NA,60.64139941690962,NA
40701,Whitley County,KY,50,NA,NA
41018,Kenton County,KY,NA,39.35860058309038,NA
41042,Boone County,KY,NA,12.536443148688047,NA
41091,Boone County,KY,NA,81.34110787172013,NA
41175,Greenup County,KY,88.88888888888889,NA,NA
41501,Pike County,KY,NA,20.408163265306122,NA
42066,Graves County,KY,NA,34.40233236151604,NA
42240,Christian County,KY,NA,14.868804664723031,NA
70047,St. Charles Parish,LA,78.24074074074075,NA,NA
70058,Jefferson Parish,LA,0.4629629629629629,NA,NA
70070,St. Charles Parish,LA,99.07407407407408,NA,NA
70094,Jefferson Parish,LA,8.333333333333332,NA,NA
70115,Orleans Parish,LA,36.11111111111111,NA,NA
70126,Orleans Parish,LA,NA,13.994169096209912,NA
70503,Lafayette Parish,LA,NA,51.31195335276968,NA
70506,Lafayette Parish,LA,NA,12.82798833819242,NA
70517,St. Martin Parish,LA,NA,23.03206997084548,NA
70546,Jefferson Davis Parish,LA,NA,42.27405247813411,NA
70607,Calcasieu Parish,LA,NA,NA,73.12775330396477
70663,Calcasieu Parish,LA,NA,NA,32.158590308370044
70764,Iberville Parish,LA,NA,NA,66.96035242290749
71006,Bossier Parish,LA,NA,65.3061224489796,NA
71055,Webster Parish,LA,46.75925925925926,NA,NA
71109,Caddo Parish,LA,44.44444444444444,NA,NA
71303,Rapides Parish,LA,NA,72.8862973760933,NA
71457,Natchitoches Parish,LA,NA,15.451895043731778,NA
04084,Cumberland County,ME,NA,80.466472303207,NA
04239,Franklin County,ME,96.29629629629629,NA,NA
04281,Oxford County,ME,NA,NA,72.68722466960352
04330,Kennebec County,ME,NA,39.94169096209912,NA
04457,Penobscot County,ME,NA,79.00874635568513,NA
04530,Sagadahoc County,ME,NA,NA,56.38766519823789
04901,Kennebec County,ME,NA,NA,8.81057268722467
04989,Kennebec County,ME,NA,NA,100
20705,Prince George's County,MD,NA,NA,81.05726872246696
20715,Prince George's County,MD,NA,76.38483965014578,NA
20784,Prince George's County,MD,NA,77.84256559766763,NA
20815,Montgomery County,MD,77.77777777777779,NA,83.25991189427313
20904,Montgomery County,MD,58.333333333333336,NA,NA
21113,Anne Arundel County,MD,NA,NA,74.00881057268722
21117,Baltimore County,MD,NA,NA,37.00440528634361
21212,Baltimore city,MD,NA,54.81049562682215,NA
21222,Baltimore County,MD,NA,NA,5.726872246696035
21601,Talbot County,MD,NA,78.134110787172,NA
21617,Queen Anne's County,MD,NA,NA,93.3920704845815
01030,Hampden County,MA,NA,62.68221574344023,NA
01089,Hampden County,MA,NA,32.06997084548105,NA
01105,Hampden County,MA,18.51851851851852,NA,NA
01107,Hampden County,MA,24.074074074074073,NA,NA
01151,Hampden County,MA,NA,NA,87.22466960352423
01420,Worcester County,MA,NA,NA,60.352422907488986
01469,Middlesex County,MA,NA,95.33527696793003,NA
01520,Worcester County,MA,NA,56.268221574344025,NA
01605,Worcester County,MA,NA,85.71428571428571,NA
01746,Middlesex County,MA,82.4074074074074,NA,NA
01752,Middlesex County,MA,NA,6.122448979591836,NA
01803,Middlesex County,MA,NA,NA,10.572687224669604
01867,Middlesex County,MA,NA,NA,18.502202643171806
01876,Middlesex County,MA,NA,16.034985422740526,NA
01904,Essex County,MA,NA,19.533527696793,NA
01913,Essex County,MA,50.46296296296296,NA,NA
01930,Essex County,MA,NA,NA,31.718061674008812
02019,Norfolk County,MA,NA,77.55102040816327,NA
02021,Norfolk County,MA,NA,NA,45.37444933920705
02026,Norfolk County,MA,NA,NA,24.229074889867842
02038,Norfolk County,MA,NA,23.323615160349853,NA
02115,Suffolk County,MA,NA,NA,36.56387665198238
02118,Suffolk County,MA,NA,0.2915451895043732,NA
02119,Suffolk County,MA,6.944444444444445,3.206997084548105,NA
02120,Suffolk County,MA,NA,12.244897959183673,NA
02121,Suffolk County,MA,NA,0.8746355685131195,NA
02125,Suffolk County,MA,NA,1.1661807580174928,NA
02126,Suffolk County,MA,NA,NA,9.691629955947137
02131,Suffolk County,MA,NA,2.9154518950437316,NA
02136,Suffolk County,MA,81.94444444444444,NA,NA
02138,Middlesex County,MA,NA,21.865889212827987,NA
02139,Middlesex County,MA,NA,5.539358600583091,NA
02143,Middlesex County,MA,58.79629629629629,NA,NA
02149,Middlesex County,MA,47.22222222222222,NA,NA
02150,Suffolk County,MA,NA,NA,3.0837004405286343
02151,Suffolk County,MA,NA,0,0
02152,Suffolk County,MA,NA,NA,16.740088105726873
02169,Norfolk County,MA,NA,1.4577259475218658,NA
02176,Middlesex County,MA,NA,NA,13.656387665198238
02301,Plymouth County,MA,0,2.3323615160349855,NA
02368,Norfolk County,MA,NA,4.373177842565598,NA
02459,Middlesex County,MA,NA,NA,33.03964757709251
02481,Norfolk County,MA,NA,NA,61.67400881057269
02721,Bristol County,MA,NA,1.749271137026239,NA
02723,Bristol County,MA,NA,26.53061224489796,NA
02769,Bristol County,MA,NA,NA,66.51982378854625
48030,Oakland County,MI,75.92592592592592,NA,NA
48035,Macomb County,MI,NA,NA,18.06167400881057
48036,Macomb County,MI,NA,NA,39.647577092511014
48060,St. Clair County,MI,16.666666666666664,NA,NA
48091,Macomb County,MI,NA,15.160349854227405,NA
48103,Washtenaw County,MI,NA,25.94752186588921,NA
48104,Washtenaw County,MI,87.96296296296296,NA,NA
48134,Wayne County,MI,NA,NA,55.947136563876654
48135,Wayne County,MI,42.592592592592595,NA,NA
48170,Wayne County,MI,34.72222222222222,NA,NA
48180,Wayne County,MI,NA,NA,5.286343612334802
48185,Wayne County,MI,NA,NA,13.215859030837004
48201,Wayne County,MI,65.74074074074075,NA,NA
48205,Wayne County,MI,7.4074074074074066,NA,NA
48206,Wayne County,MI,37.03703703703704,NA,NA
48217,Wayne County,MI,NA,98.54227405247813,NA
48220,Oakland County,MI,NA,59.475218658892125,NA
48223,Wayne County,MI,87.5,NA,NA
48224,Wayne County,MI,2.7777777777777777,NA,NA
48230,Wayne County,MI,NA,NA,78.41409691629956
48237,Oakland County,MI,NA,NA,26.87224669603524
48238,Wayne County,MI,NA,36.15160349854227,NA
48313,Macomb County,MI,52.77777777777778,NA,NA
48317,Macomb County,MI,NA,33.23615160349854,NA
48334,Oakland County,MI,NA,65.59766763848397,NA
48335,Oakland County,MI,NA,63.84839650145773,NA
48390,Oakland County,MI,NA,51.89504373177842,NA
48461,Lapeer County,MI,NA,NA,96.47577092511013
48602,Saginaw County,MI,NA,6.705539358600583,NA
48640,Midland County,MI,NA,67.93002915451895,NA
48838,Montcalm County,MI,NA,44.89795918367347,NA
48879,Clinton County,MI,NA,63.26530612244898,NA
49012,Kalamazoo County,MI,NA,NA,98.6784140969163
49058,Barry County,MI,NA,73.17784256559767,NA
49076,Eaton County,MI,NA,NA,95.59471365638767
49082,Branch County,MI,82.87037037037037,NA,NA
49085,Berrien County,MI,NA,NA,55.06607929515418
49120,Berrien County,MI,NA,25.072886297376094,NA
49451,Muskegon County,MI,93.05555555555556,NA,NA
49504,Kent County,MI,NA,NA,22.46696035242291
49505,Kent County,MI,39.81481481481482,NA,NA
49657,Missaukee County,MI,NA,99.12536443148689,NA
49712,Charlevoix County,MI,94.44444444444444,NA,NA
49855,Marquette County,MI,NA,25.364431486880466,NA
55041,Wabasha County,MN,96.75925925925925,NA,NA
55104,Ramsey County,MN,NA,26.239067055393583,NA
55337,Dakota County,MN,25.925925925925924,NA,NA
55416,Hennepin County,MN,NA,55.68513119533528,NA
55421,Anoka County,MN,NA,31.778425655976676,NA
55423,Hennepin County,MN,NA,30.32069970845481,NA
55443,Hennepin County,MN,NA,44.606413994169095,NA
55444,Hennepin County,MN,NA,69.09620991253644,NA
55445,Hennepin County,MN,42.129629629629626,NA,NA
55811,St. Louis County,MN,84.25925925925925,NA,NA
56201,Kandiyohi County,MN,53.70370370370371,NA,NA
56359,Mille Lacs County,MN,NA,NA,98.23788546255507
56431,Aitkin County,MN,80.0925925925926,NA,NA
56601,Beltrami County,MN,NA,13.702623906705538,NA
56701,Pennington County,MN,NA,29.737609329446062,NA
38652,Union County,MS,NA,84.25655976676384,NA
38654,DeSoto County,MS,NA,35.27696793002916,NA
38732,Bolivar County,MS,NA,NA,51.541850220264315
39074,Scott County,MS,NA,51.60349854227405,NA
39577,Stone County,MS,NA,NA,89.86784140969164
39629,Lincoln County,MS,NA,94.16909620991254,NA
39666,Pike County,MS,NA,83.09037900874635,NA
39701,Lowndes County,MS,NA,NA,90.30837004405286
63043,St. Louis County,MO,71.75925925925925,NA,NA
63052,Jefferson County,MO,NA,65.01457725947522,NA
63123,St. Louis County,MO,62.96296296296296,NA,NA
63301,St. Charles County,MO,NA,24.78134110787172,NA
63303,St. Charles County,MO,NA,NA,20.26431718061674
63601,St. Francois County,MO,27.77777777777778,NA,NA
64030,Jackson County,MO,18.51851851851852,NA,NA
64068,Clay County,MO,1.3888888888888888,NA,NA
64085,Ray County,MO,NA,62.68221574344023,NA
64128,Jackson County,MO,NA,31.486880466472307,NA
64429,Clinton County,MO,NA,86.29737609329446,NA
64501,Buchanan County,MO,68.98148148148148,NA,NA
64683,Grundy County,MO,NA,NA,69.16299559471366
64730,Bates County,MO,NA,69.97084548104957,NA
64735,Henry County,MO,NA,47.23032069970846,NA
64836,Jasper County,MO,17.12962962962963,28.57142857142857,NA
65689,Texas County,MO,NA,93.87755102040816,NA
65775,Howell County,MO,NA,74.34402332361516,NA
59401,Cascade County,MT,NA,88.62973760932945,NA
68661,Colfax County,NE,NA,95.91836734693877,NA
68901,Adams County,NE,72.68518518518519,NA,NA
89147,Clark County,NV,NA,53.93586005830904,NA
89508,Washoe County,NV,NA,78.4256559766764,NA
89701,Carson City,NV,62.03703703703704,NA,NA
03038,Rockingham County,NH,NA,22.740524781341108,NA
03257,Merrimack County,NH,NA,NA,92.07048458149781
03766,Grafton County,NH,NA,86.0058309037901,NA
07060,Union County,NJ,NA,15.743440233236154,NA
07067,Middlesex County,NJ,NA,83.38192419825073,NA
07105,Essex County,NJ,NA,NA,44.052863436123346
07503,Passaic County,NJ,NA,30.903790087463555,NA
07524,Passaic County,NJ,NA,NA,76.2114537444934
07753,Monmouth County,NJ,NA,11.078717201166182,NA
08055,Burlington County,NJ,NA,NA,66.07929515418502
08096,Gloucester County,NJ,NA,9.620991253644315,NA
08105,Camden County,NJ,34.25925925925926,2.623906705539359,NA
08232,Atlantic County,NJ,NA,11.9533527696793,NA
08270,Cape May County,NJ,NA,67.05539358600583,NA
08609,Mercer County,NJ,NA,NA,47.136563876651984
08618,Mercer County,NJ,NA,NA,15.418502202643172
08638,Mercer County,NJ,NA,20.699708454810494,NA
08865,Warren County,NJ,NA,34.69387755102041,NA
87111,Bernalillo County,NM,26.38888888888889,6.997084548104956,NA
87121,Bernalillo County,NM,NA,NA,11.894273127753303
87557,Taos County,NM,NA,94.46064139941691,NA
88001,Doa Ana County,NM,NA,40.2332361516035,NA
10023,New York County,NY,NA,61.80758017492711,NA
10025,New York County,NY,NA,NA,3.524229074889868
10029,New York County,NY,NA,97.667638483965,NA
10453,Bronx County,NY,NA,NA,1.762114537444934
10457,Bronx County,NY,NA,NA,0.881057268722467
10459,Bronx County,NY,NA,9.912536443148689,NA
10460,Bronx County,NY,2.314814814814815,NA,NA
10467,Bronx County,NY,NA,2.0408163265306123,NA
10472,Bronx County,NY,3.7037037037037033,NA,NA
10473,Bronx County,NY,6.018518518518518,NA,NA
10550,Westchester County,NY,NA,37.60932944606414,NA
11203,Kings County,NY,NA,18.367346938775512,NA
11206,Kings County,NY,NA,NA,4.405286343612335
11208,Kings County,NY,4.166666666666666,NA,NA
11216,Kings County,NY,NA,NA,16.299559471365637
11219,Kings County,NY,NA,24.198250728862973,NA
11220,Kings County,NY,9.722222222222223,6.41399416909621,NA
11229,Kings County,NY,NA,NA,29.515418502202646
11233,Kings County,NY,NA,NA,2.643171806167401
11234,Kings County,NY,48.61111111111111,NA,NA
11236,Kings County,NY,NA,8.16326530612245,NA
11368,Queens County,NY,NA,NA,25.55066079295154
11416,Queens County,NY,NA,60.932944606414,NA
11423,Queens County,NY,72.22222222222221,NA,NA
11692,Queens County,NY,NA,NA,78.8546255506608
11713,Suffolk County,NY,90.74074074074075,NA,NA
11727,Suffolk County,NY,NA,NA,43.61233480176212
11772,Suffolk County,NY,NA,73.76093294460642,NA
12010,Montgomery County,NY,51.85185185185185,NA,NA
12078,Fulton County,NY,64.81481481481481,NA,NA
12202,Albany County,NY,77.31481481481481,NA,NA
12208,Albany County,NY,NA,72.01166180758017,NA
12487,Ulster County,NY,NA,99.41690962099126,NA
12553,Orange County,NY,NA,83.6734693877551,NA
12912,Clinton County,NY,100,NA,NA
13036,Oswego County,NY,NA,NA,86.34361233480176
13069,Oswego County,NY,NA,10.787172011661808,NA
13076,Oswego County,NY,NA,NA,99.11894273127754
13140,Cayuga County,NY,NA,89.50437317784257,NA
13148,Seneca County,NY,63.888888888888886,NA,41.409691629955944
13208,Onondaga County,NY,35.648148148148145,21.282798833819243,NA
13346,Madison County,NY,NA,NA,63.436123348017624
13365,Herkimer County,NY,NA,75.80174927113703,NA
13601,Jefferson County,NY,16.203703703703702,8.746355685131196,NA
13905,Broome County,NY,30.09259259259259,NA,10.13215859030837
14072,Erie County,NY,80.55555555555556,NA,NA
14085,Erie County,NY,NA,NA,91.18942731277532
14120,Niagara County,NY,NA,NA,14.096916299559473
14150,Erie County,NY,NA,NA,11.45374449339207
14425,Ontario County,NY,NA,27.405247813411076,NA
14432,Ontario County,NY,NA,76.96793002915452,NA
14433,Wayne County,NY,89.81481481481481,NA,NA
14472,Monroe County,NY,NA,60.05830903790087,NA
14513,Wayne County,NY,NA,NA,8.370044052863436
14522,Wayne County,NY,NA,NA,40.08810572687225
14551,Wayne County,NY,74.07407407407408,NA,NA
14618,Monroe County,NY,NA,NA,21.145374449339208
14622,Monroe County,NY,48.148148148148145,35.56851311953353,NA
27012,Forsyth County,NC,NA,NA,9.251101321585903
27018,Yadkin County,NC,NA,82.79883381924198,NA
27263,Randolph County,NC,NA,57.14285714285714,NA
27295,Davidson County,NC,NA,7.288629737609329,NA
27530,Wayne County,NC,NA,NA,30.396475770925107
27540,Wake County,NC,NA,58.89212827988338,NA
27610,Wake County,NC,NA,16.3265306122449,NA
27616,Wake County,NC,19.444444444444446,NA,NA
27703,Durham County,NC,NA,19.825072886297377,NA
27713,Durham County,NC,NA,36.734693877551024,NA
28356,Harnett County,NC,NA,97.08454810495627,NA
28358,Robeson County,NC,NA,26.82215743440233,NA
28562,Craven County,NC,NA,NA,64.31718061674009
28645,Caldwell County,NC,NA,NA,1.3215859030837005
28658,Catawba County,NC,29.629629629629626,NA,NA
28677,Iredell County,NC,37.5,NA,NA
28711,Buncombe County,NC,NA,NA,82.81938325991189
28712,Transylvania County,NC,38.88888888888889,NA,NA
28723,Jackson County,NC,NA,93.29446064139941,NA
58104,Cass County,ND,NA,NA,20.704845814977972
58401,Stutsman County,ND,NA,81.04956268221575,NA
58501,Burleigh County,ND,NA,64.43148688046647,NA
58503,Burleigh County,ND,NA,46.93877551020408,40.52863436123348
58504,Burleigh County,ND,NA,NA,47.57709251101321
58703,Ward County,ND,NA,NA,54.18502202643172
43055,Licking County,OH,NA,3.498542274052478,NA
43068,Franklin County,OH,6.481481481481481,NA,NA
43072,Champaign County,OH,86.57407407407408,NA,NA
43078,Champaign County,OH,NA,48.10495626822158,NA
43123,Franklin County,OH,15.277777777777779,NA,NA
43130,Fairfield County,OH,NA,3.7900874635568513,NA
43204,Franklin County,OH,18.055555555555554,NA,NA
43213,Franklin County,OH,NA,66.47230320699708,NA
43219,Franklin County,OH,24.537037037037038,NA,NA
43223,Franklin County,OH,20.833333333333336,NA,NA
43302,Marion County,OH,7.87037037037037,NA,NA
43331,Logan County,OH,NA,NA,92.51101321585902
43449,Ottawa County,OH,NA,78.71720116618076,NA
43512,Defiance County,OH,NA,NA,10.572687224669604
43537,Lucas County,OH,NA,41.690962099125365,22.90748898678414
43607,Lucas County,OH,NA,13.411078717201166,NA
43609,Lucas County,OH,14.814814814814813,NA,NA
43614,Lucas County,OH,NA,NA,19.383259911894275
43701,Muskingum County,OH,NA,14.577259475218659,NA
43762,Muskingum County,OH,85.64814814814815,NA,NA
43812,Coshocton County,OH,NA,38.19241982507289,NA
43964,Jefferson County,OH,NA,NA,45.81497797356828
44004,Ashtabula County,OH,1.8518518518518516,4.956268221574344,NA
44022,Cuyahoga County,OH,91.20370370370371,NA,NA
44023,Geauga County,OH,NA,77.25947521865889,NA
44035,Lorain County,OH,12.5,NA,NA
44052,Lorain County,OH,NA,5.830903790087463,NA
44055,Lorain County,OH,4.62962962962963,NA,NA
44070,Cuyahoga County,OH,NA,67.63848396501457,NA
44087,Summit County,OH,NA,54.518950437317784,NA
44094,Lake County,OH,70.83333333333334,NA,NA
44102,Cuyahoga County,OH,NA,0.5830903790087464,NA
44103,Cuyahoga County,OH,64.35185185185185,NA,NA
44105,Cuyahoga County,OH,NA,NA,28.634361233480178
44109,Cuyahoga County,OH,NA,9.037900874635568,NA
44111,Cuyahoga County,OH,NA,NA,29.074889867841406
44112,Cuyahoga County,OH,51.388888888888886,NA,NA
44113,Cuyahoga County,OH,NA,44.02332361516035,NA
44128,Cuyahoga County,OH,NA,NA,4.845814977973569
44130,Cuyahoga County,OH,NA,NA,2.2026431718061676
44143,Cuyahoga County,OH,NA,75.21865889212827,57.70925110132159
44202,Portage County,OH,55.092592592592595,NA,27.312775330396477
44212,Medina County,OH,12.037037037037036,NA,NA
44256,Medina County,OH,3.2407407407407405,52.1865889212828,NA
44306,Summit County,OH,11.574074074074074,NA,NA
44319,Summit County,OH,NA,NA,33.480176211453745
44320,Summit County,OH,36.574074074074076,NA,25.991189427312776
44429,Mahoning County,OH,NA,98.83381924198251,NA
44446,Trumbull County,OH,NA,23.9067055393586,NA
44485,Trumbull County,OH,17.59259259259259,NA,NA
44505,Mahoning County,OH,NA,44.31486880466473,NA
44506,Mahoning County,OH,NA,96.20991253644316,NA
44509,Mahoning County,OH,45.370370370370374,NA,NA
44511,Mahoning County,OH,NA,34.69387755102041,NA
44515,Mahoning County,OH,31.48148148148148,NA,NA
44691,Wayne County,OH,NA,16.61807580174927,NA
44813,Richland County,OH,83.33333333333334,NA,NA
45005,Warren County,OH,24.537037037037038,NA,NA
45011,Butler County,OH,NA,5.247813411078718,NA
45044,Butler County,OH,21.296296296296298,NA,NA
45133,Highland County,OH,NA,NA,29.955947136563875
45205,Hamilton County,OH,25.462962962962965,NA,NA
45211,Hamilton County,OH,22.22222222222222,NA,NA
45229,Hamilton County,OH,60.18518518518518,NA,NA
45232,Hamilton County,OH,NA,83.96501457725948,NA
45237,Hamilton County,OH,52.31481481481482,NA,NA
45365,Shelby County,OH,NA,20.99125364431487,NA
45385,Greene County,OH,13.425925925925927,NA,NA
45429,Montgomery County,OH,41.2037037037037,NA,NA
45503,Clark County,OH,NA,NA,21.58590308370044
45634,Vinton County,OH,NA,95.6268221574344,NA
45638,Lawrence County,OH,NA,9.329446064139942,NA
45640,Jackson County,OH,23.61111111111111,NA,NA
45648,Scioto County,OH,NA,NA,27.75330396475771
45652,Scioto County,OH,97.68518518518519,NA,NA
45660,Adams County,OH,NA,82.5072886297376,NA
45662,Scioto County,OH,5.555555555555555,47.8134110787172,6.607929515418502
45690,Pike County,OH,47.68518518518518,NA,NA
45694,Scioto County,OH,NA,NA,31.277533039647576
45732,Athens County,OH,NA,NA,99.55947136563876
45750,Washington County,OH,NA,4.081632653061225,0.4405286343612335
45801,Allen County,OH,NA,52.47813411078717,NA
45885,Auglaize County,OH,44.907407407407405,81.63265306122449,NA
73044,Logan County,OK,NA,NA,23.348017621145374
73065,McClain County,OK,95.83333333333334,NA,NA
73069,Cleveland County,OK,NA,74.63556851311954,NA
73127,Oklahoma County,OK,55.092592592592595,NA,NA
73507,Comanche County,OK,NA,NA,42.731277533039645
73801,Woodward County,OK,NA,72.59475218658892,NA
74464,Cherokee County,OK,NA,17.784256559766764,NA
97031,Hood River County,OR,NA,NA,79.29515418502203
97045,Clackamas County,OR,28.703703703703702,NA,NA
97205,Multnomah County,OR,NA,NA,95.15418502202643
97211,Multnomah County,OR,NA,56.85131195335277,NA
97221,Multnomah County,OR,NA,NA,88.98678414096916
97355,Linn County,OR,NA,52.76967930029155,NA
97365,Lincoln County,OR,NA,NA,51.98237885462555
97420,Coos County,OR,NA,NA,53.74449339207048
97502,Jackson County,OR,NA,80.17492711370262,NA
97624,Klamath County,OR,95.37037037037037,NA,NA
97838,Umatilla County,OR,NA,27.696793002915456,NA
97850,Union County,OR,NA,53.06122448979592,NA
15147,Allegheny County,PA,63.42592592592593,NA,NA
15203,Allegheny County,PA,NA,NA,77.5330396475771
15205,Allegheny County,PA,76.85185185185185,NA,NA
15217,Allegheny County,PA,NA,70.26239067055393,NA
15301,Washington County,PA,NA,14.285714285714285,NA
15601,Westmoreland County,PA,NA,7.580174927113703,NA
15717,Indiana County,PA,NA,73.46938775510205,NA
16125,Mercer County,PA,NA,50.72886297376093,NA
16127,Mercer County,PA,NA,79.59183673469387,NA
16301,Venango County,PA,NA,60.34985422740525,NA
16502,Erie County,PA,NA,55.97667638483965,NA
16504,Erie County,PA,NA,NA,80.1762114537445
16866,Centre County,PA,NA,72.30320699708454,NA
17033,Dauphin County,PA,NA,45.18950437317784,NA
17055,Cumberland County,PA,NA,NA,24.669603524229075
17070,Cumberland County,PA,69.44444444444444,58.01749271137027,NA
17073,Lebanon County,PA,NA,92.71137026239067,NA
17241,Cumberland County,PA,NA,NA,87.66519823788546
17603,Lancaster County,PA,NA,18.075801749271136,NA
17866,Northumberland County,PA,69.44444444444444,NA,NA
18042,Northampton County,PA,NA,11.661807580174926,NA
18103,Lehigh County,PA,NA,11.370262390670554,NA
18235,Carbon County,PA,NA,43.731778425655975,NA
19055,Bucks County,PA,NA,NA,81.4977973568282
19067,Bucks County,PA,NA,NA,15.859030837004406
19070,Delaware County,PA,97.22222222222221,NA,NA
19083,Delaware County,PA,NA,NA,22.026431718061673
19086,Delaware County,PA,74.53703703703704,NA,NA
19104,Philadelphia County,PA,NA,NA,26.431718061674008
19131,Philadelphia County,PA,NA,13.119533527696792,NA
19143,Philadelphia County,PA,21.75925925925926,NA,NA
19144,Philadelphia County,PA,NA,NA,18.94273127753304
19601,Berks County,PA,NA,NA,23.788546255506606
02814,Providence County,RI,NA,89.21282798833819,NA
29209,Richland County,SC,NA,58.309037900874635,NA
29379,Union County,SC,NA,46.35568513119534,NA
29405,Charleston County,SC,NA,71.13702623906705,NA
29569,Horry County,SC,NA,NA,65.63876651982379
29621,Anderson County,SC,NA,50.14577259475219,NA
29649,Greenwood County,SC,78.70370370370371,NA,NA
29673,Greenville County,SC,NA,89.79591836734694,NA
29696,Oconee County,SC,NA,96.7930029154519,NA
29907,Beaufort County,SC,NA,93.58600583090379,NA
37033,Hickman County,TN,NA,92.12827988338192,NA
37355,Coffee County,TN,NA,76.67638483965014,NA
37701,Blount County,TN,NA,NA,75.77092511013215
37743,Greene County,TN,NA,21.574344023323615,NA
37803,Blount County,TN,NA,45.481049562682216,NA
37830,Anderson County,TN,NA,69.38775510204081,NA
38116,Shelby County,TN,NA,28.279883381924197,NA
38301,Madison County,TN,NA,18.658892128279884,NA
75060,Dallas County,TX,NA,NA,51.98237885462555
75070,Collin County,TX,15.74074074074074,NA,NA
75094,Collin County,TX,80.55555555555556,NA,NA
75103,Van Zandt County,TX,NA,NA,59.471365638766514
75146,Dallas County,TX,40.74074074074074,NA,NA
75208,Dallas County,TX,NA,NA,60.792951541850215
75211,Dallas County,TX,45.83333333333333,NA,NA
75241,Dallas County,TX,NA,33.819241982507286,NA
75287,Denton County,TX,32.407407407407405,NA,NA
75401,Hunt County,TX,NA,68.5131195335277,NA
75414,Grayson County,TX,99.53703703703704,NA,NA
75423,Hunt County,TX,NA,100,NA
75474,Hunt County,TX,NA,71.7201166180758,NA
75494,Wood County,TX,86.57407407407408,NA,NA
75703,Smith County,TX,NA,NA,38.76651982378855
75754,Van Zandt County,TX,NA,NA,82.37885462555066
75766,Cherokee County,TX,23.14814814814815,NA,NA
76040,Tarrant County,TX,NA,59.183673469387756,NA
76043,Somervell County,TX,79.16666666666666,NA,NA
76086,Parker County,TX,68.51851851851852,NA,NA
76119,Tarrant County,TX,5.092592592592593,16.909620991253643,NA
76501,Bell County,TX,NA,NA,12.334801762114537
76504,Bell County,TX,12.962962962962962,NA,NA
76513,Bell County,TX,NA,17.20116618075802,NA
76549,Bell County,TX,NA,NA,44.93392070484582
76712,McLennan County,TX,NA,NA,52.863436123348016
77023,Harris County,TX,73.61111111111111,NA,NA
77024,Harris County,TX,57.870370370370374,NA,NA
77028,Harris County,TX,NA,62.390670553935855,NA
77033,Harris County,TX,49.074074074074076,NA,NA
77041,Harris County,TX,NA,NA,51.10132158590308
77069,Harris County,TX,NA,NA,83.70044052863436
77090,Harris County,TX,NA,42.565597667638485,NA
77303,Montgomery County,TX,56.018518518518526,NA,NA
77336,Harris County,TX,46.2962962962963,NA,NA
77379,Harris County,TX,NA,39.067055393586,NA
77389,Harris County,TX,NA,66.1807580174927,NA
77515,Brazoria County,TX,67.5925925925926,NA,NA
77521,Harris County,TX,NA,41.98250728862974,NA
77531,Brazoria County,TX,66.66666666666666,NA,NA
77532,Harris County,TX,NA,54.22740524781341,NA
77571,Harris County,TX,NA,71.42857142857143,NA
77845,Brazos County,TX,13.88888888888889,18.950437317784257,NA
77957,Jackson County,TX,92.12962962962963,NA,NA
78023,Bexar County,TX,71.29629629629629,NA,NA
78130,Comal County,TX,31.944444444444443,NA,NA
78155,Guadalupe County,TX,NA,36.44314868804665,NA
78224,Bexar County,TX,NA,70.55393586005832,NA
78250,Bexar County,TX,NA,55.39358600583091,NA
78416,Nueces County,TX,NA,NA,96.0352422907489
78572,Hidalgo County,TX,NA,28.86297376093295,NA
78574,Hidalgo County,TX,NA,49.56268221574344,NA
78613,Williamson County,TX,NA,74.9271137026239,NA
78633,Williamson County,TX,NA,NA,3.9647577092511015
78634,Williamson County,TX,NA,70.8454810495627,NA
84081,Salt Lake County,UT,NA,43.440233236151606,NA
84084,Salt Lake County,UT,NA,NA,53.30396475770925
22031,Fairfax County,VA,76.38888888888889,NA,NA
23093,Louisa County,VA,NA,NA,64.75770925110133
23453,Virginia Beach city,VA,NA,61.51603498542274,48.458149779735685
23455,Virginia Beach city,VA,NA,NA,17.62114537444934
23661,Hampton city,VA,NA,NA,70.04405286343612
23669,Hampton city,VA,NA,33.52769679300292,NA
24317,Carroll County,VA,NA,NA,93.83259911894272
98001,King County,WA,60.18518518518518,NA,NA
98003,King County,WA,NA,NA,30.396475770925107
98034,King County,WA,NA,45.77259475218659,NA
98092,King County,WA,NA,37.02623906705539,NA
98108,King County,WA,NA,81.92419825072886,NA
98115,King County,WA,NA,NA,68.28193832599119
98118,King County,WA,57.407407407407405,NA,NA
98126,King County,WA,NA,NA,67.84140969162996
98146,King County,WA,NA,NA,46.69603524229075
98201,Snohomish County,WA,60.18518518518518,NA,NA
98223,Snohomish County,WA,NA,37.31778425655977,NA
98236,Island County,WA,NA,NA,84.58149779735683
98239,Island County,WA,NA,NA,68.72246696035242
98270,Snohomish County,WA,NA,29.154518950437318,NA
98332,Pierce County,WA,NA,NA,61.23348017621145
98382,Clallam County,WA,NA,NA,7.488986784140969
98404,Pierce County,WA,NA,46.647230320699705,NA
98498,Pierce County,WA,NA,88.33819241982506,NA
98550,Grays Harbor County,WA,NA,NA,81.93832599118943
98942,Yakima County,WA,NA,NA,71.80616740088107
99336,Benton County,WA,19.90740740740741,NA,NA
99337,Benton County,WA,NA,NA,14.537444933920703
20019,District of Columbia,DC,NA,7.871720116618077,NA
20032,District of Columbia,DC,NA,10.495626822157435,NA
24701,Mercer County,WV,62.5,NA,NA
25901,Fayette County,WV,85.18518518518519,NA,NA
26104,Wood County,WV,67.12962962962963,NA,NA
26287,Tucker County,WV,NA,NA,90.7488986784141
26508,Monongalia County,WV,NA,10.204081632653061,NA
26847,Grant County,WV,94.9074074074074,NA,NA
53089,Waukesha County,WI,NA,74.05247813411079,NA
53179,Kenosha County,WI,68.05555555555556,NA,NA
53181,Kenosha County,WI,61.57407407407407,NA,88.54625550660793
53204,Milwaukee County,WI,NA,NA,77.97356828193833
53206,Milwaukee County,WI,20.37037037037037,NA,NA
53208,Milwaukee County,WI,32.870370370370374,NA,NA
53216,Milwaukee County,WI,8.333333333333332,NA,NA
53218,Milwaukee County,WI,9.25925925925926,NA,NA
53224,Milwaukee County,WI,27.314814814814813,NA,NA
53225,Milwaukee County,WI,43.51851851851852,NA,49.77973568281938
53511,Rock County,WI,0.9259259259259258,NA,NA
53538,Jefferson County,WI,NA,NA,49.33920704845815
53548,Rock County,WI,NA,NA,35.68281938325991
53563,Rock County,WI,NA,NA,54.62555066079295
53593,Dane County,WI,NA,90.0874635568513,NA
53704,Dane County,WI,NA,NA,25.11013215859031
53813,Grant County,WI,NA,NA,94.7136563876652
53959,Sauk County,WI,59.72222222222222,NA,NA
54130,Outagamie County,WI,NA,69.67930029154519,NA
54220,Manitowoc County,WI,NA,41.10787172011662,NA
54409,Langlade County,WI,NA,51.02040816326531,NA
54481,Portage County,WI,NA,30.029154518950435,NA
54603,La Crosse County,WI,NA,NA,34.801762114537446
54650,La Crosse County,WI,NA,NA,17.180616740088105
54656,Monroe County,WI,NA,NA,50.22026431718062
54701,Eau Claire County,WI,NA,55.10204081632652,NA
54751,Dunn County,WI,33.33333333333333,NA,NA
54830,Burnett County,WI,NA,NA,97.79735682819384
54843,Sawyer County,WI,NA,NA,86.34361233480176
82633,Converse County,WY,NA,NA,63.87665198237885
82901,Sweetwater County,WY,NA,NA,73.568281938326
