ZipCode,county,state,Adult,Retirement,Geriatric
35234,Jefferson County,AL,93.58490566037736,NA,NA
35611,Limestone County,AL,27.169811320754718,NA,NA
35630,Lauderdale County,AL,NA,35.40983606557377,NA
35640,Morgan County,AL,NA,NA,55.14950166112956
35771,Jackson County,AL,99.62264150943396,NA,NA
35957,Marshall County,AL,NA,NA,81.06312292358804
36066,Autauga County,AL,NA,NA,57.80730897009967
36067,Autauga County,AL,NA,NA,78.07308970099668
36507,Baldwin County,AL,NA,66.55737704918033,NA
36542,Baldwin County,AL,NA,NA,69.76744186046511
36784,Clarke County,AL,NA,NA,96.01328903654485
36874,Lee County,AL,90.9433962264151,NA,NA
99504,Anchorage Municipality,AK,NA,43.278688524590166,NA
85022,Maricopa County,AZ,NA,NA,52.49169435215947
85207,Maricopa County,AZ,NA,NA,51.82724252491694
85297,Maricopa County,AZ,NA,82.95081967213115,NA
85350,Yuma County,AZ,55.471698113207545,NA,NA
85382,Maricopa County,AZ,NA,NA,17.275747508305646
85635,Cochise County,AZ,NA,NA,37.54152823920266
85704,Pima County,AZ,NA,NA,24.25249169435216
86001,Coconino County,AZ,21.132075471698116,NA,NA
86326,Yavapai County,AZ,NA,NA,60.13289036544851
86409,Mohave County,AZ,NA,3.278688524590164,NA
71646,Ashley County,AR,NA,88.19672131147541,NA
71671,Bradley County,AR,NA,NA,80.73089700996677
72034,Faulkner County,AR,57.35849056603774,NA,NA
72076,Pulaski County,AR,53.9622641509434,NA,NA
72118,Pulaski County,AR,NA,93.44262295081968,NA
72301,Crittenden County,AR,NA,80.98360655737706,NA
72543,Cleburne County,AR,NA,NA,55.48172757475083
72653,Baxter County,AR,46.41509433962264,NA,NA
90003,Los Angeles County,CA,NA,39.34426229508197,NA
90011,Los Angeles County,CA,NA,NA,45.182724252491695
90036,Los Angeles County,CA,NA,NA,73.421926910299
90201,Los Angeles County,CA,33.9622641509434,NA,NA
90605,Los Angeles County,CA,NA,74.09836065573771,NA
90701,Los Angeles County,CA,NA,NA,89.3687707641196
90716,Los Angeles County,CA,NA,97.37704918032787,NA
90745,Los Angeles County,CA,42.64150943396226,NA,NA
90802,Los Angeles County,CA,55.094339622641506,NA,NA
91201,Los Angeles County,CA,NA,NA,65.11627906976744
91206,Los Angeles County,CA,NA,NA,12.956810631229235
91325,Los Angeles County,CA,80,NA,NA
91402,Los Angeles County,CA,29.433962264150942,NA,NA
91784,San Bernardino County,CA,NA,NA,42.857142857142854
92024,San Diego County,CA,NA,NA,73.08970099667775
92037,San Diego County,CA,NA,53.11475409836065,NA
92071,San Diego County,CA,NA,40.32786885245901,NA
92101,San Diego County,CA,NA,7.868852459016394,NA
92115,San Diego County,CA,NA,NA,94.01993355481729
92116,San Diego County,CA,78.49056603773586,NA,NA
92544,Riverside County,CA,NA,79.01639344262294,NA
92624,Orange County,CA,NA,97.04918032786885,NA
92629,Orange County,CA,NA,41.967213114754095,NA
92648,Orange County,CA,NA,21.9672131147541,NA
92651,Orange County,CA,NA,47.21311475409836,NA
92673,Orange County,CA,NA,NA,74.08637873754152
92840,Orange County,CA,56.9811320754717,37.704918032786885,NA
93004,Ventura County,CA,NA,NA,58.4717607973422
93010,Ventura County,CA,NA,24.91803278688525,NA
93257,Tulare County,CA,NA,21.639344262295083,NA
93314,Kern County,CA,82.26415094339623,NA,NA
93401,San Luis Obispo County,CA,65.28301886792453,NA,NA
93442,San Luis Obispo County,CA,NA,NA,86.37873754152824
93449,San Luis Obispo County,CA,NA,NA,77.40863787375415
93458,Santa Barbara County,CA,13.20754716981132,NA,NA
93635,Merced County,CA,NA,46.22950819672131,NA
93646,Fresno County,CA,NA,NA,99.33554817275747
93726,Fresno County,CA,NA,NA,60.46511627906976
93905,Monterey County,CA,NA,55.08196721311476,NA
93940,Monterey County,CA,59.24528301886792,NA,NA
94015,San Mateo County,CA,NA,NA,5.647840531561462
94131,San Francisco County,CA,NA,55.73770491803278,NA
94556,Contra Costa County,CA,NA,91.47540983606557,NA
94560,Alameda County,CA,NA,NA,45.84717607973422
94565,Contra Costa County,CA,NA,5.245901639344262,NA
94587,Alameda County,CA,38.86792452830189,NA,NA
94621,Alameda County,CA,35.094339622641506,NA,NA
95030,Santa Clara County,CA,NA,NA,73.75415282392026
95062,Santa Cruz County,CA,76.60377358490567,NA,NA
95111,Santa Clara County,CA,40.75471698113208,NA,NA
95118,Santa Clara County,CA,NA,NA,67.77408637873754
95126,Santa Clara County,CA,NA,NA,71.42857142857143
95129,Santa Clara County,CA,NA,NA,49.16943521594684
95228,Calaveras County,CA,NA,83.60655737704919,NA
95355,Stanislaus County,CA,NA,38.68852459016394,NA
95361,Stanislaus County,CA,NA,NA,56.810631229235874
95367,Stanislaus County,CA,60.75471698113207,NA,NA
95391,San Joaquin County,CA,NA,NA,98.67109634551495
95476,Sonoma County,CA,NA,NA,26.245847176079735
95531,Del Norte County,CA,87.54716981132076,NA,NA
95650,Placer County,CA,NA,NA,85.71428571428571
95667,El Dorado County,CA,NA,NA,2.3255813953488373
95678,Placer County,CA,52.83018867924528,NA,NA
95682,El Dorado County,CA,NA,NA,25.91362126245847
95815,Sacramento County,CA,95.47169811320755,NA,NA
95926,Butte County,CA,NA,NA,40.19933554817276
95932,Colusa County,CA,NA,85.90163934426229,NA
95961,Yuba County,CA,NA,67.8688524590164,NA
96122,Plumas County,CA,NA,84.59016393442623,NA
80003,Jefferson County,CO,NA,56.72131147540984,NA
80109,Douglas County,CO,NA,64.91803278688525,NA
80222,Denver County,CO,NA,NA,85.38205980066445
80228,Jefferson County,CO,NA,NA,78.7375415282392
80229,Adams County,CO,NA,43.606557377049185,NA
80401,Jefferson County,CO,NA,NA,49.83388704318937
80504,Boulder County,CO,NA,24.262295081967213,NA
80516,Weld County,CO,NA,62.95081967213115,NA
80521,Larimer County,CO,90.56603773584906,NA,NA
80524,Larimer County,CO,33.20754716981132,NA,NA
80528,Larimer County,CO,NA,NA,92.35880398671097
80538,Larimer County,CO,NA,NA,29.568106312292358
80550,Weld County,CO,31.32075471698113,NA,NA
80909,El Paso County,CO,NA,51.80327868852459,NA
80911,El Paso County,CO,44.15094339622642,NA,NA
80919,El Paso County,CO,NA,54.09836065573771,NA
80922,El Paso County,CO,63.0188679245283,NA,NA
81004,Pueblo County,CO,NA,NA,49.501661129568106
81301,La Plata County,CO,61.50943396226415,NA,NA
06043,Tolland County,CT,NA,95.08196721311475,NA
06066,Tolland County,CT,52.075471698113205,NA,NA
06413,Middlesex County,CT,69.0566037735849,NA,NA
06482,Fairfield County,CT,NA,NA,98.33887043189368
06492,New Haven County,CT,60,11.475409836065573,NA
06525,New Haven County,CT,NA,89.8360655737705,NA
06811,Fairfield County,CT,NA,NA,17.60797342192691
19904,Kent County,DE,NA,NA,26.910299003322258
19958,Sussex County,DE,NA,NA,13.2890365448505
32054,Union County,FL,NA,NA,91.69435215946844
32082,St. Johns County,FL,NA,29.836065573770494,NA
32162,Sumter County,FL,NA,NA,3.6544850498338874
32174,Volusia County,FL,NA,NA,43.18936877076412
32179,Marion County,FL,NA,87.21311475409837,NA
32208,Duval County,FL,1.509433962264151,NA,NA
32211,Duval County,FL,NA,NA,78.40531561461795
32259,St. Johns County,FL,NA,NA,54.15282392026578
32439,Walton County,FL,NA,70.16393442622952,NA
32444,Bay County,FL,NA,NA,46.84385382059801
32724,Volusia County,FL,NA,NA,25.581395348837212
32736,Lake County,FL,NA,NA,79.40199335548172
32780,Brevard County,FL,NA,18.0327868852459,NA
32784,Lake County,FL,NA,67.21311475409836,NA
32824,Orange County,FL,NA,68.1967213114754,NA
32922,Brevard County,FL,80.37735849056604,NA,NA
32937,Brevard County,FL,NA,NA,32.22591362126246
32966,Indian River County,FL,78.8679245283019,NA,NA
32967,Indian River County,FL,NA,51.147540983606554,NA
33025,Broward County,FL,32.45283018867924,NA,NA
33032,Miami-Dade County,FL,44.528301886792455,NA,NA
33060,Broward County,FL,40.37735849056604,NA,NA
33126,Miami-Dade County,FL,NA,45.90163934426229,NA
33141,Miami-Dade County,FL,67.9245283018868,NA,NA
33176,Miami-Dade County,FL,NA,70.81967213114754,NA
33313,Broward County,FL,NA,42.295081967213115,NA
33418,Palm Beach County,FL,82.64150943396227,NA,NA
33433,Palm Beach County,FL,NA,NA,3.322259136212625
33444,Palm Beach County,FL,NA,71.14754098360656,NA
33496,Palm Beach County,FL,NA,NA,8.305647840531561
33538,Sumter County,FL,NA,NA,95.01661129568106
33609,Hillsborough County,FL,NA,58.68852459016394,NA
33711,Pinellas County,FL,NA,75.08196721311475,NA
33860,Polk County,FL,NA,63.934426229508205,NA
33935,Hendry County,FL,79.24528301886792,NA,NA
33952,Charlotte County,FL,26.79245283018868,NA,NA
33957,Lee County,FL,NA,74.75409836065575,NA
34110,Collier County,FL,NA,NA,15.614617940199334
34208,Manatee County,FL,NA,NA,69.10299003322258
34210,Manatee County,FL,88.30188679245283,NA,NA
34212,Manatee County,FL,NA,56.393442622950815,NA
34448,Citrus County,FL,NA,NA,96.3455149501661
34639,Pasco County,FL,NA,57.377049180327866,NA
34684,Pinellas County,FL,NA,12.131147540983607,NA
34953,St. Lucie County,FL,NA,NA,22.259136212624583
34984,St. Lucie County,FL,61.50943396226415,NA,NA
30011,Barrow County,GA,NA,NA,91.0299003322259
30024,Gwinnett County,GA,21.88679245283019,NA,NA
30034,DeKalb County,GA,NA,NA,58.139534883720934
30041,Forsyth County,GA,29.81132075471698,NA,NA
30047,Gwinnett County,GA,NA,25.245901639344265,NA
30052,Walton County,GA,18.11320754716981,NA,NA
30058,DeKalb County,GA,21.50943396226415,NA,NA
30083,DeKalb County,GA,NA,31.147540983606557,NA
30101,Cobb County,GA,NA,25.901639344262296,NA
30121,Bartow County,GA,NA,NA,94.35215946843853
30132,Paulding County,GA,36.60377358490566,NA,NA
30143,Pickens County,GA,NA,NA,42.524916943521596
30297,Clayton County,GA,NA,93.11475409836065,NA
30331,Fulton County,GA,NA,5.901639344262295,NA
30401,Emanuel County,GA,NA,65.57377049180327,NA
30560,Fannin County,GA,NA,NA,93.68770764119601
30606,Clarke County,GA,73.9622641509434,NA,NA
30683,Clarke County,GA,91.32075471698113,NA,NA
30813,Columbia County,GA,NA,NA,65.4485049833887
30906,Richmond County,GA,7.547169811320755,NA,NA
31023,Dodge County,GA,NA,73.11475409836066,NA
31216,Bibb County,GA,NA,NA,80.39867109634552
31525,Glynn County,GA,NA,65.24590163934427,NA
31636,Lowndes County,GA,NA,62.62295081967213,NA
31750,Ben Hill County,GA,67.16981132075472,NA,NA
31791,Worth County,GA,NA,62.295081967213115,NA
96746,Kauai County,HI,NA,69.83606557377048,NA
96768,Maui County,HI,NA,88.85245901639345,NA
96782,Honolulu County,HI,40,NA,NA
96797,Honolulu County,HI,8.679245283018867,NA,NA
96816,Honolulu County,HI,NA,NA,7.308970099667775
83301,Twin Falls County,ID,NA,NA,0.6644518272425249
83350,Minidoka County,ID,77.73584905660378,NA,NA
83544,Clearwater County,ID,NA,NA,90.69767441860465
83647,Elmore County,ID,NA,50.1639344262295,NA
83661,Payette County,ID,NA,NA,53.156146179402
60004,Cook County,IL,NA,NA,10.299003322259136
60007,Cook County,IL,NA,18.360655737704917,NA
60010,Lake County,IL,41.88679245283019,13.442622950819672,NA
60030,Lake County,IL,NA,NA,17.940199335548172
60033,McHenry County,IL,NA,75.40983606557377,NA
60035,Lake County,IL,46.79245283018868,NA,NA
60062,Cook County,IL,43.39622641509434,NA,NA
60101,DuPage County,IL,NA,21.311475409836063,NA
60126,DuPage County,IL,NA,NA,6.64451827242525
60142,McHenry County,IL,NA,8.852459016393443,NA
60156,McHenry County,IL,NA,60,NA
60178,DeKalb County,IL,62.264150943396224,NA,NA
60409,Cook County,IL,NA,31.80327868852459,NA
60420,Livingston County,IL,NA,92.1311475409836,NA
60448,Will County,IL,NA,NA,95.68106312292359
60463,Cook County,IL,NA,46.557377049180324,NA
60525,Cook County,IL,NA,13.77049180327869,NA
60559,DuPage County,IL,46.79245283018868,NA,NA
60585,Will County,IL,62.64150943396226,NA,NA
60601,Cook County,IL,89.05660377358491,NA,NA
60610,Cook County,IL,NA,20.655737704918035,NA
60621,Cook County,IL,NA,NA,43.85382059800664
60629,Cook County,IL,NA,NA,12.624584717607974
60657,Cook County,IL,NA,NA,21.59468438538206
61101,Winnebago County,IL,49.81132075471698,NA,NA
61264,Rock Island County,IL,92.0754716981132,NA,NA
61282,Rock Island County,IL,NA,88.52459016393442,NA
61554,Tazewell County,IL,NA,9.508196721311474,NA
61604,Peoria County,IL,NA,40,NA
61727,De Witt County,IL,NA,74.42622950819671,NA
61920,Coles County,IL,83.01886792452831,NA,NA
62223,St. Clair County,IL,NA,NA,52.159468438538205
62236,Monroe County,IL,NA,94.09836065573771,NA
62522,Macon County,IL,63.77358490566037,NA,NA
62702,Sangamon County,IL,27.547169811320753,NA,77.74086378737542
62837,Wayne County,IL,NA,NA,75.41528239202658
62960,Massac County,IL,NA,NA,52.823920265780735
46012,Madison County,IN,NA,19.672131147540984,NA
46037,Hamilton County,IN,NA,36.721311475409834,NA
46052,Boone County,IN,45.660377358490564,NA,NA
46151,Morgan County,IN,NA,NA,31.561461794019934
46218,Marion County,IN,NA,NA,26.578073089701
46229,Marion County,IN,26.037735849056602,NA,NA
46241,Marion County,IN,20.754716981132077,NA,NA
46373,Lake County,IN,NA,37.37704918032787,NA
46385,Porter County,IN,7.169811320754717,22.295081967213115,NA
46530,St. Joseph County,IN,NA,NA,66.11295681063123
46750,Huntington County,IN,20.37735849056604,NA,24.916943521594686
46806,Allen County,IN,NA,NA,98.00664451827242
46814,Allen County,IN,NA,90.49180327868852,NA
46815,Allen County,IN,36.22641509433962,NA,NA
46825,Allen County,IN,NA,27.54098360655738,36.544850498338874
46914,Miami County,IN,NA,99.01639344262296,NA
47167,Washington County,IN,56.22641509433962,NA,NA
47421,Lawrence County,IN,NA,NA,38.53820598006645
47446,Lawrence County,IN,73.20754716981132,NA,NA
47711,Vanderburgh County,IN,NA,26.229508196721312,NA
47720,Vanderburgh County,IN,NA,60.983606557377044,NA
50208,Jasper County,IA,NA,66.88524590163935,NA
50317,Polk County,IA,NA,NA,43.521594684385384
50327,Polk County,IA,NA,NA,85.04983388704319
50501,Webster County,IA,NA,NA,29.568106312292358
50613,Black Hawk County,IA,NA,NA,27.906976744186046
50644,Buchanan County,IA,NA,NA,82.05980066445183
52240,Johnson County,IA,NA,NA,29.2358803986711
52353,Washington County,IA,NA,NA,94.6843853820598
52761,Muscatine County,IA,NA,45.57377049180328,NA
52803,Scott County,IA,37.735849056603776,NA,NA
66030,Johnson County,KS,NA,59.01639344262295,NA
66049,Douglas County,KS,65.66037735849056,NA,NA
66109,Wyandotte County,KS,NA,52.459016393442624,34.21926910299003
66203,Johnson County,KS,NA,NA,72.75747508305648
66215,Johnson County,KS,NA,NA,44.18604651162791
66604,Shawnee County,KS,50.18867924528302,NA,NA
66605,Shawnee County,KS,NA,NA,59.800664451827245
66743,Crawford County,KS,97.35849056603773,NA,NA
66801,Lyon County,KS,NA,NA,84.0531561461794
67042,Butler County,KS,NA,NA,55.81395348837209
67206,Sedgwick County,KS,NA,NA,81.3953488372093
67213,Sedgwick County,KS,87.9245283018868,NA,NA
40004,Nelson County,KY,NA,26.885245901639344,NA
40229,Jefferson County,KY,12.075471698113208,NA,NA
40272,Jefferson County,KY,NA,NA,28.23920265780731
40299,Jefferson County,KY,71.69811320754717,NA,NA
40422,Boyle County,KY,NA,79.34426229508198,NA
40475,Madison County,KY,8.30188679245283,NA,NA
40484,Lincoln County,KY,NA,NA,83.05647840531562
40505,Fayette County,KY,NA,30.81967213114754,NA
40759,Whitley County,KY,NA,98.68852459016394,NA
41005,Boone County,KY,NA,NA,62.45847176079734
41011,Kenton County,KY,NA,NA,48.837209302325576
41017,Kenton County,KY,NA,20.327868852459016,NA
41035,Grant County,KY,NA,85.57377049180329,NA
42003,McCracken County,KY,NA,16.39344262295082,NA
42101,Warren County,KY,6.037735849056604,NA,NA
42104,Warren County,KY,45.28301886792453,NA,NA
42141,Barren County,KY,NA,6.557377049180328,NA
42408,Hopkins County,KY,81.88679245283019,NA,NA
42420,Henderson County,KY,10.18867924528302,NA,NA
42602,Clinton County,KY,NA,71.47540983606558,NA
70116,Orleans Parish,LA,NA,68.52459016393443,NA
70301,Lafourche Parish,LA,NA,6.885245901639345,NA
70506,Lafayette Parish,LA,4.905660377358491,NA,NA
70538,St. Mary Parish,LA,46.0377358490566,NA,NA
70560,Iberia Parish,LA,NA,NA,33.5548172757475
70570,St. Landry Parish,LA,NA,NA,19.269102990033225
70578,Acadia Parish,LA,NA,44.26229508196721,NA
70586,Evangeline Parish,LA,NA,38.0327868852459,NA
70601,Calcasieu Parish,LA,NA,NA,30.23255813953488
70615,Calcasieu Parish,LA,NA,68.85245901639344,NA
71019,Red River Parish,LA,68.30188679245282,NA,NA
71105,Caddo Parish,LA,NA,NA,44.85049833887043
71203,Ouachita Parish,LA,NA,23.278688524590162,NA
04005,York County,ME,NA,3.606557377049181,NA
04043,York County,ME,NA,NA,30.89700996677741
04240,Androscoggin County,ME,NA,19.01639344262295,NA
04742,Aroostook County,ME,NA,NA,88.37209302325581
04769,Aroostook County,ME,85.66037735849056,NA,NA
20653,St. Mary's County,MD,NA,78.68852459016394,NA
20785,Prince George's County,MD,NA,NA,76.41196013289037
20794,Howard County,MD,NA,91.80327868852459,NA
20850,Montgomery County,MD,NA,91.14754098360656,NA
21043,Howard County,MD,NA,45.24590163934426,NA
21111,Baltimore County,MD,NA,NA,99.00332225913621
21122,Anne Arundel County,MD,NA,12.786885245901638,NA
21136,Baltimore County,MD,66.79245283018868,NA,NA
21157,Carroll County,MD,NA,NA,22.591362126245848
21219,Baltimore County,MD,NA,83.93442622950819,NA
21220,Baltimore County,MD,18.49056603773585,NA,34.883720930232556
21239,Baltimore city,MD,35.84905660377358,NA,NA
01108,Hampden County,MA,NA,28.852459016393446,NA
01201,Berkshire County,MA,NA,0,NA
01475,Worcester County,MA,29.056603773584904,NA,NA
01507,Worcester County,MA,NA,84.26229508196721,NA
01702,Middlesex County,MA,1.8867924528301887,NA,NA
01832,Essex County,MA,4.150943396226415,NA,NA
01844,Essex County,MA,1.1320754716981132,NA,NA
01905,Essex County,MA,2.2641509433962264,NA,NA
01949,Essex County,MA,NA,NA,90.36544850498339
02043,Plymouth County,MA,73.58490566037736,81.31147540983606,NA
02067,Norfolk County,MA,NA,NA,54.81727574750831
02118,Suffolk County,MA,NA,NA,57.14285714285714
02139,Middlesex County,MA,0,NA,NA
02155,Middlesex County,MA,6.7924528301886795,NA,1.3289036544850499
02169,Norfolk County,MA,NA,0.32786885245901637,NA
02346,Plymouth County,MA,NA,10.163934426229508,NA
02351,Plymouth County,MA,14.716981132075471,NA,NA
02360,Plymouth County,MA,0.7547169811320755,NA,NA
02364,Plymouth County,MA,58.490566037735846,NA,NA
02446,Norfolk County,MA,NA,NA,10.96345514950166
02494,Norfolk County,MA,NA,NA,48.50498338870432
02563,Barnstable County,MA,NA,57.049180327868854,NA
02568,Dukes County,MA,NA,42.950819672131146,NA
02664,Barnstable County,MA,NA,36.0655737704918,NA
02703,Bristol County,MA,NA,NA,33.88704318936877
02771,Bristol County,MA,41.509433962264154,NA,NA
48039,St. Clair County,MI,NA,86.22950819672131,NA
48044,Macomb County,MI,NA,NA,23.25581395348837
48060,St. Clair County,MI,NA,4.2622950819672125,NA
48065,Macomb County,MI,NA,NA,65.78073089700996
48094,Macomb County,MI,55.84905660377358,NA,NA
48101,Wayne County,MI,63.39622641509434,NA,NA
48170,Wayne County,MI,NA,2.2950819672131146,NA
48180,Wayne County,MI,47.924528301886795,NA,NA
48187,Wayne County,MI,10.943396226415095,NA,NA
48188,Wayne County,MI,12.452830188679245,4.590163934426229,NA
48192,Wayne County,MI,NA,30.16393442622951,NA
48201,Wayne County,MI,41.132075471698116,NA,NA
48215,Wayne County,MI,39.62264150943396,NA,NA
48238,Wayne County,MI,NA,NA,36.87707641196013
48336,Oakland County,MI,35.471698113207545,NA,NA
48341,Oakland County,MI,31.69811320754717,NA,NA
48348,Oakland County,MI,NA,NA,63.12292358803987
48357,Oakland County,MI,NA,72.45901639344262,NA
48390,Oakland County,MI,NA,NA,40.863787375415285
48441,Huron County,MI,95.09433962264151,NA,NA
48446,Lapeer County,MI,NA,NA,21.262458471760798
48504,Genesee County,MI,NA,NA,53.820598006644516
48623,Saginaw County,MI,NA,49.18032786885246,NA
48708,Bay County,MI,7.9245283018867925,NA,NA
48734,Saginaw County,MI,NA,77.37704918032787,NA
48763,Iosco County,MI,92.83018867924528,NA,NA
48809,Ionia County,MI,NA,96.39344262295081,NA
48838,Montcalm County,MI,NA,29.18032786885246,NA
48858,Isabella County,MI,28.67924528301887,NA,11.295681063122924
49004,Kalamazoo County,MI,NA,NA,59.136212624584715
49009,Kalamazoo County,MI,NA,5.573770491803279,NA
49036,Branch County,MI,NA,23.934426229508198,NA
49203,Jackson County,MI,NA,33.77049180327869,NA
49221,Lenawee County,MI,NA,NA,7.973421926910299
49269,Jackson County,MI,NA,81.63934426229508,NA
49270,Monroe County,MI,98.86792452830188,NA,NA
49333,Barry County,MI,72.45283018867924,NA,NA
49412,Newaygo County,MI,NA,84.91803278688525,NA
49417,Ottawa County,MI,17.358490566037734,NA,NA
49938,Gogebic County,MI,74.33962264150942,NA,NA
55014,Anoka County,MN,NA,69.18032786885246,NA
55106,Ramsey County,MN,5.660377358490567,NA,NA
55127,Ramsey County,MN,NA,77.70491803278688,NA
55130,Ramsey County,MN,52.45283018867924,NA,NA
55443,Hennepin County,MN,34.33962264150943,NA,NA
56007,Freeborn County,MN,13.962264150943396,NA,NA
56515,Otter Tail County,MN,NA,89.50819672131148,NA
38829,Prentiss County,MS,49.056603773584904,NA,61.12956810631229
38865,Alcorn County,MS,NA,96.72131147540983,NA
39069,Jefferson County,MS,83.39622641509435,NA,NA
39211,Hinds County,MS,NA,NA,42.19269102990033
39307,Lauderdale County,MS,NA,NA,76.0797342192691
39507,Harrison County,MS,NA,NA,47.50830564784053
39560,Harrison County,MS,66.41509433962264,NA,NA
39652,Pike County,MS,75.84905660377359,NA,NA
63025,St. Louis County,MO,86.0377358490566,NA,NA
63080,Franklin County,MO,NA,NA,53.48837209302325
63122,St. Louis County,MO,NA,NA,12.29235880398671
63303,St. Charles County,MO,24.528301886792452,NA,NA
63376,St. Charles County,MO,NA,NA,5.3156146179401995
63389,Lincoln County,MO,NA,NA,95.34883720930233
63628,St. Francois County,MO,70.18867924528301,NA,NA
63664,Washington County,MO,NA,NA,68.10631229235881
63775,Perry County,MO,NA,33.442622950819676,NA
64015,Jackson County,MO,NA,NA,47.176079734219265
64110,Jackson County,MO,38.49056603773585,NA,NA
64118,Clay County,MO,NA,4.918032786885246,NA
64151,Platte County,MO,NA,17.04918032786885,NA
64152,Platte County,MO,58.11320754716981,NA,NA
64485,Andrew County,MO,70.56603773584905,NA,NA
64505,Buchanan County,MO,NA,22.62295081967213,NA
64831,McDonald County,MO,NA,NA,93.35548172757476
65037,Morgan County,MO,93.9622641509434,NA,NA
65706,Webster County,MO,NA,67.54098360655738,NA
65791,Oregon County,MO,NA,NA,89.03654485049833
65804,Greene County,MO,NA,NA,16.943521594684384
68046,Sarpy County,NE,NA,73.44262295081967,NA
68102,Douglas County,NE,NA,99.34426229508196,NA
68114,Douglas County,NE,81.13207547169812,NA,NA
68133,Sarpy County,NE,NA,90.81967213114754,NA
68901,Adams County,NE,NA,44.91803278688525,36.87707641196013
89108,Clark County,NV,NA,41.31147540983607,NA
89429,Lyon County,NV,NA,86.88524590163934,NA
03858,Rockingham County,NH,87.16981132075472,NA,NA
07001,Middlesex County,NJ,70.94339622641509,NA,NA
07020,Bergen County,NJ,NA,95.40983606557377,NA
07031,Bergen County,NJ,NA,NA,77.0764119601329
07042,Essex County,NJ,NA,NA,50.83056478405316
07076,Union County,NJ,NA,76.39344262295083,NA
07093,Hudson County,NJ,NA,9.836065573770492,NA
07108,Essex County,NJ,NA,NA,99.66777408637874
07304,Hudson County,NJ,NA,48.85245901639344,NA
07305,Hudson County,NJ,0.37735849056603776,NA,NA
07450,Bergen County,NJ,NA,82.95081967213115,NA
07726,Monmouth County,NJ,NA,NA,74.4186046511628
07871,Sussex County,NJ,64.15094339622641,NA,NA
08012,Camden County,NJ,NA,16.065573770491802,NA
08016,Burlington County,NJ,3.7735849056603774,NA,NA
08087,Ocean County,NJ,NA,15.737704918032788,NA
08234,Atlantic County,NJ,NA,12.459016393442624,NA
08638,Mercer County,NJ,43.77358490566038,38.0327868852459,NA
08701,Ocean County,NJ,NA,NA,18.93687707641196
08831,Middlesex County,NJ,NA,NA,2.6578073089700998
08859,Middlesex County,NJ,54.71698113207547,NA,NA
87013,Sandoval County,NM,96.22641509433963,NA,NA
87102,Bernalillo County,NM,23.0188679245283,NA,NA
87109,Bernalillo County,NM,NA,15.40983606557377,NA
87111,Bernalillo County,NM,NA,NA,5.980066445182724
87120,Bernalillo County,NM,NA,NA,24.58471760797342
87508,Santa Fe County,NM,NA,NA,60.797342192691026
88005,Doa Ana County,NM,NA,40.65573770491803,NA
88008,Doa Ana County,NM,NA,NA,97.34219269102991
88011,Doa Ana County,NM,59.62264150943396,NA,NA
88012,Doa Ana County,NM,36.9811320754717,NA,NA
88101,Curry County,NM,NA,NA,7.641196013289036
88352,Otero County,NM,NA,NA,75.74750830564784
10306,Richmond County,NY,19.245283018867926,NA,NA
10453,Bronx County,NY,NA,NA,16.611295681063122
10552,Westchester County,NY,NA,79.67213114754098,NA
11020,Nassau County,NY,NA,92.78688524590164,NA
11201,Kings County,NY,NA,NA,64.11960132890366
11206,Kings County,NY,NA,0.6557377049180327,31.22923588039867
11214,Kings County,NY,NA,NA,8.970099667774086
11220,Kings County,NY,NA,NA,50.498338870431894
11224,Kings County,NY,NA,NA,2.990033222591362
11230,Kings County,NY,NA,7.540983606557377,NA
11235,Kings County,NY,NA,NA,1.6611295681063125
11361,Queens County,NY,NA,76.39344262295083,NA
11427,Queens County,NY,NA,NA,70.7641196013289
11590,Nassau County,NY,NA,NA,25.249169435215947
11691,Queens County,NY,9.056603773584905,NA,NA
11706,Suffolk County,NY,23.77358490566038,NA,NA
11746,Suffolk County,NY,NA,NA,11.960132890365449
11754,Suffolk County,NY,NA,95.73770491803279,NA
11757,Suffolk County,NY,NA,NA,28.903654485049834
11771,Nassau County,NY,NA,93.77049180327869,NA
11779,Suffolk County,NY,NA,NA,41.19601328903654
11783,Nassau County,NY,NA,NA,70.09966777408638
11787,Suffolk County,NY,NA,34.75409836065574,NA
12010,Montgomery County,NY,NA,NA,37.87375415282392
12020,Saratoga County,NY,20,NA,NA
12180,Rensselaer County,NY,NA,6.229508196721312,NA
12188,Saratoga County,NY,NA,80.32786885245902,NA
12804,Warren County,NY,NA,NA,63.78737541528239
12831,Saratoga County,NY,NA,51.47540983606558,NA
12901,Clinton County,NY,17.735849056603772,NA,NA
13069,Oswego County,NY,NA,9.180327868852459,NA
13203,Onondaga County,NY,56.60377358490566,NA,NA
13205,Onondaga County,NY,NA,78.0327868852459,NA
13413,Oneida County,NY,NA,NA,27.242524916943523
13619,Jefferson County,NY,49.43396226415094,NA,NA
13827,Tioga County,NY,NA,NA,56.47840531561462
14057,Erie County,NY,80.75471698113208,NA,NA
14150,Erie County,NY,NA,NA,19.601328903654487
14207,Erie County,NY,NA,NA,80.06644518272425
14221,Erie County,NY,NA,NA,15.282392026578073
14223,Erie County,NY,NA,NA,72.09302325581395
14224,Erie County,NY,NA,NA,13.621262458471762
14225,Erie County,NY,9.433962264150944,NA,NA
14432,Ontario County,NY,NA,80.65573770491802,NA
14450,Monroe County,NY,3.3962264150943398,NA,NA
14467,Monroe County,NY,97.73584905660377,NA,NA
14482,Genesee County,NY,NA,90.1639344262295,NA
14526,Monroe County,NY,NA,14.426229508196723,NA
14612,Monroe County,NY,NA,0.9836065573770493,NA
14620,Monroe County,NY,NA,16.721311475409838,NA
14812,Schuyler County,NY,86.41509433962264,NA,NA
14830,Steuben County,NY,25.28301886792453,NA,NA
14895,Allegany County,NY,NA,87.54098360655738,NA
27023,Forsyth County,NC,72.83018867924528,59.34426229508196,NA
27105,Forsyth County,NC,3.018867924528302,NA,NA
27106,Forsyth County,NC,NA,1.639344262295082,NA
27284,Forsyth County,NC,NA,NA,4.651162790697675
27407,Guilford County,NC,NA,34.0983606557377,NA
27514,Orange County,NC,NA,NA,38.87043189368771
27606,Wake County,NC,NA,NA,54.15282392026578
27609,Wake County,NC,NA,NA,28.57142857142857
27932,Chowan County,NC,61.13207547169811,NA,NA
28054,Gaston County,NC,NA,NA,34.55149501661129
28078,Mecklenburg County,NC,NA,31.475409836065577,NA
28112,Union County,NC,NA,35.08196721311476,39.202657807308974
28150,Cleveland County,NC,NA,40.98360655737705,NA
28168,Lincoln County,NC,NA,NA,92.02657807308971
28211,Mecklenburg County,NC,32.83018867924528,NA,NA
28226,Mecklenburg County,NC,58.867924528301884,NA,NA
28269,Mecklenburg County,NC,12.830188679245284,NA,NA
28379,Richmond County,NC,15.09433962264151,NA,NA
28409,New Hanover County,NC,NA,NA,66.44518272425249
28546,Onslow County,NC,NA,48.52459016393443,NA
28601,Catawba County,NC,NA,7.213114754098362,20.59800664451827
28612,Burke County,NC,NA,NA,92.69102990033223
28753,Madison County,NC,NA,NA,90.03322259136213
28777,Mitchell County,NC,NA,69.50819672131148,NA
28786,Haywood County,NC,72.0754716981132,NA,NA
58301,Ramsey County,ND,NA,64.26229508196721,NA
43055,Licking County,OH,11.69811320754717,NA,NA
43113,Pickaway County,OH,NA,11.147540983606557,NA
43119,Franklin County,OH,NA,49.50819672131148,NA
43219,Franklin County,OH,13.584905660377359,NA,NA
43224,Franklin County,OH,NA,14.754098360655737,NA
43230,Franklin County,OH,14.339622641509434,NA,23.588039867109632
43235,Franklin County,OH,NA,34.42622950819672,NA
43537,Lucas County,OH,NA,47.540983606557376,NA
43615,Lucas County,OH,NA,2.9508196721311477,9.634551495016613
43764,Perry County,OH,NA,NA,88.70431893687709
44035,Lorain County,OH,NA,NA,0
44053,Lorain County,OH,NA,NA,6.976744186046512
44055,Lorain County,OH,NA,82.62295081967214,NA
44060,Lake County,OH,NA,NA,0.9966777408637874
44110,Cuyahoga County,OH,NA,NA,45.51495016611295
44130,Cuyahoga County,OH,NA,8.19672131147541,NA
44136,Cuyahoga County,OH,NA,NA,15.946843853820598
44144,Cuyahoga County,OH,NA,NA,46.179401993355484
44216,Summit County,OH,NA,61.31147540983607,NA
44256,Medina County,OH,NA,NA,1.9933554817275747
44270,Wayne County,OH,68.67924528301886,NA,NA
44306,Summit County,OH,NA,33.114754098360656,NA
44311,Summit County,OH,54.339622641509436,NA,NA
44320,Summit County,OH,15.849056603773585,NA,NA
44420,Trumbull County,OH,NA,81.9672131147541,NA
44473,Trumbull County,OH,96.98113207547169,NA,NA
44483,Trumbull County,OH,NA,10.819672131147541,19.93355481727575
44601,Stark County,OH,6.415094339622642,NA,NA
44646,Stark County,OH,NA,NA,20.26578073089701
44685,Summit County,OH,47.54716981132076,NA,NA
44718,Stark County,OH,NA,NA,83.72093023255815
44830,Seneca County,OH,16.22641509433962,NA,NA
44837,Huron County,OH,86.79245283018868,NA,NA
45014,Butler County,OH,NA,NA,20.930232558139537
45015,Butler County,OH,60.37735849056604,NA,NA
45069,Butler County,OH,24.150943396226417,NA,NA
45211,Hamilton County,OH,NA,NA,41.86046511627907
45216,Hamilton County,OH,64.52830188679245,NA,NA
45229,Hamilton County,OH,NA,29.508196721311474,NA
45231,Hamilton County,OH,34.71698113207547,NA,NA
45323,Clark County,OH,96.60377358490567,NA,NA
45324,Greene County,OH,NA,17.704918032786885,NA
45344,Clark County,OH,66.0377358490566,NA,NA
45420,Montgomery County,OH,NA,NA,46.51162790697674
45424,Montgomery County,OH,NA,41.63934426229508,NA
45439,Montgomery County,OH,NA,75.73770491803279,NA
45631,Gallia County,OH,NA,8.524590163934425,NA
45640,Jackson County,OH,NA,NA,14.285714285714285
45694,Scioto County,OH,NA,NA,51.162790697674424
45742,Washington County,OH,92.45283018867924,NA,NA
45804,Allen County,OH,NA,61.967213114754095,NA
45844,Putnam County,OH,NA,97.70491803278688,NA
73072,Cleveland County,OK,NA,NA,39.8671096345515
73127,Oklahoma County,OK,NA,NA,74.75083056478405
73139,Oklahoma County,OK,NA,NA,86.04651162790698
74044,Creek County,OK,94.33962264150944,NA,NA
74055,Tulsa County,OK,NA,27.86885245901639,NA
74107,Tulsa County,OK,NA,72.1311475409836,NA
97080,Multnomah County,OR,26.41509433962264,NA,NA
97302,Marion County,OR,76.9811320754717,76.0655737704918,NA
97367,Lincoln County,OR,91.69811320754717,NA,NA
97386,Linn County,OR,50.943396226415096,NA,NA
97408,Lane County,OR,NA,NA,97.00996677740864
97471,Douglas County,OR,NA,NA,14.950166112956811
97477,Lane County,OR,NA,66.22950819672131,NA
97479,Douglas County,OR,75.09433962264151,NA,NA
97501,Jackson County,OR,NA,NA,31.893687707641195
97502,Jackson County,OR,NA,NA,84.71760797342192
97701,Deschutes County,OR,NA,49.50819672131148,NA
97850,Union County,OR,42.64150943396226,NA,NA
15102,Allegheny County,PA,NA,27.21311475409836,NA
15108,Allegheny County,PA,NA,17.37704918032787,NA
15235,Allegheny County,PA,NA,NA,9.966777408637874
15301,Washington County,PA,NA,3.934426229508197,NA
15425,Fayette County,PA,33.58490566037736,NA,NA
16105,Lawrence County,PA,NA,NA,14.61794019933555
16438,Erie County,PA,NA,70.49180327868852,NA
16830,Clearfield County,PA,NA,NA,18.6046511627907
16915,Potter County,PA,84.15094339622642,NA,NA
17042,Lebanon County,PA,4.528301886792453,NA,NA
17055,Cumberland County,PA,NA,NA,9.30232558139535
17324,Cumberland County,PA,98.49056603773585,NA,NA
17345,York County,PA,NA,NA,78.7375415282392
17603,Lancaster County,PA,9.811320754716983,NA,NA
17972,Schuylkill County,PA,NA,58.032786885245905,NA
18201,Luzerne County,PA,19.622641509433965,NA,NA
18302,Monroe County,PA,NA,63.278688524590166,NA
18407,Lackawanna County,PA,48.301886792452834,NA,NA
18708,Luzerne County,PA,NA,NA,59.46843853820598
18954,Bucks County,PA,95.84905660377359,NA,NA
19013,Delaware County,PA,NA,13.114754098360656,35.548172757475086
19047,Bucks County,PA,NA,NA,30.23255813953488
19061,Delaware County,PA,30.566037735849054,NA,NA
19066,Montgomery County,PA,NA,87.8688524590164,NA
19087,Chester County,PA,NA,60.65573770491803,NA
19094,Delaware County,PA,NA,NA,96.67774086378738
19096,Montgomery County,PA,81.50943396226415,NA,NA
19115,Philadelphia County,PA,18.867924528301888,18.688524590163937,NA
19116,Philadelphia County,PA,NA,14.098360655737704,NA
19122,Philadelphia County,PA,NA,73.77049180327869,NA
19131,Philadelphia County,PA,NA,NA,10.631229235880399
19136,Philadelphia County,PA,11.320754716981133,25.573770491803277,NA
19147,Philadelphia County,PA,NA,26.557377049180324,NA
19148,Philadelphia County,PA,NA,NA,16.27906976744186
19335,Chester County,PA,16.9811320754717,NA,NA
19403,Montgomery County,PA,NA,NA,36.21262458471761
19438,Montgomery County,PA,NA,NA,35.548172757475086
19446,Montgomery County,PA,NA,NA,8.637873754152823
19460,Chester County,PA,25.660377358490567,77.04918032786885,NA
02818,Kent County,RI,NA,44.59016393442623,NA
29130,Fairfield County,SC,89.81132075471699,NA,NA
29223,Richland County,SC,24.90566037735849,NA,NA
29376,Spartanburg County,SC,99.24528301886792,NA,NA
29448,Dorchester County,SC,NA,99.672131147541,NA
29477,Dorchester County,SC,NA,98.0327868852459,NA
29488,Colleton County,SC,37.35849056603773,NA,55.81395348837209
29556,Williamsburg County,SC,NA,96.06557377049181,NA
29569,Horry County,SC,NA,60.32786885245902,NA
29574,Marion County,SC,NA,64.59016393442623,NA
29576,Horry County,SC,NA,10.491803278688524,NA
29640,Pickens County,SC,23.39622641509434,NA,NA
29680,Greenville County,SC,NA,NA,71.09634551495017
29681,Greenville County,SC,NA,NA,38.205980066445186
29710,York County,SC,NA,50.49180327868853,NA
29829,Aiken County,SC,NA,NA,93.02325581395348
57078,Yankton County,SD,NA,NA,72.42524916943522
57702,Pennington County,SD,NA,NA,11.627906976744185
37055,Dickson County,TN,NA,43.9344262295082,NA
37066,Sumner County,TN,NA,NA,27.57475083056478
37067,Williamson County,TN,84.90566037735849,NA,NA
37101,Humphreys County,TN,76.9811320754717,NA,NA
37160,Bedford County,TN,NA,NA,41.52823920265781
37166,DeKalb County,TN,NA,58.36065573770492,NA
37218,Davidson County,TN,NA,NA,74.75083056478405
37331,McMinn County,TN,NA,NA,70.43189368770764
37334,Lincoln County,TN,NA,28.524590163934427,NA
37617,Sullivan County,TN,NA,NA,82.39202657807309
37659,Washington County,TN,39.24528301886793,NA,NA
37766,Campbell County,TN,38.113207547169814,NA,NA
37777,Blount County,TN,NA,56.0655737704918,NA
37801,Blount County,TN,NA,NA,32.89036544850498
37830,Anderson County,TN,NA,24.59016393442623,40.53156146179402
37886,Blount County,TN,88.67924528301887,NA,NA
37890,Jefferson County,TN,NA,82.29508196721311,NA
38017,Shelby County,TN,NA,53.442622950819676,NA
38126,Shelby County,TN,NA,98.36065573770492,NA
75013,Collin County,TX,51.320754716981135,NA,NA
75080,Dallas County,TX,NA,NA,18.272425249169437
75089,Dallas County,TX,NA,NA,88.03986710963456
75092,Grayson County,TX,NA,50.81967213114754,NA
75094,Collin County,TX,78.11320754716982,NA,NA
75147,Kaufman County,TX,NA,NA,91.36212624584718
75181,Dallas County,TX,NA,NA,86.71096345514951
75211,Dallas County,TX,NA,NA,44.518272425249165
75569,Bowie County,TX,100,NA,NA
75601,Gregg County,TX,76.22641509433963,NA,NA
75670,Harrison County,TX,75.47169811320755,NA,NA
75703,Smith County,TX,NA,2.622950819672131,NA
75972,San Augustine County,TX,NA,94.42622950819673,NA
76031,Johnson County,TX,NA,52.78688524590164,NA
76105,Tarrant County,TX,NA,23.60655737704918,NA
76106,Tarrant County,TX,NA,20,NA
76123,Tarrant County,TX,NA,65.90163934426229,NA
76132,Tarrant County,TX,69.81132075471697,NA,NA
76354,Wichita County,TX,NA,85.24590163934425,NA
76367,Wichita County,TX,93.20754716981132,NA,NA
76574,Williamson County,TX,53.20754716981132,NA,NA
76708,McLennan County,TX,48.679245283018865,NA,NA
76712,McLennan County,TX,NA,NA,35.21594684385382
77040,Harris County,TX,NA,NA,61.79401993355482
77059,Harris County,TX,NA,NA,63.12292358803987
77065,Harris County,TX,NA,42.62295081967213,NA
77070,Harris County,TX,NA,22.950819672131146,NA
77074,Harris County,TX,NA,59.67213114754099,NA
77088,Harris County,TX,31.69811320754717,32.131147540983605,NA
77095,Harris County,TX,16.60377358490566,11.80327868852459,NA
77377,Harris County,TX,NA,53.77049180327869,NA
77384,Montgomery County,TX,79.24528301886792,NA,NA
77407,Fort Bend County,TX,NA,NA,82.72425249169434
77429,Harris County,TX,NA,NA,23.920265780730897
77493,Harris County,TX,NA,NA,76.74418604651163
77530,Harris County,TX,64.52830188679245,NA,NA
77565,Galveston County,TX,85.28301886792453,NA,NA
77566,Brazoria County,TX,57.73584905660377,NA,NA
77845,Brazos County,TX,10.566037735849058,NA,4.318936877076411
78109,Bexar County,TX,89.43396226415095,NA,NA
78121,Wilson County,TX,NA,89.18032786885246,NA
78218,Bexar County,TX,51.698113207547166,NA,NA
78220,Bexar County,TX,NA,NA,87.04318936877077
78228,Bexar County,TX,NA,30.491803278688522,NA
78501,Hidalgo County,TX,NA,20.983606557377048,NA
78516,Hidalgo County,TX,NA,52.131147540983605,NA
78550,Cameron County,TX,44.905660377358494,NA,NA
78574,Hidalgo County,TX,NA,35.73770491803279,NA
78586,Cameron County,TX,NA,NA,32.55813953488372
78589,Hidalgo County,TX,42.26415094339623,NA,NA
78644,Caldwell County,TX,NA,57.377049180327866,NA
78861,Medina County,TX,NA,86.55737704918033,NA
79106,Potter County,TX,NA,39.01639344262295,NA
79606,Taylor County,TX,NA,NA,33.222591362126245
79720,Howard County,TX,NA,NA,57.475083056478404
84655,Utah County,UT,NA,92.45901639344262,NA
84720,Iron County,UT,NA,NA,81.72757475083057
84737,Washington County,UT,83.77358490566039,NA,NA
05491,Addison County,VT,NA,NA,87.37541528239203
20171,Fairfax County,VA,NA,72.78688524590164,NA
20175,Loudoun County,VA,74.71698113207546,NA,NA
22304,Alexandria city,VA,NA,32.78688524590164,NA
22306,Fairfax County,VA,30.943396226415093,NA,NA
22309,Fairfax County,VA,NA,NA,64.78405315614619
22315,Fairfax County,VA,NA,61.63934426229508,NA
22942,Louisa County,VA,NA,71.80327868852459,NA
23009,King William County,VA,NA,79.67213114754098,NA
23060,Henrico County,VA,NA,NA,89.70099667774086
23116,Hanover County,VA,NA,55.08196721311476,NA
23141,New Kent County,VA,98.11320754716981,NA,NA
23321,Chesapeake city,VA,NA,NA,22.92358803986711
23451,Virginia Beach city,VA,NA,NA,4.983388704318937
23464,Virginia Beach city,VA,NA,1.9672131147540985,NA
23503,Norfolk city,VA,NA,36.39344262295082,NA
23666,Hampton city,VA,NA,NA,62.12624584717608
23803,Petersburg city,VA,NA,15.081967213114755,NA
23901,Prince Edward County,VA,NA,NA,66.77740863787376
23930,Nottoway County,VA,94.71698113207547,NA,NA
24171,Patrick County,VA,NA,NA,61.461794019933556
24230,Wise County,VA,NA,NA,87.70764119601328
24319,Smyth County,VA,NA,NA,97.34219269102991
24477,Augusta County,VA,NA,NA,64.45182724252491
98022,King County,WA,67.54716981132076,NA,NA
98058,King County,WA,NA,NA,39.53488372093023
98133,King County,WA,NA,19.34426229508197,NA
98136,King County,WA,90.18867924528303,NA,NA
98168,King County,WA,NA,NA,47.840531561461795
98204,Snohomish County,WA,NA,NA,58.80398671096345
98272,Snohomish County,WA,NA,NA,68.43853820598007
98332,Pierce County,WA,NA,NA,84.38538205980066
98371,Pierce County,WA,NA,NA,48.17275747508305
98383,Kitsap County,WA,NA,54.75409836065573,NA
98391,Pierce County,WA,NA,NA,69.43521594684385
98422,Pierce County,WA,69.43396226415094,NA,NA
98501,Thurston County,WA,NA,37.049180327868854,NA
98579,Thurston County,WA,NA,78.36065573770492,NA
98823,Grant County,WA,NA,NA,83.38870431893687
98837,Grant County,WA,NA,NA,21.92691029900332
98901,Yakima County,WA,NA,46.885245901639344,NA
99362,Walla Walla County,WA,27.547169811320753,NA,NA
20010,District of Columbia,DC,NA,47.868852459016395,NA
20017,District of Columbia,DC,NA,NA,66.77740863787376
20020,District of Columbia,DC,2.6415094339622645,NA,NA
24739,Mercer County,WV,71.32075471698113,NA,NA
25177,Kanawha County,WV,NA,32.459016393442624,NA
25704,Wayne County,WV,30.18867924528302,NA,NA
26415,Ritchie County,WV,NA,100,NA
26452,Lewis County,WV,NA,NA,67.44186046511628
26554,Marion County,WV,22.641509433962266,NA,NA
26601,Braxton County,WV,NA,NA,100
53005,Waukesha County,WI,NA,48.19672131147541,NA
53014,Calumet County,WI,NA,63.60655737704918,NA
53090,Washington County,WI,NA,NA,62.7906976744186
53097,Ozaukee County,WI,NA,NA,71.76079734219269
53115,Walworth County,WI,NA,39.67213114754099,NA
53132,Milwaukee County,WI,NA,NA,50.16611295681063
53143,Kenosha County,WI,NA,28.196721311475407,NA
53144,Kenosha County,WI,15.471698113207546,NA,NA
53204,Milwaukee County,WI,5.283018867924529,NA,NA
53207,Milwaukee County,WI,28.30188679245283,NA,NA
53406,Racine County,WI,NA,1.3114754098360655,3.9867109634551494
53538,Jefferson County,WI,53.58490566037736,NA,NA
54022,Pierce County,WI,NA,NA,79.734219269103
54601,La Crosse County,WI,NA,NA,0.33222591362126247
54660,Monroe County,WI,NA,NA,68.77076411960132
54703,Eau Claire County,WI,22.264150943396228,NA,NA
54751,Dunn County,WI,NA,NA,13.953488372093023
54843,Sawyer County,WI,NA,94.75409836065573,NA
54914,Outagamie County,WI,NA,54.42622950819672,NA
54935,Fond du Lac County,WI,NA,NA,6.312292358803987
54952,Winnebago County,WI,50.56603773584906,NA,NA
82435,Park County,WY,NA,NA,51.49501661129568
82609,Natrona County,WY,84.52830188679246,NA,NA
