ZipCode,county,state,Adult
35010,Tallapoosa County,AL,26.136065143157346
35020,Jefferson County,AL,8.484370895718413
35022,Jefferson County,AL,29.10428158655109
35023,Jefferson County,AL,54.92513790386131
35031,Blount County,AL,68.97819805621224
35040,Shelby County,AL,38.92828999211978
35057,Cullman County,AL,69.10953506698188
35062,Jefferson County,AL,80.6146572104019
35111,Tuscaloosa County,AL,35.487260309955346
35115,Shelby County,AL,85.18518518518519
35124,Shelby County,AL,83.7404780667192
35173,Jefferson County,AL,39.5324402416601
35209,Jefferson County,AL,90.62253743104807
35215,Jefferson County,AL,44.181770422905174
35217,Jefferson County,AL,38.69188337273444
35242,Shelby County,AL,22.327291830837932
35404,Tuscaloosa County,AL,35.72366692934069
35405,Tuscaloosa County,AL,23.08904649330181
35444,Tuscaloosa County,AL,94.53638035198318
35453,Tuscaloosa County,AL,45.62647754137116
35476,Tuscaloosa County,AL,54.11084843708957
35481,Pickens County,AL,99.0281061203047
35601,Morgan County,AL,7.9327554504859465
35603,Morgan County,AL,10.480693459416864
35622,Morgan County,AL,76.46440767008143
35630,Lauderdale County,AL,21.224060940372997
35645,Lauderdale County,AL,65.35329655897031
35749,Madison County,AL,38.61308116627266
35750,Madison County,AL,50.35460992907801
35756,Limestone County,AL,90.59627002889414
35950,Marshall County,AL,31.468347780404514
35952,Etowah County,AL,83.87181507748883
35976,Marshall County,AL,36.485421591804574
35980,Marshall County,AL,98.581560283687935
36049,Crenshaw County,AL,93.30181245074863
36078,Elmore County,AL,43.919096401365906
36106,Montgomery County,AL,92.72392960336224
36108,Montgomery County,AL,66.87680588389809
36109,Montgomery County,AL,72.7344365642238
36110,Montgomery County,AL,45.70527974783294
36116,Montgomery County,AL,13.659049120042027
36117,Montgomery County,AL,58.36616758602574
36301,Houston County,AL,73.83766745468873
36330,Coffee County,AL,35.96007354872603
36345,Henry County,AL,74.52061991069084
36350,Dale County,AL,88.5999474651957
36527,Baldwin County,AL,75.78145521407933
36587,Mobile County,AL,73.46992382453375
36617,Mobile County,AL,69.31967428421329
36695,Mobile County,AL,24.42868400315209
36801,Lee County,AL,51.457840819542945
36804,Lee County,AL,49.1725768321513
36854,Chambers County,AL,53.48043078539533
36867,Russell County,AL,62.22747570265301
36869,Russell County,AL,45.78408195429472
36870,Lee County,AL,73.73259784607302
99501,Anchorage Municipality,AK,14.394536380351983
99502,Anchorage Municipality,AK,42.106645652744945
99507,Anchorage Municipality,AK,23.850801155765694
99508,Anchorage Municipality,AK,11.373785132650381
99515,Anchorage Municipality,AK,60.33622274757027
99516,Anchorage Municipality,AK,73.33858681376412
99517,Anchorage Municipality,AK,82.6635145784082
99559,Bethel Census Area,AK,86.86629892303651
99603,Kenai Peninsula Borough,AK,72.86577357499343
99654,Matanuska-Susitna Borough,AK,26.004728132387704
99801,Juneau City and Borough,AK,38.53427895981088
99835,Sitka City and Borough,AK,89.65064355135277
85006,Maricopa County,AZ,32.38770685579196
85008,Maricopa County,AZ,7.82768584187024
85009,Maricopa County,AZ,53.664302600472816
85013,Maricopa County,AZ,38.718150774888365
85014,Maricopa County,AZ,34.5679012345679
85017,Maricopa County,AZ,22.66876805883898
85018,Maricopa County,AZ,24.533753611767796
85019,Maricopa County,AZ,28.526398739164698
85021,Maricopa County,AZ,7.0133963750985036
85022,Maricopa County,AZ,12.792224848962439
85027,Maricopa County,AZ,66.4039926451274
85031,Maricopa County,AZ,39.92645127396901
85032,Maricopa County,AZ,9.062253743104808
85033,Maricopa County,AZ,57.551878119254006
85035,Maricopa County,AZ,10.24428684003152
85037,Maricopa County,AZ,16.67980036774363
85040,Maricopa County,AZ,41.31862358812713
85041,Maricopa County,AZ,4.9120042027843445
85042,Maricopa County,AZ,17.54662463882322
85053,Maricopa County,AZ,70.13396375098503
85085,Maricopa County,AZ,59.390596270028894
85120,Pinal County,AZ,32.04623062779091
85122,Pinal County,AZ,4.544260572629367
85128,Pinal County,AZ,30.443919096401366
85201,Maricopa County,AZ,8.142894667717362
85202,Maricopa County,AZ,43.13107433674809
85203,Maricopa County,AZ,27.02915681639086
85204,Maricopa County,AZ,33.8849487785658
85206,Maricopa County,AZ,35.56606251641713
85212,Maricopa County,AZ,47.83293932230103
85225,Maricopa County,AZ,30.60152350932493
85233,Maricopa County,AZ,65.27449435250854
85250,Maricopa County,AZ,85.78933543472552
85251,Maricopa County,AZ,30.07617546624639
85254,Maricopa County,AZ,75.70265300761754
85257,Maricopa County,AZ,85.841870239033355
85258,Maricopa County,AZ,61.22931442080378
85259,Maricopa County,AZ,77.59390596270029
85262,Maricopa County,AZ,95.00919359075387
85268,Maricopa County,AZ,79.01234567901234
85281,Maricopa County,AZ,60.520094562647756
85295,Maricopa County,AZ,29.10428158655109
85296,Maricopa County,AZ,23.71946414499606
85301,Maricopa County,AZ,46.59837142106646
85323,Maricopa County,AZ,56.73758865248227
85326,Maricopa County,AZ,53.033884948778564
85335,Maricopa County,AZ,24.74389282899921
85338,Maricopa County,AZ,24.2448121880746
85339,Maricopa County,AZ,14.263199369582349
85340,Maricopa County,AZ,57.525610717100086
85344,La Paz County,AZ,27.843446283162592
85345,Maricopa County,AZ,31.70475439978986
85349,Yuma County,AZ,59.127922248489625
85353,Maricopa County,AZ,23.22038350407145
85363,Maricopa County,AZ,77.90911478854741
85364,Yuma County,AZ,1.6023115313895455
85365,Yuma County,AZ,19.46414499605989
85378,Maricopa County,AZ,91.20042027843446
85379,Maricopa County,AZ,73.49619122668769
85381,Maricopa County,AZ,55.29288153401628
85395,Maricopa County,AZ,67.58602574205412
85541,Gila County,AZ,38.98082479642763
85641,Pima County,AZ,48.90990281061203
85648,Santa Cruz County,AZ,42.658261097977416
85705,Pima County,AZ,12.16180719726819
85706,Pima County,AZ,36.95823483057525
85710,Pima County,AZ,24.42868400315209
85711,Pima County,AZ,4.938271604938271
85713,Pima County,AZ,3.598634095087996
85716,Pima County,AZ,59.65327029156816
85719,Pima County,AZ,23.87706855791962
85741,Pima County,AZ,57.236669293406884
85746,Pima County,AZ,7.3023377987917
85749,Pima County,AZ,73.04964539007092
85756,Pima County,AZ,25.269240872077752
85901,Navajo County,AZ,74.62568951930653
86001,Coconino County,AZ,13.21250328342527
86040,Coconino County,AZ,56.84265826109798
86301,Yavapai County,AZ,59.4956658786446
86314,Yavapai County,AZ,10.401891252955082
86401,Mohave County,AZ,25.558182295770948
86403,Mohave County,AZ,35.828736537956395
86409,Mohave County,AZ,23.325453112687157
72023,Lonoke County,AR,50.958760178618334
72034,Faulkner County,AR,40.84581034935645
72042,Arkansas County,AR,98.3451536643026
72113,Pulaski County,AR,66.08878381928027
72120,Pulaski County,AR,33.85868137641187
72143,White County,AR,27.21302863146835
72401,Craighead County,AR,9.193590753874442
72712,Benton County,AR,37.719989493039144
72719,Benton County,AR,98.39768846861045
72745,Benton County,AR,81.56028368794325
72758,Benton County,AR,50.11820330969267
72762,Washington County,AR,37.29971105857631
72764,Washington County,AR,62.8053585500394
72834,Yell County,AR,84.39716312056737
72846,Johnson County,AR,99.60598896769109
72956,Crawford County,AR,39.82138166535329
90001,Los Angeles County,CA,36.45915418965065
90004,Los Angeles County,CA,89.02022589965853
90005,Los Angeles County,CA,95.11426319936959
90011,Los Angeles County,CA,16.312056737588655
90013,Los Angeles County,CA,46.30942999737326
90016,Los Angeles County,CA,33.17572892040977
90019,Los Angeles County,CA,30.706593117940635
90022,Los Angeles County,CA,26.346204360388757
90025,Los Angeles County,CA,48.121880745994225
90036,Los Angeles County,CA,85.3953244024166
90037,Los Angeles County,CA,27.659574468085108
90041,Los Angeles County,CA,67.98003677436301
90045,Los Angeles County,CA,83.16259521933281
90047,Los Angeles County,CA,36.24901497241923
90059,Los Angeles County,CA,59.57446808510638
90064,Los Angeles County,CA,18.571053322826373
90068,Los Angeles County,CA,84.71237194641449
90201,Los Angeles County,CA,73.86393485684266
90220,Los Angeles County,CA,57.2629366955608
90221,Los Angeles County,CA,5.988967691095351
90240,Los Angeles County,CA,76.0441292356186
90245,Los Angeles County,CA,82.0856317310218
90262,Los Angeles County,CA,59.390596270028894
90275,Los Angeles County,CA,48.51589177830313
90277,Los Angeles County,CA,43.78775939059627
90503,Los Angeles County,CA,39.296033622274756
90504,Los Angeles County,CA,61.938534278959814
90601,Los Angeles County,CA,45.15366430260047
90605,Los Angeles County,CA,47.25505647491463
90606,Los Angeles County,CA,43.07853953244024
90620,Orange County,CA,38.875755187811926
90631,Orange County,CA,77.09482532177567
90650,Los Angeles County,CA,11.2949829261886
90660,Los Angeles County,CA,19.332807985290255
90670,Los Angeles County,CA,94.14236931967427
90680,Orange County,CA,49.59285526661413
90703,Los Angeles County,CA,52.00945626477541
90706,Los Angeles County,CA,16.522195954820067
90723,Los Angeles County,CA,42.57945889151563
90731,Los Angeles County,CA,55.71315996847912
90744,Los Angeles County,CA,49.51405306015235
90802,Los Angeles County,CA,40.32046230627791
90804,Los Angeles County,CA,34.41029682164434
90805,Los Angeles County,CA,72.65563435776203
90808,Los Angeles County,CA,48.200682952456006
91006,Los Angeles County,CA,82.21696874179145
91030,Los Angeles County,CA,84.86997635933807
91104,Los Angeles County,CA,33.91121618071973
91105,Los Angeles County,CA,94.58891515629104
91202,Los Angeles County,CA,86.10454426057262
91205,Los Angeles County,CA,62.30627790911479
91208,Los Angeles County,CA,91.20042027843446
91304,Los Angeles County,CA,38.53427895981088
91316,Los Angeles County,CA,63.38324139742579
91321,Los Angeles County,CA,61.28184922511164
91325,Los Angeles County,CA,71.60493827160494
91335,Los Angeles County,CA,55.345416338324135
91340,Los Angeles County,CA,55.7919621749409
91342,Los Angeles County,CA,12.949829261886
91343,Los Angeles County,CA,74.91463094299974
91356,Los Angeles County,CA,74.94089834515366
91364,Los Angeles County,CA,78.64460204885737
91381,Los Angeles County,CA,88.4160756501182
91387,Los Angeles County,CA,69.45101129498292
91401,Los Angeles County,CA,57.60441292356187
91402,Los Angeles County,CA,18.203309692671397
91403,Los Angeles County,CA,74.86209613869188
91601,Los Angeles County,CA,59.049120042027845
91604,Los Angeles County,CA,49.40898345153664
91605,Los Angeles County,CA,37.220908852114526
91706,Los Angeles County,CA,17.02127659574468
91709,San Bernardino County,CA,23.771998949303914
91710,San Bernardino County,CA,26.976622012083006
91723,Los Angeles County,CA,74.52061991069084
91730,San Bernardino County,CA,12.634620436038876
91732,Los Angeles County,CA,31.809824008405567
91740,Los Angeles County,CA,55.818229577094826
91741,Los Angeles County,CA,91.35802469135803
91744,Los Angeles County,CA,11.478854741266089
91745,Los Angeles County,CA,59.86340950879958
91748,Los Angeles County,CA,61.938534278959814
91754,Los Angeles County,CA,84.13448909902812
91762,San Bernardino County,CA,24.822695035460992
91763,San Bernardino County,CA,56.159705805095875
91764,San Bernardino County,CA,26.845285001313368
91765,Los Angeles County,CA,58.70764381402679
91766,Los Angeles County,CA,30.627790911478854
91767,Los Angeles County,CA,30.49645390070922
91768,Los Angeles County,CA,33.123194116101914
91770,Los Angeles County,CA,39.900183871815074
91784,San Bernardino County,CA,65.9311794063567
91790,Los Angeles County,CA,75.3611767796165
91791,Los Angeles County,CA,75.57131599684791
91911,San Diego County,CA,47.33385868137641
91913,San Diego County,CA,66.64039926451274
91914,San Diego County,CA,95.00919359075387
91915,San Diego County,CA,84.00315208825847
91941,San Diego County,CA,49.25137903861308
91942,San Diego County,CA,55.55555555555556
92009,San Diego County,CA,58.156028368794324
92010,San Diego County,CA,86.9451011294983
92020,San Diego County,CA,76.77961649592855
92021,San Diego County,CA,35.51352771210927
92024,San Diego County,CA,30.864197530864196
92027,San Diego County,CA,84.65983714210664
92037,San Diego County,CA,96.13869188337274
92040,San Diego County,CA,37.45731547149987
92069,San Diego County,CA,61.64959285526661
92071,San Diego County,CA,16.732335172051485
92078,San Diego County,CA,44.02416600998161
92083,San Diego County,CA,95.92855266614131
92105,San Diego County,CA,79.879169950091935
92106,San Diego County,CA,93.2755450485947
92108,San Diego County,CA,94.08983451536643
92109,San Diego County,CA,87.05017073811399
92113,San Diego County,CA,67.90123456790124
92114,San Diego County,CA,22.458628841607563
92115,San Diego County,CA,21.98581560283688
92117,San Diego County,CA,78.46073023377987
92123,San Diego County,CA,58.94405043341213
92126,San Diego County,CA,34.594168636721825
92127,San Diego County,CA,95.08799579721565
92128,San Diego County,CA,88.3110060415025
92129,San Diego County,CA,48.4896243761492
92131,San Diego County,CA,87.4441817704229
92139,San Diego County,CA,65.77357499343314
92154,San Diego County,CA,62.4113475177305
92173,San Diego County,CA,55.424218544785916
92201,Riverside County,CA,47.5177304964539
92220,Riverside County,CA,49.06750722353559
92227,Imperial County,CA,31.599684791174155
92231,Imperial County,CA,23.14158129760967
92234,Riverside County,CA,8.563173102180194
92240,Riverside County,CA,45.33753611767796
92243,Imperial County,CA,68.6367218282112
92262,Riverside County,CA,14.079327554504859
92274,Riverside County,CA,69.58234830575256
92276,Riverside County,CA,98.8442343052272
92284,San Bernardino County,CA,17.46782243236144
92316,San Bernardino County,CA,41.73890202258996
92324,San Bernardino County,CA,12.818492251116364
92335,San Bernardino County,CA,46.4407670081429
92336,San Bernardino County,CA,5.726293669556081
92337,San Bernardino County,CA,49.724192277383764
92342,San Bernardino County,CA,98.21381665353297
92346,San Bernardino County,CA,18.045705279747835
92376,San Bernardino County,CA,23.929603362227475
92399,San Bernardino County,CA,20.96138691883373
92405,San Bernardino County,CA,34.830575256107174
92407,San Bernardino County,CA,11.268715524034672
92505,Riverside County,CA,84.50223272918308
92506,Riverside County,CA,65.66850538481745
92530,Riverside County,CA,25.137903861308114
92545,Riverside County,CA,81.7966903073286
92551,Riverside County,CA,85.55292881534017
92557,Riverside County,CA,26.792750197005518
92562,Riverside County,CA,17.20514841082217
92563,Riverside County,CA,23.29918571053323
92583,Riverside County,CA,82.4796427633307
92585,Riverside County,CA,74.44181770422905
92586,Riverside County,CA,74.70449172576832
92592,Riverside County,CA,52.27213028631469
92614,Orange County,CA,81.1137378513265
92620,Orange County,CA,68.11137378513264
92627,Orange County,CA,13.133701076963488
92649,Orange County,CA,45.96795376937221
92653,Orange County,CA,88.86262148673497
92656,Orange County,CA,24.034672970843186
92660,Orange County,CA,51.30023640661938
92672,Orange County,CA,59.390596270028894
92688,Orange County,CA,61.91226687680589
92691,Orange County,CA,42.00157604412924
92694,Orange County,CA,47.36012608353034
92703,Orange County,CA,64.03992645127397
92705,Orange County,CA,66.00998161281849
92708,Orange County,CA,78.06671920147097
92782,Orange County,CA,91.27922248489624
92802,Orange County,CA,45.1799317047544
92804,Orange County,CA,33.70107696348831
92805,Orange County,CA,49.61912266876806
92833,Orange County,CA,39.92645127396901
92843,Orange County,CA,62.64775413711584
92865,Orange County,CA,78.93354347255055
92867,Orange County,CA,50.22327291830838
92869,Orange County,CA,89.83451536643025
92879,Riverside County,CA,40.84581034935645
92880,Riverside County,CA,14.447071184659837
92883,Riverside County,CA,85.08011557656948
92886,Orange County,CA,55.240346729708435
93001,Ventura County,CA,17.704229051746783
93003,Ventura County,CA,9.56133438402942
93012,Ventura County,CA,60.78276858418702
93015,Ventura County,CA,62.56895193065406
93021,Ventura County,CA,80.27318098240085
93036,Ventura County,CA,55.10900971893879
93060,Ventura County,CA,26.845285001313368
93203,Kern County,CA,93.82716049382715
93221,Tulare County,CA,73.9164696611505
93230,Kings County,CA,38.954557394273706
93274,Tulare County,CA,3.099553454163383
93277,Tulare County,CA,68.84686104544261
93280,Kern County,CA,71.05332282637247
93291,Tulare County,CA,13.869188337273444
93306,Kern County,CA,43.262411347517734
93307,Kern County,CA,32.913054898870506
93308,Kern County,CA,18.991331757289203
93422,San Luis Obispo County,CA,36.77436301549777
93444,San Luis Obispo County,CA,50.43341213553979
93446,San Luis Obispo County,CA,50.696086157079066
93455,Santa Barbara County,CA,22.22222222222222
93458,Santa Barbara County,CA,34.12135539795114
93534,Los Angeles County,CA,26.766482794851587
93535,Los Angeles County,CA,24.74389282899921
93550,Los Angeles County,CA,52.98135014447071
93560,Kern County,CA,72.15655371683741
93561,Kern County,CA,66.64039926451274
93611,Fresno County,CA,27.318098240084055
93612,Fresno County,CA,34.14762280010507
93619,Fresno County,CA,32.04623062779091
93635,Merced County,CA,65.11688993958498
93637,Madera County,CA,22.14342001576044
93646,Fresno County,CA,87.18150774888363
93647,Tulare County,CA,89.59810874704492
93657,Fresno County,CA,47.20252167060678
93702,Fresno County,CA,72.3404255319149
93722,Fresno County,CA,44.733385868137646
93730,Fresno County,CA,88.33727344365643
93905,Monterey County,CA,78.82847386393486
93927,Monterey County,CA,69.24087207775152
93930,Monterey County,CA,68.2689781980562
93933,Monterey County,CA,84.29209351195168
93940,Monterey County,CA,42.50065668505385
93960,Monterey County,CA,83.58287365379564
94014,San Mateo County,CA,34.93564486472288
94015,San Mateo County,CA,68.42658261097976
94063,San Mateo County,CA,32.75545048594694
94080,San Mateo County,CA,23.01024428684003
94086,Santa Clara County,CA,51.379038613081164
94102,San Francisco County,CA,4.334121355397951
94103,San Francisco County,CA,7.171000788022066
94107,San Francisco County,CA,34.095087995797215
94109,San Francisco County,CA,19.2802731809824
94112,San Francisco County,CA,67.66482794851589
94114,San Francisco County,CA,71.47360126083531
94116,San Francisco County,CA,47.07118465983714
94117,San Francisco County,CA,26.16233254531127
94118,San Francisco County,CA,46.650906225374314
94122,San Francisco County,CA,36.77436301549777
94303,San Mateo County,CA,18.886262148673495
94401,San Mateo County,CA,71.946414499605993
94403,San Mateo County,CA,86.81376411872866
94404,San Mateo County,CA,65.77357499343314
94501,Alameda County,CA,28.50013133701077
94513,Contra Costa County,CA,76.46440767008143
94519,Contra Costa County,CA,87.65432098765432
94521,Contra Costa County,CA,79.11741528762806
94531,Contra Costa County,CA,58.78644602048857
94533,Solano County,CA,46.729708431836094
94534,Solano County,CA,83.66167586025742
94536,Alameda County,CA,56.39611242448122
94538,Alameda County,CA,71.00078802206463
94539,Alameda County,CA,79.01234567901234
94541,Alameda County,CA,47.806671920147096
94544,Alameda County,CA,39.26976622012083
94558,Napa County,CA,73.9164696611505
94559,Napa County,CA,82.32203835040714
94561,Contra Costa County,CA,80.0367743630155
94564,Contra Costa County,CA,93.40688205936432
94577,Alameda County,CA,26.635145784081953
94578,Alameda County,CA,39.873916469661154
94579,Alameda County,CA,82.4796427633307
94582,Contra Costa County,CA,86.39348568426583
94583,Contra Costa County,CA,86.89256632519043
94587,Alameda County,CA,25.873391121618074
94589,Solano County,CA,80.3257157867087
94590,Solano County,CA,19.490412398213817
94591,Solano County,CA,57.893354347255055
94601,Alameda County,CA,83.29393223010244
94611,Alameda County,CA,53.40162857893355
94618,Alameda County,CA,82.4796427633307
94619,Alameda County,CA,74.73075912792225
94621,Alameda County,CA,22.301024428684002
94806,Contra Costa County,CA,24.481218807459943
94945,Marin County,CA,90.41239821381666
95003,Santa Cruz County,CA,93.82716049382715
95010,Santa Cruz County,CA,93.98476490675071
95035,Santa Clara County,CA,85.71053322826373
95051,Santa Clara County,CA,69.45101129498292
95054,Santa Clara County,CA,80.06304176516943
95073,Santa Cruz County,CA,94.72025216706068
95076,Santa Cruz County,CA,12.240609403729971
95112,Santa Clara County,CA,28.106120304701864
95122,Santa Clara County,CA,36.11767796164959
95124,Santa Clara County,CA,48.85736800630418
95125,Santa Clara County,CA,71.57867086945102
95127,Santa Clara County,CA,31.074336748095615
95134,Santa Clara County,CA,95.06172839506173
95148,Santa Clara County,CA,85.0013133701077
95205,San Joaquin County,CA,39.55870764381403
95206,San Joaquin County,CA,14.184397163120568
95215,San Joaquin County,CA,96.0073548726031
95219,San Joaquin County,CA,63.51457840819543
95240,San Joaquin County,CA,9.718938796952981
95242,San Joaquin County,CA,85.94693984764906
95252,Calaveras County,CA,79.51142631993696
95307,Stanislaus County,CA,56.895193065405834
95320,San Joaquin County,CA,66.903073286052
95326,Stanislaus County,CA,90.2547938008931
95328,Stanislaus County,CA,97.74100341476229
95337,San Joaquin County,CA,65.16942474389283
95340,Merced County,CA,25.74205411084844
95341,Merced County,CA,88.8100866824271
95351,Stanislaus County,CA,44.52324665090622
95355,Stanislaus County,CA,4.806934594168637
95356,Stanislaus County,CA,65.98371421066457
95361,Stanislaus County,CA,31.88862621486735
95363,Stanislaus County,CA,81.87549251379038
95367,Stanislaus County,CA,87.54925137903862
95370,Tuolumne County,CA,17.65169424743893
95376,San Joaquin County,CA,19.227738376674548
95382,Stanislaus County,CA,16.33832413974258
95386,Stanislaus County,CA,97.63593380614657
95404,Sonoma County,CA,64.3551352771211
95448,Sonoma County,CA,67.27081691620698
95472,Sonoma County,CA,78.51326503808774
95503,Humboldt County,CA,38.32413974257946
95540,Humboldt County,CA,49.041239821381666
95562,Humboldt County,CA,98.68662989230366
95602,Placer County,CA,87.78565799842396
95608,Sacramento County,CA,30.154977672708167
95616,Yolo County,CA,89.93958497504597
95618,Yolo County,CA,92.8815340162858
95620,Solano County,CA,79.56396112424481
95624,Sacramento County,CA,37.142106645652746
95648,Placer County,CA,51.66798003677437
95655,Sacramento County,CA,99.05437352245863
95673,Sacramento County,CA,93.80089309167323
95695,Yolo County,CA,59.127922248489625
95747,Placer County,CA,66.00998161281849
95758,Sacramento County,CA,43.498817966903076
95815,Sacramento County,CA,57.893354347255055
95821,Sacramento County,CA,88.46861045442606
95823,Sacramento County,CA,30.995534541633834
95829,Sacramento County,CA,70.81691620698713
95834,Sacramento County,CA,64.14499605988968
95835,Sacramento County,CA,60.62516417126346
95841,Sacramento County,CA,80.4307853953244
95843,Sacramento County,CA,52.85001313370108
95926,Butte County,CA,76.22800105069608
95932,Colusa County,CA,92.90780141843972
95953,Sutter County,CA,78.27685841870239
95963,Glenn County,CA,66.7980036774363
95965,Butte County,CA,11.688993958497505
95966,Butte County,CA,26.740215392697664
95973,Butte County,CA,77.72524297346992
95991,Sutter County,CA,19.858156028368796
95993,Sutter County,CA,36.66929340688206
96003,Shasta County,CA,88.78381928027318
80002,Jefferson County,CO,81.6916206987129
80010,Arapahoe County,CO,61.150512214342
80011,Arapahoe County,CO,21.171526136065143
80012,Arapahoe County,CO,6.51431573417389
80013,Arapahoe County,CO,5.621224060940373
80015,Arapahoe County,CO,11.163645915418966
80016,Arapahoe County,CO,15.261360651431573
80021,Jefferson County,CO,51.14263199369582
80022,Adams County,CO,71.946414499605993
80026,Boulder County,CO,81.14000525348042
80104,Douglas County,CO,47.07118465983714
80108,Douglas County,CO,38.48174415550302
80110,Arapahoe County,CO,85.31652219595483
80111,Arapahoe County,CO,64.03992645127397
80112,Arapahoe County,CO,44.102968216443394
80120,Arapahoe County,CO,54.47859206724455
80123,Jefferson County,CO,37.45731547149987
80125,Douglas County,CO,90.80640924612557
80126,Douglas County,CO,41.8702390333596
80130,Douglas County,CO,72.47176254268453
80134,Douglas County,CO,49.540320462306276
80138,Douglas County,CO,75.28237457315473
80205,Denver County,CO,7.354872603099554
80210,Denver County,CO,77.22616233254531
80211,Denver County,CO,62.122406094037295
80212,Denver County,CO,71.02705542421855
80214,Jefferson County,CO,66.56159705805096
80231,Denver County,CO,28.526398739164698
80233,Adams County,CO,17.88810086682427
80234,Adams County,CO,54.1371158392435
80238,Denver County,CO,71.39479905437352
80260,Adams County,CO,36.380351983188866
80401,Jefferson County,CO,26.792750197005518
80403,Jefferson County,CO,85.99947465195692
80421,Park County,CO,94.9303913842921
80501,Boulder County,CO,43.20987654320987
80513,Larimer County,CO,70.71184659837142
80516,Weld County,CO,58.36616758602574
80525,Larimer County,CO,35.5397951142632
80526,Larimer County,CO,27.00288941423693
80530,Weld County,CO,98.97557131599685
80537,Larimer County,CO,14.23693196742842
80550,Weld County,CO,82.45337536117678
80602,Adams County,CO,70.63304439190964
80620,Weld County,CO,34.06882059364329
80631,Weld County,CO,23.35172051484108
80634,Weld County,CO,10.007880220646179
80645,Weld County,CO,94.48384554767534
80701,Morgan County,CO,65.3270291568164
80734,Phillips County,CO,95.84975045967954
80817,El Paso County,CO,43.262411347517734
80863,Teller County,CO,88.91515629104282
80906,El Paso County,CO,53.06015235093249
80909,El Paso County,CO,48.25321775676385
80915,El Paso County,CO,57.60441292356187
80916,El Paso County,CO,26.713947990543733
80918,El Paso County,CO,35.88127134226425
80921,El Paso County,CO,81.66535329655898
80923,El Paso County,CO,90.12345679012346
81005,Pueblo County,CO,27.13422642500657
81122,La Plata County,CO,88.67874967165747
81230,Gunnison County,CO,89.07276070396638
81416,Delta County,CO,67.21828211189913
81503,Mesa County,CO,83.81928027318098
81520,Mesa County,CO,65.66850538481745
81631,Eagle County,CO,97.21565537168374
06010,Hartford County,CT,0.8668242710795903
06051,Hartford County,CT,28.34252692408721
06070,Hartford County,CT,74.04780667192014
06071,Tolland County,CT,79.90543735224587
06088,Hartford County,CT,91.14788547412661
06095,Hartford County,CT,30.154977672708167
06105,Hartford County,CT,14.368268978198056
06106,Hartford County,CT,2.311531389545574
06107,Hartford County,CT,73.20724980299448
06108,Hartford County,CT,20.672445495140533
06112,Hartford County,CT,10.848437089571842
06117,Hartford County,CT,65.56343577620173
06119,Hartford County,CT,77.48883635408458
06234,Windham County,CT,55.55555555555556
06239,Windham County,CT,26.030995534541635
06401,New Haven County,CT,21.066456527449436
06405,New Haven County,CT,31.678486997635936
06413,Middlesex County,CT,52.53480430785395
06416,Middlesex County,CT,64.56527449435251
06418,New Haven County,CT,62.201208300499076
06441,Middlesex County,CT,94.11610191752035
06450,New Haven County,CT,34.69923824533754
06451,New Haven County,CT,16.522195954820067
06457,Middlesex County,CT,40.13659049120042
06468,Fairfield County,CT,75.99159443131074
06475,Middlesex County,CT,78.1980562122406
06478,New Haven County,CT,90.17599159443131
06479,Hartford County,CT,77.48883635408458
06480,Middlesex County,CT,64.82794851589178
06492,New Haven County,CT,13.921723141581296
06511,New Haven County,CT,14.972419227738376
06513,New Haven County,CT,1.9437877593905961
06516,New Haven County,CT,3.808773312319411
06604,Fairfield County,CT,12.555818229577095
06605,Fairfield County,CT,24.2448121880746
06606,Fairfield County,CT,38.82322038350407
06614,Fairfield County,CT,48.67349619122669
06704,New Haven County,CT,14.578408195429471
06706,New Haven County,CT,50.696086157079066
06710,New Haven County,CT,48.85736800630418
06776,Litchfield County,CT,52.53480430785395
06786,Litchfield County,CT,78.25059101654847
06801,Fairfield County,CT,63.51457840819543
06810,Fairfield County,CT,9.613869188337274
06811,Fairfield County,CT,35.43472550564749
06824,Fairfield County,CT,63.09429997373259
06831,Fairfield County,CT,74.99343314946152
06851,Fairfield County,CT,49.06750722353559
06854,Fairfield County,CT,34.77804045179932
06897,Fairfield County,CT,71.28972944575781
06901,Fairfield County,CT,93.82716049382715
19701,New Castle County,DE,18.439716312056735
19702,New Castle County,DE,9.37746256895193
19703,New Castle County,DE,50.51221434200157
19707,New Castle County,DE,82.26950354609929
19709,New Castle County,DE,13.527712109272393
19801,New Castle County,DE,28.815340162857893
19802,New Castle County,DE,9.03598634095088
19805,New Castle County,DE,10.795902285263988
19810,New Castle County,DE,45.96795376937221
19938,Kent County,DE,58.65510900971894
19947,Sussex County,DE,34.30522721302863
19956,Sussex County,DE,71.44733385868138
19963,Sussex County,DE,25.059101654846334
19973,Sussex County,DE,9.745206199106908
19977,Kent County,DE,15.471499868662988
32024,Columbia County,FL,53.769372209088516
32025,Columbia County,FL,28.368794326241137
32046,Nassau County,FL,74.4943525085369
32055,Columbia County,FL,31.44208037825059
32060,Suwannee County,FL,43.05227213028631
32086,St. Johns County,FL,32.781717888100864
32110,Flagler County,FL,61.99106908326767
32114,Volusia County,FL,15.418965064355136
32128,Volusia County,FL,84.68610454426057
32129,Volusia County,FL,66.7980036774363
32136,Flagler County,FL,90.01838718150775
32137,Flagler County,FL,43.525085369056995
32164,Flagler County,FL,24.84896243761492
32205,Duval County,FL,17.914368268978198
32207,Duval County,FL,11.610191752035725
32216,Duval County,FL,12.056737588652481
32221,Duval County,FL,20.514841082216968
32224,Duval County,FL,49.27764644076701
32225,Duval County,FL,19.831888626214866
32244,Duval County,FL,2.7843446283162594
32246,Duval County,FL,9.771473601260835
32250,Duval County,FL,50.43341213553979
32277,Duval County,FL,15.235093249277645
32301,Leon County,FL,57.315471499868664
32304,Leon County,FL,47.01864985552929
32311,Leon County,FL,89.07276070396638
32331,Madison County,FL,96.45390070921985
32407,Bay County,FL,81.92802731809824
32439,Walton County,FL,88.49487785657998
32459,Walton County,FL,56.84265826109798
32503,Escambia County,FL,13.501444707118464
32506,Escambia County,FL,8.799579721565538
32526,Escambia County,FL,8.379301287102706
32533,Escambia County,FL,53.71683740478067
32536,Okaloosa County,FL,51.037562385080115
32541,Okaloosa County,FL,59.049120042027845
32547,Okaloosa County,FL,32.25636984502233
32563,Santa Rosa County,FL,58.26109797741004
32565,Santa Rosa County,FL,75.22983976884686
32568,Escambia County,FL,95.32440241660099
32569,Okaloosa County,FL,86.89256632519043
32571,Santa Rosa County,FL,8.16916206987129
32578,Okaloosa County,FL,75.83399001838717
32583,Santa Rosa County,FL,17.54662463882322
32607,Alachua County,FL,12.450748620961386
32653,Alachua County,FL,56.238508011557656
32680,Dixie County,FL,73.18098240084055
32703,Orange County,FL,15.36643026004728
32720,Volusia County,FL,48.98870501707381
32724,Volusia County,FL,45.10112949829262
32725,Volusia County,FL,25.66325190438666
32726,Lake County,FL,42.81586551090098
32736,Lake County,FL,75.88652482269504
32771,Seminole County,FL,10.191752035723667
32804,Orange County,FL,79.69529813501445
32805,Orange County,FL,23.404255319148938
32808,Orange County,FL,36.09141055949567
32810,Orange County,FL,29.550827423167846
32811,Orange County,FL,15.077488836354084
32817,Orange County,FL,58.78644602048857
32822,Orange County,FL,12.266876805883898
32829,Orange County,FL,89.93958497504597
32839,Orange County,FL,70.23903335960074
32905,Brevard County,FL,50.22327291830838
32907,Brevard County,FL,37.063304439190965
32909,Brevard County,FL,29.629629629629626
32927,Brevard County,FL,44.102968216443394
32937,Brevard County,FL,67.27081691620698
33009,Broward County,FL,82.74231678486997
33012,Miami-Dade County,FL,83.08379301287103
33014,Miami-Dade County,FL,85.1063829787234
33018,Miami-Dade County,FL,69.76622012083004
33019,Broward County,FL,95.19306540583136
33023,Broward County,FL,12.42448121880746
33024,Broward County,FL,53.95324402416601
33027,Broward County,FL,30.102442868400313
33028,Broward County,FL,76.98975571315997
33030,Miami-Dade County,FL,68.97819805621224
33033,Miami-Dade County,FL,81.82295770948254
33040,Monroe County,FL,68.74179143682689
33056,Miami-Dade County,FL,30.233779879169948
33068,Broward County,FL,34.4628316259522
33071,Broward County,FL,43.525085369056995
33073,Broward County,FL,63.4883110060415
33076,Broward County,FL,67.40215392697662
33131,Miami-Dade County,FL,96.90044654583662
33135,Miami-Dade County,FL,89.54557394273706
33136,Miami-Dade County,FL,39.82138166535329
33139,Miami-Dade County,FL,50.22327291830838
33147,Miami-Dade County,FL,57.394273706330445
33154,Miami-Dade County,FL,93.48568426582611
33155,Miami-Dade County,FL,68.87312844759653
33157,Miami-Dade County,FL,60.099816128184926
33161,Miami-Dade County,FL,60.099816128184926
33169,Miami-Dade County,FL,32.41397425794589
33170,Miami-Dade County,FL,92.85526661413186
33176,Miami-Dade County,FL,96.79537693722091
33180,Miami-Dade County,FL,75.43997898607829
33186,Miami-Dade County,FL,74.10034147622801
33196,Miami-Dade County,FL,57.315471499868664
33311,Broward County,FL,20.2521670606777
33313,Broward County,FL,13.947990543735225
33316,Broward County,FL,95.11426319936959
33321,Broward County,FL,46.86104544260573
33322,Broward County,FL,63.698450223272914
33325,Broward County,FL,67.0869451011295
33328,Broward County,FL,80.06304176516943
33334,Broward County,FL,75.65011820330969
33351,Broward County,FL,65.45836616758602
33404,Palm Beach County,FL,27.423167848699766
33406,Palm Beach County,FL,72.65563435776203
33407,Palm Beach County,FL,20.383504071447334
33411,Palm Beach County,FL,63.46204360388757
33414,Palm Beach County,FL,34.93564486472288
33417,Palm Beach County,FL,48.62096138691883
33441,Broward County,FL,77.8040451799317
33445,Palm Beach County,FL,65.64223798266352
33461,Palm Beach County,FL,49.90806409246126
33462,Palm Beach County,FL,62.30627790911479
33463,Palm Beach County,FL,38.77068557919622
33493,Palm Beach County,FL,98.73916469661151
33511,Hillsborough County,FL,28.106120304701864
33525,Pasco County,FL,63.19936958234831
33544,Pasco County,FL,76.3330706593118
33584,Hillsborough County,FL,45.652744943525086
33597,Sumter County,FL,89.30916732335173
33609,Hillsborough County,FL,68.53165221959549
33612,Hillsborough County,FL,28.211189913317575
33614,Hillsborough County,FL,25.505647491463098
33618,Hillsborough County,FL,72.57683215130024
33619,Hillsborough County,FL,25.479380089309167
33624,Hillsborough County,FL,87.36537956396113
33647,Hillsborough County,FL,41.344890990281066
33709,Pinellas County,FL,40.16285789335435
33716,Pinellas County,FL,89.25663251904386
33756,Pinellas County,FL,36.01260835303389
33760,Pinellas County,FL,71.8676122931442
33801,Polk County,FL,15.602836879432624
33803,Polk County,FL,51.93065405831363
33823,Polk County,FL,25.584449697924878
33830,Polk County,FL,26.267402153926977
33870,Highlands County,FL,19.88442343052272
33901,Lee County,FL,43.86656159705805
33907,Lee County,FL,37.5886524822695
33908,Lee County,FL,50.85369057000263
33909,Lee County,FL,67.45468873128448
33914,Lee County,FL,30.39138429209351
33916,Lee County,FL,63.35697399527187
33990,Lee County,FL,26.95035460992908
34102,Collier County,FL,89.25663251904386
34104,Collier County,FL,44.2080378250591
34105,Collier County,FL,88.54741266088783
34110,Collier County,FL,76.0441292356186
34117,Collier County,FL,58.33990018387182
34135,Lee County,FL,72.8395061728395
34202,Manatee County,FL,60.309955345416334
34203,Manatee County,FL,45.25873391121618
34210,Manatee County,FL,83.53033884948779
34221,Manatee County,FL,28.6314683477804
34232,Sarasota County,FL,36.85316522195955
34234,Sarasota County,FL,30.54898870501707
34238,Sarasota County,FL,77.64644076700814
34243,Manatee County,FL,50.38087733123194
34266,DeSoto County,FL,78.04045179931704
34275,Sarasota County,FL,70.92198581560284
34420,Marion County,FL,63.93485684265826
34465,Citrus County,FL,56.26477541371159
34488,Marion County,FL,66.22012083004991
34652,Pasco County,FL,30.969267139479907
34653,Pasco County,FL,20.33096926713948
34691,Pasco County,FL,69.39847649067508
34698,Pinellas County,FL,44.86472287890727
34711,Lake County,FL,14.709745206199107
34715,Lake County,FL,45.44260572629367
34736,Lake County,FL,67.92750197005516
34741,Osceola County,FL,15.944313107433675
34743,Osceola County,FL,71.60493827160494
34744,Osceola County,FL,50.879957972156554
34748,Lake County,FL,12.87102705542422
34753,Lake County,FL,94.77278697136853
34786,Orange County,FL,88.52114525873391
34787,Orange County,FL,69.08326766482796
34952,St. Lucie County,FL,16.60099816128185
34953,St. Lucie County,FL,2.8368794326241136
30002,DeKalb County,GA,98.39768846861045
30004,Fulton County,GA,81.77042290517468
30005,Fulton County,GA,86.60362490149724
30012,Rockdale County,GA,44.47071184659837
30014,Newton County,GA,50.66981875492513
30016,Newton County,GA,32.019963225636985
30021,DeKalb County,GA,72.07775151037562
30022,Fulton County,GA,30.33884948778566
30032,DeKalb County,GA,31.520882584712375
30034,DeKalb County,GA,54.37352245862884
30038,DeKalb County,GA,67.71736275282375
30040,Forsyth County,GA,69.68741791436827
30041,Forsyth County,GA,71.55240346729708
30044,Gwinnett County,GA,42.264250065668506
30045,Gwinnett County,GA,48.38455476753349
30052,Walton County,GA,60.49382716049383
30054,Newton County,GA,64.25006566850539
30058,DeKalb County,GA,13.265038087733123
30060,Cobb County,GA,28.99921197793538
30062,Cobb County,GA,82.24323614394537
30066,Cobb County,GA,37.142106645652746
30068,Cobb County,GA,66.903073286052
30071,Gwinnett County,GA,81.90175991594431
30075,Fulton County,GA,28.736537956396113
30080,Cobb County,GA,42.8421329130549
30083,DeKalb County,GA,70.3966377725243
30084,DeKalb County,GA,54.5311268715524
30088,DeKalb County,GA,29.86603624901497
30093,Gwinnett County,GA,78.27685841870239
30094,Rockdale County,GA,36.66929340688206
30096,Gwinnett County,GA,17.940635671132124
30101,Cobb County,GA,70.10769634883111
30102,Cherokee County,GA,36.93196742842133
30108,Carroll County,GA,81.92802731809824
30110,Haralson County,GA,56.52744943525085
30115,Cherokee County,GA,29.340688205936434
30126,Cobb County,GA,68.32151300236407
30134,Douglas County,GA,48.72603099553454
30135,Douglas County,GA,8.405568689256633
30143,Pickens County,GA,53.8481744155503
30144,Cobb County,GA,25.82085631731022
30153,Polk County,GA,31.809824008405567
30161,Floyd County,GA,12.109272392960337
30165,Floyd County,GA,16.732335172051485
30168,Cobb County,GA,80.56212240609403
30187,Douglas County,GA,72.28789072760704
30188,Cherokee County,GA,84.10822169687418
30189,Cherokee County,GA,43.262411347517734
30213,Fulton County,GA,44.339374835828735
30220,Coweta County,GA,96.16495928552666
30224,Spalding County,GA,43.682689781980564
30236,Clayton County,GA,56.34357762017337
30238,Clayton County,GA,75.177304964539
30241,Troup County,GA,51.90438665615971
30253,Henry County,GA,49.98686629892304
30263,Coweta County,GA,27.423167848699766
30265,Coweta County,GA,41.344890990281066
30274,Clayton County,GA,30.049908064092463
30276,Coweta County,GA,87.57551878119254
30292,Pike County,GA,90.30732860520094
30296,Clayton County,GA,98.71289729445758
30307,DeKalb County,GA,90.648804833202007
30309,Fulton County,GA,96.11242448121881
30315,Fulton County,GA,54.1371158392435
30316,DeKalb County,GA,44.23430522721303
30318,Fulton County,GA,81.58655109009719
30324,Fulton County,GA,78.09298660362491
30327,Fulton County,GA,93.69582348305752
30328,Fulton County,GA,59.10165484633569
30338,DeKalb County,GA,67.19201470974521
30341,DeKalb County,GA,86.68242710795903
30350,Fulton County,GA,56.68505384817442
30354,Fulton County,GA,57.814552140793275
30360,DeKalb County,GA,91.14788547412661
30458,Bulloch County,GA,75.88652482269504
30501,Hall County,GA,57.893354347255055
30506,Hall County,GA,73.23351720514842
30512,Union County,GA,68.2689781980562
30518,Gwinnett County,GA,62.96296296296296
30519,Gwinnett County,GA,36.27528237457315
30528,White County,GA,42.57945889151563
30531,Habersham County,GA,97.50459679537694
30540,Gilmer County,GA,39.16469661150512
30542,Hall County,GA,42.42185447859207
30549,Jackson County,GA,36.40661938534279
30559,Fannin County,GA,92.2248489624376
30564,Hall County,GA,98.29261885999475
30577,Stephens County,GA,35.1457840819543
30606,Clarke County,GA,28.815340162857893
30622,Oconee County,GA,87.18150774888363
30650,Morgan County,GA,58.5237719989493
30655,Walton County,GA,25.952193328079854
30677,Oconee County,GA,88.12713422642501
30680,Barrow County,GA,13.396375098502759
30701,Gordon County,GA,21.381665353296558
30707,Walker County,GA,66.903073286052
30720,Whitfield County,GA,44.94352508536906
30721,Whitfield County,GA,16.15445232466509
30728,Walker County,GA,62.516417126346205
30736,Catoosa County,GA,6.540583136327817
30739,Walker County,GA,92.27738376674547
30740,Whitfield County,GA,81.61281849225112
30741,Walker County,GA,41.73890202258996
30742,Catoosa County,GA,91.12161807197268
30809,Columbia County,GA,61.439453638035204
30815,Richmond County,GA,13.6327817178881
30830,Burke County,GA,42.947202521670604
30904,Richmond County,GA,24.638823220383504
30906,Richmond County,GA,20.90885211452587
30907,Columbia County,GA,17.047543997898607
31047,Houston County,GA,84.39716312056737
31088,Houston County,GA,9.824008405568689
31204,Bibb County,GA,22.537431048069344
31220,Bibb County,GA,76.3330706593118
31322,Chatham County,GA,76.3330706593118
31404,Chatham County,GA,86.99763593380615
31405,Chatham County,GA,39.2434988179669
31406,Chatham County,GA,42.50065668505385
31407,Chatham County,GA,85.15891778303126
31408,Chatham County,GA,93.30181245074863
31415,Chatham County,GA,67.74363015497768
31419,Chatham County,GA,24.717625426845284
31513,Appling County,GA,63.09429997373259
31525,Glynn County,GA,74.2054110848437
31539,Jeff Davis County,GA,86.23588127134227
31546,Wayne County,GA,82.34830575256107
31548,Camden County,GA,47.649067507223535
31601,Lowndes County,GA,49.382716049382715
31602,Lowndes County,GA,27.60703966377725
31620,Cook County,GA,70.55424218544786
31636,Lowndes County,GA,79.98423955870764
31705,Dougherty County,GA,54.37352245862884
31709,Sumter County,GA,77.46256895193065
31719,Sumter County,GA,65.16942474389283
31730,Mitchell County,GA,75.04596795376938
31775,Tift County,GA,99.97373259784608
31791,Worth County,GA,42.868400315208824
31792,Thomas County,GA,24.66509062253743
31804,Harris County,GA,97.81980562122406
31907,Muscogee County,GA,4.51799317047544
31909,Muscogee County,GA,29.682164433937487
96701,Honolulu County,HI,24.218544785920674
96706,Honolulu County,HI,28.289992119779356
96707,Honolulu County,HI,26.030995534541635
96734,Honolulu County,HI,62.437614919884425
96744,Honolulu County,HI,42.658261097977416
96746,Kauai County,HI,58.60257420541109
96753,Maui County,HI,90.648804833202007
96766,Kauai County,HI,62.72655634357762
96768,Maui County,HI,86.62989230365116
96778,Hawaii County,HI,63.51457840819543
96789,Honolulu County,HI,14.420803782505912
96790,Maui County,HI,96.40136590491201
96792,Honolulu County,HI,7.11846598371421
96793,Maui County,HI,94.82532177567639
96814,Honolulu County,HI,62.72655634357762
96815,Honolulu County,HI,38.53427895981088
96818,Honolulu County,HI,75.01970055161544
96819,Honolulu County,HI,10.139217231415813
96825,Honolulu County,HI,75.70265300761754
83274,Bingham County,ID,80.95613343840294
83301,Twin Falls County,ID,1.6811137378513266
83318,Cassia County,ID,53.40162857893355
83336,Minidoka County,ID,99.29078014184397
83350,Minidoka County,ID,88.75755187811926
83404,Bonneville County,ID,76.25426845285001
83440,Madison County,ID,63.7772524297347
83501,Nez Perce County,ID,54.820068295245605
83607,Canyon County,ID,28.894142369319674
83619,Payette County,ID,77.30496453900709
83628,Owyhee County,ID,97.11058576306803
83646,Ada County,ID,51.011294982926195
83651,Canyon County,ID,59.705805095876016
83669,Ada County,ID,84.92251116364592
83686,Canyon County,ID,4.596795376937221
83705,Ada County,ID,20.147097452061992
83706,Ada County,ID,19.963225636984504
83709,Ada County,ID,35.27712109272393
83716,Ada County,ID,40.92461255581823
83815,Kootenai County,ID,77.85657998423956
83854,Kootenai County,ID,91.6206987128973
83860,Bonner County,ID,95.95482006829525
60004,Cook County,IL,68.6367218282112
60008,Cook County,IL,92.32991857105333
60016,Cook County,IL,67.55975833990018
60018,Cook County,IL,54.03204623062779
60026,Cook County,IL,87.75939059627002
60051,McHenry County,IL,42.185447859206725
60053,Cook County,IL,71.60493827160494
60056,Cook County,IL,80.19437877593906
60060,Lake County,IL,37.825059101654844
60061,Lake County,IL,56.7638560546362
60070,Cook County,IL,95.69214604675598
60073,Lake County,IL,9.955345416338323
60074,Cook County,IL,32.12503283425269
60077,Cook County,IL,80.6146572104019
60085,Lake County,IL,11.347517730496454
60087,Lake County,IL,61.754662463882326
60091,Cook County,IL,63.93485684265826
60102,McHenry County,IL,37.35224586288416
60103,DuPage County,IL,19.516679800367744
60107,Cook County,IL,40.5043341213554
60115,DeKalb County,IL,30.65405831363278
60120,Kane County,IL,18.67612293144208
60123,Kane County,IL,44.575781455214084
60124,Kane County,IL,83.13632781717888
60126,DuPage County,IL,5.673758865248227
60133,Cook County,IL,33.96375098502758
60137,DuPage County,IL,59.23299185710533
60140,Kane County,IL,67.00814289466773
60142,McHenry County,IL,32.33517205148411
60148,DuPage County,IL,34.48909902810612
60152,McHenry County,IL,71.60493827160494
60153,Cook County,IL,29.26188599947465
60164,Cook County,IL,30.286314683477805
60174,Kane County,IL,70.2127659574468
60176,Cook County,IL,77.14736012608353
60177,Kane County,IL,49.06750722353559
60181,DuPage County,IL,55.05647491463095
60188,DuPage County,IL,40.39926451273969
60190,DuPage County,IL,71.7625426845285
60191,DuPage County,IL,60.25742054110849
60193,Cook County,IL,64.22379826635147
60202,Cook County,IL,50.80115576569477
60304,Cook County,IL,47.83293932230103
60406,Cook County,IL,44.47071184659837
60409,Cook County,IL,54.60992907801418
60411,Cook County,IL,32.282637247176254
60422,Cook County,IL,80.22064617809299
60423,Will County,IL,31.074336748095615
60426,Cook County,IL,46.49330181245075
60428,Cook County,IL,85.1063829787234
60430,Cook County,IL,57.18413448909902
60433,Will County,IL,52.74494352508536
60435,Will County,IL,5.936432886787497
60436,Will County,IL,48.200682952456006
60439,Cook County,IL,34.252692408720776
60451,Will County,IL,12.687155240346728
60452,Cook County,IL,72.89204097714736
60453,Cook County,IL,8.458103493564487
60457,Cook County,IL,67.79616495928553
60459,Cook County,IL,58.89151562910428
60462,Cook County,IL,50.48594693984765
60463,Cook County,IL,68.53165221959549
60464,Cook County,IL,91.48936170212765
60466,Cook County,IL,72.9183083793013
60467,Cook County,IL,40.68820593643289
60468,Will County,IL,94.90412398213817
60471,Cook County,IL,64.43393748358287
60481,Will County,IL,60.73023377987917
60484,Will County,IL,97.0843183609141
60490,Will County,IL,81.42894667717363
60503,Will County,IL,78.3819280273181
60505,Kane County,IL,56.080903598634094
60506,Kane County,IL,69.424743892829
60510,Kane County,IL,25.79458891515629
60513,Cook County,IL,31.547149986866295
60515,DuPage County,IL,30.54898870501707
60517,DuPage County,IL,29.70843183609141
60521,DuPage County,IL,64.43393748358287
60526,Cook County,IL,67.87496716574731
60527,DuPage County,IL,41.81770422905174
60538,Kendall County,IL,80.48332019963226
60540,DuPage County,IL,52.85001313370108
60542,Kane County,IL,57.86708694510113
60543,Kendall County,IL,61.623325453112685
60545,Kendall County,IL,60.62516417126346
60546,Cook County,IL,38.24533753611768
60558,Cook County,IL,93.43314946151825
60559,DuPage County,IL,34.173890202258995
60601,Cook County,IL,84.39716312056737
60605,Cook County,IL,50.40714473338587
60608,Cook County,IL,73.25978460730234
60612,Cook County,IL,12.004202784344628
60614,Cook County,IL,14.52587339112162
60616,Cook County,IL,86.52482269503547
60617,Cook County,IL,3.729971105857631
60618,Cook County,IL,68.19017599159443
60619,Cook County,IL,18.387181507748885
60620,Cook County,IL,20.462306277909114
60623,Cook County,IL,39.296033622274756
60625,Cook County,IL,72.99711058576307
60629,Cook County,IL,84.16075650118204
60630,Cook County,IL,15.839243498817968
60631,Cook County,IL,56.42237982663515
60632,Cook County,IL,82.29577094825322
60634,Cook County,IL,5.883898082479642
60636,Cook County,IL,24.087207775151036
60637,Cook County,IL,9.535066981875492
60638,Cook County,IL,46.20436038875756
60639,Cook County,IL,60.20488573680063
60645,Cook County,IL,26.530076175466245
60647,Cook County,IL,21.591804570527977
60651,Cook County,IL,4.7281323877068555
60652,Cook County,IL,52.692408720777514
60656,Cook County,IL,38.376674546887315
60657,Cook County,IL,82.9524560021014
60659,Cook County,IL,37.29971105857631
60660,Cook County,IL,18.308379301287104
60707,Cook County,IL,63.01549776727081
60804,Cook County,IL,74.80956133438403
60914,Kankakee County,IL,23.693196742842133
61008,Boone County,IL,23.98213816653533
61010,Ogle County,IL,77.64644076700814
61021,Lee County,IL,22.432361439453636
61071,Whiteside County,IL,16.86367218282112
61081,Whiteside County,IL,21.27659574468085
61102,Winnebago County,IL,88.88888888888889
61104,Winnebago County,IL,91.41055949566588
61109,Winnebago County,IL,34.93564486472288
61111,Winnebago County,IL,40.08405568689257
61114,Winnebago County,IL,75.88652482269504
61115,Winnebago County,IL,42.7370633044392
61265,Rock Island County,IL,84.37089571841345
61364,LaSalle County,IL,46.67717362752824
61401,Knox County,IL,81.53401628578933
61554,Tazewell County,IL,53.55923299185711
61604,Peoria County,IL,65.58970317835566
61614,Peoria County,IL,68.53165221959549
61615,Peoria County,IL,72.76070396637773
61701,McLean County,IL,22.24848962437615
61752,McLean County,IL,97.89860782768585
61753,McLean County,IL,99.68479117415288
61761,McLean County,IL,30.023640661938533
61764,Livingston County,IL,63.619648016811134
61820,Champaign County,IL,88.04833201996323
61832,Vermilion County,IL,5.962700288941424
61866,Champaign County,IL,31.731021801943786
61938,Coles County,IL,70.02889414236932
62024,Madison County,IL,93.3806146572104
62025,Madison County,IL,85.65799842395587
62040,Madison County,IL,13.002364066193852
62095,Madison County,IL,78.85474126608878
62201,St. Clair County,IL,98.21381665353297
62205,St. Clair County,IL,88.54741266088783
62208,St. Clair County,IL,94.7465195692146
62226,St. Clair County,IL,33.41213553979511
62234,Madison County,IL,40.32046230627791
62236,Monroe County,IL,96.53270291568164
62301,Adams County,IL,24.481218807459943
62353,Brown County,IL,99.23824533753611
62401,Effingham County,IL,83.24139742579459
62439,Lawrence County,IL,79.69529813501445
62521,Macon County,IL,31.86235881271342
62526,Macon County,IL,29.78723404255319
62568,Christian County,IL,70.81691620698713
62629,Sangamon County,IL,89.44050433412136
62702,Sangamon County,IL,17.28395061728395
62801,Marion County,IL,40.39926451273969
62858,Clay County,IL,99.84239558707644
62906,Union County,IL,84.00315208825847
62946,Saline County,IL,76.0441292356186
62959,Williamson County,IL,32.17756763856055
46012,Madison County,IN,28.053585500394014
46013,Madison County,IN,23.929603362227475
46033,Hamilton County,IN,53.97951142631994
46038,Hamilton County,IN,79.80036774363015
46055,Hancock County,IN,76.17546624638824
46060,Hamilton County,IN,56.18597320724981
46123,Hendricks County,IN,37.93012871027056
46135,Putnam County,IN,59.7846073023378
46168,Hendricks County,IN,64.98555292881534
46176,Shelby County,IN,9.876543209876543
46203,Marion County,IN,24.376149198844235
46220,Marion County,IN,69.81875492513791
46222,Marion County,IN,12.713422642500657
46226,Marion County,IN,6.987128972944576
46227,Marion County,IN,5.411084843708957
46228,Marion County,IN,74.10034147622801
46229,Marion County,IN,16.101917520357237
46235,Marion County,IN,42.05411084843709
46256,Marion County,IN,62.93669556080903
46260,Marion County,IN,69.9238245337536
46307,Lake County,IN,7.591279222484896
46319,Lake County,IN,18.045705279747835
46320,Lake County,IN,24.95403204623063
46321,Lake County,IN,25.321775676385606
46322,Lake County,IN,48.33201996322563
46324,Lake County,IN,10.690832676648279
46327,Lake County,IN,54.1371158392435
46341,Porter County,IN,55.2140793275545
46350,LaPorte County,IN,24.192277383766744
46360,LaPorte County,IN,2.7055424218544784
46383,Porter County,IN,4.229051746782243
46385,Porter County,IN,3.9663777252429733
46392,Jasper County,IN,60.62516417126346
46408,Lake County,IN,36.74809561334384
46501,Marshall County,IN,88.17966903073287
46514,Elkhart County,IN,54.08458103493564
46516,Elkhart County,IN,10.822169687417913
46517,Elkhart County,IN,85.50039401103231
46526,Elkhart County,IN,47.28132387706856
46544,St. Joseph County,IN,72.15655371683741
46563,Marshall County,IN,31.258208563173103
46574,St. Joseph County,IN,96.8741791436827
46628,St. Joseph County,IN,38.98082479642763
46723,Whitley County,IN,86.26214867349618
46725,Whitley County,IN,20.830049908064094
46738,DeKalb County,IN,63.698450223272914
46750,Huntington County,IN,12.450748620961386
46755,Noble County,IN,18.728657735749934
46767,Noble County,IN,95.79721565537169
46815,Allen County,IN,75.33490937746257
46825,Allen County,IN,28.42132913054899
46901,Howard County,IN,0.8930916732335172
46923,Carroll County,IN,76.98975571315997
46932,Cass County,IN,94.32624113475178
46952,Grant County,IN,11.767796164959284
46970,Miami County,IN,5.516154452324665
47129,Clark County,IN,42.89466771736276
47150,Floyd County,IN,27.501970055161546
47167,Washington County,IN,40.63567113212503
47220,Jackson County,IN,96.37509850275808
47274,Jackson County,IN,18.991331757289203
47304,Delaware County,IN,41.55503020751248
47320,Delaware County,IN,99.81612818492252
47374,Wayne County,IN,14.68347780404518
47401,Monroe County,IN,57.42054110848437
47421,Lawrence County,IN,24.95403204623063
47433,Owen County,IN,97.60966640399265
47438,Greene County,IN,91.41055949566588
47581,Martin County,IN,99.76359338061465
47586,Perry County,IN,86.41975308641975
47591,Knox County,IN,26.109797741003415
47620,Posey County,IN,64.14499605988968
47630,Warrick County,IN,68.32151300236407
47714,Vanderburgh County,IN,8.221696874179143
47715,Vanderburgh County,IN,54.63619648016811
47720,Vanderburgh County,IN,88.91515629104282
47803,Vigo County,IN,51.87811925400578
47842,Vermillion County,IN,61.12424481218808
47872,Parke County,IN,89.93958497504597
47933,Montgomery County,IN,22.117152613606514
50009,Polk County,IA,63.09429997373259
50010,Story County,IA,48.46335697399527
50021,Polk County,IA,68.87312844759653
50036,Boone County,IA,58.65510900971894
50047,Warren County,IA,90.85894405043341
50131,Polk County,IA,73.31231941161019
50158,Marshall County,IA,17.2314158129761
50213,Clarke County,IA,73.54872603099554
50226,Polk County,IA,99.47465195692146
50266,Polk County,IA,72.76070396637773
50314,Polk County,IA,35.066981875492516
50315,Polk County,IA,4.885736800630418
50320,Polk County,IA,38.2716049382716
50461,Mitchell County,IA,90.78014184397163
50703,Black Hawk County,IA,72.23535592329918
51104,Woodbury County,IA,35.19831888626215
51108,Woodbury County,IA,89.72944575781455
51360,Dickinson County,IA,85.89440504334121
51501,Pottawattamie County,IA,1.4709745206199105
51503,Pottawattamie County,IA,43.420015760441295
52001,Dubuque County,IA,9.37746256895193
52101,Winneshiek County,IA,64.43393748358287
52240,Johnson County,IA,14.000525348043077
52317,Johnson County,IA,41.60756501182033
52402,Linn County,IA,12.135539795114262
52403,Linn County,IA,32.991857105332286
52501,Wapello County,IA,33.77987916995009
52577,Mahaska County,IA,27.13422642500657
52722,Scott County,IA,13.107433674809563
52726,Scott County,IA,96.05988967691096
52742,Clinton County,IA,84.00315208825847
52748,Scott County,IA,82.71604938271605
52753,Scott County,IA,98.47649067507224
52802,Scott County,IA,75.65011820330969
52803,Scott County,IA,25.426845285001313
52804,Scott County,IA,37.1946414499606
66006,Douglas County,KS,95.2193328079853
66044,Douglas County,KS,60.41502495403205
66047,Douglas County,KS,83.37273443656422
66048,Leavenworth County,KS,56.94772786971368
66049,Douglas County,KS,47.727869713685315
66102,Wyandotte County,KS,74.6782243236144
66104,Wyandotte County,KS,19.12266876805884
66106,Wyandotte County,KS,36.85316522195955
66203,Johnson County,KS,91.90964013659048
66207,Johnson County,KS,92.61885999474651
66208,Johnson County,KS,79.98423955870764
66212,Johnson County,KS,92.46125558182295
66213,Johnson County,KS,64.82794851589178
66216,Johnson County,KS,66.48279485158918
66219,Johnson County,KS,84.71237194641449
66221,Johnson County,KS,63.85605463619648
66223,Johnson County,KS,82.58471237194641
66226,Johnson County,KS,93.53821907013396
66402,Shawnee County,KS,99.26451273969005
66441,Geary County,KS,64.90675072235355
66502,Riley County,KS,68.61045442605726
66503,Riley County,KS,93.53821907013396
66610,Shawnee County,KS,93.01287102705543
66614,Shawnee County,KS,25.11163645915419
66762,Crawford County,KS,58.99658523771999
66801,Lyon County,KS,40.32046230627791
67060,Sedgwick County,KS,92.0147097452062
67107,McPherson County,KS,99.78986078276859
67110,Sedgwick County,KS,97.53086419753086
67203,Sedgwick County,KS,64.72287890727607
67212,Sedgwick County,KS,82.7685841870239
67217,Sedgwick County,KS,42.89466771736276
67218,Sedgwick County,KS,69.58234830575256
67219,Sedgwick County,KS,83.16259521933281
67235,Sedgwick County,KS,95.32440241660099
67301,Montgomery County,KS,92.48752298397689
67401,Saline County,KS,13.580246913580247
67502,Reno County,KS,62.88416075650118
67601,Ellis County,KS,31.547149986866295
67654,Norton County,KS,99.08064092461255
67801,Ford County,KS,49.19884423430523
67846,Finney County,KS,45.67901234567901
40008,Nelson County,KY,94.61518255844497
40031,Oldham County,KY,22.878907276070397
40065,Shelby County,KY,31.31074336748096
40071,Spencer County,KY,77.1210927239296
40165,Bullitt County,KY,33.674809561334385
40211,Jefferson County,KY,7.7488836354084585
40212,Jefferson County,KY,16.9424743892829
40213,Jefferson County,KY,25.216706067769895
40214,Jefferson County,KY,3.572366692934069
40215,Jefferson County,KY,11.872865773574993
40216,Jefferson County,KY,44.99605988967691
40218,Jefferson County,KY,8.011557656947728
40228,Jefferson County,KY,58.36616758602574
40229,Jefferson County,KY,30.837930128710273
40241,Jefferson County,KY,41.08221696874179
40245,Jefferson County,KY,38.11400052534804
40258,Jefferson County,KY,14.814814814814813
40324,Scott County,KY,7.7751510375623845
40330,Mercer County,KY,43.73522458628842
40336,Estill County,KY,44.602048857368004
40361,Bourbon County,KY,26.582610979774103
40383,Woodford County,KY,66.58786446020488
40437,Lincoln County,KY,96.05988967691096
40447,Jackson County,KY,94.82532177567639
40503,Fayette County,KY,59.7846073023378
40504,Fayette County,KY,32.80798529025479
40509,Fayette County,KY,23.64066193853428
40515,Fayette County,KY,39.19096401365905
40741,Laurel County,KY,14.736012608353033
40828,Harlan County,KY,93.06540583136328
40962,Clay County,KY,11.82033096926714
41005,Boone County,KY,52.14079327554505
41008,Carroll County,KY,73.33858681376412
41015,Kenton County,KY,17.80929866036249
41031,Harrison County,KY,46.38823220383504
41042,Boone County,KY,2.7318098240084057
41091,Boone County,KY,65.74730759127922
41094,Boone County,KY,71.13212503283425
41101,Boyd County,KY,11.084843708957184
41472,Morgan County,KY,89.15156291042817
41653,Floyd County,KY,34.173890202258995
41701,Perry County,KY,21.801943787759388
41749,Leslie County,KY,97.92487522983977
41858,Letcher County,KY,48.148148148148145
42129,Metcalfe County,KY,48.148148148148145
42141,Barren County,KY,7.065931179406356
42164,Allen County,KY,63.672182821118994
42220,Todd County,KY,82.9524560021014
42240,Christian County,KY,18.807459942211715
42301,Daviess County,KY,5.332282637247177
42408,Hopkins County,KY,74.3892828999212
42431,Hopkins County,KY,46.256895193065404
42442,Hopkins County,KY,96.55897031783557
42501,Pulaski County,KY,39.479905437352244
42701,Hardin County,KY,6.750722353559232
42728,Adair County,KY,43.20987654320987
42754,Grayson County,KY,18.623588127134227
70001,Jefferson Parish,LA,2.022589965852377
70056,Jefferson Parish,LA,2.180194378775939
70062,Jefferson Parish,LA,12.083004990806408
70068,St. John the Baptist Parish,LA,5.6474914630943
70070,St. Charles Parish,LA,51.58917783031258
70072,Jefferson Parish,LA,0.3414762280010507
70084,St. John the Baptist Parish,LA,59.7846073023378
70094,Jefferson Parish,LA,16.128184922511164
70115,Orleans Parish,LA,61.045442605726294
70119,Orleans Parish,LA,2.2852639873916467
70126,Orleans Parish,LA,3.12582085631731
70301,Lafourche Parish,LA,1.024428684003152
70339,Assumption Parish,LA,70.55424218544786
70360,Terrebonne Parish,LA,6.356711321250328
70380,St. Mary Parish,LA,14.49960598896769
70390,Assumption Parish,LA,79.51142631993696
70392,St. Mary Parish,LA,64.72287890727607
70395,Terrebonne Parish,LA,92.04097714736012
70433,St. Tammany Parish,LA,3.467297084318361
70448,St. Tammany Parish,LA,28.684003152088263
70458,St. Tammany Parish,LA,2.6530076175466246
70461,St. Tammany Parish,LA,10.612030470186498
70507,Lafayette Parish,LA,67.98003677436301
70508,Lafayette Parish,LA,35.35592329918571
70510,Vermilion Parish,LA,6.094037299711059
70517,St. Martin Parish,LA,7.486209613869188
70544,Iberia Parish,LA,24.034672970843186
70601,Calcasieu Parish,LA,0.7092198581560284
70605,Calcasieu Parish,LA,11.662726556343578
70607,Calcasieu Parish,LA,8.064092461255582
70611,Calcasieu Parish,LA,19.80562122406094
70633,Calcasieu Parish,LA,55.897031783556606
70634,Beauregard Parish,LA,16.574730759127924
70655,Allen Parish,LA,95.40320462306278
70657,Beauregard Parish,LA,85.6842658261098
70663,Calcasieu Parish,LA,4.623062779091148
70669,Calcasieu Parish,LA,76.67454688731284
70726,Livingston Parish,LA,6.908326766482794
70737,Ascension Parish,LA,20.06829524560021
70754,Livingston Parish,LA,47.17625426845285
70769,Ascension Parish,LA,5.568689256632519
70770,East Baton Rouge Parish,LA,90.9377462568952
70774,Ascension Parish,LA,92.56632519043868
70806,East Baton Rouge Parish,LA,7.617546624638822
70807,East Baton Rouge Parish,LA,7.4074074074074066
70809,East Baton Rouge Parish,LA,43.97163120567376
70810,East Baton Rouge Parish,LA,4.465458366167586
70817,East Baton Rouge Parish,LA,23.08904649330181
70818,East Baton Rouge Parish,LA,72.4454951405306
71040,Claiborne Parish,LA,60.96664039926451
71106,Caddo Parish,LA,3.283425269240872
71109,Caddo Parish,LA,3.38849487785658
71220,Morehouse Parish,LA,11.531389545573942
71241,Union Parish,LA,48.01681113737851
71449,Sabine Parish,LA,64.19753086419753
03901,York County,ME,57.893354347255055
03903,York County,ME,79.90543735224587
04005,York County,ME,9.666403992645128
04038,Cumberland County,ME,44.54951405306015
04043,York County,ME,56.080903598634094
04073,York County,ME,16.07565011820331
04074,Cumberland County,ME,59.390596270028894
04093,York County,ME,77.48883635408458
04096,Cumberland County,ME,95.87601786183346
04103,Cumberland County,ME,64.98555292881534
04107,Cumberland County,ME,93.98476490675071
04210,Androscoggin County,ME,40.24166009981613
04240,Androscoggin County,ME,8.247964276333072
04345,Kennebec County,ME,34.77804045179932
04364,Kennebec County,ME,47.59653270291568
04930,Penobscot County,ME,81.92802731809824
04963,Kennebec County,ME,81.6916206987129
20602,Charles County,MD,69.24087207775152
20619,St. Mary's County,MD,83.24139742579459
20622,Charles County,MD,99.42211715261361
20657,Calvert County,MD,62.14867349619123
20659,St. Mary's County,MD,53.50669818754925
20685,Calvert County,MD,94.37877593905962
20707,Prince George's County,MD,60.25742054110849
20716,Prince George's County,MD,57.840819542947195
20744,Prince George's County,MD,35.749934331494615
20745,Prince George's County,MD,66.2989230365117
20759,Howard County,MD,98.3451536643026
20781,Prince George's County,MD,89.65064355135277
20784,Prince George's County,MD,61.28184922511164
20785,Prince George's County,MD,45.54767533490938
20814,Montgomery County,MD,90.38613081166272
20815,Montgomery County,MD,92.32991857105333
20853,Montgomery County,MD,76.0441292356186
20854,Montgomery County,MD,83.03125820856317
20866,Montgomery County,MD,87.60178618334646
20871,Montgomery County,MD,84.52850013133701
20878,Montgomery County,MD,84.18702390333596
20906,Montgomery County,MD,43.15734173890202
20912,Montgomery County,MD,94.22117152613606
21009,Harford County,MD,72.10401891252955
21030,Baltimore County,MD,64.25006566850539
21032,Anne Arundel County,MD,90.80640924612557
21037,Anne Arundel County,MD,63.98739164696612
21040,Harford County,MD,49.77672708169162
21042,Howard County,MD,62.22747570265301
21044,Howard County,MD,38.376674546887315
21050,Harford County,MD,65.66850538481745
21054,Anne Arundel County,MD,85.50039401103231
21075,Howard County,MD,85.23771998949304
21076,Anne Arundel County,MD,81.14000525348042
21085,Harford County,MD,64.77541371158392
21104,Carroll County,MD,97.03178355660626
21108,Anne Arundel County,MD,84.39716312056737
21120,Baltimore County,MD,98.00367743630154
21122,Anne Arundel County,MD,4.386656159705805
21133,Baltimore County,MD,49.33018124507486
21157,Carroll County,MD,39.69004465458366
21224,Baltimore city,MD,10.08668242710796
21225,Baltimore city,MD,25.6107171000788
21227,Baltimore County,MD,44.812188074599426
21228,Baltimore County,MD,41.73890202258996
21617,Queen Anne's County,MD,89.23036511688994
21619,Queen Anne's County,MD,94.61518255844497
21702,Frederick County,MD,61.57079064880483
21716,Frederick County,MD,99.1331757289204
21758,Frederick County,MD,99.5009193590754
21771,Frederick County,MD,55.897031783556606
21784,Carroll County,MD,45.07486209613869
21791,Carroll County,MD,97.478329393223
21801,Wicomico County,MD,54.84633569739953
01001,Hampden County,MA,86.70869451011295
01002,Hampshire County,MA,96.95298135014447
01013,Hampden County,MA,1.3133701076963489
01020,Hampden County,MA,94.24743892829
01040,Hampden County,MA,0.6041502495403205
01075,Hampshire County,MA,13.816653532965589
01089,Hampden County,MA,1.9175203572366695
01104,Hampden County,MA,79.19621749408984
01105,Hampden County,MA,76.64827948515892
01109,Hampden County,MA,4.202784344628316
01129,Hampden County,MA,63.25190438665616
01201,Berkshire County,MA,0
01247,Berkshire County,MA,3.020751247701602
01301,Franklin County,MA,6.671920147097452
01430,Worcester County,MA,98.60782768584187
01440,Worcester County,MA,0.6829524560021014
01453,Worcester County,MA,0.28894142369319675
01460,Middlesex County,MA,31.074336748095615
01469,Middlesex County,MA,89.72944575781455
01473,Worcester County,MA,62.674021539269766
01501,Worcester County,MA,23.771998949303914
01540,Worcester County,MA,96.61150512214341
01543,Worcester County,MA,67.98003677436301
01545,Worcester County,MA,37.798791699500924
01550,Worcester County,MA,57.052797478329396
01569,Worcester County,MA,25.873391121618074
01583,Worcester County,MA,72.36669293406882
01603,Worcester County,MA,0.7617546624638823
01610,Worcester County,MA,67.63856054636197
01612,Worcester County,MA,97.34699238245338
01701,Middlesex County,MA,6.1465721040189125
01702,Middlesex County,MA,14.919884423430524
01721,Middlesex County,MA,57.735749934331494
01741,Middlesex County,MA,96.19122668768058
01742,Middlesex County,MA,44.654583661675865
01747,Worcester County,MA,89.30916732335173
01757,Worcester County,MA,83.11006041502496
01760,Middlesex County,MA,5.857630680325716
01778,Middlesex County,MA,91.33175728920409
01801,Middlesex County,MA,13.606514315734175
01803,Middlesex County,MA,12.87102705542422
01826,Middlesex County,MA,2.048857368006304
01830,Essex County,MA,0.5253480430785396
01834,Essex County,MA,76.91095350669819
01843,Essex County,MA,1.260835303388495
01844,Essex County,MA,0.31520882584712373
01850,Middlesex County,MA,4.123982138166536
01851,Middlesex County,MA,8.69451011294983
01852,Middlesex County,MA,51.24770160231154
01854,Middlesex County,MA,0.8142894667717363
01863,Middlesex County,MA,44.102968216443394
01864,Middlesex County,MA,72.41922773837668
01880,Middlesex County,MA,3.677436301549777
01886,Middlesex County,MA,46.46703441029682
01902,Essex County,MA,5.227213028631468
01905,Essex County,MA,0.4465458366167586
01906,Essex County,MA,10.533228263724718
01913,Essex County,MA,16.627265563435774
01915,Essex County,MA,0.7354872603099553
01969,Essex County,MA,87.4441817704229
01970,Essex County,MA,90.91147885474126
01982,Essex County,MA,68.11137378513264
02021,Norfolk County,MA,21.224060940372997
02026,Norfolk County,MA,15.340162857893356
02035,Norfolk County,MA,23.246650906225376
02038,Norfolk County,MA,7.5650118203309695
02048,Bristol County,MA,42.36931967428421
02050,Plymouth County,MA,12.923561859732072
02052,Norfolk County,MA,54.1371158392435
02054,Norfolk County,MA,66.32519043866562
02062,Norfolk County,MA,8.405568689256633
02066,Plymouth County,MA,61.85973207249803
02081,Norfolk County,MA,87.7331231941161
02118,Suffolk County,MA,0.026267402153926978
02122,Suffolk County,MA,0.4728132387706856
02125,Suffolk County,MA,1.7073811400052534
02128,Suffolk County,MA,0.10506960861570791
02135,Suffolk County,MA,13.317572892040976
02140,Middlesex County,MA,10.585763068032572
02142,Middlesex County,MA,97.13685316522196
02143,Middlesex County,MA,2.6792750197005515
02145,Middlesex County,MA,2.232729183083793
02148,Middlesex County,MA,47.43892828999212
02149,Middlesex County,MA,91.77830312582086
02150,Suffolk County,MA,0.18387181507748881
02169,Norfolk County,MA,48.98870501707381
02170,Norfolk County,MA,21.53926976622012
02171,Norfolk County,MA,54.26845285001314
02176,Middlesex County,MA,4.071447333858681
02180,Middlesex County,MA,7.276070396637772
02184,Norfolk County,MA,2.8106120304701867
02186,Norfolk County,MA,33.46467034410297
02189,Norfolk County,MA,15.65537168374048
02302,Plymouth County,MA,4.439190964013659
02339,Plymouth County,MA,92.80273180982401
02343,Norfolk County,MA,28.106120304701864
02346,Plymouth County,MA,78.72340425531915
02351,Plymouth County,MA,10.112949829261886
02359,Plymouth County,MA,20.225899658523772
02360,Plymouth County,MA,0.2364066193853428
02364,Plymouth County,MA,41.8702390333596
02368,Norfolk County,MA,0.8405568689256633
02382,Plymouth County,MA,17.336485421591803
02445,Norfolk County,MA,18.177042290517466
02453,Middlesex County,MA,5.017073811400053
02466,Middlesex County,MA,83.16259521933281
02474,Middlesex County,MA,7.696348831100604
02476,Middlesex County,MA,27.528237457315473
02492,Norfolk County,MA,70.55424218544786
02494,Norfolk County,MA,81.32387706855792
02536,Barnstable County,MA,14.762280010506961
02601,Barnstable County,MA,2.101392172314158
02631,Barnstable County,MA,76.51694247438928
02632,Barnstable County,MA,38.718150774888365
02668,Barnstable County,MA,96.92671394799054
02703,Bristol County,MA,0.2626740215392698
02720,Bristol County,MA,0.052534804307853955
02721,Bristol County,MA,0.1313370107696349
02743,Bristol County,MA,46.93984764906751
02745,Bristol County,MA,8.77331231941161
02760,Bristol County,MA,6.488048332019964
02767,Bristol County,MA,16.469661150512213
02771,Bristol County,MA,29.05174678224324
02777,Bristol County,MA,4.360388757551878
02780,Bristol County,MA,0.07880220646178093
48009,Oakland County,MI,41.60756501182033
48015,Macomb County,MI,46.913580246913575
48021,Macomb County,MI,5.91016548463357
48026,Macomb County,MI,61.150512214342
48033,Oakland County,MI,81.27134226425007
48035,Macomb County,MI,5.594956658786446
48044,Macomb County,MI,22.169687417914368
48047,Macomb County,MI,33.17572892040977
48049,St. Clair County,MI,89.49303913842921
48065,Macomb County,MI,70.42290517467823
48066,Macomb County,MI,1.4972419227738378
48067,Oakland County,MI,26.556343577620172
48073,Oakland County,MI,20.120830049908065
48076,Oakland County,MI,22.195954820068295
48081,Macomb County,MI,28.57893354347255
48085,Oakland County,MI,73.7063304439191
48092,Macomb County,MI,54.1371158392435
48093,Macomb County,MI,12.371946414499606
48094,Macomb County,MI,40.58313632781718
48101,Wayne County,MI,15.497767270816917
48108,Washtenaw County,MI,27.81717888100867
48111,Wayne County,MI,3.5198318886262148
48114,Livingston County,MI,41.92277383766746
48117,Monroe County,MI,75.3611767796165
48120,Wayne County,MI,66.7980036774363
48122,Wayne County,MI,44.94352508536906
48125,Wayne County,MI,15.130023640661939
48126,Wayne County,MI,5.778828473863935
48127,Wayne County,MI,51.799317047544
48130,Washtenaw County,MI,72.94457578145521
48134,Wayne County,MI,18.96506435513528
48146,Wayne County,MI,22.77383766745469
48150,Wayne County,MI,70.6855791962175
48154,Wayne County,MI,16.233254531126875
48158,Washtenaw County,MI,69.24087207775152
48164,Wayne County,MI,66.19385342789597
48166,Monroe County,MI,67.00814289466773
48169,Livingston County,MI,71.73627528237458
48170,Wayne County,MI,8.116627265563437
48173,Wayne County,MI,48.62096138691883
48174,Wayne County,MI,3.7037037037037033
48178,Oakland County,MI,57.735749934331494
48180,Wayne County,MI,9.90281061203047
48183,Wayne County,MI,24.612555818229577
48187,Wayne County,MI,47.14998686629892
48195,Wayne County,MI,15.9705805095876
48197,Washtenaw County,MI,8.957184134489099
48198,Washtenaw County,MI,1.103230890464933
48202,Wayne County,MI,20.77751510375624
48203,Wayne County,MI,34.62043603887576
48204,Wayne County,MI,5.673758865248227
48205,Wayne County,MI,1.8912529550827424
48209,Wayne County,MI,66.74546887312844
48212,Wayne County,MI,26.030995534541635
48219,Wayne County,MI,2.390333596007355
48220,Oakland County,MI,36.01260835303389
48223,Wayne County,MI,7.249802994483845
48224,Wayne County,MI,0.9718938796952981
48228,Wayne County,MI,6.43551352771211
48234,Wayne County,MI,4.25531914893617
48235,Wayne County,MI,0.998161281849225
48236,Wayne County,MI,55.63435776201734
48240,Wayne County,MI,13.159968479117415
48302,Oakland County,MI,87.36537956396113
48306,Oakland County,MI,32.860520094562645
48307,Oakland County,MI,39.138429209351195
48310,Macomb County,MI,9.850275807722616
48313,Macomb County,MI,50.59101654846335
48316,Macomb County,MI,29.86603624901497
48317,Macomb County,MI,14.630942999737325
48323,Oakland County,MI,45.25873391121618
48327,Oakland County,MI,22.458628841607563
48328,Oakland County,MI,28.2374573154715
48341,Oakland County,MI,20.619910690832675
48342,Oakland County,MI,34.30522721302863
48360,Oakland County,MI,65.4320987654321
48371,Oakland County,MI,61.99106908326767
48374,Oakland County,MI,68.71552403467297
48377,Oakland County,MI,57.00026267402154
48381,Oakland County,MI,57.42054110848437
48382,Oakland County,MI,38.61308116627266
48386,Oakland County,MI,52.37719989493039
48390,Oakland County,MI,79.4588915156291
48420,Genesee County,MI,36.01260835303389
48430,Genesee County,MI,16.706067769897555
48433,Genesee County,MI,87.26030995534542
48439,Genesee County,MI,7.381140005253481
48444,Lapeer County,MI,76.51694247438928
48453,Sanilac County,MI,97.95114263199369
48457,Genesee County,MI,93.11794063567113
48458,Genesee County,MI,21.092723929603363
48504,Genesee County,MI,11.400052534804308
48616,Saginaw County,MI,46.38823220383504
48617,Clare County,MI,64.61780929866036
48632,Clare County,MI,79.32755450485946
48642,Midland County,MI,40.97714736012608
48661,Ogemaw County,MI,45.02232729183084
48706,Bay County,MI,3.940110323089047
48708,Bay County,MI,21.40793275545049
48750,Iosco County,MI,67.84869976359337
48763,Iosco County,MI,87.99579721565537
48808,Clinton County,MI,94.37877593905962
48817,Shiawassee County,MI,82.87365379563961
48840,Ingham County,MI,74.96716574730759
48842,Ingham County,MI,28.106120304701864
48858,Isabella County,MI,17.993170475439978
48876,Eaton County,MI,98.21381665353297
48883,Isabella County,MI,59.521933280798535
48911,Ingham County,MI,3.335960073548726
48917,Eaton County,MI,4.964539007092199
49001,Kalamazoo County,MI,13.685316522195956
49002,Kalamazoo County,MI,23.614394536380352
49006,Kalamazoo County,MI,39.63750985027581
49015,Calhoun County,MI,10.42815865510901
49024,Kalamazoo County,MI,17.625426845285002
49031,Cass County,MI,79.40635671132125
49036,Branch County,MI,19.516679800367744
49037,Calhoun County,MI,8.983451536643026
49046,Barry County,MI,83.451536643026
49048,Kalamazoo County,MI,11.11111111111111
49053,Kalamazoo County,MI,75.57131599684791
49056,Van Buren County,MI,97.39952718676122
49068,Calhoun County,MI,46.67717362752824
49090,Van Buren County,MI,48.305752561071706
49120,Berrien County,MI,8.641975308641975
49236,Lenawee County,MI,92.75019700551616
49242,Hillsdale County,MI,71.34226425006567
49315,Kent County,MI,36.2227475702653
49319,Kent County,MI,20.514841082216968
49329,Montcalm County,MI,48.27948515891779
49415,Muskegon County,MI,83.68794326241135
49423,Ottawa County,MI,6.960861570790648
49424,Ottawa County,MI,9.167323351720515
49426,Ottawa County,MI,30.39138429209351
49431,Mason County,MI,23.53559232991857
49441,Muskegon County,MI,7.144733385868138
49442,Muskegon County,MI,1.5235093249277647
49451,Muskegon County,MI,91.85710533228264
49503,Kent County,MI,6.199106908326766
49507,Kent County,MI,2.4691358024691357
49508,Kent County,MI,2.8894142369319673
49509,Kent County,MI,75.80772261623325
49519,Kent County,MI,10.349356448647228
49546,Kent County,MI,27.89598108747045
49548,Kent County,MI,3.835040714473339
49685,Grand Traverse County,MI,42.21171526136065
49690,Grand Traverse County,MI,92.54005778828474
49707,Alpena County,MI,21.171526136065143
49715,Chippewa County,MI,92.43498817966903
49829,Delta County,MI,58.234830575256105
49878,Delta County,MI,94.77278697136853
55033,Dakota County,MN,20.803782505910164
55038,Washington County,MN,76.17546624638824
55040,Isanti County,MN,65.35329655897031
55041,Wabasha County,MN,98.16128184922512
55044,Dakota County,MN,73.54872603099554
55051,Kanabec County,MN,81.03493564486473
55075,Dakota County,MN,31.31074336748096
55076,Dakota County,MN,51.06382978723404
55077,Dakota County,MN,87.94326241134752
55102,Ramsey County,MN,20.278434462831626
55103,Ramsey County,MN,35.56606251641713
55104,Ramsey County,MN,69.66115051221435
55106,Ramsey County,MN,37.77252429734699
55107,Ramsey County,MN,88.20593643288679
55110,Ramsey County,MN,72.52429734699238
55112,Ramsey County,MN,30.916732335172053
55119,Ramsey County,MN,76.1491988442343
55128,Washington County,MN,85.36905700026267
55302,Wright County,MN,94.37877593905962
55303,Anoka County,MN,11.2949829261886
55304,Anoka County,MN,30.365116889939586
55305,Hennepin County,MN,73.04964539007092
55316,Hennepin County,MN,58.07722616233254
55328,Wright County,MN,89.20409771473601
55330,Sherburne County,MN,31.9411610191752
55343,Hennepin County,MN,33.41213553979511
55347,Hennepin County,MN,58.78644602048857
55350,McLeod County,MN,19.595482006829524
55360,Carver County,MN,99.44838455476753
55372,Scott County,MN,51.4053060152351
55378,Scott County,MN,46.151825584449696
55379,Scott County,MN,17.599159443131075
55391,Hennepin County,MN,84.92251116364592
55398,Sherburne County,MN,69.7136853165222
55407,Hennepin County,MN,3.152088258471237
55412,Hennepin County,MN,58.60257420541109
55414,Hennepin County,MN,42.21171526136065
55416,Hennepin County,MN,32.72918308379301
55417,Hennepin County,MN,38.849487785658
55418,Hennepin County,MN,18.51851851851852
55419,Hennepin County,MN,35.30338849487786
55421,Anoka County,MN,13.396375098502759
55426,Hennepin County,MN,52.27213028631469
55427,Hennepin County,MN,45.02232729183084
55428,Hennepin County,MN,41.39742579458891
55429,Hennepin County,MN,7.2235355923299185
55430,Hennepin County,MN,11.741528762805359
55432,Anoka County,MN,66.43026004728132
55433,Anoka County,MN,85.92067244549514
55442,Hennepin County,MN,73.99527186761229
55444,Hennepin County,MN,92.5925925925926
55446,Hennepin County,MN,78.27685841870239
55449,Anoka County,MN,73.89020225899658
55803,St. Louis County,MN,60.8615707906488
55921,Houston County,MN,86.26214867349618
55987,Winona County,MN,4.570527974783293
56001,Blue Earth County,MN,22.038350407144733
56003,Nicollet County,MN,82.79485158917782
56063,Blue Earth County,MN,99.31704754399789
56081,Watonwan County,MN,77.48883635408458
56143,Jackson County,MN,89.30916732335173
56164,Pipestone County,MN,65.77357499343314
56187,Nobles County,MN,85.57919621749409
56201,Kandiyohi County,MN,89.04649330181245
56303,Stearns County,MN,83.50407144733386
56304,Sherburne County,MN,49.93433149461518
56308,Douglas County,MN,18.098240084055686
56364,Morrison County,MN,98.66036249014972
56470,Hubbard County,MN,85.57919621749409
56473,Cass County,MN,95.7184134489099
56520,Wilkin County,MN,70.13396375098503
56537,Otter Tail County,MN,11.426319936958235
56560,Clay County,MN,19.070133963750983
56636,Itasca County,MN,70.23903335960074
56701,Pennington County,MN,41.449960598896766
56716,Polk County,MN,21.46046755975834
56721,Polk County,MN,44.44444444444444
56762,Marshall County,MN,94.03729971105858
38611,Marshall County,MS,82.63724717625426
38618,Tate County,MS,81.14000525348042
38632,DeSoto County,MS,39.69004465458366
38654,DeSoto County,MS,46.834778040451795
38680,DeSoto County,MS,96.6903073286052
38801,Lee County,MS,28.920409771473597
38852,Tishomingo County,MS,46.57210401891253
38863,Pontotoc County,MS,57.00026267402154
39073,Rankin County,MS,54.37352245862884
39074,Scott County,MS,28.027318098240084
39110,Madison County,MS,64.25006566850539
39211,Hinds County,MS,56.50118203309693
39216,Hinds County,MS,99.89493039138429
39272,Hinds County,MS,73.99527186761229
39307,Lauderdale County,MS,29.550827423167846
39350,Neshoba County,MS,49.8555292881534
39452,George County,MS,17.10007880220646
39629,Lincoln County,MS,92.80273180982401
63012,Jefferson County,MO,95.7184134489099
63026,St. Louis County,MO,25.925925925925924
63051,Jefferson County,MO,56.36984502232729
63105,St. Louis County,MO,93.30181245074863
63113,St. Louis city,MO,56.13343840294195
63125,St. Louis County,MO,67.0869451011295
63130,St. Louis County,MO,42.106645652744945
63137,St. Louis County,MO,28.079852902547938
63138,St. Louis County,MO,41.213553979511424
63144,St. Louis County,MO,97.6622012083005
63301,St. Charles County,MO,7.90648804833202
63348,St. Charles County,MO,92.67139479905437
63376,St. Charles County,MO,26.31993695823483
63379,Lincoln County,MO,53.191489361702125
63385,St. Charles County,MO,36.66929340688206
63601,St. Francois County,MO,33.09692671394799
64012,Cass County,MO,18.282111899133174
64014,Jackson County,MO,13.370107696348832
64015,Jackson County,MO,7.538744418177042
64029,Jackson County,MO,29.18308379301287
64030,Jackson County,MO,11.216180719726818
64034,Jackson County,MO,83.9506172839506
64040,Johnson County,MO,77.88284738639348
64056,Jackson County,MO,16.916206987128973
64060,Clay County,MO,35.22458628841608
64062,Ray County,MO,47.91174152876281
64063,Jackson County,MO,79.82663514578408
64064,Jackson County,MO,41.9753086419753
64068,Clay County,MO,23.5618597320725
64080,Cass County,MO,53.87444181770423
64081,Jackson County,MO,35.61859732072498
64082,Jackson County,MO,63.04176516942475
64083,Cass County,MO,61.46572104018912
64086,Jackson County,MO,59.31179406356711
64089,Clay County,MO,42.7370633044392
64114,Jackson County,MO,25.689519306540582
64116,Clay County,MO,16.180719726819017
64118,Clay County,MO,33.62227475702653
64119,Clay County,MO,47.99054373522459
64127,Jackson County,MO,3.0732860520094563
64130,Jackson County,MO,3.414762280010507
64131,Jackson County,MO,8.58944050433412
64132,Jackson County,MO,9.114788547412662
64134,Jackson County,MO,7.459942211715262
64138,Jackson County,MO,6.698187549251379
64145,Jackson County,MO,93.19674284213292
64151,Platte County,MO,83.60914105594956
64152,Platte County,MO,41.39742579458891
64155,Clay County,MO,15.2876280535855
64156,Clay County,MO,50.879957972156554
64157,Clay County,MO,23.64066193853428
64468,Nodaway County,MO,84.6073023377988
64477,Clinton County,MO,94.98292618859995
64485,Andrew County,MO,55.37168374047806
64501,Buchanan County,MO,93.66955608090359
64503,Buchanan County,MO,49.35644864722879
64505,Buchanan County,MO,21.880745994221172
64506,Buchanan County,MO,40.2153926976622
64507,Buchanan County,MO,17.36275282374573
64633,Carroll County,MO,84.58103493564487
64776,St. Clair County,MO,96.71657473075913
64850,Newton County,MO,57.10533228263724
65020,Camden County,MO,68.97819805621224
65270,Randolph County,MO,52.613606514315734
65340,Saline County,MO,59.942211715261365
65351,Saline County,MO,98.47649067507224
65605,Lawrence County,MO,70.13396375098503
65608,Douglas County,MO,81.42894667717363
59034,Big Horn County,MT,99.73732597846073
59044,Yellowstone County,MT,90.49120042027845
59425,Pondera County,MT,98.47649067507224
59602,Lewis and Clark County,MT,48.51589177830313
59714,Gallatin County,MT,57.289204097714745
59715,Gallatin County,MT,41.4762280010507
59801,Missoula County,MT,54.29472025216706
68025,Dodge County,NE,25.295508274231675
68105,Douglas County,NE,61.20304701864986
68107,Douglas County,NE,40.5043341213554
68114,Douglas County,NE,73.65379563961125
68123,Sarpy County,NE,56.65878644602049
68124,Douglas County,NE,90.43866561597058
68128,Sarpy County,NE,75.12477016023115
68134,Douglas County,NE,47.5177304964539
68136,Sarpy County,NE,92.6976622012083
68154,Douglas County,NE,78.6708694510113
68164,Douglas County,NE,67.00814289466773
68462,Lancaster County,NE,99.92119779353821
68502,Lancaster County,NE,62.38508011557657
68504,Lancaster County,NE,73.4173890202259
68512,Lancaster County,NE,91.01654846335697
68521,Lancaster County,NE,52.85001313370108
68528,Lancaster County,NE,98.89676910953507
68661,Colfax County,NE,95.56080903598634
68901,Adams County,NE,58.49750459679538
69341,Scotts Bluff County,NE,95.66587864460206
89101,Clark County,NV,19.04386656159706
89103,Clark County,NV,75.09850275807722
89106,Clark County,NV,37.35224586288416
89107,Clark County,NV,41.55503020751248
89108,Clark County,NV,44.89099028106121
89110,Clark County,NV,42.47438928289992
89117,Clark County,NV,58.99658523771999
89120,Clark County,NV,90.17599159443131
89122,Clark County,NV,16.811137378513266
89128,Clark County,NV,40.00525348043079
89129,Clark County,NV,71.946414499605993
89138,Clark County,NV,87.78565799842396
89146,Clark County,NV,75.41371158392435
89148,Clark County,NV,35.35592329918571
89149,Clark County,NV,55.082742316784874
89166,Clark County,NV,54.29472025216706
89408,Lyon County,NV,27.055424218544786
89431,Washoe County,NV,14.15812976096664
89433,Washoe County,NV,64.59154189650643
89434,Washoe County,NV,33.22826372471763
89436,Washoe County,NV,15.313895455739427
89445,Humboldt County,NV,73.33858681376412
89506,Washoe County,NV,11.794063567113213
89509,Washoe County,NV,39.296033622274756
89521,Washoe County,NV,73.1284475965327
89523,Washoe County,NV,75.57131599684791
89706,Carson City,NV,51.95692146046756
03034,Rockingham County,NH,97.42579458891515
03038,Rockingham County,NH,7.433674809561334
03051,Hillsborough County,NH,15.182558444969793
03053,Rockingham County,NH,50.985027580772254
03054,Hillsborough County,NH,22.458628841607563
03055,Hillsborough County,NH,36.56422379826635
03062,Hillsborough County,NH,39.40110323089046
03076,Hillsborough County,NH,34.515366430260045
03079,Rockingham County,NH,9.272392960336223
03087,Rockingham County,NH,39.03335960073549
03102,Hillsborough County,NH,43.262411347517734
03103,Hillsborough County,NH,2.941949041239821
03104,Hillsborough County,NH,7.9852902547938
03301,Merrimack County,NH,10.559495665878645
03461,Cheshire County,NH,93.53821907013396
03801,Rockingham County,NH,41.08221696874179
03820,Strafford County,NH,14.105594956658788
03873,Rockingham County,NH,87.12897294457578
07001,Middlesex County,NJ,84.79117415287628
07002,Hudson County,NJ,0.42027843446283164
07003,Essex County,NJ,24.901497241922772
07004,Essex County,NJ,94.9303913842921
07008,Middlesex County,NJ,17.073811400052534
07020,Bergen County,NJ,81.84922511163646
07028,Essex County,NJ,98.81796690307328
07030,Hudson County,NJ,3.309692671394799
07032,Hudson County,NJ,13.55397951142632
07043,Essex County,NJ,87.3391121618072
07054,Morris County,NJ,41.16101917520357
07055,Passaic County,NJ,5.200945626477541
07060,Union County,NJ,37.61491988442343
07067,Middlesex County,NJ,68.79432624113475
07076,Union County,NJ,93.43314946151825
07083,Union County,NJ,9.797741003414762
07087,Hudson County,NJ,1.3921723141581297
07090,Union County,NJ,72.94457578145521
07093,Hudson County,NJ,18.702390333596007
07107,Essex County,NJ,0.36774363015497763
07201,Union County,NJ,3.8875755187811922
07206,Union County,NJ,22.905174678224324
07304,Hudson County,NJ,23.903335960073548
07405,Morris County,NJ,77.59390596270029
07407,Bergen County,NJ,21.53926976622012
07410,Bergen County,NJ,38.61308116627266
07419,Sussex County,NJ,84.18702390333596
07422,Sussex County,NJ,94.32624113475178
07444,Morris County,NJ,91.80457052797479
07461,Sussex County,NJ,29.813501444707118
07463,Bergen County,NJ,96.76910953506697
07480,Passaic County,NJ,48.41082216968742
07501,Passaic County,NJ,7.64381402679275
07522,Passaic County,NJ,2.3640661938534278
07524,Passaic County,NJ,20.56737588652482
07644,Bergen County,NJ,29.83976884686105
07666,Bergen County,NJ,33.04439190964013
07704,Monmouth County,NJ,97.13685316522196
07712,Monmouth County,NJ,1.3396375098502757
07737,Monmouth County,NJ,98.76543209876543
07747,Monmouth County,NJ,57.68321513002365
07748,Monmouth County,NJ,19.963225636984504
07801,Morris County,NJ,12.293144208037825
07825,Warren County,NJ,86.15707906488048
07860,Sussex County,NJ,17.36275282374573
07871,Sussex County,NJ,46.75597583399002
07924,Somerset County,NJ,97.00551615445232
07928,Morris County,NJ,90.9377462568952
07936,Morris County,NJ,87.36537956396113
07945,Morris County,NJ,90.0709219858156
07950,Morris County,NJ,53.06015235093249
08002,Camden County,NJ,14.210664565274495
08003,Camden County,NJ,17.126346204360388
08012,Camden County,NJ,2.7580772261623325
08015,Burlington County,NJ,9.219858156028367
08016,Burlington County,NJ,11.452587339112162
08034,Camden County,NJ,24.58628841607565
08035,Camden County,NJ,88.5999474651957
08043,Camden County,NJ,33.30706593117941
08046,Burlington County,NJ,18.229577094825324
08053,Burlington County,NJ,16.495928552666143
08054,Burlington County,NJ,47.41266088783819
08069,Salem County,NJ,9.009718938796953
08077,Burlington County,NJ,23.01024428684003
08080,Gloucester County,NJ,6.461780929866036
08085,Gloucester County,NJ,15.89177830312582
08087,Ocean County,NJ,11.610191752035725
08094,Gloucester County,NJ,3.230890464933018
08215,Atlantic County,NJ,25.689519306540582
08234,Atlantic County,NJ,1.8387181507748884
08302,Cumberland County,NJ,0.3940110323089046
08520,Mercer County,NJ,41.81770422905174
08540,Mercer County,NJ,27.34436564223798
08562,Burlington County,NJ,94.27370633044391
08611,Mercer County,NJ,2.442868400315209
08628,Mercer County,NJ,59.127922248489625
08648,Mercer County,NJ,32.54531126871553
08701,Ocean County,NJ,66.16758602574205
08723,Ocean County,NJ,35.749934331494615
08724,Ocean County,NJ,5.095876017861833
08753,Ocean County,NJ,1.050696086157079
08801,Hunterdon County,NJ,79.22248489624376
08807,Somerset County,NJ,20.33096926713948
08831,Middlesex County,NJ,20.830049908064094
08848,Hunterdon County,NJ,91.35802469135803
08854,Middlesex County,NJ,22.274757026530075
08857,Middlesex County,NJ,21.959548200682953
08859,Middlesex County,NJ,40.26792750197006
08861,Middlesex County,NJ,0.5516154452324665
08863,Middlesex County,NJ,59.73207249802994
08865,Warren County,NJ,15.550302075124769
08872,Middlesex County,NJ,46.30942999737326
08873,Somerset County,NJ,34.35776201733648
87052,Sandoval County,NM,91.75203572366692
87105,Bernalillo County,NM,1.7861833464670345
87106,Bernalillo County,NM,13.842920935119515
87107,Bernalillo County,NM,22.85263987391647
87112,Bernalillo County,NM,8.274231678486997
87120,Bernalillo County,NM,5.12214342001576
87121,Bernalillo County,NM,1.99632256369845
87123,Bernalillo County,NM,31.599684791174155
87124,Sandoval County,NM,6.409246125558182
87144,Sandoval County,NM,42.343052272130286
87401,San Juan County,NM,10.76963488311006
87402,San Juan County,NM,81.6916206987129
87410,San Juan County,NM,56.92146046755976
87416,San Juan County,NM,95.7184134489099
87420,San Juan County,NM,54.34725505647492
87505,Santa Fe County,NM,2.416600998161282
87506,Santa Fe County,NM,92.75019700551616
87507,Santa Fe County,NM,23.062779091147885
87532,Santa Fe County,NM,63.619648016811134
87544,Los Alamos County,NM,53.13895455739427
87547,,NM,81.50774888363541
87571,Taos County,NM,46.073023377987916
88001,Doa Ana County,NM,50.01313370107696
88005,Doa Ana County,NM,88.36354084581035
88011,Doa Ana County,NM,43.420015760441295
88021,Doa Ana County,NM,70.00262674021539
88101,Curry County,NM,5.2534804307853955
88203,Chaves County,NM,12.188074599422118
88240,Lea County,NM,35.11951667980037
88242,Lea County,NM,71.47360126083531
10003,New York County,NY,42.42185447859207
10024,New York County,NY,75.54504859469398
10026,New York County,NY,68.4528500131337
10027,New York County,NY,15.734173890202257
10031,New York County,NY,22.957709482532177
10032,New York County,NY,27.2655634357762
10033,New York County,NY,37.03703703703704
10039,New York County,NY,55.266614131862354
10040,New York County,NY,22.77383766745469
10065,New York County,NY,86.05200945626478
10301,Richmond County,NY,9.613869188337274
10310,Richmond County,NY,70.44917257683215
10451,Bronx County,NY,10.506960861570791
10452,Bronx County,NY,26.897819805621225
10453,Bronx County,NY,58.05095876017862
10455,Bronx County,NY,29.472025216706065
10456,Bronx County,NY,29.760966640399268
10457,Bronx County,NY,8.326766482794852
10458,Bronx County,NY,30.785395324402415
10460,Bronx County,NY,0.7880220646178092
10461,Bronx County,NY,29.86603624901497
10463,Bronx County,NY,21.04018912529551
10465,Bronx County,NY,54.71499868662989
10467,Bronx County,NY,0.21013921723141582
10468,Bronx County,NY,26.24113475177305
10472,Bronx County,NY,8.51063829787234
10474,Bronx County,NY,79.24875229839769
10538,Westchester County,NY,97.29445757814553
10547,Westchester County,NY,89.30916732335173
10573,Westchester County,NY,59.73207249802994
10605,Westchester County,NY,95.2193328079853
10701,Westchester County,NY,0.5778828473863935
10923,Rockland County,NY,95.40320462306278
10950,Orange County,NY,96.66403992645127
10952,Rockland County,NY,95.48200682952455
10960,Rockland County,NY,81.14000525348042
10977,Rockland County,NY,91.09535066981876
11003,Nassau County,NY,78.72340425531915
11021,Nassau County,NY,95.63961124244813
11040,Nassau County,NY,79.11741528762806
11096,Nassau County,NY,98.87050170738114
11101,Queens County,NY,46.78224323614394
11106,Queens County,NY,86.57735749934331
11201,Kings County,NY,13.291305489887051
11204,Kings County,NY,52.35093249277647
11205,Kings County,NY,31.17940635671132
11206,Kings County,NY,35.46099290780142
11207,Kings County,NY,7.512477016023116
11208,Kings County,NY,56.55371683740478
11210,Kings County,NY,32.62411347517731
11211,Kings County,NY,76.7270816916207
11212,Kings County,NY,3.8875755187811922
11213,Kings County,NY,32.597846073023376
11214,Kings County,NY,91.41055949566588
11218,Kings County,NY,71.7625426845285
11219,Kings County,NY,91.90964013659048
11220,Kings County,NY,73.44365642237982
11222,Kings County,NY,51.090097189387976
11223,Kings County,NY,13.396375098502759
11226,Kings County,NY,12.976096664039927
11228,Kings County,NY,93.53821907013396
11230,Kings County,NY,95.45573942737063
11233,Kings County,NY,29.971105857630683
11234,Kings County,NY,62.62148673496192
11237,Kings County,NY,47.28132387706856
11354,Queens County,NY,89.88705017073812
11355,Queens County,NY,51.2214342001576
11357,Queens County,NY,88.4160756501182
11361,Queens County,NY,93.48568426582611
11368,Queens County,NY,53.82190701339638
11374,Queens County,NY,61.38691883372734
11377,Queens County,NY,37.93012871027056
11378,Queens County,NY,82.68978198056213
11385,Queens County,NY,76.77961649592855
11416,Queens County,NY,72.26162332545312
11418,Queens County,NY,69.18833727344365
11419,Queens County,NY,80.06304176516943
11421,Queens County,NY,58.313632781717885
11426,Queens County,NY,92.96033622274757
11428,Queens County,NY,83.03125820856317
11432,Queens County,NY,86.31468347780404
11434,Queens County,NY,68.50538481744155
11520,Nassau County,NY,83.97688468610454
11550,Nassau County,NY,79.95797215655371
11575,Nassau County,NY,24.95403204623063
11580,Nassau County,NY,88.91515629104282
11598,Nassau County,NY,92.96033622274757
11691,Queens County,NY,4.701864985552929
11692,Queens County,NY,85.86813764118729
11706,Suffolk County,NY,65.45836616758602
11710,Nassau County,NY,58.94405043341213
11717,Suffolk County,NY,73.62752823745731
11720,Suffolk County,NY,87.28657735749934
11726,Suffolk County,NY,69.1358024691358
11727,Suffolk County,NY,90.49120042027845
11746,Suffolk County,NY,39.42737063304439
11777,Suffolk County,NY,96.82164433937484
12020,Saratoga County,NY,12.371946414499606
12047,Albany County,NY,19.437877593905963
12065,Saratoga County,NY,15.81297609666404
12068,Montgomery County,NY,97.03178355660626
12095,Fulton County,NY,33.91121618071973
12122,Schoharie County,NY,87.86446020488575
12186,Albany County,NY,97.79353821907013
12189,Albany County,NY,29.99737325978461
12196,Rensselaer County,NY,99.00183871815076
12202,Albany County,NY,50.09193590753874
12209,Albany County,NY,84.71237194641449
12303,Schenectady County,NY,63.06803257157867
12304,Schenectady County,NY,53.97951142631994
12306,Schenectady County,NY,22.616233254531124
12309,Schenectady County,NY,65.09062253743106
12401,Ulster County,NY,13.317572892040976
12498,Ulster County,NY,99.55345416338324
12542,Ulster County,NY,98.92303651168899
12553,Orange County,NY,89.12529550827422
12563,Putnam County,NY,94.48384554767534
12564,Dutchess County,NY,93.14420803782507
12601,Dutchess County,NY,19.72681901759916
12701,Sullivan County,NY,82.92618859994747
12733,Sullivan County,NY,99.94746519569215
12771,Orange County,NY,60.83530338849488
12816,Washington County,NY,83.451536643026
12833,Saratoga County,NY,87.65432098765432
12916,Franklin County,NY,86.49855529288153
13021,Cayuga County,NY,25.53191489361702
13031,Onondaga County,NY,33.30706593117941
13034,Cayuga County,NY,96.03362227475702
13035,Madison County,NY,80.66719201470974
13039,Onondaga County,NY,33.80614657210402
13041,Onondaga County,NY,86.7612293144208
13044,Oswego County,NY,94.37877593905962
13045,Cortland County,NY,1.7599159443131074
13066,Onondaga County,NY,60.17861833464671
13069,Oswego County,NY,2.495403204623063
13090,Onondaga County,NY,36.32781717888101
13104,Onondaga County,NY,86.73496191226687
13120,Onondaga County,NY,97.81980562122406
13126,Oswego County,NY,12.529550827423167
13132,Oswego County,NY,92.14604675597583
13140,Cayuga County,NY,78.77593905962699
13142,Oswego County,NY,61.09797741003414
13143,Wayne County,NY,92.17231415812977
13165,Seneca County,NY,50.696086157079066
13205,Onondaga County,NY,52.66614131862358
13207,Onondaga County,NY,20.98765432098765
13209,Onondaga County,NY,35.85500394011032
13212,Onondaga County,NY,55.63435776201734
13215,Onondaga County,NY,40.76700814289467
13219,Onondaga County,NY,77.90911478854741
13323,Oneida County,NY,60.94037299711058
13367,Lewis County,NY,63.750985027580775
13421,Madison County,NY,47.386393485684266
13440,Oneida County,NY,20.17336485421592
13480,Oneida County,NY,87.96952981350145
13492,Oneida County,NY,82.84738639348569
13493,Oswego County,NY,94.53638035198318
13668,St. Lawrence County,NY,91.64696611505121
13676,St. Lawrence County,NY,22.353559232991856
13736,Tioga County,NY,95.16679800367743
13743,Tioga County,NY,92.19858156028369
13820,Otsego County,NY,25.63698450223273
13827,Tioga County,NY,76.85841870239032
13901,Broome County,NY,1.7336485421591805
14004,Erie County,NY,81.24507486209613
14024,Wyoming County,NY,96.45390070921985
14031,Erie County,NY,79.48515891778302
14043,Erie County,NY,22.983976884686104
14051,Erie County,NY,66.1150512214342
14054,Genesee County,NY,97.3732597846073
14055,Erie County,NY,99.36958234830576
14059,Erie County,NY,63.38324139742579
14065,Cattaraugus County,NY,97.5571315996848
14068,Erie County,NY,88.5999474651957
14072,Erie County,NY,66.27265563435776
14075,Erie County,NY,4.649330181245075
14086,Erie County,NY,42.05411084843709
14094,Niagara County,NY,45.20619910690833
14120,Niagara County,NY,2.1539269766220124
14125,Genesee County,NY,82.13816653532966
14127,Erie County,NY,9.141055949566587
14145,Wyoming County,NY,98.92303651168899
14150,Erie County,NY,2.9156816390858946
14206,Erie County,NY,32.519043866561596
14211,Erie County,NY,23.35172051484108
14216,Erie County,NY,18.75492513790386
14217,Erie County,NY,49.06750722353559
14220,Erie County,NY,53.690570002626735
14223,Erie County,NY,51.98318886262149
14224,Erie County,NY,2.6004728132387704
14225,Erie County,NY,23.509324927764645
14226,Erie County,NY,20.593643288678752
14228,Erie County,NY,70.37037037037037
14304,Niagara County,NY,2.206461780929866
14305,Niagara County,NY,2.5479380089309167
14411,Orleans County,NY,18.124507486209616
14414,Livingston County,NY,53.71683740478067
14420,Monroe County,NY,9.351195166798004
14424,Ontario County,NY,10.16548463356974
14425,Ontario County,NY,10.900971893879694
14450,Monroe County,NY,1.2345679012345678
14456,Ontario County,NY,3.7825059101654848
14468,Monroe County,NY,59.25925925925925
14470,Orleans County,NY,35.61859732072498
14482,Genesee County,NY,40.92461255581823
14505,Wayne County,NY,53.21775676385605
14519,Wayne County,NY,45.836616758602574
14522,Wayne County,NY,23.483057525610718
14527,Yates County,NY,17.783031258208563
14532,Ontario County,NY,44.36564223798266
14534,Monroe County,NY,18.886262148673495
14559,Monroe County,NY,6.277909114788548
14561,Ontario County,NY,76.3330706593118
14564,Ontario County,NY,40.97714736012608
14569,Wyoming County,NY,57.42054110848437
14580,Monroe County,NY,37.74625689519306
14586,Monroe County,NY,22.77383766745469
14589,Wayne County,NY,24.87522983976885
14606,Monroe County,NY,10.323089046493301
14609,Monroe County,NY,2.25899658523772
14611,Monroe County,NY,19.674284213291305
14612,Monroe County,NY,0.9193590753874442
14616,Monroe County,NY,1.4184397163120568
14617,Monroe County,NY,3.204623062779091
14618,Monroe County,NY,10.218019437877594
14619,Monroe County,NY,33.832413974257946
14620,Monroe County,NY,2.9682164433937483
14621,Monroe County,NY,8.878381928027318
14622,Monroe County,NY,15.839243498817968
14623,Monroe County,NY,58.55003940110323
14624,Monroe County,NY,1.155765694772787
14625,Monroe County,NY,71.26346204360388
14626,Monroe County,NY,11.03230890464933
14701,Chautauqua County,NY,23.824533753611767
14711,Allegany County,NY,95.9022852639874
14719,Cattaraugus County,NY,94.82532177567639
14741,Cattaraugus County,NY,98.47649067507224
14806,Allegany County,NY,93.69582348305752
14810,Steuben County,NY,22.090885211452587
14814,Chemung County,NY,96.71657473075913
14823,Steuben County,NY,75.88652482269504
14830,Steuben County,NY,15.760441292356187
14843,Steuben County,NY,13.764118728657737
14845,Chemung County,NY,36.40661938534279
14867,Tompkins County,NY,52.193328079852904
14870,Steuben County,NY,80.77226162332545
14904,Chemung County,NY,51.090097189387976
27028,Davie County,NC,34.62043603887576
27043,Stokes County,NC,80.77226162332545
27107,Forsyth County,NC,1.8649855529288155
27127,Forsyth County,NC,8.668242710795901
27203,Randolph County,NC,50.03940110323089
27215,Alamance County,NC,5.542421854478592
27260,Guilford County,NC,14.788547412660888
27263,Randolph County,NC,33.64854215918046
27265,Guilford County,NC,12.50328342526924
27284,Forsyth County,NC,3.493564486472288
27299,Davidson County,NC,85.02758077226163
27302,Alamance County,NC,53.87444181770423
27317,Randolph County,NC,43.78775939059627
27330,Lee County,NC,14.447071184659837
27332,Lee County,NC,27.528237457315473
27349,Alamance County,NC,75.43997898607829
27350,Randolph County,NC,90.72760703966378
27360,Davidson County,NC,1.6285789335434726
27403,Guilford County,NC,60.15235093249278
27455,Guilford County,NC,38.875755187811926
27501,Harnett County,NC,42.00157604412924
27504,Johnston County,NC,53.349093774625686
27516,Orange County,NC,21.302863146834778
27520,Johnston County,NC,22.406094037299713
27526,Wake County,NC,17.940635671132124
27529,Wake County,NC,48.09561334384029
27530,Wayne County,NC,8.747044917257684
27534,Wayne County,NC,24.95403204623063
27536,Vance County,NC,19.332807985290255
27537,Vance County,NC,77.75151037562385
27539,Wake County,NC,49.40898345153664
27540,Wake County,NC,34.93564486472288
27546,Harnett County,NC,51.64171263462044
27560,Wake County,NC,69.34594168636721
27576,Johnston County,NC,47.570265300761754
27577,Johnston County,NC,34.016285789335434
27607,Wake County,NC,82.58471237194641
27609,Wake County,NC,25.768321513002363
27612,Wake County,NC,48.69976359338061
27705,Durham County,NC,14.263199369582349
27801,Edgecombe County,NC,64.03992645127397
27804,Nash County,NC,24.087207775151036
27809,Nash County,NC,95.98108747044918
27830,Wayne County,NC,96.63777252429735
27834,Pitt County,NC,3.6249014972419227
27863,Wayne County,NC,82.87365379563961
27870,Halifax County,NC,14.998686629892305
27886,Edgecombe County,NC,26.214867349619126
27889,Beaufort County,NC,21.329130548988708
27909,Pasquotank County,NC,7.328605200945626
27958,Currituck County,NC,95.2193328079853
28001,Stanly County,NC,21.82821118991332
28012,Gaston County,NC,53.29655897031783
28027,Cabarrus County,NC,39.79511426319937
28031,Mecklenburg County,NC,50.17073811400052
28034,Gaston County,NC,33.35960073548726
28036,Mecklenburg County,NC,78.27685841870239
28037,Lincoln County,NC,53.29655897031783
28040,Rutherford County,NC,79.85290254793802
28054,Gaston County,NC,41.029682164433936
28078,Mecklenburg County,NC,21.749408983451538
28079,Union County,NC,37.063304439190965
28092,Lincoln County,NC,14.841082216968744
28098,Gaston County,NC,97.13685316522196
28105,Mecklenburg County,NC,49.82926188599948
28112,Union County,NC,83.84554767533491
28115,Iredell County,NC,13.764118728657737
28117,Iredell County,NC,20.698712897294456
28139,Rutherford County,NC,26.92408720777515
28144,Rowan County,NC,24.376149198844235
28173,Union County,NC,28.710270554242186
28205,Mecklenburg County,NC,12.608353033884947
28208,Mecklenburg County,NC,24.691358024691358
28209,Mecklenburg County,NC,78.01418439716312
28210,Mecklenburg County,NC,87.10270554242186
28212,Mecklenburg County,NC,16.364591541896505
28213,Mecklenburg County,NC,49.67165747307591
28215,Mecklenburg County,NC,35.09324927764644
28217,Mecklenburg County,NC,74.2054110848437
28227,Mecklenburg County,NC,12.634620436038876
28269,Mecklenburg County,NC,7.670081428946678
28277,Mecklenburg County,NC,31.415812976096664
28303,Cumberland County,NC,45.23246650906225
28312,Cumberland County,NC,55.29288153401628
28334,Sampson County,NC,18.308379301287104
28352,Scotland County,NC,16.837404780667192
28358,Robeson County,NC,36.61675860257421
28376,Hoke County,NC,20.724980299448383
28401,New Hanover County,NC,5.831363278171789
28403,New Hanover County,NC,80.29944838455478
28409,New Hanover County,NC,29.550827423167846
28411,New Hanover County,NC,26.47754137115839
28412,New Hanover County,NC,9.272392960336223
28451,Brunswick County,NC,19.779353821907016
28462,Brunswick County,NC,46.073023377987916
28472,Columbus County,NC,26.45127396900446
28532,Craven County,NC,63.25190438665616
28546,Onslow County,NC,49.19884423430523
28557,Carteret County,NC,73.9164696611505
28560,Craven County,NC,19.62174940898345
28590,Pitt County,NC,51.85185185185185
28601,Catawba County,NC,8.353033884948777
28638,Caldwell County,NC,43.577620173364856
28645,Caldwell County,NC,27.922248489624373
28655,Burke County,NC,2.6267402153926978
28657,Avery County,NC,59.28552666141319
28694,Ashe County,NC,87.89072760703966
28715,Buncombe County,NC,38.14026792750197
28723,Jackson County,NC,89.49303913842921
28734,Macon County,NC,10.375623850801157
28748,Buncombe County,NC,51.5103756238508
28771,Graham County,NC,66.24638823220383
28779,Jackson County,NC,88.28473863934857
28792,Henderson County,NC,21.670606776989757
28904,Clay County,NC,88.2322038350407
58078,Cass County,ND,49.27764644076701
58301,Ramsey County,ND,61.702127659574465
58503,Burleigh County,ND,23.404255319148938
58504,Burleigh County,ND,43.577620173364856
58554,Morton County,ND,26.39873916469661
58601,Stark County,ND,33.07065931179407
43004,Franklin County,OH,31.31074336748096
43017,Franklin County,OH,52.00945626477541
43026,Franklin County,OH,12.739690044654584
43028,Knox County,OH,90.2547938008931
43055,Licking County,OH,6.803257157867088
43061,Delaware County,OH,99.31704754399789
43068,Franklin County,OH,5.463619648016811
43074,Delaware County,OH,74.5731547149987
43081,Franklin County,OH,14.52587339112162
43085,Franklin County,OH,56.7638560546362
43105,Fairfield County,OH,77.83031258208564
43119,Franklin County,OH,15.9705805095876
43123,Franklin County,OH,20.751247701602313
43130,Fairfield County,OH,0.6304176516942475
43138,Hocking County,OH,20.646178092986602
43140,Madison County,OH,26.635145784081953
43147,Fairfield County,OH,16.023115313895456
43160,Fayette County,OH,32.440241660099815
43204,Franklin County,OH,2.574205411084844
43206,Franklin County,OH,65.53716837404781
43207,Franklin County,OH,0.6566850538481744
43211,Franklin County,OH,6.1465721040189125
43213,Franklin County,OH,5.279747832939322
43214,Franklin County,OH,37.825059101654844
43219,Franklin County,OH,34.751773049645394
43222,Franklin County,OH,77.38376674546888
43228,Franklin County,OH,1.5497767270816916
43229,Franklin County,OH,36.301549776727086
43230,Franklin County,OH,9.692671394799055
43231,Franklin County,OH,35.1457840819543
43232,Franklin County,OH,13.054898870501708
43420,Sandusky County,OH,47.228789072760705
43450,Wood County,OH,97.6622012083005
43460,Wood County,OH,72.57683215130024
43528,Lucas County,OH,29.524560021013922
43551,Wood County,OH,32.57157867086945
43605,Lucas County,OH,9.324927764644077
43609,Lucas County,OH,2.337798791699501
43612,Lucas County,OH,14.105594956658788
43613,Lucas County,OH,1.5760441292356184
43623,Lucas County,OH,17.415287628053587
43713,Belmont County,OH,50.22327291830838
43725,Guernsey County,OH,8.930916732335172
43764,Perry County,OH,86.41975308641975
43812,Coshocton County,OH,2.52167060677699
43832,Tuscarawas County,OH,50.17073811400052
43906,Belmont County,OH,36.984502232729184
43912,Belmont County,OH,43.682689781980564
43920,Columbiana County,OH,5.04334121355398
43952,Jefferson County,OH,4.045179931704754
43968,Columbiana County,OH,39.03335960073549
44004,Ashtabula County,OH,0.9456264775413712
44052,Lorain County,OH,1.1820330969267139
44055,Lorain County,OH,4.806934594168637
44070,Cuyahoga County,OH,46.04675597583399
44076,Ashtabula County,OH,73.1284475965327
44090,Lorain County,OH,49.67165747307591
44102,Cuyahoga County,OH,5.805095876017862
44103,Cuyahoga County,OH,44.28684003152088
44105,Cuyahoga County,OH,9.587601786183345
44109,Cuyahoga County,OH,0.15760441292356187
44111,Cuyahoga County,OH,0.4990806409246125
44112,Cuyahoga County,OH,4.307853953244025
44113,Cuyahoga County,OH,4.176516942474389
44114,Cuyahoga County,OH,21.880745994221172
44118,Cuyahoga County,OH,49.40898345153664
44126,Cuyahoga County,OH,39.978986078276854
44129,Cuyahoga County,OH,8.825847123719464
44130,Cuyahoga County,OH,2.127659574468085
44131,Cuyahoga County,OH,32.30890464933018
44133,Cuyahoga County,OH,17.677961649592856
44137,Cuyahoga County,OH,2.8631468347780404
44142,Cuyahoga County,OH,18.124507486209616
44203,Summit County,OH,3.0470186498555294
44221,Summit County,OH,8.61570790648805
44236,Summit County,OH,43.577620173364856
44256,Medina County,OH,28.60520094562648
44260,Portage County,OH,86.13081166272656
44266,Portage County,OH,4.990806409246126
44281,Medina County,OH,14.263199369582349
44305,Summit County,OH,8.064092461255582
44310,Summit County,OH,6.015235093249278
44314,Summit County,OH,17.46782243236144
44319,Summit County,OH,39.45363803519832
44320,Summit County,OH,10.454426057262936
44406,Mahoning County,OH,45.54767533490938
44428,Trumbull County,OH,98.6340950879958
44460,Columbiana County,OH,13.02863146834778
44481,Trumbull County,OH,17.756763856054636
44484,Trumbull County,OH,19.12266876805884
44485,Trumbull County,OH,10.664565274494354
44505,Mahoning County,OH,56.02836879432624
44515,Mahoning County,OH,26.37247176254268
44621,Tuscarawas County,OH,86.99763593380615
44663,Tuscarawas County,OH,52.16706067769897
44691,Wayne County,OH,20.882584712371948
44703,Stark County,OH,39.55870764381403
44705,Stark County,OH,68.24271079590228
44708,Stark County,OH,18.439716312056735
44820,Crawford County,OH,45.25873391121618
44830,Seneca County,OH,11.006041502495403
44839,Erie County,OH,45.8628841607565
44857,Huron County,OH,14.6046755975834
44870,Erie County,OH,7.722616233254531
44889,Huron County,OH,78.51326503808774
44904,Richland County,OH,74.04780667192014
45011,Butler County,OH,1.0769634883110062
45039,Warren County,OH,37.69372209088521
45040,Warren County,OH,56.29104281586551
45042,Butler County,OH,41.71263462043604
45044,Butler County,OH,59.968479117415285
45069,Butler County,OH,14.841082216968744
45103,Clermont County,OH,50.617283950617285
45118,Brown County,OH,99.84239558707644
45133,Highland County,OH,13.081166272655635
45169,Clinton County,OH,70.71184659837142
45202,Hamilton County,OH,12.582085631731022
45204,Hamilton County,OH,81.32387706855792
45205,Hamilton County,OH,14.263199369582349
45208,Hamilton County,OH,96.42763330706593
45216,Hamilton County,OH,47.07118465983714
45224,Hamilton County,OH,13.711583924349883
45231,Hamilton County,OH,4.281586551090097
45238,Hamilton County,OH,53.92697662201208
45244,Hamilton County,OH,41.05594956658786
45251,Hamilton County,OH,41.4762280010507
45304,Darke County,OH,95.82348305752562
45311,Preble County,OH,84.34462831625952
45331,Darke County,OH,69.50354609929079
45335,Greene County,OH,90.04465458366168
45342,Montgomery County,OH,6.3304439190964015
45365,Shelby County,OH,30.49645390070922
45368,Clark County,OH,88.04833201996323
45373,Miami County,OH,3.441029682164434
45377,Montgomery County,OH,62.56895193065406
45380,Darke County,OH,98.05621224060941
45403,Montgomery County,OH,26.608878381928026
45406,Montgomery County,OH,34.72550564749146
45420,Montgomery County,OH,17.31021801943788
45424,Montgomery County,OH,27.396900446545835
45431,Montgomery County,OH,69.73995271867612
45432,Greene County,OH,62.8053585500394
45439,Montgomery County,OH,40.294194904123984
45440,Montgomery County,OH,51.14263199369582
45449,Montgomery County,OH,25.400577882847386
45459,Montgomery County,OH,52.692408720777514
45503,Clark County,OH,3.9926451273969
45506,Clark County,OH,74.73075912792225
45628,Ross County,OH,80.90359863409509
45631,Gallia County,OH,6.015235093249278
45679,Adams County,OH,96.34883110060414
45693,Adams County,OH,38.061465721040186
45694,Scioto County,OH,19.12266876805884
45714,Washington County,OH,11.242448121880747
45729,Washington County,OH,98.29261885999475
45801,Allen County,OH,6.724454951405306
45817,Allen County,OH,82.03309692671394
45822,Mercer County,OH,61.99106908326767
45833,Allen County,OH,53.21775676385605
45840,Hancock County,OH,1.208300499080641
45872,Wood County,OH,93.69582348305752
45891,Van Wert County,OH,20.199632256369846
73010,McClain County,OK,70.31783556606251
73012,Oklahoma County,OK,37.53611767796165
73025,Oklahoma County,OK,62.437614919884425
73044,Logan County,OK,41.08221696874179
73055,Stephens County,OK,88.0220646178093
75036,NA,NA,92.40872077751511
73064,Canadian County,OK,40.00525348043079
73069,Cleveland County,OK,57.10533228263724
73071,Cleveland County,OK,15.602836879432624
73084,Oklahoma County,OK,74.31048069345941
73086,Murray County,OK,63.19936958234831
73096,Custer County,OK,56.7638560546362
73105,Oklahoma County,OK,91.30548988705017
73106,Oklahoma County,OK,63.829787234042556
73108,Oklahoma County,OK,57.07906488048332
73109,Oklahoma County,OK,55.897031783556606
73112,Oklahoma County,OK,25.952193328079854
73117,Oklahoma County,OK,89.91331757289204
73119,Oklahoma County,OK,45.915418965064354
73127,Oklahoma County,OK,40.16285789335435
73130,Oklahoma County,OK,81.32387706855792
73132,Oklahoma County,OK,44.89099028106121
73142,Oklahoma County,OK,77.25242973469923
73159,Oklahoma County,OK,34.93564486472288
73170,Cleveland County,OK,21.98581560283688
73401,Carter County,OK,7.853953244024166
73443,Carter County,OK,90.30732860520094
73505,Comanche County,OK,66.06251641712635
73644,Beckham County,OK,46.966115051221436
73703,Garfield County,OK,41.94904123982138
74003,Osage County,OK,55.818229577094826
74006,Washington County,OK,45.12739690044655
74017,Rogers County,OK,33.38586813764119
74021,Tulsa County,OK,63.80351983188862
74063,Tulsa County,OK,78.61833464670343
74066,Creek County,OK,56.18597320724981
74107,Tulsa County,OK,53.63803519831889
74115,Tulsa County,OK,29.26188599947465
74128,Tulsa County,OK,71.05332282637247
74129,Tulsa County,OK,45.36380351983189
74133,Tulsa County,OK,21.434200157604412
74136,Tulsa County,OK,77.33123194116102
74145,Tulsa County,OK,58.91778303125821
74146,Tulsa County,OK,84.18702390333596
74338,Delaware County,OK,96.24376149198845
74354,Ottawa County,OK,42.71079590228526
74403,Muskogee County,OK,58.0246913580247
74429,Wagoner County,OK,72.57683215130024
74467,Wagoner County,OK,81.06120304701865
74578,Latimer County,OK,95.56080903598634
74701,Bryan County,OK,51.58917783031258
74834,Lincoln County,OK,87.83819280273181
74868,Seminole County,OK,62.516417126346205
74872,Garvin County,OK,95.32440241660099
74948,Sequoyah County,OK,54.741266088783824
97007,Washington County,OR,58.156028368794324
97027,Clackamas County,OR,73.78513265038087
97030,Multnomah County,OR,10.927239296033623
97031,Hood River County,OR,62.06987128972945
97032,Marion County,OR,99.1331757289204
97038,Clackamas County,OR,60.021013921723146
97045,Clackamas County,OR,8.720777515103755
97058,Wasco County,OR,30.154977672708167
97068,Clackamas County,OR,57.368006304176525
97070,Clackamas County,OR,52.85001313370108
97071,Marion County,OR,46.86104544260573
97080,Multnomah County,OR,16.390858944050432
97086,Clackamas County,OR,43.262411347517734
97089,Clackamas County,OR,77.38376674546888
97103,Clatsop County,OR,44.70711846598371
97124,Washington County,OR,50.774888363540846
97128,Yamhill County,OR,39.69004465458366
97140,Washington County,OR,77.9879169950092
97141,Tillamook County,OR,54.92513790386131
97202,Multnomah County,OR,18.571053322826373
97205,Multnomah County,OR,80.22064617809299
97209,Multnomah County,OR,27.73837667454689
97210,Multnomah County,OR,69.84502232729183
97211,Multnomah County,OR,33.56973995271868
97212,Multnomah County,OR,55.87076438140268
97214,Multnomah County,OR,66.37772524297347
97217,Multnomah County,OR,80.74599422117153
97219,Multnomah County,OR,80.53585500394011
97222,Clackamas County,OR,20.383504071447334
97223,Washington County,OR,19.20147097452062
97229,Washington County,OR,61.07171000788022
97230,Multnomah County,OR,15.130023640661939
97232,Multnomah County,OR,78.09298660362491
97233,Multnomah County,OR,57.10533228263724
97236,Multnomah County,OR,12.319411610191752
97301,Marion County,OR,51.74678224323615
97302,Marion County,OR,32.67664827948516
97303,Marion County,OR,31.074336748095615
97304,Polk County,OR,47.46519569214605
97306,Marion County,OR,46.808510638297875
97321,Linn County,OR,18.360914105594954
97322,Linn County,OR,7.880220646178094
97330,Benton County,OR,40.39926451273969
97333,Benton County,OR,59.20672445495141
97355,Linn County,OR,6.77698975571316
97401,Lane County,OR,29.10428158655109
97402,Lane County,OR,12.844759653270291
97411,Coos County,OR,77.14736012608353
97420,Coos County,OR,39.11216180719727
97478,Lane County,OR,27.659574468085108
97479,Douglas County,OR,64.9330181245075
97501,Jackson County,OR,4.754399789860782
97502,Jackson County,OR,29.2093511951668
97504,Jackson County,OR,43.07853953244024
97525,Jackson County,OR,96.84791174152876
97601,Klamath County,OR,38.061465721040186
97701,Deschutes County,OR,51.799317047544
97702,Deschutes County,OR,33.70107696348831
97707,Deschutes County,OR,98.13501444707119
97801,Umatilla County,OR,25.08536905700026
97838,Umatilla County,OR,10.95350669818755
97850,Union County,OR,29.419490412398215
97914,Malheur County,OR,15.681639085894405
15014,Allegheny County,PA,98.39768846861045
15061,Beaver County,PA,52.27213028631469
15062,Westmoreland County,PA,80.50958760178618
15063,Washington County,PA,54.662463882322044
15074,Beaver County,PA,55.897031783556606
15085,Westmoreland County,PA,85.76306803257158
15106,Allegheny County,PA,78.40819542947203
15110,Allegheny County,PA,77.06855791962175
15129,Allegheny County,PA,74.31048069345941
15131,Allegheny County,PA,88.7050170738114
15132,Allegheny County,PA,29.44575781455214
15202,Allegheny County,PA,41.292356185973205
15205,Allegheny County,PA,36.56422379826635
15216,Allegheny County,PA,45.94168636721828
15221,Allegheny County,PA,10.979774100341476
15227,Allegheny County,PA,27.370633044391912
15235,Allegheny County,PA,12.319411610191752
15236,Allegheny County,PA,70.63304439190964
15237,Allegheny County,PA,38.2716049382716
15301,Washington County,PA,3.178355660625164
15317,Washington County,PA,19.963225636984504
15367,Washington County,PA,92.09351195166798
15425,Fayette County,PA,20.98765432098765
15522,Bedford County,PA,54.92513790386131
15530,Somerset County,PA,91.01654846335697
15537,Bedford County,PA,91.90964013659048
15601,Westmoreland County,PA,28.31625952193328
15610,Westmoreland County,PA,97.42579458891515
15656,Westmoreland County,PA,66.64039926451274
15701,Indiana County,PA,13.711583924349883
15767,Jefferson County,PA,18.83372734436564
15825,Jefferson County,PA,34.173890202258995
15857,Elk County,PA,16.995009193590754
15902,Cambria County,PA,32.67664827948516
15963,Somerset County,PA,58.1297609666404
16105,Lawrence County,PA,48.51589177830313
16125,Mercer County,PA,27.10795902285264
16201,Armstrong County,PA,21.696874179143684
16226,Armstrong County,PA,61.28184922511164
16316,Crawford County,PA,79.01234567901234
16335,Crawford County,PA,6.120304701864986
16417,Erie County,PA,75.7551878119254
16502,Erie County,PA,32.96558970317835
16504,Erie County,PA,80.77226162332545
16508,Erie County,PA,41.60756501182033
16601,Blair County,PA,5.0696086157079066
16602,Blair County,PA,7.801418439716312
16652,Huntingdon County,PA,29.2093511951668
16686,Blair County,PA,48.75229839768847
16823,Centre County,PA,13.895455739427371
16827,Centre County,PA,91.80457052797479
16830,Clearfield County,PA,19.2802731809824
16901,Tioga County,PA,60.62516417126346
17003,Lebanon County,PA,70.50170738114001
17011,Cumberland County,PA,17.2314158129761
17020,Perry County,PA,75.22983976884686
17038,Lebanon County,PA,67.58602574205412
17046,Lebanon County,PA,5.306015235093249
17050,Cumberland County,PA,14.893617021276595
17055,Cumberland County,PA,19.648016811137378
17061,Dauphin County,PA,93.64328867874967
17067,Lebanon County,PA,56.44864722878907
17070,Cumberland County,PA,68.74179143682689
17109,Dauphin County,PA,16.653532965589704
17110,Dauphin County,PA,9.48253217756764
17112,Dauphin County,PA,10.717100078802206
17201,Franklin County,PA,6.067769897557131
17225,Franklin County,PA,47.59653270291568
17257,Cumberland County,PA,15.760441292356187
17314,York County,PA,97.74100341476229
17320,Adams County,PA,90.17599159443131
17331,York County,PA,3.65116889939585
17340,Adams County,PA,64.25006566850539
17362,York County,PA,60.7565011820331
17368,York County,PA,70.50170738114001
17370,York County,PA,89.44050433412136
17402,York County,PA,11.89913317572892
17403,York County,PA,1.287102705542422
17404,York County,PA,64.11872865773574
17512,Lancaster County,PA,91.725768321513
17540,Lancaster County,PA,73.04964539007092
17552,Lancaster County,PA,28.762805358550043
17566,Lancaster County,PA,99.39584975045967
17601,Lancaster County,PA,24.74389282899921
17603,Lancaster County,PA,5.174678224323614
17701,Lycoming County,PA,2.0751247701602313
17740,Lycoming County,PA,40.63567113212503
17745,Clinton County,PA,64.77541371158392
17751,Clinton County,PA,65.40583136327817
17752,Lycoming County,PA,88.91515629104282
17815,Columbia County,PA,10.270554242185447
17847,Northumberland County,PA,83.3464670344103
17870,Snyder County,PA,37.220908852114526
17901,Schuylkill County,PA,48.962437614919885
17931,Schuylkill County,PA,72.70816916206986
18015,Northampton County,PA,4.649330181245075
18036,Lehigh County,PA,60.20488573680063
18042,Northampton County,PA,60.388757551878115
18102,Lehigh County,PA,4.491725768321513
18222,Luzerne County,PA,78.90727607039663
18301,Monroe County,PA,24.9277646440767
18302,Monroe County,PA,42.29051746782243
18444,Lackawanna County,PA,48.804833201996324
18466,Monroe County,PA,45.44260572629367
18505,Lackawanna County,PA,31.99369582348306
18508,Lackawanna County,PA,80.16811137378514
18634,Luzerne County,PA,67.34961912266877
18651,Luzerne County,PA,60.021013921723146
18702,Luzerne County,PA,4.0189125295508275
18706,Luzerne County,PA,28.657735749934332
18801,Susquehanna County,PA,72.76070396637773
18847,Susquehanna County,PA,88.2322038350407
18944,Bucks County,PA,43.73522458628842
18951,Bucks County,PA,40.8983451536643
18966,Bucks County,PA,37.562385080115575
18969,Montgomery County,PA,83.92434988179669
18974,Bucks County,PA,44.838455476753346
19001,Montgomery County,PA,45.96795376937221
19002,Montgomery County,PA,27.13422642500657
19007,Bucks County,PA,48.804833201996324
19013,Delaware County,PA,12.004202784344628
19020,Bucks County,PA,4.412923561859732
19021,Bucks County,PA,52.21959548200683
19036,Delaware County,PA,75.43997898607829
19038,Montgomery County,PA,60.8615707906488
19044,Montgomery County,PA,53.769372209088516
19050,Delaware County,PA,19.227738376674548
19053,Bucks County,PA,55.686892566325184
19054,Bucks County,PA,52.50853690570003
19063,Delaware County,PA,14.026792750197007
19064,Delaware County,PA,28.762805358550043
19076,Delaware County,PA,76.56947727869714
19082,Delaware County,PA,27.73837667454689
19083,Delaware County,PA,18.544785920672446
19090,Montgomery County,PA,70.92198581560284
19104,Philadelphia County,PA,6.304176516942474
19107,Philadelphia County,PA,34.38402941949042
19111,Philadelphia County,PA,1.6548463356973995
19115,Philadelphia County,PA,40.08405568689257
19116,Philadelphia County,PA,52.08825847123719
19120,Philadelphia County,PA,1.3659049120042028
19129,Philadelphia County,PA,54.741266088783824
19131,Philadelphia County,PA,2.9944838455476757
19135,Philadelphia County,PA,9.062253743104808
19139,Philadelphia County,PA,1.8124507486209613
19140,Philadelphia County,PA,56.317310218019436
19141,Philadelphia County,PA,4.150249540320463
19142,Philadelphia County,PA,7.171000788022066
19145,Philadelphia County,PA,3.8613081166272654
19146,Philadelphia County,PA,9.929078014184398
19147,Philadelphia County,PA,11.55765694772787
19148,Philadelphia County,PA,22.747570265300762
19149,Philadelphia County,PA,39.08589440504334
19150,Philadelphia County,PA,22.353559232991856
19151,Philadelphia County,PA,32.88678749671657
19154,Philadelphia County,PA,35.61859732072498
19320,Chester County,PA,5.148410822169688
19335,Chester County,PA,11.058576306803257
19342,Delaware County,PA,71.34226425006567
19350,Chester County,PA,70.71184659837142
19352,Chester County,PA,85.23771998949304
19355,Chester County,PA,30.759127922248492
19380,Chester County,PA,65.1431573417389
19382,Chester County,PA,55.47675334909378
19390,Chester County,PA,73.65379563961125
19401,Montgomery County,PA,4.78066719201471
19403,Montgomery County,PA,11.688993958497505
19406,Montgomery County,PA,70.08142894667716
19428,Montgomery County,PA,35.88127134226425
19440,Montgomery County,PA,51.66798003677437
19454,Montgomery County,PA,33.018124507486206
19460,Chester County,PA,15.89177830312582
19465,Chester County,PA,41.60756501182033
19475,Chester County,PA,70.05516154452324
19518,Berks County,PA,37.825059101654844
19560,Berks County,PA,76.98975571315997
19567,Berks County,PA,90.648804833202007
19601,Berks County,PA,1.4447071184659837
19602,Berks County,PA,6.619385342789598
19605,Berks County,PA,20.90885211452587
19608,Berks County,PA,19.88442343052272
19611,Berks County,PA,71.05332282637247
02861,Providence County,RI,21.513002364066196
02864,Providence County,RI,17.17888100866824
02865,Providence County,RI,92.51379038613081
02871,Newport County,RI,53.50669818754925
02889,Kent County,RI,16.417126346204363
02905,Providence County,RI,30.811662726556342
29032,Kershaw County,SC,99.68479117415288
29053,Lexington County,SC,46.28316259521934
29072,Lexington County,SC,69.97635933806147
29172,Lexington County,SC,93.93223010244287
29201,Richland County,SC,97.97741003414762
29205,Richland County,SC,71.13212503283425
29210,Richland County,SC,31.914893617021278
29212,Lexington County,SC,54.84633569739953
29223,Richland County,SC,46.992382453375356
29301,Spartanburg County,SC,21.644339374835827
29303,Spartanburg County,SC,32.834252692408725
29334,Spartanburg County,SC,90.57000262674022
29349,Spartanburg County,SC,79.64276333070659
29356,Spartanburg County,SC,84.79117415287628
29360,Laurens County,SC,80.58838980824797
29369,Spartanburg County,SC,63.09429997373259
29376,Spartanburg County,SC,92.32991857105333
29385,Spartanburg County,SC,82.79485158917782
29403,Charleston County,SC,33.22826372471763
29405,Charleston County,SC,18.387181507748885
29407,Charleston County,SC,63.593380614657214
29412,Charleston County,SC,23.588127134226426
29414,Charleston County,SC,57.18413448909902
29455,Charleston County,SC,74.5731547149987
29456,Dorchester County,SC,60.44129235618597
29461,Berkeley County,SC,23.456790123456788
29464,Charleston County,SC,68.11137378513264
29466,Charleston County,SC,72.52429734699238
29483,Dorchester County,SC,10.612030470186498
29486,Berkeley County,SC,48.51589177830313
29510,Georgetown County,SC,83.7404780667192
29512,Marlboro County,SC,45.39007092198582
29526,Horry County,SC,27.081691620698713
29527,Horry County,SC,38.48174415550302
29560,Florence County,SC,71.28972944575781
29609,Greenville County,SC,30.443919096401366
29611,Greenville County,SC,31.757289204097717
29617,Greenville County,SC,60.99290780141844
29621,Anderson County,SC,26.687680588389807
29642,Pickens County,SC,23.246650906225376
29644,Greenville County,SC,40.76700814289467
29650,Greenville County,SC,27.97478329393223
29654,Anderson County,SC,63.85605463619648
29662,Greenville County,SC,55.10900971893879
29673,Greenville County,SC,28.368794326241137
29680,Greenville County,SC,35.749934331494615
29687,Greenville County,SC,55.71315996847912
29692,Laurens County,SC,89.78198056212241
29707,Lancaster County,SC,72.10401891252955
29715,York County,SC,59.57446808510638
29730,York County,SC,40.39926451273969
29732,York County,SC,21.933280798529026
29745,York County,SC,74.41555030207513
29801,Aiken County,SC,29.70843183609141
29812,Barnwell County,SC,79.56396112424481
29829,Aiken County,SC,77.14736012608353
29841,Aiken County,SC,42.7370633044392
29918,Hampton County,SC,99.18571053322826
57006,Brookings County,SD,54.92513790386131
57069,Clay County,SD,84.6073023377988
57078,Yankton County,SD,86.84003152088259
57103,Minnehaha County,SD,15.524034672970844
57104,Minnehaha County,SD,20.094562647754138
57106,Minnehaha County,SD,15.024954032046232
57301,Davison County,SD,37.43104806934594
57350,Beadle County,SD,45.88915156291043
57401,Brown County,SD,11.137378513265038
57701,Pennington County,SD,40.609403729971106
37013,Davidson County,TN,5.752561071710008
37027,Williamson County,TN,64.43393748358287
37034,Marshall County,TN,77.35749934331496
37067,Williamson County,TN,80.3257157867087
37075,Sumner County,TN,9.955345416338323
37076,Davidson County,TN,25.216706067769895
37085,Rutherford County,TN,97.81980562122406
37087,Wilson County,TN,58.86524822695035
37110,Warren County,TN,36.64302600472813
37115,Davidson County,TN,6.882059364328868
37128,Rutherford County,TN,51.77304964539007
37129,Rutherford County,TN,37.404780667192014
37130,Rutherford County,TN,75.20357236669294
37135,Williamson County,TN,89.59810874704492
37166,DeKalb County,TN,79.09114788547413
37167,Rutherford County,TN,50.82742316784869
37179,Williamson County,TN,83.63540845810348
37214,Davidson County,TN,50.03940110323089
37221,Davidson County,TN,58.156028368794324
37322,Meigs County,TN,53.55923299185711
37334,Lincoln County,TN,26.42500656685054
37343,Hamilton County,TN,15.024954032046232
37355,Coffee County,TN,59.31179406356711
37363,Hamilton County,TN,65.58970317835566
37381,Rhea County,TN,79.40635671132125
37406,Hamilton County,TN,58.70764381402679
37409,Hamilton County,TN,100
37411,Hamilton County,TN,28.42132913054899
37416,Hamilton County,TN,44.759653270291565
37601,Washington County,TN,57.78828473863935
37617,Sullivan County,TN,66.71920147097453
37642,Hawkins County,TN,38.376674546887315
37643,Carter County,TN,30.942999737325977
37658,Carter County,TN,87.31284475965327
37686,Sullivan County,TN,92.90780141843972
37701,Blount County,TN,62.30627790911479
37708,Grainger County,TN,80.90359863409509
37716,Anderson County,TN,27.239296033622274
37722,Cocke County,TN,85.31652219595483
37725,Jefferson County,TN,42.50065668505385
37742,Loudon County,TN,67.82243236143945
37743,Greene County,TN,7.092198581560284
37748,Roane County,TN,24.139742579458893
37774,Loudon County,TN,34.8568426582611
37801,Blount County,TN,9.246125558182296
37803,Blount County,TN,22.66876805883898
37807,Union County,TN,62.8053585500394
37813,Hamblen County,TN,18.781192540057788
37814,Hamblen County,TN,21.696874179143684
37820,Jefferson County,TN,79.56396112424481
37840,Roane County,TN,67.0869451011295
37841,Scott County,TN,68.95193065405832
37846,Loudon County,TN,95.53454163383242
37865,Sevier County,TN,30.102442868400313
37873,Hawkins County,TN,90.72760703966378
37876,Sevier County,TN,23.745731547149987
37912,Knox County,TN,53.349093774625686
37918,Knox County,TN,8.274231678486997
37919,Knox County,TN,44.23430522721303
37920,Knox County,TN,6.645652744943526
37921,Knox County,TN,20.042027843446284
37924,Knox County,TN,87.18150774888363
37931,Knox County,TN,32.17756763856055
38002,Shelby County,TN,60.33622274757027
38016,Shelby County,TN,40.5043341213554
38019,Tipton County,TN,46.62463882322038
38024,Dyer County,TN,16.049382716049383
38068,Fayette County,TN,92.61885999474651
38104,Shelby County,TN,64.82794851589178
38108,Shelby County,TN,76.62201208300499
38109,Shelby County,TN,6.566850538481744
38112,Shelby County,TN,54.58366167586026
38114,Shelby County,TN,45.78408195429472
38115,Shelby County,TN,15.445232466509061
38116,Shelby County,TN,11.505122143420015
38119,Shelby County,TN,73.54872603099554
38133,Shelby County,TN,70.92198581560284
38141,Shelby County,TN,36.77436301549777
38301,Madison County,TN,5.489887050170738
38305,Madison County,TN,25.164171263462045
38344,Carroll County,TN,65.27449435250854
38372,Hardin County,TN,39.50617283950617
38401,Maury County,TN,38.796952981350145
38462,Lewis County,TN,62.437614919884425
38464,Lawrence County,TN,22.038350407144733
38501,Putnam County,TN,40.81954294720252
75002,Collin County,TX,65.03808773312319
75006,Dallas County,TX,35.32965589703178
75007,Denton County,TX,36.85316522195955
75010,Denton County,TX,58.26109797741004
75013,Collin County,TX,38.03519831888626
75024,Collin County,TX,51.457840819542945
75028,Denton County,TX,46.073023377987916
75032,Rockwall County,TX,51.14263199369582
75034,Denton County,TX,27.528237457315473
75035,Collin County,TX,28.2374573154715
75052,Dallas County,TX,85.42159180457053
75056,Denton County,TX,21.35539795114263
75057,Denton County,TX,78.59206724454951
75060,Dallas County,TX,31.20567375886525
75061,Dallas County,TX,74.2054110848437
75067,Denton County,TX,22.66876805883898
75068,Denton County,TX,21.46046755975834
75070,Collin County,TX,9.508799579721565
75075,Collin County,TX,55.897031783556606
75078,Collin County,TX,72.47176254268453
75080,Dallas County,TX,78.93354347255055
75082,Collin County,TX,68.97819805621224
75087,Rockwall County,TX,31.38954557394274
75088,Dallas County,TX,86.20961386918835
75089,Dallas County,TX,52.37719989493039
75092,Grayson County,TX,36.485421591804574
75093,Collin County,TX,71.946414499605993
75098,Collin County,TX,83.79301287102705
75110,Navarro County,TX,32.46650906225375
75115,Dallas County,TX,14.657210401891252
75116,Dallas County,TX,73.78513265038087
75134,Dallas County,TX,55.10900971893879
75142,Kaufman County,TX,52.53480430785395
75149,Dallas County,TX,39.61124244812188
75150,Dallas County,TX,46.5458366167586
75154,Ellis County,TX,33.46467034410297
75160,Kaufman County,TX,55.37168374047806
75169,Van Zandt County,TX,87.52298397688469
75172,Dallas County,TX,99.57972156553717
75189,Rockwall County,TX,83.29393223010244
75201,Dallas County,TX,72.36669293406882
75205,Dallas County,TX,56.68505384817442
75211,Dallas County,TX,11.925400577882847
75217,Dallas County,TX,24.297346992382455
75218,Dallas County,TX,68.79432624113475
75227,Dallas County,TX,11.977935382190703
75228,Dallas County,TX,51.5103756238508
75231,Dallas County,TX,34.672970843183606
75238,Dallas County,TX,84.86997635933807
75240,Dallas County,TX,61.49198844234305
75241,Dallas County,TX,15.103756238508012
75243,Dallas County,TX,68.21644339374836
75244,Dallas County,TX,86.3672182821119
75248,Dallas County,TX,79.24875229839769
75287,Denton County,TX,65.22195954820069
75442,Collin County,TX,74.83582873653796
75501,Bowie County,TX,21.6180719726819
75567,Bowie County,TX,99.52718676122932
75602,Gregg County,TX,79.38008930916732
75605,Gregg County,TX,42.39558707643814
75644,Upshur County,TX,61.80719726819017
75701,Smith County,TX,25.426845285001313
75751,Henderson County,TX,36.17021276595745
75839,Anderson County,TX,93.01287102705543
76001,Tarrant County,TX,44.602048857368004
76002,Tarrant County,TX,78.46073023377987
76006,Tarrant County,TX,61.754662463882326
76013,Tarrant County,TX,82.34830575256107
76016,Tarrant County,TX,84.84370895718413
76018,Tarrant County,TX,78.88100866824271
76028,Johnson County,TX,6.59311794063567
76039,Tarrant County,TX,61.80719726819017
76049,Hood County,TX,27.948515891778303
76051,Tarrant County,TX,21.775676385605465
76058,Johnson County,TX,46.151825584449696
76063,Tarrant County,TX,8.536905700026267
76065,Ellis County,TX,29.86603624901497
76067,Palo Pinto County,TX,43.65642237982664
76092,Tarrant County,TX,56.60625164171263
76102,Tarrant County,TX,65.85237719989493
76107,Tarrant County,TX,31.652219595482006
76108,Tarrant County,TX,28.47386393485684
76109,Tarrant County,TX,78.77593905962699
76110,Tarrant County,TX,67.45468873128448
76112,Tarrant County,TX,7.959022852639874
76116,Tarrant County,TX,15.707906488048332
76117,Tarrant County,TX,24.32361439453638
76119,Tarrant County,TX,4.097714736012608
76120,Tarrant County,TX,40.74074074074074
76123,Tarrant County,TX,36.53795639611243
76131,Tarrant County,TX,39.63750985027581
76133,Tarrant County,TX,11.951667980036774
76134,Tarrant County,TX,17.73049645390071
76140,Tarrant County,TX,27.843446283162592
76164,Tarrant County,TX,86.97136853165222
76177,Tarrant County,TX,93.77462568951931
76201,Denton County,TX,76.28053585500393
76205,Denton County,TX,81.32387706855792
76207,Denton County,TX,74.88836354084582
76227,Denton County,TX,91.56816390858944
76234,Wise County,TX,62.88416075650118
76248,Tarrant County,TX,55.55555555555556
76249,Denton County,TX,94.27370633044391
76301,Wichita County,TX,35.88127134226425
76309,Wichita County,TX,71.13212503283425
76401,Erath County,TX,81.61281849225112
76446,Erath County,TX,89.15156291042817
76502,Bell County,TX,9.456264775413711
76504,Bell County,TX,26.2936695560809
76520,Milam County,TX,62.174940898345156
76528,Coryell County,TX,19.753086419753085
76549,Bell County,TX,15.576569477278698
76708,McLennan County,TX,70.7906488048332
77003,Harris County,TX,78.51326503808774
77004,Harris County,TX,18.83372734436564
77005,Harris County,TX,65.9311794063567
77006,Harris County,TX,69.87128972944576
77013,Harris County,TX,82.55844496979249
77014,Harris County,TX,49.93433149461518
77015,Harris County,TX,29.340688205936434
77017,Harris County,TX,76.88468610454426
77018,Harris County,TX,33.22826372471763
77023,Harris County,TX,50.11820330969267
77026,Harris County,TX,87.49671657473075
77027,Harris County,TX,79.11741528762806
77031,Harris County,TX,69.9238245337536
77035,Harris County,TX,30.995534541633834
77037,Harris County,TX,97.71473601260836
77038,Harris County,TX,74.15287628053585
77040,Harris County,TX,34.8568426582611
77043,Harris County,TX,91.85710533228264
77045,Harris County,TX,47.649067507223535
77047,Harris County,TX,46.30942999737326
77049,Harris County,TX,84.29209351195168
77051,Harris County,TX,43.97163120567376
77055,Harris County,TX,48.7785657998424
77072,Harris County,TX,43.86656159705805
77073,Harris County,TX,43.15734173890202
77074,Harris County,TX,72.28789072760704
77075,Harris County,TX,85.81560283687944
77076,Harris County,TX,43.78775939059627
77078,Harris County,TX,69.58234830575256
77079,Harris County,TX,88.83635408458103
77080,Harris County,TX,63.25190438665616
77081,Harris County,TX,57.99842395587076
77089,Harris County,TX,33.46467034410297
77090,Harris County,TX,19.70055161544523
77093,Harris County,TX,32.361439453638035
77099,Harris County,TX,75.86025742054112
77303,Montgomery County,TX,91.67323351720515
77320,Walker County,TX,65.24822695035462
77328,San Jacinto County,TX,90.30732860520094
77345,Harris County,TX,80.3257157867087
77346,Harris County,TX,44.31310743367481
77351,Polk County,TX,34.2789598108747
77372,Montgomery County,TX,85.99947465195692
77379,Harris County,TX,68.6367218282112
77380,Montgomery County,TX,65.03808773312319
77382,Montgomery County,TX,55.71315996847912
77384,Montgomery County,TX,71.47360126083531
77385,Montgomery County,TX,51.30023640661938
77388,Harris County,TX,34.41029682164434
77389,Harris County,TX,76.56947727869714
77396,Harris County,TX,78.43446283162595
77401,Harris County,TX,62.77909114788548
77407,Fort Bend County,TX,42.29051746782243
77429,Harris County,TX,6.934594168636722
77433,Harris County,TX,7.0396637772524295
77447,Harris County,TX,64.3551352771211
77449,Harris County,TX,6.25164171263462
77450,Harris County,TX,78.93354347255055
77459,Fort Bend County,TX,15.36643026004728
77477,Fort Bend County,TX,45.416338324139744
77488,Wharton County,TX,59.364328867874974
77493,Harris County,TX,81.48148148148148
77494,Fort Bend County,TX,71.89387969529814
77498,Fort Bend County,TX,91.98844234305227
77503,Harris County,TX,72.15655371683741
77515,Brazoria County,TX,38.00893091673234
77521,Harris County,TX,19.516679800367744
77523,Chambers County,TX,78.6708694510113
77539,Galveston County,TX,12.76595744680851
77545,Fort Bend County,TX,59.889676910953504
77546,Galveston County,TX,16.9424743892829
77565,Galveston County,TX,81.06120304701865
77566,Brazoria County,TX,41.213553979511424
77573,Galveston County,TX,5.38481744155503
77575,Liberty County,TX,58.07722616233254
77578,Brazoria County,TX,58.57630680325716
77581,Brazoria County,TX,20.383504071447334
77586,Harris County,TX,37.982663514578405
77627,Jefferson County,TX,64.61780929866036
77630,Orange County,TX,30.65405831363278
77632,Orange County,TX,41.266088783819285
77651,Jefferson County,TX,86.4722878907276
77802,Brazos County,TX,16.78486997635934
77803,Brazos County,TX,49.802994483845545
77807,Brazos County,TX,90.85894405043341
77845,Brazos County,TX,25.82085631731022
77995,Lavaca County,TX,74.31048069345941
78006,Kendall County,TX,79.77410034147623
78015,Bexar County,TX,98.18754925137904
78028,Kerr County,TX,27.29183083793013
78046,Webb County,TX,9.429997373259786
78059,Medina County,TX,99.63225636984502
78064,Atascosa County,TX,71.946414499605993
78070,Comal County,TX,96.9792487522984
78109,Bexar County,TX,37.45731547149987
78130,Comal County,TX,14.919884423430524
78155,Guadalupe County,TX,47.46519569214605
78201,Bexar County,TX,47.04491725768322
78207,Bexar County,TX,13.18623588127134
78210,Bexar County,TX,48.33201996322563
78213,Bexar County,TX,70.31783556606251
78217,Bexar County,TX,60.021013921723146
78220,Bexar County,TX,51.5103756238508
78228,Bexar County,TX,52.63987391646966
78229,Bexar County,TX,42.106645652744945
78233,Bexar County,TX,31.468347780404514
78237,Bexar County,TX,20.462306277909114
78240,Bexar County,TX,67.69109535066981
78245,Bexar County,TX,67.16574730759129
78247,Bexar County,TX,42.947202521670604
78248,Bexar County,TX,88.04833201996323
78250,Bexar County,TX,32.17756763856055
78252,Bexar County,TX,91.67323351720515
78259,Bexar County,TX,89.86078276858419
78332,Jim Wells County,TX,82.03309692671394
78380,Nueces County,TX,81.0086682427108
78382,Aransas County,TX,82.19070133963751
78405,Nueces County,TX,74.15287628053585
78414,Nueces County,TX,80.98240084055686
78415,Nueces County,TX,35.96007354872603
78504,Hidalgo County,TX,28.867874967165747
78520,Cameron County,TX,77.38376674546888
78521,Cameron County,TX,22.537431048069344
78550,Cameron County,TX,32.098765432098766
78552,Cameron County,TX,61.49198844234305
78570,Hidalgo County,TX,62.7002889414237
78573,Hidalgo County,TX,44.759653270291565
78574,Hidalgo County,TX,60.99290780141844
78577,Hidalgo County,TX,18.93879695298135
78582,Starr County,TX,85.63173102180195
78586,Cameron County,TX,33.56973995271868
78589,Hidalgo County,TX,29.340688205936434
78599,Hidalgo County,TX,79.66903073286052
78613,Williamson County,TX,23.167848699763592
78621,Bastrop County,TX,62.06987128972945
78626,Williamson County,TX,48.01681113737851
78629,Gonzales County,TX,87.07643814026792
78640,Hays County,TX,31.78355660625164
78642,Williamson County,TX,86.18334646703441
78660,Travis County,TX,50.32834252692409
78664,Williamson County,TX,69.34594168636721
78666,Hays County,TX,18.255844496979247
78669,Travis County,TX,98.10874704491725
78681,Williamson County,TX,45.521407932755444
78702,Travis County,TX,70.8957184134489
78704,Travis County,TX,60.78276858418702
78722,Travis County,TX,98.79169950091936
78725,Travis County,TX,96.55897031783557
78734,Travis County,TX,97.21565537168374
78738,Travis County,TX,76.28053585500393
78741,Travis County,TX,65.87864460204885
78744,Travis County,TX,83.39900183871815
78747,Travis County,TX,96.2174940898345
78750,Travis County,TX,83.68794326241135
78753,Travis County,TX,51.66798003677437
78758,Travis County,TX,91.59443131074336
78852,Maverick County,TX,45.70527974783294
79107,Potter County,TX,24.008405568689255
79119,Randall County,TX,79.24875229839769
79412,Lubbock County,TX,49.645390070921984
79413,Lubbock County,TX,59.65327029156816
79424,Lubbock County,TX,49.48778565799842
79606,Taylor County,TX,52.00945626477541
79705,Midland County,TX,18.019437877593905
79706,Midland County,TX,69.5298135014447
79707,Midland County,TX,58.36616758602574
79720,Howard County,TX,41.4762280010507
79731,Crane County,TX,90.43866561597058
79761,Ector County,TX,40.057788284738635
79762,Ector County,TX,71.81507748883635
79763,Ector County,TX,85.44785920672446
79766,Ector County,TX,91.48936170212765
79912,El Paso County,TX,17.861833464670344
79924,El Paso County,TX,32.913054898870506
79928,El Paso County,TX,85.29025479380088
79930,El Paso County,TX,71.81507748883635
79936,El Paso County,TX,31.23194116101918
84003,Utah County,UT,92.11977935382191
84005,Utah County,UT,95.50827423167848
84010,Davis County,UT,65.45836616758602
84015,Davis County,UT,14.053060152350932
84020,Salt Lake County,UT,33.123194116101914
84029,Tooele County,UT,48.93617021276596
84032,Wasatch County,UT,94.14236931967427
84037,Davis County,UT,86.34095087995797
84040,Davis County,UT,70.86945101129498
84041,Davis County,UT,26.503808773312322
84043,Utah County,UT,83.00499080640925
84044,Salt Lake County,UT,82.40084055686893
84045,Utah County,UT,89.70317835566063
84047,Salt Lake County,UT,17.835566062516417
84057,Utah County,UT,58.70764381402679
84058,Utah County,UT,92.30365116889939
84062,Utah County,UT,78.22432361439454
84065,Salt Lake County,UT,27.73837667454689
84067,Weber County,UT,26.16233254531127
84074,Tooele County,UT,28.946677173627528
84075,Davis County,UT,64.61780929866036
84081,Salt Lake County,UT,21.092723929603363
84087,Davis County,UT,83.87181507748883
84088,Salt Lake County,UT,61.64959285526661
84095,Salt Lake County,UT,29.655897031783557
84097,Utah County,UT,80.45705279747834
84106,Salt Lake County,UT,25.374310480693456
84109,Salt Lake County,UT,56.60625164171263
84111,Salt Lake County,UT,67.32335172051485
84115,Salt Lake County,UT,27.97478329393223
84116,Salt Lake County,UT,52.24586288416076
84118,Salt Lake County,UT,59.548200682952455
84119,Salt Lake County,UT,31.258208563173103
84120,Salt Lake County,UT,55.52928815340162
84121,Salt Lake County,UT,30.864197530864196
84123,Salt Lake County,UT,44.680851063829785
84128,Salt Lake County,UT,29.078014184397162
84129,,UT,20.304701864985553
84321,Cache County,UT,92.06724454951404
84335,Cache County,UT,91.01654846335697
84337,Box Elder County,UT,90.54373522458629
84403,Weber County,UT,73.5224586288416
84404,Weber County,UT,13.396375098502759
84532,Grand County,UT,86.78749671657474
84601,Utah County,UT,93.14420803782507
84604,Utah County,UT,94.66771736275282
84606,Utah County,UT,85.18518518518519
84651,Utah County,UT,64.95928552666142
84663,Utah County,UT,67.24454951405306
84720,Iron County,UT,80.87733123194116
84721,Iron County,UT,57.60441292356187
84738,Washington County,UT,93.82716049382715
84790,Washington County,UT,68.47911741528763
05468,Chittenden County,VT,59.889676910953504
05488,Franklin County,VT,76.91095350669819
05602,Washington County,VT,54.03204623062779
05753,Addison County,VT,86.62989230365116
20109,Prince William County,VA,84.00315208825847
20121,Fairfax County,VA,91.54189650643552
20132,Loudoun County,VA,89.78198056212241
20136,Prince William County,VA,61.38691883372734
20147,Loudoun County,VA,62.22747570265301
20148,Loudoun County,VA,48.06934594168637
20152,Loudoun County,VA,90.14972419227738
20155,Prince William County,VA,50.51221434200157
20164,Loudoun County,VA,68.08510638297872
20165,Loudoun County,VA,61.702127659574465
20169,Prince William County,VA,91.25295508274232
20170,Fairfax County,VA,56.05463619648017
20171,Fairfax County,VA,73.75886524822694
20190,Fairfax County,VA,93.22301024428684
20191,Fairfax County,VA,66.903073286052
22003,Fairfax County,VA,54.79380089309167
22015,Fairfax County,VA,93.95849750459679
22026,Prince William County,VA,54.84633569739953
22030,Fairfax County,VA,54.5311268715524
22031,Fairfax County,VA,56.57998423955871
22032,Fairfax County,VA,83.55660625164171
22033,Fairfax County,VA,80.77226162332545
22041,Fairfax County,VA,62.98923036511689
22042,Fairfax County,VA,74.28421329130549
22043,Fairfax County,VA,64.43393748358287
22046,Falls Church city,VA,82.13816653532966
22066,Fairfax County,VA,96.45390070921985
22102,Fairfax County,VA,69.1358024691358
22150,Fairfax County,VA,43.262411347517734
22152,Fairfax County,VA,45.54767533490938
22180,Fairfax County,VA,75.99159443131074
22182,Fairfax County,VA,57.70948253217757
22191,Prince William County,VA,10.717100078802206
22192,Prince William County,VA,61.88599947465195
22193,Prince William County,VA,32.65038087733123
22201,Arlington County,VA,80.40451799317047
22203,Arlington County,VA,67.74363015497768
22204,Arlington County,VA,19.09640136590491
22205,Arlington County,VA,82.42710795902285
22206,Arlington County,VA,47.83293932230103
22301,Alexandria city,VA,67.45468873128448
22303,Fairfax County,VA,66.61413186235882
22305,Alexandria city,VA,68.37404780667192
22308,Fairfax County,VA,76.3330706593118
22309,Fairfax County,VA,50.51221434200157
22312,Fairfax County,VA,34.016285789335434
22405,Stafford County,VA,47.727869713685315
22485,King George County,VA,83.42526924087208
22601,Winchester city,VA,50.932492776464414
22603,Frederick County,VA,82.11189913317573
22802,Harrisonburg city,VA,67.37588652482269
22840,Rockingham County,VA,99.2119779353822
22851,Page County,VA,80.66719201470974
22901,Albemarle County,VA,23.19411610191752
22902,Charlottesville city,VA,16.180719726819017
22903,Charlottesville city,VA,19.332807985290255
22980,Waynesboro city,VA,4.859469398476491
23061,Gloucester County,VA,55.47675334909378
23093,Louisa County,VA,51.35277121092724
23141,New Kent County,VA,95.56080903598634
23220,Richmond city,VA,52.85001313370108
23222,Richmond city,VA,10.874704491725769
23224,Richmond city,VA,27.712109272392958
23225,Richmond city,VA,8.195429472025216
23233,Henrico County,VA,77.25242973469923
23322,Chesapeake city,VA,44.39190964013659
23434,Suffolk city,VA,36.17021276595745
23454,Virginia Beach city,VA,19.88442343052272
23464,Virginia Beach city,VA,10.060415024954033
23504,Norfolk city,VA,49.8555292881534
23513,Norfolk city,VA,11.583924349881796
23602,Newport News city,VA,53.270291568163906
23605,Newport News city,VA,73.02337798791699
23606,Newport News city,VA,39.19096401365905
23701,Portsmouth city,VA,37.61491988442343
23704,Portsmouth city,VA,71.92014709745206
23803,Petersburg city,VA,6.829524560021014
23805,Petersburg city,VA,43.02600472813239
23847,Greensville County,VA,64.61780929866036
23875,Prince George County,VA,78.09298660362491
24012,Roanoke city,VA,53.007617546624644
24013,Roanoke city,VA,71.13212503283425
24016,Roanoke city,VA,44.07670081428947
24018,Roanoke County,VA,37.220908852114526
24153,Salem city,VA,24.139742579458893
24175,Botetourt County,VA,89.57184134489098
24210,Washington County,VA,60.467559758339895
24277,Lee County,VA,89.30916732335173
24317,Carroll County,VA,79.69529813501445
24354,Smyth County,VA,30.233779879169948
24501,Lynchburg city,VA,19.332807985290255
24502,Lynchburg city,VA,32.46650906225375
24522,Appomattox County,VA,77.96164959285527
24540,Danville city,VA,18.623588127134227
24541,Danville city,VA,76.96348831100605
24592,Halifax County,VA,52.771210927239295
24605,Tazewell County,VA,22.93144208037825
24614,Buchanan County,VA,50.617283950617285
98004,King County,WA,67.40215392697662
98012,Snohomish County,WA,54.45232466509062
98019,King County,WA,96.24376149198845
98020,Snohomish County,WA,93.22301024428684
98021,Snohomish County,WA,45.44260572629367
98023,King County,WA,16.86367218282112
98026,Snohomish County,WA,24.32361439453638
98027,King County,WA,54.47859206724455
98029,King County,WA,52.37719989493039
98030,King County,WA,68.9256632519044
98031,King County,WA,81.29760966640399
98034,King County,WA,56.94772786971368
98036,Snohomish County,WA,36.984502232729184
98037,Snohomish County,WA,52.82374573154714
98038,King County,WA,58.36616758602574
98040,King County,WA,63.98739164696612
98042,King County,WA,37.66745468873128
98052,King County,WA,38.19280273180982
98055,King County,WA,67.92750197005516
98058,King County,WA,21.82821118991332
98059,King County,WA,34.8568426582611
98072,King County,WA,53.06015235093249
98075,King County,WA,74.65195692146047
98087,Snohomish County,WA,36.11767796164959
98092,King County,WA,16.259521933280798
98103,King County,WA,84.26582610979774
98107,King County,WA,61.57079064880483
98110,Kitsap County,WA,53.40162857893355
98117,King County,WA,52.37719989493039
98121,King County,WA,43.919096401365906
98122,King County,WA,47.91174152876281
98133,King County,WA,52.4822695035461
98155,King County,WA,34.515366430260045
98168,King County,WA,22.5899658523772
98188,King County,WA,61.49198844234305
98204,Snohomish County,WA,49.5665878644602
98208,Snohomish County,WA,44.02416600998161
98221,Skagit County,WA,53.13895455739427
98226,Whatcom County,WA,59.57446808510638
98252,Snohomish County,WA,77.64644076700814
98258,Snohomish County,WA,66.45652744943526
98264,Whatcom County,WA,88.15340162857893
98270,Snohomish County,WA,11.82033096926714
98271,Snohomish County,WA,33.70107696348831
98272,Snohomish County,WA,47.727869713685315
98273,Skagit County,WA,71.71000788022064
98275,Snohomish County,WA,87.70685579196218
98290,Snohomish County,WA,31.96742842132913
98292,Snohomish County,WA,51.4053060152351
98294,Snohomish County,WA,88.38980824796427
98296,Snohomish County,WA,69.55608090359864
98338,Pierce County,WA,37.063304439190965
98354,Pierce County,WA,96.29629629629629
98371,Pierce County,WA,57.42054110848437
98374,Pierce County,WA,82.00682952456002
98390,Pierce County,WA,69.21460467559758
98391,Pierce County,WA,54.662463882322044
98404,Pierce County,WA,57.57814552140793
98405,Pierce County,WA,22.616233254531124
98407,Pierce County,WA,61.25558182295771
98409,Pierce County,WA,46.23062779091148
98422,Pierce County,WA,52.771210927239295
98444,Pierce County,WA,59.99474651956922
98445,Pierce County,WA,37.825059101654844
98531,Lewis County,WA,66.77173627528238
98589,Thurston County,WA,97.21565537168374
98611,Cowlitz County,WA,77.77777777777779
98626,Cowlitz County,WA,67.98003677436301
98823,Grant County,WA,76.77961649592855
98837,Grant County,WA,55.45048594693984
98857,Grant County,WA,97.5571315996848
98908,Yakima County,WA,27.475702653007616
98944,Yakima County,WA,48.41082216968742
99016,Spokane County,WA,94.0635671132125
99037,Spokane County,WA,97.29445757814553
99114,Stevens County,WA,74.46808510638297
99205,Spokane County,WA,30.286314683477805
99206,Spokane County,WA,35.22458628841608
99207,Spokane County,WA,39.76884686104544
99208,Spokane County,WA,28.972944575781455
99212,Spokane County,WA,78.09298660362491
99216,Spokane County,WA,90.9377462568952
99224,Spokane County,WA,84.92251116364592
99301,Franklin County,WA,60.91410559495666
99336,Benton County,WA,51.27396900446546
99337,Benton County,WA,17.52035723666929
99338,Benton County,WA,90.0709219858156
20001,District of Columbia,DC,13.21250328342527
20002,District of Columbia,DC,16.443393748358286
20003,District of Columbia,DC,39.374835828736536
20005,District of Columbia,DC,94.19490412398214
20008,District of Columbia,DC,76.75334909377463
20010,District of Columbia,DC,75.04596795376938
20011,District of Columbia,DC,67.45468873128448
20016,District of Columbia,DC,66.48279485158918
20017,District of Columbia,DC,42.99973732597846
20020,District of Columbia,DC,8.904649330181245
20032,District of Columbia,DC,16.285789335434725
25045,Kanawha County,WV,84.52850013133701
25313,Kanawha County,WV,38.14026792750197
25403,Berkeley County,WV,66.1150512214342
25405,Berkeley County,WV,71.13212503283425
25530,Wayne County,WV,65.87864460204885
25541,Cabell County,WV,85.02758077226163
25550,Mason County,WV,73.25978460730234
25702,Cabell County,WV,85.4741266088784
25705,Cabell County,WV,11.189913317572891
25801,Raleigh County,WV,86.0782768584187
26041,Marshall County,WV,35.61859732072498
26164,Jackson County,WV,52.08825847123719
26330,Harrison County,WV,33.99001838718151
26416,Barbour County,WV,69.87128972944576
26505,Monongalia County,WV,25.348043078539533
26554,Marion County,WV,1.9700551615445234
26582,Marion County,WV,86.55109009718939
53012,Ozaukee County,WI,75.51878119254006
53021,Ozaukee County,WI,98.08247964276333
53029,Waukesha County,WI,55.10900971893879
53036,Jefferson County,WI,99.65852377199896
53037,Washington County,WI,85.73680063041765
53051,Waukesha County,WI,33.54347255056475
53066,Waukesha County,WI,29.314420803782504
53081,Sheboygan County,WI,36.35408458103493
53083,Sheboygan County,WI,64.40767008142895
53089,Waukesha County,WI,56.474914630943
53095,Washington County,WI,41.187286577357504
53104,Kenosha County,WI,71.39479905437352
53115,Walworth County,WI,38.32413974257946
53120,Walworth County,WI,88.7050170738114
53129,Milwaukee County,WI,66.53532965589703
53132,Milwaukee County,WI,29.02547938008931
53140,Kenosha County,WI,6.382978723404255
53142,Kenosha County,WI,5.4373522458628845
53143,Kenosha County,WI,60.520094562647756
53144,Kenosha County,WI,10.270554242185447
53151,Waukesha County,WI,29.498292618859995
53177,Racine County,WI,76.70081428946676
53186,Waukesha County,WI,18.492251116364592
53188,Waukesha County,WI,15.182558444969793
53204,Milwaukee County,WI,3.362227475702653
53205,Milwaukee County,WI,47.96427633307066
53206,Milwaukee County,WI,5.358550039401103
53207,Milwaukee County,WI,17.415287628053587
53209,Milwaukee County,WI,1.12949829261886
53210,Milwaukee County,WI,21.145258733911216
53212,Milwaukee County,WI,8.037825059101655
53214,Milwaukee County,WI,6.8557919621749415
53215,Milwaukee County,WI,30.73286052009456
53218,Milwaukee County,WI,3.546099290780142
53219,Milwaukee County,WI,38.219070133963754
53221,Milwaukee County,WI,12.188074599422118
53223,Milwaukee County,WI,10.034147622800106
53225,Milwaukee County,WI,6.225374310480693
53511,Rock County,WI,3.756238508011558
53533,Iowa County,WI,94.69398476490674
53536,Rock County,WI,87.12897294457578
53545,Rock County,WI,60.59889676910954
53563,Rock County,WI,75.12477016023115
53590,Dane County,WI,63.25190438665616
53597,Dane County,WI,79.32755450485946
53713,Dane County,WI,42.57945889151563
53719,Dane County,WI,45.75781455214079
53813,Grant County,WI,92.2248489624376
53913,Sauk County,WI,27.633307065931177
53916,Dodge County,WI,30.995534541633834
53965,Sauk County,WI,61.36065143157342
54017,St. Croix County,WI,40.68820593643289
54020,Polk County,WI,69.76622012083004
54022,Pierce County,WI,44.418177042290516
54115,Brown County,WI,70.23903335960074
54129,Calumet County,WI,99.10690832676649
54220,Manitowoc County,WI,3.257157867086945
54241,Manitowoc County,WI,53.55923299185711
54302,Brown County,WI,17.126346204360388
54313,Brown County,WI,80.7197268190176
54401,Marathon County,WI,63.908589440504336
54452,Lincoln County,WI,74.73075912792225
54467,Portage County,WI,54.92513790386131
54476,Marathon County,WI,70.44917257683215
54612,Trempealeau County,WI,93.06540583136328
54650,La Crosse County,WI,43.420015760441295
54660,Monroe County,WI,38.455476753349096
54661,Trempealeau County,WI,96.32256369845022
54701,Eau Claire County,WI,32.12503283425269
54703,Eau Claire County,WI,13.974257945889152
54727,Chippewa County,WI,95.2193328079853
54739,Dunn County,WI,98.02994483845548
54751,Dunn County,WI,24.533753611767796
54812,Barron County,WI,87.60178618334646
54880,Douglas County,WI,8.825847123719464
54902,Winnebago County,WI,75.28237457315473
54904,Winnebago County,WI,60.520094562647756
54911,Outagamie County,WI,80.1418439716312
54914,Outagamie County,WI,66.35145784081953
54915,Outagamie County,WI,25.19043866561597
54923,Green Lake County,WI,87.89072760703966
54935,Fond du Lac County,WI,35.408458103493565
54956,Winnebago County,WI,49.724192277383764
54961,Waupaca County,WI,47.649067507223535
54963,Winnebago County,WI,63.38324139742579
54982,Waushara County,WI,68.37404780667192
82240,Goshen County,WY,85.973207249803
82901,Sweetwater County,WY,46.51956921460468
