ZipCode,county,state,Youth,Adult,Retirement,Geriatric
35020,Jefferson County,AL,14.840182648401825,NA,NA,NA
35055,Cullman County,AL,NA,NA,72.03791469194313,NA
35080,Shelby County,AL,43.37899543378995,NA,NA,NA
35614,Limestone County,AL,48.17351598173516,NA,NA,NA
35619,Morgan County,AL,NA,87.96296296296296,NA,NA
35645,Lauderdale County,AL,NA,74.30555555555556,NA,NA
35757,Madison County,AL,NA,74.53703703703704,NA,NA
36054,Elmore County,AL,NA,69.9074074074074,NA,NA
36301,Houston County,AL,NA,25,NA,NA
36580,Baldwin County,AL,NA,NA,96.6824644549763,NA
36605,Mobile County,AL,NA,46.06481481481482,NA,NA
99507,Anchorage Municipality,AK,NA,NA,NA,70.12448132780082
99567,Anchorage Municipality,AK,NA,90.74074074074075,NA,NA
85007,Maricopa County,AZ,71.46118721461188,NA,NA,NA
85016,Maricopa County,AZ,NA,47.91666666666667,NA,NA
85035,Maricopa County,AZ,15.296803652968036,NA,NA,NA
85041,Maricopa County,AZ,NA,NA,28.436018957345972,NA
85138,Pinal County,AZ,NA,45.13888888888889,NA,NA
85139,Pinal County,AZ,88.12785388127854,NA,NA,NA
85206,Maricopa County,AZ,NA,NA,36.492890995260666,NA
85207,Maricopa County,AZ,33.33333333333333,NA,NA,NA
85248,Maricopa County,AZ,74.20091324200914,NA,NA,NA
85257,Maricopa County,AZ,NA,NA,73.45971563981043,NA
85260,Maricopa County,AZ,90.18264840182648,NA,NA,NA
85286,Maricopa County,AZ,58.9041095890411,NA,NA,NA
85298,Maricopa County,AZ,58.21917808219178,NA,NA,NA
85303,Maricopa County,AZ,NA,56.25,NA,NA
85326,Maricopa County,AZ,8.904109589041095,NA,NA,NA
85331,Maricopa County,AZ,NA,NA,NA,93.3609958506224
85337,Maricopa County,AZ,NA,98.8425925925926,NA,NA
85340,Maricopa County,AZ,NA,NA,NA,89.62655601659752
85349,Yuma County,AZ,76.02739726027397,NA,NA,NA
85374,Maricopa County,AZ,NA,NA,NA,5.394190871369295
85375,Maricopa County,AZ,NA,NA,NA,1.2448132780082988
85530,Graham County,AZ,NA,84.49074074074075,NA,NA
85546,Graham County,AZ,NA,55.32407407407407,NA,NA
85704,Pima County,AZ,NA,51.620370370370374,NA,NA
85712,Pima County,AZ,NA,26.851851851851855,NA,NA
85737,Pima County,AZ,NA,NA,56.39810426540285,NA
85901,Navajo County,AZ,NA,56.71296296296296,NA,NA
86004,Coconino County,AZ,NA,10.416666666666668,NA,NA
86301,Yavapai County,AZ,NA,NA,NA,16.59751037344398
86327,Yavapai County,AZ,NA,90.27777777777779,NA,NA
86403,Mohave County,AZ,NA,50.69444444444444,NA,NA
86442,Mohave County,AZ,NA,NA,11.374407582938389,NA
71602,Jefferson County,AR,79.68036529680366,NA,NA,NA
71701,Ouachita County,AR,NA,NA,NA,67.21991701244814
71822,Little River County,AR,77.1689497716895,NA,NA,NA
71854,Miller County,AR,NA,43.98148148148148,NA,NA
72023,Lonoke County,AR,NA,NA,NA,51.037344398340245
72034,Faulkner County,AR,NA,NA,NA,17.012448132780083
72143,White County,AR,NA,NA,NA,6.639004149377594
72160,Arkansas County,AR,NA,NA,89.57345971563981,NA
72227,Pulaski County,AR,89.72602739726028,NA,NA,NA
72916,Sebastian County,AR,NA,NA,NA,96.6804979253112
72927,Logan County,AR,NA,NA,NA,87.96680497925311
90013,Los Angeles County,CA,NA,81.94444444444444,NA,NA
90015,Los Angeles County,CA,94.74885844748859,NA,NA,NA
90022,Los Angeles County,CA,NA,NA,54.502369668246445,NA
90026,Los Angeles County,CA,NA,51.157407407407405,NA,25.72614107883817
90028,Los Angeles County,CA,99.08675799086758,NA,NA,NA
90034,Los Angeles County,CA,75.11415525114155,NA,NA,NA
90037,Los Angeles County,CA,27.62557077625571,NA,NA,NA
90046,Los Angeles County,CA,NA,NA,NA,6.224066390041494
90049,Los Angeles County,CA,NA,79.16666666666666,NA,NA
90057,Los Angeles County,CA,NA,44.44444444444444,NA,NA
90069,Los Angeles County,CA,NA,59.72222222222222,NA,NA
90249,Los Angeles County,CA,NA,NA,NA,56.016597510373444
90292,Los Angeles County,CA,NA,88.42592592592592,NA,NA
90501,Los Angeles County,CA,NA,NA,64.92890995260665,NA
90703,Los Angeles County,CA,NA,NA,41.23222748815166,NA
90813,Los Angeles County,CA,39.726027397260275,NA,NA,78.42323651452283
90815,Los Angeles County,CA,NA,NA,NA,71.78423236514523
91007,Los Angeles County,CA,NA,NA,NA,51.45228215767634
91101,Los Angeles County,CA,NA,86.3425925925926,NA,NA
91307,Los Angeles County,CA,92.46575342465754,NA,NA,NA
91342,Los Angeles County,CA,25.799086757990867,NA,NA,NA
91344,Los Angeles County,CA,70.77625570776256,NA,NA,NA
91403,Los Angeles County,CA,95.2054794520548,NA,NA,NA
91423,Los Angeles County,CA,NA,86.57407407407408,NA,NA
91701,San Bernardino County,CA,65.06849315068493,NA,NA,NA
91732,Los Angeles County,CA,NA,NA,36.018957345971565,NA
91733,Los Angeles County,CA,NA,NA,75.82938388625593,NA
91739,San Bernardino County,CA,68.0365296803653,NA,NA,NA
91761,San Bernardino County,CA,NA,30.09259259259259,NA,NA
91763,San Bernardino County,CA,76.48401826484019,NA,NA,NA
91764,San Bernardino County,CA,NA,41.66666666666667,NA,NA
91911,San Diego County,CA,31.7351598173516,29.398148148148145,NA,NA
92020,San Diego County,CA,42.23744292237443,NA,NA,NA
92037,San Diego County,CA,NA,82.4074074074074,NA,NA
92057,San Diego County,CA,NA,NA,67.77251184834124,NA
92084,San Diego County,CA,48.17351598173516,NA,NA,NA
92126,San Diego County,CA,30.136986301369863,NA,NA,NA
92154,San Diego County,CA,56.849315068493155,NA,NA,NA
92203,Riverside County,CA,64.15525114155251,NA,NA,NA
92250,Imperial County,CA,88.81278538812786,NA,NA,NA
92324,San Bernardino County,CA,NA,57.638888888888886,NA,NA
92395,San Bernardino County,CA,NA,33.56481481481482,NA,NA
92399,San Bernardino County,CA,NA,NA,23.22274881516588,NA
92404,San Bernardino County,CA,NA,23.14814814814815,NA,NA
92562,Riverside County,CA,32.87671232876712,NA,NA,NA
92563,Riverside County,CA,NA,68.98148148148148,NA,NA
92570,Riverside County,CA,NA,47.68518518518518,NA,NA
92584,Riverside County,CA,NA,49.76851851851852,66.35071090047393,NA
92592,Riverside County,CA,NA,66.20370370370371,NA,NA
92625,Orange County,CA,NA,90.04629629629629,NA,NA
92630,Orange County,CA,NA,NA,20.379146919431278,NA
92677,Orange County,CA,NA,38.19444444444444,NA,NA
92683,Orange County,CA,NA,22.685185185185187,NA,NA
92705,Orange County,CA,62.10045662100456,NA,NA,NA
92804,Orange County,CA,NA,20.13888888888889,NA,NA
92805,Orange County,CA,25.34246575342466,NA,NA,NA
92845,Orange County,CA,NA,78.93518518518519,NA,70.95435684647303
92870,Orange County,CA,NA,41.898148148148145,NA,NA
92879,Riverside County,CA,78.76712328767124,NA,NA,NA
93010,Ventura County,CA,NA,NA,28.90995260663507,NA
93030,Ventura County,CA,NA,23.37962962962963,NA,NA
93033,Ventura County,CA,NA,17.36111111111111,NA,NA
93109,Santa Barbara County,CA,NA,99.76851851851852,NA,NA
93215,Kern County,CA,NA,83.33333333333334,NA,NA
93247,Tulare County,CA,83.78995433789954,NA,NA,NA
93277,Tulare County,CA,NA,NA,20.85308056872038,NA
93307,Kern County,CA,26.25570776255708,NA,NA,NA
93436,Santa Barbara County,CA,NA,21.99074074074074,NA,NA
93455,Santa Barbara County,CA,NA,NA,34.59715639810427,NA
93536,Los Angeles County,CA,NA,48.379629629629626,NA,NA
93612,Fresno County,CA,70.54794520547945,NA,NA,43.983402489626556
93635,Merced County,CA,NA,NA,NA,60.16597510373444
93726,Fresno County,CA,32.64840182648402,NA,NA,NA
93955,Monterey County,CA,NA,NA,93.8388625592417,NA
94040,Santa Clara County,CA,NA,NA,NA,75.93360995850622
94102,San Francisco County,CA,NA,12.731481481481483,NA,NA
94103,San Francisco County,CA,NA,18.287037037037038,NA,NA
94110,San Francisco County,CA,NA,47.4537037037037,NA,NA
94114,San Francisco County,CA,NA,NA,NA,56.84647302904564
94123,San Francisco County,CA,NA,66.89814814814815,NA,NA
94306,Santa Clara County,CA,NA,NA,75.35545023696683,NA
94403,San Mateo County,CA,NA,NA,NA,12.448132780082988
94506,Contra Costa County,CA,NA,NA,NA,84.23236514522821
94509,Contra Costa County,CA,NA,NA,NA,57.676348547717836
94518,Contra Costa County,CA,NA,NA,85.78199052132702,NA
94520,Contra Costa County,CA,NA,69.67592592592592,NA,NA
94542,Alameda County,CA,98.40182648401826,NA,NA,NA
94544,Alameda County,CA,NA,24.074074074074073,NA,NA
94546,Alameda County,CA,NA,NA,70.14218009478674,NA
94560,Alameda County,CA,NA,NA,NA,45.22821576763486
94565,Contra Costa County,CA,NA,27.314814814814813,NA,NA
94568,Alameda County,CA,39.95433789954338,NA,NA,NA
94621,Alameda County,CA,NA,37.26851851851852,NA,NA
94706,Alameda County,CA,NA,NA,NA,94.6058091286307
94931,Sonoma County,CA,NA,96.29629629629629,NA,NA
94954,Sonoma County,CA,75.79908675799086,NA,NA,NA
95014,Santa Clara County,CA,NA,NA,NA,22.40663900414938
95018,Santa Cruz County,CA,NA,97.22222222222221,NA,NA
95020,Santa Clara County,CA,NA,37.5,NA,NA
95023,San Benito County,CA,36.986301369863014,NA,NA,NA
95030,Santa Clara County,CA,97.94520547945206,NA,NA,NA
95037,Santa Clara County,CA,NA,NA,NA,30.70539419087137
95050,Santa Clara County,CA,85.84474885844749,NA,NA,NA
95111,Santa Clara County,CA,77.6255707762557,NA,NA,NA
95121,Santa Clara County,CA,74.65753424657534,NA,NA,NA
95240,San Joaquin County,CA,NA,NA,53.55450236966824,NA
95358,Stanislaus County,CA,NA,67.12962962962963,NA,NA
95376,San Joaquin County,CA,NA,NA,42.65402843601896,NA
95403,Sonoma County,CA,NA,NA,45.497630331753555,NA
95407,Sonoma County,CA,NA,NA,NA,70.53941908713693
95482,Mendocino County,CA,NA,42.36111111111111,NA,NA
95492,Sonoma County,CA,81.5068493150685,NA,NA,NA
95632,Sacramento County,CA,NA,NA,NA,72.19917012448133
95823,Sacramento County,CA,36.757990867579906,NA,NA,NA
95961,Yuba County,CA,88.58447488584474,NA,NA,NA
95963,Glenn County,CA,NA,NA,79.14691943127961,NA
95966,Butte County,CA,NA,15.046296296296296,NA,NA
95973,Butte County,CA,NA,60.18518518518518,NA,NA
95993,Sutter County,CA,NA,NA,46.91943127962085,NA
96055,Tehama County,CA,NA,96.75925925925925,NA,NA
80002,Jefferson County,CO,NA,84.02777777777779,85.30805687203792,NA
80007,Jefferson County,CO,64.61187214611871,NA,NA,NA
80020,Broomfield County,CO,15.52511415525114,NA,NA,NA
80027,Boulder County,CO,41.32420091324201,NA,NA,NA
80108,Douglas County,CO,NA,53.93518518518518,NA,NA
80113,Arapahoe County,CO,NA,NA,90.52132701421802,NA
80129,Douglas County,CO,NA,76.38888888888889,NA,NA
80134,Douglas County,CO,NA,NA,43.60189573459716,NA
80202,Denver County,CO,NA,80.0925925925926,97.6303317535545,NA
80218,Denver County,CO,NA,65.04629629629629,NA,NA
80226,Jefferson County,CO,NA,NA,84.83412322274881,NA
80227,Jefferson County,CO,NA,61.111111111111114,NA,NA
80229,Adams County,CO,NA,20.37037037037037,49.28909952606635,NA
80249,Denver County,CO,NA,NA,83.41232227488152,NA
80303,Boulder County,CO,NA,NA,NA,68.46473029045643
80401,Jefferson County,CO,NA,NA,NA,83.40248962655602
80421,Park County,CO,NA,NA,99.52606635071089,NA
80521,Larimer County,CO,NA,71.99074074074075,NA,NA
80550,Weld County,CO,28.99543378995434,NA,NA,NA
80620,Weld County,CO,NA,NA,NA,92.9460580912863
80631,Weld County,CO,NA,13.657407407407407,NA,NA
80634,Weld County,CO,NA,5.324074074074074,NA,NA
80640,Adams County,CO,NA,76.85185185185185,NA,NA
80910,El Paso County,CO,NA,30.787037037037035,NA,NA
81005,Pueblo County,CO,56.39269406392694,42.592592592592595,NA,77.17842323651453
81082,Las Animas County,CO,NA,NA,82.46445497630332,NA
81122,La Plata County,CO,98.85844748858447,NA,NA,NA
81625,Moffat County,CO,54.794520547945204,NA,NA,NA
06010,Hartford County,CT,NA,3.2407407407407405,NA,NA
06040,Hartford County,CT,NA,15.046296296296296,NA,NA
06112,Hartford County,CT,NA,22.916666666666664,NA,NA
06226,Windham County,CT,NA,22.453703703703702,51.65876777251185,NA
06410,New Haven County,CT,NA,NA,NA,41.90871369294606
06437,New Haven County,CT,NA,NA,NA,38.17427385892116
06451,New Haven County,CT,NA,NA,44.54976303317535,NA
06489,Hartford County,CT,NA,NA,60.66350710900474,NA
06512,New Haven County,CT,NA,NA,25.118483412322274,NA
06519,New Haven County,CT,NA,NA,NA,73.85892116182573
06607,Fairfield County,CT,NA,82.17592592592592,NA,NA
06608,Fairfield County,CT,NA,67.5925925925926,NA,NA
06611,Fairfield County,CT,73.28767123287672,NA,NA,NA
06615,Fairfield County,CT,79.45205479452055,NA,NA,NA
06790,Litchfield County,CT,NA,9.722222222222223,NA,NA
06801,Fairfield County,CT,NA,73.14814814814815,NA,NA
06810,Fairfield County,CT,NA,21.75925925925926,NA,NA
06824,Fairfield County,CT,54.337899543378995,NA,NA,61.41078838174274
06840,Fairfield County,CT,NA,79.62962962962963,NA,NA
06902,Fairfield County,CT,NA,NA,14.218009478672986,NA
19720,New Castle County,DE,NA,5.787037037037037,4.739336492890995,NA
19970,Sussex County,DE,NA,94.67592592592592,NA,NA
32003,Clay County,FL,50,NA,NA,NA
32011,Nassau County,FL,NA,NA,63.03317535545023,NA
32025,Columbia County,FL,NA,NA,NA,73.44398340248964
32052,Hamilton County,FL,NA,NA,95.260663507109,NA
32082,St. Johns County,FL,NA,NA,NA,25.311203319502074
32096,Hamilton County,FL,NA,99.30555555555556,NA,NA
32118,Volusia County,FL,NA,NA,NA,33.19502074688796
32127,Volusia County,FL,NA,NA,NA,27.385892116182575
32137,Flagler County,FL,46.80365296803653,NA,NA,NA
32218,Duval County,FL,NA,6.712962962962964,NA,NA
32224,Duval County,FL,NA,NA,NA,36.92946058091287
32234,Duval County,FL,94.29223744292237,NA,NA,NA
32250,Duval County,FL,NA,63.42592592592593,NA,NA
32408,Bay County,FL,54.337899543378995,NA,NA,NA
32440,Jackson County,FL,87.44292237442922,NA,96.2085308056872,NA
32506,Escambia County,FL,NA,20.60185185185185,NA,NA
32507,Escambia County,FL,NA,NA,NA,15.352697095435685
32526,Escambia County,FL,42.465753424657535,NA,NA,NA
32566,Santa Rosa County,FL,NA,NA,26.066350710900476,NA
32606,Alachua County,FL,NA,NA,32.22748815165877,NA
32641,Alachua County,FL,46.34703196347032,NA,NA,NA
32656,Clay County,FL,67.35159817351598,NA,NA,NA
32765,Seminole County,FL,54.794520547945204,NA,NA,NA
32812,Orange County,FL,67.8082191780822,NA,NA,NA
32905,Brevard County,FL,NA,NA,NA,33.19502074688796
32926,Brevard County,FL,NA,74.76851851851852,NA,NA
32953,Brevard County,FL,NA,NA,NA,15.767634854771783
33013,Miami-Dade County,FL,NA,87.5,NA,NA
33014,Miami-Dade County,FL,NA,70.13888888888889,NA,NA
33021,Broward County,FL,NA,77.54629629629629,NA,NA
33024,Broward County,FL,NA,NA,27.014218009478675,NA
33027,Broward County,FL,NA,NA,NA,4.979253112033195
33032,Miami-Dade County,FL,18.2648401826484,NA,NA,NA
33054,Miami-Dade County,FL,NA,55.78703703703704,NA,NA
33064,Broward County,FL,NA,43.75,NA,NA
33125,Miami-Dade County,FL,26.94063926940639,NA,NA,NA
33126,Miami-Dade County,FL,NA,NA,NA,21.57676348547718
33140,Miami-Dade County,FL,93.37899543378995,NA,NA,NA
33145,Miami-Dade County,FL,NA,84.02777777777779,NA,NA
33166,Miami-Dade County,FL,NA,88.88888888888889,NA,NA
33311,Broward County,FL,4.10958904109589,11.805555555555555,NA,NA
33317,Broward County,FL,NA,NA,NA,48.96265560165975
33328,Broward County,FL,NA,NA,88.15165876777252,NA
33407,Palm Beach County,FL,25.11415525114155,NA,NA,NA
33409,Palm Beach County,FL,NA,NA,95.73459715639811,NA
33418,Palm Beach County,FL,NA,NA,NA,44.398340248962654
33437,Palm Beach County,FL,NA,NA,NA,0
33441,Broward County,FL,80.59360730593608,NA,NA,NA
33545,Pasco County,FL,85.61643835616438,NA,NA,NA
33563,Hillsborough County,FL,NA,52.54629629629629,NA,NA
33578,Hillsborough County,FL,45.89041095890411,NA,NA,NA
33594,Hillsborough County,FL,NA,65.27777777777779,NA,NA
33647,Hillsborough County,FL,NA,56.481481481481474,NA,NA
33707,Pinellas County,FL,NA,NA,NA,24.481327800829874
33713,Pinellas County,FL,NA,NA,73.93364928909952,NA
33778,Pinellas County,FL,NA,NA,NA,79.66804979253112
33834,Hardee County,FL,97.71689497716895,NA,NA,NA
33881,Polk County,FL,NA,NA,39.81042654028436,NA
33908,Lee County,FL,NA,NA,NA,0.8298755186721992
33913,Lee County,FL,NA,NA,35.54502369668246,NA
33919,Lee County,FL,NA,62.03703703703704,NA,NA
33920,Lee County,FL,NA,98.14814814814815,NA,NA
33936,Lee County,FL,NA,53.24074074074075,NA,NA
33967,Lee County,FL,NA,NA,NA,82.98755186721992
34116,Collier County,FL,50.456621004566216,NA,NA,NA
34145,Collier County,FL,NA,NA,50.71090047393365,NA
34209,Manatee County,FL,NA,NA,NA,22.821576763485478
34231,Sarasota County,FL,NA,NA,NA,3.7344398340248963
34242,Sarasota County,FL,NA,97.91666666666666,NA,NA
34243,Manatee County,FL,NA,NA,NA,8.71369294605809
34287,Sarasota County,FL,NA,NA,33.649289099526065,NA
34481,Marion County,FL,NA,NA,30.80568720379147,NA
34491,Marion County,FL,NA,NA,39.33649289099526,NA
34601,Hernando County,FL,NA,NA,NA,46.88796680497925
34609,Hernando County,FL,43.37899543378995,NA,NA,NA
34652,Pasco County,FL,NA,NA,NA,47.30290456431535
34653,Pasco County,FL,NA,NA,NA,14.522821576763487
34714,Lake County,FL,65.06849315068493,NA,NA,NA
34743,Osceola County,FL,NA,NA,NA,66.80497925311202
34761,Orange County,FL,NA,45.83333333333333,NA,NA
34974,Okeechobee County,FL,NA,59.49074074074075,NA,NA
34984,St. Lucie County,FL,NA,NA,83.88625592417061,NA
30004,Fulton County,GA,34.47488584474886,NA,NA,NA
30030,DeKalb County,GA,NA,NA,67.29857819905213,NA
30032,DeKalb County,GA,NA,18.75,NA,NA
30040,Forsyth County,GA,NA,32.63888888888889,NA,NA
30052,Walton County,GA,36.3013698630137,NA,NA,NA
30066,Cobb County,GA,NA,NA,31.27962085308057,NA
30092,Gwinnett County,GA,47.03196347031963,NA,NA,NA
30114,Cherokee County,GA,NA,40.50925925925926,NA,NA
30115,Cherokee County,GA,NA,44.907407407407405,NA,NA
30120,Bartow County,GA,47.94520547945205,NA,NA,62.655601659751035
30126,Cobb County,GA,NA,49.074074074074076,NA,NA
30135,Douglas County,GA,10.273972602739725,NA,NA,NA
30152,Cobb County,GA,NA,60.18518518518518,NA,NA
30153,Polk County,GA,52.054794520547944,NA,NA,NA
30180,Carroll County,GA,NA,NA,43.127962085308056,NA
30214,Fayette County,GA,76.9406392694064,NA,NA,NA
30223,Spalding County,GA,NA,43.28703703703704,NA,NA
30236,Clayton County,GA,NA,68.28703703703704,NA,NA
30260,Clayton County,GA,53.42465753424658,NA,NA,NA
30310,Fulton County,GA,NA,NA,NA,53.52697095435685
30518,Gwinnett County,GA,NA,NA,42.18009478672986,NA
30523,Habersham County,GA,NA,NA,NA,66.39004149377593
30540,Gilmer County,GA,NA,NA,48.34123222748815,NA
30725,Walker County,GA,NA,92.12962962962963,NA,NA
30752,Dade County,GA,70.09132420091323,NA,NA,NA
31907,Muscogee County,GA,NA,13.194444444444445,NA,NA
31909,Muscogee County,GA,52.054794520547944,NA,NA,NA
96734,Honolulu County,HI,NA,NA,13.270142180094787,NA
96741,Kauai County,HI,NA,NA,NA,97.5103734439834
96782,Honolulu County,HI,NA,NA,27.488151658767773,NA
96817,Honolulu County,HI,NA,NA,NA,4.149377593360995
83201,Bannock County,ID,16.43835616438356,NA,NA,NA
83301,Twin Falls County,ID,NA,NA,1.4218009478672986,NA
83646,Ada County,ID,40.182648401826484,NA,NA,NA
83709,Ada County,ID,47.48858447488584,NA,NA,NA
60007,Cook County,IL,NA,59.25925925925925,NA,NA
60014,McHenry County,IL,NA,NA,16.587677725118482,NA
60030,Lake County,IL,36.07305936073059,NA,NA,NA
60047,Lake County,IL,37.67123287671233,NA,NA,NA
60062,Cook County,IL,NA,45.370370370370374,NA,0.4149377593360996
60074,Cook County,IL,NA,75.23148148148148,NA,NA
60076,Cook County,IL,72.14611872146118,NA,NA,16.182572614107883
60089,Lake County,IL,45.20547945205479,NA,12.322274881516588,NA
60091,Cook County,IL,55.47945205479452,NA,NA,NA
60112,DeKalb County,IL,97.26027397260275,NA,NA,NA
60126,DuPage County,IL,13.698630136986301,NA,NA,NA
60137,DuPage County,IL,28.31050228310502,NA,NA,NA
60178,DeKalb County,IL,NA,59.95370370370371,NA,NA
60406,Cook County,IL,NA,59.02777777777778,NA,NA
60419,Cook County,IL,NA,NA,NA,86.72199170124482
60451,Will County,IL,NA,25.925925925925924,NA,NA
60453,Cook County,IL,12.100456621004566,NA,NA,NA
60457,Cook County,IL,NA,75.69444444444444,NA,NA
60477,Cook County,IL,NA,32.870370370370374,NA,NA
60501,Cook County,IL,96.11872146118722,NA,NA,NA
60514,DuPage County,IL,NA,NA,98.10426540284361,NA
60516,DuPage County,IL,40.41095890410959,NA,NA,NA
60517,DuPage County,IL,62.10045662100456,NA,NA,NA
60543,Kendall County,IL,NA,41.2037037037037,NA,NA
60560,Kendall County,IL,NA,48.61111111111111,NA,NA
60565,DuPage County,IL,21.232876712328768,NA,NA,NA
60586,Will County,IL,19.17808219178082,NA,NA,NA
60612,Cook County,IL,NA,25.23148148148148,NA,NA
60614,Cook County,IL,NA,27.546296296296298,NA,NA
60629,Cook County,IL,NA,10.185185185185185,NA,NA
60631,Cook County,IL,55.70776255707762,NA,NA,NA
60640,Cook County,IL,37.89954337899543,NA,NA,NA
60643,Cook County,IL,24.200913242009133,NA,NA,NA
60644,Cook County,IL,NA,12.962962962962962,NA,NA
60646,Cook County,IL,NA,54.166666666666664,NA,NA
60647,Cook County,IL,18.493150684931507,NA,NA,NA
60657,Cook County,IL,NA,NA,NA,19.91701244813278
61364,LaSalle County,IL,70.31963470319634,NA,NA,NA
62863,Wabash County,IL,NA,NA,84.36018957345972,NA
62864,Jefferson County,IL,NA,52.31481481481482,NA,NA
46032,Hamilton County,IN,NA,NA,NA,23.651452282157674
46062,Hamilton County,IN,NA,63.19444444444444,NA,NA
46122,Hendricks County,IN,NA,NA,NA,88.79668049792531
46123,Hendricks County,IN,NA,78.00925925925925,NA,NA
46176,Shelby County,IN,NA,NA,14.691943127962084,NA
46202,Marion County,IN,NA,NA,77.72511848341233,NA
46224,Marion County,IN,24.885844748858446,NA,NA,NA
46254,Marion County,IN,NA,NA,33.175355450236964,NA
46256,Marion County,IN,84.93150684931507,NA,NA,NA
46310,Jasper County,IN,61.41552511415526,NA,NA,NA
46350,LaPorte County,IN,NA,14.351851851851851,NA,NA
46360,LaPorte County,IN,NA,9.25925925925926,NA,NA
46368,Porter County,IN,NA,5.555555555555555,NA,NA
46544,St. Joseph County,IN,NA,NA,NA,42.32365145228216
46614,St. Joseph County,IN,NA,NA,NA,40.66390041493776
46750,Huntington County,IN,17.123287671232877,NA,NA,NA
46819,Allen County,IN,NA,NA,79.62085308056872,NA
46845,Allen County,IN,81.9634703196347,NA,NA,NA
46901,Howard County,IN,NA,3.4722222222222223,NA,NA
46970,Miami County,IN,23.74429223744292,NA,NA,NA
46992,Wabash County,IN,NA,39.351851851851855,NA,NA
47302,Delaware County,IN,53.19634703196348,NA,NA,NA
47356,Henry County,IN,98.63013698630137,NA,NA,NA
47362,Henry County,IN,69.40639269406392,NA,NA,NA
47630,Warrick County,IN,NA,49.074074074074076,NA,NA
47711,Vanderburgh County,IN,NA,34.25925925925926,NA,NA
50049,Lucas County,IA,91.55251141552512,NA,NA,NA
50313,Polk County,IA,51.598173515981735,NA,NA,NA
50317,Polk County,IA,NA,17.12962962962963,NA,NA
50325,Polk County,IA,NA,87.73148148148148,NA,NA
50401,Cerro Gordo County,IA,2.73972602739726,NA,NA,NA
50536,Palo Alto County,IA,NA,95.37037037037037,NA,NA
51012,Cherokee County,IA,90.6392694063927,NA,NA,NA
51250,Sioux County,IA,79.22374429223744,NA,NA,NA
51503,Pottawattamie County,IA,NA,13.88888888888889,NA,NA
51601,Page County,IA,NA,71.75925925925925,NA,NA
52001,Dubuque County,IA,NA,21.296296296296298,NA,NA
52310,Jones County,IA,NA,89.35185185185185,NA,NA
52531,Monroe County,IA,NA,97.45370370370371,NA,NA
52601,Des Moines County,IA,NA,NA,NA,50.62240663900415
52761,Muscatine County,IA,NA,16.89814814814815,NA,NA
52802,Scott County,IA,90.8675799086758,NA,NA,NA
52804,Scott County,IA,NA,51.388888888888886,NA,NA
52806,Scott County,IA,NA,26.620370370370374,NA,NA
66061,Johnson County,KS,10.045662100456621,25.694444444444443,NA,NA
66210,Johnson County,KS,NA,NA,74.40758293838863,NA
66216,Johnson County,KS,NA,NA,65.87677725118483,NA
66503,Riley County,KS,NA,NA,NA,93.7759336099585
66614,Shawnee County,KS,NA,NA,NA,14.937759336099585
67042,Butler County,KS,NA,NA,NA,57.26141078838174
67207,Sedgwick County,KS,NA,NA,90.99526066350711,NA
67502,Reno County,KS,NA,NA,NA,58.50622406639005
67901,Seward County,KS,NA,NA,82.93838862559242,NA
40004,Nelson County,KY,NA,24.76851851851852,NA,NA
40047,Bullitt County,KY,NA,35.41666666666667,NA,NA
40057,Henry County,KY,93.15068493150685,NA,NA,NA
40065,Shelby County,KY,57.077625570776256,NA,NA,NA
40203,Jefferson County,KY,NA,NA,45.97156398104265,NA
40214,Jefferson County,KY,NA,11.574074074074074,NA,47.71784232365145
40215,Jefferson County,KY,NA,24.537037037037038,NA,NA
40219,Jefferson County,KY,23.972602739726025,NA,NA,NA
40241,Jefferson County,KY,NA,NA,47.39336492890995,NA
40342,Anderson County,KY,NA,40.0462962962963,NA,NA
40456,Rockcastle County,KY,NA,NA,NA,83.81742738589212
40505,Fayette County,KY,NA,NA,37.91469194312796,NA
40511,Fayette County,KY,33.10502283105023,NA,NA,NA
40513,Fayette County,KY,NA,91.89814814814815,NA,NA
41005,Boone County,KY,NA,NA,NA,65.56016597510373
41018,Kenton County,KY,34.70319634703196,NA,NA,NA
41042,Boone County,KY,11.643835616438356,NA,NA,NA
41071,Campbell County,KY,NA,33.33333333333333,NA,NA
41143,Carter County,KY,NA,47.22222222222222,NA,NA
41339,Breathitt County,KY,87.89954337899543,NA,NA,NA
41635,Floyd County,KY,NA,94.21296296296296,NA,NA
41653,Floyd County,KY,NA,49.76851851851852,NA,NA
42025,Marshall County,KY,62.55707762557078,NA,NA,31.12033195020747
42064,Crittenden County,KY,NA,86.80555555555556,NA,NA
42071,Calloway County,KY,NA,NA,50.23696682464455,NA
42206,Logan County,KY,NA,92.36111111111111,NA,NA
42217,Christian County,KY,NA,91.66666666666666,NA,NA
42220,Todd County,KY,NA,84.72222222222221,NA,NA
42501,Pulaski County,KY,NA,55.092592592592595,NA,NA
42701,Hardin County,KY,NA,16.203703703703702,NA,NA
70068,St. John the Baptist Parish,LA,5.251141552511415,NA,NA,NA
70072,Jefferson Parish,LA,0,NA,NA,59.33609958506224
70084,St. John the Baptist Parish,LA,NA,NA,NA,90.04149377593362
70087,St. Charles Parish,LA,86.3013698630137,NA,NA,NA
70345,Lafourche Parish,LA,NA,51.85185185185185,NA,NA
70346,Ascension Parish,LA,NA,77.08333333333334,NA,NA
70360,Terrebonne Parish,LA,NA,NA,31.753554502369667,NA
70403,Tangipahoa Parish,LA,NA,NA,34.12322274881517,NA
70435,St. Tammany Parish,LA,NA,NA,19.431279620853083,NA
70448,St. Tammany Parish,LA,NA,NA,NA,28.63070539419087
70452,St. Tammany Parish,LA,43.37899543378995,NA,NA,NA
70461,St. Tammany Parish,LA,8.447488584474886,NA,NA,NA
70714,East Baton Rouge Parish,LA,NA,NA,58.767772511848335,NA
70806,East Baton Rouge Parish,LA,50.91324200913242,NA,NA,NA
70814,East Baton Rouge Parish,LA,24.65753424657534,NA,NA,NA
70816,East Baton Rouge Parish,LA,NA,NA,40.28436018957346,NA
71292,Ouachita Parish,LA,68.2648401826484,NA,NA,NA
03909,York County,ME,NA,NA,NA,45.643153526970956
04043,York County,ME,NA,NA,47.867298578199055,NA
04106,Cumberland County,ME,63.926940639269404,NA,NA,NA
04270,Oxford County,ME,NA,NA,76.30331753554502,NA
04750,Aroostook County,ME,NA,93.75,NA,NA
20639,Calvert County,MD,NA,80.32407407407408,NA,NA
20646,Charles County,MD,NA,NA,92.89099526066352,NA
20715,Prince George's County,MD,63.242009132420094,NA,NA,NA
20724,Anne Arundel County,MD,NA,83.56481481481481,NA,NA
20815,Montgomery County,MD,NA,NA,NA,40.24896265560166
21014,Harford County,MD,NA,NA,NA,39.83402489626556
21030,Baltimore County,MD,NA,73.61111111111111,NA,NA
21040,Harford County,MD,NA,62.96296296296296,NA,NA
21113,Anne Arundel County,MD,NA,NA,NA,60.99585062240664
21136,Baltimore County,MD,NA,61.342592592592595,NA,NA
21154,Harford County,MD,NA,NA,NA,100
21701,Frederick County,MD,NA,NA,NA,41.49377593360996
21782,Washington County,MD,NA,100,NA,NA
21784,Carroll County,MD,35.61643835616438,NA,NA,NA
21903,Cecil County,MD,95.4337899543379,NA,NA,NA
01020,Hampden County,MA,NA,NA,13.744075829383887,NA
01129,Hampden County,MA,NA,NA,NA,92.5311203319502
01453,Worcester County,MA,NA,1.6203703703703702,NA,NA
01581,Worcester County,MA,NA,69.21296296296296,NA,NA
01604,Worcester County,MA,NA,11.11111111111111,NA,NA
01752,Middlesex County,MA,31.963470319634702,NA,NA,NA
01772,Worcester County,MA,84.47488584474885,NA,NA,NA
01821,Middlesex County,MA,32.19178082191781,8.101851851851851,NA,NA
01824,Middlesex County,MA,NA,14.583333333333334,NA,NA
01832,Essex County,MA,NA,NA,10.90047393364929,NA
01841,Essex County,MA,NA,NA,0,NA
01844,Essex County,MA,NA,NA,5.213270142180095,NA
01854,Middlesex County,MA,4.5662100456621,NA,NA,4.564315352697095
01915,Essex County,MA,9.1324200913242,NA,0.9478672985781991,NA
01970,Essex County,MA,22.602739726027394,NA,NA,NA
02021,Norfolk County,MA,12.785388127853881,NA,NA,NA
02043,Plymouth County,MA,NA,82.87037037037037,NA,NA
02048,Bristol County,MA,40.8675799086758,NA,NA,NA
02081,Norfolk County,MA,NA,NA,54.976303317535546,NA
02122,Suffolk County,MA,NA,1.8518518518518516,NA,NA
02127,Suffolk County,MA,20.091324200913242,NA,NA,NA
02138,Middlesex County,MA,32.19178082191781,NA,NA,NA
02155,Middlesex County,MA,NA,1.3888888888888888,NA,NA
02301,Plymouth County,MA,NA,21.52777777777778,2.843601895734597,NA
02343,Norfolk County,MA,62.55707762557078,NA,NA,NA
02360,Plymouth County,MA,NA,11.342592592592593,NA,NA
02420,Middlesex County,MA,41.55251141552511,NA,NA,NA
02446,Norfolk County,MA,19.863013698630137,NA,NA,NA
02467,Norfolk County,MA,NA,52.083333333333336,NA,NA
02474,Middlesex County,MA,NA,18.98148148148148,NA,NA
02481,Norfolk County,MA,NA,NA,NA,58.921161825726145
02536,Barnstable County,MA,NA,27.77777777777778,NA,NA
02632,Barnstable County,MA,NA,NA,NA,39.004149377593365
02648,Barnstable County,MA,93.60730593607306,NA,NA,NA
02653,Barnstable County,MA,NA,96.52777777777779,NA,NA
02721,Bristol County,MA,NA,0.23148148148148145,NA,NA
02723,Bristol County,MA,NA,NA,NA,99.5850622406639
02745,Bristol County,MA,NA,NA,NA,5.809128630705394
02790,Bristol County,MA,53.65296803652968,NA,NA,29.460580912863072
48025,Oakland County,MI,NA,80.78703703703704,NA,NA
48098,Oakland County,MI,NA,NA,NA,54.77178423236515
48127,Wayne County,MI,18.949771689497716,NA,NA,NA
48135,Wayne County,MI,34.01826484018265,NA,NA,NA
48141,Wayne County,MI,NA,NA,NA,31.535269709543567
48154,Wayne County,MI,NA,29.86111111111111,NA,NA
48168,Wayne County,MI,NA,58.333333333333336,NA,NA
48169,Livingston County,MI,NA,NA,NA,37.344398340248965
48170,Wayne County,MI,NA,19.675925925925927,NA,NA
48185,Wayne County,MI,6.8493150684931505,NA,NA,NA
48197,Washtenaw County,MI,3.65296803652968,NA,NA,NA
48201,Wayne County,MI,NA,73.37962962962963,NA,NA
48205,Wayne County,MI,NA,7.4074074074074066,NA,NA
48210,Wayne County,MI,11.187214611872145,NA,NA,NA
48214,Wayne County,MI,42.922374429223744,NA,NA,NA
48235,Wayne County,MI,NA,4.166666666666666,3.7914691943127963,NA
48237,Oakland County,MI,21.689497716894977,NA,NA,NA
48240,Wayne County,MI,75.34246575342466,NA,NA,NA
48306,Oakland County,MI,38.58447488584475,NA,NA,NA
48309,Oakland County,MI,NA,NA,NA,24.066390041493776
48312,Macomb County,MI,NA,31.944444444444443,NA,NA
48313,Macomb County,MI,42.00913242009132,NA,NA,NA
48371,Oakland County,MI,NA,42.129629629629626,NA,NA
48393,Oakland County,MI,74.42922374429224,NA,NA,NA
48413,Huron County,MI,NA,NA,59.71563981042654,NA
48430,Genesee County,MI,NA,32.407407407407405,NA,NA
48442,Oakland County,MI,NA,NA,56.872037914691944,NA
48451,Genesee County,MI,65.98173515981736,NA,NA,NA
48458,Genesee County,MI,36.5296803652968,NA,NA,NA
48462,Oakland County,MI,NA,78.24074074074075,NA,NA
48843,Livingston County,MI,2.5114155251141552,NA,NA,NA
48911,Ingham County,MI,NA,10.648148148148149,NA,NA
48917,Eaton County,MI,NA,14.120370370370368,NA,NA
49024,Kalamazoo County,MI,NA,NA,23.696682464454977,NA
49426,Ottawa County,MI,NA,NA,44.07582938388626,NA
49464,Ottawa County,MI,39.26940639269406,NA,NA,NA
49506,Kent County,MI,44.29223744292237,NA,NA,NA
49507,Kent County,MI,2.054794520547945,NA,NA,NA
49665,Osceola County,MI,90.8675799086758,NA,NA,NA
49738,Crawford County,MI,53.88127853881278,NA,NA,NA
49801,Dickinson County,MI,NA,NA,46.44549763033176,NA
55021,Rice County,MN,NA,NA,NA,50.20746887966805
55060,Steele County,MN,34.24657534246575,NA,NA,NA
55063,Pine County,MN,NA,NA,NA,67.63485477178423
55104,Ramsey County,MN,NA,21.064814814814813,NA,NA
55105,Ramsey County,MN,NA,NA,71.56398104265402,NA
55106,Ramsey County,MN,NA,10.87962962962963,NA,NA
55119,Ramsey County,MN,NA,NA,NA,43.15352697095436
55125,Washington County,MN,NA,NA,57.345971563981045,NA
55126,Ramsey County,MN,73.28767123287672,NA,NA,NA
55129,Washington County,MN,NA,75.46296296296296,NA,NA
55313,Wright County,MN,18.72146118721461,NA,NA,NA
55317,Carver County,MN,80.82191780821918,NA,NA,NA
55318,Carver County,MN,NA,NA,NA,77.59336099585063
55328,Wright County,MN,86.0730593607306,NA,NA,NA
55330,Sherburne County,MN,16.43835616438356,NA,NA,NA
55345,Hennepin County,MN,NA,NA,78.19905213270142,NA
55346,Hennepin County,MN,91.55251141552512,85.18518518518519,NA,NA
55369,Hennepin County,MN,13.926940639269406,NA,NA,NA
55376,Wright County,MN,47.26027397260274,NA,NA,NA
55405,Hennepin County,MN,NA,40.97222222222222,55.45023696682464,NA
55407,Hennepin County,MN,28.767123287671232,NA,NA,NA
55408,Hennepin County,MN,15.068493150684931,NA,NA,NA
55413,Hennepin County,MN,NA,NA,NA,87.96680497925311
55419,Hennepin County,MN,NA,NA,66.82464454976304,NA
55422,Hennepin County,MN,NA,36.11111111111111,NA,NA
55423,Hennepin County,MN,NA,25.462962962962965,NA,NA
55803,St. Louis County,MN,NA,NA,NA,34.85477178423236
55806,St. Louis County,MN,NA,NA,NA,95.0207468879668
55812,St. Louis County,MN,NA,NA,NA,85.06224066390041
55987,Winona County,MN,NA,13.425925925925927,NA,NA
56071,Scott County,MN,NA,NA,NA,69.29460580912863
56085,Brown County,MN,89.26940639269407,NA,NA,NA
56164,Pipestone County,MN,NA,NA,92.41706161137441,NA
56215,Swift County,MN,NA,NA,NA,87.55186721991701
56362,Stearns County,MN,NA,NA,NA,85.89211618257261
56378,Stearns County,MN,NA,NA,90.04739336492891,NA
56621,Clearwater County,MN,NA,NA,NA,75.51867219917013
38654,DeSoto County,MS,26.48401826484018,NA,NA,NA
38672,DeSoto County,MS,68.4931506849315,NA,NA,NA
38852,Tishomingo County,MS,NA,NA,72.51184834123224,NA
38901,Grenada County,MS,55.93607305936074,NA,NA,NA
39042,Rankin County,MS,NA,39.58333333333333,NA,NA
39204,Hinds County,MS,6.164383561643835,NA,NA,NA
39208,Rankin County,MS,NA,NA,NA,68.87966804979253
39305,Lauderdale County,MS,NA,NA,NA,55.601659751037346
39507,Harrison County,MS,65.98173515981736,NA,NA,NA
39702,Lowndes County,MS,NA,42.824074074074076,NA,NA
63028,Jefferson County,MO,NA,NA,NA,48.13278008298755
63033,St. Louis County,MO,NA,NA,NA,7.468879668049793
63104,St. Louis city,MO,NA,NA,NA,98.7551867219917
63123,St. Louis County,MO,NA,NA,NA,1.6597510373443984
63136,St. Louis County,MO,NA,12.037037037037036,NA,NA
63146,St. Louis County,MO,NA,NA,NA,7.883817427385892
63701,Cape Girardeau County,MO,3.1963470319634704,NA,NA,NA
63755,Cape Girardeau County,MO,11.187214611872145,NA,NA,NA
63775,Perry County,MO,NA,40.74074074074074,NA,NA
63901,Butler County,MO,1.5981735159817352,NA,NA,NA
64063,Jackson County,MO,28.08219178082192,NA,NA,NA
64076,Lafayette County,MO,NA,71.52777777777779,NA,NA
64108,Jackson County,MO,NA,63.888888888888886,NA,NA
64109,Jackson County,MO,21.461187214611872,NA,NA,NA
64110,Jackson County,MO,45.20547945205479,NA,NA,NA
64112,Jackson County,MO,NA,NA,88.15165876777252,NA
64118,Clay County,MO,NA,8.796296296296296,NA,NA
64151,Platte County,MO,NA,36.574074074074076,NA,NA
64804,Jasper County,MO,NA,NA,NA,11.20331950207469
65065,Camden County,MO,NA,NA,78.67298578199052,NA
65202,Boone County,MO,NA,NA,25.59241706161137,NA
65251,Callaway County,MO,24.200913242009133,NA,NA,NA
65360,Henry County,MO,92.69406392694064,NA,NA,NA
65560,Dent County,MO,NA,NA,NA,36.099585062240664
65802,Greene County,MO,19.63470319634703,NA,NA,NA
65807,Greene County,MO,NA,NA,18.009478672985782,NA
59230,Valley County,MT,NA,NA,NA,81.32780082987551
59715,Gallatin County,MT,72.3744292237443,NA,NA,NA
59804,Missoula County,MT,92.00913242009132,NA,NA,NA
59937,Flathead County,MT,NA,NA,77.25118483412322,NA
68022,Douglas County,NE,NA,NA,91.9431279620853,NA
68410,Otoe County,NE,NA,NA,NA,71.36929460580913
68506,Lancaster County,NE,NA,NA,NA,41.078838174273855
68512,Lancaster County,NE,NA,91.20370370370371,NA,NA
68516,Lancaster County,NE,28.538812785388128,69.44444444444444,NA,NA
68521,Lancaster County,NE,65.52511415525115,NA,NA,NA
68901,Adams County,NE,NA,NA,NA,32.780082987551864
69162,Cheyenne County,NE,NA,79.86111111111111,NA,NA
69361,Scotts Bluff County,NE,NA,NA,NA,68.04979253112033
89103,Clark County,NV,63.4703196347032,NA,NA,NA
89117,Clark County,NV,NA,NA,NA,39.41908713692946
89122,Clark County,NV,NA,61.80555555555556,NA,NA
89128,Clark County,NV,NA,56.018518518518526,NA,NA
89143,Clark County,NV,96.57534246575342,NA,NA,NA
89436,Washoe County,NV,NA,NA,15.165876777251185,NA
89508,Washoe County,NV,NA,72.22222222222221,NA,NA
89523,Washoe County,NV,NA,58.10185185185185,NA,NA
03055,Hillsborough County,NH,NA,NA,NA,46.058091286307054
03060,Hillsborough County,NH,NA,NA,NA,19.08713692946058
03064,Hillsborough County,NH,NA,35.18518518518518,NA,NA
03431,Cheshire County,NH,NA,34.9537037037037,NA,NA
07002,Hudson County,NJ,NA,NA,NA,10.78838174273859
07012,Passaic County,NJ,NA,NA,NA,80.91286307053942
07034,Morris County,NJ,NA,76.62037037037037,NA,NA
07042,Essex County,NJ,NA,NA,63.03317535545023,NA
07047,Hudson County,NJ,NA,NA,NA,7.053941908713693
07050,Essex County,NJ,26.71232876712329,15.50925925925926,NA,NA
07060,Union County,NJ,NA,89.81481481481481,NA,NA
07065,Union County,NJ,NA,NA,41.70616113744076,NA
07103,Essex County,NJ,NA,NA,1.8957345971563981,NA
07107,Essex County,NJ,30.82191780821918,NA,NA,NA
07108,Essex County,NJ,NA,85.87962962962963,NA,NA
07305,Hudson County,NJ,NA,NA,2.3696682464454977,NA
07407,Bergen County,NJ,NA,68.05555555555556,NA,NA
07432,Bergen County,NJ,94.52054794520548,NA,NA,NA
07465,Passaic County,NJ,NA,97.45370370370371,NA,NA
07470,Passaic County,NJ,NA,22.22222222222222,NA,NA
07501,Passaic County,NJ,NA,2.7777777777777777,NA,54.356846473029044
07601,Bergen County,NJ,NA,33.101851851851855,NA,NA
07666,Bergen County,NJ,49.08675799086758,NA,NA,NA
07701,Monmouth County,NJ,NA,50.69444444444444,NA,NA
07840,Warren County,NJ,NA,38.88888888888889,NA,NA
07901,Union County,NJ,87.21461187214612,NA,NA,NA
08046,Burlington County,NJ,NA,NA,29.383886255924168,NA
08053,Burlington County,NJ,NA,61.57407407407407,NA,NA
08054,Burlington County,NJ,NA,NA,55.92417061611374,NA
08069,Salem County,NJ,83.78995433789954,NA,NA,NA
08094,Gloucester County,NJ,14.383561643835616,NA,NA,NA
08102,Camden County,NJ,NA,12.5,NA,NA
08201,Atlantic County,NJ,96.80365296803653,NA,NA,NA
08215,Atlantic County,NJ,NA,71.29629629629629,NA,NA
08360,Cumberland County,NJ,NA,1.1574074074074074,NA,NA
08540,Mercer County,NJ,NA,43.05555555555556,NA,NA
08619,Mercer County,NJ,NA,52.54629629629629,NA,NA
08701,Ocean County,NJ,NA,38.657407407407405,NA,NA
08807,Somerset County,NJ,52.73972602739726,NA,NA,NA
08857,Middlesex County,NJ,75.57077625570776,NA,NA,NA
08861,Middlesex County,NJ,NA,2.083333333333333,NA,NA
08889,Hunterdon County,NJ,NA,91.43518518518519,NA,NA
87004,Sandoval County,NM,89.49771689497716,NA,NA,NA
87508,Santa Fe County,NM,NA,NA,NA,61.82572614107884
87557,Taos County,NM,NA,NA,91.4691943127962,NA
88001,Doa Ana County,NM,NA,NA,NA,53.941908713692946
10009,New York County,NY,37.44292237442922,NA,NA,NA
10023,New York County,NY,NA,53.00925925925925,NA,NA
10026,New York County,NY,NA,31.712962962962965,NA,NA
10032,New York County,NY,23.059360730593607,NA,NA,NA
10038,New York County,NY,NA,NA,NA,62.24066390041494
10065,New York County,NY,NA,NA,NA,80.08298755186722
10075,New York County,NY,NA,NA,70.61611374407583,NA
10303,Richmond County,NY,NA,NA,52.60663507109005,NA
10304,Richmond County,NY,NA,19.90740740740741,NA,NA
10453,Bronx County,NY,NA,0.9259259259259258,NA,NA
10454,Bronx County,NY,NA,NA,8.530805687203792,NA
10463,Bronx County,NY,NA,12.268518518518519,NA,NA
10466,Bronx County,NY,38.35616438356164,NA,NA,NA
10467,Bronx County,NY,0.45662100456621,NA,NA,NA
10472,Bronx County,NY,NA,3.7037037037037033,NA,NA
10475,Bronx County,NY,NA,31.01851851851852,NA,NA
10550,Westchester County,NY,25.570776255707763,NA,NA,NA
10589,Westchester County,NY,NA,NA,NA,52.69709543568465
10804,Westchester County,NY,NA,NA,NA,85.47717842323651
10977,Rockland County,NY,31.05022831050228,NA,NA,NA
11096,Nassau County,NY,NA,95.60185185185185,NA,NA
11207,Kings County,NY,NA,0.4629629629629629,NA,NA
11215,Kings County,NY,NA,NA,NA,17.842323651452283
11219,Kings County,NY,NA,NA,22.274881516587676,NA
11220,Kings County,NY,NA,NA,NA,14.107883817427386
11224,Kings County,NY,NA,NA,8.056872037914692,NA
11238,Kings County,NY,NA,26.15740740740741,NA,NA
11373,Queens County,NY,NA,NA,17.535545023696685,NA
11374,Queens County,NY,81.05022831050228,NA,NA,NA
11377,Queens County,NY,20.54794520547945,NA,NA,21.16182572614108
11423,Queens County,NY,NA,NA,NA,65.14522821576763
11432,Queens County,NY,44.29223744292237,62.731481481481474,NA,NA
11598,Nassau County,NY,97.26027397260275,NA,NA,NA
11714,Nassau County,NY,NA,NA,81.04265402843602,NA
11726,Suffolk County,NY,86.5296803652968,NA,NA,75.10373443983403
11741,Suffolk County,NY,NA,74.76851851851852,NA,NA
11752,Suffolk County,NY,98.17351598173516,NA,NA,NA
12019,Saratoga County,NY,78.31050228310502,NA,NA,NA
12118,Saratoga County,NY,NA,63.42592592592593,NA,NA
12180,Rensselaer County,NY,7.30593607305936,3.935185185185185,NA,NA
12550,Orange County,NY,NA,NA,62.55924170616114,NA
12801,Warren County,NY,NA,NA,68.72037914691943,NA
12883,Essex County,NY,84.47488584474885,NA,NA,NA
13021,Cayuga County,NY,5.47945205479452,NA,NA,NA
13054,Oneida County,NY,99.54337899543378,NA,NA,NA
13126,Oswego County,NY,NA,NA,NA,12.033195020746888
13160,Cayuga County,NY,NA,96.06481481481481,NA,NA
13210,Onondaga County,NY,NA,NA,76.77725118483413,NA
13214,Onondaga County,NY,NA,82.63888888888889,NA,NA
13905,Broome County,NY,NA,NA,6.6350710900473935,NA
14006,Erie County,NY,NA,NA,69.66824644549763,NA
14120,Niagara County,NY,6.621004566210045,NA,NA,NA
14204,Erie County,NY,57.534246575342465,NA,NA,NA
14215,Erie County,NY,8.67579908675799,2.5462962962962963,NA,NA
14221,Erie County,NY,NA,16.203703703703702,NA,NA
14428,Monroe County,NY,NA,NA,61.61137440758294,NA
14450,Monroe County,NY,10.50228310502283,NA,NA,NA
14513,Wayne County,NY,NA,8.333333333333332,NA,NA
14532,Ontario County,NY,NA,58.79629629629629,NA,NA
14620,Monroe County,NY,29.68036529680365,NA,18.48341232227488,NA
14622,Monroe County,NY,NA,28.935185185185187,NA,NA
14701,Chautauqua County,NY,NA,6.018518518518518,NA,NA
14757,Chautauqua County,NY,NA,92.5925925925926,NA,NA
14760,Cattaraugus County,NY,NA,40.27777777777778,NA,NA
14845,Chemung County,NY,NA,NA,NA,34.024896265560166
14850,Tompkins County,NY,NA,7.87037037037037,NA,NA
14858,Steuben County,NY,NA,94.44444444444444,NA,NA
14870,Steuben County,NY,NA,64.58333333333334,NA,NA
14904,Chemung County,NY,33.789954337899545,NA,NA,NA
27104,Forsyth County,NC,NA,NA,NA,2.0746887966804977
27105,Forsyth County,NC,NA,4.398148148148148,NA,NA
27205,Randolph County,NC,NA,NA,27.96208530805687,NA
27215,Alamance County,NC,NA,NA,NA,9.95850622406639
27295,Davidson County,NC,NA,NA,4.265402843601896,NA
27326,Rockingham County,NC,99.31506849315068,NA,NA,NA
27401,Guilford County,NC,NA,NA,NA,64.31535269709543
27405,Guilford County,NC,5.93607305936073,NA,NA,NA
27504,Johnston County,NC,NA,66.43518518518519,69.19431279620854,NA
27519,Wake County,NC,44.06392694063927,NA,NA,NA
27569,Johnston County,NC,84.93150684931507,NA,NA,NA
27574,Person County,NC,NA,68.75,NA,NA
27587,Wake County,NC,NA,27.083333333333332,NA,NA
27609,Wake County,NC,NA,NA,NA,26.970954356846473
27703,Durham County,NC,NA,NA,NA,24.896265560165975
27804,Nash County,NC,NA,38.88888888888889,NA,NA
27850,Halifax County,NC,NA,85.64814814814815,NA,NA
28078,Mecklenburg County,NC,NA,NA,38.388625592417064,NA
28086,Cleveland County,NC,NA,31.25,NA,NA
28117,Iredell County,NC,NA,NA,36.96682464454976,NA
28144,Rowan County,NC,NA,39.81481481481482,NA,NA
28206,Mecklenburg County,NC,NA,46.75925925925926,71.09004739336493,NA
28207,Mecklenburg County,NC,89.72602739726028,NA,NA,NA
28212,Mecklenburg County,NC,NA,NA,NA,73.02904564315352
28214,Mecklenburg County,NC,NA,34.49074074074074,NA,NA
28216,Mecklenburg County,NC,NA,NA,NA,26.141078838174277
28226,Mecklenburg County,NC,NA,56.94444444444444,NA,NA
28270,Mecklenburg County,NC,NA,NA,51.18483412322274,NA
28311,Cumberland County,NC,NA,30.555555555555557,NA,NA
28312,Cumberland County,NC,45.20547945205479,NA,NA,NA
28358,Robeson County,NC,14.61187214611872,NA,NA,NA
28387,Moore County,NC,83.10502283105022,NA,NA,NA
28443,Pender County,NC,68.94977168949772,NA,NA,NA
28580,Greene County,NC,NA,NA,NA,78.00829875518673
28625,Iredell County,NC,19.406392694063925,NA,NA,NA
28645,Caldwell County,NC,NA,NA,0.47393364928909953,NA
28651,Wilkes County,NC,NA,NA,NA,96.2655601659751
28681,Alexander County,NC,NA,57.407407407407405,NA,NA
28756,Polk County,NC,95.662100456621,NA,NA,NA
58075,Richland County,ND,NA,NA,NA,90.87136929460581
58201,Grand Forks County,ND,NA,NA,9.47867298578199,NA
58601,Stark County,ND,NA,48.148148148148145,NA,NA
58703,Ward County,ND,77.85388127853882,NA,NA,NA
43004,Franklin County,OH,21.00456621004566,NA,NA,NA
43050,Knox County,OH,NA,NA,6.161137440758294,NA
43055,Licking County,OH,4.794520547945205,NA,NA,NA
43062,Licking County,OH,60.04566210045662,NA,NA,NA
43119,Franklin County,OH,NA,29.629629629629626,NA,NA
43130,Fairfield County,OH,NA,2.314814814814815,NA,NA
43140,Madison County,OH,33.56164383561644,NA,NA,NA
43223,Franklin County,OH,NA,9.49074074074074,NA,NA
43228,Franklin County,OH,NA,6.25,NA,NA
43231,Franklin County,OH,18.036529680365295,NA,NA,NA
43302,Marion County,OH,NA,NA,NA,2.904564315352697
43420,Sandusky County,OH,NA,NA,17.061611374407583,NA
43430,Ottawa County,OH,NA,90.50925925925925,NA,NA
43512,Defiance County,OH,NA,7.175925925925926,7.109004739336493,NA
43543,Williams County,OH,77.3972602739726,NA,NA,NA
43605,Lucas County,OH,NA,4.62962962962963,NA,NA
43606,Lucas County,OH,12.32876712328767,NA,37.44075829383886,NA
43612,Lucas County,OH,NA,7.638888888888889,NA,NA
43613,Lucas County,OH,1.36986301369863,NA,NA,NA
43614,Lucas County,OH,NA,NA,11.848341232227488,NA
43623,Lucas County,OH,NA,NA,NA,32.365145228215766
43793,Monroe County,OH,90.8675799086758,NA,NA,NA
43964,Jefferson County,OH,NA,NA,NA,76.34854771784232
44004,Ashtabula County,OH,0.684931506849315,NA,NA,NA
44030,Ashtabula County,OH,NA,28.009259259259263,NA,NA
44035,Lorain County,OH,NA,0,NA,NA
44055,Lorain County,OH,NA,NA,21.32701421800948,NA
44076,Ashtabula County,OH,NA,79.39814814814815,NA,NA
44102,Cuyahoga County,OH,NA,6.481481481481481,NA,NA
44105,Cuyahoga County,OH,NA,0.6944444444444444,NA,NA
44108,Cuyahoga County,OH,NA,NA,NA,17.42738589211618
44109,Cuyahoga County,OH,0.228310502283105,NA,NA,NA
44111,Cuyahoga County,OH,1.141552511415525,NA,21.80094786729858,NA
44114,Cuyahoga County,OH,NA,37.03703703703704,NA,NA
44131,Cuyahoga County,OH,NA,NA,19.90521327014218,NA
44137,Cuyahoga County,OH,NA,NA,10.42654028436019,NA
44202,Portage County,OH,42.922374429223744,NA,NA,NA
44203,Summit County,OH,5.47945205479452,NA,NA,NA
44483,Trumbull County,OH,11.87214611872146,NA,NA,NA
44484,Trumbull County,OH,25.799086757990867,NA,NA,NA
44601,Stark County,OH,NA,NA,NA,10.37344398340249
44662,Stark County,OH,NA,75.92592592592592,NA,NA
44691,Wayne County,OH,NA,NA,7.5829383886255926,NA
44805,Ashland County,OH,13.013698630136986,NA,NA,NA
44811,Sandusky County,OH,NA,NA,93.36492890995261,NA
44870,Erie County,OH,0.91324200913242,3.009259259259259,3.3175355450236967,NA
45011,Butler County,OH,NA,4.62962962962963,NA,NA
45015,Butler County,OH,NA,NA,NA,99.1701244813278
45039,Warren County,OH,55.25114155251142,NA,NA,NA
45044,Butler County,OH,NA,8.564814814814815,NA,NA
45050,Butler County,OH,NA,NA,NA,80.49792531120332
45106,Clermont County,OH,76.48401826484019,NA,NA,NA
45140,Clermont County,OH,NA,28.703703703703702,NA,NA
45177,Clinton County,OH,NA,29.166666666666668,NA,NA
45213,Hamilton County,OH,89.04109589041096,NA,NA,NA
45231,Hamilton County,OH,NA,NA,NA,74.68879668049793
45238,Hamilton County,OH,NA,19.444444444444446,NA,NA
45242,Hamilton County,OH,NA,NA,NA,42.738589211618255
45247,Hamilton County,OH,NA,NA,NA,27.800829875518673
45255,Hamilton County,OH,NA,NA,52.13270142180095,NA
45315,Montgomery County,OH,NA,NA,97.1563981042654,NA
45338,Preble County,OH,83.10502283105022,NA,NA,NA
45344,Clark County,OH,NA,NA,NA,74.27385892116183
45365,Shelby County,OH,38.81278538812785,NA,NA,NA
45373,Miami County,OH,NA,NA,NA,37.75933609958506
45383,Miami County,OH,NA,NA,NA,84.64730290456431
45385,Greene County,OH,NA,16.666666666666664,NA,NA
45424,Montgomery County,OH,NA,NA,NA,8.29875518672199
45503,Clark County,OH,NA,NA,15.639810426540285,NA
45662,Scioto County,OH,NA,NA,NA,2.4896265560165975
45714,Washington County,OH,NA,23.84259259259259,NA,31.950207468879665
45805,Allen County,OH,NA,NA,29.85781990521327,NA
45806,Allen County,OH,71.00456621004567,NA,NA,NA
45875,Putnam County,OH,82.1917808219178,NA,NA,NA
45891,Van Wert County,OH,38.81278538812785,NA,NA,NA
73051,Cleveland County,OK,NA,NA,NA,91.28630705394191
73072,Cleveland County,OK,NA,NA,NA,38.589211618257266
73098,Garvin County,OK,NA,NA,NA,95.4356846473029
73160,Cleveland County,OK,NA,18.055555555555554,NA,NA
73701,Garfield County,OK,NA,NA,38.862559241706165,NA
74012,Tulsa County,OK,NA,30.09259259259259,NA,NA
74033,Tulsa County,OK,63.6986301369863,NA,NA,NA
74055,Tulsa County,OK,NA,57.870370370370374,NA,NA
74126,Tulsa County,OK,NA,78.47222222222221,NA,NA
74136,Tulsa County,OK,NA,NA,NA,29.045643153526974
74525,Atoka County,OK,84.93150684931507,NA,NA,NA
74701,Bryan County,OK,NA,NA,61.137440758293835,NA
74745,McCurtain County,OK,NA,NA,94.7867298578199,NA
74960,Adair County,OK,27.397260273972602,NA,NA,NA
97007,Washington County,OR,NA,37.96296296296296,NA,NA
97013,Clackamas County,OR,67.35159817351598,62.5,NA,NA
97027,Clackamas County,OR,73.74429223744292,NA,NA,NA
97031,Hood River County,OR,NA,72.45370370370371,NA,NA
97035,Clackamas County,OR,NA,73.8425925925926,NA,NA
97062,Washington County,OR,37.21461187214612,NA,NA,NA
97080,Multnomah County,OR,38.12785388127854,NA,NA,NA
97124,Washington County,OR,NA,NA,NA,28.21576763485477
97202,Multnomah County,OR,NA,NA,NA,81.74273858921161
97206,Multnomah County,OR,NA,19.212962962962962,NA,NA
97209,Multnomah County,OR,NA,43.51851851851852,NA,NA
97212,Multnomah County,OR,NA,NA,80.56872037914692,NA
97213,Multnomah County,OR,NA,NA,65.40284360189574,NA
97217,Multnomah County,OR,NA,46.52777777777778,NA,NA
97220,Multnomah County,OR,61.41552511415526,71.06481481481481,NA,NA
97236,Multnomah County,OR,73.0593607305936,NA,NA,NA
97266,Multnomah County,OR,NA,68.51851851851852,NA,NA
97306,Marion County,OR,78.31050228310502,NA,NA,NA
97321,Linn County,OR,NA,64.81481481481481,NA,NA
97322,Linn County,OR,NA,NA,NA,9.54356846473029
97325,Marion County,OR,82.1917808219178,NA,NA,NA
97361,Polk County,OR,NA,81.25,NA,NA
97386,Linn County,OR,NA,NA,NA,79.25311203319502
97446,Linn County,OR,NA,NA,NA,97.5103734439834
97504,Jackson County,OR,NA,NA,NA,3.319502074688797
97703,Deschutes County,OR,73.97260273972603,NA,NA,NA
97754,Crook County,OR,NA,NA,NA,35.26970954356847
97838,Umatilla County,OR,NA,NA,18.95734597156398,NA
15061,Beaver County,PA,NA,NA,NA,63.90041493775933
15066,Beaver County,PA,NA,NA,NA,69.29460580912863
15074,Beaver County,PA,NA,67.82407407407408,NA,NA
15102,Allegheny County,PA,NA,67.36111111111111,NA,NA
15342,Washington County,PA,NA,NA,NA,90.45643153526972
15642,Westmoreland County,PA,NA,NA,9.004739336492891,NA
16101,Lawrence County,PA,41.55251141552511,9.953703703703704,NA,NA
16102,Lawrence County,PA,NA,87.26851851851852,NA,NA
16146,Mercer County,PA,78.08219178082192,NA,NA,NA
16248,Clarion County,PA,NA,99.53703703703704,NA,NA
16323,Venango County,PA,56.62100456621004,NA,NA,NA
16602,Blair County,PA,NA,NA,16.113744075829384,NA
16662,Blair County,PA,NA,NA,NA,82.15767634854771
16823,Centre County,PA,NA,NA,NA,19.502074688796682
16841,Centre County,PA,NA,87.03703703703704,NA,NA
17046,Lebanon County,PA,9.58904109589041,14.814814814814813,NA,NA
17074,Perry County,PA,NA,NA,NA,87.13692946058092
17078,Lebanon County,PA,8.21917808219178,NA,NA,NA
17103,Dauphin County,PA,NA,44.21296296296296,NA,NA
17314,York County,PA,95.662100456621,NA,NA,NA
17345,York County,PA,57.30593607305936,NA,NA,NA
17364,York County,PA,NA,95.13888888888889,NA,NA
17584,Lancaster County,PA,NA,83.10185185185185,NA,NA
17756,Lycoming County,PA,57.99086757990868,NA,NA,NA
17901,Schuylkill County,PA,10.95890410958904,NA,NA,NA
18055,Northampton County,PA,NA,45.601851851851855,NA,55.18672199170125
18072,Northampton County,PA,82.64840182648402,NA,NA,NA
18330,Monroe County,PA,79.90867579908677,NA,NA,NA
18360,Monroe County,PA,46.34703196347032,NA,NA,NA
18621,Luzerne County,PA,92.69406392694064,NA,NA,NA
18960,Bucks County,PA,67.12328767123287,NA,NA,NA
19002,Montgomery County,PA,78.99543378995433,NA,NA,NA
19008,Delaware County,PA,NA,NA,NA,46.47302904564315
19033,Delaware County,PA,NA,NA,99.0521327014218,NA
19041,Delaware County,PA,NA,92.82407407407408,NA,NA
19067,Bucks County,PA,NA,NA,NA,11.618257261410788
19106,Philadelphia County,PA,92.00913242009132,NA,NA,NA
19111,Philadelphia County,PA,NA,NA,NA,13.278008298755188
19136,Philadelphia County,PA,29.45205479452055,15.972222222222221,NA,NA
19139,Philadelphia County,PA,35.84474885844749,NA,NA,NA
19141,Philadelphia County,PA,NA,36.342592592592595,NA,NA
19142,Philadelphia County,PA,NA,18.287037037037038,NA,NA
19145,Philadelphia County,PA,NA,35.879629629629626,NA,35.684647302904565
19147,Philadelphia County,PA,NA,54.861111111111114,NA,NA
19335,Chester County,PA,50.68493150684932,NA,NA,NA
19344,Chester County,PA,69.86301369863014,NA,NA,NA
19355,Chester County,PA,27.168949771689498,NA,NA,NA
19460,Chester County,PA,20.776255707762555,NA,NA,NA
19508,Berks County,PA,59.589041095890416,NA,NA,NA
19604,Berks County,PA,10.730593607305936,NA,NA,NA
19607,Berks County,PA,NA,33.7962962962963,NA,NA
19608,Berks County,PA,NA,34.72222222222222,NA,NA
02816,Kent County,RI,51.598173515981735,NA,NA,NA
02852,Washington County,RI,NA,48.842592592592595,NA,NA
29006,Lexington County,SC,NA,81.48148148148148,NA,NA
29223,Richland County,SC,NA,NA,30.33175355450237,NA
29307,Spartanburg County,SC,83.10502283105022,65.50925925925925,NA,NA
29406,Charleston County,SC,NA,31.48148148148148,NA,NA
29410,Berkeley County,SC,NA,76.1574074074074,NA,NA
29461,Berkeley County,SC,17.35159817351598,37.73148148148148,NA,NA
29464,Charleston County,SC,NA,NA,24.170616113744074,NA
29472,Dorchester County,SC,NA,81.01851851851852,NA,NA
29506,Florence County,SC,40.41095890410959,NA,NA,NA
29651,Greenville County,SC,NA,26.38888888888889,NA,20.33195020746888
29690,Greenville County,SC,NA,44.675925925925924,NA,NA
29706,Chester County,SC,NA,NA,NA,72.61410788381743
29715,York County,SC,57.534246575342465,NA,NA,NA
29801,Aiken County,SC,NA,NA,NA,82.57261410788381
57078,Yankton County,SD,68.94977168949772,NA,NA,NA
57106,Minnehaha County,SD,29.908675799086758,NA,NA,NA
57401,Brown County,SD,NA,23.61111111111111,NA,NA
37015,Cheatham County,TN,NA,83.79629629629629,NA,NA
37027,Williamson County,TN,NA,NA,24.644549763033176,NA
37037,Rutherford County,TN,NA,93.28703703703704,NA,NA
37073,Robertson County,TN,69.40639269406392,NA,NA,NA
37087,Wilson County,TN,22.37442922374429,NA,NA,NA
37205,Davidson County,TN,NA,72.91666666666666,NA,NA
37206,Davidson County,TN,NA,38.425925925925924,NA,NA
37210,Davidson County,TN,64.38356164383562,NA,NA,NA
37329,McMinn County,TN,NA,NA,NA,91.70124481327801
37421,Hamilton County,TN,35.38812785388128,NA,NA,NA
37743,Greene County,TN,NA,NA,5.687203791469194,NA
37821,Cocke County,TN,NA,20.833333333333336,NA,NA
37865,Sevier County,TN,NA,46.2962962962963,NA,NA
37874,Monroe County,TN,48.17351598173516,NA,NA,NA
37914,Knox County,TN,NA,41.43518518518518,NA,NA
37921,Knox County,TN,NA,NA,62.08530805687204,NA
38017,Shelby County,TN,NA,50.46296296296296,NA,NA
38063,Lauderdale County,TN,60.273972602739725,NA,NA,NA
38080,Lake County,TN,NA,96.99074074074075,NA,NA
38109,Shelby County,TN,NA,15.74074074074074,NA,NA
38126,Shelby County,TN,87.67123287671232,NA,NA,NA
38127,Shelby County,TN,3.881278538812785,NA,NA,NA
38242,Henry County,TN,NA,NA,NA,51.45228215767634
38315,McNairy County,TN,NA,93.05555555555556,NA,NA
38464,Lawrence County,TN,48.858447488584474,NA,35.07109004739337,NA
38544,Putnam County,TN,NA,NA,NA,98.3402489626556
38558,Cumberland County,TN,NA,NA,58.29383886255924,NA
75007,Denton County,TX,31.506849315068493,NA,NA,NA
75019,Dallas County,TX,51.141552511415526,NA,NA,NA
75033,,TX,30.59360730593607,NA,NA,NA
75043,Dallas County,TX,9.817351598173515,NA,NA,NA
75056,Denton County,TX,16.210045662100455,NA,NA,NA
75142,Kaufman County,TX,51.141552511415526,NA,NA,NA
75149,Dallas County,TX,4.337899543378995,NA,32.70142180094787,NA
75150,Dallas County,TX,NA,28.240740740740737,NA,NA
75165,Ellis County,TX,NA,34.02777777777778,NA,NA
75206,Dallas County,TX,NA,55.55555555555556,NA,NA
75234,Dallas County,TX,30.36529680365297,NA,NA,NA
75238,Dallas County,TX,42.465753424657535,NA,NA,NA
75240,Dallas County,TX,NA,NA,86.25592417061611,NA
75482,Hopkins County,TX,NA,62.268518518518526,NA,NA
75495,Grayson County,TX,NA,NA,100,NA
75602,Gregg County,TX,21.91780821917808,NA,NA,NA
75657,Marion County,TX,NA,89.58333333333334,NA,NA
75693,Gregg County,TX,NA,95.83333333333334,NA,NA
75791,Smith County,TX,NA,NA,49.763033175355446,NA
75904,Angelina County,TX,74.88584474885845,NA,NA,NA
75941,Angelina County,TX,88.35616438356165,NA,NA,NA
75948,Sabine County,TX,NA,NA,NA,86.30705394190872
76010,Tarrant County,TX,17.80821917808219,NA,NA,NA
76034,Tarrant County,TX,NA,77.54629629629629,NA,NA
76039,Tarrant County,TX,41.0958904109589,NA,NA,NA
76048,Hood County,TX,NA,NA,NA,43.56846473029046
76049,Hood County,TX,65.75342465753424,NA,NA,NA
76052,Tarrant County,TX,58.9041095890411,NA,NA,NA
76053,Tarrant County,TX,NA,46.99074074074074,NA,NA
76073,Wise County,TX,93.83561643835617,NA,NA,NA
76119,Tarrant County,TX,NA,NA,9.95260663507109,NA
76208,Denton County,TX,49.77168949771689,NA,NA,NA
76210,Denton County,TX,NA,NA,64.45497630331754,NA
76244,Tarrant County,TX,7.9908675799086755,NA,NA,NA
76567,Milam County,TX,NA,NA,NA,52.282157676348554
76574,Williamson County,TX,50,NA,NA,NA
76667,Limestone County,TX,71.91780821917808,NA,NA,NA
76705,McLennan County,TX,22.146118721461185,NA,NA,NA
76901,Tom Green County,TX,NA,53.70370370370371,NA,NA
77006,Harris County,TX,NA,NA,NA,97.0954356846473
77008,Harris County,TX,72.8310502283105,NA,NA,NA
77026,Harris County,TX,NA,58.56481481481482,NA,NA
77094,Harris County,TX,NA,93.51851851851852,NA,NA
77306,Montgomery County,TX,NA,88.6574074074074,NA,NA
77354,Montgomery County,TX,60.95890410958904,NA,NA,NA
77380,Montgomery County,TX,NA,74.07407407407408,NA,NA
77382,Montgomery County,TX,61.18721461187214,NA,NA,NA
77388,Harris County,TX,58.44748858447488,50.231481481481474,NA,NA
77433,Harris County,TX,7.077625570776255,17.824074074074073,NA,NA
77449,Harris County,TX,NA,NA,NA,58.09128630705395
77471,Fort Bend County,TX,59.817351598173516,NA,NA,NA
77493,Harris County,TX,NA,65.97222222222221,NA,NA
77494,Fort Bend County,TX,31.27853881278539,NA,NA,NA
77536,Harris County,TX,NA,NA,NA,56.43153526970954
77545,Fort Bend County,TX,NA,70.60185185185185,NA,NA
77546,Galveston County,TX,23.28767123287671,NA,NA,NA
77562,Harris County,TX,68.4931506849315,NA,NA,NA
77584,Brazoria County,TX,NA,NA,22.748815165876778,NA
77611,Orange County,TX,NA,77.31481481481481,NA,NA
77630,Orange County,TX,27.62557077625571,NA,NA,NA
77657,Hardin County,TX,NA,60.879629629629626,NA,NA
77662,Orange County,TX,NA,49.53703703703704,NA,NA
77864,Madison County,TX,86.98630136986301,94.9074074074074,NA,NA
77963,Goliad County,TX,94.06392694063926,NA,NA,NA
77964,Lavaca County,TX,58.9041095890411,NA,NA,NA
78043,Webb County,TX,6.392694063926941,NA,NA,NA
78046,Webb County,TX,NA,NA,NA,49.37759336099585
78132,Comal County,TX,NA,NA,58.767772511848335,NA
78155,Guadalupe County,TX,9.360730593607306,NA,NA,NA
78222,Bexar County,TX,NA,NA,89.0995260663507,NA
78228,Bexar County,TX,3.4246575342465753,NA,NA,NA
78237,Bexar County,TX,NA,35.648148148148145,NA,NA
78250,Bexar County,TX,NA,NA,NA,92.11618257261411
78368,San Patricio County,TX,84.24657534246576,NA,NA,NA
78516,Hidalgo County,TX,NA,NA,NA,60.58091286307054
78542,Hidalgo County,TX,7.534246575342466,NA,NA,NA
78550,Cameron County,TX,NA,NA,NA,29.87551867219917
78582,Starr County,TX,NA,70.37037037037037,NA,26.556016597510375
78620,Hays County,TX,NA,93.98148148148148,NA,NA
78633,Williamson County,TX,NA,85.41666666666666,NA,NA
78654,Burnet County,TX,NA,NA,45.023696682464454,NA
78666,Hays County,TX,NA,NA,NA,64.73029045643153
78701,Travis County,TX,NA,89.12037037037037,NA,NA
78703,Travis County,TX,NA,84.95370370370371,NA,NA
78731,Travis County,TX,72.6027397260274,NA,NA,NA
78737,Hays County,TX,79.90867579908677,NA,NA,NA
78750,Travis County,TX,NA,NA,NA,63.07053941908713
78753,Travis County,TX,5.0228310502283104,NA,NA,65.97510373443983
78758,Travis County,TX,47.48858447488584,NA,NA,NA
78759,Travis County,TX,NA,NA,94.3127962085308,NA
78945,Fayette County,TX,NA,90.97222222222221,NA,NA
79336,Hockley County,TX,60.50228310502283,NA,NA,NA
79606,Taylor County,TX,NA,65.74074074074075,NA,NA
79701,Midland County,TX,34.70319634703196,NA,NA,NA
79735,Pecos County,TX,NA,NA,NA,89.21161825726142
79762,Ector County,TX,15.981735159817351,NA,NA,NA
79907,El Paso County,TX,NA,NA,NA,30.29045643153527
84043,Utah County,UT,66.66666666666666,NA,NA,NA
84054,Davis County,UT,NA,NA,81.51658767772511,NA
84066,Duchesne County,UT,NA,NA,NA,94.1908713692946
84070,Salt Lake County,UT,NA,54.629629629629626,NA,NA
84103,Salt Lake County,UT,NA,NA,NA,34.439834024896264
84119,Salt Lake County,UT,13.926940639269406,NA,NA,NA
84302,Box Elder County,UT,NA,78.70370370370371,NA,76.76348547717843
84310,Weber County,UT,97.03196347031964,NA,NA,NA
84321,Cache County,UT,66.43835616438356,NA,NA,NA
84624,Millard County,UT,NA,99.07407407407408,NA,NA
84720,Iron County,UT,82.87671232876713,NA,NA,NA
05346,Windham County,VT,NA,98.61111111111111,NA,NA
05753,Addison County,VT,NA,86.11111111111111,NA,NA
20151,Fairfax County,VA,81.27853881278538,NA,NA,NA
20190,Fairfax County,VA,71.68949771689498,NA,NA,NA
22015,Fairfax County,VA,49.54337899543379,NA,NA,NA
22031,Fairfax County,VA,NA,NA,86.7298578199052,NA
22066,Fairfax County,VA,86.5296803652968,NA,NA,NA
22206,Arlington County,VA,66.89497716894978,NA,NA,NA
22207,Arlington County,VA,NA,NA,NA,48.54771784232365
22306,Fairfax County,VA,NA,NA,53.55450236966824,NA
22309,Fairfax County,VA,12.557077625570775,NA,NA,NA
22407,Spotsylvania County,VA,NA,NA,80.09478672985783,NA
22601,Winchester city,VA,NA,64.35185185185185,NA,NA
22824,Shenandoah County,VA,NA,NA,87.20379146919431,NA
23111,Hanover County,VA,NA,54.166666666666664,NA,NA
23113,Chesterfield County,VA,NA,NA,NA,53.11203319502075
23139,Powhatan County,VA,94.97716894977168,NA,NA,NA
23140,New Kent County,VA,NA,NA,NA,95.850622406639
23225,Richmond city,VA,NA,NA,63.03317535545023,NA
23229,Henrico County,VA,NA,70.83333333333334,NA,NA
23234,Chesterfield County,VA,2.968036529680365,NA,NA,NA
23235,Chesterfield County,VA,NA,NA,NA,21.991701244813278
23435,Suffolk city,VA,54.109589041095894,NA,NA,NA
23452,Virginia Beach city,VA,22.831050228310502,NA,NA,NA
23518,Norfolk city,VA,NA,NA,NA,18.25726141078838
23602,Newport News city,VA,16.894977168949772,NA,NA,NA
24012,Roanoke city,VA,35.15981735159817,NA,NA,NA
24015,Roanoke city,VA,NA,NA,NA,78.83817427385893
24018,Roanoke County,VA,NA,NA,NA,9.12863070539419
24055,Henry County,VA,NA,66.66666666666666,NA,NA
24088,Franklin County,VA,99.77168949771689,NA,NA,NA
24141,Radford city,VA,NA,NA,NA,63.48547717842323
24153,Salem city,VA,NA,NA,NA,18.672199170124482
24273,Norton city,VA,NA,NA,81.99052132701422,NA
24563,Pittsylvania County,VA,NA,NA,98.5781990521327,NA
98030,King County,WA,NA,32.175925925925924,NA,NA
98036,Snohomish County,WA,52.054794520547944,NA,NA,NA
98037,Snohomish County,WA,71.23287671232876,NA,NA,NA
98074,King County,WA,NA,NA,74.88151658767772,NA
98092,King County,WA,13.470319634703195,NA,NA,NA
98105,King County,WA,61.87214611872146,NA,NA,NA
98146,King County,WA,NA,64.12037037037037,NA,NA
98168,King County,WA,64.61187214611871,NA,NA,NA
98223,Snohomish County,WA,NA,NA,NA,44.81327800829876
98258,Snohomish County,WA,13.24200913242009,28.47222222222222,NA,NA
98270,Snohomish County,WA,NA,24.305555555555554,NA,NA
98274,Skagit County,WA,46.118721461187214,NA,NA,NA
98335,Pierce County,WA,58.675799086758,NA,NA,NA
98370,Kitsap County,WA,NA,NA,48.81516587677725,NA
98387,Pierce County,WA,20.319634703196346,NA,26.540284360189574,NA
98418,Pierce County,WA,NA,88.19444444444444,NA,NA
98444,Pierce County,WA,44.97716894977169,NA,NA,NA
98466,Pierce County,WA,39.49771689497717,NA,NA,NA
98569,Grays Harbor County,WA,NA,NA,87.67772511848341,NA
98642,Clark County,WA,90.41095890410958,NA,NA,NA
98684,Clark County,WA,NA,NA,68.24644549763033,NA
98908,Yakima County,WA,NA,NA,NA,13.692946058091287
98926,Kittitas County,WA,NA,NA,NA,23.236514522821576
99009,Spokane County,WA,100,NA,NA,NA
99025,Spokane County,WA,NA,98.37962962962963,NA,NA
99336,Benton County,WA,NA,17.59259259259259,NA,NA
99353,Benton County,WA,44.74885844748858,NA,NA,NA
20002,District of Columbia,DC,NA,9.027777777777777,NA,NA
20007,District of Columbia,DC,81.7351598173516,NA,72.98578199052133,NA
20016,District of Columbia,DC,NA,NA,57.81990521327014,NA
20017,District of Columbia,DC,NA,80.55555555555556,NA,NA
20019,District of Columbia,DC,NA,6.944444444444445,NA,NA
25401,Berkeley County,WV,NA,NA,40.758293838862556,NA
25701,Cabell County,WV,63.013698630136986,NA,NA,NA
26003,Ohio County,WV,15.753424657534246,NA,NA,NA
26070,Brooke County,WV,NA,NA,NA,36.51452282157676
26301,Harrison County,WV,23.28767123287671,NA,NA,NA
53024,Ozaukee County,WI,NA,NA,NA,20.33195020746888
53081,Sheboygan County,WI,17.35159817351598,NA,NA,NA
53110,Milwaukee County,WI,NA,36.80555555555556,NA,NA
53126,Racine County,WI,96.34703196347031,NA,NA,NA
53179,Kenosha County,WI,60.73059360730594,NA,NA,NA
53209,Milwaukee County,WI,1.82648401826484,5.092592592592593,NA,NA
53215,Milwaukee County,WI,2.28310502283105,NA,NA,NA
53219,Milwaukee County,WI,NA,53.47222222222222,NA,NA
53223,Milwaukee County,WI,NA,NA,12.322274881516588,NA
53224,Milwaukee County,WI,NA,NA,NA,59.75103734439834
53549,Jefferson County,WI,NA,NA,60.18957345971564,NA
53566,Green County,WI,49.31506849315068,NA,NA,NA
53713,Dane County,WI,NA,57.17592592592593,NA,NA
53717,Dane County,WI,76.25570776255708,NA,NA,NA
53901,Columbia County,WI,NA,NA,NA,49.79253112033195
53965,Sauk County,WI,52.73972602739726,NA,NA,NA
54301,Brown County,WI,79.90867579908677,NA,NA,NA
54451,Taylor County,WI,56.16438356164384,NA,NA,NA
54615,Jackson County,WI,NA,72.68518518518519,NA,NA
54729,Chippewa County,WI,28.99543378995434,NA,NA,NA
54751,Dunn County,WI,NA,NA,NA,12.863070539419086
54880,Douglas County,WI,7.76255707762557,NA,NA,NA
54961,Waupaca County,WI,NA,NA,53.08056872037915,NA
82718,Campbell County,WY,NA,60.64814814814815,NA,NA
82935,Sweetwater County,WY,NA,81.71296296296296,NA,NA
