ZipCode,county,state,Adult
35010,Tallapoosa County,AL,37.73087071240106
35063,Walker County,AL,97.0976253298153
35072,Coosa County,AL,84.1688654353562
35673,Morgan County,AL,86.2796833773087
35773,Madison County,AL,66.2269129287599
36054,Elmore County,AL,65.69920844327177
36079,Pike County,AL,81.26649076517151
36330,Coffee County,AL,48.284960422163586
85008,Maricopa County,AZ,45.64643799472295
85021,Maricopa County,AZ,42.21635883905013
85326,Maricopa County,AZ,76.2532981530343
85381,Maricopa County,AZ,62.796833773087066
85546,Graham County,AZ,77.30870712401055
85706,Pima County,AZ,4.749340369393139
85716,Pima County,AZ,22.691292875989447
85730,Pima County,AZ,31.6622691292876
86004,Coconino County,AZ,9.234828496042216
72015,Saline County,AR,87.33509234828496
90042,Los Angeles County,CA,79.15567282321899
90047,Los Angeles County,CA,20.844327176781004
90403,Los Angeles County,CA,67.01846965699208
90601,Los Angeles County,CA,55.4089709762533
90706,Los Angeles County,CA,30.07915567282322
91306,Los Angeles County,CA,42.480211081794195
91737,San Bernardino County,CA,77.04485488126649
91762,San Bernardino County,CA,36.93931398416886
92078,San Diego County,CA,54.88126649076517
92110,San Diego County,CA,58.31134564643799
92410,San Bernardino County,CA,36.41160949868074
92567,Riverside County,CA,96.30606860158312
93274,Tulare County,CA,8.70712401055409
93433,San Luis Obispo County,CA,75.98944591029023
93534,Los Angeles County,CA,68.07387862796834
93728,Fresno County,CA,75.46174142480211
94539,Alameda County,CA,93.66754617414247
95076,Santa Cruz County,CA,24.010554089709764
95112,Santa Clara County,CA,69.92084432717678
95405,Sonoma County,CA,94.72295514511873
95616,Yolo County,CA,90.76517150395779
95621,Sacramento County,CA,45.382585751978894
95833,Sacramento County,CA,41.42480211081794
80026,Boulder County,CO,60.68601583113457
80033,Jefferson County,CO,51.187335092348285
80134,Douglas County,CO,59.36675461741425
80227,Jefferson County,CO,58.839050131926115
80524,Larimer County,CO,34.300791556728235
80537,Larimer County,CO,26.912928759894463
80550,Weld County,CO,33.773087071240106
80751,Logan County,CO,45.11873350923483
80919,El Paso County,CO,70.71240105540898
81504,Mesa County,CO,34.82849604221636
06418,New Haven County,CT,68.86543535620054
06705,New Haven County,CT,27.70448548812665
06710,New Haven County,CT,59.10290237467019
06790,Litchfield County,CT,7.9155672823219
19701,New Castle County,DE,32.45382585751979
19803,New Castle County,DE,62.26912928759894
19805,New Castle County,DE,5.277044854881266
19962,Kent County,DE,74.40633245382587
32043,Clay County,FL,46.965699208443276
32211,Duval County,FL,25.593667546174142
32218,Duval County,FL,39.31398416886543
32444,Bay County,FL,68.33773087071239
32501,Escambia County,FL,56.72823218997362
32607,Alachua County,FL,24.538258575197887
32825,Orange County,FL,64.1160949868074
32909,Brevard County,FL,41.16094986807388
32935,Brevard County,FL,52.770448548812666
33073,Broward County,FL,70.18469656992085
33625,Hillsborough County,FL,59.63060686015831
33916,Lee County,FL,39.84168865435356
34231,Sarasota County,FL,54.35356200527705
34242,Sarasota County,FL,98.94459102902374
34683,Pinellas County,FL,63.852242744063325
30022,Fulton County,GA,41.68865435356201
30103,Bartow County,GA,86.54353562005277
30104,Polk County,GA,83.90501319261213
30114,Cherokee County,GA,90.23746701846966
30215,Fayette County,GA,62.00527704485488
30277,Coweta County,GA,73.35092348284961
30529,Jackson County,GA,78.62796833773086
30728,Walker County,GA,38.78627968337731
31312,Effingham County,GA,77.83641160949868
31326,Effingham County,GA,62.532981530343015
31779,Mitchell County,GA,87.0712401055409
96725,Hawaii County,HI,99.47229551451187
60098,McHenry County,IL,35.62005277044855
60123,Kane County,IL,26.121372031662272
60467,Cook County,IL,52.242744063324544
60634,Cook County,IL,13.984168865435356
60647,Cook County,IL,11.081794195250659
60654,Cook County,IL,71.50395778364116
60655,Cook County,IL,33.50923482849604
61821,Champaign County,IL,44.327176781002635
46060,Hamilton County,IN,35.35620052770449
46227,Marion County,IN,13.456464379947231
46307,Lake County,IN,3.95778364116095
46368,Porter County,IN,5.013192612137203
46802,Allen County,IN,79.68337730870712
46953,Grant County,IN,16.358839050131927
46996,Pulaski County,IN,76.51715039577837
47302,Delaware County,IN,23.218997361477573
47660,Gibson County,IN,92.0844327176781
47711,Vanderburgh County,IN,61.477572559366756
50010,Story County,IA,58.575197889182064
51501,Pottawattamie County,IA,5.804749340369393
51503,Pottawattamie County,IA,11.87335092348285
52245,Johnson County,IA,79.15567282321899
52641,Henry County,IA,88.39050131926122
52804,Scott County,IA,21.63588390501319
66062,Johnson County,KS,14.511873350923482
40216,Jefferson County,KY,12.66490765171504
40291,Jefferson County,KY,22.163588390501317
40313,Rowan County,KY,97.36147757255937
40324,Scott County,KY,18.46965699208443
42141,Barren County,KY,16.886543535620053
42276,Logan County,KY,56.99208443271768
42376,Daviess County,KY,82.32189973614776
70114,Orleans Parish,LA,14.24802110817942
70126,Orleans Parish,LA,8.970976253298153
70363,Terrebonne Parish,LA,88.65435356200527
70529,Lafayette Parish,LA,50.65963060686016
71295,Franklin Parish,LA,76.78100263852242
04605,Hancock County,ME,46.17414248021108
04967,Somerset County,ME,78.3641160949868
20782,Prince George's County,MD,82.05804749340369
20853,Montgomery County,MD,79.94722955145119
01040,Hampden County,MA,0.2638522427440633
01085,Hampden County,MA,2.9023746701846966
01201,Berkshire County,MA,0
01247,Berkshire County,MA,8.443271767810026
01832,Essex County,MA,88.91820580474933
01913,Essex County,MA,30.343007915567284
01950,Essex County,MA,53.29815303430079
02090,Norfolk County,MA,65.17150395778364
02119,Suffolk County,MA,0.5277044854881267
02121,Suffolk County,MA,0.79155672823219
02130,Suffolk County,MA,11.345646437994723
02136,Suffolk County,MA,3.6939313984168867
02139,Middlesex County,MA,61.74142480211082
02478,Middlesex County,MA,28.49604221635884
02673,Barnstable County,MA,96.83377308707124
02790,Bristol County,MA,25.857519788918204
48036,Macomb County,MI,60.94986807387863
48038,Macomb County,MI,17.678100263852244
48080,Macomb County,MI,37.46701846965699
48093,Macomb County,MI,24.274406332453825
48150,Wayne County,MI,32.189973614775724
48161,Monroe County,MI,10.29023746701847
48184,Wayne County,MI,20.58047493403694
48185,Wayne County,MI,7.651715039577836
48205,Wayne County,MI,6.596306068601583
48301,Oakland County,MI,63.3245382585752
48317,Macomb County,MI,56.464379947229546
48451,Genesee County,MI,74.67018469656992
48637,Saginaw County,MI,97.62532981530343
48866,Clinton County,MI,97.8891820580475
48867,Shiawassee County,MI,10.026385224274406
48917,Eaton County,MI,12.401055408970976
49017,Calhoun County,MI,34.03693931398417
49028,Branch County,MI,87.59894459102902
49247,Lenawee County,MI,73.08707124010554
49445,Muskegon County,MI,37.994722955145114
49509,Kent County,MI,17.941952506596305
49855,Marquette County,MI,46.437994722955146
55304,Anoka County,MN,41.952506596306065
55309,Sherburne County,MN,94.9868073878628
55403,Hennepin County,MN,27.70448548812665
55454,Hennepin County,MN,82.84960422163589
55921,Houston County,MN,85.22427440633246
56201,Kandiyohi County,MN,74.14248021108179
38632,DeSoto County,MS,51.45118733509235
38654,DeSoto County,MS,29.023746701846964
39157,Madison County,MS,65.96306068601582
39204,Hinds County,MS,72.82321899736148
39307,Lauderdale County,MS,40.89709762532981
39501,Harrison County,MS,23.7467018469657
63366,St. Charles County,MO,17.150395778364118
64109,Jackson County,MO,33.24538258575198
64116,Clay County,MO,29.815303430079155
64134,Jackson County,MO,17.41424802110818
64720,Bates County,MO,98.68073878627969
64772,Vernon County,MO,94.1952506596306
65802,Greene County,MO,15.303430079155673
68007,Douglas County,NE,94.45910290237467
89103,Clark County,NV,53.562005277044854
89512,Washoe County,NV,64.64379947229551
07102,Essex County,NJ,85.4881266490765
08104,Camden County,NJ,1.3192612137203166
08302,Cumberland County,NJ,98.41688654353563
08344,Gloucester County,NJ,96.04221635883906
08619,Mercer County,NJ,49.86807387862797
87121,Bernalillo County,NM,80.47493403693932
10455,Bronx County,NY,6.860158311345646
10468,Bronx County,NY,2.638522427440633
10954,Rockland County,NY,56.200527704485495
11210,Kings County,NY,44.854881266490764
12148,Saratoga County,NY,96.56992084432717
12180,Rensselaer County,NY,34.56464379947229
12206,Albany County,NY,69.39313984168865
12477,Ulster County,NY,75.72559366754618
12916,Franklin County,NY,85.75197889182058
13027,Onondaga County,NY,18.733509234828496
13069,Oswego County,NY,73.61477572559367
13208,Onondaga County,NY,16.62269129287599
13760,Broome County,NY,1.8469656992084433
13905,Broome County,NY,3.16622691292876
14103,Orleans County,NY,45.91029023746702
14489,Wayne County,NY,36.147757255936675
14548,Ontario County,NY,63.58839050131926
14837,Yates County,NY,91.02902374670184
27013,Rowan County,NC,82.58575197889182
27262,Guilford County,NC,72.0316622691293
27330,Lee County,NC,55.93667546174142
27360,Davidson County,NC,6.068601583113456
27370,Randolph County,NC,72.55936675461741
27405,Guilford County,NC,14.775725593667547
27704,Durham County,NC,15.8311345646438
27705,Durham County,NC,27.176781002638524
27893,Wilson County,NC,19.525065963060687
28334,Sampson County,NC,31.926121372031663
28358,Robeson County,NC,21.372031662269126
28412,New Hanover County,NC,48.02110817941953
28470,Brunswick County,NC,86.80738786279683
28546,Onslow County,NC,30.87071240105541
28602,Catawba County,NC,26.385224274406333
28635,Wilkes County,NC,92.34828496042216
28779,Jackson County,NC,81.79419525065963
28906,Cherokee County,NC,50.131926121372025
43078,Champaign County,OH,36.675461741424805
43110,Franklin County,OH,29.023746701846964
43130,Fairfield County,OH,16.094986807387862
43204,Franklin County,OH,7.387862796833773
43219,Franklin County,OH,19.788918205804748
43607,Lucas County,OH,8.179419525065963
43609,Lucas County,OH,44.06332453825858
44104,Cuyahoga County,OH,6.33245382585752
44212,Medina County,OH,5.540897097625329
44306,Summit County,OH,13.720316622691293
44308,Summit County,OH,95.25065963060686
44420,Trumbull County,OH,38.258575197889186
44460,Columbiana County,OH,25.065963060686013
44641,Stark County,OH,64.90765171503958
44646,Stark County,OH,12.928759894459102
44662,Stark County,OH,73.87862796833772
44870,Erie County,OH,18.20580474934037
45224,Hamilton County,OH,55.145118733509236
45342,Montgomery County,OH,15.567282321899736
45416,Montgomery County,OH,83.11345646437994
45417,Montgomery County,OH,11.609498680738787
45601,Ross County,OH,1.0554089709762533
45640,Jackson County,OH,9.498680738786279
45701,Athens County,OH,61.21372031662269
45750,Washington County,OH,3.430079155672823
73010,McClain County,OK,48.284960422163586
73120,Oklahoma County,OK,43.79947229551451
73135,Oklahoma County,OK,44.59102902374671
74464,Cherokee County,OK,54.61741424802111
74820,Pontotoc County,OK,35.88390501319261
74872,Garvin County,OK,95.77836411609498
97005,Washington County,OR,49.6042216358839
97031,Hood River County,OR,68.33773087071239
97123,Washington County,OR,24.80211081794195
97210,Multnomah County,OR,89.9736147757256
97218,Multnomah County,OR,98.15303430079155
97230,Multnomah County,OR,27.440633245382585
97754,Crook County,OR,49.07651715039577
97850,Union County,OR,71.2401055408971
15825,Jefferson County,PA,46.701846965699204
17003,Lebanon County,PA,84.43271767810026
17013,Cumberland County,PA,25.065963060686013
17046,Lebanon County,PA,13.192612137203167
17331,York County,PA,9.762532981530343
17543,Lancaster County,PA,57.519788918205805
18102,Lehigh County,PA,2.3746701846965697
18235,Carbon County,PA,63.06068601583114
18250,Carbon County,PA,99.73614775725594
18651,Luzerne County,PA,66.49076517150397
18951,Bucks County,PA,52.5065963060686
19053,Bucks County,PA,35.09234828496042
19125,Philadelphia County,PA,91.02902374670184
19140,Philadelphia County,PA,4.485488126649076
19141,Philadelphia County,PA,10.817941952506596
19143,Philadelphia County,PA,2.1108179419525066
19144,Philadelphia County,PA,7.12401055408971
19344,Chester County,PA,78.89182058047494
19460,Chester County,PA,29.551451187335093
19607,Berks County,PA,32.98153034300791
02835,Newport County,RI,95.51451187335093
02861,Providence County,RI,91.55672823218998
02909,Providence County,RI,23.482849604221638
02910,Providence County,RI,51.71503957783641
29073,Lexington County,SC,55.67282321899736
29360,Laurens County,SC,71.76781002638522
57005,Minnehaha County,SD,81.00263852242745
37075,Sumner County,TN,49.340369393139845
37083,Macon County,TN,51.97889182058047
37172,Robertson County,TN,20.052770448548813
37214,Davidson County,TN,59.894459102902374
37327,Sequatchie County,TN,43.53562005277045
37363,Hamilton County,TN,42.74406332453825
37643,Carter County,TN,60.4221635883905
37663,Sullivan County,TN,67.81002638522428
37716,Anderson County,TN,38.522427440633244
37774,Loudon County,TN,47.75725593667546
37862,Sevier County,TN,69.12928759894459
38117,Shelby County,TN,87.86279683377309
38261,Obion County,TN,70.97625329815304
38344,Carroll County,TN,72.29551451187335
38363,Decatur County,TN,89.44591029023746
75181,Dallas County,TX,54.089709762532976
75232,Dallas County,TX,47.229551451187334
75240,Dallas County,TX,67.28232189973615
75494,Wood County,TX,83.64116094986808
75570,Bowie County,TX,89.70976253298153
75645,Upshur County,TX,78.10026385224275
75684,Rusk County,TX,93.13984168865436
75708,Smith County,TX,99.2084432717678
76002,Tarrant County,TX,57.78364116094987
76102,Tarrant County,TX,100
76104,Tarrant County,TX,26.385224274406333
76119,Tarrant County,TX,10.554089709762533
76209,Denton County,TX,77.57255936675462
76309,Wichita County,TX,75.19788918205805
76542,Bell County,TX,18.997361477572557
76903,Tom Green County,TX,43.27176781002638
77083,Harris County,TX,43.007915567282325
77086,Harris County,TX,65.4353562005277
77095,Harris County,TX,21.899736147757256
77338,Harris County,TX,47.4934036939314
77459,Fort Bend County,TX,27.70448548812665
77502,Harris County,TX,53.825857519788926
77506,Harris County,TX,83.37730870712402
77954,DeWitt County,TX,69.65699208443272
78132,Comal County,TX,70.44854881266491
78220,Bexar County,TX,60.15831134564644
78504,Hidalgo County,TX,40.369393139841684
78945,Fayette County,TX,91.82058047493403
79110,Randall County,TX,64.37994722955145
79605,Taylor County,TX,39.577836411609496
84041,Davis County,UT,67.54617414248021
84078,Uintah County,UT,21.108179419525065
84118,Salt Lake County,UT,22.427440633245382
05401,Chittenden County,VT,50.65963060686016
22101,Fairfax County,VA,53.03430079155673
22151,Fairfax County,VA,81.53034300791556
22206,Arlington County,VA,58.04749340369393
22304,Alexandria city,VA,19.261213720316622
22701,Culpeper County,VA,31.398416886543533
22911,Albemarle County,VA,88.12664907651715
22980,Waynesboro city,VA,12.137203166226913
23226,Richmond city,VA,90.50131926121372
23231,Henrico County,VA,28.759894459102902
23237,Chesterfield County,VA,93.93139841688655
23323,Chesapeake city,VA,80.21108179419525
23666,Hampton city,VA,15.03957783641161
23824,Nottoway County,VA,92.34828496042216
23834,Colonial Heights city,VA,48.812664907651715
24230,Wise County,VA,74.93403693931398
98329,Pierce County,WA,89.18205804749341
98444,Pierce County,WA,84.69656992084433
98528,Mason County,WA,93.40369393139841
98823,Grant County,WA,80.73878627968337
98908,Yakima County,WA,39.050131926121374
99223,Spokane County,WA,66.75461741424802
20020,District of Columbia,DC,4.221635883905013
25701,Cabell County,WV,20.316622691292878
25705,Cabell County,WV,22.95514511873351
26501,Monongalia County,WV,50.3957783641161
26582,Marion County,WV,86.01583113456465
53132,Milwaukee County,WI,40.633245382585756
53142,Kenosha County,WI,37.203166226912934
53186,Waukesha County,WI,32.71767810026385
53188,Waukesha County,WI,57.25593667546174
53208,Milwaukee County,WI,40.105540897097626
53235,Milwaukee County,WI,92.87598944591029
53402,Racine County,WI,31.13456464379947
53511,Rock County,WI,1.58311345646438
53548,Rock County,WI,30.606860158311346
53714,Dane County,WI,84.96042216358839
