ZipCode,county,state,Adult,Retirement
35006,Jefferson County,AL,NA,99.70149253731343
35064,Jefferson County,AL,NA,74.6268656716418
35223,Jefferson County,AL,NA,76.11940298507463
35242,Shelby County,AL,NA,13.134328358208954
35613,Limestone County,AL,NA,44.776119402985074
99501,Anchorage Municipality,AK,NA,68.65671641791045
99645,Matanuska-Susitna Borough,AK,58.87850467289719,NA
85208,Maricopa County,AZ,NA,71.64179104477611
85249,Maricopa County,AZ,NA,34.32835820895522
85301,Maricopa County,AZ,4.361370716510903,NA
86314,Yavapai County,AZ,18.06853582554517,NA
86401,Mohave County,AZ,NA,6.567164179104477
71730,Union County,AR,49.22118380062305,NA
71913,Garland County,AR,71.02803738317756,NA
71929,Hot Spring County,AR,NA,97.31343283582089
72002,Saline County,AR,NA,70.44776119402985
72921,Crawford County,AR,NA,78.50746268656717
90066,Los Angeles County,CA,47.0404984423676,NA
90292,Los Angeles County,CA,NA,93.13432835820895
90404,Los Angeles County,CA,39.25233644859813,NA
91016,Los Angeles County,CA,NA,81.49253731343283
91325,Los Angeles County,CA,NA,65.07462686567163
91335,Los Angeles County,CA,35.51401869158878,NA
91361,Ventura County,CA,NA,60.298507462686565
91706,Los Angeles County,CA,NA,31.343283582089555
91784,San Bernardino County,CA,NA,77.61194029850746
91786,San Bernardino County,CA,86.6043613707165,NA
92078,San Diego County,CA,NA,45.07462686567164
92240,Riverside County,CA,NA,69.55223880597015
92260,Riverside County,CA,NA,13.432835820895523
92264,Riverside County,CA,NA,11.044776119402986
92325,San Bernardino County,CA,83.48909657320873,NA
92344,San Bernardino County,CA,NA,78.80597014925374
92606,Orange County,CA,NA,81.7910447761194
92835,Orange County,CA,NA,59.70149253731343
92844,Orange County,CA,NA,72.53731343283583
93010,Ventura County,CA,80.37383177570094,NA
93701,Fresno County,CA,90.96573208722741,NA
94030,San Mateo County,CA,NA,57.611940298507456
94044,San Mateo County,CA,NA,26.865671641791046
94102,San Francisco County,CA,7.78816199376947,NA
94109,San Francisco County,CA,32.71028037383177,11.641791044776118
94117,San Francisco County,CA,NA,39.40298507462687
94121,San Francisco County,CA,73.5202492211838,NA
94127,San Francisco County,CA,NA,68.35820895522387
94513,Contra Costa County,CA,67.91277258566979,NA
94523,Contra Costa County,CA,NA,82.98507462686567
94547,Contra Costa County,CA,NA,73.43283582089552
94559,Napa County,CA,84.73520249221184,NA
94560,Alameda County,CA,56.38629283489096,NA
94565,Contra Costa County,CA,NA,6.865671641791045
94621,Alameda County,CA,36.44859813084112,NA
94941,Marin County,CA,96.26168224299066,NA
95035,Santa Clara County,CA,NA,44.17910447761194
95134,Santa Clara County,CA,76.94704049844236,NA
95240,San Joaquin County,CA,NA,42.68656716417911
95367,Stanislaus County,CA,NA,75.5223880597015
95610,Sacramento County,CA,NA,41.19402985074627
95648,Placer County,CA,62.616822429906534,NA
95822,Sacramento County,CA,NA,40
95825,Sacramento County,CA,52.64797507788161,NA
95834,Sacramento County,CA,NA,94.32835820895522
95835,Sacramento County,CA,NA,68.05970149253731
80012,Arapahoe County,CO,12.149532710280374,NA
80015,Arapahoe County,CO,19.003115264797508,NA
80016,Arapahoe County,CO,26.168224299065418,NA
80127,Jefferson County,CO,49.532710280373834,NA
80212,Denver County,CO,76.01246105919003,NA
80465,Jefferson County,CO,85.98130841121495,NA
80513,Larimer County,CO,NA,79.1044776119403
80621,Weld County,CO,74.76635514018692,NA
81101,Alamosa County,CO,NA,80.59701492537313
81212,Fremont County,CO,43.925233644859816,NA
81503,Mesa County,CO,NA,82.68656716417911
06082,Hartford County,CT,20.87227414330218,NA
06401,New Haven County,CT,35.202492211838006,NA
06511,New Haven County,CT,NA,10.746268656716417
06610,Fairfield County,CT,NA,81.19402985074626
06614,Fairfield County,CT,82.2429906542056,NA
06776,Litchfield County,CT,33.33333333333333,NA
19711,New Castle County,DE,NA,10.149253731343283
19970,Sussex County,DE,NA,93.43283582089552
32052,Hamilton County,FL,NA,99.1044776119403
32164,Flagler County,FL,NA,15.522388059701491
32208,Duval County,FL,0.9345794392523363,NA
32220,Duval County,FL,NA,49.850746268656714
32401,Bay County,FL,NA,62.38805970149254
32408,Bay County,FL,NA,63.88059701492538
32446,Jackson County,FL,NA,91.64179104477613
32505,Escambia County,FL,NA,9.850746268656717
32526,Escambia County,FL,NA,8.656716417910449
32703,Orange County,FL,26.479750778816197,NA
32707,Seminole County,FL,NA,55.82089552238806
32779,Seminole County,FL,NA,72.23880597014926
32808,Orange County,FL,16.822429906542055,NA
32958,Indian River County,FL,NA,40.8955223880597
33027,Broward County,FL,43.613707165109034,NA
33033,Miami-Dade County,FL,NA,47.76119402985074
33134,Miami-Dade County,FL,NA,50.14925373134328
33308,Broward County,FL,NA,16.119402985074625
33316,Broward County,FL,NA,71.94029850746269
33418,Palm Beach County,FL,56.38629283489096,NA
33446,Palm Beach County,FL,NA,65.97014925373135
33496,Palm Beach County,FL,NA,37.014925373134325
33513,Sumter County,FL,NA,82.38805970149254
33615,Hillsborough County,FL,NA,30.74626865671642
33617,Hillsborough County,FL,38.006230529595015,NA
33707,Pinellas County,FL,62.616822429906534,NA
33936,Lee County,FL,NA,59.1044776119403
33952,Charlotte County,FL,29.595015576323984,NA
34210,Manatee County,FL,NA,63.582089552238806
34287,Sarasota County,FL,NA,28.65671641791045
34433,Citrus County,FL,NA,86.26865671641791
34453,Citrus County,FL,NA,87.46268656716418
34667,Pasco County,FL,46.41744548286604,NA
34684,Pinellas County,FL,NA,12.835820895522387
34952,St. Lucie County,FL,29.283489096573206,8.059701492537313
34957,Martin County,FL,52.336448598130836,NA
30017,Gwinnett County,GA,66.66666666666666,NA
30064,Cobb County,GA,NA,33.134328358208954
30115,Cherokee County,GA,72.89719626168224,NA
30152,Cobb County,GA,59.19003115264797,NA
30241,Troup County,GA,63.55140186915887,NA
30263,Coweta County,GA,NA,12.238805970149254
30507,Hall County,GA,NA,62.089552238805965
30518,Gwinnett County,GA,81.93146417445483,NA
30620,Barrow County,GA,72.58566978193146,NA
31701,Dougherty County,GA,47.66355140186916,NA
31906,Muscogee County,GA,NA,39.1044776119403
39823,Early County,GA,66.04361370716511,NA
39845,Seminole County,GA,NA,95.82089552238806
96701,Honolulu County,HI,NA,48.059701492537314
60004,Cook County,IL,29.595015576323984,NA
60018,Cook County,IL,NA,35.223880597014926
60051,McHenry County,IL,NA,24.776119402985074
60056,Cook County,IL,NA,14.925373134328357
60133,Cook County,IL,NA,45.97014925373134
60142,McHenry County,IL,NA,10.44776119402985
60174,Kane County,IL,48.598130841121495,92.23880597014926
60406,Cook County,IL,NA,93.73134328358209
60410,Will County,IL,99.06542056074767,NA
60465,Cook County,IL,51.71339563862928,NA
60467,Cook County,IL,NA,25.671641791044774
60484,Will County,IL,97.19626168224299,NA
60525,Cook County,IL,98.75389408099689,NA
60538,Kendall County,IL,NA,45.37313432835821
60558,Cook County,IL,NA,85.37313432835822
60565,DuPage County,IL,NA,18.80597014925373
60613,Cook County,IL,NA,31.64179104477612
60614,Cook County,IL,25.233644859813083,NA
60622,Cook County,IL,41.1214953271028,NA
60628,Cook County,IL,7.476635514018691,NA
60629,Cook County,IL,NA,26.268656716417908
60639,Cook County,IL,9.657320872274143,NA
60642,Cook County,IL,78.50467289719626,NA
60643,Cook County,IL,NA,3.582089552238806
61010,Ogle County,IL,80.99688473520249,NA
61107,Winnebago County,IL,NA,29.850746268656714
61342,LaSalle County,IL,87.85046728971963,NA
62040,Madison County,IL,NA,58.805970149253724
62522,Macon County,IL,59.813084112149525,NA
62966,Jackson County,IL,NA,77.31343283582089
46158,Morgan County,IN,57.943925233644855,NA
46168,Hendricks County,IN,43.30218068535825,NA
46323,Lake County,IN,23.67601246105919,NA
46383,Porter County,IN,NA,4.776119402985075
46703,Steuben County,IN,NA,35.52238805970149
46725,Whitley County,IN,NA,19.701492537313435
47165,Washington County,IN,NA,91.94029850746269
47274,Jackson County,IN,32.398753894081,NA
47546,Dubois County,IN,54.82866043613706,NA
47670,Gibson County,IN,77.57009345794393,NA
47715,Vanderburgh County,IN,NA,36.71641791044776
50021,Polk County,IA,90.34267912772586,NA
50036,Boone County,IA,NA,49.25373134328358
50317,Polk County,IA,NA,14.328358208955224
50441,Franklin County,IA,NA,46.26865671641791
50613,Black Hawk County,IA,NA,12.238805970149254
50801,Union County,IA,42.99065420560748,NA
52404,Linn County,IA,NA,17.313432835820898
52627,Lee County,IA,74.45482866043614,NA
66030,Johnson County,KS,58.25545171339564,NA
66216,Johnson County,KS,NA,83.28358208955224
66502,Riley County,KS,NA,66.86567164179105
67601,Ellis County,KS,44.54828660436137,NA
40143,Breckinridge County,KY,89.40809968847351,NA
40212,Jefferson County,KY,NA,70.1492537313433
40229,Jefferson County,KY,62.30529595015576,NA
40353,Montgomery County,KY,NA,28.955223880597014
40380,Powell County,KY,NA,74.32835820895522
40484,Lincoln County,KY,70.40498442367601,NA
42164,Allen County,KY,NA,53.13432835820896
42301,Daviess County,KY,9.968847352024921,NA
70068,St. John the Baptist Parish,LA,88.78504672897196,NA
70072,Jefferson Parish,LA,NA,2.6865671641791042
70118,Orleans Parish,LA,NA,51.04477611940299
70122,Orleans Parish,LA,NA,38.2089552238806
70301,Lafourche Parish,LA,NA,84.17910447761194
70427,Washington Parish,LA,NA,21.19402985074627
70460,St. Tammany Parish,LA,NA,28.059701492537314
70471,St. Tammany Parish,LA,NA,19.402985074626866
70711,Livingston Parish,LA,83.8006230529595,NA
70764,Iberville Parish,LA,NA,56.4179104477612
71055,Webster Parish,LA,18.38006230529595,33.43283582089553
71111,Bossier Parish,LA,NA,66.56716417910448
71220,Morehouse Parish,LA,NA,39.701492537313435
71483,Winn Parish,LA,NA,69.25373134328359
03904,York County,ME,NA,51.94029850746269
04002,York County,ME,NA,77.01492537313432
04046,York County,ME,NA,73.13432835820896
04101,Cumberland County,ME,NA,22.98507462686567
04240,Androscoggin County,ME,2.1806853582554515,NA
04401,Penobscot County,ME,34.26791277258567,NA
04605,Hancock County,ME,46.10591900311526,NA
04742,Aroostook County,ME,78.19314641744548,NA
04901,Kennebec County,ME,5.29595015576324,NA
04963,Kennebec County,ME,NA,65.3731343283582
20854,Montgomery County,MD,65.10903426791276,NA
21012,Anne Arundel County,MD,80.06230529595015,NA
21087,Baltimore County,MD,96.57320872274143,NA
21620,Kent County,MD,84.42367601246106,NA
21655,Caroline County,MD,95.01557632398755,NA
01020,Hampden County,MA,3.7383177570093453,NA
01030,Hampden County,MA,77.88161993769471,NA
01056,Hampden County,MA,17.75700934579439,NA
01095,Hampden County,MA,75.38940809968847,NA
01105,Hampden County,MA,18.69158878504673,NA
01119,Hampden County,MA,NA,43.88059701492537
01570,Worcester County,MA,NA,2.9850746268656714
01609,Worcester County,MA,NA,5.6716417910447765
01832,Essex County,MA,NA,91.34328358208955
01841,Essex County,MA,34.57943925233645,NA
01852,Middlesex County,MA,0.3115264797507788,NA
01854,Middlesex County,MA,1.8691588785046727,NA
01880,Middlesex County,MA,6.853582554517133,NA
01938,Essex County,MA,75.70093457943925,NA
02116,Suffolk County,MA,16.1993769470405,NA
02129,Suffolk County,MA,69.47040498442367,NA
02130,Suffolk County,MA,66.35514018691589,32.23880597014925
02141,Middlesex County,MA,NA,23.582089552238806
02149,Middlesex County,MA,8.09968847352025,NA
02150,Suffolk County,MA,4.049844236760125,NA
02169,Norfolk County,MA,NA,0.2985074626865672
02189,Norfolk County,MA,NA,54.92537313432836
02301,Plymouth County,MA,0,NA
02333,Plymouth County,MA,NA,41.492537313432834
02360,Plymouth County,MA,NA,5.074626865671641
02364,Plymouth County,MA,NA,97.01492537313433
02461,Middlesex County,MA,NA,96.41791044776119
02476,Middlesex County,MA,41.43302180685358,NA
02493,Middlesex County,MA,NA,67.46268656716417
02760,Bristol County,MA,11.838006230529595,NA
02769,Bristol County,MA,48.90965732087228,NA
48045,Macomb County,MI,28.66043613707165,NA
48049,St. Clair County,MI,NA,82.08955223880598
48116,Livingston County,MI,83.17757009345794,NA
48167,Oakland County,MI,NA,25.07462686567164
48235,Wayne County,MI,2.4922118380062304,NA
48239,Wayne County,MI,8.722741433021806,NA
48306,Oakland County,MI,NA,20.298507462686565
48307,Oakland County,MI,NA,20
48309,Oakland County,MI,NA,25.970149253731346
48326,Oakland County,MI,NA,92.83582089552239
48433,Genesee County,MI,NA,54.328358208955216
48453,Sanilac County,MI,NA,96.11940298507463
48462,Oakland County,MI,76.63551401869158,NA
48506,Genesee County,MI,27.41433021806853,NA
48602,Saginaw County,MI,NA,60.59701492537314
48642,Midland County,MI,21.49532710280374,NA
48750,Iosco County,MI,NA,58.507462686567166
48813,Eaton County,MI,71.33956386292834,NA
48893,Isabella County,MI,74.14330218068535,NA
48911,Ingham County,MI,NA,14.626865671641792
49285,Ingham County,MI,NA,89.8507462686567
49306,Kent County,MI,NA,85.07462686567165
49341,Kent County,MI,NA,23.283582089552237
49417,Ottawa County,MI,NA,5.970149253731343
49456,Ottawa County,MI,NA,60.895522388059696
49663,Wexford County,MI,91.90031152647975,NA
49685,Grand Traverse County,MI,94.0809968847352,NA
49727,Charlevoix County,MI,NA,79.70149253731343
55082,Washington County,MN,38.31775700934579,22.686567164179106
55311,Hennepin County,MN,NA,63.28358208955224
55376,Wright County,MN,93.76947040498442,NA
55444,Hennepin County,MN,61.059190031152646,NA
55808,St. Louis County,MN,NA,88.95522388059702
55987,Winona County,MN,8.411214953271028,NA
56374,Stearns County,MN,NA,95.52238805970148
56501,Becker County,MN,NA,60
56549,Clay County,MN,98.4423676012461,NA
56560,Clay County,MN,81.61993769470405,24.17910447761194
56649,Koochiching County,MN,61.37071651090342,NA
38834,Alcorn County,MS,21.806853582554517,NA
39301,Lauderdale County,MS,20.24922118380062,NA
39466,Pearl River County,MS,NA,16.716417910447763
39474,Jefferson Davis County,MS,94.70404984423676,NA
39507,Harrison County,MS,NA,67.16417910447761
39525,Hancock County,MS,NA,80
63043,St. Louis County,MO,NA,45.37313432835821
63074,St. Louis County,MO,64.17445482866043,NA
63112,St. Louis city,MO,NA,64.17910447761194
63115,St. Louis city,MO,NA,50.44776119402985
63367,St. Charles County,MO,NA,31.044776119402982
63368,St. Charles County,MO,44.85981308411215,NA
63376,St. Charles County,MO,10.59190031152648,NA
63650,Iron County,MO,NA,90.14925373134328
63755,Cape Girardeau County,MO,NA,46.865671641791046
64068,Clay County,MO,9.034267912772584,NA
64075,Jackson County,MO,84.11214953271028,NA
64118,Clay County,MO,28.971962616822427,NA
64138,Jackson County,MO,12.77258566978193,NA
64836,Jasper County,MO,NA,27.761194029850746
64850,Newton County,MO,17.133956386292834,NA
65037,Morgan County,MO,NA,98.50746268656717
65084,Morgan County,MO,85.66978193146417,NA
65355,Benton County,MO,NA,18.507462686567163
65559,Phelps County,MO,NA,90.44776119402985
65775,Howell County,MO,36.13707165109034,NA
59718,Gallatin County,MT,40.18691588785047,NA
68046,Sarpy County,NE,67.28971962616822,NA
68116,Douglas County,NE,NA,57.91044776119403
89104,Clark County,NV,NA,48.35820895522388
03054,Hillsborough County,NH,NA,69.85074626865672
03103,Hillsborough County,NH,5.919003115264798,NA
03254,Carroll County,NH,NA,84.77611940298507
03766,Grafton County,NH,NA,65.67164179104478
03868,Strafford County,NH,NA,86.56716417910447
07036,Union County,NJ,NA,17.01492537313433
07107,Essex County,NJ,10.903426791277258,NA
07208,Union County,NJ,NA,20.597014925373134
07675,Bergen County,NJ,NA,44.47761194029851
07728,Monmouth County,NJ,15.887850467289718,NA
07828,Morris County,NJ,NA,67.76119402985074
07871,Sussex County,NJ,60.12461059190031,NA
08087,Ocean County,NJ,19.626168224299064,15.82089552238806
08302,Cumberland County,NJ,NA,59.40298507462687
08876,Somerset County,NJ,100,NA
87004,Sandoval County,NM,NA,94.02985074626866
87107,Bernalillo County,NM,NA,55.82089552238806
87123,Bernalillo County,NM,63.862928348909655,NA
87144,Sandoval County,NM,23.05295950155763,NA
87544,Los Alamos County,NM,64.797507788162,NA
88011,Doa Ana County,NM,NA,85.97014925373134
88063,Doa Ana County,NM,72.27414330218068,NA
88220,Eddy County,NM,24.610591900311526,NA
10021,New York County,NY,NA,23.88059701492537
10032,New York County,NY,11.526479750778815,NA
10304,Richmond County,NY,NA,54.02985074626866
10306,Richmond County,NY,21.18380062305296,NA
10453,Bronx County,NY,NA,7.462686567164178
10456,Bronx County,NY,2.803738317757009,NA
10460,Bronx County,NY,1.557632398753894,NA
10567,Westchester County,NY,NA,94.6268656716418
10701,Westchester County,NY,NA,3.880597014925373
10801,Westchester County,NY,NA,29.55223880597015
11222,Kings County,NY,NA,61.791044776119406
11223,Kings County,NY,24.299065420560748,NA
11233,Kings County,NY,1.2461059190031152,NA
11763,Suffolk County,NY,NA,42.08955223880597
12065,Saratoga County,NY,60.43613707165109,NA
12078,Fulton County,NY,NA,36.11940298507463
12866,Saratoga County,NY,14.330218068535824,NA
12946,Essex County,NY,69.1588785046729,NA
12983,Franklin County,NY,51.4018691588785,NA
13041,Onondaga County,NY,69.78193146417445,NA
13135,Oswego County,NY,NA,83.28358208955224
13357,Herkimer County,NY,39.56386292834891,NA
13669,St. Lawrence County,NY,57.63239875389408,NA
13676,St. Lawrence County,NY,95.95015576323988,NA
13760,Broome County,NY,0.6230529595015576,NA
14424,Ontario County,NY,3.4267912772585665,NA
14428,Monroe County,NY,47.35202492211838,NA
14534,Monroe County,NY,NA,1.1940298507462688
14580,Monroe County,NY,NA,0
14586,Monroe County,NY,NA,62.98507462686567
14605,Monroe County,NY,56.074766355140184,NA
14610,Monroe County,NY,33.64485981308411,NA
14624,Monroe County,NY,3.115264797507788,1.4925373134328357
14772,Cattaraugus County,NY,88.1619937694704,NA
14810,Steuben County,NY,NA,76.4179104477612
14818,Schuyler County,NY,99.68847352024922,NA
14850,Tompkins County,NY,4.984423676012461,NA
14892,Tioga County,NY,93.45794392523365,NA
27018,Yadkin County,NC,NA,88.05970149253731
27030,Surry County,NC,6.230529595015576,NA
27107,Forsyth County,NC,23.98753894080997,NA
27510,Orange County,NC,61.99376947040498,NA
27910,Hertford County,NC,NA,47.462686567164184
28090,Cleveland County,NC,87.53894080996885,NA
28270,Mecklenburg County,NC,NA,41.7910447761194
28311,Cumberland County,NC,28.34890965732087,NA
28379,Richmond County,NC,17.445482866043612,NA
28594,Carteret County,NC,NA,98.80597014925372
28613,Catawba County,NC,44.23676012461059,NA
28645,Caldwell County,NC,NA,43.28358208955223
28904,Clay County,NC,89.09657320872275,NA
58103,Cass County,ND,6.5420560747663545,2.0895522388059704
58104,Cass County,ND,NA,11.343283582089553
58701,Ward County,ND,NA,7.761194029850746
43078,Champaign County,OH,37.69470404984423,NA
43110,Franklin County,OH,NA,9.55223880597015
43160,Fayette County,OH,NA,19.1044776119403
43209,Franklin County,OH,50.155763239875384,NA
43227,Franklin County,OH,NA,70.74626865671641
43235,Franklin County,OH,NA,91.04477611940298
43812,Coshocton County,OH,68.53582554517133,NA
43968,Columbiana County,OH,52.024922118380054,NA
44001,Lorain County,OH,NA,3.2835820895522385
44024,Geauga County,OH,48.28660436137071,NA
44067,Summit County,OH,68.22429906542055,NA
44070,Cuyahoga County,OH,25.85669781931464,NA
44077,Lake County,OH,NA,72.83582089552239
44095,Lake County,OH,22.741433021806852,NA
44102,Cuyahoga County,OH,11.214953271028037,NA
44116,Cuyahoga County,OH,NA,27.46268656716418
44118,Cuyahoga County,OH,NA,37.61194029850746
44125,Cuyahoga County,OH,NA,8.955223880597014
44129,Cuyahoga County,OH,15.57632398753894,NA
44133,Cuyahoga County,OH,31.15264797507788,NA
44136,Cuyahoga County,OH,NA,7.164179104477612
44137,Cuyahoga County,OH,5.607476635514018,NA
44142,Cuyahoga County,OH,NA,17.91044776119403
44221,Summit County,OH,15.264797507788161,NA
44223,Summit County,OH,NA,46.56716417910447
44224,Summit County,OH,24.922118380062305,NA
44240,Portage County,OH,93.14641744548287,NA
44311,Summit County,OH,78.81619937694704,NA
44312,Summit County,OH,NA,58.2089552238806
44614,Stark County,OH,90.65420560747664,NA
44707,Stark County,OH,82.55451713395638,NA
44839,Erie County,OH,NA,71.04477611940298
44870,Erie County,OH,NA,2.3880597014925375
45040,Warren County,OH,NA,32.537313432835816
45066,Warren County,OH,64.48598130841121,NA
45068,Warren County,OH,91.27725856697819,NA
45103,Clermont County,OH,31.464174454828658,NA
45150,Clermont County,OH,40.49844236760124,28.35820895522388
45224,Hamilton County,OH,NA,47.16417910447761
45226,Hamilton County,OH,99.37694704049844,NA
45238,Hamilton County,OH,14.018691588785046,NA
45322,Montgomery County,OH,NA,77.91044776119404
45331,Darke County,OH,30.529595015576323,NA
45426,Montgomery County,OH,NA,33.731343283582085
45693,Adams County,OH,51.09034267912772,NA
45822,Mercer County,OH,NA,66.26865671641791
45844,Putnam County,OH,92.5233644859813,NA
45895,Auglaize County,OH,34.890965732087224,NA
73099,Canadian County,OK,13.395638629283487,NA
73110,Oklahoma County,OK,19.937694704049843,NA
73132,Oklahoma County,OK,57.3208722741433,NA
73135,Oklahoma County,OK,45.17133956386293,NA
73170,Cleveland County,OK,86.29283489096574,NA
74017,Rogers County,OK,45.794392523364486,NA
74105,Tulsa County,OK,NA,43.582089552238806
74115,Tulsa County,OK,42.679127725856695,NA
74137,Tulsa County,OK,NA,50.74626865671642
74960,Adair County,OK,30.8411214953271,NA
97015,Clackamas County,OR,55.140186915887845,NA
97080,Multnomah County,OR,NA,18.208955223880597
97124,Washington County,OR,NA,55.223880597014926
97128,Yamhill County,OR,52.95950155763239,NA
97146,Clatsop County,OR,NA,71.34328358208955
97202,Multnomah County,OR,31.775700934579437,NA
97219,Multnomah County,OR,NA,88.65671641791046
97325,Marion County,OR,85.04672897196261,NA
15071,Allegheny County,PA,NA,78.2089552238806
15206,Allegheny County,PA,NA,52.83582089552239
15212,Allegheny County,PA,NA,35.82089552238806
15213,Allegheny County,PA,71.65109034267913,NA
15218,Allegheny County,PA,79.43925233644859,NA
15801,Clearfield County,PA,35.82554517133956,NA
16053,Butler County,PA,NA,87.76119402985074
16137,Mercer County,PA,NA,30.149253731343283
16601,Blair County,PA,9.345794392523365,NA
16602,Blair County,PA,13.707165109034266,NA
16673,Blair County,PA,NA,89.25373134328358
16735,McKean County,PA,NA,92.53731343283582
16830,Clearfield County,PA,32.71028037383177,NA
17033,Dauphin County,PA,36.7601246105919,NA
17042,Lebanon County,PA,NA,5.3731343283582085
17044,Mifflin County,PA,13.084112149532709,NA
17045,Perry County,PA,NA,99.40298507462687
17051,Mifflin County,PA,95.6386292834891,NA
17070,Cumberland County,PA,NA,73.73134328358208
17202,Franklin County,PA,32.087227414330215,NA
17331,York County,PA,NA,0.8955223880597015
17408,York County,PA,NA,15.223880597014924
17603,Lancaster County,PA,NA,57.01492537313433
17814,Columbia County,PA,94.39252336448598,NA
17821,Montour County,PA,NA,14.029850746268657
18018,Lehigh County,PA,26.479750778816197,NA
18049,Lehigh County,PA,NA,37.91044776119403
18064,Northampton County,PA,NA,21.791044776119403
18067,Northampton County,PA,73.20872274143302,NA
18104,Lehigh County,PA,14.641744548286603,NA
18202,Luzerne County,PA,NA,38.50746268656716
18301,Monroe County,PA,NA,79.40298507462687
18612,Luzerne County,PA,81.30841121495327,NA
18938,Bucks County,PA,97.81931464174455,NA
19007,Bucks County,PA,NA,61.19402985074627
19008,Delaware County,PA,NA,34.02985074626866
19020,Bucks County,PA,NA,8.358208955223882
19040,Montgomery County,PA,50.77881619937694,NA
19067,Bucks County,PA,77.25856697819314,NA
19090,Montgomery County,PA,NA,76.4179104477612
19114,Philadelphia County,PA,20.5607476635514,NA
19136,Philadelphia County,PA,12.461059190031152,NA
19145,Philadelphia County,PA,NA,40.298507462686565
19152,Philadelphia County,PA,NA,52.23880597014925
19154,Philadelphia County,PA,NA,48.656716417910445
19348,Chester County,PA,NA,75.82089552238806
19403,Montgomery County,PA,NA,88.35820895522389
19464,Montgomery County,PA,28.037383177570092,NA
19606,Berks County,PA,41.74454828660436,NA
02860,Providence County,RI,7.165109034267912,NA
02889,Kent County,RI,NA,17.611940298507463
29045,Kershaw County,SC,73.83177570093457,NA
29125,Sumter County,SC,NA,100
29605,Greenville County,SC,27.102803738317753,NA
29708,York County,SC,91.58878504672897,NA
29847,Edgefield County,SC,95.32710280373831,NA
57005,Minnehaha County,SD,98.13084112149532,NA
57702,Pennington County,SD,90.03115264797508,NA
37040,Montgomery County,TN,27.725856697819314,30.447761194029848
37211,Davidson County,TN,21.806853582554517,NA
37745,Greene County,TN,NA,55.52238805970149
37754,Anderson County,TN,97.50778816199377,NA
37803,Blount County,TN,37.07165109034268,NA
37865,Sevier County,TN,NA,40.59701492537313
38060,Fayette County,TN,89.7196261682243,NA
38108,Shelby County,TN,58.25545171339564,NA
38305,Madison County,TN,NA,38.80597014925373
38351,Henderson County,TN,54.20560747663551,NA
75043,Dallas County,TX,22.429906542056074,NA
75075,Collin County,TX,65.73208722741433,NA
75206,Dallas County,TX,53.58255451713395,NA
75219,Dallas County,TX,53.89408099688473,NA
75235,Dallas County,TX,68.84735202492212,NA
75410,Wood County,TX,NA,95.22388059701493
75650,Harrison County,TX,76.32398753894081,NA
75757,Smith County,TX,NA,97.61194029850746
75758,Henderson County,TX,NA,74.02985074626865
75765,Wood County,TX,NA,74.92537313432835
75771,Smith County,TX,57.009345794392516,NA
76033,Johnson County,TX,40.809968847352025,NA
76065,Ellis County,TX,NA,32.83582089552239
76082,Parker County,TX,59.50155763239875,NA
76084,Johnson County,TX,NA,86.86567164179104
76108,Tarrant County,TX,42.36760124610592,NA
76137,Tarrant County,TX,55.45171339563863,NA
76209,Denton County,TX,79.12772585669782,NA
76234,Wise County,TX,NA,83.88059701492537
76306,Wichita County,TX,65.42056074766354,NA
76513,Bell County,TX,54.51713395638629,NA
76541,Bell County,TX,NA,85.67164179104478
76542,Bell County,TX,14.953271028037381,NA
76548,Bell County,TX,46.728971962616825,NA
76705,McLennan County,TX,50.467289719626166,NA
76708,McLennan County,TX,87.22741433021807,NA
77008,Harris County,TX,NA,68.95522388059702
77020,Harris County,TX,NA,48.95522388059702
77063,Harris County,TX,67.601246105919,NA
77084,Harris County,TX,NA,20.8955223880597
77099,Harris County,TX,NA,34.626865671641795
77346,Harris County,TX,NA,80.8955223880597
77379,Harris County,TX,29.595015576323984,NA
77471,Fort Bend County,TX,42.05607476635514,NA
77479,Fort Bend County,TX,33.95638629283489,NA
77536,Harris County,TX,71.96261682242991,NA
77550,Galveston County,TX,NA,13.73134328358209
77573,Galveston County,TX,10.2803738317757,NA
77612,Jasper County,TX,NA,89.55223880597015
77657,Hardin County,TX,60.747663551401864,NA
78633,Williamson County,TX,NA,53.73134328358209
78636,Blanco County,TX,NA,96.71641791044776
78681,Williamson County,TX,NA,29.253731343283583
78753,Travis County,TX,62.616822429906534,NA
79935,El Paso County,TX,NA,75.22388059701493
84003,Utah County,UT,45.482866043613704,NA
84060,Summit County,UT,92.83489096573209,NA
84108,Salt Lake County,UT,82.86604361370716,NA
84117,Salt Lake County,UT,NA,64.17910447761194
84660,Utah County,UT,NA,84.4776119402985
05452,Chittenden County,VT,61.6822429906542,NA
05701,Rutland County,VT,NA,9.253731343283581
20110,Manassas city,VA,38.62928348909657,NA
20180,Loudoun County,VA,NA,98.2089552238806
22003,Fairfax County,VA,NA,24.47761194029851
22901,Albemarle County,VA,NA,26.56716417910448
22903,Charlottesville city,VA,NA,51.34328358208955
23663,Hampton city,VA,NA,51.64179104477612
23669,Hampton city,VA,25.54517133956386,NA
23701,Portsmouth city,VA,NA,21.492537313432834
24151,Franklin County,VA,75.0778816199377,NA
24541,Danville city,VA,80.68535825545172,NA
98087,Snohomish County,WA,86.91588785046729,NA
98103,King County,WA,NA,36.417910447761194
98115,King County,WA,NA,22.388059701492537
98121,King County,WA,55.7632398753894,NA
98126,King County,WA,NA,57.3134328358209
98335,Pierce County,WA,NA,31.94029850746269
98372,Pierce County,WA,NA,54.62686567164179
98662,Clark County,WA,NA,56.71641791044776
98908,Yakima County,WA,NA,11.940298507462686
99037,Spokane County,WA,NA,97.91044776119404
99207,Spokane County,WA,53.271028037383175,NA
99208,Spokane County,WA,NA,27.164179104477608
20001,District of Columbia,DC,23.364485981308412,NA
20017,District of Columbia,DC,NA,62.68656716417911
20019,District of Columbia,DC,NA,4.477611940298507
20032,District of Columbia,DC,NA,52.537313432835816
24901,Greenbrier County,WV,NA,64.17910447761194
24986,Greenbrier County,WV,NA,90.74626865671642
25064,Kanawha County,WV,NA,61.49253731343284
25302,Kanawha County,WV,NA,53.43283582089552
25309,Kanawha County,WV,NA,49.55223880597015
25311,Kanawha County,WV,70.40498442367601,NA
25526,Putnam County,WV,NA,34.92537313432836
25560,Putnam County,WV,NA,87.16417910447761
25701,Cabell County,WV,NA,16.417910447761194
25705,Cabell County,WV,19.314641744548286,NA
26003,Ohio County,WV,NA,1.791044776119403
26505,Monongalia County,WV,NA,6.26865671641791
26508,Monongalia County,WV,4.672897196261682,NA
53027,Washington County,WI,NA,42.38805970149254
53074,Ozaukee County,WI,69.78193146417445,NA
53085,Sheboygan County,WI,92.21183800623052,NA
53105,Racine County,WI,16.510903426791277,NA
53204,Milwaukee County,WI,49.84423676012461,NA
53214,Milwaukee County,WI,79.75077881619937,NA
53217,Milwaukee County,WI,38.940809968847354,25.37313432835821
53223,Milwaukee County,WI,66.97819314641744,NA
53227,Milwaukee County,WI,39.875389408099686,NA
53403,Racine County,WI,37.38317757009346,NA
53405,Racine County,WI,NA,22.08955223880597
53527,Dane County,WI,NA,94.92537313432837
53546,Rock County,WI,NA,4.179104477611941
53590,Dane County,WI,NA,37.3134328358209
53950,Juneau County,WI,85.35825545171339,NA
54016,St. Croix County,WI,47.97507788161994,NA
54022,Pierce County,WI,NA,42.98507462686567
54140,Outagamie County,WI,88.47352024922118,NA
54313,Brown County,WI,NA,80.29850746268656
54601,La Crosse County,WI,NA,0.5970149253731344
54771,Clark County,WI,96.88473520249221,NA
