ZipCode,county,state,Adult,Retirement
35020,Jefferson County,AL,15.512465373961218,NA
35022,Jefferson County,AL,41.27423822714682,NA
35043,Shelby County,AL,NA,86.62420382165605
35045,Chilton County,AL,62.880886426592795,NA
35124,Shelby County,AL,NA,34.394904458598724
35555,Fayette County,AL,NA,59.23566878980891
35570,Marion County,AL,NA,54.14012738853503
35622,Morgan County,AL,NA,86.94267515923568
35749,Madison County,AL,NA,53.503184713375795
35976,Marshall County,AL,75.62326869806094,NA
36613,Mobile County,AL,NA,77.07006369426752
36703,Dallas County,AL,61.21883656509696,NA
36869,Russell County,AL,NA,61.46496815286624
99654,Matanuska-Susitna Borough,AK,37.95013850415512,NA
85018,Maricopa County,AZ,NA,88.53503184713377
85037,Maricopa County,AZ,NA,64.3312101910828
85053,Maricopa County,AZ,49.03047091412742,NA
85123,Pinal County,AZ,NA,98.40764331210191
85338,Maricopa County,AZ,36.011080332409975,NA
85353,Maricopa County,AZ,34.903047091412745,NA
85374,Maricopa County,AZ,NA,20.063694267515924
85706,Pima County,AZ,NA,36.94267515923567
85715,Pima County,AZ,NA,90.12738853503186
85925,Apache County,AZ,96.95290858725761,NA
86004,Coconino County,AZ,6.9252077562326875,NA
86040,Coconino County,AZ,NA,79.29936305732484
86401,Mohave County,AZ,NA,34.07643312101911
86426,Mohave County,AZ,78.1163434903047,NA
71603,Jefferson County,AR,NA,58.28025477707006
72034,Faulkner County,AR,NA,49.36305732484077
72756,Benton County,AR,NA,33.12101910828025
90003,Los Angeles County,CA,37.396121883656505,NA
90007,Los Angeles County,CA,28.80886426592798,NA
90250,Los Angeles County,CA,NA,26.11464968152866
90501,Los Angeles County,CA,51.8005540166205,NA
90638,Los Angeles County,CA,NA,35.6687898089172
91351,Los Angeles County,CA,NA,89.49044585987261
91744,Los Angeles County,CA,18.83656509695291,NA
91913,San Diego County,CA,73.68421052631578,NA
92021,San Diego County,CA,NA,14.968152866242038
92027,San Diego County,CA,50.13850415512465,NA
92069,San Diego County,CA,NA,55.4140127388535
92223,Riverside County,CA,29.6398891966759,NA
92284,San Bernardino County,CA,59.0027700831025,NA
92399,San Bernardino County,CA,NA,22.29299363057325
92647,Orange County,CA,23.822714681440445,NA
92703,Orange County,CA,NA,55.095541401273884
92882,Riverside County,CA,29.362880886426595,NA
92886,Orange County,CA,31.57894736842105,NA
93012,Ventura County,CA,67.86703601108033,NA
93013,Santa Barbara County,CA,NA,96.4968152866242
93030,Ventura County,CA,18.282548476454295,NA
93420,San Luis Obispo County,CA,NA,46.17834394904459
93611,Fresno County,CA,39.612188365650965,NA
93901,Monterey County,CA,55.95567867036011,NA
94030,San Mateo County,CA,73.9612188365651,NA
94306,Santa Clara County,CA,NA,97.77070063694268
94536,Alameda County,CA,32.686980609418285,NA
94546,Alameda County,CA,NA,62.42038216560509
94587,Alameda County,CA,68.14404432132964,NA
94598,Contra Costa County,CA,NA,55.73248407643312
94601,Alameda County,CA,47.091412742382275,NA
94702,Alameda County,CA,63.711911357340725,NA
94941,Marin County,CA,NA,42.038216560509554
95204,San Joaquin County,CA,91.41274238227147,NA
95206,San Joaquin County,CA,22.71468144044321,NA
95326,Stanislaus County,CA,96.67590027700831,NA
95336,San Joaquin County,CA,31.024930747922436,NA
95356,Stanislaus County,CA,NA,43.31210191082803
95370,Tuolumne County,CA,59.2797783933518,NA
95401,Sonoma County,CA,NA,50
95403,Sonoma County,CA,NA,88.21656050955414
95407,Sonoma County,CA,NA,57.00636942675159
95476,Sonoma County,CA,72.29916897506925,NA
95519,Humboldt County,CA,74.51523545706371,NA
95608,Sacramento County,CA,42.38227146814405,NA
95640,Amador County,CA,94.73684210526315,NA
95667,El Dorado County,CA,NA,4.45859872611465
95758,Sacramento County,CA,NA,48.40764331210191
95822,Sacramento County,CA,41.55124653739612,NA
96067,Siskiyou County,CA,95.29085872576178,NA
80015,Arapahoe County,CO,NA,22.611464968152866
80113,Arapahoe County,CO,80.60941828254848,NA
80124,Douglas County,CO,NA,81.84713375796179
80205,Denver County,CO,14.40443213296399,NA
80207,Denver County,CO,NA,72.29299363057325
80219,Denver County,CO,25.20775623268698,23.248407643312103
80751,Logan County,CO,NA,64.01273885350318
80910,El Paso County,CO,NA,57.324840764331206
81321,Montezuma County,CO,67.59002770083103,NA
06040,Hartford County,CT,11.911357340720222,NA
06051,Hartford County,CT,63.1578947368421,NA
06066,Tolland County,CT,NA,20.382165605095544
06108,Hartford County,CT,30.747922437673132,NA
06111,Hartford County,CT,79.77839335180056,NA
06112,Hartford County,CT,NA,54.77707006369427
06114,Hartford County,CT,67.03601108033241,NA
06471,New Haven County,CT,88.9196675900277,NA
06492,New Haven County,CT,NA,13.05732484076433
06514,New Haven County,CT,37.119113573407205,NA
06710,New Haven County,CT,NA,85.03184713375796
19701,New Castle County,DE,27.42382271468144,NA
19702,New Castle County,DE,NA,19.745222929936308
19966,Sussex County,DE,NA,37.57961783439491
32303,Leon County,FL,46.81440443213297,45.54140127388535
32327,Wakulla County,FL,76.17728531855957,NA
32514,Escambia County,FL,25.48476454293629,NA
32571,Santa Rosa County,FL,14.681440443213297,NA
32578,Okaloosa County,FL,NA,21.656050955414013
32605,Alachua County,FL,NA,30.89171974522293
32701,Seminole County,FL,NA,72.92993630573248
32708,Seminole County,FL,48.75346260387812,NA
32714,Seminole County,FL,NA,67.19745222929936
32909,Brevard County,FL,41.82825484764543,NA
32937,Brevard County,FL,87.53462603878116,NA
33064,Broward County,FL,NA,18.471337579617835
33134,Miami-Dade County,FL,75.90027700831024,NA
33334,Broward County,FL,NA,51.27388535031847
33414,Palm Beach County,FL,47.92243767313019,NA
33704,Pinellas County,FL,NA,79.61783439490446
33904,Lee County,FL,NA,18.152866242038215
34104,Collier County,FL,NA,52.86624203821656
34219,Manatee County,FL,NA,64.64968152866241
34476,Marion County,FL,NA,74.84076433121018
34601,Hernando County,FL,NA,62.42038216560509
30043,Gwinnett County,GA,24.653739612188367,NA
30062,Cobb County,GA,NA,16.24203821656051
30093,Gwinnett County,GA,57.61772853185596,NA
30096,Gwinnett County,GA,26.869806094182824,NA
30241,Troup County,GA,27.70083102493075,NA
30331,Fulton County,GA,NA,10.509554140127388
30506,Hall County,GA,NA,21.97452229299363
30534,Dawson County,GA,NA,32.1656050955414
30741,Walker County,GA,20.498614958448755,NA
30813,Columbia County,GA,NA,92.35668789808918
31510,Bacon County,GA,NA,89.80891719745223
31535,Coffee County,GA,NA,85.35031847133759
31792,Thomas County,GA,NA,31.210191082802545
31794,Tift County,GA,NA,19.426751592356688
31903,Muscogee County,GA,35.45706371191136,NA
96819,Honolulu County,HI,NA,15.92356687898089
83440,Madison County,ID,NA,87.89808917197452
83442,Jefferson County,ID,NA,76.75159235668791
83501,Nez Perce County,ID,NA,11.78343949044586
83660,Canyon County,ID,94.18282548476455,NA
83669,Ada County,ID,NA,83.43949044585987
83714,Ada County,ID,48.476454293628805,NA
60018,Cook County,IL,NA,36.30573248407643
60104,Cook County,IL,NA,63.69426751592356
60130,Cook County,IL,NA,69.10828025477707
60174,Kane County,IL,NA,35.98726114649681
60404,Will County,IL,NA,42.35668789808918
60409,Cook County,IL,NA,70.38216560509554
60416,Grundy County,IL,60.387811634349035,NA
60442,Will County,IL,NA,81.21019108280255
60453,Cook County,IL,46.26038781163435,NA
60502,DuPage County,IL,54.84764542936288,NA
60513,Cook County,IL,86.98060941828255,NA
60612,Cook County,IL,NA,68.47133757961782
60628,Cook County,IL,NA,4.140127388535031
60634,Cook County,IL,38.504155124653735,NA
60639,Cook County,IL,NA,9.554140127388536
60655,Cook County,IL,NA,30.573248407643312
60901,Kankakee County,IL,NA,48.089171974522294
61611,Tazewell County,IL,NA,41.40127388535032
61615,Peoria County,IL,NA,62.101910828025474
61920,Coles County,IL,NA,51.59235668789809
62234,Madison County,IL,NA,43.94904458598726
62684,Sangamon County,IL,NA,99.68152866242038
46069,Hamilton County,IN,92.797783933518,NA
46158,Morgan County,IN,NA,65.92356687898089
46218,Marion County,IN,11.080332409972298,NA
46224,Marion County,IN,32.40997229916898,NA
46235,Marion County,IN,20.77562326869806,NA
46237,Marion County,IN,19.94459833795014,NA
46311,Lake County,IN,NA,52.22929936305732
46385,Porter County,IN,NA,3.5031847133757963
46410,Lake County,IN,7.756232686980609,NA
46514,Elkhart County,IN,30.47091412742382,NA
46534,Starke County,IN,NA,78.6624203821656
46750,Huntington County,IN,NA,26.751592356687897
46761,LaGrange County,IN,68.42105263157895,NA
46845,Allen County,IN,NA,45.22292993630573
46947,Cass County,IN,NA,12.101910828025478
47130,Clark County,IN,11.357340720221606,7.006369426751593
47150,Floyd County,IN,12.18836565096953,NA
47302,Delaware County,IN,19.390581717451525,NA
47403,Monroe County,IN,NA,56.05095541401274
47441,Greene County,IN,70.3601108033241,71.656050955414
47714,Vanderburgh County,IN,14.958448753462603,NA
47904,Tippecanoe County,IN,59.556786703601105,NA
50036,Boone County,IA,66.4819944598338,NA
50211,Warren County,IA,90.30470914127424,NA
50310,Polk County,IA,NA,87.26114649681529
50325,Polk County,IA,100,NA
50428,Cerro Gordo County,IA,NA,47.77070063694268
51012,Cherokee County,IA,92.797783933518,NA
66061,Johnson County,KS,NA,5.414012738853503
67114,Harvey County,KS,77.28531855955679,NA
67432,Clay County,KS,NA,85.6687898089172
40351,Rowan County,KY,23.545706371191137,NA
40509,Fayette County,KY,35.18005540166205,NA
41102,Boyd County,KY,71.46814404432132,21.337579617834397
42071,Calloway County,KY,44.32132963988919,NA
42127,Barren County,KY,NA,78.98089171974523
42211,Trigg County,KY,NA,45.85987261146497
42240,Christian County,KY,NA,15.605095541401273
42420,Henderson County,KY,36.84210526315789,NA
42544,Pulaski County,KY,91.96675900277008,NA
42642,Russell County,KY,95.01385041551247,NA
70062,Jefferson Parish,LA,NA,29.617834394904456
70084,St. John the Baptist Parish,LA,97.50692520775624,NA
70114,Orleans Parish,LA,85.3185595567867,NA
70118,Orleans Parish,LA,19.113573407202217,NA
70546,Jefferson Davis Parish,LA,60.94182825484764,NA
70607,Calcasieu Parish,LA,NA,66.87898089171973
70785,Livingston Parish,LA,NA,34.71337579617834
70817,East Baton Rouge Parish,LA,34.62603878116344,NA
71052,De Soto Parish,LA,39.88919667590028,NA
71109,Caddo Parish,LA,28.254847645429365,NA
71269,Richland Parish,LA,47.92243767313019,NA
71270,Lincoln Parish,LA,26.038781163434905,NA
04038,Cumberland County,ME,NA,47.13375796178344
04072,York County,ME,NA,20.70063694267516
04250,Androscoggin County,ME,96.1218836565097,NA
04282,Androscoggin County,ME,80.33240997229917,NA
04769,Aroostook County,ME,61.21883656509696,NA
04901,Kennebec County,ME,6.094182825484765,NA
20740,Prince George's County,MD,NA,96.17834394904459
20783,Prince George's County,MD,78.94736842105263,NA
20872,Montgomery County,MD,NA,95.22292993630573
21014,Harford County,MD,NA,30.254777070063692
21043,Howard County,MD,NA,43.63057324840764
21122,Anne Arundel County,MD,8.86426592797784,NA
21207,Baltimore County,MD,24.37673130193906,NA
21601,Talbot County,MD,NA,42.99363057324841
21666,Queen Anne's County,MD,90.02770083102493,NA
21830,Wicomico County,MD,98.89196675900277,NA
01027,Hampshire County,MA,12.742382271468145,40.76433121019109
01040,Hampden County,MA,NA,0.3184713375796179
01085,Hampden County,MA,3.0470914127423825,NA
01119,Hampden County,MA,84.48753462603878,NA
01240,Berkshire County,MA,NA,66.56050955414013
01267,Berkshire County,MA,NA,73.56687898089172
01373,Franklin County,MA,NA,94.26751592356688
01420,Worcester County,MA,0.554016620498615,NA
01475,Worcester County,MA,27.146814404432135,NA
01520,Worcester County,MA,45.70637119113574,NA
01550,Worcester County,MA,54.57063711911358,3.1847133757961785
01570,Worcester County,MA,5.263157894736842,NA
01585,Worcester County,MA,NA,88.85350318471338
01588,Worcester County,MA,NA,40.12738853503185
01603,Worcester County,MA,NA,39.80891719745223
01605,Worcester County,MA,NA,9.235668789808917
01821,Middlesex County,MA,25.761772853185594,NA
01841,Essex County,MA,0,NA
01850,Middlesex County,MA,8.587257617728532,NA
01852,Middlesex County,MA,NA,14.64968152866242
01860,Essex County,MA,NA,80.89171974522293
01876,Middlesex County,MA,29.085872576177284,NA
01880,Middlesex County,MA,NA,8.280254777070063
01970,Essex County,MA,NA,1.2738853503184715
02052,Norfolk County,MA,82.54847645429363,NA
02066,Plymouth County,MA,39.05817174515235,NA
02115,Suffolk County,MA,NA,3.821656050955414
02118,Suffolk County,MA,0.2770083102493075,NA
02128,Suffolk County,MA,21.052631578947366,14.012738853503185
02130,Suffolk County,MA,33.2409972299169,NA
02131,Suffolk County,MA,NA,6.369426751592357
02136,Suffolk County,MA,3.32409972299169,NA
02149,Middlesex County,MA,16.897506925207757,NA
02151,Suffolk County,MA,NA,0
02301,Plymouth County,MA,NA,2.8662420382165608
02476,Middlesex County,MA,96.39889196675901,NA
02703,Bristol County,MA,1.662049861495845,NA
02740,Bristol County,MA,NA,0.6369426751592357
02746,Bristol County,MA,46.53739612188366,NA
02769,Bristol County,MA,49.584487534626035,NA
48005,Macomb County,MI,89.19667590027701,NA
48126,Wayne County,MI,NA,40.445859872611464
48146,Wayne County,MI,9.418282548476455,NA
48162,Monroe County,MI,13.850415512465375,NA
48174,Wayne County,MI,30.193905817174517,NA
48197,Washtenaw County,MI,56.78670360110804,NA
48205,Wayne County,MI,22.437673130193904,NA
48223,Wayne County,MI,NA,38.53503184713376
48380,Oakland County,MI,93.35180055401662,NA
48415,Saginaw County,MI,52.07756232686981,NA
48504,Genesee County,MI,18.559556786703602,NA
48506,Genesee County,MI,NA,36.624203821656046
48611,Bay County,MI,95.84487534626038,NA
48632,Clare County,MI,79.50138504155125,NA
48661,Ogemaw County,MI,56.50969529085873,NA
48726,Tuscola County,MI,97.229916897506925,NA
48840,Ingham County,MI,NA,65.28662420382165
48843,Livingston County,MI,13.573407202216067,NA
48846,Ionia County,MI,70.91412742382272,NA
48848,Shiawassee County,MI,NA,76.11464968152866
48892,Ingham County,MI,89.47368421052632,NA
48917,Eaton County,MI,10.249307479224377,NA
49201,Jackson County,MI,NA,5.7324840764331215
49230,Jackson County,MI,72.57617728531855,NA
49286,Lenawee County,MI,NA,46.496815286624205
49306,Kent County,MI,NA,85.98726114649682
49426,Ottawa County,MI,NA,35.03184713375796
49546,Kent County,MI,39.88919667590028,NA
49548,Kent County,MI,8.033240997229916,NA
49696,Grand Traverse County,MI,75.34626038781164,NA
49735,Otsego County,MI,65.37396121883657,NA
49913,Houghton County,MI,88.64265927977839,NA
55014,Anoka County,MN,64.54293628808865,NA
55021,Rice County,MN,NA,39.171974522293
55347,Hennepin County,MN,NA,62.42038216560509
55350,McLeod County,MN,82.27146814404432,NA
55424,Hennepin County,MN,NA,89.171974522293
55434,Anoka County,MN,NA,59.554140127388536
55811,St. Louis County,MN,31.301939058171747,NA
56058,Le Sueur County,MN,98.06094182825484,NA
56081,Watonwan County,MN,NA,74.20382165605095
56345,Morrison County,MN,NA,74.52229299363057
38834,Alcorn County,MS,53.73961218836565,NA
39074,Scott County,MS,70.08310249307479,NA
39209,Hinds County,MS,NA,48.72611464968153
39452,George County,MS,NA,22.929936305732486
63020,Jefferson County,MO,62.04986149584487,NA
63026,St. Louis County,MO,37.67313019390582,NA
63108,St. Louis city,MO,NA,53.18471337579618
63115,St. Louis city,MO,52.35457063711911,NA
63301,St. Charles County,MO,NA,25.796178343949045
63401,Marion County,MO,50.69252077562327,NA
63755,Cape Girardeau County,MO,NA,50.955414012738856
63834,Mississippi County,MO,NA,84.39490445859873
63935,Ripley County,MO,56.232686980609415,NA
63966,Wayne County,MO,NA,96.81528662420382
64055,Jackson County,MO,8.310249307479225,NA
64068,Clay County,MO,NA,8.9171974522293
64152,Platte County,MO,20.221606648199447,NA
64468,Nodaway County,MO,NA,84.07643312101911
64772,Vernon County,MO,43.76731301939058,NA
65251,Callaway County,MO,63.43490304709142,NA
65301,Pettis County,MO,NA,10.191082802547772
65622,Dallas County,MO,74.79224376731301,NA
65653,Taney County,MO,NA,76.11464968152866
59405,Cascade County,MT,NA,80.2547770700637
68701,Madison County,NE,NA,75.79617834394905
89156,Clark County,NV,66.4819944598338,NA
89460,Douglas County,NV,75.06925207756233,NA
89511,Washoe County,NV,64.26592797783933,NA
03052,Hillsborough County,NH,NA,94.5859872611465
03079,Rockingham County,NH,NA,53.82165605095541
03301,Merrimack County,NH,50.96952908587258,NA
03773,Sullivan County,NH,NA,71.01910828025477
03868,Strafford County,NH,92.5207756232687,NA
07043,Essex County,NJ,86.14958448753463,NA
07082,Morris County,NJ,NA,93.94904458598727
07461,Sussex County,NJ,NA,60.19108280254777
07628,Bergen County,NJ,43.49030470914128,NA
07727,Monmouth County,NJ,76.45429362880887,NA
07731,Monmouth County,NJ,NA,39.490445859872615
07960,Morris County,NJ,99.7229916897507,NA
08088,Burlington County,NJ,NA,27.070063694267514
08098,Salem County,NJ,45.98337950138504,NA
08104,Camden County,NJ,7.479224376731302,NA
08757,Ocean County,NJ,77.8393351800554,NA
87102,Bernalillo County,NM,22.99168975069252,NA
87114,Bernalillo County,NM,9.695290858725762,NA
87507,Santa Fe County,NM,65.65096952908587,NA
87571,Taos County,NM,NA,49.36305732484077
88210,Eddy County,NM,NA,60.828025477707
10024,New York County,NY,55.4016620498615,NA
10458,Bronx County,NY,5.540166204986149,NA
10467,Bronx County,NY,NA,61.78343949044586
11212,Kings County,NY,2.21606648199446,NA
11217,Kings County,NY,42.65927977839335,NA
11221,Kings County,NY,NA,24.522292993630572
11385,Queens County,NY,NA,11.464968152866243
11693,Queens County,NY,83.93351800554017,NA
11757,Suffolk County,NY,NA,44.5859872611465
12010,Montgomery County,NY,6.3711911357340725,NA
12122,Schoharie County,NY,72.85318559556787,NA
12182,Rensselaer County,NY,52.63157894736842,NA
12302,Schenectady County,NY,NA,25.477707006369428
12901,Clinton County,NY,4.7091412742382275,5.7324840764331215
12944,Essex County,NY,NA,82.48407643312102
12983,Franklin County,NY,NA,51.910828025477706
13036,Oswego County,NY,58.448753462603875,NA
13132,Oswego County,NY,90.85872576177285,NA
13135,Oswego County,NY,62.04986149584487,NA
13219,Onondaga County,NY,87.25761772853186,NA
13320,Otsego County,NY,NA,95.85987261146497
13421,Madison County,NY,NA,80.57324840764332
13601,Jefferson County,NY,4.986149584487535,NA
13669,St. Lawrence County,NY,23.26869806094183,NA
13820,Otsego County,NY,NA,32.48407643312102
14132,Niagara County,NY,83.65650969529086,NA
14206,Erie County,NY,45.15235457063712,NA
14225,Erie County,NY,NA,16.878980891719745
14304,Niagara County,NY,5.8171745152354575,NA
14424,Ontario County,NY,4.43213296398892,NA
14615,Monroe County,NY,NA,69.7452229299363
14621,Monroe County,NY,15.789473684210526,NA
14623,Monroe County,NY,17.72853185595568,NA
27028,Davie County,NC,47.64542936288089,NA
27103,Forsyth County,NC,83.37950138504155,NA
27520,Johnston County,NC,33.795013850415515,NA
27557,Nash County,NC,88.36565096952909,NA
27573,Person County,NC,47.368421052631575,NA
27574,Person County,NC,NA,52.547770700636946
27613,Wake County,NC,NA,33.43949044585987
27889,Beaufort County,NC,NA,23.88535031847134
27893,Wilson County,NC,16.06648199445983,NA
28147,Rowan County,NC,34.07202216066482,NA
28152,Cleveland County,NC,39.335180055401665,NA
28215,Mecklenburg County,NC,NA,54.45859872611465
28334,Sampson County,NC,NA,27.70700636942675
28384,Bladen County,NC,81.99445983379502,NA
28403,New Hanover County,NC,71.74515235457064,NA
28411,New Hanover County,NC,NA,37.261146496815286
28451,Brunswick County,NC,NA,60.509554140127385
28540,Onslow County,NC,26.59279778393352,NA
28601,Catawba County,NC,15.23545706371191,NA
28748,Buncombe County,NC,81.7174515235457,NA
28782,Polk County,NC,98.61495844875347,NA
58078,Cass County,ND,NA,98.72611464968153
58104,Cass County,ND,31.855955678670362,NA
58763,Mountrail County,ND,NA,99.04458598726114
43026,Franklin County,OH,21.329639889196674,NA
43081,Franklin County,OH,24.099722991689752,NA
43110,Franklin County,OH,NA,11.146496815286625
43162,Madison County,OH,87.81163434903047,NA
43203,Franklin County,OH,NA,82.80254777070064
43512,Defiance County,OH,NA,5.095541401273886
43551,Wood County,OH,NA,8.598726114649681
43605,Lucas County,OH,3.8781163434903045,NA
43606,Lucas County,OH,66.20498614958449,NA
43935,Belmont County,OH,50.41551246537396,NA
44035,Lorain County,OH,0.8310249307479225,2.229299363057325
44052,Lorain County,OH,NA,2.547770700636943
44053,Lorain County,OH,32.13296398891966,NA
44067,Summit County,OH,NA,18.789808917197455
44077,Lake County,OH,60.11080332409973,NA
44087,Summit County,OH,43.76731301939058,NA
44102,Cuyahoga County,OH,1.10803324099723,NA
44109,Cuyahoga County,OH,1.3850415512465373,NA
44111,Cuyahoga County,OH,2.7700831024930745,NA
44118,Cuyahoga County,OH,40.99722991689751,10.828025477707007
44126,Cuyahoga County,OH,NA,41.71974522292994
44129,Cuyahoga County,OH,NA,14.331210191082802
44143,Cuyahoga County,OH,35.73407202216066,NA
44272,Portage County,OH,NA,99.36305732484077
44306,Summit County,OH,NA,71.3375796178344
44310,Summit County,OH,NA,57.64331210191082
44313,Summit County,OH,NA,73.24840764331209
44438,Trumbull County,OH,71.19113573407202,NA
44460,Columbiana County,OH,NA,9.872611464968154
44485,Trumbull County,OH,18.005540166204987,NA
44515,Mahoning County,OH,11.634349030470915,NA
44833,Crawford County,OH,65.09695290858726,NA
44870,Erie County,OH,3.6011080332409975,NA
44889,Huron County,OH,91.68975069252078,NA
45005,Warren County,OH,9.97229916897507,NA
45133,Highland County,OH,21.88365650969529,NA
45211,Hamilton County,OH,10.526315789473683,NA
45227,Hamilton County,OH,51.24653739612188,NA
45229,Hamilton County,OH,29.916897506925206,NA
45230,Hamilton County,OH,78.39335180055402,NA
45231,Hamilton County,OH,NA,19.10828025477707
45240,Hamilton County,OH,NA,44.26751592356688
45242,Hamilton County,OH,69.80609418282549,NA
45244,Hamilton County,OH,53.46260387811634,NA
45247,Hamilton County,OH,58.72576177285319,NA
45324,Greene County,OH,10.80332409972299,NA
45365,Shelby County,OH,13.019390581717452,NA
45439,Montgomery County,OH,53.18559556786704,NA
45640,Jackson County,OH,NA,7.961783439490445
45652,Scioto County,OH,89.75069252077562,NA
45680,Lawrence County,OH,14.127423822714682,NA
45690,Pike County,OH,NA,79.93630573248409
45694,Scioto County,OH,27.977839335180054,NA
45750,Washington County,OH,NA,0.9554140127388535
45764,Athens County,OH,68.97506925207756,NA
45801,Allen County,OH,NA,23.56687898089172
73036,Canadian County,OK,42.93628808864266,NA
73049,Oklahoma County,OK,NA,93.63057324840764
73750,Kingfisher County,OK,84.7645429362881,NA
74044,Creek County,OK,NA,86.30573248407643
74728,McCurtain County,OK,NA,83.7579617834395
74834,Lincoln County,OK,NA,92.99363057324841
74857,Cleveland County,OK,76.73130193905817,NA
97032,Marion County,OR,99.16897506925207,NA
97203,Multnomah County,OR,NA,63.37579617834395
97206,Multnomah County,OR,NA,24.840764331210192
97225,Washington County,OR,NA,70.70063694267516
97232,Multnomah County,OR,79.22437673130193,NA
97383,Marion County,OR,77.00831024930747,NA
97411,Coos County,OR,NA,71.97452229299363
15001,Beaver County,PA,21.60664819944598,17.8343949044586
15214,Allegheny County,PA,85.87257617728532,NA
15237,Allegheny County,PA,NA,23.88535031847134
15632,Westmoreland County,PA,85.59556786703601,NA
15642,Westmoreland County,PA,NA,7.643312101910828
15857,Elk County,PA,NA,38.853503184713375
16232,Clarion County,PA,NA,81.52866242038218
16365,Warren County,PA,NA,28.980891719745223
16503,Erie County,PA,NA,75.47770700636943
16830,Clearfield County,PA,NA,28.343949044585987
17011,Cumberland County,PA,NA,21.019108280254777
17055,Cumberland County,PA,28.53185595567867,16.560509554140125
17063,Mifflin County,PA,99.445983379501385,NA
17103,Dauphin County,PA,40.443213296398895,NA
17111,Dauphin County,PA,17.174515235457065,NA
17112,Dauphin County,PA,NA,28.662420382165603
17372,Adams County,PA,NA,97.13375796178345
17401,York County,PA,95.56786703601108,NA
17408,York County,PA,44.59833795013851,NA
17601,Lancaster County,PA,36.288088642659275,NA
17603,Lancaster County,PA,36.56509695290859,NA
17701,Lycoming County,PA,NA,7.32484076433121
17960,Schuylkill County,PA,86.42659279778393,NA
18042,Northampton County,PA,6.64819944598338,NA
18102,Lehigh County,PA,2.4930747922437675,NA
18104,Lehigh County,PA,NA,26.43312101910828
18229,Carbon County,PA,72.02216066481995,NA
18235,Carbon County,PA,NA,28.02547770700637
18252,Schuylkill County,PA,57.06371191135734,NA
18407,Lackawanna County,PA,NA,92.67515923566879
18504,Lackawanna County,PA,63.988919667590025,NA
18641,Luzerne County,PA,82.82548476454294,NA
18702,Luzerne County,PA,NA,4.777070063694268
18704,Luzerne County,PA,NA,13.694267515923567
19018,Delaware County,PA,NA,92.03821656050955
19050,Delaware County,PA,NA,91.0828025477707
19103,Philadelphia County,PA,NA,84.71337579617835
19140,Philadelphia County,PA,57.340720221606645,38.21656050955414
19148,Philadelphia County,PA,9.141274238227147,47.452229299363054
19454,Montgomery County,PA,NA,78.343949044586
02860,Providence County,RI,NA,12.738853503184714
02886,Kent County,RI,33.51800554016621,NA
02910,Providence County,RI,52.90858725761773,NA
29073,Lexington County,SC,NA,37.898089171974526
29527,Horry County,SC,93.62880886426593,NA
29532,Darlington County,SC,60.664819944598335,NA
29569,Horry County,SC,49.307479224376735,NA
29621,Anderson County,SC,38.504155124653735,NA
29646,Greenwood County,SC,NA,78.02547770700637
29732,York County,SC,NA,25.159235668789808
29829,Aiken County,SC,NA,91.71974522292994
29909,Beaufort County,SC,NA,16.878980891719745
57401,Brown County,SD,NA,73.88535031847134
57703,Pennington County,SD,68.69806094182826,NA
57783,Lawrence County,SD,70.6371191135734,NA
37115,Davidson County,TN,NA,58.59872611464968
37323,Bradley County,TN,43.21329639889196,NA
37643,Carter County,TN,13.29639889196676,NA
37714,Campbell County,TN,93.90581717451524,NA
37737,Blount County,TN,NA,93.31210191082803
37803,Blount County,TN,34.34903047091413,NA
37874,Monroe County,TN,NA,50.63694267515923
37876,Sevier County,TN,NA,57.961783439490446
37886,Blount County,TN,84.21052631578947,NA
37923,Knox County,TN,54.29362880886427,NA
38116,Shelby County,TN,NA,68.78980891719745
38118,Shelby County,TN,NA,82.16560509554141
38261,Obion County,TN,40.7202216066482,NA
38320,Benton County,TN,88.08864265927978,NA
75051,Dallas County,TX,44.87534626038781,NA
75070,Collin County,TX,16.62049861495845,NA
75092,Grayson County,TX,49.86149584487535,NA
75440,Rains County,TX,86.70360110803324,NA
75701,Smith County,TX,NA,13.375796178343949
75803,Anderson County,TX,64.81994459833795,NA
76014,Tarrant County,TX,51.52354570637119,NA
76132,Tarrant County,TX,83.10249307479224,NA
76182,Tarrant County,TX,NA,31.84713375796178
76227,Denton County,TX,65.92797783933518,NA
76426,Wise County,TX,NA,72.61146496815286
76502,Bell County,TX,NA,1.5923566878980893
76520,Milam County,TX,69.52908587257618,77.70700636942675
76528,Coryell County,TX,NA,14.968152866242038
76549,Bell County,TX,NA,29.936305732484076
77043,Harris County,TX,NA,90.44585987261146
77045,Harris County,TX,NA,65.28662420382165
77059,Harris County,TX,NA,61.146496815286625
77086,Harris County,TX,67.31301939058172,68.15286624203821
77090,Harris County,TX,NA,56.36942675159236
77338,Harris County,TX,NA,58.59872611464968
77345,Harris County,TX,80.88642659279779,NA
77459,Fort Bend County,TX,24.930747922437675,NA
77539,Galveston County,TX,NA,12.420382165605096
77571,Harris County,TX,NA,46.81528662420382
77627,Jefferson County,TX,NA,90.76433121019109
77706,Jefferson County,TX,NA,31.528662420382165
77871,Leon County,TX,NA,94.90445859872611
78006,Kendall County,TX,80.05540166204986,NA
78223,Bexar County,TX,19.667590027700832,NA
78239,Bexar County,TX,61.772853185595565,NA
78621,Bastrop County,TX,NA,69.42675159235668
78633,Williamson County,TX,85.0415512465374,NA
78634,Williamson County,TX,NA,66.2420382165605
78657,Llano County,TX,NA,67.83439490445859
78750,Travis County,TX,98.337950138504155,NA
79549,Scurry County,TX,81.4404432132964,NA
79761,Ector County,TX,NA,56.68789808917197
84401,Weber County,UT,45.42936288088642,NA
05156,Windsor County,VT,NA,64.96815286624204
05477,Chittenden County,VT,NA,98.08917197452229
05819,Caledonia County,VT,NA,75.15923566878982
20148,Loudoun County,VA,58.17174515235457,NA
22039,Fairfax County,VA,NA,77.38853503184714
22101,Fairfax County,VA,54.016620498614955,NA
22630,Warren County,VA,26.31578947368421,NA
22911,Albemarle County,VA,73.40720221606648,NA
22942,Louisa County,VA,78.67036011080333,NA
23075,Henrico County,VA,62.603878116343495,NA
23185,James City County,VA,38.227146814404435,44.904458598726116
23294,Henrico County,VA,77.5623268698061,NA
23602,Newport News city,VA,NA,27.388535031847134
23803,Petersburg city,VA,12.465373961218837,NA
24012,Roanoke city,VA,NA,41.082802547770704
24301,Pulaski County,VA,57.89473684210527,NA
24523,Bedford County,VA,32.96398891966759,NA
98031,King County,WA,NA,50.318471337579616
98125,King County,WA,NA,32.802547770700635
98272,Snohomish County,WA,NA,42.675159235668794
98284,Skagit County,WA,NA,91.40127388535032
98290,Snohomish County,WA,NA,49.044585987261144
98328,Pierce County,WA,81.16343490304709,NA
98408,Pierce County,WA,NA,83.12101910828027
98513,Thurston County,WA,74.23822714681441,NA
98632,Cowlitz County,WA,69.25207756232687,NA
98823,Grant County,WA,91.13573407202216,NA
98926,Kittitas County,WA,55.4016620498615,NA
20001,District of Columbia,DC,22.160664819944596,NA
20007,District of Columbia,DC,NA,67.51592356687898
20019,District of Columbia,DC,NA,6.687898089171974
25526,Putnam County,WV,NA,35.35031847133758
25530,Wayne County,WV,73.13019390581718,NA
25701,Cabell County,WV,17.451523545706372,87.57961783439491
25832,Raleigh County,WV,NA,97.45222929936305
26250,Barbour County,WV,NA,95.54140127388536
53105,Racine County,WI,16.343490304709142,NA
53168,Kenosha County,WI,92.24376731301939,NA
53189,Waukesha County,WI,NA,29.29936305732484
53205,Milwaukee County,WI,4.1551246537396125,NA
53214,Milwaukee County,WI,42.10526315789473,NA
53218,Milwaukee County,WI,7.202216066481995,NA
53222,Milwaukee County,WI,NA,33.75796178343949
53511,Rock County,WI,1.9390581717451523,NA
53704,Dane County,WI,NA,17.51592356687898
54005,Polk County,WI,97.78393351800554,NA
54208,Brown County,WI,NA,100
54220,Manitowoc County,WI,NA,1.910828025477707
54313,Brown County,WI,59.83379501385041,70.06369426751591
54650,La Crosse County,WI,55.124653739612185,NA
54853,Polk County,WI,94.45983379501385,NA
54868,Barron County,WI,90.58171745152355,NA
54911,Outagamie County,WI,NA,59.87261146496815
