ZipCode,county,state,Adult,Retirement
35125,St. Clair County,AL,88.16326530612245,NA
35207,Jefferson County,AL,71.42857142857143,NA
35473,Tuscaloosa County,AL,NA,61.13207547169811
35601,Morgan County,AL,47.3469387755102,NA
35805,Madison County,AL,NA,70.56603773584905
36532,Baldwin County,AL,NA,28.30188679245283
36535,Baldwin County,AL,NA,26.41509433962264
36874,Lee County,AL,86.12244897959184,NA
99705,Fairbanks North Star Borough,AK,75.51020408163265,NA
99709,Fairbanks North Star Borough,AK,NA,61.886792452830186
99835,Sitka City and Borough,AK,64.89795918367346,NA
85048,Maricopa County,AZ,54.69387755102041,NA
85120,Pinal County,AZ,44.89795918367347,NA
85215,Maricopa County,AZ,NA,77.73584905660378
85301,Maricopa County,AZ,44.48979591836735,NA
85302,Maricopa County,AZ,NA,33.58490566037736
86047,Navajo County,AZ,NA,38.86792452830189
86322,Yavapai County,AZ,55.51020408163265,NA
86514,Apache County,AZ,98.36734693877551,NA
72830,Johnson County,AR,80,NA
90024,Los Angeles County,CA,NA,63.0188679245283
90048,Los Angeles County,CA,90.20408163265307,NA
90220,Los Angeles County,CA,NA,62.64150943396226
90250,Los Angeles County,CA,NA,29.433962264150942
90277,Los Angeles County,CA,NA,72.0754716981132
90501,Los Angeles County,CA,NA,85.66037735849056
90503,Los Angeles County,CA,NA,51.698113207547166
90505,Los Angeles County,CA,NA,48.301886792452834
90638,Los Angeles County,CA,NA,45.660377358490564
90715,Los Angeles County,CA,94.6938775510204,NA
91316,Los Angeles County,CA,NA,96.98113207547169
91355,Los Angeles County,CA,72.6530612244898,NA
92103,San Diego County,CA,48.97959183673469,NA
92225,Riverside County,CA,95.10204081632652,83.77358490566039
92231,Imperial County,CA,NA,55.84905660377358
92532,Riverside County,CA,NA,83.01886792452831
92586,Riverside County,CA,78.77551020408163,NA
92677,Orange County,CA,NA,11.69811320754717
92866,Orange County,CA,80.40816326530611,NA
93636,Madera County,CA,NA,82.64150943396227
93662,Fresno County,CA,NA,91.32075471698113
93924,Monterey County,CA,NA,80
94117,San Francisco County,CA,NA,51.320754716981135
94121,San Francisco County,CA,73.06122448979592,NA
94541,Alameda County,CA,NA,22.264150943396228
94558,Napa County,CA,36.734693877551024,NA
94931,Sonoma County,CA,97.55102040816327,NA
94949,Marin County,CA,79.59183673469387,NA
95066,Santa Cruz County,CA,NA,93.9622641509434
95122,Santa Clara County,CA,NA,81.50943396226415
95476,Sonoma County,CA,NA,40.37735849056604
95531,Del Norte County,CA,NA,58.490566037735846
95693,Sacramento County,CA,99.59183673469387,NA
96007,Shasta County,CA,NA,87.54716981132076
80020,Broomfield County,CO,NA,84.15094339622642
80031,Adams County,CO,90.61224489795919,NA
80104,Douglas County,CO,60.816326530612244,NA
80122,Arapahoe County,CO,NA,59.62264150943396
80124,Douglas County,CO,68.16326530612244,NA
80227,Jefferson County,CO,NA,71.69811320754717
80260,Adams County,CO,NA,66.79245283018868
80734,Phillips County,CO,95.51020408163265,NA
81650,Garfield County,CO,NA,69.43396226415094
06051,Hartford County,CT,NA,21.88679245283019
06052,Hartford County,CT,NA,89.43396226415095
06255,Windham County,CT,76.73469387755102,NA
06281,Windham County,CT,68.9795918367347,NA
06451,New Haven County,CT,31.020408163265305,NA
06488,New Haven County,CT,NA,44.528301886792455
06492,New Haven County,CT,NA,14.339622641509434
06513,New Haven County,CT,8.16326530612245,10.18867924528302
06516,New Haven County,CT,NA,5.660377358490567
06759,Litchfield County,CT,NA,89.81132075471699
06810,Fairfield County,CT,NA,24.90566037735849
06903,Fairfield County,CT,NA,65.66037735849056
19702,New Castle County,DE,NA,60.37735849056604
19808,New Castle County,DE,59.591836734693885,NA
19950,Sussex County,DE,82.0408163265306,NA
32308,Leon County,FL,NA,69.81132075471697
32424,Calhoun County,FL,NA,81.13207547169812
32446,Jackson County,FL,91.42857142857143,NA
32455,Walton County,FL,NA,88.67924528301887
32506,Escambia County,FL,NA,20.37735849056604
32561,Santa Rosa County,FL,NA,81.88679245283019
32656,Clay County,FL,NA,65.28301886792453
33176,Miami-Dade County,FL,84.89795918367346,NA
33189,Miami-Dade County,FL,84.48979591836735,NA
33702,Pinellas County,FL,NA,67.9245283018868
34102,Collier County,FL,NA,86.41509433962264
34202,Manatee County,FL,NA,46.79245283018868
34602,Hernando County,FL,91.02040816326532,NA
34711,Lake County,FL,NA,7.547169811320755
34714,Lake County,FL,74.28571428571429,NA
34953,St. Lucie County,FL,10.612244897959183,NA
30005,Fulton County,GA,71.83673469387755,NA
30047,Gwinnett County,GA,NA,33.20754716981132
30215,Fayette County,GA,NA,39.24528301886793
30328,Fulton County,GA,69.38775510204081,NA
30518,Gwinnett County,GA,41.63265306122449,NA
30606,Clarke County,GA,42.04081632653061,NA
30646,Madison County,GA,NA,89.05660377358491
96706,Honolulu County,HI,16.73469387755102,NA
96818,Honolulu County,HI,57.14285714285714,NA
83201,Bannock County,ID,29.38775510204082,NA
83221,Bingham County,ID,NA,21.132075471698116
83338,Jerome County,ID,NA,30.566037735849054
83402,Bonneville County,ID,NA,53.58490566037736
83422,Teton County,ID,NA,99.24528301886792
83440,Madison County,ID,NA,92.0754716981132
83501,Nez Perce County,ID,NA,13.20754716981132
83616,Ada County,ID,54.285714285714285,NA
60046,Lake County,IL,NA,95.09433962264151
60051,McHenry County,IL,55.91836734693878,NA
60148,DuPage County,IL,20.408163265306122,NA
60187,DuPage County,IL,NA,41.88679245283019
60401,Will County,IL,NA,97.73584905660377
60455,Cook County,IL,NA,57.35849056603774
60515,DuPage County,IL,81.22448979591836,NA
60626,Cook County,IL,26.53061224489796,NA
60631,Cook County,IL,37.95918367346939,NA
60638,Cook County,IL,15.10204081632653,NA
60641,Cook County,IL,NA,19.245283018867926
60644,Cook County,IL,NA,15.09433962264151
60647,Cook County,IL,12.653061224489795,NA
60901,Kankakee County,IL,NA,17.358490566037734
61048,Stephenson County,IL,NA,93.58490566037736
61244,Rock Island County,IL,NA,76.22641509433963
61614,Peoria County,IL,NA,41.132075471698116
61701,McLean County,IL,38.36734693877551,NA
62454,Crawford County,IL,96.3265306122449,NA
62704,Sangamon County,IL,NA,36.22641509433962
46032,Hamilton County,IN,NA,64.52830188679245
46184,Johnson County,IN,88.57142857142857,NA
46342,Lake County,IN,10.204081632653061,NA
46373,Lake County,IN,NA,44.15094339622642
46405,Lake County,IN,43.673469387755105,NA
46516,Elkhart County,IN,22.857142857142858,NA
46517,Elkhart County,IN,53.46938775510204,NA
47102,Scott County,IN,85.3061224489796,NA
47150,Floyd County,IN,15.918367346938775,NA
47885,Vigo County,IN,NA,76.9811320754717
47904,Tippecanoe County,IN,NA,78.11320754716982
50511,Kossuth County,IA,NA,78.49056603773586
51442,Crawford County,IA,NA,93.20754716981132
66614,Shawnee County,KS,NA,22.641509433962266
67005,Cowley County,KS,57.95918367346938,NA
67212,Sedgwick County,KS,66.12244897959184,NA
67235,Sedgwick County,KS,NA,100
67801,Ford County,KS,NA,88.30188679245283
40241,Jefferson County,KY,NA,47.54716981132076
40324,Scott County,KY,NA,27.169811320754718
40336,Estill County,KY,58.36734693877551,NA
70005,Jefferson Parish,LA,NA,27.92452830188679
70058,Jefferson Parish,LA,NA,97.35849056603773
70122,Orleans Parish,LA,NA,69.0566037735849
70131,Orleans Parish,LA,NA,40
70346,Ascension Parish,LA,51.02040816326531,NA
70401,Tangipahoa Parish,LA,89.38775510204081,NA
70520,Lafayette Parish,LA,NA,52.83018867924528
70605,Calcasieu Parish,LA,24.489795918367346,NA
70737,Ascension Parish,LA,11.428571428571429,NA
70764,Iberville Parish,LA,40.40816326530612,NA
70805,East Baton Rouge Parish,LA,4.8979591836734695,NA
70808,East Baton Rouge Parish,LA,48.57142857142857,47.924528301886795
71109,Caddo Parish,LA,NA,31.32075471698113
04210,Androscoggin County,ME,NA,10.943396226415095
04401,Penobscot County,ME,NA,3.3962264150943398
04736,Aroostook County,ME,56.734693877551024,NA
21229,Baltimore city,MD,24.081632653061224,NA
01085,Hampden County,MA,NA,4.528301886792453
01440,Worcester County,MA,3.2653061224489797,NA
01749,Middlesex County,MA,26.93877551020408,NA
01826,Middlesex County,MA,8.571428571428571,NA
01844,Essex County,MA,13.46938775510204,NA
01864,Middlesex County,MA,52.6530612244898,NA
01880,Middlesex County,MA,NA,98.11320754716981
01890,Middlesex County,MA,NA,37.35849056603773
01907,Essex County,MA,NA,38.49056603773585
01915,Essex County,MA,NA,50.18867924528302
01930,Essex County,MA,25.30612244897959,NA
02019,Norfolk County,MA,NA,46.0377358490566
02081,Norfolk County,MA,NA,54.339622641509436
02150,Suffolk County,MA,NA,1.8867924528301887
02151,Suffolk County,MA,NA,0
02169,Norfolk County,MA,0.40816326530612246,NA
02170,Norfolk County,MA,37.55102040816327,NA
02184,Norfolk County,MA,NA,9.811320754716983
02186,Norfolk County,MA,NA,32.45283018867924
02459,Middlesex County,MA,NA,26.79245283018868
02760,Bristol County,MA,NA,13.584905660377359
02766,Bristol County,MA,24.897959183673468,NA
48051,Macomb County,MI,NA,44.905660377358494
48066,Macomb County,MI,NA,43.77358490566038
48081,Macomb County,MI,NA,94.71698113207547
48091,Macomb County,MI,NA,18.867924528301888
48105,Washtenaw County,MI,NA,18.49056603773585
48117,Monroe County,MI,NA,90.18867924528303
48126,Wayne County,MI,NA,77.35849056603774
48135,Wayne County,MI,28.57142857142857,NA
48167,Oakland County,MI,43.26530612244898,NA
48176,Washtenaw County,MI,NA,28.67924528301887
48178,Oakland County,MI,NA,15.849056603773585
48187,Wayne County,MI,NA,4.905660377358491
48198,Washtenaw County,MI,21.63265306122449,NA
48206,Wayne County,MI,33.46938775510204,NA
48208,Wayne County,MI,60.40816326530612,NA
48214,Wayne County,MI,NA,29.81132075471698
48227,Wayne County,MI,6.122448979591836,NA
48235,Wayne County,MI,4.081632653061225,NA
48428,Lapeer County,MI,NA,87.16981132075472
48864,Ingham County,MI,NA,53.20754716981132
48912,Ingham County,MI,NA,72.45283018867924
49112,Cass County,MI,86.53061224489797,NA
49221,Lenawee County,MI,7.346938775510205,NA
49229,Lenawee County,MI,97.14285714285714,NA
49321,Kent County,MI,NA,86.0377358490566
49327,Newaygo County,MI,NA,79.24528301886792
49331,Kent County,MI,98.77551020408163,NA
49508,Kent County,MI,NA,10.566037735849058
49548,Kent County,MI,11.83673469387755,NA
49721,Cheboygan County,MI,NA,42.64150943396226
55101,Ramsey County,MN,39.59183673469388,NA
55337,Dakota County,MN,40,NA
55746,St. Louis County,MN,30.612244897959183,NA
56037,Blue Earth County,MN,NA,99.62264150943396
56401,Crow Wing County,MN,NA,7.9245283018867925
56560,Clay County,MN,NA,6.7924528301886795
39466,Pearl River County,MS,31.428571428571427,NA
39476,Perry County,MS,92.24489795918367,NA
39574,Harrison County,MS,NA,62.264150943396224
39645,Amite County,MS,87.75510204081633,NA
63051,Jefferson County,MO,67.75510204081633,NA
63401,Marion County,MO,51.42857142857142,NA
63664,Washington County,MO,NA,75.09433962264151
64055,Jackson County,MO,12.244897959183673,NA
64081,Jackson County,MO,76.32653061224491,NA
64119,Clay County,MO,NA,25.660377358490567
64138,Jackson County,MO,17.142857142857142,NA
64501,Buchanan County,MO,NA,95.84905660377359
64804,Jasper County,MO,NA,46.41509433962264
65536,Laclede County,MO,NA,40.75471698113208
65807,Greene County,MO,33.87755102040816,NA
69361,Scotts Bluff County,NE,77.14285714285715,NA
89801,Elko County,NV,68.57142857142857,NA
03038,Rockingham County,NH,NA,19.622641509433965
03079,Rockingham County,NH,21.224489795918366,NA
07108,Essex County,NJ,82.44897959183673,NA
07456,Passaic County,NJ,85.71428571428571,NA
07501,Passaic County,NJ,46.93877551020408,NA
07726,Monmouth County,NJ,NA,32.83018867924528
07928,Morris County,NJ,91.83673469387756,NA
08096,Gloucester County,NJ,28.97959183673469,NA
08758,Ocean County,NJ,NA,74.71698113207546
87105,Bernalillo County,NM,NA,29.056603773584904
87106,Bernalillo County,NM,27.346938775510203,NA
87107,Bernalillo County,NM,39.183673469387756,NA
87109,Bernalillo County,NM,53.06122448979592,NA
87120,Bernalillo County,NM,NA,16.60377358490566
87122,Bernalillo County,NM,NA,73.20754716981132
87505,Santa Fe County,NM,9.795918367346939,NA
87532,Santa Fe County,NM,NA,50.56603773584906
88063,Doa Ana County,NM,NA,90.9433962264151
10457,Bronx County,NY,0.8163265306122449,NA
10458,Bronx County,NY,9.387755102040817,NA
11203,Kings County,NY,14.285714285714285,NA
11213,Kings County,NY,NA,36.60377358490566
11236,Kings County,NY,NA,42.26415094339623
11434,Queens County,NY,19.183673469387756,NA
11436,Queens County,NY,71.0204081632653,NA
11735,Nassau County,NY,NA,67.16981132075472
12047,Albany County,NY,NA,63.39622641509434
12182,Rensselaer County,NY,53.87755102040816,NA
12801,Warren County,NY,78.36734693877551,NA
12804,Warren County,NY,NA,11.69811320754717
12828,Washington County,NY,46.12244897959184,NA
12901,Clinton County,NY,23.6734693877551,NA
13021,Cayuga County,NY,6.530612244897959,NA
13165,Seneca County,NY,64.48979591836735,24.90566037735849
13202,Onondaga County,NY,63.6734693877551,NA
13346,Madison County,NY,NA,84.52830188679246
13901,Broome County,NY,NA,6.415094339622642
14043,Erie County,NY,NA,34.71698113207547
14051,Erie County,NY,44.08163265306123,NA
14072,Erie County,NY,73.87755102040816,NA
14127,Erie County,NY,20.816326530612244,NA
14150,Erie County,NY,11.020408163265307,NA
14210,Erie County,NY,NA,50.943396226415096
14213,Erie County,NY,55.10204081632652,NA
14215,Erie County,NY,3.6734693877551026,NA
14219,Erie County,NY,NA,92.83018867924528
14222,Erie County,NY,58.77551020408164,NA
14225,Erie County,NY,NA,58.11320754716981
14425,Ontario County,NY,23.26530612244898,32.075471698113205
14437,Livingston County,NY,48.16326530612245,NA
14450,Monroe County,NY,4.489795918367347,NA
14471,Ontario County,NY,94.28571428571428,NA
14505,Wayne County,NY,65.71428571428571,NA
14559,Monroe County,NY,NA,24.528301886792452
14580,Monroe County,NY,NA,1.1320754716981132
14615,Monroe County,NY,NA,37.735849056603776
14625,Monroe County,NY,NA,78.8679245283019
14626,Monroe County,NY,NA,6.037735849056604
14760,Cattaraugus County,NY,NA,15.471698113207546
14904,Chemung County,NY,32.6530612244898,NA
27103,Forsyth County,NC,20,NA
27107,Forsyth County,NC,7.755102040816326,NA
27519,Wake County,NC,NA,58.867924528301884
27534,Wayne County,NC,70.20408163265306,NA
27615,Wake County,NC,NA,16.9811320754717
27616,Wake County,NC,NA,41.509433962264154
27803,Nash County,NC,50.204081632653065,NA
27858,Pitt County,NC,NA,48.679245283018865
27863,Wayne County,NC,83.26530612244898,NA
27874,Halifax County,NC,92.65306122448979,NA
28146,Rowan County,NC,NA,52.45283018867924
28227,Mecklenburg County,NC,NA,20
28504,Lenoir County,NC,NA,67.54716981132076
28712,Transylvania County,NC,77.55102040816327,NA
28752,McDowell County,NC,22.040816326530614,NA
28753,Madison County,NC,NA,79.62264150943396
43207,Franklin County,OH,2.857142857142857,NA
43551,Wood County,OH,18.775510204081634,NA
43606,Lucas County,OH,NA,71.32075471698113
43615,Lucas County,OH,25.71428571428571,NA
43953,Jefferson County,OH,38.775510204081634,NA
44035,Lorain County,OH,NA,0.37735849056603776
44070,Cuyahoga County,OH,NA,8.30188679245283
44102,Cuyahoga County,OH,0,NA
44105,Cuyahoga County,OH,1.2244897959183674,9.056603773584905
44111,Cuyahoga County,OH,2.4489795918367347,NA
44130,Cuyahoga County,OH,NA,1.509433962264151
44135,Cuyahoga County,OH,5.714285714285714,NA
44142,Cuyahoga County,OH,NA,20.754716981132077
44146,Cuyahoga County,OH,NA,4.150943396226415
44281,Medina County,OH,28.163265306122447,NA
44481,Trumbull County,OH,31.83673469387755,NA
44502,Mahoning County,OH,44.89795918367347,NA
44890,Huron County,OH,NA,66.41509433962264
45013,Butler County,OH,6.938775510204081,NA
45150,Clermont County,OH,70.61224489795919,35.84905660377358
45211,Hamilton County,OH,13.877551020408163,NA
45240,Hamilton County,OH,NA,52.075471698113205
45601,Ross County,OH,NA,0.7547169811320755
73003,Oklahoma County,OK,67.3469387755102,NA
74055,Tulsa County,OK,57.55102040816327,NA
74063,Tulsa County,OK,88.9795918367347,NA
74074,Payne County,OK,NA,47.16981132075472
74352,Mayes County,OK,NA,82.26415094339623
74464,Cherokee County,OK,NA,21.50943396226415
74801,Pottawatomie County,OK,NA,31.69811320754717
97006,Washington County,OR,36.3265306122449,NA
97008,Washington County,OR,NA,59.24528301886792
97222,Clackamas County,OR,35.91836734693877,NA
97321,Linn County,OR,33.06122448979592,NA
97370,Benton County,OR,NA,95.47169811320755
97402,Lane County,OR,NA,35.471698113207545
97420,Coos County,OR,NA,49.056603773584904
97520,Jackson County,OR,NA,55.471698113207545
97701,Deschutes County,OR,NA,56.22641509433962
97914,Malheur County,OR,29.795918367346943,NA
15061,Beaver County,PA,NA,74.33962264150942
15101,Allegheny County,PA,NA,91.69811320754717
15106,Allegheny County,PA,61.63265306122449,NA
15108,Allegheny County,PA,42.857142857142854,NA
15132,Allegheny County,PA,17.959183673469386,NA
15227,Allegheny County,PA,41.224489795918366,NA
15237,Allegheny County,PA,NA,27.547169811320753
15241,Allegheny County,PA,74.6938775510204,NA
15401,Fayette County,PA,13.061224489795919,NA
15601,Westmoreland County,PA,NA,2.6415094339622645
15717,Indiana County,PA,NA,49.81132075471698
16301,Venango County,PA,52.244897959183675,NA
16335,Crawford County,PA,NA,11.320754716981133
16407,Erie County,PA,77.9591836734694,NA
16502,Erie County,PA,NA,85.28301886792453
16601,Blair County,PA,69.79591836734694,NA
16915,Potter County,PA,96.73469387755102,NA
17019,York County,PA,66.53061224489795,NA
17111,Dauphin County,PA,NA,9.433962264150944
17403,York County,PA,5.3061224489795915,NA
17404,York County,PA,17.551020408163264,NA
18102,Lehigh County,PA,1.6326530612244898,NA
18103,Lehigh County,PA,NA,8.679245283018867
18360,Monroe County,PA,NA,14.716981132075471
18444,Lackawanna County,PA,62.857142857142854,NA
18644,Luzerne County,PA,97.95918367346938,NA
18706,Luzerne County,PA,NA,39.62264150943396
18951,Bucks County,PA,26.122448979591837,NA
18964,Montgomery County,PA,73.46938775510205,NA
18977,Bucks County,PA,NA,90.56603773584906
19021,Bucks County,PA,NA,80.75471698113208
19031,Montgomery County,PA,NA,98.49056603773585
19073,Delaware County,PA,79.18367346938776,NA
19124,Philadelphia County,PA,2.0408163265306123,NA
19504,Berks County,PA,93.87755102040816,NA
19611,Berks County,PA,100,NA
02840,Newport County,RI,46.53061224489796,NA
02871,Newport County,RI,NA,75.84905660377359
29203,Richland County,SC,NA,26.037735849056602
29485,Dorchester County,SC,32.244897959183675,NA
29669,Anderson County,SC,NA,64.90566037735849
29681,Greenville County,SC,NA,18.11320754716981
29812,Barnwell County,SC,80.81632653061224,NA
29841,Aiken County,SC,NA,34.33962264150943
37067,Williamson County,TN,NA,73.9622641509434
37174,Williamson County,TN,51.83673469387755,NA
37312,Bradley County,TN,NA,55.094339622641506
37321,Rhea County,TN,35.51020408163265,NA
37766,Campbell County,TN,40.816326530612244,NA
37871,Jefferson County,TN,81.63265306122449,NA
37922,Knox County,TN,59.183673469387756,NA
75048,Dallas County,TX,NA,64.15094339622641
75056,Denton County,TX,37.142857142857146,NA
75063,Dallas County,TX,62.04081632653061,NA
75069,Collin County,TX,NA,38.113207547169814
75070,Collin County,TX,NA,12.452830188679245
75082,Collin County,TX,75.10204081632654,NA
75224,Dallas County,TX,49.38775510204081,NA
75230,Dallas County,TX,NA,80.37735849056604
75287,Denton County,TX,NA,56.60377358490566
75409,Collin County,TX,NA,87.9245283018868
75751,Henderson County,TX,49.795918367346935,NA
75766,Cherokee County,TX,NA,75.47169811320755
75831,Leon County,TX,NA,96.22641509433963
76009,Johnson County,TX,NA,68.30188679245282
76048,Hood County,TX,NA,36.9811320754717
76137,Tarrant County,TX,NA,23.77358490566038
76262,Denton County,TX,NA,76.60377358490567
77082,Harris County,TX,NA,43.39622641509434
77086,Harris County,TX,84.08163265306122,NA
77362,Montgomery County,TX,93.46938775510203,NA
77377,Harris County,TX,NA,60
77406,Fort Bend County,TX,NA,35.094339622641506
77407,Fort Bend County,TX,56.326530612244895,NA
77422,Brazoria County,TX,75.91836734693878,NA
77573,Galveston County,TX,NA,7.169811320754717
77836,Burleson County,TX,NA,56.60377358490566
77845,Brazos County,TX,15.510204081632653,NA
77868,Grimes County,TX,NA,49.43396226415094
77904,Victoria County,TX,42.44897959183673,NA
77905,Victoria County,TX,NA,66.0377358490566
77954,DeWitt County,TX,72.24489795918367,NA
77957,Jackson County,TX,86.93877551020408,NA
78130,Comal County,TX,NA,24.150943396226417
78201,Bexar County,TX,NA,23.39622641509434
78207,Bexar County,TX,NA,72.83018867924528
78253,Bexar County,TX,61.224489795918366,NA
78577,Hidalgo County,TX,34.285714285714285,NA
78633,Williamson County,TX,NA,2.2641509433962264
78645,Travis County,TX,83.6734693877551,NA
79703,Midland County,TX,63.26530612244898,NA
79714,Andrews County,TX,60,NA
84116,Salt Lake County,UT,34.69387755102041,NA
84119,Salt Lake County,UT,18.367346938775512,NA
05489,Chittenden County,VT,99.18367346938776,NA
20166,Loudoun County,VA,89.79591836734694,NA
22032,Fairfax County,VA,66.93877551020408,NA
22151,Fairfax County,VA,NA,86.79245283018868
23060,Henrico County,VA,NA,60.75471698113207
23224,Richmond city,VA,16.3265306122449,NA
23325,Chesapeake city,VA,NA,68.30188679245282
23434,Suffolk city,VA,22.448979591836736,NA
23464,Virginia Beach city,VA,NA,5.283018867924529
23704,Portsmouth city,VA,35.10204081632653,NA
24060,Montgomery County,VA,NA,94.33962264150944
98001,King County,WA,44.89795918367347,NA
98010,King County,WA,87.34693877551021,NA
98102,King County,WA,NA,70.94339622641509
98121,King County,WA,NA,70.18867924528301
98126,King County,WA,64.08163265306122,NA
98177,King County,WA,NA,63.77358490566037
98221,Skagit County,WA,NA,23.0188679245283
98230,Whatcom County,WA,NA,73.58490566037736
98277,Island County,WA,50.61224489795918,NA
98284,Skagit County,WA,NA,29.81132075471698
98311,Kitsap County,WA,NA,57.73584905660377
98367,Kitsap County,WA,NA,54.71698113207547
98387,Pierce County,WA,29.795918367346943,NA
98403,Pierce County,WA,93.06122448979592,NA
98409,Pierce County,WA,NA,96.60377358490567
98501,Thurston County,WA,NA,43.0188679245283
98580,Pierce County,WA,NA,98.86792452830188
98903,Yakima County,WA,NA,61.50943396226415
99016,Spokane County,WA,NA,84.90566037735849
99202,Spokane County,WA,65.3061224489796,NA
99336,Benton County,WA,NA,3.7735849056603774
99362,Walla Walla County,WA,NA,13.962264150943396
20011,District of Columbia,DC,NA,16.22641509433962
20024,District of Columbia,DC,62.44897959183674,NA
25213,Putnam County,WV,NA,92.45283018867924
25411,Morgan County,WV,NA,83.39622641509435
26301,Harrison County,WV,NA,12.830188679245284
26554,Marion County,WV,NA,3.018867924528302
53150,Waukesha County,WI,NA,45.28301886792453
53206,Milwaukee County,WI,14.69387755102041,NA
53212,Milwaukee County,WI,NA,17.735849056603772
53215,Milwaukee County,WI,8.979591836734693,NA
53548,Rock County,WI,NA,30.943396226415093
53575,Dane County,WI,95.91836734693877,NA
54016,St. Croix County,WI,NA,53.9622641509434
54703,Eau Claire County,WI,27.755102040816325,NA
54880,Douglas County,WI,19.591836734693878,NA
54901,Winnebago County,WI,NA,33.9622641509434
54937,Fond du Lac County,WI,47.755102040816325,NA
82435,Park County,WY,82.85714285714286,NA
