ZipCode,county,state,Adult,Retirement
35004,St. Clair County,AL,NA,73.96449704142012
35007,Shelby County,AL,NA,38.8560157790927
35016,Marshall County,AL,54.8051948051948,NA
35022,Jefferson County,AL,40.519480519480524,NA
35071,Jefferson County,AL,74.8051948051948,NA
35080,Shelby County,AL,NA,73.17554240631164
35111,Tuscaloosa County,AL,NA,67.0611439842209
35204,Jefferson County,AL,NA,65.87771203155819
35208,Jefferson County,AL,71.68831168831169,NA
35214,Jefferson County,AL,34.80519480519481,NA
35228,Jefferson County,AL,60.909090909090914,NA
35501,Walker County,AL,86.23376623376623,NA
35565,Winston County,AL,71.03896103896103,NA
35611,Limestone County,AL,76.36363636363637,NA
35763,Madison County,AL,78.57142857142857,NA
35901,Etowah County,AL,NA,37.8698224852071
35954,Etowah County,AL,NA,81.65680473372781
35957,Marshall County,AL,NA,82.64299802761342
36106,Montgomery County,AL,NA,91.3214990138067
36264,Cleburne County,AL,NA,85.20710059171599
36467,Covington County,AL,75.1948051948052,NA
36587,Mobile County,AL,79.6103896103896,NA
36701,Dallas County,AL,30.519480519480517,NA
36867,Russell County,AL,NA,43.58974358974359
36870,Lee County,AL,NA,70.41420118343196
99623,,AK,NA,87.17948717948718
85008,Maricopa County,AZ,NA,61.34122287968442
85015,Maricopa County,AZ,68.05194805194805,NA
85041,Maricopa County,AZ,NA,26.627218934911244
85120,Pinal County,AZ,44.41558441558441,NA
85203,Maricopa County,AZ,39.350649350649356,51.67652859960552
85301,Maricopa County,AZ,6.103896103896104,NA
85351,Maricopa County,AZ,73.50649350649351,NA
85364,Yuma County,AZ,5.0649350649350655,NA
85381,Maricopa County,AZ,NA,73.37278106508876
85622,Pima County,AZ,NA,64.69428007889546
85701,Pima County,AZ,84.8051948051948,NA
85705,Pima County,AZ,NA,7.6923076923076925
85711,Pima County,AZ,NA,15.779092702169626
85716,Pima County,AZ,NA,29.388560157790927
85719,Pima County,AZ,37.01298701298701,NA
85730,Pima County,AZ,59.87012987012987,NA
85741,Pima County,AZ,35.45454545454545,46.942800788954635
85742,Pima County,AZ,52.33766233766234,NA
86301,Yavapai County,AZ,66.1038961038961,NA
86326,Yavapai County,AZ,NA,24.65483234714004
71635,Ashley County,AR,NA,59.56607495069034
71854,Miller County,AR,NA,29.191321499013807
72118,Pulaski County,AR,NA,60.946745562130175
72364,Crittenden County,AR,86.75324675324674,NA
72543,Cleburne County,AR,64.54545454545455,NA
72560,Stone County,AR,78.31168831168831,NA
72601,Boone County,AR,56.753246753246756,NA
72704,Washington County,AR,NA,78.69822485207101
72758,Benton County,AR,NA,56.213017751479285
72956,Crawford County,AR,NA,30.96646942800789
90015,Los Angeles County,CA,NA,76.33136094674556
90018,Los Angeles County,CA,70.51948051948051,NA
90042,Los Angeles County,CA,55.1948051948052,NA
90044,Los Angeles County,CA,32.33766233766234,NA
90255,Los Angeles County,CA,32.5974025974026,NA
90503,Los Angeles County,CA,NA,45.562130177514796
90601,Los Angeles County,CA,56.62337662337662,NA
90605,Los Angeles County,CA,90.51948051948052,NA
90623,Orange County,CA,93.37662337662339,NA
90803,Los Angeles County,CA,77.79220779220779,NA
91214,Los Angeles County,CA,81.68831168831169,NA
91350,Los Angeles County,CA,63.24675324675325,NA
91401,Los Angeles County,CA,64.67532467532467,NA
91505,Los Angeles County,CA,98.05194805194806,NA
91604,Los Angeles County,CA,59.480519480519476,NA
91706,Los Angeles County,CA,29.22077922077922,NA
92040,San Diego County,CA,NA,28.205128205128204
92104,San Diego County,CA,30.649350649350648,NA
92106,San Diego County,CA,94.28571428571428,NA
92253,Riverside County,CA,47.27272727272727,NA
92283,Imperial County,CA,99.35064935064936,NA
92335,San Bernardino County,CA,12.597402597402596,NA
92346,San Bernardino County,CA,30.25974025974026,NA
92356,San Bernardino County,CA,98.18181818181819,NA
92374,San Bernardino County,CA,45.58441558441558,NA
92376,San Bernardino County,CA,65.32467532467533,NA
92394,San Bernardino County,CA,50,NA
92503,Riverside County,CA,80.64935064935065,NA
92504,Riverside County,CA,NA,54.437869822485204
92544,Riverside County,CA,NA,49.112426035502956
92545,Riverside County,CA,44.54545454545455,NA
92557,Riverside County,CA,39.09090909090909,NA
92591,Riverside County,CA,NA,57.59368836291914
92614,Orange County,CA,60.77922077922078,NA
92627,Orange County,CA,23.246753246753247,NA
92629,Orange County,CA,NA,42.01183431952663
92656,Orange County,CA,37.142857142857146,NA
92677,Orange County,CA,NA,10.848126232741617
92692,Orange County,CA,NA,25.64102564102564
92694,Orange County,CA,58.44155844155844,NA
92703,Orange County,CA,NA,80.4733727810651
92801,Orange County,CA,65.45454545454545,NA
92841,Orange County,CA,91.42857142857143,NA
93004,Ventura County,CA,57.92207792207792,NA
93012,Ventura County,CA,67.79220779220779,NA
93015,Ventura County,CA,NA,76.92307692307693
93033,Ventura County,CA,14.285714285714285,NA
93306,Kern County,CA,NA,40.23668639053255
93307,Kern County,CA,NA,19.32938856015779
93314,Kern County,CA,81.03896103896105,NA
93534,Los Angeles County,CA,NA,39.25049309664694
93535,Los Angeles County,CA,11.948051948051948,NA
93536,Los Angeles County,CA,45.714285714285715,NA
93550,Los Angeles County,CA,15.584415584415584,NA
93551,Los Angeles County,CA,56.36363636363636,NA
93631,Fresno County,CA,75.71428571428571,NA
93662,Fresno County,CA,58.18181818181818,NA
93705,Fresno County,CA,96.75324675324676,NA
93720,Fresno County,CA,NA,62.327416173570015
93722,Fresno County,CA,11.818181818181818,16.56804733727811
93908,Monterey County,CA,98.44155844155844,NA
93927,Monterey County,CA,77.27272727272727,NA
94014,San Mateo County,CA,84.54545454545455,NA
94403,San Mateo County,CA,NA,20.315581854043394
94509,Contra Costa County,CA,24.935064935064936,13.806706114398423
94513,Contra Costa County,CA,65.97402597402598,NA
94536,Alameda County,CA,80.51948051948052,NA
94541,Alameda County,CA,NA,21.301775147928996
94542,Alameda County,CA,89.6103896103896,NA
94547,Contra Costa County,CA,87.01298701298701,NA
94571,Solano County,CA,NA,61.93293885601578
94610,Alameda County,CA,84.93506493506493,NA
94703,Alameda County,CA,NA,90.92702169625247
94941,Marin County,CA,NA,43.19526627218935
95020,Santa Clara County,CA,NA,34.319526627218934
95035,Santa Clara County,CA,NA,49.30966469428008
95054,Santa Clara County,CA,NA,92.3076923076923
95062,Santa Cruz County,CA,75.45454545454545,NA
95138,Santa Clara County,CA,96.23376623376623,NA
95204,San Joaquin County,CA,90.12987012987013,NA
95206,San Joaquin County,CA,24.415584415584416,NA
95220,San Joaquin County,CA,93.8961038961039,NA
95240,San Joaquin County,CA,18.7012987012987,NA
95336,San Joaquin County,CA,NA,23.668639053254438
95356,Stanislaus County,CA,42.72727272727273,NA
95370,Tuolumne County,CA,NA,4.930966469428008
95376,San Joaquin County,CA,31.428571428571427,NA
95425,Sonoma County,CA,NA,83.4319526627219
95453,Lake County,CA,74.02597402597402,NA
95458,Lake County,CA,99.61038961038962,NA
95602,Placer County,CA,NA,50.4930966469428
95670,Sacramento County,CA,NA,80.6706114398422
95815,Sacramento County,CA,64.80519480519482,NA
95823,Sacramento County,CA,42.98701298701298,NA
95988,Glenn County,CA,NA,69.23076923076923
95993,Sutter County,CA,NA,41.42011834319527
96003,Shasta County,CA,NA,26.035502958579883
96101,Modoc County,CA,91.94805194805194,NA
80014,Arapahoe County,CO,NA,28.79684418145957
80118,Douglas County,CO,NA,93.68836291913215
80132,El Paso County,CO,NA,60.552268244575934
80219,Denver County,CO,6.623376623376623,NA
80220,Denver County,CO,NA,86.78500986193293
80223,Denver County,CO,62.5974025974026,NA
80439,Jefferson County,CO,82.07792207792208,NA
80501,Boulder County,CO,23.116883116883116,NA
80525,Larimer County,CO,18.051948051948052,NA
80526,Larimer County,CO,NA,36.29191321499014
80640,Adams County,CO,77.79220779220779,NA
81147,Archuleta County,CO,NA,59.36883629191322
81212,Fremont County,CO,73.11688311688312,NA
81226,Fremont County,CO,89.48051948051948,NA
06026,Hartford County,CT,NA,87.3767258382643
06071,Tolland County,CT,NA,86.3905325443787
06082,Hartford County,CT,NA,15.384615384615385
06106,Hartford County,CT,6.363636363636363,NA
06114,Hartford County,CT,20.12987012987013,NA
06451,New Haven County,CT,28.7012987012987,NA
06457,Middlesex County,CT,9.61038961038961,NA
06468,Fairfield County,CT,81.16883116883116,NA
06475,Middlesex County,CT,NA,59.171597633136095
06478,New Haven County,CT,NA,63.905325443786985
06480,Middlesex County,CT,72.85714285714285,NA
06516,New Haven County,CT,NA,4.536489151873767
06708,New Haven County,CT,NA,36.883629191321496
06786,Litchfield County,CT,NA,77.7120315581854
06810,Fairfield County,CT,18.441558441558442,NA
06830,Fairfield County,CT,62.98701298701299,NA
06902,Fairfield County,CT,23.766233766233764,NA
06903,Fairfield County,CT,85.06493506493507,NA
19702,New Castle County,DE,NA,20.710059171597635
19720,New Castle County,DE,3.766233766233766,NA
19807,New Castle County,DE,97.66233766233766,NA
19933,Sussex County,DE,NA,68.44181459566076
19973,Sussex County,DE,64.28571428571429,NA
32034,Nassau County,FL,52.98701298701298,NA
32080,St. Johns County,FL,72.07792207792207,NA
32112,Putnam County,FL,NA,85.00986193293886
32117,Volusia County,FL,36.883116883116884,NA
32129,Volusia County,FL,75.06493506493507,NA
32137,Flagler County,FL,NA,7.889546351084813
32218,Duval County,FL,NA,4.339250493096647
32219,Duval County,FL,NA,67.45562130177515
32225,Duval County,FL,NA,17.554240631163708
32244,Duval County,FL,7.2727272727272725,NA
32250,Duval County,FL,NA,34.51676528599605
32257,Duval County,FL,NA,60.15779092702169
32308,Leon County,FL,NA,64.29980276134121
32408,Bay County,FL,75.97402597402598,NA
32506,Escambia County,FL,46.493506493506494,NA
32605,Alachua County,FL,31.558441558441558,NA
32922,Brevard County,FL,50.38961038961038,NA
32934,Brevard County,FL,73.76623376623377,NA
32953,Brevard County,FL,NA,22.090729783037474
32976,Brevard County,FL,82.72727272727273,NA
33010,Miami-Dade County,FL,64.93506493506493,NA
33014,Miami-Dade County,FL,NA,69.8224852071006
33027,Broward County,FL,41.81818181818181,NA
33028,Broward County,FL,82.33766233766234,NA
33068,Broward County,FL,46.883116883116884,NA
33134,Miami-Dade County,FL,NA,80.07889546351085
33147,Miami-Dade County,FL,35.97402597402598,NA
33157,Miami-Dade County,FL,37.922077922077925,NA
33165,Miami-Dade County,FL,95.84415584415584,NA
33177,Miami-Dade County,FL,46.36363636363636,NA
33193,Miami-Dade County,FL,NA,55.62130177514793
33301,Broward County,FL,NA,68.04733727810651
33312,Broward County,FL,37.66233766233766,NA
33313,Broward County,FL,24.155844155844157,NA
33324,Broward County,FL,NA,48.32347140039448
33417,Palm Beach County,FL,NA,83.03747534516765
33436,Palm Beach County,FL,58.18181818181818,NA
33477,Palm Beach County,FL,NA,74.35897435897436
33484,Palm Beach County,FL,NA,33.13609467455622
33523,Pasco County,FL,NA,58.57988165680473
33525,Pasco County,FL,88.31168831168831,NA
33611,Hillsborough County,FL,96.36363636363636,NA
33624,Hillsborough County,FL,NA,46.74556213017752
33705,Pinellas County,FL,31.818181818181817,NA
33777,Pinellas County,FL,80,NA
33785,Pinellas County,FL,NA,97.63313609467455
33922,Lee County,FL,NA,75.54240631163708
33954,Charlotte County,FL,NA,86.98224852071006
34221,Manatee County,FL,NA,29.78303747534517
34234,Sarasota County,FL,42.33766233766234,NA
34428,Citrus County,FL,NA,81.06508875739645
34711,Lake County,FL,25.324675324675322,NA
34758,Osceola County,FL,25.454545454545453,NA
34953,St. Lucie County,FL,7.402597402597403,NA
30014,Newton County,GA,29.87012987012987,NA
30016,Newton County,GA,44.285714285714285,NA
30024,Gwinnett County,GA,NA,26.429980276134124
30030,DeKalb County,GA,47.79220779220779,NA
30043,Gwinnett County,GA,25.97402597402597,NA
30058,DeKalb County,GA,NA,31.163708086785007
30062,Cobb County,GA,45.45454545454545,NA
30097,Fulton County,GA,60.64935064935065,NA
30102,Cherokee County,GA,48.83116883116883,33.92504930966469
30115,Cherokee County,GA,71.81818181818181,NA
30126,Cobb County,GA,45.97402597402597,NA
30189,Cherokee County,GA,NA,49.70414201183432
30233,Butts County,GA,NA,51.4792899408284
30236,Clayton County,GA,34.285714285714285,NA
30240,Troup County,GA,NA,27.021696252465482
30311,Fulton County,GA,18.051948051948052,NA
30314,Fulton County,GA,NA,95.26627218934911
30350,Fulton County,GA,63.896103896103895,NA
30540,Gilmer County,GA,51.03896103896104,NA
30548,Jackson County,GA,NA,50.29585798816568
30577,Stephens County,GA,47.66233766233766,NA
30601,Clarke County,GA,68.96103896103895,NA
30701,Gordon County,GA,33.896103896103895,31.558185404339252
30707,Walker County,GA,NA,85.79881656804734
30813,Columbia County,GA,NA,40.63116370808679
30824,McDuffie County,GA,78.96103896103897,NA
30901,Richmond County,GA,NA,84.02366863905326
30906,Richmond County,GA,9.480519480519481,NA
30909,Richmond County,GA,NA,17.94871794871795
31008,Peach County,GA,90.64935064935065,NA
31028,Houston County,GA,NA,94.67455621301775
31031,Wilkinson County,GA,NA,97.43589743589743
31206,Bibb County,GA,33.506493506493506,NA
31516,Pierce County,GA,68.7012987012987,NA
31525,Glynn County,GA,53.246753246753244,NA
31539,Jeff Davis County,GA,68.44155844155844,NA
31558,Camden County,GA,67.92207792207792,NA
31601,Lowndes County,GA,29.35064935064935,NA
31602,Lowndes County,GA,70.3896103896104,NA
31774,Irwin County,GA,81.55844155844156,NA
31906,Muscogee County,GA,43.116883116883116,NA
31909,Muscogee County,GA,NA,29.980276134122285
96744,Honolulu County,HI,NA,2.9585798816568047
96782,Honolulu County,HI,39.09090909090909,NA
96789,Honolulu County,HI,25.064935064935064,NA
96819,Honolulu County,HI,19.22077922077922,NA
83338,Jerome County,ID,NA,26.82445759368836
83355,Gooding County,ID,NA,99.80276134122288
83616,Ada County,ID,50.649350649350644,NA
83617,Gem County,ID,89.0909090909091,NA
83634,Ada County,ID,73.24675324675324,48.12623274161736
83703,Ada County,ID,NA,28.402366863905325
83704,Ada County,ID,NA,3.7475345167652856
83705,Ada County,ID,NA,69.0335305719921
60010,Lake County,IL,40.909090909090914,NA
60048,Lake County,IL,NA,28.59960552268245
60062,Cook County,IL,41.16883116883117,NA
60142,McHenry County,IL,NA,11.834319526627219
60191,DuPage County,IL,67.14285714285714,NA
60193,Cook County,IL,NA,10.453648915187378
60202,Cook County,IL,NA,84.41814595660749
60426,Cook County,IL,NA,26.232741617357004
60432,Will County,IL,58.7012987012987,NA
60449,Will County,IL,NA,77.90927021696253
60475,Will County,IL,NA,81.85404339250493
60517,DuPage County,IL,41.55844155844156,NA
60564,Will County,IL,70.64935064935065,NA
60613,Cook County,IL,31.038961038961038,NA
60617,Cook County,IL,NA,2.1696252465483234
60619,Cook County,IL,8.051948051948052,NA
60620,Cook County,IL,62.33766233766234,NA
60622,Cook County,IL,70.12987012987013,NA
60624,Cook County,IL,18.571428571428573,NA
60629,Cook County,IL,7.792207792207792,5.9171597633136095
60639,Cook County,IL,NA,38.46153846153847
60642,Cook County,IL,95.71428571428572,NA
60647,Cook County,IL,NA,21.893491124260358
60655,Cook County,IL,32.20779220779221,NA
60714,Cook County,IL,76.23376623376623,NA
61071,Whiteside County,IL,29.09090909090909,NA
61548,Woodford County,IL,NA,88.16568047337277
61554,Tazewell County,IL,92.5974025974026,NA
61856,Piatt County,IL,NA,77.51479289940828
62040,Madison County,IL,54.54545454545454,NA
62095,Madison County,IL,82.98701298701299,NA
62205,St. Clair County,IL,NA,78.10650887573965
46033,Hamilton County,IN,NA,32.74161735700197
46062,Hamilton County,IN,60.259740259740255,NA
46168,Hendricks County,IN,41.688311688311686,NA
46201,Marion County,IN,21.16883116883117,NA
46203,Marion County,IN,11.688311688311687,NA
46214,Marion County,IN,90.9090909090909,NA
46217,Marion County,IN,NA,33.53057199211045
46240,Marion County,IN,NA,72.97830374753451
46250,Marion County,IN,79.22077922077922,NA
46307,Lake County,IN,NA,1.9723865877712032
46311,Lake County,IN,35.45454545454545,NA
46385,Porter County,IN,32.98701298701299,NA
46392,Jasper County,IN,67.53246753246754,NA
46405,Lake County,IN,73.63636363636363,NA
46406,Lake County,IN,63.37662337662338,NA
46507,Elkhart County,IN,87.14285714285714,NA
46637,St. Joseph County,IN,NA,76.72583826429981
46901,Howard County,IN,2.727272727272727,5.522682445759369
46902,Howard County,IN,62.077922077922075,5.325443786982249
46970,Miami County,IN,12.727272727272727,NA
47167,Washington County,IN,52.5974025974026,NA
47362,Henry County,IN,24.545454545454547,NA
47591,Knox County,IN,38.57142857142858,NA
47598,Pike County,IN,100,NA
50022,Cass County,IA,NA,92.89940828402366
50125,Warren County,IA,70,NA
50158,Marshall County,IA,29.61038961038961,NA
50613,Black Hawk County,IA,51.16883116883116,NA
50616,Floyd County,IA,86.36363636363636,NA
50801,Union County,IA,41.2987012987013,NA
51106,Woodbury County,IA,95.1948051948052,NA
51559,Pottawattamie County,IA,NA,100
52302,Linn County,IA,24.285714285714285,NA
52310,Jones County,IA,NA,89.15187376725838
52317,Johnson County,IA,NA,72.38658777120315
52403,Linn County,IA,75.58441558441558,NA
52404,Linn County,IA,36.62337662337662,NA
52544,Appanoose County,IA,44.8051948051948,NA
52601,Des Moines County,IA,61.038961038961034,NA
52632,Lee County,IA,41.81818181818181,NA
52732,Clinton County,IA,56.493506493506494,63.510848126232744
66046,Douglas County,KS,83.63636363636363,NA
66049,Douglas County,KS,58.83116883116883,NA
66064,Miami County,KS,89.35064935064935,NA
67037,Sedgwick County,KS,87.66233766233766,NA
67550,Pawnee County,KS,NA,85.4043392504931
67951,Stevens County,KS,NA,98.61932938856016
40004,Nelson County,KY,21.558441558441558,NA
40211,Jefferson County,KY,15.974025974025974,NA
40243,Jefferson County,KY,NA,79.6844181459566
40299,Jefferson County,KY,NA,24.2603550295858
40351,Rowan County,KY,NA,16.962524654832347
40390,Jessamine County,KY,94.93506493506494,NA
40503,Fayette County,KY,66.49350649350649,NA
40508,Fayette County,KY,NA,67.0611439842209
40741,Laurel County,KY,NA,41.81459566074951
41042,Boone County,KY,7.142857142857142,36.489151873767256
41101,Boyd County,KY,NA,21.104536489151872
41102,Boyd County,KY,55.58441558441558,NA
41169,Greenup County,KY,68.31168831168831,NA
41501,Pike County,KY,14.155844155844155,NA
42001,McCracken County,KY,32.467532467532465,NA
42066,Graves County,KY,26.1038961038961,NA
42103,Warren County,KY,63.116883116883116,NA
70001,Jefferson Parish,LA,NA,10.650887573964498
70043,St. Bernard Parish,LA,96.62337662337663,NA
70068,St. John the Baptist Parish,LA,NA,18.93491124260355
70126,Orleans Parish,LA,NA,57.001972386587774
70128,Orleans Parish,LA,19.870129870129873,NA
70452,St. Tammany Parish,LA,NA,35.700197238658774
70458,St. Tammany Parish,LA,NA,5.128205128205128
70461,St. Tammany Parish,LA,NA,21.499013806706113
70512,St. Landry Parish,LA,NA,89.74358974358975
70634,Beauregard Parish,LA,NA,39.8422090729783
70710,West Baton Rouge Parish,LA,92.07792207792208,NA
70714,East Baton Rouge Parish,LA,27.142857142857142,52.071005917159766
70737,Ascension Parish,LA,8.571428571428571,NA
70739,East Baton Rouge Parish,LA,77.53246753246754,NA
70769,Ascension Parish,LA,NA,39.447731755424066
70791,East Baton Rouge Parish,LA,NA,32.149901380670606
71106,Caddo Parish,LA,8.181818181818182,NA
71129,Caddo Parish,LA,40.77922077922078,NA
71282,Madison Parish,LA,52.07792207792208,NA
04021,Cumberland County,ME,NA,94.47731755424064
04073,York County,ME,27.79220779220779,NA
04090,York County,ME,62.727272727272734,NA
04210,Androscoggin County,ME,21.428571428571427,NA
04240,Androscoggin County,ME,2.857142857142857,NA
04253,Androscoggin County,ME,98.96103896103897,NA
04330,Kennebec County,ME,NA,56.01577909270217
04350,Kennebec County,ME,93.24675324675324,NA
04416,Hancock County,ME,85.19480519480518,NA
04742,Aroostook County,ME,NA,93.09664694280079
04901,Kennebec County,ME,6.753246753246753,4.142011834319527
04937,Somerset County,ME,83.11688311688312,NA
20639,Calvert County,MD,80.77922077922078,NA
20743,Prince George's County,MD,NA,68.83629191321499
20747,Prince George's County,MD,NA,60.74950690335306
20815,Montgomery County,MD,NA,74.55621301775149
20816,Montgomery County,MD,NA,91.12426035502959
20866,Montgomery County,MD,NA,96.25246548323472
21009,Harford County,MD,49.61038961038961,NA
21042,Howard County,MD,NA,57.59368836291914
21061,Anne Arundel County,MD,12.467532467532468,NA
21215,Baltimore city,MD,10,NA
21217,Baltimore city,MD,NA,19.723865877712033
21223,Baltimore city,MD,36.753246753246756,NA
21227,Baltimore County,MD,56.23376623376623,NA
21231,Baltimore city,MD,65.71428571428571,NA
21244,Baltimore County,MD,46.23376623376623,NA
21502,Allegany County,MD,27.27272727272727,NA
21601,Talbot County,MD,NA,44.18145956607495
21655,Caroline County,MD,NA,97.0414201183432
21702,Frederick County,MD,69.0909090909091,NA
21722,Washington County,MD,97.40259740259741,NA
21850,Wicomico County,MD,98.7012987012987,NA
01013,Hampden County,MA,NA,15.187376725838265
01040,Hampden County,MA,7.012987012987012,0.19723865877712032
01089,Hampden County,MA,5.454545454545454,31.755424063116372
01108,Hampden County,MA,28.57142857142857,NA
01109,Hampden County,MA,0.2597402597402597,NA
01201,Berkshire County,MA,0,0.39447731755424065
01225,Berkshire County,MA,NA,97.2386587771203
01453,Worcester County,MA,1.1688311688311688,NA
01473,Worcester County,MA,70.25974025974025,NA
01501,Worcester County,MA,NA,35.700197238658774
01510,Worcester County,MA,22.337662337662337,12.42603550295858
01545,Worcester County,MA,49.87012987012987,NA
01570,Worcester County,MA,5.584415584415584,NA
01588,Worcester County,MA,21.948051948051948,NA
01610,Worcester County,MA,0.5194805194805194,NA
01701,Middlesex County,MA,NA,7.495069033530571
01721,Middlesex County,MA,36.23376623376623,NA
01832,Essex County,MA,4.675324675324675,NA
01843,Essex County,MA,NA,18.54043392504931
01854,Middlesex County,MA,92.20779220779221,NA
01862,Middlesex County,MA,48.18181818181818,NA
01880,Middlesex County,MA,8.701298701298702,NA
01887,Middlesex County,MA,NA,2.7613412228796843
01890,Middlesex County,MA,99.74025974025975,NA
01905,Essex County,MA,1.5584415584415585,NA
01906,Essex County,MA,19.61038961038961,NA
01907,Essex County,MA,NA,36.09467455621302
01983,Essex County,MA,NA,95.85798816568047
02038,Norfolk County,MA,15.454545454545453,NA
02118,Suffolk County,MA,2.4675324675324677,NA
02119,Suffolk County,MA,0.12987012987012986,NA
02121,Suffolk County,MA,13.636363636363635,0.591715976331361
02126,Suffolk County,MA,5.714285714285714,NA
02136,Suffolk County,MA,95.58441558441558,NA
02151,Suffolk County,MA,7.532467532467532,0
02169,Norfolk County,MA,48.05194805194805,NA
02189,Norfolk County,MA,26.623376623376622,NA
02421,Middlesex County,MA,NA,70.61143984220908
02453,Middlesex County,MA,97.01298701298701,NA
02474,Middlesex County,MA,15.714285714285714,NA
02536,Barnstable County,MA,NA,14.792899408284024
02537,Barnstable County,MA,85.84415584415585,NA
02720,Bristol County,MA,NA,0.9861932938856016
02769,Bristol County,MA,48.57142857142857,NA
02777,Bristol County,MA,NA,67.85009861932939
48034,Oakland County,MI,NA,53.05719921104537
48038,Macomb County,MI,15.324675324675324,NA
48047,Macomb County,MI,NA,16.173570019723865
48060,St. Clair County,MI,4.1558441558441555,NA
48074,St. Clair County,MI,NA,88.56015779092702
48075,Oakland County,MI,34.15584415584416,33.72781065088758
48076,Oakland County,MI,34.41558441558442,28.007889546351084
48080,Macomb County,MI,38.44155844155844,NA
48089,Macomb County,MI,NA,25.04930966469428
48091,Macomb County,MI,NA,17.159763313609467
48092,Macomb County,MI,32.72727272727273,NA
48094,Macomb County,MI,52.467532467532465,50.4930966469428
48095,Macomb County,MI,NA,90.53254437869822
48097,St. Clair County,MI,88.7012987012987,NA
48101,Wayne County,MI,26.49350649350649,32.34714003944773
48103,Washtenaw County,MI,47.14285714285714,NA
48108,Washtenaw County,MI,39.61038961038961,NA
48111,Wayne County,MI,NA,92.50493096646942
48116,Livingston County,MI,31.2987012987013,NA
48127,Wayne County,MI,15.064935064935064,NA
48146,Wayne County,MI,10.38961038961039,NA
48150,Wayne County,MI,NA,57.396449704142015
48160,Washtenaw County,MI,NA,56.60749506903353
48166,Monroe County,MI,75.1948051948052,NA
48167,Oakland County,MI,72.98701298701299,NA
48170,Wayne County,MI,16.363636363636363,3.5502958579881656
48174,Wayne County,MI,8.831168831168831,NA
48184,Wayne County,MI,48.311688311688314,NA
48187,Wayne County,MI,12.857142857142856,2.564102564102564
48198,Washtenaw County,MI,NA,83.62919132149902
48201,Wayne County,MI,83.37662337662337,NA
48211,Wayne County,MI,NA,98.0276134122288
48212,Wayne County,MI,NA,14.201183431952662
48213,Wayne County,MI,13.766233766233766,NA
48214,Wayne County,MI,53.76623376623376,NA
48215,Wayne County,MI,NA,51.87376725838264
48218,Wayne County,MI,89.74025974025975,79.09270216962526
48226,Wayne County,MI,NA,93.49112426035504
48228,Wayne County,MI,1.6883116883116882,NA
48234,Wayne County,MI,NA,16.765285996055226
48235,Wayne County,MI,3.2467532467532463,3.155818540433925
48239,Wayne County,MI,NA,10.256410256410255
48317,Macomb County,MI,25.19480519480519,NA
48322,Oakland County,MI,44.54545454545455,8.481262327416173
48328,Oakland County,MI,39.87012987012987,NA
48371,Oakland County,MI,39.350649350649356,NA
48428,Lapeer County,MI,90,NA
48601,Saginaw County,MI,NA,3.9447731755424065
48808,Clinton County,MI,94.8051948051948,NA
48843,Livingston County,MI,14.805194805194805,NA
48892,Ingham County,MI,92.46753246753246,NA
48911,Ingham County,MI,8.441558441558442,NA
49015,Calhoun County,MI,49.09090909090909,NA
49120,Berrien County,MI,17.142857142857142,NA
49236,Lenawee County,MI,97.92207792207792,NA
49316,Kent County,MI,51.94805194805194,NA
49348,Allegan County,MI,35.1948051948052,NA
49412,Newaygo County,MI,64.15584415584415,NA
49428,Ottawa County,MI,53.896103896103895,NA
49444,Muskegon County,MI,38.311688311688314,NA
49505,Kent County,MI,26.75324675324675,NA
49548,Kent County,MI,32.857142857142854,NA
49631,Osceola County,MI,NA,66.07495069033531
49686,Grand Traverse County,MI,49.48051948051948,NA
49770,Emmet County,MI,61.168831168831176,NA
49946,Baraga County,MI,93.76623376623377,NA
55021,Rice County,MN,NA,40.433925049309664
55024,Dakota County,MN,51.688311688311686,NA
55117,Ramsey County,MN,18.961038961038962,39.64497041420118
55304,Anoka County,MN,42.077922077922075,44.57593688362919
55313,Wright County,MN,57.14285714285714,NA
55317,Carver County,MN,NA,86.3905325443787
55331,Hennepin County,MN,NA,72.58382642998028
55369,Hennepin County,MN,NA,46.15384615384615
55403,Hennepin County,MN,NA,37.47534516765286
55407,Hennepin County,MN,30.38961038961039,NA
55426,Hennepin County,MN,NA,71.7948717948718
55429,Hennepin County,MN,NA,40.828402366863905
55432,Anoka County,MN,26.233766233766232,NA
55447,Hennepin County,MN,76.1038961038961,NA
55709,Itasca County,MN,NA,97.83037475345168
55904,Olmsted County,MN,38.961038961038966,70.21696252465483
55987,Winona County,MN,10.519480519480519,3.353057199211045
56164,Pipestone County,MN,NA,98.42209072978304
56482,Wadena County,MN,50.25974025974026,NA
56572,Otter Tail County,MN,NA,66.46942800788955
56573,Otter Tail County,MN,62.20779220779221,NA
56621,Clearwater County,MN,81.81818181818183,NA
38703,Washington County,MS,71.16883116883118,NA
38751,Sunflower County,MS,82.85714285714286,NA
39042,Rankin County,MS,65.84415584415585,NA
39307,Lauderdale County,MS,NA,88.3629191321499
39328,Kemper County,MS,NA,96.64694280078896
39355,Clarke County,MS,NA,84.81262327416174
39426,Pearl River County,MS,NA,85.60157790927022
39466,Pearl River County,MS,59.74025974025974,NA
39501,Harrison County,MS,69.74025974025973,19.13214990138067
39503,Harrison County,MS,NA,60.946745562130175
39520,Hancock County,MS,33.116883116883116,NA
39574,Harrison County,MS,NA,55.818540433925044
63026,St. Louis County,MO,NA,13.41222879684418
63077,Franklin County,MO,71.94805194805195,NA
63104,St. Louis city,MO,82.5974025974026,NA
63112,St. Louis city,MO,NA,66.27218934911244
63116,St. Louis city,MO,66.36363636363637,NA
63122,St. Louis County,MO,NA,25.2465483234714
63131,St. Louis County,MO,89.87012987012987,NA
63137,St. Louis County,MO,NA,44.37869822485207
63303,St. Charles County,MO,26.36363636363636,NA
63366,St. Charles County,MO,14.675324675324674,NA
63935,Ripley County,MO,NA,63.31360946745562
64014,Jackson County,MO,23.636363636363637,NA
64020,Lafayette County,MO,90.38961038961038,NA
64024,Clay County,MO,21.038961038961038,NA
64029,Jackson County,MO,40.64935064935065,NA
64068,Clay County,MO,11.03896103896104,NA
64116,Clay County,MO,NA,42.60355029585799
64118,Clay County,MO,NA,8.284023668639055
64138,Jackson County,MO,40.25974025974026,NA
65203,Boone County,MO,27.92207792207792,NA
65270,Randolph County,MO,31.68831168831169,NA
65301,Pettis County,MO,NA,9.072978303747535
65548,Howell County,MO,NA,86.19329388560158
65613,Polk County,MO,NA,37.67258382642998
65746,Webster County,MO,97.53246753246754,98.81656804733728
65810,Greene County,MO,85.71428571428571,NA
59044,Yellowstone County,MT,NA,75.93688362919131
59068,Carbon County,MT,95.45454545454545,NA
59270,Richland County,MT,86.49350649350649,NA
68106,Douglas County,NE,78.18181818181819,NA
68111,Douglas County,NE,22.597402597402596,NA
68524,Lancaster County,NE,99.35064935064936,NA
69301,Box Butte County,NE,97.27272727272728,NA
89131,Clark County,NV,48.701298701298704,NA
89145,Clark County,NV,NA,75.14792899408283
89406,Churchill County,NV,42.72727272727273,NA
89441,Washoe County,NV,NA,71.20315581854044
89445,Humboldt County,NV,79.35064935064935,NA
89508,Washoe County,NV,69.74025974025973,NA
03054,Hillsborough County,NH,NA,19.526627218934912
03077,Rockingham County,NH,71.55844155844156,NA
03079,Rockingham County,NH,NA,19.92110453648915
03087,Rockingham County,NH,NA,55.22682445759369
03106,Merrimack County,NH,NA,49.90138067061144
03281,Hillsborough County,NH,NA,80.86785009861933
03582,Coos County,NH,NA,96.05522682445759
03766,Grafton County,NH,NA,66.66666666666666
03842,Rockingham County,NH,NA,31.952662721893493
07008,Middlesex County,NJ,NA,73.76725838264299
07013,Passaic County,NJ,73.37662337662337,NA
07026,Bergen County,NJ,NA,31.163708086785007
07036,Union County,NJ,12.077922077922079,NA
07052,Essex County,NJ,17.662337662337663,NA
07055,Passaic County,NJ,NA,24.45759368836292
07067,Middlesex County,NJ,76.49350649350649,NA
07105,Essex County,NJ,13.896103896103895,NA
07111,Essex County,NJ,1.0389610389610389,NA
07405,Morris County,NJ,NA,90.13806706114399
07410,Bergen County,NJ,NA,27.416173570019726
07503,Passaic County,NJ,97.79220779220779,NA
07645,Bergen County,NJ,NA,93.29388560157791
07702,Monmouth County,NJ,NA,99.40828402366864
07728,Monmouth County,NJ,NA,15.976331360946746
07746,Monmouth County,NJ,79.0909090909091,NA
07747,Monmouth County,NJ,36.103896103896105,NA
07928,Morris County,NJ,NA,91.51873767258382
08033,Camden County,NJ,NA,62.721893491124256
08054,Burlington County,NJ,NA,14.990138067061142
08108,Camden County,NJ,NA,81.26232741617358
08234,Atlantic County,NJ,NA,14.398422090729785
08360,Cumberland County,NJ,0.9090909090909091,NA
08807,Somerset County,NJ,NA,42.80078895463511
08879,Middlesex County,NJ,NA,53.25443786982249
87102,Bernalillo County,NM,24.805194805194805,NA
87112,Bernalillo County,NM,16.623376623376622,NA
87124,Sandoval County,NM,NA,9.861932938856016
88007,Doa Ana County,NM,NA,55.42406311637082
88011,Doa Ana County,NM,54.935064935064936,NA
88012,Doa Ana County,NM,37.27272727272727,NA
88203,Chaves County,NM,21.818181818181817,NA
88220,Eddy County,NM,NA,24.06311637080868
10002,New York County,NY,NA,22.682445759368836
10010,New York County,NY,NA,56.80473372781065
10016,New York County,NY,NA,50.09861932938856
10025,New York County,NY,7.662337662337662,45.956607495069036
10026,New York County,NY,28.44155844155844,NA
10029,New York County,NY,6.493506493506493,NA
10031,New York County,NY,35.45454545454545,NA
10032,New York County,NY,13.376623376623375,NA
10033,New York County,NY,NA,54.63510848126233
10038,New York County,NY,77.66233766233766,NA
10040,New York County,NY,NA,71.40039447731755
10452,Bronx County,NY,0.7792207792207793,NA
10453,Bronx County,NY,19.350649350649352,NA
10454,Bronx County,NY,NA,53.64891518737672
10455,Bronx County,NY,24.025974025974026,NA
10456,Bronx County,NY,35.1948051948052,NA
10457,Bronx County,NY,67.01298701298701,NA
10458,Bronx County,NY,42.467532467532465,NA
10459,Bronx County,NY,NA,71.7948717948718
10460,Bronx County,NY,2.3376623376623376,NA
10461,Bronx County,NY,14.025974025974024,NA
10462,Bronx County,NY,7.922077922077922,NA
10463,Bronx County,NY,33.63636363636363,NA
10467,Bronx County,NY,NA,20.907297830374755
10468,Bronx County,NY,1.4285714285714286,NA
10469,Bronx County,NY,4.415584415584416,NA
10472,Bronx County,NY,16.883116883116884,NA
10473,Bronx County,NY,NA,35.50295857988166
10475,Bronx County,NY,28.31168831168831,42.998027613412226
10512,Putnam County,NY,NA,66.86390532544378
10579,Putnam County,NY,NA,99.21104536489152
10703,Westchester County,NY,69.61038961038962,NA
10710,Westchester County,NY,NA,58.97435897435898
11105,Queens County,NY,NA,88.95463510848126
11106,Queens County,NY,53.37662337662338,NA
11214,Kings County,NY,48.44155844155844,NA
11219,Kings County,NY,15.844155844155845,NA
11225,Kings County,NY,26.88311688311688,NA
11231,Kings County,NY,43.246753246753244,NA
11233,Kings County,NY,1.948051948051948,NA
11234,Kings County,NY,22.07792207792208,NA
11413,Queens County,NY,78.70129870129871,NA
11432,Queens County,NY,NA,8.086785009861932
11435,Queens County,NY,NA,17.159763313609467
11436,Queens County,NY,69.22077922077922,NA
11520,Nassau County,NY,34.675324675324674,NA
11704,Suffolk County,NY,58.05194805194805,NA
11716,Suffolk County,NY,95.97402597402598,NA
11717,Suffolk County,NY,21.298701298701296,NA
11743,Suffolk County,NY,77.01298701298701,NA
11763,Suffolk County,NY,47.01298701298701,NA
11779,Suffolk County,NY,NA,87.96844181459566
11784,Suffolk County,NY,67.66233766233766,80.27613412228797
11790,Suffolk County,NY,93.5064935064935,NA
11961,Suffolk County,NY,NA,61.53846153846154
12572,Dutchess County,NY,NA,91.71597633136095
12590,Dutchess County,NY,55.32467532467532,NA
12701,Sullivan County,NY,76.75324675324676,NA
12866,Saratoga County,NY,16.493506493506494,NA
12986,Franklin County,NY,NA,74.7534516765286
13021,Cayuga County,NY,4.545454545454546,NA
13039,Onondaga County,NY,NA,63.70808678500987
13045,Cortland County,NY,NA,10.059171597633137
13069,Oswego County,NY,80.38961038961038,NA
13088,Onondaga County,NY,30.129870129870127,NA
13090,Onondaga County,NY,NA,30.57199211045365
13212,Onondaga County,NY,NA,58.38264299802761
13340,Herkimer County,NY,NA,68.63905325443787
13346,Madison County,NY,65.1948051948052,NA
13354,Oneida County,NY,96.4935064935065,NA
13421,Madison County,NY,27.66233766233766,NA
13440,Oneida County,NY,16.103896103896105,NA
13901,Broome County,NY,22.467532467532468,NA
13905,Broome County,NY,2.0779220779220777,NA
14006,Erie County,NY,NA,62.52465483234714
14051,Erie County,NY,74.15584415584415,NA
14068,Erie County,NY,91.16883116883116,NA
14072,Erie County,NY,43.63636363636363,NA
14075,Erie County,NY,10.649350649350648,NA
14086,Erie County,NY,22.207792207792206,NA
14094,Niagara County,NY,2.5974025974025974,NA
14103,Orleans County,NY,NA,76.52859960552269
14120,Niagara County,NY,NA,7.297830374753452
14127,Erie County,NY,47.4025974025974,NA
14204,Erie County,NY,NA,56.41025641025641
14209,Erie County,NY,68.7012987012987,NA
14215,Erie County,NY,2.207792207792208,NA
14220,Erie County,NY,16.233766233766232,27.218934911242602
14222,Erie County,NY,57.4025974025974,NA
14223,Erie County,NY,31.16883116883117,NA
14224,Erie County,NY,28.83116883116883,9.467455621301776
14424,Ontario County,NY,NA,1.183431952662722
14450,Monroe County,NY,3.6363636363636362,NA
14454,Livingston County,NY,NA,78.50098619329388
14550,Wyoming County,NY,92.98701298701299,NA
14586,Monroe County,NY,35.064935064935064,NA
14589,Wayne County,NY,81.94805194805195,NA
14609,Monroe County,NY,6.233766233766234,NA
14612,Monroe County,NY,2.987012987012987,NA
14621,Monroe County,NY,NA,40.03944773175542
14779,Cattaraugus County,NY,66.62337662337663,NA
14904,Chemung County,NY,NA,42.40631163708087
27006,Davie County,NC,61.42857142857143,NA
27052,Stokes County,NC,64.41558441558442,NA
27055,Yadkin County,NC,NA,47.14003944773176
27105,Forsyth County,NC,3.3766233766233764,NA
27127,Forsyth County,NC,NA,28.994082840236686
27284,Forsyth County,NC,NA,1.7751479289940828
27295,Davidson County,NC,NA,45.16765285996055
27401,Guilford County,NC,NA,70.80867850098619
27405,Guilford County,NC,13.506493506493506,NA
27455,Guilford County,NC,50.90909090909091,NA
27517,Orange County,NC,88.83116883116882,NA
27522,Granville County,NC,97.14285714285714,NA
27526,Wake County,NC,NA,23.668639053254438
27529,Wake County,NC,58.96103896103896,NA
27701,Durham County,NC,48.96103896103896,NA
27707,Durham County,NC,14.935064935064934,NA
27713,Durham County,NC,58.57142857142858,NA
27804,Nash County,NC,NA,38.26429980276134
27893,Wilson County,NC,17.532467532467532,NA
27909,Pasquotank County,NC,NA,13.214990138067062
27910,Hertford County,NC,41.42857142857143,NA
27983,Bertie County,NC,54.675324675324674,NA
28227,Mecklenburg County,NC,NA,18.14595660749507
28269,Mecklenburg County,NC,NA,29.585798816568047
28303,Cumberland County,NC,89.22077922077922,NA
28314,Cumberland County,NC,33.246753246753244,NA
28358,Robeson County,NC,19.090909090909093,NA
28391,Cumberland County,NC,NA,94.28007889546352
28425,Pender County,NC,66.23376623376623,NA
28472,Columbus County,NC,NA,45.36489151873767
28512,Carteret County,NC,NA,90.72978303747534
28562,Craven County,NC,NA,57.98816568047337
28572,Duplin County,NC,NA,89.3491124260355
28601,Catawba County,NC,16.753246753246753,NA
28625,Iredell County,NC,19.870129870129873,NA
28694,Ashe County,NC,NA,70.01972386587771
28779,Jackson County,NC,93.63636363636364,NA
28806,Buncombe County,NC,72.33766233766234,NA
58047,Cass County,ND,99.0909090909091,NA
58078,Cass County,ND,77.14285714285715,NA
43050,Knox County,OH,NA,27.613412228796847
43055,Licking County,OH,1.8181818181818181,1.5779092702169626
43085,Franklin County,OH,64.02597402597404,NA
43211,Franklin County,OH,13.246753246753245,NA
43222,Franklin County,OH,NA,91.91321499013807
43228,Franklin County,OH,4.805194805194805,NA
43232,Franklin County,OH,NA,16.370808678500985
43235,Franklin County,OH,NA,37.08086785009862
43331,Logan County,OH,92.85714285714286,NA
43512,Defiance County,OH,NA,6.11439842209073
43528,Lucas County,OH,41.03896103896104,NA
43604,Lucas County,OH,74.41558441558442,NA
43613,Lucas County,OH,4.935064935064935,NA
43713,Belmont County,OH,60.129870129870135,NA
43822,Muskingum County,OH,98.57142857142858,NA
43935,Belmont County,OH,NA,62.91913214990138
44004,Ashtabula County,OH,17.272727272727273,NA
44035,Lorain County,OH,0.38961038961038963,NA
44039,Lorain County,OH,NA,22.879684418145956
44053,Lorain County,OH,9.740259740259742,NA
44055,Lorain County,OH,11.168831168831169,54.043392504930964
44077,Lake County,OH,51.42857142857142,NA
44103,Cuyahoga County,OH,11.428571428571429,NA
44104,Cuyahoga County,OH,23.506493506493506,NA
44105,Cuyahoga County,OH,NA,0.7889546351084813
44109,Cuyahoga County,OH,5.844155844155844,NA
44110,Cuyahoga County,OH,12.207792207792208,NA
44113,Cuyahoga County,OH,52.72727272727272,71.59763313609467
44124,Cuyahoga County,OH,28.18181818181818,NA
44128,Cuyahoga County,OH,3.506493506493506,NA
44130,Cuyahoga County,OH,NA,1.3806706114398422
44131,Cuyahoga County,OH,NA,20.118343195266274
44146,Cuyahoga County,OH,30.909090909090907,36.68639053254438
44201,Portage County,OH,NA,79.28994082840237
44203,Summit County,OH,29.740259740259738,38.65877712031558
44221,Summit County,OH,NA,18.54043392504931
44240,Portage County,OH,NA,89.54635108481263
44256,Medina County,OH,5.194805194805195,NA
44260,Portage County,OH,68.05194805194805,NA
44266,Portage County,OH,11.558441558441558,NA
44278,Summit County,OH,59.61038961038961,NA
44310,Summit County,OH,12.987012987012985,NA
44319,Summit County,OH,NA,24.85207100591716
44320,Summit County,OH,19.480519480519483,NA
44406,Mahoning County,OH,57.27272727272727,NA
44515,Mahoning County,OH,NA,12.22879684418146
44663,Tuscarawas County,OH,44.02597402597402,NA
44691,Wayne County,OH,9.35064935064935,NA
44708,Stark County,OH,88.05194805194805,NA
44830,Seneca County,OH,20.51948051948052,NA
44870,Erie County,OH,NA,2.366863905325444
45014,Butler County,OH,17.272727272727273,NA
45015,Butler County,OH,81.2987012987013,NA
45036,Warren County,OH,54.41558441558442,NA
45069,Butler County,OH,25.58441558441558,NA
45106,Clermont County,OH,NA,64.49704142011834
45122,Clermont County,OH,91.03896103896105,NA
45133,Highland County,OH,22.987012987012985,NA
45171,Brown County,OH,NA,84.61538461538461
45177,Clinton County,OH,27.4025974025974,NA
45206,Hamilton County,OH,55.45454545454545,NA
45215,Hamilton County,OH,NA,38.06706114398422
45230,Hamilton County,OH,54.02597402597402,NA
45231,Hamilton County,OH,9.87012987012987,NA
45249,Hamilton County,OH,NA,83.82642998027613
45385,Greene County,OH,NA,9.270216962524655
45415,Montgomery County,OH,NA,59.76331360946746
45449,Montgomery County,OH,38.18181818181819,48.5207100591716
45459,Montgomery County,OH,NA,57.1992110453649
45601,Ross County,OH,0.6493506493506493,NA
45663,Scioto County,OH,50.77922077922078,NA
45701,Athens County,OH,NA,52.26824457593688
45714,Washington County,OH,50.51948051948052,NA
45760,Meigs County,OH,NA,99.60552268244575
45769,Meigs County,OH,62.46753246753247,NA
45895,Auglaize County,OH,33.37662337662338,NA
73018,Grady County,OK,47.53246753246753,NA
73078,Canadian County,OK,92.72727272727272,NA
73099,Canadian County,OK,NA,6.903353057199212
73401,Carter County,OK,45.19480519480519,NA
74012,Tulsa County,OK,NA,13.017751479289942
74037,Tulsa County,OK,79.48051948051949,NA
74136,Tulsa County,OK,57.532467532467535,NA
74743,Choctaw County,OK,85.32467532467533,NA
74873,Pottawatomie County,OK,NA,65.08875739644971
97005,Washington County,OR,49.22077922077922,NA
97007,Washington County,OR,36.493506493506494,NA
97038,Clackamas County,OR,66.88311688311688,NA
97124,Washington County,OR,30,NA
97213,Multnomah County,OR,NA,83.03747534516765
97214,Multnomah County,OR,74.54545454545455,NA
97221,Multnomah County,OR,NA,94.0828402366864
97236,Multnomah County,OR,53.5064935064935,NA
97301,Marion County,OR,NA,25.443786982248522
97302,Marion County,OR,NA,44.773175542406314
97383,Marion County,OR,79.6103896103896,NA
97471,Douglas County,OR,NA,6.70611439842209
97501,Jackson County,OR,10.909090909090908,NA
97801,Umatilla County,OR,NA,62.1301775147929
97818,Morrow County,OR,86.88311688311688,NA
97914,Malheur County,OR,NA,23.471400394477318
15001,Beaver County,PA,22.727272727272727,NA
15003,Beaver County,PA,88.18181818181819,NA
15017,Allegheny County,PA,87.92207792207792,NA
15061,Beaver County,PA,61.298701298701296,NA
15063,Washington County,PA,62.857142857142854,NA
15065,Allegheny County,PA,86.49350649350649,NA
15074,Beaver County,PA,63.50649350649351,NA
15666,Westmoreland County,PA,52.85714285714286,NA
15825,Jefferson County,PA,46.62337662337662,NA
15904,Cambria County,PA,NA,37.08086785009862
16201,Armstrong County,PA,NA,11.242603550295858
16335,Crawford County,PA,13.116883116883116,NA
16365,Warren County,PA,37.532467532467535,NA
16508,Erie County,PA,53.63636363636364,NA
16509,Erie County,PA,NA,35.30571992110454
16701,McKean County,PA,20.259740259740262,NA
16823,Centre County,PA,23.766233766233764,NA
17015,Cumberland County,PA,45.324675324675326,NA
17032,Dauphin County,PA,84.15584415584415,NA
17036,Dauphin County,PA,NA,44.773175542406314
17042,Lebanon County,PA,5.974025974025974,NA
17046,Lebanon County,PA,38.05194805194805,NA
17050,Cumberland County,PA,NA,41.02564102564102
17078,Lebanon County,PA,65.45454545454545,12.03155818540434
17102,Dauphin County,PA,98.83116883116884,NA
17110,Dauphin County,PA,17.792207792207794,NA
17112,Dauphin County,PA,NA,6.508875739644971
17113,Dauphin County,PA,NA,52.85996055226825
17268,Franklin County,PA,20.38961038961039,NA
17403,York County,PA,3.896103896103896,NA
17566,Lancaster County,PA,84.02597402597402,NA
17579,Lancaster County,PA,98.31168831168831,NA
17801,Northumberland County,PA,70.77922077922078,NA
17815,Columbia County,PA,NA,11.439842209072978
17820,Columbia County,PA,NA,82.05128205128204
17922,Schuylkill County,PA,NA,95.46351084812623
17963,Schuylkill County,PA,81.42857142857143,NA
18011,Lehigh County,PA,NA,99.0138067061144
18015,Northampton County,PA,10.649350649350648,NA
18020,Northampton County,PA,45.064935064935064,32.544378698224854
18040,Northampton County,PA,68.44155844155844,NA
18052,Lehigh County,PA,21.688311688311686,NA
18092,Lehigh County,PA,NA,98.22485207100591
18104,Lehigh County,PA,NA,5.719921104536489
18337,Pike County,PA,91.2987012987013,NA
18433,Lackawanna County,PA,NA,84.22090729783037
18466,Monroe County,PA,57.01298701298702,NA
18505,Lackawanna County,PA,44.15584415584416,NA
18508,Lackawanna County,PA,NA,93.88560157790927
18603,Columbia County,PA,45.84415584415584,NA
18612,Luzerne County,PA,NA,76.13412228796844
18634,Luzerne County,PA,NA,43.786982248520715
18702,Luzerne County,PA,9.220779220779221,NA
18974,Bucks County,PA,24.675324675324674,NA
19020,Bucks County,PA,10.129870129870131,NA
19026,Delaware County,PA,50.12987012987013,NA
19029,Delaware County,PA,93.11688311688312,NA
19040,Montgomery County,PA,NA,46.35108481262327
19063,Delaware County,PA,NA,12.82051282051282
19081,Delaware County,PA,88.57142857142857,NA
19120,Philadelphia County,PA,4.285714285714286,NA
19122,Philadelphia County,PA,NA,71.7948717948718
19124,Philadelphia County,PA,1.2987012987012987,NA
19134,Philadelphia County,PA,4.025974025974026,15.581854043392504
19139,Philadelphia County,PA,5.324675324675324,NA
19143,Philadelphia County,PA,34.54545454545455,NA
19145,Philadelphia County,PA,9.090909090909092,NA
19148,Philadelphia County,PA,10.25974025974026,NA
19153,Philadelphia County,PA,NA,47.337278106508876
19154,Philadelphia County,PA,18.31168831168831,NA
19382,Chester County,PA,46.75324675324675,NA
19428,Montgomery County,PA,NA,71.00591715976331
19460,Chester County,PA,27.01298701298701,NA
19464,Montgomery County,PA,6.883116883116883,NA
19526,Berks County,PA,70.9090909090909,NA
19601,Berks County,PA,20.909090909090907,NA
02825,Providence County,RI,94.54545454545455,NA
02864,Providence County,RI,29.48051948051948,NA
02871,Newport County,RI,61.948051948051955,NA
02886,Kent County,RI,NA,60.35502958579882
02895,Providence County,RI,14.415584415584416,NA
02905,Providence County,RI,42.59740259740259,NA
29020,Kershaw County,SC,NA,81.4595660749507
29161,Florence County,SC,72.46753246753246,NA
29229,Richland County,SC,NA,55.02958579881657
29341,Cherokee County,SC,NA,54.83234714003945
29360,Laurens County,SC,42.2077922077922,NA
29407,Charleston County,SC,NA,46.548323471400394
29445,Berkeley County,SC,28.05194805194805,NA
29461,Berkeley County,SC,NA,34.714003944773175
29483,Dorchester County,SC,19.74025974025974,NA
29530,Florence County,SC,99.87012987012987,NA
29579,Horry County,SC,NA,35.108481262327416
29581,Horry County,SC,94.41558441558442,NA
29642,Pickens County,SC,36.36363636363637,NA
29687,Greenville County,SC,33.76623376623377,NA
29697,Anderson County,SC,72.46753246753246,NA
29720,Lancaster County,SC,NA,30.37475345167653
29801,Aiken County,SC,83.76623376623377,NA
29841,Aiken County,SC,54.285714285714285,NA
29842,Aiken County,SC,NA,96.44970414201184
29847,Edgefield County,SC,87.40259740259741,NA
29906,Beaufort County,SC,NA,82.64299802761342
57105,Minnehaha County,SD,NA,12.6232741617357
57401,Brown County,SD,20.64935064935065,NA
57717,Butte County,SD,NA,77.12031558185404
57730,Custer County,SD,87.40259740259741,NA
37025,Hickman County,TN,NA,87.57396449704143
37042,Montgomery County,TN,27.4025974025974,NA
37043,Montgomery County,TN,NA,23.076923076923077
37091,Marshall County,TN,40.38961038961039,NA
37096,Perry County,TN,85.58441558441558,NA
37129,Rutherford County,TN,NA,32.938856015779095
37130,Rutherford County,TN,22.857142857142858,NA
37172,Robertson County,TN,17.92207792207792,NA
37210,Davidson County,TN,59.22077922077922,NA
37321,Rhea County,TN,32.077922077922075,NA
37334,Lincoln County,TN,38.83116883116883,NA
37343,Hamilton County,TN,25.71428571428571,NA
37421,Hamilton County,TN,NA,30.76923076923077
37663,Sullivan County,TN,69.48051948051948,NA
37664,Sullivan County,TN,NA,47.928994082840234
37690,Washington County,TN,NA,94.67455621301775
37920,Knox County,TN,NA,17.75147928994083
38109,Shelby County,TN,85.45454545454545,NA
75025,Collin County,TX,57.7922077922078,NA
75044,Dallas County,TX,55.97402597402598,NA
75067,Denton County,TX,34.935064935064936,NA
75068,Denton County,TX,34.02597402597402,NA
75087,Rockwall County,TX,43.37662337662337,NA
75140,Van Zandt County,TX,79.87012987012987,NA
75204,Dallas County,TX,NA,68.24457593688363
75206,Dallas County,TX,51.81818181818182,NA
75218,Dallas County,TX,76.49350649350649,NA
75228,Dallas County,TX,8.311688311688311,21.696252465483234
75230,Dallas County,TX,NA,47.53451676528599
75232,Dallas County,TX,NA,43.39250493096647
75241,Dallas County,TX,25.844155844155843,NA
75455,Titus County,TX,NA,48.717948717948715
75633,Panola County,TX,78.05194805194805,79.48717948717949
75703,Smith County,TX,63.63636363636363,NA
75862,Trinity County,TX,85.97402597402596,NA
76054,Tarrant County,TX,NA,73.57001972386587
76063,Tarrant County,TX,17.01298701298701,NA
76082,Parker County,TX,NA,75.7396449704142
76106,Tarrant County,TX,NA,22.287968441814595
76117,Tarrant County,TX,37.4025974025974,NA
76119,Tarrant County,TX,NA,8.678500986193294
76180,Tarrant County,TX,43.76623376623377,NA
76305,Wichita County,TX,NA,92.70216962524654
76367,Wichita County,TX,NA,82.24852071005917
76520,Milam County,TX,87.79220779220779,NA
76548,Bell County,TX,NA,18.34319526627219
76705,McLennan County,TX,NA,41.222879684418146
77021,Harris County,TX,67.27272727272727,NA
77064,Harris County,TX,NA,41.61735700197239
77066,Harris County,TX,67.4025974025974,NA
77083,Harris County,TX,74.28571428571429,NA
77085,Harris County,TX,94.67532467532467,NA
77090,Harris County,TX,31.948051948051948,NA
77091,Harris County,TX,NA,49.5069033530572
77095,Harris County,TX,NA,13.609467455621301
77327,Liberty County,TX,63.63636363636363,NA
77354,Montgomery County,TX,NA,45.75936883629191
77433,Harris County,TX,14.545454545454545,NA
77498,Fort Bend County,TX,55.84415584415584,NA
77539,Galveston County,TX,91.68831168831169,64.1025641025641
77550,Galveston County,TX,80.25974025974027,NA
77562,Harris County,TX,92.33766233766234,NA
77590,Galveston County,TX,61.68831168831169,NA
77706,Jefferson County,TX,49.61038961038961,NA
77803,Brazos County,TX,77.40259740259741,NA
77845,Brazos County,TX,NA,27.810650887573964
78006,Kendall County,TX,NA,58.18540433925049
78040,Webb County,TX,43.37662337662337,NA
78045,Webb County,TX,NA,34.714003944773175
78164,DeWitt County,TX,96.1038961038961,NA
78572,Hidalgo County,TX,51.55844155844156,NA
78573,Hidalgo County,TX,56.1038961038961,NA
78640,Hays County,TX,43.896103896103895,NA
78801,Uvalde County,TX,61.81818181818181,NA
79118,Randall County,TX,88.96103896103897,NA
79762,Ector County,TX,NA,42.209072978303745
79902,El Paso County,TX,84.4155844155844,NA
84025,Davis County,UT,91.55844155844156,NA
84115,Salt Lake County,UT,39.740259740259745,NA
84118,Salt Lake County,UT,20.77922077922078,NA
84404,Weber County,UT,NA,39.053254437869825
84501,Carbon County,UT,NA,78.89546351084813
84601,Utah County,UT,72.72727272727273,NA
84721,Iron County,UT,NA,65.48323471400394
05450,Franklin County,VT,94.15584415584416,NA
05452,Chittenden County,VT,59.350649350649356,NA
05468,Chittenden County,VT,66.62337662337663,NA
05478,Franklin County,VT,56.88311688311688,NA
05855,Orleans County,VT,99.22077922077922,NA
20105,Loudoun County,VA,NA,89.94082840236686
20151,Fairfax County,VA,87.27272727272727,NA
20152,Loudoun County,VA,78.70129870129871,NA
20187,Fauquier County,VA,80.9090909090909,NA
20191,Fairfax County,VA,NA,65.28599605522683
22042,Fairfax County,VA,NA,74.95069033530572
22101,Fairfax County,VA,NA,48.91518737672584
22191,Prince William County,VA,NA,33.33333333333333
22309,Fairfax County,VA,NA,52.46548323471401
22312,Fairfax County,VA,NA,64.89151873767258
22407,Spotsylvania County,VA,NA,20.51282051282051
22546,Caroline County,VA,73.76623376623377,NA
22551,Spotsylvania County,VA,60.51948051948052,NA
22556,Stafford County,VA,72.07792207792207,NA
22802,Harrisonburg city,VA,NA,50.887573964497044
22824,Shenandoah County,VA,84.67532467532467,NA
22939,Augusta County,VA,NA,74.16173570019724
22942,Louisa County,VA,NA,69.62524654832347
22963,Fluvanna County,VA,91.81818181818183,NA
22980,Waynesboro city,VA,11.298701298701298,NA
23111,Hanover County,VA,NA,51.08481262327417
23185,James City County,VA,NA,4.733727810650888
23188,James City County,VA,NA,65.68047337278107
23220,Richmond city,VA,NA,54.24063116370809
23435,Suffolk city,VA,49.35064935064935,NA
23452,Virginia Beach city,VA,NA,9.664694280078894
23487,Isle of Wight County,VA,90.25974025974025,NA
23509,Norfolk city,VA,NA,78.30374753451676
23523,Norfolk city,VA,NA,95.66074950690336
23663,Hampton city,VA,76.88311688311688,NA
23666,Hampton city,VA,39.87012987012987,NA
23669,Hampton city,VA,NA,14.595660749506903
23970,Mecklenburg County,VA,65.06493506493507,NA
24064,Botetourt County,VA,NA,95.06903353057199
24266,Russell County,VA,69.22077922077922,NA
24382,Wythe County,VA,47.92207792207792,NA
24401,Staunton city,VA,40.129870129870135,NA
24477,Augusta County,VA,60.259740259740255,NA
24503,Lynchburg city,VA,NA,61.735700197238664
24551,Bedford County,VA,NA,75.34516765285996
24614,Buchanan County,VA,NA,72.7810650887574
98005,King County,WA,NA,77.31755424063115
98022,King County,WA,60,NA
98024,King County,WA,NA,96.84418145956607
98026,Snohomish County,WA,NA,34.12228796844182
98027,King County,WA,NA,43.98422090729783
98028,King County,WA,74.93506493506493,NA
98201,Snohomish County,WA,NA,47.73175542406312
98335,Pierce County,WA,83.8961038961039,NA
98354,Pierce County,WA,90.77922077922078,NA
98374,Pierce County,WA,44.935064935064936,NA
98409,Pierce County,WA,57.66233766233766,NA
98499,Pierce County,WA,NA,52.662721893491124
98640,Pacific County,WA,NA,92.1104536489152
98902,Yakima County,WA,30.77922077922078,NA
98926,Kittitas County,WA,55.064935064935064,NA
98944,Yakima County,WA,59.09090909090909,NA
99006,Spokane County,WA,88.44155844155844,NA
99163,Whitman County,WA,75.84415584415585,NA
99201,Spokane County,WA,61.55844155844156,NA
99301,Franklin County,WA,NA,7.100591715976331
99320,Benton County,WA,84.28571428571429,NA
20001,District of Columbia,DC,23.376623376623375,NA
20015,District of Columbia,DC,NA,79.88165680473372
20016,District of Columbia,DC,74.67532467532467,NA
20019,District of Columbia,DC,NA,6.31163708086785
20020,District of Columbia,DC,3.116883116883117,NA
25304,Kanawha County,WV,NA,90.3353057199211
25306,Kanawha County,WV,71.29870129870129,NA
25309,Kanawha County,WV,NA,53.84615384615385
25314,Kanawha County,WV,55.714285714285715,NA
25413,Berkeley County,WV,82.20779220779221,NA
25601,Logan County,WV,94.02597402597402,85.99605522682445
25661,Mingo County,WV,86.1038961038961,NA
25801,Raleigh County,WV,15.194805194805195,NA
25901,Fayette County,WV,NA,51.28205128205128
26201,Upshur County,WV,82.46753246753246,NA
26301,Harrison County,WV,8.96103896103896,NA
26431,Harrison County,WV,83.24675324675324,NA
53039,Dodge County,WI,95.32467532467533,NA
53081,Sheboygan County,WI,NA,59.96055226824457
53104,Kenosha County,WI,78.44155844155844,69.42800788954635
53132,Milwaukee County,WI,NA,23.274161735700197
53142,Kenosha County,WI,NA,22.485207100591715
53147,Walworth County,WI,46.103896103896105,NA
53158,Kenosha County,WI,NA,30.17751479289941
53206,Milwaukee County,WI,12.337662337662337,11.045364891518737
53214,Milwaukee County,WI,NA,11.637080867850099
53220,Milwaukee County,WI,NA,25.83826429980276
53223,Milwaukee County,WI,18.83116883116883,NA
53224,Milwaukee County,WI,38.701298701298704,NA
53534,Rock County,WI,NA,53.4516765285996
53538,Jefferson County,WI,51.298701298701296,NA
53548,Rock County,WI,28.96103896103896,NA
53551,Jefferson County,WI,80.12987012987013,NA
53558,Dane County,WI,95.06493506493506,NA
53566,Green County,WI,52.2077922077922,NA
53713,Dane County,WI,54.15584415584416,58.777120315581854
53821,Crawford County,WI,96.88311688311688,NA
54001,Polk County,WI,52.98701298701298,NA
54115,Brown County,WI,NA,67.65285996055226
54303,Brown County,WI,NA,88.75739644970415
54311,Brown County,WI,NA,63.116370808678504
54650,La Crosse County,WI,NA,8.875739644970414
54724,Chippewa County,WI,NA,82.44575936883629
54729,Chippewa County,WI,35.84415584415584,NA
54915,Outagamie County,WI,37.79220779220779,NA
54935,Fond du Lac County,WI,NA,14.003944773175542
82435,Park County,WY,NA,87.77120315581854
82609,Natrona County,WY,83.50649350649351,NA
82801,Sheridan County,WY,71.42857142857143,NA
