ZipCode,county,state,Retirement
35016,Marshall County,AL,37.142857142857146
35747,Marshall County,AL,80
36272,Calhoun County,AL,70.28571428571428
85364,Yuma County,AZ,0.5714285714285714
85933,Navajo County,AZ,96
86046,Coconino County,AZ,86.28571428571429
72067,Cleburne County,AR,80.57142857142857
90046,Los Angeles County,CA,21.714285714285715
91914,San Diego County,CA,96.57142857142857
91932,San Diego County,CA,78.85714285714286
92067,San Diego County,CA,89.14285714285714
92262,Riverside County,CA,8.571428571428571
92276,Riverside County,CA,76
92647,Orange County,CA,18.857142857142858
92692,Orange County,CA,22.285714285714285
92804,Orange County,CA,16
93514,Inyo County,CA,64
93662,Fresno County,CA,62.857142857142854
94134,San Francisco County,CA,57.14285714285714
94501,Alameda County,CA,40
94506,Contra Costa County,CA,94.85714285714286
94556,Contra Costa County,CA,88.57142857142857
95687,Solano County,CA,20
95966,Butte County,CA,5.142857142857142
80116,Douglas County,CO,99.42857142857143
81003,Pueblo County,CO,75.42857142857143
06234,Windham County,CT,66.85714285714286
06825,Fairfield County,CT,77.14285714285715
19803,New Castle County,DE,43.42857142857143
32136,Flagler County,FL,68
32433,Walton County,FL,37.714285714285715
32506,Escambia County,FL,47.42857142857143
32940,Brevard County,FL,24
33040,Monroe County,FL,38.285714285714285
33180,Miami-Dade County,FL,41.14285714285714
33418,Palm Beach County,FL,25.71428571428571
33647,Hillsborough County,FL,40.57142857142857
33913,Lee County,FL,28.000000000000004
33931,Lee County,FL,59.42857142857143
34223,Sarasota County,FL,49.714285714285715
34291,Sarasota County,FL,94.28571428571428
34293,Sarasota County,FL,3.428571428571429
31021,Laurens County,GA,50.28571428571429
31030,Peach County,GA,68.57142857142857
96818,Honolulu County,HI,62.28571428571429
83835,Kootenai County,ID,66.28571428571428
60053,Cook County,IL,61.71428571428571
60115,DeKalb County,IL,27.42857142857143
60563,DuPage County,IL,34.285714285714285
60654,Cook County,IL,77.71428571428571
46113,Marion County,IN,87.42857142857143
46219,Marion County,IN,15.428571428571427
46342,Lake County,IN,10.857142857142858
46385,Porter County,IN,20.57142857142857
46804,Allen County,IN,23.42857142857143
47150,Floyd County,IN,4.571428571428571
52556,Jefferson County,IA,54.85714285714286
66109,Wyandotte County,KS,44
40744,Laurel County,KY,78.28571428571428
41071,Campbell County,KY,30.28571428571429
70070,St. Charles Parish,LA,83.42857142857143
70131,Orleans Parish,LA,85.71428571428571
70538,St. Mary Parish,LA,45.14285714285714
70601,Calcasieu Parish,LA,51.42857142857142
20817,Montgomery County,MD,72.57142857142857
21207,Baltimore County,MD,72
01230,Berkshire County,MA,85.14285714285714
01535,Worcester County,MA,98.28571428571429
01803,Middlesex County,MA,1.7142857142857144
01960,Essex County,MA,29.142857142857142
02135,Suffolk County,MA,6.857142857142858
02139,Middlesex County,MA,0
48026,Macomb County,MI,70.85714285714285
48042,Macomb County,MI,24.571428571428573
48045,Macomb County,MI,12.571428571428573
48047,Macomb County,MI,11.428571428571429
48173,Wayne County,MI,65.71428571428571
48473,Genesee County,MI,35.42857142857142
49093,St. Joseph County,MI,32
49203,Jackson County,MI,4
49329,Montcalm County,MI,58.285714285714285
49348,Allegan County,MI,42.857142857142854
49519,Kent County,MI,26.285714285714285
49546,Kent County,MI,28.57142857142857
55056,Chisago County,MN,97.71428571428571
55063,Pine County,MN,60.57142857142858
55124,Dakota County,MN,36
39157,Madison County,MS,93.14285714285714
39479,Covington County,MS,95.42857142857143
63021,St. Louis County,MO,8
63385,St. Charles County,MO,10.285714285714285
64131,Jackson County,MO,30.857142857142854
59801,Missoula County,MT,60
03110,Hillsborough County,NH,63.42857142857142
08244,Atlantic County,NJ,56.57142857142857
08550,Mercer County,NJ,84.57142857142857
11216,Kings County,NY,31.428571428571427
11230,Kings County,NY,6.2857142857142865
11766,Suffolk County,NY,69.71428571428572
11780,Suffolk County,NY,81.14285714285714
12065,Saratoga County,NY,14.285714285714285
12603,Dutchess County,NY,48
14467,Monroe County,NY,46.285714285714285
14610,Monroe County,NY,82.28571428571428
14738,Chautauqua County,NY,92.57142857142857
27215,Alamance County,NC,97.14285714285714
27514,Orange County,NC,26.285714285714285
28139,Rutherford County,NC,50.857142857142854
28304,Cumberland County,NC,38.857142857142854
28607,Watauga County,NC,32.57142857142858
28650,Catawba County,NC,73.71428571428571
28722,Polk County,NC,92
43223,Franklin County,OH,22.857142857142858
43512,Defiance County,OH,1.7142857142857144
43567,Fulton County,OH,67.42857142857143
43920,Columbiana County,OH,7.428571428571429
44515,Mahoning County,OH,9.142857142857142
44601,Stark County,OH,33.714285714285715
44663,Tuscarawas County,OH,13.714285714285715
73069,Cleveland County,OK,61.142857142857146
73122,Oklahoma County,OK,71.42857142857143
73160,Cleveland County,OK,2.857142857142857
97365,Lincoln County,OR,36.57142857142857
97624,Klamath County,OR,76.57142857142857
15012,Westmoreland County,PA,74.85714285714286
15206,Allegheny County,PA,18.285714285714285
15216,Allegheny County,PA,45.714285714285715
15436,Fayette County,PA,100
15906,Cambria County,PA,84
16415,Erie County,PA,88
16441,Erie County,PA,89.71428571428571
17202,Franklin County,PA,86.85714285714286
19040,Montgomery County,PA,38.857142857142854
19087,Chester County,PA,21.142857142857142
19312,Chester County,PA,91.42857142857143
19446,Montgomery County,PA,12
19551,Berks County,PA,93.71428571428572
02891,Washington County,RI,54.285714285714285
29483,Dorchester County,SC,16.57142857142857
29576,Horry County,SC,9.714285714285714
29649,Greenwood County,SC,49.142857142857146
29745,York County,SC,46.85714285714286
29909,Beaufort County,SC,13.142857142857142
29926,Beaufort County,SC,56.00000000000001
37409,Hamilton County,TN,98.85714285714286
37604,Washington County,TN,17.142857142857142
37874,Monroe County,TN,44.57142857142857
75214,Dallas County,TX,52
76028,Johnson County,TX,1.1428571428571428
76133,Tarrant County,TX,19.428571428571427
76208,Denton County,TX,42.285714285714285
76367,Wichita County,TX,79.42857142857143
76643,McLennan County,TX,53.142857142857146
76904,Tom Green County,TX,33.14285714285714
77058,Harris County,TX,74.28571428571429
77091,Harris County,TX,41.714285714285715
77433,Harris County,TX,48.57142857142857
77447,Harris County,TX,82.85714285714286
78541,Hidalgo County,TX,53.714285714285715
79331,Dawson County,TX,68.57142857142857
79605,Taylor County,TX,34.85714285714286
79706,Midland County,TX,58.857142857142854
79934,El Paso County,TX,90.85714285714286
84095,Salt Lake County,UT,25.142857142857146
22033,Fairfax County,VA,55.42857142857143
22701,Culpeper County,VA,14.857142857142858
23089,New Kent County,VA,89.71428571428571
23455,Virginia Beach city,VA,5.714285714285714
24641,Tazewell County,VA,65.14285714285715
98108,King County,WA,57.714285714285715
98239,Island County,WA,52.57142857142857
98335,Pierce County,WA,29.714285714285715
98671,Clark County,WA,73.14285714285714
98686,Clark County,WA,81.71428571428572
53142,Kenosha County,WI,17.71428571428571
82501,Fremont County,WY,64.57142857142857
