ZipCode,county,state,Youth,Adult,Retirement,Geriatric
35016,Marshall County,AL,NA,33.57487922705314,NA,NA
35055,Cullman County,AL,NA,35.829307568438004,NA,NA
35216,Jefferson County,AL,NA,34.78260869565217,NA,NA
35640,Morgan County,AL,41.612903225806456,NA,NA,NA
35953,St. Clair County,AL,NA,55.23349436392915,NA,NA
36109,Montgomery County,AL,NA,NA,99.46294307196563,NA
36278,Randolph County,AL,NA,NA,NA,86.04651162790698
36870,Lee County,AL,NA,NA,54.45757250268528,NA
99556,Kenai Peninsula Borough,AK,NA,99.8389694041868,NA,NA
99835,Sitka City and Borough,AK,NA,39.2109500805153,NA,NA
85016,Maricopa County,AZ,NA,26.247987117552334,NA,NA
85248,Maricopa County,AZ,NA,NA,NA,5.167958656330749
85281,Maricopa County,AZ,30.64516129032258,NA,NA,NA
85331,Maricopa County,AZ,NA,NA,37.379162191192265,NA
85364,Yuma County,AZ,NA,2.4154589371980677,NA,NA
85546,Graham County,AZ,NA,NA,49.30182599355531,NA
85552,Graham County,AZ,NA,89.85507246376811,NA,NA
85614,Pima County,AZ,NA,NA,13.533834586466165,NA
85622,Pima County,AZ,NA,NA,NA,44.96124031007752
85737,Pima County,AZ,NA,NA,34.26423200859291,NA
86005,Coconino County,AZ,NA,60.14492753623188,NA,NA
86303,Yavapai County,AZ,NA,42.51207729468599,NA,NA
86323,Yavapai County,AZ,NA,33.091787439613526,NA,NA
71730,Union County,AR,NA,56.68276972624798,NA,NA
71964,Garland County,AR,NA,96.1352657004831,NA,NA
72120,Pulaski County,AR,NA,54.589371980676326,NA,NA
72390,Phillips County,AR,NA,83.09178743961353,NA,NA
72529,Sharp County,AR,NA,NA,NA,69.50904392764858
90020,Los Angeles County,CA,NA,61.83574879227053,NA,NA
90026,Los Angeles County,CA,NA,28.5829307568438,NA,NA
90278,Los Angeles County,CA,NA,39.69404186795491,NA,NA
90404,Los Angeles County,CA,NA,NA,41.245972073039745,NA
90680,Orange County,CA,NA,NA,NA,57.622739018087856
91105,Los Angeles County,CA,NA,86.31239935587762,NA,NA
91352,Los Angeles County,CA,NA,54.911433172302736,NA,NA
91355,Los Angeles County,CA,NA,50.32206119162641,NA,NA
91361,Ventura County,CA,NA,87.76167471819646,NA,NA
91362,Ventura County,CA,NA,43.55877616747182,NA,NA
91390,Los Angeles County,CA,NA,67.23027375201288,NA,NA
91602,Los Angeles County,CA,NA,63.04347826086957,NA,NA
91702,Los Angeles County,CA,NA,19.96779388083736,NA,NA
91739,San Bernardino County,CA,NA,68.84057971014492,NA,NA
91766,Los Angeles County,CA,NA,24.476650563607087,32.76047261009667,NA
91767,Los Angeles County,CA,NA,24.396135265700483,NA,NA
92007,San Diego County,CA,NA,76.24798711755234,NA,NA
92008,San Diego County,CA,NA,NA,45.327604726100965,NA
92040,San Diego County,CA,33.225806451612904,29.629629629629626,NA,NA
92054,San Diego County,CA,NA,NA,70.99892588614392,NA
92081,San Diego County,CA,NA,49.8389694041868,NA,NA
92084,San Diego County,CA,NA,NA,46.40171858216971,NA
92105,San Diego County,CA,NA,10.144927536231885,NA,NA
92123,San Diego County,CA,NA,44.605475040257645,31.68635875402793,NA
92211,Riverside County,CA,NA,NA,27.604726100966705,NA
92240,Riverside County,CA,NA,13.526570048309178,NA,NA
92277,San Bernardino County,CA,NA,51.52979066022544,NA,NA
92354,San Bernardino County,CA,98.06451612903226,NA,NA,NA
92373,San Bernardino County,CA,NA,47.74557165861514,NA,NA
92532,Riverside County,CA,NA,48.389694041867955,NA,NA
92562,Riverside County,CA,NA,16.10305958132045,NA,NA
92614,Orange County,CA,NA,39.452495974235106,NA,NA
92618,Orange County,CA,NA,88.64734299516908,NA,NA
92648,Orange County,CA,NA,39.93558776167472,NA,NA
92649,Orange County,CA,NA,NA,47.90547798066595,NA
92692,Orange County,CA,NA,24.074074074074073,NA,NA
92881,Riverside County,CA,NA,54.508856682769725,NA,NA
93003,Ventura County,CA,NA,NA,39.95703544575725,NA
93010,Ventura County,CA,NA,44.44444444444444,NA,8.527131782945736
93065,Ventura County,CA,NA,64.73429951690821,NA,NA
93101,Santa Barbara County,CA,NA,NA,93.66272824919442,NA
93257,Tulare County,CA,9.67741935483871,7.648953301127214,NA,NA
93313,Kern County,CA,NA,33.17230273752013,NA,NA
93428,San Luis Obispo County,CA,NA,NA,80.23630504833513,NA
93555,Kern County,CA,NA,15.136876006441224,NA,NA
93562,San Bernardino County,CA,84.19354838709677,NA,NA,NA
93611,Fresno County,CA,NA,NA,NA,47.803617571059434
93711,Fresno County,CA,NA,45.491143317230275,NA,NA
93953,Monterey County,CA,100,NA,NA,NA
94063,San Mateo County,CA,NA,25.76489533011272,NA,NA
94115,San Francisco County,CA,NA,58.051529790660226,NA,NA
94116,San Francisco County,CA,NA,NA,25.241675617615467,NA
94131,San Francisco County,CA,NA,41.948470209339774,NA,NA
94526,Contra Costa County,CA,NA,81.15942028985508,NA,NA
94553,Contra Costa County,CA,NA,25.28180354267311,NA,NA
94558,Napa County,CA,NA,NA,5.048335123523094,NA
94565,Contra Costa County,CA,NA,NA,25.671321160042964,NA
94582,Contra Costa County,CA,NA,72.70531400966183,NA,NA
94599,Napa County,CA,NA,NA,NA,54.78036175710594
94608,Alameda County,CA,NA,62.56038647342995,NA,NA
94611,Alameda County,CA,NA,40.66022544283413,NA,NA
94707,Alameda County,CA,NA,NA,73.89903329752954,NA
94901,Marin County,CA,NA,35.507246376811594,NA,NA
94920,Marin County,CA,NA,NA,NA,68.9922480620155
94930,Marin County,CA,97.74193548387096,NA,NA,NA
94960,Marin County,CA,NA,78.66344605475041,NA,NA
95060,Santa Cruz County,CA,NA,NA,34.69387755102041,NA
95123,Santa Clara County,CA,NA,NA,18.689581095596132,NA
95134,Santa Clara County,CA,NA,58.77616747181964,NA,NA
95391,San Joaquin County,CA,92.90322580645162,NA,NA,NA
95401,Sonoma County,CA,NA,NA,35.12352309344791,NA
95404,Sonoma County,CA,NA,NA,NA,20.930232558139537
95428,Mendocino County,CA,NA,NA,99.67776584317937,NA
95437,Mendocino County,CA,NA,NA,83.02900107411385,NA
95470,Mendocino County,CA,NA,NA,84.31793770139635,NA
95472,Sonoma County,CA,NA,NA,42.21267454350161,NA
95476,Sonoma County,CA,NA,75.36231884057972,NA,NA
95482,Mendocino County,CA,86.45161290322581,47.90660225442834,NA,NA
95490,Mendocino County,CA,NA,55.716586151368766,NA,NA
95501,Humboldt County,CA,NA,NA,94.52201933404942,NA
95503,Humboldt County,CA,NA,NA,NA,73.90180878552972
95519,Humboldt County,CA,NA,53.5426731078905,NA,NA
95531,Del Norte County,CA,NA,NA,35.9828141783029,NA
95542,Humboldt County,CA,NA,NA,99.140708915145,NA
95682,El Dorado County,CA,NA,NA,NA,21.44702842377261
95713,Placer County,CA,98.38709677419355,NA,NA,NA
95742,Sacramento County,CA,NA,80.75684380032206,NA,NA
95746,Placer County,CA,NA,NA,56.82062298603652,NA
95815,Sacramento County,CA,NA,70.69243156199678,NA,NA
95829,Sacramento County,CA,91.93548387096774,NA,NA,NA
95835,Sacramento County,CA,NA,45.97423510466989,NA,NA
95901,Yuba County,CA,NA,NA,35.76799140708915,NA
95945,Nevada County,CA,NA,37.68115942028986,NA,NA
95946,Nevada County,CA,NA,NA,74.00644468313641,NA
95954,Butte County,CA,NA,NA,52.3093447905478,NA
95959,Nevada County,CA,NA,98.95330112721416,NA,NA
95969,Butte County,CA,NA,19.726247987117553,5.477980665950591,NA
95993,Sutter County,CA,NA,NA,28.57142857142857,NA
96093,Trinity County,CA,NA,NA,NA,62.532299741602074
96094,Siskiyou County,CA,NA,NA,50.69817400644469,NA
80026,Boulder County,CO,NA,NA,61.43931256713212,NA
80108,Douglas County,CO,NA,30.83735909822866,NA,NA
80112,Arapahoe County,CO,NA,NA,NA,74.67700258397933
80304,Boulder County,CO,86.7741935483871,NA,NA,NA
80435,Summit County,CO,NA,92.8341384863124,NA,NA
80524,Larimer County,CO,17.741935483870968,NA,NA,NA
80528,Larimer County,CO,NA,NA,54.994629430719655,NA
80538,Larimer County,CO,NA,NA,5.800214822771213,NA
80631,Weld County,CO,NA,NA,16.970998925886143,NA
80923,El Paso County,CO,NA,40.17713365539453,NA,NA
81230,Gunnison County,CO,NA,77.37520128824477,NA,NA
81526,Mesa County,CO,NA,90.66022544283415,NA,NA
81611,Pitkin County,CO,NA,91.94847020933977,NA,NA
06010,Hartford County,CT,NA,1.3687600644122384,NA,2.5839793281653747
06029,Tolland County,CT,NA,37.84219001610306,NA,44.70284237726098
06032,Hartford County,CT,NA,NA,84.9624060150376,NA
06037,Hartford County,CT,NA,53.3011272141707,NA,NA
06042,Hartford County,CT,NA,23.268921095008054,NA,NA
06043,Tolland County,CT,NA,NA,82.59935553168636,NA
06051,Hartford County,CT,NA,2.49597423510467,NA,NA
06053,Hartford County,CT,NA,NA,60.902255639097746,NA
06057,Litchfield County,CT,NA,71.90016103059581,NA,NA
06063,Litchfield County,CT,NA,96.29629629629629,NA,NA
06066,Tolland County,CT,NA,10.628019323671497,38.56068743286789,NA
06071,Tolland County,CT,NA,66.26409017713365,NA,NA
06074,Hartford County,CT,NA,NA,37.808807733619766,NA
06076,Tolland County,CT,NA,54.186795491143315,86.25134264232008,NA
06084,Tolland County,CT,24.193548387096776,86.79549114331722,48.22771213748657,NA
06098,Litchfield County,CT,NA,29.871175523349436,32.54564983888292,NA
06117,Hartford County,CT,NA,51.690821256038646,NA,29.71576227390181
06119,Hartford County,CT,65.80645161290323,NA,NA,NA
06234,Windham County,CT,55.80645161290323,NA,53.81310418904404,NA
06237,Tolland County,CT,NA,NA,84.64017185821697,97.9328165374677
06239,Windham County,CT,76.12903225806451,46.85990338164252,44.683136412459724,NA
06241,Windham County,CT,NA,68.43800322061192,69.0655209452202,NA
06249,New London County,CT,NA,NA,78.94736842105263,NA
06250,Tolland County,CT,NA,100,NA,NA
06255,Windham County,CT,NA,56.28019323671497,NA,NA
06260,Windham County,CT,30,NA,97.42212674543501,NA
06268,Tolland County,CT,NA,82.3671497584541,91.1922663802363,60.98191214470285
06277,Windham County,CT,56.12903225806451,65.86151368760065,71.5359828141783,NA
06278,Windham County,CT,98.70967741935483,92.6731078904992,98.60365198711062,NA
06280,Windham County,CT,NA,NA,99.03329752953813,NA
06281,Windham County,CT,NA,70.93397745571659,55.639097744360896,NA
06401,New Haven County,CT,NA,NA,NA,39.01808785529715
06405,New Haven County,CT,NA,52.49597423510467,18.796992481203006,NA
06410,New Haven County,CT,43.225806451612904,NA,NA,NA
06412,Middlesex County,CT,NA,97.42351046698873,NA,NA
06413,Middlesex County,CT,NA,NA,82.92158968850698,NA
06415,New London County,CT,NA,34.86312399355877,53.81310418904404,NA
06417,Middlesex County,CT,NA,NA,NA,82.42894056847545
06420,New London County,CT,NA,95.57165861513688,NA,NA
06423,Middlesex County,CT,NA,NA,NA,93.7984496124031
06426,Middlesex County,CT,NA,NA,NA,65.89147286821705
06437,New Haven County,CT,NA,NA,16.3265306122449,NA
06443,New Haven County,CT,NA,47.26247987117552,21.58968850698174,NA
06450,New Haven County,CT,NA,NA,8.807733619763695,NA
06451,New Haven County,CT,NA,38.32528180354267,NA,NA
06457,Middlesex County,CT,11.612903225806452,19.32367149758454,43.286788399570355,NA
06460,New Haven County,CT,NA,18.357487922705314,NA,NA
06468,Fairfield County,CT,NA,81.40096618357488,NA,NA
06470,Fairfield County,CT,NA,NA,NA,66.1498708010336
06473,New Haven County,CT,NA,NA,21.267454350161117,NA
06475,Middlesex County,CT,NA,NA,NA,69.76744186046511
06477,New Haven County,CT,NA,NA,NA,83.72093023255815
06478,New Haven County,CT,NA,NA,71.64339419978518,NA
06479,Hartford County,CT,NA,88.72785829307568,NA,NA
06480,Middlesex County,CT,NA,50.64412238325282,78.73254564983888,77.00258397932816
06482,Fairfield County,CT,NA,78.66344605475041,NA,79.06976744186046
06483,New Haven County,CT,62.25806451612903,42.7536231884058,NA,NA
06484,Fairfield County,CT,NA,NA,NA,14.728682170542637
06488,New Haven County,CT,NA,NA,26.100966702470462,NA
06489,Hartford County,CT,NA,NA,NA,7.751937984496124
06492,New Haven County,CT,NA,NA,8.700322234156822,4.651162790697675
06498,Middlesex County,CT,NA,75.52334943639292,65.95059076262085,NA
06511,New Haven County,CT,NA,NA,7.089151450053706,NA
06512,New Haven County,CT,NA,14.009661835748794,NA,NA
06513,New Haven County,CT,NA,2.737520128824477,NA,NA
06514,New Haven County,CT,25.806451612903224,NA,NA,NA
06519,New Haven County,CT,NA,53.4621578099839,NA,NA
06525,New Haven County,CT,89.6774193548387,NA,75.18796992481202,NA
06604,Fairfield County,CT,NA,11.916264090177133,NA,NA
06611,Fairfield County,CT,NA,NA,46.83136412459721,NA
06612,Fairfield County,CT,NA,NA,85.17722878625135,95.60723514211887
06615,Fairfield County,CT,NA,31.40096618357488,NA,NA
06708,New Haven County,CT,NA,NA,24.382384532760472,NA
06712,New Haven County,CT,NA,89.69404186795491,NA,67.44186046511628
06716,New Haven County,CT,NA,NA,81.63265306122449,NA
06762,New Haven County,CT,NA,NA,NA,99.2248062015504
06770,New Haven County,CT,NA,76.89210950080515,44.46831364124597,NA
06776,Litchfield County,CT,40.64516129032258,68.11594202898551,83.13641245972073,46.51162790697674
06779,Litchfield County,CT,NA,NA,89.68850698174006,63.04909560723514
06786,Litchfield County,CT,NA,NA,62.40601503759399,NA
06787,Litchfield County,CT,NA,60.46698872785829,NA,NA
06790,Litchfield County,CT,NA,16.183574879227052,NA,NA
06798,Litchfield County,CT,NA,NA,69.49516648764768,NA
06801,Fairfield County,CT,NA,82.76972624798712,NA,53.229974160206716
06804,Fairfield County,CT,NA,76.65056360708535,39.849624060150376,NA
06810,Fairfield County,CT,NA,43.15619967793881,NA,NA
06811,Fairfield County,CT,NA,55.63607085346216,NA,13.953488372093023
06812,Fairfield County,CT,NA,75.92592592592592,NA,NA
06820,Fairfield County,CT,83.87096774193549,NA,64.98388829215897,NA
06824,Fairfield County,CT,NA,NA,NA,46.253229974160206
06830,Fairfield County,CT,NA,NA,26.745435016111706,10.594315245478036
06831,Fairfield County,CT,NA,87.92270531400966,NA,52.71317829457365
06840,Fairfield County,CT,NA,59.58132045088567,59.07626208378088,NA
06850,Fairfield County,CT,NA,NA,NA,48.837209302325576
06851,Fairfield County,CT,NA,38.64734299516908,NA,NA
06855,Fairfield County,CT,NA,NA,NA,88.11369509043928
06870,Fairfield County,CT,NA,NA,89.36627282491945,NA
06877,Fairfield County,CT,79.35483870967742,59.82286634460547,NA,27.648578811369507
06878,Fairfield County,CT,NA,95.81320450885669,NA,NA
06880,Fairfield County,CT,NA,31.07890499194847,NA,NA
06883,Fairfield County,CT,NA,87.19806763285024,81.84747583243825,NA
06890,Fairfield County,CT,NA,NA,NA,96.89922480620154
06897,Fairfield County,CT,NA,57.2463768115942,NA,NA
06902,Fairfield County,CT,44.516129032258064,50.0805152979066,NA,3.875968992248062
06903,Fairfield County,CT,NA,NA,NA,51.42118863049095
19701,New Castle County,DE,NA,NA,11.815252416756177,NA
19703,New Castle County,DE,NA,NA,52.201933404940924,NA
19709,New Castle County,DE,NA,33.89694041867955,NA,NA
19711,New Castle County,DE,NA,NA,NA,16.5374677002584
19713,New Castle County,DE,15.161290322580644,19.484702093397747,NA,NA
19802,New Castle County,DE,13.870967741935484,NA,NA,NA
19804,New Castle County,DE,NA,17.55233494363929,NA,NA
19808,New Castle County,DE,NA,13.768115942028986,NA,NA
19930,Sussex County,DE,NA,NA,NA,87.08010335917312
19933,Sussex County,DE,NA,NA,51.127819548872175,NA
19950,Sussex County,DE,89.03225806451613,84.46054750402577,NA,NA
19952,Kent County,DE,NA,NA,41.78302900107411,NA
19953,Kent County,DE,NA,NA,86.46616541353383,NA
19958,Sussex County,DE,NA,NA,45.435016111707846,NA
19960,Sussex County,DE,46.774193548387096,NA,NA,94.83204134366925
19962,Kent County,DE,51.935483870967744,NA,NA,NA
19963,Sussex County,DE,NA,21.578099838969404,NA,NA
19970,Sussex County,DE,NA,NA,42.534908700322234,NA
19977,Kent County,DE,NA,14.090177133655393,NA,NA
32043,Clay County,FL,NA,27.214170692431562,NA,NA
32080,St. Johns County,FL,NA,50.32206119162641,NA,NA
32092,St. Johns County,FL,NA,32.769726247987116,NA,NA
32097,Nassau County,FL,NA,76.73107890499195,NA,NA
32162,Sumter County,FL,NA,NA,12.244897959183673,NA
32164,Flagler County,FL,NA,NA,10.633727175080558,11.627906976744185
32168,Volusia County,FL,NA,40.41867954911433,NA,NA
32209,Duval County,FL,NA,NA,10.096670247046188,NA
32226,Duval County,FL,NA,26.811594202898554,NA,NA
32312,Leon County,FL,NA,84.21900161030595,NA,NA
32404,Bay County,FL,NA,14.975845410628018,NA,NA
32405,Bay County,FL,NA,56.19967793880838,NA,NA
32407,Bay County,FL,NA,85.26570048309179,72.61009667024705,NA
32408,Bay County,FL,NA,53.945249597423505,NA,NA
32503,Escambia County,FL,NA,NA,NA,16.795865633074936
32563,Santa Rosa County,FL,NA,NA,15.467239527389903,NA
32583,Santa Rosa County,FL,NA,99.27536231884058,NA,NA
32720,Volusia County,FL,NA,38.56682769726248,NA,NA
32724,Volusia County,FL,97.09677419354838,NA,NA,NA
32725,Volusia County,FL,NA,NA,28.141783029001072,NA
32778,Lake County,FL,NA,83.97745571658615,NA,NA
32780,Brevard County,FL,43.87096774193549,NA,NA,NA
32801,Orange County,FL,NA,99.7584541062802,NA,NA
32904,Brevard County,FL,NA,86.87600644122384,NA,NA
32937,Brevard County,FL,NA,53.62318840579711,NA,NA
32952,Brevard County,FL,NA,62.64090177133655,NA,NA
32958,Indian River County,FL,NA,NA,NA,4.909560723514212
32963,Indian River County,FL,97.41935483870968,NA,NA,13.695090439276486
32967,Indian River County,FL,21.29032258064516,NA,62.191192266380234,NA
32976,Brevard County,FL,NA,NA,37.056928034371644,NA
33009,Broward County,FL,NA,NA,32.00859291084855,NA
33033,Miami-Dade County,FL,NA,53.22061191626409,NA,NA
33179,Miami-Dade County,FL,NA,39.61352657004831,NA,NA
33410,Palm Beach County,FL,NA,NA,NA,55.81395348837209
33411,Palm Beach County,FL,NA,NA,14.178302900107411,NA
33415,Palm Beach County,FL,58.70967741935483,NA,NA,NA
33418,Palm Beach County,FL,NA,NA,19.226638023630503,NA
33433,Palm Beach County,FL,NA,NA,NA,1.2919896640826873
33445,Palm Beach County,FL,NA,NA,48.5499462943072,NA
33446,Palm Beach County,FL,NA,NA,NA,3.359173126614987
33455,Martin County,FL,NA,NA,NA,10.852713178294573
33483,Palm Beach County,FL,NA,70.45088566827698,NA,NA
33486,Palm Beach County,FL,NA,NA,35.23093447905478,NA
33565,Hillsborough County,FL,NA,50.80515297906602,NA,NA
33573,Hillsborough County,FL,NA,NA,NA,2.3255813953488373
33578,Hillsborough County,FL,NA,21.73913043478261,NA,NA
33594,Hillsborough County,FL,50,NA,NA,NA
33602,Hillsborough County,FL,NA,94.92753623188406,NA,NA
33624,Hillsborough County,FL,NA,34.05797101449276,NA,NA
33626,Hillsborough County,FL,NA,NA,NA,69.25064599483204
33759,Pinellas County,FL,NA,NA,57.78732545649839,NA
33767,Pinellas County,FL,NA,86.31239935587762,NA,NA
33875,Highlands County,FL,NA,NA,NA,34.10852713178294
33901,Lee County,FL,NA,33.81642512077295,NA,NA
33909,Lee County,FL,NA,25.925925925925924,NA,NA
33950,Charlotte County,FL,NA,NA,63.48012889366272,NA
33953,Charlotte County,FL,99.03225806451613,NA,NA,NA
33974,Lee County,FL,NA,NA,80.98818474758325,NA
33993,Lee County,FL,NA,NA,38.02363050483351,NA
34102,Collier County,FL,NA,NA,68.42105263157895,NA
34103,Collier County,FL,NA,NA,49.73147153598281,NA
34109,Collier County,FL,NA,NA,NA,23.51421188630491
34110,Collier County,FL,NA,NA,62.72824919441461,NA
34119,Collier County,FL,NA,NA,NA,17.571059431524546
34120,Collier County,FL,NA,NA,30.612244897959183,NA
34135,Lee County,FL,NA,NA,10.41890440386681,NA
34203,Manatee County,FL,31.61290322580645,NA,NA,NA
34209,Manatee County,FL,NA,NA,NA,20.155038759689923
34211,Manatee County,FL,NA,84.29951690821255,81.95488721804512,NA
34228,Sarasota County,FL,NA,NA,77.0139634801289,NA
34232,Sarasota County,FL,NA,29.066022544283417,NA,NA
34236,Sarasota County,FL,NA,NA,50.37593984962406,NA
34275,Sarasota County,FL,NA,57.085346215780994,NA,NA
34293,Sarasota County,FL,NA,NA,5.155746509129968,NA
34431,Marion County,FL,NA,NA,70.24704618689582,NA
34453,Citrus County,FL,NA,NA,75.93984962406014,NA
34470,Marion County,FL,NA,31.72302737520129,NA,34.366925064599485
34471,Marion County,FL,NA,33.25281803542673,NA,NA
34481,Marion County,FL,NA,NA,45.11278195488722,11.886304909560723
34608,Hernando County,FL,NA,23.510466988727856,NA,NA
34609,Hernando County,FL,NA,43.07568438003221,NA,NA
34610,Pasco County,FL,NA,NA,50.912996777658435,NA
34639,Pasco County,FL,NA,NA,39.95703544575725,NA
34668,Pasco County,FL,NA,67.3913043478261,NA,NA
34684,Pinellas County,FL,NA,50.1610305958132,NA,NA
34688,Pinellas County,FL,95.16129032258065,NA,NA,NA
34787,Orange County,FL,NA,15.539452495974235,NA,NA
34986,St. Lucie County,FL,NA,NA,NA,31.266149870801037
34987,St. Lucie County,FL,NA,NA,NA,63.30749354005169
34990,Martin County,FL,NA,NA,NA,22.739018087855296
30019,Gwinnett County,GA,14.193548387096774,NA,28.4640171858217,NA
30040,Forsyth County,GA,NA,NA,13.319011815252416,NA
30045,Gwinnett County,GA,NA,38.00322061191627,NA,NA
30052,Walton County,GA,NA,45.893719806763286,NA,NA
30058,DeKalb County,GA,NA,NA,NA,44.18604651162791
30075,Fulton County,GA,NA,49.275362318840585,NA,NA
30094,Rockdale County,GA,NA,NA,20.730397422126746,NA
30120,Bartow County,GA,32.58064516129032,NA,NA,NA
30132,Paulding County,GA,NA,44.04186795491143,NA,NA
30165,Floyd County,GA,23.870967741935484,15.458937198067632,NA,NA
30240,Troup County,GA,NA,15.861513687600645,NA,NA
30263,Coweta County,GA,NA,6.199677938808374,NA,NA
30268,Fulton County,GA,NA,NA,56.605800214822764,NA
30269,Fayette County,GA,NA,48.953301127214175,NA,NA
30276,Coweta County,GA,NA,83.73590982286635,NA,NA
30415,Bulloch County,GA,NA,67.7938808373591,NA,NA
30642,Greene County,GA,NA,NA,NA,60.72351421188631
30707,Walker County,GA,41.29032258064516,NA,NA,NA
31093,Houston County,GA,NA,NA,22.341568206229862,NA
31217,Bibb County,GA,NA,40.82125603864734,NA,NA
31401,Chatham County,GA,NA,NA,59.828141783029,NA
31411,Chatham County,GA,NA,NA,58.002148227712134,NA
31523,Glynn County,GA,NA,NA,77.98066595059076,NA
31602,Lowndes County,GA,NA,22.705314009661837,NA,NA
31632,Lowndes County,GA,NA,64.00966183574879,NA,NA
96734,Honolulu County,HI,NA,73.67149758454107,NA,NA
96815,Honolulu County,HI,NA,NA,NA,46.770025839793284
96822,Honolulu County,HI,NA,50.80515297906602,NA,NA
83301,Twin Falls County,ID,2.5806451612903225,NA,NA,NA
83442,Jefferson County,ID,33.87096774193548,NA,NA,NA
83642,Ada County,ID,NA,NA,25.349087003222344,NA
83704,Ada County,ID,NA,NA,NA,2.0671834625323
83815,Kootenai County,ID,NA,22.06119162640902,NA,NA
60005,Cook County,IL,NA,64.25120772946859,NA,NA
60010,Lake County,IL,NA,NA,NA,15.762273901808785
60013,McHenry County,IL,NA,37.35909822866345,NA,NA
60014,McHenry County,IL,26.129032258064516,NA,NA,NA
60016,Cook County,IL,NA,NA,7.626208378088077,NA
60051,McHenry County,IL,NA,NA,17.508055853920514,NA
60062,Cook County,IL,NA,NA,3.544575725026853,NA
60097,McHenry County,IL,NA,85.02415458937197,NA,NA
60099,Lake County,IL,NA,NA,NA,56.07235142118863
60112,DeKalb County,IL,NA,93.63929146537842,NA,NA
60123,Kane County,IL,NA,13.285024154589372,NA,NA
60124,Kane County,IL,NA,41.86795491143317,NA,NA
60137,DuPage County,IL,NA,21.497584541062803,NA,NA
60142,McHenry County,IL,NA,25.523349436392916,NA,NA
60154,Cook County,IL,NA,NA,17.185821697099893,NA
60175,Kane County,IL,NA,39.69404186795491,NA,NA
60189,DuPage County,IL,NA,NA,14.930182599355533,NA
60201,Cook County,IL,NA,NA,NA,27.39018087855297
60302,Cook County,IL,NA,NA,10.204081632653061,14.470284237726098
60431,Will County,IL,46.12903225806452,24.55716586151369,NA,NA
60449,Will County,IL,NA,66.74718196457327,NA,NA
60451,Will County,IL,NA,12.157809983896941,NA,NA
60462,Cook County,IL,NA,NA,3.6519871106337276,NA
60504,DuPage County,IL,NA,72.46376811594203,NA,NA
60534,Cook County,IL,NA,NA,67.23952738990333,NA
60540,DuPage County,IL,NA,18.19645732689211,NA,NA
60555,DuPage County,IL,NA,74.23510466988728,NA,NA
60565,DuPage County,IL,NA,19.565217391304348,NA,NA
60614,Cook County,IL,NA,13.607085346215781,NA,NA
60622,Cook County,IL,27.09677419354839,NA,NA,NA
60631,Cook County,IL,NA,19.887278582930755,NA,NA
60644,Cook County,IL,NA,5.314009661835748,NA,NA
60914,Kankakee County,IL,NA,NA,NA,23.25581395348837
60964,Kankakee County,IL,NA,NA,67.7765843179377,NA
61021,Lee County,IL,NA,20.28985507246377,NA,NA
61065,Boone County,IL,NA,49.67793880837359,NA,NA
61085,Jo Daviess County,IL,NA,NA,98.06659505907626,NA
61401,Knox County,IL,NA,NA,NA,17.829457364341085
61462,Warren County,IL,NA,NA,65.73576799140709,NA
61520,Fulton County,IL,28.387096774193548,NA,NA,NA
61745,McLean County,IL,NA,96.37681159420289,NA,NA
61764,Livingston County,IL,NA,NA,60.04296455424275,NA
61856,Piatt County,IL,NA,91.70692431561996,NA,NA
62002,Madison County,IL,NA,19.162640901771336,NA,NA
62294,Madison County,IL,NA,79.46859903381642,NA,NA
62549,Macon County,IL,NA,87.76167471819646,NA,NA
46040,Hancock County,IN,NA,NA,NA,88.37209302325581
46260,Marion County,IN,NA,NA,61.00966702470462,NA
46268,Marion County,IN,NA,NA,59.93555316863588,NA
46307,Lake County,IN,0.3225806451612903,NA,NA,NA
46321,Lake County,IN,17.741935483870968,NA,NA,NA
46341,Porter County,IN,NA,41.626409017713364,NA,NA
46368,Porter County,IN,NA,NA,23.737916219119228,NA
46383,Porter County,IN,NA,19.806763285024154,35.87540279269603,NA
46507,Elkhart County,IN,NA,72.22222222222221,NA,NA
46725,Whitley County,IN,NA,41.46537842190016,NA,NA
46814,Allen County,IN,NA,NA,53.06122448979592,NA
46818,Allen County,IN,NA,51.368760064412236,NA,NA
46825,Allen County,IN,NA,48.87278582930757,NA,NA
46835,Allen County,IN,NA,NA,7.196562835660581,NA
46947,Cass County,IN,NA,7.1658615136876005,NA,NA
46996,Pulaski County,IN,NA,59.17874396135265,NA,NA
47043,Switzerland County,IN,NA,NA,NA,99.48320413436691
47060,Dearborn County,IN,NA,98.30917874396135,NA,NA
47126,Clark County,IN,NA,94.52495974235104,NA,NA
47201,Bartholomew County,IN,NA,6.924315619967794,NA,NA
47441,Greene County,IN,NA,48.631239935587764,NA,NA
47601,Warrick County,IN,NA,90.25764895330113,NA,NA
47714,Vanderburgh County,IN,NA,NA,12.459720730397422,NA
47802,Vigo County,IN,NA,14.573268921095009,NA,NA
47933,Montgomery County,IN,NA,NA,59.61331901181526,NA
50022,Cass County,IA,NA,70.69243156199678,NA,NA
50036,Boone County,IA,NA,91.62640901771336,NA,NA
52245,Johnson County,IA,NA,62.07729468599034,55.961331901181524,42.63565891472868
52556,Jefferson County,IA,NA,58.212560386473434,NA,NA
52625,Lee County,IA,NA,NA,96.2406015037594,NA
52732,Clinton County,IA,NA,NA,18.474758324382385,NA
66203,Johnson County,KS,NA,NA,51.34264232008593,NA
66204,Johnson County,KS,NA,52.33494363929147,NA,NA
66215,Johnson County,KS,NA,NA,29.860365198711065,NA
66614,Shawnee County,KS,NA,21.658615136876005,NA,NA
66762,Crawford County,KS,NA,44.68599033816425,NA,NA
66801,Lyon County,KS,NA,79.71014492753623,NA,NA
66901,Cloud County,KS,NA,75.0402576489533,NA,NA
67460,McPherson County,KS,NA,60.95008051529791,NA,NA
67701,Thomas County,KS,NA,56.28019323671497,NA,NA
40118,Jefferson County,KY,NA,NA,46.616541353383454,NA
40211,Jefferson County,KY,NA,NA,26.852846401718583,NA
40218,Jefferson County,KY,NA,7.890499194847021,NA,NA
40229,Jefferson County,KY,NA,7.085346215780998,NA,NA
41168,Boyd County,KY,NA,87.60064412238326,NA,NA
41179,Lewis County,KY,NA,39.85507246376812,NA,NA
42101,Warren County,KY,NA,4.750402576489534,NA,NA
42276,Logan County,KY,NA,NA,41.890440386680986,NA
42301,Daviess County,KY,NA,NA,6.7669172932330826,NA
42345,Muhlenberg County,KY,NA,35.34621578099839,NA,NA
42420,Henderson County,KY,68.06451612903226,NA,NA,NA
42445,Caldwell County,KY,NA,47.82608695652174,NA,NA
42728,Adair County,KY,NA,33.65539452495974,NA,NA
42754,Grayson County,KY,NA,16.988727858293075,NA,NA
70056,Jefferson Parish,LA,NA,3.3011272141706924,NA,NA
70070,St. Charles Parish,LA,NA,67.5523349436393,NA,NA
70394,Lafourche Parish,LA,NA,NA,21.052631578947366,NA
70433,St. Tammany Parish,LA,NA,17.954911433172303,NA,NA
70452,St. Tammany Parish,LA,NA,NA,NA,49.09560723514212
70471,St. Tammany Parish,LA,NA,NA,NA,14.987080103359174
70503,Lafayette Parish,LA,NA,23.027375201288244,NA,NA
70563,Iberia Parish,LA,NA,22.463768115942027,NA,NA
70706,Livingston Parish,LA,NA,20.611916264090176,NA,NA
70775,West Feliciana Parish,LA,NA,48.228663446054746,NA,NA
70820,East Baton Rouge Parish,LA,NA,NA,99.67776584317937,NA
71019,Red River Parish,LA,NA,39.53301127214171,NA,NA
71105,Caddo Parish,LA,NA,23.67149758454106,NA,NA
71282,Madison Parish,LA,NA,NA,85.39205155746508,NA
71457,Natchitoches Parish,LA,NA,30.03220611916264,NA,NA
71467,Grant Parish,LA,NA,85.426731078905,NA,NA
03903,York County,ME,NA,66.26409017713365,58.968850698174,NA
03904,York County,ME,NA,98.14814814814815,NA,NA
03908,York County,ME,NA,61.75523349436393,NA,NA
03909,York County,ME,NA,34.70209339774557,37.808807733619766,NA
04002,York County,ME,NA,56.11916264090178,33.297529538131045,88.88888888888889
04005,York County,ME,NA,9.178743961352657,NA,NA
04009,Cumberland County,ME,NA,52.33494363929147,NA,NA
04011,Cumberland County,ME,NA,NA,18.045112781954884,16.27906976744186
04038,Cumberland County,ME,NA,NA,33.40494092373791,NA
04039,Cumberland County,ME,NA,NA,59.61331901181526,NA
04062,Cumberland County,ME,NA,NA,60.794844253490865,NA
04072,York County,ME,29.677419354838708,NA,12.996777658431794,NA
04073,York County,ME,15.161290322580644,NA,NA,NA
04076,York County,ME,NA,95.41062801932367,NA,NA
04083,York County,ME,83.54838709677419,NA,NA,NA
04086,Sagadahoc County,ME,95.48387096774194,NA,63.587540279269604,NA
04090,York County,ME,NA,41.22383252818035,NA,79.58656330749353
04092,Cumberland County,ME,NA,74.9597423510467,18.904403866809883,35.14211886304909
04093,York County,ME,NA,64.17069243156199,NA,NA
04102,Cumberland County,ME,NA,NA,NA,51.162790697674424
04103,Cumberland County,ME,NA,35.10466988727858,NA,NA
04210,Androscoggin County,ME,NA,NA,44.038668098818476,9.043927648578812
04260,Cumberland County,ME,NA,98.71175523349437,NA,NA
04274,Androscoggin County,ME,NA,90.33816425120773,NA,NA
04281,Oxford County,ME,NA,NA,47.368421052631575,NA
04345,Kennebec County,ME,NA,77.53623188405797,NA,81.65374677002583
04350,Kennebec County,ME,NA,NA,NA,99.74160206718346
04401,Penobscot County,ME,0.967741935483871,NA,NA,NA
04412,Penobscot County,ME,NA,42.673107890499196,56.283566058002144,NA
04444,Penobscot County,ME,NA,55.716586151368766,NA,NA
04530,Sagadahoc County,ME,NA,NA,32.867883995703544,NA
04609,Hancock County,ME,NA,NA,91.29967776584319,NA
04756,Aroostook County,ME,NA,NA,NA,49.87080103359173
04841,Knox County,ME,NA,54.99194847020934,NA,NA
04843,Knox County,ME,NA,83.25281803542673,NA,NA
04849,Waldo County,ME,NA,NA,NA,63.565891472868216
04901,Kennebec County,ME,NA,68.51851851851852,2.1482277121374866,NA
04915,Waldo County,ME,NA,NA,83.88829215896885,NA
04927,Kennebec County,ME,NA,85.5072463768116,NA,NA
04937,Somerset County,ME,NA,65.61996779388085,NA,NA
04957,Somerset County,ME,NA,NA,66.59505907626209,NA
04963,Kennebec County,ME,NA,NA,NA,57.105943152454785
04967,Somerset County,ME,NA,NA,66.38023630504833,NA
04976,Somerset County,ME,NA,93.55877616747182,NA,NA
04989,Kennebec County,ME,NA,NA,94.62943071965628,NA
20603,Charles County,MD,NA,44.927536231884055,NA,NA
20639,Calvert County,MD,NA,NA,NA,77.51937984496125
20646,Charles County,MD,NA,NA,NA,67.18346253229974
20650,St. Mary's County,MD,NA,93.47826086956522,NA,NA
20653,St. Mary's County,MD,NA,42.914653784219006,NA,NA
20685,Calvert County,MD,80.3225806451613,NA,NA,NA
20723,Howard County,MD,72.58064516129032,NA,NA,NA
20724,Anne Arundel County,MD,74.51612903225806,NA,87.32545649838883,NA
20735,Prince George's County,MD,NA,NA,73.79162191192266,NA
20744,Prince George's County,MD,50.32258064516129,NA,NA,NA
20745,Prince George's County,MD,79.6774193548387,NA,NA,NA
20754,Calvert County,MD,NA,93.31723027375202,NA,NA
20814,Montgomery County,MD,NA,79.14653784219001,NA,NA
20815,Montgomery County,MD,NA,64.3317230273752,NA,31.52454780361757
20832,Montgomery County,MD,NA,61.59420289855072,61.65413533834586,81.3953488372093
20853,Montgomery County,MD,NA,NA,55.316863587540276,NA
20854,Montgomery County,MD,NA,41.70692431561997,23.415682062298604,NA
20855,Montgomery County,MD,NA,78.4219001610306,NA,NA
20872,Montgomery County,MD,NA,80.51529790660226,NA,97.41602067183463
20874,Montgomery County,MD,NA,55.95813204508857,NA,NA
20878,Montgomery County,MD,NA,28.09983896940419,NA,NA
20882,Montgomery County,MD,NA,68.67954911433173,NA,NA
20904,Montgomery County,MD,NA,NA,NA,18.863049095607234
21001,Harford County,MD,NA,NA,46.616541353383454,NA
21009,Harford County,MD,NA,NA,50.5907626208378,NA
21012,Anne Arundel County,MD,NA,80.51529790660226,NA,NA
21014,Harford County,MD,NA,NA,NA,30.749354005167955
21029,Howard County,MD,NA,NA,90.97744360902256,NA
21030,Baltimore County,MD,NA,49.8389694041868,NA,NA
21040,Harford County,MD,NA,38.969404186795494,NA,NA
21042,Howard County,MD,NA,NA,40.70891514500537,NA
21043,Howard County,MD,NA,NA,31.041890440386684,NA
21044,Howard County,MD,81.93548387096774,NA,47.046186895810955,NA
21046,Howard County,MD,NA,NA,NA,98.19121447028424
21060,Anne Arundel County,MD,NA,NA,29.21589688506982,NA
21074,Carroll County,MD,NA,79.54911433172302,NA,NA
21075,Howard County,MD,NA,44.847020933977454,NA,NA
21078,Harford County,MD,NA,31.48148148148148,NA,NA
21090,Anne Arundel County,MD,NA,85.99033816425121,NA,NA
21093,Baltimore County,MD,34.83870967741935,NA,NA,NA
21102,Carroll County,MD,NA,96.45732689210949,NA,NA
21111,Baltimore County,MD,NA,NA,90.01074113856069,NA
21128,Baltimore County,MD,NA,NA,NA,54.00516795865633
21131,Baltimore County,MD,NA,NA,76.69172932330827,NA
21140,Anne Arundel County,MD,NA,NA,95.27389903329752,NA
21163,Howard County,MD,NA,89.5330112721417,NA,NA
21204,Baltimore County,MD,NA,48.148148148148145,NA,NA
21208,Baltimore County,MD,NA,NA,22.771213748657356,36.17571059431525
21210,Baltimore city,MD,NA,NA,76.36949516648764,NA
21211,Baltimore city,MD,74.83870967741936,52.57648953301127,NA,NA
21218,Baltimore city,MD,NA,6.119162640901772,NA,NA
21220,Baltimore County,MD,NA,10.869565217391305,NA,NA
21229,Baltimore city,MD,NA,NA,40.27926960257787,NA
21234,Baltimore County,MD,19.35483870967742,NA,NA,NA
21401,Anne Arundel County,MD,46.45161290322581,NA,20.83780880773362,NA
21502,Allegany County,MD,NA,14.492753623188406,NA,NA
21532,Allegany County,MD,NA,NA,NA,60.46511627906976
21550,Garrett County,MD,NA,52.09339774557166,58.32438238453276,NA
21601,Talbot County,MD,NA,47.50402576489533,NA,27.906976744186046
21613,Dorchester County,MD,NA,NA,40.38668098818475,NA
21619,Queen Anne's County,MD,NA,NA,89.58109559613318,NA
21620,Kent County,MD,81.61290322580645,NA,43.82384532760473,NA
21643,Dorchester County,MD,NA,NA,81.41783029001074,NA
21655,Caroline County,MD,90.96774193548387,87.11755233494364,NA,NA
21660,Caroline County,MD,NA,93.07568438003221,NA,NA
21666,Queen Anne's County,MD,NA,79.79066022544283,NA,NA
21727,Frederick County,MD,NA,NA,85.82169709989259,NA
21742,Washington County,MD,NA,43.23671497584541,NA,NA
21771,Frederick County,MD,40.96774193548387,69.48470209339774,NA,NA
21784,Carroll County,MD,24.838709677419356,NA,NA,37.72609819121447
21811,Worcester County,MD,NA,37.27858293075684,NA,NA
21842,Worcester County,MD,NA,NA,44.89795918367347,NA
21851,Worcester County,MD,NA,83.17230273752013,NA,79.84496124031007
21874,Wicomico County,MD,NA,99.11433172302738,NA,NA
21921,Cecil County,MD,12.903225806451612,55.152979066022546,4.296455424274973,NA
01002,Hampshire County,MA,NA,NA,36.734693877551024,NA
01013,Hampden County,MA,NA,NA,9.989258861439312,NA
01020,Hampden County,MA,NA,12.88244766505636,NA,12.4031007751938
01027,Hampshire County,MA,NA,NA,56.82062298603652,NA
01030,Hampden County,MA,67.41935483870968,NA,NA,NA
01033,Hampshire County,MA,NA,NA,67.23952738990333,NA
01057,Hampden County,MA,NA,NA,NA,76.74418604651163
01062,Hampshire County,MA,NA,NA,NA,74.16020671834626
01069,Hampden County,MA,NA,57.890499194847024,NA,NA
01075,Hampshire County,MA,NA,2.657004830917874,NA,NA
01085,Hampden County,MA,NA,NA,NA,28.42377260981912
01104,Hampden County,MA,NA,15.056360708534623,NA,NA
01151,Hampden County,MA,NA,NA,75.61761546723953,NA
01201,Berkshire County,MA,NA,76.16747181964574,24.2749731471536,8.2687338501292
01220,Berkshire County,MA,NA,13.687600644122384,NA,NA
01226,Berkshire County,MA,NA,57.648953301127214,46.07948442534909,NA
01230,Berkshire County,MA,NA,81.88405797101449,35.5531686358754,NA
01238,Berkshire County,MA,NA,NA,73.68421052631578,NA
01240,Berkshire County,MA,NA,NA,NA,40.56847545219638
01267,Berkshire County,MA,NA,63.12399355877617,53.70569280343717,NA
01301,Franklin County,MA,NA,6.602254428341385,NA,37.46770025839793
01364,Franklin County,MA,45.16129032258064,NA,NA,NA
01373,Franklin County,MA,90.64516129032259,NA,85.39205155746508,NA
01420,Worcester County,MA,NA,0.08051529790660225,NA,4.1343669250646
01432,Middlesex County,MA,NA,29.871175523349436,NA,NA
01440,Worcester County,MA,7.419354838709677,0.966183574879227,NA,NA
01450,Middlesex County,MA,NA,97.98711755233495,NA,NA
01451,Worcester County,MA,NA,NA,85.60687432867884,NA
01452,Worcester County,MA,NA,91.46537842190016,NA,NA
01464,Middlesex County,MA,NA,47.42351046698873,88.2921589688507,NA
01468,Worcester County,MA,NA,NA,NA,89.40568475452196
01469,Middlesex County,MA,NA,78.34138486312399,54.672395273899035,NA
01475,Worcester County,MA,NA,86.63446054750402,NA,NA
01501,Worcester County,MA,NA,NA,22.663802363050483,NA
01503,Worcester County,MA,NA,NA,97.85177228786252,NA
01504,Worcester County,MA,63.54838709677419,NA,NA,NA
01521,Hampden County,MA,NA,NA,98.28141783029001,NA
01527,Worcester County,MA,NA,NA,18.367346938775512,NA
01536,Worcester County,MA,NA,79.06602254428341,NA,NA
01540,Worcester County,MA,NA,50.32206119162641,35.44575725026853,NA
01543,Worcester County,MA,79.03225806451613,NA,NA,NA
01550,Worcester County,MA,NA,12.238325281803544,NA,NA
01566,Worcester County,MA,NA,NA,96.56283566058002,NA
01568,Worcester County,MA,NA,50.80515297906602,93.55531686358755,NA
01569,Worcester County,MA,NA,46.61835748792271,NA,NA
01570,Worcester County,MA,NA,2.818035426731079,15.682062298603652,NA
01583,Worcester County,MA,NA,58.051529790660226,NA,NA
01606,Worcester County,MA,NA,10.547504025764894,NA,NA
01609,Worcester County,MA,NA,NA,3.866809881847476,NA
01701,Middlesex County,MA,NA,NA,5.263157894736842,NA
01702,Middlesex County,MA,NA,35.909822866344605,NA,NA
01720,Middlesex County,MA,NA,86.95652173913044,21.804511278195488,NA
01721,Middlesex County,MA,NA,20.69243156199678,69.17293233082707,NA
01741,Middlesex County,MA,NA,NA,93.23308270676691,NA
01742,Middlesex County,MA,93.2258064516129,NA,96.34801288936627,NA
01746,Middlesex County,MA,NA,33.97745571658615,25.77873254564984,NA
01748,Middlesex County,MA,NA,54.347826086956516,55.20945220193341,NA
01749,Middlesex County,MA,NA,NA,68.09881847475833,NA
01752,Middlesex County,MA,NA,2.1739130434782608,32.43823845327605,NA
01754,Middlesex County,MA,NA,NA,38.66809881847476,NA
01757,Worcester County,MA,NA,NA,NA,20.671834625322997
01760,Middlesex County,MA,NA,22.383252818035427,NA,NA
01773,Middlesex County,MA,NA,81.23993558776168,95.70354457572503,67.70025839793283
01776,Middlesex County,MA,NA,NA,29.430719656283564,NA
01778,Middlesex County,MA,NA,61.27214170692431,NA,NA
01801,Middlesex County,MA,NA,0.644122383252818,NA,NA
01803,Middlesex County,MA,NA,33.33333333333333,NA,NA
01810,Essex County,MA,NA,25.60386473429952,11.278195488721805,43.669250645994836
01821,Middlesex County,MA,NA,3.462157809983897,1.0741138560687433,NA
01824,Middlesex County,MA,NA,5.797101449275362,23.09344790547798,6.718346253229974
01826,Middlesex County,MA,NA,2.898550724637681,NA,45.99483204134367
01830,Essex County,MA,NA,NA,5.370569280343716,NA
01834,Essex County,MA,NA,63.68760064412239,NA,NA
01843,Essex County,MA,NA,38.808373590982285,NA,NA
01844,Essex County,MA,1.2903225806451613,NA,2.0408163265306123,NA
01845,Essex County,MA,NA,NA,31.57894736842105,NA
01850,Middlesex County,MA,NA,19.645732689210952,NA,NA
01860,Essex County,MA,NA,NA,64.4468313641246,NA
01862,Middlesex County,MA,NA,NA,61.33190118152524,NA
01876,Middlesex County,MA,NA,74.7987117552335,NA,NA
01880,Middlesex County,MA,NA,NA,NA,11.11111111111111
01886,Middlesex County,MA,NA,13.929146537842191,NA,NA
01887,Middlesex County,MA,NA,4.508856682769726,NA,NA
01905,Essex County,MA,NA,NA,5.692803437164339,NA
01906,Essex County,MA,NA,1.7713365539452495,6.015037593984962,NA
01907,Essex County,MA,NA,73.75201288244766,NA,NA
01913,Essex County,MA,NA,15.217391304347828,88.07733619763695,NA
01915,Essex County,MA,NA,1.0466988727858293,0.644468313641246,NA
01923,Essex County,MA,NA,11.352657004830919,NA,NA
01929,Essex County,MA,NA,90.41867954911433,NA,NA
01930,Essex County,MA,NA,31.642512077294686,NA,5.684754521963824
01938,Essex County,MA,NA,28.90499194847021,NA,NA
01940,Essex County,MA,NA,40.57971014492754,NA,NA
01944,Essex County,MA,NA,NA,66.48764769065521,NA
01949,Essex County,MA,NA,NA,82.49194414607949,NA
01950,Essex County,MA,NA,12.318840579710146,NA,NA
01952,Essex County,MA,NA,92.19001610305958,79.9140708915145,NA
01966,Essex County,MA,NA,44.68599033816425,NA,NA
01983,Essex County,MA,NA,85.5877616747182,NA,NA
01984,Essex County,MA,NA,NA,94.84425349087003,NA
01985,Essex County,MA,NA,81.07890499194848,NA,NA
02019,Norfolk County,MA,NA,72.54428341384863,94.19978517722879,NA
02021,Norfolk County,MA,NA,19.404186795491142,49.838882921589686,NA
02026,Norfolk County,MA,23.225806451612904,NA,NA,NA
02030,Norfolk County,MA,NA,81.96457326892109,NA,NA
02035,Norfolk County,MA,NA,43.71980676328502,NA,47.54521963824289
02038,Norfolk County,MA,NA,25.442834138486315,52.09452201933404,NA
02043,Plymouth County,MA,86.12903225806451,91.54589371980676,NA,45.73643410852713
02045,Plymouth County,MA,72.90322580645162,92.35104669887278,NA,NA
02050,Plymouth County,MA,NA,73.91304347826086,NA,NA
02052,Norfolk County,MA,44.83870967741935,NA,43.609022556390975,NA
02053,Norfolk County,MA,60.322580645161295,57.971014492753625,47.798066595059076,NA
02061,Plymouth County,MA,NA,NA,NA,85.27131782945736
02062,Norfolk County,MA,NA,8.373590982286634,NA,NA
02067,Norfolk County,MA,80.96774193548387,NA,97.52953813104189,39.79328165374677
02072,Norfolk County,MA,NA,NA,NA,10.077519379844961
02081,Norfolk County,MA,NA,NA,94.73684210526315,NA
02090,Norfolk County,MA,NA,43.80032206119163,73.57679914070891,33.0749354005168
02093,Norfolk County,MA,NA,NA,61.1170784103115,NA
02109,Suffolk County,MA,NA,88.88888888888889,NA,NA
02114,Suffolk County,MA,NA,10.7085346215781,NA,NA
02116,Suffolk County,MA,NA,9.017713365539452,84.42534908700323,NA
02118,Suffolk County,MA,NA,0,0.4296455424274973,NA
02122,Suffolk County,MA,NA,NA,0.7518796992481203,NA
02125,Suffolk County,MA,NA,0.24154589371980675,NA,NA
02129,Suffolk County,MA,NA,2.3349436392914655,NA,NA
02130,Suffolk County,MA,NA,0.40257648953301123,NA,NA
02135,Suffolk County,MA,NA,2.576489533011272,NA,NA
02136,Suffolk County,MA,NA,1.2077294685990339,NA,NA
02139,Middlesex County,MA,4.516129032258064,NA,NA,NA
02140,Middlesex County,MA,NA,NA,7.411385606874328,22.48062015503876
02141,Middlesex County,MA,NA,NA,16.970998925886143,NA
02144,Middlesex County,MA,NA,48.470209339774556,NA,NA
02145,Middlesex County,MA,NA,NA,56.068743286788404,NA
02148,Middlesex County,MA,NA,NA,0,NA
02169,Norfolk County,MA,NA,NA,NA,0.2583979328165375
02186,Norfolk County,MA,21.612903225806452,54.267310789049915,NA,NA
02188,Norfolk County,MA,NA,NA,27.06766917293233,NA
02189,Norfolk County,MA,NA,14.331723027375201,NA,NA
02302,Plymouth County,MA,NA,33.011272141706925,NA,NA
02324,Plymouth County,MA,NA,6.44122383252818,15.574650912996777,40.82687338501292
02330,Plymouth County,MA,47.74193548387097,58.454106280193244,NA,NA
02332,Plymouth County,MA,NA,NA,81.31041890440387,41.08527131782946
02338,Plymouth County,MA,NA,65.70048309178745,NA,NA
02339,Plymouth County,MA,NA,96.69887278582931,NA,NA
02346,Plymouth County,MA,43.54838709677419,22.544283413848632,31.256713211600427,NA
02351,Plymouth County,MA,NA,NA,15.789473684210526,NA
02356,Bristol County,MA,NA,NA,47.15359828141783,NA
02359,Plymouth County,MA,NA,18.51851851851852,NA,NA
02360,Plymouth County,MA,3.870967741935484,4.669887278582931,11.707841031149302,47.02842377260982
02364,Plymouth County,MA,NA,61.03059581320451,NA,NA
02368,Norfolk County,MA,NA,18.276972624798713,NA,19.12144702842377
02382,Plymouth County,MA,NA,NA,38.34586466165413,NA
02420,Middlesex County,MA,NA,22.302737520128822,NA,NA
02445,Norfolk County,MA,NA,16.586151368760063,NA,NA
02451,Middlesex County,MA,NA,NA,12.674543501611172,NA
02453,Middlesex County,MA,NA,5.555555555555555,NA,NA
02461,Middlesex County,MA,NA,NA,NA,72.3514211886305
02467,Norfolk County,MA,NA,29.71014492753623,48.33512352309345,NA
02472,Middlesex County,MA,NA,NA,23.630504833512354,NA
02474,Middlesex County,MA,NA,NA,16.11170784103115,NA
02478,Middlesex County,MA,39.03225806451613,14.251207729468598,15.896885069817401,NA
02481,Norfolk County,MA,NA,NA,37.59398496240601,NA
02493,Middlesex County,MA,51.61290322580645,NA,NA,NA
02532,Barnstable County,MA,NA,63.76811594202898,NA,40.310077519379846
02538,Plymouth County,MA,NA,NA,64.0171858216971,NA
02539,Dukes County,MA,NA,98.47020933977456,NA,NA
02540,Barnstable County,MA,NA,63.929146537842186,NA,82.68733850129199
02554,Nantucket County,MA,23.225806451612904,44.28341384863124,NA,NA
02568,Dukes County,MA,NA,75.2818035426731,79.69924812030075,NA
02601,Barnstable County,MA,NA,NA,14.60794844253491,NA
02631,Barnstable County,MA,NA,NA,60.580021482277125,62.273901808785524
02632,Barnstable County,MA,NA,NA,NA,29.198966408268735
02642,Barnstable County,MA,NA,NA,61.224489795918366,NA
02644,Barnstable County,MA,NA,NA,93.01825993555317,NA
02660,Barnstable County,MA,NA,75.60386473429952,NA,NA
02664,Barnstable County,MA,NA,35.5877616747182,25.13426423200859,NA
02673,Barnstable County,MA,NA,93.88083735909822,NA,NA
02703,Bristol County,MA,NA,23.91304347826087,NA,NA
02715,Bristol County,MA,NA,80.91787439613528,NA,NA
02717,Bristol County,MA,NA,NA,83.99570354457573,81.13695090439276
02718,Bristol County,MA,NA,61.35265700483091,NA,NA
02719,Bristol County,MA,NA,NA,34.371643394199786,NA
02721,Bristol County,MA,NA,6.6827697262479875,NA,NA
02724,Bristol County,MA,NA,80.35426731078906,NA,NA
02726,Bristol County,MA,NA,NA,20.0859291084855,NA
02738,Plymouth County,MA,NA,86.23188405797102,NA,NA
02739,Plymouth County,MA,NA,82.76972624798712,NA,68.21705426356588
02740,Bristol County,MA,NA,27.536231884057973,NA,NA
02743,Bristol County,MA,90,36.71497584541063,NA,64.59948320413437
02745,Bristol County,MA,51.29032258064517,NA,NA,NA
02746,Bristol County,MA,NA,1.4492753623188406,52.95381310418904,NA
02747,Bristol County,MA,NA,57.568438003220614,NA,NA
02748,Bristol County,MA,NA,NA,38.131041890440386,NA
02760,Bristol County,MA,NA,59.42028985507246,7.9484425349087005,NA
02762,Norfolk County,MA,NA,36.231884057971016,NA,NA
02766,Bristol County,MA,16.129032258064516,46.4573268921095,27.28249194414608,54.52196382428941
02769,Bristol County,MA,NA,56.44122383252817,42.32008592910849,57.88113695090439
02770,Plymouth County,MA,NA,95.24959742351047,83.45864661654136,NA
02771,Bristol County,MA,NA,66.26409017713365,32.975295381310424,NA
02777,Bristol County,MA,NA,20.048309178743963,NA,NA
02779,Bristol County,MA,NA,63.848631239935585,95.91836734693877,NA
02780,Bristol County,MA,1.6129032258064515,17.310789049919485,34.371643394199786,NA
02790,Bristol County,MA,NA,34.38003220611916,16.3265306122449,NA
48023,St. Clair County,MI,NA,79.38808373590982,NA,NA
48025,Oakland County,MI,NA,62.88244766505636,42.64232008592911,NA
48033,Oakland County,MI,NA,24.879227053140095,NA,NA
48036,Macomb County,MI,NA,NA,18.58216970998926,15.503875968992247
48047,Macomb County,MI,NA,8.051529790660226,34.15682062298603,NA
48059,St. Clair County,MI,NA,45.81320450885668,NA,NA
48073,Oakland County,MI,NA,NA,23.308270676691727,NA
48082,Macomb County,MI,NA,NA,NA,22.22222222222222
48094,Macomb County,MI,NA,32.045088566827694,NA,NA
48103,Washtenaw County,MI,NA,8.695652173913043,NA,NA
48104,Washtenaw County,MI,NA,57.1658615136876,NA,NA
48111,Wayne County,MI,NA,NA,21.697099892588614,NA
48114,Livingston County,MI,NA,32.608695652173914,NA,NA
48116,Livingston County,MI,NA,17.391304347826086,10.848549946294307,NA
48152,Wayne County,MI,NA,NA,3.9742212674543502,NA
48167,Oakland County,MI,NA,66.90821256038647,NA,NA
48168,Wayne County,MI,NA,NA,27.926960257787325,NA
48170,Wayne County,MI,NA,40.98228663446054,NA,NA
48174,Wayne County,MI,NA,4.99194847020934,NA,NA
48183,Wayne County,MI,NA,NA,4.403866809881848,NA
48188,Wayne County,MI,NA,7.568438003220612,NA,NA
48220,Oakland County,MI,NA,28.019323671497588,NA,40.05167958656331
48306,Oakland County,MI,NA,26.006441223832528,NA,NA
48312,Macomb County,MI,NA,NA,NA,7.235142118863049
48314,Macomb County,MI,NA,25.36231884057971,NA,NA
48334,Oakland County,MI,NA,81.48148148148148,NA,NA
48341,Oakland County,MI,NA,NA,NA,85.78811369509044
48381,Oakland County,MI,NA,NA,NA,39.53488372093023
48421,Lapeer County,MI,NA,96.61835748792271,NA,NA
48430,Genesee County,MI,26.451612903225808,NA,NA,NA
48461,Lapeer County,MI,NA,73.02737520128825,NA,NA
48507,Genesee County,MI,NA,21.980676328502415,NA,NA
48601,Saginaw County,MI,NA,1.288244766505636,NA,NA
48603,Saginaw County,MI,NA,7.004830917874397,NA,NA
48609,Saginaw County,MI,NA,NA,45.86466165413533,NA
48611,Bay County,MI,NA,74.55716586151368,NA,NA
48622,Clare County,MI,84.19354838709677,NA,NA,NA
48623,Saginaw County,MI,NA,26.32850241545894,NA,NA
48625,Clare County,MI,NA,NA,14.285714285714285,NA
48626,Saginaw County,MI,NA,83.01127214170693,NA,NA
48655,Saginaw County,MI,NA,70.20933977455717,NA,NA
48656,Roscommon County,MI,NA,57.48792270531401,NA,NA
48706,Bay County,MI,NA,NA,NA,19.379844961240313
48836,Livingston County,MI,NA,NA,64.33941997851772,NA
48843,Livingston County,MI,NA,7.487922705314009,NA,NA
48846,Ionia County,MI,37.41935483870968,NA,NA,NA
48855,Livingston County,MI,NA,84.62157809983897,NA,NA
48858,Isabella County,MI,6.129032258064516,NA,NA,NA
49036,Branch County,MI,NA,40.33816425120773,NA,NA
49046,Barry County,MI,NA,NA,NA,73.64341085271317
49047,Cass County,MI,NA,NA,19.763694951664874,NA
49057,Van Buren County,MI,NA,NA,57.25026852846402,NA
49071,Van Buren County,MI,NA,51.368760064412236,NA,NA
49085,Berrien County,MI,NA,90.57971014492753,NA,NA
49097,Kalamazoo County,MI,NA,NA,NA,44.96124031007752
49348,Allegan County,MI,NA,NA,33.941997851772285,NA
49424,Ottawa County,MI,8.38709677419355,8.937198067632849,NA,NA
49441,Muskegon County,MI,NA,7.326892109500806,2.577873254564984,NA
49442,Muskegon County,MI,NA,NA,2.7926960257787328,NA
49445,Muskegon County,MI,64.19354838709678,NA,NA,NA
49449,Oceana County,MI,NA,NA,81.52524167561761,NA
49454,Mason County,MI,NA,NA,73.03974221267454,NA
49460,Ottawa County,MI,69.03225806451613,NA,NA,NA
49505,Kent County,MI,NA,NA,16.86358754027927,NA
49546,Kent County,MI,NA,22.785829307568438,NA,NA
49660,Manistee County,MI,37.41935483870968,23.349436392914654,NA,NA
49685,Grand Traverse County,MI,NA,NA,74.43609022556392,NA
49720,Charlevoix County,MI,NA,NA,45.11278195488722,NA
49735,Otsego County,MI,NA,NA,12.88936627282492,NA
49779,Presque Isle County,MI,NA,95.16908212560386,NA,NA
49801,Dickinson County,MI,NA,NA,90.76262083780881,NA
49855,Marquette County,MI,21.935483870967744,NA,NA,NA
49938,Gogebic County,MI,NA,NA,34.80128893662729,NA
49946,Baraga County,MI,NA,82.68921095008052,NA,NA
49953,Ontonagon County,MI,NA,NA,NA,52.97157622739018
55051,Kanabec County,MN,NA,NA,27.497314715359828,NA
55057,Rice County,MN,40.32258064516129,NA,NA,NA
55066,Goodhue County,MN,NA,NA,NA,9.30232558139535
55071,Washington County,MN,NA,81.72302737520128,NA,NA
55082,Washington County,MN,NA,NA,43.9312567132116,NA
55108,Ramsey County,MN,NA,NA,NA,98.96640826873386
55304,Anoka County,MN,NA,51.20772946859904,NA,NA
55306,Dakota County,MN,NA,71.73913043478261,NA,NA
55327,Hennepin County,MN,NA,98.30917874396135,NA,NA
55330,Sherburne County,MN,NA,25.201288244766506,NA,NA
55331,Hennepin County,MN,NA,72.14170692431561,NA,NA
55337,Dakota County,MN,NA,NA,NA,25.064599483204137
55341,Wright County,MN,NA,98.55072463768117,NA,NA
55372,Scott County,MN,NA,NA,43.5016111707841,NA
55401,Hennepin County,MN,NA,42.592592592592595,NA,NA
55407,Hennepin County,MN,NA,16.74718196457327,NA,NA
55411,Hennepin County,MN,NA,1.8518518518518516,NA,NA
55412,Hennepin County,MN,NA,62.47987117552335,NA,NA
55414,Hennepin County,MN,NA,61.111111111111114,NA,NA
55417,Hennepin County,MN,NA,59.09822866344605,62.191192266380234,NA
55418,Hennepin County,MN,NA,NA,24.919441460794843,NA
55419,Hennepin County,MN,NA,27.697262479871178,41.568206229860365,NA
55420,Hennepin County,MN,NA,23.59098228663446,NA,NA
55423,Hennepin County,MN,38.70967741935484,NA,NA,NA
55429,Hennepin County,MN,10.32258064516129,NA,NA,NA
55734,St. Louis County,MN,NA,NA,86.78839957035446,NA
55744,Itasca County,MN,NA,27.938808373590984,4.9409237379162185,NA
55768,St. Louis County,MN,NA,NA,89.79591836734694,NA
55804,St. Louis County,MN,NA,49.43639291465378,NA,NA
55810,St. Louis County,MN,NA,NA,34.049409237379166,NA
55904,Olmsted County,MN,NA,47.18196457326892,NA,NA
55987,Winona County,MN,NA,5.475040257648954,NA,NA
56071,Scott County,MN,NA,70.37037037037037,NA,NA
56215,Swift County,MN,NA,77.45571658615137,87.64769065520946,NA
56267,Stevens County,MN,NA,71.49758454106279,NA,NA
56301,Stearns County,MN,16.7741935483871,NA,NA,NA
56345,Morrison County,MN,NA,18.760064412238325,NA,70.28423772609818
56377,Stearns County,MN,NA,86.55394524959742,NA,NA
56378,Stearns County,MN,NA,93.96135265700482,NA,NA
56401,Crow Wing County,MN,NA,78.09983896940419,75.51020408163265,NA
56431,Aitkin County,MN,NA,NA,57.46509129967776,NA
56442,Crow Wing County,MN,NA,NA,82.38453276047261,NA
56444,Crow Wing County,MN,NA,NA,70.78410311493019,NA
56468,Crow Wing County,MN,NA,NA,NA,94.31524547803618
56470,Hubbard County,MN,NA,45.410628019323674,NA,NA
56474,Cass County,MN,NA,97.34299516908213,71.85821697099892,NA
56479,Todd County,MN,70.96774193548387,62.31884057971014,NA,NA
56482,Wadena County,MN,NA,NA,40.171858216971,NA
56484,Cass County,MN,NA,NA,84.85499462943072,NA
56560,Clay County,MN,NA,NA,2.685284640171858,NA
56601,Beltrami County,MN,3.225806451612903,NA,NA,NA
56621,Clearwater County,MN,NA,63.28502415458937,NA,NA
56636,Itasca County,MN,NA,78.01932367149759,NA,NA
56701,Pennington County,MN,NA,NA,NA,26.614987080103358
56716,Polk County,MN,NA,42.270531400966185,NA,NA
38666,Panola County,MS,87.41935483870968,NA,NA,NA
39422,Jasper County,MS,NA,88.08373590982286,NA,NA
39452,George County,MS,NA,15.780998389694043,NA,NA
39470,Pearl River County,MS,NA,62.31884057971014,NA,NA
39530,Harrison County,MS,NA,NA,73.36197636949517,NA
39571,Harrison County,MS,NA,48.309178743961354,NA,NA
39601,Lincoln County,MS,NA,28.502415458937197,NA,NA
63005,St. Louis County,MO,NA,96.05475040257649,NA,NA
63017,St. Louis County,MO,NA,NA,47.58324382384533,NA
63026,St. Louis County,MO,NA,NA,8.592910848549947,NA
63033,St. Louis County,MO,NA,NA,NA,57.36434108527132
63303,St. Charles County,MO,NA,NA,7.518796992481203,NA
63376,St. Charles County,MO,NA,NA,1.3963480128893664,NA
63383,Warren County,MO,NA,34.54106280193236,NA,NA
63601,St. Francois County,MO,NA,NA,39.31256713211601,NA
63845,Mississippi County,MO,NA,NA,85.28464017185821,NA
64055,Jackson County,MO,NA,5.152979066022544,NA,NA
64062,Ray County,MO,NA,NA,60.68743286788399,NA
64064,Jackson County,MO,NA,32.769726247987116,NA,NA
64082,Jackson County,MO,NA,48.55072463768116,NA,NA
64152,Platte County,MO,NA,11.83574879227053,NA,NA
64157,Clay County,MO,NA,21.014492753623188,NA,NA
64429,Clinton County,MO,NA,31.561996779388085,NA,NA
64804,Jasper County,MO,NA,9.98389694041868,NA,NA
65265,Audrain County,MO,17.096774193548388,NA,NA,NA
65301,Pettis County,MO,6.451612903225806,NA,NA,NA
65721,Christian County,MO,NA,35.668276972624795,NA,36.69250645994832
65791,Oregon County,MO,NA,NA,70.89151450053706,NA
59105,Yellowstone County,MT,NA,69.16264090177134,NA,NA
59602,Lewis and Clark County,MT,NA,38.24476650563607,49.94629430719657,NA
59714,Gallatin County,MT,NA,43.47826086956522,NA,NA
59715,Gallatin County,MT,NA,NA,23.8453276047261,NA
68104,Douglas County,NE,NA,NA,NA,34.883720930232556
68601,Platte County,NE,NA,NA,30.82706766917293,NA
68850,Dawson County,NE,NA,NA,64.8764769065521,NA
89131,Clark County,NV,NA,28.824476650563607,NA,NA
89178,Clark County,NV,NA,52.89855072463768,NA,NA
89441,Washoe County,NV,NA,61.59420289855072,NA,NA
89523,Washoe County,NV,NA,62.07729468599034,NA,NA
89822,Elko County,NV,NA,97.10144927536231,NA,NA
03031,Hillsborough County,NH,70.64516129032258,NA,72.3952738990333,NA
03032,Rockingham County,NH,NA,89.29146537842189,NA,NA
03033,Hillsborough County,NH,NA,NA,93.98496240601504,NA
03045,Hillsborough County,NH,NA,46.94041867954911,NA,NA
03049,Hillsborough County,NH,NA,61.83574879227053,54.13533834586466,71.31782945736434
03051,Hillsborough County,NH,NA,36.151368760064415,12.781954887218044,51.93798449612403
03053,Rockingham County,NH,13.225806451612904,73.51046698872786,15.252416756176155,NA
03055,Hillsborough County,NH,36.12903225806451,28.5829307568438,NA,NA
03060,Hillsborough County,NH,NA,49.11433172302738,NA,NA
03062,Hillsborough County,NH,NA,31.320450885668276,NA,13.436692506459949
03063,Hillsborough County,NH,NA,NA,29.860365198711065,29.457364341085274
03064,Hillsborough County,NH,7.096774193548387,58.93719806763285,NA,NA
03077,Rockingham County,NH,NA,49.275362318840585,NA,NA
03079,Rockingham County,NH,NA,64.81481481481481,12.030075187969924,NA
03087,Rockingham County,NH,NA,97.90660225442835,78.30290010741139,NA
03102,Hillsborough County,NH,NA,12.721417069243158,34.908700322234154,NA
03103,Hillsborough County,NH,NA,38.88888888888889,6.552094522019335,NA
03104,Hillsborough County,NH,10.64516129032258,NA,9.559613319011815,23.772609819121445
03110,Hillsborough County,NH,52.903225806451616,NA,24.489795918367346,NA
03246,Belknap County,NH,NA,NA,21.911922663802365,NA
03249,Belknap County,NH,NA,NA,NA,60.20671834625323
03253,Belknap County,NH,NA,NA,NA,97.67441860465115
03254,Carroll County,NH,NA,NA,NA,93.28165374677002
03257,Merrimack County,NH,NA,NA,NA,80.10335917312662
03275,Merrimack County,NH,NA,NA,31.793770139634802,NA
03290,Rockingham County,NH,NA,NA,89.79591836734694,NA
03301,Merrimack County,NH,NA,9.66183574879227,31.47153598281418,NA
03431,Cheshire County,NH,NA,NA,46.40171858216971,5.426356589147287
03452,Cheshire County,NH,NA,NA,54.35016111707841,NA
03458,Hillsborough County,NH,NA,NA,NA,77.77777777777779
03743,Sullivan County,NH,NA,99.9194847020934,70.03222341568205,NA
03801,Rockingham County,NH,NA,NA,NA,41.86046511627907
03819,Rockingham County,NH,NA,84.86312399355877,NA,NA
03825,Strafford County,NH,NA,NA,33.619763694951665,NA
03833,Rockingham County,NH,24.516129032258064,49.033816425120776,24.704618689581096,25.839793281653744
03844,Rockingham County,NH,NA,NA,93.12567132116004,NA
03862,Rockingham County,NH,NA,88.88888888888889,NA,NA
03867,Strafford County,NH,NA,NA,NA,39.276485788113696
03885,Rockingham County,NH,NA,99.6779388083736,NA,NA
07002,Hudson County,NJ,NA,0.8051529790660225,NA,NA
07005,Morris County,NJ,NA,NA,64.66165413533834,NA
07006,Essex County,NJ,56.774193548387096,NA,NA,NA
07008,Middlesex County,NJ,NA,15.70048309178744,NA,NA
07010,Bergen County,NJ,NA,NA,NA,35.65891472868217
07016,Union County,NJ,NA,NA,30.397422126745433,NA
07018,Essex County,NJ,NA,NA,14.500537056928033,NA
07030,Hudson County,NJ,NA,29.227053140096622,NA,NA
07031,Bergen County,NJ,NA,NA,96.77765843179377,NA
07043,Essex County,NJ,NA,NA,53.16863587540279,NA
07044,Essex County,NJ,94.51612903225806,NA,NA,NA
07052,Essex County,NJ,NA,8.856682769726248,NA,NA
07054,Morris County,NJ,NA,72.94685990338165,NA,NA
07059,Somerset County,NJ,NA,NA,65.95059076262085,NA
07065,Union County,NJ,NA,NA,23.200859291084853,NA
07070,Bergen County,NJ,NA,47.58454106280193,NA,NA
07076,Union County,NJ,NA,67.4718196457327,NA,NA
07307,Hudson County,NJ,NA,NA,27.926960257787325,NA
07416,Sussex County,NJ,NA,NA,65.52094522019334,97.1576227390181
07417,Bergen County,NJ,88.38709677419355,NA,NA,NA
07422,Sussex County,NJ,NA,93.63929146537842,NA,NA
07424,Passaic County,NJ,NA,NA,77.76584317937701,NA
07438,Morris County,NJ,NA,70.45088566827698,63.69495166487648,93.54005167958657
07450,Bergen County,NJ,NA,60.7085346215781,NA,NA
07456,Passaic County,NJ,NA,73.26892109500805,NA,NA
07458,Bergen County,NJ,94.83870967741936,78.50241545893721,NA,NA
07461,Sussex County,NJ,NA,NA,42.64232008592911,NA
07462,Sussex County,NJ,NA,NA,97.0998925886144,NA
07470,Passaic County,NJ,NA,NA,2.2556390977443606,NA
07480,Passaic County,NJ,NA,NA,55.53168635875403,NA
07512,Passaic County,NJ,NA,84.05797101449275,NA,NA
07513,Passaic County,NJ,NA,NA,70.35445757250268,NA
07621,Bergen County,NJ,57.096774193548384,NA,NA,NA
07631,Bergen County,NJ,NA,17.7938808373591,NA,41.343669250645995
07646,Bergen County,NJ,NA,41.30434782608695,NA,NA
07652,Bergen County,NJ,NA,NA,16.648764769065522,NA
07662,Bergen County,NJ,NA,NA,83.45864661654136,90.69767441860465
07663,Bergen County,NJ,58.387096774193544,NA,NA,NA
07670,Bergen County,NJ,NA,69.40418679549114,NA,49.35400516795866
07675,Bergen County,NJ,NA,NA,33.83458646616541,NA
07701,Monmouth County,NJ,NA,27.858293075684383,24.06015037593985,NA
07702,Monmouth County,NJ,NA,95.41062801932367,NA,NA
07712,Monmouth County,NJ,NA,2.0128824476650564,NA,NA
07719,Monmouth County,NJ,59.354838709677416,23.832528180354267,NA,NA
07720,Monmouth County,NJ,NA,NA,90.22556390977444,NA
07722,Monmouth County,NJ,NA,NA,NA,96.64082687338501
07724,Monmouth County,NJ,NA,NA,23.952738990332975,NA
07726,Monmouth County,NJ,NA,18.679549114331724,17.293233082706767,NA
07727,Monmouth County,NJ,NA,NA,68.2062298603652,NA
07728,Monmouth County,NJ,NA,27.375201288244767,NA,2.842377260981912
07730,Monmouth County,NJ,NA,35.18518518518518,32.2234156820623,56.07235142118863
07731,Monmouth County,NJ,NA,60.22544283413849,NA,NA
07733,Monmouth County,NJ,NA,68.35748792270532,NA,NA
07734,Monmouth County,NJ,NA,13.043478260869565,NA,NA
07735,Monmouth County,NJ,NA,NA,25.563909774436087,NA
07739,Monmouth County,NJ,NA,NA,NA,76.22739018087856
07740,Monmouth County,NJ,NA,18.115942028985508,NA,NA
07746,Monmouth County,NJ,NA,NA,77.55102040816327,NA
07747,Monmouth County,NJ,NA,NA,27.819548872180448,NA
07753,Monmouth County,NJ,NA,NA,6.122448979591836,NA
07757,Monmouth County,NJ,NA,NA,82.8141783029001,NA
07760,Monmouth County,NJ,NA,NA,74.86573576799141,NA
07801,Morris County,NJ,55.16129032258065,NA,20.193340494092375,32.55813953488372
07821,Sussex County,NJ,NA,NA,75.18796992481202,NA
07823,Warren County,NJ,NA,43.31723027375201,NA,89.66408268733849
07825,Warren County,NJ,NA,NA,NA,89.92248062015504
07826,Sussex County,NJ,NA,93.63929146537842,NA,92.76485788113695
07827,Sussex County,NJ,NA,NA,93.77013963480128,81.91214470284238
07828,Morris County,NJ,NA,76.97262479871175,NA,NA
07832,Warren County,NJ,73.22580645161291,92.4315619967794,NA,NA
07836,Morris County,NJ,NA,NA,79.59183673469387,NA
07840,Warren County,NJ,NA,44.524959742351044,49.62406015037594,NA
07850,Morris County,NJ,NA,NA,85.82169709989259,NA
07853,Morris County,NJ,NA,NA,82.06229860365198,NA
07856,Morris County,NJ,NA,NA,NA,79.32816537467701
07860,Sussex County,NJ,38.064516129032256,55.31400966183575,18.15252416756176,NA
07869,Morris County,NJ,60,34.13848631239936,33.08270676691729,NA
07871,Sussex County,NJ,NA,36.553945249597426,NA,NA
07876,Morris County,NJ,NA,77.29468599033817,NA,NA
07882,Warren County,NJ,NA,NA,NA,59.17312661498708
07885,Morris County,NJ,NA,88.24476650563608,NA,70.54263565891473
07924,Somerset County,NJ,NA,NA,95.48872180451127,NA
07928,Morris County,NJ,NA,80.03220611916264,NA,NA
07932,Morris County,NJ,NA,77.93880837359099,NA,65.11627906976744
07936,Morris County,NJ,NA,74.47665056360708,NA,NA
07945,Morris County,NJ,NA,NA,80.343716433942,NA
07950,Morris County,NJ,NA,NA,56.605800214822764,42.377260981912144
07960,Morris County,NJ,NA,84.54106280193237,NA,47.286821705426355
08002,Camden County,NJ,NA,34.86312399355877,NA,NA
08004,Camden County,NJ,NA,NA,42.96455424274973,NA
08005,Ocean County,NJ,NA,46.53784219001611,NA,NA
08012,Camden County,NJ,NA,4.025764895330113,NA,NA
08015,Burlington County,NJ,NA,27.616747181964573,NA,59.68992248062015
08021,Camden County,NJ,NA,0.1610305958132045,NA,NA
08031,Camden County,NJ,NA,NA,58.109559613319014,NA
08037,Atlantic County,NJ,NA,9.25925925925926,14.070891514500536,NA
08043,Camden County,NJ,NA,NA,NA,18.087855297157624
08046,Burlington County,NJ,NA,78.18035426731079,NA,55.297157622739014
08048,Burlington County,NJ,NA,40.74074074074074,NA,91.7312661498708
08049,Camden County,NJ,NA,69.56521739130434,NA,NA
08052,Burlington County,NJ,14.838709677419354,NA,NA,NA
08054,Burlington County,NJ,NA,NA,9.881847475832437,NA
08057,Burlington County,NJ,66.12903225806451,78.58293075684381,NA,NA
08068,Burlington County,NJ,84.19354838709677,NA,NA,NA
08070,Salem County,NJ,NA,NA,90.87003222341569,65.63307493540051
08077,Burlington County,NJ,NA,NA,45.757250268528466,NA
08079,Salem County,NJ,50.967741935483865,NA,NA,NA
08080,Gloucester County,NJ,NA,6.521739130434782,NA,25.581395348837212
08084,Camden County,NJ,NA,99.51690821256038,NA,NA
08087,Ocean County,NJ,NA,NA,10.741138560687432,12.919896640826872
08096,Gloucester County,NJ,NA,13.848631239935589,NA,NA
08109,Camden County,NJ,NA,11.755233494363928,NA,NA
08201,Atlantic County,NJ,84.19354838709677,NA,NA,NA
08203,Atlantic County,NJ,NA,NA,72.71750805585391,37.98449612403101
08205,Atlantic County,NJ,NA,NA,NA,30.490956072351423
08210,Cape May County,NJ,NA,NA,80.12889366272825,NA
08215,Atlantic County,NJ,NA,NA,66.80988184747582,NA
08223,Cape May County,NJ,NA,88.40579710144928,NA,NA
08226,Cape May County,NJ,NA,NA,NA,48.06201550387597
08234,Atlantic County,NJ,NA,NA,9.022556390977442,NA
08260,Cape May County,NJ,NA,NA,NA,49.6124031007752
08318,Salem County,NJ,NA,NA,NA,53.746770025839794
08330,Atlantic County,NJ,NA,NA,NA,37.2093023255814
08332,Cumberland County,NJ,12.258064516129032,0.7246376811594203,62.83566058002148,NA
08344,Gloucester County,NJ,NA,99.59742351046698,NA,NA
08360,Cumberland County,NJ,20.967741935483872,NA,88.18474758324383,18.34625322997416
08361,Cumberland County,NJ,NA,NA,NA,36.95090439276486
08502,Somerset County,NJ,NA,89.93558776167473,NA,NA
08512,Mercer County,NJ,NA,84.13848631239935,NA,NA
08514,Monmouth County,NJ,NA,NA,87.11063372717508,NA
08520,Mercer County,NJ,NA,32.52818035426731,NA,NA
08527,Ocean County,NJ,NA,NA,4.618689581095596,NA
08534,Mercer County,NJ,NA,85.99033816425121,90.33297529538132,NA
08540,Mercer County,NJ,NA,NA,24.597207303974223,NA
08550,Mercer County,NJ,73.22580645161291,NA,NA,NA
08620,Mercer County,NJ,NA,NA,68.42105263157895,NA
08628,Mercer County,NJ,NA,93.15619967793882,NA,NA
08701,Ocean County,NJ,NA,NA,NA,1.550387596899225
08723,Ocean County,NJ,NA,9.098228663446054,NA,31.007751937984494
08724,Ocean County,NJ,NA,NA,35.338345864661655,NA
08730,Monmouth County,NJ,NA,NA,86.03651987110635,NA
08736,Monmouth County,NJ,NA,68.59903381642512,NA,58.139534883720934
08742,Ocean County,NJ,NA,94.04186795491142,NA,56.84754521963824
08750,Monmouth County,NJ,93.54838709677419,NA,NA,NA
08753,Ocean County,NJ,NA,NA,NA,9.560723514211885
08755,Ocean County,NJ,NA,36.63446054750403,NA,NA
08757,Ocean County,NJ,NA,NA,2.4704618689581093,0
08759,Ocean County,NJ,65.16129032258064,NA,9.774436090225564,NA
08816,Middlesex County,NJ,NA,NA,NA,32.041343669250644
08822,Hunterdon County,NJ,NA,NA,22.986036519871107,NA
08826,Hunterdon County,NJ,NA,88.88888888888889,NA,NA
08831,Middlesex County,NJ,NA,19.082125603864732,27.28249194414608,NA
08835,Somerset County,NJ,NA,30.595813204508858,NA,NA
08836,Somerset County,NJ,NA,NA,97.31471535982814,NA
08850,Middlesex County,NJ,NA,95.08856682769726,NA,NA
08854,Middlesex County,NJ,NA,NA,8.485499462943071,NA
08857,Middlesex County,NJ,NA,NA,NA,19.896640826873384
08859,Middlesex County,NJ,NA,60.30595813204509,NA,NA
08861,Middlesex County,NJ,NA,0.8856682769726247,NA,NA
08879,Middlesex County,NJ,NA,20.853462157809986,NA,NA
87047,Bernalillo County,NM,79.6774193548387,NA,NA,NA
87120,Bernalillo County,NM,NA,NA,9.237379162191193,NA
87507,Santa Fe County,NM,NA,NA,13.963480128893663,NA
87557,Taos County,NM,NA,NA,NA,90.95607235142118
87701,San Miguel County,NM,NA,31.15942028985507,NA,NA
10003,New York County,NY,NA,61.51368760064412,NA,NA
10010,New York County,NY,NA,NA,40.6015037593985,NA
10013,New York County,NY,NA,NA,NA,73.38501291989664
10014,New York County,NY,NA,NA,78.62513426423202,50.129198966408275
10019,New York County,NY,NA,41.14331723027375,NA,NA
10022,New York County,NY,NA,65.21739130434783,NA,NA
10023,New York County,NY,NA,NA,9.66702470461869,22.997416020671835
10025,New York County,NY,NA,4.1062801932367154,0.8592910848549946,1.8087855297157622
10028,New York County,NY,NA,64.09017713365539,NA,NA
10029,New York County,NY,NA,NA,0.21482277121374865,NA
10034,New York County,NY,NA,44.12238325281804,NA,NA
10075,New York County,NY,NA,NA,45.86466165413533,NA
10301,Richmond County,NY,NA,NA,7.841031149301826,NA
10305,Richmond County,NY,NA,11.272141706924316,NA,NA
10306,Richmond County,NY,NA,11.513687600644122,NA,NA
10308,Richmond County,NY,NA,83.73590982286635,38.99033297529538,NA
10312,Richmond County,NY,NA,26.167471819645733,NA,NA
10314,Richmond County,NY,NA,NA,16.541353383458645,NA
10454,Bronx County,NY,NA,4.428341384863124,NA,NA
10457,Bronx County,NY,NA,0.322061191626409,NA,NA
10460,Bronx County,NY,NA,1.1272141706924315,NA,NA
10461,Bronx County,NY,NA,NA,NA,21.705426356589147
10466,Bronx County,NY,NA,NA,NA,8.785529715762273
10468,Bronx County,NY,NA,NA,1.5037593984962405,NA
10471,Bronx County,NY,NA,NA,58.86143931256713,NA
10504,Westchester County,NY,NA,NA,NA,95.8656330749354
10509,Putnam County,NY,NA,NA,66.70247046186896,NA
10516,Putnam County,NY,NA,NA,NA,90.43927648578811
10524,Putnam County,NY,NA,NA,94.41460794844254,86.30490956072352
10543,Westchester County,NY,NA,NA,95.8109559613319,NA
10547,Westchester County,NY,NA,NA,NA,98.44961240310077
10567,Westchester County,NY,NA,NA,81.74006444683137,NA
10570,Westchester County,NY,NA,NA,NA,66.40826873385012
10576,Westchester County,NY,NA,NA,87.8625134264232,NA
10579,Putnam County,NY,NA,90.01610305958133,NA,NA
10580,Westchester County,NY,NA,NA,88.7218045112782,NA
10591,Westchester County,NY,NA,69.88727858293076,NA,NA
10606,Westchester County,NY,NA,NA,69.28034371643395,NA
10706,Westchester County,NY,NA,99.03381642512076,NA,NA
10708,Westchester County,NY,NA,NA,64.12459720730398,NA
10801,Westchester County,NY,NA,NA,NA,27.131782945736433
10901,Rockland County,NY,NA,NA,98.49624060150376,NA
10927,Rockland County,NY,NA,71.73913043478261,80.66595059076262,NA
10940,Orange County,NY,NA,9.500805152979067,NA,NA
10950,Orange County,NY,NA,45.33011272141707,NA,80.36175710594316
10952,Rockland County,NY,NA,NA,67.88399570354457,51.67958656330749
10956,Rockland County,NY,NA,61.99677938808373,NA,NA
10960,Rockland County,NY,NA,NA,86.14393125671322,NA
10970,Rockland County,NY,NA,90.98228663446055,NA,NA
10980,Rockland County,NY,91.61290322580645,94.60547504025764,NA,NA
10990,Orange County,NY,NA,92.7536231884058,69.38775510204081,33.33333333333333
11205,Kings County,NY,NA,7.4074074074074066,NA,NA
11206,Kings County,NY,NA,1.610305958132045,NA,NA
11214,Kings County,NY,NA,NA,NA,5.943152454780361
11215,Kings County,NY,NA,21.09500805152979,NA,NA
11218,Kings County,NY,NA,9.581320450885668,NA,NA
11221,Kings County,NY,NA,9.822866344605476,NA,NA
11223,Kings County,NY,NA,NA,32.11600429645542,NA
11225,Kings County,NY,NA,14.412238325281804,NA,NA
11229,Kings County,NY,NA,16.425120772946862,NA,NA
11230,Kings County,NY,47.096774193548384,NA,NA,NA
11231,Kings County,NY,NA,NA,NA,44.44444444444444
11233,Kings County,NY,NA,6.763285024154589,NA,NA
11237,Kings County,NY,NA,14.653784219001611,NA,NA
11238,Kings County,NY,NA,33.49436392914654,NA,NA
11354,Queens County,NY,NA,28.985507246376812,NA,NA
11370,Queens County,NY,NA,30.35426731078905,NA,NA
11372,Queens County,NY,NA,18.84057971014493,NA,NA
11373,Queens County,NY,NA,7.971014492753622,NA,NA
11421,Queens County,NY,NA,20.933977455716587,NA,NA
11435,Queens County,NY,NA,6.360708534621579,NA,NA
11542,Nassau County,NY,NA,92.914653784219,NA,NA
11575,Nassau County,NY,NA,NA,NA,93.02325581395348
11692,Queens County,NY,NA,59.33977455716586,NA,NA
11706,Suffolk County,NY,NA,51.61030595813204,NA,NA
11720,Suffolk County,NY,NA,74.39613526570048,NA,NA
11735,Nassau County,NY,NA,65.13687600644123,NA,NA
11746,Suffolk County,NY,NA,59.50080515297906,NA,32.299741602067186
11751,Suffolk County,NY,NA,72.62479871175523,NA,NA
11754,Suffolk County,NY,NA,64.4122383252818,NA,NA
11755,Suffolk County,NY,NA,NA,79.26960257787326,NA
11776,Suffolk County,NY,NA,NA,91.83673469387756,NA
11782,Suffolk County,NY,NA,84.38003220611915,NA,NA
11788,Suffolk County,NY,NA,49.19484702093398,NA,NA
11790,Suffolk County,NY,NA,NA,73.46938775510205,NA
11801,Nassau County,NY,NA,38.08373590982287,NA,NA
11901,Suffolk County,NY,NA,NA,43.17937701396348,NA
11933,Suffolk County,NY,NA,NA,NA,82.94573643410853
11934,Suffolk County,NY,NA,84.70209339774557,NA,96.38242894056847
11937,Suffolk County,NY,NA,88.32528180354268,NA,90.18087855297158
11940,Suffolk County,NY,NA,NA,89.04403866809882,NA
11944,Suffolk County,NY,NA,NA,NA,70.80103359173127
11949,Suffolk County,NY,NA,NA,NA,75.45219638242894
11950,Suffolk County,NY,57.74193548387097,NA,NA,NA
11961,Suffolk County,NY,NA,NA,44.25349087003222,NA
11963,Suffolk County,NY,NA,NA,82.70676691729322,NA
11968,Suffolk County,NY,NA,NA,76.5843179377014,72.86821705426357
12009,Albany County,NY,NA,NA,87.0032223415682,NA
12010,Montgomery County,NY,NA,3.6231884057971016,NA,NA
12019,Saratoga County,NY,NA,NA,43.609022556390975,NA
12020,Saratoga County,NY,NA,68.27697262479872,17.508055853920514,NA
12033,Rensselaer County,NY,NA,77.05314009661835,NA,NA
12043,Schoharie County,NY,NA,NA,54.02792696025779,NA
12047,Albany County,NY,NA,40.01610305958132,NA,NA
12054,Albany County,NY,93.87096774193549,NA,83.78088077336197,NA
12061,Rensselaer County,NY,78.06451612903226,NA,NA,NA
12065,Saratoga County,NY,NA,90.82125603864735,NA,NA
12074,Saratoga County,NY,NA,87.43961352657004,NA,NA
12075,Columbia County,NY,NA,NA,97.95918367346938,NA
12078,Fulton County,NY,NA,23.993558776167472,NA,NA
12093,Schoharie County,NY,NA,NA,95.3813104189044,NA
12095,Fulton County,NY,NA,NA,21.052631578947366,NA
12118,Saratoga County,NY,NA,66.98872785829307,36.84210526315789,87.85529715762273
12122,Schoharie County,NY,NA,75.84541062801932,NA,NA
12123,Rensselaer County,NY,NA,83.41384863123994,NA,92.24806201550388
12148,Saratoga County,NY,NA,NA,98.38882921589689,NA
12157,Schoharie County,NY,NA,NA,92.58861439312567,NA
12159,Albany County,NY,NA,88.00322061191626,NA,NA
12170,Saratoga County,NY,NA,91.78743961352657,NA,NA
12180,Rensselaer County,NY,22.58064516129032,19.162640901771336,26.53061224489796,NA
12182,Rensselaer County,NY,NA,30.998389694041865,35.9828141783029,NA
12183,Albany County,NY,NA,NA,97.63694951664877,NA
12184,Columbia County,NY,39.67741935483871,NA,88.93662728249194,NA
12185,Rensselaer County,NY,NA,97.42351046698873,NA,NA
12186,Albany County,NY,NA,NA,NA,83.4625322997416
12188,Saratoga County,NY,76.77419354838709,NA,NA,NA
12189,Albany County,NY,NA,83.73590982286635,NA,NA
12203,Albany County,NY,49.354838709677416,NA,NA,NA
12205,Albany County,NY,35.483870967741936,NA,NA,NA
12206,Albany County,NY,NA,11.996779388083736,NA,NA
12211,Albany County,NY,NA,NA,56.283566058002144,NA
12302,Schenectady County,NY,NA,NA,43.07196562835661,NA
12303,Schenectady County,NY,NA,23.10789049919485,29.64554242749731,NA
12306,Schenectady County,NY,NA,20.37037037037037,NA,NA
12308,Schenectady County,NY,36.45161290322581,NA,NA,NA
12309,Schenectady County,NY,71.29032258064515,51.12721417069244,45.005370569280345,NA
12401,Ulster County,NY,NA,12.80193236714976,NA,56.58914728682171
12413,Greene County,NY,NA,94.20289855072464,NA,NA
12414,Greene County,NY,NA,32.2061191626409,68.74328678839957,NA
12428,Ulster County,NY,NA,67.14975845410628,NA,NA
12477,Ulster County,NY,NA,NA,77.33619763694952,NA
12498,Ulster County,NY,NA,96.85990338164251,79.16219119226639,NA
12508,Dutchess County,NY,NA,NA,58.64661654135338,59.9483204134367
12522,Dutchess County,NY,NA,NA,74.75832438238453,95.34883720930233
12533,Dutchess County,NY,NA,82.2061191626409,70.56928034371643,NA
12534,Columbia County,NY,53.5483870967742,64.4927536231884,72.50268528464017,NA
12538,Dutchess County,NY,NA,NA,NA,43.15245478036176
12549,Orange County,NY,NA,NA,NA,95.09043927648578
12550,Orange County,NY,NA,NA,NA,72.86821705426357
12561,Ulster County,NY,NA,77.69726247987117,88.50698174006445,NA
12571,Dutchess County,NY,NA,NA,NA,94.57364341085271
12572,Dutchess County,NY,NA,NA,NA,63.82428940568475
12580,Dutchess County,NY,NA,NA,89.15145005370569,NA
12701,Sullivan County,NY,NA,26.972624798711752,NA,NA
12754,Sullivan County,NY,80.64516129032258,NA,NA,NA
12801,Warren County,NY,NA,32.447665056360705,NA,NA
12803,Saratoga County,NY,59.03225806451613,46.2157809983897,NA,NA
12804,Warren County,NY,NA,20.209339774557165,NA,NA
12816,Washington County,NY,NA,NA,91.72932330827066,NA
12817,Warren County,NY,99.35483870967742,NA,92.4812030075188,NA
12827,Washington County,NY,NA,88.16425120772948,NA,NA
12828,Washington County,NY,NA,68.19645732689212,NA,NA
12831,Saratoga County,NY,NA,28.34138486312399,NA,72.60981912144703
12832,Washington County,NY,68.38709677419355,NA,70.03222341568205,NA
12833,Saratoga County,NY,NA,NA,92.0515574650913,NA
12834,Washington County,NY,NA,73.26892109500805,53.383458646616546,NA
12839,Washington County,NY,NA,16.666666666666664,NA,NA
12845,Warren County,NY,NA,88.80837359098228,63.1578947368421,NA
12865,Washington County,NY,NA,NA,91.40708915145005,NA
12866,Saratoga County,NY,17.419354838709676,8.132045088566828,NA,NA
12871,Saratoga County,NY,NA,NA,96.02577873254565,NA
12885,Warren County,NY,NA,NA,96.45542427497314,NA
12887,Washington County,NY,70,NA,NA,NA
12901,Clinton County,NY,NA,NA,19.441460794844254,NA
12920,Franklin County,NY,NA,81.32045088566827,NA,NA
12926,Franklin County,NY,NA,NA,87.64769065520946,NA
12953,Franklin County,NY,NA,NA,13.10418904403867,NA
12972,Clinton County,NY,NA,NA,54.88721804511278,NA
12981,Clinton County,NY,NA,98.63123993558777,NA,NA
12983,Franklin County,NY,68.38709677419355,NA,NA,NA
13027,Onondaga County,NY,19.032258064516128,26.08695652173913,NA,NA
13032,Madison County,NY,NA,NA,58.53920515574651,NA
13033,Cayuga County,NY,NA,NA,92.26638023630504,NA
13041,Onondaga County,NY,NA,47.987117552334944,NA,NA
13045,Cortland County,NY,NA,12.47987117552335,6.229860365198711,NA
13053,Tompkins County,NY,66.45161290322581,NA,NA,NA
13066,Onondaga County,NY,47.41935483870968,45.65217391304348,NA,NA
13068,Tompkins County,NY,NA,58.534621578099845,NA,NA
13069,Oswego County,NY,NA,3.784219001610306,NA,NA
13074,Oswego County,NY,NA,87.60064412238326,NA,NA
13084,Onondaga County,NY,NA,85.02415458937197,NA,NA
13090,Onondaga County,NY,NA,NA,19.11922663802363,NA
13108,Onondaga County,NY,NA,85.5877616747182,NA,NA
13126,Oswego County,NY,3.5483870967741935,22.624798711755233,4.511278195488721,NA
13131,Oswego County,NY,NA,73.99355877616746,84.64017185821697,NA
13142,Oswego County,NY,NA,46.77938808373591,NA,NA
13148,Seneca County,NY,62.58064516129033,NA,NA,NA
13159,Onondaga County,NY,73.87096774193549,NA,NA,NA
13202,Onondaga County,NY,NA,77.61674718196457,NA,NA
13203,Onondaga County,NY,NA,11.43317230273752,NA,NA
13209,Onondaga County,NY,NA,NA,75.83243823845328,NA
13215,Onondaga County,NY,49.354838709677416,60.547504025764894,36.4124597207304,NA
13304,Oneida County,NY,NA,98.87278582930756,NA,NA
13309,Oneida County,NY,88.06451612903226,NA,NA,NA
13326,Otsego County,NY,NA,NA,41.03114930182599,NA
13327,Lewis County,NY,NA,91.30434782608695,NA,NA
13339,Montgomery County,NY,NA,35.26570048309179,37.70139634801289,NA
13346,Madison County,NY,NA,44.36392914653784,65.3061224489796,58.139534883720934
13350,Herkimer County,NY,NA,NA,51.23523093447906,NA
13363,Oneida County,NY,NA,89.21095008051529,NA,NA
13365,Herkimer County,NY,27.09677419354839,21.336553945249598,NA,NA
13413,Oneida County,NY,NA,NA,NA,21.963824289405682
13421,Madison County,NY,NA,37.19806763285024,NA,NA
13438,Oneida County,NY,NA,NA,80.55853920515574,NA
13440,Oneida County,NY,NA,7.809983896940419,NA,NA
13452,Montgomery County,NY,NA,66.66666666666666,86.68098818474759,NA
13492,Oneida County,NY,42.25806451612903,NA,34.58646616541353,NA
13617,St. Lawrence County,NY,NA,NA,83.35123523093448,NA
13619,Jefferson County,NY,NA,56.84380032206119,NA,NA
13642,St. Lawrence County,NY,NA,NA,67.02470461868958,NA
13660,St. Lawrence County,NY,NA,89.13043478260869,NA,NA
13662,St. Lawrence County,NY,NA,5.233494363929147,NA,NA
13667,St. Lawrence County,NY,NA,66.50563607085346,NA,NA
13676,St. Lawrence County,NY,NA,NA,28.678839957035446,NA
13730,Chenango County,NY,NA,NA,92.69602577873255,NA
13732,Tioga County,NY,NA,69.80676328502415,57.67991407089151,NA
13734,Tioga County,NY,NA,NA,92.15896885069817,NA
13746,Broome County,NY,NA,75.44283413848632,NA,NA
13748,Broome County,NY,NA,74.8792270531401,NA,NA
13753,Delaware County,NY,NA,NA,58.21697099892589,NA
13760,Broome County,NY,NA,51.93236714975845,20.945220193340493,0.7751937984496124
13778,Chenango County,NY,NA,69.08212560386472,NA,NA
13783,Delaware County,NY,NA,99.43639291465378,97.20730397422128,NA
13790,Broome County,NY,NA,5.636070853462158,NA,NA
13815,Chenango County,NY,NA,26.570048309178745,NA,NA
13820,Otsego County,NY,NA,36.07085346215781,39.63480128893663,41.60206718346253
13825,Otsego County,NY,NA,NA,85.06981740064447,NA
13827,Tioga County,NY,NA,35.42673107890499,NA,NA
13830,Chenango County,NY,59.354838709677416,NA,57.78732545649839,NA
13833,Broome County,NY,NA,53.945249597423505,NA,NA
13849,Otsego County,NY,NA,NA,78.41031149301826,NA
13850,Broome County,NY,16.451612903225808,NA,44.14607948442535,50.90439276485789
13865,Broome County,NY,NA,29.790660225442835,50.805585392051555,NA
13901,Broome County,NY,10,NA,16.756176154672396,NA
13905,Broome County,NY,NA,32.367149758454104,3.22234156820623,NA
14009,Wyoming County,NY,NA,90.17713365539453,NA,NA
14063,Chautauqua County,NY,NA,24.637681159420293,NA,NA
14080,Erie County,NY,NA,NA,92.9108485499463,NA
14120,Niagara County,NY,NA,3.140096618357488,NA,NA
14131,Niagara County,NY,NA,60.789049919484704,NA,NA
14138,Cattaraugus County,NY,96.12903225806451,NA,NA,NA
14174,Niagara County,NY,NA,NA,59.3984962406015,NA
14216,Erie County,NY,NA,17.23027375201288,NA,NA
14304,Niagara County,NY,NA,NA,15.145005370569281,NA
14305,Niagara County,NY,NA,NA,23.523093447905477,NA
14411,Orleans County,NY,NA,16.505636070853463,NA,NA
14420,Monroe County,NY,NA,27.77777777777778,NA,NA
14424,Ontario County,NY,NA,1.6908212560386473,6.659505907626208,NA
14450,Monroe County,NY,34.516129032258064,NA,NA,NA
14456,Ontario County,NY,NA,NA,19.656283566058004,NA
14472,Monroe County,NY,NA,29.549114331723025,NA,NA
14482,Genesee County,NY,NA,60.6280193236715,NA,NA
14485,Livingston County,NY,NA,62.23832528180354,NA,NA
14487,Livingston County,NY,NA,57.2463768115942,41.997851772287866,NA
14489,Wayne County,NY,NA,61.111111111111114,NA,NA
14502,Wayne County,NY,19.67741935483871,NA,NA,NA
14512,Ontario County,NY,NA,54.66988727858293,NA,NA
14513,Wayne County,NY,NA,3.542673107890499,NA,NA
14522,Wayne County,NY,NA,20.77294685990338,NA,NA
14526,Monroe County,NY,NA,27.455716586151368,NA,NA
14527,Yates County,NY,NA,16.344605475040257,17.937701396348015,NA
14534,Monroe County,NY,2.903225806451613,NA,1.288936627282492,NA
14543,Monroe County,NY,NA,90.09661835748793,NA,NA
14544,Yates County,NY,NA,87.03703703703704,NA,NA
14564,Ontario County,NY,20,11.594202898550725,36.30504833512352,NA
14568,Wayne County,NY,NA,NA,61.65413533834586,NA
14569,Wyoming County,NY,NA,NA,44.575725026852844,NA
14580,Monroe County,NY,NA,17.7938808373591,0.10741138560687433,1.03359173126615
14590,Wayne County,NY,NA,27.133655394524958,NA,NA
14606,Monroe County,NY,NA,NA,8.378088077336198,NA
14607,Monroe County,NY,NA,31.80354267310789,NA,NA
14617,Monroe County,NY,NA,39.371980676328505,NA,NA
14618,Monroe County,NY,8.709677419354838,NA,8.270676691729323,NA
14620,Monroe County,NY,NA,83.57487922705315,NA,NA
14621,Monroe County,NY,NA,3.9452495974235107,NA,NA
14622,Monroe County,NY,NA,36.87600644122383,NA,NA
14624,Monroe County,NY,NA,NA,26.423200859291086,NA
14625,Monroe County,NY,NA,NA,31.041890440386684,NA
14709,Allegany County,NY,NA,NA,96.6702470461869,NA
14715,Allegany County,NY,NA,NA,90.44038668098818,NA
14727,Allegany County,NY,NA,53.3816425120773,NA,NA
14760,Cattaraugus County,NY,NA,NA,8.915145005370569,NA
14801,Steuben County,NY,NA,86.47342995169082,NA,NA
14809,Steuben County,NY,90.96774193548387,NA,NA,NA
14817,Tompkins County,NY,NA,NA,95.05907626208379,NA
14830,Steuben County,NY,NA,NA,48.764769065520944,NA
14840,Steuben County,NY,NA,NA,63.26530612244898,96.12403100775194
14843,Steuben County,NY,NA,NA,79.80665950590763,NA
14845,Chemung County,NY,11.935483870967742,96.94041867954911,NA,NA
14847,Seneca County,NY,NA,77.85829307568439,NA,NA
14850,Tompkins County,NY,NA,76.81159420289855,36.94951664876477,NA
14867,Tompkins County,NY,NA,68.03542673107891,NA,NA
14870,Steuben County,NY,NA,39.291465378421904,NA,NA
14871,Chemung County,NY,89.03225806451613,NA,77.55102040816327,NA
14882,Tompkins County,NY,NA,67.31078904991948,NA,NA
14886,Tompkins County,NY,NA,69.00161030595812,48.01288936627282,NA
14891,Schuyler County,NY,NA,NA,55.316863587540276,NA
14905,Chemung County,NY,NA,81.56199677938808,NA,NA
27012,Forsyth County,NC,52.58064516129032,NA,NA,NA
27043,Stokes County,NC,55.16129032258065,NA,NA,NA
27244,Alamance County,NC,NA,NA,59.183673469387756,NA
27262,Guilford County,NC,NA,24.315619967793882,NA,NA
27265,Guilford County,NC,NA,NA,NA,20.41343669250646
27312,Chatham County,NC,NA,NA,12.352309344790548,NA
27510,Orange County,NC,NA,39.049919484702095,NA,NA
27514,Orange County,NC,78.70967741935485,NA,NA,NA
27524,Johnston County,NC,NA,NA,52.41675617615468,NA
27529,Wake County,NC,NA,14.895330112721417,NA,NA
27572,Person County,NC,NA,71.33655394524959,68.85069817400644,NA
27591,Wake County,NC,NA,65.05636070853463,NA,NA
27610,Wake County,NC,2.258064516129032,NA,NA,NA
27614,Wake County,NC,NA,71.5780998389694,66.80988184747582,NA
27712,Durham County,NC,NA,49.43639291465378,NA,NA
27803,Nash County,NC,NA,NA,31.364124597207304,NA
27858,Pitt County,NC,29.03225806451613,NA,NA,NA
27886,Edgecombe County,NC,NA,22.22222222222222,NA,NA
27889,Beaufort County,NC,NA,NA,15.037593984962406,NA
27890,Halifax County,NC,NA,92.5925925925926,NA,NA
27892,Martin County,NC,NA,29.146537842190018,NA,NA
28117,Iredell County,NC,NA,NA,50.161117078410314,NA
28120,Gaston County,NC,NA,NA,NA,78.55297157622739
28127,Stanly County,NC,NA,NA,62.83566058002148,NA
28214,Mecklenburg County,NC,NA,78.90499194847021,NA,NA
28227,Mecklenburg County,NC,NA,12.077294685990339,NA,NA
28278,Mecklenburg County,NC,NA,NA,60.36519871106337,NA
28337,Bladen County,NC,NA,45.491143317230275,NA,NA
28339,Harnett County,NC,NA,NA,75.93984962406014,NA
28348,Cumberland County,NC,15.806451612903224,NA,NA,NA
28376,Hoke County,NC,NA,18.92109500805153,NA,NA
28411,New Hanover County,NC,NA,NA,98.92588614393125,NA
28443,Pender County,NC,NA,64.97584541062803,NA,NA
28460,Onslow County,NC,NA,NA,81.203007518797,NA
28540,Onslow County,NC,NA,15.619967793880837,NA,NA
28601,Catawba County,NC,NA,8.293075684380032,NA,NA
28712,Transylvania County,NC,NA,31.15942028985507,NA,NA
28734,Macon County,NC,NA,NA,25.99355531686359,NA
28792,Henderson County,NC,11.29032258064516,NA,NA,NA
28906,Cherokee County,NC,NA,NA,19.011815252416756,NA
58601,Stark County,ND,28.064516129032256,NA,NA,NA
43050,Knox County,OH,NA,5.072463768115942,NA,NA
43056,Licking County,OH,27.741935483870968,NA,NA,NA
43074,Delaware County,OH,NA,NA,69.92481203007519,NA
43078,Champaign County,OH,NA,21.175523349436393,NA,NA
43102,Fairfield County,OH,NA,NA,96.88506981740065,NA
43212,Franklin County,OH,NA,55.394524959742355,NA,NA
43228,Franklin County,OH,NA,2.254428341384863,NA,NA
43229,Franklin County,OH,NA,NA,NA,18.6046511627907
43338,Morrow County,OH,NA,38.727858293075684,NA,NA
43351,Wyandot County,OH,NA,24.71819645732689,NA,NA
43545,Henry County,OH,NA,42.7536231884058,NA,NA
43551,Wood County,OH,NA,7.729468599033816,NA,NA
43571,Lucas County,OH,NA,84.94363929146537,NA,NA
43604,Lucas County,OH,NA,25.0402576489533,NA,NA
43615,Lucas County,OH,NA,88.56682769726248,NA,NA
43725,Guernsey County,OH,NA,8.53462157809984,NA,NA
43917,Jefferson County,OH,NA,98.06763285024155,NA,NA
43920,Columbiana County,OH,6.774193548387098,NA,NA,NA
43935,Belmont County,OH,NA,29.38808373590982,NA,NA
43944,Jefferson County,OH,NA,NA,77.0139634801289,NA
43950,Belmont County,OH,NA,NA,NA,24.8062015503876
43952,Jefferson County,OH,36.774193548387096,NA,6.981740064446831,NA
43953,Jefferson County,OH,NA,20.531400966183575,NA,NA
44003,Ashtabula County,OH,NA,71.01449275362319,NA,NA
44012,Lorain County,OH,NA,NA,NA,6.2015503875969
44023,Geauga County,OH,NA,NA,30.71965628356606,NA
44030,Ashtabula County,OH,NA,NA,10.311493018259936,NA
44039,Lorain County,OH,NA,NA,1.8259935553168638,NA
44054,Lorain County,OH,NA,NA,26.638023630504833,NA
44060,Lake County,OH,NA,NA,0.5370569280343717,NA
44067,Summit County,OH,NA,85.18518518518519,NA,NA
44090,Lorain County,OH,NA,NA,30.182599355531686,NA
44094,Lake County,OH,NA,11.03059581320451,NA,NA
44105,Cuyahoga County,OH,NA,4.26731078904992,NA,NA
44109,Cuyahoga County,OH,NA,3.22061191626409,NA,NA
44135,Cuyahoga County,OH,1.935483870967742,NA,NA,NA
44140,Cuyahoga County,OH,NA,NA,19.978517722878625,NA
44149,Cuyahoga County,OH,NA,NA,NA,12.144702842377262
44202,Portage County,OH,NA,NA,NA,6.976744186046512
44223,Summit County,OH,NA,NA,NA,28.940568475452196
44256,Medina County,OH,NA,NA,0.322234156820623,NA
44281,Medina County,OH,NA,35.02415458937198,NA,NA
44306,Summit County,OH,NA,5.958132045088567,NA,NA
44432,Columbiana County,OH,NA,41.78743961352657,NA,NA
44481,Trumbull County,OH,NA,16.264090177133657,NA,NA
44491,Trumbull County,OH,NA,97.58454106280193,NA,NA
44601,Stark County,OH,NA,4.830917874396135,NA,NA
44618,Wayne County,OH,NA,NA,93.87755102040816,NA
44657,Stark County,OH,61.935483870967744,NA,NA,NA
44708,Stark County,OH,NA,NA,22.12674543501611,NA
44718,Stark County,OH,NA,62.88244766505636,NA,NA
44805,Ashland County,OH,NA,NA,3.329752953813104,NA
44820,Crawford County,OH,NA,13.446054750402576,NA,NA
44903,Richland County,OH,NA,NA,12.459720730397422,NA
45011,Butler County,OH,0,NA,NA,NA
45036,Warren County,OH,5.806451612903226,NA,NA,NA
45040,Warren County,OH,4.838709677419355,NA,NA,NA
45640,Jackson County,OH,NA,4.5893719806763285,NA,NA
45784,Washington County,OH,NA,51.77133655394525,NA,NA
45844,Putnam County,OH,NA,83.41384863123994,NA,NA
73069,Cleveland County,OK,NA,43.39774557165861,NA,NA
73110,Oklahoma County,OK,NA,10.950080515297907,NA,NA
73115,Oklahoma County,OK,NA,37.92270531400966,NA,NA
74003,Osage County,OK,NA,42.19001610305958,NA,NA
74014,Wagoner County,OK,NA,22.06119162640902,16.004296455424274,NA
74016,Rogers County,OK,82.25806451612904,NA,NA,NA
74578,Latimer County,OK,NA,87.52012882447666,NA,NA
97080,Multnomah County,OR,NA,NA,NA,29.97416020671835
97123,Washington County,OR,NA,12.560386473429952,NA,NA
97211,Multnomah County,OR,NA,26.73107890499195,NA,NA
97212,Multnomah County,OR,NA,NA,78.51772287862514,NA
97229,Washington County,OR,NA,72.38325281803543,NA,NA
97370,Benton County,OR,NA,79.79066022544283,NA,NA
97386,Linn County,OR,NA,30.112721417069245,NA,NA
97402,Lane County,OR,NA,12.399355877616747,NA,NA
97423,Coos County,OR,76.77419354838709,NA,NA,NA
97459,Coos County,OR,NA,65.37842190016103,NA,NA
97470,Douglas County,OR,NA,19.001610305958135,NA,NA
97471,Douglas County,OR,NA,NA,4.189044038668099,NA
97504,Jackson County,OR,NA,12.640901771336555,NA,NA
97701,Deschutes County,OR,42.58064516129032,NA,NA,NA
97703,Deschutes County,OR,NA,NA,76.90655209452201,NA
97756,Deschutes County,OR,NA,NA,13.426423200859292,NA
97827,Union County,OR,NA,95.57165861513688,NA,NA
15003,Beaver County,PA,NA,NA,NA,55.55555555555556
15010,Beaver County,PA,NA,34.21900161030596,NA,NA
15017,Allegheny County,PA,32.25806451612903,NA,NA,NA
15021,Washington County,PA,NA,75.76489533011272,NA,NA
15044,Allegheny County,PA,61.61290322580645,40.41867954911433,NA,48.06201550387597
15065,Allegheny County,PA,NA,71.09500805152979,47.475832438238456,NA
15066,Beaver County,PA,71.29032258064515,NA,50.05370569280344,NA
15068,Westmoreland County,PA,35.483870967741936,47.02093397745571,44.79054779806659,NA
15084,Allegheny County,PA,NA,46.3768115942029,NA,NA
15085,Westmoreland County,PA,NA,72.06119162640901,NA,NA
15101,Allegheny County,PA,NA,46.69887278582931,NA,35.917312661498705
15106,Allegheny County,PA,NA,37.11755233494364,NA,NA
15129,Allegheny County,PA,NA,93.23671497584542,NA,NA
15136,Allegheny County,PA,NA,18.59903381642512,NA,NA
15146,Allegheny County,PA,NA,NA,NA,24.031007751937985
15147,Allegheny County,PA,NA,NA,NA,45.47803617571059
15205,Allegheny County,PA,NA,28.5829307568438,NA,NA
15206,Allegheny County,PA,NA,10.38647342995169,NA,NA
15209,Allegheny County,PA,NA,64.573268921095,74.54350161117078,NA
15214,Allegheny County,PA,47.74193548387097,NA,66.16541353383458,NA
15215,Allegheny County,PA,NA,82.1256038647343,NA,NA
15221,Allegheny County,PA,NA,NA,16.219119226638025,NA
15234,Allegheny County,PA,NA,69.96779388083736,NA,NA
15237,Allegheny County,PA,NA,NA,58.43179377013964,NA
15238,Allegheny County,PA,NA,NA,35.660580021482275,NA
15239,Allegheny County,PA,NA,65.53945249597423,NA,NA
15301,Washington County,PA,NA,4.3478260869565215,NA,NA
15323,Washington County,PA,NA,NA,88.39957035445757,NA
15501,Somerset County,PA,NA,35.990338164251206,NA,NA
15522,Bedford County,PA,54.516129032258064,41.54589371980676,31.90118152524167,NA
15537,Bedford County,PA,NA,62.80193236714976,NA,NA
15601,Westmoreland County,PA,14.516129032258066,48.792270531400966,9.452201933404941,0.516795865633075
15610,Westmoreland County,PA,NA,92.27053140096618,NA,NA
15627,Westmoreland County,PA,NA,91.06280193236715,57.03544575725027,NA
15632,Westmoreland County,PA,NA,73.99355877616746,NA,NA
15642,Westmoreland County,PA,NA,69.64573268921094,21.267454350161117,4.3927648578811365
15644,Westmoreland County,PA,NA,78.26086956521739,NA,NA
15650,Westmoreland County,PA,42.90322580645161,8.776167471819646,NA,8.010335917312661
15656,Westmoreland County,PA,NA,NA,82.16970998925886,85.01291989664082
15658,Westmoreland County,PA,NA,56.84380032206119,NA,50.129198966408275
15668,Westmoreland County,PA,NA,62.64090177133655,NA,NA
15701,Indiana County,PA,39.67741935483871,49.67793880837359,52.84640171858217,NA
15714,Cambria County,PA,95.80645161290322,80.19323671497585,NA,NA
15717,Indiana County,PA,NA,NA,71.42857142857143,NA
15748,Indiana County,PA,NA,71.33655394524959,69.81740064446831,NA
15767,Jefferson County,PA,36.774193548387096,67.6328502415459,20.622986036519872,NA
15774,Indiana County,PA,NA,96.1352657004831,NA,NA
15801,Clearfield County,PA,NA,52.81803542673108,51.4500537056928,NA
15824,Jefferson County,PA,56.12903225806451,NA,NA,41.86046511627907
15834,Cameron County,PA,67.0967741935484,NA,NA,NA
15851,Jefferson County,PA,NA,NA,40.923737916219125,NA
15853,Elk County,PA,NA,67.9549114331723,40.70891514500537,NA
15857,Elk County,PA,54.19354838709678,66.18357487922705,28.24919441460795,NA
15901,Cambria County,PA,83.22580645161291,NA,NA,NA
15902,Cambria County,PA,NA,25.684380032206118,NA,NA
15905,Cambria County,PA,53.2258064516129,NA,NA,NA
15906,Cambria County,PA,NA,36.39291465378422,50.26852846401718,NA
15909,Cambria County,PA,NA,NA,67.02470461868958,NA
15935,Somerset County,PA,NA,NA,98.06659505907626,NA
15946,Cambria County,PA,NA,NA,71.21374865735768,NA
15963,Somerset County,PA,NA,43.88083735909823,NA,NA
16001,Butler County,PA,10.967741935483872,64.65378421900161,37.16433941997852,NA
16002,Butler County,PA,NA,36.795491143317236,67.56176154672396,NA
16023,Butler County,PA,NA,85.74879227053141,NA,64.34108527131784
16025,Butler County,PA,76.77419354838709,71.1755233494364,74.32867883995704,NA
16046,Butler County,PA,NA,NA,NA,43.15245478036176
16056,Butler County,PA,NA,88.40579710144928,75.08055853920516,NA
16057,Butler County,PA,NA,80.91787439613528,NA,NA
16063,Butler County,PA,NA,87.35909822866344,NA,NA
16066,Butler County,PA,NA,NA,27.712137486573578,32.81653746770026
16101,Lawrence County,PA,NA,4.186795491143317,NA,NA
16117,Lawrence County,PA,NA,32.608695652173914,NA,NA
16127,Mercer County,PA,NA,NA,78.73254564983888,NA
16137,Mercer County,PA,NA,90.41867954911433,NA,NA
16201,Armstrong County,PA,69.6774193548387,80.03220611916264,6.874328678839957,NA
16214,Clarion County,PA,NA,53.864734299516904,NA,NA
16226,Armstrong County,PA,70,NA,NA,77.2609819121447
16229,Armstrong County,PA,NA,NA,NA,78.0361757105943
16248,Clarion County,PA,99.67741935483872,NA,NA,NA
16254,Clarion County,PA,NA,94.60547504025764,NA,NA
16301,Venango County,PA,NA,NA,29.53813104189044,NA
16316,Crawford County,PA,NA,NA,51.77228786251342,NA
16323,Venango County,PA,NA,NA,NA,33.33333333333333
16335,Crawford County,PA,NA,48.06763285024155,55.746509129967784,NA
16354,Crawford County,PA,53.87096774193548,92.9951690821256,49.516648764769066,NA
16365,Warren County,PA,NA,NA,NA,24.54780361757106
16403,Crawford County,PA,NA,73.59098228663447,NA,NA
16428,Erie County,PA,NA,NA,NA,78.29457364341084
16433,Crawford County,PA,NA,NA,72.71750805585391,NA
16601,Blair County,PA,NA,5.71658615136876,53.49087003222341,21.188630490956072
16635,Blair County,PA,NA,56.44122383252817,NA,NA
16648,Blair County,PA,NA,77.21417069243157,24.06015037593985,NA
16651,Clearfield County,PA,NA,90.74074074074075,NA,NA
16652,Huntingdon County,PA,29.03225806451613,49.59742351046699,NA,80.62015503875969
16662,Blair County,PA,NA,94.12238325281803,NA,NA
16686,Blair County,PA,38.387096774193544,38.405797101449274,NA,NA
16701,McKean County,PA,9.032258064516128,10.225442834138486,42.42749731471536,NA
16735,McKean County,PA,82.25806451612904,NA,NA,NA
16743,McKean County,PA,NA,NA,78.19548872180451,NA
16749,McKean County,PA,NA,77.69726247987117,NA,80.87855297157623
16801,Centre County,PA,26.7741935483871,23.42995169082126,47.26100966702471,NA
16823,Centre County,PA,NA,34.29951690821256,11.170784103114931,NA
16828,Centre County,PA,NA,73.26892109500805,NA,NA
16830,Clearfield County,PA,NA,74.15458937198068,82.16970998925886,NA
16833,Clearfield County,PA,NA,NA,67.99140708915145,NA
16858,Clearfield County,PA,NA,97.26247987117553,92.80343716433941,NA
16866,Centre County,PA,62.903225806451616,NA,52.63157894736842,NA
16870,Centre County,PA,NA,NA,87.21804511278195,NA
16875,Centre County,PA,NA,NA,90.54779806659506,NA
17003,Lebanon County,PA,NA,28.34138486312399,NA,NA
17011,Cumberland County,PA,NA,55.072463768115945,39.097744360902254,NA
17013,Cumberland County,PA,NA,NA,10.955961331901182,NA
17019,York County,PA,NA,42.351046698872786,NA,NA
17020,Perry County,PA,NA,NA,52.63157894736842,NA
17022,Lancaster County,PA,NA,9.742351046698873,NA,NA
17025,Cumberland County,PA,NA,NA,39.41997851772288,NA
17032,Dauphin County,PA,NA,85.90982286634461,NA,NA
17036,Dauphin County,PA,NA,70.85346215780999,8.055853920515576,NA
17038,Lebanon County,PA,90.32258064516128,NA,77.22878625134264,NA
17042,Lebanon County,PA,NA,3.3816425120772946,3.7593984962406015,NA
17043,Cumberland County,PA,NA,NA,84.21052631578947,NA
17044,Mifflin County,PA,NA,52.17391304347826,5.5853920515574655,NA
17045,Perry County,PA,NA,97.66505636070853,NA,NA
17046,Lebanon County,PA,NA,21.81964573268921,NA,NA
17049,Juniata County,PA,NA,NA,94.09237379162191,NA
17050,Cumberland County,PA,45.806451612903224,NA,NA,NA
17053,Perry County,PA,NA,97.02093397745571,NA,NA
17055,Cumberland County,PA,NA,18.035426731078903,11.063372717508056,30.23255813953488
17057,Dauphin County,PA,NA,NA,11.493018259935553,NA
17059,Juniata County,PA,NA,82.0450885668277,NA,NA
17061,Dauphin County,PA,NA,67.7133655394525,76.47690655209452,NA
17062,Perry County,PA,96.7741935483871,NA,NA,NA
17063,Mifflin County,PA,NA,95.89371980676329,NA,NA
17065,Cumberland County,PA,NA,NA,75.40279269602578,92.50645994832041
17068,Perry County,PA,NA,89.29146537842189,NA,NA
17070,Cumberland County,PA,NA,69.24315619967794,NA,NA
17078,Lebanon County,PA,NA,10.064412238325282,NA,NA
17084,Mifflin County,PA,81.29032258064515,NA,NA,NA
17094,Juniata County,PA,NA,NA,96.88506981740065,NA
17104,Dauphin County,PA,NA,30.917874396135264,25.77873254564984,NA
17109,Dauphin County,PA,NA,54.750402576489535,NA,NA
17110,Dauphin County,PA,NA,64.89533011272141,17.293233082706767,NA
17111,Dauphin County,PA,NA,28.09983896940419,22.341568206229862,NA
17112,Dauphin County,PA,NA,66.10305958132045,36.19763694951665,NA
17113,Dauphin County,PA,NA,54.830917874396135,NA,70.02583979328165
17201,Franklin County,PA,NA,NA,13.748657357679914,NA
17202,Franklin County,PA,74.83870967741936,NA,11.600429645542427,12.661498708010335
17222,Franklin County,PA,NA,59.25925925925925,36.51987110633727,NA
17225,Franklin County,PA,NA,37.43961352657005,NA,42.89405684754522
17233,Fulton County,PA,NA,63.20450885668277,93.34049409237379,NA
17236,Franklin County,PA,NA,NA,NA,91.98966408268734
17257,Cumberland County,PA,28.70967741935484,79.30756843800322,44.3609022556391,NA
17268,Franklin County,PA,NA,30.515297906602257,NA,NA
17307,Adams County,PA,NA,70.04830917874396,NA,NA
17313,York County,PA,NA,44.12238325281804,NA,NA
17315,York County,PA,NA,17.14975845410628,10.526315789473683,NA
17316,Adams County,PA,NA,NA,62.08378088077337,NA
17320,Adams County,PA,NA,78.8244766505636,NA,NA
17322,York County,PA,NA,NA,74.11385606874329,NA
17325,Adams County,PA,NA,14.734299516908212,3.4371643394199785,78.55297157622739
17327,York County,PA,NA,NA,NA,86.30490956072352
17329,York County,PA,NA,97.82608695652173,NA,NA
17331,York County,PA,NA,4.911433172302738,9.129967776584317,NA
17345,York County,PA,NA,NA,56.283566058002144,NA
17362,York County,PA,NA,46.13526570048309,61.546723952738994,NA
17363,York County,PA,NA,61.35265700483091,NA,NA
17366,York County,PA,NA,68.92109500805152,NA,NA
17402,York County,PA,NA,NA,6.44468313641246,NA
17403,York County,PA,NA,1.932367149758454,1.933404940923738,NA
17406,York County,PA,NA,87.27858293075684,79.37701396348012,NA
17408,York County,PA,NA,25.120772946859905,NA,13.178294573643413
17501,Lancaster County,PA,NA,82.2061191626409,NA,NA
17516,Lancaster County,PA,NA,81.80354267310788,NA,91.47286821705426
17517,Lancaster County,PA,NA,33.73590982286635,41.46079484425349,NA
17522,Lancaster County,PA,NA,15.37842190016103,7.733619763694952,NA
17538,Lancaster County,PA,NA,NA,70.35445757250268,NA
17543,Lancaster County,PA,NA,NA,7.303974221267455,NA
17545,Lancaster County,PA,NA,NA,NA,15.245478036175712
17547,Lancaster County,PA,48.38709677419355,NA,76.1546723952739,NA
17552,Lancaster County,PA,NA,NA,24.81203007518797,NA
17557,Lancaster County,PA,NA,57.00483091787439,NA,36.434108527131784
17578,Lancaster County,PA,NA,71.65861513687601,NA,NA
17601,Lancaster County,PA,NA,45.169082125603865,NA,NA
17701,Lycoming County,PA,4.193548387096775,2.9790660225442833,4.081632653061225,NA
17724,Bradford County,PA,NA,NA,83.6734693877551,NA
17740,Lycoming County,PA,NA,72.86634460547504,NA,NA
17744,Lycoming County,PA,NA,NA,95.16648764769066,NA
17745,Clinton County,PA,NA,NA,32.6530612244898,NA
17756,Lycoming County,PA,NA,NA,49.194414607948445,68.73385012919897
17777,Northumberland County,PA,NA,77.05314009661835,NA,NA
17801,Northumberland County,PA,NA,NA,NA,26.356589147286826
17814,Columbia County,PA,71.29032258064515,NA,73.25456498388829,NA
17815,Columbia County,PA,NA,NA,29.32330827067669,NA
17821,Montour County,PA,57.41935483870968,92.512077294686,NA,NA
17837,Union County,PA,NA,57.407407407407405,NA,NA
17846,Columbia County,PA,NA,99.35587761674718,NA,NA
17847,Northumberland County,PA,NA,42.028985507246375,NA,NA
17870,Snyder County,PA,NA,NA,NA,31.782945736434108
17872,Northumberland County,PA,76.45161290322581,NA,NA,NA
17922,Schuylkill County,PA,NA,NA,87.54027926960258,NA
17931,Schuylkill County,PA,NA,58.534621578099845,NA,NA
17960,Schuylkill County,PA,NA,74.55716586151368,73.14715359828142,NA
17961,Schuylkill County,PA,93.87096774193549,NA,90.11815252416756,NA
18015,Northampton County,PA,NA,43.63929146537842,NA,NA
18017,Northampton County,PA,NA,NA,2.3630504833512354,NA
18034,Lehigh County,PA,NA,NA,NA,83.97932816537468
18036,Lehigh County,PA,NA,NA,51.66487647690655,NA
18040,Northampton County,PA,NA,NA,30.290010741138563,NA
18042,Northampton County,PA,NA,NA,3.1149301825993554,NA
18049,Lehigh County,PA,44.193548387096776,53.7842190016103,29.108485499462944,NA
18052,Lehigh County,PA,NA,NA,22.234156820622985,NA
18055,Northampton County,PA,NA,75.1207729468599,NA,NA
18064,Northampton County,PA,25.161290322580644,52.25442834138486,15.35982814178303,61.240310077519375
18067,Northampton County,PA,NA,50.56360708534622,NA,NA
18071,Carbon County,PA,NA,31.88405797101449,NA,NA
18080,Lehigh County,PA,NA,NA,80.02148227712136,NA
18092,Lehigh County,PA,NA,NA,91.94414607948443,NA
18102,Lehigh County,PA,NA,0.4830917874396135,NA,NA
18103,Lehigh County,PA,0.6451612903225806,3.864734299516908,NA,NA
18104,Lehigh County,PA,NA,63.60708534621578,2.9001074113856067,NA
18201,Luzerne County,PA,NA,11.674718196457327,NA,NA
18222,Luzerne County,PA,92.25806451612904,82.5281803542673,51.98711063372718,NA
18235,Carbon County,PA,NA,NA,19.33404940923738,NA
18301,Monroe County,PA,NA,63.52657004830918,48.442534908700324,NA
18302,Monroe County,PA,NA,NA,NA,64.85788113695091
18324,Pike County,PA,92.58064516129032,NA,NA,NA
18330,Monroe County,PA,NA,NA,66.16541353383458,NA
18353,Monroe County,PA,NA,NA,46.29430719656283,NA
18360,Monroe County,PA,NA,NA,32.33082706766917,38.759689922480625
18407,Lackawanna County,PA,72.25806451612902,NA,NA,NA
18411,Lackawanna County,PA,NA,NA,38.66809881847476,NA
18419,Wyoming County,PA,NA,NA,99.5703544575725,NA
18431,Wayne County,PA,NA,99.19484702093398,39.097744360902254,NA
18444,Lackawanna County,PA,66.45161290322581,38.486312399355874,54.56498388829216,NA
18446,Wyoming County,PA,NA,98.22866344605475,NA,NA
18466,Monroe County,PA,NA,NA,49.08700322234157,NA
18472,Wayne County,PA,NA,84.78260869565217,NA,NA
18518,Lackawanna County,PA,NA,NA,56.17615467239527,NA
18603,Columbia County,PA,NA,NA,37.27175080558539,NA
18612,Luzerne County,PA,NA,76.08695652173914,NA,NA
18621,Luzerne County,PA,NA,91.14331723027375,71.1063372717508,NA
18642,Luzerne County,PA,NA,82.3671497584541,NA,NA
18644,Luzerne County,PA,NA,67.7938808373591,NA,87.59689922480621
18651,Luzerne County,PA,NA,NA,NA,52.19638242894057
18657,Wyoming County,PA,NA,86.15136876006441,NA,NA
18660,Luzerne County,PA,NA,NA,94.95166487647691,NA
18661,Luzerne County,PA,NA,65.94202898550725,57.57250268528465,NA
18702,Luzerne County,PA,NA,41.38486312399356,3.007518796992481,NA
18707,Luzerne County,PA,52.25806451612903,37.52012882447665,NA,NA
18801,Susquehanna County,PA,NA,59.01771336553945,71.9656283566058,NA
18837,Bradford County,PA,NA,95.33011272141707,NA,NA
18840,Bradford County,PA,64.83870967741936,NA,61.97636949516648,NA
18847,Susquehanna County,PA,NA,76.24798711755234,NA,NA
18848,Bradford County,PA,NA,80.27375201288245,NA,NA
18902,Bucks County,PA,NA,NA,NA,62.01550387596899
18951,Bucks County,PA,NA,NA,11.92266380236305,NA
18960,Bucks County,PA,NA,NA,45.54242749731471,NA
18966,Bucks County,PA,NA,9.903381642512077,NA,10.335917312661499
18974,Bucks County,PA,NA,50.72463768115942,NA,NA
19002,Montgomery County,PA,NA,NA,NA,64.08268733850129
19004,Montgomery County,PA,NA,NA,NA,58.656330749354005
19006,Montgomery County,PA,NA,30.193236714975846,NA,NA
19007,Bucks County,PA,NA,15.297906602254429,NA,NA
19008,Delaware County,PA,45.483870967741936,72.78582930756843,NA,NA
19010,Delaware County,PA,NA,NA,29.001074113856067,NA
19014,Delaware County,PA,32.903225806451616,NA,28.893662728249193,NA
19018,Delaware County,PA,NA,NA,NA,75.71059431524549
19020,Bucks County,PA,NA,5.394524959742351,NA,NA
19023,Delaware County,PA,NA,18.438003220611915,NA,59.43152454780362
19026,Delaware County,PA,NA,10.466988727858293,NA,NA
19033,Delaware County,PA,78.06451612903226,NA,NA,NA
19038,Montgomery County,PA,NA,21.900161030595815,NA,NA
19044,Montgomery County,PA,NA,40.90177133655394,NA,NA
19047,Bucks County,PA,NA,14.814814814814813,NA,NA
19050,Delaware County,PA,NA,17.47181964573269,NA,NA
19054,Bucks County,PA,NA,40.25764895330113,NA,NA
19061,Delaware County,PA,NA,NA,55.10204081632652,NA
19063,Delaware County,PA,NA,13.123993558776167,8.16326530612245,9.819121447028424
19072,Montgomery County,PA,NA,71.1755233494364,71.32116004296455,NA
19073,Delaware County,PA,NA,73.83252818035426,51.8796992481203,NA
19076,Delaware County,PA,NA,63.44605475040258,NA,NA
19083,Delaware County,PA,NA,16.908212560386474,NA,NA
19087,Chester County,PA,NA,59.66183574879227,NA,NA
19095,Montgomery County,PA,NA,NA,63.05048335123523,NA
19106,Philadelphia County,PA,NA,NA,NA,74.93540051679587
19119,Philadelphia County,PA,63.2258064516129,37.76167471819646,38.23845327604726,NA
19124,Philadelphia County,PA,NA,0.5636070853462157,NA,NA
19128,Philadelphia County,PA,NA,11.11111111111111,NA,NA
19136,Philadelphia County,PA,18.387096774193548,NA,NA,NA
19144,Philadelphia County,PA,NA,NA,6.337271750805586,NA
19145,Philadelphia County,PA,7.741935483870968,NA,NA,NA
19146,Philadelphia County,PA,NA,9.339774557165862,NA,NA
19147,Philadelphia County,PA,NA,NA,46.18689581095596,NA
19148,Philadelphia County,PA,NA,NA,9.344790547798066,NA
19154,Philadelphia County,PA,NA,NA,37.486573576799145,NA
19312,Chester County,PA,NA,NA,NA,43.927648578811365
19317,Delaware County,PA,NA,NA,48.764769065520944,61.75710594315246
19320,Chester County,PA,NA,45.249597423510465,48.1203007518797,17.31266149870801
19335,Chester County,PA,NA,58.293075684380035,50.483351235230934,NA
19342,Delaware County,PA,NA,NA,80.45112781954887,NA
19343,Chester County,PA,NA,96.45732689210949,85.71428571428571,91.21447028423772
19355,Chester County,PA,NA,75.68438003220612,57.35767991407089,NA
19362,Chester County,PA,NA,NA,79.0547798066595,NA
19363,Chester County,PA,NA,37.03703703703704,NA,NA
19380,Chester County,PA,NA,NA,49.40923737916219,3.10077519379845
19382,Chester County,PA,NA,8.53462157809984,5.907626208378089,16.020671834625322
19422,Montgomery County,PA,NA,NA,25.02685284640172,NA
19425,Chester County,PA,NA,83.25281803542673,95.59613319011815,NA
19426,Montgomery County,PA,NA,63.36553945249598,72.71750805585391,NA
19428,Montgomery County,PA,NA,NA,NA,61.49870801033591
19446,Montgomery County,PA,NA,27.294685990338163,NA,NA
19454,Montgomery County,PA,NA,NA,NA,33.850129198966414
19460,Chester County,PA,NA,NA,14.715359828141782,NA
19462,Montgomery County,PA,NA,28.26086956521739,NA,NA
19464,Montgomery County,PA,NA,3.7037037037037033,4.726100966702471,NA
19465,Chester County,PA,NA,73.18840579710145,NA,NA
19468,Montgomery County,PA,NA,24.154589371980677,NA,34.62532299741602
19473,Montgomery County,PA,NA,NA,55.85392051557465,75.1937984496124
19475,Chester County,PA,NA,NA,83.2438238453276,NA
19506,Berks County,PA,NA,83.65539452495975,NA,NA
19508,Berks County,PA,NA,73.10789049919485,79.484425349087,NA
19510,Berks County,PA,12.580645161290322,NA,NA,NA
19512,Berks County,PA,61.29032258064516,NA,NA,NA
19518,Berks County,PA,NA,30.273752012882447,38.45327604726101,NA
19520,Chester County,PA,NA,NA,NA,86.82170542635659
19522,Berks County,PA,NA,42.028985507246375,NA,NA
19530,Berks County,PA,NA,NA,NA,66.9250645994832
19533,Berks County,PA,NA,75.92592592592592,64.55424274973147,NA
19539,Berks County,PA,NA,NA,88.82921589688507,NA
19540,Berks County,PA,NA,85.82930756843801,41.03114930182599,NA
19560,Berks County,PA,NA,NA,NA,67.95865633074936
19601,Berks County,PA,NA,2.0933977455716586,NA,NA
19605,Berks County,PA,NA,59.98389694041868,NA,NA
19606,Berks County,PA,NA,6.280193236714976,NA,NA
19607,Berks County,PA,NA,17.06924315619968,NA,38.50129198966408
19608,Berks County,PA,NA,NA,14.822771213748656,NA
19610,Berks County,PA,NA,70.12882447665056,NA,NA
02806,Bristol County,RI,NA,51.20772946859904,NA,NA
02809,Bristol County,RI,NA,65.45893719806763,22.019334049409238,NA
02813,Washington County,RI,NA,85.34621578099839,72.28786251342643,52.19638242894057
02814,Providence County,RI,NA,NA,69.70998925886144,NA
02816,Kent County,RI,NA,16.82769726247987,69.60257787325457,NA
02817,Kent County,RI,63.87096774193548,NA,NA,NA
02818,Kent County,RI,60.64516129032258,45.088566827697264,30.397422126745433,62.7906976744186
02825,Providence County,RI,NA,93.39774557165862,92.37379162191192,88.63049095607235
02828,Providence County,RI,NA,82.76972624798712,74.97314715359829,NA
02830,Providence County,RI,87.74193548387098,NA,NA,NA
02832,Washington County,RI,NA,89.5330112721417,NA,NA
02835,Newport County,RI,NA,94.36392914653784,91.08485499462942,89.14728682170544
02837,Newport County,RI,84.19354838709677,90.90177133655395,NA,NA
02840,Newport County,RI,NA,NA,86.89581095596132,NA
02842,Newport County,RI,NA,60.06441223832528,NA,NA
02852,Washington County,RI,NA,54.106280193236714,77.87325456498388,83.20413436692506
02857,Providence County,RI,NA,NA,97.74436090225564,84.49612403100775
02860,Providence County,RI,20.64516129032258,NA,NA,NA
02864,Providence County,RI,22.903225806451612,66.58615136876006,11.385606874328678,NA
02865,Providence County,RI,NA,NA,41.35338345864661,NA
02871,Newport County,RI,NA,NA,27.175080558539204,NA
02874,Washington County,RI,NA,NA,89.25886143931257,98.70801033591732
02878,Newport County,RI,NA,58.69565217391305,63.90977443609023,NA
02879,Washington County,RI,NA,46.05475040257649,80.7733619763695,26.873385012919897
02882,Washington County,RI,NA,NA,36.62728249194414,NA
02885,Bristol County,RI,NA,91.38486312399355,NA,NA
02888,Kent County,RI,NA,NA,71.75080558539206,NA
02889,Kent County,RI,NA,54.428341384863124,NA,NA
02891,Washington County,RI,NA,76.48953301127214,76.79914070891515,65.37467700258398
02892,Washington County,RI,NA,89.29146537842189,NA,NA
02893,Kent County,RI,NA,45.73268921095008,NA,NA
02895,Providence County,RI,NA,6.843800322061192,17.722878625134264,NA
02896,Providence County,RI,NA,NA,64.76906552094522,NA
02906,Providence County,RI,82.9032258064516,NA,30.934479054779807,37.98449612403101
02908,Providence County,RI,8.064516129032258,NA,NA,NA
02909,Providence County,RI,NA,11.191626409017713,NA,NA
02910,Providence County,RI,NA,59.82286634460547,NA,NA
02914,Providence County,RI,NA,NA,NA,50.64599483204134
02915,Providence County,RI,NA,NA,NA,81.91214470284238
02919,Providence County,RI,NA,24.235104669887278,NA,NA
02920,Providence County,RI,NA,58.373590982286636,NA,NA
02921,Providence County,RI,NA,NA,65.62835660580022,NA
29112,Orangeburg County,SC,88.70967741935483,NA,NA,NA
29127,Newberry County,SC,64.19354838709678,NA,NA,NA
29440,Georgetown County,SC,NA,NA,NA,24.289405684754524
29485,Dorchester County,SC,NA,NA,20.408163265306122,NA
29527,Horry County,SC,NA,58.85668276972624,NA,NA
29585,Georgetown County,SC,NA,74.31561996779388,NA,NA
29620,Abbeville County,SC,NA,82.6086956521739,NA,NA
29642,Pickens County,SC,NA,NA,53.598281417830286,NA
29707,Lancaster County,SC,NA,57.80998389694042,NA,NA
29708,York County,SC,NA,56.763285024154584,NA,NA
29732,York County,SC,NA,NA,42.857142857142854,NA
29910,Beaufort County,SC,NA,NA,26.96025778732546,NA
57108,Lincoln County,SD,NA,NA,13.64124597207304,NA
57703,Pennington County,SD,NA,NA,60.472610096670245,NA
37027,Williamson County,TN,NA,23.752012882447666,NA,NA
37066,Sumner County,TN,NA,6.038647342995169,NA,NA
37075,Sumner County,TN,NA,56.60225442834138,22.878625134264233,NA
37122,Wilson County,TN,NA,17.713365539452496,NA,NA
37206,Davidson County,TN,NA,21.256038647342994,NA,NA
37317,Polk County,TN,NA,NA,99.140708915145,NA
37322,Meigs County,TN,NA,NA,62.620837808807735,NA
37377,Hamilton County,TN,NA,NA,13.856068743286789,NA
37643,Carter County,TN,NA,7.246376811594203,NA,NA
37716,Anderson County,TN,NA,78.98550724637681,NA,NA
37803,Blount County,TN,NA,NA,NA,14.21188630490956
37931,Knox County,TN,18.387096774193548,NA,NA,NA
38019,Tipton County,TN,NA,36.312399355877616,NA,NA
38122,Shelby County,TN,NA,NA,51.55746509129968,NA
38351,Henderson County,TN,NA,32.769726247987116,NA,NA
38506,Putnam County,TN,NA,NA,40.494092373791624,NA
38574,Putnam County,TN,NA,NA,NA,87.33850129198967
75010,Denton County,TX,NA,43.96135265700483,NA,NA
75021,Grayson County,TX,NA,NA,72.07303974221267,NA
75156,Henderson County,TX,NA,30.35426731078905,NA,NA
75159,Dallas County,TX,NA,47.34299516908212,NA,NA
75169,Van Zandt County,TX,NA,50.24154589371981,NA,NA
75224,Dallas County,TX,NA,NA,28.356605800214822,NA
75229,Dallas County,TX,30.32258064516129,NA,NA,NA
75243,Dallas County,TX,NA,8.212560386473431,NA,NA
75244,Dallas County,TX,NA,NA,68.2062298603652,NA
75650,Harrison County,TX,NA,57.729468599033815,NA,NA
75783,Wood County,TX,NA,NA,20.30075187969925,NA
75846,Leon County,TX,NA,NA,99.89258861439313,NA
76028,Johnson County,TX,NA,NA,NA,11.369509043927648
76048,Hood County,TX,NA,26.40901771336554,NA,NA
76087,Parker County,TX,NA,NA,28.678839957035446,NA
76226,Denton County,TX,96.45161290322581,NA,NA,NA
76384,Wilbarger County,TX,NA,56.038647342995176,NA,NA
77049,Harris County,TX,30.967741935483872,NA,NA,NA
77056,Harris County,TX,NA,55.716586151368766,NA,NA
77057,Harris County,TX,NA,NA,NA,48.57881136950905
77058,Harris County,TX,NA,NA,87.96992481203007,NA
77084,Harris County,TX,9.35483870967742,NA,NA,NA
77095,Harris County,TX,NA,10.305958132045088,NA,NA
77362,Montgomery County,TX,NA,NA,NA,100
77378,Montgomery County,TX,NA,79.95169082125604,NA,NA
77380,Montgomery County,TX,NA,51.04669887278583,NA,NA
77381,Montgomery County,TX,NA,NA,80.7733619763695,NA
77573,Galveston County,TX,NA,5.877616747181964,NA,NA
77632,Orange County,TX,NA,32.2866344605475,NA,NA
77662,Orange County,TX,NA,27.053140096618357,NA,NA
77665,Chambers County,TX,NA,91.78743961352657,NA,NA
77984,Lavaca County,TX,NA,NA,74.54350161117078,NA
78071,Live Oak County,TX,NA,NA,99.140708915145,NA
78249,Bexar County,TX,NA,NA,81.09559613319011,NA
78253,Bexar County,TX,NA,36.95652173913043,NA,NA
78408,Nueces County,TX,NA,NA,NA,84.75452196382429
78641,Williamson County,TX,NA,13.365539452495975,NA,NA
78727,Travis County,TX,NA,86.71497584541062,NA,NA
78729,Williamson County,TX,NA,NA,89.47368421052632,NA
78734,Travis County,TX,NA,NA,51.02040816326531,NA
78745,Travis County,TX,NA,NA,67.66917293233082,NA
78861,Medina County,TX,NA,79.22705314009661,NA,NA
78934,Colorado County,TX,NA,70.61191626409018,NA,NA
79407,Lubbock County,TX,NA,NA,45.64983888292159,NA
79549,Scurry County,TX,NA,24.798711755233494,NA,NA
79735,Pecos County,TX,NA,47.66505636070853,NA,NA
84004,Utah County,UT,75.80645161290323,NA,NA,NA
84015,Davis County,UT,NA,13.20450885668277,NA,NA
84078,Uintah County,UT,NA,9.420289855072465,84.1031149301826,NA
84093,Salt Lake County,UT,NA,NA,35.01611170784103,NA
84109,Salt Lake County,UT,54.83870967741935,42.914653784219006,NA,NA
84123,Salt Lake County,UT,NA,34.62157809983897,NA,NA
84341,Cache County,UT,NA,65.29790660225443,NA,NA
84404,Weber County,UT,NA,12.962962962962962,NA,NA
84601,Utah County,UT,NA,75.2012882447665,NA,NA
84770,Washington County,UT,NA,23.18840579710145,NA,NA
05143,Windsor County,VT,NA,NA,77.98066595059076,NA
05201,Bennington County,VT,21.935483870967744,29.468599033816425,41.67561761546724,NA
05250,Bennington County,VT,NA,NA,84.5327604726101,NA
05301,Windham County,VT,NA,NA,19.548872180451127,NA
05346,Windham County,VT,NA,NA,87.32545649838883,68.47545219638242
05401,Chittenden County,VT,39.35483870967742,NA,NA,NA
05446,Chittenden County,VT,NA,NA,NA,54.263565891472865
05452,Chittenden County,VT,NA,NA,NA,66.66666666666666
05478,Franklin County,VT,NA,NA,22.55639097744361,NA
05482,Chittenden County,VT,NA,89.77455716586151,90.65520945220193,NA
05672,Lamoille County,VT,NA,94.44444444444444,NA,NA
05701,Rutland County,VT,NA,22.86634460547504,70.67669172932331,NA
20105,Loudoun County,VA,50.32258064516129,NA,NA,NA
20109,Prince William County,VA,NA,20.128824476650564,NA,NA
20151,Fairfax County,VA,NA,72.30273752012883,NA,NA
20155,Prince William County,VA,NA,39.130434782608695,NA,NA
20164,Loudoun County,VA,25.483870967741932,26.489533011272144,46.83136412459721,NA
20170,Fairfax County,VA,NA,42.431561996779386,NA,NA
20175,Loudoun County,VA,NA,NA,54.24274973147154,NA
20176,Loudoun County,VA,NA,NA,43.39419978517723,71.83462532299741
20186,Fauquier County,VA,NA,NA,NA,53.48837209302325
20187,Fauquier County,VA,84.19354838709677,NA,NA,NA
20190,Fairfax County,VA,NA,67.06924315619968,NA,NA
20191,Fairfax County,VA,NA,53.14009661835749,NA,NA
22032,Fairfax County,VA,NA,NA,NA,58.91472868217055
22046,Falls Church city,VA,NA,NA,77.44360902255639,NA
22079,Fairfax County,VA,NA,NA,48.65735767991407,NA
22101,Fairfax County,VA,NA,NA,33.72717508055854,NA
22102,Fairfax County,VA,NA,NA,59.29108485499462,NA
22153,Fairfax County,VA,NA,NA,39.7422126745435,NA
22192,Prince William County,VA,NA,60.86956521739131,NA,NA
22205,Arlington County,VA,NA,NA,NA,74.4186046511628
22301,Alexandria city,VA,NA,53.70370370370371,NA,NA
22303,Fairfax County,VA,NA,52.89855072463768,NA,NA
22304,Alexandria city,VA,NA,8.454106280193237,NA,NA
22308,Fairfax County,VA,60.967741935483865,81.56199677938808,NA,NA
22312,Fairfax County,VA,NA,26.89210950080515,NA,NA
22315,Fairfax County,VA,41.935483870967744,36.39291465378422,NA,NA
22401,Fredericksburg city,VA,NA,NA,54.672395273899035,NA
22407,Spotsylvania County,VA,NA,NA,12.1374865735768,NA
22630,Warren County,VA,5.483870967741936,NA,65.41353383458647,NA
22657,Shenandoah County,VA,NA,97.18196457326891,NA,NA
22701,Culpeper County,VA,NA,16.022544283413847,NA,25.32299741602067
22712,Fauquier County,VA,NA,69.72624798711755,NA,NA
22802,Harrisonburg city,VA,13.548387096774196,NA,NA,NA
22901,Albemarle County,VA,NA,NA,18.259935553168635,NA
22903,Charlottesville city,VA,NA,17.55233494363929,13.211600429645543,NA
22932,Albemarle County,VA,NA,NA,NA,85.52971576227391
22942,Louisa County,VA,NA,NA,53.276047261009666,NA
23117,Louisa County,VA,NA,NA,39.52738990332975,NA
23188,James City County,VA,NA,26.65056360708535,1.7185821697099892,NA
23224,Richmond city,VA,NA,NA,63.80236305048334,NA
23229,Henrico County,VA,NA,NA,NA,19.638242894056848
23294,Henrico County,VA,NA,NA,72.07303974221267,NA
23321,Chesapeake city,VA,NA,NA,20.515574650912995,NA
23322,Chesapeake city,VA,NA,NA,42.10526315789473,NA
23323,Chesapeake city,VA,NA,21.4170692431562,NA,NA
23417,Accomack County,VA,NA,NA,88.61439312567131,NA
23430,Isle of Wight County,VA,NA,NA,21.267454350161117,NA
23452,Virginia Beach city,VA,NA,NA,NA,6.459948320413436
23936,Buckingham County,VA,NA,NA,NA,83.97932816537468
24012,Roanoke city,VA,NA,NA,57.14285714285714,NA
24014,Roanoke city,VA,NA,46.2157809983897,19.87110633727175,NA
24018,Roanoke County,VA,NA,NA,NA,7.493540051679587
24073,Montgomery County,VA,NA,52.73752012882448,NA,NA
24083,Botetourt County,VA,NA,95.97423510466989,NA,NA
24134,Giles County,VA,NA,NA,74.22126745435015,NA
24141,Radford city,VA,NA,NA,60.150375939849624,NA
24201,Bristol city,VA,NA,NA,30.075187969924812,NA
24330,Grayson County,VA,NA,80.83735909822866,NA,NA
24333,Galax city,VA,NA,29.307568438003223,NA,NA
24343,Carroll County,VA,NA,NA,NA,75.71059431524549
24382,Wythe County,VA,58.06451612903226,55.55555555555556,NA,NA
24401,Staunton city,VA,NA,NA,4.833512352309345,NA
24421,Augusta County,VA,NA,NA,68.42105263157895,NA
24523,Bedford County,VA,NA,NA,NA,28.165374677002585
24558,Halifax County,VA,NA,NA,59.3984962406015,NA
98012,Snohomish County,WA,NA,NA,NA,17.05426356589147
98028,King County,WA,NA,53.05958132045089,NA,NA
98029,King County,WA,NA,40.09661835748793,NA,NA
98032,King County,WA,NA,25.845410628019323,NA,NA
98047,King County,WA,NA,94.76650563607085,NA,NA
98122,King County,WA,NA,37.60064412238325,NA,NA
98198,King County,WA,35.16129032258065,NA,NA,NA
98221,Skagit County,WA,NA,97.74557165861513,NA,NA
98250,San Juan County,WA,NA,94.28341384863124,NA,NA
98258,Snohomish County,WA,NA,14.170692431561996,NA,NA
98274,Skagit County,WA,NA,NA,NA,26.098191214470283
98502,Thurston County,WA,NA,NA,48.97959183673469,NA
98674,Cowlitz County,WA,NA,94.84702093397746,NA,NA
99016,Spokane County,WA,NA,68.76006441223832,NA,NA
99114,Stevens County,WA,74.19354838709677,NA,NA,NA
99166,Ferry County,WA,NA,NA,93.44790547798067,NA
20003,District of Columbia,DC,NA,NA,86.57357679914071,NA
20007,District of Columbia,DC,67.74193548387096,NA,NA,NA
20010,District of Columbia,DC,49.03225806451613,33.41384863123994,NA,NA
20011,District of Columbia,DC,NA,20.45088566827697,NA,3.6175710594315245
20016,District of Columbia,DC,NA,52.65700483091788,NA,NA
20020,District of Columbia,DC,NA,1.529790660225443,NA,NA
25177,Kanawha County,WV,NA,24.9597423510467,NA,NA
25271,Jackson County,WV,NA,45.00805152979066,NA,NA
25314,Kanawha County,WV,NA,74.55716586151368,NA,NA
25403,Berkeley County,WV,NA,52.012882447665056,NA,NA
25404,Berkeley County,WV,20.32258064516129,NA,NA,NA
25411,Morgan County,WV,NA,NA,63.37271750805586,NA
25443,Jefferson County,WV,NA,NA,86.35875402792696,NA
25526,Putnam County,WV,NA,22.86634460547504,NA,NA
25705,Cabell County,WV,NA,66.82769726247987,NA,NA
26034,Hancock County,WV,NA,NA,67.23952738990333,NA
26047,Hancock County,WV,69.03225806451613,80.43478260869566,NA,NA
26101,Wood County,WV,5.161290322580645,NA,NA,NA
26142,Wood County,WV,NA,98.79227053140096,NA,NA
26201,Upshur County,WV,NA,51.85185185185185,NA,NA
26250,Barbour County,WV,NA,NA,76.26208378088077,NA
26330,Harrison County,WV,NA,NA,47.6906552094522,NA
26501,Monongalia County,WV,NA,30.75684380032206,NA,NA
26505,Monongalia County,WV,NA,35.748792270531396,NA,NA
26508,Monongalia County,WV,NA,76.57004830917874,NA,NA
26836,Hardy County,WV,NA,NA,NA,71.57622739018088
53005,Waukesha County,WI,NA,NA,NA,35.400516795865634
53012,Ozaukee County,WI,NA,NA,61.868958109559614,NA
53029,Waukesha County,WI,33.225806451612904,69.32367149758454,NA,NA
53037,Washington County,WI,NA,71.90016103059581,NA,NA
53066,Waukesha County,WI,NA,49.8389694041868,NA,NA
53090,Washington County,WI,NA,41.06280193236715,NA,NA
53094,Jefferson County,WI,NA,NA,NA,71.0594315245478
53098,Dodge County,WI,NA,NA,38.88292158968851,NA
53143,Kenosha County,WI,NA,10.789049919484702,NA,NA
53150,Waukesha County,WI,NA,NA,26.20837808807734,NA
53185,Racine County,WI,NA,38.08373590982287,NA,NA
53209,Milwaukee County,WI,NA,NA,1.1815252416756177,NA
53215,Milwaukee County,WI,NA,3.059581320450886,NA,NA
53217,Milwaukee County,WI,NA,NA,17.830290010741138,NA
53402,Racine County,WI,NA,NA,1.611170784103115,NA
53589,Dane County,WI,NA,NA,52.524167561761544,NA
53590,Dane County,WI,NA,65.78099838969405,NA,NA
53597,Dane County,WI,34.193548387096776,NA,NA,NA
53703,Dane County,WI,NA,60.38647342995169,NA,NA
53717,Dane County,WI,NA,NA,68.95810955961332,NA
53809,Grant County,WI,NA,92.02898550724638,NA,NA
53941,Sauk County,WI,NA,NA,98.81847475832438,NA
53954,Columbia County,WI,NA,79.62962962962963,NA,NA
53964,Marquette County,WI,NA,NA,100,NA
53965,Sauk County,WI,NA,47.10144927536232,NA,NA
54001,Polk County,WI,65.48387096774194,32.125603864734295,65.09129967776585,NA
54005,Polk County,WI,NA,NA,91.51450053705693,NA
54009,Polk County,WI,NA,95.73268921095008,NA,NA
54016,St. Croix County,WI,NA,55.475040257648956,33.190118152524164,NA
54017,St. Croix County,WI,NA,NA,25.456498388829218,NA
54024,Polk County,WI,NA,70.28985507246377,75.7250268528464,NA
54151,Marinette County,WI,NA,NA,NA,93.7984496124031
54302,Brown County,WI,NA,15.942028985507244,NA,NA
54406,Portage County,WI,NA,96.77938808373591,NA,NA
54452,Lincoln County,WI,48.70967741935484,80.67632850241546,NA,NA
54467,Portage County,WI,NA,NA,26.31578947368421,NA
54482,Portage County,WI,NA,66.02254428341385,NA,NA
54487,Lincoln County,WI,NA,31.964573268921093,29.752953813104188,NA
54495,Wood County,WI,31.93548387096774,NA,NA,NA
54501,Oneida County,WI,NA,59.74235104669887,NA,NA
54521,Vilas County,WI,NA,76.24798711755234,NA,NA
54538,Oneida County,WI,NA,NA,96.13319011815253,NA
54601,La Crosse County,WI,NA,NA,0.966702470461869,NA
54603,La Crosse County,WI,NA,NA,58.64661654135338,NA
54615,Jackson County,WI,NA,48.711755233494365,NA,NA
54656,Monroe County,WI,31.290322580645164,NA,NA,NA
54660,Monroe County,WI,NA,30.676328502415455,33.51235230934479,NA
54667,Vernon County,WI,76.77419354838709,NA,NA,72.09302325581395
54669,La Crosse County,WI,87.09677419354838,NA,NA,NA
54701,Eau Claire County,WI,NA,NA,14.393125671321162,NA
54703,Eau Claire County,WI,NA,34.38003220611916,NA,28.42377260981912
54724,Chippewa County,WI,NA,NA,NA,76.48578811369508
54730,Dunn County,WI,NA,NA,65.19871106337271,NA
54736,Pepin County,WI,NA,92.10950080515298,NA,NA
54758,Trempealeau County,WI,NA,NA,94.30719656283566,NA
54829,Barron County,WI,NA,NA,65.73576799140709,NA
54840,Burnett County,WI,NA,NA,64.23200859291084,NA
54843,Sawyer County,WI,NA,NA,62.40601503759399,NA
54848,Rusk County,WI,NA,95.00805152979066,NA,NA
54911,Outagamie County,WI,NA,NA,NA,55.03875968992248
54961,Waupaca County,WI,75.48387096774194,NA,NA,NA
54970,Waushara County,WI,NA,NA,91.6219119226638,NA
54981,Waupaca County,WI,NA,NA,60.150375939849624,NA
54982,Waushara County,WI,NA,NA,98.71106337271752,NA
82701,Weston County,WY,NA,91.22383252818037,NA,NA
