ZipCode,county,state,Youth,Adult,Retirement,Geriatric
35031,Blount County,AL,NA,NA,NA,84.33734939759037
35111,Tuscaloosa County,AL,NA,47.55043227665706,NA,63.25301204819277
35120,St. Clair County,AL,52.1505376344086,NA,NA,NA
35125,St. Clair County,AL,NA,57.34870317002881,NA,NA
35173,Jefferson County,AL,NA,51.29682997118156,NA,NA
35179,Cullman County,AL,NA,NA,81.16279069767441,NA
35217,Jefferson County,AL,NA,NA,46.74418604651163,NA
35223,Jefferson County,AL,NA,91.93083573487031,NA,NA
35234,Jefferson County,AL,NA,NA,NA,85.54216867469879
35466,Pickens County,AL,NA,NA,86.9767441860465,NA
35503,Walker County,AL,NA,65.70605187319885,NA,NA
35756,Limestone County,AL,77.95698924731182,NA,NA,NA
35903,Etowah County,AL,NA,NA,NA,68.07228915662651
35968,DeKalb County,AL,NA,94.81268011527378,NA,NA
35976,Marshall County,AL,NA,NA,83.02325581395348,NA
36268,Talladega County,AL,NA,87.03170028818444,NA,NA
36305,Houston County,AL,NA,NA,65.34883720930232,NA
36312,Houston County,AL,NA,NA,86.74418604651163,NA
36426,Escambia County,AL,NA,NA,93.02325581395348,NA
36507,Baldwin County,AL,NA,38.328530259366,66.51162790697674,NA
36605,Mobile County,AL,NA,NA,50,NA
36608,Mobile County,AL,NA,NA,77.20930232558139,NA
36701,Dallas County,AL,NA,NA,29.069767441860467,NA
99623,,AK,NA,NA,89.76744186046511,NA
85004,Maricopa County,AZ,92.47311827956989,NA,NA,NA
85028,Maricopa County,AZ,NA,NA,63.48837209302326,NA
85201,Maricopa County,AZ,NA,NA,NA,38.55421686746988
85204,Maricopa County,AZ,NA,12.39193083573487,NA,NA
85209,Maricopa County,AZ,NA,NA,NA,14.457831325301203
85210,Maricopa County,AZ,NA,NA,57.20930232558139,NA
85263,Maricopa County,AZ,NA,NA,98.6046511627907,NA
85297,Maricopa County,AZ,NA,NA,81.3953488372093,NA
85301,Maricopa County,AZ,NA,NA,19.53488372093023,NA
85308,Maricopa County,AZ,22.043010752688172,NA,15.58139534883721,NA
85635,Cochise County,AZ,NA,NA,49.30232558139535,NA
85648,Santa Cruz County,AZ,NA,54.46685878962536,NA,NA
85704,Pima County,AZ,NA,NA,66.04651162790698,NA
85706,Pima County,AZ,NA,NA,5.348837209302325,NA
85713,Pima County,AZ,NA,NA,NA,16.265060240963855
85746,Pima County,AZ,NA,10.662824207492795,NA,NA
85757,Pima County,AZ,NA,NA,95.34883720930233,NA
85937,Navajo County,AZ,NA,NA,NA,90.96385542168674
86314,Yavapai County,AZ,NA,NA,NA,7.228915662650602
71854,Miller County,AR,NA,34.87031700288185,NA,NA
72118,Pulaski County,AR,NA,63.40057636887608,NA,NA
72150,Grant County,AR,90.32258064516128,NA,NA,NA
72160,Arkansas County,AR,67.74193548387096,NA,NA,NA
72301,Crittenden County,AR,74.73118279569893,NA,NA,NA
72396,Cross County,AR,NA,89.04899135446685,NA,NA
72638,Carroll County,AR,NA,NA,NA,98.19277108433735
72714,Benton County,AR,NA,NA,69.06976744186046,NA
72753,Washington County,AR,NA,NA,98.13953488372093,NA
72756,Benton County,AR,NA,NA,33.02325581395349,NA
72758,Benton County,AR,NA,NA,NA,47.59036144578313
72802,Pope County,AR,NA,93.0835734870317,65.81395348837209,NA
72834,Yell County,AR,NA,88.18443804034582,NA,NA
72947,Crawford County,AR,NA,NA,96.51162790697676,NA
90011,Los Angeles County,CA,NA,57.925072046109506,NA,NA
90059,Los Angeles County,CA,NA,31.412103746397698,NA,NA
90064,Los Angeles County,CA,NA,NA,NA,17.46987951807229
90066,Los Angeles County,CA,NA,77.23342939481267,NA,NA
90221,Los Angeles County,CA,82.79569892473118,33.429394812680115,NA,NA
90242,Los Angeles County,CA,NA,NA,58.372093023255815,NA
90266,Los Angeles County,CA,NA,NA,48.13953488372093,NA
90275,Los Angeles County,CA,NA,58.501440922190206,NA,NA
90604,Los Angeles County,CA,NA,NA,NA,25.903614457831324
90706,Los Angeles County,CA,15.591397849462366,NA,NA,NA
90740,Orange County,CA,NA,NA,41.86046511627907,NA
90806,Los Angeles County,CA,NA,NA,57.906976744186046,NA
90815,Los Angeles County,CA,76.88172043010752,NA,NA,NA
91202,Los Angeles County,CA,NA,90.48991354466858,NA,NA
91205,Los Angeles County,CA,NA,68.29971181556196,NA,NA
91306,Los Angeles County,CA,NA,39.76945244956772,NA,NA
91311,Los Angeles County,CA,NA,97.11815561959655,NA,57.831325301204814
91331,Los Angeles County,CA,65.05376344086021,NA,NA,NA
91343,Los Angeles County,CA,NA,53.89048991354467,NA,NA
91356,Los Angeles County,CA,NA,NA,47.674418604651166,NA
91710,San Bernardino County,CA,NA,NA,54.65116279069767,NA
91767,Los Angeles County,CA,NA,NA,51.86046511627907,48.795180722891565
91910,San Diego County,CA,34.40860215053764,NA,NA,NA
91911,San Diego County,CA,32.25806451612903,21.613832853025936,NA,NA
92011,San Diego County,CA,NA,NA,88.37209302325581,NA
92020,San Diego County,CA,NA,18.73198847262248,NA,NA
92024,San Diego County,CA,NA,NA,88.83720930232558,NA
92101,San Diego County,CA,NA,NA,NA,40.36144578313253
92106,San Diego County,CA,NA,NA,64.4186046511628,NA
92109,San Diego County,CA,NA,NA,NA,57.22891566265061
92211,Riverside County,CA,NA,NA,NA,66.26506024096386
92314,San Bernardino County,CA,NA,NA,NA,87.95180722891565
92335,San Bernardino County,CA,13.978494623655912,NA,NA,NA
92392,San Bernardino County,CA,NA,16.42651296829971,NA,NA
92530,Riverside County,CA,NA,90.20172910662824,NA,NA
92551,Riverside County,CA,NA,66.57060518731988,NA,NA
92592,Riverside County,CA,NA,25.64841498559078,NA,NA
92603,Orange County,CA,NA,NA,90.93023255813954,NA
92630,Orange County,CA,NA,NA,16.511627906976745,NA
92688,Orange County,CA,36.02150537634409,NA,NA,NA
92692,Orange County,CA,NA,38.61671469740634,NA,NA
92703,Orange County,CA,NA,37.17579250720461,NA,NA
92821,Orange County,CA,NA,63.112391930835734,NA,NA
92870,Orange County,CA,NA,NA,22.790697674418606,NA
92883,Riverside County,CA,NA,66.28242074927954,NA,NA
93041,Ventura County,CA,NA,64.26512968299711,NA,NA
93446,San Luis Obispo County,CA,NA,24.207492795389047,NA,NA
93657,Fresno County,CA,59.13978494623656,NA,NA,NA
93662,Fresno County,CA,NA,NA,70,NA
93906,Monterey County,CA,49.46236559139785,NA,NA,NA
93940,Monterey County,CA,NA,53.89048991354467,NA,NA
93953,Monterey County,CA,NA,NA,99.30232558139535,NA
93955,Monterey County,CA,NA,37.46397694524496,NA,NA
94014,San Mateo County,CA,NA,78.38616714697406,NA,NA
94015,San Mateo County,CA,NA,NA,7.674418604651163,NA
94061,San Mateo County,CA,NA,NA,53.72093023255814,NA
94080,San Mateo County,CA,NA,97.40634005763688,NA,NA
94111,San Francisco County,CA,NA,93.94812680115274,NA,NA
94503,Napa County,CA,96.7741935483871,NA,NA,NA
94513,Contra Costa County,CA,NA,31.12391930835735,NA,NA
94550,Alameda County,CA,39.247311827956985,NA,34.418604651162795,NA
94555,Alameda County,CA,NA,NA,NA,78.3132530120482
94565,Contra Costa County,CA,81.18279569892472,NA,NA,NA
94587,Alameda County,CA,NA,32.564841498559076,NA,NA
94590,Solano County,CA,NA,NA,26.046511627906977,NA
94618,Alameda County,CA,NA,NA,NA,71.08433734939759
94954,Sonoma County,CA,NA,NA,69.53488372093022,NA
95051,Santa Clara County,CA,NA,92.79538904899135,NA,NA
95060,Santa Cruz County,CA,NA,74.06340057636888,48.372093023255815,NA
95111,Santa Clara County,CA,NA,NA,63.72093023255814,NA
95112,Santa Clara County,CA,NA,68.87608069164266,NA,NA
95116,Santa Clara County,CA,NA,NA,51.86046511627907,NA
95120,Santa Clara County,CA,NA,NA,51.3953488372093,NA
95122,Santa Clara County,CA,NA,NA,47.906976744186046,NA
95124,Santa Clara County,CA,NA,NA,71.16279069767441,NA
95127,Santa Clara County,CA,NA,NA,NA,21.084337349397593
95129,Santa Clara County,CA,NA,NA,75.11627906976744,NA
95336,San Joaquin County,CA,NA,NA,21.16279069767442,NA
95340,Merced County,CA,NA,32.27665706051873,80,NA
95370,Tuolumne County,CA,NA,NA,1.3953488372093024,NA
95382,Stanislaus County,CA,NA,23.054755043227665,NA,NA
95386,Stanislaus County,CA,NA,NA,92.09302325581396,NA
95403,Sonoma County,CA,NA,NA,72.79069767441861,NA
95476,Sonoma County,CA,NA,NA,33.25581395348837,NA
95519,Humboldt County,CA,NA,NA,50.23255813953489,NA
95618,Yolo County,CA,NA,98.27089337175792,NA,NA
95621,Sacramento County,CA,NA,NA,NA,18.072289156626507
95630,Sacramento County,CA,NA,NA,16.046511627906977,NA
95822,Sacramento County,CA,NA,91.64265129682997,NA,NA
95823,Sacramento County,CA,90.86021505376344,NA,NA,NA
96002,Shasta County,CA,67.20430107526882,NA,NA,NA
80033,Jefferson County,CO,NA,50.43227665706051,NA,NA
80128,Jefferson County,CO,NA,NA,59.76744186046512,NA
80216,Denver County,CO,NA,NA,91.16279069767442,NA
80227,Jefferson County,CO,NA,NA,67.67441860465117,NA
80301,Boulder County,CO,NA,NA,75.5813953488372,NA
80303,Boulder County,CO,NA,82.9971181556196,NA,NA
80517,Larimer County,CO,NA,NA,46.51162790697674,NA
80526,Larimer County,CO,NA,NA,NA,32.53012048192771
80538,Larimer County,CO,NA,NA,NA,23.49397590361446
80634,Weld County,CO,NA,NA,NA,5.421686746987952
80909,El Paso County,CO,NA,22.76657060518732,NA,NA
80911,El Paso County,CO,28.49462365591398,NA,NA,NA
80915,El Paso County,CO,NA,NA,98.83720930232558,NA
80919,El Paso County,CO,NA,70.31700288184439,NA,NA
80920,El Paso County,CO,NA,NA,61.86046511627907,NA
80921,El Paso County,CO,97.31182795698925,NA,NA,NA
81001,Pueblo County,CO,NA,NA,NA,53.6144578313253
81052,Prowers County,CO,NA,NA,55.11627906976744,NA
81504,Mesa County,CO,35.483870967741936,NA,NA,NA
06042,Hartford County,CT,NA,35.158501440922194,NA,NA
06052,Hartford County,CT,NA,81.84438040345822,NA,NA
06239,Windham County,CT,NA,32.85302593659942,NA,NA
06260,Windham County,CT,42.473118279569896,NA,NA,NA
06401,New Haven County,CT,NA,NA,63.25581395348837,NA
06410,New Haven County,CT,55.91397849462365,NA,NA,NA
06437,New Haven County,CT,NA,NA,NA,31.92771084337349
06604,Fairfield County,CT,NA,NA,NA,65.06024096385542
06606,Fairfield County,CT,NA,14.985590778097983,NA,NA
06784,Fairfield County,CT,NA,NA,99.53488372093024,NA
06811,Fairfield County,CT,NA,NA,NA,11.44578313253012
06851,Fairfield County,CT,NA,59.0778097982709,NA,NA
06896,Fairfield County,CT,97.84946236559139,NA,NA,NA
19901,Kent County,DE,NA,14.697406340057636,NA,NA
19956,Sussex County,DE,81.72043010752688,NA,NA,NA
32034,Nassau County,FL,NA,NA,6.279069767441861,NA
32065,Clay County,FL,NA,42.93948126801153,NA,NA
32114,Volusia County,FL,NA,NA,40.46511627906977,NA
32119,Volusia County,FL,NA,77.52161383285303,NA,NA
32127,Volusia County,FL,NA,NA,NA,22.289156626506024
32177,Putnam County,FL,NA,NA,60,NA
32225,Duval County,FL,NA,NA,50.46511627906977,NA
32333,Gadsden County,FL,NA,85.87896253602305,NA,NA
32404,Bay County,FL,NA,NA,20.46511627906977,NA
32428,Washington County,FL,NA,NA,53.02325581395348,NA
32504,Escambia County,FL,NA,NA,64.88372093023256,NA
32541,Okaloosa County,FL,NA,NA,36.27906976744186,NA
32571,Santa Rosa County,FL,46.774193548387096,NA,NA,NA
32583,Santa Rosa County,FL,NA,NA,21.627906976744185,NA
32607,Alachua County,FL,NA,NA,43.25581395348837,NA
32746,Seminole County,FL,NA,NA,40,NA
32784,Lake County,FL,NA,82.70893371757924,NA,NA
32803,Orange County,FL,NA,73.19884726224784,NA,NA
32825,Orange County,FL,NA,64.55331412103746,NA,NA
33023,Broward County,FL,NA,NA,42.55813953488372,NA
33025,Broward County,FL,NA,NA,54.418604651162795,NA
33026,Broward County,FL,NA,NA,59.53488372093023,NA
33056,Miami-Dade County,FL,NA,NA,46.04651162790698,NA
33065,Broward County,FL,NA,NA,50.93023255813953,NA
33068,Broward County,FL,NA,NA,53.25581395348837,NA
33161,Miami-Dade County,FL,NA,NA,77.67441860465117,NA
33165,Miami-Dade County,FL,NA,61.09510086455331,NA,NA
33170,Miami-Dade County,FL,72.58064516129032,NA,NA,NA
33172,Miami-Dade County,FL,NA,NA,60.69767441860465,NA
33179,Miami-Dade County,FL,NA,61.95965417867435,NA,NA
33319,Broward County,FL,NA,NA,79.53488372093022,NA
33321,Broward County,FL,NA,NA,24.651162790697676,NA
33408,Palm Beach County,FL,NA,NA,NA,39.75903614457831
33430,Palm Beach County,FL,NA,NA,80.93023255813954,NA
33462,Palm Beach County,FL,NA,NA,73.95348837209302,NA
33469,Palm Beach County,FL,NA,NA,NA,24.096385542168676
33477,Palm Beach County,FL,NA,NA,76.51162790697674,NA
33496,Palm Beach County,FL,NA,NA,73.72093023255813,NA
33525,Pasco County,FL,NA,NA,41.3953488372093,NA
33570,Hillsborough County,FL,NA,NA,NA,65.66265060240963
33596,Hillsborough County,FL,NA,88.47262247838617,NA,NA
33613,Hillsborough County,FL,NA,41.4985590778098,NA,NA
33624,Hillsborough County,FL,NA,NA,NA,45.18072289156627
33647,Hillsborough County,FL,76.34408602150538,NA,NA,NA
33708,Pinellas County,FL,NA,92.21902017291066,NA,NA
33713,Pinellas County,FL,NA,NA,97.67441860465115,NA
33756,Pinellas County,FL,NA,48.126801152737755,NA,NA
33770,Pinellas County,FL,NA,NA,56.74418604651162,NA
33825,Highlands County,FL,NA,NA,12.790697674418606,NA
33901,Lee County,FL,63.44086021505376,NA,NA,NA
33908,Lee County,FL,NA,NA,2.558139534883721,NA
33935,Hendry County,FL,NA,80.11527377521614,NA,NA
33952,Charlotte County,FL,NA,NA,30.697674418604652,NA
34102,Collier County,FL,NA,NA,NA,51.204819277108435
34113,Collier County,FL,NA,NA,NA,36.74698795180723
34114,Collier County,FL,NA,NA,34.18604651162791,NA
34119,Collier County,FL,NA,NA,26.27906976744186,NA
34120,Collier County,FL,NA,NA,40.69767441860465,NA
34135,Lee County,FL,NA,NA,NA,9.036144578313253
34205,Manatee County,FL,NA,NA,NA,43.373493975903614
34207,Manatee County,FL,NA,NA,57.674418604651166,NA
34210,Manatee County,FL,NA,NA,66.74418604651163,NA
34221,Manatee County,FL,NA,35.44668587896253,NA,NA
34234,Sarasota County,FL,NA,NA,NA,42.77108433734939
34285,Sarasota County,FL,NA,NA,17.674418604651162,NA
34288,Sarasota County,FL,NA,NA,NA,81.32530120481928
34448,Citrus County,FL,NA,83.5734870317003,NA,NA
34453,Citrus County,FL,NA,NA,NA,86.74698795180723
34601,Hernando County,FL,NA,NA,62.7906976744186,NA
34602,Hernando County,FL,NA,NA,NA,93.97590361445783
34606,Hernando County,FL,63.44086021505376,NA,NA,NA
34608,Hernando County,FL,NA,70.89337175792507,NA,NA
34609,Hernando County,FL,NA,29.394812680115272,61.16279069767442,NA
34613,Hernando County,FL,NA,76.94524495677233,NA,NA
34736,Lake County,FL,NA,75.21613832853026,NA,NA
34741,Osceola County,FL,NA,NA,30.930232558139537,NA
34758,Osceola County,FL,NA,19.020172910662826,NA,NA
34787,Orange County,FL,NA,NA,NA,15.66265060240964
34952,St. Lucie County,FL,NA,23.34293948126801,NA,NA
34957,Martin County,FL,NA,NA,31.627906976744185,NA
34983,St. Lucie County,FL,NA,NA,NA,24.69879518072289
30019,Gwinnett County,GA,NA,NA,37.67441860465116,NA
30022,Fulton County,GA,48.38709677419355,NA,NA,NA
30028,Forsyth County,GA,NA,NA,54.88372093023256,NA
30033,DeKalb County,GA,NA,NA,NA,46.98795180722892
30040,Forsyth County,GA,NA,NA,18.6046511627907,NA
30041,Forsyth County,GA,NA,NA,NA,75.30120481927712
30060,Cobb County,GA,NA,36.59942363112392,NA,NA
30062,Cobb County,GA,NA,NA,12.093023255813954,NA
30082,Cobb County,GA,75.80645161290323,NA,NA,NA
30093,Gwinnett County,GA,30.64516129032258,NA,NA,NA
30094,Rockdale County,GA,40.32258064516129,NA,90,NA
30101,Cobb County,GA,29.56989247311828,NA,NA,NA
30117,Carroll County,GA,NA,30.547550432276655,NA,NA
30120,Bartow County,GA,NA,NA,NA,56.024096385542165
30126,Cobb County,GA,NA,NA,63.95348837209303,NA
30135,Douglas County,GA,NA,12.103746397694524,NA,NA
30168,Cobb County,GA,NA,60.51873198847262,NA,NA
30180,Carroll County,GA,13.440860215053762,NA,NA,NA
30238,Clayton County,GA,NA,NA,60.93023255813953,NA
30241,Troup County,GA,78.49462365591397,NA,NA,NA
30273,Clayton County,GA,NA,NA,87.67441860465117,NA
30277,Coweta County,GA,NA,NA,68.6046511627907,NA
30286,Upson County,GA,NA,NA,NA,53.01204819277109
30309,Fulton County,GA,NA,84.43804034582134,NA,NA
30315,Fulton County,GA,NA,NA,24.418604651162788,NA
30415,Bulloch County,GA,NA,NA,NA,99.3975903614458
30474,Toombs County,GA,NA,NA,NA,72.28915662650603
30506,Hall County,GA,NA,NA,NA,7.83132530120482
30517,Jackson County,GA,NA,NA,81.3953488372093,NA
30519,Gwinnett County,GA,52.68817204301075,NA,NA,NA
30529,Jackson County,GA,NA,NA,86.51162790697674,NA
30546,Towns County,GA,99.46236559139786,NA,NA,NA
30577,Stephens County,GA,NA,46.97406340057637,NA,NA
30642,Greene County,GA,NA,82.42074927953891,NA,NA
30720,Whitfield County,GA,NA,NA,62.558139534883715,NA
30736,Catoosa County,GA,NA,NA,19.302325581395348,NA
30909,Richmond County,GA,NA,23.919308357348704,NA,NA
31023,Dodge County,GA,NA,78.09798270893373,NA,NA
31024,Putnam County,GA,82.25806451612904,NA,NA,NA
31312,Effingham County,GA,84.94623655913979,NA,NA,NA
31605,Lowndes County,GA,NA,NA,NA,77.10843373493977
31763,Lee County,GA,NA,NA,66.97674418604652,NA
31794,Tift County,GA,NA,25.072046109510087,NA,NA
31907,Muscogee County,GA,NA,53.602305475504316,NA,NA
96792,Honolulu County,HI,NA,NA,23.02325581395349,NA
96793,Maui County,HI,NA,79.53890489913545,NA,NA
83406,Bonneville County,ID,NA,NA,72.55813953488372,NA
83605,Canyon County,ID,NA,NA,22.325581395348838,NA
83705,Ada County,ID,NA,80.69164265129683,NA,NA
83706,Ada County,ID,NA,NA,NA,13.253012048192772
60031,Lake County,IL,NA,89.33717579250721,NA,NA
60060,Lake County,IL,77.41935483870968,NA,NA,NA
60089,Lake County,IL,NA,NA,8.837209302325581,NA
60118,Kane County,IL,NA,NA,NA,63.85542168674698
60123,Kane County,IL,50.53763440860215,NA,NA,NA
60139,DuPage County,IL,59.67741935483871,NA,NA,NA
60142,McHenry County,IL,NA,73.77521613832853,NA,NA
60146,DeKalb County,IL,NA,99.42363112391931,NA,NA
60193,Cook County,IL,NA,NA,7.209302325581396,NA
60401,Will County,IL,NA,87.31988472622479,NA,NA
60402,Cook County,IL,NA,9.798270893371757,NA,NA
60404,Will County,IL,NA,NA,39.06976744186046,NA
60431,Will County,IL,31.182795698924732,NA,NA,NA
60450,Grundy County,IL,NA,NA,15.813953488372093,NA
60505,Kane County,IL,NA,28.530259365994237,NA,NA
60532,DuPage County,IL,NA,NA,43.72093023255814,NA
60609,Cook County,IL,NA,57.636887608069166,NA,NA
60616,Cook County,IL,NA,33.14121037463977,NA,NA
60619,Cook County,IL,NA,4.610951008645533,NA,NA
60622,Cook County,IL,NA,68.01152737752162,NA,NA
60629,Cook County,IL,23.118279569892472,NA,25.813953488372093,NA
60631,Cook County,IL,NA,NA,NA,59.036144578313255
60644,Cook County,IL,NA,NA,66.27906976744185,NA
60649,Cook County,IL,NA,11.527377521613833,NA,NA
60651,Cook County,IL,NA,29.68299711815562,NA,NA
60942,Vermilion County,IL,NA,NA,62.093023255813954,NA
61008,Boone County,IL,NA,NA,55.81395348837209,NA
61252,Whiteside County,IL,NA,NA,NA,83.73493975903614
61568,Tazewell County,IL,98.9247311827957,NA,NA,NA
61748,McLean County,IL,100,NA,NA,NA
61761,McLean County,IL,NA,NA,38.372093023255815,28.915662650602407
61834,Vermilion County,IL,NA,99.13544668587896,NA,NA
61938,Coles County,IL,43.54838709677419,47.262247838616716,NA,NA
62301,Adams County,IL,58.602150537634415,NA,NA,NA
62650,Morgan County,IL,61.82795698924731,NA,NA,NA
62896,Franklin County,IL,NA,75.79250720461094,NA,NA
62959,Williamson County,IL,NA,NA,17.209302325581397,NA
46107,Marion County,IN,NA,60.80691642651297,NA,NA
46131,Johnson County,IN,NA,27.37752161383285,NA,NA
46142,Johnson County,IN,NA,NA,43.02325581395349,NA
46202,Marion County,IN,NA,62.53602305475504,NA,NA
46217,Marion County,IN,53.2258064516129,NA,NA,NA
46218,Marion County,IN,33.33333333333333,NA,NA,NA
46226,Marion County,IN,NA,NA,NA,18.67469879518072
46307,Lake County,IN,NA,26.512968299711815,NA,NA
46350,LaPorte County,IN,NA,NA,32.79069767441861,NA
46407,Lake County,IN,NA,48.99135446685879,NA,NA
46615,St. Joseph County,IN,NA,75.79250720461094,NA,NA
46710,Noble County,IN,NA,94.23631123919309,NA,NA
46738,DeKalb County,IN,NA,70.60518731988472,NA,NA
46808,Allen County,IN,NA,NA,NA,68.67469879518072
46815,Allen County,IN,NA,NA,35.581395348837205,NA
46845,Allen County,IN,86.02150537634408,NA,NA,NA
46901,Howard County,IN,9.13978494623656,NA,NA,NA
47001,Dearborn County,IN,NA,NA,91.3953488372093,NA
47172,Clark County,IN,79.03225806451613,NA,NA,NA
47265,Jennings County,IN,NA,NA,NA,46.3855421686747
47424,Greene County,IN,NA,96.82997118155619,NA,NA
47441,Greene County,IN,NA,68.87608069164266,NA,NA
47802,Vigo County,IN,NA,NA,NA,34.93975903614458
47803,Vigo County,IN,NA,NA,56.27906976744186,NA
47804,Vigo County,IN,NA,61.67146974063401,NA,NA
47834,Clay County,IN,NA,NA,50.46511627906977,NA
47885,Vigo County,IN,NA,NA,NA,81.92771084337349
50010,Story County,IA,NA,58.21325648414985,NA,NA
50265,Polk County,IA,NA,NA,NA,56.62650602409639
50401,Cerro Gordo County,IA,NA,10.086455331412104,NA,NA
50703,Black Hawk County,IA,NA,NA,29.53488372093023,NA
52402,Linn County,IA,29.56989247311828,NA,NA,NA
52632,Lee County,IA,NA,38.904899135446684,NA,NA
52803,Scott County,IA,NA,31.70028818443804,NA,NA
66227,Johnson County,KS,95.16129032258065,NA,NA,NA
66436,Jackson County,KS,NA,NA,97.20930232558139,NA
66725,Cherokee County,KS,NA,NA,98.37209302325581,NA
67217,Sedgwick County,KS,NA,NA,NA,69.87951807228916
67456,McPherson County,KS,NA,NA,75.81395348837209,NA
40065,Shelby County,KY,NA,40.92219020172911,NA,NA
40165,Bullitt County,KY,NA,NA,15.11627906976744,NA
40207,Jefferson County,KY,NA,NA,31.16279069767442,NA
40214,Jefferson County,KY,20.43010752688172,NA,NA,NA
40219,Jefferson County,KY,NA,NA,21.86046511627907,NA
40291,Jefferson County,KY,41.39784946236559,NA,NA,NA
40324,Scott County,KY,33.87096774193548,NA,21.3953488372093,NA
40359,Owen County,KY,NA,NA,89.06976744186046,NA
40422,Boyle County,KY,27.956989247311824,NA,NA,NA
40741,Laurel County,KY,NA,19.020172910662826,NA,NA
41016,Kenton County,KY,NA,84.14985590778097,NA,NA
41041,Fleming County,KY,NA,76.657060518732,NA,NA
41042,Boone County,KY,NA,NA,3.7209302325581395,NA
41144,Greenup County,KY,NA,40.05763688760807,NA,NA
41240,Johnson County,KY,NA,56.48414985590778,NA,NA
41465,Magoffin County,KY,53.76344086021505,NA,NA,NA
41653,Floyd County,KY,NA,NA,36.04651162790697,NA
42127,Barren County,KY,NA,NA,94.18604651162791,NA
42141,Barren County,KY,NA,NA,5.116279069767442,NA
42261,Butler County,KY,NA,NA,89.06976744186046,NA
42301,Daviess County,KY,NA,NA,7.906976744186046,NA
42303,Daviess County,KY,NA,7.780979827089338,NA,NA
42330,Muhlenberg County,KY,NA,70.02881844380403,NA,NA
42721,Grayson County,KY,NA,NA,80.69767441860465,NA
70068,St. John the Baptist Parish,LA,NA,8.069164265129682,NA,NA
70403,Tangipahoa Parish,LA,NA,NA,28.37209302325581,NA
70438,Washington Parish,LA,NA,NA,11.627906976744185,NA
70447,St. Tammany Parish,LA,73.11827956989248,NA,64.18604651162791,NA
70448,St. Tammany Parish,LA,NA,NA,27.674418604651162,NA
70506,Lafayette Parish,LA,NA,3.7463976945244957,NA,NA
70538,St. Mary Parish,LA,NA,NA,NA,54.81927710843374
70634,Beauregard Parish,LA,NA,NA,36.51162790697675,NA
70767,West Baton Rouge Parish,LA,NA,48.70317002881844,NA,NA
71112,Bossier Parish,LA,8.064516129032258,NA,23.72093023255814,NA
71295,Franklin Parish,LA,17.20430107526882,NA,NA,NA
71334,Concordia Parish,LA,NA,NA,78.37209302325581,NA
71343,Catahoula Parish,LA,NA,NA,88.13953488372093,NA
71360,Rapides Parish,LA,NA,NA,26.744186046511626,NA
71457,Natchitoches Parish,LA,NA,NA,NA,30.120481927710845
03904,York County,ME,NA,NA,56.04651162790698,NA
04062,Cumberland County,ME,NA,NA,44.883720930232556,NA
04072,York County,ME,NA,NA,18.13953488372093,NA
04239,Franklin County,ME,NA,NA,NA,76.50602409638554
04330,Kennebec County,ME,NA,4.034582132564841,NA,NA
04429,Penobscot County,ME,NA,98.55907780979827,NA,NA
20601,Charles County,MD,NA,NA,83.72093023255815,NA
20613,Prince George's County,MD,NA,NA,87.44186046511628,NA
20772,Prince George's County,MD,NA,NA,52.32558139534884,NA
20782,Prince George's County,MD,NA,NA,68.83720930232559,NA
20833,Montgomery County,MD,NA,96.54178674351584,NA,NA
20854,Montgomery County,MD,80.10752688172043,NA,31.86046511627907,NA
20878,Montgomery County,MD,NA,48.414985590778095,NA,NA
20904,Montgomery County,MD,NA,NA,78.83720930232559,NA
20905,Montgomery County,MD,NA,NA,97.44186046511628,NA
21014,Harford County,MD,NA,40.345821325648416,NA,NA
21042,Howard County,MD,41.935483870967744,NA,NA,NA
21152,Baltimore County,MD,NA,97.98270893371757,NA,NA
21157,Carroll County,MD,91.93548387096774,NA,NA,NA
21207,Baltimore County,MD,NA,NA,NA,12.650602409638553
21212,Baltimore city,MD,NA,NA,30.465116279069765,NA
21244,Baltimore County,MD,NA,45.24495677233429,NA,NA
21769,Frederick County,MD,NA,NA,NA,96.98795180722891
01036,Hampden County,MA,NA,NA,94.65116279069767,NA
01440,Worcester County,MA,NA,0.8645533141210375,NA,NA
01463,Middlesex County,MA,NA,46.68587896253602,NA,NA
01535,Worcester County,MA,95.6989247311828,NA,NA,NA
01550,Worcester County,MA,NA,0,NA,NA
01603,Worcester County,MA,7.526881720430108,NA,NA,NA
01760,Middlesex County,MA,NA,8.93371757925072,NA,NA
01810,Essex County,MA,NA,NA,13.488372093023257,NA
01841,Essex County,MA,0,NA,NA,NA
01844,Essex County,MA,NA,NA,1.1627906976744187,NA
01880,Middlesex County,MA,NA,NA,2.7906976744186047,NA
01913,Essex County,MA,NA,NA,6.511627906976744,NA
01940,Essex County,MA,45.16129032258064,NA,NA,NA
02035,Norfolk County,MA,NA,29.971181556195965,NA,NA
02093,Norfolk County,MA,NA,56.77233429394812,NA,NA
02115,Suffolk County,MA,NA,4.899135446685879,NA,NA
02119,Suffolk County,MA,NA,NA,9.534883720930234,NA
02125,Suffolk County,MA,6.989247311827956,NA,NA,NA
02128,Suffolk County,MA,NA,NA,11.162790697674419,NA
02131,Suffolk County,MA,NA,0.57636887608069165,NA,NA
02139,Middlesex County,MA,NA,1.440922190201729,NA,NA
02150,Suffolk County,MA,4.838709677419355,NA,NA,NA
02152,Suffolk County,MA,NA,NA,4.4186046511627906,NA
02188,Norfolk County,MA,66.66666666666666,NA,NA,NA
02191,Norfolk County,MA,47.31182795698925,NA,NA,NA
02330,Plymouth County,MA,NA,NA,29.30232558139535,NA
02332,Plymouth County,MA,NA,72.3342939481268,NA,NA
02364,Plymouth County,MA,NA,53.02593659942363,NA,NA
02420,Middlesex County,MA,NA,NA,NA,44.57831325301205
02445,Norfolk County,MA,NA,24.495677233429394,NA,NA
02453,Middlesex County,MA,NA,6.9164265129683,NA,NA
02472,Middlesex County,MA,NA,5.475504322766571,NA,NA
02748,Bristol County,MA,NA,98.84726224783861,NA,NA
02760,Bristol County,MA,21.50537634408602,NA,NA,NA
02766,Bristol County,MA,NA,NA,5.813953488372093,NA
48039,St. Clair County,MI,NA,NA,84.65116279069768,NA
48042,Macomb County,MI,NA,18.443804034582133,NA,NA
48043,Macomb County,MI,NA,29.106628242074926,NA,NA
48071,Oakland County,MI,44.086021505376344,NA,NA,NA
48084,Oakland County,MI,NA,NA,92.55813953488372,NA
48085,Oakland County,MI,NA,27.37752161383285,NA,NA
48091,Macomb County,MI,NA,5.187319884726225,NA,NA
48093,Macomb County,MI,NA,NA,NA,15.060240963855422
48098,Oakland County,MI,94.6236559139785,NA,NA,NA
48150,Wayne County,MI,NA,NA,20.232558139534884,NA
48154,Wayne County,MI,NA,NA,4.186046511627907,NA
48160,Washtenaw County,MI,NA,71.75792507204612,NA,NA
48182,Monroe County,MI,44.623655913978496,NA,NA,NA
48186,Wayne County,MI,19.35483870967742,NA,NA,NA
48197,Washtenaw County,MI,6.451612903225806,NA,NA,NA
48207,Wayne County,MI,NA,NA,32.55813953488372,NA
48214,Wayne County,MI,NA,NA,23.953488372093023,NA
48228,Wayne County,MI,2.6881720430107525,NA,NA,NA
48234,Wayne County,MI,NA,NA,12.325581395348838,NA
48304,Oakland County,MI,NA,65.99423631123919,NA,NA
48322,Oakland County,MI,NA,73.19884726224784,NA,NA
48323,Oakland County,MI,NA,NA,41.16279069767442,NA
48329,Oakland County,MI,NA,NA,NA,21.686746987951807
48334,Oakland County,MI,72.04301075268818,NA,NA,NA
48367,Oakland County,MI,NA,NA,99.06976744186046,NA
48374,Oakland County,MI,NA,76.36887608069163,NA,NA
48380,Oakland County,MI,NA,NA,76.9767441860465,NA
48381,Oakland County,MI,NA,65.4178674351585,NA,NA
48383,Oakland County,MI,NA,NA,95.5813953488372,NA
48503,Genesee County,MI,36.55913978494624,NA,NA,NA
48505,Genesee County,MI,NA,NA,NA,69.27710843373494
48507,Genesee County,MI,NA,7.492795389048991,NA,NA
48601,Saginaw County,MI,0.5376344086021506,NA,NA,NA
48602,Saginaw County,MI,NA,2.0172910662824206,NA,NA
48653,Roscommon County,MI,NA,78.96253602305475,NA,NA
48708,Bay County,MI,NA,NA,34.651162790697676,NA
48842,Ingham County,MI,NA,NA,35.348837209302324,NA
48850,Montcalm County,MI,NA,NA,NA,89.7590361445783
48858,Isabella County,MI,NA,NA,3.255813953488372,NA
48880,Gratiot County,MI,NA,NA,83.25581395348837,NA
49015,Calhoun County,MI,NA,14.409221902017292,NA,NA
49022,Berrien County,MI,32.795698924731184,NA,NA,NA
49047,Cass County,MI,NA,NA,27.906976744186046,NA
49203,Jackson County,MI,NA,NA,NA,35.54216867469879
49221,Lenawee County,MI,5.913978494623656,NA,NA,NA
49307,Mecosta County,MI,NA,53.31412103746398,NA,NA
49332,Mecosta County,MI,NA,NA,88.60465116279069,NA
49420,Oceana County,MI,NA,NA,82.55813953488372,NA
49424,Ottawa County,MI,85.48387096774194,NA,NA,NA
49509,Kent County,MI,NA,NA,NA,51.80722891566265
49841,Marquette County,MI,NA,NA,76.04651162790698,NA
49855,Marquette County,MI,NA,NA,NA,60.24096385542169
55068,Dakota County,MN,NA,64.84149855907782,NA,NA
55104,Ramsey County,MN,NA,12.680115273775217,73.25581395348837,NA
55112,Ramsey County,MN,34.946236559139784,NA,NA,NA
55118,Dakota County,MN,NA,NA,39.30232558139535,NA
55124,Dakota County,MN,18.27956989247312,NA,37.2093023255814,NA
55126,Ramsey County,MN,NA,NA,68.37209302325581,NA
55303,Anoka County,MN,NA,14.985590778097983,NA,NA
55356,Hennepin County,MN,NA,NA,96.51162790697676,NA
55369,Hennepin County,MN,NA,NA,42.32558139534884,NA
55372,Scott County,MN,27.419354838709676,NA,NA,NA
55403,Hennepin County,MN,15.053763440860216,NA,NA,NA
55407,Hennepin County,MN,NA,NA,54.18604651162791,NA
55408,Hennepin County,MN,NA,NA,NA,66.86746987951807
55416,Hennepin County,MN,NA,NA,89.06976744186046,NA
55431,Hennepin County,MN,NA,62.824207492795395,NA,NA
55443,Hennepin County,MN,NA,NA,42.55813953488372,NA
55447,Hennepin County,MN,57.52688172043011,NA,NA,NA
56007,Freeborn County,MN,NA,13.256484149855908,NA,NA
56081,Watonwan County,MN,NA,84.43804034582134,NA,NA
56537,Otter Tail County,MN,NA,15.561959654178676,NA,NA
56560,Clay County,MN,3.225806451612903,NA,NA,NA
56601,Beltrami County,MN,26.344086021505376,NA,NA,NA
38654,DeSoto County,MS,NA,NA,59.06976744186046,NA
38676,Tunica County,MS,NA,95.67723342939482,NA,NA
38703,Washington County,MS,NA,69.45244956772333,NA,NA
38834,Alcorn County,MS,NA,NA,61.395348837209305,NA
39110,Madison County,MS,25.268817204301076,NA,NA,NA
39466,Pearl River County,MS,NA,NA,14.651162790697676,NA
39560,Harrison County,MS,NA,NA,37.44186046511628,NA
39581,Jackson County,MS,NA,NA,80.46511627906978,NA
39601,Lincoln County,MS,NA,NA,NA,41.566265060240966
39666,Pike County,MS,68.27956989247312,NA,NA,NA
63021,St. Louis County,MO,NA,43.804034582132566,8.372093023255815,NA
63077,Franklin County,MO,NA,71.18155619596543,NA,NA
63123,St. Louis County,MO,NA,NA,11.395348837209303,NA
63129,St. Louis County,MO,NA,NA,NA,4.216867469879518
63650,Iron County,MO,NA,95.10086455331412,NA,NA
63755,Cape Girardeau County,MO,10.75268817204301,NA,51.627906976744185,NA
63901,Butler County,MO,NA,11.239193083573488,NA,NA
64014,Jackson County,MO,16.129032258064516,NA,NA,NA
64015,Jackson County,MO,NA,NA,14.418604651162791,NA
64116,Clay County,MO,79.56989247311827,NA,NA,NA
64117,Clay County,MO,NA,34.00576368876081,NA,NA
64127,Jackson County,MO,NA,4.322766570605188,93.48837209302326,NA
64801,Jasper County,MO,NA,42.65129682997118,NA,NA
64870,Jasper County,MO,NA,46.10951008645533,NA,NA
65459,Pulaski County,MO,NA,NA,NA,92.16867469879519
65560,Dent County,MO,54.3010752688172,NA,NA,NA
59101,Yellowstone County,MT,NA,36.023054755043226,NA,NA
59802,Missoula County,MT,87.63440860215054,NA,NA,NA
59804,Missoula County,MT,NA,NA,77.44186046511628,NA
68128,Sarpy County,NE,NA,NA,73.48837209302326,NA
68136,Sarpy County,NE,38.70967741935484,NA,NA,NA
68510,Lancaster County,NE,NA,80.97982708933718,NA,NA
68803,Hall County,NE,NA,NA,NA,52.40963855421686
68901,Adams County,NE,NA,NA,40.93023255813954,NA
89121,Clark County,NV,NA,79.2507204610951,NA,NA
89122,Clark County,NV,NA,23.631123919308358,NA,NA
89134,Clark County,NV,NA,NA,NA,9.63855421686747
89434,Washoe County,NV,NA,44.38040345821326,NA,NA
89801,Elko County,NV,71.50537634408603,NA,NA,NA
03042,Rockingham County,NH,NA,81.55619596541787,NA,NA
03055,Hillsborough County,NH,NA,NA,45.348837209302324,NA
07024,Bergen County,NJ,NA,30.835734870317005,NA,NA
07080,Middlesex County,NJ,NA,57.06051873198847,NA,NA
07514,Passaic County,NJ,NA,NA,95.11627906976744,NA
07663,Bergen County,NJ,NA,NA,76.27906976744187,NA
07874,Sussex County,NJ,NA,79.53890489913545,NA,NA
07950,Morris County,NJ,NA,NA,74.88372093023256,NA
08004,Camden County,NJ,NA,NA,60.46511627906976,NA
08012,Camden County,NJ,NA,3.45821325648415,NA,NA
08071,Gloucester County,NJ,NA,NA,NA,98.79518072289156
08102,Camden County,NJ,NA,6.340057636887608,NA,NA
08234,Atlantic County,NJ,NA,NA,10.232558139534884,NA
08242,Cape May County,NJ,NA,87.60806916426513,NA,NA
08332,Cumberland County,NJ,NA,NA,13.72093023255814,NA
08518,Burlington County,NJ,NA,NA,96.27906976744185,NA
08723,Ocean County,NJ,NA,13.544668587896252,NA,NA
08753,Ocean County,NJ,NA,NA,26.51162790697674,NA
87002,Valencia County,NM,NA,50.14409221902017,NA,NA
87043,Sandoval County,NM,NA,NA,80,NA
87111,Bernalillo County,NM,NA,2.3054755043227666,NA,NA
87144,Sandoval County,NM,NA,17.86743515850144,NA,NA
88011,Doa Ana County,NM,NA,91.35446685878964,NA,NA
88203,Chaves County,NM,NA,17.579250720461097,NA,54.21686746987952
88345,Lincoln County,NM,NA,74.06340057636888,NA,NA
10011,New York County,NY,69.89247311827957,NA,NA,NA
10013,New York County,NY,NA,NA,92.55813953488372,NA
10022,New York County,NY,NA,NA,NA,19.27710843373494
10026,New York County,NY,NA,NA,NA,33.13253012048193
10031,New York County,NY,NA,NA,11.86046511627907,NA
10033,New York County,NY,NA,NA,17.906976744186046,NA
10040,New York County,NY,NA,NA,NA,27.710843373493976
10312,Richmond County,NY,80.64516129032258,NA,NA,NA
10455,Bronx County,NY,NA,18.155619596541786,NA,NA
10457,Bronx County,NY,2.1505376344086025,NA,NA,NA
10458,Bronx County,NY,1.6129032258064515,3.170028818443804,NA,NA
10459,Bronx County,NY,NA,NA,6.046511627906977,NA
10468,Bronx County,NY,NA,NA,0.6976744186046512,NA
10469,Bronx County,NY,NA,NA,NA,3.0120481927710845
10472,Bronx County,NY,NA,NA,0.46511627906976744,10.240963855421686
10473,Bronx County,NY,NA,NA,3.0232558139534884,NA
10954,Rockland County,NY,NA,55.907780979827095,NA,NA
10960,Rockland County,NY,NA,86.45533141210375,NA,NA
11102,Queens County,NY,NA,NA,45.58139534883721,NA
11204,Kings County,NY,NA,26.22478386167147,NA,NA
11206,Kings County,NY,NA,1.1527377521613833,NA,NA
11208,Kings County,NY,12.903225806451612,NA,NA,NA
11230,Kings County,NY,NA,NA,6.744186046511628,NA
11365,Queens County,NY,NA,NA,NA,27.10843373493976
11367,Queens County,NY,96.23655913978494,NA,NA,NA
11414,Queens County,NY,NA,NA,NA,49.39759036144578
11429,Queens County,NY,61.82795698924731,NA,NA,NA
11433,Queens County,NY,NA,59.94236311239193,NA,NA
11722,Suffolk County,NY,NA,19.596541786743515,NA,NA
11746,Suffolk County,NY,NA,NA,NA,4.819277108433735
11751,Suffolk County,NY,NA,91.06628242074927,NA,NA
11772,Suffolk County,NY,NA,NA,24.186046511627907,NA
11961,Suffolk County,NY,NA,NA,61.627906976744185,NA
12118,Saratoga County,NY,NA,60.23054755043228,NA,NA
12203,Albany County,NY,NA,NA,37.906976744186046,NA
12302,Schenectady County,NY,NA,NA,23.25581395348837,NA
12803,Saratoga County,NY,NA,67.43515850144092,NA,NA
12866,Saratoga County,NY,NA,44.668587896253605,NA,NA
12901,Clinton County,NY,NA,1.729106628242075,NA,NA
12962,Clinton County,NY,NA,63.68876080691642,NA,NA
13039,Onondaga County,NY,NA,45.53314121037464,NA,NA
13148,Seneca County,NY,NA,22.19020172910663,NA,NA
13471,Oneida County,NY,NA,NA,96.97674418604652,NA
13662,St. Lawrence County,NY,NA,28.24207492795389,13.023255813953488,NA
13856,Delaware County,NY,NA,51.008645533141205,NA,NA
13865,Broome County,NY,89.78494623655914,NA,NA,NA
13901,Broome County,NY,47.8494623655914,NA,NA,NA
14005,Genesee County,NY,NA,NA,97.90697674418605,NA
14094,Niagara County,NY,NA,NA,53.95348837209303,NA
14131,Niagara County,NY,NA,94.52449567723343,NA,NA
14209,Erie County,NY,NA,NA,71.86046511627907,NA
14468,Monroe County,NY,NA,NA,18.83720930232558,NA
14514,Monroe County,NY,NA,66.85878962536023,NA,NA
14527,Yates County,NY,NA,NA,25.348837209302328,NA
14580,Monroe County,NY,1.0752688172043012,NA,NA,NA
14609,Monroe County,NY,NA,NA,40.23255813953489,NA
14617,Monroe County,NY,NA,NA,NA,25.903614457831324
27215,Alamance County,NC,NA,NA,NA,3.614457831325301
27295,Davidson County,NC,NA,2.5936599423631126,NA,NA
27376,Moore County,NC,NA,NA,84.41860465116278,NA
27539,Wake County,NC,54.83870967741935,NA,NA,NA
27546,Harnett County,NC,NA,NA,NA,64.45783132530121
27596,Franklin County,NC,NA,NA,62.7906976744186,NA
27858,Pitt County,NC,NA,NA,38.604651162790695,NA
27886,Edgecombe County,NC,NA,NA,42.093023255813954,NA
27892,Martin County,NC,NA,NA,96.04651162790697,NA
27909,Pasquotank County,NC,NA,NA,10,NA
28016,Gaston County,NC,NA,NA,85.81395348837209,NA
28025,Cabarrus County,NC,NA,NA,NA,6.024096385542169
28043,Rutherford County,NC,NA,36.887608069164266,NA,NA
28056,Gaston County,NC,NA,NA,46.27906976744186,NA
28269,Mecklenburg County,NC,39.784946236559136,NA,NA,NA
28301,Cumberland County,NC,NA,34.293948126801155,NA,NA
28303,Cumberland County,NC,NA,NA,41.627906976744185,NA
28314,Cumberland County,NC,NA,NA,34.883720930232556,NA
28320,Bladen County,NC,NA,74.92795389048992,NA,NA
28374,Moore County,NC,89.24731182795699,NA,NA,NA
28376,Hoke County,NC,26.881720430107524,NA,NA,NA
28412,New Hanover County,NC,NA,NA,24.88372093023256,NA
28441,Sampson County,NC,NA,100,NA,NA
28501,Lenoir County,NC,NA,44.09221902017291,NA,NA
28504,Lenoir County,NC,NA,NA,86.04651162790698,NA
28532,Craven County,NC,NA,NA,85.5813953488372,NA
28560,Craven County,NC,NA,NA,NA,89.1566265060241
28562,Craven County,NC,NA,NA,58.837209302325576,NA
28602,Catawba County,NC,51.075268817204304,NA,NA,NA
28625,Iredell County,NC,NA,NA,17.441860465116278,NA
28630,Caldwell County,NC,NA,NA,38.139534883720934,NA
28655,Burke County,NC,NA,NA,1.627906976744186,NA
28658,Catawba County,NC,NA,43.51585014409222,NA,NA
28704,Buncombe County,NC,NA,NA,71.62790697674419,NA
28711,Buncombe County,NC,NA,NA,NA,70.48192771084338
28712,Transylvania County,NC,NA,NA,33.95348837209302,NA
28713,Swain County,NC,NA,72.62247838616715,NA,NA
28715,Buncombe County,NC,NA,49.85590778097983,48.604651162790695,80.12048192771084
28716,Haywood County,NC,NA,50.720461095100866,NA,43.97590361445783
28721,Haywood County,NC,NA,NA,NA,84.93975903614458
28734,Macon County,NC,NA,NA,35.116279069767444,1.8072289156626504
28739,Henderson County,NC,NA,51.29682997118156,NA,NA
28748,Buncombe County,NC,NA,NA,82.7906976744186,NA
28752,McDowell County,NC,NA,NA,10.69767441860465,NA
28777,Mitchell County,NC,86.55913978494624,95.38904899135446,NA,NA
28778,Buncombe County,NC,NA,NA,NA,78.91566265060241
28786,Haywood County,NC,NA,NA,16.74418604651163,NA
28789,Jackson County,NC,NA,NA,95.81395348837209,NA
28791,Henderson County,NC,NA,NA,27.209302325581397,NA
28792,Henderson County,NC,NA,NA,6.976744186046512,NA
28803,Buncombe County,NC,NA,51.873198847262245,67.44186046511628,NA
28806,Buncombe County,NC,NA,NA,39.76744186046511,29.518072289156628
28901,Cherokee County,NC,NA,NA,93.25581395348837,NA
28904,Clay County,NC,NA,NA,68.13953488372093,NA
58203,Grand Forks County,ND,NA,NA,NA,50.602409638554214
43015,Delaware County,OH,NA,63.976945244956774,NA,NA
43026,Franklin County,OH,10.21505376344086,NA,NA,NA
43081,Franklin County,OH,NA,NA,8.13953488372093,NA
43130,Fairfield County,OH,NA,9.510086455331413,NA,NA
43206,Franklin County,OH,19.892473118279568,10.37463976945245,NA,NA
43221,Franklin County,OH,NA,NA,NA,37.95180722891566
43231,Franklin County,OH,16.666666666666664,NA,82.32558139534883,NA
43512,Defiance County,OH,5.376344086021505,NA,NA,NA
43537,Lucas County,OH,24.731182795698924,NA,NA,NA
43558,Fulton County,OH,40.86021505376344,NA,NA,NA
43560,Lucas County,OH,68.81720430107528,NA,NA,NA
43571,Lucas County,OH,83.33333333333334,NA,NA,NA
43612,Lucas County,OH,20.967741935483872,NA,NA,NA
43613,Lucas County,OH,NA,17.29106628242075,NA,NA
43614,Lucas County,OH,NA,NA,8.604651162790699,NA
43623,Lucas County,OH,37.634408602150536,NA,NA,NA
43723,Guernsey County,OH,NA,62.2478386167147,NA,NA
43725,Guernsey County,OH,NA,NA,3.953488372093023,NA
43953,Jefferson County,OH,23.655913978494624,NA,NA,NA
43964,Jefferson County,OH,NA,NA,NA,90.36144578313254
44030,Ashtabula County,OH,NA,NA,NA,39.1566265060241
44054,Lorain County,OH,61.29032258064516,NA,NA,NA
44103,Cuyahoga County,OH,NA,NA,43.48837209302325,NA
44124,Cuyahoga County,OH,17.741935483870968,NA,NA,0
44126,Cuyahoga County,OH,70.96774193548387,NA,NA,37.34939759036144
44130,Cuyahoga County,OH,NA,NA,0.23255813953488372,0.6024096385542169
44133,Cuyahoga County,OH,NA,NA,9.767441860465116,NA
44139,Cuyahoga County,OH,NA,41.4985590778098,NA,NA
44149,Cuyahoga County,OH,NA,NA,15.11627906976744,NA
44460,Columbiana County,OH,NA,NA,4.883720930232558,NA
44614,Stark County,OH,NA,77.52161383285303,NA,NA
44667,Wayne County,OH,NA,NA,NA,73.49397590361446
44705,Stark County,OH,NA,NA,33.72093023255814,NA
44807,Seneca County,OH,NA,97.69452449567724,NA,NA
45069,Butler County,OH,NA,NA,16.27906976744186,NA
45106,Clermont County,OH,NA,NA,NA,88.55421686746988
45177,Clinton County,OH,NA,21.037463976945244,NA,NA
45231,Hamilton County,OH,NA,6.051873198847262,NA,NA
45240,Hamilton County,OH,8.60215053763441,NA,NA,NA
45248,Hamilton County,OH,NA,55.3314121037464,NA,NA
45344,Clark County,OH,NA,NA,47.44186046511628,NA
45402,Montgomery County,OH,NA,55.61959654178674,NA,NA
45404,Montgomery County,OH,NA,55.04322766570605,NA,NA
45417,Montgomery County,OH,NA,NA,12.558139534883722,NA
45439,Montgomery County,OH,NA,52.44956772334294,NA,NA
45449,Montgomery County,OH,NA,NA,44.651162790697676,NA
45459,Montgomery County,OH,NA,NA,20,NA
45503,Clark County,OH,NA,5.763688760806916,NA,NA
45662,Scioto County,OH,NA,NA,0.9302325581395349,NA
73064,Canadian County,OK,59.67741935483871,NA,NA,NA
73099,Canadian County,OK,NA,NA,NA,13.855421686746988
73106,Oklahoma County,OK,NA,NA,70.69767441860465,NA
73119,Oklahoma County,OK,NA,NA,73.0232558139535,NA
73127,Oklahoma County,OK,43.01075268817204,NA,NA,NA
73129,Oklahoma County,OK,NA,NA,74.65116279069768,NA
73160,Cleveland County,OK,NA,NA,2.0930232558139537,NA
73644,Beckham County,OK,NA,56.195965417867434,NA,NA
74074,Payne County,OK,NA,NA,NA,33.13253012048193
74105,Tulsa County,OK,NA,NA,44.41860465116279,NA
74441,Cherokee County,OK,NA,NA,NA,95.18072289156626
74501,Pittsburg County,OK,NA,52.1613832853026,NA,NA
74631,Kay County,OK,NA,85.30259365994236,NA,NA
74801,Pottawatomie County,OK,NA,33.71757925072046,NA,NA
74941,Haskell County,OK,NA,NA,100,NA
74955,Sequoyah County,OK,NA,NA,55.11627906976744,NA
97068,Clackamas County,OR,NA,NA,NA,55.42168674698795
97128,Yamhill County,OR,NA,NA,27.209302325581397,NA
97216,Multnomah County,OR,NA,NA,NA,40.963855421686745
97224,Washington County,OR,NA,NA,69.76744186046511,NA
97233,Multnomah County,OR,NA,14.121037463976945,32.325581395348834,NA
97355,Linn County,OR,NA,37.46397694524496,NA,NA
97458,Coos County,OR,NA,NA,NA,100
97477,Lane County,OR,NA,21.32564841498559,NA,NA
97603,Klamath County,OR,51.61290322580645,NA,NA,NA
97701,Deschutes County,OR,NA,NA,47.20930232558139,NA
97850,Union County,OR,NA,NA,26.976744186046513,NA
97913,Malheur County,OR,74.19354838709677,NA,NA,NA
15010,Beaver County,PA,NA,NA,25.116279069767444,NA
15074,Beaver County,PA,NA,NA,NA,80.72289156626506
15090,Allegheny County,PA,NA,NA,NA,61.44578313253012
15101,Allegheny County,PA,NA,NA,51.162790697674424,NA
15104,Allegheny County,PA,NA,NA,81.86046511627907,NA
15116,Allegheny County,PA,NA,NA,83.48837209302326,NA
15208,Allegheny County,PA,NA,NA,NA,60.8433734939759
15213,Allegheny County,PA,NA,NA,NA,34.33734939759036
15219,Allegheny County,PA,NA,28.818443804034583,NA,NA
15223,Allegheny County,PA,NA,NA,NA,77.71084337349397
15237,Allegheny County,PA,NA,NA,NA,2.4096385542168677
15642,Westmoreland County,PA,25.268817204301076,NA,NA,NA
15668,Westmoreland County,PA,NA,NA,60,NA
15825,Jefferson County,PA,NA,45.821325648414984,NA,NA
15853,Elk County,PA,NA,NA,58.139534883720934,NA
16105,Lawrence County,PA,88.70967741935483,NA,NA,NA
16121,Mercer County,PA,NA,69.7406340057637,NA,NA
16125,Mercer County,PA,65.59139784946237,NA,13.953488372093023,6.024096385542169
16146,Mercer County,PA,NA,NA,38.83720930232558,NA
16148,Mercer County,PA,NA,NA,20.46511627906977,NA
16232,Clarion County,PA,NA,95.96541786743515,NA,NA
16438,Erie County,PA,NA,99.71181556195965,NA,NA
16505,Erie County,PA,NA,NA,58.372093023255815,NA
16701,McKean County,PA,NA,NA,NA,74.69879518072288
17015,Cumberland County,PA,NA,NA,28.604651162790695,NA
17025,Cumberland County,PA,NA,NA,NA,71.6867469879518
17036,Dauphin County,PA,NA,20.461095100864554,NA,NA
17111,Dauphin County,PA,NA,NA,3.488372093023256,NA
17201,Franklin County,PA,22.58064516129032,NA,NA,NA
17202,Franklin County,PA,NA,NA,14.883720930232558,NA
17579,Lancaster County,PA,NA,NA,94.88372093023256,NA
17601,Lancaster County,PA,NA,NA,49.76744186046512,NA
17701,Lycoming County,PA,NA,2.881844380403458,NA,NA
17777,Northumberland County,PA,91.39784946236558,NA,NA,NA
17837,Union County,PA,NA,NA,86.27906976744187,NA
17901,Schuylkill County,PA,NA,58.789625360230545,NA,NA
18018,Lehigh County,PA,NA,20.172910662824208,NA,NA
18062,Lehigh County,PA,NA,NA,28.837209302325583,22.89156626506024
18102,Lehigh County,PA,NA,0.2881844380403458,NA,NA
18411,Lackawanna County,PA,NA,88.47262247838617,NA,19.879518072289155
18447,Lackawanna County,PA,NA,NA,72.32558139534883,NA
18641,Luzerne County,PA,NA,87.89625360230548,NA,NA
18704,Luzerne County,PA,NA,NA,10.465116279069768,NA
18706,Luzerne County,PA,NA,35.73487031700288,NA,NA
18940,Bucks County,PA,NA,NA,NA,48.19277108433735
19003,Montgomery County,PA,NA,89.62536023054754,NA,NA
19152,Philadelphia County,PA,NA,NA,19.069767441860467,NA
19335,Chester County,PA,NA,NA,10.930232558139535,NA
19380,Chester County,PA,NA,NA,2.3255813953488373,NA
19403,Montgomery County,PA,NA,15.85014409221902,NA,NA
19425,Chester County,PA,NA,NA,90.23255813953487,NA
19460,Chester County,PA,NA,20.7492795389049,NA,NA
19464,Montgomery County,PA,14.516129032258066,NA,NA,NA
19468,Montgomery County,PA,NA,NA,31.3953488372093,NA
19473,Montgomery County,PA,74.73118279569893,NA,NA,NA
19508,Berks County,PA,55.376344086021504,NA,NA,NA
19560,Berks County,PA,NA,NA,79.76744186046511,NA
19605,Berks County,PA,NA,27.089337175792505,NA,NA
02865,Providence County,RI,NA,NA,59.06976744186046,NA
02904,Providence County,RI,NA,30.25936599423631,NA,NA
02905,Providence County,RI,NA,NA,39.53488372093023,NA
02909,Providence County,RI,NA,16.714697406340058,NA,NA
02910,Providence County,RI,NA,81.26801152737752,NA,NA
29078,Kershaw County,SC,NA,NA,70.23255813953489,NA
29407,Charleston County,SC,NA,NA,NA,10.843373493975903
29472,Dorchester County,SC,NA,83.86167146974063,NA,NA
29582,Horry County,SC,NA,NA,NA,83.13253012048193
29585,Georgetown County,SC,NA,NA,46.74418604651163,NA
29588,Horry County,SC,NA,NA,NA,16.867469879518072
29601,Greenville County,SC,NA,NA,78.6046511627907,NA
29611,Greenville County,SC,NA,NA,30.23255813953488,NA
29627,Anderson County,SC,NA,59.654178674351584,NA,NA
29655,Anderson County,SC,NA,85.5907780979827,NA,NA
29670,Anderson County,SC,NA,NA,NA,86.14457831325302
29707,Lancaster County,SC,NA,NA,45.81395348837209,NA
29803,Aiken County,SC,NA,NA,36.97674418604651,NA
29851,Aiken County,SC,NA,NA,NA,92.7710843373494
57049,Union County,SD,NA,NA,91.86046511627907,NA
57110,Minnehaha County,SD,84.40860215053763,NA,NA,NA
57701,Pennington County,SD,NA,17.002881844380404,NA,NA
37013,Davidson County,TN,NA,8.357348703170029,NA,NA
37025,Hickman County,TN,NA,86.74351585014409,NA,NA
37040,Montgomery County,TN,NA,22.478386167146976,NA,NA
37122,Wilson County,TN,11.827956989247312,NA,NA,NA
37128,Rutherford County,TN,NA,24.78386167146974,49.53488372093023,NA
37217,Davidson County,TN,NA,42.07492795389049,55.58139534883721,NA
37321,Rhea County,TN,NA,NA,NA,67.46987951807229
37343,Hamilton County,TN,56.451612903225815,NA,NA,NA
37415,Hamilton County,TN,NA,NA,NA,58.43373493975904
37604,Washington County,TN,NA,NA,56.51162790697675,NA
37620,Sullivan County,TN,NA,NA,13.953488372093023,NA
37660,Sullivan County,TN,NA,6.628242074927954,5.5813953488372094,NA
37755,Scott County,TN,98.38709677419355,NA,NA,NA
37865,Sevier County,TN,NA,38.904899135446684,NA,NA
37876,Sevier County,TN,48.924731182795696,NA,NA,NA
38018,Shelby County,TN,NA,67.14697406340058,NA,NA
38058,Tipton County,TN,87.09677419354838,NA,NA,NA
38106,Shelby County,TN,NA,49.279538904899134,NA,NA
38115,Shelby County,TN,4.301075268817205,NA,NA,NA
38116,Shelby County,TN,9.67741935483871,NA,NA,NA
38128,Shelby County,TN,11.29032258064516,NA,NA,NA
38555,Cumberland County,TN,NA,36.31123919308357,NA,NA
75020,Grayson County,TX,NA,49.56772334293948,NA,NA
75028,Denton County,TX,NA,NA,84.88372093023256,NA
75081,Dallas County,TX,94.08602150537635,NA,NA,NA
75087,Rockwall County,TX,NA,NA,NA,62.048192771084345
75093,Collin County,TX,NA,NA,30,NA
75146,Dallas County,TX,31.72043010752688,NA,NA,NA
75231,Dallas County,TX,NA,NA,64.65116279069767,NA
75604,Gregg County,TX,NA,39.481268011527376,NA,NA
75949,Angelina County,TX,NA,83.28530259365994,NA,NA
76086,Parker County,TX,NA,92.507204610951,84.18604651162791,NA
76114,Tarrant County,TX,NA,74.63976945244957,NA,NA
76140,Tarrant County,TX,NA,34.5821325648415,NA,NA
76258,Denton County,TX,NA,NA,NA,95.78313253012048
76301,Wichita County,TX,60.752688172043015,NA,NA,NA
76543,Bell County,TX,NA,NA,NA,28.313253012048197
76574,Williamson County,TX,NA,89.9135446685879,NA,NA
76903,Tom Green County,TX,NA,41.210374639769455,NA,NA
77005,Harris County,TX,NA,72.04610951008645,NA,NA
77029,Harris County,TX,NA,67.72334293948127,NA,NA
77033,Harris County,TX,93.54838709677419,NA,NA,NA
77035,Harris County,TX,NA,40.63400576368876,NA,NA
77041,Harris County,TX,NA,NA,36.74418604651163,NA
77043,Harris County,TX,NA,NA,76.74418604651163,NA
77053,Fort Bend County,TX,NA,NA,56.97674418604651,NA
77064,Harris County,TX,62.903225806451616,NA,NA,NA
77065,Harris County,TX,NA,NA,75.34883720930232,NA
77067,Harris County,TX,NA,NA,79.30232558139535,NA
77068,Harris County,TX,NA,NA,NA,97.59036144578313
77093,Harris County,TX,NA,NA,52.55813953488372,NA
77098,Harris County,TX,NA,NA,NA,93.37349397590361
77306,Montgomery County,TX,NA,93.65994236311239,NA,NA
77340,Walker County,TX,NA,NA,82.09302325581396,NA
77345,Harris County,TX,66.12903225806451,NA,NA,NA
77388,Harris County,TX,NA,NA,32.093023255813954,NA
77418,Austin County,TX,NA,NA,NA,75.90361445783132
77511,Brazoria County,TX,NA,12.968299711815561,NA,NA
77545,Fort Bend County,TX,37.634408602150536,NA,NA,NA
77551,Galveston County,TX,NA,NA,25.581395348837212,NA
77554,Galveston County,TX,NA,NA,43.95348837209303,NA
77562,Harris County,TX,NA,NA,NA,82.53012048192771
77571,Harris County,TX,64.51612903225806,NA,NA,NA
77573,Galveston County,TX,3.763440860215054,31.988472622478387,NA,NA
77581,Brazoria County,TX,NA,26.801152737752158,NA,NA
77583,Brazoria County,TX,69.35483870967742,NA,69.30232558139535,NA
77584,Brazoria County,TX,NA,8.645533141210375,NA,NA
77586,Harris County,TX,NA,NA,65.11627906976744,NA
77590,Galveston County,TX,NA,10.951008645533141,NA,NA
77707,Jefferson County,TX,73.65591397849462,NA,NA,NA
77833,Washington County,TX,NA,46.39769452449568,NA,NA
77845,Brazos County,TX,NA,7.204610951008646,1.8604651162790697,NA
77856,Robertson County,TX,NA,NA,99.76744186046511,NA
78041,Webb County,TX,29.03225806451613,NA,NA,NA
78237,Bexar County,TX,50,NA,NA,NA
78415,Nueces County,TX,NA,NA,79.06976744186046,NA
78501,Hidalgo County,TX,NA,NA,20.930232558139537,NA
78503,Hidalgo County,TX,NA,68.58789625360231,NA,NA
78521,Cameron County,TX,12.365591397849462,NA,NA,NA
78628,Williamson County,TX,NA,NA,62.32558139534884,NA
78653,Travis County,TX,NA,78.6743515850144,NA,NA
78723,Travis County,TX,NA,NA,70.93023255813954,NA
79102,Potter County,TX,NA,90.77809798270894,NA,NA
79107,Potter County,TX,NA,NA,53.48837209302325,NA
79118,Randall County,TX,NA,71.46974063400576,NA,NA
79510,Callahan County,TX,NA,NA,85.34883720930233,NA
79556,Nolan County,TX,NA,NA,49.06976744186046,NA
79756,Ward County,TX,NA,NA,85.11627906976744,NA
84066,Duchesne County,UT,NA,NA,NA,96.3855421686747
84335,Cache County,UT,NA,NA,91.62790697674419,NA
84655,Utah County,UT,NA,NA,92.32558139534883,NA
84663,Utah County,UT,NA,NA,87.67441860465117,NA
84741,Kane County,UT,NA,NA,NA,94.57831325301204
05001,Windsor County,VT,93.01075268817203,NA,NA,NA
05443,Addison County,VT,NA,96.25360230547551,NA,NA
20136,Prince William County,VA,NA,NA,87.20930232558139,NA
20175,Loudoun County,VA,56.98924731182796,NA,NA,NA
22042,Fairfax County,VA,NA,52.73775216138329,NA,NA
22150,Fairfax County,VA,NA,54.7550432276657,NA,20.481927710843372
22193,Prince William County,VA,NA,NA,18.372093023255815,NA
22503,Lancaster County,VA,NA,NA,94.41860465116278,NA
22553,Spotsylvania County,VA,NA,NA,67.67441860465117,NA
22554,Stafford County,VA,NA,27.953890489913547,NA,NA
22802,Harrisonburg city,VA,NA,21.902017291066283,NA,NA
23024,Louisa County,VA,NA,NA,93.72093023255815,NA
23225,Richmond city,VA,NA,11.815561959654179,NA,25.301204819277107
23234,Chesterfield County,VA,NA,NA,NA,62.65060240963856
23238,Henrico County,VA,NA,NA,NA,42.168674698795186
23314,Isle of Wight County,VA,NA,NA,77.90697674418605,NA
23320,Chesapeake city,VA,NA,NA,13.25581395348837,NA
23434,Suffolk city,VA,NA,13.8328530259366,NA,NA
23453,Virginia Beach city,VA,NA,NA,33.48837209302326,NA
23462,Virginia Beach city,VA,NA,NA,7.441860465116279,NA
23518,Norfolk city,VA,NA,NA,28.13953488372093,NA
23701,Portsmouth city,VA,NA,NA,22.55813953488372,NA
23703,Portsmouth city,VA,NA,NA,65.58139534883722,NA
23704,Portsmouth city,VA,NA,25.64841498559078,NA,NA
23974,Lunenburg County,VA,NA,93.37175792507205,NA,NA
24266,Russell County,VA,70.43010752688173,NA,NA,NA
24273,Norton city,VA,NA,NA,73.95348837209302,NA
24523,Bedford County,VA,NA,NA,NA,31.32530120481928
98001,King County,WA,NA,42.363112391930834,NA,NA
98031,King County,WA,NA,72.62247838616715,NA,NA
98053,King County,WA,NA,NA,35.81395348837209,NA
98055,King County,WA,NA,NA,90.69767441860465,NA
98199,King County,WA,NA,NA,71.3953488372093,NA
98201,Snohomish County,WA,NA,NA,44.18604651162791,NA
98229,Whatcom County,WA,NA,82.13256484149855,NA,NA
98270,Snohomish County,WA,NA,16.138328530259365,NA,NA
98273,Skagit County,WA,NA,25.360230547550433,NA,NA
98284,Skagit County,WA,88.17204301075269,NA,NA,NA
98290,Snohomish County,WA,45.16129032258064,NA,NA,NA
98368,Jefferson County,WA,NA,NA,23.488372093023255,NA
98374,Pierce County,WA,NA,43.22766570605187,NA,NA
98382,Clallam County,WA,NA,NA,NA,1.2048192771084338
98513,Thurston County,WA,58.06451612903226,NA,NA,NA
98550,Grays Harbor County,WA,NA,NA,74.4186046511628,NA
98584,Mason County,WA,NA,NA,NA,87.34939759036145
98604,Clark County,WA,NA,NA,NA,59.63855421686747
98620,Klickitat County,WA,NA,NA,67.2093023255814,NA
98682,Clark County,WA,NA,59.36599423631124,NA,NA
99037,Spokane County,WA,83.87096774193549,NA,NA,NA
20001,District of Columbia,DC,NA,NA,NA,30.72289156626506
20002,District of Columbia,DC,NA,NA,4.651162790697675,NA
25314,Kanawha County,WV,NA,NA,45.11627906976744,NA
25411,Morgan County,WV,NA,NA,52.79069767441861,NA
25414,Jefferson County,WV,NA,NA,71.86046511627907,NA
25428,Berkeley County,WV,NA,NA,90.23255813953487,NA
25508,Logan County,WV,NA,NA,NA,72.89156626506023
26041,Marshall County,WV,NA,47.83861671469741,NA,NA
26426,Harrison County,WV,NA,NA,NA,91.56626506024097
53022,Washington County,WI,NA,65.12968299711815,78.13953488372093,NA
53029,Waukesha County,WI,NA,NA,48.837209302325576,NA
53051,Waukesha County,WI,18.817204301075268,44.95677233429395,NA,NA
53066,Waukesha County,WI,NA,38.04034582132565,NA,NA
53081,Sheboygan County,WI,NA,NA,22.093023255813954,NA
53105,Racine County,WI,NA,NA,9.069767441860465,NA
53121,Walworth County,WI,NA,75.50432276657061,NA,NA
53150,Waukesha County,WI,NA,NA,NA,45.78313253012048
53154,Milwaukee County,WI,NA,NA,9.30232558139535,NA
53168,Kenosha County,WI,NA,NA,70.46511627906978,NA
53202,Milwaukee County,WI,NA,NA,NA,36.144578313253014
53210,Milwaukee County,WI,NA,NA,16.97674418604651,NA
53221,Milwaukee County,WI,NA,NA,57.44186046511628,NA
53511,Rock County,WI,NA,NA,0,NA
53534,Rock County,WI,NA,85.01440922190201,NA,NA
53562,Dane County,WI,46.236559139784944,NA,NA,NA
53704,Dane County,WI,24.193548387096776,9.221902017291066,NA,NA
53705,Dane County,WI,NA,NA,NA,8.433734939759036
54017,St. Croix County,WI,NA,NA,83.95348837209302,NA
54115,Brown County,WI,NA,NA,29.767441860465116,NA
54151,Marinette County,WI,NA,80.403458213256485,NA,NA
54313,Brown County,WI,NA,61.09510086455331,NA,NA
54401,Marathon County,WI,NA,NA,NA,12.048192771084338
54728,Barron County,WI,NA,NA,NA,74.09638554216868
54729,Chippewa County,WI,NA,NA,19.767441860465116,NA
54902,Winnebago County,WI,37.096774193548384,NA,NA,NA
54904,Winnebago County,WI,NA,NA,NA,50
54913,Outagamie County,WI,NA,85.87896253602305,NA,79.51807228915662
54914,Outagamie County,WI,NA,19.88472622478386,NA,NA
54983,Waupaca County,WI,NA,NA,93.72093023255815,NA
