ZipCode,county,state,Adult,Retirement,Geriatric
35031,Blount County,AL,NA,77.34470158343484,NA
35055,Cullman County,AL,80.343213728549145,NA,NA
35057,Cullman County,AL,NA,NA,91.75946547884188
35068,Jefferson County,AL,NA,NA,81.51447661469933
35094,Jefferson County,AL,39.62558502340094,NA,NA
35121,Blount County,AL,42.12168486739469,NA,NA
35173,Jefferson County,AL,NA,21.92448233861145,NA
35179,Cullman County,AL,65.05460218408736,NA,NA
35802,Madison County,AL,45.24180967238689,NA,NA
35954,Etowah County,AL,NA,32.886723507917175,NA
35967,DeKalb County,AL,NA,45.79780755176614,NA
36022,Elmore County,AL,NA,57.003654080389765,NA
36037,Butler County,AL,59.90639625585024,63.21559074299634,NA
36054,Elmore County,AL,75.66302652106084,NA,NA
36092,Elmore County,AL,NA,58.34348355663824,NA
36265,Calhoun County,AL,NA,70.88915956151035,NA
36322,Dale County,AL,NA,77.22289890377589,NA
36330,Coffee County,AL,NA,46.16321559074299,NA
36344,Geneva County,AL,NA,60.657734470158346,NA
36420,Covington County,AL,NA,NA,43.87527839643652
36445,Monroe County,AL,NA,NA,84.63251670378618
36467,Covington County,AL,NA,48.355663824604136,NA
36532,Baldwin County,AL,NA,NA,42.093541202672604
36567,Baldwin County,AL,NA,NA,78.61915367483296
36608,Mobile County,AL,NA,53.836784409257,NA
36832,Lee County,AL,NA,66.1388550548112,NA
99507,Anchorage Municipality,AK,21.684867394695786,NA,46.10244988864143
99603,Kenai Peninsula Borough,AK,NA,33.73934226552984,NA
99901,Ketchikan Gateway Borough,AK,NA,84.8964677222899,NA
85006,Maricopa County,AZ,26.833073322932915,NA,NA
85120,Pinal County,AZ,26.521060842433698,NA,NA
85142,Maricopa County,AZ,NA,NA,88.19599109131403
85203,Maricopa County,AZ,NA,29.11084043848965,NA
85205,Maricopa County,AZ,39.93759750390016,NA,NA
85207,Maricopa County,AZ,NA,38.00243605359318,NA
85208,Maricopa County,AZ,NA,20.828258221680876,NA
85210,Maricopa County,AZ,NA,33.252131546894034,NA
85226,Maricopa County,AZ,69.73478939157566,NA,NA
85233,Maricopa County,AZ,NA,74.05602923264311,NA
85257,Maricopa County,AZ,NA,73.5688185140073,NA
85286,Maricopa County,AZ,NA,52.25334957369062,NA
85296,Maricopa County,AZ,44.92979719188768,NA,NA
85306,Maricopa County,AZ,58.34633385335414,NA,NA
85308,Maricopa County,AZ,22.308892355694226,9.013398294762483,NA
85338,Maricopa County,AZ,NA,52.00974421437271,NA
85351,Maricopa County,AZ,NA,NA,6.013363028953229
85364,Yuma County,AZ,2.1840873634945397,NA,NA
85374,Maricopa County,AZ,NA,NA,4.4543429844097995
85375,Maricopa County,AZ,NA,NA,0.6681514476614699
85602,Cochise County,AZ,NA,NA,45.657015590200444
85614,Pima County,AZ,NA,NA,16.926503340757236
85650,Cochise County,AZ,NA,35.931790499390985,NA
85710,Pima County,AZ,NA,8.891595615103533,NA
85718,Pima County,AZ,60.8424336973479,NA,NA
85741,Pima County,AZ,44.14976599063963,NA,NA
85743,Pima County,AZ,NA,14.859926918392205,NA
85749,Pima County,AZ,NA,NA,55.233853006681514
85756,Pima County,AZ,46.02184087363494,NA,NA
85941,Apache County,AZ,NA,NA,90.64587973273942
86045,Coconino County,AZ,37.597503900156006,NA,NA
86314,Yavapai County,AZ,NA,35.68818514007308,NA
86315,Yavapai County,AZ,98.90795631825273,NA,NA
86336,Yavapai County,AZ,58.03432137285491,NA,NA
86406,Mohave County,AZ,53.82215288611545,NA,NA
86429,Mohave County,AZ,NA,36.17539585870889,NA
71603,Jefferson County,AR,NA,NA,43.42984409799555
71730,Union County,AR,NA,39.2204628501827,NA
72120,Pulaski County,AR,76.75507020280811,NA,NA
72150,Grant County,AR,NA,60.292326431181486,NA
72223,Pulaski County,AR,NA,94.884287454324,NA
72454,Clay County,AR,NA,80.02436053593179,NA
72837,Pope County,AR,NA,68.81851400730817,NA
72923,Sebastian County,AR,89.54758190327613,NA,NA
90015,Los Angeles County,CA,84.71138845553821,NA,NA
90022,Los Angeles County,CA,23.244929797191887,25.700365408038977,NA
90024,Los Angeles County,CA,NA,78.68453105968331,4.67706013363029
90035,Los Angeles County,CA,89.2355694227769,NA,NA
90049,Los Angeles County,CA,NA,52.98416565164433,NA
90056,Los Angeles County,CA,NA,NA,51.44766146993318
90063,Los Angeles County,CA,33.073322932917314,NA,63.25167037861915
90066,Los Angeles County,CA,NA,65.89524969549329,NA
90069,Los Angeles County,CA,NA,NA,35.634743875278396
90220,Los Angeles County,CA,20.436817472698905,NA,NA
90250,Los Angeles County,CA,NA,NA,22.717149220489976
90262,Los Angeles County,CA,57.87831513260531,NA,NA
90265,Los Angeles County,CA,93.75975039001561,NA,NA
90266,Los Angeles County,CA,NA,27.649208282582215,NA
90277,Los Angeles County,CA,NA,57.36906211936662,NA
90505,Los Angeles County,CA,37.753510140405616,NA,NA
90602,Los Angeles County,CA,NA,60.41412911084044,NA
90603,Los Angeles County,CA,NA,NA,56.57015590200446
90620,Orange County,CA,NA,NA,59.02004454342984
90621,Orange County,CA,71.9188767550702,NA,NA
90630,Orange County,CA,NA,50.304506699147375,NA
90660,Los Angeles County,CA,NA,45.91961023142509,NA
90706,Los Angeles County,CA,79.09516380655226,NA,NA
90723,Los Angeles County,CA,NA,80.26796589524969,NA
90740,Orange County,CA,NA,64.43361753958587,15.367483296213807
90746,Los Angeles County,CA,54.60218408736349,NA,NA
90803,Los Angeles County,CA,91.57566302652106,NA,NA
91030,Los Angeles County,CA,66.92667706708268,NA,NA
91107,Los Angeles County,CA,NA,NA,82.85077951002228
91201,Los Angeles County,CA,NA,NA,77.06013363028953
91302,Los Angeles County,CA,59.12636505460218,92.69183922046284,NA
91331,Los Angeles County,CA,25.273010920436818,NA,21.380846325167038
91356,Los Angeles County,CA,55.69422776911076,NA,NA
91360,Ventura County,CA,42.43369734789392,NA,NA
91607,Los Angeles County,CA,NA,NA,24.053452115812917
91701,San Bernardino County,CA,51.482059282371296,NA,NA
91706,Los Angeles County,CA,NA,NA,67.92873051224944
91710,San Bernardino County,CA,NA,31.181485992691837,NA
91722,Los Angeles County,CA,NA,86.11449451887941,NA
91745,Los Angeles County,CA,NA,NA,18.262806236080177
91761,San Bernardino County,CA,71.60686427457098,NA,NA
91773,Los Angeles County,CA,NA,39.707673568818514,NA
91775,Los Angeles County,CA,87.05148205928236,53.349573690621185,NA
91786,San Bernardino County,CA,43.8377535101404,74.42143727161998,NA
91790,Los Angeles County,CA,NA,67.11327649208283,NA
91901,San Diego County,CA,73.94695787831513,NA,NA
92024,San Diego County,CA,25.585023400936034,NA,NA
92056,San Diego County,CA,NA,17.661388550548114,NA
92067,San Diego County,CA,NA,70.28014616321559,NA
92105,San Diego County,CA,NA,NA,85.07795100222717
92111,San Diego County,CA,57.41029641185648,86.35809987819732,NA
92116,San Diego County,CA,NA,80.75517661388551,NA
92119,San Diego County,CA,91.88767550702028,NA,NA
92123,San Diego County,CA,NA,23.995127892813642,NA
92127,San Diego County,CA,85.64742589703587,66.86967113276492,NA
92139,San Diego County,CA,NA,NA,36.525612472160354
92231,Imperial County,CA,NA,NA,4.8997772828507795
92243,Imperial County,CA,NA,NA,12.24944320712695
92262,Riverside County,CA,NA,5.602923264311815,NA
92308,San Bernardino County,CA,NA,37.880633373934224,NA
92336,San Bernardino County,CA,NA,56.39464068209501,NA
92374,San Bernardino County,CA,84.08736349453977,NA,NA
92382,San Bernardino County,CA,98.59594383775351,NA,NA
92392,San Bernardino County,CA,NA,NA,39.42093541202672
92395,San Bernardino County,CA,NA,50.913520097442145,NA
92397,San Bernardino County,CA,NA,64.19001218026796,NA
92411,San Bernardino County,CA,NA,50.18270401948843,NA
92503,Riverside County,CA,11.700468018720748,NA,NA
92570,Riverside County,CA,NA,25.091352009744217,NA
92591,Riverside County,CA,53.35413416536662,NA,NA
92620,Orange County,CA,NA,51.0353227771011,NA
92627,Orange County,CA,NA,NA,37.193763919821826
92630,Orange County,CA,NA,71.74177831912301,NA
92651,Orange County,CA,NA,NA,22.271714922049
92660,Orange County,CA,NA,NA,7.349665924276169
92683,Orange County,CA,NA,NA,4.231625835189309
92705,Orange County,CA,NA,30.572472594397077,NA
92780,Orange County,CA,23.712948517940717,NA,NA
92804,Orange County,CA,NA,NA,93.54120267260579
92807,Orange County,CA,NA,69.67113276492083,NA
92841,Orange County,CA,NA,64.55542021924482,NA
92865,Orange County,CA,60.53042121684867,NA,NA
92870,Orange County,CA,83.61934477379094,51.88794153471377,NA
92880,Riverside County,CA,NA,32.39951278928137,NA
92882,Riverside County,CA,NA,46.89403166869671,NA
92886,Orange County,CA,43.21372854914197,NA,NA
93021,Ventura County,CA,NA,28.623629719853838,NA
93030,Ventura County,CA,91.41965678627145,11.20584652862363,NA
93063,Ventura County,CA,76.4430577223089,13.15468940316687,NA
93110,Santa Barbara County,CA,NA,NA,64.81069042316258
93230,Kings County,CA,NA,79.78075517661388,NA
93274,Tulare County,CA,29.95319812792512,NA,NA
93306,Kern County,CA,12.480499219968799,NA,28.507795100222715
93436,Santa Barbara County,CA,NA,NA,70.37861915367483
93455,Santa Barbara County,CA,19.96879875195008,NA,NA
93612,Fresno County,CA,NA,96.95493300852618,NA
93637,Madera County,CA,19.81279251170047,NA,NA
93657,Fresno County,CA,59.4383775351014,NA,NA
93702,Fresno County,CA,90.6396255850234,66.50426309378807,NA
93705,Fresno County,CA,NA,23.50791717417783,NA
93710,Fresno County,CA,63.494539781591264,NA,NA
93720,Fresno County,CA,21.37285491419657,NA,NA
93901,Monterey County,CA,NA,NA,36.30289532293987
93907,Monterey County,CA,NA,NA,81.9599109131403
93933,Monterey County,CA,NA,78.56272838002437,NA
93950,Monterey County,CA,NA,NA,41.42538975501114
93960,Monterey County,CA,79.40717628705148,NA,NA
94002,San Mateo County,CA,NA,NA,76.61469933184856
94066,San Mateo County,CA,28.23712948517941,NA,NA
94110,San Francisco County,CA,40.40561622464899,NA,NA
94116,San Francisco County,CA,71.29485179407176,NA,6.23608017817372
94124,San Francisco County,CA,NA,59.43970767356882,NA
94303,San Mateo County,CA,16.536661466458657,NA,NA
94403,San Mateo County,CA,55.38221528861155,NA,NA
94539,Alameda County,CA,NA,31.668696711327648,NA
94558,Napa County,CA,NA,63.58099878197321,NA
94560,Alameda County,CA,NA,71.98538367844093,NA
94564,Contra Costa County,CA,NA,84.53105968331303,NA
94568,Alameda County,CA,34.63338533541342,NA,NA
94577,Alameda County,CA,NA,NA,23.608017817371937
94583,Contra Costa County,CA,NA,81.12058465286236,NA
94585,Solano County,CA,NA,NA,53.4521158129176
94598,Contra Costa County,CA,NA,83.55663824604142,NA
94605,Alameda County,CA,77.22308892355694,NA,NA
94612,Alameda County,CA,NA,80.5115712545676,NA
94928,Sonoma County,CA,40.40561622464899,NA,NA
94945,Marin County,CA,NA,NA,77.728285077951
94949,Marin County,CA,NA,NA,69.71046770601336
94954,Sonoma County,CA,NA,NA,20.26726057906459
94965,Marin County,CA,NA,72.47259439707673,NA
95003,Santa Cruz County,CA,NA,NA,42.53897550111358
95008,Santa Clara County,CA,NA,NA,89.30957683741649
95014,Santa Clara County,CA,99.53198127925117,NA,NA
95023,San Benito County,CA,NA,18.514007308160778,NA
95035,Santa Clara County,CA,NA,65.40803897685748,NA
95060,Santa Cruz County,CA,NA,NA,52.11581291759465
95121,Santa Clara County,CA,NA,75.03045066991474,NA
95124,Santa Clara County,CA,37.909516380655226,NA,NA
95127,Santa Clara County,CA,49.921996879875195,NA,NA
95132,Santa Clara County,CA,NA,NA,39.198218262806236
95133,Santa Clara County,CA,NA,87.9415347137637,NA
95135,Santa Clara County,CA,NA,52.131546894031665,NA
95204,San Joaquin County,CA,36.817472698907956,NA,NA
95205,San Joaquin County,CA,NA,NA,57.46102449888642
95207,San Joaquin County,CA,NA,NA,56.792873051224944
95209,San Joaquin County,CA,30.733229329173167,NA,NA
95215,San Joaquin County,CA,NA,61.75395858708892,58.57461024498887
95240,San Joaquin County,CA,9.51638065522621,NA,NA
95351,Stanislaus County,CA,90.48361934477379,NA,NA
95376,San Joaquin County,CA,17.31669266770671,NA,NA
95382,Stanislaus County,CA,14.97659906396256,NA,NA
95401,Sonoma County,CA,NA,28.01461632155907,NA
95448,Sonoma County,CA,50.546021840873635,NA,NA
95476,Sonoma County,CA,NA,NA,42.98440979955457
95482,Mendocino County,CA,NA,13.398294762484774,NA
95492,Sonoma County,CA,NA,35.44457978075518,NA
95503,Humboldt County,CA,53.97815912636506,26.065773447015832,NA
95519,Humboldt County,CA,83.93135725429018,NA,NA
95531,Del Norte County,CA,NA,NA,50.33407572383074
95610,Sacramento County,CA,NA,NA,29.398663697104677
95628,Sacramento County,CA,41.34165366614664,NA,NA
95670,Sacramento County,CA,67.08268330733229,NA,69.48775055679288
95762,El Dorado County,CA,32.761310452418094,20.09744214372716,NA
95765,Placer County,CA,70.51482059282371,NA,NA
95823,Sacramento County,CA,NA,NA,19.37639198218263
95828,Sacramento County,CA,NA,17.295980511571255,NA
95926,Butte County,CA,NA,NA,95.54565701559021
95966,Butte County,CA,NA,4.38489646772229,NA
95969,Butte County,CA,NA,NA,3.11804008908686
95993,Sutter County,CA,52.886115444617786,NA,NA
96067,Siskiyou County,CA,NA,61.38855054811205,NA
80004,Jefferson County,CO,NA,98.90377588306943,NA
80005,Jefferson County,CO,93.91575663026521,NA,NA
80017,Arapahoe County,CO,NA,NA,68.15144766146993
80031,Adams County,CO,24.180967238689547,NA,NA
80202,Denver County,CO,34.16536661466459,NA,NA
80203,Denver County,CO,68.48673946957878,NA,NA
80205,Denver County,CO,NA,44.82338611449452,NA
80210,Denver County,CO,70.3588143525741,NA,NA
80211,Denver County,CO,82.37129485179408,NA,NA
80215,Jefferson County,CO,75.19500780031201,NA,NA
80229,Adams County,CO,NA,63.45919610231425,NA
80232,Jefferson County,CO,53.51014040561623,NA,NA
80236,Denver County,CO,NA,70.64555420219246,NA
80303,Boulder County,CO,55.85023400936038,NA,NA
80504,Boulder County,CO,NA,71.61997563946407,NA
80521,Larimer County,CO,NA,96.83313032886723,NA
80524,Larimer County,CO,NA,14.494518879415347,NA
80525,Larimer County,CO,NA,NA,83.74164810690424
80538,Larimer County,CO,NA,68.33130328867234,NA
80550,Weld County,CO,41.80967238689547,95.1278928136419,NA
80602,Adams County,CO,NA,33.49573690621194,NA
80631,Weld County,CO,20.904836193447736,NA,NA
80634,Weld County,CO,NA,28.867235079171742,NA
80701,Morgan County,CO,13.884555382215288,NA,NA
80906,El Paso County,CO,40.87363494539781,NA,NA
80920,El Paso County,CO,81.59126365054603,NA,NA
81005,Pueblo County,CO,NA,80.99878197320342,NA
81089,Huerfano County,CO,NA,68.20950060901339,NA
06002,Hartford County,CT,NA,NA,21.603563474387528
06010,Hartford County,CT,NA,1.3398294762484775,2.4498886414253898
06026,Hartford County,CT,81.2792511700468,NA,NA
06035,Hartford County,CT,NA,80.87697929354447,NA
06037,Hartford County,CT,NA,90.2557856272838,NA
06062,Hartford County,CT,NA,41.534713763702804,NA
06071,Tolland County,CT,61.46645865834633,NA,NA
06107,Hartford County,CT,54.29017160686428,NA,NA
06118,Hartford County,CT,NA,NA,25.389755011135858
06416,Middlesex County,CT,48.361934477379094,NA,NA
06437,New Haven County,CT,88.76755070202809,36.90621193666261,NA
06450,New Haven County,CT,NA,24.482338611449453,NA
06451,New Haven County,CT,NA,20.706455542021924,NA
06470,Fairfield County,CT,60.8424336973479,NA,89.75501113585747
06478,New Haven County,CT,NA,38.24604141291108,NA
06483,New Haven County,CT,NA,NA,95.32293986636972
06492,New Haven County,CT,NA,NA,49.220489977728285
06512,New Haven County,CT,14.35257410296412,NA,NA
06516,New Haven County,CT,NA,24.3605359317905,NA
06518,New Haven County,CT,NA,NA,80.17817371937639
06611,Fairfield County,CT,NA,38.489646772228994,NA
06770,New Haven County,CT,14.664586583463338,NA,NA
06795,Litchfield County,CT,NA,75.27405602923264,NA
06811,Fairfield County,CT,29.797191887675506,NA,NA
06812,Fairfield County,CT,94.22776911076443,NA,NA
06824,Fairfield County,CT,47.737909516380654,NA,NA
06850,Fairfield County,CT,NA,89.40316686967114,NA
06880,Fairfield County,CT,67.2386895475819,NA,NA
19701,New Castle County,DE,NA,NA,70.15590200445433
19711,New Castle County,DE,NA,22.655298416565163,NA
19713,New Castle County,DE,NA,40.19488428745432,NA
19804,New Castle County,DE,17.472698907956318,NA,NA
19950,Sussex County,DE,NA,55.29841656516443,NA
19958,Sussex County,DE,57.09828393135725,NA,NA
32003,Clay County,FL,61.62246489859594,NA,NA
32038,Columbia County,FL,NA,NA,98.88641425389754
32065,Clay County,FL,NA,67.84409257003654,NA
32086,St. Johns County,FL,NA,30.937880633373933,NA
32127,Volusia County,FL,NA,NA,17.37193763919822
32129,Volusia County,FL,NA,44.579780755176614,NA
32168,Volusia County,FL,NA,18.757612667478686,NA
32207,Duval County,FL,10.764430577223088,NA,NA
32221,Duval County,FL,NA,NA,55.45657015590201
32244,Duval County,FL,NA,63.702801461632156,NA
32256,Duval County,FL,NA,82.8258221680877,NA
32257,Duval County,FL,NA,11.936662606577345,57.6837416481069
32312,Leon County,FL,NA,59.68331303288672,NA
32327,Wakulla County,FL,NA,61.0231425091352,NA
32333,Gadsden County,FL,NA,86.84531059683313,NA
32425,Holmes County,FL,NA,94.15347137637028,NA
32503,Escambia County,FL,NA,NA,53.67483296213808
32504,Escambia County,FL,NA,84.28745432399512,NA
32507,Escambia County,FL,NA,90.74299634591961,NA
32563,Santa Rosa County,FL,56.47425897035882,NA,NA
32566,Santa Rosa County,FL,46.17784711388456,NA,NA
32571,Santa Rosa County,FL,NA,NA,18.485523385300667
32608,Alachua County,FL,NA,NA,17.817371937639198
32643,Alachua County,FL,NA,92.20462850182703,NA
32701,Seminole County,FL,NA,95.85870889159561,NA
32707,Seminole County,FL,67.39469578783151,NA,NA
32724,Volusia County,FL,69.89079563182527,NA,16.258351893095767
32725,Volusia County,FL,NA,NA,81.73719376391982
32738,Volusia County,FL,NA,NA,60.35634743875279
32751,Orange County,FL,NA,56.51644336175396,NA
32771,Seminole County,FL,44.46177847113885,NA,NA
32784,Lake County,FL,NA,NA,78.39643652561247
32796,Brevard County,FL,NA,64.06820950060902,NA
32804,Orange County,FL,NA,NA,98.21826280623608
32810,Orange County,FL,NA,33.86114494518879,NA
32824,Orange County,FL,NA,43.36175395858709,NA
32828,Orange County,FL,82.52730109204369,NA,NA
32920,Brevard County,FL,NA,NA,47.66146993318486
32922,Brevard County,FL,NA,44.0925700365408,NA
32934,Brevard County,FL,NA,34.47015834348356,NA
32940,Brevard County,FL,NA,13.520097442143728,NA
32952,Brevard County,FL,NA,NA,38.30734966592428
32953,Brevard County,FL,38.22152886115445,NA,NA
32966,Indian River County,FL,80.03120124804992,NA,NA
32967,Indian River County,FL,NA,66.62606577344702,56.12472160356348
33012,Miami-Dade County,FL,NA,36.05359317904993,NA
33015,Miami-Dade County,FL,NA,91.35200974421437,NA
33021,Broward County,FL,NA,12.302070645554203,NA
33028,Broward County,FL,NA,87.6979293544458,NA
33055,Miami-Dade County,FL,NA,NA,38.530066815144764
33135,Miami-Dade County,FL,NA,48.84287454323995,NA
33140,Miami-Dade County,FL,NA,87.33252131546894,NA
33142,Miami-Dade County,FL,74.10296411856474,NA,NA
33143,Miami-Dade County,FL,NA,NA,30.28953229398664
33156,Miami-Dade County,FL,NA,70.15834348355664,NA
33157,Miami-Dade County,FL,93.60374414976599,NA,NA
33160,Miami-Dade County,FL,NA,19.488428745432397,NA
33165,Miami-Dade County,FL,NA,NA,2.6726057906458798
33168,Miami-Dade County,FL,47.581903276131044,NA,NA
33175,Miami-Dade County,FL,NA,NA,8.463251670378618
33177,Miami-Dade County,FL,NA,NA,14.253897550111358
33179,Miami-Dade County,FL,72.85491419656786,NA,NA
33189,Miami-Dade County,FL,67.55070202808112,NA,NA
33322,Broward County,FL,48.049921996879874,56.63824604141291,NA
33326,Broward County,FL,NA,NA,33.85300668151447
33351,Broward County,FL,NA,61.510353227771006,NA
33401,Palm Beach County,FL,NA,49.57369062119367,NA
33418,Palm Beach County,FL,NA,NA,5.79064587973274
33426,Palm Beach County,FL,NA,55.66382460414129,NA
33428,Palm Beach County,FL,NA,30.328867235079173,NA
33433,Palm Beach County,FL,NA,NA,2.0044543429844097
33437,Palm Beach County,FL,NA,9.866017052375152,70.8240534521158
33446,Palm Beach County,FL,NA,NA,93.0957683741648
33455,Martin County,FL,NA,51.64433617539586,6.6815144766147
33461,Palm Beach County,FL,38.84555382215289,NA,NA
33469,Palm Beach County,FL,NA,NA,18.70824053452116
33471,Glades County,FL,NA,NA,88.8641425389755
33486,Palm Beach County,FL,NA,28.136419001218027,NA
33487,Palm Beach County,FL,NA,22.77710109622412,NA
33498,Palm Beach County,FL,NA,61.875761266747865,NA
33513,Sumter County,FL,NA,NA,62.80623608017817
33612,Hillsborough County,FL,65.83463338533542,NA,NA
33618,Hillsborough County,FL,NA,54.44579780755176,NA
33619,Hillsborough County,FL,58.81435257410297,NA,NA
33626,Hillsborough County,FL,80.65522620904837,NA,NA
33634,Hillsborough County,FL,NA,65.40803897685748,NA
33710,Pinellas County,FL,54.75819032761311,NA,NA
33764,Pinellas County,FL,NA,54.08038976857491,NA
33777,Pinellas County,FL,NA,47.868453105968335,NA
33782,Pinellas County,FL,NA,NA,35.85746102449889
33823,Polk County,FL,NA,24.96954933008526,NA
33859,Polk County,FL,NA,86.96711327649209,NA
33881,Polk County,FL,NA,NA,34.29844097995546
33901,Lee County,FL,56.63026521060842,NA,NA
33903,Lee County,FL,NA,NA,44.766146993318486
33917,Lee County,FL,NA,49.451887941534714,NA
33919,Lee County,FL,94.69578783151326,NA,NA
33966,Lee County,FL,NA,90.13398294762484,NA
34110,Collier County,FL,NA,29.232643118148598,NA
34145,Collier County,FL,NA,74.54323995127893,NA
34221,Manatee County,FL,NA,54.202192448233866,NA
34223,Sarasota County,FL,NA,32.27771010962241,NA
34234,Sarasota County,FL,NA,NA,28.28507795100223
34241,Sarasota County,FL,65.99063962558502,NA,NA
34243,Manatee County,FL,NA,37.028014616321556,NA
34287,Sarasota County,FL,NA,16.07795371498173,NA
34446,Citrus County,FL,NA,35.32277710109623,NA
34481,Marion County,FL,NA,13.885505481120585,7.126948775055679
34491,Marion County,FL,NA,43.605359317905,NA
34613,Hernando County,FL,NA,18.148599269183922,NA
34653,Pasco County,FL,41.49765990639626,NA,NA
34655,Pasco County,FL,NA,NA,12.026726057906458
34695,Pinellas County,FL,NA,89.89037758830695,NA
34711,Lake County,FL,NA,2.4360535931790497,NA
34736,Lake County,FL,84.399375975039,NA,NA
34737,Lake County,FL,NA,98.66017052375152,NA
34747,Osceola County,FL,61.31045241809673,NA,NA
34758,Osceola County,FL,35.8814352574103,NA,NA
34788,Lake County,FL,NA,64.67722289890378,NA
34953,St. Lucie County,FL,4.05616224648986,NA,NA
34957,Martin County,FL,NA,44.82338611449452,NA
34972,Okeechobee County,FL,NA,51.40073081607795,NA
34997,Martin County,FL,18.408736349453978,NA,3.78619153674833
30004,Fulton County,GA,71.13884555382215,NA,NA
30011,Barrow County,GA,NA,95.00609013398295,NA
30017,Gwinnett County,GA,NA,79.65895249695494,NA
30024,Gwinnett County,GA,NA,36.78440925700365,NA
30040,Forsyth County,GA,NA,10.353227771010962,NA
30041,Forsyth County,GA,17.004680187207487,NA,NA
30067,Cobb County,GA,NA,94.64068209500608,NA
30076,Fulton County,GA,73.4789391575663,NA,NA
30101,Cobb County,GA,82.05928237129486,NA,NA
30127,Cobb County,GA,10.9204368174727,NA,44.98886414253897
30132,Paulding County,GA,21.21684867394696,67.96589524969549,NA
30143,Pickens County,GA,NA,89.15956151035323,NA
30152,Cobb County,GA,NA,NA,98.44097995545657
30161,Floyd County,GA,NA,81.85140073081608,NA
30179,Carroll County,GA,NA,NA,66.815144766147
30184,Bartow County,GA,NA,93.90986601705238,NA
30213,Fulton County,GA,34.945397815912635,NA,NA
30228,Henry County,GA,NA,85.74908647990256,NA
30233,Butts County,GA,NA,28.989037758830694,NA
30274,Clayton County,GA,NA,89.03775883069429,NA
30294,DeKalb County,GA,26.209048361934478,NA,NA
30311,Fulton County,GA,NA,73.0816077953715,10.690423162583519
30312,Fulton County,GA,NA,NA,47.88418708240535
30315,Fulton County,GA,18.720748829953198,68.08769792935443,NA
30319,DeKalb County,GA,NA,NA,73.71937639198218
30326,Fulton County,GA,85.49141965678628,NA,NA
30474,Toombs County,GA,39.15756630265211,NA,NA
30501,Hall County,GA,44.30577223088923,NA,NA
30506,Hall County,GA,NA,58.830694275274055,NA
30523,Habersham County,GA,NA,NA,67.48329621380846
30525,Rabun County,GA,NA,58.95249695493301,NA
30535,Habersham County,GA,NA,NA,82.62806236080178
30606,Clarke County,GA,NA,NA,19.599109131403118
30620,Barrow County,GA,69.11076443057722,NA,NA
30736,Catoosa County,GA,7.644305772230889,NA,NA
30809,Columbia County,GA,NA,6.82095006090134,NA
30904,Richmond County,GA,22.46489859594384,10.23142509135201,NA
30906,Richmond County,GA,19.18876755070203,NA,NA
30907,Columbia County,GA,NA,22.89890377588307,NA
30909,Richmond County,GA,NA,46.406820950060904,NA
31024,Putnam County,GA,NA,69.42752740560292,20.71269487750557
31092,Dooly County,GA,NA,70.03654080389768,NA
31523,Glynn County,GA,62.71450858034321,NA,NA
31605,Lowndes County,GA,50.390015600624025,NA,NA
31636,Lowndes County,GA,NA,62.36297198538367,NA
96701,Honolulu County,HI,NA,9.257003654080389,NA
96707,Honolulu County,HI,NA,41.90012180267966,NA
96732,Maui County,HI,NA,NA,75.50111358574611
96743,Hawaii County,HI,NA,NA,59.46547884187082
96744,Honolulu County,HI,NA,82.46041412911083,NA
96766,Kauai County,HI,NA,NA,61.02449888641426
96789,Honolulu County,HI,76.5990639625585,NA,NA
96795,Honolulu County,HI,NA,NA,69.26503340757239
96797,Honolulu County,HI,NA,3.2886723507917175,NA
96815,Honolulu County,HI,NA,NA,13.3630289532294
96817,Honolulu County,HI,NA,NA,3.5634743875278394
83340,Blaine County,ID,90.01560062402496,NA,NA
83501,Nez Perce County,ID,NA,NA,38.084632516703785
83616,Ada County,ID,NA,NA,7.57238307349666
83642,Ada County,ID,NA,NA,65.70155902004454
83687,Canyon County,ID,NA,NA,32.516703786191535
83705,Ada County,ID,NA,8.160779537149818,NA
83835,Kootenai County,ID,NA,19.732034104750305,NA
83854,Kootenai County,ID,NA,35.20097442143727,11.1358574610245
60002,Lake County,IL,NA,NA,65.92427616926503
60004,Cook County,IL,51.17004680187207,NA,NA
60005,Cook County,IL,NA,NA,62.1380846325167
60007,Cook County,IL,35.257410296411855,NA,16.70378619153675
60010,Lake County,IL,NA,7.3081607795371495,NA
60013,McHenry County,IL,60.37441497659907,NA,NA
60015,Lake County,IL,NA,NA,10.244988864142538
60016,Cook County,IL,14.82059282371295,NA,NA
60050,McHenry County,IL,24.492979719188767,NA,NA
60060,Lake County,IL,NA,8.038976857490866,NA
60067,Cook County,IL,NA,NA,59.24276169265033
60076,Cook County,IL,29.017160686427456,73.81242387332522,NA
60087,Lake County,IL,NA,47.259439707673565,NA
60089,Lake County,IL,NA,5.481120584652863,NA
60130,Cook County,IL,NA,41.90012180267966,NA
60133,Cook County,IL,92.35569422776912,NA,NA
60142,McHenry County,IL,NA,5.724725943970768,NA
60148,DuPage County,IL,65.36661466458659,NA,55.67928730512249
60154,Cook County,IL,NA,13.520097442143728,NA
60174,Kane County,IL,NA,NA,26.280623608017816
60185,DuPage County,IL,23.868954758190327,NA,NA
60192,Cook County,IL,65.99063962558502,NA,NA
60193,Cook County,IL,NA,4.993909866017052,NA
60201,Cook County,IL,28.39313572542902,11.571254567600487,NA
60410,Will County,IL,NA,46.28501827040195,NA
60429,Cook County,IL,NA,62.36297198538367,NA
60440,Will County,IL,NA,7.673568818514006,NA
60453,Cook County,IL,NA,47.990255785627284,NA
60471,Cook County,IL,82.99531981279252,41.90012180267966,NA
60516,DuPage County,IL,52.106084243369736,NA,NA
60527,DuPage County,IL,33.853354134165365,NA,NA
60555,DuPage County,IL,NA,90.98660170523752,NA
60559,DuPage County,IL,NA,53.10596833130329,NA
60560,Kendall County,IL,NA,77.95371498172959,NA
60561,DuPage County,IL,NA,NA,48.55233853006681
60565,DuPage County,IL,NA,10.596833130328868,NA
60601,Cook County,IL,92.04368174726989,NA,NA
60605,Cook County,IL,93.44773790951638,NA,NA
60608,Cook County,IL,NA,7.551766138855055,NA
60610,Cook County,IL,NA,65.77344701583435,NA
60616,Cook County,IL,NA,NA,14.699331848552339
60618,Cook County,IL,68.33073322932918,32.15590742996346,NA
60619,Cook County,IL,NA,2.5578562728380025,0.8908685968819599
60624,Cook County,IL,9.360374414976599,NA,NA
60628,Cook County,IL,NA,2.3142509135200973,NA
60630,Cook County,IL,NA,6.699147381242387,NA
60631,Cook County,IL,55.07020280811232,53.958587088915955,NA
60634,Cook County,IL,NA,4.141291108404385,NA
60638,Cook County,IL,NA,81.24238733252132,19.15367483296214
60640,Cook County,IL,34.789391575663025,NA,NA
60643,Cook County,IL,NA,1.9488428745432398,NA
60647,Cook County,IL,NA,NA,64.14253897550111
60655,Cook County,IL,41.02964118564743,NA,NA
60659,Cook County,IL,NA,14.12911084043849,NA
60804,Cook County,IL,NA,NA,53.00668151447662
61085,Jo Daviess County,IL,99.06396255850234,NA,NA
61350,LaSalle County,IL,NA,42.752740560292324,NA
61554,Tazewell County,IL,NA,6.090133982947625,NA
61616,Peoria County,IL,NA,NA,97.7728285077951
61761,McLean County,IL,NA,22.168087697929355,NA
61821,Champaign County,IL,NA,NA,6.45879732739421
61832,Vermilion County,IL,NA,37.758830694275275,NA
62034,Madison County,IL,NA,53.22777101096224,NA
62040,Madison County,IL,12.168486739469579,5.115712545676005,NA
62220,St. Clair County,IL,NA,84.04384896467722,NA
62223,St. Clair County,IL,48.829953198127924,NA,NA
62234,Madison County,IL,NA,NA,92.20489977728286
62249,Madison County,IL,NA,73.69062119366626,NA
62269,St. Clair County,IL,NA,79.41534713763703,NA
62656,Logan County,IL,NA,NA,34.96659242761693
62832,Perry County,IL,NA,51.52253349573691,NA
46037,Hamilton County,IN,97.03588143525741,NA,NA
46062,Hamilton County,IN,NA,67.60048721071864,NA
46158,Morgan County,IN,NA,15.10353227771011,NA
46201,Marion County,IN,11.076443057722308,NA,NA
46218,Marion County,IN,6.708268330733229,NA,NA
46220,Marion County,IN,NA,25.456760048721073,NA
46229,Marion County,IN,60.218408736349446,NA,NA
46236,Marion County,IN,73.01092043681747,NA,NA
46237,Marion County,IN,NA,22.289890377588307,NA
46254,Marion County,IN,NA,15.956151035322778,NA
46256,Marion County,IN,NA,74.17783191230207,NA
46260,Marion County,IN,NA,NA,27.39420935412027
46321,Lake County,IN,NA,29.35444579780755,NA
46323,Lake County,IN,NA,80.63337393422655,NA
46350,LaPorte County,IN,22.152886115444616,NA,NA
46385,Porter County,IN,NA,1.705237515225335,NA
46405,Lake County,IN,NA,NA,72.38307349665925
46406,Lake County,IN,79.25117004680187,NA,NA
46544,St. Joseph County,IN,NA,33.13032886723508,NA
46563,Marshall County,IN,50.23400936037441,NA,NA
46733,Adams County,IN,NA,26.9183922046285,NA
46777,Wells County,IN,98.28393135725429,NA,NA
46805,Allen County,IN,80.81123244929798,NA,NA
46953,Grant County,IN,NA,NA,94.87750556792874
47060,Dearborn County,IN,NA,92.08282582216809,NA
47203,Bartholomew County,IN,46.80187207488299,NA,NA
47374,Wayne County,IN,43.99375975039001,NA,NA
47404,Monroe County,IN,NA,50.06090133982948,NA
47591,Knox County,IN,NA,NA,9.57683741648107
47803,Vigo County,IN,NA,58.7088915956151,NA
47804,Vigo County,IN,89.39157566302653,NA,NA
47905,Tippecanoe County,IN,NA,29.476248477466505,NA
47906,Tippecanoe County,IN,NA,NA,87.08240534521158
50158,Marshall County,IA,51.950078003120126,NA,NA
50263,Dallas County,IA,70.20280811232449,NA,NA
50428,Cerro Gordo County,IA,NA,97.1985383678441,NA
50461,Mitchell County,IA,NA,76.49208282582217,NA
50501,Webster County,IA,15.132605304212168,NA,NA
50588,Buena Vista County,IA,25.897035881435258,NA,NA
50616,Floyd County,IA,NA,NA,54.78841870824054
50703,Black Hawk County,IA,NA,90.4993909866017,NA
51103,Woodbury County,IA,NA,39.46406820950061,NA
51301,Clay County,IA,NA,NA,18.93095768374165
52302,Linn County,IA,NA,88.67235079171742,NA
52405,Linn County,IA,NA,82.33861144945189,NA
66053,Miami County,KS,NA,NA,97.10467706013362
66061,Johnson County,KS,63.18252730109204,NA,NA
66103,Wyandotte County,KS,85.95943837753511,NA,NA
66112,Wyandotte County,KS,NA,96.22411693057246,NA
66203,Johnson County,KS,75.66302652106084,44.0925700365408,NA
66209,Johnson County,KS,NA,51.278928136419,NA
66502,Riley County,KS,85.02340093603745,NA,NA
66605,Shawnee County,KS,NA,68.94031668696712,NA
66609,Shawnee County,KS,NA,62.24116930572473,NA
66839,Coffey County,KS,NA,91.47381242387333,NA
67062,Harvey County,KS,99.84399375975039,NA,NA
67213,Sedgwick County,KS,42.27769110764431,NA,NA
67432,Clay County,KS,NA,61.14494518879415,NA
40047,Bullitt County,KY,18.252730109204368,95.98051157125457,NA
40118,Jefferson County,KY,NA,38.36784409257004,NA
40205,Jefferson County,KY,87.20748829953197,NA,NA
40207,Jefferson County,KY,NA,17.90499390986602,NA
40219,Jefferson County,KY,NA,NA,49.44320712694877
40241,Jefferson County,KY,NA,69.79293544457978,NA
40291,Jefferson County,KY,NA,NA,80.84632516703786
40312,Powell County,KY,NA,59.19610231425091,NA
40351,Rowan County,KY,13.72854914196568,NA,NA
40356,Jessamine County,KY,NA,88.91595615103533,NA
40475,Madison County,KY,NA,NA,40.089086859688194
40508,Fayette County,KY,NA,42.265529841656516,NA
40515,Fayette County,KY,NA,90.86479902557856,NA
41018,Kenton County,KY,NA,13.763702801461633,NA
41042,Boone County,KY,28.70514820592824,NA,NA
41056,Mason County,KY,NA,40.31668696711328,NA
41091,Boone County,KY,49.765990639625585,NA,NA
41179,Lewis County,KY,NA,49.93909866017052,NA
42129,Metcalfe County,KY,NA,38.12423873325213,NA
42347,Ohio County,KY,NA,NA,61.69265033407573
42408,Hopkins County,KY,NA,58.465286236297196,NA
42420,Henderson County,KY,NA,NA,9.799554565701559
42642,Russell County,KY,NA,91.10840438489647,NA
42718,Taylor County,KY,70.67082683307332,NA,NA
42721,Grayson County,KY,NA,57.12545676004872,NA
70003,Jefferson Parish,LA,NA,1.5834348355663823,NA
70006,Jefferson Parish,LA,NA,23.142509135200974,NA
70068,St. John the Baptist Parish,LA,NA,NA,20.044543429844097
70072,Jefferson Parish,LA,40.71762870514821,NA,NA
70122,Orleans Parish,LA,NA,5.9683313032886725,NA
70127,Orleans Parish,LA,5.61622464898596,NA,48.10690423162583
70363,Terrebonne Parish,LA,2.49609984399376,NA,NA
70394,Lafourche Parish,LA,NA,42.50913520097443,NA
70401,Tangipahoa Parish,LA,NA,96.58952496954933,NA
70443,Tangipahoa Parish,LA,37.441497659906396,NA,NA
70444,Tangipahoa Parish,LA,NA,99.02557856272838,NA
70454,Tangipahoa Parish,LA,NA,4.872107186358099,NA
70506,Lafayette Parish,LA,NA,NA,44.097995545657014
70520,Lafayette Parish,LA,36.661466458658346,NA,NA
70529,Lafayette Parish,LA,NA,NA,86.8596881959911
70560,Iberia Parish,LA,30.109204368174723,NA,NA
70601,Calcasieu Parish,LA,NA,3.8976857490864796,NA
70607,Calcasieu Parish,LA,8.580343213728549,NA,NA
70663,Calcasieu Parish,LA,NA,34.71376370280146,NA
70767,West Baton Rouge Parish,LA,52.418096723868956,NA,NA
70805,East Baton Rouge Parish,LA,NA,NA,68.37416481069042
70809,East Baton Rouge Parish,LA,NA,NA,26.7260579064588
70815,East Baton Rouge Parish,LA,9.204368174726989,NA,NA
70816,East Baton Rouge Parish,LA,4.212168486739469,NA,NA
71019,Red River Parish,LA,62.558502340093604,NA,NA
71082,Caddo Parish,LA,NA,92.32643118148599,NA
71107,Caddo Parish,LA,NA,31.790499390986604,NA
71112,Bossier Parish,LA,26.053042121684868,NA,NA
71220,Morehouse Parish,LA,NA,90.01218026796589,NA
71295,Franklin Parish,LA,NA,32.03410475030451,NA
71351,Avoyelles Parish,LA,NA,72.10718635809987,NA
71457,Natchitoches Parish,LA,NA,87.4543239951279,NA
03908,York County,ME,55.85023400936038,NA,NA
04005,York County,ME,60.06240249609984,NA,NA
04038,Cumberland County,ME,NA,26.431181485992695,NA
04074,Cumberland County,ME,NA,33.982947624847746,28.06236080178174
04102,Cumberland County,ME,NA,68.4531059683313,NA
04106,Cumberland County,ME,45.86583463338533,45.43239951278928,NA
04240,Androscoggin County,ME,NA,53.47137637028014,1.55902004454343
04268,Oxford County,ME,NA,NA,61.02449888641426
04401,Penobscot County,ME,NA,0.3654080389768575,NA
04416,Hancock County,ME,NA,NA,73.2739420935412
04605,Hancock County,ME,NA,NA,13.140311804008908
04769,Aroostook County,ME,NA,71.13276492082827,NA
04843,Knox County,ME,NA,39.82947624847747,NA
04938,Franklin County,ME,NA,34.22655298416565,NA
20601,Charles County,MD,NA,NA,96.43652561247215
20613,Prince George's County,MD,NA,NA,78.17371937639199
20721,Prince George's County,MD,NA,86.23629719853837,NA
20743,Prince George's County,MD,46.33385335413416,NA,NA
20744,Prince George's County,MD,NA,NA,34.74387527839644
20745,Prince George's County,MD,70.82683307332293,NA,NA
20746,Prince George's County,MD,83.46333853354135,73.93422655298416,NA
20774,Prince George's County,MD,NA,NA,75.94654788418708
20782,Prince George's County,MD,97.50390015600624,NA,NA
20784,Prince George's County,MD,NA,85.99269183922046,NA
20874,Montgomery County,MD,NA,NA,95.7683741648107
20886,Montgomery County,MD,52.26209048361935,NA,NA
20901,Montgomery County,MD,NA,90.62119366626065,NA
21015,Harford County,MD,NA,60.17052375152253,NA
21045,Howard County,MD,NA,44.33617539585871,NA
21146,Anne Arundel County,MD,NA,NA,69.04231625835189
21206,Baltimore city,MD,7.800312012480499,NA,NA
21209,Baltimore County,MD,41.96567862714509,NA,NA
21210,Baltimore city,MD,NA,93.05724725943972,NA
21212,Baltimore city,MD,NA,79.53714981729598,NA
21215,Baltimore city,MD,NA,55.9074299634592,NA
21222,Baltimore County,MD,NA,0.8526187576126675,NA
21228,Baltimore County,MD,NA,NA,31.180400890868597
21230,Baltimore city,MD,NA,29.71985383678441,NA
21234,Baltimore County,MD,9.98439937597504,NA,NA
21401,Anne Arundel County,MD,NA,16.68696711327649,NA
21601,Talbot County,MD,NA,63.82460414129111,64.14253897550111
21703,Frederick County,MD,72.69890795631825,NA,NA
21769,Frederick County,MD,NA,88.06333739342266,NA
01013,Hampden County,MA,1.87207488299532,NA,NA
01020,Hampden County,MA,NA,70.5237515225335,NA
01033,Hampshire County,MA,55.22620904836193,NA,NA
01040,Hampden County,MA,0.31201248049922,NA,0.4454342984409799
01104,Hampden County,MA,NA,NA,39.86636971046771
01201,Berkshire County,MA,NA,36.4190012180268,NA
01225,Berkshire County,MA,NA,99.51278928136419,NA
01230,Berkshire County,MA,46.48985959438377,NA,NA
01238,Berkshire County,MA,NA,NA,77.28285077951003
01331,Worcester County,MA,3.2761310452418098,NA,NA
01453,Worcester County,MA,11.856474258970358,NA,NA
01464,Middlesex County,MA,NA,93.54445797807551,NA
01505,Worcester County,MA,NA,NA,83.96436525612472
01516,Worcester County,MA,NA,68.57490864799026,NA
01520,Worcester County,MA,NA,NA,45.43429844097995
01523,Worcester County,MA,NA,76.85749086479903,NA
01566,Worcester County,MA,39.46957878315133,NA,NA
01604,Worcester County,MA,NA,NA,58.35189309576837
01605,Worcester County,MA,NA,34.95736906211936,NA
01720,Middlesex County,MA,NA,42.87454323995128,NA
01730,Middlesex County,MA,20.2808112324493,NA,NA
01741,Middlesex County,MA,97.97191887675507,NA,NA
01742,Middlesex County,MA,NA,NA,94.20935412026726
01746,Middlesex County,MA,12.636505460218409,NA,NA
01757,Worcester County,MA,19.34477379095164,NA,NA
01760,Middlesex County,MA,NA,19.366626065773445,NA
01772,Worcester County,MA,NA,72.95980511571256,NA
01775,Middlesex County,MA,NA,61.63215590742996,NA
01778,Middlesex County,MA,NA,27.28380024360536,NA
01801,Middlesex County,MA,NA,45.310596833130326,NA
01841,Essex County,MA,0.15600624024961,NA,NA
01845,Essex County,MA,NA,NA,40.97995545657015
01867,Middlesex County,MA,39.78159126365055,NA,NA
01876,Middlesex County,MA,NA,NA,60.801781737193764
01886,Middlesex County,MA,NA,NA,35.18930957683742
01890,Middlesex County,MA,NA,17.174177831912303,NA
01905,Essex County,MA,NA,NA,36.74832962138085
01907,Essex County,MA,NA,NA,9.131403118040089
01930,Essex County,MA,NA,67.35688185140073,NA
01970,Essex County,MA,56.31825273010921,NA,NA
02038,Norfolk County,MA,93.13572542901716,NA,NA
02043,Plymouth County,MA,47.425897035881434,NA,12.694877505567929
02048,Bristol County,MA,12.012480499219969,NA,NA
02067,Norfolk County,MA,71.45085803432137,NA,36.080178173719375
02081,Norfolk County,MA,35.569422776911075,NA,NA
02114,Suffolk County,MA,NA,20.34104750304507,NA
02116,Suffolk County,MA,NA,75.51766138855055,NA
02124,Suffolk County,MA,0,NA,NA
02126,Suffolk County,MA,8.11232449297972,NA,NA
02127,Suffolk County,MA,7.17628705148206,NA,NA
02128,Suffolk County,MA,0.62402496099844,NA,NA
02134,Suffolk County,MA,7.956318252730108,NA,NA
02135,Suffolk County,MA,NA,84.77466504263094,87.97327394209354
02140,Middlesex County,MA,94.85179407176287,NA,NA
02145,Middlesex County,MA,3.58814352574103,NA,NA
02149,Middlesex County,MA,NA,92.93544457978075,25.612472160356347
02152,Suffolk County,MA,87.83151326053043,NA,NA
02155,Middlesex County,MA,0.7800312012480499,NA,0.22271714922048996
02170,Norfolk County,MA,NA,4.263093788063337,57.01559020044543
02189,Norfolk County,MA,NA,NA,60.57906458797328
02301,Plymouth County,MA,NA,9.987819732034104,NA
02302,Plymouth County,MA,5.928237129485179,NA,NA
02339,Plymouth County,MA,NA,65.16443361753959,NA
02346,Plymouth County,MA,NA,NA,96.65924276169265
02356,Bristol County,MA,NA,NA,71.93763919821826
02360,Plymouth County,MA,17.784711388455538,NA,NA
02368,Norfolk County,MA,NA,40.56029232643118,NA
02451,Middlesex County,MA,NA,75.76126674786845,40.31180400890869
02459,Middlesex County,MA,NA,NA,75.27839643652561
02478,Middlesex County,MA,NA,12.423873325213155,NA
02649,Barnstable County,MA,NA,NA,11.58129175946548
02673,Barnstable County,MA,NA,94.27527405602923,NA
02675,Barnstable County,MA,74.88299531981279,NA,NA
02703,Bristol County,MA,NA,5.35931790499391,NA
02720,Bristol County,MA,0.46801872074883,NA,NA
02740,Bristol County,MA,5.46021840873635,2.192448233861145,NA
02745,Bristol County,MA,1.40405616224649,NA,NA
02766,Bristol County,MA,NA,68.69671132764921,NA
48001,St. Clair County,MI,NA,46.041412911084045,NA
48025,Oakland County,MI,NA,71.2545676004872,NA
48033,Oakland County,MI,NA,17.417783191230207,NA
48038,Macomb County,MI,NA,2.679658952496955,NA
48044,Macomb County,MI,NA,16.930572472594395,NA
48045,Macomb County,MI,82.8393135725429,8.404384896467722,NA
48072,Oakland County,MI,NA,29.84165651644336,NA
48075,Oakland County,MI,NA,NA,44.32071269487751
48079,St. Clair County,MI,42.90171606864275,NA,NA
48091,Macomb County,MI,5.30421216848674,NA,NA
48092,Macomb County,MI,NA,NA,62.58351893095768
48103,Washtenaw County,MI,29.17316692667707,7.429963459196102,NA
48108,Washtenaw County,MI,NA,41.41291108404385,NA
48114,Livingston County,MI,NA,14.250913520097441,NA
48126,Wayne County,MI,7.332293291731669,NA,NA
48133,Monroe County,MI,NA,77.10109622411693,NA
48150,Wayne County,MI,NA,33.982947624847746,NA
48152,Wayne County,MI,20.59282371294852,NA,91.0913140311804
48164,Wayne County,MI,50.078003120124805,NA,NA
48169,Livingston County,MI,NA,91.83922046285018,50.779510022271715
48170,Wayne County,MI,91.26365054602185,NA,NA
48180,Wayne County,MI,9.67238689547582,0.6090133982947624,NA
48186,Wayne County,MI,NA,6.211936662606577,NA
48187,Wayne County,MI,NA,1.0962241169305724,52.338530066815146
48189,Washtenaw County,MI,NA,77.83191230207065,NA
48192,Wayne County,MI,46.64586583463339,NA,NA
48198,Washtenaw County,MI,29.6411856474259,NA,NA
48204,Wayne County,MI,7.020280811232449,NA,NA
48206,Wayne County,MI,NA,39.342265529841654,NA
48207,Wayne County,MI,32.91731669266771,NA,NA
48215,Wayne County,MI,59.59438377535101,NA,NA
48217,Wayne County,MI,NA,NA,51.224944320712694
48218,Wayne County,MI,NA,97.80755176613886,NA
48235,Wayne County,MI,NA,83.19123020706456,NA
48238,Wayne County,MI,NA,NA,80.62360801781738
48239,Wayne County,MI,6.084243369734789,NA,NA
48240,Wayne County,MI,68.64274570982839,33.61753958587089,NA
48304,Oakland County,MI,75.50702028081123,73.20341047503045,NA
48306,Oakland County,MI,NA,11.449451887941535,NA
48309,Oakland County,MI,NA,NA,16.035634743875278
48323,Oakland County,MI,NA,93.78806333739342,NA
48329,Oakland County,MI,NA,10.71863580998782,NA
48334,Oakland County,MI,NA,18.879415347137638,NA
48340,Oakland County,MI,47.269890795631824,NA,NA
48341,Oakland County,MI,NA,50.79171741778319,NA
48393,Oakland County,MI,NA,NA,90.8685968819599
48421,Lapeer County,MI,NA,57.49086479902557,NA
48438,Genesee County,MI,77.06708268330733,NA,NA
48439,Genesee County,MI,NA,NA,85.30066815144765
48603,Saginaw County,MI,NA,4.750304506699147,NA
48604,Saginaw County,MI,NA,30.085261875761265,NA
48612,Gladwin County,MI,NA,64.92082825822169,NA
48623,Saginaw County,MI,63.962558502340094,NA,NA
48650,Bay County,MI,NA,85.87088915956151,NA
48656,Roscommon County,MI,NA,76.24847746650426,NA
48661,Ogemaw County,MI,NA,30.81607795371498,NA
48722,Saginaw County,MI,98.12792511700468,NA,NA
48739,Iosco County,MI,NA,NA,85.30066815144765
48820,Clinton County,MI,NA,NA,88.41870824053451
48843,Livingston County,MI,25.741029641185648,NA,NA
48858,Isabella County,MI,4.5241809672386895,NA,NA
48864,Ingham County,MI,NA,NA,42.53897550111358
48906,Ingham County,MI,NA,NA,21.826280623608017
48911,Ingham County,MI,31.669266770670827,7.917174177831912,NA
48917,Eaton County,MI,57.25429017160687,NA,NA
49001,Kalamazoo County,MI,12.948517940717629,NA,NA
49017,Calhoun County,MI,NA,12.78928136419001,NA
49022,Berrien County,MI,NA,NA,11.804008908685969
49285,Ingham County,MI,NA,52.740560292326435,NA
49315,Kent County,MI,NA,46.77222898903776,NA
49319,Kent County,MI,97.65990639625585,NA,NA
49348,Allegan County,MI,78.1591263650546,NA,NA
49418,Kent County,MI,NA,63.0937880633374,NA
49423,Ottawa County,MI,NA,4.019488428745433,NA
49428,Ottawa County,MI,NA,16.443361753958587,NA
49435,Ottawa County,MI,100,NA,NA
49460,Ottawa County,MI,NA,55.054811205846534,NA
49464,Ottawa County,MI,33.38533541341654,67.47868453105968,NA
49505,Kent County,MI,NA,NA,87.30512249443207
49519,Kent County,MI,NA,83.3130328867235,NA
49684,Grand Traverse County,MI,NA,NA,15.590200445434299
49685,Grand Traverse County,MI,55.53822152886115,NA,NA
49707,Alpena County,MI,NA,NA,91.98218262806236
49727,Charlevoix County,MI,86.89547581903277,NA,NA
49730,Antrim County,MI,NA,92.5700365408039,NA
49735,Otsego County,MI,NA,NA,57.906458797327396
49749,Cheboygan County,MI,84.24336973478938,NA,NA
49841,Marquette County,MI,97.34789391575663,NA,NA
49938,Gogebic County,MI,92.51170046801872,NA,NA
55045,Chisago County,MN,78.78315132605304,NA,NA
55104,Ramsey County,MN,NA,NA,32.962138084632514
55108,Ramsey County,MN,NA,88.1851400730816,NA
55124,Dakota County,MN,NA,49.20828258221681,NA
55129,Washington County,MN,NA,76.97929354445799,NA
55303,Anoka County,MN,NA,18.270401948842874,NA
55309,Sherburne County,MN,NA,95.61510353227771,NA
55337,Dakota County,MN,21.8408736349454,NA,92.42761692650335
55404,Hennepin County,MN,NA,11.084043848964678,NA
55407,Hennepin County,MN,4.83619344773791,NA,NA
55411,Hennepin County,MN,NA,76.73568818514008,NA
55427,Hennepin County,MN,NA,37.63702801461632,NA
55431,Hennepin County,MN,41.18564742589704,NA,NA
55444,Hennepin County,MN,NA,48.59926918392205,NA
55447,Hennepin County,MN,71.7628705148206,NA,NA
55744,Itasca County,MN,NA,NA,37.8619153674833
55806,St. Louis County,MN,62.24648985959438,NA,NA
55987,Winona County,MN,51.014040561622465,NA,NA
56362,Stearns County,MN,NA,NA,84.85523385300668
56431,Aitkin County,MN,NA,NA,17.59465478841871
56601,Beltrami County,MN,NA,69.91473812423872,NA
56649,Koochiching County,MN,86.58346333853353,NA,NA
38606,Panola County,MS,45.55382215288611,NA,NA
38654,DeSoto County,MS,NA,50.548112058465286,NA
38829,Prentiss County,MS,91.10764430577223,NA,NA
39042,Rankin County,MS,NA,40.073081607795366,NA
39047,Rankin County,MS,NA,22.289890377588307,NA
39090,Attala County,MS,NA,38.73325213154689,NA
39110,Madison County,MS,24.648985959438377,NA,NA
39111,Simpson County,MS,NA,NA,93.98663697104676
39180,Warren County,MS,27.92511700468019,NA,NA
39208,Rankin County,MS,48.205928237129484,31.303288672350792,NA
39211,Hinds County,MS,79.71918876755069,NA,NA
39452,George County,MS,NA,NA,22.048997772828507
39501,Harrison County,MS,NA,47.62484774665043,NA
39503,Harrison County,MS,NA,12.667478684531059,NA
39567,Jackson County,MS,NA,75.3958587088916,NA
39581,Jackson County,MS,NA,NA,92.87305122494432
39648,Pike County,MS,34.009360374414975,NA,NA
39702,Lowndes County,MS,93.29173166926678,NA,NA
63021,St. Louis County,MO,27.613104524180965,62.85018270401949,NA
63026,St. Louis County,MO,22.932917316692667,NA,NA
63028,Jefferson County,MO,NA,78.1973203410475,NA
63034,St. Louis County,MO,NA,83.43483556638246,NA
63042,St. Louis County,MO,NA,78.80633373934226,NA
63074,St. Louis County,MO,NA,29.963459196102317,NA
63103,St. Louis city,MO,NA,82.94762484774665,NA
63107,St. Louis city,MO,NA,49.817295980511574,NA
63122,St. Louis County,MO,NA,36.54080389768575,NA
63124,St. Louis County,MO,NA,53.71498172959805,NA
63130,St. Louis County,MO,86.73946957878314,NA,NA
63367,St. Charles County,MO,NA,NA,79.73273942093542
63376,St. Charles County,MO,NA,NA,93.31848552338529
63461,Marion County,MO,NA,96.71132764920827,NA
63552,Macon County,MO,NA,59.31790499390986,NA
63640,St. Francois County,MO,49.141965678627145,NA,NA
63670,Ste. Genevieve County,MO,85.33541341653667,NA,NA
63701,Cape Girardeau County,MO,NA,21.193666260657736,NA
63801,Scott County,MO,NA,NA,72.82850779510022
64024,Clay County,MO,95.47581903276131,NA,62.360801781737194
64055,Jackson County,MO,5.77223088923557,NA,NA
64063,Jackson County,MO,61.15444617784711,48.964677222898906,NA
64076,Lafayette County,MO,67.70670826833073,NA,NA
64093,Johnson County,MO,NA,NA,30.734966592427615
64123,Jackson County,MO,27.769110764430575,NA,NA
64130,Jackson County,MO,NA,32.521315468940315,NA
64134,Jackson County,MO,NA,19.61023142509135,NA
64152,Platte County,MO,NA,67.23507917174177,NA
64155,Clay County,MO,NA,NA,83.07349665924276
64424,Harrison County,MO,94.38377535101404,NA,NA
64429,Clinton County,MO,86.42745709828394,NA,NA
64505,Buchanan County,MO,NA,96.467722289890375,NA
64759,Barton County,MO,NA,94.03166869671132,NA
64804,Jasper County,MO,NA,77.46650426309378,NA
65340,Saline County,MO,45.70982839313572,NA,NA
65483,Texas County,MO,NA,NA,79.9554565701559
65622,Dallas County,MO,NA,60.657734470158346,NA
65706,Webster County,MO,58.97035881435257,NA,NA
65807,Greene County,MO,16.22464898595944,NA,NA
59105,Yellowstone County,MT,64.89859594383776,NA,NA
59715,Gallatin County,MT,NA,88.55054811205846,NA
59718,Gallatin County,MT,NA,NA,73.05122494432071
59808,Missoula County,MT,NA,60.53593179049939,NA
59833,Ravalli County,MT,NA,NA,85.74610244988864
59875,Ravalli County,MT,NA,NA,97.9955456570156
68007,Douglas County,NE,63.338533541341654,NA,NA
68025,Dodge County,NE,58.65834633385335,NA,NA
68134,Douglas County,NE,NA,NA,39.643652561247215
68352,Jefferson County,NE,NA,NA,65.03340757238307
68355,Richardson County,NE,NA,NA,50.55679287305123
68510,Lancaster County,NE,NA,82.58221680876979,NA
68847,Buffalo County,NE,NA,NA,38.530066815144764
69101,Lincoln County,NE,36.973478939157566,NA,NA
89131,Clark County,NV,30.88923556942278,NA,NA
89156,Clark County,NV,NA,43.23995127892813,NA
89183,Clark County,NV,NA,87.57612667478685,NA
89433,Washoe County,NV,NA,35.44457978075518,NA
03032,Rockingham County,NH,NA,50.42630937880633,NA
03042,Rockingham County,NH,NA,59.074299634591966,73.94209354120267
03052,Hillsborough County,NH,70.98283931357254,NA,NA
03062,Hillsborough County,NH,NA,3.6540803897685747,NA
03064,Hillsborough County,NH,18.096723868954758,NA,NA
03104,Hillsborough County,NH,41.65366614664587,NA,NA
03106,Merrimack County,NH,56.78627145085804,NA,58.797327394209354
03249,Belknap County,NH,88.61154446177846,NA,NA
03275,Merrimack County,NH,NA,84.40925700365408,NA
03470,Cheshire County,NH,NA,NA,99.77728285077951
03825,Strafford County,NH,81.74726989079562,NA,NA
03827,Rockingham County,NH,NA,99.7563946406821,NA
03842,Rockingham County,NH,78.003120124805,NA,NA
03870,Rockingham County,NH,NA,NA,81.06904231625836
03894,Carroll County,NH,NA,57.85627283800243,NA
07016,Union County,NJ,NA,74.29963459196102,NA
07018,Essex County,NJ,56.16224648985959,NA,NA
07041,Essex County,NJ,NA,NA,71.49220489977728
07047,Hudson County,NJ,37.129485179407176,NA,NA
07054,Morris County,NJ,NA,18.026796589524967,NA
07059,Somerset County,NJ,NA,74.66504263093789,NA
07060,Union County,NJ,NA,NA,66.36971046770601
07067,Middlesex County,NJ,95.00780031201248,NA,NA
07108,Essex County,NJ,NA,9.622411693057249,NA
07450,Bergen County,NJ,81.90327613104525,NA,NA
07458,Bergen County,NJ,NA,86.60170523751522,NA
07461,Sussex County,NJ,48.673946957878314,NA,63.474387527839646
07470,Passaic County,NJ,NA,2.0706455542021924,NA
07646,Bergen County,NJ,NA,88.79415347137638,NA
07675,Bergen County,NJ,94.07176287051482,NA,NA
07720,Monmouth County,NJ,86.1154446177847,NA,NA
07730,Monmouth County,NJ,35.413416536661465,NA,NA
07731,Monmouth County,NJ,77.53510140405616,NA,NA
07734,Monmouth County,NJ,12.792511700468017,NA,NA
07735,Monmouth County,NJ,NA,19.97563946406821,NA
07738,Monmouth County,NJ,NA,NA,75.05567928730513
07828,Morris County,NJ,NA,90.37758830694276,NA
07840,Warren County,NJ,21.996879875195006,NA,NA
07921,Somerset County,NJ,NA,NA,96.88195991091314
08030,Camden County,NJ,57.56630265210608,NA,NA
08037,Atlantic County,NJ,NA,NA,13.808463251670378
08046,Burlington County,NJ,NA,37.393422655298416,NA
08048,Burlington County,NJ,63.65054602184087,NA,NA
08050,Ocean County,NJ,NA,85.1400730816078,NA
08053,Burlington County,NJ,NA,61.99756394640682,NA
08086,Gloucester County,NJ,NA,NA,64.58797327394208
08109,Camden County,NJ,NA,60.90133982947626,NA
08205,Atlantic County,NJ,NA,NA,52.56124721603563
08232,Atlantic County,NJ,NA,NA,70.60133630289532
08234,Atlantic County,NJ,2.65210608424337,NA,NA
08251,Cape May County,NJ,NA,52.740560292326435,NA
08318,Salem County,NJ,NA,64.31181485992693,NA
08332,Cumberland County,NJ,NA,87.81973203410475,NA
08527,Ocean County,NJ,NA,3.41047503045067,NA
08648,Mercer County,NJ,83.77535101404057,NA,NA
08690,Mercer County,NJ,27.301092043681745,NA,NA
08750,Monmouth County,NJ,98.4399375975039,NA,NA
08755,Ocean County,NJ,66.77067082683308,NA,NA
08759,Ocean County,NJ,NA,NA,0
08801,Hunterdon County,NJ,77.69110764430577,NA,NA
08816,Middlesex County,NJ,NA,NA,26.948775055679285
08902,Middlesex County,NJ,80.49921996879876,NA,NA
87031,Valencia County,NM,NA,15.712545676004872,NA
87105,Bernalillo County,NM,NA,1.8270401948842874,NA
87111,Bernalillo County,NM,2.3400936037441498,NA,NA
87120,Bernalillo County,NM,62.870514820592824,NA,NA
87505,Santa Fe County,NM,NA,3.1668696711327646,NA
88011,Doa Ana County,NM,NA,23.751522533495738,NA
10002,New York County,NY,24.024960998439937,NA,NA
10017,New York County,NY,81.43525741029642,NA,NA
10019,New York County,NY,NA,NA,87.75055679287304
10024,New York County,NY,NA,12.18026796589525,18.040089086859687
10027,New York County,NY,54.44617784711389,NA,NA
10028,New York County,NY,NA,56.881851400730824,NA
10301,Richmond County,NY,NA,58.2216808769793,NA
10303,Richmond County,NY,NA,24.84774665042631,NA
10305,Richmond County,NY,NA,8.647990255785627,NA
10306,Richmond County,NY,78.62714508580343,NA,NA
10308,Richmond County,NY,NA,31.425091352009744,NA
10309,Richmond County,NY,NA,NA,32.29398663697104
10314,Richmond County,NY,NA,25.213154689403165,NA
10455,Bronx County,NY,13.260530421216849,NA,NA
10462,Bronx County,NY,4.6801872074882995,NA,NA
10463,Bronx County,NY,NA,NA,2.2271714922048997
10469,Bronx County,NY,NA,NA,3.34075723830735
10470,Bronx County,NY,NA,NA,89.086859688196
10567,Westchester County,NY,NA,NA,41.648106904231625
10580,Westchester County,NY,82.68330733229328,NA,NA
10583,Westchester County,NY,65.21060842433697,NA,NA
10710,Westchester County,NY,NA,NA,55.01113585746103
10801,Westchester County,NY,74.41497659906396,NA,NA
10804,Westchester County,NY,NA,65.6516443361754,NA
11030,Nassau County,NY,NA,NA,97.55011135857461
11103,Queens County,NY,78.31513260530421,NA,NA
11106,Queens County,NY,NA,75.6394640682095,NA
11201,Kings County,NY,77.84711388455538,NA,NA
11203,Kings County,NY,NA,77.7101096224117,NA
11204,Kings County,NY,NA,42.99634591961023,NA
11206,Kings County,NY,NA,0.24360535931790497,4.008908685968819
11207,Kings County,NY,8.268330733229329,NA,NA
11208,Kings County,NY,NA,7.064555420219245,NA
11209,Kings County,NY,NA,83.67844092570037,NA
11210,Kings County,NY,NA,NA,20.93541202672606
11213,Kings County,NY,3.74414976599064,NA,NA
11217,Kings County,NY,25.117004680187204,NA,NA
11220,Kings County,NY,2.02808112324493,14.007308160779536,NA
11223,Kings County,NY,NA,NA,49.665924276169264
11224,Kings County,NY,NA,NA,1.1135857461024499
11229,Kings County,NY,39.31357254290172,NA,NA
11230,Kings County,NY,NA,56.02923264311814,NA
11234,Kings County,NY,NA,NA,68.8195991091314
11238,Kings County,NY,NA,27.161997563946404,NA
11357,Queens County,NY,NA,71.49817295980512,NA
11367,Queens County,NY,NA,96.34591961023142,NA
11368,Queens County,NY,NA,47.01583434835566,NA
11378,Queens County,NY,NA,35.07917174177832,NA
11411,Queens County,NY,NA,69.54933008526187,NA
11420,Queens County,NY,31.201248049921997,NA,NA
11434,Queens County,NY,NA,76.37028014616321,NA
11501,Nassau County,NY,NA,NA,84.18708240534521
11510,Nassau County,NY,NA,NA,28.953229398663698
11542,Nassau County,NY,NA,NA,24.4988864142539
11554,Nassau County,NY,NA,25.57856272838002,NA
11558,Nassau County,NY,89.85959438377536,NA,NA
11561,Nassau County,NY,NA,70.7673568818514,NA
11704,Suffolk County,NY,NA,27.649208282582215,NA
11710,Nassau County,NY,NA,NA,23.16258351893096
11731,Suffolk County,NY,59.75039001560063,NA,NA
11743,Suffolk County,NY,NA,NA,71.0467706013363
11746,Suffolk County,NY,NA,22.0462850182704,NA
11753,Nassau County,NY,95.94383775351014,NA,NA
11754,Suffolk County,NY,NA,57.61266747868453,NA
11779,Suffolk County,NY,NA,27.40560292326431,NA
11782,Suffolk County,NY,NA,NA,50.11135857461024
11791,Nassau County,NY,NA,55.420219244823386,NA
11801,Nassau County,NY,NA,93.17904993909866,NA
11953,Suffolk County,NY,NA,NA,99.33184855233853
12053,Schenectady County,NY,NA,91.59561510353228,NA
12054,Albany County,NY,NA,81.60779537149817,NA
12061,Rensselaer County,NY,NA,NA,59.46547884187082
12202,Albany County,NY,15.756630265210608,NA,NA
12203,Albany County,NY,NA,21.8026796589525,NA
12302,Schenectady County,NY,26.209048361934478,NA,NA
12414,Greene County,NY,NA,47.503045066991476,NA
12534,Columbia County,NY,NA,NA,59.910913140311806
12538,Dutchess County,NY,NA,NA,37.41648106904232
12540,Dutchess County,NY,NA,NA,89.97772828507794
12572,Dutchess County,NY,NA,83.92204628501827,NA
12590,Dutchess County,NY,NA,38.85505481120585,NA
12816,Washington County,NY,65.52262090483619,62.119366626065776,NA
13032,Madison County,NY,20.12480499219969,NA,NA
13066,Onondaga County,NY,NA,91.71741778319124,NA
13069,Oswego County,NY,NA,NA,76.83741648106904
13114,Oswego County,NY,NA,57.12545676004872,NA
13210,Onondaga County,NY,NA,75.1522533495737,NA
13212,Onondaga County,NY,NA,59.80511571254568,NA
13214,Onondaga County,NY,59.2823712948518,NA,NA
13309,Oneida County,NY,NA,NA,74.38752783964365
13316,Oneida County,NY,42.58970358814352,NA,NA
13326,Otsego County,NY,48.829953198127924,NA,NA
13421,Madison County,NY,NA,67.72228989037758,NA
13440,Oneida County,NY,1.24804992199688,NA,NA
13476,Oneida County,NY,68.01872074882995,NA,NA
13601,Jefferson County,NY,2.9641185647425896,NA,NA
13733,Chenango County,NY,NA,NA,98.66369710467706
13815,Chenango County,NY,8.892355694227769,NA,NA
13820,Otsego County,NY,22.776911076443056,NA,NA
14004,Erie County,NY,95.16380655226209,NA,NA
14006,Erie County,NY,NA,72.35079171741778,NA
14020,Genesee County,NY,25.429017160686428,NA,NA
14070,Erie County,NY,NA,NA,85.96881959910914
14086,Erie County,NY,NA,94.39707673568819,NA
14092,Niagara County,NY,NA,71.86358099878197,NA
14094,Niagara County,NY,NA,74.90864799025579,NA
14103,Orleans County,NY,95.63182527301092,NA,NA
14150,Erie County,NY,NA,16.321559074299635,NA
14209,Erie County,NY,98.75195007800312,NA,NA
14216,Erie County,NY,62.402496099843994,NA,NA
14220,Erie County,NY,96.72386895475819,NA,NA
14221,Erie County,NY,NA,1.0962241169305724,NA
14226,Erie County,NY,64.27457098283932,NA,NA
14424,Ontario County,NY,NA,0,NA
14432,Ontario County,NY,NA,54.93300852618758,NA
14472,Monroe County,NY,NA,87.08891595615104,NA
14534,Monroe County,NY,16.536661466458657,NA,53.229398663697104
14543,Monroe County,NY,NA,98.05115712545675,NA
14564,Ontario County,NY,NA,29.598051157125454,NA
14580,Monroe County,NY,24.180967238689547,NA,1.7817371937639197
14591,Wyoming County,NY,NA,97.6857490864799,NA
14606,Monroe County,NY,1.71606864274571,NA,NA
14613,Monroe County,NY,69.26677067082684,NA,NA
14617,Monroe County,NY,4.99219968798752,NA,NA
14618,Monroe County,NY,NA,23.26431181485993,NA
14624,Monroe County,NY,66.45865834633385,NA,NA
14626,Monroe County,NY,57.72230889235569,NA,5.122494432071269
14701,Chautauqua County,NY,75.35101404056162,NA,6.904231625835189
14733,Chautauqua County,NY,NA,NA,92.65033407572383
14843,Steuben County,NY,13.104524180967239,NA,NA
14845,Chemung County,NY,9.82839313572543,NA,NA
14850,Tompkins County,NY,3.9001560062402496,NA,96.21380846325167
27012,Forsyth County,NC,NA,25.334957369062117,NA
27020,Yadkin County,NC,47.893915756630264,NA,75.7238307349666
27030,Surry County,NC,NA,0.48721071863580995,NA
27052,Stokes County,NC,NA,71.01096224116931,NA
27105,Forsyth County,NC,NA,10.475030450669914,NA
27203,Randolph County,NC,15.600624024960998,NA,NA
27215,Alamance County,NC,NA,15.590742996345918,NA
27253,Alamance County,NC,66.61466458658346,NA,NA
27260,Guilford County,NC,14.040561622464898,NA,NA
27265,Guilford County,NC,87.3634945397816,NA,NA
27278,Orange County,NC,NA,40.68209500609014,9.35412026726058
27288,Rockingham County,NC,8.424336973478939,NA,NA
27295,Davidson County,NC,NA,11.814859926918391,NA
27320,Rockingham County,NC,NA,49.33008526187576,2.89532293986637
27358,Guilford County,NC,NA,41.04750304506699,NA
27371,Montgomery County,NC,NA,91.96102314250913,NA
27377,Guilford County,NC,NA,45.18879415347138,NA
27407,Guilford County,NC,NA,NA,24.721603563474385
27455,Guilford County,NC,91.73166926677067,NA,NA
27519,Wake County,NC,80.96723868954759,NA,NA
27520,Johnston County,NC,NA,17.53958587088916,NA
27529,Wake County,NC,NA,8.526187576126674,NA
27563,Warren County,NC,NA,97.442143727162,NA
27587,Wake County,NC,13.416536661466457,NA,NA
27606,Wake County,NC,NA,NA,95.10022271714922
27607,Wake County,NC,NA,98.41656516443362,NA
27610,Wake County,NC,NA,NA,45.211581291759465
27615,Wake County,NC,NA,6.942752740560293,NA
27616,Wake County,NC,NA,46.65042630937881,NA
27837,Pitt County,NC,NA,99.87819732034104,NA
27863,Wayne County,NC,95.3198127925117,NA,NA
27889,Beaufort County,NC,NA,NA,19.821826280623608
27892,Martin County,NC,NA,41.169305724725945,NA
28021,Gaston County,NC,NA,NA,81.29175946547885
28027,Cabarrus County,NC,76.91107644305772,NA,NA
28083,Cabarrus County,NC,NA,NA,51.67037861915368
28105,Mecklenburg County,NC,92.66770670826833,NA,NA
28112,Union County,NC,NA,81.72959805115713,NA
28117,Iredell County,NC,90.79563182527302,NA,NA
28147,Rowan County,NC,66.30265210608425,NA,NA
28211,Mecklenburg County,NC,18.876755070202808,NA,NA
28214,Mecklenburg County,NC,NA,NA,23.83073496659243
28269,Mecklenburg County,NC,27.14508580343214,NA,24.94432071269488
28273,Mecklenburg County,NC,NA,NA,54.12026726057907
28306,Bladen County,NC,NA,18.635809987819734,NA
28314,Cumberland County,NC,19.03276131045242,NA,NA
28334,Sampson County,NC,16.06864274570983,NA,67.70601336302894
28337,Bladen County,NC,NA,37.27161997563947,NA
28383,Robeson County,NC,76.13104524180967,NA,NA
28401,New Hanover County,NC,NA,17.052375152253347,NA
28460,Onslow County,NC,NA,79.29354445797807,NA
28467,Brunswick County,NC,NA,NA,49.88864142538976
28472,Columbus County,NC,NA,51.15712545676004,NA
28513,Pitt County,NC,73.79095163806552,NA,NA
28546,Onslow County,NC,38.06552262090484,NA,24.276169265033406
28645,Caldwell County,NC,NA,NA,1.3363028953229399
28675,Alleghany County,NC,NA,NA,74.83296213808464
28690,Burke County,NC,NA,92.44823386114494,NA
28732,Henderson County,NC,NA,NA,43.652561247216035
28804,Buncombe County,NC,NA,95.49330085261876,NA
58503,Burleigh County,ND,NA,NA,80.40089086859689
43026,Franklin County,OH,NA,33.37393422655298,NA
43035,Delaware County,OH,NA,56.27283800243605,NA
43074,Delaware County,OH,96.56786271450858,NA,NA
43110,Franklin County,OH,NA,72.22898903775882,NA
43140,Madison County,OH,NA,43.48355663824604,NA
43146,Pickaway County,OH,NA,62.971985383678444,NA
43147,Fairfield County,OH,50.70202808112324,NA,NA
43207,Franklin County,OH,NA,62.72838002436053,NA
43209,Franklin County,OH,NA,NA,30.066815144766146
43224,Franklin County,OH,NA,7.795371498172959,NA
43228,Franklin County,OH,NA,NA,12.91759465478842
43452,Ottawa County,OH,85.17940717628704,NA,NA
43506,Williams County,OH,NA,12.911084043848964,NA
43560,Lucas County,OH,NA,43.8489646772229,NA
43605,Lucas County,OH,NA,NA,38.97550111358575
43607,Lucas County,OH,NA,NA,30.51224944320713
43608,Lucas County,OH,61.77847113884556,NA,NA
43611,Lucas County,OH,NA,15.347137637028013,NA
43723,Guernsey County,OH,40.09360374414976,NA,NA
43812,Coshocton County,OH,28.081123244929795,NA,NA
43947,Belmont County,OH,NA,NA,54.56570155902004
44001,Lorain County,OH,NA,66.99147381242388,NA
44012,Lorain County,OH,NA,66.26065773447016,65.25612472160356
44022,Cuyahoga County,OH,NA,14.616321559074299,NA
44044,Lorain County,OH,92.97971918876755,NA,74.16481069042317
44052,Lorain County,OH,NA,0.730816077953715,NA
44060,Lake County,OH,17.628705148205928,NA,NA
44089,Erie County,OH,47.113884555382214,NA,NA
44102,Cuyahoga County,OH,NA,NA,32.071269487750556
44105,Cuyahoga County,OH,4.368174726989079,NA,NA
44106,Cuyahoga County,OH,46.957878315132604,NA,NA
44108,Cuyahoga County,OH,NA,NA,8.68596881959911
44111,Cuyahoga County,OH,83.30733229329174,NA,NA
44119,Cuyahoga County,OH,NA,23.629719853836782,NA
44123,Cuyahoga County,OH,NA,NA,67.26057906458797
44124,Cuyahoga County,OH,NA,1.46163215590743,NA
44131,Cuyahoga County,OH,NA,9.378806333739343,NA
44132,Cuyahoga County,OH,NA,95.24969549330086,NA
44256,Medina County,OH,NA,17.783191230207066,NA
44306,Summit County,OH,74.25897035881435,NA,NA
44307,Summit County,OH,79.5631825273011,NA,NA
44312,Summit County,OH,NA,NA,40.75723830734967
44319,Summit County,OH,NA,NA,54.342984409799556
44321,Summit County,OH,NA,23.38611449451888,NA
44333,Summit County,OH,NA,84.16565164433617,NA
44471,Mahoning County,OH,75.97503900156006,NA,NA
44481,Trumbull County,OH,15.912636505460217,NA,NA
44657,Stark County,OH,NA,NA,63.91982182628062
44683,Tuscarawas County,OH,88.14352574102963,85.3836784409257,NA
44691,Wayne County,OH,NA,15.834348355663824,NA
44830,Seneca County,OH,31.981279251170047,NA,NA
44839,Erie County,OH,36.037441497659906,NA,NA
45011,Butler County,OH,NA,44.579780755176614,NA
45014,Butler County,OH,NA,NA,53.89755011135857
45039,Warren County,OH,31.825273010920434,NA,76.39198218262806
45066,Warren County,OH,NA,NA,41.87082405345212
45123,Highland County,OH,NA,NA,27.839643652561247
45169,Clinton County,OH,52.73010920436817,NA,NA
45213,Hamilton County,OH,96.25585023400937,NA,NA
45217,Hamilton County,OH,NA,54.68940316686967,NA
45219,Hamilton County,OH,75.0390015600624,NA,NA
45229,Hamilton County,OH,NA,56.76004872107187,NA
45231,Hamilton County,OH,33.229329173166924,NA,NA
45233,Hamilton County,OH,NA,NA,26.057906458797326
45237,Hamilton County,OH,NA,NA,34.075723830734965
45238,Hamilton County,OH,NA,NA,5.56792873051225
45251,Hamilton County,OH,33.697347893915754,NA,NA
45252,Hamilton County,OH,NA,99.14738124238734,NA
45387,Greene County,OH,NA,46.52862362971986,NA
45402,Montgomery County,OH,NA,56.1510353227771,NA
45417,Montgomery County,OH,6.240249609984399,NA,NA
45502,Clark County,OH,NA,70.40194884287455,NA
45612,Ross County,OH,NA,NA,86.41425389755011
45638,Lawrence County,OH,3.1201248049921997,NA,NA
45648,Scioto County,OH,NA,57.734470158343484,NA
45769,Meigs County,OH,64.1185647425897,NA,NA
45817,Allen County,OH,NA,NA,63.69710467706013
45840,Hancock County,OH,NA,41.29110840438489,NA
73013,Oklahoma County,OK,NA,4.6285018270401945,NA
73075,Garvin County,OK,NA,97.56394640682095,NA
73115,Oklahoma County,OK,NA,NA,52.78396436525612
73162,Oklahoma County,OK,32.44929797191888,NA,NA
73703,Garfield County,OK,NA,47.137637028014616,NA
74011,Tulsa County,OK,NA,24.604141291108405,NA
74136,Tulsa County,OK,NA,23.87332521315469,NA
74464,Cherokee County,OK,21.528861154446176,NA,NA
74848,Hughes County,OK,NA,52.496954933008524,NA
74960,Adair County,OK,NA,NA,46.770601336302896
97006,Washington County,OR,88.29953198127926,NA,NA
97024,Multnomah County,OR,NA,66.38246041412911,NA
97058,Wasco County,OR,NA,64.79902557856273,26.50334075723831
97123,Washington County,OR,NA,89.28136419001218,14.476614699331849
97132,Yamhill County,OR,NA,NA,48.9977728285078
97206,Multnomah County,OR,NA,94.51887941534713,NA
97212,Multnomah County,OR,43.36973478939157,NA,NA
97213,Multnomah County,OR,NA,34.835566382460414,NA
97217,Multnomah County,OR,NA,27.040194884287455,NA
97221,Multnomah County,OR,NA,82.21680876979293,NA
97223,Washington County,OR,17.160686427457097,NA,NA
97229,Washington County,OR,NA,93.30085261875762,NA
97236,Multnomah County,OR,33.541341653666144,NA,NA
97405,Lane County,OR,NA,80.38976857490864,NA
97423,Coos County,OR,88.29953198127926,NA,NA
97471,Douglas County,OR,NA,3.0450669914738127,NA
97504,Jackson County,OR,12.324492979719189,NA,NA
97603,Klamath County,OR,67.86271450858035,NA,NA
97702,Deschutes County,OR,64.74258970358814,NA,NA
97838,Umatilla County,OR,NA,8.76979293544458,NA
97914,Malheur County,OR,NA,34.59196102314251,NA
15061,Beaver County,PA,NA,45.55420219244824,NA
15106,Allegheny County,PA,NA,NA,83.51893095768375
15143,Allegheny County,PA,NA,24.116930572472594,NA
15146,Allegheny County,PA,NA,NA,46.99331848552338
15209,Allegheny County,PA,NA,44.457978075517666,NA
15210,Allegheny County,PA,9.048361934477379,NA,71.26948775055679
15235,Allegheny County,PA,96.8798751950078,NA,NA
15238,Allegheny County,PA,NA,NA,67.03786191536749
15239,Allegheny County,PA,NA,40.92570036540804,NA
15317,Washington County,PA,NA,20.95006090133983,NA
15320,Greene County,PA,NA,61.26674786845311,NA
15401,Fayette County,PA,NA,NA,24.94432071269488
15601,Westmoreland County,PA,NA,7.186358099878197,NA
15658,Westmoreland County,PA,53.042121684867396,NA,NA
15668,Westmoreland County,PA,NA,89.52496954933008,93.76391982182628
15683,Westmoreland County,PA,NA,NA,82.18262806236079
15905,Cambria County,PA,NA,19.244823386114497,NA
16066,Butler County,PA,NA,21.07186358099878,NA
16105,Lawrence County,PA,37.285491419656786,NA,NA
16314,Crawford County,PA,NA,NA,94.65478841870824
16316,Crawford County,PA,84.55538221528862,NA,NA
16441,Erie County,PA,NA,NA,86.41425389755011
16506,Erie County,PA,NA,NA,29.175946547884184
16601,Blair County,PA,NA,NA,15.812917594654788
16901,Tioga County,PA,NA,NA,95.99109131403118
17042,Lebanon County,PA,NA,NA,12.47216035634744
17043,Cumberland County,PA,NA,NA,82.40534521158129
17045,Perry County,PA,NA,95.3714981729598,NA
17055,Cumberland County,PA,NA,NA,66.59242761692651
17111,Dauphin County,PA,30.265210608424336,NA,NA
17113,Dauphin County,PA,NA,NA,85.96881959910914
17268,Franklin County,PA,NA,NA,71.71492204899778
17316,Adams County,PA,NA,95.73690621193667,NA
17325,Adams County,PA,NA,2.8014616321559074,NA
17402,York County,PA,11.23244929797192,NA,NA
17404,York County,PA,NA,NA,7.795100222717149
17522,Lancaster County,PA,15.44461778471139,NA,5.3452115812917596
17603,Lancaster County,PA,6.5522620904836195,55.176613885505475,NA
17801,Northumberland County,PA,NA,NA,91.53674832962137
17815,Columbia County,PA,NA,NA,8.240534521158128
17837,Union County,PA,NA,21.55907429963459,NA
17844,Union County,PA,NA,72.71619975639464,NA
17857,Northumberland County,PA,NA,27.892813641900123,NA
17961,Schuylkill County,PA,NA,NA,68.59688195991092
18014,Northampton County,PA,NA,NA,29.84409799554566
18018,Lehigh County,PA,NA,20.46285018270402,NA
18020,Northampton County,PA,27.45709828393136,NA,NA
18031,Lehigh County,PA,NA,NA,69.93318485523386
18064,Northampton County,PA,NA,NA,10.46770601336303
18102,Lehigh County,PA,0.93603744149766,NA,NA
18109,Lehigh County,PA,38.53354134165367,NA,NA
18301,Monroe County,PA,72.38689547581903,NA,NA
18411,Lackawanna County,PA,NA,NA,44.543429844098
18444,Lackawanna County,PA,NA,NA,99.10913140311804
18644,Luzerne County,PA,NA,40.43848964677223,NA
18940,Bucks County,PA,78.47113884555382,NA,NA
18966,Bucks County,PA,NA,NA,46.5478841870824
18974,Bucks County,PA,13.57254290171607,NA,NA
18976,Bucks County,PA,NA,NA,27.616926503340757
19002,Montgomery County,PA,NA,10.962241169305726,NA
19026,Delaware County,PA,10.29641185647426,NA,NA
19027,Montgomery County,PA,NA,98.17295980511571,15.14476614699332
19038,Montgomery County,PA,NA,12.545676004872108,NA
19053,Bucks County,PA,19.65678627145086,NA,NA
19055,Bucks County,PA,34.477379095163805,NA,NA
19057,Bucks County,PA,43.52574102964118,41.65651644336175,NA
19063,Delaware County,PA,NA,85.01827040194885,NA
19096,Montgomery County,PA,NA,76.00487210718636,NA
19111,Philadelphia County,PA,NA,15.468940316686966,NA
19116,Philadelphia County,PA,NA,85.50548112058465,NA
19123,Philadelphia County,PA,NA,69.18392204628502,NA
19124,Philadelphia County,PA,1.0920436817472698,NA,NA
19128,Philadelphia County,PA,32.605304212168484,NA,NA
19131,Philadelphia County,PA,NA,59.561510353227774,NA
19133,Philadelphia County,PA,43.6817472698908,NA,NA
19143,Philadelphia County,PA,NA,76.1266747868453,27.171492204899778
19144,Philadelphia County,PA,3.43213728549142,21.43727161997564,NA
19150,Philadelphia County,PA,NA,12.058465286236297,NA
19335,Chester County,PA,NA,26.674786845310592,NA
19380,Chester County,PA,49.297971918876755,NA,NA
19422,Montgomery County,PA,NA,NA,35.4120267260579
19425,Chester County,PA,NA,85.26187576126675,NA
19426,Montgomery County,PA,45.39781591263651,NA,NA
19510,Berks County,PA,86.27145085803433,NA,NA
19601,Berks County,PA,10.60842433697348,NA,NA
19610,Berks County,PA,NA,NA,90.20044543429844
02818,Kent County,RI,76.28705148205928,NA,NA
02860,Providence County,RI,NA,6.455542021924482,NA
02863,Providence County,RI,63.80655226209049,NA,NA
02889,Kent County,RI,NA,48.23386114494519,NA
02892,Washington County,RI,NA,82.70401948842874,NA
02893,Kent County,RI,NA,NA,25.83518930957684
02896,Providence County,RI,62.090483619344774,NA,NA
29020,Kershaw County,SC,NA,18.392204628501826,NA
29036,Lexington County,SC,95.78783151326053,NA,NA
29073,Lexington County,SC,NA,48.59926918392205,NA
29115,Orangeburg County,SC,NA,NA,33.4075723830735
29301,Spartanburg County,SC,NA,47.38124238733252,NA
29302,Spartanburg County,SC,NA,NA,45.87973273942094
29369,Spartanburg County,SC,NA,72.59439707673569,NA
29407,Charleston County,SC,NA,6.577344701583435,NA
29461,Berkeley County,SC,21.060842433697346,NA,NA
29483,Dorchester County,SC,NA,31.912302070645556,NA
29485,Dorchester County,SC,NA,NA,31.848552338530066
29505,Florence County,SC,NA,30.20706455542022,NA
29540,Darlington County,SC,NA,96.10231425091352,NA
29566,Horry County,SC,NA,66.74786845310597,NA
29585,Georgetown County,SC,NA,NA,65.47884187082406
29642,Pickens County,SC,20.74882995319813,63.337393422655296,NA
29649,Greenwood County,SC,NA,78.31912302070646,NA
29669,Anderson County,SC,NA,36.297198538367844,NA
29803,Aiken County,SC,97.19188767550702,NA,11.358574610244988
29817,Barnwell County,SC,NA,NA,100
29824,Edgefield County,SC,NA,98.29476248477467,NA
29907,Beaufort County,SC,NA,54.32399512789281,NA
57106,Minnehaha County,SD,36.349453978159126,NA,NA
57107,Minnehaha County,SD,NA,93.42265529841657,NA
57201,Codington County,SD,73.32293291731669,NA,NA
57301,Davison County,SD,31.513260530421217,NA,NA
57401,Brown County,SD,10.452418096723868,NA,NA
37013,Davidson County,TN,NA,91.23020706455543,NA
37015,Cheatham County,TN,NA,78.4409257003654,NA
37027,Williamson County,TN,NA,11.69305724725944,NA
37049,Robertson County,TN,NA,99.39098660170524,NA
37058,Stewart County,TN,70.04680187207488,NA,NA
37066,Sumner County,TN,6.86427457098284,NA,NA
37072,Davidson County,TN,19.50078003120125,NA,NA
37110,Warren County,TN,NA,13.032886723507916,NA
37128,Rutherford County,TN,NA,28.25822168087698,NA
37209,Davidson County,TN,65.6786271450858,NA,NA
37217,Davidson County,TN,NA,31.5468940316687,NA
37334,Lincoln County,TN,23.400936037441497,16.07795371498173,NA
37355,Coffee County,TN,22.620904836193446,NA,NA
37367,Bledsoe County,TN,42.90171606864275,NA,NA
37379,Hamilton County,TN,81.1232449297972,55.785627283800245,NA
37410,Hamilton County,TN,NA,99.2691839220463,NA
37412,Hamilton County,TN,NA,NA,63.02895322939867
37421,Hamilton County,TN,87.5195007800312,NA,NA
37604,Washington County,TN,11.54446177847114,NA,NA
37663,Sullivan County,TN,NA,NA,88.64142538975501
37664,Sullivan County,TN,NA,26.30937880633374,NA
37763,Roane County,TN,NA,22.53349573690621,NA
37766,Campbell County,TN,NA,NA,21.158129175946545
37807,Union County,TN,68.17472698907956,NA,NA
37830,Anderson County,TN,NA,NA,77.9510022271715
37840,Roane County,TN,NA,31.059683313032888,NA
37841,Scott County,TN,NA,58.09987819732034,NA
37849,Knox County,TN,NA,NA,31.625835189309576
37865,Sevier County,TN,NA,NA,51.67037861915368
37877,Hamblen County,TN,NA,83.80024360535931,NA
37914,Knox County,TN,NA,48.11205846528623,NA
38111,Shelby County,TN,NA,NA,30.734966592427615
38116,Shelby County,TN,NA,41.65651644336175,NA
38133,Shelby County,TN,72.54290171606864,NA,57.23830734966593
38301,Madison County,TN,NA,73.44701583434835,NA
38474,Maury County,TN,53.51014040561623,NA,NA
38501,Putnam County,TN,NA,NA,77.50556792873051
75028,Denton County,TX,NA,20.219244823386116,NA
75051,Dallas County,TX,26.521060842433698,NA,NA
75052,Dallas County,TX,32.13728549141966,NA,NA
75061,Dallas County,TX,NA,13.276492082825822,NA
75070,Collin County,TX,NA,5.237515225334957,NA
75071,Collin County,TX,16.848673946957877,NA,NA
75094,Collin County,TX,NA,78.92813641900122,NA
75134,Dallas County,TX,NA,69.06211936662606,NA
75154,Ellis County,TX,NA,NA,73.4966592427617
75211,Dallas County,TX,NA,NA,28.73051224944321
75216,Dallas County,TX,NA,4.506699147381242,NA
75217,Dallas County,TX,6.3962558502340086,NA,NA
75218,Dallas County,TX,51.326053042121686,NA,NA
75227,Dallas County,TX,11.388455538221528,NA,NA
75229,Dallas County,TX,72.07488299531981,NA,NA
75231,Dallas County,TX,NA,39.09866017052375,NA
75238,Dallas County,TX,NA,NA,33.18485523385301
75240,Dallas County,TX,89.70358814352574,NA,NA
75428,Hunt County,TX,NA,NA,89.30957683741649
75494,Wood County,TX,NA,65.04263093788063,NA
75662,Gregg County,TX,NA,NA,31.403118040089083
75670,Harrison County,TX,NA,NA,61.69265033407573
75701,Smith County,TX,NA,25.82216808769793,NA
75706,Smith County,TX,NA,43.72716199756395,NA
75707,Smith County,TX,NA,28.380024360535934,NA
75766,Cherokee County,TX,NA,3.7758830694275276,NA
76001,Tarrant County,TX,83.15132605304211,NA,NA
76011,Tarrant County,TX,NA,35.80998781973204,NA
76014,Tarrant County,TX,NA,24.725943970767357,NA
76179,Tarrant County,TX,NA,57.97807551766139,NA
76205,Denton County,TX,NA,78.92813641900122,NA
76302,Wichita County,TX,90.32761310452419,49.69549330085262,NA
76305,Wichita County,TX,90.17160686427457,NA,NA
76661,Falls County,TX,NA,59.80511571254568,NA
76710,McLennan County,TX,NA,NA,33.630289532293986
76901,Tom Green County,TX,NA,40.803897685749085,NA
77015,Harris County,TX,24.804992199687987,NA,NA
77021,Harris County,TX,NA,19.853836784409257,NA
77026,Harris County,TX,NA,NA,46.32516703786192
77027,Harris County,TX,NA,49.086479902557855,NA
77031,Harris County,TX,NA,97.07673568818514,NA
77048,Harris County,TX,NA,88.1851400730816,NA
77071,Harris County,TX,94.53978159126365,NA,NA
77072,Harris County,TX,68.95475819032761,55.54202192448234,NA
77087,Harris County,TX,NA,NA,91.31403118040089
77088,Harris County,TX,NA,NA,32.73942093541203
77090,Harris County,TX,NA,33.00852618757612,NA
77091,Harris County,TX,34.945397815912635,NA,NA
77338,Harris County,TX,51.794071762870516,NA,NA
77340,Walker County,TX,NA,NA,47.216035634743875
77355,Montgomery County,TX,NA,97.32034104750305,NA
77373,Harris County,TX,78.93915756630265,NA,NA
77379,Harris County,TX,15.288611544461778,NA,NA
77381,Montgomery County,TX,NA,NA,79.06458797327394
77386,Montgomery County,TX,NA,81.48599269183921,NA
77388,Harris County,TX,28.549141965678626,NA,NA
77418,Austin County,TX,NA,76.61388550548112,NA
77422,Brazoria County,TX,96.09984399375975,NA,NA
77450,Harris County,TX,NA,9.744214372716199,NA
77469,Fort Bend County,TX,63.026521060842434,88.42874543239951,NA
77477,Fort Bend County,TX,87.6755070202808,NA,NA
77479,Fort Bend County,TX,18.408736349453978,NA,48.775055679287306
77484,Waller County,TX,NA,54.81120584652862,NA
77494,Fort Bend County,TX,10.14040561622465,8.28258221680877,NA
77531,Brazoria County,TX,NA,NA,56.347438752783965
77535,Liberty County,TX,24.960998439937597,52.61875761266748,NA
77546,Galveston County,TX,51.6380655226209,5.84652862362972,NA
77551,Galveston County,TX,39.0015600624025,NA,NA
77563,Galveston County,TX,NA,54.56760048721072,NA
77573,Galveston County,TX,NA,NA,13.585746102449889
77584,Brazoria County,TX,7.48829953198128,NA,NA
77619,Jefferson County,TX,49.609984399375975,NA,NA
77840,Brazos County,TX,NA,43.97076735688185,NA
78061,Frio County,TX,NA,NA,72.16035634743875
78222,Bexar County,TX,45.08580343213728,NA,NA
78258,Bexar County,TX,NA,43.11814859926918,NA
78374,San Patricio County,TX,92.1996879875195,NA,NA
78414,Nueces County,TX,NA,60.048721071863575,NA
78415,Nueces County,TX,NA,28.380024360535934,NA
78520,Cameron County,TX,NA,NA,14.03118040089087
78537,Hidalgo County,TX,NA,20.584652862362972,NA
78577,Hidalgo County,TX,NA,51.76613885505481,NA
78613,Williamson County,TX,NA,9.135200974421437,NA
78616,Caldwell County,TX,99.21996879875195,NA,NA
78626,Williamson County,TX,NA,26.187576126674788,NA
78633,Williamson County,TX,NA,0.12180267965895249,NA
78654,Burnet County,TX,NA,NA,87.52783964365256
78660,Travis County,TX,79.87519500780031,NA,37.639198218262806
78681,Williamson County,TX,NA,16.808769792935443,NA
78702,Travis County,TX,53.198127925117,NA,NA
78704,Travis County,TX,NA,53.593179049939096,NA
78724,Travis County,TX,NA,72.8380024360536,NA
78750,Travis County,TX,NA,52.375152253349576,NA
78759,Travis County,TX,NA,NA,22.494432071269486
79106,Potter County,TX,NA,48.47746650426309,NA
79107,Potter County,TX,NA,30.694275274056025,NA
79416,Lubbock County,TX,NA,74.78684531059683,61.46993318485523
79423,Lubbock County,TX,NA,34.348355663824606,76.16926503340757
79424,Lubbock County,TX,NA,37.14981729598051,NA
79602,Taylor County,TX,NA,NA,50.779510022271715
79701,Midland County,TX,NA,78.07551766138855,NA
79936,El Paso County,TX,74.72698907956318,NA,NA
84041,Davis County,UT,23.556942277691107,NA,NA
84067,Weber County,UT,23.08892355694228,NA,NA
84074,Tooele County,UT,73.63494539781591,NA,NA
84075,Davis County,UT,NA,NA,79.28730512249443
84092,Salt Lake County,UT,NA,24.238733252131546,NA
84106,Salt Lake County,UT,NA,28.745432399512787,NA
84118,Salt Lake County,UT,32.293291731669264,NA,NA
84123,Salt Lake County,UT,NA,NA,58.12917594654788
84302,Box Elder County,UT,NA,69.30572472594397,NA
84737,Washington County,UT,NA,NA,84.4097995545657
05408,Chittenden County,VT,99.68798751950078,NA,NA
05446,Chittenden County,VT,NA,93.66626065773447,NA
05452,Chittenden County,VT,NA,19.00121802679659,NA
05495,Chittenden County,VT,NA,63.94640682095007,NA
05602,Washington County,VT,NA,19.12302070645554,NA
05677,Washington County,VT,NA,100,NA
05701,Rutland County,VT,60.68642745709828,NA,NA
20120,Fairfax County,VA,34.321372854914195,NA,NA
20152,Loudoun County,VA,73.16692667706708,NA,NA
20181,Prince William County,VA,NA,75.76126674786845,NA
22041,Fairfax County,VA,NA,42.38733252131547,NA
22102,Fairfax County,VA,87.98751950078002,NA,NA
22153,Fairfax County,VA,NA,32.64311814859927,NA
22193,Prince William County,VA,NA,10.109622411693058,NA
22202,Arlington County,VA,52.574102964118566,NA,NA
22204,Arlington County,VA,40.24960998439938,NA,NA
22301,Alexandria city,VA,50.858034321372855,NA,NA
22306,Fairfax County,VA,69.42277691107644,NA,NA
22310,Fairfax County,VA,68.79875195007801,NA,NA
22520,Westmoreland County,VA,NA,84.65286236297199,NA
22611,Clarke County,VA,NA,79.90255785627284,NA
22655,Frederick County,VA,84.86739469578784,NA,NA
22801,Harrisonburg city,VA,NA,45.676004872107185,NA
22840,Rockingham County,VA,99.21996879875195,NA,NA
22902,Charlottesville city,VA,NA,85.6272838002436,NA
23168,James City County,VA,NA,65.28623629719854,NA
23188,James City County,VA,NA,0.9744214372716199,NA
23225,Richmond city,VA,8.736349453978159,NA,NA
23237,Chesterfield County,VA,31.045241809672387,NA,NA
23336,Accomack County,VA,NA,NA,72.60579064587974
23454,Virginia Beach city,VA,17.94071762870515,NA,NA
23456,Virginia Beach city,VA,88.9235569422777,21.315468940316688,8.017817371937639
23464,Virginia Beach city,VA,NA,NA,10.022271714922049
23504,Norfolk city,VA,38.68954758190328,NA,NA
23513,Norfolk city,VA,NA,16.56516443361754,NA
23693,York County,VA,NA,NA,79.51002227171492
23707,Portsmouth city,VA,92.82371294851795,NA,NA
23803,Petersburg city,VA,NA,NA,17.14922048997773
23834,Colonial Heights city,VA,30.577223088923557,NA,NA
23860,Hopewell city,VA,NA,14.616321559074299,NA
24017,Roanoke city,VA,89.0795631825273,NA,NA
24095,Bedford County,VA,82.21528861154445,NA,NA
24112,Henry County,VA,NA,NA,47.216035634743875
24201,Bristol city,VA,NA,50.669914738124234,NA
24202,Washington County,VA,44.61778471138845,NA,NA
24348,Grayson County,VA,NA,NA,78.84187082405344
24368,Wythe County,VA,NA,NA,94.43207126948775
24426,Alleghany County,VA,NA,25.943970767356884,NA
24502,Lynchburg city,VA,26.98907956318253,NA,NA
24503,Lynchburg city,VA,NA,37.393422655298416,NA
24531,Pittsylvania County,VA,NA,NA,74.61024498886414
24540,Danville city,VA,NA,14.372716199756393,NA
98006,King County,WA,NA,39.82947624847747,NA
98008,King County,WA,80.18720748829952,NA,NA
98019,King County,WA,NA,92.81364190012181,NA
98037,Snohomish County,WA,NA,NA,41.202672605790646
98038,King County,WA,44.77379095163806,NA,NA
98040,King County,WA,NA,NA,90.42316258351893
98057,King County,WA,NA,86.47990255785626,NA
98059,King County,WA,29.485179407176286,15.225334957369064,NA
98087,Snohomish County,WA,NA,89.64677222898904,NA
98101,King County,WA,NA,NA,66.14699331848553
98103,King County,WA,30.42121684867395,NA,NA
98108,King County,WA,NA,38.85505481120585,NA
98110,Kitsap County,WA,NA,80.14616321559073,NA
98118,King County,WA,NA,58.58708891595615,20.489977728285076
98119,King County,WA,48.517940717628704,NA,NA
98121,King County,WA,NA,73.32521315468941,NA
98146,King County,WA,NA,NA,48.10690423162583
98155,King County,WA,28.861154446177846,NA,NA
98168,King County,WA,NA,39.585870889159565,NA
98221,Skagit County,WA,NA,NA,36.97104677060133
98223,Snohomish County,WA,NA,9.500609013398295,NA
98258,Snohomish County,WA,14.508580343213728,NA,NA
98270,Snohomish County,WA,NA,NA,40.53452115812918
98312,Kitsap County,WA,NA,NA,83.07349665924276
98332,Pierce County,WA,NA,30.45066991473813,NA
98338,Pierce County,WA,31.357254290171603,NA,NA
98339,Jefferson County,WA,NA,79.17174177831913,NA
98368,Jefferson County,WA,NA,NA,55.90200445434298
98372,Pierce County,WA,38.22152886115445,NA,NA
98390,Pierce County,WA,NA,81.36419001218027,NA
98444,Pierce County,WA,58.50234009360374,NA,NA
98466,Pierce County,WA,NA,94.76248477466504,NA
98502,Thurston County,WA,NA,82.09500609013398,NA
98506,Thurston County,WA,NA,86.72350791717417,NA
98512,Thurston County,WA,58.19032761310452,NA,NA
98815,Chelan County,WA,NA,NA,99.55456570155901
98855,Okanogan County,WA,NA,NA,97.32739420935413
98902,Yakima County,WA,16.380655226209047,NA,NA
98908,Yakima County,WA,NA,81.97320341047502,NA
98942,Yakima County,WA,NA,38.61144945188794,NA
99019,Spokane County,WA,97.81591263650546,NA,NA
99320,Benton County,WA,64.58658346333853,NA,NA
99337,Benton County,WA,NA,3.5322777101096223,NA
99352,Benton County,WA,NA,NA,14.92204899777283
99353,Benton County,WA,85.8034321372855,NA,NA
99362,Walla Walla County,WA,NA,6.333739342265529,NA
20003,District of Columbia,DC,NA,77.58830694275274,NA
20007,District of Columbia,DC,54.13416536661466,NA,NA
20010,District of Columbia,DC,NA,26.796589524969548,NA
20018,District of Columbia,DC,NA,NA,29.621380846325167
24963,Monroe County,WV,NA,99.63459196102315,NA
25143,Kanawha County,WV,NA,66.01705237515225,NA
25271,Jackson County,WV,NA,NA,42.31625835189309
25404,Berkeley County,WV,NA,21.680876979293544,NA
25430,Jefferson County,WV,NA,71.37637028014616,NA
26101,Wood County,WV,NA,2.92326431181486,NA
26175,Tyler County,WV,96.41185647425897,NA,NA
26250,Barbour County,WV,64.43057722308893,NA,NA
26354,Taylor County,WV,NA,NA,34.521158129175944
26505,Monongalia County,WV,NA,NA,8.908685968819599
26554,Marion County,WV,2.80811232449298,NA,NA
26726,Mineral County,WV,NA,NA,43.207126948775056
53022,Washington County,WI,NA,27.527405602923267,NA
53029,Waukesha County,WI,42.74570982839314,NA,NA
53105,Racine County,WI,NA,23.020706455542022,NA
53110,Milwaukee County,WI,NA,42.630937880633375,NA
53126,Racine County,WI,74.57098283931357,NA,NA
53142,Kenosha County,WI,36.505460218408736,NA,NA
53154,Milwaukee County,WI,49.453978159126365,NA,NA
53188,Waukesha County,WI,14.19656786271451,NA,NA
53189,Waukesha County,WI,36.193447737909516,NA,NA
53209,Milwaukee County,WI,1.5600624024960998,NA,NA
53214,Milwaukee County,WI,69.57878315132605,NA,NA
53215,Milwaukee County,WI,35.725429017160685,NA,NA
53217,Milwaukee County,WI,NA,62.606577344701584,NA
53227,Milwaukee County,WI,NA,32.76492082825822,NA
53402,Racine County,WI,29.329173166926676,NA,NA
53403,Racine County,WI,90.95163806552262,NA,NA
53406,Racine County,WI,NA,NA,10.913140311804009
53546,Rock County,WI,NA,NA,22.93986636971047
53551,Jefferson County,WI,54.91419656786272,NA,NA
53562,Dane County,WI,NA,NA,16.481069042316257
53948,Juneau County,WI,77.37909516380655,NA,NA
54011,Pierce County,WI,NA,87.21071863581,NA
54022,Pierce County,WI,56.94227769110765,NA,NA
54153,Oconto County,WI,72.23088923556942,NA,NA
54220,Manitowoc County,WI,5.14820592823713,NA,NA
54235,Door County,WI,61.93447737909516,NA,NA
54409,Langlade County,WI,NA,11.327649208282581,NA
54457,Wood County,WI,NA,36.662606577344704,NA
54467,Portage County,WI,NA,47.74665042630938,NA
54494,Wood County,WI,NA,45.06699147381242,NA
54501,Oneida County,WI,NA,10.840438489646772,NA
54660,Monroe County,WI,NA,26.552984165651644,NA
54703,Eau Claire County,WI,NA,NA,23.385300668151448
54739,Dunn County,WI,NA,89.76857490864799,NA
54755,Buffalo County,WI,NA,NA,59.910913140311806
54801,Washburn County,WI,NA,98.53836784409256,NA
54901,Winnebago County,WI,NA,14.981729598051158,NA
54929,Waupaca County,WI,NA,97.92935444579781,NA
54947,Winnebago County,WI,NA,98.78197320341047,NA
82930,Uinta County,WY,NA,83.06942752740561,NA
