ZipCode,county,state,Adult,Retirement,Geriatric
35058,Cullman County,AL,NA,50.3586800573888,NA
35179,Cullman County,AL,72.52747252747253,NA,NA
35405,Tuscaloosa County,AL,NA,5.4519368723099,NA
35622,Morgan County,AL,NA,63.98852223816356,NA
35640,Morgan County,AL,NA,81.06169296987088,NA
35749,Madison County,AL,NA,NA,70.1492537313433
35816,Madison County,AL,NA,43.75896700143472,NA
36049,Crenshaw County,AL,NA,74.03156384505021,NA
36109,Montgomery County,AL,28.021978021978022,NA,NA
36567,Baldwin County,AL,NA,52.65423242467718,NA
99504,Anchorage Municipality,AK,NA,61.69296987087518,NA
85018,Maricopa County,AZ,NA,23.672883787661405,NA
85044,Maricopa County,AZ,NA,28.407460545193686,NA
85051,Maricopa County,AZ,NA,59.54088952654233,NA
85201,Maricopa County,AZ,NA,18.507890961262554,NA
85258,Maricopa County,AZ,NA,NA,21.641791044776117
85283,Maricopa County,AZ,NA,NA,91.4179104477612
85351,Maricopa County,AZ,NA,NA,1.1194029850746268
85379,Maricopa County,AZ,NA,35.43758967001435,NA
85710,Pima County,AZ,NA,NA,7.462686567164178
86301,Yavapai County,AZ,NA,15.638450502152079,NA
72112,Jackson County,AR,NA,91.82209469153516,NA
72113,Pulaski County,AR,NA,27.546628407460545,NA
72396,Cross County,AR,NA,66.57101865136298,NA
72837,Pope County,AR,NA,67.14490674318509,NA
72958,Scott County,AR,NA,94.11764705882352,NA
90007,Los Angeles County,CA,NA,76.75753228120516,NA
90015,Los Angeles County,CA,NA,54.375896700143464,NA
90022,Los Angeles County,CA,NA,52.51076040172167,NA
90023,Los Angeles County,CA,NA,NA,64.17910447761194
90066,Los Angeles County,CA,23.626373626373624,NA,NA
90241,Los Angeles County,CA,NA,30.703012912482063,NA
90274,Los Angeles County,CA,74.17582417582418,NA,NA
90291,Los Angeles County,CA,NA,NA,89.17910447761194
90301,Los Angeles County,CA,NA,51.21951219512195,NA
90503,Los Angeles County,CA,NA,50.64562410329986,NA
90602,Los Angeles County,CA,NA,35.00717360114778,NA
90630,Orange County,CA,NA,11.33428981348637,NA
90720,Orange County,CA,NA,37.30272596843616,NA
91011,Los Angeles County,CA,NA,NA,41.417910447761194
91016,Los Angeles County,CA,NA,NA,63.43283582089553
91104,Los Angeles County,CA,NA,29.6987087517934,NA
91206,Los Angeles County,CA,NA,NA,10.44776119402985
91302,Los Angeles County,CA,NA,NA,95.52238805970148
91367,Los Angeles County,CA,NA,64.99282639885222,NA
91501,Los Angeles County,CA,NA,57.388809182209464,NA
91607,Los Angeles County,CA,NA,NA,58.2089552238806
91709,San Bernardino County,CA,NA,54.08895265423242,NA
91711,Los Angeles County,CA,NA,NA,14.925373134328357
91722,Los Angeles County,CA,59.89010989010989,NA,NA
91730,San Bernardino County,CA,NA,NA,22.388059701492537
91741,Los Angeles County,CA,NA,NA,97.38805970149254
91745,Los Angeles County,CA,NA,26.82926829268293,NA
91761,San Bernardino County,CA,NA,44.18938307030129,NA
91780,Los Angeles County,CA,NA,NA,28.73134328358209
91911,San Diego County,CA,NA,9.182209469153516,NA
91942,San Diego County,CA,NA,49.92826398852224,NA
91950,San Diego County,CA,54.395604395604394,19.79913916786227,NA
92020,San Diego County,CA,NA,3.1563845050215207,NA
92025,San Diego County,CA,48.9010989010989,NA,NA
92026,San Diego County,CA,NA,NA,67.16417910447761
92116,San Diego County,CA,NA,57.388809182209464,NA
92128,San Diego County,CA,NA,54.51936872309899,NA
92154,San Diego County,CA,NA,63.84505021520803,NA
92211,Riverside County,CA,NA,3.5868005738880915,NA
92253,Riverside County,CA,24.175824175824175,NA,NA
92313,San Bernardino County,CA,NA,95.26542324246772,NA
92335,San Bernardino County,CA,15.934065934065933,NA,NA
92342,San Bernardino County,CA,NA,89.6700143472023,NA
92394,San Bernardino County,CA,NA,38.1635581061693,NA
92407,San Bernardino County,CA,NA,28.98134863701578,NA
92506,Riverside County,CA,NA,68.86657101865137,NA
92563,Riverside County,CA,NA,78.62266857962697,NA
92595,Riverside County,CA,NA,39.16786226685796,NA
92648,Orange County,CA,NA,NA,87.31343283582089
92649,Orange County,CA,NA,56.09756097560976,NA
92672,Orange County,CA,NA,58.24964131994261,NA
92691,Orange County,CA,NA,49.35437589670014,NA
92782,Orange County,CA,NA,99.13916786226686,NA
92832,Orange County,CA,NA,42.46771879483501,NA
92882,Riverside County,CA,10.989010989010989,NA,NA
92887,Orange County,CA,NA,51.50645624103299,NA
93004,Ventura County,CA,NA,28.694404591104732,NA
93063,Ventura County,CA,NA,52.79770444763271,NA
93221,Tulare County,CA,NA,84.07460545193686,NA
93312,Kern County,CA,NA,93.54375896700144,NA
93543,Los Angeles County,CA,NA,85.65279770444764,NA
94010,San Mateo County,CA,NA,19.655667144906744,NA
94124,San Francisco County,CA,NA,NA,30.223880597014922
94127,San Francisco County,CA,NA,96.70014347202296,NA
94541,Alameda County,CA,NA,9.899569583931134,NA
94558,Napa County,CA,NA,2.582496413199426,NA
94577,Alameda County,CA,NA,89.38307030129124,NA
94578,Alameda County,CA,NA,32.1377331420373,NA
94603,Alameda County,CA,NA,NA,45.52238805970149
94707,Alameda County,CA,NA,NA,82.83582089552239
94806,Contra Costa County,CA,NA,69.7274031563845,NA
94901,Marin County,CA,NA,94.5480631276901,NA
94931,Sonoma County,CA,NA,73.74461979913917,NA
95112,Santa Clara County,CA,NA,25.107604017216644,NA
95131,Santa Clara County,CA,NA,92.1090387374462,NA
95370,Tuolumne County,CA,NA,1.291248206599713,NA
95409,Sonoma County,CA,NA,64.8493543758967,NA
95425,Sonoma County,CA,NA,75.89670014347202,NA
95460,Mendocino County,CA,NA,73.60114777618364,NA
95476,Sonoma County,CA,61.53846153846154,NA,NA
95492,Sonoma County,CA,NA,NA,74.6268656716418
95503,Humboldt County,CA,NA,NA,77.23880597014924
95519,Humboldt County,CA,NA,NA,39.17910447761194
95531,Del Norte County,CA,NA,65.99713055954088,NA
95602,Placer County,CA,NA,28.55093256814921,NA
95762,El Dorado County,CA,58.791208791208796,NA,NA
95820,Sacramento County,CA,59.34065934065934,NA,NA
95834,Sacramento County,CA,NA,53.65853658536586,NA
95901,Yuba County,CA,NA,91.10473457675752,NA
95926,Butte County,CA,NA,NA,23.134328358208954
95928,Butte County,CA,NA,18.794835007173603,NA
95969,Butte County,CA,NA,73.8880918220947,NA
96003,Shasta County,CA,NA,37.15925394548063,NA
96067,Siskiyou County,CA,NA,NA,66.04477611940298
80016,Arapahoe County,CO,NA,83.21377331420373,NA
80108,Douglas County,CO,NA,36.58536585365854,NA
80123,Jefferson County,CO,NA,NA,42.91044776119403
80209,Denver County,CO,NA,82.92682926829268,NA
80227,Jefferson County,CO,NA,43.32855093256815,NA
80247,Arapahoe County,CO,NA,54.66284074605452,NA
80304,Boulder County,CO,NA,41.60688665710187,NA
80504,Boulder County,CO,75.82417582417582,NA,NA
80521,Larimer County,CO,NA,NA,96.26865671641791
80909,El Paso County,CO,NA,65.4232424677188,NA
80918,El Paso County,CO,NA,65.71018651362984,NA
80922,El Paso County,CO,NA,97.13055954088952,NA
81001,Pueblo County,CO,NA,26.111908177905306,NA
81007,Pueblo County,CO,47.25274725274725,NA,NA
81089,Huerfano County,CO,NA,66.28407460545193,NA
81501,Mesa County,CO,NA,NA,47.01492537313433
06001,Hartford County,CT,NA,NA,32.08955223880597
06029,Tolland County,CT,NA,NA,33.95522388059701
06033,Hartford County,CT,NA,NA,66.4179104477612
06066,Tolland County,CT,NA,9.75609756097561,NA
06067,Hartford County,CT,NA,62.26685796269727,NA
06071,Tolland County,CT,NA,NA,75.3731343283582
06076,Tolland County,CT,NA,79.19655667144907,NA
06098,Litchfield County,CT,NA,26.97274031563845,NA
06107,Hartford County,CT,NA,NA,30.597014925373134
06108,Hartford County,CT,NA,33.715925394548066,NA
06109,Hartford County,CT,NA,32.281205164992826,NA
06111,Hartford County,CT,NA,50.07173601147776,NA
06114,Hartford County,CT,7.142857142857142,NA,NA
06118,Hartford County,CT,NA,59.684361549497844,NA
06120,Hartford County,CT,NA,80.91822094691535,NA
06226,Windham County,CT,NA,NA,83.2089552238806
06415,New London County,CT,NA,46.0545193687231,NA
06484,Fairfield County,CT,64.83516483516483,NA,NA
06489,Hartford County,CT,NA,NA,24.62686567164179
06492,New Haven County,CT,NA,5.308464849354376,NA
06511,New Haven County,CT,NA,61.54949784791965,NA
06512,New Haven County,CT,NA,NA,43.656716417910445
06516,New Haven County,CT,NA,13.3428981348637,NA
06605,Fairfield County,CT,NA,71.44906743185079,NA
06606,Fairfield County,CT,NA,75.03586800573888,NA
06614,Fairfield County,CT,NA,18.364418938307033,NA
06790,Litchfield County,CT,NA,69.44045911047347,NA
06804,Fairfield County,CT,NA,95.55236728837878,NA
06824,Fairfield County,CT,42.857142857142854,NA,NA
06880,Fairfield County,CT,NA,38.30703012912482,NA
06902,Fairfield County,CT,NA,NA,20.8955223880597
19702,New Castle County,DE,25.274725274725274,NA,NA
19802,New Castle County,DE,NA,36.29842180774749,NA
19803,New Castle County,DE,NA,NA,81.71641791044776
19901,Kent County,DE,NA,62.69727403156384,NA
19958,Sussex County,DE,NA,61.406025824964125,NA
19968,Sussex County,DE,NA,NA,85.82089552238806
19970,Sussex County,DE,NA,97.27403156384506,NA
19973,Sussex County,DE,NA,72.59684361549498,NA
32114,Volusia County,FL,NA,49.78479196556672,NA
32168,Volusia County,FL,NA,NA,19.776119402985074
32207,Duval County,FL,NA,NA,34.32835820895522
32277,Duval County,FL,NA,26.255380200860834,NA
32505,Escambia County,FL,NA,4.304160688665711,NA
32514,Escambia County,FL,NA,6.456241032998565,NA
32534,Escambia County,FL,23.076923076923077,NA,NA
32578,Okaloosa County,FL,NA,10.473457675753227,NA
32702,Lake County,FL,NA,86.94404591104734,NA
32707,Seminole County,FL,NA,35.724533715925396,NA
32708,Seminole County,FL,88.46153846153845,22.525107604017215,NA
32720,Volusia County,FL,NA,60.54519368723099,NA
32726,Lake County,FL,NA,72.16642754662841,NA
32757,Lake County,FL,NA,15.494978479196556,NA
32771,Seminole County,FL,NA,92.6829268292683,NA
32792,Orange County,FL,36.26373626373626,NA,NA
32812,Orange County,FL,16.483516483516482,NA,NA
32819,Orange County,FL,43.40659340659341,NA,NA
32833,Orange County,FL,NA,82.35294117647058,NA
32901,Brevard County,FL,NA,27.259684361549496,NA
32952,Brevard County,FL,NA,27.116212338593975,NA
32953,Brevard County,FL,34.065934065934066,NA,NA
32963,Indian River County,FL,NA,56.52797704447633,NA
33033,Miami-Dade County,FL,NA,83.93113342898135,NA
33050,Monroe County,FL,NA,88.23529411764706,NA
33125,Miami-Dade County,FL,NA,NA,69.02985074626866
33127,Miami-Dade County,FL,NA,92.96987087517934,NA
33140,Miami-Dade County,FL,NA,94.26111908177906,NA
33160,Miami-Dade County,FL,NA,20.65997130559541,NA
33177,Miami-Dade County,FL,NA,NA,76.49253731343283
33327,Broward County,FL,NA,NA,61.940298507462686
33406,Palm Beach County,FL,67.03296703296702,NA,NA
33432,Palm Beach County,FL,NA,NA,73.13432835820896
33434,Palm Beach County,FL,NA,NA,60.07462686567165
33437,Palm Beach County,FL,NA,NA,5.597014925373134
33446,Palm Beach County,FL,NA,NA,45.149253731343286
33463,Palm Beach County,FL,NA,21.8077474892396,NA
33712,Pinellas County,FL,NA,35.1506456241033,NA
33759,Pinellas County,FL,71.97802197802197,NA,NA
33881,Polk County,FL,NA,43.75896700143472,NA
33907,Lee County,FL,NA,65.13629842180775,NA
33912,Lee County,FL,NA,NA,77.98507462686567
33936,Lee County,FL,NA,NA,86.56716417910447
33955,Charlotte County,FL,NA,NA,54.1044776119403
33990,Lee County,FL,NA,84.50502152080345,NA
33991,Lee County,FL,NA,47.20229555236729,NA
34109,Collier County,FL,NA,NA,18.65671641791045
34112,Collier County,FL,52.197802197802204,NA,NA
34145,Collier County,FL,NA,51.07604017216643,NA
34239,Sarasota County,FL,NA,46.34146341463415,NA
34286,Sarasota County,FL,NA,34.86370157819225,NA
34287,Sarasota County,FL,NA,NA,13.805970149253731
34604,Hernando County,FL,48.35164835164835,NA,NA
34655,Pasco County,FL,NA,14.060258249641318,NA
34698,Pinellas County,FL,NA,59.11047345767575,NA
34715,Lake County,FL,NA,66.14060258249641,NA
34748,Lake County,FL,NA,3.7302725968436152,64.92537313432835
34759,Polk County,FL,NA,NA,38.80597014925373
34947,St. Lucie County,FL,NA,72.7403156384505,63.80597014925373
34957,Martin County,FL,NA,44.33285509325681,NA
30004,Fulton County,GA,NA,20.516499282639884,NA
30033,DeKalb County,GA,NA,47.63271162123386,NA
30040,Forsyth County,GA,NA,67.43185078909613,NA
30052,Walton County,GA,28.57142857142857,NA,NA
30075,Fulton County,GA,NA,72.02295552367288,NA
30076,Fulton County,GA,NA,98.13486370157818,NA
30132,Paulding County,GA,NA,22.094691535150645,NA
30180,Carroll County,GA,NA,21.52080344332855,NA
30240,Troup County,GA,NA,13.486370157819225,NA
30319,DeKalb County,GA,43.956043956043956,NA,NA
30461,Bulloch County,GA,64.28571428571429,NA,NA
30728,Walker County,GA,NA,93.2568149210904,NA
31024,Putnam County,GA,NA,24.390243902439025,NA
31063,Macon County,GA,NA,98.56527977044476,NA
31525,Glynn County,GA,NA,41.03299856527977,NA
31602,Lowndes County,GA,NA,51.36298421807748,NA
31707,Dougherty County,GA,NA,NA,66.7910447761194
39817,Decatur County,GA,38.46153846153847,NA,NA
39828,Grady County,GA,NA,NA,81.34328358208955
96706,Honolulu County,HI,NA,5.5954088952654235,NA
96734,Honolulu County,HI,NA,NA,25.37313432835821
96797,Honolulu County,HI,NA,18.220946915351508,NA
83301,Twin Falls County,ID,NA,33.28550932568149,NA
83333,Blaine County,ID,NA,95.40889526542324,NA
83338,Jerome County,ID,NA,83.0703012912482,NA
83706,Ada County,ID,NA,35.86800573888092,NA
83709,Ada County,ID,NA,2.008608321377331,NA
83815,Kootenai County,ID,NA,80.6312769010043,NA
60007,Cook County,IL,NA,30.55954088952654,NA
60026,Cook County,IL,NA,53.65853658536586,NA
60030,Lake County,IL,NA,13.055954088952653,NA
60031,Lake County,IL,NA,12.338593974175035,NA
60069,Lake County,IL,NA,80.77474892395983,57.46268656716418
60077,Cook County,IL,NA,15.925394548063126,NA
60085,Lake County,IL,NA,69.15351506456241,NA
60120,Kane County,IL,NA,55.38020086083214,NA
60152,McHenry County,IL,NA,74.17503586800574,NA
60164,Cook County,IL,56.043956043956044,NA,NA
60178,DeKalb County,IL,NA,28.263988522238165,NA
60193,Cook County,IL,NA,37.589670014347206,NA
60194,Cook County,IL,NA,58.96700143472023,NA
60304,Cook County,IL,NA,36.01147776183644,NA
60423,Will County,IL,45.05494505494506,NA,NA
60431,Will County,IL,NA,49.21090387374462,NA
60435,Will County,IL,31.868131868131865,NA,NA
60448,Will County,IL,NA,27.83357245337159,NA
60450,Grundy County,IL,NA,30.416068866571017,NA
60453,Cook County,IL,NA,NA,21.26865671641791
60462,Cook County,IL,35.714285714285715,NA,NA
60465,Cook County,IL,NA,31.563845050215207,NA
60477,Cook County,IL,NA,NA,74.25373134328358
60502,DuPage County,IL,NA,81.49210903873745,NA
60506,Kane County,IL,10.43956043956044,NA,NA
60523,DuPage County,IL,NA,30.84648493543759,NA
60542,Kane County,IL,NA,60.40172166427546,NA
60565,DuPage County,IL,62.08791208791209,NA,NA
60614,Cook County,IL,NA,7.890961262553802,NA
60617,Cook County,IL,NA,53.9454806312769,31.716417910447763
60618,Cook County,IL,3.296703296703297,NA,NA
60619,Cook County,IL,NA,NA,1.8656716417910446
60621,Cook County,IL,NA,NA,48.88059701492538
60629,Cook County,IL,NA,NA,9.328358208955224
60634,Cook County,IL,NA,22.23816355810617,NA
60638,Cook County,IL,NA,NA,90.67164179104478
60649,Cook County,IL,NA,23.09899569583931,NA
60657,Cook County,IL,NA,78.47919655667145,NA
60660,Cook County,IL,NA,7.4605451936872305,NA
60707,Cook County,IL,NA,24.96413199426112,NA
60804,Cook County,IL,8.791208791208792,NA,NA
61008,Boone County,IL,NA,10.043041606886657,NA
61081,Whiteside County,IL,NA,NA,4.104477611940299
61350,LaSalle County,IL,NA,17.647058823529413,NA
61401,Knox County,IL,NA,41.89383070301291,NA
61462,Warren County,IL,84.61538461538461,NA,NA
61554,Tazewell County,IL,NA,4.878048780487805,NA
61820,Champaign County,IL,NA,79.62697274031564,NA
62226,St. Clair County,IL,NA,14.634146341463413,NA
62246,Bond County,IL,97.25274725274726,NA,NA
62441,Clark County,IL,NA,61.83644189383071,NA
62557,Christian County,IL,NA,NA,46.64179104477612
62704,Sangamon County,IL,NA,41.46341463414634,NA
46016,Madison County,IN,NA,NA,26.865671641791046
46033,Hamilton County,IN,NA,56.241032998565274,NA
46052,Boone County,IN,NA,64.70588235294117,NA
46143,Johnson County,IN,NA,8.464849354375897,NA
46151,Morgan County,IN,NA,NA,40.67164179104478
46203,Marion County,IN,40.10989010989011,NA,NA
46220,Marion County,IN,NA,84.64849354375896,NA
46222,Marion County,IN,NA,39.74175035868006,NA
46224,Marion County,IN,NA,NA,48.507462686567166
46235,Marion County,IN,NA,NA,37.6865671641791
46307,Lake County,IN,NA,NA,2.9850746268656714
46321,Lake County,IN,15.384615384615385,NA,NA
46349,Newton County,IN,NA,84.7919655667145,NA
46373,Lake County,IN,NA,81.2051649928264,NA
46403,Lake County,IN,NA,78.04878048780488,NA
46514,Elkhart County,IN,11.538461538461538,NA,NA
46628,St. Joseph County,IN,NA,85.22238163558106,NA
47201,Bartholomew County,IN,20.32967032967033,NA,NA
47362,Henry County,IN,NA,NA,49.62686567164179
47720,Vanderburgh County,IN,NA,36.441893830703016,NA
47932,Fountain County,IN,NA,NA,78.35820895522389
50023,Polk County,IA,NA,72.7403156384505,NA
50219,Marion County,IA,NA,30.989956958393112,NA
52722,Scott County,IA,NA,40.6025824964132,NA
66025,Douglas County,KS,NA,94.83500717360116,NA
66109,Wyandotte County,KS,NA,77.47489239598279,NA
66213,Johnson County,KS,NA,97.99139167862266,NA
66434,Brown County,KS,77.47252747252747,NA,NA
67005,Cowley County,KS,NA,NA,94.77611940298507
67401,Saline County,KS,79.12087912087912,NA,NA
67855,Stanton County,KS,90.10989010989012,NA,NA
40380,Powell County,KY,NA,49.64131994261119,NA
40744,Laurel County,KY,NA,NA,83.95522388059702
40965,Bell County,KY,NA,NA,26.492537313432834
41017,Kenton County,KY,NA,11.047345767575322,NA
41653,Floyd County,KY,NA,NA,84.70149253731343
42303,Daviess County,KY,53.2967032967033,NA,NA
70037,Plaquemines Parish,LA,22.52747252747253,NA,NA
70344,Terrebonne Parish,LA,NA,55.81061692969871,NA
70401,Tangipahoa Parish,LA,46.15384615384615,21.09038737446198,NA
70501,Lafayette Parish,LA,NA,90.67431850789096,NA
70560,Iberia Parish,LA,1.098901098901099,NA,NA
70578,Acadia Parish,LA,NA,49.49784791965567,NA
70737,Ascension Parish,LA,27.472527472527474,78.7661406025825,NA
70769,Ascension Parish,LA,NA,47.05882352941176,NA
70809,East Baton Rouge Parish,LA,NA,NA,24.253731343283583
71106,Caddo Parish,LA,NA,NA,13.432835820895523
71115,Caddo Parish,LA,NA,NA,72.01492537313433
04011,Cumberland County,ME,NA,38.45050215208035,NA
04032,Cumberland County,ME,NA,NA,68.28358208955224
04064,York County,ME,NA,97.5609756097561,NA
04072,York County,ME,NA,82.20946915351507,NA
04102,Cumberland County,ME,NA,NA,92.91044776119402
04106,Cumberland County,ME,NA,19.94261119081779,NA
04282,Androscoggin County,ME,NA,99.56958393113344,NA
04294,Franklin County,ME,NA,67.57532281205165,NA
20706,Prince George's County,MD,32.967032967032964,NA,NA
20877,Montgomery County,MD,NA,NA,36.19402985074627
20906,Montgomery County,MD,NA,NA,69.77611940298507
21009,Harford County,MD,NA,NA,76.11940298507463
21028,Harford County,MD,NA,100,NA
21035,Anne Arundel County,MD,NA,83.78766140602582,NA
21044,Howard County,MD,NA,39.88522238163558,NA
21060,Anne Arundel County,MD,NA,48.78048780487805,NA
21061,Anne Arundel County,MD,NA,14.203730272596843,NA
21133,Baltimore County,MD,81.31868131868131,NA,NA
21205,Baltimore city,MD,NA,49.06743185078909,NA
21206,Baltimore city,MD,NA,5.164992826398852,NA
21211,Baltimore city,MD,NA,64.56241032998565,NA
21212,Baltimore city,MD,NA,43.6154949784792,NA
21218,Baltimore city,MD,79.67032967032966,NA,NA
21224,Baltimore city,MD,68.13186813186813,20.373027259684363,NA
21228,Baltimore County,MD,NA,NA,27.985074626865668
21229,Baltimore city,MD,NA,NA,51.49253731343284
21236,Baltimore County,MD,NA,NA,53.73134328358209
21502,Allegany County,MD,NA,NA,72.38805970149254
01020,Hampden County,MA,2.197802197802198,NA,NA
01040,Hampden County,MA,NA,NA,1.4925373134328357
01069,Hampden County,MA,NA,NA,63.059701492537314
01085,Hampden County,MA,NA,22.66857962697274,NA
01104,Hampden County,MA,NA,85.36585365853658,NA
01201,Berkshire County,MA,NA,13.055954088952653,NA
01376,Franklin County,MA,NA,95.69583931133428,NA
01473,Worcester County,MA,41.75824175824176,NA,NA
01562,Worcester County,MA,NA,24.820659971305595,NA
01603,Worcester County,MA,NA,NA,32.46268656716418
01607,Worcester County,MA,NA,75.46628407460545,NA
01610,Worcester County,MA,NA,13.773314203730273,NA
01701,Middlesex County,MA,NA,2.72596843615495,NA
01702,Middlesex County,MA,NA,41.75035868005739,NA
01730,Middlesex County,MA,NA,90.10043041606886,NA
01742,Middlesex County,MA,82.96703296703298,NA,NA
01746,Middlesex County,MA,NA,21.664275466284074,NA
01749,Middlesex County,MA,NA,NA,82.46268656716418
01757,Worcester County,MA,NA,29.98565279770445,NA
01803,Middlesex County,MA,NA,79.9139167862267,33.582089552238806
01834,Essex County,MA,NA,93.68723098995696,NA
01845,Essex County,MA,NA,NA,16.417910447761194
01867,Middlesex County,MA,NA,24.103299856527975,NA
01876,Middlesex County,MA,NA,0.7173601147776184,NA
01886,Middlesex County,MA,NA,57.67575322812052,NA
01905,Essex County,MA,NA,68.72309899569584,NA
01907,Essex County,MA,NA,NA,14.55223880597015
01915,Essex County,MA,NA,0.1434720229555237,NA
01960,Essex County,MA,NA,43.47202295552367,0
01970,Essex County,MA,NA,NA,6.7164179104477615
01983,Essex County,MA,NA,74.46197991391679,NA
02038,Norfolk County,MA,NA,NA,18.28358208955224
02116,Suffolk County,MA,24.725274725274726,NA,NA
02122,Suffolk County,MA,NA,0.2869440459110474,NA
02128,Suffolk County,MA,NA,85.93974175035868,NA
02139,Middlesex County,MA,NA,0.860832137733142,NA
02141,Middlesex County,MA,NA,NA,28.35820895522388
02148,Middlesex County,MA,NA,20.22955523672884,NA
02151,Suffolk County,MA,NA,NA,0.3731343283582089
02169,Norfolk County,MA,0,2.295552367288379,NA
02176,Middlesex County,MA,NA,2.4390243902439024,NA
02180,Middlesex County,MA,NA,12.051649928263988,NA
02184,Norfolk County,MA,NA,62.553802008608315,NA
02186,Norfolk County,MA,NA,NA,72.76119402985076
02302,Plymouth County,MA,NA,0.5738880918220948,NA
02324,Plymouth County,MA,NA,12.625538020086083,NA
02346,Plymouth County,MA,NA,5.0215208034433285,NA
02360,Plymouth County,MA,NA,2.1520803443328553,NA
02370,Plymouth County,MA,NA,71.30559540889526,NA
02452,Middlesex County,MA,NA,23.81635581061693,NA
02458,Middlesex County,MA,NA,80.0573888091822,NA
02571,Plymouth County,MA,NA,89.52654232424678,NA
02721,Bristol County,MA,NA,1.8651362984218076,NA
02740,Bristol County,MA,NA,6.312769010043041,NA
02746,Bristol County,MA,NA,20.946915351506455,NA
02790,Bristol County,MA,NA,NA,20.522388059701495
48009,Oakland County,MI,NA,37.87661406025825,NA
48043,Macomb County,MI,13.736263736263737,NA,NA
48044,Macomb County,MI,NA,17.360114777618367,NA
48045,Macomb County,MI,NA,7.317073170731707,NA
48047,Macomb County,MI,NA,6.886657101865136,NA
48066,Macomb County,MI,NA,63.127690100430414,23.507462686567166
48079,St. Clair County,MI,NA,59.9713055954089,NA
48104,Washtenaw County,MI,NA,75.32281205164992,NA
48118,Washtenaw County,MI,NA,NA,40.298507462686565
48124,Wayne County,MI,NA,70.8751793400287,NA
48141,Wayne County,MI,NA,70.44476327116213,NA
48152,Wayne County,MI,NA,NA,8.955223880597014
48158,Washtenaw County,MI,78.02197802197803,NA,NA
48169,Livingston County,MI,NA,NA,22.01492537313433
48180,Wayne County,MI,14.285714285714285,NA,NA
48193,Wayne County,MI,NA,NA,47.38805970149254
48197,Washtenaw County,MI,NA,NA,13.059701492537313
48198,Washtenaw County,MI,71.42857142857143,53.228120516499274,NA
48210,Wayne County,MI,80.21978021978022,NA,NA
48212,Wayne County,MI,NA,63.55810616929699,NA
48221,Wayne County,MI,NA,NA,3.3582089552238807
48236,Wayne County,MI,NA,NA,10.820895522388058
48302,Oakland County,MI,NA,84.36154949784792,NA
48306,Oakland County,MI,NA,11.908177905308465,NA
48307,Oakland County,MI,NA,NA,12.313432835820896
48315,Macomb County,MI,NA,NA,39.92537313432835
48331,Oakland County,MI,17.032967032967033,NA,NA
48357,Oakland County,MI,NA,91.24820659971306,NA
48460,Shiawassee County,MI,98.9010989010989,NA,NA
48507,Genesee County,MI,NA,69.87087517934003,NA
48601,Saginaw County,MI,NA,1.1477761836441895,NA
48623,Saginaw County,MI,90.65934065934066,NA,NA
48625,Clare County,MI,NA,69.01004304160688,NA
48640,Midland County,MI,30.76923076923077,NA,NA
48653,Roscommon County,MI,NA,64.13199426111909,NA
48867,Shiawassee County,MI,NA,19.225251076040173,NA
49038,Berrien County,MI,NA,39.59827833572454,NA
49045,Van Buren County,MI,NA,NA,50
49053,Kalamazoo County,MI,NA,59.25394548063127,NA
49068,Calhoun County,MI,NA,62.98421807747489,NA
49202,Jackson County,MI,NA,16.786226685796272,NA
49228,Lenawee County,MI,NA,NA,95.8955223880597
49423,Ottawa County,MI,NA,3.443328550932568,NA
49525,Kent County,MI,NA,36.872309899569586,NA
49548,Kent County,MI,NA,42.89813486370158,NA
49684,Grand Traverse County,MI,NA,67.00143472022955,NA
49715,Chippewa County,MI,98.35164835164835,NA,NA
49858,Menominee County,MI,NA,45.76757532281206,NA
49920,Iron County,MI,NA,70.3012912482066,NA
55038,Washington County,MN,NA,NA,51.865671641791046
55112,Ramsey County,MN,NA,61.26255380200861,NA
55116,Ramsey County,MN,NA,35.43758967001435,NA
55304,Anoka County,MN,NA,25.82496413199426,NA
55406,Hennepin County,MN,NA,67.2883787661406,NA
55435,Hennepin County,MN,NA,NA,37.3134328358209
55779,St. Louis County,MN,NA,96.4131994261119,NA
55803,St. Louis County,MN,87.36263736263736,70.58823529411765,NA
56058,Le Sueur County,MN,60.43956043956044,NA,NA
56073,Brown County,MN,NA,92.82639885222382,NA
38637,DeSoto County,MS,NA,56.9583931133429,NA
38654,DeSoto County,MS,9.340659340659341,NA,NA
38863,Pontotoc County,MS,NA,92.39598278335724,NA
39083,Copiah County,MS,NA,NA,91.04477611940298
39209,Hinds County,MS,62.637362637362635,NA,NA
39440,Jones County,MS,74.72527472527473,34.00286944045911,NA
39567,Jackson County,MS,NA,34.433285509325685,NA
63028,Jefferson County,MO,32.417582417582416,NA,NA
63031,St. Louis County,MO,NA,50.9325681492109,NA
63043,St. Louis County,MO,NA,55.23672883787661,NA
63084,Franklin County,MO,NA,74.31850789096126,NA
63106,St. Louis city,MO,NA,93.4002869440459,NA
63128,St. Louis County,MO,NA,NA,7.08955223880597
63129,St. Louis County,MO,NA,61.979913916786224,NA
63146,St. Louis County,MO,NA,NA,52.23880597014925
63645,Madison County,MO,NA,85.50932568149211,87.68656716417911
63755,Cape Girardeau County,MO,NA,29.555236728837876,NA
63857,Dunklin County,MO,NA,NA,50.74626865671642
63935,Ripley County,MO,68.68131868131869,NA,NA
64014,Jackson County,MO,NA,86.80057388809182,NA
64030,Jackson County,MO,NA,NA,60.820895522388064
64055,Jackson County,MO,NA,20.803443328550934,NA
64075,Jackson County,MO,97.8021978021978,NA,NA
64083,Cass County,MO,NA,60.68866571018652,NA
64086,Jackson County,MO,NA,NA,70.52238805970148
64089,Clay County,MO,NA,88.80918220946916,NA
64111,Jackson County,MO,NA,76.04017216642754,NA
64119,Clay County,MO,NA,78.33572453371592,NA
64132,Jackson County,MO,NA,31.420373027259686,NA
64133,Jackson County,MO,NA,1.721664275466284,NA
64424,Harrison County,MO,57.692307692307686,NA,NA
64506,Buchanan County,MO,NA,52.36728837876614,NA
64507,Buchanan County,MO,46.7032967032967,NA,NA
64725,Cass County,MO,92.85714285714286,NA,NA
64843,McDonald County,MO,89.01098901098901,NA,NA
65233,Cooper County,MO,39.56043956043956,NA,NA
65712,Lawrence County,MO,73.62637362637363,NA,NA
65802,Greene County,MO,NA,74.60545193687231,NA
59019,Stillwater County,MT,NA,99.28263988522238,NA
59405,Cascade County,MT,NA,NA,35.82089552238806
59501,Hill County,MT,NA,NA,46.26865671641791
59840,Ravalli County,MT,NA,34.576757532281206,NA
68110,Douglas County,NE,NA,NA,89.92537313432835
68114,Douglas County,NE,NA,87.66140602582496,NA
68116,Douglas County,NE,NA,NA,44.776119402985074
68130,Douglas County,NE,NA,47.48923959827834,NA
68144,Douglas County,NE,40.65934065934066,NA,NA
68164,Douglas County,NE,99.45054945054946,NA,NA
68526,Lancaster County,NE,NA,NA,99.25373134328358
68901,Adams County,NE,NA,NA,89.55223880597015
89134,Clark County,NV,NA,54.94978479196556,NA
89429,Lyon County,NV,52.74725274725275,NA,NA
89445,Humboldt County,NV,NA,72.45337159253945,NA
89523,Washoe County,NV,NA,NA,55.970149253731336
03063,Hillsborough County,NH,69.23076923076923,NA,NA
03833,Rockingham County,NH,NA,NA,88.80597014925374
03848,Rockingham County,NH,86.26373626373626,NA,NA
07002,Hudson County,NJ,NA,77.76183644189383,10.074626865671641
07003,Essex County,NJ,NA,38.737446197991396,NA
07013,Passaic County,NJ,NA,45.05021520803443,86.94029850746269
07040,Essex County,NJ,NA,78.04878048780488,NA
07054,Morris County,NJ,75.27472527472527,19.08177905308465,NA
07090,Union County,NJ,NA,NA,97.01492537313433
07092,Union County,NJ,NA,NA,77.61194029850746
07405,Morris County,NJ,NA,NA,61.56716417910447
07410,Bergen County,NJ,69.78021978021978,NA,NA
07424,Passaic County,NJ,NA,31.850789096126253,NA
07436,Bergen County,NJ,78.57142857142857,NA,NA
07601,Bergen County,NJ,NA,77.33142037302726,NA
07656,Bergen County,NJ,NA,98.99569583931134,NA
07670,Bergen County,NJ,NA,NA,58.95522388059702
07676,Bergen County,NJ,NA,73.17073170731707,NA
07724,Monmouth County,NJ,NA,44.47632711621234,NA
07762,Monmouth County,NJ,NA,NA,98.50746268656717
07801,Morris County,NJ,NA,15.925394548063126,NA
07885,Morris County,NJ,83.51648351648352,94.40459110473458,NA
07924,Somerset County,NJ,NA,97.41750358680056,NA
08009,Camden County,NJ,NA,91.39167862266858,NA
08012,Camden County,NJ,33.51648351648351,NA,NA
08021,Camden County,NJ,NA,3.012912482065997,NA
08043,Camden County,NJ,NA,NA,49.25373134328358
08055,Burlington County,NJ,NA,98.27833572453372,NA
08057,Burlington County,NJ,NA,67.71879483500717,NA
08060,Burlington County,NJ,NA,18.938307030129124,NA
08065,Burlington County,NJ,NA,NA,84.32835820895522
08094,Gloucester County,NJ,NA,NA,52.61194029850746
08110,Camden County,NJ,NA,76.9010043041607,NA
08205,Atlantic County,NJ,25.82417582417583,NA,NA
08210,Cape May County,NJ,NA,96.12625538020086,NA
08244,Atlantic County,NJ,NA,95.1219512195122,NA
08322,Gloucester County,NJ,51.64835164835166,NA,NA
08332,Cumberland County,NJ,0.5494505494505495,NA,NA
08360,Cumberland County,NJ,NA,22.812051649928264,NA
08361,Cumberland County,NJ,53.84615384615385,NA,NA
08510,Monmouth County,NJ,NA,98.70875179340028,NA
08558,Somerset County,NJ,91.75824175824175,NA,NA
08618,Mercer County,NJ,NA,NA,22.761194029850746
08701,Ocean County,NJ,NA,60.832137733142034,NA
08723,Ocean County,NJ,NA,11.76470588235294,NA
08750,Monmouth County,NJ,NA,86.22668579626973,NA
08753,Ocean County,NJ,NA,14.777618364418938,NA
08801,Hunterdon County,NJ,NA,NA,92.53731343283582
08805,Somerset County,NJ,NA,96.84361549497848,NA
08817,Middlesex County,NJ,NA,12.195121951219512,NA
08820,Middlesex County,NJ,NA,77.6183644189383,NA
08835,Somerset County,NJ,26.373626373626376,NA,NA
08840,Middlesex County,NJ,NA,46.77187948350072,NA
08865,Warren County,NJ,NA,NA,75
08873,Somerset County,NJ,NA,12.48206599713056,NA
87105,Bernalillo County,NM,NA,1.4347202295552368,NA
87505,Santa Fe County,NM,NA,57.96269727403156,NA
10009,New York County,NY,3.8461538461538463,NA,NA
10010,New York County,NY,NA,33.85939741750359,NA
10011,New York County,NY,NA,89.0961262553802,NA
10013,New York County,NY,NA,99.71305595408894,NA
10016,New York County,NY,NA,NA,69.40298507462687
10019,New York County,NY,NA,NA,92.16417910447761
10023,New York County,NY,NA,59.82783357245337,NA
10024,New York County,NY,NA,12.91248206599713,NA
10025,New York County,NY,NA,86.6571018651363,NA
10028,New York County,NY,NA,16.642754662840744,NA
10029,New York County,NY,NA,40.88952654232425,NA
10039,New York County,NY,NA,98.42180774748924,NA
10040,New York County,NY,NA,9.469153515064562,NA
10306,Richmond County,NY,85.71428571428571,NA,NA
10308,Richmond County,NY,NA,74.89239598278336,NA
10314,Richmond County,NY,NA,84.2180774748924,NA
10452,Bronx County,NY,NA,34.720229555236735,NA
10460,Bronx County,NY,NA,5.88235294117647,NA
10463,Bronx County,NY,49.45054945054945,NA,NA
10465,Bronx County,NY,NA,NA,15.298507462686567
10467,Bronx County,NY,NA,NA,2.2388059701492535
10468,Bronx County,NY,NA,9.038737446197992,NA
10471,Bronx County,NY,NA,79.48350071736012,NA
10475,Bronx County,NY,NA,4.447632711621234,NA
10530,Westchester County,NY,NA,NA,100
10708,Westchester County,NY,NA,NA,27.611940298507463
10930,Orange County,NY,NA,83.35724533715926,NA
10950,Orange County,NY,NA,58.82352941176471,NA
10965,Rockland County,NY,NA,76.18364418938307,NA
10980,Rockland County,NY,89.56043956043956,NA,NA
11203,Kings County,NY,NA,56.67144906743186,NA
11208,Kings County,NY,NA,0.430416068866571,NA
11212,Kings County,NY,NA,NA,6.343283582089552
11213,Kings County,NY,NA,NA,85.07462686567165
11214,Kings County,NY,NA,NA,7.835820895522389
11216,Kings County,NY,NA,NA,50.373134328358205
11218,Kings County,NY,NA,54.23242467718795,NA
11220,Kings County,NY,NA,46.91535150645624,NA
11222,Kings County,NY,NA,72.7403156384505,NA
11224,Kings County,NY,NA,NA,38.43283582089552
11229,Kings County,NY,NA,10.186513629842182,NA
11230,Kings County,NY,NA,NA,32.83582089552239
11233,Kings County,NY,NA,14.921090387374461,NA
11235,Kings County,NY,19.78021978021978,NA,NA
11238,Kings County,NY,NA,60.258249641319935,NA
11357,Queens County,NY,NA,52.08034433285509,57.83582089552238
11361,Queens County,NY,96.15384615384616,NA,NA
11364,Queens County,NY,47.8021978021978,76.61406025824964,NA
11368,Queens County,NY,NA,45.91104734576758,NA
11377,Queens County,NY,NA,69.58393113342898,NA
11379,Queens County,NY,91.20879120879121,NA,NA
11385,Queens County,NY,NA,NA,79.1044776119403
11421,Queens County,NY,NA,32.7116212338594,NA
11432,Queens County,NY,NA,2.8694404591104736,NA
11435,Queens County,NY,NA,7.030129124820659,93.65671641791045
11510,Nassau County,NY,NA,48.63701578192253,NA
11520,Nassau County,NY,NA,46.48493543758967,NA
11552,Nassau County,NY,NA,68.00573888091822,NA
11565,Nassau County,NY,NA,95.83931133428982,NA
11598,Nassau County,NY,NA,87.08751793400286,NA
11720,Suffolk County,NY,NA,47.63271162123386,NA
11751,Suffolk County,NY,NA,89.23959827833573,NA
11755,Suffolk County,NY,NA,82.49641319942612,NA
11937,Suffolk County,NY,NA,NA,41.7910447761194
11946,Suffolk County,NY,NA,NA,36.940298507462686
11949,Suffolk County,NY,NA,NA,98.13432835820896
11963,Suffolk County,NY,NA,86.0832137733142,NA
12122,Schoharie County,NY,44.505494505494504,NA,NA
12184,Columbia County,NY,NA,NA,71.26865671641791
12188,Saratoga County,NY,50,NA,NA
12204,Albany County,NY,NA,86.22668579626973,NA
12302,Schenectady County,NY,NA,NA,19.402985074626866
12561,Ulster County,NY,NA,NA,64.55223880597015
12831,Saratoga County,NY,NA,55.81061692969871,NA
12941,Essex County,NY,NA,99.4261119081779,NA
13031,Onondaga County,NY,NA,33.572453371592545,NA
13209,Onondaga County,NY,NA,44.76327116212339,NA
13326,Otsego County,NY,NA,93.974175035868,NA
13413,Oneida County,NY,NA,NA,17.91044776119403
13440,Oneida County,NY,NA,29.411764705882355,NA
13732,Tioga County,NY,NA,25.394548063127694,NA
13760,Broome County,NY,NA,NA,19.029850746268657
13815,Chenango County,NY,NA,6.025824964131994,NA
13820,Otsego County,NY,NA,91.53515064562411,NA
13850,Broome County,NY,39.010989010989015,NA,NA
13901,Broome County,NY,NA,37.44619799139168,41.04477611940299
14006,Erie County,NY,NA,97.84791965566714,NA
14063,Chautauqua County,NY,NA,71.59253945480631,NA
14132,Niagara County,NY,NA,54.80631276901005,NA
14215,Erie County,NY,NA,32.85509325681492,NA
14223,Erie County,NY,NA,96.55667144906744,NA
14424,Ontario County,NY,NA,53.3715925394548,NA
14456,Ontario County,NY,76.37362637362637,NA,NA
14516,Wayne County,NY,NA,69.29698708751793,NA
14609,Monroe County,NY,NA,NA,48.134328358208954
14611,Monroe County,NY,NA,30.272596843615496,NA
14616,Monroe County,NY,NA,21.951219512195124,NA
14619,Monroe County,NY,NA,24.533715925394546,NA
14624,Monroe County,NY,NA,8.751793400286944,NA
27012,Forsyth County,NC,NA,13.629842180774748,NA
27021,Stokes County,NC,NA,16.929698708751793,NA
27052,Stokes County,NC,NA,76.47058823529412,NA
27205,Randolph County,NC,NA,NA,26.119402985074625
27215,Alamance County,NC,NA,82.78335724533716,38.059701492537314
27217,Alamance County,NC,NA,NA,55.223880597014926
27295,Davidson County,NC,NA,1.0043041606886656,33.2089552238806
27302,Alamance County,NC,NA,41.17647058823529,NA
27325,Moore County,NC,73.07692307692307,NA,NA
27332,Lee County,NC,17.582417582417584,81.34863701578192,NA
27405,Guilford County,NC,NA,58.536585365853654,NA
27510,Orange County,NC,NA,NA,96.64179104477611
27511,Wake County,NC,NA,NA,93.28358208955224
27527,Johnston County,NC,42.30769230769231,NA,NA
27529,Wake County,NC,NA,29.268292682926827,NA
27536,Vance County,NC,NA,17.073170731707318,NA
27549,Franklin County,NC,NA,NA,43.28358208955223
27609,Wake County,NC,NA,77.90530846484936,NA
27610,Wake County,NC,NA,31.70731707317073,NA
27705,Durham County,NC,80.76923076923077,NA,NA
27713,Durham County,NC,NA,31.133428981348636,NA
27889,Beaufort County,NC,50.54945054945055,NA,NA
28001,Stanly County,NC,NA,47.91965566714491,NA
28031,Mecklenburg County,NC,NA,25.68149210903874,NA
28054,Gaston County,NC,NA,14.347202295552366,NA
28086,Cleveland County,NC,58.24175824175825,NA,NA
28105,Mecklenburg County,NC,NA,27.977044476327116,NA
28146,Rowan County,NC,NA,26.54232424677188,NA
28150,Cleveland County,NC,70.87912087912088,NA,NA
28152,Cleveland County,NC,NA,37.01578192252511,NA
28202,Mecklenburg County,NC,NA,70.73170731707317,NA
28209,Mecklenburg County,NC,NA,NA,45.8955223880597
28210,Mecklenburg County,NC,NA,34.146341463414636,NA
28216,Mecklenburg County,NC,NA,55.09325681492109,NA
28226,Mecklenburg County,NC,NA,50.50215208034433,NA
28269,Mecklenburg County,NC,NA,14.49067431850789,NA
28304,Cumberland County,NC,NA,NA,29.47761194029851
28334,Sampson County,NC,NA,55.66714490674318,NA
28348,Cumberland County,NC,NA,60.97560975609756,NA
28366,Sampson County,NC,NA,65.85365853658537,NA
28405,New Hanover County,NC,NA,16.3558106169297,NA
28465,Brunswick County,NC,NA,58.39311334289814,94.40298507462687
28546,Onslow County,NC,NA,88.95265423242468,NA
28584,Carteret County,NC,NA,38.88091822094692,NA
28601,Catawba County,NC,NA,23.38593974175036,NA
28605,Watauga County,NC,NA,75.7532281205165,NA
28630,Caldwell County,NC,70.32967032967034,NA,NA
28650,Catawba County,NC,NA,NA,62.68656716417911
28681,Alexander County,NC,NA,23.52941176470588,NA
28704,Buncombe County,NC,41.208791208791204,NA,NA
28722,Polk County,NC,NA,NA,83.5820895522388
28752,McDowell County,NC,NA,43.0416068866571,NA
58104,Cass County,ND,NA,40.0286944045911,NA
43011,Knox County,OH,NA,NA,82.08955223880598
43015,Delaware County,OH,NA,18.65136298421808,NA
43082,Delaware County,OH,NA,24.2467718794835,NA
43130,Fairfield County,OH,NA,NA,17.16417910447761
43140,Madison County,OH,NA,17.93400286944046,NA
43160,Fayette County,OH,NA,10.760401721664275,NA
43206,Franklin County,OH,4.395604395604396,NA,NA
43214,Franklin County,OH,NA,88.37876614060258,NA
43231,Franklin County,OH,NA,32.99856527977044,NA
43402,Wood County,OH,NA,74.74892395982783,NA
43420,Sandusky County,OH,NA,7.173601147776183,NA
43449,Ottawa County,OH,NA,NA,70.8955223880597
43512,Defiance County,OH,NA,15.064562410329984,NA
43609,Lucas County,OH,NA,23.242467718794835,NA
43614,Lucas County,OH,NA,65.56671449067431,NA
43701,Muskingum County,OH,2.7472527472527473,NA,NA
43950,Belmont County,OH,NA,44.04591104734577,NA
44022,Cuyahoga County,OH,54.94505494505495,NA,NA
44028,Lorain County,OH,NA,75.60975609756098,NA
44035,Lorain County,OH,6.593406593406594,NA,11.194029850746269
44047,Ashtabula County,OH,NA,NA,80.22388059701493
44050,Lorain County,OH,NA,NA,55.59701492537313
44070,Cuyahoga County,OH,NA,48.92395982783357,NA
44074,Lorain County,OH,NA,NA,31.343283582089555
44102,Cuyahoga County,OH,1.6483516483516485,NA,NA
44111,Cuyahoga County,OH,NA,NA,76.86567164179104
44116,Cuyahoga County,OH,NA,94.69153515064562,NA
44124,Cuyahoga County,OH,NA,11.190817790530847,0.7462686567164178
44128,Cuyahoga County,OH,NA,NA,2.6119402985074625
44129,Cuyahoga County,OH,NA,67.8622668579627,NA
44130,Cuyahoga County,OH,20.87912087912088,4.160688665710186,35.07462686567165
44137,Cuyahoga County,OH,35.16483516483517,NA,NA
44224,Summit County,OH,NA,3.2998565279770444,NA
44230,Wayne County,OH,NA,94.97847919655668,NA
44256,Medina County,OH,NA,0,NA
44301,Summit County,OH,NA,NA,68.65671641791045
44333,Summit County,OH,NA,NA,90.29850746268657
44406,Mahoning County,OH,NA,NA,80.59701492537313
44502,Mahoning County,OH,21.428571428571427,NA,NA
44657,Stark County,OH,NA,38.02008608321377,NA
44709,Stark County,OH,NA,63.41463414634146,NA
44720,Stark County,OH,NA,NA,11.567164179104477
44833,Crawford County,OH,95.05494505494505,NA,NA
44870,Erie County,OH,NA,NA,20.149253731343283
44883,Seneca County,OH,NA,45.48063127690101,NA
44903,Richland County,OH,63.73626373626373,NA,NA
44905,Richland County,OH,NA,NA,98.88059701492537
45133,Highland County,OH,NA,48.493543758967,NA
45229,Hamilton County,OH,NA,16.49928263988522,NA
45231,Hamilton County,OH,NA,9.32568149210904,NA
45236,Hamilton County,OH,NA,26.6857962697274,NA
45240,Hamilton County,OH,NA,26.398852223816355,NA
45322,Montgomery County,OH,NA,27.69010043041607,NA
45371,Miami County,OH,NA,10.616929698708752,NA
45415,Montgomery County,OH,NA,59.9713055954089,NA
45424,Montgomery County,OH,NA,3.873744619799139,NA
45440,Montgomery County,OH,NA,46.19799139167862,NA
45638,Lawrence County,OH,NA,NA,17.537313432835823
45669,Lawrence County,OH,NA,32.568149210903876,NA
45840,Hancock County,OH,NA,NA,8.208955223880597
73008,Oklahoma County,OK,NA,34.28981348637016,NA
73010,McClain County,OK,NA,NA,80.97014925373134
73034,Oklahoma County,OK,NA,6.743185078909613,NA
73044,Logan County,OK,NA,NA,62.31343283582089
73105,Oklahoma County,OK,NA,81.92252510760402,NA
73116,Oklahoma County,OK,NA,NA,78.73134328358209
73127,Oklahoma County,OK,NA,66.42754662840747,NA
73505,Comanche County,OK,NA,NA,4.477611940298507
73701,Garfield County,OK,NA,18.077474892395983,NA
74074,Payne County,OK,NA,24.67718794835007,NA
74105,Tulsa County,OK,NA,27.403156384505024,NA
74745,McCurtain County,OK,NA,90.2439024390244,NA
97005,Washington County,OR,57.14285714285714,87.51793400286944,NA
97071,Marion County,OR,NA,91.96556671449068,NA
97132,Yamhill County,OR,NA,40.17216642754663,NA
97201,Multnomah County,OR,NA,51.79340028694405,NA
97301,Marion County,OR,5.4945054945054945,NA,NA
97304,Polk County,OR,NA,79.77044476327116,NA
97362,Marion County,OR,81.86813186813187,NA,NA
97365,Lincoln County,OR,NA,88.09182209469154,NA
97367,Lincoln County,OR,NA,17.790530846484938,NA
97381,Marion County,OR,NA,73.3142037302726,NA
97502,Jackson County,OR,NA,NA,56.71641791044776
97838,Umatilla County,OR,NA,7.747489239598278,NA
97914,Malheur County,OR,NA,11.621233859397417,NA
15009,Beaver County,PA,NA,22.381635581061694,NA
15012,Westmoreland County,PA,36.81318681318682,NA,NA
15021,Washington County,PA,96.7032967032967,NA,NA
15061,Beaver County,PA,NA,NA,35.44776119402985
15065,Allegheny County,PA,NA,40.45911047345768,NA
15068,Westmoreland County,PA,NA,4.017216642754662,NA
15085,Westmoreland County,PA,NA,90.96126255380202,NA
15122,Allegheny County,PA,NA,82.63988522238164,NA
15129,Allegheny County,PA,NA,NA,54.47761194029851
15146,Allegheny County,PA,NA,70.01434720229555,NA
15235,Allegheny County,PA,NA,NA,8.582089552238806
15237,Allegheny County,PA,26.923076923076923,83.6441893830703,NA
15243,Allegheny County,PA,NA,50.64562410329986,NA
15317,Washington County,PA,NA,82.06599713055954,NA
15370,Greene County,PA,NA,33.428981348637016,NA
15401,Fayette County,PA,NA,15.781922525107603,NA
15642,Westmoreland County,PA,NA,17.216642754662843,NA
15650,Westmoreland County,PA,NA,8.034433285509325,NA
15656,Westmoreland County,PA,NA,62.84074605451937,NA
15701,Indiana County,PA,NA,85.07890961262554,NA
15714,Cambria County,PA,NA,NA,58.582089552238806
15801,Clearfield County,PA,NA,NA,3.731343283582089
15931,Cambria County,PA,NA,NA,97.76119402985076
16232,Clarion County,PA,NA,97.70444763271162,NA
16301,Venango County,PA,NA,25.251076040172165,NA
16365,Warren County,PA,NA,42.18077474892396,NA
16509,Erie County,PA,NA,71.01865136298422,NA
16648,Blair County,PA,NA,20.086083213773314,88.43283582089553
17044,Mifflin County,PA,NA,87.37446197991392,NA
17057,Dauphin County,PA,NA,8.17790530846485,NA
17315,York County,PA,NA,80.34433285509326,NA
17325,Adams County,PA,9.89010989010989,NA,NA
17331,York County,PA,NA,56.81492109038737,NA
17345,York County,PA,NA,48.35007173601148,NA
17349,York County,PA,NA,68.14921090387375,NA
17361,York County,PA,NA,NA,54.850746268656714
17402,York County,PA,NA,NA,4.850746268656716
17408,York County,PA,NA,75.17934002869441,NA
17522,Lancaster County,PA,NA,25.968436154949785,NA
17569,Lancaster County,PA,NA,NA,53.35820895522389
17815,Columbia County,PA,NA,38.59397417503587,11.940298507462686
17901,Schuylkill County,PA,NA,15.351506456241031,NA
18018,Lehigh County,PA,NA,NA,51.11940298507462
18052,Lehigh County,PA,NA,NA,15.671641791044777
18067,Northampton County,PA,NA,15.208034433285508,NA
18088,Northampton County,PA,NA,36.728837876614065,NA
18201,Luzerne County,PA,NA,71.16212338593975,NA
18224,Luzerne County,PA,NA,NA,99.6268656716418
18353,Monroe County,PA,37.91208791208791,39.45480631276901,NA
18446,Wyoming County,PA,95.6043956043956,NA,NA
18447,Lackawanna County,PA,NA,92.25251076040172,NA
18517,Lackawanna County,PA,NA,65.27977044476327,NA
18621,Luzerne County,PA,NA,88.52223816355811,NA
18643,Luzerne County,PA,NA,56.3845050215208,NA
18702,Luzerne County,PA,12.087912087912088,NA,NA
18704,Luzerne County,PA,NA,6.025824964131994,NA
18706,Luzerne County,PA,18.13186813186813,NA,NA
18951,Bucks County,PA,8.241758241758241,8.608321377331421,NA
19002,Montgomery County,PA,NA,90.38737446197992,NA
19013,Delaware County,PA,NA,78.90961262553802,NA
19018,Delaware County,PA,NA,45.33715925394548,NA
19046,Montgomery County,PA,NA,NA,79.47761194029852
19050,Delaware County,PA,NA,85.79626972740316,NA
19082,Delaware County,PA,NA,13.916786226685796,NA
19086,Delaware County,PA,NA,NA,44.40298507462687
19087,Chester County,PA,NA,NA,23.88059701492537
19104,Philadelphia County,PA,NA,8.895265423242469,NA
19139,Philadelphia County,PA,NA,19.368723098995698,NA
19146,Philadelphia County,PA,NA,NA,67.53731343283582
19148,Philadelphia County,PA,29.120879120879124,NA,NA
19150,Philadelphia County,PA,NA,87.2309899569584,NA
19152,Philadelphia County,PA,NA,48.06312769010043,NA
19154,Philadelphia County,PA,NA,NA,73.88059701492537
19355,Chester County,PA,56.59340659340659,NA,NA
19390,Chester County,PA,NA,NA,56.343283582089555
19525,Montgomery County,PA,NA,51.64992826398852,NA
19565,Berks County,PA,NA,62.12338593974175,NA
19607,Berks County,PA,NA,NA,59.32835820895522
19609,Berks County,PA,55.494505494505496,NA,NA
02813,Washington County,RI,NA,41.31994261119082,NA
02818,Kent County,RI,NA,NA,95.1492537313433
02860,Providence County,RI,NA,NA,5.223880597014925
02905,Providence County,RI,NA,25.538020086083215,NA
29067,Lancaster County,SC,NA,NA,65.29850746268657
29306,Spartanburg County,SC,NA,43.18507890961262,NA
29341,Cherokee County,SC,NA,58.10616929698709,NA
29483,Dorchester County,SC,NA,10.329985652797705,NA
29556,Williamsburg County,SC,67.58241758241759,NA,NA
29566,Horry County,SC,NA,28.83787661406026,NA
29568,Horry County,SC,NA,71.73601147776183,NA
29617,Greenville County,SC,84.06593406593407,NA,NA
29621,Anderson County,SC,NA,NA,29.1044776119403
29627,Anderson County,SC,34.065934065934066,NA,NA
29649,Greenwood County,SC,NA,31.99426111908178,NA
29651,Greenville County,SC,NA,6.599713055954089,NA
29687,Greenville County,SC,NA,88.66571018651362,NA
29706,Chester County,SC,14.835164835164836,NA,NA
29730,York County,SC,NA,44.61979913916787,NA
29732,York County,SC,NA,12.769010043041607,NA
29829,Aiken County,SC,NA,52.94117647058824,NA
29841,Aiken County,SC,NA,40.31563845050215,NA
29909,Beaufort County,SC,NA,7.604017216642754,NA
29928,Beaufort County,SC,NA,90.53084648493544,NA
57401,Brown County,SD,NA,35.294117647058826,NA
37040,Montgomery County,TN,NA,17.50358680057389,NA
37067,Williamson County,TN,NA,84.93543758967002,NA
37073,Robertson County,TN,NA,46.6284074605452,NA
37214,Davidson County,TN,NA,90.81779053084648,NA
37215,Davidson County,TN,NA,71.87948350071736,NA
37302,Hamilton County,TN,NA,98.85222381635582,NA
37323,Bradley County,TN,NA,73.45767575322813,NA
37381,Rhea County,TN,NA,42.03730272596843,NA
37416,Hamilton County,TN,29.67032967032967,NA,NA
37743,Greene County,TN,NA,37.73314203730273,9.701492537313433
37763,Roane County,TN,NA,68.57962697274031,NA
37803,Blount County,TN,NA,42.75466284074606,NA
37914,Knox County,TN,NA,76.3271162123386,NA
37919,Knox County,TN,93.95604395604396,NA,NA
37938,Knox County,TN,NA,72.30989956958393,NA
38012,Haywood County,TN,NA,NA,57.08955223880597
38106,Shelby County,TN,NA,77.18794835007174,NA
38135,Shelby County,TN,NA,39.31133428981349,NA
38301,Madison County,TN,NA,8.321377331420372,NA
38464,Lawrence County,TN,NA,16.212338593974174,NA
38483,Lawrence County,TN,NA,96.987087517934,NA
38506,Putnam County,TN,NA,10.9038737446198,NA
38572,Cumberland County,TN,NA,80.20086083213774,NA
75052,Dallas County,TX,7.6923076923076925,4.591104734576758,NA
75089,Dallas County,TX,37.362637362637365,NA,NA
75208,Dallas County,TX,NA,81.63558106169297,NA
75220,Dallas County,TX,66.48351648351648,NA,NA
75224,Dallas County,TX,NA,NA,29.850746268656714
75233,Dallas County,TX,NA,NA,86.19402985074626
75238,Dallas County,TX,NA,NA,52.98507462686567
75243,Dallas County,TX,NA,83.50071736011478,NA
75654,Rusk County,TX,76.92307692307693,NA,NA
75706,Smith County,TX,NA,NA,59.70149253731343
75707,Smith County,TX,NA,NA,42.53731343283582
75801,Anderson County,TX,NA,45.19368723098996,NA
75935,Shelby County,TX,NA,53.51506456241033,NA
76040,Tarrant County,TX,NA,45.62410329985653,NA
76063,Tarrant County,TX,NA,5.738880918220947,NA
76133,Tarrant County,TX,NA,NA,16.791044776119403
76208,Denton County,TX,NA,28.120516499282637,NA
76227,Denton County,TX,NA,70.15781922525107,NA
76501,Bell County,TX,NA,64.41893830703013,NA
76710,McLennan County,TX,NA,NA,88.05970149253731
76712,McLennan County,TX,NA,NA,5.970149253731343
77006,Harris County,TX,NA,62.4103299856528,NA
77015,Harris County,TX,18.681318681318682,NA,NA
77026,Harris County,TX,NA,NA,39.55223880597015
77037,Harris County,TX,NA,NA,65.29850746268657
77041,Harris County,TX,NA,NA,73.50746268656717
77051,Harris County,TX,NA,NA,42.16417910447761
77079,Harris County,TX,NA,NA,30.970149253731343
77396,Harris County,TX,NA,42.32424677187948,NA
77406,Fort Bend County,TX,NA,89.95695839311334,NA
77469,Fort Bend County,TX,NA,19.51219512195122,NA
77511,Brazoria County,TX,60.98901098901099,NA,NA
77539,Galveston County,TX,NA,4.734576757532281,NA
77541,Brazoria County,TX,NA,32.42467718794835,NA
77546,Galveston County,TX,NA,57.81922525107605,NA
77656,Hardin County,TX,31.318681318681318,NA,NA
78014,La Salle County,TX,93.4065934065934,NA,NA
78201,Bexar County,TX,NA,48.20659971305595,NA
78221,Bexar County,TX,NA,28.98134863701578,NA
78229,Bexar County,TX,NA,59.25394548063127,NA
78372,Jim Wells County,TX,85.16483516483517,NA,NA
78550,Cameron County,TX,21.978021978021978,NA,NA
78577,Hidalgo County,TX,NA,36.15494978479197,NA
78584,Starr County,TX,NA,NA,79.47761194029852
78852,Maverick County,TX,NA,47.34576757532281,NA
79930,El Paso County,TX,NA,77.0444763271162,NA
84041,Davis County,UT,NA,61.11908177905308,NA
84092,Salt Lake County,UT,NA,51.93687230989957,NA
84501,Carbon County,UT,NA,86.51362984218078,NA
84738,Washington County,UT,100,NA,NA
05461,Chittenden County,VT,NA,93.83070301291248,NA
22032,Fairfax County,VA,NA,NA,44.02985074626866
22152,Fairfax County,VA,30.21978021978022,NA,NA
22302,Alexandria city,VA,NA,64.2754662840746,NA
22306,Fairfax County,VA,NA,63.271162123385935,NA
22309,Fairfax County,VA,NA,29.842180774748922,NA
22314,Alexandria city,VA,12.637362637362637,NA,60.447761194029844
22406,Stafford County,VA,NA,NA,75.3731343283582
22901,Albemarle County,VA,NA,66.71449067431851,NA
22980,Waynesboro city,VA,NA,1.5781922525107603,NA
23120,Chesterfield County,VA,87.91208791208791,NA,NA
23150,Henrico County,VA,NA,55.523672883787654,NA
23222,Richmond city,VA,NA,NA,47.76119402985074
23229,Henrico County,VA,NA,NA,16.044776119402986
23231,Henrico County,VA,NA,79.05308464849354,NA
23323,Chesapeake city,VA,NA,NA,27.238805970149254
23831,Chesterfield County,VA,NA,42.61119081779053,NA
23851,Franklin city,VA,NA,NA,25
23927,Mecklenburg County,VA,NA,91.67862266857962,NA
24014,Roanoke city,VA,NA,40.74605451936873,NA
24112,Henry County,VA,NA,87.8048780487805,NA
24153,Salem city,VA,NA,57.24533715925395,NA
24175,Botetourt County,VA,NA,93.11334289813486,NA
24319,Smyth County,VA,NA,58.68005738880918,NA
24501,Lynchburg city,VA,NA,81.7790530846485,NA
24540,Danville city,VA,NA,39.02439024390244,NA
24541,Danville city,VA,NA,57.10186513629842,NA
24630,Tazewell County,VA,NA,50.21520803443329,91.7910447761194
98003,King County,WA,NA,NA,61.19402985074627
98058,King County,WA,63.18681318681318,NA,NA
98072,King County,WA,NA,33.14203730272597,NA
98103,King County,WA,NA,23.959827833572454,NA
98115,King County,WA,65.38461538461539,NA,NA
98354,Pierce County,WA,86.81318681318682,NA,NA
98406,Pierce County,WA,NA,30.129124820659968,NA
98506,Thurston County,WA,NA,87.94835007173602,NA
98532,Lewis County,WA,NA,NA,36.56716417910448
98576,Thurston County,WA,NA,99.85652797704448,NA
98684,Clark County,WA,NA,NA,85.44776119402985
98826,Chelan County,WA,NA,68.29268292682927,NA
98837,Grant County,WA,13.186813186813188,NA,NA
99114,Stevens County,WA,NA,44.76327116212339,NA
99336,Benton County,WA,4.945054945054945,NA,NA
99362,Walla Walla County,WA,NA,NA,25.74626865671642
20011,District of Columbia,DC,NA,NA,67.91044776119402
20016,District of Columbia,DC,NA,80.48780487804879,NA
20017,District of Columbia,DC,NA,79.3400286944046,NA
20018,District of Columbia,DC,NA,52.94117647058824,NA
25177,Kanawha County,WV,NA,NA,14.17910447761194
25314,Kanawha County,WV,51.098901098901095,NA,NA
25701,Cabell County,WV,6.043956043956044,NA,NA
26003,Ohio County,WV,NA,9.612625538020087,NA
53010,Fond du Lac County,WI,NA,96.26972740315638,NA
53027,Washington County,WI,NA,NA,94.02985074626866
53094,Jefferson County,WI,92.3076923076923,NA,NA
53095,Washington County,WI,NA,89.81348637015782,NA
53104,Kenosha County,WI,65.38461538461539,NA,NA
53125,Walworth County,WI,NA,95.83931133428982,NA
53132,Milwaukee County,WI,NA,11.477761836441895,NA
53149,Waukesha County,WI,NA,22.95552367288379,NA
53151,Waukesha County,WI,NA,NA,12.686567164179104
53205,Milwaukee County,WI,NA,63.701578192252505,NA
53214,Milwaukee County,WI,19.230769230769234,NA,NA
53216,Milwaukee County,WI,NA,31.276901004304158,NA
53520,Green County,WI,NA,66.85796269727403,NA
54017,St. Croix County,WI,NA,21.37733142037303,NA
54151,Marinette County,WI,94.5054945054945,NA,NA
54220,Manitowoc County,WI,NA,68.4361549497848,NA
54304,Brown County,WI,NA,52.22381635581061,NA
54403,Marathon County,WI,NA,NA,71.64179104477611
54534,Iron County,WI,82.41758241758241,NA,NA
54701,Eau Claire County,WI,45.604395604395606,NA,NA
54904,Winnebago County,WI,NA,21.233859397417504,NA
54937,Fond du Lac County,WI,NA,92.53945480631278,NA
54952,Winnebago County,WI,NA,NA,34.701492537313435
