ZipCode,county,state,Retirement,Geriatric
35126,Jefferson County,AL,68.6411149825784,NA
35133,Blount County,AL,NA,92.14876033057851
35244,Jefferson County,AL,29.965156794425084,NA
35806,Madison County,AL,47.73519163763066,NA
35907,Etowah County,AL,72.47386759581882,NA
36027,Barbour County,AL,NA,60.74380165289256
36617,Mobile County,AL,NA,56.19834710743802
36804,Lee County,AL,NA,71.07438016528926
85048,Maricopa County,AZ,82.92682926829268,NA
85205,Maricopa County,AZ,49.825783972125436,NA
85255,Maricopa County,AZ,84.66898954703834,NA
85705,Pima County,AZ,4.529616724738676,NA
85712,Pima County,AZ,34.84320557491289,NA
71635,Ashley County,AR,46.68989547038328,NA
71639,Desha County,AR,90.2439024390244,NA
71913,Garland County,AR,18.118466898954704,NA
72113,Pulaski County,AR,77.35191637630662,NA
72501,Independence County,AR,50.522648083623686,NA
72921,Crawford County,AR,NA,67.35537190082644
90249,Los Angeles County,CA,49.47735191637631,NA
90250,Los Angeles County,CA,48.08362369337979,NA
90650,Los Angeles County,CA,NA,22.31404958677686
91201,Los Angeles County,CA,84.3205574912892,NA
91354,Los Angeles County,CA,NA,73.55371900826447
91770,Los Angeles County,CA,33.10104529616725,NA
92020,San Diego County,CA,26.480836236933797,NA
92021,San Diego County,CA,36.58536585365854,NA
92103,San Diego County,CA,87.10801393728222,NA
92131,San Diego County,CA,NA,78.51239669421489
92544,Riverside County,CA,36.23693379790941,NA
92610,Orange County,CA,86.7595818815331,NA
92673,Orange County,CA,NA,55.78512396694215
92705,Orange County,CA,NA,20.66115702479339
92780,Orange County,CA,NA,34.29752066115703
92804,Orange County,CA,NA,21.90082644628099
92821,Orange County,CA,37.282229965156795,NA
92869,Orange County,CA,NA,69.42148760330579
93442,San Luis Obispo County,CA,NA,77.68595041322314
93460,Santa Barbara County,CA,90.59233449477352,NA
93923,Monterey County,CA,NA,8.264462809917356
94014,San Mateo County,CA,NA,7.851239669421488
94061,San Mateo County,CA,NA,63.22314049586777
94112,San Francisco County,CA,3.8327526132404177,NA
94121,San Francisco County,CA,27.874564459930312,NA
94133,San Francisco County,CA,35.54006968641115,NA
94541,Alameda County,CA,12.195121951219512,NA
94545,Alameda County,CA,86.41114982578398,NA
94583,Contra Costa County,CA,NA,54.54545454545454
94589,Solano County,CA,NA,66.94214876033058
95008,Santa Clara County,CA,NA,49.586776859504134
95125,Santa Clara County,CA,14.634146341463413,NA
95252,Calaveras County,CA,56.09756097560976,NA
95380,Stanislaus County,CA,12.543554006968641,NA
95405,Sonoma County,CA,42.857142857142854,NA
95834,Sacramento County,CA,65.85365853658537,NA
95843,Sacramento County,CA,76.30662020905923,NA
95969,Butte County,CA,4.181184668989547,NA
80026,Boulder County,CO,NA,57.85123966942148
80107,Elbert County,CO,65.85365853658537,NA
80108,Douglas County,CO,NA,68.18181818181817
80211,Denver County,CO,77.70034843205575,NA
80214,Jefferson County,CO,57.14285714285714,NA
80219,Denver County,CO,NA,43.80165289256198
80403,Jefferson County,CO,NA,65.28925619834712
80524,Larimer County,CO,75.9581881533101,NA
80537,Larimer County,CO,10.801393728222997,NA
80915,El Paso County,CO,64.45993031358886,NA
06062,Hartford County,CT,54.00696864111498,NA
06109,Hartford County,CT,42.1602787456446,NA
06477,New Haven County,CT,NA,93.38842975206612
06488,New Haven County,CT,NA,10.743801652892563
06492,New Haven County,CT,NA,4.545454545454546
06513,New Haven County,CT,NA,19.834710743801654
06516,New Haven County,CT,NA,9.917355371900827
06812,Fairfield County,CT,NA,58.26446280991735
06824,Fairfield County,CT,NA,42.97520661157025
06877,Fairfield County,CT,NA,75.20661157024794
32055,Columbia County,FL,51.91637630662021,NA
32174,Volusia County,FL,8.362369337979095,NA
32707,Seminole County,FL,NA,85.53719008264463
32808,Orange County,FL,17.421602787456447,NA
32818,Orange County,FL,39.721254355400696,NA
32835,Orange County,FL,70.03484320557492,NA
32901,Brevard County,FL,35.19163763066202,NA
32960,Indian River County,FL,30.313588850174217,NA
32967,Indian River County,FL,38.32752613240418,NA
33031,Miami-Dade County,FL,86.06271777003485,NA
33138,Miami-Dade County,FL,51.21951219512195,NA
33155,Miami-Dade County,FL,21.951219512195124,NA
33157,Miami-Dade County,FL,14.982578397212542,21.487603305785125
33410,Palm Beach County,FL,56.44599303135889,NA
33431,Palm Beach County,FL,70.73170731707317,NA
33473,Palm Beach County,FL,78.04878048780488,NA
33570,Hillsborough County,FL,85.71428571428571,NA
33573,Hillsborough County,FL,14.285714285714285,NA
33611,Hillsborough County,FL,NA,42.14876033057851
33897,Polk County,FL,58.18815331010453,NA
34231,Sarasota County,FL,NA,3.3057851239669422
34432,Marion County,FL,NA,50.413223140495866
34491,Marion County,FL,22.99651567944251,NA
34639,Pasco County,FL,43.55400696864111,NA
34743,Osceola County,FL,92.6829268292683,NA
34786,Orange County,FL,37.97909407665505,NA
34974,Okeechobee County,FL,28.9198606271777,NA
30041,Forsyth County,GA,8.013937282229964,NA
30058,DeKalb County,GA,68.29268292682927,NA
30088,DeKalb County,GA,NA,79.33884297520662
30310,Fulton County,GA,11.149825783972126,NA
30340,DeKalb County,GA,79.44250871080139,91.73553719008265
30519,Gwinnett County,GA,96.16724738675958,NA
30635,Elbert County,GA,50.87108013937283,NA
30643,Hart County,GA,39.02439024390244,NA
30813,Columbia County,GA,28.222996515679444,NA
31032,Jones County,GA,67.24738675958189,NA
31419,Chatham County,GA,NA,37.1900826446281
83628,Owyhee County,ID,95.81881533101046,NA
83634,Ada County,ID,93.72822299651567,NA
60004,Cook County,IL,6.2717770034843205,NA
60010,Lake County,IL,35.88850174216028,NA
60014,McHenry County,IL,10.452961672473867,NA
60016,Cook County,IL,7.665505226480835,NA
60030,Lake County,IL,NA,40.909090909090914
60053,Cook County,IL,71.0801393728223,NA
60107,Cook County,IL,NA,45.45454545454545
60193,Cook County,IL,5.923344947735192,NA
60420,Livingston County,IL,81.53310104529616,NA
60435,Will County,IL,NA,16.528925619834713
60455,Cook County,IL,67.59581881533101,NA
60477,Cook County,IL,34.494773519163765,NA
60525,Cook County,IL,NA,38.84297520661157
60526,Cook County,IL,NA,34.710743801652896
60609,Cook County,IL,NA,19.00826446280992
60613,Cook County,IL,94.77351916376307,NA
60637,Cook County,IL,8.710801393728223,NA
60643,Cook County,IL,1.7421602787456445,NA
60714,Cook County,IL,83.62369337979094,50.82644628099173
61101,Winnebago County,IL,NA,35.9504132231405
61114,Winnebago County,IL,85.01742160278745,NA
61265,Rock Island County,IL,21.254355400696863,NA
61341,LaSalle County,IL,94.07665505226481,NA
61705,McLean County,IL,62.7177700348432,NA
62035,Madison County,IL,NA,35.12396694214876
62966,Jackson County,IL,82.57839721254355,NA
46001,Madison County,IN,49.12891986062718,NA
46140,Hancock County,IN,NA,16.94214876033058
46143,Johnson County,IN,NA,4.132231404958678
46310,Jasper County,IN,44.25087108013937,NA
46341,Porter County,IN,95.1219512195122,NA
46383,Porter County,IN,2.7874564459930316,NA
46404,Lake County,IN,40.41811846689895,90.49586776859503
46544,St. Joseph County,IN,71.42857142857143,NA
46703,Steuben County,IN,59.23344947735192,NA
46706,DeKalb County,IN,77.00348432055749,NA
46737,Steuben County,IN,75.60975609756098,NA
46947,Cass County,IN,NA,6.198347107438017
47025,Dearborn County,IN,69.68641114982579,NA
47130,Clark County,IN,52.961672473867594,NA
47542,Dubois County,IN,64.80836236933798,NA
47591,Knox County,IN,17.770034843205575,NA
47904,Tippecanoe County,IN,62.36933797909408,NA
50009,Polk County,IA,73.5191637630662,NA
50321,Polk County,IA,81.8815331010453,NA
50327,Polk County,IA,NA,75.6198347107438
51501,Pottawattamie County,IA,7.317073170731707,NA
52402,Linn County,IA,NA,59.917355371900825
52632,Lee County,IA,NA,53.30578512396694
52773,Scott County,IA,100,NA
52804,Scott County,IA,24.738675958188153,NA
66061,Johnson County,KS,NA,32.231404958677686
66212,Johnson County,KS,37.63066202090592,NA
67401,Saline County,KS,NA,17.768595041322314
67530,Barton County,KS,NA,79.75206611570248
40014,Oldham County,KY,52.613240418118465,NA
40211,Jefferson County,KY,58.88501742160279,NA
40216,Jefferson County,KY,63.41463414634146,NA
40229,Jefferson County,KY,12.89198606271777,NA
40475,Madison County,KY,6.968641114982578,NA
41139,Greenup County,KY,NA,62.396694214876035
42058,Livingston County,KY,99.65156794425087,NA
42064,Crittenden County,KY,NA,82.23140495867769
42240,Christian County,KY,10.104529616724738,NA
70001,Jefferson Parish,LA,69.33797909407666,NA
70065,Jefferson Parish,LA,1.0452961672473868,NA
70448,St. Tammany Parish,LA,NA,23.96694214876033
70460,St. Tammany Parish,LA,NA,38.01652892561984
70582,St. Martin Parish,LA,61.672473867595826,NA
70601,Calcasieu Parish,LA,87.8048780487805,NA
71112,Bossier Parish,LA,17.073170731707318,NA
71203,Ouachita Parish,LA,16.72473867595819,NA
04079,Cumberland County,ME,NA,92.97520661157024
04239,Franklin County,ME,NA,65.70247933884298
04240,Androscoggin County,ME,NA,1.6528925619834711
20735,Prince George's County,MD,55.400696864111495,NA
20745,Prince George's County,MD,NA,78.099173553719
20748,Prince George's County,MD,NA,40.082644628099175
20772,Prince George's County,MD,80.13937282229965,NA
21001,Harford County,MD,NA,52.47933884297521
21212,Baltimore city,MD,23.34494773519164,NA
21401,Anne Arundel County,MD,22.299651567944252,NA
01247,Berkshire County,MA,5.574912891986063,NA
01420,Worcester County,MA,68.98954703832753,NA
01970,Essex County,MA,NA,4.958677685950414
02045,Plymouth County,MA,NA,61.57024793388429
02125,Suffolk County,MA,0.34843205574912894,NA
02446,Norfolk County,MA,NA,6.6115702479338845
02492,Norfolk County,MA,18.81533101045296,NA
02493,Middlesex County,MA,78.397212543554,NA
48045,Macomb County,MI,NA,33.88429752066116
48054,St. Clair County,MI,NA,57.438016528925615
48101,Wayne County,MI,19.860627177700348,NA
48124,Wayne County,MI,NA,32.64462809917356
48174,Wayne County,MI,36.933797909407666,NA
48187,Wayne County,MI,28.57142857142857,NA
48189,Washtenaw County,MI,NA,62.8099173553719
48209,Wayne County,MI,NA,57.02479338842975
48212,Wayne County,MI,NA,55.371900826446286
48235,Wayne County,MI,55.749128919860624,NA
48237,Oakland County,MI,11.846689895470384,NA
48342,Oakland County,MI,26.132404181184672,NA
48348,Oakland County,MI,33.79790940766551,NA
48359,Oakland County,MI,87.45644599303137,NA
48412,Lapeer County,MI,NA,80.57851239669421
48446,Lapeer County,MI,NA,42.561983471074385
48739,Iosco County,MI,NA,81.81818181818183
48906,Ingham County,MI,NA,28.09917355371901
49015,Calhoun County,MI,NA,13.223140495867769
49022,Berrien County,MI,33.44947735191638,NA
49036,Branch County,MI,NA,85.9504132231405
49048,Kalamazoo County,MI,76.65505226480836,NA
49093,St. Joseph County,MI,NA,29.338842975206614
49307,Mecosta County,MI,NA,67.76859504132231
49337,Newaygo County,MI,NA,70.66115702479338
49349,Newaygo County,MI,NA,95.45454545454545
55009,Goodhue County,MN,NA,46.28099173553719
55051,Kanabec County,MN,27.526132404181187,NA
55112,Ramsey County,MN,NA,17.355371900826448
55378,Scott County,MN,74.21602787456446,NA
55432,Anoka County,MN,NA,48.760330578512395
55810,St. Louis County,MN,NA,94.62809917355372
55902,Olmsted County,MN,50.174216027874564,NA
56101,Cottonwood County,MN,NA,98.34710743801654
56472,Crow Wing County,MN,NA,76.44628099173553
39208,Rankin County,MS,NA,23.140495867768596
39402,Lamar County,MS,42.508710801393725,NA
39571,Harrison County,MS,NA,61.15702479338842
63129,St. Louis County,MO,NA,7.024793388429752
63131,St. Louis County,MO,NA,44.214876033057855
63136,St. Louis County,MO,NA,26.859504132231404
64112,Jackson County,MO,65.1567944250871,NA
64114,Jackson County,MO,NA,27.27272727272727
64119,Clay County,MO,13.588850174216027,NA
64134,Jackson County,MO,25.087108013937282,NA
64831,McDonald County,MO,79.09407665505228,84.29752066115702
64836,Jasper County,MO,NA,13.636363636363635
65020,Camden County,MO,85.36585365853658,NA
65560,Dent County,MO,NA,28.92561983471074
65775,Howell County,MO,NA,39.66942148760331
65810,Greene County,MO,NA,49.17355371900827
59860,Lake County,MT,NA,52.892561983471076
59923,Lincoln County,MT,70.38327526132404,NA
68104,Douglas County,NE,NA,36.77685950413223
68803,Hall County,NE,NA,41.735537190082646
69101,Lincoln County,NE,NA,11.15702479338843
89156,Clark County,NV,55.052264808362374,NA
89436,Washoe County,NV,63.06620209059234,36.36363636363637
03063,Hillsborough County,NH,94.42508710801394,NA
03079,Rockingham County,NH,97.21254355400697,NA
03102,Hillsborough County,NH,NA,5.371900826446281
07009,Essex County,NJ,NA,41.32231404958678
07022,Bergen County,NJ,57.8397212543554,91.32231404958677
07044,Essex County,NJ,NA,97.93388429752066
07080,Middlesex County,NJ,45.29616724738676,NA
07480,Passaic County,NJ,81.18466898954703,NA
07601,Bergen County,NJ,NA,14.46280991735537
07652,Bergen County,NJ,NA,10.330578512396695
07836,Morris County,NJ,NA,47.107438016528924
07853,Morris County,NJ,NA,82.64462809917356
07924,Somerset County,NJ,NA,95.0413223140496
08003,Camden County,NJ,NA,18.59504132231405
08046,Burlington County,NJ,NA,54.958677685950406
08052,Burlington County,NJ,NA,43.388429752066116
08096,Gloucester County,NJ,NA,14.87603305785124
08110,Camden County,NJ,97.90940766550523,NA
08204,Cape May County,NJ,NA,26.033057851239672
08742,Ocean County,NJ,NA,27.685950413223143
08753,Ocean County,NJ,NA,8.677685950413224
08759,Ocean County,NJ,NA,0
87112,Bernalillo County,NM,NA,3.71900826446281
87505,Santa Fe County,NM,NA,9.090909090909092
87701,San Miguel County,NM,78.74564459930313,NA
10009,New York County,NY,NA,2.8925619834710745
10011,New York County,NY,NA,56.611570247933884
10023,New York County,NY,NA,23.553719008264462
10455,Bronx County,NY,NA,14.049586776859504
10463,Bronx County,NY,NA,20.24793388429752
10473,Bronx County,NY,3.484320557491289,NA
10512,Putnam County,NY,54.35540069686411,NA
10522,Westchester County,NY,NA,69.00826446280992
11005,Queens County,NY,NA,64.46280991735537
11201,Kings County,NY,13.240418118466899,78.92561983471074
11203,Kings County,NY,NA,5.785123966942149
11208,Kings County,NY,21.602787456445995,NA
11210,Kings County,NY,15.33101045296167,NA
11212,Kings County,NY,0,NA
11224,Kings County,NY,NA,0.8264462809917356
11370,Queens County,NY,91.28919860627178,NA
11427,Queens County,NY,NA,95.86776859504133
11435,Queens County,NY,NA,24.793388429752067
11691,Queens County,NY,NA,64.0495867768595
11713,Suffolk County,NY,92.33449477351915,NA
11729,Suffolk County,NY,NA,39.25619834710744
11735,Nassau County,NY,NA,71.48760330578511
11743,Suffolk County,NY,NA,12.8099173553719
11762,Nassau County,NY,NA,64.87603305785123
11779,Suffolk County,NY,NA,33.057851239669425
12205,Albany County,NY,32.40418118466899,NA
13034,Cayuga County,NY,98.60627177700349,NA
13069,Oswego County,NY,31.3588850174216,NA
13329,Herkimer County,NY,88.15331010452961,NA
14150,Erie County,NY,20.905923344947734,NA
14218,Erie County,NY,29.61672473867596,NA
14482,Genesee County,NY,57.491289198606275,NA
14489,Wayne County,NY,91.98606271777004,NA
14526,Monroe County,NY,NA,22.727272727272727
14564,Ontario County,NY,39.37282229965157,NA
14613,Monroe County,NY,24.041811846689896,NA
14616,Monroe County,NY,NA,24.380165289256198
14626,Monroe County,NY,NA,59.50413223140496
14830,Steuben County,NY,20.557491289198605,NA
14850,Tompkins County,NY,NA,51.652892561983464
27006,Davie County,NC,NA,16.115702479338843
27028,Davie County,NC,NA,90.08264462809917
27127,Forsyth County,NC,NA,26.446280991735538
27278,Orange County,NC,53.31010452961672,NA
27282,Guilford County,NC,NA,51.2396694214876
27284,Forsyth County,NC,0.6968641114982579,NA
27360,Davidson County,NC,2.4390243902439024,NA
27518,Wake County,NC,80.8362369337979,NA
27576,Johnston County,NC,NA,96.69421487603306
27604,Wake County,NC,NA,44.62809917355372
27610,Wake County,NC,74.56445993031359,NA
27705,Durham County,NC,NA,18.181818181818183
28128,Stanly County,NC,NA,80.99173553719008
28270,Mecklenburg County,NC,34.146341463414636,NA
28277,Mecklenburg County,NC,41.46341463414634,NA
28303,Cumberland County,NC,NA,38.429752066115704
28366,Sampson County,NC,NA,68.59504132231406
28372,Robeson County,NC,NA,92.56198347107438
28383,Robeson County,NC,73.17073170731707,NA
28513,Pitt County,NC,64.11149825783971,NA
28621,Surry County,NC,38.67595818815331,NA
28645,Caldwell County,NC,NA,1.2396694214876034
28676,Surry County,NC,95.47038327526133,NA
28712,Transylvania County,NC,25.435540069686414,NA
28719,Jackson County,NC,51.56794425087108,NA
28730,Buncombe County,NC,79.79094076655052,NA
28804,Buncombe County,NC,60.62717770034843,NA
43028,Knox County,OH,NA,97.10743801652893
43055,Licking County,OH,NA,2.066115702479339
43078,Champaign County,OH,NA,63.63636363636363
43528,Lucas County,OH,32.752613240418114,NA
43560,Lucas County,OH,NA,45.867768595041326
43701,Muskingum County,OH,NA,11.983471074380166
43907,Harrison County,OH,58.536585365853654,NA
43935,Belmont County,OH,NA,53.71900826446281
44094,Lake County,OH,NA,0.4132231404958678
44103,Cuyahoga County,OH,NA,28.512396694214875
44117,Cuyahoga County,OH,96.51567944250871,NA
44124,Cuyahoga County,OH,13.937282229965156,NA
44136,Cuyahoga County,OH,45.64459930313589,NA
44281,Medina County,OH,NA,15.289256198347106
44310,Summit County,OH,72.82229965156795,NA
44314,Summit County,OH,62.02090592334495,NA
44403,Trumbull County,OH,99.30313588850174,NA
44481,Trumbull County,OH,24.390243902439025,NA
44672,Mahoning County,OH,66.89895470383276,NA
45220,Hamilton County,OH,NA,87.19008264462809
45331,Darke County,OH,NA,33.47107438016529
45335,Greene County,OH,97.5609756097561,NA
45623,Gallia County,OH,88.50174216027874,NA
45690,Pike County,OH,11.498257839721255,NA
45805,Allen County,OH,NA,81.40495867768594
73507,Comanche County,OK,88.85017421602788,NA
73644,Beckham County,OK,48.43205574912892,NA
74017,Rogers County,OK,NA,47.93388429752066
74106,Tulsa County,OK,59.93031358885017,NA
97132,Yamhill County,OR,19.16376306620209,NA
97215,Multnomah County,OR,NA,99.17355371900827
97386,Linn County,OR,29.268292682926827,NA
97391,Lincoln County,OR,98.95470383275261,NA
97426,Lane County,OR,NA,46.69421487603306
97504,Jackson County,OR,93.37979094076655,NA
97520,Jackson County,OR,NA,25.6198347107438
97701,Deschutes County,OR,NA,31.40495867768595
15009,Beaver County,PA,NA,76.03305785123968
15212,Allegheny County,PA,59.58188153310105,30.57851239669421
15215,Allegheny County,PA,75.26132404181185,NA
15425,Fayette County,PA,47.038327526132406,NA
16146,Mercer County,PA,NA,71.900826446281
17222,Franklin County,PA,NA,31.818181818181817
17320,Adams County,PA,NA,54.132231404958674
17356,York County,PA,91.63763066202091,NA
17404,York County,PA,9.40766550522648,NA
18103,Lehigh County,PA,3.1358885017421603,NA
18444,Lackawanna County,PA,NA,52.066115702479344
18508,Lackawanna County,PA,NA,88.42975206611571
18640,Luzerne County,PA,NA,21.074380165289256
18974,Bucks County,PA,32.05574912891986,NA
19008,Delaware County,PA,26.480836236933797,86.36363636363636
19020,Bucks County,PA,5.2264808362369335,NA
19046,Montgomery County,PA,73.86759581881533,NA
19055,Bucks County,PA,NA,66.11570247933885
19073,Delaware County,PA,56.79442508710801,NA
19078,Delaware County,PA,98.25783972125436,NA
19330,Chester County,PA,82.22996515679442,NA
19343,Chester County,PA,NA,89.6694214876033
19355,Chester County,PA,31.010452961672474,NA
19380,Chester County,PA,NA,2.479338842975207
19382,Chester County,PA,27.177700348432055,NA
19390,Chester County,PA,NA,74.3801652892562
19422,Montgomery County,PA,25.435540069686414,NA
02814,Providence County,RI,NA,85.12396694214877
02895,Providence County,RI,18.466898954703833,NA
02920,Providence County,RI,NA,48.34710743801653
29048,Orangeburg County,SC,83.97212543554006,NA
29303,Spartanburg County,SC,NA,84.71074380165288
29445,Berkeley County,SC,NA,35.53719008264463
29550,Darlington County,SC,NA,93.80165289256198
29571,Marion County,SC,80.48780487804879,NA
29601,Greenville County,SC,89.54703832752612,NA
29605,Greenville County,SC,9.059233449477352,NA
29920,Beaufort County,SC,NA,99.58677685950413
57501,Hughes County,SD,NA,25.206611570247933
37091,Marshall County,TN,NA,47.5206611570248
37330,Franklin County,TN,NA,88.01652892561982
37334,Lincoln County,TN,20.209059233449477,NA
37412,Hamilton County,TN,47.386759581881535,NA
37659,Washington County,TN,NA,87.60330578512396
37742,Loudon County,TN,63.76306620209059,NA
37745,Greene County,TN,45.99303135888502,NA
37763,Roane County,TN,30.66202090592334,NA
37811,Hawkins County,TN,90.94076655052264,NA
37813,Hamblen County,TN,52.264808362369344,NA
37917,Knox County,TN,16.02787456445993,NA
37922,Knox County,TN,NA,72.72727272727273
38122,Shelby County,TN,NA,60.33057851239669
38478,Giles County,TN,48.78048780487805,NA
38570,Overton County,TN,89.19860627177701,NA
75089,Dallas County,TX,54.70383275261324,NA
75126,Kaufman County,TX,31.70731707317073,NA
75210,Dallas County,TX,NA,74.79338842975206
75211,Dallas County,TX,15.6794425087108,NA
75216,Dallas County,TX,NA,61.98347107438017
75233,Dallas County,TX,NA,73.55371900826447
75241,Dallas County,TX,23.693379790940767,NA
75248,Dallas County,TX,NA,30.991735537190085
75252,Collin County,TX,NA,83.88429752066115
75964,Nacogdoches County,TX,60.62717770034843,NA
76012,Tarrant County,TX,41.11498257839721,NA
76082,Parker County,TX,65.50522648083623,NA
76458,Jack County,TX,NA,94.21487603305785
76550,Lampasas County,TX,NA,15.702479338842975
77036,Harris County,TX,16.376306620209057,NA
77040,Harris County,TX,19.51219512195122,NA
77041,Harris County,TX,83.27526132404182,NA
77056,Harris County,TX,43.20557491289199,NA
77066,Harris County,TX,44.599303135888505,NA
77080,Harris County,TX,NA,45.04132231404959
77338,Harris County,TX,NA,89.25619834710744
77437,Wharton County,TX,NA,37.60330578512397
77480,Brazoria County,TX,67.59581881533101,NA
77498,Fort Bend County,TX,40.069686411149824,NA
77515,Brazoria County,TX,22.64808362369338,NA
77550,Galveston County,TX,9.75609756097561,NA
77632,Orange County,TX,89.89547038327527,NA
78242,Bexar County,TX,NA,83.05785123966942
78247,Bexar County,TX,46.34146341463415,NA
78537,Hidalgo County,TX,NA,76.85950413223141
78626,Williamson County,TX,NA,97.52066115702479
78752,Travis County,TX,NA,88.84297520661157
79928,El Paso County,TX,93.03135888501743,NA
84014,Davis County,UT,NA,66.52892561983471
05488,Franklin County,VT,44.94773519163763,NA
20190,Fairfax County,VA,NA,70.24793388429752
22182,Fairfax County,VA,NA,73.14049586776859
22503,Lancaster County,VA,NA,96.28099173553719
23117,Louisa County,VA,NA,58.67768595041323
23435,Suffolk city,VA,NA,40.49586776859504
23455,Virginia Beach city,VA,4.878048780487805,NA
23504,Norfolk city,VA,41.81184668989547,NA
23505,Norfolk city,VA,NA,59.09090909090909
23608,Newport News city,VA,71.77700348432056,NA
23834,Colonial Heights city,VA,NA,77.27272727272727
24112,Henry County,VA,66.55052264808361,NA
24211,Washington County,VA,43.90243902439025,NA
24251,Scott County,VA,NA,90.9090909090909
24279,Wise County,VA,NA,100
24523,Bedford County,VA,60.278745644599304,NA
24550,Campbell County,VA,74.91289198606272,NA
98033,King County,WA,NA,50
98036,Snohomish County,WA,NA,30.165289256198346
98133,King County,WA,NA,9.50413223140496
98382,Clallam County,WA,NA,11.570247933884298
98563,Grays Harbor County,WA,96.86411149825784,NA
98902,Yakima County,WA,NA,12.396694214876034
98926,Kittitas County,WA,NA,98.7603305785124
98948,Yakima County,WA,61.32404181184668,NA
98951,Yakima County,WA,NA,83.47107438016529
99338,Benton County,WA,53.65853658536586,NA
25064,Kanawha County,WV,NA,72.31404958677686
53024,Ozaukee County,WI,72.12543554006969,NA
53045,Waukesha County,WI,NA,19.421487603305785
53146,Waukesha County,WI,NA,69.83471074380165
53158,Kenosha County,WI,NA,80.16528925619835
53185,Racine County,WI,40.76655052264808,NA
53206,Milwaukee County,WI,6.620209059233449,NA
53546,Rock County,WI,2.0905923344947737,NA
54409,Langlade County,WI,NA,7.43801652892562
54701,Eau Claire County,WI,NA,29.75206611570248
54868,Barron County,WI,NA,86.77685950413223
54880,Douglas County,WI,1.3937282229965158,NA
