ZipCode,county,state,Adult,Retirement,Geriatric
35016,Marshall County,AL,34.04255319148936,NA,NA
35023,Jefferson County,AL,80,NA,NA
35062,Jefferson County,AL,NA,81.88494492044065,NA
35128,St. Clair County,AL,NA,74.90820073439413,NA
35150,Talladega County,AL,91.06382978723404,NA,NA
35180,Jefferson County,AL,96.17021276595744,NA,NA
35211,Jefferson County,AL,NA,68.91064871481028,NA
35218,Jefferson County,AL,NA,73.56181150550796,NA
35244,Jefferson County,AL,NA,27.172582619339046,NA
35405,Tuscaloosa County,AL,17.4468085106383,NA,NA
35453,Tuscaloosa County,AL,NA,50.18359853121175,NA
35504,Walker County,AL,NA,NA,41.896024464831804
35630,Lauderdale County,AL,NA,82.00734394124846,NA
35634,Lauderdale County,AL,64.04255319148936,NA,NA
35654,Franklin County,AL,NA,72.09302325581395,NA
35976,Marshall County,AL,NA,NA,64.52599388379205
36054,Elmore County,AL,NA,91.55446756425948,NA
36109,Montgomery County,AL,NA,NA,96.02446483180428
36117,Montgomery County,AL,NA,24.724602203182375,NA
36251,Clay County,AL,NA,87.88249694002448,NA
36264,Cleburne County,AL,65.1063829787234,NA,NA
36272,Calhoun County,AL,NA,77.23378212974296,NA
36310,Henry County,AL,NA,90.57527539779682,NA
36526,Baldwin County,AL,67.87234042553192,NA,NA
36532,Baldwin County,AL,38.51063829787234,NA,NA
36701,Dallas County,AL,NA,63.52509179926561,NA
85015,Maricopa County,AZ,46.808510638297875,NA,NA
85018,Maricopa County,AZ,75.74468085106383,53.85556915544676,NA
85020,Maricopa County,AZ,NA,22.88861689106487,NA
85043,Maricopa County,AZ,NA,45.65483476132191,NA
85050,Maricopa County,AZ,58.51063829787234,NA,NA
85122,Pinal County,AZ,4.042553191489362,NA,NA
85206,Maricopa County,AZ,27.659574468085108,NA,NA
85207,Maricopa County,AZ,NA,17.38066095471236,NA
85213,Maricopa County,AZ,NA,88.98408812729498,NA
85215,Maricopa County,AZ,94.46808510638299,NA,NA
85296,Maricopa County,AZ,NA,64.38188494492044,NA
85297,Maricopa County,AZ,73.19148936170212,NA,NA
85310,Maricopa County,AZ,54.25531914893617,NA,NA
85323,Maricopa County,AZ,NA,75.64259485924113,NA
85374,Maricopa County,AZ,NA,53.12117503059975,NA
85375,Maricopa County,AZ,NA,57.52753977968176,NA
85383,Maricopa County,AZ,40.42553191489361,NA,NA
85546,Graham County,AZ,NA,NA,66.66666666666666
85658,Pima County,AZ,NA,45.41003671970624,NA
85706,Pima County,AZ,NA,41.73806609547124,NA
85714,Pima County,AZ,NA,40.63647490820074,NA
85745,Pima County,AZ,NA,64.87148102815178,NA
85755,Pima County,AZ,NA,NA,21.406727828746178
85757,Pima County,AZ,40,NA,NA
86025,Navajo County,AZ,NA,NA,90.82568807339449
86326,Yavapai County,AZ,NA,NA,42.813455657492355
71913,Garland County,AR,NA,75.5201958384333,NA
72002,Saline County,AR,98.08510638297872,NA,NA
72020,White County,AR,NA,79.1921664626683,NA
72370,Mississippi County,AR,NA,98.1640146878825,NA
72404,Craighead County,AR,NA,55.201958384332926,NA
72830,Johnson County,AR,NA,76.6217870257038,75.22935779816514
72916,Sebastian County,AR,96.59574468085106,NA,NA
90018,Los Angeles County,CA,NA,47.61321909424724,NA
90020,Los Angeles County,CA,NA,37.33170134638923,NA
90026,Los Angeles County,CA,28.510638297872344,NA,17.431192660550458
90027,Los Angeles County,CA,NA,39.290085679314565,NA
90037,Los Angeles County,CA,NA,70.13463892288861,NA
90232,Los Angeles County,CA,98.29787234042553,NA,NA
90266,Los Angeles County,CA,NA,61.6891064871481,NA
90275,Los Angeles County,CA,38.08510638297872,NA,NA
90278,Los Angeles County,CA,61.91489361702127,NA,NA
90620,Orange County,CA,NA,23.990208078335375,NA
90630,Orange County,CA,NA,13.219094247246021,NA
90703,Los Angeles County,CA,NA,89.10648714810281,NA
90713,Los Angeles County,CA,46.170212765957444,NA,NA
90731,Los Angeles County,CA,NA,16.523867809057528,NA
90803,Los Angeles County,CA,99.14893617021276,NA,38.226299694189606
90813,Los Angeles County,CA,NA,31.57894736842105,NA
91011,Los Angeles County,CA,NA,81.15055079559363,NA
91107,Los Angeles County,CA,55.319148936170215,NA,NA
91306,Los Angeles County,CA,78.72340425531915,NA,NA
91343,Los Angeles County,CA,NA,32.313341493268055,NA
91354,Los Angeles County,CA,NA,62.7906976744186,NA
91356,Los Angeles County,CA,57.234042553191486,NA,NA
91360,Ventura County,CA,64.25531914893618,NA,NA
91504,Los Angeles County,CA,NA,75.03059975520195,NA
91702,Los Angeles County,CA,16.80851063829787,NA,NA
91709,San Bernardino County,CA,NA,NA,28.74617737003058
91710,San Bernardino County,CA,NA,71.60342717258263,NA
91761,San Bernardino County,CA,NA,22.031823745410037,NA
91766,Los Angeles County,CA,NA,30.354957160342718,NA
91790,Los Angeles County,CA,NA,34.39412484700122,NA
91941,San Diego County,CA,NA,82.37454100367198,NA
91977,San Diego County,CA,NA,17.62545899632803,NA
92024,San Diego County,CA,NA,29.498164014687884,NA
92028,San Diego County,CA,NA,NA,31.804281345565748
92037,San Diego County,CA,NA,NA,77.06422018348624
92081,San Diego County,CA,NA,99.87760097919217,NA
92083,San Diego County,CA,91.48936170212765,NA,NA
92084,San Diego County,CA,NA,86.65850673194615,NA
92122,San Diego County,CA,NA,NA,37.308868501529055
92126,San Diego County,CA,NA,NA,32.11009174311927
92129,San Diego County,CA,96.80851063829788,NA,NA
92220,Riverside County,CA,NA,NA,48.01223241590214
92225,Riverside County,CA,NA,63.8922888616891,NA
92231,Imperial County,CA,NA,48.71481028151774,NA
92240,Riverside County,CA,NA,24.23500611995104,NA
92243,Imperial County,CA,82.12765957446808,NA,NA
92264,Riverside County,CA,NA,28.02937576499388,NA
92284,San Bernardino County,CA,NA,44.063647490820074,NA
92308,San Bernardino County,CA,66.59574468085107,NA,NA
92395,San Bernardino County,CA,94.04255319148936,NA,NA
92504,Riverside County,CA,NA,95.9608323133415,NA
92545,Riverside County,CA,NA,80.17135862913096,NA
92555,Riverside County,CA,39.57446808510638,NA,NA
92603,Orange County,CA,NA,93.51285189718482,NA
92606,Orange County,CA,NA,NA,91.13149847094802
92620,Orange County,CA,NA,28.151774785801713,NA
92626,Orange County,CA,75.53191489361703,NA,NA
92627,Orange County,CA,NA,19.216646266829866,NA
92630,Orange County,CA,57.446808510638306,NA,NA
92647,Orange County,CA,NA,13.096695226438188,NA
92648,Orange County,CA,15.74468085106383,14.56548347613219,NA
92651,Orange County,CA,59.787234042553195,NA,NA
92653,Orange County,CA,NA,35.74051407588739,NA
92656,Orange County,CA,NA,33.047735618115055,NA
92692,Orange County,CA,49.787234042553195,NA,NA
92821,Orange County,CA,NA,62.0563035495716,NA
92841,Orange County,CA,NA,71.35862913096696,NA
92845,Orange County,CA,NA,72.2154222766218,NA
92869,Orange County,CA,40.638297872340424,NA,NA
92882,Riverside County,CA,NA,NA,48.318042813455655
92887,Orange County,CA,NA,NA,43.11926605504588
93010,Ventura County,CA,NA,15.66707466340269,NA
93012,Ventura County,CA,NA,58.017135862913094,NA
93065,Ventura County,CA,85.74468085106382,NA,NA
93257,Tulare County,CA,NA,NA,45.25993883792049
93274,Tulare County,CA,NA,11.383108935128519,NA
93304,Kern County,CA,NA,60.220318237454094,NA
93308,Kern County,CA,54.680851063829785,NA,NA
93702,Fresno County,CA,NA,50.30599755201959,NA
93720,Fresno County,CA,44.8936170212766,NA,NA
93933,Monterey County,CA,NA,NA,51.98776758409785
93940,Monterey County,CA,NA,NA,14.984709480122325
93955,Monterey County,CA,NA,23.011015911872704,NA
94014,San Mateo County,CA,NA,NA,7.339449541284404
94025,San Mateo County,CA,NA,51.897184822521425,NA
94040,Santa Clara County,CA,NA,85.06731946144431,NA
94041,Santa Clara County,CA,72.3404255319149,NA,NA
94070,San Mateo County,CA,NA,47.00122399020808,NA
94121,San Francisco County,CA,NA,54.100367197062425,NA
94501,Alameda County,CA,NA,86.29130966952265,NA
94521,Contra Costa County,CA,NA,54.22276621787026,NA
94534,Solano County,CA,43.829787234042556,NA,NA
94560,Alameda County,CA,NA,30.966952264381888,NA
94578,Alameda County,CA,74.25531914893617,NA,NA
94597,Contra Costa County,CA,50.42553191489362,NA,NA
94605,Alameda County,CA,NA,14.075887392900857,NA
94607,Alameda County,CA,NA,91.30966952264382,NA
94611,Alameda County,CA,NA,14.320685434516525,NA
94619,Alameda County,CA,NA,41.98286413708691,NA
94947,Marin County,CA,NA,NA,19.26605504587156
95008,Santa Clara County,CA,NA,90.94247246022032,NA
95020,Santa Clara County,CA,NA,72.82741738066095,NA
95037,Santa Clara County,CA,NA,49.20440636474908,NA
95066,Santa Cruz County,CA,NA,77.84577723378213,NA
95112,Santa Clara County,CA,77.87234042553192,NA,NA
95121,Santa Clara County,CA,NA,38.922888616891065,NA
95122,Santa Clara County,CA,27.872340425531917,NA,NA
95123,Santa Clara County,CA,83.82978723404256,NA,NA
95128,Santa Clara County,CA,20,NA,NA
95130,Santa Clara County,CA,74.04255319148936,NA,NA
95136,Santa Clara County,CA,NA,93.63525091799265,NA
95148,Santa Clara County,CA,66.17021276595744,NA,NA
95215,San Joaquin County,CA,NA,69.64504283965728,NA
95258,San Joaquin County,CA,88.72340425531915,NA,NA
95301,Merced County,CA,53.829787234042556,NA,NA
95316,Stanislaus County,CA,NA,94.4920440636475,NA
95403,Sonoma County,CA,NA,53.73317013463892,NA
95448,Sonoma County,CA,NA,30.110159118727047,NA
95630,Sacramento County,CA,13.191489361702127,NA,NA
95642,Amador County,CA,NA,NA,92.35474006116208
95661,Placer County,CA,NA,NA,35.77981651376147
95667,El Dorado County,CA,NA,1.9583843329253363,NA
95670,Sacramento County,CA,NA,48.959608323133416,NA
95691,Yolo County,CA,NA,NA,76.14678899082568
95762,El Dorado County,CA,NA,67.19706242350061,NA
95833,Sacramento County,CA,22.340425531914892,NA,NA
95834,Sacramento County,CA,49.148936170212764,NA,NA
95945,Nevada County,CA,NA,NA,87.46177370030581
95949,Nevada County,CA,NA,34.27172582619339,NA
96002,Shasta County,CA,NA,92.65605875153,NA
80004,Jefferson County,CO,NA,NA,25.076452599388375
80005,Jefferson County,CO,39.361702127659576,44.67564259485924,53.822629969418955
80013,Arapahoe County,CO,NA,13.953488372093023,NA
80014,Arapahoe County,CO,NA,NA,24.464831804281346
80030,Adams County,CO,90.2127659574468,NA,NA
80031,Adams County,CO,NA,39.657282741738065,NA
80126,Douglas County,CO,56.59574468085107,NA,NA
80219,Denver County,CO,84.46808510638299,NA,NA
80403,Jefferson County,CO,66.80851063829788,NA,NA
80439,Jefferson County,CO,83.40425531914893,NA,NA
80501,Boulder County,CO,NA,37.69889840881273,NA
80521,Larimer County,CO,NA,NA,58.40978593272171
80524,Larimer County,CO,NA,NA,30.886850152905197
80550,Weld County,CO,NA,28.64137086903305,NA
80758,Yuma County,CO,86.59574468085106,NA,NA
80817,El Paso County,CO,NA,NA,84.40366972477065
80919,El Paso County,CO,NA,64.50428396572828,NA
06010,Hartford County,CT,NA,11.995104039167687,16.207951070336392
06040,Hartford County,CT,NA,NA,17.12538226299694
06053,Hartford County,CT,48.723404255319146,NA,NA
06067,Hartford County,CT,NA,45.41003671970624,NA
06089,Hartford County,CT,NA,98.04161566707467,NA
06111,Hartford County,CT,NA,71.1138310893513,NA
06237,Tolland County,CT,80.63829787234043,NA,NA
06441,Middlesex County,CT,NA,NA,85.62691131498471
06457,Middlesex County,CT,NA,NA,56.269113149847094
06477,New Haven County,CT,NA,57.6499388004896,NA
06482,Fairfield County,CT,NA,94.24724602203183,NA
06483,New Haven County,CT,NA,41.37086903304773,NA
06484,Fairfield County,CT,NA,NA,79.81651376146789
06492,New Haven County,CT,NA,NA,4.281345565749235
06511,New Haven County,CT,2.127659574468085,NA,NA
06512,New Haven County,CT,11.48936170212766,NA,NA
06516,New Haven County,CT,NA,14.810281517747859,NA
06605,Fairfield County,CT,18.72340425531915,NA,NA
06615,Fairfield County,CT,31.48936170212766,NA,NA
06704,New Haven County,CT,35.319148936170215,NA,NA
06708,New Haven County,CT,NA,23.378212974296204,NA
06712,New Haven County,CT,NA,61.6891064871481,NA
06807,Fairfield County,CT,NA,97.062423500612,NA
06824,Fairfield County,CT,NA,NA,97.55351681957187
06851,Fairfield County,CT,NA,34.76132190942472,NA
19703,New Castle County,DE,NA,74.66340269277846,NA
19711,New Castle County,DE,NA,86.53610771113831,NA
19945,Sussex County,DE,NA,83.35373317013463,NA
19952,Kent County,DE,NA,67.31946144430844,NA
19963,Sussex County,DE,86.59574468085106,NA,NA
32033,St. Johns County,FL,79.14893617021276,NA,NA
32034,Nassau County,FL,84.04255319148936,NA,NA
32082,St. Johns County,FL,NA,NA,16.51376146788991
32086,St. Johns County,FL,25.319148936170212,NA,NA
32095,St. Johns County,FL,NA,81.51774785801713,NA
32137,Flagler County,FL,NA,NA,22.32415902140673
32162,Sumter County,FL,NA,NA,23.853211009174313
32207,Duval County,FL,NA,6.6095471236230106,NA
32234,Duval County,FL,NA,56.670746634026926,NA
32257,Duval County,FL,NA,41.615667074663406,NA
32258,Duval County,FL,35.53191489361702,NA,NA
32405,Bay County,FL,NA,NA,13.455657492354739
32444,Bay County,FL,47.87234042553192,NA,NA
32506,Escambia County,FL,NA,10.403916768665852,NA
32507,Escambia County,FL,NA,NA,97.85932721712538
32526,Escambia County,FL,NA,25.948592411260712,NA
32536,Okaloosa County,FL,NA,15.911872705018359,NA
32539,Okaloosa County,FL,NA,61.32190942472461,NA
32606,Alachua County,FL,57.87234042553191,NA,NA
32669,Alachua County,FL,NA,46.634026927784575,NA
32680,Dixie County,FL,55.53191489361702,NA,NA
32720,Volusia County,FL,NA,25.703794369645045,NA
32746,Seminole County,FL,NA,27.784577723378213,NA
32757,Lake County,FL,NA,18.35985312117503,NA
32771,Seminole County,FL,8.51063829787234,NA,NA
32806,Orange County,FL,49.57446808510638,NA,NA
32826,Orange County,FL,92.76595744680851,NA,NA
32837,Orange County,FL,NA,88.73929008567931,NA
32839,Orange County,FL,NA,26.31578947368421,NA
32909,Brevard County,FL,21.914893617021278,NA,NA
32955,Brevard County,FL,NA,NA,29.66360856269113
32962,Indian River County,FL,91.91489361702128,NA,NA
33012,Miami-Dade County,FL,NA,41.2484700122399,NA
33024,Broward County,FL,NA,59.36352509179926,NA
33027,Broward County,FL,NA,53.48837209302325,NA
33040,Monroe County,FL,NA,NA,71.55963302752293
33042,Monroe County,FL,NA,81.15055079559363,NA
33068,Broward County,FL,NA,35.98531211750306,NA
33127,Miami-Dade County,FL,NA,80.6609547123623,NA
33139,Miami-Dade County,FL,NA,63.1578947368421,NA
33155,Miami-Dade County,FL,52.55319148936171,NA,NA
33169,Miami-Dade County,FL,88.51063829787233,NA,NA
33175,Miami-Dade County,FL,35.95744680851064,NA,NA
33181,Miami-Dade County,FL,NA,79.5593635250918,NA
33186,Miami-Dade County,FL,NA,NA,18.34862385321101
33190,Miami-Dade County,FL,NA,91.18727050183598,NA
33308,Broward County,FL,NA,NA,65.74923547400611
33326,Broward County,FL,NA,89.84088127294982,61.773700305810394
33432,Palm Beach County,FL,NA,29.74296205630355,NA
33434,Palm Beach County,FL,NA,26.560587515299876,NA
33556,Hillsborough County,FL,NA,96.57282741738065,NA
33573,Hillsborough County,FL,NA,NA,2.1406727828746175
33578,Hillsborough County,FL,NA,67.80905752753978,NA
33611,Hillsborough County,FL,NA,67.68665850673194,NA
33618,Hillsborough County,FL,NA,74.0514075887393,NA
33625,Hillsborough County,FL,39.787234042553195,NA,NA
33713,Pinellas County,FL,57.659574468085104,NA,NA
33756,Pinellas County,FL,NA,25.21419828641371,NA
33773,Pinellas County,FL,NA,94.61444308445533,NA
33811,Polk County,FL,NA,96.32802937576498,NA
33815,Polk County,FL,NA,NA,68.80733944954129
33870,Highlands County,FL,NA,NA,8.256880733944955
33875,Highlands County,FL,NA,74.29620563035496,NA
33880,Polk County,FL,11.914893617021278,NA,NA
33903,Lee County,FL,NA,20.4406364749082,NA
33904,Lee County,FL,NA,10.159118727050185,NA
33909,Lee County,FL,62.76595744680851,NA,NA
33916,Lee County,FL,NA,50.06119951040392,NA
33919,Lee County,FL,38.72340425531915,NA,NA
33931,Lee County,FL,NA,NA,86.23853211009175
33956,Lee County,FL,NA,83.84332925336597,NA
33981,Charlotte County,FL,NA,NA,51.37614678899083
33990,Lee County,FL,NA,54.34516523867809,NA
34105,Collier County,FL,NA,75.1529987760098,NA
34120,Collier County,FL,96.38297872340425,NA,NA
34145,Collier County,FL,NA,78.21297429620563,NA
34266,DeSoto County,FL,19.78723404255319,NA,NA
34471,Marion County,FL,NA,89.59608323133415,NA
34479,Marion County,FL,NA,NA,70.33639143730886
34601,Hernando County,FL,NA,43.329253365973074,NA
34744,Osceola County,FL,40.21276595744681,NA,NA
34746,Osceola County,FL,67.4468085106383,31.456548347613218,NA
34759,Polk County,FL,60.851063829787236,NA,NA
34761,Orange County,FL,NA,55.44675642594859,NA
34787,Orange County,FL,NA,NA,15.29051987767584
34982,St. Lucie County,FL,68.93617021276596,96.45042839657283,NA
30011,Barrow County,GA,NA,70.99143206854345,NA
30012,Rockdale County,GA,34.46808510638298,NA,NA
30016,Newton County,GA,24.893617021276597,NA,NA
30039,Gwinnett County,GA,NA,81.3953488372093,NA
30043,Gwinnett County,GA,NA,7.9559363525091795,NA
30047,Gwinnett County,GA,NA,16.27906976744186,NA
30067,Cobb County,GA,NA,48.592411260709916,NA
30068,Cobb County,GA,51.48936170212765,NA,NA
30078,Gwinnett County,GA,NA,59.60832313341493,NA
30094,Rockdale County,GA,28.723404255319153,20.31823745410037,NA
30115,Cherokee County,GA,21.48936170212766,NA,NA
30120,Bartow County,GA,NA,NA,44.342507645259936
30132,Paulding County,GA,NA,52.63157894736842,NA
30135,Douglas County,GA,NA,7.711138310893513,NA
30157,Paulding County,GA,13.404255319148936,NA,NA
30168,Cobb County,GA,NA,87.76009791921665,NA
30182,Carroll County,GA,94.25531914893617,NA,NA
30189,Cherokee County,GA,NA,NA,78.2874617737003
30253,Henry County,GA,NA,35.618115055079556,NA
30311,Fulton County,GA,44.25531914893617,NA,NA
30315,Fulton County,GA,NA,15.789473684210526,NA
30331,Fulton County,GA,NA,NA,73.08868501529052
30339,Cobb County,GA,NA,99.14320685434517,NA
30349,Fulton County,GA,NA,28.274173806609546,NA
30442,Jenkins County,GA,55.95744680851064,NA,NA
30517,Jackson County,GA,61.06382978723405,NA,NA
30518,Gwinnett County,GA,NA,NA,31.19266055045872
30643,Hart County,GA,43.829787234042556,NA,NA
30646,Madison County,GA,81.06382978723404,NA,NA
30721,Whitfield County,GA,NA,58.87392900856793,NA
30736,Catoosa County,GA,NA,12.11750305997552,NA
30824,McDuffie County,GA,NA,32.680538555691555,NA
31216,Bibb County,GA,NA,68.17625458996328,NA
31501,Ware County,GA,45.744680851063826,NA,NA
31602,Lowndes County,GA,NA,28.76376988984088,NA
31721,Dougherty County,GA,NA,43.81884944920441,NA
31763,Lee County,GA,NA,87.14810281517748,NA
31903,Muscogee County,GA,18.29787234042553,NA,NA
96707,Honolulu County,HI,NA,NA,41.59021406727829
96825,Honolulu County,HI,34.25531914893617,NA,NA
96826,Honolulu County,HI,NA,21.1750305997552,22.93577981651376
83338,Jerome County,ID,NA,15.54467564259486,NA
83442,Jefferson County,ID,NA,NA,88.37920489296636
83501,Nez Perce County,ID,NA,NA,65.13761467889908
83644,Canyon County,ID,NA,95.83843329253367,NA
83646,Ada County,ID,NA,NA,49.235474006116206
83672,Washington County,ID,NA,NA,47.40061162079511
83686,Canyon County,ID,44.680851063829785,NA,NA
83702,Ada County,ID,NA,66.34026927784578,NA
83709,Ada County,ID,NA,2.4479804161566707,NA
83714,Ada County,ID,NA,NA,9.785932721712538
83716,Ada County,ID,88.29787234042553,NA,NA
60002,Lake County,IL,NA,22.766217870257037,NA
60010,Lake County,IL,NA,NA,13.149847094801222
60016,Cook County,IL,NA,27.906976744186046,NA
60025,Cook County,IL,NA,NA,72.47706422018348
60031,Lake County,IL,NA,13.586291309669523,NA
60045,Lake County,IL,NA,40.8812729498164,NA
60053,Cook County,IL,NA,22.031823745410037,NA
60062,Cook County,IL,21.70212765957447,NA,NA
60077,Cook County,IL,NA,NA,56.574923547400616
60090,Cook County,IL,NA,62.17870257037944,NA
60093,Cook County,IL,NA,NA,60.550458715596335
60096,Lake County,IL,84.25531914893617,NA,NA
60103,DuPage County,IL,NA,15.177478580171359,NA
60107,Cook County,IL,67.65957446808511,25.336597307221542,NA
60115,DeKalb County,IL,23.19148936170213,19.3390452876377,NA
60120,Kane County,IL,NA,17.74785801713586,NA
60131,Cook County,IL,79.36170212765957,NA,NA
60153,Cook County,IL,NA,NA,38.837920489296636
60164,Cook County,IL,NA,77.60097919216646,NA
60181,DuPage County,IL,NA,NA,57.798165137614674
60189,DuPage County,IL,NA,67.80905752753978,NA
60193,Cook County,IL,NA,5.630354957160343,NA
60202,Cook County,IL,71.06382978723404,82.74173806609546,NA
60302,Cook County,IL,NA,61.19951040391677,NA
60423,Will County,IL,NA,41.00367197062423,NA
60426,Cook County,IL,NA,42.59485924112607,NA
60431,Will County,IL,NA,27.41738066095471,NA
60438,Cook County,IL,NA,24.84700122399021,NA
60439,Cook County,IL,64.8936170212766,NA,NA
60453,Cook County,IL,NA,4.16156670746634,NA
60464,Cook County,IL,NA,71.23623011015911,NA
60472,Cook County,IL,NA,NA,67.88990825688074
60473,Cook County,IL,NA,32.55813953488372,NA
60477,Cook County,IL,82.5531914893617,NA,NA
60481,Will County,IL,76.80851063829788,NA,NA
60487,Cook County,IL,NA,77.11138310893513,NA
60510,Kane County,IL,NA,33.17013463892289,NA
60515,DuPage County,IL,22.76595744680851,NA,NA
60517,DuPage County,IL,NA,81.64014687882496,NA
60523,DuPage County,IL,NA,84.57772337821298,NA
60526,Cook County,IL,NA,84.08812729498165,NA
60527,DuPage County,IL,NA,64.62668298653611,NA
60540,DuPage County,IL,NA,18.2374541003672,NA
60563,DuPage County,IL,27.4468085106383,NA,NA
60585,Will County,IL,35.74468085106383,NA,NA
60617,Cook County,IL,NA,NA,1.834862385321101
60629,Cook County,IL,13.829787234042554,2.08078335373317,NA
60631,Cook County,IL,NA,32.19094247246022,NA
60632,Cook County,IL,42.340425531914896,NA,NA
60637,Cook County,IL,NA,NA,45.56574923547401
60646,Cook County,IL,NA,NA,71.86544342507645
60657,Cook County,IL,11.063829787234042,NA,NA
60659,Cook County,IL,29.361702127659573,NA,NA
60660,Cook County,IL,NA,62.913096695226436,NA
61019,Stephenson County,IL,99.36170212765958,NA,NA
61032,Stephenson County,IL,NA,NA,10.397553516819572
61071,Whiteside County,IL,NA,10.03671970624235,NA
61108,Winnebago County,IL,NA,15.422276621787026,NA
61109,Winnebago County,IL,77.4468085106383,NA,NA
61115,Winnebago County,IL,NA,88.00489596083231,NA
61356,Bureau County,IL,NA,NA,27.522935779816514
61362,Bureau County,IL,NA,NA,31.49847094801223
61364,LaSalle County,IL,NA,36.964504283965724,NA
61616,Peoria County,IL,NA,95.34883720930233,NA
61727,De Witt County,IL,NA,76.86658506731946,NA
61761,McLean County,IL,NA,70.25703794369646,NA
61832,Vermilion County,IL,NA,5.997552019583844,NA
62025,Madison County,IL,45.95744680851064,NA,NA
62040,Madison County,IL,48.93617021276596,NA,NA
62208,St. Clair County,IL,NA,46.75642594859241,NA
62301,Adams County,IL,NA,NA,44.95412844036697
62521,Macon County,IL,NA,4.283965728274174,NA
62526,Macon County,IL,77.23404255319149,NA,NA
62711,Sangamon County,IL,NA,58.99632802937577,NA
46037,Hamilton County,IN,NA,NA,50.45871559633027
46077,Boone County,IN,79.57446808510639,NA,NA
46120,Putnam County,IN,70.63829787234043,NA,NA
46135,Putnam County,IN,NA,NA,24.159021406727827
46140,Hancock County,IN,NA,11.138310893512852,73.70030581039755
46143,Johnson County,IN,NA,78.4577723378213,NA
46151,Morgan County,IN,NA,12.974296205630356,NA
46163,Hancock County,IN,NA,73.43941248470011,NA
46214,Marion County,IN,NA,29.74296205630355,NA
46217,Marion County,IN,NA,64.13708690330478,27.217125382262996
46219,Marion County,IN,NA,65.23867809057528,NA
46221,Marion County,IN,42.5531914893617,NA,NA
46222,Marion County,IN,10.638297872340425,NA,NA
46227,Marion County,IN,NA,2.937576499388005,NA
46237,Marion County,IN,NA,NA,11.314984709480122
46268,Marion County,IN,NA,29.98776009791922,NA
46307,Lake County,IN,NA,1.346389228886169,2.4464831804281344
46312,Lake County,IN,NA,26.193390452876375,NA
46322,Lake County,IN,NA,15.299877600979192,NA
46342,Lake County,IN,NA,7.588739290085679,NA
46383,Porter County,IN,NA,NA,86.54434250764525
46406,Lake County,IN,43.61702127659575,NA,NA
46408,Lake County,IN,NA,60.342717258261935,NA
46410,Lake County,IN,42.12765957446808,NA,NA
46517,Elkhart County,IN,NA,49.93880048959608,NA
46563,Marshall County,IN,23.829787234042556,NA,NA
46614,St. Joseph County,IN,NA,NA,25.688073394495415
46761,LaGrange County,IN,NA,70.50183598531213,NA
46806,Allen County,IN,NA,76.37698898408813,NA
46845,Allen County,IN,NA,NA,34.25076452599388
46947,Cass County,IN,6.382978723404255,NA,NA
46952,Grant County,IN,46.38297872340426,NA,NA
46970,Miami County,IN,NA,13.83108935128519,NA
47240,Decatur County,IN,17.872340425531917,NA,NA
47274,Jackson County,IN,NA,48.34761321909425,NA
47302,Delaware County,IN,NA,21.78702570379437,NA
47331,Fayette County,IN,NA,30.722154222766218,NA
47336,Jay County,IN,92.12765957446808,NA,NA
47348,Blackford County,IN,NA,85.43451652386781,NA
47401,Monroe County,IN,NA,89.71848225214198,NA
47408,Monroe County,IN,NA,88.49449204406365,NA
47421,Lawrence County,IN,NA,71.72582619339045,NA
47601,Warrick County,IN,NA,56.181150550795586,NA
47834,Clay County,IN,NA,NA,52.90519877675841
47918,Fountain County,IN,NA,NA,68.50152905198776
50049,Lucas County,IA,NA,80.2937576499388,NA
50266,Polk County,IA,72.97872340425532,NA,NA
50677,Bremer County,IA,NA,NA,38.53211009174312
51501,Pottawattamie County,IA,31.06382978723404,NA,NA
52040,Dubuque County,IA,NA,93.14565483476133,NA
52501,Wapello County,IA,NA,18.9718482252142,NA
52632,Lee County,IA,NA,23.50061199510404,NA
52806,Scott County,IA,NA,23.867809057527538,27.522935779816514
66043,Leavenworth County,KS,76.17021276595744,NA,NA
66061,Johnson County,KS,NA,NA,55.04587155963303
66083,Johnson County,KS,NA,87.63769889840881,NA
66102,Wyandotte County,KS,NA,83.72093023255815,NA
66104,Wyandotte County,KS,15.53191489361702,NA,NA
66112,Wyandotte County,KS,NA,NA,58.71559633027523
66205,Johnson County,KS,NA,72.46022031823746,NA
66209,Johnson County,KS,NA,96.20563035495717,NA
66216,Johnson County,KS,NA,39.90208078335373,NA
66219,Johnson County,KS,NA,64.2594859241126,NA
66221,Johnson County,KS,NA,97.67441860465115,NA
67217,Sedgwick County,KS,68.51063829787233,NA,NA
67357,Labette County,KS,30.638297872340424,NA,NA
67502,Reno County,KS,95.31914893617022,NA,NA
67601,Ellis County,KS,69.14893617021278,NA,NA
67735,Sherman County,KS,NA,89.96328029375765,NA
67846,Finney County,KS,NA,40.514075887392906,NA
67901,Seward County,KS,53.61702127659574,NA,NA
40031,Oldham County,KY,88.93617021276596,NA,NA
40203,Jefferson County,KY,50.212765957446805,26.682986536107713,NA
40207,Jefferson County,KY,NA,22.276621787025704,NA
40219,Jefferson County,KY,NA,NA,85.3211009174312
40229,Jefferson County,KY,NA,12.607099143206854,NA
40243,Jefferson County,KY,NA,NA,66.05504587155964
40245,Jefferson County,KY,NA,NA,69.1131498470948
40291,Jefferson County,KY,9.574468085106384,NA,NA
40444,Garrard County,KY,NA,35.86291309669522,NA
40502,Fayette County,KY,NA,NA,88.68501529051987
40503,Fayette County,KY,NA,NA,20.18348623853211
40511,Fayette County,KY,NA,61.444308445532435,NA
41018,Kenton County,KY,12.76595744680851,NA,NA
41035,Grant County,KY,28.297872340425535,NA,NA
41071,Campbell County,KY,14.042553191489363,NA,NA
41501,Pike County,KY,50,72.9498164014688,NA
41653,Floyd County,KY,64.46808510638297,NA,NA
41701,Perry County,KY,56.38297872340425,NA,NA
42211,Trigg County,KY,NA,30.47735618115055,NA
42501,Pulaski County,KY,NA,NA,23.24159021406728
42629,Russell County,KY,NA,NA,99.08256880733946
70001,Jefferson Parish,LA,NA,5.752753977968176,27.522935779816514
70053,Jefferson Parish,LA,12.340425531914894,41.86046511627907,NA
70056,Jefferson Parish,LA,NA,99.38800489596083,NA
70062,Jefferson Parish,LA,NA,88.37209302325581,41.284403669724774
70065,Jefferson Parish,LA,NA,1.591187270501836,NA
70087,St. Charles Parish,LA,31.27659574468085,NA,NA
70118,Orleans Parish,LA,NA,89.35128518971848,NA
70123,Jefferson Parish,LA,NA,11.505507955936352,6.727828746177369
70126,Orleans Parish,LA,NA,39.16768665850673,NA
70127,Orleans Parish,LA,NA,NA,74.31192660550458
70364,Terrebonne Parish,LA,3.829787234042553,NA,NA
70394,Lafourche Parish,LA,NA,73.07221542227663,NA
70445,St. Tammany Parish,LA,NA,49.57160342717258,NA
70452,St. Tammany Parish,LA,85.95744680851064,NA,NA
70503,Lafayette Parish,LA,NA,98.65361077111383,NA
70520,Lafayette Parish,LA,59.148936170212764,NA,NA
70533,Vermilion Parish,LA,40.85106382978723,NA,NA
70548,Vermilion Parish,LA,58.08510638297872,NA,47.706422018348626
70570,St. Landry Parish,LA,NA,NA,96.63608562691131
70663,Calcasieu Parish,LA,33.40425531914894,NA,NA
70669,Calcasieu Parish,LA,NA,44.92044063647491,NA
70737,Ascension Parish,LA,NA,NA,21.712538226299692
70808,East Baton Rouge Parish,LA,NA,NA,33.02752293577982
70810,East Baton Rouge Parish,LA,NA,95.71603427172583,NA
71052,De Soto Parish,LA,NA,73.92900856793145,NA
71105,Caddo Parish,LA,NA,30.23255813953488,NA
71107,Caddo Parish,LA,NA,37.821297429620564,NA
71109,Caddo Parish,LA,29.78723404255319,NA,NA
71269,Richland Parish,LA,98.93617021276596,NA,NA
03908,York County,ME,NA,39.4124847001224,NA
04005,York County,ME,NA,18.482252141982862,NA
04011,Cumberland County,ME,NA,16.64626682986536,NA
04038,Cumberland County,ME,84.8936170212766,NA,NA
04096,Cumberland County,ME,NA,NA,93.88379204892966
04240,Androscoggin County,ME,16.382978723404253,NA,NA
04401,Penobscot County,ME,NA,65.48347613219094,NA
04619,Washington County,ME,59.57446808510638,NA,NA
04841,Knox County,ME,NA,73.3170134638923,NA
04963,Kennebec County,ME,62.5531914893617,NA,NA
20746,Prince George's County,MD,NA,47.24602203182375,NA
20774,Prince George's County,MD,NA,56.05875152998776,32.415902140672785
20852,Montgomery County,MD,NA,42.83965728274174,NA
20854,Montgomery County,MD,43.40425531914894,NA,NA
20895,Montgomery County,MD,NA,87.39290085679315,NA
21014,Harford County,MD,NA,85.31211750305998,NA
21085,Harford County,MD,NA,NA,57.49235474006116
21133,Baltimore County,MD,NA,74.78580171358628,NA
21136,Baltimore County,MD,60,NA,NA
21146,Anne Arundel County,MD,47.65957446808511,NA,NA
21206,Baltimore city,MD,NA,7.099143206854346,NA
21207,Baltimore County,MD,90,14.687882496940025,40.36697247706422
21215,Baltimore city,MD,16.595744680851062,5.140758873929008,NA
21218,Baltimore city,MD,NA,28.396572827417383,3.669724770642202
21231,Baltimore city,MD,81.27659574468085,NA,NA
21234,Baltimore County,MD,NA,4.039167686658507,NA
21236,Baltimore County,MD,NA,54.95716034271726,NA
21502,Allegany County,MD,NA,NA,4.587155963302752
21613,Dorchester County,MD,NA,38.555691554467565,NA
21663,Talbot County,MD,NA,78.33537331701346,NA
21673,Talbot County,MD,NA,97.062423500612,NA
21702,Frederick County,MD,NA,NA,81.03975535168195
21783,Washington County,MD,74.46808510638297,NA,NA
21921,Cecil County,MD,26.595744680851062,NA,NA
01020,Hampden County,MA,NA,6.731946144430845,NA
01040,Hampden County,MA,NA,1.4687882496940026,NA
01060,Hampshire County,MA,NA,73.68421052631578,NA
01118,Hampden County,MA,NA,85.67931456548348,NA
01119,Hampden County,MA,NA,NA,40.97859327217125
01201,Berkshire County,MA,NA,0.12239902080783352,18.34862385321101
01473,Worcester County,MA,NA,86.04651162790698,NA
01510,Worcester County,MA,NA,81.7625458996328,NA
01590,Worcester County,MA,93.40425531914893,NA,NA
01801,Middlesex County,MA,NA,0.9791921664626682,NA
01803,Middlesex County,MA,NA,2.3255813953488373,NA
01821,Middlesex County,MA,25.53191489361702,NA,NA
01824,Middlesex County,MA,NA,NA,5.81039755351682
01826,Middlesex County,MA,NA,NA,75.53516819571865
01830,Essex County,MA,30.851063829787233,NA,NA
01844,Essex County,MA,NA,NA,3.058103975535168
01845,Essex County,MA,NA,7.221542227662178,NA
01862,Middlesex County,MA,NA,32.80293757649939,NA
01867,Middlesex County,MA,14.893617021276595,NA,NA
01890,Middlesex County,MA,NA,NA,33.33333333333333
01906,Essex County,MA,1.0638297872340425,NA,NA
01930,Essex County,MA,NA,0.7343941248470013,NA
01938,Essex County,MA,NA,NA,72.78287461773701
01944,Essex County,MA,NA,NA,92.96636085626912
01960,Essex County,MA,13.617021276595745,0.4895960832313341,NA
02026,Norfolk County,MA,2.3404255319148937,NA,NA
02043,Plymouth County,MA,NA,34.149326805385556,NA
02062,Norfolk County,MA,7.234042553191489,NA,NA
02067,Norfolk County,MA,NA,NA,84.09785932721712
02148,Middlesex County,MA,NA,0.24479804161566704,NA
02151,Suffolk County,MA,51.276595744680854,0,NA
02169,Norfolk County,MA,10.851063829787234,NA,NA
02171,Norfolk County,MA,42.765957446808514,NA,NA
02180,Middlesex County,MA,NA,NA,30.58103975535168
02188,Norfolk County,MA,NA,68.66585067319461,NA
02190,Norfolk County,MA,NA,NA,41.896024464831804
02302,Plymouth County,MA,NA,84.45532435740513,NA
02324,Plymouth County,MA,NA,NA,63.91437308868502
02351,Plymouth County,MA,NA,14.932680538555692,NA
02364,Plymouth County,MA,56.59574468085107,NA,NA
02368,Norfolk County,MA,0.425531914893617,NA,NA
02460,Middlesex County,MA,NA,NA,96.3302752293578
02465,Middlesex County,MA,NA,NA,30.275229357798167
02466,Middlesex County,MA,NA,76.00979192166463,NA
02478,Middlesex County,MA,NA,15.055079559363524,NA
02492,Norfolk County,MA,NA,44.430844553243574,NA
02554,Nantucket County,MA,45.31914893617021,NA,NA
02639,Barnstable County,MA,67.02127659574468,NA,NA
02648,Barnstable County,MA,NA,47.24602203182375,NA
02721,Bristol County,MA,28.936170212765955,NA,7.64525993883792
02748,Bristol County,MA,NA,36.59730722154223,NA
02766,Bristol County,MA,NA,4.773561811505508,NA
48021,Macomb County,MI,5.531914893617021,NA,NA
48035,Macomb County,MI,NA,5.018359853121175,NA
48047,Macomb County,MI,52.12765957446809,NA,NA
48060,St. Clair County,MI,9.361702127659575,NA,NA
48062,Macomb County,MI,NA,NA,68.19571865443424
48066,Macomb County,MI,1.702127659574468,NA,NA
48094,Macomb County,MI,NA,33.53733170134639,NA
48097,St. Clair County,MI,92.34042553191489,NA,NA
48098,Oakland County,MI,NA,NA,36.08562691131498
48101,Wayne County,MI,NA,NA,15.59633027522936
48105,Washtenaw County,MI,NA,49.326805385556916,NA
48117,Monroe County,MI,NA,47.858017135862916,NA
48125,Wayne County,MI,NA,32.06854345165239,NA
48146,Wayne County,MI,NA,33.90452876376989,NA
48150,Wayne County,MI,NA,13.341493268053856,NA
48154,Wayne County,MI,NA,3.549571603427173,NA
48166,Monroe County,MI,69.57446808510637,NA,NA
48167,Oakland County,MI,NA,NA,33.63914373088685
48169,Livingston County,MI,NA,NA,98.1651376146789
48180,Wayne County,MI,NA,NA,14.37308868501529
48182,Monroe County,MI,NA,94.73684210526315,NA
48187,Wayne County,MI,NA,11.75030599755202,5.5045871559633035
48188,Wayne County,MI,NA,3.3047735618115053,NA
48195,Wayne County,MI,NA,5.507955936352509,NA
48203,Wayne County,MI,NA,NA,56.88073394495413
48221,Wayne County,MI,NA,2.692778457772338,NA
48224,Wayne County,MI,NA,55.81395348837209,NA
48234,Wayne County,MI,NA,9.179926560587514,NA
48235,Wayne County,MI,0.6382978723404255,NA,NA
48304,Oakland County,MI,NA,NA,18.04281345565749
48306,Oakland County,MI,NA,40.26927784577723,NA
48309,Oakland County,MI,18.51063829787234,NA,NA
48312,Macomb County,MI,NA,87.51529987760098,NA
48315,Macomb County,MI,NA,53.977968176254585,NA
48346,Oakland County,MI,NA,33.53733170134639,NA
48386,Oakland County,MI,NA,NA,98.77675840978594
48429,Shiawassee County,MI,NA,88.12729498164015,NA
48509,Genesee County,MI,74.8936170212766,NA,NA
48601,Saginaw County,MI,NA,NA,20.489296636085626
48640,Midland County,MI,NA,NA,3.3639143730886847
48657,Midland County,MI,NA,72.70501835985313,NA
48706,Bay County,MI,NA,61.56670746634026,NA
48723,Tuscola County,MI,41.27659574468085,NA,NA
48734,Saginaw County,MI,NA,92.77845777233782,NA
48809,Ionia County,MI,75.31914893617021,NA,NA
48820,Clinton County,MI,NA,NA,40.0611620795107
48837,Eaton County,MI,NA,49.44920440636475,NA
48843,Livingston County,MI,NA,53.61077111383109,NA
48855,Livingston County,MI,NA,73.80660954712363,NA
48858,Isabella County,MI,2.9787234042553195,NA,NA
48881,Ionia County,MI,NA,77.96817625458996,NA
49014,Calhoun County,MI,NA,19.3390452876377,NA
49015,Calhoun County,MI,NA,18.6046511627907,NA
49022,Berrien County,MI,5.106382978723404,NA,NA
49037,Calhoun County,MI,NA,20.807833537331703,NA
49058,Barry County,MI,NA,24.96940024479804,NA
49093,St. Joseph County,MI,NA,24.112607099143208,NA
49221,Lenawee County,MI,NA,NA,22.018348623853214
49228,Lenawee County,MI,NA,96.6952264381885,NA
49230,Jackson County,MI,NA,31.57894736842105,NA
49301,Kent County,MI,NA,49.08200734394125,NA
49316,Kent County,MI,NA,NA,46.17737003058104
49412,Newaygo County,MI,44.46808510638298,NA,NA
49415,Muskegon County,MI,NA,59.118727050183594,NA
49431,Mason County,MI,NA,69.27784577723378,NA
49442,Muskegon County,MI,NA,16.156670746634028,NA
49464,Ottawa County,MI,NA,66.95226438188494,NA
49506,Kent County,MI,NA,NA,82.26299694189603
49686,Grand Traverse County,MI,NA,NA,40.67278287461774
49746,Montmorency County,MI,NA,83.10893512851897,NA
49868,Luce County,MI,NA,NA,94.4954128440367
49938,Gogebic County,MI,NA,33.29253365973072,NA
55016,Washington County,MN,NA,79.06976744186046,NA
55045,Chisago County,MN,NA,NA,91.43730886850153
55057,Rice County,MN,NA,84.33292533659731,NA
55066,Goodhue County,MN,NA,NA,28.74617737003058
55109,Ramsey County,MN,NA,91.92166462668298,NA
55129,Washington County,MN,97.87234042553192,NA,NA
55378,Scott County,MN,58.723404255319146,NA,57.798165137614674
55405,Hennepin County,MN,59.361702127659576,NA,NA
55408,Hennepin County,MN,5.74468085106383,NA,NA
55418,Hennepin County,MN,NA,NA,34.862385321100916
55419,Hennepin County,MN,53.404255319148945,NA,NA
55426,Hennepin County,MN,NA,69.15544675642596,NA
55447,Hennepin County,MN,NA,78.0905752753978,NA
55734,St. Louis County,MN,NA,NA,71.25382262996942
55744,Itasca County,MN,NA,3.182374541003672,NA
55746,St. Louis County,MN,NA,20.930232558139537,NA
55811,St. Louis County,MN,NA,35.25091799265606,NA
55901,Olmsted County,MN,NA,NA,9.174311926605505
56087,Brown County,MN,NA,89.96328029375765,NA
56215,Swift County,MN,NA,NA,85.93272171253822
56387,Stearns County,MN,NA,NA,59.9388379204893
56467,Hubbard County,MN,98.51063829787235,NA,NA
56571,Otter Tail County,MN,NA,89.96328029375765,NA
56573,Otter Tail County,MN,73.61702127659574,NA,NA
38603,Benton County,MS,98.72340425531915,NA,NA
38632,DeSoto County,MS,NA,46.51162790697674,NA
38829,Prentiss County,MS,NA,57.2827417380661,NA
39209,Hinds County,MS,NA,NA,72.17125382262996
39466,Pearl River County,MS,NA,9.914320685434516,NA
39503,Harrison County,MS,NA,NA,20.795107033639145
39532,Harrison County,MS,NA,NA,12.232415902140673
39560,Harrison County,MS,NA,63.28029375764994,NA
39601,Lincoln County,MS,NA,NA,25.382262996941897
63005,St. Louis County,MO,NA,56.303549571603426,NA
63010,Jefferson County,MO,NA,16.64626682986536,NA
63011,St. Louis County,MO,NA,10.648714810281518,NA
63016,Jefferson County,MO,90.63829787234042,NA,NA
63017,St. Louis County,MO,74.68085106382979,45.28763769889841,NA
63042,St. Louis County,MO,NA,NA,53.51681957186545
63052,Jefferson County,MO,32.76595744680851,NA,NA
63108,St. Louis city,MO,NA,NA,49.54128440366973
63112,St. Louis city,MO,33.829787234042556,NA,NA
63125,St. Louis County,MO,NA,17.99265605875153,NA
63129,St. Louis County,MO,52.76595744680851,NA,25.993883792048926
63136,St. Louis County,MO,NA,26.92778457772338,NA
63146,St. Louis County,MO,NA,22.399020807833537,NA
63303,St. Charles County,MO,36.38297872340426,NA,NA
63368,St. Charles County,MO,NA,NA,12.538226299694188
63379,Lincoln County,MO,85.1063829787234,NA,NA
63390,Warren County,MO,69.57446808510637,NA,NA
63830,Pemiscot County,MO,NA,NA,77.98165137614679
63901,Butler County,MO,NA,14.198286413708692,NA
64024,Clay County,MO,9.787234042553191,NA,NA
64034,Jackson County,MO,NA,78.8249694002448,NA
64050,Jackson County,MO,7.872340425531915,NA,NA
64060,Clay County,MO,NA,45.89963280293758,NA
64062,Ray County,MO,37.4468085106383,NA,NA
64063,Jackson County,MO,78.08510638297872,NA,NA
64068,Clay County,MO,NA,22.643818849449204,NA
64079,Platte County,MO,36.80851063829787,NA,NA
64083,Cass County,MO,NA,25.82619339045288,NA
64106,Jackson County,MO,54.8936170212766,NA,NA
64111,Jackson County,MO,83.61702127659575,NA,NA
64112,Jackson County,MO,NA,60.46511627906976,NA
64114,Jackson County,MO,NA,27.050183598531213,NA
64118,Clay County,MO,89.57446808510639,51.28518971848225,NA
64119,Clay County,MO,NA,NA,91.74311926605505
64128,Jackson County,MO,NA,80.53855569155446,NA
64130,Jackson County,MO,3.404255319148936,NA,NA
64138,Jackson County,MO,NA,51.162790697674424,NA
64157,Clay County,MO,18.085106382978726,NA,NA
64503,Buchanan County,MO,39.148936170212764,NA,NA
64506,Buchanan County,MO,NA,NA,11.62079510703364
64633,Carroll County,MO,NA,66.82986536107711,NA
64701,Cass County,MO,92.97872340425532,NA,NA
64801,Jasper County,MO,NA,8.078335373317014,NA
64831,McDonald County,MO,NA,74.4186046511628,NA
64836,Jasper County,MO,31.70212765957447,NA,NA
65203,Boone County,MO,NA,6.119951040391677,NA
65270,Randolph County,MO,NA,NA,70.9480122324159
65721,Christian County,MO,76.59574468085107,NA,NA
65807,Greene County,MO,NA,34.63892288861689,NA
59105,Yellowstone County,MT,89.36170212765957,NA,NA
59715,Gallatin County,MT,NA,23.133414932680537,44.03669724770643
59901,Flathead County,MT,NA,NA,0.6116207951070336
59937,Flathead County,MT,NA,NA,46.48318042813456
68123,Sarpy County,NE,NA,29.253365973072214,NA
68134,Douglas County,NE,NA,39.53488372093023,NA
68135,Douglas County,NE,NA,91.06487148102815,NA
68144,Douglas County,NE,NA,34.883720930232556,NA
68154,Douglas County,NE,NA,32.43574051407589,NA
68502,Lancaster County,NE,48.29787234042553,NA,NA
68845,Buffalo County,NE,78.29787234042553,NA,NA
89123,Clark County,NV,NA,21.542227662178703,NA
89147,Clark County,NV,NA,33.414932680538556,NA
89148,Clark County,NV,NA,53.365973072215425,NA
89434,Washoe County,NV,NA,50.42839657282742,NA
03038,Rockingham County,NH,NA,NA,16.819571865443425
03102,Hillsborough County,NH,NA,9.057527539779683,NA
03104,Hillsborough County,NH,NA,31.33414932680538,NA
03249,Belknap County,NH,NA,NA,92.04892966360856
03264,Grafton County,NH,99.57446808510639,NA,NA
03867,Strafford County,NH,65.95744680851064,NA,NA
07003,Essex County,NJ,NA,17.01346389228886,NA
07039,Essex County,NJ,NA,NA,19.877675840978593
07043,Essex County,NJ,68.72340425531915,NA,NA
07076,Union County,NJ,NA,NA,62.69113149847095
07083,Union County,NJ,NA,82.12974296205631,NA
07106,Essex County,NJ,NA,NA,78.59327217125383
07111,Essex County,NJ,24.680851063829788,72.58261933904528,NA
07430,Bergen County,NJ,NA,35.00611995104039,NA
07601,Bergen County,NJ,NA,99.75520195838433,NA
07621,Bergen County,NJ,NA,70.74663402692778,32.415902140672785
07719,Monmouth County,NJ,NA,44.18604651162791,NA
07727,Monmouth County,NJ,73.82978723404256,NA,NA
07735,Monmouth County,NJ,17.02127659574468,NA,NA
07753,Monmouth County,NJ,NA,26.070991432068542,NA
07762,Monmouth County,NJ,NA,84.08812729498165,NA
07823,Warren County,NJ,NA,NA,50.764525993883794
07834,Morris County,NJ,NA,52.876376988984084,NA
07849,Morris County,NJ,45.1063829787234,NA,NA
07860,Sussex County,NJ,NA,NA,69.72477064220183
07865,Warren County,NJ,NA,96.94002447980417,NA
07936,Morris County,NJ,92.34042553191489,NA,NA
07945,Morris County,NJ,72.5531914893617,NA,NA
07960,Morris County,NJ,NA,55.569155446756426,NA
08005,Ocean County,NJ,NA,19.828641370869033,NA
08009,Camden County,NJ,60.63829787234043,NA,NA
08022,Burlington County,NJ,NA,NA,64.22018348623854
08033,Camden County,NJ,NA,70.25703794369646,NA
08054,Burlington County,NJ,NA,NA,64.83180428134557
08109,Camden County,NJ,NA,NA,89.90825688073394
08205,Atlantic County,NJ,NA,56.91554467564259,NA
08210,Cape May County,NJ,NA,91.67686658506732,NA
08318,Salem County,NJ,87.87234042553192,NA,NA
08360,Cumberland County,NJ,16.170212765957448,NA,NA
08361,Cumberland County,NJ,NA,60.9547123623011,NA
08401,Atlantic County,NJ,NA,1.8359853121175032,NA
08648,Mercer County,NJ,NA,NA,36.69724770642202
08724,Ocean County,NJ,4.680851063829787,NA,NA
08731,Ocean County,NJ,NA,93.39045287637698,NA
08753,Ocean County,NJ,NA,NA,29.357798165137616
08872,Middlesex County,NJ,36.17021276595745,NA,NA
08876,Somerset County,NJ,10,NA,NA
87112,Bernalillo County,NM,NA,5.263157894736842,NA
87122,Bernalillo County,NM,NA,49.81640146878825,NA
87124,Sandoval County,NM,NA,NA,7.951070336391437
87410,San Juan County,NM,NA,52.01958384332925,NA
87571,Taos County,NM,97.02127659574468,NA,NA
88005,Doa Ana County,NM,NA,NA,90.21406727828746
88008,Doa Ana County,NM,77.6595744680851,NA,NA
88011,Doa Ana County,NM,NA,28.886168910648713,NA
88061,Grant County,NM,NA,94.12484700122398,NA
10009,New York County,NY,NA,43.94124847001224,NA
10014,New York County,NY,93.19148936170212,NA,NA
10023,New York County,NY,NA,48.10281517747858,NA
10035,New York County,NY,NA,24.23500611995104,NA
10304,Richmond County,NY,NA,56.54834761321909,NA
10451,Bronx County,NY,NA,3.0599755201958385,NA
10459,Bronx County,NY,2.553191489361702,NA,NA
10463,Bronx County,NY,NA,NA,43.425076452599384
10465,Bronx County,NY,NA,NA,43.730886850152906
10466,Bronx County,NY,NA,86.90330477356181,NA
10467,Bronx County,NY,0,NA,NA
10468,Bronx County,NY,29.148936170212764,NA,NA
10472,Bronx County,NY,NA,NA,54.43425076452599
10552,Westchester County,NY,NA,79.80416156670746,90.51987767584097
10583,Westchester County,NY,64.46808510638297,NA,NA
10598,Westchester County,NY,NA,57.89473684210527,NA
10605,Westchester County,NY,NA,74.17380660954713,NA
10704,Westchester County,NY,NA,40.39167686658507,33.94495412844037
10708,Westchester County,NY,NA,92.41126070991432,NA
10940,Orange County,NY,NA,31.823745410036718,NA
10956,Rockland County,NY,NA,50.79559363525091,NA
11001,Nassau County,NY,NA,63.035495716034276,NA
11040,Nassau County,NY,NA,93.7576499388005,NA
11105,Queens County,NY,NA,36.1077111383109,NA
11201,Kings County,NY,NA,38.188494492044065,59.63302752293578
11203,Kings County,NY,NA,NA,6.116207951070336
11204,Kings County,NY,NA,NA,4.892966360856269
11206,Kings County,NY,NA,19.583843329253366,NA
11213,Kings County,NY,2.7659574468085104,NA,NA
11214,Kings County,NY,NA,86.78090575275398,NA
11215,Kings County,NY,NA,21.052631578947366,NA
11216,Kings County,NY,NA,3.6719706242350063,NA
11217,Kings County,NY,22.340425531914892,NA,NA
11219,Kings County,NY,NA,11.872705018359852,NA
11220,Kings County,NY,19.148936170212767,NA,NA
11228,Kings County,NY,41.48936170212766,NA,NA
11233,Kings County,NY,0.2127659574468085,NA,NA
11235,Kings County,NY,NA,8.567931456548347,NA
11236,Kings County,NY,NA,NA,99.38837920489296
11357,Queens County,NY,NA,86.41370869033048,NA
11365,Queens County,NY,NA,40.63647490820074,NA
11375,Queens County,NY,NA,NA,87.76758409785933
11385,Queens County,NY,NA,6.24235006119951,NA
11422,Queens County,NY,NA,NA,49.84709480122324
11423,Queens County,NY,87.65957446808511,NA,NA
11435,Queens County,NY,84.68085106382979,NA,NA
11520,Nassau County,NY,NA,NA,55.96330275229357
11545,Nassau County,NY,NA,92.04406364749082,NA
11558,Nassau County,NY,NA,63.40269277845777,NA
11566,Nassau County,NY,NA,NA,59.32721712538226
11579,Nassau County,NY,NA,NA,74.00611620795107
11580,Nassau County,NY,NA,36.59730722154223,NA
11706,Suffolk County,NY,35.1063829787234,NA,NA
11740,Suffolk County,NY,NA,100,NA
11746,Suffolk County,NY,55.74468085106383,NA,NA
11751,Suffolk County,NY,NA,NA,63.30275229357798
11753,Nassau County,NY,NA,NA,95.71865443425077
11763,Suffolk County,NY,NA,59.60832313341493,NA
11788,Suffolk County,NY,NA,97.30722154222767,NA
11797,Nassau County,NY,NA,96.81762545899633,NA
11798,Suffolk County,NY,NA,NA,60.85626911314985
12065,Saratoga County,NY,51.06382978723404,NA,NA
12078,Fulton County,NY,NA,NA,7.033639143730887
12121,Rensselaer County,NY,100,NA,NA
12866,Saratoga County,NY,NA,NA,6.422018348623854
12901,Clinton County,NY,1.4893617021276597,NA,NA
12926,Franklin County,NY,NA,99.02080783353733,NA
13045,Cortland County,NY,NA,5.385556915544676,NA
13069,Oswego County,NY,NA,NA,80.73394495412845
13073,Tompkins County,NY,NA,97.796817625459,NA
13108,Onondaga County,NY,63.191489361702125,NA,NA
13135,Oswego County,NY,62.97872340425532,NA,NA
13165,Seneca County,NY,NA,12.851897184822523,NA
13210,Onondaga County,NY,18.93617021276596,NA,NA
13214,Onondaga County,NY,NA,76.00979192166463,NA
13413,Oneida County,NY,30.21276595744681,NA,NA
13601,Jefferson County,NY,NA,NA,12.844036697247708
13606,Jefferson County,NY,86.38297872340426,NA,NA
13634,Jefferson County,NY,80.2127659574468,NA,NA
13662,St. Lawrence County,NY,NA,9.424724602203183,NA
13746,Broome County,NY,97.23404255319149,NA,NA
13760,Broome County,NY,NA,2.8151774785801713,NA
13850,Broome County,NY,8.085106382978724,42.96205630354957,NA
13856,Delaware County,NY,NA,98.531211750306,NA
14031,Erie County,NY,60.21276595744681,NA,NA
14057,Erie County,NY,NA,66.09547123623011,83.18042813455658
14086,Erie County,NY,10.425531914893616,NA,NA
14127,Erie County,NY,NA,8.445532435740514,NA
14202,Erie County,NY,NA,91.43206854345165,NA
14208,Erie County,NY,NA,NA,53.21100917431193
14217,Erie County,NY,12.978723404255318,NA,NA
14223,Erie County,NY,NA,90.82007343941248,NA
14304,Niagara County,NY,NA,NA,10.703363914373089
14411,Orleans County,NY,NA,NA,51.681957186544345
14414,Livingston County,NY,NA,97.91921664626683,NA
14420,Monroe County,NY,26.80851063829787,NA,NA
14422,Genesee County,NY,76.80851063829788,NA,NA
14437,Livingston County,NY,NA,28.396572827417383,NA
14445,Monroe County,NY,NA,NA,83.79204892966361
14450,Monroe County,NY,NA,1.2239902080783354,NA
14467,Monroe County,NY,NA,35.37331701346389,NA
14522,Wayne County,NY,17.659574468085108,NA,95.41284403669725
14564,Ontario County,NY,NA,9.791921664626683,NA
14580,Monroe County,NY,NA,0.36719706242350064,NA
14586,Monroe County,NY,70,NA,NA
14591,Wyoming County,NY,95.74468085106383,NA,NA
14616,Monroe County,NY,NA,3.9167686658506726,NA
14617,Monroe County,NY,14.680851063829786,NA,NA
14618,Monroe County,NY,NA,6.854345165238677,11.009174311926607
14620,Monroe County,NY,47.23404255319149,NA,NA
14621,Monroe County,NY,NA,76.49938800489596,NA
14623,Monroe County,NY,8.72340425531915,NA,NA
14821,Steuben County,NY,NA,95.10403916768666,NA
14870,Steuben County,NY,NA,47.98041615667075,NA
14891,Schuyler County,NY,50.851063829787236,NA,NA
27041,Surry County,NC,NA,NA,79.51070336391437
27050,Forsyth County,NC,NA,93.02325581395348,NA
27106,Forsyth County,NC,NA,NA,8.868501529051988
27217,Alamance County,NC,NA,55.691554467564266,NA
27244,Alamance County,NC,NA,59.118727050183594,NA
27263,Randolph County,NC,NA,65.11627906976744,NA
27284,Forsyth County,NC,NA,8.69033047735618,NA
27330,Lee County,NC,34.8936170212766,NA,NA
27360,Davidson County,NC,NA,NA,29.96941896024465
27407,Guilford County,NC,31.914893617021278,NA,NA
27410,Guilford County,NC,NA,31.94614443084455,NA
27502,Wake County,NC,NA,26.438188494492042,NA
27511,Wake County,NC,NA,20.563035495716033,NA
27513,Wake County,NC,NA,36.84210526315789,NA
27514,Orange County,NC,NA,18.115055079559365,NA
27519,Wake County,NC,NA,80.783353733170145,NA
27526,Wake County,NC,71.27659574468085,NA,NA
27542,Johnston County,NC,NA,57.77233782129743,NA
27549,Franklin County,NC,NA,NA,67.2782874617737
27577,Johnston County,NC,NA,NA,46.788990825688074
27607,Wake County,NC,NA,58.26193390452876,NA
27609,Wake County,NC,NA,NA,17.737003058103976
27704,Durham County,NC,NA,NA,54.12844036697248
27707,Durham County,NC,6.808510638297872,NA,NA
27713,Durham County,NC,NA,10.526315789473683,NA
27804,Nash County,NC,95.53191489361701,NA,NA
27807,Nash County,NC,71.91489361702128,NA,NA
27870,Halifax County,NC,NA,77.47858017135863,NA
28023,Rowan County,NC,NA,NA,55.65749235474006
28025,Cabarrus County,NC,NA,7.833537331701345,NA
28031,Mecklenburg County,NC,61.27659574468085,NA,NA
28052,Gaston County,NC,NA,43.20685434516524,NA
28110,Union County,NC,34.680851063829785,NA,NA
28120,Gaston County,NC,NA,59.97552019583844,NA
28127,Stanly County,NC,NA,80.04895960832313,NA
28144,Rowan County,NC,NA,NA,35.47400611620795
28152,Cleveland County,NC,NA,42.3500611995104,NA
28168,Lincoln County,NC,93.82978723404256,NA,NA
28170,Anson County,NC,NA,44.55324357405141,NA
28208,Mecklenburg County,NC,4.8936170212765955,NA,NA
28212,Mecklenburg County,NC,12.553191489361701,NA,NA
28215,Mecklenburg County,NC,NA,64.87148102815178,NA
28305,Cumberland County,NC,NA,79.68176254589963,NA
28320,Bladen County,NC,NA,84.82252141982865,NA
28352,Scotland County,NC,NA,52.38678090575275,NA
28412,New Hanover County,NC,NA,60.83231334149327,NA
28443,Pender County,NC,NA,38.555691554467565,NA
28607,Watauga County,NC,NA,75.27539779681763,NA
28621,Surry County,NC,52.34042553191489,NA,NA
28655,Burke County,NC,80.85106382978722,NA,NA
28658,Catawba County,NC,NA,NA,61.16207951070336
28677,Iredell County,NC,NA,55.32435740514076,NA
28681,Alexander County,NC,NA,76.74418604651163,NA
28694,Ashe County,NC,NA,52.264381884944925,NA
28713,Swain County,NC,NA,NA,52.59938837920489
28716,Haywood County,NC,NA,54.71236230110159,NA
28786,Haywood County,NC,NA,10.893512851897185,NA
28792,Henderson County,NC,NA,NA,0.3058103975535168
28803,Buncombe County,NC,NA,20.685434516523866,NA
28906,Cherokee County,NC,NA,NA,13.761467889908257
58078,Cass County,ND,NA,8.32313341493268,NA
58784,Mountrail County,ND,NA,93.26805385556915,NA
43004,Franklin County,OH,78.93617021276596,NA,NA
43054,Franklin County,OH,NA,46.02203182374541,NA
43055,Licking County,OH,NA,70.62423500611995,NA
43065,Delaware County,OH,28.085106382978726,NA,NA
43071,Licking County,OH,NA,99.265605875153,NA
43119,Franklin County,OH,12.127659574468085,NA,NA
43140,Madison County,OH,NA,90.69767441860465,NA
43143,Madison County,OH,NA,86.16891064871481,NA
43160,Fayette County,OH,25.106382978723403,NA,95.10703363914374
43209,Franklin County,OH,72.76595744680851,NA,NA
43219,Franklin County,OH,7.659574468085106,NA,NA
43227,Franklin County,OH,NA,25.458996328029375,NA
43229,Franklin County,OH,NA,4.528763769889841,NA
43230,Franklin County,OH,NA,NA,15.902140672782874
43231,Franklin County,OH,NA,NA,62.38532110091744
43316,Wyandot County,OH,NA,NA,80.1223241590214
43402,Wood County,OH,NA,32.92533659730722,NA
43551,Wood County,OH,NA,21.909424724602204,NA
43607,Lucas County,OH,NA,12.48470012239902,NA
43614,Lucas County,OH,37.234042553191486,NA,NA
43832,Tuscarawas County,OH,NA,46.02203182374541,NA
43920,Columbiana County,OH,4.468085106382979,64.01468788249693,NA
44004,Ashtabula County,OH,NA,NA,1.2232415902140672
44012,Lorain County,OH,75.74468085106383,NA,NA
44026,Geauga County,OH,NA,80.41615667074663,NA
44039,Lorain County,OH,NA,62.66829865361076,NA
44056,Summit County,OH,80.42553191489363,65.72827417380661,NA
44060,Lake County,OH,NA,0.8567931456548347,NA
44105,Cuyahoga County,OH,NA,0.6119951040391677,NA
44111,Cuyahoga County,OH,NA,46.266829865361075,NA
44120,Cuyahoga County,OH,NA,48.837209302325576,NA
44122,Cuyahoga County,OH,NA,82.98653610771115,NA
44123,Cuyahoga County,OH,NA,58.139534883720934,NA
44128,Cuyahoga County,OH,NA,NA,1.529051987767584
44130,Cuyahoga County,OH,1.9148936170212765,NA,NA
44131,Cuyahoga County,OH,NA,NA,19.571865443425075
44135,Cuyahoga County,OH,1.276595744680851,NA,NA
44145,Cuyahoga County,OH,NA,2.203182374541004,NA
44147,Cuyahoga County,OH,NA,18.6046511627907,NA
44240,Portage County,OH,NA,54.83476132190942,NA
44273,Medina County,OH,NA,61.07711138310894,NA
44312,Summit County,OH,7.446808510638298,NA,NA
44481,Trumbull County,OH,NA,78.94736842105263,NA
44618,Wayne County,OH,NA,87.27050183598531,NA
44662,Stark County,OH,NA,68.42105263157895,NA
44663,Tuscarawas County,OH,24.46808510638298,NA,NA
44824,Erie County,OH,NA,NA,97.24770642201835
44830,Seneca County,OH,NA,NA,55.35168195718655
44883,Seneca County,OH,NA,NA,14.067278287461773
45069,Butler County,OH,NA,10.771113831089352,NA
45103,Clermont County,OH,NA,68.29865361077111,NA
45140,Clermont County,OH,NA,8.935128518971847,NA
45217,Hamilton County,OH,NA,61.6891064871481,NA
45227,Hamilton County,OH,30.425531914893618,NA,NA
45233,Hamilton County,OH,NA,50.673194614443084,NA
45239,Hamilton County,OH,NA,NA,26.911314984709477
45365,Shelby County,OH,NA,31.08935128518972,NA
45371,Miami County,OH,NA,12.362301101591187,NA
45417,Montgomery County,OH,NA,NA,78.89908256880734
45431,Montgomery County,OH,NA,NA,83.4862385321101
45449,Montgomery County,OH,NA,95.593635250918,NA
45505,Clark County,OH,NA,NA,52.293577981651374
45601,Ross County,OH,NA,27.66217870257038,NA
45638,Lawrence County,OH,NA,42.10526315789473,NA
45662,Scioto County,OH,NA,NA,2.7522935779816518
45680,Lawrence County,OH,7.021276595744681,18.849449204406366,NA
45714,Washington County,OH,NA,9.66952264381885,NA
45750,Washington County,OH,NA,NA,11.926605504587156
45801,Allen County,OH,5.957446808510639,NA,87.1559633027523
45805,Allen County,OH,NA,16.401468788249694,NA
45840,Hancock County,OH,NA,1.7135862913096693,45.87155963302752
45856,Putnam County,OH,NA,NA,86.85015290519877
45885,Auglaize County,OH,24.04255319148936,NA,NA
73026,Cleveland County,OK,NA,56.42594859241126,NA
73089,Grady County,OK,NA,45.65483476132191,NA
73159,Oklahoma County,OK,53.191489361702125,NA,NA
73162,Oklahoma County,OK,NA,10.281517747858016,NA
73521,Jackson County,OK,NA,87.02570379436965,NA
74012,Tulsa County,OK,37.87234042553192,NA,NA
74015,Rogers County,OK,NA,71.97062423500611,NA
74137,Tulsa County,OK,NA,NA,24.770642201834864
74403,Muskogee County,OK,NA,NA,18.960244648318042
74432,McIntosh County,OK,58.29787234042553,NA,NA
74523,Pushmataha County,OK,NA,68.05385556915544,NA
74601,Kay County,OK,63.40425531914894,NA,NA
74804,Pottawatomie County,OK,NA,58.62913096695227,NA
74820,Pontotoc County,OK,NA,2.570379436964504,NA
97008,Washington County,OR,NA,NA,82.87461773700305
97013,Clackamas County,OR,70.85106382978724,NA,NA
97045,Clackamas County,OR,26.382978723404253,6.364749082007344,NA
97080,Multnomah County,OR,NA,54.467564259485926,NA
97086,Clackamas County,OR,NA,NA,93.57798165137615
97089,Clackamas County,OR,NA,NA,76.75840978593273
97124,Washington County,OR,NA,13.708690330477355,88.07339449541286
97140,Washington County,OR,36.59574468085106,NA,NA
97202,Multnomah County,OR,15.106382978723405,NA,NA
97206,Multnomah County,OR,NA,NA,89.29663608562691
97221,Multnomah County,OR,NA,82.25214198286413,NA
97305,Marion County,OR,38.93617021276596,62.30110159118727,NA
97322,Linn County,OR,NA,46.87882496940025,NA
97501,Jackson County,OR,NA,27.294981640146883,NA
97504,Jackson County,OR,NA,7.466340269277846,NA
97525,Jackson County,OR,NA,82.61933904528765,NA
97702,Deschutes County,OR,NA,75.8873929008568,NA
15005,Beaver County,PA,95.1063829787234,NA,NA
15025,Allegheny County,PA,NA,94.36964504283965,NA
15071,Allegheny County,PA,NA,NA,100
15120,Allegheny County,PA,26.170212765957444,NA,NA
15122,Allegheny County,PA,NA,38.066095471236224,NA
15146,Allegheny County,PA,NA,NA,79.20489296636084
15205,Allegheny County,PA,NA,37.5764993880049,NA
15212,Allegheny County,PA,NA,24.96940024479804,NA
15215,Allegheny County,PA,NA,NA,92.66055045871559
15216,Allegheny County,PA,NA,NA,63.608562691131496
15217,Allegheny County,PA,NA,NA,44.64831804281346
15224,Allegheny County,PA,NA,92.90085679314566,NA
15234,Allegheny County,PA,NA,NA,99.69418960244649
15301,Washington County,PA,NA,34.516523867809056,NA
15342,Washington County,PA,NA,NA,88.9908256880734
15367,Washington County,PA,NA,95.10403916768666,NA
15425,Fayette County,PA,NA,NA,22.629969418960243
15557,Somerset County,PA,86.17021276595744,NA,NA
15642,Westmoreland County,PA,11.27659574468085,NA,3.9755351681957185
15658,Westmoreland County,PA,NA,NA,69.1131498470948
15701,Indiana County,PA,NA,51.65238678090576,NA
15905,Cambria County,PA,72.12765957446808,66.46266829865361,NA
16001,Butler County,PA,32.12765957446809,NA,NA
16046,Butler County,PA,NA,55.93635250917993,NA
16127,Mercer County,PA,NA,37.821297429620564,NA
16314,Crawford County,PA,NA,82.4969400244798,NA
16415,Erie County,PA,NA,91.79926560587516,NA
16635,Blair County,PA,NA,47.123623011015916,NA
16947,Bradford County,PA,NA,77.7233782129743,NA
17015,Cumberland County,PA,51.70212765957447,NA,NA
17036,Dauphin County,PA,NA,45.165238678090574,NA
17044,Mifflin County,PA,NA,3.4271725826193387,NA
17202,Franklin County,PA,15.319148936170212,NA,NA
17225,Franklin County,PA,NA,36.4749082007344,NA
17331,York County,PA,NA,20.0734394124847,NA
17404,York County,PA,21.27659574468085,NA,NA
17545,Lancaster County,PA,NA,20.0734394124847,NA
17601,Lancaster County,PA,NA,34.02692778457772,NA
17931,Schuylkill County,PA,NA,85.55691554467563,NA
17960,Schuylkill County,PA,NA,98.8984088127295,NA
17972,Schuylkill County,PA,NA,38.80048959608323,NA
18017,Northampton County,PA,14.042553191489363,NA,NA
18032,Lehigh County,PA,NA,57.40514075887393,NA
18058,Monroe County,PA,NA,77.3561811505508,NA
18062,Lehigh County,PA,NA,NA,48.62385321100918
18069,Lehigh County,PA,NA,83.23133414932681,NA
18235,Carbon County,PA,NA,17.870257037943695,NA
18301,Monroe County,PA,81.70212765957446,NA,NA
18353,Monroe County,PA,NA,44.18604651162791,NA
18360,Monroe County,PA,NA,46.38922888616891,NA
18508,Lackawanna County,PA,NA,72.33782129742961,NA
18612,Luzerne County,PA,87.02127659574468,NA,NA
18840,Bradford County,PA,NA,88.61689106487148,NA
18940,Bucks County,PA,NA,NA,35.16819571865443
18974,Bucks County,PA,NA,27.539779681762543,NA
19002,Montgomery County,PA,20.425531914893615,NA,NA
19018,Delaware County,PA,14.468085106382977,NA,NA
19047,Bucks County,PA,NA,9.547123623011016,NA
19054,Bucks County,PA,62.34042553191489,NA,NA
19063,Delaware County,PA,NA,NA,8.56269113149847
19067,Bucks County,PA,NA,51.40758873929009,NA
19072,Montgomery County,PA,NA,83.84332925336597,NA
19074,Delaware County,PA,NA,69.03304773561811,NA
19079,Delaware County,PA,81.48936170212767,NA,NA
19086,Delaware County,PA,NA,NA,77.37003058103976
19106,Philadelphia County,PA,99.7872340425532,NA,NA
19114,Philadelphia County,PA,NA,66.21787025703794,NA
19129,Philadelphia County,PA,43.19148936170213,NA,NA
19134,Philadelphia County,PA,9.148936170212766,NA,NA
19136,Philadelphia County,PA,NA,16.891064871481028,NA
19138,Philadelphia County,PA,NA,13.46389228886169,NA
19144,Philadelphia County,PA,NA,69.52264381884945,14.678899082568808
19145,Philadelphia County,PA,3.6170212765957444,NA,NA
19148,Philadelphia County,PA,32.97872340425532,NA,NA
19149,Philadelphia County,PA,NA,96.08323133414932,NA
19320,Chester County,PA,NA,7.343941248470013,NA
19382,Chester County,PA,NA,4.406364749082008,NA
19406,Montgomery County,PA,NA,NA,37.308868501529055
19460,Chester County,PA,NA,14.320685434516525,NA
19525,Montgomery County,PA,NA,58.50673194614443,NA
19526,Berks County,PA,68.29787234042554,NA,NA
19610,Berks County,PA,87.2340425531915,NA,NA
02842,Newport County,RI,NA,63.76988984088128,39.75535168195719
02879,Washington County,RI,NA,84.7001223990208,NA
02895,Providence County,RI,NA,43.45165238678091,NA
02910,Providence County,RI,NA,98.40881272949817,NA
29115,Orangeburg County,SC,89.14893617021276,NA,NA
29153,Sumter County,SC,NA,97.55201958384333,NA
29223,Richland County,SC,NA,NA,10.091743119266056
29303,Spartanburg County,SC,NA,NA,39.44954128440367
29306,Spartanburg County,SC,NA,NA,57.18654434250765
29341,Cherokee County,SC,NA,37.086903304773564,NA
29365,Spartanburg County,SC,NA,47.24602203182375,NA
29505,Florence County,SC,66.38297872340425,NA,NA
29520,Chesterfield County,SC,NA,NA,59.021406727828754
29554,Williamsburg County,SC,67.23404255319149,NA,NA
29576,Horry County,SC,NA,6.976744186046512,NA
29609,Greenville County,SC,NA,29.008567931456547,89.60244648318043
29615,Greenville County,SC,NA,24.479804161566708,NA
29617,Greenville County,SC,NA,23.623011015911874,NA
29650,Greenville County,SC,20.851063829787233,NA,NA
29671,Pickens County,SC,NA,NA,81.9571865443425
29678,Oconee County,SC,NA,21.297429620563037,NA
29690,Greenville County,SC,49.361702127659576,NA,NA
29715,York County,SC,NA,76.00979192166463,NA
29801,Aiken County,SC,NA,60.09791921664627,NA
29805,Aiken County,SC,NA,94.00244798041616,NA
57078,Yankton County,SD,68.08510638297872,NA,NA
57103,Minnehaha County,SD,88.08510638297872,NA,NA
57104,Minnehaha County,SD,NA,21.664626682986537,NA
57201,Codington County,SD,94.68085106382979,NA,NA
57401,Brown County,SD,NA,24.60220318237454,0.9174311926605505
37013,Davidson County,TN,NA,51.774785801713584,NA
37040,Montgomery County,TN,37.659574468085104,NA,NA
37064,Williamson County,TN,71.48936170212767,NA,NA
37066,Sumner County,TN,19.574468085106382,4.8959608323133414,NA
37069,Williamson County,TN,NA,84.94492044063648,NA
37076,Davidson County,TN,NA,19.7062423500612,NA
37096,Perry County,TN,NA,76.9889840881273,NA
37160,Bedford County,TN,NA,65.36107711138311,NA
37174,Williamson County,TN,29.574468085106382,NA,NA
37209,Davidson County,TN,NA,NA,70.03058103975535
37218,Davidson County,TN,NA,51.52998776009792,NA
37322,Meigs County,TN,41.91489361702128,NA,NA
37363,Hamilton County,TN,23.404255319148938,NA,NA
37642,Hawkins County,TN,NA,90.45287637698898,NA
37643,Carter County,TN,23.617021276595747,NA,NA
37658,Carter County,TN,NA,90.33047735618115,NA
37663,Sullivan County,TN,47.4468085106383,NA,NA
37725,Jefferson County,TN,33.191489361702125,NA,NA
37777,Blount County,TN,NA,37.2093023255814,NA
37804,Blount County,TN,NA,11.015911872705018,NA
37865,Sevier County,TN,NA,NA,54.74006116207951
37920,Knox County,TN,NA,NA,66.36085626911316
38018,Shelby County,TN,76.38297872340426,NA,NA
38104,Shelby County,TN,NA,85.92411260709915,NA
38107,Shelby County,TN,NA,82.8641370869033,NA
38109,Shelby County,TN,NA,9.30232558139535,NA
38134,Shelby County,TN,20.212765957446805,NA,NA
38320,Benton County,TN,NA,NA,77.67584097859327
75006,Dallas County,TX,NA,17.503059975520195,NA
75007,Denton County,TX,54.04255319148936,NA,NA
75025,Collin County,TX,NA,37.454100367197064,NA
75038,Dallas County,TX,41.06382978723404,NA,NA
75043,Dallas County,TX,10.212765957446807,NA,NA
75052,Dallas County,TX,NA,6.487148102815178,NA
75070,Collin County,TX,27.23404255319149,NA,NA
75080,Dallas County,TX,NA,92.16646266829865,NA
75082,Collin County,TX,NA,70.01223990208078,NA
75093,Collin County,TX,NA,48.47001223990208,NA
75149,Dallas County,TX,46.59574468085106,NA,NA
75169,Van Zandt County,TX,NA,48.225214198286416,NA
75205,Dallas County,TX,NA,52.50917992656059,NA
75206,Dallas County,TX,NA,69.88984088127295,NA
75217,Dallas County,TX,4.25531914893617,NA,NA
75218,Dallas County,TX,NA,78.4577723378213,NA
75225,Dallas County,TX,NA,NA,21.100917431192663
75227,Dallas County,TX,NA,65.97307221542228,NA
75228,Dallas County,TX,NA,12.239902080783354,NA
75230,Dallas County,TX,NA,30.599755201958384,NA
75238,Dallas County,TX,NA,NA,76.45259938837921
75240,Dallas County,TX,91.70212765957447,NA,NA
75241,Dallas County,TX,73.40425531914893,NA,NA
75401,Hunt County,TX,NA,40.1468788249694,NA
75474,Hunt County,TX,41.702127659574465,67.56425948592411,NA
75670,Harrison County,TX,NA,51.040391676866584,NA
75672,Harrison County,TX,NA,43.08445532435741,NA
75791,Smith County,TX,NA,57.16034271725826,NA
75901,Angelina County,TX,19.361702127659576,69.40024479804161,NA
75961,Nacogdoches County,TX,NA,57.037943696450434,NA
76008,Parker County,TX,NA,68.54345165238678,NA
76013,Tarrant County,TX,79.7872340425532,NA,48.92966360856269
76028,Johnson County,TX,21.06382978723404,NA,NA
76048,Hood County,TX,51.91489361702127,NA,NA
76049,Hood County,TX,NA,11.627906976744185,NA
76111,Tarrant County,TX,70.2127659574468,NA,NA
76115,Tarrant County,TX,NA,52.141982864137084,NA
76119,Tarrant County,TX,NA,3.7943696450428397,NA
76164,Tarrant County,TX,82.97872340425532,NA,NA
76306,Wichita County,TX,NA,66.58506731946144,NA
76502,Bell County,TX,NA,1.101591187270502,NA
76542,Bell County,TX,63.829787234042556,NA,NA
76571,Bell County,TX,NA,94.98164014687882,NA
76667,Limestone County,TX,NA,42.227662178702566,NA
77007,Harris County,TX,57.02127659574469,NA,NA
77016,Harris County,TX,NA,25.581395348837212,NA
77017,Harris County,TX,NA,41.49326805385557,NA
77018,Harris County,TX,25.957446808510635,NA,NA
77031,Harris County,TX,NA,66.58506731946144,NA
77040,Harris County,TX,NA,71.48102815177478,NA
77055,Harris County,TX,NA,39.7796817625459,NA
77058,Harris County,TX,NA,79.92656058751531,NA
77062,Harris County,TX,61.48936170212767,NA,NA
77065,Harris County,TX,NA,70.86903304773561,NA
77069,Harris County,TX,NA,29.620563035495717,NA
77070,Harris County,TX,NA,NA,81.34556574923548
77078,Harris County,TX,NA,79.1921664626683,NA
77079,Harris County,TX,NA,40.024479804161565,38.837920489296636
77083,Harris County,TX,50.638297872340424,NA,NA
77084,Harris County,TX,6.170212765957447,NA,NA
77095,Harris County,TX,NA,59.8531211750306,NA
77339,Harris County,TX,NA,75.76499388004896,NA
77373,Harris County,TX,NA,17.135862913096695,NA
77377,Harris County,TX,85.31914893617021,36.352509179926564,NA
77378,Montgomery County,TX,56.17021276595745,NA,NA
77450,Harris County,TX,20.638297872340424,NA,NA
77480,Brazoria County,TX,NA,88.86168910648715,NA
77494,Fort Bend County,TX,8.72340425531915,NA,NA
77498,Fort Bend County,TX,NA,98.28641370869033,NA
77503,Harris County,TX,55.1063829787234,NA,70.64220183486239
77511,Brazoria County,TX,27.02127659574468,NA,NA
77520,Harris County,TX,NA,67.07466340269278,NA
77545,Fort Bend County,TX,NA,71.8482252141983,NA
77573,Galveston County,TX,NA,16.034271725826194,NA
77575,Liberty County,TX,NA,68.78824969400245,NA
77578,Brazoria County,TX,45.53191489361702,NA,NA
77583,Brazoria County,TX,97.65957446808511,NA,NA
77587,Harris County,TX,NA,59.4859241126071,NA
77598,Harris County,TX,NA,NA,74.61773700305811
77657,Hardin County,TX,37.02127659574468,NA,NA
77703,Jefferson County,TX,78.29787234042553,NA,NA
77705,Jefferson County,TX,NA,NA,50.15290519877675
77845,Brazos County,TX,5.319148936170213,NA,NA
77879,Burleson County,TX,NA,50.42839657282742,NA
77901,Victoria County,TX,NA,39.0452876376989,NA
78022,Live Oak County,TX,NA,NA,98.47094801223241
78026,Atascosa County,TX,NA,92.53365973072215,NA
78045,Webb County,TX,11.702127659574469,NA,NA
78130,Comal County,TX,NA,38.3108935128519,NA
78213,Bexar County,TX,NA,43.696450428396574,NA
78380,Nueces County,TX,NA,47.735618115055075,NA
78412,Nueces County,TX,NA,95.47123623011015,NA
78503,Hidalgo County,TX,48.29787234042553,NA,NA
78516,Hidalgo County,TX,NA,33.782129742962056,NA
78521,Cameron County,TX,NA,36.23011015911873,51.07033639143731
78572,Hidalgo County,TX,NA,11.260709914320685,NA
78633,Williamson County,TX,NA,NA,0
78840,Val Verde County,TX,NA,NA,28.440366972477065
79936,El Paso County,TX,6.595744680851063,NA,NA
84003,Utah County,UT,25.744680851063826,NA,NA
84009,Salt Lake County,UT,NA,NA,60.24464831804281
84010,Davis County,UT,NA,41.126070991432066,NA
84050,Morgan County,UT,NA,85.18971848225215,NA
84088,Salt Lake County,UT,NA,63.52509179926561,NA
84092,Salt Lake County,UT,NA,29.37576499388005,NA
84098,Summit County,UT,NA,60.709914320685435,NA
84107,Salt Lake County,UT,22.97872340425532,NA,NA
84604,Utah County,UT,65.53191489361701,NA,NA
05401,Chittenden County,VT,NA,73.19461444308446,NA
05602,Washington County,VT,NA,NA,34.5565749235474
05701,Rutland County,VT,NA,26.805385556915546,NA
05851,Caledonia County,VT,NA,99.51040391676867,NA
20124,Fairfax County,VA,NA,69.76744186046511,NA
20141,Loudoun County,VA,95.74468085106383,NA,NA
20148,Loudoun County,VA,70.42553191489361,NA,NA
20169,Prince William County,VA,75.1063829787234,NA,NA
22015,Fairfax County,VA,NA,NA,42.50764525993883
22101,Fairfax County,VA,32.5531914893617,60.5875152998776,NA
22151,Fairfax County,VA,NA,67.44186046511628,NA
22153,Fairfax County,VA,38.297872340425535,65.85067319461444,NA
22201,Arlington County,VA,87.44680851063829,49.69400244798042,NA
22309,Fairfax County,VA,NA,35.00611995104039,NA
22485,King George County,VA,NA,64.74908200734394,NA
22503,Lancaster County,VA,NA,97.42962056303548,NA
22630,Warren County,VA,NA,65.60587515299878,NA
22801,Harrisonburg city,VA,NA,23.25581395348837,NA
22902,Charlottesville city,VA,NA,21.41982864137087,NA
22920,Nelson County,VA,NA,NA,94.18960244648318
23002,Amelia County,VA,62.12765957446808,NA,NA
23111,Hanover County,VA,NA,50.91799265605875,NA
23114,Chesterfield County,VA,82.76595744680851,NA,NA
23116,Hanover County,VA,65.31914893617021,NA,NA
23139,Powhatan County,VA,NA,30.84455324357405,81.65137614678899
23226,Richmond city,VA,NA,93.88004895960832,NA
23323,Chesapeake city,VA,NA,NA,73.39449541284404
23434,Suffolk city,VA,NA,5.752753977968176,NA
23435,Suffolk city,VA,NA,NA,37.00305810397553
23451,Virginia Beach city,VA,NA,8.812729498164016,NA
23452,Virginia Beach city,VA,NA,4.651162790697675,NA
23608,Newport News city,VA,82.34042553191489,NA,NA
23666,Hampton city,VA,NA,NA,5.198776758409786
23692,York County,VA,89.7872340425532,NA,NA
23701,Portsmouth city,VA,30,NA,NA
23831,Chesterfield County,VA,94.8936170212766,NA,NA
23842,Prince George County,VA,NA,94.859241126071,NA
23944,Lunenburg County,VA,NA,NA,80.42813455657493
24055,Henry County,VA,NA,85.8017135862913,NA
24060,Montgomery County,VA,NA,58.62913096695227,NA
24073,Montgomery County,VA,NA,35.49571603427172,NA
24088,Franklin County,VA,NA,81.02815177478581,NA
24112,Henry County,VA,NA,8.200734394124847,NA
24219,Wise County,VA,22.127659574468083,NA,NA
24224,Russell County,VA,NA,NA,74.92354740061162
24244,Scott County,VA,93.61702127659575,NA,NA
24361,Washington County,VA,NA,80.90575275397796,NA
24401,Staunton city,VA,NA,22.52141982864137,NA
24477,Augusta County,VA,NA,NA,47.09480122324159
24503,Lynchburg city,VA,NA,NA,26.605504587155966
24541,Danville city,VA,NA,NA,23.547400611620795
24558,Halifax County,VA,47.02127659574468,NA,NA
98012,Snohomish County,WA,42.97872340425532,43.57405140758874,NA
98026,Snohomish County,WA,NA,NA,36.391437308868504
98030,King County,WA,NA,54.589963280293766,NA
98031,King County,WA,24.25531914893617,NA,NA
98034,King County,WA,NA,79.43696450428396,NA
98052,King County,WA,91.27659574468086,NA,NA
98059,King County,WA,NA,45.04283965728274,NA
98074,King County,WA,NA,NA,66.97247706422019
98087,Snohomish County,WA,NA,62.545899632802936,NA
98106,King County,WA,NA,NA,94.80122324159022
98110,Kitsap County,WA,NA,NA,93.27217125382263
98116,King County,WA,48.08510638297872,NA,NA
98136,King County,WA,NA,83.5985312117503,NA
98146,King County,WA,NA,NA,84.70948012232415
98166,King County,WA,85.53191489361703,NA,NA
98168,King County,WA,17.23404255319149,NA,NA
98178,King County,WA,NA,NA,62.079510703363916
98223,Snohomish County,WA,NA,52.998776009791925,NA
98274,Skagit County,WA,63.61702127659574,NA,NA
98311,Kitsap County,WA,90.85106382978724,98.77600979192167,NA
98312,Kitsap County,WA,97.44680851063829,NA,NA
98367,Kitsap County,WA,NA,NA,62.69113149847095
98375,Pierce County,WA,NA,NA,67.58409785932722
98422,Pierce County,WA,NA,44.798041615667074,NA
98532,Lewis County,WA,NA,42.71725826193391,NA
98626,Cowlitz County,WA,NA,18.9718482252142,NA
98629,Clark County,WA,NA,99.6328029375765,NA
98682,Clark County,WA,NA,29.13096695226438,NA
98684,Clark County,WA,NA,NA,85.01529051987767
98848,Grant County,WA,69.36170212765957,NA,NA
99026,Stevens County,WA,NA,NA,96.94189602446484
99163,Whitman County,WA,NA,75.39779681762546,NA
99338,Benton County,WA,NA,19.951040391676866,NA
20002,District of Columbia,DC,NA,NA,26.299694189602445
20010,District of Columbia,DC,33.61702127659574,NA,NA
20032,District of Columbia,DC,NA,12.729498164014688,NA
25414,Jefferson County,WV,NA,53.24357405140759,NA
25510,Cabell County,WV,61.702127659574465,NA,NA
25670,Mingo County,WV,NA,88.24969400244798,NA
25701,Cabell County,WV,8.297872340425531,NA,NA
26062,Hancock County,WV,65.74468085106383,NA,NA
26601,Braxton County,WV,NA,NA,65.4434250764526
53005,Waukesha County,WI,NA,92.28886168910648,NA
53024,Ozaukee County,WI,NA,38.3108935128519,NA
53051,Waukesha County,WI,NA,78.70257037943696,NA
53080,Ozaukee County,WI,NA,89.22888616891065,NA
53081,Sheboygan County,WI,NA,74.54100367197063,NA
53092,Ozaukee County,WI,NA,54.95716034271726,NA
53118,Waukesha County,WI,71.70212765957447,NA,61.46788990825688
53129,Milwaukee County,WI,NA,NA,37.920489296636084
53140,Kenosha County,WI,NA,89.47368421052632,NA
53150,Waukesha County,WI,NA,52.75397796817626,NA
53185,Racine County,WI,81.91489361702128,NA,NA
53202,Milwaukee County,WI,54.46808510638298,NA,NA
53204,Milwaukee County,WI,15.957446808510639,NA,NA
53205,Milwaukee County,WI,0.851063829787234,NA,NA
53216,Milwaukee County,WI,3.1914893617021276,NA,NA
53219,Milwaukee County,WI,NA,NA,9.480122324159021
53220,Milwaukee County,WI,NA,42.47246022031824,NA
53222,Milwaukee County,WI,NA,23.745410036719704,NA
53538,Jefferson County,WI,NA,NA,82.56880733944955
54017,St. Croix County,WI,32.340425531914896,NA,NA
54025,St. Croix County,WI,90.42553191489363,NA,NA
54166,Shawano County,WI,NA,62.42350061199511,NA
54303,Brown County,WI,52.97872340425533,NA,NA
54449,Wood County,WI,NA,56.79314565483477,NA
54482,Portage County,WI,NA,83.47613219094248,NA
54603,La Crosse County,WI,NA,58.26193390452876,NA
54660,Monroe County,WI,NA,31.211750305997555,NA
54751,Dunn County,WI,NA,17.258261933904528,NA
54913,Outagamie County,WI,60.42553191489362,NA,NA
82001,Laramie County,WY,NA,NA,75.84097859327217
82009,Laramie County,WY,83.19148936170212,NA,NA
82901,Sweetwater County,WY,58.93617021276596,NA,NA
