ZipCode,county,state,Retirement
35118,Jefferson County,AL,73.89830508474576
35950,Marshall County,AL,93.22033898305084
36111,Montgomery County,AL,96.94915254237289
36830,Lee County,AL,39.66101694915255
99501,Anchorage Municipality,AK,65.76271186440678
99508,Anchorage Municipality,AK,24.06779661016949
85048,Maricopa County,AZ,43.389830508474574
85233,Maricopa County,AZ,36.94915254237288
85282,Maricopa County,AZ,62.71186440677966
85395,Maricopa County,AZ,31.186440677966104
72227,Pulaski County,AR,99.66101694915255
72764,Washington County,AR,37.96610169491525
72956,Crawford County,AR,18.305084745762713
90043,Los Angeles County,CA,38.64406779661017
90621,Orange County,CA,40.67796610169492
90805,Los Angeles County,CA,14.576271186440678
91206,Los Angeles County,CA,58.644067796610166
91304,Los Angeles County,CA,35.932203389830505
91702,Los Angeles County,CA,30.16949152542373
91790,Los Angeles County,CA,35.59322033898305
92058,San Diego County,CA,98.64406779661017
92111,San Diego County,CA,56.61016949152542
92270,Riverside County,CA,5.084745762711865
92646,Orange County,CA,5.084745762711865
92649,Orange County,CA,56.271186440677965
92672,Orange County,CA,37.6271186440678
92677,Orange County,CA,28.135593220338983
92807,Orange County,CA,27.796610169491526
93277,Tulare County,CA,11.186440677966102
93291,Tulare County,CA,66.10169491525424
93933,Monterey County,CA,32.20338983050847
94578,Alameda County,CA,67.11864406779661
94710,Alameda County,CA,78.30508474576271
94901,Marin County,CA,25.423728813559322
95125,Santa Clara County,CA,82.37288135593221
95148,Santa Clara County,CA,29.491525423728817
95451,Lake County,CA,65.42372881355932
95762,El Dorado County,CA,23.389830508474578
95969,Butte County,CA,44.74576271186441
80538,Larimer County,CO,23.728813559322035
81303,La Plata County,CO,60.67796610169491
06111,Hartford County,CT,61.016949152542374
06451,New Haven County,CT,25.08474576271186
06457,Middlesex County,CT,47.11864406779661
06461,New Haven County,CT,93.89830508474576
19968,Sussex County,DE,32.88135593220339
32080,St. Johns County,FL,72.88135593220339
32084,St. Johns County,FL,17.627118644067796
32216,Duval County,FL,20
32246,Duval County,FL,50.16949152542372
32309,Leon County,FL,45.08474576271186
32501,Escambia County,FL,97.96610169491525
32503,Escambia County,FL,9.152542372881356
32507,Escambia County,FL,8.47457627118644
32578,Okaloosa County,FL,12.203389830508476
32789,Orange County,FL,90.5084745762712
32819,Orange County,FL,77.62711864406779
32824,Orange County,FL,85.76271186440678
32935,Brevard County,FL,49.49152542372882
33036,Monroe County,FL,95.9322033898305
33181,Miami-Dade County,FL,69.15254237288136
33437,Palm Beach County,FL,94.91525423728814
33606,Hillsborough County,FL,69.49152542372882
33618,Hillsborough County,FL,34.91525423728813
33830,Polk County,FL,72.20338983050848
33928,Lee County,FL,84.06779661016948
34293,Sarasota County,FL,60.33898305084746
34453,Citrus County,FL,89.49152542372882
34609,Hernando County,FL,15.593220338983052
34613,Hernando County,FL,70.50847457627118
34637,Pasco County,FL,95.25423728813558
34758,Osceola County,FL,35.25423728813559
34759,Polk County,FL,30.847457627118647
34787,Orange County,FL,74.57627118644068
34788,Lake County,FL,80.33898305084746
34983,St. Lucie County,FL,18.983050847457626
30014,Newton County,GA,84.7457627118644
30223,Spalding County,GA,58.98305084745763
30518,Gwinnett County,GA,22.372881355932204
30802,Columbia County,GA,81.35593220338984
30909,Richmond County,GA,10.16949152542373
31501,Ware County,GA,74.23728813559322
96818,Honolulu County,HI,65.08474576271186
83402,Bonneville County,ID,75.59322033898304
83616,Ada County,ID,70.16949152542374
83815,Kootenai County,ID,11.525423728813559
60030,Lake County,IL,40
60056,Cook County,IL,9.491525423728813
60074,Cook County,IL,75.2542372881356
60091,Cook County,IL,64.7457627118644
60185,DuPage County,IL,18.64406779661017
60515,DuPage County,IL,45.42372881355932
60608,Cook County,IL,52.88135593220339
61073,Winnebago County,IL,77.96610169491525
62832,Perry County,IL,49.83050847457628
46011,Madison County,IN,84.40677966101696
46394,Lake County,IN,37.28813559322034
46514,Elkhart County,IN,14.237288135593221
47546,Dubois County,IN,46.101694915254235
50263,Dallas County,IA,79.66101694915254
50266,Polk County,IA,54.91525423728814
50315,Polk County,IA,51.52542372881356
50461,Mitchell County,IA,59.66101694915255
52544,Appanoose County,IA,83.72881355932203
66083,Johnson County,KS,78.98305084745762
66109,Wyandotte County,KS,81.69491525423729
66202,Johnson County,KS,63.05084745762712
66212,Johnson County,KS,77.28813559322035
67025,Sedgwick County,KS,86.4406779661017
67215,Sedgwick County,KS,98.30508474576271
40508,Fayette County,KY,78.64406779661017
41071,Campbell County,KY,68.47457627118644
42101,Warren County,KY,67.79661016949152
42701,Hardin County,KY,5.762711864406779
70006,Jefferson Parish,LA,62.03389830508475
70056,Jefferson Parish,LA,83.38983050847457
70360,Terrebonne Parish,LA,16.94915254237288
70605,Calcasieu Parish,LA,43.050847457627114
70634,Beauregard Parish,LA,24.40677966101695
71082,Caddo Parish,LA,94.23728813559322
71449,Sabine Parish,LA,57.6271186440678
04038,Cumberland County,ME,96.61016949152543
04429,Penobscot County,ME,57.96610169491525
20774,Prince George's County,MD,81.01694915254237
21220,Baltimore County,MD,57.28813559322033
21231,Baltimore city,MD,43.728813559322035
21403,Anne Arundel County,MD,51.864406779661024
01001,Hampden County,MA,13.220338983050848
01225,Berkshire County,MA,80
01451,Worcester County,MA,92.88135593220339
01510,Worcester County,MA,6.440677966101695
01757,Worcester County,MA,2.711864406779661
01945,Essex County,MA,67.45762711864407
02050,Plymouth County,MA,15.254237288135593
02139,Middlesex County,MA,54.23728813559322
02149,Middlesex County,MA,0.3389830508474576
02370,Plymouth County,MA,15.932203389830507
02720,Bristol County,MA,4.067796610169491
48075,Oakland County,MI,97.28813559322033
48111,Wayne County,MI,3.389830508474576
48138,Wayne County,MI,39.32203389830509
48144,Monroe County,MI,52.20338983050847
48169,Livingston County,MI,74.91525423728814
48187,Wayne County,MI,86.77966101694915
48189,Washtenaw County,MI,36.271186440677965
48532,Genesee County,MI,47.45762711864407
48624,Gladwin County,MI,11.864406779661017
48650,Bay County,MI,99.32203389830508
48836,Livingston County,MI,36.610169491525426
49036,Branch County,MI,14.915254237288137
49424,Ottawa County,MI,7.796610169491526
49508,Kent County,MI,76.61016949152543
49525,Kent County,MI,68.13559322033899
49802,Dickinson County,MI,80.67796610169492
55408,Hennepin County,MN,28.474576271186443
55423,Hennepin County,MN,27.11864406779661
55428,Hennepin County,MN,44.40677966101695
55448,Anoka County,MN,87.11864406779661
56007,Freeborn County,MN,4.745762711864407
56101,Cottonwood County,MN,48.13559322033898
39209,Hinds County,MS,33.89830508474576
39507,Harrison County,MS,21.35593220338983
63863,Dunklin County,MO,63.389830508474574
64836,Jasper County,MO,42.71186440677966
65079,Camden County,MO,91.86440677966101
65721,Christian County,MO,42.03389830508474
59901,Flathead County,MT,1.694915254237288
68352,Jefferson County,NE,88.13559322033898
89107,Clark County,NV,42.3728813559322
07110,Essex County,NJ,37.96610169491525
07208,Union County,NJ,97.6271186440678
07306,Hudson County,NJ,50.50847457627119
07307,Hudson County,NJ,25.76271186440678
07420,Passaic County,NJ,55.59322033898305
07739,Monmouth County,NJ,90.16949152542372
07876,Morris County,NJ,61.35593220338983
08033,Camden County,NJ,41.35593220338983
08691,Mercer County,NJ,66.77966101694915
08807,Somerset County,NJ,28.8135593220339
08822,Hunterdon County,NJ,21.35593220338983
88012,Doa Ana County,NM,94.57627118644068
11204,Kings County,NY,21.01694915254237
11226,Kings County,NY,1.3559322033898304
11510,Nassau County,NY,90.84745762711864
11704,Suffolk County,NY,54.57627118644067
11726,Suffolk County,NY,85.42372881355932
11768,Suffolk County,NY,79.3220338983051
12477,Ulster County,NY,46.440677966101696
13165,Seneca County,NY,13.559322033898304
13694,St. Lawrence County,NY,100
13760,Broome County,NY,0
13790,Broome County,NY,4.406779661016949
14216,Erie County,NY,26.101694915254235
14221,Erie County,NY,27.45762711864407
14472,Monroe County,NY,19.661016949152543
14580,Monroe County,NY,9.830508474576272
14624,Monroe County,NY,1.0169491525423728
14626,Monroe County,NY,2.3728813559322033
14760,Cattaraugus County,NY,31.864406779661014
27052,Stokes County,NC,59.32203389830508
27055,Yadkin County,NC,95.59322033898306
27104,Forsyth County,NC,60
27288,Rockingham County,NC,75.9322033898305
27406,Guilford County,NC,0.6779661016949152
27610,Wake County,NC,3.050847457627119
27958,Currituck County,NC,71.1864406779661
28001,Stanly County,NC,87.45762711864407
28163,Stanly County,NC,85.08474576271186
28205,Mecklenburg County,NC,16.271186440677965
28365,Wayne County,NC,46.779661016949156
28705,Mitchell County,NC,58.30508474576271
28739,Henderson County,NC,8.135593220338983
28804,Buncombe County,NC,92.54237288135593
58201,Grand Forks County,ND,3.728813559322034
43228,Franklin County,OH,7.457627118644068
44023,Geauga County,OH,29.830508474576273
44089,Erie County,OH,26.440677966101696
44137,Cuyahoga County,OH,26.779661016949152
44236,Summit County,OH,49.152542372881356
44827,Crawford County,OH,86.10169491525423
45069,Butler County,OH,10.847457627118644
45230,Hamilton County,OH,73.22033898305085
45244,Hamilton County,OH,31.52542372881356
45252,Hamilton County,OH,82.71186440677965
45424,Montgomery County,OH,48.47457627118644
73069,Cleveland County,OK,44.06779661016949
73071,Cleveland County,OK,8.813559322033898
97381,Marion County,OR,62.37288135593221
15010,Beaver County,PA,16.610169491525422
15317,Washington County,PA,64.40677966101694
15501,Somerset County,PA,53.559322033898304
15857,Elk County,PA,47.79661016949153
16101,Lawrence County,PA,70.84745762711864
16102,Lawrence County,PA,88.8135593220339
17112,Dauphin County,PA,48.8135593220339
17268,Franklin County,PA,13.898305084745763
17728,Lycoming County,PA,98.98305084745763
18103,Lehigh County,PA,71.86440677966101
18634,Luzerne County,PA,29.152542372881356
19001,Montgomery County,PA,91.52542372881356
19015,Delaware County,PA,30.508474576271187
19040,Montgomery County,PA,51.186440677966104
19134,Philadelphia County,PA,34.23728813559322
19145,Philadelphia County,PA,6.779661016949152
19406,Montgomery County,PA,23.050847457627118
19454,Montgomery County,PA,33.220338983050844
02864,Providence County,RI,82.03389830508473
29020,Kershaw County,SC,22.033898305084744
29150,Sumter County,SC,53.22033898305085
29485,Dorchester County,SC,20.33898305084746
29588,Horry County,SC,6.101694915254238
29617,Greenville County,SC,88.47457627118645
29708,York County,SC,41.69491525423729
29907,Beaufort County,SC,53.898305084745765
37066,Sumner County,TN,24.74576271186441
37604,Washington County,TN,12.54237288135593
37821,Cocke County,TN,19.322033898305087
37918,Knox County,TN,89.15254237288136
38116,Shelby County,TN,20.677966101694913
38260,Obion County,TN,92.20338983050847
38343,Gibson County,TN,69.83050847457626
38585,Van Buren County,TN,61.694915254237294
75034,Denton County,TX,17.966101694915253
75078,Collin County,TX,93.55932203389831
75110,Navarro County,TX,33.559322033898304
75803,Anderson County,TX,34.57627118644068
76065,Ellis County,TX,71.52542372881356
78201,Bexar County,TX,12.88135593220339
78211,Bexar County,TX,38.983050847457626
78221,Bexar County,TX,55.932203389830505
78248,Bexar County,TX,63.72881355932203
78611,Burnet County,TX,40.33898305084746
78676,Hays County,TX,45.76271186440678
84040,Davis County,UT,72.54237288135593
84096,Salt Lake County,UT,83.05084745762711
84121,Salt Lake County,UT,10.508474576271185
84651,Utah County,UT,68.8135593220339
05489,Chittenden County,VT,91.18644067796609
20170,Fairfax County,VA,32.54237288135593
22003,Fairfax County,VA,41.01694915254237
22032,Fairfax County,VA,89.83050847457628
22520,Westmoreland County,VA,76.94915254237287
22901,Albemarle County,VA,17.28813559322034
23692,York County,VA,64.0677966101695
24015,Roanoke city,VA,96.27118644067797
24348,Grayson County,VA,76.27118644067797
99212,Spokane County,WA,73.5593220338983
99223,Spokane County,WA,66.44067796610169
99362,Walla Walla County,WA,7.118644067796611
25387,Kanawha County,WV,87.79661016949153
26757,Hampshire County,WV,55.254237288135585
53120,Walworth County,WI,52.54237288135594
53204,Milwaukee County,WI,22.71186440677966
53228,Milwaukee County,WI,50.847457627118644
53405,Racine County,WI,2.0338983050847457
54880,Douglas County,WI,56.949152542372886
