ZipCode,county,state,Adult,Retirement,Geriatric
35004,St. Clair County,AL,NA,76.6773162939297,NA
35023,Jefferson County,AL,NA,33.33333333333333,NA
35080,Shelby County,AL,NA,83.91906283280085,NA
35127,Jefferson County,AL,77.40213523131672,NA,NA
35150,Talladega County,AL,26.156583629893237,NA,NA
35180,Jefferson County,AL,NA,NA,68.05555555555556
35211,Jefferson County,AL,9.252669039145907,NA,NA
35213,Jefferson County,AL,NA,45.68690095846645,NA
35217,Jefferson County,AL,NA,70.50053248136315,NA
35226,Jefferson County,AL,57.82918149466192,NA,NA
35243,Jefferson County,AL,NA,40.04259850905218,NA
35244,Jefferson County,AL,NA,52.822151224707135,NA
35546,Fayette County,AL,NA,99.04153354632588,NA
35549,Walker County,AL,NA,87.64643237486688,NA
35654,Franklin County,AL,66.37010676156584,NA,NA
35674,Colbert County,AL,NA,33.12034078807242,51.157407407407405
35905,Etowah County,AL,67.61565836298932,NA,NA
35957,Marshall County,AL,NA,NA,80.32407407407408
36117,Montgomery County,AL,NA,25.026624068157616,NA
36206,Calhoun County,AL,NA,NA,64.35185185185185
36360,Dale County,AL,NA,NA,40.74074074074074
36420,Covington County,AL,81.67259786476868,NA,NA
36526,Baldwin County,AL,NA,NA,48.842592592592595
36535,Baldwin County,AL,NA,14.696485623003195,NA
36551,Baldwin County,AL,73.13167259786478,NA,NA
36567,Baldwin County,AL,NA,NA,46.99074074074074
36610,Mobile County,AL,NA,63.47177848775293,NA
36744,Hale County,AL,71.17437722419929,NA,NA
36853,Tallapoosa County,AL,NA,93.39723109691161,NA
36877,Lee County,AL,NA,NA,66.66666666666666
85018,Maricopa County,AZ,NA,26.624068157614484,NA
85041,Maricopa County,AZ,NA,16.719914802981894,NA
85132,Pinal County,AZ,NA,91.16080937167199,NA
85138,Pinal County,AZ,25.088967971530252,NA,NA
85204,Maricopa County,AZ,61.56583629893239,NA,NA
85205,Maricopa County,AZ,NA,17.145899893503728,NA
85206,Maricopa County,AZ,NA,60.91586794462194,NA
85207,Maricopa County,AZ,NA,44.515441959531415,NA
85209,Maricopa County,AZ,NA,78.06176783812566,NA
85224,Maricopa County,AZ,NA,55.05857294994675,NA
85248,Maricopa County,AZ,39.679715302491104,NA,NA
85282,Maricopa County,AZ,NA,56.01703940362087,NA
85286,Maricopa County,AZ,NA,55.6975505857295,NA
85344,La Paz County,AZ,50.355871886120994,NA,NA
85351,Maricopa County,AZ,NA,42.81150159744409,NA
85373,Maricopa County,AZ,NA,NA,15.50925925925926
85382,Maricopa County,AZ,NA,NA,12.5
85392,Maricopa County,AZ,NA,59.21192758253461,NA
85705,Pima County,AZ,NA,4.579339723109691,NA
85718,Pima County,AZ,NA,NA,40.27777777777778
85730,Pima County,AZ,17.259786476868328,NA,NA
85757,Pima County,AZ,17.437722419928825,NA,NA
86403,Mohave County,AZ,NA,NA,58.56481481481482
86406,Mohave County,AZ,NA,NA,22.916666666666664
71901,Garland County,AR,32.20640569395018,NA,29.166666666666668
72335,St. Francis County,AR,NA,55.27156549520767,NA
72370,Mississippi County,AR,NA,NA,79.86111111111111
72653,Baxter County,AR,NA,13.951011714589988,NA
72687,Marion County,AR,NA,63.897763578274756,NA
72801,Pope County,AR,NA,96.59211927582535,NA
72901,Sebastian County,AR,NA,49.6272630457934,NA
90004,Los Angeles County,CA,NA,25.66560170394036,NA
90019,Los Angeles County,CA,26.690391459074732,NA,NA
90022,Los Angeles County,CA,NA,NA,44.21296296296296
90024,Los Angeles County,CA,NA,NA,4.861111111111112
90025,Los Angeles County,CA,NA,23.322683706070286,NA
90033,Los Angeles County,CA,NA,33.86581469648562,NA
90036,Los Angeles County,CA,NA,32.16187433439829,NA
90037,Los Angeles County,CA,NA,NA,71.75925925925925
90201,Los Angeles County,CA,NA,24.38764643237487,NA
90230,Los Angeles County,CA,NA,33.65282215122471,NA
90240,Los Angeles County,CA,NA,81.78913738019169,NA
90242,Los Angeles County,CA,NA,90.6283280085197,NA
90266,Los Angeles County,CA,NA,93.61022364217251,22.22222222222222
90274,Los Angeles County,CA,67.08185053380782,NA,NA
90275,Los Angeles County,CA,39.8576512455516,27.05005324813631,NA
90277,Los Angeles County,CA,36.654804270462634,NA,NA
90278,Los Angeles County,CA,43.594306049822066,NA,NA
90606,Los Angeles County,CA,80.42704626334519,NA,NA
90630,Orange County,CA,NA,14.589989350372736,NA
90631,Orange County,CA,22.95373665480427,NA,18.75
90638,Los Angeles County,CA,61.74377224199288,NA,NA
90660,Los Angeles County,CA,NA,NA,43.75
90701,Los Angeles County,CA,NA,67.8381256656017,NA
90712,Los Angeles County,CA,41.10320284697509,NA,NA
90720,Orange County,CA,NA,41.853035143769965,NA
90807,Los Angeles County,CA,34.87544483985765,NA,NA
91006,Los Angeles County,CA,64.94661921708185,NA,NA
91107,Los Angeles County,CA,NA,NA,28.703703703703702
91214,Los Angeles County,CA,75.26690391459074,NA,NA
91342,Los Angeles County,CA,NA,64.85623003194888,NA
91344,Los Angeles County,CA,NA,89.98935037273695,NA
91356,Los Angeles County,CA,NA,NA,20.37037037037037
91367,Los Angeles County,CA,NA,33.65282215122471,NA
91405,Los Angeles County,CA,29.715302491103202,NA,NA
91710,San Bernardino County,CA,NA,36.74121405750799,NA
91711,Los Angeles County,CA,NA,20.766773162939298,NA
91723,Los Angeles County,CA,59.60854092526691,83.59957401490948,NA
91732,Los Angeles County,CA,74.73309608540926,60.70287539936102,NA
91746,Los Angeles County,CA,92.17081850533808,NA,NA
91748,Los Angeles County,CA,49.28825622775801,NA,NA
91754,Los Angeles County,CA,NA,93.50372736954206,NA
91767,Los Angeles County,CA,77.75800711743773,NA,NA
91784,San Bernardino County,CA,52.49110320284698,NA,NA
91786,San Bernardino County,CA,21.352313167259787,NA,NA
91790,Los Angeles County,CA,NA,34.398296059637914,NA
91935,San Diego County,CA,93.06049822064057,NA,NA
92007,San Diego County,CA,NA,96.27263045793397,NA
92019,San Diego County,CA,NA,NA,82.87037037037037
92029,San Diego County,CA,NA,NA,50.69444444444444
92054,San Diego County,CA,NA,94.24920127795528,NA
92064,San Diego County,CA,NA,24.920127795527154,NA
92075,San Diego County,CA,NA,77.52928647497338,NA
92111,San Diego County,CA,NA,35.03727369542066,NA
92119,San Diego County,CA,NA,84.34504792332268,NA
92127,San Diego County,CA,NA,48.77529286474974,NA
92131,San Diego County,CA,51.42348754448398,NA,NA
92253,Riverside County,CA,NA,6.602768903088392,NA
92262,Riverside County,CA,NA,7.348242811501597,NA
92284,San Bernardino County,CA,NA,18.210862619808307,42.36111111111111
92308,San Bernardino County,CA,NA,NA,29.86111111111111
92325,San Bernardino County,CA,64.05693950177937,NA,NA
92543,Riverside County,CA,51.779359430604984,NA,NA
92562,Riverside County,CA,16.90391459074733,NA,NA
92587,Riverside County,CA,84.34163701067615,64.74973375931843,NA
92625,Orange County,CA,NA,80.61767838125665,NA
92626,Orange County,CA,NA,31.416400425985092,NA
92630,Orange County,CA,NA,50.69222577209798,NA
92637,Orange County,CA,NA,47.07135250266241,NA
92646,Orange County,CA,NA,NA,41.898148148148145
92649,Orange County,CA,NA,NA,53.70370370370371
92660,Orange County,CA,NA,94.03620873269436,11.11111111111111
92672,Orange County,CA,NA,NA,30.555555555555557
92677,Orange County,CA,22.24199288256228,6.922257720979766,NA
92692,Orange County,CA,NA,41.640042598509055,NA
92706,Orange County,CA,NA,NA,81.71296296296296
92708,Orange County,CA,NA,10.649627263045794,NA
92845,Orange County,CA,72.95373665480427,68.15761448349308,NA
92867,Orange County,CA,63.52313167259786,NA,NA
92869,Orange County,CA,NA,32.9073482428115,NA
92882,Riverside County,CA,NA,NA,45.13888888888889
93033,Ventura County,CA,NA,43.13099041533546,NA
93257,Tulare County,CA,NA,NA,75
93274,Tulare County,CA,NA,36.63471778487753,NA
93292,Tulare County,CA,NA,NA,40.0462962962963
93304,Kern County,CA,NA,57.082002129925456,NA
93305,Kern County,CA,28.11387900355872,NA,NA
93311,Kern County,CA,NA,82.53461128860489,NA
93401,San Luis Obispo County,CA,38.79003558718861,NA,NA
93402,San Luis Obispo County,CA,NA,NA,68.75
94025,San Mateo County,CA,NA,23.74866879659212,NA
94043,Santa Clara County,CA,97.15302491103202,NA,NA
94062,San Mateo County,CA,NA,34.291799787007456,NA
94066,San Mateo County,CA,75.62277580071174,NA,NA
94087,Santa Clara County,CA,83.45195729537367,NA,NA
94107,San Francisco County,CA,NA,85.41001064962727,NA
94109,San Francisco County,CA,NA,NA,56.71296296296296
94114,San Francisco County,CA,NA,36.102236421725244,NA
94116,San Francisco County,CA,62.45551601423488,64.00425985090521,NA
94117,San Francisco County,CA,76.33451957295374,NA,NA
94121,San Francisco County,CA,NA,86.36847710330139,NA
94133,San Francisco County,CA,71.53024911032028,NA,NA
94403,San Mateo County,CA,35.05338078291815,NA,NA
94509,Contra Costa County,CA,NA,31.842385516506923,37.73148148148148
94520,Contra Costa County,CA,46.97508896797153,NA,NA
94521,Contra Costa County,CA,76.51245551601423,NA,NA
94545,Alameda County,CA,NA,NA,91.20370370370371
94550,Alameda County,CA,NA,NA,65.97222222222221
94559,Napa County,CA,NA,NA,34.9537037037037
94571,Solano County,CA,NA,NA,99.30555555555556
94572,Contra Costa County,CA,84.51957295373666,NA,NA
94595,Contra Costa County,CA,NA,NA,6.712962962962964
94598,Contra Costa County,CA,60.14234875444839,NA,NA
94605,Alameda County,CA,54.62633451957295,NA,NA
94607,Alameda County,CA,85.05338078291815,78.27476038338658,NA
94608,Alameda County,CA,75.08896797153025,NA,NA
94612,Alameda County,CA,56.405693950177934,NA,NA
94618,Alameda County,CA,NA,NA,52.31481481481482
94619,Alameda County,CA,NA,NA,61.80555555555556
94704,Alameda County,CA,89.85765124555161,NA,NA
94901,Marin County,CA,NA,26.411075612353567,NA
94904,Marin County,CA,95.19572953736655,72.20447284345049,NA
94941,Marin County,CA,NA,28.8604898828541,NA
94954,Sonoma County,CA,33.27402135231316,NA,NA
95020,Santa Clara County,CA,NA,20.979765708200212,NA
95035,Santa Clara County,CA,33.45195729537366,58.04046858359957,NA
95037,Santa Clara County,CA,NA,47.71033013844516,NA
95112,Santa Clara County,CA,50.71174377224199,96.48562300319489,NA
95118,Santa Clara County,CA,73.30960854092527,NA,71.29629629629629
95123,Santa Clara County,CA,23.843416370106763,NA,NA
95127,Santa Clara County,CA,NA,31.52289669861555,NA
95129,Santa Clara County,CA,NA,NA,62.03703703703704
95134,Santa Clara County,CA,58.718861209964416,NA,NA
95324,Merced County,CA,NA,NA,77.77777777777779
95336,San Joaquin County,CA,NA,NA,20.833333333333336
95340,Merced County,CA,NA,92.43876464323749,NA
95389,Mariposa County,CA,NA,98.61554845580405,NA
95405,Sonoma County,CA,NA,75.07987220447284,NA
95531,Del Norte County,CA,NA,NA,25.462962962962965
95616,Yolo County,CA,NA,NA,99.53703703703704
95667,El Dorado County,CA,21.17437722419929,NA,NA
95726,El Dorado County,CA,NA,34.93077742279021,NA
95747,Placer County,CA,NA,NA,8.796296296296296
95816,Sacramento County,CA,NA,49.30777422790202,NA
95822,Sacramento County,CA,NA,29.925452609158683,NA
95835,Sacramento County,CA,NA,71.03301384451545,NA
95959,Nevada County,CA,NA,59.105431309904155,NA
95963,Glenn County,CA,NA,98.93503727369543,NA
96022,Tehama County,CA,60.854092526690394,NA,NA
96080,Tehama County,CA,NA,NA,29.629629629629626
96161,Nevada County,CA,NA,88.604898828541,NA
80004,Jefferson County,CO,NA,NA,28.47222222222222
80014,Arapahoe County,CO,NA,43.76996805111821,NA
80026,Boulder County,CO,NA,NA,50.92592592592593
80122,Arapahoe County,CO,NA,35.56975505857295,37.03703703703704
80123,Jefferson County,CO,NA,60.27689030883919,67.5925925925926
80127,Jefferson County,CO,32.028469750889684,NA,NA
80214,Jefferson County,CO,NA,48.45580404685836,NA
80219,Denver County,CO,3.7366548042704624,NA,NA
80521,Larimer County,CO,91.28113879003558,NA,NA
80525,Larimer County,CO,62.811387900355875,NA,NA
80549,Larimer County,CO,NA,76.78381256656017,NA
80550,Weld County,CO,NA,87.8594249201278,NA
80634,Weld County,CO,NA,10.75612353567625,NA
80723,Morgan County,CO,71.53024911032028,NA,NA
80751,Logan County,CO,54.092526690391466,NA,NA
80906,El Paso County,CO,NA,27.36954206602769,NA
81001,Pueblo County,CO,NA,30.031948881789138,NA
81005,Pueblo County,CO,NA,87.11395101171459,NA
81122,La Plata County,CO,NA,72.94994675186368,NA
06002,Hartford County,CT,NA,59.7444089456869,NA
06010,Hartford County,CT,NA,NA,1.6203703703703702
06070,Hartford County,CT,74.37722419928826,NA,NA
06078,Hartford County,CT,NA,NA,72.22222222222221
06082,Hartford County,CT,NA,83.17358892438764,NA
06107,Hartford County,CT,90.92526690391459,NA,37.5
06117,Hartford County,CT,69.21708185053382,NA,NA
06441,Middlesex County,CT,NA,NA,96.29629629629629
06443,New Haven County,CT,NA,21.61874334398296,NA
06460,New Haven County,CT,19.750889679715304,NA,NA
06472,New Haven County,CT,94.66192170818505,NA,NA
06477,New Haven County,CT,NA,76.89030883919062,NA
06478,New Haven County,CT,NA,84.45154419595315,NA
06489,Hartford County,CT,NA,12.35356762513312,NA
06492,New Haven County,CT,37.544483985765126,NA,NA
06498,Middlesex County,CT,69.03914590747331,NA,NA
06513,New Haven County,CT,NA,51.33120340788072,16.89814814814815
06515,New Haven County,CT,NA,72.31096911608094,NA
06517,New Haven County,CT,NA,76.57082002129926,NA
06610,Fairfield County,CT,18.14946619217082,NA,NA
06614,Fairfield County,CT,NA,47.92332268370607,21.75925925925926
06705,New Haven County,CT,NA,19.701810436634716,NA
06708,New Haven County,CT,NA,23.003194888178914,NA
06776,Litchfield County,CT,NA,70.07454739084132,NA
06787,Litchfield County,CT,NA,58.04046858359957,NA
06790,Litchfield County,CT,NA,NA,4.62962962962963
06810,Fairfield County,CT,NA,14.164004259850904,NA
06830,Fairfield County,CT,NA,NA,9.722222222222223
06831,Fairfield County,CT,NA,46.11288604898828,NA
06851,Fairfield County,CT,40.569395017793596,NA,NA
06878,Fairfield County,CT,NA,NA,86.11111111111111
06880,Fairfield County,CT,NA,66.24068157614484,NA
06897,Fairfield County,CT,82.56227758007117,NA,68.51851851851852
19702,New Castle County,DE,NA,35.99574014909478,NA
19711,New Castle County,DE,NA,NA,80.0925925925926
19950,Sussex County,DE,NA,59.424920127795524,NA
19977,Kent County,DE,NA,NA,74.07407407407408
32034,Nassau County,FL,34.69750889679715,NA,NA
32092,St. Johns County,FL,NA,51.97018104366348,NA
32127,Volusia County,FL,42.704626334519574,NA,NA
32132,Volusia County,FL,NA,50.798722044728436,NA
32159,Lake County,FL,NA,65.0692225772098,NA
32162,Sumter County,FL,NA,25.34611288604899,NA
32168,Volusia County,FL,86.12099644128114,NA,22.685185185185187
32177,Putnam County,FL,NA,NA,33.56481481481482
32208,Duval County,FL,NA,21.405750798722046,NA
32225,Duval County,FL,19.572953736654807,11.075612353567625,NA
32233,Duval County,FL,NA,65.28221512247072,NA
32244,Duval County,FL,16.548042704626333,NA,NA
32257,Duval County,FL,NA,15.654952076677317,NA
32258,Duval County,FL,69.57295373665481,NA,NA
32459,Walton County,FL,NA,92.54526091586794,NA
32503,Escambia County,FL,NA,NA,57.17592592592593
32505,Escambia County,FL,NA,7.135250266240682,NA
32514,Escambia County,FL,13.87900355871886,NA,NA
32533,Escambia County,FL,NA,13.525026624068156,NA
32539,Okaloosa County,FL,NA,44.19595314164005,NA
32548,Okaloosa County,FL,NA,38.232161874334395,NA
32570,Santa Rosa County,FL,NA,3.5143769968051117,NA
32578,Okaloosa County,FL,NA,NA,17.59259259259259
32583,Santa Rosa County,FL,NA,40.2555910543131,NA
32608,Alachua County,FL,20.106761565836297,NA,NA
32720,Volusia County,FL,NA,NA,47.4537037037037
32726,Lake County,FL,NA,NA,27.77777777777778
32746,Seminole County,FL,NA,NA,40.50925925925926
32765,Seminole County,FL,NA,28.96698615548456,NA
32776,Lake County,FL,NA,99.2545260915868,NA
32792,Orange County,FL,NA,NA,17.36111111111111
32807,Orange County,FL,NA,NA,69.44444444444444
32825,Orange County,FL,20.99644128113879,34.398296059637914,NA
32837,Orange County,FL,NA,70.92651757188499,NA
32901,Brevard County,FL,NA,NA,18.287037037037038
32909,Brevard County,FL,25.444839857651246,NA,NA
32940,Brevard County,FL,NA,NA,4.398148148148148
32958,Indian River County,FL,NA,67.94462193823216,NA
32962,Indian River County,FL,NA,27.263045793397232,NA
33014,Miami-Dade County,FL,NA,49.6272630457934,NA
33021,Broward County,FL,NA,95.63365282215123,3.7037037037037033
33025,Broward County,FL,44.83985765124555,NA,NA
33026,Broward County,FL,NA,NA,63.42592592592593
33029,Broward County,FL,43.06049822064057,NA,NA
33055,Miami-Dade County,FL,NA,64.96272630457935,NA
33064,Broward County,FL,NA,12.88604898828541,NA
33068,Broward County,FL,NA,89.66986155484558,NA
33073,Broward County,FL,NA,55.16506922257721,NA
33125,Miami-Dade County,FL,NA,24.600638977635782,NA
33126,Miami-Dade County,FL,NA,NA,93.98148148148148
33133,Miami-Dade County,FL,NA,51.75718849840255,NA
33135,Miami-Dade County,FL,55.871886120996436,NA,NA
33139,Miami-Dade County,FL,41.99288256227758,NA,NA
33147,Miami-Dade County,FL,22.064056939501782,NA,NA
33165,Miami-Dade County,FL,NA,23.109691160809373,NA
33168,Miami-Dade County,FL,NA,51.22470713525027,NA
33174,Miami-Dade County,FL,NA,71.1395101171459,NA
33178,Miami-Dade County,FL,87.36654804270462,NA,NA
33181,Miami-Dade County,FL,NA,78.80724174653886,NA
33309,Broward County,FL,NA,31.629392971246006,NA
33314,Broward County,FL,NA,37.59318423855165,NA
33319,Broward County,FL,NA,NA,38.657407407407405
33324,Broward County,FL,NA,57.401490947816825,NA
33326,Broward County,FL,NA,87.3269435569755,63.657407407407405
33334,Broward County,FL,80.6049822064057,NA,NA
33408,Palm Beach County,FL,NA,46.96485623003195,NA
33410,Palm Beach County,FL,NA,NA,24.074074074074073
33415,Palm Beach County,FL,NA,46.325878594249204,NA
33445,Palm Beach County,FL,NA,45.473908413205535,NA
33458,Palm Beach County,FL,14.412811387900357,NA,NA
33472,Palm Beach County,FL,NA,NA,19.444444444444446
33484,Palm Beach County,FL,NA,NA,78.47222222222221
33496,Palm Beach County,FL,NA,65.70820021299254,NA
33540,Pasco County,FL,NA,73.48242811501598,NA
33556,Hillsborough County,FL,NA,88.49840255591054,NA
33617,Hillsborough County,FL,NA,22.683706070287542,NA
33705,Pinellas County,FL,NA,NA,61.57407407407407
33710,Pinellas County,FL,NA,67.62513312034079,NA
33711,Pinellas County,FL,NA,NA,57.638888888888886
33777,Pinellas County,FL,NA,50.3727369542066,NA
33872,Highlands County,FL,NA,51.863684771033014,NA
33917,Lee County,FL,35.231316725978644,NA,NA
33928,Lee County,FL,NA,21.5122470713525,NA
33966,Lee County,FL,NA,NA,67.12962962962963
33967,Lee County,FL,85.40925266903915,NA,NA
33973,Lee County,FL,66.19217081850533,NA,NA
33990,Lee County,FL,NA,NA,44.675925925925924
34109,Collier County,FL,NA,NA,96.06481481481481
34113,Collier County,FL,NA,39.51011714589989,NA
34114,Collier County,FL,NA,23.85516506922258,NA
34202,Manatee County,FL,NA,26.198083067092654,NA
34203,Manatee County,FL,37.72241992882562,NA,NA
34224,Charlotte County,FL,NA,77.74227902023429,NA
34243,Manatee County,FL,NA,16.61341853035144,NA
34288,Sarasota County,FL,NA,54.20660276890309,NA
34432,Marion County,FL,NA,NA,45.601851851851855
34453,Citrus County,FL,NA,96.1661341853035,NA
34476,Marion County,FL,NA,51.01171458998935,NA
34606,Hernando County,FL,NA,74.22790202342918,NA
34613,Hernando County,FL,54.982206405693944,NA,NA
34638,Pasco County,FL,NA,100,NA
34741,Osceola County,FL,13.345195729537366,NA,NA
34744,Osceola County,FL,63.879003558718864,NA,NA
34786,Orange County,FL,39.14590747330961,NA,NA
34983,St. Lucie County,FL,12.099644128113878,NA,NA
34994,Martin County,FL,NA,58.78594249201278,NA
34997,Martin County,FL,NA,5.431309904153355,48.148148148148145
30014,Newton County,GA,89.1459074733096,NA,NA
30032,DeKalb County,GA,NA,NA,61.111111111111114
30039,Gwinnett County,GA,51.42348754448398,36.42172523961661,NA
30040,Forsyth County,GA,41.281138790035584,NA,NA
30041,Forsyth County,GA,NA,30.031948881789138,NA
30043,Gwinnett County,GA,89.5017793594306,NA,NA
30045,Gwinnett County,GA,NA,NA,49.074074074074076
30066,Cobb County,GA,66.54804270462633,NA,NA
30068,Cobb County,GA,NA,NA,75.92592592592592
30076,Fulton County,GA,NA,NA,45.83333333333333
30078,Gwinnett County,GA,72.41992882562278,NA,97.45370370370371
30083,DeKalb County,GA,NA,NA,81.25
30096,Gwinnett County,GA,17.793594306049823,NA,NA
30097,Fulton County,GA,NA,37.273695420660275,NA
30102,Cherokee County,GA,NA,20.66027689030884,NA
30108,Carroll County,GA,79.1814946619217,NA,NA
30117,Carroll County,GA,NA,NA,66.43518518518519
30134,Douglas County,GA,15.480427046263346,NA,NA
30176,Haralson County,GA,NA,85.51650692225772,NA
30180,Carroll County,GA,NA,64.32374866879658,NA
30182,Carroll County,GA,97.50889679715303,NA,NA
30188,Cherokee County,GA,NA,10.969116080937168,NA
30236,Clayton County,GA,NA,NA,42.36111111111111
30238,Clayton County,GA,NA,NA,67.5925925925926
30253,Henry County,GA,41.81494661921708,NA,NA
30265,Coweta County,GA,NA,28.434504792332266,NA
30276,Coweta County,GA,NA,54.10010649627262,NA
30277,Coweta County,GA,NA,48.02981895633653,NA
30281,Henry County,GA,NA,NA,32.175925925925924
30314,Fulton County,GA,NA,69.00958466453673,NA
30315,Fulton County,GA,NA,17.252396166134183,NA
30324,Fulton County,GA,92.52669039145907,NA,NA
30327,Fulton County,GA,NA,71.8849840255591,NA
30338,DeKalb County,GA,NA,NA,25.462962962962965
30340,DeKalb County,GA,NA,87.00745473908414,NA
30350,Fulton County,GA,NA,NA,47.91666666666667
30507,Hall County,GA,NA,NA,56.481481481481474
30533,Lumpkin County,GA,NA,86.04898828541,NA
30605,Clarke County,GA,NA,NA,73.61111111111111
30622,Oconee County,GA,NA,70.28753993610223,NA
30656,Walton County,GA,45.55160142348754,67.19914802981896,NA
30707,Walker County,GA,27.935943060498218,NA,NA
30736,Catoosa County,GA,NA,13.738019169329075,NA
30741,Walker County,GA,NA,51.97018104366348,NA
30817,Lincoln County,GA,NA,NA,75.46296296296296
30906,Richmond County,GA,NA,NA,37.96296296296296
30907,Columbia County,GA,NA,76.25133120340789,NA
31061,Baldwin County,GA,NA,18.636847710330137,NA
31211,Bibb County,GA,NA,NA,73.37962962962963
31406,Chatham County,GA,NA,18.956336528221513,NA
31410,Chatham County,GA,NA,NA,47.22222222222222
31533,Coffee County,GA,NA,69.96805111821087,75.23148148148148
31602,Lowndes County,GA,NA,30.8839190628328,NA
31721,Dougherty County,GA,NA,44.3024494142705,NA
31730,Mitchell County,GA,60.320284697508896,NA,NA
31750,Ben Hill County,GA,NA,19.488817891373802,NA
31757,Thomas County,GA,52.84697508896797,NA,NA
31768,Colquitt County,GA,NA,84.23855165069223,NA
31794,Tift County,GA,NA,50.905218317358894,NA
96720,Hawaii County,HI,NA,56.975505857295,NA
96734,Honolulu County,HI,NA,NA,7.638888888888889
96816,Honolulu County,HI,NA,12.140575079872203,NA
96817,Honolulu County,HI,NA,NA,2.314814814814815
83204,Bannock County,ID,NA,42.17252396166134,NA
83211,Power County,ID,63.345195729537366,NA,NA
83301,Twin Falls County,ID,NA,8.413205537806178,NA
83330,Gooding County,ID,NA,NA,58.10185185185185
83333,Blaine County,ID,NA,42.49201277955272,NA
83455,Teton County,ID,98.22064056939502,NA,NA
83646,Ada County,ID,NA,22.470713525026625,NA
83651,Canyon County,ID,NA,8.20021299254526,NA
83687,Canyon County,ID,12.277580071174377,NA,NA
83709,Ada County,ID,NA,2.5559105431309903,NA
83713,Ada County,ID,NA,11.395101171458998,NA
83716,Ada County,ID,NA,27.582534611288605,NA
83814,Kootenai County,ID,NA,NA,23.61111111111111
83815,Kootenai County,ID,NA,NA,13.194444444444445
83843,Latah County,ID,80.0711743772242,NA,NA
83854,Kootenai County,ID,NA,15.228966986155484,NA
83858,Kootenai County,ID,NA,NA,70.83333333333334
83864,Bonner County,ID,NA,NA,86.57407407407408
60002,Lake County,IL,83.62989323843416,NA,NA
60007,Cook County,IL,NA,12.247071352502664,NA
60010,Lake County,IL,24.91103202846975,NA,14.814814814814813
60013,McHenry County,IL,38.967971530249116,NA,NA
60014,McHenry County,IL,14.590747330960854,NA,NA
60015,Lake County,IL,87.72241992882563,NA,NA
60016,Cook County,IL,NA,29.499467518636845,NA
60025,Cook County,IL,NA,2.8753993610223643,NA
60030,Lake County,IL,NA,16.187433439829608,NA
60031,Lake County,IL,58.362989323843415,NA,NA
60047,Lake County,IL,NA,54.419595314164006,NA
60056,Cook County,IL,NA,33.43982960596379,NA
60076,Cook County,IL,NA,15.761448349307775,NA
60083,Lake County,IL,68.14946619217082,NA,NA
60089,Lake County,IL,63.70106761565836,NA,14.120370370370368
60097,McHenry County,IL,64.41281138790036,NA,NA
60101,DuPage County,IL,43.41637010676156,NA,NA
60126,DuPage County,IL,NA,1.4909478168264112,NA
60140,Kane County,IL,70.1067615658363,NA,NA
60142,McHenry County,IL,NA,53.35463258785943,1.1574074074074074
60164,Cook County,IL,NA,92.97124600638978,NA
60187,DuPage County,IL,NA,NA,27.083333333333332
60190,DuPage County,IL,NA,75.29286474973375,NA
60304,Cook County,IL,NA,40.57507987220447,NA
60409,Cook County,IL,91.10320284697508,NA,NA
60423,Will County,IL,NA,15.54845580404686,NA
60426,Cook County,IL,NA,92.11927582534611,NA
60431,Will County,IL,NA,87.43343982960596,NA
60438,Cook County,IL,NA,NA,23.84259259259259
60440,Will County,IL,11.032028469750891,NA,NA
60441,Will County,IL,NA,NA,28.240740740740737
60451,Will County,IL,35.587188612099645,NA,NA
60452,Cook County,IL,33.629893238434164,NA,NA
60453,Cook County,IL,NA,NA,60.879629629629626
60466,Cook County,IL,NA,61.23535676251331,NA
60467,Cook County,IL,68.32740213523132,86.26198083067092,NA
60523,DuPage County,IL,NA,35.250266240681576,NA
60525,Cook County,IL,NA,74.76038338658148,NA
60526,Cook County,IL,NA,NA,92.12962962962963
60527,DuPage County,IL,NA,7.24174653887114,NA
60534,Cook County,IL,86.65480427046263,NA,NA
60543,Kendall County,IL,NA,69.1160809371672,NA
60561,DuPage County,IL,40.39145907473309,NA,NA
60585,Will County,IL,NA,39.19062832800852,NA
60586,Will County,IL,NA,NA,46.06481481481482
60611,Cook County,IL,NA,38.55165069222577,NA
60615,Cook County,IL,15.658362989323843,NA,NA
60616,Cook County,IL,NA,52.18317358892439,NA
60626,Cook County,IL,NA,22.790202342917997,NA
60628,Cook County,IL,44.661921708185055,69.32907348242811,NA
60631,Cook County,IL,20.818505338078293,NA,NA
60636,Cook County,IL,NA,NA,20.13888888888889
60637,Cook County,IL,NA,56.33652822151225,NA
60640,Cook County,IL,NA,38.977635782747605,NA
60641,Cook County,IL,NA,NA,69.21296296296296
60643,Cook County,IL,NA,56.656017039403615,NA
60646,Cook County,IL,NA,55.59105431309904,NA
60649,Cook County,IL,NA,73.05644302449414,NA
60714,Cook County,IL,NA,NA,9.027777777777777
60901,Kankakee County,IL,NA,9.584664536741213,NA
61103,Winnebago County,IL,NA,58.57294994675186,NA
61109,Winnebago County,IL,93.77224199288257,NA,NA
61282,Rock Island County,IL,NA,67.94462193823216,NA
61571,Tazewell County,IL,55.33807829181495,NA,NA
61616,Peoria County,IL,NA,NA,94.67592592592592
61704,McLean County,IL,NA,NA,41.66666666666667
61832,Vermilion County,IL,NA,66.13418530351439,NA
62226,St. Clair County,IL,NA,17.784877529286476,NA
62230,Clinton County,IL,72.06405693950177,NA,NA
62521,Macon County,IL,7.6512455516014235,NA,NA
62526,Macon County,IL,NA,22.896698615548456,NA
62703,Sangamon County,IL,NA,NA,31.01851851851852
62704,Sangamon County,IL,NA,75.9318423855165,NA
46016,Madison County,IN,8.896797153024911,NA,NA
46036,Madison County,IN,NA,38.33865814696485,NA
46074,Hamilton County,IN,NA,42.49201277955272,NA
46112,Hendricks County,IN,NA,NA,83.33333333333334
46131,Johnson County,IN,NA,NA,9.49074074074074
46140,Hancock County,IN,NA,12.99254526091587,NA
46142,Johnson County,IN,NA,8.732694355697552,NA
46160,Brown County,IN,NA,90.20234291799787,NA
46176,Shelby County,IN,NA,7.77422790202343,NA
46217,Marion County,IN,79.8932384341637,20.447284345047922,NA
46254,Marion County,IN,52.135231316725985,97.97657082002131,NA
46259,Marion County,IN,NA,NA,97.68518518518519
46311,Lake County,IN,21.70818505338078,12.034078807241746,NA
46319,Lake County,IN,NA,17.678381256656017,NA
46322,Lake County,IN,NA,65.49520766773162,NA
46323,Lake County,IN,NA,12.779552715654951,NA
46327,Lake County,IN,80.2491103202847,NA,NA
46350,LaPorte County,IN,5.160142348754448,NA,NA
46385,Porter County,IN,4.6263345195729535,NA,NA
46392,Jasper County,IN,NA,82.85410010649628,NA
46406,Lake County,IN,45.55160142348754,NA,NA
46514,Elkhart County,IN,NA,64.43024494142705,NA
46516,Elkhart County,IN,NA,51.43769968051119,NA
46526,Elkhart County,IN,70.46263345195729,39.72310969116081,NA
46528,Elkhart County,IN,55.51601423487544,NA,NA
46561,St. Joseph County,IN,NA,91.48029818956337,NA
46614,St. Joseph County,IN,NA,74.4408945686901,NA
46816,Allen County,IN,NA,70.82002129925452,NA
46952,Grant County,IN,NA,21.831735889243873,NA
47012,Franklin County,IN,88.07829181494662,NA,NA
47130,Clark County,IN,NA,3.301384451544196,NA
47172,Clark County,IN,NA,NA,50.46296296296296
47201,Bartholomew County,IN,NA,8.945686900958465,NA
47265,Jennings County,IN,NA,71.24600638977637,NA
47331,Fayette County,IN,30.782918149466195,46.00638977635783,55.092592592592595
47362,Henry County,IN,NA,NA,7.87037037037037
47401,Monroe County,IN,NA,52.822151224707135,NA
47404,Monroe County,IN,NA,NA,62.268518518518526
47553,Martin County,IN,NA,NA,87.26851851851852
47712,Vanderburgh County,IN,NA,53.78061767838126,NA
47802,Vigo County,IN,NA,27.902023429179977,NA
47807,Vigo County,IN,NA,90.41533546325878,NA
47885,Vigo County,IN,NA,51.6506922257721,NA
47918,Fountain County,IN,NA,NA,69.9074074074074
50010,Story County,IA,NA,52.39616613418531,NA
50112,Poweshiek County,IA,68.68327402135232,NA,NA
50210,Warren County,IA,99.8220640569395,NA,NA
50219,Marion County,IA,NA,NA,51.85185185185185
50312,Polk County,IA,65.65836298932385,NA,NA
50316,Polk County,IA,NA,94.56869009584665,NA
50461,Mitchell County,IA,NA,65.814696485623,NA
50613,Black Hawk County,IA,NA,9.052183173588926,NA
50701,Black Hawk County,IA,NA,NA,35.879629629629626
51108,Woodbury County,IA,NA,93.29073482428115,NA
51501,Pottawattamie County,IA,9.9644128113879,NA,NA
52246,Johnson County,IA,85.94306049822063,NA,NA
52310,Jones County,IA,85.76512455516014,NA,NA
52349,Benton County,IA,53.736654804270465,NA,NA
52722,Scott County,IA,11.209964412811388,NA,NA
52803,Scott County,IA,NA,NA,52.31481481481482
66046,Douglas County,KS,NA,NA,71.99074074074075
66061,Johnson County,KS,NA,2.4494142705005326,NA
66062,Johnson County,KS,23.665480427046262,NA,NA
66071,Miami County,KS,NA,60.809371671991485,NA
66102,Wyandotte County,KS,NA,75.71884984025559,NA
66103,Wyandotte County,KS,56.04982206405694,NA,NA
66209,Johnson County,KS,NA,NA,66.89814814814815
66213,Johnson County,KS,NA,57.93397231096912,NA
66216,Johnson County,KS,NA,39.29712460063898,NA
66618,Shawnee County,KS,NA,88.3919062832801,NA
67005,Cowley County,KS,61.032028469750884,NA,NA
67502,Reno County,KS,NA,40.894568690095845,NA
67601,Ellis County,KS,NA,73.26943556975506,NA
40118,Jefferson County,KY,NA,67.19914802981896,NA
40212,Jefferson County,KY,16.370106761565836,NA,NA
40214,Jefferson County,KY,32.91814946619217,NA,NA
40223,Jefferson County,KY,87.54448398576513,31.309904153354633,NA
40245,Jefferson County,KY,72.59786476868328,NA,NA
40299,Jefferson County,KY,22.597864768683273,15.335463258785943,NA
40351,Rowan County,KY,61.20996441281139,NA,NA
40361,Bourbon County,KY,23.131672597864767,NA,NA
40484,Lincoln County,KY,NA,82.21512247071352,NA
40741,Laurel County,KY,12.455516014234876,28.008519701810435,NA
40906,Knox County,KY,NA,NA,34.02777777777778
41006,Pendleton County,KY,NA,94.88817891373802,NA
41040,Pendleton County,KY,NA,NA,89.12037037037037
41240,Johnson County,KY,NA,NA,54.39814814814815
41465,Magoffin County,KY,40.213523131672595,NA,NA
42044,Marshall County,KY,NA,79.12673056443025,NA
42071,Calloway County,KY,NA,29.818956336528224,NA
42240,Christian County,KY,NA,70.18104366347177,NA
42420,Henderson County,KY,67.43772241992883,NA,NA
42431,Hopkins County,KY,NA,18.10436634717785,NA
42503,Pulaski County,KY,NA,38.871139510117146,NA
42718,Taylor County,KY,NA,6.7092651757188495,NA
70001,Jefferson Parish,LA,NA,NA,90.50925925925925
70005,Jefferson Parish,LA,22.419928825622776,NA,NA
70047,St. Charles Parish,LA,NA,91.26730564430245,NA
70058,Jefferson Parish,LA,NA,8.519701810436635,NA
70068,St. John the Baptist Parish,LA,5.871886120996441,NA,NA
70094,Jefferson Parish,LA,NA,85.62300319488818,NA
70119,Orleans Parish,LA,53.380782918149464,4.472843450479233,NA
70301,Lafourche Parish,LA,NA,6.070287539936102,NA
70438,Washington Parish,LA,NA,9.904153354632587,NA
70452,St. Tammany Parish,LA,NA,21.938232161874335,NA
70458,St. Tammany Parish,LA,NA,16.50692225772098,NA
70460,St. Tammany Parish,LA,NA,NA,62.731481481481474
70503,Lafayette Parish,LA,NA,43.024494142705,NA
70506,Lafayette Parish,LA,4.270462633451958,NA,NA
70508,Lafayette Parish,LA,NA,NA,66.20370370370371
70512,St. Landry Parish,LA,45.90747330960854,NA,NA
70563,Iberia Parish,LA,NA,44.621938232161874,NA
70570,St. Landry Parish,LA,NA,7.667731629392971,NA
70605,Calcasieu Parish,LA,NA,18.849840255591054,NA
70634,Beauregard Parish,LA,NA,25.77209797657082,NA
70655,Allen Parish,LA,98.04270462633453,NA,NA
70669,Calcasieu Parish,LA,37.72241992882562,NA,NA
70726,Livingston Parish,LA,1.2455516014234875,NA,NA
70802,East Baton Rouge Parish,LA,NA,28.221512247071352,NA
70808,East Baton Rouge Parish,LA,NA,NA,31.712962962962965
70815,East Baton Rouge Parish,LA,NA,NA,82.63888888888889
70817,East Baton Rouge Parish,LA,NA,33.97231096911608,NA
71019,Red River Parish,LA,100,NA,NA
71104,Caddo Parish,LA,NA,46.85835995740149,NA
71105,Caddo Parish,LA,NA,31.948881789137378,NA
71111,Bossier Parish,LA,NA,NA,23.37962962962963
71202,Ouachita Parish,LA,28.46975088967972,74.12140575079871,NA
71260,Union Parish,LA,NA,97.12460063897763,NA
71269,Richland Parish,LA,NA,NA,47.68518518518518
71303,Rapides Parish,LA,83.27402135231317,NA,NA
71417,Grant Parish,LA,NA,83.28008519701811,NA
04011,Cumberland County,ME,NA,58.253461128860494,NA
04072,York County,ME,NA,NA,25
04073,York County,ME,NA,21.72523961661342,NA
04074,Cumberland County,ME,NA,NA,57.638888888888886
04240,Androscoggin County,ME,81.85053380782918,NA,NA
04426,Piscataquis County,ME,NA,NA,92.36111111111111
04756,Aroostook County,ME,NA,96.80511182108627,NA
04950,Somerset County,ME,NA,NA,80.78703703703704
20601,Charles County,MD,NA,63.578274760383394,NA
20743,Prince George's County,MD,79.35943060498221,NA,NA
20744,Prince George's County,MD,NA,NA,81.94444444444444
20748,Prince George's County,MD,NA,80.19169329073482,NA
20770,Prince George's County,MD,NA,65.17571884984025,NA
20772,Prince George's County,MD,NA,93.07774227902024,NA
20878,Montgomery County,MD,56.22775800711744,NA,NA
21014,Harford County,MD,NA,20.340788072417464,NA
21037,Anne Arundel County,MD,NA,88.07241746538871,NA
21043,Howard County,MD,49.46619217081851,NA,NA
21047,Harford County,MD,NA,95.95314164004259,NA
21054,Anne Arundel County,MD,88.25622775800713,NA,NA
21060,Anne Arundel County,MD,19.395017793594306,NA,NA
21093,Baltimore County,MD,NA,72.73695420660276,NA
21113,Anne Arundel County,MD,NA,68.90308839190628,NA
21133,Baltimore County,MD,NA,NA,78.24074074074075
21161,Harford County,MD,NA,94.14270500532481,NA
21206,Baltimore city,MD,NA,NA,21.52777777777778
21207,Baltimore County,MD,38.256227758007114,NA,NA
21208,Baltimore County,MD,NA,NA,10.87962962962963
21209,Baltimore County,MD,NA,43.23748668796592,NA
21210,Baltimore city,MD,70.99644128113879,NA,NA
21217,Baltimore city,MD,NA,72.63045793397231,NA
21221,Baltimore County,MD,NA,53.674121405750796,NA
21236,Baltimore County,MD,NA,65.92119275825347,NA
21244,Baltimore County,MD,NA,24.38764643237487,NA
21403,Anne Arundel County,MD,NA,NA,85.87962962962963
21601,Talbot County,MD,NA,29.179978700745473,NA
21663,Talbot County,MD,NA,77.10330138445154,NA
21727,Frederick County,MD,NA,84.02555910543131,NA
21783,Washington County,MD,74.02135231316726,NA,NA
21811,Worcester County,MD,NA,17.57188498402556,15.74074074074074
01013,Hampden County,MA,NA,NA,84.25925925925925
01030,Hampden County,MA,NA,NA,88.19444444444444
01082,Hampshire County,MA,NA,72.52396166134186,NA
01085,Hampden County,MA,NA,25.133120340788075,NA
01089,Hampden County,MA,NA,19.06283280085197,NA
01104,Hampden County,MA,NA,0.10649627263045794,NA
01109,Hampden County,MA,NA,5.537806176783812,NA
01220,Berkshire County,MA,NA,27.689030883919063,NA
01247,Berkshire County,MA,NA,6.496272630457935,NA
01430,Worcester County,MA,NA,NA,79.16666666666666
01469,Middlesex County,MA,93.41637010676158,50.47923322683706,NA
01520,Worcester County,MA,70.64056939501779,NA,NA
01524,Worcester County,MA,79.00355871886121,NA,NA
01610,Worcester County,MA,NA,98.40255591054313,NA
01701,Middlesex County,MA,NA,NA,6.481481481481481
01702,Middlesex County,MA,NA,NA,48.379629629629626
01760,Middlesex County,MA,23.309608540925268,4.898828541001065,NA
01775,Middlesex County,MA,NA,NA,89.81481481481481
01776,Middlesex County,MA,29.00355871886121,28.647497337593187,NA
01810,Essex County,MA,70.2846975088968,NA,NA
01821,Middlesex County,MA,NA,NA,6.944444444444445
01824,Middlesex County,MA,NA,NA,26.851851851851855
01826,Middlesex County,MA,NA,NA,16.435185185185187
01841,Essex County,MA,NA,2.3429179978700745,NA
01845,Essex County,MA,NA,45.15441959531417,NA
01851,Middlesex County,MA,NA,46.219382321618745,NA
01852,Middlesex County,MA,NA,0.5324813631522897,NA
01854,Middlesex County,MA,1.4234875444839856,3.727369542066028,NA
01864,Middlesex County,MA,NA,NA,44.44444444444444
01879,Middlesex County,MA,19.03914590747331,NA,NA
01886,Middlesex County,MA,NA,NA,75.69444444444444
01890,Middlesex County,MA,NA,NA,10.185185185185185
01906,Essex County,MA,57.47330960854092,NA,NA
01915,Essex County,MA,NA,91.9062832800852,NA
01930,Essex County,MA,NA,84.66453674121406,5.324074074074074
01940,Essex County,MA,NA,32.587859424920126,NA
01945,Essex County,MA,26.868327402135233,NA,NA
01950,Essex County,MA,NA,NA,16.203703703703702
01970,Essex County,MA,0.8896797153024912,NA,NA
01982,Essex County,MA,NA,NA,86.3425925925926
02026,Norfolk County,MA,3.3807829181494666,94.35569755058573,11.574074074074074
02030,Norfolk County,MA,NA,89.8828541001065,NA
02045,Plymouth County,MA,NA,36.84771033013845,NA
02054,Norfolk County,MA,NA,92.01277955271566,NA
02062,Norfolk County,MA,NA,29.39297124600639,NA
02072,Norfolk County,MA,4.98220640569395,NA,NA
02093,Norfolk County,MA,NA,78.91373801916933,NA
02111,Suffolk County,MA,NA,89.1373801916933,NA
02122,Suffolk County,MA,NA,0.21299254526091588,NA
02124,Suffolk County,MA,51.245551601423486,NA,NA
02129,Suffolk County,MA,NA,79.02023429179978,NA
02130,Suffolk County,MA,NA,87.75292864749734,NA
02132,Suffolk County,MA,NA,NA,3.935185185185185
02136,Suffolk County,MA,NA,2.768903088391906,NA
02138,Middlesex County,MA,NA,4.046858359957402,NA
02139,Middlesex County,MA,4.804270462633451,NA,31.25
02145,Middlesex County,MA,NA,NA,87.5
02151,Suffolk County,MA,0,0.8519701810436635,NA
02152,Suffolk County,MA,NA,NA,7.175925925925926
02171,Norfolk County,MA,19.9288256227758,NA,NA
02176,Middlesex County,MA,NA,4.366347177848776,NA
02184,Norfolk County,MA,NA,NA,43.28703703703704
02186,Norfolk County,MA,NA,43.45047923322684,NA
02190,Norfolk County,MA,NA,NA,90.04629629629629
02301,Plymouth County,MA,NA,6.3897763578274756,NA
02302,Plymouth County,MA,1.0676156583629894,NA,NA
02332,Plymouth County,MA,92.34875444839858,NA,NA
02360,Plymouth County,MA,0.5338078291814947,NA,NA
02368,Norfolk County,MA,8.362989323843415,3.62087326943557,NA
02370,Plymouth County,MA,NA,NA,41.2037037037037
02446,Norfolk County,MA,NA,NA,44.907407407407405
02474,Middlesex County,MA,NA,NA,89.35185185185185
02492,Norfolk County,MA,NA,NA,30.09259259259259
02655,Barnstable County,MA,NA,86.90095846645367,69.67592592592592
02703,Bristol County,MA,0.7117437722419928,NA,NA
02720,Bristol County,MA,NA,0,NA
02743,Bristol County,MA,NA,68.69009584664538,NA
02746,Bristol County,MA,NA,71.67199148029819,NA
02760,Bristol County,MA,6.227758007117438,NA,NA
02767,Bristol County,MA,15.12455516014235,NA,NA
02777,Bristol County,MA,NA,9.79765708200213,NA
02780,Bristol County,MA,NA,0.7454739084132056,NA
48001,St. Clair County,MI,95.55160142348754,NA,NA
48021,Macomb County,MI,6.049822064056939,NA,NA
48026,Macomb County,MI,48.220640569395016,NA,NA
48047,Macomb County,MI,NA,10.010649627263046,NA
48066,Macomb County,MI,NA,NA,54.861111111111114
48067,Oakland County,MI,NA,NA,52.083333333333336
48076,Oakland County,MI,NA,66.02768903088392,NA
48092,Macomb County,MI,88.79003558718861,63.578274760383394,NA
48101,Wayne County,MI,12.811387900355871,NA,NA
48103,Washtenaw County,MI,NA,95.42066027689032,NA
48134,Wayne County,MI,NA,NA,30.787037037037035
48135,Wayne County,MI,NA,89.56336528221513,NA
48152,Wayne County,MI,NA,21.19275825346113,NA
48162,Monroe County,MI,NA,NA,11.805555555555555
48168,Wayne County,MI,97.86476868327402,NA,NA
48178,Oakland County,MI,46.619217081850536,NA,NA
48180,Wayne County,MI,1.9572953736654803,NA,NA
48184,Wayne County,MI,NA,16.40042598509052,NA
48187,Wayne County,MI,NA,NA,6.25
48188,Wayne County,MI,7.829181494661921,4.792332268370607,NA
48192,Wayne County,MI,NA,NA,53.00925925925925
48197,Washtenaw County,MI,NA,49.52076677316294,NA
48221,Wayne County,MI,NA,3.8338658146964857,NA
48224,Wayne County,MI,1.601423487544484,NA,NA
48227,Wayne County,MI,2.491103202846975,NA,NA
48236,Wayne County,MI,76.86832740213522,NA,NA
48238,Wayne County,MI,NA,11.608093716719916,NA
48239,Wayne County,MI,NA,6.815761448349308,NA
48240,Wayne County,MI,NA,NA,48.61111111111111
48304,Oakland County,MI,NA,59.850905218317365,NA
48313,Macomb County,MI,NA,15.122470713525027,NA
48315,Macomb County,MI,25.800711743772244,NA,NA
48328,Oakland County,MI,NA,83.06709265175719,NA
48329,Oakland County,MI,NA,79.2332268370607,NA
48342,Oakland County,MI,8.718861209964412,24.068157614483493,NA
48348,Oakland County,MI,NA,55.48455804046858,NA
48353,Livingston County,MI,NA,NA,73.14814814814815
48422,Sanilac County,MI,NA,NA,83.10185185185185
48433,Genesee County,MI,NA,NA,95.37037037037037
48442,Oakland County,MI,NA,33.22683706070288,NA
48446,Lapeer County,MI,NA,16.080937167199146,NA
48601,Saginaw County,MI,NA,NA,4.166666666666666
48706,Bay County,MI,67.97153024911033,NA,NA
48723,Tuscola County,MI,92.70462633451957,NA,NA
48732,Bay County,MI,NA,78.59424920127796,NA
48739,Iosco County,MI,NA,NA,74.30555555555556
48817,Shiawassee County,MI,NA,81.04366347177849,NA
48827,Eaton County,MI,27.75800711743772,NA,NA
48840,Ingham County,MI,NA,44.83493077742279,NA
48843,Livingston County,MI,7.473309608540925,NA,NA
48867,Shiawassee County,MI,NA,NA,26.38888888888889
48893,Isabella County,MI,NA,89.24387646432375,NA
49001,Kalamazoo County,MI,37.01067615658363,NA,NA
49004,Kalamazoo County,MI,NA,71.45899893503727,NA
49010,Allegan County,MI,NA,30.670926517571885,NA
49015,Calhoun County,MI,NA,NA,35.41666666666667
49022,Berrien County,MI,47.86476868327402,NA,NA
49036,Branch County,MI,19.217081850533805,NA,NA
49053,Kalamazoo County,MI,NA,NA,80.55555555555556
49230,Jackson County,MI,NA,32.587859424920126,NA
49301,Kent County,MI,48.39857651245551,NA,NA
49315,Kent County,MI,NA,24.17465388711395,NA
49418,Kent County,MI,NA,66.87965921192757,NA
49428,Ottawa County,MI,NA,20.02129925452609,NA
49431,Mason County,MI,NA,56.54952076677316,NA
49461,Muskegon County,MI,NA,46.75186368477103,NA
49506,Kent County,MI,NA,NA,15.972222222222221
49740,Emmet County,MI,NA,43.87646432374867,NA
49749,Cheboygan County,MI,NA,NA,64.58333333333334
49855,Marquette County,MI,NA,11.288604898828542,NA
49866,Marquette County,MI,NA,NA,90.74074074074075
55021,Rice County,MN,NA,26.837060702875398,NA
55024,Dakota County,MN,34.519572953736656,NA,NA
55038,Washington County,MN,NA,65.60170394036209,NA
55051,Kanabec County,MN,NA,26.304579339723112,NA
55110,Ramsey County,MN,NA,50.159744408945684,NA
55125,Washington County,MN,26.51245551601423,NA,NA
55320,Wright County,MN,NA,90.84132055378062,NA
55337,Dakota County,MN,NA,15.761448349307775,NA
55350,McLeod County,MN,NA,60.27689030883919,NA
55379,Scott County,MN,41.637010676156585,NA,NA
55405,Hennepin County,MN,91.63701067615658,NA,NA
55416,Hennepin County,MN,NA,85.72949946751864,NA
55417,Hennepin County,MN,NA,97.65708200212993,NA
55419,Hennepin County,MN,31.13879003558719,NA,NA
55421,Anoka County,MN,68.86120996441281,NA,NA
55438,Hennepin County,MN,NA,84.77103301384452,NA
55803,St. Louis County,MN,NA,69.75505857294995,NA
55811,St. Louis County,MN,NA,3.407880724174654,NA
55901,Olmsted County,MN,NA,NA,73.8425925925926
55987,Winona County,MN,NA,NA,26.15740740740741
56007,Freeborn County,MN,NA,NA,34.49074074074074
56058,Le Sueur County,MN,NA,NA,71.52777777777779
56093,Waseca County,MN,NA,34.185303514377,NA
56288,Kandiyohi County,MN,NA,NA,100
56320,Stearns County,MN,83.80782918149467,NA,NA
56374,Stearns County,MN,NA,87.96592119275826,NA
56515,Otter Tail County,MN,NA,NA,49.76851851851852
56560,Clay County,MN,18.505338078291814,NA,NA
56601,Beltrami County,MN,NA,0.6389776357827476,NA
56751,Roseau County,MN,NA,86.47497337593184,NA
38635,Marshall County,MS,NA,66.77316293929712,NA
38637,DeSoto County,MS,NA,80.72417465388712,NA
38654,DeSoto County,MS,NA,82.42811501597444,NA
38771,Sunflower County,MS,98.57651245551602,NA,NA
38824,Prentiss County,MS,NA,NA,85.64814814814815
38829,Prentiss County,MS,NA,67.0926517571885,NA
38834,Alcorn County,MS,10.85409252669039,17.03940362087327,NA
38852,Tishomingo County,MS,NA,45.04792332268371,NA
38967,Montgomery County,MS,NA,91.79978700745474,NA
39046,Madison County,MS,NA,81.36315228966986,NA
39051,Leake County,MS,NA,NA,59.72222222222222
39056,Hinds County,MS,NA,81.68264110756124,NA
39114,Simpson County,MS,NA,NA,59.25925925925925
39204,Hinds County,MS,NA,83.38658146964856,NA
39305,Lauderdale County,MS,NA,73.58892438764644,NA
39466,Pearl River County,MS,NA,NA,67.36111111111111
39483,Marion County,MS,NA,92.22577209797656,NA
39501,Harrison County,MS,NA,12.460063897763577,NA
39520,Hancock County,MS,NA,25.98509052183174,NA
39556,Hancock County,MS,NA,54.73908413205538,NA
39701,Lowndes County,MS,93.95017793594306,NA,NA
39702,Lowndes County,MS,23.487544483985765,NA,NA
63010,Jefferson County,MO,NA,44.08945686900959,NA
63011,St. Louis County,MO,NA,12.673056443024494,NA
63017,St. Louis County,MO,45.195729537366546,30.45793397231097,1.3888888888888888
63021,St. Louis County,MO,NA,28.541001064962728,NA
63026,St. Louis County,MO,86.83274021352312,NA,NA
63031,St. Louis County,MO,87.01067615658363,NA,NA
63033,St. Louis County,MO,NA,57.61448349307774,NA
63050,Jefferson County,MO,53.91459074733096,NA,NA
63112,St. Louis city,MO,35.76512455516014,NA,NA
63118,St. Louis city,MO,NA,29.28647497337593,NA
63122,St. Louis County,MO,NA,16.293929712460063,NA
63129,St. Louis County,MO,NA,48.56230031948881,NA
63136,St. Louis County,MO,NA,43.556975505857295,NA
63141,St. Louis County,MO,96.97508896797153,NA,NA
63146,St. Louis County,MO,NA,48.136315228966986,NA
63303,St. Charles County,MO,NA,53.99361022364217,NA
63376,St. Charles County,MO,NA,49.84025559105431,NA
63640,St. Francois County,MO,NA,23.21618743343983,NA
63670,Ste. Genevieve County,MO,71.35231316725978,NA,NA
63701,Cape Girardeau County,MO,24.555160142348754,NA,NA
63755,Cape Girardeau County,MO,NA,59.63791267305645,NA
63801,Scott County,MO,NA,44.72843450479233,NA
63935,Ripley County,MO,NA,NA,55.55555555555556
64012,Cass County,MO,42.52669039145908,NA,NA
64015,Jackson County,MO,NA,49.094781682641106,NA
64024,Clay County,MO,33.80782918149466,NA,NA
64034,Jackson County,MO,95.01779359430606,NA,NA
64055,Jackson County,MO,20.284697508896798,23.535676251331203,NA
64056,Jackson County,MO,16.014234875444842,NA,NA
64060,Clay County,MO,94.30604982206405,NA,NA
64063,Jackson County,MO,24.377224199288257,NA,NA
64079,Platte County,MO,NA,NA,93.05555555555556
64085,Ray County,MO,34.34163701067616,NA,NA
64111,Jackson County,MO,40.92526690391459,32.26837060702875,NA
64114,Jackson County,MO,NA,52.715654952076676,NA
64118,Clay County,MO,NA,48.881789137380196,NA
64151,Platte County,MO,NA,11.821086261980831,NA
64153,Platte County,MO,65.83629893238434,NA,NA
64468,Nodaway County,MO,46.44128113879004,89.35037273695421,NA
64501,Buchanan County,MO,91.99288256227757,NA,NA
64507,Buchanan County,MO,NA,24.8136315228967,NA
64601,Livingston County,MO,33.096085409252666,NA,NA
64683,Grundy County,MO,NA,42.2790202342918,NA
64801,Jasper County,MO,8.007117437722421,NA,NA
64804,Jasper County,MO,NA,NA,9.25925925925926
64836,Jasper County,MO,NA,NA,37.26851851851852
64850,Newton County,MO,56.58362989323843,NA,NA
65807,Greene County,MO,NA,11.182108626198083,NA
59101,Yellowstone County,MT,NA,41.32055378061768,NA
59301,Custer County,MT,NA,NA,78.00925925925925
59401,Cascade County,MT,NA,69.22257720979765,NA
59501,Hill County,MT,58.89679715302491,NA,NA
59701,Silver Bow County,MT,NA,79.55271565495208,NA
59718,Gallatin County,MT,61.92170818505338,NA,NA
59803,Missoula County,MT,NA,77.209797657082,NA
59808,Missoula County,MT,NA,64.64323748668797,NA
59901,Flathead County,MT,20.640569395017792,1.384451544195953,NA
59911,Flathead County,MT,98.75444839857651,41.42705005324814,NA
59912,Flathead County,MT,69.7508896797153,NA,NA
68135,Douglas County,NE,NA,81.57614483493077,NA
68164,Douglas County,NE,NA,NA,53.24074074074075
68305,Nemaha County,NE,NA,NA,83.56481481481481
68632,Butler County,NE,NA,90.30883919062833,NA
68801,Hall County,NE,NA,86.68796592119276,NA
68803,Hall County,NE,NA,72.09797657082002,NA
68847,Buffalo County,NE,NA,NA,92.5925925925926
68901,Adams County,NE,46.79715302491103,NA,NA
89403,Lyon County,NV,NA,73.37593184238551,NA
89431,Washoe County,NV,NA,NA,71.06481481481481
89436,Washoe County,NV,NA,8.30670926517572,NA
89447,Lyon County,NV,NA,64.5367412140575,NA
89460,Douglas County,NV,NA,32.374866879659216,NA
89506,Washoe County,NV,73.66548042704626,NA,NA
89508,Washoe County,NV,NA,94.46219382321618,NA
89509,Washoe County,NV,NA,30.35143769968051,NA
03049,Hillsborough County,NH,60.4982206405694,NA,NA
03077,Rockingham County,NH,77.22419928825623,NA,NA
03079,Rockingham County,NH,NA,92.65175718849841,21.064814814814813
03102,Hillsborough County,NH,11.387900355871885,NA,NA
03103,Hillsborough County,NH,NA,88.92438764643238,NA
03249,Belknap County,NH,NA,71.77848775292864,NA
03264,Grafton County,NH,75.97864768683274,NA,NA
03301,Merrimack County,NH,NA,NA,84.72222222222221
03867,Strafford County,NH,98.93238434163702,NA,NA
03870,Rockingham County,NH,NA,NA,83.79629629629629
07009,Essex County,NJ,NA,NA,38.19444444444444
07042,Essex County,NJ,NA,62.61980830670927,NA
07052,Essex County,NJ,NA,10.436634717784878,NA
07065,Union County,NJ,NA,77.95527156549521,NA
07093,Hudson County,NJ,NA,7.987220447284344,39.351851851851855
07094,Hudson County,NJ,NA,57.18849840255591,NA
07106,Essex County,NJ,53.55871886120996,NA,NA
07306,Hudson County,NJ,NA,44.94142705005325,NA
07450,Bergen County,NJ,NA,95.31416400425985,NA
07452,Bergen County,NJ,89.6797153024911,NA,NA
07480,Passaic County,NJ,NA,73.6954206602769,NA
07514,Passaic County,NJ,NA,47.49733759318424,NA
07657,Bergen County,NJ,NA,58.78594249201278,NA
07670,Bergen County,NJ,81.31672597864768,NA,NA
07726,Monmouth County,NJ,86.47686832740213,NA,NA
07755,Monmouth County,NJ,NA,NA,72.68518518518519
07863,Warren County,NJ,88.61209964412812,NA,NA
07871,Sussex County,NJ,NA,59.850905218317365,NA
07876,Morris County,NJ,93.23843416370107,NA,NA
07901,Union County,NJ,NA,62.30031948881789,NA
07945,Morris County,NJ,99.644128113879,NA,NA
07960,Morris County,NJ,NA,38.44515441959531,NA
08003,Camden County,NJ,NA,74.86687965921193,NA
08009,Camden County,NJ,40.74733096085409,NA,NA
08016,Burlington County,NJ,33.985765124555165,NA,NA
08021,Camden County,NJ,5.6939501779359425,NA,NA
08053,Burlington County,NJ,NA,42.705005324813634,NA
08054,Burlington County,NJ,NA,NA,14.583333333333334
08070,Salem County,NJ,57.82918149466192,NA,NA
08096,Gloucester County,NJ,NA,NA,13.88888888888889
08105,Camden County,NJ,NA,NA,74.53703703703704
08109,Camden County,NJ,NA,NA,87.96296296296296
08110,Camden County,NJ,NA,89.77635782747603,NA
08210,Cape May County,NJ,NA,30.990415335463258,NA
08234,Atlantic County,NJ,NA,74.54739084132055,19.675925925925927
08302,Cumberland County,NJ,NA,NA,21.99074074074074
08312,Gloucester County,NJ,NA,76.03833865814697,NA
08361,Cumberland County,NJ,NA,58.359957401490945,NA
08402,Atlantic County,NJ,NA,82.96059637912673,NA
08520,Mercer County,NJ,NA,78.48775292864751,NA
08559,Hunterdon County,NJ,NA,NA,88.6574074074074
08701,Ocean County,NJ,NA,6.17678381256656,NA
08724,Ocean County,NJ,NA,71.35250266240682,NA
08753,Ocean County,NJ,66.01423487544484,NA,NA
08757,Ocean County,NJ,NA,NA,0.4629629629629629
08759,Ocean County,NJ,NA,0.42598509052183176,0
08805,Somerset County,NJ,NA,57.50798722044729,NA
08816,Middlesex County,NJ,22.77580071174377,NA,NA
08831,Middlesex County,NJ,NA,73.1629392971246,NA
08837,Middlesex County,NJ,NA,90.73482428115017,NA
08852,Middlesex County,NJ,NA,NA,95.83333333333334
08861,Middlesex County,NJ,24.02135231316726,NA,NA
08865,Warren County,NJ,NA,NA,10.648148148148149
87106,Bernalillo County,NM,NA,75.1863684771033,NA
87110,Bernalillo County,NM,6.761565836298933,NA,NA
87120,Bernalillo County,NM,5.338078291814947,46.43237486687966,NA
87121,Bernalillo County,NM,NA,20.55378061767838,NA
87123,Bernalillo County,NM,NA,2.6624068157614484,NA
87124,Sandoval County,NM,50.88967971530249,NA,NA
87144,Sandoval County,NM,59.7864768683274,NA,NA
87507,Santa Fe County,NM,NA,14.270500532481364,NA
88012,Doa Ana County,NM,NA,NA,77.54629629629629
88210,Eddy County,NM,28.291814946619215,NA,NA
10002,New York County,NY,NA,38.65814696485623,0.6944444444444444
10010,New York County,NY,NA,62.832800851970184,35.648148148148145
10023,New York County,NY,NA,NA,34.25925925925926
10024,New York County,NY,36.29893238434164,NA,NA
10025,New York County,NY,4.092526690391459,19.275825346112885,NA
10028,New York County,NY,NA,20.12779552715655,NA
10029,New York County,NY,0.1779359430604982,NA,NA
10031,New York County,NY,NA,NA,18.51851851851852
10032,New York County,NY,NA,NA,3.2407407407407405
10065,New York County,NY,NA,42.38551650692226,NA
10305,Richmond County,NY,NA,66.5601703940362,NA
10308,Richmond County,NY,NA,61.66134185303515,NA
10309,Richmond County,NY,NA,56.76251331203408,NA
10312,Richmond County,NY,NA,56.123535676251336,NA
10314,Richmond County,NY,NA,1.9169329073482428,NA
10453,Bronx County,NY,0.3558718861209964,NA,NA
10459,Bronx County,NY,3.558718861209965,NA,NA
10472,Bronx County,NY,NA,84.87752928647497,NA
10536,Westchester County,NY,NA,NA,84.02777777777779
10583,Westchester County,NY,NA,NA,22.453703703703702
10704,Westchester County,NY,NA,39.829605963791266,NA
10801,Westchester County,NY,NA,80.93716719914804,NA
10804,Westchester County,NY,NA,69.54206602768903,NA
10950,Orange County,NY,NA,82.32161874334398,NA
10952,Rockland County,NY,NA,82.64110756123536,NA
10960,Rockland County,NY,NA,NA,93.75
10970,Rockland County,NY,NA,80.40468583599574,NA
10989,Rockland County,NY,NA,91.58679446219382,NA
11021,Nassau County,NY,NA,88.81789137380191,NA
11105,Queens County,NY,NA,35.356762513312034,NA
11203,Kings County,NY,5.5160142348754455,NA,NA
11204,Kings County,NY,NA,47.177848775292865,5.092592592592593
11207,Kings County,NY,13.167259786476867,NA,NA
11208,Kings County,NY,NA,NA,14.351851851851851
11210,Kings County,NY,NA,15.015974440894569,NA
11211,Kings County,NY,NA,NA,12.268518518518519
11212,Kings County,NY,NA,14.909478168264112,NA
11214,Kings County,NY,46.08540925266904,7.454739084132056,NA
11218,Kings County,NY,NA,33.01384451544196,NA
11219,Kings County,NY,NA,13.418530351437699,NA
11220,Kings County,NY,10.142348754448399,NA,NA
11221,Kings County,NY,2.3131672597864767,NA,NA
11223,Kings County,NY,NA,8.839190628328009,NA
11224,Kings County,NY,NA,3.1948881789137378,NA
11225,Kings County,NY,NA,NA,49.53703703703704
11229,Kings County,NY,NA,37.80617678381257,17.824074074074073
11234,Kings County,NY,NA,7.77422790202343,12.731481481481483
11236,Kings County,NY,NA,5.324813631522897,NA
11364,Queens County,NY,99.11032028469751,NA,NA
11377,Queens County,NY,58.18505338078291,NA,NA
11379,Queens County,NY,NA,40.36208732694356,NA
11418,Queens County,NY,30.427046263345197,NA,NA
11420,Queens County,NY,98.39857651245552,NA,NA
11422,Queens County,NY,NA,41.0010649627263,NA
11518,Nassau County,NY,NA,99.89350372736953,NA
11566,Nassau County,NY,NA,NA,31.48148148148148
11577,Nassau County,NY,NA,95.10117145899893,NA
11579,Nassau County,NY,NA,NA,72.22222222222221
11580,Nassau County,NY,96.79715302491103,NA,NA
11701,Suffolk County,NY,NA,96.6986155484558,NA
11716,Suffolk County,NY,NA,NA,88.88888888888889
11720,Suffolk County,NY,NA,52.50266240681576,NA
11725,Suffolk County,NY,NA,68.47710330138446,NA
11727,Suffolk County,NY,84.69750889679716,76.35782747603834,NA
11753,Nassau County,NY,NA,NA,86.80555555555556
11762,Nassau County,NY,NA,61.44834930777423,NA
11793,Nassau County,NY,NA,93.82321618743345,NA
11801,Nassau County,NY,NA,34.71778487752928,NA
12065,Saratoga County,NY,NA,NA,19.90740740740741
12090,Rensselaer County,NY,NA,NA,77.31481481481481
12167,Delaware County,NY,NA,94.78168264110755,NA
12205,Albany County,NY,36.83274021352313,NA,NA
12303,Schenectady County,NY,NA,NA,25.23148148148148
12306,Schenectady County,NY,NA,NA,30.324074074074076
12550,Orange County,NY,NA,NA,87.03703703703704
12571,Dutchess County,NY,NA,81.04366347177849,NA
12916,Franklin County,NY,NA,95.2076677316294,NA
12981,Clinton County,NY,82.20640569395017,NA,NA
13041,Onondaga County,NY,95.37366548042705,NA,NA
13114,Oswego County,NY,NA,NA,94.21296296296296
13126,Oswego County,NY,3.0249110320284696,NA,NA
13206,Onondaga County,NY,39.32384341637011,NA,NA
13326,Otsego County,NY,90.74733096085409,NA,NA
13348,Otsego County,NY,NA,88.28541001064963,NA
13365,Herkimer County,NY,NA,47.284345047923324,NA
13421,Madison County,NY,84.16370106761566,NA,NA
13656,Jefferson County,NY,82.74021352313167,NA,NA
13746,Broome County,NY,84.87544483985765,NA,NA
13811,Tioga County,NY,62.09964412811389,NA,NA
14004,Erie County,NY,78.29181494661923,NA,NA
14043,Erie County,NY,21.88612099644128,NA,NA
14059,Erie County,NY,51.06761565836299,NA,NA
14075,Erie County,NY,NA,4.15335463258786,NA
14105,Niagara County,NY,NA,99.14802981895635,NA
14150,Erie County,NY,86.29893238434164,NA,NA
14208,Erie County,NY,NA,NA,98.37962962962963
14210,Erie County,NY,NA,54.526091586794465,94.44444444444444
14211,Erie County,NY,NA,NA,43.98148148148148
14215,Erie County,NY,7.295373665480427,NA,NA
14414,Livingston County,NY,NA,98.7220447284345,NA
14424,Ontario County,NY,2.135231316725979,17.35889243876464,NA
14428,Monroe County,NY,NA,37.69968051118211,NA
14472,Monroe County,NY,57.11743772241993,NA,NA
14525,Genesee County,NY,69.9288256227758,NA,NA
14527,Yates County,NY,NA,NA,33.7962962962963
14534,Monroe County,NY,4.448398576512456,0.9584664536741214,NA
14564,Ontario County,NY,10.676156583629894,NA,NA
14580,Monroe County,NY,9.430604982206406,NA,NA
14586,Monroe County,NY,74.55516014234875,NA,NA
14591,Wyoming County,NY,94.12811387900356,NA,NA
14609,Monroe County,NY,NA,7.561235356762514,NA
14612,Monroe County,NY,NA,10.223642172523961,NA
14616,Monroe County,NY,2.6690391459074734,NA,NA
14626,Monroe County,NY,32.74021352313167,NA,NA
14701,Chautauqua County,NY,NA,11.92758253461129,NA
14716,Chautauqua County,NY,NA,97.55058572949947,NA
14724,Chautauqua County,NY,NA,98.08306709265176,NA
14850,Tompkins County,NY,NA,NA,65.27777777777779
14870,Steuben County,NY,NA,NA,50.231481481481474
27012,Forsyth County,NC,NA,16.826411075612356,5.555555555555555
27023,Forsyth County,NC,NA,63.791267305644304,NA
27043,Stokes County,NC,NA,45.580404685835994,NA
27051,Forsyth County,NC,NA,83.70607028753993,NA
27055,Yadkin County,NC,NA,56.123535676251336,NA
27103,Forsyth County,NC,NA,5.963791267305645,NA
27253,Alamance County,NC,82.02846975088967,NA,NA
27260,Guilford County,NC,NA,NA,90.97222222222221
27263,Randolph County,NC,NA,36.315228966986155,NA
27278,Orange County,NC,NA,31.735889243876464,NA
27288,Rockingham County,NC,8.185053380782918,NA,NA
27292,Davidson County,NC,3.202846975088968,NA,2.7777777777777777
27301,Guilford County,NC,NA,79.2332268370607,NA
27325,Moore County,NC,NA,NA,97.22222222222221
27330,Lee County,NC,NA,NA,93.28703703703704
27349,Alamance County,NC,NA,97.23109691160809,NA
27360,Davidson County,NC,NA,18.423855165069224,NA
27376,Moore County,NC,NA,NA,98.14814814814815
27379,Caswell County,NC,NA,56.443024494142705,NA
27401,Guilford County,NC,18.683274021352315,NA,NA
27408,Guilford County,NC,NA,37.38019169329074,NA
27502,Wake County,NC,NA,26.943556975505857,NA
27504,Johnston County,NC,NA,90.09584664536742,NA
27511,Wake County,NC,NA,20.979765708200212,NA
27513,Wake County,NC,NA,35.88924387646432,NA
27514,Orange County,NC,NA,79.65921192758253,NA
27519,Wake County,NC,NA,72.4174653887114,NA
27520,Johnston County,NC,NA,NA,36.342592592592595
27527,Johnston County,NC,50.5338078291815,NA,NA
27537,Vance County,NC,NA,43.98296059637913,NA
27546,Harnett County,NC,NA,NA,82.4074074074074
27549,Franklin County,NC,69.3950177935943,NA,NA
27573,Person County,NC,NA,37.06070287539936,NA
27574,Person County,NC,NA,35.14376996805112,NA
27587,Wake County,NC,11.743772241992882,25.878594249201274,NA
27592,Wake County,NC,NA,98.29605963791266,NA
27603,Wake County,NC,11.921708185053381,NA,NA
27615,Wake County,NC,25.622775800711743,NA,NA
27704,Durham County,NC,NA,18.53035143769968,NA
27707,Durham County,NC,NA,5.218317358892439,NA
27712,Durham County,NC,NA,NA,55.32407407407407
27804,Nash County,NC,NA,NA,81.48148148148148
27870,Halifax County,NC,NA,75.61235356762514,NA
27874,Halifax County,NC,NA,NA,79.39814814814815
27949,Dare County,NC,NA,78.70074547390841,NA
28027,Cabarrus County,NC,10.498220640569395,NA,NA
28054,Gaston County,NC,NA,66.66666666666666,NA
28056,Gaston County,NC,NA,NA,92.82407407407408
28075,Cabarrus County,NC,NA,52.28966986155484,NA
28078,Mecklenburg County,NC,NA,NA,50
28086,Cleveland County,NC,14.94661921708185,NA,NA
28105,Mecklenburg County,NC,NA,58.46645367412141,NA
28117,Iredell County,NC,NA,90.94781682641107,NA
28134,Mecklenburg County,NC,NA,91.69329073482429,NA
28160,Rutherford County,NC,NA,88.71139510117146,NA
28206,Mecklenburg County,NC,83.09608540925268,NA,NA
28212,Mecklenburg County,NC,14.768683274021353,NA,NA
28269,Mecklenburg County,NC,43.95017793594306,NA,NA
28278,Mecklenburg County,NC,NA,85.94249201277955,NA
28357,Robeson County,NC,NA,99.78700745473908,NA
28366,Sampson County,NC,NA,71.56549520766772,NA
28428,New Hanover County,NC,94.48398576512456,NA,NA
28462,Brunswick County,NC,NA,NA,65.04629629629629
28467,Brunswick County,NC,NA,44.40894568690096,NA
28469,Brunswick County,NC,NA,58.78594249201278,NA
28516,Carteret County,NC,99.28825622775801,NA,NA
28557,Carteret County,NC,NA,NA,36.80555555555556
28586,Craven County,NC,NA,86.79446219382322,NA
28590,Pitt County,NC,NA,NA,95.13888888888889
28713,Swain County,NC,53.02491103202846,41.533546325878596,NA
28730,Buncombe County,NC,NA,87.22044728434504,NA
28739,Henderson County,NC,NA,9.158679446219383,NA
28777,Mitchell County,NC,NA,NA,52.77777777777778
28904,Clay County,NC,NA,47.71033013844516,NA
58072,Barnes County,ND,NA,NA,51.388888888888886
58078,Cass County,ND,NA,10.33013844515442,NA
58318,Bottineau County,ND,NA,99.68051118210862,NA
58601,Stark County,ND,NA,69.43556975505857,NA
58701,Ward County,ND,NA,41.10756123535676,NA
58784,Mountrail County,ND,NA,99.4675186368477,NA
43004,Franklin County,OH,52.66903914590747,NA,NA
43026,Franklin County,OH,NA,14.057507987220447,NA
43031,Licking County,OH,87.90035587188612,67.73162939297124,NA
43040,Union County,OH,16.19217081850534,NA,NA
43050,Knox County,OH,NA,2.2364217252396164,NA
43068,Franklin County,OH,NA,61.128860489882854,NA
43160,Fayette County,OH,64.59074733096085,NA,NA
43206,Franklin County,OH,NA,37.912673056443026,NA
43207,Franklin County,OH,6.583629893238434,NA,15.277777777777779
43213,Franklin County,OH,NA,NA,58.333333333333336
43221,Franklin County,OH,NA,28.115015974440894,NA
43402,Wood County,OH,NA,NA,15.046296296296296
43515,Fulton County,OH,NA,NA,68.05555555555556
43558,Fulton County,OH,NA,NA,78.93518518518519
43560,Lucas County,OH,15.302491103202847,NA,NA
43605,Lucas County,OH,1.7793594306049825,NA,NA
43606,Lucas County,OH,32.38434163701068,NA,NA
43608,Lucas County,OH,NA,29.712460063897762,NA
43614,Lucas County,OH,NA,28.647497337593187,NA
43615,Lucas County,OH,2.8469750889679712,NA,NA
43623,Lucas County,OH,NA,16.93290734824281,NA
43725,Guernsey County,OH,30.2491103202847,NA,NA
43917,Jefferson County,OH,NA,89.45686900958466,NA
43938,Jefferson County,OH,NA,91.3738019169329,NA
43964,Jefferson County,OH,63.16725978647687,NA,NA
44003,Ashtabula County,OH,NA,53.567625133120345,NA
44004,Ashtabula County,OH,30.071174377224196,NA,NA
44035,Lorain County,OH,NA,1.0649627263045793,NA
44060,Lake County,OH,NA,14.802981895633652,NA
44070,Cuyahoga County,OH,NA,19.59531416400426,NA
44094,Lake County,OH,NA,2.1299254526091587,NA
44102,Cuyahoga County,OH,NA,1.1714589989350372,NA
44109,Cuyahoga County,OH,NA,22.257720979765708,NA
44114,Cuyahoga County,OH,NA,67.51863684771034,NA
44118,Cuyahoga County,OH,24.733096085409255,NA,NA
44122,Cuyahoga County,OH,NA,NA,12.962962962962962
44125,Cuyahoga County,OH,NA,NA,43.51851851851852
44130,Cuyahoga County,OH,NA,43.66347177848775,16.666666666666664
44131,Cuyahoga County,OH,NA,NA,3.009259259259259
44133,Cuyahoga County,OH,NA,8.626198083067091,NA
44137,Cuyahoga County,OH,16.72597864768683,NA,NA
44139,Cuyahoga County,OH,NA,9.371671991480298,NA
44144,Cuyahoga County,OH,NA,5.111821086261981,NA
44145,Cuyahoga County,OH,NA,80.83067092651757,NA
44212,Medina County,OH,NA,5.7507987220447285,NA
44221,Summit County,OH,80.78291814946618,NA,NA
44223,Summit County,OH,92.88256227758008,NA,NA
44236,Summit County,OH,NA,NA,28.009259259259263
44240,Portage County,OH,NA,13.631522896698616,NA
44270,Wayne County,OH,NA,60.48988285410011,NA
44406,Mahoning County,OH,NA,58.67944621938233,NA
44444,Trumbull County,OH,NA,61.34185303514377,NA
44460,Columbiana County,OH,60.67615658362989,NA,NA
44473,Trumbull County,OH,95.72953736654804,NA,NA
44484,Trumbull County,OH,NA,31.09691160809372,NA
44505,Mahoning County,OH,NA,93.9297124600639,NA
44514,Mahoning County,OH,NA,45.367412140575084,NA
44632,Stark County,OH,62.989323843416365,NA,NA
44685,Summit County,OH,30.604982206405694,NA,NA
44691,Wayne County,OH,NA,19.382321618743344,NA
44707,Stark County,OH,NA,54.84558040468583,NA
44720,Stark County,OH,NA,13.312034078807242,NA
44811,Sandusky County,OH,NA,37.38019169329074,NA
44833,Crawford County,OH,NA,50.05324813631523,NA
44839,Erie County,OH,38.43416370106761,NA,NA
45011,Butler County,OH,NA,1.703940362087327,NA
45014,Butler County,OH,NA,61.7678381256656,NA
45177,Clinton County,OH,13.523131672597867,NA,32.407407407407405
45202,Hamilton County,OH,NA,45.89989350372737,NA
45211,Hamilton County,OH,NA,NA,27.546296296296298
45318,Miami County,OH,NA,87.53993610223642,NA
45414,Montgomery County,OH,44.30604982206406,NA,NA
45415,Montgomery County,OH,NA,NA,56.018518518518526
45432,Greene County,OH,NA,38.76464323748669,NA
45601,Ross County,OH,NA,1.5974440894568689,NA
45680,Lawrence County,OH,NA,80.08519701810437,NA
45769,Meigs County,OH,NA,54.9520766773163,NA
45885,Auglaize County,OH,78.11387900355872,NA,NA
73099,Canadian County,OK,8.540925266903916,NA,NA
73110,Oklahoma County,OK,67.79359430604983,NA,NA
73116,Oklahoma County,OK,NA,NA,76.1574074074074
73129,Oklahoma County,OK,59.252669039145914,NA,NA
73401,Carter County,OK,29.00355871886121,NA,NA
73505,Comanche County,OK,NA,NA,56.25
74059,Payne County,OK,NA,NA,70.60185185185185
74063,Tulsa County,OK,NA,NA,36.574074074074076
74115,Tulsa County,OK,NA,90.52183173588925,NA
74346,Delaware County,OK,NA,94.99467518636848,NA
74834,Lincoln County,OK,85.23131672597864,NA,NA
74962,Sequoyah County,OK,NA,79.87220447284345,NA
97056,Columbia County,OR,49.46619217081851,NA,NA
97062,Washington County,OR,40.0355871886121,NA,NA
97103,Clatsop County,OR,NA,NA,17.12962962962963
97210,Multnomah County,OR,NA,98.50905218317358,NA
97212,Multnomah County,OR,96.26334519572953,NA,NA
97229,Washington County,OR,NA,NA,28.935185185185187
97457,Douglas County,OR,NA,83.8125665601704,NA
97496,Douglas County,OR,61.387900355871885,NA,NA
97501,Jackson County,OR,NA,53.46112886048988,NA
97526,Josephine County,OR,15.836298932384341,NA,NA
97814,Baker County,OR,NA,30.564430244941427,NA
15003,Beaver County,PA,NA,94.6751863684771,NA
15012,Westmoreland County,PA,95.90747330960853,NA,NA
15068,Westmoreland County,PA,NA,NA,77.08333333333334
15090,Allegheny County,PA,NA,71.99148029818956,NA
15116,Allegheny County,PA,NA,63.25878594249201,NA
15120,Allegheny County,PA,29.8932384341637,NA,53.93518518518518
15208,Allegheny County,PA,35.94306049822064,NA,NA
15210,Allegheny County,PA,NA,53.03514376996805,NA
15216,Allegheny County,PA,NA,NA,65.74074074074075
15221,Allegheny County,PA,47.330960854092524,NA,13.657407407407407
15224,Allegheny County,PA,NA,55.80404685835995,NA
15228,Allegheny County,PA,NA,69.6485623003195,NA
15241,Allegheny County,PA,80.96085409252669,42.81150159744409,NA
15301,Washington County,PA,NA,19.169329073482427,NA
15317,Washington County,PA,NA,26.517571884984026,NA
15342,Washington County,PA,NA,98.82854100106496,NA
15401,Fayette County,PA,NA,3.08839190628328,NA
15522,Bedford County,PA,45.01779359430605,NA,38.88888888888889
15552,Somerset County,PA,NA,NA,64.58333333333334
15601,Westmoreland County,PA,NA,0.3194888178913738,NA
15613,Westmoreland County,PA,NA,NA,85.41666666666666
15642,Westmoreland County,PA,NA,3.940362087326944,NA
15644,Westmoreland County,PA,NA,NA,11.342592592592593
15650,Westmoreland County,PA,NA,NA,8.564814814814815
15683,Westmoreland County,PA,NA,65.38871139510117,NA
15701,Indiana County,PA,NA,81.89563365282216,NA
15748,Indiana County,PA,67.25978647686833,NA,NA
15767,Jefferson County,PA,18.327402135231317,NA,NA
15801,Clearfield County,PA,NA,NA,18.055555555555554
15851,Jefferson County,PA,NA,39.08413205537806,NA
15902,Cambria County,PA,NA,36.2087326943557,NA
16023,Butler County,PA,90.2135231316726,NA,NA
16057,Butler County,PA,NA,53.88711395101171,88.42592592592592
16105,Lawrence County,PA,NA,75.82534611288605,NA
16148,Mercer County,PA,NA,76.14483493077742,NA
16214,Clarion County,PA,54.270462633451956,NA,NA
16335,Crawford County,PA,NA,80.29818956336528,NA
16735,McKean County,PA,NA,NA,39.81481481481482
16830,Clearfield County,PA,18.86120996441281,NA,NA
17013,Cumberland County,PA,NA,NA,38.88888888888889
17042,Lebanon County,PA,12.633451957295375,NA,NA
17046,Lebanon County,PA,NA,NA,33.101851851851855
17078,Lebanon County,PA,NA,93.1842385516507,60.416666666666664
17111,Dauphin County,PA,NA,NA,99.07407407407408
17112,Dauphin County,PA,NA,NA,49.30555555555556
17356,York County,PA,44.48398576512456,NA,NA
17403,York County,PA,NA,1.2779552715654952,NA
17555,Lancaster County,PA,NA,86.5814696485623,NA
17752,Lycoming County,PA,99.4661921708185,NA,NA
17837,Union County,PA,NA,NA,42.824074074074076
18020,Northampton County,PA,NA,19.808306709265175,NA
18040,Northampton County,PA,48.57651245551601,67.41214057507987,NA
18052,Lehigh County,PA,NA,47.6038338658147,NA
18062,Lehigh County,PA,NA,45.79339723109691,NA
18202,Luzerne County,PA,NA,NA,62.96296296296296
18612,Luzerne County,PA,82.38434163701068,NA,NA
18643,Luzerne County,PA,NA,NA,35.879629629629626
18651,Luzerne County,PA,90.0355871886121,NA,NA
18706,Luzerne County,PA,NA,48.66879659211927,NA
18801,Susquehanna County,PA,96.44128113879003,NA,NA
18976,Bucks County,PA,NA,30.77742279020234,NA
18977,Bucks County,PA,NA,70.28753993610223,NA
19013,Delaware County,PA,48.754448398576514,NA,NA
19018,Delaware County,PA,NA,NA,68.98148148148148
19020,Bucks County,PA,NA,NA,9.953703703703704
19053,Bucks County,PA,45.37366548042704,NA,NA
19060,Delaware County,PA,NA,86.15548455804047,NA
19063,Delaware County,PA,NA,30.244941427050055,NA
19067,Bucks County,PA,NA,5.005324813631523,NA
19072,Montgomery County,PA,NA,84.13205537806176,NA
19073,Delaware County,PA,NA,62.087326943556974,NA
19082,Delaware County,PA,78.46975088967972,NA,NA
19090,Montgomery County,PA,NA,32.05537806176784,NA
19103,Philadelphia County,PA,30.96085409252669,NA,NA
19104,Philadelphia County,PA,NA,NA,91.89814814814815
19111,Philadelphia County,PA,NA,52.609158679446224,NA
19120,Philadelphia County,PA,NA,NA,61.342592592592595
19129,Philadelphia County,PA,65.30249110320284,45.260915867944625,NA
19136,Philadelphia County,PA,6.405693950177936,NA,NA
19140,Philadelphia County,PA,NA,NA,26.620370370370374
19141,Philadelphia County,PA,NA,10.86261980830671,NA
19143,Philadelphia County,PA,NA,39.29712460063898,7.4074074074074066
19148,Philadelphia County,PA,NA,9.478168264110757,NA
19149,Philadelphia County,PA,NA,NA,23.14814814814815
19363,Chester County,PA,NA,49.30777422790202,NA
19382,Chester County,PA,NA,5.857294994675186,NA
19446,Montgomery County,PA,NA,85.3035143769968,5.787037037037037
19454,Montgomery County,PA,70.8185053380783,56.86900958466453,NA
19460,Chester County,PA,NA,80.5111821086262,NA
19475,Chester County,PA,NA,NA,84.95370370370371
19560,Berks County,PA,NA,NA,98.8425925925926
19601,Berks County,PA,NA,32.481363152289674,NA
02816,Kent County,RI,17.97153024911032,10.117145899893504,NA
02817,Kent County,RI,NA,76.46432374866879,NA
02825,Providence County,RI,79.53736654804271,77.42279020234292,NA
02835,Newport County,RI,NA,92.33226837060703,NA
02840,Newport County,RI,28.46975088967972,NA,NA
02878,Newport County,RI,72.77580071174377,NA,NA
02879,Washington County,RI,NA,62.72630457933972,NA
02891,Washington County,RI,NA,57.7209797657082,NA
02905,Providence County,RI,87.18861209964413,NA,NA
02907,Providence County,RI,25.26690391459075,NA,NA
02917,Providence County,RI,NA,NA,95.60185185185185
02919,Providence County,RI,NA,NA,57.407407407407405
29016,Richland County,SC,56.761565836298935,NA,NA
29032,Kershaw County,SC,NA,NA,99.76851851851852
29072,Lexington County,SC,42.170818505338076,17.99787007454739,NA
29073,Lexington County,SC,NA,NA,74.53703703703704
29205,Richland County,SC,NA,79.44621938232162,NA
29212,Lexington County,SC,73.84341637010677,NA,NA
29229,Richland County,SC,NA,74.22790202342918,NA
29306,Spartanburg County,SC,NA,91.05431309904152,NA
29360,Laurens County,SC,25.97864768683274,NA,NA
29449,Charleston County,SC,NA,76.99680511182109,NA
29501,Florence County,SC,NA,NA,27.314814814814813
29506,Florence County,SC,NA,36.9542066027689,NA
29532,Darlington County,SC,64.23487544483986,NA,NA
29540,Darlington County,SC,90.5693950177936,NA,NA
29575,Horry County,SC,NA,40.68157614483493,NA
29576,Horry County,SC,54.270462633451956,NA,NA
29588,Horry County,SC,NA,NA,91.66666666666666
29605,Greenville County,SC,NA,9.26517571884984,NA
29625,Anderson County,SC,59.9644128113879,NA,NA
29651,Greenville County,SC,11.565836298932384,NA,NA
29684,Anderson County,SC,NA,75.50585729499467,NA
29697,Anderson County,SC,NA,NA,87.73148148148148
29706,Chester County,SC,NA,40.14909478168264,NA
29710,York County,SC,NA,33.54632587859425,NA
29715,York County,SC,NA,NA,46.52777777777778
29745,York County,SC,78.82562277580071,NA,NA
29803,Aiken County,SC,NA,6.283280085197019,NA
29926,Beaufort County,SC,NA,92.75825346112886,NA
57104,Minnehaha County,SD,NA,NA,35.18518518518518
57108,Lincoln County,SD,NA,13.738019169329075,NA
57401,Brown County,SD,NA,5.644302449414271,NA
57702,Pennington County,SD,NA,77.63578274760383,NA
37013,Davidson County,TN,NA,11.714589989350372,NA
37042,Montgomery County,TN,13.523131672597867,NA,NA
37055,Dickson County,TN,NA,29.073482428115017,NA
37067,Williamson County,TN,NA,NA,56.94444444444444
37075,Sumner County,TN,NA,4.259850905218317,NA
37098,Hickman County,TN,73.48754448398577,NA,NA
37115,Davidson County,TN,NA,15.4419595314164,NA
37122,Wilson County,TN,NA,NA,85.18518518518519
37160,Bedford County,TN,NA,22.044728434504794,NA
37174,Williamson County,TN,57.29537366548043,95.74014909478169,NA
37209,Davidson County,TN,NA,38.019169329073485,NA
37214,Davidson County,TN,NA,36.42172523961661,NA
37323,Bradley County,TN,27.22419928825623,NA,NA
37327,Sequatchie County,TN,NA,66.98615548455804,NA
37330,Franklin County,TN,NA,70.6070287539936,NA
37354,Monroe County,TN,62.27758007117438,NA,NA
37421,Hamilton County,TN,NA,18.743343982960596,NA
37601,Washington County,TN,NA,8.093716719914804,NA
37620,Sullivan County,TN,NA,11.501597444089457,13.425925925925927
37660,Sullivan County,TN,NA,NA,45.370370370370374
37663,Sullivan County,TN,49.11032028469751,66.24068157614484,NA
37738,Sevier County,TN,NA,78.38125665601704,NA
37763,Roane County,TN,NA,53.1416400425985,NA
37803,Blount County,TN,NA,9.691160809371672,NA
37821,Cocke County,TN,NA,74.97337593184238,NA
37826,McMinn County,TN,NA,92.86474973375933,NA
37841,Scott County,TN,90.39145907473309,NA,NA
37919,Knox County,TN,NA,24.281150159744406,NA
37921,Knox County,TN,NA,61.980830670926515,NA
38023,Tipton County,TN,NA,97.01810436634717,NA
38024,Dyer County,TN,82.91814946619218,NA,NA
38116,Shelby County,TN,NA,NA,39.58333333333333
38122,Shelby County,TN,37.36654804270463,NA,NA
38125,Shelby County,TN,NA,49.94675186368477,NA
38139,Shelby County,TN,NA,NA,63.19444444444444
38372,Hardin County,TN,59.07473309608541,NA,NA
38451,Maury County,TN,88.96797153024912,NA,NA
38506,Putnam County,TN,NA,14.376996805111823,NA
38556,Fentress County,TN,NA,83.49307774227903,NA
75006,Dallas County,TX,NA,73.9084132055378,NA
75013,Collin County,TX,32.562277580071175,NA,NA
75021,Grayson County,TX,NA,NA,65.50925925925925
75022,Denton County,TX,59.430604982206404,NA,NA
75024,Collin County,TX,42.88256227758007,NA,NA
75068,Denton County,TX,NA,61.87433439829606,NA
75074,Collin County,TX,NA,21.299254526091588,NA
75092,Grayson County,TX,31.672597864768683,NA,NA
75104,Dallas County,TX,38.612099644128115,NA,NA
75181,Dallas County,TX,36.120996441281136,NA,NA
75217,Dallas County,TX,NA,25.559105431309902,NA
75228,Dallas County,TX,NA,NA,20.60185185185185
75232,Dallas County,TX,NA,NA,41.43518518518518
75234,Dallas County,TX,NA,NA,32.870370370370374
75240,Dallas County,TX,48.93238434163701,NA,NA
75426,Red River County,TX,NA,NA,82.17592592592592
75831,Leon County,TX,NA,81.2566560170394,NA
75862,Trinity County,TX,66.72597864768683,NA,NA
76028,Johnson County,TX,NA,NA,10.416666666666668
76052,Tarrant County,TX,NA,62.939297124600635,NA
76132,Tarrant County,TX,NA,63.0457933972311,NA
76148,Tarrant County,TX,27.046263345195733,NA,NA
76180,Tarrant County,TX,53.20284697508897,NA,NA
76248,Tarrant County,TX,NA,29.605963791267303,NA
76354,Wichita County,TX,NA,NA,98.61111111111111
76528,Coryell County,TX,NA,32.80085197018104,NA
76642,Limestone County,TX,NA,88.17891373801918,NA
76705,McLennan County,TX,NA,27.36954206602769,NA
77004,Harris County,TX,83.98576512455516,NA,NA
77009,Harris County,TX,31.316725978647685,NA,NA
77018,Harris County,TX,54.804270462633454,NA,NA
77020,Harris County,TX,NA,61.0223642172524,NA
77041,Harris County,TX,NA,26.091586794462195,NA
77044,Harris County,TX,89.32384341637011,NA,NA
77054,Harris County,TX,56.93950177935944,NA,NA
77056,Harris County,TX,NA,38.12566560170394,NA
77058,Harris County,TX,NA,59.53141640042598,NA
77062,Harris County,TX,NA,63.15228966986155,NA
77063,Harris County,TX,NA,NA,76.38888888888889
77070,Harris County,TX,NA,15.974440894568689,NA
77072,Harris County,TX,81.13879003558719,NA,NA
77074,Harris County,TX,NA,39.51011714589989,NA
77079,Harris County,TX,91.81494661921708,NA,76.38888888888889
77083,Harris County,TX,27.402135231316727,NA,NA
77084,Harris County,TX,26.334519572953734,NA,NA
77095,Harris County,TX,NA,82.0021299254526,NA
77099,Harris County,TX,37.18861209964413,24.70713525026624,NA
77302,Montgomery County,TX,NA,57.29499467518637,NA
77339,Harris County,TX,NA,NA,54.166666666666664
77356,Montgomery County,TX,NA,95.52715654952077,NA
77375,Harris County,TX,NA,23.429179978700745,NA
77377,Harris County,TX,NA,35.78274760383386,NA
77380,Montgomery County,TX,51.95729537366548,NA,NA
77382,Montgomery County,TX,NA,96.05963791267305,NA
77384,Montgomery County,TX,NA,68.26411075612353,NA
77407,Fort Bend County,TX,NA,NA,63.888888888888886
77414,Matagorda County,TX,55.16014234875445,NA,NA
77433,Harris County,TX,7.11743772241993,13.099041533546327,NA
77450,Harris County,TX,NA,61.55484558040468,29.398148148148145
77479,Fort Bend County,TX,NA,13.205537806176784,NA
77480,Brazoria County,TX,NA,NA,97.91666666666666
77498,Fort Bend County,TX,NA,60.063897763578275,NA
77511,Brazoria County,TX,31.494661921708182,NA,78.70370370370371
77531,Brazoria County,TX,NA,60.59637912673056,NA
77532,Harris County,TX,NA,96.91160809371672,NA
77546,Galveston County,TX,NA,NA,24.76851851851852
77591,Galveston County,TX,NA,31.20340788072418,NA
77705,Jefferson County,TX,28.825622775800714,NA,NA
77803,Brazos County,TX,17.08185053380783,NA,NA
77845,Brazos County,TX,NA,17.465388711395104,NA
77954,DeWitt County,TX,NA,39.936102236421725,NA
78006,Kendall County,TX,NA,NA,51.388888888888886
78046,Webb County,TX,9.07473309608541,NA,NA
78102,Bee County,TX,NA,NA,59.95370370370371
78108,Guadalupe County,TX,NA,74.65388711395101,NA
78130,Comal County,TX,NA,62.40681576144836,NA
78155,Guadalupe County,TX,NA,NA,25.925925925925924
78207,Bexar County,TX,NA,NA,59.49074074074075
78240,Bexar County,TX,NA,41.21405750798722,NA
78250,Bexar County,TX,NA,37.167199148029816,NA
78253,Bexar County,TX,62.63345195729537,NA,NA
78332,Jim Wells County,TX,NA,96.37912673056444,NA
78380,Nueces County,TX,NA,46.53887113951012,NA
78411,Nueces County,TX,75.80071174377224,NA,NA
78418,Nueces County,TX,NA,55.27156549520767,NA
78503,Hidalgo County,TX,49.8220640569395,NA,NA
78537,Hidalgo County,TX,NA,51.118210862619804,NA
78572,Hidalgo County,TX,NA,NA,3.4722222222222223
78574,Hidalgo County,TX,48.04270462633452,NA,NA
78640,Hays County,TX,NA,27.689030883919063,NA
78644,Caldwell County,TX,47.50889679715303,NA,NA
78654,Burnet County,TX,NA,NA,96.75925925925925
78681,Williamson County,TX,38.07829181494662,NA,NA
79106,Potter County,TX,NA,25.23961661341853,NA
79109,Randall County,TX,50,97.33759318423854,NA
79364,Lubbock County,TX,97.33096085409252,NA,NA
79413,Lubbock County,TX,NA,NA,24.537037037037038
79549,Scurry County,TX,NA,54.31309904153354,NA
79605,Taylor County,TX,NA,25.452609158679447,NA
79705,Midland County,TX,42.34875444839858,NA,NA
79720,Howard County,TX,NA,NA,38.425925925925924
79904,El Paso County,TX,NA,64.11075612353568,NA
79905,El Paso County,TX,NA,62.51331203407881,NA
79912,El Paso County,TX,NA,22.577209797657083,18.98148148148148
79924,El Paso County,TX,29.359430604982208,NA,NA
79925,El Paso County,TX,76.51245551601423,NA,NA
84037,Davis County,UT,91.45907473309609,NA,NA
84047,Salt Lake County,UT,17.615658362989322,NA,NA
84057,Utah County,UT,47.15302491103203,NA,NA
84103,Salt Lake County,UT,46.263345195729535,NA,NA
84121,Salt Lake County,UT,NA,49.201277955271564,NA
84302,Box Elder County,UT,58.54092526690391,NA,NA
84404,Weber County,UT,NA,NA,32.63888888888889
84651,Utah County,UT,NA,57.82747603833865,NA
05101,Windham County,VT,NA,NA,94.9074074074074
20148,Loudoun County,VA,93.59430604982207,68.47710330138446,NA
20165,Loudoun County,VA,68.50533807829181,NA,NA
20169,Prince William County,VA,NA,NA,70.13888888888889
20171,Fairfax County,VA,NA,82.74760383386581,NA
20175,Loudoun County,VA,NA,NA,31.712962962962965
20190,Fairfax County,VA,NA,77.84877529286474,NA
22032,Fairfax County,VA,NA,54.632587859424916,NA
22101,Fairfax County,VA,35.231316725978644,NA,NA
22102,Fairfax County,VA,81.49466192170819,NA,NA
22153,Fairfax County,VA,NA,62.19382321618744,NA
22172,Prince William County,VA,NA,NA,96.99074074074075
22205,Arlington County,VA,NA,NA,96.52777777777779
22206,Arlington County,VA,39.32384341637011,NA,NA
22312,Fairfax County,VA,88.43416370106762,NA,NA
22503,Lancaster County,VA,NA,97.44408945686901,NA
22554,Stafford County,VA,20.462633451957295,NA,70.13888888888889
22601,Winchester city,VA,NA,NA,46.06481481481482
22801,Harrisonburg city,VA,NA,NA,19.212962962962962
22802,Harrisonburg city,VA,14.05693950177936,NA,NA
22903,Charlottesville city,VA,78.64768683274022,NA,NA
22932,Albemarle County,VA,NA,68.370607028754,NA
22936,Albemarle County,VA,85.58718861209964,NA,NA
22942,Louisa County,VA,NA,93.71671991480298,NA
22980,Waynesboro city,VA,NA,NA,1.8518518518518516
23060,Henrico County,VA,NA,73.80191693290735,NA
23112,Chesterfield County,VA,64.76868327402136,NA,NA
23185,James City County,VA,NA,1.810436634717785,NA
23192,Hanover County,VA,97.68683274021353,NA,NA
23224,Richmond city,VA,50.177935943060504,NA,NA
23238,Henrico County,VA,66.90391459074732,NA,NA
23294,Henrico County,VA,NA,85.09052183173588,NA
23452,Virginia Beach city,VA,75.44483985765125,NA,NA
23453,Virginia Beach city,VA,NA,NA,43.05555555555556
23455,Virginia Beach city,VA,NA,NA,0.9259259259259258
23456,Virginia Beach city,VA,NA,26.73056443024494,NA
23462,Virginia Beach city,VA,NA,NA,2.5462962962962963
23513,Norfolk city,VA,NA,20.873269435569757,NA
23601,Newport News city,VA,NA,NA,64.12037037037037
23666,Hampton city,VA,NA,NA,6.018518518518518
23701,Portsmouth city,VA,NA,NA,40.97222222222222
23803,Petersburg city,VA,NA,10.543130990415335,NA
23831,Chesterfield County,VA,NA,20.12779552715655,NA
23930,Nottoway County,VA,NA,85.8359957401491,NA
23944,Lunenburg County,VA,NA,NA,79.62962962962963
24060,Montgomery County,VA,NA,77.31629392971246,NA
24151,Franklin County,VA,NA,34.07880724174654,NA
24211,Washington County,VA,NA,97.87007454739084,NA
24370,Smyth County,VA,NA,NA,89.58333333333334
24401,Staunton city,VA,NA,NA,24.305555555555554
24450,Rockbridge County,VA,NA,35.56975505857295,NA
24503,Lynchburg city,VA,NA,43.34398296059638,NA
24540,Danville city,VA,43.238434163701065,NA,NA
24586,Pittsylvania County,VA,74.02135231316726,NA,NA
98005,King County,WA,NA,59.31842385516507,NA
98006,King County,WA,NA,NA,76.38888888888889
98012,Snohomish County,WA,NA,17.784877529286476,NA
98024,King County,WA,79.53736654804271,NA,NA
98028,King County,WA,NA,NA,46.75925925925926
98029,King County,WA,NA,66.45367412140575,NA
98092,King County,WA,14.23487544483986,NA,NA
98107,King County,WA,NA,69.86155484558041,NA
98110,Kitsap County,WA,NA,23.642172523961662,NA
98115,King County,WA,NA,41.746538871139514,NA
98117,King County,WA,43.77224199288256,NA,NA
98122,King County,WA,NA,NA,91.43518518518519
98155,King County,WA,NA,28.328008519701807,NA
98168,King County,WA,21.530249110320284,NA,NA
98177,King County,WA,77.58007117437722,NA,NA
98199,King County,WA,NA,72.84345047923323,NA
98201,Snohomish County,WA,57.65124555160143,68.79659211927583,NA
98204,Snohomish County,WA,55.693950177935946,NA,NA
98208,Snohomish County,WA,72.24199288256227,NA,NA
98226,Whatcom County,WA,NA,NA,90.27777777777779
98230,Whatcom County,WA,NA,48.242811501597444,NA
98233,Skagit County,WA,NA,35.46325878594249,NA
98270,Snohomish County,WA,10.320284697508896,NA,NA
98277,Island County,WA,31.85053380782918,NA,NA
98282,Island County,WA,65.12455516014235,NA,NA
98328,Pierce County,WA,NA,NA,72.91666666666666
98335,Pierce County,WA,NA,22.364217252396166,NA
98362,Clallam County,WA,NA,NA,2.083333333333333
98365,Jefferson County,WA,NA,NA,93.51851851851852
98371,Pierce County,WA,NA,99.36102236421725,NA
98387,Pierce County,WA,12.98932384341637,NA,NA
98467,Pierce County,WA,NA,48.988285410010654,NA
98501,Thurston County,WA,NA,NA,34.72222222222222
98502,Thurston County,WA,44.128113879003564,NA,NA
98513,Thurston County,WA,NA,NA,54.629629629629626
98532,Lewis County,WA,75.97864768683274,42.06602768903088,NA
98597,Thurston County,WA,NA,85.19701810436635,NA
98607,Clark County,WA,NA,64.11075612353568,NA
98632,Cowlitz County,WA,NA,2.9818956336528224,NA
98801,Chelan County,WA,NA,4.685835995740149,NA
98857,Grant County,WA,94.83985765124555,NA,NA
98902,Yakima County,WA,NA,89.03088391906283,NA
98926,Kittitas County,WA,NA,NA,60.18518518518518
99206,Spokane County,WA,NA,41.959531416400424,NA
99207,Spokane County,WA,NA,40.36208732694356,NA
99216,Spokane County,WA,NA,55.80404685835995,NA
99301,Franklin County,WA,NA,22.15122470713525,NA
99336,Benton County,WA,6.93950177935943,70.71352502662407,NA
99337,Benton County,WA,41.45907473309609,NA,NA
20001,District of Columbia,DC,36.47686832740214,NA,NA
20002,District of Columbia,DC,3.9145907473309607,NA,NA
20003,District of Columbia,DC,34.16370106761566,NA,NA
20007,District of Columbia,DC,NA,79.765708200213,NA
20019,District of Columbia,DC,NA,NA,7.87037037037037
20020,District of Columbia,DC,NA,NA,21.296296296296298
24740,Mercer County,WV,NA,46.64536741214057,NA
25177,Kanawha County,WV,27.580071174377224,NA,NA
25404,Berkeley County,WV,NA,27.15654952076677,NA
25530,Wayne County,WV,52.313167259786475,NA,NA
26034,Hancock County,WV,NA,97.76357827476039,NA
26037,Brooke County,WV,NA,84.98402555910543,NA
26062,Hancock County,WV,24.199288256227756,NA,NA
26431,Harrison County,WV,77.04626334519573,NA,NA
26704,Hampshire County,WV,77.93594306049823,NA,NA
53005,Waukesha County,WI,NA,NA,33.33333333333333
53072,Waukesha County,WI,NA,75.39936102236422,NA
53074,Ozaukee County,WI,NA,73.9084132055378,NA
53081,Sheboygan County,WI,NA,40.788072417465386,60.64814814814815
53089,Waukesha County,WI,NA,NA,58.56481481481482
53090,Washington County,WI,NA,34.611288604898824,NA
53098,Dodge County,WI,NA,81.46964856230032,NA
53115,Walworth County,WI,NA,NA,59.02777777777778
53143,Kenosha County,WI,9.786476868327403,84.5580404685836,NA
53150,Waukesha County,WI,NA,50.26624068157615,62.5
53158,Kenosha County,WI,65.48042704626334,18.317358892438765,NA
53206,Milwaukee County,WI,NA,7.0287539936102235,NA
53209,Milwaukee County,WI,NA,34.82428115015975,NA
53220,Milwaukee County,WI,NA,NA,53.47222222222222
53221,Milwaukee County,WI,NA,14.48349307774228,NA
53222,Milwaukee County,WI,NA,23.961661341853034,NA
53402,Racine County,WI,NA,NA,12.037037037037036
53511,Rock County,WI,9.608540925266903,NA,0.23148148148148145
53545,Rock County,WI,NA,51.54419595314164,NA
53546,Rock County,WI,NA,2.023429179978701,NA
53703,Dane County,WI,NA,99.57401490947817,NA
53913,Sauk County,WI,NA,12.566560170394037,NA
53965,Sauk County,WI,NA,53.24813631522897,NA
54115,Brown County,WI,96.08540925266904,NA,NA
54153,Oconto County,WI,NA,98.18956336528221,NA
54162,Brown County,WI,74.91103202846975,NA,NA
54220,Manitowoc County,WI,NA,NA,8.333333333333332
54303,Brown County,WI,71.88612099644128,NA,NA
54409,Langlade County,WI,NA,79.9787007454739,NA
54487,Lincoln County,WI,NA,NA,42.129629629629626
54494,Wood County,WI,NA,48.3493077742279,NA
54501,Oneida County,WI,NA,NA,55.78703703703704
54660,Monroe County,WI,NA,NA,81.01851851851852
54703,Eau Claire County,WI,NA,19.914802981895633,NA
54822,Barron County,WI,NA,63.25878594249201,NA
54891,Bayfield County,WI,NA,NA,84.49074074074075
54902,Winnebago County,WI,NA,60.17039403620873,NA
54904,Winnebago County,WI,47.686832740213525,NA,NA
54937,Fond du Lac County,WI,29.537366548042705,NA,NA
54952,Winnebago County,WI,NA,50.58572949946751,NA
54956,Winnebago County,WI,NA,47.390841320553776,NA
54961,Waupaca County,WI,NA,82.10862619808307,NA
82001,Laramie County,WY,96.61921708185054,NA,NA
82435,Park County,WY,NA,95.84664536741214,NA
82609,Natrona County,WY,NA,78.16826411075613,NA
