ZipCode,county,state,Adult,Retirement,Geriatric
35043,Shelby County,AL,70.49180327868852,NA,NA
35044,Talladega County,AL,NA,81.91430161380077,NA
35063,Walker County,AL,95.40983606557377,NA,NA
35064,Jefferson County,AL,NA,NA,86.64563617245005
35072,Coosa County,AL,NA,62.71563717306622,NA
35085,Chilton County,AL,88.08743169398907,NA,NA
35117,Jefferson County,AL,NA,94.93600445186422,NA
35125,St. Clair County,AL,NA,52.25375626043406,NA
35127,Jefferson County,AL,NA,68.11352253756262,NA
35128,St. Clair County,AL,NA,52.47634947134112,NA
35173,Jefferson County,AL,NA,NA,37.11882229232387
35204,Jefferson County,AL,59.67213114754099,NA,NA
35215,Jefferson County,AL,28.087431693989075,NA,NA
35503,Walker County,AL,NA,65.16416249304396,NA
35565,Winston County,AL,NA,NA,50.36803364879074
35570,Marion County,AL,56.17486338797815,NA,NA
35580,Walker County,AL,NA,99.44351697273233,NA
35613,Limestone County,AL,33.98907103825137,NA,NA
35620,Limestone County,AL,NA,83.75069560378408,NA
35633,Lauderdale County,AL,NA,44.24040066777963,NA
35653,Franklin County,AL,NA,NA,95.05783385909568
35672,Lawrence County,AL,NA,64.38508625486922,NA
35739,Limestone County,AL,NA,94.76905954368392,NA
35769,Jackson County,AL,77.81420765027323,NA,NA
35801,Madison County,AL,NA,NA,31.861198738170348
35810,Madison County,AL,NA,NA,64.03785488958991
35904,Etowah County,AL,NA,NA,81.4931650893796
35950,Marshall County,AL,NA,67.50139120756818,NA
35956,Etowah County,AL,NA,62.10350584307178,NA
36022,Elmore County,AL,NA,63.77295492487479,NA
36078,Elmore County,AL,85.02732240437159,NA,NA
36079,Pike County,AL,NA,82.74902615470228,NA
36092,Elmore County,AL,36.6120218579235,NA,NA
36093,Elmore County,AL,NA,91.54145798553144,70.87276550998949
36109,Montgomery County,AL,NA,NA,35.96214511041009
36111,Montgomery County,AL,NA,87.20089037284363,NA
36117,Montgomery County,AL,NA,54.92487479131887,NA
36207,Calhoun County,AL,47.431693989071036,NA,NA
36264,Cleburne County,AL,NA,NA,60.462670872765514
36265,Calhoun County,AL,NA,NA,53.62776025236593
36301,Houston County,AL,41.092896174863384,NA,NA
36312,Houston County,AL,NA,69.89426822481914,NA
36330,Coffee County,AL,NA,NA,79.28496319663512
36345,Henry County,AL,67.8688524590164,NA,NA
36360,Dale County,AL,NA,NA,82.01892744479495
36420,Covington County,AL,44.69945355191257,NA,NA
36541,Mobile County,AL,NA,63.10517529215359,NA
36545,Clarke County,AL,NA,72.12020033388981,NA
36576,Baldwin County,AL,NA,94.54646633277684,NA
36582,Mobile County,AL,NA,33.27768503060657,NA
36604,Mobile County,AL,76.72131147540983,NA,NA
36605,Mobile County,AL,60.76502732240437,35.281023928770175,NA
36608,Mobile County,AL,NA,32.60990539788536,NA
36701,Dallas County,AL,NA,49.08180300500835,42.90220820189275
36767,Dallas County,AL,97.37704918032787,NA,NA
36804,Lee County,AL,48.63387978142077,NA,NA
36830,Lee County,AL,56.17486338797815,NA,NA
99508,Anchorage Municipality,AK,14.754098360655737,NA,NA
99623,,AK,NA,NA,84.43743427970557
99645,Matanuska-Susitna Borough,AK,78.68852459016394,NA,97.47634069400631
99901,Ketchikan Gateway Borough,AK,62.185792349726775,36.839176405119645,NA
85007,Maricopa County,AZ,31.147540983606557,NA,NA
85013,Maricopa County,AZ,66.44808743169399,NA,NA
85016,Maricopa County,AZ,NA,52.75459098497496,NA
85021,Maricopa County,AZ,NA,21.480244852532,NA
85023,Maricopa County,AZ,NA,42.84919309961046,NA
85027,Maricopa County,AZ,34.0983606557377,NA,NA
85028,Maricopa County,AZ,NA,45.90984974958264,NA
85029,Maricopa County,AZ,NA,57.595993322203675,NA
85031,Maricopa County,AZ,40.87431693989071,NA,NA
85043,Maricopa County,AZ,NA,72.23149693934336,NA
85085,Maricopa County,AZ,56.393442622950815,NA,NA
85086,Maricopa County,AZ,NA,56.98386199220924,NA
85122,Pinal County,AZ,42.73224043715847,NA,NA
85138,Pinal County,AZ,NA,50.08347245409015,NA
85142,Maricopa County,AZ,8.087431693989071,NA,NA
85201,Maricopa County,AZ,11.03825136612022,NA,NA
85202,Maricopa County,AZ,NA,32.8881469115192,NA
85210,Maricopa County,AZ,19.01639344262295,NA,NA
85224,Maricopa County,AZ,NA,NA,39.537329127234486
85226,Maricopa County,AZ,45.02732240437158,50.75125208681135,NA
85233,Maricopa County,AZ,NA,78.1858653311074,NA
85234,Maricopa County,AZ,NA,39.565943238731215,NA
85250,Maricopa County,AZ,NA,69.78297161936561,NA
85255,Maricopa County,AZ,NA,28.82582081246522,NA
85282,Maricopa County,AZ,NA,30.328324986087924,NA
85283,Maricopa County,AZ,NA,45.57595993322204,NA
85295,Maricopa County,AZ,NA,NA,91.90325972660357
85296,Maricopa County,AZ,NA,NA,48.370136698212406
85331,Maricopa County,AZ,NA,83.41680578742348,NA
85350,Yuma County,AZ,NA,98.05230940456316,NA
85364,Yuma County,AZ,NA,14.41291040623261,NA
85373,Maricopa County,AZ,NA,NA,13.564668769716087
85375,Maricopa County,AZ,NA,42.07011686143572,NA
85383,Maricopa County,AZ,NA,23.316638842515303,NA
85392,Maricopa County,AZ,NA,NA,65.5099894847529
85501,Gila County,AZ,NA,49.30439621591541,NA
85541,Gila County,AZ,NA,27.323316638842517,NA
85546,Graham County,AZ,40.76502732240437,NA,NA
85614,Pima County,AZ,NA,NA,37.64458464773922
85634,Pima County,AZ,70.92896174863388,NA,NA
85635,Cochise County,AZ,NA,97.55147468002225,NA
85653,Pima County,AZ,72.02185792349727,NA,NA
85705,Pima County,AZ,63.82513661202186,3.951029493600445,NA
85713,Pima County,AZ,NA,NA,16.298633017875922
85716,Pima County,AZ,14.535519125683061,NA,NA
85718,Pima County,AZ,NA,73.12186978297161,NA
85719,Pima County,AZ,NA,78.07456872565388,NA
85730,Pima County,AZ,NA,NA,39.327024185068346
85741,Pima County,AZ,NA,30.272676683361155,NA
85742,Pima County,AZ,NA,97.94101279910963,NA
85743,Pima County,AZ,NA,71.00723427935448,NA
85750,Pima County,AZ,NA,NA,30.809674027339646
85935,Navajo County,AZ,NA,NA,90.53627760252367
86004,Coconino County,AZ,4.918032786885246,NA,95.79390115667718
86005,Coconino County,AZ,NA,54.09015025041736,NA
86045,Coconino County,AZ,20.655737704918035,NA,NA
86314,Yavapai County,AZ,NA,91.70840289371174,NA
86326,Yavapai County,AZ,NA,67.72398441847524,NA
86336,Yavapai County,AZ,NA,NA,78.86435331230284
86409,Mohave County,AZ,NA,1.725097384529772,NA
71601,Jefferson County,AR,NA,NA,62.67087276550999
71602,Jefferson County,AR,NA,NA,51.629863301787594
71635,Ashley County,AR,85.79234972677595,42.29271007234279,NA
71639,Desha County,AR,NA,76.6833611574847,NA
71854,Miller County,AR,NA,16.249304396215916,NA
71909,Garland County,AR,88.30601092896175,NA,10.199789695057834
72007,Lonoke County,AR,NA,99.94435169727323,NA
72023,Lonoke County,AR,NA,17.306622148024488,NA
72076,Pulaski County,AR,NA,22.927100723427934,NA
72118,Pulaski County,AR,NA,81.30217028380635,NA
72204,Pulaski County,AR,42.07650273224044,NA,NA
72335,St. Francis County,AR,76.83060109289617,NA,NA
72401,Craighead County,AR,77.92349726775957,NA,11.88222923238696
72404,Craighead County,AR,NA,56.8725653867557,NA
72450,Greene County,AR,NA,44.85253199777407,NA
72501,Independence County,AR,NA,45.353366722314966,NA
72727,Washington County,AR,97.92349726775956,NA,NA
72740,Madison County,AR,NA,89.92765720645521,NA
90001,Los Angeles County,CA,NA,84.08458542014469,NA
90018,Los Angeles County,CA,58.90710382513661,NA,NA
90024,Los Angeles County,CA,68.08743169398907,NA,NA
90026,Los Angeles County,CA,NA,25.65386755703951,NA
90031,Los Angeles County,CA,58.46994535519126,NA,NA
90034,Los Angeles County,CA,NA,37.39565943238731,NA
90044,Los Angeles County,CA,NA,NA,27.865404837013667
90047,Los Angeles County,CA,NA,31.10740122426266,NA
90049,Los Angeles County,CA,NA,60.37840845854201,NA
90056,Los Angeles County,CA,NA,97.32888146911519,NA
90063,Los Angeles County,CA,41.967213114754095,NA,NA
90201,Los Angeles County,CA,NA,NA,44.58464773922187
90220,Los Angeles County,CA,NA,65.83194212576517,NA
90242,Los Angeles County,CA,NA,NA,33.543638275499475
90247,Los Angeles County,CA,NA,NA,39.74763406940063
90262,Los Angeles County,CA,28.743169398907103,NA,NA
90274,Los Angeles County,CA,NA,86.42181413466889,NA
90291,Los Angeles County,CA,NA,NA,59.4111461619348
90293,Los Angeles County,CA,NA,NA,75.92008412197687
90404,Los Angeles County,CA,NA,NA,88.01261829652996
90503,Los Angeles County,CA,40.32786885245901,29.271007234279356,NA
90602,Los Angeles County,CA,NA,42.125765164162495,NA
90605,Los Angeles County,CA,NA,NA,74.97371188222924
90620,Orange County,CA,NA,23.53923205342237,NA
90638,Los Angeles County,CA,NA,54.47968836950473,NA
90660,Los Angeles County,CA,51.038251366120214,NA,NA
90703,Los Angeles County,CA,NA,NA,27.655099894847528
90706,Los Angeles County,CA,20.546448087431692,NA,NA
90710,Los Angeles County,CA,NA,NA,60.77812828601472
90713,Los Angeles County,CA,NA,NA,61.61934805467929
90745,Los Angeles County,CA,NA,NA,15.457413249211358
90810,Los Angeles County,CA,48.85245901639344,NA,NA
91007,Los Angeles County,CA,96.06557377049181,NA,NA
91042,Los Angeles County,CA,NA,35.67056204785754,NA
91105,Los Angeles County,CA,NA,NA,84.3322818086225
91202,Los Angeles County,CA,NA,NA,20.39957939011567
91214,Los Angeles County,CA,NA,NA,37.22397476340694
91302,Los Angeles County,CA,NA,88.09126321647189,NA
91304,Los Angeles County,CA,NA,36.78352810239288,41.85068349106204
91311,Los Angeles County,CA,NA,92.04229271007233,NA
91316,Los Angeles County,CA,NA,77.96327212020033,NA
91325,Los Angeles County,CA,NA,73.84529771841959,NA
91326,Los Angeles County,CA,NA,NA,32.07150368033649
91331,Los Angeles County,CA,NA,10.01669449081803,25.44689800210305
91352,Los Angeles County,CA,NA,58.931552587646074,NA
91354,Los Angeles County,CA,NA,62.270450751252085,NA
91355,Los Angeles County,CA,60.32786885245902,NA,NA
91356,Los Angeles County,CA,69.39890710382514,NA,NA
91367,Los Angeles County,CA,NA,NA,14.195583596214512
91387,Los Angeles County,CA,NA,26.766833611574846,NA
91403,Los Angeles County,CA,NA,NA,29.33753943217666
91405,Los Angeles County,CA,NA,NA,37.74973711882229
91423,Los Angeles County,CA,NA,86.75570395102949,NA
91605,Los Angeles County,CA,NA,32.94379521424597,NA
91606,Los Angeles County,CA,NA,39.34335002782415,NA
91607,Los Angeles County,CA,NA,NA,27.549947423764458
91706,Los Angeles County,CA,21.311475409836063,NA,NA
91709,San Bernardino County,CA,NA,70.50639955481358,NA
91722,Los Angeles County,CA,NA,40.79020589872009,NA
91737,San Bernardino County,CA,91.5846994535519,NA,NA
91748,Los Angeles County,CA,NA,NA,57.202944269190326
91754,Los Angeles County,CA,NA,42.793544796883694,48.68559411146162
91761,San Bernardino County,CA,NA,NA,69.71608832807571
91762,San Bernardino County,CA,NA,32.94379521424597,NA
91766,Los Angeles County,CA,32.78688524590164,NA,NA
91768,Los Angeles County,CA,NA,83.47245409015025,NA
91786,San Bernardino County,CA,NA,21.59154145798553,NA
91902,San Diego County,CA,NA,66.38842515303284,NA
91941,San Diego County,CA,NA,NA,88.32807570977917
91942,San Diego County,CA,84.26229508196721,NA,NA
91945,San Diego County,CA,NA,52.92153589315526,NA
92019,San Diego County,CA,NA,31.886477462437394,NA
92021,San Diego County,CA,NA,NA,50.683491062039955
92024,San Diego County,CA,73.77049180327869,NA,NA
92025,San Diego County,CA,39.23497267759563,NA,35.33123028391167
92028,San Diego County,CA,52.131147540983605,NA,NA
92040,San Diego County,CA,NA,45.52031163049527,23.34384858044164
92057,San Diego County,CA,NA,67.89092932665554,NA
92071,San Diego County,CA,86.66666666666667,25.486922648859213,NA
92078,San Diego County,CA,NA,33.611574846967166,66.03575184016825
92082,San Diego County,CA,79.23497267759562,NA,NA
92101,San Diego County,CA,NA,5.119643850862548,NA
92107,San Diego County,CA,NA,53.255425709515855,NA
92111,San Diego County,CA,NA,NA,20.715036803364878
92120,San Diego County,CA,67.65027322404372,NA,NA
92129,San Diego County,CA,NA,NA,67.19242902208202
92130,San Diego County,CA,NA,43.85086254869226,NA
92139,San Diego County,CA,NA,54.09015025041736,NA
92201,Riverside County,CA,NA,9.404563160823596,NA
92220,Riverside County,CA,NA,70.72899276572065,NA
92227,Imperial County,CA,NA,NA,34.27970557308097
92241,Riverside County,CA,NA,63.49471341124095,NA
92243,Imperial County,CA,NA,19.922092376182526,NA
92252,San Bernardino County,CA,NA,63.38341680578742,NA
92260,Riverside County,CA,NA,7.0116861435726205,NA
92262,Riverside County,CA,NA,46.633277685030606,33.22818086225026
92270,Riverside County,CA,NA,4.451864218141346,NA
92284,San Bernardino County,CA,NA,NA,47.634069400630914
92336,San Bernardino County,CA,30.16393442622951,9.348914858096828,NA
92345,San Bernardino County,CA,30.382513661202186,NA,NA
92346,San Bernardino County,CA,22.404371584699454,NA,NA
92373,San Bernardino County,CA,NA,47.690595436839175,NA
92399,San Bernardino County,CA,NA,11.797440178074568,19.873817034700316
92503,Riverside County,CA,NA,13.02170283806344,NA
92506,Riverside County,CA,NA,NA,42.586750788643535
92544,Riverside County,CA,NA,NA,73.81703470031546
92548,Riverside County,CA,NA,NA,95.26813880126183
92553,Riverside County,CA,22.404371584699454,NA,NA
92571,Riverside County,CA,32.56830601092896,NA,NA
92582,Riverside County,CA,79.01639344262294,NA,NA
92596,Riverside County,CA,63.169398907103826,NA,NA
92627,Orange County,CA,16.721311475409838,48.74791318864774,NA
92646,Orange County,CA,NA,4.451864218141346,5.678233438485805
92647,Orange County,CA,NA,NA,56.88748685594112
92648,Orange County,CA,NA,13.745130773511407,NA
92651,Orange County,CA,NA,31.83082915971063,NA
92672,Orange County,CA,NA,NA,33.01787592008412
92677,Orange County,CA,NA,27.04507512520868,NA
92688,Orange County,CA,NA,54.81357818586533,NA
92705,Orange County,CA,NA,77.40678909293267,NA
92706,Orange County,CA,NA,NA,52.26077812828601
92802,Orange County,CA,NA,29.104062326099054,NA
92807,Orange County,CA,NA,56.64997217584864,NA
92808,Orange County,CA,83.93442622950819,NA,NA
92840,Orange County,CA,NA,24.151363383416804,NA
92865,Orange County,CA,NA,85.19755147468003,NA
92867,Orange County,CA,NA,78.57540345019477,NA
92879,Riverside County,CA,41.53005464480874,NA,NA
92881,Riverside County,CA,NA,57.2064552031163,NA
92882,Riverside County,CA,NA,23.53923205342237,NA
93001,Ventura County,CA,21.85792349726776,19.36560934891486,NA
93003,Ventura County,CA,12.131147540983607,NA,38.27549947423765
93010,Ventura County,CA,85.24590163934425,NA,NA
93012,Ventura County,CA,57.377049180327866,NA,NA
93015,Ventura County,CA,58.68852459016394,NA,NA
93035,Ventura County,CA,NA,46.18809126321647,NA
93103,Santa Barbara County,CA,NA,84.91930996104618,NA
93245,Kings County,CA,NA,52.75459098497496,NA
93274,Tulare County,CA,NA,10.127991096271565,NA
93305,Kern County,CA,62.841530054644814,NA,NA
93307,Kern County,CA,10.92896174863388,NA,NA
93308,Kern County,CA,88.96174863387978,48.91485809682805,NA
93401,San Luis Obispo County,CA,NA,37.45130773511408,NA
93402,San Luis Obispo County,CA,NA,60.322760155815246,NA
93422,San Luis Obispo County,CA,NA,59.98887033945465,NA
93445,San Luis Obispo County,CA,NA,92.82136894824707,NA
93455,Santa Barbara County,CA,NA,83.08291597106289,NA
93555,Kern County,CA,48.08743169398907,11.519198664440735,NA
93611,Fresno County,CA,98.5792349726776,NA,NA
93614,Madera County,CA,90.3825136612022,NA,NA
93620,Merced County,CA,NA,NA,88.85383806519454
93648,Fresno County,CA,NA,91.48580968280467,NA
93675,Fresno County,CA,NA,99.10962715637173,NA
93702,Fresno County,CA,NA,NA,65.8254468980021
93706,Fresno County,CA,NA,79.07623817473566,NA
93711,Fresno County,CA,77.04918032786885,NA,NA
93722,Fresno County,CA,NA,8.069003895381192,NA
93901,Monterey County,CA,44.15300546448088,NA,NA
93906,Monterey County,CA,NA,NA,33.964248159831754
93907,Monterey County,CA,NA,NA,59.62145110410094
93933,Monterey County,CA,NA,NA,54.99474237644585
93955,Monterey County,CA,NA,NA,24.9211356466877
94010,San Mateo County,CA,NA,65.99888703394546,NA
94014,San Mateo County,CA,NA,47.18976071229827,7.991587802313354
94015,San Mateo County,CA,NA,NA,2.9442691903259726
94024,Santa Clara County,CA,NA,NA,84.75289169295478
94030,San Mateo County,CA,80.10928961748634,NA,NA
94061,San Mateo County,CA,NA,64.38508625486922,43.743427970557306
94070,San Mateo County,CA,NA,NA,46.05678233438486
94080,San Mateo County,CA,NA,86.0879243183083,NA
94089,Santa Clara County,CA,70.49180327868852,NA,NA
94102,San Francisco County,CA,NA,22.20367278797997,47.213459516298634
94107,San Francisco County,CA,NA,NA,38.90641430073607
94110,San Francisco County,CA,10.382513661202186,NA,NA
94116,San Francisco County,CA,NA,23.316638842515303,NA
94117,San Francisco County,CA,29.836065573770494,NA,NA
94122,San Francisco County,CA,NA,12.743461324429607,NA
94503,Napa County,CA,NA,87.31218697829716,NA
94513,Contra Costa County,CA,89.18032786885246,43.572621035058425,NA
94533,Solano County,CA,NA,NA,9.989484752891693
94541,Alameda County,CA,NA,38.67557039510295,NA
94547,Contra Costa County,CA,NA,57.26210350584308,NA
94549,Contra Costa County,CA,NA,42.960489705064,NA
94550,Alameda County,CA,NA,NA,42.16614090431125
94555,Alameda County,CA,NA,75.95993322203672,NA
94558,Napa County,CA,NA,NA,18.29652996845426
94560,Alameda County,CA,NA,NA,76.13038906414302
94571,Solano County,CA,NA,NA,50.05257623554154
94578,Alameda County,CA,NA,38.45297718419588,NA
94579,Alameda County,CA,NA,58.263772954924875,36.27760252365931
94587,Alameda County,CA,95.95628415300547,57.98553144129104,NA
94590,Solano County,CA,NA,46.132442960489705,NA
94591,Solano County,CA,NA,NA,45.74132492113564
94599,Napa County,CA,NA,83.13856427378965,NA
94601,Alameda County,CA,NA,54.646633277685034,NA
94602,Alameda County,CA,NA,NA,54.4689800210305
94608,Alameda County,CA,44.26229508196721,NA,NA
94611,Alameda County,CA,NA,13.633834168057874,NA
94702,Alameda County,CA,NA,89.87200890372844,NA
94803,Contra Costa County,CA,NA,60.211463550361714,NA
94806,Contra Costa County,CA,NA,12.96605453533667,NA
94903,Marin County,CA,64.26229508196721,NA,NA
94945,Marin County,CA,NA,76.40511964385087,NA
94952,Sonoma County,CA,NA,77.5180856983862,NA
94960,Marin County,CA,NA,95.65943238731218,75.8149316508938
95010,Santa Cruz County,CA,87.75956284153006,NA,NA
95037,Santa Clara County,CA,NA,NA,54.78443743427971
95070,Santa Clara County,CA,NA,55.98219254312743,NA
95122,Santa Clara County,CA,NA,34.16805787423483,NA
95129,Santa Clara County,CA,73.98907103825137,NA,NA
95132,Santa Clara County,CA,66.22950819672131,NA,NA
95148,Santa Clara County,CA,NA,28.547579298831387,NA
95204,San Joaquin County,CA,NA,NA,56.782334384858046
95209,San Joaquin County,CA,NA,88.98163606010017,NA
95215,San Joaquin County,CA,NA,69.33778519755147,NA
95222,Calaveras County,CA,NA,NA,99.15878023133544
95240,San Joaquin County,CA,NA,30.82915971062883,NA
95307,Stanislaus County,CA,53.77049180327869,NA,NA
95340,Merced County,CA,NA,95.54813578185866,NA
95350,Stanislaus County,CA,NA,7.178631051752922,NA
95356,Stanislaus County,CA,73.87978142076503,NA,NA
95358,Stanislaus County,CA,NA,34.891485809682806,NA
95367,Stanislaus County,CA,NA,NA,43.84858044164038
95380,Stanislaus County,CA,NA,NA,46.37223974763407
95391,San Joaquin County,CA,71.25683060109289,NA,NA
95405,Sonoma County,CA,NA,39.73288814691152,NA
95422,Lake County,CA,NA,36.89482470784641,NA
95448,Sonoma County,CA,NA,73.1775180856984,NA
95482,Mendocino County,CA,NA,NA,72.9758149316509
95519,Humboldt County,CA,NA,NA,52.36593059936908
95531,Del Norte County,CA,51.91256830601093,35.72621035058431,NA
95602,Placer County,CA,NA,82.63772954924875,25.65720294426919
95603,Placer County,CA,NA,31.719532554257096,NA
95624,Sacramento County,CA,38.25136612021858,NA,NA
95648,Placer County,CA,NA,NA,6.309148264984227
95670,Sacramento County,CA,NA,20.812465219810797,NA
95678,Placer County,CA,NA,21.313299944351698,NA
95682,El Dorado County,CA,48.41530054644809,NA,NA
95685,Amador County,CA,99.01639344262296,NA,NA
95757,Sacramento County,CA,NA,79.91096271563717,NA
95818,Sacramento County,CA,NA,56.14913745130774,NA
95823,Sacramento County,CA,33.55191256830601,NA,NA
95827,Sacramento County,CA,NA,52.25375626043406,NA
95828,Sacramento County,CA,NA,74.40178074568725,NA
95831,Sacramento County,CA,91.80327868852459,NA,NA
95901,Yuba County,CA,46.885245901639344,NA,NA
95945,Nevada County,CA,93.00546448087431,NA,NA
95963,Glenn County,CA,NA,NA,50.683491062039955
95993,Sutter County,CA,NA,26.37729549248748,NA
96003,Shasta County,CA,NA,59.54368391764051,20.60988433228181
96007,Shasta County,CA,85.68306010928963,NA,NA
96021,Tehama County,CA,NA,NA,84.12197686645636
96101,Modoc County,CA,NA,71.22982749026154,NA
80005,Jefferson County,CO,NA,47.52365052865888,NA
80022,Adams County,CO,65.90163934426229,25.98775737340011,NA
80027,Boulder County,CO,NA,NA,94.21661409043112
80108,Douglas County,CO,40,NA,NA
80111,Arapahoe County,CO,NA,NA,58.25446898002104
80127,Jefferson County,CO,38.142076502732245,NA,NA
80132,El Paso County,CO,NA,43.40567612687813,NA
80205,Denver County,CO,NA,21.92543127434613,94.3217665615142
80219,Denver County,CO,3.278688524590164,13.077351140790206,NA
80220,Denver County,CO,NA,95.38119087367835,NA
80221,Adams County,CO,NA,63.55036171396773,NA
80223,Denver County,CO,NA,65.38675570395102,NA
80233,Adams County,CO,NA,NA,96.21451104100946
80237,Denver County,CO,NA,NA,92.74447949526814
80303,Boulder County,CO,NA,NA,51.31440588853838
80433,Jefferson County,CO,NA,95.88202559821926,NA
80537,Larimer County,CO,18.0327868852459,NA,NA
80538,Larimer County,CO,10.05464480874317,NA,NA
80550,Weld County,CO,24.808743169398905,NA,NA
80602,Adams County,CO,NA,84.69671675013912,NA
80701,Morgan County,CO,61.20218579234973,84.97495826377296,NA
80751,Logan County,CO,34.75409836065574,NA,NA
80816,Teller County,CO,85.13661202185793,NA,NA
80906,El Paso County,CO,NA,26.32164718976071,NA
80918,El Paso County,CO,NA,22.370617696160267,NA
81001,Pueblo County,CO,NA,29.04841402337229,NA
81008,Pueblo County,CO,NA,93.32220367278798,NA
81089,Huerfano County,CO,80.5464480874317,NA,NA
81212,Fremont County,CO,32.459016393442624,NA,NA
81321,Montezuma County,CO,NA,NA,38.69610935856993
81503,Mesa County,CO,NA,NA,97.05573080967402
81505,Mesa County,CO,NA,NA,89.06414300736067
81520,Mesa County,CO,NA,NA,82.5446898002103
81625,Moffat County,CO,96.17486338797814,NA,NA
06010,Hartford County,CT,NA,NA,85.068349106204
06033,Hartford County,CT,NA,88.2582081246522,NA
06040,Hartford County,CT,NA,NA,49.63196635120926
06053,Hartford County,CT,8.961748633879782,NA,34.38485804416404
06062,Hartford County,CT,NA,73.67835281023929,NA
06067,Hartford County,CT,NA,NA,53.732912723449
06070,Hartford County,CT,NA,NA,57.3080967402734
06084,Tolland County,CT,NA,82.86032276015581,NA
06093,Hartford County,CT,NA,99.38786867000556,NA
06106,Hartford County,CT,NA,31.997774067890926,NA
06109,Hartford County,CT,88.41530054644808,90.929326655537,NA
06114,Hartford County,CT,13.333333333333334,NA,NA
06260,Windham County,CT,26.120218579234972,NA,NA
06405,New Haven County,CT,NA,NA,8.307045215562566
06413,Middlesex County,CT,NA,49.91652754590985,36.48790746582545
06415,New London County,CT,NA,53.70061213133,NA
06455,Middlesex County,CT,NA,99.77740678909294,NA
06460,New Haven County,CT,NA,8.736783528102393,NA
06468,Fairfield County,CT,69.94535519125684,NA,NA
06484,Fairfield County,CT,29.72677595628415,NA,NA
06488,New Haven County,CT,72.24043715846994,NA,NA
06492,New Haven County,CT,NA,NA,4.100946372239748
06511,New Haven County,CT,3.060109289617486,NA,NA
06512,New Haven County,CT,18.907103825136613,NA,NA
06513,New Haven County,CT,31.91256830601093,NA,NA
06514,New Haven County,CT,29.398907103825138,NA,NA
06518,New Haven County,CT,NA,80.57874234835838,NA
06605,Fairfield County,CT,NA,45.2977184195882,NA
06614,Fairfield County,CT,NA,21.202003338898166,NA
06779,Litchfield County,CT,NA,NA,62.03995793901157
06786,Litchfield County,CT,86.12021857923497,NA,NA
06801,Fairfield County,CT,NA,40.23372287145242,NA
06880,Fairfield County,CT,NA,45.79855314412911,NA
06902,Fairfield County,CT,NA,87.47913188647746,NA
19702,New Castle County,DE,NA,37.95214245965498,NA
19709,New Castle County,DE,NA,11.185308848080133,NA
19711,New Castle County,DE,25.683060109289617,NA,NA
19713,New Castle County,DE,NA,19.087367835281025,NA
19801,New Castle County,DE,NA,73.78964941569282,NA
19808,New Castle County,DE,NA,NA,5.257623554153523
19904,Kent County,DE,NA,NA,18.40168243953733
19933,Sussex County,DE,NA,51.41903171953256,64.66876971608832
19934,Kent County,DE,NA,54.86922648859209,NA
19947,Sussex County,DE,NA,26.54424040066778,NA
19958,Sussex County,DE,NA,NA,52.99684542586751
19963,Sussex County,DE,29.18032786885246,53.53366722314969,NA
19966,Sussex County,DE,NA,85.7540345019477,NA
19970,Sussex County,DE,NA,80.52309404563161,NA
19973,Sussex County,DE,NA,11.908736783528102,75.39432176656152
19975,Sussex County,DE,NA,65.4424040066778,41.430073606729756
19977,Kent County,DE,NA,NA,35.120925341745526
32043,Clay County,FL,NA,NA,40.273396424815985
32065,Clay County,FL,NA,23.87312186978297,NA
32073,Clay County,FL,NA,18.196994991652755,NA
32084,St. Johns County,FL,NA,61.491374513077346,NA
32091,Bradford County,FL,NA,27.434613244296045,NA
32097,Nassau County,FL,NA,22.70450751252087,NA
32127,Volusia County,FL,NA,25.264329437952142,NA
32134,Marion County,FL,NA,89.0929326655537,NA
32163,Sumter County,FL,93.77049180327869,NA,NA
32168,Volusia County,FL,NA,NA,98.10725552050474
32177,Putnam County,FL,NA,42.515303283249864,NA
32204,Duval County,FL,53.22404371584699,NA,NA
32209,Duval County,FL,NA,7.289927657206455,NA
32210,Duval County,FL,17.04918032786885,3.8397328881469113,NA
32216,Duval County,FL,NA,18.864774624373958,NA
32217,Duval County,FL,NA,73.51140790205899,NA
32225,Duval County,FL,NA,NA,10.935856992639327
32226,Duval County,FL,63.60655737704918,NA,NA
32312,Leon County,FL,NA,40.73455759599332,NA
32347,Taylor County,FL,NA,67.05620478575403,NA
32404,Bay County,FL,72.34972677595628,57.373400111296604,17.245005257623554
32428,Washington County,FL,44.04371584699454,NA,NA
32440,Jackson County,FL,NA,69.72732331663885,NA
32444,Bay County,FL,NA,NA,64.35331230283911
32531,Okaloosa County,FL,NA,87.81302170283807,NA
32533,Escambia County,FL,24.262295081967213,NA,NA
32535,Escambia County,FL,NA,NA,64.24815983175604
32539,Okaloosa County,FL,NA,16.69449081803005,NA
32548,Okaloosa County,FL,NA,NA,58.46477392218718
32571,Santa Rosa County,FL,11.147540983606557,NA,NA
32577,Escambia County,FL,NA,56.5386755703951,NA
32578,Okaloosa County,FL,NA,NA,15.983175604626709
32607,Alachua County,FL,NA,NA,44.79495268138801
32608,Alachua County,FL,NA,NA,21.13564668769716
32615,Alachua County,FL,NA,41.17974401780746,NA
32640,Putnam County,FL,89.8360655737705,NA,NA
32668,Levy County,FL,NA,63.21647189760712,NA
32669,Alachua County,FL,NA,NA,68.55941114616193
32703,Orange County,FL,NA,38.00779076238175,NA
32708,Seminole County,FL,NA,24.42960489705064,NA
32724,Volusia County,FL,NA,NA,49.00105152471083
32732,Seminole County,FL,99.4535519125683,NA,NA
32736,Lake County,FL,69.83606557377048,NA,NA
32763,Volusia County,FL,NA,46.68892598775737,NA
32765,Seminole County,FL,NA,NA,35.646687697160885
32792,Orange County,FL,50.1639344262295,NA,NA
32796,Brevard County,FL,NA,71.45242070116862,NA
32807,Orange County,FL,NA,45.01947690595437,NA
32810,Orange County,FL,32.021857923497265,NA,NA
32822,Orange County,FL,NA,60.26711185308849,NA
32825,Orange County,FL,27.10382513661202,NA,NA
32904,Brevard County,FL,NA,29.883138564273793,NA
32905,Brevard County,FL,73.11475409836066,NA,NA
32922,Brevard County,FL,39.89071038251366,NA,NA
32953,Brevard County,FL,NA,40.178074568725656,58.78023133543638
32955,Brevard County,FL,NA,14.07902058987201,NA
32967,Indian River County,FL,38.46994535519126,NA,NA
33010,Miami-Dade County,FL,NA,26.989426822481917,NA
33014,Miami-Dade County,FL,NA,76.96160267111853,NA
33035,Miami-Dade County,FL,NA,70.2838063439065,NA
33036,Monroe County,FL,NA,93.48914858096829,NA
33055,Miami-Dade County,FL,NA,43.1274346132443,NA
33064,Broward County,FL,NA,9.68280467445743,NA
33067,Broward County,FL,NA,81.58041179744018,NA
33069,Broward County,FL,NA,47.30105731775181,54.4689800210305
33073,Broward County,FL,NA,58.98720089037285,NA
33125,Miami-Dade County,FL,36.39344262295082,NA,NA
33135,Miami-Dade County,FL,64.59016393442623,NA,NA
33139,Miami-Dade County,FL,49.8360655737705,NA,NA
33140,Miami-Dade County,FL,NA,NA,16.61409043112513
33144,Miami-Dade County,FL,NA,NA,10.725552050473187
33145,Miami-Dade County,FL,NA,NA,23.974763406940063
33162,Miami-Dade County,FL,NA,44.7968836950473,NA
33165,Miami-Dade County,FL,NA,22.481914301613802,NA
33172,Miami-Dade County,FL,NA,43.40567612687813,NA
33173,Miami-Dade County,FL,NA,NA,13.249211356466878
33177,Miami-Dade County,FL,NA,NA,17.139852786540484
33178,Miami-Dade County,FL,NA,61.101836393989984,NA
33190,Miami-Dade County,FL,NA,98.27490261547022,NA
33308,Broward County,FL,NA,8.291597106288258,NA
33312,Broward County,FL,NA,10.294936004451865,NA
33321,Broward County,FL,46.557377049180324,NA,NA
33327,Broward County,FL,74.97267759562841,NA,NA
33331,Broward County,FL,NA,NA,79.91587802313354
33334,Broward County,FL,NA,36.060100166944906,NA
33351,Broward County,FL,NA,44.51864218141346,NA
33407,Palm Beach County,FL,NA,38.00779076238175,NA
33413,Palm Beach County,FL,73.224043715847,NA,NA
33431,Palm Beach County,FL,73.55191256830601,NA,NA
33432,Palm Beach County,FL,NA,NA,77.39221871713985
33433,Palm Beach County,FL,NA,NA,0.8412197686645636
33437,Palm Beach County,FL,NA,NA,0.10515247108307045
33458,Palm Beach County,FL,NA,76.3494713411241,21.766561514195583
33462,Palm Beach County,FL,58.5792349726776,86.70005564830274,NA
33467,Palm Beach County,FL,47.10382513661202,NA,NA
33473,Palm Beach County,FL,NA,74.73567056204786,NA
33480,Palm Beach County,FL,NA,NA,29.12723449001052
33483,Palm Beach County,FL,NA,64.16249304396216,NA
33498,Palm Beach County,FL,NA,NA,46.68769716088328
33511,Hillsborough County,FL,59.12568306010929,17.640511964385087,NA
33513,Sumter County,FL,72.6775956284153,NA,NA
33525,Pasco County,FL,NA,58.65331107401224,NA
33541,Pasco County,FL,NA,22.6488592097941,NA
33542,Pasco County,FL,NA,34.05676126878131,NA
33543,Pasco County,FL,91.47540983606557,NA,NA
33556,Hillsborough County,FL,NA,71.00723427935448,NA
33563,Hillsborough County,FL,66.12021857923497,44.073455759599334,NA
33573,Hillsborough County,FL,NA,12.298274902615471,NA
33578,Hillsborough County,FL,NA,42.515303283249864,NA
33596,Hillsborough County,FL,NA,43.73956594323873,NA
33604,Hillsborough County,FL,NA,NA,67.82334384858044
33611,Hillsborough County,FL,60.983606557377044,NA,NA
33613,Hillsborough County,FL,NA,NA,97.68664563617246
33615,Hillsborough County,FL,23.60655737704918,NA,NA
33618,Hillsborough County,FL,NA,34.05676126878131,NA
33637,Hillsborough County,FL,NA,87.14524207011685,NA
33647,Hillsborough County,FL,67.75956284153006,30.05008347245409,30.17875920084122
33704,Pinellas County,FL,NA,82.69337785197551,NA
33707,Pinellas County,FL,NA,63.71730662214803,NA
33756,Pinellas County,FL,NA,24.930439621591542,NA
33759,Pinellas County,FL,96.83060109289617,57.76293823038397,NA
33763,Pinellas County,FL,NA,41.235392320534224,NA
33770,Pinellas County,FL,NA,39.89983305509182,NA
33811,Polk County,FL,NA,93.82303839732889,NA
33825,Highlands County,FL,NA,NA,15.772870662460567
33830,Polk County,FL,NA,93.71174179187534,NA
33876,Highlands County,FL,NA,78.0189204229271,NA
33897,Polk County,FL,81.31147540983606,NA,NA
33898,Polk County,FL,NA,NA,36.90851735015773
33908,Lee County,FL,NA,58.152476349471335,NA
33912,Lee County,FL,NA,30.105731775180857,14.826498422712934
33950,Charlotte County,FL,NA,63.160823594880355,NA
33952,Charlotte County,FL,20.76502732240437,NA,NA
33957,Lee County,FL,NA,NA,79.60042060988434
34104,Collier County,FL,NA,NA,33.85909568874869
34112,Collier County,FL,79.12568306010928,NA,NA
34145,Collier County,FL,86.22950819672131,NA,NA
34205,Manatee County,FL,NA,31.60823594880356,NA
34207,Manatee County,FL,NA,NA,40.483701366982125
34211,Manatee County,FL,NA,89.7607122982749,NA
34219,Manatee County,FL,NA,47.24540901502504,NA
34229,Sarasota County,FL,NA,75.18085698386199,NA
34235,Sarasota County,FL,NA,41.346688925987756,NA
34237,Sarasota County,FL,NA,53.0328324986088,NA
34238,Sarasota County,FL,NA,25.208681135225376,NA
34243,Manatee County,FL,NA,44.351697273233164,NA
34266,DeSoto County,FL,NA,33.83416805787424,NA
34275,Sarasota County,FL,NA,18.14134668892599,11.35646687697161
34285,Sarasota County,FL,NA,38.17473567056205,NA
34293,Sarasota County,FL,NA,NA,2.1030494216614093
34428,Citrus County,FL,NA,90.87367835281024,NA
34431,Marion County,FL,NA,NA,73.39642481598318
34434,Citrus County,FL,NA,90.5954368391764,NA
34442,Citrus County,FL,NA,79.5214245965498,NA
34448,Citrus County,FL,70.05464480874318,NA,NA
34465,Citrus County,FL,52.89617486338798,NA,NA
34472,Marion County,FL,NA,37.117417918753475,NA
34481,Marion County,FL,NA,NA,9.568874868559412
34491,Marion County,FL,NA,21.03505843071786,NA
34606,Hernando County,FL,NA,68.83695047301057,NA
34607,Hernando County,FL,NA,NA,89.37960042060989
34609,Hernando County,FL,53.22404371584699,NA,NA
34655,Pasco County,FL,NA,60.54535336672231,NA
34667,Pasco County,FL,NA,16.416249304396217,NA
34683,Pinellas County,FL,NA,NA,36.17245005257624
34711,Lake County,FL,NA,34.16805787423483,20.189274447949526
34715,Lake County,FL,NA,NA,84.96319663512094
34736,Lake County,FL,NA,33.0550918196995,NA
34744,Osceola County,FL,82.07650273224044,NA,NA
34746,Osceola County,FL,29.94535519125683,NA,NA
34759,Polk County,FL,NA,58.875904284919315,NA
34761,Orange County,FL,60.65573770491803,NA,NA
34785,Sumter County,FL,77.59562841530054,NA,NA
34788,Lake County,FL,NA,18.80912632164719,NA
34953,St. Lucie County,FL,4.2622950819672125,21.8141346688926,NA
34972,Okeechobee County,FL,NA,58.59766277128548,NA
34983,St. Lucie County,FL,18.469945355191257,NA,NA
34997,Martin County,FL,NA,NA,22.502628811777075
30034,DeKalb County,GA,NA,42.626599888703396,44.05888538380652
30041,Forsyth County,GA,23.060109289617486,NA,NA
30045,Gwinnett County,GA,80.98360655737706,NA,NA
30058,DeKalb County,GA,NA,18.196994991652755,NA
30062,Cobb County,GA,NA,8.013355592654424,NA
30067,Cobb County,GA,NA,74.56872565386756,NA
30068,Cobb County,GA,NA,NA,57.72870662460568
30075,Fulton County,GA,59.4535519125683,NA,NA
30093,Gwinnett County,GA,NA,61.602671118530886,NA
30096,Gwinnett County,GA,NA,19.532554257095157,97.58149316508938
30097,Fulton County,GA,91.14754098360656,84.19588202559822,NA
30101,Cobb County,GA,22.18579234972678,NA,NA
30113,Haralson County,GA,NA,NA,85.48895899053628
30117,Carroll County,GA,NA,NA,23.55415352260778
30120,Bartow County,GA,16.830601092896174,NA,NA
30125,Polk County,GA,NA,29.660545353366725,NA
30135,Douglas County,GA,NA,32.053422370617696,32.28180862250263
30157,Paulding County,GA,NA,15.692821368948248,NA
30161,Floyd County,GA,NA,NA,58.0441640378549
30180,Carroll County,GA,19.34426229508197,23.650528658875906,NA
30213,Fulton County,GA,NA,NA,72.87066246056783
30215,Fayette County,GA,51.256830601092894,NA,NA
30223,Spalding County,GA,NA,23.205342237061767,NA
30224,Spalding County,GA,NA,35.50361713967724,NA
30238,Clayton County,GA,NA,68.44741235392321,NA
30252,Henry County,GA,31.80327868852459,NA,NA
30263,Coweta County,GA,NA,66.7779632721202,NA
30265,Coweta County,GA,NA,86.86700055648303,NA
30288,Clayton County,GA,NA,79.13188647746243,NA
30296,Clayton County,GA,NA,NA,95.68874868559412
30316,DeKalb County,GA,NA,NA,37.960042060988435
30328,Fulton County,GA,NA,NA,25.341745531019978
30442,Jenkins County,GA,NA,81.85865331107401,NA
30512,Union County,GA,NA,34.33500278241514,NA
30517,Jackson County,GA,NA,64.9415692821369,NA
30518,Gwinnett County,GA,NA,52.3650528658876,NA
30519,Gwinnett County,GA,37.37704918032787,NA,NA
30529,Jackson County,GA,69.61748633879782,NA,NA
30559,Fannin County,GA,NA,NA,92.11356466876973
30560,Fannin County,GA,NA,NA,80.7570977917981
30577,Stephens County,GA,NA,51.25208681135225,NA
30655,Walton County,GA,NA,18.64218141346689,NA
30656,Walton County,GA,NA,47.412353923205345,NA
30662,Franklin County,GA,NA,82.97161936560936,NA
30680,Barrow County,GA,NA,13.411240957150808,NA
30705,Murray County,GA,24.59016393442623,NA,NA
30720,Whitfield County,GA,NA,45.18642181413467,82.33438485804416
30721,Whitfield County,GA,94.86338797814207,NA,NA
30741,Walker County,GA,NA,65.66499721758487,NA
30747,Chattooga County,GA,NA,49.13745130773511,NA
30802,Columbia County,GA,NA,89.31552587646077,NA
30809,Columbia County,GA,NA,6.67779632721202,NA
30813,Columbia County,GA,NA,56.093489148580964,NA
30904,Richmond County,GA,NA,39.065108514190314,NA
30907,Columbia County,GA,81.53005464480874,5.78742348358375,NA
31008,Peach County,GA,NA,NA,83.59621451104101
31024,Putnam County,GA,NA,26.154702281580413,NA
31029,Monroe County,GA,NA,NA,76.76130389064143
31030,Peach County,GA,NA,90.7623817473567,NA
31032,Jones County,GA,NA,82.41513633834168,NA
31052,Bibb County,GA,NA,87.03394546466333,NA
31093,Houston County,GA,27.97814207650273,NA,NA
31206,Bibb County,GA,NA,35.83750695603784,NA
31210,Bibb County,GA,NA,NA,34.80546792849632
31217,Bibb County,GA,NA,34.94713411240957,NA
31308,Bryan County,GA,NA,99.55481357818586,NA
31312,Effingham County,GA,NA,NA,99.36908517350159
31322,Chatham County,GA,NA,78.6867000556483,NA
31331,McIntosh County,GA,NA,NA,84.01682439537329
31410,Chatham County,GA,NA,58.48636616583194,NA
31411,Chatham County,GA,NA,79.8553144129104,84.75289169295478
31503,Ware County,GA,NA,NA,70.76761303890642
31510,Bacon County,GA,NA,93.43350027824151,NA
31539,Jeff Davis County,GA,NA,50.75125208681135,NA
31605,Lowndes County,GA,62.295081967213115,NA,63.40694006309149
31636,Lowndes County,GA,72.89617486338797,NA,NA
31643,Brooks County,GA,NA,NA,91.58780231335436
31707,Dougherty County,GA,41.53005464480874,NA,NA
31750,Ben Hill County,GA,NA,48.30272676683361,NA
31794,Tift County,GA,50.60109289617486,NA,NA
31822,Harris County,GA,NA,88.75904284919311,NA
31909,Muscogee County,GA,NA,16.805787423483583,NA
39837,Miller County,GA,80.76502732240436,NA,NA
39840,Randolph County,GA,NA,NA,75.28916929547844
96706,Honolulu County,HI,NA,6.622148024485252,NA
96749,Hawaii County,HI,NA,NA,86.64563617245005
96791,Honolulu County,HI,NA,67.9465776293823,NA
96792,Honolulu County,HI,NA,43.294379521424595,NA
96797,Honolulu County,HI,NA,20.9794101279911,33.01787592008412
96813,Honolulu County,HI,28.415300546448087,NA,NA
96816,Honolulu County,HI,NA,NA,3.995793901156677
96817,Honolulu County,HI,NA,3.6171396772398445,NA
96818,Honolulu County,HI,43.060109289617486,NA,NA
96819,Honolulu County,HI,NA,33.27768503060657,NA
96822,Honolulu County,HI,32.349726775956285,NA,NA
96825,Honolulu County,HI,NA,3.2832498608792435,NA
83201,Bannock County,ID,NA,88.87033945464663,NA
83350,Minidoka County,ID,81.09289617486338,NA,NA
83501,Nez Perce County,ID,NA,57.65164162493044,NA
83607,Canyon County,ID,NA,20.20033388981636,NA
83616,Ada County,ID,NA,NA,90.64143007360673
83642,Ada County,ID,NA,NA,27.970557308096737
83646,Ada County,ID,NA,NA,38.801261829652994
83651,Canyon County,ID,NA,77.07289927657206,74.13249211356468
83703,Ada County,ID,NA,NA,69.08517350157729
83704,Ada County,ID,13.55191256830601,NA,NA
83714,Ada County,ID,NA,7.846410684474124,NA
60004,Cook County,IL,NA,NA,78.65404837013669
60005,Cook County,IL,NA,NA,82.86014721345951
60013,McHenry County,IL,NA,NA,42.6919032597266
60014,McHenry County,IL,NA,NA,16.08832807570978
60022,Cook County,IL,NA,NA,56.46687697160884
60030,Lake County,IL,NA,14.57985531441291,NA
60031,Lake County,IL,NA,58.375069560378414,NA
60033,McHenry County,IL,NA,87.03394546466333,NA
60045,Lake County,IL,NA,58.54201446855871,NA
60046,Lake County,IL,59.234972677595636,NA,NA
60048,Lake County,IL,42.404371584699454,NA,26.708727655099896
60050,McHenry County,IL,NA,NA,11.77707676130389
60051,McHenry County,IL,NA,15.859766277128548,NA
60053,Cook County,IL,NA,21.535893155258766,NA
60060,Lake County,IL,NA,7.90205898720089,NA
60061,Lake County,IL,84.80874316939891,NA,74.65825446898002
60062,Cook County,IL,NA,2.2815804117974405,NA
60067,Cook County,IL,35.62841530054644,NA,NA
60073,Lake County,IL,12.568306010928962,NA,NA
60074,Cook County,IL,87.3224043715847,NA,NA
60076,Cook County,IL,NA,14.07902058987201,NA
60077,Cook County,IL,NA,19.198664440734557,NA
60083,Lake County,IL,NA,51.808569838619924,NA
60089,Lake County,IL,NA,5.564830272676683,NA
60096,Lake County,IL,82.18579234972677,NA,NA
60099,Lake County,IL,NA,27.212020033388985,NA
60102,McHenry County,IL,NA,27.991096271563716,NA
60103,DuPage County,IL,23.497267759562842,NA,NA
60107,Cook County,IL,66.99453551912569,24.98608792431831,NA
60108,DuPage County,IL,NA,85.03060656649973,NA
60110,Kane County,IL,NA,70.06121313299944,NA
60120,Kane County,IL,NA,17.58486366165832,NA
60123,Kane County,IL,NA,NA,13.669821240799159
60126,DuPage County,IL,NA,62.43739565943238,NA
60139,DuPage County,IL,NA,67.00055648302727,55.941114616193474
60142,McHenry County,IL,NA,5.6204785754034505,NA
60153,Cook County,IL,NA,15.136338341680577,80.33648790746582
60154,Cook County,IL,NA,60.82359488035615,NA
60156,McHenry County,IL,NA,NA,63.722397476340696
60169,Cook County,IL,NA,77.8519755147468,NA
60191,DuPage County,IL,NA,NA,40.063091482649845
60192,Cook County,IL,NA,66.22148024485254,NA
60194,Cook County,IL,NA,41.457985531441295,NA
60201,Cook County,IL,NA,13.132999443516974,NA
60433,Will County,IL,NA,NA,68.55941114616193
60438,Cook County,IL,NA,77.79632721202003,NA
60439,Cook County,IL,75.73770491803279,9.794101279910963,18.71713985278654
60441,Will County,IL,NA,17.640511964385087,NA
60443,Cook County,IL,NA,24.540901502504173,NA
60446,Will County,IL,NA,96.54980523094045,NA
60447,Grundy County,IL,NA,94.21257651641625,NA
60448,Will County,IL,88.74316939890711,NA,NA
60450,Grundy County,IL,20.21857923497268,NA,NA
60451,Will County,IL,NA,NA,34.59516298633018
60458,Cook County,IL,NA,73.45575959933221,NA
60459,Cook County,IL,NA,38.28603227601558,NA
60462,Cook County,IL,NA,2.5041736227045077,NA
60463,Cook County,IL,NA,31.16304952698943,NA
60465,Cook County,IL,NA,37.78519755147468,70.66246056782335
60472,Cook County,IL,NA,83.13856427378965,NA
60473,Cook County,IL,NA,33.5559265442404,20.084121976866456
60477,Cook County,IL,21.9672131147541,NA,NA
60487,Cook County,IL,NA,78.74234835837507,NA
60505,Kane County,IL,NA,27.768503060656652,NA
60506,Kane County,IL,NA,15.692821368948248,NA
60510,Kane County,IL,NA,NA,81.38801261829653
60513,Cook County,IL,NA,39.788536449638286,NA
60517,DuPage County,IL,32.240437158469945,NA,NA
60521,DuPage County,IL,NA,86.36616583194213,NA
60523,DuPage County,IL,86.88524590163934,NA,NA
60525,Cook County,IL,46.666666666666664,67.83528102392877,NA
60526,Cook County,IL,63.278688524590166,NA,NA
60540,DuPage County,IL,NA,78.90929326655537,NA
60544,Will County,IL,NA,NA,12.302839116719243
60555,DuPage County,IL,59.4535519125683,NA,NA
60561,DuPage County,IL,NA,19.86644407345576,23.974763406940063
60565,DuPage County,IL,NA,11.352253756260435,NA
60586,Will County,IL,NA,49.69393433500278,NA
60610,Cook County,IL,NA,12.409571508069003,NA
60611,Cook County,IL,NA,11.686143572621036,NA
60615,Cook County,IL,NA,NA,13.880126182965299
60616,Cook County,IL,NA,69.50473010573177,NA
60617,Cook County,IL,5.573770491803279,0.8903728436282694,NA
60619,Cook County,IL,NA,1.8363939899833055,NA
60620,Cook County,IL,NA,29.827490261547023,NA
60622,Cook County,IL,NA,NA,34.59516298633018
60623,Cook County,IL,25.136612021857925,NA,38.48580441640379
60626,Cook County,IL,NA,4.006677796327212,NA
60628,Cook County,IL,25.02732240437158,60.65664997217585,16.7192429022082
60630,Cook County,IL,NA,NA,35.436382754994746
60631,Cook County,IL,NA,32.832498608792434,NA
60632,Cook County,IL,NA,87.97996661101837,NA
60633,Cook County,IL,NA,73.90094602114635,NA
60634,Cook County,IL,NA,4.563160823594881,6.203995793901157
60636,Cook County,IL,NA,16.91708402893712,NA
60638,Cook County,IL,NA,53.81190873678353,NA
60639,Cook County,IL,7.3224043715847,23.817473567056204,NA
60640,Cook County,IL,NA,NA,6.5194532071503675
60645,Cook County,IL,NA,NA,46.267087276551
60649,Cook County,IL,51.693989071038246,NA,NA
60657,Cook County,IL,17.26775956284153,NA,NA
60660,Cook County,IL,82.40437158469945,NA,NA
60714,Cook County,IL,NA,NA,8.517350157728707
60804,Cook County,IL,16.502732240437158,NA,NA
60901,Kankakee County,IL,NA,NA,7.570977917981073
60914,Kankakee County,IL,NA,82.35948803561492,NA
61008,Boone County,IL,NA,73.06622148024485,NA
61030,Ogle County,IL,NA,98.77573734001113,NA
61032,Stephenson County,IL,NA,9.460211463550362,NA
61065,Boone County,IL,NA,NA,81.91377497371188
61073,Winnebago County,IL,54.75409836065573,26.099053978853643,NA
61088,Winnebago County,IL,NA,NA,79.60042060988434
61101,Winnebago County,IL,65.79234972677595,NA,NA
61102,Winnebago County,IL,NA,NA,61.198738170347
61111,Winnebago County,IL,NA,NA,41.85068349106204
61115,Winnebago County,IL,42.841530054644814,17.529215358931552,NA
61241,Henry County,IL,NA,75.73734001112966,NA
61244,Rock Island County,IL,NA,55.370061213133006,NA
61282,Rock Island County,IL,NA,NA,77.60252365930599
61341,LaSalle County,IL,NA,NA,78.12828601472135
61350,LaSalle County,IL,NA,74.68002225932109,NA
61520,Fulton County,IL,NA,39.677239844184754,NA
61571,Tazewell County,IL,NA,36.50528658875905,80.12618296529969
61614,Peoria County,IL,NA,NA,17.981072555205046
61615,Peoria County,IL,NA,NA,70.4521556256572
61704,McLean County,IL,NA,NA,47.003154574132495
61753,McLean County,IL,NA,98.60879243183082,NA
61761,McLean County,IL,NA,27.156371730662215,NA
61822,Champaign County,IL,70.27322404371584,NA,NA
61832,Vermilion County,IL,NA,27.267668336115747,5.993690851735016
61853,Champaign County,IL,NA,NA,98.9484752891693
61856,Piatt County,IL,99.1256830601093,NA,NA
61866,Champaign County,IL,NA,NA,77.49737118822291
61920,Coles County,IL,NA,36.61658319421257,NA
61938,Coles County,IL,NA,82.80467445742904,NA
61944,Edgar County,IL,NA,96.4941569282137,NA
62010,Madison County,IL,NA,75.5147468002226,NA
62025,Madison County,IL,NA,NA,66.8769716088328
62203,St. Clair County,IL,NA,91.31886477462437,NA
62221,St. Clair County,IL,NA,29.382303839732888,NA
62226,St. Clair County,IL,NA,NA,19.873817034700316
62231,Clinton County,IL,NA,87.81302170283807,NA
62236,Monroe County,IL,NA,NA,83.2807570977918
62286,Randolph County,IL,NA,81.52476349471341,NA
62521,Macon County,IL,NA,NA,3.1545741324921135
62557,Christian County,IL,87.65027322404372,NA,NA
62568,Christian County,IL,82.5136612021858,NA,NA
62650,Morgan County,IL,43.82513661202186,NA,NA
62656,Logan County,IL,NA,50.25041736227045,NA
62664,Mason County,IL,NA,98.8313856427379,NA
62702,Sangamon County,IL,NA,NA,59.62145110410094
62712,Sangamon County,IL,NA,75.73734001112966,NA
62812,Franklin County,IL,NA,41.457985531441295,NA
62821,White County,IL,82.8415300546448,71.22982749026154,NA
62839,Clay County,IL,NA,NA,71.5036803364879
62881,Marion County,IL,NA,NA,32.49211356466877
62930,Saline County,IL,NA,NA,94.84752891692955
62952,Union County,IL,NA,98.9983305509182,NA
62959,Williamson County,IL,62.62295081967213,NA,13.459516298633018
46012,Madison County,IN,NA,11.5748469671675,NA
46013,Madison County,IN,NA,10.795770728992766,NA
46032,Hamilton County,IN,NA,NA,17.455310199789693
46034,Hamilton County,IN,NA,NA,90.115667718191375
46038,Hamilton County,IN,NA,64.05119643850863,NA
46040,Hancock County,IN,NA,71.45242070116862,NA
46055,Hancock County,IN,92.1311475409836,NA,81.70347003154575
46060,Hamilton County,IN,26.229508196721312,NA,NA
46062,Hamilton County,IN,81.74863387978142,NA,NA
46107,Marion County,IN,NA,NA,84.54258675078864
46112,Hendricks County,IN,44.91803278688525,33.16638842515303,NA
46140,Hancock County,IN,NA,NA,13.144058885383805
46143,Johnson County,IN,NA,36.67223149693935,NA
46151,Morgan County,IN,48.63387978142077,NA,NA
46158,Morgan County,IN,93.55191256830601,NA,NA
46176,Shelby County,IN,NA,28.937117417918756,NA
46203,Marion County,IN,6.666666666666667,32.10907067334446,52.89169295478444
46205,Marion County,IN,NA,41.457985531441295,NA
46214,Marion County,IN,NA,NA,29.547844374342798
46220,Marion County,IN,NA,30.996104618809127,NA
46221,Marion County,IN,87.97814207650273,NA,NA
46222,Marion County,IN,59.01639344262295,NA,NA
46227,Marion County,IN,NA,NA,2.7339642481598316
46229,Marion County,IN,20,NA,NA
46231,Marion County,IN,NA,49.80523094045632,NA
46241,Marion County,IN,NA,52.5319977740679,NA
46304,Porter County,IN,NA,85.58708959376739,20.82018927444795
46319,Lake County,IN,NA,77.57373400111297,NA
46321,Lake County,IN,NA,8.848080133555927,17.770767613038906
46323,Lake County,IN,NA,37.506956037840844,72.13459516298633
46324,Lake County,IN,NA,82.02559821925432,NA
46350,LaPorte County,IN,NA,4.062326099053979,NA
46368,Porter County,IN,NA,57.87423483583751,NA
46373,Lake County,IN,NA,NA,90.32597266035752
46375,Lake County,IN,68.7431693989071,NA,NA
46385,Porter County,IN,5.901639344262295,NA,16.19348054679285
46394,Lake County,IN,NA,88.03561491374514,NA
46410,Lake County,IN,NA,61.38007790762382,NA
46514,Elkhart County,IN,24.59016393442623,NA,NA
46516,Elkhart County,IN,13.442622950819672,25.375626043405674,NA
46517,Elkhart County,IN,NA,NA,67.71819137749738
46526,Elkhart County,IN,NA,41.68057874234836,NA
46534,Starke County,IN,NA,NA,59.095688748685596
46614,St. Joseph County,IN,NA,NA,30.49421661409043
46617,St. Joseph County,IN,NA,90.37284362826934,NA
46628,St. Joseph County,IN,NA,33.77851975514747,NA
46701,Noble County,IN,NA,86.9226488592098,NA
46710,Noble County,IN,NA,95.04730105731775,NA
46755,Noble County,IN,NA,24.318308291597106,NA
46825,Allen County,IN,NA,17.250973845297718,NA
46835,Allen County,IN,NA,76.23817473567055,NA
46947,Cass County,IN,NA,NA,6.8349106203995795
46952,Grant County,IN,NA,38.28603227601558,NA
46962,Wabash County,IN,NA,92.48747913188647,NA
46970,Miami County,IN,NA,13.299944351697274,NA
47006,Ripley County,IN,NA,NA,51.10410094637224
47018,Dearborn County,IN,NA,NA,87.59200841219769
47025,Dearborn County,IN,NA,37.17306622148024,NA
47111,Clark County,IN,NA,41.90317195325542,NA
47130,Clark County,IN,NA,84.41847523650529,71.39852786540484
47150,Floyd County,IN,NA,61.21313299944352,NA
47167,Washington County,IN,NA,34.001112966054535,NA
47250,Jefferson County,IN,NA,NA,46.58254468980021
47265,Jennings County,IN,19.562841530054644,NA,NA
47274,Jackson County,IN,NA,20.478575403450193,NA
47331,Fayette County,IN,11.366120218579235,NA,NA
47362,Henry County,IN,60.87431693989072,NA,NA
47374,Wayne County,IN,33.114754098360656,1.4468558708959376,NA
47394,Randolph County,IN,NA,69.89426822481914,NA
47441,Greene County,IN,NA,75.34780189204228,NA
47546,Dubois County,IN,NA,24.095715080690038,NA
47586,Perry County,IN,NA,NA,55.520504731861195
47591,Knox County,IN,NA,15.30328324986088,NA
47601,Warrick County,IN,NA,70.56204785754035,NA
47639,Gibson County,IN,NA,99.72175848636617,NA
47714,Vanderburgh County,IN,NA,38.11908736783528,NA
47804,Vigo County,IN,NA,NA,68.87486855941115
47834,Clay County,IN,NA,35.55926544240401,NA
47905,Tippecanoe County,IN,61.967213114754095,NA,41.74553101997897
50126,Hardin County,IA,74.42622950819671,NA,NA
50129,Greene County,IA,NA,87.31218697829716,NA
50158,Marshall County,IA,49.18032786885246,25.82081246521981,NA
50201,Story County,IA,NA,NA,76.97160883280758
50208,Jasper County,IA,NA,49.360044518642184,NA
50220,Dallas County,IA,NA,NA,90.0105152471083
50266,Polk County,IA,NA,61.71396772398442,NA
50316,Polk County,IA,NA,NA,59.831756046267095
50317,Polk County,IA,9.289617486338798,33.94546466332777,NA
50321,Polk County,IA,NA,NA,85.48895899053628
50428,Cerro Gordo County,IA,NA,NA,94.74237644584647
50703,Black Hawk County,IA,23.387978142076502,79.96661101836395,NA
51106,Woodbury County,IA,NA,33.27768503060657,NA
52001,Dubuque County,IA,NA,14.635503617139678,NA
52003,Dubuque County,IA,NA,89.53811908736785,NA
52040,Dubuque County,IA,NA,NA,89.48475289169295
52057,Delaware County,IA,NA,93.9343350027824,NA
52060,Jackson County,IA,NA,68.00222593210907,NA
52240,Johnson County,IA,NA,11.018363939899833,NA
52245,Johnson County,IA,NA,NA,70.03154574132492
52302,Linn County,IA,17.704918032786885,NA,NA
52310,Jones County,IA,NA,77.3511407902059,NA
52317,Johnson County,IA,NA,78.46410684474124,NA
52402,Linn County,IA,NA,95.60378408458541,NA
52403,Linn County,IA,NA,56.594323873121866,NA
52601,Des Moines County,IA,10.163934426229508,NA,36.59305993690852
52732,Clinton County,IA,NA,16.91708402893712,NA
52738,Louisa County,IA,99.56284153005464,NA,NA
52804,Scott County,IA,38.5792349726776,53.14412910406232,NA
52806,Scott County,IA,17.37704918032787,NA,NA
66012,Wyandotte County,KS,NA,96.60545353366722,NA
66044,Douglas County,KS,NA,69.61602671118531,NA
66048,Leavenworth County,KS,NA,60.04451864218141,NA
66061,Johnson County,KS,NA,NA,59.516298633017875
66071,Miami County,KS,NA,NA,62.77602523659306
66085,Johnson County,KS,NA,92.20923761825264,NA
66104,Wyandotte County,KS,NA,28.77017250973845,NA
66109,Wyandotte County,KS,NA,93.98998330550918,NA
66205,Johnson County,KS,NA,95.77072899276573,NA
66216,Johnson County,KS,NA,67.33444629938788,NA
66219,Johnson County,KS,NA,99.61046188091264,NA
66436,Jackson County,KS,NA,72.45409015025042,NA
66502,Riley County,KS,63.49726775956284,NA,NA
66604,Shawnee County,KS,83.06010928961749,NA,NA
66614,Shawnee County,KS,NA,10.684474123539232,NA
66701,Bourbon County,KS,NA,72.62103505843072,NA
66713,Cherokee County,KS,NA,76.5164162493044,NA
66749,Allen County,KS,NA,70.22815804117974,50.473186119873816
67010,Butler County,KS,65.24590163934427,NA,NA
67052,Sedgwick County,KS,92.24043715846994,NA,NA
67060,Sedgwick County,KS,NA,80.189204229271,NA
67152,Sumner County,KS,NA,NA,66.24605678233438
67204,Sedgwick County,KS,NA,51.029493600445186,NA
67206,Sedgwick County,KS,NA,69.05954368391764,NA
67211,Sedgwick County,KS,NA,71.39677239844184,NA
67216,Sedgwick County,KS,NA,51.08514190317195,NA
67401,Saline County,KS,NA,74.34613244296048,93.90115667718192
67410,Dickinson County,KS,NA,52.64329437952142,NA
67432,Clay County,KS,NA,92.26488592097941,NA
67501,Reno County,KS,NA,NA,76.02523659305994
67665,Russell County,KS,NA,61.54702281580412,NA
67801,Ford County,KS,NA,NA,65.29968454258676
67846,Finney County,KS,NA,NA,17.875920084121976
40026,Oldham County,KY,NA,99.88870339454647,NA
40031,Oldham County,KY,NA,64.60767946577629,NA
40065,Shelby County,KY,NA,48.74791318864774,NA
40071,Spencer County,KY,NA,35.78185865331107,NA
40165,Bullitt County,KY,NA,36.28269337785198,NA
40212,Jefferson County,KY,NA,24.207011686143574,NA
40216,Jefferson County,KY,NA,29.938786867000555,NA
40218,Jefferson County,KY,NA,25.375626043405674,NA
40220,Jefferson County,KY,NA,88.70339454646633,NA
40223,Jefferson County,KY,NA,30.161380077907623,NA
40228,Jefferson County,KY,NA,NA,85.3838065194532
40342,Anderson County,KY,NA,NA,62.77602523659306
40356,Jessamine County,KY,52.02185792349727,NA,NA
40359,Owen County,KY,NA,73.28881469115191,NA
40403,Madison County,KY,NA,26.878130217028378,NA
40409,Rockcastle County,KY,NA,NA,99.57939011566772
40447,Jackson County,KY,76.50273224043715,NA,NA
40502,Fayette County,KY,NA,NA,32.91272344900105
40517,Fayette County,KY,NA,NA,34.174553101997894
40701,Whitley County,KY,8.743169398907105,NA,NA
40741,Laurel County,KY,NA,26.599888703394548,NA
40873,Harlan County,KY,97.48633879781421,NA,NA
40962,Clay County,KY,15.300546448087433,11.352253756260435,NA
41005,Boone County,KY,NA,38.230383973288816,NA
41011,Kenton County,KY,NA,45.90984974958264,34.49001051524711
41035,Grant County,KY,NA,67.1118530884808,NA
41048,Boone County,KY,86.33879781420765,NA,NA
41097,Grant County,KY,80.21857923497268,NA,NA
41102,Boyd County,KY,17.48633879781421,NA,NA
41311,Lee County,KY,NA,62.82693377851976,NA
41314,Owsley County,KY,NA,NA,96.74027339642481
41465,Magoffin County,KY,NA,NA,72.02944269190326
42003,McCracken County,KY,11.256830601092895,NA,NA
42025,Marshall County,KY,35.30054644808743,NA,NA
42066,Graves County,KY,NA,66.4440734557596,NA
42071,Calloway County,KY,NA,28.82582081246522,31.230283911671926
42086,McCracken County,KY,NA,84.52977184195882,NA
42101,Warren County,KY,NA,8.45854201446856,NA
42240,Christian County,KY,4.808743169398907,NA,NA
42276,Logan County,KY,NA,NA,45.846477392218716
42303,Daviess County,KY,7.759562841530054,NA,NA
42320,Ohio County,KY,NA,NA,40.16824395373291
42351,Hancock County,KY,80.76502732240436,NA,NA
42408,Hopkins County,KY,67.3224043715847,NA,NA
42420,Henderson County,KY,29.071038251366122,NA,NA
42437,Union County,KY,NA,76.5164162493044,NA
42602,Clinton County,KY,NA,53.311074012242635,NA
42718,Taylor County,KY,NA,44.963828603227604,NA
42743,Green County,KY,NA,NA,37.85488958990536
70001,Jefferson Parish,LA,2.841530054644809,5.230940456316082,7.676130389064142
70002,Jefferson Parish,LA,NA,50.30606566499721,NA
70003,Jefferson Parish,LA,53.98907103825137,13.689482470784641,NA
70062,Jefferson Parish,LA,NA,19.47690595436839,99.05362776025235
70068,St. John the Baptist Parish,LA,NA,53.923205342237054,NA
70072,Jefferson Parish,LA,61.74863387978142,NA,4.416403785488959
70116,Orleans Parish,LA,NA,NA,79.81072555205047
70118,Orleans Parish,LA,NA,NA,55.20504731861199
70123,Jefferson Parish,LA,NA,38.898163606010016,NA
70125,Orleans Parish,LA,NA,53.756260434056756,NA
70126,Orleans Parish,LA,NA,NA,15.141955835962145
70127,Orleans Parish,LA,NA,19.421257651641625,NA
70128,Orleans Parish,LA,13.224043715846994,NA,NA
70130,Orleans Parish,LA,NA,76.90595436839176,NA
70301,Lafourche Parish,LA,NA,24.819143016138007,39.64248159831756
70345,Lafourche Parish,LA,NA,NA,65.0893796004206
70360,Terrebonne Parish,LA,88.63387978142076,NA,30.07360672975815
70392,St. Mary Parish,LA,NA,56.81691708402894,NA
70435,St. Tammany Parish,LA,NA,37.28436282693378,NA
70443,Tangipahoa Parish,LA,NA,NA,73.50157728706624
70444,Tangipahoa Parish,LA,NA,80.96828046744574,NA
70445,St. Tammany Parish,LA,NA,NA,74.44794952681389
70448,St. Tammany Parish,LA,NA,NA,21.3459516298633
70454,Tangipahoa Parish,LA,NA,44.40734557595994,NA
70458,St. Tammany Parish,LA,NA,NA,62.9863301787592
70460,St. Tammany Parish,LA,NA,18.47523650528659,NA
70506,Lafayette Parish,LA,NA,NA,49.8422712933754
70508,Lafayette Parish,LA,NA,39.62159154145798,NA
70510,Vermilion Parish,LA,47.540983606557376,NA,NA
70517,St. Martin Parish,LA,34.31693989071039,38.56427378964942,NA
70518,Lafayette Parish,LA,40.43715846994536,NA,64.45846477392219
70526,Acadia Parish,LA,NA,NA,74.23764458464774
70529,Lafayette Parish,LA,66.33879781420765,NA,NA
70535,St. Landry Parish,LA,NA,72.06455203116306,NA
70538,St. Mary Parish,LA,NA,35.89315525876461,NA
70560,Iberia Parish,LA,NA,6.844741235392321,24.185068349106203
70563,Iberia Parish,LA,NA,NA,93.90115667718192
70601,Calcasieu Parish,LA,NA,4.39621591541458,NA
70663,Calcasieu Parish,LA,NA,12.576516416249303,NA
70726,Livingston Parish,LA,9.398907103825136,NA,NA
70737,Ascension Parish,LA,NA,9.237618252643294,NA
70748,East Feliciana Parish,LA,NA,88.75904284919311,NA
70764,Iberville Parish,LA,NA,68.11352253756262,NA
70809,East Baton Rouge Parish,LA,NA,34.279354479688365,NA
70810,East Baton Rouge Parish,LA,NA,46.521981079577074,NA
70812,East Baton Rouge Parish,LA,50.92896174863388,NA,NA
70814,East Baton Rouge Parish,LA,56.830601092896174,NA,NA
70816,East Baton Rouge Parish,LA,57.70491803278689,NA,NA
70817,East Baton Rouge Parish,LA,NA,8.347245409015025,NA
71047,Caddo Parish,LA,NA,34.668892598775734,NA
71075,Webster Parish,LA,NA,96.27156371730662,NA
71106,Caddo Parish,LA,4.699453551912568,NA,40.58885383806519
71111,Bossier Parish,LA,3.4972677595628414,NA,24.185068349106203
71119,Caddo Parish,LA,NA,48.24707846410685,NA
71225,Ouachita Parish,LA,NA,92.15358931552588,NA
71263,West Carroll Parish,LA,NA,NA,45.42586750788644
71351,Avoyelles Parish,LA,NA,60.65664997217585,NA
71360,Rapides Parish,LA,NA,NA,52.6813880126183
71446,Vernon Parish,LA,NA,24.26265998887034,NA
71449,Sabine Parish,LA,NA,NA,74.76340694006309
04011,Cumberland County,ME,NA,NA,12.933753943217665
04043,York County,ME,NA,NA,21.661409043112513
04074,Cumberland County,ME,NA,NA,62.25026288117771
04084,Cumberland County,ME,NA,67.16750139120758,NA
04092,Cumberland County,ME,32.131147540983605,17.362270450751254,NA
04096,Cumberland County,ME,NA,95.93767390094602,NA
04101,Cumberland County,ME,NA,44.629938786867,NA
04106,Cumberland County,ME,77.1584699453552,NA,NA
04210,Androscoggin County,ME,NA,81.41346688925988,NA
04240,Androscoggin County,ME,NA,10.294936004451865,NA
04281,Oxford County,ME,NA,47.74624373956594,NA
04462,Penobscot County,ME,99.34426229508196,NA,NA
04530,Sagadahoc County,ME,NA,NA,74.44794952681389
04605,Hancock County,ME,NA,NA,85.48895899053628
04742,Aroostook County,ME,NA,74.06789092932665,NA
04756,Aroostook County,ME,NA,78.79799666110183,NA
04901,Kennebec County,ME,NA,63.88425153032833,NA
04930,Penobscot County,ME,74.75409836065575,NA,NA
04950,Somerset County,ME,NA,NA,36.69821240799159
20650,St. Mary's County,MD,69.07103825136612,70.33945464663329,NA
20653,St. Mary's County,MD,53.11475409836065,NA,NA
20657,Calvert County,MD,NA,66.33277685030606,NA
20721,Prince George's County,MD,NA,NA,46.16193480546793
20723,Howard County,MD,NA,58.70895937673901,NA
20743,Prince George's County,MD,57.15846994535519,NA,NA
20744,Prince George's County,MD,NA,25.097384529771844,NA
20747,Prince George's County,MD,37.814207650273225,NA,NA
20772,Prince George's County,MD,NA,36.11574846967168,NA
20774,Prince George's County,MD,NA,27.545909849749584,NA
20782,Prince George's County,MD,71.58469945355192,NA,NA
20854,Montgomery County,MD,NA,94.43516972732333,NA
20877,Montgomery County,MD,83.60655737704919,NA,NA
20886,Montgomery County,MD,NA,60.54535336672231,NA
20906,Montgomery County,MD,43.49726775956284,NA,NA
20910,Montgomery County,MD,NA,89.48247078464107,NA
21012,Anne Arundel County,MD,NA,NA,61.198738170347
21014,Harford County,MD,NA,63.60601001669449,NA
21015,Harford County,MD,61.53005464480874,NA,92.534174553102
21030,Baltimore County,MD,NA,NA,57.833859095688744
21043,Howard County,MD,NA,29.493600445186424,NA
21093,Baltimore County,MD,NA,16.138007790762384,6.414300736067298
21117,Baltimore County,MD,NA,NA,75.70977917981072
21206,Baltimore city,MD,9.508196721311474,66.2771285475793,19.453207150368033
21209,Baltimore County,MD,NA,69.89426822481914,55.099894847528915
21212,Baltimore city,MD,62.40437158469946,NA,NA
21215,Baltimore city,MD,NA,5.008347245409015,NA
21218,Baltimore city,MD,30.05464480874317,NA,NA
21221,Baltimore County,MD,42.513661202185794,40.90150250417362,68.76971608832808
21228,Baltimore County,MD,NA,NA,9.14826498422713
21234,Baltimore County,MD,NA,NA,3.3648790746582544
21236,Baltimore County,MD,NA,26.655537006121317,NA
21286,Baltimore County,MD,NA,96.10461880912632,NA
21403,Anne Arundel County,MD,NA,30.662214802448524,NA
21502,Allegany County,MD,NA,10.406232609905398,NA
21601,Talbot County,MD,NA,28.213689482470784,NA
21617,Queen Anne's County,MD,NA,NA,74.02733964248159
21663,Talbot County,MD,NA,91.81969949916528,NA
21742,Washington County,MD,54.31693989071038,NA,NA
21782,Washington County,MD,NA,94.15692821368948,NA
21791,Carroll County,MD,92.6775956284153,NA,NA
21804,Wicomico County,MD,NA,39.23205342237062,NA
21811,Worcester County,MD,47.322404371584696,NA,NA
21901,Cecil County,MD,NA,53.64496382860323,NA
21921,Cecil County,MD,NA,50.63995548135782,NA
01001,Hampden County,MA,NA,11.296605453533667,NA
01013,Hampden County,MA,NA,NA,14.616193480546794
01085,Hampden County,MA,NA,NA,5.3627760252365935
01106,Hampden County,MA,NA,91.263216471897607,NA
01108,Hampden County,MA,NA,2.337228714524207,NA
01201,Berkshire County,MA,22.84153005464481,68.33611574846967,NA
01331,Worcester County,MA,NA,21.368948247078464,NA
01360,Franklin County,MA,98.79781420765028,NA,NA
01370,Franklin County,MA,NA,76.62771285475793,NA
01420,Worcester County,MA,0.4371584699453552,9.181969949916526,NA
01430,Worcester County,MA,NA,NA,99.89484752891693
01432,Middlesex County,MA,NA,55.09181969949917,NA
01453,Worcester County,MA,NA,10.461880912632164,NA
01460,Middlesex County,MA,NA,NA,54.889589905362776
01462,Worcester County,MA,41.31147540983607,94.32387312186978,NA
01463,Middlesex County,MA,NA,62.54869226488592,NA
01469,Middlesex County,MA,82.18579234972677,NA,NA
01473,Worcester County,MA,NA,87.4234835837507,NA
01504,Worcester County,MA,NA,NA,96.31966351209253
01523,Worcester County,MA,NA,NA,97.16088328075709
01534,Worcester County,MA,79.56284153005464,NA,NA
01545,Worcester County,MA,NA,52.587646076794655,NA
01550,Worcester County,MA,NA,89.64941569282136,NA
01562,Worcester County,MA,23.278688524590162,NA,NA
01571,Worcester County,MA,24.48087431693989,80.8569838619922,NA
01581,Worcester County,MA,NA,NA,49.21135646687697
01602,Worcester County,MA,NA,NA,64.45846477392219
01604,Worcester County,MA,NA,54.368391764051196,NA
01605,Worcester County,MA,NA,NA,0.2103049421661409
01606,Worcester County,MA,NA,90.98497495826378,8.096740273396424
01740,Worcester County,MA,87.10382513661202,NA,NA
01746,Middlesex County,MA,NA,NA,71.71398527865405
01752,Middlesex County,MA,NA,NA,22.187171398527866
01754,Middlesex County,MA,NA,65.27545909849749,NA
01757,Worcester County,MA,NA,95.15859766277129,NA
01776,Middlesex County,MA,NA,27.60155815247635,NA
01801,Middlesex County,MA,NA,0.5008347245409015,NA
01810,Essex County,MA,NA,NA,43.11251314405888
01826,Middlesex County,MA,NA,NA,14.721345951629864
01830,Essex County,MA,NA,60.15581524763495,NA
01832,Essex County,MA,NA,5.45353366722315,NA
01835,Essex County,MA,27.322404371584703,NA,NA
01841,Essex County,MA,0.2185792349726776,NA,NA
01844,Essex County,MA,NA,13.967723984418475,61.09358569926393
01845,Essex County,MA,50.38251366120219,NA,NA
01851,Middlesex County,MA,NA,NA,16.50893796004206
01854,Middlesex County,MA,1.7486338797814207,2.615470228158041,NA
01863,Middlesex County,MA,NA,NA,49.42166140904311
01864,Middlesex County,MA,NA,76.1825264329438,NA
01879,Middlesex County,MA,NA,62.270450751252085,NA
01887,Middlesex County,MA,NA,0.9460211463550361,NA
01890,Middlesex County,MA,36.0655737704918,NA,9.253417455310199
01902,Essex County,MA,0.6557377049180327,0.333889816360601,NA
01904,Essex County,MA,NA,NA,21.451104100946374
01907,Essex County,MA,NA,NA,12.407991587802314
01913,Essex County,MA,20.76502732240437,NA,NA
01915,Essex County,MA,NA,0.5564830272676683,8.832807570977918
01923,Essex County,MA,NA,NA,86.8559411146162
01940,Essex County,MA,NA,32.38731218697829,NA
01960,Essex County,MA,NA,0.22259321090706735,NA
01970,Essex County,MA,1.092896174863388,0.27824151363383415,NA
02038,Norfolk County,MA,NA,8.235948803561492,NA
02043,Plymouth County,MA,77.70491803278688,NA,NA
02050,Plymouth County,MA,NA,14.635503617139678,NA
02052,Norfolk County,MA,NA,43.962159154145795,NA
02062,Norfolk County,MA,71.03825136612022,NA,70.4521556256572
02066,Plymouth County,MA,NA,59.32109070673345,NA
02072,Norfolk County,MA,6.229508196721312,4.22927100723428,NA
02090,Norfolk County,MA,NA,50.19476905954369,NA
02115,Suffolk County,MA,NA,NA,2.2082018927444795
02119,Suffolk County,MA,NA,0.11129660545353368,NA
02121,Suffolk County,MA,0.8743169398907104,NA,NA
02124,Suffolk County,MA,0,0.05564830272676684,0.5257623554153523
02127,Suffolk County,MA,19.453551912568308,92.32053422370618,NA
02128,Suffolk County,MA,NA,7.0673344462993875,22.923238696109358
02130,Suffolk County,MA,NA,NA,19.032597266035754
02131,Suffolk County,MA,NA,18.363939899833053,NA
02135,Suffolk County,MA,2.622950819672131,5.175292153589315,NA
02138,Middlesex County,MA,NA,NA,35.856992639327025
02139,Middlesex County,MA,NA,1.05731775180857,NA
02140,Middlesex County,MA,NA,NA,18.92744479495268
02148,Middlesex County,MA,NA,1.1686143572621035,NA
02149,Middlesex County,MA,NA,13.35559265442404,NA
02150,Suffolk County,MA,NA,0.6121313299944352,NA
02151,Suffolk County,MA,4.371584699453552,3.450194769059544,NA
02152,Suffolk County,MA,98.90710382513662,NA,NA
02155,Middlesex County,MA,NA,10.573177518085698,NA
02176,Middlesex County,MA,NA,NA,9.779179810725552
02186,Norfolk County,MA,NA,15.47022815804118,NA
02301,Plymouth County,MA,0.1092896174863388,0,NA
02360,Plymouth County,MA,NA,2.392877017250974,NA
02364,Plymouth County,MA,NA,NA,85.17350157728707
02368,Norfolk County,MA,NA,2.448525319977741,NA
02379,Plymouth County,MA,NA,70.89593767390095,NA
02452,Middlesex County,MA,NA,NA,86.01472134595163
02467,Norfolk County,MA,NA,19.031719532554256,NA
02472,Middlesex County,MA,NA,85.80968280467445,NA
02478,Middlesex County,MA,NA,14.858096828046744,NA
02481,Norfolk County,MA,71.80327868852459,NA,NA
02492,Norfolk County,MA,NA,NA,32.3869610935857
02571,Plymouth County,MA,NA,24.652198107957705,NA
02633,Barnstable County,MA,NA,NA,51.73501577287066
02649,Barnstable County,MA,30.710382513661198,16.638842515303285,NA
02703,Bristol County,MA,0.9836065573770493,0.4451864218141347,NA
02718,Bristol County,MA,NA,61.88091263216472,NA
02720,Bristol County,MA,0.32786885245901637,NA,NA
02721,Bristol County,MA,NA,17.91875347801892,NA
02723,Bristol County,MA,NA,15.971062882582082,NA
02724,Bristol County,MA,NA,NA,3.7854889589905363
02726,Bristol County,MA,NA,18.97607122982749,NA
02740,Bristol County,MA,NA,NA,1.9978969505783386
02743,Bristol County,MA,NA,97.8297161936561,NA
02748,Bristol County,MA,NA,37.729549248747915,NA
02762,Norfolk County,MA,NA,97.77406789092933,NA
02769,Bristol County,MA,NA,42.68224819143016,NA
02771,Bristol County,MA,NA,60.10016694490818,NA
02777,Bristol County,MA,NA,7.122982749026155,NA
02780,Bristol County,MA,NA,94.04563160823595,NA
48009,Oakland County,MI,84.69945355191257,NA,NA
48025,Oakland County,MI,NA,43.1274346132443,NA
48030,Oakland County,MI,34.6448087431694,NA,NA
48035,Macomb County,MI,7.868852459016394,NA,6.940063091482649
48040,St. Clair County,MI,61.420765027322396,NA,NA
48042,Macomb County,MI,NA,NA,67.92849631966351
48044,Macomb County,MI,NA,2.893711741791875,16.929547844374344
48045,Macomb County,MI,47.978142076502735,NA,NA
48048,Macomb County,MI,NA,NA,85.27865404837014
48066,Macomb County,MI,NA,NA,5.783385909568875
48075,Oakland County,MI,52.78688524590164,NA,NA
48076,Oakland County,MI,NA,NA,28.601472134595163
48082,Macomb County,MI,NA,67.39009460211463,18.61198738170347
48085,Oakland County,MI,25.573770491803277,NA,NA
48094,Macomb County,MI,NA,61.769616026711184,NA
48101,Wayne County,MI,NA,18.697829716193656,NA
48103,Washtenaw County,MI,NA,0.7234279354479688,NA
48105,Washtenaw County,MI,60.10928961748634,NA,NA
48116,Livingston County,MI,NA,93.21090706733445,NA
48127,Wayne County,MI,NA,65.72064552031162,26.498422712933756
48131,Monroe County,MI,NA,92.04229271007233,NA
48135,Wayne County,MI,18.797814207650273,NA,NA
48150,Wayne County,MI,65.35519125683061,NA,NA
48154,Wayne County,MI,NA,NA,4.206098843322819
48158,Washtenaw County,MI,NA,NA,92.534174553102
48164,Wayne County,MI,NA,55.75959933222037,NA
48166,Monroe County,MI,34.42622950819672,NA,NA
48167,Oakland County,MI,NA,NA,54.15352260778128
48168,Wayne County,MI,NA,25.486922648859213,NA
48169,Livingston County,MI,NA,96.43850862548692,NA
48170,Wayne County,MI,NA,93.87868670005565,NA
48179,Monroe County,MI,95.51912568306011,99.33222036727881,NA
48180,Wayne County,MI,2.0765027322404372,NA,NA
48183,Wayne County,MI,6.994535519125683,3.005008347245409,NA
48185,Wayne County,MI,NA,3.394546466332777,NA
48187,Wayne County,MI,8.19672131147541,NA,NA
48191,Washtenaw County,MI,NA,90.2615470228158,NA
48192,Wayne County,MI,NA,NA,26.393270241850686
48197,Washtenaw County,MI,NA,23.260990539788537,NA
48202,Wayne County,MI,NA,26.48859209794101,NA
48203,Wayne County,MI,NA,41.068447412353926,NA
48204,Wayne County,MI,7.978142076502732,NA,NA
48205,Wayne County,MI,NA,7.345575959933222,NA
48207,Wayne County,MI,NA,NA,12.723449001051526
48217,Wayne County,MI,55.30054644808743,NA,NA
48219,Wayne County,MI,3.3879781420765025,NA,NA
48223,Wayne County,MI,10.163934426229508,NA,NA
48227,Wayne County,MI,28.96174863387978,NA,NA
48228,Wayne County,MI,NA,22.426265998887036,NA
48234,Wayne County,MI,NA,79.63272120200334,65.61514195583597
48235,Wayne County,MI,1.9672131147540985,NA,NA
48237,Oakland County,MI,NA,10.072342793544797,86.96109358569927
48238,Wayne County,MI,NA,62.659988870339454,NA
48239,Wayne County,MI,6.120218579234972,NA,NA
48240,Wayne County,MI,NA,40.45631608235949,NA
48307,Oakland County,MI,NA,NA,10.410094637223976
48312,Macomb County,MI,NA,8.625486922648859,NA
48313,Macomb County,MI,22.295081967213115,NA,NA
48315,Macomb County,MI,NA,10.51752921535893,NA
48322,Oakland County,MI,NA,82.19254312743462,NA
48323,Oakland County,MI,45.3551912568306,NA,NA
48327,Oakland County,MI,NA,NA,38.06519453207151
48329,Oakland County,MI,55.40983606557377,NA,19.137749737118824
48335,Oakland County,MI,67.10382513661202,NA,NA
48348,Oakland County,MI,NA,29.994435169727325,NA
48357,Oakland County,MI,NA,54.03450194769059,NA
48359,Oakland County,MI,NA,96.77239844184753,NA
48374,Oakland County,MI,63.71584699453552,NA,NA
48382,Oakland County,MI,NA,66.55537006121314,NA
48383,Oakland County,MI,90.27322404371586,NA,NA
48390,Oakland County,MI,NA,52.97718419588202,NA
48393,Oakland County,MI,37.595628415300546,NA,NA
48420,Genesee County,MI,36.939890710382514,71.45242070116862,NA
48421,Lapeer County,MI,NA,NA,92.84963196635121
48423,Genesee County,MI,26.557377049180324,NA,30.38906414300736
48430,Genesee County,MI,NA,11.074012242626601,15.878023133543639
48446,Lapeer County,MI,NA,14.468558708959378,14.195583596214512
48504,Genesee County,MI,NA,84.47412353923205,NA
48506,Genesee County,MI,NA,NA,41.21976866456362
48507,Genesee County,MI,NA,19.977740678909292,NA
48509,Genesee County,MI,67.8688524590164,NA,NA
48519,Genesee County,MI,NA,NA,99.26393270241851
48601,Saginaw County,MI,NA,1.1129660545353366,NA
48602,Saginaw County,MI,NA,5.7317751808569835,NA
48603,Saginaw County,MI,9.726775956284154,NA,NA
48612,Gladwin County,MI,NA,59.821925431274344,NA
48624,Gladwin County,MI,31.366120218579237,NA,16.40378548895899
48625,Clare County,MI,NA,12.687813021702837,33.64879074658255
48642,Midland County,MI,NA,4.117974401780746,27.024185068349105
48653,Roscommon County,MI,NA,50.41736227045075,NA
48656,Roscommon County,MI,65.68306010928961,NA,NA
48706,Bay County,MI,5.7923497267759565,7.623817473567056,NA
48722,Saginaw County,MI,NA,NA,98.2124079915878
48734,Saginaw County,MI,NA,93.60044518642181,NA
48808,Clinton County,MI,NA,NA,96.4248159831756
48823,Ingham County,MI,28.30601092896175,NA,NA
48850,Montcalm County,MI,NA,97.10628825820812,NA
48872,Shiawassee County,MI,NA,92.98831385642737,NA
48917,Eaton County,MI,44.48087431693989,NA,NA
49007,Kalamazoo County,MI,NA,66.49972175848636,NA
49009,Kalamazoo County,MI,NA,4.284919309961046,NA
49014,Calhoun County,MI,15.40983606557377,NA,76.8664563617245
49021,Eaton County,MI,NA,NA,89.6950578338591
49037,Calhoun County,MI,NA,64.55203116304953,NA
49048,Kalamazoo County,MI,14.316939890710382,NA,NA
49068,Calhoun County,MI,NA,NA,26.919032597266035
49085,Berrien County,MI,NA,NA,56.15141955835961
49090,Van Buren County,MI,NA,91.0962715637173,NA
49091,St. Joseph County,MI,NA,97.38452977184195,91.48264984227129
49093,St. Joseph County,MI,25.46448087431694,NA,NA
49094,Branch County,MI,96.28415300546447,NA,NA
49099,St. Joseph County,MI,NA,NA,66.66666666666666
49127,Berrien County,MI,NA,NA,43.63827549947424
49201,Jackson County,MI,NA,18.308291597106287,5.467928496319663
49203,Jackson County,MI,NA,60.434056761268785,NA
49221,Lenawee County,MI,NA,1.9476905954368393,26.28811777076761
49224,Calhoun County,MI,70.16393442622952,NA,NA
49236,Lenawee County,MI,93.11475409836065,NA,NA
49315,Kent County,MI,37.15846994535519,NA,NA
49316,Kent County,MI,NA,30.884808013355592,NA
49327,Newaygo County,MI,NA,58.82025598219255,NA
49343,Kent County,MI,NA,63.828603227601555,NA
49421,Oceana County,MI,90.60109289617486,NA,NA
49423,Ottawa County,MI,50.05464480874316,NA,NA
49426,Ottawa County,MI,NA,23.984418475236506,NA
49428,Ottawa County,MI,NA,NA,75.0788643533123
49441,Muskegon County,MI,NA,65.49805230940457,13.354363827549948
49442,Muskegon County,MI,NA,1.5581524763494714,NA
49457,Muskegon County,MI,NA,78.13021702838063,NA
49505,Kent County,MI,NA,NA,70.97791798107255
49506,Kent County,MI,20.10928961748634,NA,NA
49508,Kent County,MI,NA,44.296048970506405,NA
49519,Kent County,MI,12.896174863387976,NA,NA
49631,Osceola County,MI,NA,83.36115748469672,NA
49677,Osceola County,MI,NA,57.31775180856984,NA
49685,Grand Traverse County,MI,97.15846994535518,NA,NA
49686,Grand Traverse County,MI,NA,15.30328324986088,NA
49690,Grand Traverse County,MI,NA,80.69003895381191,NA
49696,Grand Traverse County,MI,65.13661202185791,NA,NA
49709,Montmorency County,MI,NA,69.61602671118531,NA
49740,Emmet County,MI,NA,45.85420144685587,NA
49770,Emmet County,MI,NA,NA,23.1335436382755
49837,Delta County,MI,87.8688524590164,NA,NA
49841,Marquette County,MI,NA,79.74401780745687,83.91167192429022
49849,Marquette County,MI,NA,NA,81.17770767613038
49855,Marquette County,MI,NA,NA,87.27655099894848
49866,Marquette County,MI,NA,NA,73.18611987381703
49868,Luce County,MI,NA,NA,53.94321766561514
55008,Isanti County,MN,NA,64.66332776850307,NA
55016,Washington County,MN,NA,44.90818030050083,NA
55025,Washington County,MN,NA,47.46800222593211,NA
55038,Washington County,MN,85.46448087431693,NA,NA
55040,Isanti County,MN,61.31147540983607,NA,NA
55063,Pine County,MN,NA,NA,100
55066,Goodhue County,MN,36.502732240437155,NA,NA
55070,Anoka County,MN,NA,96.71675013912076,NA
55076,Dakota County,MN,NA,40.06677796327212,NA
55102,Ramsey County,MN,NA,NA,62.14511041009464
55109,Ramsey County,MN,NA,NA,93.48054679284962
55112,Ramsey County,MN,33.442622950819676,NA,NA
55116,Ramsey County,MN,NA,42.29271007234279,NA
55122,Dakota County,MN,NA,46.800222593210904,NA
55125,Washington County,MN,NA,NA,29.758149316508938
55128,Washington County,MN,NA,97.88536449638286,NA
55129,Washington County,MN,NA,NA,73.29127234490011
55303,Anoka County,MN,NA,51.64162493043962,30.914826498422716
55304,Anoka County,MN,NA,NA,93.69085173501577
55311,Hennepin County,MN,50.81967213114754,88.20255982192543,NA
55320,Wright County,MN,NA,NA,94.95268138801262
55346,Hennepin County,MN,NA,74.29048414023373,NA
55355,Meeker County,MN,NA,98.10795770728993,NA
55369,Hennepin County,MN,NA,NA,51.209253417455315
55372,Scott County,MN,NA,43.85086254869226,NA
55376,Wright County,MN,NA,93.37785197551474,68.13880126182966
55391,Hennepin County,MN,91.91256830601094,NA,NA
55407,Hennepin County,MN,NA,2.949360044518642,NA
55408,Hennepin County,MN,59.78142076502733,NA,NA
55413,Hennepin County,MN,NA,74.01224262659989,NA
55417,Hennepin County,MN,NA,34.78018920422927,NA
55421,Anoka County,MN,NA,NA,31.756046267087278
55433,Anoka County,MN,NA,90.70673344462993,NA
55444,Hennepin County,MN,NA,55.59265442404006,NA
55804,St. Louis County,MN,78.0327868852459,NA,NA
55806,St. Louis County,MN,NA,68.89259877573734,NA
55904,Olmsted County,MN,NA,NA,84.22712933753942
55987,Winona County,MN,27.54098360655738,NA,NA
56031,Martin County,MN,NA,39.287701725097385,NA
56082,Nicollet County,MN,NA,63.99554813578185,NA
56101,Cottonwood County,MN,NA,56.26043405676127,NA
56143,Jackson County,MN,NA,82.30383973288815,NA
56187,Nobles County,MN,NA,55.48135781858653,NA
56288,Kandiyohi County,MN,NA,80.80133555926544,NA
56308,Douglas County,MN,NA,72.50973845297717,NA
56353,Mille Lacs County,MN,NA,85.64273789649415,NA
56362,Stearns County,MN,NA,NA,80.65194532071503
56401,Crow Wing County,MN,NA,2.058987200890373,NA
56537,Otter Tail County,MN,NA,NA,39.43217665615142
56560,Clay County,MN,1.639344262295082,NA,NA
56572,Otter Tail County,MN,NA,NA,79.07465825446897
56636,Itasca County,MN,NA,55.036171396772396,NA
56721,Polk County,MN,92.02185792349727,NA,NA
38637,DeSoto County,MS,39.78142076502732,NA,NA
38703,Washington County,MS,NA,NA,66.98212407991588
38732,Bolivar County,MS,NA,55.926544240400666,NA
38834,Alcorn County,MS,NA,86.2548692264886,NA
38922,Yalobusha County,MS,NA,83.97328881469114,NA
38967,Montgomery County,MS,NA,96.8280467445743,NA
39056,Hinds County,MS,NA,52.42070116861436,NA
39090,Attala County,MS,NA,47.63494713411241,NA
39111,Simpson County,MS,NA,NA,78.23343848580441
39154,Hinds County,MS,NA,74.95826377295492,NA
39157,Madison County,MS,89.07103825136612,NA,NA
39180,Warren County,MS,35.19125683060109,NA,28.496319663512093
39208,Rankin County,MS,60,38.28603227601558,NA
39211,Hinds County,MS,NA,NA,60.35751840168244
39301,Lauderdale County,MS,NA,31.60823594880356,77.28706624605678
39305,Lauderdale County,MS,NA,64.88592097941013,NA
39365,Neshoba County,MS,NA,86.81135225375625,NA
39367,Wayne County,MS,NA,NA,66.66666666666666
39429,Marion County,MS,84.91803278688525,NA,NA
39452,George County,MS,NA,NA,25.86750788643533
39455,Lamar County,MS,67.21311475409836,NA,NA
39475,Lamar County,MS,NA,92.93266555370062,NA
39503,Harrison County,MS,8.415300546448087,14.969393433500278,NA
39507,Harrison County,MS,NA,21.702838063439064,NA
39530,Harrison County,MS,NA,NA,78.02313354363828
39532,Harrison County,MS,NA,NA,69.71608832807571
39564,Jackson County,MS,NA,NA,21.03049421661409
39565,Jackson County,MS,NA,24.76349471341124,NA
39567,Jackson County,MS,NA,89.259877573734,NA
39574,Harrison County,MS,NA,38.84251530328325,NA
39601,Lincoln County,MS,NA,29.549248747913186,NA
39759,Oktibbeha County,MS,55.73770491803278,NA,NA
63012,Jefferson County,MO,NA,69.33778519755147,NA
63025,St. Louis County,MO,NA,NA,89.16929547844374
63033,St. Louis County,MO,NA,6.956037840845854,NA
63051,Jefferson County,MO,76.17486338797815,NA,NA
63074,St. Louis County,MO,NA,63.272120200333895,NA
63106,St. Louis city,MO,NA,NA,72.55520504731862
63114,St. Louis County,MO,20.983606557377048,48.52531997774068,NA
63118,St. Louis city,MO,53.98907103825137,71.00723427935448,NA
63121,St. Louis County,MO,24.153005464480877,NA,NA
63128,St. Louis County,MO,NA,12.85475792988314,NA
63129,St. Louis County,MO,NA,NA,7.255520504731862
63132,St. Louis County,MO,NA,65.88759042849193,NA
63136,St. Louis County,MO,NA,NA,25.236593059936908
63138,St. Louis County,MO,NA,33.44462993878687,NA
63146,St. Louis County,MO,NA,NA,5.047318611987381
63147,St. Louis city,MO,48.19672131147541,NA,NA
63301,St. Charles County,MO,NA,NA,1.7875920084121977
63366,St. Charles County,MO,9.836065573770492,NA,7.781282860147214
63368,St. Charles County,MO,NA,40.845854201446855,NA
63376,St. Charles County,MO,NA,23.427935447968835,NA
63379,Lincoln County,MO,23.934426229508198,NA,NA
63383,Warren County,MO,NA,NA,77.91798107255521
63385,St. Charles County,MO,NA,6.789092932665554,NA
63390,Warren County,MO,62.732240437158474,NA,55.41535226077813
63552,Macon County,MO,68.85245901639344,NA,NA
63640,St. Francois County,MO,NA,22.593210907067334,NA
63703,Cape Girardeau County,MO,47.868852459016395,NA,NA
63755,Cape Girardeau County,MO,NA,76.79465776293823,NA
63935,Ripley County,MO,NA,46.744574290484145,60.252365930599375
64012,Cass County,MO,NA,88.48080133555926,NA
64014,Jackson County,MO,NA,80.35614913745131,NA
64015,Jackson County,MO,NA,91.87534780189203,NA
64030,Jackson County,MO,56.72131147540984,NA,NA
64034,Jackson County,MO,NA,81.46911519198665,NA
64050,Jackson County,MO,11.912568306010929,NA,NA
64056,Jackson County,MO,NA,38.786867000556484,NA
64057,Jackson County,MO,NA,85.97662771285476,NA
64068,Clay County,MO,NA,NA,28.180862250262884
64086,Jackson County,MO,NA,26.154702281580413,NA
64093,Johnson County,MO,NA,22.760155815247636,NA
64114,Jackson County,MO,57.486338797814206,NA,NA
64117,Clay County,MO,NA,80.24485253199778,NA
64118,Clay County,MO,NA,22.815804117974402,NA
64119,Clay County,MO,NA,12.020033388981636,NA
64127,Jackson County,MO,NA,23.094045631608235,NA
64128,Jackson County,MO,NA,48.69226488592098,NA
64130,Jackson County,MO,NA,11.074012242626601,NA
64133,Jackson County,MO,2.73224043715847,NA,NA
64134,Jackson County,MO,10.710382513661203,NA,NA
64138,Jackson County,MO,31.693989071038253,8.681135225375627,NA
64152,Platte County,MO,42.185792349726775,NA,NA
64157,Clay County,MO,90.49180327868852,98.1636060100167,NA
64429,Clinton County,MO,40.54644808743169,NA,NA
64485,Andrew County,MO,52.459016393442624,44.574290484140235,NA
64505,Buchanan County,MO,NA,14.07902058987201,NA
64506,Buchanan County,MO,NA,NA,56.992639327024186
64507,Buchanan County,MO,NA,77.23984418475236,NA
64730,Bates County,MO,48.96174863387978,NA,NA
64744,Cedar County,MO,91.03825136612022,NA,80.86225026288118
64747,Cass County,MO,89.61748633879782,NA,NA
64759,Barton County,MO,NA,70.39510294936005,NA
64804,Jasper County,MO,NA,55.25876460767947,NA
64834,Jasper County,MO,72.1311475409836,NA,52.47108307045215
64836,Jasper County,MO,NA,17.75180856983862,NA
65084,Morgan County,MO,NA,76.07122982749026,NA
65201,Boone County,MO,NA,45.4646633277685,NA
65251,Callaway County,MO,24.91803278688525,38.73121869782972,68.45425867507886
65340,Saline County,MO,56.939890710382514,NA,NA
65548,Howell County,MO,NA,71.84195882025598,NA
65560,Dent County,MO,NA,35.61491374513077,NA
65625,Barry County,MO,NA,91.04062326099054,NA
65653,Taney County,MO,NA,58.20812465219811,NA
65704,Wright County,MO,NA,99.1652754590985,NA
65747,Barry County,MO,NA,NA,90.7465825446898
65793,Howell County,MO,92.89617486338798,NA,NA
65807,Greene County,MO,NA,8.79243183082916,NA
59301,Custer County,MT,NA,90.15025041736226,NA
59701,Silver Bow County,MT,NA,24.596549805230943,NA
59901,Flathead County,MT,NA,NA,8.622502628811777
59923,Lincoln County,MT,51.36612021857923,NA,NA
68025,Dodge County,NE,NA,15.025041736227045,50.262881177707676
68106,Douglas County,NE,NA,NA,42.797055730809674
68111,Douglas County,NE,16.612021857923498,NA,NA
68112,Douglas County,NE,NA,81.19087367835282,NA
68114,Douglas County,NE,89.94535519125682,NA,NA
68124,Douglas County,NE,NA,NA,53.10199789695058
68130,Douglas County,NE,NA,NA,65.8254468980021
68154,Douglas County,NE,NA,82.08124652198107,NA
68164,Douglas County,NE,NA,75.73734001112966,NA
68505,Lancaster County,NE,NA,NA,67.40273396424816
68506,Lancaster County,NE,NA,33.44462993878687,NA
68516,Lancaster County,NE,NA,30.77351140790206,NA
68701,Madison County,NE,40.65573770491803,NA,NA
68787,Wayne County,NE,NA,100,NA
68847,Buffalo County,NE,NA,92.59877573734,87.69716088328076
68901,Adams County,NE,NA,91.65275459098497,NA
69101,Lincoln County,NE,NA,14.357262103505844,NA
69162,Cheyenne County,NE,NA,NA,56.67718191377497
69337,Dawes County,NE,NA,94.88035614913744,NA
69361,Scotts Bluff County,NE,NA,45.631608235948804,NA
89108,Clark County,NV,NA,NA,26.603575184016826
89109,Clark County,NV,NA,88.36950473010573,NA
89113,Clark County,NV,64.48087431693989,NA,NA
89117,Clark County,NV,28.524590163934427,NA,NA
89135,Clark County,NV,76.6120218579235,NA,NA
89146,Clark County,NV,NA,NA,74.34279705573081
89149,Clark County,NV,NA,36.727879799666105,NA
89178,Clark County,NV,NA,89.03728436282692,NA
89410,Douglas County,NV,NA,19.81079577072899,NA
89436,Washoe County,NV,NA,6.288258208124652,NA
89460,Douglas County,NV,NA,NA,80.23133543638275
89503,Washoe County,NV,NA,28.32498608792432,NA
89703,Carson City,NV,NA,NA,75.60462670872765
03038,Rockingham County,NH,NA,97.71841958820256,NA
03060,Hillsborough County,NH,5.027322404371585,NA,NA
03062,Hillsborough County,NH,NA,4.284919309961046,NA
03064,Hillsborough County,NH,NA,32.220367278797994,NA
03076,Hillsborough County,NH,95.19125683060109,NA,NA
03079,Rockingham County,NH,11.80327868852459,NA,NA
03103,Hillsborough County,NH,NA,26.37729549248748,NA
03110,Hillsborough County,NH,NA,52.698942682248195,NA
03301,Merrimack County,NH,NA,48.13578185865331,3.0494216614090432
03452,Cheshire County,NH,NA,53.978853644963834,NA
03458,Hillsborough County,NH,84.59016393442623,NA,NA
03570,Coos County,NH,NA,93.04396215915415,NA
03755,Grafton County,NH,92.78688524590164,NA,NA
03801,Rockingham County,NH,NA,28.60322760155815,42.06098843322818
03857,Rockingham County,NH,NA,63.939899833055094,NA
03867,Strafford County,NH,NA,16.86143572621035,3.2597266035751837
03874,Rockingham County,NH,NA,84.58542014468559,NA
07005,Morris County,NJ,NA,90.65108514190318,NA
07006,Essex County,NJ,50.38251366120219,NA,NA
07017,Essex County,NJ,NA,8.180300500834726,NA
07032,Hudson County,NJ,NA,73.73400111296606,NA
07036,Union County,NJ,NA,54.09015025041736,NA
07039,Essex County,NJ,NA,67.55703951029494,NA
07050,Essex County,NJ,NA,49.69393433500278,NA
07057,Bergen County,NJ,71.47540983606558,NA,NA
07067,Middlesex County,NJ,NA,NA,82.75499474237644
07075,Bergen County,NJ,79.78142076502732,NA,NA
07092,Union County,NJ,96.39344262295081,NA,NA
07093,Hudson County,NJ,NA,NA,4.6267087276550996
07109,Essex County,NJ,NA,8.95937673900946,NA
07202,Union County,NJ,NA,4.674457429048414,NA
07203,Union County,NJ,NA,95.49248747913188,NA
07306,Hudson County,NJ,NA,48.02448525319978,NA
07307,Hudson County,NJ,NA,25.486922648859213,NA
07407,Bergen County,NJ,NA,41.736227045075125,NA
07420,Passaic County,NJ,NA,NA,77.70767613038907
07460,Sussex County,NJ,NA,97.44017807456873,NA
07461,Sussex County,NJ,NA,93.15525876460768,NA
07465,Passaic County,NJ,NA,NA,72.45005257623555
07470,Passaic County,NJ,12.6775956284153,NA,NA
07481,Bergen County,NJ,97.70491803278688,86.47746243739566,NA
07501,Passaic County,NJ,NA,NA,68.03364879074658
07503,Passaic County,NJ,NA,NA,73.92218717139852
07506,Passaic County,NJ,NA,NA,76.5509989484753
07514,Passaic County,NJ,NA,51.196438508625484,NA
07604,Bergen County,NJ,NA,85.36449638286032,NA
07621,Bergen County,NJ,NA,46.18809126321647,NA
07631,Bergen County,NJ,NA,NA,41.32492113564668
07648,Bergen County,NJ,NA,NA,88.22292323869611
07666,Bergen County,NJ,NA,NA,10.515247108307046
07722,Monmouth County,NJ,NA,NA,83.38590956887487
07727,Monmouth County,NJ,NA,67.6126878130217,NA
07731,Monmouth County,NJ,25.792349726775953,NA,NA
07740,Monmouth County,NJ,5.136612021857923,NA,NA
07748,Monmouth County,NJ,23.825136612021858,85.64273789649415,NA
07751,Monmouth County,NJ,NA,61.65831942125766,NA
07753,Monmouth County,NJ,3.606557377049181,4.897050639955482,8.201892744479496
07801,Morris County,NJ,15.956284153005464,NA,NA
07821,Sussex County,NJ,NA,76.12687813021702,NA
07860,Sussex County,NJ,NA,46.07679465776294,NA
07866,Morris County,NJ,NA,28.49193099610462,NA
07869,Morris County,NJ,NA,NA,97.26603575184016
07930,Morris County,NJ,NA,69.22648859209795,NA
08002,Camden County,NJ,NA,NA,29.96845425867508
08008,Ocean County,NJ,NA,85.86533110740122,NA
08015,Burlington County,NJ,NA,NA,88.74868559411146
08036,Burlington County,NJ,NA,87.590428491931,NA
08037,Atlantic County,NJ,12.459016393442624,NA,47.10830704521556
08050,Ocean County,NJ,NA,NA,66.14090431125132
08053,Burlington County,NJ,NA,15.247634947134111,NA
08062,Gloucester County,NJ,58.142076502732245,NA,NA
08075,Burlington County,NJ,NA,72.34279354479688,NA
08079,Salem County,NJ,NA,59.933222036727884,NA
08080,Gloucester County,NJ,66.66666666666666,NA,NA
08087,Ocean County,NJ,NA,86.19922092376183,NA
08088,Burlington County,NJ,38.907103825136616,NA,NA
08093,Gloucester County,NJ,NA,57.095158597662774,NA
08094,Gloucester County,NJ,4.590163934426229,28.26933778519755,NA
08096,Gloucester County,NJ,NA,NA,11.987381703470032
08106,Camden County,NJ,NA,77.46243739565944,NA
08107,Camden County,NJ,23.715846994535518,NA,NA
08110,Camden County,NJ,NA,15.080690038953811,NA
08204,Cape May County,NJ,NA,41.068447412353926,23.44900105152471
08205,Atlantic County,NJ,55.62841530054645,NA,NA
08226,Cape May County,NJ,NA,64.77462437395658,NA
08232,Atlantic County,NJ,4.1530054644808745,NA,NA
08234,Atlantic County,NJ,16.939890710382514,NA,NA
08244,Atlantic County,NJ,58.36065573770492,NA,NA
08332,Cumberland County,NJ,18.360655737704917,NA,63.196635120925336
08401,Atlantic County,NJ,2.2950819672131146,NA,NA
08618,Mercer County,NJ,5.245901639344262,40.51196438508626,NA
08620,Mercer County,NJ,NA,85.25319977740679,NA
08628,Mercer County,NJ,NA,62.21480244852532,NA
08638,Mercer County,NJ,NA,NA,58.88538380651946
08724,Ocean County,NJ,81.63934426229508,35.11407902058987,NA
08742,Ocean County,NJ,NA,NA,25.55205047318612
08757,Ocean County,NJ,NA,1.5025041736227045,4.837013669821241
08758,Ocean County,NJ,NA,53.311074012242635,NA
08759,Ocean County,NJ,NA,NA,0
08804,Hunterdon County,NJ,95.84699453551913,NA,NA
08820,Middlesex County,NJ,NA,NA,45.5310199789695
08822,Hunterdon County,NJ,NA,NA,37.013669821240796
08831,Middlesex County,NJ,NA,43.516972732331666,11.146161934805468
08844,Somerset County,NJ,73.44262295081967,NA,NA
08857,Middlesex County,NJ,NA,8.402893711741791,NA
08861,Middlesex County,NJ,1.4207650273224044,NA,NA
08884,Middlesex County,NJ,NA,NA,98.42271293375394
08889,Hunterdon County,NJ,NA,NA,74.86855941114617
08902,Middlesex County,NJ,54.53551912568307,NA,NA
87002,Valencia County,NM,NA,NA,54.25867507886435
87102,Bernalillo County,NM,18.14207650273224,NA,NA
87108,Bernalillo County,NM,NA,NA,52.15562565720294
87109,Bernalillo County,NM,13.989071038251366,7.957707289927657,NA
87111,Bernalillo County,NM,NA,93.09961046188091,NA
87112,Bernalillo County,NM,NA,25.93210907067334,NA
87114,Bernalillo County,NM,NA,7.512520868113523,NA
87120,Bernalillo County,NM,28.633879781420763,NA,NA
87121,Bernalillo County,NM,NA,NA,19.558359621451103
87124,Sandoval County,NM,NA,24.819143016138007,NA
87144,Sandoval County,NM,NA,11.352253756260435,NA
87301,McKinley County,NM,NA,85.36449638286032,82.96529968454259
87401,San Juan County,NM,39.45355191256831,NA,NA
87420,San Juan County,NM,NA,NA,80.02103049421662
87501,Santa Fe County,NM,98.14207650273225,NA,NA
87505,Santa Fe County,NM,NA,94.65776293823038,NA
87508,Santa Fe County,NM,NA,35.89315525876461,NA
87532,Santa Fe County,NM,NA,NA,42.48159831756047
87544,Los Alamos County,NM,NA,41.346688925987756,NA
87701,San Miguel County,NM,40.10928961748634,NA,NA
88001,Doa Ana County,NM,NA,NA,92.21871713985279
88005,Doa Ana County,NM,NA,NA,37.22397476340694
88007,Doa Ana County,NM,NA,NA,54.679284963196636
88011,Doa Ana County,NM,43.606557377049185,NA,NA
88030,Luna County,NM,NA,NA,72.66035751840168
88044,Doa Ana County,NM,NA,99.4991652754591,NA
88101,Curry County,NM,NA,21.202003338898166,NA
88230,Chaves County,NM,NA,NA,98.63301787592007
88240,Lea County,NM,NA,37.84084585420145,NA
88310,Otero County,NM,NA,16.026711185308848,NA
10003,New York County,NY,NA,68.72565386755703,NA
10009,New York County,NY,NA,NA,2.5236593059936907
10011,New York County,NY,NA,64.21814134668892,36.80336487907466
10013,New York County,NY,NA,80.41179744017808,NA
10019,New York County,NY,NA,94.71341124095714,NA
10022,New York County,NY,86.44808743169399,NA,NA
10023,New York County,NY,NA,NA,2.6288117770767614
10024,New York County,NY,NA,14.468558708959378,NA
10025,New York County,NY,4.480874316939891,NA,1.0515247108307046
10028,New York County,NY,NA,19.755147468002228,NA
10029,New York County,NY,NA,42.23706176961603,0.31545741324921134
10032,New York County,NY,NA,3.728436282693378,NA
10036,New York County,NY,NA,31.21869782971619,NA
10304,Richmond County,NY,35.40983606557377,NA,NA
10306,Richmond County,NY,74.31693989071039,NA,NA
10309,Richmond County,NY,NA,98.44184752365052,NA
10310,Richmond County,NY,65.02732240437157,NA,87.38170347003155
10312,Richmond County,NY,85.57377049180329,NA,NA
10314,Richmond County,NY,76.93989071038251,NA,NA
10453,Bronx County,NY,NA,NA,11.041009463722396
10454,Bronx County,NY,NA,NA,21.976866456361723
10457,Bronx County,NY,3.715846994535519,NA,NA
10460,Bronx County,NY,1.530054644808743,NA,NA
10463,Bronx County,NY,NA,NA,1.5772870662460567
10471,Bronx County,NY,NA,80.74568725653867,NA
10472,Bronx County,NY,71.14754098360656,NA,11.56677181913775
10523,Westchester County,NY,NA,NA,80.96740273396425
10605,Westchester County,NY,NA,NA,27.23449001051525
10703,Westchester County,NY,NA,NA,44.479495268138805
10704,Westchester County,NY,NA,41.90317195325542,NA
10705,Westchester County,NY,NA,16.583194212576515,NA
10801,Westchester County,NY,53.442622950819676,20.422927100723427,NA
10954,Rockland County,NY,NA,NA,38.170347003154575
10989,Rockland County,NY,NA,NA,72.2397476340694
11001,Nassau County,NY,73.33333333333333,NA,NA
11003,Nassau County,NY,NA,40.62326099053979,NA
11005,Queens County,NY,NA,98.49749582637729,NA
11105,Queens County,NY,NA,77.29549248747914,NA
11205,Kings County,NY,NA,98.33055091819699,NA
11206,Kings County,NY,NA,NA,3.680336487907466
11209,Kings County,NY,NA,39.17640511964385,NA
11211,Kings County,NY,NA,10.239287701725097,NA
11212,Kings County,NY,NA,0.38953811908736785,NA
11214,Kings County,NY,NA,76.46076794657763,91.062039957939
11216,Kings County,NY,NA,22.982749026154703,15.036803364879075
11218,Kings County,NY,NA,7.401224262659989,NA
11221,Kings County,NY,NA,NA,3.5751840168243953
11222,Kings County,NY,NA,71.78631051752922,NA
11223,Kings County,NY,NA,NA,4.73186119873817
11224,Kings County,NY,NA,18.920422927100724,0.7360672975814931
11226,Kings County,NY,2.4043715846994536,NA,8.412197686645637
11228,Kings County,NY,NA,28.65887590428492,NA
11229,Kings County,NY,NA,10.9070673344463,NA
11230,Kings County,NY,NA,NA,4.311251314405888
11233,Kings County,NY,22.07650273224044,NA,NA
11234,Kings County,NY,NA,6.121313299944352,68.98002103049421
11354,Queens County,NY,NA,NA,48.159831756046266
11358,Queens County,NY,NA,40.67890929326656,NA
11360,Queens County,NY,NA,62.270450751252085,NA
11365,Queens County,NY,NA,42.01446855870896,NA
11368,Queens County,NY,NA,9.29326655537006,NA
11369,Queens County,NY,NA,81.69170840289371,NA
11372,Queens County,NY,NA,12.632164718976071,NA
11373,Queens County,NY,NA,NA,15.457413249211358
11375,Queens County,NY,NA,19.14301613800779,4.942166140904311
11378,Queens County,NY,NA,NA,90.32597266035752
11385,Queens County,NY,29.2896174863388,57.42904841402338,NA
11411,Queens County,NY,NA,56.3717306622148,NA
11416,Queens County,NY,NA,88.14691151919867,NA
11418,Queens County,NY,NA,32.66555370061213,NA
11427,Queens County,NY,NA,NA,53.41745531019979
11510,Nassau County,NY,NA,NA,31.440588853838065
11520,Nassau County,NY,76.28415300546449,23.92877017250974,NA
11530,Nassau County,NY,NA,NA,41.00946372239748
11553,Nassau County,NY,45.13661202185793,NA,NA
11554,Nassau County,NY,45.46448087431694,92.37618252643294,NA
11558,Nassau County,NY,NA,62.99387868670006,NA
11563,Nassau County,NY,NA,66.6110183639399,NA
11576,Nassau County,NY,NA,NA,76.44584647739222
11577,Nassau County,NY,NA,83.52810239287702,NA
11580,Nassau County,NY,48.52459016393443,NA,NA
11590,Nassau County,NY,NA,19.69949916527546,NA
11694,Queens County,NY,90.7103825136612,NA,NA
11702,Suffolk County,NY,93.33333333333333,NA,NA
11704,Suffolk County,NY,46.44808743169399,NA,NA
11716,Suffolk County,NY,NA,92.65442404006677,NA
11732,Nassau County,NY,NA,95.71508069003896,NA
11733,Suffolk County,NY,NA,68.11352253756262,NA
11741,Suffolk County,NY,NA,48.74791318864774,NA
11746,Suffolk County,NY,NA,NA,49.737118822292324
11747,Suffolk County,NY,NA,50.69560378408459,41.430073606729756
11756,Nassau County,NY,NA,NA,63.61724500525763
11768,Suffolk County,NY,NA,86.53311074012242,NA
11784,Suffolk County,NY,NA,NA,40.694006309148264
11787,Suffolk County,NY,73.55191256830601,NA,NA
11901,Suffolk County,NY,NA,43.572621035058425,NA
11942,Suffolk County,NY,NA,NA,89.90536277602523
11949,Suffolk County,NY,NA,93.7673900946021,NA
12018,Rensselaer County,NY,NA,71.00723427935448,NA
12020,Saratoga County,NY,NA,15.859766277128548,NA
12037,Columbia County,NY,NA,72.67668336115747,NA
12047,Albany County,NY,NA,40.56761268781302,NA
12078,Fulton County,NY,NA,4.841402337228715,NA
12090,Rensselaer County,NY,55.19125683060109,NA,NA
12095,Fulton County,NY,36.17486338797814,NA,NA
12118,Saratoga County,NY,NA,37.00612131329994,NA
12123,Rensselaer County,NY,NA,89.4268224819143,NA
12144,Rensselaer County,NY,NA,27.768503060656652,NA
12180,Rensselaer County,NY,1.8579234972677594,NA,29.02208201892745
12202,Albany County,NY,49.72677595628415,NA,NA
12203,Albany County,NY,31.256830601092894,NA,NA
12302,Schenectady County,NY,NA,43.35002782415137,NA
12309,Schenectady County,NY,NA,45.742904841402336,NA
12414,Greene County,NY,67.43169398907104,NA,NA
12508,Dutchess County,NY,NA,80.57874234835838,NA
12522,Dutchess County,NY,NA,75.62604340567613,NA
12524,Dutchess County,NY,NA,79.24318308291596,NA
12528,Ulster County,NY,NA,91.59710628825822,NA
12540,Dutchess County,NY,NA,NA,94.6372239747634
12571,Dutchess County,NY,NA,NA,67.50788643533123
12803,Saratoga County,NY,NA,65.88759042849193,NA
12804,Warren County,NY,NA,91.20756816917084,NA
12866,Saratoga County,NY,35.73770491803279,NA,NA
12887,Washington County,NY,NA,NA,91.27234490010515
12962,Clinton County,NY,96.93989071038251,92.87701725097385,NA
12986,Franklin County,NY,NA,59.37673900946021,NA
13021,Cayuga County,NY,NA,8.95937673900946,NA
13027,Onondaga County,NY,NA,8.903728436282693,NA
13036,Oswego County,NY,NA,NA,93.5856992639327
13057,Onondaga County,NY,39.67213114754099,NA,NA
13069,Oswego County,NY,NA,5.843071786310518,NA
13090,Onondaga County,NY,NA,82.47078464106845,NA
13126,Oswego County,NY,16.28415300546448,NA,8.937960042060988
13135,Oswego County,NY,NA,NA,96.52996845425868
13152,Onondaga County,NY,NA,97.60712298274903,NA
13158,Cortland County,NY,91.2568306010929,NA,NA
13205,Onondaga County,NY,10.601092896174864,NA,NA
13309,Oneida County,NY,NA,58.764607679465776,NA
13316,Oneida County,NY,75.30054644808743,NA,NA
13326,Otsego County,NY,78.46994535519126,NA,56.04626708727655
13329,Herkimer County,NY,NA,87.2565386755704,NA
13339,Montgomery County,NY,45.24590163934426,NA,NA
13357,Herkimer County,NY,29.508196721311474,NA,NA
13413,Oneida County,NY,39.34426229508197,NA,NA
13440,Oneida County,NY,NA,2.1702838063439067,49.1062039957939
13601,Jefferson County,NY,17.81420765027322,NA,NA
13642,St. Lawrence County,NY,53.00546448087432,NA,NA
13646,St. Lawrence County,NY,99.78142076502732,NA,NA
13662,St. Lawrence County,NY,NA,8.514190317195327,NA
13676,St. Lawrence County,NY,88.52459016393442,NA,NA
13694,St. Lawrence County,NY,NA,84.36282693377852,NA
13760,Broome County,NY,1.2021857923497268,64.27378964941569,NA
13790,Broome County,NY,NA,23.4835837506956,NA
13820,Otsego County,NY,29.617486338797818,21.981079577072897,NA
13850,Broome County,NY,NA,53.42237061769616,59.305993690851736
13901,Broome County,NY,NA,NA,35.2260778128286
13905,Broome County,NY,NA,1.8920422927100722,NA
14020,Genesee County,NY,32.677595628415304,31.44129104062326,19.348054679284964
14042,Cattaraugus County,NY,89.39890710382514,NA,NA
14063,Chautauqua County,NY,NA,NA,76.23554153522608
14075,Erie County,NY,NA,2.8380634390651087,NA
14086,Erie County,NY,16.39344262295082,NA,NA
14120,Niagara County,NY,NA,3.5614913745130776,17.665615141955836
14127,Erie County,NY,NA,7.73511407902059,13.774973711882229
14150,Erie County,NY,NA,68.50306065664998,NA
14170,Erie County,NY,93.87978142076503,NA,NA
14213,Erie County,NY,NA,27.657206455203116,NA
14216,Erie County,NY,NA,25.70951585976628,NA
14217,Erie County,NY,NA,55.8708959376739,NA
14223,Erie County,NY,23.060109289617486,NA,NA
14225,Erie County,NY,6.448087431693988,NA,NA
14227,Erie County,NY,NA,NA,18.40168243953733
14304,Niagara County,NY,NA,13.912075681691707,NA
14305,Niagara County,NY,NA,NA,71.08307045215562
14420,Monroe County,NY,12.021857923497267,NA,NA
14428,Monroe County,NY,NA,78.40845854201447,NA
14450,Monroe County,NY,13.005464480874318,30.550918196994992,23.86961093585699
14467,Monroe County,NY,47.759562841530055,NA,NA
14472,Monroe County,NY,NA,61.992209237618255,NA
14476,Orleans County,NY,NA,96.32721202003339,NA
14502,Wayne County,NY,NA,96.661101836394,NA
14512,Ontario County,NY,NA,72.56538675570395,NA
14513,Wayne County,NY,NA,NA,23.02839116719243
14514,Monroe County,NY,56.6120218579235,84.30717863105176,NA
14526,Monroe County,NY,NA,NA,19.242902208201894
14532,Ontario County,NY,NA,NA,90.7465825446898
14548,Ontario County,NY,NA,95.10294936004452,NA
14564,Ontario County,NY,NA,9.070673344462994,NA
14580,Monroe County,NY,NA,0.1669449081803005,NA
14609,Monroe County,NY,NA,17.417918753478016,14.090431125131442
14615,Monroe County,NY,NA,64.99721758486366,NA
14616,Monroe County,NY,NA,NA,21.451104100946374
14617,Monroe County,NY,NA,15.525876460767945,24.605678233438486
14618,Monroe County,NY,38.36065573770492,6.232609905397886,NA
14619,Monroe County,NY,NA,NA,88.95899053627761
14621,Monroe County,NY,NA,0.8347245409015025,NA
14622,Monroe County,NY,NA,55.81524763494713,NA
14623,Monroe County,NY,NA,12.520868113522537,NA
14624,Monroe County,NY,NA,9.627156371730662,31.966351209253418
14626,Monroe County,NY,NA,1.335559265442404,NA
14701,Chautauqua County,NY,NA,NA,9.46372239747634
14706,Cattaraugus County,NY,97.59562841530055,NA,93.27024185068349
14737,Cattaraugus County,NY,75.19125683060109,NA,NA
14750,Chautauqua County,NY,NA,NA,91.16719242902208
14760,Cattaraugus County,NY,NA,83.24986087924319,NA
14787,Chautauqua County,NY,NA,NA,91.69295478443743
14810,Steuben County,NY,26.775956284153008,NA,NA
14821,Steuben County,NY,95.73770491803279,NA,NA
14845,Chemung County,NY,37.704918032786885,NA,NA
14892,Tioga County,NY,66.77595628415301,NA,NA
14895,Allegany County,NY,NA,96.16026711185309,NA
14904,Chemung County,NY,NA,79.41012799109627,NA
27021,Stokes County,NC,NA,74.12353923205343,79.39011566771819
27030,Surry County,NC,NA,0.7790762381747357,NA
27048,Rockingham County,NC,NA,NA,68.34910620399579
27055,Yadkin County,NC,NA,94.82470784641069,NA
27104,Forsyth County,NC,NA,3.116304952698943,NA
27105,Forsyth County,NC,NA,0.9460211463550361,NA
27106,Forsyth County,NC,NA,50.97384529771843,NA
27107,Forsyth County,NC,NA,89.14858096828047,NA
27203,Randolph County,NC,21.74863387978142,NA,NA
27217,Alamance County,NC,NA,5.342237061769616,NA
27253,Alamance County,NC,38.0327868852459,36.28269337785198,NA
27284,Forsyth County,NC,NA,7.790762381747357,1.6824395373291272
27292,Davidson County,NC,NA,29.437952142459658,NA
27295,Davidson County,NC,64.37158469945355,NA,1.2618296529968454
27312,Chatham County,NC,NA,55.31441291040623,NA
27313,Guilford County,NC,NA,74.45742904841403,NA
27344,Chatham County,NC,NA,28.380634390651082,NA
27350,Randolph County,NC,NA,NA,92.42902208201893
27360,Davidson County,NC,NA,1.7807456872565388,NA
27370,Randolph County,NC,61.85792349726776,NA,NA
27405,Guilford County,NC,NA,30.217028380634392,16.824395373291274
27407,Guilford County,NC,90.81967213114754,22.25932109070673,NA
27501,Harnett County,NC,87.43169398907104,73.0105731775181,NA
27516,Orange County,NC,NA,48.35837506956038,NA
27518,Wake County,NC,NA,37.56260434056761,NA
27519,Wake County,NC,NA,NA,89.80021030494217
27520,Johnston County,NC,27.10382513661202,NA,NA
27530,Wayne County,NC,NA,11.96438508625487,NA
27534,Wayne County,NC,NA,NA,22.397476340694006
27536,Vance County,NC,NA,74.23483583750695,NA
27539,Wake County,NC,NA,92.71007234279355,NA
27545,Wake County,NC,NA,61.43572621035058,NA
27546,Harnett County,NC,NA,NA,76.65615141955836
27572,Person County,NC,NA,91.70840289371174,NA
27573,Person County,NC,75.84699453551913,NA,NA
27591,Wake County,NC,NA,39.955481357818584,NA
27603,Wake County,NC,18.251366120218577,NA,NA
27606,Wake County,NC,NA,31.49693934335003,NA
27609,Wake County,NC,NA,20.92376182526433,NA
27615,Wake County,NC,NA,31.775180856983866,NA
27703,Durham County,NC,30.92896174863388,NA,NA
27705,Durham County,NC,NA,29.716193656093488,14.405888538380651
27712,Durham County,NC,NA,25.87646076794658,NA
27713,Durham County,NC,47.21311475409836,NA,NA
27822,Wilson County,NC,NA,97.27323316638842,NA
27828,Pitt County,NC,NA,80.91263216471899,NA
27834,Pitt County,NC,NA,8.124652198107958,NA
27837,Pitt County,NC,79.89071038251366,NA,NA
27858,Pitt County,NC,NA,NA,79.49526813880126
27863,Wayne County,NC,NA,54.70228158041179,NA
27870,Halifax County,NC,18.688524590163937,62.604340567612695,NA
27893,Wilson County,NC,NA,13.856427378964941,NA
27909,Pasquotank County,NC,NA,48.41402337228715,44.689800210304945
27948,Dare County,NC,NA,51.30773511407902,NA
28012,Gaston County,NC,NA,36.56093489148581,93.79600420609884
28025,Cabarrus County,NC,NA,50.473010573177525,NA
28043,Rutherford County,NC,NA,NA,35.96214511041009
28052,Gaston County,NC,49.39890710382514,77.12854757929884,32.80757097791798
28056,Gaston County,NC,NA,32.77685030606566,NA
28075,Cabarrus County,NC,NA,97.05063995548136,NA
28078,Mecklenburg County,NC,NA,99.05397885364496,NA
28081,Cabarrus County,NC,NA,33.0550918196995,NA
28092,Lincoln County,NC,NA,30.495269894268223,62.56572029442692
28103,Union County,NC,NA,57.87423483583751,NA
28105,Mecklenburg County,NC,NA,NA,28.180862250262884
28107,Cabarrus County,NC,NA,NA,57.09779179810725
28110,Union County,NC,92.34972677595628,NA,NA
28112,Union County,NC,NA,NA,27.339642481598318
28117,Iredell County,NC,51.80327868852459,64.10684474123539,NA
28129,Stanly County,NC,NA,NA,87.80231335436383
28147,Rowan County,NC,53.551912568306015,33.889816360601,NA
28152,Cleveland County,NC,NA,44.01780745687257,NA
28168,Lincoln County,NC,NA,NA,92.00841219768665
28170,Anson County,NC,NA,NA,61.198738170347
28208,Mecklenburg County,NC,NA,14.858096828046744,63.512092534174556
28212,Mecklenburg County,NC,NA,NA,77.70767613038907
28214,Mecklenburg County,NC,NA,34.668892598775734,NA
28215,Mecklenburg County,NC,NA,81.74735670562048,NA
28216,Mecklenburg County,NC,7.213114754098362,NA,NA
28226,Mecklenburg County,NC,NA,29.215358931552586,NA
28227,Mecklenburg County,NC,NA,53.199777406789096,96.84542586750788
28269,Mecklenburg County,NC,NA,46.355036171396776,NA
28311,Cumberland County,NC,NA,70.4507512520868,NA
28352,Scotland County,NC,72.78688524590164,NA,69.29547844374343
28358,Robeson County,NC,NA,48.191430161380076,NA
28379,Richmond County,NC,82.73224043715847,NA,NA
28384,Bladen County,NC,NA,NA,81.80862250262881
28387,Moore County,NC,NA,60.87924318308292,NA
28394,Moore County,NC,99.672131147541,NA,NA
28398,Duplin County,NC,71.69398907103826,NA,NA
28401,New Hanover County,NC,8.306010928961749,NA,NA
28409,New Hanover County,NC,NA,NA,50.998948475289176
28412,New Hanover County,NC,36.721311475409834,NA,NA
28443,Pender County,NC,80.43715846994536,40.345019476905954,NA
28463,Columbus County,NC,NA,56.14913745130774,NA
28465,Brunswick County,NC,90.1639344262295,NA,NA
28470,Brunswick County,NC,NA,51.86421814134668,NA
28504,Lenoir County,NC,NA,45.01947690595437,NA
28540,Onslow County,NC,NA,NA,25.131440588853838
28546,Onslow County,NC,21.202185792349727,NA,NA
28551,Lenoir County,NC,82.8415300546448,90.31719532554257,NA
28572,Duplin County,NC,NA,78.57540345019477,NA
28590,Pitt County,NC,50.60109289617486,NA,NA
28601,Catawba County,NC,NA,4.730105731775181,NA
28645,Caldwell County,NC,NA,22.148024485253202,41.11461619348054
28658,Catawba County,NC,63.060109289617486,26.655537006121317,NA
28659,Wilkes County,NC,NA,16.750139120756817,NA
28713,Swain County,NC,NA,NA,91.37749737118823
28715,Buncombe County,NC,NA,86.31051752921536,NA
28719,Jackson County,NC,NA,70.17250973845299,78.75920084121977
28723,Jackson County,NC,NA,70.6176961602671,NA
28748,Buncombe County,NC,NA,NA,85.48895899053628
28751,Haywood County,NC,94.53551912568307,NA,NA
28786,Haywood County,NC,NA,93.65609348914859,NA
28789,Jackson County,NC,NA,68.28046744574291,NA
28803,Buncombe County,NC,NA,20.311630495269895,NA
28806,Buncombe County,NC,NA,28.15804117974402,NA
58072,Barnes County,ND,78.79781420765028,NA,NA
58078,Cass County,ND,NA,7.6794657762938225,NA
58103,Cass County,ND,NA,NA,50.57833859095688
58104,Cass County,ND,25.901639344262296,28.99276572064552,NA
58201,Grand Forks County,ND,NA,NA,0.9463722397476341
58301,Ramsey County,ND,NA,72.00890372843628,NA
58801,Williams County,ND,NA,61.82526432943796,NA
43004,Franklin County,OH,33.87978142076503,NA,NA
43015,Delaware County,OH,NA,21.42459654980523,NA
43026,Franklin County,OH,NA,11.630495269894269,NA
43028,Knox County,OH,NA,NA,29.652996845425868
43031,Licking County,OH,NA,98.38619922092377,NA
43050,Knox County,OH,NA,15.581524763494714,NA
43055,Licking County,OH,66.88524590163935,NA,NA
43065,Delaware County,OH,NA,NA,66.5615141955836
43081,Franklin County,OH,NA,5.509181969949917,NA
43110,Franklin County,OH,NA,70.11686143572621,NA
43113,Pickaway County,OH,NA,6.3995548135781855,NA
43119,Franklin County,OH,NA,NA,57.833859095688744
43123,Franklin County,OH,25.245901639344265,NA,NA
43130,Fairfield County,OH,NA,85.08625486922648,NA
43160,Fayette County,OH,NA,11.853088480801336,NA
43204,Franklin County,OH,4.043715846994536,NA,NA
43207,Franklin County,OH,9.180327868852459,NA,60.56782334384858
43209,Franklin County,OH,NA,NA,64.14300736067298
43213,Franklin County,OH,NA,NA,82.43953732912723
43221,Franklin County,OH,NA,NA,28.811777076761302
43223,Franklin County,OH,78.79781420765028,NA,NA
43231,Franklin County,OH,NA,39.84418475236505,NA
43235,Franklin County,OH,NA,95.26989426822482,NA
43315,Morrow County,OH,94.75409836065573,NA,NA
43351,Wyandot County,OH,NA,NA,37.43427970557308
43420,Sandusky County,OH,NA,89.70506399554814,NA
43452,Ottawa County,OH,75.51912568306011,NA,NA
43506,Williams County,OH,NA,NA,55.83596214511041
43512,Defiance County,OH,NA,NA,10.304942166140904
43526,Defiance County,OH,NA,84.86366165831942,NA
43528,Lucas County,OH,86.77595628415301,NA,56.46687697160884
43560,Lucas County,OH,20.437158469945356,NA,NA
43567,Fulton County,OH,NA,24.98608792431831,NA
43604,Lucas County,OH,NA,37.228714524207014,NA
43605,Lucas County,OH,26.666666666666668,NA,NA
43607,Lucas County,OH,NA,NA,64.87907465825447
43608,Lucas County,OH,54.97267759562842,NA,NA
43609,Lucas County,OH,19.672131147540984,NA,NA
43611,Lucas County,OH,70.81967213114754,NA,NA
43613,Lucas County,OH,NA,43.23873121869783,34.910620399579386
43614,Lucas County,OH,8.633879781420765,46.46633277685031,NA
43617,Lucas County,OH,89.50819672131148,NA,NA
43623,Lucas County,OH,NA,89.98330550918196,NA
43713,Belmont County,OH,NA,81.91430161380077,NA
43756,Morgan County,OH,NA,65.99888703394546,NA
43912,Belmont County,OH,NA,34.5575959933222,NA
43935,Belmont County,OH,NA,45.90984974958264,NA
43938,Jefferson County,OH,NA,NA,58.25446898002104
43952,Jefferson County,OH,NA,NA,95.89905362776025
43953,Jefferson County,OH,54.20765027322404,NA,NA
44001,Lorain County,OH,NA,NA,57.51840168243953
44004,Ashtabula County,OH,52.6775956284153,NA,NA
44017,Cuyahoga County,OH,92.56830601092896,NA,NA
44022,Cuyahoga County,OH,NA,17.028380634390654,NA
44026,Geauga County,OH,NA,83.02726766833611,NA
44030,Ashtabula County,OH,NA,7.456872565386756,NA
44035,Lorain County,OH,0.546448087431694,NA,NA
44041,Ashtabula County,OH,NA,21.869782971619365,NA
44044,Lorain County,OH,66.01092896174863,NA,NA
44053,Lorain County,OH,NA,2.671118530884808,NA
44055,Lorain County,OH,NA,64.83027267668336,NA
44072,Geauga County,OH,NA,86.14357262103506,NA
44077,Lake County,OH,15.191256830601093,NA,NA
44081,Lake County,OH,NA,83.69504730105731,NA
44089,Erie County,OH,83.3879781420765,NA,NA
44090,Lorain County,OH,73.00546448087431,NA,NA
44092,Lake County,OH,34.97267759562842,20.58987200890373,NA
44094,Lake County,OH,NA,NA,9.884332281808621
44102,Cuyahoga County,OH,0.7650273224043715,NA,NA
44103,Cuyahoga County,OH,6.557377049180328,6.51085141903172,NA
44104,Cuyahoga County,OH,NA,94.49081803005008,41.6403785488959
44107,Cuyahoga County,OH,10.491803278688524,NA,NA
44108,Cuyahoga County,OH,2.185792349726776,NA,NA
44112,Cuyahoga County,OH,NA,77.90762381747356,NA
44115,Cuyahoga County,OH,75.08196721311475,NA,NA
44116,Cuyahoga County,OH,NA,NA,3.890641430073607
44117,Cuyahoga County,OH,NA,59.87757373400111,NA
44118,Cuyahoga County,OH,NA,26.933778519755148,NA
44122,Cuyahoga County,OH,46.22950819672131,NA,NA
44124,Cuyahoga County,OH,NA,12.075681691708402,0.4206098843322818
44125,Cuyahoga County,OH,1.3114754098360655,NA,NA
44129,Cuyahoga County,OH,36.28415300546448,32.49860879243183,NA
44130,Cuyahoga County,OH,NA,27.100723427935446,5.152471083070452
44132,Cuyahoga County,OH,NA,NA,61.72450052576236
44133,Cuyahoga County,OH,NA,6.3995548135781855,NA
44134,Cuyahoga County,OH,NA,9.84974958263773,NA
44138,Cuyahoga County,OH,53.77049180327869,NA,NA
44139,Cuyahoga County,OH,34.20765027322405,NA,NA
44141,Cuyahoga County,OH,NA,96.93934335002783,29.12723449001052
44144,Cuyahoga County,OH,81.85792349726776,92.7657206455203,NA
44145,Cuyahoga County,OH,NA,NA,2.3133543638275498
44146,Cuyahoga County,OH,NA,44.74123539232053,NA
44149,Cuyahoga County,OH,34.97267759562842,36.28269337785198,54.363827549947416
44216,Summit County,OH,NA,68.55870895937673,NA
44255,Portage County,OH,NA,NA,88.64353312302839
44256,Medina County,OH,NA,10.573177518085698,NA
44260,Portage County,OH,96.50273224043715,NA,NA
44266,Portage County,OH,NA,3.227601558152476,NA
44281,Medina County,OH,44.80874316939891,NA,NA
44311,Summit County,OH,40.98360655737705,NA,NA
44319,Summit County,OH,NA,NA,71.92429022082018
44321,Summit County,OH,NA,87.92431830829159,NA
44425,Trumbull County,OH,NA,88.64774624373956,NA
44432,Columbiana County,OH,NA,55.425709515859765,NA
44460,Columbiana County,OH,59.34426229508196,NA,NA
44471,Mahoning County,OH,44.59016393442623,NA,NA
44502,Mahoning County,OH,NA,95.21424596549805,NA
44511,Mahoning County,OH,NA,49.97217584863662,NA
44512,Mahoning County,OH,NA,NA,58.569926393270244
44515,Mahoning County,OH,NA,NA,13.038906414300735
44601,Stark County,OH,5.355191256830602,NA,NA
44618,Wayne County,OH,NA,NA,95.47844374342796
44646,Stark County,OH,70.38251366120218,NA,NA
44647,Stark County,OH,NA,57.7072899276572,NA
44691,Wayne County,OH,NA,NA,9.674027339642482
44706,Stark County,OH,NA,27.712854757929883,NA
44708,Stark County,OH,NA,21.09070673344463,NA
44720,Stark County,OH,NA,NA,9.989484752891693
44721,Stark County,OH,NA,79.46577629382304,NA
44811,Sandusky County,OH,NA,84.25153032832499,NA
44820,Crawford County,OH,NA,5.898720089037284,NA
44830,Seneca County,OH,13.879781420765028,NA,NA
44846,Erie County,OH,NA,93.54479688369504,NA
44870,Erie County,OH,10.819672131147541,NA,NA
44890,Huron County,OH,NA,44.184752365052866,NA
44903,Richland County,OH,NA,55.537006121313304,NA
44906,Richland County,OH,NA,30.884808013355592,51.52471083070452
45005,Warren County,OH,27.86885245901639,NA,NA
45013,Butler County,OH,NA,NA,2.8391167192429023
45014,Butler County,OH,NA,10.740122426266,NA
45030,Hamilton County,OH,NA,36.89482470784641,NA
45044,Butler County,OH,57.049180327868854,6.733444629938787,NA
45056,Butler County,OH,NA,79.57707289927657,NA
45106,Clermont County,OH,NA,71.84195882025598,NA
45121,Brown County,OH,NA,NA,88.11777076761304
45211,Hamilton County,OH,6.775956284153005,48.46967167501391,NA
45212,Hamilton County,OH,NA,79.6883695047301,NA
45213,Hamilton County,OH,NA,74.73567056204786,NA
45219,Hamilton County,OH,NA,NA,89.58990536277602
45224,Hamilton County,OH,NA,NA,35.01577287066246
45231,Hamilton County,OH,NA,NA,53.83806519453207
45233,Hamilton County,OH,NA,51.919866444073456,NA
45238,Hamilton County,OH,NA,35.00278241513634,NA
45242,Hamilton County,OH,NA,NA,31.125131440588856
45244,Hamilton County,OH,84.48087431693989,NA,NA
45245,Clermont County,OH,74.53551912568305,NA,57.3080967402734
45248,Hamilton County,OH,NA,NA,65.0893796004206
45255,Hamilton County,OH,NA,72.78797996661102,NA
45304,Darke County,OH,NA,NA,75.18401682439537
45315,Montgomery County,OH,NA,73.1775180856984,NA
45322,Montgomery County,OH,NA,32.442960489705065,NA
45323,Clark County,OH,NA,73.40011129660546,NA
45331,Darke County,OH,21.530054644808743,NA,NA
45342,Montgomery County,OH,NA,44.4629938786867,NA
45345,Montgomery County,OH,98.36065573770492,57.484696716750136,NA
45356,Miami County,OH,NA,6.176961602671119,NA
45373,Miami County,OH,NA,6.3439065108514185,NA
45385,Greene County,OH,NA,NA,6.0988433228180865
45403,Montgomery County,OH,NA,88.31385642737897,NA
45406,Montgomery County,OH,NA,27.378964941569283,NA
45415,Montgomery County,OH,NA,42.45965498052309,NA
45420,Montgomery County,OH,NA,94.99165275459099,NA
45424,Montgomery County,OH,NA,NA,26.813880126182966
45429,Montgomery County,OH,NA,64.38508625486922,NA
45431,Montgomery County,OH,86.01092896174863,78.3528102392877,NA
45503,Clark County,OH,25.3551912568306,NA,NA
45506,Clark County,OH,68.52459016393443,NA,NA
45601,Ross County,OH,NA,5.954368391764051,NA
45662,Scioto County,OH,NA,75.40345019476906,NA
45669,Lawrence County,OH,40.21857923497268,65.7762938230384,NA
45693,Adams County,OH,NA,27.879799666110184,NA
45694,Scioto County,OH,NA,12.242626599888704,NA
45742,Washington County,OH,79.56284153005464,NA,NA
45750,Washington County,OH,NA,3.33889816360601,11.461619348054679
45801,Allen County,OH,9.07103825136612,13.466889259877574,29.758149316508938
45822,Mercer County,OH,30.601092896174865,NA,NA
45830,Putnam County,OH,NA,71.84195882025598,NA
45840,Hancock County,OH,NA,40.01112966054535,NA
45844,Putnam County,OH,99.23497267759562,NA,NA
73010,McClain County,OK,NA,45.40901502504174,NA
73012,Oklahoma County,OK,39.12568306010929,NA,NA
73013,Oklahoma County,OK,NA,4.730105731775181,NA
73036,Canadian County,OK,NA,NA,48.89589905362776
73045,Oklahoma County,OK,NA,NA,55.310199789695055
73052,Garvin County,OK,NA,67.779632721202,NA
73069,Cleveland County,OK,NA,91.93099610461881,NA
73099,Canadian County,OK,NA,20.645520311630495,60.672975814931654
73106,Oklahoma County,OK,NA,54.757929883138566,NA
73120,Oklahoma County,OK,NA,17.139677239844183,NA
73130,Oklahoma County,OK,NA,NA,52.57623554153522
73159,Oklahoma County,OK,NA,16.082359488035614,NA
73160,Cleveland County,OK,NA,17.807456872565385,NA
73521,Jackson County,OK,NA,41.235392320534224,NA
73533,Stephens County,OK,NA,NA,12.618296529968454
73701,Garfield County,OK,NA,20.868113522537563,NA
73717,Woods County,OK,NA,63.38341680578742,NA
73801,Woodward County,OK,NA,79.35447968836951,NA
74008,Tulsa County,OK,NA,NA,69.08517350157729
74012,Tulsa County,OK,NA,94.60211463550363,NA
74014,Wagoner County,OK,NA,68.78130217028381,NA
74019,Rogers County,OK,37.37704918032787,NA,NA
74033,Tulsa County,OK,NA,76.29382303839732,NA
74055,Tulsa County,OK,NA,NA,57.623554153522605
74063,Tulsa County,OK,NA,54.98052309404563,NA
74070,Osage County,OK,69.39890710382514,NA,NA
74112,Tulsa County,OK,NA,50.02782415136339,NA
74114,Tulsa County,OK,NA,96.88369504730106,NA
74127,Tulsa County,OK,NA,NA,78.96950578338591
74132,Tulsa County,OK,NA,72.78797996661102,NA
74135,Tulsa County,OK,NA,70.84028937117418,NA
74136,Tulsa County,OK,NA,29.771841958820254,NA
74145,Tulsa County,OK,NA,71.61936560934892,NA
74352,Mayes County,OK,NA,NA,80.96740273396425
74403,Muskogee County,OK,NA,NA,22.292323869610936
74437,Okmulgee County,OK,NA,87.70172509738453,NA
74464,Cherokee County,OK,NA,9.905397885364495,NA
74501,Pittsburg County,OK,NA,31.385642737896497,NA
74604,Kay County,OK,NA,43.07178631051753,NA
74701,Bryan County,OK,NA,38.898163606010016,NA
74801,Pottawatomie County,OK,NA,15.414579855314415,NA
74820,Pontotoc County,OK,26.994535519125684,NA,NA
74868,Seminole County,OK,NA,NA,59.93690851735016
74960,Adair County,OK,21.639344262295083,NA,NA
97007,Washington County,OR,27.759562841530055,NA,NA
97009,Clackamas County,OR,NA,NA,97.37118822292324
97027,Clackamas County,OR,NA,97.21758486366166,NA
97060,Multnomah County,OR,NA,59.654980523094046,NA
97068,Clackamas County,OR,55.08196721311476,NA,NA
97086,Clackamas County,OR,NA,NA,95.3732912723449
97123,Washington County,OR,43.278688524590166,33.7228714524207,47.73922187171398
97124,Washington County,OR,NA,13.244296048970504,NA
97138,Clatsop County,OR,NA,NA,51.840168243953734
97209,Multnomah County,OR,NA,92.43183082915971,NA
97220,Multnomah County,OR,NA,19.30996104618809,NA
97222,Clackamas County,OR,NA,20.311630495269895,NA
97223,Washington County,OR,NA,59.54368391764051,NA
97224,Washington County,OR,NA,NA,21.240799158780234
97229,Washington County,OR,NA,23.149693934335,NA
97230,Multnomah County,OR,NA,50.361713967723986,NA
97267,Clackamas County,OR,NA,55.7039510294936,NA
97301,Marion County,OR,33.77049180327869,NA,NA
97302,Marion County,OR,34.75409836065574,NA,NA
97303,Marion County,OR,NA,59.766277128547586,NA
97305,Marion County,OR,NA,75.57039510294936,NA
97321,Linn County,OR,NA,14.746800222593212,NA
97330,Benton County,OR,NA,15.63717306622148,NA
97338,Polk County,OR,37.267759562841526,NA,NA
97351,Polk County,OR,NA,65.6093489148581,NA
97378,Yamhill County,OR,NA,NA,69.92639327024185
97381,Marion County,OR,NA,47.80189204229271,NA
97402,Lane County,OR,NA,NA,51.419558359621455
97405,Lane County,OR,NA,45.1307735114079,NA
97411,Coos County,OR,NA,75.45909849749583,NA
97439,Lane County,OR,NA,80.30050083472455,NA
97501,Jackson County,OR,NA,5.676126878130217,NA
97504,Jackson County,OR,81.9672131147541,NA,20.294426919032595
97524,Jackson County,OR,NA,41.62493043962159,NA
97540,Jackson County,OR,NA,82.86032276015581,NA
97701,Deschutes County,OR,NA,NA,28.075709779179807
97739,Deschutes County,OR,NA,52.08681135225376,NA
97754,Crook County,OR,NA,12.910406232609905,26.07781282860147
97814,Baker County,OR,NA,29.32665553700612,NA
15009,Beaver County,PA,64.04371584699453,NA,NA
15017,Allegheny County,PA,NA,NA,40.273396424815985
15025,Allegheny County,PA,NA,73.56705620478576,NA
15037,Allegheny County,PA,NA,74.90261547022816,NA
15068,Westmoreland County,PA,NA,5.286588759042849,NA
15101,Allegheny County,PA,NA,NA,66.45636172450052
15108,Allegheny County,PA,NA,NA,7.465825446898002
15143,Allegheny County,PA,NA,NA,31.545741324921135
15146,Allegheny County,PA,NA,20.03338898163606,NA
15147,Allegheny County,PA,96.61202185792351,NA,61.51419558359621
15201,Allegheny County,PA,NA,NA,59.095688748685596
15202,Allegheny County,PA,NA,NA,86.33017875920083
15205,Allegheny County,PA,NA,39.12075681691709,NA
15206,Allegheny County,PA,14.207650273224044,NA,NA
15209,Allegheny County,PA,NA,NA,43.953732912723446
15210,Allegheny County,PA,NA,57.15080690038954,NA
15214,Allegheny County,PA,NA,NA,77.07676130389063
15217,Allegheny County,PA,NA,12.186978297161936,NA
15219,Allegheny County,PA,NA,NA,31.335436382754995
15227,Allegheny County,PA,NA,12.465219810795771,NA
15235,Allegheny County,PA,NA,35.2253756260434,60.1472134595163
15238,Allegheny County,PA,NA,62.15915414579855,NA
15239,Allegheny County,PA,NA,73.3444629938787,NA
15301,Washington County,PA,NA,2.11463550361714,NA
15330,Washington County,PA,NA,90.48414023372288,NA
15332,Washington County,PA,NA,NA,63.09148264984227
15370,Greene County,PA,NA,NA,72.34490010515248
15401,Fayette County,PA,NA,NA,5.888538380651945
15522,Bedford County,PA,52.131147540983605,NA,NA
15642,Westmoreland County,PA,NA,37.89649415692821,NA
15668,Westmoreland County,PA,NA,NA,26.18296529968454
15717,Indiana County,PA,75.95628415300546,NA,NA
15825,Jefferson County,PA,NA,NA,21.871713985278653
15901,Cambria County,PA,NA,84.64106844741235,NA
15909,Cambria County,PA,NA,85.14190317195326,83.59621451104101
15946,Cambria County,PA,NA,99.22092376182526,NA
16001,Butler County,PA,15.628415300546447,24.040066777963272,48.26498422712934
16002,Butler County,PA,71.36612021857923,NA,24.185068349106203
16066,Butler County,PA,54.31693989071038,NA,NA
16101,Lawrence County,PA,NA,39.510294936004456,NA
16105,Lawrence County,PA,NA,96.21591541457985,NA
16117,Lawrence County,PA,NA,81.24652198107958,NA
16125,Mercer County,PA,95.08196721311475,NA,NA
16201,Armstrong County,PA,NA,NA,38.380651945320714
16226,Armstrong County,PA,57.92349726775956,NA,NA
16316,Crawford County,PA,72.45901639344262,NA,NA
16323,Venango County,PA,NA,NA,32.17665615141956
16335,Crawford County,PA,30.81967213114754,NA,NA
16365,Warren County,PA,NA,90.03895381190874,NA
16504,Erie County,PA,NA,NA,52.6813880126183
16505,Erie County,PA,58.797814207650276,NA,NA
16506,Erie County,PA,NA,47.96883695047301,NA
16601,Blair County,PA,6.885245901639345,NA,NA
16701,McKean County,PA,13.661202185792352,NA,NA
16828,Centre County,PA,NA,72.23149693934336,NA
16841,Centre County,PA,NA,69.17084028937117,NA
16901,Tioga County,PA,NA,55.64830272676683,NA
17013,Cumberland County,PA,NA,80.07790762381747,NA
17015,Cumberland County,PA,NA,48.63661658319421,NA
17022,Lancaster County,PA,13.114754098360656,NA,NA
17042,Lebanon County,PA,3.169398907103825,NA,NA
17051,Mifflin County,PA,NA,82.24819143016137,NA
17103,Dauphin County,PA,NA,75.29215358931552,NA
17104,Dauphin County,PA,NA,NA,75.49947423764458
17109,Dauphin County,PA,NA,NA,23.23869610935857
17110,Dauphin County,PA,NA,15.80411797440178,NA
17111,Dauphin County,PA,NA,59.26544240400668,NA
17201,Franklin County,PA,8.524590163934425,NA,NA
17241,Cumberland County,PA,NA,62.77128547579299,NA
17257,Cumberland County,PA,NA,69.2821368948247,NA
17313,York County,PA,55.84699453551912,NA,NA
17315,York County,PA,65.46448087431695,NA,NA
17319,York County,PA,NA,84.80801335559266,90.115667718191375
17325,Adams County,PA,71.91256830601093,NA,NA
17340,Adams County,PA,NA,33.16638842515303,NA
17368,York County,PA,NA,61.32442960489705,NA
17402,York County,PA,NA,NA,20.92534174553102
17403,York County,PA,13.77049180327869,NA,NA
17404,York County,PA,NA,6.900389538119088,NA
17406,York County,PA,NA,NA,12.513144058885384
17522,Lancaster County,PA,NA,6.065664997217585,NA
17543,Lancaster County,PA,19.672131147540984,NA,NA
17552,Lancaster County,PA,31.584699453551913,NA,NA
17579,Lancaster County,PA,NA,83.52810239287702,NA
17584,Lancaster County,PA,NA,79.24318308291596,NA
17601,Lancaster County,PA,NA,61.93656093489148,NA
17603,Lancaster County,PA,7.103825136612022,NA,5.573080967402734
17701,Lycoming County,PA,2.9508196721311477,2.7824151363383414,44.37434279705573
17737,Lycoming County,PA,NA,74.56872565386756,NA
17756,Lycoming County,PA,NA,49.193099610461886,NA
17820,Columbia County,PA,72.56830601092896,NA,NA
17821,Montour County,PA,NA,7.568169170840289,1.8927444794952681
17872,Northumberland County,PA,NA,54.59098497495827,NA
17901,Schuylkill County,PA,NA,NA,18.08622502628812
18018,Lehigh County,PA,NA,4.618809126321647,NA
18020,Northampton County,PA,74.86338797814209,NA,NA
18031,Lehigh County,PA,83.49726775956285,NA,NA
18042,Northampton County,PA,3.934426229508197,NA,NA
18045,Northampton County,PA,NA,8.569838619922091,NA
18062,Lehigh County,PA,NA,49.02615470228158,67.19242902208202
18064,Northampton County,PA,79.45355191256832,NA,NA
18067,Northampton County,PA,NA,18.030050083472453,NA
18088,Northampton County,PA,NA,NA,45.00525762355415
18102,Lehigh County,PA,NA,3.672787979966611,15.667718191377498
18103,Lehigh County,PA,NA,NA,31.019978969505786
18109,Lehigh County,PA,NA,NA,99.78969505783385
18201,Luzerne County,PA,15.846994535519126,NA,NA
18210,Carbon County,PA,NA,56.761268781302164,NA
18302,Monroe County,PA,42.62295081967213,NA,NA
18324,Pike County,PA,80.32786885245902,NA,NA
18326,Monroe County,PA,NA,98.21925431274346,NA
18407,Lackawanna County,PA,37.923497267759565,NA,NA
18434,Lackawanna County,PA,NA,91.93099610461881,NA
18436,Wayne County,PA,NA,71.61936560934892,78.54889589905363
18447,Lackawanna County,PA,NA,85.920979410128,NA
18512,Lackawanna County,PA,NA,NA,83.38590956887487
18612,Luzerne County,PA,NA,32.5542570951586,NA
18640,Luzerne County,PA,NA,94.10127991096272,NA
18643,Luzerne County,PA,NA,37.00612131329994,NA
18706,Luzerne County,PA,NA,NA,27.444794952681388
18840,Bradford County,PA,75.62841530054645,NA,NA
18848,Bradford County,PA,NA,69.78297161936561,NA
18901,Bucks County,PA,NA,68.61435726210351,NA
18902,Bucks County,PA,NA,NA,99.6845425867508
18938,Bucks County,PA,NA,82.58208124652198,NA
18940,Bucks County,PA,NA,NA,95.58359621451105
18954,Bucks County,PA,85.90163934426229,NA,NA
18966,Bucks County,PA,NA,NA,8.727655099894847
18974,Bucks County,PA,17.923497267759565,NA,14.511041009463725
18977,Bucks County,PA,NA,NA,71.1882229232387
19001,Montgomery County,PA,79.34426229508198,NA,NA
19002,Montgomery County,PA,NA,NA,15.352260778128285
19004,Montgomery County,PA,94.64480874316939,NA,NA
19007,Bucks County,PA,48.306010928961754,NA,98.73817034700315
19008,Delaware County,PA,41.202185792349724,NA,NA
19010,Delaware County,PA,NA,56.92821368948246,NA
19013,Delaware County,PA,NA,31.942125765164164,NA
19015,Delaware County,PA,NA,29.604897050639956,NA
19018,Delaware County,PA,22.62295081967213,NA,NA
19023,Delaware County,PA,24.043715846994534,NA,NA
19030,Bucks County,PA,83.27868852459017,NA,NA
19038,Montgomery County,PA,NA,NA,39.01156677181914
19050,Delaware County,PA,NA,NA,93.37539432176656
19053,Bucks County,PA,NA,75.01391207568169,NA
19055,Bucks County,PA,NA,78.96494156928213,NA
19057,Bucks County,PA,NA,83.52810239287702,NA
19060,Delaware County,PA,NA,61.04618809126322,NA
19063,Delaware County,PA,17.595628415300546,NA,32.70241850683491
19064,Delaware County,PA,NA,59.48803561491375,30.70452155625657
19073,Delaware County,PA,NA,89.5937673900946,69.50578338590957
19096,Montgomery County,PA,NA,25.153032832498607,73.71188222923239
19103,Philadelphia County,PA,NA,13.800779076238175,NA
19114,Philadelphia County,PA,57.81420765027322,NA,NA
19115,Philadelphia County,PA,NA,NA,9.04311251314406
19116,Philadelphia County,PA,NA,7.234279354479689,NA
19120,Philadelphia County,PA,NA,3.060656649972176,NA
19121,Philadelphia County,PA,28.196721311475407,NA,NA
19124,Philadelphia County,PA,6.33879781420765,NA,NA
19126,Philadelphia County,PA,NA,NA,46.89800210304942
19130,Philadelphia County,PA,NA,22.036727879799667,70.13669821240799
19131,Philadelphia County,PA,NA,27.879799666110184,6.624605678233439
19132,Philadelphia County,PA,49.2896174863388,NA,NA
19136,Philadelphia County,PA,NA,16.249304396215916,NA
19138,Philadelphia County,PA,NA,NA,19.768664563617243
19139,Philadelphia County,PA,2.5136612021857925,NA,NA
19140,Philadelphia County,PA,11.584699453551913,NA,NA
19143,Philadelphia County,PA,26.885245901639344,NA,7.045215562565721
19144,Philadelphia County,PA,NA,5.063995548135782,NA
19145,Philadelphia County,PA,NA,29.15971062882582,NA
19149,Philadelphia County,PA,5.683060109289618,NA,NA
19154,Philadelphia County,PA,12.240437158469945,NA,NA
19335,Chester County,PA,14.098360655737704,NA,NA
19380,Chester County,PA,NA,2.559821925431274,NA
19382,Chester County,PA,NA,42.73789649415693,NA
19403,Montgomery County,PA,NA,2.726766833611575,NA
19422,Montgomery County,PA,NA,NA,39.22187171398528
19426,Montgomery County,PA,NA,19.588202559821926,NA
19438,Montgomery County,PA,NA,36.28269337785198,NA
19440,Montgomery County,PA,NA,46.91151919866444,NA
19460,Chester County,PA,19.89071038251366,NA,NA
19464,Montgomery County,PA,89.2896174863388,NA,25.9726603575184
19526,Berks County,PA,NA,42.18141346688926,NA
19533,Berks County,PA,80,NA,NA
19540,Berks County,PA,NA,66.83361157484697,NA
19565,Berks County,PA,NA,47.35670562047857,NA
19601,Berks County,PA,NA,32.33166388425153,NA
19606,Berks County,PA,NA,NA,43.4279705573081
19607,Berks County,PA,NA,10.851419031719532,NA
19608,Berks County,PA,NA,NA,34.06940063091483
19610,Berks County,PA,NA,75.90428491930996,NA
02809,Bristol County,RI,NA,20.756816917084027,NA
02840,Newport County,RI,94.09836065573771,18.419588202559822,42.16614090431125
02860,Providence County,RI,5.46448087431694,NA,3.4700315457413247
02864,Providence County,RI,NA,NA,7.045215562565721
02878,Newport County,RI,83.60655737704919,NA,NA
02886,Kent County,RI,NA,76.0155815247635,99.47423764458465
02888,Kent County,RI,NA,NA,95.16298633017875
02889,Kent County,RI,NA,37.67390094602114,NA
02896,Providence County,RI,NA,84.02893711741793,NA
02905,Providence County,RI,33.224043715846996,NA,NA
02914,Providence County,RI,NA,83.9176405119644,NA
02915,Providence County,RI,NA,NA,56.15141955835961
02919,Providence County,RI,NA,18.753478018920422,NA
29006,Lexington County,SC,NA,89.37117417918753,NA
29059,Orangeburg County,SC,NA,90.81803005008348,NA
29069,Darlington County,SC,NA,NA,83.17560462670873
29073,Lexington County,SC,NA,68.39176405119643,NA
29118,Orangeburg County,SC,NA,54.535336672231495,NA
29123,Lexington County,SC,NA,97.66277128547578,NA
29138,Saluda County,SC,74.6448087431694,NA,NA
29150,Sumter County,SC,NA,61.15748469671674,NA
29154,Sumter County,SC,41.31147540983607,NA,NA
29302,Spartanburg County,SC,NA,NA,52.05047318611987
29334,Spartanburg County,SC,66.55737704918033,NA,NA
29341,Cherokee County,SC,NA,65.1085141903172,NA
29349,Spartanburg County,SC,NA,78.8536449638286,NA
29356,Spartanburg County,SC,NA,78.29716193656094,NA
29360,Laurens County,SC,60.983606557377044,NA,NA
29369,Spartanburg County,SC,93.11475409836065,NA,NA
29401,Charleston County,SC,NA,98.6644407345576,NA
29407,Charleston County,SC,31.475409836065577,NA,11.67192429022082
29414,Charleston County,SC,69.07103825136612,NA,NA
29440,Georgetown County,SC,36.830601092896174,NA,NA
29445,Berkeley County,SC,NA,90.0946021146355,NA
29464,Charleston County,SC,35.40983606557377,NA,NA
29466,Charleston County,SC,NA,35.44796883695047,NA
29483,Dorchester County,SC,NA,82.13689482470785,NA
29485,Dorchester County,SC,64.91803278688525,NA,NA
29486,Berkeley County,SC,81.4207650273224,NA,NA
29501,Florence County,SC,NA,52.198107957707286,28.706624605678233
29506,Florence County,SC,NA,38.50862548692265,NA
29512,Marlboro County,SC,45.57377049180328,NA,NA
29527,Horry County,SC,NA,85.36449638286032,NA
29555,Florence County,SC,NA,84.69671675013912,NA
29579,Horry County,SC,NA,65.05286588759043,NA
29582,Horry County,SC,91.2568306010929,39.00946021146355,NA
29588,Horry County,SC,30.273224043715846,NA,NA
29605,Greenville County,SC,NA,59.71062882582081,85.48895899053628
29611,Greenville County,SC,NA,NA,21.976866456361723
29624,Anderson County,SC,NA,NA,77.18191377497371
29627,Anderson County,SC,NA,66.9449081803005,NA
29642,Pickens County,SC,27.650273224043715,NA,NA
29644,Greenville County,SC,84.37158469945355,NA,NA
29657,Pickens County,SC,38.907103825136616,NA,NA
29669,Anderson County,SC,NA,42.84919309961046,NA
29671,Pickens County,SC,NA,81.80300500834724,NA
29673,Greenville County,SC,NA,83.86199220923763,NA
29676,Oconee County,SC,NA,91.43016138007792,NA
29697,Anderson County,SC,60.54644808743169,NA,NA
29707,Lancaster County,SC,NA,74.5130773511408,17.560462670872763
29720,Lancaster County,SC,11.366120218579235,NA,NA
29730,York County,SC,15.737704918032788,NA,65.72029442691904
29732,York County,SC,67.54098360655738,14.24596549805231,NA
29810,Allendale County,SC,87.21311475409837,NA,NA
29907,Beaufort County,SC,NA,NA,81.59831756046268
29910,Beaufort County,SC,NA,94.37952142459655,62.25026288117771
57005,Minnehaha County,SD,NA,NA,47.94952681388013
57006,Brookings County,SD,75.30054644808743,NA,NA
57103,Minnehaha County,SD,NA,1.279910962715637,NA
57104,Minnehaha County,SD,NA,21.146355036171396,NA
57106,Minnehaha County,SD,NA,3.1719532554257093,NA
57108,Lincoln County,SD,NA,66.16583194212576,NA
57110,Minnehaha County,SD,NA,61.26878130217028,NA
57201,Codington County,SD,NA,NA,33.753943217665615
57401,Brown County,SD,14.426229508196723,NA,NA
57701,Pennington County,SD,74.09836065573771,NA,NA
57702,Pennington County,SD,NA,NA,30.5993690851735
57785,Meade County,SD,NA,75.23650528658877,NA
37015,Cheatham County,TN,50.27322404371585,NA,NA
37042,Montgomery County,TN,46.775956284153004,55.14746800222593,NA
37043,Montgomery County,TN,NA,NA,82.22923238696109
37072,Davidson County,TN,NA,16.193656093489146,NA
37073,Robertson County,TN,NA,54.42404006677797,NA
37076,Davidson County,TN,NA,49.58263772954925,NA
37087,Wilson County,TN,NA,NA,22.60778128286015
37129,Rutherford County,TN,94.20765027322405,NA,NA
37160,Bedford County,TN,NA,NA,28.811777076761302
37174,Williamson County,TN,38.79781420765027,NA,NA
37179,Williamson County,TN,76.0655737704918,NA,NA
37207,Davidson County,TN,32.89617486338798,48.080133555926544,45.95162986330178
37209,Davidson County,TN,26.44808743169399,NA,NA
37211,Davidson County,TN,16.065573770491802,NA,NA
37215,Davidson County,TN,NA,46.18809126321647,NA
37311,Bradley County,TN,NA,51.97551474680022,NA
37331,McMinn County,TN,64.69945355191257,NA,NA
37336,Bradley County,TN,99.89071038251366,NA,NA
37343,Hamilton County,TN,NA,12.799109627156371,NA
37354,Monroe County,TN,NA,28.71452420701169,NA
37367,Bledsoe County,TN,NA,NA,55.730809674027334
37381,Rhea County,TN,NA,72.78797996661102,NA
37385,Monroe County,TN,89.72677595628416,81.02392877017252,NA
37388,Coffee County,TN,NA,NA,39.852786540483706
37411,Hamilton County,TN,NA,43.683917640511964,49.52681388012618
37415,Hamilton County,TN,NA,NA,48.79074658254469
37421,Hamilton County,TN,NA,17.91875347801892,NA
37601,Washington County,TN,NA,NA,20.39957939011567
37643,Carter County,TN,9.94535519125683,23.76182526432944,NA
37659,Washington County,TN,NA,NA,18.71713985278654
37664,Sullivan County,TN,17.158469945355193,NA,NA
37692,Unicoi County,TN,NA,99.27657206455203,NA
37708,Grainger County,TN,NA,NA,86.54048370136698
37725,Jefferson County,TN,NA,NA,58.99053627760252
37742,Loudon County,TN,NA,59.20979410127991,NA
37745,Greene County,TN,NA,NA,96.63512092534174
37764,Sevier County,TN,NA,NA,58.569926393270244
37772,Loudon County,TN,83.16939890710383,NA,NA
37801,Blount County,TN,11.693989071038251,NA,NA
37804,Blount County,TN,51.147540983606554,NA,22.81808622502629
37813,Hamblen County,TN,22.950819672131146,NA,NA
37821,Cocke County,TN,NA,47.91318864774624,NA
37841,Scott County,TN,NA,65.33110740122426,NA
37857,Hawkins County,TN,NA,NA,29.44269190325973
37869,Hancock County,TN,NA,NA,90.95688748685595
37890,Jefferson County,TN,NA,63.66165831942126,NA
37914,Knox County,TN,30.491803278688522,NA,NA
37917,Knox County,TN,NA,13.18864774624374,NA
37918,Knox County,TN,NA,57.5403450194769,NA
37922,Knox County,TN,45.68306010928962,NA,NA
37923,Knox County,TN,NA,26.04340567612688,NA
37938,Knox County,TN,60.21857923497268,NA,NA
38002,Shelby County,TN,NA,49.52698942682248,NA
38008,Hardeman County,TN,87.54098360655738,NA,61.72450052576236
38016,Shelby County,TN,NA,32.27601558152477,NA
38017,Shelby County,TN,NA,NA,35.54153522607781
38018,Shelby County,TN,NA,57.039510294936,NA
38024,Dyer County,TN,NA,22.3149693934335,NA
38063,Lauderdale County,TN,NA,NA,56.36172450052577
38106,Shelby County,TN,NA,26.26599888703395,NA
38108,Shelby County,TN,NA,NA,86.1198738170347
38109,Shelby County,TN,NA,35.16972732331664,NA
38112,Shelby County,TN,NA,77.74067890929327,NA
38114,Shelby County,TN,18.579234972677597,NA,45.00525762355415
38115,Shelby County,TN,NA,80.13355592654425,NA
38120,Shelby County,TN,NA,81.63606010016694,NA
38201,Carroll County,TN,84.04371584699454,NA,NA
38242,Henry County,TN,NA,24.485253199777407,NA
38261,Obion County,TN,NA,51.697273233166385,NA
38301,Madison County,TN,NA,36.22704507512521,NA
38343,Gibson County,TN,NA,NA,60.042060988433235
38464,Lawrence County,TN,NA,62.93823038397329,NA
38501,Putnam County,TN,NA,9.515859766277128,NA
38555,Cumberland County,TN,NA,56.037840845854205,NA
38571,Cumberland County,TN,NA,28.380634390651082,NA
75006,Dallas County,TX,NA,46.9671675013912,NA
75019,Dallas County,TX,NA,37.61825264329438,NA
75020,Grayson County,TX,NA,NA,63.30178759200841
75028,Denton County,TX,94.97267759562843,NA,NA
75032,Rockwall County,TX,NA,33.611574846967166,NA
75034,Denton County,TX,31.038251366120218,NA,NA
75041,Dallas County,TX,NA,52.14245965498052,NA
75043,Dallas County,TX,16.174863387978142,9.571508069003896,NA
75044,Dallas County,TX,NA,18.030050083472453,NA
75056,Denton County,TX,NA,NA,76.34069400630915
75060,Dallas County,TX,33.66120218579235,NA,NA
75070,Collin County,TX,NA,27.490261547022815,58.149316508937964
75074,Collin County,TX,NA,NA,48.580441640378545
75080,Dallas County,TX,NA,58.04117974401781,NA
75093,Collin County,TX,NA,20.534223706176963,NA
75094,Collin County,TX,NA,NA,98.00210304942166
75110,Navarro County,TX,NA,88.59209794101281,NA
75119,Ellis County,TX,44.37158469945356,NA,NA
75126,Kaufman County,TX,26.010928961748636,NA,NA
75149,Dallas County,TX,NA,18.530884808013358,NA
75150,Dallas County,TX,19.01639344262295,36.11574846967168,NA
75156,Henderson County,TX,NA,NA,49.8422712933754
75204,Dallas County,TX,NA,50.75125208681135,NA
75211,Dallas County,TX,15.519125683060109,41.84752365052866,NA
75219,Dallas County,TX,NA,69.05954368391764,32.597266035751844
75224,Dallas County,TX,36.939890710382514,NA,NA
75225,Dallas County,TX,NA,39.45464663327768,25.65720294426919
75229,Dallas County,TX,NA,NA,70.13669821240799
75230,Dallas County,TX,NA,31.27434613244296,NA
75236,Dallas County,TX,51.584699453551906,NA,NA
75244,Dallas County,TX,NA,NA,72.76550998948476
75252,Collin County,TX,NA,NA,39.95793901156677
75253,Dallas County,TX,53.66120218579235,NA,NA
75401,Hunt County,TX,NA,NA,60.98843322818086
75418,Fannin County,TX,NA,52.86588759042849,NA
75455,Titus County,TX,42.950819672131146,74.17918753478018,NA
75561,Bowie County,TX,NA,NA,80.4416403785489
75644,Upshur County,TX,NA,69.33778519755147,62.25026288117771
75662,Gregg County,TX,NA,51.53032832498609,NA
75684,Rusk County,TX,NA,NA,96.1093585699264
75702,Smith County,TX,NA,NA,23.76445846477392
75703,Smith County,TX,NA,1.613800779076238,1.1566771819137749
75709,Smith County,TX,NA,64.66332776850307,NA
75766,Cherokee County,TX,28.852459016393446,NA,NA
75771,Smith County,TX,NA,18.58653311074012,10.830704521556257
75783,Wood County,TX,NA,72.73233166388425,NA
75791,Smith County,TX,NA,57.81858653311074,NA
75835,Houston County,TX,NA,59.04284919309961,NA
75951,Jasper County,TX,NA,72.17584863661658,NA
75961,Nacogdoches County,TX,56.0655737704918,NA,NA
76002,Tarrant County,TX,46.994535519125684,NA,NA
76011,Tarrant County,TX,NA,42.29271007234279,NA
76012,Tarrant County,TX,NA,NA,35.75184016824395
76013,Tarrant County,TX,NA,68.05787423483584,NA
76015,Tarrant County,TX,NA,53.53366722314969,NA
76016,Tarrant County,TX,NA,14.023372287145241,NA
76018,Tarrant County,TX,47.650273224043715,NA,NA
76020,Tarrant County,TX,51.47540983606558,NA,NA
76021,Tarrant County,TX,NA,25.70951585976628,24.81598317560463
76028,Johnson County,TX,NA,NA,9.35856992639327
76033,Johnson County,TX,NA,24.318308291597106,NA
76048,Hood County,TX,NA,50.139120756816915,NA
76054,Tarrant County,TX,NA,58.04117974401781,NA
76082,Parker County,TX,NA,85.53144129104062,NA
76088,Parker County,TX,68.1967213114754,NA,NA
76092,Tarrant County,TX,NA,69.00389538119087,NA
76105,Tarrant County,TX,NA,14.301613800779075,NA
76119,Tarrant County,TX,6.0109289617486334,41.79187534780189,NA
76120,Tarrant County,TX,NA,65.55370061213132,NA
76123,Tarrant County,TX,NA,NA,70.347003154574125
76126,Tarrant County,TX,NA,54.09015025041736,NA
76133,Tarrant County,TX,NA,NA,48.0546792849632
76179,Tarrant County,TX,NA,NA,47.423764458464774
76208,Denton County,TX,NA,32.66555370061213,NA
76302,Wichita County,TX,NA,91.0962715637173,NA
76310,Wichita County,TX,59.89071038251366,NA,NA
76354,Wichita County,TX,NA,66.83361157484697,NA
76384,Wilbarger County,TX,64.80874316939891,NA,NA
76446,Erath County,TX,NA,79.96661101836395,NA
76450,Young County,TX,NA,75.06956037840847,NA
76501,Bell County,TX,NA,20.70116861435726,NA
76504,Bell County,TX,NA,NA,2.4185068349106205
76520,Milam County,TX,NA,NA,83.07045215562566
76550,Lampasas County,TX,NA,NA,43.4279705573081
76712,McLennan County,TX,NA,NA,4.52155625657203
76801,Brown County,TX,43.71584699453552,30.71786310517529,45.2155625657203
76834,Coleman County,TX,NA,69.56037840845855,NA
77004,Harris County,TX,NA,96.99499165275459,NA
77008,Harris County,TX,NA,53.867557039510295,NA
77013,Harris County,TX,NA,97.16193656093489,NA
77018,Harris County,TX,NA,59.04284919309961,NA
77020,Harris County,TX,NA,37.340011129660546,NA
77021,Harris County,TX,95.62841530054644,NA,NA
77025,Harris County,TX,NA,NA,51.9453207150368
77031,Harris County,TX,95.30054644808743,NA,78.33859095688749
77040,Harris County,TX,NA,72.39844184752366,NA
77042,Harris County,TX,NA,75.12520868113522,NA
77043,Harris County,TX,NA,81.35781858653311,NA
77049,Harris County,TX,54.53551912568307,NA,NA
77054,Harris County,TX,82.62295081967214,NA,NA
77063,Harris County,TX,98.46994535519126,NA,NA
77065,Harris County,TX,NA,NA,30.28391167192429
77070,Harris County,TX,NA,NA,27.024185068349105
77076,Harris County,TX,NA,49.193099610461886,NA
77077,Harris County,TX,NA,79.79966611018364,NA
77080,Harris County,TX,NA,NA,73.08096740273396
77081,Harris County,TX,55.51912568306011,NA,NA
77084,Harris County,TX,9.617486338797814,87.70172509738453,NA
77087,Harris County,TX,46.12021857923497,NA,92.32386961093586
77089,Harris County,TX,NA,95.43683917640512,NA
77092,Harris County,TX,NA,NA,65.40483701366982
77093,Harris County,TX,NA,NA,44.269190325972666
77095,Harris County,TX,NA,30.43962159154146,NA
77096,Harris County,TX,49.071038251366126,NA,NA
77304,Montgomery County,TX,NA,64.32943795214246,NA
77316,Montgomery County,TX,NA,86.53311074012242,NA
77320,Walker County,TX,78.5792349726776,NA,NA
77336,Harris County,TX,NA,56.42737896494157,NA
77340,Walker County,TX,NA,65.99888703394546,53.20715036803365
77355,Montgomery County,TX,NA,32.10907067334446,NA
77357,Montgomery County,TX,98.0327868852459,NA,NA
77373,Harris County,TX,NA,16.471897607122983,NA
77375,Harris County,TX,NA,23.03839732888147,NA
77388,Harris County,TX,NA,51.75292153589316,NA
77429,Harris County,TX,NA,1.669449081803005,NA
77447,Harris County,TX,NA,70.6176961602671,NA
77449,Harris County,TX,NA,15.191986644407345,NA
77471,Fort Bend County,TX,NA,85.30884808013356,NA
77478,Fort Bend County,TX,NA,74.73567056204786,NA
77479,Fort Bend County,TX,NA,10.18363939899833,NA
77504,Harris County,TX,NA,NA,63.932702418506835
77510,Galveston County,TX,52.349726775956285,NA,NA
77518,Galveston County,TX,NA,76.850306065665,NA
77520,Harris County,TX,63.387978142076506,41.01279910962716,NA
77539,Galveston County,TX,NA,NA,55.62565720294427
77541,Brazoria County,TX,NA,39.39899833055092,NA
77551,Galveston County,TX,NA,16.249304396215916,NA
77562,Harris County,TX,NA,NA,71.1882229232387
77568,Galveston County,TX,NA,17.084028937117417,NA
77581,Brazoria County,TX,24.371584699453553,NA,NA
77627,Jefferson County,TX,NA,NA,43.007360672975814
77630,Orange County,TX,61.63934426229508,81.07957707289928,NA
77662,Orange County,TX,NA,NA,44.05888538380652
77706,Jefferson County,TX,NA,21.647189760712298,NA
77802,Brazos County,TX,NA,56.31608235948804,NA
77803,Brazos County,TX,49.61748633879781,NA,25.02628811777077
77807,Brazos County,TX,NA,84.14023372287144,NA
77833,Washington County,TX,NA,46.57762938230384,87.90746582544689
77836,Burleson County,TX,NA,34.33500278241514,NA
77845,Brazos County,TX,7.650273224043716,NA,1.3669821240799158
77864,Madison County,TX,NA,72.78797996661102,63.82754994742377
77868,Grimes County,TX,NA,NA,47.423764458464774
77879,Burleson County,TX,NA,NA,93.16508937960042
77904,Victoria County,TX,NA,22.537562604340565,NA
77995,Lavaca County,TX,NA,96.04897050639956,NA
78013,Kendall County,TX,NA,95.99332220367279,NA
78026,Atascosa County,TX,NA,87.590428491931,NA
78040,Webb County,TX,NA,NA,12.828601472134595
78059,Medina County,TX,NA,86.64440734557596,NA
78101,Bexar County,TX,NA,75.6816917084029,NA
78108,Guadalupe County,TX,NA,78.519755147468,NA
78155,Guadalupe County,TX,NA,48.580968280467445,NA
78201,Bexar County,TX,NA,NA,82.64984227129337
78202,Bexar County,TX,94.31693989071039,NA,NA
78210,Bexar County,TX,20.327868852459016,NA,NA
78218,Bexar County,TX,NA,NA,64.98422712933754
78223,Bexar County,TX,74.20765027322405,NA,NA
78229,Bexar County,TX,68.4153005464481,NA,NA
78233,Bexar County,TX,NA,38.61992209237618,NA
78258,Bexar County,TX,NA,50.75125208681135,NA
78260,Bexar County,TX,70.7103825136612,NA,NA
78380,Nueces County,TX,NA,49.860879243183085,NA
78405,Nueces County,TX,NA,67.6126878130217,NA
78413,Nueces County,TX,NA,78.24151363383417,NA
78415,Nueces County,TX,NA,98.55314412910407,NA
78418,Nueces County,TX,NA,59.154145798553145,NA
78503,Hidalgo County,TX,77.4863387978142,NA,NA
78521,Cameron County,TX,68.52459016393443,NA,NA
78538,Hidalgo County,TX,NA,80.46744574290484,NA
78542,Hidalgo County,TX,NA,17.473567056204786,NA
78566,Cameron County,TX,NA,95.82637729549248,NA
78575,Cameron County,TX,NA,NA,94.53207150368034
78576,Hidalgo County,TX,88.19672131147541,NA,NA
78584,Starr County,TX,55.95628415300546,NA,NA
78589,Hidalgo County,TX,NA,22.871452420701168,NA
78602,Bastrop County,TX,NA,46.410684474123535,NA
78616,Caldwell County,TX,NA,97.44017807456873,NA
78640,Hays County,TX,NA,79.02058987200891,NA
78645,Travis County,TX,NA,NA,87.48685594111461
78666,Hays County,TX,NA,53.08848080133556,NA
78704,Travis County,TX,NA,60.990539788536445,NA
78717,Williamson County,TX,NA,91.37451307735114,NA
78723,Travis County,TX,NA,77.62938230383973,NA
78734,Travis County,TX,NA,51.140790205898725,NA
78840,Val Verde County,TX,NA,NA,31.650893796004205
78861,Medina County,TX,NA,NA,67.08727655099895
78942,Lee County,TX,85.3551912568306,NA,NA
78945,Fayette County,TX,NA,62.493043962159156,60.77812828601472
79106,Potter County,TX,NA,24.707846410684475,NA
79121,Randall County,TX,NA,NA,79.17981072555204
79331,Dawson County,TX,NA,NA,47.84437434279706
79336,Hockley County,TX,NA,45.68725653867557,53.94321766561514
79363,Lubbock County,TX,96.72131147540983,NA,NA
79407,Lubbock County,TX,38.68852459016394,NA,NA
79413,Lubbock County,TX,56.50273224043716,NA,NA
79415,Lubbock County,TX,NA,89.20422927100724,NA
79416,Lubbock County,TX,NA,40.12242626599889,NA
79424,Lubbock County,TX,NA,62.88258208124652,NA
79603,Taylor County,TX,NA,51.47468002225932,NA
79605,Taylor County,TX,NA,55.2031163049527,NA
79707,Midland County,TX,NA,58.43071786310517,NA
79735,Pecos County,TX,58.251366120218584,NA,NA
79761,Ector County,TX,NA,40.28937117417919,NA
79835,El Paso County,TX,NA,NA,98.52786540483702
79902,El Paso County,TX,NA,63.272120200333895,NA
79904,El Paso County,TX,NA,67.4457429048414,NA
79905,El Paso County,TX,NA,NA,42.37644584647739
79907,El Paso County,TX,NA,11.240957150806901,78.44374342797056
79912,El Paso County,TX,NA,NA,17.034700315457414
79915,El Paso County,TX,NA,NA,10.620399579390117
79928,El Paso County,TX,NA,96.38286032276015,NA
84020,Salt Lake County,UT,NA,46.85587089593767,NA
84041,Davis County,UT,NA,NA,82.12407991587803
84050,Morgan County,UT,NA,98.72008903728437,NA
84054,Davis County,UT,NA,56.705620478575405,NA
84074,Tooele County,UT,NA,NA,89.27444794952682
84075,Davis County,UT,NA,86.03227601558152,NA
84081,Salt Lake County,UT,NA,40.95715080690039,NA
84094,Salt Lake County,UT,NA,88.9259877573734,NA
84095,Salt Lake County,UT,NA,47.07846410684474,NA
84103,Salt Lake County,UT,93.44262295081968,NA,NA
84120,Salt Lake County,UT,NA,56.48302726766834,NA
84121,Salt Lake County,UT,33.33333333333333,NA,NA
84128,Salt Lake County,UT,NA,50.58430717863105,NA
84129,,UT,NA,47.80189204229271,NA
84403,Weber County,UT,NA,NA,46.79284963196635
84414,Weber County,UT,62.51366120218579,NA,NA
84601,Utah County,UT,78.36065573770492,NA,NA
84651,Utah County,UT,NA,60.65664997217585,NA
84664,Utah County,UT,NA,NA,94.3217665615142
05452,Chittenden County,VT,NA,NA,33.33333333333333
05468,Chittenden County,VT,90.92896174863388,NA,NA
05482,Chittenden County,VT,NA,66.66666666666666,97.79179810725552
05488,Franklin County,VT,NA,67.2787979966611,NA
05489,Chittenden County,VT,NA,98.88703394546467,NA
05495,Chittenden County,VT,NA,71.22982749026154,NA
05641,Washington County,VT,NA,47.57929883138564,NA
05733,Rutland County,VT,86.55737704918033,NA,NA
05851,Caledonia County,VT,97.81420765027322,NA,NA
20109,Prince William County,VA,NA,68.9482470784641,NA
20151,Fairfax County,VA,77.26775956284153,NA,NA
20152,Loudoun County,VA,NA,NA,86.43533123028391
20169,Prince William County,VA,68.1967213114754,NA,NA
20170,Fairfax County,VA,NA,30.60656649972176,NA
22032,Fairfax County,VA,NA,58.31942125765164,98.31756046267087
22042,Fairfax County,VA,41.53005464480874,59.432387312186975,NA
22182,Fairfax County,VA,93.66120218579235,NA,NA
22191,Prince William County,VA,NA,83.30550918196995,45.320715036803364
22202,Arlington County,VA,88.85245901639345,NA,NA
22205,Arlington County,VA,NA,92.54312743461325,NA
22309,Fairfax County,VA,NA,36.00445186421814,49.31650893796004
22407,Spotsylvania County,VA,14.6448087431694,NA,NA
22443,Westmoreland County,VA,NA,68.67000556483028,NA
22503,Lancaster County,VA,NA,NA,93.05993690851734
22554,Stafford County,VA,52.459016393442624,NA,NA
22630,Warren County,VA,NA,51.58597662771286,NA
22644,Shenandoah County,VA,100,NA,NA
22701,Culpeper County,VA,NA,9.738452977184195,NA
22727,Madison County,VA,97.26775956284153,NA,NA
22851,Page County,VA,NA,NA,96.00420609884333
22942,Louisa County,VA,NA,53.47801892042293,NA
22963,Fluvanna County,VA,NA,NA,66.35120925341745
22980,Waynesboro city,VA,NA,1.3912075681691707,87.1713985278654
23061,Gloucester County,VA,84.15300546448088,NA,NA
23103,Goochland County,VA,NA,NA,97.89695057833859
23111,Hanover County,VA,NA,NA,13.985278654048368
23114,Chesterfield County,VA,77.37704918032787,NA,NA
23185,James City County,VA,NA,1.2242626599888704,NA
23192,Hanover County,VA,NA,93.26655537006121,NA
23231,Henrico County,VA,46.33879781420765,NA,NA
23320,Chesapeake city,VA,NA,62.04785754034502,6.729758149316509
23321,Chesapeake city,VA,NA,49.471341124095716,NA
23322,Chesapeake city,VA,NA,13.578185865331108,NA
23350,Northampton County,VA,NA,88.53644963828603,NA
23434,Suffolk city,VA,12.349726775956285,45.24207011686144,83.80651945320714
23435,Suffolk city,VA,NA,NA,40.79915878023134
23452,Virginia Beach city,VA,NA,NA,28.391167192429023
23455,Virginia Beach city,VA,NA,43.7952142459655,NA
23508,Norfolk city,VA,NA,NA,91.7981072555205
23513,Norfolk city,VA,14.972677595628415,20.144685587089594,15.247108307045215
23602,Newport News city,VA,NA,70.95158597662771,NA
23661,Hampton city,VA,NA,NA,64.7739221871714
23663,Hampton city,VA,63.934426229508205,NA,NA
23666,Hampton city,VA,NA,NA,47.3186119873817
23701,Portsmouth city,VA,NA,42.960489705064,NA
23805,Petersburg city,VA,NA,44.1291040623261,NA
23847,Greensville County,VA,60.43715846994535,NA,69.29547844374343
24017,Roanoke city,VA,NA,70.78464106844741,NA
24018,Roanoke County,VA,NA,19.643850862548693,NA
24091,Floyd County,VA,NA,90.48414023372288,NA
24101,Franklin County,VA,NA,NA,80.54679284963197
24151,Franklin County,VA,NA,35.058430717863104,NA
24179,Roanoke County,VA,NA,NA,37.53943217665615
24201,Bristol city,VA,35.84699453551913,NA,NA
24210,Washington County,VA,NA,NA,33.33333333333333
24224,Russell County,VA,NA,65.21981079577073,NA
24236,Washington County,VA,91.69398907103825,NA,NA
24401,Staunton city,VA,8.852459016393443,21.758486366165833,NA
24441,Rockingham County,VA,NA,77.6850306065665,NA
24502,Lynchburg city,VA,NA,81.13522537562604,NA
24520,Halifax County,VA,NA,99.8330550918197,NA
24551,Bedford County,VA,NA,NA,43.11251314405888
24572,Amherst County,VA,NA,90.4284919309961,NA
24586,Pittsylvania County,VA,NA,87.53478018920423,NA
24605,Tazewell County,VA,68.96174863387978,NA,NA
24609,Tazewell County,VA,49.50819672131148,NA,NA
98001,King County,WA,NA,25.31997774067891,NA
98004,King County,WA,NA,NA,27.655099894847528
98008,King County,WA,NA,98.94268224819143,NA
98021,Snohomish County,WA,NA,73.95659432387312,39.11671924290221
98023,King County,WA,21.092896174863387,NA,NA
98042,King County,WA,NA,6.010016694490818,NA
98052,King County,WA,NA,11.7417918753478,NA
98055,King County,WA,NA,NA,94.11146161934806
98058,King County,WA,26.33879781420765,NA,NA
98074,King County,WA,NA,83.80634390651085,NA
98105,King County,WA,NA,NA,43.11251314405888
98112,King County,WA,46.01092896174863,NA,NA
98116,King County,WA,NA,47.022815804117975,NA
98118,King County,WA,NA,NA,24.185068349106203
98125,King County,WA,78.25136612021858,NA,NA
98146,King County,WA,49.94535519125683,NA,NA
98168,King County,WA,27.431693989071036,NA,NA
98177,King County,WA,NA,NA,44.900105152471085
98239,Island County,WA,NA,44.629938786867,NA
98258,Snohomish County,WA,19.23497267759563,NA,NA
98271,Snohomish County,WA,NA,35.39232053422371,NA
98272,Snohomish County,WA,NA,28.10239287701725,NA
98312,Kitsap County,WA,NA,NA,61.9348054679285
98338,Pierce County,WA,65.57377049180327,NA,NA
98354,Pierce County,WA,80.65573770491802,NA,NA
98362,Clallam County,WA,NA,4.173622704507513,NA
98363,Clallam County,WA,57.92349726775956,NA,NA
98366,Kitsap County,WA,98.68852459016394,NA,NA
98368,Jefferson County,WA,NA,NA,88.43322818086226
98373,Pierce County,WA,57.595628415300546,NA,NA
98374,Pierce County,WA,34.53551912568306,26.822481914301616,NA
98387,Pierce County,WA,NA,13.52253756260434,NA
98407,Pierce County,WA,NA,31.329994435169727,NA
98422,Pierce County,WA,NA,71.73066221480244,NA
98498,Pierce County,WA,45.79234972677595,NA,NA
98501,Thurston County,WA,NA,77.0172509738453,NA
98502,Thurston County,WA,NA,48.91485809682805,NA
98503,Thurston County,WA,NA,34.83583750695603,NA
98516,Thurston County,WA,NA,54.09015025041736,NA
98520,Grays Harbor County,WA,NA,30.996104618809127,NA
98563,Grays Harbor County,WA,NA,67.22314969393433,NA
98620,Klickitat County,WA,NA,49.58263772954925,NA
98626,Cowlitz County,WA,NA,NA,68.24395373291271
98629,Clark County,WA,NA,NA,86.22502628811776
98664,Clark County,WA,NA,50.473010573177525,NA
98665,Clark County,WA,NA,86.97829716193655,NA
98826,Chelan County,WA,NA,NA,71.60883280757098
98837,Grant County,WA,NA,NA,14.931650893796004
97003,NA,NA,43.9344262295082,NA,NA
98841,Okanogan County,WA,NA,52.03116304952699,73.50157728706624
98908,Yakima County,WA,NA,6.566499721758487,NA
98936,Yakima County,WA,NA,94.26822481914301,NA
99156,Pend Oreille County,WA,NA,NA,81.17770767613038
99163,Whitman County,WA,NA,77.18419588202559,NA
99205,Spokane County,WA,NA,NA,36.38275499474238
99207,Spokane County,WA,NA,NA,50.1577287066246
99208,Spokane County,WA,NA,17.195325542570952,NA
99218,Spokane County,WA,81.20218579234972,NA,NA
99301,Franklin County,WA,NA,3.5058430717863103,7.886435331230284
99337,Benton County,WA,NA,3.8953811908736786,NA
99352,Benton County,WA,NA,NA,69.61093585699264
20002,District of Columbia,DC,3.825136612021858,NA,NA
20009,District of Columbia,DC,NA,30.38397328881469,NA
20010,District of Columbia,DC,43.169398907103826,NA,NA
20012,District of Columbia,DC,NA,66.72231496939344,NA
20017,District of Columbia,DC,43.387978142076506,NA,NA
20019,District of Columbia,DC,NA,2.003338898163606,NA
20020,District of Columbia,DC,NA,NA,50.8937960042061
24701,Mercer County,WV,NA,NA,22.71293375394322
24901,Greenbrier County,WV,NA,49.41569282136895,NA
25177,Kanawha County,WV,NA,51.36338341680579,NA
25313,Kanawha County,WV,NA,35.33667223149694,53.52260778128286
25314,Kanawha County,WV,NA,60.87924318308292,NA
25508,Logan County,WV,62.95081967213115,73.62270450751252,NA
25510,Cabell County,WV,86.99453551912568,NA,NA
25801,Raleigh County,WV,NA,4.952698942682248,NA
25901,Fayette County,WV,NA,NA,92.95478443743428
26003,Ohio County,WV,NA,9.961046188091263,1.4721345951629863
26062,Hancock County,WV,NA,88.4251530328325,NA
26070,Brooke County,WV,NA,97.9966611018364,NA
26101,Wood County,WV,NA,20.089037284362828,NA
26187,Wood County,WV,57.267759562841526,NA,NA
26201,Upshur County,WV,NA,9.126321647189762,NA
26241,Randolph County,WV,NA,NA,23.65930599369085
26330,Harrison County,WV,NA,NA,24.710830704521555
26505,Monongalia County,WV,7.431693989071038,3.7840845854201444,NA
26508,Monongalia County,WV,NA,2.225932109070673,12.092534174553101
53010,Fond du Lac County,WI,NA,95.32554257095158,NA
53012,Ozaukee County,WI,69.72677595628414,NA,NA
53014,Calumet County,WI,NA,47.07846410684474,NA
53022,Washington County,WI,NA,NA,71.81913774973711
53045,Waukesha County,WI,NA,NA,46.47739221871714
53080,Ozaukee County,WI,NA,NA,98.84332281808622
53081,Sheboygan County,WI,54.86338797814207,NA,NA
53086,Washington County,WI,NA,79.18753478018921,NA
53095,Washington County,WI,41.857923497267755,NA,19.663512092534173
53110,Milwaukee County,WI,NA,NA,96.95057833859096
53129,Milwaukee County,WI,NA,NA,40.904311251314404
53132,Milwaukee County,WI,NA,12.353923205342237,NA
53142,Kenosha County,WI,NA,40.40066777963272,NA
53143,Kenosha County,WI,14.972677595628415,17.807456872565385,NA
53144,Kenosha County,WI,12.786885245901638,82.52643294379521,NA
53147,Walworth County,WI,35.95628415300546,NA,NA
53150,Waukesha County,WI,76.28415300546449,NA,NA
53151,Waukesha County,WI,NA,10.962715637173066,11.251314405888538
53154,Milwaukee County,WI,NA,28.046744574290482,NA
53186,Waukesha County,WI,22.73224043715847,22.092376182526433,NA
53188,Waukesha County,WI,62.076502732240435,NA,NA
53189,Waukesha County,WI,45.90163934426229,NA,NA
53190,Walworth County,WI,NA,NA,48.47528916929548
53205,Milwaukee County,WI,NA,NA,87.06624605678233
53206,Milwaukee County,WI,7.540983606557377,5.342237061769616,NA
53211,Milwaukee County,WI,NA,NA,7.360672975814932
53214,Milwaukee County,WI,NA,NA,18.19137749737119
53215,Milwaukee County,WI,33.005464480874316,NA,NA
53221,Milwaukee County,WI,NA,NA,53.31230283911672
53222,Milwaukee County,WI,NA,NA,45.63617245005258
53235,Milwaukee County,WI,NA,63.049526989426816,NA
53402,Racine County,WI,21.420765027322407,NA,0.6309148264984227
53405,Racine County,WI,NA,14.802448525319978,NA
53406,Racine County,WI,NA,23.706176961602672,NA
53511,Rock County,WI,14.863387978142075,NA,NA
53530,Lafayette County,WI,90.05464480874316,NA,NA
53533,Iowa County,WI,NA,99.6661101836394,NA
53545,Rock County,WI,NA,NA,12.197686645636173
53546,Rock County,WI,NA,60.489705063995544,NA
53581,Richland County,WI,NA,NA,88.53838065194533
53711,Dane County,WI,NA,34.613244296048975,NA
53713,Dane County,WI,69.07103825136612,NA,NA
53717,Dane County,WI,NA,NA,38.590956887486854
53934,Adams County,WI,78.14207650273224,NA,NA
54016,St. Croix County,WI,NA,31.49693934335003,NA
54017,St. Croix County,WI,93.98907103825137,NA,NA
54020,Polk County,WI,64.15300546448087,NA,NA
54024,Polk County,WI,97.04918032786885,NA,NA
54115,Brown County,WI,NA,20.25598219254313,17.350157728706623
54143,Marinette County,WI,39.56284153005464,NA,NA
54166,Shawano County,WI,NA,34.501947690595436,NA
54311,Brown County,WI,NA,16.52754590984975,NA
54403,Marathon County,WI,NA,19.254312743461323,NA
54481,Portage County,WI,42.295081967213115,NA,NA
54495,Wood County,WI,NA,90.20589872008904,NA
54601,La Crosse County,WI,NA,0.667779632721202,84.6477392218717
54636,La Crosse County,WI,NA,34.44629938786867,NA
54725,Dunn County,WI,94.42622950819673,NA,NA
54729,Chippewa County,WI,NA,12.13132999443517,NA
54843,Sawyer County,WI,NA,89.81636060100166,NA
54913,Outagamie County,WI,NA,NA,67.50788643533123
54944,Outagamie County,WI,83.60655737704919,NA,NA
54950,Waupaca County,WI,98.25136612021858,NA,NA
82501,Fremont County,WY,NA,76.6833611574847,NA
82935,Sweetwater County,WY,92.45901639344262,NA,NA
