ZipCode,county,state,Adult,Retirement,Geriatric
35023,Jefferson County,AL,NA,NA,45.714285714285715
35045,Chilton County,AL,NA,47.85276073619632,NA
35077,Cullman County,AL,NA,65.2760736196319,NA
35094,Jefferson County,AL,37.68888888888889,NA,NA
35126,Jefferson County,AL,NA,55.33742331288344,NA
35180,Jefferson County,AL,43.733333333333334,NA,NA
35208,Jefferson County,AL,22.311111111111114,NA,NA
35209,Jefferson County,AL,80.08888888888889,NA,NA
35215,Jefferson County,AL,3.733333333333334,NA,NA
35235,Jefferson County,AL,NA,NA,57.14285714285714
35243,Jefferson County,AL,NA,59.75460122699386,NA
35405,Tuscaloosa County,AL,3.5555555555555554,NA,NA
35453,Tuscaloosa County,AL,NA,46.38036809815951,NA
35475,Tuscaloosa County,AL,NA,30.306748466257673,NA
35503,Walker County,AL,NA,NA,87.5
35613,Limestone County,AL,67.02222222222223,NA,NA
35630,Lauderdale County,AL,NA,NA,35.35714285714286
35810,Madison County,AL,NA,73.49693251533742,NA
35903,Etowah County,AL,33.33333333333333,NA,NA
36066,Autauga County,AL,NA,NA,41.07142857142857
36067,Autauga County,AL,97.24444444444444,NA,NA
36079,Pike County,AL,73.77777777777777,NA,NA
36108,Montgomery County,AL,NA,45.030674846625764,NA
36116,Montgomery County,AL,11.466666666666667,NA,NA
36272,Calhoun County,AL,27.911111111111108,NA,NA
36277,Calhoun County,AL,97.95555555555555,NA,NA
36375,Geneva County,AL,NA,98.28220858895705,NA
36587,Mobile County,AL,93.42222222222222,NA,NA
36618,Mobile County,AL,94.39999999999999,NA,NA
36830,Lee County,AL,73.24444444444444,NA,45.357142857142854
99504,Anchorage Municipality,AK,86.66666666666667,NA,43.57142857142857
99507,Anchorage Municipality,AK,55.02222222222222,67.36196319018404,NA
99801,Juneau City and Borough,AK,51.91111111111111,NA,NA
85008,Maricopa County,AZ,75.2,53.37423312883436,NA
85016,Maricopa County,AZ,NA,NA,50
85022,Maricopa County,AZ,44.62222222222223,NA,NA
85027,Maricopa County,AZ,NA,35.0920245398773,NA
85032,Maricopa County,AZ,NA,16.07361963190184,NA
85035,Maricopa County,AZ,8.444444444444445,NA,NA
85128,Pinal County,AZ,66.4,NA,NA
85143,Pinal County,AZ,20.533333333333335,NA,NA
85283,Maricopa County,AZ,9.688888888888888,NA,NA
85306,Maricopa County,AZ,33.15555555555555,NA,NA
85351,Maricopa County,AZ,NA,24.785276073619634,0
85355,Maricopa County,AZ,89.95555555555555,NA,NA
85361,Maricopa County,AZ,67.82222222222222,NA,NA
85374,Maricopa County,AZ,NA,12.392638036809817,3.9285714285714284
85379,Maricopa County,AZ,16.88888888888889,NA,NA
85621,Santa Cruz County,AZ,49.6,NA,NA
85706,Pima County,AZ,NA,5.398773006134969,NA
85710,Pima County,AZ,3.911111111111111,NA,NA
85711,Pima County,AZ,78.04444444444445,NA,NA
85713,Pima County,AZ,3.022222222222222,23.43558282208589,NA
85741,Pima County,AZ,17.955555555555556,NA,NA
85750,Pima County,AZ,91.46666666666667,NA,NA
86335,Yavapai County,AZ,93.60000000000001,NA,NA
86401,Mohave County,AZ,NA,81.96319018404908,NA
86440,Mohave County,AZ,NA,NA,74.64285714285714
71913,Garland County,AR,21.511111111111113,NA,NA
72023,Lonoke County,AR,59.199999999999996,NA,NA
72104,Hot Spring County,AR,34.93333333333333,NA,NA
72206,Pulaski County,AR,NA,42.20858895705521,NA
72211,Pulaski County,AR,NA,95.33742331288344,NA
72301,Crittenden County,AR,NA,97.79141104294479,NA
72401,Craighead County,AR,26.666666666666668,NA,NA
72543,Cleburne County,AR,NA,NA,84.64285714285714
72653,Baxter County,AR,25.244444444444447,NA,NA
72703,Washington County,AR,83.11111111111111,NA,NA
72830,Johnson County,AR,55.46666666666666,NA,NA
72903,Sebastian County,AR,47.11111111111111,NA,NA
72933,Franklin County,AR,93.15555555555555,NA,NA
72956,Crawford County,AR,NA,17.914110429447852,NA
90001,Los Angeles County,CA,27.37777777777778,65.2760736196319,NA
90006,Los Angeles County,CA,NA,60.122699386503065,NA
90007,Los Angeles County,CA,NA,NA,38.21428571428571
90015,Los Angeles County,CA,NA,NA,76.78571428571429
90017,Los Angeles County,CA,NA,89.93865030674847,NA
90018,Los Angeles County,CA,NA,77.42331288343559,NA
90020,Los Angeles County,CA,NA,NA,92.14285714285714
90022,Los Angeles County,CA,64.53333333333333,86.50306748466258,NA
90023,Los Angeles County,CA,21.6,NA,NA
90024,Los Angeles County,CA,NA,NA,68.92857142857143
90028,Los Angeles County,CA,NA,NA,83.57142857142857
90036,Los Angeles County,CA,42.13333333333333,NA,NA
90044,Los Angeles County,CA,3.111111111111111,NA,NA
90045,Los Angeles County,CA,NA,35.4601226993865,NA
90059,Los Angeles County,CA,NA,35.828220858895705,NA
90201,Los Angeles County,CA,40.355555555555554,NA,NA
90247,Los Angeles County,CA,30.933333333333334,NA,NA
90249,Los Angeles County,CA,NA,NA,38.92857142857143
90250,Los Angeles County,CA,NA,53.49693251533743,NA
90255,Los Angeles County,CA,61.422222222222224,NA,NA
90303,Los Angeles County,CA,91.73333333333333,NA,NA
90505,Los Angeles County,CA,68.8,NA,NA
90603,Los Angeles County,CA,NA,91.90184049079755,NA
90605,Los Angeles County,CA,34.66666666666667,NA,NA
90670,Los Angeles County,CA,NA,NA,98.92857142857143
90715,Los Angeles County,CA,NA,52.392638036809814,NA
90720,Orange County,CA,NA,38.40490797546012,NA
90723,Los Angeles County,CA,31.644444444444442,NA,NA
90745,Los Angeles County,CA,NA,57.05521472392638,NA
90802,Los Angeles County,CA,64.62222222222222,NA,NA
90805,Los Angeles County,CA,63.644444444444446,NA,NA
90810,Los Angeles County,CA,82.22222222222221,NA,30.357142857142854
90815,Los Angeles County,CA,NA,NA,48.92857142857142
91001,Los Angeles County,CA,NA,NA,56.785714285714285
91010,Los Angeles County,CA,60.8,NA,NA
91106,Los Angeles County,CA,NA,75.21472392638037,NA
91201,Los Angeles County,CA,NA,65.76687116564418,NA
91205,Los Angeles County,CA,65.06666666666666,NA,NA
91302,Los Angeles County,CA,91.55555555555556,NA,NA
91325,Los Angeles County,CA,NA,44.29447852760736,NA
91340,Los Angeles County,CA,NA,NA,82.85714285714286
91355,Los Angeles County,CA,45.51111111111111,NA,NA
91362,Ventura County,CA,62.577777777777776,NA,NA
91387,Los Angeles County,CA,NA,74.60122699386503,NA
91423,Los Angeles County,CA,45.33333333333333,NA,NA
91505,Los Angeles County,CA,47.02222222222222,NA,NA
91604,Los Angeles County,CA,NA,59.87730061349693,NA
91605,Los Angeles County,CA,NA,89.69325153374234,NA
91607,Los Angeles County,CA,NA,NA,24.285714285714285
91702,Los Angeles County,CA,17.68888888888889,NA,NA
91706,Los Angeles County,CA,14.222222222222221,NA,NA
91730,San Bernardino County,CA,54.13333333333333,NA,NA
91739,San Bernardino County,CA,92.35555555555555,NA,NA
91744,Los Angeles County,CA,NA,15.950920245398773,NA
91746,Los Angeles County,CA,49.77777777777778,56.07361963190184,NA
91748,Los Angeles County,CA,NA,71.41104294478528,NA
91761,San Bernardino County,CA,48,NA,NA
91765,Los Angeles County,CA,91.91111111111111,NA,NA
91766,Los Angeles County,CA,76.26666666666667,27.85276073619632,NA
91767,Los Angeles County,CA,23.377777777777776,NA,NA
91768,Los Angeles County,CA,NA,83.92638036809817,NA
91773,Los Angeles County,CA,NA,18.404907975460123,NA
91910,San Diego County,CA,NA,57.30061349693252,NA
91914,San Diego County,CA,NA,NA,99.64285714285714
91932,San Diego County,CA,70.39999999999999,NA,NA
92019,San Diego County,CA,NA,80.12269938650307,NA
92021,San Diego County,CA,7.466666666666668,9.325153374233128,NA
92025,San Diego County,CA,50.84444444444445,NA,NA
92040,San Diego County,CA,NA,62.08588957055214,NA
92101,San Diego County,CA,25.955555555555556,NA,NA
92104,San Diego County,CA,59.37777777777777,NA,NA
92105,San Diego County,CA,28.355555555555554,NA,NA
92107,San Diego County,CA,91.37777777777778,NA,NA
92111,San Diego County,CA,55.288888888888884,NA,NA
92122,San Diego County,CA,NA,44.417177914110425,NA
92130,San Diego County,CA,40.62222222222222,NA,NA
92227,Imperial County,CA,NA,36.19631901840491,NA
92234,Riverside County,CA,NA,1.2269938650306749,NA
92236,Riverside County,CA,61.77777777777778,NA,NA
92240,Riverside County,CA,76.08888888888889,NA,NA
92243,Imperial County,CA,NA,NA,94.28571428571428
92262,Riverside County,CA,11.822222222222223,NA,NA
92307,San Bernardino County,CA,65.42222222222223,NA,NA
92311,San Bernardino County,CA,20.88888888888889,NA,NA
92313,San Bernardino County,CA,NA,86.38036809815951,NA
92314,San Bernardino County,CA,94.13333333333334,NA,NA
92324,San Bernardino County,CA,NA,NA,67.5
92345,San Bernardino County,CA,4.622222222222222,NA,NA
92346,San Bernardino County,CA,NA,89.20245398773005,NA
92371,San Bernardino County,CA,88.17777777777778,NA,NA
92376,San Bernardino County,CA,89.5111111111111,NA,NA
92404,San Bernardino County,CA,8.88888888888889,NA,NA
92405,San Bernardino County,CA,NA,80.24539877300614,NA
92501,Riverside County,CA,52.800000000000004,NA,NA
92503,Riverside County,CA,10.844444444444443,NA,NA
92505,Riverside County,CA,NA,74.3558282208589,NA
92506,Riverside County,CA,46.577777777777776,NA,NA
92509,Riverside County,CA,91.11111111111111,NA,NA
92544,Riverside County,CA,28.53333333333333,NA,NA
92551,Riverside County,CA,79.91111111111111,NA,NA
92553,Riverside County,CA,NA,25.88957055214724,NA
92571,Riverside County,CA,76,34.60122699386503,NA
92583,Riverside County,CA,NA,46.50306748466257,NA
92584,Riverside County,CA,25.955555555555556,NA,NA
92606,Orange County,CA,NA,59.018404907975466,NA
92624,Orange County,CA,95.91111111111111,NA,NA
92649,Orange County,CA,73.86666666666667,18.404907975460123,NA
92656,Orange County,CA,18.933333333333334,NA,NA
92672,Orange County,CA,NA,69.32515337423312,NA
92675,Orange County,CA,NA,75.8282208588957,87.85714285714286
92683,Orange County,CA,NA,34.96932515337423,NA
92691,Orange County,CA,NA,13.61963190184049,NA
92708,Orange County,CA,NA,30.429447852760738,15
92832,Orange County,CA,84.26666666666667,NA,NA
92840,Orange County,CA,NA,22.822085889570552,NA
92841,Orange County,CA,92.62222222222222,NA,NA
92867,Orange County,CA,37.15555555555555,NA,NA
92880,Riverside County,CA,12.266666666666666,NA,NA
92882,Riverside County,CA,38.93333333333333,NA,NA
92886,Orange County,CA,NA,33.12883435582822,NA
93004,Ventura County,CA,NA,30.552147239263803,NA
93021,Ventura County,CA,NA,73.61963190184049,NA
93023,Ventura County,CA,NA,59.50920245398773,NA
93030,Ventura County,CA,NA,NA,62.142857142857146
93033,Ventura County,CA,NA,39.6319018404908,NA
93065,Ventura County,CA,7.111111111111111,NA,NA
93117,Santa Barbara County,CA,96.62222222222222,NA,NA
93212,Kings County,CA,NA,92.51533742331289,NA
93247,Tulare County,CA,71.37777777777778,62.45398773006134,NA
93274,Tulare County,CA,37.422222222222224,NA,17.142857142857142
93304,Kern County,CA,NA,82.33128834355828,NA
93307,Kern County,CA,6.222222222222222,NA,NA
93311,Kern County,CA,NA,NA,53.92857142857142
93536,Los Angeles County,CA,24.88888888888889,NA,NA
93546,Mono County,CA,NA,86.13496932515338,NA
93551,Los Angeles County,CA,NA,35.21472392638037,NA
93611,Fresno County,CA,21.155555555555555,NA,NA
93635,Merced County,CA,79.73333333333333,NA,NA
93638,Madera County,CA,52.97777777777778,NA,NA
93657,Fresno County,CA,56.62222222222222,NA,NA
93701,Fresno County,CA,96,NA,93.92857142857143
93702,Fresno County,CA,92.88888888888889,21.104294478527606,NA
93704,Fresno County,CA,NA,58.77300613496933,NA
93726,Fresno County,CA,72.97777777777777,28.46625766871166,NA
93908,Monterey County,CA,79.46666666666667,NA,NA
93940,Monterey County,CA,31.555555555555554,NA,NA
93950,Monterey County,CA,NA,89.32515337423312,NA
93960,Monterey County,CA,NA,96.80981595092024,NA
94014,San Mateo County,CA,NA,17.300613496932517,NA
94024,Santa Clara County,CA,NA,66.99386503067485,NA
94030,San Mateo County,CA,NA,38.15950920245399,NA
94040,Santa Clara County,CA,50.4,NA,NA
94044,San Mateo County,CA,31.91111111111111,NA,NA
94063,San Mateo County,CA,77.33333333333333,61.84049079754601,NA
94085,Santa Clara County,CA,62.044444444444444,NA,NA
94109,San Francisco County,CA,NA,7.975460122699387,NA
94110,San Francisco County,CA,NA,55.09202453987731,NA
94112,San Francisco County,CA,NA,3.6809815950920246,NA
94115,San Francisco County,CA,NA,NA,59.285714285714285
94121,San Francisco County,CA,NA,24.049079754601227,NA
94122,San Francisco County,CA,27.555555555555557,NA,NA
94134,San Francisco County,CA,80.97777777777779,NA,NA
94303,San Mateo County,CA,NA,NA,17.857142857142858
94503,Napa County,CA,66.48888888888888,NA,NA
94506,Contra Costa County,CA,69.24444444444444,NA,NA
94526,Contra Costa County,CA,62.93333333333333,NA,NA
94541,Alameda County,CA,83.37777777777777,NA,NA
94564,Contra Costa County,CA,NA,42.69938650306748,NA
94566,Alameda County,CA,NA,93.9877300613497,NA
94578,Alameda County,CA,NA,82.45398773006136,NA
94579,Alameda County,CA,NA,83.68098159509204,NA
94589,Solano County,CA,37.06666666666666,NA,NA
94590,Solano County,CA,65.5111111111111,NA,NA
94591,Solano County,CA,NA,23.92638036809816,NA
94601,Alameda County,CA,97.42222222222222,NA,NA
94603,Alameda County,CA,70.04444444444444,NA,NA
94609,Alameda County,CA,93.77777777777779,NA,NA
94612,Alameda County,CA,NA,NA,57.49999999999999
94621,Alameda County,CA,85.24444444444444,NA,NA
94901,Marin County,CA,NA,92.88343558282209,NA
94928,Sonoma County,CA,38.577777777777776,NA,NA
94939,Marin County,CA,90.66666666666666,NA,NA
94954,Sonoma County,CA,NA,NA,21.071428571428573
95005,Santa Cruz County,CA,89.86666666666666,NA,NA
95008,Santa Clara County,CA,NA,30.061349693251532,NA
95035,Santa Clara County,CA,NA,NA,44.642857142857146
95051,Santa Clara County,CA,96.53333333333333,NA,NA
95062,Santa Cruz County,CA,67.64444444444445,NA,NA
95070,Santa Clara County,CA,81.15555555555557,NA,NA
95111,Santa Clara County,CA,21.955555555555556,NA,NA
95116,Santa Clara County,CA,88.44444444444444,NA,NA
95118,Santa Clara County,CA,60.977777777777774,NA,NA
95127,Santa Clara County,CA,NA,27.484662576687118,NA
95129,Santa Clara County,CA,NA,83.06748466257669,NA
95132,Santa Clara County,CA,NA,NA,42.5
95202,San Joaquin County,CA,39.2,NA,NA
95204,San Joaquin County,CA,78.93333333333334,NA,NA
95212,San Joaquin County,CA,NA,90.920245398773,NA
95301,Merced County,CA,49.955555555555556,NA,54.64285714285714
95350,Stanislaus County,CA,9.688888888888888,NA,NA
95358,Stanislaus County,CA,74.93333333333332,NA,NA
95361,Stanislaus County,CA,24,NA,NA
95370,Tuolumne County,CA,NA,2.085889570552147,NA
95386,Stanislaus County,CA,NA,70.1840490797546,NA
95403,Sonoma County,CA,29.955555555555556,NA,NA
95404,Sonoma County,CA,NA,76.31901840490798,NA
95476,Sonoma County,CA,75.91111111111111,22.085889570552148,NA
95503,Humboldt County,CA,NA,54.11042944785276,NA
95603,Placer County,CA,NA,NA,18.571428571428573
95620,Solano County,CA,NA,NA,58.214285714285715
95624,Sacramento County,CA,NA,39.75460122699386,NA
95648,Placer County,CA,38.044444444444444,67.73006134969324,NA
95660,Sacramento County,CA,58.75555555555556,NA,NA
95662,Sacramento County,CA,NA,41.22699386503068,NA
95747,Placer County,CA,86.57777777777778,NA,NA
95757,Sacramento County,CA,NA,36.809815950920246,NA
95762,El Dorado County,CA,NA,88.22085889570552,NA
95815,Sacramento County,CA,41.333333333333336,NA,NA
95824,Sacramento County,CA,81.68888888888888,NA,NA
95826,Sacramento County,CA,32.800000000000004,NA,NA
95945,Nevada County,CA,88.35555555555555,NA,NA
95965,Butte County,CA,NA,43.68098159509202,NA
95969,Butte County,CA,NA,46.99386503067485,NA
95993,Sutter County,CA,27.46666666666667,NA,NA
96021,Tehama County,CA,69.15555555555557,NA,NA
96064,Siskiyou County,CA,NA,82.94478527607362,NA
96080,Tehama County,CA,NA,16.319018404907975,NA
80011,Arapahoe County,CO,NA,71.53374233128834,NA
80016,Arapahoe County,CO,NA,49.079754601226995,NA
80104,Douglas County,CO,56.53333333333334,42.08588957055215,NA
80108,Douglas County,CO,NA,60.24539877300613,NA
80120,Arapahoe County,CO,NA,29.938650306748464,NA
80121,Arapahoe County,CO,97.51111111111112,NA,NA
80132,El Paso County,CO,58.84444444444444,NA,NA
80202,Denver County,CO,31.377777777777776,NA,NA
80203,Denver County,CO,45.15555555555555,NA,NA
80233,Adams County,CO,49.68888888888889,NA,NA
80260,Adams County,CO,NA,NA,51.42857142857142
80538,Larimer County,CO,NA,5.030674846625767,NA
80615,Weld County,CO,NA,95.21472392638037,NA
80620,Weld County,CO,25.68888888888889,NA,NA
80621,Weld County,CO,49.24444444444445,NA,NA
80634,Weld County,CO,7.9111111111111105,0.6134969325153374,NA
80701,Morgan County,CO,33.06666666666666,NA,NA
80916,El Paso County,CO,43.644444444444446,NA,NA
80917,El Paso County,CO,38.84444444444444,NA,NA
81101,Alamosa County,CO,84.17777777777778,NA,NA
81625,Moffat County,CO,NA,37.423312883435585,NA
06002,Hartford County,CT,NA,19.141104294478527,NA
06010,Hartford County,CT,39.022222222222226,78.65030674846626,NA
06082,Hartford County,CT,10.488888888888889,NA,NA
06095,Hartford County,CT,NA,42.45398773006135,34.285714285714285
06109,Hartford County,CT,61.86666666666667,NA,63.21428571428571
06114,Hartford County,CT,28.26666666666667,NA,NA
06234,Windham County,CT,NA,48.466257668711656,NA
06415,New London County,CT,NA,93.00613496932515,NA
06473,New Haven County,CT,64.97777777777777,NA,NA
06489,Hartford County,CT,16.977777777777778,NA,6.071428571428571
06513,New Haven County,CT,65.86666666666666,NA,NA
06515,New Haven County,CT,61.24444444444445,NA,83.21428571428572
06516,New Haven County,CT,46.31111111111111,1.8404907975460123,NA
06517,New Haven County,CT,NA,52.02453987730061,NA
06519,New Haven County,CT,13.244444444444445,26.50306748466258,NA
06607,Fairfield County,CT,NA,76.80981595092024,NA
06608,Fairfield County,CT,NA,73.25153374233129,NA
06610,Fairfield County,CT,NA,NA,90.71428571428571
06611,Fairfield County,CT,69.86666666666666,NA,NA
06614,Fairfield County,CT,NA,20.858895705521473,NA
06786,Litchfield County,CT,NA,73.86503067484662,NA
06795,Litchfield County,CT,90.93333333333334,NA,93.21428571428572
06851,Fairfield County,CT,36.08888888888889,NA,NA
06854,Fairfield County,CT,26.400000000000002,90.79754601226993,NA
06880,Fairfield County,CT,NA,72.14723926380368,NA
06901,Fairfield County,CT,77.15555555555555,NA,NA
19701,New Castle County,DE,NA,NA,33.214285714285715
19702,New Castle County,DE,7.377777777777777,33.61963190184049,NA
19709,New Castle County,DE,11.377777777777778,NA,NA
19720,New Castle County,DE,NA,14.11042944785276,NA
19804,New Castle County,DE,15.466666666666667,NA,NA
19809,New Castle County,DE,NA,NA,71.07142857142857
19810,New Castle County,DE,NA,22.94478527607362,NA
19901,Kent County,DE,42.66666666666667,NA,NA
19904,Kent County,DE,6.044444444444444,NA,NA
19941,Sussex County,DE,95.64444444444445,NA,NA
19958,Sussex County,DE,18.844444444444445,2.5766871165644174,NA
19962,Kent County,DE,NA,NA,99.28571428571429
19966,Sussex County,DE,NA,49.57055214723927,NA
32008,Suwannee County,FL,89.77777777777777,NA,NA
32024,Columbia County,FL,39.28888888888889,NA,NA
32034,Nassau County,FL,76.88888888888889,NA,NA
32060,Suwannee County,FL,NA,28.343558282208587,NA
32068,Clay County,FL,5.6000000000000005,39.018404907975466,NA
32073,Clay County,FL,NA,18.03680981595092,NA
32091,Bradford County,FL,47.37777777777778,50.920245398773,NA
32110,Flagler County,FL,80.62222222222222,NA,NA
32113,Marion County,FL,56.266666666666666,NA,NA
32114,Volusia County,FL,12.88888888888889,97.42331288343559,NA
32117,Volusia County,FL,NA,32.26993865030675,NA
32119,Volusia County,FL,NA,56.93251533742332,NA
32129,Volusia County,FL,NA,66.25766871165644,NA
32148,Putnam County,FL,NA,48.58895705521473,NA
32164,Flagler County,FL,19.288888888888888,NA,NA
32207,Duval County,FL,NA,NA,41.785714285714285
32210,Duval County,FL,1.6888888888888887,3.92638036809816,NA
32211,Duval County,FL,45.422222222222224,NA,NA
32225,Duval County,FL,70.84444444444445,NA,NA
32233,Duval County,FL,82.66666666666667,NA,NA
32234,Duval County,FL,57.24444444444444,NA,NA
32244,Duval County,FL,2.311111111111111,NA,NA
32246,Duval County,FL,NA,81.22699386503068,NA
32304,Leon County,FL,NA,64.5398773006135,NA
32308,Leon County,FL,NA,91.65644171779141,NA
32309,Leon County,FL,NA,47.484662576687114,NA
32310,Leon County,FL,42.044444444444444,NA,NA
32333,Gadsden County,FL,NA,85.6441717791411,NA
32405,Bay County,FL,81.33333333333333,NA,NA
32408,Bay County,FL,NA,43.80368098159509,NA
32503,Escambia County,FL,NA,80.61349693251533,NA
32505,Escambia County,FL,NA,6.625766871165645,NA
32514,Escambia County,FL,NA,9.079754601226995,NA
32547,Okaloosa County,FL,24.266666666666666,NA,NA
32563,Santa Rosa County,FL,NA,14.60122699386503,NA
32566,Santa Rosa County,FL,19.555555555555557,NA,NA
32570,Santa Rosa County,FL,35.11111111111111,NA,NA
32583,Santa Rosa County,FL,36.977777777777774,NA,NA
32608,Alachua County,FL,3.2,NA,NA
32618,Alachua County,FL,71.02222222222223,NA,NA
32640,Putnam County,FL,36.53333333333333,NA,NA
32643,Alachua County,FL,NA,83.55828220858895,NA
32707,Seminole County,FL,94.93333333333334,NA,NA
32713,Volusia County,FL,59.111111111111114,NA,NA
32732,Seminole County,FL,NA,NA,81.42857142857143
32736,Lake County,FL,99.82222222222222,NA,NA
32746,Seminole County,FL,96.08888888888889,NA,NA
32757,Lake County,FL,90.84444444444445,NA,NA
32763,Volusia County,FL,NA,63.06748466257669,NA
32765,Seminole County,FL,34.75555555555555,NA,NA
32771,Seminole County,FL,41.422222222222224,NA,NA
32778,Lake County,FL,37.24444444444445,72.26993865030676,NA
32808,Orange County,FL,NA,90.5521472392638,NA
32810,Orange County,FL,22.933333333333334,NA,NA
32812,Orange County,FL,93.68888888888888,NA,NA
32818,Orange County,FL,8.266666666666666,NA,NA
32824,Orange County,FL,61.15555555555555,45.39877300613497,NA
32825,Orange County,FL,NA,67.11656441717791,NA
32828,Orange County,FL,21.244444444444444,NA,NA
32839,Orange County,FL,58.84444444444444,NA,NA
32901,Brevard County,FL,78.93333333333334,NA,NA
32927,Brevard County,FL,87.28888888888889,NA,NA
32953,Brevard County,FL,36.355555555555554,NA,NA
32960,Indian River County,FL,51.288888888888884,NA,NA
33009,Broward County,FL,NA,71.28834355828221,NA
33016,Miami-Dade County,FL,55.733333333333334,NA,NA
33020,Broward County,FL,NA,54.355828220858896,NA
33023,Broward County,FL,10.755555555555556,NA,NA
33054,Miami-Dade County,FL,91.28888888888889,NA,NA
33062,Broward County,FL,NA,92.02453987730061,NA
33065,Broward County,FL,50.75555555555555,NA,NA
33130,Miami-Dade County,FL,NA,94.11042944785277,NA
33140,Miami-Dade County,FL,53.511111111111106,NA,NA
33142,Miami-Dade County,FL,10.222222222222223,NA,NA
33147,Miami-Dade County,FL,NA,81.71779141104294,NA
33155,Miami-Dade County,FL,48.44444444444444,NA,NA
33157,Miami-Dade County,FL,NA,59.263803680981596,NA
33168,Miami-Dade County,FL,44.53333333333334,NA,NA
33170,Miami-Dade County,FL,87.02222222222223,NA,NA
33177,Miami-Dade County,FL,NA,30.79754601226994,NA
33180,Miami-Dade County,FL,99.64444444444445,27.361963190184046,NA
33183,Miami-Dade County,FL,53.333333333333336,NA,NA
33185,Miami-Dade County,FL,NA,67.85276073619632,NA
33189,Miami-Dade County,FL,NA,98.8957055214724,NA
33312,Broward County,FL,87.1111111111111,NA,NA
33313,Broward County,FL,69.95555555555556,NA,NA
33324,Broward County,FL,NA,NA,61.78571428571429
33325,Broward County,FL,NA,86.74846625766871,NA
33327,Broward County,FL,NA,69.93865030674846,NA
33351,Broward County,FL,46.400000000000006,NA,NA
33407,Palm Beach County,FL,16.444444444444446,NA,NA
33409,Palm Beach County,FL,NA,84.41717791411043,NA
33411,Palm Beach County,FL,NA,97.05521472392637,NA
33418,Palm Beach County,FL,98.4,NA,NA
33436,Palm Beach County,FL,NA,29.8159509202454,NA
33463,Palm Beach County,FL,NA,22.45398773006135,NA
33484,Palm Beach County,FL,99.55555555555556,NA,NA
33511,Hillsborough County,FL,58.044444444444444,NA,NA
33513,Sumter County,FL,82.04444444444444,NA,NA
33525,Pasco County,FL,80.71111111111111,NA,52.85714285714286
33541,Pasco County,FL,NA,96.07361963190183,NA
33570,Hillsborough County,FL,NA,NA,49.642857142857146
33573,Hillsborough County,FL,NA,13.006134969325153,NA
33597,Sumter County,FL,88.71111111111111,NA,NA
33615,Hillsborough County,FL,60.53333333333333,NA,NA
33619,Hillsborough County,FL,NA,49.4478527607362,NA
33626,Hillsborough County,FL,NA,NA,60.357142857142854
33634,Hillsborough County,FL,NA,NA,60
33647,Hillsborough County,FL,30.844444444444445,NA,NA
33701,Pinellas County,FL,62.84444444444445,NA,NA
33710,Pinellas County,FL,52.888888888888886,NA,NA
33714,Pinellas County,FL,33.77777777777778,NA,NA
33772,Pinellas County,FL,71.46666666666667,NA,NA
33776,Pinellas County,FL,96.71111111111111,NA,NA
33781,Pinellas County,FL,NA,22.33128834355828,NA
33811,Polk County,FL,83.73333333333333,NA,NA
33860,Polk County,FL,37.77777777777778,NA,NA
33870,Highlands County,FL,NA,18.15950920245399,NA
33907,Lee County,FL,28.088888888888892,NA,73.57142857142858
33952,Charlotte County,FL,13.68888888888889,NA,NA
33974,Lee County,FL,NA,85.15337423312883,NA
33990,Lee County,FL,NA,24.294478527607364,NA
34108,Collier County,FL,NA,35.70552147239264,NA
34110,Collier County,FL,NA,31.28834355828221,77.5
34112,Collier County,FL,33.68888888888889,NA,NA
34119,Collier County,FL,47.46666666666667,NA,NA
34135,Lee County,FL,NA,9.938650306748466,NA
34209,Manatee County,FL,40.97777777777778,NA,14.642857142857144
34219,Manatee County,FL,74.13333333333333,NA,NA
34229,Sarasota County,FL,68.44444444444444,NA,NA
34266,DeSoto County,FL,20.711111111111112,NA,25
34446,Citrus County,FL,88.88888888888889,NA,NA
34465,Citrus County,FL,NA,NA,48.92857142857142
34470,Marion County,FL,NA,87.36196319018404,NA
34472,Marion County,FL,NA,NA,58.57142857142858
34474,Marion County,FL,NA,61.34969325153374,NA
34639,Pasco County,FL,NA,NA,87.14285714285714
34654,Pasco County,FL,50.66666666666667,NA,NA
34655,Pasco County,FL,NA,NA,11.428571428571429
34668,Pasco County,FL,NA,13.25153374233129,20.357142857142858
34677,Pinellas County,FL,NA,NA,43.92857142857143
34736,Lake County,FL,48.08888888888889,NA,NA
34741,Osceola County,FL,34.4,NA,NA
34748,Lake County,FL,NA,6.257668711656442,1.0714285714285714
34759,Polk County,FL,22.400000000000002,NA,NA
34946,St. Lucie County,FL,NA,69.079754601227,NA
34950,St. Lucie County,FL,NA,30.552147239263803,NA
34952,St. Lucie County,FL,NA,5.766871165644172,NA
34953,St. Lucie County,FL,NA,63.43558282208589,NA
34986,St. Lucie County,FL,NA,15.214723926380369,NA
30002,DeKalb County,GA,NA,98.40490797546012,NA
30008,Cobb County,GA,77.95555555555555,NA,NA
30030,DeKalb County,GA,69.24444444444444,NA,NA
30045,Gwinnett County,GA,NA,49.8159509202454,NA
30046,Gwinnett County,GA,28.000000000000004,NA,NA
30062,Cobb County,GA,NA,NA,18.928571428571427
30080,Cobb County,GA,85.51111111111112,NA,NA
30107,Cherokee County,GA,92.80000000000001,NA,NA
30115,Cherokee County,GA,22.666666666666664,NA,NA
30132,Paulding County,GA,41.68888888888888,NA,NA
30224,Spalding County,GA,65.60000000000001,NA,NA
30233,Butts County,GA,36.17777777777778,NA,NA
30241,Troup County,GA,59.91111111111111,NA,NA
30248,Henry County,GA,75.28888888888889,NA,NA
30263,Coweta County,GA,NA,76.07361963190185,NA
30273,Clayton County,GA,60,NA,NA
30277,Coweta County,GA,NA,80.98159509202453,NA
30281,Henry County,GA,36.888888888888886,NA,NA
30286,Upson County,GA,NA,56.80981595092025,NA
30291,Fulton County,GA,22.22222222222222,NA,NA
30311,Fulton County,GA,7.555555555555555,NA,NA
30338,DeKalb County,GA,67.55555555555556,NA,NA
30340,DeKalb County,GA,NA,NA,85.35714285714285
30344,Fulton County,GA,25.511111111111113,25.153374233128833,NA
30349,Fulton County,GA,3.4666666666666663,NA,NA
30360,DeKalb County,GA,NA,NA,62.857142857142854
30458,Bulloch County,GA,76.62222222222222,NA,NA
30518,Gwinnett County,GA,NA,21.717791411042946,NA
30521,Franklin County,GA,69.42222222222222,NA,NA
30536,Gilmer County,GA,77.68888888888888,NA,NA
30540,Gilmer County,GA,87.82222222222222,NA,NA
30542,Hall County,GA,NA,25.030674846625768,NA
30549,Jackson County,GA,NA,57.54601226993865,NA
30560,Fannin County,GA,NA,85.52147239263803,NA
30577,Stephens County,GA,NA,NA,42.142857142857146
30606,Clarke County,GA,NA,NA,19.642857142857142
30635,Elbert County,GA,NA,NA,40.35714285714286
30742,Catoosa County,GA,NA,84.66257668711657,NA
30809,Columbia County,GA,NA,43.31288343558282,NA
30815,Richmond County,GA,NA,45.15337423312884,NA
30904,Richmond County,GA,19.11111111111111,NA,NA
30906,Richmond County,GA,40.08888888888889,NA,NA
31047,Houston County,GA,NA,55.828220858895705,NA
31069,Houston County,GA,46.666666666666664,NA,NA
31087,Hancock County,GA,NA,70.5521472392638,NA
31093,Houston County,GA,18.577777777777776,NA,NA
31204,Bibb County,GA,NA,17.791411042944784,26.071428571428573
31210,Bibb County,GA,NA,NA,33.214285714285715
31313,Liberty County,GA,93.5111111111111,NA,NA
31406,Chatham County,GA,NA,NA,20.357142857142858
31535,Coffee County,GA,57.333333333333336,NA,NA
31545,Wayne County,GA,76.71111111111111,NA,NA
31569,Camden County,GA,95.55555555555556,NA,NA
31601,Lowndes County,GA,NA,67.85276073619632,NA
31602,Lowndes County,GA,NA,26.87116564417178,NA
31701,Dougherty County,GA,26.93333333333333,NA,NA
31775,Tift County,GA,99.28888888888889,NA,NA
31904,Muscogee County,GA,91.02222222222223,NA,NA
31909,Muscogee County,GA,45.6,NA,NA
39837,Miller County,GA,NA,60.73619631901841,NA
39840,Randolph County,GA,83.82222222222222,NA,NA
96701,Honolulu County,HI,NA,57.17791411042945,NA
96706,Honolulu County,HI,5.155555555555556,NA,NA
96738,Hawaii County,HI,NA,94.84662576687116,NA
96740,Hawaii County,HI,38.48888888888889,NA,NA
96782,Honolulu County,HI,83.64444444444445,NA,NA
96792,Honolulu County,HI,63.911111111111104,NA,NA
96797,Honolulu County,HI,54.31111111111111,NA,NA
96813,Honolulu County,HI,NA,21.84049079754601,57.85714285714286
83301,Twin Falls County,ID,NA,NA,25.71428571428571
83316,Twin Falls County,ID,85.77777777777777,NA,NA
83333,Blaine County,ID,NA,39.50920245398773,NA
83642,Ada County,ID,NA,82.57668711656441,NA
83646,Ada County,ID,23.555555555555554,NA,NA
83669,Ada County,ID,NA,36.07361963190184,NA
83686,Canyon County,ID,18.133333333333333,NA,NA
83709,Ada County,ID,7.28888888888889,NA,NA
83714,Ada County,ID,NA,70.42944785276075,NA
60014,McHenry County,IL,NA,9.570552147239264,NA
60016,Cook County,IL,NA,7.361963190184049,NA
60030,Lake County,IL,NA,NA,9.642857142857144
60035,Lake County,IL,NA,NA,28.214285714285715
60042,McHenry County,IL,99.37777777777778,NA,NA
60047,Lake County,IL,43.91111111111111,NA,NA
60048,Lake County,IL,NA,16.19631901840491,NA
60060,Lake County,IL,NA,29.570552147239265,NA
60074,Cook County,IL,NA,59.6319018404908,NA
60076,Cook County,IL,NA,14.478527607361963,NA
60084,Lake County,IL,47.733333333333334,NA,NA
60106,DuPage County,IL,NA,40.49079754601227,22.142857142857142
60123,Kane County,IL,11.822222222222223,NA,NA
60130,Cook County,IL,29.244444444444444,NA,NA
60133,Cook County,IL,61.68888888888889,NA,NA
60164,Cook County,IL,NA,25.398773006134967,NA
60181,DuPage County,IL,39.91111111111111,NA,NA
60188,DuPage County,IL,NA,90.67484662576688,NA
60202,Cook County,IL,NA,60.24539877300613,NA
60401,Will County,IL,60.62222222222222,NA,NA
60402,Cook County,IL,23.022222222222222,NA,NA
60404,Will County,IL,NA,25.52147239263804,NA
60410,Will County,IL,28.62222222222222,NA,NA
60411,Cook County,IL,NA,6.871165644171779,NA
60416,Grundy County,IL,38.13333333333333,NA,72.85714285714285
60423,Will County,IL,59.55555555555555,NA,NA
60429,Cook County,IL,44.711111111111116,61.84049079754601,NA
60433,Will County,IL,38.666666666666664,NA,NA
60438,Cook County,IL,48.62222222222222,NA,NA
60439,Cook County,IL,NA,NA,90.35714285714286
60441,Will County,IL,NA,17.66871165644172,NA
60443,Cook County,IL,NA,49.20245398773006,NA
60451,Will County,IL,NA,75.58282208588956,NA
60455,Cook County,IL,64.26666666666667,NA,NA
60457,Cook County,IL,NA,44.66257668711656,NA
60477,Cook County,IL,NA,NA,7.5
60482,Cook County,IL,45.06666666666666,NA,NA
60504,DuPage County,IL,20.355555555555554,NA,NA
60527,DuPage County,IL,NA,6.993865030674846,NA
60532,DuPage County,IL,NA,53.00613496932516,NA
60540,DuPage County,IL,51.644444444444446,NA,NA
60544,Will County,IL,NA,38.282208588957054,NA
60563,DuPage County,IL,NA,49.325153374233125,NA
60586,Will County,IL,NA,NA,47.5
60608,Cook County,IL,NA,28.834355828220858,61.07142857142858
60609,Cook County,IL,4.888888888888889,NA,43.214285714285715
60610,Cook County,IL,47.91111111111111,NA,NA
60614,Cook County,IL,NA,11.28834355828221,NA
60617,Cook County,IL,NA,NA,75.35714285714286
60620,Cook County,IL,NA,1.7177914110429449,NA
60629,Cook County,IL,27.02222222222222,NA,NA
60632,Cook County,IL,47.733333333333334,NA,NA
60634,Cook County,IL,NA,37.30061349693251,5.357142857142857
60636,Cook County,IL,NA,17.177914110429448,NA
60637,Cook County,IL,NA,68.95705521472392,NA
60638,Cook County,IL,NA,36.687116564417174,NA
60643,Cook County,IL,NA,NA,25.357142857142854
60644,Cook County,IL,NA,8.343558282208589,NA
60645,Cook County,IL,NA,13.374233128834357,NA
60646,Cook County,IL,52.08888888888888,NA,NA
60649,Cook County,IL,6.4,5.521472392638037,NA
60652,Cook County,IL,NA,38.036809815950924,NA
60655,Cook County,IL,74.4,NA,NA
60659,Cook County,IL,NA,16.809815950920246,NA
60714,Cook County,IL,NA,69.8159509202454,NA
61036,Jo Daviess County,IL,84.62222222222222,NA,NA
61101,Winnebago County,IL,27.82222222222222,NA,NA
61356,Bureau County,IL,49.06666666666666,94.60122699386503,NA
61554,Tazewell County,IL,NA,NA,88.92857142857142
61821,Champaign County,IL,NA,29.20245398773006,NA
61853,Champaign County,IL,NA,46.87116564417178,NA
61866,Champaign County,IL,23.91111111111111,NA,NA
62035,Madison County,IL,NA,58.895705521472394,NA
62049,Montgomery County,IL,NA,NA,52.142857142857146
62052,Jersey County,IL,88.8,NA,NA
62208,St. Clair County,IL,NA,43.558282208588956,NA
62246,Bond County,IL,65.33333333333333,NA,NA
62258,St. Clair County,IL,NA,97.66871165644172,NA
62274,Perry County,IL,NA,61.717791411042946,NA
62568,Christian County,IL,NA,87.85276073619632,NA
62650,Morgan County,IL,32.355555555555554,NA,NA
62812,Franklin County,IL,NA,NA,52.5
62930,Saline County,IL,75.64444444444445,NA,NA
46011,Madison County,IN,84.35555555555555,NA,NA
46012,Madison County,IN,21.777777777777775,NA,NA
46041,Clinton County,IN,63.288888888888884,NA,NA
46140,Hancock County,IN,NA,NA,11.071428571428571
46151,Morgan County,IN,NA,51.04294478527608,NA
46167,Hendricks County,IN,NA,75.0920245398773,NA
46173,Rush County,IN,35.46666666666667,NA,NA
46201,Marion County,IN,9.866666666666667,NA,NA
46208,Marion County,IN,82.75555555555556,NA,NA
46224,Marion County,IN,71.55555555555554,NA,NA
46226,Marion County,IN,23.466666666666665,NA,NA
46234,Marion County,IN,NA,30.184049079754597,NA
46254,Marion County,IN,NA,19.018404907975462,NA
46268,Marion County,IN,NA,27.607361963190186,NA
46307,Lake County,IN,NA,0.49079754601227,NA
46311,Lake County,IN,41.06666666666667,NA,NA
46320,Lake County,IN,77.06666666666668,NA,NA
46321,Lake County,IN,NA,NA,15.714285714285714
46324,Lake County,IN,NA,78.03680981595093,36.07142857142857
46342,Lake County,IN,13.600000000000001,NA,NA
46350,LaPorte County,IN,48.888888888888886,NA,NA
46368,Porter County,IN,8.533333333333333,51.90184049079755,NA
46373,Lake County,IN,74.75555555555556,72.76073619631902,NA
46375,Lake County,IN,NA,31.656441717791413,NA
46383,Porter County,IN,3.288888888888889,NA,NA
46394,Lake County,IN,66.66666666666666,NA,NA
46405,Lake County,IN,NA,NA,72.14285714285714
46410,Lake County,IN,16.355555555555558,NA,16.428571428571427
46528,Elkhart County,IN,NA,91.04294478527606,NA
46619,St. Joseph County,IN,85.95555555555555,NA,NA
46807,Allen County,IN,90.3111111111111,NA,NA
46808,Allen County,IN,NA,84.78527607361963,NA
46835,Allen County,IN,NA,NA,18.21428571428571
46953,Grant County,IN,NA,NA,66.07142857142857
47001,Dearborn County,IN,57.86666666666667,NA,NA
47037,Ripley County,IN,96.44444444444444,NA,NA
47102,Scott County,IN,80.44444444444444,NA,NA
47129,Clark County,IN,32,NA,NA
47130,Clark County,IN,NA,2.9447852760736195,NA
47150,Floyd County,IN,57.42222222222222,NA,NA
47201,Bartholomew County,IN,37.51111111111111,NA,NA
47274,Jackson County,IN,70.13333333333334,NA,NA
47302,Delaware County,IN,NA,20.61349693251534,NA
47304,Delaware County,IN,NA,62.82208588957056,NA
47421,Lawrence County,IN,92.97777777777779,34.23312883435583,NA
47446,Lawrence County,IN,NA,NA,89.64285714285715
47452,Orange County,IN,NA,99.6319018404908,NA
47542,Dubois County,IN,NA,99.2638036809816,NA
47546,Dubois County,IN,NA,90.30674846625767,NA
47591,Knox County,IN,NA,NA,10.714285714285714
47601,Warrick County,IN,83.55555555555556,NA,NA
47670,Gibson County,IN,71.11111111111111,NA,NA
47710,Vanderburgh County,IN,20.08888888888889,NA,NA
47714,Vanderburgh County,IN,25.066666666666666,NA,NA
47715,Vanderburgh County,IN,NA,NA,65
47834,Clay County,IN,54.04444444444444,NA,NA
47906,Tippecanoe County,IN,56.00000000000001,NA,NA
47909,Tippecanoe County,IN,NA,NA,55.00000000000001
50036,Boone County,IA,NA,33.374233128834355,NA
50213,Clarke County,IA,NA,56.56441717791411,NA
50247,Marshall County,IA,NA,98.03680981595092,NA
50312,Polk County,IA,NA,95.0920245398773,NA
50313,Polk County,IA,75.73333333333333,NA,NA
50314,Polk County,IA,26.48888888888889,NA,NA
50317,Polk County,IA,66.04444444444444,NA,28.57142857142857
50702,Black Hawk County,IA,47.199999999999996,NA,NA
51301,Clay County,IA,31.466666666666665,51.65644171779141,NA
51334,Emmet County,IA,NA,31.901840490797547,NA
52241,Johnson County,IA,27.28888888888889,NA,NA
52302,Linn County,IA,11.822222222222223,NA,NA
52501,Wapello County,IA,65.15555555555555,NA,91.42857142857143
52601,Des Moines County,IA,5.688888888888889,NA,NA
52803,Scott County,IA,69.68888888888888,NA,NA
52804,Scott County,IA,79.2,NA,NA
66047,Douglas County,KS,61.955555555555556,NA,NA
66061,Johnson County,KS,60.711111111111116,NA,NA
66104,Wyandotte County,KS,NA,52.14723926380368,NA
66112,Wyandotte County,KS,85.15555555555555,NA,NA
66502,Riley County,KS,48.266666666666666,NA,NA
66614,Shawnee County,KS,88.26666666666667,NA,NA
67213,Sedgwick County,KS,71.2,NA,NA
67214,Sedgwick County,KS,NA,62.20858895705521,NA
67216,Sedgwick County,KS,49.06666666666666,NA,NA
67502,Reno County,KS,75.02222222222223,NA,NA
40071,Spencer County,KY,78.66666666666666,NA,NA
40165,Bullitt County,KY,55.91111111111111,NA,NA
40210,Jefferson County,KY,24.08888888888889,NA,NA
40211,Jefferson County,KY,55.2,79.2638036809816,NA
40213,Jefferson County,KY,19.466666666666665,NA,NA
40214,Jefferson County,KY,2.8444444444444446,NA,32.142857142857146
40220,Jefferson County,KY,21.866666666666667,NA,14.285714285714285
40312,Powell County,KY,NA,NA,91.07142857142857
40330,Mercer County,KY,54.75555555555556,NA,NA
40391,Clark County,KY,18.22222222222222,NA,NA
40444,Garrard County,KY,36.71111111111111,NA,NA
40508,Fayette County,KY,41.955555555555556,NA,NA
40701,Whitley County,KY,4.977777777777778,NA,NA
40744,Laurel County,KY,NA,85.39877300613496,NA
41005,Boone County,KY,NA,34.11042944785276,NA
41011,Kenton County,KY,25.6,NA,NA
41030,Grant County,KY,NA,81.34969325153374,NA
41143,Carter County,KY,NA,NA,45
41858,Letcher County,KY,35.733333333333334,NA,NA
42025,Marshall County,KY,87.37777777777778,NA,NA
42044,Marshall County,KY,NA,94.47852760736197,NA
42066,Graves County,KY,46.75555555555555,12.883435582822086,23.214285714285715
42088,Graves County,KY,NA,94.96932515337423,NA
42104,Warren County,KY,24.355555555555554,NA,NA
42211,Trigg County,KY,NA,27.975460122699385,NA
42303,Daviess County,KY,NA,34.355828220858896,NA
42431,Hopkins County,KY,NA,16.93251533742331,NA
42544,Pulaski County,KY,57.51111111111111,NA,NA
42567,Pulaski County,KY,94.84444444444445,65.88957055214723,NA
42642,Russell County,KY,NA,43.31288343558282,NA
42653,McCreary County,KY,92.53333333333333,NA,NA
42718,Taylor County,KY,23.733333333333334,NA,NA
42728,Adair County,KY,94.57777777777778,NA,50.71428571428571
42754,Grayson County,KY,37.86666666666667,NA,NA
70002,Jefferson Parish,LA,NA,NA,23.57142857142857
70003,Jefferson Parish,LA,NA,NA,1.7857142857142856
70043,St. Bernard Parish,LA,NA,79.50920245398773,NA
70058,Jefferson Parish,LA,NA,80.85889570552148,NA
70065,Jefferson Parish,LA,NA,80.7361963190184,NA
70070,St. Charles Parish,LA,37.955555555555556,NA,NA
70072,Jefferson Parish,LA,65.24444444444445,NA,NA
70094,Jefferson Parish,LA,NA,30.920245398773005,NA
70114,Orleans Parish,LA,NA,58.527607361963184,NA
70115,Orleans Parish,LA,NA,93.25153374233128,NA
70118,Orleans Parish,LA,NA,50.1840490797546,NA
70301,Lafourche Parish,LA,1.0666666666666667,NA,NA
70344,Terrebonne Parish,LA,NA,NA,77.85714285714286
70364,Terrebonne Parish,LA,NA,38.52760736196319,NA
70380,St. Mary Parish,LA,NA,19.263803680981596,NA
70392,St. Mary Parish,LA,84.53333333333333,NA,NA
70401,Tangipahoa Parish,LA,NA,48.09815950920245,NA
70422,Tangipahoa Parish,LA,NA,NA,73.21428571428571
70454,Tangipahoa Parish,LA,63.022222222222226,NA,NA
70458,St. Tammany Parish,LA,80.17777777777778,NA,NA
70501,Lafayette Parish,LA,NA,53.74233128834356,NA
70518,Lafayette Parish,LA,52.53333333333333,NA,NA
70525,Acadia Parish,LA,52.44444444444445,99.14110429447854,NA
70554,Evangeline Parish,LA,NA,81.84049079754601,NA
70586,Evangeline Parish,LA,7.644444444444444,NA,NA
70592,Lafayette Parish,LA,16.177777777777777,NA,NA
70601,Calcasieu Parish,LA,NA,22.699386503067483,NA
70605,Calcasieu Parish,LA,29.599999999999998,NA,NA
70615,Calcasieu Parish,LA,99.02222222222223,NA,NA
70633,Calcasieu Parish,LA,40.44444444444444,NA,NA
70647,Calcasieu Parish,LA,26.222222222222225,NA,NA
70802,East Baton Rouge Parish,LA,NA,90.06134969325153,NA
70805,East Baton Rouge Parish,LA,63.46666666666667,NA,NA
70816,East Baton Rouge Parish,LA,NA,NA,53.214285714285715
71106,Caddo Parish,LA,NA,NA,9.285714285714286
71107,Caddo Parish,LA,1.1555555555555554,NA,NA
71109,Caddo Parish,LA,98.4888888888889,NA,NA
71112,Bossier Parish,LA,38.31111111111111,60.858895705521476,NA
71115,Caddo Parish,LA,NA,NA,55.714285714285715
71295,Franklin Parish,LA,29.86666666666667,NA,NA
71360,Rapides Parish,LA,NA,NA,19.28571428571429
71409,Rapides Parish,LA,NA,77.79141104294479,NA
04005,York County,ME,NA,NA,76.07142857142857
04038,Cumberland County,ME,NA,28.22085889570552,NA
04064,York County,ME,95.11111111111111,NA,NA
04090,York County,ME,NA,19.509202453987733,NA
04092,Cumberland County,ME,NA,NA,35
04103,Cumberland County,ME,12.088888888888889,NA,NA
04240,Androscoggin County,ME,NA,42.576687116564415,NA
04280,Androscoggin County,ME,NA,NA,100
04294,Franklin County,ME,NA,69.69325153374233,NA
04401,Penobscot County,ME,74.57777777777778,72.63803680981596,NA
20602,Charles County,MD,48.977777777777774,NA,NA
20619,St. Mary's County,MD,78.13333333333333,NA,NA
20639,Calvert County,MD,NA,71.04294478527608,NA
20653,St. Mary's County,MD,62.4,NA,NA
20743,Prince George's County,MD,NA,46.74846625766872,NA
20772,Prince George's County,MD,51.2,NA,NA
20783,Prince George's County,MD,55.55555555555556,NA,NA
20817,Montgomery County,MD,NA,NA,68.57142857142857
20878,Montgomery County,MD,NA,38.77300613496932,NA
20901,Montgomery County,MD,96.35555555555555,NA,NA
21001,Harford County,MD,NA,89.57055214723927,NA
21074,Carroll County,MD,NA,78.8957055214724,NA
21075,Howard County,MD,NA,63.92638036809816,NA
21078,Harford County,MD,52.62222222222223,NA,NA
21113,Anne Arundel County,MD,34.57777777777778,NA,NA
21208,Baltimore County,MD,NA,NA,8.571428571428571
21209,Baltimore County,MD,NA,88.95705521472392,NA
21213,Baltimore city,MD,10.577777777777778,NA,NA
21215,Baltimore city,MD,NA,6.134969325153374,NA
21217,Baltimore city,MD,85.42222222222222,NA,NA
21218,Baltimore city,MD,4.533333333333333,NA,NA
21234,Baltimore County,MD,8,NA,NA
21401,Anne Arundel County,MD,NA,89.8159509202454,NA
21613,Dorchester County,MD,97.06666666666666,NA,NA
21619,Queen Anne's County,MD,NA,73.12883435582822,NA
21620,Kent County,MD,NA,38.65030674846626,NA
21776,Carroll County,MD,NA,91.53374233128835,NA
21787,Carroll County,MD,NA,NA,97.5
21791,Carroll County,MD,NA,84.29447852760737,NA
21793,Frederick County,MD,64.8,77.17791411042944,NA
21804,Wicomico County,MD,NA,NA,81.78571428571428
21811,Worcester County,MD,34.93333333333333,NA,85.71428571428571
21851,Worcester County,MD,75.55555555555556,NA,NA
21903,Cecil County,MD,NA,70.67484662576688,NA
01013,Hampden County,MA,NA,44.785276073619634,NA
01075,Hampshire County,MA,96.17777777777778,NA,NA
01104,Hampden County,MA,NA,NA,44.285714285714285
01107,Hampden County,MA,2.577777777777778,NA,NA
01109,Hampden County,MA,NA,79.14110429447852,53.92857142857142
01247,Berkshire County,MA,NA,38.895705521472394,NA
01453,Worcester County,MA,0.4444444444444444,NA,NA
01475,Worcester County,MA,14.844444444444443,NA,NA
01510,Worcester County,MA,31.644444444444442,7.730061349693251,NA
01532,Worcester County,MA,75.46666666666667,NA,NA
01603,Worcester County,MA,0.6222222222222222,NA,NA
01604,Worcester County,MA,0.35555555555555557,NA,NA
01606,Worcester County,MA,9.333333333333334,NA,NA
01730,Middlesex County,MA,NA,32.14723926380368,NA
01752,Middlesex County,MA,1.3333333333333335,NA,NA
01757,Worcester County,MA,6.755555555555555,NA,NA
01760,Middlesex County,MA,90.13333333333333,NA,NA
01801,Middlesex County,MA,NA,40.85889570552147,NA
01821,Middlesex County,MA,NA,10.061349693251534,NA
01863,Middlesex County,MA,32.53333333333333,NA,NA
01864,Middlesex County,MA,28.444444444444443,NA,NA
01876,Middlesex County,MA,2.933333333333333,NA,NA
01887,Middlesex County,MA,NA,NA,75
01905,Essex County,MA,NA,4.171779141104294,NA
01913,Essex County,MA,77.77777777777779,NA,NA
01940,Essex County,MA,NA,28.711656441717793,NA
02035,Norfolk County,MA,NA,14.846625766871165,NA
02038,Norfolk County,MA,5.955555555555556,NA,NA
02116,Suffolk County,MA,NA,56.44171779141104,NA
02118,Suffolk County,MA,NA,20.98159509202454,NA
02124,Suffolk County,MA,NA,NA,0.35714285714285715
02125,Suffolk County,MA,NA,18.89570552147239,NA
02127,Suffolk County,MA,20.8,NA,NA
02132,Suffolk County,MA,NA,39.87730061349693,NA
02150,Suffolk County,MA,1.9555555555555555,NA,NA
02151,Suffolk County,MA,0,NA,NA
02155,Middlesex County,MA,NA,0.1226993865030675,NA
02184,Norfolk County,MA,76.97777777777777,NA,NA
02301,Plymouth County,MA,NA,12.515337423312884,NA
02330,Plymouth County,MA,28.71111111111111,NA,NA
02346,Plymouth County,MA,NA,70.920245398773,NA
02356,Bristol County,MA,49.51111111111111,41.47239263803681,NA
02368,Norfolk County,MA,NA,NA,13.571428571428571
02375,Bristol County,MA,33.51111111111111,NA,NA
02451,Middlesex County,MA,13.866666666666665,NA,NA
02467,Norfolk County,MA,NA,42.69938650306748,NA
02476,Middlesex County,MA,21.422222222222224,NA,NA
02478,Middlesex County,MA,94.66666666666667,NA,NA
02568,Dukes County,MA,NA,25.766871165644172,NA
02720,Bristol County,MA,0.08888888888888889,NA,NA
02777,Bristol County,MA,3.3777777777777773,NA,NA
02780,Bristol County,MA,0.17777777777777778,NA,NA
48009,Oakland County,MI,31.022222222222222,NA,NA
48021,Macomb County,MI,NA,72.02453987730061,NA
48030,Oakland County,MI,NA,81.59509202453987,NA
48035,Macomb County,MI,4.355555555555555,6.012269938650307,NA
48045,Macomb County,MI,NA,10.920245398773005,NA
48049,St. Clair County,MI,82.4888888888889,NA,NA
48065,Macomb County,MI,NA,96.56441717791411,NA
48066,Macomb County,MI,NA,4.539877300613497,NA
48074,St. Clair County,MI,97.6,NA,NA
48080,Macomb County,MI,20.266666666666666,NA,NA
48081,Macomb County,MI,NA,14.969325153374232,NA
48082,Macomb County,MI,50.577777777777776,NA,NA
48092,Macomb County,MI,NA,51.533742331288344,NA
48103,Washtenaw County,MI,6.933333333333333,0.36809815950920244,NA
48104,Washtenaw County,MI,NA,47.11656441717791,NA
48105,Washtenaw County,MI,NA,9.815950920245399,NA
48111,Wayne County,MI,16,20.245398773006134,NA
48118,Washtenaw County,MI,NA,66.0122699386503,NA
48122,Wayne County,MI,32.97777777777778,NA,NA
48125,Wayne County,MI,12.8,NA,NA
48154,Wayne County,MI,NA,4.049079754601228,NA
48165,Oakland County,MI,94.31111111111112,NA,NA
48166,Monroe County,MI,NA,NA,71.78571428571429
48167,Oakland County,MI,45.86666666666667,NA,NA
48173,Wayne County,MI,68.62222222222222,NA,NA
48174,Wayne County,MI,NA,89.4478527607362,NA
48176,Washtenaw County,MI,66.57777777777778,NA,82.14285714285714
48180,Wayne County,MI,NA,0.7361963190184049,12.857142857142856
48185,Wayne County,MI,2.2222222222222223,NA,NA
48186,Wayne County,MI,14.666666666666666,NA,NA
48188,Wayne County,MI,72.53333333333333,NA,NA
48193,Wayne County,MI,32.62222222222223,NA,NA
48197,Washtenaw County,MI,0.8888888888888888,NA,NA
48198,Washtenaw County,MI,NA,8.83435582822086,NA
48202,Wayne County,MI,16.71111111111111,NA,NA
48204,Wayne County,MI,NA,NA,21.428571428571427
48205,Wayne County,MI,22.488888888888887,NA,NA
48212,Wayne County,MI,NA,96.44171779141104,NA
48219,Wayne County,MI,2.1333333333333333,1.4723926380368098,NA
48227,Wayne County,MI,9.422222222222222,NA,NA
48234,Wayne County,MI,17.51111111111111,83.43558282208589,NA
48235,Wayne County,MI,NA,36.56441717791411,NA
48236,Wayne County,MI,17.244444444444447,NA,NA
48237,Oakland County,MI,11.200000000000001,NA,NA
48238,Wayne County,MI,NA,11.16564417177914,NA
48239,Wayne County,MI,NA,6.38036809815951,NA
48307,Oakland County,MI,9.6,NA,NA
48329,Oakland County,MI,NA,51.16564417177914,NA
48342,Oakland County,MI,90.75555555555556,NA,NA
48348,Oakland County,MI,NA,27.23926380368098,NA
48371,Oakland County,MI,NA,NA,47.14285714285714
48382,Oakland County,MI,28.888888888888886,NA,NA
48412,Lapeer County,MI,NA,64.41717791411043,NA
48413,Huron County,MI,NA,31.779141104294478,NA
48444,Lapeer County,MI,NA,52.760736196319016,NA
48451,Genesee County,MI,NA,NA,68.21428571428572
48601,Saginaw County,MI,NA,37.668711656441715,NA
48603,Saginaw County,MI,5.511111111111111,NA,NA
48609,Saginaw County,MI,60.44444444444444,NA,NA
48612,Gladwin County,MI,38.22222222222222,NA,NA
48617,Clare County,MI,NA,72.88343558282209,NA
48622,Clare County,MI,98.13333333333333,NA,NA
48624,Gladwin County,MI,NA,NA,63.92857142857142
48650,Bay County,MI,NA,84.5398773006135,NA
48706,Bay County,MI,NA,NA,2.142857142857143
48723,Tuscola County,MI,NA,15.092024539877299,30.714285714285715
48843,Livingston County,MI,59.644444444444446,NA,NA
48883,Isabella County,MI,NA,42.331288343558285,NA
48911,Ingham County,MI,78.3111111111111,NA,NA
48917,Eaton County,MI,3.822222222222222,NA,NA
49001,Kalamazoo County,MI,54.93333333333334,NA,NA
49006,Kalamazoo County,MI,NA,NA,46.07142857142857
49007,Kalamazoo County,MI,58.31111111111112,NA,NA
49024,Kalamazoo County,MI,58.666666666666664,NA,NA
49079,Van Buren County,MI,NA,NA,47.5
49093,St. Joseph County,MI,39.733333333333334,NA,NA
49201,Jackson County,MI,NA,78.77300613496932,NA
49285,Ingham County,MI,NA,53.987730061349694,NA
49307,Mecosta County,MI,31.2,NA,NA
49323,Allegan County,MI,59.02222222222222,NA,NA
49331,Kent County,MI,NA,26.25766871165644,NA
49343,Kent County,MI,65.95555555555556,NA,NA
49415,Muskegon County,MI,84.88888888888889,NA,NA
49426,Ottawa County,MI,NA,22.57668711656442,NA
49442,Muskegon County,MI,NA,NA,4.285714285714286
49505,Kent County,MI,NA,15.337423312883436,NA
49548,Kent County,MI,29.688888888888886,NA,NA
49668,Wexford County,MI,98.75555555555555,NA,NA
49686,Grand Traverse County,MI,70.31111111111112,NA,NA
49801,Dickinson County,MI,NA,24.662576687116562,NA
49829,Delta County,MI,89.15555555555555,NA,NA
55025,Washington County,MN,56.44444444444444,NA,NA
55033,Dakota County,MN,39.644444444444446,NA,NA
55060,Steele County,MN,NA,NA,37.142857142857146
55079,Chisago County,MN,54.666666666666664,NA,NA
55082,Washington County,MN,18.755555555555556,NA,NA
55104,Ramsey County,MN,56.35555555555556,NA,NA
55118,Dakota County,MN,NA,25.644171779141107,NA
55130,Ramsey County,MN,NA,54.84662576687117,NA
55362,Wright County,MN,NA,NA,67.85714285714286
55369,Hennepin County,MN,73.33333333333333,NA,NA
55417,Hennepin County,MN,29.15555555555556,NA,NA
55427,Hennepin County,MN,NA,NA,95.35714285714286
55432,Anoka County,MN,12.977777777777778,NA,NA
55438,Hennepin County,MN,NA,99.38650306748467,NA
55446,Hennepin County,MN,56.8,NA,NA
55720,Carlton County,MN,71.73333333333333,NA,NA
55731,St. Louis County,MN,NA,100,NA
55912,Mower County,MN,NA,2.208588957055215,NA
56401,Crow Wing County,MN,NA,NA,3.214285714285714
56470,Hubbard County,MN,42.577777777777776,NA,NA
56529,Clay County,MN,62.75555555555555,NA,NA
56721,Polk County,MN,87.64444444444445,NA,NA
38632,DeSoto County,MS,NA,64.29447852760735,NA
38635,Marshall County,MS,97.77777777777777,NA,NA
38663,Tippah County,MS,NA,71.65644171779141,NA
38676,Tunica County,MS,NA,NA,85
38683,Tippah County,MS,44.355555555555554,NA,NA
38701,Washington County,MS,80.80000000000001,NA,NA
38967,Montgomery County,MS,NA,NA,70.35714285714286
39074,Scott County,MS,21.688888888888886,NA,NA
39120,Adams County,MS,83.46666666666667,NA,NA
39183,Warren County,MS,NA,58.282208588957054,NA
39350,Neshoba County,MS,NA,88.46625766871166,NA
39426,Pearl River County,MS,NA,24.539877300613497,NA
39466,Pearl River County,MS,NA,11.533742331288344,NA
39503,Harrison County,MS,34.84444444444444,NA,NA
39563,Jackson County,MS,29.06666666666667,NA,NA
39648,Pike County,MS,NA,84.04907975460122,NA
39773,Clay County,MS,NA,64.78527607361964,NA
63011,St. Louis County,MO,76.53333333333333,NA,NA
63028,Jefferson County,MO,NA,14.355828220858896,NA
63031,St. Louis County,MO,42.48888888888889,NA,NA
63052,Jefferson County,MO,NA,37.05521472392638,NA
63070,Jefferson County,MO,70.66666666666667,NA,NA
63074,St. Louis County,MO,60.17777777777778,NA,NA
63106,St. Louis city,MO,NA,50.79754601226993,NA
63110,St. Louis city,MO,72.08888888888889,NA,NA
63116,St. Louis city,MO,82.39999999999999,NA,NA
63121,St. Louis County,MO,NA,54.969325153374236,NA
63136,St. Louis County,MO,57.06666666666666,NA,NA
63137,St. Louis County,MO,NA,NA,95.71428571428572
63147,St. Louis city,MO,NA,85.88957055214725,NA
63390,Warren County,MO,67.37777777777778,NA,NA
63703,Cape Girardeau County,MO,NA,50.061349693251536,NA
63775,Perry County,MO,20.622222222222224,78.40490797546012,NA
63834,Mississippi County,MO,77.42222222222223,NA,NA
63857,Dunklin County,MO,NA,31.28834355828221,NA
63863,Dunklin County,MO,NA,93.49693251533743,NA
63901,Butler County,MO,NA,14.23312883435583,NA
64012,Cass County,MO,14.933333333333335,88.83435582822085,NA
64024,Clay County,MO,9.511111111111111,NA,NA
64030,Jackson County,MO,NA,NA,29.642857142857142
64054,Jackson County,MO,NA,88.58895705521472,NA
64056,Jackson County,MO,NA,NA,67.14285714285714
64068,Clay County,MO,18.4,NA,NA
64076,Lafayette County,MO,NA,NA,63.57142857142857
64078,Cass County,MO,43.111111111111114,NA,NA
64081,Jackson County,MO,NA,NA,80
64083,Cass County,MO,43.46666666666666,NA,38.57142857142858
64116,Clay County,MO,67.91111111111111,NA,NA
64118,Clay County,MO,NA,22.208588957055213,NA
64127,Jackson County,MO,NA,NA,79.64285714285714
64130,Jackson County,MO,15.37777777777778,NA,NA
64133,Jackson County,MO,22.844444444444445,83.8036809815951,NA
64134,Jackson County,MO,54.84444444444444,NA,NA
64150,Platte County,MO,NA,70.79754601226995,NA
64157,Clay County,MO,82.13333333333334,NA,NA
64468,Nodaway County,MO,62.66666666666667,NA,NA
64506,Buchanan County,MO,74.3111111111111,66.87116564417178,NA
64601,Livingston County,MO,28.799999999999997,NA,NA
64683,Grundy County,MO,NA,77.54601226993864,NA
64804,Jasper County,MO,8.799999999999999,NA,NA
65203,Boone County,MO,NA,NA,40.714285714285715
65233,Cooper County,MO,72.71111111111111,NA,NA
65791,Oregon County,MO,72.62222222222222,NA,NA
65803,Greene County,MO,NA,26.748466257668714,NA
59101,Yellowstone County,MT,NA,14.723926380368098,NA
59401,Cascade County,MT,NA,44.417177914110425,NA
59405,Cascade County,MT,16.08888888888889,NA,NA
59457,Fergus County,MT,NA,55.21472392638037,NA
59501,Hill County,MT,NA,NA,82.5
59718,Gallatin County,MT,19.822222222222223,61.22699386503068,NA
59901,Flathead County,MT,NA,68.22085889570552,NA
59923,Lincoln County,MT,NA,68.46625766871166,NA
68066,Saunders County,NE,NA,99.75460122699387,NA
68104,Douglas County,NE,NA,NA,34.64285714285714
68502,Lancaster County,NE,NA,48.83435582822086,NA
68801,Hall County,NE,NA,45.88957055214724,NA
68803,Hall County,NE,NA,NA,41.42857142857143
68901,Adams County,NE,NA,NA,93.57142857142857
69001,Red Willow County,NE,75.37777777777778,NA,NA
69162,Cheyenne County,NE,84.71111111111111,NA,NA
69361,Scotts Bluff County,NE,NA,40.24539877300614,NA
89101,Clark County,NV,NA,82.82208588957054,NA
89103,Clark County,NV,NA,NA,84.28571428571429
89106,Clark County,NV,79.37777777777778,NA,NA
89122,Clark County,NV,13.955555555555554,29.20245398773006,NA
89123,Clark County,NV,NA,20.368098159509202,NA
89134,Clark County,NV,NA,NA,8.214285714285714
89142,Clark County,NV,41.51111111111111,NA,NA
89144,Clark County,NV,73.42222222222222,60.24539877300613,NA
89146,Clark County,NV,54.48888888888889,NA,NA
89156,Clark County,NV,63.11111111111111,NA,NA
89436,Washoe County,NV,NA,8.098159509202455,NA
89445,Humboldt County,NV,NA,NA,98.21428571428571
89506,Washoe County,NV,NA,19.38650306748466,NA
89509,Washoe County,NV,29.51111111111111,NA,NA
89511,Washoe County,NV,NA,17.05521472392638,NA
89521,Washoe County,NV,52.355555555555554,NA,NA
03063,Hillsborough County,NH,73.51111111111112,NA,NA
03102,Hillsborough County,NH,NA,10.30674846625767,NA
03235,Merrimack County,NH,NA,46.13496932515338,NA
03246,Belknap County,NH,NA,NA,12.142857142857142
03773,Sullivan County,NH,88.97777777777777,NA,NA
03818,Carroll County,NH,92.17777777777778,NA,NA
03825,Strafford County,NH,53.333333333333336,NA,NA
07002,Hudson County,NJ,43.37777777777777,NA,NA
07003,Essex County,NJ,NA,16.687116564417177,NA
07010,Bergen County,NJ,NA,41.104294478527606,NA
07011,Passaic County,NJ,67.46666666666667,NA,NA
07013,Passaic County,NJ,71.91111111111111,NA,NA
07017,Essex County,NJ,NA,10.552147239263803,NA
07032,Hudson County,NJ,NA,NA,48.214285714285715
07047,Hudson County,NJ,NA,8.220858895705522,NA
07050,Essex County,NJ,96.26666666666667,NA,NA
07055,Passaic County,NJ,12.355555555555556,1.5950920245398774,NA
07067,Middlesex County,NJ,86.13333333333333,NA,NA
07083,Union County,NJ,NA,17.42331288343558,NA
07090,Union County,NJ,80,NA,NA
07095,Middlesex County,NJ,87.46666666666667,NA,NA
07107,Essex County,NJ,NA,31.533742331288344,NA
07111,Essex County,NJ,94.22222222222221,NA,NA
07112,Essex County,NJ,47.55555555555556,NA,NA
07202,Union County,NJ,NA,74.23312883435584,NA
07203,Union County,NJ,NA,99.87730061349693,NA
07208,Union County,NJ,24.977777777777778,NA,NA
07304,Hudson County,NJ,NA,NA,28.92857142857143
07305,Hudson County,NJ,NA,0.98159509202454,NA
07306,Hudson County,NJ,85.06666666666666,NA,NA
07407,Bergen County,NJ,NA,36.441717791411044,NA
07416,Sussex County,NJ,78.57777777777778,NA,NA
07470,Passaic County,NJ,NA,2.331288343558282,NA
07502,Passaic County,NJ,NA,47.97546012269939,NA
07605,Bergen County,NJ,81.86666666666666,NA,NA
07720,Monmouth County,NJ,NA,74.84662576687117,NA
07751,Monmouth County,NJ,63.37777777777778,85.6441717791411,NA
07753,Monmouth County,NJ,NA,5.889570552147239,NA
07760,Monmouth County,NJ,NA,66.50306748466258,NA
07834,Morris County,NJ,NA,68.71165644171779,NA
07836,Morris County,NJ,55.111111111111114,NA,NA
07860,Sussex County,NJ,36.8,NA,NA
07866,Morris County,NJ,62.22222222222222,NA,NA
07885,Morris County,NJ,95.82222222222222,NA,NA
08002,Camden County,NJ,55.37777777777778,26.380368098159508,NA
08004,Camden County,NJ,NA,71.16564417177914,NA
08033,Camden County,NJ,NA,92.63803680981594,NA
08043,Camden County,NJ,68.08888888888889,NA,NA
08050,Ocean County,NJ,NA,20.12269938650307,NA
08054,Burlington County,NJ,13.42222222222222,NA,NA
08075,Burlington County,NJ,6.666666666666667,NA,NA
08077,Burlington County,NJ,NA,40.736196319018404,NA
08079,Salem County,NJ,91.82222222222222,NA,NA
08085,Gloucester County,NJ,13.155555555555557,NA,NA
08098,Salem County,NJ,24.711111111111112,NA,NA
08103,Camden County,NJ,NA,12.63803680981595,NA
08230,Cape May County,NJ,97.86666666666667,NA,NA
08232,Atlantic County,NJ,NA,87.11656441717791,NA
08260,Cape May County,NJ,17.42222222222222,NA,NA
08332,Cumberland County,NJ,NA,NA,30
08360,Cumberland County,NJ,79.82222222222222,NA,NA
08361,Cumberland County,NJ,NA,28.957055214723926,NA
08401,Atlantic County,NJ,NA,44.9079754601227,NA
08502,Somerset County,NJ,82.4888888888889,NA,NA
08505,Burlington County,NJ,NA,94.3558282208589,NA
08618,Mercer County,NJ,9.244444444444444,NA,NA
08628,Mercer County,NJ,NA,55.4601226993865,NA
08690,Mercer County,NJ,NA,NA,78.92857142857143
08731,Ocean County,NJ,NA,29.07975460122699,NA
08753,Ocean County,NJ,26.84444444444444,2.6993865030674846,NA
08817,Middlesex County,NJ,NA,52.26993865030675,NA
08857,Middlesex County,NJ,40.8,NA,NA
08879,Middlesex County,NJ,88,NA,NA
08882,Middlesex County,NJ,37.6,NA,NA
87031,Valencia County,NM,70.22222222222221,NA,NA
87043,Sandoval County,NM,NA,NA,92.85714285714286
87048,Sandoval County,NM,NA,86.87116564417178,NA
87105,Bernalillo County,NM,61.6,NA,NA
87120,Bernalillo County,NM,42.31111111111111,NA,NA
87124,Sandoval County,NM,NA,68.83435582822086,NA
87571,Taos County,NM,33.955555555555556,NA,NA
88101,Curry County,NM,64.17777777777778,NA,NA
88203,Chaves County,NM,53.68888888888888,NA,NA
88220,Eddy County,NM,11.644444444444444,NA,NA
88310,Otero County,NM,NA,28.588957055214724,NA
10014,New York County,NY,93.86666666666666,NA,NA
10024,New York County,NY,NA,74.7239263803681,NA
10027,New York County,NY,NA,NA,17.5
10031,New York County,NY,77.5111111111111,10.184049079754601,NA
10033,New York County,NY,NA,NA,8.928571428571429
10035,New York County,NY,NA,4.785276073619632,NA
10036,New York County,NY,78.48888888888888,NA,NA
10040,New York County,NY,NA,NA,51.78571428571429
10065,New York County,NY,NA,39.14110429447853,NA
10304,Richmond County,NY,48.17777777777778,13.12883435582822,NA
10305,Richmond County,NY,53.15555555555556,NA,NA
10452,Bronx County,NY,0.26666666666666666,NA,NA
10453,Bronx County,NY,NA,4.41717791411043,NA
10456,Bronx County,NY,NA,51.288343558282214,NA
10457,Bronx County,NY,81.24444444444444,NA,NA
10458,Bronx County,NY,33.6,NA,NA
10461,Bronx County,NY,NA,57.423312883435585,NA
10463,Bronx County,NY,NA,15.58282208588957,NA
10467,Bronx County,NY,24.53333333333333,79.87730061349694,NA
10469,Bronx County,NY,37.333333333333336,NA,NA
10473,Bronx County,NY,NA,3.4355828220858897,NA
10475,Bronx County,NY,NA,NA,86.07142857142858
10701,Westchester County,NY,58.22222222222222,NA,NA
10703,Westchester County,NY,20.977777777777778,NA,NA
10940,Orange County,NY,8.177777777777779,NA,NA
10956,Rockland County,NY,54.57777777777778,NA,NA
10960,Rockland County,NY,59.73333333333334,NA,NA
10970,Rockland County,NY,98.93333333333332,NA,NA
10977,Rockland County,NY,81.6,NA,NA
11021,Nassau County,NY,NA,NA,39.285714285714285
11103,Queens County,NY,45.77777777777778,40.61349693251534,NA
11201,Kings County,NY,32.44444444444444,NA,NA
11203,Kings County,NY,4.0888888888888895,NA,NA
11207,Kings County,NY,34.22222222222222,91.77914110429448,NA
11208,Kings County,NY,88.08888888888889,63.558282208588956,NA
11209,Kings County,NY,NA,34.47852760736196,NA
11212,Kings County,NY,NA,0.245398773006135,NA
11224,Kings County,NY,NA,NA,10
11225,Kings County,NY,NA,NA,86.78571428571429
11229,Kings County,NY,NA,50.42944785276073,NA
11230,Kings County,NY,NA,24.171779141104295,NA
11233,Kings County,NY,NA,7.484662576687116,NA
11234,Kings County,NY,NA,7.6073619631901845,NA
11236,Kings County,NY,NA,36.31901840490798,23.92857142857143
11237,Kings County,NY,47.28888888888889,NA,NA
11238,Kings County,NY,NA,NA,27.142857142857142
11249,Kings County,NY,98.31111111111112,NA,NA
11354,Queens County,NY,NA,57.79141104294479,95
11355,Queens County,NY,15.11111111111111,NA,37.5
11368,Queens County,NY,NA,11.901840490797547,NA
11372,Queens County,NY,NA,65.6441717791411,NA
11385,Queens County,NY,NA,NA,24.285714285714285
11412,Queens County,NY,NA,79.38650306748465,NA
11414,Queens County,NY,NA,NA,79.28571428571428
11418,Queens County,NY,NA,NA,31.785714285714285
11419,Queens County,NY,NA,NA,69.64285714285714
11428,Queens County,NY,NA,NA,90
11432,Queens County,NY,58.48888888888889,NA,NA
11433,Queens County,NY,NA,18.282208588957054,NA
11520,Nassau County,NY,53.955555555555556,NA,NA
11550,Nassau County,NY,NA,NA,22.857142857142858
11553,Nassau County,NY,NA,44.04907975460123,NA
11572,Nassau County,NY,NA,41.717791411042946,NA
11596,Nassau County,NY,98.22222222222223,NA,NA
11691,Queens County,NY,NA,47.239263803680984,NA
11703,Suffolk County,NY,NA,80,NA
11704,Suffolk County,NY,NA,29.447852760736197,NA
11710,Nassau County,NY,NA,36.93251533742331,NA
11717,Suffolk County,NY,NA,54.233128834355824,NA
11720,Suffolk County,NY,NA,95.8282208588957,NA
11743,Suffolk County,NY,48.53333333333333,NA,NA
11772,Suffolk County,NY,53.6,15.460122699386503,NA
11778,Suffolk County,NY,NA,NA,66.42857142857143
11787,Suffolk County,NY,NA,21.96319018404908,NA
11949,Suffolk County,NY,NA,NA,64.28571428571429
12019,Saratoga County,NY,50.22222222222222,NA,89.28571428571429
12025,Fulton County,NY,43.28888888888889,NA,NA
12401,Ulster County,NY,NA,NA,21.785714285714285
12701,Sullivan County,NY,25.77777777777778,NA,NA
12801,Warren County,NY,10.933333333333334,NA,NA
12866,Saratoga County,NY,NA,61.47239263803681,NA
12901,Clinton County,NY,NA,NA,22.5
12946,Essex County,NY,43.022222222222226,NA,NA
12992,Clinton County,NY,56.888888888888886,NA,NA
13027,Onondaga County,NY,NA,11.042944785276074,NA
13080,Onondaga County,NY,84.97777777777777,NA,NA
13090,Onondaga County,NY,NA,17.54601226993865,NA
13140,Cayuga County,NY,74.84444444444445,NA,NA
13146,Wayne County,NY,99.91111111111111,NA,NA
13204,Onondaga County,NY,22.577777777777776,NA,NA
13205,Onondaga County,NY,5.866666666666666,NA,NA
13212,Onondaga County,NY,17.244444444444447,NA,NA
13357,Herkimer County,NY,42.93333333333334,NA,NA
13402,Madison County,NY,NA,97.91411042944786,NA
13413,Oneida County,NY,NA,NA,16.785714285714285
13460,Chenango County,NY,81.77777777777779,NA,NA
13601,Jefferson County,NY,1.7777777777777777,NA,10.357142857142858
13733,Chenango County,NY,64.71111111111111,NA,NA
13760,Broome County,NY,71.28888888888889,NA,NA
13815,Chenango County,NY,25.15555555555555,NA,NA
13830,Chenango County,NY,NA,51.77914110429448,NA
13901,Broome County,NY,39.37777777777778,2.4539877300613497,NA
13905,Broome County,NY,5.422222222222222,NA,NA
14009,Wyoming County,NY,94.4888888888889,NA,NA
14031,Erie County,NY,75.1111111111111,NA,NA
14052,Erie County,NY,34.13333333333333,NA,NA
14094,Niagara County,NY,6.311111111111112,81.1042944785276,NA
14150,Erie County,NY,NA,56.687116564417174,NA
14207,Erie County,NY,30.75555555555556,86.25766871165645,NA
14208,Erie County,NY,15.822222222222221,NA,NA
14213,Erie County,NY,10.311111111111112,62.944785276073624,NA
14215,Erie County,NY,NA,NA,42.857142857142854
14218,Erie County,NY,10.133333333333333,NA,NA
14221,Erie County,NY,85.6,NA,NA
14222,Erie County,NY,NA,83.31288343558282,NA
14224,Erie County,NY,35.91111111111111,NA,NA
14411,Orleans County,NY,NA,74.47852760736197,NA
14420,Monroe County,NY,NA,35.95092024539877,NA
14433,Wayne County,NY,36,NA,NA
14468,Monroe County,NY,9.155555555555555,NA,NA
14469,Ontario County,NY,59.73333333333334,90.42944785276073,NA
14470,Orleans County,NY,NA,91.28834355828221,NA
14472,Monroe County,NY,NA,81.47239263803681,NA
14513,Wayne County,NY,91.2,NA,NA
14522,Wayne County,NY,NA,78.28220858895706,NA
14559,Monroe County,NY,5.066666666666666,NA,NA
14564,Ontario County,NY,NA,62.69938650306749,NA
14580,Monroe County,NY,33.86666666666667,NA,NA
14609,Monroe County,NY,2.0444444444444447,NA,NA
14611,Monroe County,NY,68.53333333333333,NA,NA
14612,Monroe County,NY,0.8,NA,NA
14621,Monroe County,NY,NA,1.1042944785276074,NA
14622,Monroe County,NY,34.31111111111111,NA,NA
14623,Monroe County,NY,8.622222222222224,NA,NA
14624,Monroe County,NY,7.822222222222222,NA,NA
14626,Monroe County,NY,63.55555555555556,NA,NA
14712,Chautauqua County,NY,100,NA,NA
14755,Cattaraugus County,NY,99.46666666666667,NA,NA
14760,Cattaraugus County,NY,56.08888888888889,NA,NA
14830,Steuben County,NY,NA,NA,32.142857142857146
14905,Chemung County,NY,94.75555555555556,NA,NA
27030,Surry County,NC,NA,10.429447852760736,NA
27055,Yadkin County,NC,NA,53.128834355828225,NA
27103,Forsyth County,NC,NA,5.153374233128835,NA
27105,Forsyth County,NC,0.9777777777777777,NA,NA
27106,Forsyth County,NC,NA,45.52147239263803,NA
27107,Forsyth County,NC,NA,1.96319018404908,NA
27127,Forsyth County,NC,NA,NA,58.92857142857143
27262,Guilford County,NC,NA,37.17791411042945,NA
27263,Randolph County,NC,NA,33.86503067484662,NA
27278,Orange County,NC,NA,59.14110429447853,NA
27292,Davidson County,NC,68.71111111111111,NA,NA
27332,Lee County,NC,NA,NA,36.42857142857142
27358,Guilford County,NC,NA,86.62576687116564,NA
27514,Orange County,NC,36.17777777777778,NA,NA
27520,Johnston County,NC,17.866666666666667,45.2760736196319,NA
27530,Wayne County,NC,NA,73.37423312883435,NA
27534,Wayne County,NC,19.377777777777776,NA,NA
27536,Vance County,NC,NA,57.668711656441715,NA
27537,Vance County,NC,NA,80.49079754601227,NA
27565,Granville County,NC,NA,33.74233128834356,NA
27573,Person County,NC,26.13333333333333,NA,NA
27587,Wake County,NC,45.68888888888889,NA,NA
27596,Franklin County,NC,40.71111111111111,NA,NA
27603,Wake County,NC,12.177777777777777,NA,NA
27604,Wake County,NC,54.400000000000006,NA,NA
27614,Wake County,NC,NA,72.39263803680981,NA
27707,Durham County,NC,NA,NA,80.71428571428572
27804,Nash County,NC,86.75555555555555,NA,NA
27864,Edgecombe County,NC,NA,NA,96.78571428571429
27892,Martin County,NC,NA,NA,76.42857142857142
27896,Wilson County,NC,53.24444444444445,NA,NA
27932,Chowan County,NC,NA,NA,26.785714285714285
27949,Dare County,NC,NA,54.72392638036809,NA
28001,Stanly County,NC,81.5111111111111,NA,NA
28052,Gaston County,NC,86.31111111111112,NA,NA
28079,Union County,NC,NA,93.37423312883436,NA
28105,Mecklenburg County,NC,58.577777777777776,NA,NA
28110,Union County,NC,NA,10.797546012269938,NA
28144,Rowan County,NC,NA,19.754601226993866,NA
28150,Cleveland County,NC,46.22222222222222,NA,NA
28152,Cleveland County,NC,21.066666666666666,NA,NA
28174,Union County,NC,NA,79.01840490797547,NA
28205,Mecklenburg County,NC,11.022222222222222,NA,NA
28206,Mecklenburg County,NC,NA,NA,61.42857142857143
28208,Mecklenburg County,NC,4,NA,NA
28212,Mecklenburg County,NC,68.35555555555555,58.65030674846625,NA
28214,Mecklenburg County,NC,NA,87.23926380368098,NA
28217,Mecklenburg County,NC,NA,65.52147239263803,NA
28227,Mecklenburg County,NC,11.11111111111111,76.1963190184049,NA
28269,Mecklenburg County,NC,NA,16.56441717791411,64.64285714285715
28311,Cumberland County,NC,35.82222222222222,NA,NA
28328,Sampson County,NC,NA,NA,26.071428571428573
28348,Cumberland County,NC,NA,NA,65.71428571428571
28360,Robeson County,NC,NA,92.39263803680981,NA
28372,Robeson County,NC,NA,62.57668711656442,NA
28398,Duplin County,NC,86.4888888888889,NA,NA
28412,New Hanover County,NC,NA,62.33128834355828,NA
28428,New Hanover County,NC,NA,67.48466257668711,NA
28433,Bladen County,NC,NA,70.06134969325153,NA
28457,Pender County,NC,46.84444444444444,NA,NA
28467,Brunswick County,NC,NA,40.98159509202454,NA
28472,Columbus County,NC,NA,26.625766871165645,NA
28501,Lenoir County,NC,84.08888888888889,NA,NA
28546,Onslow County,NC,14.044444444444446,NA,NA
28555,Onslow County,NC,79.11111111111111,NA,NA
28601,Catawba County,NC,25.422222222222224,NA,NA
28607,Watauga County,NC,NA,NA,31.071428571428573
28625,Iredell County,NC,28.17777777777778,NA,NA
28630,Caldwell County,NC,18.044444444444444,NA,NA
28677,Iredell County,NC,81.06666666666666,NA,NA
28681,Alexander County,NC,NA,23.803680981595093,NA
28712,Transylvania County,NC,NA,76.31901840490798,NA
28713,Swain County,NC,NA,77.05521472392638,NA
28722,Polk County,NC,76.35555555555555,NA,NA
28739,Henderson County,NC,NA,8.466257668711656,NA
28752,McDowell County,NC,7.733333333333333,NA,NA
28791,Henderson County,NC,NA,69.20245398773007,NA
28803,Buncombe County,NC,30.31111111111111,NA,NA
28906,Cherokee County,NC,NA,73.00613496932516,11.785714285714285
58104,Cass County,ND,NA,NA,2.5
58201,Grand Forks County,ND,17.066666666666666,NA,NA
58503,Burleigh County,ND,NA,NA,53.57142857142857
43004,Franklin County,OH,NA,37.79141104294478,NA
43050,Knox County,OH,NA,NA,71.42857142857143
43078,Champaign County,OH,41.77777777777778,NA,NA
43081,Franklin County,OH,46.488888888888894,6.748466257668712,NA
43113,Pickaway County,OH,61.33333333333333,26.993865030674847,NA
43123,Franklin County,OH,29.777777777777775,NA,7.857142857142857
43130,Fairfield County,OH,70.4888888888889,NA,NA
43207,Franklin County,OH,NA,45.766871165644176,NA
43214,Franklin County,OH,51.37777777777778,NA,NA
43224,Franklin County,OH,NA,NA,80.35714285714286
43228,Franklin County,OH,1.511111111111111,NA,NA
43231,Franklin County,OH,49.422222222222224,NA,NA
43232,Franklin County,OH,22.044444444444444,NA,NA
43235,Franklin County,OH,48.71111111111111,NA,NA
43311,Logan County,OH,16.62222222222222,NA,NA
43537,Lucas County,OH,15.555555555555555,NA,NA
43551,Wood County,OH,NA,3.8036809815950923,NA
43609,Lucas County,OH,NA,92.76073619631902,NA
43615,Lucas County,OH,80.88888888888889,NA,NA
43623,Lucas County,OH,NA,53.61963190184049,NA
43723,Guernsey County,OH,NA,56.31901840490797,NA
43725,Guernsey County,OH,6.844444444444445,NA,NA
43764,Perry County,OH,NA,46.25766871165644,NA
43812,Coshocton County,OH,42.84444444444445,NA,NA
43920,Columbiana County,OH,NA,6.5030674846625764,NA
43952,Jefferson County,OH,66.75555555555556,NA,83.92857142857143
43964,Jefferson County,OH,72.17777777777778,64.66257668711657,NA
44028,Lorain County,OH,60.266666666666666,NA,NA
44039,Lorain County,OH,30.577777777777776,NA,NA
44044,Lorain County,OH,NA,60,NA
44053,Lorain County,OH,86.4,NA,NA
44054,Lorain County,OH,80.26666666666667,NA,NA
44057,Lake County,OH,NA,56.07361963190184,NA
44060,Lake County,OH,15.822222222222221,NA,NA
44077,Lake County,OH,19.91111111111111,NA,NA
44090,Lorain County,OH,NA,78.52760736196319,NA
44107,Cuyahoga County,OH,0.7111111111111111,NA,NA
44108,Cuyahoga County,OH,NA,32.515337423312886,NA
44109,Cuyahoga County,OH,59.46666666666667,NA,NA
44111,Cuyahoga County,OH,NA,86.0122699386503,NA
44114,Cuyahoga County,OH,NA,63.68098159509202,NA
44118,Cuyahoga County,OH,87.2,NA,NA
44120,Cuyahoga County,OH,1.2444444444444445,NA,NA
44125,Cuyahoga County,OH,0.5333333333333333,NA,NA
44130,Cuyahoga County,OH,1.866666666666667,NA,NA
44135,Cuyahoga County,OH,9.066666666666666,NA,NA
44137,Cuyahoga County,OH,43.2,24.41717791411043,NA
44144,Cuyahoga County,OH,5.333333333333334,NA,NA
44146,Cuyahoga County,OH,2.7555555555555555,NA,NA
44221,Summit County,OH,6.577777777777778,NA,NA
44224,Summit County,OH,11.733333333333333,NA,NA
44301,Summit County,OH,16.8,NA,NA
44306,Summit County,OH,4.177777777777777,NA,NA
44314,Summit County,OH,14.31111111111111,64.9079754601227,NA
44405,Mahoning County,OH,NA,43.190184049079754,NA
44460,Columbiana County,OH,NA,4.785276073619632,NA
44515,Mahoning County,OH,4.444444444444445,26.012269938650306,NA
44647,Stark County,OH,29.333333333333332,NA,NA
44683,Tuscarawas County,OH,14.133333333333335,NA,NA
44820,Crawford County,OH,NA,96.31901840490798,NA
44824,Erie County,OH,NA,66.50306748466258,NA
44839,Erie County,OH,NA,77.30061349693251,NA
44870,Erie County,OH,92.26666666666667,72.51533742331289,NA
45002,Hamilton County,OH,72.26666666666667,NA,NA
45005,Warren County,OH,18.488888888888887,NA,NA
45011,Butler County,OH,7.199999999999999,NA,NA
45013,Butler County,OH,1.4222222222222223,NA,NA
45030,Hamilton County,OH,87.91111111111111,NA,NA
45067,Butler County,OH,NA,NA,98.57142857142858
45130,Brown County,OH,92.44444444444444,NA,NA
45157,Clermont County,OH,95.46666666666667,NA,NA
45205,Hamilton County,OH,62.133333333333326,NA,NA
45211,Hamilton County,OH,19.022222222222222,NA,NA
45216,Hamilton County,OH,NA,73.9877300613497,NA
45223,Hamilton County,OH,72.8,99.01840490797545,NA
45239,Hamilton County,OH,NA,66.13496932515336,NA
45341,Clark County,OH,NA,93.74233128834356,NA
45344,Clark County,OH,35.55555555555556,NA,NA
45417,Montgomery County,OH,3.644444444444445,NA,NA
45424,Montgomery County,OH,21.333333333333336,NA,NA
45439,Montgomery County,OH,30.488888888888887,NA,NA
45458,Montgomery County,OH,44.800000000000004,NA,NA
45503,Clark County,OH,NA,NA,7.142857142857142
45601,Ross County,OH,NA,26.134969325153374,NA
45614,Gallia County,OH,52,NA,NA
45638,Lawrence County,OH,12.622222222222224,NA,16.071428571428573
45660,Adams County,OH,67.28888888888889,NA,NA
45663,Scioto County,OH,75.82222222222222,NA,NA
45669,Lawrence County,OH,29.42222222222222,NA,NA
45690,Pike County,OH,8.71111111111111,NA,NA
45692,Jackson County,OH,NA,46.012269938650306,NA
45714,Washington County,OH,28.97777777777778,NA,NA
45750,Washington County,OH,53.86666666666666,NA,NA
45805,Allen County,OH,77.24444444444445,NA,NA
45840,Hancock County,OH,NA,1.3496932515337423,NA
45850,Allen County,OH,98.04444444444445,NA,NA
45891,Van Wert County,OH,16.266666666666666,NA,NA
73010,McClain County,OK,27.111111111111114,NA,NA
73045,Oklahoma County,OK,88.62222222222222,NA,NA
73068,Cleveland County,OK,NA,41.84049079754602,NA
73096,Custer County,OK,40.88888888888889,NA,NA
73099,Canadian County,OK,24.622222222222224,NA,NA
73107,Oklahoma County,OK,89.42222222222223,NA,NA
73129,Oklahoma County,OK,30.22222222222222,NA,NA
73439,Marshall County,OK,46.93333333333333,86.99386503067484,NA
73521,Jackson County,OK,NA,NA,88.57142857142857
73533,Stephens County,OK,NA,42.69938650306748,NA
73601,Custer County,OK,NA,82.08588957055215,NA
73651,Kiowa County,OK,NA,NA,96.07142857142857
73750,Kingfisher County,OK,85.6888888888889,52.760736196319016,NA
74017,Rogers County,OK,68.26666666666667,NA,NA
74039,Creek County,OK,79.46666666666667,NA,NA
74059,Payne County,OK,NA,61.59509202453988,NA
74110,Tulsa County,OK,NA,79.6319018404908,NA
74115,Tulsa County,OK,NA,NA,50.357142857142854
74434,Muskogee County,OK,89.68888888888888,NA,NA
74501,Pittsburg County,OK,80.35555555555555,NA,NA
74523,Pushmataha County,OK,89.60000000000001,NA,NA
74631,Kay County,OK,NA,79.75460122699386,NA
74745,McCurtain County,OK,40.266666666666666,NA,NA
74801,Pottawatomie County,OK,NA,15.70552147239264,NA
74859,Okfuskee County,OK,87.73333333333333,NA,NA
74864,Lincoln County,OK,90.04444444444445,NA,NA
74960,Adair County,OK,NA,NA,48.57142857142857
97016,Columbia County,OR,NA,67.48466257668711,NA
97027,Clackamas County,OR,NA,NA,74.28571428571429
97035,Clackamas County,OR,66.13333333333333,NA,NA
97086,Clackamas County,OR,32.17777777777778,NA,NA
97103,Clatsop County,OR,NA,88.09815950920246,NA
97124,Washington County,OR,14.755555555555555,NA,NA
97220,Multnomah County,OR,NA,55.828220858895705,NA
97221,Multnomah County,OR,NA,59.38650306748466,NA
97224,Washington County,OR,85.33333333333334,NA,NA
97225,Washington County,OR,NA,45.644171779141104,NA
97267,Clackamas County,OR,NA,23.31288343558282,NA
97301,Marion County,OR,NA,NA,97.85714285714285
97302,Marion County,OR,97.33333333333334,NA,NA
97321,Linn County,OR,82.93333333333334,NA,NA
97322,Linn County,OR,NA,NA,5.714285714285714
97370,Benton County,OR,NA,99.50920245398774,NA
97477,Lane County,OR,13.333333333333334,NA,NA
97501,Jackson County,OR,NA,7.116564417177915,NA
97526,Josephine County,OR,13.68888888888889,NA,NA
97603,Klamath County,OR,NA,3.190184049079755,NA
97702,Deschutes County,OR,90.48888888888888,NA,NA
97720,Harney County,OR,NA,NA,96.42857142857143
97756,Deschutes County,OR,77.86666666666666,NA,NA
97838,Umatilla County,OR,8.977777777777778,NA,NA
15024,Allegheny County,PA,78.13333333333333,NA,NA
15063,Washington County,PA,NA,68.58895705521473,NA
15066,Beaver County,PA,NA,NA,88.21428571428571
15068,Westmoreland County,PA,NA,NA,2.857142857142857
15201,Allegheny County,PA,NA,31.04294478527607,NA
15204,Allegheny County,PA,41.24444444444445,NA,NA
15205,Allegheny County,PA,NA,69.57055214723925,NA
15235,Allegheny County,PA,NA,10.67484662576687,NA
15241,Allegheny County,PA,48.355555555555554,NA,NA
15243,Allegheny County,PA,64.35555555555555,NA,NA
15301,Washington County,PA,2.488888888888889,2.8220858895705523,NA
15401,Fayette County,PA,NA,NA,5
15501,Somerset County,PA,NA,NA,33.92857142857143
15601,Westmoreland County,PA,1.6,NA,NA
15650,Westmoreland County,PA,NA,11.411042944785276,NA
15658,Westmoreland County,PA,NA,71.90184049079754,NA
15668,Westmoreland County,PA,NA,NA,77.14285714285715
15701,Indiana County,PA,11.555555555555555,NA,NA
15714,Cambria County,PA,53.77777777777778,NA,NA
15774,Indiana County,PA,97.15555555555555,NA,NA
15902,Cambria County,PA,83.91111111111111,NA,NA
16125,Mercer County,PA,64.88888888888889,NA,NA
16150,Mercer County,PA,NA,46.50306748466257,NA
16232,Clarion County,PA,NA,58.15950920245398,NA
16335,Crawford County,PA,35.288888888888884,NA,NA
16602,Blair County,PA,NA,NA,13.928571428571429
16652,Huntingdon County,PA,NA,NA,70
16870,Centre County,PA,NA,96.68711656441718,NA
17020,Perry County,PA,NA,93.61963190184049,NA
17067,Lebanon County,PA,NA,84.1717791411043,NA
17078,Lebanon County,PA,51.11111111111111,NA,NA
17112,Dauphin County,PA,NA,3.067484662576687,NA
17113,Dauphin County,PA,NA,33.25153374233129,NA
17201,Franklin County,PA,4.8,NA,NA
17202,Franklin County,PA,NA,11.779141104294478,NA
17268,Franklin County,PA,92,NA,NA
17327,York County,PA,86.04444444444445,NA,NA
17356,York County,PA,61.06666666666667,NA,NA
17360,York County,PA,NA,98.52760736196319,NA
17522,Lancaster County,PA,NA,NA,78.57142857142857
17724,Bradford County,PA,95.28888888888889,NA,NA
17745,Clinton County,PA,NA,27.73006134969325,NA
17801,Northumberland County,PA,31.644444444444442,NA,NA
17866,Northumberland County,PA,NA,98.77300613496932,NA
17872,Northumberland County,PA,46.044444444444444,NA,NA
18045,Northampton County,PA,NA,NA,6.785714285714286
18052,Lehigh County,PA,10.577777777777778,NA,NA
18104,Lehigh County,PA,25.333333333333336,NA,NA
18109,Lehigh County,PA,36.44444444444444,NA,NA
18224,Luzerne County,PA,69.06666666666666,NA,NA
18302,Monroe County,PA,95.73333333333333,NA,NA
18403,Lackawanna County,PA,99.2,NA,NA
18407,Lackawanna County,PA,50.13333333333333,NA,35.714285714285715
18433,Lackawanna County,PA,NA,76.68711656441718,NA
18504,Lackawanna County,PA,89.06666666666668,NA,NA
18612,Luzerne County,PA,NA,65.15337423312883,NA
18621,Luzerne County,PA,NA,77.91411042944786,NA
18704,Luzerne County,PA,8.088888888888889,28.098159509202453,NA
18901,Bucks County,PA,26.755555555555553,NA,NA
18951,Bucks County,PA,NA,12.024539877300613,NA
19013,Delaware County,PA,53.06666666666666,NA,NA
19015,Delaware County,PA,NA,97.54601226993866,70.71428571428572
19018,Delaware County,PA,NA,48.22085889570552,NA
19020,Bucks County,PA,NA,23.680981595092025,NA
19050,Delaware County,PA,38.4,NA,NA
19061,Delaware County,PA,NA,NA,40
19082,Delaware County,PA,68,NA,NA
19085,Delaware County,PA,NA,98.65030674846625,NA
19094,Delaware County,PA,69.77777777777779,NA,NA
19096,Montgomery County,PA,NA,49.693251533742334,NA
19104,Philadelphia County,PA,89.33333333333333,87.48466257668711,NA
19111,Philadelphia County,PA,NA,41.96319018404908,NA
19114,Philadelphia County,PA,30.4,NA,NA
19119,Philadelphia County,PA,NA,33.49693251533743,NA
19128,Philadelphia County,PA,30.133333333333333,NA,NA
19131,Philadelphia County,PA,NA,68.09815950920245,NA
19134,Philadelphia County,PA,NA,9.202453987730062,NA
19139,Philadelphia County,PA,50.044444444444444,66.38036809815951,NA
19140,Philadelphia County,PA,45.24444444444444,5.644171779141105,NA
19142,Philadelphia County,PA,NA,63.312883435582826,NA
19151,Philadelphia County,PA,6.133333333333333,NA,NA
19154,Philadelphia County,PA,56.97777777777778,NA,NA
19320,Chester County,PA,19.2,64.04907975460122,NA
19355,Chester County,PA,23.644444444444446,NA,36.78571428571429
19380,Chester County,PA,NA,NA,66.78571428571428
19401,Montgomery County,PA,NA,88.71165644171779,NA
19403,Montgomery County,PA,NA,3.3128834355828225,NA
19426,Montgomery County,PA,42.4,NA,NA
19428,Montgomery County,PA,49.86666666666667,NA,NA
19464,Montgomery County,PA,81.95555555555556,3.5582822085889574,NA
19473,Montgomery County,PA,85.77777777777777,NA,NA
19518,Berks County,PA,NA,33.987730061349694,NA
19604,Berks County,PA,73.6,NA,NA
02809,Bristol County,RI,35.644444444444446,NA,NA
02816,Kent County,RI,15.2,NA,NA
02830,Providence County,RI,NA,61.104294478527606,NA
02842,Newport County,RI,NA,32.63803680981595,NA
02871,Newport County,RI,NA,23.06748466257669,NA
02878,Newport County,RI,51.82222222222222,32.88343558282209,NA
02886,Kent County,RI,17.77777777777778,NA,4.642857142857143
02893,Kent County,RI,19.644444444444446,NA,NA
02895,Providence County,RI,23.288888888888888,NA,NA
02896,Providence County,RI,76.17777777777778,NA,NA
02904,Providence County,RI,18.31111111111111,NA,NA
02911,Providence County,RI,42.22222222222222,NA,NA
29150,Sumter County,SC,NA,16.441717791411044,NA
29223,Richland County,SC,NA,40.3680981595092,NA
29307,Spartanburg County,SC,60.08888888888889,NA,NA
29372,Spartanburg County,SC,69.6,NA,NA
29401,Charleston County,SC,NA,76.80981595092024,NA
29412,Charleston County,SC,41.6,NA,NA
29488,Colleton County,SC,NA,21.472392638036812,NA
29512,Marlboro County,SC,NA,78.15950920245399,NA
29556,Williamsburg County,SC,NA,68.34355828220859,NA
29576,Horry County,SC,24.8,NA,NA
29605,Greenville County,SC,NA,8.588957055214724,NA
29607,Greenville County,SC,NA,15.828220858895707,NA
29611,Greenville County,SC,NA,19.87730061349693,NA
29615,Greenville County,SC,NA,NA,81.07142857142857
29617,Greenville County,SC,20,NA,NA
29620,Abbeville County,SC,57.68888888888889,NA,NA
29621,Anderson County,SC,NA,63.80368098159509,NA
29624,Anderson County,SC,NA,32.39263803680982,NA
29644,Greenville County,SC,30.666666666666664,NA,NA
29684,Anderson County,SC,79.28888888888889,NA,NA
29706,Chester County,SC,18.666666666666668,NA,NA
29710,York County,SC,NA,29.69325153374233,NA
29720,Lancaster County,SC,7.022222222222223,NA,NA
29728,Chesterfield County,SC,72,NA,NA
29730,York County,SC,10.4,NA,NA
29745,York County,SC,NA,32.760736196319016,NA
29805,Aiken County,SC,86.93333333333332,NA,NA
29810,Allendale County,SC,NA,NA,72.5
29936,Jasper County,SC,NA,93.12883435582822,NA
57006,Brookings County,SD,39.82222222222222,NA,NA
57078,Yankton County,SD,43.91111111111111,NA,NA
57105,Minnehaha County,SD,NA,7.85276073619632,NA
57401,Brown County,SD,91.64444444444445,NA,NA
37040,Montgomery County,TN,13.51111111111111,NA,NA
37043,Montgomery County,TN,20.08888888888889,NA,NA
37049,Robertson County,TN,99.73333333333333,NA,NA
37066,Sumner County,TN,NA,23.558282208588956,NA
37076,Davidson County,TN,NA,19.631901840490798,NA
37115,Davidson County,TN,77.60000000000001,NA,NA
37128,Rutherford County,TN,NA,87.60736196319019,NA
37129,Rutherford County,TN,NA,55.70552147239264,NA
37148,Sumner County,TN,NA,27.116564417177912,NA
37166,DeKalb County,TN,57.77777777777777,NA,NA
37186,Sumner County,TN,72.35555555555555,NA,NA
37207,Davidson County,TN,NA,NA,73.92857142857143
37208,Davidson County,TN,NA,40.12269938650307,NA
37303,McMinn County,TN,12.444444444444445,NA,NA
37312,Bradley County,TN,24.355555555555554,NA,NA
37343,Hamilton County,TN,12.711111111111112,NA,NA
37347,Marion County,TN,51.733333333333334,NA,NA
37367,Bledsoe County,TN,40.08888888888889,NA,NA
37398,Franklin County,TN,68.97777777777779,NA,NA
37645,Hawkins County,TN,68.17777777777778,NA,NA
37714,Campbell County,TN,76.35555555555555,NA,NA
37716,Anderson County,TN,93.95555555555556,NA,NA
37804,Blount County,TN,15.555555555555555,NA,NA
37826,McMinn County,TN,52.71111111111111,NA,NA
37846,Loudon County,TN,90.22222222222223,NA,NA
37879,Claiborne County,TN,31.288888888888888,NA,NA
37914,Knox County,TN,NA,94.7239263803681,NA
37923,Knox County,TN,31.11111111111111,NA,NA
38017,Shelby County,TN,NA,55.582822085889575,NA
38104,Shelby County,TN,NA,47.607361963190186,NA
38108,Shelby County,TN,66.3111111111111,NA,NA
38114,Shelby County,TN,12.533333333333333,NA,NA
38116,Shelby County,TN,52.26666666666666,NA,NA
38133,Shelby County,TN,50.3111111111111,NA,NA
38138,Shelby County,TN,NA,94.23312883435582,NA
38242,Henry County,TN,27.644444444444442,NA,NA
38344,Carroll County,TN,46.13333333333333,NA,NA
38351,Henderson County,TN,NA,NA,56.42857142857143
38375,McNairy County,TN,56.177777777777784,NA,NA
38401,Maury County,TN,NA,21.226993865030675,NA
38449,Giles County,TN,86.84444444444445,NA,NA
38464,Lawrence County,TN,17.599999999999998,NA,NA
38478,Giles County,TN,NA,NA,46.42857142857143
38501,Putnam County,TN,NA,12.147239263803682,NA
38556,Fentress County,TN,NA,50.306748466257666,NA
75060,Dallas County,TX,NA,NA,51.07142857142857
75061,Dallas County,TX,71.64444444444445,NA,NA
75062,Dallas County,TX,NA,20,NA
75067,Denton County,TX,54.22222222222223,NA,56.07142857142857
75081,Dallas County,TX,44.17777777777778,NA,NA
75082,Collin County,TX,NA,25.2760736196319,NA
75119,Ellis County,TX,32.711111111111116,NA,NA
75149,Dallas County,TX,9.955555555555556,NA,NA
75154,Ellis County,TX,90.4,NA,NA
75181,Dallas County,TX,32.266666666666666,NA,NA
75211,Dallas County,TX,NA,13.742331288343559,NA
75215,Dallas County,TX,15.288888888888888,NA,NA
75228,Dallas County,TX,2.666666666666667,NA,NA
75231,Dallas County,TX,NA,41.59509202453987,NA
75232,Dallas County,TX,48.8,NA,NA
75236,Dallas County,TX,39.111111111111114,NA,NA
75249,Dallas County,TX,44.44444444444444,NA,NA
75287,Denton County,TX,45.955555555555556,NA,NA
75501,Bowie County,TX,NA,13.987730061349692,NA
75639,Panola County,TX,93.06666666666666,NA,NA
75684,Rusk County,TX,73.95555555555555,NA,NA
75751,Henderson County,TX,27.200000000000003,NA,NA
75771,Smith County,TX,32.88888888888889,NA,NA
75901,Angelina County,TX,88.53333333333333,NA,NA
75935,Shelby County,TX,NA,80.3680981595092,NA
75941,Angelina County,TX,NA,83.19018404907975,NA
75948,Sabine County,TX,NA,52.51533742331288,NA
75961,Nacogdoches County,TX,72.97777777777777,NA,NA
75966,Newton County,TX,79.46666666666667,NA,NA
76014,Tarrant County,TX,NA,90.1840490797546,NA
76018,Tarrant County,TX,57.599999999999994,NA,NA
76028,Johnson County,TX,22.133333333333333,NA,NA
76031,Johnson County,TX,62.3111111111111,NA,NA
76033,Johnson County,TX,43.46666666666666,NA,NA
76082,Parker County,TX,NA,65.03067484662577,NA
76106,Tarrant County,TX,27.73333333333333,NA,NA
76108,Tarrant County,TX,58.13333333333334,NA,NA
76112,Tarrant County,TX,NA,9.447852760736195,NA
76115,Tarrant County,TX,NA,48.34355828220859,NA
76116,Tarrant County,TX,NA,8.957055214723926,NA
76120,Tarrant County,TX,NA,82.69938650306749,NA
76123,Tarrant County,TX,93.33333333333333,NA,NA
76134,Tarrant County,TX,14.57777777777778,NA,NA
76179,Tarrant County,TX,NA,20.61349693251534,NA
76227,Denton County,TX,41.15555555555556,NA,NA
76301,Wichita County,TX,74.66666666666667,NA,NA
76384,Wilbarger County,TX,69.5111111111111,NA,NA
76541,Bell County,TX,84.8,NA,NA
76542,Bell County,TX,6.488888888888889,NA,NA
76567,Milam County,TX,60.355555555555554,NA,NA
76706,McLennan County,TX,63.733333333333334,NA,NA
76821,Runnels County,TX,NA,66.74846625766871,NA
77005,Harris County,TX,66.84444444444443,NA,NA
77014,Harris County,TX,NA,NA,77.85714285714286
77018,Harris County,TX,NA,93.86503067484662,NA
77022,Harris County,TX,NA,95.95092024539878,NA
77024,Harris County,TX,86.22222222222223,49.938650306748464,NA
77026,Harris County,TX,95.02222222222223,NA,NA
77027,Harris County,TX,57.86666666666667,NA,NA
77028,Harris County,TX,NA,42.69938650306748,NA
77035,Harris County,TX,NA,31.16564417177914,NA
77039,Harris County,TX,95.37777777777777,NA,NA
77043,Harris County,TX,NA,53.25153374233129,NA
77045,Harris County,TX,35.199999999999996,NA,NA
77051,Harris County,TX,65.77777777777779,NA,NA
77059,Harris County,TX,73.6888888888889,NA,NA
77065,Harris County,TX,89.24444444444445,NA,NA
77066,Harris County,TX,NA,70.30674846625767,NA
77072,Harris County,TX,NA,NA,60.71428571428571
77075,Harris County,TX,NA,96.07361963190183,NA
77077,Harris County,TX,NA,44.171779141104295,NA
77078,Harris County,TX,NA,92.14723926380368,NA
77079,Harris County,TX,NA,NA,62.5
77087,Harris County,TX,NA,34.7239263803681,NA
77088,Harris County,TX,NA,58.40490797546012,NA
77354,Montgomery County,TX,63.82222222222222,NA,NA
77356,Montgomery County,TX,NA,NA,92.5
77362,Montgomery County,TX,74.4888888888889,NA,NA
77373,Harris County,TX,38.666666666666664,NA,NA
77385,Montgomery County,TX,83.02222222222223,NA,NA
77386,Montgomery County,TX,63.2,NA,NA
77388,Harris County,TX,NA,71.77914110429448,NA
77414,Matagorda County,TX,94.04444444444444,NA,NA
77477,Fort Bend County,TX,33.42222222222222,NA,NA
77479,Fort Bend County,TX,90.57777777777778,NA,NA
77506,Harris County,TX,NA,76.56441717791411,NA
77510,Galveston County,TX,40,NA,NA
77520,Harris County,TX,80.53333333333333,NA,NA
77530,Harris County,TX,67.2,NA,NA
77541,Brazoria County,TX,NA,34.84662576687116,NA
77546,Galveston County,TX,NA,7.2392638036809815,NA
77563,Galveston County,TX,NA,NA,39.64285714285714
77584,Brazoria County,TX,4.711111111111111,NA,27.500000000000004
77586,Harris County,TX,51.46666666666667,NA,NA
77625,Hardin County,TX,NA,54.47852760736196,NA
77632,Orange County,TX,NA,91.16564417177914,NA
77656,Hardin County,TX,34.4,NA,NA
77662,Orange County,TX,25.866666666666667,NA,NA
77705,Jefferson County,TX,60.88888888888889,NA,NA
77845,Brazos County,TX,4.266666666666667,NA,NA
77901,Victoria County,TX,64.08888888888889,NA,NA
77954,DeWitt County,TX,44.266666666666666,NA,NA
77995,Lavaca County,TX,NA,50.67484662576687,NA
78016,Medina County,TX,66.93333333333334,NA,NA
78040,Webb County,TX,23.822222222222223,23.190184049079754,NA
78041,Webb County,TX,70.57777777777777,NA,NA
78046,Webb County,TX,56.71111111111111,NA,NA
78064,Atascosa County,TX,50.84444444444445,NA,NA
78102,Bee County,TX,70.93333333333334,NA,NA
78163,Comal County,TX,NA,NA,75.71428571428571
78201,Bexar County,TX,NA,35.33742331288344,NA
78202,Bexar County,TX,78.75555555555556,NA,NA
78207,Bexar County,TX,NA,9.69325153374233,NA
78211,Bexar County,TX,72.44444444444444,NA,NA
78213,Bexar County,TX,62.488888888888894,87.73006134969326,NA
78216,Bexar County,TX,NA,37.91411042944785,NA
78227,Bexar County,TX,NA,31.901840490797547,NA
78228,Bexar County,TX,65.68888888888888,NA,NA
78237,Bexar County,TX,16.53333333333333,NA,NA
78238,Bexar County,TX,47.644444444444446,NA,NA
78240,Bexar County,TX,NA,37.54601226993865,NA
78250,Bexar County,TX,24.177777777777777,NA,NA
78254,Bexar County,TX,26.48888888888889,NA,NA
78261,Bexar County,TX,NA,54.601226993865026,NA
78336,San Patricio County,TX,96.8,NA,NA
78355,Brooks County,TX,NA,NA,91.78571428571428
78362,San Patricio County,TX,67.11111111111111,NA,NA
78501,Hidalgo County,TX,NA,13.496932515337424,NA
78520,Cameron County,TX,84,NA,NA
78521,Cameron County,TX,NA,12.269938650306749,NA
78550,Cameron County,TX,NA,NA,20
78552,Cameron County,TX,NA,47.73006134969325,NA
78572,Hidalgo County,TX,10.044444444444444,NA,NA
78580,Willacy County,TX,98.84444444444445,NA,NA
78582,Starr County,TX,NA,63.190184049079754,NA
78586,Cameron County,TX,NA,87.97546012269939,NA
78596,Hidalgo County,TX,NA,69.32515337423312,NA
78654,Burnet County,TX,78.4,NA,NA
78657,Llano County,TX,NA,74.11042944785277,NA
78660,Travis County,TX,14.48888888888889,NA,NA
78666,Hays County,TX,72.88888888888889,NA,NA
78702,Travis County,TX,83.2,NA,NA
78729,Williamson County,TX,52.17777777777778,NA,NA
78834,Dimmit County,TX,NA,64.04907975460122,NA
78852,Maverick County,TX,NA,82.20858895705521,55.35714285714286
78947,Lee County,TX,98.66666666666667,NA,NA
79107,Potter County,TX,98.57777777777777,NA,NA
79109,Randall County,TX,NA,NA,37.5
79201,Childress County,TX,NA,75.95092024539876,NA
79424,Lubbock County,TX,58.4,NA,NA
79705,Midland County,TX,NA,NA,32.857142857142854
79706,Midland County,TX,26.311111111111114,NA,NA
79764,Ector County,TX,NA,NA,97.14285714285714
79905,El Paso County,TX,NA,89.079754601227,NA
79936,El Paso County,TX,64,NA,NA
84003,Utah County,UT,NA,39.14110429447853,NA
84029,Tooele County,UT,NA,74.96932515337423,NA
84054,Davis County,UT,NA,50.5521472392638,NA
84067,Weber County,UT,20.444444444444446,NA,NA
84074,Tooele County,UT,76.8,NA,NA
84087,Davis County,UT,NA,96.93251533742331,NA
84116,Salt Lake County,UT,NA,20.49079754601227,NA
84651,Utah County,UT,66.22222222222223,NA,NA
84721,Iron County,UT,NA,95.70552147239265,NA
84780,Washington County,UT,NA,85.03067484662577,NA
05446,Chittenden County,VT,39.46666666666667,NA,NA
05478,Franklin County,VT,33.15555555555555,NA,NA
20169,Prince William County,VA,71.82222222222222,NA,65.35714285714286
20194,Fairfax County,VA,NA,91.41104294478528,NA
22003,Fairfax County,VA,NA,75.4601226993865,NA
22030,Fairfax County,VA,39.55555555555556,NA,NA
22182,Fairfax County,VA,NA,57.91411042944785,NA
22191,Prince William County,VA,NA,43.92638036809816,NA
22193,Prince William County,VA,NA,NA,29.28571428571429
22207,Arlington County,VA,32.08888888888889,NA,NA
22314,Alexandria city,VA,NA,NA,46.785714285714285
22485,King George County,VA,40.44444444444444,NA,NA
22560,Essex County,VA,NA,60.613496932515346,NA
22601,Winchester city,VA,NA,67.23926380368098,NA
22630,Warren County,VA,96.88888888888889,NA,NA
22902,Charlottesville city,VA,NA,NA,27.857142857142858
23063,Goochland County,VA,99.11111111111111,NA,NA
23139,Powhatan County,VA,44.08888888888889,NA,NA
23324,Chesapeake city,VA,NA,NA,86.42857142857143
23434,Suffolk city,VA,NA,NA,59.64285714285714
23451,Virginia Beach city,VA,23.11111111111111,NA,NA
23452,Virginia Beach city,VA,NA,5.276073619631902,NA
23602,Newport News city,VA,87.55555555555556,NA,NA
23701,Portsmouth city,VA,NA,NA,13.214285714285715
24013,Roanoke city,VA,50.4,NA,NA
24014,Roanoke city,VA,92.71111111111111,18.773006134969325,NA
24112,Henry County,VA,8.355555555555554,NA,NA
24148,Henry County,VA,82.84444444444445,NA,NA
24171,Patrick County,VA,NA,97.30061349693251,NA
24210,Washington County,VA,19.733333333333334,NA,NA
24211,Washington County,VA,NA,75.70552147239263,NA
24301,Pulaski County,VA,67.73333333333333,NA,NA
24343,Carroll County,VA,NA,48.71165644171779,NA
24401,Staunton city,VA,44.888888888888886,NA,NA
24572,Amherst County,VA,70.75555555555556,NA,NA
98021,Snohomish County,WA,55.822222222222216,NA,NA
98022,King County,WA,NA,13.865030674846626,NA
98026,Snohomish County,WA,82.31111111111112,NA,NA
98028,King County,WA,NA,41.34969325153374,NA
98042,King County,WA,41.86666666666667,NA,NA
98116,King County,WA,43.82222222222222,NA,NA
98119,King County,WA,NA,53.86503067484662,NA
98125,King County,WA,22.755555555555556,21.34969325153374,NA
98133,King County,WA,15.733333333333333,NA,NA
98204,Snohomish County,WA,36.62222222222222,NA,NA
98250,San Juan County,WA,NA,95.4601226993865,NA
98258,Snohomish County,WA,13.066666666666665,NA,NA
98292,Snohomish County,WA,59.28888888888889,NA,NA
98296,Snohomish County,WA,49.333333333333336,NA,NA
98331,Clallam County,WA,NA,84.9079754601227,NA
98362,Clallam County,WA,NA,4.294478527607362,NA
98366,Kitsap County,WA,NA,18.650306748466257,NA
98368,Jefferson County,WA,NA,NA,31.428571428571427
98387,Pierce County,WA,NA,85.2760736196319,NA
98406,Pierce County,WA,96.97777777777777,NA,NA
98409,Pierce County,WA,34.044444444444444,NA,NA
98513,Thurston County,WA,92.08888888888889,40,NA
98528,Mason County,WA,74.13333333333333,97.17791411042946,NA
98531,Lewis County,WA,81.42222222222222,NA,NA
98541,Grays Harbor County,WA,50.84444444444445,NA,NA
98801,Chelan County,WA,35.37777777777778,47.36196319018405,NA
98802,Douglas County,WA,64.44444444444444,NA,NA
98816,Chelan County,WA,NA,88.34355828220859,NA
98930,Yakima County,WA,84.44444444444444,NA,NA
98948,Yakima County,WA,NA,77.66871165644172,NA
99016,Spokane County,WA,61.422222222222224,NA,NA
99022,Spokane County,WA,74.04444444444445,NA,NA
99337,Benton County,WA,14.399999999999999,35.58282208588957,NA
20001,District of Columbia,DC,11.288888888888888,NA,NA
20011,District of Columbia,DC,NA,8.71165644171779,NA
20017,District of Columbia,DC,NA,NA,94.64285714285714
20019,District of Columbia,DC,NA,NA,6.428571428571428
20020,District of Columbia,DC,17.155555555555555,NA,NA
20032,District of Columbia,DC,NA,12.76073619631902,NA
25177,Kanawha County,WV,5.777777777777778,NA,NA
25313,Kanawha County,WV,NA,73.74233128834355,NA
25404,Berkeley County,WV,NA,24.9079754601227,NA
25430,Jefferson County,WV,83.28888888888889,NA,NA
26003,Ohio County,WV,78.84444444444443,NA,NA
26041,Marshall County,WV,93.24444444444444,NA,NA
26288,Webster County,WV,55.64444444444444,NA,NA
26505,Monongalia County,WV,42.75555555555556,NA,NA
26537,Preston County,WV,NA,39.38650306748466,NA
53005,Waukesha County,WI,23.200000000000003,NA,NA
53061,Calumet County,WI,NA,92.26993865030676,NA
53095,Washington County,WI,NA,95.58282208588957,NA
53097,Ozaukee County,WI,NA,75.33742331288343,NA
53140,Kenosha County,WI,44.977777777777774,NA,NA
53150,Waukesha County,WI,NA,48.95705521472393,NA
53185,Racine County,WI,NA,33.00613496932515,NA
53186,Waukesha County,WI,NA,21.595092024539877,NA
53202,Milwaukee County,WI,NA,98.15950920245399,NA
53208,Milwaukee County,WI,5.2444444444444445,NA,NA
53215,Milwaukee County,WI,NA,60.98159509202454,NA
53228,Milwaukee County,WI,NA,52.638036809815944,NA
53405,Racine County,WI,2.4,NA,NA
53406,Racine County,WI,NA,0.8588957055214724,1.4285714285714286
53511,Rock County,WI,NA,0,NA
53563,Rock County,WI,NA,51.41104294478528,NA
54151,Marinette County,WI,51.55555555555556,NA,NA
54303,Brown County,WI,97.6888888888889,NA,NA
54401,Marathon County,WI,NA,NA,69.28571428571428
54452,Lincoln County,WI,NA,NA,15.357142857142858
54481,Portage County,WI,NA,11.65644171779141,NA
54501,Oneida County,WI,30.044444444444444,NA,NA
54615,Jackson County,WI,95.19999999999999,NA,NA
54650,La Crosse County,WI,NA,4.539877300613497,NA
54656,Monroe County,WI,NA,NA,12.5
54751,Dunn County,WI,73.15555555555555,NA,NA
54880,Douglas County,WI,68.88888888888889,NA,0.7142857142857143
54901,Winnebago County,WI,15.022222222222222,NA,NA
54935,Fond du Lac County,WI,NA,NA,3.571428571428571
54956,Winnebago County,WI,NA,58.03680981595092,NA
54961,Waupaca County,WI,57.15555555555556,NA,NA
