ZipCode,county,state,Adult,Retirement,Geriatric
35023,Jefferson County,AL,NA,5.046480743691899,NA
35118,Jefferson County,AL,NA,66.26826029216467,NA
35234,Jefferson County,AL,NA,54.8472775564409,NA
35235,Jefferson County,AL,NA,NA,86.8421052631579
35405,Tuscaloosa County,AL,3.5046728971962615,NA,NA
35473,Tuscaloosa County,AL,74.29906542056075,NA,NA
35622,Morgan County,AL,NA,97.87516600265604,NA
35640,Morgan County,AL,17.289719626168225,NA,NA
35652,Lauderdale County,AL,NA,NA,54.09356725146199
35674,Colbert County,AL,NA,43.559096945551126,NA
35758,Madison County,AL,NA,16.99867197875166,NA
35803,Madison County,AL,NA,72.37715803452855,NA
35824,Madison County,AL,75.46728971962617,NA,NA
35906,Etowah County,AL,NA,58.831341301460824,NA
35907,Etowah County,AL,83.64485981308411,NA,45.614035087719294
35960,Cherokee County,AL,NA,42.76228419654714,NA
35967,DeKalb County,AL,NA,70.1195219123506,NA
35976,Marshall County,AL,NA,14.741035856573706,NA
35978,DeKalb County,AL,NA,66.93227091633466,NA
36111,Montgomery County,AL,NA,51.26162018592297,NA
36301,Houston County,AL,NA,5.710491367861885,NA
36502,Escambia County,AL,53.271028037383175,NA,NA
36535,Baldwin County,AL,NA,25.89641434262948,NA
36619,Mobile County,AL,NA,70.1195219123506,NA
36695,Mobile County,AL,NA,NA,43.567251461988306
99502,Anchorage Municipality,AK,27.102803738317753,NA,NA
85014,Maricopa County,AZ,23.364485981308412,NA,NA
85015,Maricopa County,AZ,8.644859813084112,NA,NA
85016,Maricopa County,AZ,NA,35.0597609561753,NA
85020,Maricopa County,AZ,NA,59.09694555112882,NA
85022,Maricopa County,AZ,NA,NA,57.30994152046783
85024,Maricopa County,AZ,NA,85.65737051792829,NA
85027,Maricopa County,AZ,20.794392523364486,NA,NA
85051,Maricopa County,AZ,5.841121495327103,NA,NA
85201,Maricopa County,AZ,NA,13.94422310756972,NA
85209,Maricopa County,AZ,NA,NA,26.31578947368421
85233,Maricopa County,AZ,NA,NA,47.66081871345029
85302,Maricopa County,AZ,NA,10.092961487383798,NA
85351,Maricopa County,AZ,NA,NA,36.84210526315789
85367,Yuma County,AZ,89.95327102803739,NA,NA
85650,Cochise County,AZ,NA,73.83798140770253,NA
85710,Pima County,AZ,87.14953271028037,NA,NA
85718,Pima County,AZ,NA,56.04249667994687,26.608187134502927
85739,Pinal County,AZ,54.67289719626168,NA,NA
85750,Pima County,AZ,NA,NA,61.69590643274854
86001,Coconino County,AZ,9.345794392523365,NA,NA
86333,Yavapai County,AZ,NA,60.1593625498008,NA
86351,Yavapai County,AZ,NA,95.3519256308101,NA
71646,Ashley County,AR,NA,91.50066401062416,NA
71801,Hempstead County,AR,NA,NA,79.53216374269006
72143,White County,AR,18.457943925233643,NA,NA
72335,St. Francis County,AR,55.373831775700936,NA,NA
72543,Cleburne County,AR,37.61682242990654,60.0265604249668,NA
72714,Benton County,AR,64.01869158878505,NA,NA
72715,Benton County,AR,61.44859813084113,NA,NA
90023,Los Angeles County,CA,18.925233644859812,NA,NA
90025,Los Angeles County,CA,NA,15.0066401062417,NA
90027,Los Angeles County,CA,51.16822429906542,NA,NA
90042,Los Angeles County,CA,NA,44.6215139442231,NA
90059,Los Angeles County,CA,17.75700934579439,NA,NA
90062,Los Angeles County,CA,NA,28.68525896414343,NA
90063,Los Angeles County,CA,NA,NA,26.023391812865498
90201,Los Angeles County,CA,14.719626168224298,NA,NA
90220,Los Angeles County,CA,65.65420560747664,NA,NA
90274,Los Angeles County,CA,NA,65.86985391766268,NA
90277,Los Angeles County,CA,NA,NA,47.07602339181287
90280,Los Angeles County,CA,64.95327102803739,NA,NA
90403,Los Angeles County,CA,NA,NA,76.90058479532163
90404,Los Angeles County,CA,NA,84.06374501992032,NA
90603,Los Angeles County,CA,89.01869158878505,NA,NA
90606,Los Angeles County,CA,NA,57.76892430278885,NA
90620,Orange County,CA,NA,15.53784860557769,NA
90630,Orange County,CA,NA,NA,65.78947368421053
90660,Los Angeles County,CA,NA,14.741035856573706,NA
90815,Los Angeles County,CA,94.85981308411215,NA,NA
91016,Los Angeles County,CA,50.70093457943925,NA,NA
91107,Los Angeles County,CA,97.89719626168224,NA,NA
91203,Los Angeles County,CA,NA,85.79017264276229,NA
91207,Los Angeles County,CA,NA,62.94820717131474,NA
91302,Los Angeles County,CA,NA,NA,53.50877192982456
91320,Ventura County,CA,NA,24.43559096945551,NA
91350,Los Angeles County,CA,63.78504672897196,NA,NA
91387,Los Angeles County,CA,23.598130841121495,NA,NA
91606,Los Angeles County,CA,NA,NA,62.86549707602339
91607,Los Angeles County,CA,NA,41.96547144754316,NA
91709,San Bernardino County,CA,48.831775700934585,NA,NA
91723,Los Angeles County,CA,96.49532710280374,NA,NA
91748,Los Angeles County,CA,40.654205607476634,NA,NA
91770,Los Angeles County,CA,95.7943925233645,NA,NA
91773,Los Angeles County,CA,75.23364485981308,NA,NA
91902,San Diego County,CA,73.36448598130842,NA,NA
91910,San Diego County,CA,NA,32.80212483399734,NA
92007,San Diego County,CA,NA,54.8472775564409,NA
92025,San Diego County,CA,69.1588785046729,NA,NA
92026,San Diego County,CA,NA,43.42629482071713,NA
92037,San Diego County,CA,NA,45.0199203187251,NA
92071,San Diego County,CA,NA,NA,11.11111111111111
92101,San Diego County,CA,NA,53.12084993359893,NA
92114,San Diego County,CA,NA,10.756972111553784,NA
92115,San Diego County,CA,15.654205607476634,NA,NA
92116,San Diego County,CA,NA,NA,50.29239766081871
92128,San Diego County,CA,NA,94.55511288180611,NA
92270,Riverside County,CA,NA,36.918990703851264,NA
92274,Riverside County,CA,94.1588785046729,NA,NA
92277,San Bernardino County,CA,NA,77.68924302788844,NA
92301,San Bernardino County,CA,83.17757009345794,NA,NA
92313,San Bernardino County,CA,NA,96.28154050464808,NA
92315,San Bernardino County,CA,NA,98.93758300132802,NA
92335,San Bernardino County,CA,NA,57.37051792828686,20.175438596491226
92336,San Bernardino County,CA,76.16822429906543,NA,NA
92346,San Bernardino County,CA,NA,20.849933598937582,NA
92354,San Bernardino County,CA,NA,35.3253652058433,NA
92399,San Bernardino County,CA,NA,7.436918990703852,NA
92407,San Bernardino County,CA,7.710280373831775,NA,NA
92507,Riverside County,CA,NA,NA,29.239766081871345
92544,Riverside County,CA,24.766355140186917,NA,NA
92584,Riverside County,CA,NA,57.23771580345286,NA
92586,Riverside County,CA,NA,52.45683930942895,NA
92630,Orange County,CA,NA,77.15803452855245,NA
92672,Orange County,CA,39.719626168224295,NA,NA
92675,Orange County,CA,NA,58.300132802124836,NA
92679,Orange County,CA,32.476635514018696,NA,NA
92683,Orange County,CA,45.794392523364486,75.83001328021248,NA
92692,Orange County,CA,NA,28.950863213811424,NA
92694,Orange County,CA,NA,65.73705179282868,NA
92708,Orange County,CA,NA,34.528552456839314,10.23391812865497
92821,Orange County,CA,33.8785046728972,NA,NA
92835,Orange County,CA,NA,NA,49.707602339181285
92843,Orange County,CA,NA,24.03718459495352,NA
92860,Riverside County,CA,NA,32.40371845949535,NA
92882,Riverside County,CA,13.317757009345794,NA,NA
92886,Orange County,CA,NA,55.112881806108895,NA
93010,Ventura County,CA,49.06542056074766,NA,NA
93041,Ventura County,CA,NA,28.419654714475435,NA
93065,Ventura County,CA,6.775700934579438,NA,NA
93111,Santa Barbara County,CA,NA,58.03452855245684,NA
93291,Tulare County,CA,9.579439252336448,36.12217795484728,NA
93306,Kern County,CA,62.383177570093466,NA,NA
93308,Kern County,CA,12.850467289719624,NA,NA
93309,Kern County,CA,NA,12.350597609561753,NA
93434,Santa Barbara County,CA,88.3177570093458,NA,NA
93442,San Luis Obispo County,CA,NA,60.690571049136786,NA
93534,Los Angeles County,CA,NA,16.46746347941567,52.92397660818714
93551,Los Angeles County,CA,NA,25.36520584329349,NA
93552,Los Angeles County,CA,30.140186915887853,NA,NA
93560,Kern County,CA,92.7570093457944,NA,NA
93610,Madera County,CA,NA,NA,60.526315789473685
93619,Fresno County,CA,21.02803738317757,NA,NA
93705,Fresno County,CA,NA,NA,50.58479532163743
93726,Fresno County,CA,9.813084112149532,NA,NA
93905,Monterey County,CA,NA,24.701195219123505,NA
93907,Monterey County,CA,NA,42.363877822045154,NA
93908,Monterey County,CA,NA,62.01859229747676,NA
94040,Santa Clara County,CA,NA,NA,36.25730994152047
94061,San Mateo County,CA,57.71028037383178,NA,NA
94086,Santa Clara County,CA,NA,NA,26.900584795321635
94111,San Francisco County,CA,NA,93.89110225763613,NA
94112,San Francisco County,CA,29.672897196261683,NA,NA
94115,San Francisco County,CA,46.02803738317757,NA,21.052631578947366
94122,San Francisco County,CA,NA,NA,1.7543859649122806
94134,San Francisco County,CA,41.35514018691589,NA,NA
94301,Santa Clara County,CA,93.22429906542055,NA,NA
94502,Alameda County,CA,NA,NA,61.40350877192983
94503,Napa County,CA,NA,NA,88.30409356725146
94510,Solano County,CA,NA,NA,37.13450292397661
94523,Contra Costa County,CA,NA,26.560424966799467,NA
94541,Alameda County,CA,NA,6.772908366533864,NA
94550,Alameda County,CA,NA,NA,75.14619883040936
94579,Alameda County,CA,71.72897196261682,NA,NA
94591,Solano County,CA,38.084112149532714,NA,NA
94596,Contra Costa County,CA,NA,NA,53.216374269005854
94599,Napa County,CA,NA,NA,66.37426900584795
94605,Alameda County,CA,NA,69.18990703851262,NA
94610,Alameda County,CA,NA,33.86454183266932,NA
94612,Alameda County,CA,NA,NA,41.52046783625731
94621,Alameda County,CA,47.66355140186916,32.005312084993356,NA
94710,Alameda County,CA,NA,72.37715803452855,NA
94920,Marin County,CA,85.98130841121495,NA,NA
94941,Marin County,CA,44.39252336448598,NA,NA
94949,Marin County,CA,65.88785046728972,NA,NA
94952,Sonoma County,CA,NA,16.06905710491368,NA
95005,Santa Cruz County,CA,84.34579439252336,NA,NA
95008,Santa Clara County,CA,NA,22.045152722443557,NA
95030,Santa Clara County,CA,97.19626168224299,NA,NA
95032,Santa Clara County,CA,NA,NA,23.684210526315788
95125,Santa Clara County,CA,NA,7.835325365205843,NA
95206,San Joaquin County,CA,72.19626168224299,NA,NA
95207,San Joaquin County,CA,NA,51.92563081009296,NA
95209,San Joaquin County,CA,68.69158878504673,NA,NA
95220,San Joaquin County,CA,NA,NA,46.49122807017544
95242,San Joaquin County,CA,99.29906542056075,NA,NA
95301,Merced County,CA,NA,92.96148738379813,NA
95327,Tuolumne County,CA,NA,27.091633466135455,NA
95337,San Joaquin County,CA,NA,18.99070385126162,NA
95380,Stanislaus County,CA,NA,73.97078353253652,NA
95404,Sonoma County,CA,NA,31.208499335989377,NA
95409,Sonoma County,CA,NA,NA,23.391812865497073
95624,Sacramento County,CA,NA,9.296148738379815,NA
95648,Placer County,CA,NA,8.764940239043826,NA
95658,Placer County,CA,NA,59.62815405046481,NA
95713,Placer County,CA,NA,75.2988047808765,NA
95746,Placer County,CA,NA,NA,92.98245614035088
95814,Sacramento County,CA,NA,98.40637450199203,NA
95820,Sacramento County,CA,64.48598130841121,NA,NA
95928,Butte County,CA,70.09345794392523,NA,NA
95932,Colusa County,CA,NA,NA,100
95946,Nevada County,CA,NA,53.253652058432934,NA
95969,Butte County,CA,NA,70.91633466135458,NA
96150,El Dorado County,CA,58.41121495327103,NA,NA
96161,Nevada County,CA,NA,NA,87.42690058479532
80031,Adams County,CO,58.177570093457945,NA,NA
80121,Arapahoe County,CO,NA,88.18061088977423,NA
80122,Arapahoe County,CO,76.86915887850468,NA,NA
80124,Douglas County,CO,NA,61.885790172642764,NA
80215,Jefferson County,CO,38.31775700934579,NA,NA
80229,Adams County,CO,NA,81.00929614873837,NA
80503,Boulder County,CO,NA,96.54714475431607,NA
80526,Larimer County,CO,NA,58.432934926958836,NA
80601,Adams County,CO,NA,81.40770252324037,NA
80610,Weld County,CO,96.72897196261682,NA,NA
80909,El Paso County,CO,10.74766355140187,NA,NA
81007,Pueblo County,CO,NA,NA,45.90643274853801
81323,Montezuma County,CO,NA,NA,97.07602339181285
81401,Montrose County,CO,NA,38.645418326693225,NA
81503,Mesa County,CO,36.68224299065421,NA,NA
06010,Hartford County,CT,NA,75.96281540504648,NA
06037,Hartford County,CT,70.7943925233645,NA,NA
06042,Hartford County,CT,NA,63.47941567065073,NA
06057,Litchfield County,CT,NA,54.05046480743692,NA
06093,Hartford County,CT,NA,94.68791500664011,NA
06095,Hartford County,CT,NA,71.97875166002656,NA
06105,Hartford County,CT,NA,NA,67.83625730994152
06108,Hartford County,CT,34.112149532710276,NA,NA
06118,Hartford County,CT,NA,15.936254980079681,NA
06119,Hartford County,CT,NA,NA,38.88888888888889
06237,Tolland County,CT,NA,79.6812749003984,NA
06405,New Haven County,CT,70.56074766355141,NA,NA
06410,New Haven County,CT,NA,86.05577689243027,41.228070175438596
06417,Middlesex County,CT,NA,52.191235059760956,NA
06437,New Haven County,CT,NA,89.7742363877822,NA
06468,Fairfield County,CT,NA,41.832669322709165,NA
06471,New Haven County,CT,NA,76.49402390438247,NA
06472,New Haven County,CT,89.48598130841121,NA,NA
06473,New Haven County,CT,57.009345794392516,77.29083665338645,NA
06475,Middlesex County,CT,NA,NA,22.22222222222222
06484,Fairfield County,CT,NA,45.55112881806109,NA
06489,Hartford County,CT,88.08411214953271,NA,16.95906432748538
06492,New Haven County,CT,NA,4.382470119521913,NA
06512,New Haven County,CT,NA,NA,6.140350877192982
06513,New Haven County,CT,59.112149532710276,NA,NA
06516,New Haven County,CT,NA,1.3280212483399734,NA
06614,Fairfield County,CT,NA,NA,92.39766081871345
06704,New Haven County,CT,NA,NA,78.0701754385965
06810,Fairfield County,CT,7.009345794392523,NA,NA
06850,Fairfield County,CT,NA,15.670650730411687,NA
06854,Fairfield County,CT,NA,NA,89.47368421052632
06880,Fairfield County,CT,25.233644859813083,NA,NA
19711,New Castle County,DE,NA,86.45418326693228,NA
19808,New Castle County,DE,NA,39.9734395750332,NA
19904,Kent County,DE,NA,5.577689243027888,NA
19934,Kent County,DE,NA,NA,31.57894736842105
19966,Sussex County,DE,NA,3.187250996015936,NA
32052,Hamilton County,FL,NA,NA,95.6140350877193
32080,St. Johns County,FL,NA,7.968127490039841,NA
32086,St. Johns County,FL,NA,NA,5.263157894736842
32119,Volusia County,FL,NA,23.771580345285525,NA
32141,Volusia County,FL,92.5233644859813,NA,NA
32159,Lake County,FL,NA,NA,1.461988304093567
32174,Volusia County,FL,NA,19.12350597609562,NA
32222,Duval County,FL,95.09345794392523,NA,NA
32225,Duval County,FL,NA,NA,68.42105263157895
32312,Leon County,FL,NA,26.029216467463478,NA
32401,Bay County,FL,19.158878504672895,NA,NA
32413,Bay County,FL,92.99065420560748,NA,NA
32421,Calhoun County,FL,NA,53.38645418326693,NA
32439,Walton County,FL,44.626168224299064,NA,NA
32501,Escambia County,FL,NA,17.397078353253654,NA
32503,Escambia County,FL,NA,50.332005312084995,NA
32570,Santa Rosa County,FL,NA,80.2124833997344,NA
32701,Seminole County,FL,NA,62.81540504648074,NA
32708,Seminole County,FL,88.55140186915888,16.334661354581673,NA
32725,Volusia County,FL,NA,NA,38.01169590643275
32763,Volusia County,FL,62.616822429906534,NA,NA
32806,Orange County,FL,41.58878504672897,NA,NA
32822,Orange County,FL,NA,NA,14.619883040935672
32825,Orange County,FL,16.121495327102803,NA,NA
32967,Indian River County,FL,24.53271028037383,NA,NA
33031,Miami-Dade County,FL,87.61682242990653,NA,NA
33034,Miami-Dade County,FL,NA,NA,55.55555555555556
33054,Miami-Dade County,FL,25.934579439252335,NA,NA
33126,Miami-Dade County,FL,NA,NA,9.649122807017543
33160,Miami-Dade County,FL,75.93457943925233,NA,NA
33167,Miami-Dade County,FL,NA,NA,46.783625730994146
33172,Miami-Dade County,FL,NA,NA,82.7485380116959
33180,Miami-Dade County,FL,NA,19.787516600265604,NA
33189,Miami-Dade County,FL,55.84112149532711,NA,NA
33308,Broward County,FL,NA,5.3120849933598935,NA
33312,Broward County,FL,NA,6.640106241699867,NA
33319,Broward County,FL,NA,12.084993359893758,7.309941520467836
33323,Broward County,FL,NA,40.23904382470119,NA
33326,Broward County,FL,NA,58.03452855245684,NA
33409,Palm Beach County,FL,38.78504672897196,NA,NA
33414,Palm Beach County,FL,NA,NA,33.62573099415205
33428,Palm Beach County,FL,NA,97.47675962815406,NA
33432,Palm Beach County,FL,NA,85.92297476759629,NA
33437,Palm Beach County,FL,NA,24.9667994687915,NA
33441,Broward County,FL,28.504672897196258,NA,NA
33458,Palm Beach County,FL,NA,8.100929614873838,NA
33460,Palm Beach County,FL,NA,29.349269588313415,NA
33467,Palm Beach County,FL,29.205607476635514,29.216467463479418,NA
33477,Palm Beach County,FL,NA,40.37184594953519,NA
33484,Palm Beach County,FL,NA,NA,7.602339181286549
33487,Palm Beach County,FL,NA,51.39442231075697,NA
33511,Hillsborough County,FL,NA,11.553784860557768,NA
33610,Hillsborough County,FL,NA,NA,23.099415204678362
33624,Hillsborough County,FL,NA,87.51660026560425,NA
33703,Pinellas County,FL,NA,56.83930942895087,NA
33704,Pinellas County,FL,NA,NA,48.83040935672515
33706,Pinellas County,FL,NA,NA,84.21052631578947
33772,Pinellas County,FL,46.728971962616825,NA,NA
33781,Pinellas County,FL,NA,15.139442231075698,NA
33782,Pinellas County,FL,NA,NA,24.561403508771928
33801,Polk County,FL,61.21495327102804,NA,NA
33936,Lee County,FL,NA,30.0132802124834,NA
33950,Charlotte County,FL,NA,12.749003984063744,NA
33967,Lee County,FL,30.8411214953271,NA,NA
33981,Charlotte County,FL,NA,63.87782204515272,NA
34110,Collier County,FL,NA,NA,21.637426900584796
34210,Manatee County,FL,53.73831775700935,NA,NA
34229,Sarasota County,FL,91.35514018691589,NA,NA
34239,Sarasota County,FL,47.89719626168225,NA,NA
34476,Marion County,FL,NA,NA,12.865497076023392
34668,Pasco County,FL,NA,26.42762284196547,NA
34684,Pinellas County,FL,NA,73.04116865869854,NA
34748,Lake County,FL,NA,62.68260292164675,NA
34788,Lake County,FL,NA,87.91500664010624,NA
34984,St. Lucie County,FL,NA,82.86852589641434,NA
34986,St. Lucie County,FL,NA,8.49933598937583,NA
34990,Martin County,FL,NA,NA,0.8771929824561403
30016,Newton County,GA,NA,7.3041168658698545,NA
30022,Fulton County,GA,NA,NA,24.853801169590643
30033,DeKalb County,GA,NA,56.30810092961488,NA
30035,DeKalb County,GA,NA,20.0531208499336,NA
30041,Forsyth County,GA,NA,31.341301460823374,NA
30043,Gwinnett County,GA,NA,NA,69.00584795321637
30044,Gwinnett County,GA,71.02803738317756,NA,NA
30047,Gwinnett County,GA,NA,51.12881806108898,NA
30058,DeKalb County,GA,48.36448598130841,NA,NA
30064,Cobb County,GA,NA,54.18326693227091,NA
30066,Cobb County,GA,NA,NA,14.912280701754385
30088,DeKalb County,GA,NA,94.82071713147411,NA
30097,Fulton County,GA,NA,90.96945551128817,NA
30102,Cherokee County,GA,NA,65.07304116865869,NA
30117,Carroll County,GA,16.588785046728972,NA,NA
30127,Cobb County,GA,8.177570093457943,NA,NA
30134,Douglas County,GA,NA,65.47144754316069,NA
30180,Carroll County,GA,10.046728971962617,NA,NA
30223,Spalding County,GA,68.22429906542055,NA,NA
30224,Spalding County,GA,27.570093457943923,NA,51.461988304093566
30274,Clayton County,GA,NA,93.09428950863213,NA
30328,Fulton County,GA,NA,NA,79.82456140350878
30331,Fulton County,GA,NA,NA,7.017543859649122
30501,Hall County,GA,NA,33.067729083665334,NA
30507,Hall County,GA,NA,67.06507304116866,NA
30519,Gwinnett County,GA,86.6822429906542,NA,NA
30533,Lumpkin County,GA,NA,NA,94.73684210526315
30549,Jackson County,GA,NA,55.24568393094289,NA
30606,Clarke County,GA,NA,NA,78.94736842105263
30680,Barrow County,GA,NA,67.19787516600265,NA
30720,Whitfield County,GA,NA,NA,27.192982456140353
30736,Catoosa County,GA,30.60747663551402,NA,NA
30809,Columbia County,GA,17.990654205607477,32.13811420982736,NA
30824,McDuffie County,GA,NA,43.691899070385126,NA
30906,Richmond County,GA,60.51401869158879,2.257636122177955,NA
30909,Richmond County,GA,NA,NA,77.77777777777779
31216,Bibb County,GA,NA,49.40239043824701,NA
31404,Chatham County,GA,57.242990654205606,NA,NA
31501,Ware County,GA,39.018691588785046,NA,NA
31602,Lowndes County,GA,NA,19.256308100929616,NA
31701,Dougherty County,GA,86.21495327102804,NA,NA
31788,Colquitt County,GA,NA,58.69853917662683,NA
31794,Tift County,GA,32.242990654205606,NA,NA
96741,Kauai County,HI,NA,83.93094289508632,NA
96743,Hawaii County,HI,NA,74.23638778220452,NA
96814,Honolulu County,HI,68.45794392523365,NA,NA
96815,Honolulu County,HI,NA,NA,9.064327485380117
96816,Honolulu County,HI,NA,NA,34.50292397660819
83338,Jerome County,ID,NA,NA,61.111111111111114
83634,Ada County,ID,NA,67.729083665338635,NA
83646,Ada County,ID,82.4766355140187,NA,NA
83687,Canyon County,ID,78.27102803738318,NA,NA
83703,Ada County,ID,NA,75.1660026560425,NA
83835,Kootenai County,ID,NA,NA,18.71345029239766
83843,Latah County,ID,33.41121495327103,NA,NA
60004,Cook County,IL,61.6822429906542,NA,NA
60020,Lake County,IL,NA,50.199203187250994,NA
60025,Cook County,IL,NA,NA,1.1695906432748537
60045,Lake County,IL,67.05607476635514,NA,NA
60056,Cook County,IL,NA,5.179282868525896,NA
60062,Cook County,IL,NA,59.495351925630814,NA
60074,Cook County,IL,NA,NA,19.5906432748538
60090,Cook County,IL,NA,31.07569721115538,NA
60098,McHenry County,IL,15.42056074766355,NA,NA
60099,Lake County,IL,20.327102803738317,NA,NA
60102,McHenry County,IL,78.97196261682244,NA,NA
60104,Cook County,IL,NA,10.225763612217795,NA
60107,Cook County,IL,85.04672897196261,55.37848605577689,NA
60108,DuPage County,IL,NA,11.42098273572377,NA
60120,Kane County,IL,NA,55.77689243027888,NA
60123,Kane County,IL,NA,54.31606905710491,NA
60124,Kane County,IL,NA,56.17529880478087,NA
60134,Kane County,IL,NA,39.309428950863214,NA
60154,Cook County,IL,NA,67.99468791500664,NA
60156,McHenry County,IL,40.18691588785047,NA,NA
60175,Kane County,IL,12.616822429906541,NA,38.59649122807017
60188,DuPage County,IL,NA,53.917662682602916,NA
60191,DuPage County,IL,NA,45.41832669322709,NA
60193,Cook County,IL,NA,29.61487383798141,NA
60201,Cook County,IL,NA,NA,2.3391812865497075
60302,Cook County,IL,16.822429906542055,NA,NA
60404,Will County,IL,NA,79.4156706507304,67.54385964912281
60415,Cook County,IL,NA,66.13545816733067,NA
60420,Livingston County,IL,NA,72.11155378486056,NA
60423,Will County,IL,20.093457943925234,NA,NA
60439,Cook County,IL,NA,81.67330677290838,NA
60452,Cook County,IL,NA,51.527224435590966,NA
60453,Cook County,IL,22.429906542056074,NA,NA
60463,Cook County,IL,NA,NA,52.63157894736842
60465,Cook County,IL,NA,74.5019920318725,NA
60466,Cook County,IL,NA,82.73572377158035,NA
60517,DuPage County,IL,NA,13.811420982735722,20.760233918128655
60521,DuPage County,IL,NA,88.44621513944223,NA
60523,DuPage County,IL,NA,NA,78.65497076023392
60545,Kendall County,IL,NA,44.754316069057104,NA
60560,Kendall County,IL,21.962616822429908,NA,NA
60565,DuPage County,IL,14.953271028037381,82.20451527224436,NA
60586,Will County,IL,53.50467289719626,NA,NA
60605,Cook County,IL,NA,42.09827357237716,NA
60615,Cook County,IL,10.981308411214954,NA,60.23391812865497
60620,Cook County,IL,NA,64.409030544488715,NA
60628,Cook County,IL,2.803738317757009,66.40106241699867,NA
60629,Cook County,IL,71.49532710280374,NA,NA
60649,Cook County,IL,34.81308411214953,NA,NA
60657,Cook County,IL,NA,78.08764940239044,NA
61008,Boone County,IL,NA,NA,66.66666666666666
61073,Winnebago County,IL,NA,NA,45.32163742690059
61088,Winnebago County,IL,NA,NA,57.60233918128655
61107,Winnebago County,IL,NA,85.52456839309428,7.894736842105263
61114,Winnebago County,IL,96.02803738317756,NA,NA
61201,Rock Island County,IL,NA,12.881806108897742,NA
61301,LaSalle County,IL,NA,NA,90.35087719298247
61350,LaSalle County,IL,NA,NA,88.88888888888889
61607,Peoria County,IL,73.83177570093457,NA,NA
61701,McLean County,IL,NA,NA,58.47953216374269
61951,Moultrie County,IL,NA,90.70385126162019,NA
62016,Greene County,IL,86.91588785046729,NA,NA
62095,Madison County,IL,NA,44.223107569721115,NA
62401,Effingham County,IL,63.55140186915887,NA,NA
62441,Clark County,IL,NA,51.66002656042497,NA
62864,Jefferson County,IL,NA,65.20584329349269,NA
46011,Madison County,IN,NA,68.52589641434263,NA
46038,Hamilton County,IN,NA,NA,29.82456140350877
46142,Johnson County,IN,NA,41.168658698539176,NA
46184,Johnson County,IN,NA,37.45019920318725,NA
46229,Marion County,IN,NA,14.209827357237717,NA
46240,Marion County,IN,NA,38.51261620185923,NA
46241,Marion County,IN,9.11214953271028,NA,NA
46260,Marion County,IN,NA,74.9003984063745,NA
46324,Lake County,IN,NA,NA,21.929824561403507
46342,Lake County,IN,1.8691588785046727,NA,NA
46373,Lake County,IN,46.49532710280374,NA,NA
46383,Porter County,IN,43.22429906542056,NA,NA
46385,Porter County,IN,81.30841121495327,1.1952191235059761,NA
46526,Elkhart County,IN,28.971962616822427,NA,NA
46534,Starke County,IN,73.83177570093457,NA,NA
46793,DeKalb County,IN,NA,91.10225763612218,NA
46804,Allen County,IN,NA,9.03054448871182,NA
46819,Allen County,IN,55.60747663551402,NA,NA
46932,Cass County,IN,NA,78.35325365205843,NA
47111,Clark County,IN,60.981308411214954,NA,NA
47374,Wayne County,IN,1.4018691588785046,NA,NA
47421,Lawrence County,IN,NA,6.507304116865869,NA
47601,Warrick County,IN,NA,NA,71.05263157894737
50263,Dallas County,IA,NA,42.89508632138114,NA
50320,Polk County,IA,NA,92.16467463479415,NA
50461,Mitchell County,IA,NA,80.34528552456838,NA
50511,Kossuth County,IA,76.63551401869158,NA,NA
51501,Pottawattamie County,IA,NA,39.57503320053121,NA
52001,Dubuque County,IA,NA,54.581673306772906,NA
52060,Jackson County,IA,NA,NA,50
52246,Johnson County,IA,NA,NA,47.368421052631575
52627,Lee County,IA,23.130841121495326,NA,NA
52632,Lee County,IA,NA,88.71181938911022,NA
52641,Henry County,IA,NA,78.22045152722443,88.01169590643275
52747,Cedar County,IA,98.83177570093457,NA,NA
66044,Douglas County,KS,NA,50.863213811420984,NA
66054,Jefferson County,KS,100,NA,NA
66106,Wyandotte County,KS,NA,67.46347941567065,NA
66202,Johnson County,KS,NA,NA,99.70760233918129
66213,Johnson County,KS,NA,21.38114209827357,NA
66409,Shawnee County,KS,NA,100,NA
66604,Shawnee County,KS,NA,38.91102257636122,NA
66762,Crawford County,KS,NA,82.07171314741036,NA
66901,Cloud County,KS,NA,95.61752988047809,NA
67218,Sedgwick County,KS,61.915887850467286,NA,NA
67456,McPherson County,KS,NA,39.8406374501992,NA
67871,Scott County,KS,NA,90.0398406374502,NA
40031,Oldham County,KY,NA,88.31341301460823,NA
40109,Bullitt County,KY,97.66355140186917,NA,NA
40207,Jefferson County,KY,NA,NA,71.6374269005848
40299,Jefferson County,KY,NA,27.35723771580345,NA
40311,Nicholas County,KY,NA,47.808764940239044,75.73099415204678
40330,Mercer County,KY,NA,70.5179282868526,NA
40342,Anderson County,KY,NA,76.09561752988047,NA
40403,Madison County,KY,NA,18.06108897742364,NA
40701,Whitley County,KY,NA,4.51527224435591,NA
40906,Knox County,KY,97.42990654205607,NA,NA
41005,Boone County,KY,NA,61.75298804780876,NA
41018,Kenton County,KY,NA,NA,30.409356725146196
41101,Boyd County,KY,NA,64.8074369189907,NA
41169,Greenup County,KY,NA,87.78220451527224,NA
42025,Marshall County,KY,21.962616822429908,NA,NA
42103,Warren County,KY,NA,46.87915006640107,NA
42301,Daviess County,KY,28.037383177570092,NA,NA
42503,Pulaski County,KY,NA,89.37583001328021,NA
42602,Clinton County,KY,69.39252336448598,NA,NA
42701,Hardin County,KY,72.66355140186917,NA,NA
42754,Grayson County,KY,79.67289719626169,NA,NA
70001,Jefferson Parish,LA,NA,NA,17.83625730994152
70056,Jefferson Parish,LA,NA,21.91235059760956,NA
70117,Orleans Parish,LA,NA,6.241699867197875,NA
70118,Orleans Parish,LA,NA,25.099601593625497,NA
70123,Jefferson Parish,LA,NA,65.33864541832669,NA
70124,Orleans Parish,LA,NA,72.37715803452855,NA
70301,Lafourche Parish,LA,NA,49.933598937583,NA
70339,Assumption Parish,LA,NA,47.277556440903055,NA
70359,Terrebonne Parish,LA,NA,37.45019920318725,NA
70364,Terrebonne Parish,LA,NA,NA,83.62573099415205
70448,St. Tammany Parish,LA,NA,NA,81.87134502923976
70458,St. Tammany Parish,LA,NA,20.185922974767596,NA
70471,St. Tammany Parish,LA,NA,NA,93.27485380116958
70520,Lafayette Parish,LA,NA,42.23107569721115,NA
70560,Iberia Parish,LA,NA,NA,14.035087719298245
70586,Evangeline Parish,LA,67.99065420560748,NA,NA
71129,Caddo Parish,LA,51.4018691588785,NA,NA
71295,Franklin Parish,LA,NA,46.613545816733065,NA
71351,Avoyelles Parish,LA,NA,59.76095617529881,NA
71360,Rapides Parish,LA,NA,10.49136786188579,NA
71449,Sabine Parish,LA,NA,94.95351925630811,NA
03903,York County,ME,NA,NA,57.01754385964912
04021,Cumberland County,ME,98.5981308411215,NA,NA
04038,Cumberland County,ME,NA,71.18193891102258,NA
04062,Cumberland County,ME,NA,42.49667994687915,NA
04073,York County,ME,10.514018691588785,33.200531208499335,NA
04090,York County,ME,NA,NA,82.16374269005848
04281,Oxford County,ME,NA,NA,98.53801169590643
04915,Waldo County,ME,NA,48.20717131474104,NA
20735,Prince George's County,MD,NA,77.42363877822045,NA
20854,Montgomery County,MD,NA,71.31474103585657,NA
20901,Montgomery County,MD,NA,NA,25.730994152046783
20904,Montgomery County,MD,50.93457943925234,NA,NA
21012,Anne Arundel County,MD,NA,35.45816733067729,NA
21085,Harford County,MD,NA,92.69588313413014,NA
21157,Carroll County,MD,25.70093457943925,20.45152722443559,NA
21208,Baltimore County,MD,NA,NA,4.970760233918129
21212,Baltimore city,MD,NA,13.678618857901725,NA
21215,Baltimore city,MD,NA,84.72775564409031,NA
21401,Anne Arundel County,MD,NA,NA,8.47953216374269
21403,Anne Arundel County,MD,NA,20.45152722443559,NA
21502,Allegany County,MD,NA,24.833997343957503,NA
21632,Caroline County,MD,52.80373831775701,NA,NA
21740,Washington County,MD,NA,10.358565737051793,13.450292397660817
21771,Frederick County,MD,NA,83.00132802124834,NA
21851,Worcester County,MD,NA,NA,94.15204678362574
21901,Cecil County,MD,56.54205607476636,NA,NA
01028,Hampden County,MA,NA,8.897742363877823,NA
01057,Hampden County,MA,NA,93.49269588313412,NA
01085,Hampden County,MA,37.149532710280376,1.0624169986719787,NA
01089,Hampden County,MA,NA,71.44754316069057,NA
01104,Hampden County,MA,NA,9.9601593625498,NA
01105,Hampden County,MA,43.69158878504673,NA,NA
01118,Hampden County,MA,NA,87.11819389110225,NA
01201,Berkshire County,MA,NA,76.22841965471447,NA
01301,Franklin County,MA,NA,NA,44.73684210526316
01331,Worcester County,MA,NA,79.5484727755644,NA
01420,Worcester County,MA,3.7383177570093453,66.66666666666666,NA
01451,Worcester County,MA,NA,96.94555112881807,NA
01460,Middlesex County,MA,NA,NA,89.18128654970761
01462,Worcester County,MA,NA,69.05710491367863,NA
01581,Worcester County,MA,NA,NA,52.046783625730995
01604,Worcester County,MA,0.23364485981308408,NA,NA
01605,Worcester County,MA,NA,NA,18.421052631578945
01730,Middlesex County,MA,NA,23.50597609561753,NA
01742,Middlesex County,MA,NA,36.786188579017264,NA
01775,Middlesex County,MA,NA,97.21115537848605,NA
01778,Middlesex County,MA,NA,85.3917662682603,NA
01803,Middlesex County,MA,NA,1.593625498007968,NA
01810,Essex County,MA,NA,76.75962815405046,NA
01821,Middlesex County,MA,NA,NA,28.362573099415204
01835,Essex County,MA,NA,NA,50.877192982456144
01844,Essex County,MA,NA,28.15405046480744,NA
01863,Middlesex County,MA,NA,96.41434262948208,NA
01876,Middlesex County,MA,NA,25.232403718459494,NA
01887,Middlesex County,MA,NA,17.52988047808765,NA
01905,Essex County,MA,NA,2.788844621513944,NA
01906,Essex County,MA,NA,3.4528552456839305,2.046783625730994
01940,Essex County,MA,NA,93.35989375830013,NA
01945,Essex County,MA,NA,NA,74.85380116959064
01949,Essex County,MA,NA,93.22709163346613,NA
01960,Essex County,MA,NA,NA,0
01970,Essex County,MA,0.46728971962616817,NA,NA
02021,Norfolk County,MA,14.485981308411214,NA,95.90643274853801
02038,Norfolk County,MA,NA,69.45551128818062,97.6608187134503
02048,Bristol County,MA,NA,74.6347941567065,NA
02061,Plymouth County,MA,56.074766355140184,NA,NA
02121,Suffolk County,MA,NA,64.27622841965471,NA
02130,Suffolk County,MA,63.3177570093458,NA,NA
02131,Suffolk County,MA,49.29906542056075,NA,NA
02136,Suffolk County,MA,43.925233644859816,NA,NA
02138,Middlesex County,MA,NA,2.3904382470119523,NA
02144,Middlesex County,MA,NA,39.44223107569721,NA
02145,Middlesex County,MA,51.63551401869159,NA,NA
02149,Middlesex County,MA,NA,NA,0.5847953216374269
02150,Suffolk County,MA,0,NA,NA
02151,Suffolk County,MA,NA,0,NA
02190,Norfolk County,MA,57.476635514018696,NA,NA
02302,Plymouth County,MA,NA,15.405046480743692,32.748538011695906
02324,Plymouth County,MA,79.2056074766355,NA,NA
02375,Bristol County,MA,NA,NA,59.94152046783626
02474,Middlesex County,MA,NA,NA,4.093567251461988
02481,Norfolk County,MA,NA,NA,59.06432748538012
02536,Barnstable County,MA,NA,52.722443559096945,72.80701754385966
02540,Barnstable County,MA,NA,36.52058432934927,56.72514619883041
02703,Bristol County,MA,NA,76.36122177954847,NA
02724,Bristol County,MA,32.94392523364486,NA,NA
02744,Bristol County,MA,NA,NA,27.485380116959064
02745,Bristol County,MA,0.7009345794392523,NA,NA
02770,Plymouth County,MA,NA,NA,98.83040935672514
02790,Bristol County,MA,NA,8.632138114209829,NA
48026,Macomb County,MI,NA,75.4316069057105,NA
48035,Macomb County,MI,NA,NA,80.7017543859649
48038,Macomb County,MI,NA,70.78353253652058,NA
48042,Macomb County,MI,NA,10.49136786188579,NA
48081,Macomb County,MI,41.1214953271028,NA,NA
48082,Macomb County,MI,NA,48.33997343957503,NA
48083,Oakland County,MI,93.92523364485982,NA,NA
48092,Macomb County,MI,NA,NA,72.51461988304094
48131,Monroe County,MI,NA,64.5418326693227,NA
48137,Livingston County,MI,NA,80.61088977423638,NA
48138,Wayne County,MI,NA,48.73837981407703,NA
48144,Monroe County,MI,NA,97.60956175298804,NA
48146,Wayne County,MI,27.33644859813084,44.48871181938911,NA
48169,Livingston County,MI,91.1214953271028,31.872509960159363,36.54970760233918
48173,Wayne County,MI,30.373831775700932,35.723771580345286,NA
48178,Oakland County,MI,66.1214953271028,NA,NA
48183,Wayne County,MI,NA,NA,32.45614035087719
48184,Wayne County,MI,65.42056074766354,NA,NA
48187,Wayne County,MI,NA,38.114209827357236,NA
48197,Washtenaw County,MI,NA,80.0796812749004,NA
48207,Wayne County,MI,NA,14.608233731739709,NA
48213,Wayne County,MI,4.906542056074766,NA,NA
48236,Wayne County,MI,NA,NA,89.76608187134502
48237,Oakland County,MI,48.13084112149533,NA,NA
48306,Oakland County,MI,NA,53.51925630810093,NA
48307,Oakland County,MI,NA,NA,5.555555555555555
48314,Macomb County,MI,NA,48.60557768924303,NA
48322,Oakland County,MI,NA,26.693227091633464,NA
48328,Oakland County,MI,NA,61.08897742363878,NA
48329,Oakland County,MI,NA,7.702523240371846,NA
48331,Oakland County,MI,NA,96.14873837981408,NA
48334,Oakland County,MI,66.82242990654206,NA,NA
48371,Oakland County,MI,NA,63.745019920318725,NA
48374,Oakland County,MI,NA,56.440903054448874,NA
48381,Oakland County,MI,NA,84.59495351925631,NA
48386,Oakland County,MI,51.86915887850467,NA,NA
48430,Genesee County,MI,11.214953271028037,NA,NA
48441,Huron County,MI,NA,96.67994687915007,NA
48457,Genesee County,MI,NA,49.40239043824701,NA
48532,Genesee County,MI,NA,50.59760956175299,NA
48604,Saginaw County,MI,NA,90.83665338645417,NA
48615,Gratiot County,MI,NA,99.867197875166,NA
48624,Gladwin County,MI,NA,NA,85.38011695906432
48642,Midland County,MI,8.878504672897195,NA,NA
48661,Ogemaw County,MI,NA,92.56308100929614,NA
48723,Tuscola County,MI,NA,41.56706507304117,NA
48801,Gratiot County,MI,NA,NA,34.7953216374269
48843,Livingston County,MI,20.5607476635514,NA,NA
48846,Ionia County,MI,79.43925233644859,NA,NA
48849,Ionia County,MI,NA,41.43426294820717,NA
48867,Shiawassee County,MI,25,NA,NA
49014,Calhoun County,MI,NA,32.536520584329345,NA
49022,Berrien County,MI,4.205607476635514,NA,NA
49091,St. Joseph County,MI,78.03738317757009,NA,NA
49093,St. Joseph County,MI,NA,NA,80.4093567251462
49120,Berrien County,MI,82.2429906542056,NA,NA
49221,Lenawee County,MI,1.1682242990654206,NA,NA
49228,Lenawee County,MI,NA,NA,79.23976608187134
49229,Lenawee County,MI,94.62616822429906,NA,NA
49240,Jackson County,MI,NA,26.029216467463478,NA
49250,Hillsdale County,MI,87.85046728971963,NA,NA
49333,Barry County,MI,NA,88.84462151394422,NA
49349,Newaygo County,MI,NA,97.74236387782204,NA
49426,Ottawa County,MI,NA,NA,42.98245614035088
49441,Muskegon County,MI,NA,NA,33.33333333333333
49445,Muskegon County,MI,NA,70.3851261620186,NA
49507,Kent County,MI,21.72897196261682,40.504648074369186,NA
49525,Kent County,MI,NA,NA,77.48538011695906
49690,Grand Traverse County,MI,95.32710280373831,NA,NA
49740,Emmet County,MI,NA,87.25099601593625,NA
49837,Delta County,MI,NA,86.32138114209828,NA
55009,Goodhue County,MN,NA,79.2828685258964,NA
55075,Dakota County,MN,NA,NA,39.1812865497076
55076,Dakota County,MN,NA,62.54980079681275,NA
55108,Ramsey County,MN,72.89719626168224,NA,NA
55110,Ramsey County,MN,NA,15.803452855245684,NA
55125,Washington County,MN,NA,NA,39.473684210526315
55130,Ramsey County,MN,NA,43.82470119521912,NA
55331,Hennepin County,MN,NA,37.84860557768924,NA
55346,Hennepin County,MN,NA,68.12749003984064,NA
55369,Hennepin County,MN,NA,19.52191235059761,NA
55398,Sherburne County,MN,80.14018691588785,NA,NA
55407,Hennepin County,MN,2.336448598130841,NA,NA
55420,Hennepin County,MN,NA,25.630810092961486,NA
55423,Hennepin County,MN,NA,91.63346613545816,NA
55426,Hennepin County,MN,NA,37.31739707835325,NA
55427,Hennepin County,MN,27.80373831775701,NA,NA
55430,Hennepin County,MN,NA,85.2589641434263,NA
55446,Hennepin County,MN,NA,49.800796812749006,NA
55448,Anoka County,MN,NA,57.90172642762285,NA
55804,St. Louis County,MN,NA,15.272244355909695,NA
56071,Scott County,MN,72.42990654205607,61.221779548472774,NA
56081,Watonwan County,MN,49.76635514018692,NA,NA
56178,Lincoln County,MN,99.06542056074767,NA,NA
56301,Stearns County,MN,NA,NA,48.53801169590643
56560,Clay County,MN,NA,NA,65.2046783625731
56601,Beltrami County,MN,NA,72.77556440903055,NA
38637,DeSoto County,MS,NA,NA,35.96491228070175
38843,Itawamba County,MS,NA,NA,76.60818713450293
39119,Covington County,MS,NA,94.42231075697211,NA
39208,Rankin County,MS,NA,46.08233731739708,NA
39209,Hinds County,MS,NA,21.248339973439574,NA
39426,Pearl River County,MS,NA,37.98140770252324,NA
39466,Pearl River County,MS,NA,54.7144754316069,NA
39520,Hancock County,MS,35.046728971962615,NA,NA
39564,Jackson County,MS,NA,65.60424966799468,NA
39730,Monroe County,MS,NA,NA,27.77777777777778
63049,Jefferson County,MO,NA,NA,98.24561403508771
63077,Franklin County,MO,NA,36.254980079681275,NA
63084,Franklin County,MO,NA,NA,62.57309941520468
63108,St. Louis city,MO,NA,NA,92.69005847953217
63123,St. Louis County,MO,NA,NA,56.14035087719298
63132,St. Louis County,MO,NA,62.15139442231076,NA
63146,St. Louis County,MO,NA,33.731739707835324,NA
63301,St. Charles County,MO,NA,28.552456839309432,NA
63366,St. Charles County,MO,65.18691588785047,NA,NA
63367,St. Charles County,MO,NA,80.74369189907038,NA
63376,St. Charles County,MO,4.439252336448598,NA,NA
63385,St. Charles County,MO,NA,74.10358565737052,NA
63640,St. Francois County,MO,79.90654205607477,NA,NA
63845,Mississippi County,MO,NA,39.04382470119522,NA
63957,Wayne County,MO,NA,NA,86.25730994152046
64055,Jackson County,MO,3.0373831775700935,NA,NA
64064,Jackson County,MO,NA,95.48472775564409,NA
64068,Clay County,MO,NA,46.74634794156706,NA
64113,Jackson County,MO,NA,NA,97.36842105263158
64118,Clay County,MO,NA,84.4621513944223,74.26900584795322
64123,Jackson County,MO,NA,82.47011952191235,NA
64138,Jackson County,MO,31.074766355140188,NA,NA
64155,Clay County,MO,NA,27.622841965471444,NA
64505,Buchanan County,MO,47.19626168224299,NA,NA
64507,Buchanan County,MO,NA,NA,64.61988304093568
64725,Cass County,MO,90.88785046728972,NA,NA
65233,Cooper County,MO,54.90654205607477,NA,NA
65608,Douglas County,MO,NA,NA,57.60233918128655
65802,Greene County,MO,NA,NA,8.771929824561402
65804,Greene County,MO,13.551401869158877,NA,NA
59701,Silver Bow County,MT,NA,67.59628154050465,NA
59741,Gallatin County,MT,82.94392523364486,NA,NA
59828,Ravalli County,MT,NA,47.54316069057105,NA
59840,Ravalli County,MT,90.18691588785047,NA,NA
59847,Missoula County,MT,NA,99.07038512616202,NA
68116,Douglas County,NE,NA,NA,83.04093567251462
68124,Douglas County,NE,63.084112149532714,NA,NA
68134,Douglas County,NE,NA,98.53917662682603,NA
68136,Sarpy County,NE,NA,NA,73.68421052631578
68333,Saline County,NE,NA,60.823373173970786,NA
69337,Dawes County,NE,NA,81.93891102257636,NA
89104,Clark County,NV,NA,NA,22.514619883040936
89131,Clark County,NV,NA,21.115537848605577,NA
89178,Clark County,NV,42.99065420560748,NA,NA
89434,Washoe County,NV,NA,NA,15.789473684210526
89511,Washoe County,NV,35.280373831775705,NA,NA
89512,Washoe County,NV,NA,79.01726427622842,NA
89703,Carson City,NV,NA,34.79415670650731,NA
03054,Hillsborough County,NH,NA,6.374501992031872,NA
03064,Hillsborough County,NH,33.177570093457945,NA,NA
03103,Hillsborough County,NH,83.41121495327103,NA,NA
03104,Hillsborough County,NH,NA,59.8937583001328,NA
03458,Hillsborough County,NH,NA,95.0863213811421,NA
03755,Grafton County,NH,89.7196261682243,NA,NA
03801,Rockingham County,NH,81.77570093457945,NA,NA
03848,Rockingham County,NH,43.45794392523364,NA,NA
03862,Rockingham County,NH,NA,55.90969455511288,NA
07026,Bergen County,NJ,NA,95.88313413014609,NA
07030,Hudson County,NJ,NA,NA,19.298245614035086
07035,Morris County,NJ,NA,38.24701195219124,NA
07041,Essex County,NJ,99.53271028037383,NA,NA
07052,Essex County,NJ,6.308411214953271,NA,NA
07076,Union County,NJ,NA,73.70517928286853,NA
07081,Union County,NJ,NA,60.55776892430279,NA
07087,Hudson County,NJ,NA,NA,73.09941520467837
07105,Essex County,NJ,NA,NA,88.59649122807018
07111,Essex County,NJ,3.2710280373831773,NA,41.812865497076025
07204,Union County,NJ,NA,85.1261620185923,NA
07304,Hudson County,NJ,NA,NA,17.543859649122805
07420,Passaic County,NJ,NA,44.35590969455511,NA
07430,Bergen County,NJ,NA,90.57104913678619,NA
07524,Passaic County,NJ,NA,NA,83.91812865497076
07627,Bergen County,NJ,NA,99.60159362549801,NA
07628,Bergen County,NJ,NA,NA,84.7953216374269
07856,Morris County,NJ,NA,62.94820717131474,NA
07920,Somerset County,NJ,NA,69.7211155378486,NA
07960,Morris County,NJ,NA,71.58034528552457,NA
08003,Camden County,NJ,NA,NA,8.187134502923977
08021,Camden County,NJ,NA,2.921646746347941,NA
08034,Camden County,NJ,17.523364485981308,NA,NA
08050,Ocean County,NJ,NA,68.39309428950862,NA
08069,Salem County,NJ,35.981308411214954,NA,NA
08077,Burlington County,NJ,NA,30.54448871181939,NA
08080,Gloucester County,NJ,NA,73.30677290836654,NA
08087,Ocean County,NJ,NA,NA,5.847953216374268
08094,Gloucester County,NJ,NA,NA,96.19883040935673
08104,Camden County,NJ,NA,66.79946879150066,NA
08107,Camden County,NJ,NA,49.136786188579016,NA
08230,Cape May County,NJ,46.96261682242991,NA,NA
08232,Atlantic County,NJ,NA,9.827357237715804,NA
08234,Atlantic County,NJ,NA,4.648074369189907,NA
08260,Cape May County,NJ,NA,73.17397078353254,NA
08302,Cumberland County,NJ,NA,3.851261620185923,NA
08332,Cumberland County,NJ,32.71028037383177,NA,NA
08360,Cumberland County,NJ,2.570093457943925,NA,NA
08505,Burlington County,NJ,NA,98.80478087649402,NA
08527,Ocean County,NJ,NA,33.46613545816733,NA
08530,Hunterdon County,NJ,NA,NA,69.88304093567251
08648,Mercer County,NJ,NA,16.733067729083665,NA
08701,Ocean County,NJ,NA,16.865869853917662,NA
08724,Ocean County,NJ,NA,5.444887118193891,6.432748538011696
08755,Ocean County,NJ,NA,NA,2.923976608187134
08759,Ocean County,NJ,NA,0.796812749003984,NA
08844,Somerset County,NJ,NA,NA,62.28070175438597
08902,Middlesex County,NJ,37.38317757009346,NA,NA
87112,Bernalillo County,NM,NA,NA,54.385964912280706
87114,Bernalillo County,NM,NA,21.646746347941566,NA
87301,McKinley County,NM,NA,49.26958831341302,NA
87410,San Juan County,NM,54.4392523364486,NA,NA
87501,Santa Fe County,NM,NA,NA,97.953216374269
87557,Taos County,NM,NA,99.20318725099602,NA
88007,Doa Ana County,NM,NA,55.644090305444884,NA
88012,Doa Ana County,NM,17.056074766355138,NA,NA
88030,Luna County,NM,NA,19.787516600265604,NA
88210,Eddy County,NM,NA,NA,35.08771929824561
10001,New York County,NY,19.859813084112147,NA,NA
10009,New York County,NY,NA,NA,32.16374269005848
10010,New York County,NY,52.336448598130836,NA,NA
10011,New York County,NY,NA,84.9933598937583,NA
10016,New York County,NY,NA,NA,86.54970760233918
10021,New York County,NY,NA,9.56175298804781,NA
10023,New York County,NY,NA,NA,63.1578947368421
10025,New York County,NY,NA,71.71314741035857,NA
10029,New York County,NY,NA,0.2656042496679947,NA
10034,New York County,NY,NA,22.84196547144754,NA
10304,Richmond County,NY,NA,47.67596281540505,NA
10306,Richmond County,NY,81.54205607476635,54.448871181938905,NA
10314,Richmond County,NY,32.00934579439252,NA,NA
10451,Bronx County,NY,NA,2.6560424966799467,NA
10452,Bronx County,NY,NA,74.36918990703852,NA
10459,Bronx County,NY,NA,NA,30.994152046783626
10468,Bronx County,NY,NA,16.201859229747676,61.98830409356725
10472,Bronx County,NY,NA,35.85657370517929,NA
10504,Westchester County,NY,NA,NA,63.450292397660824
10522,Westchester County,NY,NA,68.65869853917663,NA
10533,Westchester County,NY,NA,78.75166002656042,NA
10538,Westchester County,NY,NA,99.33598937583001,NA
10901,Rockland County,NY,NA,86.18857901726427,NA
11040,Nassau County,NY,NA,NA,13.157894736842104
11103,Queens County,NY,NA,89.9070385126162,NA
11106,Queens County,NY,NA,NA,40.058479532163744
11204,Kings County,NY,NA,13.41301460823373,NA
11214,Kings County,NY,NA,46.21513944223107,NA
11218,Kings County,NY,80.8411214953271,NA,NA
11222,Kings County,NY,NA,31.47410358565737,NA
11224,Kings County,NY,NA,49.00398406374502,37.719298245614034
11226,Kings County,NY,NA,50.73041168658698,NA
11228,Kings County,NY,NA,18.725099601593627,NA
11230,Kings County,NY,7.242990654205607,NA,NA
11233,Kings County,NY,12.383177570093459,NA,NA
11236,Kings County,NY,NA,48.472775564409034,NA
11355,Queens County,NY,NA,36.65338645418327,NA
11370,Queens County,NY,NA,NA,28.07017543859649
11373,Queens County,NY,NA,34.9269588313413,NA
11411,Queens County,NY,NA,NA,35.38011695906433
11422,Queens County,NY,NA,28.021248339973436,NA
11423,Queens County,NY,NA,82.60292164674635,NA
11542,Nassau County,NY,NA,91.76626826029216,NA
11550,Nassau County,NY,NA,23.240371845949532,NA
11559,Nassau County,NY,NA,98.14077025232405,NA
11572,Nassau County,NY,NA,31.606905710491368,NA
11590,Nassau County,NY,86.44859813084112,NA,NA
11598,Nassau County,NY,NA,53.65205843293492,NA
11727,Suffolk County,NY,33.64485981308411,NA,NA
11757,Suffolk County,NY,NA,41.03585657370518,NA
11758,Nassau County,NY,60.747663551401864,NA,NA
11772,Suffolk County,NY,NA,66.00265604249668,NA
11967,Suffolk County,NY,NA,NA,55.26315789473685
12019,Saratoga County,NY,45.32710280373832,NA,NA
12186,Albany County,NY,NA,84.86055776892431,NA
12203,Albany County,NY,NA,17.66268260292165,NA
12580,Dutchess County,NY,NA,86.58698539176626,NA
12701,Sullivan County,NY,NA,80.47808764940238,NA
12721,Sullivan County,NY,96.26168224299066,NA,NA
12771,Orange County,NY,NA,78.61885790172643,NA
12972,Clinton County,NY,28.738317757009348,NA,NA
12986,Franklin County,NY,NA,NA,85.08771929824562
13021,Cayuga County,NY,NA,23.107569721115535,NA
13027,Onondaga County,NY,NA,5.843293492695882,NA
13042,Oswego County,NY,82.71028037383178,NA,NA
13126,Oswego County,NY,NA,NA,3.8011695906432745
13146,Wayne County,NY,76.4018691588785,NA,NA
13210,Onondaga County,NY,56.30841121495327,NA,NA
13413,Oneida County,NY,NA,NA,44.44444444444444
13440,Oneida County,NY,NA,44.8871181938911,NA
13642,St. Lawrence County,NY,84.81308411214953,NA,NA
13748,Broome County,NY,93.45794392523365,NA,NA
13778,Chenango County,NY,NA,92.29747675962815,NA
13901,Broome County,NY,NA,1.4608233731739706,NA
13905,Broome County,NY,19.39252336448598,NA,NA
14001,Erie County,NY,NA,NA,69.2982456140351
14020,Genesee County,NY,5.607476635514018,NA,NA
14043,Erie County,NY,NA,31.739707835325365,NA
14072,Erie County,NY,NA,NA,68.71345029239765
14075,Erie County,NY,NA,2.5232403718459495,NA
14086,Erie County,NY,NA,92.43027888446214,NA
14125,Genesee County,NY,71.26168224299066,NA,NA
14216,Erie County,NY,NA,83.53253652058433,NA
14221,Erie County,NY,5.14018691588785,83.13413014608234,NA
14222,Erie County,NY,NA,83.66533864541833,NA
14224,Erie County,NY,NA,64.14342629482071,NA
14227,Erie County,NY,29.439252336448597,NA,NA
14228,Erie County,NY,80.60747663551402,NA,NA
14411,Orleans County,NY,NA,94.28950863213812,NA
14424,Ontario County,NY,16.355140186915886,0.398406374501992,NA
14450,Monroe County,NY,52.570093457943926,0.6640106241699867,NA
14456,Ontario County,NY,53.0373831775701,1.7264276228419653,NA
14472,Monroe County,NY,62.850467289719624,NA,NA
14482,Genesee County,NY,26.401869158878505,NA,NA
14526,Monroe County,NY,6.5420560747663545,NA,NA
14580,Monroe County,NY,NA,1.859229747675963,NA
14590,Wayne County,NY,22.66355140186916,27.75564409030544,NA
14609,Monroe County,NY,25.46728971962617,NA,NA
14612,Monroe County,NY,NA,33.59893758300132,NA
14616,Monroe County,NY,7.476635514018691,76.89243027888446,NA
14620,Monroe County,NY,NA,75.0332005312085,NA
14624,Monroe County,NY,NA,0.9296148738379815,NA
14701,Chautauqua County,NY,0.9345794392523363,NA,NA
14706,Cattaraugus County,NY,NA,88.04780876494024,NA
14770,Cattaraugus County,NY,NA,99.734395750332,NA
14845,Chemung County,NY,NA,11.288180610889773,NA
27011,Yadkin County,NC,NA,NA,93.56725146198829
27012,Forsyth County,NC,NA,58.964143426294825,NA
27205,Randolph County,NC,NA,41.699867197875164,NA
27215,Alamance County,NC,NA,1.9920318725099602,NA
27253,Alamance County,NC,NA,5.9760956175298805,NA
27278,Orange County,NC,NA,20.717131474103585,NA
27292,Davidson County,NC,NA,0.5312084993359893,NA
27320,Rockingham County,NC,54.20560747663551,3.5856573705179287,NA
27332,Lee County,NC,85.74766355140187,NA,NA
27344,Chatham County,NC,NA,NA,22.807017543859647
27358,Guilford County,NC,75,61.48738379814077,NA
27409,Guilford County,NC,NA,82.33731739707835,NA
27410,Guilford County,NC,36.44859813084112,NA,NA
27510,Orange County,NC,31.542056074766357,NA,NA
27516,Orange County,NC,NA,19.52191235059761,NA
27517,Orange County,NC,NA,11.155378486055776,NA
27519,Wake County,NC,NA,NA,96.49122807017544
27526,Wake County,NC,NA,68.79150066401063,NA
27587,Wake County,NC,41.822429906542055,3.3200531208499333,NA
27603,Wake County,NC,NA,29.880478087649404,NA
27707,Durham County,NC,NA,56.97211155378486,NA
27803,Nash County,NC,NA,19.256308100929616,NA
27831,Northampton County,NC,84.57943925233646,NA,NA
27949,Dare County,NC,NA,43.02788844621514,NA
28025,Cabarrus County,NC,46.26168224299065,NA,NA
28027,Cabarrus County,NC,8.411214953271028,NA,NA
28079,Union County,NC,NA,43.29349269588313,NA
28115,Iredell County,NC,NA,92.03187250996015,NA
28160,Rutherford County,NC,NA,NA,91.52046783625731
28173,Union County,NC,NA,42.62948207171315,80.99415204678363
28207,Mecklenburg County,NC,NA,91.89907038512615,NA
28269,Mecklenburg County,NC,44.1588785046729,NA,NA
28273,Mecklenburg County,NC,NA,36.387782204515275,NA
28334,Sampson County,NC,NA,NA,16.95906432748538
28409,New Hanover County,NC,NA,22.974767596281538,NA
28451,Brunswick County,NC,NA,50.066401062417,NA
28555,Onslow County,NC,NA,73.43957503320053,NA
28613,Catawba County,NC,NA,17.131474103585656,NA
28645,Caldwell County,NC,NA,NA,0.29239766081871343
28655,Burke County,NC,NA,NA,28.654970760233915
28658,Catawba County,NC,NA,17.795484727755646,NA
28704,Buncombe County,NC,85.2803738317757,NA,NA
28746,Rutherford County,NC,NA,89.11022576361222,NA
28762,McDowell County,NC,NA,NA,85.67251461988305
28782,Polk County,NC,75.70093457943925,NA,NA
28791,Henderson County,NC,NA,30.942895086321382,NA
28792,Henderson County,NC,NA,3.718459495351926,NA
58103,Cass County,ND,NA,NA,71.9298245614035
58201,Grand Forks County,ND,NA,66.53386454183267,NA
58554,Morton County,ND,NA,NA,42.39766081871345
43015,Delaware County,OH,22.66355140186916,NA,NA
43050,Knox County,OH,NA,9.694555112881806,NA
43055,Licking County,OH,5.373831775700935,NA,NA
43062,Licking County,OH,NA,NA,19.005847953216374
43113,Pickaway County,OH,NA,4.249667994687915,NA
43123,Franklin County,OH,60.280373831775705,NA,NA
43138,Hocking County,OH,73.13084112149532,NA,NA
43220,Franklin County,OH,NA,22.31075697211155,78.3625730994152
43230,Franklin County,OH,NA,4.913678618857902,NA
43512,Defiance County,OH,48.598130841121495,NA,NA
43551,Wood County,OH,NA,75.56440903054448,NA
43560,Lucas County,OH,NA,NA,87.71929824561403
43605,Lucas County,OH,NA,83.26693227091634,NA
43606,Lucas County,OH,68.92523364485982,NA,NA
43607,Lucas County,OH,NA,62.41699867197875,NA
43615,Lucas County,OH,NA,43.16069057104914,NA
43812,Coshocton County,OH,59.345794392523366,NA,NA
43952,Jefferson County,OH,14.018691588785046,18.193891102257638,NA
44001,Lorain County,OH,NA,NA,64.32748538011695
44012,Lorain County,OH,NA,84.32934926958832,NA
44023,Geauga County,OH,NA,NA,4.678362573099415
44035,Lorain County,OH,NA,NA,30.116959064327485
44041,Ashtabula County,OH,NA,34.39575033200531,NA
44044,Lorain County,OH,NA,NA,84.50292397660819
44047,Ashtabula County,OH,77.10280373831776,NA,NA
44052,Lorain County,OH,NA,NA,64.03508771929825
44054,Lorain County,OH,NA,NA,94.44444444444444
44060,Lake County,OH,NA,47.941567065073045,NA
44110,Cuyahoga County,OH,NA,NA,42.10526315789473
44111,Cuyahoga County,OH,NA,6.905710491367861,70.46783625730994
44121,Cuyahoga County,OH,39.953271028037385,NA,NA
44129,Cuyahoga County,OH,NA,4.780876494023905,NA
44137,Cuyahoga County,OH,11.682242990654206,NA,NA
44138,Cuyahoga County,OH,NA,40.77025232403719,NA
44144,Cuyahoga County,OH,NA,63.213811420982736,NA
44147,Cuyahoga County,OH,NA,76.62682602921646,NA
44149,Cuyahoga County,OH,NA,NA,73.9766081871345
44202,Portage County,OH,NA,86.98539176626826,NA
44221,Summit County,OH,NA,68.26029216467462,NA
44223,Summit County,OH,NA,NA,81.28654970760235
44236,Summit County,OH,NA,68.92430278884463,NA
44273,Medina County,OH,NA,79.6812749003984,NA
44306,Summit County,OH,3.9719626168224296,NA,NA
44333,Summit County,OH,NA,NA,51.16959064327485
44410,Trumbull County,OH,NA,29.482071713147413,NA
44425,Trumbull County,OH,15.186915887850466,NA,NA
44483,Trumbull County,OH,50.467289719626166,NA,NA
44511,Mahoning County,OH,NA,32.93492695883134,NA
44512,Mahoning County,OH,4.672897196261682,NA,NA
44632,Stark County,OH,NA,NA,44.15204678362573
44646,Stark County,OH,NA,4.116865869853918,NA
44657,Stark County,OH,NA,NA,49.122807017543856
44683,Tuscarawas County,OH,11.448598130841122,NA,NA
44813,Richland County,OH,NA,93.62549800796812,NA
44827,Crawford County,OH,NA,56.70650730411687,NA
44837,Huron County,OH,NA,99.46879150066401,NA
44905,Richland County,OH,NA,NA,31.871345029239766
45005,Warren County,OH,NA,NA,34.21052631578947
45014,Butler County,OH,35.51401869158878,NA,NA
45015,Butler County,OH,NA,61.354581673306775,NA
45067,Butler County,OH,NA,93.75830013280213,NA
45069,Butler County,OH,NA,24.169986719787516,NA
45102,Clermont County,OH,NA,48.73837981407703,NA
45229,Hamilton County,OH,NA,32.669322709163346,NA
45236,Hamilton County,OH,NA,NA,11.403508771929824
45248,Hamilton County,OH,NA,27.224435590969453,NA
45331,Darke County,OH,NA,NA,16.666666666666664
45431,Montgomery County,OH,NA,NA,65.49707602339181
45440,Montgomery County,OH,NA,NA,70.76023391812866
45601,Ross County,OH,NA,0.13280212483399734,15.204678362573098
45662,Scioto County,OH,NA,NA,10.818713450292398
45750,Washington County,OH,NA,7.03851261620186,NA
45850,Allen County,OH,91.82242990654206,NA,NA
45887,Allen County,OH,83.8785046728972,NA,NA
73071,Cleveland County,OK,NA,52.98804780876494,NA
73109,Oklahoma County,OK,36.21495327102804,NA,NA
73129,Oklahoma County,OK,NA,90.1726427622842,43.27485380116959
73505,Comanche County,OK,NA,22.576361221779546,NA
73507,Comanche County,OK,NA,12.217795484727755,NA
73533,Stephens County,OK,67.28971962616822,NA,NA
73662,Beckham County,OK,69.85981308411215,NA,NA
74331,Delaware County,OK,66.35514018691589,NA,NA
74801,Pottawatomie County,OK,NA,29.747675962815407,NA
74851,Pottawatomie County,OK,NA,NA,49.41520467836257
97007,Washington County,OR,38.31775700934579,NA,NA
97015,Clackamas County,OR,NA,92.82868525896414,NA
97045,Clackamas County,OR,NA,3.9840637450199203,73.39181286549707
97080,Multnomah County,OR,NA,69.8539176626826,NA
97132,Yamhill County,OR,NA,11.819389110225764,NA
97219,Multnomah County,OR,NA,77.82204515272244,NA
97232,Multnomah County,OR,NA,89.64143426294821,NA
97239,Multnomah County,OR,NA,37.18459495351926,NA
97303,Marion County,OR,NA,NA,16.08187134502924
97322,Linn County,OR,21.49532710280374,NA,2.631578947368421
97365,Lincoln County,OR,NA,64.9402390438247,NA
97370,Benton County,OR,64.01869158878505,NA,NA
97381,Marion County,OR,NA,81.80610889774236,NA
97404,Lane County,OR,NA,21.51394422310757,NA
97408,Lane County,OR,NA,NA,66.95906432748538
97479,Douglas County,OR,42.05607476635514,NA,NA
97603,Klamath County,OR,40.887850467289724,NA,NA
97701,Deschutes County,OR,NA,79.9468791500664,NA
97702,Deschutes County,OR,NA,16.46746347941567,NA
15001,Beaver County,PA,NA,35.59096945551129,NA
15003,Beaver County,PA,NA,NA,67.2514619883041
15062,Westmoreland County,PA,NA,80.87649402390437,NA
15089,Westmoreland County,PA,NA,46.480743691899065,NA
15146,Allegheny County,PA,NA,NA,33.04093567251462
15202,Allegheny County,PA,NA,56.573705179282875,NA
15207,Allegheny County,PA,NA,38.778220451527226,NA
15212,Allegheny County,PA,NA,60.95617529880478,15.497076023391813
15218,Allegheny County,PA,NA,27.490039840637447,NA
15234,Allegheny County,PA,NA,NA,24.269005847953213
15236,Allegheny County,PA,NA,45.15272244355909,NA
15241,Allegheny County,PA,NA,NA,66.08187134502924
15478,Fayette County,PA,NA,58.56573705179283,NA
15714,Cambria County,PA,47.429906542056074,NA,NA
15902,Cambria County,PA,NA,24.568393094289508,NA
16002,Butler County,PA,67.7570093457944,NA,NA
16101,Lawrence County,PA,NA,34.26294820717131,NA
16137,Mercer County,PA,NA,13.147410358565736,NA
16142,Lawrence County,PA,NA,52.589641434262944,NA
16662,Blair County,PA,NA,NA,43.859649122807014
16823,Centre County,PA,NA,NA,39.76608187134503
17011,Cumberland County,PA,92.05607476635514,NA,NA
17042,Lebanon County,PA,NA,79.15006640106242,NA
17070,Cumberland County,PA,NA,NA,38.30409356725146
17078,Lebanon County,PA,39.25233644859813,NA,NA
17112,Dauphin County,PA,NA,91.23505976095618,NA
17202,Franklin County,PA,45.5607476635514,NA,NA
17222,Franklin County,PA,NA,45.68393094289508,NA
17313,York County,PA,NA,40.63745019920319,NA
17315,York County,PA,91.58878504672897,NA,NA
17402,York County,PA,NA,NA,56.4327485380117
17522,Lancaster County,PA,NA,18.857901726427624,NA
17543,Lancaster County,PA,NA,78.48605577689243,NA
17557,Lancaster County,PA,98.36448598130842,NA,NA
17777,Northumberland County,PA,NA,91.36786188579016,NA
17820,Columbia County,PA,NA,47.277556440903055,NA
17866,Northumberland County,PA,NA,NA,55.84795321637427
18015,Northampton County,PA,NA,NA,95.02923976608187
18018,Lehigh County,PA,NA,28.286852589641438,NA
18036,Lehigh County,PA,NA,34.13014608233731,NA
18042,Northampton County,PA,2.102803738317757,NA,NA
18080,Lehigh County,PA,NA,57.63612217795485,NA
18103,Lehigh County,PA,NA,2.1248339973439574,NA
18104,Lehigh County,PA,NA,72.90836653386454,NA
18210,Carbon County,PA,NA,38.24701195219124,NA
18510,Lackawanna County,PA,NA,33.99734395750332,NA
18517,Lackawanna County,PA,NA,NA,52.33918128654971
18706,Luzerne County,PA,57.943925233644855,NA,NA
18708,Luzerne County,PA,NA,44.090305444887115,NA
18901,Bucks County,PA,NA,8.366533864541832,NA
18944,Bucks County,PA,NA,40.90305444887118,NA
19025,Montgomery County,PA,78.50467289719626,NA,NA
19035,Montgomery County,PA,NA,98.67197875166002,NA
19038,Montgomery County,PA,NA,NA,99.41520467836257
19047,Bucks County,PA,NA,89.50863213811421,NA
19061,Delaware County,PA,73.5981308411215,NA,NA
19067,Bucks County,PA,NA,NA,71.34502923976608
19072,Montgomery County,PA,39.48598130841122,NA,NA
19082,Delaware County,PA,NA,9.296148738379815,NA
19083,Delaware County,PA,NA,63.612217795484725,NA
19114,Philadelphia County,PA,NA,7.436918990703852,NA
19115,Philadelphia County,PA,NA,96.81274900398407,NA
19120,Philadelphia County,PA,NA,50.99601593625498,NA
19134,Philadelphia County,PA,NA,60.42496679946879,NA
19143,Philadelphia County,PA,15.887850467289718,NA,NA
19330,Chester County,PA,NA,59.22974767596282,NA
19355,Chester County,PA,NA,18.326693227091635,NA
19382,Chester County,PA,35.74766355140187,3.054448871181939,NA
19426,Montgomery County,PA,NA,83.66533864541833,NA
19438,Montgomery County,PA,23.83177570093458,NA,NA
19462,Montgomery County,PA,NA,75.69721115537848,59.356725146198826
19464,Montgomery County,PA,64.7196261682243,NA,NA
19468,Montgomery County,PA,NA,77.95484727755644,NA
19473,Montgomery County,PA,66.58878504672897,NA,NA
19512,Berks County,PA,NA,NA,47.953216374269005
19522,Berks County,PA,71.96261682242991,14.475431606905712,NA
19567,Berks County,PA,83.8785046728972,NA,NA
19607,Berks County,PA,NA,NA,23.976608187134502
02806,Bristol County,RI,42.523364485981304,NA,NA
02816,Kent County,RI,NA,71.84594953519256,11.695906432748536
02864,Providence County,RI,NA,22.709163346613543,NA
02878,Newport County,RI,NA,23.904382470119522,NA
02888,Kent County,RI,81.07476635514018,NA,NA
02889,Kent County,RI,NA,NA,72.22222222222221
02893,Kent County,RI,49.532710280373834,89.2430278884462,NA
02906,Providence County,RI,NA,40.1062416998672,NA
02911,Providence County,RI,NA,86.85258964143426,NA
02919,Providence County,RI,42.28971962616823,NA,NA
02920,Providence County,RI,67.5233644859813,NA,NA
29048,Orangeburg County,SC,NA,61.62018592297477,NA
29150,Sumter County,SC,NA,NA,9.35672514619883
29353,Union County,SC,NA,64.6746347941567,NA
29379,Union County,SC,NA,18.459495351925632,NA
29401,Charleston County,SC,NA,NA,93.85964912280701
29410,Berkeley County,SC,45.09345794392524,90.43824701195219,NA
29420,Dorchester County,SC,NA,69.32270916334662,NA
29455,Charleston County,SC,NA,46.34794156706507,NA
29485,Dorchester County,SC,69.62616822429906,NA,NA
29571,Marion County,SC,NA,23.638778220451528,NA
29579,Horry County,SC,58.87850467289719,52.85524568393094,40.643274853801174
29605,Greenville County,SC,NA,69.58831341301462,NA
29615,Greenville County,SC,NA,NA,40.93567251461988
29644,Greenville County,SC,26.168224299065418,NA,NA
29657,Pickens County,SC,NA,NA,96.78362573099415
29708,York County,SC,NA,30.411686586985393,NA
29728,Chesterfield County,SC,NA,NA,90.93567251461988
29801,Aiken County,SC,NA,NA,20.46783625730994
29803,Aiken County,SC,NA,50.46480743691899,NA
29841,Aiken County,SC,NA,51.79282868525896,NA
29909,Beaufort County,SC,NA,NA,6.725146198830409
57025,Union County,SD,99.76635514018692,NA,NA
57049,Union County,SD,NA,71.04913678618858,NA
57401,Brown County,SD,NA,NA,80.11695906432749
57703,Pennington County,SD,NA,88.97742363877822,NA
37042,Montgomery County,TN,NA,NA,46.198830409356724
37055,Dickson County,TN,NA,NA,28.947368421052634
37188,Robertson County,TN,NA,57.104913678618864,NA
37211,Davidson County,TN,NA,NA,76.0233918128655
37323,Bradley County,TN,88.78504672897196,NA,NA
37354,Monroe County,TN,50.23364485981309,NA,NA
37363,Hamilton County,TN,NA,17.928286852589643,NA
37419,Hamilton County,TN,NA,NA,92.10526315789474
37641,Greene County,TN,NA,26.958831341301458,NA
37743,Greene County,TN,NA,9.163346613545817,NA
37766,Campbell County,TN,NA,29.08366533864542,NA
37774,Loudon County,TN,93.69158878504673,77.02523240371846,NA
37804,Blount County,TN,NA,NA,13.742690058479532
37813,Hamblen County,TN,NA,30.278884462151396,NA
37854,Roane County,TN,80.37383177570094,NA,NA
37918,Knox County,TN,NA,48.07436918990704,NA
37919,Knox County,TN,NA,78.88446215139442,NA
37924,Knox County,TN,96.96261682242991,NA,NA
37931,Knox County,TN,NA,NA,82.45614035087719
37934,Knox County,TN,NA,87.64940239043824,NA
37938,Knox County,TN,NA,30.810092961487385,NA
38002,Shelby County,TN,NA,52.32403718459495,NA
38017,Shelby County,TN,NA,NA,91.81286549707602
38053,Shelby County,TN,NA,NA,33.91812865497076
38128,Shelby County,TN,NA,NA,54.385964912280706
38138,Shelby County,TN,NA,NA,54.97076023391813
38260,Obion County,TN,NA,70.6507304116866,NA
38375,McNairy County,TN,NA,NA,58.77192982456141
38464,Lawrence County,TN,NA,12.616201859229747,NA
75019,Dallas County,TX,NA,84.19654714475432,NA
75020,Grayson County,TX,NA,NA,18.128654970760234
75023,Collin County,TX,NA,NA,68.12865497076024
75024,Collin County,TX,NA,67.33067729083665,NA
75035,Collin County,TX,NA,21.779548472775563,NA
75042,Dallas County,TX,34.112149532710276,NA,NA
75063,Dallas County,TX,29.906542056074763,NA,NA
75092,Grayson County,TX,24.065420560747665,NA,NA
75135,Hunt County,TX,NA,NA,60.81871345029239
75156,Henderson County,TX,NA,NA,30.701754385964914
75205,Dallas County,TX,36.915887850467286,NA,NA
75224,Dallas County,TX,NA,37.71580345285525,NA
75227,Dallas County,TX,70.32710280373831,NA,NA
75228,Dallas County,TX,NA,7.171314741035857,NA
75238,Dallas County,TX,NA,32.27091633466135,NA
75287,Denton County,TX,60.046728971962615,NA,NA
75418,Fannin County,TX,NA,35.1925630810093,NA
76058,Johnson County,TX,NA,NA,81.57894736842105
76107,Tarrant County,TX,NA,25.49800796812749,NA
76115,Tarrant County,TX,NA,35.98937583001328,NA
76140,Tarrant County,TX,NA,NA,35.67251461988304
76182,Tarrant County,TX,NA,14.342629482071715,NA
76208,Denton County,TX,31.775700934579437,NA,NA
76712,McLennan County,TX,NA,NA,90.05847953216374
77008,Harris County,TX,NA,NA,31.28654970760234
77009,Harris County,TX,NA,NA,29.53216374269006
77017,Harris County,TX,NA,90.30544488711818,NA
77020,Harris County,TX,NA,81.54050464807437,NA
77024,Harris County,TX,NA,17.264276228419657,NA
77035,Harris County,TX,19.626168224299064,NA,NA
77076,Harris County,TX,58.64485981308412,NA,NA
77077,Harris County,TX,NA,13.014608233731739,NA
77079,Harris County,TX,NA,26.82602921646746,NA
77084,Harris County,TX,77.57009345794393,NA,NA
77085,Harris County,TX,NA,45.949535192563076,NA
77090,Harris County,TX,52.10280373831776,NA,NA
77303,Montgomery County,TX,NA,69.9867197875166,NA
77354,Montgomery County,TX,NA,NA,16.374269005847953
77379,Harris County,TX,NA,NA,58.187134502923975
77447,Harris County,TX,NA,NA,77.19298245614034
77479,Fort Bend County,TX,NA,NA,90.64327485380117
77498,Fort Bend County,TX,NA,23.37317397078353,NA
77505,Harris County,TX,NA,60.1593625498008,NA
77563,Galveston County,TX,NA,86.71978751660026,NA
77584,Brazoria County,TX,40.42056074766355,NA,NA
77591,Galveston County,TX,28.27102803738318,NA,NA
77632,Orange County,TX,NA,34.66135458167331,NA
77901,Victoria County,TX,NA,NA,12.280701754385964
78028,Kerr County,TX,NA,81.27490039840637,NA
78045,Webb County,TX,NA,13.280212483399733,NA
78076,Zapata County,TX,NA,NA,53.80116959064327
78132,Comal County,TX,NA,73.57237715803453,NA
78207,Bexar County,TX,NA,NA,9.941520467836257
78227,Bexar County,TX,18.22429906542056,NA,NA
78237,Bexar County,TX,13.785046728971961,NA,NA
78372,Jim Wells County,TX,NA,NA,87.13450292397661
78408,Nueces County,TX,NA,NA,75.14619883040936
78501,Hidalgo County,TX,24.065420560747665,NA,NA
78550,Cameron County,TX,21.261682242990652,NA,NA
78660,Travis County,TX,NA,13.545816733067728,NA
78704,Travis County,TX,NA,94.15670650730412,NA
78734,Travis County,TX,NA,77.55644090305445,NA
78840,Val Verde County,TX,13.084112149532709,NA,NA
79102,Potter County,TX,56.77570093457944,NA,NA
79416,Lubbock County,TX,82.00934579439252,NA,NA
79705,Midland County,TX,NA,NA,19.883040935672515
79902,El Paso County,TX,NA,NA,85.96491228070175
79907,El Paso County,TX,18.69158878504673,NA,NA
79924,El Paso County,TX,NA,11.022576361221779,NA
79934,El Paso County,TX,NA,59.36254980079681,NA
84096,Salt Lake County,UT,NA,28.818061088977426,NA
84302,Box Elder County,UT,NA,97.34395750332006,NA
84651,Utah County,UT,59.813084112149525,NA,NA
84655,Utah County,UT,NA,72.24435590969456,NA
84738,Washington County,UT,98.13084112149532,NA,NA
20169,Prince William County,VA,NA,95.2191235059761,NA
22003,Fairfax County,VA,NA,30.1460823373174,NA
22030,Fairfax County,VA,94.39252336448598,NA,NA
22124,Fairfax County,VA,53.97196261682243,NA,NA
22153,Fairfax County,VA,NA,62.28419654714475,NA
22182,Fairfax County,VA,37.850467289719624,NA,NA
22191,Prince William County,VA,55.140186915887845,NA,NA
22201,Arlington County,VA,NA,53.78486055776892,NA
22308,Fairfax County,VA,NA,NA,76.31578947368422
22314,Alexandria city,VA,14.252336448598129,NA,NA
22401,Fredericksburg city,VA,NA,37.05179282868526,NA
22407,Spotsylvania County,VA,NA,24.302788844621514,12.573099415204677
22408,Spotsylvania County,VA,NA,26.294820717131472,NA
22602,Frederick County,VA,26.869158878504674,NA,NA
22625,Frederick County,VA,90.65420560747664,NA,NA
22655,Frederick County,VA,NA,45.81673306772908,NA
22835,Page County,VA,NA,NA,42.69005847953216
22932,Albemarle County,VA,92.28971962616822,NA,NA
23024,Louisa County,VA,NA,98.00796812749005,NA
23061,Gloucester County,VA,NA,55.51128818061088,NA
23117,Louisa County,VA,NA,83.39973439575033,NA
23141,New Kent County,VA,NA,97.07835325365207,NA
23226,Richmond city,VA,NA,27.88844621513944,NA
23229,Henrico County,VA,NA,39.176626826029214,NA
23231,Henrico County,VA,10.2803738317757,NA,NA
23692,York County,VA,NA,64.01062416998671,NA
23836,Chesterfield County,VA,NA,46.87915006640107,NA
23860,Hopewell city,VA,NA,10.889774236387781,NA
23875,Prince George County,VA,50,NA,NA
24127,Craig County,VA,NA,NA,99.12280701754386
24175,Botetourt County,VA,62.149532710280376,NA,NA
24315,Bland County,VA,77.80373831775701,NA,NA
24551,Bedford County,VA,NA,NA,83.33333333333334
24557,Pittsylvania County,VA,NA,NA,45.02923976608187
24592,Halifax County,VA,NA,14.07702523240372,NA
98019,King County,WA,74.53271028037383,NA,NA
98020,Snohomish County,WA,95.56074766355141,NA,69.5906432748538
98031,King County,WA,NA,57.50332005312085,NA
98033,King County,WA,NA,NA,11.988304093567251
98043,Snohomish County,WA,NA,45.15272244355909,NA
98118,King County,WA,42.757009345794394,NA,NA
98133,King County,WA,NA,NA,48.24561403508772
98166,King County,WA,NA,22.44355909694555,NA
98198,King County,WA,NA,43.95750332005312,NA
98204,Snohomish County,WA,31.308411214953267,NA,NA
98208,Snohomish County,WA,NA,NA,63.74269005847953
98221,Skagit County,WA,NA,47.14475431606906,NA
98245,San Juan County,WA,NA,94.02390438247012,NA
98260,Island County,WA,NA,96.01593625498009,NA
98270,Snohomish County,WA,74.76635514018692,NA,NA
98312,Kitsap County,WA,NA,98.27357237715803,NA
98335,Pierce County,WA,NA,NA,14.327485380116958
98346,Kitsap County,WA,NA,NA,95.32163742690058
98375,Pierce County,WA,26.635514018691588,NA,NA
98391,Pierce County,WA,NA,41.301460823373176,NA
98506,Thurston County,WA,NA,NA,40.35087719298245
98671,Clark County,WA,NA,95.75033200531209,NA
98801,Chelan County,WA,NA,87.38379814077025,NA
99004,Spokane County,WA,NA,52.058432934926955,NA
99022,Spokane County,WA,NA,NA,59.64912280701754
99208,Spokane County,WA,NA,NA,3.508771929824561
99337,Benton County,WA,12.149532710280374,NA,NA
20002,District of Columbia,DC,1.6355140186915886,NA,NA
20011,District of Columbia,DC,NA,74.7675962815405,NA
20020,District of Columbia,DC,6.074766355140187,NA,NA
24701,Mercer County,WV,NA,11.553784860557768,NA
25271,Jackson County,WV,NA,NA,51.75438596491229
25443,Jefferson County,WV,NA,81.14209827357237,NA
26142,Wood County,WV,89.25233644859813,NA,NA
26301,Harrison County,WV,78.73831775700934,NA,NA
26330,Harrison County,WV,NA,11.952191235059761,NA
26753,Mineral County,WV,NA,NA,74.56140350877193
26847,Grant County,WV,NA,NA,37.42690058479532
53024,Ozaukee County,WI,34.112149532710276,NA,NA
53029,Waukesha County,WI,90.42056074766354,22.177954847277555,NA
53051,Waukesha County,WI,NA,8.233731739707835,NA
53073,Sheboygan County,WI,85.51401869158879,NA,NA
53081,Sheboygan County,WI,59.57943925233645,NA,NA
53120,Walworth County,WI,NA,67.86188579017264,NA
53121,Walworth County,WI,44.85981308411215,NA,NA
53122,Waukesha County,WI,NA,NA,70.17543859649122
53140,Kenosha County,WI,NA,49.40239043824701,NA
53143,Kenosha County,WI,7.943925233644859,NA,NA
53144,Kenosha County,WI,NA,NA,25.438596491228072
53188,Waukesha County,WI,NA,6.108897742363878,NA
53208,Milwaukee County,WI,77.33644859813083,NA,NA
53213,Milwaukee County,WI,NA,12.48339973439575,NA
53221,Milwaukee County,WI,NA,25.763612217795483,NA
53563,Rock County,WI,NA,88.57901726427623,NA
53959,Sauk County,WI,NA,18.59229747675963,NA
54016,St. Croix County,WI,NA,20.98273572377158,NA
54166,Shawano County,WI,NA,NA,21.34502923976608
54220,Manitowoc County,WI,NA,30.677290836653388,NA
54302,Brown County,WI,11.91588785046729,NA,NA
54403,Marathon County,WI,NA,NA,4.385964912280701
54409,Langlade County,WI,NA,NA,3.216374269005848
54449,Wood County,WI,NA,39.7078353253652,NA
54452,Lincoln County,WI,NA,NA,10.526315789473683
54901,Winnebago County,WI,NA,63.34661354581673,NA
54913,Outagamie County,WI,NA,NA,64.91228070175438
54952,Winnebago County,WI,87.38317757009347,NA,NA
54956,Winnebago County,WI,NA,33.33333333333333,NA
54961,Waupaca County,WI,NA,20.318725099601593,NA
82009,Laramie County,WY,NA,NA,25.146198830409354
82901,Sweetwater County,WY,NA,NA,91.22807017543859
