ZipCode,county,state,Adult,Retirement,Geriatric
35044,Talladega County,AL,NA,73.23688969258589,NA
35111,Tuscaloosa County,AL,NA,54.43037974683544,NA
35124,Shelby County,AL,77.05882352941177,NA,NA
35128,St. Clair County,AL,50,NA,NA
35151,Talladega County,AL,NA,NA,84.54106280193237
35204,Jefferson County,AL,NA,39.602169981916816,NA
35222,Jefferson County,AL,NA,100,NA
35226,Jefferson County,AL,NA,12.839059674502712,NA
35405,Tuscaloosa County,AL,NA,82.09764918625679,NA
35630,Lauderdale County,AL,NA,18.9873417721519,NA
35763,Madison County,AL,NA,58.04701627486437,NA
35904,Etowah County,AL,28.823529411764703,NA,NA
35950,Marshall County,AL,78.52941176470588,NA,NA
35956,Etowah County,AL,NA,52.62206148282098,NA
36079,Pike County,AL,NA,92.2242314647378,NA
36110,Montgomery County,AL,36.17647058823529,NA,NA
36116,Montgomery County,AL,11.470588235294118,NA,NA
36266,Clay County,AL,NA,86.79927667269439,NA
36277,Calhoun County,AL,NA,85.35262206148282,NA
36278,Randolph County,AL,NA,96.9258589511754,NA
36301,Houston County,AL,NA,28.75226039783002,NA
36553,Washington County,AL,99.11764705882354,NA,NA
36561,Baldwin County,AL,NA,94.39421338155516,NA
36703,Dallas County,AL,NA,NA,56.038647342995176
36732,Marengo County,AL,NA,77.57685352622062,NA
36869,Russell County,AL,36.76470588235294,NA,NA
36874,Lee County,AL,NA,51.71790235081374,NA
99654,Matanuska-Susitna Borough,AK,45.88235294117647,NA,NA
99801,Juneau City and Borough,AK,NA,64.55696202531645,NA
85032,Maricopa County,AZ,NA,14.466546112115733,NA
85041,Maricopa County,AZ,NA,NA,66.66666666666666
85054,Maricopa County,AZ,70.88235294117648,NA,NA
85208,Maricopa County,AZ,NA,87.34177215189874,NA
85210,Maricopa County,AZ,37.05882352941177,NA,NA
85248,Maricopa County,AZ,NA,NA,2.898550724637681
85250,Maricopa County,AZ,NA,84.99095840867993,NA
85259,Maricopa County,AZ,NA,71.79023508137432,NA
85282,Maricopa County,AZ,NA,NA,46.3768115942029
85301,Maricopa County,AZ,44.11764705882353,NA,NA
85304,Maricopa County,AZ,80.29411764705883,NA,43.47826086956522
85321,Pima County,AZ,NA,96.20253164556962,NA
85375,Maricopa County,AZ,NA,NA,6.280193236714976
85546,Graham County,AZ,69.41176470588235,NA,NA
85713,Pima County,AZ,NA,21.338155515370705,NA
85739,Pinal County,AZ,NA,15.551537070524413,NA
85742,Pima County,AZ,NA,NA,63.28502415458937
85747,Pima County,AZ,NA,52.98372513562387,NA
85757,Pima County,AZ,NA,NA,87.92270531400966
86004,Coconino County,AZ,NA,25.31645569620253,NA
86040,Coconino County,AZ,NA,74.50271247739603,NA
71854,Miller County,AR,21.470588235294116,NA,21.73913043478261
72205,Pulaski County,AR,NA,81.73598553345388,NA
72206,Pulaski County,AR,NA,15.913200723327305,NA
72450,Greene County,AR,NA,14.285714285714285,NA
72576,Fulton County,AR,NA,98.91500904159132,NA
72601,Boone County,AR,NA,NA,13.043478260869565
72802,Pope County,AR,NA,39.24050632911392,NA
90003,Los Angeles County,CA,NA,67.45027124773961,NA
90004,Los Angeles County,CA,NA,21.15732368896926,NA
90011,Los Angeles County,CA,NA,81.0126582278481,NA
90014,Los Angeles County,CA,NA,NA,81.15942028985508
90020,Los Angeles County,CA,NA,31.645569620253166,NA
90046,Los Angeles County,CA,85.29411764705883,NA,NA
90221,Los Angeles County,CA,NA,19.710669077757686,NA
90250,Los Angeles County,CA,NA,34.9005424954792,NA
90255,Los Angeles County,CA,16.176470588235293,NA,NA
90277,Los Angeles County,CA,NA,71.60940325497288,NA
90278,Los Angeles County,CA,NA,NA,43.96135265700483
90501,Los Angeles County,CA,NA,NA,58.454106280193244
90620,Orange County,CA,NA,43.76130198915009,NA
90703,Los Angeles County,CA,NA,41.41048824593128,NA
90712,Los Angeles County,CA,NA,28.028933092224236,NA
90731,Los Angeles County,CA,NA,14.647377938517177,NA
90732,Los Angeles County,CA,NA,97.46835443037975,NA
90745,Los Angeles County,CA,NA,NA,14.492753623188406
90815,Los Angeles County,CA,53.23529411764706,NA,NA
91030,Los Angeles County,CA,NA,50.45207956600362,NA
91302,Los Angeles County,CA,NA,48.4629294755877,NA
91320,Ventura County,CA,NA,NA,32.367149758454104
91401,Los Angeles County,CA,NA,64.73779385171791,NA
91504,Los Angeles County,CA,NA,76.85352622061484,NA
91604,Los Angeles County,CA,NA,NA,68.59903381642512
91762,San Bernardino County,CA,92.05882352941175,NA,NA
91786,San Bernardino County,CA,42.64705882352941,NA,NA
91942,San Diego County,CA,70,NA,NA
92021,San Diego County,CA,8.529411764705882,NA,NA
92057,San Diego County,CA,NA,71.24773960216999,NA
92058,San Diego County,CA,NA,59.3128390596745,NA
92071,San Diego County,CA,57.94117647058824,NA,NA
92103,San Diego County,CA,NA,51.35623869801085,NA
92113,San Diego County,CA,83.82352941176471,NA,NA
92129,San Diego County,CA,NA,73.59855334538878,NA
92131,San Diego County,CA,NA,70.34358047016275,NA
92154,San Diego County,CA,NA,12.47739602169982,NA
92211,Riverside County,CA,NA,4.701627486437613,NA
92225,Riverside County,CA,67.94117647058823,NA,NA
92240,Riverside County,CA,12.058823529411764,NA,NA
92264,Riverside County,CA,NA,6.148282097649186,NA
92324,San Bernardino County,CA,NA,87.70343580470163,NA
92336,San Bernardino County,CA,NA,NA,67.6328502415459
92346,San Bernardino County,CA,NA,72.33273056057867,NA
92530,Riverside County,CA,NA,57.50452079566004,NA
92624,Orange County,CA,81.47058823529412,NA,NA
92625,Orange County,CA,NA,98.19168173598554,NA
92627,Orange County,CA,10.882352941176471,NA,NA
92651,Orange County,CA,NA,25.135623869801083,NA
92691,Orange County,CA,NA,91.500904159132,NA
92692,Orange County,CA,NA,13.5623869801085,4.830917874396135
92880,Riverside County,CA,NA,NA,44.927536231884055
93021,Ventura County,CA,NA,28.390596745027125,NA
93063,Ventura County,CA,NA,35.80470162748644,NA
93110,Santa Barbara County,CA,NA,61.84448462929476,NA
93245,Kings County,CA,NA,NA,55.072463768115945
93277,Tulare County,CA,NA,10.488245931283906,NA
93305,Kern County,CA,NA,77.75768535262206,NA
93306,Kern County,CA,NA,78.30018083182641,NA
93308,Kern County,CA,NA,80.6509945750452,NA
93420,San Luis Obispo County,CA,NA,24.95479204339964,NA
93454,Santa Barbara County,CA,NA,NA,49.75845410628019
93701,Fresno County,CA,67.05882352941175,NA,NA
93725,Fresno County,CA,90.88235294117646,NA,NA
93923,Monterey County,CA,NA,58.77034358047016,NA
94102,San Francisco County,CA,32.35294117647059,32.5497287522604,NA
94103,San Francisco County,CA,39.11764705882353,NA,NA
94109,San Francisco County,CA,NA,NA,57.00483091787439
94110,San Francisco County,CA,25.588235294117645,NA,NA
94114,San Francisco County,CA,NA,30.560578661844485,NA
94116,San Francisco County,CA,NA,19.529837251356238,NA
94117,San Francisco County,CA,20.88235294117647,47.55877034358047,NA
94122,San Francisco County,CA,NA,74.68354430379746,NA
94134,San Francisco County,CA,NA,76.49186256781194,NA
94520,Contra Costa County,CA,NA,37.43218806509946,NA
94549,Contra Costa County,CA,NA,77.9385171790235,NA
94555,Alameda County,CA,45.294117647058826,NA,NA
94605,Alameda County,CA,NA,NA,21.256038647342994
94607,Alameda County,CA,NA,NA,91.78743961352657
94609,Alameda County,CA,NA,97.83001808318264,NA
94610,Alameda County,CA,42.35294117647059,NA,NA
95051,Santa Clara County,CA,NA,NA,77.29468599033817
95060,Santa Cruz County,CA,NA,26.763110307414106,NA
95204,San Joaquin County,CA,NA,40.86799276672694,NA
95348,Merced County,CA,NA,39.42133815551537,NA
95361,Stanislaus County,CA,25.294117647058822,NA,NA
95409,Sonoma County,CA,NA,NA,9.178743961352657
95446,Sonoma County,CA,86.76470588235294,NA,NA
95519,Humboldt County,CA,NA,28.57142857142857,NA
95616,Yolo County,CA,68.23529411764706,NA,NA
95628,Sacramento County,CA,NA,59.6745027124774,NA
95642,Amador County,CA,NA,85.17179023508137,NA
95648,Placer County,CA,NA,35.081374321880645,NA
95667,El Dorado County,CA,NA,NA,45.410628019323674
95678,Placer County,CA,NA,79.20433996383363,NA
95747,Placer County,CA,NA,45.750452079566,NA
95949,Nevada County,CA,NA,52.62206148282098,NA
95954,Butte County,CA,23.823529411764703,NA,NA
95966,Butte County,CA,NA,4.520795660036167,NA
95969,Butte County,CA,42.05882352941177,NA,NA
80005,Jefferson County,CO,NA,61.66365280289331,NA
80013,Arapahoe County,CO,6.764705882352941,13.200723327305605,NA
80033,Jefferson County,CO,NA,36.34719710669078,NA
80112,Arapahoe County,CO,NA,56.78119349005425,NA
80113,Arapahoe County,CO,NA,89.1500904159132,NA
80127,Jefferson County,CO,NA,NA,83.57487922705315
80206,Denver County,CO,64.11764705882354,NA,NA
80215,Jefferson County,CO,NA,NA,41.54589371980676
80260,Adams County,CO,NA,59.13200723327306,NA
80302,Boulder County,CO,NA,42.13381555153707,NA
80513,Larimer County,CO,67.64705882352942,NA,NA
80863,Teller County,CO,NA,88.78842676311031,NA
80907,El Paso County,CO,NA,35.62386980108499,NA
81001,Pueblo County,CO,NA,23.32730560578662,NA
81007,Pueblo County,CO,29.117647058823533,NA,NA
81416,Delta County,CO,NA,56.23869801084991,NA
81504,Mesa County,CO,60.588235294117645,NA,NA
06051,Hartford County,CT,3.2352941176470593,11.39240506329114,NA
06053,Hartford County,CT,NA,36.708860759493675,NA
06401,New Haven County,CT,NA,37.070524412296564,NA
06450,New Haven County,CT,49.411764705882355,NA,NA
06457,Middlesex County,CT,31.76470588235294,34.177215189873415,NA
06473,New Haven County,CT,NA,NA,73.91304347826086
06492,New Haven County,CT,NA,7.05244122965642,NA
06511,New Haven County,CT,24.11764705882353,NA,NA
06513,New Haven County,CT,41.17647058823529,NA,NA
06611,Fairfield County,CT,NA,95.29837251356238,NA
06790,Litchfield County,CT,4.705882352941177,NA,NA
06830,Fairfield County,CT,NA,20.43399638336347,NA
06840,Fairfield County,CT,NA,48.4629294755877,NA
06851,Fairfield County,CT,58.235294117647065,NA,NA
19702,New Castle County,DE,NA,30.37974683544304,NA
19709,New Castle County,DE,NA,94.03254972875226,NA
19945,Sussex County,DE,NA,36.52802893309223,NA
19947,Sussex County,DE,91.76470588235294,NA,NA
32081,St. Johns County,FL,NA,NA,86.95652173913044
32119,Volusia County,FL,NA,29.65641952983725,NA
32137,Flagler County,FL,NA,91.86256781193491,NA
32159,Lake County,FL,NA,NA,2.4154589371980677
32162,Sumter County,FL,NA,30.198915009041592,NA
32164,Flagler County,FL,NA,27.124773960217,NA
32174,Volusia County,FL,NA,6.871609403254973,3.864734299516908
32207,Duval County,FL,NA,NA,35.26570048309179
32221,Duval County,FL,15.88235294117647,NA,NA
32244,Duval County,FL,89.11764705882354,NA,NA
32246,Duval County,FL,30.294117647058822,NA,NA
32277,Duval County,FL,NA,84.44846292947558,NA
32333,Gadsden County,FL,57.647058823529406,NA,NA
32433,Walton County,FL,NA,45.931283905967454,NA
32439,Walton County,FL,NA,87.16094032549728,NA
32506,Escambia County,FL,28.235294117647058,NA,NA
32566,Santa Rosa County,FL,NA,NA,84.05797101449275
32606,Alachua County,FL,55.00000000000001,NA,NA
32640,Putnam County,FL,98.23529411764706,NA,NA
32708,Seminole County,FL,29.411764705882355,NA,NA
32773,Seminole County,FL,NA,72.69439421338156,NA
32805,Orange County,FL,17.647058823529413,NA,NA
32904,Brevard County,FL,NA,62.74864376130199,NA
33004,Broward County,FL,NA,42.857142857142854,NA
33012,Miami-Dade County,FL,66.76470588235294,NA,NA
33036,Monroe County,FL,NA,65.0994575045208,NA
33037,Monroe County,FL,NA,NA,74.39613526570048
33040,Monroe County,FL,80,NA,NA
33050,Monroe County,FL,NA,35.44303797468354,NA
33063,Broward County,FL,NA,68.71609403254972,NA
33068,Broward County,FL,28.52941176470588,NA,NA
33069,Broward County,FL,NA,38.33634719710669,NA
33125,Miami-Dade County,FL,NA,NA,42.028985507246375
33126,Miami-Dade County,FL,NA,80.47016274864376,NA
33139,Miami-Dade County,FL,NA,NA,5.797101449275362
33142,Miami-Dade County,FL,46.1764705882353,NA,NA
33157,Miami-Dade County,FL,45.588235294117645,NA,NA
33161,Miami-Dade County,FL,19.411764705882355,NA,NA
33165,Miami-Dade County,FL,NA,18.625678119349008,NA
33172,Miami-Dade County,FL,NA,88.60759493670885,NA
33177,Miami-Dade County,FL,NA,NA,15.942028985507244
33183,Miami-Dade County,FL,NA,78.48101265822784,NA
33186,Miami-Dade County,FL,NA,NA,75.36231884057972
33304,Broward County,FL,53.529411764705884,NA,NA
33308,Broward County,FL,52.64705882352941,NA,NA
33312,Broward County,FL,NA,31.28390596745027,NA
33319,Broward County,FL,79.11764705882352,NA,NA
33324,Broward County,FL,NA,64.19529837251356,NA
33411,Palm Beach County,FL,NA,NA,14.975845410628018
33415,Palm Beach County,FL,75.29411764705883,NA,NA
33434,Palm Beach County,FL,NA,NA,44.44444444444444
33455,Martin County,FL,NA,58.95117540687161,NA
33486,Palm Beach County,FL,97.05882352941177,NA,NA
33570,Hillsborough County,FL,41.47058823529412,68.1735985533454,NA
33572,Hillsborough County,FL,NA,96.38336347197107,NA
33713,Pinellas County,FL,NA,39.78300180831826,NA
33715,Pinellas County,FL,96.47058823529412,NA,NA
33810,Polk County,FL,NA,NA,56.52173913043478
33896,Polk County,FL,97.35294117647058,NA,NA
33947,Charlotte County,FL,NA,49.728752260397826,NA
34102,Collier County,FL,NA,NA,34.29951690821256
34104,Collier County,FL,NA,29.8372513562387,NA
34119,Collier County,FL,NA,NA,12.560386473429952
34203,Manatee County,FL,35.588235294117645,NA,NA
34207,Manatee County,FL,NA,NA,33.33333333333333
34209,Manatee County,FL,43.529411764705884,NA,NA
34228,Sarasota County,FL,NA,NA,51.20772946859904
34275,Sarasota County,FL,87.94117647058823,NA,NA
34285,Sarasota County,FL,NA,11.030741410488245,NA
34293,Sarasota County,FL,NA,NA,39.61352657004831
34432,Marion County,FL,NA,44.846292947558766,NA
34446,Citrus County,FL,NA,32.91139240506329,NA
34606,Hernando County,FL,27.058823529411764,NA,NA
34614,Hernando County,FL,NA,95.11754068716094,NA
34654,Pasco County,FL,NA,30.92224231464738,NA
34741,Osceola County,FL,37.94117647058823,NA,NA
34748,Lake County,FL,NA,4.882459312839059,NA
34761,Orange County,FL,NA,83.7251356238698,NA
34952,St. Lucie County,FL,NA,21.518987341772153,NA
34953,St. Lucie County,FL,NA,3.4358047016274864,NA
34990,Martin County,FL,NA,NA,17.874396135265698
30009,Fulton County,GA,NA,NA,71.98067632850241
30012,Rockdale County,GA,NA,28.933092224231466,NA
30038,DeKalb County,GA,26.764705882352942,NA,NA
30041,Forsyth County,GA,15.294117647058824,55.15370705244123,NA
30043,Gwinnett County,GA,NA,7.59493670886076,NA
30044,Gwinnett County,GA,NA,26.94394213381555,NA
30058,DeKalb County,GA,11.176470588235295,68.35443037974683,NA
30082,Cobb County,GA,93.52941176470588,77.03435804701627,NA
30093,Gwinnett County,GA,85,NA,NA
30096,Gwinnett County,GA,NA,16.09403254972875,NA
30127,Cobb County,GA,NA,NA,78.74396135265701
30180,Carroll County,GA,NA,19.89150090415913,NA
30224,Spalding County,GA,95,NA,NA
30277,Coweta County,GA,NA,41.22965641952984,NA
30281,Henry County,GA,NA,54.61121157323689,NA
30288,Clayton County,GA,NA,69.07775768535262,NA
30290,Fayette County,GA,NA,66.18444846292948,NA
30310,Fulton County,GA,NA,52.98372513562387,NA
30311,Fulton County,GA,29.705882352941178,NA,NA
30316,DeKalb County,GA,NA,NA,92.27053140096618
30340,DeKalb County,GA,NA,NA,82.1256038647343
30344,Fulton County,GA,60,NA,NA
30349,Fulton County,GA,NA,6.6907775768535265,NA
30434,Jefferson County,GA,NA,75.9493670886076,NA
30506,Hall County,GA,NA,12.115732368896925,NA
30528,White County,GA,91.17647058823529,NA,NA
30741,Walker County,GA,9.705882352941178,NA,NA
30817,Lincoln County,GA,82.05882352941177,NA,NA
31029,Monroe County,GA,47.647058823529406,NA,NA
31055,Telfair County,GA,NA,83.54430379746836,NA
31088,Houston County,GA,NA,12.658227848101266,NA
31206,Bibb County,GA,89.70588235294117,NA,NA
31312,Effingham County,GA,79.41176470588235,NA,NA
31313,Liberty County,GA,43.23529411764706,83.3634719710669,NA
31405,Chatham County,GA,NA,21.699819168173597,NA
31503,Ware County,GA,NA,62.0253164556962,NA
31791,Worth County,GA,33.52941176470588,NA,NA
31833,Troup County,GA,NA,73.05605786618446,NA
31909,Muscogee County,GA,NA,NA,20.28985507246377
96768,Maui County,HI,NA,97.64918625678119,NA
96816,Honolulu County,HI,NA,NA,1.932367149758454
83221,Bingham County,ID,NA,NA,30.434782608695656
83713,Ada County,ID,21.176470588235293,NA,NA
83854,Kootenai County,ID,NA,13.01989150090416,NA
60004,Cook County,IL,NA,5.244122965641953,NA
60062,Cook County,IL,NA,2.5316455696202533,NA
60102,McHenry County,IL,NA,23.146473779385172,NA
60119,Kane County,IL,NA,NA,96.61835748792271
60120,Kane County,IL,14.411764705882351,NA,NA
60126,DuPage County,IL,NA,NA,73.42995169082126
60142,McHenry County,IL,NA,NA,68.11594202898551
60190,DuPage County,IL,NA,93.30922242314648,NA
60302,Cook County,IL,NA,40.6871609403255,NA
60448,Will County,IL,81.76470588235294,NA,NA
60451,Will County,IL,10,8.318264014466546,NA
60455,Cook County,IL,NA,89.33092224231464,NA
60466,Cook County,IL,68.82352941176471,NA,NA
60502,DuPage County,IL,NA,44.66546112115732,NA
60540,DuPage County,IL,NA,15.732368896925857,NA
60555,DuPage County,IL,97.6470588235294,NA,NA
60586,Will County,IL,NA,64.01446654611212,NA
60613,Cook County,IL,NA,55.69620253164557,NA
60628,Cook County,IL,5,NA,NA
60630,Cook County,IL,NA,83.90596745027125,NA
60634,Cook County,IL,52.352941176470594,NA,NA
60653,Cook County,IL,NA,81.19349005424955,NA
60654,Cook County,IL,NA,75.76853526220614,NA
60657,Cook County,IL,NA,NA,13.043478260869565
60659,Cook County,IL,68.52941176470588,NA,NA
60660,Cook County,IL,79.70588235294119,NA,NA
60964,Kankakee County,IL,76.47058823529412,NA,NA
61103,Winnebago County,IL,NA,26.40144665461121,NA
61108,Winnebago County,IL,NA,14.10488245931284,NA
61455,McDonough County,IL,NA,NA,23.18840579710145
61462,Warren County,IL,NA,NA,74.8792270531401
62206,St. Clair County,IL,NA,43.76130198915009,NA
62301,Adams County,IL,55.294117647058826,NA,NA
62702,Sangamon County,IL,NA,20.07233273056058,NA
62946,Saline County,IL,71.47058823529412,NA,NA
62959,Williamson County,IL,NA,30.018083182640144,NA
46013,Madison County,IN,NA,32.00723327305606,NA
46062,Hamilton County,IN,NA,9.584086799276673,NA
46322,Lake County,IN,NA,NA,54.589371980676326
46324,Lake County,IN,NA,14.828209764918626,NA
46356,Lake County,IN,NA,18.264014466546115,NA
46360,LaPorte County,IN,NA,38.517179023508135,NA
46383,Porter County,IN,32.05882352941177,NA,NA
46405,Lake County,IN,NA,85.53345388788426,NA
46808,Allen County,IN,NA,59.49367088607595,NA
46818,Allen County,IN,NA,63.83363471971067,NA
46902,Howard County,IN,10.294117647058822,NA,NA
46953,Grant County,IN,7.0588235294117645,NA,NA
47129,Clark County,IN,NA,27.66726943942134,NA
47201,Bartholomew County,IN,NA,NA,9.66183574879227
47243,Jefferson County,IN,NA,66.36528028933093,NA
47250,Jefferson County,IN,NA,88.42676311030742,NA
47403,Monroe County,IN,NA,55.33453887884268,NA
47710,Vanderburgh County,IN,75.88235294117646,NA,29.468599033816425
47711,Vanderburgh County,IN,NA,15.009041591320072,NA
47905,Tippecanoe County,IN,47.35294117647059,NA,NA
47906,Tippecanoe County,IN,NA,NA,22.22222222222222
50021,Polk County,IA,NA,61.12115732368897,NA
50022,Cass County,IA,NA,54.249547920434,NA
50129,Greene County,IA,99.70588235294117,NA,NA
50158,Marshall County,IA,NA,45.56962025316456,NA
50588,Buena Vista County,IA,NA,58.22784810126582,NA
51501,Pottawattamie County,IA,20.294117647058822,NA,NA
52353,Washington County,IA,NA,NA,64.25120772946859
52402,Linn County,IA,NA,35.98553345388788,NA
52537,Davis County,IA,85.88235294117646,NA,NA
52742,Clinton County,IA,NA,60.94032549728752,NA
52804,Scott County,IA,NA,19.168173598553345,NA
52806,Scott County,IA,NA,43.21880650994575,NA
66002,Atchison County,KS,67.3529411764706,NA,NA
66102,Wyandotte County,KS,NA,22.78481012658228,NA
66203,Johnson County,KS,NA,95.84086799276673,NA
66219,Johnson County,KS,NA,92.76672694394213,NA
66224,Johnson County,KS,90.29411764705883,NA,NA
66614,Shawnee County,KS,NA,NA,10.628019323671497
66762,Crawford County,KS,NA,NA,79.22705314009661
67216,Sedgwick County,KS,76.76470588235294,NA,NA
67218,Sedgwick County,KS,NA,60.03616636528029,NA
67901,Seward County,KS,NA,46.1121157323689,NA
40207,Jefferson County,KY,NA,NA,46.85990338164252
40272,Jefferson County,KY,7.647058823529412,NA,NA
40342,Anderson County,KY,NA,32.1880650994575,NA
40504,Fayette County,KY,NA,95.47920433996383,NA
40831,Harlan County,KY,NA,74.14104882459313,NA
41076,Campbell County,KY,NA,52.26039783001808,NA
41501,Pike County,KY,NA,49.90958408679928,NA
42038,Lyon County,KY,NA,75.40687160940325,NA
42206,Logan County,KY,93.23529411764706,NA,NA
42240,Christian County,KY,39.411764705882355,NA,NA
42301,Daviess County,KY,6.176470588235294,NA,NA
42303,Daviess County,KY,NA,NA,37.68115942028986
42445,Caldwell County,KY,NA,38.87884267631103,NA
42701,Hardin County,KY,22.941176470588236,NA,NA
70056,Jefferson Parish,LA,NA,NA,71.01449275362319
70065,Jefferson Parish,LA,NA,32.368896925858955,NA
70122,Orleans Parish,LA,57.05882352941176,NA,NA
70471,St. Tammany Parish,LA,NA,76.67269439421338,NA
70548,Vermilion Parish,LA,NA,NA,40.57971014492754
70775,West Feliciana Parish,LA,NA,44.48462929475588,53.14009661835749
70805,East Baton Rouge Parish,LA,NA,93.67088607594937,NA
71055,Webster Parish,LA,NA,NA,81.64251207729468
71105,Caddo Parish,LA,NA,24.593128390596743,NA
71263,West Carroll Parish,LA,NA,NA,35.748792270531396
71291,Ouachita Parish,LA,46.470588235294116,NA,NA
04002,York County,ME,NA,49.36708860759494,NA
04092,Cumberland County,ME,NA,38.155515370705245,NA
04240,Androscoggin County,ME,1.7647058823529411,NA,NA
04345,Kennebec County,ME,86.47058823529412,NA,NA
04364,Kennebec County,ME,38.529411764705884,NA,NA
04841,Knox County,ME,NA,50.63291139240506,NA
20613,Prince George's County,MD,NA,60.57866184448463,NA
20619,St. Mary's County,MD,NA,62.56781193490054,NA
20650,St. Mary's County,MD,NA,79.38517179023508,NA
20716,Prince George's County,MD,NA,NA,80.19323671497585
20744,Prince George's County,MD,30,NA,NA
20747,Prince George's County,MD,NA,78.11934900542495,NA
20815,Montgomery County,MD,NA,NA,26.08695652173913
20852,Montgomery County,MD,NA,NA,17.391304347826086
21001,Harford County,MD,NA,61.30198915009042,NA
21050,Harford County,MD,NA,78.84267631103074,NA
21061,Anne Arundel County,MD,6.470588235294119,NA,NA
21202,Baltimore city,MD,71.17647058823529,NA,NA
21207,Baltimore County,MD,NA,NA,34.78260869565217
21222,Baltimore County,MD,NA,39.059674502712475,NA
21223,Baltimore city,MD,NA,NA,78.26086956521739
21224,Baltimore city,MD,NA,57.86618444846293,NA
21225,Baltimore city,MD,NA,NA,71.49758454106279
21229,Baltimore city,MD,52.94117647058824,NA,NA
21666,Queen Anne's County,MD,NA,NA,90.82125603864735
21811,Worcester County,MD,NA,83.00180831826401,NA
21853,Somerset County,MD,NA,NA,67.14975845410628
01013,Hampden County,MA,59.705882352941174,NA,NA
01040,Hampden County,MA,NA,94.9367088607595,NA
01060,Hampshire County,MA,NA,26.03978300180832,NA
01105,Hampden County,MA,NA,NA,93.71980676328504
01201,Berkshire County,MA,0.29411764705882354,0,NA
01550,Worcester County,MA,NA,54.06871609403255,NA
01748,Middlesex County,MA,NA,86.07594936708861,NA
01773,Middlesex County,MA,NA,63.11030741410488,NA
01810,Essex County,MA,NA,9.22242314647378,NA
01841,Essex County,MA,NA,92.94755877034359,NA
01843,Essex County,MA,2.3529411764705883,NA,NA
01876,Middlesex County,MA,NA,1.2658227848101267,NA
01906,Essex County,MA,NA,64.376130198915,NA
01930,Essex County,MA,NA,65.82278481012658,NA
01938,Essex County,MA,NA,41.77215189873418,NA
01950,Essex County,MA,NA,NA,36.231884057971016
02026,Norfolk County,MA,NA,NA,7.729468599033816
02061,Plymouth County,MA,NA,NA,48.792270531400966
02081,Norfolk County,MA,NA,98.73417721518987,NA
02125,Suffolk County,MA,0.8823529411764706,NA,NA
02127,Suffolk County,MA,NA,73.41772151898735,NA
02138,Middlesex County,MA,NA,48.10126582278481,NA
02140,Middlesex County,MA,NA,NA,55.55555555555556
02148,Middlesex County,MA,0,NA,NA
02150,Suffolk County,MA,3.823529411764706,0.3616636528028933,NA
02155,Middlesex County,MA,NA,0.18083182640144665,70.53140096618358
02184,Norfolk County,MA,NA,50.81374321880651,NA
02370,Plymouth County,MA,NA,NA,36.71497584541063
02382,Plymouth County,MA,13.529411764705882,NA,NA
02476,Middlesex County,MA,NA,86.98010849909585,NA
02536,Barnstable County,MA,95.88235294117648,NA,NA
02540,Barnstable County,MA,NA,20.253164556962027,NA
02649,Barnstable County,MA,NA,NA,61.83574879227053
02703,Bristol County,MA,NA,5.424954792043399,NA
02743,Bristol County,MA,37.35294117647059,NA,NA
02771,Bristol County,MA,NA,NA,41.06280193236715
48021,Macomb County,MI,NA,45.02712477396022,NA
48060,St. Clair County,MI,NA,92.58589511754069,NA
48062,Macomb County,MI,83.52941176470588,NA,NA
48101,Wayne County,MI,NA,NA,15.458937198067632
48122,Wayne County,MI,65.58823529411765,NA,NA
48180,Wayne County,MI,2.0588235294117645,0.7233273056057866,0.966183574879227
48182,Monroe County,MI,NA,22.965641952983727,NA
48220,Oakland County,MI,NA,23.688969258589513,NA
48223,Wayne County,MI,NA,78.6618444846293,NA
48228,Wayne County,MI,NA,NA,24.154589371980677
48307,Oakland County,MI,NA,NA,8.695652173913043
48312,Macomb County,MI,NA,9.041591320072333,NA
48328,Oakland County,MI,NA,69.25858951175407,NA
48346,Oakland County,MI,NA,27.848101265822784,NA
48380,Oakland County,MI,NA,49.186256781193485,NA
48439,Genesee County,MI,NA,8.1374321880651,NA
48532,Genesee County,MI,NA,90.41591320072332,NA
48603,Saginaw County,MI,NA,22.06148282097649,NA
48658,Arenac County,MI,NA,65.28028933092224,NA
48823,Ingham County,MI,NA,37.9746835443038,NA
48867,Shiawassee County,MI,NA,3.25497287522604,NA
48906,Ingham County,MI,NA,52.07956600361664,NA
49006,Kalamazoo County,MI,31.176470588235293,NA,NA
49015,Calhoun County,MI,51.76470588235295,NA,NA
49017,Calhoun County,MI,NA,NA,16.425120772946862
49037,Calhoun County,MI,NA,17.17902350813743,NA
49085,Berrien County,MI,NA,47.377938517179025,NA
49201,Jackson County,MI,NA,1.9891500904159132,NA
49240,Jackson County,MI,NA,77.39602169981917,NA
49329,Montcalm County,MI,82.94117647058825,NA,NA
49337,Newaygo County,MI,NA,33.09222423146474,NA
49431,Mason County,MI,NA,13.924050632911392,39.130434782608695
49504,Kent County,MI,72.35294117647058,NA,NA
49735,Otsego County,MI,NA,11.754068716094032,NA
49801,Dickinson County,MI,69.70588235294117,NA,NA
49858,Menominee County,MI,NA,43.58047016274864,NA
49953,Ontonagon County,MI,98.52941176470588,NA,NA
55021,Rice County,MN,NA,22.24231464737794,NA
55311,Hennepin County,MN,NA,NA,94.20289855072464
55371,Mille Lacs County,MN,63.23529411764706,NA,NA
55378,Scott County,MN,56.1764705882353,NA,NA
55417,Hennepin County,MN,NA,65.46112115732369,NA
55423,Hennepin County,MN,74.41176470588235,NA,NA
55426,Hennepin County,MN,NA,67.8119349005425,NA
56073,Brown County,MN,NA,NA,0.4830917874396135
56201,Kandiyohi County,MN,NA,36.166365280289334,NA
56278,Big Stone County,MN,NA,98.37251356238697,NA
56308,Douglas County,MN,NA,24.050632911392405,NA
56379,Benton County,MN,NA,74.32188065099457,NA
56425,Crow Wing County,MN,NA,96.56419529837251,NA
56601,Beltrami County,MN,NA,0.5424954792043399,NA
56721,Polk County,MN,NA,89.5117540687161,NA
38619,Panola County,MS,NA,NA,98.06763285024155
38652,Union County,MS,50.294117647058826,NA,NA
38683,Tippah County,MS,63.8235294117647,NA,NA
38863,Pontotoc County,MS,82.35294117647058,NA,NA
38866,Lee County,MS,NA,54.97287522603978,NA
39120,Adams County,MS,NA,NA,28.502415458937197
39301,Lauderdale County,MS,31.470588235294116,NA,85.99033816425121
39338,Jasper County,MS,95.58823529411765,NA,NA
39466,Pearl River County,MS,NA,79.38517179023508,NA
39532,Harrison County,MS,NA,11.211573236889691,NA
39540,Harrison County,MS,NA,37.43218806509946,NA
63020,Jefferson County,MO,40.88235294117647,NA,NA
63021,St. Louis County,MO,59.411764705882355,NA,NA
63112,St. Louis city,MO,33.82352941176471,NA,NA
63115,St. Louis city,MO,NA,31.103074141048825,NA
63119,St. Louis County,MO,44.41176470588235,NA,NA
63120,St. Louis city,MO,NA,NA,93.23671497584542
63132,St. Louis County,MO,81.17647058823529,NA,NA
63141,St. Louis County,MO,53.8235294117647,NA,NA
63366,St. Charles County,MO,NA,NA,72.94685990338165
63640,St. Francois County,MO,NA,18.806509945750452,NA
63775,Perry County,MO,NA,82.27848101265823,NA
63901,Butler County,MO,84.41176470588235,NA,NA
64048,Clay County,MO,NA,94.75587703435805,NA
64055,Jackson County,MO,NA,3.79746835443038,NA
64063,Jackson County,MO,NA,21.699819168173597,NA
64068,Clay County,MO,NA,3.616636528028933,NA
64111,Jackson County,MO,96.76470588235294,NA,NA
64124,Jackson County,MO,99.41176470588235,NA,NA
64131,Jackson County,MO,27.941176470588236,NA,NA
64157,Clay County,MO,NA,99.63833634719711,NA
64507,Buchanan County,MO,NA,NA,98.55072463768117
64772,Vernon County,MO,NA,99.09584086799276,NA
64804,Jasper County,MO,NA,4.3399638336347195,NA
64831,McDonald County,MO,NA,NA,99.03381642512076
65041,Gasconade County,MO,NA,60.75949367088608,NA
65251,Callaway County,MO,16.470588235294116,NA,NA
65301,Pettis County,MO,3.5294117647058822,NA,NA
65355,Benton County,MO,NA,68.89692585895118,NA
65401,Phelps County,MO,NA,9.764918625678119,NA
65605,Lawrence County,MO,NA,53.52622061482821,NA
65616,Taney County,MO,NA,17.90235081374322,NA
65775,Howell County,MO,NA,NA,31.88405797101449
65807,Greene County,MO,NA,59.85533453887884,NA
59270,Richland County,MT,NA,62.38698010849909,NA
59602,Lewis and Clark County,MT,NA,16.455696202531644,NA
59714,Gallatin County,MT,NA,33.634719710669074,NA
59801,Missoula County,MT,NA,74.86437613019892,NA
59864,Lake County,MT,NA,86.61844484629296,NA
68111,Douglas County,NE,72.94117647058823,NA,NA
68521,Lancaster County,NE,NA,47.920433996383366,NA
89115,Clark County,NV,NA,NA,58.93719806763285
89141,Clark County,NV,NA,49.00542495479204,NA
89148,Clark County,NV,NA,67.26943942133815,NA
89815,Elko County,NV,NA,49.54792043399638,NA
03087,Rockingham County,NH,NA,31.464737793851715,NA
03110,Hillsborough County,NH,NA,NA,8.212560386473431
03235,Merrimack County,NH,93.82352941176471,NA,NA
07005,Morris County,NJ,17.352941176470587,NA,NA
07018,Essex County,NJ,4.411764705882353,NA,NA
07022,Bergen County,NJ,NA,NA,76.32850241545893
07039,Essex County,NJ,NA,73.77938517179024,NA
07054,Morris County,NJ,NA,79.74683544303798,NA
07055,Passaic County,NJ,55.58823529411765,NA,NA
07095,Middlesex County,NJ,NA,63.47197106690777,NA
07644,Bergen County,NJ,23.52941176470588,NA,NA
07727,Monmouth County,NJ,NA,58.58951175406871,NA
07738,Monmouth County,NJ,NA,NA,95.16908212560386
07922,Union County,NJ,NA,89.69258589511753,NA
08046,Burlington County,NJ,NA,NA,85.5072463768116
08050,Ocean County,NJ,NA,NA,16.908212560386474
08062,Gloucester County,NJ,NA,99.45750452079565,NA
08096,Gloucester County,NJ,NA,20.795660036166367,NA
08104,Camden County,NJ,NA,90.77757685352623,NA
08318,Salem County,NJ,NA,NA,42.51207729468599
08332,Cumberland County,NJ,1.4705882352941175,NA,NA
08619,Mercer County,NJ,NA,NA,33.81642512077295
08750,Monmouth County,NJ,NA,99.27667269439421,NA
08755,Ocean County,NJ,NA,11.934900542495479,NA
08759,Ocean County,NJ,NA,25.49728752260398,NA
08820,Middlesex County,NJ,91.47058823529412,NA,NA
87031,Valencia County,NM,NA,62.20614828209765,NA
87059,Bernalillo County,NM,NA,93.12839059674502,NA
87108,Bernalillo County,NM,NA,29.11392405063291,NA
87123,Bernalillo County,NM,7.352941176470589,NA,NA
87124,Sandoval County,NM,NA,NA,5.314009661835748
87410,San Juan County,NM,NA,43.037974683544306,NA
10002,New York County,NY,NA,52.44122965641953,NA
10011,New York County,NY,84.70588235294117,10.126582278481013,NA
10016,New York County,NY,NA,NA,40.09661835748793
10021,New York County,NY,NA,NA,11.594202898550725
10031,New York County,NY,32.94117647058823,NA,NA
10033,New York County,NY,NA,NA,65.70048309178745
10034,New York County,NY,18.235294117647058,NA,NA
10037,New York County,NY,NA,55.87703435804702,NA
10044,New York County,NY,NA,87.88426763110307,NA
10305,Richmond County,NY,NA,42.31464737793852,NA
10306,Richmond County,NY,NA,NA,7.246376811594203
10307,Richmond County,NY,NA,97.2875226039783,NA
10452,Bronx County,NY,73.82352941176471,NA,NA
10454,Bronx County,NY,NA,NA,19.32367149758454
10456,Bronx County,NY,NA,NA,66.18357487922705
10457,Bronx County,NY,13.23529411764706,NA,NA
10462,Bronx County,NY,NA,1.62748643761302,NA
10465,Bronx County,NY,NA,66.90777576853526,NA
10467,Bronx County,NY,26.47058823529412,NA,NA
10468,Bronx County,NY,NA,1.0849909584086799,NA
10470,Bronx County,NY,NA,33.99638336347197,NA
10512,Putnam County,NY,NA,39.963833634719705,NA
10538,Westchester County,NY,85.58823529411764,NA,NA
10583,Westchester County,NY,NA,48.4629294755877,NA
10598,Westchester County,NY,NA,NA,92.7536231884058
11104,Queens County,NY,NA,94.2133815551537,NA
11207,Kings County,NY,37.64705882352941,NA,NA
11213,Kings County,NY,44.70588235294118,NA,NA
11234,Kings County,NY,NA,6.329113924050633,NA
11357,Queens County,NY,NA,24.412296564195298,NA
11422,Queens County,NY,78.82352941176471,NA,NA
11429,Queens County,NY,NA,NA,70.04830917874396
11436,Queens County,NY,NA,70.16274864376129,NA
11501,Nassau County,NY,NA,NA,50.24154589371981
11550,Nassau County,NY,22.647058823529413,NA,NA
11561,Nassau County,NY,NA,NA,52.65700483091788
11563,Nassau County,NY,NA,57.68535262206148,NA
11581,Nassau County,NY,100,NA,NA
11731,Suffolk County,NY,56.76470588235294,NA,NA
11746,Suffolk County,NY,NA,NA,26.570048309178745
11779,Suffolk County,NY,NA,26.03978300180832,NA
11961,Suffolk County,NY,NA,NA,45.893719806763286
12019,Saratoga County,NY,51.470588235294116,NA,NA
12065,Saratoga County,NY,NA,NA,38.64734299516908
12078,Fulton County,NY,NA,45.388788426763114,NA
12090,Rensselaer County,NY,NA,53.34538878842676,NA
12550,Orange County,NY,NA,55.51537070524412,NA
12590,Dutchess County,NY,88.23529411764706,NA,NA
12912,Clinton County,NY,NA,98.55334538878843,NA
13045,Cortland County,NY,22.35294117647059,NA,NA
13142,Oswego County,NY,NA,87.52260397830018,NA
13152,Onondaga County,NY,NA,83.18264014466547,NA
13159,Onondaga County,NY,92.94117647058823,NA,NA
13210,Onondaga County,NY,NA,77.21518987341773,NA
13323,Oneida County,NY,NA,27.305605786618447,NA
13350,Herkimer County,NY,NA,76.13019891500905,NA
13367,Lewis County,NY,NA,37.79385171790235,NA
13669,St. Lawrence County,NY,NA,70.5244122965642,NA
13733,Chenango County,NY,NA,91.32007233273056,NA
13790,Broome County,NY,5.88235294117647,NA,NA
13830,Chenango County,NY,NA,47.19710669077758,NA
13905,Broome County,NY,NA,1.8083182640144666,NA
14042,Cattaraugus County,NY,62.35294117647059,NA,NA
14075,Erie County,NY,NA,2.8933092224231465,NA
14208,Erie County,NY,80.58823529411765,NA,NA
14221,Erie County,NY,NA,NA,30.917874396135264
14224,Erie County,NY,NA,4.159132007233273,NA
14304,Niagara County,NY,NA,1.4466546112115732,NA
14414,Livingston County,NY,80.88235294117648,NA,NA
14502,Wayne County,NY,NA,NA,89.3719806763285
14522,Wayne County,NY,NA,73.96021699819168,NA
14526,Monroe County,NY,NA,25.85895117540687,NA
14534,Monroe County,NY,NA,60.21699819168174,NA
14559,Monroe County,NY,71.76470588235294,NA,NA
14608,Monroe County,NY,NA,42.67631103074141,NA
14609,Monroe County,NY,1.1764705882352942,NA,NA
14613,Monroe County,NY,NA,41.591320072332735,NA
14615,Monroe County,NY,NA,40.50632911392405,NA
14621,Monroe County,NY,NA,30.74141048824593,NA
14772,Cattaraugus County,NY,88.8235294117647,NA,NA
14843,Steuben County,NY,73.52941176470588,NA,NA
14871,Chemung County,NY,NA,NA,97.58454106280193
14880,Allegany County,NY,NA,75.22603978300181,NA
27006,Davie County,NC,NA,NA,88.88888888888889
27012,Forsyth County,NC,NA,NA,23.67149758454106
27105,Forsyth County,NC,NA,51.17540687160941,NA
27205,Randolph County,NC,NA,13.743218806509946,NA
27217,Alamance County,NC,40,22.60397830018083,NA
27262,Guilford County,NC,NA,86.25678119349006,NA
27313,Guilford County,NC,NA,NA,86.47342995169082
27360,Davidson County,NC,2.941176470588235,NA,NA
27406,Guilford County,NC,NA,32.730560578661844,NA
27407,Guilford County,NC,NA,57.14285714285714,NA
27518,Wake County,NC,NA,NA,51.690821256038646
27565,Granville County,NC,36.17647058823529,NA,NA
27576,Johnston County,NC,38.23529411764706,NA,NA
27610,Wake County,NC,NA,16.998191681735985,NA
27616,Wake County,NC,54.70588235294118,NA,NA
27712,Durham County,NC,NA,22.423146473779383,NA
28016,Gaston County,NC,61.1764705882353,NA,NA
28079,Union County,NC,NA,25.678119349005424,NA
28092,Lincoln County,NC,NA,80.83182640144665,NA
28103,Union County,NC,NA,84.08679927667269,NA
28124,Cabarrus County,NC,NA,71.97106690777576,NA
28202,Mecklenburg County,NC,NA,84.62929475587704,NA
28206,Mecklenburg County,NC,46.76470588235294,NA,NA
28214,Mecklenburg County,NC,NA,NA,24.637681159420293
28304,Cumberland County,NC,16.76470588235294,24.050632911392405,NA
28312,Cumberland County,NC,60.882352941176464,NA,NA
28365,Wayne County,NC,NA,67.08860759493672,NA
28374,Moore County,NC,NA,65.64195298372513,NA
28409,New Hanover County,NC,23.235294117647058,66.00361663652802,NA
28461,Brunswick County,NC,NA,NA,11.11111111111111
28462,Brunswick County,NC,NA,72.15189873417721,NA
28466,Duplin County,NC,95.29411764705881,NA,NA
28516,Carteret County,NC,65.29411764705883,NA,NA
28532,Craven County,NC,NA,88.96925858951175,NA
28601,Catawba County,NC,27.647058823529413,NA,NA
28645,Caldwell County,NC,50.588235294117645,NA,NA
28694,Ashe County,NC,NA,44.12296564195298,NA
28711,Buncombe County,NC,NA,47.01627486437613,NA
28713,Swain County,NC,NA,34.35804701627486,89.85507246376811
28785,Haywood County,NC,NA,93.49005424954791,NA
28804,Buncombe County,NC,94.70588235294117,68.53526220614829,NA
28806,Buncombe County,NC,NA,NA,22.705314009661837
58104,Cass County,ND,NA,NA,77.77777777777779
43056,Licking County,OH,NA,19.349005424954793,NA
43140,Madison County,OH,NA,81.91681735985533,NA
43146,Pickaway County,OH,NA,60.397830018083184,NA
43160,Fayette County,OH,NA,46.292947558770344,NA
43209,Franklin County,OH,NA,18.44484629294756,NA
43227,Franklin County,OH,NA,20.976491862567812,NA
43537,Lucas County,OH,NA,7.414104882459313,NA
43616,Lucas County,OH,NA,NA,37.19806763285024
43910,Jefferson County,OH,90.58823529411765,NA,NA
43950,Belmont County,OH,NA,26.582278481012654,NA
43952,Jefferson County,OH,NA,NA,20.77294685990338
44044,Lorain County,OH,NA,20.61482820976492,NA
44053,Lorain County,OH,NA,NA,59.42028985507246
44057,Lake County,OH,NA,NA,57.48792270531401
44060,Lake County,OH,59.11764705882353,NA,NA
44102,Cuyahoga County,OH,0.5882352941176471,NA,NA
44107,Cuyahoga County,OH,34.705882352941174,NA,NA
44108,Cuyahoga County,OH,NA,2.7124773960216997,NA
44118,Cuyahoga County,OH,NA,90.95840867992767,NA
44124,Cuyahoga County,OH,NA,NA,0
44130,Cuyahoga County,OH,35.88235294117647,NA,NA
44241,Portage County,OH,NA,NA,96.1352657004831
44255,Portage County,OH,NA,90.05424954792043,NA
44301,Summit County,OH,NA,29.475587703435806,NA
44446,Trumbull County,OH,NA,71.06690777576854,NA
44512,Mahoning County,OH,NA,88.06509945750453,NA
44662,Stark County,OH,NA,33.634719710669074,NA
44685,Summit County,OH,NA,13.381555153707053,NA
44710,Stark County,OH,NA,NA,69.08212560386472
44906,Richland County,OH,NA,24.77396021699819,NA
45011,Butler County,OH,NA,67.63110307414105,NA
45069,Butler County,OH,NA,NA,31.40096618357488
45152,Warren County,OH,NA,89.87341772151899,NA
45209,Hamilton County,OH,NA,NA,60.38647342995169
45220,Hamilton County,OH,72.05882352941177,NA,NA
45223,Hamilton County,OH,NA,76.31103074141049,NA
45227,Hamilton County,OH,NA,NA,62.80193236714976
45231,Hamilton County,OH,5.588235294117648,NA,NA
45237,Hamilton County,OH,40.294117647058826,NA,NA
45417,Montgomery County,OH,70.58823529411765,NA,NA
45458,Montgomery County,OH,22.058823529411764,NA,NA
45623,Gallia County,OH,NA,79.92766726943941,NA
45648,Scioto County,OH,NA,11.573236889692586,NA
45692,Jackson County,OH,NA,17.540687160940323,NA
73013,Oklahoma County,OK,NA,34.53887884267631,NA
73026,Cleveland County,OK,NA,69.62025316455697,NA
73044,Logan County,OK,NA,50.09041591320072,NA
73069,Cleveland County,OK,NA,NA,54.106280193236714
73099,Canadian County,OK,NA,17.359855334538878,NA
73109,Oklahoma County,OK,NA,NA,95.65217391304348
73507,Comanche County,OK,NA,NA,57.971014492753625
73533,Stephens County,OK,NA,57.32368896925859,NA
74012,Tulsa County,OK,NA,NA,4.3478260869565215
74066,Creek County,OK,17.058823529411764,NA,NA
74437,Okmulgee County,OK,NA,70.88607594936708,NA
97034,Clackamas County,OR,NA,NA,63.76811594202898
97055,Clackamas County,OR,62.05882352941177,NA,NA
97070,Clackamas County,OR,NA,33.45388788426763,NA
97113,Washington County,OR,NA,NA,47.82608695652174
97123,Washington County,OR,NA,7.956600361663653,NA
97128,Yamhill County,OR,8.823529411764707,NA,NA
97205,Multnomah County,OR,NA,96.02169981916818,NA
97206,Multnomah County,OR,NA,NA,25.120772946859905
97220,Multnomah County,OR,20,NA,NA
97229,Washington County,OR,NA,NA,27.053140096618357
97232,Multnomah County,OR,72.6470588235294,51.35623869801085,NA
97381,Marion County,OR,NA,38.698010849909586,NA
97471,Douglas County,OR,NA,3.074141048824593,NA
97496,Douglas County,OR,65.88235294117646,NA,NA
97501,Jackson County,OR,NA,5.605786618444846,NA
97523,Josephine County,OR,NA,84.81012658227847,NA
97601,Klamath County,OR,NA,5.967450271247739,NA
15022,Washington County,PA,NA,51.89873417721519,NA
15024,Allegheny County,PA,NA,69.98191681735986,NA
15057,Washington County,PA,92.64705882352942,NA,NA
15108,Allegheny County,PA,NA,9.945750452079565,NA
15110,Allegheny County,PA,92.3529411764706,NA,NA
15317,Washington County,PA,NA,34.719710669077756,NA
15332,Washington County,PA,NA,99.81916817359856,NA
15613,Westmoreland County,PA,NA,NA,59.90338164251207
15767,Jefferson County,PA,15,NA,NA
16001,Butler County,PA,2.6470588235294117,NA,NA
16055,Butler County,PA,NA,95.66003616636529,NA
16424,Crawford County,PA,NA,NA,64.73429951690821
17013,Cumberland County,PA,10.588235294117647,NA,NA
17042,Lebanon County,PA,NA,29.294755877034355,NA
17112,Dauphin County,PA,NA,69.43942133815551,NA
17325,Adams County,PA,NA,2.3508137432188065,NA
17601,Lancaster County,PA,NA,28.20976491862568,NA
17824,Northumberland County,PA,NA,69.62025316455697,NA
17901,Schuylkill County,PA,73.23529411764706,NA,NA
18018,Lehigh County,PA,NA,NA,27.536231884057973
18045,Northampton County,PA,NA,8.679927667269439,NA
18080,Lehigh County,PA,NA,48.282097649186255,NA
18201,Luzerne County,PA,66.47058823529412,NA,NA
18235,Carbon County,PA,NA,NA,25.60386473429952
18421,Susquehanna County,PA,NA,72.69439421338156,NA
18505,Lackawanna County,PA,25.882352941176475,NA,NA
18512,Lackawanna County,PA,40.588235294117645,NA,NA
18705,Luzerne County,PA,33.23529411764706,NA,NA
19002,Montgomery County,PA,NA,NA,14.009661835748794
19006,Montgomery County,PA,NA,70.70524412296564,NA
19095,Montgomery County,PA,98.82352941176471,NA,NA
19103,Philadelphia County,PA,NA,90.59674502712477,NA
19116,Philadelphia County,PA,NA,7.775768535262206,NA
19119,Philadelphia County,PA,NA,10.30741410488246,NA
19121,Philadelphia County,PA,35,NA,NA
19128,Philadelphia County,PA,77.3529411764706,NA,NA
19129,Philadelphia County,PA,NA,80.28933092224231,NA
19130,Philadelphia County,PA,21.764705882352942,NA,NA
19138,Philadelphia County,PA,24.41176470588235,NA,NA
19141,Philadelphia County,PA,NA,8.860759493670885,NA
19143,Philadelphia County,PA,32.64705882352941,NA,NA
19147,Philadelphia County,PA,NA,15.18987341772152,94.68599033816425
19320,Chester County,PA,NA,23.869801084990957,NA
19348,Chester County,PA,NA,NA,99.51690821256038
19403,Montgomery County,PA,NA,16.636528028933093,NA
19462,Montgomery County,PA,NA,NA,61.35265700483091
02816,Kent County,RI,NA,93.85171790235081,NA
02860,Providence County,RI,NA,NA,1.4492753623188406
02914,Providence County,RI,NA,46.835443037974684,NA
02916,Providence County,RI,NA,97.10669077757686,NA
02920,Providence County,RI,15.588235294117647,NA,NA
29061,Richland County,SC,NA,58.40867992766727,NA
29072,Lexington County,SC,13.823529411764707,NA,NA
29154,Sumter County,SC,63.23529411764706,NA,NA
29385,Spartanburg County,SC,NA,NA,69.56521739130434
29412,Charleston County,SC,NA,12.296564195298371,NA
29420,Dorchester County,SC,NA,85.71428571428571,NA
29461,Berkeley County,SC,17.941176470588236,NA,NA
29554,Williamsburg County,SC,96.17647058823529,NA,NA
29568,Horry County,SC,NA,NA,51.690821256038646
29575,Horry County,SC,NA,71.42857142857143,NA
29662,Greenville County,SC,60.29411764705882,NA,NA
29702,Cherokee County,SC,NA,50.09041591320072,NA
29829,Aiken County,SC,55.88235294117647,NA,NA
57103,Minnehaha County,SD,12.941176470588237,NA,NA
57703,Pennington County,SD,94.11764705882352,NA,NA
37075,Sumner County,TN,NA,41.048824593128394,NA
37086,Rutherford County,TN,51.17647058823529,NA,NA
37129,Rutherford County,TN,NA,63.29113924050633,NA
37174,Williamson County,TN,NA,66.72694394213381,NA
37215,Davidson County,TN,NA,NA,48.309178743961354
37220,Davidson County,TN,77.64705882352942,NA,NA
37311,Bradley County,TN,45,NA,NA
37327,Sequatchie County,TN,24.705882352941178,NA,NA
37620,Sullivan County,TN,62.64705882352941,9.403254972875226,NA
37643,Carter County,TN,47.05882352941176,3.9783001808318263,NA
37764,Sevier County,TN,82.6470588235294,NA,NA
37813,Hamblen County,TN,14.705882352941178,NA,NA
37821,Cocke County,TN,56.470588235294116,NA,NA
37825,Claiborne County,TN,NA,54.79204339963834,NA
37879,Claiborne County,TN,54.11764705882353,NA,NA
38002,Shelby County,TN,NA,86.4376130198915,NA
38107,Shelby County,TN,47.94117647058824,NA,NA
38114,Shelby County,TN,NA,16.817359855334537,NA
38128,Shelby County,TN,NA,NA,76.81159420289855
38201,Carroll County,TN,78.23529411764706,NA,NA
38382,Gibson County,TN,NA,88.24593128390596,NA
38581,Warren County,TN,90,NA,NA
75043,Dallas County,TX,9.411764705882353,NA,NA
75052,Dallas County,TX,NA,5.786618444846293,NA
75061,Dallas County,TX,87.6470588235294,NA,NA
75062,Dallas County,TX,NA,NA,28.019323671497588
75075,Collin County,TX,41.47058823529412,NA,NA
75150,Dallas County,TX,12.647058823529411,NA,NA
75165,Ellis County,TX,NA,NA,88.40579710144928
75212,Dallas County,TX,94.41176470588235,NA,NA
75225,Dallas County,TX,NA,NA,62.31884057971014
75227,Dallas County,TX,9.117647058823529,NA,NA
75229,Dallas County,TX,27.35294117647059,NA,NA
75236,Dallas County,TX,75.58823529411765,NA,NA
75253,Dallas County,TX,42.94117647058823,NA,NA
75501,Bowie County,TX,NA,NA,29.951690821256037
75601,Gregg County,TX,66.17647058823529,NA,NA
75771,Smith County,TX,35.294117647058826,NA,NA
75840,Freestone County,TX,NA,50.99457504520796,NA
75862,Trinity County,TX,NA,NA,80.67632850241546
75935,Shelby County,TX,50.882352941176464,NA,NA
76002,Tarrant County,TX,NA,37.070524412296564,NA
76006,Tarrant County,TX,NA,91.13924050632912,NA
76012,Tarrant County,TX,NA,66.54611211573237,NA
76104,Tarrant County,TX,11.76470588235294,NA,NA
76117,Tarrant County,TX,18.823529411764707,NA,NA
76248,Tarrant County,TX,NA,NA,49.275362318840585
76825,McCulloch County,TX,NA,NA,91.30434782608695
77016,Harris County,TX,24.705882352941178,NA,NA
77028,Harris County,TX,69.11764705882352,NA,NA
77041,Harris County,TX,74.11764705882354,NA,NA
77056,Harris County,TX,NA,56.41952983725136,NA
77060,Harris County,TX,39.705882352941174,NA,NA
77078,Harris County,TX,49.705882352941174,NA,NA
77340,Walker County,TX,NA,NA,42.99516908212561
77396,Harris County,TX,NA,NA,75.84541062801932
77441,Fort Bend County,TX,NA,53.70705244122965,NA
77511,Brazoria County,TX,NA,7.233273056057866,NA
77530,Harris County,TX,87.3529411764706,NA,NA
77550,Galveston County,TX,77.94117647058823,NA,NA
77568,Galveston County,TX,18.529411764705884,NA,38.164251207729464
77701,Jefferson County,TX,NA,63.65280289330922,NA
77905,Victoria County,TX,74.70588235294117,NA,NA
78109,Bexar County,TX,61.76470588235294,NA,NA
78130,Comal County,TX,NA,NA,3.3816425120772946
78228,Bexar County,TX,NA,39.963833634719705,NA
78233,Bexar County,TX,NA,31.82640144665461,NA
78242,Bexar County,TX,52.05882352941177,NA,NA
78543,Hidalgo County,TX,88.52941176470588,NA,NA
78626,Williamson County,TX,NA,NA,18.84057971014493
78676,Hays County,TX,NA,43.21880650994575,NA
78735,Travis County,TX,NA,NA,53.62318840579711
79109,Randall County,TX,NA,82.64014466546112,NA
79382,Lubbock County,TX,NA,NA,87.43961352657004
79414,Lubbock County,TX,NA,NA,82.6086956521739
79424,Lubbock County,TX,NA,35.2622061482821,NA
84066,Duchesne County,UT,NA,91.68173598553345,NA
84067,Weber County,UT,NA,33.273056057866185,NA
84078,Uintah County,UT,61.47058823529412,NA,NA
84093,Salt Lake County,UT,54.41176470588235,NA,NA
84120,Salt Lake County,UT,5.294117647058823,NA,NA
84737,Washington County,UT,NA,NA,50.72463768115942
05089,Windsor County,VT,NA,NA,100
05701,Rutland County,VT,NA,5.063291139240507,NA
20147,Loudoun County,VA,NA,NA,6.763285024154589
20151,Fairfax County,VA,62.94117647058823,NA,NA
20175,Loudoun County,VA,97.94117647058823,NA,NA
20176,Loudoun County,VA,NA,94.57504520795659,NA
22042,Fairfax County,VA,NA,NA,72.46376811594203
22150,Fairfax County,VA,34.411764705882355,NA,NA
22153,Fairfax County,VA,NA,56.41952983725136,NA
22192,Prince William County,VA,NA,NA,28.985507246376812
22201,Arlington County,VA,58.529411764705884,NA,NA
22203,Arlington County,VA,NA,NA,47.34299516908212
22204,Arlington County,VA,64.41176470588236,NA,NA
22304,Alexandria city,VA,NA,17.72151898734177,NA
22309,Fairfax County,VA,14.117647058823529,NA,NA
22314,Alexandria city,VA,NA,85.89511754068717,NA
22520,Westmoreland County,VA,NA,53.70705244122965,NA
22554,Stafford County,VA,NA,23.508137432188065,NA
22827,Rockingham County,VA,89.41176470588236,NA,NA
22960,Orange County,VA,NA,36.88969258589512,NA
22963,Fluvanna County,VA,NA,79.02350813743219,NA
23089,New Kent County,VA,NA,90.23508137432188,NA
23454,Virginia Beach city,VA,NA,6.50994575045208,18.357487922705314
23509,Norfolk city,VA,NA,82.82097649186257,NA
23518,Norfolk city,VA,26.176470588235297,NA,NA
23831,Chesterfield County,VA,NA,16.2748643761302,NA
23836,Chesterfield County,VA,NA,55.87703435804702,NA
24015,Roanoke city,VA,NA,46.473779385171795,NA
24112,Henry County,VA,30.58823529411765,NA,NA
24348,Grayson County,VA,NA,82.45931283905968,NA
24416,Buena Vista city,VA,83.23529411764706,NA,NA
24541,Danville city,VA,NA,81.374321880651,NA
24557,Pittsylvania County,VA,NA,NA,90.33816425120773
24614,Buchanan County,VA,NA,67.99276672694394,NA
98028,King County,WA,NA,98.01084990958408,NA
98031,King County,WA,NA,8.499095840867993,NA
98045,King County,WA,NA,75.04520795660035,NA
98052,King County,WA,NA,56.9620253164557,NA
98055,King County,WA,NA,75.5877034358047,NA
98057,King County,WA,NA,62.92947558770343,NA
98072,King County,WA,74.70588235294117,NA,NA
98075,King County,WA,NA,NA,97.10144927536231
98105,King County,WA,NA,44.303797468354425,NA
98117,King County,WA,NA,NA,85.02415458937197
98118,King County,WA,NA,18.083182640144667,NA
98146,King County,WA,NA,40.3254972875226,NA
98166,King County,WA,NA,84.26763110307414,NA
98168,King County,WA,84.11764705882354,NA,NA
98199,King County,WA,NA,45.20795660036166,NA
98208,Snohomish County,WA,65,NA,NA
98284,Skagit County,WA,87.05882352941177,NA,NA
98360,Pierce County,WA,48.529411764705884,NA,NA
98362,Clallam County,WA,19.11764705882353,NA,NA
98391,Pierce County,WA,8.235294117647058,NA,NA
98466,Pierce County,WA,58.82352941176471,NA,NA
98520,Grays Harbor County,WA,NA,NA,83.09178743961353
98584,Mason County,WA,NA,NA,19.806763285024154
98625,Cowlitz County,WA,NA,92.40506329113924,NA
98671,Clark County,WA,NA,NA,79.71014492753623
98802,Douglas County,WA,NA,15.370705244122965,12.077294685990339
99203,Spokane County,WA,57.35294117647059,NA,NA
99205,Spokane County,WA,NA,64.91862567811934,NA
99336,Benton County,WA,38.82352941176471,NA,32.850241545893724
20001,District of Columbia,DC,76.17647058823529,NA,NA
20007,District of Columbia,DC,NA,92.04339963833634,NA
20009,District of Columbia,DC,70.29411764705881,NA,NA
20019,District of Columbia,DC,NA,2.1699819168173597,NA
20024,District of Columbia,DC,NA,72.51356238698011,NA
20032,District of Columbia,DC,4.117647058823529,NA,NA
25425,Jefferson County,WV,NA,80.10849909584087,NA
25560,Putnam County,WV,NA,41.952983725135624,NA
25570,Wayne County,WV,NA,81.55515370705244,NA
25571,Lincoln County,WV,NA,96.74502712477397,NA
26181,Wood County,WV,86.1764705882353,NA,NA
26301,Harrison County,WV,30.88235294117647,NA,NA
26330,Harrison County,WV,49.11764705882353,NA,NA
53095,Washington County,WI,NA,10.669077757685352,NA
53151,Waukesha County,WI,NA,NA,10.144927536231885
53212,Milwaukee County,WI,7.941176470588235,NA,NA
53217,Milwaukee County,WI,19.705882352941178,NA,NA
53227,Milwaukee County,WI,20.588235294117645,NA,NA
53402,Racine County,WI,NA,10.849909584086799,NA
53575,Dane County,WI,NA,42.495479204339965,NA
53711,Dane County,WI,NA,27.48643761301989,NA
54153,Oconto County,WI,48.8235294117647,NA,NA
54220,Manitowoc County,WI,NA,0.9041591320072333,NA
54304,Brown County,WI,NA,NA,65.21739130434783
54401,Marathon County,WI,64.70588235294117,NA,NA
54455,Marathon County,WI,NA,61.30198915009042,NA
54729,Chippewa County,WI,NA,46.65461121157324,NA
54755,Buffalo County,WI,NA,47.739602169981914,NA
54868,Barron County,WI,43.8235294117647,NA,60.86956521739131
54902,Winnebago County,WI,34.11764705882353,NA,NA
54914,Outagamie County,WI,12.352941176470589,NA,NA
82414,Park County,WY,48.23529411764706,NA,NA
