ZipCode,county,state,Adult,Retirement,Geriatric
35034,Bibb County,AL,NA,60.763888888888886,NA
35173,Jefferson County,AL,NA,NA,29.946524064171122
35206,Jefferson County,AL,NA,25,NA
35211,Jefferson County,AL,NA,87.15277777777779,NA
35212,Jefferson County,AL,53.398058252427184,NA,NA
35215,Jefferson County,AL,50.80906148867314,NA,NA
35235,Jefferson County,AL,NA,83.68055555555556,NA
35586,Lamar County,AL,NA,NA,99.46524064171123
35601,Morgan County,AL,9.06148867313916,26.15740740740741,NA
35640,Morgan County,AL,20.711974110032365,NA,NA
35648,Lauderdale County,AL,NA,83.44907407407408,NA
35672,Lawrence County,AL,NA,79.2824074074074,NA
35673,Morgan County,AL,45.307443365695796,NA,NA
35750,Madison County,AL,NA,72.45370370370371,NA
35901,Etowah County,AL,NA,54.282407407407405,NA
35966,Jackson County,AL,NA,99.65277777777779,NA
36022,Elmore County,AL,NA,51.388888888888886,NA
36037,Butler County,AL,NA,NA,90.37433155080214
36083,Macon County,AL,NA,57.754629629629626,NA
36117,Montgomery County,AL,NA,43.05555555555556,NA
36203,Calhoun County,AL,NA,78.93518518518519,NA
36301,Houston County,AL,NA,NA,39.3048128342246
36330,Coffee County,AL,51.7799352750809,NA,NA
36426,Escambia County,AL,NA,67.5925925925926,NA
36575,Mobile County,AL,NA,NA,77.80748663101605
36608,Mobile County,AL,NA,47.800925925925924,NA
36610,Mobile County,AL,NA,85.30092592592592,NA
36870,Lee County,AL,54.0453074433657,NA,NA
99577,Anchorage Municipality,AK,NA,86.92129629629629,NA
99615,Kodiak Island Borough,AK,NA,57.754629629629626,NA
85008,Maricopa County,AZ,NA,13.425925925925927,NA
85017,Maricopa County,AZ,NA,44.09722222222222,NA
85033,Maricopa County,AZ,NA,NA,50
85086,Maricopa County,AZ,NA,20.71759259259259,NA
85139,Pinal County,AZ,NA,44.44444444444444,69.25133689839572
85213,Maricopa County,AZ,NA,31.48148148148148,NA
85249,Maricopa County,AZ,NA,18.86574074074074,NA
85302,Maricopa County,AZ,35.59870550161812,NA,NA
85323,Maricopa County,AZ,19.741100323624593,NA,NA
85351,Maricopa County,AZ,NA,20.25462962962963,NA
85354,Maricopa County,AZ,93.52750809061489,NA,NA
85361,Maricopa County,AZ,72.49190938511327,NA,NA
85395,Maricopa County,AZ,NA,NA,95.18716577540107
85650,Cochise County,AZ,NA,66.31944444444444,NA
85712,Pima County,AZ,NA,46.41203703703704,NA
85715,Pima County,AZ,NA,NA,89.03743315508021
86301,Yavapai County,AZ,NA,NA,6.417112299465241
86406,Mohave County,AZ,NA,14.23611111111111,NA
86409,Mohave County,AZ,NA,25.462962962962965,NA
86429,Mohave County,AZ,NA,32.175925925925924,NA
86442,Mohave County,AZ,NA,61.80555555555556,NA
71701,Ouachita County,AR,51.1326860841424,NA,NA
71730,Union County,AR,NA,35.995370370370374,NA
72023,Lonoke County,AR,NA,14.930555555555555,NA
72032,Faulkner County,AR,46.27831715210356,NA,NA
72058,Faulkner County,AR,NA,NA,68.44919786096256
72120,Pulaski County,AR,63.75404530744336,NA,NA
72396,Cross County,AR,65.37216828478964,NA,NA
72401,Craighead County,AR,10.032362459546926,NA,NA
72704,Washington County,AR,77.34627831715211,NA,NA
90001,Los Angeles County,CA,NA,39.58333333333333,NA
90006,Los Angeles County,CA,NA,NA,57.21925133689839
90016,Los Angeles County,CA,NA,NA,15.240641711229946
90018,Los Angeles County,CA,NA,NA,21.390374331550802
90020,Los Angeles County,CA,NA,NA,71.92513368983957
90026,Los Angeles County,CA,NA,19.675925925925927,NA
90047,Los Angeles County,CA,10.355987055016183,NA,NA
90067,Los Angeles County,CA,NA,NA,57.75401069518716
90221,Los Angeles County,CA,NA,72.33796296296296,NA
90255,Los Angeles County,CA,NA,68.40277777777779,NA
90280,Los Angeles County,CA,NA,68.63425925925925,NA
90301,Los Angeles County,CA,21.035598705501616,NA,NA
90405,Los Angeles County,CA,NA,29.86111111111111,NA
90505,Los Angeles County,CA,NA,57.52314814814815,NA
90623,Orange County,CA,NA,52.54629629629629,NA
90740,Orange County,CA,NA,45.601851851851855,NA
91016,Los Angeles County,CA,NA,86.57407407407408,NA
91103,Los Angeles County,CA,NA,51.85185185185185,NA
91205,Los Angeles County,CA,NA,NA,43.58288770053476
91208,Los Angeles County,CA,NA,78.93518518518519,NA
91214,Los Angeles County,CA,NA,NA,30.213903743315505
91343,Los Angeles County,CA,NA,25.34722222222222,NA
91381,Los Angeles County,CA,NA,NA,75.40106951871658
91723,Los Angeles County,CA,NA,NA,75.1336898395722
91754,Los Angeles County,CA,NA,NA,40.106951871657756
91762,San Bernardino County,CA,NA,25.23148148148148,NA
91789,Los Angeles County,CA,NA,NA,33.68983957219251
92019,San Diego County,CA,NA,NA,21.92513368983957
92021,San Diego County,CA,NA,73.61111111111111,NA
92024,San Diego County,CA,82.84789644012946,NA,NA
92130,San Diego County,CA,NA,84.14351851851852,NA
92173,San Diego County,CA,NA,44.79166666666667,NA
92211,Riverside County,CA,NA,NA,12.566844919786096
92277,San Bernardino County,CA,NA,33.7962962962963,NA
92301,San Bernardino County,CA,20.06472491909385,NA,NA
92308,San Bernardino County,CA,NA,NA,24.331550802139038
92395,San Bernardino County,CA,NA,NA,22.727272727272727
92407,San Bernardino County,CA,NA,27.199074074074076,NA
92410,San Bernardino County,CA,NA,70.37037037037037,NA
92501,Riverside County,CA,NA,51.27314814814815,NA
92591,Riverside County,CA,NA,31.25,NA
92627,Orange County,CA,NA,16.203703703703702,NA
92646,Orange County,CA,NA,3.7037037037037033,NA
92648,Orange County,CA,NA,96.52777777777779,NA
92673,Orange County,CA,NA,NA,49.19786096256685
92886,Orange County,CA,NA,NA,12.299465240641712
93021,Ventura County,CA,NA,90.50925925925925,NA
93257,Tulare County,CA,NA,NA,10.16042780748663
93308,Kern County,CA,NA,NA,94.11764705882352
93436,Santa Barbara County,CA,NA,NA,88.23529411764706
93446,San Luis Obispo County,CA,NA,22.453703703703702,NA
93551,Los Angeles County,CA,NA,53.24074074074075,NA
93907,Monterey County,CA,NA,47.33796296296296,NA
93924,Monterey County,CA,NA,90.39351851851852,NA
93940,Monterey County,CA,NA,35.76388888888889,NA
94014,San Mateo County,CA,NA,15.046296296296296,NA
94041,Santa Clara County,CA,NA,91.55092592592592,NA
94061,San Mateo County,CA,NA,28.935185185185187,NA
94102,San Francisco County,CA,NA,3.356481481481482,NA
94109,San Francisco County,CA,68.93203883495146,NA,NA
94133,San Francisco County,CA,NA,NA,44.6524064171123
94303,San Mateo County,CA,NA,49.88425925925926,NA
94403,San Mateo County,CA,NA,NA,4.0106951871657754
94541,Alameda County,CA,NA,NA,58.288770053475936
94561,Contra Costa County,CA,24.271844660194176,NA,NA
94599,Napa County,CA,NA,NA,46.79144385026738
94601,Alameda County,CA,NA,87.03703703703704,NA
94603,Alameda County,CA,NA,30.439814814814813,NA
95037,Santa Clara County,CA,33.980582524271846,NA,NA
95119,Santa Clara County,CA,NA,71.75925925925925,NA
95205,San Joaquin County,CA,NA,51.967592592592595,NA
95206,San Joaquin County,CA,NA,68.05555555555556,NA
95252,Calaveras County,CA,NA,NA,78.34224598930481
95258,San Joaquin County,CA,NA,NA,91.97860962566845
95350,Stanislaus County,CA,NA,NA,7.4866310160427805
95357,Stanislaus County,CA,NA,66.89814814814815,89.3048128342246
95376,San Joaquin County,CA,NA,18.171296296296298,NA
95403,Sonoma County,CA,NA,79.51388888888889,61.76470588235294
95423,Lake County,CA,NA,NA,62.56684491978609
95519,Humboldt County,CA,NA,26.96759259259259,NA
95628,Sacramento County,CA,NA,20.48611111111111,96.79144385026738
95667,El Dorado County,CA,NA,1.5046296296296295,NA
95747,Placer County,CA,NA,57.17592592592593,NA
95822,Sacramento County,CA,NA,78.70370370370371,NA
95945,Nevada County,CA,59.8705501618123,NA,NA
95953,Sutter County,CA,NA,NA,91.17647058823529
95966,Butte County,CA,NA,78.24074074074075,NA
96001,Shasta County,CA,69.57928802588997,NA,NA
80015,Arapahoe County,CO,72.168284789644,NA,NA
80026,Boulder County,CO,NA,25.694444444444443,NA
80206,Denver County,CO,NA,58.79629629629629,NA
80207,Denver County,CO,NA,40.625,NA
80227,Jefferson County,CO,NA,NA,34.75935828877005
80401,Jefferson County,CO,NA,49.76851851851852,NA
80501,Boulder County,CO,NA,53.00925925925925,NA
80503,Boulder County,CO,NA,NA,28.342245989304814
80603,Weld County,CO,NA,59.72222222222222,NA
80631,Weld County,CO,NA,NA,51.33689839572193
80909,El Paso County,CO,NA,26.38888888888889,NA
80918,El Paso County,CO,NA,NA,85.828877005347593
81401,Montrose County,CO,NA,74.65277777777779,NA
81504,Mesa County,CO,NA,53.356481481481474,NA
81526,Mesa County,CO,NA,98.26388888888889,NA
06032,Hartford County,CT,NA,NA,71.65775401069519
06096,Hartford County,CT,56.63430420711975,NA,NA
06098,Litchfield County,CT,NA,23.84259259259259,NA
06105,Hartford County,CT,NA,89.93055555555556,NA
06106,Hartford County,CT,NA,70.7175925925926,NA
06111,Hartford County,CT,22.653721682847898,NA,NA
06114,Hartford County,CT,11.974110032362459,NA,NA
06471,New Haven County,CT,NA,NA,71.3903743315508
06484,Fairfield County,CT,NA,NA,6.149732620320856
06492,New Haven County,CT,NA,5.902777777777778,NA
06519,New Haven County,CT,NA,22.10648148148148,87.43315508021391
06606,Fairfield County,CT,NA,40.27777777777778,NA
06608,Fairfield County,CT,40.1294498381877,NA,NA
06704,New Haven County,CT,16.181229773462782,NA,NA
06712,New Haven County,CT,NA,89.12037037037037,NA
06790,Litchfield County,CT,NA,NA,36.898395721925134
06811,Fairfield County,CT,NA,NA,5.88235294117647
06825,Fairfield County,CT,61.165048543689316,NA,NA
06855,Fairfield County,CT,NA,95.02314814814815,NA
06902,Fairfield County,CT,NA,5.092592592592593,NA
19702,New Castle County,DE,NA,90.16203703703704,NA
19703,New Castle County,DE,NA,61.92129629629629,NA
19720,New Castle County,DE,NA,85.06944444444444,NA
19804,New Castle County,DE,19.41747572815534,NA,NA
19809,New Castle County,DE,NA,75.34722222222221,NA
19901,Kent County,DE,NA,10.300925925925926,NA
19938,Kent County,DE,66.01941747572816,NA,NA
19945,Sussex County,DE,NA,NA,47.32620320855615
19966,Sussex County,DE,NA,NA,30.481283422459892
19975,Sussex County,DE,NA,30.09259259259259,NA
32008,Suwannee County,FL,NA,NA,79.94652406417111
32024,Columbia County,FL,NA,96.41203703703704,NA
32033,St. Johns County,FL,NA,NA,73.52941176470588
32034,Nassau County,FL,67.31391585760518,NA,NA
32063,Baker County,FL,44.983818770226534,NA,NA
32068,Clay County,FL,NA,44.3287037037037,73.79679144385027
32073,Clay County,FL,34.3042071197411,NA,NA
32114,Volusia County,FL,NA,21.99074074074074,35.02673796791444
32127,Volusia County,FL,NA,19.560185185185187,NA
32159,Lake County,FL,NA,NA,34.22459893048128
32174,Volusia County,FL,NA,5.555555555555555,NA
32206,Duval County,FL,15.53398058252427,12.268518518518519,NA
32209,Duval County,FL,NA,7.175925925925926,NA
32211,Duval County,FL,15.210355987055015,NA,NA
32226,Duval County,FL,NA,53.81944444444444,NA
32244,Duval County,FL,NA,92.12962962962963,NA
32256,Duval County,FL,NA,NA,47.860962566844925
32408,Bay County,FL,NA,37.84722222222222,NA
32533,Escambia County,FL,NA,44.56018518518518,NA
32547,Okaloosa County,FL,48.54368932038835,28.47222222222222,NA
32570,Santa Rosa County,FL,NA,69.9074074074074,NA
32628,Dixie County,FL,90.614886731391593,NA,NA
32696,Levy County,FL,NA,68.86574074074075,NA
32701,Seminole County,FL,NA,71.64351851851852,NA
32714,Seminole County,FL,NA,80.0925925925926,NA
32725,Volusia County,FL,NA,NA,21.12299465240642
32738,Volusia County,FL,NA,42.245370370370374,NA
32757,Lake County,FL,96.11650485436894,NA,NA
32808,Orange County,FL,NA,96.29629629629629,NA
32817,Orange County,FL,NA,70.13888888888889,NA
32819,Orange County,FL,NA,43.40277777777778,NA
32822,Orange County,FL,31.3915857605178,14.004629629629632,NA
32837,Orange County,FL,14.563106796116504,49.18981481481482,NA
32922,Brevard County,FL,76.37540453074433,NA,NA
32926,Brevard County,FL,NA,NA,8.55614973262032
32952,Brevard County,FL,NA,NA,8.288770053475936
33012,Miami-Dade County,FL,84.46601941747572,NA,NA
33013,Miami-Dade County,FL,NA,40.16203703703704,NA
33015,Miami-Dade County,FL,NA,59.143518518518526,NA
33016,Miami-Dade County,FL,NA,NA,41.711229946524064
33040,Monroe County,FL,NA,21.64351851851852,NA
33054,Miami-Dade County,FL,NA,NA,53.475935828877006
33055,Miami-Dade County,FL,NA,32.523148148148145,NA
33062,Broward County,FL,45.9546925566343,NA,NA
33064,Broward County,FL,NA,NA,48.93048128342246
33126,Miami-Dade County,FL,NA,23.49537037037037,NA
33135,Miami-Dade County,FL,NA,63.888888888888886,59.35828877005348
33138,Miami-Dade County,FL,NA,57.52314814814815,NA
33139,Miami-Dade County,FL,NA,27.546296296296298,NA
33140,Miami-Dade County,FL,NA,NA,67.11229946524064
33141,Miami-Dade County,FL,62.45954692556634,NA,NA
33155,Miami-Dade County,FL,NA,NA,66.84491978609626
33157,Miami-Dade County,FL,NA,54.513888888888886,NA
33168,Miami-Dade County,FL,NA,92.93981481481481,NA
33179,Miami-Dade County,FL,NA,NA,23.52941176470588
33184,Miami-Dade County,FL,74.75728155339806,NA,NA
33186,Miami-Dade County,FL,NA,16.89814814814815,NA
33311,Broward County,FL,NA,11.226851851851851,NA
33312,Broward County,FL,NA,43.86574074074074,NA
33313,Broward County,FL,NA,NA,25.40106951871658
33317,Broward County,FL,NA,NA,27.807486631016044
33319,Broward County,FL,NA,15.856481481481483,NA
33418,Palm Beach County,FL,NA,NA,3.4759358288770055
33432,Palm Beach County,FL,NA,NA,14.705882352941178
33435,Palm Beach County,FL,NA,NA,36.36363636363637
33469,Palm Beach County,FL,NA,98.72685185185185,NA
33496,Palm Beach County,FL,NA,64.69907407407408,NA
33525,Pasco County,FL,NA,22.800925925925927,NA
33534,Hillsborough County,FL,71.19741100323624,NA,NA
33549,Hillsborough County,FL,NA,52.19907407407407,NA
33584,Hillsborough County,FL,NA,97.80092592592592,NA
33611,Hillsborough County,FL,NA,NA,35.56149732620321
33614,Hillsborough County,FL,NA,46.75925925925926,NA
33624,Hillsborough County,FL,92.55663430420712,NA,NA
33625,Hillsborough County,FL,NA,NA,54.81283422459893
33705,Pinellas County,FL,NA,NA,27.27272727272727
33707,Pinellas County,FL,NA,NA,12.032085561497325
33713,Pinellas County,FL,NA,38.773148148148145,NA
33755,Pinellas County,FL,NA,36.226851851851855,NA
33774,Pinellas County,FL,NA,NA,38.770053475935825
33815,Polk County,FL,NA,40.50925925925926,NA
33850,Polk County,FL,NA,80.43981481481481,NA
33903,Lee County,FL,NA,39.004629629629626,NA
33907,Lee County,FL,65.69579288025889,NA,NA
33908,Lee County,FL,NA,28.35648148148148,NA
33914,Lee County,FL,46.92556634304207,NA,NA
33916,Lee County,FL,82.20064724919094,NA,NA
33917,Lee County,FL,NA,10.76388888888889,NA
33976,Lee County,FL,70.55016181229773,NA,NA
33990,Lee County,FL,22.330097087378643,NA,NA
34231,Sarasota County,FL,NA,NA,14.171122994652407
34232,Sarasota County,FL,NA,NA,41.97860962566845
34234,Sarasota County,FL,NA,22.22222222222222,NA
34434,Citrus County,FL,NA,99.53703703703704,NA
34470,Marion County,FL,NA,41.08796296296296,NA
34475,Marion County,FL,NA,75,NA
34609,Hernando County,FL,NA,13.194444444444445,NA
34652,Pasco County,FL,NA,NA,26.203208556149733
34654,Pasco County,FL,NA,NA,40.37433155080214
34655,Pasco County,FL,NA,14.120370370370368,NA
34684,Pinellas County,FL,NA,6.481481481481481,4.27807486631016
34698,Pinellas County,FL,NA,11.921296296296296,NA
34769,Osceola County,FL,NA,27.314814814814813,NA
34785,Sumter County,FL,NA,NA,45.98930481283423
34982,St. Lucie County,FL,NA,72.91666666666666,NA
34990,Martin County,FL,NA,87.5,NA
30013,Rockdale County,GA,NA,33.91203703703704,NA
30028,Forsyth County,GA,NA,29.398148148148145,NA
30030,DeKalb County,GA,87.05501618122977,NA,NA
30032,DeKalb County,GA,8.737864077669903,NA,NA
30039,Gwinnett County,GA,NA,29.166666666666668,NA
30044,Gwinnett County,GA,NA,NA,83.15508021390374
30052,Walton County,GA,NA,3.8194444444444446,NA
30062,Cobb County,GA,NA,7.291666666666667,NA
30064,Cobb County,GA,89.32038834951457,NA,NA
30094,Rockdale County,GA,NA,70.48611111111111,NA
30096,Gwinnett County,GA,NA,NA,35.294117647058826
30103,Bartow County,GA,NA,49.18981481481482,NA
30106,Cobb County,GA,NA,75.11574074074075,NA
30110,Haralson County,GA,NA,51.736111111111114,NA
30165,Floyd County,GA,NA,69.44444444444444,NA
30240,Troup County,GA,17.79935275080906,NA,NA
30253,Henry County,GA,NA,75.23148148148148,NA
30281,Henry County,GA,36.24595469255664,NA,NA
30286,Upson County,GA,NA,87.61574074074075,NA
30294,DeKalb County,GA,26.21359223300971,NA,NA
30310,Fulton County,GA,NA,NA,80.74866310160428
30311,Fulton County,GA,NA,69.32870370370371,NA
30314,Fulton County,GA,NA,79.62962962962963,NA
30319,DeKalb County,GA,NA,NA,74.59893048128342
30457,Treutlen County,GA,NA,70.83333333333334,NA
30501,Hall County,GA,NA,39.351851851851855,NA
30642,Greene County,GA,NA,NA,84.75935828877004
30655,Walton County,GA,NA,15.625,NA
30656,Walton County,GA,NA,35.532407407407405,NA
30673,Wilkes County,GA,NA,42.93981481481482,NA
30705,Murray County,GA,NA,64.58333333333334,NA
30741,Walker County,GA,NA,NA,32.085561497326204
30833,Jefferson County,GA,NA,99.07407407407408,NA
30904,Richmond County,GA,42.394822006472495,NA,NA
30907,Columbia County,GA,NA,34.9537037037037,NA
30909,Richmond County,GA,NA,8.333333333333332,NA
31015,Crisp County,GA,29.449838187702266,NA,NA
31064,Jasper County,GA,55.98705501618123,NA,NA
31322,Chatham County,GA,NA,44.675925925925924,NA
31329,Effingham County,GA,NA,89.35185185185185,NA
31401,Chatham County,GA,NA,NA,72.45989304812835
31404,Chatham County,GA,NA,NA,28.87700534759358
31419,Chatham County,GA,NA,NA,28.609625668449194
31503,Ware County,GA,31.715210355987054,NA,NA
31701,Dougherty County,GA,NA,41.782407407407405,81.01604278074866
31763,Lee County,GA,NA,NA,60.962566844919785
31774,Irwin County,GA,NA,62.84722222222222,NA
31833,Troup County,GA,76.05177993527508,NA,NA
31904,Muscogee County,GA,NA,9.953703703703704,NA
96734,Honolulu County,HI,NA,21.296296296296298,NA
96786,Honolulu County,HI,NA,45.717592592592595,NA
96813,Honolulu County,HI,NA,87.96296296296296,NA
96816,Honolulu County,HI,NA,42.824074074074076,NA
96826,Honolulu County,HI,NA,NA,94.38502673796792
83634,Ada County,ID,NA,91.31944444444444,NA
83646,Ada County,ID,NA,17.59259259259259,NA
83703,Ada County,ID,NA,71.29629629629629,NA
83815,Kootenai County,ID,NA,NA,33.155080213903744
60002,Lake County,IL,NA,84.95370370370371,NA
60016,Cook County,IL,NA,NA,37.70053475935829
60018,Cook County,IL,NA,NA,68.98395721925134
60022,Cook County,IL,94.1747572815534,NA,NA
60025,Cook County,IL,NA,50.46296296296296,NA
60047,Lake County,IL,NA,12.037037037037036,64.43850267379679
60053,Cook County,IL,75.08090614886731,NA,NA
60061,Lake County,IL,NA,NA,22.192513368983956
60081,McHenry County,IL,98.05825242718447,NA,NA
60084,Lake County,IL,NA,NA,90.10695187165776
60102,McHenry County,IL,NA,NA,80.21390374331551
60115,DeKalb County,IL,NA,16.319444444444446,NA
60153,Cook County,IL,NA,NA,62.834224598930476
60171,Cook County,IL,NA,93.05555555555556,NA
60194,Cook County,IL,NA,31.828703703703702,NA
60416,Grundy County,IL,NA,79.74537037037037,NA
60422,Cook County,IL,NA,47.22222222222222,NA
60453,Cook County,IL,NA,NA,67.9144385026738
60457,Cook County,IL,NA,NA,62.03208556149733
60463,Cook County,IL,NA,67.01388888888889,NA
60465,Cook County,IL,NA,NA,92.51336898395722
60472,Cook County,IL,NA,83.56481481481481,NA
60473,Cook County,IL,NA,48.148148148148145,NA
60487,Cook County,IL,NA,88.31018518518519,NA
60513,Cook County,IL,25.88996763754045,NA,NA
60515,DuPage County,IL,NA,18.055555555555554,NA
60601,Cook County,IL,NA,NA,86.09625668449198
60610,Cook County,IL,NA,NA,9.090909090909092
60617,Cook County,IL,4.53074433656958,NA,NA
60619,Cook County,IL,NA,1.8518518518518516,NA
60621,Cook County,IL,21.68284789644013,NA,NA
60628,Cook County,IL,NA,1.3888888888888888,NA
60639,Cook County,IL,NA,NA,24.06417112299465
60640,Cook County,IL,NA,47.56944444444444,NA
60641,Cook County,IL,NA,7.75462962962963,NA
60643,Cook County,IL,NA,33.33333333333333,NA
60646,Cook County,IL,NA,46.06481481481482,NA
60707,Cook County,IL,NA,4.282407407407407,NA
61008,Boone County,IL,NA,30.324074074074076,NA
61102,Winnebago County,IL,NA,NA,56.14973262032086
61115,Winnebago County,IL,NA,94.79166666666666,82.0855614973262
61201,Rock Island County,IL,NA,NA,56.14973262032086
61265,Rock Island County,IL,NA,38.31018518518518,NA
61364,LaSalle County,IL,95.79288025889967,NA,NA
61401,Knox County,IL,NA,15.972222222222221,NA
61605,Peoria County,IL,NA,33.91203703703704,NA
61614,Peoria County,IL,NA,NA,11.76470588235294
61704,McLean County,IL,NA,21.875,NA
61944,Edgar County,IL,NA,NA,26.737967914438503
62002,Madison County,IL,39.15857605177994,84.72222222222221,NA
62040,Madison County,IL,56.310679611650485,NA,NA
62052,Jersey County,IL,NA,NA,28.07486631016043
62204,St. Clair County,IL,NA,94.09722222222221,NA
62208,St. Clair County,IL,NA,37.61574074074074,NA
62220,St. Clair County,IL,NA,42.592592592592595,NA
62249,Madison County,IL,NA,38.425925925925924,NA
62441,Clark County,IL,NA,NA,70.58823529411765
62526,Macon County,IL,NA,NA,1.3368983957219251
62565,Shelby County,IL,88.3495145631068,NA,76.20320855614973
62812,Franklin County,IL,NA,54.97685185185185,NA
62948,Williamson County,IL,43.689320388349515,NA,NA
46034,Hamilton County,IN,NA,NA,68.71657754010695
46064,Madison County,IN,NA,65.39351851851852,NA
46069,Hamilton County,IN,NA,95.7175925925926,NA
46074,Hamilton County,IN,NA,56.94444444444444,NA
46202,Marion County,IN,NA,91.20370370370371,NA
46219,Marion County,IN,NA,10.069444444444445,NA
46221,Marion County,IN,NA,78.125,NA
46225,Marion County,IN,NA,93.17129629629629,NA
46226,Marion County,IN,NA,56.82870370370371,NA
46234,Marion County,IN,NA,68.75,NA
46237,Marion County,IN,NA,20.833333333333336,5.347593582887701
46241,Marion County,IN,68.28478964401295,NA,NA
46254,Marion County,IN,NA,15.74074074074074,NA
46350,LaPorte County,IN,NA,75.81018518518519,NA
46383,Porter County,IN,5.177993527508091,NA,NA
46394,Lake County,IN,NA,82.17592592592592,NA
46737,Steuben County,IN,96.44012944983818,NA,NA
46902,Howard County,IN,NA,NA,19.518716577540108
46952,Grant County,IN,NA,NA,82.62032085561498
46970,Miami County,IN,7.766990291262135,NA,NA
47172,Clark County,IN,NA,NA,49.465240641711226
47265,Jennings County,IN,NA,NA,29.67914438502674
47302,Delaware County,IN,NA,17.12962962962963,NA
47348,Blackford County,IN,NA,54.166666666666664,NA
47421,Lawrence County,IN,NA,10.185185185185185,NA
47501,Daviess County,IN,NA,32.870370370370374,NA
47553,Martin County,IN,NA,63.07870370370371,NA
47567,Pike County,IN,NA,NA,97.05882352941177
47591,Knox County,IN,NA,NA,6.951871657754011
47714,Vanderburgh County,IN,NA,NA,48.1283422459893
47906,Tippecanoe County,IN,NA,14.814814814814813,NA
47909,Tippecanoe County,IN,61.81229773462783,NA,NA
47960,White County,IN,NA,33.56481481481482,NA
50131,Polk County,IA,NA,92.01388888888889,NA
50266,Polk County,IA,NA,49.4212962962963,63.903743315508024
50310,Polk County,IA,NA,25.578703703703702,NA
50316,Polk County,IA,NA,NA,54.278074866310156
50317,Polk County,IA,NA,NA,74.8663101604278
50322,Polk County,IA,NA,NA,37.967914438502675
50701,Black Hawk County,IA,NA,47.10648148148148,31.283422459893046
50703,Black Hawk County,IA,NA,16.666666666666664,NA
51103,Woodbury County,IA,NA,82.98611111111111,NA
52060,Jackson County,IA,NA,NA,84.49197860962568
52349,Benton County,IA,47.896440129449836,NA,NA
52403,Linn County,IA,NA,20.13888888888889,NA
52556,Jefferson County,IA,NA,57.407407407407405,NA
52732,Clinton County,IA,NA,48.379629629629626,NA
66048,Leavenworth County,KS,NA,23.958333333333336,NA
66204,Johnson County,KS,NA,97.33796296296296,NA
66213,Johnson County,KS,NA,60.06944444444444,NA
67005,Cowley County,KS,NA,NA,60.42780748663101
67230,Sedgwick County,KS,NA,80.32407407407408,NA
67871,Scott County,KS,NA,86.11111111111111,NA
40031,Oldham County,KY,NA,NA,26.47058823529412
40065,Shelby County,KY,NA,50.92592592592593,NA
40071,Spencer County,KY,32.68608414239482,62.38425925925925,NA
40160,Hardin County,KY,41.42394822006473,NA,NA
40165,Bullitt County,KY,NA,8.680555555555555,NA
40203,Jefferson County,KY,NA,19.90740740740741,92.24598930481284
40206,Jefferson County,KY,66.99029126213593,NA,NA
40214,Jefferson County,KY,NA,26.620370370370374,NA
40220,Jefferson County,KY,NA,81.25,NA
40299,Jefferson County,KY,NA,92.5925925925926,NA
40324,Scott County,KY,26.537216828478964,55.90277777777778,NA
40330,Mercer County,KY,NA,62.96296296296296,NA
40351,Rowan County,KY,NA,7.4074074074074066,NA
40390,Jessamine County,KY,NA,79.97685185185185,NA
40517,Fayette County,KY,NA,20.949074074074073,NA
40701,Whitley County,KY,8.414239482200648,6.25,NA
40741,Laurel County,KY,57.28155339805825,NA,NA
40769,Whitley County,KY,20.388349514563107,NA,50.26737967914438
41001,Campbell County,KY,NA,NA,36.096256684491976
41015,Kenton County,KY,NA,56.59722222222222,NA
41017,Kenton County,KY,NA,11.458333333333332,NA
41018,Kenton County,KY,17.15210355987055,NA,NA
41071,Campbell County,KY,NA,85.87962962962963,NA
41091,Boone County,KY,NA,39.23611111111111,67.11229946524064
41101,Boyd County,KY,NA,29.629629629629626,NA
41143,Carter County,KY,NA,26.041666666666668,NA
41144,Greenup County,KY,NA,NA,74.33155080213903
41301,Wolfe County,KY,NA,73.95833333333334,NA
41465,Magoffin County,KY,73.46278317152104,NA,NA
41522,Pike County,KY,NA,74.88425925925925,NA
42066,Graves County,KY,NA,11.342592592592593,NA
42071,Calloway County,KY,47.57281553398058,90.74074074074075,NA
42101,Warren County,KY,NA,41.2037037037037,NA
42420,Henderson County,KY,NA,NA,7.219251336898395
42431,Hopkins County,KY,NA,NA,17.11229946524064
42567,Pulaski County,KY,81.55339805825243,NA,NA
70001,Jefferson Parish,LA,NA,20.37037037037037,75.93582887700535
70003,Jefferson Parish,LA,NA,NA,0.8021390374331552
70043,St. Bernard Parish,LA,NA,38.0787037037037,NA
70058,Jefferson Parish,LA,NA,53.93518518518518,NA
70062,Jefferson Parish,LA,NA,37.5,NA
70072,Jefferson Parish,LA,NA,76.73611111111111,NA
70374,Lafourche Parish,LA,NA,35.532407407407405,NA
70390,Assumption Parish,LA,87.70226537216828,NA,NA
70403,Tangipahoa Parish,LA,29.449838187702266,NA,NA
70422,Tangipahoa Parish,LA,NA,58.217592592592595,NA
70441,St. Helena Parish,LA,NA,NA,60.42780748663101
70510,Vermilion Parish,LA,NA,63.541666666666664,NA
70560,Iberia Parish,LA,NA,6.365740740740741,NA
70570,St. Landry Parish,LA,0.6472491909385114,NA,NA
70706,Livingston Parish,LA,NA,56.36574074074075,NA
70737,Ascension Parish,LA,46.601941747572816,NA,NA
70764,Iberville Parish,LA,NA,NA,83.42245989304813
70775,West Feliciana Parish,LA,NA,89.81481481481481,NA
70785,Livingston Parish,LA,NA,93.51851851851852,NA
70810,East Baton Rouge Parish,LA,NA,34.83796296296296,66.0427807486631
70811,East Baton Rouge Parish,LA,74.4336569579288,NA,NA
70816,East Baton Rouge Parish,LA,NA,17.24537037037037,NA
71037,Bossier Parish,LA,43.042071197411005,NA,NA
71055,Webster Parish,LA,85.43689320388349,NA,NA
71109,Caddo Parish,LA,NA,13.88888888888889,NA
71270,Lincoln Parish,LA,72.81553398058253,NA,NA
71483,Winn Parish,LA,NA,72.68518518518519,NA
04005,York County,ME,NA,2.083333333333333,NA
04064,York County,ME,NA,65.85648148148148,NA
04092,Cumberland County,ME,NA,35.41666666666667,NA
04105,Cumberland County,ME,NA,69.21296296296296,NA
04240,Androscoggin County,ME,NA,37.03703703703704,0.53475935828877
04282,Androscoggin County,ME,NA,55.208333333333336,NA
04350,Kennebec County,ME,NA,94.21296296296296,NA
04572,Lincoln County,ME,NA,97.45370370370371,NA
04736,Aroostook County,ME,NA,NA,69.5187165775401
04901,Kennebec County,ME,NA,45.83333333333333,NA
04915,Waldo County,ME,NA,18.287037037037038,NA
20705,Prince George's County,MD,NA,98.8425925925926,NA
21014,Harford County,MD,NA,16.550925925925927,NA
21037,Anne Arundel County,MD,88.02588996763754,NA,NA
21093,Baltimore County,MD,NA,95.25462962962963,NA
21122,Anne Arundel County,MD,NA,55.32407407407407,13.903743315508022
21206,Baltimore city,MD,NA,NA,43.31550802139038
21218,Baltimore city,MD,52.75080906148867,NA,NA
21219,Baltimore County,MD,78.64077669902912,NA,NA
21221,Baltimore County,MD,13.592233009708737,NA,NA
21223,Baltimore city,MD,93.85113268608414,NA,NA
21228,Baltimore County,MD,NA,23.03240740740741,NA
21722,Washington County,MD,NA,93.40277777777779,NA
21740,Washington County,MD,44.01294498381877,NA,NA
01075,Hampshire County,MA,NA,69.9074074074074,NA
01201,Berkshire County,MA,14.886731391585762,23.37962962962963,NA
01247,Berkshire County,MA,NA,33.449074074074076,NA
01420,Worcester County,MA,NA,8.796296296296296,NA
01532,Worcester County,MA,29.449838187702266,NA,NA
01550,Worcester County,MA,13.915857605177994,NA,NA
01603,Worcester County,MA,19.093851132686083,NA,NA
01604,Worcester County,MA,4.207119741100324,28.125,NA
01810,Essex County,MA,NA,7.87037037037037,NA
01841,Essex County,MA,NA,0.11574074074074073,NA
01843,Essex County,MA,NA,42.70833333333333,NA
01844,Essex County,MA,14.239482200647249,NA,NA
01852,Middlesex County,MA,NA,39.467592592592595,NA
01860,Essex County,MA,58.57605177993528,NA,NA
01862,Middlesex County,MA,NA,68.28703703703704,NA
01915,Essex County,MA,NA,NA,0.267379679144385
01970,Essex County,MA,NA,3.125,NA
02035,Norfolk County,MA,NA,12.731481481481483,NA
02045,Plymouth County,MA,NA,71.18055555555556,NA
02090,Norfolk County,MA,NA,NA,57.48663101604278
02093,Norfolk County,MA,NA,48.032407407407405,NA
02115,Suffolk County,MA,NA,NA,1.06951871657754
02118,Suffolk County,MA,NA,0.3472222222222222,NA
02134,Suffolk County,MA,55.016181229773466,NA,NA
02135,Suffolk County,MA,NA,20.02314814814815,NA
02136,Suffolk County,MA,NA,27.083333333333332,NA
02149,Middlesex County,MA,16.828478964401295,49.074074074074076,NA
02151,Suffolk County,MA,NA,0,NA
02155,Middlesex County,MA,12.944983818770226,29.976851851851855,NA
02169,Norfolk County,MA,42.71844660194174,NA,NA
02170,Norfolk County,MA,NA,32.63888888888889,NA
02176,Middlesex County,MA,NA,84.02777777777779,NA
02180,Middlesex County,MA,NA,12.152777777777777,NA
02188,Norfolk County,MA,NA,89.23611111111111,NA
02301,Plymouth County,MA,NA,37.15277777777778,NA
02343,Norfolk County,MA,NA,91.66666666666666,NA
02360,Plymouth County,MA,NA,0.23148148148148145,NA
02364,Plymouth County,MA,NA,96.18055555555556,NA
02368,Norfolk County,MA,NA,65.50925925925925,NA
02451,Middlesex County,MA,50.48543689320388,NA,NA
02460,Middlesex County,MA,NA,NA,92.7807486631016
02465,Middlesex County,MA,NA,NA,25.13368983957219
02537,Barnstable County,MA,NA,NA,77.00534759358288
02633,Barnstable County,MA,NA,NA,86.89839572192514
02649,Barnstable County,MA,NA,NA,7.754010695187167
02660,Barnstable County,MA,NA,98.49537037037037,NA
02719,Bristol County,MA,NA,25.810185185185187,NA
02724,Bristol County,MA,NA,2.314814814814815,NA
02740,Bristol County,MA,0,NA,NA
02743,Bristol County,MA,NA,89.69907407407408,NA
02745,Bristol County,MA,86.73139158576052,NA,NA
02769,Bristol County,MA,74.11003236245955,NA,NA
02777,Bristol County,MA,NA,24.76851851851852,NA
02779,Bristol County,MA,NA,77.89351851851852,NA
02780,Bristol County,MA,NA,NA,3.7433155080213902
48026,Macomb County,MI,NA,85.5324074074074,NA
48033,Oakland County,MI,NA,NA,38.50267379679144
48038,Macomb County,MI,NA,15.277777777777779,NA
48042,Macomb County,MI,NA,NA,83.9572192513369
48044,Macomb County,MI,NA,NA,58.02139037433155
48045,Macomb County,MI,NA,96.75925925925925,NA
48071,Oakland County,MI,NA,41.43518518518518,NA
48075,Oakland County,MI,NA,38.88888888888889,NA
48082,Macomb County,MI,NA,NA,13.101604278074866
48089,Macomb County,MI,NA,80.90277777777779,NA
48091,Macomb County,MI,3.8834951456310676,7.638888888888889,NA
48092,Macomb County,MI,NA,60.995370370370374,NA
48098,Oakland County,MI,NA,NA,32.62032085561498
48101,Wayne County,MI,NA,36.80555555555556,NA
48127,Wayne County,MI,NA,NA,75.66844919786097
48141,Wayne County,MI,32.038834951456316,NA,NA
48154,Wayne County,MI,NA,3.4722222222222223,NA
48166,Monroe County,MI,NA,63.31018518518518,NA
48167,Oakland County,MI,NA,95.13888888888889,NA
48169,Livingston County,MI,NA,NA,19.786096256684495
48180,Wayne County,MI,10.679611650485436,NA,NA
48183,Wayne County,MI,6.796116504854369,NA,NA
48186,Wayne County,MI,NA,22.569444444444446,NA
48201,Wayne County,MI,23.948220064724918,NA,NA
48203,Wayne County,MI,68.6084142394822,NA,NA
48206,Wayne County,MI,NA,86.22685185185185,NA
48208,Wayne County,MI,NA,NA,85.56149732620321
48214,Wayne County,MI,NA,46.52777777777778,NA
48215,Wayne County,MI,NA,74.76851851851852,NA
48227,Wayne County,MI,NA,42.01388888888889,NA
48235,Wayne County,MI,75.72815533980582,45.13888888888889,NA
48238,Wayne County,MI,54.69255663430421,NA,NA
48240,Wayne County,MI,NA,93.75,NA
48301,Oakland County,MI,NA,NA,60.16042780748663
48302,Oakland County,MI,NA,46.64351851851852,15.775401069518717
48317,Macomb County,MI,NA,NA,41.17647058823529
48329,Oakland County,MI,NA,NA,74.06417112299465
48371,Oakland County,MI,58.89967637540453,NA,NA
48377,Oakland County,MI,NA,NA,16.31016042780749
48382,Oakland County,MI,NA,78.00925925925925,NA
48383,Oakland County,MI,NA,NA,82.88770053475936
48430,Genesee County,MI,NA,68.51851851851852,NA
48433,Genesee County,MI,NA,11.805555555555555,NA
48438,Genesee County,MI,NA,64.4675925925926,NA
48457,Genesee County,MI,NA,73.26388888888889,NA
48473,Genesee County,MI,NA,69.67592592592592,NA
48507,Genesee County,MI,NA,39.120370370370374,NA
48601,Saginaw County,MI,NA,51.620370370370374,17.379679144385026
48603,Saginaw County,MI,NA,NA,2.941176470588235
48640,Midland County,MI,NA,25.115740740740737,NA
48650,Bay County,MI,NA,NA,72.99465240641712
48813,Eaton County,MI,NA,72.56944444444444,18.71657754010695
48837,Eaton County,MI,NA,NA,45.18716577540107
48855,Livingston County,MI,NA,85.99537037037037,NA
48867,Shiawassee County,MI,70.22653721682848,2.7777777777777777,NA
48875,Ionia County,MI,NA,NA,90.9090909090909
48906,Ingham County,MI,NA,61.57407407407407,NA
48917,Eaton County,MI,6.472491909385113,NA,NA
49022,Berrien County,MI,NA,5.787037037037037,NA
49055,Van Buren County,MI,76.69902912621359,NA,NA
49065,Van Buren County,MI,NA,41.31944444444444,NA
49068,Calhoun County,MI,NA,NA,20.588235294117645
49093,St. Joseph County,MI,NA,18.75,NA
49099,St. Joseph County,MI,NA,NA,78.87700534759358
49221,Lenawee County,MI,1.9417475728155338,NA,NA
49286,Lenawee County,MI,NA,24.189814814814813,NA
49329,Montcalm County,MI,NA,82.75462962962963,NA
49345,Kent County,MI,69.90291262135922,54.05092592592593,NA
49423,Ottawa County,MI,NA,79.16666666666666,NA
49444,Muskegon County,MI,NA,68.98148148148148,NA
49508,Kent County,MI,NA,32.98611111111111,NA
49509,Kent County,MI,NA,8.449074074074074,NA
49525,Kent County,MI,NA,12.847222222222221,NA
49546,Kent County,MI,NA,NA,5.080213903743315
49643,Grand Traverse County,MI,NA,66.20370370370371,NA
49651,Missaukee County,MI,63.10679611650486,NA,NA
49663,Wexford County,MI,NA,95.48611111111111,NA
49668,Wexford County,MI,86.08414239482201,NA,NA
49721,Cheboygan County,MI,NA,84.25925925925925,NA
49749,Cheboygan County,MI,NA,96.99074074074075,NA
49920,Iron County,MI,NA,66.08796296296296,NA
55021,Rice County,MN,67.96116504854369,NA,NA
55033,Dakota County,MN,NA,NA,16.577540106951872
55075,Dakota County,MN,NA,47.4537037037037,NA
55076,Dakota County,MN,NA,NA,48.663101604278076
55106,Ramsey County,MN,NA,93.86574074074075,NA
55108,Ramsey County,MN,NA,81.13425925925925,NA
55112,Ramsey County,MN,NA,NA,55.61497326203209
55116,Ramsey County,MN,NA,73.0324074074074,NA
55306,Dakota County,MN,NA,62.268518518518526,NA
55379,Scott County,MN,18.446601941747574,NA,NA
55428,Hennepin County,MN,NA,82.87037037037037,NA
55429,Hennepin County,MN,NA,19.791666666666664,NA
55444,Hennepin County,MN,NA,43.51851851851852,NA
55448,Anoka County,MN,NA,NA,37.16577540106952
55449,Anoka County,MN,30.74433656957929,NA,NA
55792,St. Louis County,MN,NA,16.087962962962962,NA
56303,Stearns County,MN,NA,72.80092592592592,NA
56482,Wadena County,MN,NA,NA,73.2620320855615
56572,Otter Tail County,MN,NA,38.425925925925924,NA
38606,Panola County,MS,88.9967637540453,NA,NA
38618,Tate County,MS,NA,61.68981481481482,NA
38651,DeSoto County,MS,NA,NA,96.2566844919786
38668,Tate County,MS,NA,80.55555555555556,NA
38683,Tippah County,MS,NA,NA,95.45454545454545
38804,Lee County,MS,NA,48.26388888888889,NA
38834,Alcorn County,MS,NA,62.731481481481474,NA
38858,Monroe County,MS,NA,68.17129629629629,NA
38866,Lee County,MS,81.87702265372168,NA,NA
38901,Grenada County,MS,NA,99.30555555555556,NA
38922,Yalobusha County,MS,NA,84.375,NA
39059,Copiah County,MS,NA,NA,89.57219251336899
39073,Rankin County,MS,NA,73.49537037037037,NA
39204,Hinds County,MS,NA,81.36574074074075,NA
39208,Rankin County,MS,NA,29.745370370370374,NA
39213,Hinds County,MS,NA,78.47222222222221,NA
39305,Lauderdale County,MS,NA,29.28240740740741,NA
39439,Jasper County,MS,NA,NA,70.05347593582889
39466,Pearl River County,MS,61.48867313915858,NA,NA
39474,Jefferson Davis County,MS,NA,87.26851851851852,NA
39503,Harrison County,MS,34.627831715210355,1.2731481481481481,NA
39531,Harrison County,MS,NA,66.43518518518519,NA
39567,Jackson County,MS,78.96440129449837,31.712962962962965,NA
39652,Pike County,MS,71.52103559870551,48.95833333333333,NA
39666,Pike County,MS,NA,55.67129629629629,NA
39667,Walthall County,MS,47.896440129449836,NA,NA
63021,St. Louis County,MO,49.19093851132686,NA,NA
63028,Jefferson County,MO,NA,62.03703703703704,NA
63031,St. Louis County,MO,12.62135922330097,NA,NA
63043,St. Louis County,MO,NA,NA,45.45454545454545
63111,St. Louis city,MO,NA,26.620370370370374,NA
63121,St. Louis County,MO,NA,NA,30.74866310160428
63124,St. Louis County,MO,NA,NA,17.914438502673796
63133,St. Louis County,MO,NA,89.4675925925926,NA
63136,St. Louis County,MO,38.83495145631068,4.398148148148148,NA
63146,St. Louis County,MO,NA,NA,18.983957219251337
63357,Warren County,MO,NA,NA,97.32620320855615
63456,Monroe County,MO,NA,NA,94.6524064171123
63664,Washington County,MO,NA,41.898148148148145,NA
63775,Perry County,MO,NA,53.70370370370371,39.839572192513366
63780,Scott County,MO,NA,46.875,NA
63801,Scott County,MO,NA,NA,34.49197860962567
63857,Dunklin County,MO,27.184466019417474,NA,NA
63876,Dunklin County,MO,NA,97.91666666666666,NA
63901,Butler County,MO,NA,32.06018518518518,NA
64030,Jackson County,MO,NA,9.49074074074074,NA
64040,Johnson County,MO,NA,98.37962962962963,NA
64068,Clay County,MO,NA,2.8935185185185186,NA
64093,Johnson County,MO,NA,NA,58.55614973262032
64111,Jackson County,MO,83.1715210355987,NA,NA
64114,Jackson County,MO,NA,NA,18.181818181818183
64117,Clay County,MO,NA,22.916666666666664,NA
64130,Jackson County,MO,NA,30.787037037037035,NA
64132,Jackson County,MO,NA,81.59722222222221,NA
64152,Platte County,MO,91.9093851132686,NA,40.909090909090914
64505,Buchanan County,MO,NA,12.61574074074074,NA
64870,Jasper County,MO,NA,NA,51.60427807486631
65043,Callaway County,MO,NA,57.986111111111114,NA
65233,Cooper County,MO,NA,NA,98.93048128342245
65301,Pettis County,MO,2.26537216828479,NA,NA
65401,Phelps County,MO,NA,8.912037037037036,NA
65610,Christian County,MO,NA,98.61111111111111,NA
65616,Taney County,MO,57.92880258899677,NA,NA
65721,Christian County,MO,NA,NA,89.83957219251337
65791,Oregon County,MO,NA,82.29166666666666,NA
65802,Greene County,MO,NA,10.416666666666668,NA
65803,Greene County,MO,NA,36.342592592592595,NA
59102,Yellowstone County,MT,NA,54.39814814814815,NA
59801,Missoula County,MT,NA,37.38425925925926,NA
59840,Ravalli County,MT,NA,NA,23.796791443850267
59912,Flathead County,MT,NA,86.3425925925926,NA
59923,Lincoln County,MT,NA,28.819444444444443,NA
68112,Douglas County,NE,99.02912621359224,NA,NA
68144,Douglas County,NE,NA,78.58796296296296,NA
68901,Adams County,NE,NA,97.10648148148148,NA
89123,Clark County,NV,NA,52.43055555555556,NA
89134,Clark County,NV,NA,NA,67.64705882352942
89144,Clark County,NV,NA,56.481481481481474,NA
89147,Clark County,NV,NA,NA,64.171122994652407
89508,Washoe County,NV,NA,NA,93.31550802139037
89511,Washoe County,NV,64.07766990291263,NA,NA
03033,Hillsborough County,NH,NA,89.4675925925926,NA
03246,Belknap County,NH,66.34304207119742,NA,NA
03249,Belknap County,NH,NA,71.99074074074075,NA
03743,Sullivan County,NH,NA,NA,18.449197860962567
03867,Strafford County,NH,16.50485436893204,NA,NA
07017,Essex County,NJ,NA,87.38425925925925,NA
07036,Union County,NJ,7.119741100323624,NA,NA
07065,Union County,NJ,NA,61.342592592592595,NA
07103,Essex County,NJ,NA,49.53703703703704,NA
07109,Essex County,NJ,98.05825242718447,NA,NA
07405,Morris County,NJ,NA,65.625,NA
07442,Passaic County,NJ,NA,97.22222222222221,NA
07604,Bergen County,NJ,NA,73.14814814814815,70.85561497326202
07677,Bergen County,NJ,NA,63.77314814814815,NA
07738,Monmouth County,NJ,NA,NA,76.7379679144385
07827,Sussex County,NJ,NA,97.68518518518519,NA
07960,Morris County,NJ,NA,NA,9.893048128342247
08005,Ocean County,NJ,NA,70.25462962962963,NA
08016,Burlington County,NJ,1.2944983818770228,NA,NA
08021,Camden County,NJ,NA,90.97222222222221,NA
08048,Burlington County,NJ,NA,56.25,NA
08054,Burlington County,NJ,NA,6.944444444444445,NA
08068,Burlington County,NJ,NA,37.96296296296296,NA
08079,Salem County,NJ,NA,46.99074074074074,NA
08087,Ocean County,NJ,NA,NA,82.35294117647058
08094,Gloucester County,NJ,NA,4.976851851851852,NA
08105,Camden County,NJ,NA,NA,84.22459893048129
08260,Cape May County,NJ,NA,88.19444444444444,NA
08302,Cumberland County,NJ,NA,4.513888888888888,NA
08318,Salem County,NJ,NA,58.91203703703704,NA
08401,Atlantic County,NJ,0.3236245954692557,60.532407407407405,NA
08402,Atlantic County,NJ,NA,95.37037037037037,NA
08610,Mercer County,NJ,NA,24.537037037037038,NA
08611,Mercer County,NJ,NA,59.95370370370371,NA
08724,Ocean County,NJ,NA,7.523148148148148,NA
08755,Ocean County,NJ,NA,NA,2.6737967914438503
08757,Ocean County,NJ,NA,81.71296296296296,NA
08816,Middlesex County,NJ,NA,13.773148148148149,NA
08830,Middlesex County,NJ,NA,NA,31.016042780748666
08857,Middlesex County,NJ,NA,26.504629629629626,NA
08882,Middlesex County,NJ,NA,94.9074074074074,NA
08886,Warren County,NJ,NA,77.31481481481481,NA
87004,Sandoval County,NM,NA,85.64814814814815,NA
87108,Bernalillo County,NM,NA,2.199074074074074,NA
87120,Bernalillo County,NM,83.49514563106796,NA,NA
87401,San Juan County,NM,12.297734627831716,NA,NA
87505,Santa Fe County,NM,NA,2.662037037037037,NA
87508,Santa Fe County,NM,NA,28.009259259259263,NA
87557,Taos County,NM,NA,50.57870370370371,NA
88030,Luna County,NM,73.7864077669903,NA,NA
88210,Eddy County,NM,NA,81.48148148148148,NA
10002,New York County,NY,51.45631067961165,NA,NA
10011,New York County,NY,23.624595469255663,NA,NA
10023,New York County,NY,NA,24.421296296296298,NA
10025,New York County,NY,NA,57.06018518518518,NA
10027,New York County,NY,NA,37.73148148148148,NA
10031,New York County,NY,NA,NA,66.57754010695187
10032,New York County,NY,NA,17.47685185185185,NA
10033,New York County,NY,29.126213592233007,NA,NA
10035,New York County,NY,NA,NA,27.540106951871657
10040,New York County,NY,NA,67.70833333333334,NA
10308,Richmond County,NY,NA,NA,99.73262032085562
10314,Richmond County,NY,NA,NA,58.82352941176471
10455,Bronx County,NY,NA,51.157407407407405,NA
10459,Bronx County,NY,89.96763754045307,NA,68.18181818181817
10468,Bronx County,NY,NA,0.6944444444444444,NA
10470,Bronx County,NY,NA,NA,56.951871657754005
10472,Bronx County,NY,NA,8.564814814814815,NA
10589,Westchester County,NY,NA,NA,79.67914438502673
10598,Westchester County,NY,NA,45.48611111111111,NA
10704,Westchester County,NY,NA,89.00462962962963,NA
10956,Rockland County,NY,NA,NA,13.636363636363635
11020,Nassau County,NY,NA,100,NA
11206,Kings County,NY,0.9708737864077669,NA,NA
11208,Kings County,NY,NA,0.4629629629629629,NA
11211,Kings County,NY,NA,43.75,88.77005347593582
11214,Kings County,NY,NA,NA,52.67379679144385
11217,Kings County,NY,NA,33.217592592592595,NA
11219,Kings County,NY,NA,NA,4.545454545454546
11220,Kings County,NY,30.42071197411003,NA,NA
11226,Kings County,NY,NA,NA,24.86631016042781
11229,Kings County,NY,51.7799352750809,NA,NA
11230,Kings County,NY,NA,NA,1.6042780748663104
11355,Queens County,NY,NA,9.25925925925926,NA
11357,Queens County,NY,NA,NA,19.25133689839572
11374,Queens County,NY,NA,13.541666666666666,NA
11375,Queens County,NY,NA,NA,1.8716577540106951
11377,Queens County,NY,NA,50.11574074074075,NA
11379,Queens County,NY,NA,83.79629629629629,NA
11415,Queens County,NY,NA,41.66666666666667,NA
11542,Nassau County,NY,NA,27.89351851851852,NA
11561,Nassau County,NY,NA,77.08333333333334,NA
11598,Nassau County,NY,NA,77.54629629629629,NA
11691,Queens County,NY,NA,3.2407407407407405,NA
11701,Suffolk County,NY,NA,36.68981481481482,NA
11727,Suffolk County,NY,NA,95.83333333333334,NA
11777,Suffolk County,NY,NA,44.907407407407405,NA
11778,Suffolk County,NY,NA,NA,98.3957219251337
11779,Suffolk County,NY,NA,NA,21.65775401069519
11934,Suffolk County,NY,80.58252427184466,NA,NA
11946,Suffolk County,NY,NA,NA,39.57219251336899
12047,Albany County,NY,NA,31.134259259259263,NA
12065,Saratoga County,NY,NA,9.027777777777777,NA
12077,Albany County,NY,NA,NA,97.59358288770053
12534,Columbia County,NY,NA,30.208333333333332,NA
12563,Putnam County,NY,NA,85.41666666666666,NA
12590,Dutchess County,NY,NA,35.879629629629626,NA
12701,Sullivan County,NY,NA,77.43055555555556,NA
12801,Warren County,NY,NA,74.18981481481481,NA
12839,Washington County,NY,NA,60.06944444444444,NA
12944,Essex County,NY,NA,79.86111111111111,NA
13027,Onondaga County,NY,26.860841423948216,8.217592592592593,NA
13035,Madison County,NY,NA,65.27777777777779,NA
13063,Onondaga County,NY,NA,99.42129629629629,NA
13069,Oswego County,NY,NA,21.180555555555554,NA
13077,Cortland County,NY,NA,70.94907407407408,NA
13090,Onondaga County,NY,90.29126213592234,NA,NA
13104,Onondaga County,NY,NA,76.1574074074074,NA
13110,Onondaga County,NY,NA,87.84722222222221,NA
13131,Oswego County,NY,NA,85.76388888888889,NA
13203,Onondaga County,NY,NA,28.47222222222222,NA
13204,Onondaga County,NY,NA,52.083333333333336,NA
13208,Onondaga County,NY,NA,93.98148148148148,NA
13413,Oneida County,NY,NA,73.26388888888889,NA
13617,St. Lawrence County,NY,NA,40.74074074074074,NA
13662,St. Lawrence County,NY,4.854368932038835,NA,NA
13669,St. Lawrence County,NY,NA,75.69444444444444,NA
13760,Broome County,NY,NA,NA,35.82887700534759
13790,Broome County,NY,NA,18.51851851851852,NA
14048,Chautauqua County,NY,NA,90.04629629629629,NA
14086,Erie County,NY,NA,10.87962962962963,NA
14127,Erie County,NY,NA,NA,55.88235294117647
14150,Erie County,NY,80.90614886731392,NA,NA
14210,Erie County,NY,NA,58.56481481481482,NA
14211,Erie County,NY,5.825242718446602,NA,NA
14215,Erie County,NY,92.23300970873787,NA,NA
14220,Erie County,NY,38.51132686084142,NA,NA
14224,Erie County,NY,NA,91.43518518518519,NA
14304,Niagara County,NY,NA,12.5,NA
14305,Niagara County,NY,60.19417475728155,NA,NA
14559,Monroe County,NY,NA,31.01851851851852,NA
14607,Monroe County,NY,NA,21.75925925925926,NA
14611,Monroe County,NY,NA,NA,33.42245989304813
14618,Monroe County,NY,11.003236245954692,NA,NA
14621,Monroe County,NY,NA,36.574074074074076,51.87165775401069
14622,Monroe County,NY,NA,29.398148148148145,NA
14701,Chautauqua County,NY,NA,80.20833333333334,4.81283422459893
14750,Chautauqua County,NY,NA,59.606481481481474,NA
14779,Cattaraugus County,NY,NA,88.88888888888889,NA
14867,Tompkins County,NY,NA,83.10185185185185,NA
27006,Davie County,NC,NA,34.14351851851852,NA
27012,Forsyth County,NC,NA,13.657407407407407,NA
27018,Yadkin County,NC,NA,NA,31.283422459893046
27028,Davie County,NC,NA,3.587962962962963,NA
27040,Forsyth County,NC,NA,49.65277777777778,NA
27101,Forsyth County,NC,NA,NA,96.52406417112299
27103,Forsyth County,NC,NA,32.407407407407405,NA
27205,Randolph County,NC,NA,97.56944444444444,NA
27284,Forsyth County,NC,NA,61.111111111111114,NA
27292,Davidson County,NC,NA,63.19444444444444,NA
27295,Davidson County,NC,NA,50.81018518518518,NA
27299,Davidson County,NC,NA,NA,88.50267379679144
27505,Harnett County,NC,NA,76.04166666666666,NA
27518,Wake County,NC,NA,75.92592592592592,NA
27522,Granville County,NC,NA,43.86574074074074,NA
27526,Wake County,NC,NA,11.689814814814815,NA
27540,Wake County,NC,NA,25.925925925925924,NA
27545,Wake County,NC,50.161812297734635,NA,NA
27577,Johnston County,NC,NA,59.83796296296296,NA
27589,Warren County,NC,NA,94.56018518518519,NA
27610,Wake County,NC,NA,63.657407407407405,NA
27703,Durham County,NC,8.090614886731391,4.861111111111112,NA
27704,Durham County,NC,NA,NA,20.053475935828878
27828,Pitt County,NC,NA,NA,77.54010695187165
27834,Pitt County,NC,38.18770226537217,NA,NA
27856,Nash County,NC,NA,NA,76.47058823529412
28016,Gaston County,NC,NA,NA,50.26737967914438
28027,Cabarrus County,NC,NA,NA,10.427807486631016
28054,Gaston County,NC,NA,34.72222222222222,NA
28079,Union County,NC,65.0485436893204,NA,NA
28090,Cleveland County,NC,NA,67.24537037037037,NA
28208,Mecklenburg County,NC,NA,56.71296296296296,NA
28211,Mecklenburg County,NC,NA,72.10648148148148,NA
28212,Mecklenburg County,NC,35.275080906148865,NA,NA
28277,Mecklenburg County,NC,NA,NA,46.25668449197861
28303,Cumberland County,NC,56.957928802588995,NA,NA
28377,Robeson County,NC,NA,59.375,NA
28379,Richmond County,NC,11.326860841423949,NA,NA
28384,Bladen County,NC,95.46925566343042,NA,NA
28463,Columbus County,NC,79.6116504854369,NA,NA
28501,Lenoir County,NC,NA,22.685185185185187,NA
28546,Onslow County,NC,NA,47.68518518518518,NA
28560,Craven County,NC,53.07443365695793,NA,NA
28571,Pamlico County,NC,NA,82.4074074074074,NA
28580,Greene County,NC,NA,50.231481481481474,NA
28638,Caldwell County,NC,NA,36.9212962962963,NA
28645,Caldwell County,NC,1.6181229773462782,NA,NA
28658,Catawba County,NC,NA,64.81481481481481,NA
28675,Alleghany County,NC,NA,62.15277777777778,NA
28739,Henderson County,NC,NA,NA,23.262032085561497
28768,Transylvania County,NC,NA,34.25925925925926,NA
28786,Haywood County,NC,NA,9.606481481481481,NA
58201,Grand Forks County,ND,NA,NA,33.9572192513369
43040,Union County,OH,NA,10.532407407407407,NA
43054,Franklin County,OH,NA,59.25925925925925,NA
43076,Perry County,OH,NA,67.12962962962963,NA
43113,Pickaway County,OH,9.385113268608414,NA,NA
43130,Fairfield County,OH,NA,19.444444444444446,NA
43146,Pickaway County,OH,NA,58.10185185185185,NA
43202,Franklin County,OH,NA,88.07870370370371,NA
43211,Franklin County,OH,NA,52.31481481481482,NA
43213,Franklin County,OH,NA,82.63888888888889,NA
43223,Franklin County,OH,70.87378640776699,NA,NA
43228,Franklin County,OH,NA,6.1342592592592595,36.63101604278075
43302,Marion County,OH,33.00970873786408,NA,NA
43331,Logan County,OH,NA,85.18518518518519,NA
43351,Wyandot County,OH,24.919093851132686,NA,NA
43512,Defiance County,OH,NA,54.629629629629626,NA
43543,Williams County,OH,43.36569579288026,NA,NA
43560,Lucas County,OH,NA,39.93055555555556,40.64171122994652
43607,Lucas County,OH,3.2362459546925564,NA,NA
43609,Lucas County,OH,NA,NA,93.04812834224599
43611,Lucas County,OH,NA,50,NA
43612,Lucas County,OH,2.5889967637540456,NA,NA
43615,Lucas County,OH,NA,14.583333333333334,NA
43619,Wood County,OH,NA,98.14814814814815,NA
43701,Muskingum County,OH,NA,39.81481481481482,NA
43723,Guernsey County,OH,36.56957928802589,NA,NA
43725,Guernsey County,OH,NA,NA,42.24598930481284
43812,Coshocton County,OH,79.93527508090615,NA,NA
43832,Tuscarawas County,OH,NA,37.26851851851852,NA
43938,Jefferson County,OH,NA,NA,91.71122994652407
43952,Jefferson County,OH,NA,4.74537037037037,NA
44004,Ashtabula County,OH,NA,57.291666666666664,NA
44012,Lorain County,OH,NA,NA,38.23529411764706
44017,Cuyahoga County,OH,NA,18.63425925925926,61.49732620320856
44035,Lorain County,OH,6.148867313915858,9.375,NA
44047,Ashtabula County,OH,NA,70.60185185185185,NA
44052,Lorain County,OH,NA,19.09722222222222,NA
44056,Summit County,OH,82.52427184466019,NA,NA
44070,Cuyahoga County,OH,NA,27.662037037037035,NA
44092,Lake County,OH,NA,NA,3.2085561497326207
44102,Cuyahoga County,OH,NA,0.8101851851851851,NA
44104,Cuyahoga County,OH,NA,52.77777777777778,NA
44105,Cuyahoga County,OH,NA,NA,62.299465240641716
44107,Cuyahoga County,OH,NA,0.9259259259259258,NA
44108,Cuyahoga County,OH,11.650485436893204,NA,54.01069518716578
44110,Cuyahoga County,OH,NA,NA,98.1283422459893
44112,Cuyahoga County,OH,NA,43.28703703703704,NA
44113,Cuyahoga County,OH,NA,43.63425925925926,NA
44119,Cuyahoga County,OH,88.67313915857605,NA,NA
44122,Cuyahoga County,OH,NA,1.7361111111111112,NA
44123,Cuyahoga County,OH,18.77022653721683,NA,NA
44130,Cuyahoga County,OH,NA,14.351851851851851,NA
44134,Cuyahoga County,OH,NA,NA,44.38502673796791
44212,Medina County,OH,NA,12.38425925925926,NA
44281,Medina County,OH,NA,NA,6.684491978609626
44314,Summit County,OH,NA,71.52777777777779,NA
44405,Mahoning County,OH,81.22977346278317,NA,NA
44406,Mahoning County,OH,NA,35.06944444444444,NA
44410,Trumbull County,OH,NA,33.68055555555556,NA
44425,Trumbull County,OH,NA,NA,27.00534759358289
44428,Trumbull County,OH,NA,91.7824074074074,NA
44446,Trumbull County,OH,NA,7.986111111111111,NA
44481,Trumbull County,OH,NA,61.458333333333336,NA
44485,Trumbull County,OH,NA,96.06481481481481,NA
44641,Stark County,OH,NA,23.72685185185185,NA
44672,Mahoning County,OH,NA,48.726851851851855,NA
44680,Tuscarawas County,OH,84.14239482200647,NA,NA
44705,Stark County,OH,NA,18.40277777777778,NA
44720,Stark County,OH,NA,74.42129629629629,NA
44805,Ashland County,OH,NA,1.9675925925925926,NA
44833,Crawford County,OH,NA,9.143518518518519,NA
44865,Huron County,OH,99.35275080906149,NA,NA
44870,Erie County,OH,NA,10.99537037037037,NA
44905,Richland County,OH,NA,42.245370370370374,NA
45005,Warren County,OH,NA,62.61574074074075,NA
45015,Butler County,OH,NA,38.19444444444444,NA
45050,Butler County,OH,NA,84.49074074074075,NA
45068,Warren County,OH,NA,42.129629629629626,NA
45069,Butler County,OH,33.33333333333333,NA,NA
45212,Hamilton County,OH,NA,54.97685185185185,52.139037433155075
45214,Hamilton County,OH,NA,91.08796296296296,NA
45219,Hamilton County,OH,NA,84.60648148148148,NA
45227,Hamilton County,OH,NA,45.949074074074076,NA
45230,Hamilton County,OH,87.37864077669903,NA,NA
45241,Hamilton County,OH,45.63106796116505,NA,NA
45248,Hamilton County,OH,NA,92.24537037037037,NA
45252,Hamilton County,OH,NA,71.75925925925925,NA
45255,Hamilton County,OH,NA,23.61111111111111,NA
45342,Montgomery County,OH,NA,60.64814814814815,NA
45356,Miami County,OH,NA,5.439814814814815,NA
45403,Montgomery County,OH,NA,46.2962962962963,NA
45601,Ross County,OH,NA,1.0416666666666665,NA
45651,Vinton County,OH,NA,86.45833333333334,NA
45656,Jackson County,OH,NA,59.02777777777778,NA
45660,Adams County,OH,NA,NA,46.25668449197861
45769,Meigs County,OH,NA,92.70833333333334,NA
45840,Hancock County,OH,NA,NA,54.54545454545454
45891,Van Wert County,OH,NA,NA,81.28342245989305
73013,Oklahoma County,OK,NA,4.050925925925926,NA
73020,Oklahoma County,OK,NA,81.94444444444444,NA
73120,Oklahoma County,OK,NA,48.842592592592595,NA
73129,Oklahoma County,OK,53.72168284789643,NA,NA
73533,Stephens County,OK,NA,6.018518518518518,NA
73701,Garfield County,OK,NA,66.7824074074074,NA
74017,Rogers County,OK,NA,80.67129629629629,NA
74029,Washington County,OK,NA,66.43518518518519,NA
74066,Creek County,OK,NA,54.861111111111114,NA
74107,Tulsa County,OK,NA,78.81944444444444,NA
74129,Tulsa County,OK,NA,47.91666666666667,NA
74135,Tulsa County,OK,NA,21.52777777777778,NA
74403,Muskogee County,OK,NA,NA,69.78609625668449
74804,Pottawatomie County,OK,NA,23.14814814814815,NA
74820,Pontotoc County,OK,NA,NA,11.229946524064172
97055,Clackamas County,OR,NA,27.77777777777778,NA
97206,Multnomah County,OR,NA,32.29166666666667,NA
97219,Multnomah County,OR,NA,50.57870370370371,NA
97223,Washington County,OR,37.2168284789644,13.078703703703704,NA
97233,Multnomah County,OR,28.478964401294498,NA,NA
97301,Marion County,OR,NA,76.38888888888889,NA
97304,Polk County,OR,NA,53.58796296296296,NA
97402,Lane County,OR,NA,15.393518518518517,NA
97701,Deschutes County,OR,NA,48.495370370370374,NA
97703,Deschutes County,OR,NA,82.52314814814815,80.4812834224599
97754,Crook County,OR,64.72491909385113,NA,NA
97913,Malheur County,OR,NA,98.95833333333334,NA
15104,Allegheny County,PA,NA,52.66203703703704,NA
15106,Allegheny County,PA,NA,NA,43.85026737967914
15201,Allegheny County,PA,NA,NA,52.94117647058824
15205,Allegheny County,PA,NA,64.35185185185185,NA
15219,Allegheny County,PA,55.33980582524271,NA,NA
15221,Allegheny County,PA,NA,13.310185185185187,NA
15227,Allegheny County,PA,NA,11.574074074074074,NA
15235,Allegheny County,PA,NA,26.851851851851855,NA
15312,Washington County,PA,NA,96.64351851851852,NA
15461,Fayette County,PA,95.14563106796116,NA,NA
15478,Fayette County,PA,NA,32.754629629629626,NA
15601,Westmoreland County,PA,NA,0.5787037037037037,0
15642,Westmoreland County,PA,15.857605177993527,NA,NA
15902,Cambria County,PA,NA,29.050925925925924,49.73262032085562
15905,Cambria County,PA,NA,67.82407407407408,NA
15906,Cambria County,PA,NA,77.19907407407408,NA
16001,Butler County,PA,NA,NA,10.962566844919785
16061,Butler County,PA,94.8220064724919,NA,NA
16117,Lawrence County,PA,NA,NA,13.368983957219251
16121,Mercer County,PA,NA,75.46296296296296,NA
16127,Mercer County,PA,NA,30.555555555555557,NA
16201,Armstrong County,PA,NA,4.62962962962963,NA
16214,Clarion County,PA,NA,88.77314814814815,NA
16323,Venango County,PA,85.76051779935275,NA,NA
16438,Erie County,PA,NA,40.97222222222222,95.98930481283422
16602,Blair County,PA,NA,23.26388888888889,NA
16701,McKean County,PA,NA,77.77777777777779,NA
17015,Cumberland County,PA,NA,NA,86.63101604278076
17022,Lancaster County,PA,NA,NA,32.887700534759354
17032,Dauphin County,PA,97.0873786407767,NA,NA
17042,Lebanon County,PA,NA,45.023148148148145,NA
17225,Franklin County,PA,NA,28.703703703703702,NA
17236,Franklin County,PA,NA,NA,85.29411764705883
17349,York County,PA,97.41100323624595,NA,NA
17522,Lancaster County,PA,NA,22.22222222222222,NA
17569,Lancaster County,PA,NA,NA,78.87700534759358
17740,Lycoming County,PA,80.2588996763754,NA,NA
17752,Lycoming County,PA,NA,99.88425925925925,NA
17870,Snyder County,PA,52.42718446601942,NA,NA
17901,Schuylkill County,PA,NA,36.11111111111111,NA
18018,Lehigh County,PA,NA,19.212962962962962,NA
18032,Lehigh County,PA,NA,93.28703703703704,NA
18041,Montgomery County,PA,NA,94.44444444444444,NA
18042,Northampton County,PA,NA,1.6203703703703702,NA
18049,Lehigh County,PA,NA,77.66203703703704,NA
18054,Montgomery County,PA,91.2621359223301,NA,NA
18102,Lehigh County,PA,5.501618122977346,NA,NA
18103,Lehigh County,PA,NA,NA,42.513368983957214
18301,Monroe County,PA,NA,65.16203703703704,NA
18452,Lackawanna County,PA,NA,NA,86.36363636363636
18634,Luzerne County,PA,NA,NA,37.4331550802139
18702,Luzerne County,PA,NA,35.18518518518518,NA
18704,Luzerne County,PA,NA,6.597222222222222,NA
18705,Luzerne County,PA,NA,45.254629629629626,NA
18964,Montgomery County,PA,NA,NA,45.45454545454545
19001,Montgomery County,PA,NA,60.30092592592593,NA
19002,Montgomery County,PA,NA,NA,9.62566844919786
19010,Delaware County,PA,NA,NA,59.893048128342244
19013,Delaware County,PA,13.268608414239482,6.712962962962964,NA
19020,Bucks County,PA,NA,4.166666666666666,NA
19021,Bucks County,PA,37.2168284789644,NA,NA
19023,Delaware County,PA,NA,30.90277777777778,NA
19026,Delaware County,PA,NA,39.699074074074076,NA
19036,Delaware County,PA,NA,64.93055555555556,NA
19056,Bucks County,PA,NA,88.54166666666666,NA
19082,Delaware County,PA,NA,NA,47.05882352941176
19107,Philadelphia County,PA,NA,NA,62.834224598930476
19116,Philadelphia County,PA,NA,7.060185185185184,NA
19120,Philadelphia County,PA,NA,NA,59.09090909090909
19129,Philadelphia County,PA,NA,NA,61.229946524064175
19130,Philadelphia County,PA,NA,83.2175925925926,NA
19131,Philadelphia County,PA,44.336569579288025,NA,NA
19136,Philadelphia County,PA,NA,34.60648148148148,NA
19140,Philadelphia County,PA,NA,3.935185185185185,NA
19143,Philadelphia County,PA,NA,31.59722222222222,NA
19145,Philadelphia County,PA,NA,5.324074074074074,NA
19146,Philadelphia County,PA,28.802588996763756,NA,NA
19148,Philadelphia County,PA,40.77669902912621,NA,NA
19428,Montgomery County,PA,90.93851132686083,NA,NA
19464,Montgomery County,PA,NA,46.18055555555556,NA
19465,Chester County,PA,NA,69.79166666666666,NA
19567,Berks County,PA,100,NA,NA
19604,Berks County,PA,24.59546925566343,NA,NA
02860,Providence County,RI,NA,NA,78.07486631016043
02871,Newport County,RI,NA,81.01851851851852,NA
02878,Newport County,RI,NA,75.57870370370371,NA
02905,Providence County,RI,NA,58.333333333333336,NA
29039,Orangeburg County,SC,NA,NA,100
29053,Lexington County,SC,NA,41.550925925925924,NA
29059,Orangeburg County,SC,NA,64.12037037037037,NA
29073,Lexington County,SC,NA,73.8425925925926,NA
29161,Florence County,SC,NA,88.42592592592592,NA
29172,Lexington County,SC,NA,52.893518518518526,NA
29206,Richland County,SC,NA,66.66666666666666,NA
29301,Spartanburg County,SC,NA,NA,66.31016042780749
29334,Spartanburg County,SC,NA,69.56018518518519,NA
29341,Cherokee County,SC,NA,NA,53.7433155080214
29401,Charleston County,SC,NA,NA,52.406417112299465
29440,Georgetown County,SC,NA,NA,15.508021390374333
29451,Charleston County,SC,NA,NA,78.87700534759358
29464,Charleston County,SC,NA,NA,31.818181818181817
29486,Berkeley County,SC,NA,96.875,NA
29563,Dillon County,SC,NA,99.76851851851852,NA
29626,Anderson County,SC,48.86731391585761,NA,NA
29646,Greenwood County,SC,49.83818770226537,NA,NA
29651,Greenville County,SC,NA,24.88425925925926,NA
29666,Greenwood County,SC,NA,88.6574074074074,NA
29673,Greenville County,SC,NA,9.837962962962964,NA
29715,York County,SC,NA,90.16203703703704,44.6524064171123
29745,York County,SC,31.06796116504854,NA,NA
29906,Beaufort County,SC,NA,54.745370370370374,NA
29909,Beaufort County,SC,NA,8.101851851851851,NA
29928,Beaufort County,SC,NA,NA,59.62566844919787
29940,Beaufort County,SC,NA,99.07407407407408,NA
57078,Yankton County,SD,NA,56.018518518518526,NA
57110,Minnehaha County,SD,NA,83.91203703703704,NA
37040,Montgomery County,TN,NA,16.78240740740741,NA
37075,Sumner County,TN,NA,NA,2.13903743315508
37091,Marshall County,TN,69.25566343042071,NA,NA
37122,Wilson County,TN,NA,NA,63.63636363636363
37205,Davidson County,TN,NA,NA,9.358288770053475
37215,Davidson County,TN,NA,NA,55.3475935828877
37228,Davidson County,TN,93.20388349514563,NA,NA
37322,Meigs County,TN,89.32038834951457,NA,NA
37334,Lincoln County,TN,NA,NA,25.40106951871658
37355,Coffee County,TN,NA,NA,87.96791443850267
37411,Hamilton County,TN,22.97734627831715,NA,NA
37604,Washington County,TN,NA,76.85185185185185,NA
37618,Sullivan County,TN,NA,80.78703703703704,NA
37643,Carter County,TN,NA,48.61111111111111,NA
37645,Hawkins County,TN,NA,65.97222222222221,NA
37683,Johnson County,TN,NA,84.83796296296296,NA
37745,Greene County,TN,NA,55.55555555555556,NA
37757,Campbell County,TN,NA,NA,51.06951871657755
37764,Sevier County,TN,NA,NA,83.68983957219251
37766,Campbell County,TN,NA,74.07407407407408,NA
37771,Loudon County,TN,NA,53.356481481481474,NA
37803,Blount County,TN,NA,6.828703703703703,NA
37820,Jefferson County,TN,91.58576051779936,NA,NA
37849,Knox County,TN,83.81877022653723,NA,NA
37865,Sevier County,TN,NA,90.85648148148148,NA
37919,Knox County,TN,NA,NA,22.994652406417114
37920,Knox County,TN,84.78964401294499,NA,NA
37921,Knox County,TN,NA,NA,97.86096256684492
38008,Hardeman County,TN,NA,43.1712962962963,NA
38109,Shelby County,TN,NA,NA,47.32620320855615
38114,Shelby County,TN,NA,NA,64.97326203208557
38127,Shelby County,TN,32.362459546925564,NA,NA
38128,Shelby County,TN,NA,17.939814814814813,NA
38221,Benton County,TN,NA,NA,93.85026737967914
38305,Madison County,TN,21.35922330097087,NA,NA
75006,Dallas County,TX,27.508090614886733,NA,NA
75028,Denton County,TX,NA,18.98148148148148,NA
75060,Dallas County,TX,NA,NA,87.70053475935828
75062,Dallas County,TX,NA,NA,24.598930481283425
75067,Denton County,TX,NA,NA,56.68449197860963
75069,Collin County,TX,NA,79.39814814814815,NA
75075,Collin County,TX,NA,NA,29.144385026737968
75087,Rockwall County,TX,NA,64.00462962962963,NA
75165,Ellis County,TX,NA,NA,12.834224598930483
75180,Dallas County,TX,NA,93.63425925925925,NA
75216,Dallas County,TX,NA,NA,53.20855614973262
75235,Dallas County,TX,NA,NA,81.81818181818183
75407,Collin County,TX,63.43042071197411,NA,NA
75474,Hunt County,TX,NA,55.78703703703704,NA
75482,Hopkins County,TX,60.84142394822006,NA,NA
75495,Grayson County,TX,NA,73.72685185185185,NA
75604,Gregg County,TX,62.7831715210356,NA,NA
75650,Harrison County,TX,75.40453074433657,NA,NA
75751,Henderson County,TX,NA,NA,93.58288770053476
75904,Angelina County,TX,NA,60.879629629629626,NA
75941,Angelina County,TX,NA,94.32870370370371,NA
75964,Nacogdoches County,TX,NA,74.53703703703704,NA
76020,Tarrant County,TX,NA,NA,65.24064171122996
76028,Johnson County,TX,NA,69.09722222222221,NA
76043,Somervell County,TX,NA,71.06481481481481,NA
76051,Tarrant County,TX,77.02265372168284,NA,NA
76065,Ellis County,TX,NA,17.824074074074073,NA
76082,Parker County,TX,NA,24.65277777777778,NA
76105,Tarrant County,TX,NA,86.80555555555556,NA
76118,Tarrant County,TX,NA,NA,63.36898395721925
76133,Tarrant County,TX,NA,31.365740740740737,NA
76207,Denton County,TX,55.663430420711975,NA,NA
76367,Wichita County,TX,NA,71.41203703703704,NA
76426,Wise County,TX,66.66666666666666,NA,NA
76502,Bell County,TX,58.252427184466015,NA,NA
76542,Bell County,TX,NA,NA,77.27272727272727
76643,McLennan County,TX,NA,NA,64.70588235294117
76712,McLennan County,TX,NA,44.21296296296296,NA
77009,Harris County,TX,NA,NA,41.44385026737968
77013,Harris County,TX,NA,81.82870370370371,NA
77014,Harris County,TX,NA,82.06018518518519,NA
77024,Harris County,TX,NA,64.23611111111111,55.080213903743314
77040,Harris County,TX,NA,15.50925925925926,NA
77083,Harris County,TX,NA,NA,87.16577540106952
77084,Harris County,TX,NA,NA,48.39572192513369
77092,Harris County,TX,33.65695792880259,NA,NA
77303,Montgomery County,TX,NA,78.35648148148148,NA
77306,Montgomery County,TX,96.76375404530745,NA,NA
77351,Polk County,TX,NA,31.944444444444443,NA
77354,Montgomery County,TX,86.40776699029125,NA,NA
77355,Montgomery County,TX,60.517799352750814,NA,NA
77389,Harris County,TX,NA,95.60185185185185,NA
77450,Harris County,TX,NA,NA,91.44385026737967
77474,Austin County,TX,NA,NA,65.77540106951871
77478,Fort Bend County,TX,NA,67.93981481481481,NA
77505,Harris County,TX,40.45307443365696,NA,NA
77506,Harris County,TX,NA,72.22222222222221,90.64171122994652
77532,Harris County,TX,NA,35.300925925925924,NA
77536,Harris County,TX,NA,74.30555555555556,NA
77565,Galveston County,TX,NA,40.0462962962963,NA
77568,Galveston County,TX,77.99352750809061,NA,NA
77571,Harris County,TX,NA,24.305555555555554,NA
77578,Brazoria County,TX,97.73462783171522,NA,NA
77584,Brazoria County,TX,NA,30.671296296296298,NA
77590,Galveston County,TX,78.31715210355988,NA,NA
77630,Orange County,TX,47.249190938511326,NA,NA
77642,Jefferson County,TX,NA,17.01388888888889,NA
77707,Jefferson County,TX,NA,76.62037037037037,NA
78028,Kerr County,TX,59.54692556634305,NA,NA
78043,Webb County,TX,NA,50.34722222222222,16.844919786096256
78223,Bexar County,TX,NA,65.04629629629629,NA
78233,Bexar County,TX,25.5663430420712,NA,NA
78240,Bexar County,TX,NA,NA,22.459893048128343
78249,Bexar County,TX,NA,34.375,NA
78373,Nueces County,TX,NA,91.89814814814815,NA
78405,Nueces County,TX,NA,55.43981481481482,NA
78520,Cameron County,TX,NA,NA,39.037433155080215
78521,Cameron County,TX,NA,51.504629629629626,NA
78526,Cameron County,TX,NA,86.68981481481481,NA
78537,Hidalgo County,TX,NA,19.328703703703702,NA
78541,Hidalgo County,TX,NA,NA,81.55080213903744
78542,Hidalgo County,TX,25.24271844660194,NA,NA
78552,Cameron County,TX,44.66019417475729,NA,NA
78584,Starr County,TX,NA,76.50462962962963,NA
78654,Burnet County,TX,NA,NA,5.614973262032086
79549,Scurry County,TX,NA,58.44907407407407,NA
79934,El Paso County,TX,NA,67.24537037037037,NA
84041,Davis County,UT,NA,33.101851851851855,NA
84047,Salt Lake County,UT,67.63754045307444,NA,NA
84081,Salt Lake County,UT,39.80582524271845,65.74074074074075,NA
84098,Summit County,UT,NA,NA,65.24064171122996
84335,Cache County,UT,NA,NA,95.72192513368985
84770,Washington County,UT,NA,NA,20.855614973262032
22151,Fairfax County,VA,NA,NA,72.72727272727273
22193,Prince William County,VA,37.86407766990291,10.648148148148149,NA
22406,Stafford County,VA,59.22330097087378,NA,NA
22546,Caroline County,VA,94.49838187702265,NA,NA
22630,Warren County,VA,NA,17.36111111111111,NA
22701,Culpeper County,VA,79.28802588996764,NA,NA
22849,Page County,VA,NA,62.5,NA
22903,Charlottesville city,VA,NA,NA,20.32085561497326
22939,Augusta County,VA,NA,45.370370370370374,NA
22942,Louisa County,VA,NA,94.67592592592592,NA
22980,Waynesboro city,VA,NA,42.476851851851855,NA
23059,Henrico County,VA,NA,59.49074074074075,NA
23112,Chesterfield County,VA,NA,14.699074074074073,NA
23117,Louisa County,VA,NA,NA,50.80213903743316
23223,Henrico County,VA,NA,5.671296296296297,16.042780748663102
23228,Henrico County,VA,NA,53.125,NA
23350,Northampton County,VA,NA,76.9675925925926,NA
23421,Accomack County,VA,NA,NA,99.19786096256684
23451,Virginia Beach city,VA,NA,40.39351851851852,NA
23454,Virginia Beach city,VA,NA,5.208333333333334,NA
23464,Virginia Beach city,VA,NA,1.1574074074074074,NA
23606,Newport News city,VA,NA,14.467592592592593,NA
23608,Newport News city,VA,NA,NA,72.19251336898395
23803,Petersburg city,VA,NA,61.22685185185185,NA
23901,Prince Edward County,VA,NA,76.27314814814815,NA
23970,Mecklenburg County,VA,41.74757281553398,NA,NA
24012,Roanoke city,VA,NA,NA,71.12299465240642
24073,Montgomery County,VA,NA,51.041666666666664,NA
24330,Grayson County,VA,NA,92.47685185185185,NA
24354,Smyth County,VA,NA,NA,25.935828877005346
24382,Wythe County,VA,NA,26.273148148148145,NA
24541,Danville city,VA,85.11326860841424,NA,NA
98003,King County,WA,NA,NA,43.04812834224599
98012,Snohomish County,WA,NA,NA,7.754010695187167
98026,Snohomish County,WA,42.07119741100323,NA,NA
98036,Snohomish County,WA,NA,NA,78.6096256684492
98059,King County,WA,NA,NA,70.32085561497327
98104,King County,WA,28.155339805825243,NA,NA
98122,King County,WA,73.13915857605178,NA,NA
98168,King County,WA,NA,36.45833333333333,NA
98198,King County,WA,NA,15.162037037037038,11.497326203208557
98248,Whatcom County,WA,NA,34.375,NA
98366,Kitsap County,WA,NA,NA,14.43850267379679
98404,Pierce County,WA,NA,21.064814814814813,NA
98499,Pierce County,WA,NA,28.240740740740737,NA
98524,Mason County,WA,NA,92.82407407407408,NA
98569,Grays Harbor County,WA,NA,67.47685185185185,NA
98577,Pacific County,WA,NA,92.36111111111111,NA
98660,Clark County,WA,64.40129449838187,NA,NA
98682,Clark County,WA,35.92233009708738,NA,NA
98855,Okanogan County,WA,NA,60.416666666666664,NA
98901,Yakima County,WA,NA,24.074074074074073,NA
98926,Kittitas County,WA,NA,NA,10.695187165775401
99163,Whitman County,WA,NA,63.42592592592593,85.02673796791443
99207,Spokane County,WA,NA,56.13425925925925,NA
99212,Spokane County,WA,57.60517799352751,NA,NA
99301,Franklin County,WA,7.443365695792881,NA,NA
99337,Benton County,WA,NA,87.73148148148148,NA
99354,Benton County,WA,71.84466019417476,NA,NA
99362,Walla Walla County,WA,18.12297734627832,NA,NA
20003,District of Columbia,DC,92.88025889967638,NA,NA
20011,District of Columbia,DC,49.19093851132686,NA,NA
20019,District of Columbia,DC,NA,NA,2.406417112299465
20020,District of Columbia,DC,NA,2.5462962962962963,NA
20032,District of Columbia,DC,34.95145631067961,NA,NA
24844,McDowell County,WV,99.67637540453075,NA,NA
25015,Kanawha County,WV,77.66990291262135,NA,NA
25071,Kanawha County,WV,NA,NA,42.513368983957214
25276,Roane County,WV,NA,40.85648148148148,NA
25420,Berkeley County,WV,98.70550161812298,NA,NA
25901,Fayette County,WV,27.831715210355988,NA,NA
26003,Ohio County,WV,2.912621359223301,NA,NA
26041,Marshall County,WV,NA,11.11111111111111,NA
26062,Hancock County,WV,23.300970873786408,NA,NA
26101,Wood County,WV,NA,2.430555555555556,NA
26104,Wood County,WV,22.006472491909385,NA,NA
26164,Jackson County,WV,36.89320388349515,NA,NA
26501,Monongalia County,WV,62.13592233009708,NA,NA
26601,Braxton County,WV,NA,58.68055555555556,NA
53051,Waukesha County,WI,NA,12.847222222222221,NA
53090,Washington County,WI,NA,27.430555555555557,NA
53098,Dodge County,WI,39.482200647249186,NA,NA
53105,Racine County,WI,NA,21.412037037037038,NA
53147,Walworth County,WI,NA,95.94907407407408,32.35294117647059
53209,Milwaukee County,WI,41.10032362459547,NA,NA
53210,Milwaukee County,WI,NA,9.722222222222223,NA
53212,Milwaukee County,WI,9.70873786407767,NA,NA
53213,Milwaukee County,WI,NA,90.625,NA
53216,Milwaukee County,WI,3.559870550161812,NA,NA
53220,Milwaukee County,WI,54.36893203883495,NA,NA
53226,Milwaukee County,WI,NA,NA,98.66310160427807
53548,Rock County,WI,17.475728155339805,NA,NA
53590,Dane County,WI,NA,20.60185185185185,NA
54166,Shawano County,WI,NA,NA,29.411764705882355
54201,Kewaunee County,WI,NA,98.0324074074074,NA
54241,Manitowoc County,WI,NA,17.708333333333336,NA
54451,Taylor County,WI,NA,NA,94.91978609625669
54476,Marathon County,WI,NA,38.657407407407405,NA
54494,Wood County,WI,NA,3.009259259259259,NA
54568,Vilas County,WI,NA,NA,44.11764705882353
54656,Monroe County,WI,NA,NA,8.823529411764707
54703,Eau Claire County,WI,NA,16.435185185185187,NA
54868,Barron County,WI,NA,NA,17.647058823529413
54929,Waupaca County,WI,NA,83.33333333333334,NA
54935,Fond du Lac County,WI,NA,NA,14.973262032085561
