ZipCode,county,state,Adult,Retirement,Geriatric
35031,Blount County,AL,NA,94.37652811735941,NA
35128,St. Clair County,AL,69.46107784431138,NA,NA
35160,Talladega County,AL,15.568862275449103,NA,NA
35209,Jefferson County,AL,NA,NA,60.893854748603346
35215,Jefferson County,AL,NA,31.54034229828851,NA
35221,Jefferson County,AL,NA,96.08801955990221,NA
35226,Jefferson County,AL,NA,17.114914425427873,NA
35601,Morgan County,AL,60.47904191616767,NA,NA
35672,Lawrence County,AL,NA,75.79462102689487,NA
35673,Morgan County,AL,62.874251497005986,NA,NA
35806,Madison County,AL,NA,NA,78.2122905027933
35956,Etowah County,AL,NA,NA,97.20670391061452
36117,Montgomery County,AL,NA,33.251833740831295,NA
36203,Calhoun County,AL,NA,74.81662591687042,NA
36330,Coffee County,AL,NA,NA,45.2513966480447
36420,Covington County,AL,52.09580838323353,NA,NA
36426,Escambia County,AL,NA,81.66259168704157,NA
36532,Baldwin County,AL,NA,55.99022004889975,NA
36544,Mobile County,AL,77.84431137724552,NA,NA
99577,Anchorage Municipality,AK,67.06586826347305,82.3960880195599,NA
99712,Fairbanks North Star Borough,AK,76.64670658682635,NA,NA
85004,Maricopa County,AZ,NA,93.15403422982885,NA
85051,Maricopa County,AZ,11.976047904191617,NA,NA
85139,Pinal County,AZ,NA,NA,85.47486033519553
85143,Pinal County,AZ,33.532934131736525,NA,NA
85204,Maricopa County,AZ,NA,73.83863080684596,NA
85207,Maricopa County,AZ,NA,22.249388753056234,NA
85213,Maricopa County,AZ,NA,95.354523227383865,NA
85281,Maricopa County,AZ,NA,87.53056234718827,NA
85296,Maricopa County,AZ,31.137724550898206,NA,NA
85302,Maricopa County,AZ,67.66467065868264,NA,NA
85308,Maricopa County,AZ,NA,NA,31.843575418994412
85351,Maricopa County,AZ,NA,56.96821515892421,NA
85355,Maricopa County,AZ,NA,90.95354523227384,NA
85392,Maricopa County,AZ,NA,96.57701711491443,NA
85614,Pima County,AZ,NA,NA,3.910614525139665
85650,Cochise County,AZ,NA,55.012224938875306,NA
85712,Pima County,AZ,NA,42.54278728606357,NA
85718,Pima County,AZ,NA,87.04156479217605,NA
85741,Pima County,AZ,NA,41.56479217603912,NA
85750,Pima County,AZ,NA,45.72127139364303,NA
85929,Navajo County,AZ,82.63473053892216,NA,NA
86045,Coconino County,AZ,24.550898203592812,NA,NA
86301,Yavapai County,AZ,NA,NA,48.04469273743017
86409,Mohave County,AZ,NA,22.00488997555012,NA
86442,Mohave County,AZ,NA,35.94132029339853,NA
71730,Union County,AR,NA,59.41320293398533,NA
71832,Sevier County,AR,NA,NA,91.62011173184358
71852,Howard County,AR,NA,77.99511002444987,NA
71854,Miller County,AR,NA,21.515892420537895,NA
71909,Garland County,AR,NA,27.383863080684595,NA
72032,Faulkner County,AR,NA,40.09779951100245,NA
72058,Faulkner County,AR,NA,NA,82.12290502793296
72103,Saline County,AR,NA,NA,84.35754189944134
72120,Pulaski County,AR,NA,11.98044009779951,NA
72210,Pulaski County,AR,NA,NA,82.68156424581005
72370,Mississippi County,AR,NA,90.4645476772616,NA
72401,Craighead County,AR,13.77245508982036,NA,NA
72855,Logan County,AR,NA,85.33007334963325,NA
90035,Los Angeles County,CA,NA,NA,24.581005586592177
90044,Los Angeles County,CA,5.9880239520958085,NA,NA
90266,Los Angeles County,CA,NA,NA,25.69832402234637
90272,Los Angeles County,CA,NA,NA,58.10055865921788
90280,Los Angeles County,CA,NA,31.54034229828851,NA
90301,Los Angeles County,CA,74.8502994011976,NA,NA
90504,Los Angeles County,CA,NA,58.924205378973106,NA
91304,Los Angeles County,CA,NA,86.06356968215158,NA
91506,Los Angeles County,CA,NA,82.64058679706602,NA
91739,San Bernardino County,CA,NA,58.19070904645477,NA
91746,Los Angeles County,CA,NA,NA,69.27374301675978
91762,San Bernardino County,CA,NA,44.49877750611247,NA
92057,San Diego County,CA,NA,54.76772616136919,NA
92201,Riverside County,CA,NA,12.469437652811736,NA
92240,Riverside County,CA,NA,32.51833740831296,NA
92277,San Bernardino County,CA,NA,57.457212713936435,NA
92345,San Bernardino County,CA,NA,45.965770171149146,NA
92376,San Bernardino County,CA,NA,11.7359413202934,NA
92407,San Bernardino County,CA,17.365269461077844,NA,NA
92509,Riverside County,CA,NA,33.007334963325185,NA
92543,Riverside County,CA,NA,48.899755501222494,46.927374301675975
92557,Riverside County,CA,NA,46.21026894865526,NA
92562,Riverside County,CA,NA,28.606356968215156,NA
92563,Riverside County,CA,NA,36.91931540342298,NA
92592,Riverside County,CA,NA,NA,52.513966480446925
92626,Orange County,CA,NA,41.075794621026894,NA
92627,Orange County,CA,NA,24.449877750611247,NA
92648,Orange County,CA,NA,NA,17.318435754189945
92708,Orange County,CA,NA,11.246943765281173,NA
92802,Orange County,CA,NA,70.4156479217604,NA
92860,Riverside County,CA,NA,61.12469437652812,NA
92886,Orange County,CA,NA,NA,21.787709497206702
93036,Ventura County,CA,NA,NA,73.74301675977654
93230,Kings County,CA,NA,46.454767726161364,NA
93306,Kern County,CA,NA,NA,65.36312849162012
93307,Kern County,CA,NA,13.202933985330073,NA
93436,Santa Barbara County,CA,NA,46.9437652811736,NA
93455,Santa Barbara County,CA,NA,23.96088019559902,NA
93458,Santa Barbara County,CA,NA,23.4718826405868,NA
93907,Monterey County,CA,NA,72.37163814180929,NA
93955,Monterey County,CA,NA,NA,29.608938547486037
94102,San Francisco County,CA,NA,5.378973105134474,NA
94103,San Francisco County,CA,NA,12.95843520782396,NA
94546,Alameda County,CA,51.49700598802395,NA,NA
94561,Contra Costa County,CA,37.12574850299401,NA,NA
94587,Alameda County,CA,NA,17.359413202933986,NA
94603,Alameda County,CA,NA,49.877750611246945,NA
94804,Contra Costa County,CA,NA,NA,63.128491620111724
95006,Santa Cruz County,CA,95.80838323353294,NA,NA
95130,Santa Clara County,CA,NA,99.75550122249389,NA
95133,Santa Clara County,CA,NA,65.52567237163814,NA
95252,Calaveras County,CA,93.41317365269461,NA,NA
95338,Mariposa County,CA,NA,64.54767726161369,NA
95357,Stanislaus County,CA,NA,NA,89.3854748603352
95361,Stanislaus County,CA,38.92215568862276,NA,NA
95376,San Joaquin County,CA,NA,29.095354523227385,NA
95380,Stanislaus County,CA,NA,NA,52.513966480446925
95490,Mendocino County,CA,NA,NA,55.3072625698324
95619,El Dorado County,CA,NA,NA,99.4413407821229
96002,Shasta County,CA,NA,NA,38.547486033519554
96093,Trinity County,CA,NA,88.01955990220048,NA
80016,Arapahoe County,CO,NA,67.97066014669927,NA
80026,Boulder County,CO,NA,45.47677261613692,NA
80501,Boulder County,CO,NA,49.877750611246945,NA
80603,Weld County,CO,NA,85.08557457212714,NA
81005,Pueblo County,CO,NA,19.070904645476773,NA
81504,Mesa County,CO,NA,50.36674816625917,NA
06032,Hartford County,CT,NA,NA,72.62569832402235
06051,Hartford County,CT,19.760479041916167,NA,NA
06111,Hartford County,CT,34.73053892215569,NA,NA
06471,New Haven County,CT,NA,NA,59.77653631284916
06480,Middlesex County,CT,NA,86.79706601466992,NA
06776,Litchfield County,CT,NA,27.628361858190708,NA
06790,Litchfield County,CT,3.592814371257485,NA,NA
06811,Fairfield County,CT,NA,NA,12.849162011173185
06903,Fairfield County,CT,NA,55.256723716381416,NA
19702,New Castle County,DE,14.37125748502994,NA,NA
19933,Sussex County,DE,63.47305389221557,NA,NA
32068,Clay County,FL,NA,6.845965770171149,NA
32071,Suwannee County,FL,NA,82.88508557457213,NA
32080,St. Johns County,FL,NA,18.82640586797066,NA
32084,St. Johns County,FL,NA,NA,31.28491620111732
32086,St. Johns County,FL,NA,NA,41.899441340782126
32112,Putnam County,FL,NA,80.440097799511,NA
32162,Sumter County,FL,NA,0.7334963325183375,NA
32208,Duval County,FL,NA,26.65036674816626,NA
32209,Duval County,FL,NA,NA,44.6927374301676
32211,Duval County,FL,21.55688622754491,NA,NA
32244,Duval County,FL,NA,37.89731051344744,NA
32333,Gadsden County,FL,79.64071856287424,NA,NA
32448,Jackson County,FL,NA,75.06112469437653,NA
32533,Escambia County,FL,NA,15.158924205378973,28.49162011173184
32563,Santa Rosa County,FL,NA,NA,24.022346368715084
32726,Lake County,FL,NA,73.59413202933986,NA
32771,Seminole County,FL,NA,97.06601466992664,NA
32808,Orange County,FL,NA,20.048899755501225,NA
32811,Orange County,FL,NA,37.65281173594132,NA
32822,Orange County,FL,96.40718562874252,NA,NA
32825,Orange County,FL,NA,47.43276283618582,NA
32839,Orange County,FL,NA,NA,75.41899441340783
32907,Brevard County,FL,NA,NA,16.75977653631285
32934,Brevard County,FL,NA,52.07823960880196,NA
32937,Brevard County,FL,66.46706586826348,NA,NA
32952,Brevard County,FL,NA,NA,15.083798882681565
33064,Broward County,FL,NA,NA,41.340782122905026
33069,Broward County,FL,NA,58.679706601467,NA
33133,Miami-Dade County,FL,NA,34.474327628361856,NA
33157,Miami-Dade County,FL,NA,16.625916870415647,19.553072625698324
33173,Miami-Dade County,FL,NA,NA,14.52513966480447
33177,Miami-Dade County,FL,NA,NA,20.670391061452513
33321,Broward County,FL,NA,NA,4.4692737430167595
33324,Broward County,FL,NA,43.03178484107579,NA
33432,Palm Beach County,FL,79.04191616766467,NA,NA
33436,Palm Beach County,FL,NA,NA,43.01675977653631
33510,Hillsborough County,FL,55.08982035928144,NA,NA
33544,Pasco County,FL,NA,NA,92.17877094972067
33611,Hillsborough County,FL,NA,NA,50.27932960893855
33618,Hillsborough County,FL,98.20359281437125,NA,NA
33706,Pinellas County,FL,NA,63.81418092909536,NA
33713,Pinellas County,FL,NA,62.34718826405869,NA
33715,Pinellas County,FL,NA,92.66503667481662,NA
33764,Pinellas County,FL,41.31736526946108,NA,NA
33767,Pinellas County,FL,NA,75.30562347188264,NA
33774,Pinellas County,FL,NA,NA,53.63128491620112
33830,Polk County,FL,NA,41.075794621026894,NA
33884,Polk County,FL,NA,40.58679706601467,NA
33908,Lee County,FL,NA,NA,1.1173184357541899
33916,Lee County,FL,35.32934131736527,NA,NA
33919,Lee County,FL,NA,NA,3.35195530726257
33953,Charlotte County,FL,NA,93.39853300733496,NA
34119,Collier County,FL,83.23353293413174,NA,16.201117318435752
34209,Manatee County,FL,NA,17.6039119804401,NA
34231,Sarasota County,FL,NA,12.71393643031785,NA
34292,Sarasota County,FL,NA,NA,10.614525139664805
34446,Citrus County,FL,NA,54.034229828850854,NA
34450,Citrus County,FL,NA,71.14914425427872,NA
34461,Citrus County,FL,NA,81.41809290953546,NA
34472,Marion County,FL,NA,91.93154034229829,NA
34484,Sumter County,FL,NA,NA,88.8268156424581
34606,Hernando County,FL,NA,34.229828850855746,NA
34653,Pasco County,FL,NA,26.405867970660147,NA
34683,Pinellas County,FL,NA,44.25427872860636,NA
34698,Pinellas County,FL,NA,53.0562347188264,NA
34951,St. Lucie County,FL,NA,85.81907090464547,NA
34972,Okeechobee County,FL,81.437125748502993,NA,NA
34982,St. Lucie County,FL,NA,32.27383863080684,NA
34997,Martin County,FL,NA,54.034229828850854,NA
30004,Fulton County,GA,NA,29.3398533007335,NA
30005,Fulton County,GA,NA,69.92665036674816,NA
30024,Gwinnett County,GA,NA,NA,34.07821229050279
30028,Forsyth County,GA,NA,86.55256723716381,NA
30041,Forsyth County,GA,NA,8.557457212713937,NA
30044,Gwinnett County,GA,NA,NA,40.22346368715084
30071,Gwinnett County,GA,NA,84.10757946210269,NA
30084,DeKalb County,GA,84.4311377245509,NA,NA
30094,Rockdale County,GA,NA,25.183374083129586,NA
30127,Cobb County,GA,NA,25.67237163814181,NA
30134,Douglas County,GA,NA,24.938875305623473,NA
30179,Carroll County,GA,56.886227544910184,94.13202933985329,NA
30180,Carroll County,GA,NA,31.05134474327628,NA
30265,Coweta County,GA,NA,35.69682151589242,NA
30273,Clayton County,GA,NA,83.37408312958435,NA
30319,DeKalb County,GA,NA,NA,25.139664804469277
30534,Dawson County,GA,NA,64.30317848410758,NA
30673,Wilkes County,GA,88.62275449101796,NA,NA
30707,Walker County,GA,39.52095808383233,NA,NA
30833,Jefferson County,GA,NA,99.26650366748166,NA
31031,Wilkinson County,GA,87.42514970059881,NA,NA
31064,Jasper County,GA,74.25149700598801,NA,NA
31503,Ware County,GA,50.898203592814376,NA,NA
31516,Pierce County,GA,NA,64.79217603911981,NA
31558,Camden County,GA,NA,61.61369193154034,NA
31601,Lowndes County,GA,NA,32.02933985330073,NA
31792,Thomas County,GA,NA,28.361858190709043,NA
39823,Early County,GA,NA,71.88264058679707,NA
96744,Honolulu County,HI,NA,39.119804400978,NA
96766,Kauai County,HI,NA,68.94865525672371,NA
96813,Honolulu County,HI,NA,77.75061124694376,NA
83440,Madison County,ID,NA,67.23716381418093,NA
83607,Canyon County,ID,NA,NA,39.66480446927375
60047,Lake County,IL,NA,17.84841075794621,NA
60070,Cook County,IL,94.61077844311377,NA,NA
60098,McHenry County,IL,29.34131736526946,NA,NA
60107,Cook County,IL,NA,NA,54.18994413407822
60115,DeKalb County,IL,NA,24.69437652811736,NA
60152,McHenry County,IL,NA,48.655256723716384,NA
60156,McHenry County,IL,32.93413173652694,NA,NA
60459,Cook County,IL,NA,NA,37.988826815642454
60473,Cook County,IL,55.688622754491014,NA,NA
60487,Cook County,IL,NA,34.71882640586797,NA
60527,DuPage County,IL,NA,7.823960880195599,NA
60560,Kendall County,IL,NA,49.1442542787286,NA
60607,Cook County,IL,NA,43.27628361858191,NA
60628,Cook County,IL,NA,2.2004889975550124,NA
60640,Cook County,IL,31.137724550898206,NA,NA
60643,Cook County,IL,NA,1.466992665036675,NA
60644,Cook County,IL,NA,10.024449877750612,NA
60652,Cook County,IL,NA,NA,70.39106145251397
61008,Boone County,IL,32.33532934131736,NA,NA
61102,Winnebago County,IL,NA,NA,94.97206703910615
61201,Rock Island County,IL,NA,NA,81.00558659217877
61364,LaSalle County,IL,54.49101796407185,NA,NA
61554,Tazewell County,IL,NA,8.06845965770171,NA
61614,Peoria County,IL,NA,29.82885085574572,21.22905027932961
61832,Vermilion County,IL,7.18562874251497,NA,NA
61944,Edgar County,IL,NA,NA,68.15642458100558
62204,St. Clair County,IL,NA,93.8875305623472,NA
62626,Macoupin County,IL,NA,NA,40.78212290502793
46013,Madison County,IN,NA,14.66992665036675,NA
46060,Hamilton County,IN,NA,NA,62.56983240223464
46069,Hamilton County,IN,94.01197604790418,NA,NA
46074,Hamilton County,IN,NA,56.723716381418086,NA
46226,Marion County,IN,NA,10.757946210268948,NA
46235,Marion County,IN,50.29940119760479,NA,NA
46350,LaPorte County,IN,NA,5.623471882640587,NA
46375,Lake County,IN,NA,48.16625916870416,NA
46514,Elkhart County,IN,NA,89.48655256723717,NA
46534,Starke County,IN,75.44910179640718,NA,NA
46737,Steuben County,IN,91.01796407185628,NA,NA
46804,Allen County,IN,NA,21.026894865525673,NA
46901,Howard County,IN,NA,1.9559902200488997,NA
46947,Cass County,IN,NA,83.12958435207824,NA
46970,Miami County,IN,NA,NA,60.33519553072626
47601,Warrick County,IN,NA,36.674816625916876,NA
47712,Vanderburgh County,IN,NA,NA,96.64804469273743
47885,Vigo County,IN,NA,68.7041564792176,NA
50501,Webster County,IA,NA,30.80684596577017,NA
50588,Buena Vista County,IA,NA,78.239608801956,NA
50703,Black Hawk County,IA,89.22155688622755,NA,NA
51501,Pottawattamie County,IA,NA,NA,29.05027932960894
67002,Butler County,KS,95.20958083832335,NA,NA
40118,Jefferson County,KY,NA,NA,92.73743016759776
40203,Jefferson County,KY,NA,NA,54.7486033519553
40229,Jefferson County,KY,10.179640718562874,15.892420537897312,NA
40324,Scott County,KY,11.377245508982035,NA,NA
40419,Lincoln County,KY,80.83832335329342,NA,NA
40701,Whitley County,KY,7.784431137724551,42.298288508557455,NA
41001,Campbell County,KY,NA,NA,50.83798882681564
41014,Kenton County,KY,NA,91.44254278728606,NA
41031,Harrison County,KY,53.293413173652695,NA,NA
41164,Carter County,KY,NA,NA,45.81005586592179
41339,Breathitt County,KY,46.10778443113773,NA,NA
42027,Graves County,KY,NA,99.02200488997555,NA
42129,Metcalfe County,KY,NA,58.43520782396088,NA
42141,Barren County,KY,38.32335329341318,NA,NA
42642,Russell County,KY,NA,60.63569682151589,NA
70122,Orleans Parish,LA,2.3952095808383236,NA,NA
70390,Assumption Parish,LA,57.48502994011976,NA,NA
70471,St. Tammany Parish,LA,NA,NA,83.24022346368714
70520,Lafayette Parish,LA,23.353293413173652,NA,NA
70570,St. Landry Parish,LA,NA,39.36430317848411,NA
70816,East Baton Rouge Parish,LA,NA,NA,32.402234636871505
70820,East Baton Rouge Parish,LA,NA,99.51100244498777,NA
71055,Webster Parish,LA,16.16766467065868,NA,NA
71203,Ouachita Parish,LA,NA,NA,30.16759776536313
71220,Morehouse Parish,LA,NA,70.17114914425427,NA
71483,Winn Parish,LA,NA,67.48166259168704,NA
04064,York County,ME,NA,38.141809290953546,NA
04074,Cumberland County,ME,NA,51.58924205378973,NA
04280,Androscoggin County,ME,NA,NA,56.98324022346368
04736,Aroostook County,ME,NA,NA,98.88268156424581
04963,Kennebec County,ME,NA,62.59168704156479,NA
20639,Calvert County,MD,73.65269461077844,NA,NA
20706,Prince George's County,MD,NA,NA,74.30167597765363
20736,Calvert County,MD,NA,89.73105134474328,NA
20774,Prince George's County,MD,NA,36.43031784841076,NA
21122,Anne Arundel County,MD,NA,78.72860635696821,NA
21201,Baltimore city,MD,NA,NA,58.659217877094974
21225,Baltimore city,MD,NA,38.386308068459655,NA
21236,Baltimore County,MD,NA,35.45232273838631,NA
21237,Baltimore County,MD,NA,92.42053789731052,NA
21801,Wicomico County,MD,NA,80.1955990220049,NA
01450,Middlesex County,MA,NA,NA,79.88826815642457
01523,Worcester County,MA,NA,NA,64.80446927374301
01720,Middlesex County,MA,NA,95.59902200488997,NA
01801,Middlesex County,MA,NA,49.38875305623472,NA
01841,Essex County,MA,1.1976047904191618,NA,NA
01843,Essex County,MA,1.7964071856287425,NA,NA
01850,Middlesex County,MA,NA,14.180929095354522,NA
01852,Middlesex County,MA,0,NA,NA
01854,Middlesex County,MA,NA,NA,5.58659217877095
01923,Essex County,MA,NA,26.161369193154034,NA
01960,Essex County,MA,NA,NA,0
02035,Norfolk County,MA,NA,79.70660146699267,NA
02053,Norfolk County,MA,NA,59.65770171149144,NA
02072,Norfolk County,MA,NA,54.52322738386308,NA
02115,Suffolk County,MA,NA,1.7114914425427872,NA
02141,Middlesex County,MA,NA,21.271393643031786,NA
02149,Middlesex County,MA,85.02994011976048,NA,NA
02151,Suffolk County,MA,NA,0.4889975550122249,NA
02180,Middlesex County,MA,NA,NA,10.05586592178771
02368,Norfolk County,MA,NA,3.4229828850855744,NA
02451,Middlesex County,MA,25.149700598802394,NA,NA
02472,Middlesex County,MA,NA,50.61124694376527,NA
02660,Barnstable County,MA,NA,66.99266503667481,NA
02720,Bristol County,MA,35.92814371257485,NA,NA
02724,Bristol County,MA,NA,3.1784841075794623,NA
02760,Bristol County,MA,NA,39.60880195599022,NA
02771,Bristol County,MA,64.67065868263472,NA,NA
48026,Macomb County,MI,NA,36.18581907090464,NA
48033,Oakland County,MI,NA,NA,20.11173184357542
48035,Macomb County,MI,NA,6.356968215158925,NA
48072,Oakland County,MI,NA,NA,75.97765363128491
48125,Wayne County,MI,NA,NA,43.575418994413404
48127,Wayne County,MI,NA,14.91442542787286,30.726256983240223
48141,Wayne County,MI,6.58682634730539,NA,NA
48166,Monroe County,MI,NA,67.72616136919315,NA
48240,Wayne County,MI,NA,50.8557457212714,NA
48335,Oakland County,MI,NA,47.67726161369193,NA
48342,Oakland County,MI,NA,30.56234718826406,NA
48371,Oakland County,MI,34.13173652694611,NA,NA
48383,Oakland County,MI,NA,NA,61.452513966480446
48441,Huron County,MI,NA,NA,59.217877094972074
48455,Lapeer County,MI,NA,68.45965770171149,NA
48473,Genesee County,MI,41.91616766467065,NA,NA
48506,Genesee County,MI,NA,68.21515892420538,NA
48601,Saginaw County,MI,NA,1.2224938875305624,NA
48730,Iosco County,MI,NA,79.21760391198043,NA
48855,Livingston County,MI,NA,NA,86.59217877094973
49028,Branch County,MI,86.82634730538922,NA,NA
49046,Barry County,MI,NA,53.30073349633252,NA
49099,St. Joseph County,MI,NA,NA,70.94972067039106
49120,Berrien County,MI,NA,64.05867970660147,NA
49230,Jackson County,MI,NA,43.76528117359413,NA
49445,Muskegon County,MI,NA,NA,23.463687150837988
49505,Kent County,MI,23.952095808383234,NA,NA
49668,Wexford County,MI,98.80239520958084,NA,NA
49802,Dickinson County,MI,68.26347305389223,NA,NA
49855,Marquette County,MI,12.574850299401197,NA,NA
55063,Pine County,MN,70.05988023952095,NA,NA
55379,Scott County,MN,58.68263473053892,NA,NA
55428,Hennepin County,MN,NA,27.87286063569682,NA
55437,Hennepin County,MN,NA,NA,77.6536312849162
56353,Mille Lacs County,MN,NA,79.46210268948656,NA
38683,Tippah County,MS,NA,NA,96.08938547486034
39204,Hinds County,MS,NA,80.68459657701712,NA
39307,Lauderdale County,MS,NA,NA,87.70949720670392
39367,Wayne County,MS,NA,NA,70.94972067039106
39428,Covington County,MS,NA,84.3520782396088,NA
39439,Jasper County,MS,NA,NA,86.03351955307262
39452,George County,MS,NA,52.81173594132029,NA
39476,Perry County,MS,NA,76.28361858190709,NA
39567,Jackson County,MS,NA,NA,67.0391061452514
63016,Jefferson County,MO,NA,NA,94.41340782122904
63031,St. Louis County,MO,16.766467065868262,NA,NA
63129,St. Louis County,MO,44.91017964071856,NA,NA
63136,St. Louis County,MO,47.90419161676647,7.334963325183375,NA
63303,St. Charles County,MO,22.75449101796407,NA,NA
63348,St. Charles County,MO,NA,72.12713936430319,NA
63353,Pike County,MO,92.21556886227546,NA,NA
63367,St. Charles County,MO,99.40119760479041,NA,NA
63857,Dunklin County,MO,43.11377245508982,NA,NA
64024,Clay County,MO,47.30538922155689,NA,NA
64040,Johnson County,MO,NA,98.53300733496333,NA
64130,Jackson County,MO,5.389221556886228,NA,NA
64152,Platte County,MO,NA,NA,55.3072625698324
64506,Buchanan County,MO,NA,NA,2.2346368715083798
65613,Polk County,MO,NA,29.584352078239608,NA
65706,Webster County,MO,NA,63.56968215158925,NA
65803,Greene County,MO,NA,9.290953545232274,NA
59102,Yellowstone County,MT,NA,22.73838630806846,NA
59425,Pondera County,MT,NA,96.82151589242054,NA
59601,Lewis and Clark County,MT,NA,NA,17.877094972067038
68135,Douglas County,NE,65.26946107784431,NA,NA
68506,Lancaster County,NE,NA,45.2322738386308,NA
89104,Clark County,NV,NA,NA,42.45810055865922
89108,Clark County,NV,22.15568862275449,NA,NA
89147,Clark County,NV,NA,NA,49.162011173184354
89506,Washoe County,NV,82.03592814371258,NA,NA
03060,Hillsborough County,NH,NA,38.87530562347188,NA
03103,Hillsborough County,NH,58.08383233532935,NA,NA
03249,Belknap County,NH,NA,66.25916870415648,NA
03281,Hillsborough County,NH,73.05389221556887,NA,NA
07075,Bergen County,NJ,NA,NA,74.86033519553072
07112,Essex County,NJ,NA,NA,36.87150837988827
07205,Union County,NJ,NA,89.97555012224939,NA
07728,Monmouth County,NJ,13.17365269461078,NA,NA
07734,Monmouth County,NJ,20.958083832335326,NA,NA
07738,Monmouth County,NJ,NA,NA,97.76536312849163
07746,Monmouth County,NJ,72.45508982035929,NA,NA
07753,Monmouth County,NJ,NA,6.112469437652812,NA
08205,Atlantic County,NJ,NA,52.567237163814184,NA
08260,Cape May County,NJ,NA,98.2885085574572,NA
08318,Salem County,NJ,NA,59.168704156479215,NA
08731,Ocean County,NJ,NA,88.99755501222494,NA
08757,Ocean County,NJ,NA,NA,0.5586592178770949
08816,Middlesex County,NJ,NA,20.293398533007334,NA
08840,Middlesex County,NJ,NA,NA,49.72067039106145
87505,Santa Fe County,NM,NA,27.139364303178482,NA
88030,Luna County,NM,88.02395209580838,NA,NA
88210,Eddy County,NM,NA,56.47921760391198,NA
88220,Eddy County,NM,NA,18.337408312958438,NA
88260,Lea County,NM,NA,81.17359413202934,NA
10029,New York County,NY,77.24550898203593,2.93398533007335,NA
10031,New York County,NY,NA,NA,18.994413407821227
10305,Richmond County,NY,18.562874251497004,NA,NA
10314,Richmond County,NY,NA,NA,7.262569832402235
10465,Bronx County,NY,NA,33.98533007334964,NA
10701,Westchester County,NY,NA,NA,87.15083798882681
10710,Westchester County,NY,NA,53.789731051344745,NA
11201,Kings County,NY,NA,NA,22.3463687150838
11207,Kings County,NY,NA,NA,9.497206703910614
11214,Kings County,NY,NA,38.63080684596577,NA
11223,Kings County,NY,NA,9.7799511002445,NA
11377,Queens County,NY,NA,11.491442542787286,NA
11379,Queens County,NY,NA,78.97310513447434,NA
11415,Queens County,NY,NA,65.77017114914425,NA
11730,Suffolk County,NY,NA,97.79951100244499,NA
11740,Suffolk County,NY,NA,87.28606356968214,NA
11741,Suffolk County,NY,NA,60.880195599022,NA
11763,Suffolk County,NY,NA,41.80929095354523,NA
11778,Suffolk County,NY,NA,NA,81.56424581005587
12047,Albany County,NY,NA,51.1002444987775,NA
12144,Rensselaer County,NY,NA,37.40831295843521,NA
12198,Rensselaer County,NY,NA,79.95110024449878,NA
12572,Dutchess County,NY,NA,NA,65.92178770949721
13021,Cayuga County,NY,NA,NA,13.966480446927374
13045,Cortland County,NY,NA,7.090464547677261,NA
13108,Onondaga County,NY,NA,NA,95.53072625698324
13413,Oneida County,NY,NA,23.227383863080682,NA
13491,Herkimer County,NY,NA,98.77750611246944,NA
13662,St. Lawrence County,NY,NA,74.08312958435208,NA
13669,St. Lawrence County,NY,NA,53.54523227383863,NA
14001,Erie County,NY,NA,NA,100
14043,Erie County,NY,29.94011976047904,NA,NA
14086,Erie County,NY,19.16167664670659,NA,NA
14210,Erie County,NY,26.34730538922156,NA,NA
14215,Erie County,NY,NA,4.645476772616137,NA
14217,Erie County,NY,NA,13.93643031784841,NA
14218,Erie County,NY,NA,69.19315403422983,NA
14580,Monroe County,NY,NA,NA,13.40782122905028
14613,Monroe County,NY,8.982035928143713,NA,NA
14701,Chautauqua County,NY,NA,12.224938875305623,NA
27030,Surry County,NC,NA,NA,1.675977653631285
27055,Yadkin County,NC,61.07784431137725,NA,NA
27349,Alamance County,NC,NA,73.10513447432763,NA
27525,Franklin County,NC,NA,80.92909535452323,NA
27577,Johnston County,NC,NA,25.91687041564792,NA
27589,Warren County,NC,NA,62.8361858190709,NA
27614,Wake County,NC,NA,30.317848410757946,NA
27707,Durham County,NC,10.778443113772456,NA,NA
27909,Pasquotank County,NC,NA,NA,15.083798882681565
27983,Bertie County,NC,NA,NA,32.960893854748605
28001,Stanly County,NC,NA,34.96332518337408,NA
28054,Gaston County,NC,NA,72.86063569682152,NA
28086,Cleveland County,NC,NA,28.117359413202937,NA
28117,Iredell County,NC,NA,25.4278728606357,NA
28120,Gaston County,NC,NA,42.78728606356968,NA
28315,Moore County,NC,NA,70.90464547677261,NA
28358,Robeson County,NC,14.97005988023952,NA,NA
28398,Duplin County,NC,NA,85.57457212713936,NA
28546,Onslow County,NC,25.748502994011975,NA,NA
28584,Carteret County,NC,NA,57.94621026894865,NA
28602,Catawba County,NC,NA,35.2078239608802,NA
28638,Caldwell County,NC,NA,59.90220048899756,NA
28681,Alexander County,NC,NA,NA,46.36871508379888
28782,Polk County,NC,NA,78.4841075794621,NA
43054,Franklin County,OH,NA,60.391198044009776,NA
43072,Champaign County,OH,NA,88.26405867970661,NA
43140,Madison County,OH,NA,96.33251833740832,NA
43160,Fayette County,OH,NA,84.84107579462102,NA
43228,Franklin County,OH,NA,NA,51.39664804469274
43235,Franklin County,OH,NA,28.850855745721272,NA
43326,Hardin County,OH,NA,91.68704156479217,NA
43334,Morrow County,OH,NA,55.501222493887525,NA
43420,Sandusky County,OH,NA,46.69926650366748,NA
43517,Williams County,OH,NA,97.31051344743277,NA
43701,Muskingum County,OH,0.5988023952095809,NA,NA
43812,Coshocton County,OH,2.9940119760479043,NA,NA
43938,Jefferson County,OH,49.101796407185624,NA,88.26815642458101
43950,Belmont County,OH,NA,NA,26.81564245810056
44109,Cuyahoga County,OH,NA,NA,5.027932960893855
44120,Cuyahoga County,OH,NA,NA,8.938547486033519
44144,Cuyahoga County,OH,9.580838323353294,NA,NA
44146,Cuyahoga County,OH,NA,NA,7.82122905027933
44333,Summit County,OH,NA,92.1760391198044,NA
44641,Stark County,OH,NA,42.053789731051346,NA
44680,Tuscarawas County,OH,97.0059880239521,NA,NA
44805,Ashland County,OH,NA,2.444987775061125,NA
44811,Sandusky County,OH,NA,NA,89.94413407821229
44889,Huron County,OH,NA,55.74572127139364,NA
45005,Warren County,OH,NA,66.50366748166259,NA
45169,Clinton County,OH,71.8562874251497,NA,NA
45449,Montgomery County,OH,NA,NA,67.59776536312849
45680,Lawrence County,OH,NA,22.982885085574573,NA
45701,Athens County,OH,NA,NA,78.77094972067039
45732,Athens County,OH,NA,98.0440097799511,NA
45750,Washington County,OH,NA,0.24449877750611246,NA
45769,Meigs County,OH,83.8323353293413,NA,NA
45891,Van Wert County,OH,NA,NA,26.256983240223462
73013,Oklahoma County,OK,28.74251497005988,NA,NA
73034,Oklahoma County,OK,NA,NA,98.32402234636871
73098,Garvin County,OK,NA,93.64303178484109,NA
73120,Oklahoma County,OK,NA,22.493887530562347,NA
73129,Oklahoma County,OK,NA,69.19315403422983,NA
73701,Garfield County,OK,NA,76.5281173594132,NA
74011,Tulsa County,OK,NA,40.831295843520785,NA
74012,Tulsa County,OK,NA,9.5354523227383865,NA
74020,Pawnee County,OK,NA,NA,83.79888268156425
74036,Rogers County,OK,NA,72.6161369193154,NA
74432,McIntosh County,OK,NA,44.987775061124694,NA
74467,Wagoner County,OK,NA,51.34474327628362,NA
74601,Kay County,OK,92.81437125748504,NA,NA
74804,Pottawatomie County,OK,NA,40.34229828850856,NA
74857,Cleveland County,OK,89.82035928143712,NA,NA
97230,Multnomah County,OR,NA,10.268948655256724,NA
97394,Lincoln County,OR,NA,71.63814180929096,NA
97411,Coos County,OR,76.04790419161677,NA,NA
97415,Curry County,OR,85.62874251497006,20.78239608801956,NA
97477,Lane County,OR,56.287425149700596,23.71638141809291,NA
97523,Josephine County,OR,NA,88.50855745721272,NA
97527,Josephine County,OR,NA,13.691931540342297,NA
97702,Deschutes County,OR,NA,33.74083129584352,NA
97756,Deschutes County,OR,NA,15.403422982885084,NA
97862,Umatilla County,OR,59.281437125748504,NA,NA
97914,Malheur County,OR,NA,52.32273838630807,NA
15001,Beaver County,PA,NA,47.92176039119804,NA
15042,Beaver County,PA,80.23952095808383,NA,NA
15204,Allegheny County,PA,NA,NA,73.18435754189943
15219,Allegheny County,PA,NA,NA,93.29608938547486
15241,Allegheny County,PA,NA,88.75305623471883,NA
15642,Westmoreland County,PA,NA,NA,6.145251396648044
15857,Elk County,PA,NA,6.601466992665037,NA
15905,Cambria County,PA,NA,65.28117359413203,NA
16323,Venango County,PA,49.700598802395206,NA,NA
16602,Blair County,PA,NA,NA,17.877094972067038
16801,Centre County,PA,NA,NA,11.1731843575419
17022,Lancaster County,PA,NA,11.00244498777506,NA
17036,Dauphin County,PA,NA,8.80195599022005,NA
17078,Lebanon County,PA,NA,NA,6.70391061452514
17257,Cumberland County,PA,NA,20.537897310513447,NA
17368,York County,PA,71.25748502994011,NA,NA
18014,Northampton County,PA,NA,NA,39.10614525139665
18037,Lehigh County,PA,NA,81.90709046454768,NA
18102,Lehigh County,PA,NA,4.400977995110025,NA
18103,Lehigh County,PA,NA,NA,36.312849162011176
18201,Luzerne County,PA,NA,NA,27.932960893854748
18504,Lackawanna County,PA,28.143712574850298,NA,NA
18901,Bucks County,PA,NA,19.80440097799511,NA
18938,Bucks County,PA,NA,NA,51.955307262569825
19002,Montgomery County,PA,NA,16.87041564792176,NA
19023,Delaware County,PA,NA,77.26161369193154,NA
19063,Delaware County,PA,NA,39.85330073349633,NA
19122,Philadelphia County,PA,NA,NA,72.06703910614524
19124,Philadelphia County,PA,NA,75.55012224938875,NA
19147,Philadelphia County,PA,NA,NA,48.60335195530726
19403,Montgomery County,PA,NA,3.6674816625916873,NA
19428,Montgomery County,PA,70.65868263473054,NA,63.687150837988824
19464,Montgomery County,PA,NA,4.156479217603912,NA
19530,Berks County,PA,NA,60.14669926650367,NA
02860,Providence County,RI,NA,9.04645476772616,NA
29063,Richland County,SC,NA,44.49877750611247,NA
29301,Spartanburg County,SC,NA,32.76283618581907,NA
29464,Charleston County,SC,NA,NA,11.731843575418994
29486,Berkeley County,SC,NA,44.00977995110024,NA
29492,Berkeley County,SC,NA,75.79462102689487,NA
29527,Horry County,SC,NA,43.52078239608802,NA
29651,Greenville County,SC,NA,10.513447432762836,NA
29673,Greenville County,SC,NA,13.447432762836186,NA
29708,York County,SC,NA,NA,64.24581005586593
29801,Aiken County,SC,37.72455089820359,NA,NA
29909,Beaufort County,SC,NA,65.03667481662592,NA
57110,Minnehaha County,SD,NA,94.86552567237165,NA
37027,Williamson County,TN,NA,18.09290953545232,NA
37040,Montgomery County,TN,NA,26.894865525672373,NA
37091,Marshall County,TN,36.52694610778443,NA,NA
37303,McMinn County,TN,NA,NA,35.754189944134076
37322,Meigs County,TN,59.88023952095808,NA,NA
37743,Greene County,TN,NA,57.21271393643031,NA
37745,Greene County,TN,NA,18.581907090464547,NA
37757,Campbell County,TN,NA,NA,62.01117318435754
37760,Jefferson County,TN,NA,70.6601466992665,NA
37771,Loudon County,TN,NA,77.26161369193154,NA
37803,Blount County,TN,NA,NA,47.486033519553075
37807,Union County,TN,64.07185628742515,NA,NA
37919,Knox County,TN,NA,NA,34.63687150837989
37920,Knox County,TN,8.383233532934131,NA,NA
37921,Knox County,TN,NA,NA,66.4804469273743
38058,Tipton County,TN,NA,83.61858190709046,NA
38127,Shelby County,TN,NA,31.295843520782395,NA
38221,Benton County,TN,NA,95.84352078239608,80.44692737430168
38242,Henry County,TN,NA,33.496332518337404,NA
38305,Madison County,TN,NA,92.90953545232273,NA
38343,Gibson County,TN,45.50898203592814,NA,NA
38351,Henderson County,TN,NA,NA,35.19553072625698
38401,Maury County,TN,NA,5.134474327628362,NA
38464,Lawrence County,TN,NA,24.205378973105134,NA
75025,Collin County,TX,NA,49.63325183374083,NA
75050,Dallas County,TX,40.119760479041915,NA,NA
75062,Dallas County,TX,NA,NA,37.43016759776536
75070,Collin County,TX,NA,7.579462102689487,NA
75165,Ellis County,TX,NA,NA,22.905027932960895
75181,Dallas County,TX,NA,NA,79.3296089385475
75206,Dallas County,TX,48.50299401197605,NA,NA
75214,Dallas County,TX,43.11377245508982,NA,NA
75228,Dallas County,TX,NA,15.647921760391197,NA
75693,Gregg County,TX,97.60479041916167,87.77506112469437,NA
75751,Henderson County,TX,NA,NA,33.5195530726257
75961,Nacogdoches County,TX,NA,69.68215158924205,NA
76092,Tarrant County,TX,NA,56.234718826405874,NA
76105,Tarrant County,TX,NA,19.559902200489,NA
76133,Tarrant County,TX,17.964071856287426,NA,NA
76140,Tarrant County,TX,NA,NA,93.85474860335195
76401,Erath County,TX,NA,NA,43.575418994413404
76458,Jack County,TX,NA,94.62102689486552,NA
76643,McLennan County,TX,NA,NA,77.09497206703911
76645,Hill County,TX,NA,84.59657701711491,NA
77048,Harris County,TX,NA,71.39364303178483,NA
77058,Harris County,TX,NA,74.57212713936431,NA
77070,Harris County,TX,NA,19.315403422982886,NA
77373,Harris County,TX,NA,57.701711491442545,NA
77506,Harris County,TX,NA,NA,68.71508379888269
77520,Harris County,TX,42.51497005988024,NA,NA
77531,Brazoria County,TX,NA,NA,69.83240223463687
77707,Jefferson County,TX,NA,95.11002444987776,NA
77833,Washington County,TX,NA,21.76039119804401,NA
77868,Grimes County,TX,NA,36.91931540342298,NA
78006,Kendall County,TX,NA,51.83374083129584,NA
78043,Webb County,TX,NA,74.32762836185819,NA
78130,Comal County,TX,NA,16.13691931540342,NA
78252,Bexar County,TX,NA,100,NA
78550,Cameron County,TX,NA,NA,27.37430167597765
78574,Hidalgo County,TX,NA,29.82885085574572,NA
78934,Colorado County,TX,NA,61.36919315403423,NA
78945,Fayette County,TX,NA,NA,90.5027932960894
79927,El Paso County,TX,53.89221556886228,NA,NA
84047,Salt Lake County,UT,26.94610778443114,NA,NA
84070,Salt Lake County,UT,86.22754491017965,NA,NA
84341,Cache County,UT,NA,89.24205378973105,NA
84404,Weber County,UT,20.359281437125748,NA,NA
84601,Utah County,UT,65.86826347305389,NA,NA
84770,Washington County,UT,NA,NA,8.379888268156424
84790,Washington County,UT,44.31137724550898,NA,NA
20180,Loudoun County,VA,100,NA,NA
20186,Fauquier County,VA,NA,NA,84.91620111731844
22026,Prince William County,VA,NA,91.19804400977995,NA
22193,Prince William County,VA,40.718562874251496,14.425427872860636,NA
22205,Arlington County,VA,NA,NA,76.53631284916202
22406,Stafford County,VA,78.44311377245509,NA,NA
22701,Culpeper County,VA,68.8622754491018,NA,NA
22942,Louisa County,VA,NA,66.74816625916871,NA
23141,New Kent County,VA,NA,76.77261613691931,NA
23228,Henrico County,VA,NA,77.01711491442543,NA
23454,Virginia Beach city,VA,NA,8.312958435207824,NA
23455,Virginia Beach city,VA,NA,5.8679706601467,NA
24333,Galax city,VA,NA,48.41075794621027,NA
24348,Grayson County,VA,90.41916167664671,NA,NA
24641,Tazewell County,VA,NA,66.01466992665037,NA
98003,King County,WA,27.54491017964072,NA,NA
98026,Snohomish County,WA,62.27544910179641,NA,NA
98052,King County,WA,NA,NA,12.290502793296088
98166,King County,WA,NA,47.18826405867971,NA
98226,Whatcom County,WA,NA,97.55501222493888,NA
98248,Whatcom County,WA,NA,82.15158924205379,NA
98577,Pacific County,WA,NA,73.34963325183375,NA
98632,Cowlitz County,WA,NA,2.689486552567237,2.793296089385475
98661,Clark County,WA,46.706586826347305,NA,NA
99338,Benton County,WA,NA,62.10268948655256,NA
20020,District of Columbia,DC,NA,3.9119804400977993,NA
20032,District of Columbia,DC,NA,16.381418092909534,NA
25015,Kanawha County,WV,91.61676646706587,NA,NA
25071,Kanawha County,WV,52.69461077844312,NA,NA
25504,Cabell County,WV,NA,63.08068459657702,NA
26505,Monongalia County,WV,NA,4.88997555012225,NA
53126,Racine County,WI,NA,63.325183374083124,NA
53149,Waukesha County,WI,NA,86.3080684596577,NA
53179,Kenosha County,WI,61.67664670658682,NA,NA
53204,Milwaukee County,WI,4.790419161676647,NA,NA
53226,Milwaukee County,WI,NA,NA,91.06145251396647
53402,Racine County,WI,NA,0.9779951100244498,NA
53405,Racine County,WI,4.191616766467066,NA,NA
53511,Rock County,WI,NA,0,NA
53534,Rock County,WI,NA,NA,56.424581005586596
53934,Adams County,WI,NA,90.70904645476773,NA
54001,Polk County,WI,NA,90.2200488997555,NA
54476,Marathon County,WI,NA,61.858190709046454,NA
54568,Vilas County,WI,NA,NA,57.54189944134078
54729,Chippewa County,WI,30.538922155688624,NA,NA
82901,Sweetwater County,WY,NA,83.86308068459658,NA
