ZipCode,county,state,Adult,Retirement,Geriatric
35007,Shelby County,AL,NA,26.263952724885097,NA
35010,Tallapoosa County,AL,NA,87.19632304661852,NA
35022,Jefferson County,AL,NA,NA,43.93574297188755
35044,Talladega County,AL,NA,62.44254760341431,NA
35058,Cullman County,AL,NA,NA,84.97991967871485
35064,Jefferson County,AL,83.51063829787235,NA,NA
35080,Shelby County,AL,NA,57.518056467498354,NA
35114,Shelby County,AL,NA,NA,74.05622489959839
35213,Jefferson County,AL,NA,48.65397242284964,NA
35504,Walker County,AL,NA,75.44320420223244,42.65060240963855
35570,Marion County,AL,51.95035460992907,NA,NA
35601,Morgan County,AL,NA,10.04596191726855,NA
35611,Limestone County,AL,NA,16.677609980302037,NA
35622,Morgan County,AL,NA,98.81812212738016,NA
35630,Lauderdale County,AL,NA,NA,34.77911646586345
35633,Lauderdale County,AL,NA,NA,66.02409638554217
35650,Lawrence County,AL,69.50354609929079,NA,NA
35654,Franklin County,AL,NA,75.90282337491793,NA
35672,Lawrence County,AL,NA,NA,80.40160642570281
35674,Colbert County,AL,NA,34.34011818778726,NA
35802,Madison County,AL,NA,NA,83.855421686747
35806,Madison County,AL,NA,NA,43.373493975903614
35905,Etowah County,AL,NA,NA,83.53413654618474
35959,Cherokee County,AL,NA,NA,91.4859437751004
35960,Cherokee County,AL,NA,NA,75.82329317269077
36081,Pike County,AL,NA,76.69074195666448,NA
36109,Montgomery County,AL,NA,46.35587655942219,NA
36265,Calhoun County,AL,NA,43.00722258699935,NA
36301,Houston County,AL,NA,10.636900853578464,NA
36421,Covington County,AL,NA,60.078791858174654,NA
36526,Baldwin County,AL,NA,NA,20.401606425702813
36530,Baldwin County,AL,NA,78.3322390019698,NA
36535,Baldwin County,AL,NA,14.248194353250165,NA
36545,Clarke County,AL,NA,75.04924491135915,NA
36571,Mobile County,AL,NA,55.48260013131976,77.429718875502
36607,Mobile County,AL,NA,93.63099146421536,NA
36613,Mobile County,AL,NA,59.35653315824031,NA
36744,Hale County,AL,NA,73.27642810242942,NA
36867,Russell County,AL,NA,29.678266579120155,NA
99507,Anchorage Municipality,AK,NA,65.65988181221275,NA
99517,Anchorage Municipality,AK,NA,60.93237032173342,NA
99567,Anchorage Municipality,AK,NA,86.40840446487196,NA
99615,Kodiak Island Borough,AK,NA,89.29743926460932,NA
99645,Matanuska-Susitna Borough,AK,NA,50.29546946815495,NA
99654,Matanuska-Susitna Borough,AK,NA,NA,61.84738955823293
99712,Fairbanks North Star Borough,AK,69.8581560283688,NA,NA
85007,Maricopa County,AZ,NA,23.440577806959947,NA
85015,Maricopa County,AZ,NA,36.50689428759028,NA
85022,Maricopa County,AZ,NA,19.566644780039397,NA
85028,Maricopa County,AZ,NA,45.63361785948785,NA
85040,Maricopa County,AZ,NA,40.7091267235719,NA
85043,Maricopa County,AZ,NA,47.80039395929087,NA
85083,Maricopa County,AZ,NA,80.03939592908733,NA
85122,Pinal County,AZ,NA,31.64806303348654,NA
85128,Pinal County,AZ,NA,42.41628365068943,NA
85142,Maricopa County,AZ,NA,79.97373604727511,NA
85143,Pinal County,AZ,NA,53.1188443860801,NA
85202,Maricopa County,AZ,37.765957446808514,NA,NA
85206,Maricopa County,AZ,NA,NA,31.72690763052209
85207,Maricopa County,AZ,NA,19.17268548916612,NA
85209,Maricopa County,AZ,NA,16.940249507550888,12.931726907630523
85212,Maricopa County,AZ,NA,47.143795141168745,NA
85226,Maricopa County,AZ,NA,50.558108995403806,NA
85248,Maricopa County,AZ,NA,NA,3.614457831325301
85249,Maricopa County,AZ,NA,53.84110308601444,72.04819277108435
85257,Maricopa County,AZ,NA,49.31057124097177,NA
85258,Maricopa County,AZ,NA,68.54891661195009,54.53815261044177
85259,Maricopa County,AZ,NA,90.28233749179252,41.365461847389554
85260,Maricopa County,AZ,NA,NA,45.38152610441767
85282,Maricopa County,AZ,NA,31.84504267892318,NA
85301,Maricopa County,AZ,NA,NA,50.84337349397591
85302,Maricopa County,AZ,42.198581560283685,73.47340774786605,NA
85306,Maricopa County,AZ,39.53900709219858,83.19107025607354,NA
85308,Maricopa County,AZ,26.595744680851062,11.490479317137229,NA
85335,Maricopa County,AZ,NA,68.28627708470125,NA
85338,Maricopa County,AZ,76.77304964539007,59.750492449113594,NA
85344,La Paz County,AZ,NA,25.344714379514116,NA
85345,Maricopa County,AZ,8.51063829787234,NA,NA
85349,Yuma County,AZ,NA,46.94681549573211,NA
85351,Maricopa County,AZ,NA,NA,6.506024096385541
85353,Maricopa County,AZ,NA,84.17596848325674,NA
85361,Maricopa County,AZ,NA,91.66119500984898,NA
85364,Yuma County,AZ,NA,NA,64.41767068273091
85373,Maricopa County,AZ,85.28368794326241,85.29218647406435,NA
85374,Maricopa County,AZ,NA,NA,3.5341365461847385
85375,Maricopa County,AZ,NA,14.970453053184505,NA
85390,Maricopa County,AZ,NA,76.09980302035456,NA
85396,Maricopa County,AZ,88.29787234042553,41.694024950755086,NA
85622,Pima County,AZ,NA,47.34077478660538,NA
85648,Santa Cruz County,AZ,NA,NA,93.17269076305222
85705,Pima County,AZ,13.297872340425531,5.121470781352593,25.783132530120483
85710,Pima County,AZ,NA,11.096520026263953,NA
85711,Pima County,AZ,NA,9.914642153644124,NA
85713,Pima County,AZ,NA,43.992120814182535,NA
85714,Pima County,AZ,NA,91.2672357189757,NA
85737,Pima County,AZ,NA,NA,31.00401606425703
85739,Pinal County,AZ,NA,74.7209455022981,NA
85741,Pima County,AZ,NA,31.779382797110966,NA
85742,Pima County,AZ,NA,NA,88.83534136546186
85745,Pima County,AZ,NA,12.081418253447143,NA
85746,Pima County,AZ,NA,54.30072225869993,NA
85750,Pima County,AZ,NA,NA,28.032128514056225
85901,Navajo County,AZ,NA,19.43532501641497,NA
86001,Coconino County,AZ,38.12056737588653,NA,NA
86047,Navajo County,AZ,NA,23.834537097833223,NA
86314,Yavapai County,AZ,11.347517730496454,NA,7.309236947791165
86322,Yavapai County,AZ,NA,74.26132632961261,NA
86326,Yavapai County,AZ,NA,15.167432698621141,NA
86401,Mohave County,AZ,NA,5.384110308601445,NA
86406,Mohave County,AZ,NA,NA,21.44578313253012
86409,Mohave County,AZ,NA,NA,14.859437751004014
86413,Mohave County,AZ,43.262411347517734,87.65594221930401,NA
86426,Mohave County,AZ,NA,80.3676953381484,NA
86429,Mohave County,AZ,NA,NA,80.24096385542168
86440,Mohave County,AZ,NA,84.30728824688116,NA
86442,Mohave County,AZ,NA,NA,60.88353413654618
86505,Apache County,AZ,NA,NA,44.57831325301205
71653,Chicot County,AR,NA,NA,83.53413654618474
71665,Cleveland County,AR,NA,NA,82.40963855421687
71667,Lincoln County,AR,NA,76.09980302035456,NA
71671,Bradley County,AR,NA,89.82271831910703,NA
71701,Ouachita County,AR,NA,NA,47.46987951807229
71909,Garland County,AR,NA,NA,8.674698795180722
71923,Clark County,AR,NA,48.39133289560078,NA
71953,Polk County,AR,NA,38.21405121470781,NA
72032,Faulkner County,AR,NA,NA,51.64658634538153
72104,Hot Spring County,AR,NA,43.92646093237032,NA
72116,Pulaski County,AR,NA,NA,71.64658634538152
72143,White County,AR,28.54609929078014,NA,3.775100401606426
72315,Mississippi County,AR,NA,NA,70.4417670682731
72422,Clay County,AR,NA,95.66644780039397,NA
72529,Sharp County,AR,NA,NA,65.14056224899598
72650,Searcy County,AR,NA,89.75705843729482,NA
72903,Sebastian County,AR,NA,46.22455679579777,NA
90003,Los Angeles County,CA,NA,27.051871306631647,NA
90004,Los Angeles County,CA,33.51063829787234,NA,NA
90007,Los Angeles County,CA,NA,NA,37.510040160642575
90013,Los Angeles County,CA,NA,47.997373604727514,NA
90020,Los Angeles County,CA,NA,80.56467498358502,NA
90024,Los Angeles County,CA,NA,NA,81.36546184738955
90032,Los Angeles County,CA,63.652482269503544,NA,NA
90041,Los Angeles County,CA,NA,NA,75.98393574297188
90042,Los Angeles County,CA,NA,35.78463558765594,NA
90047,Los Angeles County,CA,NA,9.12672357189757,NA
90061,Los Angeles County,CA,NA,NA,66.98795180722892
90063,Los Angeles County,CA,NA,31.4510833880499,NA
90066,Los Angeles County,CA,NA,67.95797767564018,NA
90077,Los Angeles County,CA,NA,NA,83.45381526104417
90212,Los Angeles County,CA,NA,NA,50.52208835341365
90221,Los Angeles County,CA,NA,NA,37.99196787148594
90230,Los Angeles County,CA,NA,85.35784635587656,NA
90241,Los Angeles County,CA,NA,NA,46.34538152610442
90250,Los Angeles County,CA,NA,16.80892974392646,NA
90262,Los Angeles County,CA,26.773049645390074,NA,NA
90266,Los Angeles County,CA,NA,NA,18.955823293172692
90280,Los Angeles County,CA,NA,53.84110308601444,NA
90404,Los Angeles County,CA,NA,70.45305318450427,NA
90405,Los Angeles County,CA,NA,39.658568614576495,NA
90501,Los Angeles County,CA,NA,70.78135259356533,86.34538152610442
90503,Los Angeles County,CA,NA,30.925804333552197,NA
90504,Los Angeles County,CA,NA,46.552856204858834,NA
90603,Los Angeles County,CA,NA,NA,33.17269076305221
90606,Los Angeles County,CA,NA,43.79514116874589,NA
90620,Orange County,CA,NA,53.64412344057781,NA
90630,Orange County,CA,NA,NA,26.746987951807228
90638,Los Angeles County,CA,NA,79.64543663821405,NA
90701,Los Angeles County,CA,81.20567375886525,NA,NA
90706,Los Angeles County,CA,17.907801418439718,NA,NA
90713,Los Angeles County,CA,NA,95.46946815495733,59.27710843373494
90746,Los Angeles County,CA,NA,NA,56.06425702811245
90805,Los Angeles County,CA,NA,15.758371634931056,NA
90807,Los Angeles County,CA,91.84397163120568,NA,NA
91203,Los Angeles County,CA,NA,NA,66.34538152610442
91205,Los Angeles County,CA,NA,35.981615233092576,NA
91208,Los Angeles County,CA,NA,79.3827971109652,58.63453815261044
91304,Los Angeles County,CA,NA,NA,11.004016064257028
91306,Los Angeles County,CA,58.333333333333336,NA,NA
91316,Los Angeles County,CA,NA,67.56401838476691,16.78714859437751
91324,Los Angeles County,CA,NA,NA,66.98795180722892
91331,Los Angeles County,CA,NA,86.99934340118189,22.570281124497992
91335,Los Angeles County,CA,NA,24.2284963887065,NA
91342,Los Angeles County,CA,NA,50.62376887721602,NA
91356,Los Angeles County,CA,NA,34.47143795141169,NA
91401,Los Angeles County,CA,NA,NA,46.666666666666664
91402,Los Angeles County,CA,NA,52.39658568614577,20.883534136546185
91405,Los Angeles County,CA,NA,NA,35.903614457831324
91406,Los Angeles County,CA,NA,27.3145108338805,NA
91423,Los Angeles County,CA,57.26950354609929,NA,NA
91504,Los Angeles County,CA,NA,78.72619829284308,NA
91505,Los Angeles County,CA,NA,62.9021667760998,NA
91601,Los Angeles County,CA,NA,49.24491135915955,NA
91605,Los Angeles County,CA,NA,33.946158896913985,NA
91606,Los Angeles County,CA,NA,NA,77.18875502008032
91702,Los Angeles County,CA,NA,59.02823374917925,NA
91733,Los Angeles County,CA,NA,78.52921864740644,NA
91748,Los Angeles County,CA,NA,44.189100459619176,NA
91754,Los Angeles County,CA,NA,NA,45.78313253012048
91762,San Bernardino County,CA,NA,33.946158896913985,NA
91763,San Bernardino County,CA,NA,92.05515430072226,NA
91765,Los Angeles County,CA,NA,68.54891661195009,NA
91766,Los Angeles County,CA,NA,32.17334208798424,NA
91770,Los Angeles County,CA,NA,NA,9.63855421686747
91773,Los Angeles County,CA,NA,65.26592252133946,95.18072289156626
91775,Los Angeles County,CA,NA,61.78594878529219,NA
91776,Los Angeles County,CA,NA,45.502298095863424,NA
91780,Los Angeles County,CA,NA,NA,35.1004016064257
91901,San Diego County,CA,NA,60.47275114904793,NA
91913,San Diego County,CA,NA,NA,51.48594377510041
91915,San Diego County,CA,89.71631205673759,NA,NA
91945,San Diego County,CA,44.50354609929078,NA,NA
91977,San Diego County,CA,NA,NA,23.453815261044177
92007,San Diego County,CA,NA,NA,98.63453815261045
92009,San Diego County,CA,NA,30.400525279054495,NA
92019,San Diego County,CA,34.751773049645394,NA,NA
92029,San Diego County,CA,87.94326241134752,NA,NA
92056,San Diego County,CA,NA,23.374917925147734,NA
92071,San Diego County,CA,NA,NA,17.028112449799195
92082,San Diego County,CA,NA,60.275771503611296,NA
92101,San Diego County,CA,NA,6.828627708470125,58.554216867469876
92104,San Diego County,CA,NA,84.63558765594222,NA
92105,San Diego County,CA,NA,NA,41.204819277108435
92107,San Diego County,CA,NA,87.78726198292843,NA
92115,San Diego County,CA,NA,82.33749179251477,NA
92117,San Diego County,CA,NA,NA,42.088353413654616
92126,San Diego County,CA,33.86524822695036,NA,NA
92128,San Diego County,CA,NA,NA,7.068273092369477
92129,San Diego County,CA,NA,88.77216021011162,NA
92131,San Diego County,CA,57.446808510638306,NA,74.77911646586345
92154,San Diego County,CA,NA,41.7596848325673,NA
92211,Riverside County,CA,NA,6.23768877216021,NA
92225,Riverside County,CA,NA,66.64478003939594,NA
92243,Imperial County,CA,NA,22.127380170715693,NA
92260,Riverside County,CA,NA,NA,44.096385542168676
92270,Riverside County,CA,NA,5.843729481286934,NA
92307,San Bernardino County,CA,21.27659574468085,NA,NA
92308,San Bernardino County,CA,NA,NA,29.71887550200803
92316,San Bernardino County,CA,NA,63.36178594878529,NA
92335,San Bernardino County,CA,NA,NA,32.36947791164659
92336,San Bernardino County,CA,40.60283687943262,11.556139198949442,NA
92342,San Bernardino County,CA,NA,90.61063690085358,NA
92345,San Bernardino County,CA,NA,NA,47.630522088353416
92373,San Bernardino County,CA,NA,NA,34.05622489959839
92374,San Bernardino County,CA,NA,NA,35.903614457831324
92376,San Bernardino County,CA,NA,36.70387393302692,NA
92399,San Bernardino County,CA,NA,13.722915298752461,NA
92405,San Bernardino County,CA,34.21985815602837,NA,80
92407,San Bernardino County,CA,36.347517730496456,NA,53.41365461847389
92408,San Bernardino County,CA,NA,NA,99.83935742971887
92410,San Bernardino County,CA,25.354609929078016,NA,NA
92504,Riverside County,CA,NA,68.0236375574524,NA
92507,Riverside County,CA,NA,NA,46.50602409638554
92509,Riverside County,CA,NA,54.36638214051215,NA
92543,Riverside County,CA,NA,86.6053841103086,68.83534136546184
92555,Riverside County,CA,43.262411347517734,NA,NA
92562,Riverside County,CA,NA,NA,59.518072289156635
92563,Riverside County,CA,NA,29.48128693368352,NA
92582,Riverside County,CA,NA,96.71700590938937,NA
92584,Riverside County,CA,NA,NA,49.23694779116466
92585,Riverside County,CA,67.19858156028369,NA,NA
92591,Riverside County,CA,63.297872340425535,42.08798424162837,NA
92592,Riverside County,CA,NA,19.763624425476035,NA
92595,Riverside County,CA,NA,46.02757715036113,NA
92620,Orange County,CA,NA,58.96257386736704,NA
92625,Orange County,CA,NA,96.4543663821405,NA
92627,Orange County,CA,NA,NA,11.566265060240964
92630,Orange County,CA,NA,54.891661195009846,20
92637,Orange County,CA,NA,22.849638870650033,1.4457831325301205
92648,Orange County,CA,NA,NA,13.253012048192772
92649,Orange County,CA,NA,20.288903479973737,24.417670682730925
92651,Orange County,CA,NA,32.69862114248194,NA
92653,Orange County,CA,NA,NA,36.78714859437751
92655,Orange County,CA,NA,NA,98.23293172690764
92656,Orange County,CA,26.063829787234045,NA,NA
92672,Orange County,CA,52.12765957446809,39.59290873276428,NA
92683,Orange County,CA,NA,13.000656598818122,NA
92703,Orange County,CA,NA,39.33026920551543,NA
92704,Orange County,CA,49.822695035460995,24.885095206828627,NA
92705,Orange County,CA,NA,NA,14.538152610441768
92706,Orange County,CA,NA,91.79251477347341,NA
92801,Orange County,CA,NA,51.14904793171372,NA
92802,Orange County,CA,NA,30.79448456992777,NA
92804,Orange County,CA,NA,68.48325673013788,45.70281124497992
92805,Orange County,CA,NA,NA,57.028112449799195
92807,Orange County,CA,70.74468085106383,81.286933683519365,NA
92835,Orange County,CA,NA,NA,89.07630522088354
92845,Orange County,CA,NA,NA,51.08433734939759
92860,Riverside County,CA,NA,48.9822718319107,65.06024096385542
92867,Orange County,CA,NA,68.81155613919894,NA
92870,Orange County,CA,NA,15.692711753118843,37.59036144578313
92880,Riverside County,CA,89.53900709219859,NA,93.09236947791165
92881,Riverside County,CA,NA,NA,69.47791164658635
92886,Orange County,CA,89.36170212765957,NA,16.224899598393574
93001,Ventura County,CA,NA,NA,40.803212851405625
93003,Ventura County,CA,NA,NA,9.397590361445783
93010,Ventura County,CA,NA,45.10833880499015,NA
93015,Ventura County,CA,NA,64.9376231122784,NA
93021,Ventura County,CA,43.794326241134755,NA,NA
93035,Ventura County,CA,NA,84.43860801050558,NA
93210,Fresno County,CA,NA,NA,80.88353413654619
93257,Tulare County,CA,8.687943262411348,NA,NA
93292,Tulare County,CA,NA,NA,72.20883534136546
93306,Kern County,CA,37.94326241134752,NA,28.273092369477908
93436,Santa Barbara County,CA,NA,NA,35.66265060240964
93455,Santa Barbara County,CA,NA,21.011162179908077,8.273092369477911
93458,Santa Barbara County,CA,NA,20.87984241628365,NA
93535,Los Angeles County,CA,6.205673758865248,71.89757058437294,40.08032128514056
93552,Los Angeles County,CA,NA,NA,93.97590361445783
93638,Madera County,CA,64.71631205673759,NA,NA
93662,Fresno County,CA,NA,NA,49.558232931726906
93730,Fresno County,CA,92.73049645390071,NA,NA
93905,Monterey County,CA,NA,38.87065003282994,95.7429718875502
93906,Monterey County,CA,29.9645390070922,NA,NA
93908,Monterey County,CA,NA,NA,95.50200803212851
93940,Monterey County,CA,NA,NA,14.056224899598394
93955,Monterey County,CA,NA,NA,21.927710843373493
94030,San Mateo County,CA,NA,NA,14.377510040160644
94040,Santa Clara County,CA,NA,NA,88.59437751004016
94044,San Mateo County,CA,NA,NA,29.95983935742972
94061,San Mateo County,CA,NA,NA,40.72289156626506
94062,San Mateo County,CA,40.42553191489361,NA,NA
94065,San Mateo County,CA,81.73758865248227,NA,91.32530120481928
94066,San Mateo County,CA,NA,29.415627051871308,NA
94085,Santa Clara County,CA,NA,NA,80.40160642570281
94086,Santa Clara County,CA,88.47517730496453,82.60013131976362,NA
94089,Santa Clara County,CA,86.52482269503547,NA,NA
94103,San Francisco County,CA,NA,79.57977675640184,NA
94105,San Francisco County,CA,89.18439716312056,NA,NA
94109,San Francisco County,CA,NA,8.667104399212082,NA
94112,San Francisco County,CA,NA,4.530531845042679,1.6867469879518073
94116,San Francisco County,CA,NA,NA,62.730923694779115
94121,San Francisco County,CA,NA,27.57715036112935,NA
94127,San Francisco County,CA,NA,87.52462245567958,43.53413654618474
94133,San Francisco County,CA,NA,61.3263296126067,66.98795180722892
94134,San Francisco County,CA,NA,62.836506894287595,19.919678714859437
94303,San Mateo County,CA,21.099290780141843,NA,18.473895582329316
94403,San Mateo County,CA,NA,11.884438608010505,NA
94404,San Mateo County,CA,NA,NA,28.514056224899598
94506,Contra Costa County,CA,NA,NA,86.18473895582329
94507,Contra Costa County,CA,NA,53.44714379514117,NA
94509,Contra Costa County,CA,NA,NA,39.196787148594375
94520,Contra Costa County,CA,NA,NA,56.30522088353413
94521,Contra Costa County,CA,87.58865248226951,27.64281024294156,NA
94523,Contra Costa County,CA,NA,NA,64.8995983935743
94526,Contra Costa County,CA,NA,NA,31.807228915662648
94538,Alameda County,CA,NA,NA,72.44979919678714
94550,Alameda County,CA,NA,NA,94.77911646586345
94552,Alameda County,CA,93.43971631205675,NA,NA
94558,Napa County,CA,NA,40.51214707813526,1.8473895582329318
94560,Alameda County,CA,NA,32.764281024294156,NA
94564,Contra Costa County,CA,NA,NA,52.04819277108433
94566,Alameda County,CA,NA,NA,81.12449799196787
94572,Contra Costa County,CA,NA,NA,92.93172690763052
94574,Napa County,CA,NA,96.84832567301379,NA
94577,Alameda County,CA,78.01418439716312,NA,NA
94578,Alameda County,CA,36.52482269503546,NA,80.16064257028113
94579,Alameda County,CA,NA,82.27183191070256,NA
94580,Alameda County,CA,NA,47.73473407747866,NA
94583,Contra Costa County,CA,37.05673758865248,NA,NA
94587,Alameda County,CA,NA,NA,8.835341365461847
94588,Alameda County,CA,NA,NA,75.1004016064257
94590,Solano County,CA,NA,18.64740643466842,NA
94605,Alameda County,CA,NA,78.26657912015759,NA
94607,Alameda County,CA,NA,NA,82.570281124498
94608,Alameda County,CA,38.82978723404255,NA,NA
94621,Alameda County,CA,NA,86.21142481943532,NA
94708,Alameda County,CA,NA,70.32173342087984,NA
94709,Alameda County,CA,NA,NA,81.04417670682732
94804,Contra Costa County,CA,NA,NA,58.07228915662651
94901,Marin County,CA,NA,NA,57.42971887550201
94941,Marin County,CA,NA,29.349967170059095,NA
94949,Marin County,CA,NA,55.679579776756405,NA
94960,Marin County,CA,NA,NA,76.54618473895583
95008,Santa Clara County,CA,NA,35.128036769533814,NA
95032,Santa Clara County,CA,NA,NA,36.46586345381526
95035,Santa Clara County,CA,NA,33.355219960604074,NA
95037,Santa Clara County,CA,40.78014184397163,NA,NA
95070,Santa Clara County,CA,NA,80.63033486539724,NA
95076,Santa Cruz County,CA,NA,NA,54.05622489959839
95111,Santa Clara County,CA,NA,45.961917268548916,NA
95112,Santa Clara County,CA,28.900709219858157,NA,NA
95117,Santa Clara County,CA,NA,NA,52.77108433734939
95120,Santa Clara County,CA,NA,85.81746552856205,NA
95129,Santa Clara County,CA,NA,58.17465528562049,NA
95136,Santa Clara County,CA,NA,NA,62.3293172690763
95206,San Joaquin County,CA,NA,73.86736703873933,NA
95215,San Joaquin County,CA,NA,72.6854891661195,NA
95240,San Joaquin County,CA,NA,NA,37.83132530120482
95301,Merced County,CA,87.2340425531915,NA,NA
95307,Stanislaus County,CA,NA,60.99803020354564,NA
95315,Merced County,CA,NA,NA,89.31726907630522
95327,Tuolumne County,CA,NA,NA,95.98393574297188
95336,San Joaquin County,CA,NA,NA,47.06827309236948
95340,Merced County,CA,NA,NA,29.156626506024097
95355,Stanislaus County,CA,NA,NA,18.072289156626507
95357,Stanislaus County,CA,NA,83.58502954694683,NA
95386,Stanislaus County,CA,70.92198581560284,NA,NA
95403,Sonoma County,CA,NA,NA,84.33734939759037
95409,Sonoma County,CA,NA,NA,86.02409638554217
95425,Sonoma County,CA,NA,70.97833223900197,NA
95460,Mendocino County,CA,NA,94.15627051871307,NA
95476,Sonoma County,CA,79.60992907801419,NA,NA
95482,Mendocino County,CA,NA,17.990807616546288,NA
95492,Sonoma County,CA,NA,43.07288246881156,63.132530120481924
95519,Humboldt County,CA,NA,85.62048588312541,NA
95540,Humboldt County,CA,NA,40.44648719632305,NA
95628,Sacramento County,CA,NA,NA,97.99196787148594
95630,Sacramento County,CA,NA,NA,16.224899598393574
95648,Placer County,CA,NA,17.0059093893631,NA
95666,Amador County,CA,NA,72.02889034799738,NA
95678,Placer County,CA,36.17021276595745,NA,NA
95691,Yolo County,CA,88.82978723404256,NA,NA
95746,Placer County,CA,NA,92.44911359159553,NA
95747,Placer County,CA,NA,NA,48.99598393574297
95814,Sacramento County,CA,NA,71.70059093893632,NA
95819,Sacramento County,CA,NA,NA,92.69076305220884
95820,Sacramento County,CA,NA,NA,39.598393574297184
95821,Sacramento County,CA,NA,21.53644123440578,58.63453815261044
95926,Butte County,CA,NA,62.50820748522653,89.47791164658635
95928,Butte County,CA,NA,51.411687458962575,97.83132530120481
95963,Glenn County,CA,NA,NA,99.19678714859438
95969,Butte County,CA,66.66666666666666,NA,NA
95973,Butte County,CA,NA,15.955351280367697,NA
95993,Sutter County,CA,NA,28.29940906106369,19.3574297188755
96161,Nevada County,CA,NA,NA,86.90763052208835
80003,Jefferson County,CO,NA,68.94287590282337,NA
80005,Jefferson County,CO,NA,NA,55.42168674698795
80012,Arapahoe County,CO,29.432624113475175,NA,NA
80021,Jefferson County,CO,NA,41.30006565988181,NA
80023,Broomfield County,CO,NA,NA,85.06024096385542
80031,Adams County,CO,56.560283687943254,NA,NA
80120,Arapahoe County,CO,NA,NA,80.32128514056225
80122,Arapahoe County,CO,NA,NA,38.0722891566265
80129,Douglas County,CO,NA,NA,60.562248995983936
80134,Douglas County,CO,NA,NA,45.54216867469879
80204,Denver County,CO,NA,46.42153644123441,NA
80210,Denver County,CO,40.248226950354606,NA,NA
80226,Jefferson County,CO,NA,82.60013131976362,NA
80228,Jefferson County,CO,NA,41.62836506894288,NA
80229,Adams County,CO,NA,29.80958634274458,NA
80237,Denver County,CO,NA,44.45173998686802,NA
80239,Denver County,CO,NA,65.9881812212738,NA
80301,Boulder County,CO,NA,58.43729481286933,NA
80304,Boulder County,CO,NA,NA,57.670682730923694
80465,Jefferson County,CO,75,NA,NA
80504,Boulder County,CO,NA,16.4806303348654,NA
80526,Larimer County,CO,NA,23.637557452396585,NA
80631,Weld County,CO,5.673758865248227,NA,NA
80634,Weld County,CO,NA,25.21339461588969,NA
80751,Logan County,CO,31.73758865248227,NA,NA
80905,El Paso County,CO,NA,NA,73.73493975903614
80909,El Paso County,CO,NA,35.390676296782665,NA
80910,El Paso County,CO,NA,42.02232435981615,NA
80911,El Paso County,CO,31.382978723404253,NA,40.48192771084337
81006,Pueblo County,CO,NA,NA,62.48995983935743
81067,Otero County,CO,97.51773049645391,NA,NA
81147,Archuleta County,CO,77.6595744680851,NA,51.24497991967871
81201,Chaffee County,CO,NA,NA,50.76305220883535
81211,Chaffee County,CO,NA,NA,97.26907630522088
81212,Fremont County,CO,NA,37.82009192383454,NA
81413,Delta County,CO,NA,NA,99.3574297188755
81501,Mesa County,CO,60.1063829787234,NA,NA
81504,Mesa County,CO,80.67375886524822,NA,NA
81507,Mesa County,CO,NA,90.87327642810243,NA
06001,Hartford County,CT,NA,NA,97.75100401606426
06019,Hartford County,CT,NA,97.63624425476034,NA
06029,Tolland County,CT,NA,47.53775443204202,NA
06033,Hartford County,CT,NA,39.921208141825346,NA
06066,Tolland County,CT,NA,NA,43.21285140562249
06067,Hartford County,CT,NA,74.917925147734735,NA
06076,Tolland County,CT,NA,NA,81.6867469879518
06082,Hartford County,CT,NA,9.783322390019698,NA
06108,Hartford County,CT,22.872340425531913,NA,NA
06114,Hartford County,CT,11.52482269503546,NA,NA
06118,Hartford County,CT,18.085106382978726,NA,NA
06226,Windham County,CT,NA,75.96848325673014,NA
06405,New Haven County,CT,NA,NA,61.686746987951814
06415,New London County,CT,NA,53.70978332239002,NA
06424,Middlesex County,CT,64.00709219858156,NA,NA
06443,New Haven County,CT,53.72340425531915,NA,92.61044176706828
06460,New Haven County,CT,79.43262411347519,NA,22.811244979919678
06461,New Haven County,CT,NA,59.22521339461589,NA
06484,Fairfield County,CT,NA,NA,11.244979919678714
06488,New Haven County,CT,NA,NA,62.9718875502008
06489,Hartford County,CT,47.340425531914896,94.61588969139856,5.7028112449799195
06498,Middlesex County,CT,NA,69.53381483913329,NA
06511,New Haven County,CT,NA,88.44386080105056,63.69477911646586
06512,New Haven County,CT,NA,NA,55.90361445783133
06513,New Haven County,CT,NA,6.369008535784635,NA
06514,New Haven County,CT,NA,23.112278397898883,24.65863453815261
06516,New Haven County,CT,23.581560283687946,67.23571897570584,NA
06605,Fairfield County,CT,NA,NA,65.3012048192771
06614,Fairfield County,CT,NA,77.8726198292843,17.670682730923694
06615,Fairfield County,CT,NA,NA,64.17670682730923
06708,New Haven County,CT,NA,70.05909389363099,NA
06824,Fairfield County,CT,55.85106382978723,NA,72.36947791164658
06825,Fairfield County,CT,NA,NA,50.441767068273094
06840,Fairfield County,CT,NA,NA,78.55421686746989
06880,Fairfield County,CT,NA,NA,45.863453815261046
06890,Fairfield County,CT,NA,97.63624425476034,NA
06902,Fairfield County,CT,NA,8.207485226526593,NA
19702,New Castle County,DE,NA,12.01575837163493,NA
19703,New Castle County,DE,83.15602836879432,NA,NA
19711,New Castle County,DE,NA,84.56992777413001,NA
19720,New Castle County,DE,NA,30.991464215364413,NA
19734,New Castle County,DE,NA,NA,74.37751004016064
19804,New Castle County,DE,21.808510638297875,NA,NA
19810,New Castle County,DE,NA,26.59225213394616,71.32530120481928
19901,Kent County,DE,NA,NA,15.903614457831324
19904,Kent County,DE,NA,10.571240971766251,NA
19938,Kent County,DE,NA,83.84766907419566,NA
19943,Kent County,DE,NA,NA,81.44578313253012
19958,Sussex County,DE,NA,3.34865397242285,NA
19963,Sussex County,DE,NA,53.18450426789232,38.714859437751
19968,Sussex County,DE,NA,76.42810242941562,NA
19973,Sussex County,DE,NA,NA,9.959839357429718
32024,Columbia County,FL,NA,29.28430728824688,NA
32043,Clay County,FL,NA,14.576493762311227,NA
32055,Columbia County,FL,NA,NA,48.83534136546185
32060,Suwannee County,FL,37.5886524822695,NA,NA
32071,Suwannee County,FL,NA,93.76231122783979,NA
32080,St. Johns County,FL,NA,NA,18.87550200803213
32082,St. Johns County,FL,42.02127659574468,NA,16.70682730923695
32086,St. Johns County,FL,NA,NA,8.433734939759036
32095,St. Johns County,FL,NA,NA,79.27710843373494
32129,Volusia County,FL,NA,51.87130663164806,27.469879518072286
32134,Marion County,FL,NA,NA,85.62248995983936
32162,Sumter County,FL,NA,NA,26.506024096385545
32168,Volusia County,FL,NA,78.46355876559421,20.160642570281123
32207,Duval County,FL,NA,58.56861457649376,41.285140562249
32208,Duval County,FL,NA,22.652659225213394,NA
32209,Duval County,FL,15.425531914893616,62.63952724885095,NA
32218,Duval County,FL,2.304964539007092,NA,NA
32221,Duval County,FL,NA,70.19041365725542,NA
32224,Duval County,FL,87.7659574468085,NA,NA
32226,Duval County,FL,NA,40.840446487196324,NA
32244,Duval County,FL,NA,8.010505581089953,NA
32246,Duval County,FL,90.0709219858156,15.364412344057781,NA
32257,Duval County,FL,NA,15.56139198949442,NA
32258,Duval County,FL,NA,69.99343401181878,NA
32301,Leon County,FL,NA,NA,52.93172690763053
32347,Taylor County,FL,NA,70.58437294812869,NA
32404,Bay County,FL,NA,NA,15.100401606425704
32409,Bay County,FL,NA,52.068286277084695,NA
32459,Walton County,FL,48.758865248226954,82.14051214707814,NA
32460,Jackson County,FL,99.29078014184397,NA,NA
32503,Escambia County,FL,NA,NA,12.369477911646587
32504,Escambia County,FL,NA,NA,14.61847389558233
32547,Okaloosa County,FL,NA,38.476690741956666,71.16465863453814
32548,Okaloosa County,FL,NA,NA,93.49397590361446
32570,Santa Rosa County,FL,NA,NA,6.987951807228916
32577,Escambia County,FL,NA,56.53315824031516,NA
32578,Okaloosa County,FL,68.43971631205675,NA,NA
32605,Alachua County,FL,NA,50.03282994090611,NA
32607,Alachua County,FL,NA,NA,71.72690763052209
32608,Alachua County,FL,NA,NA,91.72690763052209
32640,Putnam County,FL,42.730496453900706,NA,NA
32656,Clay County,FL,NA,43.86080105055811,NA
32666,Putnam County,FL,NA,74.52396585686147,NA
32696,Levy County,FL,NA,88.96913985554826,NA
32707,Seminole County,FL,NA,NA,30.040160642570278
32708,Seminole County,FL,NA,26.39527248850952,NA
32712,Orange County,FL,NA,24.294156270518712,NA
32714,Seminole County,FL,NA,47.53775443204202,30.602409638554217
32720,Volusia County,FL,NA,26.986211424819434,NA
32724,Volusia County,FL,NA,NA,15.98393574297189
32725,Volusia County,FL,NA,91.00459619172685,89.5582329317269
32730,Seminole County,FL,NA,85.88312541037426,NA
32732,Seminole County,FL,NA,NA,73.33333333333333
32735,Lake County,FL,NA,90.01969796454367,NA
32738,Volusia County,FL,NA,53.5784635587656,NA
32757,Lake County,FL,NA,47.47209455022981,NA
32763,Volusia County,FL,72.69503546099291,NA,17.670682730923694
32765,Seminole County,FL,NA,NA,79.11646586345381
32771,Seminole County,FL,NA,NA,61.12449799196787
32773,Seminole County,FL,NA,61.39198949441891,NA
32776,Lake County,FL,NA,NA,94.61847389558233
32780,Brevard County,FL,NA,11.621799080761654,19.759036144578314
32792,Orange County,FL,NA,62.96782665791202,NA
32796,Brevard County,FL,37.234042553191486,19.500984898227184,NA
32803,Orange County,FL,58.687943262411345,53.31582403151675,NA
32808,Orange County,FL,NA,83.4537097833224,NA
32812,Orange County,FL,NA,NA,16.546184738955823
32819,Orange County,FL,NA,NA,48.59437751004016
32821,Orange County,FL,NA,76.75640183847669,NA
32822,Orange County,FL,NA,NA,22.16867469879518
32825,Orange County,FL,NA,10.76822061720289,NA
32828,Orange County,FL,NA,45.436638214051214,NA
32835,Orange County,FL,NA,86.53972422849638,NA
32839,Orange County,FL,44.32624113475177,72.35718975705844,NA
32901,Brevard County,FL,NA,32.63296126066973,NA
32909,Brevard County,FL,NA,50.09848982271832,NA
32935,Brevard County,FL,NA,30.728824688115562,NA
32952,Brevard County,FL,NA,NA,12.771084337349398
32953,Brevard County,FL,NA,85.22652659225214,NA
32963,Indian River County,FL,NA,NA,9.799196787148594
33010,Miami-Dade County,FL,NA,NA,32.610441767068274
33013,Miami-Dade County,FL,NA,NA,46.98795180722892
33014,Miami-Dade County,FL,NA,53.18450426789232,NA
33015,Miami-Dade County,FL,NA,75.64018384766908,NA
33018,Miami-Dade County,FL,60.815602836879435,NA,NA
33019,Broward County,FL,NA,NA,45.140562248995984
33021,Broward County,FL,NA,82.9284307288247,2.7309236947791167
33024,Broward County,FL,NA,NA,43.05220883534137
33025,Broward County,FL,NA,38.73933026920551,NA
33026,Broward County,FL,NA,NA,35.18072289156626
33029,Broward County,FL,NA,NA,68.43373493975903
33033,Miami-Dade County,FL,NA,66.77609980302034,NA
33036,Monroe County,FL,NA,91.33289560078792,NA
33040,Monroe County,FL,NA,74.32698621142481,NA
33043,Monroe County,FL,99.822695035461,NA,NA
33055,Miami-Dade County,FL,NA,NA,94.13654618473896
33062,Broward County,FL,NA,19.238345370978333,2.1686746987951806
33065,Broward County,FL,NA,65.59422193040052,NA
33066,Broward County,FL,NA,NA,82.570281124498
33067,Broward County,FL,NA,90.54497701904137,NA
33125,Miami-Dade County,FL,NA,25.93565331582403,NA
33134,Miami-Dade County,FL,NA,NA,21.285140562248998
33140,Miami-Dade County,FL,NA,NA,62.16867469879518
33145,Miami-Dade County,FL,NA,60.013131976362445,NA
33147,Miami-Dade County,FL,25,NA,NA
33156,Miami-Dade County,FL,NA,NA,89.79919678714859
33160,Miami-Dade County,FL,NA,25.60735390676297,NA
33161,Miami-Dade County,FL,NA,63.099146421536446,NA
33162,Miami-Dade County,FL,NA,44.91135915955351,NA
33165,Miami-Dade County,FL,NA,NA,32.28915662650602
33166,Miami-Dade County,FL,NA,NA,36.78714859437751
33172,Miami-Dade County,FL,NA,NA,28.755020080321287
33175,Miami-Dade County,FL,NA,44.057780695994744,NA
33176,Miami-Dade County,FL,NA,25.016414970453056,NA
33177,Miami-Dade County,FL,NA,35.52199606040709,NA
33179,Miami-Dade County,FL,NA,75.18056467498359,97.429718875502
33180,Miami-Dade County,FL,NA,NA,9.156626506024097
33182,Miami-Dade County,FL,NA,NA,67.2289156626506
33185,Miami-Dade County,FL,NA,54.10374261326329,NA
33187,Miami-Dade County,FL,NA,NA,59.27710843373494
33196,Miami-Dade County,FL,49.46808510638298,NA,37.18875502008032
33311,Broward County,FL,22.340425531914892,NA,NA
33313,Broward County,FL,14.893617021276595,NA,NA
33319,Broward County,FL,NA,91.85817465528562,NA
33322,Broward County,FL,NA,NA,7.710843373493977
33327,Broward County,FL,NA,98.68680236375575,NA
33351,Broward County,FL,NA,83.5193696651346,NA
33401,Palm Beach County,FL,76.24113475177306,NA,NA
33409,Palm Beach County,FL,NA,NA,68.5140562248996
33410,Palm Beach County,FL,65.78014184397163,NA,NA
33411,Palm Beach County,FL,NA,NA,14.698795180722893
33412,Palm Beach County,FL,NA,65.9225213394616,NA
33414,Palm Beach County,FL,NA,NA,52.28915662650603
33426,Palm Beach County,FL,NA,65.85686145764937,NA
33428,Palm Beach County,FL,27.482269503546096,NA,NA
33432,Palm Beach County,FL,NA,NA,95.58232931726907
33434,Palm Beach County,FL,NA,NA,21.847389558232933
33435,Palm Beach County,FL,NA,41.49704530531845,41.84738955823293
33436,Palm Beach County,FL,NA,NA,8.91566265060241
33437,Palm Beach County,FL,NA,55.94221930400525,NA
33441,Broward County,FL,NA,NA,63.212851405622494
33442,Broward County,FL,NA,NA,6.104417670682731
33445,Palm Beach County,FL,NA,NA,18.795180722891565
33462,Palm Beach County,FL,NA,56.99277741300066,NA
33467,Palm Beach County,FL,NA,17.202889034799735,NA
33469,Palm Beach County,FL,NA,NA,19.67871485943775
33471,Glades County,FL,89.8936170212766,90.34799737360473,NA
33472,Palm Beach County,FL,NA,NA,44.738955823293175
33477,Palm Beach County,FL,NA,59.22521339461589,NA
33480,Palm Beach County,FL,NA,NA,26.104417670682732
33484,Palm Beach County,FL,NA,NA,26.586345381526105
33496,Palm Beach County,FL,NA,28.233749179251475,NA
33498,Palm Beach County,FL,NA,NA,43.53413654618474
33511,Hillsborough County,FL,NA,64.34668417596848,NA
33542,Pasco County,FL,NA,63.88706500328299,NA
33544,Pasco County,FL,NA,NA,85.14056224899599
33566,Hillsborough County,FL,42.37588652482269,NA,NA
33570,Hillsborough County,FL,NA,40.31516743269862,NA
33578,Hillsborough County,FL,52.304964539007095,NA,NA
33598,Hillsborough County,FL,NA,87.91858174655286,NA
33602,Hillsborough County,FL,NA,85.5548260013132,NA
33605,Hillsborough County,FL,NA,91.46421536441235,NA
33607,Hillsborough County,FL,NA,92.90873276428103,NA
33612,Hillsborough County,FL,64.36170212765957,NA,NA
33615,Hillsborough County,FL,95.92198581560284,50.4924491135916,NA
33618,Hillsborough County,FL,NA,NA,55.662650602409634
33619,Hillsborough County,FL,27.127659574468083,NA,NA
33624,Hillsborough County,FL,NA,31.51674326986211,NA
33625,Hillsborough County,FL,43.794326241134755,48.06303348653972,NA
33635,Hillsborough County,FL,NA,50.29546946815495,NA
33637,Hillsborough County,FL,NA,89.56007879185817,NA
33647,Hillsborough County,FL,78.36879432624113,NA,NA
33705,Pinellas County,FL,73.581560283687935,NA,NA
33706,Pinellas County,FL,NA,NA,27.8714859437751
33707,Pinellas County,FL,NA,21.79908076165463,46.10441767068273
33709,Pinellas County,FL,NA,41.43138542350624,NA
33711,Pinellas County,FL,NA,57.84635587655942,NA
33715,Pinellas County,FL,NA,NA,89.63855421686748
33763,Pinellas County,FL,NA,42.61326329612607,NA
33772,Pinellas County,FL,65.42553191489363,NA,NA
33774,Pinellas County,FL,80.49645390070921,NA,NA
33777,Pinellas County,FL,NA,NA,53.73493975903615
33782,Pinellas County,FL,NA,NA,37.670682730923694
33810,Polk County,FL,NA,NA,18.313253012048193
33815,Polk County,FL,NA,51.674326986211426,NA
33823,Polk County,FL,27.30496453900709,31.910702560735395,44.17670682730924
33830,Polk County,FL,NA,83.12541037426132,NA
33837,Polk County,FL,NA,63.29612606697308,NA
33852,Highlands County,FL,NA,12.803676953381485,42.489959839357425
33881,Polk County,FL,NA,NA,36.144578313253014
33904,Lee County,FL,NA,NA,73.01204819277109
33914,Lee County,FL,71.98581560283688,NA,NA
33919,Lee County,FL,NA,NA,2.0883534136546187
33928,Lee County,FL,NA,NA,13.333333333333334
33953,Charlotte County,FL,NA,98.75246224556797,NA
33980,Charlotte County,FL,NA,NA,48.11244979919679
33983,Charlotte County,FL,NA,NA,74.69879518072288
33993,Lee County,FL,NA,38.542350623768876,NA
34112,Collier County,FL,NA,NA,60.401606425702816
34119,Collier County,FL,NA,18.778726198292844,NA
34134,Lee County,FL,NA,73.27642810242942,NA
34202,Manatee County,FL,52.4822695035461,NA,NA
34211,Manatee County,FL,NA,NA,68.67469879518072
34231,Sarasota County,FL,NA,11.687458962573867,NA
34232,Sarasota County,FL,NA,23.30925804333552,NA
34233,Sarasota County,FL,NA,NA,65.3012048192771
34238,Sarasota County,FL,NA,72.16021011162181,22.89156626506024
34239,Sarasota County,FL,NA,54.10374261326329,NA
34285,Sarasota County,FL,NA,80.30203545633617,NA
34287,Sarasota County,FL,NA,NA,10.763052208835342
34292,Sarasota County,FL,NA,63.755745239658566,NA
34420,Marion County,FL,NA,45.56795797767564,NA
34442,Citrus County,FL,NA,NA,77.75100401606426
34472,Marion County,FL,55.49645390070922,NA,NA
34474,Marion County,FL,NA,72.61982928430729,NA
34479,Marion County,FL,NA,87.26198292843073,NA
34606,Hernando County,FL,31.914893617021278,NA,NA
34608,Hernando County,FL,NA,33.420879842416284,NA
34613,Hernando County,FL,NA,78.06959947472095,NA
34639,Pasco County,FL,NA,69.5994747209455,79.67871485943775
34654,Pasco County,FL,NA,39.19894944189101,NA
34655,Pasco County,FL,50.35460992907801,17.859487852921866,NA
34668,Pasco County,FL,NA,42.35062376887721,NA
34683,Pinellas County,FL,NA,33.683519369665134,NA
34684,Pinellas County,FL,NA,NA,33.25301204819277
34689,Pinellas County,FL,NA,56.336178594878525,42.81124497991968
34711,Lake County,FL,NA,3.4143138542350626,NA
34741,Osceola County,FL,NA,NA,50.040160642570285
34748,Lake County,FL,NA,NA,11.726907630522089
34758,Osceola County,FL,NA,64.47800393959291,NA
34759,Polk County,FL,NA,NA,99.03614457831326
34950,St. Lucie County,FL,NA,96.3887065003283,NA
34952,St. Lucie County,FL,NA,NA,4.738955823293173
34953,St. Lucie County,FL,NA,4.79317137229153,NA
34974,Okeechobee County,FL,NA,27.971109652002625,NA
34982,St. Lucie County,FL,NA,71.50361129349967,38.0722891566265
30009,Fulton County,GA,NA,95.66644780039397,NA
30012,Rockdale County,GA,NA,36.244254760341434,53.65461847389559
30016,Newton County,GA,NA,57.38673670387393,NA
30017,Gwinnett County,GA,NA,51.14904793171372,96.54618473895582
30019,Gwinnett County,GA,NA,72.94812869336835,NA
30025,Walton County,GA,NA,71.1096520026264,NA
30030,DeKalb County,GA,60.99290780141844,NA,NA
30032,DeKalb County,GA,NA,NA,15.582329317269075
30033,DeKalb County,GA,NA,NA,66.50602409638554
30040,Forsyth County,GA,NA,39.85554826001313,NA
30041,Forsyth County,GA,21.45390070921986,8.338804990151019,13.17269076305221
30043,Gwinnett County,GA,NA,62.17990807616546,79.03614457831326
30044,Gwinnett County,GA,NA,51.80564674983585,NA
30045,Gwinnett County,GA,NA,80.49901510177281,NA
30047,Gwinnett County,GA,NA,84.24162836506895,NA
30058,DeKalb County,GA,79.07801418439716,NA,70.8433734939759
30062,Cobb County,GA,NA,NA,19.27710843373494
30075,Fulton County,GA,NA,40.38082731451084,NA
30076,Fulton County,GA,NA,59.42219304005253,NA
30078,Gwinnett County,GA,44.858156028368796,NA,NA
30083,DeKalb County,GA,NA,22.78397898883782,NA
30087,DeKalb County,GA,NA,NA,71.40562248995984
30096,Gwinnett County,GA,NA,21.07682206172029,NA
30097,Fulton County,GA,NA,NA,84.17670682730923
30110,Haralson County,GA,NA,66.90741956664478,NA
30113,Haralson County,GA,NA,67.76099803020355,NA
30114,Cherokee County,GA,NA,64.21536441234406,NA
30127,Cobb County,GA,12.411347517730496,NA,NA
30134,Douglas County,GA,NA,49.770190413657254,NA
30144,Cobb County,GA,NA,NA,41.9277108433735
30161,Floyd County,GA,NA,14.116874589625738,NA
30165,Floyd County,GA,18.617021276595743,NA,NA
30176,Haralson County,GA,69.32624113475178,NA,NA
30180,Carroll County,GA,16.134751773049647,NA,NA
30213,Fulton County,GA,NA,95.14116874589625,NA
30214,Fayette County,GA,NA,NA,27.630522088353416
30215,Fayette County,GA,NA,NA,84.41767068273093
30252,Henry County,GA,NA,35.25935653315824,NA
30253,Henry County,GA,NA,NA,30.120481927710845
30263,Coweta County,GA,NA,8.864084044648719,NA
30274,Clayton County,GA,NA,56.13919894944189,NA
30281,Henry County,GA,NA,11.950098489822718,NA
30310,Fulton County,GA,NA,10.899540380827315,NA
30311,Fulton County,GA,10.638297872340425,NA,NA
30314,Fulton County,GA,NA,NA,38.795180722891565
30315,Fulton County,GA,22.69503546099291,NA,NA
30319,DeKalb County,GA,NA,NA,18.714859437751006
30331,Fulton County,GA,NA,26.198292843072885,NA
30338,DeKalb County,GA,NA,NA,23.775100401606426
30339,Cobb County,GA,NA,66.05384110308601,NA
30349,Fulton County,GA,NA,30.860144451739984,NA
30354,Fulton County,GA,NA,NA,96.86746987951807
30467,Screven County,GA,NA,46.29021667760998,NA
30507,Hall County,GA,74.46808510638297,NA,NA
30512,Union County,GA,NA,34.79973736047275,NA
30518,Gwinnett County,GA,NA,25.147734734077474,NA
30523,Habersham County,GA,NA,NA,46.50602409638554
30531,Habersham County,GA,NA,NA,57.99196787148594
30534,Dawson County,GA,NA,69.0741956664478,NA
30606,Clarke County,GA,NA,NA,20.6425702811245
30607,Clarke County,GA,NA,76.8220617202889,NA
30622,Oconee County,GA,78.90070921985816,91.20157583716349,NA
30673,Wilkes County,GA,93.79432624113475,NA,NA
30721,Whitfield County,GA,70.56737588652481,31.385423506237686,NA
30736,Catoosa County,GA,NA,40.57780695994747,NA
30817,Lincoln County,GA,70.39007092198581,NA,NA
31014,Bleckley County,GA,NA,56.79579776756402,NA
31021,Laurens County,GA,29.78723404255319,NA,NA
31024,Putnam County,GA,NA,NA,87.8714859437751
31031,Wilkinson County,GA,81.38297872340425,NA,NA
31068,Macon County,GA,NA,100,NA
31069,Houston County,GA,80.31914893617021,NA,NA
31204,Bibb County,GA,NA,19.697964543663822,NA
31206,Bibb County,GA,NA,36.835193696651345,NA
31329,Effingham County,GA,NA,99.14642153644124,NA
31404,Chatham County,GA,NA,NA,34.377510040160644
31405,Chatham County,GA,NA,NA,24.176706827309236
31411,Chatham County,GA,NA,97.37360472751149,NA
31419,Chatham County,GA,NA,NA,34.05622489959839
31501,Ware County,GA,NA,NA,41.606425702811244
31558,Camden County,GA,NA,49.04793171372292,NA
31602,Lowndes County,GA,NA,NA,23.775100401606426
31639,Berrien County,GA,65.95744680851064,NA,NA
31763,Lee County,GA,NA,49.44189100459619,67.71084337349397
31794,Tift County,GA,45.39007092198582,NA,83.13253012048193
31904,Muscogee County,GA,NA,NA,10.522088353413654
39845,Seminole County,GA,NA,NA,58.95582329317269
96701,Honolulu County,HI,26.418439716312058,NA,76.46586345381526
96706,Honolulu County,HI,NA,NA,10.682730923694779
96734,Honolulu County,HI,NA,29.875246224556797,NA
96744,Honolulu County,HI,NA,2.2324359816152333,1.7670682730923692
96746,Kauai County,HI,86.17021276595744,NA,NA
96753,Maui County,HI,NA,98.35850295469469,NA
96778,Hawaii County,HI,NA,90.08535784635588,NA
96789,Honolulu County,HI,NA,63.23046618516087,77.26907630522089
96797,Honolulu County,HI,71.63120567375887,4.333552199606041,NA
96815,Honolulu County,HI,NA,17.92514773473408,93.81526104417671
96817,Honolulu County,HI,NA,NA,88.19277108433735
96822,Honolulu County,HI,NA,NA,6.425702811244979
96825,Honolulu County,HI,NA,NA,19.196787148594378
96826,Honolulu County,HI,59.57446808510638,NA,56.46586345381526
83204,Bannock County,ID,NA,NA,63.77510040160642
83221,Bingham County,ID,NA,12.147078135259356,NA
83274,Bingham County,ID,72.3404255319149,NA,NA
83301,Twin Falls County,ID,NA,NA,8.112449799196787
83340,Blaine County,ID,NA,71.30663164806303,NA
83442,Jefferson County,ID,NA,NA,62.3293172690763
83501,Nez Perce County,ID,NA,NA,94.53815261044177
83607,Canyon County,ID,NA,49.967170059093895,30.76305220883534
83634,Ada County,ID,NA,NA,48.35341365461847
83646,Ada County,ID,NA,4.9244911359159556,NA
83686,Canyon County,ID,NA,NA,78.39357429718875
83703,Ada County,ID,NA,87.39330269205516,38.47389558232931
83709,Ada County,ID,NA,3.4799737360472753,NA
83714,Ada County,ID,NA,51.543007222587,NA
83814,Kootenai County,ID,25.886524822695034,NA,NA
83858,Kootenai County,ID,85.46099290780141,NA,75.18072289156626
83864,Bonner County,ID,56.02836879432624,NA,NA
60002,Lake County,IL,NA,24.359816152330925,NA
60007,Cook County,IL,NA,NA,65.46184738955823
60010,Lake County,IL,NA,33.15824031516743,11.80722891566265
60015,Lake County,IL,NA,NA,40.88353413654618
60016,Cook County,IL,NA,58.831254103742616,NA
60030,Lake County,IL,NA,NA,10.843373493975903
60035,Lake County,IL,60.28368794326241,NA,NA
60044,Lake County,IL,NA,NA,47.389558232931726
60047,Lake County,IL,NA,NA,41.52610441767068
60048,Lake County,IL,NA,NA,24.337349397590362
60051,McHenry County,IL,NA,18.18778726198293,25.301204819277107
60053,Cook County,IL,62.76595744680851,NA,NA
60056,Cook County,IL,NA,NA,42.40963855421687
60060,Lake County,IL,NA,NA,64.81927710843374
60074,Cook County,IL,NA,NA,31.4859437751004
60085,Lake County,IL,NA,21.273801707156927,NA
60091,Cook County,IL,NA,NA,10.200803212851406
60099,Lake County,IL,NA,81.61523309258043,NA
60101,DuPage County,IL,NA,NA,11.646586345381527
60102,McHenry County,IL,83.86524822695036,NA,NA
60106,DuPage County,IL,NA,NA,23.21285140562249
60107,Cook County,IL,NA,26.7892317793828,NA
60115,DeKalb County,IL,NA,81.94353250164149,NA
60118,Kane County,IL,NA,NA,94.21686746987952
60120,Kane County,IL,NA,NA,87.30923694779116
60123,Kane County,IL,NA,NA,12.690763052208837
60124,Kane County,IL,NA,20.0919238345371,NA
60126,DuPage County,IL,27.836879432624112,NA,NA
60130,Cook County,IL,88.12056737588652,92.90873276428103,NA
60133,Cook County,IL,59.9290780141844,NA,NA
60140,Kane County,IL,81.02836879432624,NA,NA
60142,McHenry County,IL,NA,7.6822061720288906,NA
60143,DuPage County,IL,NA,NA,87.06827309236948
60153,Cook County,IL,NA,83.71634931057123,NA
60156,McHenry County,IL,NA,NA,61.606425702811244
60160,Cook County,IL,78.54609929078015,NA,NA
60173,Cook County,IL,NA,NA,82.570281124498
60185,DuPage County,IL,NA,19.960604070912673,NA
60187,DuPage County,IL,NA,87.98424162836507,NA
60188,DuPage County,IL,NA,NA,26.34538152610442
60193,Cook County,IL,NA,6.959947472094551,NA
60201,Cook County,IL,NA,NA,54.136546184738954
60302,Cook County,IL,NA,NA,10.923694779116467
60411,Cook County,IL,NA,28.95600787918582,NA
60422,Cook County,IL,NA,32.501641497045306,NA
60423,Will County,IL,NA,43.20420223243598,NA
60425,Cook County,IL,NA,NA,93.65461847389558
60430,Cook County,IL,NA,36.04727511490479,NA
60435,Will County,IL,NA,7.091267235718976,NA
60440,Will County,IL,NA,NA,23.373493975903614
60441,Will County,IL,NA,64.34668417596848,NA
60449,Will County,IL,NA,66.11950098489822,NA
60451,Will County,IL,NA,NA,32.7710843373494
60462,Cook County,IL,NA,3.8739330269205516,NA
60464,Cook County,IL,NA,NA,49.07630522088353
60467,Cook County,IL,NA,18.51608667104399,NA
60473,Cook County,IL,NA,NA,49.1566265060241
60482,Cook County,IL,97.3404255319149,NA,73.65461847389558
60505,Kane County,IL,NA,29.546946815495733,NA
60506,Kane County,IL,71.45390070921985,NA,NA
60517,DuPage County,IL,NA,94.02495075508864,NA
60521,DuPage County,IL,NA,NA,76.3855421686747
60525,Cook County,IL,16.312056737588655,50.16414970453054,NA
60527,DuPage County,IL,NA,7.485226526592252,NA
60532,DuPage County,IL,NA,31.713722915298753,NA
60538,Kendall County,IL,44.148936170212764,NA,NA
60542,Kane County,IL,99.46808510638297,NA,NA
60546,Cook County,IL,NA,NA,93.57429718875501
60560,Kendall County,IL,32.62411347517731,NA,53.01204819277109
60564,Will County,IL,NA,60.80105055810899,NA
60565,DuPage County,IL,NA,NA,33.65461847389558
60605,Cook County,IL,96.27659574468085,NA,NA
60610,Cook County,IL,NA,70.32173342087984,NA
60611,Cook County,IL,NA,13.65725541694025,NA
60612,Cook County,IL,NA,NA,24.899598393574294
60613,Cook County,IL,NA,NA,75.02008032128515
60616,Cook County,IL,NA,45.04267892317794,NA
60617,Cook County,IL,4.432624113475177,NA,NA
60620,Cook County,IL,NA,2.5607353906762964,NA
60621,Cook County,IL,NA,NA,59.518072289156635
60623,Cook County,IL,NA,59.61917268548916,NA
60624,Cook County,IL,NA,18.384766907419568,NA
60628,Cook County,IL,23.22695035460993,32.9612606697308,1.3654618473895583
60633,Cook County,IL,NA,49.704530531845045,44.899598393574294
60636,Cook County,IL,26.24113475177305,NA,NA
60637,Cook County,IL,NA,8.929743926460933,NA
60640,Cook County,IL,NA,NA,5.542168674698795
60643,Cook County,IL,5.851063829787234,NA,4.658634538152611
60644,Cook County,IL,5.49645390070922,NA,NA
60645,Cook County,IL,NA,NA,13.413654618473897
60646,Cook County,IL,NA,NA,18.393574297188756
60647,Cook County,IL,5.141843971631205,NA,NA
60651,Cook County,IL,NA,NA,37.670682730923694
60655,Cook County,IL,NA,NA,57.831325301204814
60659,Cook County,IL,NA,18.91004596191727,NA
60827,Cook County,IL,NA,39.986868023637555,NA
61108,Winnebago County,IL,NA,16.874589625738672,NA
61109,Winnebago County,IL,NA,NA,43.29317269076306
61111,Winnebago County,IL,NA,38.804990151017726,NA
61114,Winnebago County,IL,NA,51.60866710439921,NA
61201,Rock Island County,IL,NA,21.60210111621799,NA
61241,Henry County,IL,98.75886524822694,NA,NA
61265,Rock Island County,IL,83.68794326241135,NA,NA
61362,Bureau County,IL,92.73049645390071,NA,NA
61455,McDonough County,IL,NA,48.260013131976365,NA
61523,Peoria County,IL,NA,NA,54.53815261044177
61550,Tazewell County,IL,NA,52.39658568614577,NA
61568,Tazewell County,IL,99.64539007092199,NA,NA
61603,Peoria County,IL,NA,56.861457649376234,NA
61607,Peoria County,IL,NA,NA,56.46586345381526
61615,Peoria County,IL,NA,NA,70.2008032128514
61701,McLean County,IL,NA,20.026263952724886,NA
61704,McLean County,IL,56.205673758865245,NA,NA
61820,Champaign County,IL,NA,59.94747209455022,NA
62025,Madison County,IL,NA,29.743926460932368,NA
62205,St. Clair County,IL,NA,NA,74.85943775100402
62220,St. Clair County,IL,NA,53.70978332239002,NA
62226,St. Clair County,IL,NA,NA,66.26506024096386
62301,Adams County,IL,NA,NA,44.33734939759036
62454,Crawford County,IL,NA,NA,92.85140562248996
62526,Macon County,IL,NA,NA,2.570281124497992
62650,Morgan County,IL,NA,68.22061720288903,NA
62675,Menard County,IL,NA,88.11556139198949,NA
62703,Sangamon County,IL,NA,20.223243598161524,NA
62704,Sangamon County,IL,NA,48.522652659225216,NA
62948,Williamson County,IL,NA,73.21076822061721,NA
46001,Madison County,IN,NA,NA,71.4859437751004
46011,Madison County,IN,NA,14.313854235062376,NA
46016,Madison County,IN,NA,NA,29.397590361445786
46036,Madison County,IN,46.27659574468085,NA,NA
46037,Hamilton County,IN,76.95035460992908,NA,NA
46062,Hamilton County,IN,NA,37.36047275114905,NA
46112,Hendricks County,IN,NA,NA,21.526104417670684
46113,Marion County,IN,NA,81.15561391989495,NA
46135,Putnam County,IN,NA,45.83059750492449,NA
46158,Morgan County,IN,NA,NA,62.088353413654616
46167,Hendricks County,IN,NA,94.48456992777413,NA
46176,Shelby County,IN,NA,NA,4.497991967871486
46203,Marion County,IN,NA,9.652002626395273,NA
46218,Marion County,IN,6.5602836879432624,NA,NA
46219,Marion County,IN,NA,NA,8.433734939759036
46222,Marion County,IN,NA,46.74983585029547,NA
46224,Marion County,IN,NA,NA,83.05220883534136
46228,Marion County,IN,NA,88.1812212738017,NA
46234,Marion County,IN,NA,35.19369665134603,NA
46236,Marion County,IN,NA,34.66841759684833,NA
46256,Marion County,IN,NA,74.58962573867367,NA
46304,Porter County,IN,NA,54.82600131319764,NA
46307,Lake County,IN,NA,NA,1.0441767068273093
46310,Jasper County,IN,NA,41.89100459619173,65.94377510040161
46319,Lake County,IN,NA,73.53906762967827,NA
46322,Lake County,IN,NA,NA,7.951807228915662
46323,Lake County,IN,NA,NA,98.55421686746988
46350,LaPorte County,IN,NA,25.279054497701903,NA
46360,LaPorte County,IN,33.33333333333333,NA,NA
46366,Starke County,IN,67.73049645390071,NA,NA
46368,Porter County,IN,NA,NA,8.594377510040161
46406,Lake County,IN,48.226950354609926,NA,NA
46407,Lake County,IN,NA,81.22127380170716,NA
46530,St. Joseph County,IN,91.48936170212765,NA,NA
46563,Marshall County,IN,NA,59.81615233092581,NA
46615,St. Joseph County,IN,NA,NA,89.71887550200803
46619,St. Joseph County,IN,68.97163120567376,NA,NA
46628,St. Joseph County,IN,NA,NA,79.83935742971887
46706,DeKalb County,IN,NA,76.55942219304005,85.3012048192771
46710,Noble County,IN,NA,99.0151017728168,NA
46714,Wells County,IN,NA,NA,93.73493975903614
46795,LaGrange County,IN,NA,88.04990151017729,NA
46806,Allen County,IN,20.0354609929078,NA,NA
46809,Allen County,IN,41.312056737588655,NA,NA
46819,Allen County,IN,NA,93.827971109652,NA
46902,Howard County,IN,NA,44.583059750492446,NA
46947,Cass County,IN,NA,8.273145108338804,NA
47018,Dearborn County,IN,NA,99.93434011818779,NA
47040,Ohio County,IN,NA,92.90873276428103,NA
47374,Wayne County,IN,NA,NA,0.321285140562249
47404,Monroe County,IN,NA,NA,64.33734939759036
47462,Lawrence County,IN,NA,98.55548260013131,NA
47591,Knox County,IN,NA,17.596848325673015,NA
47601,Warrick County,IN,NA,NA,30.843373493975907
47610,Warrick County,IN,NA,NA,99.43775100401606
47710,Vanderburgh County,IN,NA,NA,33.4136546184739
47712,Vanderburgh County,IN,NA,58.63427445830598,NA
47714,Vanderburgh County,IN,9.219858156028367,55.61391989494419,NA
47882,Sullivan County,IN,NA,59.684832567301385,NA
50023,Polk County,IA,NA,NA,96.46586345381526
50111,Polk County,IA,97.69503546099291,NA,NA
50125,Warren County,IA,NA,NA,80.64257028112449
50248,Story County,IA,NA,NA,90.04016064257027
50316,Polk County,IA,85.63829787234043,NA,NA
50317,Polk County,IA,7.801418439716312,NA,NA
50325,Polk County,IA,NA,96.913985554826,NA
50401,Cerro Gordo County,IA,NA,6.500328299409061,NA
50461,Mitchell County,IA,NA,73.07944845699278,NA
50511,Kossuth County,IA,83.33333333333334,NA,53.89558232931727
52001,Dubuque County,IA,NA,16.152330925804335,NA
52057,Delaware County,IA,NA,64.28102429415628,NA
52240,Johnson County,IA,NA,NA,85.94377510040161
52405,Linn County,IA,NA,NA,30.281124497991968
52501,Wapello County,IA,9.574468085106384,NA,20.562248995983936
52537,Davis County,IA,NA,90.41365725541694,NA
52632,Lee County,IA,NA,NA,92.53012048192771
52641,Henry County,IA,NA,94.74720945502298,NA
52761,Muscatine County,IA,7.624113475177305,NA,NA
66046,Douglas County,KS,NA,NA,77.34939759036145
66047,Douglas County,KS,99.11347517730496,NA,NA
66048,Leavenworth County,KS,48.93617021276596,NA,NA
66061,Johnson County,KS,67.37588652482269,64.54366382140512,NA
66062,Johnson County,KS,NA,64.74064346684176,41.12449799196787
66071,Miami County,KS,NA,NA,60.6425702811245
66083,Johnson County,KS,NA,90.15101772816809,NA
66104,Wyandotte County,KS,NA,30.597504924491137,NA
66109,Wyandotte County,KS,NA,NA,21.686746987951807
66202,Johnson County,KS,NA,48.65397242284964,NA
66204,Johnson County,KS,NA,NA,48.674698795180724
66206,Johnson County,KS,NA,NA,59.75903614457832
66215,Johnson County,KS,NA,NA,27.951807228915666
66216,Johnson County,KS,NA,42.61326329612607,NA
66219,Johnson County,KS,NA,91.98949441891004,NA
66221,Johnson County,KS,NA,84.37294812869337,NA
66224,Johnson County,KS,NA,93.56533158240316,NA
66226,Johnson County,KS,NA,99.60604070912672,NA
66609,Shawnee County,KS,NA,73.01378857518056,NA
66762,Crawford County,KS,NA,NA,72.93172690763052
66901,Cloud County,KS,NA,78.8575180564675,NA
67207,Sedgwick County,KS,NA,NA,65.62248995983936
67217,Sedgwick County,KS,NA,NA,53.17269076305221
67218,Sedgwick County,KS,60.46099290780141,NA,NA
67226,Sedgwick County,KS,NA,86.08010505581089,NA
67401,Saline County,KS,NA,NA,90.8433734939759
67410,Dickinson County,KS,NA,NA,53.17269076305221
67456,McPherson County,KS,NA,58.76559422193039,NA
67530,Barton County,KS,93.97163120567376,NA,NA
67601,Ellis County,KS,73.22695035460993,NA,NA
40031,Oldham County,KY,NA,92.12081418253447,NA
40059,Jefferson County,KY,NA,96.19172685489166,NA
40065,Shelby County,KY,NA,81.81221273801708,NA
40118,Jefferson County,KY,NA,99.73736047275115,NA
40203,Jefferson County,KY,NA,72.75114904793172,NA
40204,Jefferson County,KY,NA,NA,88.83534136546186
40207,Jefferson County,KY,NA,68.41759684832567,92.04819277108433
40210,Jefferson County,KY,NA,41.7596848325673,NA
40212,Jefferson County,KY,18.97163120567376,NA,80.72289156626506
40213,Jefferson County,KY,NA,33.4865397242285,NA
40214,Jefferson County,KY,NA,35.653315824031516,NA
40215,Jefferson County,KY,36.702127659574465,NA,NA
40216,Jefferson County,KY,NA,NA,7.630522088353414
40218,Jefferson County,KY,NA,NA,44.257028112449795
40229,Jefferson County,KY,30.49645390070922,NA,74.53815261044177
40272,Jefferson County,KY,NA,11.227839789888378,NA
40291,Jefferson County,KY,NA,NA,80.80321285140563
40299,Jefferson County,KY,NA,15.10177281680893,NA
40403,Madison County,KY,NA,28.49638870650033,NA
40409,Rockcastle County,KY,NA,98.9494418910046,NA
40515,Fayette County,KY,NA,37.49179251477347,NA
40517,Fayette County,KY,NA,NA,32.53012048192771
40977,Bell County,KY,NA,NA,56.46586345381526
41011,Kenton County,KY,NA,18.581746552856202,NA
41018,Kenton County,KY,NA,61.65462902166776,NA
41042,Boone County,KY,NA,4.727511490479317,NA
41071,Campbell County,KY,NA,69.33683519369666,NA
41074,Campbell County,KY,NA,98.09586342744583,NA
41097,Grant County,KY,NA,97.50492449113591,NA
41101,Boyd County,KY,NA,12.409717662508207,NA
41169,Greenup County,KY,NA,63.03348653972422,NA
41240,Johnson County,KY,41.13475177304964,NA,NA
41501,Pike County,KY,NA,33.15824031516743,NA
41514,Pike County,KY,NA,93.23703217334209,NA
41653,Floyd County,KY,NA,NA,26.265060240963855
42025,Marshall County,KY,NA,74.19566644780039,NA
42066,Graves County,KY,NA,NA,24.096385542168676
42129,Metcalfe County,KY,NA,84.89822718319107,NA
42220,Todd County,KY,NA,86.93368351936967,NA
42240,Christian County,KY,45.39007092198582,NA,NA
42330,Muhlenberg County,KY,NA,88.37820091923835,NA
42539,Casey County,KY,NA,NA,59.036144578313255
42544,Pulaski County,KY,NA,62.311227839789886,NA
42602,Clinton County,KY,NA,NA,66.18473895582329
42718,Taylor County,KY,77.12765957446808,NA,NA
42749,Hart County,KY,NA,NA,84.73895582329317
70003,Jefferson Parish,LA,NA,66.51346027577151,NA
70005,Jefferson Parish,LA,NA,NA,24.819277108433734
70053,Jefferson Parish,LA,59.75177304964539,NA,NA
70070,St. Charles Parish,LA,NA,76.36244254760342,NA
70072,Jefferson Parish,LA,NA,14.773473407747867,NA
70090,St. James Parish,LA,NA,61.78594878529219,NA
70114,Orleans Parish,LA,NA,24.03151674326986,NA
70117,Orleans Parish,LA,NA,38.017071569271174,NA
70122,Orleans Parish,LA,17.5531914893617,NA,11.004016064257028
70123,Jefferson Parish,LA,NA,39.78988837820092,NA
70364,Terrebonne Parish,LA,NA,16.54629021667761,NA
70373,Lafourche Parish,LA,NA,48.588312541037425,NA
70392,St. Mary Parish,LA,NA,56.99277741300066,NA
70394,Lafourche Parish,LA,NA,NA,22.248995983935743
70426,Washington Parish,LA,NA,74.917925147734735,NA
70427,Washington Parish,LA,10.460992907801419,NA,NA
70435,St. Tammany Parish,LA,NA,38.1483913328956,NA
70438,Washington Parish,LA,NA,9.848982271831911,NA
70458,St. Tammany Parish,LA,NA,NA,6.184738955823294
70471,St. Tammany Parish,LA,NA,14.051214707813525,11.405622489959839
70548,Vermilion Parish,LA,NA,NA,48.27309236947791
70601,Calcasieu Parish,LA,NA,NA,67.38955823293172
70726,Livingston Parish,LA,0.5319148936170213,NA,NA
70760,Pointe Coupee Parish,LA,58.687943262411345,70.97833223900197,NA
70809,East Baton Rouge Parish,LA,NA,NA,27.389558232931726
70814,East Baton Rouge Parish,LA,NA,86.73670387393302,63.93574297188756
70816,East Baton Rouge Parish,LA,NA,NA,25.702811244979916
70818,East Baton Rouge Parish,LA,NA,80.4333552199606,NA
71075,Webster Parish,LA,NA,63.9527248850952,NA
71104,Caddo Parish,LA,NA,77.21602101116218,NA
71106,Caddo Parish,LA,NA,NA,38.393574297188756
71111,Bossier Parish,LA,NA,33.28956007879186,NA
71119,Caddo Parish,LA,NA,NA,78.15261044176707
71225,Ouachita Parish,LA,78.72340425531915,NA,NA
71270,Lincoln Parish,LA,NA,44.3204202232436,NA
71291,Ouachita Parish,LA,NA,NA,15.180722891566264
71301,Rapides Parish,LA,NA,24.49113591595535,NA
71457,Natchitoches Parish,LA,NA,NA,24.2570281124498
03908,York County,ME,NA,42.15364412344058,NA
04002,York County,ME,NA,77.01904136572554,NA
04062,Cumberland County,ME,NA,NA,58.152610441767074
04064,York County,ME,NA,NA,23.052208835341364
04072,York County,ME,NA,12.606697307944845,NA
04092,Cumberland County,ME,NA,19.304005252790546,NA
04096,Cumberland County,ME,NA,NA,57.91164658634538
04106,Cumberland County,ME,NA,25.08207485226527,NA
04240,Androscoggin County,ME,NA,12.47537754432042,NA
04401,Penobscot County,ME,NA,68.35193696651346,0.24096385542168677
04429,Penobscot County,ME,NA,67.62967826657912,NA
04609,Hancock County,ME,NA,NA,71.4859437751004
04742,Aroostook County,ME,NA,49.90151017728168,NA
04937,Somerset County,ME,NA,NA,63.212851405622494
20601,Charles County,MD,NA,NA,85.14056224899599
20602,Charles County,MD,NA,NA,73.09236947791165
20723,Howard County,MD,NA,NA,82.24899598393574
20746,Prince George's County,MD,47.695035460992905,NA,91.96787148594377
20774,Prince George's County,MD,NA,58.10899540380827,NA
20777,Howard County,MD,100,NA,NA
20784,Prince George's County,MD,NA,59.09389363099147,NA
20817,Montgomery County,MD,90.78014184397163,NA,NA
20901,Montgomery County,MD,NA,NA,71.08433734939759
20905,Montgomery County,MD,NA,NA,68.35341365461848
20906,Montgomery County,MD,NA,NA,72.61044176706827
21035,Anne Arundel County,MD,NA,96.25738673670388,NA
21037,Anne Arundel County,MD,NA,54.23506237688772,NA
21042,Howard County,MD,55.14184397163121,NA,NA
21043,Howard County,MD,NA,NA,69.1566265060241
21050,Harford County,MD,NA,56.13919894944189,NA
21061,Anne Arundel County,MD,6.73758865248227,18.45042678923178,14.93975903614458
21076,Anne Arundel County,MD,NA,73.93302692055155,NA
21102,Carroll County,MD,NA,NA,98.714859437751
21104,Carroll County,MD,NA,NA,96.94779116465864
21117,Baltimore County,MD,NA,17.531188443860803,NA
21122,Anne Arundel County,MD,NA,9.32370321733421,NA
21128,Baltimore County,MD,NA,NA,51.40562248995983
21133,Baltimore County,MD,42.5531914893617,NA,NA
21136,Baltimore County,MD,NA,35.32501641497045,NA
21144,Anne Arundel County,MD,NA,69.73079448456993,NA
21146,Anne Arundel County,MD,NA,NA,48.75502008032129
21204,Baltimore County,MD,NA,NA,70.68273092369478
21210,Baltimore city,MD,NA,79.31713722915299,NA
21216,Baltimore city,MD,NA,43.13854235062377,NA
21221,Baltimore County,MD,14.00709219858156,NA,NA
21222,Baltimore County,MD,16.48936170212766,NA,NA
21223,Baltimore city,MD,25.70921985815603,NA,53.57429718875502
21227,Baltimore County,MD,NA,NA,21.204819277108435
21229,Baltimore city,MD,NA,41.103086014445175,14.377510040160644
21230,Baltimore city,MD,NA,37.22915298752462,NA
21234,Baltimore County,MD,NA,NA,19.3574297188755
21401,Anne Arundel County,MD,18.79432624113475,NA,60
21403,Anne Arundel County,MD,NA,60.73539067629679,NA
21532,Allegany County,MD,NA,NA,57.75100401606426
21601,Talbot County,MD,NA,NA,23.93574297188755
21643,Dorchester County,MD,NA,NA,82.9718875502008
21701,Frederick County,MD,NA,88.70650032829941,NA
21702,Frederick County,MD,NA,NA,79.59839357429719
21740,Washington County,MD,NA,45.76493762311228,NA
21771,Frederick County,MD,NA,NA,91.16465863453816
21774,Frederick County,MD,NA,NA,96.06425702811245
21784,Carroll County,MD,NA,NA,35.903614457831324
21791,Carroll County,MD,NA,NA,90.92369477911647
21801,Wicomico County,MD,NA,44.38608010505581,NA
01001,Hampden County,MA,NA,99.27774130006566,NA
01027,Hampshire County,MA,NA,NA,93.25301204819277
01104,Hampden County,MA,NA,NA,1.285140562248996
01109,Hampden County,MA,NA,26.132632961260672,NA
01118,Hampden County,MA,NA,42.875902823374915,NA
01331,Worcester County,MA,NA,NA,25.863453815261046
01469,Middlesex County,MA,61.702127659574465,NA,NA
01505,Worcester County,MA,NA,NA,91.32530120481928
01532,Worcester County,MA,NA,NA,40.321285140562246
01545,Worcester County,MA,NA,10.833880499015102,NA
01550,Worcester County,MA,NA,84.5042678923178,NA
01568,Worcester County,MA,NA,NA,99.75903614457832
01588,Worcester County,MA,NA,27.77413000656599,NA
01604,Worcester County,MA,NA,NA,0.9638554216867471
01605,Worcester County,MA,NA,42.481943532501646,NA
01609,Worcester County,MA,NA,66.71043992120815,NA
01610,Worcester County,MA,NA,2.8890347997373604,NA
01701,Middlesex County,MA,NA,5.055810899540381,NA
01778,Middlesex County,MA,NA,33.4865397242285,NA
01801,Middlesex County,MA,NA,0.7222586999343401,43.77510040160642
01803,Middlesex County,MA,NA,NA,51.16465863453815
01826,Middlesex County,MA,NA,30.137885751805648,NA
01832,Essex County,MA,NA,7.288246881155613,NA
01854,Middlesex County,MA,NA,NA,2.891566265060241
01876,Middlesex County,MA,NA,1.9041365725541695,NA
01887,Middlesex County,MA,NA,NA,15.502008032128515
01890,Middlesex County,MA,NA,NA,33.01204819277108
01902,Essex County,MA,NA,78.66053841103086,NA
01905,Essex County,MA,NA,5.252790544977019,NA
01913,Essex County,MA,NA,NA,88.67469879518072
01915,Essex County,MA,NA,NA,42.329317269076306
01923,Essex County,MA,NA,4.005252790544977,25.381526104417674
01950,Essex County,MA,NA,NA,13.012048192771083
01960,Essex County,MA,NA,NA,1.2048192771084338
02052,Norfolk County,MA,NA,NA,89.23694779116465
02118,Suffolk County,MA,NA,4.661851608667105,NA
02119,Suffolk County,MA,NA,0.06565988181221273,1.5261044176706828
02125,Suffolk County,MA,NA,NA,68.59437751004016
02126,Suffolk County,MA,NA,2.954694681549573,11.967871485943775
02130,Suffolk County,MA,NA,10.3086014445174,NA
02135,Suffolk County,MA,NA,NA,33.33333333333333
02140,Middlesex County,MA,NA,7.944845699277741,NA
02148,Middlesex County,MA,NA,0.13131976362442546,NA
02151,Suffolk County,MA,40.0709219858156,1.1818778726198294,NA
02152,Suffolk County,MA,NA,75.31188443860802,NA
02155,Middlesex County,MA,NA,NA,0.1606425702811245
02169,Norfolk County,MA,14.361702127659576,4.136572554169402,NA
02170,Norfolk County,MA,NA,NA,74.85943775100402
02171,Norfolk County,MA,22.872340425531913,NA,29.156626506024097
02180,Middlesex County,MA,NA,95.00984898227183,NA
02184,Norfolk County,MA,NA,NA,5.220883534136546
02186,Norfolk County,MA,9.397163120567376,NA,NA
02190,Norfolk County,MA,NA,69.73079448456993,NA
02191,Norfolk County,MA,NA,NA,58.87550200803213
02301,Plymouth County,MA,NA,1.772816808929744,NA
02330,Plymouth County,MA,95.56737588652481,NA,NA
02333,Plymouth County,MA,96.80851063829788,NA,NA
02341,Plymouth County,MA,NA,63.9527248850952,NA
02343,Norfolk County,MA,NA,96.78266579120157,NA
02346,Plymouth County,MA,NA,59.487852921864736,NA
02360,Plymouth County,MA,NA,20.748522652659226,NA
02368,Norfolk County,MA,NA,3.742613263296126,NA
02420,Middlesex County,MA,54.07801418439716,NA,NA
02421,Middlesex County,MA,NA,NA,82.570281124498
02446,Norfolk County,MA,67.02127659574468,NA,NA
02465,Middlesex County,MA,NA,NA,30.44176706827309
02466,Middlesex County,MA,NA,92.12081418253447,NA
02467,Norfolk County,MA,98.93617021276596,NA,NA
02476,Middlesex County,MA,NA,79.84241628365069,29.076305220883537
02481,Norfolk County,MA,41.66666666666667,86.47406434668417,NA
02536,Barnstable County,MA,NA,NA,52.69076305220884
02540,Barnstable County,MA,NA,NA,95.66265060240964
02631,Barnstable County,MA,NA,NA,58.63453815261044
02638,Barnstable County,MA,NA,90.93893630991464,69.71887550200803
02639,Barnstable County,MA,NA,NA,57.188755020080315
02642,Barnstable County,MA,NA,NA,68.75502008032129
02649,Barnstable County,MA,28.191489361702125,NA,NA
02653,Barnstable County,MA,NA,NA,37.028112449799195
02720,Bristol County,MA,NA,66.31648063033487,NA
02723,Bristol County,MA,NA,18.25344714379514,19.598393574297187
02740,Bristol County,MA,0,0.1969796454366382,0
02743,Bristol County,MA,NA,NA,83.77510040160642
02744,Bristol County,MA,NA,89.16611950098489,NA
02745,Bristol County,MA,1.0638297872340425,NA,NA
02770,Plymouth County,MA,NA,NA,100
48033,Oakland County,MI,NA,50.42678923177938,NA
48036,Macomb County,MI,NA,19.107025607353904,NA
48042,Macomb County,MI,NA,NA,19.03614457831325
48047,Macomb County,MI,NA,NA,22.40963855421687
48060,St. Clair County,MI,1.773049645390071,NA,NA
48065,Macomb County,MI,NA,NA,47.791164658634536
48066,Macomb County,MI,NA,26.001313197636243,NA
48072,Oakland County,MI,NA,NA,41.68674698795181
48073,Oakland County,MI,22.163120567375884,NA,NA
48080,Macomb County,MI,NA,9.717662508207486,17.10843373493976
48083,Oakland County,MI,NA,NA,24.57831325301205
48091,Macomb County,MI,46.09929078014184,NA,NA
48098,Oakland County,MI,NA,NA,68.11244979919678
48103,Washtenaw County,MI,NA,1.1162179908076166,NA
48111,Wayne County,MI,NA,4.202232435981615,NA
48114,Livingston County,MI,NA,18.975705843729482,NA
48116,Livingston County,MI,NA,NA,51.00401606425703
48127,Wayne County,MI,45.21276595744681,12.934996717005909,4.016064257028113
48128,Wayne County,MI,NA,NA,84.65863453815261
48134,Wayne County,MI,73.40425531914893,NA,NA
48138,Wayne County,MI,NA,NA,30.602409638554217
48141,Wayne County,MI,NA,11.162179908076165,NA
48146,Wayne County,MI,NA,10.439921208141826,17.269076305220885
48150,Wayne County,MI,NA,14.182534471437952,NA
48154,Wayne County,MI,NA,52.72488509520683,3.0522088353413657
48158,Washtenaw County,MI,NA,85.09520682862771,NA
48166,Monroe County,MI,NA,26.06697307944846,NA
48169,Livingston County,MI,NA,NA,72.77108433734941
48176,Washtenaw County,MI,NA,NA,15.341365461847388
48180,Wayne County,MI,1.2411347517730498,1.3131976362442548,NA
48183,Wayne County,MI,NA,4.267892317793828,NA
48186,Wayne County,MI,4.078014184397164,NA,NA
48187,Wayne County,MI,NA,27.905449770190415,NA
48191,Washtenaw County,MI,NA,79.51411687458962,NA
48195,Wayne County,MI,NA,6.894287590282337,NA
48197,Washtenaw County,MI,NA,1.4445173998686802,NA
48203,Wayne County,MI,NA,42.547603414313855,NA
48206,Wayne County,MI,NA,20.15758371634931,NA
48209,Wayne County,MI,NA,NA,97.6706827309237
48212,Wayne County,MI,6.914893617021277,49.376231122783985,52.77108433734939
48214,Wayne County,MI,NA,NA,28.273092369477908
48223,Wayne County,MI,NA,27.11753118844386,NA
48227,Wayne County,MI,NA,25.738673670387392,NA
48228,Wayne County,MI,NA,81.68089297439265,NA
48238,Wayne County,MI,NA,NA,22.570281124497992
48307,Oakland County,MI,NA,NA,36.22489959839357
48314,Macomb County,MI,NA,NA,46.82730923694779
48317,Macomb County,MI,15.602836879432624,13.131976362442549,NA
48328,Oakland County,MI,NA,48.325673013788574,NA
48335,Oakland County,MI,NA,NA,23.694779116465863
48342,Oakland County,MI,NA,25.673013788575183,67.55020080321286
48346,Oakland County,MI,NA,NA,31.16465863453815
48350,Oakland County,MI,NA,69.27117531188443,NA
48356,Oakland County,MI,NA,69.92777413000657,NA
48420,Genesee County,MI,87.41134751773049,NA,NA
48429,Shiawassee County,MI,NA,51.346027577150366,NA
48430,Genesee County,MI,NA,13.263296126066972,NA
48455,Lapeer County,MI,NA,55.87655942219304,NA
48457,Genesee County,MI,NA,88.50952068286277,NA
48507,Genesee County,MI,NA,22.193040052527905,NA
48602,Saginaw County,MI,13.120567375886525,NA,NA
48623,Saginaw County,MI,32.269503546099294,NA,NA
48631,Bay County,MI,NA,60.341431385423505,NA
48632,Clare County,MI,NA,NA,69.31726907630522
48642,Midland County,MI,NA,5.187130663164806,NA
48661,Ogemaw County,MI,NA,97.11096520026264,NA
48708,Bay County,MI,NA,5.449770190413657,NA
48756,Ogemaw County,MI,NA,63.493105712409715,NA
48820,Clinton County,MI,NA,NA,82.16867469879519
48836,Livingston County,MI,NA,67.17005909389363,NA
48842,Ingham County,MI,28.900709219858157,NA,NA
48858,Isabella County,MI,19.680851063829788,NA,59.43775100401606
48876,Eaton County,MI,90.24822695035462,NA,NA
49004,Kalamazoo County,MI,NA,NA,71.96787148594377
49009,Kalamazoo County,MI,NA,5.712409717662508,NA
49014,Calhoun County,MI,12.588652482269502,NA,NA
49017,Calhoun County,MI,NA,78.98883782009193,NA
49021,Eaton County,MI,NA,NA,94.85943775100402
49024,Kalamazoo County,MI,NA,14.64215364412344,NA
49047,Cass County,MI,NA,NA,52.44979919678715
49079,Van Buren County,MI,NA,NA,76.947791164658625
49090,Van Buren County,MI,NA,89.23177938279711,NA
49201,Jackson County,MI,NA,NA,4.337349397590361
49203,Jackson County,MI,NA,NA,4.578313253012048
49250,Hillsdale County,MI,62.943262411347526,NA,NA
49253,Lenawee County,MI,96.09929078014184,NA,NA
49301,Kent County,MI,53.36879432624113,NA,NA
49304,Lake County,MI,NA,80.10505581089954,NA
49345,Kent County,MI,NA,NA,63.614457831325296
49426,Ottawa County,MI,NA,NA,95.34136546184739
49445,Muskegon County,MI,NA,41.103086014445175,NA
49460,Ottawa County,MI,NA,64.9376231122784,NA
49504,Kent County,MI,NA,NA,5.381526104417671
49505,Kent County,MI,NA,17.334208798424164,NA
49525,Kent County,MI,NA,60.21011162179908,NA
49546,Kent County,MI,NA,NA,33.97590361445783
49548,Kent County,MI,NA,9.58634274458306,NA
49615,Antrim County,MI,NA,NA,95.42168674698796
49682,Leelanau County,MI,NA,NA,97.34939759036145
49684,Grand Traverse County,MI,NA,NA,15.7429718875502
49720,Charlevoix County,MI,NA,NA,39.437751004016064
49721,Cheboygan County,MI,NA,71.37229152987524,NA
49735,Otsego County,MI,NA,NA,75.50200803212851
49738,Crawford County,MI,NA,NA,90.20080321285141
49749,Cheboygan County,MI,NA,NA,68.03212851405623
49770,Emmet County,MI,NA,NA,69.63855421686746
49802,Dickinson County,MI,NA,NA,81.20481927710843
49935,Iron County,MI,NA,77.60998030203545,NA
55038,Washington County,MN,NA,NA,84.8995983935743
55042,Washington County,MN,NA,95.60078791858174,NA
55060,Steele County,MN,28.01418439716312,NA,NA
55066,Goodhue County,MN,NA,NA,49.63855421686747
55076,Dakota County,MN,NA,NA,79.91967871485943
55082,Washington County,MN,NA,88.90347997373604,34.21686746987952
55102,Ramsey County,MN,22.5177304964539,NA,NA
55104,Ramsey County,MN,NA,NA,34.53815261044177
55109,Ramsey County,MN,NA,81.35259356533159,20.240963855421686
55112,Ramsey County,MN,NA,17.662508207485224,NA
55113,Ramsey County,MN,NA,60.669730794484565,NA
55116,Ramsey County,MN,NA,43.33552199606041,NA
55119,Ramsey County,MN,NA,22.52133946158897,28.433734939759038
55125,Washington County,MN,NA,NA,74.61847389558233
55127,Ramsey County,MN,51.41843971631206,NA,NA
55130,Ramsey County,MN,NA,84.96388706500329,NA
55303,Anoka County,MN,12.056737588652481,NA,NA
55304,Anoka County,MN,NA,NA,51.88755020080321
55313,Wright County,MN,92.19858156028369,NA,NA
55343,Hennepin County,MN,NA,NA,29.71887550200803
55344,Hennepin County,MN,NA,93.10571240971767,NA
55379,Scott County,MN,NA,NA,97.0281124497992
55387,Carver County,MN,NA,94.68154957321076,NA
55404,Hennepin County,MN,NA,2.1011162179908074,NA
55420,Hennepin County,MN,NA,70.12475377544321,NA
55428,Hennepin County,MN,NA,50.75508864084045,NA
55429,Hennepin County,MN,NA,27.839789888378203,NA
55433,Anoka County,MN,NA,NA,93.33333333333333
55444,Hennepin County,MN,NA,92.25213394615889,NA
55446,Hennepin County,MN,NA,71.83191070256073,NA
55719,St. Louis County,MN,NA,NA,70.12048192771084
55810,St. Louis County,MN,79.60992907801419,NA,NA
55811,St. Louis County,MN,NA,37.163493105712405,NA
55901,Olmsted County,MN,NA,18.056467498358504,NA
55902,Olmsted County,MN,NA,NA,86.50602409638554
55904,Olmsted County,MN,NA,25.869993434011818,NA
55912,Mower County,MN,NA,NA,4.257028112449799
55987,Winona County,MN,NA,2.3637557452396587,0.5622489959839357
56003,Nicollet County,MN,NA,98.22718319107025,NA
56081,Watonwan County,MN,NA,NA,29.87951807228916
56093,Waseca County,MN,NA,NA,47.8714859437751
56101,Cottonwood County,MN,NA,NA,82.32931726907631
56187,Nobles County,MN,NA,55.54826001313198,NA
56201,Kandiyohi County,MN,NA,73.14510833880499,NA
56288,Kandiyohi County,MN,NA,NA,99.51807228915662
56345,Morrison County,MN,NA,54.497701904136576,NA
56352,Stearns County,MN,NA,NA,61.204819277108435
56560,Clay County,MN,NA,3.1516743269862113,NA
56649,Koochiching County,MN,NA,42.15364412344058,NA
56716,Polk County,MN,24.29078014184397,NA,NA
38637,DeSoto County,MS,NA,NA,53.975903614457835
38672,DeSoto County,MS,NA,NA,81.60642570281125
38676,Tunica County,MS,NA,89.42875902823376,NA
38701,Washington County,MS,NA,47.27511490479317,NA
38801,Lee County,MS,NA,34.73407747866054,NA
38804,Lee County,MS,58.156028368794324,NA,NA
38834,Alcorn County,MS,NA,44.78003939592909,NA
38852,Tishomingo County,MS,NA,47.53775443204202,NA
38858,Monroe County,MS,NA,98.4898227183191,NA
39051,Leake County,MS,NA,45.17399868680236,NA
39056,Hinds County,MS,NA,NA,42.730923694779115
39110,Madison County,MS,NA,NA,21.12449799196787
39154,Hinds County,MS,NA,77.8069599474721,NA
39175,Hinds County,MS,NA,NA,79.27710843373494
39180,Warren County,MS,NA,33.749179251477344,NA
39204,Hinds County,MS,58.51063829787234,NA,NA
39206,Hinds County,MS,NA,NA,94.05622489959839
39212,Hinds County,MS,NA,NA,62.570281124497996
39213,Hinds County,MS,NA,36.50689428759028,NA
39325,Lauderdale County,MS,NA,NA,90.92369477911647
39367,Wayne County,MS,NA,NA,65.62248995983936
39401,Forrest County,MS,NA,NA,21.365461847389557
39429,Marion County,MS,51.06382978723404,NA,47.06827309236948
39465,Forrest County,MS,NA,61.78594878529219,NA
39507,Harrison County,MS,NA,NA,7.389558232931727
39531,Harrison County,MS,56.38297872340425,NA,NA
39574,Harrison County,MS,NA,39.658568614576495,NA
39577,Stone County,MS,NA,72.42284963887064,NA
39648,Pike County,MS,NA,35.91595535128037,NA
39701,Lowndes County,MS,NA,NA,77.99196787148594
63020,Jefferson County,MO,NA,NA,38.31325301204819
63026,St. Louis County,MO,69.68085106382979,NA,NA
63038,St. Louis County,MO,NA,81.54957321076822,NA
63042,St. Louis County,MO,NA,NA,55.34136546184739
63043,St. Louis County,MO,NA,34.93105712409717,NA
63049,Jefferson County,MO,93.26241134751773,NA,NA
63080,Franklin County,MO,NA,NA,67.8714859437751
63084,Franklin County,MO,NA,66.84175968483257,30.923694779116467
63111,St. Louis city,MO,NA,NA,55.58232931726907
63112,St. Louis city,MO,NA,NA,49.31726907630522
63118,St. Louis city,MO,67.5531914893617,NA,NA
63120,St. Louis city,MO,NA,98.88378200919237,NA
63122,St. Louis County,MO,NA,16.08667104399212,6.024096385542169
63125,St. Louis County,MO,31.560283687943265,NA,NA
63129,St. Louis County,MO,NA,24.688115561391992,27.710843373493976
63130,St. Louis County,MO,NA,40.97176625082074,NA
63136,St. Louis County,MO,4.609929078014184,NA,NA
63137,St. Louis County,MO,NA,NA,90.68273092369478
63138,St. Louis County,MO,NA,NA,88.1124497991968
63144,St. Louis County,MO,NA,NA,85.70281124497991
63147,St. Louis city,MO,NA,NA,96.22489959839358
63301,St. Charles County,MO,8.865248226950355,NA,NA
63304,St. Charles County,MO,23.404255319148938,NA,NA
63366,St. Charles County,MO,NA,NA,28.915662650602407
63368,St. Charles County,MO,NA,NA,84.57831325301206
63379,Lincoln County,MO,NA,20.35456336178595,NA
63385,St. Charles County,MO,NA,9.061063690085359,NA
63628,St. Francois County,MO,NA,NA,51.325301204819276
63764,Bollinger County,MO,NA,NA,82.570281124498
63801,Scott County,MO,NA,64.08404464871963,NA
64012,Cass County,MO,NA,17.26854891661195,NA
64014,Jackson County,MO,38.297872340425535,22.718319107025607,88.43373493975903
64030,Jackson County,MO,11.879432624113475,11.818778726198293,NA
64040,Johnson County,MO,NA,NA,87.14859437751004
64064,Jackson County,MO,NA,61.195009848982274,NA
64081,Jackson County,MO,75.35460992907801,NA,NA
64082,Jackson County,MO,NA,81.87787261982929,NA
64083,Cass County,MO,NA,55.81089954038083,NA
64085,Ray County,MO,NA,NA,67.95180722891565
64086,Jackson County,MO,NA,NA,70.52208835341366
64118,Clay County,MO,32.801418439716315,NA,20.080321285140563
64119,Clay County,MO,NA,13.854235062376889,NA
64126,Jackson County,MO,NA,NA,99.67871485943776
64127,Jackson County,MO,NA,70.51871306631648,NA
64130,Jackson County,MO,NA,13.263296126066972,NA
64131,Jackson County,MO,9.75177304964539,NA,NA
64132,Jackson County,MO,NA,NA,63.85542168674698
64133,Jackson County,MO,NA,3.282994090610637,NA
64151,Platte County,MO,NA,11.29349967170059,37.911646586345384
64429,Clinton County,MO,NA,NA,86.90763052208835
64505,Buchanan County,MO,NA,NA,26.907630522088354
64506,Buchanan County,MO,NA,4.990151017728168,NA
64701,Cass County,MO,NA,44.12344057780696,NA
64836,Jasper County,MO,NA,19.63230466185161,10.441767068273093
64870,Jasper County,MO,33.687943262411345,NA,NA
65078,Morgan County,MO,NA,86.34274458305975,NA
65301,Pettis County,MO,NA,NA,78.3132530120482
65536,Laclede County,MO,NA,NA,18.152610441767067
65616,Taney County,MO,NA,68.68023637557452,NA
65704,Wright County,MO,NA,99.4747209455023,NA
65705,Lawrence County,MO,NA,NA,98.87550200803213
65708,Barry County,MO,NA,66.90741956664478,NA
65737,Stone County,MO,NA,89.36309914642153,NA
65802,Greene County,MO,NA,NA,13.815261044176708
65803,Greene County,MO,NA,8.601444517399868,72.53012048192771
65810,Greene County,MO,NA,92.58043335521997,NA
59047,Park County,MT,NA,76.62508207485227,NA
59330,Dawson County,MT,75.70921985815603,NA,NA
59701,Silver Bow County,MT,NA,NA,36.626506024096386
68025,Dodge County,NE,NA,NA,5.943775100401607
68046,Sarpy County,NE,NA,55.351280367695345,NA
68107,Douglas County,NE,NA,69.20551543007223,NA
68111,Douglas County,NE,NA,24.95075508864084,73.97590361445782
68117,Douglas County,NE,NA,76.2967826657912,NA
68506,Lancaster County,NE,NA,NA,27.791164658634536
68601,Platte County,NE,NA,NA,40.48192771084337
68801,Hall County,NE,NA,51.083388049901515,52.04819277108433
69101,Lincoln County,NE,NA,NA,8.032128514056225
69337,Dawes County,NE,NA,68.87721602101117,NA
89101,Clark County,NV,NA,47.209455022980954,NA
89107,Clark County,NV,36.87943262411347,NA,62.81124497991968
89119,Clark County,NV,14.539007092198581,NA,NA
89165,Clark County,NV,NA,95.92908732764282,NA
89178,Clark County,NV,NA,77.47866053841102,NA
89436,Washoe County,NV,NA,NA,32.69076305220884
89512,Washoe County,NV,11.170212765957446,NA,NA
89523,Washoe County,NV,NA,NA,39.91967871485944
03044,Rockingham County,NH,92.02127659574468,NA,NA
03049,Hillsborough County,NH,NA,54.038082731451084,NA
03257,Merrimack County,NH,98.04964539007092,NA,NA
03301,Merrimack County,NH,NA,31.18844386080105,2.3293172690763053
03446,Cheshire County,NH,NA,NA,98.0722891566265
03461,Cheshire County,NH,NA,96.97964543663822,NA
03820,Strafford County,NH,NA,NA,7.550200803212852
03833,Rockingham County,NH,NA,NA,52.53012048192771
03865,Rockingham County,NH,NA,53.38148391332895,NA
03874,Rockingham County,NH,35.1063829787234,NA,NA
07013,Passaic County,NJ,NA,NA,91.08433734939759
07016,Union County,NJ,NA,58.896913985554825,NA
07024,Bergen County,NJ,NA,NA,6.746987951807229
07031,Bergen County,NJ,85.99290780141844,78.3322390019698,NA
07032,Hudson County,NJ,NA,49.63887065003283,NA
07035,Morris County,NJ,NA,56.861457649376234,NA
07036,Union County,NJ,NA,37.6231122783979,53.333333333333336
07042,Essex County,NJ,NA,NA,36.385542168674704
07044,Essex County,NJ,NA,NA,66.10441767068274
07047,Hudson County,NJ,NA,20.6172028890348,NA
07052,Essex County,NJ,10.106382978723403,NA,NA
07055,Passaic County,NJ,NA,2.4294156270518714,NA
07062,Union County,NJ,NA,NA,95.90361445783132
07068,Essex County,NJ,NA,NA,96.78714859437751
07078,Essex County,NJ,NA,NA,97.91164658634538
07083,Union County,NJ,NA,74.45830597504924,NA
07093,Hudson County,NJ,62.056737588652474,NA,3.3734939759036147
07110,Essex County,NJ,NA,92.51477347340776,NA
07111,Essex County,NJ,5.319148936170213,NA,NA
07203,Union County,NJ,NA,NA,73.89558232931726
07304,Hudson County,NJ,NA,18.844386080105053,NA
07305,Hudson County,NJ,NA,38.67367038739331,NA
07407,Bergen County,NJ,NA,42.810242941562706,NA
07410,Bergen County,NJ,NA,61.58896913985554,54.37751004016064
07420,Passaic County,NJ,NA,NA,77.91164658634538
07430,Bergen County,NJ,NA,37.03217334208798,NA
07444,Morris County,NJ,NA,77.28168089297439,NA
07465,Passaic County,NJ,NA,NA,72.85140562248996
07470,Passaic County,NJ,NA,44.64871963230466,3.132530120481928
07508,Passaic County,NJ,NA,NA,39.75903614457831
07514,Passaic County,NJ,65.24822695035462,NA,NA
07522,Passaic County,NJ,NA,21.733420879842416,NA
07605,Bergen County,NJ,NA,NA,86.10441767068274
07627,Bergen County,NJ,NA,98.29284307288248,NA
07628,Bergen County,NJ,NA,NA,64.01606425702812
07645,Bergen County,NJ,92.5531914893617,NA,NA
07652,Bergen County,NJ,NA,60.866710439921214,31.244979919678716
07666,Bergen County,NJ,NA,NA,9.317269076305221
07701,Monmouth County,NJ,NA,NA,36.30522088353413
07702,Monmouth County,NJ,NA,98.16152330925804,NA
07712,Monmouth County,NJ,NA,NA,17.349397590361445
07716,Monmouth County,NJ,NA,75.70584372948129,NA
07726,Monmouth County,NJ,NA,NA,70.68273092369478
07739,Monmouth County,NJ,NA,NA,90.12048192771084
07748,Monmouth County,NJ,21.98581560283688,NA,NA
07753,Monmouth County,NJ,NA,6.434668417596848,6.666666666666667
07876,Morris County,NJ,NA,98.4241628365069,NA
07885,Morris County,NJ,86.34751773049646,NA,NA
07960,Morris County,NJ,NA,41.03742613263296,NA
08002,Camden County,NJ,NA,NA,26.827309236947794
08003,Camden County,NJ,NA,NA,13.092369477911648
08009,Camden County,NJ,NA,NA,91.72690763052209
08012,Camden County,NJ,3.723404255319149,52.13394615889692,28.674698795180724
08021,Camden County,NJ,NA,NA,22.971887550200805
08028,Gloucester County,NJ,64.53900709219859,NA,NA
08034,Camden County,NJ,NA,31.254103742613264,NA
08048,Burlington County,NJ,NA,88.50952068286277,NA
08051,Gloucester County,NJ,NA,81.74655285620486,NA
08052,Burlington County,NJ,NA,NA,72.69076305220884
08054,Burlington County,NJ,16.843971631205672,NA,NA
08060,Burlington County,NJ,NA,NA,61.52610441767068
08081,Camden County,NJ,NA,NA,52.610441767068274
08085,Gloucester County,NJ,59.04255319148937,NA,NA
08091,Camden County,NJ,NA,NA,98.3132530120482
08096,Gloucester County,NJ,3.1914893617021276,NA,NA
08108,Camden County,NJ,NA,40.05252790544977,NA
08110,Camden County,NJ,NA,44.71437951411688,NA
08226,Cape May County,NJ,NA,67.69533814839134,NA
08230,Cape May County,NJ,91.31205673758865,NA,NA
08234,Atlantic County,NJ,NA,9.258043335521995,NA
08260,Cape May County,NJ,NA,NA,46.74698795180723
08302,Cumberland County,NJ,NA,7.2225869993434015,18.152610441767067
08360,Cumberland County,NJ,NA,55.1543007222587,NA
08505,Burlington County,NJ,NA,41.89100459619173,NA
08527,Ocean County,NJ,NA,NA,41.76706827309237
08620,Mercer County,NJ,NA,NA,63.53413654618474
08628,Mercer County,NJ,NA,65.33158240315167,NA
08638,Mercer County,NJ,NA,71.70059093893632,NA
08648,Mercer County,NJ,NA,NA,38.23293172690763
08701,Ocean County,NJ,NA,6.303348653972423,0.8032128514056224
08721,Ocean County,NJ,NA,NA,84.73895582329317
08724,Ocean County,NJ,6.028368794326241,NA,NA
08731,Ocean County,NJ,NA,NA,51.88755020080321
08736,Monmouth County,NJ,NA,94.87852921864742,NA
08742,Ocean County,NJ,NA,29.152987524622453,NA
08757,Ocean County,NJ,7.9787234042553195,3.020354563361786,0.08032128514056225
08759,Ocean County,NJ,NA,1.0505581089954037,9.718875502008032
08805,Somerset County,NJ,NA,NA,75.34136546184739
08816,Middlesex County,NJ,NA,NA,59.11646586345382
08817,Middlesex County,NJ,NA,14.839133289560078,NA
08820,Middlesex County,NJ,NA,17.793827971109653,NA
08822,Hunterdon County,NJ,NA,NA,94.37751004016064
08831,Middlesex County,NJ,NA,6.040709126723572,NA
08844,Somerset County,NJ,NA,NA,44.41767068273093
08857,Middlesex County,NJ,NA,35.52199606040709,NA
08859,Middlesex County,NJ,NA,45.63361785948785,NA
08865,Warren County,NJ,3.368794326241135,NA,NA
08873,Somerset County,NJ,NA,15.233092580433356,NA
87004,Sandoval County,NM,NA,NA,58.23293172690763
87042,Valencia County,NM,NA,98.03020354563363,NA
87052,Sandoval County,NM,NA,96.65134602757715,NA
87105,Bernalillo County,NM,NA,16.74326986211425,NA
87106,Bernalillo County,NM,NA,NA,43.45381526104418
87109,Bernalillo County,NM,NA,10.111621799080762,NA
87112,Bernalillo County,NM,NA,6.565988181221274,NA
87120,Bernalillo County,NM,NA,NA,15.261044176706829
87121,Bernalillo County,NM,NA,NA,17.83132530120482
87144,Sandoval County,NM,14.184397163120568,NA,NA
87401,San Juan County,NM,NA,26.92055154300722,NA
87507,Santa Fe County,NM,NA,13.788575180564674,NA
87532,Santa Fe County,NM,NA,NA,39.598393574297184
87544,Los Alamos County,NM,NA,NA,92.28915662650601
88005,Doa Ana County,NM,NA,NA,35.34136546184739
88021,Doa Ana County,NM,NA,65.13460275771503,NA
88101,Curry County,NM,6.382978723404255,87.1306631648063,NA
88201,Chaves County,NM,NA,NA,38.87550200803213
88203,Chaves County,NM,NA,80.17071569271175,NA
88242,Lea County,NM,62.5886524822695,NA,NA
10001,New York County,NY,NA,22.58699934340118,NA
10002,New York County,NY,2.4822695035460995,1.969796454366382,0.48192771084337355
10011,New York County,NY,NA,54.69468154957321,74.29718875502009
10012,New York County,NY,NA,87.72160210111622,NA
10013,New York County,NY,NA,NA,41.04417670682731
10016,New York County,NY,NA,34.99671700590939,16.626506024096386
10021,New York County,NY,NA,45.370978332239005,NA
10025,New York County,NY,NA,69.66513460275772,0.8835341365461846
10026,New York County,NY,NA,12.541037426132634,NA
10029,New York County,NY,NA,10.965200262639527,NA
10034,New York County,NY,NA,52.856204858831255,NA
10035,New York County,NY,NA,5.646749835850295,NA
10036,New York County,NY,NA,32.30466185160867,NA
10037,New York County,NY,NA,NA,31.566265060240962
10038,New York County,NY,61.52482269503546,NA,NA
10040,New York County,NY,NA,67.76099803020355,NA
10075,New York County,NY,NA,NA,57.10843373493976
10304,Richmond County,NY,NA,NA,49.71887550200803
10305,Richmond County,NY,NA,36.63821405121471,NA
10306,Richmond County,NY,NA,NA,8.674698795180722
10309,Richmond County,NY,NA,NA,33.57429718875502
10310,Richmond County,NY,NA,57.71503611293499,NA
10314,Richmond County,NY,8.333333333333332,2.6920551543007223,3.2931726907630523
10451,Bronx County,NY,1.5957446808510638,NA,3.453815261044177
10453,Bronx County,NY,0.1773049645390071,NA,NA
10455,Bronx County,NY,NA,NA,38.55421686746988
10456,Bronx County,NY,NA,7.616546290216678,1.1244979919678715
10457,Bronx County,NY,NA,0.5252790544977018,NA
10458,Bronx County,NY,NA,0.3282994090610637,3.6947791164658637
10460,Bronx County,NY,NA,NA,30.200803212851408
10462,Bronx County,NY,NA,NA,4.096385542168675
10465,Bronx County,NY,47.16312056737589,NA,13.975903614457833
10466,Bronx County,NY,48.40425531914894,NA,NA
10468,Bronx County,NY,NA,26.329612606697307,4.176706827309237
10469,Bronx County,NY,NA,NA,59.678714859437754
10470,Bronx County,NY,NA,NA,60.16064257028112
10471,Bronx County,NY,NA,94.94418910045962,NA
10472,Bronx County,NY,NA,1.3788575180564675,NA
10473,Bronx County,NY,3.0141843971631204,4.399212081418254,58.31325301204819
10475,Bronx County,NY,NA,7.550886408404465,NA
10514,Westchester County,NY,NA,95.07550886408404,NA
10520,Westchester County,NY,NA,82.9940906106369,NA
10524,Putnam County,NY,NA,NA,83.29317269076306
10528,Westchester County,NY,84.39716312056737,NA,NA
10532,Westchester County,NY,NA,93.69665134602758,NA
10538,Westchester County,NY,NA,NA,55.7429718875502
10543,Westchester County,NY,NA,NA,84.0160642570281
10547,Westchester County,NY,98.22695035460993,NA,NA
10550,Westchester County,NY,NA,15.495732107682207,NA
10573,Westchester County,NY,NA,49.11359159553513,NA
10579,Putnam County,NY,NA,NA,98.79518072289156
10589,Westchester County,NY,NA,NA,35.58232931726907
10701,Westchester County,NY,NA,32.239001969796455,NA
10801,Westchester County,NY,24.645390070921984,NA,NA
10920,Rockland County,NY,NA,NA,88.75502008032129
10940,Orange County,NY,NA,NA,12.610441767068274
10950,Orange County,NY,NA,NA,78.23293172690762
10954,Rockland County,NY,NA,NA,36.626506024096386
10970,Rockland County,NY,NA,NA,79.51807228915662
10990,Orange County,NY,NA,26.657912015758374,29.63855421686747
11001,Nassau County,NY,NA,65.72554169402494,NA
11004,Queens County,NY,NA,90.74195666447801,NA
11040,Nassau County,NY,NA,91.39855548260013,67.79116465863454
11105,Queens County,NY,NA,NA,69.47791164658635
11201,Kings County,NY,NA,57.58371634931058,NA
11203,Kings County,NY,NA,NA,5.461847389558233
11204,Kings County,NY,NA,NA,3.8554216867469884
11206,Kings County,NY,NA,73.67038739330269,NA
11207,Kings County,NY,NA,NA,5.863453815261044
11208,Kings County,NY,NA,9.389363099146422,NA
11212,Kings County,NY,NA,0.6565988181221274,NA
11213,Kings County,NY,NA,NA,19.759036144578314
11214,Kings County,NY,49.29078014184397,30.334865397242282,NA
11217,Kings County,NY,NA,NA,40
11220,Kings County,NY,NA,62.24556795797768,NA
11224,Kings County,NY,NA,3.6769533814839135,NA
11225,Kings County,NY,40.95744680851064,NA,NA
11226,Kings County,NY,NA,NA,6.907630522088354
11228,Kings County,NY,73.04964539007092,NA,NA
11230,Kings County,NY,NA,NA,3.2128514056224895
11232,Kings County,NY,NA,75.7715036112935,NA
11233,Kings County,NY,NA,0.7879185817465528,NA
11235,Kings County,NY,30.319148936170215,NA,NA
11236,Kings County,NY,NA,5.51543007222587,NA
11237,Kings County,NY,NA,NA,87.71084337349397
11239,Kings County,NY,94.68085106382979,NA,NA
11249,Kings County,NY,50.53191489361703,NA,54.77911646586345
11355,Queens County,NY,44.680851063829785,37.75443204202232,NA
11357,Queens County,NY,NA,31.582403151674328,NA
11360,Queens County,NY,NA,NA,33.734939759036145
11362,Queens County,NY,NA,92.71175311884438,NA
11364,Queens County,NY,NA,NA,49.95983935742972
11365,Queens County,NY,NA,14.90479317137229,NA
11366,Queens County,NY,NA,NA,88.03212851405623
11368,Queens County,NY,4.25531914893617,NA,55.1004016064257
11369,Queens County,NY,NA,72.88246881155614,NA
11374,Queens County,NY,NA,NA,61.044176706827315
11377,Queens County,NY,NA,NA,42.971887550200805
11378,Queens County,NY,NA,42.61326329612607,NA
11379,Queens County,NY,NA,NA,35.42168674698795
11385,Queens County,NY,NA,46.02757715036113,24.738955823293175
11411,Queens County,NY,NA,NA,53.092369477911646
11412,Queens County,NY,63.12056737588653,NA,NA
11413,Queens County,NY,35.46099290780142,NA,NA
11419,Queens County,NY,NA,NA,62.89156626506024
11429,Queens County,NY,NA,21.864740643466842,NA
11434,Queens County,NY,NA,10.374261326329613,NA
11518,Nassau County,NY,NA,75.50886408404465,NA
11530,Nassau County,NY,NA,68.08929743926461,NA
11561,Nassau County,NY,NA,21.996060407091267,NA
11563,Nassau County,NY,NA,70.25607353906763,NA
11575,Nassau County,NY,82.97872340425532,94.09061063690085,NA
11702,Suffolk County,NY,NA,NA,72.1285140562249
11706,Suffolk County,NY,NA,NA,12.1285140562249
11710,Nassau County,NY,NA,NA,23.93574297188755
11720,Suffolk County,NY,NA,56.66447800393959,NA
11725,Suffolk County,NY,84.75177304964538,NA,NA
11727,Suffolk County,NY,NA,NA,27.55020080321285
11731,Suffolk County,NY,NA,NA,49.39759036144578
11741,Suffolk County,NY,NA,48.916611950098485,NA
11743,Suffolk County,NY,NA,34.79973736047275,NA
11755,Suffolk County,NY,NA,NA,46.1847389558233
11757,Suffolk County,NY,NA,31.254103742613264,NA
11769,Suffolk County,NY,NA,80.9586342744583,NA
11776,Suffolk County,NY,NA,NA,76.30522088353415
11778,Suffolk County,NY,NA,87.52462245567958,NA
11780,Suffolk County,NY,NA,NA,76.06425702811245
11787,Suffolk County,NY,NA,52.527905449770195,NA
11790,Suffolk County,NY,NA,NA,81.76706827309236
11798,Suffolk County,NY,NA,NA,64.73895582329318
11801,Nassau County,NY,82.26950354609929,NA,NA
11937,Suffolk County,NY,NA,NA,53.41365461847389
11946,Suffolk County,NY,NA,82.33749179251477,NA
11961,Suffolk County,NY,NA,NA,23.132530120481928
12010,Montgomery County,NY,NA,36.44123440577807,NA
12065,Saratoga County,NY,NA,83.05975049244911,NA
12078,Fulton County,NY,NA,65.79120157583716,NA
12095,Fulton County,NY,NA,22.455679579776756,NA
12170,Saratoga County,NY,NA,NA,86.58634538152612
12180,Rensselaer County,NY,NA,5.778069599474721,NA
12203,Albany County,NY,NA,NA,92.1285140562249
12205,Albany County,NY,NA,NA,61.285140562249
12210,Albany County,NY,42.90780141843972,NA,NA
12211,Albany County,NY,NA,NA,91.64658634538154
12304,Schenectady County,NY,NA,NA,45.622489959839356
12308,Schenectady County,NY,NA,81.4182534471438,NA
12477,Ulster County,NY,NA,NA,89.95983935742971
12522,Dutchess County,NY,NA,91.59553512803676,NA
12528,Ulster County,NY,NA,NA,70.52208835341366
12538,Dutchess County,NY,NA,NA,40.16064257028113
12545,Dutchess County,NY,NA,NA,83.53413654618474
12549,Orange County,NY,88.65248226950354,NA,NA
12550,Orange County,NY,NA,69.00853578463558,NA
12553,Orange County,NY,NA,86.86802363755746,NA
12564,Dutchess County,NY,NA,94.28759028233749,NA
12580,Dutchess County,NY,NA,NA,92.7710843373494
12701,Sullivan County,NY,NA,93.3026920551543,NA
12803,Saratoga County,NY,NA,69.13985554826002,NA
12832,Washington County,NY,NA,72.22586999343402,NA
12885,Warren County,NY,61.347517730496456,NA,NA
12918,Clinton County,NY,90.95744680851064,NA,NA
13039,Onondaga County,NY,NA,NA,70.28112449799197
13045,Cortland County,NY,NA,6.762967826657912,NA
13057,Onondaga County,NY,35.815602836879435,NA,NA
13069,Oswego County,NY,NA,7.879185817465528,64.2570281124498
13118,Cayuga County,NY,NA,NA,95.02008032128514
13126,Oswego County,NY,13.829787234042554,NA,NA
13148,Seneca County,NY,41.843971631205676,NA,NA
13209,Onondaga County,NY,NA,52.79054497701904,NA
13210,Onondaga County,NY,NA,52.98752462245568,NA
13219,Onondaga County,NY,NA,34.60275771503611,NA
13340,Herkimer County,NY,NA,NA,77.75100401606426
13413,Oneida County,NY,NA,NA,47.30923694779116
13421,Madison County,NY,41.48936170212766,NA,NA
13440,Oneida County,NY,0.8865248226950355,NA,NA
13452,Montgomery County,NY,NA,96.06040709126724,NA
13617,St. Lawrence County,NY,NA,NA,32.20883534136546
13619,Jefferson County,NY,NA,NA,73.33333333333333
13733,Chenango County,NY,NA,NA,68.99598393574297
13748,Broome County,NY,79.25531914893617,NA,NA
13760,Broome County,NY,4.787234042553192,NA,NA
13862,Broome County,NY,NA,77.93827971109653,NA
13901,Broome County,NY,NA,2.8233749179251477,NA
13905,Broome County,NY,0.7092198581560284,NA,43.69477911646587
14006,Erie County,NY,NA,NA,97.59036144578313
14048,Chautauqua County,NY,NA,28.95600787918582,NA
14051,Erie County,NY,NA,NA,98.39357429718876
14052,Erie County,NY,NA,39.06762967826658,NA
14072,Erie County,NY,NA,NA,89.39759036144578
14075,Erie County,NY,NA,82.53447143795141,NA
14094,Niagara County,NY,9.042553191489363,NA,NA
14111,Erie County,NY,NA,97.8988837820092,NA
14120,Niagara County,NY,NA,40.249507550886406,NA
14150,Erie County,NY,3.900709219858156,NA,NA
14207,Erie County,NY,24.46808510638298,NA,NA
14209,Erie County,NY,53.54609929078015,NA,NA
14211,Erie County,NY,25.177304964539005,NA,NA
14212,Erie County,NY,NA,57.58371634931058,NA
14215,Erie County,NY,NA,24.42547603414314,NA
14216,Erie County,NY,NA,86.0144451739987,73.1726907630522
14217,Erie County,NY,NA,87.0650032829941,NA
14219,Erie County,NY,NA,66.57912015758372,NA
14221,Erie County,NY,7.446808510638298,NA,NA
14222,Erie County,NY,NA,86.27708470124755,NA
14225,Erie County,NY,NA,73.60472751149048,NA
14226,Erie County,NY,NA,NA,76.86746987951807
14227,Erie County,NY,17.02127659574468,NA,NA
14305,Niagara County,NY,33.156028368794324,NA,NA
14424,Ontario County,NY,1.4184397163120568,NA,NA
14428,Monroe County,NY,NA,NA,99.27710843373494
14450,Monroe County,NY,NA,0.9192383453709784,2.8112449799196786
14456,Ontario County,NY,NA,3.6112934996717008,NA
14468,Monroe County,NY,NA,13.000656598818122,NA
14489,Wayne County,NY,NA,82.20617202889035,NA
14513,Wayne County,NY,NA,43.40118187787262,NA
14516,Wayne County,NY,NA,95.99474720945503,NA
14534,Monroe County,NY,35.28368794326241,NA,35.82329317269076
14551,Wayne County,NY,NA,NA,73.81526104417671
14580,Monroe County,NY,NA,NA,0.642570281124498
14586,Monroe County,NY,NA,75.8371634931057,NA
14606,Monroe County,NY,NA,69.46815495732108,23.293172690763054
14611,Monroe County,NY,NA,NA,39.3574297188755
14613,Monroe County,NY,NA,24.162836506894287,NA
14616,Monroe County,NY,NA,63.69008535784636,NA
14617,Monroe County,NY,NA,NA,70.36144578313252
14620,Monroe County,NY,NA,NA,26.425702811244978
14621,Monroe County,NY,NA,38.87065003282994,NA
14701,Chautauqua County,NY,NA,1.510177281680893,NA
14719,Cattaraugus County,NY,NA,96.12606697307945,NA
14727,Allegany County,NY,NA,93.49967170059094,NA
14821,Steuben County,NY,82.09219858156028,NA,NA
14892,Tioga County,NY,NA,40.11818778726198,NA
14895,Allegany County,NY,NA,NA,27.228915662650603
27012,Forsyth County,NC,NA,17.0059093893631,NA
27030,Surry County,NC,NA,10.177281680892975,NA
27105,Forsyth County,NC,NA,28.168089297439263,4.337349397590361
27205,Randolph County,NC,30.673758865248228,NA,NA
27253,Alamance County,NC,NA,11.424819435325016,NA
27260,Guilford County,NC,NA,36.04727511490479,NA
27262,Guilford County,NC,NA,NA,68.19277108433735
27263,Randolph County,NC,NA,38.87065003282994,NA
27265,Guilford County,NC,13.652482269503546,34.07747866053841,NA
27278,Orange County,NC,NA,32.10768220617203,11.485943775100402
27284,Forsyth County,NC,NA,23.900196979645436,NA
27288,Rockingham County,NC,NA,NA,59.83935742971887
27295,Davidson County,NC,NA,2.495075508864084,NA
27302,Alamance County,NC,NA,NA,48.032128514056225
27317,Randolph County,NC,38.47517730496454,NA,NA
27320,Rockingham County,NC,NA,NA,1.9277108433734942
27330,Lee County,NC,NA,NA,78.63453815261045
27344,Chatham County,NC,NA,82.07485226526592,NA
27350,Randolph County,NC,NA,81.483913328956,NA
27357,Rockingham County,NC,NA,73.99868680236375,NA
27360,Davidson County,NC,NA,NA,88.27309236947791
27370,Randolph County,NC,NA,43.663821405121475,NA
27403,Guilford County,NC,NA,95.27248850952068,NA
27405,Guilford County,NC,NA,8.798424162836508,NA
27406,Guilford County,NC,NA,NA,12.530120481927712
27410,Guilford County,NC,NA,NA,3.93574297188755
27519,Wake County,NC,NA,37.68877216021011,NA
27526,Wake County,NC,NA,14.445173998686803,NA
27529,Wake County,NC,NA,NA,12.289156626506024
27530,Wayne County,NC,NA,41.56270518713066,NA
27536,Vance County,NC,NA,22.32435981615233,NA
27539,Wake County,NC,82.4468085106383,NA,NA
27542,Johnston County,NC,NA,59.09389363099147,NA
27545,Wake County,NC,32.97872340425532,NA,NA
27587,Wake County,NC,NA,55.416940249507554,NA
27609,Wake County,NC,NA,23.177938279711096,NA
27616,Wake County,NC,38.652482269503544,NA,NA
27617,Wake County,NC,NA,NA,90.28112449799197
27704,Durham County,NC,NA,NA,55.502008032128515
27713,Durham County,NC,NA,NA,57.188755020080315
27831,Northampton County,NC,NA,93.3683519369665,NA
27858,Pitt County,NC,NA,28.824688115561393,NA
27874,Halifax County,NC,NA,89.56007879185817,NA
27886,Edgecombe County,NC,NA,31.12278397898884,62.65060240963856
27889,Beaufort County,NC,NA,NA,69.07630522088354
27893,Wilson County,NC,NA,15.430072225869992,NA
27896,Wilson County,NC,NA,58.69993434011819,NA
27910,Hertford County,NC,57.801418439716315,NA,NA
27948,Dare County,NC,94.8581560283688,NA,NA
27949,Dare County,NC,NA,62.57386736703874,NA
27958,Currituck County,NC,NA,87.45896257386737,NA
28021,Gaston County,NC,NA,NA,55.26104417670683
28043,Rutherford County,NC,NA,27.708470124753777,NA
28075,Cabarrus County,NC,NA,56.53315824031516,NA
28079,Union County,NC,NA,33.880499015101776,83.37349397590361
28083,Cabarrus County,NC,NA,82.00919238345371,NA
28104,Union County,NC,51.24113475177305,NA,35.42168674698795
28105,Mecklenburg County,NC,NA,NA,25.461847389558233
28110,Union County,NC,NA,35.85029546946816,NA
28115,Iredell County,NC,14.716312056737587,NA,NA
28117,Iredell County,NC,NA,22.06172028890348,68.83534136546184
28139,Rutherford County,NC,NA,42.94156270518713,NA
28146,Rowan County,NC,NA,75.57452396585687,NA
28147,Rowan County,NC,NA,34.40577806959947,NA
28150,Cleveland County,NC,NA,NA,25.622489959839356
28152,Cleveland County,NC,NA,NA,40.6425702811245
28163,Stanly County,NC,NA,NA,98.9558232931727
28168,Lincoln County,NC,57.97872340425532,NA,NA
28173,Union County,NC,NA,94.41891004596191,NA
28205,Mecklenburg County,NC,NA,18.319107025607355,NA
28208,Mecklenburg County,NC,NA,16.283650689428757,NA
28215,Mecklenburg County,NC,NA,75.11490479317138,NA
28216,Mecklenburg County,NC,NA,NA,17.188755020080322
28312,Cumberland County,NC,NA,NA,60.32128514056225
28314,Cumberland County,NC,NA,79.44845699277742,31.64658634538153
28327,Moore County,NC,NA,NA,99.11646586345381
28339,Harnett County,NC,72.3404255319149,NA,NA
28340,Robeson County,NC,NA,50.886408404464866,NA
28341,Duplin County,NC,NA,NA,99.91967871485944
28348,Cumberland County,NC,52.659574468085104,NA,NA
28352,Scotland County,NC,NA,NA,38.634538152610446
28358,Robeson County,NC,NA,65.4629021667761,NA
28360,Robeson County,NC,NA,45.30531845042679,NA
28376,Hoke County,NC,NA,NA,30.522088353413658
28382,Sampson County,NC,NA,67.30137885751806,NA
28387,Moore County,NC,NA,NA,64.41767068273091
28390,Harnett County,NC,NA,48.12869336835194,NA
28409,New Hanover County,NC,NA,78.79185817465529,NA
28425,Pender County,NC,NA,NA,63.45381526104418
28445,Onslow County,NC,NA,NA,85.78313253012048
28451,Brunswick County,NC,NA,15.955351280367697,NA
28457,Pender County,NC,NA,73.7360472751149,NA
28458,Duplin County,NC,80.1418439716312,NA,NA
28460,Onslow County,NC,NA,62.311227839789886,NA
28467,Brunswick County,NC,NA,NA,53.73493975903615
28504,Lenoir County,NC,NA,44.97701904136572,27.068273092369477
28513,Pitt County,NC,64.8936170212766,60.078791858174654,NA
28546,Onslow County,NC,NA,NA,25.542168674698797
28560,Craven County,NC,NA,NA,66.74698795180723
28584,Carteret County,NC,82.62411347517731,NA,NA
28607,Watauga County,NC,NA,84.83256730137886,31.32530120481928
28610,Catawba County,NC,NA,NA,69.7991967871486
28636,Alexander County,NC,NA,99.86868023637557,NA
28638,Caldwell County,NC,NA,NA,44.01606425702811
28645,Caldwell County,NC,NA,0.5909389363099147,NA
28655,Burke County,NC,NA,2.757715036112935,NA
28658,Catawba County,NC,NA,NA,65.46184738955823
28677,Iredell County,NC,NA,13.525935653315823,32.1285140562249
28712,Transylvania County,NC,NA,NA,85.46184738955823
28715,Buncombe County,NC,NA,NA,67.63052208835342
28723,Jackson County,NC,NA,74.13000656598818,NA
28739,Henderson County,NC,NA,8.995403808273144,NA
28762,McDowell County,NC,NA,NA,69.7991967871486
28786,Haywood County,NC,26.95035460992908,54.95732107682206,NA
28787,Buncombe County,NC,NA,58.04333552199606,NA
28792,Henderson County,NC,66.48936170212765,NA,NA
28806,Buncombe County,NC,NA,NA,23.53413654618474
28904,Clay County,NC,NA,NA,37.34939759036144
58201,Grand Forks County,ND,NA,NA,0.7228915662650602
58301,Ramsey County,ND,54.07801418439716,NA,NA
58503,Burleigh County,ND,NA,NA,66.66666666666666
58701,Ward County,ND,70.2127659574468,NA,NA
58784,Mountrail County,ND,NA,96.52002626395273,NA
43050,Knox County,OH,NA,NA,24.899598393574294
43055,Licking County,OH,NA,0.984898227183191,NA
43062,Licking County,OH,77.48226950354609,NA,NA
43065,Delaware County,OH,NA,46.81549573210768,79.75903614457832
43074,Delaware County,OH,NA,98.62114248194354,NA
43082,Delaware County,OH,NA,93.43401181877873,NA
43119,Franklin County,OH,NA,NA,88.99598393574297
43130,Fairfield County,OH,NA,88.83782009192383,NA
43140,Madison County,OH,NA,23.04661851608667,NA
43147,Fairfield County,OH,NA,NA,78.79518072289157
43160,Fayette County,OH,NA,57.91201575837164,NA
43202,Franklin County,OH,NA,67.76099803020355,NA
43204,Franklin County,OH,NA,NA,28.594377510040157
43207,Franklin County,OH,NA,4.4648719632304665,NA
43209,Franklin County,OH,NA,NA,30.361445783132528
43212,Franklin County,OH,60.63829787234043,NA,NA
43219,Franklin County,OH,NA,24.622455679579776,NA
43224,Franklin County,OH,NA,NA,16.947791164658636
43227,Franklin County,OH,15.780141843971633,80.23637557452396,NA
43228,Franklin County,OH,1.950354609929078,NA,NA
43230,Franklin County,OH,10.815602836879433,NA,NA
43235,Franklin County,OH,NA,NA,20.32128514056225
43302,Marion County,OH,NA,NA,2.248995983935743
43334,Morrow County,OH,95.2127659574468,NA,NA
43420,Sandusky County,OH,NA,NA,91.56626506024097
43506,Williams County,OH,NA,17.0059093893631,NA
43512,Defiance County,OH,2.8368794326241136,NA,NA
43537,Lucas County,OH,NA,NA,17.59036144578313
43551,Wood County,OH,NA,4.596191726854892,NA
43605,Lucas County,OH,NA,14.510833880499016,NA
43607,Lucas County,OH,NA,13.3946158896914,NA
43612,Lucas County,OH,NA,NA,34.53815261044177
43613,Lucas County,OH,NA,NA,32.85140562248996
43614,Lucas County,OH,NA,NA,41.445783132530124
43615,Lucas County,OH,NA,18.71306631648063,4.979919678714859
43701,Muskingum County,OH,NA,NA,34.859437751004016
43725,Guernsey County,OH,NA,NA,16.867469879518072
43906,Belmont County,OH,NA,NA,73.33333333333333
43912,Belmont County,OH,NA,NA,89.87951807228916
43942,Belmont County,OH,96.80851063829788,NA,NA
43964,Jefferson County,OH,18.439716312056735,NA,NA
44003,Ashtabula County,OH,76.418439716312065,NA,NA
44012,Lorain County,OH,NA,NA,87.79116465863453
44024,Geauga County,OH,NA,NA,8.995983935742972
44030,Ashtabula County,OH,NA,NA,26.666666666666668
44035,Lorain County,OH,NA,0,2.0080321285140563
44044,Lorain County,OH,76.59574468085107,NA,NA
44055,Lorain County,OH,NA,NA,8.353413654618475
44060,Lake County,OH,NA,NA,2.6506024096385543
44070,Cuyahoga County,OH,NA,NA,2.4096385542168677
44094,Lake County,OH,NA,3.086014445173999,NA
44102,Cuyahoga County,OH,NA,NA,7.8714859437751
44106,Cuyahoga County,OH,NA,NA,42.088353413654616
44107,Cuyahoga County,OH,NA,NA,5.0602409638554215
44109,Cuyahoga County,OH,NA,1.247537754432042,NA
44111,Cuyahoga County,OH,NA,1.8384766907419567,NA
44113,Cuyahoga County,OH,4.964539007092199,NA,NA
44126,Cuyahoga County,OH,NA,NA,25.943775100401606
44128,Cuyahoga County,OH,NA,10.505581089954038,10.361445783132531
44129,Cuyahoga County,OH,NA,33.61785948785292,NA
44130,Cuyahoga County,OH,NA,NA,13.574297188755018
44134,Cuyahoga County,OH,NA,1.7071569271175313,NA
44135,Cuyahoga County,OH,NA,70.6500328299409,NA
44137,Cuyahoga County,OH,NA,6.6973079448457,NA
44140,Cuyahoga County,OH,NA,48.19435325016415,NA
44144,Cuyahoga County,OH,NA,5.318450426789232,NA
44212,Medina County,OH,NA,NA,42.89156626506024
44240,Portage County,OH,NA,13.19763624425476,NA
44256,Medina County,OH,2.6595744680851063,0.3939592908732764,NA
44266,Portage County,OH,NA,23.50623768877216,NA
44281,Medina County,OH,NA,32.37032173342088,NA
44312,Summit County,OH,NA,27.380170715692714,15.020080321285139
44333,Summit County,OH,NA,30.597504924491137,NA
44406,Mahoning County,OH,NA,19.041365725541695,NA
44410,Trumbull County,OH,NA,17.465528562048586,NA
44436,Mahoning County,OH,NA,NA,95.82329317269075
44438,Trumbull County,OH,56.91489361702128,NA,NA
44471,Mahoning County,OH,39.361702127659576,NA,NA
44507,Mahoning County,OH,NA,59.88181221273802,NA
44511,Mahoning County,OH,15.957446808510639,NA,71.8875502008032
44601,Stark County,OH,NA,5.909389363099146,NA
44641,Stark County,OH,NA,NA,50.602409638554214
44672,Mahoning County,OH,NA,63.36178594878529,NA
44705,Stark County,OH,17.73049645390071,NA,NA
44708,Stark County,OH,NA,NA,12.208835341365463
44718,Stark County,OH,NA,NA,38.87550200803213
44720,Stark County,OH,46.63120567375886,NA,NA
44805,Ashland County,OH,NA,3.545633617859488,56.70682730923695
44820,Crawford County,OH,79.9645390070922,NA,16.06425702811245
44851,Huron County,OH,NA,89.95403808273144,NA
44903,Richland County,OH,NA,12.21273801707157,NA
45011,Butler County,OH,NA,51.87130663164806,7.46987951807229
45013,Butler County,OH,NA,2.298095863427446,NA
45014,Butler County,OH,9.929078014184398,12.73801707156927,NA
45042,Butler County,OH,NA,78.98883782009193,31.40562248995984
45050,Butler County,OH,NA,77.93827971109653,NA
45068,Warren County,OH,82.80141843971631,53.44714379514117,NA
45123,Highland County,OH,NA,NA,28.11244979919679
45150,Clermont County,OH,NA,NA,56.3855421686747
45202,Hamilton County,OH,NA,49.11359159553513,NA
45217,Hamilton County,OH,NA,64.14970453053185,NA
45229,Hamilton County,OH,NA,49.5075508864084,NA
45230,Hamilton County,OH,NA,34.208798424162836,NA
45237,Hamilton County,OH,NA,15.036112934996718,NA
45239,Hamilton County,OH,NA,51.28036769533815,NA
45247,Hamilton County,OH,NA,NA,18.634538152610443
45255,Hamilton County,OH,50.53191489361703,NA,NA
45320,Preble County,OH,NA,NA,90.36144578313254
45322,Montgomery County,OH,NA,62.04858831254104,NA
45324,Greene County,OH,NA,NA,13.895582329317268
45341,Clark County,OH,97.16312056737588,NA,NA
45356,Miami County,OH,NA,47.078135259356536,NA
45365,Shelby County,OH,NA,81.08995403808274,NA
45373,Miami County,OH,NA,8.732764281024293,NA
45385,Greene County,OH,NA,NA,5.301204819277109
45405,Montgomery County,OH,NA,NA,81.52610441767068
45417,Montgomery County,OH,NA,10.242941562705186,NA
45424,Montgomery County,OH,84.57446808510637,NA,NA
45426,Montgomery County,OH,NA,NA,39.196787148594375
45432,Greene County,OH,NA,NA,48.11244979919679
45439,Montgomery County,OH,NA,58.502954694681556,NA
45503,Clark County,OH,NA,NA,6.827309236947792
45601,Ross County,OH,NA,72.48850952068287,NA
45614,Gallia County,OH,NA,91.72685489166119,NA
45648,Scioto County,OH,17.19858156028369,NA,NA
45661,Pike County,OH,NA,NA,81.92771084337349
45692,Jackson County,OH,NA,NA,99.59839357429718
45701,Athens County,OH,NA,36.90085357846356,NA
45750,Washington County,OH,NA,0.4596191726854892,NA
45804,Allen County,OH,43.08510638297872,16.414970453053186,NA
45822,Mercer County,OH,NA,NA,14.136546184738954
45840,Hancock County,OH,NA,NA,67.30923694779116
45885,Auglaize County,OH,80.85106382978722,NA,NA
45887,Allen County,OH,94.32624113475178,NA,NA
45891,Van Wert County,OH,64.18439716312056,NA,20.722891566265062
73003,Oklahoma County,OK,48.58156028368794,NA,NA
73026,Cleveland County,OK,NA,NA,86.18473895582329
73036,Canadian County,OK,NA,NA,46.024096385542165
73068,Cleveland County,OK,NA,NA,96.14457831325302
73072,Cleveland County,OK,NA,NA,25.060240963855424
73099,Canadian County,OK,NA,22.915298752462245,NA
73105,Oklahoma County,OK,NA,NA,96.70682730923694
73106,Oklahoma County,OK,57.09219858156028,NA,NA
73109,Oklahoma County,OK,NA,NA,52.208835341365464
73135,Oklahoma County,OK,NA,90.80761654629022,49.87951807228916
73162,Oklahoma County,OK,NA,11.75311884438608,NA
73170,Cleveland County,OK,NA,NA,45.94377510040161
73703,Garfield County,OK,NA,66.44780039395928,NA
73801,Woodward County,OK,NA,57.71503611293499,62.00803212851406
74006,Washington County,OK,NA,27.248850952068288,NA
74011,Tulsa County,OK,50,NA,NA
74014,Wagoner County,OK,NA,NA,37.10843373493976
74048,Nowata County,OK,95.39007092198581,NA,NA
74073,Tulsa County,OK,NA,79.18581746552856,NA
74135,Tulsa County,OK,NA,30.20354563361786,NA
74136,Tulsa County,OK,NA,75.37754432042021,NA
74352,Mayes County,OK,NA,65.06894287590282,NA
74354,Ottawa County,OK,NA,NA,76.22489959839356
74728,McCurtain County,OK,65.0709219858156,NA,NA
74868,Seminole County,OK,NA,NA,82.08835341365462
74960,Adair County,OK,19.326241134751772,NA,NA
97002,Marion County,OR,NA,NA,74.4578313253012
97015,Clackamas County,OR,85.81560283687944,NA,NA
97027,Clackamas County,OR,NA,62.63952724885095,NA
97030,Multnomah County,OR,11.702127659574469,NA,NA
97038,Clackamas County,OR,NA,68.15495732107682,NA
97051,Columbia County,OR,NA,89.6913985554826,NA
97086,Clackamas County,OR,89.00709219858156,NA,NA
97128,Yamhill County,OR,NA,19.369665134602755,NA
97138,Clatsop County,OR,NA,45.89625738673671,NA
97202,Multnomah County,OR,20.74468085106383,NA,NA
97211,Multnomah County,OR,NA,66.90741956664478,NA
97220,Multnomah County,OR,NA,20.81418253447144,NA
97232,Multnomah County,OR,NA,97.83322390019697,NA
97233,Multnomah County,OR,10.99290780141844,NA,NA
97322,Linn County,OR,NA,NA,5.622489959839357
97338,Polk County,OR,NA,28.693368351936964,NA
97355,Linn County,OR,NA,3.808273145108339,NA
97361,Polk County,OR,NA,74.7866053841103,NA
97401,Lane County,OR,NA,52.002626395272486,NA
97402,Lane County,OR,NA,NA,6.345381526104418
97444,Curry County,OR,NA,NA,93.4136546184739
97470,Douglas County,OR,NA,83.78200919238346,NA
97477,Lane County,OR,16.666666666666664,NA,NA
97501,Jackson County,OR,NA,7.747866053841103,NA
97601,Klamath County,OR,NA,8.141825344714379,NA
97702,Deschutes County,OR,NA,55.21996060407092,NA
97703,Deschutes County,OR,NA,NA,66.5863453815261
97707,Deschutes County,OR,NA,99.80302035456336,NA
97739,Deschutes County,OR,NA,52.265265922521344,NA
97801,Umatilla County,OR,NA,18.122127380170717,NA
15005,Beaver County,PA,NA,NA,46.1847389558233
15037,Allegheny County,PA,NA,NA,78.87550200803213
15061,Beaver County,PA,NA,99.40906106369009,43.855421686746986
15066,Beaver County,PA,NA,NA,76.78714859437751
15085,Westmoreland County,PA,96.63120567375887,NA,NA
15101,Allegheny County,PA,NA,36.37557452396586,NA
15106,Allegheny County,PA,NA,43.53250164149705,NA
15135,Allegheny County,PA,NA,97.76756401838476,NA
15143,Allegheny County,PA,NA,NA,60.722891566265055
15146,Allegheny County,PA,NA,22.258699934340118,NA
15202,Allegheny County,PA,NA,57.32107682206172,NA
15204,Allegheny County,PA,NA,99.54038082731451,NA
15207,Allegheny County,PA,NA,NA,54.45783132530121
15210,Allegheny County,PA,NA,28.890347997373606,NA
15211,Allegheny County,PA,NA,60.604070912672356,NA
15215,Allegheny County,PA,NA,NA,75.50200803212851
15226,Allegheny County,PA,NA,NA,26.104417670682732
15227,Allegheny County,PA,28.723404255319153,NA,NA
15228,Allegheny County,PA,NA,50.229809586342746,NA
15235,Allegheny County,PA,54.96453900709219,NA,NA
15236,Allegheny County,PA,NA,20.682862770847013,NA
15238,Allegheny County,PA,NA,NA,74.13654618473896
15317,Washington County,PA,NA,27.183191070256076,NA
15601,Westmoreland County,PA,NA,NA,47.95180722891566
15632,Westmoreland County,PA,98.581560283687935,NA,NA
15767,Jefferson County,PA,NA,NA,63.212851405622494
15857,Elk County,PA,19.148936170212767,NA,NA
15904,Cambria County,PA,NA,NA,13.654618473895583
15905,Cambria County,PA,62.4113475177305,NA,NA
16001,Butler County,PA,2.127659574468085,NA,NA
16002,Butler County,PA,NA,25.804333552199605,NA
16046,Butler County,PA,NA,NA,40.16064257028113
16059,Butler County,PA,NA,NA,69.23694779116467
16125,Mercer County,PA,NA,11.03086014445174,NA
16201,Armstrong County,PA,NA,7.353906762967827,9.558232931726907
16316,Crawford County,PA,NA,91.52987524622456,NA
16323,Venango County,PA,NA,83.97898883782008,NA
16335,Crawford County,PA,7.2695035460992905,NA,NA
16354,Crawford County,PA,NA,NA,44.57831325301205
16506,Erie County,PA,NA,NA,61.365461847389554
16510,Erie County,PA,29.609929078014186,NA,NA
16830,Clearfield County,PA,NA,NA,11.325301204819278
17007,Cumberland County,PA,NA,79.9080761654629,NA
17011,Cumberland County,PA,NA,NA,9.879518072289157
17013,Cumberland County,PA,NA,65.39724228496388,NA
17019,York County,PA,NA,33.09258043335522,NA
17020,Perry County,PA,NA,52.921864740643464,NA
17042,Lebanon County,PA,NA,3.939592908732764,NA
17046,Lebanon County,PA,NA,15.889691398555483,33.89558232931727
17050,Cumberland County,PA,NA,28.10242941562705,NA
17055,Cumberland County,PA,NA,NA,4.738955823293173
17057,Dauphin County,PA,NA,53.05318450426789,NA
17073,Lebanon County,PA,93.08510638297872,NA,NA
17074,Perry County,PA,52.836879432624116,NA,NA
17078,Lebanon County,PA,NA,7.813525935653316,NA
17202,Franklin County,PA,NA,36.96651346027578,NA
17236,Franklin County,PA,NA,NA,47.06827309236948
17268,Franklin County,PA,NA,14.707813525935654,NA
17331,York County,PA,NA,32.567301378857515,0.4016064257028112
17345,York County,PA,54.78723404255319,57.38673670387393,NA
17347,York County,PA,NA,56.007879185817465,NA
17356,York County,PA,NA,28.430728824688117,NA
17362,York County,PA,97.87234042553192,NA,NA
17402,York County,PA,12.76595744680851,NA,NA
17403,York County,PA,NA,77.67564018384768,NA
17509,Lancaster County,PA,NA,95.66644780039397,NA
17543,Lancaster County,PA,NA,78.59487852921865,NA
17603,Lancaster County,PA,NA,5.975049244911359,25.220883534136547
17745,Clinton County,PA,NA,NA,32.36947791164659
17801,Northumberland County,PA,37.4113475177305,NA,NA
17815,Columbia County,PA,NA,29.218647406434666,NA
17851,Northumberland County,PA,NA,NA,64.8995983935743
17857,Northumberland County,PA,NA,NA,50.20080321285141
17931,Schuylkill County,PA,63.652482269503544,NA,NA
18013,Northampton County,PA,NA,74.06434668417596,NA
18018,Lehigh County,PA,NA,NA,28.835341365461847
18042,Northampton County,PA,NA,NA,12.851405622489958
18103,Lehigh County,PA,3.546099290780142,21.405121470781353,NA
18104,Lehigh County,PA,NA,3.217334208798424,NA
18201,Luzerne County,PA,NA,72.09455022980958,NA
18235,Carbon County,PA,NA,74.65528562048588,NA
18328,Pike County,PA,NA,95.8634274458306,NA
18360,Monroe County,PA,20.921985815602838,NA,NA
18421,Susquehanna County,PA,NA,NA,87.2289156626506
18466,Monroe County,PA,39.71631205673759,NA,NA
18517,Lackawanna County,PA,NA,NA,75.34136546184739
18610,Monroe County,PA,NA,93.89363099146422,NA
18642,Luzerne County,PA,NA,96.52002626395273,NA
18651,Luzerne County,PA,NA,67.43269862114248,NA
18704,Luzerne County,PA,NA,NA,5.140562248995984
18848,Bradford County,PA,85.1063829787234,NA,NA
18901,Bucks County,PA,NA,NA,7.148594377510039
18951,Bucks County,PA,NA,37.42613263296126,NA
18966,Bucks County,PA,NA,NA,7.228915662650602
19001,Montgomery County,PA,NA,61.982928430728826,NA
19002,Montgomery County,PA,NA,77.74130006565989,NA
19007,Bucks County,PA,NA,NA,94.29718875502007
19013,Delaware County,PA,NA,32.764281024294156,NA
19014,Delaware County,PA,NA,28.49638870650033,NA
19023,Delaware County,PA,NA,40.64346684175968,NA
19027,Montgomery County,PA,NA,NA,15.421686746987953
19036,Delaware County,PA,NA,NA,88.35341365461848
19040,Montgomery County,PA,NA,95.53512803676954,NA
19044,Montgomery County,PA,74.11347517730496,NA,NA
19047,Bucks County,PA,NA,73.40774786605384,NA
19050,Delaware County,PA,NA,NA,59.91967871485944
19055,Bucks County,PA,NA,56.99277741300066,NA
19061,Delaware County,PA,NA,NA,69.31726907630522
19063,Delaware County,PA,NA,8.40446487196323,NA
19067,Bucks County,PA,12.23404255319149,NA,NA
19070,Delaware County,PA,NA,NA,70.92369477911646
19075,Montgomery County,PA,NA,87.32764281024295,NA
19083,Delaware County,PA,NA,9.192383453709784,NA
19085,Delaware County,PA,77.30496453900709,NA,NA
19086,Delaware County,PA,51.59574468085106,NA,56.78714859437751
19090,Montgomery County,PA,76.06382978723404,NA,NA
19096,Montgomery County,PA,NA,NA,45.06024096385542
19118,Philadelphia County,PA,NA,NA,63.05220883534136
19121,Philadelphia County,PA,NA,78.13525935653315,NA
19124,Philadelphia County,PA,NA,29.087327642810244,NA
19130,Philadelphia County,PA,NA,NA,70.04016064257029
19131,Philadelphia County,PA,NA,2.0354563361785947,NA
19132,Philadelphia County,PA,NA,72.55416940249508,NA
19137,Philadelphia County,PA,NA,NA,91.88755020080322
19139,Philadelphia County,PA,NA,NA,78.07228915662651
19141,Philadelphia County,PA,24.113475177304963,NA,NA
19142,Philadelphia County,PA,68.08510638297872,NA,NA
19143,Philadelphia County,PA,0.3546099290780142,NA,NA
19144,Philadelphia County,PA,NA,NA,13.734939759036143
19146,Philadelphia County,PA,NA,NA,86.42570281124497
19148,Philadelphia County,PA,48.93617021276596,NA,9.076305220883533
19149,Philadelphia County,PA,NA,20.48588312541037,NA
19151,Philadelphia County,PA,NA,NA,48.433734939759034
19152,Philadelphia County,PA,NA,NA,7.791164658634537
19154,Philadelphia County,PA,NA,54.43204202232435,20.803212851405622
19301,Chester County,PA,NA,NA,54.69879518072289
19311,Chester County,PA,96.45390070921985,NA,NA
19320,Chester County,PA,NA,NA,58.47389558232932
19344,Chester County,PA,NA,64.87196323046619,NA
19382,Chester County,PA,NA,54.629021667761,12.048192771084338
19401,Montgomery County,PA,25.53191489361702,NA,NA
19426,Montgomery County,PA,NA,90.47931713722916,NA
19438,Montgomery County,PA,NA,66.18516086671043,22.329317269076306
19440,Montgomery County,PA,NA,NA,87.30923694779116
19454,Montgomery County,PA,NA,NA,31.08433734939759
19462,Montgomery County,PA,NA,NA,40.963855421686745
19464,Montgomery County,PA,91.66666666666666,NA,54.29718875502007
19468,Montgomery County,PA,30.141843971631204,NA,33.4136546184739
19473,Montgomery County,PA,68.61702127659575,NA,NA
19512,Berks County,PA,72.87234042553192,NA,NA
19522,Berks County,PA,92.37588652482269,NA,NA
19525,Montgomery County,PA,NA,95.4038082731451,NA
02816,Kent County,RI,NA,NA,17.91164658634538
02842,Newport County,RI,65.42553191489363,NA,NA
02860,Providence County,RI,NA,8.535784635587657,NA
02878,Newport County,RI,NA,38.017071569271174,NA
02879,Washington County,RI,NA,NA,71.80722891566265
02893,Kent County,RI,NA,NA,26.024096385542165
02896,Providence County,RI,NA,NA,60.24096385542169
02904,Providence County,RI,50.177304964539005,NA,NA
02906,Providence County,RI,NA,NA,85.86345381526105
29045,Kershaw County,SC,NA,36.769533814839136,NA
29053,Lexington County,SC,NA,78.8575180564675,86.66666666666667
29061,Richland County,SC,NA,71.24097176625082,NA
29078,Kershaw County,SC,66.84397163120568,NA,NA
29150,Sumter County,SC,NA,NA,14.216867469879519
29172,Lexington County,SC,73.75886524822694,NA,NA
29302,Spartanburg County,SC,NA,79.71109652002626,NA
29307,Spartanburg County,SC,45.744680851063826,NA,NA
29316,Spartanburg County,SC,NA,NA,61.9277108433735
29356,Spartanburg County,SC,NA,80.63033486539724,77.10843373493977
29388,Spartanburg County,SC,46.45390070921986,NA,NA
29401,Charleston County,SC,NA,NA,56.22489959839358
29405,Charleston County,SC,20.56737588652482,NA,NA
29407,Charleston County,SC,NA,NA,10.602409638554217
29412,Charleston County,SC,NA,13.46027577150361,NA
29420,Dorchester County,SC,NA,64.60932370321734,97.10843373493975
29445,Berkeley County,SC,NA,61.26066973079448,NA
29485,Dorchester County,SC,19.858156028368796,NA,NA
29512,Marlboro County,SC,NA,46.15889691398555,64.65863453815261
29569,Horry County,SC,NA,71.56927117531188,NA
29576,Horry County,SC,NA,NA,10.040160642570282
29582,Horry County,SC,NA,NA,44.81927710843374
29588,Horry County,SC,NA,NA,45.46184738955824
29591,Florence County,SC,NA,77.47866053841102,NA
29611,Greenville County,SC,NA,NA,50.602409638554214
29617,Greenville County,SC,NA,94.3532501641497,NA
29644,Greenville County,SC,66.31205673758865,NA,80.96385542168674
29649,Greenwood County,SC,NA,NA,37.18875502008032
29651,Greenville County,SC,NA,NA,42.570281124497996
29671,Pickens County,SC,NA,NA,55.983935742971894
29676,Oconee County,SC,NA,58.37163493105712,NA
29690,Greenville County,SC,NA,NA,34.93975903614458
29706,Chester County,SC,NA,71.43795141168746,NA
29708,York County,SC,NA,84.70124753775443,NA
29710,York County,SC,NA,85.16086671043992,NA
29732,York County,SC,NA,43.663821405121475,14.216867469879519
29936,Jasper County,SC,NA,NA,65.62248995983936
57049,Union County,SD,NA,80.82731451083389,NA
57108,Lincoln County,SD,48.04964539007092,NA,NA
57301,Davison County,SD,NA,89.49441891004597,NA
57703,Pennington County,SD,93.61702127659575,NA,NA
37013,Davidson County,TN,7.092198581560284,NA,NA
37048,Sumner County,TN,93.97163120567376,NA,NA
37055,Dickson County,TN,NA,30.006565988181222,NA
37066,Sumner County,TN,NA,6.172028890347998,NA
37067,Williamson County,TN,NA,NA,82.40963855421687
37075,Sumner County,TN,NA,23.571897570584373,NA
37076,Davidson County,TN,NA,49.57321076822062,NA
37087,Wilson County,TN,NA,NA,20.401606425702813
37090,Wilson County,TN,NA,NA,66.42570281124497
37096,Perry County,TN,75.88652482269504,NA,NA
37110,Warren County,TN,34.9290780141844,NA,NA
37122,Wilson County,TN,NA,NA,21.044176706827308
37160,Bedford County,TN,NA,51.01772816808929,NA
37209,Davidson County,TN,NA,NA,75.26104417670683
37214,Davidson County,TN,NA,39.133289560078794,NA
37321,Rhea County,TN,NA,NA,52.28915662650603
37338,Rhea County,TN,NA,97.24228496388706,NA
37343,Hamilton County,TN,NA,NA,16.06425702811245
37353,Bradley County,TN,87.05673758865248,NA,NA
37354,Monroe County,TN,53.90070921985816,NA,NA
37379,Hamilton County,TN,72.16312056737588,NA,NA
37643,Carter County,TN,NA,NA,12.449799196787147
37659,Washington County,TN,NA,46.881155613919894,NA
37663,Sullivan County,TN,54.43262411347518,NA,NA
37757,Campbell County,TN,71.09929078014184,NA,NA
37763,Roane County,TN,NA,57.97767564018385,NA
37764,Sevier County,TN,81.73758865248227,NA,NA
37766,Campbell County,TN,NA,16.61195009848982,NA
37769,Anderson County,TN,86.87943262411348,NA,NA
37774,Loudon County,TN,NA,NA,78.95582329317268
37801,Blount County,TN,10.28368794326241,NA,NA
37803,Blount County,TN,NA,9.455022980958635,NA
37825,Claiborne County,TN,NA,86.67104399212081,NA
37830,Anderson County,TN,17.375886524822697,NA,NA
37857,Hawkins County,TN,NA,56.27051871306632,NA
37919,Knox County,TN,NA,NA,59.11646586345382
38024,Dyer County,TN,NA,69.86211424819435,NA
38104,Shelby County,TN,NA,NA,60.88353413654618
38107,Shelby County,TN,NA,NA,54.21686746987952
38109,Shelby County,TN,NA,64.74064346684176,NA
38111,Shelby County,TN,15.24822695035461,NA,NA
38112,Shelby County,TN,NA,55.21996060407092,NA
38117,Shelby County,TN,NA,NA,93.89558232931728
38119,Shelby County,TN,NA,NA,79.43775100401606
38120,Shelby County,TN,NA,NA,80.08032128514057
38128,Shelby County,TN,NA,52.33092580433355,86.74698795180723
38133,Shelby County,TN,NA,77.28168089297439,NA
38134,Shelby County,TN,NA,68.68023637557452,NA
38139,Shelby County,TN,NA,97.30794484569928,NA
38237,Weakley County,TN,NA,46.61851608667104,NA
38242,Henry County,TN,NA,26.526592252133945,NA
38301,Madison County,TN,NA,11.359159553512804,NA
38310,McNairy County,TN,NA,65.52856204858831,NA
38340,Chester County,TN,NA,NA,87.63052208835342
38401,Maury County,TN,NA,NA,60.48192771084337
38464,Lawrence County,TN,NA,NA,60.80321285140562
38501,Putnam County,TN,12.943262411347517,NA,NA
38556,Fentress County,TN,NA,NA,46.907630522088354
75001,Dallas County,TX,NA,NA,84.49799196787149
75006,Dallas County,TX,75.177304964539,NA,NA
75007,Denton County,TX,NA,NA,55.7429718875502
75021,Grayson County,TX,NA,NA,68.27309236947792
75022,Denton County,TX,95.74468085106383,NA,NA
75024,Collin County,TX,NA,NA,51.64658634538153
75033,,TX,NA,91.13591595535128,NA
75042,Dallas County,TX,NA,NA,48.91566265060241
75043,Dallas County,TX,NA,NA,19.3574297188755
75050,Dallas County,TX,NA,NA,37.42971887550201
75056,Denton County,TX,NA,91.07025607353907,49.39759036144578
75060,Dallas County,TX,30.851063829787233,NA,NA
75062,Dallas County,TX,NA,NA,61.76706827309238
75067,Denton County,TX,NA,24.556795797767563,NA
75069,Collin County,TX,NA,23.177938279711096,NA
75070,Collin County,TX,NA,7.419566644780039,NA
75081,Dallas County,TX,NA,34.47143795141169,NA
75088,Dallas County,TX,NA,60.40709126723572,NA
75092,Grayson County,TX,NA,34.99671700590939,NA
75137,Dallas County,TX,NA,NA,75.90361445783132
75149,Dallas County,TX,NA,NA,28.99598393574297
75160,Kaufman County,TX,84.9290780141844,NA,NA
75165,Ellis County,TX,NA,NA,16.3855421686747
75180,Dallas County,TX,NA,50.95206828627708,NA
75206,Dallas County,TX,NA,NA,46.34538152610442
75209,Dallas County,TX,NA,NA,65.14056224899598
75212,Dallas County,TX,NA,61.523309258043334,NA
75214,Dallas County,TX,NA,43.59816152330926,NA
75215,Dallas County,TX,NA,43.46684175968483,42.24899598393574
75216,Dallas County,TX,NA,6.106369008535785,NA
75223,Dallas County,TX,NA,62.04858831254104,NA
75229,Dallas County,TX,NA,32.04202232435981,NA
75231,Dallas County,TX,NA,46.94681549573211,NA
75232,Dallas County,TX,NA,29.546946815495733,NA
75241,Dallas County,TX,NA,23.703217334208798,NA
75243,Dallas County,TX,NA,82.4688115561392,NA
75244,Dallas County,TX,NA,NA,73.33333333333333
75248,Dallas County,TX,NA,NA,25.140562248995984
75253,Dallas County,TX,NA,92.3177938279711,NA
75287,Denton County,TX,NA,NA,97.10843373493975
75442,Collin County,TX,NA,85.94878529218647,NA
75551,Cass County,TX,NA,NA,57.59036144578313
75638,Morris County,TX,NA,NA,92.20883534136546
75762,Smith County,TX,61.170212765957444,NA,NA
75789,Smith County,TX,NA,NA,96.30522088353413
75803,Anderson County,TX,NA,84.76690741956664,NA
75941,Angelina County,TX,NA,92.7774130006566,NA
76009,Johnson County,TX,74.11347517730496,NA,NA
76014,Tarrant County,TX,35.638297872340424,NA,NA
76016,Tarrant County,TX,50.88652482269504,NA,NA
76018,Tarrant County,TX,NA,44.517399868680236,NA
76022,Tarrant County,TX,NA,91.92383453709783,NA
76028,Johnson County,TX,NA,2.6263952724885096,NA
76034,Tarrant County,TX,NA,72.75114904793172,NA
76065,Ellis County,TX,NA,NA,51.80722891566265
76104,Tarrant County,TX,NA,NA,87.95180722891565
76106,Tarrant County,TX,NA,85.42350623768877,NA
76108,Tarrant County,TX,NA,NA,81.285140562249
76110,Tarrant County,TX,NA,NA,39.83935742971887
76112,Tarrant County,TX,NA,9.980302035456337,NA
76116,Tarrant County,TX,NA,9.520682862770848,NA
76119,Tarrant County,TX,NA,5.581089954038083,NA
76126,Tarrant County,TX,NA,NA,55.18072289156627
76135,Tarrant County,TX,NA,85.68614576493762,NA
76137,Tarrant County,TX,NA,40.90610636900854,NA
76182,Tarrant County,TX,NA,78.20091923834536,NA
76208,Denton County,TX,71.80851063829788,NA,54.93975903614457
76247,Denton County,TX,NA,83.25673013788575,NA
76310,Wichita County,TX,56.560283687943254,83.84766907419566,NA
76354,Wichita County,TX,NA,NA,56.867469879518076
76442,Comanche County,TX,NA,56.40183847669075,NA
76504,Bell County,TX,NA,12.672357189757058,NA
76513,Bell County,TX,NA,41.365725541694026,29.477911646586346
76543,Bell County,TX,NA,12.869336835193696,NA
76667,Limestone County,TX,NA,NA,35.7429718875502
76708,McLennan County,TX,NA,37.82009192383454,NA
76834,Coleman County,TX,95.0354609929078,NA,NA
76901,Tom Green County,TX,NA,21.142481943532502,NA
77008,Harris County,TX,NA,53.84110308601444,75.66265060240964
77012,Harris County,TX,NA,NA,77.0281124497992
77018,Harris County,TX,32.4468085106383,NA,NA
77022,Harris County,TX,39.71631205673759,NA,NA
77026,Harris County,TX,39.00709219858156,NA,NA
77028,Harris County,TX,NA,NA,91.24497991967871
77035,Harris County,TX,NA,36.244254760341434,NA
77036,Harris County,TX,NA,NA,39.51807228915663
77038,Harris County,TX,66.13475177304964,NA,NA
77041,Harris County,TX,45.0354609929078,NA,NA
77043,Harris County,TX,NA,60.53841103086014,NA
77044,Harris County,TX,27.659574468085108,NA,69.7991967871486
77060,Harris County,TX,84.04255319148936,NA,NA
77065,Harris County,TX,NA,86.80236375574523,27.148594377510037
77077,Harris County,TX,NA,21.667760998030204,NA
77079,Harris County,TX,NA,NA,38.87550200803213
77082,Harris County,TX,NA,NA,45.140562248995984
77098,Harris County,TX,NA,77.15036112934996,NA
77099,Harris County,TX,NA,71.63493105712409,NA
77306,Montgomery County,TX,NA,NA,90.4417670682731
77318,Montgomery County,TX,NA,55.745239658568615,NA
77327,Liberty County,TX,NA,58.2403151674327,NA
77328,San Jacinto County,TX,NA,NA,74.21686746987952
77338,Harris County,TX,33.86524822695036,NA,NA
77354,Montgomery County,TX,NA,NA,57.34939759036145
77377,Harris County,TX,NA,NA,34.69879518072289
77379,Harris County,TX,NA,7.0256073539067625,NA
77380,Montgomery County,TX,NA,70.6500328299409,NA
77433,Harris County,TX,8.156028368794328,NA,32.04819277108434
77437,Wharton County,TX,NA,NA,34.4578313253012
77450,Harris County,TX,NA,39.461588969139854,NA
77459,Fort Bend County,TX,NA,NA,82.00803212851405
77471,Fort Bend County,TX,NA,43.26986211424819,66.8273092369478
77479,Fort Bend County,TX,NA,39.26460932370322,90.76305220883533
77488,Wharton County,TX,98.40425531914893,NA,NA
77494,Fort Bend County,TX,NA,93.95929087327643,NA
77498,Fort Bend County,TX,39.184397163120565,NA,NA
77515,Brazoria County,TX,35.99290780141844,NA,83.21285140562249
77521,Harris County,TX,NA,49.83585029546947,26.987951807228917
77531,Brazoria County,TX,54.60992907801418,NA,NA
77532,Harris County,TX,NA,46.42153644123441,NA
77546,Galveston County,TX,71.27659574468085,NA,NA
77563,Galveston County,TX,NA,85.02954694681549,NA
77581,Brazoria County,TX,NA,13.985554826001312,22.08835341365462
77583,Brazoria County,TX,78.19148936170212,NA,NA
77584,Brazoria County,TX,NA,56.73013788575181,NA
77590,Galveston County,TX,NA,NA,76.70682730923694
77598,Harris County,TX,NA,88.24688115561392,92.44979919678715
77662,Orange County,TX,NA,76.8220617202889,NA
77706,Jefferson County,TX,NA,24.097176625082074,NA
77713,Jefferson County,TX,NA,NA,97.51004016064257
77807,Brazos County,TX,NA,50.75508864084045,NA
77904,Victoria County,TX,NA,NA,16.46586345381526
77957,Jackson County,TX,NA,57.189757058437294,86.8273092369478
78026,Atascosa County,TX,NA,97.9645436638214,NA
78046,Webb County,TX,NA,NA,64.41767068273091
78052,Atascosa County,TX,NA,NA,94.93975903614458
78130,Comal County,TX,NA,13.591595535128038,NA
78133,Comal County,TX,NA,NA,85.54216867469879
78154,Guadalupe County,TX,NA,58.30597504924491,NA
78207,Bexar County,TX,NA,34.274458305975045,14.779116465863455
78209,Bexar County,TX,NA,NA,29.31726907630522
78221,Bexar County,TX,NA,65.13460275771503,NA
78223,Bexar County,TX,NA,48.39133289560078,NA
78227,Bexar County,TX,NA,NA,24.497991967871485
78232,Bexar County,TX,NA,74.39264609323703,NA
78233,Bexar County,TX,31.20567375886525,NA,NA
78240,Bexar County,TX,NA,NA,27.309236947791167
78245,Bexar County,TX,NA,NA,33.81526104417671
78253,Bexar County,TX,NA,52.19960604070912,88.51405622489959
78374,San Patricio County,TX,NA,NA,85.38152610441767
78408,Nueces County,TX,NA,90.67629678266579,NA
78415,Nueces County,TX,NA,35.653315824031516,NA
78501,Hidalgo County,TX,75.53191489361703,14.379514116874589,78.714859437751
78516,Hidalgo County,TX,NA,89.03479973736047,NA
78520,Cameron County,TX,NA,19.763624425476035,NA
78537,Hidalgo County,TX,NA,NA,43.132530120481924
78539,Hidalgo County,TX,NA,NA,35.26104417670683
78566,Cameron County,TX,NA,89.88837820091923,NA
78572,Hidalgo County,TX,53.01418439716312,12.278397898883782,NA
78573,Hidalgo County,TX,NA,32.764281024294156,NA
78589,Hidalgo County,TX,NA,25.541694024950758,NA
78620,Hays County,TX,NA,NA,72.28915662650603
78621,Bastrop County,TX,NA,77.08470124753775,NA
78624,Gillespie County,TX,NA,34.07747866053841,NA
78628,Williamson County,TX,NA,61.12934996717006,NA
78633,Williamson County,TX,NA,0.8535784635587657,NA
78640,Hays County,TX,NA,28.365068942875904,NA
78641,Williamson County,TX,15.070921985815602,NA,NA
78643,Llano County,TX,NA,70.84701247537754,NA
78648,Caldwell County,TX,NA,83.38804990151017,NA
78654,Burnet County,TX,NA,NA,9.477911646586346
78660,Travis County,TX,NA,50.68942875902823,NA
78681,Williamson County,TX,NA,22.390019697964544,17.51004016064257
78702,Travis County,TX,90.42553191489363,NA,NA
78723,Travis County,TX,NA,54.563361785948786,NA
78729,Williamson County,TX,91.13475177304964,63.55876559422193,NA
78737,Hays County,TX,NA,76.8220617202889,NA
78738,Travis County,TX,NA,NA,75.7429718875502
78753,Travis County,TX,NA,52.65922521339461,NA
78840,Val Verde County,TX,NA,NA,6.184738955823294
79106,Potter County,TX,68.79432624113475,26.657912015758374,NA
79107,Potter County,TX,NA,NA,50.92369477911647
79109,Randall County,TX,NA,31.057124097176626,NA
79416,Lubbock County,TX,NA,NA,94.4578313253012
79424,Lubbock County,TX,NA,6.565988181221274,NA
79549,Scurry County,TX,NA,30.531845042678924,NA
79606,Taylor County,TX,NA,37.55745239658569,NA
79701,Midland County,TX,NA,75.2462245567958,67.46987951807229
79720,Howard County,TX,NA,NA,40.401606425702816
79762,Ector County,TX,21.631205673758867,NA,NA
79764,Ector County,TX,NA,NA,98.47389558232932
79766,Ector County,TX,94.50354609929079,NA,NA
79904,El Paso County,TX,NA,NA,93.01204819277108
79905,El Paso County,TX,NA,41.2344057780696,NA
79912,El Paso County,TX,NA,69.40249507550887,NA
79915,El Paso County,TX,NA,NA,36.94779116465863
79925,El Paso County,TX,NA,36.17859487852922,NA
79930,El Paso County,TX,NA,80.82731451083389,NA
79936,El Paso County,TX,31.028368794326237,NA,NA
84003,Utah County,UT,NA,NA,50.12048192771085
84044,Salt Lake County,UT,32.09219858156028,NA,NA
84057,Utah County,UT,NA,83.58502954694683,NA
84065,Salt Lake County,UT,55.673758865248224,NA,NA
84084,Salt Lake County,UT,NA,27.971109652002625,NA
84087,Davis County,UT,NA,88.24688115561392,NA
84095,Salt Lake County,UT,NA,97.17662508207485,NA
84096,Salt Lake County,UT,20.212765957446805,NA,NA
84098,Summit County,UT,NA,77.41300065659883,NA
84103,Salt Lake County,UT,49.645390070921984,NA,NA
84107,Salt Lake County,UT,NA,97.57058437294813,NA
84119,Salt Lake County,UT,NA,54.76034143138543,NA
84120,Salt Lake County,UT,NA,56.46749835850295,NA
84123,Salt Lake County,UT,NA,26.85489166119501,NA
84129,,UT,NA,NA,95.26104417670683
84601,Utah County,UT,57.62411347517731,NA,NA
84721,Iron County,UT,NA,76.23112278397899,NA
84741,Kane County,UT,NA,97.4392646093237,NA
05446,Chittenden County,VT,NA,30.26920551543007,NA
05641,Washington County,VT,NA,NA,9.236947791164658
05701,Rutland County,VT,NA,NA,8.19277108433735
05753,Addison County,VT,NA,95.3381483913329,NA
20120,Fairfax County,VA,NA,NA,54.93975903614457
20147,Loudoun County,VA,28.368794326241137,NA,NA
20169,Prince William County,VA,NA,79.25147734734077,NA
20175,Loudoun County,VA,NA,NA,32.85140562248996
20176,Loudoun County,VA,NA,NA,39.11646586345381
20187,Fauquier County,VA,NA,89.1004596191727,NA
22032,Fairfax County,VA,NA,NA,56.06425702811245
22180,Fairfax County,VA,NA,NA,50.28112449799197
22192,Prince William County,VA,NA,28.62770847012475,31.96787148594378
22201,Arlington County,VA,NA,51.477347340774784,NA
22204,Arlington County,VA,NA,31.9763624425476,NA
22207,Arlington County,VA,NA,30.46618516086671,NA
22304,Alexandria city,VA,NA,23.76887721602101,NA
22307,Fairfax County,VA,NA,NA,66.90763052208835
22314,Alexandria city,VA,23.75886524822695,NA,98.15261044176707
22401,Fredericksburg city,VA,NA,79.77675640183848,NA
22405,Stafford County,VA,NA,38.34537097833224,NA
22408,Spotsylvania County,VA,NA,42.284963887065004,NA
22546,Caroline County,VA,NA,47.9317137229153,NA
22580,Caroline County,VA,NA,NA,87.46987951807229
22601,Winchester city,VA,NA,25.41037426132633,NA
22701,Culpeper County,VA,NA,NA,96.62650602409639
22902,Charlottesville city,VA,NA,NA,58.393574297188756
22947,Albemarle County,VA,NA,NA,76.144578313253
22968,Greene County,VA,NA,87.78726198292843,NA
22980,Waynesboro city,VA,NA,17.399868680236374,33.01204819277108
23060,Henrico County,VA,NA,39.395929087327644,NA
23117,Louisa County,VA,NA,NA,54.77911646586345
23139,Powhatan County,VA,NA,NA,34.93975903614458
23141,New Kent County,VA,NA,99.08076165462903,NA
23188,James City County,VA,NA,40.1838476690742,5.783132530120482
23231,Henrico County,VA,NA,NA,22.73092369477912
23233,Henrico County,VA,NA,55.02298095863427,NA
23234,Chesterfield County,VA,13.47517730496454,NA,NA
23235,Chesterfield County,VA,NA,82.86277084701248,NA
23236,Chesterfield County,VA,NA,NA,73.25301204819277
23321,Chesapeake city,VA,NA,21.33946158896914,NA
23452,Virginia Beach city,VA,NA,26.460932370321732,NA
23453,Virginia Beach city,VA,NA,NA,44.97991967871486
23454,Virginia Beach city,VA,NA,NA,19.116465863453815
23456,Virginia Beach city,VA,NA,56.073539067629675,NA
23462,Virginia Beach city,VA,NA,NA,2.4899598393574296
23464,Virginia Beach city,VA,NA,2.1667760998030205,11.887550200803213
23504,Norfolk city,VA,43.61702127659575,NA,NA
23505,Norfolk city,VA,29.25531914893617,NA,NA
23513,Norfolk city,VA,NA,NA,13.413654618473897
23606,Newport News city,VA,NA,NA,57.510040160642575
23701,Portsmouth city,VA,NA,15.627051871306632,NA
23704,Portsmouth city,VA,NA,37.03217334208798,NA
23803,Petersburg city,VA,NA,51.739986868023635,NA
23824,Nottoway County,VA,NA,NA,65.62248995983936
23832,Chesterfield County,VA,NA,NA,50.36144578313253
23834,Colonial Heights city,VA,NA,NA,84.09638554216868
23838,Chesterfield County,VA,NA,80.76165462902168,NA
23842,Prince George County,VA,NA,94.81286933683519,NA
23868,Brunswick County,VA,81.38297872340425,NA,NA
23875,Prince George County,VA,NA,NA,96.3855421686747
23901,Prince Edward County,VA,NA,NA,48.433734939759034
24012,Roanoke city,VA,46.808510638297875,NA,NA
24015,Roanoke city,VA,NA,92.64609323703218,NA
24017,Roanoke city,VA,NA,29.94090610636901,NA
24201,Bristol city,VA,NA,92.84307288246882,NA
24224,Russell County,VA,63.47517730496454,NA,NA
24382,Wythe County,VA,34.39716312056738,NA,NA
24401,Staunton city,VA,NA,NA,22.48995983935743
24450,Rockbridge County,VA,NA,38.41103086014445,NA
24477,Augusta County,VA,NA,62.77084701247537,NA
24501,Lynchburg city,VA,NA,71.96323046618515,NA
24520,Halifax County,VA,NA,99.34340118187788,NA
24588,Campbell County,VA,NA,NA,70.92369477911646
24592,Halifax County,VA,NA,23.96585686145765,20.883534136546185
24605,Tazewell County,VA,67.90780141843972,NA,94.6987951807229
98001,King County,WA,NA,NA,49.71887550200803
98006,King County,WA,NA,20.420223243598162,NA
98019,King County,WA,NA,86.08010505581089,NA
98020,Snohomish County,WA,NA,NA,22.008032128514056
98026,Snohomish County,WA,NA,67.10439921208142,NA
98030,King County,WA,18.26241134751773,NA,NA
98031,King County,WA,NA,10.702560735390676,NA
98033,King County,WA,NA,NA,18.55421686746988
98034,King County,WA,24.822695035460992,32.9612606697308,NA
98036,Snohomish County,WA,NA,NA,81.84738955823293
98037,Snohomish County,WA,84.21985815602837,NA,NA
98045,King County,WA,NA,66.38214051214707,NA
98053,King County,WA,NA,88.6408404464872,NA
98056,King County,WA,69.14893617021278,NA,NA
98059,King County,WA,NA,19.763624425476035,51.566265060240966
98101,King County,WA,NA,NA,56.867469879518076
98103,King County,WA,NA,27.511490479317136,NA
98110,Kitsap County,WA,46.98581560283688,79.12015758371635,41.9277108433735
98112,King County,WA,NA,85.75180564674983,47.71084337349398
98115,King County,WA,NA,16.34931057124097,NA
98118,King County,WA,NA,NA,84.25702811244979
98119,King County,WA,NA,60.99803020354564,NA
98125,King County,WA,NA,24.688115561391992,NA
98126,King County,WA,NA,NA,90.60240963855422
98146,King County,WA,NA,67.36703873933027,NA
98177,King County,WA,NA,NA,92.3694779116466
98198,King County,WA,NA,93.17137229152988,15.823293172690764
98203,Snohomish County,WA,NA,NA,77.51004016064257
98204,Snohomish County,WA,19.50354609929078,NA,NA
98221,Skagit County,WA,NA,NA,11.004016064257028
98223,Snohomish County,WA,NA,84.0446487196323,NA
98226,Whatcom County,WA,NA,NA,77.59036144578313
98233,Skagit County,WA,NA,38.279711096520025,NA
98239,Island County,WA,NA,NA,44.41767068273093
98270,Snohomish County,WA,NA,21.208141825344715,NA
98272,Snohomish County,WA,NA,30.072225869993435,NA
98273,Skagit County,WA,NA,64.67498358502954,NA
98275,Snohomish County,WA,NA,52.527905449770195,NA
98292,Snohomish County,WA,NA,NA,45.140562248995984
98310,Kitsap County,WA,NA,NA,29.55823293172691
98311,Kitsap County,WA,NA,NA,89.1566265060241
98370,Kitsap County,WA,NA,73.80170715692712,NA
98371,Pierce County,WA,NA,39.52724885095207,NA
98372,Pierce County,WA,NA,70.84701247537754,NA
98387,Pierce County,WA,NA,15.298752462245568,NA
98403,Pierce County,WA,NA,94.15627051871307,NA
98407,Pierce County,WA,NA,32.435981615233096,NA
98444,Pierce County,WA,NA,85.48916611950098,NA
98446,Pierce County,WA,NA,NA,76.54618473895583
98502,Thurston County,WA,NA,NA,77.67068273092369
98503,Thurston County,WA,NA,96.32304661851609,NA
98513,Thurston County,WA,59.21985815602837,84.11030860144452,NA
98528,Mason County,WA,NA,NA,60
98532,Lewis County,WA,53.191489361702125,83.32239001969796,NA
98548,Mason County,WA,NA,NA,95.02008032128514
98597,Thurston County,WA,NA,NA,71.16465863453814
98607,Clark County,WA,NA,71.1096520026264,NA
98626,Cowlitz County,WA,NA,48.65397242284964,NA
98632,Cowlitz County,WA,NA,20.48588312541037,NA
98662,Clark County,WA,NA,82.79711096520026,NA
98663,Clark County,WA,61.87943262411347,63.099146421536446,NA
98674,Cowlitz County,WA,NA,NA,78.39357429718875
98801,Chelan County,WA,NA,NA,2.891566265060241
98816,Chelan County,WA,NA,61.39198949441891,NA
98823,Grant County,WA,86.70212765957447,63.55876559422193,NA
98837,Grant County,WA,47.87234042553192,NA,NA
98930,Yakima County,WA,NA,63.755745239658566,NA
98951,Yakima County,WA,NA,74.7866053841103,NA
99201,Spokane County,WA,NA,NA,64.01606425702812
99207,Spokane County,WA,NA,NA,47.46987951807229
99224,Spokane County,WA,NA,81.02429415627051,NA
99320,Benton County,WA,NA,37.29481286933684,NA
99328,Columbia County,WA,NA,95.20682862770848,NA
99337,Benton County,WA,NA,24.688115561391992,4.899598393574297
99362,Walla Walla County,WA,NA,8.470124753775444,NA
20001,District of Columbia,DC,NA,35.456336178594874,NA
20003,District of Columbia,DC,NA,94.55022980958634,NA
20005,District of Columbia,DC,74.64539007092199,NA,61.44578313253012
20007,District of Columbia,DC,NA,47.86605384110308,80.56224899598394
20008,District of Columbia,DC,NA,55.02298095863427,NA
20009,District of Columbia,DC,23.93617021276596,NA,NA
20010,District of Columbia,DC,NA,61.72028890347997,NA
20015,District of Columbia,DC,NA,67.49835850295469,NA
20018,District of Columbia,DC,NA,45.23965856861458,NA
20020,District of Columbia,DC,NA,4.070912672357189,NA
24740,Mercer County,WV,NA,21.930400525279055,NA
25177,Kanawha County,WV,45.92198581560284,NA,NA
25271,Jackson County,WV,51.77304964539007,NA,NA
25311,Kanawha County,WV,55.319148936170215,NA,NA
25401,Berkeley County,WV,77.83687943262412,NA,NA
25405,Berkeley County,WV,62.23404255319149,NA,NA
25541,Cabell County,WV,NA,82.73145108338805,NA
25701,Cabell County,WV,NA,NA,17.429718875502008
25801,Raleigh County,WV,NA,27.445830597504923,NA
25901,Fayette County,WV,34.57446808510639,NA,NA
26003,Ohio County,WV,NA,12.344057780695996,NA
26062,Hancock County,WV,NA,NA,6.586345381526105
26241,Randolph County,WV,NA,15.82403151674327,NA
26330,Harrison County,WV,74.822695035461,NA,NA
26354,Taylor County,WV,NA,NA,90.52208835341365
26452,Lewis County,WV,NA,21.470781352593566,NA
26501,Monongalia County,WV,NA,47.406434668417596,NA
26847,Grant County,WV,NA,59.55351280367695,NA
53018,Waukesha County,WI,NA,99.67170059093894,NA
53032,Dodge County,WI,NA,99.21208141825345,NA
53072,Waukesha County,WI,NA,28.759028233749177,NA
53083,Sheboygan County,WI,NA,97.04530531845043,NA
53092,Ozaukee County,WI,NA,57.2554169402495,10.120481927710843
53095,Washington County,WI,NA,NA,17.991967871485944
53115,Walworth County,WI,90.60283687943263,NA,NA
53122,Waukesha County,WI,73.93617021276596,NA,NA
53144,Kenosha County,WI,NA,46.68417596848325,NA
53150,Waukesha County,WI,NA,NA,34.21686746987952
53151,Waukesha County,WI,NA,92.38345370978332,10.281124497991968
53154,Milwaukee County,WI,NA,8.076165462902168,23.6144578313253
53206,Milwaukee County,WI,NA,7.156927117531188,NA
53207,Milwaukee County,WI,NA,48.65397242284964,NA
53209,Milwaukee County,WI,NA,25.47603414313854,NA
53210,Milwaukee County,WI,NA,90.2166776099803,NA
53212,Milwaukee County,WI,NA,33.81483913328956,NA
53213,Milwaukee County,WI,NA,20.945502298095864,NA
53220,Milwaukee County,WI,NA,44.254760341431385,NA
53221,Milwaukee County,WI,NA,13.919894944189101,31.88755020080321
53224,Milwaukee County,WI,70.0354609929078,NA,NA
53402,Racine County,WI,NA,NA,83.93574297188755
53403,Racine County,WI,68.26241134751773,NA,NA
53405,Racine County,WI,NA,16.217990807616548,NA
53406,Racine County,WI,NA,1.5758371634931057,NA
53511,Rock County,WI,NA,0.2626395272488509,NA
53546,Rock County,WI,NA,17.662508207485224,NA
53548,Rock County,WI,NA,44.8456992777413,NA
53578,Sauk County,WI,NA,72.29152987524623,NA
53581,Richland County,WI,NA,66.25082074852266,NA
53913,Sauk County,WI,NA,37.82009192383454,NA
54217,Kewaunee County,WI,NA,NA,87.55020080321285
54220,Manitowoc County,WI,NA,1.6414970453053186,NA
54235,Door County,WI,NA,NA,79.19678714859437
54409,Langlade County,WI,NA,NA,28.19277108433735
54452,Lincoln County,WI,NA,NA,15.582329317269075
54494,Wood County,WI,47.5177304964539,4.858831254103743,NA
54650,La Crosse County,WI,NA,NA,1.6064257028112447
54868,Barron County,WI,NA,76.03414313854235,21.76706827309237
54901,Winnebago County,WI,20.390070921985814,NA,NA
54914,Outagamie County,WI,NA,38.60801050558109,NA
54956,Winnebago County,WI,NA,22.915298752462245,NA
54981,Waupaca County,WI,NA,76.49376231122784,NA
82009,Laramie County,WY,NA,40.77478660538411,NA
82414,Park County,WY,59.39716312056738,NA,NA
82435,Park County,WY,NA,NA,36.54618473895582
82609,Natrona County,WY,NA,NA,62.24899598393574
82801,Sheridan County,WY,NA,NA,21.606425702811244
