ZipCode,county,state,Adult,Retirement,Geriatric
35044,Talladega County,AL,NA,79.24016282225237,NA
35045,Chilton County,AL,NA,NA,94.3298969072165
35216,Jefferson County,AL,NA,NA,33.76288659793815
35601,Morgan County,AL,7.246376811594203,NA,NA
35640,Morgan County,AL,21.256038647342994,NA,NA
35754,Morgan County,AL,NA,NA,68.04123711340206
35803,Madison County,AL,NA,22.388059701492537,NA
35816,Madison County,AL,NA,NA,72.42268041237114
35901,Etowah County,AL,NA,NA,49.22680412371135
36064,Montgomery County,AL,NA,75.7123473541384,NA
36092,Elmore County,AL,28.26086956521739,NA,NA
36330,Coffee County,AL,NA,NA,76.03092783505154
36340,Geneva County,AL,NA,86.02442333785618,NA
36360,Dale County,AL,NA,NA,40.97938144329897
36420,Covington County,AL,NA,NA,46.90721649484536
36535,Baldwin County,AL,52.41545893719807,NA,NA
36542,Baldwin County,AL,NA,NA,72.68041237113401
36571,Mobile County,AL,48.55072463768116,NA,NA
36609,Mobile County,AL,NA,NA,62.11340206185567
85023,Maricopa County,AZ,NA,NA,49.74226804123711
85037,Maricopa County,AZ,15.217391304347828,NA,NA
85048,Maricopa County,AZ,NA,NA,67.0103092783505
85122,Pinal County,AZ,3.864734299516908,NA,NA
85206,Maricopa County,AZ,NA,18.860244233378562,NA
85209,Maricopa County,AZ,NA,56.580732700135684,NA
85210,Maricopa County,AZ,33.81642512077295,NA,NA
85213,Maricopa County,AZ,NA,NA,50.25773195876289
85254,Maricopa County,AZ,33.091787439613526,NA,NA
85268,Maricopa County,AZ,NA,NA,54.38144329896907
85284,Maricopa County,AZ,NA,88.60244233378562,NA
85297,Maricopa County,AZ,41.06280193236715,NA,NA
85306,Maricopa County,AZ,NA,NA,45.36082474226804
85308,Maricopa County,AZ,61.111111111111114,NA,NA
85344,La Paz County,AZ,22.946859903381643,NA,NA
85353,Maricopa County,AZ,19.806763285024154,NA,NA
85378,Maricopa County,AZ,79.71014492753623,NA,NA
85602,Cochise County,AZ,NA,88.19538670284939,NA
85614,Pima County,AZ,NA,37.8561736770692,NA
85622,Pima County,AZ,NA,46.13297150610583,NA
85710,Pima County,AZ,NA,9.226594301221166,NA
85718,Pima County,AZ,NA,96.33649932157394,NA
85730,Pima County,AZ,15.70048309178744,NA,NA
85737,Pima County,AZ,NA,58.34464043419268,31.958762886597935
85743,Pima County,AZ,NA,16.010854816824967,NA
85746,Pima County,AZ,NA,NA,34.27835051546392
85750,Pima County,AZ,NA,79.91858887381275,NA
86005,Coconino County,AZ,31.642512077294686,NA,NA
86301,Yavapai County,AZ,45.893719806763286,NA,12.11340206185567
86426,Mohave County,AZ,60.14492753623188,62.822252374491185,NA
86442,Mohave County,AZ,NA,5.563093622795115,NA
71854,Miller County,AR,NA,NA,24.484536082474225
72023,Lonoke County,AR,NA,16.14654002713704,NA
72034,Faulkner County,AR,NA,NA,55.412371134020624
72076,Pulaski County,AR,NA,22.65943012211669,NA
72110,Conway County,AR,62.07729468599034,NA,74.22680412371135
72143,White County,AR,NA,5.291723202170964,NA
72204,Pulaski County,AR,32.125603864734295,NA,NA
72364,Crittenden County,AR,NA,NA,97.68041237113401
72450,Greene County,AR,NA,NA,20.876288659793815
72908,Sebastian County,AR,98.06763285024155,NA,NA
90034,Los Angeles County,CA,NA,34.599728629579374,NA
90035,Los Angeles County,CA,NA,NA,63.65979381443299
90046,Los Angeles County,CA,NA,41.38398914518318,NA
90049,Los Angeles County,CA,78.01932367149759,NA,42.78350515463917
90077,Los Angeles County,CA,NA,81.54681139755766,NA
90201,Los Angeles County,CA,NA,NA,95.10309278350515
90211,Los Angeles County,CA,NA,NA,92.26804123711341
90266,Los Angeles County,CA,NA,32.021709633649934,NA
90505,Los Angeles County,CA,NA,26.72998643147897,26.288659793814436
90603,Los Angeles County,CA,NA,34.32835820895522,NA
90640,Los Angeles County,CA,NA,47.35413839891452,NA
90720,Orange County,CA,NA,84.39620081411127,NA
90731,Los Angeles County,CA,18.84057971014493,NA,NA
90740,Orange County,CA,47.58454106280193,NA,NA
90804,Los Angeles County,CA,27.536231884057973,NA,NA
90805,Los Angeles County,CA,NA,13.432835820895523,NA
91105,Los Angeles County,CA,NA,70.42062415196743,NA
91302,Los Angeles County,CA,NA,90.77340569877883,NA
91360,Ventura County,CA,41.78743961352657,NA,NA
91367,Los Angeles County,CA,62.31884057971014,NA,NA
91403,Los Angeles County,CA,NA,NA,69.58762886597938
91405,Los Angeles County,CA,NA,54.409769335142464,NA
91423,Los Angeles County,CA,NA,NA,37.628865979381445
91501,Los Angeles County,CA,69.32367149758454,NA,NA
91701,San Bernardino County,CA,NA,NA,87.88659793814433
91711,Los Angeles County,CA,NA,NA,58.24742268041238
91750,Los Angeles County,CA,NA,90.09497964721845,NA
91761,San Bernardino County,CA,14.492753623188406,NA,NA
91766,Los Angeles County,CA,NA,NA,27.061855670103093
91786,San Bernardino County,CA,43.96135265700483,NA,NA
91935,San Diego County,CA,NA,NA,82.4742268041237
92008,San Diego County,CA,NA,44.50474898236092,NA
92024,San Diego County,CA,NA,70.1492537313433,NA
92058,San Diego County,CA,NA,85.07462686567165,NA
92081,San Diego County,CA,NA,82.90366350067842,NA
92118,San Diego County,CA,NA,NA,29.381443298969074
92129,San Diego County,CA,NA,95.11533242876527,NA
92130,San Diego County,CA,43.23671497584541,NA,NA
92234,Riverside County,CA,7.487922705314009,NA,NA
92262,Riverside County,CA,NA,5.698778833107191,NA
92270,Riverside County,CA,63.52657004830918,NA,NA
92284,San Bernardino County,CA,15.458937198067632,NA,NA
92337,San Bernardino County,CA,NA,76.93351424694708,NA
92392,San Bernardino County,CA,NA,NA,78.35051546391753
92407,San Bernardino County,CA,68.84057971014492,NA,NA
92530,Riverside County,CA,NA,64.45047489823608,NA
92545,Riverside County,CA,80.19323671497585,NA,NA
92625,Orange County,CA,NA,NA,37.371134020618555
92626,Orange County,CA,25.845410628019323,NA,NA
92627,Orange County,CA,NA,NA,13.144329896907218
92629,Orange County,CA,52.89855072463768,27.00135685210312,NA
92637,Orange County,CA,NA,NA,2.0618556701030926
92646,Orange County,CA,NA,NA,54.89690721649485
92648,Orange County,CA,NA,12.890094979647218,41.75257731958763
92649,Orange County,CA,NA,NA,27.835051546391753
92653,Orange County,CA,NA,33.921302578018995,NA
92660,Orange County,CA,NA,75.30529172320217,NA
92672,Orange County,CA,45.410628019323674,NA,32.47422680412371
92675,Orange County,CA,NA,86.70284938941656,83.24742268041237
92677,Orange County,CA,NA,5.156037991858888,NA
92679,Orange County,CA,NA,94.30122116689282,NA
92694,Orange County,CA,34.29951690821256,NA,NA
92705,Orange County,CA,NA,61.05834464043419,NA
92707,Orange County,CA,25.60386473429952,NA,NA
92780,Orange County,CA,NA,40.56987788331072,NA
92801,Orange County,CA,20.77294685990338,NA,NA
92808,Orange County,CA,NA,61.601085481682496,NA
92869,Orange County,CA,38.64734299516908,NA,NA
93033,Ventura County,CA,NA,NA,15.979381443298967
93035,Ventura County,CA,46.85990338164252,NA,NA
93065,Ventura County,CA,NA,52.91723202170964,NA
93277,Tulare County,CA,NA,9.905020352781547,NA
93420,San Luis Obispo County,CA,NA,29.579375848032562,NA
93449,San Luis Obispo County,CA,85.02415458937197,NA,NA
93455,Santa Barbara County,CA,NA,18.181818181818183,NA
93720,Fresno County,CA,20.28985507246377,NA,NA
93727,Fresno County,CA,26.811594202898554,NA,NA
93906,Monterey County,CA,NA,NA,32.98969072164948
94010,San Mateo County,CA,NA,20.8955223880597,NA
94019,San Mateo County,CA,NA,NA,41.23711340206185
94043,Santa Clara County,CA,53.14009661835749,NA,NA
94066,San Mateo County,CA,NA,NA,9.278350515463918
94109,San Francisco County,CA,16.425120772946862,NA,NA
94114,San Francisco County,CA,NA,35.27815468113975,NA
94538,Alameda County,CA,NA,28.222523744911804,NA
94539,Alameda County,CA,NA,NA,57.47422680412371
94544,Alameda County,CA,NA,55.63093622795115,NA
94546,Alameda County,CA,NA,NA,16.49484536082474
94582,Contra Costa County,CA,92.9951690821256,NA,NA
94598,Contra Costa County,CA,NA,36.63500678426052,NA
94611,Alameda County,CA,40.33816425120773,NA,NA
94618,Alameda County,CA,NA,76.52645861601086,85.82474226804123
94706,Alameda County,CA,NA,83.71777476255087,NA
94708,Alameda County,CA,NA,NA,59.02061855670103
94965,Marin County,CA,NA,87.10990502035278,NA
95037,Santa Clara County,CA,NA,19.810040705563093,NA
95076,Santa Cruz County,CA,NA,NA,25
95123,Santa Clara County,CA,NA,15.60379918588874,NA
95125,Santa Clara County,CA,NA,11.804613297150611,NA
95129,Santa Clara County,CA,NA,53.45997286295794,NA
95135,Santa Clara County,CA,NA,NA,38.144329896907216
95136,Santa Clara County,CA,36.473429951690825,NA,NA
95215,San Joaquin County,CA,NA,67.43554952510176,NA
95336,San Joaquin County,CA,NA,NA,62.88659793814433
95338,Mariposa County,CA,NA,49.796472184531886,NA
95350,Stanislaus County,CA,NA,8.005427408412483,NA
95361,Stanislaus County,CA,NA,18.31750339213026,NA
95366,San Joaquin County,CA,80.43478260869566,NA,NA
95409,Sonoma County,CA,NA,NA,35.824742268041234
95448,Sonoma County,CA,NA,56.17367706919946,NA
95467,Lake County,CA,NA,NA,87.37113402061856
95476,Sonoma County,CA,NA,22.25237449118046,NA
95482,Mendocino County,CA,NA,14.518317503392131,NA
95531,Del Norte County,CA,NA,NA,52.83505154639175
95602,Placer County,CA,NA,32.42876526458616,NA
95608,Sacramento County,CA,NA,NA,5.154639175257731
95610,Sacramento County,CA,NA,NA,31.443298969072163
95628,Sacramento County,CA,NA,67.97829036635007,NA
95650,Placer County,CA,NA,88.46675712347354,68.55670103092784
95678,Placer County,CA,NA,NA,46.134020618556704
95687,Solano County,CA,NA,40.43419267299864,NA
95746,Placer County,CA,NA,75.57666214382633,NA
95821,Sacramento County,CA,NA,NA,56.95876288659794
95829,Sacramento County,CA,NA,85.8887381275441,NA
95864,Sacramento County,CA,NA,77.20488466757124,NA
95965,Butte County,CA,NA,84.1248303934871,NA
95973,Butte County,CA,NA,13.704206241519673,NA
80015,Arapahoe County,CO,NA,11.940298507462686,NA
80023,Broomfield County,CO,NA,57.6662143826323,NA
80031,Adams County,CO,NA,NA,39.948453608247426
80112,Arapahoe County,CO,NA,63.907734056987785,NA
80120,Arapahoe County,CO,NA,NA,35.30927835051546
80127,Jefferson County,CO,NA,NA,97.16494845360825
80212,Denver County,CO,82.85024154589372,NA,NA
80215,Jefferson County,CO,44.68599033816425,NA,NA
80226,Jefferson County,CO,68.35748792270532,NA,NA
80231,Denver County,CO,NA,66.62143826322931,41.49484536082475
80301,Boulder County,CO,37.19806763285024,NA,NA
80517,Larimer County,CO,NA,30.936227951153324,NA
80521,Larimer County,CO,NA,68.24966078697422,NA
80526,Larimer County,CO,NA,19.94572591587517,NA
80615,Weld County,CO,64.00966183574879,NA,NA
80863,Teller County,CO,NA,66.75712347354138,NA
80920,El Paso County,CO,NA,67.57123473541384,NA
80923,El Paso County,CO,81.88405797101449,NA,NA
81007,Pueblo County,CO,28.743961352657006,NA,NA
81147,Archuleta County,CO,NA,83.71777476255087,NA
81212,Fremont County,CO,NA,73.67706919945725,NA
81252,Custer County,CO,NA,91.04477611940298,NA
81303,La Plata County,CO,NA,69.33514246947082,NA
81321,Montezuma County,CO,46.13526570048309,NA,NA
06010,Hartford County,CT,NA,37.3134328358209,NA
06013,Hartford County,CT,NA,80.32564450474898,NA
06037,Hartford County,CT,NA,66.21438263229308,30.927835051546392
06067,Hartford County,CT,NA,96.74355495251018,NA
06078,Hartford County,CT,NA,86.43147896879239,NA
06082,Hartford County,CT,NA,8.005427408412483,NA
06111,Hartford County,CT,63.28502415458937,NA,NA
06118,Hartford County,CT,NA,51.56037991858887,NA
06413,Middlesex County,CT,77.05314009661835,NA,NA
06443,New Haven County,CT,NA,NA,22.422680412371136
06451,New Haven County,CT,NA,24.559023066485754,NA
06457,Middlesex County,CT,NA,87.92401628222524,NA
06460,New Haven County,CT,NA,8.955223880597014,NA
06461,New Haven County,CT,NA,54.54545454545454,NA
06470,Fairfield County,CT,NA,60.92265943012212,NA
06489,Hartford County,CT,NA,NA,5.927835051546391
06492,New Haven County,CT,NA,28.62957937584803,3.350515463917526
06511,New Haven County,CT,2.1739130434782608,NA,NA
06608,Fairfield County,CT,79.46859903381642,NA,NA
06612,Fairfield County,CT,NA,99.18588873812755,NA
06615,Fairfield County,CT,93.47826086956522,NA,NA
06770,New Haven County,CT,34.54106280193236,NA,17.783505154639176
06811,Fairfield County,CT,88.40579710144928,NA,NA
06820,Fairfield County,CT,NA,63.22930800542741,NA
06877,Fairfield County,CT,NA,NA,25.773195876288657
06897,Fairfield County,CT,NA,54.81682496607869,NA
19701,New Castle County,DE,16.183574879227052,NA,NA
19709,New Castle County,DE,NA,37.99185888738128,NA
19808,New Castle County,DE,NA,12.48303934871099,NA
19901,Kent County,DE,NA,10.719131614654003,NA
19934,Kent County,DE,50.96618357487923,NA,NA
19953,Kent County,DE,83.33333333333334,NA,NA
19958,Sussex County,DE,21.014492753623188,1.7639077340569878,NA
19977,Kent County,DE,13.526570048309178,NA,NA
32043,Clay County,FL,NA,40.298507462686565,NA
32073,Clay County,FL,14.251207729468598,NA,NA
32080,St. Johns County,FL,NA,NA,48.1958762886598
32082,St. Johns County,FL,NA,NA,94.84536082474226
32086,St. Johns County,FL,NA,10.44776119402985,NA
32127,Volusia County,FL,NA,24.830393487109905,NA
32162,Sumter County,FL,NA,24.287652645861602,NA
32169,Volusia County,FL,NA,NA,44.072164948453604
32174,Volusia County,FL,NA,6.648575305291724,NA
32224,Duval County,FL,97.10144927536231,27.815468113975577,NA
32309,Leon County,FL,54.830917874396135,NA,NA
32407,Bay County,FL,NA,86.83853459972863,NA
32408,Bay County,FL,NA,47.4898236092266,NA
32533,Escambia County,FL,17.632850241545896,NA,NA
32534,Escambia County,FL,NA,29.036635006784262,NA
32535,Escambia County,FL,57.971014492753625,NA,NA
32536,Okaloosa County,FL,37.92270531400966,NA,NA
32539,Okaloosa County,FL,NA,79.51153324287652,NA
32561,Santa Rosa County,FL,71.98067632850241,NA,NA
32641,Alachua County,FL,NA,NA,55.154639175257735
32669,Alachua County,FL,NA,80.46132971506105,NA
32703,Orange County,FL,NA,62.14382632293079,NA
32708,Seminole County,FL,28.985507246376812,NA,NA
32712,Orange County,FL,NA,49.66078697421981,NA
32713,Volusia County,FL,99.51690821256038,NA,NA
32738,Volusia County,FL,21.980676328502415,NA,NA
32763,Volusia County,FL,NA,44.91180461329715,NA
32789,Orange County,FL,73.67149758454107,NA,NA
32792,Orange County,FL,NA,31.20759837177748,NA
32808,Orange County,FL,NA,13.975576662143826,NA
32810,Orange County,FL,NA,75.98371777476255,NA
32819,Orange County,FL,NA,NA,47.42268041237113
32826,Orange County,FL,NA,85.21031207598372,NA
32901,Brevard County,FL,NA,NA,15.463917525773196
32905,Brevard County,FL,NA,NA,23.711340206185564
32909,Brevard County,FL,NA,19.131614654002714,NA
32958,Indian River County,FL,NA,NA,3.865979381443299
32963,Indian River County,FL,93.23671497584542,NA,NA
33004,Broward County,FL,56.52173913043478,50.61058344640435,NA
33012,Miami-Dade County,FL,27.053140096618357,NA,18.814432989690722
33014,Miami-Dade County,FL,NA,51.01763907734057,NA
33019,Broward County,FL,NA,NA,45.876288659793815
33021,Broward County,FL,29.951690821256037,NA,NA
33026,Broward County,FL,NA,65.67164179104478,NA
33037,Monroe County,FL,NA,73.9484396200814,NA
33070,Monroe County,FL,95.16908212560386,NA,89.69072164948454
33076,Broward County,FL,NA,NA,46.649484536082475
33133,Miami-Dade County,FL,NA,25.64450474898236,NA
33134,Miami-Dade County,FL,NA,35.41383989145183,NA
33155,Miami-Dade County,FL,NA,NA,9.793814432989691
33156,Miami-Dade County,FL,NA,38.94165535956581,NA
33161,Miami-Dade County,FL,NA,79.6472184531886,NA
33173,Miami-Dade County,FL,NA,NA,56.70103092783505
33176,Miami-Dade County,FL,46.61835748792271,NA,NA
33180,Miami-Dade County,FL,NA,NA,10.824742268041238
33185,Miami-Dade County,FL,NA,51.424694708276796,NA
33186,Miami-Dade County,FL,81.64251207729468,NA,NA
33312,Broward County,FL,NA,93.62279511533242,NA
33316,Broward County,FL,NA,51.9674355495251,NA
33321,Broward County,FL,NA,NA,37.88659793814433
33326,Broward County,FL,NA,41.926729986431475,NA
33334,Broward County,FL,NA,33.649932157394844,NA
33404,Palm Beach County,FL,NA,NA,31.70103092783505
33410,Palm Beach County,FL,NA,NA,51.80412371134021
33428,Palm Beach County,FL,NA,NA,12.371134020618557
33433,Palm Beach County,FL,NA,NA,1.0309278350515463
33434,Palm Beach County,FL,NA,25.508819538670284,NA
33436,Palm Beach County,FL,NA,NA,10.56701030927835
33458,Palm Beach County,FL,52.17391304347826,NA,NA
33480,Palm Beach County,FL,NA,NA,69.0721649484536
33510,Hillsborough County,FL,NA,96.6078697421981,NA
33541,Pasco County,FL,77.53623188405797,22.116689280868385,NA
33543,Pasco County,FL,NA,42.469470827679785,NA
33565,Hillsborough County,FL,NA,NA,47.680412371134025
33566,Hillsborough County,FL,NA,NA,65.20618556701031
33569,Hillsborough County,FL,NA,59.2944369063772,NA
33572,Hillsborough County,FL,NA,41.38398914518318,NA
33576,Pasco County,FL,NA,92.26594301221166,NA
33594,Hillsborough County,FL,NA,NA,90.72164948453609
33596,Hillsborough County,FL,NA,90.9090909090909,91.23711340206185
33598,Hillsborough County,FL,NA,50.88195386702849,NA
33617,Hillsborough County,FL,NA,NA,96.64948453608247
33626,Hillsborough County,FL,56.28019323671497,NA,NA
33629,Hillsborough County,FL,51.20772946859904,NA,NA
33708,Pinellas County,FL,NA,68.3853459972863,NA
33709,Pinellas County,FL,58.93719806763285,NA,NA
33764,Pinellas County,FL,NA,NA,70.87628865979381
33801,Polk County,FL,NA,27.137042062415194,NA
33812,Polk County,FL,NA,99.72862957937585,NA
33813,Polk County,FL,NA,30.664857530529172,NA
33823,Polk County,FL,83.81642512077295,NA,NA
33825,Highlands County,FL,NA,67.70691994572591,NA
33908,Lee County,FL,NA,2.578018995929444,6.443298969072164
33948,Charlotte County,FL,NA,25.10176390773406,NA
33954,Charlotte County,FL,NA,NA,86.85567010309279
34108,Collier County,FL,NA,38.26322930800543,NA
34113,Collier County,FL,61.35265700483091,NA,NA
34134,Lee County,FL,NA,43.96200814111262,NA
34212,Manatee County,FL,NA,75.03392130257802,NA
34231,Sarasota County,FL,NA,NA,2.8350515463917527
34235,Sarasota County,FL,NA,NA,28.350515463917525
34239,Sarasota County,FL,NA,NA,62.371134020618555
34242,Sarasota County,FL,NA,NA,38.659793814432994
34243,Manatee County,FL,NA,NA,28.865979381443296
34429,Citrus County,FL,NA,NA,52.31958762886598
34481,Marion County,FL,NA,44.097693351424695,NA
34609,Hernando County,FL,NA,NA,15.721649484536082
34613,Hernando County,FL,NA,82.63229308005428,NA
34639,Pasco County,FL,NA,38.12754409769335,NA
34690,Pasco County,FL,NA,NA,64.17525773195877
34711,Lake County,FL,13.285024154589372,NA,NA
34746,Osceola County,FL,NA,99.05020352781547,NA
34982,St. Lucie County,FL,NA,23.337856173677068,NA
34990,Martin County,FL,65.70048309178745,NA,NA
30014,Newton County,GA,NA,NA,49.48453608247423
30022,Fulton County,GA,NA,55.223880597014926,NA
30024,Gwinnett County,GA,NA,55.902306648575305,NA
30040,Forsyth County,GA,54.347826086956516,NA,NA
30044,Gwinnett County,GA,NA,82.4966078697422,NA
30062,Cobb County,GA,NA,NA,20.103092783505154
30067,Cobb County,GA,NA,48.71099050203528,NA
30075,Fulton County,GA,NA,86.97421981004071,32.7319587628866
30076,Fulton County,GA,NA,69.60651289009499,NA
30084,DeKalb County,GA,41.30434782608695,NA,NA
30102,Cherokee County,GA,NA,NA,61.08247422680413
30117,Carroll County,GA,NA,NA,73.96907216494846
30121,Bartow County,GA,NA,63.09362279511534,NA
30176,Haralson County,GA,NA,96.20081411126186,NA
30179,Carroll County,GA,34.78260869565217,NA,NA
30180,Carroll County,GA,NA,23.066485753052916,52.57731958762887
30188,Cherokee County,GA,67.14975845410628,NA,26.804123711340207
30189,Cherokee County,GA,NA,31.614654002713706,NA
30215,Fayette County,GA,40.09661835748793,NA,NA
30238,Clayton County,GA,NA,42.198100407055634,NA
30253,Henry County,GA,NA,NA,84.5360824742268
30309,Fulton County,GA,NA,39.75576662143826,NA
30319,DeKalb County,GA,50.24154589371981,NA,NA
30339,Cobb County,GA,NA,59.70149253731343,NA
30533,Lumpkin County,GA,NA,29.30800542740841,NA
30553,Franklin County,GA,NA,90.50203527815468,NA
30557,Stephens County,GA,NA,81.9538670284939,NA
30559,Fannin County,GA,97.34299516908213,NA,NA
30606,Clarke County,GA,NA,NA,21.391752577319586
30655,Walton County,GA,NA,NA,42.2680412371134
30735,Gordon County,GA,NA,79.37584803256445,NA
30736,Catoosa County,GA,35.26570048309179,NA,NA
30809,Columbia County,GA,21.497584541062803,NA,NA
31008,Peach County,GA,NA,40.027137042062414,NA
31014,Bleckley County,GA,NA,75.1696065128901,NA
31023,Dodge County,GA,75.84541062801932,NA,NA
31031,Wilkinson County,GA,NA,NA,88.65979381443299
31328,Chatham County,GA,NA,94.57259158751697,NA
31401,Chatham County,GA,NA,78.01899592944369,NA
31410,Chatham County,GA,NA,NA,88.14432989690721
31750,Ben Hill County,GA,NA,80.1899592944369,NA
31788,Colquitt County,GA,NA,55.76662143826323,NA
31794,Tift County,GA,NA,35.00678426051561,NA
31820,Muscogee County,GA,NA,65.80732700135685,NA
31833,Troup County,GA,NA,94.30122116689282,NA
96734,Honolulu County,HI,NA,5.834464043419267,NA
96744,Honolulu County,HI,32.367149758454104,NA,NA
96789,Honolulu County,HI,NA,3.934871099050204,NA
96797,Honolulu County,HI,NA,NA,8.24742268041237
96825,Honolulu County,HI,NA,2.9850746268656714,NA
83301,Twin Falls County,ID,10.38647342995169,6.919945725915875,NA
83333,Blaine County,ID,80.67632850241546,NA,NA
83706,Ada County,ID,NA,NA,66.23711340206185
83815,Kootenai County,ID,NA,36.36363636363637,NA
83854,Kootenai County,ID,NA,54.13839891451831,NA
60010,Lake County,IL,NA,48.43962008141113,NA
60016,Cook County,IL,NA,6.1058344640434195,NA
60030,Lake County,IL,NA,94.84396200814112,NA
60047,Lake County,IL,48.309178743961354,NA,NA
60056,Cook County,IL,NA,NA,26.03092783505155
60087,Lake County,IL,NA,NA,45.618556701030926
60097,McHenry County,IL,NA,50.47489823609227,NA
60126,DuPage County,IL,56.763285024154584,NA,NA
60136,Kane County,IL,89.61352657004831,NA,NA
60152,McHenry County,IL,NA,60.51560379918589,NA
60169,Cook County,IL,29.71014492753623,NA,NA
60178,DeKalb County,IL,NA,30.800542740841248,NA
60185,DuPage County,IL,77.29468599033817,NA,NA
60188,DuPage County,IL,NA,40.84124830393487,NA
60201,Cook County,IL,53.864734299516904,NA,NA
60304,Cook County,IL,63.04347826086957,NA,NA
60421,Will County,IL,98.55072463768117,NA,NA
60422,Cook County,IL,NA,56.852103120759836,NA
60435,Will County,IL,NA,5.020352781546811,NA
60441,Will County,IL,NA,16.417910447761194,NA
60442,Will County,IL,59.90338164251207,NA,NA
60450,Grundy County,IL,14.734299516908212,NA,NA
60453,Cook County,IL,NA,4.341926729986431,NA
60462,Cook County,IL,NA,2.4423337856173677,6.958762886597938
60469,Cook County,IL,NA,99.32157394843962,NA
60481,Will County,IL,NA,37.177747625508815,NA
60513,Cook County,IL,79.95169082125604,NA,NA
60516,DuPage County,IL,NA,17.367706919945725,NA
60517,DuPage County,IL,23.67149758454106,NA,NA
60523,DuPage County,IL,NA,73.54138398914517,NA
60565,DuPage County,IL,59.17874396135265,NA,NA
60608,Cook County,IL,5.555555555555555,NA,NA
60610,Cook County,IL,NA,12.075983717774763,NA
60611,Cook County,IL,NA,11.533242876526458,NA
60625,Cook County,IL,5.314009661835748,NA,NA
60634,Cook County,IL,5.072463768115942,NA,NA
60643,Cook County,IL,NA,1.3568521031207599,NA
60654,Cook County,IL,50.48309178743962,NA,NA
60655,Cook County,IL,16.908212560386474,NA,NA
60714,Cook County,IL,NA,26.051560379918588,NA
60804,Cook County,IL,NA,7.869742198100408,NA
61102,Winnebago County,IL,35.507246376811594,NA,NA
61265,Rock Island County,IL,67.8743961352657,NA,NA
61554,Tazewell County,IL,NA,NA,5.412371134020619
61764,Livingston County,IL,NA,NA,76.80412371134021
61802,Champaign County,IL,66.42512077294685,NA,NA
62002,Madison County,IL,17.874396135265698,NA,NA
62062,Madison County,IL,NA,81.00407055630936,NA
62226,St. Clair County,IL,NA,58.2089552238806,NA
62234,Madison County,IL,NA,28.222523744911804,17.2680412371134
62703,Sangamon County,IL,NA,16.960651289009498,NA
62832,Perry County,IL,65.21739130434783,NA,NA
62966,Jackson County,IL,NA,30.257801899592945,89.17525773195877
46038,Hamilton County,IN,NA,34.73541383989145,NA
46041,Clinton County,IN,NA,74.49118046132972,NA
46106,Johnson County,IN,99.27536231884058,NA,NA
46112,Hendricks County,IN,NA,NA,22.938144329896907
46140,Hancock County,IN,40.57971014492754,10.312075983717776,NA
46142,Johnson County,IN,NA,7.327001356852103,NA
46143,Johnson County,IN,34.05797101449276,NA,NA
46158,Morgan County,IN,NA,16.824966078697422,NA
46168,Hendricks County,IN,NA,NA,61.855670103092784
46176,Shelby County,IN,NA,6.241519674355495,NA
46208,Marion County,IN,NA,49.25373134328358,NA
46217,Marion County,IN,NA,60.78697421981004,NA
46234,Marion County,IN,NA,71.77747625508819,NA
46237,Marion County,IN,NA,NA,36.08247422680412
46239,Marion County,IN,61.59420289855072,NA,NA
46241,Marion County,IN,32.608695652173914,NA,NA
46319,Lake County,IN,NA,NA,45.103092783505154
46321,Lake County,IN,NA,NA,46.391752577319586
46342,Lake County,IN,72.70531400966183,NA,NA
46375,Lake County,IN,81.40096618357488,NA,NA
46514,Elkhart County,IN,72.94685990338165,NA,NA
46534,Starke County,IN,NA,56.98778833107191,NA
46901,Howard County,IN,NA,1.4925373134328357,NA
46970,Miami County,IN,NA,12.618724559023068,NA
47012,Franklin County,IN,68.11594202898551,NA,NA
47043,Switzerland County,IN,84.78260869565217,NA,NA
47129,Clark County,IN,60.6280193236715,NA,NA
47130,Clark County,IN,NA,NA,87.62886597938144
47167,Washington County,IN,NA,31.886024423337854,NA
47201,Bartholomew County,IN,23.91304347826087,NA,NA
47203,Bartholomew County,IN,46.3768115942029,NA,NA
47330,Wayne County,IN,NA,69.19945725915875,NA
47446,Lawrence County,IN,NA,50.74626865671642,NA
47546,Dubois County,IN,NA,NA,20.36082474226804
47620,Posey County,IN,NA,45.047489823609226,NA
47842,Vermillion County,IN,47.10144927536232,NA,NA
47906,Tippecanoe County,IN,NA,NA,24.742268041237114
47932,Fountain County,IN,74.63768115942028,NA,NA
50208,Jasper County,IA,NA,NA,34.02061855670103
50511,Kossuth County,IA,NA,NA,52.0618556701031
51510,Pottawattamie County,IA,74.39613526570048,NA,NA
51555,Harrison County,IA,NA,83.0393487109905,NA
51566,Montgomery County,IA,NA,NA,70.61855670103093
52002,Dubuque County,IA,NA,NA,96.90721649484536
52402,Linn County,IA,NA,NA,67.78350515463917
52403,Linn County,IA,NA,52.37449118046133,NA
52537,Davis County,IA,89.13043478260869,NA,NA
52577,Mahaska County,IA,NA,NA,43.55670103092783
52772,Cedar County,IA,NA,89.280868385346,NA
52778,Muscatine County,IA,92.27053140096618,NA,NA
66043,Leavenworth County,KS,NA,76.11940298507463,NA
66048,Leavenworth County,KS,NA,NA,53.350515463917525
66061,Johnson County,KS,NA,1.8995929443690638,NA
66062,Johnson County,KS,NA,8.548168249660787,NA
66202,Johnson County,KS,NA,70.28493894165535,NA
66215,Johnson County,KS,95.41062801932367,NA,NA
66220,Johnson County,KS,73.18840579710145,NA,NA
66604,Shawnee County,KS,NA,NA,90.72164948453609
67060,Sedgwick County,KS,80.91787439613528,NA,NA
67206,Sedgwick County,KS,90.33816425120773,NA,NA
67401,Saline County,KS,NA,11.668928086838534,NA
67502,Reno County,KS,49.033816425120776,NA,NA
67601,Ellis County,KS,NA,NA,29.12371134020619
40031,Oldham County,KY,19.565217391304348,NA,NA
40211,Jefferson County,KY,NA,74.08412483039348,NA
40220,Jefferson County,KY,23.18840579710145,NA,NA
40222,Jefferson County,KY,NA,NA,19.072164948453608
40245,Jefferson County,KY,NA,25.780189959294436,NA
40444,Garrard County,KY,36.71497584541063,NA,NA
40475,Madison County,KY,NA,5.4274084124830395,NA
40514,Fayette County,KY,NA,99.4572591587517,NA
40701,Whitley County,KY,NA,NA,18.04123711340206
41005,Boone County,KY,39.61352657004831,NA,NA
41301,Wolfe County,KY,51.690821256038646,NA,NA
42211,Trigg County,KY,NA,56.71641791044776,NA
42431,Hopkins County,KY,61.83574879227053,NA,NA
42633,Wayne County,KY,NA,72.59158751696066,NA
42718,Taylor County,KY,NA,4.884667571234735,NA
70002,Jefferson Parish,LA,NA,NA,27.31958762886598
70065,Jefferson Parish,LA,NA,37.720488466757125,NA
70517,St. Martin Parish,LA,NA,98.23609226594301,NA
70533,Vermilion Parish,LA,NA,70.96336499321573,NA
70586,Evangeline Parish,LA,NA,24.016282225237447,NA
70817,East Baton Rouge Parish,LA,NA,91.72320217096338,NA
71055,Webster Parish,LA,NA,NA,40.4639175257732
71106,Caddo Parish,LA,NA,78.15468113975577,NA
03904,York County,ME,NA,NA,99.48453608247422
04039,Cumberland County,ME,NA,77.88331071913161,NA
04072,York County,ME,23.42995169082126,NA,NA
04074,Cumberland County,ME,45.410628019323674,NA,NA
04240,Androscoggin County,ME,NA,24.96607869742198,NA
04401,Penobscot County,ME,0.24154589371980675,NA,0.5154639175257731
04426,Piscataquis County,ME,NA,89.95929443690638,NA
04769,Aroostook County,ME,NA,28.08683853459973,NA
04957,Somerset County,ME,NA,64.58616010854816,NA
04976,Somerset County,ME,7.971014492753622,NA,NA
20646,Charles County,MD,NA,89.14518317503392,NA
20705,Prince George's County,MD,NA,NA,77.0618556701031
20794,Howard County,MD,NA,75.84803256445048,NA
20872,Montgomery County,MD,NA,95.38670284938942,NA
20901,Montgomery County,MD,NA,63.77204884667571,NA
20906,Montgomery County,MD,NA,NA,9.02061855670103
21044,Howard County,MD,31.15942028985507,NA,NA
21057,Baltimore County,MD,NA,91.5875169606513,NA
21093,Baltimore County,MD,NA,44.36906377204885,30.15463917525773
21146,Anne Arundel County,MD,NA,NA,95.36082474226805
21210,Baltimore city,MD,NA,51.153324287652644,NA
21219,Baltimore County,MD,NA,82.76797829036636,NA
21403,Anne Arundel County,MD,NA,56.44504748982361,NA
21742,Washington County,MD,NA,87.51696065128901,NA
21784,Carroll County,MD,NA,64.9932157394844,NA
21919,Cecil County,MD,NA,99.86431478968792,NA
01027,Hampshire County,MA,NA,NA,43.81443298969072
01106,Hampden County,MA,NA,NA,61.5979381443299
01118,Hampden County,MA,55.31400966183575,NA,NA
01464,Middlesex County,MA,NA,NA,85.56701030927834
01524,Worcester County,MA,NA,68.79240162822252,NA
01532,Worcester County,MA,NA,53.73134328358209,NA
01609,Worcester County,MA,NA,18.588873812754407,NA
01720,Middlesex County,MA,NA,48.846675712347356,30.670103092783506
01730,Middlesex County,MA,NA,NA,12.628865979381443
01772,Worcester County,MA,76.08695652173914,NA,NA
01810,Essex County,MA,NA,NA,40.20618556701031
01824,Middlesex County,MA,45.169082125603865,NA,NA
01826,Middlesex County,MA,1.932367149758454,NA,14.432989690721648
01845,Essex County,MA,NA,NA,44.329896907216494
01862,Middlesex County,MA,86.95652173913044,NA,NA
01945,Essex County,MA,24.154589371980677,85.3459972862958,NA
01950,Essex County,MA,NA,66.35006784260516,NA
01952,Essex County,MA,35.990338164251206,NA,NA
01960,Essex County,MA,NA,19.674355495251017,NA
01982,Essex County,MA,NA,64.72184531886025,NA
02025,Norfolk County,MA,NA,87.38127544097694,NA
02043,Plymouth County,MA,NA,32.70013568521031,NA
02048,Bristol County,MA,NA,NA,94.58762886597938
02050,Plymouth County,MA,NA,41.926729986431475,NA
02062,Norfolk County,MA,NA,NA,13.65979381443299
02072,Norfolk County,MA,NA,NA,96.3917525773196
02127,Suffolk County,MA,NA,22.930800542740844,NA
02130,Suffolk County,MA,3.6231884057971016,NA,NA
02131,Suffolk County,MA,NA,2.3066485753052914,NA
02135,Suffolk County,MA,NA,26.322930800542743,NA
02136,Suffolk County,MA,NA,46.26865671641791,NA
02148,Middlesex County,MA,NA,0,NA
02151,Suffolk County,MA,NA,NA,0
02152,Suffolk County,MA,24.637681159420293,NA,NA
02169,Norfolk County,MA,NA,NA,5.670103092783505
02170,Norfolk County,MA,NA,4.613297150610583,NA
02184,Norfolk County,MA,2.898550724637681,3.7991858887381276,NA
02186,Norfolk County,MA,NA,43.69063772048847,NA
02188,Norfolk County,MA,NA,93.48710990502035,NA
02189,Norfolk County,MA,73.91304347826086,NA,NA
02190,Norfolk County,MA,NA,21.438263229308006,NA
02332,Plymouth County,MA,NA,44.776119402985074,NA
02360,Plymouth County,MA,NA,0.13568521031207598,NA
02445,Norfolk County,MA,NA,49.525101763907735,NA
02446,Norfolk County,MA,NA,74.89823609226595,NA
02452,Middlesex County,MA,42.270531400966185,NA,36.597938144329895
02458,Middlesex County,MA,NA,70.69199457259158,NA
02474,Middlesex County,MA,NA,93.7584803256445,NA
02482,Norfolk County,MA,NA,NA,64.43298969072166
02492,Norfolk County,MA,NA,15.87516960651289,NA
02536,Barnstable County,MA,NA,NA,10.309278350515463
02540,Barnstable County,MA,NA,NA,25.257731958762886
02645,Barnstable County,MA,NA,NA,47.16494845360825
02675,Barnstable County,MA,NA,52.103120759837175,NA
02719,Bristol County,MA,NA,31.75033921302578,NA
02723,Bristol County,MA,NA,14.789687924016281,NA
02747,Bristol County,MA,71.49758454106279,NA,NA
48001,St. Clair County,MI,NA,72.72727272727273,NA
48042,Macomb County,MI,NA,15.19674355495251,NA
48044,Macomb County,MI,NA,2.8493894165535956,NA
48070,Oakland County,MI,NA,NA,92.5257731958763
48075,Oakland County,MI,NA,47.76119402985074,NA
48085,Oakland County,MI,18.357487922705314,NA,NA
48089,Macomb County,MI,NA,13.025780189959294,NA
48103,Washtenaw County,MI,NA,19.402985074626866,NA
48111,Wayne County,MI,NA,19.53867028493894,64.69072164948454
48116,Livingston County,MI,NA,NA,8.505154639175258
48127,Wayne County,MI,NA,10.990502035278155,NA
48135,Wayne County,MI,NA,42.74084124830394,NA
48141,Wayne County,MI,NA,NA,23.45360824742268
48150,Wayne County,MI,15.942028985507244,NA,NA
48168,Wayne County,MI,NA,NA,98.96907216494846
48169,Livingston County,MI,NA,NA,27.577319587628867
48178,Oakland County,MI,20.048309178743963,NA,NA
48187,Wayne County,MI,4.830917874396135,NA,NA
48230,Wayne County,MI,NA,NA,67.26804123711341
48304,Oakland County,MI,NA,59.56580732700135,NA
48312,Macomb County,MI,NA,8.819538670284938,NA
48322,Oakland County,MI,NA,72.99864314789689,NA
48329,Oakland County,MI,NA,39.21302578018996,NA
48374,Oakland County,MI,NA,52.645861601085485,NA
48375,Oakland County,MI,NA,33.10719131614654,NA
48420,Genesee County,MI,86.71497584541062,94.57259158751697,NA
48423,Genesee County,MI,59.66183574879227,NA,NA
48433,Genesee County,MI,32.850241545893724,NA,NA
48471,Sanilac County,MI,NA,63.63636363636363,NA
48473,Genesee County,MI,NA,51.83175033921302,NA
48616,Saginaw County,MI,73.42995169082126,NA,NA
48640,Midland County,MI,NA,89.8236092265943,NA
48706,Bay County,MI,NA,31.47896879240163,NA
48723,Tuscola County,MI,84.29951690821255,NA,NA
48836,Livingston County,MI,NA,94.9796472184532,NA
48855,Livingston County,MI,NA,31.343283582089555,NA
48867,Shiawassee County,MI,17.14975845410628,NA,NA
48879,Clinton County,MI,NA,45.59023066485753,NA
49014,Calhoun County,MI,9.903381642512077,NA,NA
49017,Calhoun County,MI,NA,56.30936227951153,NA
49022,Berrien County,MI,NA,7.191316146540028,NA
49073,Barry County,MI,NA,NA,85.05154639175258
49090,Van Buren County,MI,NA,26.594301221166894,NA
49093,St. Joseph County,MI,42.270531400966185,NA,26.54639175257732
49106,Berrien County,MI,89.3719806763285,NA,NA
49221,Lenawee County,MI,1.2077294685990339,2.03527815468114,NA
49234,Jackson County,MI,NA,98.64314789687924,NA
49316,Kent County,MI,NA,29.036635006784262,NA
49426,Ottawa County,MI,NA,23.609226594301223,16.237113402061855
49456,Ottawa County,MI,26.570048309178745,NA,14.690721649484537
49464,Ottawa County,MI,NA,22.795115332428765,NA
49503,Kent County,MI,NA,NA,73.4536082474227
49534,Kent County,MI,NA,NA,75.77319587628865
49546,Kent County,MI,NA,48.16824966078697,NA
49643,Grand Traverse County,MI,78.74396135265701,NA,NA
49684,Grand Traverse County,MI,NA,NA,16.752577319587626
49685,Grand Traverse County,MI,NA,58.7516960651289,NA
49801,Dickinson County,MI,NA,26.45861601085482,NA
55041,Wabasha County,MN,NA,47.08276797829037,NA
55066,Goodhue County,MN,NA,10.583446404341927,NA
55068,Dakota County,MN,NA,NA,72.9381443298969
55073,Washington County,MN,97.82608695652173,NA,NA
55113,Ramsey County,MN,NA,NA,17.010309278350515
55116,Ramsey County,MN,NA,92.94436906377204,NA
55117,Ramsey County,MN,NA,NA,60.567010309278345
55119,Ramsey County,MN,NA,NA,59.27835051546392
55347,Hennepin County,MN,NA,NA,77.57731958762886
55398,Sherburne County,MN,82.3671497584541,NA,NA
55409,Hennepin County,MN,NA,63.50067842605156,NA
55419,Hennepin County,MN,NA,65.26458616010855,NA
55421,Anoka County,MN,11.594202898550725,NA,59.79381443298969
55423,Hennepin County,MN,NA,NA,88.4020618556701
55811,St. Louis County,MN,NA,NA,1.5463917525773196
56267,Stevens County,MN,NA,62.68656716417911,NA
56301,Stearns County,MN,74.8792270531401,49.38941655359565,NA
56329,Benton County,MN,NA,95.52238805970148,NA
56379,Benton County,MN,NA,59.02306648575305,NA
56464,Wadena County,MN,NA,88.87381275440977,NA
56540,Polk County,MN,NA,98.9145183175034,NA
56560,Clay County,MN,NA,1.6282225237449117,NA
56601,Beltrami County,MN,NA,0.6784260515603799,NA
38618,Tate County,MS,NA,72.04884667571235,NA
38635,Marshall County,MS,53.62318840579711,NA,NA
38824,Prentiss County,MS,NA,55.49525101763908,NA
39083,Copiah County,MS,NA,NA,90.20618556701031
39336,Newton County,MS,99.7584541062802,NA,NA
39452,George County,MS,NA,12.347354138398913,NA
39560,Harrison County,MS,NA,4.74898236092266,NA
39565,Jackson County,MS,41.54589371980676,NA,NA
39574,Harrison County,MS,NA,89.41655359565807,NA
39648,Pike County,MS,10.869565217391305,NA,NA
39773,Clay County,MS,NA,48.032564450474894,NA
63021,St. Louis County,MO,NA,NA,4.896907216494846
63068,Franklin County,MO,100,NA,NA
63084,Franklin County,MO,NA,34.19267299864315,NA
63304,St. Charles County,MO,NA,8.276797829036635,NA
63348,St. Charles County,MO,93.96135265700482,NA,NA
63601,St. Francois County,MO,NA,63.36499321573948,NA
63650,Iron County,MO,NA,78.42605156037992,NA
63755,Cape Girardeau County,MO,NA,33.37856173677069,NA
64014,Jackson County,MO,11.352657004830919,NA,NA
64015,Jackson County,MO,85.99033816425121,NA,98.4536082474227
64060,Clay County,MO,28.502415458937197,NA,NA
64064,Jackson County,MO,NA,98.37177747625509,NA
64082,Jackson County,MO,NA,90.3663500678426,NA
64083,Cass County,MO,NA,24.423337856173678,NA
64111,Jackson County,MO,92.7536231884058,NA,NA
64118,Clay County,MO,NA,39.348710990502035,NA
64119,Clay County,MO,NA,64.31478968792402,NA
64145,Jackson County,MO,NA,61.73677069199457,NA
64151,Platte County,MO,NA,68.52103120759837,NA
64152,Platte County,MO,NA,21.98100407055631,NA
64505,Buchanan County,MO,43.71980676328502,NA,NA
64506,Buchanan County,MO,NA,3.2564450474898234,NA
64507,Buchanan County,MO,36.95652173913043,23.88059701492537,71.1340206185567
64601,Livingston County,MO,NA,69.4708276797829,NA
64633,Carroll County,MO,NA,64.85753052917232,NA
64701,Cass County,MO,26.32850241545894,NA,NA
65037,Morgan County,MO,87.92270531400966,NA,NA
65078,Morgan County,MO,NA,81.00407055630936,NA
65270,Randolph County,MO,NA,52.645861601085485,NA
65459,Pulaski County,MO,NA,97.96472184531886,NA
65712,Lawrence County,MO,NA,89.00949796472185,NA
65803,Greene County,MO,NA,69.74219810040707,NA
59102,Yellowstone County,MT,NA,16.689280868385346,NA
59602,Lewis and Clark County,MT,NA,47.89687924016282,NA
59634,Jefferson County,MT,NA,NA,78.09278350515464
59714,Gallatin County,MT,NA,41.7910447761194,NA
59715,Gallatin County,MT,NA,86.29579375848031,NA
59718,Gallatin County,MT,NA,NA,29.896907216494846
59901,Flathead County,MT,NA,1.2211668928086838,NA
68106,Douglas County,NE,NA,77.34056987788331,NA
68114,Douglas County,NE,78.98550724637681,NA,NA
68116,Douglas County,NE,NA,43.01221166892809,NA
68117,Douglas County,NE,NA,NA,81.18556701030928
68144,Douglas County,NE,NA,33.242876526458616,NA
68505,Lancaster County,NE,NA,71.23473541383989,NA
68803,Hall County,NE,NA,33.78561736770692,NA
89147,Clark County,NV,NA,32.29308005427408,NA
89423,Douglas County,NV,NA,65.5359565807327,NA
89433,Washoe County,NV,NA,83.5820895522388,NA
89506,Washoe County,NV,9.66183574879227,NA,NA
89523,Washoe County,NV,87.19806763285024,59.972862957937586,NA
03055,Hillsborough County,NH,NA,NA,93.04123711340206
03087,Rockingham County,NH,NA,36.22795115332429,NA
03229,Merrimack County,NH,NA,97.69335142469471,NA
03275,Merrimack County,NH,NA,70.01356852103122,NA
03276,Merrimack County,NH,NA,80.86838534599728,NA
03301,Merrimack County,NH,8.454106280193237,NA,NA
03458,Hillsborough County,NH,NA,NA,71.90721649484536
03842,Rockingham County,NH,NA,17.096336499321573,NA
03860,Carroll County,NH,NA,NA,47.93814432989691
03865,Rockingham County,NH,NA,72.86295793758481,NA
03870,Rockingham County,NH,NA,68.11397557666214,NA
03885,Rockingham County,NH,NA,NA,83.76288659793815
07040,Essex County,NJ,NA,NA,92.78350515463917
07059,Somerset County,NJ,NA,94.02985074626866,NA
07072,Bergen County,NJ,NA,74.21981004070555,NA
07073,Bergen County,NJ,43.47826086956522,NA,NA
07083,Union County,NJ,44.44444444444444,NA,NA
07086,Hudson County,NJ,67.6328502415459,NA,NA
07109,Essex County,NJ,NA,9.090909090909092,NA
07452,Bergen County,NJ,NA,93.08005427408412,NA
07481,Bergen County,NJ,88.64734299516908,NA,NA
07601,Bergen County,NJ,NA,35.14246947082768,NA
07646,Bergen County,NJ,NA,48.16824966078697,NA
07676,Bergen County,NJ,NA,80.05427408412483,NA
07701,Monmouth County,NJ,NA,21.709633649932158,NA
07716,Monmouth County,NJ,85.74879227053141,NA,NA
07726,Monmouth County,NJ,NA,14.654002713704205,NA
07727,Monmouth County,NJ,NA,NA,98.19587628865979
07731,Monmouth County,NJ,NA,25.37313432835821,NA
07739,Monmouth County,NJ,98.55072463768117,NA,NA
07869,Morris County,NJ,NA,70.5563093622795,NA
07882,Warren County,NJ,NA,NA,100
07960,Morris County,NJ,NA,38.26322930800543,NA
07981,Morris County,NJ,NA,NA,76.28865979381443
08021,Camden County,NJ,NA,81.68249660786974,NA
08048,Burlington County,NJ,NA,66.078697421981,NA
08050,Ocean County,NJ,22.463768115942027,NA,NA
08053,Burlington County,NJ,NA,43.55495251017639,NA
08054,Burlington County,NJ,NA,57.25915875169606,NA
08057,Burlington County,NJ,NA,36.90637720488466,NA
08061,Gloucester County,NJ,84.54106280193237,NA,NA
08062,Gloucester County,NJ,70.28985507246377,NA,NA
08093,Gloucester County,NJ,NA,53.18860244233379,NA
08096,Gloucester County,NJ,NA,NA,11.855670103092782
08204,Cape May County,NJ,NA,NA,22.422680412371136
08215,Atlantic County,NJ,NA,98.7788331071913,NA
08221,Atlantic County,NJ,NA,84.53188602442334,NA
08226,Cape May County,NJ,NA,35.68521031207598,NA
08234,Atlantic County,NJ,1.4492753623188406,NA,NA
08260,Cape May County,NJ,NA,57.12347354138399,NA
08270,Cape May County,NJ,NA,64.04341926729987,NA
08302,Cumberland County,NJ,0,NA,NA
08312,Gloucester County,NJ,NA,90.23066485753053,NA
08620,Mercer County,NJ,NA,65.80732700135685,NA
08753,Ocean County,NJ,NA,97.15061058344641,NA
08757,Ocean County,NJ,NA,NA,0.25773195876288657
08758,Ocean County,NJ,NA,NA,51.03092783505154
08759,Ocean County,NJ,NA,19.26729986431479,NA
08816,Middlesex County,NJ,68.59903381642512,NA,NA
08835,Somerset County,NJ,NA,NA,87.11340206185567
08876,Somerset County,NJ,NA,90.63772048846675,NA
87042,Valencia County,NM,NA,97.55766621438264,NA
87047,Bernalillo County,NM,NA,81.81818181818183,NA
87106,Bernalillo County,NM,NA,26.72998643147897,NA
87121,Bernalillo County,NM,83.09178743961353,NA,NA
88101,Curry County,NM,NA,NA,3.608247422680412
88201,Chaves County,NM,NA,23.473541383989144,NA
10003,New York County,NY,NA,24.694708276797826,NA
10034,New York County,NY,20.531400966183575,NA,NA
10460,Bronx County,NY,NA,NA,7.474226804123711
10562,Westchester County,NY,NA,NA,69.84536082474226
10580,Westchester County,NY,NA,NA,53.608247422680414
10708,Westchester County,NY,NA,61.19402985074627,NA
10920,Rockland County,NY,NA,98.50746268656717,NA
10956,Rockland County,NY,NA,NA,63.91752577319587
10960,Rockland County,NY,NA,NA,60.30927835051546
10989,Rockland County,NY,NA,97.82903663500679,NA
11004,Queens County,NY,NA,NA,51.28865979381443
11021,Nassau County,NY,NA,NA,38.144329896907216
11040,Nassau County,NY,NA,NA,19.84536082474227
11101,Queens County,NY,NA,NA,88.65979381443299
11104,Queens County,NY,NA,84.53188602442334,NA
11204,Kings County,NY,NA,NA,4.123711340206185
11210,Kings County,NY,NA,NA,79.63917525773195
11218,Kings County,NY,NA,NA,23.969072164948454
11223,Kings County,NY,11.594202898550725,NA,NA
11224,Kings County,NY,NA,NA,11.34020618556701
11234,Kings County,NY,NA,6.241519674355495,NA
11355,Queens County,NY,55.79710144927537,9.633649932157395,NA
11360,Queens County,NY,79.22705314009661,NA,NA
11368,Queens County,NY,NA,9.362279511533243,NA
11530,Nassau County,NY,NA,82.08955223880598,NA
11561,Nassau County,NY,NA,NA,44.84536082474227
11572,Nassau County,NY,90.09661835748793,NA,NA
11702,Suffolk County,NY,NA,NA,85.30927835051546
11754,Suffolk County,NY,89.85507246376811,NA,NA
11776,Suffolk County,NY,NA,NA,59.79381443298969
11791,Nassau County,NY,NA,91.45183175033921,NA
12134,Fulton County,NY,76.08695652173914,NA,NA
12180,Rensselaer County,NY,58.69565217391305,NA,NA
12533,Dutchess County,NY,NA,NA,81.70103092783505
12545,Dutchess County,NY,NA,NA,93.55670103092784
12866,Saratoga County,NY,NA,43.419267299864316,NA
13027,Onondaga County,NY,7.004830917874397,NA,NA
13165,Seneca County,NY,NA,39.07734056987788,NA
13413,Oneida County,NY,NA,NA,18.04123711340206
13460,Chenango County,NY,31.40096618357488,NA,NA
13464,Chenango County,NY,NA,100,NA
13601,Jefferson County,NY,12.318840579710146,NA,NA
13694,St. Lawrence County,NY,NA,92.13025780189959,NA
13732,Tioga County,NY,NA,68.65671641791045,NA
13760,Broome County,NY,9.420289855072465,NA,7.989690721649484
13790,Broome County,NY,NA,4.07055630936228,NA
13820,Otsego County,NY,NA,21.166892808683855,11.597938144329897
14001,Erie County,NY,91.54589371980676,NA,NA
14020,Genesee County,NY,NA,NA,71.3917525773196
14040,Genesee County,NY,NA,95.65807327001356,NA
14070,Erie County,NY,83.57487922705315,NA,NA
14086,Erie County,NY,NA,36.77069199457259,NA
14136,Chautauqua County,NY,69.56521739130434,NA,NA
14206,Erie County,NY,6.763285024154589,93.08005427408412,NA
14224,Erie County,NY,2.657004830917874,NA,NA
14226,Erie County,NY,NA,88.33107191316147,NA
14305,Niagara County,NY,2.4154589371980677,NA,NA
14424,Ontario County,NY,NA,0.40705563093622793,NA
14425,Ontario County,NY,8.937198067632849,NA,NA
14469,Ontario County,NY,NA,37.04206241519674,NA
14487,Livingston County,NY,NA,41.11261872455903,NA
14580,Monroe County,NY,8.695652173913043,NA,0.7731958762886598
14606,Monroe County,NY,0.4830917874396135,NA,NA
14612,Monroe County,NY,NA,0.8141112618724559,NA
14615,Monroe County,NY,35.748792270531396,NA,NA
14619,Monroe County,NY,NA,NA,93.81443298969072
14620,Monroe County,NY,NA,NA,29.63917525773196
14624,Monroe County,NY,NA,73.81275440976933,NA
14737,Cattaraugus County,NY,66.18357487922705,NA,NA
14760,Cattaraugus County,NY,4.3478260869565215,NA,NA
14779,Cattaraugus County,NY,NA,NA,93.29896907216495
14843,Steuben County,NY,NA,60.24423337856174,NA
14850,Tompkins County,NY,NA,2.7137042062415198,NA
14867,Tompkins County,NY,NA,NA,82.21649484536083
14886,Tompkins County,NY,NA,46.404341926729984,NA
14892,Tioga County,NY,NA,92.26594301221166,NA
27020,Yadkin County,NC,96.37681159420289,NA,NA
27021,Stokes County,NC,63.76811594202898,NA,NA
27105,Forsyth County,NC,NA,26.187245590230663,NA
27263,Randolph County,NC,NA,86.56716417910447,NA
27278,Orange County,NC,NA,7.462686567164178,NA
27292,Davidson County,NC,NA,27.54409769335143,20.618556701030926
27298,Randolph County,NC,NA,71.09905020352781,70.36082474226805
27320,Rockingham County,NC,NA,NA,2.3195876288659796
27332,Lee County,NC,NA,NA,36.340206185567006
27403,Guilford County,NC,NA,NA,62.371134020618555
27407,Guilford County,NC,NA,21.57394843962008,NA
27455,Guilford County,NC,NA,32.83582089552239,NA
27502,Wake County,NC,87.43961352657004,52.23880597014925,NA
27519,Wake County,NC,30.917874396135264,NA,NA
27527,Johnston County,NC,49.275362318840585,NA,NA
27529,Wake County,NC,NA,50.20352781546812,NA
27539,Wake County,NC,75.60386473429952,NA,NA
27597,Wake County,NC,NA,40.70556309362279,NA
27603,Wake County,NC,12.80193236714976,NA,NA
27604,Wake County,NC,90.57971014492753,25.780189959294436,NA
27612,Wake County,NC,NA,24.151967435549526,NA
27705,Durham County,NC,NA,NA,57.98969072164949
27707,Durham County,NC,6.521739130434782,NA,NA
27896,Wilson County,NC,NA,NA,76.5463917525773
27909,Pasquotank County,NC,NA,64.17910447761194,NA
27949,Dare County,NC,NA,93.35142469470827,NA
28025,Cabarrus County,NC,NA,30.39348710990502,NA
28031,Mecklenburg County,NC,64.25120772946859,NA,NA
28037,Lincoln County,NC,92.02898550724638,NA,NA
28103,Union County,NC,NA,76.66214382632293,NA
28112,Union County,NC,54.589371980676326,NA,NA
28129,Stanly County,NC,91.78743961352657,NA,NA
28205,Mecklenburg County,NC,NA,44.097693351424695,NA
28214,Mecklenburg County,NC,16.666666666666664,NA,NA
28215,Mecklenburg County,NC,NA,10.040705563093622,NA
28269,Mecklenburg County,NC,NA,NA,55.670103092783506
28306,Bladen County,NC,NA,NA,30.412371134020617
28312,Cumberland County,NC,NA,78.561736770692,NA
28315,Moore County,NC,NA,54.681139755766615,NA
28326,Harnett County,NC,NA,46.81139755766621,NA
28401,New Hanover County,NC,NA,NA,67.5257731958763
28403,New Hanover County,NC,NA,36.49932157394844,NA
28443,Pender County,NC,NA,38.53459972862958,NA
28460,Onslow County,NC,NA,57.93758480325645,NA
28461,Brunswick County,NC,NA,3.1207598371777476,NA
28530,Pitt County,NC,NA,62.550881953867034,NA
28532,Craven County,NC,81.15942028985508,NA,NA
28607,Watauga County,NC,NA,65.40027137042063,NA
28612,Burke County,NC,NA,NA,95.61855670103093
28625,Iredell County,NC,NA,78.96879240162822,NA
28730,Buncombe County,NC,NA,NA,69.3298969072165
28782,Polk County,NC,NA,65.12890094979647,71.64948453608247
28906,Cherokee County,NC,57.48792270531401,16.28222523744912,NA
58104,Cass County,ND,18.59903381642512,NA,NA
58201,Grand Forks County,ND,NA,NA,1.2886597938144329
58501,Burleigh County,ND,NA,NA,6.185567010309279
58554,Morton County,ND,NA,68.9280868385346,NA
58701,Ward County,ND,NA,4.477611940298507,NA
58703,Ward County,ND,25.36231884057971,NA,NA
43035,Delaware County,OH,NA,80.59701492537313,NA
43056,Licking County,OH,22.705314009661837,NA,NA
43062,Licking County,OH,NA,17.503392130257804,NA
43068,Franklin County,OH,33.57487922705314,NA,NA
43072,Champaign County,OH,NA,78.29036635006784,NA
43123,Franklin County,OH,NA,3.5278154681139755,NA
43130,Fairfield County,OH,6.038647342995169,NA,NA
43160,Fayette County,OH,NA,53.324287652645864,NA
43220,Franklin County,OH,NA,59.158751696065124,NA
43623,Lucas County,OH,NA,14.111261872455902,NA
43812,Coshocton County,OH,NA,3.3921302578018993,NA
43906,Belmont County,OH,NA,29.715061058344638,NA
43947,Belmont County,OH,NA,NA,59.5360824742268
44012,Lorain County,OH,44.927536231884055,NA,NA
44053,Lorain County,OH,3.3816425120772946,NA,NA
44056,Summit County,OH,NA,NA,31.185567010309278
44060,Lake County,OH,NA,12.075983717774763,NA
44070,Cuyahoga County,OH,51.449275362318836,NA,NA
44077,Lake County,OH,0.7246376811594203,NA,NA
44092,Lake County,OH,NA,NA,7.216494845360824
44111,Cuyahoga County,OH,NA,1.0854816824966078,68.81443298969072
44122,Cuyahoga County,OH,13.768115942028986,NA,NA
44131,Cuyahoga County,OH,NA,NA,73.19587628865979
44142,Cuyahoga County,OH,NA,9.76933514246947,NA
44143,Cuyahoga County,OH,NA,NA,91.49484536082474
44144,Cuyahoga County,OH,NA,39.48439620081411,NA
44203,Summit County,OH,NA,23.7449118046133,NA
44212,Medina County,OH,NA,0.27137042062415195,NA
44240,Portage County,OH,NA,37.44911804613297,NA
44281,Medina County,OH,NA,NA,12.886597938144329
44305,Summit County,OH,NA,NA,42.52577319587629
44333,Summit County,OH,49.75845410628019,NA,NA
44406,Mahoning County,OH,NA,15.332428765264586,NA
44442,Mahoning County,OH,94.92753623188406,NA,NA
44691,Wayne County,OH,NA,32.83582089552239,NA
44805,Ashland County,OH,NA,2.1709633649932156,NA
44833,Crawford County,OH,NA,NA,51.546391752577314
44839,Erie County,OH,NA,NA,22.164948453608247
44903,Richland County,OH,NA,NA,60.824742268041234
45005,Warren County,OH,4.1062801932367154,NA,NA
45011,Butler County,OH,NA,NA,8.762886597938143
45014,Butler County,OH,NA,NA,13.917525773195877
45042,Butler County,OH,10.628019323671497,NA,NA
45066,Warren County,OH,NA,79.1044776119403,NA
45103,Clermont County,OH,37.68115942028986,NA,NA
45150,Clermont County,OH,NA,NA,28.60824742268041
45215,Hamilton County,OH,NA,NA,75.51546391752578
45227,Hamilton County,OH,30.434782608695656,NA,NA
45239,Hamilton County,OH,NA,20.081411126187245,NA
45244,Hamilton County,OH,NA,28.76526458616011,NA
45249,Hamilton County,OH,75.1207729468599,NA,NA
45252,Hamilton County,OH,NA,92.67299864314789,NA
45322,Montgomery County,OH,NA,57.394843962008146,NA
45323,Clark County,OH,NA,96.47218453188603,NA
45373,Miami County,OH,3.140096618357488,NA,28.09278350515464
45424,Montgomery County,OH,NA,NA,4.381443298969072
45431,Montgomery County,OH,28.019323671497588,NA,NA
45458,Montgomery County,OH,NA,NA,48.45360824742268
45502,Clark County,OH,58.212560386473434,NA,NA
45628,Ross County,OH,NA,37.44911804613297,NA
45640,Jackson County,OH,NA,NA,33.50515463917525
45810,Hardin County,OH,76.08695652173914,NA,NA
45822,Mercer County,OH,22.22222222222222,NA,14.948453608247423
45875,Putnam County,OH,NA,NA,91.75257731958763
45891,Van Wert County,OH,17.391304347826086,NA,NA
45895,Auglaize County,OH,18.115942028985508,NA,NA
73005,Caddo County,OK,NA,NA,63.144329896907216
73013,Oklahoma County,OK,42.99516908212561,NA,NA
73075,Garvin County,OK,NA,NA,95.87628865979381
73110,Oklahoma County,OK,58.454106280193244,NA,NA
73116,Oklahoma County,OK,78.26086956521739,NA,NA
73118,Oklahoma County,OK,74.15458937198068,NA,NA
73119,Oklahoma County,OK,NA,NA,84.79381443298969
73139,Oklahoma County,OK,NA,44.640434192673,NA
73142,Oklahoma County,OK,NA,NA,43.29896907216495
73160,Cleveland County,OK,6.280193236714976,NA,NA
73170,Cleveland County,OK,NA,82.36092265943013,NA
74003,Osage County,OK,NA,NA,74.74226804123711
74011,Tulsa County,OK,NA,NA,38.91752577319588
74037,Tulsa County,OK,78.50241545893721,NA,NA
74464,Cherokee County,OK,NA,35.41383989145183,NA
74873,Pottawatomie County,OK,35.02415458937198,NA,NA
74948,Sequoyah County,OK,41.78743961352657,NA,NA
97056,Columbia County,OR,47.82608695652174,NA,NA
97116,Washington County,OR,NA,72.18453188602443,NA
97123,Washington County,OR,11.11111111111111,NA,NA
97202,Multnomah County,OR,NA,NA,80.15463917525774
97213,Multnomah County,OR,69.80676328502415,NA,NA
97224,Washington County,OR,NA,21.709633649932158,NA
97239,Multnomah County,OR,NA,NA,99.22680412371135
97305,Marion County,OR,NA,71.64179104477611,NA
97321,Linn County,OR,38.164251207729464,NA,NA
97355,Linn County,OR,36.231884057971016,NA,NA
97402,Lane County,OR,49.51690821256038,NA,NA
97415,Curry County,OR,NA,14.382632293080055,NA
97471,Douglas County,OR,9.178743961352657,NA,NA
97603,Klamath County,OR,31.88405797101449,NA,54.123711340206185
97862,Umatilla County,OR,39.371980676328505,NA,NA
15017,Allegheny County,PA,71.01449275362319,NA,NA
15024,Allegheny County,PA,NA,NA,40.72164948453608
15063,Washington County,PA,NA,94.16553595658074,NA
15085,Westmoreland County,PA,69.08212560386472,NA,NA
15090,Allegheny County,PA,NA,NA,81.44329896907216
15101,Allegheny County,PA,NA,59.430122116689276,NA
15131,Allegheny County,PA,97.58454106280193,NA,NA
15143,Allegheny County,PA,NA,28.493894165535956,NA
15146,Allegheny County,PA,56.038647342995176,NA,NA
15217,Allegheny County,PA,NA,NA,43.04123711340206
15223,Allegheny County,PA,NA,82.22523744911805,NA
15226,Allegheny County,PA,NA,39.620081411126186,NA
15228,Allegheny County,PA,NA,48.575305291723204,NA
15237,Allegheny County,PA,57.48792270531401,NA,NA
15243,Allegheny County,PA,NA,54.27408412483039,NA
15301,Washington County,PA,NA,46.404341926729984,NA
15522,Bedford County,PA,NA,55.223880597014926,NA
15642,Westmoreland County,PA,12.560386473429952,NA,NA
15656,Westmoreland County,PA,NA,NA,56.44329896907217
15666,Westmoreland County,PA,NA,84.93894165535957,NA
15701,Indiana County,PA,NA,NA,34.5360824742268
15909,Cambria County,PA,NA,83.44640434192672,NA
15931,Cambria County,PA,NA,NA,64.94845360824742
16056,Butler County,PA,NA,72.3202170963365,NA
16059,Butler County,PA,NA,NA,65.4639175257732
16117,Lawrence County,PA,NA,83.31071913161465,NA
16226,Armstrong County,PA,47.34299516908212,NA,NA
16335,Crawford County,PA,48.06763285024155,NA,NA
16365,Warren County,PA,NA,47.218453188602446,21.1340206185567
16428,Erie County,PA,62.80193236714976,NA,NA
16441,Erie County,PA,NA,86.16010854816824,NA
16803,Centre County,PA,NA,41.65535956580732,NA
16870,Centre County,PA,70.04830917874396,NA,NA
17015,Cumberland County,PA,NA,17.91044776119403,NA
17033,Dauphin County,PA,44.20289855072464,NA,NA
17036,Dauphin County,PA,NA,6.512890094979647,NA
17043,Cumberland County,PA,NA,NA,99.74226804123711
17050,Cumberland County,PA,77.77777777777779,NA,NA
17078,Lebanon County,PA,NA,27.27272727272727,NA
17113,Dauphin County,PA,54.106280193236714,NA,NA
17257,Cumberland County,PA,14.009661835748794,43.28358208955223,NA
17327,York County,PA,95.65217391304348,NA,NA
17331,York County,PA,NA,0.5427408412483039,NA
17350,Adams County,PA,NA,38.80597014925373,NA
17402,York County,PA,10.144927536231885,NA,NA
17403,York County,PA,NA,NA,13.402061855670103
17532,Lancaster County,PA,NA,97.42198100407056,NA
17543,Lancaster County,PA,62.56038647342995,NA,NA
17740,Lycoming County,PA,NA,NA,84.27835051546391
17777,Northumberland County,PA,NA,NA,79.38144329896907
17847,Northumberland County,PA,66.90821256038647,NA,NA
17870,Snyder County,PA,NA,46.94708276797829,NA
17872,Northumberland County,PA,NA,NA,34.79381443298969
17901,Schuylkill County,PA,NA,45.99728629579376,NA
17921,Schuylkill County,PA,NA,66.89280868385346,NA
18020,Northampton County,PA,NA,17.639077340569877,NA
18066,Lehigh County,PA,NA,58.073270013568525,NA
18102,Lehigh County,PA,NA,NA,79.12371134020619
18235,Carbon County,PA,NA,45.725915875169605,NA
18434,Lackawanna County,PA,88.88888888888889,NA,NA
18447,Lackawanna County,PA,NA,51.69606512890095,NA
18510,Lackawanna County,PA,67.3913043478261,NA,NA
18612,Luzerne County,PA,NA,30.529172320217096,NA
18643,Luzerne County,PA,NA,60.651289009497965,NA
18706,Luzerne County,PA,NA,21.30257801899593,NA
18707,Luzerne County,PA,NA,18.724559023066487,NA
18853,Bradford County,PA,87.68115942028986,NA,NA
18901,Bucks County,PA,86.47342995169082,NA,7.731958762886598
18940,Bucks County,PA,NA,81.41112618724559,NA
18944,Bucks County,PA,NA,55.08819538670286,NA
18947,Bucks County,PA,95.89371980676329,NA,NA
18966,Bucks County,PA,30.193236714975846,NA,61.34020618556701
18974,Bucks County,PA,NA,5.970149253731343,NA
19007,Bucks County,PA,NA,45.45454545454545,NA
19027,Montgomery County,PA,NA,NA,94.0721649484536
19038,Montgomery County,PA,NA,NA,36.597938144329895
19050,Delaware County,PA,NA,91.99457259158751,NA
19063,Delaware County,PA,60.86956521739131,NA,NA
19067,Bucks County,PA,NA,3.6635006784260513,32.21649484536083
19111,Philadelphia County,PA,NA,NA,9.536082474226804
19116,Philadelphia County,PA,NA,31.071913161465396,NA
19135,Philadelphia County,PA,NA,51.28900949796472,NA
19144,Philadelphia County,PA,NA,NA,74.48453608247422
19146,Philadelphia County,PA,NA,13.297150610583447,NA
19335,Chester County,PA,NA,70.82767978290366,NA
19341,Chester County,PA,NA,NA,39.175257731958766
19350,Chester County,PA,NA,NA,77.83505154639175
19380,Chester County,PA,NA,NA,2.5773195876288657
19403,Montgomery County,PA,NA,92.80868385345997,NA
19422,Montgomery County,PA,NA,NA,37.11340206185567
19440,Montgomery County,PA,NA,45.31886024423338,NA
19446,Montgomery County,PA,NA,8.4124830393487109,86.08247422680412
19460,Chester County,PA,NA,12.754409769335142,NA
19462,Montgomery County,PA,NA,91.18046132971506,NA
19464,Montgomery County,PA,NA,20.21709633649932,25.257731958762886
19518,Berks County,PA,NA,35.68521031207598,NA
19520,Chester County,PA,82.1256038647343,NA,NA
19534,Berks County,PA,NA,96.87924016282226,NA
19607,Berks County,PA,NA,10.854816824966079,NA
19608,Berks County,PA,NA,NA,80.9278350515464
02809,Bristol County,RI,NA,49.11804613297151,NA
02816,Kent County,RI,38.88888888888889,NA,NA
02865,Providence County,RI,NA,NA,42.01030927835052
02878,Newport County,RI,NA,34.32835820895522,NA
02886,Kent County,RI,NA,13.161465400271371,NA
02906,Providence County,RI,NA,96.06512890094979,NA
02907,Providence County,RI,72.46376811594203,NA,NA
02914,Providence County,RI,NA,NA,17.525773195876287
02917,Providence County,RI,NA,54.95251017639078,NA
29020,Kershaw County,SC,NA,20.8955223880597,NA
29044,Richland County,SC,NA,89.55223880597015,NA
29072,Lexington County,SC,NA,NA,21.649484536082475
29073,Lexington County,SC,13.043478260869565,NA,NA
29150,Sumter County,SC,NA,NA,15.206185567010309
29212,Lexington County,SC,NA,54.00271370420624,NA
29325,Laurens County,SC,NA,98.10040705563094,NA
29365,Spartanburg County,SC,NA,47.62550881953867,NA
29464,Charleston County,SC,52.65700483091788,NA,NA
29488,Colleton County,SC,NA,87.51696065128901,NA
29505,Florence County,SC,30.676328502415455,NA,NA
29506,Florence County,SC,NA,NA,66.75257731958763
29512,Marlboro County,SC,NA,NA,89.94845360824742
29526,Horry County,SC,NA,NA,84.02061855670104
29576,Horry County,SC,NA,NA,11.082474226804123
29605,Greenville County,SC,NA,28.900949796472187,NA
29650,Greenville County,SC,NA,27.408412483039346,NA
29673,Greenville County,SC,50,10.040705563093622,NA
29720,Lancaster County,SC,NA,15.739484396200815,NA
29730,York County,SC,NA,NA,98.71134020618557
29732,York County,SC,NA,13.568521031207597,NA
29835,McCormick County,SC,NA,NA,97.42268041237114
29927,Jasper County,SC,64.97584541062803,NA,63.4020618556701
57049,Union County,SD,NA,95.92944369063771,NA
57078,Yankton County,SD,NA,40.97693351424695,NA
57719,Pennington County,SD,70.53140096618358,NA,NA
37042,Montgomery County,TN,NA,NA,39.43298969072165
37062,Williamson County,TN,NA,NA,65.72164948453609
37072,Davidson County,TN,92.512077294686,NA,NA
37087,Wilson County,TN,NA,13.83989145183175,NA
37090,Wilson County,TN,NA,79.78290366350068,NA
37110,Warren County,TN,8.212560386473431,NA,19.587628865979383
37128,Rutherford County,TN,NA,NA,48.71134020618557
37135,Williamson County,TN,NA,77.34056987788331,NA
37321,Rhea County,TN,NA,NA,50.77319587628865
37363,Hamilton County,TN,NA,89.68792401628222,NA
37385,Monroe County,TN,NA,42.60515603799186,NA
37415,Hamilton County,TN,NA,76.2550881953867,NA
37708,Grainger County,TN,94.44444444444444,NA,NA
37804,Blount County,TN,NA,NA,21.90721649484536
37830,Anderson County,TN,NA,67.16417910447761,NA
37840,Roane County,TN,NA,62.41519674355496,NA
37849,Knox County,TN,NA,NA,33.24742268041237
37887,Morgan County,TN,76.81159420289855,NA,NA
37919,Knox County,TN,33.33333333333333,NA,NA
37920,Knox County,TN,NA,NA,24.22680412371134
37922,Knox County,TN,94.20289855072464,NA,NA
38058,Tipton County,TN,71.25603864734299,NA,NA
38135,Shelby County,TN,NA,45.1831750339213,NA
38261,Obion County,TN,NA,20.62415196743555,NA
75056,Denton County,TX,NA,48.98236092265943,NA
75065,Denton County,TX,NA,85.75305291723203,NA
75068,Denton County,TX,19.082125603864732,NA,NA
75071,Collin County,TX,NA,18.45318860244233,NA
75077,Denton County,TX,26.08695652173913,58.48032564450475,NA
75165,Ellis County,TX,NA,43.69063772048847,NA
75214,Dallas County,TX,91.06280193236715,NA,NA
75218,Dallas County,TX,NA,77.61194029850746,NA
75229,Dallas County,TX,NA,NA,39.69072164948454
75243,Dallas County,TX,NA,27.6797829036635,NA
75252,Collin County,TX,NA,76.39077340569878,NA
75254,Dallas County,TX,NA,75.44097693351425,NA
75455,Titus County,TX,NA,30.12211668928087,NA
75501,Bowie County,TX,19.32367149758454,NA,NA
75755,Upshur County,TX,NA,97.01492537313433,NA
75766,Cherokee County,TX,NA,77.06919945725916,50.51546391752577
75831,Leon County,TX,NA,91.85888738127545,NA
75935,Shelby County,TX,82.6086956521739,NA,NA
76010,Tarrant County,TX,NA,62.95793758480326,NA
76014,Tarrant County,TX,NA,NA,55.927835051546396
76017,Tarrant County,TX,NA,18.046132971506108,NA
76028,Johnson County,TX,5.797101449275362,NA,NA
76114,Tarrant County,TX,NA,35.95658073270013,NA
76120,Tarrant County,TX,59.42028985507246,NA,NA
76248,Tarrant County,TX,NA,76.79782903663501,NA
76272,Cooke County,TX,NA,91.31614654002713,NA
76301,Wichita County,TX,55.072463768115945,NA,NA
76309,Wichita County,TX,NA,NA,54.63917525773196
76502,Bell County,TX,NA,7.055630936227951,NA
76522,Coryell County,TX,NA,45.86160108548169,NA
76633,McLennan County,TX,NA,84.8032564450475,NA
76643,McLennan County,TX,72.22222222222221,NA,NA
76707,McLennan County,TX,NA,80.7327001356852,NA
76708,McLennan County,TX,NA,NA,14.175257731958762
76710,McLennan County,TX,NA,NA,35.051546391752574
77019,Harris County,TX,NA,53.05291723202171,NA
77035,Harris County,TX,85.5072463768116,NA,NA
77055,Harris County,TX,NA,40.16282225237449,NA
77057,Harris County,TX,NA,38.53459972862958,NA
77076,Harris County,TX,NA,NA,96.1340206185567
77083,Harris County,TX,NA,14.925373134328357,NA
77302,Montgomery County,TX,NA,78.69742198100407,NA
77339,Harris County,TX,NA,74.35549525101763,NA
77377,Harris County,TX,NA,61.73677069199457,NA
77380,Montgomery County,TX,NA,39.89145183175034,NA
77386,Montgomery County,TX,NA,58.61601085481682,NA
77388,Harris County,TX,27.536231884057973,NA,NA
77401,Harris County,TX,48.792270531400966,NA,NA
77406,Fort Bend County,TX,27.294685990338163,NA,NA
77422,Brazoria County,TX,NA,NA,77.31958762886599
77459,Fort Bend County,TX,NA,6.7842605156037985,NA
77465,Matagorda County,TX,84.05797101449275,NA,NA
77494,Fort Bend County,TX,NA,8.683853459972863,NA
77498,Fort Bend County,TX,NA,73.13432835820896,NA
77518,Galveston County,TX,NA,NA,92.0103092783505
77521,Harris County,TX,NA,18.99592944369064,NA
77541,Brazoria County,TX,29.468599033816425,NA,NA
77546,Galveston County,TX,NA,72.45590230664858,NA
77566,Brazoria County,TX,NA,NA,79.89690721649485
77578,Brazoria County,TX,NA,59.83717774762552,NA
77584,Brazoria County,TX,21.73913043478261,52.51017639077341,NA
77625,Hardin County,TX,NA,57.6662143826323,NA
77632,Orange County,TX,NA,50.067842605156045,NA
77642,Jefferson County,TX,NA,NA,83.50515463917526
77656,Hardin County,TX,NA,NA,50
77836,Burleson County,TX,NA,32.15739484396201,NA
77845,Brazos County,TX,4.5893719806763285,NA,NA
77964,Lavaca County,TX,NA,97.28629579375848,NA
78201,Bexar County,TX,NA,11.397557666214382,NA
78247,Bexar County,TX,NA,NA,58.76288659793815
78373,Nueces County,TX,NA,85.48168249660787,NA
78516,Hidalgo County,TX,NA,32.56445047489824,NA
78566,Cameron County,TX,71.73913043478261,NA,NA
78639,Llano County,TX,NA,69.87788331071914,NA
78640,Hays County,TX,25.120772946859905,NA,NA
78703,Travis County,TX,NA,71.50610583446404,NA
78739,Travis County,TX,NA,87.78833107191316,NA
78746,Travis County,TX,NA,69.06377204884667,NA
78801,Uvalde County,TX,NA,43.14789687924016,NA
79336,Hockley County,TX,NA,92.53731343283582,NA
79413,Lubbock County,TX,NA,36.092265943012215,NA
79602,Taylor County,TX,NA,34.05698778833107,53.09278350515464
79707,Midland County,TX,NA,NA,58.50515463917526
79935,El Paso County,TX,NA,NA,82.9896907216495
84010,Davis County,UT,NA,83.98914518317503,NA
84025,Davis County,UT,NA,74.6268656716418,NA
84032,Wasatch County,UT,NA,NA,89.43298969072166
84040,Davis County,UT,NA,NA,80.6701030927835
84041,Davis County,UT,NA,67.29986431478969,NA
84047,Salt Lake County,UT,NA,NA,53.608247422680414
84054,Davis County,UT,NA,NA,97.9381443298969
84074,Tooele County,UT,1.6908212560386473,NA,NA
84075,Davis County,UT,85.26570048309179,NA,NA
84081,Salt Lake County,UT,66.66666666666666,NA,NA
84088,Salt Lake County,UT,NA,73.27001356852104,NA
84093,Salt Lake County,UT,NA,58.88738127544097,NA
84105,Salt Lake County,UT,57.00483091787439,NA,NA
84106,Salt Lake County,UT,NA,85.61736770691995,NA
84115,Salt Lake County,UT,NA,20.488466757123476,NA
84120,Salt Lake County,UT,NA,11.12618724559023,NA
84121,Salt Lake County,UT,24.396135265700483,NA,NA
84123,Salt Lake County,UT,50.72463768115942,NA,NA
84124,Salt Lake County,UT,94.68599033816425,NA,NA
84404,Weber County,UT,11.594202898550725,NA,NA
84663,Utah County,UT,51.93236714975845,NA,NA
84790,Washington County,UT,NA,7.598371777476255,NA
05468,Chittenden County,VT,NA,27.815468113975577,NA
05478,Franklin County,VT,NA,NA,18.556701030927837
20155,Prince William County,VA,98.30917874396135,NA,NA
20175,Loudoun County,VA,NA,73.40569877883311,NA
20176,Loudoun County,VA,57.2463768115942,NA,NA
20194,Fairfax County,VA,70.77294685990339,NA,NA
22066,Fairfax County,VA,NA,NA,86.34020618556701
22182,Fairfax County,VA,NA,62.27951153324288,NA
22201,Arlington County,VA,37.43961352657005,NA,NA
22304,Alexandria city,VA,7.729468599033816,20.21709633649932,NA
22308,Fairfax County,VA,NA,99.59294436906377,NA
22405,Stafford County,VA,NA,61.329715061058344,NA
22485,King George County,VA,NA,34.87109905020353,NA
22603,Frederick County,VA,NA,49.796472184531886,NA
22630,Warren County,VA,14.975845410628018,NA,NA
22655,Frederick County,VA,NA,60.10854816824966,NA
22851,Page County,VA,64.73429951690821,NA,NA
23009,King William County,VA,NA,NA,81.95876288659794
23112,Chesterfield County,VA,NA,15.061058344640434,NA
23113,Chesterfield County,VA,NA,NA,35.56701030927835
23150,Henrico County,VA,NA,NA,75
23185,James City County,VA,NA,NA,4.639175257731959
23223,Henrico County,VA,0.966183574879227,NA,NA
23237,Chesterfield County,VA,NA,41.2483039348711,NA
23314,Isle of Wight County,VA,NA,87.24559023066486,NA
23322,Chesapeake city,VA,NA,71.91316146540026,NA
23451,Virginia Beach city,VA,NA,71.37042062415196,1.804123711340206
23453,Virginia Beach city,VA,NA,22.388059701492537,NA
23455,Virginia Beach city,VA,NA,42.33378561736771,NA
23508,Norfolk city,VA,75.36231884057972,NA,NA
23509,Norfolk city,VA,NA,60.379918588873814,NA
23805,Petersburg city,VA,NA,84.26051560379919,NA
23838,Chesterfield County,VA,65.45893719806763,NA,NA
23860,Hopewell city,VA,NA,15.468113975576662,NA
23890,Sussex County,VA,NA,77.61194029850746,NA
23970,Mecklenburg County,VA,NA,NA,70.10309278350515
24014,Roanoke city,VA,NA,17.23202170963365,NA
24101,Franklin County,VA,NA,81.00407055630936,NA
24124,Giles County,VA,NA,95.25101763907735,NA
24343,Carroll County,VA,NA,NA,86.5979381443299
24401,Staunton city,VA,NA,NA,80.41237113402062
24416,Buena Vista city,VA,NA,88.05970149253731,NA
24477,Augusta County,VA,64.4927536231884,NA,NA
24521,Amherst County,VA,86.23188405797102,NA,NA
24540,Danville city,VA,39.130434782608695,NA,NA
24577,Halifax County,VA,NA,NA,82.73195876288659
24586,Pittsylvania County,VA,88.16425120772948,NA,NA
98006,King County,WA,NA,46.404341926729984,NA
98022,King County,WA,NA,NA,78.8659793814433
98024,King County,WA,96.1352657004831,NA,NA
98026,Snohomish County,WA,NA,61.46540027137042,NA
98033,King County,WA,42.7536231884058,NA,NA
98034,King County,WA,60.38647342995169,7.734056987788331,NA
98037,Snohomish County,WA,NA,NA,44.58762886597938
98058,King County,WA,NA,NA,68.29896907216495
98070,King County,WA,96.85990338164251,NA,NA
98092,King County,WA,NA,9.49796472184532,NA
98103,King County,WA,55.55555555555556,NA,NA
98117,King County,WA,39.85507246376812,62.008141112618716,NA
98144,King County,WA,40.82125603864734,NA,NA
98250,San Juan County,WA,NA,53.73134328358209,NA
98264,Whatcom County,WA,NA,83.17503392130257,NA
98370,Kitsap County,WA,99.03381642512076,NA,NA
98373,Pierce County,WA,NA,50.3392130257802,NA
98407,Pierce County,WA,NA,29.850746268656714,NA
98501,Thurston County,WA,NA,23.202170963364992,NA
98506,Thurston County,WA,NA,74.76255088195387,NA
98512,Thurston County,WA,NA,53.595658073270016,48.96907216494845
98580,Pierce County,WA,NA,NA,90.4639175257732
98642,Clark County,WA,93.71980676328504,NA,NA
98686,Clark County,WA,NA,66.89280868385346,NA
98801,Chelan County,WA,NA,78.83310719131615,3.0927835051546393
99016,Spokane County,WA,65.94202898550725,NA,78.6082474226804
99114,Stevens County,WA,NA,NA,66.49484536082474
99206,Spokane County,WA,NA,42.87652645861601,NA
99320,Benton County,WA,91.30434782608695,NA,NA
99336,Benton County,WA,38.405797101449274,0.9497964721845319,NA
24701,Mercer County,WV,NA,16.417910447761194,NA
25701,Cabell County,WV,NA,67.84260515603799,NA
25801,Raleigh County,WV,NA,25.237449118046136,NA
26062,Hancock County,WV,NA,14.246947082767978,NA
26426,Harrison County,WV,NA,56.03799185888738,NA
26501,Monongalia County,WV,NA,NA,56.18556701030928
26508,Monongalia County,WV,NA,33.51424694708277,NA
26726,Mineral County,WV,24.879227053140095,NA,NA
53066,Waukesha County,WI,NA,NA,75.25773195876289
53092,Ozaukee County,WI,NA,93.89416553595657,NA
53095,Washington County,WI,NA,NA,19.329896907216497
53146,Waukesha County,WI,90.82125603864735,NA,NA
53151,Waukesha County,WI,NA,11.261872455902306,NA
53172,Milwaukee County,WI,NA,NA,23.195876288659793
53185,Racine County,WI,NA,88.7381275440977,NA
53217,Milwaukee County,WI,NA,57.53052917232022,NA
53562,Dane County,WI,53.3816425120773,NA,NA
53593,Dane County,WI,96.61835748792271,NA,NA
53705,Dane County,WI,NA,NA,10.051546391752577
53713,Dane County,WI,NA,NA,56.95876288659794
53948,Juneau County,WI,NA,NA,57.73195876288659
54016,St. Croix County,WI,NA,29.986431478968793,NA
54115,Brown County,WI,29.227053140096622,NA,NA
54220,Manitowoc County,WI,NA,NA,6.701030927835052
54403,Marathon County,WI,NA,17.774762550881952,NA
54494,Wood County,WI,NA,20.759837177747624,NA
54650,La Crosse County,WI,NA,4.2062415196743554,NA
54656,Monroe County,WI,NA,NA,73.71134020618557
54758,Trempealeau County,WI,NA,95.79375848032564,NA
54868,Barron County,WI,NA,NA,65.97938144329896
54935,Fond du Lac County,WI,NA,29.443690637720486,NA
82401,Washakie County,WY,NA,NA,72.16494845360825
82930,Uinta County,WY,NA,66.35006784260516,NA
