ZipCode,county,state,Adult,Retirement
35046,Chilton County,AL,96.80511182108627,NA
35125,St. Clair County,AL,55.27156549520767,NA
35150,Talladega County,AL,40.415335463258785,NA
35188,Bibb County,AL,99.68051118210862,NA
35474,Hale County,AL,63.897763578274756,NA
35481,Pickens County,AL,99.04153354632588,NA
35565,Winston County,AL,NA,78.5
35633,Lauderdale County,AL,54.47284345047924,NA
35672,Lawrence County,AL,NA,85.5
35757,Madison County,AL,NA,79
36027,Barbour County,AL,71.56549520766772,NA
36111,Montgomery County,AL,61.82108626198083,NA
36207,Calhoun County,AL,55.43130990415336,NA
36426,Escambia County,AL,NA,63
36784,Clarke County,AL,NA,86
99507,Anchorage Municipality,AK,NA,53.5
99508,Anchorage Municipality,AK,NA,39
85009,Maricopa County,AZ,14.696485623003195,NA
85023,Maricopa County,AZ,28.753993610223645,NA
85035,Maricopa County,AZ,17.412140575079874,NA
85040,Maricopa County,AZ,19.169329073482427,NA
85044,Maricopa County,AZ,19.808306709265175,NA
85142,Maricopa County,AZ,11.501597444089457,NA
85201,Maricopa County,AZ,15.175718849840255,NA
85224,Maricopa County,AZ,45.20766773162939,NA
85234,Maricopa County,AZ,NA,57.49999999999999
85258,Maricopa County,AZ,67.89137380191693,NA
85283,Maricopa County,AZ,18.210862619808307,NA
85301,Maricopa County,AZ,NA,23
85304,Maricopa County,AZ,NA,65.5
85310,Maricopa County,AZ,75.71884984025559,NA
85388,Maricopa County,AZ,NA,84
85706,Pima County,AZ,NA,38.5
85712,Pima County,AZ,NA,46.5
86005,Coconino County,AZ,77.95527156549521,NA
86047,Navajo County,AZ,34.66453674121406,NA
86403,Mohave County,AZ,74.92012779552716,NA
71909,Garland County,AR,NA,32.5
72301,Crittenden County,AR,79.71246006389777,NA
72396,Cross County,AR,NA,74.5
72714,Benton County,AR,92.33226837060703,NA
72956,Crawford County,AR,NA,28.999999999999996
90011,Los Angeles County,CA,73.48242811501598,NA
90023,Los Angeles County,CA,37.38019169329074,NA
90028,Los Angeles County,CA,96.3258785942492,NA
90031,Los Angeles County,CA,69.32907348242811,NA
90038,Los Angeles County,CA,76.8370607028754,NA
90042,Los Angeles County,CA,79.2332268370607,NA
90045,Los Angeles County,CA,62.30031948881789,NA
90221,Los Angeles County,CA,11.821086261980831,NA
90254,Los Angeles County,CA,83.22683706070288,NA
90291,Los Angeles County,CA,97.28434504792332,NA
90504,Los Angeles County,CA,69.16932907348243,NA
90630,Orange County,CA,47.763578274760384,NA
90631,Orange County,CA,66.61341853035144,NA
90731,Los Angeles County,CA,32.108626198083066,NA
90808,Los Angeles County,CA,82.10862619808307,NA
91011,Los Angeles County,CA,89.29712460063898,NA
91016,Los Angeles County,CA,NA,59
91208,Los Angeles County,CA,NA,72
91316,Los Angeles County,CA,70.7667731629393,NA
91335,Los Angeles County,CA,31.948881789137378,NA
91343,Los Angeles County,CA,51.43769968051119,NA
91702,Los Angeles County,CA,33.06709265175719,NA
91792,Los Angeles County,CA,66.29392971246007,NA
92008,San Diego County,CA,50.47923322683706,NA
92107,San Diego County,CA,65.65495207667732,NA
92111,San Diego County,CA,53.51437699680511,NA
92113,San Diego County,CA,25.718849840255594,NA
92122,San Diego County,CA,72.36421725239617,NA
92311,San Bernardino County,CA,68.21086261980831,NA
92324,San Bernardino County,CA,20.447284345047922,NA
92335,San Bernardino County,CA,11.182108626198083,NA
92337,San Bernardino County,CA,58.146964856230035,NA
92532,Riverside County,CA,70.28753993610223,NA
92557,Riverside County,CA,86.74121405750799,NA
92604,Orange County,CA,79.2332268370607,NA
92655,Orange County,CA,96.48562300319489,NA
92677,Orange County,CA,NA,12
92694,Orange County,CA,81.46964856230032,NA
92805,Orange County,CA,57.98722044728435,NA
93035,Ventura County,CA,67.25239616613419,NA
93065,Ventura County,CA,16.45367412140575,NA
93230,Kings County,CA,91.69329073482429,NA
93304,Kern County,CA,25.079872204472842,NA
93308,Kern County,CA,29.073482428115017,NA
93422,San Luis Obispo County,CA,46.64536741214057,NA
93446,San Luis Obispo County,CA,NA,44.5
93454,Santa Barbara County,CA,31.629392971246006,NA
93535,Los Angeles County,CA,10.383386581469649,NA
93703,Fresno County,CA,43.61022364217252,NA
94014,San Mateo County,CA,73.96166134185303,NA
94043,Santa Clara County,CA,NA,68
94086,Santa Clara County,CA,59.105431309904155,NA
94107,San Francisco County,CA,44.08945686900959,NA
94122,San Francisco County,CA,46.64536741214057,NA
94301,Santa Clara County,CA,91.85303514376997,NA
94401,San Mateo County,CA,76.35782747603834,NA
94519,Contra Costa County,CA,88.01916932907349,NA
94533,Solano County,CA,23.961661341853034,NA
94536,Alameda County,CA,63.09904153354633,NA
94546,Alameda County,CA,92.97124600638978,NA
94555,Alameda County,CA,NA,69.5
94605,Alameda County,CA,56.0702875399361,NA
94939,Marin County,CA,98.56230031948881,NA
94954,Sonoma County,CA,NA,69
95122,Santa Clara County,CA,45.846645367412144,NA
95252,Calaveras County,CA,82.26837060702876,NA
95354,Stanislaus County,CA,34.185303514377,NA
95355,Stanislaus County,CA,9.584664536741213,NA
95605,Yolo County,CA,99.52076677316293,NA
95630,Sacramento County,CA,NA,19.5
95815,Sacramento County,CA,NA,65
95961,Yuba County,CA,44.40894568690096,NA
95966,Butte County,CA,68.370607028754,NA
95993,Sutter County,CA,75.5591054313099,NA
96003,Shasta County,CA,43.13099041533546,NA
96007,Shasta County,CA,65.33546325878594,NA
80027,Boulder County,CO,83.86581469648561,NA
80122,Arapahoe County,CO,52.87539936102237,NA
80219,Denver County,CO,4.792332268370607,NA
80229,Adams County,CO,15.814696485623003,NA
80526,Larimer County,CO,36.90095846645367,NA
80543,Weld County,CO,94.88817891373802,NA
80550,Weld County,CO,61.34185303514377,NA
80634,Weld County,CO,2.07667731629393,NA
80904,El Paso County,CO,62.61980830670927,NA
81007,Pueblo County,CO,45.367412140575084,NA
81301,La Plata County,CO,54.153354632587856,NA
06040,Hartford County,CT,NA,21
06053,Hartford County,CT,12.300319488817891,NA
06095,Hartford County,CT,39.77635782747604,NA
06410,New Haven County,CT,NA,43.5
06475,Middlesex County,CT,NA,61.5
06770,New Haven County,CT,55.59105431309904,NA
06890,Fairfield County,CT,NA,96.5
19802,New Castle County,DE,16.293929712460063,NA
19808,New Castle County,DE,23.322683706070286,NA
19940,Sussex County,DE,87.22044728434504,NA
19968,Sussex County,DE,NA,80
32127,Volusia County,FL,59.105431309904155,NA
32177,Putnam County,FL,44.88817891373802,NA
32205,Duval County,FL,27.47603833865815,NA
32209,Duval County,FL,4.313099041533546,NA
32305,Leon County,FL,NA,81
32433,Walton County,FL,58.30670926517571,NA
32448,Jackson County,FL,56.86900958466453,NA
32455,Walton County,FL,83.38658146964856,NA
32503,Escambia County,FL,NA,15.5
32539,Okaloosa County,FL,40.09584664536741,NA
32607,Alachua County,FL,19.488817891373802,NA
32626,Levy County,FL,88.33865814696486,NA
32707,Seminole County,FL,66.29392971246007,NA
32725,Volusia County,FL,NA,41
32805,Orange County,FL,33.86581469648562,NA
32808,Orange County,FL,16.93290734824281,NA
32811,Orange County,FL,23.482428115015974,NA
32826,Orange County,FL,80.3514376996805,NA
32835,Orange County,FL,57.50798722044729,NA
33020,Broward County,FL,31.150159744408946,NA
33024,Broward County,FL,30.5111821086262,NA
33026,Broward County,FL,83.54632587859425,NA
33040,Monroe County,FL,43.76996805111821,NA
33056,Miami-Dade County,FL,39.936102236421725,NA
33063,Broward County,FL,41.69329073482428,NA
33071,Broward County,FL,52.07667731629393,63.5
33167,Miami-Dade County,FL,NA,90
33180,Miami-Dade County,FL,79.07348242811501,NA
33311,Broward County,FL,7.507987220447284,NA
33312,Broward County,FL,35.3035143769968,NA
33410,Palm Beach County,FL,NA,34
33415,Palm Beach County,FL,42.17252396166134,NA
33523,Pasco County,FL,67.57188498402556,NA
33569,Hillsborough County,FL,74.4408945686901,NA
33596,Hillsborough County,FL,85.78274760383387,NA
33605,Hillsborough County,FL,81.15015974440894,NA
33770,Pinellas County,FL,NA,57.99999999999999
33771,Pinellas County,FL,44.72843450479233,NA
33872,Highlands County,FL,NA,42
33880,Polk County,FL,NA,47.5
33917,Lee County,FL,51.118210862619804,NA
33990,Lee County,FL,69.00958466453673,NA
34119,Collier County,FL,42.49201277955272,NA
34209,Manatee County,FL,63.418530351437695,NA
34234,Sarasota County,FL,40.415335463258785,NA
34235,Sarasota County,FL,96.64536741214057,NA
34238,Sarasota County,FL,NA,40.5
34288,Sarasota County,FL,84.02555910543131,NA
34291,Sarasota County,FL,97.60383386581469,NA
34293,Sarasota County,FL,47.92332268370607,NA
34606,Hernando County,FL,73.1629392971246,NA
34610,Pasco County,FL,65.01597444089457,NA
34684,Pinellas County,FL,NA,47
34685,Pinellas County,FL,88.65814696485623,NA
34689,Pinellas County,FL,56.70926517571885,NA
34691,Pasco County,FL,44.40894568690096,NA
34741,Osceola County,FL,24.600638977635782,NA
34946,St. Lucie County,FL,78.91373801916933,NA
34974,Okeechobee County,FL,53.51437699680511,NA
30012,Rockdale County,GA,53.35463258785943,NA
30016,Newton County,GA,14.057507987220447,NA
30075,Fulton County,GA,38.019169329073485,NA
30094,Rockdale County,GA,NA,31.5
30102,Cherokee County,GA,47.12460063897764,NA
30115,Cherokee County,GA,38.977635782747605,NA
30116,Carroll County,GA,76.19808306709265,NA
30126,Cobb County,GA,43.29073482428115,NA
30165,Floyd County,GA,57.34824281150159,NA
30179,Carroll County,GA,NA,66
30215,Fayette County,GA,NA,35.5
30236,Clayton County,GA,32.26837060702875,NA
30252,Henry County,GA,38.65814696485623,NA
30291,Fulton County,GA,38.33865814696485,NA
30292,Pike County,GA,NA,94.5
30317,DeKalb County,GA,71.8849840255591,NA
30501,Hall County,GA,64.37699680511182,NA
30563,Habersham County,GA,NA,95.5
30655,Walton County,GA,81.30990415335462,NA
30728,Walker County,GA,69.4888178913738,NA
30824,McDuffie County,GA,48.881789137380196,NA
31027,Laurens County,GA,86.26198083067092,NA
31030,Peach County,GA,74.60063897763578,NA
31061,Baldwin County,GA,30.191693290734822,NA
31206,Bibb County,GA,NA,54.50000000000001
31520,Glynn County,GA,NA,58.5
31554,Coffee County,GA,NA,99.5
31906,Muscogee County,GA,41.373801916932905,NA
31907,Muscogee County,GA,9.26517571884984,NA
96744,Honolulu County,HI,NA,5
96797,Honolulu County,HI,33.70607028753994,NA
96816,Honolulu County,HI,33.38658146964856,NA
96819,Honolulu County,HI,NA,51.5
83402,Bonneville County,ID,NA,49
83442,Jefferson County,ID,42.33226837060703,NA
83617,Gem County,ID,87.69968051118211,NA
83843,Latah County,ID,60.862619808306704,NA
83858,Kootenai County,ID,NA,93.5
60010,Lake County,IL,38.81789137380191,NA
60030,Lake County,IL,42.81150159744409,NA
60077,Cook County,IL,90.41533546325878,NA
60104,Cook County,IL,40.2555910543131,NA
60123,Kane County,IL,21.884984025559106,NA
60137,DuPage County,IL,34.34504792332269,NA
60142,McHenry County,IL,NA,13
60148,DuPage County,IL,44.24920127795527,NA
60156,McHenry County,IL,36.102236421725244,NA
60552,LaSalle County,IL,NA,98.5
60563,DuPage County,IL,45.68690095846645,NA
60619,Cook County,IL,NA,6.5
60620,Cook County,IL,NA,25
60637,Cook County,IL,16.61341853035144,NA
60657,Cook County,IL,21.24600638977636,NA
60804,Cook County,IL,19.968051118210862,NA
61032,Stephenson County,IL,65.814696485623,NA
61301,LaSalle County,IL,61.66134185303515,NA
62450,Richland County,IL,85.94249201277955,NA
62712,Sangamon County,IL,94.24920127795528,NA
46011,Madison County,IN,49.84025559105431,NA
46173,Rush County,IN,55.91054313099042,NA
46229,Marion County,IN,25.23961661341853,NA
46237,Marion County,IN,92.65175718849841,NA
46254,Marion County,IN,22.523961661341854,NA
46303,Lake County,IN,NA,43
46307,Lake County,IN,29.712460063897762,NA
46320,Lake County,IN,34.98402555910543,NA
46324,Lake County,IN,17.89137380191693,NA
46350,LaPorte County,IN,NA,9.5
46360,LaPorte County,IN,5.9105431309904155,7.000000000000001
46404,Lake County,IN,64.6964856230032,NA
46405,Lake County,IN,40.73482428115016,NA
47302,Delaware County,IN,NA,33.5
47404,Monroe County,IN,62.77955271565495,NA
47542,Dubois County,IN,98.8817891373802,NA
47591,Knox County,IN,67.73162939297124,NA
50315,Polk County,IA,NA,26
50677,Bremer County,IA,78.59424920127796,NA
51105,Woodbury County,IA,67.0926517571885,NA
52241,Johnson County,IA,46.16613418530351,NA
52246,Johnson County,IA,58.78594249201278,NA
52501,Wapello County,IA,15.654952076677317,NA
67665,Russell County,KS,89.93610223642172,NA
40211,Jefferson County,KY,14.536741214057509,NA
40216,Jefferson County,KY,34.504792332268366,NA
40219,Jefferson County,KY,13.89776357827476,NA
40258,Jefferson County,KY,22.843450479233226,NA
40353,Montgomery County,KY,22.364217252396166,NA
40422,Boyle County,KY,76.51757188498402,NA
41014,Kenton County,KY,51.75718849840255,NA
41143,Carter County,KY,88.81789137380191,NA
41311,Lee County,KY,88.49840255591054,NA
41701,Perry County,KY,32.42811501597444,NA
42134,Simpson County,KY,NA,68.5
42141,Barren County,KY,13.738019169329075,NA
42301,Daviess County,KY,10.86261980830671,NA
42718,Taylor County,KY,59.424920127795524,NA
70126,Orleans Parish,LA,6.549520766773163,NA
70339,Assumption Parish,LA,NA,86.5
70364,Terrebonne Parish,LA,8.30670926517572,NA
70394,Lafourche Parish,LA,20.60702875399361,NA
70443,Tangipahoa Parish,LA,97.92332268370608,NA
70447,St. Tammany Parish,LA,57.18849840255591,NA
70448,St. Tammany Parish,LA,82.42811501597444,NA
70647,Calcasieu Parish,LA,NA,89.5
70737,Ascension Parish,LA,7.348242811501597,NA
70775,West Feliciana Parish,LA,NA,95
71108,Caddo Parish,LA,11.661341853035143,NA
71269,Richland Parish,LA,45.04792332268371,NA
71301,Rapides Parish,LA,NA,35
04268,Oxford County,ME,80.67092651757189,NA
04270,Oxford County,ME,68.53035143769968,NA
20601,Charles County,MD,67.25239616613419,NA
20653,St. Mary's County,MD,63.25878594249201,NA
20721,Prince George's County,MD,73.96166134185303,NA
20746,Prince George's County,MD,62.14057507987221,NA
20850,Montgomery County,MD,95.52715654952077,NA
21093,Baltimore County,MD,42.6517571884984,NA
21210,Baltimore city,MD,NA,71.5
21632,Caroline County,MD,84.66453674121406,NA
01001,Hampden County,MA,27.95527156549521,NA
01104,Hampden County,MA,70.6070287539936,NA
01105,Hampden County,MA,NA,13.5
01151,Hampden County,MA,NA,53
01432,Middlesex County,MA,47.6038338658147,NA
01566,Worcester County,MA,98.08306709265176,NA
01588,Worcester County,MA,NA,41.5
01603,Worcester County,MA,1.4376996805111821,NA
01605,Worcester County,MA,0.7987220447284344,NA
01772,Worcester County,MA,90.89456869009584,NA
01826,Middlesex County,MA,4.472843450479233,NA
01832,Essex County,MA,18.53035143769968,NA
01845,Essex County,MA,NA,45
01886,Middlesex County,MA,23.642172523961662,NA
01902,Essex County,MA,2.7156549520766773,NA
01966,Essex County,MA,NA,64
02026,Norfolk County,MA,NA,17.5
02038,Norfolk County,MA,72.68370607028754,NA
02052,Norfolk County,MA,84.82428115015975,NA
02128,Suffolk County,MA,NA,1
02130,Suffolk County,MA,0.6389776357827476,NA
02171,Norfolk County,MA,95.0479233226837,NA
02302,Plymouth County,MA,NA,3
02343,Norfolk County,MA,37.53993610223642,NA
02474,Middlesex County,MA,14.376996805111823,NA
02494,Norfolk County,MA,NA,89
02740,Bristol County,MA,35.78274760383386,NA
02760,Bristol County,MA,12.460063897763577,NA
02769,Bristol County,MA,46.00638977635783,NA
48045,Macomb County,MI,NA,17
48091,Macomb County,MI,6.869009584664537,NA
48092,Macomb County,MI,30.830670926517573,NA
48103,Washtenaw County,MI,NA,1.5
48125,Wayne County,MI,54.7923322683706,NA
48169,Livingston County,MI,47.44408945686901,NA
48183,Wayne County,MI,10.063897763578275,NA
48188,Wayne County,MI,NA,9
48189,Washtenaw County,MI,90.73482428115017,NA
48205,Wayne County,MI,38.498402555910545,NA
48206,Wayne County,MI,28.27476038338658,NA
48209,Wayne County,MI,24.281150159744406,NA
48215,Wayne County,MI,36.74121405750799,NA
48219,Wayne County,MI,NA,4
48228,Wayne County,MI,1.2779552715654952,NA
48237,Oakland County,MI,NA,20.5
48310,Macomb County,MI,17.0926517571885,NA
48331,Oakland County,MI,NA,23.5
48386,Oakland County,MI,60.22364217252396,NA
48439,Genesee County,MI,NA,16.5
48453,Sanilac County,MI,78.75399361022363,NA
48460,Shiawassee County,MI,100,NA
48506,Genesee County,MI,25.399361022364218,NA
48653,Roscommon County,MI,75.39936102236422,NA
48708,Bay County,MI,8.466453674121405,NA
48820,Clinton County,MI,NA,50.5
48846,Ionia County,MI,37.85942492012779,NA
48867,Shiawassee County,MI,NA,8
48910,Ingham County,MI,13.258785942492013,NA
48911,Ingham County,MI,NA,16
49001,Kalamazoo County,MI,52.715654952076676,56.49999999999999
49221,Lenawee County,MI,3.8338658146964857,NA
49285,Ingham County,MI,NA,80.5
49327,Newaygo County,MI,77.15654952076677,NA
49431,Mason County,MI,NA,26.5
49442,Muskegon County,MI,3.1948881789137378,6
49454,Mason County,MI,81.78913738019169,NA
49506,Kent County,MI,25.878594249201274,NA
49507,Kent County,MI,25.559105431309902,NA
49508,Kent County,MI,6.070287539936102,NA
49855,Marquette County,MI,15.974440894568689,NA
49866,Marquette County,MI,56.54952076677316,NA
55079,Chisago County,MN,79.55271565495208,NA
55107,Ramsey County,MN,89.1373801916933,NA
55117,Ramsey County,MN,46.325878594249204,NA
55304,Anoka County,MN,NA,44
55306,Dakota County,MN,NA,70
55320,Wright County,MN,NA,93
55407,Hennepin County,MN,6.7092651757188495,NA
55445,Hennepin County,MN,99.84025559105432,NA
55733,Carlton County,MN,97.76357827476039,NA
55920,Olmsted County,MN,98.7220447284345,NA
56537,Otter Tail County,MN,49.52076677316294,NA
56573,Otter Tail County,MN,61.18210862619809,NA
38606,Panola County,MS,NA,81.5
38654,DeSoto County,MS,24.440894568690098,NA
38851,Chickasaw County,MS,94.72843450479233,NA
38863,Pontotoc County,MS,63.418530351437695,NA
38965,Yalobusha County,MS,83.06709265175719,NA
39071,Madison County,MS,95.68690095846645,NA
39090,Attala County,MS,93.9297124600639,NA
39095,Holmes County,MS,95.2076677316294,NA
39154,Hinds County,MS,84.34504792332268,NA
39211,Hinds County,MS,NA,76.5
39439,Jasper County,MS,90.57507987220448,NA
39571,Harrison County,MS,NA,36
63011,St. Louis County,MO,72.20447284345049,20
63114,St. Louis County,MO,26.357827476038338,NA
63123,St. Louis County,MO,NA,15
63645,Madison County,MO,91.05431309904152,NA
63755,Cape Girardeau County,MO,61.980830670926515,NA
63801,Scott County,MO,22.683706070287542,NA
64055,Jackson County,MO,7.987220447284344,NA
64063,Jackson County,MO,71.40575079872204,NA
64075,Jackson County,MO,42.012779552715656,NA
64079,Platte County,MO,NA,79.5
64118,Clay County,MO,5.271565495207668,NA
64145,Jackson County,MO,99.36102236421725,NA
64477,Clinton County,MO,NA,97.5
64772,Vernon County,MO,41.054313099041536,NA
64801,Jasper County,MO,60.70287539936102,NA
65340,Saline County,MO,35.46325878594249,NA
65711,Wright County,MO,97.12460063897763,NA
65775,Howell County,MO,33.22683706070288,NA
59711,Deer Lodge County,MT,92.81150159744409,NA
68114,Douglas County,NE,77.79552715654951,NA
89115,Clark County,NV,21.08626198083067,NA
89117,Clark County,NV,NA,37
89119,Clark County,NV,NA,51
89431,Washoe County,NV,22.044728434504794,NA
03820,Strafford County,NH,NA,40
07039,Essex County,NJ,20.287539936102235,NA
07050,Essex County,NJ,93.45047923322683,NA
07086,Hudson County,NJ,63.418530351437695,NA
07093,Hudson County,NJ,87.06070287539937,NA
07201,Union County,NJ,7.827476038338658,NA
07302,Hudson County,NJ,96.96485623003196,NA
07416,Sussex County,NJ,84.98402555910543,NA
07712,Monmouth County,NJ,2.3961661341853033,NA
07747,Monmouth County,NJ,NA,75.5
07751,Monmouth County,NJ,NA,82.5
07753,Monmouth County,NJ,5.431309904153355,NA
07801,Morris County,NJ,50.95846645367412,NA
08022,Burlington County,NJ,NA,87.5
08046,Burlington County,NJ,NA,27
08075,Burlington County,NJ,43.9297124600639,NA
08110,Camden County,NJ,NA,96
08215,Atlantic County,NJ,NA,59.5
08226,Cape May County,NJ,57.02875399361022,NA
08232,Atlantic County,NJ,5.7507987220447285,NA
08701,Ocean County,NJ,86.90095846645367,NA
08723,Ocean County,NJ,16.773162939297126,NA
08822,Hunterdon County,NJ,23.80191693290735,NA
08844,Somerset County,NJ,NA,60
08901,Middlesex County,NJ,4.952076677316294,NA
87102,Bernalillo County,NM,NA,49.5
87112,Bernalillo County,NM,NA,11
87114,Bernalillo County,NM,51.2779552715655,NA
87121,Bernalillo County,NM,4.15335463258786,7.5
87301,McKinley County,NM,26.996805111821086,NA
88081,Otero County,NM,92.01277955271566,NA
88240,Lea County,NM,6.3897763578274756,NA
10029,New York County,NY,24.920127795527154,NA
10303,Richmond County,NY,39.61661341853035,NA
10312,Richmond County,NY,42.97124600638978,NA
10314,Richmond County,NY,40.894568690095845,NA
10455,Bronx County,NY,NA,11.5
10458,Bronx County,NY,0.1597444089456869,45.5
10460,Bronx County,NY,1.5974440894568689,NA
10469,Bronx County,NY,2.8753993610223643,NA
10472,Bronx County,NY,1.9169329073482428,NA
10701,Westchester County,NY,1.1182108626198082,NA
10927,Rockland County,NY,86.10223642172524,NA
11021,Nassau County,NY,NA,90.5
11212,Kings County,NY,0.4792332268370607,NA
11219,Kings County,NY,NA,56.99999999999999
11226,Kings County,NY,20.766773162939298,NA
11249,Kings County,NY,85.3035143769968,NA
11385,Queens County,NY,10.543130990415335,NA
11421,Queens County,NY,34.025559105431306,NA
11716,Suffolk County,NY,NA,92
11726,Suffolk County,NY,73.64217252396166,NA
11727,Suffolk County,NY,61.0223642172524,30
11793,Nassau County,NY,85.4632587859425,NA
12020,Saratoga County,NY,78.1150159744409,NA
12182,Rensselaer County,NY,49.04153354632588,NA
12302,Schenectady County,NY,41.533546325878596,NA
12553,Orange County,NY,NA,67
12885,Warren County,NY,74.76038338658148,NA
13027,Onondaga County,NY,NA,18.5
13088,Onondaga County,NY,27.635782747603834,NA
13110,Onondaga County,NY,NA,98
13143,Wayne County,NY,93.61022364217251,NA
13208,Onondaga County,NY,13.578274760383385,NA
13215,Onondaga County,NY,50.798722044728436,NA
13655,St. Lawrence County,NY,82.74760383386581,NA
13753,Delaware County,NY,85.14376996805112,NA
13790,Broome County,NY,9.904153354632587,NA
13820,Otsego County,NY,NA,8.5
14051,Erie County,NY,41.054313099041536,NA
14092,Niagara County,NY,NA,48.5
14094,Niagara County,NY,1.7571884984025559,NA
14098,Orleans County,NY,89.45686900958466,NA
14211,Erie County,NY,9.424920127795527,NA
14420,Monroe County,NY,NA,77.5
14485,Livingston County,NY,79.71246006389777,NA
14580,Monroe County,NY,NA,0
14624,Monroe County,NY,NA,3.5000000000000004
14701,Chautauqua County,NY,2.2364217252396164,2.5
14843,Steuben County,NY,21.405750798722046,NA
14867,Tompkins County,NY,59.7444089456869,NA
14901,Chemung County,NY,30.990415335463258,NA
14905,Chemung County,NY,80.3514376996805,NA
27106,Forsyth County,NC,NA,4.5
27284,Forsyth County,NC,7.188498402555911,NA
27295,Davidson County,NC,3.5143769968051117,NA
27298,Randolph County,NC,81.94888178913739,NA
27320,Rockingham County,NC,NA,10.5
27370,Randolph County,NC,NA,62
27516,Orange County,NC,NA,14.499999999999998
27519,Wake County,NC,76.6773162939297,NA
27526,Wake County,NC,27.635782747603834,NA
27592,Wake County,NC,NA,73.5
27828,Pitt County,NC,66.93290734824281,NA
27882,Nash County,NC,NA,88
28081,Cabarrus County,NC,53.833865814696495,NA
28092,Lincoln County,NC,54.31309904153354,NA
28115,Iredell County,NC,21.405750798722046,NA
28152,Cleveland County,NC,36.90095846645367,NA
28174,Union County,NC,82.58785942492013,NA
28202,Mecklenburg County,NC,88.17891373801918,NA
28205,Mecklenburg County,NC,70.12779552715655,NA
28208,Mecklenburg County,NC,10.223642172523961,NA
28277,Mecklenburg County,NC,NA,75
28328,Sampson County,NC,35.623003194888184,NA
28358,Robeson County,NC,17.252396166134183,NA
28433,Bladen County,NC,94.08945686900958,NA
28451,Brunswick County,NC,NA,25.5
28472,Columbus County,NC,36.42172523961661,NA
28539,Onslow County,NC,72.52396166134186,NA
28572,Duplin County,NC,82.74760383386581,NA
28601,Catawba County,NC,NA,10
28602,Catawba County,NC,NA,42.5
28645,Caldwell County,NC,NA,0.5
28655,Burke County,NC,5.5910543130990416,NA
28677,Iredell County,NC,45.52715654952076,NA
28762,McDowell County,NC,78.43450479233228,NA
28806,Buncombe County,NC,39.29712460063898,NA
58103,Cass County,ND,30.031948881789138,NA
58201,Grand Forks County,ND,31.629392971246006,NA
43068,Franklin County,OH,11.022364217252397,NA
43207,Franklin County,OH,13.099041533546327,NA
43209,Franklin County,OH,NA,36
43211,Franklin County,OH,12.140575079872203,NA
43220,Franklin County,OH,69.80830670926518,NA
43224,Franklin County,OH,26.837060702875398,NA
43567,Fulton County,OH,48.56230031948881,39
43701,Muskingum County,OH,0.3194888178913738,NA
43764,Perry County,OH,68.05111821086261,NA
43933,Belmont County,OH,NA,97
44035,Lorain County,OH,26.038338658146966,NA
44039,Lorain County,OH,8.626198083067091,NA
44077,Lake County,OH,89.61661341853035,NA
44094,Lake County,OH,18.370607028753994,NA
44102,Cuyahoga County,OH,0,NA
44106,Cuyahoga County,OH,11.341853035143771,NA
44108,Cuyahoga County,OH,NA,84.5
44111,Cuyahoga County,OH,0.9584664536741214,NA
44114,Cuyahoga County,OH,32.587859424920126,NA
44128,Cuyahoga County,OH,56.38977635782748,NA
44134,Cuyahoga County,OH,8.945686900958465,NA
44145,Cuyahoga County,OH,NA,28.000000000000004
44212,Medina County,OH,3.035143769968051,NA
44305,Summit County,OH,NA,37.5
44313,Summit County,OH,84.185303514377,NA
44320,Summit County,OH,17.731629392971247,NA
44484,Trumbull County,OH,29.39297124600639,NA
44514,Mahoning County,OH,NA,29.5
44691,Wayne County,OH,31.309904153354633,NA
44870,Erie County,OH,41.853035143769965,NA
45206,Hamilton County,OH,52.55591054313099,NA
45207,Hamilton County,OH,80.99041533546327,NA
45237,Hamilton County,OH,NA,24.5
45238,Hamilton County,OH,14.856230031948881,NA
45240,Hamilton County,OH,26.677316293929714,NA
45241,Hamilton County,OH,69.96805111821087,NA
45251,Hamilton County,OH,NA,88.5
45403,Montgomery County,OH,36.5814696485623,NA
45414,Montgomery County,OH,30.35143769968051,NA
45506,Clark County,OH,78.27476038338658,NA
45601,Ross County,OH,27.15654952076677,NA
45631,Gallia County,OH,11.980830670926517,NA
45640,Jackson County,OH,7.0287539936102235,NA
45710,Athens County,OH,NA,83
45714,Washington County,OH,49.201277955271564,NA
45804,Allen County,OH,12.939297124600637,NA
73052,Garvin County,OK,92.33226837060703,NA
73071,Cleveland County,OK,88.9776357827476,NA
73115,Oklahoma County,OK,56.23003194888179,NA
73120,Oklahoma County,OK,NA,28.499999999999996
73159,Oklahoma County,OK,73.96166134185303,NA
73170,Cleveland County,OK,32.9073482428115,NA
73401,Carter County,OK,NA,12.5
73505,Comanche County,OK,23.003194888178914,NA
73703,Garfield County,OK,NA,19
74441,Cherokee County,OK,95.36741214057508,NA
97013,Clackamas County,OR,57.82747603833865,NA
97024,Multnomah County,OR,62.939297124600635,NA
97113,Washington County,OR,71.08626198083067,NA
97132,Yamhill County,OR,71.24600638977637,NA
97219,Multnomah County,OR,58.46645367412141,NA
97223,Washington County,OR,29.552715654952078,NA
97477,Lane County,OR,24.76038338658147,NA
97537,Jackson County,OR,80.83067092651757,NA
15003,Beaver County,PA,70.28753993610223,NA
15010,Beaver County,PA,NA,27.500000000000004
15061,Beaver County,PA,60.063897763578275,NA
15065,Allegheny County,PA,64.85623003194888,NA
15131,Allegheny County,PA,89.77635782747603,NA
15205,Allegheny County,PA,46.48562300319489,NA
15206,Allegheny County,PA,NA,22.5
15210,Allegheny County,PA,NA,77
15425,Fayette County,PA,31.469648562300318,NA
15626,Westmoreland County,PA,98.40255591054313,NA
15801,Clearfield County,PA,8.78594249201278,NA
15853,Elk County,PA,NA,99
15963,Somerset County,PA,64.5367412140575,NA
16365,Warren County,PA,35.14376996805112,NA
16601,Blair County,PA,65.17571884984025,NA
16668,Cambria County,PA,98.24281150159744,NA
17202,Franklin County,PA,28.594249201277954,NA
17522,Lancaster County,PA,26.517571884984026,NA
17728,Lycoming County,PA,NA,72.5
17737,Lycoming County,PA,90.2555910543131,NA
17801,Northumberland County,PA,20.12779552715655,NA
18103,Lehigh County,PA,26.198083067092654,NA
18328,Pike County,PA,94.40894568690096,NA
18444,Lackawanna County,PA,NA,74
18447,Lackawanna County,PA,76.03833865814697,NA
18951,Bucks County,PA,18.849840255591054,NA
19111,Philadelphia County,PA,3.3546325878594248,NA
19115,Philadelphia County,PA,50.319488817891376,NA
19116,Philadelphia County,PA,29.233226837060705,NA
19123,Philadelphia County,PA,53.99361022364217,NA
19132,Philadelphia County,PA,6.230031948881789,NA
19134,Philadelphia County,PA,2.5559105431309903,NA
19139,Philadelphia County,PA,3.6741214057507987,NA
19143,Philadelphia County,PA,9.105431309904153,NA
19362,Chester County,PA,94.56869009584665,NA
02816,Kent County,RI,58.94568690095847,NA
02864,Providence County,RI,NA,54
02885,Bristol County,RI,NA,87
02907,Providence County,RI,39.13738019169329,NA
02914,Providence County,RI,NA,78
29204,Richland County,SC,NA,66.5
29205,Richland County,SC,75.71884984025559,NA
29306,Spartanburg County,SC,81.629392971246,NA
29414,Charleston County,SC,33.54632587859425,NA
29456,Dorchester County,SC,66.77316293929712,NA
29461,Berkeley County,SC,64.21725239616613,NA
29488,Colleton County,SC,34.82428115015975,NA
29732,York County,SC,32.74760383386581,NA
29909,Beaufort County,SC,NA,18
57106,Minnehaha County,SD,54.632587859424916,NA
57301,Davison County,SD,47.284345047923324,NA
57555,Todd County,SD,96.1661341853035,NA
37064,Williamson County,TN,75.23961661341852,NA
37076,Davidson County,TN,66.13418530351439,NA
37083,Macon County,TN,50.159744408945684,NA
37130,Rutherford County,TN,20.926517571884983,NA
37160,Bedford County,TN,18.69009584664537,NA
37211,Davidson County,TN,19.329073482428115,NA
37725,Jefferson County,TN,NA,61
37849,Knox County,TN,39.456869009584665,NA
37917,Knox County,TN,17.57188498402556,NA
37918,Knox County,TN,15.495207667731629,NA
38018,Shelby County,TN,65.97444089456869,NA
38109,Shelby County,TN,12.619808306709265,NA
38111,Shelby County,TN,22.20447284345048,NA
38117,Shelby County,TN,NA,67.5
38122,Shelby County,TN,53.03514376996805,NA
38128,Shelby County,TN,19.64856230031949,NA
38305,Madison County,TN,10.702875399361023,NA
38449,Giles County,TN,97.44408945686901,NA
75007,Denton County,TX,46.96485623003195,NA
75013,Collin County,TX,48.402555910543136,NA
75041,Dallas County,TX,43.29073482428115,NA
75052,Dallas County,TX,18.051118210862622,NA
75056,Denton County,TX,62.460063897763575,NA
75103,Van Zandt County,TX,NA,52
75165,Ellis County,TX,59.584664536741215,NA
75169,Van Zandt County,TX,71.72523961661342,NA
75217,Dallas County,TX,9.744408945686901,NA
75230,Dallas County,TX,NA,48
75252,Collin County,TX,64.05750798722045,NA
75401,Hunt County,TX,NA,60
75482,Hopkins County,TX,57.66773162939297,NA
75551,Cass County,TX,93.76996805111821,NA
75702,Smith County,TX,37.22044728434505,NA
76109,Tarrant County,TX,NA,83.5
76131,Tarrant County,TX,50,NA
76133,Tarrant County,TX,NA,24
76273,Grayson County,TX,86.5814696485623,NA
76502,Bell County,TX,NA,14.000000000000002
76645,Hill County,TX,77.47603833865814,NA
76801,Brown County,TX,52.23642172523961,NA
77007,Harris County,TX,NA,71
77008,Harris County,TX,59.904153354632584,NA
77027,Harris County,TX,NA,76
77064,Harris County,TX,35.94249201277955,NA
77075,Harris County,TX,49.680511182108624,NA
77084,Harris County,TX,13.418530351437699,NA
77385,Montgomery County,TX,83.70607028753993,NA
77469,Fort Bend County,TX,NA,34.5
77498,Fort Bend County,TX,53.194888178913736,NA
77523,Chambers County,TX,55.75079872204473,NA
77531,Brazoria County,TX,68.69009584664538,NA
77536,Harris County,TX,37.69968051118211,NA
77563,Galveston County,TX,72.84345047923323,NA
77584,Brazoria County,TX,NA,21.5
77590,Galveston County,TX,14.217252396166133,NA
77651,Jefferson County,TX,86.4217252396166,NA
77656,Hardin County,TX,54.9520766773163,NA
77703,Jefferson County,TX,87.53993610223642,NA
77705,Jefferson County,TX,84.50479233226838,NA
77845,Brazos County,TX,NA,5.5
77964,Lavaca County,TX,NA,73
78073,Bexar County,TX,95.84664536741214,NA
78130,Comal County,TX,23.162939297124602,NA
78154,Guadalupe County,TX,73.00319488817891,NA
78163,Comal County,TX,NA,94
78202,Bexar County,TX,NA,91
78216,Bexar County,TX,NA,62.5
78237,Bexar County,TX,30.5111821086262,NA
78526,Cameron County,TX,68.84984025559106,NA
78586,Cameron County,TX,NA,46
78611,Burnet County,TX,77.63578274760383,NA
78660,Travis County,TX,NA,33
78745,Travis County,TX,58.626198083067095,NA
79323,Yoakum County,TX,91.3738019169329,NA
79403,Lubbock County,TX,50.638977635782744,NA
79912,El Paso County,TX,27.316293929712458,NA
84015,Davis County,UT,21.72523961661342,NA
84092,Salt Lake County,UT,85.62300319488818,NA
84106,Salt Lake County,UT,NA,52.5
20166,Loudoun County,VA,91.21405750798722,NA
20181,Prince William County,VA,96.00638977635782,NA
22030,Fairfax County,VA,61.50159744408946,NA
22191,Prince William County,VA,48.08306709265175,NA
22939,Augusta County,VA,90.09584664536742,NA
22942,Louisa County,VA,80.03194888178913,NA
23139,Powhatan County,VA,69.4888178913738,NA
23223,Henrico County,VA,19.009584664536742,NA
23225,Richmond city,VA,15.335463258785943,NA
23228,Henrico County,VA,49.36102236421725,NA
23231,Henrico County,VA,24.121405750798722,NA
23505,Norfolk city,VA,70.92651757188499,NA
23602,Newport News city,VA,29.87220447284345,NA
23606,Newport News city,VA,77.31629392971246,NA
23831,Chesterfield County,VA,NA,30.5
23860,Hopewell city,VA,NA,64.5
23924,Mecklenburg County,VA,NA,92.5
24112,Henry County,VA,93.13099041533548,NA
24153,Salem city,VA,NA,55.00000000000001
24540,Danville city,VA,28.434504792332266,NA
98029,King County,WA,60.22364217252396,NA
98102,King County,WA,72.04472843450479,NA
98105,King County,WA,80.19169329073482,NA
98155,King County,WA,73.80191693290735,NA
98223,Snohomish County,WA,73.3226837060703,NA
98226,Whatcom County,WA,65.49520766773162,NA
98275,Snohomish County,WA,NA,70.5
98337,Kitsap County,WA,92.01277955271566,NA
98367,Kitsap County,WA,NA,50
98445,Pierce County,WA,48.242811501597444,NA
98520,Grays Harbor County,WA,60.54313099041534,NA
98584,Mason County,WA,NA,56.00000000000001
98902,Yakima County,WA,28.913738019169326,NA
99037,Spokane County,WA,93.29073482428115,NA
99208,Spokane County,WA,38.17891373801917,NA
99223,Spokane County,WA,NA,85
99336,Benton County,WA,NA,2
99338,Benton County,WA,NA,31
20017,District of Columbia,DC,51.597444089456864,NA
20020,District of Columbia,DC,16.134185303514375,NA
20032,District of Columbia,DC,5.111821086261981,NA
25276,Roane County,WV,52.39616613418531,NA
25313,Kanawha County,WV,48.722044728434504,NA
25411,Morgan County,WV,75.07987220447284,NA
25504,Cabell County,WV,55.11182108626198,NA
25840,Fayette County,WV,91.3738019169329,NA
26034,Hancock County,WV,87.38019169329073,NA
26041,Marshall County,WV,NA,22
26261,Nicholas County,WV,NA,100
26554,Marion County,WV,3.993610223642172,NA
53208,Milwaukee County,WI,12.779552715654951,NA
53210,Milwaukee County,WI,8.146964856230031,NA
53212,Milwaukee County,WI,15.015974440894569,NA
53215,Milwaukee County,WI,4.63258785942492,NA
53219,Milwaukee County,WI,76.99680511182109,NA
53224,Milwaukee County,WI,36.26198083067093,NA
53511,Rock County,WI,7.667731629392971,NA
53536,Rock County,WI,99.20127795527156,NA
53566,Green County,WI,NA,55.50000000000001
54650,La Crosse County,WI,51.91693290734825,NA
54812,Barron County,WI,87.8594249201278,NA
54853,Polk County,WI,NA,82
54901,Winnebago County,WI,28.115015974440894,NA
54952,Winnebago County,WI,NA,38
54956,Winnebago County,WI,NA,32
82609,Natrona County,WY,NA,91.5
