ZipCode,county,state,Adult
35754,Morgan County,AL,85.45688545688546
36542,Baldwin County,AL,71.04247104247105
36695,Mobile County,AL,26.254826254826252
99503,Anchorage Municipality,AK,37.45173745173745
99517,Anchorage Municipality,AK,88.8030888030888
99664,Kenai Peninsula Borough,AK,98.06949806949807
85017,Maricopa County,AZ,24.517374517374517
85033,Maricopa County,AZ,11.583011583011583
85035,Maricopa County,AZ,11.904761904761903
85051,Maricopa County,AZ,10.231660231660232
85212,Maricopa County,AZ,48.00514800514801
85234,Maricopa County,AZ,55.98455598455598
85297,Maricopa County,AZ,52.831402831402826
85501,Gila County,AZ,65.83011583011583
85705,Pima County,AZ,41.891891891891895
85711,Pima County,AZ,6.177606177606178
85716,Pima County,AZ,77.09137709137708
85747,Pima County,AZ,84.04118404118404
85756,Pima County,AZ,27.220077220077222
85941,Apache County,AZ,9.266409266409266
86045,Coconino County,AZ,17.88931788931789
72110,Conway County,AR,74.25997425997426
72712,Benton County,AR,38.996138996138995
72730,Washington County,AR,93.37194337194336
72758,Benton County,AR,49.742599742599744
90008,Los Angeles County,CA,66.85971685971685
90015,Los Angeles County,CA,75.74002574002574
90018,Los Angeles County,CA,29.665379665379664
90024,Los Angeles County,CA,71.4929214929215
90033,Los Angeles County,CA,34.42728442728443
90043,Los Angeles County,CA,80.37323037323037
90046,Los Angeles County,CA,42.277992277992276
90069,Los Angeles County,CA,45.10939510939511
90221,Los Angeles County,CA,7.014157014157014
90247,Los Angeles County,CA,42.53539253539253
90250,Los Angeles County,CA,17.43886743886744
90255,Los Angeles County,CA,53.153153153153156
90292,Los Angeles County,CA,64.54311454311454
90604,Los Angeles County,CA,74.83912483912484
90631,Orange County,CA,27.348777348777347
90640,Los Angeles County,CA,26.962676962676962
90650,Los Angeles County,CA,40.54054054054054
90706,Los Angeles County,CA,17.824967824967825
90713,Los Angeles County,CA,58.55855855855856
90744,Los Angeles County,CA,49.42084942084942
90745,Los Angeles County,CA,30.759330759330762
90802,Los Angeles County,CA,41.44144144144144
90806,Los Angeles County,CA,74.38867438867439
90813,Los Angeles County,CA,95.94594594594594
91006,Los Angeles County,CA,91.44144144144144
91030,Los Angeles County,CA,97.74774774774775
91303,Los Angeles County,CA,94.78764478764478
91304,Los Angeles County,CA,92.92149292149293
91306,Los Angeles County,CA,62.483912483912484
91311,Los Angeles County,CA,46.58944658944659
91320,Ventura County,CA,94.5945945945946
91331,Los Angeles County,CA,31.78893178893179
91335,Los Angeles County,CA,54.18275418275418
91340,Los Angeles County,CA,54.5045045045045
91343,Los Angeles County,CA,97.36164736164736
91344,Los Angeles County,CA,95.81724581724582
91351,Los Angeles County,CA,54.761904761904766
91356,Los Angeles County,CA,71.94337194337194
91401,Los Angeles County,CA,92.34234234234235
91402,Los Angeles County,CA,77.7992277992278
91405,Los Angeles County,CA,35.006435006435005
91406,Los Angeles County,CA,93.43629343629344
91605,Los Angeles County,CA,81.4028314028314
91710,San Bernardino County,CA,28.957528957528954
91732,Los Angeles County,CA,32.94723294723295
91752,Riverside County,CA,43.050193050193045
91765,Los Angeles County,CA,81.72458172458172
91913,San Diego County,CA,85.64993564993564
91950,San Diego County,CA,28.50707850707851
91977,San Diego County,CA,58.62290862290862
92007,San Diego County,CA,85.84298584298584
92025,San Diego County,CA,38.86743886743887
92026,San Diego County,CA,73.61647361647363
92027,San Diego County,CA,37.77348777348777
92078,San Diego County,CA,44.272844272844274
92081,San Diego County,CA,61.84041184041183
92113,San Diego County,CA,64.99356499356499
92114,San Diego County,CA,24.45302445302445
92115,San Diego County,CA,24.066924066924066
92126,San Diego County,CA,80.24453024453024
92127,San Diego County,CA,58.36550836550837
92128,San Diego County,CA,91.18404118404119
92129,San Diego County,CA,48.39124839124839
92130,San Diego County,CA,54.69755469755469
92201,Riverside County,CA,64.6074646074646
92230,Riverside County,CA,98.97039897039896
92234,Riverside County,CA,10.038610038610038
92252,San Bernardino County,CA,65.63706563706563
92262,Riverside County,CA,15.250965250965251
92307,San Bernardino County,CA,50.965250965250966
92315,San Bernardino County,CA,90.86229086229086
92336,San Bernardino County,CA,47.03989703989704
92345,San Bernardino County,CA,59.395109395109394
92346,San Bernardino County,CA,50.19305019305019
92373,San Bernardino County,CA,60.102960102960104
92376,San Bernardino County,CA,44.5945945945946
92404,San Bernardino County,CA,39.83268983268983
92509,Riverside County,CA,16.53796653796654
92530,Riverside County,CA,27.09137709137709
92545,Riverside County,CA,33.46203346203346
92563,Riverside County,CA,56.30630630630631
92570,Riverside County,CA,33.33333333333333
92592,Riverside County,CA,51.41570141570142
92618,Orange County,CA,53.217503217503214
92620,Orange County,CA,79.66537966537966
92630,Orange County,CA,57.14285714285714
92646,Orange County,CA,18.661518661518663
92651,Orange County,CA,90.47619047619048
92694,Orange County,CA,47.42599742599742
92701,Orange County,CA,67.6962676962677
92703,Orange County,CA,30.630630630630627
92704,Orange County,CA,56.24195624195624
92705,Orange County,CA,63.06306306306306
92706,Orange County,CA,72.39382239382239
92780,Orange County,CA,60.424710424710426
92801,Orange County,CA,25.804375804375805
92804,Orange County,CA,9.90990990990991
92806,Orange County,CA,92.47104247104248
92879,Riverside County,CA,41.63449163449163
92880,Riverside County,CA,15.572715572715573
92882,Riverside County,CA,52.76705276705277
93230,Kings County,CA,13.127413127413126
93401,San Luis Obispo County,CA,47.42599742599742
93420,San Luis Obispo County,CA,58.75160875160875
93454,Santa Barbara County,CA,54.054054054054056
93458,Santa Barbara County,CA,10.48906048906049
93551,Los Angeles County,CA,72.97297297297297
93612,Fresno County,CA,35.585585585585584
93631,Fresno County,CA,64.86486486486487
93635,Merced County,CA,31.402831402831406
93637,Madera County,CA,71.2998712998713
93644,Madera County,CA,93.17889317889318
93722,Fresno County,CA,26.254826254826252
93725,Fresno County,CA,56.4993564993565
93726,Fresno County,CA,15.379665379665381
93727,Fresno County,CA,35.521235521235525
93905,Monterey County,CA,83.71943371943372
93907,Monterey County,CA,88.61003861003861
93930,Monterey County,CA,65.31531531531532
94010,San Mateo County,CA,42.277992277992276
94019,San Mateo County,CA,73.68082368082368
94028,San Mateo County,CA,98.51994851994851
94030,San Mateo County,CA,85.71428571428571
94062,San Mateo County,CA,46.91119691119691
94065,San Mateo County,CA,86.22908622908622
94066,San Mateo County,CA,65.63706563706563
94080,San Mateo County,CA,24.967824967824967
94102,San Francisco County,CA,5.469755469755469
94103,San Francisco County,CA,78.18532818532819
94107,San Francisco County,CA,86.8082368082368
94108,San Francisco County,CA,81.53153153153153
94109,San Francisco County,CA,51.60875160875161
94112,San Francisco County,CA,75.2895752895753
94116,San Francisco County,CA,90.15444015444015
94118,San Francisco County,CA,74.45302445302445
94121,San Francisco County,CA,62.226512226512234
94123,San Francisco County,CA,53.47490347490348
94124,San Francisco County,CA,65.44401544401545
94131,San Francisco County,CA,80.11583011583011
94133,San Francisco County,CA,66.92406692406692
94134,San Francisco County,CA,61.58301158301158
94303,San Mateo County,CA,83.91248391248392
94404,San Mateo County,CA,62.80566280566281
94501,Alameda County,CA,30.115830115830118
94538,Alameda County,CA,38.030888030888036
94541,Alameda County,CA,47.94079794079794
94553,Contra Costa County,CA,33.26898326898327
94572,Contra Costa County,CA,93.75804375804377
94577,Alameda County,CA,28.635778635778635
94601,Alameda County,CA,96.33204633204633
94602,Alameda County,CA,89.38223938223938
94603,Alameda County,CA,68.33976833976834
94607,Alameda County,CA,85.32818532818533
94612,Alameda County,CA,67.56756756756756
94621,Alameda County,CA,80.56628056628057
94710,Alameda County,CA,97.94079794079794
94901,Marin County,CA,85.26383526383526
94928,Sonoma County,CA,51.994851994852
94941,Marin County,CA,64.35006435006436
95012,Monterey County,CA,79.40797940797941
95062,Santa Cruz County,CA,86.03603603603604
95076,Santa Cruz County,CA,14.35006435006435
95131,Santa Clara County,CA,71.81467181467181
95210,San Joaquin County,CA,30.437580437580436
95301,Merced County,CA,37.12998712998713
95334,Merced County,CA,91.57014157014157
95341,Merced County,CA,48.39124839124839
95348,Merced County,CA,81.46718146718148
95356,Stanislaus County,CA,62.998712998713
95482,Mendocino County,CA,29.08622908622909
95608,Sacramento County,CA,31.209781209781212
95616,Yolo County,CA,87.9021879021879
95621,Sacramento County,CA,79.27927927927928
95624,Sacramento County,CA,88.03088803088804
95667,El Dorado County,CA,24.324324324324326
95691,Yolo County,CA,43.5006435006435
95842,Sacramento County,CA,36.615186615186616
96001,Shasta County,CA,14.993564993564993
96007,Shasta County,CA,82.36808236808237
80004,Jefferson County,CO,94.53024453024453
80010,Arapahoe County,CO,59.13770913770914
80012,Arapahoe County,CO,7.5933075933075935
80021,Jefferson County,CO,50.45045045045045
80027,Boulder County,CO,50.9009009009009
80205,Denver County,CO,9.137709137709138
80210,Denver County,CO,45.81724581724582
80226,Jefferson County,CO,39.96138996138996
80228,Jefferson County,CO,73.35907335907336
80234,Adams County,CO,98.32689832689833
80249,Denver County,CO,28.37837837837838
80538,Larimer County,CO,50.77220077220077
81212,Fremont County,CO,31.467181467181465
81507,Mesa County,CO,93.95109395109395
06010,Hartford County,CT,21.814671814671815
06040,Hartford County,CT,28.7001287001287
06051,Hartford County,CT,61.38996138996139
06062,Hartford County,CT,76.12612612612612
06066,Tolland County,CT,58.108108108108105
06067,Hartford County,CT,59.26640926640927
06070,Hartford County,CT,70.78507078507079
06074,Hartford County,CT,85.58558558558559
06082,Hartford County,CT,13.835263835263836
06106,Hartford County,CT,56.62805662805663
06108,Hartford County,CT,85.07078507078506
06109,Hartford County,CT,79.85842985842986
06111,Hartford County,CT,30.051480051480052
06112,Hartford County,CT,39.189189189189186
06114,Hartford County,CT,57.07850707850708
06260,Windham County,CT,23.35907335907336
06268,Tolland County,CT,96.71814671814671
06405,New Haven County,CT,32.75418275418275
06413,Middlesex County,CT,52.05920205920206
06437,New Haven County,CT,91.6988416988417
06447,Hartford County,CT,92.5997425997426
06450,New Haven County,CT,4.375804375804376
06451,New Haven County,CT,65.57271557271557
06460,New Haven County,CT,21.62162162162162
06469,Middlesex County,CT,99.42084942084942
06484,Fairfield County,CT,58.88030888030889
06489,Hartford County,CT,53.98970398970398
06492,New Haven County,CT,15.186615186615187
06511,New Haven County,CT,46.074646074646076
06512,New Haven County,CT,46.782496782496786
06513,New Haven County,CT,30.82368082368082
06516,New Haven County,CT,70.20592020592021
06517,New Haven County,CT,70.59202059202059
06518,New Haven County,CT,90.60489060489061
06519,New Haven County,CT,74.9034749034749
06605,Fairfield County,CT,25.933075933075934
06607,Fairfield County,CT,74.32432432432432
06705,New Haven County,CT,16.409266409266408
06708,New Haven County,CT,15.958815958815958
06786,Litchfield County,CT,74.77477477477478
06795,Litchfield County,CT,95.43114543114544
06801,Fairfield County,CT,84.1055341055341
06810,Fairfield County,CT,84.4916344916345
06851,Fairfield County,CT,49.29214929214929
06854,Fairfield County,CT,92.08494208494209
06896,Fairfield County,CT,99.16344916344917
06897,Fairfield County,CT,68.27541827541828
06902,Fairfield County,CT,15.122265122265121
19701,New Castle County,DE,20.205920205920204
19703,New Castle County,DE,50.06435006435006
19709,New Castle County,DE,61.711711711711715
19720,New Castle County,DE,25.675675675675674
19734,New Castle County,DE,69.17631917631918
19802,New Castle County,DE,10.746460746460746
19808,New Castle County,DE,46.2033462033462
19901,Kent County,DE,12.805662805662807
19968,Sussex County,DE,91.95624195624195
32055,Columbia County,FL,32.432432432432435
32118,Volusia County,FL,74.13127413127413
32164,Flagler County,FL,26.640926640926644
32208,Duval County,FL,0.7722007722007722
32209,Duval County,FL,2.8957528957528957
32301,Leon County,FL,55.98455598455598
32304,Leon County,FL,47.168597168597174
32536,Okaloosa County,FL,77.86357786357786
32605,Alachua County,FL,21.299871299871302
32607,Alachua County,FL,14.478764478764477
32724,Volusia County,FL,45.04504504504504
32805,Orange County,FL,25.225225225225223
33033,Miami-Dade County,FL,33.526383526383526
33068,Broward County,FL,36.03603603603604
33409,Palm Beach County,FL,56.75675675675676
33428,Palm Beach County,FL,28.12097812097812
33460,Palm Beach County,FL,37.06563706563706
33510,Hillsborough County,FL,85.77863577863579
33563,Hillsborough County,FL,39.25353925353925
33596,Hillsborough County,FL,92.53539253539253
33605,Hillsborough County,FL,46.3963963963964
33607,Hillsborough County,FL,42.21364221364222
33610,Hillsborough County,FL,10.167310167310168
33611,Hillsborough County,FL,62.226512226512234
33612,Hillsborough County,FL,7.4002574002573995
33613,Hillsborough County,FL,33.07593307593308
33617,Hillsborough County,FL,25.74002574002574
33619,Hillsborough County,FL,27.670527670527672
33626,Hillsborough County,FL,68.14671814671814
33711,Pinellas County,FL,46.33204633204633
33823,Polk County,FL,27.7992277992278
33825,Highlands County,FL,42.792792792792795
33953,Charlotte County,FL,92.5997425997426
34202,Manatee County,FL,58.68725868725869
34212,Manatee County,FL,72.39382239382239
34238,Sarasota County,FL,73.87387387387388
34286,Sarasota County,FL,48.26254826254826
34470,Marion County,FL,41.312741312741316
34607,Hernando County,FL,88.15958815958817
34787,Orange County,FL,18.146718146718147
34994,Martin County,FL,69.75546975546976
30034,DeKalb County,GA,22.586872586872587
30052,Walton County,GA,13.256113256113256
30125,Polk County,GA,29.407979407979408
30126,Cobb County,GA,34.74903474903475
30328,Fulton County,GA,57.5933075933076
30341,DeKalb County,GA,60.296010296010294
30567,Jackson County,GA,95.62419562419564
30666,Barrow County,GA,78.76447876447877
30741,Walker County,GA,14.543114543114545
31036,Pulaski County,GA,62.54826254826254
31510,Bacon County,GA,69.36936936936937
31601,Lowndes County,GA,18.597168597168597
31730,Mitchell County,GA,72.07207207207207
31904,Muscogee County,GA,23.680823680823682
31907,Muscogee County,GA,43.30759330759331
31909,Muscogee County,GA,30.952380952380953
96706,Honolulu County,HI,29.987129987129986
96707,Honolulu County,HI,59.009009009009006
96738,Hawaii County,HI,97.49034749034749
96792,Honolulu County,HI,8.622908622908623
96797,Honolulu County,HI,24.83912483912484
96817,Honolulu County,HI,8.365508365508365
96825,Honolulu County,HI,44.14414414414414
83328,Twin Falls County,ID,92.02059202059202
83338,Jerome County,ID,45.75289575289575
83616,Ada County,ID,40.476190476190474
83651,Canyon County,ID,12.741312741312742
83835,Kootenai County,ID,47.10424710424711
60004,Cook County,IL,48.97039897039897
60007,Cook County,IL,84.74903474903475
60010,Lake County,IL,61.84041184041183
60013,McHenry County,IL,47.81209781209782
60014,McHenry County,IL,17.56756756756757
60016,Cook County,IL,89.31788931788932
60030,Lake County,IL,94.72329472329473
60035,Lake County,IL,35.84298584298584
60048,Lake County,IL,42.857142857142854
60053,Cook County,IL,98.13384813384813
60056,Cook County,IL,30.694980694980696
60060,Lake County,IL,39.510939510939515
60062,Cook County,IL,61.969111969111964
60068,Cook County,IL,31.724581724581725
60073,Lake County,IL,87.7091377091377
60085,Lake County,IL,40.66924066924067
60087,Lake County,IL,90.28314028314028
60089,Lake County,IL,77.47747747747748
60091,Cook County,IL,61.64736164736164
60104,Cook County,IL,31.78893178893179
60136,Kane County,IL,99.03474903474904
60181,DuPage County,IL,53.861003861003866
60201,Cook County,IL,35.26383526383526
60202,Cook County,IL,87.51608751608751
60402,Cook County,IL,8.172458172458171
60411,Cook County,IL,9.266409266409266
60426,Cook County,IL,74.00257400257401
60430,Cook County,IL,55.72715572715573
60440,Will County,IL,61.196911196911195
60446,Will County,IL,36.55083655083655
60451,Will County,IL,14.671814671814673
60453,Cook County,IL,9.974259974259974
60467,Cook County,IL,41.57014157014157
60490,Will County,IL,51.0939510939511
60503,Will County,IL,96.5894465894466
60515,DuPage County,IL,31.917631917631915
60517,DuPage County,IL,31.016731016731015
60526,Cook County,IL,86.48648648648648
60585,Will County,IL,46.13899613899614
60605,Cook County,IL,49.935649935649934
60613,Cook County,IL,20.785070785070786
60614,Cook County,IL,15.701415701415703
60622,Cook County,IL,60.55341055341056
60625,Cook County,IL,48.71299871299871
60626,Cook County,IL,60.36036036036037
60631,Cook County,IL,55.01930501930502
60639,Cook County,IL,6.563706563706563
60645,Cook County,IL,90.21879021879022
60646,Cook County,IL,82.62548262548263
60647,Cook County,IL,23.552123552123554
60659,Cook County,IL,38.54568854568854
60660,Cook County,IL,67.76061776061776
61021,Lee County,IL,24.38867438867439
61073,Winnebago County,IL,55.72715572715573
61348,LaSalle County,IL,94.33719433719435
61350,LaSalle County,IL,40.15444015444015
46142,Johnson County,IN,64.92921492921494
46143,Johnson County,IN,16.795366795366796
46208,Marion County,IN,73.4877734877735
46218,Marion County,IN,27.927927927927925
46219,Marion County,IN,8.558558558558559
46268,Marion County,IN,36.1003861003861
46368,Porter County,IN,1.673101673101673
46544,St. Joseph County,IN,39.12483912483912
46628,St. Joseph County,IN,40.73359073359074
46703,Steuben County,IN,42.471042471042466
46714,Wells County,IN,48.77734877734878
46732,Noble County,IN,96.26769626769627
47304,Delaware County,IN,71.23552123552123
47501,Daviess County,IN,60.489060489060485
47546,Dubois County,IN,83.97683397683397
47586,Perry County,IN,59.523809523809526
47620,Posey County,IN,61.77606177606177
47710,Vanderburgh County,IN,90.09009009009009
47711,Vanderburgh County,IN,20.91377091377091
47725,Vanderburgh County,IN,95.75289575289575
47906,Tippecanoe County,IN,46.2033462033462
47918,Fountain County,IN,92.21364221364222
50021,Polk County,IA,65.83011583011583
50035,Polk County,IA,96.91119691119691
50131,Polk County,IA,70.39897039897039
51501,Pottawattamie County,IA,41.05534105534105
52601,Des Moines County,IA,8.944658944658945
52742,Clinton County,IA,80.56628056628057
52761,Muscatine County,IA,8.043758043758045
52804,Scott County,IA,38.288288288288285
66002,Atchison County,KS,67.11711711711712
66046,Douglas County,KS,76.8983268983269
66062,Johnson County,KS,29.343629343629345
66208,Johnson County,KS,76.5122265122265
40324,Scott County,KY,33.71943371943372
40456,Rockcastle County,KY,64.67181467181467
40515,Fayette County,KY,40.92664092664093
40744,Laurel County,KY,22.00772200772201
41005,Boone County,KY,51.15830115830116
41007,Campbell County,KY,98.39124839124838
41017,Kenton County,KY,23.873873873873876
41018,Kenton County,KY,18.01801801801802
41040,Pendleton County,KY,57.85070785070785
41042,Boone County,KY,4.1827541827541825
41048,Boone County,KY,75.03217503217503
41071,Campbell County,KY,19.81981981981982
41094,Boone County,KY,87.96653796653797
41230,Lawrence County,KY,83.14028314028315
41501,Pike County,KY,77.47747747747748
42240,Christian County,KY,4.761904761904762
42431,Hopkins County,KY,46.52509652509653
42501,Pulaski County,KY,88.86743886743886
70005,Jefferson Parish,LA,26.126126126126124
70053,Jefferson Parish,LA,90.41184041184042
70065,Jefferson Parish,LA,86.42213642213642
70094,Jefferson Parish,LA,3.474903474903475
70112,Orleans Parish,LA,78.44272844272844
70119,Orleans Parish,LA,3.153153153153153
70122,Orleans Parish,LA,65.12226512226512
70346,Ascension Parish,LA,37.9021879021879
70452,St. Tammany Parish,LA,43.82239382239382
70454,Tangipahoa Parish,LA,65.95881595881596
70563,Iberia Parish,LA,29.27927927927928
70584,St. Landry Parish,LA,57.65765765765766
70726,Livingston Parish,LA,1.0296010296010296
70764,Iberville Parish,LA,26.126126126126124
70769,Ascension Parish,LA,46.975546975546976
70785,Livingston Parish,LA,40.21879021879022
70805,East Baton Rouge Parish,LA,1.8018018018018018
70812,East Baton Rouge Parish,LA,51.15830115830116
70815,East Baton Rouge Parish,LA,11.196911196911197
71104,Caddo Parish,LA,34.942084942084946
71111,Bossier Parish,LA,3.6036036036036037
71241,Union Parish,LA,75.41827541827541
03903,York County,ME,76.44787644787645
04072,York County,ME,84.55598455598455
04102,Cumberland County,ME,26.898326898326896
04107,Cumberland County,ME,91.37709137709138
04268,Oxford County,ME,73.42342342342343
04345,Kennebec County,ME,36.293436293436294
04364,Kennebec County,ME,47.87644787644788
04730,Aroostook County,ME,48.1981981981982
04950,Somerset County,ME,65.63706563706563
20695,Charles County,MD,92.27799227799228
20747,Prince George's County,MD,37.323037323037326
20770,Prince George's County,MD,68.53281853281852
20772,Prince George's County,MD,39.38223938223938
20785,Prince George's County,MD,45.366795366795365
20854,Montgomery County,MD,54.054054054054056
20902,Montgomery County,MD,58.815958815958815
20912,Montgomery County,MD,91.76319176319177
21014,Harford County,MD,92.85714285714286
21015,Harford County,MD,90.7979407979408
21044,Howard County,MD,82.43243243243244
21045,Howard County,MD,82.1106821106821
21047,Harford County,MD,76.5122265122265
21048,Carroll County,MD,87.77348777348777
21061,Anne Arundel County,MD,90.02574002574003
21075,Howard County,MD,57.52895752895753
21108,Anne Arundel County,MD,80.95238095238095
21114,Anne Arundel County,MD,80.43758043758044
21133,Baltimore County,MD,76.38352638352637
21140,Anne Arundel County,MD,99.22779922779922
21144,Anne Arundel County,MD,48.06949806949807
21209,Baltimore County,MD,79.60102960102961
21213,Baltimore city,MD,14.157014157014158
21214,Baltimore city,MD,50.32175032175032
21229,Baltimore city,MD,69.94851994851994
21230,Baltimore city,MD,87.64478764478764
21401,Anne Arundel County,MD,18.33976833976834
21738,Howard County,MD,99.35649935649936
21774,Frederick County,MD,92.7927927927928
21776,Carroll County,MD,94.5945945945946
21784,Carroll County,MD,73.03732303732303
21787,Carroll County,MD,88.73873873873875
21853,Somerset County,MD,95.36679536679536
01001,Hampden County,MA,19.69111969111969
01027,Hampshire County,MA,8.236808236808237
01028,Hampden County,MA,66.08751608751608
01085,Hampden County,MA,0.9652509652509652
01089,Hampden County,MA,2.7027027027027026
01104,Hampden County,MA,80.5019305019305
01105,Hampden County,MA,12.676962676962678
01151,Hampden County,MA,19.755469755469758
01201,Berkshire County,MA,25.611325611325615
01220,Berkshire County,MA,15.894465894465895
01301,Franklin County,MA,7.786357786357787
01451,Worcester County,MA,93.69369369369369
01520,Worcester County,MA,34.105534105534105
01604,Worcester County,MA,12.483912483912484
01610,Worcester County,MA,0.2574002574002574
01701,Middlesex County,MA,29.214929214929214
01752,Middlesex County,MA,40.99099099099099
01757,Worcester County,MA,10.553410553410554
01776,Middlesex County,MA,33.84813384813385
01778,Middlesex County,MA,71.68597168597168
01801,Middlesex County,MA,0.7078507078507079
01821,Middlesex County,MA,17.117117117117118
01824,Middlesex County,MA,6.435006435006435
01832,Essex County,MA,1.9948519948519947
01841,Essex County,MA,70.46332046332047
01843,Essex County,MA,76.31917631917632
01844,Essex County,MA,14.736164736164737
01851,Middlesex County,MA,10.36036036036036
01867,Middlesex County,MA,20.334620334620336
01876,Middlesex County,MA,5.083655083655084
01886,Middlesex County,MA,46.71814671814672
01887,Middlesex County,MA,4.89060489060489
01890,Middlesex County,MA,35.199485199485196
01906,Essex County,MA,1.7374517374517375
01907,Essex County,MA,43.24324324324324
01913,Essex County,MA,48.97039897039897
01915,Essex County,MA,1.093951093951094
01938,Essex County,MA,37.70913770913771
01940,Essex County,MA,52.702702702702695
02026,Norfolk County,MA,16.344916344916342
02038,Norfolk County,MA,9.395109395109396
02043,Plymouth County,MA,29.601029601029598
02072,Norfolk County,MA,5.984555984555985
02081,Norfolk County,MA,15.508365508365507
02118,Suffolk County,MA,0.1287001287001287
02119,Suffolk County,MA,0.06435006435006435
02121,Suffolk County,MA,36.87258687258687
02124,Suffolk County,MA,3.5392535392535396
02128,Suffolk County,MA,7.271557271557272
02129,Suffolk County,MA,2.1235521235521233
02139,Middlesex County,MA,1.6087516087516087
02143,Middlesex County,MA,4.054054054054054
02144,Middlesex County,MA,43.371943371943374
02145,Middlesex County,MA,3.0244530244530243
02148,Middlesex County,MA,0
02155,Middlesex County,MA,13.063063063063062
02180,Middlesex County,MA,32.496782496782494
02184,Norfolk County,MA,18.661518661518663
02186,Norfolk County,MA,9.78120978120978
02301,Plymouth County,MA,47.68339768339768
02302,Plymouth County,MA,5.727155727155727
02332,Plymouth County,MA,63.191763191763194
02333,Plymouth County,MA,23.809523809523807
02341,Plymouth County,MA,32.625482625482626
02343,Norfolk County,MA,75.86872586872587
02346,Plymouth County,MA,7.207207207207207
02359,Plymouth County,MA,21.943371943371943
02360,Plymouth County,MA,21.492921492921493
02446,Norfolk County,MA,14.221364221364222
02478,Middlesex County,MA,81.20978120978121
02482,Norfolk County,MA,64.28571428571429
02601,Barnstable County,MA,15.637065637065636
02632,Barnstable County,MA,40.41184041184041
02645,Barnstable County,MA,56.43500643500643
02649,Barnstable County,MA,60.55341055341056
02703,Bristol County,MA,12.998712998713
02767,Bristol County,MA,65.37966537966537
02780,Bristol County,MA,2.187902187902188
48009,Oakland County,MI,42.599742599742605
48015,Macomb County,MI,74.64607464607465
48042,Macomb County,MI,62.419562419562425
48043,Macomb County,MI,24.25997425997426
48044,Macomb County,MI,64.0926640926641
48047,Macomb County,MI,9.652509652509652
48060,St. Clair County,MI,1.8661518661518661
48064,St. Clair County,MI,94.07979407979408
48066,Macomb County,MI,13.384813384813384
48067,Oakland County,MI,28.37837837837838
48073,Oakland County,MI,21.75032175032175
48081,Macomb County,MI,61.45431145431145
48088,Macomb County,MI,87.25868725868726
48091,Macomb County,MI,78.57142857142857
48092,Macomb County,MI,22.45817245817246
48108,Washtenaw County,MI,29.72972972972973
48111,Wayne County,MI,5.019305019305019
48125,Wayne County,MI,16.15186615186615
48133,Monroe County,MI,88.09523809523809
48137,Livingston County,MI,99.54954954954955
48152,Wayne County,MI,25.03217503217503
48160,Washtenaw County,MI,62.80566280566281
48161,Monroe County,MI,53.66795366795367
48166,Monroe County,MI,63.899613899613904
48170,Wayne County,MI,9.716859716859718
48174,Wayne County,MI,22.265122265122265
48180,Wayne County,MI,67.63191763191763
48188,Wayne County,MI,9.202059202059203
48198,Washtenaw County,MI,10.939510939510939
48209,Wayne County,MI,16.602316602316602
48210,Wayne County,MI,18.21106821106821
48212,Wayne County,MI,59.009009009009006
48213,Wayne County,MI,29.858429858429858
48219,Wayne County,MI,47.554697554697555
48221,Wayne County,MI,3.7323037323037322
48237,Oakland County,MI,43.69369369369369
48239,Wayne County,MI,5.8558558558558556
48307,Oakland County,MI,13.191763191763192
48313,Macomb County,MI,19.626769626769626
48314,Macomb County,MI,33.33333333333333
48315,Macomb County,MI,31.467181467181465
48323,Oakland County,MI,45.173745173745175
48324,Oakland County,MI,50.12870012870013
48327,Oakland County,MI,55.534105534105535
48329,Oakland County,MI,25.28957528957529
48340,Oakland County,MI,83.46203346203346
48341,Oakland County,MI,22.393822393822393
48342,Oakland County,MI,35.907335907335906
48346,Oakland County,MI,60.87516087516087
48359,Oakland County,MI,54.24710424710425
48371,Oakland County,MI,29.02187902187902
48377,Oakland County,MI,55.5984555984556
48383,Oakland County,MI,61.003861003861005
48433,Genesee County,MI,43.62934362934363
48462,Oakland County,MI,69.04761904761905
48867,Shiawassee County,MI,21.879021879021877
48893,Isabella County,MI,91.11969111969111
48910,Ingham County,MI,62.16216216216216
48917,Eaton County,MI,6.241956241956242
49022,Berrien County,MI,6.756756756756757
49201,Jackson County,MI,6.113256113256113
49221,Lenawee County,MI,2.5096525096525095
49329,Montcalm County,MI,48.13384813384813
49412,Newaygo County,MI,80.8880308880309
49445,Muskegon County,MI,28.314028314028317
49464,Ottawa County,MI,71.17117117117117
49503,Kent County,MI,7.335907335907336
49685,Grand Traverse County,MI,71.62162162162163
55006,Isanti County,MN,99.87129987129987
55008,Isanti County,MN,62.74131274131274
55046,Rice County,MN,97.55469755469755
55077,Dakota County,MN,85.3925353925354
55102,Ramsey County,MN,22.00772200772201
55104,Ramsey County,MN,10.81081081081081
55106,Ramsey County,MN,21.17117117117117
55107,Ramsey County,MN,63.64221364221364
55304,Anoka County,MN,31.595881595881597
55306,Dakota County,MN,92.92149292149293
55321,Wright County,MN,95.10939510939511
55369,Hennepin County,MN,26.833976833976834
55378,Scott County,MN,46.3963963963964
55407,Hennepin County,MN,20.077220077220076
55413,Hennepin County,MN,64.15701415701416
55432,Anoka County,MN,46.846846846846844
55433,Anoka County,MN,27.863577863577866
55443,Hennepin County,MN,70.91377091377092
55449,Anoka County,MN,70.72072072072072
55805,St. Louis County,MN,66.21621621621621
56003,Nicollet County,MN,95.68854568854569
56081,Watonwan County,MN,73.74517374517374
56377,Stearns County,MN,96.65379665379665
56378,Stearns County,MN,89.8970398970399
56537,Otter Tail County,MN,40.86229086229086
56560,Clay County,MN,20.84942084942085
38824,Prentiss County,MS,85.84298584298584
39040,Yazoo County,MS,99.93564993564993
39042,Rankin County,MS,26.061776061776058
39074,Scott County,MS,61.32561132561133
39110,Madison County,MS,90.73359073359073
39175,Hinds County,MS,99.29214929214929
39183,Warren County,MS,79.79407979407979
39194,Yazoo County,MS,70.84942084942085
39202,Hinds County,MS,98.45559845559846
39204,Hinds County,MS,81.01673101673101
39211,Hinds County,MS,55.148005148005154
39212,Hinds County,MS,96.13899613899613
39213,Hinds County,MS,93.11454311454311
39429,Marion County,MS,56.821106821106824
39503,Harrison County,MS,7.078507078507079
39648,Pike County,MS,14.607464607464607
39654,Lawrence County,MS,89.7039897039897
39730,Monroe County,MS,88.28828828828829
63043,St. Louis County,MO,43.758043758043755
63118,St. Louis city,MO,71.75032175032176
63137,St. Louis County,MO,29.922779922779924
63138,St. Louis County,MO,42.14929214929215
63304,St. Charles County,MO,85.19948519948521
63383,Warren County,MO,44.78764478764479
63385,St. Charles County,MO,11.583011583011583
63701,Cape Girardeau County,MO,30.501930501930502
63834,Mississippi County,MO,79.34362934362935
64014,Jackson County,MO,14.929214929214929
64030,Jackson County,MO,12.934362934362934
64064,Jackson County,MO,71.55727155727156
64080,Cass County,MO,79.40797940797941
64083,Cass County,MO,83.26898326898326
64093,Johnson County,MO,27.47747747747748
64111,Jackson County,MO,66.28056628056628
64114,Jackson County,MO,27.99227799227799
64118,Clay County,MO,3.7966537966537968
64123,Jackson County,MO,64.80051480051479
64138,Jackson County,MO,7.850707850707852
64152,Platte County,MO,14.414414414414415
64156,Clay County,MO,77.67052767052766
64157,Clay County,MO,25.482625482625483
64850,Newton County,MO,11.389961389961389
65401,Phelps County,MO,29.472329472329474
65453,Crawford County,MO,76.8983268983269
65807,Greene County,MO,50.51480051480052
59401,Cascade County,MT,74.00257400257401
68105,Douglas County,NE,59.202059202059196
68132,Douglas County,NE,66.92406692406692
89149,Clark County,NV,53.925353925353924
89178,Clark County,NV,63.32046332046332
03051,Hillsborough County,NH,16.216216216216218
03053,Rockingham County,NH,19.948519948519948
03062,Hillsborough County,NH,13.449163449163448
03104,Hillsborough County,NH,34.16988416988417
03431,Cheshire County,NH,21.62162162162162
03766,Grafton County,NH,68.53281853281852
03801,Rockingham County,NH,41.82754182754182
03833,Rockingham County,NH,30.244530244530242
07001,Middlesex County,NJ,56.4993564993565
07002,Hudson County,NJ,16.666666666666664
07010,Bergen County,NJ,68.85456885456885
07011,Passaic County,NJ,40.54054054054054
07026,Bergen County,NJ,10.875160875160875
07040,Essex County,NJ,68.91891891891892
07045,Morris County,NJ,60.74646074646075
07047,Hudson County,NJ,3.41055341055341
07055,Passaic County,NJ,82.56113256113257
07070,Bergen County,NJ,59.84555984555985
07087,Hudson County,NJ,26.76962676962677
07090,Union County,NJ,99.67824967824967
07093,Hudson County,NJ,61.261261261261254
07103,Essex County,NJ,89.12483912483913
07107,Essex County,NJ,0.8365508365508365
07108,Essex County,NJ,1.1583011583011582
07111,Essex County,NJ,73.55212355212355
07202,Union County,NJ,4.697554697554698
07208,Union County,NJ,9.588159588159588
07307,Hudson County,NJ,7.4646074646074645
07436,Bergen County,NJ,87.32303732303733
07461,Sussex County,NJ,31.08108108108108
07470,Passaic County,NJ,11.711711711711711
07501,Passaic County,NJ,64.15701415701416
07502,Passaic County,NJ,74.5173745173745
07504,Passaic County,NJ,91.05534105534106
07522,Passaic County,NJ,16.85971685971686
07601,Bergen County,NJ,4.504504504504505
07607,Bergen County,NJ,67.82496782496783
07644,Bergen County,NJ,62.03346203346203
07663,Bergen County,NJ,50.257400257400256
07701,Monmouth County,NJ,67.31016731016732
07740,Monmouth County,NJ,39.768339768339764
07751,Monmouth County,NJ,57.4002574002574
07840,Warren County,NJ,57.27155727155727
07850,Morris County,NJ,88.41698841698842
07860,Sussex County,NJ,76.83397683397683
07863,Warren County,NJ,100
07876,Morris County,NJ,95.04504504504504
07930,Morris County,NJ,94.98069498069498
07950,Morris County,NJ,52.509652509652504
07960,Morris County,NJ,13.706563706563706
08002,Camden County,NJ,62.0978120978121
08003,Camden County,NJ,18.91891891891892
08007,Camden County,NJ,97.61904761904762
08009,Camden County,NJ,87.12998712998713
08010,Burlington County,NJ,83.07593307593308
08012,Camden County,NJ,4.247104247104247
08015,Burlington County,NJ,36.67953667953668
08021,Camden County,NJ,6.628056628056628
08033,Camden County,NJ,81.5958815958816
08037,Atlantic County,NJ,11.325611325611327
08054,Burlington County,NJ,86.10038610038609
08055,Burlington County,NJ,58.04375804375804
08060,Burlington County,NJ,11.003861003861005
08062,Gloucester County,NJ,59.781209781209775
08066,Gloucester County,NJ,78.24967824967824
08070,Salem County,NJ,39.44658944658945
08079,Salem County,NJ,64.73616473616474
08080,Gloucester County,NJ,49.0990990990991
08081,Camden County,NJ,7.979407979407979
08085,Gloucester County,NJ,47.2972972972973
08087,Ocean County,NJ,13.320463320463322
08096,Gloucester County,NJ,16.28056628056628
08108,Camden County,NJ,93.82239382239382
08109,Camden County,NJ,14.285714285714285
08204,Cape May County,NJ,44.01544401544402
08205,Atlantic County,NJ,38.35263835263835
08210,Cape May County,NJ,29.53667953667954
08215,Atlantic County,NJ,27.99227799227799
08225,Atlantic County,NJ,72.00772200772201
08226,Cape May County,NJ,49.163449163449165
08232,Atlantic County,NJ,35.77863577863578
08234,Atlantic County,NJ,43.95109395109395
08251,Cape May County,NJ,41.95624195624196
08302,Cumberland County,NJ,38.61003861003861
08318,Salem County,NJ,94.4015444015444
08330,Atlantic County,NJ,51.48005148005148
08332,Cumberland County,NJ,52.123552123552116
08360,Cumberland County,NJ,39.897039897039896
08401,Atlantic County,NJ,7.142857142857142
08402,Atlantic County,NJ,84.94208494208493
08520,Mercer County,NJ,71.36422136422136
08525,Mercer County,NJ,97.68339768339769
08610,Mercer County,NJ,22.779922779922778
08618,Mercer County,NJ,12.612612612612612
08619,Mercer County,NJ,39.25353925353925
08690,Mercer County,NJ,79.15057915057915
08691,Mercer County,NJ,93.30759330759331
08701,Ocean County,NJ,57.20720720720721
08753,Ocean County,NJ,78.12097812097812
08759,Ocean County,NJ,28.893178893178895
08807,Somerset County,NJ,22.2007722007722
08816,Middlesex County,NJ,58.301158301158296
08817,Middlesex County,NJ,44.72329472329472
08837,Middlesex County,NJ,91.5057915057915
08844,Somerset County,NJ,31.595881595881597
08846,Middlesex County,NJ,59.84555984555985
08857,Middlesex County,NJ,5.405405405405405
08859,Middlesex County,NJ,94.91634491634493
08869,Somerset County,NJ,94.46589446589446
08873,Somerset County,NJ,87.1943371943372
08876,Somerset County,NJ,59.45945945945946
08901,Middlesex County,NJ,57.27155727155727
87002,Valencia County,NM,70.07722007722008
87031,Valencia County,NM,21.042471042471043
87105,Bernalillo County,NM,14.800514800514799
87107,Bernalillo County,NM,24.774774774774773
87111,Bernalillo County,NM,2.2522522522522523
87121,Bernalillo County,NM,15.315315315315313
87123,Bernalillo County,NM,9.00900900900901
87401,San Juan County,NM,12.226512226512225
87544,Los Alamos County,NM,52.57400257400258
88005,Doa Ana County,NM,64.35006435006436
88081,Otero County,NM,70.33462033462034
88231,Lea County,NM,84.94208494208493
88240,Lea County,NM,36.74388674388675
88242,Lea County,NM,68.4041184041184
88310,Otero County,NM,16.988416988416986
10002,New York County,NY,2.3166023166023164
10009,New York County,NY,66.15186615186616
10023,New York County,NY,39.703989703989706
10025,New York County,NY,19.176319176319176
10026,New York County,NY,48.51994851994852
10029,New York County,NY,3.346203346203346
10030,New York County,NY,16.08751608751609
10031,New York County,NY,5.7915057915057915
10035,New York County,NY,18.53281853281853
10037,New York County,NY,30.115830115830118
10039,New York County,NY,23.037323037323038
10304,Richmond County,NY,34.55598455598455
10306,Richmond County,NY,14.028314028314028
10309,Richmond County,NY,49.356499356499356
10312,Richmond County,NY,34.04118404118404
10452,Bronx County,NY,0.3861003861003861
10455,Bronx County,NY,44.53024453024453
10456,Bronx County,NY,0.19305019305019305
10457,Bronx County,NY,0.32175032175032175
10458,Bronx County,NY,15.765765765765765
10459,Bronx County,NY,3.2818532818532815
10463,Bronx County,NY,5.212355212355212
10466,Bronx County,NY,2.8314028314028317
10467,Bronx County,NY,16.85971685971686
10472,Bronx County,NY,1.2226512226512225
10473,Bronx County,NY,31.338481338481337
10475,Bronx County,NY,17.63191763191763
10549,Westchester County,NY,88.93178893178893
10573,Westchester County,NY,82.4967824967825
10580,Westchester County,NY,93.88674388674389
10591,Westchester County,NY,55.21235521235521
10603,Westchester County,NY,86.61518661518662
10701,Westchester County,NY,0.9009009009009009
10704,Westchester County,NY,60.16731016731016
10901,Rockland County,NY,93.05019305019306
11103,Queens County,NY,84.81338481338481
11105,Queens County,NY,50
11106,Queens County,NY,42.02059202059202
11204,Kings County,NY,51.737451737451735
11205,Kings County,NY,8.687258687258687
11206,Kings County,NY,11.132561132561133
11207,Kings County,NY,25.54697554697555
11208,Kings County,NY,64.02831402831403
11211,Kings County,NY,65.05791505791507
11212,Kings County,NY,13.513513513513514
11218,Kings County,NY,56.88545688545689
11219,Kings County,NY,72.77992277992279
11228,Kings County,NY,78.31402831402832
11231,Kings County,NY,32.239382239382245
11234,Kings County,NY,42.857142857142854
11249,Kings County,NY,81.27413127413128
11365,Queens County,NY,69.4980694980695
11369,Queens County,NY,73.93822393822393
11372,Queens County,NY,22.651222651222653
11377,Queens County,NY,12.290862290862291
11416,Queens County,NY,90.66924066924066
11418,Queens County,NY,93.62934362934364
11420,Queens County,NY,37.9021879021879
11421,Queens County,NY,25.418275418275414
11422,Queens County,NY,82.81853281853282
11428,Queens County,NY,88.996138996139
11432,Queens County,NY,76.7052767052767
11433,Queens County,NY,66.66666666666666
11434,Queens County,NY,53.410553410553405
11436,Queens County,NY,59.716859716859716
11701,Suffolk County,NY,83.52638352638353
11713,Suffolk County,NY,78.82882882882883
11746,Suffolk County,NY,41.11969111969112
11798,Suffolk County,NY,70.52767052767052
12180,Rensselaer County,NY,10.102960102960102
12188,Saratoga County,NY,89.25353925353924
12203,Albany County,NY,29.794079794079792
12553,Orange County,NY,66.34491634491636
12572,Dutchess County,NY,91.31274131274131
12601,Dutchess County,NY,21.428571428571427
12789,Sullivan County,NY,99.61389961389962
12804,Warren County,NY,5.662805662805663
13031,Onondaga County,NY,34.36293436293436
13148,Seneca County,NY,17.245817245817246
13152,Onondaga County,NY,32.36808236808237
13207,Onondaga County,NY,23.037323037323038
13224,Onondaga County,NY,37.77348777348777
13316,Oneida County,NY,53.79665379665379
13357,Herkimer County,NY,27.734877734877735
13460,Chenango County,NY,40.7979407979408
13601,Jefferson County,NY,2.767052767052767
13838,Delaware County,NY,82.68983268983268
14006,Erie County,NY,81.85328185328186
14031,Erie County,NY,76.06177606177607
14043,Erie County,NY,24.903474903474905
14103,Orleans County,NY,35.006435006435005
14213,Erie County,NY,59.33075933075933
14217,Erie County,NY,82.94723294723295
14221,Erie County,NY,30.566280566280568
14224,Erie County,NY,17.953667953667953
14304,Niagara County,NY,2.9601029601029603
14425,Ontario County,NY,12.355212355212355
14437,Livingston County,NY,34.62033462033462
14456,Ontario County,NY,22.52252252252252
14464,Monroe County,NY,71.36422136422136
14469,Ontario County,NY,78.37837837837837
14482,Genesee County,NY,41.6988416988417
14519,Wayne County,NY,45.881595881595885
14526,Monroe County,NY,54.826254826254825
14527,Yates County,NY,19.56241956241956
14534,Monroe County,NY,4.826254826254826
14543,Monroe County,NY,99.09909909909909
14564,Ontario County,NY,14.092664092664092
14580,Monroe County,NY,30.373230373230374
14586,Monroe County,NY,24.646074646074645
14606,Monroe County,NY,48.58429858429859
14608,Monroe County,NY,78.63577863577864
14609,Monroe County,NY,9.073359073359073
14610,Monroe County,NY,52.8957528957529
14612,Monroe County,NY,9.845559845559846
14613,Monroe County,NY,7.915057915057915
14615,Monroe County,NY,76.25482625482626
14618,Monroe County,NY,11.840411840411841
14620,Monroe County,NY,19.24066924066924
14621,Monroe County,NY,4.1184041184041185
14622,Monroe County,NY,63.83526383526383
14624,Monroe County,NY,11.518661518661519
14843,Steuben County,NY,15.057915057915059
27045,Forsyth County,NC,90.990990990991
27103,Forsyth County,NC,10.617760617760617
27127,Forsyth County,NC,35.26383526383526
27203,Randolph County,NC,19.498069498069498
27217,Alamance County,NC,63.77091377091377
27263,Randolph County,NC,34.74903474903475
27265,Guilford County,NC,42.72844272844273
27284,Forsyth County,NC,4.954954954954955
27301,Guilford County,NC,83.84813384813384
27349,Alamance County,NC,72.32947232947234
27501,Harnett County,NC,42.857142857142854
27502,Wake County,NC,50.83655083655083
27516,Orange County,NC,85.52123552123551
27522,Granville County,NC,68.53281853281852
27565,Granville County,NC,88.48133848133848
27589,Warren County,NC,85.97168597168597
27596,Franklin County,NC,54.95495495495496
27607,Wake County,NC,79.72972972972973
27616,Wake County,NC,44.20849420849421
27712,Durham County,NC,84.36293436293437
27713,Durham County,NC,47.74774774774775
28208,Mecklenburg County,NC,26.512226512226512
28269,Mecklenburg County,NC,52.445302445302445
28306,Bladen County,NC,24.066924066924066
28311,Cumberland County,NC,17.503217503217503
28314,Cumberland County,NC,22.844272844272844
28328,Sampson County,NC,27.413127413127413
28337,Bladen County,NC,58.36550836550837
28360,Robeson County,NC,70.01287001287001
28401,New Hanover County,NC,28.50707850707851
28409,New Hanover County,NC,30.888030888030887
28546,Onslow County,NC,18.33976833976834
28602,Catawba County,NC,72.90862290862292
28612,Burke County,NC,88.996138996139
28787,Buncombe County,NC,81.66023166023166
58075,Richland County,ND,97.23294723294723
58504,Burleigh County,ND,89.57528957528957
58601,Stark County,ND,34.234234234234236
58701,Ward County,ND,6.94980694980695
58703,Ward County,ND,33.65508365508366
43004,Franklin County,OH,32.3037323037323
43017,Franklin County,OH,51.02960102960103
43026,Franklin County,OH,89.44658944658944
43050,Knox County,OH,75.16087516087516
43055,Licking County,OH,18.854568854568853
43068,Franklin County,OH,6.692406692406692
43102,Fairfield County,OH,99.74259974259975
43110,Franklin County,OH,63.51351351351351
43119,Franklin County,OH,47.61904761904761
43123,Franklin County,OH,5.148005148005148
43125,Franklin County,OH,95.88159588159589
43201,Franklin County,OH,37.194337194337194
43204,Franklin County,OH,48.9060489060489
43205,Franklin County,OH,36.22908622908623
43207,Franklin County,OH,19.433719433719435
43211,Franklin County,OH,86.2934362934363
43214,Franklin County,OH,39.510939510939515
43219,Franklin County,OH,66.79536679536679
43220,Franklin County,OH,60.939510939510946
43223,Franklin County,OH,36.42213642213642
43224,Franklin County,OH,18.46846846846847
43228,Franklin County,OH,2.0592020592020592
43229,Franklin County,OH,20.012870012870014
43230,Franklin County,OH,67.37451737451737
43232,Franklin County,OH,2.380952380952381
43235,Franklin County,OH,80.18018018018019
43402,Wood County,OH,44.33719433719433
43460,Wood County,OH,98.64864864864865
43512,Defiance County,OH,2.6383526383526386
43515,Fulton County,OH,89.83268983268984
43522,Wood County,OH,97.8120978120978
43605,Lucas County,OH,1.4800514800514801
43606,Lucas County,OH,11.96911196911197
43607,Lucas County,OH,19.36936936936937
43609,Lucas County,OH,3.2175032175032174
43611,Lucas County,OH,53.28185328185329
43613,Lucas County,OH,13.77091377091377
43614,Lucas County,OH,60.74646074646075
43615,Lucas County,OH,13.8996138996139
43701,Muskingum County,OH,0.45045045045045046
43812,Coshocton County,OH,35.13513513513514
43832,Tuscarawas County,OH,49.80694980694981
43943,Jefferson County,OH,82.17503217503217
43945,Columbiana County,OH,98.26254826254826
44001,Lorain County,OH,21.10682110682111
44004,Ashtabula County,OH,1.3513513513513513
44012,Lorain County,OH,82.04633204633205
44022,Cuyahoga County,OH,90.54054054054053
44039,Lorain County,OH,5.341055341055341
44050,Lorain County,OH,85.13513513513513
44052,Lorain County,OH,83.33333333333334
44055,Lorain County,OH,6.048906048906049
44062,Geauga County,OH,99.48519948519949
44070,Cuyahoga County,OH,16.023166023166024
44090,Lorain County,OH,76.76962676962677
44092,Lake County,OH,33.912483912483914
44102,Cuyahoga County,OH,6.885456885456885
44104,Cuyahoga County,OH,44.079794079794084
44109,Cuyahoga County,OH,15.83011583011583
44113,Cuyahoga County,OH,23.487773487773488
44115,Cuyahoga County,OH,52.96010296010296
44120,Cuyahoga County,OH,27.027027027027028
44125,Cuyahoga County,OH,6.82110682110682
44135,Cuyahoga County,OH,26.44787644787645
44146,Cuyahoga County,OH,20.592020592020592
44147,Cuyahoga County,OH,38.35263835263835
44223,Summit County,OH,37.194337194337194
44236,Summit County,OH,43.82239382239382
44240,Portage County,OH,20.141570141570142
44241,Portage County,OH,23.23037323037323
44256,Medina County,OH,61.518661518661524
44266,Portage County,OH,6.306306306306306
44307,Summit County,OH,36.486486486486484
44310,Summit County,OH,28.82882882882883
44319,Summit County,OH,41.184041184041185
44406,Mahoning County,OH,45.366795366795365
44432,Columbiana County,OH,79.98712998712999
44440,Trumbull County,OH,97.42599742599742
44460,Columbiana County,OH,43.564993564993564
44622,Tuscarawas County,OH,56.37065637065637
44646,Stark County,OH,6.4993564993565
44647,Stark County,OH,69.88416988416989
44662,Stark County,OH,65.18661518661519
44702,Stark County,OH,77.22007722007721
44706,Stark County,OH,25.096525096525095
44708,Stark County,OH,20.205920205920204
44714,Stark County,OH,82.3037323037323
44720,Stark County,OH,52.18790218790219
44857,Huron County,OH,45.62419562419562
44870,Erie County,OH,9.45945945945946
44906,Richland County,OH,55.92020592020592
45030,Hamilton County,OH,45.4954954954955
45069,Butler County,OH,63.12741312741312
45120,Clermont County,OH,94.78764478764478
45140,Clermont County,OH,16.73101673101673
45176,Clermont County,OH,55.66280566280566
45206,Hamilton County,OH,72.58687258687259
45211,Hamilton County,OH,57.46460746460747
45215,Hamilton County,OH,17.696267696267697
45225,Hamilton County,OH,97.87644787644788
45230,Hamilton County,OH,43.178893178893176
45238,Hamilton County,OH,53.0888030888031
45331,Darke County,OH,18.98326898326898
45345,Montgomery County,OH,79.02187902187903
45365,Shelby County,OH,8.301158301158301
45417,Montgomery County,OH,5.9202059202059205
45439,Montgomery County,OH,41.37709137709138
45449,Montgomery County,OH,27.54182754182754
45459,Montgomery County,OH,52.25225225225225
45619,Lawrence County,OH,50.57915057915058
45638,Lawrence County,OH,32.110682110682106
45784,Washington County,OH,62.54826254826254
45875,Putnam County,OH,83.3976833976834
45895,Auglaize County,OH,22.90862290862291
73013,Oklahoma County,OK,23.552123552123554
73034,Oklahoma County,OK,20.97812097812098
73055,Stephens County,OK,63.25611325611325
73068,Cleveland County,OK,61.132561132561136
73109,Oklahoma County,OK,54.56885456885456
73114,Oklahoma County,OK,44.91634491634492
73750,Kingfisher County,OK,81.14543114543115
97024,Multnomah County,OR,54.89060489060489
97045,Clackamas County,OR,10.424710424710424
97058,Wasco County,OR,31.209781209781212
97060,Multnomah County,OR,33.14028314028314
97201,Multnomah County,OR,88.15958815958817
97206,Multnomah County,OR,9.523809523809524
97223,Washington County,OR,51.28700128700129
97233,Multnomah County,OR,11.389961389961389
97301,Marion County,OR,8.815958815958815
97305,Marion County,OR,66.02316602316603
97386,Linn County,OR,68.91891891891892
97501,Jackson County,OR,25.16087516087516
97503,Jackson County,OR,54.31145431145431
97504,Jackson County,OR,14.864864864864865
97601,Klamath County,OR,40.02574002574003
97882,Umatilla County,OR,73.23037323037323
15071,Allegheny County,PA,74.58172458172459
15101,Allegheny County,PA,58.94465894465895
15210,Allegheny County,PA,10.682110682110682
15214,Allegheny County,PA,84.23423423423422
15235,Allegheny County,PA,42.40669240669241
15239,Allegheny County,PA,75.54697554697555
15301,Washington County,PA,4.633204633204633
15401,Fayette County,PA,5.469755469755469
15537,Bedford County,PA,72.77992277992279
15853,Elk County,PA,78.7001287001287
15902,Cambria County,PA,64.47876447876449
16137,Mercer County,PA,59.97425997425997
16148,Mercer County,PA,37.58043758043758
16625,Blair County,PA,95.3024453024453
16648,Blair County,PA,86.87258687258688
16686,Blair County,PA,86.67953667953668
16701,McKean County,PA,12.41956241956242
16827,Centre County,PA,98.58429858429858
16841,Centre County,PA,93.95109395109395
17022,Lancaster County,PA,12.033462033462033
17026,Lebanon County,PA,94.14414414414415
17036,Dauphin County,PA,63.44916344916345
17042,Lebanon County,PA,3.088803088803089
17044,Mifflin County,PA,8.880308880308881
17046,Lebanon County,PA,45.68854568854569
17104,Dauphin County,PA,12.87001287001287
17110,Dauphin County,PA,36.93693693693694
17112,Dauphin County,PA,12.162162162162163
17301,Adams County,PA,97.2972972972973
17315,York County,PA,68.21106821106821
17319,York County,PA,81.98198198198197
17345,York County,PA,60.231660231660236
17347,York County,PA,93.56499356499357
17356,York County,PA,22.136422136422137
17401,York County,PA,66.53796653796654
17403,York County,PA,49.48519948519948
17408,York County,PA,32.56113256113256
17545,Lancaster County,PA,95.55984555984556
17552,Lancaster County,PA,30.30888030888031
17557,Lancaster County,PA,68.01801801801803
17601,Lancaster County,PA,26.576576576576578
17603,Lancaster County,PA,26.705276705276702
17737,Lycoming County,PA,87.45173745173746
17752,Lycoming County,PA,87.001287001287
17856,Union County,PA,98.84169884169884
17870,Snyder County,PA,38.35263835263835
18017,Northampton County,PA,4.568854568854569
18058,Monroe County,PA,66.66666666666666
18102,Lehigh County,PA,0.5791505791505791
18103,Lehigh County,PA,3.925353925353926
18109,Lehigh County,PA,18.79021879021879
18201,Luzerne County,PA,70.97812097812097
18210,Carbon County,PA,65.44401544401545
18222,Luzerne County,PA,75.54697554697555
18235,Carbon County,PA,23.35907335907336
18324,Pike County,PA,63.64221364221364
18360,Monroe County,PA,83.78378378378379
18411,Lackawanna County,PA,38.73873873873874
18634,Luzerne County,PA,33.78378378378378
18704,Luzerne County,PA,68.08236808236808
18707,Luzerne County,PA,90.34749034749035
18901,Bucks County,PA,36.80823680823681
18940,Bucks County,PA,51.54440154440154
18966,Bucks County,PA,12.097812097812097
18974,Bucks County,PA,44.98069498069498
19003,Montgomery County,PA,89.96138996138995
19004,Montgomery County,PA,96.78249678249678
19008,Delaware County,PA,90.92664092664093
19010,Delaware County,PA,47.23294723294723
19014,Delaware County,PA,78.8931788931789
19015,Delaware County,PA,28.764478764478763
19018,Delaware County,PA,50.38610038610039
19026,Delaware County,PA,57.91505791505791
19032,Delaware County,PA,94.27284427284427
19038,Montgomery County,PA,73.80952380952381
19044,Montgomery County,PA,53.024453024453024
19046,Montgomery County,PA,67.05276705276705
19047,Bucks County,PA,17.18146718146718
19050,Delaware County,PA,68.72586872586872
19057,Bucks County,PA,54.633204633204635
19061,Delaware County,PA,21.235521235521233
19063,Delaware County,PA,84.68468468468468
19064,Delaware County,PA,76.19047619047619
19067,Bucks County,PA,70.27027027027027
19070,Delaware County,PA,80.75933075933077
19072,Montgomery County,PA,92.72844272844273
19076,Delaware County,PA,73.23037323037323
19078,Delaware County,PA,55.46975546975547
19079,Delaware County,PA,57.65765765765766
19082,Delaware County,PA,75.67567567567568
19083,Delaware County,PA,50.64350064350064
19087,Chester County,PA,83.01158301158301
19090,Montgomery County,PA,96.84684684684684
19095,Montgomery County,PA,72.39382239382239
19096,Montgomery County,PA,93.24324324324324
19115,Philadelphia County,PA,70.65637065637065
19119,Philadelphia County,PA,17.31016731016731
19120,Philadelphia County,PA,12.548262548262548
19124,Philadelphia County,PA,0.6435006435006435
19126,Philadelphia County,PA,25.353925353925355
19128,Philadelphia County,PA,41.24839124839125
19129,Philadelphia County,PA,53.6036036036036
19131,Philadelphia County,PA,4.440154440154441
19132,Philadelphia County,PA,19.111969111969113
19134,Philadelphia County,PA,57.78635778635779
19136,Philadelphia County,PA,7.722007722007722
19138,Philadelphia County,PA,32.75418275418275
19139,Philadelphia County,PA,2.445302445302445
19140,Philadelphia County,PA,1.4157014157014158
19143,Philadelphia County,PA,5.598455598455598
19151,Philadelphia County,PA,33.97683397683397
19301,Chester County,PA,97.1042471042471
19311,Chester County,PA,81.01673101673101
19312,Chester County,PA,80.6949806949807
19320,Chester County,PA,73.1016731016731
19335,Chester County,PA,40.090090090090094
19341,Chester County,PA,91.18404118404119
19342,Delaware County,PA,38.15958815958816
19344,Chester County,PA,72.26512226512226
19348,Chester County,PA,74.7104247104247
19352,Chester County,PA,81.91763191763192
19355,Chester County,PA,78.05662805662806
19363,Chester County,PA,74.96782496782497
19380,Chester County,PA,84.87773487773488
19382,Chester County,PA,35.907335907335906
19406,Montgomery County,PA,37.001287001287004
19426,Montgomery County,PA,73.16602316602317
19428,Montgomery County,PA,80.82368082368082
19446,Montgomery County,PA,54.37580437580437
19465,Chester County,PA,42.599742599742605
19518,Berks County,PA,81.78893178893179
19601,Berks County,PA,1.9305019305019304
19604,Berks County,PA,8.108108108108109
19606,Berks County,PA,48.32689832689832
02814,Providence County,RI,75.35392535392535
02864,Providence County,RI,49.549549549549546
02886,Kent County,RI,55.27670527670527
02889,Kent County,RI,17.760617760617762
02905,Providence County,RI,32.04633204633205
02919,Providence County,RI,31.145431145431147
02920,Providence County,RI,21.557271557271555
29067,Lancaster County,SC,79.98712998712999
29349,Spartanburg County,SC,18.082368082368085
29420,Dorchester County,SC,38.095238095238095
29455,Charleston County,SC,93.5006435006435
29485,Dorchester County,SC,19.81981981981982
29510,Georgetown County,SC,80.3088803088803
29536,Dillon County,SC,44.85199485199485
29607,Greenville County,SC,68.46846846846847
29625,Anderson County,SC,24.71042471042471
29696,Oconee County,SC,96.3963963963964
29707,Lancaster County,SC,68.79021879021879
29732,York County,SC,23.93822393822394
29928,Beaufort County,SC,98.005148005148
57252,Grant County,SD,86.87258687258688
37040,Montgomery County,TN,17.374517374517374
37174,Williamson County,TN,38.67438867438867
37207,Davidson County,TN,8.42985842985843
37209,Davidson County,TN,23.93822393822394
37336,Bradley County,TN,91.76319176319177
37363,Hamilton County,TN,62.676962676962674
37659,Washington County,TN,28.24967824967825
37804,Blount County,TN,51.737451737451735
38106,Shelby County,TN,11.776061776061777
38115,Shelby County,TN,16.473616473616474
38127,Shelby County,TN,26.383526383526384
38556,Fentress County,TN,41.6988416988417
75040,Dallas County,TX,40.283140283140284
75057,Denton County,TX,75.03217503217503
75088,Dallas County,TX,96.52509652509652
75089,Dallas County,TX,51.930501930501926
75165,Ellis County,TX,20.527670527670526
75211,Dallas County,TX,13.64221364221364
75214,Dallas County,TX,34.68468468468468
75216,Dallas County,TX,20.72072072072072
75217,Dallas County,TX,6.306306306306306
75220,Dallas County,TX,38.93178893178893
75223,Dallas County,TX,78.95752895752895
75228,Dallas County,TX,20.3989703989704
75231,Dallas County,TX,66.40926640926641
75234,Dallas County,TX,58.4942084942085
75672,Harrison County,TX,95.4954954954955
75701,Smith County,TX,27.606177606177607
75703,Smith County,TX,24.195624195624195
75704,Smith County,TX,77.60617760617761
76012,Tarrant County,TX,38.15958815958816
76017,Tarrant County,TX,23.294723294723294
76053,Tarrant County,TX,77.92792792792793
76134,Tarrant County,TX,77.28442728442728
76502,Bell County,TX,11.068211068211069
76571,Bell County,TX,87.83783783783784
77006,Harris County,TX,67.18146718146718
77008,Harris County,TX,51.28700128700129
77012,Harris County,TX,96.97554697554698
77014,Harris County,TX,77.02702702702703
77016,Harris County,TX,32.88288288288289
77020,Harris County,TX,49.163449163449165
77022,Harris County,TX,45.30244530244531
77029,Harris County,TX,59.523809523809526
77035,Harris County,TX,32.17503217503218
77041,Harris County,TX,50.70785070785071
77043,Harris County,TX,89.63963963963964
77045,Harris County,TX,75.22522522522522
77064,Harris County,TX,28.12097812097812
77082,Harris County,TX,69.6911196911197
77089,Harris County,TX,91.63449163449164
77090,Harris County,TX,52.316602316602314
77091,Harris County,TX,44.4015444015444
77092,Harris County,TX,74.13127413127413
77099,Harris County,TX,44.4015444015444
77303,Montgomery County,TX,96.01029601029602
77304,Montgomery County,TX,51.86615186615187
77345,Harris County,TX,77.15572715572716
77375,Harris County,TX,15.444015444015443
77379,Harris County,TX,86.74388674388675
77406,Fort Bend County,TX,35.714285714285715
77407,Fort Bend County,TX,43.11454311454311
77433,Harris County,TX,8.494208494208493
77437,Wharton County,TX,53.732303732303734
77445,Waller County,TX,81.27413127413128
77469,Fort Bend County,TX,21.364221364221365
77478,Fort Bend County,TX,77.41312741312741
77479,Fort Bend County,TX,22.32947232947233
77494,Fort Bend County,TX,38.803088803088805
77498,Fort Bend County,TX,44.65894465894466
77503,Harris County,TX,88.35263835263835
77539,Galveston County,TX,43.371943371943374
77584,Brazoria County,TX,47.361647361647364
77598,Harris County,TX,75.99742599742599
77625,Hardin County,TX,89.51093951093951
77630,Orange County,TX,31.98198198198198
77640,Jefferson County,TX,77.34877734877735
77642,Jefferson County,TX,79.08622908622908
77801,Brazos County,TX,72.2007722007722
77803,Brazos County,TX,19.305019305019304
77840,Brazos County,TX,35.64993564993565
78076,Zapata County,TX,92.4066924066924
78102,Bee County,TX,69.24066924066923
78501,Hidalgo County,TX,67.8893178893179
78577,Hidalgo County,TX,20.656370656370658
78580,Willacy County,TX,84.2985842985843
78582,Starr County,TX,58.23680823680824
78584,Starr County,TX,57.01415701415702
78628,Williamson County,TX,63.57786357786358
78634,Williamson County,TX,49.871299871299875
78728,Travis County,TX,71.87902187902188
78746,Travis County,TX,67.5032175032175
78758,Travis County,TX,72.13642213642214
79107,Potter County,TX,25.868725868725868
79347,Bailey County,TX,79.40797940797941
79360,Gaines County,TX,83.59073359073359
79364,Lubbock County,TX,97.03989703989704
79403,Lubbock County,TX,41.50579150579151
79404,Lubbock County,TX,67.24581724581724
79410,Lubbock County,TX,94.20849420849422
79412,Lubbock County,TX,76.64092664092664
79413,Lubbock County,TX,58.17245817245818
79414,Lubbock County,TX,67.8893178893179
79415,Lubbock County,TX,97.16859716859717
79416,Lubbock County,TX,91.8918918918919
79423,Lubbock County,TX,52.638352638352636
79424,Lubbock County,TX,66.47361647361647
79549,Scurry County,TX,62.93436293436293
79936,El Paso County,TX,8.751608751608751
84020,Salt Lake County,UT,34.2985842985843
84045,Utah County,UT,95.17374517374517
84057,Utah County,UT,89.76833976833977
84103,Salt Lake County,UT,56.113256113256114
84302,Box Elder County,UT,69.3050193050193
84321,Cache County,UT,57.97940797940798
20121,Fairfax County,VA,56.113256113256114
20164,Loudoun County,VA,34.49163449163449
20165,Loudoun County,VA,59.523809523809526
20171,Fairfax County,VA,83.20463320463321
22030,Fairfax County,VA,22.715572715572716
22031,Fairfax County,VA,55.341055341055345
22033,Fairfax County,VA,77.73487773487774
22079,Fairfax County,VA,33.59073359073359
22150,Fairfax County,VA,84.16988416988417
22153,Fairfax County,VA,48.58429858429859
22180,Fairfax County,VA,72.71557271557272
22203,Arlington County,VA,86.35778635778635
22302,Alexandria city,VA,56.94980694980695
22303,Fairfax County,VA,63.32046332046332
22304,Alexandria city,VA,10.231660231660232
22306,Fairfax County,VA,84.62033462033463
22308,Fairfax County,VA,98.77734877734878
22312,Fairfax County,VA,35.45688545688546
22314,Alexandria city,VA,22.972972972972975
22408,Spotsylvania County,VA,55.4054054054054
22443,Westmoreland County,VA,98.1981981981982
22602,Frederick County,VA,83.65508365508364
22655,Frederick County,VA,75.8043758043758
22657,Shenandoah County,VA,71.1068211068211
22701,Culpeper County,VA,66.6023166023166
22802,Harrisonburg city,VA,17.052767052767052
22821,Rockingham County,VA,89.1891891891892
23111,Hanover County,VA,69.56241956241956
23220,Richmond city,VA,52.38095238095239
23223,Henrico County,VA,42.084942084942085
23224,Richmond city,VA,61.06821106821106
23434,Suffolk city,VA,11.26126126126126
23452,Virginia Beach city,VA,45.23809523809524
23831,Chesterfield County,VA,29.150579150579148
23838,Chesterfield County,VA,79.21492921492921
23842,Prince George County,VA,92.14929214929215
23860,Hopewell city,VA,54.440154440154444
23970,Mecklenburg County,VA,56.69240669240669
24019,Roanoke County,VA,45.94594594594595
24179,Roanoke County,VA,70.07722007722008
24293,Wise County,VA,69.56241956241956
24401,Staunton city,VA,7.5289575289575295
24504,Lynchburg city,VA,48.77734877734878
98001,King County,WA,33.204633204633204
98002,King County,WA,87.38738738738738
98004,King County,WA,86.16473616473617
98011,King County,WA,49.61389961389961
98023,King County,WA,18.21106821106821
98026,Snohomish County,WA,25.997425997426
98030,King County,WA,82.75418275418276
98033,King County,WA,79.85842985842986
98034,King County,WA,24.581724581724583
98051,King County,WA,96.2033462033462
98106,King County,WA,78.5070785070785
98116,King County,WA,60.55341055341056
98126,King County,WA,49.67824967824968
98155,King County,WA,36.16473616473617
98201,Snohomish County,WA,38.996138996138995
98204,Snohomish County,WA,19.047619047619047
98270,Snohomish County,WA,13.577863577863578
98274,Skagit County,WA,53.346203346203346
98275,Snohomish County,WA,62.35521235521235
98277,Island County,WA,37.64478764478765
98296,Snohomish County,WA,36.35778635778636
98332,Pierce County,WA,82.81853281853282
98366,Kitsap County,WA,75.4826254826255
98368,Jefferson County,WA,60.03861003861004
98391,Pierce County,WA,53.47490347490348
98444,Pierce County,WA,27.155727155727156
98445,Pierce County,WA,39.510939510939515
98513,Thurston County,WA,63.899613899613904
98563,Grays Harbor County,WA,87.001287001287
98632,Cowlitz County,WA,13.963963963963963
98661,Clark County,WA,40.34749034749035
98902,Yakima County,WA,20.463320463320464
99224,Spokane County,WA,96.07464607464607
99301,Franklin County,WA,46.653796653796654
99323,Walla Walla County,WA,99.8069498069498
99338,Benton County,WA,51.67310167310168
99344,Adams County,WA,87.58043758043758
99352,Benton County,WA,77.99227799227799
20002,District of Columbia,DC,3.861003861003861
20007,District of Columbia,DC,88.67438867438867
20019,District of Columbia,DC,2.574002574002574
20020,District of Columbia,DC,1.287001287001287
20032,District of Columbia,DC,3.667953667953668
25411,Morgan County,WV,67.43886743886743
25419,Berkeley County,WV,72.65122265122265
26003,Ohio County,WV,3.9897039897039894
26330,Harrison County,WV,35.26383526383526
26501,Monongalia County,WV,88.54568854568855
26505,Monongalia County,WV,27.28442728442728
26726,Mineral County,WV,32.625482625482626
53051,Waukesha County,WI,65.25096525096525
53072,Waukesha County,WI,86.55083655083655
53094,Jefferson County,WI,32.94723294723295
53105,Racine County,WI,55.08365508365508
53110,Milwaukee County,WI,23.745173745173744
53189,Waukesha County,WI,45.94594594594595
53205,Milwaukee County,WI,1.5444015444015444
53208,Milwaukee County,WI,7.657657657657657
53210,Milwaukee County,WI,5.276705276705277
53211,Milwaukee County,WI,55.85585585585585
53213,Milwaukee County,WI,69.81981981981981
53215,Milwaukee County,WI,45.559845559845556
53216,Milwaukee County,WI,37.51608751608752
53218,Milwaukee County,WI,69.1119691119691
53219,Milwaukee County,WI,82.23938223938224
53220,Milwaukee County,WI,23.166023166023166
53223,Milwaukee County,WI,37.38738738738739
53402,Racine County,WI,4.311454311454312
53511,Rock County,WI,0.5148005148005148
53523,Dane County,WI,95.23809523809523
53718,Dane County,WI,69.43371943371943
53934,Adams County,WI,84.42728442728443
54165,Outagamie County,WI,98.90604890604891
54403,Marathon County,WI,34.74903474903475
54646,Juneau County,WI,75.93307593307593
54812,Barron County,WI,98.71299871299871
54929,Waupaca County,WI,96.46074646074646
