ZipCode,county,state,Adult
35031,Blount County,AL,66.87948922585794
35040,Shelby County,AL,36.951316839585
35055,Cullman County,AL,44.10747539239159
35064,Jefferson County,AL,49.45464219207236
35115,Shelby County,AL,84.57036445863262
35124,Shelby County,AL,54.03032721468476
35150,Talladega County,AL,27.613727055067837
35173,Jefferson County,AL,37.536578877361
35206,Jefferson County,AL,51.636073423782925
35208,Jefferson County,AL,26.523011439212556
35209,Jefferson County,AL,71.61479116786379
35211,Jefferson County,AL,8.725724926842245
35215,Jefferson County,AL,41.95264698057994
35216,Jefferson County,AL,42.75073157754722
35217,Jefferson County,AL,36.578877361000266
35235,Jefferson County,AL,44.21388667198723
35503,Walker County,AL,55.81271614791168
35570,Marion County,AL,84.80978983772279
35601,Morgan County,AL,7.342378292098963
35603,Morgan County,AL,9.337589784517158
35616,Colbert County,AL,96.99388135142325
35622,Morgan County,AL,75.60521415270019
35633,Lauderdale County,AL,44.21388667198723
35660,Colbert County,AL,60.78744346900772
35661,Colbert County,AL,54.98802873104549
35673,Morgan County,AL,59.96275605214153
35749,Madison County,AL,36.49906890130354
35758,Madison County,AL,26.017557861133277
35763,Madison County,AL,69.75259377494014
35903,Etowah County,AL,43.495610534716675
35950,Marshall County,AL,28.465017291832933
35956,Etowah County,AL,71.13594040968343
35967,DeKalb County,AL,54.48257515296622
36027,Barbour County,AL,26.682628358606014
36054,Elmore County,AL,56.82362330407024
36092,Elmore County,AL,32.881085395051876
36107,Montgomery County,AL,99.122106943336
36108,Montgomery County,AL,65.0438946528332
36109,Montgomery County,AL,36.312849162011176
36116,Montgomery County,AL,12.23729715349827
36201,Calhoun County,AL,16.174514498536848
36301,Houston County,AL,72.5192870444267
36303,Houston County,AL,13.939877627028466
36330,Coffee County,AL,68.52886405959032
36460,Monroe County,AL,78.07927640329875
36477,Geneva County,AL,86.53897313115189
36535,Baldwin County,AL,30.61984570364459
36541,Mobile County,AL,72.78531524341581
36571,Mobile County,AL,60.41500399042299
36582,Mobile County,AL,70.81670657089651
36604,Mobile County,AL,84.80978983772279
36605,Mobile County,AL,27.081670657089653
36608,Mobile County,AL,66.53365256717211
36609,Mobile County,AL,48.68316041500399
36610,Mobile County,AL,51.902101622772015
36619,Mobile County,AL,90.47619047619048
36693,Mobile County,AL,44.10747539239159
36804,Lee County,AL,78.74434690077148
36832,Lee County,AL,70.15163607342379
99501,Anchorage Municipality,AK,12.875764831072093
99503,Anchorage Municipality,AK,33.99840383080607
99504,Anchorage Municipality,AK,43.17637669592977
99508,Anchorage Municipality,AK,36.84490555998936
99516,Anchorage Municipality,AK,71.88081936685289
99576,Dillingham Census Area,AK,98.16440542697525
99577,Anchorage Municipality,AK,65.57595105081138
99654,Matanuska-Susitna Borough,AK,23.782920989624902
99901,Ketchikan Gateway Borough,AK,28.731045490822027
85008,Maricopa County,AZ,7.262569832402235
85012,Maricopa County,AZ,83.16041500399042
85015,Maricopa County,AZ,10.827347698856078
85017,Maricopa County,AZ,83.79888268156425
85020,Maricopa County,AZ,25.56530992285182
85021,Maricopa County,AZ,27.58712423516893
85023,Maricopa County,AZ,50.43894652833201
85024,Maricopa County,AZ,88.48097898377229
85029,Maricopa County,AZ,13.70045224793828
85031,Maricopa County,AZ,37.855812716147916
85032,Maricopa County,AZ,8.273476988560788
85033,Maricopa County,AZ,9.018355945730248
85035,Maricopa County,AZ,55.97233306730514
85037,Maricopa County,AZ,66.87948922585794
85040,Maricopa County,AZ,39.185953711093376
85041,Maricopa County,AZ,41.793030061186485
85043,Maricopa County,AZ,75.44559723330673
85048,Maricopa County,AZ,37.45677041766427
85051,Maricopa County,AZ,31.497738760308593
85083,Maricopa County,AZ,74.40808725724926
85085,Maricopa County,AZ,57.382282521947324
85120,Pinal County,AZ,29.183293429103486
85122,Pinal County,AZ,20.590582601755784
85123,Pinal County,AZ,63.55413673849428
85131,Pinal County,AZ,72.89172652301144
85132,Pinal County,AZ,25.458898643256184
85138,Pinal County,AZ,62.43681830274009
85139,Pinal County,AZ,42.19207235967012
85140,Pinal County,AZ,23.06464485235435
85143,Pinal County,AZ,23.915935089119447
85193,Pinal County,AZ,99.94679436020219
85201,Maricopa County,AZ,30.75285980313913
85202,Maricopa County,AZ,41.074753923915935
85203,Maricopa County,AZ,24.634211226389997
85204,Maricopa County,AZ,7.794626230380421
85212,Maricopa County,AZ,46.288906624102154
85213,Maricopa County,AZ,50.91779728651237
85226,Maricopa County,AZ,43.12317105613195
85251,Maricopa County,AZ,27.294493216280923
85254,Maricopa County,AZ,41.60681032189412
85255,Maricopa County,AZ,37.935621175844645
85257,Maricopa County,AZ,58.28677839851024
85259,Maricopa County,AZ,92.44479914870976
85260,Maricopa County,AZ,54.93482309124767
85281,Maricopa County,AZ,23.277467411545626
85282,Maricopa County,AZ,28.54482575152966
85286,Maricopa County,AZ,22.745411013567438
85296,Maricopa County,AZ,84.43735035913807
85297,Maricopa County,AZ,81.88347964884277
85301,Maricopa County,AZ,13.620643788241555
85303,Maricopa County,AZ,39.10614525139665
85307,Maricopa County,AZ,93.56211758446395
85308,Maricopa County,AZ,22.133546155892525
85331,Maricopa County,AZ,43.8414471934025
85338,Maricopa County,AZ,75.17956903431764
85344,La Paz County,AZ,78.05267358339985
85345,Maricopa County,AZ,6.783719074221868
85349,Yuma County,AZ,22.23995743548816
85364,Yuma County,AZ,24.261771747805266
85374,Maricopa County,AZ,34.47725458898643
85375,Maricopa County,AZ,81.0853950518755
85381,Maricopa County,AZ,53.12583133812184
85388,Maricopa County,AZ,58.07395583931897
85392,Maricopa County,AZ,75.9244479914871
85395,Maricopa County,AZ,65.65575951050812
85396,Maricopa County,AZ,80.02128225591912
85501,Gila County,AZ,66.7198723064645
85530,Graham County,AZ,82.49534450651768
85541,Gila County,AZ,37.031125299281726
85603,Cochise County,AZ,79.3828145783453
85607,Cochise County,AZ,50.172918329342906
85629,Pima County,AZ,86.91141260973663
85635,Cochise County,AZ,14.764565043894654
85706,Pima County,AZ,1.010907156158553
85711,Pima County,AZ,4.4692737430167595
85713,Pima County,AZ,17.983506251662675
85716,Pima County,AZ,71.0827347698856
85719,Pima County,AZ,21.734503857408885
85730,Pima County,AZ,15.748869380154296
85745,Pima County,AZ,14.8975791433892
85746,Pima County,AZ,6.730513434424049
85748,Pima County,AZ,76.8023410481511
85756,Pima County,AZ,23.03804203245544
85757,Pima County,AZ,15.93508911944666
85901,Navajo County,AZ,73.29076882149508
85936,Apache County,AZ,94.51981910082469
86001,Coconino County,AZ,41.47379622239957
86005,Coconino County,AZ,72.35967012503325
86314,Yavapai County,AZ,9.204575685022611
86403,Mohave County,AZ,33.41314179303006
86406,Mohave County,AZ,36.15323224261772
86442,Mohave County,AZ,17.13221601489758
86556,Apache County,AZ,92.01915403032721
71655,Drew County,AR,75.44559723330673
71667,Lincoln County,AR,81.72386272944932
71730,Union County,AR,69.14072891726522
71852,Howard County,AR,77.3876030859271
71854,Miller County,AR,25.538707102952912
72002,Saline County,AR,95.39771215748868
72042,Arkansas County,AR,98.19100824687416
72076,Pulaski County,AR,37.43016759776536
72150,Grant County,AR,75.81803671189145
72543,Cleburne County,AR,55.44027666932695
72762,Washington County,AR,34.769885607874436
72956,Crawford County,AR,37.722798616653364
90001,Los Angeles County,CA,89.65150305932428
90002,Los Angeles County,CA,80.2341048151104
90003,Los Angeles County,CA,23.596701250332536
90005,Los Angeles County,CA,85.23543495610535
90011,Los Angeles County,CA,78.13248204309656
90018,Los Angeles County,CA,78.02607076350093
90019,Los Angeles County,CA,63.607342378292095
90023,Los Angeles County,CA,86.53897313115189
90025,Los Angeles County,CA,46.55493482309125
90027,Los Angeles County,CA,48.1511040170258
90032,Los Angeles County,CA,36.179835062516624
90034,Los Angeles County,CA,31.391327480712956
90036,Los Angeles County,CA,57.19606278265496
90044,Los Angeles County,CA,36.765097100292635
90046,Los Angeles County,CA,39.21255653099229
90059,Los Angeles County,CA,57.62170790103751
90061,Los Angeles County,CA,62.277201383346636
90062,Los Angeles County,CA,40.30327214684757
90063,Los Angeles County,CA,39.026336791699926
90064,Los Angeles County,CA,16.81298217611067
90065,Los Angeles County,CA,44.666134610268685
90069,Los Angeles County,CA,43.2561851556265
90201,Los Angeles County,CA,19.287044426709233
90220,Los Angeles County,CA,20.590582601755784
90221,Los Angeles County,CA,24.52779994679436
90222,Los Angeles County,CA,58.313381218409155
90250,Los Angeles County,CA,66.00159616919393
90262,Los Angeles County,CA,57.382282521947324
90266,Los Angeles County,CA,51.5828677839851
90280,Los Angeles County,CA,19.819100824687418
90291,Los Angeles County,CA,85.60787443469007
90301,Los Angeles County,CA,84.99600957701516
90403,Los Angeles County,CA,92.49800478850759
90503,Los Angeles County,CA,71.69459962756052
90604,Los Angeles County,CA,45.5440276669327
90606,Los Angeles County,CA,74.2484703378558
90630,Orange County,CA,90.23676509710029
90638,Los Angeles County,CA,43.947858472998135
90650,Los Angeles County,CA,36.71189146049481
90660,Los Angeles County,CA,50.89119446661346
90680,Orange County,CA,48.25751529662144
90706,Los Angeles County,CA,47.14019686086725
90712,Los Angeles County,CA,79.24980047885076
90713,Los Angeles County,CA,96.64804469273743
90723,Los Angeles County,CA,40.48949188613993
90731,Los Angeles County,CA,19.39345570630487
90805,Los Angeles County,CA,9.976057462090981
90806,Los Angeles County,CA,44.90555998935887
90808,Los Angeles County,CA,46.60814046288906
91016,Los Angeles County,CA,46.76775738228252
91030,Los Angeles County,CA,84.30433625964352
91104,Los Angeles County,CA,31.311519021016228
91106,Los Angeles County,CA,91.06145251396647
91107,Los Angeles County,CA,70.44426709231179
91201,Los Angeles County,CA,81.45783453046023
91206,Los Angeles County,CA,65.73556797020484
91214,Los Angeles County,CA,75.39239159350892
91331,Los Angeles County,CA,73.18435754189943
91335,Los Angeles County,CA,72.35967012503325
91342,Los Angeles County,CA,40.808725724926845
91343,Los Angeles County,CA,86.69859005054535
91350,Los Angeles County,CA,53.36525671721203
91360,Ventura County,CA,52.859803139132744
91362,Ventura County,CA,55.52008512902368
91384,Los Angeles County,CA,68.66187815908486
91387,Los Angeles County,CA,32.29582335727587
91402,Los Angeles County,CA,16.3341314179303
91405,Los Angeles County,CA,31.178504921521682
91406,Los Angeles County,CA,86.35275339185954
91411,Los Angeles County,CA,96.14259111465815
91423,Los Angeles County,CA,62.277201383346636
91506,Los Angeles County,CA,90.74221867517956
91601,Los Angeles County,CA,57.08965150305932
91607,Los Angeles County,CA,75.9244479914871
91702,Los Angeles County,CA,83.47964884277734
91706,Los Angeles County,CA,15.376429901569566
91722,Los Angeles County,CA,86.27294493216282
91730,San Bernardino County,CA,40.22346368715084
91732,Los Angeles County,CA,64.56504389465283
91739,San Bernardino County,CA,52.22133546155893
91744,Los Angeles County,CA,10.242085661080075
91746,Los Angeles County,CA,89.3854748603352
91748,Los Angeles County,CA,86.2463421122639
91750,Los Angeles County,CA,54.269752593774946
91752,Riverside County,CA,86.45916467145517
91762,San Bernardino County,CA,22.452779994679435
91763,San Bernardino County,CA,53.73769619579676
91764,San Bernardino County,CA,24.47459430699654
91767,Los Angeles County,CA,63.15509444001064
91773,Los Angeles County,CA,94.22718808193669
91784,San Bernardino County,CA,63.8999733971801
91786,San Bernardino County,CA,20.13833466347433
91910,San Diego County,CA,47.40622505985635
91911,San Diego County,CA,14.232508645916466
91913,San Diego County,CA,64.72466081404629
91914,San Diego County,CA,95.13168395849961
91915,San Diego County,CA,83.58606012237297
91941,San Diego County,CA,47.72545889864326
91977,San Diego County,CA,58.04735301942006
92009,San Diego County,CA,55.99893588720405
92019,San Diego County,CA,33.78558127161479
92021,San Diego County,CA,77.3876030859271
92025,San Diego County,CA,35.16892790635807
92027,San Diego County,CA,34.3708433093908
92028,San Diego County,CA,52.886405959031656
92037,San Diego County,CA,76.8023410481511
92057,San Diego County,CA,45.756850226123966
92071,San Diego County,CA,66.98590050545357
92083,San Diego County,CA,81.51104017025804
92105,San Diego County,CA,9.71002926310189
92113,San Diego County,CA,46.661346102686885
92117,San Diego County,CA,45.756850226123966
92122,San Diego County,CA,64.00638467677574
92128,San Diego County,CA,65.3365256717212
92139,San Diego County,CA,63.87337057728119
92154,San Diego County,CA,25.086459164671453
92173,San Diego County,CA,53.25884543761639
92220,Riverside County,CA,47.565841979249804
92223,Riverside County,CA,18.16972599095504
92225,Riverside County,CA,69.24714019686087
92227,Imperial County,CA,64.37882415536048
92231,Imperial County,CA,20.85661080074488
92234,Riverside County,CA,31.311519021016228
92236,Riverside County,CA,31.550944400106413
92240,Riverside County,CA,63.28810853950518
92251,Imperial County,CA,63.101888800212826
92252,San Bernardino County,CA,66.53365256717211
92277,San Bernardino County,CA,63.34131417930301
92281,Imperial County,CA,99.84038308060654
92283,Imperial County,CA,99.09550412343708
92284,San Bernardino County,CA,48.39052939611599
92301,San Bernardino County,CA,91.77972865123704
92308,San Bernardino County,CA,93.50891194466614
92313,San Bernardino County,CA,94.89225857940941
92316,San Bernardino County,CA,86.37935621175845
92320,Riverside County,CA,95.31790369779196
92324,San Bernardino County,CA,61.10667730779462
92325,San Bernardino County,CA,80.97898377227986
92335,San Bernardino County,CA,69.19393455706306
92345,San Bernardino County,CA,69.88560787443468
92346,San Bernardino County,CA,49.32162809257781
92354,San Bernardino County,CA,77.81324820430966
92374,San Bernardino County,CA,30.274009044958767
92376,San Bernardino County,CA,74.99334929502527
92405,San Bernardino County,CA,83.3732375631817
92407,San Bernardino County,CA,57.834530460228784
92408,San Bernardino County,CA,90.7954243149774
92410,San Bernardino County,CA,21.22905027932961
92411,San Bernardino County,CA,98.88268156424581
92503,Riverside County,CA,39.42537909018356
92504,Riverside County,CA,64.99068901303538
92505,Riverside County,CA,33.99840383080607
92506,Riverside County,CA,63.687150837988824
92508,Riverside County,CA,92.2851822293163
92509,Riverside County,CA,44.95876562915669
92543,Riverside County,CA,62.91566906092045
92544,Riverside County,CA,90.5559989358872
92545,Riverside County,CA,29.289704708699123
92551,Riverside County,CA,84.91620111731844
92553,Riverside County,CA,16.28092577813248
92557,Riverside County,CA,24.44799148709763
92563,Riverside County,CA,55.70630486831604
92570,Riverside County,CA,81.21840915137004
92571,Riverside County,CA,63.15509444001064
92584,Riverside County,CA,31.763766959297683
92585,Riverside County,CA,72.99813780260708
92592,Riverside County,CA,17.291832934291033
92595,Riverside County,CA,27.746741154562383
92596,Riverside County,CA,65.94839052939612
92604,Orange County,CA,74.56770417664272
92614,Orange County,CA,50.06650704974728
92618,Orange County,CA,52.38095238095239
92648,Orange County,CA,17.265230114392125
92656,Orange County,CA,75.15296621441873
92657,Orange County,CA,95.92976855546688
92673,Orange County,CA,57.22266560255387
92677,Orange County,CA,21.335461558925246
92683,Orange County,CA,9.31098696461825
92692,Orange County,CA,27.214684756584195
92701,Orange County,CA,68.87470071827615
92703,Orange County,CA,79.19659483905293
92704,Orange County,CA,21.042830540037244
92706,Orange County,CA,74.487895716946
92707,Orange County,CA,65.38973131151901
92708,Orange County,CA,59.24447991487097
92780,Orange County,CA,24.740622505985634
92801,Orange County,CA,21.840915137004522
92806,Orange County,CA,45.41101356743815
92840,Orange County,CA,38.547486033519554
92867,Orange County,CA,79.6222399574355
92869,Orange County,CA,80.34051609470603
92880,Riverside County,CA,13.115190210162279
92882,Riverside County,CA,18.010109071561587
92883,Riverside County,CA,56.77041766427241
92886,Orange County,CA,19.047619047619047
93003,Ventura County,CA,33.28012769353552
93004,Ventura County,CA,76.56291566906091
93021,Ventura County,CA,48.443735035913804
93030,Ventura County,CA,9.763234902899708
93033,Ventura County,CA,49.002394253790904
93060,Ventura County,CA,59.72333067305134
93063,Ventura County,CA,57.78132482043097
93103,Santa Barbara County,CA,81.45783453046023
93203,Kern County,CA,81.3514232508646
93215,Kern County,CA,89.22585794094175
93221,Tulare County,CA,72.57249268422453
93230,Kings County,CA,57.99414737962224
93249,Kern County,CA,99.22851822293163
93257,Tulare County,CA,29.555732907688213
93267,Tulare County,CA,99.707368981112
93268,Kern County,CA,90.87523277467412
93270,Tulare County,CA,98.80287310454908
93274,Tulare County,CA,49.188613993083266
93277,Tulare County,CA,66.66666666666666
93291,Tulare County,CA,12.343708433093909
93292,Tulare County,CA,80.68635275339186
93306,Kern County,CA,11.971268954509178
93307,Kern County,CA,7.315775472200054
93309,Kern County,CA,54.05693003458366
93313,Kern County,CA,40.32987496674647
93422,San Luis Obispo County,CA,34.317637669592976
93436,Santa Barbara County,CA,8.805533386538974
93446,San Luis Obispo County,CA,68.31604150039904
93454,Santa Barbara County,CA,72.27986166533653
93458,Santa Barbara County,CA,31.65735567970205
93534,Los Angeles County,CA,59.643522213354615
93535,Los Angeles County,CA,75.60521415270019
93536,Los Angeles County,CA,30.32721468475658
93550,Los Angeles County,CA,7.04974727321096
93551,Los Angeles County,CA,43.01675977653631
93555,Kern County,CA,66.53365256717211
93610,Madera County,CA,93.66852886405958
93611,Fresno County,CA,25.139664804469277
93612,Fresno County,CA,31.683958499600955
93619,Fresno County,CA,64.88427773343975
93622,Fresno County,CA,96.5948390529396
93630,Fresno County,CA,76.03085927108275
93635,Merced County,CA,91.30087789305666
93637,Madera County,CA,19.872306464485234
93638,Madera County,CA,10.77414205905826
93654,Fresno County,CA,87.23064644852354
93657,Fresno County,CA,45.490822027134875
93662,Fresno County,CA,45.19819100824687
93703,Fresno County,CA,31.125299281723862
93704,Fresno County,CA,39.079542431497735
93706,Fresno County,CA,64.27241287576483
93710,Fresno County,CA,51.50305932428837
93711,Fresno County,CA,84.96940675711625
93720,Fresno County,CA,21.46847565841979
93722,Fresno County,CA,67.30513434424049
93727,Fresno County,CA,53.04602287842511
93905,Monterey County,CA,25.32588454376164
93930,Monterey County,CA,88.8268156424581
93933,Monterey County,CA,54.98802873104549
93940,Monterey County,CA,40.4096834264432
93950,Monterey County,CA,84.49055599893589
94010,San Mateo County,CA,73.07794626230381
94025,San Mateo County,CA,71.18914604948124
94063,San Mateo County,CA,81.69725990955041
94070,San Mateo County,CA,73.9558393189678
94080,San Mateo County,CA,20.670391061452513
94085,Santa Clara County,CA,83.21362064378825
94087,Santa Clara County,CA,91.22106943335993
94102,San Francisco County,CA,3.7776004256451183
94103,San Francisco County,CA,6.5442936951316835
94501,Alameda County,CA,25.937749401436548
94531,Contra Costa County,CA,21.86751795690343
94536,Alameda County,CA,54.11013567438149
94538,Alameda County,CA,84.06491088055333
94541,Alameda County,CA,46.18249534450652
94544,Alameda County,CA,71.58818834796489
94546,Alameda County,CA,73.63660548018089
94549,Contra Costa County,CA,76.03085927108275
94551,Alameda County,CA,36.179835062516624
94552,Alameda County,CA,89.54509177972865
94558,Napa County,CA,19.34025006650705
94560,Alameda County,CA,42.83054003724395
94561,Contra Costa County,CA,62.14418728385209
94564,Contra Costa County,CA,80.18089917531258
94565,Contra Costa County,CA,12.769353551476456
94577,Alameda County,CA,24.341580207501995
94588,Alameda County,CA,94.14737962223995
94589,Solano County,CA,48.73636605480181
94608,Alameda County,CA,42.05905826017558
94621,Alameda County,CA,19.952114924181963
94710,Alameda County,CA,98.40383080606544
94806,Contra Costa County,CA,22.186751795690345
94901,Marin County,CA,75.89784517158819
94904,Marin County,CA,90.58260175578611
94928,Sonoma County,CA,50.997605746209096
94941,Marin County,CA,65.38973131151901
94965,Marin County,CA,91.77972865123704
95012,Monterey County,CA,97.02048417132217
95014,Santa Clara County,CA,54.50917797286512
95035,Santa Clara County,CA,71.3487629688747
95046,Santa Clara County,CA,95.02527267890396
95050,Santa Clara County,CA,60.22878425113062
95051,Santa Clara County,CA,32.29582335727587
95076,Santa Cruz County,CA,11.279595637137536
95111,Santa Clara County,CA,61.47911678637935
95116,Santa Clara County,CA,65.94839052939612
95118,Santa Clara County,CA,51.74248470337856
95120,Santa Clara County,CA,84.46395317903698
95122,Santa Clara County,CA,33.599361532322426
95123,Santa Clara County,CA,60.86725192870445
95124,Santa Clara County,CA,47.486033519553075
95125,Santa Clara County,CA,34.87629688747007
95126,Santa Clara County,CA,54.668794892258575
95132,Santa Clara County,CA,70.81670657089651
95136,Santa Clara County,CA,79.24980047885076
95148,Santa Clara County,CA,56.34477254588987
95202,San Joaquin County,CA,18.089917531258312
95203,San Joaquin County,CA,79.6754455972333
95204,San Joaquin County,CA,44.878957169459966
95206,San Joaquin County,CA,12.58313381218409
95212,San Joaquin County,CA,73.68981111997871
95240,San Joaquin County,CA,54.82841181165203
95252,Calaveras County,CA,78.5049215216813
95307,Stanislaus County,CA,54.80180899175312
95326,Stanislaus County,CA,90.5027932960894
95328,Stanislaus County,CA,93.48230912476723
95341,Merced County,CA,78.2388933226922
95348,Merced County,CA,56.131949986698594
95350,Stanislaus County,CA,58.55280659749933
95351,Stanislaus County,CA,42.511306198457035
95354,Stanislaus County,CA,21.415270018621975
95355,Stanislaus County,CA,41.527001862197395
95356,Stanislaus County,CA,27.95956371375366
95358,Stanislaus County,CA,18.967810587922322
95360,Stanislaus County,CA,77.28119180633148
95361,Stanislaus County,CA,28.99707368981112
95367,Stanislaus County,CA,42.93695131683958
95368,Stanislaus County,CA,75.28598031391327
95370,Tuolumne County,CA,15.828677839851025
95376,San Joaquin County,CA,70.07182761372705
95380,Stanislaus County,CA,16.839584996009577
95391,San Joaquin County,CA,76.5097100292631
95403,Sonoma County,CA,37.536578877361
95405,Sonoma County,CA,67.11891460494812
95407,Sonoma County,CA,49.906890130353815
95422,Lake County,CA,49.640861931364725
95423,Lake County,CA,93.24288374567703
95482,Mendocino County,CA,24.714019686086726
95490,Mendocino County,CA,68.02341048151104
95531,Del Norte County,CA,52.407555200851284
95540,Humboldt County,CA,78.63793562117584
95605,Yolo County,CA,96.35541367384943
95608,Sacramento County,CA,27.347698856078743
95620,Solano County,CA,78.53152434158021
95624,Sacramento County,CA,34.663474328278795
95630,Sacramento County,CA,15.96169193934557
95660,Sacramento County,CA,63.0220803405161
95662,Sacramento County,CA,58.60601223729716
95670,Sacramento County,CA,75.55200851290238
95677,Placer County,CA,73.90263367917
95691,Yolo County,CA,40.91513700452248
95747,Placer County,CA,63.979781856876826
95757,Sacramento County,CA,67.97020484171323
95811,Sacramento County,CA,95.95637137536579
95817,Sacramento County,CA,74.11545623836126
95818,Sacramento County,CA,67.59776536312849
95820,Sacramento County,CA,38.733705772811916
95822,Sacramento County,CA,62.38361266294227
95823,Sacramento County,CA,28.065974993349297
95831,Sacramento County,CA,46.315509444001066
95833,Sacramento County,CA,27.37430167597765
95834,Sacramento County,CA,93.29608938547486
95838,Sacramento County,CA,58.97845171588189
95843,Sacramento County,CA,94.09417398244214
95864,Sacramento County,CA,73.9558393189678
95963,Glenn County,CA,64.93748337323755
95965,Butte County,CA,37.376961957967545
95988,Glenn County,CA,93.05666400638468
95991,Sutter County,CA,17.7706836924714
96007,Shasta County,CA,57.488693801542965
96094,Siskiyou County,CA,92.76403298749668
80004,Jefferson County,CO,45.35780792764033
80005,Jefferson County,CO,48.1511040170258
80011,Arapahoe County,CO,64.1660015961692
80013,Arapahoe County,CO,24.022346368715084
80015,Arapahoe County,CO,36.44586326150572
80016,Arapahoe County,CO,13.461026868848098
80022,Adams County,CO,9.523809523809524
80026,Boulder County,CO,50.49215216812982
80031,Adams County,CO,61.904761904761905
80108,Douglas County,CO,36.392657621707905
80109,Douglas County,CO,60.62782654961426
80110,Arapahoe County,CO,84.72998137802608
80111,Arapahoe County,CO,62.22399574354882
80112,Arapahoe County,CO,41.872838520883214
80120,Arapahoe County,CO,52.407555200851284
80121,Arapahoe County,CO,91.51370045224793
80123,Jefferson County,CO,34.9561053471668
80125,Douglas County,CO,91.14126097366321
80128,Jefferson County,CO,79.54243149773876
80130,Douglas County,CO,70.73689811119979
80132,El Paso County,CO,79.9414737962224
80134,Douglas County,CO,67.35833998403831
80138,Douglas County,CO,40.94173982442138
80203,Denver County,CO,61.63873370577281
80204,Denver County,CO,12.689545091779728
80211,Denver County,CO,24.740622505985634
80229,Adams County,CO,7.847831870178239
80231,Denver County,CO,26.0707635009311
80233,Adams County,CO,16.121308858739024
80237,Denver County,CO,65.84197924980047
80238,Denver County,CO,69.67278531524342
80239,Denver County,CO,46.34211226389998
80241,Adams County,CO,44.054269752593775
80249,Denver County,CO,59.48390529396116
80260,Adams County,CO,68.84809789837722
80401,Jefferson County,CO,59.67012503325353
80501,Boulder County,CO,11.91806331471136
80503,Boulder County,CO,91.72652301143921
80525,Larimer County,CO,33.226922053737695
80526,Larimer County,CO,24.60760840649109
80528,Larimer County,CO,74.83373237563181
80538,Larimer County,CO,50.14631550944401
80543,Weld County,CO,93.93455706304869
80601,Adams County,CO,56.424581005586596
80602,Adams County,CO,68.98111199787176
80621,Weld County,CO,67.27853152434157
80631,Weld County,CO,21.122638999733972
80634,Weld County,CO,0.9577015163607342
80642,Weld County,CO,98.61665336525671
80701,Morgan County,CO,12.982176110667732
80817,El Paso County,CO,41.23437084330939
80907,El Paso County,CO,41.10135674381484
80910,El Paso County,CO,14.604948124501197
80911,El Paso County,CO,64.56504389465283
80918,El Paso County,CO,68.4490555998936
80923,El Paso County,CO,50.997605746209096
81008,Pueblo County,CO,80.8193668528864
81125,Saguache County,CO,99.04229848363927
81403,Montrose County,CO,72.35967012503325
81416,Delta County,CO,65.38973131151901
81501,Mesa County,CO,31.444533120510776
81505,Mesa County,CO,85.74088853418462
81521,Mesa County,CO,59.749933492950255
81650,Garfield County,CO,72.04043628624635
06032,Hartford County,CT,90.98164405426975
06037,Hartford County,CT,65.25671721202447
06040,Hartford County,CT,5.347166799680767
06042,Hartford County,CT,25.990955041234372
06053,Hartford County,CT,47.379622239957435
06071,Tolland County,CT,79.01037509976058
06073,Hartford County,CT,98.74966746475127
06074,Hartford County,CT,44.82575152966214
06084,Tolland County,CT,70.12503325352488
06095,Hartford County,CT,62.96887470071828
06096,Hartford County,CT,74.487895716946
06105,Hartford County,CT,12.742750731577548
06106,Hartford County,CT,13.780260707635009
06108,Hartford County,CT,18.515562649640863
06114,Hartford County,CT,35.32854482575153
06268,Tolland County,CT,92.8438414471934
06403,New Haven County,CT,95.61053471667998
06405,New Haven County,CT,28.757648310720935
06410,New Haven County,CT,59.35089119446661
06443,New Haven County,CT,59.2976855546688
06450,New Haven County,CT,2.686884809789838
06451,New Haven County,CT,47.14019686086725
06460,New Haven County,CT,17.93030061186486
06468,Fairfield County,CT,74.99334929502527
06484,Fairfield County,CT,23.676509710029265
06511,New Haven County,CT,28.03937217345038
06512,New Haven County,CT,13.540835328544826
06513,New Haven County,CT,26.78903963820165
06514,New Haven County,CT,22.905027932960895
06516,New Haven County,CT,18.675179569034317
06519,New Haven County,CT,14.152700186219738
06604,Fairfield County,CT,11.54562383612663
06605,Fairfield County,CT,84.5437616387337
06606,Fairfield County,CT,36.71189146049481
06611,Fairfield County,CT,69.22053737696196
06614,Fairfield County,CT,47.08699122106943
06706,New Haven County,CT,49.10880553338654
06708,New Haven County,CT,13.381218409151371
06770,New Haven County,CT,14.418728385208832
06776,Litchfield County,CT,17.4780526735834
06790,Litchfield County,CT,2.793296089385475
06810,Fairfield County,CT,68.39584996009577
06824,Fairfield County,CT,61.13328012769353
06830,Fairfield County,CT,52.886405959031656
06851,Fairfield County,CT,78.66453844107475
06870,Fairfield County,CT,88.560787443469
06897,Fairfield County,CT,69.6461824953445
06902,Fairfield County,CT,12.396914072891727
06906,Fairfield County,CT,97.76536312849163
19702,New Castle County,DE,32.98749667464752
19711,New Castle County,DE,19.233838786911413
19720,New Castle County,DE,1.0907156158552807
19801,New Castle County,DE,26.41660015961692
19805,New Castle County,DE,21.814312317105614
19809,New Castle County,DE,79.83506251662676
19904,Kent County,DE,7.209364192604416
19938,Kent County,DE,56.53099228518222
19945,Sussex County,DE,88.05533386538973
19947,Sussex County,DE,31.92338387869114
19962,Kent County,DE,67.38494280393722
19963,Sussex County,DE,22.71880819366853
19966,Sussex County,DE,45.863261505719606
32025,Columbia County,FL,25.751529662144186
32034,Nassau County,FL,38.52088321362064
32043,Clay County,FL,89.03963820164937
32065,Clay County,FL,29.44932162809258
32082,St. Johns County,FL,46.60814046288906
32084,St. Johns County,FL,18.22293163075286
32091,Bradford County,FL,29.71534982708167
32117,Volusia County,FL,56.34477254588987
32134,Marion County,FL,87.17744080872572
32137,Flagler County,FL,41.39398776270284
32159,Lake County,FL,56.956637403564784
32177,Putnam County,FL,32.53524873636606
32205,Duval County,FL,16.147911678637936
32206,Duval County,FL,12.55653099228518
32207,Duval County,FL,58.36658685820697
32209,Duval County,FL,27.294493216280923
32210,Duval County,FL,1.675977653631285
32211,Duval County,FL,12.423516892790635
32218,Duval County,FL,1.5163607342378291
32225,Duval County,FL,17.744080872572493
32244,Duval County,FL,32.18941207768024
32246,Duval County,FL,33.679169992019155
32254,Duval County,FL,35.19553072625698
32256,Duval County,FL,20.989624900239427
32258,Duval County,FL,44.21388667198723
32301,Leon County,FL,55.33386538973131
32305,Leon County,FL,52.93961159882947
32309,Leon County,FL,68.18302740090449
32311,Leon County,FL,89.0662410215483
32320,Franklin County,FL,98.2708167065709
32327,Wakulla County,FL,70.57728119180634
32340,Madison County,FL,71.50837988826815
32351,Gadsden County,FL,80.10109071561585
32404,Bay County,FL,46.581537642990156
32405,Bay County,FL,68.60867251928704
32433,Walton County,FL,48.36392657621708
32446,Jackson County,FL,53.604682096302206
32459,Walton County,FL,54.775206171854215
32501,Escambia County,FL,43.947858472998135
32504,Escambia County,FL,38.12184091513701
32505,Escambia County,FL,10.614525139664805
32507,Escambia County,FL,60.468209630220805
32526,Escambia County,FL,7.635009310986965
32534,Escambia County,FL,31.73716413939878
32547,Okaloosa County,FL,29.36951316839585
32548,Okaloosa County,FL,54.18994413407822
32571,Santa Rosa County,FL,7.501995211492418
32583,Santa Rosa County,FL,15.775472200053207
32601,Alachua County,FL,89.99733971801011
32615,Alachua County,FL,53.73769619579676
32643,Alachua County,FL,39.638201649374835
32653,Alachua County,FL,53.8707102952913
32680,Dixie County,FL,71.69459962756052
32696,Levy County,FL,51.556264964086196
32707,Seminole County,FL,58.02075019952115
32708,Seminole County,FL,33.12051077414206
32712,Orange County,FL,53.0194200585262
32714,Seminole County,FL,56.47778664538441
32720,Volusia County,FL,47.53923915935089
32726,Lake County,FL,73.90263367917
32738,Volusia County,FL,24.39478584729981
32751,Orange County,FL,63.633945198191014
32757,Lake County,FL,45.570630486831604
32763,Volusia County,FL,49.827081670657094
32765,Seminole County,FL,45.73024740622506
32771,Seminole County,FL,55.89252460760841
32773,Seminole County,FL,70.52407555200851
32780,Brevard County,FL,27.48071295557329
32792,Orange County,FL,49.34823091247672
32805,Orange County,FL,21.14924181963288
32807,Orange County,FL,33.14711359404097
32808,Orange County,FL,77.62702846501729
32809,Orange County,FL,70.39106145251397
32810,Orange County,FL,26.86884809789838
32811,Orange County,FL,44.426709231178506
32812,Orange County,FL,59.37749401436552
32819,Orange County,FL,93.18967810587922
32825,Orange County,FL,20.0585262037776
32828,Orange County,FL,25.219473264166005
32829,Orange County,FL,69.53977121574887
32835,Orange County,FL,47.67225325884544
32837,Orange County,FL,41.68661878159085
32839,Orange County,FL,49.24181963288108
32904,Brevard County,FL,70.25804735301942
32907,Brevard County,FL,34.55706304868316
32909,Brevard County,FL,26.948656557595108
32926,Brevard County,FL,64.43202979515829
32948,Indian River County,FL,93.50891194466614
32967,Indian River County,FL,34.71667996807661
32968,Indian River County,FL,75.73822825219473
33010,Miami-Dade County,FL,84.25113061984571
33012,Miami-Dade County,FL,82.94759244479914
33013,Miami-Dade County,FL,62.94227188081937
33014,Miami-Dade County,FL,84.51715881883479
33015,Miami-Dade County,FL,39.42537909018356
33018,Miami-Dade County,FL,94.41340782122904
33020,Broward County,FL,18.781590848629957
33021,Broward County,FL,35.14232508645917
33023,Broward County,FL,39.31896781058792
33024,Broward County,FL,18.355945730247406
33025,Broward County,FL,52.460760840649115
33026,Broward County,FL,80.12769353551477
33029,Broward County,FL,49.986698590050544
33030,Miami-Dade County,FL,31.604150039904226
33032,Miami-Dade County,FL,64.61824953445065
33034,Miami-Dade County,FL,46.47512636339452
33037,Monroe County,FL,87.44346900771481
33040,Monroe County,FL,31.444533120510776
33054,Miami-Dade County,FL,72.25325884543761
33055,Miami-Dade County,FL,72.97153498270816
33060,Broward County,FL,24.90023942537909
33065,Broward County,FL,69.96541633413142
33067,Broward County,FL,72.14684756584198
33125,Miami-Dade County,FL,83.0806065442937
33134,Miami-Dade County,FL,89.75791433891993
33135,Miami-Dade County,FL,67.83719074221868
33136,Miami-Dade County,FL,72.09364192604416
33137,Miami-Dade County,FL,74.40808725724926
33139,Miami-Dade County,FL,48.76296887470072
33141,Miami-Dade County,FL,79.72865123703113
33142,Miami-Dade County,FL,10.907156158552807
33143,Miami-Dade County,FL,73.68981111997871
33146,Miami-Dade County,FL,97.25990955041235
33147,Miami-Dade County,FL,20.85661080074488
33154,Miami-Dade County,FL,93.72173450385742
33155,Miami-Dade County,FL,66.7198723064645
33156,Miami-Dade County,FL,91.6999201915403
33157,Miami-Dade County,FL,57.91433891992551
33161,Miami-Dade County,FL,22.95823357275871
33162,Miami-Dade County,FL,47.831870178238894
33165,Miami-Dade County,FL,89.51848895982974
33167,Miami-Dade County,FL,52.513966480446925
33168,Miami-Dade County,FL,60.893854748603346
33170,Miami-Dade County,FL,78.45171588188347
33177,Miami-Dade County,FL,66.4804469273743
33178,Miami-Dade County,FL,87.78930566640064
33179,Miami-Dade County,FL,80.63314711359403
33183,Miami-Dade County,FL,72.78531524341581
33186,Miami-Dade County,FL,38.49428039372174
33193,Miami-Dade County,FL,52.088321362064384
33196,Miami-Dade County,FL,55.33386538973131
33304,Broward County,FL,71.9340250066507
33308,Broward County,FL,71.40196860867252
33309,Broward County,FL,78.37190742218675
33311,Broward County,FL,3.192338387869114
33312,Broward County,FL,22.825219473264166
33313,Broward County,FL,62.49002394253791
33314,Broward County,FL,58.712423516892784
33317,Broward County,FL,90.42298483639266
33319,Broward County,FL,88.32136206437883
33322,Broward County,FL,61.904761904761905
33324,Broward County,FL,85.9537110933759
33326,Broward County,FL,73.42378292098962
33334,Broward County,FL,74.62090981644054
33404,Palm Beach County,FL,25.27267890396382
33407,Palm Beach County,FL,18.27613727055068
33409,Palm Beach County,FL,56.21175844639532
33415,Palm Beach County,FL,29.874966746475128
33426,Palm Beach County,FL,72.67890396382016
33433,Palm Beach County,FL,48.709763234902894
33436,Palm Beach County,FL,45.19819100824687
33440,Hendry County,FL,38.22825219473264
33455,Martin County,FL,77.6536312849162
33460,Palm Beach County,FL,33.43974461292897
33461,Palm Beach County,FL,48.443735035913804
33463,Palm Beach County,FL,71.18914604948124
33510,Hillsborough County,FL,45.144985368449056
33527,Hillsborough County,FL,80.12769353551477
33534,Hillsborough County,FL,64.00638467677574
33540,Pasco County,FL,95.55732907688214
33559,Hillsborough County,FL,81.03218941207768
33563,Hillsborough County,FL,35.5413673849428
33566,Hillsborough County,FL,78.74434690077148
33567,Hillsborough County,FL,66.87948922585794
33579,Hillsborough County,FL,63.47432827879756
33594,Hillsborough County,FL,50.54535780792764
33597,Sumter County,FL,89.27906358073956
33603,Hillsborough County,FL,49.853684490556
33604,Hillsborough County,FL,14.365522745411013
33607,Hillsborough County,FL,39.10614525139665
33610,Hillsborough County,FL,7.874434690077148
33612,Hillsborough County,FL,61.26629422718808
33613,Hillsborough County,FL,28.86405959031657
33616,Hillsborough County,FL,86.99122106943335
33617,Hillsborough County,FL,21.787709497206702
33626,Hillsborough County,FL,69.45996275605214
33647,Hillsborough County,FL,39.21255653099229
33702,Pinellas County,FL,40.54269752593775
33705,Pinellas County,FL,17.53125831338122
33710,Pinellas County,FL,72.01383346634744
33711,Pinellas County,FL,87.86911412609737
33713,Pinellas County,FL,42.37829209896249
33760,Pinellas County,FL,69.99201915403033
33770,Pinellas County,FL,46.90077148177707
33771,Pinellas County,FL,32.42883745677042
33805,Polk County,FL,27.134876296887473
33809,Polk County,FL,36.020218143123174
33810,Polk County,FL,49.24181963288108
33823,Polk County,FL,23.41048151104017
33837,Polk County,FL,37.243947858473
33844,Polk County,FL,61.452513966480446
33852,Highlands County,FL,48.84277733439745
33860,Polk County,FL,49.96009577015164
33873,Hardee County,FL,66.16121308858739
33881,Polk County,FL,60.52141527001862
33884,Polk County,FL,48.33732375631817
33897,Polk County,FL,66.29422718808193
33901,Lee County,FL,74.75392391593509
33909,Lee County,FL,30.007980845969673
33916,Lee County,FL,25.937749401436548
33935,Hendry County,FL,69.75259377494014
33936,Lee County,FL,70.7901037509976
33952,Charlotte County,FL,47.32641660015962
33971,Lee County,FL,45.99627560521415
33972,Lee County,FL,81.72386272944932
33973,Lee County,FL,83.82548550146316
33980,Charlotte County,FL,90.71561585528066
33990,Lee County,FL,24.581005586592177
34110,Collier County,FL,75.17956903431764
34116,Collier County,FL,70.15163607342379
34120,Collier County,FL,23.889332269220535
34135,Lee County,FL,36.658685820696995
34142,Collier County,FL,96.48842777334397
34145,Collier County,FL,92.8438414471934
34203,Manatee County,FL,43.38919925512104
34205,Manatee County,FL,21.894120776802342
34207,Manatee County,FL,42.83054003724395
34208,Manatee County,FL,48.60335195530726
34232,Sarasota County,FL,34.42404894918861
34266,DeSoto County,FL,24.048949188613992
34286,Sarasota County,FL,88.74700718276138
34288,Sarasota County,FL,81.19180633147114
34420,Marion County,FL,87.20404362862465
34432,Marion County,FL,87.86911412609737
34436,Citrus County,FL,88.13514232508646
34442,Citrus County,FL,74.195264698058
34476,Marion County,FL,80.31391327480712
34479,Marion County,FL,54.90822027134876
34480,Marion County,FL,49.40143655227454
34482,Marion County,FL,54.216546953977115
34606,Hernando County,FL,30.24740622505986
34609,Hernando County,FL,20.00532056397978
34639,Pasco County,FL,74.99334929502527
34654,Pasco County,FL,69.67278531524342
34668,Pasco County,FL,6.358073955839319
34683,Pinellas County,FL,53.95051875498803
34711,Lake County,FL,63.84676775738228
34731,Lake County,FL,80.55333865389731
34743,Osceola County,FL,34.90289970736898
34744,Osceola County,FL,49.34823091247672
34746,Osceola County,FL,23.969140728917264
34748,Lake County,FL,40.702314445331204
34761,Orange County,FL,27.055067837190744
34785,Sumter County,FL,60.25538707102953
34947,St. Lucie County,FL,42.32508645916467
34950,St. Lucie County,FL,41.340782122905026
34974,Okeechobee County,FL,42.83054003724395
34982,St. Lucie County,FL,41.979249800478854
34994,Martin County,FL,71.40196860867252
30008,Cobb County,GA,53.25884543761639
30012,Rockdale County,GA,42.37829209896249
30013,Rockdale County,GA,68.34264432029795
30014,Newton County,GA,68.10321894120777
30016,Newton County,GA,74.59430699654163
30017,Gwinnett County,GA,55.17424847033786
30019,Gwinnett County,GA,26.73583399840383
30022,Fulton County,GA,63.04868316041501
30024,Gwinnett County,GA,12.370311252992817
30028,Forsyth County,GA,47.91167863793562
30034,DeKalb County,GA,71.66799680766161
30038,DeKalb County,GA,65.84197924980047
30040,Forsyth County,GA,15.61585528065975
30043,Gwinnett County,GA,13.43442404894919
30044,Gwinnett County,GA,60.60122372971535
30045,Gwinnett County,GA,78.07927640329875
30046,Gwinnett County,GA,35.08911944666135
30047,Gwinnett County,GA,48.94918861399308
30058,DeKalb County,GA,41.50039904229848
30060,Cobb County,GA,78.95716945996276
30062,Cobb County,GA,81.98989092843841
30064,Cobb County,GA,81.83027400904496
30068,Cobb County,GA,93.93455706304869
30071,Gwinnett County,GA,94.01436552274541
30075,Fulton County,GA,61.77174780526736
30076,Fulton County,GA,51.636073423782925
30078,Gwinnett County,GA,49.986698590050544
30080,Cobb County,GA,91.59350891194467
30084,DeKalb County,GA,52.513966480446925
30087,DeKalb County,GA,50.75818036711891
30088,DeKalb County,GA,62.67624368183028
30093,Gwinnett County,GA,77.28119180633148
30094,Rockdale County,GA,34.18462357009843
30096,Gwinnett County,GA,68.4490555998936
30097,Fulton County,GA,50.03990422984836
30101,Cobb County,GA,16.068103218941207
30102,Cherokee County,GA,96.75445597233306
30103,Bartow County,GA,60.94706038840118
30114,Cherokee County,GA,76.48310720936419
30116,Carroll County,GA,70.09843043362596
30120,Bartow County,GA,41.31417930300612
30125,Polk County,GA,25.139664804469277
30127,Cobb County,GA,58.632615057196055
30134,Douglas County,GA,78.31870178238893
30141,Paulding County,GA,58.49960095770152
30143,Pickens County,GA,82.04309656823622
30144,Cobb County,GA,23.703112529928173
30157,Paulding County,GA,15.988294759244482
30161,Floyd County,GA,38.78691141260974
30171,Bartow County,GA,99.52114924181963
30173,Floyd County,GA,83.9318967810588
30180,Carroll County,GA,13.673849428039372
30184,Bartow County,GA,92.65762170790104
30188,Cherokee County,GA,13.168395849960095
30214,Fayette County,GA,42.617717478052676
30228,Henry County,GA,19.26044160681032
30233,Butts County,GA,47.831870178238894
30238,Clayton County,GA,40.88853418462357
30240,Troup County,GA,48.018089917531256
30241,Troup County,GA,16.972599095504123
30252,Henry County,GA,79.3828145783453
30253,Henry County,GA,48.60335195530726
30259,Coweta County,GA,99.73397180101091
30260,Clayton County,GA,62.96887470071828
30263,Coweta County,GA,5.613194998669859
30268,Fulton County,GA,73.61000266028199
30269,Fayette County,GA,86.83160415003991
30276,Coweta County,GA,62.75605214152699
30281,Henry County,GA,15.66906092045757
30294,DeKalb County,GA,28.86405959031657
30297,Clayton County,GA,77.70683692471401
30315,Fulton County,GA,18.435754189944134
30316,DeKalb County,GA,42.05905826017558
30324,Fulton County,GA,77.09497206703911
30331,Fulton County,GA,10.00266028198989
30340,DeKalb County,GA,78.45171588188347
30349,Fulton County,GA,3.830806065442937
30360,DeKalb County,GA,97.18010109071562
30401,Emanuel County,GA,62.83586060122373
30427,Tattnall County,GA,80.8193668528864
30453,Tattnall County,GA,89.57169459962756
30458,Bulloch County,GA,56.63740356477787
30461,Bulloch County,GA,67.51795690343177
30504,Hall County,GA,97.33971801010907
30512,Union County,GA,66.29422718808193
30519,Gwinnett County,GA,33.83878691141261
30523,Habersham County,GA,74.94014365522746
30530,Banks County,GA,93.32269220537377
30531,Habersham County,GA,95.42431497738761
30534,Dawson County,GA,29.555732907688213
30536,Gilmer County,GA,94.30699654163341
30540,Gilmer County,GA,37.16413939877627
30542,Hall County,GA,40.38308060654429
30543,Hall County,GA,98.8560787443469
30549,Jackson County,GA,33.97180101090716
30553,Franklin County,GA,86.67198723064645
30622,Oconee County,GA,86.93801542963554
30635,Elbert County,GA,83.29342910348497
30642,Greene County,GA,91.40728917265231
30680,Barrow County,GA,12.184091513700453
30705,Murray County,GA,18.409151370045223
30707,Walker County,GA,29.289704708699123
30721,Whitfield County,GA,46.1292897047087
30736,Catoosa County,GA,5.879223197658952
30740,Whitfield County,GA,81.0853950518755
30741,Walker County,GA,11.465815376429902
30742,Catoosa County,GA,73.07794626230381
30750,Walker County,GA,96.88747007182761
30809,Columbia County,GA,59.217877094972074
30813,Columbia County,GA,19.925512104283055
30814,Columbia County,GA,75.3391859537111
30817,Lincoln County,GA,77.3876030859271
30824,McDuffie County,GA,36.179835062516624
30830,Burke County,GA,40.78212290502793
30901,Richmond County,GA,86.08672519287043
30904,Richmond County,GA,22.31976589518489
30906,Richmond County,GA,37.829209896249
31014,Bleckley County,GA,77.81324820430966
31015,Crisp County,GA,35.5413673849428
31021,Laurens County,GA,62.54322958233573
31031,Wilkinson County,GA,96.43522213354616
31036,Pulaski County,GA,63.580739558393184
31069,Houston County,GA,27.90635807395584
31088,Houston County,GA,33.78558127161479
31217,Bibb County,GA,51.79569034317638
31308,Bryan County,GA,94.2537909018356
31313,Liberty County,GA,54.82841181165203
31322,Chatham County,GA,75.44559723330673
31331,McIntosh County,GA,92.97685554668796
31404,Chatham County,GA,91.48709763234902
31405,Chatham County,GA,37.297153498270816
31406,Chatham County,GA,73.82282521947326
31419,Chatham County,GA,75.55200851290238
31513,Appling County,GA,61.13328012769353
31516,Pierce County,GA,85.74088853418462
31523,Glynn County,GA,80.71295557329077
31533,Coffee County,GA,51.50305932428837
31546,Wayne County,GA,82.09630220803406
31601,Lowndes County,GA,47.91167863793562
31635,Lanier County,GA,93.64192604416068
31636,Lowndes County,GA,93.24288374567703
31643,Brooks County,GA,59.138068635275346
31707,Dougherty County,GA,38.60069167331737
31714,Turner County,GA,68.92790635807395
31721,Dougherty County,GA,67.75738228252195
31730,Mitchell County,GA,73.9558393189678
31763,Lee County,GA,37.855812716147916
31768,Colquitt County,GA,55.20085129023676
31771,Colquitt County,GA,99.36153232242619
31792,Thomas County,GA,22.3463687150838
31804,Harris County,GA,97.79196594839053
31903,Muscogee County,GA,21.441872838520883
31906,Muscogee County,GA,80.55333865389731
31907,Muscogee County,GA,3.963820164937484
39823,Early County,GA,53.81750465549349
39828,Grady County,GA,60.52141527001862
39842,Terrell County,GA,55.38707102952913
96701,Honolulu County,HI,22.053737696195796
96707,Honolulu County,HI,58.95184889598297
96720,Hawaii County,HI,21.46847565841979
96756,Kauai County,HI,96.56823623304071
96778,Hawaii County,HI,61.63873370577281
96782,Honolulu County,HI,59.67012503325353
96792,Honolulu County,HI,6.517690875232775
96793,Maui County,HI,89.91753125831337
96797,Honolulu County,HI,3.9904229848363926
96817,Honolulu County,HI,6.304868316041501
96819,Honolulu County,HI,34.53046022878425
83201,Bannock County,ID,13.514232508645915
83221,Bingham County,ID,50.43894652833201
83341,Twin Falls County,ID,92.01915403032721
83355,Gooding County,ID,99.49454642192073
83401,Bonneville County,ID,32.21601489757914
83501,Nez Perce County,ID,31.364724660814048
83634,Ada County,ID,63.39451981910082
83644,Canyon County,ID,85.20883213620644
83672,Washington County,ID,72.27986166533653
83702,Ada County,ID,52.67358339984038
83704,Ada County,ID,9.63022080340516
83815,Kootenai County,ID,59.05826017557862
83854,Kootenai County,ID,55.54668794892259
60004,Cook County,IL,14.950784783187018
60007,Cook County,IL,42.64432029795158
60008,Cook County,IL,58.97845171588189
60010,Lake County,IL,62.33040702314445
60013,McHenry County,IL,45.91646714551742
60014,McHenry County,IL,14.658153764299014
60016,Cook County,IL,14.445331205107742
60018,Cook County,IL,52.16812982176111
60022,Cook County,IL,85.74088853418462
60025,Cook County,IL,30.593242883745674
60031,Lake County,IL,70.57728119180634
60035,Lake County,IL,31.763766959297683
60044,Lake County,IL,78.53152434158021
60048,Lake County,IL,39.904229848363926
60050,McHenry County,IL,62.11758446395318
60051,McHenry County,IL,91.46049481245012
60053,Cook County,IL,90.05054535780793
60056,Cook County,IL,26.602819898909285
60060,Lake County,IL,35.67438148443735
60062,Cook County,IL,26.895450917797287
60064,Lake County,IL,69.67278531524342
60073,Lake County,IL,55.20085129023676
60085,Lake County,IL,36.79169992019154
60087,Lake County,IL,59.563713753657886
60099,Lake County,IL,64.08619313647247
60101,DuPage County,IL,16.919393455706306
60102,McHenry County,IL,34.79648842777334
60103,DuPage County,IL,17.424847033785582
60104,Cook County,IL,63.15509444001064
60106,DuPage County,IL,82.20271348762968
60110,Kane County,IL,36.55227454110136
60112,DeKalb County,IL,98.05799414737962
60115,DeKalb County,IL,27.640329874966746
60120,Kane County,IL,69.45996275605214
60124,Kane County,IL,53.17903697791966
60126,DuPage County,IL,5.18754988028731
60131,Cook County,IL,64.43202979515829
60143,DuPage County,IL,80.89917531258314
60152,McHenry County,IL,90.05054535780793
60164,Cook County,IL,27.40090449587656
60174,Kane County,IL,68.28943868050014
60175,Kane County,IL,17.05240755520085
60177,Kane County,IL,78.66453844107475
60181,DuPage County,IL,87.78930566640064
60185,DuPage County,IL,25.059856344772548
60187,DuPage County,IL,25.352487363660547
60188,DuPage County,IL,10.986964618249534
60193,Cook County,IL,26.629422718808193
60402,Cook County,IL,6.1984570364458635
60411,Cook County,IL,6.969938813514233
60417,Will County,IL,90.8486299547752
60419,Cook County,IL,33.14711359404097
60423,Will County,IL,28.11918063314711
60426,Cook County,IL,44.666134610268685
60431,Will County,IL,27.720138334663474
60436,Will County,IL,77.99946794360201
60438,Cook County,IL,31.976589518488964
60439,Cook County,IL,31.816972599095507
60445,Cook County,IL,44.90555998935887
60447,Grundy County,IL,45.46421920723597
60448,Will County,IL,44.10747539239159
60451,Will County,IL,11.625432295823357
60452,Cook County,IL,36.87150837988827
60453,Cook County,IL,7.688214950784783
60455,Cook County,IL,36.951316839585
60463,Cook County,IL,66.40063846767758
60466,Cook County,IL,85.1024208566108
60471,Cook County,IL,62.463421122639
60472,Cook County,IL,94.5730247406225
60477,Cook County,IL,15.988294759244482
60484,Will County,IL,97.23330673051343
60490,Will County,IL,50.704974727321094
60491,Will County,IL,23.83612662942272
60502,DuPage County,IL,40.99494546421921
60504,DuPage County,IL,59.084862995477515
60505,Kane County,IL,19.499866985900503
60510,Kane County,IL,58.712423516892784
60513,Cook County,IL,64.35222133546155
60523,DuPage County,IL,79.88826815642457
60526,Cook County,IL,66.08140462889067
60527,DuPage County,IL,39.58499600957702
60542,Kane County,IL,55.73290768821495
60543,Kendall County,IL,24.18196328810854
60546,Cook County,IL,70.89651503059325
60558,Cook County,IL,80.36711891460496
60563,DuPage County,IL,33.14711359404097
60564,Will County,IL,25.485501463155096
60565,DuPage County,IL,19.31364724660814
60585,Will County,IL,44.320297951582866
60608,Cook County,IL,61.63873370577281
60609,Cook County,IL,5.639797818568768
60613,Cook County,IL,17.05240755520085
60615,Cook County,IL,14.817770683692471
60617,Cook County,IL,37.05772811918063
60618,Cook County,IL,21.09603617983506
60619,Cook County,IL,16.6267624368183
60620,Cook County,IL,52.03511572226655
60621,Cook County,IL,85.34184623570098
60622,Cook County,IL,24.84703378558127
60623,Cook County,IL,63.36791699920191
60625,Cook County,IL,25.751529662144186
60626,Cook County,IL,39.265762170790104
60628,Cook County,IL,18.54216546953977
60629,Cook County,IL,2.819898909284384
60630,Cook County,IL,13.993083266826284
60632,Cook County,IL,75.6850226123969
60634,Cook County,IL,24.368183027400907
60636,Cook County,IL,21.92072359670125
60638,Cook County,IL,44.45331205107742
60639,Cook County,IL,76.08406491088056
60640,Cook County,IL,4.389465283320032
60641,Cook County,IL,7.182761372705507
60643,Cook County,IL,4.362862463421123
60644,Cook County,IL,39.58499600957702
60645,Cook County,IL,59.40409683426443
60646,Cook County,IL,36.951316839585
60647,Cook County,IL,53.684490555998934
60649,Cook County,IL,7.528598031391327
60651,Cook County,IL,4.0968342644320295
60655,Cook County,IL,71.00292631018888
60656,Cook County,IL,36.312849162011176
60657,Cook County,IL,41.8462357009843
60660,Cook County,IL,16.546953977121575
60804,Cook County,IL,40.250066507049745
60805,Cook County,IL,64.11279595637137
60901,Kankakee County,IL,9.337589784517158
60914,Kankakee County,IL,21.54828411811652
60942,Vermilion County,IL,88.13514232508646
60970,Iroquois County,IL,72.5192870444267
61010,Ogle County,IL,76.45650438946528
61080,Winnebago County,IL,80.26070763500931
61101,Winnebago County,IL,34.79648842777334
61103,Winnebago County,IL,42.245277999467945
61108,Winnebago County,IL,92.68422452779996
61109,Winnebago County,IL,32.72146847565842
61115,Winnebago County,IL,40.56930034583666
61201,Rock Island County,IL,61.026868848097905
61252,Whiteside County,IL,93.4025006650705
61254,Henry County,IL,91.77972865123704
61356,Bureau County,IL,67.17212024474594
61401,Knox County,IL,50.86459164671455
61455,McDonough County,IL,81.9366852886406
61554,Tazewell County,IL,18.063314711359403
61603,Peoria County,IL,56.930034583665865
61604,Peoria County,IL,80.20750199521149
61611,Tazewell County,IL,65.38973131151901
61704,McLean County,IL,26.15057196062783
61705,McLean County,IL,74.27507315775472
61802,Champaign County,IL,52.64698057994147
61821,Champaign County,IL,29.42271880819367
62010,Madison County,IL,72.14684756584198
62206,St. Clair County,IL,85.98031391327481
62233,Randolph County,IL,94.38680500133015
62269,St. Clair County,IL,85.15562649640862
62301,Adams County,IL,22.186751795690345
62521,Macon County,IL,28.86405959031657
62526,Macon County,IL,27.108273476988558
62550,Shelby County,IL,98.21761106677307
62561,Sangamon County,IL,98.21761106677307
62565,Shelby County,IL,79.6222399574355
62703,Sangamon County,IL,18.595371109337588
62704,Sangamon County,IL,69.14072891726522
62859,Hamilton County,IL,96.11598829475925
62864,Jefferson County,IL,35.38175046554935
62948,Williamson County,IL,58.659217877094974
62960,Massac County,IL,83.29342910348497
62966,Jackson County,IL,54.50917797286512
46038,Hamilton County,IN,47.752061718542166
46072,Tipton County,IN,71.45517424847034
46074,Hamilton County,IN,55.121042830540034
46112,Hendricks County,IN,43.043362596435216
46113,Marion County,IN,85.02261239691407
46123,Hendricks County,IN,70.52407555200851
46142,Johnson County,IN,30.460228784251132
46160,Brown County,IN,97.87177440808725
46176,Shelby County,IN,8.832136206437882
46204,Marion County,IN,28.9438680500133
46208,Marion County,IN,22.95823357275871
46217,Marion County,IN,40.170258047353016
46218,Marion County,IN,4.921521681298217
46222,Marion County,IN,40.356477786645385
46224,Marion County,IN,53.604682096302206
46226,Marion County,IN,63.261505719606284
46227,Marion County,IN,4.894918861399308
46228,Marion County,IN,72.70550678371907
46229,Marion County,IN,14.392125565309923
46235,Marion County,IN,11.572226656025538
46239,Marion County,IN,43.62862463421123
46241,Marion County,IN,11.705240755520085
46254,Marion County,IN,43.73503591380686
46303,Lake County,IN,67.9169992019154
46307,Lake County,IN,0.5852620377760043
46310,Jasper County,IN,40.99494546421921
46312,Lake County,IN,69.32694865655759
46319,Lake County,IN,16.28092577813248
46322,Lake County,IN,46.71455174248471
46324,Lake County,IN,9.577015163607342
46327,Lake County,IN,52.27454110135674
46342,Lake County,IN,31.20510774142059
46347,Porter County,IN,89.6781058792232
46350,LaPorte County,IN,4.522479382814578
46368,Porter County,IN,9.28438414471934
46375,Lake County,IN,20.271348762968874
46383,Porter County,IN,3.6711891460494814
46392,Jasper County,IN,85.23543495610535
46404,Lake County,IN,21.601489757914337
46405,Lake County,IN,63.76695929768555
46410,Lake County,IN,3.165735567970205
46506,Marshall County,IN,90.87523277467412
46516,Elkhart County,IN,70.23144453312051
46528,Elkhart County,IN,67.38494280393722
46563,Marshall County,IN,28.252194732641662
46580,Kosciusko County,IN,68.55546687948923
46582,Kosciusko County,IN,90.92843841447194
46613,St. Joseph County,IN,84.14471934025006
46615,St. Joseph County,IN,88.88002128225591
46619,St. Joseph County,IN,43.12317105613195
46706,DeKalb County,IN,67.83719074221868
46714,Wells County,IN,78.42511306198458
46733,Adams County,IN,29.635541367384942
46748,Allen County,IN,91.9925512104283
46750,Huntington County,IN,11.412609736632083
46803,Allen County,IN,81.40462889066241
46807,Allen County,IN,73.02474062250599
46814,Allen County,IN,77.22798616653365
46816,Allen County,IN,18.24953445065177
46825,Allen County,IN,61.47911678637935
46845,Allen County,IN,47.77866453844107
46901,Howard County,IN,0.6650704974727321
46902,Howard County,IN,1.5429635541367386
46947,Cass County,IN,6.437882415536047
46952,Grant County,IN,10.481511040170258
46970,Miami County,IN,44.79914870976324
47006,Ripley County,IN,64.21920723596702
47106,Clark County,IN,97.55254056930035
47112,Harrison County,IN,45.490822027134875
47122,Floyd County,IN,88.88002128225591
47130,Clark County,IN,5.001330140994945
47167,Washington County,IN,38.441074753923914
47220,Jackson County,IN,88.69380154296356
47250,Jefferson County,IN,57.940941739824424
47331,Fayette County,IN,8.220271348762969
47374,Wayne County,IN,1.8089917531258313
47424,Greene County,IN,95.90316573556798
47432,Orange County,IN,95.18488959829742
47460,Owen County,IN,89.81111997871774
47546,Dubois County,IN,40.728917265230116
47581,Martin County,IN,98.69646182495345
47670,Gibson County,IN,71.82761372705507
47714,Vanderburgh County,IN,30.859271082734768
47715,Vanderburgh County,IN,18.781590848629957
47720,Vanderburgh County,IN,67.0125033253525
47834,Clay County,IN,20.11173184357542
47842,Vermillion County,IN,58.97845171588189
47909,Tippecanoe County,IN,62.54322958233573
50009,Polk County,IA,61.13328012769353
50021,Polk County,IA,66.7198723064645
50201,Story County,IA,80.36711891460496
50265,Polk County,IA,26.81564245810056
50266,Polk County,IA,71.10933758978452
50311,Polk County,IA,38.60069167331737
50314,Polk County,IA,32.74807129555733
50315,Polk County,IA,4.309656823623304
50316,Polk County,IA,28.62463421122639
50320,Polk County,IA,36.07342378292099
50321,Polk County,IA,96.0095770151636
50323,Dallas County,IA,95.7169459962756
50401,Cerro Gordo County,IA,6.27826549614259
50588,Buena Vista County,IA,28.54482575152966
50613,Black Hawk County,IA,37.35035913806863
50701,Black Hawk County,IA,21.574886938015432
50801,Union County,IA,62.59643522213355
51031,Plymouth County,IA,92.79063580739559
51104,Woodbury County,IA,67.59776536312849
51105,Woodbury County,IA,85.52806597499335
51106,Woodbury County,IA,36.25964352221335
51501,Pottawattamie County,IA,23.30407023144453
51503,Pottawattamie County,IA,21.282255919127426
51632,Page County,IA,89.99733971801011
52172,Allamakee County,IA,76.8023410481511
52233,Linn County,IA,88.13514232508646
52317,Johnson County,IA,39.34557063048683
52402,Linn County,IA,11.19978717744081
52404,Linn County,IA,4.256451183825486
52501,Wapello County,IA,52.779994679436015
52544,Appanoose County,IA,29.44932162809258
52577,Mahaska County,IA,24.84703378558127
52601,Des Moines County,IA,6.624102154828412
52627,Lee County,IA,31.816972599095507
52732,Clinton County,IA,12.795956371375366
52742,Clinton County,IA,83.58606012237297
52806,Scott County,IA,42.165469539771216
52807,Scott County,IA,75.09976057462092
66048,Leavenworth County,KS,20.324554402766694
66049,Douglas County,KS,46.15589252460761
66061,Johnson County,KS,11.51902101622772
66062,Johnson County,KS,46.23570098430434
66102,Wyandotte County,KS,39.79781856876829
66104,Wyandotte County,KS,17.1854216546954
66106,Wyandotte County,KS,34.42404894918861
66204,Johnson County,KS,64.27241287576483
66208,Johnson County,KS,79.0901835594573
66502,Riley County,KS,88.98643256185156
66503,Riley County,KS,93.74833732375632
66547,Pottawatomie County,KS,83.42644320297951
66605,Shawnee County,KS,37.483373237563185
66607,Shawnee County,KS,77.3610002660282
66618,Shawnee County,KS,88.26815642458101
66720,Neosho County,KS,72.70550678371907
66801,Lyon County,KS,38.25485501463155
66839,Coffey County,KS,95.31790369779196
67042,Butler County,KS,51.077414205905825
67114,Harvey County,KS,72.27986166533653
67204,Sedgwick County,KS,91.85953711093376
67211,Sedgwick County,KS,42.245277999467945
67213,Sedgwick County,KS,52.59377494014365
67215,Sedgwick County,KS,99.4413407821229
67217,Sedgwick County,KS,86.75179569034319
67218,Sedgwick County,KS,67.46475126363394
67226,Sedgwick County,KS,82.60175578611333
67357,Labette County,KS,71.24235168927906
67401,Saline County,KS,41.73982442138867
67501,Reno County,KS,58.712423516892784
67530,Barton County,KS,60.38840117052408
67801,Ford County,KS,47.69885607874434
67871,Scott County,KS,54.98802873104549
67901,Seward County,KS,67.97020484171323
40031,Oldham County,KY,20.48417132216015
40033,Marion County,KY,47.96488427773344
40047,Bullitt County,KY,51.981910082468744
40065,Shelby County,KY,28.305400372439475
40071,Spencer County,KY,43.788241553604685
40150,Bullitt County,KY,90.63580739558394
40160,Hardin County,KY,20.510774142059056
40203,Jefferson County,KY,12.902367650971003
40207,Jefferson County,KY,62.702846501729184
40210,Jefferson County,KY,29.130087789305666
40215,Jefferson County,KY,10.933758978451715
40216,Jefferson County,KY,22.372971534982707
40218,Jefferson County,KY,7.368981111997871
40219,Jefferson County,KY,29.07688214950785
40229,Jefferson County,KY,27.85315243415802
40245,Jefferson County,KY,84.75658419792498
40299,Jefferson County,KY,57.54189944134078
40351,Rowan County,KY,12.849162011173185
40356,Jessamine County,KY,7.608406491088056
40380,Powell County,KY,63.76695929768555
40391,Clark County,KY,4.043628624634212
40409,Rockcastle County,KY,97.25990955041235
40422,Boyle County,KY,35.32854482575153
40475,Madison County,KY,3.910614525139665
40505,Fayette County,KY,14.09949454642192
40509,Fayette County,KY,56.1585528065975
40514,Fayette County,KY,89.57169459962756
40515,Fayette County,KY,37.243947858473
40701,Whitley County,KY,25.432295823357276
40962,Clay County,KY,10.720936419260441
41011,Kenton County,KY,7.741420590582601
41015,Kenton County,KY,48.922585794094175
41017,Kenton County,KY,19.73929236499069
41040,Pendleton County,KY,84.78318701782389
41042,Boone County,KY,15.349827081670659
41048,Boone County,KY,77.57382282521948
41091,Boone County,KY,63.76695929768555
41230,Lawrence County,KY,15.403032721468476
42001,McCracken County,KY,18.382548550146318
42025,Marshall County,KY,30.61984570364459
42048,Marshall County,KY,98.05799414737962
42066,Graves County,KY,13.487629688747008
42101,Warren County,KY,3.0593242883745675
42171,Warren County,KY,76.19047619047619
42276,Logan County,KY,76.40329874966747
42303,Daviess County,KY,44.852354349561054
42408,Hopkins County,KY,72.83852088321362
42420,Henderson County,KY,43.36259643522213
42445,Caldwell County,KY,59.93615323224262
42455,Webster County,KY,93.08326682628359
42503,Pulaski County,KY,30.40702314445331
42633,Wayne County,KY,40.27666932694866
42642,Russell County,KY,92.17877094972067
42653,McCreary County,KY,91.14126097366321
42718,Taylor County,KY,28.305400372439475
42721,Grayson County,KY,86.59217877094973
42728,Adair County,KY,91.62011173184358
42743,Green County,KY,85.28864059590316
70002,Jefferson Parish,LA,33.91859537110934
70003,Jefferson Parish,LA,3.857408885341846
70006,Jefferson Parish,LA,38.04203245544028
70037,Plaquemines Parish,LA,29.36951316839585
70043,St. Bernard Parish,LA,8.300079808459698
70047,St. Charles Parish,LA,62.14418728385209
70058,Jefferson Parish,LA,0.8246874168661877
70065,Jefferson Parish,LA,1.7291832934291034
70070,St. Charles Parish,LA,50.172918329342906
70072,Jefferson Parish,LA,0.4256451183825486
70090,St. James Parish,LA,65.76217079010375
70092,St. Bernard Parish,LA,54.40276669326949
70094,Jefferson Parish,LA,45.96967278531524
70114,Orleans Parish,LA,5.400372439478584
70115,Orleans Parish,LA,80.44692737430168
70117,Orleans Parish,LA,54.349561053471675
70122,Orleans Parish,LA,14.604948124501197
70123,Jefferson Parish,LA,10.641127959563713
70124,Orleans Parish,LA,70.65708965150306
70126,Orleans Parish,LA,16.36073423782921
70127,Orleans Parish,LA,18.834796488427774
70128,Orleans Parish,LA,35.19553072625698
70301,Lafourche Parish,LA,8.406491088055335
70343,Terrebonne Parish,LA,95.77015163607342
70345,Lafourche Parish,LA,94.8656557595105
70363,Terrebonne Parish,LA,26.33679169992019
70364,Terrebonne Parish,LA,3.5381750465549344
70380,St. Mary Parish,LA,43.5488161745145
70433,St. Tammany Parish,LA,3.0327214684756583
70437,St. Tammany Parish,LA,49.66746475126364
70444,Tangipahoa Parish,LA,34.90289970736898
70448,St. Tammany Parish,LA,61.718542165469536
70458,St. Tammany Parish,LA,2.527267890396382
70461,St. Tammany Parish,LA,9.470603884011705
70501,Lafayette Parish,LA,7.954243149773877
70508,Lafayette Parish,LA,8.53950518754988
70510,Vermilion Parish,LA,5.480180899175313
70520,Lafayette Parish,LA,44.74594306996541
70525,Acadia Parish,LA,37.32375631816973
70526,Acadia Parish,LA,14.684756584197926
70535,St. Landry Parish,LA,16.786379356211757
70538,St. Mary Parish,LA,29.954775206171853
70544,Iberia Parish,LA,56.850226123969136
70548,Vermilion Parish,LA,57.46209098164405
70549,Jefferson Davis Parish,LA,80.47353019420058
70560,Iberia Parish,LA,90.76882149507848
70586,Evangeline Parish,LA,33.28012769353552
70601,Calcasieu Parish,LA,89.78451715881883
70605,Calcasieu Parish,LA,10.34849694067571
70611,Calcasieu Parish,LA,17.71747805267358
70634,Beauregard Parish,LA,47.24660814046289
70656,Vernon Parish,LA,82.49534450651768
70663,Calcasieu Parish,LA,4.017025804735302
70669,Calcasieu Parish,LA,43.38919925512104
70706,Livingston Parish,LA,20.404362862463422
70734,Ascension Parish,LA,85.68768289438681
70737,Ascension Parish,LA,51.449853684490556
70757,Iberville Parish,LA,86.08672519287043
70764,Iberville Parish,LA,22.133546155892525
70769,Ascension Parish,LA,23.942537909018355
70774,Ascension Parish,LA,77.54722000532055
70788,Iberville Parish,LA,95.21149241819633
70805,East Baton Rouge Parish,LA,1.1173184357541899
70809,East Baton Rouge Parish,LA,41.71322160148976
70810,East Baton Rouge Parish,LA,3.804203245544028
70811,East Baton Rouge Parish,LA,16.49374833732376
70812,East Baton Rouge Parish,LA,17.158818834796488
70815,East Baton Rouge Parish,LA,8.672519287044427
70816,East Baton Rouge Parish,LA,15.482841181165202
70817,East Baton Rouge Parish,LA,88.66719872306464
70820,East Baton Rouge Parish,LA,94.59962756052141
71019,Red River Parish,LA,50.359138068635275
71047,Caddo Parish,LA,40.09044958765629
71055,Webster Parish,LA,9.7366320830008
71106,Caddo Parish,LA,16.75977653631285
71107,Caddo Parish,LA,97.07368981111998
71109,Caddo Parish,LA,90.15695663740357
71111,Bossier Parish,LA,2.261239691407289
71118,Caddo Parish,LA,62.250598563447724
71119,Caddo Parish,LA,78.74434690077148
71201,Ouachita Parish,LA,22.798616653365254
71202,Ouachita Parish,LA,14.126097366320831
71203,Ouachita Parish,LA,4.150039904229849
71232,Richland Parish,LA,35.88720404362862
71234,Union Parish,LA,91.75312583133812
71292,Ouachita Parish,LA,6.783719074221868
71295,Franklin Parish,LA,10.508113860069166
71301,Rapides Parish,LA,18.994413407821227
71351,Avoyelles Parish,LA,19.499866985900503
71430,Rapides Parish,LA,97.9781856876829
71446,Vernon Parish,LA,96.91407289172652
71457,Natchitoches Parish,LA,2.9529130087789306
71463,Allen Parish,LA,49.77387603085927
71483,Winn Parish,LA,26.762436818302742
04062,Cumberland County,ME,44.63953179036978
04093,York County,ME,92.41819632881085
04102,Cumberland County,ME,22.6389997339718
04240,Androscoggin County,ME,0.6916733173716414
04282,Androscoggin County,ME,78.93056664006384
04401,Penobscot County,ME,0.6384676775738228
04785,Aroostook County,ME,98.80287310454908
20619,St. Mary's County,MD,83.13381218409151
20710,Prince George's County,MD,98.11119978717744
20715,Prince George's County,MD,57.22266560255387
20724,Anne Arundel County,MD,79.54243149773876
20743,Prince George's County,MD,76.13727055067837
20774,Prince George's County,MD,30.859271082734768
20785,Prince George's County,MD,43.62862463421123
20817,Montgomery County,MD,90.63580739558394
20853,Montgomery County,MD,75.17956903431764
20854,Montgomery County,MD,53.072625698324025
20872,Montgomery County,MD,91.40728917265231
20876,Montgomery County,MD,58.4463953179037
20886,Montgomery County,MD,68.4490555998936
20904,Montgomery County,MD,79.22319765895185
20906,Montgomery County,MD,74.32827879755254
21009,Harford County,MD,35.38175046554935
21012,Anne Arundel County,MD,73.3705772811918
21014,Harford County,MD,63.633945198191014
21017,Harford County,MD,89.09284384144719
21032,Anne Arundel County,MD,97.15349827081671
21043,Howard County,MD,86.27294493216282
21044,Howard County,MD,36.312849162011176
21048,Carroll County,MD,89.6781058792232
21050,Harford County,MD,63.687150837988824
21060,Anne Arundel County,MD,17.637669592976856
21075,Howard County,MD,57.08965150305932
21078,Harford County,MD,37.58978451715882
21093,Baltimore County,MD,30.11439212556531
21114,Anne Arundel County,MD,54.32295823357276
21117,Baltimore County,MD,52.7001862197393
21122,Anne Arundel County,MD,54.37616387337057
21132,Harford County,MD,97.52593774940144
21133,Baltimore County,MD,47.77866453844107
21144,Anne Arundel County,MD,46.50172918329343
21207,Baltimore County,MD,13.221601489757914
21208,Baltimore County,MD,80.8193668528864
21211,Baltimore city,MD,64.51183825485501
21213,Baltimore city,MD,38.91992551210428
21214,Baltimore city,MD,49.40143655227454
21215,Baltimore city,MD,3.750997605746209
21217,Baltimore city,MD,13.32801276935355
21220,Baltimore County,MD,58.393189678105884
21224,Baltimore city,MD,8.91194466613461
21225,Baltimore city,MD,23.43708433093908
21227,Baltimore County,MD,42.91034849694068
21228,Baltimore County,MD,39.531790369779195
21236,Baltimore County,MD,26.576217079010373
21403,Anne Arundel County,MD,52.7267890396382
21673,Talbot County,MD,95.50412343708433
21703,Frederick County,MD,50.359138068635275
21710,Frederick County,MD,97.39292364990689
21771,Frederick County,MD,53.55147645650439
21811,Worcester County,MD,45.81005586592179
21911,Cecil County,MD,68.92790635807395
01005,Worcester County,MA,62.41021548284118
01040,Hampden County,MA,15.190210162277202
01089,Hampden County,MA,96.70125033253525
01104,Hampden County,MA,0.5054535780792765
01105,Hampden County,MA,1.1705240755520085
01107,Hampden County,MA,2.899707368981112
01108,Hampden County,MA,25.67172120244746
01301,Franklin County,MA,5.985634477254589
01331,Worcester County,MA,1.8355945730247407
01376,Franklin County,MA,96.0095770151636
01420,Worcester County,MA,51.42325086459165
01453,Worcester County,MA,0.3192338387869114
01501,Worcester County,MA,97.02048417132217
01520,Worcester County,MA,30.16759776536313
01527,Worcester County,MA,42.37829209896249
01603,Worcester County,MA,6.650704974727321
01606,Worcester County,MA,10.05586592178771
01610,Worcester County,MA,61.87815908486299
01701,Middlesex County,MA,25.03325352487364
01748,Middlesex County,MA,31.098696461824954
01752,Middlesex County,MA,1.2769353551476457
01772,Worcester County,MA,89.89092843841448
01778,Middlesex County,MA,73.53019420058527
01801,Middlesex County,MA,4.389465283320032
01803,Middlesex County,MA,11.731843575418994
01821,Middlesex County,MA,2.1814312317105613
01824,Middlesex County,MA,42.963554136738495
01826,Middlesex County,MA,12.955573290768822
01833,Essex County,MA,91.91274275073158
01841,Essex County,MA,84.09151370045225
01844,Essex County,MA,0.3458366586858207
01860,Essex County,MA,77.3876030859271
01880,Middlesex County,MA,3.2189412077680233
01887,Middlesex County,MA,3.006118648576749
01890,Middlesex County,MA,66.42724128757649
01902,Essex County,MA,53.445065176908756
01923,Essex County,MA,92.73743016759776
01930,Essex County,MA,1.3833466347432828
01938,Essex County,MA,34.317637669592976
01983,Essex County,MA,82.09630220803406
02026,Norfolk County,MA,1.8888002128225592
02030,Norfolk County,MA,92.33838786911413
02052,Norfolk County,MA,82.30912476722533
02062,Norfolk County,MA,7.661612130885874
02072,Norfolk County,MA,41.154562383612664
02111,Suffolk County,MA,47.43282787975525
02119,Suffolk County,MA,26.523011439212556
02127,Suffolk County,MA,0.4788507581803671
02128,Suffolk County,MA,95.47752061718542
02130,Suffolk County,MA,19.79249800478851
02131,Suffolk County,MA,61.58552806597499
02132,Suffolk County,MA,6.384676775738228
02136,Suffolk County,MA,87.15083798882681
02139,Middlesex County,MA,0
02141,Middlesex County,MA,17.79728651237031
02143,Middlesex County,MA,15.057196062782655
02148,Middlesex County,MA,56.90343176376695
02150,Suffolk County,MA,60.1755786113328
02171,Norfolk County,MA,92.8438414471934
02189,Norfolk County,MA,13.833466347432827
02302,Plymouth County,MA,54.56238361266295
02347,Plymouth County,MA,65.01729183293429
02368,Norfolk County,MA,94.8124501197127
02375,Bristol County,MA,43.575418994413404
02420,Middlesex County,MA,24.288374567704178
02446,Norfolk County,MA,11.226389997339718
02453,Middlesex County,MA,84.57036445863262
02474,Middlesex County,MA,7.129555732907688
02568,Dukes County,MA,62.83586060122373
02571,Plymouth County,MA,88.45437616387338
02632,Barnstable County,MA,36.63208300079808
02703,Bristol County,MA,0.23942537909018355
02720,Bristol County,MA,76.90875232774674
02723,Bristol County,MA,0.9044958765629156
02724,Bristol County,MA,1.4631550944400107
02743,Bristol County,MA,45.2779994679436
02745,Bristol County,MA,0.7182761372705506
02746,Bristol County,MA,66.45384410747539
02760,Bristol County,MA,26.0707635009311
02777,Bristol County,MA,79.06358073955839
48035,Macomb County,MI,5.107741420590583
48038,Macomb County,MI,6.943335993615324
48042,Macomb County,MI,13.088587390263367
48044,Macomb County,MI,39.55839318967811
48047,Macomb County,MI,7.4487895716946
48051,Macomb County,MI,77.81324820430966
48060,St. Clair County,MI,36.12662942271881
48065,Macomb County,MI,68.66187815908486
48066,Macomb County,MI,10.37509976057462
48067,Oakland County,MI,24.18196328810854
48076,Oakland County,MI,19.898909284384146
48081,Macomb County,MI,26.177174780526734
48083,Oakland County,MI,45.81005586592179
48085,Oakland County,MI,19.154030327214684
48088,Macomb County,MI,32.10960361798351
48092,Macomb County,MI,18.435754189944134
48101,Wayne County,MI,44.772545889864325
48103,Washtenaw County,MI,32.24261771747805
48114,Livingston County,MI,39.718010109071564
48118,Washtenaw County,MI,71.37536578877362
48122,Wayne County,MI,43.043362596435216
48124,Wayne County,MI,40.06384676775738
48126,Wayne County,MI,5.21415270018622
48131,Monroe County,MI,92.01915403032721
48133,Monroe County,MI,89.94413407821229
48135,Wayne County,MI,64.1926044160681
48141,Wayne County,MI,4.12343708433094
48146,Wayne County,MI,3.8840117052407557
48152,Wayne County,MI,20.723596701250333
48154,Wayne County,MI,14.551742484703379
48161,Monroe County,MI,18.9146049481245
48162,Monroe County,MI,6.570896515030593
48169,Livingston County,MI,84.38414471934024
48170,Wayne County,MI,30.61984570364459
48185,Wayne County,MI,2.5804735301942006
48186,Wayne County,MI,16.0415003990423
48188,Wayne County,MI,85.4216546953977
48192,Wayne County,MI,10.295291300877892
48197,Washtenaw County,MI,0.7714817770683693
48198,Washtenaw County,MI,32.960893854748605
48205,Wayne County,MI,41.8196328810854
48206,Wayne County,MI,49.747273210960365
48209,Wayne County,MI,13.780260707635009
48210,Wayne County,MI,15.216812982176112
48211,Wayne County,MI,84.17132216014897
48212,Wayne County,MI,5.0811386006916734
48213,Wayne County,MI,5.746209098164405
48215,Wayne County,MI,24.39478584729981
48218,Wayne County,MI,64.27241287576483
48219,Wayne County,MI,45.65043894652833
48221,Wayne County,MI,2.314445331205108
48224,Wayne County,MI,0.7980845969672785
48227,Wayne County,MI,10.082468741686618
48228,Wayne County,MI,5.852620377760043
48234,Wayne County,MI,19.632881085395052
48235,Wayne County,MI,19.4732641660016
48236,Wayne County,MI,53.418462357009844
48238,Wayne County,MI,29.848363926576216
48239,Wayne County,MI,66.02819898909284
48307,Oakland County,MI,37.13753657887736
48309,Oakland County,MI,56.53099228518222
48315,Macomb County,MI,63.04868316041501
48323,Oakland County,MI,75.79143389199255
48327,Oakland County,MI,20.13833466347433
48328,Oakland County,MI,61.29289704708699
48340,Oakland County,MI,5.373769619579676
48341,Oakland County,MI,52.24793828145784
48360,Oakland County,MI,63.39451981910082
48371,Oakland County,MI,24.634211226389997
48375,Oakland County,MI,38.201649374833735
48393,Oakland County,MI,33.91859537110934
48420,Genesee County,MI,33.572758712423514
48430,Genesee County,MI,15.083798882681565
48433,Genesee County,MI,41.10135674381484
48438,Genesee County,MI,92.60441606810322
48446,Lapeer County,MI,8.034051609470604
48451,Genesee County,MI,67.59776536312849
48458,Genesee County,MI,19.180633147113593
48503,Genesee County,MI,10.45490822027135
48505,Genesee County,MI,36.898111199787174
48506,Genesee County,MI,77.76004256451183
48507,Genesee County,MI,5.054535780792764
48532,Genesee County,MI,25.751529662144186
48601,Saginaw County,MI,7.076350093109869
48602,Saginaw County,MI,38.6805001330141
48609,Saginaw County,MI,29.103484969406757
48624,Gladwin County,MI,61.532322426177174
48626,Saginaw County,MI,78.66453844107475
48706,Bay County,MI,3.4051609470603887
48708,Bay County,MI,3.5913806863527533
48763,Iosco County,MI,87.975525405693
48842,Ingham County,MI,25.64511838254855
48849,Ionia County,MI,83.02740090449588
48858,Isabella County,MI,16.227720138334664
48867,Shiawassee County,MI,18.116520351157224
48875,Ionia County,MI,91.27427507315775
48880,Gratiot County,MI,82.84118116520351
48883,Isabella County,MI,57.54189944134078
48888,Montcalm County,MI,77.04176642724128
48893,Isabella County,MI,65.07049747273211
49001,Kalamazoo County,MI,41.979249800478854
49004,Kalamazoo County,MI,30.54003724394786
49009,Kalamazoo County,MI,6.464485235434957
49015,Calhoun County,MI,9.231178504921523
49017,Calhoun County,MI,52.35434956105347
49021,Eaton County,MI,77.09497206703911
49036,Branch County,MI,17.424847033785582
49045,Van Buren County,MI,89.864325618515565
49047,Cass County,MI,39.8244213886672
49048,Kalamazoo County,MI,9.922851822293163
49058,Barry County,MI,19.074221867517956
49085,Berrien County,MI,43.947858472998135
49091,St. Joseph County,MI,32.402234636871505
49107,Berrien County,MI,59.749933492950255
49201,Jackson County,MI,4.336259643522213
49202,Jackson County,MI,21.016227720138332
49221,Lenawee County,MI,26.310188880021286
49224,Calhoun County,MI,75.17956903431764
49236,Lenawee County,MI,93.03006118648577
49316,Kent County,MI,37.80260707635009
49319,Kent County,MI,52.088321362064384
49417,Ottawa County,MI,9.949454642192073
49424,Ottawa County,MI,32.80127693535515
49428,Ottawa County,MI,86.48576749135408
49442,Muskegon County,MI,1.3301409949454641
49444,Muskegon County,MI,4.8417132216014895
49461,Muskegon County,MI,66.53365256717211
49464,Ottawa County,MI,73.07794626230381
49503,Kent County,MI,60.920457568502265
49507,Kent County,MI,30.513434424048953
49508,Kent County,MI,15.456238361266294
49509,Kent County,MI,6.996541633413142
49512,Kent County,MI,96.06278265496142
49519,Kent County,MI,9.177972865123703
49525,Kent County,MI,22.878425113061983
49548,Kent County,MI,3.3253524873636606
49651,Missaukee County,MI,94.17398244213886
49735,Otsego County,MI,20.56397978185688
49738,Crawford County,MI,66.37403564777867
49801,Dickinson County,MI,82.86778398510242
49802,Dickinson County,MI,67.065708965150307
49841,Marquette County,MI,49.534450651769085
49855,Marquette County,MI,7.980845969672785
49866,Marquette County,MI,47.033785581271616
55033,Dakota County,MN,18.754988028731045
55044,Dakota County,MN,37.855812716147916
55057,Rice County,MN,61.026868848097905
55060,Steele County,MN,86.16653365256717
55070,Anoka County,MN,98.0313913274807
55103,Ramsey County,MN,83.6392657621708
55107,Ramsey County,MN,64.85767491354083
55110,Ramsey County,MN,35.88720404362862
55112,Ramsey County,MN,27.90635807395584
55113,Ramsey County,MN,34.18462357009843
55119,Ramsey County,MN,7.235967012503325
55120,Dakota County,MN,99.86698590050545
55122,Dakota County,MN,55.81271614791168
55127,Ramsey County,MN,56.77041766427241
55129,Washington County,MN,65.3365256717212
55302,Wright County,MN,94.33359936153232
55304,Anoka County,MN,27.45411013567438
55305,Hennepin County,MN,71.50837988826815
55309,Sherburne County,MN,94.65283320031924
55311,Hennepin County,MN,50.625166267624365
55318,Carver County,MN,47.2732109603618
55321,Wright County,MN,96.67464751263634
55328,Wright County,MN,89.17265230114391
55343,Hennepin County,MN,30.859271082734768
55371,Mille Lacs County,MN,38.467677573822826
55373,Wright County,MN,97.57914338919925
55391,Hennepin County,MN,84.41074753923917
55403,Hennepin County,MN,13.567438148443737
55404,Hennepin County,MN,0.39904229848363926
55410,Hennepin County,MN,81.51104017025804
55411,Hennepin County,MN,9.683426443202979
55418,Hennepin County,MN,16.73317371641394
55422,Hennepin County,MN,18.888002128225594
55427,Hennepin County,MN,43.09656823623304
55429,Hennepin County,MN,28.172386272944934
55434,Anoka County,MN,52.327746741154556
55435,Hennepin County,MN,80.60654429369514
55443,Hennepin County,MN,19.579675445597232
55449,Anoka County,MN,38.25485501463155
55720,Carlton County,MN,91.32748071295558
55721,Itasca County,MN,99.78717744080873
55734,St. Louis County,MN,68.63527533918595
55746,St. Louis County,MN,85.0758180367119
55792,St. Louis County,MN,24.0755520085129
55805,St. Louis County,MN,32.10960361798351
55901,Olmsted County,MN,15.536046820963023
56048,Waseca County,MN,97.10029263101889
56081,Watonwan County,MN,76.40329874966747
56082,Nicollet County,MN,64.72466081404629
56187,Nobles County,MN,57.67491354083533
56215,Swift County,MN,89.17265230114391
56353,Mille Lacs County,MN,81.3514232508646
56364,Morrison County,MN,99.76057462090981
56501,Becker County,MN,26.0707635009311
56560,Clay County,MN,6.70391061452514
56601,Beltrami County,MN,33.73237563181697
56716,Polk County,MN,53.524873636605484
56721,Polk County,MN,42.32508645916467
38606,Panola County,MS,57.54189944134078
38637,DeSoto County,MS,36.25964352221335
38652,Union County,MS,67.54455972333068
38663,Tippah County,MS,61.399308326682636
38829,Prentiss County,MS,34.18462357009843
39042,Rankin County,MS,75.31258313381218
39046,Madison County,MS,16.945996275605214
39051,Leake County,MS,33.54615589252461
39059,Copiah County,MS,72.65230114392126
39074,Scott County,MS,25.591912742750733
39110,Madison County,MS,62.33040702314445
39117,Scott County,MS,40.01064112795956
39120,Adams County,MS,28.41181165203512
39212,Hinds County,MS,42.75073157754722
39305,Lauderdale County,MS,42.67092311785049
39350,Neshoba County,MS,15.722266560255388
39355,Clarke County,MS,80.5267358339984
39426,Pearl River County,MS,43.89465283320032
39452,George County,MS,15.429635541367384
39560,Harrison County,MS,46.90077148177707
39645,Amite County,MS,96.32881085395051
39648,Pike County,MS,11.598829475924449
63005,St. Louis County,MO,83.90529396115988
63011,St. Louis County,MO,63.8999733971801
63028,Jefferson County,MO,14.52513966480447
63040,St. Louis County,MO,98.59005054535781
63080,Franklin County,MO,32.0830007980846
63084,Franklin County,MO,41.872838520883214
63089,Franklin County,MO,88.05533386538973
63116,St. Louis city,MO,22.66560255387071
63121,St. Louis County,MO,18.196328810853952
63123,St. Louis County,MO,24.47459430699654
63136,St. Louis County,MO,3.298749667464751
63137,St. Louis County,MO,61.21308858739026
63139,St. Louis city,MO,61.904761904761905
63301,St. Charles County,MO,51.76908752327747
63304,St. Charles County,MO,18.56876828943868
63368,St. Charles County,MO,29.05027932960894
63376,St. Charles County,MO,45.038574088853416
63379,Lincoln County,MO,17.82388933226922
63390,Warren County,MO,65.12370311252992
63601,St. Francois County,MO,30.40702314445331
63670,Ste. Genevieve County,MO,47.831870178238894
63764,Bollinger County,MO,96.08938547486034
63845,Mississippi County,MO,66.64006384676776
63857,Dunklin County,MO,30.859271082734768
63901,Butler County,MO,51.981910082468744
63935,Ripley County,MO,41.979249800478854
64024,Clay County,MO,10.215482841181165
64040,Johnson County,MO,76.66932694865656
64050,Jackson County,MO,8.459696727853153
64055,Jackson County,MO,3.4583665868582067
64058,Jackson County,MO,88.69380154296356
64061,Johnson County,MO,97.6855546687949
64063,Jackson County,MO,87.12423516892791
64064,Jackson County,MO,39.8244213886672
64068,Clay County,MO,4.203245544027667
64075,Jackson County,MO,29.768555466879487
64081,Jackson County,MO,33.33333333333333
64082,Jackson County,MO,61.026868848097905
64085,Ray County,MO,37.483373237563185
64086,Jackson County,MO,57.302474062250596
64089,Clay County,MO,40.56930034583666
64093,Johnson County,MO,23.224261771747805
64114,Jackson County,MO,23.516892790635808
64117,Clay County,MO,24.98004788507582
64118,Clay County,MO,2.341048151104017
64127,Jackson County,MO,48.89598297419526
64128,Jackson County,MO,11.652035115722265
64130,Jackson County,MO,2.97951582867784
64133,Jackson County,MO,1.7557861133280128
64134,Jackson County,MO,29.263101888800215
64137,Jackson County,MO,67.11891460494812
64155,Clay County,MO,44.53312051077415
64469,DeKalb County,MO,99.60095770151636
64506,Buchanan County,MO,10.960361798350625
64701,Cass County,MO,30.32721468475658
64744,Cedar County,MO,69.35355147645652
64836,Jasper County,MO,37.61638733705773
65026,Miller County,MO,58.07395583931897
65201,Boone County,MO,32.61505719606278
65270,Randolph County,MO,17.50465549348231
65536,Laclede County,MO,27.267890396382015
65616,Taney County,MO,24.288374567704178
65712,Lawrence County,MO,99.89358872040435
65740,Taney County,MO,98.98909284384145
59105,Yellowstone County,MT,82.8145783453046
59701,Silver Bow County,MT,52.7267890396382
59714,Gallatin County,MT,55.20085129023676
59718,Gallatin County,MT,23.516892790635808
59741,Gallatin County,MT,94.75924447991487
59801,Missoula County,MT,82.38893322692206
68005,Sarpy County,NE,82.92098962490024
68007,Douglas County,NE,81.51104017025804
68107,Douglas County,NE,72.62569832402235
68111,Douglas County,NE,11.678637935621177
68122,Douglas County,NE,86.59217877094973
68127,Douglas County,NE,57.78132482043097
68132,Douglas County,NE,67.43814844373503
68134,Douglas County,NE,45.88986432561852
68144,Douglas County,NE,58.313381218409155
68164,Douglas County,NE,65.12370311252992
68310,Gage County,NE,83.9851024208566
68462,Lancaster County,NE,99.81378026070763
68505,Lancaster County,NE,77.20138334663474
68516,Lancaster County,NE,94.91886139930833
68521,Lancaster County,NE,51.23703112529928
68601,Platte County,NE,51.636073423782925
68632,Butler County,NE,97.63234902899708
68801,Hall County,NE,79.80845969672785
68901,Adams County,NE,56.318169725990955
89102,Clark County,NV,37.988826815642454
89103,Clark County,NV,74.03564777866454
89104,Clark County,NV,25.724926842245278
89106,Clark County,NV,69.83240223463687
89108,Clark County,NV,62.809257781324824
89110,Clark County,NV,60.94706038840118
89115,Clark County,NV,41.447193402500666
89118,Clark County,NV,94.70603884011706
89119,Clark County,NV,12.26389997339718
89120,Clark County,NV,70.31125299281724
89121,Clark County,NV,16.679968076616124
89122,Clark County,NV,15.137004522479383
89123,Clark County,NV,40.01064112795956
89131,Clark County,NV,34.26443202979516
89139,Clark County,NV,68.18302740090449
89142,Clark County,NV,56.07874434690076
89146,Clark County,NV,74.35488161745145
89147,Clark County,NV,27.746741154562383
89148,Clark County,NV,33.06730513434424
89183,Clark County,NV,82.86778398510242
89408,Lyon County,NV,60.04256451183826
89502,Washoe County,NV,39.718010109071564
89506,Washoe County,NV,10.641127959563713
03038,Rockingham County,NH,6.863527533918595
03055,Hillsborough County,NH,34.1048151104017
03060,Hillsborough County,NH,17.238627294493217
03076,Hillsborough County,NH,67.17212024474594
03102,Hillsborough County,NH,11.971268954509178
03222,Grafton County,NH,96.2756052141527
03276,Merrimack County,NH,69.08752327746741
03801,Rockingham County,NH,38.78691141260974
03820,Strafford County,NH,12.503325352487362
07001,Middlesex County,NJ,55.99893588720405
07003,Essex County,NJ,4.682096302208034
07004,Essex County,NJ,94.99866985900506
07006,Essex County,NJ,50.172918329342906
07011,Passaic County,NJ,10.188880021282255
07017,Essex County,NJ,0.74487895716946
07018,Essex County,NJ,2.7400904495876564
07028,Essex County,NJ,98.74966746475127
07036,Union County,NJ,4.735301942005853
07040,Essex County,NJ,70.31125299281724
07045,Morris County,NJ,60.14897579143389
07047,Hudson County,NJ,2.128225591912743
07052,Essex County,NJ,32.45544027666933
07054,Morris County,NJ,38.89332269220537
07057,Bergen County,NJ,77.04176642724128
07060,Union County,NJ,35.19553072625698
07078,Essex County,NJ,88.34796488427773
07087,Hudson County,NJ,10.0292631018888
07104,Essex County,NJ,0.10641127959563715
07106,Essex County,NJ,1.9420058526203778
07107,Essex County,NJ,0.4522479382814578
07109,Essex County,NJ,31.417930300611864
07110,Essex County,NJ,66.4804469273743
07111,Essex County,NJ,0.29263101888800214
07202,Union County,NJ,2.8731045490822025
07302,Hudson County,NJ,89.6781058792232
07304,Hudson County,NJ,21.761106677307794
07307,Hudson County,NJ,25.751529662144186
07410,Bergen County,NJ,36.49906890130354
07450,Bergen County,NJ,72.83852088321362
07480,Passaic County,NJ,46.82096302208034
07501,Passaic County,NJ,7.023144453312051
07506,Passaic County,NJ,57.861133280127696
07512,Passaic County,NJ,97.71215748869379
07514,Passaic County,NJ,72.2266560255387
07522,Passaic County,NJ,14.20590582601756
07631,Bergen County,NJ,51.05081138600691
07728,Monmouth County,NJ,8.353285448257514
07734,Monmouth County,NJ,41.76642724128758
07738,Monmouth County,NJ,97.47273210960363
07746,Monmouth County,NJ,71.24235168927906
07753,Monmouth County,NJ,2.3676509710029263
07801,Morris County,NJ,11.306198457036446
07834,Morris County,NJ,57.43548816174514
07945,Morris County,NJ,90.23676509710029
07946,Morris County,NJ,99.414737962224
07950,Morris County,NJ,81.43123171056132
08012,Camden County,NJ,2.6336791699920195
08016,Burlington County,NJ,1.2503325352487362
08021,Camden County,NJ,1.303538175046555
08033,Camden County,NJ,94.91886139930833
08034,Camden County,NJ,22.293163075285978
08035,Camden County,NJ,88.64059590316573
08043,Camden County,NJ,30.61984570364459
08046,Burlington County,NJ,16.387337057728118
08048,Burlington County,NJ,51.71588188347965
08054,Burlington County,NJ,14.285714285714285
08057,Burlington County,NJ,50.06650704974728
08060,Burlington County,NJ,33.09390795424315
08066,Gloucester County,NJ,16.866187815908486
08075,Burlington County,NJ,7.901037509976057
08077,Burlington County,NJ,20.670391061452513
08080,Gloucester County,NJ,47.43282787975525
08081,Camden County,NJ,6.118648576749135
08085,Gloucester County,NJ,14.046288906624103
08087,Ocean County,NJ,10.321894120776802
08090,Gloucester County,NJ,85.44825751529662
08094,Gloucester County,NJ,2.8465017291832937
08104,Camden County,NJ,0.2128225591912743
08105,Camden County,NJ,0.37243947858473
08108,Camden County,NJ,51.13061984570364
08205,Atlantic County,NJ,96.80766161213089
08234,Atlantic County,NJ,1.6227720138334665
08332,Cumberland County,NJ,4.708699122106943
08360,Cumberland County,NJ,0.186219739292365
08401,Atlantic County,NJ,0.026602819898909287
08527,Ocean County,NJ,4.495876562915669
08611,Mercer County,NJ,2.2346368715083798
08690,Mercer County,NJ,29.71534982708167
08701,Ocean County,NJ,35.488161745144986
08724,Ocean County,NJ,4.602287842511306
08753,Ocean County,NJ,0.8778930566640064
08757,Ocean County,NJ,6.33147113594041
08820,Middlesex County,NJ,33.43974461292897
08822,Hunterdon County,NJ,13.594040968342643
08852,Middlesex County,NJ,74.75392391593509
08857,Middlesex County,NJ,3.69779196594839
08861,Middlesex County,NJ,0.5320563979781857
08863,Middlesex County,NJ,57.67491354083533
08865,Warren County,NJ,1.9154030327214684
08869,Somerset County,NJ,64.77786645384411
08873,Somerset County,NJ,8.14046288906624
08876,Somerset County,NJ,11.040170258047354
08879,Middlesex County,NJ,21.388667198723066
08902,Middlesex County,NJ,83.85208832136206
87001,Sandoval County,NM,92.2319765895185
87004,Sandoval County,NM,65.12370311252992
87020,Cibola County,NM,71.29555732907689
87031,Valencia County,NM,17.318435754189945
87105,Bernalillo County,NM,11.785049215216812
87106,Bernalillo County,NM,12.317105613194999
87107,Bernalillo County,NM,20.43096568236233
87109,Bernalillo County,NM,35.96701250332535
87112,Bernalillo County,NM,7.555200851290237
87120,Bernalillo County,NM,4.655493482309125
87123,Bernalillo County,NM,28.651237031125298
87401,San Juan County,NM,70.2048417132216
87505,Santa Fe County,NM,14.259111465815376
87528,Rio Arriba County,NM,85.18222931630753
88001,Doa Ana County,NM,15.802075019952113
88011,Doa Ana County,NM,41.28757648310721
88021,Doa Ana County,NM,67.83719074221868
88030,Luna County,NM,49.45464219207236
88063,Doa Ana County,NM,93.21628092577812
88101,Curry County,NM,4.788507581803671
88203,Chaves County,NM,39.05293961159883
88210,Eddy County,NM,65.28332003192338
88242,Lea County,NM,69.75259377494014
88352,Otero County,NM,79.6754455972333
10002,New York County,NY,26.044160681032192
10024,New York County,NY,87.04442670923117
10026,New York County,NY,14.79116786379356
10029,New York County,NY,2.1016227720138336
10031,New York County,NY,65.81537642990158
10033,New York County,NY,55.78611332801277
10034,New York County,NY,74.72732109603618
10035,New York County,NY,2.60707635009311
10039,New York County,NY,19.100824687416868
10075,New York County,NY,82.2293163075286
10303,Richmond County,NY,26.948656557595108
10306,Richmond County,NY,11.11997871774408
10314,Richmond County,NY,28.012769353551477
10451,Bronx County,NY,56.26496408619314
10452,Bronx County,NY,33.35993615323225
10453,Bronx County,NY,34.63687150837989
10454,Bronx County,NY,34.397446129289705
10455,Bronx County,NY,12.423516892790635
10456,Bronx County,NY,14.49853684490556
10458,Bronx County,NY,0.053205639797818574
10459,Bronx County,NY,2.021814312317106
10460,Bronx County,NY,6.6773077946262305
10462,Bronx County,NY,68.7416866187816
10463,Bronx County,NY,53.072625698324025
10466,Bronx County,NY,12.66294227188082
10467,Bronx County,NY,2.0750199521149244
10468,Bronx County,NY,13.72705506783719
10472,Bronx County,NY,7.768023410481511
10509,Putnam County,NY,99.33492950252727
10536,Westchester County,NY,99.25512104283054
10552,Westchester County,NY,81.77706836924715
10583,Westchester County,NY,83.02740090449588
10591,Westchester County,NY,54.269752593774946
10701,Westchester County,NY,0.5586592178770949
10705,Westchester County,NY,23.144453312051077
10710,Westchester County,NY,95.1050811386007
10801,Westchester County,NY,20.085129023676508
10950,Orange County,NY,92.12556530992285
10977,Rockland County,NY,88.2415536046821
10980,Rockland County,NY,95.79675445597233
11001,Nassau County,NY,79.88826815642457
11004,Queens County,NY,87.60308592710827
11021,Nassau County,NY,98.53684490555999
11040,Nassau County,NY,78.18568768289438
11201,Kings County,NY,12.077680234104815
11203,Kings County,NY,22.69220537376962
11204,Kings County,NY,17.345038574088854
11207,Kings County,NY,1.968608672519287
11208,Kings County,NY,39.50518754988029
11209,Kings County,NY,88.58739026336792
11210,Kings County,NY,29.821761106677307
11212,Kings County,NY,3.3785581271614786
11214,Kings County,NY,77.6536312849162
11218,Kings County,NY,35.035913806863526
11219,Kings County,NY,91.91274275073158
11221,Kings County,NY,9.417398244213887
11224,Kings County,NY,11.066773077946262
11226,Kings County,NY,40.86193136472466
11230,Kings County,NY,55.599893588720406
11231,Kings County,NY,28.252194732641662
11232,Kings County,NY,90.31657355679702
11233,Kings County,NY,38.70710295291301
11234,Kings County,NY,39.904229848363926
11236,Kings County,NY,12.104283054003725
11237,Kings County,NY,45.570630486831604
11238,Kings County,NY,40.9683426443203
11249,Kings County,NY,91.67331737164139
11358,Queens County,NY,94.17398244213886
11368,Queens County,NY,82.01649374833733
11369,Queens County,NY,76.5097100292631
11370,Queens County,NY,70.63048683160414
11372,Queens County,NY,82.49534450651768
11373,Queens County,NY,66.05480180899175
11375,Queens County,NY,90.18355945730248
11377,Queens County,NY,90.44958765629157
11412,Queens County,NY,70.31125299281724
11413,Queens County,NY,35.5413673849428
11415,Queens County,NY,83.6924714019686
11418,Queens County,NY,32.02979515828678
11420,Queens County,NY,69.43335993615322
11423,Queens County,NY,85.90050545357808
11432,Queens County,NY,85.71428571428571
11433,Queens County,NY,79.35621175844639
11435,Queens County,NY,61.346102686884805
11520,Nassau County,NY,83.55945730247406
11550,Nassau County,NY,47.99148709763235
11553,Nassau County,NY,43.20297951582867
11554,Nassau County,NY,43.442404894918866
11563,Nassau County,NY,79.54243149773876
11580,Nassau County,NY,47.565841979249804
11590,Nassau County,NY,83.77227986166534
11691,Queens County,NY,4.07023144453312
11692,Queens County,NY,71.69459962756052
11706,Suffolk County,NY,63.47432827879756
11710,Nassau County,NY,57.009843043362594
11713,Suffolk County,NY,93.90795424314977
11717,Suffolk County,NY,91.0880553338654
11722,Suffolk County,NY,44.400106411279594
11741,Suffolk County,NY,64.43202979515829
11757,Suffolk County,NY,29.502527267890393
11758,Nassau County,NY,88.02873104549083
11763,Suffolk County,NY,32.10960361798351
11767,Suffolk County,NY,96.16919393455706
11768,Suffolk County,NY,88.88002128225591
11772,Suffolk County,NY,19.68608672519287
11779,Suffolk County,NY,79.78185687682895
11784,Suffolk County,NY,85.28864059590316
11801,Nassau County,NY,46.90077148177707
11968,Suffolk County,NY,99.60095770151636
12010,Montgomery County,NY,2.2080340516094705
12020,Saratoga County,NY,39.29236499068901
12037,Columbia County,NY,89.25246076084065
12047,Albany County,NY,17.371641393987762
12116,Otsego County,NY,94.70603884011706
12148,Saratoga County,NY,95.87656291566906
12188,Saratoga County,NY,72.57249268422453
12198,Rensselaer County,NY,93.58872040436286
12202,Albany County,NY,15.881883479648842
12203,Albany County,NY,60.94706038840118
12210,Albany County,NY,48.097898377227985
12413,Greene County,NY,76.8023410481511
12487,Ulster County,NY,99.94679436020219
12533,Dutchess County,NY,77.3876030859271
12589,Ulster County,NY,95.82335727587125
12803,Saratoga County,NY,85.3684490555999
12833,Saratoga County,NY,87.54988028731046
12839,Washington County,NY,16.440542697525938
12901,Clinton County,NY,1.1971268954509178
12946,Essex County,NY,23.490289970736896
12983,Franklin County,NY,36.47246608140463
13027,Onondaga County,NY,7.289172652301144
13032,Madison County,NY,20.218143123171057
13033,Cayuga County,NY,92.15216812982176
13035,Madison County,NY,79.96807661612131
13041,Onondaga County,NY,60.122372971534986
13045,Cortland County,NY,1.5695663740356476
13066,Onondaga County,NY,57.96754455972333
13069,Oswego County,NY,2.2878425113061986
13088,Onondaga County,NY,16.174514498536848
13126,Oswego County,NY,1.48975791433892
13146,Wayne County,NY,89.27906358073956
13164,Onondaga County,NY,97.1268954509178
13205,Onondaga County,NY,29.236499068901306
13208,Onondaga County,NY,95.07847831870178
13209,Onondaga County,NY,68.39584996009577
13210,Onondaga County,NY,23.357275871242354
13211,Onondaga County,NY,73.15775472200053
13304,Oneida County,NY,98.5634477254589
13332,Madison County,NY,84.30433625964352
13340,Herkimer County,NY,87.682894386805
13357,Herkimer County,NY,23.357275871242354
13365,Herkimer County,NY,22.080340516094708
13367,Lewis County,NY,26.443202979515828
13421,Madison County,NY,45.703644586326156
13440,Oneida County,NY,0.6118648576749135
13460,Chenango County,NY,37.08433093907954
13478,Oneida County,NY,91.51370045224793
13492,Oneida County,NY,52.966214418728384
13495,Oneida County,NY,98.2708167065709
13617,St. Lawrence County,NY,21.973929236499067
13676,St. Lawrence County,NY,54.4559723330673
13732,Tioga County,NY,67.73077946262303
13733,Chenango County,NY,59.40409683426443
13760,Broome County,NY,10.561319499866986
13803,Cortland County,NY,75.76483107209364
13811,Tioga County,NY,76.56291566906091
13827,Tioga County,NY,75.87124235168929
13830,Chenango County,NY,55.20085129023676
13838,Delaware County,NY,58.1537642990157
13850,Broome County,NY,8.752327746741155
13901,Broome County,NY,25.69832402234637
14006,Erie County,NY,84.57036445863262
14009,Wyoming County,NY,93.77494014365523
14032,Erie County,NY,81.0853950518755
14033,Erie County,NY,95.61053471667998
14043,Erie County,NY,20.643788241553604
14047,Erie County,NY,74.64751263633946
14051,Erie County,NY,28.065974993349297
14072,Erie County,NY,28.54482575152966
14086,Erie County,NY,39.984038308060654
14094,Niagara County,NY,7.42218675179569
14108,Niagara County,NY,45.33120510774142
14120,Niagara County,NY,43.92125565309923
14125,Genesee County,NY,81.80367118914606
14127,Erie County,NY,32.74807129555733
14136,Chautauqua County,NY,85.87390263367917
14150,Erie County,NY,32.29582335727587
14174,Niagara County,NY,74.75392391593509
14206,Erie County,NY,7.10295291300878
14207,Erie County,NY,38.99973397180101
14210,Erie County,NY,79.0901835594573
14213,Erie County,NY,38.14844373503591
14214,Erie County,NY,19.39345570630487
14215,Erie County,NY,16.70657089651503
14217,Erie County,NY,15.110401702580473
14218,Erie County,NY,37.722798616653364
14220,Erie County,NY,75.41899441340783
14222,Erie County,NY,43.76163873370577
14223,Erie County,NY,69.85900505453579
14224,Erie County,NY,2.4740622505985637
14226,Erie County,NY,71.45517424847034
14228,Erie County,NY,68.55546687948923
14304,Niagara County,NY,1.86219739292365
14305,Niagara County,NY,2.447459430699654
14411,Orleans County,NY,49.50784783187018
14414,Livingston County,NY,51.8488959829742
14420,Monroe County,NY,8.486299547752061
14424,Ontario County,NY,9.098164405426976
14425,Ontario County,NY,35.78079276403299
14450,Monroe County,NY,9.390795424314978
14456,Ontario County,NY,18.48895982974195
14472,Monroe County,NY,34.849694067571164
14489,Wayne County,NY,20.191540303272145
14513,Wayne County,NY,30.0877893056664
14519,Wayne County,NY,13.301409949454643
14522,Wayne County,NY,21.255653099228518
14526,Monroe County,NY,8.379888268156424
14580,Monroe County,NY,0.1596169193934557
14586,Monroe County,NY,20.37776004256451
14589,Wayne County,NY,22.585794094173984
14605,Monroe County,NY,56.71721202447459
14606,Monroe County,NY,9.151370045224795
14607,Monroe County,NY,10.853950518754989
14609,Monroe County,NY,13.647246608140462
14610,Monroe County,NY,18.143123171056132
14613,Monroe County,NY,6.012237297153498
14616,Monroe County,NY,10.109071561585528
14618,Monroe County,NY,55.945730247406225
14619,Monroe County,NY,7.714817770683692
14620,Monroe County,NY,2.7666932694865656
14623,Monroe County,NY,9.444001064112797
14626,Monroe County,NY,48.284118116520354
14701,Chautauqua County,NY,21.654695397712157
14706,Cattaraugus County,NY,46.26230380420325
14724,Chautauqua County,NY,95.50412343708433
14733,Chautauqua County,NY,77.28119180633148
14737,Cattaraugus County,NY,82.38893322692206
14757,Chautauqua County,NY,97.60574620909817
14810,Steuben County,NY,19.845703644586326
14850,Tompkins County,NY,2.154828411811652
14870,Steuben County,NY,49.534450651769085
14891,Schuyler County,NY,64.77786645384411
14892,Tioga County,NY,37.69619579675446
14901,Chemung County,NY,18.648576749135408
27017,Surry County,NC,68.10321894120777
27023,Forsyth County,NC,59.24447991487097
27030,Surry County,NC,2.9263101888800214
27043,Stokes County,NC,80.02128225591912
27104,Forsyth County,NC,17.903697791965946
27105,Forsyth County,NC,8.193668528864059
27106,Forsyth County,NC,6.890130353817504
27203,Randolph County,NC,15.855280659749935
27205,Randolph County,NC,27.95956371375366
27215,Alamance County,NC,23.86272944932163
27217,Alamance County,NC,29.209896249002394
27262,Guilford County,NC,27.560521415270017
27278,Orange County,NC,13.008778930566638
27284,Forsyth County,NC,17.611066773077948
27288,Rockingham County,NC,29.7951582867784
27295,Davidson County,NC,25.512104283054004
27317,Randolph County,NC,74.67411545623837
27320,Rockingham County,NC,5.772811918063315
27325,Moore County,NC,82.97419526469805
27360,Davidson County,NC,1.4365522745411012
27406,Guilford County,NC,62.19739292364991
27409,Guilford County,NC,81.32482043096569
27410,Guilford County,NC,54.00372439478585
27455,Guilford County,NC,36.92471401968609
27510,Orange County,NC,48.550146315509444
27511,Wake County,NC,54.13673849428039
27513,Wake County,NC,50.172918329342906
27519,Wake County,NC,35.754189944134076
27526,Wake County,NC,49.24181963288108
27529,Wake County,NC,46.52833200319234
27537,Vance County,NC,23.72971534982708
27545,Wake County,NC,31.28491620111732
27560,Wake County,NC,67.25192870444268
27565,Granville County,NC,13.274807129555732
27606,Wake County,NC,33.86538973131152
27613,Wake County,NC,36.658685820696995
27705,Durham County,NC,12.689545091779728
27707,Durham County,NC,28.358606012237296
27713,Durham County,NC,14.312317105613195
27804,Nash County,NC,21.92072359670125
27830,Wayne County,NC,96.62144187283852
27856,Nash County,NC,69.45996275605214
27858,Pitt County,NC,15.216812982176112
27889,Beaufort County,NC,53.445065176908756
27893,Wilson County,NC,8.16706570896515
27909,Pasquotank County,NC,28.810853950518755
28025,Cabarrus County,NC,5.55998935887204
28027,Cabarrus County,NC,10.800744878957168
28034,Gaston County,NC,30.77946262303804
28052,Gaston County,NC,15.562649640861931
28054,Gaston County,NC,11.1731843575419
28078,Mecklenburg County,NC,19.65948390529396
28086,Cleveland County,NC,46.98057994147379
28110,Union County,NC,13.008778930566638
28112,Union County,NC,32.93429103484969
28114,Rutherford County,NC,86.75179569034319
28115,Iredell County,NC,12.290502793296088
28146,Rowan County,NC,20.77680234104815
28147,Rowan County,NC,54.61558925246076
28205,Mecklenburg County,NC,40.14365522745411
28208,Mecklenburg County,NC,4.628890662410216
28209,Mecklenburg County,NC,76.96195796754456
28211,Mecklenburg County,NC,71.85421654695398
28212,Mecklenburg County,NC,66.24102154828412
28214,Mecklenburg County,NC,17.690875232774676
28215,Mecklenburg County,NC,32.854482575152964
28216,Mecklenburg County,NC,22.825219473264166
28262,Mecklenburg County,NC,23.516892790635808
28269,Mecklenburg County,NC,51.263633945198194
28273,Mecklenburg County,NC,31.072093641926045
28277,Mecklenburg County,NC,28.41181165203512
28303,Cumberland County,NC,43.309390795424314
28314,Cumberland County,NC,19.02101622772014
28333,Wayne County,NC,53.17903697791966
28334,Sampson County,NC,16.546953977121575
28352,Scotland County,NC,15.16360734237829
28358,Robeson County,NC,8.991753125831337
28364,Robeson County,NC,31.20510774142059
28369,Robeson County,NC,98.64325618515562
28376,Hoke County,NC,52.460760840649115
28401,New Hanover County,NC,5.3205639797818565
28411,New Hanover County,NC,59.3242883745677
28412,New Hanover County,NC,54.163341314179306
28457,Pender County,NC,64.64485235434955
28460,Onslow County,NC,94.12077680234104
28461,Brunswick County,NC,29.954775206171853
28472,Columbus County,NC,24.102154828411813
28501,Lenoir County,NC,66.08140462889067
28560,Craven County,NC,17.53125831338122
28578,Wayne County,NC,98.13780260707635
28590,Pitt County,NC,50.54535780792764
28602,Catawba County,NC,12.529928172386274
28613,Catawba County,NC,27.53391859537111
28655,Burke County,NC,2.5006650704974724
28677,Iredell County,NC,8.645916467145517
28697,Wilkes County,NC,52.27454110135674
28712,Transylvania County,NC,37.16413939877627
28761,McDowell County,NC,71.9340250066507
28778,Buncombe County,NC,84.57036445863262
28806,Buncombe County,NC,26.895450917797287
58078,Cass County,ND,15.323224261771747
58103,Cass County,ND,3.085927108273477
58104,Cass County,ND,53.25884543761639
58201,Grand Forks County,ND,19.127427507315776
58501,Burleigh County,ND,73.21096036179836
58701,Ward County,ND,5.267358339984039
43011,Knox County,OH,81.9366852886406
43016,Franklin County,OH,50.54535780792764
43028,Knox County,OH,90.5027932960894
43055,Licking County,OH,6.092045756850227
43068,Franklin County,OH,4.9747273210960365
43074,Delaware County,OH,73.23756318169727
43078,Champaign County,OH,21.62809257781325
43081,Franklin County,OH,13.194998669859004
43085,Franklin County,OH,54.668794892258575
43102,Fairfield County,OH,97.71215748869379
43110,Franklin County,OH,13.833466347432827
43113,Pickaway County,OH,7.39558393189678
43123,Franklin County,OH,3.35195530726257
43146,Pickaway County,OH,87.33705772811918
43147,Fairfield County,OH,14.312317105613195
43204,Franklin County,OH,14.924181963288108
43206,Franklin County,OH,27.693535514764566
43211,Franklin County,OH,5.533386538973131
43213,Franklin County,OH,23.06464485235435
43214,Franklin County,OH,35.67438148443735
43219,Franklin County,OH,8.326682628358606
43223,Franklin County,OH,2.713487629688747
43224,Franklin County,OH,2.5538707102952913
43228,Franklin County,OH,1.3567438148443736
72405,NA,NA,98.43043362596435
43229,Franklin County,OH,16.440542697525938
43230,Franklin County,OH,8.752327746741155
43235,Franklin County,OH,32.02979515828678
43420,Sandusky County,OH,5.293961159882947
43449,Ottawa County,OH,60.468209630220805
43512,Defiance County,OH,12.157488693801543
43528,Lucas County,OH,26.81564245810056
43609,Lucas County,OH,1.968608672519287
43613,Lucas County,OH,38.41447193402501
43614,Lucas County,OH,24.90023942537909
43620,Lucas County,OH,87.70949720670392
43701,Muskingum County,OH,0.13301409949454643
43723,Guernsey County,OH,50.65176908752328
43762,Muskingum County,OH,89.94413407821229
43812,Coshocton County,OH,2.4208566108007448
43830,Muskingum County,OH,89.35887204043628
43906,Belmont County,OH,34.47725458898643
43952,Jefferson County,OH,37.642990156956635
44035,Lorain County,OH,4.176642724128757
44041,Ashtabula County,OH,30.140994945464218
44052,Lorain County,OH,8.96515030593243
44076,Ashtabula County,OH,71.61479116786379
44077,Lake County,OH,10.587922319765894
44094,Lake County,OH,10.508113860069166
44102,Cuyahoga County,OH,5.240755520085129
44103,Cuyahoga County,OH,21.681298217611065
44104,Cuyahoga County,OH,1.7025804735301944
44108,Cuyahoga County,OH,1.0641127959563714
44109,Cuyahoga County,OH,0.07980845969672785
44111,Cuyahoga County,OH,60.840649108805536
44112,Cuyahoga County,OH,3.69779196594839
44113,Cuyahoga County,OH,3.6179835062516625
44121,Cuyahoga County,OH,22.532588454376164
44128,Cuyahoga County,OH,0.9843043362596435
44132,Cuyahoga County,OH,13.993083266826284
44133,Cuyahoga County,OH,15.881883479648842
44138,Cuyahoga County,OH,20.244745943069965
44223,Summit County,OH,33.86538973131152
44256,Medina County,OH,26.203777600425642
44260,Portage County,OH,58.89864325618516
44266,Portage County,OH,4.549082202713488
44301,Summit County,OH,18.94120776802341
44305,Summit County,OH,7.4487895716946
44306,Summit County,OH,23.463687150837988
44307,Summit County,OH,32.64166001596169
44310,Summit County,OH,5.426975259377494
44313,Summit County,OH,81.29821761106678
44314,Summit County,OH,15.66906092045757
44333,Summit County,OH,61.399308326682636
44406,Mahoning County,OH,43.62862463421123
44410,Trumbull County,OH,24.98004788507582
44413,Columbiana County,OH,65.52274541101357
44432,Columbiana County,OH,53.12583133812184
44440,Trumbull County,OH,83.29342910348497
44444,Trumbull County,OH,39.69140728917265
44446,Trumbull County,OH,7.156158552806597
44460,Columbiana County,OH,11.86485767491354
44471,Mahoning County,OH,42.53790901835595
44483,Trumbull County,OH,33.679169992019155
44485,Trumbull County,OH,9.550412343708434
44509,Mahoning County,OH,30.32721468475658
44515,Mahoning County,OH,5.134344240489492
44601,Stark County,OH,3.1125299281723864
44622,Tuscarawas County,OH,21.17584463953179
44663,Tuscarawas County,OH,6.836924714019686
44667,Wayne County,OH,53.445065176908756
44691,Wayne County,OH,3.4317637669592975
44706,Stark County,OH,20.936419260441607
44707,Stark County,OH,79.14338919925513
44708,Stark County,OH,16.653365256717212
44721,Stark County,OH,76.61612130885874
44805,Ashland County,OH,6.9167331737164135
44824,Erie County,OH,91.35408353285447
44857,Huron County,OH,13.221601489757914
44870,Erie County,OH,42.21867517956903
75036,NA,NA,92.60441606810322
45005,Warren County,OH,4.283054003724395
45011,Butler County,OH,8.433093907954243
45014,Butler County,OH,8.113860069167332
45015,Butler County,OH,42.245277999467945
45040,Warren County,OH,19.68608672519287
45042,Butler County,OH,11.439212556530991
45069,Butler County,OH,44.08087257249269
45121,Brown County,OH,62.03777600425645
45169,Clinton County,OH,69.00771481777068
45176,Clermont County,OH,54.98802873104549
45206,Hamilton County,OH,74.88693801542964
45211,Hamilton County,OH,57.06304868316041
45213,Hamilton County,OH,68.71508379888269
45215,Hamilton County,OH,46.84756584197925
45216,Hamilton County,OH,45.41101356743815
45237,Hamilton County,OH,51.10401702580474
45238,Hamilton County,OH,30.300611864857675
75072,NA,NA,92.5246076084065
45248,Hamilton County,OH,42.37829209896249
45255,Hamilton County,OH,84.17132216014897
45311,Preble County,OH,83.87869114126097
45323,Clark County,OH,93.1098696461825
45344,Clark County,OH,46.395317903697794
45373,Miami County,OH,17.371641393987762
45402,Montgomery County,OH,43.28278797552541
45419,Montgomery County,OH,79.3828145783453
45420,Montgomery County,OH,48.31072093641926
45424,Montgomery County,OH,5.55998935887204
45431,Montgomery County,OH,32.80127693535515
45432,Greene County,OH,60.73423782920989
45449,Montgomery County,OH,58.127161479116786
45505,Clark County,OH,87.73610002660281
45631,Gallia County,OH,5.426975259377494
45638,Lawrence County,OH,44.29369513168396
45659,Lawrence County,OH,78.53152434158021
45661,Pike County,OH,34.131417930300614
45662,Scioto County,OH,1.0375099760574622
45686,Gallia County,OH,79.48922585794094
45694,Scioto County,OH,17.1854216546954
45710,Athens County,OH,92.57781324820431
45714,Washington County,OH,10.162277201383347
45801,Allen County,OH,6.012237297153498
45804,Allen County,OH,6.145251396648044
45833,Allen County,OH,51.34344240489492
45840,Hancock County,OH,9.044958765629156
45869,Auglaize County,OH,98.64325618515562
73003,Oklahoma County,OK,53.8707102952913
73005,Caddo County,OK,81.51104017025804
73008,Oklahoma County,OK,54.216546953977115
73013,Oklahoma County,OK,53.684490555998934
73044,Logan County,OK,38.78691141260974
73068,Cleveland County,OK,60.68103218941208
73069,Cleveland County,OK,54.98802873104549
73075,Garvin County,OK,82.38893322692206
73080,McClain County,OK,73.34397446129289
73086,Murray County,OK,61.23969140728918
73096,Custer County,OK,54.668794892258575
73099,Canadian County,OK,51.47645650438947
73107,Oklahoma County,OK,40.170258047353016
73108,Oklahoma County,OK,54.93482309124767
73110,Oklahoma County,OK,10.42830540037244
73112,Oklahoma County,OK,58.87204043628624
73114,Oklahoma County,OK,75.36578877360999
73115,Oklahoma County,OK,46.68794892258579
73118,Oklahoma County,OK,88.34796488427773
73119,Oklahoma County,OK,44.10747539239159
73120,Oklahoma County,OK,81.0853950518755
73127,Oklahoma County,OK,93.80154296355414
73129,Oklahoma County,OK,72.09364192604416
73135,Oklahoma County,OK,29.68874700718276
73142,Oklahoma County,OK,76.16387337057728
73179,Oklahoma County,OK,95.26469805799415
73401,Carter County,OK,30.007980845969673
73460,Johnston County,OK,81.51104017025804
73501,Comanche County,OK,45.144985368449056
73533,Stephens County,OK,62.729449321628096
73601,Custer County,OK,53.8707102952913
73644,Beckham County,OK,45.30460228784251
74003,Osage County,OK,83.18701782388933
74006,Washington County,OK,43.20297951582867
74011,Tulsa County,OK,84.03830806065443
74014,Wagoner County,OK,23.809523809523807
74021,Tulsa County,OK,62.03777600425645
74030,Creek County,OK,97.49933492950252
74037,Tulsa County,OK,71.90742218675179
74039,Creek County,OK,94.97206703910615
74063,Tulsa County,OK,45.99627560521415
74115,Tulsa County,OK,26.629422718808193
74126,Tulsa County,OK,70.73689811119979
74129,Tulsa County,OK,43.46900771481777
74145,Tulsa County,OK,56.956637403564784
74146,Tulsa County,OK,54.88161745144985
74338,Delaware County,OK,96.38201649374834
74401,Muskogee County,OK,96.43522213354616
74435,Sequoyah County,OK,96.5416334131418
74447,Okmulgee County,OK,58.1537642990157
74464,Cherokee County,OK,74.67411545623837
74467,Wagoner County,OK,80.42032455440277
74601,Kay County,OK,30.61984570364459
74701,Bryan County,OK,50.172918329342906
74820,Pontotoc County,OK,39.77121574886938
74851,Pottawatomie County,OK,71.02952913008778
74868,Seminole County,OK,60.30859271082735
74881,Lincoln County,OK,97.92498004788509
74948,Sequoyah County,OK,90.95504123437085
74953,Le Flore County,OK,75.9244479914871
74960,Adair County,OK,15.509444001064113
74962,Sequoyah County,OK,95.45091779728652
97005,Washington County,OR,35.035913806863526
97006,Washington County,OR,71.56158552806598
97015,Clackamas County,OR,40.99494546421921
97023,Clackamas County,OR,87.04442670923117
97024,Multnomah County,OR,53.95051875498803
97031,Hood River County,OR,59.96275605214153
97045,Clackamas County,OR,7.927640329874968
97051,Columbia County,OR,50.75818036711891
97056,Columbia County,OR,86.27294493216282
97062,Washington County,OR,78.34530460228784
97089,Clackamas County,OR,76.27028465017291
97103,Clatsop County,OR,42.67092311785049
97115,Yamhill County,OR,98.90928438414473
97123,Washington County,OR,11.811652035115722
97128,Yamhill County,OR,10.694333599361533
97132,Yamhill County,OR,26.3633945198191
97211,Multnomah County,OR,30.992285182229317
97216,Multnomah County,OR,38.78691141260974
97218,Multnomah County,OR,64.24581005586593
97219,Multnomah County,OR,48.94918861399308
97222,Clackamas County,OR,18.27613727055068
97229,Washington County,OR,58.92524607608407
97230,Multnomah County,OR,44.47991487097632
97236,Multnomah County,OR,11.359404096834265
97301,Marion County,OR,6.597499334929502
97305,Marion County,OR,15.216812982176112
97306,Marion County,OR,45.06517690875233
97317,Marion County,OR,63.687150837988824
97321,Linn County,OR,16.600159616919395
97338,Polk County,OR,33.73237563181697
97386,Linn County,OR,35.64777866453844
97394,Lincoln County,OR,97.20670391061452
97402,Lane County,OR,40.622505985634476
97426,Lane County,OR,93.42910348496942
97448,Lane County,OR,87.62968874700718
97470,Douglas County,OR,18.861399308326682
97471,Douglas County,OR,35.833998403830805
97477,Lane County,OR,14.179303006118648
97478,Lane County,OR,25.352487363660547
97501,Jackson County,OR,55.679702048417134
97503,Jackson County,OR,53.338653897313115
97603,Klamath County,OR,11.332801276935355
97701,Deschutes County,OR,50.49215216812982
97702,Deschutes County,OR,31.125299281723862
97801,Umatilla County,OR,57.754722000532055
97818,Morrow County,OR,84.80978983772279
97838,Umatilla County,OR,9.789837722798616
97850,Union County,OR,79.51582867783985
97913,Malheur County,OR,91.35408353285447
15001,Beaver County,PA,11.731843575418994
15025,Allegheny County,PA,36.392657621707905
15063,Washington County,PA,52.80659749933493
15065,Allegheny County,PA,56.63740356477787
15071,Allegheny County,PA,76.96195796754456
15101,Allegheny County,PA,58.84543761638734
15106,Allegheny County,PA,45.67704176642724
15132,Allegheny County,PA,6.171854216546954
15201,Allegheny County,PA,48.1511040170258
15202,Allegheny County,PA,39.10614525139665
15204,Allegheny County,PA,55.599893588720406
15206,Allegheny County,PA,36.020218143123174
15221,Allegheny County,PA,35.833998403830805
15227,Allegheny County,PA,60.30859271082735
15237,Allegheny County,PA,36.07342378292099
15301,Washington County,PA,16.49374833732376
15342,Washington County,PA,85.3684490555999
15537,Bedford County,PA,75.09976057462092
15801,Clearfield County,PA,3.644586326150572
15901,Cambria County,PA,79.01037509976058
15904,Cambria County,PA,49.02899707368981
15906,Cambria County,PA,44.95876562915669
16046,Butler County,PA,84.30433625964352
16057,Butler County,PA,55.65309922851822
16125,Mercer County,PA,24.793828145783454
16127,Mercer County,PA,61.77174780526736
16201,Armstrong County,PA,19.606278265496144
16335,Crawford County,PA,5.506783719074222
16428,Erie County,PA,77.52061718542166
16433,Crawford County,PA,72.43947858472998
16503,Erie County,PA,23.250864591646714
16693,Blair County,PA,89.27906358073956
16901,Tioga County,PA,58.41979249800479
17015,Cumberland County,PA,30.061186485767493
17036,Dauphin County,PA,13.7536578877361
17038,Lebanon County,PA,65.65575951050812
17046,Lebanon County,PA,4.81511040170258
17103,Dauphin County,PA,26.256983240223462
17110,Dauphin County,PA,8.5927108273477
17111,Dauphin County,PA,33.65256717212024
17112,Dauphin County,PA,9.603617983506252
17202,Franklin County,PA,16.892790635807394
17241,Cumberland County,PA,69.53977121574887
17257,Cumberland County,PA,13.939877627028466
17268,Franklin County,PA,9.816440542697526
17319,York County,PA,57.16945996275605
17350,Adams County,PA,47.14019686086725
17366,York County,PA,82.38893322692206
17368,York County,PA,68.7416866187816
17401,York County,PA,67.3317371641394
17403,York County,PA,1.1439212556530993
17404,York County,PA,6.0654429369513165
17408,York County,PA,28.704442670923118
17545,Lancaster County,PA,30.460228784251132
17552,Lancaster County,PA,26.389997339718008
17557,Lancaster County,PA,69.35355147645652
17601,Lancaster County,PA,22.39957435488162
17603,Lancaster County,PA,22.559191274275072
17815,Columbia County,PA,9.124767225325884
17821,Montour County,PA,14.817770683692471
17847,Northumberland County,PA,53.36525671721203
17851,Northumberland County,PA,56.53099228518222
17872,Northumberland County,PA,63.101888800212826
18042,Northampton County,PA,31.25831338121841
18045,Northampton County,PA,25.139664804469277
18102,Lehigh County,PA,3.937217345038574
18103,Lehigh County,PA,2.3942537909018355
18104,Lehigh County,PA,7.555200851290237
18201,Luzerne County,PA,38.76030859271083
18229,Carbon County,PA,62.83586060122373
18301,Monroe County,PA,22.612396914072892
18411,Lackawanna County,PA,35.08911944666135
18434,Lackawanna County,PA,91.51370045224793
18509,Lackawanna County,PA,45.06517690875233
18610,Monroe County,PA,74.40808725724926
18707,Luzerne County,PA,45.99627560521415
18902,Bucks County,PA,59.909550412343705
18914,Bucks County,PA,48.443735035913804
18944,Bucks County,PA,41.58020750199521
18951,Bucks County,PA,11.11997871774408
18974,Bucks County,PA,12.63633945198191
19001,Montgomery County,PA,44.37350359138069
19003,Montgomery County,PA,57.32907688214951
19013,Delaware County,PA,1.409949454642192
19015,Delaware County,PA,59.749933492950255
19020,Bucks County,PA,65.49614259111466
19023,Delaware County,PA,18.010109071561587
19026,Delaware County,PA,9.896249002394255
19030,Bucks County,PA,69.99201915403033
19036,Delaware County,PA,41.23437084330939
19038,Montgomery County,PA,58.685820696993886
19043,Delaware County,PA,98.96249002394254
19046,Montgomery County,PA,32.64166001596169
19047,Bucks County,PA,65.62915669060921
19050,Delaware County,PA,50.811386006916734
19053,Bucks County,PA,19.34025006650705
19054,Bucks County,PA,90.39638201649375
19055,Bucks County,PA,74.06225059856345
19056,Bucks County,PA,70.4974727321096
19057,Bucks County,PA,72.7587124235169
19063,Delaware County,PA,12.476722532588454
19067,Bucks County,PA,10.40170258047353
19072,Montgomery County,PA,56.87682894386805
19073,Delaware County,PA,73.68981111997871
19114,Philadelphia County,PA,10.880553338653897
19115,Philadelphia County,PA,85.6610800744879
19119,Philadelphia County,PA,46.36871508379888
19120,Philadelphia County,PA,48.52354349561053
19121,Philadelphia County,PA,4.44267092311785
19124,Philadelphia County,PA,11.944666134610268
19129,Philadelphia County,PA,82.70816706570898
19131,Philadelphia County,PA,15.64245810055866
19132,Philadelphia County,PA,59.138068635275346
19134,Philadelphia County,PA,9.843043362596434
19136,Philadelphia County,PA,5.95903165735568
19137,Philadelphia County,PA,83.6658685820697
19138,Philadelphia County,PA,6.757116254322957
19139,Philadelphia County,PA,1.596169193934557
19140,Philadelphia County,PA,0.8512902367650972
19141,Philadelphia County,PA,3.564777866453844
19142,Philadelphia County,PA,28.145783453046025
19144,Philadelphia County,PA,28.465017291832933
19145,Philadelphia County,PA,52.59377494014365
19149,Philadelphia County,PA,3.2721468475658417
19150,Philadelphia County,PA,20.00532056397978
19152,Philadelphia County,PA,38.04203245544028
19154,Philadelphia County,PA,8.699122106943335
19333,Chester County,PA,99.01569566374036
19363,Chester County,PA,45.62383612662943
19380,Chester County,PA,6.251662676243681
19401,Montgomery County,PA,21.362064378824154
19422,Montgomery County,PA,86.19313647246608
19426,Montgomery County,PA,75.6850226123969
19444,Montgomery County,PA,94.46661346102687
19446,Montgomery County,PA,31.976589518488964
19454,Montgomery County,PA,30.19420058526204
19460,Chester County,PA,14.046288906624103
19465,Chester County,PA,39.34557063048683
19468,Montgomery County,PA,27.24128757648311
19508,Berks County,PA,73.02474062250599
19518,Berks County,PA,35.67438148443735
19530,Berks County,PA,65.3099228518223
19560,Berks County,PA,92.20537376961958
19601,Berks County,PA,1.223729715349827
19602,Berks County,PA,5.93242883745677
19606,Berks County,PA,5.719606278265496
19608,Berks County,PA,51.2902367650971
02830,Providence County,RI,78.29209896249002
02852,Washington County,RI,30.77946262303804
02871,Newport County,RI,51.5828677839851
02909,Providence County,RI,38.25485501463155
02911,Providence County,RI,57.22266560255387
29010,Lee County,SC,65.8951848895983
29020,Kershaw County,SC,55.20085129023676
29045,Kershaw County,SC,64.64485235434955
29048,Orangeburg County,SC,95.23809523809523
29054,Lexington County,SC,86.93801542963554
29063,Richland County,SC,45.91646714551742
29070,Lexington County,SC,66.79968076616122
29073,Lexington County,SC,13.008778930566638
29127,Newberry County,SC,76.93535514764565
29130,Fairfield County,SC,84.70337855812716
29150,Sumter County,SC,23.596701250332536
29160,Lexington County,SC,76.61612130885874
29169,Lexington County,SC,87.92231976589518
29201,Richland County,SC,97.95158286778398
29206,Richland County,SC,88.77361000266029
29209,Richland County,SC,31.816972599095507
29210,Richland County,SC,29.02367650971003
29223,Richland County,SC,13.913274807129556
29229,Richland County,SC,60.62782654961426
29301,Spartanburg County,SC,19.553072625698324
29306,Spartanburg County,SC,24.634211226389997
29322,Spartanburg County,SC,85.74088853418462
29349,Spartanburg County,SC,15.030593242883747
29360,Laurens County,SC,27.48071295557329
29376,Spartanburg County,SC,92.5512104283054
29379,Union County,SC,20.723596701250333
29405,Charleston County,SC,69.11412609736632
29406,Charleston County,SC,14.711359404096836
29407,Charleston County,SC,61.74514498536845
29414,Charleston County,SC,20.510774142059056
29420,Dorchester County,SC,34.55706304868316
29429,Charleston County,SC,97.36632083000798
29440,Georgetown County,SC,33.04070231444533
29455,Charleston County,SC,73.23756318169727
29456,Dorchester County,SC,58.206969938813515
29461,Berkeley County,SC,21.17584463953179
29464,Charleston County,SC,30.83266826283586
29466,Charleston County,SC,70.81670657089651
29483,Dorchester County,SC,9.470603884011705
29492,Berkeley County,SC,85.52806597499335
29526,Horry County,SC,60.06916733173716
29536,Dillon County,SC,91.96594839052939
29541,Florence County,SC,91.1146581537643
29547,Dillon County,SC,99.122106943336
29556,Williamsburg County,SC,52.088321362064384
29569,Horry County,SC,83.6924714019686
29588,Horry County,SC,24.102154828411813
29590,Williamsburg County,SC,100
29605,Greenville County,SC,14.445331205107742
29617,Greenville County,SC,58.81883479648843
29621,Anderson County,SC,59.5903165735568
29631,Pickens County,SC,97.89837722798616
29642,Pickens County,SC,21.069433359936156
29644,Greenville County,SC,38.574088853418466
29646,Greenwood County,SC,82.57515296621442
29673,Greenville County,SC,25.751529662144186
29680,Greenville County,SC,68.18302740090449
29690,Greenville County,SC,79.3828145783453
29693,Oconee County,SC,55.46687948922586
29697,Anderson County,SC,87.33705772811918
29720,Lancaster County,SC,8.220271348762969
29728,Chesterfield County,SC,73.53019420058527
29730,York County,SC,38.361266294227185
29732,York County,SC,54.05693003458366
29817,Barnwell County,SC,99.68076616121309
29841,Aiken County,SC,73.87603085927108
29906,Beaufort County,SC,59.749933492950255
29907,Beaufort County,SC,96.86086725192871
29910,Beaufort County,SC,86.59217877094973
29927,Jasper County,SC,80.26070763500931
57042,Lake County,SD,93.1098696461825
57105,Minnehaha County,SD,33.2535248736366
57110,Minnehaha County,SD,41.18116520351157
57262,Roberts County,SD,97.25990955041235
57301,Davison County,SD,69.88560787443468
57555,Todd County,SD,95.95637137536579
57701,Pennington County,SD,38.3878691141261
57719,Pennington County,SD,86.06012237297153
57747,Fall River County,SD,96.38201649374834
37013,Davidson County,TN,82.68156424581005
37015,Cheatham County,TN,49.58765629156691
37030,Smith County,TN,67.0391061452514
37034,Marshall County,TN,76.19047619047619
37040,Montgomery County,TN,46.44852354349561
37043,Montgomery County,TN,23.75631816972599
37066,Sumner County,TN,5.134344240489492
37073,Robertson County,TN,82.65496142591114
37075,Sumner County,TN,8.85873902633679
37085,Rutherford County,TN,97.79196594839053
37086,Rutherford County,TN,34.051609470603886
37087,Wilson County,TN,9.65682362330407
37091,Marshall County,TN,26.496408619313648
37110,Warren County,TN,34.15802075019952
37122,Wilson County,TN,50.97100292631019
37128,Rutherford County,TN,50.359138068635275
37130,Rutherford County,TN,11.838254855014632
37153,Rutherford County,TN,99.57435488161745
37160,Bedford County,TN,10.986964618249534
37172,Robertson County,TN,54.42936951316839
37174,Williamson County,TN,34.9561053471668
37186,Sumner County,TN,55.38707102952913
37205,Davidson County,TN,61.6121308858739
37211,Davidson County,TN,60.015961691939346
37217,Davidson County,TN,29.156690609204578
37218,Davidson County,TN,38.9465283320032
37221,Davidson County,TN,55.99893588720405
37321,Rhea County,TN,51.183825485501465
37331,McMinn County,TN,68.10321894120777
37343,Hamilton County,TN,44.34690077148178
37347,Marion County,TN,70.89651503059325
37363,Hamilton County,TN,27.799946794360203
37377,Hamilton County,TN,79.86166533652566
37381,Rhea County,TN,78.37190742218675
37385,Monroe County,TN,91.03484969406757
37388,Coffee County,TN,20.9098164405427
37411,Hamilton County,TN,25.911146581537643
37415,Hamilton County,TN,46.87416866187816
37416,Hamilton County,TN,42.75073157754722
37421,Hamilton County,TN,50.30593242883745
37601,Washington County,TN,9.071561585528066
37604,Washington County,TN,39.34557063048683
37641,Greene County,TN,62.01117318435754
37643,Carter County,TN,6.491088055333866
37650,Unicoi County,TN,49.906890130353815
37665,Sullivan County,TN,76.69592976855547
37725,Jefferson County,TN,40.4096834264432
37743,Greene County,TN,6.411279595637137
37748,Roane County,TN,21.973929236499067
37755,Scott County,TN,98.51024208566108
37757,Campbell County,TN,78.85075818036712
37763,Roane County,TN,55.89252460760841
37766,Campbell County,TN,23.596701250332536
37769,Anderson County,TN,77.22798616653365
37771,Loudon County,TN,42.53790901835595
37772,Loudon County,TN,90.10375099760574
37777,Blount County,TN,49.21521681298218
37807,Union County,TN,60.73423782920989
37841,Scott County,TN,66.79968076616122
37863,Sevier County,TN,76.27028465017291
37874,Monroe County,TN,27.188081936685286
37876,Sevier County,TN,56.34477254588987
37880,Meigs County,TN,96.3022080340516
37909,Knox County,TN,79.14338919925513
37914,Knox County,TN,24.235168927906358
37917,Knox County,TN,9.257781324820431
37918,Knox County,TN,30.992285182229317
37921,Knox County,TN,17.82388933226922
37922,Knox County,TN,76.11066773077945
37931,Knox County,TN,65.09710029263101
37934,Knox County,TN,71.9340250066507
38011,Tipton County,TN,86.805001330141
38016,Shelby County,TN,85.90050545357808
38017,Shelby County,TN,32.48204309656823
38053,Shelby County,TN,69.99201915403033
38107,Shelby County,TN,28.970470869912212
38108,Shelby County,TN,43.309390795424314
38109,Shelby County,TN,5.905826017557861
38111,Shelby County,TN,12.58313381218409
38114,Shelby County,TN,43.868050013301406
38116,Shelby County,TN,10.268688480978984
38118,Shelby County,TN,58.55280659749933
38122,Shelby County,TN,74.96674647512637
38125,Shelby County,TN,41.872838520883214
38127,Shelby County,TN,4.575685022612397
38134,Shelby County,TN,59.5903165735568
38201,Carroll County,TN,71.29555732907689
38225,Weakley County,TN,89.09284384144719
38305,Madison County,TN,4.761904761904762
38344,Carroll County,TN,63.15509444001064
38351,Henderson County,TN,39.8244213886672
38355,Gibson County,TN,96.96727853152434
38358,Gibson County,TN,45.06517690875233
38382,Gibson County,TN,90.31657355679702
38401,Maury County,TN,3.139132748071295
38462,Lewis County,TN,60.25538707102953
38572,Cumberland County,TN,51.15722266560255
38583,White County,TN,15.216812982176112
75001,Dallas County,TX,87.84251130619846
75002,Collin County,TX,12.795956371375366
75006,Dallas County,TX,33.01409949454642
75010,Denton County,TX,56.07874434690076
75013,Collin County,TX,70.65708965150306
75025,Collin County,TX,44.50651769087523
75028,Denton County,TX,92.39159350891194
75032,Rockwall County,TX,49.66746475126364
75033,,TX,92.31178504921522
75035,Collin County,TX,61.29289704708699
75038,Dallas County,TX,50.06650704974728
75040,Dallas County,TX,57.51529662144187
75042,Dallas County,TX,82.36233040702314
75043,Dallas County,TX,11.386006916733175
75044,Dallas County,TX,42.53790901835595
75048,Dallas County,TX,63.39451981910082
75050,Dallas County,TX,65.12370311252992
75051,Dallas County,TX,64.88427773343975
75052,Dallas County,TX,9.869646182495345
75057,Denton County,TX,77.57382282521948
75060,Dallas County,TX,28.172386272944934
75061,Dallas County,TX,93.88135142325086
75062,Dallas County,TX,32.90768821495079
75067,Denton County,TX,20.297951582867785
75069,Collin County,TX,35.5413673849428
75070,Collin County,TX,8.619313647246608
75071,Collin County,TX,80.79276403298749
75074,Collin County,TX,41.18116520351157
75080,Dallas County,TX,46.76775738228252
75088,Dallas County,TX,59.11146581537643
75092,Grayson County,TX,34.07821229050279
75098,Collin County,TX,12.928970470869913
75104,Dallas County,TX,45.19819100824687
75110,Navarro County,TX,29.66214418728385
75114,Kaufman County,TX,96.8342644320298
75116,Dallas County,TX,72.43947858472998
75119,Ellis County,TX,42.11226389997339
75140,Van Zandt County,TX,72.14684756584198
75150,Dallas County,TX,64.40542697525937
75154,Ellis County,TX,30.965682362330405
75156,Henderson County,TX,35.80739558393189
75160,Kaufman County,TX,53.17903697791966
75161,Kaufman County,TX,93.61532322426177
75166,Collin County,TX,99.17531258313382
75180,Dallas County,TX,56.47778664538441
75181,Dallas County,TX,41.39398776270284
75189,Rockwall County,TX,31.94998669859005
75206,Dallas County,TX,37.77600425645119
75208,Dallas County,TX,81.00558659217877
75209,Dallas County,TX,57.64831072093642
75210,Dallas County,TX,58.47299813780261
75211,Dallas County,TX,72.43947858472998
75212,Dallas County,TX,32.48204309656823
75216,Dallas County,TX,17.025804735301943
75217,Dallas County,TX,57.036445863261505
75220,Dallas County,TX,90.21016227720138
75224,Dallas County,TX,89.43868050013302
75225,Dallas County,TX,67.94360202181431
75227,Dallas County,TX,38.14844373503591
75230,Dallas County,TX,87.097632349029
75231,Dallas County,TX,32.29582335727587
75233,Dallas County,TX,93.32269220537377
75234,Dallas County,TX,85.04921521681298
75235,Dallas County,TX,58.23357275871243
75236,Dallas County,TX,81.83027400904496
75238,Dallas County,TX,56.21175844639532
75241,Dallas County,TX,13.40782122905028
75243,Dallas County,TX,88.80021282255919
75244,Dallas County,TX,85.74088853418462
75248,Dallas County,TX,78.26549614259112
75253,Dallas County,TX,54.668794892258575
75254,Dallas County,TX,93.16307528598031
75287,Denton County,TX,87.57648310720937
75402,Hunt County,TX,68.34264432029795
75409,Collin County,TX,69.24714019686087
75418,Fannin County,TX,53.84410747539239
75426,Red River County,TX,94.8390529396116
75440,Rains County,TX,87.390263367917
75455,Titus County,TX,86.72519287044426
75460,Lamar County,TX,46.395317903697794
75482,Hopkins County,TX,78.90396382016493
75503,Bowie County,TX,38.25485501463155
75561,Bowie County,TX,98.69646182495345
75605,Gregg County,TX,73.6632083000798
75702,Smith County,TX,24.820430965682363
75758,Henderson County,TX,76.35009310986965
75766,Cherokee County,TX,22.452779994679435
75860,Freestone County,TX,86.8582069699388
75862,Trinity County,TX,84.17132216014897
75935,Shelby County,TX,68.18302740090449
75964,Nacogdoches County,TX,82.04309656823622
75972,San Augustine County,TX,60.41500399042299
76011,Tarrant County,TX,42.67092311785049
76012,Tarrant County,TX,34.69007714817771
76016,Tarrant County,TX,56.1585528065975
76017,Tarrant County,TX,19.446661346102687
76021,Tarrant County,TX,22.266560255387073
76022,Tarrant County,TX,76.27028465017291
76031,Johnson County,TX,83.50625166267625
76033,Johnson County,TX,24.15536046820963
76040,Tarrant County,TX,33.35993615323225
76053,Tarrant County,TX,27.640329874966746
76054,Tarrant County,TX,96.78105879223197
76063,Tarrant County,TX,7.794626230380421
76065,Ellis County,TX,27.16147911678638
76073,Wise County,TX,94.01436552274541
76086,Parker County,TX,48.04469273743017
76103,Tarrant County,TX,53.604682096302206
76108,Tarrant County,TX,61.532322426177174
76112,Tarrant County,TX,30.19420058526204
76114,Tarrant County,TX,88.5341846235701
76117,Tarrant County,TX,22.106943335993616
76119,Tarrant County,TX,3.4849694067571164
76131,Tarrant County,TX,37.642990156956635
76133,Tarrant County,TX,38.095238095238095
76134,Tarrant County,TX,48.81617451449854
76137,Tarrant County,TX,11.891460494812451
76179,Tarrant County,TX,51.37004522479383
76180,Tarrant County,TX,28.651237031125298
76207,Denton County,TX,73.68981111997871
76208,Denton County,TX,49.02899707368981
76234,Wise County,TX,60.78744346900772
76240,Cooke County,TX,79.3296089385475
76258,Denton County,TX,91.00824687416866
76266,Denton County,TX,94.33359936153232
76301,Wichita County,TX,33.43974461292897
76444,Comanche County,TX,99.46794360202182
76446,Erath County,TX,89.09284384144719
76501,Bell County,TX,7.980845969672785
76502,Bell County,TX,8.56610800744879
76520,Milam County,TX,60.095770151636074
76541,Bell County,TX,32.588454376163874
76548,Bell County,TX,31.604150039904226
76549,Bell County,TX,76.74913540835328
76574,Williamson County,TX,36.578877361000266
76706,McLennan County,TX,22.505985634477256
76904,Tom Green County,TX,81.24501197126895
77004,Harris County,TX,16.972599095504123
77005,Harris County,TX,63.8999733971801
77006,Harris County,TX,67.70417664272414
77007,Harris County,TX,39.904229848363926
77008,Harris County,TX,80.95238095238095
77009,Harris County,TX,67.75738228252195
77012,Harris County,TX,95.61053471667998
77015,Harris County,TX,26.682628358606014
77016,Harris County,TX,64.53844107475393
77017,Harris County,TX,43.52221335461559
77018,Harris County,TX,82.30912476722533
77024,Harris County,TX,51.2902367650971
77027,Harris County,TX,78.18568768289438
77029,Harris County,TX,59.537110933758974
77030,Harris County,TX,96.22239957435488
77031,Harris County,TX,67.75738228252195
77033,Harris County,TX,87.49667464751263
77034,Harris County,TX,88.61399308326683
77036,Harris County,TX,73.79622239957435
77038,Harris County,TX,91.22106943335993
77039,Harris County,TX,87.31045490822027
77042,Harris County,TX,93.45570630486831
77043,Harris County,TX,74.83373237563181
77044,Harris County,TX,77.01516360734237
77047,Harris County,TX,94.78584729981378
77048,Harris County,TX,87.25724926842246
77049,Harris County,TX,94.62623038042032
77055,Harris County,TX,47.299813780260706
77058,Harris County,TX,76.19047619047619
77062,Harris County,TX,49.10880553338654
77063,Harris County,TX,56.29156690609205
77074,Harris County,TX,70.44426709231179
77076,Harris County,TX,41.60681032189412
77077,Harris County,TX,31.57754722000532
77079,Harris County,TX,88.95982974195265
77081,Harris County,TX,84.11811652035117
77082,Harris County,TX,37.08433093907954
77083,Harris County,TX,64.05959031657356
77084,Harris County,TX,63.3147113594041
77085,Harris County,TX,82.60175578611333
77089,Harris County,TX,66.26762436818304
77090,Harris County,TX,17.664272412875764
77091,Harris County,TX,42.11226389997339
77093,Harris County,TX,29.555732907688213
77095,Harris County,TX,35.940409683426445
77096,Harris County,TX,48.07129555732907
77098,Harris County,TX,95.37110933758979
77099,Harris County,TX,74.91354083532855
77304,Montgomery County,TX,81.03218941207768
77328,San Jacinto County,TX,71.02952913008778
77338,Harris County,TX,32.26922053737697
77339,Harris County,TX,88.29475924447992
77340,Walker County,TX,82.70816706570898
77351,Polk County,TX,31.896781058792236
77355,Montgomery County,TX,47.64565043894653
77357,Montgomery County,TX,51.902101622772015
77365,Montgomery County,TX,37.16413939877627
77371,San Jacinto County,TX,85.47486033519553
77372,Montgomery County,TX,85.47486033519553
77375,Harris County,TX,42.990156956637406
77379,Harris County,TX,47.32641660015962
77386,Montgomery County,TX,21.707901037509977
77388,Harris County,TX,67.065708965150307
77396,Harris County,TX,92.8172386272945
77401,Harris County,TX,60.68103218941208
77406,Fort Bend County,TX,89.01303538175046
77407,Fort Bend County,TX,40.1170524075552
77423,Waller County,TX,84.91620111731844
77429,Harris County,TX,6.225059856344773
77433,Harris County,TX,49.77387603085927
77434,Colorado County,TX,99.92019154030328
77441,Fort Bend County,TX,85.1290236765097
77449,Harris County,TX,25.61851556264964
77459,Fort Bend County,TX,84.01170524075552
77465,Matagorda County,TX,86.40595903165735
77469,Fort Bend County,TX,17.53125831338122
77477,Fort Bend County,TX,75.84463953179036
77479,Fort Bend County,TX,18.329342910348497
77488,Wharton County,TX,57.32907688214951
77489,Fort Bend County,TX,18.70178238893323
77494,Fort Bend County,TX,78.61133280127693
77502,Harris County,TX,74.11545623836126
77503,Harris County,TX,90.31657355679702
77504,Harris County,TX,55.73290768821495
77530,Harris County,TX,77.17478052673583
77536,Harris County,TX,26.230380420324558
77539,Galveston County,TX,40.4096834264432
77541,Brazoria County,TX,69.40675711625433
77568,Galveston County,TX,22.027134876296888
77573,Galveston County,TX,4.8417132216014895
77575,Liberty County,TX,55.81271614791168
77583,Brazoria County,TX,38.65389731311519
77587,Harris County,TX,73.31737164139399
77591,Galveston County,TX,44.586326150571956
77598,Harris County,TX,47.14019686086725
77627,Jefferson County,TX,62.51662676243682
77632,Orange County,TX,86.21973929236499
77640,Jefferson County,TX,48.84277733439745
77651,Jefferson County,TX,86.03351955307262
77662,Orange County,TX,66.85288640595903
77703,Jefferson County,TX,87.44346900771481
77705,Jefferson County,TX,29.928172386272944
77707,Jefferson County,TX,68.02341048151104
77713,Jefferson County,TX,72.89172652301144
77801,Brazos County,TX,74.195264698058
77802,Brazos County,TX,47.61904761904761
77803,Brazos County,TX,48.39052939611599
77833,Washington County,TX,67.49135408353285
77840,Brazos County,TX,31.71056131949987
77845,Brazos County,TX,5.027932960893855
77868,Grimes County,TX,58.23357275871243
77901,Victoria County,TX,47.007182761372704
77904,Victoria County,TX,26.948656557595108
77979,Calhoun County,TX,62.623038042032455
78002,Bexar County,TX,96.19579675445597
78023,Bexar County,TX,87.390263367917
78026,Atascosa County,TX,97.84517158818835
78040,Webb County,TX,28.385208832136204
78041,Webb County,TX,59.8829475924448
78043,Webb County,TX,87.9489225857941
78045,Webb County,TX,64.93748337323755
78046,Webb County,TX,8.512902367650971
78061,Frio County,TX,92.01915403032721
78108,Guadalupe County,TX,88.10853950518755
78109,Bexar County,TX,34.9561053471668
78112,Bexar County,TX,90.13035381750466
78119,Karnes County,TX,93.32269220537377
78121,Wilson County,TX,81.51104017025804
78130,Comal County,TX,13.32801276935355
78154,Guadalupe County,TX,65.57595105081138
78201,Bexar County,TX,45.35780792764033
78207,Bexar County,TX,61.82495344506518
78210,Bexar County,TX,46.71455174248471
78211,Bexar County,TX,40.6757116254323
78213,Bexar County,TX,89.4120776802341
78217,Bexar County,TX,57.8877361000266
78218,Bexar County,TX,70.94972067039106
78219,Bexar County,TX,69.9388135142325
78222,Bexar County,TX,56.71721202447459
78223,Bexar County,TX,11.093375897845172
78228,Bexar County,TX,70.41766427241288
78229,Bexar County,TX,73.39718010109073
78230,Bexar County,TX,48.550146315509444
78233,Bexar County,TX,28.465017291832933
78237,Bexar County,TX,52.03511572226655
78239,Bexar County,TX,96.94067571162543
78244,Bexar County,TX,49.61425911146581
78249,Bexar County,TX,78.98377227986167
78250,Bexar County,TX,29.342910348496943
78259,Bexar County,TX,69.24714019686087
78332,Jim Wells County,TX,90.58260175578611
78361,Jim Hogg County,TX,98.45703644586327
78382,Aransas County,TX,81.88347964884277
78390,San Patricio County,TX,99.06890130353817
78404,Nueces County,TX,83.95849960095771
78411,Nueces County,TX,44.586326150571956
78501,Hidalgo County,TX,69.00771481777068
78504,Hidalgo County,TX,61.904761904761905
78516,Hidalgo County,TX,93.85474860335195
78520,Cameron County,TX,94.67943602021815
78521,Cameron County,TX,73.45038574088854
78526,Cameron County,TX,86.13993083266827
78537,Hidalgo County,TX,83.3998403830806
78541,Hidalgo County,TX,71.77440808725724
78542,Hidalgo County,TX,80.65974993349295
78566,Cameron County,TX,86.8582069699388
78570,Hidalgo County,TX,86.512370311253
78572,Hidalgo County,TX,58.79223197658951
78574,Hidalgo County,TX,85.58127161479116
78576,Hidalgo County,TX,98.00478850758181
78577,Hidalgo County,TX,80.71295557329077
78582,Starr County,TX,57.72811918063314
78584,Starr County,TX,56.45118382548551
78586,Cameron County,TX,66.29422718808193
78593,Cameron County,TX,99.65416334131419
78595,Hidalgo County,TX,98.35062516626762
78613,Williamson County,TX,20.963022080340515
78617,Travis County,TX,96.51503059324288
78626,Williamson County,TX,77.81324820430966
78634,Williamson County,TX,79.72865123703113
78639,Llano County,TX,73.53019420058527
78640,Hays County,TX,28.784251130619847
78653,Travis County,TX,68.87470071827615
78660,Travis County,TX,48.78957169459962
78665,Williamson County,TX,37.40356477786646
78666,Hays County,TX,16.41393987762703
78681,Williamson County,TX,43.60202181431232
78723,Travis County,TX,49.66746475126364
78744,Travis County,TX,83.21362064378825
78745,Travis County,TX,49.10880553338654
78758,Travis County,TX,95.69034317637669
78839,Zavala County,TX,97.63234902899708
78840,Val Verde County,TX,70.71029529130087
78852,Maverick County,TX,43.81484437350359
79106,Potter County,TX,42.37829209896249
79110,Randall County,TX,54.588986432561846
79121,Randall County,TX,95.7169459962756
79336,Hockley County,TX,61.82495344506518
79347,Bailey County,TX,82.09630220803406
79360,Gaines County,TX,39.66480446927375
79414,Lubbock County,TX,69.00771481777068
79423,Lubbock County,TX,70.97632349028997
79424,Lubbock County,TX,48.1245011971269
79549,Scurry County,TX,27.87975525405693
79601,Taylor County,TX,93.93455706304869
79701,Midland County,TX,65.23011439212556
79705,Midland County,TX,16.254322958233573
79707,Midland County,TX,21.521681298217608
79756,Ward County,TX,88.00212822559192
79761,Ector County,TX,37.96222399574355
79762,Ector County,TX,50.731577547220006
79763,Ector County,TX,22.426177174780527
79764,Ector County,TX,43.62862463421123
79772,Reeves County,TX,71.80101090715615
79782,Martin County,TX,89.81111997871774
79835,El Paso County,TX,92.8438414471934
79838,El Paso County,TX,89.46528332003192
79905,El Paso County,TX,94.51981910082469
79907,El Paso County,TX,25.219473264166005
79912,El Paso County,TX,16.09470603884012
79924,El Paso County,TX,65.70896515030593
79927,El Paso County,TX,44.71934025006651
79932,El Paso County,TX,92.71082734769885
79934,El Paso County,TX,75.60521415270019
79936,El Paso County,TX,28.225591912742754
79938,El Paso County,TX,19.765895184889597
84003,Utah County,UT,30.54003724394786
84009,Salt Lake County,UT,74.35488161745145
84010,Davis County,UT,63.47432827879756
84025,Davis County,UT,67.17212024474594
84029,Tooele County,UT,47.51263633945198
84043,Utah County,UT,66.87948922585794
84057,Utah County,UT,91.85953711093376
84065,Salt Lake County,UT,25.405693003458367
84066,Duchesne County,UT,49.02899707368981
84067,Weber County,UT,76.69592976855547
84074,Tooele County,UT,1.6493748337323755
84078,Uintah County,UT,8.938547486033519
84081,Salt Lake County,UT,19.180633147113593
84084,Salt Lake County,UT,67.67757382282522
84087,Davis County,UT,83.50625166267625
84092,Salt Lake County,UT,84.27773343974462
84093,Salt Lake County,UT,73.84942803937219
84095,Salt Lake County,UT,27.02846501729183
84096,Salt Lake County,UT,68.79489225857941
84116,Salt Lake County,UT,50.811386006916734
84118,Salt Lake County,UT,84.88959829741952
84119,Salt Lake County,UT,50.33253524873636
84128,Salt Lake County,UT,95.84996009577014
84129,,UT,51.8488959829742
84337,Box Elder County,UT,98.37722798616653
84341,Cache County,UT,77.73343974461294
84401,Weber County,UT,29.874966746475128
84501,Carbon County,UT,52.16812982176111
84606,Utah County,UT,84.57036445863262
84645,Juab County,UT,98.48363926576216
84651,Utah County,UT,87.52327746741155
84655,Utah County,UT,90.23676509710029
84660,Utah County,UT,56.53099228518222
84663,Utah County,UT,88.40117052407555
84737,Washington County,UT,92.8438414471934
84738,Washington County,UT,94.01436552274541
84770,Washington County,UT,25.751529662144186
05403,Chittenden County,VT,82.2293163075286
20109,Prince William County,VA,19.952114924181963
20110,Manassas city,VA,23.17105613194999
20112,Prince William County,VA,88.85341846235701
20120,Fairfax County,VA,40.64910880553339
20121,Fairfax County,VA,55.46687948922586
20147,Loudoun County,VA,24.90023942537909
20148,Loudoun County,VA,77.97286512370312
20151,Fairfax County,VA,95.29130087789306
20152,Loudoun County,VA,70.28465017291833
20170,Fairfax County,VA,83.26682628358606
20171,Fairfax County,VA,37.988826815642454
22003,Fairfax County,VA,72.04043628624635
22015,Fairfax County,VA,73.50359138068634
22025,Prince William County,VA,95.15828677839852
22030,Fairfax County,VA,18.728385208832137
22032,Fairfax County,VA,53.73769619579676
22033,Fairfax County,VA,80.02128225591912
22039,Fairfax County,VA,74.99334929502527
22043,Fairfax County,VA,87.28385208832137
22044,Fairfax County,VA,94.46661346102687
22079,Fairfax County,VA,29.502527267890393
22150,Fairfax County,VA,91.64671455174248
22152,Fairfax County,VA,76.00425645118382
22191,Prince William County,VA,56.69060920457568
22203,Arlington County,VA,65.8951848895983
22205,Arlington County,VA,82.2293163075286
22207,Arlington County,VA,74.08885341846235
22209,Arlington County,VA,87.65629156690609
22301,Alexandria city,VA,88.50758180367119
22303,Fairfax County,VA,64.64485235434955
22304,Alexandria city,VA,31.497738760308593
22306,Fairfax County,VA,17.93030061186486
22308,Fairfax County,VA,75.44559723330673
22309,Fairfax County,VA,68.02341048151104
22310,Fairfax County,VA,41.36738494280394
22312,Fairfax County,VA,66.69326948656558
22314,Alexandria city,VA,52.992817238627296
22315,Fairfax County,VA,76.7757382282522
22401,Fredericksburg city,VA,35.51476456504389
22407,Spotsylvania County,VA,36.818302740090445
22485,King George County,VA,53.55147645650439
22546,Caroline County,VA,93.66852886405958
22554,Stafford County,VA,83.00079808459697
22601,Winchester city,VA,89.49188613993083
22630,Warren County,VA,14.817770683692471
22642,Warren County,VA,95.05187549880287
22701,Culpeper County,VA,48.23091247672253
22827,Rockingham County,VA,65.76217079010375
22835,Page County,VA,48.60335195530726
22849,Page County,VA,93.82814578345304
22968,Greene County,VA,51.955307262569825
22973,Greene County,VA,82.70816706570898
22980,Waynesboro city,VA,4.2298483639265765
23120,Chesterfield County,VA,94.2803937217345
23139,Powhatan County,VA,86.43256185155627
23185,James City County,VA,59.51050811386007
23223,Henrico County,VA,24.55440276669327
23224,Richmond city,VA,5.666400638467677
23227,Henrico County,VA,28.837456770417663
23229,Henrico County,VA,92.2319765895185
23231,Henrico County,VA,45.01197126895451
23234,Chesterfield County,VA,11.252992817238628
23321,Chesapeake city,VA,34.71667996807661
23435,Suffolk city,VA,35.19553072625698
23452,Virginia Beach city,VA,13.141793030061185
23456,Virginia Beach city,VA,77.78664538441075
23503,Norfolk city,VA,69.59297685554668
23504,Norfolk city,VA,67.54455972333068
23510,Norfolk city,VA,81.51104017025804
23602,Newport News city,VA,17.877094972067038
23701,Portsmouth city,VA,35.19553072625698
23832,Chesterfield County,VA,83.0806065442937
23851,Franklin city,VA,47.06038840117052
23875,Prince George County,VA,77.09497206703911
24013,Roanoke city,VA,69.61957967544559
24015,Roanoke city,VA,66.1878159084863
24054,Henry County,VA,82.70816706570898
24201,Bristol city,VA,30.992285182229317
24343,Carroll County,VA,64.11279595637137
24401,Staunton city,VA,5.799414737962224
24450,Rockbridge County,VA,66.08140462889067
24541,Danville city,VA,23.01143921255653
98002,King County,WA,22.745411013567438
98006,King County,WA,45.99627560521415
98007,King County,WA,76.35009310986965
98008,King County,WA,83.6924714019686
98012,Snohomish County,WA,18.595371109337588
98028,King County,WA,88.21495078478318
98030,King County,WA,15.003990422984836
98032,King County,WA,65.54934823091247
98037,Snohomish County,WA,51.183825485501465
98052,King County,WA,35.96701250332535
98059,King County,WA,32.64166001596169
98065,King County,WA,77.81324820430966
98077,King County,WA,91.14126097366321
98087,Snohomish County,WA,33.599361532322426
98106,King County,WA,80.71295557329077
98107,King County,WA,59.40409683426443
98115,King County,WA,23.995743548816176
98117,King County,WA,50.94440010641128
98177,King County,WA,62.623038042032455
98201,Snohomish County,WA,35.46155892524608
98208,Snohomish County,WA,12.210694333599362
98252,Snohomish County,WA,92.47140196860867
98270,Snohomish County,WA,10.720936419260441
98273,Skagit County,WA,17.10561319499867
98277,Island County,WA,34.26443202979516
98292,Snohomish County,WA,49.880287310454904
98294,Snohomish County,WA,88.42777334397447
97003,NA,NA,41.60681032189412
98296,Snohomish County,WA,32.53524873636606
98310,Kitsap County,WA,57.08965150305932
98312,Kitsap County,WA,61.37270550678372
98338,Pierce County,WA,34.55706304868316
98370,Kitsap County,WA,62.75605214152699
98375,Pierce County,WA,39.42537909018356
98387,Pierce County,WA,13.886671987230647
98391,Pierce County,WA,52.80659749933493
98404,Pierce County,WA,55.573290768821494
98406,Pierce County,WA,51.79569034317638
98528,Mason County,WA,97.44612928970471
98531,Lewis County,WA,64.77786645384411
98580,Pierce County,WA,83.42644320297951
98626,Cowlitz County,WA,66.1878159084863
98642,Clark County,WA,93.00345836658686
98671,Clark County,WA,78.85075818036712
98682,Clark County,WA,78.74434690077148
98801,Chelan County,WA,46.209098164405425
98841,Okanogan County,WA,92.33838786911413
98903,Yakima County,WA,60.30859271082735
98908,Yakima County,WA,25.299281723862734
98926,Kittitas County,WA,74.54110135674381
99202,Spokane County,WA,50.67837190742218
99205,Spokane County,WA,27.40090449587656
99208,Spokane County,WA,26.469805799414736
99301,Franklin County,WA,44.55972333067305
99323,Walla Walla County,WA,99.25512104283054
99349,Grant County,WA,99.20191540303273
20001,District of Columbia,DC,12.051077414205906
20002,District of Columbia,DC,14.737962223995742
20010,District of Columbia,DC,40.728917265230116
20011,District of Columbia,DC,20.324554402766694
20016,District of Columbia,DC,96.22239957435488
20017,District of Columbia,DC,40.808725724926845
20019,District of Columbia,DC,12.024474594306996
20020,District of Columbia,DC,8.087257249268424
20032,District of Columbia,DC,14.578345304602289
24701,Mercer County,WV,51.39664804469274
25276,Roane County,WV,41.5536046820963
25425,Jefferson County,WV,74.27507315775472
26101,Wood County,WV,2.0484171322160147
26164,Jackson County,WV,80.89917531258314
26301,Harrison County,WV,3.245544027666933
26354,Taylor County,WV,71.13594040968343
26385,Harrison County,WV,98.2708167065709
26415,Ritchie County,WV,99.25512104283054
26501,Monongalia County,WV,10.135674381484437
26505,Monongalia County,WV,23.11785049215217
26554,Marion County,WV,1.782388933226922
26847,Grant County,WV,86.99122106943335
53022,Washington County,WI,54.64219207235968
53073,Sheboygan County,WI,77.81324820430966
53081,Sheboygan County,WI,68.82149507847832
53090,Washington County,WI,52.513966480446925
53092,Ozaukee County,WI,78.15908486299547
53095,Washington County,WI,38.9465283320032
53132,Milwaukee County,WI,62.09098164405427
53140,Kenosha County,WI,5.826017557861133
53142,Kenosha County,WI,4.948124501197127
53146,Waukesha County,WI,87.76270284650172
53158,Kenosha County,WI,12.130885873902633
53189,Waukesha County,WI,43.947858472998135
53205,Milwaukee County,WI,0.931098696461825
53208,Milwaukee County,WI,26.28358606012237
53209,Milwaukee County,WI,20.43096568236233
53210,Milwaukee County,WI,3.5115722266560256
53211,Milwaukee County,WI,55.121042830540034
53215,Milwaukee County,WI,27.82654961425911
53217,Milwaukee County,WI,23.197658951848897
53221,Milwaukee County,WI,59.85634477254589
53223,Milwaukee County,WI,8.8853418462357
53224,Milwaukee County,WI,59.191274275073155
53225,Milwaukee County,WI,5.693003458366587
53227,Milwaukee County,WI,58.49960095770152
53402,Racine County,WI,2.6602819898909282
53403,Racine County,WI,21.308858739026338
53405,Racine County,WI,94.44001064112796
53511,Rock County,WI,0.26602819898909286
53545,Rock County,WI,23.330673051343442
53548,Rock County,WI,14.977387603085926
53563,Rock County,WI,74.11545623836126
53573,Grant County,WI,99.54775206171854
53597,Dane County,WI,47.08699122106943
53711,Dane County,WI,20.83000798084597
53713,Dane County,WI,40.48949188613993
53913,Sauk County,WI,60.52141527001862
54011,Pierce County,WI,80.47353019420058
54015,St. Croix County,WI,96.72785315243416
54017,St. Croix County,WI,86.00691673317372
54028,St. Croix County,WI,99.38813514232508
54115,Brown County,WI,33.43974461292897
54166,Shawano County,WI,60.202181431231715
54302,Brown County,WI,79.24980047885076
54313,Brown County,WI,79.99467943602022
54409,Langlade County,WI,25.086459164671453
54452,Lincoln County,WI,73.45038574088854
54481,Portage County,WI,11.49241819632881
54630,Trempealeau County,WI,85.63447725458899
54701,Eau Claire County,WI,81.27161479116786
54728,Barron County,WI,89.62490023942537
54729,Chippewa County,WI,20.77680234104815
54736,Pepin County,WI,97.41952646980579
54768,Chippewa County,WI,98.93588720404362
54822,Barron County,WI,95.58393189678107
54837,Polk County,WI,90.8220271348763
54848,Rusk County,WI,82.09630220803406
54880,Douglas County,WI,8.060654429369512
54915,Outagamie County,WI,22.905027932960895
54944,Outagamie County,WI,90.63580739558394
54952,Winnebago County,WI,35.38175046554935
54956,Winnebago County,WI,15.589252460760841
54961,Waupaca County,WI,45.99627560521415
82501,Fremont County,WY,72.89172652301144
