ZipCode,county,state,Adult
35064,Jefferson County,AL,61.261261261261254
35907,Etowah County,AL,94.29429429429429
85023,Maricopa County,AZ,29.129129129129126
85710,Pima County,AZ,9.90990990990991
85756,Pima County,AZ,36.03603603603604
86323,Yavapai County,AZ,53.753753753753756
72704,Washington County,AR,81.98198198198197
90036,Los Angeles County,CA,69.36936936936937
90042,Los Angeles County,CA,54.35435435435435
90094,Los Angeles County,CA,96.09609609609609
90232,Los Angeles County,CA,95.1951951951952
90250,Los Angeles County,CA,58.85885885885885
91010,Los Angeles County,CA,85.88588588588588
91325,Los Angeles County,CA,78.97897897897897
91423,Los Angeles County,CA,73.57357357357357
91504,Los Angeles County,CA,90.09009009009009
91767,Los Angeles County,CA,42.64264264264264
92021,San Diego County,CA,16.816816816816818
92069,San Diego County,CA,71.17117117117117
92081,San Diego County,CA,73.87387387387388
92104,San Diego County,CA,28.22822822822823
92108,San Diego County,CA,86.18618618618619
92236,Riverside County,CA,92.49249249249249
92243,Imperial County,CA,26.126126126126124
92336,San Bernardino County,CA,11.411411411411411
92399,San Bernardino County,CA,32.432432432432435
92506,Riverside County,CA,75.07507507507508
92592,Riverside County,CA,30.33033033033033
92703,Orange County,CA,73.27327327327328
92708,Orange County,CA,38.13813813813814
92801,Orange County,CA,34.53453453453454
92833,Orange County,CA,51.35135135135135
93010,Ventura County,CA,34.83483483483483
93274,Tulare County,CA,6.906906906906906
93277,Tulare County,CA,26.726726726726728
93454,Santa Barbara County,CA,65.76576576576578
93611,Fresno County,CA,39.33933933933934
93726,Fresno County,CA,23.423423423423422
94015,San Mateo County,CA,45.34534534534534
94062,San Mateo County,CA,57.65765765765766
94131,San Francisco County,CA,86.78678678678679
94519,Contra Costa County,CA,89.4894894894895
94531,Contra Costa County,CA,35.13513513513514
94806,Contra Costa County,CA,82.88288288288288
95051,Santa Clara County,CA,47.147147147147145
95202,San Joaquin County,CA,64.56456456456456
95368,Stanislaus County,CA,82.58258258258259
95628,Sacramento County,CA,64.26426426426426
80014,Arapahoe County,CO,66.66666666666666
80022,Adams County,CO,19.21921921921922
80220,Denver County,CO,35.43543543543544
06067,Hartford County,CT,70.87087087087087
06106,Hartford County,CT,6.006006006006006
06405,New Haven County,CT,43.54354354354354
06513,New Haven County,CT,5.405405405405405
06883,Fairfield County,CT,96.69669669669669
19703,New Castle County,DE,93.09309309309309
32043,Clay County,FL,46.846846846846844
32128,Volusia County,FL,87.68768768768768
32206,Duval County,FL,23.123123123123122
32210,Duval County,FL,4.804804804804805
32218,Duval County,FL,4.2042042042042045
32310,Leon County,FL,69.06906906906907
32327,Wakulla County,FL,79.57957957957959
32459,Walton County,FL,67.26726726726727
32526,Escambia County,FL,15.615615615615615
32724,Volusia County,FL,55.25525525525525
32809,Orange County,FL,50.750750750750754
32837,Orange County,FL,22.22222222222222
32948,Indian River County,FL,94.8948948948949
32967,Indian River County,FL,49.549549549549546
33012,Miami-Dade County,FL,46.246246246246244
33137,Miami-Dade County,FL,93.3933933933934
33147,Miami-Dade County,FL,33.933933933933936
33150,Miami-Dade County,FL,52.85285285285285
33179,Miami-Dade County,FL,62.46246246246246
33181,Miami-Dade County,FL,84.08408408408408
33406,Palm Beach County,FL,79.87987987987988
33637,Hillsborough County,FL,84.38438438438438
34474,Marion County,FL,65.16516516516516
34741,Osceola County,FL,25.225225225225223
30021,DeKalb County,GA,79.27927927927928
30035,DeKalb County,GA,93.993993993994
30038,DeKalb County,GA,44.44444444444444
30066,Cobb County,GA,48.94894894894895
30078,Gwinnett County,GA,61.86186186186187
30088,DeKalb County,GA,41.74174174174174
30114,Cherokee County,GA,36.63663663663664
30188,Cherokee County,GA,56.15615615615616
30339,Cobb County,GA,77.17717717717719
31088,Houston County,GA,17.417417417417415
96782,Honolulu County,HI,38.43843843843844
83301,Twin Falls County,ID,3.903903903903904
60089,Lake County,IL,42.34234234234234
60091,Cook County,IL,72.97297297297297
60133,Cook County,IL,45.645645645645644
60134,Kane County,IL,46.546546546546544
60145,DeKalb County,IL,98.49849849849849
60178,DeKalb County,IL,57.05705705705706
60402,Cook County,IL,81.68168168168168
60451,Will County,IL,71.77177177177178
60502,DuPage County,IL,54.054054054054056
60506,Kane County,IL,27.32732732732733
60510,Kane County,IL,36.63663663663664
60521,DuPage County,IL,74.17417417417418
60538,Kendall County,IL,60.36036036036037
60560,Kendall County,IL,76.57657657657657
60561,DuPage County,IL,59.75975975975976
60564,Will County,IL,39.63963963963964
60585,Will County,IL,83.48348348348348
60646,Cook County,IL,80.48048048048048
60647,Cook County,IL,8.408408408408409
60655,Cook County,IL,31.83183183183183
60660,Cook County,IL,27.927927927927925
60714,Cook County,IL,92.1921921921922
46227,Marion County,IN,10.81081081081081
46774,Allen County,IN,62.16216216216216
47167,Washington County,IN,51.95195195195195
47220,Jackson County,IN,91.8918918918919
47274,Jackson County,IN,30.03003003003003
50315,Polk County,IA,9.60960960960961
51501,Pottawattamie County,IA,3.003003003003003
52803,Scott County,IA,70.27027027027027
40403,Madison County,KY,24.324324324324326
70002,Jefferson Parish,LA,48.348348348348345
70466,Tangipahoa Parish,LA,99.3993993993994
70526,Acadia Parish,LA,25.825825825825827
71301,Rapides Parish,LA,32.13213213213213
20653,St. Mary's County,MD,87.38738738738738
20740,Prince George's County,MD,92.7927927927928
20746,Prince George's County,MD,66.06606606606607
21085,Harford County,MD,74.47447447447448
21114,Anne Arundel County,MD,66.96696696696696
21228,Baltimore County,MD,52.552552552552555
21234,Baltimore County,MD,18.01801801801802
01108,Hampden County,MA,1.2012012012012012
01469,Middlesex County,MA,77.77777777777779
01867,Middlesex County,MA,28.52852852852853
02121,Suffolk County,MA,21.62162162162162
02139,Middlesex County,MA,8.708708708708707
02143,Middlesex County,MA,6.306306306306306
02155,Middlesex County,MA,0.6006006006006006
02186,Norfolk County,MA,15.015015015015015
02341,Plymouth County,MA,43.24324324324324
02351,Plymouth County,MA,18.31831831831832
02760,Bristol County,MA,12.312312312312311
02780,Bristol County,MA,3.303303303303303
48026,Macomb County,MI,37.23723723723724
48124,Wayne County,MI,21.32132132132132
48141,Wayne County,MI,9.30930930930931
48185,Wayne County,MI,6.606606606606606
48227,Wayne County,MI,2.7027027027027026
48723,Tuscola County,MI,28.82882882882883
49315,Kent County,MI,47.74774774774775
49423,Ottawa County,MI,12.612612612612612
49456,Ottawa County,MI,45.94594594594595
55119,Ramsey County,MN,14.114114114114114
55428,Hennepin County,MN,21.02102102102102
55430,Hennepin County,MN,20.12012012012012
56763,Roseau County,MN,78.37837837837837
38930,Leflore County,MS,40.84084084084084
63137,St. Louis County,MO,39.93993993993994
63385,St. Charles County,MO,18.31831831831832
64014,Jackson County,MO,21.92192192192192
64063,Jackson County,MO,40.54054054054054
64129,Jackson County,MO,51.051051051051054
65340,Saline County,MO,83.18318318318319
65355,Benton County,MO,95.4954954954955
68022,Douglas County,NE,91.5915915915916
89123,Clark County,NV,53.153153153153156
89801,Elko County,NV,67.56756756756756
03038,Rockingham County,NH,13.813813813813812
03044,Rockingham County,NH,97.2972972972973
03077,Rockingham County,NH,72.67267267267268
03275,Merrimack County,NH,78.07807807807808
07003,Essex County,NJ,10.21021021021021
07026,Bergen County,NJ,16.516516516516518
07031,Bergen County,NJ,68.16816816816817
07036,Union County,NJ,10.51051051051051
07063,Union County,NJ,63.96396396396396
07083,Union County,NJ,17.117117117117118
07107,Essex County,NJ,37.83783783783784
07202,Union County,NJ,7.5075075075075075
07452,Bergen County,NJ,97.8978978978979
07508,Passaic County,NJ,31.23123123123123
07522,Passaic County,NJ,68.46846846846847
07630,Bergen County,NJ,100
08722,Ocean County,NJ,52.25225225225225
08736,Monmouth County,NJ,95.7957957957958
87105,Bernalillo County,NM,4.504504504504505
87108,Bernalillo County,NM,50.45045045045045
87110,Bernalillo County,NM,60.66066066066066
87124,Sandoval County,NM,12.012012012012011
10029,New York County,NY,0
10030,New York County,NY,57.35735735735735
10037,New York County,NY,40.24024024024024
10460,Bronx County,NY,1.8018018018018018
10472,Bronx County,NY,56.75675675675676
10473,Bronx County,NY,5.7057057057057055
11103,Queens County,NY,74.77477477477478
11420,Queens County,NY,48.64864864864865
11423,Queens County,NY,51.651651651651655
11434,Queens County,NY,15.915915915915916
11553,Nassau County,NY,55.55555555555556
11554,Nassau County,NY,55.85585585585585
11706,Suffolk County,NY,24.024024024024023
13027,Onondaga County,NY,14.714714714714713
14009,Wyoming County,NY,85.58558558558559
14217,Erie County,NY,27.027027027027028
14425,Ontario County,NY,19.81981981981982
14456,Ontario County,NY,8.108108108108109
14489,Wayne County,NY,33.33333333333333
14580,Monroe County,NY,0.3003003003003003
27330,Lee County,NC,23.723723723723726
27406,Guilford County,NC,5.105105105105105
27527,Johnston County,NC,72.07207207207207
27615,Wake County,NC,42.04204204204204
27707,Durham County,NC,13.213213213213212
27801,Edgecombe County,NC,41.14114114114114
28054,Gaston County,NC,20.42042042042042
28086,Cleveland County,NC,84.68468468468468
28278,Mecklenburg County,NC,60.96096096096096
28551,Lenoir County,NC,62.76276276276276
28601,Catawba County,NC,15.315315315315313
28761,McDowell County,NC,81.08108108108108
43031,Licking County,OH,93.69369369369369
43110,Franklin County,OH,24.924924924924923
43130,Fairfield County,OH,1.5015015015015014
43612,Lucas County,OH,22.52252252252252
44106,Cuyahoga County,OH,11.711711711711711
44313,Summit County,OH,30.930930930930934
44425,Trumbull County,OH,33.033033033033036
44663,Tuscarawas County,OH,13.513513513513514
44870,Erie County,OH,2.1021021021021022
45102,Clermont County,OH,37.53753753753754
45416,Montgomery County,OH,84.98498498498499
45417,Montgomery County,OH,9.00900900900901
45885,Auglaize County,OH,75.37537537537537
73115,Oklahoma County,OK,59.15915915915916
74135,Tulsa County,OK,81.38138138138137
97032,Marion County,OR,99.69969969969969
97206,Multnomah County,OR,14.414414414414415
97306,Marion County,OR,57.95795795795796
97914,Malheur County,OR,75.97597597597597
15905,Cambria County,PA,49.249249249249246
17222,Franklin County,PA,80.78078078078079
17702,Lycoming County,PA,96.09609609609609
17870,Snyder County,PA,49.849849849849846
18013,Northampton County,PA,38.73873873873874
18017,Northampton County,PA,7.207207207207207
18102,Lehigh County,PA,0.9009009009009009
18360,Monroe County,PA,29.429429429429426
19003,Montgomery County,PA,69.66966966966966
19007,Bucks County,PA,26.426426426426424
19120,Philadelphia County,PA,2.4024024024024024
19146,Philadelphia County,PA,17.71771771771772
19446,Montgomery County,PA,16.216216216216218
02818,Kent County,RI,87.98798798798799
29607,Greenville County,SC,29.72972972972973
37042,Montgomery County,TN,25.525525525525527
37090,Wilson County,TN,65.46546546546547
37167,Rutherford County,TN,27.627627627627625
37217,Davidson County,TN,43.84384384384384
37852,Scott County,TN,98.7987987987988
38122,Shelby County,TN,54.65465465465466
75041,Dallas County,TX,45.04504504504504
75067,Denton County,TX,33.633633633633636
75142,Kaufman County,TX,63.66366366366366
75160,Kaufman County,TX,66.06606606606607
75212,Dallas County,TX,76.87687687687688
75228,Dallas County,TX,7.807807807807808
75964,Nacogdoches County,TX,64.86486486486487
76011,Tarrant County,TX,54.95495495495496
76016,Tarrant County,TX,67.86786786786787
76028,Johnson County,TX,60.06006006006006
76104,Tarrant County,TX,22.822822822822822
76384,Wilbarger County,TX,77.47747747747748
76642,Limestone County,TX,72.37237237237237
77008,Harris County,TX,63.06306306306306
77040,Harris County,TX,47.44744744744745
77045,Harris County,TX,58.55855855855856
77054,Harris County,TX,78.37837837837837
77061,Harris County,TX,90.39039039039038
77080,Harris County,TX,96.996996996997
77089,Harris County,TX,44.74474474474475
77381,Montgomery County,TX,68.76876876876878
77401,Harris County,TX,71.47147147147147
77407,Fort Bend County,TX,53.453453453453456
77423,Waller County,TX,88.28828828828829
77469,Fort Bend County,TX,30.630630630630627
77494,Fort Bend County,TX,18.91891891891892
77565,Galveston County,TX,85.28528528528528
77573,Galveston County,TX,83.78378378378379
77656,Hardin County,TX,58.25825825825825
77901,Victoria County,TX,59.45945945945946
78572,Hidalgo County,TX,70.57057057057057
78628,Williamson County,TX,90.69069069069069
78839,Zavala County,TX,94.5945945945946
79104,Potter County,TX,99.09909909909909
79407,Lubbock County,TX,50.150150150150154
79549,Scurry County,TX,42.94294294294294
79763,Ector County,TX,35.73573573573574
79764,Ector County,TX,56.45645645645646
84032,Wasatch County,UT,86.48648648648648
84095,Salt Lake County,UT,41.44144144144144
84119,Salt Lake County,UT,12.912912912912914
05401,Chittenden County,VT,80.18018018018019
20110,Manassas city,VA,36.33633633633634
20147,Loudoun County,VA,39.03903903903904
20151,Fairfax County,VA,88.58858858858859
20171,Fairfax County,VA,88.88888888888889
22033,Fairfax County,VA,61.56156156156156
22101,Fairfax County,VA,98.1981981981982
22191,Prince William County,VA,19.51951951951952
22192,Prince William County,VA,20.72072072072072
22204,Arlington County,VA,89.1891891891892
22209,Arlington County,VA,89.7897897897898
22301,Alexandria city,VA,90.990990990991
22407,Spotsylvania County,VA,69.96996996996997
23005,Hanover County,VA,91.29129129129129
23223,Henrico County,VA,3.6036036036036037
23227,Henrico County,VA,75.67567567567568
23231,Henrico County,VA,24.624624624624623
23454,Virginia Beach city,VA,31.53153153153153
24502,Lynchburg city,VA,44.14414414414414
98103,King County,WA,47.74774774774775
98133,King County,WA,97.5975975975976
98360,Pierce County,WA,76.27627627627628
98580,Pierce County,WA,87.08708708708708
98926,Kittitas County,WA,82.28228228228228
99301,Franklin County,WA,11.11111111111111
99338,Benton County,WA,63.36336336336337
20020,District of Columbia,DC,32.732732732732735
53403,Racine County,WI,34.234234234234236
