ZipCode,county,state,Adult
35757,Madison County,AL,70.94594594594594
36420,Covington County,AL,54.729729729729726
99835,Sitka City and Borough,AK,61.14864864864865
85023,Maricopa County,AZ,31.756756756756754
85123,Pinal County,AZ,70.6081081081081
85364,Yuma County,AZ,4.72972972972973
85706,Pima County,AZ,2.7027027027027026
90650,Los Angeles County,CA,19.594594594594593
90802,Los Angeles County,CA,53.04054054054054
91335,Los Angeles County,CA,34.12162162162162
91356,Los Angeles County,CA,99.32432432432432
91709,San Bernardino County,CA,36.82432432432432
92027,San Diego County,CA,48.64864864864865
92107,San Diego County,CA,66.21621621621621
92111,San Diego County,CA,55.4054054054054
92225,Riverside County,CA,75.33783783783784
92234,Riverside County,CA,16.554054054054053
92405,San Bernardino County,CA,72.97297297297297
92663,Orange County,CA,91.8918918918919
92780,Orange County,CA,68.24324324324324
93257,Tulare County,CA,43.24324324324324
93458,Santa Barbara County,CA,17.22972972972973
93535,Los Angeles County,CA,9.121621621621621
93555,Kern County,CA,28.716216216216218
93560,Kern County,CA,90.87837837837837
93638,Madera County,CA,52.02702702702703
93654,Fresno County,CA,54.391891891891895
93662,Fresno County,CA,57.432432432432435
94014,San Mateo County,CA,45.94594594594595
94115,San Francisco County,CA,50.33783783783784
94539,Alameda County,CA,97.63513513513513
94565,Contra Costa County,CA,24.324324324324326
95482,Mendocino County,CA,39.86486486486486
95762,El Dorado County,CA,91.55405405405406
95828,Sacramento County,CA,93.91891891891892
95928,Butte County,CA,37.5
95966,Butte County,CA,11.486486486486488
95973,Butte County,CA,25.675675675675674
80521,Larimer County,CO,67.56756756756756
80701,Morgan County,CO,24.66216216216216
80909,El Paso County,CO,58.78378378378378
32011,Nassau County,FL,60.13513513513513
32141,Volusia County,FL,69.93243243243244
32548,Okaloosa County,FL,64.52702702702703
32725,Volusia County,FL,39.52702702702703
32796,Brevard County,FL,53.71621621621622
32811,Orange County,FL,25.33783783783784
32822,Orange County,FL,21.283783783783782
32839,Orange County,FL,30.067567567567565
32966,Indian River County,FL,73.64864864864865
33134,Miami-Dade County,FL,74.66216216216216
33143,Miami-Dade County,FL,79.72972972972973
33161,Miami-Dade County,FL,38.513513513513516
33312,Broward County,FL,38.17567567567568
34114,Collier County,FL,97.2972972972973
34116,Collier County,FL,49.32432432432432
34207,Manatee County,FL,55.4054054054054
34608,Hernando County,FL,40.54054054054054
34610,Pasco County,FL,65.2027027027027
34761,Orange County,FL,70.27027027027027
30039,Gwinnett County,GA,40.87837837837838
30044,Gwinnett County,GA,21.95945945945946
30047,Gwinnett County,GA,60.13513513513513
30107,Cherokee County,GA,96.95945945945947
30680,Barrow County,GA,23.31081081081081
30814,Columbia County,GA,80.06756756756756
30907,Columbia County,GA,29.39189189189189
31410,Chatham County,GA,94.93243243243244
96766,Kauai County,HI,68.58108108108108
96814,Honolulu County,HI,88.51351351351352
83338,Jerome County,ID,56.41891891891891
83617,Gem County,ID,88.85135135135135
83642,Ada County,ID,77.36486486486487
83646,Ada County,ID,12.5
83687,Canyon County,ID,56.08108108108109
60026,Cook County,IL,89.1891891891892
60077,Cook County,IL,60.810810810810814
60190,DuPage County,IL,76.6891891891892
60563,DuPage County,IL,46.95945945945946
60642,Cook County,IL,78.37837837837837
62561,Sangamon County,IL,98.64864864864865
46032,Hamilton County,IN,75.67567567567568
46143,Johnson County,IN,27.364864864864863
46241,Marion County,IN,22.635135135135133
46304,Porter County,IN,13.85135135135135
46311,Lake County,IN,64.86486486486487
46580,Kosciusko County,IN,47.2972972972973
46706,DeKalb County,IN,46.62162162162162
46714,Wells County,IN,59.45945945945946
46953,Grant County,IN,12.162162162162163
47240,Decatur County,IN,36.486486486486484
50144,Decatur County,IA,100
50312,Polk County,IA,84.7972972972973
50588,Buena Vista County,IA,42.567567567567565
50644,Buchanan County,IA,79.05405405405406
52803,Scott County,IA,39.189189189189186
40160,Hardin County,KY,35.47297297297297
40403,Madison County,KY,25
42141,Barren County,KY,42.22972972972973
42256,Logan County,KY,83.1081081081081
70058,Jefferson Parish,LA,2.027027027027027
70118,Orleans Parish,LA,51.689189189189186
70517,St. Martin Parish,LA,42.9054054054054
70807,East Baton Rouge Parish,LA,14.18918918918919
04073,York County,ME,28.040540540540544
04240,Androscoggin County,ME,33.44594594594595
21017,Harford County,MD,90.54054054054053
21122,Anne Arundel County,MD,8.445945945945946
01778,Middlesex County,MA,92.22972972972973
01902,Essex County,MA,9.797297297297296
02125,Suffolk County,MA,0.33783783783783783
02155,Middlesex County,MA,7.77027027027027
02777,Bristol County,MA,8.108108108108109
02780,Bristol County,MA,0
48094,Macomb County,MI,53.37837837837838
48101,Wayne County,MI,56.75675675675676
48126,Wayne County,MI,10.81081081081081
48127,Wayne County,MI,13.513513513513514
48141,Wayne County,MI,8.783783783783784
48150,Wayne County,MI,30.743243243243246
48180,Wayne County,MI,35.47297297297297
48209,Wayne County,MI,26.68918918918919
48219,Wayne County,MI,27.7027027027027
48228,Wayne County,MI,59.797297297297305
48302,Oakland County,MI,69.5945945945946
48371,Oakland County,MI,67.9054054054054
48413,Huron County,MI,51.35135135135135
48429,Shiawassee County,MI,63.85135135135135
48505,Genesee County,MI,95.27027027027027
48507,Genesee County,MI,10.472972972972974
48601,Saginaw County,MI,14.864864864864865
48623,Saginaw County,MI,43.91891891891892
48756,Ogemaw County,MI,94.25675675675676
49120,Berrien County,MI,16.89189189189189
49315,Kent County,MI,47.63513513513514
49424,Ottawa County,MI,46.28378378378378
49426,Ottawa County,MI,41.891891891891895
49735,Otsego County,MI,36.14864864864865
49783,Chippewa County,MI,22.972972972972975
55302,Wright County,MN,95.27027027027027
55804,St. Louis County,MN,69.25675675675676
38676,Tunica County,MS,92.56756756756756
39301,Lauderdale County,MS,20.60810810810811
39601,Lincoln County,MS,47.97297297297297
63301,St. Charles County,MO,15.54054054054054
63501,Adair County,MO,68.91891891891892
64052,Jackson County,MO,11.14864864864865
65201,Boone County,MO,72.97297297297297
59840,Ravalli County,MT,77.02702702702703
03110,Hillsborough County,NH,58.445945945945944
07039,Essex County,NJ,22.2972972972973
07076,Union County,NJ,81.75675675675676
07202,Union County,NJ,6.756756756756757
07417,Bergen County,NJ,85.47297297297297
08010,Burlington County,NJ,52.02702702702703
08096,Gloucester County,NJ,5.743243243243244
08863,Middlesex County,NJ,86.82432432432432
10001,New York County,NY,13.175675675675674
10029,New York County,NY,0.6756756756756757
10460,Bronx County,NY,1.3513513513513513
11355,Queens County,NY,30.743243243243246
12206,Albany County,NY,21.62162162162162
12524,Dutchess County,NY,81.08108108108108
12946,Essex County,NY,87.16216216216216
13348,Otsego County,NY,95.94594594594594
13439,Otsego County,NY,80.4054054054054
13760,Broome County,NY,1.0135135135135136
13838,Delaware County,NY,66.55405405405406
14414,Livingston County,NY,83.78378378378379
14423,Livingston County,NY,86.48648648648648
14424,Ontario County,NY,3.040540540540541
14502,Wayne County,NY,30.405405405405407
14527,Yates County,NY,29.72972972972973
14534,Monroe County,NY,48.986486486486484
14606,Monroe County,NY,3.3783783783783785
14618,Monroe County,NY,18.91891891891892
27284,Forsyth County,NC,7.4324324324324325
27536,Vance County,NC,32.0945945945946
27616,Wake County,NC,23.64864864864865
28075,Cabarrus County,NC,87.83783783783784
28215,Mecklenburg County,NC,17.56756756756757
28216,Mecklenburg County,NC,9.45945945945946
28412,New Hanover County,NC,17.905405405405407
28466,Duplin County,NC,67.22972972972973
28786,Haywood County,NC,38.85135135135135
58301,Ramsey County,ND,88.17567567567568
43110,Franklin County,OH,27.027027027027028
43160,Fayette County,OH,14.527027027027026
43566,Lucas County,OH,89.86486486486487
43612,Lucas County,OH,5.0675675675675675
43613,Lucas County,OH,4.391891891891892
44011,Lorain County,OH,33.78378378378378
44012,Lorain County,OH,65.54054054054053
44041,Ashtabula County,OH,43.58108108108108
44044,Lorain County,OH,49.66216216216216
44060,Lake County,OH,7.094594594594595
44109,Cuyahoga County,OH,5.405405405405405
44143,Cuyahoga County,OH,37.16216216216216
44224,Summit County,OH,23.986486486486484
44685,Summit County,OH,44.932432432432435
45040,Warren County,OH,34.7972972972973
45225,Hamilton County,OH,65.87837837837837
45227,Hamilton County,OH,50
45238,Hamilton County,OH,15.878378378378377
45505,Clark County,OH,63.17567567567568
45663,Scioto County,OH,50.67567567567568
73114,Oklahoma County,OK,55.067567567567565
73170,Cleveland County,OK,35.13513513513514
97071,Marion County,OR,57.0945945945946
97378,Yamhill County,OR,94.5945945945946
97420,Coos County,OR,51.01351351351351
97844,Morrow County,OR,91.21621621621621
15062,Westmoreland County,PA,80.74324324324324
15145,Allegheny County,PA,84.12162162162163
15436,Fayette County,PA,98.3108108108108
15656,Westmoreland County,PA,71.62162162162163
15906,Cambria County,PA,89.52702702702703
16101,Lawrence County,PA,6.081081081081082
16602,Blair County,PA,15.202702702702704
17003,Lebanon County,PA,85.8108108108108
17018,Dauphin County,PA,96.62162162162163
17067,Lebanon County,PA,64.1891891891892
17202,Franklin County,PA,31.41891891891892
18017,Northampton County,PA,6.418918918918918
18512,Lackawanna County,PA,61.82432432432432
18704,Luzerne County,PA,18.58108108108108
19004,Montgomery County,PA,92.9054054054054
19023,Delaware County,PA,62.5
19067,Bucks County,PA,20.27027027027027
19104,Philadelphia County,PA,11.824324324324325
19115,Philadelphia County,PA,20.945945945945947
19120,Philadelphia County,PA,4.054054054054054
19134,Philadelphia County,PA,3.7162162162162162
19147,Philadelphia County,PA,19.93243243243243
19341,Chester County,PA,72.2972972972973
19348,Chester County,PA,98.98648648648648
19405,Montgomery County,PA,97.97297297297297
19426,Montgomery County,PA,37.83783783783784
29385,Spartanburg County,SC,84.12162162162163
29560,Florence County,SC,76.01351351351352
57401,Brown County,SD,19.256756756756758
37122,Wilson County,TN,61.48648648648649
37874,Monroe County,TN,41.55405405405405
37919,Knox County,TN,54.054054054054056
75034,Denton County,TX,40.2027027027027
75041,Dallas County,TX,44.25675675675676
75088,Dallas County,TX,66.8918918918919
75137,Dallas County,TX,62.83783783783784
75206,Dallas County,TX,52.702702702702695
75212,Dallas County,TX,45.608108108108105
75231,Dallas County,TX,44.932432432432435
75672,Harrison County,TX,82.77027027027027
76050,Johnson County,TX,82.43243243243244
76063,Tarrant County,TX,16.216216216216218
76114,Tarrant County,TX,83.44594594594594
76123,Tarrant County,TX,48.310810810810814
76135,Tarrant County,TX,57.770270270270274
76244,Tarrant County,TX,29.054054054054053
76549,Bell County,TX,26.351351351351347
76574,Williamson County,TX,77.7027027027027
77004,Harris County,TX,76.35135135135135
77005,Harris County,TX,71.28378378378379
77038,Harris County,TX,78.71621621621621
77373,Harris County,TX,32.77027027027027
77406,Fort Bend County,TX,72.63513513513513
77510,Galveston County,TX,63.51351351351351
77511,Brazoria County,TX,18.243243243243242
77523,Chambers County,TX,58.108108108108105
77575,Liberty County,TX,86.14864864864865
77845,Brazos County,TX,10.135135135135135
78332,Jim Wells County,TX,62.16216216216216
78574,Hidalgo County,TX,87.5
78589,Hidalgo County,TX,41.21621621621622
78729,Williamson County,TX,78.04054054054053
79414,Lubbock County,TX,74.32432432432432
79423,Lubbock County,TX,33.108108108108105
84087,Davis County,UT,85.13513513513513
84096,Salt Lake County,UT,73.98648648648648
84108,Salt Lake County,UT,82.0945945945946
84790,Washington County,UT,44.5945945945946
22191,Prince William County,VA,93.24324324324324
22802,Harrisonburg city,VA,28.040540540540544
23238,Henrico County,VA,96.28378378378379
98075,King County,WA,79.3918918918919
98258,Snohomish County,WA,26.013513513513516
98294,Snohomish County,WA,90.2027027027027
98531,Lewis County,WA,71.95945945945947
98662,Clark County,WA,74.66216216216216
98837,Grant County,WA,34.45945945945946
99336,Benton County,WA,12.837837837837837
20020,District of Columbia,DC,1.6891891891891893
25053,Boone County,WV,81.41891891891892
25704,Wayne County,WV,32.432432432432435
26452,Lewis County,WV,93.58108108108108
53072,Waukesha County,WI,59.12162162162162
53209,Milwaukee County,WI,2.364864864864865
54406,Portage County,WI,99.66216216216216
