ZipCode,county,state,Adult
35125,St. Clair County,AL,56.628787878787875
35951,Marshall County,AL,62.5
36320,Houston County,AL,98.86363636363636
36507,Baldwin County,AL,68.37121212121212
36535,Baldwin County,AL,43.56060606060606
99801,Juneau City and Borough,AK,49.24242424242424
85016,Maricopa County,AZ,70.26515151515152
85086,Maricopa County,AZ,68.93939393939394
85204,Maricopa County,AZ,13.636363636363635
85353,Maricopa County,AZ,62.878787878787875
85929,Navajo County,AZ,84.46969696969697
86409,Mohave County,AZ,33.33333333333333
86442,Mohave County,AZ,26.704545454545453
72022,Saline County,AR,86.36363636363636
72921,Crawford County,AR,78.59848484848484
90008,Los Angeles County,CA,45.83333333333333
90018,Los Angeles County,CA,67.23484848484848
90031,Los Angeles County,CA,66.66666666666666
90262,Los Angeles County,CA,34.84848484848485
90650,Los Angeles County,CA,17.234848484848484
90660,Los Angeles County,CA,27.27272727272727
90805,Los Angeles County,CA,16.856060606060606
90807,Los Angeles County,CA,52.083333333333336
91303,Los Angeles County,CA,97.53787878787878
91706,Los Angeles County,CA,71.40151515151516
91762,San Bernardino County,CA,35.03787878787879
92009,San Diego County,CA,63.25757575757576
92021,San Diego County,CA,14.393939393939394
92114,San Diego County,CA,32.00757575757576
92154,San Diego County,CA,37.5
92336,San Bernardino County,CA,9.848484848484848
92345,San Bernardino County,CA,10.037878787878787
92376,San Bernardino County,CA,8.712121212121213
92544,Riverside County,CA,48.67424242424242
92545,Riverside County,CA,41.85606060606061
92596,Riverside County,CA,70.45454545454545
92646,Orange County,CA,24.62121212121212
92707,Orange County,CA,42.234848484848484
92832,Orange County,CA,56.060606060606055
92879,Riverside County,CA,77.08333333333334
92882,Riverside County,CA,28.97727272727273
92886,Orange County,CA,29.924242424242426
93015,Ventura County,CA,87.87878787878788
93030,Ventura County,CA,16.098484848484848
93063,Ventura County,CA,35.41666666666667
93117,Santa Barbara County,CA,81.06060606060606
93223,Tulare County,CA,88.06818181818183
93304,Kern County,CA,23.295454545454543
93422,San Luis Obispo County,CA,47.159090909090914
93442,San Luis Obispo County,CA,83.14393939393939
93446,San Luis Obispo County,CA,25.37878787878788
93455,Santa Barbara County,CA,77.46212121212122
93637,Madera County,CA,31.25
93638,Madera County,CA,64.96212121212122
93706,Fresno County,CA,22.15909090909091
93710,Fresno County,CA,59.46969696969697
93906,Monterey County,CA,40.15151515151515
94107,San Francisco County,CA,71.02272727272727
94115,San Francisco County,CA,48.10606060606061
94133,San Francisco County,CA,96.21212121212122
94403,San Mateo County,CA,96.02272727272727
94544,Alameda County,CA,76.51515151515152
94603,Alameda County,CA,74.24242424242425
94806,Contra Costa County,CA,34.46969696969697
94901,Marin County,CA,54.92424242424242
94949,Marin County,CA,78.97727272727273
95060,Santa Cruz County,CA,89.39393939393939
95111,Santa Clara County,CA,88.25757575757575
95126,Santa Clara County,CA,62.310606060606055
95363,Stanislaus County,CA,85.03787878787878
95365,Merced County,CA,98.10606060606061
95376,San Joaquin County,CA,27.083333333333332
95621,Sacramento County,CA,42.42424242424242
95901,Yuba County,CA,23.106060606060606
95926,Butte County,CA,34.28030303030303
95961,Yuba County,CA,71.78030303030303
95991,Sutter County,CA,28.59848484848485
96021,Tehama County,CA,72.53787878787878
96130,Lassen County,CA,90.15151515151516
80011,Arapahoe County,CO,7.575757575757576
80012,Arapahoe County,CO,10.984848484848484
80219,Denver County,CO,5.492424242424242
80501,Boulder County,CO,19.12878787878788
80723,Morgan County,CO,71.96969696969697
80808,El Paso County,CO,90.71969696969697
80918,El Paso County,CO,46.96969696969697
81001,Pueblo County,CO,68.56060606060606
06106,Hartford County,CT,5.303030303030303
06479,Hartford County,CT,80.3030303030303
06605,Fairfield County,CT,79.73484848484848
06902,Fairfield County,CT,20.075757575757574
19934,Kent County,DE,68.75
19962,Kent County,DE,93.75
32084,St. Johns County,FL,29.35606060606061
32148,Putnam County,FL,76.13636363636364
32168,Volusia County,FL,59.28030303030303
32218,Duval County,FL,3.5984848484848486
32219,Duval County,FL,72.34848484848484
32222,Duval County,FL,73.67424242424242
32536,Okaloosa County,FL,83.90151515151516
32641,Alachua County,FL,24.242424242424242
32701,Seminole County,FL,55.871212121212125
32771,Seminole County,FL,15.530303030303031
32810,Orange County,FL,39.96212121212121
32822,Orange County,FL,18.181818181818183
33065,Broward County,FL,47.72727272727273
33126,Miami-Dade County,FL,65.3409090909091
33144,Miami-Dade County,FL,82.1969696969697
33174,Miami-Dade County,FL,69.88636363636364
33461,Palm Beach County,FL,57.95454545454546
33486,Palm Beach County,FL,87.12121212121212
33707,Pinellas County,FL,58.71212121212122
33713,Pinellas County,FL,53.78787878787878
33838,Polk County,FL,97.72727272727273
33898,Polk County,FL,57.57575757575758
33990,Lee County,FL,36.93181818181818
34207,Manatee County,FL,54.166666666666664
34240,Sarasota County,FL,87.68939393939394
34715,Lake County,FL,54.92424242424242
34731,Lake County,FL,84.28030303030303
30008,Cobb County,GA,60.984848484848484
30047,Gwinnett County,GA,58.14393939393939
30809,Columbia County,GA,36.553030303030305
30813,Columbia County,GA,31.62878787878788
31525,Glynn County,GA,51.89393939393939
31904,Muscogee County,GA,30.87121212121212
83301,Twin Falls County,ID,17.992424242424242
83336,Minidoka County,ID,96.96969696969697
83402,Bonneville County,ID,78.4090909090909
83501,Nez Perce County,ID,13.825757575757574
83706,Ada County,ID,28.78787878787879
60073,Lake County,IL,14.772727272727273
60091,Cook County,IL,68.18181818181817
60103,DuPage County,IL,75
60120,Kane County,IL,26.136363636363637
60302,Cook County,IL,63.4469696969697
60435,Will County,IL,10.606060606060606
60527,DuPage County,IL,52.46212121212122
60565,DuPage County,IL,61.36363636363637
61109,Winnebago County,IL,46.40151515151515
61354,LaSalle County,IL,54.54545454545454
61615,Peoria County,IL,75.56818181818183
46304,Porter County,IN,12.121212121212121
46341,Porter County,IN,60.79545454545454
46517,Elkhart County,IN,49.053030303030305
46952,Grant County,IN,50.75757575757576
47112,Harrison County,IN,56.439393939393945
47390,Randolph County,IN,89.58333333333334
47421,Lawrence County,IN,35.22727272727273
47591,Knox County,IN,65.15151515151516
47713,Vanderburgh County,IN,86.17424242424242
47725,Vanderburgh County,IN,93.56060606060606
50266,Polk County,IA,75.56818181818183
50315,Polk County,IA,8.522727272727272
50588,Buena Vista County,IA,41.28787878787879
50702,Black Hawk County,IA,42.04545454545455
51105,Woodbury County,IA,64.77272727272727
51503,Pottawattamie County,IA,7.954545454545454
51537,Shelby County,IA,91.66666666666666
52404,Linn County,IA,8.333333333333332
52577,Mahaska County,IA,37.121212121212125
52722,Scott County,IA,19.318181818181817
52803,Scott County,IA,35.79545454545455
66083,Johnson County,KS,72.72727272727273
40004,Nelson County,KY,17.613636363636363
40069,Washington County,KY,65.3409090909091
40390,Jessamine County,KY,93.93939393939394
41018,Kenton County,KY,82.00757575757575
41048,Boone County,KY,91.85606060606061
41074,Campbell County,KY,90.53030303030303
41102,Boyd County,KY,20.265151515151516
41653,Floyd County,KY,44.88636363636363
42437,Union County,KY,73.29545454545455
70394,Lafourche Parish,LA,18.939393939393938
70433,St. Tammany Parish,LA,7.007575757575757
70503,Lafayette Parish,LA,37.878787878787875
70535,St. Landry Parish,LA,25.946969696969695
70583,Lafayette Parish,LA,92.23484848484848
70611,Calcasieu Parish,LA,85.41666666666666
70615,Calcasieu Parish,LA,21.401515151515152
70770,East Baton Rouge Parish,LA,91.09848484848484
70805,East Baton Rouge Parish,LA,34.090909090909086
70808,East Baton Rouge Parish,LA,44.50757575757576
70816,East Baton Rouge Parish,LA,6.628787878787879
04240,Androscoggin County,ME,2.083333333333333
04330,Kennebec County,ME,88.82575757575758
04736,Aroostook County,ME,52.84090909090909
21012,Anne Arundel County,MD,77.8409090909091
21084,Harford County,MD,94.6969696969697
21220,Baltimore County,MD,17.424242424242426
21244,Baltimore County,MD,44.128787878787875
01040,Hampden County,MA,1.5151515151515151
01450,Middlesex County,MA,66.09848484848484
01462,Worcester County,MA,51.515151515151516
01760,Middlesex County,MA,10.416666666666668
01775,Middlesex County,MA,97.91666666666666
01778,Middlesex County,MA,95.07575757575758
02026,Norfolk County,MA,90.9090909090909
02062,Norfolk County,MA,13.257575757575758
02072,Norfolk County,MA,83.71212121212122
02116,Suffolk County,MA,14.204545454545455
02118,Suffolk County,MA,0.1893939393939394
02148,Middlesex County,MA,0
02176,Middlesex County,MA,7.386363636363637
02330,Plymouth County,MA,48.86363636363637
02333,Plymouth County,MA,31.060606060606062
02482,Norfolk County,MA,70.07575757575758
02554,Nantucket County,MA,33.90151515151515
02648,Barnstable County,MA,73.48484848484848
02718,Bristol County,MA,78.21969696969697
02723,Bristol County,MA,2.462121212121212
48017,Oakland County,MI,79.16666666666666
48035,Macomb County,MI,9.469696969696969
48075,Oakland County,MI,30.492424242424242
48076,Oakland County,MI,31.439393939393938
48088,Macomb County,MI,45.265151515151516
48101,Wayne County,MI,22.53787878787879
48124,Wayne County,MI,18.75
48126,Wayne County,MI,10.227272727272728
48127,Wayne County,MI,11.742424242424242
48135,Wayne County,MI,80.49242424242425
48146,Wayne County,MI,7.765151515151516
48178,Oakland County,MI,33.14393939393939
48180,Wayne County,MI,32.57575757575758
48183,Wayne County,MI,54.35606060606061
48185,Wayne County,MI,6.25
48188,Wayne County,MI,12.121212121212121
48212,Wayne County,MI,9.090909090909092
48228,Wayne County,MI,38.06818181818182
48235,Wayne County,MI,2.272727272727273
48238,Wayne County,MI,5.871212121212121
48316,Macomb County,MI,40.340909090909086
48326,Oakland County,MI,51.70454545454546
48381,Oakland County,MI,62.689393939393945
48423,Genesee County,MI,61.93181818181818
48505,Genesee County,MI,75.9469696969697
48601,Saginaw County,MI,1.893939393939394
48638,Saginaw County,MI,57.38636363636363
48734,Saginaw County,MI,92.61363636363636
48911,Ingham County,MI,6.8181818181818175
49091,St. Joseph County,MI,45.45454545454545
49202,Jackson County,MI,32.95454545454545
49221,Lenawee County,MI,19.507575757575758
49329,Montcalm County,MI,57.1969696969697
49417,Ottawa County,MI,16.666666666666664
49507,Kent County,MI,23.674242424242426
49519,Kent County,MI,15.909090909090908
55021,Rice County,MN,67.04545454545455
55044,Dakota County,MN,51.13636363636363
55051,Kanabec County,MN,58.52272727272727
55066,Goodhue County,MN,46.590909090909086
55128,Washington County,MN,48.29545454545455
55379,Scott County,MN,25
55387,Carver County,MN,74.43181818181817
55408,Hennepin County,MN,39.015151515151516
56560,Clay County,MN,1.7045454545454544
38703,Washington County,MS,67.8030303030303
38827,Tishomingo County,MS,93.37121212121212
38941,Leflore County,MS,97.1590909090909
39338,Jasper County,MS,99.62121212121212
39466,Pearl River County,MS,57.765151515151516
63005,St. Louis County,MO,86.93181818181817
63040,St. Louis County,MO,95.26515151515152
63123,St. Louis County,MO,36.74242424242424
63139,St. Louis city,MO,67.99242424242425
64057,Jackson County,MO,43.18181818181818
64117,Clay County,MO,37.31060606060606
64133,Jackson County,MO,4.356060606060606
64155,Clay County,MO,21.96969696969697
64156,Clay County,MO,83.52272727272727
64489,Gentry County,MO,99.24242424242425
64507,Buchanan County,MO,24.810606060606062
64735,Henry County,MO,33.71212121212121
65301,Pettis County,MO,53.21969696969697
65453,Crawford County,MO,83.33333333333334
65740,Taney County,MO,99.0530303030303
65775,Howell County,MO,31.818181818181817
68136,Sarpy County,NE,81.43939393939394
68776,Dakota County,NE,77.65151515151516
89107,Clark County,NV,52.27272727272727
89119,Clark County,NV,19.886363636363637
89129,Clark County,NV,74.62121212121212
89706,Carson City,NV,58.90151515151515
03064,Hillsborough County,NH,29.166666666666668
03079,Rockingham County,NH,88.4469696969697
07047,Hudson County,NJ,5.681818181818182
07076,Union County,NJ,84.0909090909091
07095,Middlesex County,NJ,39.77272727272727
07103,Essex County,NJ,1.1363636363636365
07646,Bergen County,NJ,60.416666666666664
07866,Morris County,NJ,61.74242424242424
07874,Sussex County,NJ,74.0530303030303
08009,Camden County,NJ,82.57575757575758
08085,Gloucester County,NJ,22.916666666666664
08090,Gloucester County,NJ,64.58333333333334
08205,Atlantic County,NJ,15.719696969696969
08215,Atlantic County,NJ,35.984848484848484
08225,Atlantic County,NJ,78.78787878787878
08234,Atlantic County,NJ,3.977272727272727
08302,Cumberland County,NJ,1.3257575757575757
08360,Cumberland County,NJ,86.74242424242425
08527,Ocean County,NJ,53.59848484848485
08638,Mercer County,NJ,40.71969696969697
08865,Warren County,NJ,5.113636363636364
87124,Sandoval County,NM,91.47727272727273
87402,San Juan County,NM,84.84848484848484
87532,Santa Fe County,NM,38.82575757575758
87740,Colfax County,NM,81.62878787878788
10024,New York County,NY,79.35606060606061
10456,Bronx County,NY,2.6515151515151514
10458,Bronx County,NY,0.3787878787878788
10468,Bronx County,NY,9.469696969696969
10950,Orange County,NY,64.01515151515152
11207,Kings County,NY,0.7575757575757576
11211,Kings County,NY,70.83333333333334
11355,Queens County,NY,25.757575757575758
11368,Queens County,NY,7.196969696969697
11434,Queens County,NY,13.446969696969695
11701,Suffolk County,NY,66.47727272727273
12801,Warren County,NY,18.37121212121212
13045,Cortland County,NY,3.787878787878788
13126,Oswego County,NY,3.4090909090909087
13212,Onondaga County,NY,30.113636363636363
13439,Otsego County,NY,92.04545454545455
13460,Chenango County,NY,49.621212121212125
13669,St. Lawrence County,NY,20.833333333333336
13825,Otsego County,NY,82.95454545454545
14094,Niagara County,NY,12.878787878787879
14120,Niagara County,NY,41.09848484848485
14213,Erie County,NY,17.803030303030305
14214,Erie County,NY,30.303030303030305
14222,Erie County,NY,55.3030303030303
14411,Orleans County,NY,25.568181818181817
14472,Monroe County,NY,47.53787878787879
14527,Yates County,NY,25.189393939393938
14550,Wyoming County,NY,91.28787878787878
14551,Wayne County,NY,75.37878787878788
14580,Monroe County,NY,27.84090909090909
14586,Monroe County,NY,32.38636363636363
14608,Monroe County,NY,11.931818181818182
14609,Monroe County,NY,0.5681818181818182
14779,Cattaraugus County,NY,64.20454545454545
14806,Allegany County,NY,92.99242424242425
27107,Forsyth County,NC,4.166666666666666
27265,Guilford County,NC,85.22727272727273
27302,Alamance County,NC,29.545454545454547
27529,Wake County,NC,57.00757575757576
27537,Vance County,NC,36.17424242424242
27565,Granville County,NC,95.83333333333334
27801,Edgecombe County,NC,39.39393939393939
28226,Mecklenburg County,NC,78.03030303030303
28351,Scotland County,NC,95.64393939393939
28364,Robeson County,NC,44.31818181818182
28387,Moore County,NC,90.3409090909091
28403,New Hanover County,NC,88.63636363636364
28457,Pender County,NC,69.31818181818183
28613,Catawba County,NC,40.53030303030303
58554,Morton County,ND,65.71969696969697
43062,Licking County,OH,35.60606060606061
43228,Franklin County,OH,2.840909090909091
43402,Wood County,OH,53.40909090909091
43512,Defiance County,OH,19.696969696969695
43528,Lucas County,OH,92.42424242424242
43612,Lucas County,OH,4.734848484848484
43615,Lucas County,OH,3.0303030303030303
43938,Jefferson County,OH,77.08333333333334
43964,Jefferson County,OH,24.431818181818183
44012,Lorain County,OH,34.659090909090914
44028,Lorain County,OH,92.8030303030303
44035,Lorain County,OH,15.340909090909092
44052,Lorain County,OH,15.151515151515152
44055,Lorain County,OH,8.143939393939394
44070,Cuyahoga County,OH,21.59090909090909
44125,Cuyahoga County,OH,9.280303030303031
44127,Cuyahoga County,OH,59.46969696969697
44132,Cuyahoga County,OH,22.727272727272727
44137,Cuyahoga County,OH,6.4393939393939394
44301,Summit County,OH,29.734848484848484
44305,Summit County,OH,13.068181818181818
44307,Summit County,OH,46.02272727272727
44484,Trumbull County,OH,26.89393939393939
44837,Huron County,OH,85.60606060606061
45102,Clermont County,OH,36.36363636363637
45211,Hamilton County,OH,53.97727272727273
45324,Greene County,OH,55.49242424242424
45429,Montgomery County,OH,42.803030303030305
45601,Ross County,OH,0.946969696969697
45769,Meigs County,OH,60.03787878787878
73013,Oklahoma County,OK,30.492424242424242
73047,,OK,98.29545454545455
73064,Canadian County,OK,51.32575757575758
73644,Beckham County,OK,56.25
74136,Tulsa County,OK,55.68181818181818
74451,Cherokee County,OK,93.93939393939394
97211,Multnomah County,OR,43.75
97420,Coos County,OR,49.81060606060606
97502,Jackson County,OR,39.58333333333333
97838,Umatilla County,OR,16.28787878787879
15037,Allegheny County,PA,80.87121212121212
15042,Beaver County,PA,82.76515151515152
15239,Allegheny County,PA,81.25
15642,Westmoreland County,PA,20.643939393939394
15683,Westmoreland County,PA,75.18939393939394
15963,Somerset County,PA,63.06818181818182
16509,Erie County,PA,32.765151515151516
17011,Cumberland County,PA,71.96969696969697
17019,York County,PA,61.5530303030303
17055,Cumberland County,PA,28.219696969696972
17103,Dauphin County,PA,38.446969696969695
17222,Franklin County,PA,76.32575757575758
17368,York County,PA,73.10606060606061
17557,Lancaster County,PA,73.67424242424242
17847,Northumberland County,PA,61.17424242424242
18353,Monroe County,PA,60.60606060606061
18360,Monroe County,PA,26.325757575757574
18701,Luzerne County,PA,97.34848484848484
19002,Montgomery County,PA,66.66666666666666
19096,Montgomery County,PA,76.70454545454545
19111,Philadelphia County,PA,3.2196969696969697
19120,Philadelphia County,PA,63.82575757575758
19124,Philadelphia County,PA,43.93939393939394
19135,Philadelphia County,PA,45.64393939393939
19142,Philadelphia County,PA,11.363636363636363
19143,Philadelphia County,PA,18.560606060606062
19149,Philadelphia County,PA,49.43181818181818
19341,Chester County,PA,89.20454545454545
19382,Chester County,PA,71.21212121212122
19446,Montgomery County,PA,14.015151515151514
19454,Montgomery County,PA,42.99242424242424
19602,Berks County,PA,38.63636363636363
19604,Berks County,PA,11.174242424242424
02822,Washington County,RI,89.77272727272727
02906,Providence County,RI,95.45454545454545
29210,Richland County,SC,41.66666666666667
29369,Spartanburg County,SC,67.42424242424242
29445,Berkeley County,SC,23.863636363636363
29466,Charleston County,SC,48.484848484848484
29505,Florence County,SC,47.91666666666667
29540,Darlington County,SC,93.93939393939394
29924,Hampton County,SC,98.67424242424242
57719,Pennington County,SD,87.5
37334,Lincoln County,TN,65.9090909090909
37804,Blount County,TN,27.46212121212121
38305,Madison County,TN,8.901515151515152
75009,Collin County,TX,85.60606060606061
75098,Collin County,TX,21.022727272727273
75232,Dallas County,TX,45.07575757575758
76008,Parker County,TX,94.50757575757575
76049,Hood County,TX,37.68939393939394
76103,Tarrant County,TX,86.5530303030303
76110,Tarrant County,TX,42.61363636363637
77017,Harris County,TX,79.92424242424242
77060,Harris County,TX,59.09090909090909
77062,Harris County,TX,58.333333333333336
77070,Harris County,TX,72.91666666666666
77095,Harris County,TX,16.477272727272727
77357,Montgomery County,TX,59.84848484848485
77372,Montgomery County,TX,87.31060606060606
77373,Harris County,TX,28.40909090909091
77406,Fort Bend County,TX,44.696969696969695
77423,Waller County,TX,98.48484848484848
77469,Fort Bend County,TX,28.030303030303028
77503,Harris County,TX,74.81060606060606
77536,Harris County,TX,38.25757575757576
77630,Orange County,TX,40.909090909090914
77807,Brazos County,TX,76.89393939393939
78216,Bexar County,TX,94.88636363636364
78217,Bexar County,TX,64.39393939393939
78418,Nueces County,TX,69.12878787878788
78541,Hidalgo County,TX,50.189393939393945
78542,Hidalgo County,TX,84.6590909090909
78577,Hidalgo County,TX,26.515151515151516
78758,Travis County,TX,53.03030303030303
79415,Lubbock County,TX,63.63636363636363
84003,Utah County,UT,43.371212121212125
84015,Davis County,UT,20.454545454545457
84032,Wasatch County,UT,85.98484848484848
84070,Salt Lake County,UT,50
84078,Uintah County,UT,14.962121212121213
84119,Salt Lake County,UT,11.553030303030303
84664,Utah County,UT,96.40151515151516
05488,Franklin County,VT,80.11363636363636
20148,Loudoun County,VA,56.81818181818182
22030,Fairfax County,VA,60.22727272727273
22180,Fairfax County,VA,79.54545454545455
22192,Prince William County,VA,66.28787878787878
22193,Prince William County,VA,12.5
22303,Fairfax County,VA,69.31818181818183
22408,Spotsylvania County,VA,62.121212121212125
22572,Richmond County,VA,96.5909090909091
23224,Richmond city,VA,10.795454545454545
23508,Norfolk city,VA,89.96212121212122
23936,Buckingham County,VA,99.81060606060606
24017,Roanoke city,VA,24.053030303030305
24317,Carroll County,VA,82.38636363636364
98028,King County,WA,69.6969696969697
98036,Snohomish County,WA,47.34848484848485
98055,King County,WA,70.64393939393939
98059,King County,WA,46.02272727272727
98092,King County,WA,23.484848484848484
98115,King County,WA,80.68181818181817
98119,King County,WA,96.78030303030303
98155,King County,WA,71.5909090909091
98168,King County,WA,32.196969696969695
98258,Snohomish County,WA,22.348484848484848
98271,Snohomish County,WA,93.18181818181817
99207,Spokane County,WA,50.9469696969697
99323,Walla Walla County,WA,99.43181818181817
20002,District of Columbia,DC,6.0606060606060606
20011,District of Columbia,DC,52.65151515151515
25403,Berkeley County,WV,89.01515151515152
25550,Mason County,WV,50.56818181818182
25704,Wayne County,WV,27.65151515151515
26201,Upshur County,WV,21.21212121212121
26431,Harrison County,WV,81.81818181818183
26501,Monongalia County,WV,17.045454545454543
26554,Marion County,WV,4.545454545454546
26726,Mineral County,WV,41.47727272727273
53036,Jefferson County,WI,100
53188,Waukesha County,WI,21.78030303030303
53209,Milwaukee County,WI,14.583333333333334
53212,Milwaukee County,WI,12.68939393939394
53215,Milwaukee County,WI,4.924242424242424
53403,Racine County,WI,33.52272727272727
53538,Jefferson County,WI,50.378787878787875
53963,Dodge County,WI,54.734848484848484
54016,St. Croix County,WI,46.78030303030303
54401,Marathon County,WI,39.20454545454545
54615,Jackson County,WI,67.61363636363636
