ZipCode,county,state,Adult
35004,St. Clair County,AL,84.4621513944223
35473,Tuscaloosa County,AL,57.76892430278885
35950,Marshall County,AL,40.63745019920319
36201,Calhoun County,AL,23.904382470119522
85255,Maricopa County,AZ,51.39442231075697
85258,Maricopa County,AZ,68.92430278884463
85268,Maricopa County,AZ,84.4621513944223
85541,Gila County,AZ,49.800796812749006
85741,Pima County,AZ,29.482071713147413
71665,Cleveland County,AR,94.82071713147411
72701,Washington County,AR,64.9402390438247
90232,Los Angeles County,CA,94.02390438247012
90247,Los Angeles County,CA,52.98804780876494
91104,Los Angeles County,CA,45.0199203187251
91331,Los Angeles County,CA,9.9601593625498
91501,Los Angeles County,CA,89.2430278884462
91605,Los Angeles County,CA,47.410358565737056
91767,Los Angeles County,CA,39.44223107569721
92009,San Diego County,CA,66.13545816733067
92057,San Diego County,CA,58.964143426294825
92103,San Diego County,CA,46.21513944223107
92201,Riverside County,CA,21.51394422310757
92230,Riverside County,CA,100
92646,Orange County,CA,22.709163346613543
92649,Orange County,CA,57.37051792828686
92677,Orange County,CA,30.677290836653388
92683,Orange County,CA,13.545816733067728
92703,Orange County,CA,38.24701195219124
92707,Orange County,CA,74.5019920318725
92804,Orange County,CA,11.553784860557768
92808,Orange County,CA,79.6812749003984
93618,Tulare County,CA,83.26693227091634
93930,Monterey County,CA,75.69721115537848
94010,San Mateo County,CA,52.589641434262944
94087,Santa Clara County,CA,81.27490039840637
94124,San Francisco County,CA,22.31075697211155
94928,Sonoma County,CA,62.54980079681275
95403,Sonoma County,CA,50.199203187250994
95492,Sonoma County,CA,87.25099601593625
95816,Sacramento County,CA,54.581673306772906
95826,Sacramento County,CA,55.37848605577689
96003,Shasta County,CA,44.6215139442231
96067,Siskiyou County,CA,95.2191235059761
80134,Douglas County,CO,23.107569721115535
80210,Denver County,CO,56.573705179282875
80226,Jefferson County,CO,48.20717131474104
80516,Weld County,CO,66.53386454183267
81505,Mesa County,CO,89.64143426294821
06010,Hartford County,CT,1.9920318725099602
06040,Hartford County,CT,7.968127490039841
06070,Hartford County,CT,92.03187250996015
06605,Fairfield County,CT,33.46613545816733
19703,New Castle County,DE,60.95617529880478
19709,New Castle County,DE,17.52988047808765
19975,Sussex County,DE,90.83665338645417
19977,Kent County,DE,19.12350597609562
32025,Columbia County,FL,37.45019920318725
32046,Nassau County,FL,81.67330677290838
32086,St. Johns County,FL,42.62948207171315
32837,Orange County,FL,17.131474103585656
32962,Indian River County,FL,49.00398406374502
33160,Miami-Dade County,FL,66.93227091633466
33301,Broward County,FL,88.04780876494024
33570,Hillsborough County,FL,64.14342629482071
33712,Pinellas County,FL,34.26294820717131
34105,Collier County,FL,90.43824701195219
34238,Sarasota County,FL,83.66533864541833
34741,Osceola County,FL,20.717131474103585
30004,Fulton County,GA,42.23107569721115
30241,Troup County,GA,25.89641434262948
31030,Peach County,GA,77.29083665338645
31036,Pulaski County,GA,72.50996015936255
96813,Honolulu County,HI,33.067729083665334
96819,Honolulu County,HI,46.613545816733065
83301,Twin Falls County,ID,4.382470119521913
83814,Kootenai County,ID,32.669322709163346
60005,Cook County,IL,58.16733067729084
60016,Cook County,IL,21.91235059760956
60188,DuPage County,IL,15.53784860557769
60433,Will County,IL,62.94820717131474
60543,Kendall County,IL,35.45816733067729
60638,Cook County,IL,7.171314741035857
61081,Whiteside County,IL,28.68525896414343
62221,St. Clair County,IL,82.07171314741036
46224,Marion County,IN,64.5418326693227
46312,Lake County,IN,13.147410358565736
47203,Bartholomew County,IN,33.86454183266932
47265,Jennings County,IN,19.9203187250996
47348,Blackford County,IN,65.73705179282868
47714,Vanderburgh County,IN,43.82470119521912
47720,Vanderburgh County,IN,76.89243027888446
50588,Buena Vista County,IA,73.30677290836654
51501,Pottawattamie County,IA,3.9840637450199203
52405,Linn County,IA,38.645418326693225
52501,Wapello County,IA,11.952191235059761
52632,Lee County,IA,39.04382470119522
67147,Sedgwick County,KS,92.82868525896414
40509,Fayette County,KY,31.47410358565737
40831,Harlan County,KY,72.11155378486056
41164,Carter County,KY,31.872509960159363
42330,Muhlenberg County,KY,70.5179282868526
70068,St. John the Baptist Parish,LA,7.569721115537849
70092,St. Bernard Parish,LA,65.33864541832669
70517,St. Martin Parish,LA,10.756972111553784
70535,St. Landry Parish,LA,25.099601593625497
70591,Jefferson Davis Parish,LA,85.65737051792829
70820,East Baton Rouge Parish,LA,77.68924302788844
71115,Caddo Parish,LA,80.87649402390437
71291,Ouachita Parish,LA,8.366533864541832
04654,Washington County,ME,99.60159362549801
01085,Hampden County,MA,76.49402390438247
01420,Worcester County,MA,47.01195219123506
01749,Middlesex County,MA,16.733067729083665
02115,Suffolk County,MA,5.9760956175298805
02155,Middlesex County,MA,0.398406374501992
02346,Plymouth County,MA,8.764940239043826
02368,Norfolk County,MA,1.593625498007968
02476,Middlesex County,MA,36.65338645418327
02481,Norfolk County,MA,58.56573705179283
02568,Dukes County,MA,71.31474103585657
48060,St. Clair County,MI,3.5856573705179287
48124,Wayne County,MI,16.334661354581673
48202,Wayne County,MI,28.286852589641438
48224,Wayne County,MI,12.749003984063744
48236,Wayne County,MI,29.08366533864542
48858,Isabella County,MI,45.81673306772908
49048,Kalamazoo County,MI,13.94422310756972
49441,Muskegon County,MI,10.358565737051793
49504,Kent County,MI,12.350597609561753
55006,Isanti County,MN,96.81274900398407
55046,Rice County,MN,98.40637450199203
55066,Goodhue County,MN,45.41832669322709
55105,Ramsey County,MN,76.09561752988047
55128,Washington County,MN,48.60557768924303
56387,Stearns County,MN,88.44621513944223
39564,Jackson County,MS,30.278884462151396
63134,St. Louis County,MO,41.03585657370518
63501,Adair County,MO,70.1195219123506
64068,Clay County,MO,6.772908366533864
64124,Jackson County,MO,72.90836653386454
65804,Greene County,MO,27.091633466135455
59405,Cascade County,MT,63.34661354581673
68116,Douglas County,NE,61.75298804780876
89128,Clark County,NV,50.99601593625498
03062,Hillsborough County,NH,14.342629482071715
07801,Morris County,NJ,15.936254980079681
87114,Bernalillo County,NM,6.374501992031872
87413,San Juan County,NM,53.38645418326693
10029,New York County,NY,0
10065,New York County,NY,88.84462151394422
10507,Westchester County,NY,97.60956175298804
11206,Kings County,NY,2.788844621513944
11370,Queens County,NY,78.48605577689243
11372,Queens County,NY,27.88844621513944
11552,Nassau County,NY,84.06374501992032
13045,Cortland County,NY,4.780876494023905
13057,Onondaga County,NY,47.808764940239044
13120,Onondaga County,NY,97.21115537848605
13367,Lewis County,NY,37.84860557768924
14070,Erie County,NY,78.88446215139442
14167,Wyoming County,NY,99.20318725099602
14519,Wayne County,NY,18.725099601593627
14605,Monroe County,NY,32.27091633466135
14724,Chautauqua County,NY,95.61752988047809
14801,Steuben County,NY,91.23505976095618
14892,Tioga County,NY,50.59760956175299
14904,Chemung County,NY,24.302788844621514
27217,Alamance County,NC,41.832669322709165
27587,Wake County,NC,55.77689243027888
28105,Mecklenburg County,NC,60.55776892430279
28139,Rutherford County,NC,36.254980079681275
28466,Duplin County,NC,69.32270916334662
28501,Lenoir County,NC,43.42629482071713
28607,Watauga County,NC,51.79282868525896
43207,Franklin County,OH,1.1952191235059761
43605,Lucas County,OH,2.3904382470119523
43609,Lucas County,OH,5.179282868525896
44111,Cuyahoga County,OH,9.163346613545817
44706,Stark County,OH,29.880478087649404
45840,Hancock County,OH,3.187250996015936
73025,Oklahoma County,OK,69.7211155378486
73099,Canadian County,OK,11.155378486055776
74301,Craig County,OK,61.354581673306775
74447,Okmulgee County,OK,68.12749003984064
97086,Clackamas County,OR,54.18326693227091
97128,Yamhill County,OR,14.741035856573706
97303,Marion County,OR,40.23904382470119
97321,Linn County,OR,24.701195219123505
97367,Lincoln County,OR,71.71314741035857
97838,Umatilla County,OR,85.2589641434263
15501,Somerset County,PA,56.97211155378486
17015,Cumberland County,PA,43.02788844621514
17068,Perry County,PA,96.01593625498009
17545,Lancaster County,PA,75.2988047808765
17853,Snyder County,PA,98.80478087649402
18102,Lehigh County,PA,0.796812749003984
18505,Lackawanna County,PA,41.43426294820717
19152,Philadelphia County,PA,15.139442231075698
19355,Chester County,PA,39.8406374501992
19380,Chester County,PA,9.56175298804781
19464,Montgomery County,PA,5.577689243027888
19473,Montgomery County,PA,82.86852589641434
29568,Horry County,SC,92.43027888446214
29615,Greenville County,SC,60.1593625498008
29644,Greenville County,SC,52.191235059760956
29715,York County,SC,67.33067729083665
57064,Lincoln County,SD,98.00796812749005
37042,Montgomery County,TN,21.115537848605577
37421,Hamilton County,TN,25.49800796812749
38004,Tipton County,TN,90.0398406374502
38018,Shelby County,TN,67.729083665338635
38112,Shelby County,TN,63.745019920318725
75071,Collin County,TX,26.294820717131472
75098,Collin County,TX,18.326693227091635
75208,Dallas County,TX,62.15139442231076
75214,Dallas County,TX,43.82470119521912
75672,Harrison County,TX,86.45418326693228
76018,Tarrant County,TX,59.36254980079681
76104,Tarrant County,TX,17.928286852589643
76116,Tarrant County,TX,20.318725099601593
77044,Harris County,TX,35.0597609561753
77085,Harris County,TX,86.85258964143426
77088,Harris County,TX,27.490039840637447
78114,Wilson County,TX,56.17529880478087
78247,Bexar County,TX,53.78486055776892
78576,Hidalgo County,TX,94.42231075697211
78729,Williamson County,TX,80.47808764940238
79323,Yoakum County,TX,79.2828685258964
79336,Hockley County,TX,70.91633466135458
79401,Lubbock County,TX,96.41434262948208
79416,Lubbock County,TX,54.980079681274894
79756,Ward County,TX,73.70517928286853
84054,Davis County,UT,74.9003984063745
84065,Salt Lake County,UT,37.05179282868526
84067,Weber County,UT,34.66135458167331
84319,Cache County,UT,91.63346613545816
84604,Utah County,UT,87.64940239043824
84653,Utah County,UT,93.62549800796812
22303,Fairfax County,VA,74.10358565737052
23185,James City County,VA,35.85657370517929
24293,Wise County,VA,49.40239043824701
24441,Rockingham County,VA,78.08764940239044
98133,King County,WA,26.693227091633464
98387,Pierce County,WA,19.52191235059761
98584,Mason County,WA,31.07569721115538
98607,Clark County,WA,80.0796812749004
99337,Benton County,WA,23.50597609561753
99338,Benton County,WA,86.05577689243027
25430,Jefferson County,WV,68.52589641434263
26205,Nicholas County,WV,92.82868525896414
26651,Nicholas County,WV,82.47011952191235
53072,Waukesha County,WI,59.76095617529881
