ZipCode,county,state,Adult
35007,Shelby County,AL,34.46339883394515
35010,Tallapoosa County,AL,21.16173612610667
35020,Jefferson County,AL,5.851867847117253
35023,Jefferson County,AL,16.713452817965884
35042,Bibb County,AL,72.83524076873246
35049,Blount County,AL,98.20773051176852
35051,Shelby County,AL,76.7868710861585
35058,Cullman County,AL,84.27985316346361
35062,Jefferson County,AL,74.10926365795724
35068,Jefferson County,AL,86.22327790973871
35080,Shelby County,AL,42.345065860505294
35085,Chilton County,AL,76.13906283740013
35096,Talladega County,AL,81.01921831137983
35117,Jefferson County,AL,82.57395810839992
35120,St. Clair County,AL,44.09414813215288
35146,St. Clair County,AL,68.23580220254804
35180,Jefferson County,AL,54.00561433815591
35204,Jefferson County,AL,81.64543295184626
35211,Jefferson County,AL,6.586050529043404
35213,Jefferson County,AL,79.76678903044699
35214,Jefferson County,AL,17.901101274022892
35215,Jefferson County,AL,50.658605052904335
35216,Jefferson County,AL,37.78881451090477
35228,Jefferson County,AL,74.605916648672
35444,Tuscaloosa County,AL,92.3774562729432
35466,Pickens County,AL,78.47117253293025
35490,Tuscaloosa County,AL,94.53681710213777
35601,Morgan County,AL,5.463182897862233
35603,Morgan County,AL,7.277045994385661
35616,Colbert County,AL,95.89721442453035
35622,Morgan County,AL,69.53141870006479
35630,Lauderdale County,AL,17.102137767220903
35633,Lauderdale County,AL,38.82530770891816
35640,Morgan County,AL,19.650183545670483
35653,Franklin County,AL,65.77413085726624
35748,Madison County,AL,76.67890304469877
35757,Madison County,AL,57.654934139494706
35758,Madison County,AL,55.2364500107968
35759,Madison County,AL,95.20621895918808
35760,Madison County,AL,90.54199956812784
35805,Madison County,AL,28.762686244871517
35810,Madison County,AL,17.188512200388683
35901,Etowah County,AL,20.103649319801338
35967,DeKalb County,AL,49.10386525588426
35980,Marshall County,AL,93.52191751241632
36049,Crenshaw County,AL,90.77952925933923
36067,Autauga County,AL,21.096955301230835
36078,Elmore County,AL,36.92507017922695
36079,Pike County,AL,70.50313107320233
36083,Macon County,AL,76.85165191103434
36089,Bullock County,AL,64.00345497732671
36109,Montgomery County,AL,64.65126322608508
36111,Montgomery County,AL,47.03087885985748
36116,Montgomery County,AL,9.997840639170805
36117,Montgomery County,AL,19.11034333837184
36201,Calhoun County,AL,13.99265817318074
36265,Calhoun County,AL,68.06305333621248
36266,Clay County,AL,75.01619520621897
36278,Randolph County,AL,94.77434679334917
36301,Houston County,AL,8.594256100194341
36303,Houston County,AL,11.746922910818398
36345,Henry County,AL,67.09134096307493
36350,Dale County,AL,84.12869790542
36420,Covington County,AL,37.637659252861155
36502,Escambia County,AL,28.417188512200386
36541,Mobile County,AL,87.69164327359101
36572,Mobile County,AL,81.79658820988988
36608,Mobile County,AL,28.006909954653423
36609,Mobile County,AL,73.80695314187
36617,Mobile County,AL,84.88447419563809
36695,Mobile County,AL,69.31548261714534
36701,Dallas County,AL,43.79183761606564
36804,Lee County,AL,41.95638091125027
36832,Lee County,AL,95.72446555819477
36863,Chambers County,AL,66.5083135391924
36870,Lee County,AL,87.38933275750378
36874,Lee County,AL,80.9112502699201
99502,Anchorage Municipality,AK,35.240768732455194
99508,Anchorage Municipality,AK,7.903260634852084
99515,Anchorage Municipality,AK,79.55085294752753
99517,Anchorage Municipality,AK,46.83653638522997
99559,Bethel Census Area,AK,80.9112502699201
99603,Kenai Peninsula Borough,AK,98.44526020297992
99645,Matanuska-Susitna Borough,AK,70.00647808248759
99654,Matanuska-Susitna Borough,AK,21.053768084646947
99686,Valdez-Cordova Census Area,AK,99.09306845173829
99705,Fairbanks North Star Borough,AK,61.692938890088534
85006,Maricopa County,AZ,26.430576549341396
85007,Maricopa County,AZ,3.951630317426042
85008,Maricopa County,AZ,5.355214856402505
85012,Maricopa County,AZ,77.11077521053768
85015,Maricopa County,AZ,8.486288058734615
85016,Maricopa County,AZ,26.970416756640038
85017,Maricopa County,AZ,49.38458216367955
85018,Maricopa County,AZ,79.14057438998057
85019,Maricopa County,AZ,23.018786439213994
85022,Maricopa County,AZ,54.91254588641762
85024,Maricopa County,AZ,59.27445476139063
85027,Maricopa County,AZ,25.588425825955518
85028,Maricopa County,AZ,65.66616281580652
85029,Maricopa County,AZ,71.1077521053768
85031,Maricopa County,AZ,33.59965450226733
85032,Maricopa County,AZ,6.218959188080328
85033,Maricopa County,AZ,30.533362124811052
85037,Maricopa County,AZ,12.977758583459295
85041,Maricopa County,AZ,3.0446987691643272
85042,Maricopa County,AZ,61.6281580652127
85043,Maricopa County,AZ,69.48823148348089
85048,Maricopa County,AZ,65.70935003239042
85050,Maricopa County,AZ,94.34247462751026
85051,Maricopa County,AZ,5.981429496868927
85083,Maricopa County,AZ,68.23580220254804
85086,Maricopa County,AZ,24.74627510256964
85120,Pinal County,AZ,25.998704383502485
85132,Pinal County,AZ,22.43575901533146
85138,Pinal County,AZ,56.16497516735046
85139,Pinal County,AZ,37.35694234506586
85140,Pinal County,AZ,20.23321096955301
85142,Maricopa County,AZ,21.55042107536169
85143,Pinal County,AZ,21.2697041675664
85203,Maricopa County,AZ,22.003886849492552
85204,Maricopa County,AZ,5.895055063701145
85205,Maricopa County,AZ,14.640466421939106
85207,Maricopa County,AZ,13.690347657093499
85208,Maricopa County,AZ,28.460375728784282
85210,Maricopa County,AZ,58.21636795508529
85224,Maricopa County,AZ,29.216152019002372
85226,Maricopa County,AZ,69.53141870006479
85248,Maricopa County,AZ,72.44655581947742
85249,Maricopa County,AZ,29.6048369682574
85250,Maricopa County,AZ,79.57244655581948
85257,Maricopa County,AZ,97.43036061325847
85281,Maricopa County,AZ,20.600302310516085
85282,Maricopa County,AZ,58.12999352191751
85283,Maricopa County,AZ,33.08140790326063
85295,Maricopa County,AZ,23.623407471388468
85296,Maricopa County,AZ,19.218311379831572
85297,Maricopa County,AZ,91.68646080760095
85298,Maricopa County,AZ,55.45238609371626
85301,Maricopa County,AZ,1.511552580436191
85303,Maricopa County,AZ,34.78730295832433
85306,Maricopa County,AZ,69.87691643273591
85308,Maricopa County,AZ,19.542215504210752
85310,Maricopa County,AZ,63.096523429065
85323,Maricopa County,AZ,67.50161952062189
85326,Maricopa County,AZ,15.590585186784711
85331,Maricopa County,AZ,38.63096523429065
85344,La Paz County,AZ,22.5005398402073
85349,Yuma County,AZ,69.445044266897
85364,Yuma County,AZ,1.187648456057007
85379,Maricopa County,AZ,16.77823364284172
85382,Maricopa County,AZ,63.830706110991144
85383,Maricopa County,AZ,43.748650399481754
85392,Maricopa County,AZ,38.39343554307925
85546,Graham County,AZ,33.44849924422371
85550,Graham County,AZ,91.40574389980566
85602,Cochise County,AZ,73.93651479162168
85607,Cochise County,AZ,44.09414813215288
85615,Cochise County,AZ,87.60526884042324
85634,Pima County,AZ,10.732023321096955
85635,Cochise County,AZ,41.37335348736774
85653,Pima County,AZ,22.068667674368385
85705,Pima County,AZ,8.831785791405744
85706,Pima County,AZ,7.017922694882314
85716,Pima County,AZ,64.69445044266897
85737,Pima County,AZ,77.2619304685813
85745,Pima County,AZ,41.61088317857914
85746,Pima County,AZ,5.0313107320233215
85747,Pima County,AZ,55.17166918592097
85748,Pima County,AZ,71.06456488879292
85756,Pima County,AZ,52.27812567480026
85929,Navajo County,AZ,74.71388469013172
85941,Apache County,AZ,5.225653206650831
86001,Coconino County,AZ,9.760310947959404
86004,Coconino County,AZ,14.9211833297344
86040,Coconino County,AZ,77.780177067588
86045,Coconino County,AZ,12.761822500539841
86303,Yavapai County,AZ,48.218527315914486
86314,Yavapai County,AZ,7.212265169509825
86401,Mohave County,AZ,3.3901965018354567
86409,Mohave County,AZ,18.721658389116822
86556,Apache County,AZ,96.52342906499676
71665,Cleveland County,AR,92.70136039732239
71913,Garland County,AR,22.327790973871732
72015,Saline County,AR,37.22738069531419
72019,Saline County,AR,57.97883826387389
72031,Van Buren County,AR,89.61347441157417
72117,Pulaski County,AR,36.81710213776722
72315,Mississippi County,AR,36.1908874973008
72401,Craighead County,AR,6.283740012956166
72404,Craighead County,AR,33.29734398618009
72543,Cleburne County,AR,49.83804793781041
72653,Baxter County,AR,27.57503778881451
72703,Washington County,AR,62.75102569639387
72704,Washington County,AR,93.62988555387605
72727,Washington County,AR,98.0565752537249
72758,Benton County,AR,73.82854675016195
72764,Washington County,AR,22.47894623191535
72802,Pope County,AR,61.282660332541575
72908,Sebastian County,AR,73.0943640682358
90004,Los Angeles County,CA,77.02440077736989
90005,Los Angeles County,CA,79.61563377240337
90007,Los Angeles County,CA,15.396242712157202
90008,Los Angeles County,CA,85.03562945368171
90011,Los Angeles County,CA,12.502699201036494
90015,Los Angeles County,CA,72.59771107752105
90019,Los Angeles County,CA,57.4605916648672
90025,Los Angeles County,CA,84.15029151371193
90026,Los Angeles County,CA,62.70783847980997
90032,Los Angeles County,CA,32.19606996329087
90034,Los Angeles County,CA,60.397322392571795
90036,Los Angeles County,CA,88.98725977110774
90041,Los Angeles County,CA,84.27985316346361
90044,Los Angeles County,CA,15.93608291945584
90046,Los Angeles County,CA,66.96177931332326
90048,Los Angeles County,CA,93.32757503778882
90059,Los Angeles County,CA,19.86611962858994
90063,Los Angeles County,CA,66.7890304469877
90064,Los Angeles County,CA,14.554091988771322
90201,Los Angeles County,CA,17.16691859209674
90211,Los Angeles County,CA,97.30079896350681
90221,Los Angeles County,CA,71.82034117901101
90222,Los Angeles County,CA,52.623623407471385
90249,Los Angeles County,CA,89.18160224573526
90255,Los Angeles County,CA,65.27747786655151
90266,Los Angeles County,CA,45.90801122867631
90270,Los Angeles County,CA,75.94472036277263
90277,Los Angeles County,CA,36.86028935435111
90278,Los Angeles County,CA,74.75707190671561
90280,Los Angeles County,CA,17.81472684085511
90291,Los Angeles County,CA,80.04750593824228
90292,Los Angeles County,CA,59.14489311163895
90301,Los Angeles County,CA,20.103649319801338
90302,Los Angeles County,CA,83.50248326495358
90405,Los Angeles County,CA,76.05268840423236
90503,Los Angeles County,CA,32.99503347009286
90505,Los Angeles County,CA,41.61088317857914
90602,Los Angeles County,CA,47.52753185057223
90604,Los Angeles County,CA,40.012956164975165
90606,Los Angeles County,CA,36.212481105592744
90620,Orange County,CA,65.06154178363205
90621,Orange County,CA,40.96307492982078
90631,Orange County,CA,70.17922694882314
90638,Los Angeles County,CA,92.59339235586268
90640,Los Angeles County,CA,52.04059598358886
90650,Los Angeles County,CA,7.8168862016843015
90680,Orange County,CA,73.52623623407472
90703,Los Angeles County,CA,74.84344633988339
90706,Los Angeles County,CA,41.48132152882747
90712,Los Angeles County,CA,84.99244223709782
90715,Los Angeles County,CA,76.48456057007125
90720,Orange County,CA,58.47549125458864
90723,Los Angeles County,CA,67.76074282012524
90731,Los Angeles County,CA,17.274886633556466
90740,Orange County,CA,80.54415892895703
90744,Los Angeles County,CA,42.43144029367307
90745,Los Angeles County,CA,23.947311595767655
90755,Los Angeles County,CA,94.21291297775858
90802,Los Angeles County,CA,33.966745843230406
90803,Los Angeles County,CA,62.55668322176636
90805,Los Angeles County,CA,51.78147268408551
90807,Los Angeles County,CA,34.700928525156556
90808,Los Angeles County,CA,84.19347873029584
90810,Los Angeles County,CA,90.36925070179227
90815,Los Angeles County,CA,33.12459511984452
91006,Los Angeles County,CA,75.77197149643705
91011,Los Angeles County,CA,83.8479809976247
91016,Los Angeles County,CA,40.87670049665299
91030,Los Angeles County,CA,92.852515655366
91101,Los Angeles County,CA,81.83977542647376
91104,Los Angeles County,CA,27.98531634636148
91201,Los Angeles County,CA,75.46966098034981
91202,Los Angeles County,CA,79.87475707190671
91206,Los Angeles County,CA,83.97754264737638
91207,Los Angeles County,CA,98.83394515223493
91208,Los Angeles County,CA,87.92917296480242
91303,Los Angeles County,CA,72.5761174692291
91306,Los Angeles County,CA,24.85424314402937
91316,Los Angeles County,CA,55.2364500107968
91321,Los Angeles County,CA,53.5305549557331
91326,Los Angeles County,CA,77.88814510904773
91331,Los Angeles County,CA,4.599438566184409
91335,Los Angeles County,CA,17.01576333405312
91342,Los Angeles County,CA,9.522781256748003
91345,Los Angeles County,CA,76.98121356078602
91350,Los Angeles County,CA,87.4541135823796
91355,Los Angeles County,CA,56.33772403368603
91360,Ventura County,CA,47.117253293025264
91377,Ventura County,CA,91.68646080760095
91384,Los Angeles County,CA,85.55387605268841
91387,Los Angeles County,CA,28.870654286331245
91401,Los Angeles County,CA,88.40423234722522
91402,Los Angeles County,CA,14.187000647808249
91423,Los Angeles County,CA,55.905851867847126
91506,Los Angeles County,CA,86.91427337508098
91601,Los Angeles County,CA,51.39278773483049
91604,Los Angeles County,CA,97.66789030446988
91605,Los Angeles County,CA,31.159576765277482
91701,San Bernardino County,CA,13.020945800043188
91710,San Bernardino County,CA,21.96069963290866
91722,Los Angeles County,CA,89.87259771107752
91723,Los Angeles County,CA,67.09134096307493
91730,San Bernardino County,CA,9.24206434895271
91732,Los Angeles County,CA,25.717987475707186
91741,Los Angeles County,CA,67.60958756208161
91746,Los Angeles County,CA,85.44590801122868
91752,Riverside County,CA,35.240768732455194
91761,San Bernardino County,CA,40.747138846901315
91762,San Bernardino County,CA,79.29172964802419
91763,San Bernardino County,CA,48.218527315914486
91764,San Bernardino County,CA,53.940833513280076
91765,Los Angeles County,CA,50.89613474411574
91766,Los Angeles County,CA,57.352623623407474
91768,Los Angeles County,CA,27.207946447851434
91770,Los Angeles County,CA,91.10343338371842
91773,Los Angeles County,CA,59.90066940185705
91786,San Bernardino County,CA,49.19023968905204
91789,Los Angeles County,CA,72.92161520190024
91910,San Diego County,CA,12.869790541999567
91911,San Diego County,CA,40.09933059814295
91913,San Diego County,CA,58.453897646296696
91915,San Diego County,CA,77.58583459296048
91941,San Diego County,CA,42.06434895271
91942,San Diego County,CA,47.87302958324336
91977,San Diego County,CA,20.341179011012738
92008,San Diego County,CA,33.85877780177068
92011,San Diego County,CA,95.29259339235587
92019,San Diego County,CA,62.383934355430796
92020,San Diego County,CA,10.688836104513063
92021,San Diego County,CA,6.521269704167566
92025,San Diego County,CA,31.397106456488878
92026,San Diego County,CA,38.58777801770676
92027,San Diego County,CA,30.81407903260635
92028,San Diego County,CA,76.59252861153098
92037,San Diego County,CA,71.06456488879292
92056,San Diego County,CA,37.93996976894839
92057,San Diego County,CA,40.18570503131073
92064,San Diego County,CA,65.62297559922263
92071,San Diego County,CA,13.064133016627078
92078,San Diego County,CA,68.71086158497086
92083,San Diego County,CA,45.82163679550853
92103,San Diego County,CA,29.950334700928526
92105,San Diego County,CA,7.4282012524292815
92111,San Diego County,CA,37.81040811919672
92113,San Diego County,CA,40.79032606348521
92114,San Diego County,CA,49.19023968905204
92115,San Diego County,CA,48.715180306629236
92120,San Diego County,CA,66.91859209673936
92122,San Diego County,CA,82.76830058302743
92123,San Diego County,CA,51.32800690995465
92124,San Diego County,CA,93.56510472900021
92126,San Diego County,CA,28.8490606780393
92128,San Diego County,CA,58.928957028719495
92129,San Diego County,CA,41.15741740444828
92131,San Diego County,CA,56.01381990930685
92139,San Diego County,CA,57.54696609803498
92154,San Diego County,CA,22.241416540703952
92173,San Diego County,CA,87.41092636579573
92201,Riverside County,CA,12.135607860073417
92203,Riverside County,CA,26.88404232347225
92220,Riverside County,CA,41.87000647808249
92223,Riverside County,CA,46.21032174476355
92234,Riverside County,CA,47.20362772619305
92236,Riverside County,CA,76.63571582811488
92240,Riverside County,CA,89.2031958540272
92252,San Bernardino County,CA,92.05355214856402
92260,Riverside County,CA,70.11444612394732
92276,Riverside County,CA,98.46685381127186
92284,San Bernardino County,CA,61.563377240336855
92315,San Bernardino County,CA,98.74757071906716
92324,San Bernardino County,CA,67.80393003670913
92335,San Bernardino County,CA,62.794212912977756
92336,San Bernardino County,CA,3.5629453681710213
92337,San Bernardino County,CA,42.712157201468365
92345,San Bernardino County,CA,21.507233858777802
92346,San Bernardino County,CA,14.057438998056575
92376,San Bernardino County,CA,50.98250917728352
92399,San Bernardino County,CA,16.821420859425608
92405,San Bernardino County,CA,61.43381559058518
92407,San Bernardino County,CA,32.541567695961994
92410,San Bernardino County,CA,18.786439213992658
92501,Riverside County,CA,87.28136471604405
92503,Riverside County,CA,75.21053768084647
92504,Riverside County,CA,26.085078816670265
92507,Riverside County,CA,25.95551716691859
92508,Riverside County,CA,70.41675664003455
92544,Riverside County,CA,64.50010796804146
92545,Riverside County,CA,58.77780177067587
92551,Riverside County,CA,51.8678471172533
92553,Riverside County,CA,14.057438998056575
92557,Riverside County,CA,53.89764629669618
92563,Riverside County,CA,50.183545670481536
92570,Riverside County,CA,58.691427337508095
92583,Riverside County,CA,46.59900669401857
92584,Riverside County,CA,84.73331893759448
92591,Riverside County,CA,31.7857914057439
92592,Riverside County,CA,44.87151803066292
92595,Riverside County,CA,24.89743036061326
92604,Orange County,CA,68.4517382854675
92610,Orange County,CA,98.42366659468797
92614,Orange County,CA,44.05096091556899
92618,Orange County,CA,94.25610019434248
92620,Orange County,CA,60.03023105160873
92626,Orange County,CA,26.732887065428635
92627,Orange County,CA,9.673936514791622
92629,Orange County,CA,91.9455841071043
92630,Orange County,CA,84.77650615417836
92646,Orange County,CA,42.280285035629454
92649,Orange County,CA,89.4407255452386
92653,Orange County,CA,84.64694450442668
92655,Orange County,CA,98.51004102785575
92660,Orange County,CA,74.41157417404447
92663,Orange County,CA,87.86439213992658
92673,Orange County,CA,89.03044698769165
92675,Orange County,CA,96.37227380695315
92677,Orange County,CA,78.42798531634637
92679,Orange County,CA,44.482833081407904
92683,Orange County,CA,50.48585618656878
92688,Orange County,CA,71.88512200388685
92691,Orange County,CA,80.88965666162817
92692,Orange County,CA,56.812783416108836
92694,Orange County,CA,83.71841934787302
92701,Orange County,CA,92.67976678903045
92703,Orange County,CA,92.76614122219823
92704,Orange County,CA,84.43100842150724
92705,Orange County,CA,91.03865255884259
92707,Orange County,CA,91.55689915784929
92780,Orange County,CA,86.52558842582594
92801,Orange County,CA,51.00410278557547
92802,Orange County,CA,38.242280285035626
92804,Orange County,CA,60.26776074282012
92806,Orange County,CA,39.81861369034766
92807,Orange County,CA,72.1874325199741
92808,Orange County,CA,86.84949255020514
92821,Orange County,CA,46.27510256963939
92833,Orange County,CA,66.11962858993738
92840,Orange County,CA,91.27618225005398
92841,Orange County,CA,92.20470740660764
92843,Orange County,CA,72.36018138630965
92860,Riverside County,CA,57.590153314618874
92865,Orange County,CA,72.53293025264523
92866,Orange County,CA,89.61347441157417
92867,Orange County,CA,95.46534225869144
92868,Orange County,CA,48.8879291729648
92869,Orange County,CA,90.9954653422587
92870,Orange County,CA,89.76462966961779
92879,Riverside County,CA,66.61628158065213
92880,Riverside County,CA,38.32865471820342
92882,Riverside County,CA,75.62081623839345
92883,Riverside County,CA,78.90304469876916
92886,Orange County,CA,76.76527747786656
93003,Ventura County,CA,6.542863312459513
93010,Ventura County,CA,51.047290002159365
93015,Ventura County,CA,54.48067372057871
93022,Ventura County,CA,95.5949039084431
93033,Ventura County,CA,43.20881019218311
93036,Ventura County,CA,16.799827251133664
93041,Ventura County,CA,48.67199309004535
93060,Ventura County,CA,53.940833513280076
93103,Santa Barbara County,CA,75.46966098034981
93105,Santa Barbara County,CA,81.99093068451738
93203,Kern County,CA,75.25372489743036
93212,Kings County,CA,79.46447851435975
93215,Kern County,CA,85.05722306197366
93230,Kings County,CA,7.946447851435975
93235,Tulare County,CA,99.78406391708054
93241,Kern County,CA,89.03044698769165
93245,Kings County,CA,46.53422586914273
93257,Tulare County,CA,75.25372489743036
93263,Kern County,CA,64.21939106024617
93268,Kern County,CA,96.02677607428201
93274,Tulare County,CA,13.971064564888794
93286,Tulare County,CA,88.2530770891816
93292,Tulare County,CA,25.502051392787735
93304,Kern County,CA,40.29367307277046
93306,Kern County,CA,9.652342906499676
93307,Kern County,CA,26.86244871518031
93309,Kern County,CA,48.650399481753404
93312,Kern County,CA,55.77629021809545
93313,Kern County,CA,67.67436838695747
93401,San Luis Obispo County,CA,71.73396674584322
93402,San Luis Obispo County,CA,80.32822284603758
93422,San Luis Obispo County,CA,30.74929820773051
93436,Santa Barbara County,CA,49.53573742172317
93446,San Luis Obispo County,CA,13.949470956596846
93454,Santa Barbara County,CA,16.90779529259339
93458,Santa Barbara County,CA,70.56791189807818
93465,San Luis Obispo County,CA,67.09134096307493
93534,Los Angeles County,CA,21.744763549989205
93535,Los Angeles County,CA,19.75815158713021
93536,Los Angeles County,CA,27.121572014683654
93543,Los Angeles County,CA,78.64392139926582
93550,Los Angeles County,CA,45.584107104297125
93555,Kern County,CA,41.675664003454976
93612,Fresno County,CA,60.656445692075145
93619,Fresno County,CA,75.08097603109479
93625,Fresno County,CA,97.45195422155042
93635,Merced County,CA,24.55193262794213
93638,Madera County,CA,65.96847333189376
93644,Madera County,CA,93.43554307924855
93654,Fresno County,CA,68.79723601813863
93657,Fresno County,CA,71.58281148779962
93662,Fresno County,CA,39.68905204059598
93702,Fresno County,CA,64.21939106024617
93704,Fresno County,CA,66.83221766357158
93711,Fresno County,CA,52.08378320017275
93720,Fresno County,CA,19.023968905204057
93722,Fresno County,CA,3.1310732023321095
93725,Fresno County,CA,88.5337939969769
93726,Fresno County,CA,37.8967825523645
93727,Fresno County,CA,47.57071906715612
93901,Monterey County,CA,88.68494925502051
93905,Monterey County,CA,86.69833729216153
93906,Monterey County,CA,90.60678039300367
93907,Monterey County,CA,65.2342906499676
93927,Monterey County,CA,95.3573742172317
93930,Monterey County,CA,99.26581731807384
93933,Monterey County,CA,49.55733103001512
93955,Monterey County,CA,23.688188296264308
94002,San Mateo County,CA,39.343554307924855
94010,San Mateo County,CA,34.83049017490823
94019,San Mateo County,CA,70.41675664003455
94022,Santa Clara County,CA,86.5903692507018
94025,San Mateo County,CA,79.4428849060678
94030,San Mateo County,CA,91.29777585834593
94043,Santa Clara County,CA,60.28935435111207
94063,San Mateo County,CA,59.14489311163895
94065,San Mateo County,CA,97.45195422155042
94066,San Mateo County,CA,28.006909954653423
94070,San Mateo County,CA,67.91189807816886
94080,San Mateo County,CA,67.82552364500108
94103,San Francisco County,CA,82.81148779961131
94109,San Francisco County,CA,15.158713020945799
94112,San Francisco County,CA,59.555171669185924
94115,San Francisco County,CA,64.28417188512199
94118,San Francisco County,CA,89.65666162815806
94121,San Francisco County,CA,57.093500323904124
94122,San Francisco County,CA,62.90218095443748
94123,San Francisco County,CA,47.052472468149425
94124,San Francisco County,CA,41.37335348736774
94127,San Francisco County,CA,76.85165191103434
94132,San Francisco County,CA,96.32908659036926
94133,San Francisco County,CA,61.36903476570935
94303,San Mateo County,CA,44.374865039948176
94401,San Mateo County,CA,63.72273806953142
94403,San Mateo County,CA,67.2640898294105
94404,San Mateo County,CA,57.54696609803498
94501,Alameda County,CA,55.19326279421291
94503,Napa County,CA,82.44439645864824
94509,Contra Costa County,CA,10.645648887929173
94510,Solano County,CA,89.85100410278557
94513,Contra Costa County,CA,51.695098250917724
94531,Contra Costa County,CA,51.090477218743246
94533,Solano County,CA,11.552580436190887
94536,Alameda County,CA,83.35132800690995
94538,Alameda County,CA,85.96415461023537
94541,Alameda County,CA,59.51198445260203
94544,Alameda County,CA,83.82638738933275
94549,Contra Costa County,CA,70.11444612394732
94555,Alameda County,CA,95.48693586698337
94556,Contra Costa County,CA,82.50917728352408
94558,Napa County,CA,47.9378104081192
94559,Napa County,CA,46.339883394515226
94561,Contra Costa County,CA,23.623407471388468
94563,Contra Costa County,CA,77.52105376808464
94565,Contra Costa County,CA,38.069531418700066
94577,Alameda County,CA,21.679982725113366
94583,Contra Costa County,CA,91.64327359101706
94587,Alameda County,CA,53.185057223061975
94591,Solano County,CA,50.269920103649326
94596,Contra Costa County,CA,74.02288922478947
94597,Contra Costa County,CA,90.93068451738286
94601,Alameda County,CA,89.54869358669833
94603,Alameda County,CA,31.073202332109695
94609,Alameda County,CA,76.00950118764845
94621,Alameda County,CA,49.06067803930036
94706,Alameda County,CA,99.9568127834161
94709,Alameda County,CA,99.15784927661412
94710,Alameda County,CA,99.46015979270136
94901,Marin County,CA,38.350248326495354
94903,Marin County,CA,85.16519110343339
94945,Marin County,CA,86.80630533362125
94947,Marin County,CA,73.74217231699417
94954,Sonoma County,CA,64.93198013388037
94960,Marin County,CA,86.00734182681926
94965,Marin County,CA,88.74973007989635
95003,Santa Cruz County,CA,75.25372489743036
95006,Santa Cruz County,CA,94.08335132800691
95008,Santa Clara County,CA,48.218527315914486
95010,Santa Cruz County,CA,91.66486719930901
95012,Monterey County,CA,97.49514143813431
95023,San Benito County,CA,14.834808896566617
95046,Santa Clara County,CA,99.04988123515439
95051,Santa Clara County,CA,61.21787950766573
95060,Santa Cruz County,CA,59.01533146188728
95062,Santa Cruz County,CA,97.40876700496653
95070,Santa Clara County,CA,68.84042323472252
95073,Santa Cruz County,CA,92.6581731807385
95076,Santa Cruz County,CA,34.700928525156556
95110,Santa Clara County,CA,89.89419131936947
95116,Santa Clara County,CA,27.035197581515874
95117,Santa Clara County,CA,60.59166486719931
95118,Santa Clara County,CA,46.12394731159577
95120,Santa Clara County,CA,78.70870222414166
95121,Santa Clara County,CA,82.94104944936299
95122,Santa Clara County,CA,62.27596631397107
95123,Santa Clara County,CA,86.87108615849708
95124,Santa Clara County,CA,72.92161520190024
95125,Santa Clara County,CA,63.44202116173613
95127,Santa Clara County,CA,82.78989419131936
95129,Santa Clara County,CA,74.75707190671561
95131,Santa Clara County,CA,67.67436838695747
95133,Santa Clara County,CA,92.852515655366
95148,Santa Clara County,CA,50.615417836320454
95202,San Joaquin County,CA,46.03757287842799
95204,San Joaquin County,CA,39.45152234938458
95205,San Joaquin County,CA,65.81731807385015
95206,San Joaquin County,CA,10.32174476354999
95207,San Joaquin County,CA,10.343338371841934
95209,San Joaquin County,CA,30.641330166270787
95210,San Joaquin County,CA,55.56035413517599
95231,San Joaquin County,CA,99.39537896782552
95240,San Joaquin County,CA,6.672424962211186
95307,Stanislaus County,CA,18.052256532066508
95315,Merced County,CA,82.18527315914488
95336,San Joaquin County,CA,87.0654286331246
95337,San Joaquin County,CA,74.00129561649752
95338,Mariposa County,CA,76.85165191103434
95341,Merced County,CA,41.15741740444828
95348,Merced County,CA,50.399481753401
95350,Stanislaus County,CA,33.08140790326063
95355,Stanislaus County,CA,2.958324335996545
95356,Stanislaus County,CA,25.134960051824663
95358,Stanislaus County,CA,16.648671993090044
95361,Stanislaus County,CA,25.86914273375081
95367,Stanislaus County,CA,37.93996976894839
95370,Tuolumne County,CA,42.906499676095876
95382,Stanislaus County,CA,40.984668538112714
95403,Sonoma County,CA,79.80997624703087
95407,Sonoma County,CA,85.85618656877564
95409,Sonoma County,CA,74.26041891600086
95422,Lake County,CA,43.640682358022026
95457,Lake County,CA,98.57482185273159
95472,Sonoma County,CA,89.80781688620169
95492,Sonoma County,CA,46.85812999352192
95501,Humboldt County,CA,35.54307924854243
95531,Del Norte County,CA,46.72856834377024
95540,Humboldt County,CA,73.05117685165192
95608,Sacramento County,CA,24.53033901965018
95610,Sacramento County,CA,29.43208810192183
95618,Yolo County,CA,90.30446987691644
95621,Sacramento County,CA,26.776074282012523
95624,Sacramento County,CA,63.18289786223278
95632,Sacramento County,CA,74.605916648672
95648,Placer County,CA,44.20211617361261
95650,Placer County,CA,83.26495357374218
95660,Sacramento County,CA,82.33642841718851
95662,Sacramento County,CA,52.882746706974736
95677,Placer County,CA,67.84711725329302
95678,Placer County,CA,32.51997408767005
95682,El Dorado County,CA,72.90002159360829
95688,Solano County,CA,78.21204923342691
95742,Sacramento County,CA,88.01554739797021
95746,Placer County,CA,69.25070179226948
95747,Placer County,CA,57.78449578924638
95758,Sacramento County,CA,36.53638522997193
95762,El Dorado County,CA,33.772403368602895
95765,Placer County,CA,57.74130857266249
95776,Yolo County,CA,78.06089397538328
95817,Sacramento County,CA,67.9766789030447
95819,Sacramento County,CA,99.7624703087886
95820,Sacramento County,CA,34.377024400777366
95821,Sacramento County,CA,26.79766789030447
95822,Sacramento County,CA,23.90412437918376
95823,Sacramento County,CA,25.1997408767005
95826,Sacramento County,CA,37.313755128481965
95828,Sacramento County,CA,24.78946231915353
95829,Sacramento County,CA,62.70783847980997
95835,Sacramento County,CA,79.61563377240337
95838,Sacramento County,CA,21.11854890952278
95842,Sacramento County,CA,29.129777585834592
95901,Yuba County,CA,40.077736989851005
95926,Butte County,CA,69.20751457568561
95928,Butte County,CA,51.306413301662715
95965,Butte County,CA,8.205571150939322
95966,Butte County,CA,40.012956164975165
95971,Plumas County,CA,89.7214424530339
95987,Colusa County,CA,93.9321960699633
95993,Sutter County,CA,30.533362124811052
96001,Shasta County,CA,37.05463182897862
96080,Tehama County,CA,26.927229540056143
96097,Siskiyou County,CA,71.49643705463184
96130,Lassen County,CA,61.13150507449795
96150,El Dorado County,CA,55.60354135175988
96161,Nevada County,CA,93.67307277045994
80005,Jefferson County,CO,42.43144029367307
80010,Arapahoe County,CO,33.55646728568344
80011,Arapahoe County,CO,2.548045778449579
80012,Arapahoe County,CO,41.783632044914704
80013,Arapahoe County,CO,3.5197581515871303
80014,Arapahoe County,CO,66.83221766357158
80015,Arapahoe County,CO,32.45519326279421
80016,Arapahoe County,CO,39.084431008421504
80017,Arapahoe County,CO,81.49427769380263
80018,Arapahoe County,CO,62.34074713884689
80021,Jefferson County,CO,43.66227596631397
80022,Adams County,CO,50.744979486072125
80033,Jefferson County,CO,65.60138199093069
80108,Douglas County,CO,64.73763765925285
80109,Douglas County,CO,54.67501619520622
80110,Arapahoe County,CO,51.457568559706324
80112,Arapahoe County,CO,37.03303822068668
80121,Arapahoe County,CO,88.2530770891816
80123,Jefferson County,CO,78.62232779097387
80125,Douglas County,CO,87.4541135823796
80128,Jefferson County,CO,85.10041027855755
80130,Douglas County,CO,64.39213992658173
80132,El Paso County,CO,74.02288922478947
80138,Douglas County,CO,36.212481105592744
80204,Denver County,CO,10.408119196717772
80206,Denver County,CO,54.80457784495789
80209,Denver County,CO,46.85812999352192
80210,Denver County,CO,89.31116389548693
80211,Denver County,CO,71.97149643705463
80214,Jefferson County,CO,58.38911682142086
80215,Jefferson County,CO,50.33470092852516
80216,Denver County,CO,80.41459727920535
80219,Denver County,CO,1.5979270136039732
80220,Denver County,CO,19.542215504210752
80221,Adams County,CO,49.29820773051177
80224,Denver County,CO,76.39818613690348
80229,Adams County,CO,5.959835888576981
80231,Denver County,CO,23.018786439213994
80237,Denver County,CO,59.61995249406176
80238,Denver County,CO,63.31245951198446
80239,Denver County,CO,12.37313755128482
80247,Arapahoe County,CO,56.553660116605485
80249,Denver County,CO,21.57201468365364
80260,Adams County,CO,30.27423882530771
80301,Boulder County,CO,85.20837832001727
80304,Boulder County,CO,73.1375512848197
80401,Jefferson County,CO,53.89764629669618
80435,Summit County,CO,99.74087670049666
80465,Jefferson County,CO,77.13236881882962
80501,Boulder County,CO,9.587562081623838
80503,Boulder County,CO,50.421075361692935
80504,Boulder County,CO,17.922694882314836
80516,Weld County,CO,50.48585618656878
80525,Larimer County,CO,29.669617793133234
80526,Larimer County,CO,21.982293241200605
80528,Larimer County,CO,36.96825739581084
80537,Larimer County,CO,10.386525588425826
80549,Larimer County,CO,77.2619304685813
80550,Weld County,CO,16.19520621895919
80601,Adams County,CO,19.26149859641546
80602,Adams County,CO,30.403800475059384
80620,Weld County,CO,28.22284603757288
80621,Weld County,CO,61.17469229108185
80631,Weld County,CO,50.20513927877348
80634,Weld County,CO,30.360613258475492
80645,Weld County,CO,92.29108183977543
80701,Morgan County,CO,69.79054199956812
80734,Phillips County,CO,93.99697689483912
80831,El Paso County,CO,53.7680846469445
80916,El Paso County,CO,53.83286547182035
80918,El Paso County,CO,29.863960267760742
80924,El Paso County,CO,93.75944720362772
80925,El Paso County,CO,96.93370762254374
81001,Pueblo County,CO,10.235370330382207
81005,Pueblo County,CO,22.090261282660332
81007,Pueblo County,CO,29.410494493629884
81050,Otero County,CO,58.86417620384366
81101,Alamosa County,CO,60.13819909306846
81147,Archuleta County,CO,79.70200820557115
81212,Fremont County,CO,57.050313107320235
81230,Gunnison County,CO,84.88447419563809
81301,La Plata County,CO,38.544590801122865
81413,Delta County,CO,94.6447851435975
81501,Mesa County,CO,28.136471604405095
81504,Mesa County,CO,47.59231267544807
81505,Mesa County,CO,93.50032390412439
81521,Mesa County,CO,80.47937810408119
81601,Garfield County,CO,96.28589937378536
81611,Pitkin County,CO,96.5450226732887
81635,Garfield County,CO,87.04383502483265
06001,Hartford County,CT,88.08032822284603
06002,Hartford County,CT,32.41200604621032
06026,Hartford County,CT,93.11163895486936
06040,Hartford County,CT,3.692507017922695
06042,Hartford County,CT,72.83524076873246
06051,Hartford County,CT,9.501187648456057
06053,Hartford County,CT,41.718851220038864
06062,Hartford County,CT,41.87000647808249
06066,Tolland County,CT,32.36881882962643
06070,Hartford County,CT,98.09976247030879
06071,Tolland County,CT,90.41243791837617
06084,Tolland County,CT,63.72273806953142
06105,Hartford County,CT,38.047937810408115
06107,Hartford County,CT,87.10861584970849
06108,Hartford County,CT,16.23839343554308
06109,Hartford County,CT,92.13992658173181
06110,Hartford County,CT,69.89851004102785
06111,Hartford County,CT,22.759663139710646
06112,Hartford County,CT,31.613042539408337
06114,Hartford County,CT,7.363420427553444
06118,Hartford County,CT,12.826603325415679
06119,Hartford County,CT,70.65428633124596
06268,Tolland County,CT,98.48844741956381
06405,New Haven County,CT,83.07061109911467
06410,New Haven County,CT,53.70330382206867
06416,Middlesex County,CT,56.33772403368603
06437,New Haven County,CT,76.35499892031959
06447,Hartford County,CT,92.98207730511768
06450,New Haven County,CT,42.409846685381126
06451,New Haven County,CT,41.48132152882747
06457,Middlesex County,CT,2.5696393867415246
06461,New Haven County,CT,80.69531418700065
06468,Fairfield County,CT,68.84042323472252
06479,Hartford County,CT,70.65428633124596
06480,Middlesex County,CT,56.683221766357164
06489,Hartford County,CT,76.74368386957461
06512,New Haven County,CT,11.358237961563377
06513,New Haven County,CT,1.3603973223925718
06515,New Haven County,CT,16.08723817749946
06516,New Haven County,CT,2.3968905204059596
06525,New Haven County,CT,89.78622327790974
06604,Fairfield County,CT,9.112502699201036
06605,Fairfield County,CT,69.01317210105809
06611,Fairfield County,CT,62.8158065212697
06614,Fairfield County,CT,41.41654070395163
06704,New Haven County,CT,38.52299719283092
06705,New Haven County,CT,11.401425178147269
06706,New Haven County,CT,43.27359101705895
06776,Litchfield County,CT,45.109047721874326
06790,Litchfield County,CT,1.8354567048153747
06811,Fairfield County,CT,29.6048369682574
06820,Fairfield County,CT,60.76441373353487
06824,Fairfield County,CT,81.32152882746708
06830,Fairfield County,CT,76.59252861153098
06831,Fairfield County,CT,88.31785791405744
06851,Fairfield County,CT,41.87000647808249
06854,Fairfield County,CT,29.000215936082917
06880,Fairfield County,CT,64.88879291729648
06902,Fairfield County,CT,56.2297559922263
06905,Fairfield County,CT,87.08702224141655
19701,New Castle County,DE,43.81343122435759
19702,New Castle County,DE,29.453681710213775
19709,New Castle County,DE,9.93305981429497
19720,New Castle County,DE,0.9717123731375513
19802,New Castle County,DE,61.153098682789896
19805,New Castle County,DE,1.0148995897214426
19808,New Castle County,DE,11.163895486935866
19904,Kent County,DE,59.14489311163895
19933,Sussex County,DE,54.610235370330386
19934,Kent County,DE,56.985532282444396
19938,Kent County,DE,78.77348304901749
19943,Kent County,DE,52.19175124163248
19947,Sussex County,DE,28.546750161952062
19956,Sussex County,DE,86.20168430144676
19958,Sussex County,DE,19.41265385445908
19962,Kent County,DE,61.282660332541575
19963,Sussex County,DE,69.79054199956812
19973,Sussex County,DE,30.058302742388253
32011,Nassau County,FL,43.12243575901533
32025,Columbia County,FL,22.78125674800259
32034,Nassau County,FL,34.22586914273375
32043,Clay County,FL,28.56834377024401
32046,Nassau County,FL,67.0265601381991
32052,Hamilton County,FL,77.80177067587995
32053,Hamilton County,FL,91.29777585834593
32055,Columbia County,FL,25.458864176203843
32065,Clay County,FL,26.322608507881668
32068,Clay County,FL,25.113366443532716
32084,St. Johns County,FL,46.2319153530555
32092,St. Johns County,FL,80.84646944504426
32097,Nassau County,FL,71.84193478730296
32129,Volusia County,FL,58.60505290434032
32137,Flagler County,FL,36.57957244655582
32179,Marion County,FL,60.8723817749946
32205,Duval County,FL,62.06003023105161
32206,Duval County,FL,10.256963938674152
32208,Duval County,FL,3.3470092852515654
32209,Duval County,FL,10.451306413301662
32210,Duval County,FL,47.246814942776936
32211,Duval County,FL,10.148995897214425
32218,Duval County,FL,72.42496221118549
32224,Duval County,FL,42.08594256100194
32244,Duval County,FL,61.109911466206
32254,Duval County,FL,63.830706110991144
32257,Duval County,FL,12.589073634204276
32259,St. Johns County,FL,28.26603325415677
32277,Duval County,FL,70.76225437270568
32301,Leon County,FL,49.816454329518464
32303,Leon County,FL,28.006909954653423
32311,Leon County,FL,84.88447419563809
32331,Madison County,FL,95.22781256748003
32333,Gadsden County,FL,73.05117685165192
32351,Gadsden County,FL,74.21723169941697
32404,Bay County,FL,12.437918376160656
32408,Bay County,FL,59.90066940185705
32428,Washington County,FL,36.903476570935
32446,Jackson County,FL,48.088965666162814
32503,Escambia County,FL,9.846685381127186
32505,Escambia County,FL,8.335132800690996
32514,Escambia County,FL,12.070827035197581
32566,Santa Rosa County,FL,20.29799179442885
32571,Santa Rosa County,FL,5.635931764197798
32605,Alachua County,FL,86.50399481753401
32607,Alachua County,FL,9.026128266033254
32608,Alachua County,FL,2.504858561865688
32621,Levy County,FL,77.32671129345714
32666,Putnam County,FL,78.32001727488664
32680,Dixie County,FL,65.5150075577629
32693,Gilchrist County,FL,53.422586914273374
32696,Levy County,FL,45.86482401209242
32703,Orange County,FL,58.259555171669184
32707,Seminole County,FL,52.32131289138415
32708,Seminole County,FL,29.58324335996545
32720,Volusia County,FL,41.80522565320665
32725,Volusia County,FL,20.7946447851436
32738,Volusia County,FL,21.723169941697257
32746,Seminole County,FL,36.75232131289138
32771,Seminole County,FL,7.1474843446339875
32780,Brevard County,FL,24.616713452817965
32784,Lake County,FL,88.12351543942994
32789,Orange County,FL,58.259555171669184
32808,Orange County,FL,49.38458216367955
32810,Orange County,FL,23.990498812351543
32811,Orange County,FL,11.185489095227814
32818,Orange County,FL,7.104297128050097
32822,Orange County,FL,34.765709350032395
32825,Orange County,FL,49.10386525588426
32835,Orange County,FL,73.1375512848197
32837,Orange County,FL,36.88188296264306
32839,Orange County,FL,13.99265817318074
32904,Brevard County,FL,31.613042539408337
32905,Brevard County,FL,42.99287410926366
32935,Brevard County,FL,8.918160224573526
32937,Brevard County,FL,83.76160656445693
32962,Indian River County,FL,32.13128913841503
32967,Indian River County,FL,31.137983156985534
33004,Broward County,FL,63.31245951198446
33010,Miami-Dade County,FL,50.377888145109054
33012,Miami-Dade County,FL,60.656445692075145
33014,Miami-Dade County,FL,95.3141870006478
33015,Miami-Dade County,FL,34.981645432951844
33020,Broward County,FL,16.58389116821421
33021,Broward County,FL,63.61477002807169
33024,Broward County,FL,75.96631397106457
33025,Broward County,FL,16.389548693586697
33029,Broward County,FL,43.96458648240121
33030,Miami-Dade County,FL,60.59166486719931
33032,Miami-Dade County,FL,25.782768300583026
33033,Miami-Dade County,FL,26.23623407471388
33034,Miami-Dade County,FL,40.682358022025475
33035,Miami-Dade County,FL,87.69164327359101
33040,Monroe County,FL,28.136471604405095
33050,Monroe County,FL,84.45260202979918
33054,Miami-Dade County,FL,33.53487367739149
33055,Miami-Dade County,FL,34.57136687540488
33060,Broward County,FL,72.14424530339019
33063,Broward County,FL,25.890736342042754
33064,Broward County,FL,22.43575901533146
33067,Broward County,FL,66.07644137335349
33068,Broward County,FL,60.98034981645433
33076,Broward County,FL,83.86957460591665
33125,Miami-Dade County,FL,28.50356294536817
33131,Miami-Dade County,FL,95.78924638307062
33133,Miami-Dade County,FL,62.14640466421939
33135,Miami-Dade County,FL,61.80090693154826
33139,Miami-Dade County,FL,42.99287410926366
33142,Miami-Dade County,FL,8.551068883610451
33146,Miami-Dade County,FL,96.39386741524508
33147,Miami-Dade County,FL,18.505722306197367
33150,Miami-Dade County,FL,67.2640898294105
33157,Miami-Dade County,FL,20.168430144677178
33160,Miami-Dade County,FL,51.090477218743246
33161,Miami-Dade County,FL,20.168430144677178
33166,Miami-Dade County,FL,62.06003023105161
33167,Miami-Dade County,FL,76.3118117037357
33169,Miami-Dade County,FL,58.928957028719495
33172,Miami-Dade County,FL,89.46231915353056
33176,Miami-Dade County,FL,79.83156985532283
33180,Miami-Dade County,FL,68.23580220254804
33181,Miami-Dade County,FL,71.75556035413517
33184,Miami-Dade County,FL,63.290865903692506
33187,Miami-Dade County,FL,70.11444612394732
33190,Miami-Dade County,FL,95.74605916648672
33193,Miami-Dade County,FL,46.447851435974954
33309,Broward County,FL,41.56769596199525
33311,Broward County,FL,46.16713452817966
33312,Broward County,FL,20.082055711509394
33313,Broward County,FL,10.170589505506369
33314,Broward County,FL,53.03390196501836
33317,Broward County,FL,64.21939106024617
33323,Broward County,FL,69.70416756640034
33326,Broward County,FL,67.45843230403801
33334,Broward County,FL,36.75232131289138
33351,Broward County,FL,57.37421723169942
33403,Palm Beach County,FL,71.99309004534658
33404,Palm Beach County,FL,54.45908011228676
33406,Palm Beach County,FL,64.5648887929173
33407,Palm Beach County,FL,16.022457352623622
33410,Palm Beach County,FL,33.966745843230406
33411,Palm Beach County,FL,23.018786439213994
33414,Palm Beach County,FL,29.129777585834592
33417,Palm Beach County,FL,41.33016627078385
33418,Palm Beach County,FL,37.81040811919672
33430,Palm Beach County,FL,35.17598790757936
33434,Palm Beach County,FL,75.36169293889009
33440,Hendry County,FL,33.94515223493846
33441,Broward County,FL,83.11379831569855
33458,Palm Beach County,FL,40.72554523860937
33460,Palm Beach County,FL,29.863960267760742
33461,Palm Beach County,FL,42.82012524292809
33462,Palm Beach County,FL,54.24314402936731
33477,Palm Beach County,FL,95.50852947527531
33484,Palm Beach County,FL,69.94169725761175
33547,Hillsborough County,FL,69.12114014251782
33558,Hillsborough County,FL,77.43467933491686
33563,Hillsborough County,FL,31.65622975599223
33592,Hillsborough County,FL,63.93867415245087
33604,Hillsborough County,FL,12.114014251781473
33612,Hillsborough County,FL,4.0164111423018785
33613,Hillsborough County,FL,25.739581083999134
33614,Hillsborough County,FL,20.57870870222414
33615,Hillsborough County,FL,45.217015763334054
33617,Hillsborough County,FL,19.36946663787519
33619,Hillsborough County,FL,70.37356942345066
33637,Hillsborough County,FL,71.99309004534658
33647,Hillsborough County,FL,34.83049017490823
33702,Pinellas County,FL,35.607860073418266
33755,Pinellas County,FL,27.812567480025912
33765,Pinellas County,FL,60.44050960915569
33770,Pinellas County,FL,41.071042971280505
33771,Pinellas County,FL,28.93543511120708
33772,Pinellas County,FL,66.11962858993738
33773,Pinellas County,FL,52.882746706974736
33781,Pinellas County,FL,78.32001727488664
33782,Pinellas County,FL,52.73159144893111
33801,Polk County,FL,11.595767652774779
33823,Polk County,FL,20.64348952709998
33830,Polk County,FL,21.291297775858347
33838,Polk County,FL,97.19283092204707
33844,Polk County,FL,22.78125674800259
33853,Polk County,FL,50.93932196069964
33860,Polk County,FL,43.89980565752537
33870,Highlands County,FL,45.605700712589076
33873,Hardee County,FL,59.90066940185705
33880,Polk County,FL,39.96976894839128
33881,Polk County,FL,22.327790973871732
33890,Hardee County,FL,97.99179442884906
33896,Polk County,FL,79.61563377240337
33905,Lee County,FL,80.41459727920535
33907,Lee County,FL,63.67955085294753
33913,Lee County,FL,71.23731375512848
33935,Hendry County,FL,63.37724033686028
33947,Charlotte County,FL,88.36104513064133
33952,Charlotte County,FL,41.69725761174693
33967,Lee County,FL,41.87000647808249
33973,Lee County,FL,77.93133232563162
33982,Charlotte County,FL,60.95875620816238
33990,Lee County,FL,54.091988771323685
34110,Collier County,FL,69.01317210105809
34114,Collier County,FL,89.57028719499029
34120,Collier County,FL,21.204923342690563
34135,Lee County,FL,32.58475491254589
34203,Manatee County,FL,38.26387389332758
34205,Manatee County,FL,19.455841071042972
34207,Manatee County,FL,69.35866983372921
34208,Manatee County,FL,61.64975167350464
34209,Manatee County,FL,49.44936298855539
34210,Manatee County,FL,92.35586266465127
34231,Sarasota County,FL,36.79550852947527
34234,Sarasota County,FL,82.42280285035629
34238,Sarasota County,FL,70.82703519758151
34239,Sarasota County,FL,67.89030446987692
34286,Sarasota County,FL,84.40941481321529
34434,Citrus County,FL,77.9745195422155
34452,Citrus County,FL,47.82984236665947
34472,Marion County,FL,54.48067372057871
34482,Marion County,FL,48.82314834808897
34608,Hernando County,FL,23.537033038220688
34609,Hernando County,FL,17.87950766573094
34638,Pasco County,FL,54.329518462535084
34652,Pasco County,FL,25.17814726840855
34653,Pasco County,FL,15.957676527747786
34654,Pasco County,FL,31.22435759015331
34668,Pasco County,FL,4.6858129993521915
34669,Pasco County,FL,64.17620384366228
34683,Pinellas County,FL,48.54243144029367
34698,Pinellas County,FL,82.27164759231268
34741,Osceola County,FL,39.86180090693155
34744,Osceola County,FL,14.100626214640466
34746,Osceola County,FL,53.50896134744115
34758,Osceola County,FL,10.94795940401641
34761,Orange County,FL,24.12006046210322
34785,Sumter County,FL,54.329518462535084
34786,Orange County,FL,40.509609155689915
34788,Lake County,FL,51.19844526020299
34950,St. Lucie County,FL,68.38695746059167
34953,St. Lucie County,FL,1.770675879939538
34972,Okeechobee County,FL,42.971280500971716
34974,Okeechobee County,FL,37.81040811919672
34982,St. Lucie County,FL,37.05463182897862
34990,Martin County,FL,46.12394731159577
34994,Martin County,FL,87.00064780824876
30004,Fulton County,GA,58.71302094580004
30008,Cobb County,GA,47.78665515007558
30012,Rockdale County,GA,82.05571150939322
30013,Rockdale County,GA,29.8423666594688
30014,Newton County,GA,43.16562297559922
30016,Newton County,GA,5.117685165191103
30019,Gwinnett County,GA,56.16497516735046
30022,Fulton County,GA,82.35802202548047
30024,Gwinnett County,GA,10.105808680630533
30028,Forsyth County,GA,73.35348736773915
30032,DeKalb County,GA,4.966529907147485
30035,DeKalb County,GA,41.243791837616065
30038,DeKalb County,GA,26.9056359317642
30040,Forsyth County,GA,42.776938026344205
30041,Forsyth County,GA,44.52602029799179
30044,Gwinnett County,GA,35.34873677391492
30045,Gwinnett County,GA,40.87670049665299
30046,Gwinnett County,GA,63.54998920319586
30052,Walton County,GA,52.60202979917944
30058,DeKalb County,GA,36.709134096307494
30060,Cobb County,GA,23.493845821636796
30062,Cobb County,GA,26.970416756640038
30064,Cobb County,GA,45.92960483696826
30066,Cobb County,GA,31.00842150723386
30068,Cobb County,GA,91.36255668322177
30075,Fulton County,GA,55.49557331030015
30076,Fulton County,GA,45.92960483696826
30080,Cobb County,GA,35.78060893975383
30082,Cobb County,GA,84.69013172101059
30083,DeKalb County,GA,43.42474627510257
30087,DeKalb County,GA,74.92982077305118
30093,Gwinnett County,GA,83.58885769812136
30096,Gwinnett County,GA,13.99265817318074
30097,Fulton County,GA,44.007773698985105
30101,Cobb County,GA,13.906283740012956
30102,Cherokee County,GA,62.988555387605274
30114,Cherokee County,GA,53.03390196501836
30115,Cherokee County,GA,56.07860073418268
30117,Carroll County,GA,18.937594472036277
30121,Bartow County,GA,38.069531418700066
30122,Douglas County,GA,39.21399265817318
30126,Cobb County,GA,27.661412221982296
30127,Cobb County,GA,33.21096955301231
30132,Paulding County,GA,18.87281364716044
30135,Douglas County,GA,27.87734830490175
30144,Cobb County,GA,20.945800043187216
30152,Cobb County,GA,39.14921183329734
30168,Cobb County,GA,43.18721658389117
30175,Pickens County,GA,85.7914057438998
30176,Haralson County,GA,70.09285251565537
30180,Carroll County,GA,58.41071042971281
30189,Cherokee County,GA,68.23580220254804
30213,Fulton County,GA,37.22738069531419
30214,Fayette County,GA,37.637659252861155
30217,Heard County,GA,52.817965882098896
30228,Henry County,GA,17.145324983804795
30230,Troup County,GA,63.22608507881667
30236,Clayton County,GA,48.585618656877564
30238,Clayton County,GA,36.14770028071691
30240,Troup County,GA,13.344849924422372
30252,Henry County,GA,55.9922263010149
30253,Henry County,GA,61.64975167350464
30260,Clayton County,GA,56.9423450658605
30263,Coweta County,GA,40.63917080544159
30274,Clayton County,GA,24.40077736989851
30276,Coweta County,GA,56.76959619952494
30286,Upson County,GA,33.729216152019006
30292,Pike County,GA,86.71993090045346
30297,Clayton County,GA,40.57438998056575
30306,Fulton County,GA,84.58216367955085
30310,Fulton County,GA,11.595767652774779
30311,Fulton County,GA,29.669617793133234
30313,Fulton County,GA,91.01705895055063
30318,Fulton County,GA,81.62383934355431
30319,DeKalb County,GA,55.905851867847126
30328,Fulton County,GA,88.92247894623192
30329,DeKalb County,GA,77.04599438566184
30331,Fulton County,GA,7.665730943640682
30338,DeKalb County,GA,59.01533146188728
30341,DeKalb County,GA,54.178363204491475
30342,Fulton County,GA,71.02137767220903
30345,DeKalb County,GA,71.92830922047074
30349,Fulton County,GA,17.987475707190672
30350,Fulton County,GA,77.7369898510041
30417,Evans County,GA,69.01317210105809
30439,Candler County,GA,74.45476139062838
30461,Bulloch County,GA,61.54178363204491
30504,Hall County,GA,69.35866983372921
30510,Habersham County,GA,88.74973007989635
30534,Dawson County,GA,26.408982941049448
30540,Gilmer County,GA,32.84387821204923
30548,Jackson County,GA,90.54199956812784
30549,Jackson County,GA,62.55668322176636
30605,Clarke County,GA,38.69574605916649
30606,Clarke County,GA,23.321096955301233
30607,Clarke County,GA,71.1509393219607
30655,Walton County,GA,70.9134096307493
30677,Oconee County,GA,83.15698553228245
30707,Walker County,GA,26.171453249838052
30721,Whitfield County,GA,40.48801554739797
30725,Walker County,GA,96.82573958108401
30728,Walker County,GA,54.41589289570287
30739,Walker County,GA,96.69617793133233
30742,Catoosa County,GA,66.96177931332326
30747,Chattooga County,GA,33.16778233642842
30753,Chattooga County,GA,75.25372489743036
30809,Columbia County,GA,53.61692938890088
30813,Columbia County,GA,49.017490822716475
30830,Burke County,GA,35.974951414381344
30904,Richmond County,GA,19.71496437054632
31005,Houston County,GA,72.70567911898078
31015,Crisp County,GA,31.65622975599223
31029,Monroe County,GA,58.000431872165834
31032,Jones County,GA,74.75707190671561
31036,Pulaski County,GA,57.41740444828331
31047,Houston County,GA,78.06089397538328
31052,Bibb County,GA,88.57698121356079
31055,Telfair County,GA,96.73936514791622
31079,Wilcox County,GA,98.61800906931548
31088,Houston County,GA,6.7156121787950775
31206,Bibb County,GA,47.39797020082055
31308,Bryan County,GA,91.85920967393652
31312,Effingham County,GA,87.82120492334269
31313,Liberty County,GA,77.84495789246382
31316,Long County,GA,88.12351543942994
31401,Chatham County,GA,50.76657309436406
31406,Chatham County,GA,35.54307924854243
31407,Chatham County,GA,78.96782552364499
31410,Chatham County,GA,75.57762902180954
31513,Appling County,GA,54.95573310300151
31535,Coffee County,GA,72.1874325199741
31539,Jeff Davis County,GA,53.379399697689486
31548,Camden County,GA,40.44482833081408
31601,Lowndes County,GA,13.30166270783848
31632,Lowndes County,GA,70.22241416540705
31643,Brooks County,GA,53.422586914273374
31701,Dougherty County,GA,29.324120060462107
31705,Dougherty County,GA,16.28158065212697
31763,Lee County,GA,33.59965450226733
31768,Colquitt County,GA,18.37616065644569
31774,Irwin County,GA,69.12114014251782
31791,Worth County,GA,35.86698337292161
31804,Harris County,GA,97.25761174692292
31806,Schley County,GA,99.97840639170805
31904,Muscogee County,GA,48.13215288274671
96701,Honolulu County,HI,19.47743467933492
96704,Hawaii County,HI,92.61498596415461
96706,Honolulu County,HI,41.45972792053552
96707,Honolulu County,HI,70.97819045562514
96720,Hawaii County,HI,19.023968905204057
96744,Honolulu County,HI,35.607860073418266
96756,Kauai County,HI,95.1198445260203
96761,Maui County,HI,96.7825523645001
96768,Maui County,HI,80.60893975383287
96779,Maui County,HI,100
96782,Honolulu County,HI,71.6691859209674
96792,Honolulu County,HI,44.02936730727704
96795,Honolulu County,HI,85.3595335780609
96797,Honolulu County,HI,18.332973439861803
96814,Honolulu County,HI,54.67501619520622
96816,Honolulu County,HI,17.922694882314836
96817,Honolulu County,HI,67.37205787087022
96819,Honolulu County,HI,7.039516303174261
83201,Bannock County,ID,11.29345713668754
83211,Power County,ID,90.60678039300367
83221,Bingham County,ID,44.26689699848845
83263,Franklin County,ID,87.88598574821853
83301,Twin Falls County,ID,34.679334916864605
83338,Jerome County,ID,70.30878859857482
83350,Minidoka County,ID,84.38782120492334
83402,Bonneville County,ID,35.672640898294105
83404,Bonneville County,ID,69.22910818397754
83406,Bonneville County,ID,50.14035845389765
83455,Teton County,ID,97.84063917080545
83501,Nez Perce County,ID,47.22522133448499
83607,Canyon County,ID,23.342690563593177
83616,Ada County,ID,32.541567695961994
83642,Ada County,ID,52.01900237529691
83646,Ada County,ID,24.811055927445476
83647,Elmore County,ID,28.30922047074066
83651,Canyon County,ID,7.752105376808465
83686,Canyon County,ID,2.828762686244872
83703,Ada County,ID,74.45476139062838
83705,Ada County,ID,75.70719067156122
83706,Ada County,ID,15.612178795076655
83709,Ada County,ID,29.388900885337936
83713,Ada County,ID,53.78967825523645
83716,Ada County,ID,34.33383718419348
83814,Kootenai County,ID,19.41265385445908
83835,Kootenai County,ID,39.710645648887926
83854,Kootenai County,ID,49.92442237097819
83861,Benewah County,ID,89.48391276182251
60004,Cook County,IL,60.37572878427986
60005,Cook County,IL,39.21399265817318
60007,Cook County,IL,37.72403368602893
60018,Cook County,IL,46.49103865255884
60020,Lake County,IL,84.94925502051393
60025,Cook County,IL,27.359101705895057
60026,Cook County,IL,97.17123731375513
60030,Lake County,IL,59.53357806089398
60035,Lake County,IL,76.98121356078602
60046,Lake County,IL,22.997192830922046
60047,Lake County,IL,22.176635715828112
60051,McHenry County,IL,35.32714316562298
60056,Cook County,IL,55.905851867847126
60060,Lake County,IL,31.85057223061974
60061,Lake County,IL,49.255020513927875
60062,Cook County,IL,56.46728568343771
60067,Cook County,IL,60.11660548477651
60068,Cook County,IL,24.6814942776938
60070,Cook County,IL,81.06240552796372
60073,Lake County,IL,82.25005398402074
60074,Cook County,IL,26.128266033254157
60077,Cook County,IL,43.35996545022673
60084,Lake County,IL,59.74951414381343
60089,Lake County,IL,24.46555819477435
60097,McHenry County,IL,75.25372489743036
60098,McHenry County,IL,17.74994601597927
60099,Lake County,IL,25.26452170157633
60103,DuPage County,IL,45.08745411358238
60107,Cook County,IL,34.074713884690134
60108,DuPage County,IL,73.52623623407472
60110,Kane County,IL,64.8024184841287
60112,DeKalb County,IL,97.64629669617794
60120,Kane County,IL,44.07255452386094
60123,Kane County,IL,37.572878427985316
60124,Kane County,IL,94.51522349384582
60126,DuPage County,IL,21.46404664219391
60133,Cook County,IL,28.006909954653423
60134,Kane County,IL,28.374001295616498
60137,DuPage County,IL,51.543942992874115
60139,DuPage County,IL,66.11962858993738
60142,McHenry County,IL,75.23213128913841
60145,DeKalb County,IL,97.8190455625135
60148,DuPage County,IL,28.697905419995685
60153,Cook County,IL,23.81774994601598
60171,Cook County,IL,76.00950118764845
60173,Cook County,IL,96.95530123083567
60174,Kane County,IL,77.71539624271216
60175,Kane County,IL,14.899589721442453
60176,Cook County,IL,70.30878859857482
60187,DuPage County,IL,22.370978190455627
60188,DuPage County,IL,34.05312027639818
60189,DuPage County,IL,52.86115309868279
60190,DuPage County,IL,63.528395594903905
60192,Cook County,IL,77.62902180954437
60302,Cook County,IL,19.36946663787519
60304,Cook County,IL,72.29540056143382
60402,Cook County,IL,4.405096091556899
60409,Cook County,IL,65.70935003239042
60417,Will County,IL,46.7069747354783
60419,Cook County,IL,29.648024184841287
60426,Cook County,IL,83.02742388253077
60430,Cook County,IL,49.6437054631829
60431,Will County,IL,74.28201252429281
60432,Will County,IL,40.272079464478516
60433,Will County,IL,75.16735046426258
60439,Cook County,IL,84.75491254588641
60440,Will County,IL,67.71755560354136
60441,Will County,IL,11.142301878643922
60442,Will County,IL,67.45843230403801
60443,Cook County,IL,29.863960267760742
60448,Will County,IL,38.78212049233427
60451,Will County,IL,9.285251565536601
60453,Cook County,IL,5.830274238825308
60457,Cook County,IL,59.74951414381343
60466,Cook County,IL,32.62794212912978
60471,Cook County,IL,81.96933707622543
60490,Will County,IL,44.59080112286763
60491,Will County,IL,21.16173612610667
60502,DuPage County,IL,68.10624055279636
60504,DuPage County,IL,53.31461887281365
60505,Kane County,IL,77.21874325199741
60506,Kane County,IL,80.06909954653423
60513,Cook County,IL,58.15158713020946
60515,DuPage County,IL,74.15245087454113
60517,DuPage County,IL,73.82854675016195
60520,DeKalb County,IL,98.812351543943
60525,Cook County,IL,39.710645648887926
60527,DuPage County,IL,35.04642625782768
60532,DuPage County,IL,61.90887497300799
60534,Cook County,IL,65.5150075577629
60538,Kendall County,IL,90.64996760958756
60540,DuPage County,IL,86.65515007557762
60543,Kendall County,IL,21.57201468365364
60544,Will County,IL,55.0421075361693
60545,Kendall County,IL,52.68840423234723
60546,Cook County,IL,32.15288274670697
60554,Kane County,IL,78.66551500755776
60560,Kendall County,IL,76.074282012524293
60561,DuPage County,IL,41.80522565320665
60563,DuPage County,IL,85.316346361477
60564,Will County,IL,81.08399913625567
60565,DuPage County,IL,17.231699416972575
60585,Will County,IL,38.911682142085944
60586,Will County,IL,48.00259123299504
60605,Cook County,IL,43.03606132584755
60608,Cook County,IL,23.12675448067372
60609,Cook County,IL,40.66076441373354
60610,Cook County,IL,27.078384798099762
60612,Cook County,IL,8.637443316778233
60613,Cook County,IL,44.482833081407904
60614,Cook County,IL,38.50140358453898
60617,Cook County,IL,16.065644569207514
60618,Cook County,IL,18.700064780824878
60622,Cook County,IL,54.22155042107536
60623,Cook County,IL,16.32476786871086
60624,Cook County,IL,49.34139494709566
60625,Cook County,IL,77.69380263442022
60628,Cook County,IL,46.642193910602465
60629,Cook County,IL,54.13517598790758
60632,Cook County,IL,80.39300367091342
60633,Cook County,IL,80.26344202116174
60634,Cook County,IL,39.99136255668322
60638,Cook County,IL,39.041243791837616
60639,Cook County,IL,62.03843662275966
60640,Cook County,IL,3.023105160872382
60641,Cook County,IL,45.75685597063269
60642,Cook County,IL,65.83891168214208
60643,Cook County,IL,36.98985100410279
60644,Cook County,IL,35.04642625782768
60646,Cook County,IL,86.97905419995682
60647,Cook County,IL,17.490822716475922
60651,Cook County,IL,2.915137119412654
60652,Cook County,IL,15.374649103865256
60654,Cook County,IL,56.316130425394086
60656,Cook County,IL,32.34722522133448
60657,Cook County,IL,55.86266465126323
60659,Cook County,IL,63.31245951198446
60660,Cook County,IL,74.30360613258475
60661,Cook County,IL,95.05506370114446
60707,Cook County,IL,75.8367523213129
60804,Cook County,IL,9.263657957244655
60914,Kankakee County,IL,19.153530554955733
60915,Kankakee County,IL,75.77197149643705
60954,Kankakee County,IL,63.72273806953142
61010,Ogle County,IL,89.48391276182251
61032,Stephenson County,IL,51.93262794212913
61065,Boone County,IL,55.905851867847126
61068,Ogle County,IL,80.00431872165838
61073,Winnebago County,IL,77.99611315050745
61080,Winnebago County,IL,74.3251997408767
61108,Winnebago County,IL,71.34528179658821
61114,Winnebago County,IL,68.81882962643058
61115,Winnebago County,IL,35.71582811487799
61244,Rock Island County,IL,50.680198661196286
61270,Whiteside County,IL,91.79442884906068
61301,LaSalle County,IL,46.96609803498165
61350,LaSalle County,IL,32.19606996329087
61401,Knox County,IL,74.95141438134311
61443,Henry County,IL,45.605700712589076
61462,Warren County,IL,89.67825523645001
61603,Peoria County,IL,51.19844526020299
61705,McLean County,IL,68.10624055279636
61736,McLean County,IL,99.87043835024832
61739,Livingston County,IL,92.52861153098682
61752,McLean County,IL,97.38717339667458
61802,Champaign County,IL,76.33340531202764
61832,Vermilion County,IL,21.787950766573093
61856,Piatt County,IL,88.87929172964803
61866,Champaign County,IL,25.610019434247462
61953,Douglas County,IL,90.06694018570504
62002,Madison County,IL,47.311595767652776
62034,Madison County,IL,92.48542431440295
62035,Madison County,IL,81.25674800259122
62040,Madison County,IL,36.08291945584107
62206,St. Clair County,IL,53.70330382206867
62234,Madison County,IL,33.966745843230406
62236,Monroe County,IL,95.37896782552365
62249,Madison County,IL,63.5715828114878
62301,Adams County,IL,19.628589937378536
62305,Adams County,IL,55.60354135175988
62471,Fayette County,IL,80.60893975383287
62521,Macon County,IL,25.739581083999134
62526,Macon County,IL,4.426689699848844
62561,Sangamon County,IL,99.41697257611747
62626,Macoupin County,IL,86.43921399265817
62702,Sangamon County,IL,13.49600518246599
62703,Sangamon County,IL,16.34636147700281
62806,Edwards County,IL,95.98358885769812
62901,Jackson County,IL,50.07557762902181
62946,Saline County,IL,69.01317210105809
62948,Williamson County,IL,52.96912114014252
62959,Williamson County,IL,26.193046858129993
62960,Massac County,IL,77.24033686028935
46012,Madison County,IN,22.630101489958975
46033,Hamilton County,IN,46.447851435974954
46060,Hamilton County,IN,17.577197149643705
46062,Hamilton County,IN,43.03606132584755
46074,Hamilton County,IN,49.66529907147484
46106,Johnson County,IN,91.79442884906068
46112,Hendricks County,IN,38.00475059382423
46113,Marion County,IN,52.1053768084647
46120,Putnam County,IN,84.47419563809112
46123,Hendricks County,IN,31.893759447203628
46143,Johnson County,IN,58.99373785359534
46151,Morgan County,IN,13.10732023321097
46163,Hancock County,IN,78.38479809976246
46167,Hendricks County,IN,96.69617793133233
46176,Shelby County,IN,6.7587993953789685
46201,Marion County,IN,33.23256316130425
46224,Marion County,IN,17.44763549989203
46227,Marion County,IN,20.72986396026776
46228,Marion County,IN,66.4651263226085
46236,Marion County,IN,44.979486072122654
46239,Marion County,IN,38.41502915137119
46254,Marion County,IN,10.883178579140575
46256,Marion County,IN,81.1919671777154
46268,Marion County,IN,61.066724249622105
46278,Marion County,IN,90.93068451738286
46303,Lake County,IN,29.54005614338156
46307,Lake County,IN,37.16259987043835
46311,Lake County,IN,18.311379831569855
46312,Lake County,IN,6.953141870006478
46319,Lake County,IN,43.381559058518675
46321,Lake County,IN,79.50766573094364
46322,Lake County,IN,12.481105592744548
46324,Lake County,IN,31.50507449794861
46350,LaPorte County,IN,3.0878859857482186
46356,Lake County,IN,17.318073850140358
46360,LaPorte County,IN,60.74282012524292
46368,Porter County,IN,19.023968905204057
46371,LaPorte County,IN,89.03044698769165
46373,Lake County,IN,16.43273591017059
46375,Lake County,IN,67.56640034549774
46385,Porter County,IN,2.4184841286979055
46404,Lake County,IN,19.239904988123516
46405,Lake County,IN,25.005398402072988
46410,Lake County,IN,15.89289570287195
46514,Elkhart County,IN,16.17361261066724
46516,Elkhart County,IN,31.56985532282444
46517,Elkhart County,IN,32.32563161304254
46530,St. Joseph County,IN,87.56208162383933
46540,Elkhart County,IN,81.94774346793349
46544,St. Joseph County,IN,90.34765709350032
46561,St. Joseph County,IN,78.14726840855107
46562,Kosciusko County,IN,94.14813215288275
46601,St. Joseph County,IN,63.01014899589722
46614,St. Joseph County,IN,42.62578276830059
46619,St. Joseph County,IN,82.29324120060461
46628,St. Joseph County,IN,32.714316562297554
46706,DeKalb County,IN,29.49686892679767
46714,Wells County,IN,72.81364716044051
46725,Whitley County,IN,16.670265601381992
46733,Adams County,IN,26.452170157633343
46767,Noble County,IN,81.25674800259122
46802,Allen County,IN,68.4949255020514
46804,Allen County,IN,28.91384150291514
46806,Allen County,IN,14.208594256100193
46808,Allen County,IN,18.354567048153747
46814,Allen County,IN,71.60440509609157
46815,Allen County,IN,18.743251997408766
46845,Allen County,IN,42.107536169293894
46902,Howard County,IN,9.393219606996329
46952,Grant County,IN,33.23256316130425
46962,Wabash County,IN,91.75124163247679
47111,Clark County,IN,39.53789678255236
47129,Clark County,IN,35.910170589505505
47130,Clark County,IN,3.433383718419348
47203,Bartholomew County,IN,70.48153746491039
47250,Jefferson County,IN,93.28438782120493
47302,Delaware County,IN,65.83891168214208
47303,Delaware County,IN,20.42755344418052
47304,Delaware County,IN,34.91686460807601
47331,Fayette County,IN,48.1753400993306
47353,Union County,IN,91.49211833297343
47362,Henry County,IN,10.343338371841934
47374,Wayne County,IN,10.904772187432519
47408,Monroe County,IN,92.24789462319154
47460,Owen County,IN,62.75102569639387
47591,Knox County,IN,53.33621248110559
47630,Warrick County,IN,27.661412221982296
47713,Vanderburgh County,IN,47.59231267544807
47714,Vanderburgh County,IN,5.679118980781689
47715,Vanderburgh County,IN,16.58389116821421
47725,Vanderburgh County,IN,76.67890304469877
47802,Vigo County,IN,11.854890952278126
47834,Clay County,IN,49.16864608076009
47842,Vermillion County,IN,53.293025264521695
47905,Tippecanoe County,IN,25.329302526452167
47906,Tippecanoe County,IN,38.93327575037789
47909,Tippecanoe County,IN,24.076873245519327
50003,Dallas County,IA,95.1198445260203
50009,Polk County,IA,54.95573310300151
50010,Story County,IA,41.02785575469661
50021,Polk County,IA,60.52688404232347
50049,Lucas County,IA,98.7259771107752
50156,Boone County,IA,99.30900453465775
50158,Marshall County,IA,42.58259555171669
50219,Marion County,IA,78.83826387389334
50266,Polk County,IA,64.7592312675448
50310,Polk County,IA,10.019434247462751
50313,Polk County,IA,24.184841286979054
50316,Polk County,IA,58.15158713020946
50317,Polk County,IA,78.40639170805441
50320,Polk County,IA,64.54329518462535
50322,Polk County,IA,75.87993953789677
50401,Cerro Gordo County,IA,43.5327143165623
50501,Webster County,IA,12.545886417620384
50588,Buena Vista County,IA,82.98423666594688
50703,Black Hawk County,IA,64.02504858561866
50801,Union County,IA,24.12006046210322
51103,Woodbury County,IA,64.34895270999785
51104,Woodbury County,IA,29.28093284387821
51106,Woodbury County,IA,32.2608507881667
51108,Woodbury County,IA,85.66184409414814
51501,Pottawattamie County,IA,43.511120708270354
51503,Pottawattamie County,IA,36.49319801338804
51537,Shelby County,IA,97.5383286547182
51566,Montgomery County,IA,63.053336212481106
52001,Dubuque County,IA,6.391708054415893
52240,Johnson County,IA,37.443316778233644
52246,Johnson County,IA,85.53228244439646
52301,Iowa County,IA,97.68948391276182
52302,Linn County,IA,37.572878427985316
52349,Benton County,IA,58.60505290434032
52402,Linn County,IA,8.810192183113799
52403,Linn County,IA,59.57676527747786
52404,Linn County,IA,84.56057007125891
52405,Linn County,IA,23.81774994601598
52537,Davis County,IA,79.18376160656446
52641,Henry County,IA,83.329734398618
52645,Henry County,IA,98.98510041027856
52722,Scott County,IA,9.63074929820773
52726,Scott County,IA,98.40207298639602
52732,Clinton County,IA,10.494493629885554
52742,Clinton County,IA,92.52861153098682
52753,Scott County,IA,97.99179442884906
52802,Scott County,IA,88.62016843014467
52804,Scott County,IA,7.169077952925934
52806,Scott County,IA,10.127402288922479
66044,Douglas County,KS,52.450874541135825
66062,Johnson County,KS,22.176635715828112
66067,Franklin County,KS,41.071042971280505
66086,Leavenworth County,KS,83.93435543079248
66102,Wyandotte County,KS,67.39365147916216
66104,Wyandotte County,KS,15.029151371194127
66208,Johnson County,KS,73.39667458432304
66209,Johnson County,KS,69.53141870006479
66212,Johnson County,KS,39.88339451522349
66213,Johnson County,KS,56.683221766357164
66215,Johnson County,KS,59.87907579356511
66223,Johnson County,KS,76.20384366227597
66226,Johnson County,KS,74.605916648672
66434,Brown County,KS,84.58216367955085
66436,Jackson County,KS,88.46901317210106
66441,Geary County,KS,56.726408982941045
66502,Riley County,KS,92.03195854027207
66604,Shawnee County,KS,31.332325631613045
66611,Shawnee County,KS,82.70351975815159
66739,Cherokee County,KS,93.8890088533794
67005,Cowley County,KS,37.572878427985316
67010,Butler County,KS,62.64305765493414
67037,Sedgwick County,KS,80.65212697041676
67062,Harvey County,KS,95.4005614338156
67204,Sedgwick County,KS,88.83610451306413
67206,Sedgwick County,KS,90.45562513496004
67211,Sedgwick County,KS,37.400129561649756
67212,Sedgwick County,KS,87.32455193262794
67213,Sedgwick County,KS,46.77175556035414
67215,Sedgwick County,KS,99.37378535953357
67218,Sedgwick County,KS,61.43381559058518
67357,Labette County,KS,64.93198013388037
67401,Saline County,KS,68.6892679766789
67550,Pawnee County,KS,94.55841071042971
67601,Ellis County,KS,25.545238609371623
67735,Sherman County,KS,84.51738285467502
67846,Finney County,KS,10.926365795724466
40023,Jefferson County,KY,97.23601813863097
40031,Oldham County,KY,18.22500539840207
40059,Jefferson County,KY,66.63787518894408
40071,Spencer County,KY,82.63873893327575
40203,Jefferson County,KY,10.602461671345282
40212,Jefferson County,KY,60.93716259987044
40215,Jefferson County,KY,33.729216152019006
40216,Jefferson County,KY,19.736557978838263
40217,Jefferson County,KY,82.87626862448715
40218,Jefferson County,KY,5.52796372273807
40222,Jefferson County,KY,65.34225869142733
40223,Jefferson County,KY,49.946015979270136
40245,Jefferson County,KY,32.066508313539195
40258,Jefferson County,KY,11.034333837184192
40272,Jefferson County,KY,46.383070611099114
40353,Montgomery County,KY,56.89915784927662
40380,Powell County,KY,90.93068451738286
40391,Clark County,KY,2.8719499028287627
40403,Madison County,KY,11.05592744547614
40437,Lincoln County,KY,94.49362988555387
40475,Madison County,KY,2.807169077952926
40511,Fayette County,KY,23.688188296264308
40515,Fayette County,KY,32.973439861800905
40517,Fayette County,KY,10.21377672209026
40744,Laurel County,KY,15.914489311163896
41001,Campbell County,KY,49.082271647592314
41005,Boone County,KY,44.7203627726193
41014,Kenton County,KY,36.104513064133016
41017,Kenton County,KY,66.83221766357158
41018,Kenton County,KY,41.76203843662276
41040,Pendleton County,KY,79.18376160656446
41042,Boone County,KY,28.65471820341179
41074,Campbell County,KY,86.05052904340316
41076,Campbell County,KY,57.654934139494706
41097,Grant County,KY,58.540272079464486
41129,Boyd County,KY,36.406823580220255
41164,Carter County,KY,19.196717771539625
41171,Elliott County,KY,89.03044698769165
41501,Pike County,KY,24.46555819477435
41537,Letcher County,KY,79.76678903044699
41701,Perry County,KY,17.706758799395377
42003,McCracken County,KY,47.980997624703086
42041,Fulton County,KY,78.16886201684301
42141,Barren County,KY,25.091772835240768
42164,Allen County,KY,23.27790973871734
42167,Monroe County,KY,48.62880587346146
42211,Trigg County,KY,46.59900669401857
42262,Christian County,KY,97.04167566400346
42301,Daviess County,KY,38.78212049233427
42303,Daviess County,KY,3.476570935003239
42320,Ohio County,KY,35.02483264953574
42420,Henderson County,KY,3.2390412437918377
42431,Hopkins County,KY,11.228676311811704
42445,Caldwell County,KY,54.113582379615636
42501,Pulaski County,KY,33.12459511984452
42503,Pulaski County,KY,75.9879075793565
42701,Hardin County,KY,4.275534441805226
42728,Adair County,KY,36.406823580220255
70001,Jefferson Parish,LA,56.85597063269272
70003,Jefferson Parish,LA,18.073850140358456
70037,Plaquemines Parish,LA,26.23623407471388
70056,Jefferson Parish,LA,77.95292593392355
70062,Jefferson Parish,LA,80.22025480457783
70068,St. John the Baptist Parish,LA,53.573742172317
70070,St. Charles Parish,LA,44.09414813215288
70072,Jefferson Parish,LA,10.818397754264737
70075,St. Bernard Parish,LA,83.93435543079248
70083,Plaquemines Parish,LA,97.0632692722954
70085,St. Bernard Parish,LA,93.11163895486936
70094,Jefferson Parish,LA,12.178795076657309
70115,Orleans Parish,LA,8.443100842150724
70116,Orleans Parish,LA,32.84387821204923
70117,Orleans Parish,LA,1.4467717555603543
70118,Orleans Parish,LA,8.291945584107104
70119,Orleans Parish,LA,11.530986827898943
70124,Orleans Parish,LA,86.5471820341179
70125,Orleans Parish,LA,21.07536169293889
70129,Orleans Parish,LA,57.91405743899806
70301,Lafourche Parish,LA,0.8205571150939321
70339,Assumption Parish,LA,62.64305765493414
70343,Terrebonne Parish,LA,93.97538328654718
70346,Ascension Parish,LA,90.13172101058086
70354,Lafourche Parish,LA,59.14489311163895
70363,Terrebonne Parish,LA,46.9445044266897
70364,Terrebonne Parish,LA,87.5404880155474
70392,St. Mary Parish,LA,56.59684733318937
70420,St. Tammany Parish,LA,56.121787950766574
70427,Washington Parish,LA,6.370114446123948
70435,St. Tammany Parish,LA,9.43640682358022
70461,St. Tammany Parish,LA,7.341826819261499
70471,St. Tammany Parish,LA,25.63161304253941
70501,Lafayette Parish,LA,0.7341826819261499
70506,Lafayette Parish,LA,13.603973223925717
70510,Vermilion Parish,LA,3.735694234506586
70517,St. Martin Parish,LA,5.18246599006694
70518,Lafayette Parish,LA,33.05981429496869
70520,Lafayette Parish,LA,39.38674152450874
70526,Acadia Parish,LA,12.524292809328438
70538,St. Mary Parish,LA,96.97689483912761
70548,Vermilion Parish,LA,19.8013388037141
70578,Acadia Parish,LA,10.580868063053336
70586,Evangeline Parish,LA,29.734398618009067
70592,Lafayette Parish,LA,46.03757287842799
70605,Calcasieu Parish,LA,8.16238393435543
70663,Calcasieu Parish,LA,2.8503562945368173
70706,Livingston Parish,LA,49.49255020513928
70710,West Baton Rouge Parish,LA,86.43921399265817
70719,West Baton Rouge Parish,LA,93.06845173828546
70726,Livingston Parish,LA,24.24962211185489
70734,Ascension Parish,LA,80.15547397970201
70764,Iberville Parish,LA,19.542215504210752
70767,West Baton Rouge Parish,LA,30.16627078384798
70770,East Baton Rouge Parish,LA,87.7780177067588
70805,East Baton Rouge Parish,LA,1.036493198013388
70807,East Baton Rouge Parish,LA,5.139278773483049
70808,East Baton Rouge Parish,LA,28.26603325415677
70810,East Baton Rouge Parish,LA,17.965882098898724
70812,East Baton Rouge Parish,LA,15.007557762902183
71006,Bossier Parish,LA,35.75901533146188
71040,Claiborne Parish,LA,53.141870006478086
71052,De Soto Parish,LA,22.522133448499243
71055,Webster Parish,LA,7.471388469013172
71112,Bossier Parish,LA,5.074497948607212
71201,Ouachita Parish,LA,20.060462103217446
71203,Ouachita Parish,LA,36.169293889008856
71220,Morehouse Parish,LA,8.076009501187649
71251,Jackson Parish,LA,30.81407903260635
71269,Richland Parish,LA,61.49859641546102
71270,Lincoln Parish,LA,12.26516950982509
71302,Rapides Parish,LA,42.23709781904556
71322,Avoyelles Parish,LA,90.45562513496004
71429,Sabine Parish,LA,94.96868926797669
71449,Sabine Parish,LA,81.8613690347657
71457,Natchitoches Parish,LA,44.89311163895487
03909,York County,ME,69.25070179226948
04011,Cumberland County,ME,93.91060246167135
04027,York County,ME,73.97970200820558
04032,Cumberland County,ME,74.75707190671561
04043,York County,ME,48.13215288274671
04072,York County,ME,23.990498812351543
04074,Cumberland County,ME,51.716691859209675
04083,York County,ME,70.65428633124596
04086,Sagadahoc County,ME,93.30598142949687
04092,Cumberland County,ME,24.055279637227382
04093,York County,ME,70.65428633124596
04101,Cumberland County,ME,20.470740660764413
04102,Cumberland County,ME,19.95249406175772
04103,Cumberland County,ME,10.451306413301662
04240,Androscoggin County,ME,16.389548693586697
04274,Androscoggin County,ME,86.35283955949039
04280,Androscoggin County,ME,86.5471820341179
04901,Kennebec County,ME,12.2219822932412
04915,Waldo County,ME,82.6603325415677
20601,Charles County,MD,79.9179442884906
20603,Charles County,MD,51.50075577629022
20619,St. Mary's County,MD,77.04599438566184
20637,Charles County,MD,96.24271215720147
20646,Charles County,MD,92.16152019002375
20707,Prince George's County,MD,52.32131289138415
20723,Howard County,MD,94.32088101921832
20737,Prince George's County,MD,76.67890304469877
20740,Prince George's County,MD,95.27099978406392
20746,Prince George's County,MD,47.72187432519974
20747,Prince George's County,MD,62.621464046642195
20748,Prince George's County,MD,28.17965882098899
20769,Prince George's County,MD,98.22932412006045
20772,Prince George's County,MD,64.08982941049449
20794,Howard County,MD,96.91211401425178
20814,Montgomery County,MD,64.67285683437703
20855,Montgomery County,MD,85.70503131073202
20874,Montgomery County,MD,61.995249406175766
20878,Montgomery County,MD,62.29755992226301
20879,Montgomery County,MD,74.02288922478947
20901,Montgomery County,MD,63.61477002807169
20904,Montgomery County,MD,42.345065860505294
20906,Montgomery County,MD,36.32044914705247
20910,Montgomery County,MD,42.107536169293894
20912,Montgomery County,MD,97.60310947959404
21001,Harford County,MD,46.27510256963939
21012,Anne Arundel County,MD,67.43683869574606
21014,Harford County,MD,24.919023968905204
21017,Harford County,MD,84.94925502051393
21032,Anne Arundel County,MD,87.4541135823796
21037,Anne Arundel County,MD,55.797883826387384
21044,Howard County,MD,86.7847117253293
21045,Howard County,MD,64.43532714316562
21046,Howard County,MD,94.62319153530555
21050,Harford County,MD,57.5037788814511
21061,Anne Arundel County,MD,20.92420643489527
21074,Carroll County,MD,66.29237745627294
21075,Howard County,MD,93.04685812999352
21076,Anne Arundel County,MD,91.12502699201036
21084,Harford County,MD,93.39235586266466
21090,Anne Arundel County,MD,76.44137335348736
21093,Baltimore County,MD,59.447203627726196
21111,Baltimore County,MD,94.73115957676528
21113,Anne Arundel County,MD,39.90498812351544
21114,Anne Arundel County,MD,87.90757935651047
21117,Baltimore County,MD,65.7525372489743
21122,Anne Arundel County,MD,2.7207946447851437
21128,Baltimore County,MD,77.58583459296048
21133,Baltimore County,MD,42.107536169293894
21136,Baltimore County,MD,41.243791837616065
21144,Anne Arundel County,MD,89.98056575253725
21157,Carroll County,MD,33.405312027639816
21158,Carroll County,MD,71.99309004534658
21202,Baltimore city,MD,26.063485208378317
21206,Baltimore city,MD,4.513064133016627
21207,Baltimore County,MD,10.775210537680845
21208,Baltimore County,MD,86.22327790973871
21209,Baltimore County,MD,76.11746922910818
21211,Baltimore city,MD,58.30274238825308
21212,Baltimore city,MD,25.63161304253941
21213,Baltimore city,MD,66.7458432304038
21220,Baltimore County,MD,74.19563809112503
21221,Baltimore County,MD,9.198877132368818
21222,Baltimore County,MD,11.725329302526452
21224,Baltimore city,MD,6.823580220254804
21225,Baltimore city,MD,20.665083135391924
21228,Baltimore County,MD,80.69531418700065
21229,Baltimore city,MD,8.011228676311811
21230,Baltimore city,MD,20.665083135391924
21234,Baltimore County,MD,6.88836104513064
21239,Baltimore city,MD,18.48412869790542
21244,Baltimore County,MD,27.83416108831786
21286,Baltimore County,MD,69.01317210105809
21403,Anne Arundel County,MD,46.96609803498165
21742,Washington County,MD,49.49255020513928
21776,Carroll County,MD,94.839127618225
21784,Carroll County,MD,92.3774562729432
21791,Carroll County,MD,96.82573958108401
21804,Wicomico County,MD,31.310732023321098
21921,Cecil County,MD,29.064996760958756
01013,Hampden County,MA,64.37054631828978
01040,Hampden County,MA,52.99071474843446
01056,Hampden County,MA,31.24595119844526
01085,Hampden County,MA,4.167566400345498
01089,Hampden County,MA,1.3388037141006262
01104,Hampden County,MA,85.68343770244007
01109,Hampden County,MA,0.04318721658389117
01151,Hampden County,MA,14.122219822932411
01201,Berkshire County,MA,23.81774994601598
01247,Berkshire County,MA,1.8786439213992658
01267,Berkshire County,MA,69.35866983372921
01331,Worcester County,MA,1.4899589721442452
01364,Franklin County,MA,30.446987691643272
01432,Middlesex County,MA,31.397106456488878
01440,Worcester County,MA,66.7026560138199
01453,Worcester County,MA,0.3454977326711294
01464,Middlesex County,MA,80.28503562945369
01520,Worcester County,MA,26.927229540056143
01550,Worcester County,MA,0.36709134096307494
01570,Worcester County,MA,90.69315482617145
01581,Worcester County,MA,18.959188080328225
01583,Worcester County,MA,64.28417188512199
01603,Worcester County,MA,0.626214640466422
01604,Worcester County,MA,45.4761390628374
01607,Worcester County,MA,83.3729216152019
01608,Worcester County,MA,10.861584970848629
01701,Middlesex County,MA,3.7788814510904776
01702,Middlesex County,MA,0.4318721658389117
01746,Middlesex County,MA,55.797883826387384
01748,Middlesex County,MA,27.769380263442024
01754,Middlesex County,MA,51.15525804361909
01760,Middlesex County,MA,3.6709134096307494
01775,Middlesex County,MA,82.89786223277909
01778,Middlesex County,MA,67.54480673720579
01801,Middlesex County,MA,55.84107104297128
01810,Essex County,MA,5.290434031526668
01821,Middlesex County,MA,90.75793565104729
01824,Middlesex County,MA,3.174260418916001
01826,Middlesex County,MA,24.6814942776938
01830,Essex County,MA,0.4750593824228029
01832,Essex County,MA,59.6415461023537
01835,Essex County,MA,49.14705247246815
01840,Essex County,MA,67.2209026128266
01841,Essex County,MA,1.144461239473116
01843,Essex County,MA,64.04664219391061
01844,Essex County,MA,43.23040380047506
01845,Essex County,MA,85.98574821852732
01850,Middlesex County,MA,2.6128266033254155
01852,Middlesex County,MA,0.06478082487583675
01854,Middlesex County,MA,83.24335996545022
01860,Essex County,MA,71.75556035413517
01864,Middlesex County,MA,31.93694666378752
01876,Middlesex County,MA,2.2457352623623406
01880,Middlesex County,MA,2.332109695530123
01886,Middlesex County,MA,11.315050744979487
01887,Middlesex County,MA,15.331461887281364
01890,Middlesex County,MA,27.92053552148564
01902,Essex County,MA,0.10796804145972792
01904,Essex County,MA,88.55538760526885
01905,Essex County,MA,59.792701360397324
01907,Essex County,MA,35.45670481537465
01913,Essex County,MA,92.07514575685597
01915,Essex County,MA,4.944936298855539
01930,Essex County,MA,43.89980565752537
01938,Essex County,MA,30.74929820773051
01950,Essex County,MA,9.328438782120491
01960,Essex County,MA,1.9434247462751026
01970,Essex County,MA,7.795292593392356
01982,Essex County,MA,60.03023105160873
02021,Norfolk County,MA,47.80824875836752
02026,Norfolk County,MA,65.21269704167565
02035,Norfolk County,MA,18.67847117253293
02038,Norfolk County,MA,26.30101489958972
02054,Norfolk County,MA,83.00583027423882
02061,Plymouth County,MA,52.53724897430361
02062,Norfolk County,MA,76.39818613690348
02066,Plymouth County,MA,21.809544374865037
02067,Norfolk County,MA,40.29367307277046
02115,Suffolk County,MA,14.726840855106888
02118,Suffolk County,MA,61.88728136471604
02119,Suffolk County,MA,0.518246599006694
02121,Suffolk County,MA,0.1727488663355647
02122,Suffolk County,MA,0.45346577413085726
02124,Suffolk County,MA,0
02128,Suffolk County,MA,1.2092420643489528
02130,Suffolk County,MA,0.3023105160872382
02131,Suffolk County,MA,0.49665299071474844
02134,Suffolk County,MA,4.556251349600518
02135,Suffolk County,MA,76.54934139494709
02136,Suffolk County,MA,36.838695746059166
02138,Middlesex County,MA,4.750593824228028
02139,Middlesex County,MA,0.08637443316778234
02140,Middlesex County,MA,7.320233210969553
02144,Middlesex County,MA,9.371625998704383
02148,Middlesex County,MA,0.21593608291945585
02149,Middlesex County,MA,6.607644137335349
02150,Suffolk County,MA,11.379831569855323
02151,Suffolk County,MA,61.34744115741741
02155,Middlesex County,MA,2.3105160872381774
02169,Norfolk County,MA,0.19434247462751025
02170,Norfolk County,MA,17.44763549989203
02176,Middlesex County,MA,2.4832649535737423
02180,Middlesex County,MA,4.98812351543943
02186,Norfolk County,MA,5.72230619736558
02301,Plymouth County,MA,0.021593608291945586
02302,Plymouth County,MA,95.85402720794644
02330,Plymouth County,MA,32.17447635499892
02346,Plymouth County,MA,3.843662275966314
02351,Plymouth County,MA,6.909954653422587
02359,Plymouth County,MA,93.24120060462103
02360,Plymouth County,MA,2.224141654070395
02382,Plymouth County,MA,90.5204059598359
02451,Middlesex County,MA,12.91297775858346
02452,Middlesex County,MA,47.182034117901104
02453,Middlesex County,MA,3.109479594040164
02459,Middlesex County,MA,60.50529043403152
02472,Middlesex County,MA,16.000863744331678
02482,Norfolk County,MA,83.6104513064133
02536,Barnstable County,MA,38.63096523429065
02554,Nantucket County,MA,19.153530554955733
02632,Barnstable County,MA,64.8456057007126
02649,Barnstable County,MA,72.1010580868063
02664,Barnstable County,MA,38.41502915137119
02719,Bristol County,MA,30.101489958972145
02724,Bristol County,MA,82.85467501619522
02726,Bristol County,MA,15.763334053120277
02740,Bristol County,MA,40.380047505938244
02745,Bristol County,MA,90.04534657741308
02760,Bristol County,MA,4.124379183761607
02766,Bristol County,MA,8.31353919239905
02780,Bristol County,MA,44.547613906283736
48003,Lapeer County,MI,78.94623191535305
48009,Oakland County,MI,34.938458216367955
48015,Macomb County,MI,71.32368818829626
48017,Oakland County,MI,68.23580220254804
48025,Oakland County,MI,68.94839127618225
48036,Macomb County,MI,14.877996113150507
48042,Macomb County,MI,10.66724249622112
48044,Macomb County,MI,48.99589721442453
48060,St. Clair County,MI,7.644137335348737
48065,Macomb County,MI,85.55387605268841
48066,Macomb County,MI,8.183977542647376
48067,Oakland County,MI,71.49643705463184
48072,Oakland County,MI,34.506586050529044
48073,Oakland County,MI,64.7592312675448
48085,Oakland County,MI,16.950982509177283
48088,Macomb County,MI,28.697905419995685
48089,Macomb County,MI,2.699201036493198
48091,Macomb County,MI,2.094580004318722
48094,Macomb County,MI,34.09630749298208
48103,Washtenaw County,MI,6.154178363204491
48108,Washtenaw County,MI,54.782984236665946
48111,Wayne County,MI,45.346577413085726
48116,Livingston County,MI,15.029151371194127
48122,Wayne County,MI,38.00475059382423
48124,Wayne County,MI,9.134096307492982
48127,Wayne County,MI,25.329302526452167
48134,Wayne County,MI,44.46123947311596
48135,Wayne County,MI,11.25026992010365
48152,Wayne County,MI,18.44094148132153
48158,Washtenaw County,MI,92.24789462319154
48161,Monroe County,MI,57.63334053120276
48162,Monroe County,MI,4.880155473979702
48164,Wayne County,MI,57.91405743899806
48165,Oakland County,MI,65.83891168214208
48166,Monroe County,MI,26.23623407471388
48173,Wayne County,MI,41.33016627078385
48174,Wayne County,MI,16.04405096091557
48178,Oakland County,MI,18.656877564240983
48180,Wayne County,MI,6.8019866119628585
48183,Wayne County,MI,69.46663787518894
48185,Wayne County,MI,53.09868278989419
48186,Wayne County,MI,13.884690131721012
48187,Wayne County,MI,3.649319801338804
48195,Wayne County,MI,11.9844526020298
48197,Washtenaw County,MI,0.777369898510041
48201,Wayne County,MI,55.56035413517599
48202,Wayne County,MI,16.47592312675448
48203,Wayne County,MI,6.175771971496437
48204,Wayne County,MI,3.541351759879076
48205,Wayne County,MI,23.66659468797236
48206,Wayne County,MI,14.402936730727706
48207,Wayne County,MI,8.767004966529907
48210,Wayne County,MI,41.977974519542215
48211,Wayne County,MI,92.83092204707407
48212,Wayne County,MI,3.4549773267112935
48213,Wayne County,MI,22.630101489958975
48214,Wayne County,MI,9.090909090909092
48215,Wayne County,MI,53.854459080112285
48219,Wayne County,MI,1.6195206218959188
48220,Oakland County,MI,29.97192830922047
48221,Wayne County,MI,51.954221550421074
48223,Wayne County,MI,44.31008421507234
48224,Wayne County,MI,39.278773483049015
48225,Wayne County,MI,55.7546966098035
48227,Wayne County,MI,51.8246599006694
48228,Wayne County,MI,22.954005614338154
48229,Wayne County,MI,40.85510688836104
48234,Wayne County,MI,48.477650615417836
48235,Wayne County,MI,28.827467069747353
48236,Wayne County,MI,47.89462319153531
48237,Oakland County,MI,36.385229971928304
48238,Wayne County,MI,40.25048585618657
48239,Wayne County,MI,35.84538976462967
48240,Wayne County,MI,9.717123731375512
48301,Oakland County,MI,48.088965666162814
48304,Oakland County,MI,78.77348304901749
48307,Oakland County,MI,7.989635068019867
48309,Oakland County,MI,50.83135391923991
48315,Macomb County,MI,57.050313107320235
48317,Macomb County,MI,57.482185273159146
48323,Oakland County,MI,69.74735478298425
48328,Oakland County,MI,55.0421075361693
48331,Oakland County,MI,21.91751241632477
48335,Oakland County,MI,34.13949470956597
48336,Oakland County,MI,18.181818181818183
48346,Oakland County,MI,22.176635715828112
48348,Oakland County,MI,53.63852299719283
48359,Oakland County,MI,47.72187432519974
48362,Oakland County,MI,83.89116821420859
48371,Oakland County,MI,22.003886849492552
48377,Oakland County,MI,94.92550205139278
48382,Oakland County,MI,32.498380479378106
48383,Oakland County,MI,54.610235370330386
48386,Oakland County,MI,44.979486072122654
48390,Oakland County,MI,22.910818397754266
48393,Oakland County,MI,30.27423882530771
48421,Lapeer County,MI,95.65968473331894
48433,Genesee County,MI,36.32044914705247
48442,Oakland County,MI,78.75188944072555
48451,Genesee County,MI,61.692938890088534
48457,Genesee County,MI,90.58518678471172
48458,Genesee County,MI,16.97257611746923
48505,Genesee County,MI,7.924854243144029
48506,Genesee County,MI,12.308356726408983
48507,Genesee County,MI,21.032174476355
48529,Genesee County,MI,85.46750161952062
48532,Genesee County,MI,22.78125674800259
48601,Saginaw County,MI,0.6694018570503131
48602,Saginaw County,MI,44.914705247246815
48603,Saginaw County,MI,4.642625782768301
48611,Bay County,MI,81.99093068451738
48617,Clare County,MI,82.03411790110128
48622,Clare County,MI,58.885769812135614
48623,Saginaw County,MI,27.18635283955949
48624,Gladwin County,MI,22.910818397754266
48625,Clare County,MI,15.417836320449146
48632,Clare County,MI,72.70567911898078
48640,Midland County,MI,52.94752753185057
48661,Ogemaw County,MI,38.069531418700066
48706,Bay County,MI,16.540703951630316
48732,Bay County,MI,81.53746491038653
48746,Tuscola County,MI,67.65277477866552
48750,Iosco County,MI,59.83588857698121
48809,Ionia County,MI,51.00410278557547
48843,Livingston County,MI,4.858561865687756
48846,Ionia County,MI,55.45238609371626
48855,Livingston County,MI,58.30274238825308
48858,Isabella County,MI,68.90520405959836
48867,Shiawassee County,MI,15.849708486288058
48875,Ionia County,MI,96.19952494061758
48879,Clinton County,MI,65.83891168214208
48888,Montcalm County,MI,71.36687540488016
48906,Ingham County,MI,5.096091556899158
48910,Ingham County,MI,4.469876916432735
48911,Ingham County,MI,44.69876916432736
48912,Ingham County,MI,67.58799395378968
49002,Kalamazoo County,MI,18.87281364716044
49004,Kalamazoo County,MI,27.294320881019217
49009,Kalamazoo County,MI,4.772187432519974
49010,Allegan County,MI,27.423882530770893
49015,Calhoun County,MI,50.46426257827683
49017,Calhoun County,MI,16.259987043835025
49024,Kalamazoo County,MI,13.733534873677392
49045,Van Buren County,MI,62.92377456272943
49068,Calhoun County,MI,39.581083999136254
49070,Allegan County,MI,99.56812783416109
49082,Branch County,MI,88.70654286331245
49097,Kalamazoo County,MI,48.348088965666165
49103,Berrien County,MI,79.29172964802419
49127,Berrien County,MI,67.9766789030447
49201,Jackson County,MI,3.001511552580436
49202,Jackson County,MI,50.05398402072987
49228,Lenawee County,MI,85.70503131073202
49242,Hillsdale County,MI,31.073202332109695
49251,Ingham County,MI,81.4294968689268
49315,Kent County,MI,62.319153530554964
49316,Kent County,MI,33.51328006909955
49319,Kent County,MI,16.13042539408335
49330,Kent County,MI,88.31785791405744
49331,Kent County,MI,33.16778233642842
49333,Barry County,MI,53.422586914273374
49346,Mecosta County,MI,91.34096307492983
49348,Allegan County,MI,18.24659900669402
49349,Newaygo County,MI,73.78535953357806
49404,Ottawa County,MI,79.87475707190671
49408,Allegan County,MI,66.0332541567696
49412,Newaygo County,MI,77.80177067587995
49417,Ottawa County,MI,83.20017274886634
49423,Ottawa County,MI,4.491470524724681
49428,Ottawa County,MI,35.30554955733103
49441,Muskegon County,MI,4.815374649103865
49442,Muskegon County,MI,1.1228676311811703
49444,Muskegon County,MI,20.665083135391924
49445,Muskegon County,MI,21.291297775858347
49456,Ottawa County,MI,28.22284603757288
49464,Ottawa County,MI,34.83049017490823
49503,Kent County,MI,3.9732239257179875
49504,Kent County,MI,70.632692722954
49506,Kent County,MI,40.8335132800691
49519,Kent County,MI,31.20276398186137
49534,Kent County,MI,40.142517814726844
49546,Kent County,MI,54.80457784495789
49631,Osceola County,MI,55.884258259555175
49646,Kalkaska County,MI,35.86698337292161
49677,Osceola County,MI,48.8879291729648
49686,Grand Traverse County,MI,31.48348088965666
49707,Alpena County,MI,17.080544158928955
49779,Presque Isle County,MI,94.839127618225
49783,Chippewa County,MI,67.95508529475275
49841,Marquette County,MI,85.55387605268841
49866,Marquette County,MI,41.15741740444828
49935,Iron County,MI,56.83437702440077
55009,Goodhue County,MN,97.88382638738933
55024,Dakota County,MN,66.01166054847765
55033,Dakota County,MN,16.56229755992226
55042,Washington County,MN,96.45864824012092
55044,Dakota County,MN,33.59965450226733
55051,Kanabec County,MN,43.81343122435759
55057,Rice County,MN,81.29993521917513
55060,Steele County,MN,21.852731591448933
55075,Dakota County,MN,25.28611530986828
55102,Ramsey County,MN,75.85834592960484
55104,Ramsey County,MN,6.240552796372274
55105,Ramsey County,MN,60.246167134528186
55106,Ramsey County,MN,31.65622975599223
55109,Ramsey County,MN,61.36903476570935
55112,Ramsey County,MN,88.10192183113799
55113,Ramsey County,MN,30.533362124811052
55116,Ramsey County,MN,51.50075577629022
55117,Ramsey County,MN,30.425394083351325
55119,Ramsey County,MN,5.33362124811056
55123,Dakota County,MN,68.94839127618225
55124,Dakota County,MN,55.43079248542432
55125,Washington County,MN,87.9723601813863
55129,Washington County,MN,58.928957028719495
55130,Ramsey County,MN,93.1764197797452
55303,Anoka County,MN,32.60634852083783
55304,Anoka County,MN,24.59511984452602
55305,Hennepin County,MN,65.38544590801123
55306,Dakota County,MN,93.21960699632909
55308,Sherburne County,MN,86.15849708486289
55309,Sherburne County,MN,62.47030878859857
55313,Wright County,MN,69.98488447419564
55316,Hennepin County,MN,50.29151371194126
55321,Wright County,MN,99.7192830922047
55328,Wright County,MN,85.01403584538977
55334,Sibley County,MN,99.56812783416109
55337,Dakota County,MN,78.92463830706112
55345,Hennepin County,MN,82.12049233426906
55346,Hennepin County,MN,77.62902180954437
55347,Hennepin County,MN,51.090477218743246
55350,McLeod County,MN,45.109047721874326
55355,Meeker County,MN,94.81753400993306
55362,Wright County,MN,51.716691859209675
55376,Wright County,MN,91.57849276614122
55379,Scott County,MN,42.84171885122004
55386,Carver County,MN,97.55992226301015
55403,Hennepin County,MN,70.93500323904124
55405,Hennepin County,MN,80.24184841286979
55406,Hennepin County,MN,72.44655581947742
55407,Hennepin County,MN,54.329518462535084
55408,Hennepin County,MN,4.189160008637444
55409,Hennepin County,MN,83.43770244007773
55410,Hennepin County,MN,75.53444180522565
55411,Hennepin County,MN,51.176851651911036
55412,Hennepin County,MN,37.141006262146405
55418,Hennepin County,MN,14.532498380479378
55420,Hennepin County,MN,55.73310300151155
55422,Hennepin County,MN,65.92528611530987
55423,Hennepin County,MN,67.32887065428633
55426,Hennepin County,MN,63.70114446123948
55429,Hennepin County,MN,57.87087022241416
55430,Hennepin County,MN,8.227164759231268
55432,Anoka County,MN,11.44461239473116
55433,Anoka County,MN,20.751457568559704
55438,Hennepin County,MN,97.58151587130209
55441,Hennepin County,MN,57.1798747570719
55443,Hennepin County,MN,87.73483049017491
55444,Hennepin County,MN,40.40164111423019
55447,Hennepin County,MN,60.03023105160873
55448,Anoka County,MN,25.026992010364935
55720,Carlton County,MN,48.779961131505075
55744,Itasca County,MN,6.65083135391924
55746,St. Louis County,MN,41.243791837616065
55808,St. Louis County,MN,89.59188080328224
55811,St. Louis County,MN,16.454329518462536
55906,Olmsted County,MN,55.36601166054847
55912,Mower County,MN,32.39041243791838
55917,Steele County,MN,98.66119628589938
55921,Houston County,MN,93.47873029583243
55944,Dodge County,MN,82.83308140790326
55987,Winona County,MN,18.397754264737635
56001,Blue Earth County,MN,48.779961131505075
56073,Brown County,MN,70.04966529907148
56085,Brown County,MN,85.61865687756423
56201,Kandiyohi County,MN,60.8723817749946
56265,Chippewa County,MN,62.06003023105161
56267,Stevens County,MN,51.56553660116605
56301,Stearns County,MN,76.18225005398402
56303,Stearns County,MN,17.534009933059814
56304,Sherburne County,MN,42.84171885122004
56308,Douglas County,MN,43.40315266681063
56320,Stearns County,MN,93.86741524508744
56334,Pope County,MN,76.48456057007125
56345,Morrison County,MN,16.28158065212697
56347,Todd County,MN,90.17490822716476
56364,Morrison County,MN,99.22263010148995
56374,Stearns County,MN,87.41092636579573
56379,Benton County,MN,45.238609371626
56387,Stearns County,MN,78.4927661412222
56401,Crow Wing County,MN,52.66681062405528
56425,Crow Wing County,MN,79.29172964802419
56472,Crow Wing County,MN,80.9112502699201
56479,Todd County,MN,88.74973007989635
56482,Wadena County,MN,86.71993090045346
56573,Otter Tail County,MN,75.92312675448068
56633,Hubbard County,MN,78.4927661412222
56671,Beltrami County,MN,87.4541135823796
56701,Pennington County,MN,8.961347441157418
56716,Polk County,MN,17.40444828330814
38614,Coahoma County,MS,67.30727704599438
38654,DeSoto County,MS,11.660548477650616
38829,Prentiss County,MS,30.533362124811052
38852,Tishomingo County,MS,39.343554307924855
39046,Madison County,MS,44.28849060678039
39056,Hinds County,MS,47.82984236665947
39090,Attala County,MS,80.47937810408119
39154,Hinds County,MS,75.16735046426258
39204,Hinds County,MS,11.315050744979487
39206,Hinds County,MS,45.54091988771324
39208,Rankin County,MS,23.58022025480458
39211,Hinds County,MS,48.82314834808897
39350,Neshoba County,MS,42.79853163463615
39466,Pearl River County,MS,13.625566832217665
39667,Walthall County,MS,58.60505290434032
39669,Wilkinson County,MS,95.96199524940617
63021,St. Louis County,MO,59.38242280285036
63026,St. Louis County,MO,20.988987259771108
63028,Jefferson County,MO,12.351543942992874
63031,St. Louis County,MO,7.708918160224573
63033,St. Louis County,MO,6.7587993953789685
63074,St. Louis County,MO,44.59080112286763
63080,Franklin County,MO,28.65471820341179
63123,St. Louis County,MO,71.69077952925934
63129,St. Louis County,MO,28.978622327790976
63130,St. Louis County,MO,35.240768732455194
63138,St. Louis County,MO,34.57136687540488
63301,St. Charles County,MO,46.1887281364716
63304,St. Charles County,MO,65.49341394947096
63348,St. Charles County,MO,90.0021593608292
63362,Lincoln County,MO,84.86288058734614
63368,St. Charles County,MO,25.890736342042754
63376,St. Charles County,MO,39.62427121572015
63385,St. Charles County,MO,6.909954653422587
63645,Madison County,MO,63.895486935866984
63701,Cape Girardeau County,MO,23.47225221334485
63830,Pemiscot County,MO,75.77197149643705
64012,Cass County,MO,62.51349600518247
64015,Jackson County,MO,26.193046858129993
64024,Clay County,MO,7.96804145972792
64029,Jackson County,MO,23.688188296264308
64030,Jackson County,MO,7.773698985100411
64034,Jackson County,MO,77.54264737637659
64050,Jackson County,MO,6.348520837832002
64055,Jackson County,MO,47.7002807169078
64056,Jackson County,MO,42.0211617361261
64058,Jackson County,MO,60.00863744331678
64063,Jackson County,MO,73.28870654286331
64068,Clay County,MO,2.9367307277045995
64081,Jackson County,MO,85.33793996976895
64082,Jackson County,MO,54.93413949470957
64085,Ray County,MO,33.23256316130425
64086,Jackson County,MO,51.67350464262578
64089,Clay County,MO,35.71582811487799
64093,Johnson County,MO,20.42755344418052
64106,Jackson County,MO,14.964370546318289
64109,Jackson County,MO,44.56920751457569
64114,Jackson County,MO,70.74066076441373
64117,Clay County,MO,72.16583891168214
64118,Clay County,MO,27.63981861369035
64124,Jackson County,MO,57.82768300583028
64127,Jackson County,MO,1.921831137983157
64128,Jackson County,MO,35.52148564025049
64130,Jackson County,MO,2.137767220902613
64131,Jackson County,MO,28.093284387821203
64132,Jackson County,MO,6.240552796372274
64134,Jackson County,MO,68.60289354351113
64136,Jackson County,MO,98.2941049449363
64138,Jackson County,MO,4.232347225221335
64151,Platte County,MO,48.45605700712589
64154,Platte County,MO,83.99913625566833
64157,Clay County,MO,19.002375296912113
64482,Atchison County,MO,99.07147484344634
64490,DeKalb County,MO,96.04836968257395
64506,Buchanan County,MO,33.81559058518678
64507,Buchanan County,MO,13.625566832217665
64701,Cass County,MO,27.121572014683654
64730,Bates County,MO,42.3018786439214
64776,St. Clair County,MO,95.50852947527531
64801,Jasper County,MO,5.247246814942777
64836,Jasper County,MO,8.356726408982942
65202,Boone County,MO,4.05959835888577
65301,Pettis County,MO,23.42906499676096
65340,Saline County,MO,20.14683653638523
65355,Benton County,MO,35.45670481537465
65536,Laclede County,MO,56.85597063269272
65560,Dent County,MO,40.18570503131073
65583,Pulaski County,MO,73.1375512848197
65608,Douglas County,MO,74.88663355646729
65708,Barry County,MO,53.35780608939754
65721,Christian County,MO,38.56618440941481
65791,Oregon County,MO,88.70654286331245
65807,Greene County,MO,14.446123947311595
59034,Big Horn County,MT,99.5249406175772
59047,Park County,MT,64.28417188512199
59301,Custer County,MT,89.74303606132584
59501,Hill County,MT,65.12632260850788
59714,Gallatin County,MT,49.73007989635068
59801,Missoula County,MT,46.66378751889441
59804,Missoula County,MT,95.22781256748003
68005,Sarpy County,NE,87.36773914921183
68007,Douglas County,NE,91.60008637443316
68022,Douglas County,NE,84.10710429712806
68025,Dodge County,NE,85.3595335780609
68028,Sarpy County,NE,89.0088533793997
68046,Sarpy County,NE,78.2552364500108
68104,Douglas County,NE,13.236881882962642
68111,Douglas County,NE,9.479594040164113
68112,Douglas County,NE,89.2463830706111
68114,Douglas County,NE,66.18440941481322
68116,Douglas County,NE,99.17944288490607
68122,Douglas County,NE,81.10559274454762
68128,Sarpy County,NE,67.9766789030447
68130,Douglas County,NE,72.33858777801771
68133,Sarpy County,NE,94.08335132800691
68135,Douglas County,NE,97.8622327790974
68136,Sarpy County,NE,90.06694018570504
68137,Douglas County,NE,80.9112502699201
68144,Douglas County,NE,89.35435111207083
68147,Sarpy County,NE,82.29324120060461
68154,Douglas County,NE,72.1874325199741
68164,Douglas County,NE,94.68797236018138
68305,Nemaha County,NE,98.31569855322824
68352,Jefferson County,NE,95.74605916648672
68434,Seward County,NE,86.5903692507018
68462,Lancaster County,NE,99.78406391708054
68503,Lancaster County,NE,59.27445476139063
68506,Lancaster County,NE,84.62535089613475
68508,Lancaster County,NE,97.68948391276182
68516,Lancaster County,NE,50.57223061973656
68601,Platte County,NE,75.64240984668538
68701,Madison County,NE,79.93953789678255
68776,Dakota County,NE,87.95076657309437
68845,Buffalo County,NE,73.91492118332972
69101,Lincoln County,NE,11.83329734398618
69357,Scotts Bluff County,NE,99.35219175124163
69361,Scotts Bluff County,NE,64.71604405096092
89106,Clark County,NV,31.267544806737206
89107,Clark County,NV,67.06974735478298
89113,Clark County,NV,61.75771971496437
89115,Clark County,NV,9.73871733966746
89118,Clark County,NV,78.01770675879939
89119,Clark County,NV,37.05463182897862
89120,Clark County,NV,64.08982941049449
89121,Clark County,NV,14.489311163895488
89122,Clark County,NV,13.15050744979486
89129,Clark County,NV,63.72273806953142
89130,Clark County,NV,69.12114014251782
89139,Clark County,NV,61.995249406175766
89142,Clark County,NV,78.42798531634637
89146,Clark County,NV,68.21420859425609
89148,Clark County,NV,61.8656877564241
89149,Clark County,NV,47.39797020082055
89166,Clark County,NV,46.66378751889441
89183,Clark County,NV,76.7868710861585
89406,Churchill County,NV,57.762902180954434
89408,Lyon County,NV,54.19995681278341
89423,Douglas County,NV,71.49643705463184
89431,Washoe County,NV,37.70244007773699
89433,Washoe County,NV,56.46728568343771
89502,Washoe County,NV,75.38328654718204
89503,Washoe County,NV,73.33189375944721
89506,Washoe County,NV,8.399913625566832
89509,Washoe County,NV,32.99503347009286
89523,Washoe County,NV,68.4517382854675
89701,Carson City,NV,22.975599222630102
89801,Elko County,NV,50.22673288706543
89815,Elko County,NV,73.1375512848197
03031,Hillsborough County,NH,64.62966961779313
03042,Rockingham County,NH,66.37875188944072
03055,Hillsborough County,NH,30.46858129993522
03062,Hillsborough County,NH,8.248758367523214
03064,Hillsborough County,NH,15.78492766141222
03076,Hillsborough County,NH,28.762686244871517
03087,Rockingham County,NH,32.735910170589506
03103,Hillsborough County,NH,1.7922694882314836
03104,Hillsborough County,NH,5.484776506154178
03431,Cheshire County,NH,15.698553228244439
03570,Coos County,NH,56.121787950766574
03743,Sullivan County,NH,37.35694234506586
03867,Strafford County,NH,10.991146620600302
03873,Rockingham County,NH,81.34312243575901
03874,Rockingham County,NH,30.533362124811052
07002,Hudson County,NJ,3.6061325847549126
07011,Passaic County,NJ,7.8168862016843015
07023,Union County,NJ,98.03498164543295
07030,Hudson County,NJ,2.029799179442885
07035,Morris County,NJ,45.92960483696826
07036,Union County,NJ,3.2822284603757286
07042,Essex County,NJ,12.243575901533147
07045,Morris County,NJ,80.69531418700065
07054,Morris County,NJ,34.46339883394515
07055,Passaic County,NJ,0.41027855754696607
07060,Union County,NJ,15.137119412653854
07063,Union County,NJ,45.43295184625351
07071,Bergen County,NJ,78.77348304901749
07073,Bergen County,NJ,48.218527315914486
07076,Union County,NJ,97.21442453033902
07080,Middlesex County,NJ,39.90498812351544
07087,Hudson County,NJ,7.708918160224573
07090,Union County,NJ,65.12632260850788
07093,Hudson County,NJ,14.57568559706327
07103,Essex County,NJ,2.5264521701576332
07104,Essex County,NJ,61.04513064133017
07105,Essex County,NJ,24.228028503562946
07106,Essex County,NJ,1.5331461887281363
07107,Essex County,NJ,11.63895486935867
07110,Essex County,NJ,60.35413517598791
07111,Essex County,NJ,2.6344202116173614
07202,Union County,NJ,2.0082055711509392
07203,Union County,NJ,13.172101058086808
07302,Hudson County,NJ,85.70503131073202
07307,Hudson County,NJ,22.78125674800259
07407,Bergen County,NJ,97.32239257179874
07424,Passaic County,NJ,23.12675448067372
07444,Morris County,NJ,88.64176203843662
07446,Bergen County,NJ,57.30943640682358
07457,Morris County,NJ,98.94191319369466
07470,Passaic County,NJ,6.974735478298423
07501,Passaic County,NJ,0.6478082487583675
07506,Passaic County,NJ,52.19175124163248
07512,Passaic County,NJ,90.80112286763118
07522,Passaic County,NJ,1.554739797020082
07666,Bergen County,NJ,5.484776506154178
07676,Bergen County,NJ,98.89872597711079
07701,Monmouth County,NJ,29.82077305117685
07719,Monmouth County,NJ,24.076873245519327
07727,Monmouth County,NJ,65.5150075577629
07731,Monmouth County,NJ,17.037356942345067
07734,Monmouth County,NJ,9.97624703087886
07740,Monmouth County,NJ,2.2025480457784496
07747,Monmouth County,NJ,18.63528395594904
07748,Monmouth County,NJ,15.612178795076655
07755,Monmouth County,NJ,84.798099762470315
07801,Morris County,NJ,34.78730295832433
07832,Warren County,NJ,99.20103649319802
07866,Morris County,NJ,48.67199309004535
07871,Sussex County,NJ,71.12934571366876
07874,Sussex County,NJ,63.096523429065
07876,Morris County,NJ,95.3141870006478
07930,Morris County,NJ,95.1198445260203
08012,Camden County,NJ,13.323256316130424
08021,Camden County,NJ,0.1295616497516735
08028,Gloucester County,NJ,8.097603109479595
08033,Camden County,NJ,50.57223061973656
08037,Atlantic County,NJ,6.7156121787950775
08046,Burlington County,NJ,1.9650183545670483
08054,Burlington County,NJ,12.027639818613691
08056,Gloucester County,NJ,91.06024616713452
08060,Burlington County,NJ,6.413301662707839
08061,Gloucester County,NJ,93.9321960699633
08062,Gloucester County,NJ,21.701576333405313
08069,Salem County,NJ,6.1109911466206
08071,Gloucester County,NJ,80.1986611962859
08077,Burlington County,NJ,18.397754264737635
08080,Gloucester County,NJ,55.30123083567264
08081,Camden County,NJ,0.5398402072986396
08083,Camden County,NJ,75.44806737205786
08085,Gloucester County,NJ,39.840207298639605
08098,Salem County,NJ,26.970416756640038
08104,Camden County,NJ,0.259123299503347
08105,Camden County,NJ,0.3886849492550205
08109,Camden County,NJ,8.853379399697689
08110,Camden County,NJ,5.441589289570287
08215,Atlantic County,NJ,20.837832001727488
08244,Atlantic County,NJ,21.91751241632477
08302,Cumberland County,NJ,3.584538976462967
08330,Atlantic County,NJ,74.97300798963506
08360,Cumberland County,NJ,60.20297991794429
08512,Mercer County,NJ,90.86590369250702
08520,Mercer County,NJ,35.04642625782768
08540,Mercer County,NJ,22.284603757287844
08611,Mercer County,NJ,1.66270783847981
08648,Mercer County,NJ,26.60332541567696
08690,Mercer County,NJ,26.60332541567696
08701,Ocean County,NJ,87.67004966529908
08721,Ocean County,NJ,12.718635283955948
08722,Ocean County,NJ,34.22586914273375
08723,Ocean County,NJ,6.564456920751457
08731,Ocean County,NJ,22.306197365579788
08753,Ocean County,NJ,0.8421507233858778
08805,Somerset County,NJ,71.23731375512848
08817,Middlesex County,NJ,37.48650399481753
08820,Middlesex County,NJ,29.863960267760742
08830,Middlesex County,NJ,57.26624919023969
08831,Middlesex County,NJ,16.670265601381992
08854,Middlesex County,NJ,17.857914057438997
08859,Middlesex County,NJ,33.901965018354566
08861,Middlesex County,NJ,12.805009717123731
08872,Middlesex County,NJ,39.106024616713455
08876,Somerset County,NJ,8.680630533362125
08889,Hunterdon County,NJ,87.82120492334269
87004,Sandoval County,NM,58.79939537896782
87013,Sandoval County,NM,99.13625566832218
87026,Valencia County,NM,85.92096739365148
87031,Valencia County,NM,15.11552580436191
87045,McKinley County,NM,96.5450226732887
87102,Bernalillo County,NM,38.1343122435759
87105,Bernalillo County,NM,35.974951414381344
87107,Bernalillo County,NM,83.91276182250054
87108,Bernalillo County,NM,2.1161736126106674
87109,Bernalillo County,NM,7.600950118764846
87111,Bernalillo County,NM,22.414165407039516
87112,Bernalillo County,NM,5.765493413949471
87114,Bernalillo County,NM,18.203411790110128
87120,Bernalillo County,NM,3.1958540272079463
87121,Bernalillo County,NM,10.300151155258042
87123,Bernalillo County,NM,5.009717123731376
87124,Sandoval County,NM,41.740444828330816
87323,McKinley County,NM,95.89721442453035
87401,San Juan County,NM,63.98186136903477
87402,San Juan County,NM,75.10256963938674
87410,San Juan County,NM,49.3629885553876
87413,San Juan County,NM,34.981645432951844
87506,Santa Fe County,NM,72.68408551068883
87529,Taos County,NM,98.7691643273591
87532,Santa Fe County,NM,23.23472252213345
87701,San Miguel County,NM,65.29907147484344
88005,Doa Ana County,NM,26.668106240552795
88007,Doa Ana County,NM,40.12092420643489
88012,Doa Ana County,NM,51.26322608507882
88081,Otero County,NM,87.19499028287628
88101,Curry County,NM,3.32541567695962
88135,Curry County,NM,99.22263010148995
88201,Chaves County,NM,51.587130209457996
88203,Chaves County,NM,8.853379399697689
88220,Eddy County,NM,37.1841934787303
88240,Lea County,NM,29.23774562729432
88260,Lea County,NM,24.573526236234073
88310,Otero County,NM,12.006046210321744
10002,New York County,NY,9.544374865039948
10012,New York County,NY,90.06694018570504
10013,New York County,NY,73.52623623407472
10022,New York County,NY,71.99309004534658
10023,New York County,NY,79.03260634852084
10025,New York County,NY,13.49600518246599
10030,New York County,NY,57.91405743899806
10032,New York County,NY,3.8220686676743685
10033,New York County,NY,7.061109911466206
10034,New York County,NY,68.62448715180307
10038,New York County,NY,62.51349600518247
10039,New York County,NY,16.843014467717556
10044,New York County,NY,96.5450226732887
10301,Richmond County,NY,49.255020513927875
10303,Richmond County,NY,56.553660116605485
10305,Richmond County,NY,66.44353271431656
10314,Richmond County,NY,25.156553660116604
10452,Bronx County,NY,29.799179442884906
10453,Bronx County,NY,14.640466421939106
10454,Bronx County,NY,78.23364284171885
10455,Bronx County,NY,56.294536817102134
10456,Bronx County,NY,0.9285251565536602
10458,Bronx County,NY,4.664219391060246
10462,Bronx County,NY,1.9866119628589938
10463,Bronx County,NY,16.90779529259339
10465,Bronx County,NY,76.46296696177932
10467,Bronx County,NY,33.59965450226733
10468,Bronx County,NY,31.051608723817747
10469,Bronx County,NY,20.23321096955301
10472,Bronx County,NY,27.963722738069528
10473,Bronx County,NY,10.55927445476139
10509,Putnam County,NY,76.37659252861152
10549,Westchester County,NY,87.23817749946015
10553,Westchester County,NY,94.1265385445908
10562,Westchester County,NY,91.4705247246815
10580,Westchester County,NY,98.27251133664436
10591,Westchester County,NY,48.8879291729648
10601,Westchester County,NY,76.48456057007125
10705,Westchester County,NY,20.319585402720794
10708,Westchester County,NY,83.26495357374218
10805,Westchester County,NY,95.8324335996545
10950,Orange County,NY,51.80306629237745
10952,Rockland County,NY,93.54351112070827
10965,Rockland County,NY,93.15482617145325
10977,Rockland County,NY,66.94018570503131
11010,Nassau County,NY,79.29172964802419
11021,Nassau County,NY,98.14294968689268
11030,Nassau County,NY,96.99848844741956
11040,Nassau County,NY,72.59771107752105
11096,Nassau County,NY,95.01187648456056
11101,Queens County,NY,83.22176635715827
11103,Queens County,NY,82.18527315914488
11105,Queens County,NY,43.07924854243144
11201,Kings County,NY,9.803498164543296
11203,Kings County,NY,20.017274886633558
11204,Kings County,NY,81.55905851867847
11205,Kings County,NY,44.15892895702872
11206,Kings County,NY,0.885337939969769
11207,Kings County,NY,11.768516519110344
11208,Kings County,NY,26.344202116173616
11210,Kings County,NY,83.74001295616497
11211,Kings County,NY,59.965450226732884
11212,Kings County,NY,16.49751673504643
11214,Kings County,NY,6.694018570503131
11217,Kings County,NY,57.00712589073634
11218,Kings County,NY,50.55063701144461
11219,Kings County,NY,26.711293457136687
11220,Kings County,NY,53.12027639818614
11221,Kings County,NY,7.298639602677608
11223,Kings County,NY,68.53811271863528
11225,Kings County,NY,39.775426473763766
11226,Kings County,NY,79.11898078168862
11228,Kings County,NY,86.02893543511121
11229,Kings County,NY,74.0876700496653
11230,Kings County,NY,72.51133664435328
11234,Kings County,NY,35.21917512416325
11235,Kings County,NY,56.963938674152445
11236,Kings County,NY,55.689915784927656
11237,Kings County,NY,11.941265385445908
11354,Queens County,NY,30.878859857482183
11355,Queens County,NY,14.402936730727706
11356,Queens County,NY,86.33124595119844
11357,Queens County,NY,91.62167998272511
11366,Queens County,NY,98.68278989419132
11367,Queens County,NY,62.40552796372274
11368,Queens County,NY,88.59857482185272
11369,Queens County,NY,39.17080544158929
11370,Queens County,NY,31.93694666378752
11372,Queens County,NY,76.20384366227597
11373,Queens County,NY,89.16000863744333
11377,Queens County,NY,79.03260634852084
11385,Queens County,NY,52.04059598358886
11412,Queens County,NY,64.08982941049449
11416,Queens County,NY,31.65622975599223
11417,Queens County,NY,64.93198013388037
11420,Queens County,NY,92.80932843878212
11422,Queens County,NY,52.77477866551501
11423,Queens County,NY,66.33556467285683
11429,Queens County,NY,81.77499460159792
11432,Queens County,NY,13.560786007341827
11434,Queens County,NY,27.898941913193692
11435,Queens County,NY,22.7380695314187
11542,Nassau County,NY,74.5627294320881
11550,Nassau County,NY,78.12567480025912
11552,Nassau County,NY,71.36687540488016
11566,Nassau County,NY,94.04016411142302
11570,Nassau County,NY,73.69898510041027
11575,Nassau County,NY,19.99568127834161
11580,Nassau County,NY,73.0943640682358
11590,Nassau County,NY,62.25437270567912
11691,Queens County,NY,36.03973223925718
11704,Suffolk County,NY,71.1941265385446
11706,Suffolk County,NY,82.4659900669402
11710,Nassau County,NY,51.32800690995465
11726,Suffolk County,NY,84.798099762470315
11746,Suffolk County,NY,87.17339667458432
11757,Suffolk County,NY,26.344202116173616
11758,Nassau County,NY,58.30274238825308
11767,Suffolk County,NY,94.47203627726194
11768,Suffolk County,NY,95.09825091772835
11779,Suffolk County,NY,24.292809328438782
11784,Suffolk County,NY,52.73159144893111
11787,Suffolk County,NY,90.88749730079896
11798,Suffolk County,NY,87.2597711077521
11801,Nassau County,NY,72.59771107752105
11901,Suffolk County,NY,33.36212481105593
11944,Suffolk County,NY,88.18829626430576
11946,Suffolk County,NY,97.62470308788599
11951,Suffolk County,NY,80.00431872165838
11967,Suffolk County,NY,17.836320449147053
11968,Suffolk County,NY,99.11466206003024
12020,Saratoga County,NY,8.961347441157418
12037,Columbia County,NY,95.44374865039948
12043,Schoharie County,NY,38.41502915137119
12047,Albany County,NY,86.41762038436622
12078,Fulton County,NY,1.403584538976463
12090,Rensselaer County,NY,88.36104513064133
12118,Saratoga County,NY,73.95810839991363
12143,Albany County,NY,94.23450658605053
12144,Rensselaer County,NY,24.4439645864824
12180,Rensselaer County,NY,16.735046426257828
12188,Saratoga County,NY,96.15633772403369
12208,Albany County,NY,75.90153314618873
12209,Albany County,NY,78.32001727488664
12210,Albany County,NY,42.345065860505294
12307,Schenectady County,NY,78.27683005830274
12308,Schenectady County,NY,55.0421075361693
12428,Ulster County,NY,90.69315482617145
12446,Ulster County,NY,91.49211833297343
12526,Columbia County,NY,99.61131505074498
12533,Dutchess County,NY,71.75556035413517
12550,Orange County,NY,17.706758799395377
12601,Dutchess County,NY,45.411358237961565
12801,Warren County,NY,9.0477218743252
12803,Saratoga County,NY,79.7236018138631
12804,Warren County,NY,2.742388253077089
12831,Saratoga County,NY,62.47030878859857
12839,Washington County,NY,14.273375080976031
12846,Warren County,NY,96.3506801986612
12883,Essex County,NY,64.8456057007126
12885,Warren County,NY,92.57179874757072
12901,Clinton County,NY,19.974087670049663
12946,Essex County,NY,20.7946447851436
12953,Franklin County,NY,7.881667026560138
12962,Clinton County,NY,47.052472468149425
12972,Clinton County,NY,39.581083999136254
12983,Franklin County,NY,32.47678687108616
13021,Cayuga County,NY,8.054415892895703
13027,Onondaga County,NY,75.72878427985317
13029,Onondaga County,NY,83.76160656445693
13031,Onondaga County,NY,76.074282012524293
13032,Madison County,NY,18.030662923774564
13034,Cayuga County,NY,94.27769380263442
13035,Madison County,NY,95.55171669185921
13036,Oswego County,NY,42.19391060246167
13045,Cortland County,NY,35.9533578060894
13057,Onondaga County,NY,31.93694666378752
13063,Onondaga County,NY,97.68948391276182
13066,Onondaga County,NY,52.27812567480026
13068,Tompkins County,NY,64.58648240120924
13069,Oswego County,NY,1.705895055063701
13090,Onondaga County,NY,30.25264521701576
13092,Cayuga County,NY,91.06024616713452
13104,Onondaga County,NY,34.938458216367955
13116,Onondaga County,NY,85.7914057438998
13118,Cayuga County,NY,62.8158065212697
13148,Seneca County,NY,12.308356726408983
13152,Onondaga County,NY,58.04361908874973
13165,Seneca County,NY,43.27359101705895
13202,Onondaga County,NY,42.712157201468365
13203,Onondaga County,NY,8.745411358237961
13204,Onondaga County,NY,4.3619088749730075
13206,Onondaga County,NY,12.286763118117037
13207,Onondaga County,NY,16.843014467717556
13208,Onondaga County,NY,43.7270567911898
13214,Onondaga County,NY,71.23731375512848
13219,Onondaga County,NY,71.04297128050098
13323,Oneida County,NY,53.03390196501836
13329,Herkimer County,NY,66.4651263226085
13343,Lewis County,NY,93.78104081191967
13365,Herkimer County,NY,19.499028287626864
13367,Lewis County,NY,23.342690563593177
13413,Oneida County,NY,63.917080544158935
13421,Madison County,NY,11.962858993737854
13440,Oneida County,NY,0.7125890736342043
13461,Oneida County,NY,84.27985316346361
13480,Oneida County,NY,82.89786223277909
13601,Jefferson County,NY,1.3819909306845175
13619,Jefferson County,NY,30.706110991146616
13624,Jefferson County,NY,93.06845173828546
13625,St. Lawrence County,NY,99.2874109263658
13655,St. Lawrence County,NY,73.69898510041027
13669,St. Lawrence County,NY,10.494493629885554
13743,Tioga County,NY,96.65299071474843
13746,Broome County,NY,82.3796156337724
13760,Broome County,NY,0.28071690779529257
13775,Delaware County,NY,95.1198445260203
13778,Chenango County,NY,47.052472468149425
13790,Broome County,NY,37.875188944072555
13815,Chenango County,NY,5.7007125890736345
13820,Otsego County,NY,20.773051176851652
13825,Otsego County,NY,98.0565752537249
13827,Tioga County,NY,57.30943640682358
13838,Delaware County,NY,52.450874541135825
13901,Broome County,NY,9.458000431872165
13905,Broome County,NY,0.6046210321744764
14001,Erie County,NY,56.01381990930685
14020,Genesee County,NY,4.621032174476355
14031,Erie County,NY,90.28287626862449
14032,Erie County,NY,75.05938242280284
14043,Erie County,NY,49.73007989635068
14048,Chautauqua County,NY,21.809544374865037
14051,Erie County,NY,25.1997408767005
14057,Erie County,NY,87.19499028287628
14075,Erie County,NY,18.570503131073202
14085,Erie County,NY,72.79205355214856
14086,Erie County,NY,54.5238609371626
14092,Niagara County,NY,33.42690563593177
14094,Niagara County,NY,16.152019002375297
14120,Niagara County,NY,38.71733966745843
14127,Erie County,NY,85.1220038868495
14150,Erie County,NY,42.32347225221334
14167,Wyoming County,NY,98.22932412006045
14174,Niagara County,NY,68.646080760095
14204,Erie County,NY,25.804361908874974
14207,Erie County,NY,17.641977974519545
14208,Erie County,NY,64.15461023537034
14210,Erie County,NY,42.23709781904556
14211,Erie County,NY,36.29885553876053
14213,Erie County,NY,33.88037141006262
14215,Erie County,NY,4.707406607644137
14216,Erie County,NY,14.61887281364716
14218,Erie County,NY,33.44849924422371
14221,Erie County,NY,4.275534441805226
14223,Erie County,NY,14.942776938026345
14224,Erie County,NY,12.848196933707623
14225,Erie County,NY,36.51479162167998
14227,Erie County,NY,71.9067156121788
14228,Erie County,NY,30.015115525804365
14304,Niagara County,NY,11.271863528395595
14305,Niagara County,NY,12.740228892247895
14418,Yates County,NY,98.87713236881883
14422,Genesee County,NY,89.41913193694666
14424,Ontario County,NY,80.45778449578924
14425,Ontario County,NY,73.46145540919888
14432,Ontario County,NY,85.87778017706759
14445,Monroe County,NY,23.450658605052904
14450,Monroe County,NY,57.611746922910825
14456,Ontario County,NY,57.15828114877996
14469,Ontario County,NY,25.329302526452167
14470,Orleans County,NY,29.755992226301014
14471,Ontario County,NY,98.85553876052688
14472,Monroe County,NY,63.42042755344418
14485,Livingston County,NY,68.4949255020514
14487,Livingston County,NY,63.22608507881667
14502,Wayne County,NY,43.619088749730075
14504,Ontario County,NY,82.50917728352408
14512,Ontario County,NY,92.09673936514791
14517,Livingston County,NY,93.78104081191967
14522,Wayne County,NY,18.82962643057655
14526,Monroe County,NY,29.108183977542645
14527,Yates County,NY,85.22997192830923
14532,Ontario County,NY,81.9045562513496
14534,Monroe County,NY,14.81321528827467
14548,Ontario County,NY,48.348088965666165
14559,Monroe County,NY,22.694882314834807
14561,Ontario County,NY,89.03044698769165
14564,Ontario County,NY,8.788598574821853
14580,Monroe County,NY,31.59144893111639
14586,Monroe County,NY,18.138630965234288
14589,Wayne County,NY,19.84452602029799
14605,Monroe County,NY,60.82919455841071
14606,Monroe County,NY,41.48132152882747
14607,Monroe County,NY,8.50788166702656
14608,Monroe County,NY,5.0529043403152665
14609,Monroe County,NY,11.509393219606997
14610,Monroe County,NY,46.10235370330382
14611,Monroe County,NY,15.417836320449146
14612,Monroe County,NY,5.808680630533362
14616,Monroe County,NY,19.887713236881883
14617,Monroe County,NY,14.359749514143813
14618,Monroe County,NY,50.31310732023321
14620,Monroe County,NY,42.690563593176414
14621,Monroe County,NY,47.76506154178363
14622,Monroe County,NY,58.75620816238394
14623,Monroe County,NY,73.02958324335997
14624,Monroe County,NY,49.70848628805874
14626,Monroe County,NY,7.557762902180955
14701,Chautauqua County,NY,0.9933059814294969
14727,Allegany County,NY,58.885769812135614
14760,Cattaraugus County,NY,39.1276182250054
14801,Steuben County,NY,61.930468581299934
14806,Allegany County,NY,97.3439861800907
14812,Schuyler County,NY,75.46966098034981
14830,Steuben County,NY,78.60073418268193
14837,Yates County,NY,63.93867415245087
14843,Steuben County,NY,10.084215072338589
14845,Chemung County,NY,78.03930036709133
14850,Tompkins County,NY,1.6411142301878643
14870,Steuben County,NY,43.46793349168646
14873,Steuben County,NY,94.839127618225
14886,Tompkins County,NY,46.77175556035414
14892,Tioga County,NY,66.0332541567696
14895,Allegany County,NY,15.266681062405526
14901,Chemung County,NY,16.367955085294753
14905,Chemung County,NY,69.48823148348089
27006,Davie County,NC,44.914705247246815
27021,Stokes County,NC,23.75296912114014
27043,Stokes County,NC,74.15245087454113
27051,Forsyth County,NC,64.93198013388037
27103,Forsyth County,NC,6.067803930036709
27104,Forsyth County,NC,45.75685597063269
27203,Randolph County,NC,13.77672209026128
27214,Guilford County,NC,71.36687540488016
27215,Alamance County,NC,3.498164543295185
27217,Alamance County,NC,58.60505290434032
27249,Guilford County,NC,88.51220038868495
27253,Alamance County,NC,6.845173828546749
27260,Guilford County,NC,11.012740228892248
27263,Randolph County,NC,27.661412221982296
27284,Forsyth County,NC,2.1809544374865037
27292,Davidson County,NC,56.920751457568564
27295,Davidson County,NC,22.522133448499243
27301,Guilford County,NC,55.0421075361693
27302,Alamance County,NC,16.08723817749946
27306,Montgomery County,NC,58.06521269704168
27312,Chatham County,NC,46.53422586914273
27317,Randolph County,NC,68.55970632692723
27320,Rockingham County,NC,4.102785575469661
27330,Lee County,NC,10.688836104513063
27332,Lee County,NC,54.56704815374649
27360,Davidson County,NC,21.636795508529474
27405,Guilford County,NC,40.70395163031743
27406,Guilford County,NC,1.3172101058086807
27407,Guilford County,NC,8.529475275318505
27409,Guilford County,NC,91.42733750809761
27410,Guilford County,NC,17.685165191103433
27455,Guilford County,NC,32.62794212912978
27504,Johnston County,NC,45.843230403800476
27516,Orange County,NC,17.188512200388683
27517,Orange County,NC,37.05463182897862
27520,Johnston County,NC,77.62902180954437
27522,Granville County,NC,86.30965234290649
27526,Wake County,NC,62.14640466421939
27527,Johnston County,NC,93.82422802850357
27530,Wayne County,NC,6.003023105160872
27537,Vance County,NC,20.967393651479163
27539,Wake County,NC,42.21550421075362
27540,Wake County,NC,29.129777585834592
27545,Wake County,NC,27.942129129777587
27546,Harnett County,NC,44.180522565320665
27573,Person County,NC,28.58993737853595
27587,Wake County,NC,69.42345065860506
27603,Wake County,NC,38.177499460159794
27606,Wake County,NC,30.209458000431873
27609,Wake County,NC,20.902612826603324
27610,Wake County,NC,15.957676527747786
27612,Wake County,NC,72.74886633556467
27615,Wake County,NC,24.40077736989851
27616,Wake County,NC,9.889872597711078
27703,Durham County,NC,3.86525588425826
27707,Durham County,NC,25.307708918160227
27713,Durham County,NC,78.96782552364499
27803,Nash County,NC,30.641330166270787
27834,Pitt County,NC,15.74174044482833
27858,Pitt County,NC,60.85078816670265
27893,Wilson County,NC,6.132584754912545
27910,Hertford County,NC,24.163247678687107
28001,Stanly County,NC,66.83221766357158
28025,Cabarrus County,NC,3.8868494925502053
28027,Cabarrus County,NC,8.46469445044267
28034,Gaston County,NC,84.34463398833945
28078,Mecklenburg County,NC,17.620384366227597
28079,Union County,NC,63.07492982077305
28080,Lincoln County,NC,96.60980349816455
28081,Cabarrus County,NC,10.537680846469446
28086,Cleveland County,NC,41.13582379615634
28104,Union County,NC,50.83135391923991
28115,Iredell County,NC,85.89937378535953
28117,Iredell County,NC,76.20384366227597
28138,Rowan County,NC,45.17382854675016
28144,Rowan County,NC,19.542215504210752
28174,Union County,NC,73.26711293457137
28205,Mecklenburg County,NC,9.220470740660765
28206,Mecklenburg County,NC,24.83264953573742
28207,Mecklenburg County,NC,94.94709565968473
28210,Mecklenburg County,NC,35.65104729000216
28211,Mecklenburg County,NC,16.519110343338372
28212,Mecklenburg County,NC,12.567480025912332
28213,Mecklenburg County,NC,13.582379615633771
28214,Mecklenburg County,NC,45.51932627942129
28216,Mecklenburg County,NC,3.3038220686676745
28227,Mecklenburg County,NC,54.761390628373995
28262,Mecklenburg County,NC,20.837832001727488
28269,Mecklenburg County,NC,26.538544590801123
28270,Mecklenburg County,NC,85.64025048585619
28273,Mecklenburg County,NC,27.661412221982296
28277,Mecklenburg County,NC,91.14662060030231
28301,Cumberland County,NC,22.263010148995896
28312,Cumberland County,NC,76.85165191103434
28314,Cumberland County,NC,16.756640034549775
28328,Sampson County,NC,20.362772619304685
28334,Sampson County,NC,14.338155905851869
28339,Harnett County,NC,74.3251997408767
28348,Cumberland County,NC,52.55884258259555
28349,Duplin County,NC,94.36406823580221
28365,Wayne County,NC,46.080760095011875
28377,Robeson County,NC,88.18829626430576
28401,New Hanover County,NC,53.8112718635284
28403,New Hanover County,NC,87.58367523213128
28405,New Hanover County,NC,19.822932412006047
28409,New Hanover County,NC,56.33772403368603
28411,New Hanover County,NC,21.528827467069746
28412,New Hanover County,NC,6.30533362124811
28433,Bladen County,NC,90.39084431008422
28443,Pender County,NC,83.69682573958109
28451,Brunswick County,NC,15.547397970200821
28457,Pender County,NC,58.432304038004744
28466,Duplin County,NC,53.422586914273374
28479,Brunswick County,NC,88.83610451306413
28480,New Hanover County,NC,97.92701360397322
28501,Lenoir County,NC,27.25113366443533
28504,Lenoir County,NC,60.98034981645433
28540,Onslow County,NC,13.280069099546536
28551,Lenoir County,NC,44.374865039948176
28560,Craven County,NC,75.1241632476787
28562,Craven County,NC,24.184841286979054
28574,Onslow County,NC,52.1053768084647
28586,Craven County,NC,71.36687540488016
28601,Catawba County,NC,46.92291081839775
28607,Watauga County,NC,66.42193910602462
28612,Burke County,NC,47.59231267544807
28613,Catawba County,NC,24.659900669401857
28625,Iredell County,NC,50.76657309436406
28640,Ashe County,NC,92.29108183977543
28645,Caldwell County,NC,1.2308356726408982
28657,Avery County,NC,51.60872381774995
28677,Iredell County,NC,6.499676095875621
28681,Alexander County,NC,9.414813215288275
28690,Burke County,NC,36.92507017922695
28712,Transylvania County,NC,32.84387821204923
28721,Haywood County,NC,60.52688404232347
28730,Buncombe County,NC,81.10559274454762
28734,Macon County,NC,82.55236450010797
28752,McDowell County,NC,29.777585834592962
28753,Madison County,NC,67.91189807816886
28779,Jackson County,NC,83.41610883178579
28786,Haywood County,NC,70.24400777369898
28789,Jackson County,NC,79.09738717339667
28792,Henderson County,NC,48.19693370762254
58201,Grand Forks County,ND,47.59231267544807
58203,Grand Forks County,ND,36.57957244655582
58237,Walsh County,ND,88.01554739797021
58368,Pierce County,ND,99.48175340099331
58503,Burleigh County,ND,18.743251997408766
58504,Burleigh County,ND,36.62275966313971
58554,Morton County,ND,21.399265817318074
58701,Ward County,ND,21.57201468365364
58703,Ward County,ND,83.56726408982941
58801,Williams County,ND,70.54631828978623
43015,Delaware County,OH,6.046210321744764
43016,Franklin County,OH,86.13690347657094
43017,Franklin County,OH,74.84344633988339
43026,Franklin County,OH,9.350032390412439
43031,Licking County,OH,68.75404880155473
43050,Knox County,OH,46.72856834377024
43055,Licking County,OH,13.431224357590155
43062,Licking County,OH,20.362772619304685
43081,Franklin County,OH,10.753616929388901
43110,Franklin County,OH,11.660548477650616
43130,Fairfield County,OH,0.5614338155905851
43135,Hocking County,OH,94.77434679334917
43138,Hocking County,OH,16.216799827251133
43146,Pickaway County,OH,97.08486288058734
43202,Franklin County,OH,65.2342906499676
43206,Franklin County,OH,43.59749514143814
43207,Franklin County,OH,0.5830274238825307
43211,Franklin County,OH,3.7788814510904776
43213,Franklin County,OH,20.23321096955301
43214,Franklin County,OH,31.85057223061974
43219,Franklin County,OH,48.218527315914486
43223,Franklin County,OH,13.474411574174045
43224,Franklin County,OH,13.215288274670698
43227,Franklin County,OH,11.05592744547614
43228,Franklin County,OH,8.356726408982942
43229,Franklin County,OH,14.273375080976031
43230,Franklin County,OH,6.629237745627295
43232,Franklin County,OH,23.08356726408983
43235,Franklin County,OH,60.98034981645433
43334,Morrow County,OH,61.80090693154826
43344,Union County,OH,92.11833297343986
43351,Wyandot County,OH,57.654934139494706
43410,Sandusky County,OH,32.62794212912978
43512,Defiance County,OH,1.2740228892247896
43522,Wood County,OH,99.43856618440941
43528,Lucas County,OH,23.9689052040596
43551,Wood County,OH,26.689699848844743
43558,Fulton County,OH,38.73893327575038
43560,Lucas County,OH,12.697041675664003
43569,Wood County,OH,95.61649751673504
43571,Lucas County,OH,91.42733750809761
43605,Lucas County,OH,0.8637443316778234
43606,Lucas County,OH,7.190671561217879
43611,Lucas County,OH,5.7438998056575254
43612,Lucas County,OH,56.64003454977327
43613,Lucas County,OH,8.723817749946015
43614,Lucas County,OH,3.7572878427985317
43616,Lucas County,OH,5.160872381774995
43701,Muskingum County,OH,0.23752969121140144
43724,Noble County,OH,63.096523429065
43812,Coshocton County,OH,1.7274886633556468
43906,Belmont County,OH,63.01014899589722
43935,Belmont County,OH,30.92204707406608
43964,Jefferson County,OH,13.020945800043188
43968,Columbiana County,OH,32.735910170589506
44011,Lorain County,OH,47.311595767652776
44035,Lorain County,OH,0.9501187648456058
44041,Ashtabula County,OH,59.57676527747786
44050,Lorain County,OH,90.84431008421507
44056,Summit County,OH,49.55733103001512
44057,Lake County,OH,14.748434463398835
44060,Lake County,OH,45.15223493845822
44089,Erie County,OH,53.87605268840423
44090,Lorain County,OH,42.647376376592526
44095,Lake County,OH,9.177283524076874
44102,Cuyahoga County,OH,0.1511552580436191
44103,Cuyahoga County,OH,3.0662923774562727
44104,Cuyahoga County,OH,1.295616497516735
44108,Cuyahoga County,OH,19.304685812999352
44109,Cuyahoga County,OH,1.4683653638522998
44118,Cuyahoga County,OH,4.25394083351328
44121,Cuyahoga County,OH,3.2174476354998918
44124,Cuyahoga County,OH,40.941481321528826
44126,Cuyahoga County,OH,33.68602893543511
44133,Cuyahoga County,OH,13.798315698553228
44136,Cuyahoga County,OH,14.597279205355216
44144,Cuyahoga County,OH,24.46555819477435
44146,Cuyahoga County,OH,2.0513927877348306
44212,Medina County,OH,20.513927877348305
44221,Summit County,OH,5.938242280285035
44223,Summit County,OH,30.209458000431873
44224,Summit County,OH,37.46491038652559
44256,Medina County,OH,36.277261930468576
44270,Wayne County,OH,74.99460159792702
44278,Summit County,OH,42.517814726840854
44305,Summit County,OH,5.614338155905852
44306,Summit County,OH,38.99805657525373
44307,Summit County,OH,29.064996760958756
44310,Summit County,OH,3.7141006262146408
44312,Summit County,OH,60.33254156769596
44333,Summit County,OH,55.15007557762902
44410,Trumbull County,OH,80.80328222846038
44425,Trumbull County,OH,17.36126106672425
44438,Trumbull County,OH,81.71021377672209
44444,Trumbull County,OH,35.13280069099547
44470,Trumbull County,OH,96.86892679766788
44484,Trumbull County,OH,15.029151371194127
44485,Trumbull County,OH,31.461887281364714
44509,Mahoning County,OH,27.121572014683654
44511,Mahoning County,OH,39.47311595767653
44601,Stark County,OH,2.267328870654286
44615,Carroll County,OH,85.0788166702656
44641,Stark County,OH,49.8812351543943
44646,Stark County,OH,3.2390412437918377
44654,Holmes County,OH,68.10624055279636
44662,Stark County,OH,60.13819909306846
44663,Tuscarawas County,OH,44.76354998920319
44683,Tuscarawas County,OH,13.236881882962642
44691,Wayne County,OH,47.354782984236664
44705,Stark County,OH,41.11423018786439
44706,Stark County,OH,18.54890952278126
44708,Stark County,OH,43.81343122435759
44710,Stark County,OH,45.36817102137768
44720,Stark County,OH,15.288274670697474
44721,Stark County,OH,70.99978406391708
44805,Ashland County,OH,5.18246599006694
44820,Crawford County,OH,10.624055279637227
44830,Seneca County,OH,32.044914705247244
44857,Huron County,OH,10.775210537680845
44870,Erie County,OH,0.6909954653422588
44875,Richland County,OH,24.357590153314618
44903,Richland County,OH,32.82228460375729
44904,Richland County,OH,66.37875188944072
44905,Richland County,OH,50.680198661196286
45011,Butler County,OH,6.326927229540057
45013,Butler County,OH,1.1012740228892248
45014,Butler County,OH,28.525156553660118
45040,Warren County,OH,17.641977974519545
45044,Butler County,OH,12.61066724249622
45066,Warren County,OH,75.14575685597063
45069,Butler County,OH,11.05592744547614
45102,Clermont County,OH,21.204923342690563
45103,Clermont County,OH,13.927877348304902
45106,Clermont County,OH,64.88879291729648
45121,Brown County,OH,55.60354135175988
45157,Clermont County,OH,67.09134096307493
45176,Clermont County,OH,49.55733103001512
45177,Clinton County,OH,11.87648456057007
45202,Hamilton County,OH,9.134096307492982
45203,Hamilton County,OH,85.1220038868495
45206,Hamilton County,OH,68.71086158497086
45208,Hamilton County,OH,90.1965018354567
45212,Hamilton County,OH,15.871302094580003
45223,Hamilton County,OH,26.58173180738501
45225,Hamilton County,OH,51.84625350896135
45230,Hamilton County,OH,35.435111207082706
45231,Hamilton County,OH,2.656013819909307
45238,Hamilton County,OH,5.549557331030015
45239,Hamilton County,OH,6.99632908659037
45240,Hamilton County,OH,12.999352191751242
45244,Hamilton County,OH,34.39861800906932
45246,Hamilton County,OH,60.69963290865904
45247,Hamilton County,OH,42.647376376592526
45309,Montgomery County,OH,74.54113582379615
45322,Montgomery County,OH,81.75340099330597
45331,Darke County,OH,42.49622111854891
45341,Clark County,OH,88.87929172964803
45342,Montgomery County,OH,4.081191967177715
45356,Miami County,OH,47.00928525156554
45365,Shelby County,OH,24.724681494277696
45373,Miami County,OH,2.1593608291945583
45385,Greene County,OH,23.796156337724035
45403,Montgomery County,OH,21.65838911682142
45405,Montgomery County,OH,40.012956164975165
45415,Montgomery County,OH,92.78773483049018
45417,Montgomery County,OH,2.8719499028287627
45424,Montgomery County,OH,3.8868494925502053
45431,Montgomery County,OH,61.58497084862881
45449,Montgomery County,OH,20.470740660764413
45459,Montgomery County,OH,45.26020297991795
45503,Clark County,OH,2.440077736989851
45614,Gallia County,OH,64.8024184841287
45619,Lawrence County,OH,43.878212049233426
45623,Gallia County,OH,92.463830706111
45631,Gallia County,OH,40.16411142301879
45638,Lawrence County,OH,38.890088533794
45640,Jackson County,OH,15.353055495573308
45645,Lawrence County,OH,88.2530770891816
45669,Lawrence County,OH,65.45022673288706
45680,Lawrence County,OH,58.19477434679335
45750,Washington County,OH,4.577844957892464
45764,Athens County,OH,53.59533578060894
45769,Meigs County,OH,46.49103865255884
45771,Meigs County,OH,68.10624055279636
45801,Allen County,OH,23.601813863096524
45804,Allen County,OH,23.90412437918376
45805,Allen County,OH,26.473763765925284
45807,Allen County,OH,44.80673720578709
45813,Paulding County,OH,77.13236881882962
45833,Allen County,OH,45.713668754048804
45879,Paulding County,OH,32.84387821204923
45885,Auglaize County,OH,25.394083351328007
45895,Auglaize County,OH,47.376376592528615
73003,Oklahoma County,OK,48.49924422370978
73012,Oklahoma County,OK,31.353919239904986
73013,Oklahoma County,OK,17.490822716475922
73020,Oklahoma County,OK,24.74627510256964
73025,Oklahoma County,OK,54.329518462535084
73055,Stephens County,OK,83.04901749082272
73072,Cleveland County,OK,14.640466421939106
73080,McClain County,OK,67.39365147916216
73084,Oklahoma County,OK,66.63787518894408
73086,Murray County,OK,55.020513927877346
73089,Grady County,OK,69.61779313323257
73099,Canadian County,OK,5.312027639818614
73105,Oklahoma County,OK,96.26430576549342
73106,Oklahoma County,OK,55.71150939321961
73117,Oklahoma County,OK,85.92096739365148
73118,Oklahoma County,OK,83.6104513064133
73119,Oklahoma County,OK,11.120708270351976
73120,Oklahoma County,OK,25.977110775210537
73129,Oklahoma County,OK,33.44849924422371
73135,Oklahoma County,OK,26.56013819909307
73139,Oklahoma County,OK,37.72403368602893
73159,Oklahoma County,OK,61.49859641546102
73160,Cleveland County,OK,4.729000215936082
73401,Carter County,OK,5.3768084646944505
73507,Comanche County,OK,28.741092636579573
73521,Jackson County,OK,51.457568559706324
73601,Custer County,OK,48.49924422370978
73651,Kiowa County,OK,92.852515655366
74006,Washington County,OK,38.19909306845174
74014,Wagoner County,OK,21.140142517814727
74016,Rogers County,OK,91.16821420859425
74020,Pawnee County,OK,76.7868710861585
74033,Tulsa County,OK,71.92830922047074
74074,Payne County,OK,28.870654286331245
74105,Tulsa County,OK,22.630101489958975
74115,Tulsa County,OK,73.52623623407472
74126,Tulsa County,OK,64.39213992658173
74129,Tulsa County,OK,89.22478946231915
74133,Tulsa County,OK,17.382854675016198
74135,Tulsa County,OK,66.29237745627294
74137,Tulsa County,OK,63.72273806953142
74145,Tulsa County,OK,51.26322608507882
74146,Tulsa County,OK,49.44936298855539
74301,Craig County,OK,43.748650399481754
74344,Delaware County,OK,60.44050960915569
74354,Ottawa County,OK,35.672640898294105
74361,Mayes County,OK,48.024184841286974
74370,Ottawa County,OK,98.92031958540272
74403,Muskogee County,OK,18.808032822284602
74464,Cherokee County,OK,19.088749730079897
74601,Kay County,OK,59.965450226732884
74631,Kay County,OK,72.53293025264523
74647,Kay County,OK,97.12805009717124
74743,Choctaw County,OK,77.86655150075578
74764,McCurtain County,OK,99.84884474195638
74948,Sequoyah County,OK,94.42884906067805
74960,Adair County,OK,13.4528179658821
97008,Washington County,OR,40.57438998056575
97013,Clackamas County,OR,73.39667458432304
97031,Hood River County,OR,80.65212697041676
97060,Multnomah County,OR,58.58345929604837
97071,Marion County,OR,71.23731375512848
97089,Clackamas County,OR,70.50313107320233
97114,Yamhill County,OR,98.63960267760743
97116,Washington County,OR,32.19606996329087
97124,Washington County,OR,62.06003023105161
97132,Yamhill County,OR,23.256316130425393
97203,Multnomah County,OR,24.271215720146834
97206,Multnomah County,OR,26.819261498596415
97211,Multnomah County,OR,27.596631397106457
97213,Multnomah County,OR,53.74649103865256
97215,Multnomah County,OR,95.01187648456056
97216,Multnomah County,OR,34.42021161736126
97217,Multnomah County,OR,57.1798747570719
97220,Multnomah County,OR,20.557115093932197
97225,Washington County,OR,82.57395810839992
97230,Multnomah County,OR,11.207082703519758
97233,Multnomah County,OR,30.18786439213993
97236,Multnomah County,OR,8.93975383286547
97301,Marion County,OR,44.2453033901965
97305,Marion County,OR,41.977974519542215
97306,Marion County,OR,71.1941265385446
97317,Marion County,OR,82.57395810839992
97321,Linn County,OR,14.359749514143813
97322,Linn County,OR,5.419995681278341
97330,Benton County,OR,91.21140142517815
97355,Linn County,OR,4.318721658389117
97365,Lincoln County,OR,83.43770244007773
97386,Linn County,OR,31.764197797451953
97402,Lane County,OR,67.86871086158497
97408,Lane County,OR,87.10861584970849
97420,Coos County,OR,32.800690995465345
97423,Coos County,OR,93.60829194558411
97470,Douglas County,OR,16.6270783847981
97471,Douglas County,OR,7.514575685597063
97477,Lane County,OR,11.919671777153962
97478,Lane County,OR,22.370978190455627
97479,Douglas County,OR,56.76959619952494
97501,Jackson County,OR,50.1619520621896
97504,Jackson County,OR,36.212481105592744
97527,Josephine County,OR,28.417188512200386
97601,Klamath County,OR,7.536169293889008
97701,Deschutes County,OR,86.05052904340316
97720,Harney County,OR,89.48391276182251
97754,Crook County,OR,62.55668322176636
97756,Deschutes County,OR,80.37141006262146
97801,Umatilla County,OR,51.975815158713026
97844,Morrow County,OR,86.80630533362125
97850,Union County,OR,56.16497516735046
97862,Umatilla County,OR,44.63398833945153
97882,Umatilla County,OR,69.66098034981646
97914,Malheur County,OR,39.66745843230404
15010,Beaver County,PA,10.019434247462751
15017,Allegheny County,PA,80.86806305333621
15044,Allegheny County,PA,45.43295184625351
15068,Westmoreland County,PA,8.572662491902397
15090,Allegheny County,PA,85.3595335780609
15101,Allegheny County,PA,53.20665083135392
15120,Allegheny County,PA,28.11487799611315
15132,Allegheny County,PA,4.383502483264953
15204,Allegheny County,PA,49.96760958756209
15212,Allegheny County,PA,12.157201468365365
15214,Allegheny County,PA,36.73072770459944
15217,Allegheny County,PA,42.43144029367307
15219,Allegheny County,PA,17.79313323256316
15228,Allegheny County,PA,69.25070179226948
15239,Allegheny County,PA,90.0021593608292
15301,Washington County,PA,30.339019650183545
15317,Washington County,PA,15.612178795076655
15367,Washington County,PA,89.13841502915137
15401,Fayette County,PA,2.6776074282012523
15425,Fayette County,PA,16.843014467717556
15478,Fayette County,PA,80.9112502699201
15601,Westmoreland County,PA,1.252429280932844
15642,Westmoreland County,PA,10.429712805009716
15701,Indiana County,PA,10.019434247462751
15801,Clearfield County,PA,34.33383718419348
15825,Jefferson County,PA,28.460375728784282
15853,Elk County,PA,44.63398833945153
16145,Mercer County,PA,99.61131505074498
16146,Mercer County,PA,11.487799611315051
16148,Mercer County,PA,30.641330166270787
16201,Armstrong County,PA,17.59879075793565
16365,Warren County,PA,69.85532282444396
16403,Crawford County,PA,93.69466637875189
16417,Erie County,PA,68.646080760095
16424,Crawford County,PA,91.21140142517815
16433,Crawford County,PA,66.24919023968904
16503,Erie County,PA,70.35197581515872
16505,Erie County,PA,54.67501619520622
16508,Erie County,PA,67.09134096307493
16509,Erie County,PA,49.96760958756209
16601,Blair County,PA,19.650183545670483
16652,Huntingdon County,PA,23.75296912114014
16686,Blair County,PA,41.56769596199525
16701,McKean County,PA,7.4929820773051174
16866,Centre County,PA,46.383070611099114
16901,Tioga County,PA,89.37594472036278
17011,Cumberland County,PA,42.58259555171669
17015,Cumberland County,PA,26.819261498596415
17018,Dauphin County,PA,94.14813215288275
17025,Cumberland County,PA,68.36536385229972
17036,Dauphin County,PA,58.47549125458864
17038,Lebanon County,PA,59.447203627726196
17044,Mifflin County,PA,4.923342690563593
17046,Lebanon County,PA,3.3686028935435113
17048,Dauphin County,PA,99.00669401857051
17050,Cumberland County,PA,38.82530770891816
17051,Mifflin County,PA,81.4294968689268
17055,Cumberland County,PA,45.26020297991795
17057,Dauphin County,PA,7.860073418268193
17073,Lebanon County,PA,95.07665730943641
17110,Dauphin County,PA,29.561649751673503
17111,Dauphin County,PA,30.079896350680198
17112,Dauphin County,PA,7.406607644137335
17201,Franklin County,PA,22.04707406607644
17268,Franklin County,PA,51.43597495141437
17313,York County,PA,78.4927661412222
17325,Adams County,PA,12.049233426905635
17331,York County,PA,2.288922478946232
17345,York County,PA,54.156769596199524
17366,York County,PA,76.13906283740013
17401,York County,PA,61.26106672424962
17403,York County,PA,1.0580868063053337
17404,York County,PA,4.3403152666810625
17406,York County,PA,52.450874541135825
17501,Lancaster County,PA,96.89052040595983
17522,Lancaster County,PA,12.934571366875405
17538,Lancaster County,PA,77.54264737637659
17540,Lancaster County,PA,65.38544590801123
17543,Lancaster County,PA,11.768516519110344
17545,Lancaster County,PA,27.207946447851434
17552,Lancaster County,PA,94.01857050313107
17579,Lancaster County,PA,86.05052904340316
17701,Lycoming County,PA,1.4251781472684086
17737,Lycoming County,PA,85.2731591448931
17821,Montour County,PA,12.783416108831785
17844,Union County,PA,94.29928741092637
17851,Northumberland County,PA,50.83135391923991
17856,Union County,PA,99.33059814294968
18011,Lehigh County,PA,82.4659900669402
18013,Northampton County,PA,21.76635715828115
18014,Northampton County,PA,59.14489311163895
18017,Northampton County,PA,14.143813431224359
18018,Lehigh County,PA,11.401425178147269
18042,Northampton County,PA,1.7490822716475924
18049,Lehigh County,PA,59.727920535521484
18058,Monroe County,PA,61.282660332541575
18062,Lehigh County,PA,28.58993737853595
18071,Carbon County,PA,33.772403368602895
18073,Montgomery County,PA,65.08313539192399
18074,Montgomery County,PA,97.90541999568127
18102,Lehigh County,PA,9.306845173828547
18103,Lehigh County,PA,12.675448067372058
18109,Lehigh County,PA,13.366443532714317
18232,Carbon County,PA,91.83761606564457
18301,Monroe County,PA,19.887713236881883
18330,Monroe County,PA,92.96048369682573
18360,Monroe County,PA,14.791621679982725
18407,Lackawanna County,PA,62.64305765493414
18436,Wayne County,PA,38.93327575037789
18510,Lackawanna County,PA,49.38458216367955
18603,Columbia County,PA,5.592744547613907
18610,Monroe County,PA,88.490606780393
18621,Luzerne County,PA,87.7780177067588
18640,Luzerne County,PA,26.60332541567696
18655,Luzerne County,PA,89.69984884474196
18657,Wyoming County,PA,47.59231267544807
18702,Luzerne County,PA,2.4616713452817964
18706,Luzerne County,PA,23.105160872381774
18810,Bradford County,PA,73.50464262578276
18837,Bradford County,PA,98.70438350248327
18840,Bradford County,PA,47.48434463398834
18853,Bradford County,PA,95.68127834161089
18901,Bucks County,PA,29.259339235586268
19002,Montgomery County,PA,22.090261282660332
19003,Montgomery County,PA,95.42215504210753
19007,Bucks County,PA,12.869790541999567
19013,Delaware County,PA,1.1660548477650614
19018,Delaware County,PA,14.208594256100193
19020,Bucks County,PA,2.763981861369035
19021,Bucks County,PA,44.80673720578709
19023,Delaware County,PA,45.886417620384364
19027,Montgomery County,PA,27.294320881019217
19036,Delaware County,PA,36.471604405096095
19038,Montgomery County,PA,70.80544158928957
19053,Bucks County,PA,17.253293025264522
19054,Bucks County,PA,45.06586050529043
19055,Bucks County,PA,36.06132584754913
19057,Bucks County,PA,87.64845605700712
19061,Delaware County,PA,15.288274670697474
19063,Delaware County,PA,37.48650399481753
19064,Delaware County,PA,23.27790973871734
19066,Montgomery County,PA,95.61649751673504
19067,Bucks County,PA,8.270351975815158
19074,Delaware County,PA,78.16886201684301
19081,Delaware County,PA,94.06175771971496
19082,Delaware County,PA,3.9300367091340966
19083,Delaware County,PA,62.92377456272943
19095,Montgomery County,PA,68.38695746059167
19096,Montgomery County,PA,34.09630749298208
19104,Philadelphia County,PA,4.0164111423018785
19111,Philadelphia County,PA,8.89656661628158
19116,Philadelphia County,PA,14.964370546318289
19120,Philadelphia County,PA,1.0796804145972791
19124,Philadelphia County,PA,9.609155689915786
19126,Philadelphia County,PA,18.87281364716044
19128,Philadelphia County,PA,8.421507233858778
19129,Philadelphia County,PA,47.117253293025264
19131,Philadelphia County,PA,1.8570503131073204
19132,Philadelphia County,PA,1.813863096523429
19133,Philadelphia County,PA,29.28093284387821
19134,Philadelphia County,PA,42.56100194342475
19135,Philadelphia County,PA,28.95702871949903
19136,Philadelphia County,PA,65.77413085726624
19137,Philadelphia County,PA,77.75858345929605
19140,Philadelphia County,PA,0.7989635068019866
19142,Philadelphia County,PA,4.836968257395811
19143,Philadelphia County,PA,0.32390412437918376
19145,Philadelphia County,PA,46.77175556035414
19148,Philadelphia County,PA,35.39192399049881
19151,Philadelphia County,PA,5.398402072986396
19335,Chester County,PA,51.60872381774995
19342,Delaware County,PA,63.269272295400555
19350,Chester County,PA,85.70503131073202
19380,Chester County,PA,4.513064133016627
19401,Montgomery County,PA,36.62275966313971
19422,Montgomery County,PA,34.57136687540488
19425,Chester County,PA,73.39667458432304
19426,Montgomery County,PA,69.61779313323257
19438,Montgomery County,PA,30.27423882530771
19444,Montgomery County,PA,92.48542431440295
19446,Montgomery County,PA,6.0893975383286545
19454,Montgomery County,PA,59.66313971064565
19460,Chester County,PA,71.49643705463184
19462,Montgomery County,PA,62.34074713884689
19464,Montgomery County,PA,1.6843014467717556
19465,Chester County,PA,67.09134096307493
19468,Montgomery County,PA,24.357590153314618
19475,Chester County,PA,61.930468581299934
19526,Berks County,PA,54.95573310300151
19602,Berks County,PA,4.145972792053552
19606,Berks County,PA,3.9948175340099334
02814,Providence County,RI,89.93737853595336
02818,Kent County,RI,79.27013603973224
02859,Providence County,RI,88.18829626430576
02863,Providence County,RI,46.339883394515226
02882,Washington County,RI,79.5292593392356
02885,Bristol County,RI,67.9766789030447
02889,Kent County,RI,12.653854459080113
02906,Providence County,RI,38.19909306845174
02907,Providence County,RI,73.67739149211833
02909,Providence County,RI,33.966745843230406
02911,Providence County,RI,51.60872381774995
02917,Providence County,RI,65.34225869142733
29010,Lee County,SC,91.77283524076873
29020,Kershaw County,SC,49.73007989635068
29040,Sumter County,SC,91.53530554955734
29047,Orangeburg County,SC,97.68948391276182
29063,Richland County,SC,40.3584538976463
29072,Lexington County,SC,13.841502915137118
29073,Lexington County,SC,57.1798747570719
29078,Kershaw County,SC,87.75642409846685
29102,Clarendon County,SC,38.82530770891816
29127,Newberry County,SC,71.1509393219607
29148,Clarendon County,SC,86.05052904340316
29150,Sumter County,SC,20.88101921831138
29170,Lexington County,SC,51.8678471172533
29178,Newberry County,SC,99.54653422586914
29212,Lexington County,SC,76.57093500323904
29223,Richland County,SC,71.45324983804794
29229,Richland County,SC,54.67501619520622
29302,Spartanburg County,SC,86.15849708486289
29307,Spartanburg County,SC,44.439645864824016
29316,Spartanburg County,SC,55.128481969337074
29341,Cherokee County,SC,62.44871518030662
29349,Spartanburg County,SC,12.95616497516735
29360,Laurens County,SC,24.616713452817965
29403,Charleston County,SC,27.359101705895057
29407,Charleston County,SC,23.2131289138415
29410,Berkeley County,SC,92.20470740660764
29414,Charleston County,SC,84.0423234722522
29418,Charleston County,SC,55.32282444396459
29440,Georgetown County,SC,61.80090693154826
29456,Dorchester County,SC,20.535521485640253
29464,Charleston County,SC,60.03023105160873
29472,Dorchester County,SC,69.53141870006479
29483,Dorchester County,SC,31.375512848196934
29485,Dorchester County,SC,14.143813431224359
29488,Colleton County,SC,19.930900453465775
29501,Florence County,SC,48.43446339883394
29505,Florence County,SC,31.65622975599223
29512,Marlboro County,SC,69.89851004102785
29572,Horry County,SC,93.4139494709566
29576,Horry County,SC,27.035197581515874
29579,Horry County,SC,37.01144461239473
29585,Georgetown County,SC,81.71021377672209
29605,Greenville County,SC,40.40164111423019
29609,Greenville County,SC,74.10926365795724
29615,Greenville County,SC,73.31030015115526
29624,Anderson County,SC,21.89591880803282
29625,Anderson County,SC,18.160224573526236
29642,Pickens County,SC,68.06305333621248
29644,Greenville County,SC,34.29064996760959
29646,Greenwood County,SC,27.488663355646732
29649,Greenwood County,SC,48.97430360613259
29651,Greenville County,SC,9.889872597711078
29670,Anderson County,SC,90.21809544374865
29673,Greenville County,SC,22.78125674800259
29681,Greenville County,SC,13.755128481969336
29687,Greenville County,SC,17.274886633556466
29689,Anderson County,SC,96.04836968257395
29693,Oconee County,SC,92.74454761390628
29706,Chester County,SC,19.283092204707405
29708,York County,SC,62.8158065212697
29710,York County,SC,83.80479378104081
29715,York County,SC,79.39969768948392
29720,Lancaster County,SC,6.197365579788382
29730,York County,SC,8.659036925070179
29803,Aiken County,SC,26.754480673720575
29906,Beaufort County,SC,53.98402072986396
29920,Beaufort County,SC,74.21723169941697
29927,Jasper County,SC,90.88749730079896
57005,Minnehaha County,SD,70.3951630317426
57042,Lake County,SD,90.26128266033254
57078,Yankton County,SD,80.82487583675231
57103,Minnehaha County,SD,11.466206003023105
57104,Minnehaha County,SD,15.720146836536387
57105,Minnehaha County,SD,29.712805009717126
57108,Lincoln County,SD,47.89462319153531
57301,Davison County,SD,63.46361477002807
57350,Beadle County,SD,38.73893327575038
57401,Brown County,SD,7.687324551932628
57501,Hughes County,SD,56.59684733318937
57555,Todd County,SD,98.31569855322824
57701,Pennington County,SD,8.70222414165407
57719,Pennington County,SD,80.32822284603758
37013,Davidson County,TN,3.627726193046858
37030,Smith County,TN,60.8723817749946
37031,Sumner County,TN,98.16454329518463
37040,Montgomery County,TN,12.394731159576764
37043,Montgomery County,TN,53.22824443964586
37055,Dickson County,TN,59.058518678471174
37062,Williamson County,TN,70.82703519758151
37066,Sumner County,TN,21.377672209026127
37067,Williamson County,TN,73.82854675016195
37069,Williamson County,TN,80.09069315482617
37072,Davidson County,TN,17.12373137551285
37076,Davidson County,TN,20.211617361261066
37110,Warren County,TN,30.490174908227164
37129,Rutherford County,TN,7.23385877780177
37135,Williamson County,TN,85.3595335780609
37153,Rutherford County,TN,98.35888576981213
37172,Robertson County,TN,6.478082487583675
37174,Williamson County,TN,63.50680198661196
37211,Davidson County,TN,34.89527099978406
37221,Davidson County,TN,50.33470092852516
37311,Bradley County,TN,51.37119412653854
37312,Bradley County,TN,26.344202116173616
37317,Polk County,TN,97.94860721226517
37322,Meigs County,TN,45.92960483696826
37323,Bradley County,TN,25.048585618656876
37324,Franklin County,TN,57.80608939753833
37330,Franklin County,TN,54.890952278125674
37332,Rhea County,TN,99.89203195854027
37334,Lincoln County,TN,21.42085942561002
37347,Marion County,TN,64.5217015763334
37367,Bledsoe County,TN,47.48434463398834
37379,Hamilton County,TN,24.875836752321312
37380,Marion County,TN,66.63787518894408
37388,Coffee County,TN,18.52731591448931
37405,Hamilton County,TN,60.76441373353487
37412,Hamilton County,TN,34.42021161736126
37421,Hamilton County,TN,14.640466421939106
37616,Greene County,TN,79.07579356510472
37617,Sullivan County,TN,58.47549125458864
37620,Sullivan County,TN,25.437270567911895
37643,Carter County,TN,4.793781040811919
37664,Sullivan County,TN,9.868278989419132
37701,Blount County,TN,54.24314402936731
37716,Anderson County,TN,22.15504210753617
37742,Loudon County,TN,59.81429496868926
37803,Blount County,TN,18.117037356942344
37820,Jefferson County,TN,72.98639602677608
37830,Anderson County,TN,12.178795076657309
37849,Knox County,TN,24.033686028935435
37857,Hawkins County,TN,19.347873029583244
37874,Monroe County,TN,56.748002591232996
37909,Knox County,TN,73.48304901749081
37917,Knox County,TN,7.255452386093716
37918,Knox County,TN,5.765493413949471
37920,Knox County,TN,4.210753616929389
38019,Tipton County,TN,39.42992874109264
38052,Hardeman County,TN,96.22111854890953
38068,Fayette County,TN,72.1874325199741
38106,Shelby County,TN,7.082703519758152
38107,Shelby County,TN,25.804361908874974
38109,Shelby County,TN,41.84841286979054
38112,Shelby County,TN,87.15180306629237
38114,Shelby County,TN,10.969553012308356
38115,Shelby County,TN,39.32196069963291
38116,Shelby County,TN,8.032822284603757
38117,Shelby County,TN,82.3796156337724
38118,Shelby County,TN,52.83955949039084
38122,Shelby County,TN,37.335348736773916
38127,Shelby County,TN,3.152666810624055
38134,Shelby County,TN,71.64759231267544
38141,Shelby County,TN,30.74929820773051
38201,Carroll County,TN,65.01835456704815
38237,Weakley County,TN,62.211185489095236
38261,Obion County,TN,55.49557331030015
38344,Carroll County,TN,57.13668754048802
38358,Gibson County,TN,39.645864824012094
38478,Giles County,TN,39.49470956596847
38544,Putnam County,TN,49.319801338803714
38555,Cumberland County,TN,23.342690563593177
38583,White County,TN,13.193694666378752
75002,Collin County,TX,38.15590585186785
75006,Dallas County,TX,29.475275318505723
75007,Denton County,TX,62.96696177931332
75009,Collin County,TX,75.5992226301015
75019,Dallas County,TX,37.42172316994169
75020,Grayson County,TX,31.00842150723386
75021,Grayson County,TX,78.4927661412222
75023,Collin County,TX,35.78060893975383
75024,Collin County,TX,43.89980565752537
75025,Collin County,TX,39.06283740012956
75028,Denton County,TX,70.56791189807818
75032,Rockwall County,TX,74.3251997408767
75033,,TX,79.68041459727921
75034,Denton County,TX,72.40336860289355
75035,Collin County,TX,22.716475923126755
75040,Dallas County,TX,32.2608507881667
75041,Dallas County,TX,60.18138630965234
75043,Dallas County,TX,9.004534657741308
75050,Dallas County,TX,94.68797236018138
75051,Dallas County,TX,25.998704383502485
75052,Dallas County,TX,7.579356510472899
75060,Dallas County,TX,57.87087022241416
75061,Dallas County,TX,66.57309436406823
75067,Denton County,TX,88.01554739797021
75068,Denton County,TX,17.40444828330814
75069,Collin County,TX,64.06823580220255
75071,Collin County,TX,14.856402504858563
75074,Collin County,TX,36.406823580220255
75077,Denton County,TX,27.078384798099762
75080,Dallas County,TX,40.87670049665299
75088,Dallas County,TX,80.1122867631181
75089,Dallas County,TX,44.979486072122654
75090,Grayson County,TX,63.18289786223278
75093,Collin County,TX,31.397106456488878
75098,Collin County,TX,57.11509393219607
75110,Navarro County,TX,26.49535737421723
75114,Kaufman County,TX,95.68127834161089
75115,Dallas County,TX,10.839991362556683
75116,Dallas County,TX,66.24919023968904
75119,Ellis County,TX,37.22738069531419
75125,Ellis County,TX,91.98877132368818
75126,Kaufman County,TX,17.318073850140358
75149,Dallas County,TX,33.340531202763984
75150,Dallas County,TX,58.21636795508529
75156,Henderson County,TX,31.93694666378752
75180,Dallas County,TX,78.70870222414166
75203,Dallas County,TX,60.721226516950985
75208,Dallas County,TX,44.914705247246815
75209,Dallas County,TX,51.8678471172533
75210,Dallas County,TX,52.77477866551501
75211,Dallas County,TX,74.69229108183978
75214,Dallas County,TX,91.85920967393652
75215,Dallas County,TX,14.489311163895488
75216,Dallas County,TX,2.072986396026776
75217,Dallas County,TX,19.520621895918808
75218,Dallas County,TX,60.44050960915569
75220,Dallas County,TX,63.830706110991144
75224,Dallas County,TX,29.97192830922047
75227,Dallas County,TX,8.615849708486287
75228,Dallas County,TX,30.85726624919024
75229,Dallas County,TX,27.467069747354785
75231,Dallas County,TX,77.19714964370546
75234,Dallas County,TX,89.28957028719499
75236,Dallas County,TX,45.92960483696826
75243,Dallas County,TX,27.488663355646732
75248,Dallas County,TX,41.243791837616065
75252,Collin County,TX,50.22673288706543
75254,Dallas County,TX,72.83524076873246
75454,Collin County,TX,90.80112286763118
75474,Hunt County,TX,45.36817102137768
75482,Hopkins County,TX,42.0211617361261
75491,Grayson County,TX,98.12135607860073
75501,Bowie County,TX,17.534009933059814
75602,Gregg County,TX,72.74886633556467
75605,Gregg County,TX,35.45670481537465
75650,Harrison County,TX,63.61477002807169
75656,Cass County,TX,97.97020082055712
75662,Gregg County,TX,68.10624055279636
75701,Smith County,TX,52.450874541135825
75703,Smith County,TX,48.75836752321313
75706,Smith County,TX,43.57590153314619
75751,Henderson County,TX,30.101489958972145
75766,Cherokee County,TX,19.779745195422155
75773,Wood County,TX,56.25134960051824
75941,Angelina County,TX,97.10645648887929
75979,Tyler County,TX,75.53444180522565
76001,Tarrant County,TX,37.637659252861155
76002,Tarrant County,TX,40.18570503131073
76010,Tarrant County,TX,51.41438134312244
76011,Tarrant County,TX,92.29108183977543
76012,Tarrant County,TX,31.073202332109695
76014,Tarrant County,TX,31.807385014035845
76015,Tarrant County,TX,65.96847333189376
76016,Tarrant County,TX,50.421075361692935
76017,Tarrant County,TX,47.95940401641114
76020,Tarrant County,TX,15.78492766141222
76028,Johnson County,TX,23.169941697257613
76031,Johnson County,TX,48.952709997840635
76033,Johnson County,TX,21.485640250485858
76036,Tarrant County,TX,84.64694450442668
76049,Hood County,TX,22.565320665083135
76051,Tarrant County,TX,48.56402504858562
76058,Johnson County,TX,39.019650183545664
76063,Tarrant County,TX,5.895055063701145
76087,Parker County,TX,79.18376160656446
76104,Tarrant County,TX,37.72403368602893
76106,Tarrant County,TX,30.92204707406608
76110,Tarrant County,TX,59.38242280285036
76112,Tarrant County,TX,46.25350896134744
76114,Tarrant County,TX,75.64240984668538
76116,Tarrant County,TX,39.775426473763766
76119,Tarrant County,TX,33.707622543727055
76120,Tarrant County,TX,34.204275534441805
76131,Tarrant County,TX,33.38371841934787
76132,Tarrant County,TX,47.44115741740445
76133,Tarrant County,TX,33.81559058518678
76134,Tarrant County,TX,13.863096523429064
76135,Tarrant County,TX,89.9157849276614
76137,Tarrant County,TX,9.565968473331894
76148,Tarrant County,TX,24.962211185489096
76164,Tarrant County,TX,81.17037356942345
76179,Tarrant County,TX,45.73526236234075
76201,Denton County,TX,88.94407255452386
76207,Denton County,TX,88.12351543942994
76208,Denton County,TX,43.251997408767004
76227,Denton County,TX,49.8812351543943
76234,Wise County,TX,54.80457784495789
76244,Tarrant County,TX,13.10732023321097
76247,Denton County,TX,69.79054199956812
76301,Wichita County,TX,62.14640466421939
76302,Wichita County,TX,56.33772403368603
76309,Wichita County,TX,63.096523429065
76367,Wichita County,TX,84.08551068883611
76401,Erath County,TX,45.04426689699849
76426,Wise County,TX,79.59404016411142
76437,Eastland County,TX,94.73115957676528
76502,Bell County,TX,6.4348952709997835
76513,Bell County,TX,2.7855754696609805
76541,Bell County,TX,29.04340315266681
76549,Bell County,TX,39.51630317426042
76579,Bell County,TX,83.50248326495358
76634,Bosque County,TX,94.36406823580221
76645,Hill County,TX,65.5150075577629
76692,Hill County,TX,86.5903692507018
76705,McLennan County,TX,7.4282012524292815
76707,McLennan County,TX,55.36601166054847
76710,McLennan County,TX,37.1841934787303
76712,McLennan County,TX,25.890736342042754
76801,Brown County,TX,36.62275966313971
76903,Tom Green County,TX,74.90822716475924
76905,Tom Green County,TX,83.99913625566833
77003,Harris County,TX,89.80781688620169
77004,Harris County,TX,44.353271431656225
77005,Harris County,TX,82.68192614985963
77006,Harris County,TX,61.75771971496437
77008,Harris County,TX,91.25458864176204
77011,Harris County,TX,70.82703519758151
77012,Harris County,TX,81.34312243575901
77014,Harris County,TX,42.84171885122004
77015,Harris County,TX,56.07860073418268
77016,Harris County,TX,25.696393867415246
77018,Harris County,TX,27.359101705895057
77019,Harris County,TX,55.36601166054847
77021,Harris County,TX,70.2008205571151
77022,Harris County,TX,69.94169725761175
77023,Harris County,TX,42.949686892679765
77024,Harris County,TX,45.605700712589076
77025,Harris County,TX,52.58043619088749
77027,Harris County,TX,90.15331461887281
77028,Harris County,TX,65.29907147484344
77034,Harris County,TX,89.95897214424531
77035,Harris County,TX,74.58432304038006
77036,Harris County,TX,93.82422802850357
77038,Harris County,TX,66.5083135391924
77039,Harris County,TX,56.33772403368603
77040,Harris County,TX,77.32671129345714
77042,Harris County,TX,82.14208594256101
77044,Harris County,TX,21.42085942561002
77045,Harris County,TX,72.12265169509826
77047,Harris County,TX,82.94104944936299
77048,Harris County,TX,81.88296264305765
77049,Harris County,TX,49.55733103001512
77053,Fort Bend County,TX,74.38998056575254
77055,Harris County,TX,41.61088317857914
77056,Harris County,TX,61.97365579788383
77057,Harris County,TX,53.27143165622975
77058,Harris County,TX,89.39753832865472
77059,Harris County,TX,70.41675664003455
77060,Harris County,TX,44.7203627726193
77063,Harris County,TX,50.52904340315266
77064,Harris County,TX,20.988987259771108
77065,Harris County,TX,44.33167782336429
77066,Harris County,TX,52.42928093284388
77067,Harris County,TX,59.66313971064565
77068,Harris County,TX,98.16454329518463
77069,Harris County,TX,76.85165191103434
77072,Harris County,TX,88.66335564672858
77073,Harris County,TX,36.32044914705247
77074,Harris County,TX,64.17620384366228
77075,Harris County,TX,65.38544590801123
77077,Harris County,TX,28.17965882098899
77078,Harris County,TX,61.43381559058518
77080,Harris County,TX,81.4294968689268
77081,Harris County,TX,78.29842366659469
77082,Harris County,TX,65.19110343338372
77083,Harris County,TX,25.24292809328439
77084,Harris County,TX,57.24465558194775
77086,Harris County,TX,50.93932196069964
77088,Harris County,TX,46.577413085726626
77089,Harris County,TX,27.488663355646732
77090,Harris County,TX,15.46102353703304
77094,Harris County,TX,92.4206434895271
77095,Harris County,TX,32.10969553012308
77099,Harris County,TX,37.22738069531419
77301,Montgomery County,TX,38.58777801770676
77304,Montgomery County,TX,86.39602677607428
77306,Montgomery County,TX,85.22997192830923
77338,Harris County,TX,61.17469229108185
77345,Harris County,TX,73.82854675016195
77346,Harris County,TX,56.057007125890735
77354,Montgomery County,TX,32.2608507881667
77365,Montgomery County,TX,87.02224141654071
77373,Harris County,TX,15.46102353703304
77375,Harris County,TX,37.98315698553228
77384,Montgomery County,TX,63.37724033686028
77385,Montgomery County,TX,74.41157417404447
77386,Montgomery County,TX,19.326279421291297
77388,Harris County,TX,28.58993737853595
77396,Harris County,TX,71.8635283955949
77406,Fort Bend County,TX,28.374001295616498
77407,Fort Bend County,TX,35.370330382206866
77423,Waller County,TX,93.19801338803714
77429,Harris County,TX,4.44828330814079
77434,Colorado County,TX,99.89203195854027
77449,Harris County,TX,41.22219822932412
77450,Harris County,TX,81.10559274454762
77479,Fort Bend County,TX,46.383070611099114
77480,Brazoria County,TX,79.93953789678255
77484,Waller County,TX,86.28805873461457
77493,Harris County,TX,44.63398833945153
77494,Fort Bend County,TX,50.63701144461239
77498,Fort Bend County,TX,68.9267976678903
77502,Harris County,TX,88.42582595551717
77510,Galveston County,TX,47.44115741740445
77511,Brazoria County,TX,71.62599870438349
77515,Brazoria County,TX,32.02332109695531
77521,Harris County,TX,15.245087454113582
77523,Chambers County,TX,40.61757719714964
77531,Brazoria County,TX,80.54415892895703
77532,Harris County,TX,25.070179226948824
77535,Liberty County,TX,24.292809328438782
77536,Harris County,TX,55.34441805225653
77539,Galveston County,TX,67.7391492118333
77545,Fort Bend County,TX,52.1053768084647
77547,Harris County,TX,93.58669833729216
77550,Galveston County,TX,34.52817965882099
77551,Galveston County,TX,42.906499676095876
77563,Galveston County,TX,59.14489311163895
77565,Galveston County,TX,74.45476139062838
77566,Brazoria County,TX,34.57136687540488
77568,Galveston County,TX,51.19844526020299
77573,Galveston County,TX,3.411790110127402
77578,Brazoria County,TX,92.9388900885338
77581,Brazoria County,TX,65.08313539192399
77583,Brazoria County,TX,80.306629237745625
77584,Brazoria County,TX,63.59317641977974
77586,Harris County,TX,31.915353055495572
77590,Galveston County,TX,5.268840423234723
77598,Harris County,TX,41.48132152882747
77612,Jasper County,TX,78.83826387389334
77627,Jefferson County,TX,56.51047290002159
77630,Orange County,TX,57.39581083999137
77632,Orange County,TX,34.700928525156556
77657,Hardin County,TX,40.29367307277046
77662,Orange County,TX,28.30922047074066
77703,Jefferson County,TX,82.16367955085295
77706,Jefferson County,TX,31.50507449794861
77802,Brazos County,TX,13.085726624919026
77807,Brazos County,TX,87.60526884042324
77836,Burleson County,TX,50.76657309436406
77840,Brazos County,TX,28.352407687324554
77845,Brazos County,TX,39.19239904988123
77901,Victoria County,TX,12.632260850788166
77954,DeWitt County,TX,54.54545454545454
78006,Kendall County,TX,73.1375512848197
78014,La Salle County,TX,96.3074929820773
78040,Webb County,TX,25.394083351328007
78041,Webb County,TX,21.852731591448933
78043,Webb County,TX,58.08680630533362
78046,Webb County,TX,29.51846253508961
78069,Atascosa County,TX,83.6104513064133
78102,Bee County,TX,64.45692075145757
78154,Guadalupe County,TX,59.360829194558406
78155,Guadalupe County,TX,12.092420643489527
78201,Bexar County,TX,11.768516519110344
78209,Bexar County,TX,47.26840855106889
78212,Bexar County,TX,71.71237313755128
78216,Bexar County,TX,27.25113366443533
78217,Bexar County,TX,52.25653206650831
78220,Bexar County,TX,43.96458648240121
78221,Bexar County,TX,61.36903476570935
78223,Bexar County,TX,34.22586914273375
78228,Bexar County,TX,45.17382854675016
78233,Bexar County,TX,25.502051392787735
78239,Bexar County,TX,75.38328654718204
78242,Bexar County,TX,90.32606348520838
78244,Bexar County,TX,43.5327143165623
78247,Bexar County,TX,35.974951414381344
78248,Bexar County,TX,83.07061109911467
78249,Bexar County,TX,42.17231699416973
78251,Bexar County,TX,38.28546750161952
78254,Bexar County,TX,29.19455841071043
78257,Bexar County,TX,97.49514143813431
78259,Bexar County,TX,62.880587346145546
78264,Bexar County,TX,98.38047937810408
78387,San Patricio County,TX,91.36255668322177
78405,Nueces County,TX,66.5083135391924
78413,Nueces County,TX,57.654934139494706
78414,Nueces County,TX,43.705463182897866
78415,Nueces County,TX,62.211185489095236
78501,Hidalgo County,TX,78.10408119196718
78504,Hidalgo County,TX,55.53876052688405
78520,Cameron County,TX,38.93327575037789
78521,Cameron County,TX,67.52321312891384
78526,Cameron County,TX,54.0488015547398
78537,Hidalgo County,TX,77.41308572662491
78541,Hidalgo County,TX,33.038220686676745
78542,Hidalgo County,TX,58.08680630533362
78550,Cameron County,TX,26.106672424962213
78552,Cameron County,TX,53.63852299719283
78572,Hidalgo County,TX,65.94687972360181
78573,Hidalgo County,TX,69.33707622543727
78576,Hidalgo County,TX,91.98877132368818
78577,Hidalgo County,TX,44.418052256532064
78578,Cameron County,TX,92.1831137983157
78584,Starr County,TX,50.680198661196286
78586,Cameron County,TX,27.596631397106457
78593,Cameron County,TX,99.61131505074498
78596,Hidalgo County,TX,58.000431872165834
78611,Burnet County,TX,65.66616281580652
78612,Bastrop County,TX,84.51738285467502
78613,Williamson County,TX,18.59209673936515
78616,Caldwell County,TX,96.13474411574174
78633,Williamson County,TX,78.66551500755776
78640,Hays County,TX,25.63161304253941
78644,Caldwell County,TX,52.32131289138415
78645,Travis County,TX,77.47786655150075
78660,Travis County,TX,13.819909306845174
78664,Williamson County,TX,28.805873461455413
78666,Hays County,TX,14.251781472684085
78681,Williamson County,TX,70.00647808248759
78703,Travis County,TX,77.32671129345714
78723,Travis County,TX,43.66227596631397
78724,Travis County,TX,91.16821420859425
78729,Williamson County,TX,65.12632260850788
78731,Travis County,TX,85.5106888361045
78732,Travis County,TX,93.73785359533578
78744,Travis County,TX,48.024184841286974
78747,Travis County,TX,83.6104513064133
78748,Travis County,TX,55.19326279421291
78750,Travis County,TX,77.43467933491686
78753,Travis County,TX,44.20211617361261
78852,Maverick County,TX,70.28719499028287
78942,Lee County,TX,96.48024184841287
79104,Potter County,TX,99.67609587562082
79106,Potter County,TX,37.48650399481753
79107,Potter County,TX,51.047290002159365
79108,Potter County,TX,66.96177931332326
79109,Randall County,TX,54.65342258691427
79323,Yoakum County,TX,64.58648240120924
79336,Hockley County,TX,81.64543295184626
79360,Gaines County,TX,35.11120708270352
79403,Lubbock County,TX,34.13949470956597
79407,Lubbock County,TX,31.267544806737206
79410,Lubbock County,TX,94.36406823580221
79411,Lubbock County,TX,96.48024184841287
79412,Lubbock County,TX,73.63420427553444
79414,Lubbock County,TX,92.70136039732239
79415,Lubbock County,TX,93.00367091340964
79416,Lubbock County,TX,68.55970632692723
79423,Lubbock County,TX,45.69207514575685
79424,Lubbock County,TX,13.409630749298207
79556,Nolan County,TX,39.710645648887926
79701,Midland County,TX,58.84258259555172
79703,Midland County,TX,73.6557978838264
79705,Midland County,TX,43.33837184193479
79731,Crane County,TX,86.89267976678903
79764,Ector County,TX,38.41502915137119
79782,Martin County,TX,85.7914057438998
79904,El Paso County,TX,48.82314834808897
79925,El Paso County,TX,81.21356078600735
79936,El Paso County,TX,4.880155473979702
79938,El Paso County,TX,17.771539624271217
84003,Utah County,UT,27.294320881019217
84005,Utah County,UT,66.72424962211186
84017,Summit County,UT,97.12805009717124
84020,Salt Lake County,UT,59.857482185273156
84025,Davis County,UT,61.088317857914056
84029,Tooele County,UT,72.98639602677608
84036,Summit County,UT,98.55322824443965
84041,Davis County,UT,86.26646512632261
84043,Utah County,UT,60.59166486719931
84045,Utah County,UT,92.61498596415461
84054,Davis County,UT,91.68646080760095
84058,Utah County,UT,70.76225437270568
84060,Summit County,UT,99.69768948391277
84062,Utah County,UT,39.90498812351544
84067,Weber County,UT,21.204923342690563
84070,Salt Lake County,UT,65.45022673288706
84074,Tooele County,UT,47.16044050960916
84075,Davis County,UT,56.51047290002159
84078,Uintah County,UT,6.866767436838696
84081,Salt Lake County,UT,16.97257611746923
84084,Salt Lake County,UT,29.324120060462107
84093,Salt Lake County,UT,67.76074282012524
84095,Salt Lake County,UT,73.76376592528612
84096,Salt Lake County,UT,93.71625998704384
84098,Summit County,UT,49.73007989635068
84106,Salt Lake County,UT,70.24400777369898
84109,Salt Lake County,UT,87.99395378967826
84115,Salt Lake County,UT,22.58691427337508
84116,Salt Lake County,UT,44.84992442237098
84118,Salt Lake County,UT,83.26495357374218
84120,Salt Lake County,UT,2.59123299503347
84123,Salt Lake County,UT,10.256963938674152
84128,Salt Lake County,UT,23.558626646512632
84129,,UT,65.0399481753401
84302,Box Elder County,UT,86.67674368386957
84319,Cache County,UT,87.34614554091988
84321,Cache County,UT,51.716691859209675
84341,Cache County,UT,72.1874325199741
84403,Weber County,UT,66.09803498164544
84511,San Juan County,UT,99.93521917512417
84601,Utah County,UT,82.07730511768516
84604,Utah County,UT,97.79745195422154
84606,Utah County,UT,93.02526452170157
84651,Utah County,UT,90.6715612178795
84653,Utah County,UT,88.94407255452386
84660,Utah County,UT,88.81451090477219
84663,Utah County,UT,59.10170589505507
84721,Iron County,UT,49.96760958756209
84745,Washington County,UT,99.82725113366445
84770,Washington County,UT,22.78125674800259
05001,Windsor County,VT,74.67069747354783
05156,Windsor County,VT,48.348088965666165
05468,Chittenden County,VT,52.1053768084647
05641,Washington County,VT,18.28978622327791
05701,Rutland County,VT,22.58691427337508
05733,Rutland County,VT,98.59641546102354
20109,Prince William County,VA,67.32887065428633
20110,Manassas city,VA,52.40768732455193
20120,Fairfax County,VA,35.78060893975383
20121,Fairfax County,VA,49.85964154610235
20124,Fairfax County,VA,86.91427337508098
20147,Loudoun County,VA,80.69531418700065
20151,Fairfax County,VA,79.93953789678255
20152,Loudoun County,VA,86.48240120924207
20155,Prince William County,VA,43.10084215072338
20164,Loudoun County,VA,84.34463398833945
20170,Fairfax County,VA,94.58000431872165
20171,Fairfax County,VA,66.2275966313971
20191,Fairfax County,VA,83.43770244007773
22003,Fairfax County,VA,87.302958324336
22015,Fairfax County,VA,81.04081191967177
22026,Prince William County,VA,94.45044266896998
22030,Fairfax County,VA,65.64456920751458
22032,Fairfax County,VA,48.218527315914486
22033,Fairfax County,VA,43.46793349168646
22039,Fairfax County,VA,68.84042323472252
22041,Fairfax County,VA,81.21356078600735
22042,Fairfax County,VA,34.31224357590153
22044,Fairfax County,VA,98.94191319369466
22046,Falls Church city,VA,95.89721442453035
22066,Fairfax County,VA,84.71172532930252
22101,Fairfax County,VA,35.13280069099547
22102,Fairfax County,VA,84.798099762470315
22150,Fairfax County,VA,68.23580220254804
22151,Fairfax County,VA,96.80414597279206
22152,Fairfax County,VA,70.07125890736341
22153,Fairfax County,VA,84.49578924638307
22181,Fairfax County,VA,81.58065212697042
22182,Fairfax County,VA,50.07557762902181
22191,Prince William County,VA,78.88145109047721
22192,Prince William County,VA,34.57136687540488
22193,Prince William County,VA,68.94839127618225
22202,Arlington County,VA,62.40552796372274
22203,Arlington County,VA,59.66313971064565
22204,Arlington County,VA,63.48520837832001
22206,Arlington County,VA,72.29540056143382
22207,Arlington County,VA,81.51587130209458
22301,Alexandria city,VA,98.5316346361477
22303,Fairfax County,VA,94.6015979270136
22304,Alexandria city,VA,60.418916000863746
22306,Fairfax County,VA,45.80004318721658
22309,Fairfax County,VA,85.2731591448931
22310,Fairfax County,VA,81.60224573526236
22312,Fairfax County,VA,76.65730943640683
22314,Alexandria city,VA,82.72511336644354
22315,Fairfax County,VA,39.53789678255236
22405,Stafford County,VA,40.509609155689915
22485,King George County,VA,48.06737205787087
22554,Stafford County,VA,76.95961995249407
22556,Stafford County,VA,56.33772403368603
22602,Frederick County,VA,35.17598790757936
22849,Page County,VA,97.27920535521486
22903,Charlottesville city,VA,15.201900237529692
22968,Greene County,VA,46.27510256963939
22980,Waynesboro city,VA,2.9799179442884904
23112,Chesterfield County,VA,75.38328654718204
23114,Chesterfield County,VA,80.69531418700065
23116,Hanover County,VA,48.348088965666165
23120,Chesterfield County,VA,91.90239689052041
23139,Powhatan County,VA,54.41589289570287
23141,New Kent County,VA,93.62988555387605
23188,James City County,VA,27.488663355646732
23220,Richmond city,VA,45.54091988771324
23224,Richmond city,VA,40.768732455193266
23225,Richmond city,VA,5.657525372489744
23228,Henrico County,VA,32.735910170589506
23229,Henrico County,VA,52.32131289138415
23231,Henrico County,VA,11.574174044482834
23234,Chesterfield County,VA,34.54977326711293
23235,Chesterfield County,VA,81.9045562513496
23238,Henrico County,VA,78.4927661412222
23294,Henrico County,VA,67.24249622111856
23320,Chesapeake city,VA,14.46771755560354
23434,Suffolk city,VA,30.101489958972145
23451,Virginia Beach city,VA,82.07730511768516
23453,Virginia Beach city,VA,31.828978622327792
23462,Virginia Beach city,VA,52.925933923558624
23464,Virginia Beach city,VA,30.382206866767437
23502,Norfolk city,VA,20.038868494925502
23503,Norfolk city,VA,30.92204707406608
23513,Norfolk city,VA,8.11919671777154
23518,Norfolk city,VA,26.041891600086377
23601,Newport News city,VA,84.25825955517166
23602,Newport News city,VA,15.676959619952493
23664,Hampton city,VA,71.99309004534658
23669,Hampton city,VA,95.8756208162384
23703,Portsmouth city,VA,38.371841934787305
23707,Portsmouth city,VA,36.53638522997193
23805,Petersburg city,VA,36.104513064133016
23831,Chesterfield County,VA,22.133448499244224
23832,Chesterfield County,VA,60.76441373353487
23842,Prince George County,VA,92.4206434895271
23901,Prince Edward County,VA,43.31677823364284
24012,Roanoke city,VA,15.568991578492767
24018,Roanoke County,VA,31.159576765277482
24060,Montgomery County,VA,75.75037788814511
24073,Montgomery County,VA,25.804361908874974
24112,Henry County,VA,7.1258907363420425
24141,Radford city,VA,57.82768300583028
24201,Bristol city,VA,89.26797667890305
24216,Wise County,VA,93.26279421291298
24219,Wise County,VA,24.335996545022674
24228,Dickenson County,VA,53.249838047937814
24260,Russell County,VA,54.86935866983374
24263,Lee County,VA,69.12114014251782
24293,Wise County,VA,32.69272295400562
24315,Bland County,VA,96.1131505074498
24319,Smyth County,VA,52.68840423234723
24333,Galax city,VA,30.90045346577413
24340,Washington County,VA,85.16519110343339
24416,Buena Vista city,VA,50.07557762902181
24502,Lynchburg city,VA,26.49535737421723
24521,Amherst County,VA,90.41243791837617
24558,Halifax County,VA,53.379399697689486
24572,Amherst County,VA,45.49773267112935
24588,Campbell County,VA,67.0265601381991
24592,Halifax County,VA,15.50421075361693
24605,Tazewell County,VA,18.268192614985963
24614,Buchanan County,VA,43.12243575901533
98002,King County,WA,51.975815158713026
98003,King County,WA,15.158713020945799
98004,King County,WA,94.90390844310083
98005,King County,WA,90.21809544374865
98007,King County,WA,70.56791189807818
98012,Snohomish County,WA,76.20384366227597
98030,King County,WA,60.57007125890736
98031,King County,WA,74.73547829842366
98032,King County,WA,59.33923558626647
98034,King County,WA,67.63118117037357
98038,King County,WA,19.11034333837184
98042,King County,WA,7.363420427553444
98043,Snohomish County,WA,59.447203627726196
98045,King County,WA,94.19131936946664
98052,King County,WA,64.45692075145757
98055,King County,WA,84.23666594687973
98058,King County,WA,48.60721226516951
98059,King County,WA,77.32671129345714
98065,King County,WA,72.3817749946016
98072,King County,WA,45.605700712589076
98074,King County,WA,77.13236881882962
98087,Snohomish County,WA,30.015115525804365
98112,King County,WA,82.74670697473547
98115,King County,WA,53.552148564025046
98116,King County,WA,95.81083999136256
98117,King County,WA,75.0377888145109
98118,King County,WA,25.458864176203843
98133,King County,WA,15.223493845821636
98136,King County,WA,93.3707622543727
98144,King County,WA,15.828114877996114
98146,King County,WA,90.69315482617145
98166,King County,WA,66.7890304469877
98168,King County,WA,18.009069315482616
98178,King County,WA,69.66098034981646
98198,King County,WA,25.56683221766357
98204,Snohomish County,WA,42.5394083351328
98208,Snohomish County,WA,9.954653422586915
98225,Whatcom County,WA,37.8967825523645
98226,Whatcom County,WA,79.39969768948392
98248,Whatcom County,WA,66.18440941481322
98252,Snohomish County,WA,70.82703519758151
98258,Snohomish County,WA,39.38674152450874
98270,Snohomish County,WA,53.16346361477002
98271,Snohomish County,WA,27.855754696609804
98272,Snohomish County,WA,40.509609155689915
98274,Skagit County,WA,46.85812999352192
98277,Island County,WA,30.706110991146616
98282,Island County,WA,76.20384366227597
98284,Skagit County,WA,66.33556467285683
98292,Snohomish County,WA,74.45476139062838
98296,Snohomish County,WA,29.021809544374864
98311,Kitsap County,WA,44.78514359749514
98338,Pierce County,WA,30.92204707406608
98360,Pierce County,WA,59.27445476139063
98366,Kitsap County,WA,12.41632476786871
98368,Jefferson County,WA,54.00561433815591
98387,Pierce County,WA,11.703735694234506
98391,Pierce County,WA,60.31094795940402
98404,Pierce County,WA,18.613690347657094
98405,Pierce County,WA,18.073850140358456
98467,Pierce County,WA,70.93500323904124
98498,Pierce County,WA,38.63096523429065
98512,Thurston County,WA,69.70416756640034
98513,Thurston County,WA,58.79939537896782
98531,Lewis County,WA,58.540272079464486
98532,Lewis County,WA,96.76095875620815
98550,Grays Harbor County,WA,73.1375512848197
98584,Mason County,WA,18.959188080328225
98626,Cowlitz County,WA,27.445476139062837
98632,Cowlitz County,WA,66.57309436406823
98661,Clark County,WA,32.41200604621032
98801,Chelan County,WA,79.16216799827251
98802,Douglas County,WA,33.57806089397538
98848,Grant County,WA,83.15698553228245
98901,Yakima County,WA,38.307061109911466
98902,Yakima County,WA,14.748434463398835
98922,Kittitas County,WA,94.99028287626862
98926,Kittitas County,WA,36.62275966313971
98930,Yakima County,WA,77.04599438566184
98932,Yakima County,WA,98.7691643273591
99019,Spokane County,WA,92.91729648024184
99163,Whitman County,WA,84.17188512200389
99203,Spokane County,WA,72.59771107752105
99205,Spokane County,WA,57.02871949902829
99206,Spokane County,WA,61.73612610667243
99208,Spokane County,WA,55.60354135175988
99212,Spokane County,WA,71.47484344633989
99216,Spokane County,WA,77.30511768516519
99224,Spokane County,WA,96.41546102353703
99301,Franklin County,WA,53.012308356726415
99320,Benton County,WA,91.96717771539625
99336,Benton County,WA,24.962211185489096
99337,Benton County,WA,13.711941265385446
99338,Benton County,WA,86.35283955949039
99349,Grant County,WA,99.00669401857051
99352,Benton County,WA,57.41740444828331
99362,Walla Walla County,WA,13.49600518246599
20001,District of Columbia,DC,9.760310947959404
20002,District of Columbia,DC,27.790973871733964
20005,District of Columbia,DC,96.09155689915785
20007,District of Columbia,DC,93.34916864608076
20008,District of Columbia,DC,97.68948391276182
20010,District of Columbia,DC,35.93176419779745
20011,District of Columbia,DC,35.39192399049881
20016,District of Columbia,DC,58.36752321312891
20019,District of Columbia,DC,9.695530123083568
20020,District of Columbia,DC,0.7557762902180954
20024,District of Columbia,DC,40.79032606348521
20032,District of Columbia,DC,12.459511984452602
25303,Kanawha County,WV,81.34312243575901
25311,Kanawha County,WV,54.2863312459512
25401,Berkeley County,WV,53.63852299719283
25404,Berkeley County,WV,23.407471388469013
25411,Morgan County,WV,85.48909522781257
25414,Jefferson County,WV,45.30339019650184
25419,Berkeley County,WV,68.75404880155473
25428,Berkeley County,WV,45.32498380479378
25541,Cabell County,WV,50.89613474411574
25701,Cabell County,WV,77.88814510904773
25705,Cabell County,WV,83.39451522349385
25801,Raleigh County,WV,26.1498596415461
25832,Raleigh County,WV,95.57331030015116
26101,Wood County,WV,11.898078168862018
26261,Nicholas County,WV,94.66637875188944
26301,Harrison County,WV,2.3537033038220687
26508,Monongalia County,WV,1.5763334053120275
26554,Marion County,WV,37.55128481969337
26582,Marion County,WV,80.47937810408119
53022,Washington County,WI,49.19023968905204
53037,Washington County,WI,79.48607212265169
53066,Waukesha County,WI,23.882530770891815
53072,Waukesha County,WI,72.48974303606133
53083,Sheboygan County,WI,56.25134960051824
53089,Waukesha County,WI,77.4994601597927
53092,Ozaukee County,WI,41.02785575469661
53095,Washington County,WI,80.58734614554092
53105,Racine County,WI,48.715180306629236
53115,Walworth County,WI,79.37810408119196
53128,Walworth County,WI,80.17706758799396
53129,Milwaukee County,WI,83.1353919239905
53132,Milwaukee County,WI,23.51543942992874
53143,Kenosha County,WI,8.11919671777154
53147,Walworth County,WI,60.224573526236234
53150,Waukesha County,WI,49.039084431008426
53158,Kenosha County,WI,9.825091772835242
53168,Kenosha County,WI,41.006262146404666
53172,Milwaukee County,WI,21.33448499244224
53177,Racine County,WI,69.76894839127618
53189,Waukesha County,WI,89.33275750377888
53204,Milwaukee County,WI,15.093932196069964
53207,Milwaukee County,WI,13.668754048801555
53208,Milwaukee County,WI,23.169941697257613
53209,Milwaukee County,WI,0.9069315482617145
53210,Milwaukee County,WI,17.05895055063701
53211,Milwaukee County,WI,49.66529907147484
53212,Milwaukee County,WI,5.571150939321961
53213,Milwaukee County,WI,32.84387821204923
53214,Milwaukee County,WI,56.66162815806521
53215,Milwaukee County,WI,24.94061757719715
53217,Milwaukee County,WI,20.362772619304685
53218,Milwaukee County,WI,15.525804361908873
53219,Milwaukee County,WI,7.622543727056791
53221,Milwaukee County,WI,54.07039516303175
53224,Milwaukee County,WI,21.356078600734183
53235,Milwaukee County,WI,79.18376160656446
53402,Racine County,WI,13.388037141006262
53403,Racine County,WI,18.851220038868494
53405,Racine County,WI,1.9002375296912115
53406,Racine County,WI,5.873461455409199
53511,Rock County,WI,32.84387821204923
53534,Rock County,WI,84.06391708054416
53536,Rock County,WI,81.34312243575901
53545,Rock County,WI,20.621895918808033
53546,Rock County,WI,32.08810192183114
53549,Jefferson County,WI,83.50248326495358
53551,Jefferson County,WI,66.7458432304038
53563,Rock County,WI,88.42582595551717
53566,Green County,WI,33.901965018354566
53573,Grant County,WI,99.50334700928525
53575,Dane County,WI,81.79658820988988
53597,Dane County,WI,41.41654070395163
53704,Dane County,WI,54.588641762038435
53713,Dane County,WI,35.58626646512632
53714,Dane County,WI,79.83156985532283
53716,Dane County,WI,59.38242280285036
53717,Dane County,WI,96.17793133232563
53809,Grant County,WI,96.63139710645649
53813,Grant County,WI,96.67458432304038
53946,Green Lake County,WI,96.41546102353703
53959,Sauk County,WI,59.08011228676312
54016,St. Croix County,WI,29.367307277045995
54017,St. Croix County,WI,34.18268192614986
54020,Polk County,WI,61.60656445692075
54136,Outagamie County,WI,84.19347873029584
54220,Manitowoc County,WI,30.511768516519112
54302,Brown County,WI,61.23947311595768
54311,Brown County,WI,57.26624919023969
54313,Brown County,WI,43.42474627510257
54401,Marathon County,WI,73.37508097603109
54403,Marathon County,WI,27.661412221982296
54409,Langlade County,WI,54.30792485424314
54449,Wood County,WI,57.525372489743035
54451,Taylor County,WI,75.64240984668538
54455,Marathon County,WI,81.68862016843015
54467,Portage County,WI,47.290002159360824
54474,Marathon County,WI,96.00518246599007
54481,Portage County,WI,9.069315482617144
54482,Portage County,WI,72.92161520190024
54494,Wood County,WI,47.52753185057223
54501,Oneida County,WI,33.31893759447204
54601,La Crosse County,WI,2.375296912114014
54603,La Crosse County,WI,68.43014467717555
54612,Trempealeau County,WI,90.49881235154395
54630,Trempealeau County,WI,80.13388037141006
54636,La Crosse County,WI,49.96760958756209
54701,Eau Claire County,WI,58.71302094580004
54703,Eau Claire County,WI,10.192183113798317
54729,Chippewa County,WI,18.462535089613475
54730,Dunn County,WI,97.3439861800907
54751,Dunn County,WI,19.69337076225437
54829,Barron County,WI,91.90239689052041
54880,Douglas County,WI,6.024616713452818
54901,Winnebago County,WI,14.316562297559923
54904,Winnebago County,WI,52.623623407471385
54913,Outagamie County,WI,96.99848844741956
54914,Outagamie County,WI,39.25717987475707
54915,Outagamie County,WI,52.23493845821638
54935,Fond du Lac County,WI,6.45648887929173
54944,Outagamie County,WI,86.71993090045346
54949,Waupaca County,WI,93.43554307924855
54952,Winnebago County,WI,31.50507449794861
54956,Winnebago County,WI,42.712157201468365
54961,Waupaca County,WI,40.44482833081408
54963,Winnebago County,WI,55.2364500107968
54981,Waupaca County,WI,86.91427337508098
54983,Waupaca County,WI,78.96782552364499
82009,Laramie County,WY,82.18527315914488
82240,Goshen County,WY,79.7236018138631
82414,Park County,WY,59.10170589505507
82633,Converse County,WY,73.52623623407472
82901,Sweetwater County,WY,39.300367091340966
