ZipCode,county,state,Adult
35040,Shelby County,AL,55.6420233463035
35072,Coosa County,AL,89.49416342412452
35085,Chilton County,AL,88.715953307393
35674,Colbert County,AL,37.35408560311284
36330,Coffee County,AL,49.416342412451364
36507,Baldwin County,AL,41.245136186770424
85033,Maricopa County,AZ,18.67704280155642
85138,Pinal County,AZ,40.856031128404666
85901,Navajo County,AZ,57.58754863813229
72730,Washington County,AR,98.0544747081712
90015,Los Angeles County,CA,85.60311284046692
90230,Los Angeles County,CA,81.32295719844358
90242,Los Angeles County,CA,78.21011673151752
90640,Los Angeles County,CA,36.57587548638132
91342,Los Angeles County,CA,22.56809338521401
91344,Los Angeles County,CA,48.249027237354085
91601,Los Angeles County,CA,72.37354085603113
91762,San Bernardino County,CA,72.76264591439688
91786,San Bernardino County,CA,34.24124513618677
91792,Los Angeles County,CA,73.54085603112841
92126,San Diego County,CA,47.85992217898833
92301,San Bernardino County,CA,36.186770428015564
92392,San Bernardino County,CA,57.19844357976653
92407,San Bernardino County,CA,20.233463035019454
92648,Orange County,CA,66.53696498054474
93458,Santa Barbara County,CA,15.953307392996107
94118,San Francisco County,CA,60.311284046692606
94518,Contra Costa County,CA,81.71206225680933
94545,Alameda County,CA,94.94163424124513
94563,Contra Costa County,CA,89.88326848249028
95363,Stanislaus County,CA,87.93774319066148
95382,Stanislaus County,CA,26.848249027237355
95620,Solano County,CA,86.38132295719845
95991,Sutter County,CA,31.906614785992215
96080,Tehama County,CA,45.91439688715953
80112,Arapahoe County,CO,59.143968871595334
80120,Arapahoe County,CO,68.48249027237354
80134,Douglas County,CO,29.961089494163424
80218,Denver County,CO,65.75875486381322
80602,Adams County,CO,50.583657587548636
81003,Pueblo County,CO,36.964980544747085
81004,Pueblo County,CO,27.626459143968873
81007,Pueblo County,CO,49.0272373540856
81052,Prowers County,CO,87.15953307392996
06118,Hartford County,CT,27.237354085603112
06450,New Haven County,CT,7.003891050583658
06479,Hartford County,CT,84.43579766536965
06615,Fairfield County,CT,56.42023346303502
32084,St. Johns County,FL,32.295719844357976
32110,Flagler County,FL,75.09727626459144
32246,Duval County,FL,18.28793774319066
32539,Okaloosa County,FL,43.57976653696498
32766,Seminole County,FL,97.27626459143968
32805,Orange County,FL,35.019455252918284
32809,Orange County,FL,54.08560311284047
32839,Orange County,FL,30.35019455252918
32907,Brevard County,FL,52.14007782101168
33014,Miami-Dade County,FL,71.59533073929961
33165,Miami-Dade County,FL,64.98054474708171
33177,Miami-Dade County,FL,47.081712062256805
33309,Broward County,FL,63.035019455252915
33321,Broward County,FL,60.70038910505836
33436,Palm Beach County,FL,61.08949416342413
33813,Polk County,FL,66.14785992217898
33908,Lee County,FL,64.59143968871595
30008,Cobb County,GA,70.03891050583657
30068,Cobb County,GA,93.77431906614785
30076,Fulton County,GA,68.09338521400778
30096,Gwinnett County,GA,30.35019455252918
30106,Cobb County,GA,71.98443579766537
30117,Carroll County,GA,35.40856031128405
30518,Gwinnett County,GA,39.29961089494164
31560,Wayne County,GA,99.22178988326849
60102,McHenry County,IL,52.918287937743195
60131,Cook County,IL,77.82101167315176
60441,Will County,IL,24.5136186770428
60455,Cook County,IL,55.6420233463035
60540,DuPage County,IL,31.517509727626457
60609,Cook County,IL,11.673151750972762
60641,Cook County,IL,14.785992217898833
60643,Cook County,IL,10.116731517509727
60654,Cook County,IL,76.65369649805449
62035,Madison County,IL,91.82879377431907
62454,Crawford County,IL,94.16342412451361
46236,Marion County,IN,66.9260700389105
46561,St. Joseph County,IN,90.27237354085604
47374,Wayne County,IN,5.836575875486381
66046,Douglas County,KS,86.7704280155642
67801,Ford County,KS,63.81322957198443
40216,Jefferson County,KY,10.505836575875486
41091,Boone County,KY,77.431906614786
42003,McCracken County,KY,16.731517509727624
70056,Jefferson Parish,LA,6.614785992217899
70075,St. Bernard Parish,LA,94.55252918287937
70301,Lafourche Parish,LA,3.11284046692607
70380,St. Mary Parish,LA,23.73540856031128
70560,Iberia Parish,LA,3.8910505836575875
70726,Livingston Parish,LA,12.840466926070038
70805,East Baton Rouge Parish,LA,4.280155642023346
71260,Union Parish,LA,96.88715953307393
21144,Anne Arundel County,MD,85.21400778210116
21212,Baltimore city,MD,44.3579766536965
21227,Baltimore County,MD,59.53307392996109
21239,Baltimore city,MD,34.63035019455253
21244,Baltimore County,MD,46.69260700389105
01581,Worcester County,MA,35.797665369649806
01844,Essex County,MA,1.9455252918287937
01876,Middlesex County,MA,8.560311284046692
01890,Middlesex County,MA,98.83268482490273
02186,Norfolk County,MA,15.17509727626459
02301,Plymouth County,MA,0
02446,Norfolk County,MA,21.40077821011673
02723,Bristol County,MA,3.501945525291829
48026,Macomb County,MI,37.7431906614786
48091,Macomb County,MI,8.171206225680933
48104,Washtenaw County,MI,51.36186770428015
48315,Macomb County,MI,42.4124513618677
48359,Oakland County,MI,69.64980544747081
48640,Midland County,MI,10.894941634241246
48650,Bay County,MI,82.87937743190662
49015,Calhoun County,MI,19.45525291828794
49093,St. Joseph County,MI,33.07392996108949
49099,St. Joseph County,MI,92.60700389105058
49103,Berrien County,MI,91.43968871595331
55123,Dakota County,MN,83.26848249027238
55318,Carver County,MN,63.035019455252915
55417,Hennepin County,MN,54.86381322957199
55446,Hennepin County,MN,84.8249027237354
56716,Polk County,MN,33.46303501945525
38651,DeSoto County,MS,96.49805447470817
39401,Forrest County,MS,33.85214007782101
63107,St. Louis city,MO,71.20622568093385
63501,Adair County,MO,75.87548638132296
64429,Clinton County,MO,56.809338521400775
89129,Clark County,NV,53.69649805447471
89408,Lyon County,NV,38.52140077821012
03833,Rockingham County,NH,39.688715953307394
07203,Union County,NJ,28.01556420233463
07524,Passaic County,NJ,32.68482490272373
08057,Burlington County,NJ,87.54863813229572
08108,Camden County,NJ,67.31517509727627
08835,Somerset County,NJ,54.474708171206224
87144,Sandoval County,NM,22.17898832684825
88230,Chaves County,NM,99.61089494163424
10310,Richmond County,NY,50.19455252918288
10452,Bronx County,NY,1.556420233463035
10456,Bronx County,NY,0.38910505836575876
10460,Bronx County,NY,2.3346303501945527
10467,Bronx County,NY,0.7782101167315175
10475,Bronx County,NY,62.64591439688716
10940,Orange County,NY,19.06614785992218
11212,Kings County,NY,8.949416342412452
11235,Kings County,NY,42.023346303501945
11367,Queens County,NY,78.98832684824903
11413,Queens County,NY,80.54474708171206
11429,Queens County,NY,92.21789883268482
11434,Queens County,NY,68.8715953307393
11722,Suffolk County,NY,24.90272373540856
12020,Saratoga County,NY,21.78988326848249
12189,Albany County,NY,41.63424124513619
12206,Albany County,NY,57.97665369649806
12887,Washington County,NY,74.70817120622569
12962,Clinton County,NY,69.26070038910505
13066,Onondaga County,NY,73.15175097276264
14225,Erie County,NY,9.72762645914397
14228,Erie County,NY,49.80544747081712
14485,Livingston County,NY,82.49027237354085
14543,Monroe County,NY,94.94163424124513
14830,Steuben County,NY,25.291828793774318
27021,Stokes County,NC,40.07782101167315
27455,Guilford County,NC,55.252918287937746
27587,Wake County,NC,23.346303501945524
27707,Durham County,NC,14.396887159533073
27893,Wilson County,NC,17.120622568093385
27949,Dare County,NC,92.99610894941634
28092,Lincoln County,NC,24.124513618677042
28311,Cumberland County,NC,26.459143968871597
28334,Sampson County,NC,31.1284046692607
28650,Catawba County,NC,70.42801556420234
28704,Buncombe County,NC,74.31906614785993
44050,Lorain County,OH,77.04280155642024
44105,Cuyahoga County,OH,1.1673151750972763
44117,Cuyahoga County,OH,43.96887159533074
44130,Cuyahoga County,OH,6.22568093385214
44515,Mahoning County,OH,11.284046692607005
73135,Oklahoma County,OK,45.525291828793776
74019,Rogers County,OK,79.37743190661479
74055,Tulsa County,OK,58.754863813229576
74115,Tulsa County,OK,40.46692607003891
97301,Marion County,OR,13.618677042801556
97305,Marion County,OR,28.404669260700388
97325,Marion County,OR,88.32684824902724
97351,Polk County,OR,78.59922178988327
97520,Jackson County,OR,84.04669260700389
15801,Clearfield County,PA,9.33852140077821
16066,Butler County,PA,70.8171206225681
16511,Erie County,PA,82.10116731517509
17404,York County,PA,12.45136186770428
17557,Lancaster County,PA,79.76653696498055
18109,Lehigh County,PA,64.2023346303502
18512,Lackawanna County,PA,67.70428015564202
19115,Philadelphia County,PA,20.622568093385212
19131,Philadelphia County,PA,7.392996108949417
19133,Philadelphia County,PA,17.509727626459142
19140,Philadelphia County,PA,2.7237354085603114
19382,Chester County,PA,16.342412451361866
19601,Berks County,PA,4.669260700389105
29047,Orangeburg County,SC,100
29356,Spartanburg County,SC,90.6614785992218
29360,Laurens County,SC,43.190661478599225
29560,Florence County,SC,95.71984435797665
29650,Greenville County,SC,38.91050583657588
29730,York County,SC,21.011673151750973
29910,Beaufort County,SC,75.4863813229572
37174,Williamson County,TN,53.30739299610895
38109,Shelby County,TN,12.062256809338521
38583,White County,TN,28.404669260700388
75007,Denton County,TX,50.97276264591439
75154,Ellis County,TX,46.30350194552529
75287,Denton County,TX,42.4124513618677
75752,Henderson County,TX,98.44357976653697
75901,Angelina County,TX,38.13229571984436
76063,Tarrant County,TX,15.56420233463035
76116,Tarrant County,TX,61.86770428015564
76266,Denton County,TX,89.10505836575877
77007,Harris County,TX,58.36575875486382
77021,Harris County,TX,73.92996108949417
77080,Harris County,TX,76.26459143968872
77429,Harris County,TX,13.229571984435799
77445,Waller County,TX,90.6614785992218
77518,Galveston County,TX,93.3852140077821
77833,Washington County,TX,48.63813229571984
78046,Webb County,TX,17.898832684824903
78414,Nueces County,TX,65.36964980544747
78681,Williamson County,TX,59.92217898832685
79424,Lubbock County,TX,29.18287937743191
84074,Tooele County,UT,5.447470817120623
84105,Salt Lake County,UT,80.1556420233463
84118,Salt Lake County,UT,19.844357976653697
84119,Salt Lake County,UT,14.007782101167315
84335,Cache County,UT,96.10894941634241
05201,Bennington County,VT,52.52918287937744
22304,Alexandria city,VA,47.47081712062256
22902,Charlottesville city,VA,25.680933852140075
23227,Henrico County,VA,44.74708171206226
23890,Sussex County,VA,97.66536964980544
98036,Snohomish County,WA,51.36186770428015
98233,Skagit County,WA,83.65758754863813
98664,Clark County,WA,85.99221789883269
20018,District of Columbia,DC,45.13618677042802
20019,District of Columbia,DC,5.058365758754864
20024,District of Columbia,DC,62.2568093385214
20032,District of Columbia,DC,26.07003891050584
26537,Preston County,WV,61.08949416342413
53216,Milwaukee County,WI,7.782101167315175
54151,Marinette County,WI,80.93385214007782
54302,Brown County,WI,29.571984435797667
54703,Eau Claire County,WI,22.957198443579767
