ZipCode,county,state,Adult
35077,Cullman County,AL,40.565744482437054
35096,Talladega County,AL,75.66055331053776
35124,Shelby County,AL,44.35809760646565
35603,Morgan County,AL,7.864470003108486
35630,Lauderdale County,AL,16.288467516319553
35763,Madison County,AL,58.53279452906435
35950,Marshall County,AL,23.842088902704383
35957,Marshall County,AL,27.230338824992227
36116,Montgomery County,AL,10.289089213553
36265,Calhoun County,AL,93.87628225054398
36477,Geneva County,AL,75.78489275722723
36502,Escambia County,AL,26.01802921976997
36542,Baldwin County,AL,90.45694746658377
36617,Mobile County,AL,88.43643145788002
36695,Mobile County,AL,18.930680758470626
36732,Marengo County,AL,56.20142990363692
36756,Perry County,AL,65.65122785203606
99503,Anchorage Municipality,AK,27.603357165060615
99507,Anchorage Municipality,AK,18.40223811004041
99517,Anchorage Municipality,AK,43.17687286291576
99518,Anchorage Municipality,AK,57.88001243394467
99611,Kenai Peninsula Borough,AK,51.227852036058444
99615,Kodiak Island Borough,AK,64.96736089524401
99664,Kenai Peninsula Borough,AK,98.84986011812248
99712,Fairbanks North Star Borough,AK,65.49580354367424
99901,Ketchikan Gateway Borough,AK,69.38141125271993
85009,Maricopa County,AZ,54.9580354367423
85015,Maricopa County,AZ,8.983525023313646
85023,Maricopa County,AZ,14.392290954305253
85024,Maricopa County,AZ,54.80261112838048
85028,Maricopa County,AZ,60.36680136773391
85032,Maricopa County,AZ,26.39104755983836
85033,Maricopa County,AZ,46.00559527510102
85035,Maricopa County,AZ,7.77121541809139
85085,Maricopa County,AZ,47.528753497046935
85120,Pinal County,AZ,54.08765930991607
85202,Maricopa County,AZ,10.133664905191173
85203,Maricopa County,AZ,81.65993161330432
85204,Maricopa County,AZ,6.5899906745414984
85205,Maricopa County,AZ,40.96984768417781
85206,Maricopa County,AZ,26.981659931613304
85212,Maricopa County,AZ,37.4572583152005
85225,Maricopa County,AZ,40.254895865713394
85286,Maricopa County,AZ,19.303699098539013
85296,Maricopa County,AZ,18.24681380167858
85297,Maricopa County,AZ,42.39975132110662
85301,Maricopa County,AZ,24.02859807273858
85305,Maricopa County,AZ,94.21821572894001
85323,Maricopa County,AZ,45.321728318308985
85339,Maricopa County,AZ,35.00155424308362
85345,Maricopa County,AZ,5.657444824370531
85349,Yuma County,AZ,94.12496114392292
85364,Yuma County,AZ,1.4299036369288156
85388,Maricopa County,AZ,48.30587503885608
85546,Graham County,AZ,60.677649984457574
85550,Graham County,AZ,87.41063102269196
85629,Pima County,AZ,51.041342866024245
85634,Pima County,AZ,10.84861672365558
85653,Pima County,AZ,49.89120298414672
85710,Pima County,AZ,3.885607709045695
85711,Pima County,AZ,3.6990985390115014
85716,Pima County,AZ,47.746347528753496
85741,Pima County,AZ,17.687286291576
85742,Pima County,AZ,31.271370842399755
85747,Pima County,AZ,76.12682623562324
85748,Pima County,AZ,65.49580354367424
85756,Pima County,AZ,92.69505750699409
85941,Apache County,AZ,24.49487099782406
86004,Coconino County,AZ,58.71930369909853
86005,Coconino County,AZ,31.178116257382655
86033,Navajo County,AZ,42.71059993783028
86034,Navajo County,AZ,86.57133975753808
86040,Coconino County,AZ,72.36555797326702
86045,Coconino County,AZ,55.64190239353435
86323,Yavapai County,AZ,32.73235934100093
86326,Yavapai County,AZ,11.718992850481817
86510,Navajo County,AZ,66.45943425551756
72019,Saline County,AR,53.559216661485856
72086,Lonoke County,AR,48.11936586882189
72110,Conway County,AR,65.27820951196766
72143,White County,AR,50.01554243083618
72416,Craighead County,AR,70.06527820951197
72501,Independence County,AR,18.526577556729872
72712,Benton County,AR,28.784581908610505
72719,Benton County,AR,96.14547715262667
72758,Benton County,AR,39.571028908921356
72764,Washington County,AR,21.386384830587506
90003,Los Angeles County,CA,19.987566055331055
90004,Los Angeles County,CA,55.921666148585636
90006,Los Angeles County,CA,46.720547093565436
90008,Los Angeles County,CA,26.484302144855455
90011,Los Angeles County,CA,37.89244637861361
90019,Los Angeles County,CA,53.124028598072734
90022,Los Angeles County,CA,48.958657133975755
90027,Los Angeles County,CA,67.64065899906745
90039,Los Angeles County,CA,66.83245259558595
90044,Los Angeles County,CA,2.7043829654958036
90046,Los Angeles County,CA,32.11066210755362
90048,Los Angeles County,CA,93.19241529375194
90049,Los Angeles County,CA,89.8974199564812
90065,Los Angeles County,CA,36.027354678271685
90066,Los Angeles County,CA,56.014920733602736
90220,Los Angeles County,CA,17.749456014920735
90221,Los Angeles County,CA,59.40317065589058
90232,Los Angeles County,CA,86.9132732359341
90247,Los Angeles County,CA,61.48585638793907
90254,Los Angeles County,CA,68.20018650917004
90255,Los Angeles County,CA,15.355921666148586
90262,Los Angeles County,CA,19.117189928504818
90266,Los Angeles County,CA,42.36866645943426
90270,Los Angeles County,CA,87.75256450108797
90292,Los Angeles County,CA,78.64470003108485
90602,Los Angeles County,CA,43.64314578800124
90603,Los Angeles County,CA,62.23189306807585
90604,Los Angeles County,CA,65.86882188374261
90606,Los Angeles County,CA,33.416226297792974
90631,Orange County,CA,87.5349704693814
90638,Los Angeles County,CA,64.37674852346908
90650,Los Angeles County,CA,29.90363692881567
90670,Los Angeles County,CA,87.93907367112216
90680,Orange County,CA,39.10475598383587
90701,Los Angeles County,CA,78.58253030774013
90703,Los Angeles County,CA,81.13148896487411
90706,Los Angeles County,CA,38.172210133664905
90710,Los Angeles County,CA,65.27820951196766
90713,Los Angeles County,CA,48.24370531551135
90715,Los Angeles County,CA,70.749145166304
90723,Los Angeles County,CA,32.98103823437985
90744,Los Angeles County,CA,67.64065899906745
90746,Los Angeles County,CA,60.46005595275101
90802,Los Angeles County,CA,87.03761268262356
90803,Los Angeles County,CA,89.21355299968916
90804,Los Angeles County,CA,71.27758781473422
90806,Los Angeles County,CA,36.24494870997824
90813,Los Angeles County,CA,91.85576624184021
91006,Los Angeles County,CA,70.1274479328567
91007,Los Angeles County,CA,81.25582841156357
91016,Los Angeles County,CA,66.64594342555176
91030,Los Angeles County,CA,97.94839912962388
91104,Los Angeles County,CA,79.35965184954927
91202,Los Angeles County,CA,96.54958035436742
91206,Los Angeles County,CA,78.80012433944668
91306,Los Angeles County,CA,68.35561081753187
91311,Los Angeles County,CA,64.84302144855455
91324,Los Angeles County,CA,57.973267018961764
91325,Los Angeles County,CA,58.75038856077091
91326,Los Angeles County,CA,72.48989741995648
91331,Los Angeles County,CA,80.38545228473734
91335,Los Angeles County,CA,16.226297792974822
91342,Los Angeles County,CA,50.94808828100715
91343,Los Angeles County,CA,87.69039477774324
91345,Los Angeles County,CA,71.12216350637239
91361,Ventura County,CA,75.87814734224433
91401,Los Angeles County,CA,91.91793596518497
91402,Los Angeles County,CA,92.75722723033883
91405,Los Angeles County,CA,96.95368355610817
91406,Los Angeles County,CA,61.57911097295617
91411,Los Angeles County,CA,99.813490829965815
91423,Los Angeles County,CA,51.88063413117811
91601,Los Angeles County,CA,73.7332918868511
91602,Los Angeles County,CA,63.350948088281015
91605,Los Angeles County,CA,58.37737022070252
91732,Los Angeles County,CA,24.059682934410944
91744,Los Angeles County,CA,8.579421821572893
91745,Los Angeles County,CA,47.90177183711533
91752,Riverside County,CA,32.48368044762201
91762,San Bernardino County,CA,19.148274790177183
91766,Los Angeles County,CA,23.469070562635995
91776,Los Angeles County,CA,69.44358097606465
91910,San Diego County,CA,12.620453838980417
91911,San Diego County,CA,54.49176251165683
91932,San Diego County,CA,59.21666148585639
91941,San Diego County,CA,38.76282250543986
91950,San Diego County,CA,65.83773702207026
92009,San Diego County,CA,83.92912651538701
92011,San Diego County,CA,67.26764065899907
92014,San Diego County,CA,86.9132732359341
92019,San Diego County,CA,57.41373950885919
92025,San Diego County,CA,73.23593410009326
92027,San Diego County,CA,27.976375505129003
92028,San Diego County,CA,43.42555175629468
92037,San Diego County,CA,65.49580354367424
92054,San Diego County,CA,55.39322350015542
92065,San Diego County,CA,29.996891513832765
92071,San Diego County,CA,55.859496425240906
92075,San Diego County,CA,76.0024867889338
92078,San Diego County,CA,34.06900839291265
92081,San Diego County,CA,51.91171899285049
92082,San Diego County,CA,77.58781473422444
92101,San Diego County,CA,79.54616101958347
92103,San Diego County,CA,27.0749145166304
92104,San Diego County,CA,40.690083929126516
92105,San Diego County,CA,67.45414982903326
92107,San Diego County,CA,47.746347528753496
92108,San Diego County,CA,70.43829654958036
92113,San Diego County,CA,37.67485234690706
92115,San Diego County,CA,44.51352191482748
92116,San Diego County,CA,56.60553310537768
92119,San Diego County,CA,93.75194280385453
92122,San Diego County,CA,86.85110351258936
92123,San Diego County,CA,47.06248057196146
92126,San Diego County,CA,56.20142990363692
92127,San Diego County,CA,74.04414050357477
92128,San Diego County,CA,54.39850792663973
92129,San Diego County,CA,79.11097295617034
92130,San Diego County,CA,71.6506061548026
92131,San Diego County,CA,91.07864470003109
92173,San Diego County,CA,82.59247746347529
92201,Riverside County,CA,11.812247435498913
92203,Riverside County,CA,78.86229406279142
92225,Riverside County,CA,57.973267018961764
92230,Riverside County,CA,99.84457569163817
92234,Riverside County,CA,94.83991296238732
92236,Riverside County,CA,25.73826546471868
92240,Riverside County,CA,10.755362138638484
92252,San Bernardino County,CA,94.24930059061238
92253,Riverside County,CA,90.7988809449798
92284,San Bernardino County,CA,39.291265153870064
92311,San Bernardino County,CA,85.35903015231582
92313,San Bernardino County,CA,89.5244016164128
92324,San Bernardino County,CA,50.60615480261112
92335,San Bernardino County,CA,77.92974821262045
92336,San Bernardino County,CA,20.422754118744173
92345,San Bernardino County,CA,20.51600870376127
92346,San Bernardino County,CA,57.32048492384209
92371,San Bernardino County,CA,87.19303699098539
92373,San Bernardino County,CA,49.704693814112524
92376,San Bernardino County,CA,3.761268262356233
92404,San Bernardino County,CA,8.237488343176873
92407,San Bernardino County,CA,29.8725520671433
92410,San Bernardino County,CA,83.8358719303699
92501,Riverside County,CA,98.35250233136462
92506,Riverside County,CA,53.21728318308983
92507,Riverside County,CA,24.21510724277277
92508,Riverside County,CA,64.40783338514143
92509,Riverside County,CA,53.96331986322661
92532,Riverside County,CA,50.48181535592167
92544,Riverside County,CA,29.406279142057816
92551,Riverside County,CA,73.95088591855766
92555,Riverside County,CA,79.98134908299657
92582,Riverside County,CA,53.497046938141125
92585,Riverside County,CA,83.15200497357786
92591,Riverside County,CA,29.03326080198943
92592,Riverside County,CA,69.50575069940939
92596,Riverside County,CA,55.2377991917936
92606,Orange County,CA,63.5374572583152
92618,Orange County,CA,42.897109107864466
92620,Orange County,CA,25.45850170966739
92626,Orange County,CA,24.867889337892446
92646,Orange County,CA,12.962387317376436
92653,Orange County,CA,79.39073671122163
92656,Orange County,CA,18.650917003419334
92675,Orange County,CA,72.83183089835251
92679,Orange County,CA,41.28069630090146
92683,Orange County,CA,81.16257382654646
92688,Orange County,CA,20.857942182157288
92692,Orange County,CA,22.847373329188684
92694,Orange County,CA,37.02207025178738
92701,Orange County,CA,57.66241840223812
92703,Orange County,CA,67.60957413739509
92704,Orange County,CA,46.09884986011812
92705,Orange County,CA,53.497046938141125
92707,Orange County,CA,24.83680447622008
92801,Orange County,CA,18.495492695057507
92804,Orange County,CA,55.548647808517245
92805,Orange County,CA,13.0867267640659
92806,Orange County,CA,89.58657133975754
92840,Orange County,CA,87.0997824059683
92865,Orange County,CA,85.79421821572893
92886,Orange County,CA,16.00870376126826
93003,Ventura County,CA,7.336027354678272
93010,Ventura County,CA,18.526577556729872
93013,Santa Barbara County,CA,93.5965184954927
93033,Ventura County,CA,5.03574759092322
93221,Tulare County,CA,90.23935343487722
93230,Kings County,CA,48.21262045383898
93247,Tulare County,CA,60.61548026111284
93267,Tulare County,CA,97.32670189617656
93309,Kern County,CA,16.847995026422133
93314,Kern County,CA,84.1156356854212
93454,Santa Barbara County,CA,16.101958346285357
93455,Santa Barbara County,CA,17.158843643145786
93458,Santa Barbara County,CA,64.68759714019272
93510,Los Angeles County,CA,89.24463786136153
93552,Los Angeles County,CA,66.64594342555176
93610,Madera County,CA,86.75784892757227
93611,Fresno County,CA,66.49051911718993
93612,Fresno County,CA,92.19769972023624
93618,Tulare County,CA,91.10972956170345
93619,Fresno County,CA,69.72334473111594
93631,Fresno County,CA,55.17562946844886
93635,Merced County,CA,23.127137084239976
93637,Madera County,CA,72.14796394156046
93638,Madera County,CA,48.70997824059683
93646,Fresno County,CA,76.31333540565744
93654,Fresno County,CA,34.44202673298104
93662,Fresno County,CA,36.52471246502953
93703,Fresno County,CA,25.613926018029222
93706,Fresno County,CA,11.345974510413429
93710,Fresno County,CA,42.24432701274479
93711,Fresno County,CA,47.90177183711533
93722,Fresno County,CA,73.70220702517874
93726,Fresno County,CA,71.77494560149206
93727,Fresno County,CA,70.99782405968294
93905,Monterey County,CA,88.56077090456948
93906,Monterey County,CA,89.46223189306808
93907,Monterey County,CA,60.05595275101025
93926,Monterey County,CA,96.14547715262667
93927,Monterey County,CA,79.82592477463474
93933,Monterey County,CA,45.66366179670501
93940,Monterey County,CA,32.91886851103513
93955,Monterey County,CA,22.31893068075847
94010,San Mateo County,CA,61.454771526266704
94014,San Mateo County,CA,71.9303699098539
94015,San Mateo County,CA,70.68697544295928
94024,Santa Clara County,CA,69.53683556108176
94025,San Mateo County,CA,74.13739508859184
94028,San Mateo County,CA,97.79297482126205
94030,San Mateo County,CA,78.24059682934411
94041,Santa Clara County,CA,92.91265153870066
94062,San Mateo County,CA,65.43363382032949
94063,San Mateo County,CA,90.20826857320485
94066,San Mateo County,CA,94.24930059061238
94080,San Mateo County,CA,62.35623251476531
94086,Santa Clara County,CA,40.65899906745415
94087,Santa Clara County,CA,82.96549580354367
94102,San Francisco County,CA,54.21199875660553
94107,San Francisco County,CA,84.9238420889027
94109,San Francisco County,CA,41.591544917625114
94110,San Francisco County,CA,5.781784271059994
94112,San Francisco County,CA,82.9344109418713
94116,San Francisco County,CA,96.61175007771216
94118,San Francisco County,CA,89.3378924463786
94122,San Francisco County,CA,91.26515387006528
94124,San Francisco County,CA,66.80136773391358
94127,San Francisco County,CA,95.64811936586882
94131,San Francisco County,CA,71.18433322971713
94134,San Francisco County,CA,96.51849549269505
94303,San Mateo County,CA,14.454460677649985
94306,Santa Clara County,CA,95.52377991917936
94403,San Mateo County,CA,32.359341000932545
94404,San Mateo County,CA,77.52564501087971
94513,Contra Costa County,CA,19.055020205160087
94530,Contra Costa County,CA,83.08983525023314
94538,Alameda County,CA,58.15977618899596
94541,Alameda County,CA,37.426173453528136
94544,Alameda County,CA,8.672676406589991
94552,Alameda County,CA,80.44762200808206
94553,Contra Costa County,CA,24.339446689462232
94558,Napa County,CA,16.412806963009015
94577,Alameda County,CA,20.671433012123096
94578,Alameda County,CA,30.929437364003732
94583,Contra Costa County,CA,62.07646875971402
94601,Alameda County,CA,79.63941560460056
94612,Alameda County,CA,57.444824370531556
94619,Alameda County,CA,83.36959900528443
94621,Alameda County,CA,45.04196456325769
94702,Alameda County,CA,70.749145166304
94706,Alameda County,CA,82.00186509170034
94806,Contra Costa County,CA,18.96176562014299
94901,Marin County,CA,84.73733291886852
94928,Sonoma County,CA,87.19303699098539
94939,Marin County,CA,96.61175007771216
94941,Marin County,CA,54.553932235001554
94949,Marin County,CA,62.51165682312714
95014,Santa Clara County,CA,72.24121852657755
95023,San Benito County,CA,41.18744171588437
95035,Santa Clara County,CA,89.86633509480882
95037,Santa Clara County,CA,36.61796705004663
95062,Santa Cruz County,CA,97.10910786447
95076,Santa Cruz County,CA,49.73577867578489
95118,Santa Clara County,CA,42.46192104445135
95122,Santa Clara County,CA,27.1681691016475
95123,Santa Clara County,CA,21.479639415604602
95133,Santa Clara County,CA,89.5244016164128
95136,Santa Clara County,CA,39.01150139881878
95206,San Joaquin County,CA,10.599937830276655
95210,San Joaquin County,CA,22.070251787379547
95327,Tuolumne County,CA,75.38078955548649
95340,Merced County,CA,19.956481193658686
95341,Merced County,CA,38.04787068697544
95355,Stanislaus County,CA,18.091389493316754
95358,Stanislaus County,CA,77.55672987255207
95363,Stanislaus County,CA,41.84022381100404
95367,Stanislaus County,CA,34.93938451973889
95380,Stanislaus County,CA,14.174696922598695
95482,Mendocino County,CA,20.951196767174384
95490,Mendocino County,CA,80.23002797637551
95540,Humboldt County,CA,38.451973888716196
95628,Sacramento County,CA,42.21324215107243
95687,Solano County,CA,21.82157289400062
95694,Yolo County,CA,90.23935343487722
95826,Sacramento County,CA,63.133354056574454
95833,Sacramento County,CA,52.68884053465962
95835,Sacramento County,CA,48.39912962387317
95838,Sacramento County,CA,20.236244948709977
95993,Sutter County,CA,27.78986633509481
96003,Shasta County,CA,70.5004662729251
96007,Shasta County,CA,73.91980105688529
80004,Jefferson County,CO,36.71122163506372
80005,Jefferson County,CO,67.64065899906745
80010,Arapahoe County,CO,9.014609884986012
80011,Arapahoe County,CO,3.0152315822194593
80012,Arapahoe County,CO,76.28225054398507
80013,Arapahoe County,CO,4.196456325769351
80014,Arapahoe County,CO,16.754740441405037
80017,Arapahoe County,CO,21.75940317065589
80027,Boulder County,CO,41.18744171588437
80030,Adams County,CO,57.16506061548026
80033,Jefferson County,CO,30.463164438918245
80104,Douglas County,CO,36.77339135840845
80109,Douglas County,CO,75.7227230338825
80110,Arapahoe County,CO,47.21790488032328
80127,Jefferson County,CO,28.1628846751632
80128,Jefferson County,CO,79.95026422132422
80134,Douglas County,CO,13.024557040721168
80136,Adams County,CO,96.26981659931614
80205,Denver County,CO,5.750699409387628
80207,Denver County,CO,78.86229406279142
80209,Denver County,CO,93.25458501709667
80210,Denver County,CO,35.40565744482437
80212,Denver County,CO,89.30680758470625
80219,Denver County,CO,11.656823127137084
80220,Denver County,CO,18.86851103512589
80227,Jefferson County,CO,38.04787068697544
80228,Jefferson County,CO,63.879390736711215
80229,Adams County,CO,25.707180603046314
80231,Denver County,CO,67.11221635063724
80233,Adams County,CO,13.490829965806652
80237,Denver County,CO,55.082374883431775
80239,Denver County,CO,37.55051290021759
80241,Adams County,CO,64.40783338514143
80301,Boulder County,CO,39.53994404724899
80503,Boulder County,CO,84.0223811004041
80524,Larimer County,CO,60.584395399440474
80547,Larimer County,CO,96.4874106310227
80601,Adams County,CO,18.308983525023315
80602,Adams County,CO,27.63444202673298
80631,Weld County,CO,3.543674230649674
80751,Logan County,CO,24.961143922909542
80863,Teller County,CO,79.5150761579111
80916,El Paso County,CO,20.70251787379546
80921,El Paso County,CO,69.66117500777122
81507,Mesa County,CO,98.57009636307119
06010,Hartford County,CT,67.20547093565433
06016,Hartford County,CT,90.14609884986012
06029,Tolland County,CT,37.64376748523469
06032,Hartford County,CT,60.55331053776811
06033,Hartford County,CT,37.23966428349394
06037,Hartford County,CT,87.44171588436431
06040,Hartford County,CT,85.3901150139882
06042,Hartford County,CT,86.1050668324526
06051,Hartford County,CT,78.30276655268884
06052,Hartford County,CT,83.08983525023314
06053,Hartford County,CT,50.979173142679514
06066,Tolland County,CT,29.561703450419646
06067,Hartford County,CT,48.865402548958656
06070,Hartford County,CT,82.90332608019895
06071,Tolland County,CT,67.48523469070562
06082,Hartford County,CT,9.201119055020206
06095,Hartford County,CT,23.096052222567607
06106,Hartford County,CT,65.62014299036369
06108,Hartford County,CT,60.273546782716814
06109,Hartford County,CT,43.64314578800124
06110,Hartford County,CT,63.94156046005596
06111,Hartford County,CT,88.93378924463786
06112,Hartford County,CT,59.34100093254585
06114,Hartford County,CT,8.113148896487411
06118,Hartford County,CT,55.704072116879075
06120,Hartford County,CT,30.245570407211687
06226,Windham County,CT,7.709045694746658
06250,Tolland County,CT,90.64345663661797
06268,Tolland County,CT,85.54553932235002
06281,Windham County,CT,46.62729250854834
06401,New Haven County,CT,16.16412806963009
06405,New Haven County,CT,53.745725831520055
06410,New Haven County,CT,49.11408144233758
06413,Middlesex County,CT,69.66117500777122
06415,New London County,CT,63.59962698165993
06416,Middlesex County,CT,52.067143301212305
06437,New Haven County,CT,82.312713708424
06443,New Haven County,CT,49.08299658066522
06451,New Haven County,CT,66.92570718060304
06469,Middlesex County,CT,99.03636928815666
06473,New Haven County,CT,75.25645010879701
06479,Hartford County,CT,64.74976686353746
06483,New Haven County,CT,44.60677649984458
06489,Hartford County,CT,88.15666770282871
06492,New Haven County,CT,34.50419645632577
06511,New Haven County,CT,35.68542119987566
06512,New Haven County,CT,36.027354678271685
06513,New Haven County,CT,74.32390425862604
06514,New Haven County,CT,84.76841778054087
06516,New Haven County,CT,30.52533416226298
06518,New Haven County,CT,86.16723655579732
06519,New Haven County,CT,73.29810382343798
06605,Fairfield County,CT,18.806341311781164
06606,Fairfield County,CT,29.90363692881567
06608,Fairfield County,CT,82.77898663350948
06610,Fairfield County,CT,14.330121230960522
06611,Fairfield County,CT,57.88001243394467
06614,Fairfield County,CT,79.26639726453217
06702,New Haven County,CT,68.85296860428971
06704,New Haven County,CT,35.374572583152
06705,New Haven County,CT,36.089524401616416
06706,New Haven County,CT,95.27510102580044
06710,New Haven County,CT,38.32763444202673
06770,New Haven County,CT,11.843332297171278
06776,Litchfield County,CT,76.46875971401927
06795,Litchfield County,CT,96.73608952440162
06810,Fairfield County,CT,66.11750077712153
06825,Fairfield County,CT,92.3220391669257
06830,Fairfield County,CT,82.40596829344109
06831,Fairfield County,CT,62.41840223811004
06851,Fairfield County,CT,92.25986944358098
06854,Fairfield County,CT,26.484302144855455
06901,Fairfield County,CT,97.57538078955548
06902,Fairfield County,CT,76.81069319241529
19701,New Castle County,DE,14.0814423375816
19703,New Castle County,DE,39.78862294062792
19709,New Castle County,DE,34.03792353124029
19720,New Castle County,DE,8.050979173142679
19805,New Castle County,DE,8.206403481504507
19901,Kent County,DE,8.455082374883432
19904,Kent County,DE,25.023313646254273
19958,Sussex County,DE,79.7015853279453
19977,Kent County,DE,53.87006527820951
32043,Clay County,FL,26.142368666459436
32055,Columbia County,FL,69.13273235934099
32112,Putnam County,FL,86.41591544917625
32114,Volusia County,FL,72.70749145166305
32117,Volusia County,FL,18.277898663350946
32136,Flagler County,FL,92.88156667702829
32137,Flagler County,FL,33.758159776189
32207,Duval County,FL,8.703761268262356
32208,Duval County,FL,4.072116879079888
32209,Duval County,FL,1.67858253030774
32217,Duval County,FL,52.19148274790177
32223,Duval County,FL,77.02828722412185
32244,Duval County,FL,2.0826857320484926
32257,Duval County,FL,37.954616101958344
32277,Duval County,FL,11.283804787068698
32310,Leon County,FL,84.39539944047249
32311,Leon County,FL,79.85700963630713
32404,Bay County,FL,12.029841467205472
32405,Bay County,FL,13.677339135840846
32455,Walton County,FL,68.26235623251476
32503,Escambia County,FL,34.00683866956792
32505,Escambia County,FL,8.890270438296549
32536,Okaloosa County,FL,40.28598072738576
32541,Okaloosa County,FL,47.15573515697855
32548,Okaloosa County,FL,44.60677649984458
32563,Santa Rosa County,FL,18.06030463164439
32566,Santa Rosa County,FL,19.5834628535903
32607,Alachua County,FL,9.480882810071495
32608,Alachua County,FL,2.9219769972023624
32609,Alachua County,FL,33.10537768106932
32724,Volusia County,FL,77.05937208579422
32773,Seminole County,FL,29.157600248678893
32792,Orange County,FL,40.0683866956792
32806,Orange County,FL,52.004973577867574
32821,Orange County,FL,64.625427416848
32824,Orange County,FL,25.2719925396332
32827,Orange County,FL,92.44637861361517
32835,Orange County,FL,38.66956792042275
32837,Orange County,FL,10.226919490208267
32904,Brevard County,FL,59.34100093254585
32927,Brevard County,FL,34.25551756294685
32967,Indian River County,FL,28.380478706869756
33016,Miami-Dade County,FL,35.18806341311781
33020,Broward County,FL,15.822194591234068
33021,Broward County,FL,28.598072738576313
33025,Broward County,FL,15.60460055952751
33029,Broward County,FL,40.783338514143615
33033,Miami-Dade County,FL,24.463786136151693
33067,Broward County,FL,60.70873484612993
33135,Miami-Dade County,FL,56.72987255206714
33147,Miami-Dade County,FL,62.44948709978241
33150,Miami-Dade County,FL,61.6412806963009
33162,Miami-Dade County,FL,38.85607709045695
33170,Miami-Dade County,FL,86.1050668324526
33180,Miami-Dade County,FL,62.729250854833694
33186,Miami-Dade County,FL,31.520049735778677
33311,Broward County,FL,2.6732981038234382
33313,Broward County,FL,10.413428660242461
33414,Palm Beach County,FL,26.764065899906747
33415,Palm Beach County,FL,24.961143922909542
33436,Palm Beach County,FL,36.52471246502953
33510,Hillsborough County,FL,36.4625427416848
33544,Pasco County,FL,63.69288156667703
33563,Hillsborough County,FL,28.90892135529997
33565,Hillsborough County,FL,52.471246502953065
33566,Hillsborough County,FL,38.54522847373329
33567,Hillsborough County,FL,94.34255517562947
33570,Hillsborough County,FL,71.49518184644079
33572,Hillsborough County,FL,65.09170034193347
33578,Hillsborough County,FL,19.45912340690084
33579,Hillsborough County,FL,52.87534970469382
33592,Hillsborough County,FL,59.21666148585639
33605,Hillsborough County,FL,77.77432390425862
33610,Hillsborough County,FL,6.683245259558595
33612,Hillsborough County,FL,4.507304942493006
33613,Hillsborough County,FL,24.090767796083306
33617,Hillsborough County,FL,89.61765620142991
33619,Hillsborough County,FL,19.738887161952128
33647,Hillsborough County,FL,32.11066210755362
33702,Pinellas County,FL,33.04320795772459
33705,Pinellas County,FL,41.715884364314576
33711,Pinellas County,FL,77.7121541809139
33713,Pinellas County,FL,34.659620764687595
33714,Pinellas County,FL,77.68106931924153
33763,Pinellas County,FL,69.10164749766864
33771,Pinellas County,FL,26.359962698165994
33772,Pinellas County,FL,60.77090456947467
33777,Pinellas County,FL,60.98849860118123
33805,Polk County,FL,76.93503263910476
33809,Polk County,FL,29.406279142057816
33813,Polk County,FL,40.87659309916071
33860,Polk County,FL,40.72116879079888
33991,Lee County,FL,48.02611128380478
34104,Collier County,FL,34.34877214796394
34286,Sarasota County,FL,66.70811314889649
34420,Marion County,FL,51.69412496114393
34470,Marion County,FL,30.960522225676097
34471,Marion County,FL,32.8566987876904
34475,Marion County,FL,71.24650295306186
34482,Marion County,FL,44.6689462231893
34638,Pasco County,FL,50.13988187752565
34698,Pinellas County,FL,34.93938451973889
34736,Lake County,FL,55.29996891513833
34741,Osceola County,FL,11.594653403792353
34758,Osceola County,FL,10.972956170345043
34759,Polk County,FL,51.78737954616102
34947,St. Lucie County,FL,34.566366179670496
34953,St. Lucie County,FL,2.113770593720858
34990,Martin County,FL,42.46192104445135
30004,Fulton County,GA,24.401616412806963
30008,Cobb County,GA,71.12216350637239
30016,Newton County,GA,62.822505439850794
30022,Fulton County,GA,23.220391669257072
30028,Forsyth County,GA,38.91824681380168
30034,DeKalb County,GA,15.511345974510412
30040,Forsyth County,GA,13.211066210755362
30052,Walton County,GA,48.36804476220081
30068,Cobb County,GA,87.37954616101959
30078,Gwinnett County,GA,68.88405346596208
30083,DeKalb County,GA,13.708423997513211
30087,DeKalb County,GA,41.43612060926329
30116,Carroll County,GA,28.62915760024868
30126,Cobb County,GA,25.520671433012122
30188,Cherokee County,GA,10.84861672365558
30228,Henry County,GA,43.92290954305253
30240,Troup County,GA,12.962387317376436
30253,Henry County,GA,13.335405657444824
30268,Fulton County,GA,62.10755362138638
30311,Fulton County,GA,45.166304009947154
30317,DeKalb County,GA,53.15511345974511
30328,Fulton County,GA,89.74199564811937
30338,DeKalb County,GA,54.460677649984454
30342,Fulton County,GA,65.37146409698477
30354,Fulton County,GA,72.7385763133354
30461,Bulloch County,GA,56.419023935343496
30549,Jackson County,GA,27.57227230338825
30701,Gordon County,GA,16.474976686353745
30721,Whitfield County,GA,11.905502020516009
30901,Richmond County,GA,75.10102580043518
31014,Bleckley County,GA,66.61485856387938
31023,Dodge County,GA,56.35685421199875
31036,Pulaski County,GA,53.06185887472801
31093,Houston County,GA,18.21572894000622
31204,Bibb County,GA,17.407522536524713
31316,Long County,GA,83.49393845197389
31401,Chatham County,GA,73.26701896176561
31406,Chatham County,GA,32.91886851103513
31535,Coffee County,GA,66.4283493938452
31558,Camden County,GA,48.678893378924464
31903,Muscogee County,GA,62.915760024867886
31907,Muscogee County,GA,3.3882499222878457
31909,Muscogee County,GA,92.601802921977
96707,Honolulu County,HI,48.772147963941556
96744,Honolulu County,HI,50.57506994093877
96753,Maui County,HI,60.46005595275101
96782,Honolulu County,HI,20.764687597140195
96792,Honolulu County,HI,40.845508237488346
96797,Honolulu County,HI,33.04320795772459
96814,Honolulu County,HI,50.35747590923221
96815,Honolulu County,HI,29.654958035436742
96817,Honolulu County,HI,5.160087037612683
83201,Bannock County,ID,65.0606154802611
83221,Bingham County,ID,41.09418713086727
83336,Minidoka County,ID,97.91731426795151
83440,Madison County,ID,76.4376748523469
83605,Canyon County,ID,40.96984768417781
83646,Ada County,ID,23.406900839291264
83647,Elmore County,ID,25.83152004973578
83651,Canyon County,ID,73.98197078023003
83814,Kootenai County,ID,18.61983214174697
60007,Cook County,IL,34.815045073049426
60008,Cook County,IL,74.75909232203917
60010,Lake County,IL,86.35374572583152
60015,Lake County,IL,80.1367733913584
60016,Cook County,IL,54.926950575069945
60021,McHenry County,IL,93.37892446378613
60025,Cook County,IL,70.34504196456326
60026,Cook County,IL,77.3391358408455
60030,Lake County,IL,90.39477774323905
60031,Lake County,IL,89.64874106310226
60033,McHenry County,IL,51.41436120609263
60035,Lake County,IL,85.07926639726453
60045,Lake County,IL,91.20298414672054
60046,Lake County,IL,67.08113148896487
60048,Lake County,IL,75.59838358719304
60053,Cook County,IL,81.16257382654646
60056,Cook County,IL,76.68635374572584
60060,Lake County,IL,73.640037301834
60061,Lake County,IL,72.30338824992228
60068,Cook County,IL,23.282561392601803
60070,Cook County,IL,75.78489275722723
60073,Lake County,IL,80.63413117811625
60084,Lake County,IL,87.7214796394156
60085,Lake County,IL,82.06403481504508
60089,Lake County,IL,68.10693192415293
60091,Cook County,IL,86.26049114081442
60097,McHenry County,IL,69.90985390115014
60099,Lake County,IL,23.717749456014918
60103,DuPage County,IL,14.672054709356544
60104,Cook County,IL,52.81317998134908
60106,DuPage County,IL,42.67951507615791
60108,DuPage County,IL,39.10475598383587
60123,Kane County,IL,10.506683245259559
60126,DuPage County,IL,36.58688218837426
60134,Kane County,IL,25.955859496425244
60137,DuPage County,IL,18.992850481815356
60160,Cook County,IL,32.54585017096674
60174,Kane County,IL,57.133975753807896
60201,Cook County,IL,70.90456947466583
60202,Cook County,IL,90.48803232825614
60304,Cook County,IL,37.4572583152005
60406,Cook County,IL,34.659620764687595
60446,Will County,IL,26.73298103823438
60449,Will County,IL,67.98259247746347
60451,Will County,IL,9.760646565122785
60477,Cook County,IL,56.66770282872241
60480,Cook County,IL,98.4768417780541
60491,Will County,IL,20.29841467205471
60502,DuPage County,IL,33.44731115946534
60503,Will County,IL,65.99316133043209
60504,DuPage County,IL,65.37146409698477
60505,Kane County,IL,44.109418713086725
60506,Kane County,IL,67.54740441405036
60510,Kane County,IL,65.02953061858875
60515,DuPage County,IL,23.3758159776189
60517,DuPage County,IL,76.90394777743239
60538,Kendall County,IL,39.69536835561082
60540,DuPage County,IL,59.55859496425241
60542,Kane County,IL,46.25427416847995
60544,Will County,IL,21.63506372396643
60546,Cook County,IL,59.62076468759714
60554,Kane County,IL,73.17376437674852
60558,Cook County,IL,68.66645943425553
60559,DuPage County,IL,26.080198943114702
60560,Kendall County,IL,93.2235001554243
60564,Will County,IL,21.417469692259868
60565,DuPage County,IL,16.38172210133665
60586,Will County,IL,44.016164128069626
60607,Cook County,IL,82.03294995337271
60609,Cook County,IL,4.3829654958035436
60615,Cook County,IL,12.558284115635685
60618,Cook County,IL,46.22318930680758
60620,Cook County,IL,2.7976375505129
60622,Cook County,IL,66.30400994715573
60623,Cook County,IL,87.87690394777744
60625,Cook County,IL,76.09574137395089
60626,Cook County,IL,32.17283183089835
60628,Cook County,IL,15.480261112838049
60630,Cook County,IL,36.77339135840845
60631,Cook County,IL,16.910164749766864
60632,Cook County,IL,42.58626049114081
60637,Cook County,IL,26.95057506994094
60639,Cook County,IL,4.009947155735158
60645,Cook County,IL,49.20733602735468
60646,Cook County,IL,74.23064967360895
60651,Cook County,IL,3.5125893689773076
60653,Cook County,IL,15.26266708113149
60655,Cook County,IL,15.045073049424932
60657,Cook County,IL,34.22443270127448
60659,Cook County,IL,86.07398197078024
60660,Cook County,IL,68.5110351258937
60804,Cook County,IL,9.72956170345042
60901,Kankakee County,IL,7.864470003108486
61021,Lee County,IL,17.314267951507617
61080,Winnebago County,IL,99.31613304320796
61109,Winnebago County,IL,26.764065899906747
61201,Rock Island County,IL,21.510724277276967
61364,LaSalle County,IL,78.11625738265465
61401,Knox County,IL,41.56046005595275
61462,Warren County,IL,85.32794529064346
61520,Fulton County,IL,96.33198632266087
61603,Peoria County,IL,47.00031084861672
61604,Peoria County,IL,83.30742928193969
61615,Peoria County,IL,89.8041653714641
61701,McLean County,IL,61.703450419645634
61705,McLean County,IL,62.66708113148896
61764,Livingston County,IL,51.38327634442027
61820,Champaign County,IL,53.745725831520055
62034,Madison County,IL,95.74137395088592
62040,Madison County,IL,10.040410320174075
62220,St. Clair County,IL,44.91762511656823
62626,Macoupin County,IL,81.56667702828723
62704,Sangamon County,IL,57.81784271059994
62946,Saline County,IL,63.350948088281015
46001,Madison County,IN,48.15045073049425
46011,Madison County,IN,30.556419023935344
46072,Tipton County,IN,60.14920733602735
46151,Morgan County,IN,38.54522847373329
46168,Hendricks County,IN,52.59558594964252
46208,Marion County,IN,19.52129313024557
46222,Marion County,IN,32.82561392601803
46241,Marion County,IN,70.28287224121853
46260,Marion County,IN,26.888405346596205
46307,Lake County,IN,0.7149518184644078
46310,Jasper County,IN,33.44731115946534
46320,Lake County,IN,19.272614236866644
46323,Lake County,IN,10.195834628535904
46341,Porter County,IN,43.61206092632888
46350,LaPorte County,IN,3.8234379857009637
46360,LaPorte County,IN,12.806963009014611
46375,Lake County,IN,17.531861983214174
46385,Porter County,IN,2.8598072738576312
46405,Lake County,IN,53.31053776810693
46507,Elkhart County,IN,90.05284426484302
46514,Elkhart County,IN,15.418091389493316
46517,Elkhart County,IN,29.53061858874728
46544,St. Joseph County,IN,28.8778364936276
46580,Kosciusko County,IN,27.1681691016475
46619,St. Joseph County,IN,35.09480882810072
46767,Noble County,IN,75.94031706558906
46992,Wabash County,IN,18.83742617345353
47106,Clark County,IN,94.90208268573205
47246,Bartholomew County,IN,97.66863537457259
47274,Jackson County,IN,41.31178116257382
47302,Delaware County,IN,68.63537457258315
47320,Delaware County,IN,99.2850481815356
47336,Jay County,IN,96.76717438607399
47396,Delaware County,IN,87.97015853279453
47401,Monroe County,IN,45.91234069008393
47501,Daviess County,IN,21.013366490519118
47546,Dubois County,IN,33.26080198943115
47601,Warrick County,IN,41.156356854212
47620,Posey County,IN,51.81846440783339
47630,Warrick County,IN,91.98010568852969
47710,Vanderburgh County,IN,91.45166304009948
47711,Vanderburgh County,IN,58.81255828411563
47725,Vanderburgh County,IN,88.12558284115636
47804,Vigo County,IN,41.0631022691949
47905,Tippecanoe County,IN,53.590301523158224
47906,Tippecanoe County,IN,35.716506061548024
50312,Polk County,IA,71.6506061548026
50315,Polk County,IA,18.153559216661485
50644,Buchanan County,IA,83.15200497357786
50701,Black Hawk County,IA,46.59620764687597
51106,Woodbury County,IA,29.499533727074915
51360,Dickinson County,IA,74.4482437053155
51503,Pottawattamie County,IA,17.998134908299658
51537,Shelby County,IA,74.66583773702207
51632,Page County,IA,58.65713397575381
52205,Jones County,IA,91.48274790177183
52233,Linn County,IA,78.147342244327
52246,Johnson County,IA,40.09947155735157
52301,Iowa County,IA,99.34721790488032
52310,Jones County,IA,80.35436742306497
52353,Washington County,IA,61.765620142990365
52404,Linn County,IA,3.668013677339136
52501,Wapello County,IA,6.496736089524402
52556,Jefferson County,IA,81.78427105999378
52632,Lee County,IA,23.03388249922288
52722,Scott County,IA,70.65589058128691
52742,Clinton County,IA,95.80354367423065
52753,Scott County,IA,89.95958967982592
52761,Muscatine County,IA,4.942493005906123
52804,Scott County,IA,58.34628535903015
52806,Scott County,IA,10.382343798570098
66025,Douglas County,KS,84.2088902704383
66044,Douglas County,KS,48.33695990052844
66046,Douglas County,KS,86.41591544917625
66083,Johnson County,KS,97.41995648119367
66102,Wyandotte County,KS,32.421510724277276
66103,Wyandotte County,KS,56.978551445446065
66106,Wyandotte County,KS,28.10071495181846
66202,Johnson County,KS,58.43953994404725
66208,Johnson County,KS,96.58066521603979
66213,Johnson County,KS,52.3469070562636
66216,Johnson County,KS,53.90115013988188
66502,Riley County,KS,88.06341311781163
66605,Shawnee County,KS,30.68075847062481
66614,Shawnee County,KS,19.39695368355611
67208,Sedgwick County,KS,60.8330742928194
67212,Sedgwick County,KS,43.42555175629468
67215,Sedgwick County,KS,98.32141746969226
67301,Montgomery County,KS,65.93099160708735
67601,Ellis County,KS,23.904258626049113
40006,Trimble County,KY,83.80478706869754
40031,Oldham County,KY,45.57040721168791
40071,Spencer County,KY,64.15915449176252
40165,Bullitt County,KY,43.301212309605226
40210,Jefferson County,KY,54.05657444824371
40212,Jefferson County,KY,38.76282250543986
40213,Jefferson County,KY,19.552377991917936
40241,Jefferson County,KY,31.83089835250233
40291,Jefferson County,KY,8.33074292819397
40324,Scott County,KY,6.123717749456015
40353,Montgomery County,KY,71.96145477152626
40383,Woodford County,KY,53.93223500155424
40403,Madison County,KY,35.561081753186194
40509,Fayette County,KY,62.884675163195524
40511,Fayette County,KY,22.31893068075847
40515,Fayette County,KY,30.245570407211687
40517,Fayette County,KY,34.721790488032326
40906,Knox County,KY,45.97451041342866
40977,Bell County,KY,34.06900839291265
41001,Campbell County,KY,72.2101336649052
41010,Grant County,KY,89.64874106310226
41011,Kenton County,KY,6.558905812869133
41015,Kenton County,KY,56.91638172210134
41017,Kenton County,KY,16.754740441405037
41035,Grant County,KY,27.261423686664592
41040,Pendleton County,KY,47.34224432701274
41042,Boone County,KY,38.82499222878458
41075,Campbell County,KY,51.69412496114393
41230,Lawrence County,KY,74.66583773702207
41501,Pike County,KY,61.299347217904874
42003,McCracken County,KY,6.900839291265154
42103,Warren County,KY,43.48772147963941
42104,Warren County,KY,24.55704072116879
42211,Trigg County,KY,42.803854522847374
42240,Christian County,KY,2.393534348772148
42262,Christian County,KY,95.18184644078333
42276,Logan County,KY,35.809760646565124
42330,Muhlenberg County,KY,51.16568231271371
42351,Hancock County,KY,91.73142679515077
42413,Hopkins County,KY,98.97419956481194
42420,Henderson County,KY,3.947777432390426
42431,Hopkins County,KY,35.84084550823749
42437,Union County,KY,80.66521603978862
42501,Pulaski County,KY,30.649673608952437
42718,Taylor County,KY,5.408765930991607
70001,Jefferson Parish,LA,44.23375815977619
70003,Jefferson Parish,LA,67.9515076157911
70043,St. Bernard Parish,LA,71.74386073981971
70047,St. Charles Parish,LA,98.44575691638173
70053,Jefferson Parish,LA,37.67485234690706
70056,Jefferson Parish,LA,11.159465340379235
70058,Jefferson Parish,LA,0.9325458501709667
70065,Jefferson Parish,LA,34.4731115946534
70068,St. John the Baptist Parish,LA,4.227541187441716
70070,St. Charles Parish,LA,40.87659309916071
70072,Jefferson Parish,LA,0.4351880634131178
70087,St. Charles Parish,LA,30.400994715573514
70092,St. Bernard Parish,LA,88.87161952129313
70094,Jefferson Parish,LA,1.8961765620142992
70117,Orleans Parish,LA,52.84426484302145
70119,Orleans Parish,LA,11.501398818775256
70122,Orleans Parish,LA,47.839602113770596
70125,Orleans Parish,LA,20.205160087037612
70126,Orleans Parish,LA,2.2691949020826856
70127,Orleans Parish,LA,30.836182778986633
70128,Orleans Parish,LA,91.38949331675474
70344,Terrebonne Parish,LA,47.46658377370221
70345,Lafourche Parish,LA,73.04942493005906
70346,Ascension Parish,LA,80.88281007149519
70364,Terrebonne Parish,LA,3.0774013055641904
70374,Lafourche Parish,LA,21.35529996891514
70380,St. Mary Parish,LA,10.817531861983214
70392,St. Mary Parish,LA,52.19148274790177
70394,Lafourche Parish,LA,33.19863226608641
70422,Tangipahoa Parish,LA,67.01896176562015
70437,St. Tammany Parish,LA,40.472489897419955
70438,Washington Parish,LA,6.092632887783649
70452,St. Tammany Parish,LA,10.164749766863537
70454,Tangipahoa Parish,LA,95.33727074914516
70460,St. Tammany Parish,LA,62.480571961454764
70461,St. Tammany Parish,LA,7.988809449797948
70471,St. Tammany Parish,LA,94.80882810071495
70657,Beauregard Parish,LA,74.04414050357477
70706,Livingston Parish,LA,17.56294684488654
70710,West Baton Rouge Parish,LA,81.56667702828723
70726,Livingston Parish,LA,52.377991917935965
70764,Iberville Parish,LA,18.86851103512589
70776,Iberville Parish,LA,93.56543363382033
70785,Livingston Parish,LA,8.361827789866336
70802,East Baton Rouge Parish,LA,2.2070251787379545
70805,East Baton Rouge Parish,LA,1.1190550202051601
70806,East Baton Rouge Parish,LA,5.937208579421822
70809,East Baton Rouge Parish,LA,84.17780540876592
70815,East Baton Rouge Parish,LA,7.304942493005906
70816,East Baton Rouge Parish,LA,71.61952129313025
70820,East Baton Rouge Parish,LA,94.65340379235312
71052,De Soto Parish,LA,75.87814734224433
71101,Caddo Parish,LA,96.82934410941871
71106,Caddo Parish,LA,27.945290643456637
71107,Caddo Parish,LA,87.9079888094498
71108,Caddo Parish,LA,36.897730805097915
71112,Bossier Parish,LA,5.7196145477152625
71202,Ouachita Parish,LA,24.65029530618589
71220,Morehouse Parish,LA,60.30463164438918
71295,Franklin Parish,LA,30.71184333229717
03901,York County,ME,91.94902082685732
03903,York County,ME,67.48523469070562
04038,Cumberland County,ME,63.31986322660864
04039,Cumberland County,ME,95.67920422754119
04055,Cumberland County,ME,99.44047248989743
04072,York County,ME,22.567609574137396
04074,Cumberland County,ME,47.528753497046935
04092,Cumberland County,ME,52.160397886229404
04093,York County,ME,94.37364003730183
04101,Cumberland County,ME,19.645632576935032
04102,Cumberland County,ME,19.24152937519428
04103,Cumberland County,ME,35.06372396642835
04210,Androscoggin County,ME,31.20920111905502
04240,Androscoggin County,ME,49.860118122474354
04282,Androscoggin County,ME,86.22940627914207
04330,Kennebec County,ME,13.242151072427728
04345,Kennebec County,ME,26.484302144855455
04401,Penobscot County,ME,89.92850481815356
04416,Hancock County,ME,98.75660553310539
04572,Lincoln County,ME,94.46689462231893
04901,Kennebec County,ME,11.936586882188374
04915,Waldo County,ME,53.403792353124025
04957,Somerset County,ME,56.978551445446065
04976,Somerset County,ME,7.460366801367734
20601,Charles County,MD,74.6347528753497
20602,Charles County,MD,56.07709045694747
20603,Charles County,MD,47.28007460366801
20613,Prince George's County,MD,68.41778054087659
20646,Charles County,MD,55.797326701896175
20708,Prince George's County,MD,62.60491140814424
20723,Howard County,MD,84.86167236555798
20740,Prince George's County,MD,79.60833074292819
20745,Prince George's County,MD,91.4205781784271
20747,Prince George's County,MD,85.63879390736712
20748,Prince George's County,MD,25.76935032639105
20759,Howard County,MD,96.0211377059372
20769,Prince George's County,MD,90.86105066832452
20794,Howard County,MD,75.6294684488654
20850,Montgomery County,MD,73.0183400683867
20855,Montgomery County,MD,95.89679825924775
20874,Montgomery County,MD,85.51445446067764
20895,Montgomery County,MD,76.22008082064035
20902,Montgomery County,MD,48.585638793907364
20910,Montgomery County,MD,67.32981038234381
20912,Montgomery County,MD,99.93783027665528
21015,Harford County,MD,52.87534970469382
21029,Howard County,MD,96.98476841778054
21032,Anne Arundel County,MD,93.44109418713087
21040,Harford County,MD,67.88933789244638
21042,Howard County,MD,97.57538078955548
21043,Howard County,MD,90.55020205160088
21044,Howard County,MD,81.93969536835561
21045,Howard County,MD,89.77308050979174
21048,Carroll County,MD,80.66521603978862
21050,Harford County,MD,53.21728318308983
21060,Anne Arundel County,MD,59.49642524090768
21061,Anne Arundel County,MD,35.934100093254585
21075,Howard County,MD,95.3994404724899
21076,Anne Arundel County,MD,86.97544295927882
21078,Harford County,MD,30.774013055641902
21085,Harford County,MD,52.315822194591235
21090,Anne Arundel County,MD,87.97015853279453
21093,Baltimore County,MD,78.73795461610196
21113,Anne Arundel County,MD,97.8240596829344
21114,Anne Arundel County,MD,91.57600248678894
21117,Baltimore County,MD,70.71806030463165
21122,Anne Arundel County,MD,44.91762511656823
21131,Baltimore County,MD,86.66459434255518
21133,Baltimore County,MD,67.32981038234381
21136,Baltimore County,MD,79.17314267951508
21140,Anne Arundel County,MD,98.725520671433
21146,Anne Arundel County,MD,75.16319552377992
21152,Baltimore County,MD,99.53372707491451
21157,Carroll County,MD,60.522225676095744
21158,Carroll County,MD,66.21075536213864
21208,Baltimore County,MD,69.28815666770282
21209,Baltimore County,MD,70.40721168790799
21211,Baltimore city,MD,53.807895554864785
21212,Baltimore city,MD,53.807895554864785
21213,Baltimore city,MD,9.325458501709667
21214,Baltimore city,MD,80.38545228473734
21215,Baltimore city,MD,32.048492384208885
21217,Baltimore city,MD,11.1905502020516
21220,Baltimore County,MD,30.36990985390115
21221,Baltimore County,MD,9.605222256760957
21228,Baltimore County,MD,87.47280074603668
21229,Baltimore city,MD,8.579421821572893
21230,Baltimore city,MD,96.45632576935033
21234,Baltimore County,MD,72.55206714330122
21237,Baltimore County,MD,33.94466894622319
21244,Baltimore County,MD,79.20422754118745
21286,Baltimore County,MD,95.67920422754119
21771,Frederick County,MD,71.49518184644079
21793,Frederick County,MD,75.06994093876283
21921,Cecil County,MD,7.056263599626981
01001,Hampden County,MA,89.0892135529997
01007,Hampshire County,MA,94.3114703139571
01027,Hampshire County,MA,52.71992539633199
01028,Hampden County,MA,26.111283804787067
01040,Hampden County,MA,4.787068697544296
01060,Hampshire County,MA,54.64718682001865
01075,Hampshire County,MA,22.4743549891203
01085,Hampden County,MA,12.775878147342246
01089,Hampden County,MA,1.5853279452906437
01104,Hampden County,MA,12.309605222256762
01107,Hampden County,MA,27.883120920111903
01108,Hampden County,MA,63.50637239664283
01109,Hampden County,MA,3.139571028908921
01119,Hampden County,MA,7.615791109729561
01151,Hampden County,MA,40.1616412806963
01201,Berkshire County,MA,49.17625116568231
01220,Berkshire County,MA,11.035125893689774
01247,Berkshire County,MA,39.508859185576625
01331,Worcester County,MA,1.771837115324837
01420,Worcester County,MA,3.574759092322039
01432,Middlesex County,MA,28.691327323593406
01451,Worcester County,MA,90.86105066832452
01453,Worcester County,MA,9.79173142679515
01462,Worcester County,MA,93.53434877214796
01464,Middlesex County,MA,49.39384519738887
01520,Worcester County,MA,55.1445446067765
01545,Worcester County,MA,29.002175940317066
01550,Worcester County,MA,0.40410320174075226
01564,Worcester County,MA,76.03357165060616
01590,Worcester County,MA,53.652471246502955
01603,Worcester County,MA,66.17967050046627
01604,Worcester County,MA,72.05470935654337
01609,Worcester County,MA,1.0879701585327946
01701,Middlesex County,MA,21.07553621386385
01702,Middlesex County,MA,0.46627292508548335
01721,Middlesex County,MA,46.09884986011812
01748,Middlesex County,MA,25.582841156356857
01749,Middlesex County,MA,9.884986011812247
01752,Middlesex County,MA,98.10382343798571
01760,Middlesex County,MA,20.64034815045073
01776,Middlesex County,MA,54.833695990052846
01803,Middlesex County,MA,9.978240596829343
01810,Essex County,MA,63.07118433322971
01824,Middlesex County,MA,19.02393534348772
01826,Middlesex County,MA,77.21479639415605
01830,Essex County,MA,4.5694746658377365
01832,Essex County,MA,20.049735778675785
01834,Essex County,MA,95.83462853590301
01835,Essex County,MA,45.228473733291885
01841,Essex County,MA,55.11345974510413
01843,Essex County,MA,46.93814112527199
01844,Essex County,MA,70.3139571028909
01845,Essex County,MA,14.267951507615791
01851,Middlesex County,MA,6.745414982903326
01852,Middlesex County,MA,0.09325458501709667
01854,Middlesex County,MA,24.2772769661175
01860,Essex County,MA,85.45228473733292
01862,Middlesex County,MA,57.38265464718681
01863,Middlesex County,MA,34.25551756294685
01864,Middlesex County,MA,29.219769972023624
01867,Middlesex County,MA,40.752253652471246
01876,Middlesex County,MA,76.87286291576002
01887,Middlesex County,MA,14.76530929437364
01902,Essex County,MA,13.521914827479018
01906,Essex County,MA,7.926639726453217
01915,Essex County,MA,5.502020516008703
01930,Essex County,MA,1.3677339135840845
01940,Essex County,MA,42.1510724277277
01960,Essex County,MA,0.2175940317065589
01966,Essex County,MA,98.63226608641592
01969,Essex County,MA,76.7174386073982
01970,Essex County,MA,0.3108486167236556
01982,Essex County,MA,55.48647808517252
02019,Norfolk County,MA,65.46471868200186
02026,Norfolk County,MA,1.8029219769972022
02050,Plymouth County,MA,10.00932545850171
02054,Norfolk County,MA,53.683556108175324
02062,Norfolk County,MA,64.12806963009015
02072,Norfolk County,MA,17.967050046627293
02090,Norfolk County,MA,46.28535903015232
02109,Suffolk County,MA,91.5138327634442
02118,Suffolk County,MA,0.062169723344731115
02119,Suffolk County,MA,0.031084861672365557
02120,Suffolk County,MA,12.838047870686975
02124,Suffolk County,MA,9.294373640037302
02125,Suffolk County,MA,15.26266708113149
02126,Suffolk County,MA,0.1554243083618278
02127,Suffolk County,MA,0.5595275101025801
02128,Suffolk County,MA,0.12433944668946223
02129,Suffolk County,MA,1.39881877525645
02130,Suffolk County,MA,3.2017407522536527
02131,Suffolk County,MA,0.5906123717749456
02132,Suffolk County,MA,62.10755362138638
02136,Suffolk County,MA,5.843953994404725
02139,Middlesex County,MA,1.056885296860429
02141,Middlesex County,MA,76.84177805408765
02143,Middlesex County,MA,12.744793285669878
02144,Middlesex County,MA,9.853901150139881
02145,Middlesex County,MA,65.21603978862294
02148,Middlesex County,MA,62.26297792974821
02149,Middlesex County,MA,84.08455082374884
02151,Suffolk County,MA,31.08486167236556
02155,Middlesex County,MA,36.928815666770284
02169,Norfolk County,MA,15.66677028287224
02171,Norfolk County,MA,85.54553932235002
02176,Middlesex County,MA,43.48772147963941
02180,Middlesex County,MA,5.5331053776810695
02186,Norfolk County,MA,43.021448554553935
02188,Norfolk County,MA,62.04538389804165
02301,Plymouth County,MA,39.94404724898975
02302,Plymouth County,MA,0.3730183400683867
02322,Norfolk County,MA,45.78800124339447
02324,Plymouth County,MA,38.234379857009635
02333,Plymouth County,MA,44.295927883120925
02339,Plymouth County,MA,50.79266397264532
02341,Plymouth County,MA,53.71464096984768
02343,Norfolk County,MA,21.572894000621698
02346,Plymouth County,MA,91.29623873173765
02359,Plymouth County,MA,15.138327634442028
02360,Plymouth County,MA,29.313024557040723
02368,Norfolk County,MA,0.777121541809139
02370,Plymouth County,MA,70.99782405968294
02445,Norfolk County,MA,40.22381100404103
02446,Norfolk County,MA,31.92415293751943
02451,Middlesex County,MA,38.296549580354366
02453,Middlesex County,MA,3.854522847373329
02460,Middlesex County,MA,41.871308672676406
02465,Middlesex County,MA,34.78396021137706
02474,Middlesex County,MA,6.030463164438919
02601,Barnstable County,MA,1.740752253652471
02648,Barnstable County,MA,57.973267018961764
02703,Bristol County,MA,2.6422132421510724
02715,Bristol County,MA,96.70500466272925
02721,Bristol County,MA,1.5231582219459123
02724,Bristol County,MA,41.99564811936587
02740,Bristol County,MA,0
02760,Bristol County,MA,4.75598383587193
02764,Bristol County,MA,94.5912340690084
02766,Bristol County,MA,8.828100714951818
02780,Bristol County,MA,9.17003419334784
02790,Bristol County,MA,84.3021448554554
48001,St. Clair County,MI,49.58035436742306
48003,Lapeer County,MI,73.45352813179981
48005,Macomb County,MI,80.54087659309917
48021,Macomb County,MI,4.320795772458812
48023,St. Clair County,MI,93.31675474044141
48030,Oakland County,MI,24.930059061237177
48033,Oakland County,MI,23.811004041032017
48034,Oakland County,MI,64.56325769350326
48035,Macomb County,MI,36.33820329499534
48042,Macomb County,MI,10.786447000310849
48043,Macomb County,MI,44.7622008082064
48044,Macomb County,MI,17.06558905812869
48045,Macomb County,MI,12.185265775567299
48051,Macomb County,MI,78.95554864780851
48060,St. Clair County,MI,29.468448865402546
48066,Macomb County,MI,1.3366490519117191
48067,Oakland County,MI,49.33167547404414
48075,Oakland County,MI,16.50606154802611
48076,Oakland County,MI,17.096673919801056
48083,Oakland County,MI,78.67578489275722
48085,Oakland County,MI,71.05999378302766
48088,Macomb County,MI,71.4019272614237
48089,Macomb County,MI,32.32825613926018
48091,Macomb County,MI,2.4246192104445137
48093,Macomb County,MI,79.73267018961766
48098,Oakland County,MI,39.69536835561082
48101,Wayne County,MI,11.40814423375816
48103,Washtenaw County,MI,6.963009014609884
48108,Washtenaw County,MI,50.41964563257694
48111,Wayne County,MI,79.14205781784271
48114,Livingston County,MI,61.921044451352195
48124,Wayne County,MI,9.574137395088592
48125,Wayne County,MI,64.8119365868822
48126,Wayne County,MI,36.74230649673609
48133,Monroe County,MI,96.0211377059372
48135,Wayne County,MI,35.871930369909855
48141,Wayne County,MI,72.64532172831831
48150,Wayne County,MI,68.57320484923842
48154,Wayne County,MI,37.61268262356233
48164,Wayne County,MI,77.7121541809139
48165,Oakland County,MI,82.34379857009635
48166,Monroe County,MI,95.86571339757538
48168,Wayne County,MI,34.34877214796394
48170,Wayne County,MI,6.3102269194902085
48174,Wayne County,MI,2.7665526888405347
48176,Washtenaw County,MI,23.50015542430836
48178,Oakland County,MI,83.77370220702518
48180,Wayne County,MI,17.656201429903636
48182,Monroe County,MI,41.24961143922909
48183,Wayne County,MI,76.99720236244949
48185,Wayne County,MI,71.27758781473422
48186,Wayne County,MI,13.459745104134285
48187,Wayne County,MI,49.30059061237178
48188,Wayne County,MI,5.812869132732359
48195,Wayne County,MI,37.115324836804476
48197,Washtenaw County,MI,50.66832452595585
48198,Washtenaw County,MI,0.9947155735156978
48202,Wayne County,MI,15.697855144544606
48205,Wayne County,MI,1.554243083618278
48206,Wayne County,MI,57.72458812558284
48207,Wayne County,MI,31.737643767485235
48210,Wayne County,MI,38.70065278209512
48211,Wayne County,MI,95.99005284426484
48212,Wayne County,MI,36.12060926328878
48213,Wayne County,MI,21.54180913894933
48214,Wayne County,MI,9.543052533416226
48215,Wayne County,MI,65.89990674541498
48219,Wayne County,MI,24.805719614547716
48221,Wayne County,MI,12.154180913894933
48223,Wayne County,MI,5.470935654336338
48224,Wayne County,MI,0.8703761268262356
48226,Wayne County,MI,85.23469070562636
48227,Wayne County,MI,39.477774323904256
48228,Wayne County,MI,74.38607398197078
48234,Wayne County,MI,3.1706558905812874
48235,Wayne County,MI,6.994093876282251
48237,Oakland County,MI,51.16568231271371
48239,Wayne County,MI,33.22971712775878
48301,Oakland County,MI,71.55735156978551
48307,Oakland County,MI,30.15231582219459
48309,Oakland County,MI,63.102269194902085
48310,Macomb County,MI,45.60149207336027
48312,Macomb County,MI,12.52719925396332
48316,Macomb County,MI,22.785203605843954
48317,Macomb County,MI,84.83058750388561
48322,Oakland County,MI,69.75442959278831
48326,Oakland County,MI,31.61330432079577
48327,Oakland County,MI,45.25955859496425
48335,Oakland County,MI,31.426795150761578
48336,Oakland County,MI,62.20080820640348
48340,Oakland County,MI,83.58719303699098
48341,Oakland County,MI,15.449176251165683
48342,Oakland County,MI,6.807584706248057
48346,Oakland County,MI,75.38078955548649
48359,Oakland County,MI,82.53030774013055
48362,Oakland County,MI,54.833695990052846
48371,Oakland County,MI,49.766863537457255
48377,Oakland County,MI,45.477152626670815
48383,Oakland County,MI,75.66055331053776
48393,Oakland County,MI,27.541187441715888
48421,Lapeer County,MI,80.97606465651228
48422,Sanilac County,MI,80.66521603978862
48423,Genesee County,MI,16.94124961143923
48430,Genesee County,MI,38.51414361206093
48433,Genesee County,MI,33.602735467827166
48451,Genesee County,MI,56.54336338203295
48458,Genesee County,MI,16.195212931302454
48462,Oakland County,MI,89.64874106310226
48463,Genesee County,MI,93.31675474044141
48504,Genesee County,MI,8.517252098228163
48506,Genesee County,MI,11.96767174386074
48532,Genesee County,MI,50.885918557662414
48603,Saginaw County,MI,5.129002175940317
48616,Saginaw County,MI,35.934100093254585
48726,Tuscola County,MI,73.17376437674852
48801,Gratiot County,MI,28.442648430214483
48823,Ingham County,MI,46.875971401927266
48843,Livingston County,MI,23.748834317687287
48846,Ionia County,MI,21.945912340690086
48855,Livingston County,MI,78.05408765930991
48872,Shiawassee County,MI,70.96673919801056
48893,Isabella County,MI,54.21199875660553
48895,Ingham County,MI,63.972645321728315
48910,Ingham County,MI,22.940627914205784
49006,Kalamazoo County,MI,30.867267640658998
49008,Kalamazoo County,MI,44.6689462231893
49009,Kalamazoo County,MI,5.31551134597451
49022,Berrien County,MI,4.165371464096985
49103,Berrien County,MI,73.85763133354057
49120,Berrien County,MI,6.71433012123096
49202,Jackson County,MI,17.84271059993783
49221,Lenawee County,MI,21.914827479017717
49256,Lenawee County,MI,98.88094497979483
49316,Kent County,MI,82.43705315511346
49341,Kent County,MI,14.827479017718371
49349,Newaygo County,MI,39.446689462231895
49404,Ottawa County,MI,74.54149829033261
49412,Newaygo County,MI,93.72085794218215
49418,Kent County,MI,50.66832452595585
49437,Muskegon County,MI,74.16847995026423
49442,Muskegon County,MI,19.925396331986324
49445,Muskegon County,MI,20.36058439539944
49504,Kent County,MI,64.71868200186509
49506,Kent County,MI,55.29996891513833
49507,Kent County,MI,1.9272614236866645
49508,Kent County,MI,48.834317687286294
49509,Kent County,MI,24.619210444513524
49512,Kent County,MI,77.27696611750078
49706,Emmet County,MI,86.66459434255518
49849,Marquette County,MI,28.535903015231582
49855,Marquette County,MI,25.89368977308051
49866,Marquette County,MI,38.04787068697544
55006,Isanti County,MN,99.56481193658688
55008,Isanti County,MN,53.21728318308983
55021,Rice County,MN,21.19987566055331
55025,Washington County,MN,78.27168169101647
55044,Dakota County,MN,60.77090456947467
55056,Chisago County,MN,61.765620142990365
55077,Dakota County,MN,77.58781473422444
55103,Ramsey County,MN,85.48336959900529
55106,Ramsey County,MN,51.50761579110973
55110,Ramsey County,MN,29.313024557040723
55122,Dakota County,MN,89.3378924463786
55124,Dakota County,MN,51.29002175940317
55128,Washington County,MN,59.52751010258004
55130,Ramsey County,MN,81.97078023002797
55303,Anoka County,MN,8.486167236555797
55305,Hennepin County,MN,60.21137705937208
55308,Sherburne County,MN,81.06931924152939
55309,Sherburne County,MN,94.777743239042593
55311,Hennepin County,MN,69.13273235934099
55313,Wright County,MN,64.00373018340069
55316,Hennepin County,MN,46.347528753497045
55330,Sherburne County,MN,24.15293751942804
55336,McLeod County,MN,85.98072738576313
55337,Dakota County,MN,84.3021448554554
55341,Wright County,MN,99.37830276655268
55343,Hennepin County,MN,84.67516319552378
55350,McLeod County,MN,14.734224432701273
55369,Hennepin County,MN,47.715262667081134
55372,Scott County,MN,95.92788312092011
55374,Hennepin County,MN,75.5362138638483
55379,Scott County,MN,39.384519738887164
55386,Carver County,MN,87.78364936276034
55387,Carver County,MN,58.43953994404725
55405,Hennepin County,MN,20.578178427106
55407,Hennepin County,MN,2.3313646254274167
55411,Hennepin County,MN,18.713086726764068
55412,Hennepin County,MN,68.91513832763444
55414,Hennepin County,MN,83.36959900528443
55416,Hennepin County,MN,97.45104134286603
55417,Hennepin County,MN,29.9658066521604
55419,Hennepin County,MN,26.85732048492384
55422,Hennepin County,MN,15.853279452906435
55423,Hennepin County,MN,9.51196767174386
55427,Hennepin County,MN,63.7239664283494
55428,Hennepin County,MN,32.17283183089835
55429,Hennepin County,MN,5.377681069319242
55443,Hennepin County,MN,61.11283804787069
55444,Hennepin County,MN,37.30183400683867
55448,Anoka County,MN,53.37270749145166
55449,Anoka County,MN,60.89524401616413
55804,St. Louis County,MN,51.75629468448866
55805,St. Louis County,MN,56.014920733602736
55912,Mower County,MN,2.5800435188063413
56001,Blue Earth County,MN,17.00341933478396
56003,Nicollet County,MN,95.61703450419645
56007,Freeborn County,MN,7.242772769661175
56071,Scott County,MN,93.75194280385453
56073,Brown County,MN,10.91078644700031
56258,Lyon County,MN,54.585017096673916
56265,Chippewa County,MN,57.16506061548026
56303,Stearns County,MN,61.01958346285359
56304,Sherburne County,MN,93.90736711221635
56334,Pope County,MN,70.749145166304
56364,Morrison County,MN,96.67391980105688
56401,Crow Wing County,MN,19.832141746969224
56425,Crow Wing County,MN,73.85763133354057
56501,Becker County,MN,21.88374261734535
56560,Clay County,MN,58.78147342244328
56601,Beltrami County,MN,2.2381100404103202
56621,Clearwater County,MN,63.75505129002176
56633,Hubbard County,MN,73.08050979173143
56721,Polk County,MN,34.566366179670496
56751,Roseau County,MN,74.54149829033261
38663,Tippah County,MS,50.82374883431768
38703,Washington County,MS,97.2956170345042
38737,Sunflower County,MS,98.04165371464097
38769,Bolivar County,MS,97.07802300279764
38824,Prentiss County,MS,78.3338514143612
38829,Prentiss County,MS,27.78986633509481
38834,Alcorn County,MS,32.17283183089835
38858,Monroe County,MS,83.0276655268884
38901,Grenada County,MS,66.36617967050047
38941,Leflore County,MS,94.06279142057818
39038,Humphreys County,MS,83.30742928193969
39056,Hinds County,MS,71.18433322971713
39063,Holmes County,MS,93.93845197388872
39071,Madison County,MS,90.08392912651539
39083,Copiah County,MS,82.18837426173454
39094,Leake County,MS,96.36307118433322
39111,Simpson County,MS,88.74728007460367
39117,Scott County,MS,61.98321417469692
39145,Rankin County,MS,85.98072738576313
39157,Madison County,MS,47.34224432701274
39170,Hinds County,MS,85.66987876903947
39180,Warren County,MS,25.20982281628847
39194,Yazoo County,MS,90.33260801989431
39202,Hinds County,MS,93.13024557040721
39203,Hinds County,MS,69.28815666770282
39204,Hinds County,MS,65.12278520360584
39206,Hinds County,MS,81.75318619832142
39208,Rankin County,MS,91.01647497668635
39209,Hinds County,MS,82.1262045383898
39211,Hinds County,MS,44.6689462231893
39212,Hinds County,MS,63.56854211998757
39213,Hinds County,MS,19.645632576935032
39339,Winston County,MS,77.80540876593099
39341,Noxubee County,MS,71.43301212309605
39350,Neshoba County,MS,13.304320795772458
39364,Lauderdale County,MS,98.69443580976065
39426,Pearl River County,MS,64.31457880012434
39573,Stone County,MS,92.25986944358098
39601,Lincoln County,MS,57.63133354056574
39629,Lincoln County,MS,95.05750699409387
39645,Amite County,MS,91.6070873484613
39648,Pike County,MS,9.667391980105688
39652,Pike County,MS,77.80540876593099
39654,Lawrence County,MS,84.2088902704383
39730,Monroe County,MS,59.09232203916692
63017,St. Louis County,MO,43.79857009636307
63021,St. Louis County,MO,25.05439850792664
63028,Jefferson County,MO,37.51942803854523
63040,St. Louis County,MO,90.76779608330743
63044,St. Louis County,MO,83.2141746969226
63051,Jefferson County,MO,44.35809760646565
63084,Franklin County,MO,34.25551756294685
63114,St. Louis County,MO,12.65153870065278
63119,St. Louis County,MO,84.14672054709357
63120,St. Louis city,MO,43.9539944047249
63123,St. Louis County,MO,20.795772458812557
63128,St. Louis County,MO,54.336338203295
63131,St. Louis County,MO,78.02300279763756
63138,St. Louis County,MO,61.33043207957725
63141,St. Louis County,MO,62.014299036369295
63301,St. Charles County,MO,6.154802611128381
63304,St. Charles County,MO,15.511345974510412
63334,Pike County,MO,84.9238420889027
63376,St. Charles County,MO,20.391669257071808
63379,Lincoln County,MO,92.13552999689152
63385,St. Charles County,MO,27.78986633509481
63640,St. Francois County,MO,22.940627914205784
63873,New Madrid County,MO,98.16599316133043
64012,Cass County,MO,13.86384830587504
64015,Jackson County,MO,5.87503885607709
64016,Jackson County,MO,89.27572272303388
64050,Jackson County,MO,7.149518184644078
64055,Jackson County,MO,2.9841467205470935
64080,Cass County,MO,42.61734535281318
64083,Cass County,MO,65.68231271370843
64111,Jackson County,MO,38.94933167547404
64114,Jackson County,MO,64.78085172520981
64116,Clay County,MO,95.46161019583462
64118,Clay County,MO,12.278520360584395
64119,Clay County,MO,21.230960522225676
64123,Jackson County,MO,25.147653092943735
64124,Jackson County,MO,99.1917935965185
64138,Jackson County,MO,4.818153559216661
64151,Platte County,MO,16.66148585638794
64152,Platte County,MO,9.418713086726765
64153,Platte County,MO,71.80603046316443
64155,Clay County,MO,95.11967671743861
64468,Nodaway County,MO,46.06776499844576
64633,Carroll County,MO,72.58315200497357
65020,Camden County,MO,55.797326701896175
65251,Callaway County,MO,60.18029219769973
65340,Saline County,MO,19.428038545228475
65355,Benton County,MO,32.7634442026733
65616,Taney County,MO,20.609263288778365
65737,Stone County,MO,91.32732359341001
65775,Howell County,MO,45.010879701585324
65802,Greene County,MO,4.538389804165371
59404,Cascade County,MT,55.98383587193037
59405,Cascade County,MT,14.951818464407834
59901,Flathead County,MT,16.72365557973267
68028,Sarpy County,NE,91.23406900839292
68066,Saunders County,NE,89.15138327634442
68107,Douglas County,NE,31.33354056574448
68111,Douglas County,NE,9.94715573515698
68112,Douglas County,NE,64.03481504507305
68130,Douglas County,NE,66.55268884053466
68132,Douglas County,NE,79.8880944979795
68136,Sarpy County,NE,85.79421821572893
68164,Douglas County,NE,94.09387628225055
68803,Hall County,NE,50.046627292508546
69101,Lincoln County,NE,11.563568542119988
89138,Clark County,NV,77.40130556419024
89408,Lyon County,NV,20.982281628846753
03038,Rockingham County,NH,24.308361827789867
03053,Rockingham County,NH,13.770593720857944
03054,Hillsborough County,NH,17.376437674852347
03060,Hillsborough County,NH,2.455704072116879
03062,Hillsborough County,NH,8.734846129934722
03071,Hillsborough County,NH,84.64407833385141
03076,Hillsborough County,NH,56.108175318619836
03079,Rockingham County,NH,76.40658999067455
03087,Rockingham County,NH,30.05906123717749
03106,Merrimack County,NH,63.133354056574454
03110,Hillsborough County,NH,37.58159776188996
03431,Cheshire County,NH,59.65184954926951
03755,Grafton County,NH,94.71557351569786
03801,Rockingham County,NH,61.17500777121542
03811,Rockingham County,NH,85.17252098228163
03841,Rockingham County,NH,84.48865402548958
03848,Rockingham County,NH,54.02548958657134
03858,Rockingham County,NH,70.09636307118433
03865,Rockingham County,NH,46.192104445135215
03867,Strafford County,NH,35.43674230649674
07002,Hudson County,NJ,49.051911718992855
07003,Essex County,NJ,3.91669257071806
07005,Morris County,NJ,17.904880323282562
07006,Essex County,NJ,68.97730805097918
07012,Passaic County,NJ,95.15076157911098
07013,Passaic County,NJ,23.53124028598073
07026,Bergen County,NJ,76.49984457569164
07027,Union County,NJ,98.35250233136462
07036,Union County,NJ,19.303699098539013
07042,Essex County,NJ,78.80012433944668
07043,Essex County,NJ,76.6241840223811
07047,Hudson County,NJ,11.68790798880945
07050,Essex County,NJ,4.4762200808206405
07052,Essex County,NJ,26.45321728318309
07055,Passaic County,NJ,74.10631022691949
07058,Morris County,NJ,93.65868821883743
07060,Union County,NJ,51.32110662107554
07066,Union County,NJ,97.76188995958968
07067,Middlesex County,NJ,55.735156978551444
07071,Bergen County,NJ,46.81380167858253
07072,Bergen County,NJ,79.04880323282562
07075,Bergen County,NJ,77.96083307429282
07083,Union County,NJ,7.429281939695369
07087,Hudson County,NJ,63.84830587503886
07090,Union County,NJ,59.96269816599317
07093,Hudson County,NJ,14.236866645943424
07095,Middlesex County,NJ,99.16070873484612
07102,Essex County,NJ,3.0463164438918247
07104,Essex County,NJ,69.59900528442648
07106,Essex County,NJ,24.184022381100405
07110,Essex County,NJ,55.64190239353435
07111,Essex County,NJ,16.692570718060303
07112,Essex County,NJ,8.765930991607087
07202,Union County,NJ,2.3624494870997825
07302,Hudson County,NJ,80.66521603978862
07304,Hudson County,NJ,8.175318619832142
07307,Hudson County,NJ,4.600559527510103
07405,Morris County,NJ,64.84302144855455
07407,Bergen County,NJ,71.55735156978551
07417,Bergen County,NJ,72.39664283493939
07452,Bergen County,NJ,95.36835561081753
07461,Sussex County,NJ,22.75411874417159
07501,Passaic County,NJ,69.9409387628225
07504,Passaic County,NJ,96.23873173764377
07512,Passaic County,NJ,86.60242461921045
07513,Passaic County,NJ,92.66397264532172
07514,Passaic County,NJ,70.9356543363382
07522,Passaic County,NJ,76.06465651227852
07524,Passaic County,NJ,60.08703761268263
07601,Bergen County,NJ,40.03730183400684
07607,Bergen County,NJ,57.69350326391047
07648,Bergen County,NJ,97.69972023624494
07650,Bergen County,NJ,47.46658377370221
07656,Bergen County,NJ,81.00714951818463
07666,Bergen County,NJ,25.334162262977927
07676,Bergen County,NJ,93.44109418713087
07704,Monmouth County,NJ,93.84519738887161
07721,Monmouth County,NJ,99.96891513832763
07731,Monmouth County,NJ,16.257382654647188
07734,Monmouth County,NJ,34.19334783960211
07735,Monmouth County,NJ,90.58128691327325
07740,Monmouth County,NJ,41.778054087659314
07764,Monmouth County,NJ,97.0158532794529
07821,Sussex County,NJ,69.2259869443581
07832,Warren County,NJ,94.90208268573205
07840,Warren County,NJ,18.6820018650917
07850,Morris County,NJ,81.72210133664906
07856,Morris County,NJ,99.72023624494871
07857,Morris County,NJ,98.4768417780541
07860,Sussex County,NJ,67.85825303077402
07863,Warren County,NJ,99.50264221324215
07869,Morris County,NJ,63.040099471557355
07871,Sussex County,NJ,78.147342244327
07876,Morris County,NJ,79.76375505129002
07920,Somerset County,NJ,91.88685110351258
07932,Morris County,NJ,80.29219769972023
07945,Morris County,NJ,92.97482126204538
07950,Morris County,NJ,42.0578178427106
07960,Morris County,NJ,60.95741373950886
08002,Camden County,NJ,63.59962698165993
08004,Camden County,NJ,64.96736089524401
08005,Ocean County,NJ,30.805097917314267
08012,Camden County,NJ,12.931302455704072
08015,Burlington County,NJ,7.118433322971712
08016,Burlington County,NJ,1.2433944668946224
08020,Gloucester County,NJ,99.47155735156979
08021,Camden County,NJ,1.3055641902393536
08030,Camden County,NJ,84.45756916381723
08031,Camden County,NJ,53.06185887472801
08033,Camden County,NJ,99.06745414982903
08034,Camden County,NJ,47.28007460366801
08043,Camden County,NJ,25.427416847995026
08046,Burlington County,NJ,2.3002797637550514
08049,Camden County,NJ,71.86820018650917
08052,Burlington County,NJ,14.267951507615791
08053,Burlington County,NJ,38.141125271992536
08054,Burlington County,NJ,37.177494560149206
08055,Burlington County,NJ,92.57071806030464
08056,Gloucester County,NJ,97.51321106621076
08057,Burlington County,NJ,92.85048181535592
08059,Camden County,NJ,59.9316133043208
08060,Burlington County,NJ,44.88654025489587
08062,Gloucester County,NJ,49.5492695057507
08065,Burlington County,NJ,52.75101025800435
08066,Gloucester County,NJ,40.938762822505446
08070,Salem County,NJ,59.43425551756295
08077,Burlington County,NJ,94.56014920733602
08079,Salem County,NJ,54.989120298414676
08080,Gloucester County,NJ,89.05812869132733
08081,Camden County,NJ,31.14703139571029
08085,Gloucester County,NJ,96.86042897109108
08090,Gloucester County,NJ,85.0170966739198
08091,Camden County,NJ,72.86291576002488
08093,Gloucester County,NJ,20.733602735467827
08094,Gloucester County,NJ,27.758781473422445
08096,Gloucester County,NJ,45.88125582841157
08097,Gloucester County,NJ,97.17127758781473
08107,Camden County,NJ,69.97202362449487
08108,Camden County,NJ,94.43580976064656
08201,Atlantic County,NJ,88.77836493627603
08204,Cape May County,NJ,33.94466894622319
08205,Atlantic County,NJ,77.46347528753496
08210,Cape May County,NJ,85.70096363071184
08215,Atlantic County,NJ,48.554553932235
08225,Atlantic County,NJ,83.58719303699098
08226,Cape May County,NJ,38.32763444202673
08232,Atlantic County,NJ,48.52346907056263
08234,Atlantic County,NJ,80.6030463164439
08244,Atlantic County,NJ,66.08641591544918
08302,Cumberland County,NJ,0.5284426484302145
08318,Salem County,NJ,36.18277898663351
08330,Atlantic County,NJ,76.34442026732981
08332,Cumberland County,NJ,26.826235623251478
08360,Cumberland County,NJ,35.996269816599316
08401,Atlantic County,NJ,21.106621075536214
08402,Atlantic County,NJ,77.27696611750078
08502,Somerset County,NJ,98.35250233136462
08505,Burlington County,NJ,68.47995026422133
08518,Burlington County,NJ,94.96425240907678
08520,Mercer County,NJ,75.34970469381412
08527,Ocean County,NJ,34.628535903015234
08540,Mercer County,NJ,50.17096673919801
08550,Mercer County,NJ,83.58719303699098
08610,Mercer County,NJ,53.46596207646876
08611,Mercer County,NJ,47.653092943736404
08618,Mercer County,NJ,0.27976375505129003
08648,Mercer County,NJ,24.77463475287535
08690,Mercer County,NJ,54.522847373329185
08701,Ocean County,NJ,89.9906745414983
08723,Ocean County,NJ,72.27230338824992
08731,Ocean County,NJ,50.26422132421511
08734,Ocean County,NJ,85.60770904569475
08753,Ocean County,NJ,61.42368666459434
08757,Ocean County,NJ,5.222256760957414
08758,Ocean County,NJ,67.76499844575692
08759,Ocean County,NJ,20.857942182157288
08802,Hunterdon County,NJ,100
08807,Somerset County,NJ,59.90052844264843
08816,Middlesex County,NJ,74.0130556419024
08817,Middlesex County,NJ,10.475598383587192
08820,Middlesex County,NJ,57.227230338824995
08822,Hunterdon County,NJ,65.21603978862294
08823,Somerset County,NJ,88.96487410631023
08824,Middlesex County,NJ,78.86229406279142
08835,Somerset County,NJ,29.25085483369599
08852,Middlesex County,NJ,62.977929748212624
08854,Middlesex County,NJ,3.232825613926018
08859,Middlesex County,NJ,92.01119055020204
08861,Middlesex County,NJ,4.6627292508548335
08863,Middlesex County,NJ,84.61299347217904
08865,Warren County,NJ,11.470313957102892
08869,Somerset County,NJ,93.93845197388872
08872,Middlesex County,NJ,77.86757848927573
08873,Somerset County,NJ,6.838669567920423
08901,Middlesex County,NJ,54.616101958346285
08902,Middlesex County,NJ,45.66366179670501
87001,Sandoval County,NM,96.92259869443582
87002,Valencia County,NM,30.400994715573514
87004,Sandoval County,NM,54.30525334162263
87059,Bernalillo County,NM,95.43052533416227
87102,Bernalillo County,NM,10.662107553621386
87105,Bernalillo County,NM,57.10289089213553
87106,Bernalillo County,NM,10.320174075225365
87110,Bernalillo County,NM,5.004662729250855
87111,Bernalillo County,NM,42.30649673608952
87112,Bernalillo County,NM,43.145788001243396
87114,Bernalillo County,NM,3.3260801989431146
87121,Bernalillo County,NM,58.65713397575381
87122,Bernalillo County,NM,90.17718371153248
87123,Bernalillo County,NM,5.564190239353435
87124,Sandoval County,NM,4.724898974199565
87401,San Juan County,NM,28.846751631955236
87532,Santa Fe County,NM,22.03916692570718
87544,Los Alamos County,NM,42.119987566055336
88021,Doa Ana County,NM,56.72987255206714
88130,Roosevelt County,NM,46.96922598694436
88203,Chaves County,NM,75.13211066210755
88220,Eddy County,NM,10.320174075225365
88240,Lea County,NM,2.175940317065589
88242,Lea County,NM,58.53279452906435
88310,Otero County,NM,11.75007771215418
10002,New York County,NY,62.573826546471864
10005,New York County,NY,88.8094497979484
10009,New York County,NY,3.7923531240285984
10011,New York County,NY,51.3521914827479
10013,New York County,NY,67.76499844575692
10019,New York County,NY,43.17687286291576
10021,New York County,NY,54.1498290332608
10023,New York County,NY,73.67112216350637
10024,New York County,NY,83.96021137705937
10025,New York County,NY,56.35685421199875
10026,New York County,NY,12.465029530618589
10027,New York County,NY,36.68013677339136
10029,New York County,NY,24.743549891202985
10031,New York County,NY,17.687286291576
10032,New York County,NY,66.39726453217283
10033,New York County,NY,58.19086105066833
10035,New York County,NY,2.051600870376127
10036,New York County,NY,50.4507304942493
10037,New York County,NY,76.188995958968
10038,New York County,NY,27.510102580043515
10039,New York County,NY,16.03978862294063
10075,New York County,NY,70.25178737954616
10304,Richmond County,NY,63.910475598383584
10305,Richmond County,NY,69.47466583773702
10306,Richmond County,NY,9.232203916692571
10309,Richmond County,NY,67.42306496736089
10312,Richmond County,NY,25.178737954616103
10314,Richmond County,NY,23.624494870997825
10451,Bronx County,NY,28.473733291886848
10452,Bronx County,NY,57.071806030463165
10454,Bronx County,NY,28.0696300901461
10455,Bronx County,NY,22.53652471246503
10456,Bronx County,NY,3.35716506061548
10457,Bronx County,NY,1.95834628535903
10458,Bronx County,NY,0.18650917003419334
10459,Bronx County,NY,11.625738265464719
10460,Bronx County,NY,0.6838669567920422
10462,Bronx County,NY,50.07771215418091
10463,Bronx County,NY,2.953061858874728
10466,Bronx County,NY,44.171588436431456
10467,Bronx County,NY,42.026732981038236
10468,Bronx County,NY,28.318308983525025
10469,Bronx County,NY,8.548336959900528
10470,Bronx County,NY,33.633820329499535
10472,Bronx County,NY,43.36338203294996
10473,Bronx County,NY,10.724277276966117
10591,Westchester County,NY,72.08579421821572
10601,Westchester County,NY,88.09449797948399
10605,Westchester County,NY,90.02175940317065
10701,Westchester County,NY,4.693814112527199
10705,Westchester County,NY,4.041032017407523
10801,Westchester County,NY,17.314267951507617
10923,Rockland County,NY,90.23935343487722
10954,Rockland County,NY,88.96487410631023
11102,Queens County,NY,85.73204849238421
11105,Queens County,NY,80.19894311470314
11201,Kings County,NY,51.56978551445446
11203,Kings County,NY,3.9788622940627913
11204,Kings County,NY,81.50450730494249
11205,Kings County,NY,83.52502331364626
11207,Kings County,NY,50.5439850792664
11208,Kings County,NY,61.610195834628534
11209,Kings County,NY,62.32514765309294
11210,Kings County,NY,24.867889337892446
11211,Kings County,NY,55.36213863848306
11212,Kings County,NY,15.728940006216972
11213,Kings County,NY,37.053155113459745
11214,Kings County,NY,27.385763133354057
11217,Kings County,NY,23.127137084239976
11218,Kings County,NY,67.0500466272925
11219,Kings County,NY,81.90861050668325
11220,Kings County,NY,68.72862915760025
11221,Kings County,NY,7.957724588125583
11223,Kings County,NY,62.946844886540255
11225,Kings County,NY,54.1498290332608
11226,Kings County,NY,42.834939384519735
11228,Kings County,NY,40.96984768417781
11229,Kings County,NY,75.22536524712466
11230,Kings County,NY,83.74261734535281
11231,Kings County,NY,69.07056263599627
11233,Kings County,NY,39.66428349393845
11234,Kings County,NY,50.29530618588747
11235,Kings County,NY,68.1380167858253
11236,Kings County,NY,22.132421510724278
11237,Kings County,NY,73.36027354678272
11238,Kings County,NY,10.102580043518806
11249,Kings County,NY,46.378613615169414
11354,Queens County,NY,28.007460366801368
11355,Queens County,NY,40.53465962076469
11356,Queens County,NY,59.09232203916692
11365,Queens County,NY,29.81038234379857
11367,Queens County,NY,27.447932856698788
11368,Queens County,NY,52.65775567298725
11372,Queens County,NY,15.573515697855145
11373,Queens County,NY,42.71059993783028
11375,Queens County,NY,59.09232203916692
11377,Queens County,NY,29.157600248678893
11385,Queens County,NY,47.87068697544296
11412,Queens County,NY,73.45352813179981
11413,Queens County,NY,28.90892135529997
11416,Queens County,NY,86.19832141746969
11417,Queens County,NY,59.80727385763134
11418,Queens County,NY,90.73671122163506
11419,Queens County,NY,82.46813801678583
11420,Queens County,NY,85.85638793907367
11421,Queens County,NY,79.3285669878769
11422,Queens County,NY,48.43021448554554
11423,Queens County,NY,31.33354056574448
11432,Queens County,NY,74.88343176872863
11433,Queens County,NY,39.0736711221635
11434,Queens County,NY,79.29748212620454
11435,Queens County,NY,21.728318308983525
11436,Queens County,NY,92.94373640037303
11510,Nassau County,NY,43.33229717127759
11520,Nassau County,NY,17.189928504818152
11570,Nassau County,NY,86.41591544917625
11590,Nassau County,NY,27.105999378302766
11691,Queens County,NY,33.354056574448244
11693,Queens County,NY,88.6229406279142
11704,Suffolk County,NY,36.3692881566677
11706,Suffolk County,NY,52.87534970469382
11714,Nassau County,NY,61.703450419645634
11717,Suffolk County,NY,30.99160708734846
11726,Suffolk County,NY,55.952751010258005
11729,Suffolk County,NY,79.48399129623873
11735,Nassau County,NY,66.14858563879392
11779,Suffolk County,NY,52.502331364625434
11950,Suffolk County,NY,80.88281007149519
11951,Suffolk County,NY,74.7280074603668
11967,Suffolk County,NY,17.034504196456325
12019,Saratoga County,NY,57.88001243394467
12078,Fulton County,NY,1.6474976686353746
12116,Otsego County,NY,89.15138327634442
12180,Rensselaer County,NY,6.652160397886229
12182,Rensselaer County,NY,29.81038234379857
12188,Saratoga County,NY,82.81007149518184
12209,Albany County,NY,72.95617034504195
12302,Schenectady County,NY,24.090767796083306
12308,Schenectady County,NY,50.7304942493006
12524,Dutchess County,NY,68.26235623251476
12534,Columbia County,NY,26.639726453217282
12561,Ulster County,NY,80.04351880634131
12601,Dutchess County,NY,69.84768417780542
12603,Dutchess County,NY,78.45819086105067
12804,Warren County,NY,17.252098228162886
12839,Washington County,NY,13.832763444202673
12866,Saratoga County,NY,6.341311781162575
12883,Essex County,NY,59.7451041342866
12901,Clinton County,NY,1.2123096052222568
13021,Cayuga County,NY,1.274479328566988
13029,Onondaga County,NY,54.64718682001865
13041,Onondaga County,NY,93.06807584706249
13090,Onondaga County,NY,7.4914516630401
13126,Oswego County,NY,1.4920733602735468
13148,Seneca County,NY,11.96767174386074
13165,Seneca County,NY,13.552999689151383
13203,Onondaga County,NY,31.520049735778677
13204,Onondaga County,NY,4.911408144233758
13207,Onondaga County,NY,16.03978862294063
13209,Onondaga County,NY,27.043829654958035
13210,Onondaga County,NY,19.86322660864159
13214,Onondaga County,NY,96.0211377059372
13304,Oneida County,NY,98.75660553310539
13326,Otsego County,NY,76.96611750077712
13327,Lewis County,NY,83.36959900528443
13350,Herkimer County,NY,19.17935965184955
13367,Lewis County,NY,67.26764065899907
13421,Madison County,NY,37.053155113459745
13440,Oneida County,NY,0.8082064034815045
13456,Oneida County,NY,87.78364936276034
13460,Chenango County,NY,30.090146098849864
13601,Jefferson County,NY,1.616412806963009
13760,Broome County,NY,0.3419334783960211
13838,Delaware County,NY,74.26173453528132
13905,Broome County,NY,13.646254274168479
14020,Genesee County,NY,5.066832452595587
14059,Erie County,NY,51.01025800435188
14070,Erie County,NY,81.78427105999378
14075,Erie County,NY,3.481504507304942
14086,Erie County,NY,32.452595585949645
14127,Erie County,NY,44.295927883120925
14136,Chautauqua County,NY,75.00777121541809
14167,Wyoming County,NY,96.76717438607399
14206,Erie County,NY,5.999378302766552
14213,Erie County,NY,9.10786447000311
14215,Erie County,NY,0.6527820951196768
14217,Erie County,NY,74.47932856698787
14221,Erie County,NY,22.287845819086105
14225,Erie County,NY,3.6369288156667707
14304,Niagara County,NY,11.314889648741062
14424,Ontario County,NY,72.9250854833696
14425,Ontario County,NY,47.09356543363382
14432,Ontario County,NY,20.14299036369288
14450,Monroe County,NY,58.93689773080509
14456,Ontario County,NY,70.37612682623562
14464,Monroe County,NY,61.6412806963009
14466,Ontario County,NY,88.52968604289711
14469,Ontario County,NY,23.779919179359652
14482,Genesee County,NY,61.08175318619832
14489,Wayne County,NY,17.407522536524713
14502,Wayne County,NY,13.894933167547405
14519,Wayne County,NY,53.434877214796394
14526,Monroe County,NY,86.72676406589991
14527,Yates County,NY,56.85421199875661
14530,Wyoming County,NY,59.86944358097607
14534,Monroe County,NY,58.43953994404725
14551,Wayne County,NY,86.29157600248679
14564,Ontario County,NY,9.263288778364936
14580,Monroe County,NY,51.41436120609263
14586,Monroe County,NY,45.477152626670815
14589,Wayne County,NY,19.210444513521914
14605,Monroe County,NY,3.730183400683867
14606,Monroe County,NY,7.802300279763755
14608,Monroe County,NY,5.5952751010258
14609,Monroe County,NY,1.834006838669568
14610,Monroe County,NY,15.076157911097296
14611,Monroe County,NY,14.858563879390738
14612,Monroe County,NY,49.984457569163816
14613,Monroe County,NY,22.25676095741374
14616,Monroe County,NY,29.59278831209201
14617,Monroe County,NY,13.957102890892138
14618,Monroe County,NY,7.740130556419024
14620,Monroe County,NY,74.914516630401
14621,Monroe County,NY,32.88778364936276
14622,Monroe County,NY,90.64345663661797
14623,Monroe County,NY,81.44233758159776
14624,Monroe County,NY,17.780540876593097
14626,Monroe County,NY,8.299658066521603
14701,Chautauqua County,NY,18.371153248368046
14719,Cattaraugus County,NY,89.3378924463786
14760,Cattaraugus County,NY,20.049735778675785
14807,Steuben County,NY,81.34908299658066
14845,Chemung County,NY,7.522536524712466
14850,Tompkins County,NY,11.781162573826547
14883,Tioga County,NY,86.50917003419335
14886,Tompkins County,NY,70.62480571961454
27006,Davie County,NC,41.62262977929748
27028,Davie County,NC,7.025178737954615
27040,Forsyth County,NC,49.82903326080199
27101,Forsyth County,NC,94.62231893068076
27103,Forsyth County,NC,6.8697544295927875
27105,Forsyth County,NC,0.9014609884986011
27106,Forsyth County,NC,41.684799502642214
27127,Forsyth County,NC,75.75380789555487
27214,Guilford County,NC,65.68231271370843
27249,Guilford County,NC,83.86695679204227
27253,Alamance County,NC,27.69661175007771
27258,Alamance County,NC,84.39539944047249
27265,Guilford County,NC,32.359341000932545
27295,Davidson County,NC,9.822816288467516
27301,Guilford County,NC,50.7304942493006
27312,Chatham County,NC,42.77276966117501
27325,Moore County,NC,88.24992228784582
27349,Alamance County,NC,62.729250854833694
27405,Guilford County,NC,4.414050357475909
27406,Guilford County,NC,43.58097606465651
27407,Guilford County,NC,31.115946534037924
27408,Guilford County,NC,71.43301212309605
27409,Guilford County,NC,69.78551445446067
27455,Guilford County,NC,29.996891513832765
27505,Harnett County,NC,72.86291576002488
27526,Wake County,NC,13.58408455082375
27537,Vance County,NC,20.111905502020516
27542,Johnston County,NC,51.041342866024245
27546,Harnett County,NC,69.00839291265154
27565,Granville County,NC,11.004041032017406
27573,Person County,NC,92.35312402859807
27603,Wake County,NC,10.693192415293753
27604,Wake County,NC,46.09884986011812
27606,Wake County,NC,57.56916381722101
27607,Wake County,NC,99.22287845819086
27609,Wake County,NC,20.01865091700342
27615,Wake County,NC,22.909543052533415
27701,Durham County,NC,28.25613926018029
27703,Durham County,NC,21.168790798880945
27704,Durham County,NC,22.19459123406901
27705,Durham County,NC,52.564501087970164
27707,Durham County,NC,5.4398507926639725
27713,Durham County,NC,37.208579421821575
27807,Nash County,NC,92.81939695368355
27834,Pitt County,NC,2.5800435188063413
27858,Pitt County,NC,74.51041342866024
28001,Stanly County,NC,16.754740441405037
28012,Gaston County,NC,87.59714019272614
28016,Gaston County,NC,79.91917935965185
28034,Gaston County,NC,55.42430836182779
28037,Lincoln County,NC,42.1510724277277
28040,Rutherford County,NC,67.32981038234381
28079,Union County,NC,28.287224121852656
28081,Cabarrus County,NC,35.12589368977308
28092,Lincoln County,NC,35.561081753186194
28105,Mecklenburg County,NC,39.3534348772148
28117,Iredell County,NC,42.959278831209204
28152,Cleveland County,NC,20.92011190550202
28170,Anson County,NC,35.62325147653093
28205,Mecklenburg County,NC,9.636307118433322
28208,Mecklenburg County,NC,47.435498912029836
28211,Mecklenburg County,NC,15.760024867889339
28212,Mecklenburg County,NC,12.24743549891203
28213,Mecklenburg County,NC,13.14889648741063
28216,Mecklenburg County,NC,56.82312713708424
28227,Mecklenburg County,NC,9.667391980105688
28269,Mecklenburg County,NC,24.71246502953062
28270,Mecklenburg County,NC,40.34815045073049
28273,Mecklenburg County,NC,25.520671433012122
28301,Cumberland County,NC,21.13770593720858
28304,Cumberland County,NC,82.74790177183712
28306,Bladen County,NC,44.51352191482748
28311,Cumberland County,NC,37.83027665526888
28314,Cumberland County,NC,15.977618899595896
28328,Sampson County,NC,64.15915449176252
28333,Wayne County,NC,43.7674852346907
28334,Sampson County,NC,13.926018029219769
28340,Robeson County,NC,36.18277898663351
28348,Cumberland County,NC,19.801056885296862
28352,Scotland County,NC,55.890581286913275
28358,Robeson County,NC,7.5536213863848305
28364,Robeson County,NC,92.10444513521915
28371,Robeson County,NC,92.04227541187441
28376,Hoke County,NC,43.0525334162263
28382,Sampson County,NC,61.36151694124962
28391,Cumberland County,NC,98.2903326080199
28401,New Hanover County,NC,36.959900528442645
28403,New Hanover County,NC,52.28473733291887
28405,New Hanover County,NC,47.622008082064035
28409,New Hanover County,NC,22.567609574137396
28412,New Hanover County,NC,44.57569163817221
28451,Brunswick County,NC,14.920733602735467
28461,Brunswick County,NC,54.740441405035746
28539,Onslow County,NC,54.11874417158844
28540,Onslow County,NC,38.88716195212931
28570,Carteret County,NC,76.12682623562324
28601,Catawba County,NC,6.465651227852036
28605,Watauga County,NC,80.82064034815045
28612,Burke County,NC,82.49922287845818
28625,Iredell County,NC,28.722412185265778
28630,Caldwell County,NC,45.85017096673919
28655,Burke County,NC,2.0205160087037615
28677,Iredell County,NC,45.13521914827479
28734,Macon County,NC,46.440783338514144
28779,Jackson County,NC,36.77339135840845
28806,Buncombe County,NC,52.09822816288467
58201,Grand Forks County,ND,16.101958346285357
58501,Burleigh County,ND,61.516941249611435
58503,Burleigh County,ND,17.935965184954927
58504,Burleigh County,ND,83.96021137705937
58701,Ward County,ND,4.289710910786447
43004,Franklin County,OH,83.55610817531863
43015,Delaware County,OH,79.54616101958347
43016,Franklin County,OH,81.03823437985702
43017,Franklin County,OH,69.35032639104756
43023,Licking County,OH,94.52906434566366
43026,Franklin County,OH,62.29406279142058
43031,Licking County,OH,63.009014609884986
43035,Delaware County,OH,53.31053776810693
43040,Union County,OH,88.34317687286291
43050,Knox County,OH,30.463164438918245
43055,Licking County,OH,22.3811004041032
43062,Licking County,OH,64.15915449176252
43068,Franklin County,OH,4.13428660242462
43081,Franklin County,OH,53.030774013055634
43082,Delaware County,OH,86.820018650917
43085,Franklin County,OH,83.36959900528443
43105,Fairfield County,OH,65.27820951196766
43110,Franklin County,OH,36.43145788001244
43113,Pickaway County,OH,6.216972334473112
43119,Franklin County,OH,73.42244327012745
43123,Franklin County,OH,15.635685421199877
43130,Fairfield County,OH,0.6216972334473112
43138,Hocking County,OH,77.24588125582841
43146,Pickaway County,OH,91.14081442337582
43147,Fairfield County,OH,73.60895244016164
43206,Franklin County,OH,52.99968915138328
43207,Franklin County,OH,56.45010879701585
43209,Franklin County,OH,73.45352813179981
43211,Franklin County,OH,88.46751631955237
43213,Franklin County,OH,82.87224121852658
43219,Franklin County,OH,86.63350948088281
43220,Franklin County,OH,75.56729872552067
43221,Franklin County,OH,84.0223811004041
43223,Franklin County,OH,13.117811625738266
43224,Franklin County,OH,48.6478085172521
43227,Franklin County,OH,64.50108797015854
43228,Franklin County,OH,8.921355299968916
43229,Franklin County,OH,50.07771215418091
43230,Franklin County,OH,45.383898041653715
43231,Franklin County,OH,88.65402548958657
43232,Franklin County,OH,33.571650606154805
43235,Franklin County,OH,97.88622940627914
43334,Morrow County,OH,80.10568852968605
43420,Sandusky County,OH,49.4560149207336
43460,Wood County,OH,97.63755051290022
43502,Fulton County,OH,65.74448243705315
43522,Wood County,OH,98.66335094808828
43528,Lucas County,OH,82.68573204849238
43545,Henry County,OH,88.7161952129313
43551,Wood County,OH,63.22660864159154
43558,Fulton County,OH,35.52999689151383
43560,Lucas County,OH,88.03232825613925
43604,Lucas County,OH,77.96083307429282
43605,Lucas County,OH,74.35498912029841
43606,Lucas County,OH,58.37737022070252
43607,Lucas County,OH,49.020826857320486
43608,Lucas County,OH,3.4193347839602115
43609,Lucas County,OH,60.428971091078644
43611,Lucas County,OH,6.4034815045073055
43612,Lucas County,OH,10.537768106931924
43613,Lucas County,OH,20.547093565433634
43615,Lucas County,OH,55.610817531861976
43616,Lucas County,OH,62.853590301523155
43620,Lucas County,OH,77.49456014920733
43623,Lucas County,OH,67.88933789244638
43701,Muskingum County,OH,7.646875971401927
43718,Belmont County,OH,94.12496114392292
43832,Tuscarawas County,OH,39.602113770593725
43845,Coshocton County,OH,42.52409076779608
43906,Belmont County,OH,28.19396953683556
43935,Belmont County,OH,58.25303077401306
43945,Columbiana County,OH,99.12962387317377
43947,Belmont County,OH,57.444824370531556
43950,Belmont County,OH,22.81628846751632
43952,Jefferson County,OH,15.853279452906435
43968,Columbiana County,OH,59.96269816599317
44001,Lorain County,OH,14.640969847684177
44004,Ashtabula County,OH,0.83929126515387
44011,Lorain County,OH,60.6465651227852
44024,Geauga County,OH,72.17904880323283
44028,Lorain County,OH,98.60118122474356
44030,Ashtabula County,OH,11.035125893689774
44035,Lorain County,OH,3.6058439539944045
44039,Lorain County,OH,16.50606154802611
44052,Lorain County,OH,57.78675784892757
44055,Lorain County,OH,18.091389493316754
44060,Lake County,OH,2.548958657133976
44062,Geauga County,OH,79.45290643456636
44070,Cuyahoga County,OH,11.221635063723967
44077,Lake County,OH,8.859185576624185
44081,Lake County,OH,76.7174386073982
44087,Summit County,OH,23.65557973267019
44090,Lorain County,OH,39.19801056885297
44095,Lake County,OH,32.54585017096674
44103,Cuyahoga County,OH,46.78271681691017
44104,Cuyahoga County,OH,57.7556729872552
44105,Cuyahoga County,OH,0.24867889337892446
44106,Cuyahoga County,OH,20.453838980416535
44108,Cuyahoga County,OH,8.019894311470315
44109,Cuyahoga County,OH,17.594031706558905
44110,Cuyahoga County,OH,35.25023313646255
44111,Cuyahoga County,OH,29.779297482126204
44112,Cuyahoga County,OH,44.48243705315512
44117,Cuyahoga County,OH,23.904258626049113
44118,Cuyahoga County,OH,22.19459123406901
44119,Cuyahoga County,OH,50.60615480261112
44120,Cuyahoga County,OH,19.36586882188374
44121,Cuyahoga County,OH,56.48119365868822
44123,Cuyahoga County,OH,14.112527199253963
44124,Cuyahoga County,OH,37.86136151694125
44125,Cuyahoga County,OH,0.4973577867578489
44126,Cuyahoga County,OH,31.022691949020825
44128,Cuyahoga County,OH,7.677960833074293
44132,Cuyahoga County,OH,78.36493627603357
44133,Cuyahoga County,OH,13.397575380789556
44137,Cuyahoga County,OH,2.1448554553932233
44142,Cuyahoga County,OH,13.739508859185575
44143,Cuyahoga County,OH,18.40223811004041
44144,Cuyahoga County,OH,39.85079266397265
44147,Cuyahoga County,OH,28.41156356854212
44203,Summit County,OH,13.42866024246192
44212,Medina County,OH,19.707802300279763
44221,Summit County,OH,6.621075536213864
44223,Summit County,OH,27.47901771837115
44224,Summit County,OH,10.444513521914828
44233,Medina County,OH,89.12029841467205
44236,Summit County,OH,33.78924463786136
44241,Portage County,OH,16.319552377991915
44256,Medina County,OH,51.134597451041344
44278,Summit County,OH,86.32266086415915
44301,Summit County,OH,15.915449176251165
44307,Summit County,OH,85.29686042897109
44310,Summit County,OH,4.351880634131178
44313,Summit County,OH,41.809138949331675
44314,Summit County,OH,13.273235934100095
44405,Mahoning County,OH,80.1367733913584
44406,Mahoning County,OH,35.31240285980727
44413,Columbiana County,OH,78.7068697544296
44432,Columbiana County,OH,94.99533727074915
44438,Trumbull County,OH,51.60087037612683
44440,Trumbull County,OH,71.6506061548026
44446,Trumbull County,OH,6.061548026111284
44471,Mahoning County,OH,63.350948088281015
44483,Trumbull County,OH,27.261423686664592
44484,Trumbull County,OH,14.48554553932235
44505,Mahoning County,OH,44.047248989741995
44507,Mahoning County,OH,75.19428038545229
44512,Mahoning County,OH,4.258626049114081
44514,Mahoning County,OH,58.96798259247746
44601,Stark County,OH,29.68604289710911
44644,Carroll County,OH,97.38887161952128
44646,Stark County,OH,56.57444824370531
44663,Tuscarawas County,OH,5.688529686042897
44688,Stark County,OH,96.89151383276344
44691,Wayne County,OH,2.890892135529997
44707,Stark County,OH,67.57848927572272
44708,Stark County,OH,68.75971401927261
44709,Stark County,OH,22.87845819086105
44714,Stark County,OH,47.528753497046935
44721,Stark County,OH,98.4768417780541
44805,Ashland County,OH,24.370531551134597
44857,Huron County,OH,10.941871308672676
44870,Erie County,OH,0.7460366801367734
44875,Richland County,OH,86.54025489586571
44890,Huron County,OH,22.940627914205784
44903,Richland County,OH,30.15231582219459
44905,Richland County,OH,46.68946223189307
45005,Warren County,OH,46.502953061858875
45011,Butler County,OH,0.9636307118433323
45015,Butler County,OH,34.535281317998134
45030,Hamilton County,OH,35.34348772147964
45040,Warren County,OH,44.264843021448556
45044,Butler County,OH,37.98570096363071
45069,Butler County,OH,64.50108797015854
45102,Clermont County,OH,20.329499533727073
45120,Clermont County,OH,97.23344731115947
45121,Brown County,OH,76.53092943736401
45140,Clermont County,OH,36.61796705004663
45157,Clermont County,OH,61.516941249611435
45176,Clermont County,OH,45.66366179670501
45205,Hamilton County,OH,10.63102269194902
45206,Hamilton County,OH,34.06900839291265
45208,Hamilton County,OH,66.83245259558595
45211,Hamilton County,OH,47.12465029530619
45212,Hamilton County,OH,15.107242772769661
45213,Hamilton County,OH,57.444824370531556
45215,Hamilton County,OH,12.216350637239664
45216,Hamilton County,OH,36.77339135840845
45223,Hamilton County,OH,78.55144544606777
45225,Hamilton County,OH,47.684177805408765
45230,Hamilton County,OH,62.16972334473112
45231,Hamilton County,OH,16.847995026422133
45233,Hamilton County,OH,56.20142990363692
45236,Hamilton County,OH,90.7056263599627
45238,Hamilton County,OH,78.98663350948088
45239,Hamilton County,OH,72.76966117500777
45242,Hamilton County,OH,50.35747590923221
45245,Clermont County,OH,41.746969225986945
45246,Hamilton County,OH,92.22878458190861
45247,Hamilton County,OH,39.19801056885297
45248,Hamilton County,OH,95.24401616412807
45251,Hamilton County,OH,83.2141746969226
45255,Hamilton County,OH,72.98725520671432
45324,Greene County,OH,19.769972023624494
45331,Darke County,OH,39.04258626049114
45356,Miami County,OH,6.496736089524402
45373,Miami County,OH,2.51787379546161
45417,Montgomery County,OH,3.450419645632577
45440,Montgomery County,OH,40.472489897419955
45449,Montgomery County,OH,64.28349393845197
45458,Montgomery County,OH,21.63506372396643
45505,Clark County,OH,15.791109729561704
45601,Ross County,OH,48.803232825613925
45619,Lawrence County,OH,68.82188374261735
45690,Pike County,OH,8.082064034815046
45701,Athens County,OH,41.34286602424619
45710,Athens County,OH,85.26577556729873
45732,Athens County,OH,82.09511967671745
45805,Allen County,OH,5.968293441094187
45840,Hancock County,OH,17.873795461610197
45875,Putnam County,OH,49.39384519738887
45891,Van Wert County,OH,42.43083618277899
73003,Oklahoma County,OK,44.202673298103825
73012,Oklahoma County,OK,81.34908299658066
73020,Oklahoma County,OK,23.31364625427417
73044,Logan County,OK,31.83089835250233
73069,Cleveland County,OK,45.66366179670501
73108,Oklahoma County,OK,45.60149207336027
73114,Oklahoma County,OK,34.846129934721795
73118,Oklahoma County,OK,78.48927572272302
73119,Oklahoma County,OK,11.097295617034504
73129,Oklahoma County,OK,30.898352502331367
73505,Comanche County,OK,11.097295617034504
73521,Jackson County,OK,47.21790488032328
74021,Tulsa County,OK,51.60087037612683
74023,Payne County,OK,44.82437053155113
74074,Payne County,OK,26.29779297482126
74115,Tulsa County,OK,22.412185265775566
74146,Tulsa County,OK,72.45881255828411
74525,Atoka County,OK,86.88218837426174
74820,Pontotoc County,OK,17.22101336649052
74960,Adair County,OK,56.29468448865402
97005,Washington County,OR,28.50481815355922
97015,Clackamas County,OR,33.44731115946534
97030,Multnomah County,OR,8.26857320484924
97032,Marion County,OR,97.73080509791731
97045,Clackamas County,OR,55.766241840223806
97062,Washington County,OR,38.203294995337274
97070,Clackamas County,OR,41.871308672676406
97080,Multnomah County,OR,12.371774945601492
97123,Washington County,OR,50.91700341933478
97201,Multnomah County,OR,81.25582841156357
97202,Multnomah County,OR,14.143612060926328
97203,Multnomah County,OR,52.409076779608334
97206,Multnomah County,OR,25.085483369599004
97209,Multnomah County,OR,21.293130245570406
97211,Multnomah County,OR,70.59372085794217
97213,Multnomah County,OR,49.20733602735468
97216,Multnomah County,OR,31.83089835250233
97217,Multnomah County,OR,23.344731115946534
97219,Multnomah County,OR,68.07584706248058
97222,Clackamas County,OR,15.200497357786757
97223,Washington County,OR,14.547715262667083
97229,Washington County,OR,20.174075225365247
97230,Multnomah County,OR,11.252719925396331
97305,Marion County,OR,12.838047870686975
97306,Marion County,OR,36.3692881566677
97321,Linn County,OR,13.957102890892138
97355,Linn County,OR,4.849238420889027
97381,Marion County,OR,66.21075536213864
97386,Linn County,OR,28.9710910786447
97501,Jackson County,OR,55.51756294684489
97502,Jackson County,OR,51.81846440783339
97503,Jackson County,OR,43.829654958035434
97504,Jackson County,OR,80.3232825613926
97526,Josephine County,OR,12.589368977308052
97527,Josephine County,OR,26.01802921976997
97601,Klamath County,OR,73.79546161019583
97603,Klamath County,OR,90.5191171899285
97814,Baker County,OR,24.432701274479328
97850,Union County,OR,51.97388871619522
97882,Umatilla County,OR,63.78613615169413
97914,Malheur County,OR,36.4625427416848
15084,Allegheny County,PA,48.585638793907364
15090,Allegheny County,PA,97.48212620453839
15122,Allegheny County,PA,31.05377681069319
15136,Allegheny County,PA,15.355921666148586
15202,Allegheny County,PA,61.39260180292197
15205,Allegheny County,PA,27.72769661175008
15207,Allegheny County,PA,38.451973888716196
15208,Allegheny County,PA,33.44731115946534
15210,Allegheny County,PA,6.93192415293752
15214,Allegheny County,PA,33.91358408455083
15227,Allegheny County,PA,50.20205160087038
15235,Allegheny County,PA,9.418713086726765
15301,Washington County,PA,40.44140503574759
15557,Somerset County,PA,84.2088902704383
15601,Westmoreland County,PA,9.916070873484612
15644,Westmoreland County,PA,40.28598072738576
15658,Westmoreland County,PA,57.973267018961764
15666,Westmoreland County,PA,31.520049735778677
15701,Indiana County,PA,71.09107864470003
15717,Indiana County,PA,44.109418713086725
15801,Clearfield County,PA,16.599316133043207
15902,Cambria County,PA,54.64718682001865
15905,Cambria County,PA,28.318308983525025
15906,Cambria County,PA,36.30711843332297
15963,Somerset County,PA,83.86695679204227
16150,Mercer County,PA,50.51290021759404
16226,Armstrong County,PA,48.958657133975755
16301,Venango County,PA,28.535903015231582
16635,Blair County,PA,57.444824370531556
16648,Blair County,PA,38.42088902704383
16749,McKean County,PA,92.5085483369599
16801,Centre County,PA,22.070251787379547
16841,Centre County,PA,91.17189928504818
17013,Cumberland County,PA,10.07149518184644
17022,Lancaster County,PA,73.14267951507615
17033,Dauphin County,PA,45.383898041653715
17034,Dauphin County,PA,97.17127758781473
17036,Dauphin County,PA,65.58905812869132
17038,Lebanon County,PA,78.73795461610196
17042,Lebanon County,PA,36.15169412496114
17046,Lebanon County,PA,64.2524090767796
17048,Dauphin County,PA,99.78240596829345
17050,Cumberland County,PA,35.62325147653093
17104,Dauphin County,PA,29.68604289710911
17109,Dauphin County,PA,12.68262356232515
17110,Dauphin County,PA,7.2738576313335415
17111,Dauphin County,PA,7.367112216350637
17112,Dauphin County,PA,28.784581908610505
17202,Franklin County,PA,14.361206092632889
17301,Adams County,PA,99.62698165993162
17307,Adams County,PA,72.30338824992228
17313,York County,PA,73.08050979173143
17315,York County,PA,58.19086105066833
17319,York County,PA,47.18682001865091
17324,Cumberland County,PA,93.09916070873486
17325,Adams County,PA,73.57786757848928
17331,York County,PA,29.74821262045384
17345,York County,PA,49.766863537457255
17347,York County,PA,75.78489275722723
17356,York County,PA,15.169412496114393
17366,York County,PA,70.43829654958036
17403,York County,PA,1.1501398818775257
17404,York County,PA,4.880323282561393
17408,York County,PA,87.06869754429593
17543,Lancaster County,PA,65.74448243705315
17545,Lancaster County,PA,79.01771837115325
17554,Lancaster County,PA,92.41529375194281
17557,Lancaster County,PA,58.09760646565123
17569,Lancaster County,PA,96.36307118433322
17601,Lancaster County,PA,19.055020205160087
17701,Lycoming County,PA,1.7096673919801058
17745,Clinton County,PA,89.43114703139571
17856,Union County,PA,98.25924774634754
17954,Schuylkill County,PA,66.83245259558595
17961,Schuylkill County,PA,69.41249611439228
18011,Lehigh County,PA,77.40130556419024
18014,Northampton County,PA,54.740441405035746
18017,Northampton County,PA,27.354678271681692
18032,Lehigh County,PA,37.73702207025178
18034,Lehigh County,PA,68.26235623251476
18040,Northampton County,PA,48.865402548958656
18042,Northampton County,PA,12.496114392290954
18045,Northampton County,PA,75.44295927883121
18049,Lehigh County,PA,25.30307740130556
18052,Lehigh County,PA,49.61143922909543
18058,Monroe County,PA,56.29468448865402
18062,Lehigh County,PA,26.1734535281318
18069,Lehigh County,PA,93.28566987876904
18088,Northampton County,PA,96.3009014609885
18102,Lehigh County,PA,45.539322350015546
18103,Lehigh County,PA,61.88995958967982
18104,Lehigh County,PA,6.43456636617967
18210,Carbon County,PA,79.2353124028598
18222,Luzerne County,PA,85.76313335405658
18224,Luzerne County,PA,88.49860118122474
18232,Carbon County,PA,87.78364936276034
18447,Lackawanna County,PA,81.25582841156357
18504,Lackawanna County,PA,15.946534037923533
18603,Columbia County,PA,6.279142057817842
18704,Luzerne County,PA,58.12869132732359
18707,Luzerne County,PA,91.79359651849549
18901,Bucks County,PA,56.51227852036058
18929,Bucks County,PA,90.98539011501398
18944,Bucks County,PA,94.03170655890581
18951,Bucks County,PA,31.737643767485235
18954,Bucks County,PA,65.15387006527821
18964,Montgomery County,PA,77.86757848927573
18966,Bucks County,PA,46.658377370220705
18969,Montgomery County,PA,88.84053465962076
18976,Bucks County,PA,60.7398197078023
19001,Montgomery County,PA,35.74759092322039
19003,Montgomery County,PA,84.51973888716195
19004,Montgomery County,PA,94.74665837737022
19008,Delaware County,PA,82.84115635685421
19010,Delaware County,PA,78.36493627603357
19013,Delaware County,PA,31.240285980727382
19014,Delaware County,PA,93.00590612371775
19015,Delaware County,PA,88.21883742617345
19018,Delaware County,PA,13.770593720857944
19020,Bucks County,PA,17.283183089835248
19021,Bucks County,PA,90.82996580665215
19023,Delaware County,PA,42.33758159776189
19026,Delaware County,PA,84.55082374883432
19030,Bucks County,PA,58.96798259247746
19031,Montgomery County,PA,95.30618588747281
19032,Delaware County,PA,85.1103512589369
19033,Delaware County,PA,58.96798259247746
19034,Montgomery County,PA,96.42524090767796
19036,Delaware County,PA,33.695990052844266
19038,Montgomery County,PA,64.93627603357164
19044,Montgomery County,PA,42.52409076779608
19047,Bucks County,PA,37.33291886851104
19050,Delaware County,PA,59.06123717749456
19053,Bucks County,PA,60.92632887783649
19055,Bucks County,PA,83.71153248368046
19056,Bucks County,PA,29.095430525334166
19060,Delaware County,PA,87.19303699098539
19061,Delaware County,PA,85.0170966739198
19063,Delaware County,PA,52.12931302455704
19064,Delaware County,PA,90.95430525334163
19066,Montgomery County,PA,86.78893378924464
19067,Bucks County,PA,48.46129934721791
19070,Delaware County,PA,88.9027043829655
19072,Montgomery County,PA,73.45352813179981
19073,Delaware County,PA,87.65930991607087
19074,Delaware County,PA,72.67640658999068
19076,Delaware County,PA,63.78613615169413
19078,Delaware County,PA,45.19738887161952
19081,Delaware County,PA,76.56201429903638
19082,Delaware County,PA,21.293130245570406
19083,Delaware County,PA,91.63817221013366
19087,Chester County,PA,30.742928193969536
19090,Montgomery County,PA,80.88281007149519
19096,Montgomery County,PA,75.03885607709046
19104,Philadelphia County,PA,21.603978862294063
19107,Philadelphia County,PA,79.63941560460056
19111,Philadelphia County,PA,1.4609884986011812
19115,Philadelphia County,PA,9.045694746658377
19116,Philadelphia County,PA,41.37395088591856
19119,Philadelphia County,PA,83.05875038856078
19120,Philadelphia County,PA,1.1812247435498913
19121,Philadelphia County,PA,18.34006838669568
19124,Philadelphia County,PA,33.664905191171904
19125,Philadelphia County,PA,28.753497046938143
19128,Philadelphia County,PA,68.79079888094498
19129,Philadelphia County,PA,91.35840845508237
19130,Philadelphia County,PA,66.73919801056886
19131,Philadelphia County,PA,39.2601802921977
19132,Philadelphia County,PA,62.635996269816594
19134,Philadelphia County,PA,29.281939695368354
19135,Philadelphia County,PA,26.39104755983836
19136,Philadelphia County,PA,38.63848305875039
19137,Philadelphia County,PA,45.35281317998135
19138,Philadelphia County,PA,5.5952751010258
19139,Philadelphia County,PA,43.23904258626049
19140,Philadelphia County,PA,7.087348461299348
19141,Philadelphia County,PA,3.108486167236556
19142,Philadelphia County,PA,5.3465962076468765
19143,Philadelphia County,PA,17.127758781473425
19144,Philadelphia County,PA,23.842088902704383
19146,Philadelphia County,PA,57.60024867889339
19147,Philadelphia County,PA,60.335716506061544
19148,Philadelphia County,PA,3.2949953372707492
19149,Philadelphia County,PA,2.7976375505129
19150,Philadelphia County,PA,45.07304942493006
19151,Philadelphia County,PA,25.11656823127137
19154,Philadelphia County,PA,66.05533105377681
19312,Chester County,PA,91.66925707180603
19320,Chester County,PA,69.63009014609885
19330,Chester County,PA,93.81411252719926
19333,Chester County,PA,95.55486478085172
19335,Chester County,PA,67.82716816910165
19341,Chester County,PA,54.39850792663973
19355,Chester County,PA,53.186198321417464
19365,Chester County,PA,67.17438607398198
19380,Chester County,PA,77.09045694746658
19382,Chester County,PA,43.89182468138017
19401,Montgomery County,PA,33.78924463786136
19403,Montgomery County,PA,82.25054398507928
19406,Montgomery County,PA,26.91949020826857
19422,Montgomery County,PA,90.42586260491142
19426,Montgomery County,PA,87.13086726764065
19428,Montgomery County,PA,93.6897730805098
19440,Montgomery County,PA,69.03947777432391
19446,Montgomery County,PA,71.27758781473422
19460,Chester County,PA,54.27416847995027
19462,Montgomery County,PA,80.44762200808206
19464,Montgomery County,PA,12.060926328877837
19465,Chester County,PA,75.28753497046938
19468,Montgomery County,PA,94.4047248989742
19475,Chester County,PA,56.91638172210134
19508,Berks County,PA,32.07957724588126
19518,Berks County,PA,59.46534037923531
19520,Chester County,PA,87.62822505439851
19522,Berks County,PA,88.37426173453528
19526,Berks County,PA,95.77245881255828
19539,Berks County,PA,98.07273857631333
19543,Berks County,PA,97.04693814112527
19601,Berks County,PA,59.8383587193037
19604,Berks County,PA,4.97357786757849
19606,Berks County,PA,4.445135219148274
19607,Berks County,PA,14.20578178427106
19608,Berks County,PA,14.9829033260802
02806,Bristol County,RI,77.12154180913895
02814,Providence County,RI,66.49051911718993
02816,Kent County,RI,68.66645943425553
02830,Providence County,RI,85.94964252409076
02860,Providence County,RI,2.735467827168169
02865,Providence County,RI,49.6425240907678
02874,Washington County,RI,98.22816288467516
02886,Kent County,RI,44.79328566987877
02889,Kent County,RI,12.433944668946223
02891,Washington County,RI,36.990985390115014
02906,Providence County,RI,35.15697855144545
02911,Providence County,RI,47.404414050357474
02919,Providence County,RI,52.59558594964252
29010,Lee County,SC,55.17562946844886
29040,Sumter County,SC,87.5349704693814
29053,Lexington County,SC,35.903015231582216
29067,Lancaster County,SC,88.24992228784582
29070,Lexington County,SC,79.421821572894
29301,Spartanburg County,SC,16.56823127137084
29323,Spartanburg County,SC,34.752875349704695
29340,Cherokee County,SC,23.03388249922288
29349,Spartanburg County,SC,12.713708423997513
29405,Charleston County,SC,14.05035747590923
29406,Charleston County,SC,12.340690083929125
29407,Charleston County,SC,21.97699720236245
29414,Charleston County,SC,97.85514454460677
29418,Charleston County,SC,51.10351258936898
29420,Dorchester County,SC,85.88747280074604
29445,Berkeley County,SC,12.092011190550203
29464,Charleston County,SC,25.45850170966739
29470,Charleston County,SC,98.81877525645011
29485,Dorchester County,SC,40.19272614236867
29510,Georgetown County,SC,71.99253963319863
29536,Dillon County,SC,63.4442026732981
29560,Florence County,SC,58.315200497357786
29607,Greenville County,SC,58.62604911408145
29609,Greenville County,SC,52.78209511967672
29644,Greenville County,SC,31.675474044140508
29651,Greenville County,SC,10.258004351880635
29662,Greenville County,SC,94.87099782405967
29673,Greenville County,SC,21.75940317065589
29690,Greenville County,SC,22.412185265775566
29697,Anderson County,SC,52.19148274790177
29732,York County,SC,44.42026732981038
29801,Aiken County,SC,22.723033882499223
29810,Allendale County,SC,87.3484612993472
29928,Beaufort County,SC,90.33260801989431
29945,Hampton County,SC,99.87566055331054
57005,Minnehaha County,SD,64.31457880012434
57103,Minnehaha County,SD,11.439229095430525
57105,Minnehaha County,SD,26.981659931613304
57339,Buffalo County,SD,97.51321106621076
57702,Pennington County,SD,38.265464718682004
57785,Meade County,SD,80.07460366801368
37013,Davidson County,TN,20.484923842088904
37032,Robertson County,TN,99.90674541498291
37034,Marshall County,TN,64.625427416848
37037,Rutherford County,TN,88.24992228784582
37042,Montgomery County,TN,65.93099160708735
37043,Montgomery County,TN,80.85172520982282
37064,Williamson County,TN,27.105999378302766
37072,Davidson County,TN,16.319552377991915
37074,Trousdale County,TN,48.15045073049425
37080,Davidson County,TN,57.25831520049736
37086,Rutherford County,TN,27.63444202673298
37090,Wilson County,TN,43.64314578800124
37110,Warren County,TN,7.584706248057197
37115,Davidson County,TN,82.99658066521603
37129,Rutherford County,TN,7.83338514143612
37160,Bedford County,TN,31.271370842399755
37167,Rutherford County,TN,13.615169412496114
37174,Williamson County,TN,58.87472800746036
37207,Davidson County,TN,5.191171899285049
37209,Davidson County,TN,44.42026732981038
37211,Davidson County,TN,32.17283183089835
37407,Hamilton County,TN,70.18961765620143
37604,Washington County,TN,49.922287845819085
37659,Washington County,TN,20.267329810382346
37722,Cocke County,TN,73.79546161019583
37748,Roane County,TN,18.713086726764068
37764,Sevier County,TN,54.989120298414676
37830,Anderson County,TN,11.874417158843643
37849,Knox County,TN,22.629779297482123
37862,Sevier County,TN,49.953372707491454
38018,Shelby County,TN,48.02611128380478
38060,Fayette County,TN,92.07336027354678
38106,Shelby County,TN,46.31644389182468
38116,Shelby County,TN,8.641591544917624
38118,Shelby County,TN,8.797015853279452
38127,Shelby County,TN,34.908299658066525
38462,Lewis County,TN,75.44295927883121
38478,Giles County,TN,36.24494870997824
38556,Fentress County,TN,31.799813490829965
75006,Dallas County,TX,56.69878769039478
75007,Denton County,TX,28.10071495181846
75023,Collin County,TX,33.13646254274168
75028,Denton County,TX,35.778675784892755
75035,Collin County,TX,21.63506372396643
75040,Dallas County,TX,8.392912651538701
75042,Dallas County,TX,42.834939384519735
75056,Denton County,TX,43.985079266397264
75061,Dallas County,TX,61.05066832452596
75074,Collin County,TX,62.698165993161325
75104,Dallas County,TX,11.532483680447623
75116,Dallas County,TX,82.59247746347529
75146,Dallas County,TX,41.43612060926329
75165,Ellis County,TX,14.423375815977618
75172,Dallas County,TX,99.62698165993162
75180,Dallas County,TX,46.720547093565436
75211,Dallas County,TX,9.076779608330742
75212,Dallas County,TX,26.484302144855455
75214,Dallas County,TX,84.67516319552378
75217,Dallas County,TX,56.1392601802922
75220,Dallas County,TX,81.47342244327012
75223,Dallas County,TX,69.78551445446067
75227,Dallas County,TX,9.10786447000311
75228,Dallas County,TX,40.783338514143615
75232,Dallas County,TX,71.37084239975133
75234,Dallas County,TX,84.79950264221324
75238,Dallas County,TX,46.534037923531244
75243,Dallas County,TX,6.372396642834939
75244,Dallas County,TX,74.97668635374572
75287,Denton County,TX,23.220391669257072
75601,Gregg County,TX,54.336338203295
75604,Gregg County,TX,23.127137084239976
75605,Gregg County,TX,32.7634442026733
75670,Harrison County,TX,77.3391358408455
75702,Smith County,TX,21.04445135219148
75703,Smith County,TX,16.972334473111594
75706,Smith County,TX,40.34815045073049
75762,Smith County,TX,56.72987255206714
76002,Tarrant County,TX,37.14640969847684
76006,Tarrant County,TX,49.48709978240597
76013,Tarrant County,TX,42.61734535281318
76014,Tarrant County,TX,29.064345663661793
76053,Tarrant County,TX,68.41778054087659
76086,Parker County,TX,38.98041653714641
76112,Tarrant County,TX,6.185887472800746
76115,Tarrant County,TX,30.58750388560771
76117,Tarrant County,TX,63.4442026732981
76148,Tarrant County,TX,23.562325147653095
76209,Denton County,TX,82.68573204849238
76310,Wichita County,TX,51.41436120609263
76502,Bell County,TX,56.85421199875661
76504,Bell County,TX,70.53155113459745
76513,Bell County,TX,3.2639104755983834
76706,McLennan County,TX,87.16195212931302
77004,Harris County,TX,41.12527199253964
77006,Harris County,TX,92.63288778364937
77008,Harris County,TX,81.34908299658066
77011,Harris County,TX,85.1103512589369
77014,Harris County,TX,92.5085483369599
77017,Harris County,TX,35.21914827479018
77020,Harris County,TX,38.32763444202673
77021,Harris County,TX,19.614547715262667
77030,Harris County,TX,78.08517252098228
77034,Harris County,TX,66.58377370220703
77035,Harris County,TX,68.9462231893068
77040,Harris County,TX,71.86820018650917
77045,Harris County,TX,37.33291886851104
77047,Harris County,TX,93.16133043207958
77048,Harris County,TX,51.94280385452284
77050,Harris County,TX,99.59589679825925
77053,Fort Bend County,TX,68.60428971091078
77055,Harris County,TX,66.98787690394778
77062,Harris County,TX,68.16910164749767
77063,Harris County,TX,46.565122785203606
77064,Harris County,TX,48.741063102269194
77065,Harris County,TX,87.00652782095119
77074,Harris County,TX,81.62884675163195
77075,Harris County,TX,30.30774013055642
77079,Harris County,TX,55.548647808517245
77080,Harris County,TX,50.82374883431768
77082,Harris County,TX,30.090146098849864
77083,Harris County,TX,23.686664594342556
77084,Harris County,TX,5.097917314267952
77093,Harris County,TX,24.65029530618589
77094,Harris County,TX,88.68511035125893
77095,Harris County,TX,29.375194280385454
77303,Montgomery County,TX,90.86105066832452
77304,Montgomery County,TX,81.53559216661486
77320,Walker County,TX,77.12154180913895
77328,San Jacinto County,TX,59.71401927261424
77338,Harris County,TX,26.266708113148894
77345,Harris County,TX,97.35778675784893
77346,Harris County,TX,34.41094187130867
77362,Montgomery County,TX,85.42119987566056
77375,Harris County,TX,35.00155424308362
77384,Montgomery County,TX,81.10040410320174
77385,Montgomery County,TX,40.565744482437054
77386,Montgomery County,TX,18.40223811004041
77388,Harris County,TX,26.1734535281318
77396,Harris County,TX,66.02424619210444
77406,Fort Bend County,TX,25.955859496425244
77407,Fort Bend County,TX,32.63910475598383
77429,Harris County,TX,52.44016164128069
77433,Harris County,TX,5.284426484302145
77445,Waller County,TX,99.40938762822505
77449,Harris County,TX,75.97140192726143
77450,Harris County,TX,21.448554553932233
77459,Fort Bend County,TX,11.377059372085794
77469,Fort Bend County,TX,14.796394156046006
77479,Fort Bend County,TX,70.18961765620143
77493,Harris County,TX,41.40503574759092
77494,Fort Bend County,TX,28.62915760024868
77498,Fort Bend County,TX,63.25769350326391
77502,Harris County,TX,33.385141436120605
77505,Harris County,TX,45.07304942493006
77506,Harris County,TX,68.38669567920422
77511,Brazoria County,TX,7.1806030463164445
77515,Brazoria County,TX,73.7332918868511
77517,Galveston County,TX,71.80603046316443
77521,Harris County,TX,14.672054709356544
77530,Harris County,TX,78.36493627603357
77531,Brazoria County,TX,49.6425240907678
77536,Harris County,TX,92.16661485856388
77539,Galveston County,TX,70.15853279452907
77550,Galveston County,TX,9.356543363382034
77551,Galveston County,TX,13.36649051911719
77554,Galveston County,TX,92.44637861361517
77568,Galveston County,TX,63.28877836493627
77581,Brazoria County,TX,15.200497357786757
77584,Brazoria County,TX,70.84239975132111
77587,Harris County,TX,61.765620142990365
77590,Galveston County,TX,5.906123717749456
77598,Harris County,TX,85.98072738576313
77630,Orange County,TX,52.96860428971091
77632,Orange County,TX,31.986322660864158
77657,Hardin County,TX,37.270749145166306
77708,Jefferson County,TX,64.06589990674541
77801,Brazos County,TX,95.55486478085172
77802,Brazos County,TX,67.2365557973267
77803,Brazos County,TX,39.291265153870064
77807,Brazos County,TX,98.13490829965806
77840,Brazos County,TX,25.924774634752872
77845,Brazos County,TX,57.8489275722723
77901,Victoria County,TX,12.371774945601492
77995,Lavaca County,TX,61.14392290954305
78015,Bexar County,TX,80.23002797637551
78028,Kerr County,TX,81.84644078333851
78041,Webb County,TX,20.826857320484923
78046,Webb County,TX,7.211687907988809
78070,Comal County,TX,82.59247746347529
78217,Bexar County,TX,48.02611128380478
78219,Bexar County,TX,58.90581286913273
78229,Bexar County,TX,32.48368044762201
78240,Bexar County,TX,25.20982281628847
78247,Bexar County,TX,33.29188685110351
78501,Hidalgo County,TX,80.66521603978862
78504,Hidalgo County,TX,82.37488343176874
78521,Cameron County,TX,17.407522536524713
78537,Hidalgo County,TX,88.59185576624185
78572,Hidalgo County,TX,74.54149829033261
78573,Hidalgo County,TX,34.846129934721795
78574,Hidalgo County,TX,85.203605843954
78577,Hidalgo County,TX,69.2259869443581
78582,Starr County,TX,47.80851725209823
78611,Burnet County,TX,60.36680136773391
78641,Williamson County,TX,10.56885296860429
78664,Williamson County,TX,56.170345041964566
78665,Williamson County,TX,30.58750388560771
78681,Williamson County,TX,35.28131799813491
78723,Travis County,TX,90.6123717749456
78724,Travis County,TX,53.621386384830586
78729,Williamson County,TX,59.96269816599317
78747,Travis County,TX,78.48927572272302
78752,Travis County,TX,79.76375505129002
78754,Travis County,TX,84.36431457880012
78758,Travis County,TX,33.29188685110351
79103,Potter County,TX,82.2194591234069
79107,Potter County,TX,18.526577556729872
79109,Randall County,TX,21.26204538389804
79119,Randall County,TX,66.77028287224121
79316,Terry County,TX,88.18775256450108
79336,Hockley County,TX,76.37550512900218
79401,Lubbock County,TX,97.97948399129623
79403,Lubbock County,TX,31.426795150761578
79407,Lubbock County,TX,58.59496425240908
79411,Lubbock County,TX,97.97948399129623
79412,Lubbock County,TX,86.38483058750388
79413,Lubbock County,TX,94.18713086726764
79414,Lubbock County,TX,92.7883120920112
79415,Lubbock County,TX,73.39135840845509
79416,Lubbock County,TX,76.56201429903638
79423,Lubbock County,TX,81.87752564501089
79424,Lubbock County,TX,74.82126204538389
79549,Scurry County,TX,23.593410009325456
79701,Midland County,TX,24.49487099782406
79707,Midland County,TX,18.18464407833385
79762,Ector County,TX,14.48554553932235
79849,El Paso County,TX,81.69101647497669
79904,El Paso County,TX,83.2141746969226
84005,Utah County,UT,61.17500777121542
84020,Salt Lake County,UT,95.2129313024557
84029,Tooele County,UT,67.14330121230961
84041,Davis County,UT,49.11408144233758
84043,Utah County,UT,25.862604911408145
84044,Salt Lake County,UT,25.3652471246503
84047,Salt Lake County,UT,39.75753807895555
84057,Utah County,UT,46.8448865402549
84058,Utah County,UT,64.84302144855455
84066,Duchesne County,UT,39.91296238731737
84088,Salt Lake County,UT,49.3627603357165
84092,Salt Lake County,UT,46.47186820018651
84096,Salt Lake County,UT,40.34815045073049
84097,Utah County,UT,68.01367733913584
84104,Salt Lake County,UT,27.416847995026423
84107,Salt Lake County,UT,23.437985700963633
84116,Salt Lake County,UT,14.578800124339446
84302,Box Elder County,UT,59.65184954926951
84663,Utah County,UT,78.6136151694125
84738,Washington County,UT,87.47280074603668
84770,Washington County,UT,82.15728940006217
20109,Prince William County,VA,61.765620142990365
20120,Fairfax County,VA,33.13646254274168
20121,Fairfax County,VA,45.91234069008393
20164,Loudoun County,VA,55.42430836182779
20166,Loudoun County,VA,96.14547715262667
20169,Prince William County,VA,61.952129313024564
20170,Fairfax County,VA,44.07833385141436
20171,Fairfax County,VA,82.56139260180292
20175,Loudoun County,VA,52.004973577867574
20194,Fairfax County,VA,75.31861983214174
22015,Fairfax County,VA,32.63910475598383
22030,Fairfax County,VA,43.08361827789866
22031,Fairfax County,VA,44.82437053155113
22032,Fairfax County,VA,91.54491762511657
22042,Fairfax County,VA,31.70655890581287
22079,Fairfax County,VA,24.55704072116879
22101,Fairfax County,VA,92.38420889027043
22151,Fairfax County,VA,94.4979794839913
22180,Fairfax County,VA,63.195523779919185
22201,Arlington County,VA,39.602113770593725
22202,Arlington County,VA,80.50979173142679
22203,Arlington County,VA,91.82468138016786
22204,Arlington County,VA,58.81255828411563
22205,Arlington County,VA,95.49269505750699
22301,Alexandria city,VA,91.76251165682314
22303,Fairfax County,VA,53.99440472489897
22304,Alexandria city,VA,70.87348461299348
22308,Fairfax County,VA,99.75132110662108
22309,Fairfax County,VA,39.78862294062792
22312,Fairfax County,VA,25.76935032639105
22401,Fredericksburg city,VA,59.309916070873484
22408,Spotsylvania County,VA,44.91762511656823
22601,Winchester city,VA,40.09947155735157
22602,Frederick County,VA,75.50512900217595
22630,Warren County,VA,74.29281939695367
22655,Frederick County,VA,38.01678582530308
22657,Shenandoah County,VA,32.01740752253652
22801,Harrisonburg city,VA,69.87876903947777
22815,Rockingham County,VA,32.54585017096674
22901,Albemarle County,VA,46.03668013677339
22903,Charlottesville city,VA,14.609884986011812
23059,Henrico County,VA,93.62760335716506
23060,Henrico County,VA,41.871308672676406
23093,Louisa County,VA,40.627914205781785
23139,Powhatan County,VA,50.20205160087038
23220,Richmond city,VA,41.871308672676406
23222,Richmond city,VA,47.03139571028909
23223,Henrico County,VA,31.955237799191792
23224,Richmond city,VA,50.32639104755984
23225,Richmond city,VA,42.928193969536835
23226,Richmond city,VA,95.95896798259248
23229,Henrico County,VA,92.72614236866646
23233,Henrico County,VA,84.89275722723035
23237,Chesterfield County,VA,28.007460366801368
23421,Accomack County,VA,95.0264221324215
23434,Suffolk city,VA,7.398197078023003
23451,Virginia Beach city,VA,22.691949020826858
23601,Newport News city,VA,37.73702207025178
23602,Newport News city,VA,15.013988187752563
23664,Hampton city,VA,66.21075536213864
23707,Portsmouth city,VA,33.72707491451663
23824,Nottoway County,VA,98.88094497979483
23834,Colonial Heights city,VA,72.52098228162885
23838,Chesterfield County,VA,70.0341933478396
23860,Hopewell city,VA,16.412806963009015
23901,Prince Edward County,VA,39.97513211066211
23970,Mecklenburg County,VA,94.00062169723344
24014,Roanoke city,VA,48.49238420889027
24019,Roanoke County,VA,35.4678271681691
24151,Franklin County,VA,26.484302144855455
24153,Salem city,VA,18.713086726764068
24382,Wythe County,VA,56.60553310537768
24401,Staunton city,VA,4.631644389182468
98002,King County,WA,89.83525023313646
98003,King County,WA,59.18557662418402
98006,King County,WA,37.33291886851104
98007,King County,WA,84.98601181224743
98011,King County,WA,39.384519738887164
98012,Snohomish County,WA,42.959278831209204
98021,Snohomish County,WA,93.0369909853901
98023,King County,WA,12.838047870686975
98028,King County,WA,87.19303699098539
98031,King County,WA,83.68044762200807
98033,King County,WA,43.64314578800124
98034,King County,WA,45.446067764998446
98036,Snohomish County,WA,28.19396953683556
98042,King County,WA,8.113148896487411
98043,Snohomish County,WA,54.989120298414676
98052,King County,WA,59.589679825924776
98053,King County,WA,56.978551445446065
98055,King County,WA,79.07988809449797
98059,King County,WA,26.701896176562013
98072,King County,WA,42.0578178427106
98087,Snohomish County,WA,57.35156978551446
98103,King County,WA,27.261423686664592
98107,King County,WA,49.20733602735468
98115,King County,WA,74.94560149207335
98116,King County,WA,94.68448865402549
98118,King County,WA,69.13273235934099
98119,King County,WA,93.5032639104756
98125,King County,WA,76.77960833074293
98133,King County,WA,41.653714640969845
98146,King County,WA,39.88187752564501
98155,King County,WA,26.235623251476532
98168,King County,WA,17.50077712154181
98198,King County,WA,23.99751321106621
98199,King County,WA,68.23127137084239
98201,Snohomish County,WA,73.32918868511035
98204,Snohomish County,WA,13.055641902393534
98208,Snohomish County,WA,34.06900839291265
98223,Snohomish County,WA,12.092011190550203
98233,Skagit County,WA,63.66179670500466
98270,Snohomish County,WA,8.952440161641281
98271,Snohomish County,WA,25.613926018029222
98272,Snohomish County,WA,66.3350948088281
98274,Skagit County,WA,43.27012744793286
98277,Island County,WA,27.914205781784275
98290,Snohomish County,WA,24.21510724277277
98294,Snohomish County,WA,99.0985390115014
98296,Snohomish County,WA,26.639726453217282
98311,Kitsap County,WA,41.43612060926329
98321,Pierce County,WA,42.27541187441716
98332,Pierce County,WA,99.0052844264843
98335,Pierce County,WA,40.00621697233447
98337,Kitsap County,WA,82.28162884675163
98338,Pierce County,WA,85.88747280074604
98366,Kitsap County,WA,55.26888405346596
98370,Kitsap County,WA,52.502331364625434
98374,Pierce County,WA,70.00310848616724
98375,Pierce County,WA,32.297171277587815
98388,Pierce County,WA,95.08859185576625
98391,Pierce County,WA,25.67609574137395
98404,Pierce County,WA,72.61423686664594
98405,Pierce County,WA,72.39664283493939
98407,Pierce County,WA,74.85234690705627
98445,Pierce County,WA,29.12651538700653
98446,Pierce County,WA,76.22008082064035
98466,Pierce County,WA,68.54211998756605
98467,Pierce County,WA,65.15387006527821
98516,Thurston County,WA,74.79017718371153
98520,Grays Harbor County,WA,87.31737643767485
98580,Pierce County,WA,72.023624494871
98629,Clark County,WA,97.14019272614237
98632,Cowlitz County,WA,49.48709978240597
98661,Clark County,WA,29.623873173764377
98664,Clark County,WA,66.92570718060304
98682,Clark County,WA,38.54522847373329
98837,Grant County,WA,43.8607398197078
98855,Okanogan County,WA,74.16847995026423
98944,Yakima County,WA,37.92353124028598
99212,Spokane County,WA,65.74448243705315
99224,Spokane County,WA,96.11439229095431
99336,Benton County,WA,5.2533416226297796
99338,Benton County,WA,69.56792042275411
99344,Adams County,WA,80.54087659309917
99353,Benton County,WA,47.96394156046006
20001,District of Columbia,DC,33.88249922287846
20003,District of Columbia,DC,74.41715884364315
20007,District of Columbia,DC,60.21137705937208
20009,District of Columbia,DC,60.86415915449176
20011,District of Columbia,DC,32.70127447932857
20012,District of Columbia,DC,64.40783338514143
20015,District of Columbia,DC,72.80074603668014
20019,District of Columbia,DC,21.97699720236245
20020,District of Columbia,DC,6.776499844575691
20032,District of Columbia,DC,25.39633198632266
25064,Kanawha County,WV,31.33354056574448
25143,Kanawha County,WV,41.43612060926329
25177,Kanawha County,WV,23.966428349393844
25314,Kanawha County,WV,88.40534659620765
25411,Morgan County,WV,57.25831520049736
25420,Berkeley County,WV,99.25396331986323
25427,Berkeley County,WV,43.39446689462232
25705,Cabell County,WV,68.01367733913584
25962,Greenbrier County,WV,84.58190861050669
26003,Ohio County,WV,1.9894311470313957
26101,Wood County,WV,1.8650917003419334
26164,Jackson County,WV,81.2247435498912
26241,Randolph County,WV,16.630400994715576
26301,Harrison County,WV,15.26266708113149
26351,Gilmer County,WV,98.19707802300279
26426,Harrison County,WV,91.70034193347838
26452,Lewis County,WV,38.73173764376748
26501,Monongalia County,WV,8.423997513211066
26508,Monongalia County,WV,46.90705626359963
26554,Marion County,WV,22.660864159154492
26651,Nicholas County,WV,62.791420578178425
53022,Washington County,WI,45.25955859496425
53027,Washington County,WI,47.96394156046006
53029,Waukesha County,WI,43.54989120298415
53038,Jefferson County,WI,98.94311470313957
53051,Waukesha County,WI,70.53155113459745
53066,Waukesha County,WI,22.505439850792662
53072,Waukesha County,WI,37.73702207025178
53090,Washington County,WI,43.08361827789866
53095,Washington County,WI,61.26826235623252
53103,Waukesha County,WI,91.04755983835872
53132,Milwaukee County,WI,22.163506372396643
53140,Kenosha County,WI,21.85265775567299
53143,Kenosha County,WI,30.338824992228787
53144,Kenosha County,WI,46.409698476841776
53189,Waukesha County,WI,35.4678271681691
53204,Milwaukee County,WI,2.486788933789245
53205,Milwaukee County,WI,1.0258004351880634
53206,Milwaukee County,WI,4.103201740752254
53208,Milwaukee County,WI,51.2589368977308
53209,Milwaukee County,WI,17.625116568231274
53212,Milwaukee County,WI,6.248057196145477
53213,Milwaukee County,WI,60.11812247435498
53215,Milwaukee County,WI,64.09698476841777
53216,Milwaukee County,WI,13.957102890892138
53217,Milwaukee County,WI,48.27479017718371
53218,Milwaukee County,WI,14.889648741063102
53220,Milwaukee County,WI,93.4100093254585
53221,Milwaukee County,WI,9.387628225054398
53222,Milwaukee County,WI,89.49331675474043
53223,Milwaukee County,WI,45.81908610506683
53224,Milwaukee County,WI,48.92757227230339
53225,Milwaukee County,WI,59.77618899595897
53227,Milwaukee County,WI,19.89431147031396
53402,Racine County,WI,26.328877836493625
53403,Racine County,WI,18.029219769972023
53511,Rock County,WI,30.214485545539322
53533,Iowa County,WI,88.96487410631023
53545,Rock County,WI,64.56325769350326
53551,Jefferson County,WI,61.23717749456014
53555,Columbia County,WI,99.68915138327634
53563,Rock County,WI,62.51165682312714
53593,Dane County,WI,67.64065899906745
53711,Dane County,WI,62.38731737643768
53713,Dane County,WI,32.98103823437985
53716,Dane County,WI,54.833695990052846
53963,Dodge County,WI,77.18371153248368
54001,Polk County,WI,31.61330432079577
54017,St. Croix County,WI,31.488964874106312
54020,Polk County,WI,80.01243394466894
54140,Outagamie County,WI,77.58781473422444
54154,Oconto County,WI,72.1168790798881
54174,Oconto County,WI,97.26453217283184
54401,Marathon County,WI,51.66304009947156
54455,Marathon County,WI,51.5387006527821
54603,La Crosse County,WI,33.78924463786136
54720,Eau Claire County,WI,78.147342244327
54729,Chippewa County,WI,17.811625738265466
54911,Outagamie County,WI,76.65526888405346
54915,Outagamie County,WI,19.45912340690084
54949,Waupaca County,WI,90.08392912651539
54952,Winnebago County,WI,59.21666148585639
54956,Winnebago County,WI,13.179981349082997
82601,Natrona County,WY,58.28411563568542
82633,Converse County,WY,39.10475598383587
