ZipCode,county,state,Adult
35150,Talladega County,AL,39.747899159663866
35404,Tuscaloosa County,AL,15.546218487394958
35603,Morgan County,AL,16.80672268907563
35758,Madison County,AL,37.3109243697479
35810,Madison County,AL,29.2436974789916
35811,Madison County,AL,40.42016806722689
35903,Etowah County,AL,55.378151260504204
35954,Etowah County,AL,60.588235294117645
35971,DeKalb County,AL,96.1344537815126
36272,Calhoun County,AL,48.15126050420168
36303,Houston County,AL,23.19327731092437
36502,Escambia County,AL,44.537815126050425
36608,Mobile County,AL,44.03361344537815
99501,Anchorage Municipality,AK,21.596638655462186
99507,Anchorage Municipality,AK,32.52100840336134
99835,Sitka City and Borough,AK,61.42857142857143
85019,Maricopa County,AZ,73.10924369747899
85037,Maricopa County,AZ,24.285714285714285
85041,Maricopa County,AZ,8.907563025210084
85053,Maricopa County,AZ,45.79831932773109
85086,Maricopa County,AZ,39.66386554621849
85122,Pinal County,AZ,8.319327731092436
85142,Maricopa County,AZ,34.95798319327731
85202,Maricopa County,AZ,20.33613445378151
85257,Maricopa County,AZ,88.65546218487394
85283,Maricopa County,AZ,18.403361344537817
85286,Maricopa County,AZ,69.74789915966386
85301,Maricopa County,AZ,4.201680672268908
85323,Maricopa County,AZ,30.756302521008404
85326,Maricopa County,AZ,27.478991596638657
85355,Maricopa County,AZ,85.46218487394958
85706,Pima County,AZ,2.0168067226890756
85712,Pima County,AZ,21.176470588235293
85748,Pima County,AZ,83.78151260504202
86001,Coconino County,AZ,20.672268907563023
86004,Coconino County,AZ,5.88235294117647
72401,Craighead County,AR,15.126050420168067
72745,Benton County,AR,86.47058823529412
72758,Benton County,AR,61.00840336134454
72761,Benton County,AR,78.4873949579832
72956,Crawford County,AR,50.7563025210084
90005,Los Angeles County,CA,88.73949579831933
90006,Los Angeles County,CA,68.40336134453781
90011,Los Angeles County,CA,23.865546218487395
90025,Los Angeles County,CA,58.15126050420169
90027,Los Angeles County,CA,60.168067226890756
90032,Los Angeles County,CA,49.2436974789916
90036,Los Angeles County,CA,69.32773109243698
90064,Los Angeles County,CA,62.016806722689076
90255,Los Angeles County,CA,28.319327731092436
90262,Los Angeles County,CA,33.27731092436974
90266,Los Angeles County,CA,63.78151260504201
90272,Los Angeles County,CA,88.57142857142857
90292,Los Angeles County,CA,76.47058823529412
90503,Los Angeles County,CA,50.252100840336134
90505,Los Angeles County,CA,58.90756302521009
90631,Orange County,CA,33.78151260504202
90723,Los Angeles County,CA,52.85714285714286
90740,Orange County,CA,71.68067226890756
90745,Los Angeles County,CA,38.82352941176471
90806,Los Angeles County,CA,56.72268907563025
90815,Los Angeles County,CA,50.50420168067227
91006,Los Angeles County,CA,86.72268907563026
91101,Los Angeles County,CA,90.4201680672269
91104,Los Angeles County,CA,43.94957983193277
91214,Los Angeles County,CA,82.60504201680672
91304,Los Angeles County,CA,49.411764705882355
91306,Los Angeles County,CA,40
91307,Los Angeles County,CA,89.83193277310924
91384,Los Angeles County,CA,92.01680672268907
91401,Los Angeles County,CA,87.47899159663865
91423,Los Angeles County,CA,90.50420168067227
91602,Los Angeles County,CA,82.52100840336134
91710,San Bernardino County,CA,35.714285714285715
91732,Los Angeles County,CA,41.17647058823529
91764,San Bernardino County,CA,35.21008403361345
91765,Los Angeles County,CA,68.57142857142857
91770,Los Angeles County,CA,80.84033613445378
91775,Los Angeles County,CA,87.39495798319328
91910,San Diego County,CA,24.11764705882353
91941,San Diego County,CA,59.747899159663866
92019,San Diego County,CA,46.38655462184874
92021,San Diego County,CA,15.378151260504202
92057,San Diego County,CA,57.39495798319327
92101,San Diego County,CA,14.6218487394958
92126,San Diego County,CA,45.294117647058826
92131,San Diego County,CA,74.03361344537815
92225,Riverside County,CA,79.07563025210084
92234,Riverside County,CA,14.369747899159663
92252,San Bernardino County,CA,77.56302521008404
92277,San Bernardino County,CA,90.92436974789916
92284,San Bernardino County,CA,60.7563025210084
92359,San Bernardino County,CA,95.54621848739497
92376,San Bernardino County,CA,8.991596638655462
92407,San Bernardino County,CA,17.73109243697479
92410,San Bernardino County,CA,32.016806722689076
92543,Riverside County,CA,39.411764705882355
92545,Riverside County,CA,41.680672268907564
92551,Riverside County,CA,88.31932773109243
92591,Riverside County,CA,48.48739495798319
92612,Orange County,CA,74.87394957983193
92624,Orange County,CA,97.47899159663865
92646,Orange County,CA,60
92655,Orange County,CA,97.81512605042016
92656,Orange County,CA,32.6890756302521
92691,Orange County,CA,52.43697478991597
92694,Orange County,CA,84.28571428571429
92703,Orange County,CA,73.78151260504202
92704,Orange County,CA,31.596638655462183
92706,Orange County,CA,81.9327731092437
92804,Orange County,CA,43.529411764705884
92805,Orange County,CA,25.126050420168067
92833,Orange County,CA,51.008403361344534
92840,Orange County,CA,51.344537815126046
92844,Orange County,CA,74.45378151260505
92867,Orange County,CA,91.76470588235294
92868,Orange County,CA,66.30252100840336
92869,Orange County,CA,92.18487394957982
92870,Orange County,CA,35.46218487394958
92883,Riverside County,CA,68.90756302521008
93215,Kern County,CA,60.50420168067227
93257,Tulare County,CA,12.941176470588237
93274,Tulare County,CA,5.378151260504202
93286,Tulare County,CA,93.61344537815125
93309,Kern County,CA,65.96638655462185
93445,San Luis Obispo County,CA,94.03361344537815
93454,Santa Barbara County,CA,29.075630252100844
93535,Los Angeles County,CA,9.327731092436975
93560,Kern County,CA,92.60504201680672
93618,Tulare County,CA,82.43697478991596
93662,Fresno County,CA,56.890756302521005
93706,Fresno County,CA,22.43697478991597
93722,Fresno County,CA,33.10924369747899
93905,Monterey County,CA,36.470588235294116
93950,Monterey County,CA,87.89915966386555
94025,San Mateo County,CA,49.57983193277311
94027,San Mateo County,CA,97.14285714285714
94028,San Mateo County,CA,99.57983193277312
94080,San Mateo County,CA,31.512605042016805
94111,San Francisco County,CA,91.9327731092437
94117,San Francisco County,CA,34.45378151260504
94121,San Francisco County,CA,74.6218487394958
94301,Santa Clara County,CA,92.6890756302521
94303,San Mateo County,CA,26.554621848739497
94501,Alameda County,CA,37.226890756302524
94521,Contra Costa County,CA,58.655462184873954
94536,Alameda County,CA,81.5126050420168
94538,Alameda County,CA,47.14285714285714
94541,Alameda County,CA,23.52941176470588
94544,Alameda County,CA,50.08403361344538
94559,Napa County,CA,64.28571428571429
94572,Contra Costa County,CA,97.22689075630252
94582,Contra Costa County,CA,71.5126050420168
94587,Alameda County,CA,71.09243697478992
94597,Contra Costa County,CA,91.09243697478992
94606,Alameda County,CA,91.00840336134453
94611,Alameda County,CA,63.69747899159663
94621,Alameda County,CA,30.58823529411765
94806,Contra Costa County,CA,33.193277310924366
94954,Sonoma County,CA,49.66386554621849
95008,Santa Clara County,CA,65.88235294117646
95116,Santa Clara County,CA,77.14285714285715
95122,Santa Clara County,CA,46.134453781512605
95123,Santa Clara County,CA,72.43697478991596
95124,Santa Clara County,CA,59.15966386554622
95136,Santa Clara County,CA,60.168067226890756
95207,San Joaquin County,CA,55.04201680672269
95210,San Joaquin County,CA,37.73109243697479
95252,Calaveras County,CA,84.78991596638656
95330,San Joaquin County,CA,82.35294117647058
95340,Merced County,CA,70.75630252100841
95350,Stanislaus County,CA,70.58823529411765
95355,Stanislaus County,CA,8.655462184873949
95380,Stanislaus County,CA,26.302521008403364
95828,Sacramento County,CA,86.1344537815126
80010,Arapahoe County,CO,18.823529411764707
80013,Arapahoe County,CO,10.672268907563025
80021,Jefferson County,CO,61.596638655462186
80033,Jefferson County,CO,50.33613445378151
80122,Arapahoe County,CO,54.11764705882353
80127,Jefferson County,CO,47.14285714285714
80134,Douglas County,CO,24.95798319327731
80211,Denver County,CO,35.79831932773109
80218,Denver County,CO,61.9327731092437
80220,Denver County,CO,68.99159663865547
80229,Adams County,CO,14.537815126050422
80231,Denver County,CO,37.39495798319328
80237,Denver County,CO,76.80672268907564
80249,Denver County,CO,35.12605042016806
80602,Adams County,CO,46.63865546218487
80631,Weld County,CO,31.848739495798316
80634,Weld County,CO,1.8487394957983194
81212,Fremont County,CO,86.05042016806723
81416,Delta County,CO,76.38655462184873
06001,Hartford County,CT,93.52941176470588
06010,Hartford County,CT,1.0924369747899159
06029,Tolland County,CT,58.235294117647065
06051,Hartford County,CT,3.2773109243697482
06053,Hartford County,CT,11.512605042016807
06119,Hartford County,CT,83.27731092436976
06457,Middlesex County,CT,7.394957983193278
06511,New Haven County,CT,3.865546218487395
06830,Fairfield County,CT,86.80672268907563
06831,Fairfield County,CT,93.69747899159664
19901,Kent County,DE,85.63025210084034
19904,Kent County,DE,42.10084033613445
19973,Sussex County,DE,46.30252100840336
32137,Flagler County,FL,53.36134453781513
32164,Flagler County,FL,33.36134453781512
32174,Volusia County,FL,46.72268907563025
32206,Duval County,FL,21.34453781512605
32208,Duval County,FL,9.915966386554622
32216,Duval County,FL,19.327731092436977
32257,Duval County,FL,23.949579831932773
32259,St. Johns County,FL,44.285714285714285
32266,Duval County,FL,98.40336134453781
32333,Gadsden County,FL,84.87394957983193
32433,Walton County,FL,60.588235294117645
32459,Walton County,FL,66.63865546218487
32505,Escambia County,FL,18.571428571428573
32533,Escambia County,FL,27.81512605042017
32561,Santa Rosa County,FL,90.16806722689076
32571,Santa Rosa County,FL,13.865546218487395
32703,Orange County,FL,22.521008403361346
32812,Orange County,FL,35.042016806722685
32828,Orange County,FL,36.21848739495798
32835,Orange County,FL,59.57983193277311
32960,Indian River County,FL,48.48739495798319
33064,Broward County,FL,72.35294117647058
33136,Miami-Dade County,FL,50.7563025210084
33167,Miami-Dade County,FL,64.78991596638656
33172,Miami-Dade County,FL,94.45378151260503
33183,Miami-Dade County,FL,81.34453781512605
33186,Miami-Dade County,FL,51.26050420168067
33308,Broward County,FL,80.67226890756302
33311,Broward County,FL,27.73109243697479
33322,Broward County,FL,73.36134453781511
33412,Palm Beach County,FL,93.94957983193277
33431,Palm Beach County,FL,86.21848739495799
33441,Broward County,FL,56.38655462184874
33458,Palm Beach County,FL,23.697478991596636
33484,Palm Beach County,FL,83.02521008403362
33572,Hillsborough County,FL,83.52941176470588
33607,Hillsborough County,FL,81.5126050420168
33613,Hillsborough County,FL,41.344537815126046
33772,Pinellas County,FL,97.05882352941177
33801,Polk County,FL,22.689075630252102
33825,Highlands County,FL,52.01680672268908
33880,Polk County,FL,23.361344537815125
33905,Lee County,FL,35.21008403361345
33967,Lee County,FL,59.411764705882355
33990,Lee County,FL,35.63025210084034
33991,Lee County,FL,70
34114,Collier County,FL,83.61344537815127
34234,Sarasota County,FL,39.747899159663866
34266,DeSoto County,FL,34.78991596638655
34291,Sarasota County,FL,90.33613445378151
34654,Pasco County,FL,47.56302521008403
34746,Osceola County,FL,34.53781512605042
34787,Orange County,FL,24.45378151260504
34953,St. Lucie County,FL,24.789915966386555
34974,Okeechobee County,FL,54.957983193277315
34996,Martin County,FL,89.66386554621849
34997,Martin County,FL,28.235294117647058
30009,Fulton County,GA,89.2436974789916
30016,Newton County,GA,12.6890756302521
30017,Gwinnett County,GA,67.31092436974791
30034,DeKalb County,GA,28.48739495798319
30039,Gwinnett County,GA,38.57142857142858
30040,Forsyth County,GA,25.3781512605042
30041,Forsyth County,GA,26.638655462184875
30047,Gwinnett County,GA,85.96638655462185
30060,Cobb County,GA,37.89915966386555
30080,Cobb County,GA,89.91596638655463
30087,DeKalb County,GA,62.857142857142854
30094,Rockdale County,GA,46.80672268907563
30114,Cherokee County,GA,34.36974789915966
30120,Bartow County,GA,20.588235294117645
30126,Cobb County,GA,43.36134453781513
30127,Cobb County,GA,18.487394957983195
30135,Douglas County,GA,14.033613445378151
30228,Henry County,GA,29.15966386554622
30314,Fulton County,GA,43.69747899159664
30315,Fulton County,GA,28.403361344537814
30319,DeKalb County,GA,73.8655462184874
30507,Hall County,GA,42.773109243697476
30518,Gwinnett County,GA,36.72268907563026
30523,Habersham County,GA,82.26890756302521
30620,Barrow County,GA,73.61344537815127
30677,Oconee County,GA,91.34453781512605
30680,Barrow County,GA,20.840336134453782
30734,Gordon County,GA,99.74789915966386
30824,McDuffie County,GA,49.2436974789916
30906,Richmond County,GA,7.226890756302522
31027,Laurens County,GA,88.48739495798318
31069,Houston County,GA,40.50420168067227
31088,Houston County,GA,15.714285714285714
31404,Chatham County,GA,52.77310924369748
31415,Chatham County,GA,76.9747899159664
31639,Berrien County,GA,81.17647058823529
31794,Tift County,GA,26.47058823529412
31904,Muscogee County,GA,29.831932773109244
96701,Honolulu County,HI,32.857142857142854
96706,Honolulu County,HI,11.428571428571429
96761,Maui County,HI,89.07563025210085
96797,Honolulu County,HI,8.235294117647058
96819,Honolulu County,HI,16.386554621848738
83301,Twin Falls County,ID,3.1092436974789917
83404,Bonneville County,ID,54.87394957983194
83440,Madison County,ID,73.44537815126051
83619,Payette County,ID,94.36974789915966
83642,Ada County,ID,88.40336134453781
83702,Ada County,ID,28.739495798319325
83703,Ada County,ID,61.76470588235294
83713,Ada County,ID,71.59663865546219
83714,Ada County,ID,45.54621848739496
60018,Cook County,IL,64.45378151260505
60060,Lake County,IL,48.8235294117647
60061,Lake County,IL,66.55462184873949
60071,McHenry County,IL,98.57142857142858
60101,DuPage County,IL,26.38655462184874
60103,DuPage County,IL,27.142857142857142
60104,Cook County,IL,39.57983193277311
60137,DuPage County,IL,69.41176470588235
60140,Kane County,IL,76.05042016806722
60148,DuPage County,IL,14.789915966386555
60169,Cook County,IL,47.56302521008403
60188,DuPage County,IL,19.15966386554622
60417,Will County,IL,64.70588235294117
60431,Will County,IL,40.252100840336134
60440,Will County,IL,81.84873949579831
60446,Will County,IL,45.378151260504204
60453,Cook County,IL,14.117647058823529
60502,DuPage County,IL,53.27731092436975
60505,Kane County,IL,29.831932773109244
60515,DuPage County,IL,39.747899159663866
60516,DuPage County,IL,78.57142857142857
60521,DuPage County,IL,90.67226890756302
60525,Cook County,IL,22.941176470588236
60559,DuPage County,IL,44.70588235294118
60560,Kendall County,IL,42.60504201680672
60565,DuPage County,IL,81.09243697478992
60586,Will County,IL,44.957983193277315
60607,Cook County,IL,49.831932773109244
60608,Cook County,IL,11.680672268907562
60609,Cook County,IL,11.008403361344538
60610,Cook County,IL,42.436974789915965
60613,Cook County,IL,62.436974789915965
60616,Cook County,IL,35.21008403361345
60618,Cook County,IL,8.487394957983193
60620,Cook County,IL,6.470588235294119
60632,Cook County,IL,13.69747899159664
60638,Cook County,IL,10
60639,Cook County,IL,9.831932773109244
60640,Cook County,IL,8.823529411764707
60641,Cook County,IL,13.277310924369749
60643,Cook County,IL,32.26890756302521
60659,Cook County,IL,47.56302521008403
60805,Cook County,IL,75.21008403361344
61068,Ogle County,IL,71.17647058823529
61073,Winnebago County,IL,67.22689075630252
61101,Winnebago County,IL,47.81512605042017
61107,Winnebago County,IL,44.537815126050425
61520,Fulton County,IL,75.12605042016807
61704,McLean County,IL,37.47899159663866
61761,McLean County,IL,39.32773109243698
61801,Champaign County,IL,78.99159663865547
61944,Edgar County,IL,80
62062,Madison County,IL,97.6470588235294
62221,St. Clair County,IL,81.76470588235294
62269,St. Clair County,IL,70.16806722689076
62294,Madison County,IL,93.02521008403362
62401,Effingham County,IL,65.63025210084034
62966,Jackson County,IL,66.47058823529412
46062,Hamilton County,IN,61.1764705882353
46176,Shelby County,IN,15.798319327731091
46227,Marion County,IN,34.20168067226891
46229,Marion County,IN,57.56302521008403
46268,Marion County,IN,45.04201680672269
46278,Marion County,IN,95.37815126050421
46304,Porter County,IN,12.6890756302521
46307,Lake County,IN,13.025210084033615
46321,Lake County,IN,33.69747899159664
46342,Lake County,IN,4.621848739495799
46360,LaPorte County,IN,4.705882352941177
46375,Lake County,IN,31.008403361344538
46385,Porter County,IN,7.0588235294117645
46404,Lake County,IN,32.35294117647059
46516,Elkhart County,IN,17.058823529411764
46526,Elkhart County,IN,57.22689075630252
46725,Whitley County,IN,28.907563025210088
46845,Allen County,IN,59.831932773109244
46962,Wabash County,IN,98.9075630252101
46970,Miami County,IN,10.504201680672269
47150,Floyd County,IN,11.092436974789916
47265,Jennings County,IN,23.025210084033613
47302,Delaware County,IN,18.571428571428573
47374,Wayne County,IN,21.932773109243698
47396,Delaware County,IN,95.71428571428572
47408,Monroe County,IN,95.7983193277311
47803,Vigo County,IN,62.35294117647059
47805,Vigo County,IN,63.36134453781512
47909,Tippecanoe County,IN,74.11764705882354
47918,Fountain County,IN,87.05882352941177
50010,Story County,IA,58.4873949579832
50021,Polk County,IA,77.64705882352942
50049,Lucas County,IA,92.10084033613445
50131,Polk County,IA,80.75630252100841
50208,Jasper County,IA,57.39495798319327
50310,Polk County,IA,21.008403361344538
50315,Polk County,IA,8.739495798319327
50461,Mitchell County,IA,93.02521008403362
50588,Buena Vista County,IA,75.54621848739495
50662,Fayette County,IA,71.00840336134453
51105,Woodbury County,IA,70.92436974789916
51334,Emmet County,IA,68.15126050420169
51501,Pottawattamie County,IA,2.6050420168067228
51503,Pottawattamie County,IA,32.10084033613445
52040,Dubuque County,IA,99.83193277310924
52722,Scott County,IA,20.504201680672267
52804,Scott County,IA,16.554621848739494
66006,Douglas County,KS,96.97478991596638
66061,Johnson County,KS,52.18487394957984
66104,Wyandotte County,KS,26.722689075630253
66209,Johnson County,KS,82.68907563025209
66604,Shawnee County,KS,47.983193277310924
67005,Cowley County,KS,54.70588235294118
67211,Sedgwick County,KS,54.45378151260504
67212,Sedgwick County,KS,65.12605042016807
67218,Sedgwick County,KS,78.31932773109244
67401,Saline County,KS,20.92436974789916
67546,McPherson County,KS,100
40004,Nelson County,KY,18.991596638655462
40206,Jefferson County,KY,71.34453781512605
40214,Jefferson County,KY,6.134453781512605
40741,Laurel County,KY,22.016806722689076
40962,Clay County,KY,50.67226890756302
41011,Kenton County,KY,14.201680672268907
41015,Kenton County,KY,25.71428571428571
41018,Kenton County,KY,24.201680672268907
41031,Harrison County,KY,56.134453781512605
41040,Pendleton County,KY,69.49579831932773
41042,Boone County,KY,24.53781512605042
41074,Campbell County,KY,92.3529411764706
41230,Lawrence County,KY,24.705882352941178
42104,Warren County,KY,41.9327731092437
42211,Trigg County,KY,64.6218487394958
42217,Christian County,KY,94.11764705882352
42276,Logan County,KY,55.88235294117647
42330,Muhlenberg County,KY,73.19327731092436
42701,Hardin County,KY,11.848739495798318
42743,Green County,KY,70.4201680672269
70056,Jefferson Parish,LA,3.7815126050420167
70126,Orleans Parish,LA,5.46218487394958
70131,Orleans Parish,LA,14.285714285714285
70364,Terrebonne Parish,LA,7.563025210084033
70380,St. Mary Parish,LA,21.764705882352942
70435,St. Tammany Parish,LA,20.168067226890756
70447,St. Tammany Parish,LA,59.32773109243698
70560,Iberia Parish,LA,1.7647058823529411
70583,Lafayette Parish,LA,48.65546218487395
70714,East Baton Rouge Parish,LA,23.277310924369747
70764,Iberville Parish,LA,32.94117647058823
70807,East Baton Rouge Parish,LA,12.857142857142856
70810,East Baton Rouge Parish,LA,8.15126050420168
71019,Red River Parish,LA,62.26890756302521
71291,Ouachita Parish,LA,10.840336134453782
04038,Cumberland County,ME,54.621848739495796
04062,Cumberland County,ME,56.21848739495798
04071,Cumberland County,ME,96.72268907563026
04083,York County,ME,83.27731092436976
04401,Penobscot County,ME,1.2605042016806722
04444,Penobscot County,ME,78.73949579831933
04915,Waldo County,ME,91.17647058823529
20646,Charles County,MD,77.73109243697479
20720,Prince George's County,MD,83.19327731092437
20743,Prince George's County,MD,33.94957983193277
20877,Montgomery County,MD,80.33613445378151
21012,Anne Arundel County,MD,93.27731092436974
21017,Harford County,MD,91.68067226890756
21045,Howard County,MD,80.16806722689076
21046,Howard County,MD,91.42857142857143
21061,Anne Arundel County,MD,10.420168067226891
21075,Howard County,MD,69.07563025210084
21122,Anne Arundel County,MD,30.50420168067227
21146,Anne Arundel County,MD,98.99159663865547
21158,Carroll County,MD,84.45378151260505
21208,Baltimore County,MD,62.436974789915965
21215,Baltimore city,MD,7.815126050420168
21216,Baltimore city,MD,34.285714285714285
21220,Baltimore County,MD,18.15126050420168
21224,Baltimore city,MD,46.554621848739494
21704,Frederick County,MD,95.21008403361344
21771,Frederick County,MD,65.7983193277311
21774,Frederick County,MD,88.0672268907563
21793,Frederick County,MD,89.57983193277312
01062,Hampshire County,MA,76.80672268907564
01085,Hampden County,MA,82.85714285714286
01109,Hampden County,MA,30
01201,Berkshire County,MA,0.6722689075630253
01247,Berkshire County,MA,5.042016806722689
01540,Worcester County,MA,38.90756302521009
01545,Worcester County,MA,17.142857142857142
01730,Middlesex County,MA,30.92436974789916
01741,Middlesex County,MA,97.73109243697479
01749,Middlesex County,MA,52.94117647058824
01752,Middlesex County,MA,2.5210084033613445
01757,Worcester County,MA,1.4285714285714286
01778,Middlesex County,MA,93.36134453781513
01860,Essex County,MA,94.62184873949579
01864,Middlesex County,MA,79.83193277310924
01887,Middlesex County,MA,6.050420168067227
01905,Essex County,MA,57.98319327731093
01913,Essex County,MA,59.075630252100844
01915,Essex County,MA,0.9243697478991597
01938,Essex County,MA,79.15966386554622
01945,Essex County,MA,40.33613445378151
02053,Norfolk County,MA,48.65546218487395
02061,Plymouth County,MA,70.33613445378151
02066,Plymouth County,MA,35.54621848739496
02118,Suffolk County,MA,0.16806722689075632
02128,Suffolk County,MA,75.63025210084034
02130,Suffolk County,MA,0.5882352941176471
02131,Suffolk County,MA,73.0252100840336
02134,Suffolk County,MA,61.34453781512605
02139,Middlesex County,MA,1.9327731092436975
02148,Middlesex County,MA,0
02149,Middlesex County,MA,95.96638655462185
02151,Suffolk County,MA,0.08403361344537816
02155,Middlesex County,MA,6.218487394957983
02186,Norfolk County,MA,42.773109243697476
02301,Plymouth County,MA,30.756302521008404
02302,Plymouth County,MA,60.42016806722689
02346,Plymouth County,MA,97.39495798319328
02351,Plymouth County,MA,16.134453781512605
02360,Plymouth County,MA,0.5042016806722689
02368,Norfolk County,MA,89.15966386554622
02446,Norfolk County,MA,19.66386554621849
02459,Middlesex County,MA,44.11764705882353
02474,Middlesex County,MA,13.109243697478993
02568,Dukes County,MA,74.53781512605042
02632,Barnstable County,MA,49.49579831932773
02724,Bristol County,MA,3.1932773109243695
02745,Bristol County,MA,1.3445378151260505
02747,Bristol County,MA,96.30252100840336
48066,Macomb County,MI,2.689075630252101
48073,Oakland County,MI,27.647058823529413
48076,Oakland County,MI,30.42016806722689
48079,St. Clair County,MI,65.46218487394958
48089,Macomb County,MI,7.899159663865546
48127,Wayne County,MI,12.436974789915967
48146,Wayne County,MI,31.26050420168067
48158,Washtenaw County,MI,77.98319327731093
48161,Monroe County,MI,7.142857142857142
48166,Monroe County,MI,41.76470588235294
48174,Wayne County,MI,28.15126050420168
48192,Wayne County,MI,18.067226890756302
48201,Wayne County,MI,37.73109243697479
48206,Wayne County,MI,26.134453781512608
48207,Wayne County,MI,51.68067226890757
48211,Wayne County,MI,87.6470588235294
48213,Wayne County,MI,11.176470588235295
48224,Wayne County,MI,14.873949579831933
48234,Wayne County,MI,7.647058823529412
48235,Wayne County,MI,1.5126050420168067
48327,Oakland County,MI,30.672268907563026
48340,Oakland County,MI,10.756302521008404
48381,Oakland County,MI,67.47899159663866
48457,Genesee County,MI,85.54621848739495
48622,Clare County,MI,76.21848739495798
48624,Gladwin County,MI,37.05882352941177
48808,Clinton County,MI,95.7983193277311
48843,Livingston County,MI,40.588235294117645
48858,Isabella County,MI,45.96638655462185
48875,Ionia County,MI,81.42857142857143
49022,Berrien County,MI,10.336134453781511
49201,Jackson County,MI,53.865546218487395
49329,Montcalm County,MI,98.15126050420167
49331,Kent County,MI,50.588235294117645
49417,Ottawa County,MI,17.478991596638654
49418,Kent County,MI,36.89075630252101
49442,Muskegon County,MI,2.773109243697479
49457,Muskegon County,MI,95.29411764705881
55014,Anoka County,MN,65.63025210084034
55020,Scott County,MN,99.91596638655463
55021,Rice County,MN,36.30252100840336
55044,Dakota County,MN,51.008403361344534
55057,Rice County,MN,72.60504201680672
55107,Ramsey County,MN,75.7983193277311
55117,Ramsey County,MN,16.050420168067227
55124,Dakota County,MN,37.563025210084035
55125,Washington County,MN,40
55128,Washington County,MN,49.07563025210084
55306,Dakota County,MN,96.63865546218487
55308,Sherburne County,MN,92.43697478991596
55404,Hennepin County,MN,0.7563025210084033
55408,Hennepin County,MN,37.64705882352941
55420,Hennepin County,MN,37.983193277310924
55429,Hennepin County,MN,62.18487394957983
55444,Hennepin County,MN,57.647058823529406
55445,Hennepin County,MN,92.94117647058823
55448,Anoka County,MN,75.04201680672269
55720,Carlton County,MN,66.1344537815126
56364,Morrison County,MN,90
56425,Crow Wing County,MN,88.15126050420167
56701,Pennington County,MN,19.747899159663866
39059,Copiah County,MS,81.17647058823529
39110,Madison County,MS,38.57142857142858
39120,Adams County,MS,40.7563025210084
39211,Hinds County,MS,66.21848739495798
63118,St. Louis city,MO,31.008403361344538
63130,St. Louis County,MO,52.52100840336135
63136,St. Louis County,MO,6.80672268907563
63301,St. Charles County,MO,13.61344537815126
63376,St. Charles County,MO,34.705882352941174
63640,St. Francois County,MO,39.49579831932773
64024,Clay County,MO,17.899159663865547
64064,Jackson County,MO,52.268907563025216
64082,Jackson County,MO,72.60504201680672
64131,Jackson County,MO,14.453781512605044
64133,Jackson County,MO,3.5294117647058822
64503,Buchanan County,MO,24.6218487394958
59401,Cascade County,MT,83.61344537815127
68005,Sarpy County,NE,65.54621848739495
68025,Dodge County,NE,33.61344537815126
68046,Sarpy County,NE,67.81512605042018
68104,Douglas County,NE,84.95798319327731
68116,Douglas County,NE,61.680672268907564
68132,Douglas County,NE,78.23529411764706
68135,Douglas County,NE,73.8655462184874
68136,Sarpy County,NE,98.4873949579832
68505,Lancaster County,NE,84.03361344537815
68516,Lancaster County,NE,68.0672268907563
68632,Butler County,NE,98.57142857142858
68763,Holt County,NE,99.32773109243698
89104,Clark County,NV,36.97478991596639
89106,Clark County,NV,47.81512605042017
89121,Clark County,NV,26.218487394957986
89156,Clark County,NV,68.4873949579832
89423,Douglas County,NV,84.03361344537815
89433,Washoe County,NV,38.991596638655466
89801,Elko County,NV,67.81512605042018
03051,Hillsborough County,NH,55.96638655462185
03104,Hillsborough County,NH,42.35294117647059
03743,Sullivan County,NH,54.36974789915966
03801,Rockingham County,NH,51.76470588235295
07003,Essex County,NJ,9.495798319327731
07005,Morris County,NJ,31.76470588235294
07011,Passaic County,NJ,17.81512605042017
07023,Union County,NJ,99.07563025210084
07024,Bergen County,NJ,68.15126050420169
07047,Hudson County,NJ,4.285714285714286
07050,Essex County,NJ,11.344537815126051
07093,Hudson County,NJ,5.714285714285714
07108,Essex County,NJ,1.0084033613445378
07417,Bergen County,NJ,87.22689075630252
07463,Bergen County,NJ,97.89915966386555
07470,Passaic County,NJ,16.218487394957982
07644,Bergen County,NJ,39.2436974789916
07712,Monmouth County,NJ,2.1848739495798317
07801,Morris County,NJ,51.84873949579833
07850,Morris County,NJ,99.2436974789916
08016,Burlington County,NJ,2.4369747899159666
08028,Gloucester County,NJ,98.73949579831933
08033,Camden County,NJ,87.81512605042016
08049,Camden County,NJ,86.97478991596638
08055,Burlington County,NJ,69.5798319327731
08080,Gloucester County,NJ,11.596638655462185
08090,Gloucester County,NJ,70.67226890756302
08234,Atlantic County,NJ,3.4453781512605044
08527,Ocean County,NJ,9.07563025210084
08629,Mercer County,NJ,30.084033613445378
08701,Ocean County,NJ,16.974789915966387
08854,Middlesex County,NJ,7.9831932773109235
08857,Middlesex County,NJ,7.73109243697479
08889,Hunterdon County,NJ,98.23529411764706
87111,Bernalillo County,NM,36.63865546218487
87114,Bernalillo County,NM,31.34453781512605
87323,McKinley County,NM,97.98319327731092
10013,New York County,NY,85.29411764705883
10023,New York County,NY,48.90756302521008
10305,Richmond County,NY,19.411764705882355
10458,Bronx County,NY,3.697478991596639
10467,Bronx County,NY,0.33613445378151263
10475,Bronx County,NY,58.40336134453782
10520,Westchester County,NY,94.28571428571428
10522,Westchester County,NY,97.3109243697479
10701,Westchester County,NY,0.8403361344537815
10950,Orange County,NY,88.23529411764706
10965,Rockland County,NY,96.5546218487395
10977,Rockland County,NY,30.168067226890756
11004,Queens County,NY,90.84033613445378
11101,Queens County,NY,56.80672268907563
11201,Kings County,NY,20.756302521008404
11206,Kings County,NY,1.680672268907563
11207,Kings County,NY,0.25210084033613445
11219,Kings County,NY,42.016806722689076
11223,Kings County,NY,53.69747899159664
11230,Kings County,NY,46.97478991596638
11368,Queens County,NY,6.302521008403361
11370,Queens County,NY,95.04201680672269
11373,Queens County,NY,82.94117647058825
11379,Queens County,NY,94.53781512605042
11385,Queens County,NY,69.83193277310924
11416,Queens County,NY,87.98319327731092
11426,Queens County,NY,94.9579831932773
11433,Queens County,NY,85.21008403361344
11436,Queens County,NY,89.49579831932773
11572,Nassau County,NY,89.66386554621849
11725,Suffolk County,NY,64.2016806722689
11763,Suffolk County,NY,44.87394957983194
11782,Suffolk County,NY,95.46218487394958
11798,Suffolk County,NY,92.77310924369748
12047,Albany County,NY,63.27731092436974
12203,Albany County,NY,36.806722689075634
12601,Dutchess County,NY,27.310924369747898
12804,Warren County,NY,8.067226890756302
12839,Washington County,NY,25.966386554621852
12866,Saratoga County,NY,13.949579831932773
12885,Warren County,NY,91.84873949579831
12962,Clinton County,NY,64.87394957983193
13027,Onondaga County,NY,13.445378151260504
13034,Cayuga County,NY,97.47899159663865
13057,Onondaga County,NY,79.83193277310924
13066,Onondaga County,NY,70.08403361344537
13165,Seneca County,NY,25.882352941176475
13203,Onondaga County,NY,19.495798319327733
13206,Onondaga County,NY,23.61344537815126
13413,Oneida County,NY,48.403361344537814
13440,Oneida County,NY,1.1764705882352942
13606,Jefferson County,NY,98.31932773109243
13668,St. Lawrence County,NY,93.8655462184874
14032,Erie County,NY,86.63865546218487
14085,Erie County,NY,94.70588235294117
14086,Erie County,NY,19.915966386554622
14204,Erie County,NY,41.42857142857143
14209,Erie County,NY,71.42857142857143
14213,Erie County,NY,19.07563025210084
14214,Erie County,NY,29.411764705882355
14222,Erie County,NY,55.63025210084034
14225,Erie County,NY,8.571428571428571
14227,Erie County,NY,23.445378151260503
14414,Livingston County,NY,63.949579831932766
14424,Ontario County,NY,16.470588235294116
14450,Monroe County,NY,2.100840336134454
14466,Ontario County,NY,96.05042016806723
14472,Monroe County,NY,79.5798319327731
14485,Livingston County,NY,82.18487394957982
14502,Wayne County,NY,26.05042016806723
14526,Monroe County,NY,15.042016806722689
14527,Yates County,NY,85.7983193277311
14534,Monroe County,NY,5.798319327731092
14550,Wyoming County,NY,93.4453781512605
14580,Monroe County,NY,5.966386554621849
14586,Monroe County,NY,66.80672268907563
14589,Wayne County,NY,33.4453781512605
14590,Wayne County,NY,44.70588235294118
14605,Monroe County,NY,32.60504201680672
14616,Monroe County,NY,2.26890756302521
14620,Monroe County,NY,4.873949579831933
14739,Allegany County,NY,90.58823529411765
14801,Steuben County,NY,78.65546218487395
14830,Steuben County,NY,57.05882352941176
14845,Chemung County,NY,15.88235294117647
14867,Tompkins County,NY,62.857142857142854
14891,Schuyler County,NY,75.71428571428571
27105,Forsyth County,NC,1.5966386554621848
27203,Randolph County,NC,25.546218487394956
27215,Alamance County,NC,10.588235294117647
27360,Davidson County,NC,3.0252100840336134
27545,Wake County,NC,77.47899159663866
27557,Nash County,NC,91.59663865546219
27592,Wake County,NC,72.85714285714285
27604,Wake County,NC,31.596638655462183
27606,Wake County,NC,78.90756302521008
27703,Durham County,NC,10.92436974789916
27704,Durham County,NC,38.15126050420168
27705,Durham County,NC,21.428571428571427
27713,Durham County,NC,84.36974789915966
27804,Nash County,NC,32.773109243697476
27858,Pitt County,NC,59.66386554621849
27893,Wilson County,NC,14.957983193277311
27909,Pasquotank County,NC,12.605042016806722
28043,Rutherford County,NC,73.52941176470588
28054,Gaston County,NC,19.57983193277311
28080,Lincoln County,NC,94.11764705882352
28092,Lincoln County,NC,22.100840336134453
28110,Union County,NC,21.680672268907564
28144,Rowan County,NC,32.94117647058823
28208,Mecklenburg County,NC,9.243697478991598
28213,Mecklenburg County,NC,25.294117647058822
28216,Mecklenburg County,NC,9.663865546218489
28227,Mecklenburg County,NC,20
28277,Mecklenburg County,NC,40.7563025210084
28328,Sampson County,NC,33.865546218487395
28372,Robeson County,NC,74.70588235294117
28376,Hoke County,NC,28.655462184873947
28560,Craven County,NC,27.22689075630252
28602,Catawba County,NC,21.26050420168067
28625,Iredell County,NC,16.89075630252101
28716,Haywood County,NC,50.42016806722689
28734,Macon County,NC,16.72268907563025
28752,McDowell County,NC,15.546218487394958
28754,Madison County,NC,94.78991596638654
28779,Jackson County,NC,83.94957983193278
28806,Buncombe County,NC,38.991596638655466
58203,Grand Forks County,ND,53.36134453781513
58474,Dickey County,ND,99.49579831932773
58503,Burleigh County,ND,31.932773109243694
58504,Burleigh County,ND,53.529411764705884
43004,Franklin County,OH,40.67226890756302
43017,Franklin County,OH,62.6890756302521
43050,Knox County,OH,6.722689075630252
43068,Franklin County,OH,10.084033613445378
43074,Delaware County,OH,81.68067226890756
43081,Franklin County,OH,21.84873949579832
43110,Franklin County,OH,22.77310924369748
43123,Franklin County,OH,6.890756302521009
43146,Pickaway County,OH,90.75630252100841
43223,Franklin County,OH,4.789915966386555
43228,Franklin County,OH,2.857142857142857
43229,Franklin County,OH,5.546218487394958
43537,Lucas County,OH,26.89075630252101
43606,Lucas County,OH,16.63865546218487
43620,Lucas County,OH,74.95798319327731
43701,Muskingum County,OH,0.42016806722689076
44121,Cuyahoga County,OH,9.411764705882353
44133,Cuyahoga County,OH,25.630252100840334
44203,Summit County,OH,5.2100840336134455
44270,Wayne County,OH,63.10924369747899
44301,Summit County,OH,64.95798319327731
44410,Trumbull County,OH,36.134453781512605
44413,Columbiana County,OH,76.55462184873949
44425,Trumbull County,OH,29.66386554621849
44446,Trumbull County,OH,13.19327731092437
44460,Columbiana County,OH,20.252100840336134
44507,Mahoning County,OH,51.932773109243705
44646,Stark County,OH,9.57983193277311
44705,Stark County,OH,24.03361344537815
45044,Butler County,OH,4.453781512605042
45206,Hamilton County,OH,53.94957983193277
45238,Hamilton County,OH,13.781512605042018
45239,Hamilton County,OH,16.30252100840336
45240,Hamilton County,OH,24.369747899159663
45322,Montgomery County,OH,38.23529411764706
45356,Miami County,OH,43.69747899159664
45417,Montgomery County,OH,8.403361344537815
45424,Montgomery County,OH,57.815126050420176
45638,Lawrence County,OH,3.865546218487395
45663,Scioto County,OH,49.66386554621849
45686,Gallia County,OH,85.3781512605042
45769,Meigs County,OH,64.45378151260505
45807,Allen County,OH,63.02521008403361
45887,Allen County,OH,92.85714285714286
73068,Cleveland County,OK,72.26890756302521
73069,Cleveland County,OK,67.05882352941175
73108,Oklahoma County,OK,66.97478991596638
73119,Oklahoma County,OK,22.18487394957983
73130,Oklahoma County,OK,62.436974789915965
73507,Comanche County,OK,45.04201680672269
74019,Rogers County,OK,46.470588235294116
74107,Tulsa County,OK,63.86554621848739
74112,Tulsa County,OK,54.45378151260504
74129,Tulsa County,OK,55.21008403361345
74146,Tulsa County,OK,66.80672268907563
74401,Muskogee County,OK,76.55462184873949
74604,Kay County,OK,83.8655462184874
74701,Bryan County,OK,62.10084033613445
97035,Clackamas County,OR,74.36974789915966
97060,Multnomah County,OR,75.7983193277311
97078,Washington County,OR,70.84033613445378
97211,Multnomah County,OR,43.19327731092437
97222,Clackamas County,OR,28.067226890756302
97322,Linn County,OR,13.529411764705882
97355,Linn County,OR,11.932773109243698
97478,Lane County,OR,72.18487394957982
15219,Allegheny County,PA,30.33613445378151
15690,Westmoreland County,PA,79.24369747899159
16101,Lawrence County,PA,5.294117647058823
16148,Mercer County,PA,46.890756302521005
17011,Cumberland County,PA,25.126050420168067
17015,Cumberland County,PA,42.26890756302521
17042,Lebanon County,PA,4.117647058823529
17109,Dauphin County,PA,59.2436974789916
17113,Dauphin County,PA,44.20168067226891
17356,York County,PA,27.983193277310924
17701,Lycoming County,PA,3.613445378151261
18015,Northampton County,PA,53.109243697478995
18042,Northampton County,PA,43.865546218487395
18073,Montgomery County,PA,80.50420168067227
18103,Lehigh County,PA,4.53781512605042
18109,Lehigh County,PA,24.873949579831933
18252,Schuylkill County,PA,56.21848739495798
18353,Monroe County,PA,65.29411764705883
18411,Lackawanna County,PA,48.23529411764706
18518,Lackawanna County,PA,85.71428571428571
18940,Bucks County,PA,63.10924369747899
19002,Montgomery County,PA,35.88235294117647
19003,Montgomery County,PA,96.47058823529412
19013,Delaware County,PA,2.941176470588235
19026,Delaware County,PA,17.394957983193276
19057,Bucks County,PA,29.747899159663866
19066,Montgomery County,PA,86.30252100840336
19067,Bucks County,PA,18.319327731092436
19079,Delaware County,PA,69.15966386554622
19090,Montgomery County,PA,47.05882352941176
19116,Philadelphia County,PA,62.773109243697476
19131,Philadelphia County,PA,4.957983193277311
19136,Philadelphia County,PA,11.76470588235294
19138,Philadelphia County,PA,12.521008403361344
19141,Philadelphia County,PA,29.495798319327733
19142,Philadelphia County,PA,12.26890756302521
19144,Philadelphia County,PA,4.033613445378151
19145,Philadelphia County,PA,6.974789915966387
19148,Philadelphia County,PA,31.176470588235293
19149,Philadelphia County,PA,6.470588235294119
19154,Philadelphia County,PA,15.46218487394958
19403,Montgomery County,PA,18.235294117647058
19446,Montgomery County,PA,14.705882352941178
19601,Berks County,PA,2.3529411764705883
19605,Berks County,PA,28.991596638655466
02814,Providence County,RI,84.53781512605042
02864,Providence County,RI,25.04201680672269
29048,Orangeburg County,SC,96.89075630252101
29204,Richland County,SC,71.84873949579831
29205,Richland County,SC,79.32773109243698
29210,Richland County,SC,41.51260504201681
29212,Lexington County,SC,65.04201680672269
29223,Richland County,SC,23.10924369747899
29403,Charleston County,SC,42.52100840336134
29412,Charleston County,SC,32.18487394957983
29440,Georgetown County,SC,45.63025210084034
29445,Berkeley County,SC,23.781512605042014
29456,Dorchester County,SC,34.03361344537815
29486,Berkeley County,SC,58.82352941176471
29627,Anderson County,SC,59.91596638655462
29682,Pickens County,SC,99.15966386554622
29690,Greenville County,SC,38.4873949579832
29693,Oconee County,SC,67.47899159663866
57078,Yankton County,SD,72.01680672268907
57106,Minnehaha County,SD,22.268907563025213
57350,Beadle County,SD,55.79831932773109
37062,Williamson County,TN,83.44537815126051
37122,Wilson County,TN,26.974789915966387
37160,Bedford County,TN,19.15966386554622
37174,Williamson County,TN,47.983193277310924
37186,Sumner County,TN,67.39495798319328
37206,Davidson County,TN,32.436974789915965
37214,Davidson County,TN,60.924369747899156
37221,Davidson County,TN,87.6470588235294
37347,Marion County,TN,80.25210084033614
37405,Hamilton County,TN,77.89915966386555
37415,Hamilton County,TN,58.4873949579832
37419,Hamilton County,TN,96.72268907563026
37604,Washington County,TN,19.831932773109244
37640,Johnson County,TN,99.66386554621849
37919,Knox County,TN,54.03361344537815
37924,Knox County,TN,90.16806722689076
38053,Shelby County,TN,48.319327731092436
38116,Shelby County,TN,17.983193277310924
38119,Shelby County,TN,80.92436974789916
38301,Madison County,TN,10.168067226890756
38305,Madison County,TN,9.747899159663866
38344,Carroll County,TN,74.70588235294117
38351,Henderson County,TN,52.268907563025216
38544,Putnam County,TN,66.63865546218487
75040,Dallas County,TX,17.56302521008403
75041,Dallas County,TX,43.36134453781513
75050,Dallas County,TX,41.76470588235294
75052,Dallas County,TX,17.22689075630252
75061,Dallas County,TX,51.42857142857142
75063,Dallas County,TX,58.06722689075631
75078,Collin County,TX,80
75088,Dallas County,TX,71.26050420168067
75104,Dallas County,TX,22.857142857142858
75210,Dallas County,TX,70.50420168067227
75211,Dallas County,TX,18.907563025210084
75217,Dallas County,TX,9.159663865546218
75228,Dallas County,TX,5.630252100840337
75243,Dallas County,TX,42.773109243697476
75244,Dallas County,TX,89.41176470588236
75455,Titus County,TX,53.02521008403362
75605,Gregg County,TX,52.60504201680673
75703,Smith County,TX,30.252100840336134
75951,Jasper County,TX,50.168067226890756
75961,Nacogdoches County,TX,69.15966386554622
76001,Tarrant County,TX,54.78991596638656
76013,Tarrant County,TX,64.36974789915966
76017,Tarrant County,TX,29.57983193277311
76018,Tarrant County,TX,58.235294117647065
76020,Tarrant County,TX,27.563025210084035
76040,Tarrant County,TX,45.79831932773109
76053,Tarrant County,TX,40.168067226890756
76082,Parker County,TX,56.63865546218487
76086,Parker County,TX,60.08403361344538
76106,Tarrant County,TX,47.39495798319327
76108,Tarrant County,TX,37.05882352941177
76110,Tarrant County,TX,76.72268907563026
76119,Tarrant County,TX,7.3109243697479
76137,Tarrant County,TX,20.33613445378151
76226,Denton County,TX,70.16806722689076
76244,Tarrant County,TX,59.49579831932773
76450,Young County,TX,95.12605042016806
76502,Bell County,TX,15.210084033613445
76522,Coryell County,TX,78.15126050420169
76549,Bell County,TX,22.605042016806724
77006,Harris County,TX,78.40336134453781
77014,Harris County,TX,60.84033613445378
77015,Harris County,TX,38.73949579831933
77016,Harris County,TX,41.09243697478991
77018,Harris County,TX,77.22689075630252
77022,Harris County,TX,55.46218487394958
77034,Harris County,TX,57.899159663865554
77044,Harris County,TX,34.78991596638655
77049,Harris County,TX,67.05882352941175
77055,Harris County,TX,58.90756302521009
77069,Harris County,TX,86.89075630252101
77070,Harris County,TX,45.714285714285715
77076,Harris County,TX,53.78151260504202
77084,Harris County,TX,12.100840336134453
77086,Harris County,TX,68.82352941176471
77087,Harris County,TX,56.05042016806723
77089,Harris County,TX,42.773109243697476
77099,Harris County,TX,54.11764705882353
77327,Liberty County,TX,66.05042016806722
77339,Harris County,TX,57.14285714285714
77357,Montgomery County,TX,64.03361344537815
77375,Harris County,TX,21.428571428571427
77384,Montgomery County,TX,79.49579831932773
77406,Fort Bend County,TX,44.45378151260504
77429,Harris County,TX,12.016806722689076
77433,Harris County,TX,12.184873949579831
77449,Harris County,TX,11.176470588235295
77484,Waller County,TX,92.52100840336135
77502,Harris County,TX,53.19327731092437
77504,Harris County,TX,67.81512605042018
77539,Galveston County,TX,20.084033613445378
77551,Galveston County,TX,25.462184873949578
77586,Harris County,TX,79.74789915966387
77642,Jefferson County,TX,27.39495798319328
77662,Orange County,TX,44.36974789915966
77708,Jefferson County,TX,83.109243697479
77963,Goliad County,TX,98.82352941176471
78213,Bexar County,TX,46.05042016806723
78412,Nueces County,TX,52.689075630252105
78520,Cameron County,TX,91.26050420168067
78542,Hidalgo County,TX,75.46218487394958
78550,Cameron County,TX,41.596638655462186
78572,Hidalgo County,TX,18.73949579831933
78582,Starr County,TX,69.66386554621849
78584,Starr County,TX,68.31932773109244
78586,Cameron County,TX,43.19327731092437
78621,Bastrop County,TX,71.84873949579831
78640,Hays County,TX,41.008403361344534
78724,Travis County,TX,75.3781512605042
78729,Williamson County,TX,80.58823529411765
78748,Travis County,TX,72.94117647058823
78852,Maverick County,TX,55.714285714285715
79336,Hockley County,TX,73.27731092436974
79360,Gaines County,TX,52.10084033613446
79412,Lubbock County,TX,60.33613445378151
79556,Nolan County,TX,98.0672268907563
79764,Ector County,TX,55.54621848739496
79765,Ector County,TX,72.10084033613445
79927,El Paso County,TX,56.470588235294116
79928,El Paso County,TX,48.99159663865546
79930,El Paso County,TX,79.66386554621849
79932,El Paso County,TX,84.03361344537815
84015,Davis County,UT,21.092436974789916
84025,Davis County,UT,78.0672268907563
84043,Utah County,UT,77.73109243697479
84057,Utah County,UT,68.57142857142857
84070,Salt Lake County,UT,50
84074,Tooele County,UT,53.61344537815126
84096,Salt Lake County,UT,61.51260504201681
84103,Salt Lake County,UT,67.47899159663866
84104,Salt Lake County,UT,78.82352941176471
84117,Salt Lake County,UT,80.4201680672269
84118,Salt Lake County,UT,17.647058823529413
84119,Salt Lake County,UT,12.352941176470589
84120,Salt Lake County,UT,7.4789915966386555
84128,Salt Lake County,UT,37.983193277310924
84129,,UT,27.81512605042017
84318,Cache County,UT,99.41176470588235
84701,Sevier County,UT,92.26890756302521
84721,Iron County,UT,67.73109243697479
05001,Windsor County,VT,86.38655462184875
05468,Chittenden County,VT,69.91596638655462
05701,Rutland County,VT,72.52100840336134
20121,Fairfax County,VA,93.78151260504201
20147,Loudoun County,VA,36.05042016806723
20151,Fairfax County,VA,88.99159663865545
20190,Fairfax County,VA,85.88235294117646
20191,Fairfax County,VA,75.96638655462185
22003,Fairfax County,VA,28.823529411764703
22042,Fairfax County,VA,51.59663865546219
22044,Fairfax County,VA,96.21848739495799
22079,Fairfax County,VA,76.1344537815126
22191,Prince William County,VA,68.73949579831933
22192,Prince William County,VA,71.76470588235294
22193,Prince William County,VA,13.361344537815127
22201,Arlington County,VA,61.09243697478992
22203,Arlington County,VA,76.9747899159664
22206,Arlington County,VA,96.38655462184875
22207,Arlington County,VA,90.08403361344538
22309,Fairfax County,VA,25.798319327731097
22310,Fairfax County,VA,82.01680672268907
22311,Alexandria city,VA,84.70588235294117
22314,Alexandria city,VA,65.3781512605042
22408,Spotsylvania County,VA,66.38655462184873
22655,Frederick County,VA,58.73949579831933
22911,Albemarle County,VA,75.29411764705883
23060,Henrico County,VA,63.4453781512605
23220,Richmond city,VA,63.4453781512605
23228,Henrico County,VA,49.91596638655462
23322,Chesapeake city,VA,54.285714285714285
23451,Virginia Beach city,VA,39.15966386554622
23831,Chesterfield County,VA,35.96638655462185
24078,Henry County,VA,85.04201680672269
24477,Augusta County,VA,61.1764705882353
24605,Tazewell County,VA,31.428571428571427
98003,King County,WA,26.80672268907563
98008,King County,WA,87.22689075630252
98012,Snohomish County,WA,28.57142857142857
98031,King County,WA,40.924369747899156
98032,King County,WA,42.18487394957983
98036,Snohomish County,WA,47.310924369747895
98040,King County,WA,73.69747899159664
98045,King County,WA,82.77310924369748
98052,King County,WA,49.159663865546214
98087,Snohomish County,WA,46.134453781512605
98117,King County,WA,86.5546218487395
98119,King County,WA,74.2016806722689
98122,King County,WA,57.731092436974784
98133,King County,WA,27.058823529411764
98155,King County,WA,45.21008403361345
98177,King County,WA,74.28571428571429
98221,Skagit County,WA,63.613445378151255
98258,Snohomish County,WA,56.554621848739494
98271,Snohomish County,WA,43.529411764705884
98284,Skagit County,WA,51.17647058823529
98292,Snohomish County,WA,61.76470588235294
98312,Kitsap County,WA,72.77310924369748
98388,Pierce County,WA,94.87394957983193
98584,Mason County,WA,82.10084033613445
98626,Cowlitz County,WA,42.6890756302521
98632,Cowlitz County,WA,51.42857142857142
98802,Douglas County,WA,50.924369747899156
98901,Yakima County,WA,55.21008403361345
99301,Franklin County,WA,10.252100840336134
20009,District of Columbia,DC,29.2436974789916
20015,District of Columbia,DC,87.56302521008404
20019,District of Columbia,DC,3.361344537815126
20032,District of Columbia,DC,4.369747899159663
25304,Kanawha County,WV,88.73949579831933
26150,Wood County,WV,77.31092436974791
26301,Harrison County,WV,6.386554621848739
53022,Washington County,WI,87.14285714285714
53051,Waukesha County,WI,43.109243697478995
53094,Jefferson County,WI,41.17647058823529
53097,Ozaukee County,WI,93.19327731092437
53104,Kenosha County,WI,79.41176470588235
53144,Kenosha County,WI,47.47899159663865
53172,Milwaukee County,WI,34.53781512605042
53188,Waukesha County,WI,22.35294117647059
53222,Milwaukee County,WI,56.97478991596638
53223,Milwaukee County,WI,15.966386554621847
53405,Racine County,WI,5.126050420168067
53511,Rock County,WI,6.638655462184874
53534,Rock County,WI,91.5126050420168
53545,Rock County,WI,34.11764705882353
53546,Rock County,WI,17.22689075630252
53549,Jefferson County,WI,76.21848739495798
53593,Dane County,WI,85.12605042016807
53703,Dane County,WI,81.00840336134453
53704,Dane County,WI,36.38655462184874
53913,Sauk County,WI,36.554621848739494
53963,Dodge County,WI,55.12605042016807
54002,St. Croix County,WI,89.2436974789916
54016,St. Croix County,WI,45.46218487394958
54201,Kewaunee County,WI,95.54621848739497
54401,Marathon County,WI,38.23529411764706
54403,Marathon County,WI,77.39495798319328
54467,Portage County,WI,65.12605042016807
54646,Juneau County,WI,84.6218487394958
54911,Outagamie County,WI,38.40336134453782
54915,Outagamie County,WI,33.52941176470588
54935,Fond du Lac County,WI,15.294117647058824
54981,Waupaca County,WI,64.03361344537815
82240,Goshen County,WY,88.90756302521008
82718,Campbell County,WY,57.310924369747895
