ZipCode,county,state,Adult,Retirement
35055,Cullman County,AL,60.909090909090914,NA
35131,St. Clair County,AL,98.63636363636363,NA
36502,Escambia County,AL,NA,43.78378378378379
99517,Anchorage Municipality,AK,69.0909090909091,NA
85206,Maricopa County,AZ,NA,31.891891891891895
85260,Maricopa County,AZ,71.81818181818181,NA
85349,Yuma County,AZ,NA,72.43243243243244
85388,Maricopa County,AZ,74.0909090909091,NA
85395,Maricopa County,AZ,NA,49.72972972972973
85710,Pima County,AZ,NA,14.054054054054054
85749,Pima County,AZ,NA,41.08108108108108
86406,Mohave County,AZ,54.090909090909086,NA
86409,Mohave County,AZ,NA,3.2432432432432434
72417,Craighead County,AR,NA,98.91891891891892
72715,Benton County,AR,NA,70.27027027027027
90002,Los Angeles County,CA,NA,95.13513513513514
90011,Los Angeles County,CA,25.90909090909091,NA
90201,Los Angeles County,CA,34.090909090909086,NA
90240,Los Angeles County,CA,NA,78.37837837837837
90241,Los Angeles County,CA,NA,58.91891891891892
90255,Los Angeles County,CA,NA,71.35135135135135
90740,Orange County,CA,NA,45.40540540540541
90744,Los Angeles County,CA,NA,68.64864864864865
90804,Los Angeles County,CA,NA,71.89189189189189
91208,Los Angeles County,CA,NA,78.91891891891892
91331,Los Angeles County,CA,NA,18.37837837837838
91343,Los Angeles County,CA,NA,52.972972972972975
91406,Los Angeles County,CA,56.81818181818182,NA
91711,Los Angeles County,CA,NA,32.972972972972975
91941,San Diego County,CA,63.63636363636363,NA
92122,San Diego County,CA,NA,75.13513513513513
92234,Riverside County,CA,NA,1.6216216216216217
92262,Riverside County,CA,NA,9.18918918918919
92277,San Bernardino County,CA,76.81818181818181,NA
92354,San Bernardino County,CA,85.45454545454545,NA
92544,Riverside County,CA,53.18181818181819,NA
92553,Riverside County,CA,29.09090909090909,NA
92672,Orange County,CA,NA,61.62162162162163
92780,Orange County,CA,41.36363636363637,NA
92835,Orange County,CA,NA,70.8108108108108
92844,Orange County,CA,NA,80.54054054054053
93001,Ventura County,CA,28.18181818181818,NA
93013,Santa Barbara County,CA,NA,96.21621621621622
93015,Ventura County,CA,75.9090909090909,NA
93274,Tulare County,CA,6.363636363636363,NA
93630,Fresno County,CA,NA,92.97297297297298
94533,Solano County,CA,NA,25.405405405405407
95206,San Joaquin County,CA,21.818181818181817,NA
95630,Sacramento County,CA,28.636363636363637,59.45945945945946
95670,Sacramento County,CA,NA,34.5945945945946
95713,Placer County,CA,91.36363636363637,NA
95835,Sacramento County,CA,NA,77.29729729729729
95963,Glenn County,CA,NA,79.45945945945945
95965,Butte County,CA,18.181818181818183,NA
96067,Siskiyou County,CA,NA,91.35135135135135
80550,Weld County,CO,32.72727272727273,NA
80701,Morgan County,CO,22.727272727272727,NA
81520,Mesa County,CO,90,NA
06105,Hartford County,CT,NA,36.21621621621622
06112,Hartford County,CT,16.818181818181817,NA
06405,New Haven County,CT,87.72727272727273,NA
06612,Fairfield County,CT,100,NA
19933,Sussex County,DE,NA,76.75675675675676
32080,St. Johns County,FL,89.54545454545455,NA
32141,Volusia County,FL,NA,58.37837837837838
32206,Duval County,FL,21.363636363636363,NA
32216,Duval County,FL,NA,30.270270270270274
32503,Escambia County,FL,20.454545454545457,NA
32533,Escambia County,FL,NA,19.45945945945946
32548,Okaloosa County,FL,NA,63.24324324324324
32640,Putnam County,FL,64.0909090909091,NA
32796,Brevard County,FL,NA,27.56756756756757
32812,Orange County,FL,40,NA
33012,Miami-Dade County,FL,NA,23.243243243243246
33026,Broward County,FL,NA,68.10810810810811
33064,Broward County,FL,NA,16.216216216216218
33127,Miami-Dade County,FL,61.36363636363637,NA
33142,Miami-Dade County,FL,NA,20
33160,Miami-Dade County,FL,NA,38.91891891891892
33196,Miami-Dade County,FL,72.72727272727273,NA
33432,Palm Beach County,FL,NA,47.56756756756757
33455,Martin County,FL,NA,23.783783783783786
33483,Palm Beach County,FL,NA,88.10810810810811
33549,Hillsborough County,FL,80,NA
33702,Pinellas County,FL,83.18181818181817,NA
33716,Pinellas County,FL,94.0909090909091,NA
33773,Pinellas County,FL,NA,80
33868,Polk County,FL,90.9090909090909,NA
33901,Lee County,FL,84.0909090909091,NA
33916,Lee County,FL,43.18181818181818,NA
34209,Manatee County,FL,NA,21.62162162162162
34471,Marion County,FL,NA,51.35135135135135
34481,Marion County,FL,78.63636363636364,NA
34653,Pasco County,FL,32.27272727272727,NA
34684,Pinellas County,FL,NA,11.351351351351353
34736,Lake County,FL,NA,52.43243243243243
34952,St. Lucie County,FL,NA,8.108108108108109
30038,DeKalb County,GA,47.27272727272727,NA
30046,Gwinnett County,GA,NA,60
30067,Cobb County,GA,67.27272727272727,NA
30106,Cobb County,GA,NA,81.62162162162161
30157,Paulding County,GA,NA,26.486486486486488
30168,Cobb County,GA,NA,90.27027027027027
30281,Henry County,GA,27.727272727272727,NA
30906,Richmond County,GA,NA,3.783783783783784
96701,Honolulu County,HI,NA,15.135135135135137
96753,Maui County,HI,NA,81.08108108108108
83301,Twin Falls County,ID,3.6363636363636362,NA
83709,Ada County,ID,15.454545454545453,NA
83713,Ada County,ID,40.45454545454545,NA
60050,McHenry County,IL,NA,35.67567567567568
60073,Lake County,IL,NA,27.027027027027028
60084,Lake County,IL,79.0909090909091,NA
60103,DuPage County,IL,29.545454545454547,NA
60133,Cook County,IL,NA,97.83783783783784
60188,DuPage County,IL,NA,22.162162162162165
60189,DuPage County,IL,37.27272727272727,NA
60202,Cook County,IL,66.36363636363637,NA
60431,Will County,IL,44.54545454545455,NA
60435,Will County,IL,10.454545454545453,NA
60503,Will County,IL,85,NA
60532,DuPage County,IL,NA,83.78378378378379
60586,Will County,IL,NA,31.351351351351354
60614,Cook County,IL,60.45454545454545,NA
60620,Cook County,IL,7.727272727272727,NA
60652,Cook County,IL,30,NA
60707,Cook County,IL,NA,43.24324324324324
60804,Cook County,IL,NA,12.432432432432433
61107,Winnebago County,IL,NA,33.513513513513516
61554,Tazewell County,IL,31.818181818181817,NA
62095,Madison County,IL,NA,86.48648648648648
62226,St. Clair County,IL,47.72727272727273,NA
62712,Sangamon County,IL,96.81818181818181,NA
46037,Hamilton County,IN,NA,40.54054054054054
46140,Hancock County,IN,NA,17.2972972972973
46218,Marion County,IN,NA,20.54054054054054
46410,Lake County,IN,NA,2.7027027027027026
46901,Howard County,IN,0.9090909090909091,NA
47112,Harrison County,IN,NA,65.94594594594595
47348,Blackford County,IN,NA,67.02702702702703
47374,Wayne County,IN,4.090909090909091,NA
47713,Vanderburgh County,IN,70,NA
50317,Polk County,IA,11.363636363636363,NA
52722,Scott County,IA,NA,29.18918918918919
66208,Johnson County,KS,86.36363636363636,NA
67147,Sedgwick County,KS,95.45454545454545,NA
67156,Cowley County,KS,NA,87.56756756756758
40258,Jefferson County,KY,23.18181818181818,NA
40291,Jefferson County,KY,17.272727272727273,NA
40336,Estill County,KY,NA,57.2972972972973
41011,Kenton County,KY,49.09090909090909,NA
42129,Metcalfe County,KY,92.27272727272727,NA
70122,Orleans Parish,LA,5,NA
70431,St. Tammany Parish,LA,93.63636363636364,NA
70577,St. Landry Parish,LA,91.81818181818183,NA
70807,East Baton Rouge Parish,LA,12.272727272727273,NA
70816,East Baton Rouge Parish,LA,5.909090909090909,NA
71109,Caddo Parish,LA,NA,91.8918918918919
71119,Caddo Parish,LA,NA,74.05405405405405
20904,Montgomery County,MD,NA,54.054054054054056
21015,Harford County,MD,77.27272727272727,NA
21222,Baltimore County,MD,4.545454545454546,NA
21244,Baltimore County,MD,79.54545454545455,NA
01536,Worcester County,MA,81.36363636363636,NA
01923,Essex County,MA,NA,4.324324324324325
01960,Essex County,MA,NA,4.864864864864865
02019,Norfolk County,MA,NA,97.2972972972973
02053,Norfolk County,MA,NA,72.97297297297297
02145,Middlesex County,MA,88.18181818181819,NA
02472,Middlesex County,MA,7.2727272727272725,NA
02777,Bristol County,MA,NA,75.67567567567568
02790,Bristol County,MA,20.909090909090907,NA
48071,Oakland County,MI,26.81818181818182,NA
48141,Wayne County,MI,9.090909090909092,NA
48178,Oakland County,MI,36.36363636363637,NA
48227,Wayne County,MI,3.1818181818181817,NA
48235,Wayne County,MI,1.8181818181818181,NA
48371,Oakland County,MI,40.909090909090914,NA
48453,Sanilac County,MI,83.63636363636363,NA
48504,Genesee County,MI,NA,43.78378378378379
48732,Bay County,MI,NA,51.891891891891895
55073,Washington County,MN,NA,100
55077,Dakota County,MN,90.45454545454545,NA
55304,Anoka County,MN,44.09090909090909,NA
55438,Hennepin County,MN,92.72727272727272,NA
55444,Hennepin County,MN,63.18181818181819,NA
55804,St. Louis County,MN,NA,39.45945945945946
55901,Olmsted County,MN,27.27272727272727,NA
56069,Le Sueur County,MN,97.72727272727273,NA
56258,Lyon County,MN,NA,61.08108108108108
56560,Clay County,MN,0.45454545454545453,NA
56701,Pennington County,MN,19.545454545454547,NA
38703,Washington County,MS,NA,87.02702702702703
39705,Lowndes County,MS,NA,88.10810810810811
63129,St. Louis County,MO,NA,5.9459459459459465
63137,St. Louis County,MO,42.27272727272727,NA
63304,St. Charles County,MO,NA,12.972972972972974
63334,Pike County,MO,NA,93.51351351351352
63376,St. Charles County,MO,9.545454545454547,NA
63401,Marion County,MO,NA,54.59459459459459
64014,Jackson County,MO,20,NA
64019,Johnson County,MO,99.0909090909091,NA
64080,Cass County,MO,68.63636363636364,NA
64114,Jackson County,MO,37.72727272727273,NA
64151,Platte County,MO,35,NA
65037,Morgan County,MO,95,NA
65740,Taney County,MO,NA,99.45945945945947
68111,Douglas County,NE,NA,36.75675675675676
68845,Buffalo County,NE,NA,73.51351351351352
89103,Clark County,NV,NA,65.4054054054054
89104,Clark County,NV,42.72727272727273,NA
89106,Clark County,NV,52.72727272727272,NA
89107,Clark County,NV,55.90909090909091,NA
89502,Washoe County,NV,NA,62.16216216216216
89511,Washoe County,NV,69.54545454545455,NA
89512,Washoe County,NV,72.27272727272728,NA
03032,Rockingham County,NH,NA,82.16216216216216
03104,Hillsborough County,NH,13.18181818181818,NA
07011,Passaic County,NJ,17.727272727272727,NA
07094,Hudson County,NJ,65.9090909090909,NA
07105,Essex County,NJ,11.818181818181818,NA
07206,Union County,NJ,NA,37.2972972972973
07514,Passaic County,NJ,NA,76.21621621621621
07628,Bergen County,NJ,45,NA
07701,Monmouth County,NJ,NA,77.83783783783784
08054,Burlington County,NJ,62.727272727272734,NA
08721,Ocean County,NJ,26.36363636363636,NA
08820,Middlesex County,NJ,NA,25.945945945945947
87107,Bernalillo County,NM,NA,22.702702702702705
87114,Bernalillo County,NM,8.636363636363637,NA
88030,Luna County,NM,NA,46.48648648648649
10013,New York County,NY,86.81818181818181,NA
10032,New York County,NY,41.81818181818181,NA
10037,New York County,NY,NA,62.70270270270271
10472,Bronx County,NY,1.3636363636363635,NA
11204,Kings County,NY,NA,34.054054054054056
11208,Kings County,NY,NA,0.5405405405405406
11218,Kings County,NY,NA,13.513513513513514
11221,Kings County,NY,16.363636363636363,NA
11357,Queens County,NY,NA,47.02702702702703
11361,Queens County,NY,87.27272727272727,NA
11365,Queens County,NY,55.00000000000001,NA
11367,Queens County,NY,51.36363636363637,NA
11704,Suffolk County,NY,NA,53.51351351351351
12122,Schoharie County,NY,77.72727272727272,NA
13210,Onondaga County,NY,74.54545454545455,NA
13421,Madison County,NY,24.545454545454547,NA
14217,Erie County,NY,NA,18.91891891891892
14423,Livingston County,NY,88.63636363636364,NA
14513,Wayne County,NY,NA,44.86486486486487
14534,Monroe County,NY,6.8181818181818175,NA
27012,Forsyth County,NC,33.18181818181819,NA
27030,Surry County,NC,NA,1.0810810810810811
27101,Forsyth County,NC,NA,94.05405405405406
27105,Forsyth County,NC,15,NA
27510,Orange County,NC,64.54545454545455,NA
27596,Franklin County,NC,70.45454545454545,NA
27609,Wake County,NC,NA,35.13513513513514
27703,Durham County,NC,NA,9.72972972972973
27713,Durham County,NC,25,NA
27803,Nash County,NC,NA,45.94594594594595
28081,Cabarrus County,NC,22.272727272727273,NA
28465,Brunswick County,NC,NA,64.32432432432432
28516,Carteret County,NC,NA,66.48648648648648
28621,Surry County,NC,NA,56.21621621621622
28678,Alexander County,NC,85.9090909090909,NA
28690,Burke County,NC,59.54545454545455,NA
28761,McDowell County,NC,81.81818181818183,NA
58701,Ward County,ND,10,NA
43015,Delaware County,OH,14.545454545454545,NA
43113,Pickaway County,OH,13.636363636363635,NA
43204,Franklin County,OH,5.454545454545454,NA
43213,Franklin County,OH,NA,15.675675675675677
43230,Franklin County,OH,50.90909090909091,NA
43614,Lucas County,OH,10.909090909090908,NA
43701,Muskingum County,OH,NA,0
44004,Ashtabula County,OH,NA,2.1621621621621623
44070,Cuyahoga County,OH,23.636363636363637,NA
44102,Cuyahoga County,OH,0,NA
44113,Cuyahoga County,OH,NA,41.62162162162162
44127,Cuyahoga County,OH,NA,90.81081081081082
44138,Cuyahoga County,OH,35.90909090909091,NA
44301,Summit County,OH,33.63636363636363,NA
44511,Mahoning County,OH,NA,32.432432432432435
44663,Tuscarawas County,OH,NA,14.594594594594595
44839,Erie County,OH,NA,42.16216216216216
45150,Clermont County,OH,39.09090909090909,NA
45216,Hamilton County,OH,62.272727272727266,NA
45426,Montgomery County,OH,56.81818181818182,NA
45430,Greene County,OH,93.18181818181817,NA
45503,Clark County,OH,8.181818181818182,NA
45662,Scioto County,OH,2.272727272727273,NA
73112,Oklahoma County,OK,38.18181818181819,NA
73401,Carter County,OK,NA,8.64864864864865
74501,Pittsburg County,OK,55.45454545454545,NA
97070,Clackamas County,OR,NA,69.1891891891892
97089,Clackamas County,OR,NA,85.4054054054054
97103,Clatsop County,OR,NA,50.810810810810814
97233,Multnomah County,OR,15.909090909090908,NA
97301,Marion County,OR,NA,24.864864864864867
97302,Marion County,OR,46.36363636363636,NA
97504,Jackson County,OR,NA,48.10810810810811
97914,Malheur County,OR,NA,21.08108108108108
15025,Allegheny County,PA,54.54545454545454,NA
15074,Beaver County,PA,NA,64.86486486486487
15201,Allegheny County,PA,NA,55.13513513513514
15219,Allegheny County,PA,NA,95.67567567567568
15226,Allegheny County,PA,NA,67.56756756756756
15235,Allegheny County,PA,19.090909090909093,NA
15237,Allegheny County,PA,53.63636363636364,NA
15317,Washington County,PA,31.363636363636367,NA
15342,Washington County,PA,89.0909090909091,NA
15714,Cambria County,PA,82.72727272727273,NA
16121,Mercer County,PA,76.36363636363637,NA
16323,Venango County,PA,56.36363636363636,NA
16441,Erie County,PA,NA,82.70270270270271
17113,Dauphin County,PA,49.54545454545455,NA
17517,Lancaster County,PA,59.09090909090909,NA
18324,Pike County,PA,NA,94.5945945945946
19119,Philadelphia County,PA,NA,16.756756756756758
19134,Philadelphia County,PA,2.727272727272727,NA
19149,Philadelphia County,PA,NA,29.72972972972973
19380,Chester County,PA,NA,30.810810810810814
19426,Montgomery County,PA,73.63636363636363,NA
29341,Cherokee County,SC,52.27272727272727,NA
29405,Charleston County,SC,NA,42.7027027027027
29532,Darlington County,SC,NA,56.75675675675676
29576,Horry County,SC,NA,10.81081081081081
29617,Greenville County,SC,NA,38.37837837837838
37040,Montgomery County,TN,25.454545454545453,NA
37217,Davidson County,TN,45.909090909090914,NA
37321,Rhea County,TN,30.909090909090907,NA
37322,Meigs County,TN,68.18181818181817,NA
37601,Washington County,TN,NA,10.27027027027027
37659,Washington County,TN,38.63636363636363,NA
37660,Sullivan County,TN,NA,7.567567567567568
37821,Cocke County,TN,NA,28.64864864864865
38012,Haywood County,TN,NA,74.5945945945946
38120,Shelby County,TN,99.54545454545455,NA
38133,Shelby County,TN,80.45454545454545,NA
38506,Putnam County,TN,45.45454545454545,NA
38583,White County,TN,NA,27.56756756756757
75052,Dallas County,TX,73.18181818181819,NA
75149,Dallas County,TX,18.636363636363637,NA
75154,Ellis County,TX,48.18181818181818,NA
75159,Dallas County,TX,75,NA
76021,Tarrant County,TX,36.81818181818181,NA
76051,Tarrant County,TX,35.45454545454545,NA
76116,Tarrant County,TX,NA,11.891891891891893
76117,Tarrant County,TX,NA,40
76205,Denton County,TX,NA,84.86486486486487
76542,Bell County,TX,14.09090909090909,NA
77015,Harris County,TX,NA,48.64864864864865
77017,Harris County,TX,60,NA
77031,Harris County,TX,94.54545454545455,NA
77047,Harris County,TX,84.54545454545455,NA
77048,Harris County,TX,NA,83.24324324324324
77505,Harris County,TX,71.36363636363636,NA
77611,Orange County,TX,80.9090909090909,NA
77807,Brazos County,TX,82.27272727272728,NA
78045,Webb County,TX,24.09090909090909,NA
78240,Bexar County,TX,46.81818181818182,NA
78387,San Patricio County,TX,NA,96.75675675675676
78729,Williamson County,TX,NA,85.94594594594595
78746,Travis County,TX,NA,92.43243243243244
78839,Zavala County,TX,97.27272727272728,NA
78840,Val Verde County,TX,30.454545454545457,NA
79124,Potter County,TX,97.72727272727273,NA
79416,Lubbock County,TX,NA,63.78378378378379
79556,Nolan County,TX,61.81818181818181,NA
84405,Weber County,UT,NA,69.72972972972973
20111,Prince William County,VA,58.63636363636363,NA
20120,Fairfax County,VA,58.18181818181818,NA
20165,Loudoun County,VA,75.45454545454545,NA
22193,Prince William County,VA,12.727272727272727,NA
22201,Arlington County,VA,65.45454545454545,NA
22309,Fairfax County,VA,NA,57.83783783783784
23452,Virginia Beach city,VA,NA,7.027027027027027
23834,Colonial Heights city,VA,51.36363636363637,NA
23836,Chesterfield County,VA,NA,89.1891891891892
23860,Hopewell city,VA,34.54545454545455,NA
24151,Franklin County,VA,50,NA
98002,King County,WA,NA,37.83783783783784
98032,King County,WA,NA,49.18918918918919
98126,King County,WA,65,NA
98223,Snohomish County,WA,NA,17.83783783783784
98371,Pierce County,WA,NA,60.54054054054055
98375,Pierce County,WA,56.81818181818182,NA
98418,Pierce County,WA,NA,89.72972972972974
98513,Thurston County,WA,78.18181818181819,NA
98528,Mason County,WA,96.36363636363636,NA
98569,Grays Harbor County,WA,NA,84.32432432432432
99037,Spokane County,WA,95.9090909090909,NA
99301,Franklin County,WA,NA,5.405405405405405
99337,Benton County,WA,NA,5.9459459459459465
25401,Berkeley County,WV,39.54545454545455,NA
26062,Hancock County,WV,43.63636363636363,NA
26164,Jackson County,WV,67.72727272727272,NA
26241,Randolph County,WV,NA,24.324324324324326
53182,Racine County,WI,70.9090909090909,NA
53224,Milwaukee County,WI,NA,55.67567567567567
53573,Grant County,WI,NA,98.37837837837839
54235,Door County,WI,66.81818181818183,NA
54303,Brown County,WI,50.45454545454545,NA
54304,Brown County,WI,NA,50.27027027027027
54403,Marathon County,WI,48.63636363636364,NA
