ZipCode,county,state,Adult
35630,Lauderdale County,AL,34.031413612565444
35901,Etowah County,AL,39.79057591623037
36351,Coffee County,AL,100
36541,Mobile County,AL,78.53403141361257
36575,Mobile County,AL,83.7696335078534
36610,Mobile County,AL,64.92146596858639
99801,Juneau City and Borough,AK,53.92670157068062
85013,Maricopa County,AZ,54.973821989528794
85016,Maricopa County,AZ,48.167539267015705
85032,Maricopa County,AZ,50.26178010471204
85122,Pinal County,AZ,8.900523560209423
85323,Maricopa County,AZ,37.696335078534034
72704,Washington County,AR,79.05759162303664
90056,Los Angeles County,CA,95.28795811518324
90805,Los Angeles County,CA,18.848167539267017
91784,San Bernardino County,CA,73.29842931937172
91941,San Diego County,CA,61.78010471204188
92107,San Diego County,CA,69.63350785340315
92115,San Diego County,CA,35.602094240837694
94122,San Francisco County,CA,51.832460732984295
94534,Solano County,CA,65.96858638743456
94621,Alameda County,CA,36.12565445026178
94901,Marin County,CA,57.59162303664922
94945,Marin County,CA,91.62303664921467
95242,San Joaquin County,CA,70.15706806282722
95966,Butte County,CA,41.8848167539267
80012,Arapahoe County,CO,45.0261780104712
80015,Arapahoe County,CO,19.3717277486911
80104,Douglas County,CO,59.16230366492147
80504,Boulder County,CO,66.49214659685863
80620,Weld County,CO,49.73821989528796
80701,Morgan County,CO,24.083769633507853
80905,El Paso County,CO,69.10994764397905
80908,El Paso County,CO,93.717277486911
81101,Alamosa County,CO,48.69109947643979
06040,Hartford County,CT,41.8848167539267
06053,Hartford County,CT,11.518324607329843
06877,Fairfield County,CT,78.01047120418848
19939,Sussex County,DE,87.95811518324608
32258,Duval County,FL,86.91099476439791
33032,Miami-Dade County,FL,46.596858638743456
33771,Pinellas County,FL,75.39267015706807
34609,Hernando County,FL,36.64921465968586
30296,Clayton County,GA,84.29319371727748
30417,Evans County,GA,81.67539267015707
30673,Wilkes County,GA,91.09947643979058
96761,Maui County,HI,96.8586387434555
96816,Honolulu County,HI,37.17277486910995
83801,Kootenai County,ID,85.86387434554975
60026,Cook County,IL,86.38743455497382
60188,DuPage County,IL,21.465968586387437
60503,Will County,IL,92.67015706806284
60618,Cook County,IL,9.424083769633508
60630,Cook County,IL,27.225130890052355
61081,Whiteside County,IL,34.55497382198953
61554,Tazewell County,IL,32.98429319371728
46052,Boone County,IN,47.12041884816754
46208,Marion County,IN,40.83769633507853
46410,Lake County,IN,7.329842931937172
47265,Jennings County,IN,26.17801047120419
50501,Webster County,IA,29.31937172774869
52726,Scott County,IA,97.90575916230367
67357,Labette County,KS,55.497382198952884
40004,Nelson County,KY,20.94240837696335
40336,Estill County,KY,82.19895287958116
41465,Magoffin County,KY,60.73298429319372
70122,Orleans Parish,LA,5.7591623036649215
70431,St. Tammany Parish,LA,74.86910994764398
04364,Kennebec County,ME,60.20942408376963
04530,Sagadahoc County,ME,68.06282722513089
04930,Penobscot County,ME,84.81675392670157
21703,Frederick County,MD,62.30366492146597
21754,Frederick County,MD,95.81151832460732
01880,Middlesex County,MA,7.853403141361256
02149,Middlesex County,MA,0
02368,Norfolk County,MA,32.460732984293195
02481,Norfolk County,MA,59.68586387434554
48108,Washtenaw County,MI,43.97905759162304
48160,Washtenaw County,MI,72.77486910994764
48198,Washtenaw County,MI,2.6178010471204187
48223,Wayne County,MI,12.041884816753926
48506,Genesee County,MI,28.272251308900525
49036,Branch County,MI,63.35078534031413
49048,Kalamazoo County,MI,18.32460732984293
49228,Lenawee County,MI,89.52879581151832
49442,Muskegon County,MI,3.664921465968586
49506,Kent County,MI,74.3455497382199
49525,Kent County,MI,40.31413612565445
55117,Ramsey County,MN,50.78534031413613
55119,Ramsey County,MN,13.089005235602095
55404,Hennepin County,MN,1.0471204188481675
56501,Becker County,MN,44.50261780104712
39305,Lauderdale County,MS,92.14659685863874
39744,Webster County,MS,81.15183246073299
63376,St. Charles County,MO,93.19371727748691
63379,Lincoln County,MO,31.93717277486911
63670,Ste. Genevieve County,MO,89.00523560209425
64129,Jackson County,MO,54.45026178010471
64477,Clinton County,MO,96.33507853403141
59860,Lake County,MT,90.57591623036649
03053,Rockingham County,NH,30.36649214659686
08902,Middlesex County,NJ,67.01570680628272
88101,Curry County,NM,9.947643979057592
10035,New York County,NY,6.282722513089005
10304,Richmond County,NY,14.659685863874344
11209,Kings County,NY,80.10471204188482
11213,Kings County,NY,27.748691099476442
11780,Suffolk County,NY,98.95287958115183
13021,Cayuga County,NY,41.361256544502616
14001,Erie County,NY,71.72774869109948
14420,Monroe County,NY,16.230366492146597
14532,Ontario County,NY,56.54450261780105
14586,Monroe County,NY,38.21989528795812
27107,Forsyth County,NC,4.18848167539267
27292,Davidson County,NC,5.2356020942408374
27502,Wake County,NC,62.82722513089005
27530,Wayne County,NC,15.18324607329843
27703,Durham County,NC,10.99476439790576
43054,Franklin County,OH,79.58115183246073
43537,Lucas County,OH,76.96335078534031
44060,Lake County,OH,77.4869109947644
44092,Lake County,OH,73.82198952879581
44104,Cuyahoga County,OH,22.5130890052356
44105,Cuyahoga County,OH,16.75392670157068
44107,Cuyahoga County,OH,2.094240837696335
44108,Cuyahoga County,OH,3.1413612565445024
44111,Cuyahoga County,OH,1.5706806282722512
44124,Cuyahoga County,OH,28.79581151832461
44311,Summit County,OH,56.02094240837696
44905,Richland County,OH,68.58638743455498
45002,Hamilton County,OH,80.10471204188482
45373,Miami County,OH,31.413612565445025
45406,Montgomery County,OH,15.706806282722512
45601,Ross County,OH,0.5235602094240838
45680,Lawrence County,OH,12.56544502617801
45786,Washington County,OH,99.47643979057592
45817,Allen County,OH,94.76439790575915
45822,Mercer County,OH,43.455497382198956
73501,Comanche County,OK,58.1151832460733
73505,Comanche County,OK,24.60732984293194
74464,Cherokee County,OK,39.26701570680628
97217,Multnomah County,OR,72.25130890052355
97470,Douglas County,OR,33.50785340314136
15068,Westmoreland County,PA,19.895287958115183
15905,Cambria County,PA,52.35602094240838
16002,Butler County,PA,58.63874345549738
16201,Armstrong County,PA,35.07853403141361
16502,Erie County,PA,47.64397905759162
17257,Cumberland County,PA,26.701570680628272
17345,York County,PA,70.68062827225131
17403,York County,PA,17.801047120418847
17961,Schuylkill County,PA,94.24083769633508
18072,Northampton County,PA,85.34031413612566
18428,Pike County,PA,88.48167539267016
18603,Columbia County,PA,14.136125654450263
18954,Bucks County,PA,83.24607329842932
19090,Montgomery County,PA,76.43979057591623
19143,Philadelphia County,PA,8.37696335078534
19151,Philadelphia County,PA,13.612565445026178
29577,Horry County,SC,64.3979057591623
57106,Minnehaha County,SD,25.13089005235602
37221,Davidson County,TN,67.5392670157068
38237,Weakley County,TN,75.91623036649214
75019,Dallas County,TX,57.06806282722513
76022,Tarrant County,TX,82.72251308900523
76028,Johnson County,TX,45.54973821989529
76104,Tarrant County,TX,23.036649214659686
76133,Tarrant County,TX,20.418848167539267
76633,McLennan County,TX,98.42931937172776
76705,McLennan County,TX,17.277486910994764
77077,Harris County,TX,49.21465968586388
77080,Harris County,TX,71.20418848167539
77396,Harris County,TX,42.93193717277487
77484,Waller County,TX,90.0523560209424
77546,Galveston County,TX,29.84293193717277
77586,Harris County,TX,52.879581151832454
77845,Brazos County,TX,10.471204188481675
77905,Victoria County,TX,63.87434554973822
78045,Webb County,TX,25.654450261780106
84095,Salt Lake County,UT,46.07329842931937
23117,Louisa County,VA,97.38219895287958
98003,King County,WA,30.89005235602094
98033,King County,WA,65.44502617801047
98277,Island County,WA,51.30890052356021
98682,Clark County,WA,61.25654450261781
20001,District of Columbia,DC,21.98952879581152
26554,Marion County,WV,4.712041884816754
53402,Racine County,WI,6.806282722513089
53403,Racine County,WI,38.7434554973822
53546,Rock County,WI,53.403141361256544
54140,Outagamie County,WI,87.43455497382199
54304,Brown County,WI,23.56020942408377
