ZipCode,county,state,Youth,Pediatric
35023,Jefferson County,AL,28.52512155591572,NA
35124,Shelby County,AL,72.77147487844408,NA
35215,Jefferson County,AL,7.779578606158834,NA
35243,Jefferson County,AL,73.41977309562398,NA
35473,Tuscaloosa County,AL,NA,98.9247311827957
35661,Colbert County,AL,56.72609400324149,NA
35806,Madison County,AL,NA,73.11827956989248
35950,Marshall County,AL,60.45380875202593,NA
35962,DeKalb County,AL,79.4165316045381,NA
36109,Montgomery County,AL,NA,63.44086021505376
36116,Montgomery County,AL,47.9740680713128,NA
36303,Houston County,AL,53.970826580226905,NA
36502,Escambia County,AL,38.249594813614266,NA
36507,Baldwin County,AL,NA,73.11827956989248
36549,Baldwin County,AL,94.6515397082658,NA
36575,Mobile County,AL,65.64019448946516,NA
36606,Mobile County,AL,55.42949756888168,NA
99504,Anchorage Municipality,AK,11.507293354943274,NA
99645,Matanuska-Susitna Borough,AK,74.87844408427877,NA
85006,Maricopa County,AZ,87.52025931928688,NA
85016,Maricopa County,AZ,48.13614262560778,NA
85021,Maricopa County,AZ,27.22852512155591,NA
85042,Maricopa County,AZ,25.283630470016206,NA
85140,Pinal County,AZ,42.62560777957861,NA
85250,Maricopa County,AZ,NA,91.39784946236558
85251,Maricopa County,AZ,61.426256077795784,NA
85281,Maricopa County,AZ,65.15397082658023,NA
85295,Maricopa County,AZ,56.56401944894651,NA
85735,Pima County,AZ,93.03079416531604,NA
86033,Navajo County,AZ,46.353322528363044,NA
72019,Saline County,AR,65.47811993517017,NA
72173,Faulkner County,AR,90.59967585089142,NA
90001,Los Angeles County,CA,38.573743922204216,NA
90003,Los Angeles County,CA,33.22528363047002,36.02150537634409
90004,Los Angeles County,CA,52.836304700162074,NA
90066,Los Angeles County,CA,NA,61.29032258064516
90247,Los Angeles County,CA,41.004862236628846,NA
90274,Los Angeles County,CA,69.04376012965965,NA
90275,Los Angeles County,CA,NA,94.08602150537635
90280,Los Angeles County,CA,51.86385737439222,NA
90650,Los Angeles County,CA,NA,44.623655913978496
90703,Los Angeles County,CA,57.212317666126424,NA
90731,Los Angeles County,CA,21.555915721231766,NA
90740,Orange County,CA,96.43435980551054,NA
90744,Los Angeles County,CA,NA,49.46236559139785
91203,Los Angeles County,CA,98.21717990275528,NA
91206,Los Angeles County,CA,58.83306320907617,NA
91214,Los Angeles County,CA,64.34359805510535,NA
91304,Los Angeles County,CA,NA,87.63440860215054
91340,Los Angeles County,CA,54.94327390599676,NA
91360,Ventura County,CA,45.86709886547812,NA
91601,Los Angeles County,CA,46.51539708265802,NA
91605,Los Angeles County,CA,70.82658022690438,NA
91710,San Bernardino County,CA,0.48622366288492713,NA
91746,Los Angeles County,CA,NA,55.376344086021504
91913,San Diego County,CA,96.75850891410049,NA
92021,San Diego County,CA,50.72933549432739,NA
92054,San Diego County,CA,95.46191247974069,43.01075268817204
92058,San Diego County,CA,61.26418152350082,NA
92114,San Diego County,CA,NA,77.95698924731182
92115,San Diego County,CA,29.65964343598055,NA
92201,Riverside County,CA,17.990275526742302,NA
92211,Riverside County,CA,84.76499189627229,NA
92254,Riverside County,CA,NA,79.03225806451613
92311,San Bernardino County,CA,70.17828200972447,NA
92335,San Bernardino County,CA,38.73581847649919,11.827956989247312
92336,San Bernardino County,CA,67.26094003241491,32.795698924731184
92345,San Bernardino County,CA,27.22852512155591,NA
92346,San Bernardino County,CA,43.11183144246353,NA
92404,San Bernardino County,CA,6.645056726094004,NA
92410,San Bernardino County,CA,46.83954619124797,NA
92509,Riverside County,CA,NA,40.86021505376344
92553,Riverside County,CA,NA,15.591397849462366
92620,Orange County,CA,48.62236628849271,NA
92653,Orange County,CA,81.36142625607779,NA
92656,Orange County,CA,69.85413290113452,NA
92683,Orange County,CA,58.83306320907617,70.96774193548387
92804,Orange County,CA,13.776337115072934,NA
92805,Orange County,CA,NA,19.892473118279568
92865,Orange County,CA,98.05510534846029,NA
92880,Riverside County,CA,57.37439222042139,NA
93060,Ventura County,CA,30.30794165316045,NA
93267,Tulare County,CA,82.00972447325769,NA
93274,Tulare County,CA,68.39546191247973,NA
93304,Kern County,CA,NA,29.03225806451613
93309,Kern County,CA,35.65640194489465,NA
93535,Los Angeles County,CA,NA,10.21505376344086
93618,Tulare County,CA,36.30470016207455,NA
93640,Fresno County,CA,97.40680713128039,NA
93722,Fresno County,CA,1.9448946515397085,NA
93726,Fresno County,CA,NA,22.58064516129032
93905,Monterey County,CA,51.86385737439222,NA
94063,San Mateo County,CA,NA,58.06451612903226
94085,Santa Clara County,CA,77.63371150729336,NA
94110,San Francisco County,CA,75.68881685575364,NA
94118,San Francisco County,CA,47.487844408427875,NA
94403,San Mateo County,CA,43.92220421393841,NA
94513,Contra Costa County,CA,21.39384116693679,NA
94526,Contra Costa County,CA,75.52674230145867,NA
94577,Alameda County,CA,27.22852512155591,NA
95116,Santa Clara County,CA,58.83306320907617,NA
95122,Santa Clara County,CA,28.200972447325768,NA
95205,San Joaquin County,CA,86.54781199351702,NA
95341,Merced County,CA,19.448946515397083,NA
95354,Stanislaus County,CA,16.53160453808752,NA
95624,Sacramento County,CA,54.619124797406805,NA
95691,Yolo County,CA,NA,86.55913978494624
95747,Placer County,CA,NA,69.89247311827957
95762,El Dorado County,CA,45.21880064829822,NA
95864,Sacramento County,CA,78.28200972447326,NA
95928,Butte County,CA,NA,20.967741935483872
80011,Arapahoe County,CO,NA,6.989247311827956
80015,Arapahoe County,CO,27.06645056726094,NA
80020,Broomfield County,CO,39.87034035656402,NA
80023,Broomfield County,CO,65.64019448946516,NA
80031,Adams County,CO,NA,55.91397849462365
80033,Jefferson County,CO,NA,52.68817204301075
80210,Denver County,CO,81.19935170178282,NA
80216,Denver County,CO,90.43760129659644,NA
80238,Denver County,CO,39.3841166936791,NA
80239,Denver County,CO,46.677471636953,NA
80260,Adams County,CO,3.727714748784441,NA
80424,Summit County,CO,92.86871961102106,NA
80504,Boulder County,CO,NA,50
80538,Larimer County,CO,17.828200972447323,NA
80831,El Paso County,CO,NA,74.73118279569893
80908,El Paso County,CO,62.88492706645057,NA
80922,El Paso County,CO,95.9481361426256,NA
81007,Pueblo County,CO,24.311183144246353,NA
06010,Hartford County,CT,NA,51.61290322580645
06053,Hartford County,CT,82.00972447325769,NA
06108,Hartford County,CT,NA,41.39784946236559
06118,Hartford County,CT,30.63209076175041,NA
06226,Windham County,CT,21.71799027552674,NA
06450,New Haven County,CT,61.750405186385734,NA
06478,New Haven County,CT,76.17504051863857,NA
06512,New Haven County,CT,NA,81.72043010752688
06608,Fairfield County,CT,54.94327390599676,NA
06712,New Haven County,CT,99.67585089141005,NA
06776,Litchfield County,CT,49.59481361426256,NA
19703,New Castle County,DE,48.946515397082656,NA
19720,New Castle County,DE,58.34683954619124,NA
19934,Kent County,DE,49.91896272285251,NA
19973,Sussex County,DE,NA,26.344086021505376
32114,Volusia County,FL,33.71150729335494,NA
32210,Duval County,FL,0.6482982171799028,NA
32456,Gulf County,FL,52.188006482982175,NA
32569,Okaloosa County,FL,96.5964343598055,NA
32570,Santa Rosa County,FL,33.22528363047002,NA
32609,Alachua County,FL,NA,81.18279569892472
32615,Alachua County,FL,18.962722852512158,NA
32708,Seminole County,FL,52.35008103727715,NA
32720,Volusia County,FL,64.34359805510535,NA
32822,Orange County,FL,50.08103727714749,17.741935483870968
32825,Orange County,FL,NA,8.064516129032258
32955,Brevard County,FL,71.63695299837926,NA
33023,Broward County,FL,NA,33.33333333333333
33034,Miami-Dade County,FL,66.12641815235008,NA
33130,Miami-Dade County,FL,54.29497568881686,NA
33142,Miami-Dade County,FL,NA,18.27956989247312
33161,Miami-Dade County,FL,17.179902755267424,NA
33167,Miami-Dade County,FL,NA,38.17204301075269
33170,Miami-Dade County,FL,61.912479740680716,NA
33173,Miami-Dade County,FL,66.45056726094003,NA
33176,Miami-Dade County,FL,56.23987034035657,NA
33321,Broward County,FL,48.946515397082656,NA
33445,Palm Beach County,FL,38.249594813614266,NA
33458,Palm Beach County,FL,32.739059967585085,NA
33527,Hillsborough County,FL,43.76012965964344,NA
33584,Hillsborough County,FL,58.83306320907617,NA
33606,Hillsborough County,FL,82.00972447325769,NA
33702,Pinellas County,FL,NA,79.03225806451613
33770,Pinellas County,FL,71.79902755267423,NA
33812,Polk County,FL,80.71312803889789,NA
33830,Polk County,FL,94.48946515397083,NA
33917,Lee County,FL,49.43273905996758,NA
33974,Lee County,FL,54.78119935170178,NA
34221,Manatee County,FL,NA,59.13978494623656
34251,Manatee County,FL,94.32739059967585,NA
34480,Marion County,FL,NA,75.26881720430107
34759,Polk County,FL,3.889789303079417,NA
34771,Osceola County,FL,89.14100486223663,NA
34997,Martin County,FL,NA,89.24731182795699
30034,DeKalb County,GA,66.28849270664506,NA
30044,Gwinnett County,GA,75.04051863857374,NA
30052,Walton County,GA,31.280388978930308,NA
30165,Floyd County,GA,28.84927066450567,NA
30168,Cobb County,GA,NA,82.25806451612904
30311,Fulton County,GA,NA,32.25806451612903
30312,Fulton County,GA,NA,62.365591397849464
30349,Fulton County,GA,5.186385737439222,NA
30534,Dawson County,GA,31.766612641815232,NA
30739,Walker County,GA,89.78930307941653,NA
31030,Peach County,GA,86.709886547812,NA
31520,Glynn County,GA,36.6288492706645,NA
31904,Muscogee County,GA,NA,34.40860215053764
96825,Honolulu County,HI,50.24311183144247,NA
83402,Bonneville County,ID,NA,74.19354838709677
83646,Ada County,ID,86.38573743922204,NA
83702,Ada County,ID,35.17017828200972,NA
60004,Cook County,IL,26.094003241491087,NA
60115,DeKalb County,IL,69.52998379254457,NA
60119,Kane County,IL,NA,96.7741935483871
60418,Cook County,IL,88.33063209076175,NA
60506,Kane County,IL,20.583468395461914,NA
60612,Cook County,IL,25.60777957860616,NA
60620,Cook County,IL,NA,76.88172043010752
60626,Cook County,IL,87.03403565640194,NA
60639,Cook County,IL,4.538087520259319,NA
60652,Cook County,IL,94.16531604538088,NA
60914,Kankakee County,IL,32.090761750405186,NA
60950,Kankakee County,IL,69.20583468395462,NA
61109,Winnebago County,IL,74.55429497568882,NA
61341,LaSalle County,IL,78.6061588330632,NA
61761,McLean County,IL,37.763371150729334,NA
61944,Edgar County,IL,64.18152350081037,NA
62301,Adams County,IL,NA,71.50537634408603
46148,Henry County,IN,97.24473257698541,NA
46214,Marion County,IN,45.705024311183145,NA
46231,Marion County,IN,NA,95.16129032258065
46312,Lake County,IN,11.66936790923825,NA
46350,LaPorte County,IN,NA,35.483870967741936
46383,Porter County,IN,NA,65.59139784946237
46582,Kosciusko County,IN,51.3776337115073,NA
46615,St. Joseph County,IN,61.426256077795784,NA
46750,Huntington County,IN,40.680713128038896,NA
46777,Wells County,IN,97.08265802269044,NA
46992,Wabash County,IN,NA,48.924731182795696
47031,Ripley County,IN,92.38249594813614,NA
47424,Greene County,IN,95.13776337115073,NA
47802,Vigo County,IN,3.565640194489465,NA
47807,Vigo County,IN,87.68233387358185,NA
47842,Vermillion County,IN,49.59481361426256,NA
50021,Polk County,IA,64.6677471636953,NA
50158,Marshall County,IA,NA,63.44086021505376
50401,Cerro Gordo County,IA,78.7682333873582,NA
50501,Webster County,IA,57.05024311183144,NA
50588,Buena Vista County,IA,NA,93.54838709677419
52001,Dubuque County,IA,13.938411669367909,NA
52060,Jackson County,IA,90.59967585089142,NA
52501,Wapello County,IA,29.821717990275527,NA
52641,Henry County,IA,96.11021069692059,NA
52738,Louisa County,IA,65.96434359805511,NA
52804,Scott County,IA,60.129659643435986,NA
66061,Johnson County,KS,50.56726094003241,NA
67226,Sedgwick County,KS,99.3517017828201,NA
40206,Jefferson County,KY,81.03727714748784,56.98924731182796
40214,Jefferson County,KY,NA,28.49462365591398
40216,Jefferson County,KY,12.641815235008103,NA
40229,Jefferson County,KY,40.84278768233388,NA
40299,Jefferson County,KY,36.466774716369535,NA
40403,Madison County,KY,73.74392220421394,41.935483870967744
40701,Whitley County,KY,58.6709886547812,NA
41041,Fleming County,KY,79.74068071312804,NA
41074,Campbell County,KY,92.22042139384116,NA
42567,Pulaski County,KY,82.82009724473258,NA
42642,Russell County,KY,68.0713128038898,NA
42748,Larue County,KY,NA,83.33333333333334
70056,Jefferson Parish,LA,0.3241491085899514,NA
70121,Jefferson Parish,LA,53.64667747163695,NA
70131,Orleans Parish,LA,15.235008103727715,NA
70394,Lafourche Parish,LA,24.79740680713128,NA
70401,Tangipahoa Parish,LA,69.69205834683954,NA
70422,Tangipahoa Parish,LA,NA,93.01075268817203
70506,Lafayette Parish,LA,6.482982171799027,NA
70507,Lafayette Parish,LA,53.484602917341974,NA
70508,Lafayette Parish,LA,8.589951377633712,NA
71112,Bossier Parish,LA,43.59805510534846,NA
71203,Ouachita Parish,LA,2.9173419773095626,NA
04106,Cumberland County,ME,54.29497568881686,NA
04240,Androscoggin County,ME,NA,9.67741935483871
04841,Knox County,ME,NA,71.50537634408603
20904,Montgomery County,MD,39.70826580226905,NA
21032,Anne Arundel County,MD,87.19611021069692,NA
21043,Howard County,MD,87.84440842787681,NA
21117,Baltimore County,MD,59.643435980551054,NA
21208,Baltimore County,MD,41.65316045380875,NA
21710,Frederick County,MD,97.56888168557536,NA
01020,Hampden County,MA,85.57536466774717,NA
01040,Hampden County,MA,1.2965964343598055,NA
01108,Hampden County,MA,81.68557536466776,NA
01129,Hampden County,MA,NA,37.096774193548384
01247,Berkshire County,MA,37.11507293354943,NA
01453,Worcester County,MA,10.048622366288493,NA
01505,Worcester County,MA,98.86547811993516,NA
01562,Worcester County,MA,93.19286871961103,NA
01752,Middlesex County,MA,NA,5.913978494623656
01803,Middlesex County,MA,46.83954619124797,NA
01840,Essex County,MA,76.17504051863857,NA
01902,Essex County,MA,4.376012965964344,NA
01904,Essex County,MA,37.27714748784441,NA
01923,Essex County,MA,NA,53.2258064516129
01950,Essex County,MA,83.3063209076175,NA
02048,Bristol County,MA,62.23662884927067,NA
02120,Suffolk County,MA,NA,12.903225806451612
02124,Suffolk County,MA,NA,0
02125,Suffolk County,MA,76.17504051863857,NA
02129,Suffolk County,MA,77.14748784440843,NA
02139,Middlesex County,MA,5.834683954619125,NA
02145,Middlesex County,MA,26.418152350081037,NA
02302,Plymouth County,MA,16.85575364667747,3.763440860215054
02703,Bristol County,MA,NA,23.118279569892472
48066,Macomb County,MI,11.9935170178282,NA
48076,Oakland County,MI,17.01782820097245,NA
48117,Monroe County,MI,90.11345218800648,NA
48124,Wayne County,MI,NA,48.38709677419355
48126,Wayne County,MI,5.9967585089141,NA
48134,Wayne County,MI,25.76985413290113,NA
48150,Wayne County,MI,26.25607779578606,NA
48167,Oakland County,MI,43.92220421393841,NA
48178,Oakland County,MI,11.021069692058347,NA
48198,Washtenaw County,MI,52.836304700162074,NA
48210,Wayne County,MI,NA,23.655913978494624
48226,Wayne County,MI,84.92706645056725,NA
48228,Wayne County,MI,9.724473257698541,2.1505376344086025
48302,Oakland County,MI,82.6580226904376,NA
48326,Oakland County,MI,39.05996758508914,NA
48342,Oakland County,MI,38.73581847649919,NA
48423,Genesee County,MI,70.34035656401944,NA
48503,Genesee County,MI,32.25283630470016,65.05376344086021
48507,Genesee County,MI,12.80388978930308,NA
48532,Genesee County,MI,86.87196110210697,NA
48625,Clare County,MI,67.58508914100486,NA
48661,Ogemaw County,MI,50.24311183144247,NA
48858,Isabella County,MI,7.13128038897893,NA
48906,Ingham County,MI,19.773095623987032,NA
49010,Allegan County,MI,66.77471636952998,NA
49072,St. Joseph County,MI,82.82009724473258,NA
49088,Kalamazoo County,MI,98.37925445705025,NA
49424,Ottawa County,MI,34.6839546191248,NA
49508,Kent County,MI,2.2690437601296596,NA
49735,Otsego County,MI,48.13614262560778,NA
55076,Dakota County,MN,NA,62.365591397849464
55082,Washington County,MN,26.580226904376016,NA
55102,Ramsey County,MN,30.47001620745543,NA
55104,Ramsey County,MN,46.029173419773095,20.43010752688172
55106,Ramsey County,MN,1.6207455429497568,19.35483870967742
55108,Ramsey County,MN,70.34035656401944,NA
55117,Ramsey County,MN,NA,50.53763440860215
55118,Dakota County,MN,NA,42.473118279569896
55313,Wright County,MN,14.424635332252835,NA
55343,Hennepin County,MN,NA,37.634408602150536
55410,Hennepin County,MN,42.62560777957861,NA
55412,Hennepin County,MN,NA,5.376344086021505
55418,Hennepin County,MN,NA,90.32258064516128
55419,Hennepin County,MN,85.25121555915722,NA
55429,Hennepin County,MN,14.100486223662884,NA
55432,Anoka County,MN,35.65640194489465,NA
55444,Hennepin County,MN,NA,25.806451612903224
55720,Carlton County,MN,NA,54.83870967741935
55904,Olmsted County,MN,58.0226904376013,NA
56001,Blue Earth County,MN,10.048622366288493,NA
56623,Lake of the Woods County,MN,92.38249594813614,NA
38654,DeSoto County,MS,21.88006482982172,NA
38655,Lafayette County,MS,59.967585089141004,NA
39038,Humphreys County,MS,NA,98.38709677419355
39056,Hinds County,MS,NA,66.12903225806451
39120,Adams County,MS,62.88492706645057,NA
39194,Yazoo County,MS,94.97568881685575,NA
39301,Lauderdale County,MS,28.038897893030796,NA
39328,Kemper County,MS,88.6547811993517,NA
39367,Wayne County,MS,15.39708265802269,NA
39440,Jones County,MS,79.57860615883307,NA
39476,Perry County,MS,100,NA
39482,Lamar County,MS,72.44732576985413,NA
39503,Harrison County,MS,7.455429497568882,NA
39520,Hancock County,MS,NA,88.70967741935483
39560,Harrison County,MS,56.23987034035657,NA
39702,Lowndes County,MS,42.13938411669368,NA
63033,St. Louis County,MO,NA,29.56989247311828
63069,Franklin County,MO,NA,67.20430107526882
63303,St. Charles County,MO,21.06969205834684,NA
63401,Marion County,MO,37.27714748784441,NA
63857,Dunklin County,MO,30.79416531604538,NA
63935,Ripley County,MO,62.560777957860616,NA
64015,Jackson County,MO,28.200972447325768,NA
64052,Jackson County,MO,16.369529983792543,NA
64063,Jackson County,MO,23.176661264181522,NA
64108,Jackson County,MO,85.89951377633712,NA
64111,Jackson County,MO,72.6094003241491,NA
64130,Jackson County,MO,33.54943273905997,NA
64132,Jackson County,MO,NA,83.87096774193549
64501,Buchanan County,MO,90.92382495948137,NA
64506,Buchanan County,MO,34.35980551053485,NA
65084,Morgan County,MO,NA,94.6236559139785
65706,Webster County,MO,94.0032414910859,NA
59804,Missoula County,MT,91.89627228525121,NA
89104,Clark County,NV,NA,64.51612903225806
89122,Clark County,NV,34.6839546191248,NA
89142,Clark County,NV,63.69529983792545,NA
89144,Clark County,NV,99.18962722852513,NA
89145,Clark County,NV,91.24797406807131,NA
89166,Clark County,NV,76.82333873581848,NA
89169,Clark County,NV,NA,60.752688172043015
89408,Lyon County,NV,NA,91.93548387096774
03060,Hillsborough County,NH,13.12803889789303,NA
03104,Hillsborough County,NH,42.30145867098866,NA
03873,Rockingham County,NH,72.93354943273907,NA
07006,Essex County,NJ,65.3160453808752,NA
07055,Passaic County,NJ,24.311183144246353,NA
07060,Union County,NJ,NA,12.365591397849462
07105,Essex County,NJ,15.883306320907616,NA
07107,Essex County,NJ,4.051863857374392,NA
07202,Union County,NJ,55.26742301458671,NA
07514,Passaic County,NJ,NA,22.043010752688172
07748,Monmouth County,NJ,45.54294975688817,NA
07974,Union County,NJ,61.912479740680716,NA
08525,Mercer County,NJ,93.67909238249594,NA
08527,Ocean County,NJ,19.611021069692057,NA
08536,Middlesex County,NJ,86.22366288492707,NA
08723,Ocean County,NJ,29.821717990275527,NA
08731,Ocean County,NJ,40.19448946515397,NA
08742,Ocean County,NJ,34.0356564019449,NA
08835,Somerset County,NJ,79.2544570502431,NA
08844,Somerset County,NJ,25.121555915721235,NA
08886,Warren County,NJ,90.27552674230147,NA
87112,Bernalillo County,NM,NA,69.89247311827957
87114,Bernalillo County,NM,10.372771474878444,NA
87123,Bernalillo County,NM,NA,17.20430107526882
87124,Sandoval County,NM,NA,30.107526881720432
87301,McKinley County,NM,NA,14.516129032258066
88081,Otero County,NM,NA,61.29032258064516
10029,New York County,NY,NA,0.5376344086021506
10032,New York County,NY,18.31442463533225,4.301075268817205
10036,New York County,NY,NA,95.6989247311828
10303,Richmond County,NY,NA,16.666666666666664
10452,Bronx County,NY,1.1345218800648298,NA
10453,Bronx County,NY,51.053484602917344,6.451612903225806
10454,Bronx County,NY,57.86061588330632,NA
10459,Bronx County,NY,5.024311183144246,NA
10466,Bronx County,NY,NA,9.13978494623656
10467,Bronx County,NY,0,NA
10469,Bronx County,NY,57.69854132901134,NA
10472,Bronx County,NY,64.82982171799027,NA
10474,Bronx County,NY,91.24797406807131,NA
10475,Bronx County,NY,85.57536466774717,NA
10541,Putnam County,NY,80.22690437601297,NA
10549,Westchester County,NY,80.06482982171799,NA
10573,Westchester County,NY,NA,8.064516129032258
10606,Westchester County,NY,NA,75.80645161290323
10701,Westchester County,NY,19.93517017828201,NA
10707,Westchester County,NY,NA,44.623655913978496
10801,Westchester County,NY,NA,15.053763440860216
10930,Orange County,NY,84.92706645056725,NA
10977,Rockland County,NY,NA,45.69892473118279
11206,Kings County,NY,58.18476499189627,NA
11207,Kings County,NY,0.1620745542949757,1.6129032258064515
11208,Kings County,NY,0.8103727714748784,NA
11218,Kings County,NY,44.89465153970826,NA
11219,Kings County,NY,NA,1.0752688172043012
11226,Kings County,NY,NA,13.978494623655912
11233,Kings County,NY,NA,3.225806451612903
11234,Kings County,NY,NA,38.17204301075269
11237,Kings County,NY,9.076175040518638,NA
11368,Queens County,NY,22.52836304700162,NA
11372,Queens County,NY,14.748784440842789,NA
11373,Queens County,NY,68.88168557536467,NA
11377,Queens County,NY,15.07293354943274,10.75268817204301
11420,Queens County,NY,66.93679092382496,NA
11421,Queens County,NY,32.25283630470016,NA
11428,Queens County,NY,77.47163695299838,NA
11434,Queens County,NY,NA,7.526881720430108
11550,Nassau County,NY,18.152350081037277,NA
11717,Suffolk County,NY,NA,4.838709677419355
11801,Nassau County,NY,78.28200972447326,NA
12401,Ulster County,NY,NA,13.440860215053762
13212,Onondaga County,NY,79.09238249594813,NA
13417,Oneida County,NY,97.89303079416531,NA
13820,Otsego County,NY,13.290113452188008,NA
13901,Broome County,NY,13.452188006482983,NA
14075,Erie County,NY,29.17341977309562,NA
14094,Niagara County,NY,6.3209076175040515,NA
14215,Erie County,NY,NA,18.817204301075268
14216,Erie County,NY,29.17341977309562,NA
14428,Monroe County,NY,63.37115072933549,NA
14467,Monroe County,NY,73.74392220421394,NA
14564,Ontario County,NY,53.322528363047006,NA
14850,Tompkins County,NY,8.26580226904376,NA
27021,Stokes County,NC,45.21880064829822,NA
27028,Davie County,NC,24.149108589951375,NA
27030,Surry County,NC,3.079416531604538,NA
27215,Alamance County,NC,12.965964343598054,NA
27244,Alamance County,NC,95.62398703403565,NA
27260,Guilford County,NC,96.92058346839546,NA
27302,Alamance County,NC,NA,89.78494623655914
27320,Rockingham County,NC,43.27390599675851,NA
27401,Guilford County,NC,36.6288492706645,NA
27410,Guilford County,NC,86.06158833063209,NA
27502,Wake County,NC,19.286871961102108,NA
27516,Orange County,NC,74.39222042139384,NA
27529,Wake County,NC,63.533225283630465,NA
27563,Warren County,NC,71.15072933549432,NA
27606,Wake County,NC,85.41329011345219,NA
27713,Durham County,NC,NA,72.58064516129032
27962,Washington County,NC,71.15072933549432,NA
28079,Union County,NC,42.30145867098866,NA
28090,Cleveland County,NC,NA,78.49462365591397
28104,Union County,NC,40.032414910858996,NA
28110,Union County,NC,NA,26.881720430107524
28112,Union County,NC,45.05672609400324,NA
28117,Iredell County,NC,67.74716369529983,NA
28127,Stanly County,NC,80.22690437601297,NA
28208,Mecklenburg County,NC,6.807131280388978,NA
28214,Mecklenburg County,NC,15.39708265802269,NA
28217,Mecklenburg County,NC,27.876823338735818,NA
28262,Mecklenburg County,NC,28.687196110210696,NA
28314,Cumberland County,NC,3.403565640194489,NA
28320,Bladen County,NC,89.62722852512157,NA
28365,Wayne County,NC,57.53646677471637,NA
28601,Catawba County,NC,NA,30.64516129032258
28677,Iredell County,NC,24.311183144246353,NA
28704,Buncombe County,NC,61.102106969205835,NA
28906,Cherokee County,NC,62.23662884927067,55.91397849462365
43068,Franklin County,OH,8.914100486223662,NA
43081,Franklin County,OH,NA,47.8494623655914
43110,Franklin County,OH,NA,27.419354838709676
43147,Fairfield County,OH,64.99189627228526,NA
43204,Franklin County,OH,31.92868719611021,NA
43222,Franklin County,OH,93.19286871961103,NA
43224,Franklin County,OH,NA,21.50537634408602
43402,Wood County,OH,NA,53.76344086021505
43537,Lucas County,OH,20.25931928687196,NA
43558,Fulton County,OH,35.332252836304704,NA
43623,Lucas County,OH,60.777957860615885,NA
43935,Belmont County,OH,83.63047001620745,NA
44011,Lorain County,OH,5.510534846029174,NA
44030,Ashtabula County,OH,84.60291734197732,NA
44103,Cuyahoga County,OH,83.3063209076175,NA
44116,Cuyahoga County,OH,43.92220421393841,NA
44135,Cuyahoga County,OH,NA,69.35483870967742
44136,Cuyahoga County,OH,51.21555915721232,NA
44203,Summit County,OH,4.213938411669368,NA
44236,Summit County,OH,67.74716369529983,NA
44266,Portage County,OH,9.886547811993516,NA
44270,Wayne County,OH,37.27714748784441,NA
44281,Medina County,OH,53.80875202593193,NA
44305,Summit County,OH,26.904376012965965,NA
44512,Mahoning County,OH,7.293354943273905,NA
44514,Mahoning County,OH,75.20259319286872,NA
44641,Stark County,OH,91.57212317666126,NA
44644,Carroll County,OH,72.12317666126418,NA
44704,Stark County,OH,89.14100486223663,NA
44705,Stark County,OH,60.777957860615885,NA
44820,Crawford County,OH,98.70340356564019,NA
44906,Richland County,OH,8.427876823338735,NA
45050,Butler County,OH,60.129659643435986,NA
45067,Butler County,OH,84.27876823338735,88.17204301075269
45150,Clermont County,OH,NA,39.784946236559136
45206,Hamilton County,OH,22.852512155591572,NA
45246,Hamilton County,OH,77.63371150729336,NA
45390,Darke County,OH,NA,66.66666666666666
45414,Montgomery County,OH,71.47487844408428,NA
45631,Gallia County,OH,9.40032414910859,NA
45750,Washington County,OH,22.690437601296594,NA
45784,Washington County,OH,NA,85.48387096774194
45805,Allen County,OH,31.280388978930308,NA
45872,Wood County,OH,83.14424635332253,NA
73008,Oklahoma County,OK,99.83792544570503,NA
73107,Oklahoma County,OK,16.207455429497568,NA
73129,Oklahoma County,OK,28.84927066450567,NA
73130,Oklahoma County,OK,93.51701782820098,NA
74011,Tulsa County,OK,43.43598055105348,NA
74146,Tulsa County,OK,NA,85.48387096774194
74344,Delaware County,OK,70.34035656401944,NA
74429,Wagoner County,OK,NA,90.32258064516128
74451,Cherokee County,OK,91.57212317666126,NA
74801,Pottawatomie County,OK,71.96110210696921,NA
74804,Pottawatomie County,OK,NA,87.09677419354838
74857,Cleveland County,OK,83.63047001620745,NA
97006,Washington County,OR,43.92220421393841,NA
97058,Wasco County,OR,41.9773095623987,NA
97062,Washington County,OR,31.60453808752026,NA
97140,Washington County,OR,46.83954619124797,NA
97220,Multnomah County,OR,52.836304700162074,NA
97229,Washington County,OR,6.158833063209076,NA
97495,Douglas County,OR,99.02755267423015,NA
97501,Jackson County,OR,21.231766612641813,NA
97603,Klamath County,OR,46.19124797406807,NA
97702,Deschutes County,OR,59.643435980551054,NA
97850,Union County,OR,60.6158833063209,NA
15001,Beaver County,PA,55.753646677471636,43.54838709677419
15071,Allegheny County,PA,52.35008103727715,NA
15120,Allegheny County,PA,NA,96.23655913978494
15146,Allegheny County,PA,NA,46.236559139784944
15201,Allegheny County,PA,83.63047001620745,NA
15214,Allegheny County,PA,55.91572123176661,NA
15401,Fayette County,PA,9.562398703403566,NA
15767,Jefferson County,PA,NA,67.74193548387096
16066,Butler County,PA,76.01296596434359,NA
16148,Mercer County,PA,NA,84.40860215053763
16503,Erie County,PA,30.956239870340358,NA
16601,Blair County,PA,74.23014586709886,NA
17003,Lebanon County,PA,39.546191247974065,NA
17033,Dauphin County,PA,22.366288492706644,NA
17038,Lebanon County,PA,95.2998379254457,NA
17044,Mifflin County,PA,20.097244732576986,NA
17067,Lebanon County,PA,47.487844408427875,NA
17104,Dauphin County,PA,11.021069692058347,NA
17112,Dauphin County,PA,14.100486223662884,NA
17201,Franklin County,PA,17.666126418152352,NA
17222,Franklin County,PA,NA,75.80645161290323
17801,Northumberland County,PA,23.824959481361425,NA
17815,Columbia County,PA,20.74554294975689,NA
17866,Northumberland County,PA,NA,56.98924731182796
17901,Schuylkill County,PA,8.752025931928689,NA
18052,Lehigh County,PA,68.7196110210697,NA
18066,Lehigh County,PA,93.84116693679093,NA
18201,Luzerne County,PA,56.07779578606159,NA
18504,Lackawanna County,PA,74.55429497568882,NA
18512,Lackawanna County,PA,84.44084278768233,NA
18640,Luzerne County,PA,73.257698541329,NA
19015,Delaware County,PA,47.811993517017825,NA
19020,Bucks County,PA,16.045380875202593,NA
19057,Bucks County,PA,58.83306320907617,NA
19096,Montgomery County,PA,88.16855753646678,NA
19129,Philadelphia County,PA,94.81361426256078,NA
19133,Philadelphia County,PA,NA,24.193548387096776
19142,Philadelphia County,PA,NA,24.731182795698924
19144,Philadelphia County,PA,35.008103727714754,NA
19145,Philadelphia County,PA,7.6175040518638575,NA
19320,Chester County,PA,NA,68.27956989247312
19348,Chester County,PA,32.90113452188007,NA
19355,Chester County,PA,73.74392220421394,NA
19601,Berks County,PA,2.593192868719611,NA
19604,Berks County,PA,7.941653160453808,NA
29461,Berkeley County,SC,NA,38.17204301075269
29483,Dorchester County,SC,4.700162074554295,NA
29505,Florence County,SC,49.270664505672606,NA
29568,Horry County,SC,88.33063209076175,NA
29605,Greenville County,SC,20.25931928687196,NA
29607,Greenville County,SC,15.721231766612643,NA
29650,Greenville County,SC,63.20907617504052,NA
29654,Anderson County,SC,51.53970826580226,NA
29673,Greenville County,SC,36.14262560777958,NA
57108,Lincoln County,SD,41.81523500810373,NA
37042,Montgomery County,TN,11.831442463533225,NA
37086,Rutherford County,TN,NA,33.87096774193548
37411,Hamilton County,TN,NA,31.182795698924732
37601,Washington County,TN,17.3419773095624,NA
37721,Knox County,TN,70.01620745542951,NA
37764,Sevier County,TN,NA,54.3010752688172
37862,Sevier County,TN,50.89141004862236,NA
37918,Knox County,TN,9.238249594813615,NA
37924,Knox County,TN,87.84440842787681,NA
38018,Shelby County,TN,41.3290113452188,NA
38103,Shelby County,TN,80.22690437601297,NA
38127,Shelby County,TN,1.9448946515397085,NA
38134,Shelby County,TN,80.71312803889789,NA
75007,Denton County,TX,27.22852512155591,NA
75013,Collin County,TX,22.20421393841167,NA
75051,Dallas County,TX,10.53484602917342,NA
75069,Collin County,TX,96.27228525121556,NA
75093,Collin County,TX,66.61264181523501,NA
75115,Dallas County,TX,13.614262560777956,52.1505376344086
75126,Kaufman County,TX,55.42949756888168,NA
75211,Dallas County,TX,30.14586709886548,NA
75228,Dallas County,TX,4.862236628849271,NA
75249,Dallas County,TX,83.63047001620745,NA
75605,Gregg County,TX,36.6288492706645,NA
75662,Gregg County,TX,23.500810372771475,NA
75686,Camp County,TX,NA,46.774193548387096
75701,Smith County,TX,22.852512155591572,NA
75801,Anderson County,TX,68.0713128038898,NA
76058,Johnson County,TX,89.46515397082658,NA
76063,Tarrant County,TX,2.4311183144246353,NA
76119,Tarrant County,TX,1.7828200972447326,NA
76137,Tarrant County,TX,54.13290113452188,NA
76240,Cooke County,TX,NA,58.602150537634415
76244,Tarrant County,TX,5.348460291734198,NA
76522,Coryell County,TX,35.65640194489465,NA
76704,McLennan County,TX,NA,40.32258064516129
77014,Harris County,TX,NA,25.268817204301076
77015,Harris County,TX,NA,44.086021505376344
77026,Harris County,TX,NA,36.55913978494624
77034,Harris County,TX,NA,92.47311827956989
77064,Harris County,TX,78.11993517017828,NA
77066,Harris County,TX,81.84764991896273,NA
77072,Harris County,TX,NA,97.84946236559139
77075,Harris County,TX,NA,99.46236559139786
77080,Harris County,TX,35.332252836304704,NA
77089,Harris County,TX,21.88006482982172,NA
77093,Harris County,TX,79.902755267423,NA
77096,Harris County,TX,67.09886547811993,NA
77354,Montgomery County,TX,23.66288492706645,NA
77373,Harris County,TX,18.80064829821718,NA
77378,Montgomery County,TX,73.58184764991897,NA
77386,Montgomery County,TX,25.283630470016206,NA
77389,Harris County,TX,69.20583468395462,NA
77423,Waller County,TX,91.08589951377634,NA
77469,Fort Bend County,TX,18.962722852512158,NA
77494,Fort Bend County,TX,89.9513776337115,NA
77503,Harris County,TX,75.85089141004863,NA
77511,Brazoria County,TX,5.6726094003241485,NA
77515,Brazoria County,TX,NA,68.81720430107528
77535,Liberty County,TX,40.51863857374392,NA
77539,Galveston County,TX,3.2414910858995136,15.591397849462366
77571,Harris County,TX,41.16693679092383,NA
77583,Brazoria County,TX,32.57698541329012,NA
77590,Galveston County,TX,34.0356564019449,NA
78040,Webb County,TX,14.910858995137763,NA
78046,Webb County,TX,0.9724473257698543,NA
78121,Wilson County,TX,82.49594813614263,NA
78130,Comal County,TX,18.31442463533225,NA
78155,Guadalupe County,TX,6.9692058346839545,NA
78223,Bexar County,TX,10.85899513776337,NA
78224,Bexar County,TX,37.925445705024316,NA
78229,Bexar County,TX,NA,84.40860215053763
78237,Bexar County,TX,14.58670988654781,NA
78250,Bexar County,TX,11.345218800648297,NA
78254,Bexar County,TX,16.693679092382496,NA
78541,Hidalgo County,TX,52.6742301458671,NA
78570,Hidalgo County,TX,17.504051863857377,NA
78573,Hidalgo County,TX,18.638573743922205,NA
78610,Hays County,TX,47.3257698541329,NA
78744,Travis County,TX,33.71150729335494,NA
78753,Travis County,TX,2.755267423014587,NA
79323,Yoakum County,TX,72.28525121555916,NA
79412,Lubbock County,TX,72.93354943273907,NA
79549,Scurry County,TX,NA,77.41935483870968
79603,Taylor County,TX,12.479740680713128,NA
79707,Midland County,TX,11.9935170178282,NA
79905,El Paso County,TX,NA,34.946236559139784
79924,El Paso County,TX,10.696920583468396,NA
84081,Salt Lake County,UT,40.356564019448946,NA
84088,Salt Lake County,UT,44.570502431118314,NA
84106,Salt Lake County,UT,97.73095623987034,NA
20110,Manassas city,VA,8.103727714748784,NA
22191,Prince William County,VA,62.72285251215559,NA
22201,Arlington County,VA,68.55753646677472,NA
22204,Arlington County,VA,NA,80.64516129032258
22405,Stafford County,VA,NA,60.215053763440864
22801,Harrisonburg city,VA,77.9578606158833,NA
22968,Greene County,VA,NA,51.075268817204304
23227,Henrico County,VA,34.52188006482982,NA
23601,Newport News city,VA,NA,31.72043010752688
23701,Portsmouth city,VA,23.824959481361425,NA
23901,Prince Edward County,VA,64.0194489465154,NA
24333,Galax city,VA,24.959481361426256,NA
24502,Lynchburg city,VA,NA,80.10752688172043
24540,Danville city,VA,23.3387358184765,NA
24572,Amherst County,VA,56.72609400324149,NA
98036,Snohomish County,WA,87.3581847649919,NA
98115,King County,WA,58.50891410048622,NA
98203,Snohomish County,WA,12.317666126418152,NA
98264,Whatcom County,WA,75.3646677471637,NA
98270,Snohomish County,WA,31.118314424635336,NA
98274,Skagit County,WA,39.05996758508914,NA
98373,Pierce County,WA,20.74554294975689,NA
98374,Pierce County,WA,26.742301458670987,NA
98387,Pierce County,WA,44.570502431118314,NA
98404,Pierce County,WA,76.6612641815235,NA
98498,Pierce County,WA,92.05834683954619,NA
98683,Clark County,WA,99.51377633711506,NA
98902,Yakima County,WA,NA,27.956989247311824
99016,Spokane County,WA,51.53970826580226,NA
99218,Spokane County,WA,70.82658022690438,NA
99353,Benton County,WA,37.925445705024316,NA
20020,District of Columbia,DC,NA,11.29032258064516
25177,Kanawha County,WV,25.76985413290113,NA
25510,Cabell County,WV,76.82333873581848,NA
26101,Wood County,WV,NA,46.774193548387096
53014,Calumet County,WI,81.36142625607779,NA
53024,Ozaukee County,WI,48.78444084278768,NA
53051,Waukesha County,WI,42.94975688816856,NA
53072,Waukesha County,WI,32.90113452188007,NA
53095,Washington County,WI,48.13614262560778,NA
53121,Walworth County,WI,88.97893030794165,NA
53130,Milwaukee County,WI,NA,97.31182795698925
53189,Waukesha County,WI,67.42301458670988,NA
53215,Milwaukee County,WI,1.4586709886547813,2.6881720430107525
53217,Milwaukee County,WI,78.93030794165315,NA
53221,Milwaukee County,WI,63.69529983792545,NA
53233,Milwaukee County,WI,95.62398703403565,NA
53546,Rock County,WI,NA,59.13978494623656
53593,Dane County,WI,77.3095623987034,NA
54014,Pierce County,WI,88.81685575364668,NA
54016,St. Croix County,WI,29.497568881685577,NA
54017,St. Croix County,WI,NA,82.25806451612904
54025,St. Croix County,WI,92.38249594813614,NA
54304,Brown County,WI,41.3290113452188,NA
54829,Barron County,WI,98.54132901134521,NA
54853,Polk County,WI,NA,100
