ZipCode,county,state,Adult
35673,Morgan County,AL,69.42446043165468
36756,Perry County,AL,90.64748201438849
99504,Anchorage Municipality,AK,19.424460431654676
99686,Valdez-Cordova Census Area,AK,99.28057553956835
85040,Maricopa County,AZ,17.985611510791365
85053,Maricopa County,AZ,43.884892086330936
85083,Maricopa County,AZ,76.97841726618705
85307,Maricopa County,AZ,91.00719424460432
85541,Gila County,AZ,47.482014388489205
85901,Navajo County,AZ,50.35971223021583
72401,Craighead County,AR,15.107913669064748
90044,Los Angeles County,CA,9.712230215827338
90260,Los Angeles County,CA,73.02158273381295
90731,Los Angeles County,CA,28.41726618705036
91343,Los Angeles County,CA,51.438848920863315
91764,San Bernardino County,CA,33.45323741007194
91914,San Diego County,CA,97.84172661870504
92028,San Diego County,CA,62.23021582733813
92649,Orange County,CA,54.67625899280576
92821,Orange County,CA,60.79136690647482
92886,Orange County,CA,27.33812949640288
93001,Ventura County,CA,58.27338129496403
93003,Ventura County,CA,43.52517985611511
93535,Los Angeles County,CA,30.215827338129497
93619,Fresno County,CA,38.84892086330935
93637,Madera County,CA,62.94964028776978
93704,Fresno County,CA,49.64028776978417
94509,Contra Costa County,CA,19.784172661870503
95348,Merced County,CA,65.46762589928058
95361,Stanislaus County,CA,38.489208633093526
80233,Adams County,CO,58.63309352517986
80247,Arapahoe County,CO,36.330935251798564
80602,Adams County,CO,44.24460431654676
06870,Fairfield County,CT,94.60431654676259
19966,Sussex County,DE,21.58273381294964
32091,Bradford County,FL,39.92805755395683
32092,St. Johns County,FL,50.719424460431654
32117,Volusia County,FL,65.82733812949641
32244,Duval County,FL,7.553956834532374
32578,Okaloosa County,FL,52.15827338129496
32583,Santa Rosa County,FL,24.100719424460433
32806,Orange County,FL,70.50359712230215
33050,Monroe County,FL,86.33093525179856
33578,Hillsborough County,FL,31.294964028776977
33837,Polk County,FL,47.84172661870504
33853,Polk County,FL,66.18705035971223
34109,Collier County,FL,73.38129496402878
34240,Sarasota County,FL,85.61151079136691
34610,Pasco County,FL,66.54676258992805
34688,Pinellas County,FL,94.96402877697841
34743,Osceola County,FL,46.043165467625904
34953,St. Lucie County,FL,8.273381294964029
30189,Cherokee County,GA,51.798561151079134
30260,Clayton County,GA,71.22302158273382
30342,Fulton County,GA,90.28776978417267
30707,Walker County,GA,39.568345323741006
83661,Payette County,ID,92.08633093525181
83716,Ada County,ID,49.280575539568346
83815,Kootenai County,ID,67.98561151079137
60007,Cook County,IL,52.51798561151079
60045,Lake County,IL,78.05755395683454
60061,Lake County,IL,83.45323741007195
60073,Lake County,IL,15.467625899280577
60175,Kane County,IL,25.539568345323744
60452,Cook County,IL,46.76258992805755
60491,Will County,IL,87.05035971223022
60608,Cook County,IL,11.510791366906476
61008,Boone County,IL,77.6978417266187
61102,Winnebago County,IL,86.6906474820144
46219,Marion County,IN,37.76978417266187
46278,Marion County,IN,91.36690647482014
46304,Porter County,IN,12.949640287769784
46407,Lake County,IN,44.96402877697842
46808,Allen County,IN,29.496402877697843
47501,Daviess County,IN,94.24460431654677
47591,Knox County,IN,78.77697841726618
50401,Cerro Gordo County,IA,37.410071942446045
51501,Pottawattamie County,IA,4.316546762589928
51566,Montgomery County,IA,73.7410071942446
52501,Wapello County,IA,14.028776978417264
52753,Scott County,IA,93.5251798561151
66067,Franklin County,KS,57.55395683453237
67846,Finney County,KS,20.14388489208633
40220,Jefferson County,KY,34.53237410071942
40444,Garrard County,KY,57.9136690647482
40504,Fayette County,KY,41.36690647482014
42345,Muhlenberg County,KY,78.41726618705036
42348,Hancock County,KY,89.20863309352518
70058,Jefferson Parish,LA,2.5179856115107913
70422,Tangipahoa Parish,LA,96.0431654676259
70433,St. Tammany Parish,LA,58.992805755395686
70446,Tangipahoa Parish,LA,97.48201438848922
70726,Livingston Parish,LA,12.23021582733813
71270,Lincoln Parish,LA,21.942446043165468
04240,Androscoggin County,ME,1.7985611510791366
20872,Montgomery County,MD,88.84892086330936
21742,Washington County,MD,63.66906474820144
01085,Hampden County,MA,48.561151079136685
01550,Worcester County,MA,41.726618705035975
01570,Worcester County,MA,6.474820143884892
01605,Worcester County,MA,10.431654676258994
02019,Norfolk County,MA,79.13669064748201
02048,Bristol County,MA,97.12230215827337
02090,Norfolk County,MA,65.10791366906474
02119,Suffolk County,MA,0.7194244604316548
02184,Norfolk County,MA,7.913669064748201
02458,Middlesex County,MA,87.41007194244604
02723,Bristol County,MA,2.877697841726619
48080,Macomb County,MI,32.014388489208635
48180,Wayne County,MI,3.237410071942446
48217,Wayne County,MI,64.74820143884892
48235,Wayne County,MI,2.158273381294964
48336,Oakland County,MI,29.136690647482016
48457,Genesee County,MI,80.57553956834532
49242,Hillsdale County,MI,74.10071942446042
49327,Newaygo County,MI,75.17985611510791
49331,Kent County,MI,48.92086330935252
49418,Kent County,MI,34.172661870503596
49505,Kent County,MI,20.863309352517987
49849,Marquette County,MI,87.76978417266187
55075,Dakota County,MN,38.1294964028777
55304,Anoka County,MN,71.94244604316546
55315,Carver County,MN,98.56115107913669
55376,Wright County,MN,82.37410071942446
55746,St. Louis County,MN,23.021582733812952
56347,Todd County,MN,80.2158273381295
56353,Mille Lacs County,MN,82.01438848920863
38650,Union County,MS,98.92086330935251
38801,Lee County,MS,35.25179856115108
38865,Alcorn County,MS,84.53237410071942
39503,Harrison County,MS,10.79136690647482
39574,Harrison County,MS,50.719424460431654
63080,Franklin County,MO,72.66187050359713
63376,St. Charles County,MO,55.03597122302158
63385,St. Charles County,MO,15.827338129496402
63640,St. Francois County,MO,37.05035971223021
64030,Jackson County,MO,16.906474820143885
64644,Caldwell County,MO,96.76258992805755
65026,Miller County,MO,85.25179856115108
65301,Pettis County,MO,5.39568345323741
65340,Saline County,MO,30.935251798561154
59047,Park County,MT,74.82014388489209
68134,Douglas County,NE,56.11510791366906
68510,Lancaster County,NE,88.12949640287769
89156,Clark County,NV,93.16546762589928
89436,Washoe County,NV,20.503597122302157
03038,Rockingham County,NH,39.20863309352518
07090,Union County,NJ,75.53956834532374
07208,Union County,NJ,13.309352517985612
07304,Hudson County,NJ,16.18705035971223
07508,Passaic County,NJ,26.618705035971225
07670,Bergen County,NJ,95.68345323741008
08062,Gloucester County,NJ,32.73381294964029
08690,Mercer County,NJ,39.92805755395683
08846,Middlesex County,NJ,69.06474820143885
87001,Sandoval County,NM,89.92805755395683
87106,Bernalillo County,NM,19.06474820143885
87121,Bernalillo County,NM,5.755395683453238
10002,New York County,NY,5.0359712230215825
10012,New York County,NY,79.85611510791367
10035,New York County,NY,7.1942446043165464
10452,Bronx County,NY,0
11102,Queens County,NY,45.32374100719424
11554,Nassau County,NY,53.597122302158276
12189,Albany County,NY,80.93525179856115
12866,Saratoga County,NY,13.66906474820144
12962,Clinton County,NY,61.87050359712231
13148,Seneca County,NY,22.302158273381295
13224,Onondaga County,NY,45.68345323741007
13439,Otsego County,NY,79.49640287769785
13601,Jefferson County,NY,6.115107913669065
13820,Otsego County,NY,31.654676258992804
13905,Broome County,NY,1.4388489208633095
14437,Livingston County,NY,42.086330935251794
14471,Ontario County,NY,92.44604316546763
14502,Wayne County,NY,24.820143884892087
14534,Monroe County,NY,8.992805755395683
14580,Monroe County,NY,9.352517985611511
14615,Monroe County,NY,70.14388489208633
14886,Tompkins County,NY,61.51079136690647
27320,Rockingham County,NC,11.151079136690647
27344,Chatham County,NC,74.46043165467626
27525,Franklin County,NC,55.39568345323741
27615,Wake County,NC,70.86330935251799
27704,Durham County,NC,11.870503597122301
28054,Gaston County,NC,17.62589928057554
28120,Gaston County,NC,55.75539568345324
28314,Cumberland County,NC,26.978417266187048
58503,Burleigh County,ND,29.856115107913666
58554,Morton County,ND,68.34532374100719
43130,Fairfield County,OH,1.079136690647482
43223,Franklin County,OH,8.633093525179856
43560,Lucas County,OH,23.381294964028775
43571,Lucas County,OH,81.65467625899281
43777,Muskingum County,OH,95.32374100719424
43952,Jefferson County,OH,10.071942446043165
44012,Lorain County,OH,66.90647482014388
44035,Lorain County,OH,3.5971223021582732
44111,Cuyahoga County,OH,0.3597122302158274
44138,Cuyahoga County,OH,63.30935251798561
44720,Stark County,OH,25.899280575539567
45014,Butler County,OH,42.805755395683455
45103,Clermont County,OH,24.46043165467626
45171,Brown County,OH,81.29496402877699
45244,Hamilton County,OH,76.61870503597122
45365,Shelby County,OH,12.589928057553957
45458,Montgomery County,OH,34.89208633093525
73099,Canadian County,OK,41.007194244604314
74115,Tulsa County,OK,35.97122302158273
97302,Marion County,OR,40.647482014388494
97325,Marion County,OR,82.73381294964028
97333,Benton County,OR,67.26618705035972
97801,Umatilla County,OR,30.575539568345324
15238,Allegheny County,PA,83.81294964028777
15317,Washington County,PA,59.352517985611506
15701,Indiana County,PA,18.705035971223023
16323,Venango County,PA,50
16509,Erie County,PA,64.38848920863309
17057,Dauphin County,PA,17.26618705035971
17109,Dauphin County,PA,23.741007194244602
17403,York County,PA,3.9568345323741005
17866,Northumberland County,PA,60.07194244604317
18235,Carbon County,PA,28.776978417266186
18237,Schuylkill County,PA,96.40287769784173
18466,Monroe County,PA,54.31654676258992
19153,Philadelphia County,PA,83.09352517985612
02906,Providence County,RI,52.87769784172662
29036,Lexington County,SC,69.7841726618705
29379,Union County,SC,100
29621,Anderson County,SC,32.73381294964029
29909,Beaufort County,SC,91.36690647482014
37186,Sumner County,TN,64.02877697841727
37354,Monroe County,TN,32.37410071942446
37415,Hamilton County,TN,57.194244604316545
38464,Lawrence County,TN,62.589928057553955
75002,Collin County,TX,71.22302158273382
75006,Dallas County,TX,43.16546762589928
75052,Dallas County,TX,16.546762589928058
75092,Grayson County,TX,44.60431654676259
76008,Parker County,TX,98.20143884892086
76115,Tarrant County,TX,48.201438848920866
76437,Eastland County,TX,93.88489208633094
76542,Bell County,TX,14.028776978417264
77049,Harris County,TX,84.17266187050359
77318,Montgomery County,TX,75.89928057553958
77373,Harris County,TX,26.258992805755394
77488,Wharton County,TX,89.568345323741
77523,Chambers County,TX,56.83453237410072
77868,Grimes County,TX,67.62589928057554
78070,Comal County,TX,88.48920863309353
78109,Bexar County,TX,46.402877697841724
78155,Guadalupe County,TX,21.223021582733814
84014,Davis County,UT,85.97122302158273
84081,Salt Lake County,UT,27.697841726618705
84095,Salt Lake County,UT,36.69064748201439
84102,Salt Lake County,UT,77.33812949640287
84124,Salt Lake County,UT,76.2589928057554
84129,,UT,60.431654676258994
84606,Utah County,UT,84.89208633093526
05478,Franklin County,VT,53.956834532374096
05602,Washington County,VT,61.15107913669065
05701,Rutland County,VT,33.81294964028777
20112,Prince William County,VA,72.3021582733813
22312,Fairfax County,VA,42.44604316546763
22405,Stafford County,VA,56.4748201438849
23111,Hanover County,VA,47.122302158273385
23223,Henrico County,VA,4.676258992805756
23607,Newport News city,VA,18.345323741007196
24017,Roanoke city,VA,22.66187050359712
98178,King County,WA,53.23741007194245
98188,King County,WA,68.70503597122301
98221,Skagit County,WA,59.71223021582733
99208,Spokane County,WA,35.61151079136691
20009,District of Columbia,DC,28.05755395683453
26101,Wood County,WV,6.83453237410072
53406,Racine County,WI,14.748201438848922
53563,Rock County,WI,99.64028776978418
54829,Barron County,WI,92.80575539568345
54901,Winnebago County,WI,24.820143884892087
