ZipCode,county,state,Retirement
35211,Jefferson County,AL,32.93172690763052
35217,Jefferson County,AL,53.41365461847389
35242,Shelby County,AL,51.00401606425703
85139,Pinal County,AZ,75.1004016064257
85634,Pima County,AZ,69.07630522088354
86045,Coconino County,AZ,75.1004016064257
86503,Apache County,AZ,55.82329317269076
72703,Washington County,AR,87.95180722891565
90006,Los Angeles County,CA,64.2570281124498
90403,Los Angeles County,CA,72.28915662650603
90810,Los Angeles County,CA,85.54216867469879
91335,Los Angeles County,CA,40.963855421686745
91352,Los Angeles County,CA,48.99598393574297
91356,Los Angeles County,CA,53.81526104417671
93313,Kern County,CA,57.028112449799195
95014,Santa Clara County,CA,88.75502008032129
95125,Santa Clara County,CA,59.83935742971887
95357,Stanislaus County,CA,81.12449799196787
95482,Mendocino County,CA,67.8714859437751
95954,Butte County,CA,42.570281124497996
80013,Arapahoe County,CO,32.1285140562249
80122,Arapahoe County,CO,56.62650602409639
80221,Adams County,CO,84.33734939759037
06277,Windham County,CT,89.5582329317269
06790,Litchfield County,CT,6.425702811244979
32038,Columbia County,FL,95.18072289156626
32250,Duval County,FL,40.16064257028113
32312,Leon County,FL,61.044176706827315
32607,Alachua County,FL,49.39759036144578
32696,Levy County,FL,54.61847389558233
33065,Broward County,FL,55.42168674698795
33180,Miami-Dade County,FL,49.79919678714859
33407,Palm Beach County,FL,57.42971887550201
33458,Palm Beach County,FL,33.33333333333333
33565,Hillsborough County,FL,75.90361445783132
34442,Citrus County,FL,59.43775100401606
34476,Marion County,FL,74.29718875502009
34748,Lake County,FL,16.867469879518072
30062,Cobb County,GA,24.899598393574294
30135,Douglas County,GA,22.48995983935743
30176,Haralson County,GA,90.76305220883533
30252,Henry County,GA,54.21686746987952
30344,Fulton County,GA,46.1847389558233
30453,Tattnall County,GA,95.98393574297188
96815,Honolulu County,HI,34.53815261044177
83669,Ada County,ID,60.6425702811245
60062,Cook County,IL,77.91164658634538
60103,DuPage County,IL,33.734939759036145
60441,Will County,IL,38.55421686746988
60467,Cook County,IL,35.7429718875502
60611,Cook County,IL,28.915662650602407
60618,Cook County,IL,58.63453815261044
60628,Cook County,IL,8.835341365461847
60629,Cook County,IL,10.040160642570282
60630,Cook County,IL,20.481927710843372
60634,Cook County,IL,15.66265060240964
60942,Vermilion County,IL,67.46987951807229
61853,Champaign County,IL,71.08433734939759
47265,Jennings County,IN,41.76706827309237
52060,Jackson County,IA,87.14859437751004
52404,Linn County,IA,27.309236947791167
67357,Labette County,KS,65.06024096385542
70005,Jefferson Parish,LA,79.91967871485943
70068,St. John the Baptist Parish,LA,26.907630522088354
70401,Tangipahoa Parish,LA,43.77510040160642
70431,St. Tammany Parish,LA,73.49397590361446
70706,Livingston Parish,LA,63.05220883534136
70791,East Baton Rouge Parish,LA,93.97590361445783
71360,Rapides Parish,LA,36.94779116465863
71409,Rapides Parish,LA,97.18875502008032
71449,Sabine Parish,LA,96.3855421686747
04071,Cumberland County,ME,93.17269076305222
04915,Waldo County,ME,43.373493975903614
04967,Somerset County,ME,85.14056224899599
20715,Prince George's County,MD,77.10843373493977
21207,Baltimore County,MD,32.53012048192771
21210,Baltimore city,MD,73.09236947791165
21228,Baltimore County,MD,19.67871485943775
21811,Worcester County,MD,35.34136546184739
01109,Hampden County,MA,15.261044176706829
01460,Middlesex County,MA,63.85542168674698
01606,Worcester County,MA,26.104417670682732
01702,Middlesex County,MA,11.646586345381527
01801,Middlesex County,MA,2.4096385542168677
01880,Middlesex County,MA,12.048192771084338
01906,Essex County,MA,65.86345381526104
01915,Essex County,MA,18.072289156626507
01930,Essex County,MA,1.2048192771084338
01938,Essex County,MA,55.020080321285135
01940,Essex County,MA,53.01204819277109
02119,Suffolk County,MA,0
02127,Suffolk County,MA,61.84738955823293
02149,Middlesex County,MA,44.97991967871486
02170,Norfolk County,MA,65.46184738955823
02445,Norfolk County,MA,91.96787148594377
02460,Middlesex County,MA,92.7710843373494
02481,Norfolk County,MA,56.22489959839358
02537,Barnstable County,MA,87.55020080321285
02745,Bristol County,MA,14.859437751004014
48025,Oakland County,MI,64.65863453815261
48036,Macomb County,MI,37.34939759036144
48047,Macomb County,MI,23.694779116465863
48101,Wayne County,MI,39.75903614457831
48103,Washtenaw County,MI,4.417670682730924
48126,Wayne County,MI,45.78313253012048
48180,Wayne County,MI,4.819277108433735
48186,Wayne County,MI,18.87550200803213
48197,Washtenaw County,MI,5.220883534136546
48235,Wayne County,MI,7.630522088353414
48307,Oakland County,MI,31.32530120481928
48331,Oakland County,MI,29.71887550200803
48382,Oakland County,MI,42.971887550200805
48603,Saginaw County,MI,16.46586345381526
49442,Muskegon County,MI,9.236947791164658
49801,Dickinson County,MI,45.38152610441767
55027,Goodhue County,MN,98.79518072289156
55045,Chisago County,MN,76.30522088353415
55408,Hennepin County,MN,46.58634538152611
55449,Anoka County,MN,72.69076305220884
55904,Olmsted County,MN,44.57831325301205
55987,Winona County,MN,70.68273092369478
56007,Freeborn County,MN,13.654618473895583
63132,St. Louis County,MO,84.73895582329317
63303,St. Charles County,MO,18.473895582329316
64015,Jackson County,MO,26.506024096385545
64133,Jackson County,MO,9.63855421686747
65340,Saline County,MO,66.26506024096386
65721,Christian County,MO,68.27309236947792
59715,Gallatin County,MT,42.168674698795186
89179,Clark County,NV,99.19678714859438
07082,Morris County,NJ,94.77911646586345
07424,Passaic County,NJ,95.58232931726907
08096,Gloucester County,NJ,16.06425702811245
08742,Ocean County,NJ,77.51004016064257
08865,Warren County,NJ,17.269076305220885
87301,McKinley County,NM,62.65060240963856
10023,New York County,NY,22.89156626506024
10032,New York County,NY,94.37751004016064
10065,New York County,NY,67.06827309236948
10452,Bronx County,NY,1.6064257028112447
10453,Bronx County,NY,14.457831325301203
10460,Bronx County,NY,4.016064257028113
10467,Bronx County,NY,0.4016064257028112
10468,Bronx County,NY,5.622489959839357
11106,Queens County,NY,63.45381526104418
11206,Kings County,NY,3.614457831325301
11207,Kings County,NY,2.0080321285140563
11218,Kings County,NY,24.497991967871485
11222,Kings County,NY,68.67469879518072
11226,Kings County,NY,7.228915662650602
11362,Queens County,NY,85.94377510040161
11372,Queens County,NY,31.72690763052209
11716,Suffolk County,NY,96.78714859437751
11756,Nassau County,NY,71.4859437751004
12010,Montgomery County,NY,11.244979919678714
12076,Schoharie County,NY,99.59839357429718
12197,Otsego County,NY,98.39357429718876
12303,Schenectady County,NY,47.389558232931726
12540,Dutchess County,NY,97.59036144578313
12839,Washington County,NY,52.610441767068274
13057,Onondaga County,NY,61.44578313253012
13224,Onondaga County,NY,93.57429718875501
13326,Otsego County,NY,86.34538152610442
13491,Herkimer County,NY,91.16465863453816
13815,Chenango County,NY,22.08835341365462
13901,Broome County,NY,8.433734939759036
14450,Monroe County,NY,3.2128514056224895
14526,Monroe County,NY,24.096385542168676
14559,Monroe County,NY,28.915662650602407
14608,Monroe County,NY,86.74698795180723
14610,Monroe County,NY,34.13654618473896
14616,Monroe County,NY,14.056224899598394
14618,Monroe County,NY,47.791164658634536
14623,Monroe County,NY,30.923694779116467
14625,Monroe County,NY,48.59437751004016
27292,Davidson County,NC,19.27710843373494
28739,Henderson County,NC,20.883534136546185
43113,Pickaway County,OH,20.080321285140563
43701,Muskingum County,OH,0.8032128514056224
44003,Ashtabula County,OH,78.3132530120482
44110,Cuyahoga County,OH,13.253012048192772
44111,Cuyahoga County,OH,6.827309236947792
44122,Cuyahoga County,OH,10.441767068273093
44134,Cuyahoga County,OH,6.024096385542169
44139,Cuyahoga County,OH,21.285140562248998
44144,Cuyahoga County,OH,12.851405622489958
44278,Summit County,OH,48.19277108433735
45140,Clermont County,OH,24.899598393574294
45176,Clermont County,OH,82.32931726907631
45212,Hamilton County,OH,62.24899598393574
45320,Preble County,OH,44.17670682730924
45377,Montgomery County,OH,52.208835341365464
45833,Allen County,OH,69.47791164658635
45895,Auglaize County,OH,40.562248995983936
74820,Pontotoc County,OK,10.843373493975903
97016,Columbia County,OR,92.3694779116466
97230,Multnomah County,OR,23.293172690763054
97530,Jackson County,OR,83.93574297188755
97703,Deschutes County,OR,73.89558232931726
97850,Union County,OR,37.75100401606426
15902,Cambria County,PA,57.831325301204814
16148,Mercer County,PA,30.522088353413658
16406,Crawford County,PA,97.99196787148594
17111,Dauphin County,PA,12.449799196787147
17815,Columbia County,PA,17.670682730923694
18017,Northampton County,PA,8.032128514056225
18045,Northampton County,PA,25.702811244979916
19050,Delaware County,PA,50.20080321285141
19083,Delaware County,PA,21.686746987951807
19086,Delaware County,PA,74.69879518072288
19104,Philadelphia County,PA,27.710843373493976
19106,Philadelphia County,PA,90.36144578313254
19355,Chester County,PA,46.98795180722892
29150,Sumter County,SC,36.54618473895582
57005,Minnehaha County,SD,79.11646586345381
37127,Rutherford County,TN,80.32128514056225
37205,Davidson County,TN,82.73092369477911
37221,Davidson County,TN,34.93975903614458
37659,Washington County,TN,38.95582329317269
76706,McLennan County,TX,78.714859437751
77433,Harris County,TX,58.23293172690763
77551,Galveston County,TX,35.7429718875502
77808,Brazos County,TX,66.66666666666666
78006,Kendall County,TX,60.24096385542169
78251,Bexar County,TX,80.72289156626506
78621,Bastrop County,TX,69.87951807228916
78633,Williamson County,TX,2.8112449799196786
78746,Travis County,TX,89.1566265060241
22903,Charlottesville city,VA,28.514056224899598
23601,Newport News city,VA,79.51807228915662
24148,Henry County,VA,83.13253012048193
24211,Washington County,VA,59.036144578313255
24333,Galax city,VA,83.53413654618474
98002,King County,WA,71.8875502008032
98034,King County,WA,81.52610441767068
98058,King County,WA,30.120481927710845
98075,King County,WA,76.70682730923694
98106,King County,WA,70.28112449799197
98335,Pierce County,WA,41.365461847389554
99208,Spokane County,WA,38.152610441767074
26201,Upshur County,WV,88.35341365461848
53045,Waukesha County,WI,51.80722891566265
53094,Jefferson County,WI,39.3574297188755
53216,Milwaukee County,WI,28.11244979919679
53221,Milwaukee County,WI,91.56626506024097
53403,Racine County,WI,81.92771084337349
53705,Dane County,WI,51.40562248995983
54157,Marinette County,WI,89.95983935742971
54304,Brown County,WI,50.602409638554214
54871,Washburn County,WI,100
