ZipCode,county,state,Youth,Adult,Retirement
35501,Walker County,AL,81.06060606060606,NA,NA
35954,Etowah County,AL,NA,NA,51.78571428571429
36116,Montgomery County,AL,NA,48.165869218500795,NA
36323,Coffee County,AL,NA,65.55023923444976,NA
36619,Mobile County,AL,NA,67.78309409888357,NA
36786,Perry County,AL,NA,95.53429027113238,NA
99701,Fairbanks North Star Borough,AK,NA,31.100478468899524,NA
99901,Ketchikan Gateway Borough,AK,NA,63.476874003189785,NA
85262,Maricopa County,AZ,NA,91.06858054226475,NA
85382,Maricopa County,AZ,NA,67.30462519936205,NA
85388,Maricopa County,AZ,NA,58.69218500797449,NA
85396,Maricopa County,AZ,NA,75.11961722488039,NA
85745,Pima County,AZ,NA,73.84370015948963,NA
86004,Coconino County,AZ,NA,7.336523125996811,NA
71603,Jefferson County,AR,67.04545454545455,NA,NA
71801,Hempstead County,AR,73.86363636363636,NA,NA
72058,Faulkner County,AR,NA,NA,71.875
72802,Pope County,AR,62.878787878787875,NA,NA
90061,Los Angeles County,CA,NA,62.36044657097288,NA
90803,Los Angeles County,CA,90.9090909090909,NA,NA
91206,Los Angeles County,CA,83.33333333333334,NA,NA
91311,Los Angeles County,CA,49.24242424242424,50.23923444976076,NA
91316,Los Angeles County,CA,84.46969696969697,NA,NA
91406,Los Angeles County,CA,NA,NA,37.5
91710,San Bernardino County,CA,NA,33.014354066985646,NA
91730,San Bernardino County,CA,NA,18.9792663476874,NA
91748,Los Angeles County,CA,NA,60.44657097288676,NA
91978,San Diego County,CA,NA,95.85326953748007,NA
92011,San Diego County,CA,64.01515151515152,NA,NA
92020,San Diego County,CA,NA,20.25518341307815,NA
92021,San Diego County,CA,NA,NA,45.535714285714285
92026,San Diego County,CA,NA,71.77033492822966,NA
92056,San Diego County,CA,NA,80.7017543859649,NA
92102,San Diego County,CA,NA,33.33333333333333,NA
92117,San Diego County,CA,40.53030303030303,NA,NA
92123,San Diego County,CA,30.303030303030305,57.89473684210527,NA
92127,San Diego County,CA,NA,NA,64.73214285714286
92404,San Bernardino County,CA,7.196969696969697,NA,NA
92407,San Bernardino County,CA,NA,17.862838915470494,NA
92503,Riverside County,CA,74.24242424242425,NA,22.321428571428573
92555,Riverside County,CA,NA,NA,60.26785714285714
92562,Riverside County,CA,NA,23.125996810207337,NA
92626,Orange County,CA,NA,NA,70.98214285714286
92646,Orange County,CA,39.39393939393939,NA,NA
92804,Orange County,CA,NA,38.43700159489633,NA
92840,Orange County,CA,NA,46.411483253588514,NA
93230,Kings County,CA,68.18181818181817,NA,NA
93277,Tulare County,CA,NA,22.328548644338117,NA
93291,Tulare County,CA,NA,62.51993620414673,NA
93434,Santa Barbara County,CA,NA,96.81020733652312,NA
93436,Santa Barbara County,CA,NA,15.311004784688995,NA
93442,San Luis Obispo County,CA,NA,74.48165869218501,NA
93446,San Luis Obispo County,CA,NA,NA,77.67857142857143
93455,Santa Barbara County,CA,38.63636363636363,NA,NA
93465,San Luis Obispo County,CA,82.57575757575758,NA,NA
93722,Fresno County,CA,1.5151515151515151,NA,NA
93725,Fresno County,CA,NA,57.25677830940988,NA
93727,Fresno County,CA,NA,NA,26.339285714285715
94062,San Mateo County,CA,NA,50.717703349282296,NA
94401,San Mateo County,CA,NA,NA,98.66071428571429
94403,San Mateo County,CA,NA,98.40510366826156,95.98214285714286
94559,Napa County,CA,NA,54.22647527910686,NA
94605,Alameda County,CA,50.378787878787875,NA,NA
95209,San Joaquin County,CA,94.6969696969697,NA,94.64285714285714
95348,Merced County,CA,NA,99.84051036682615,NA
95403,Sonoma County,CA,NA,NA,37.5
96097,Siskiyou County,CA,95.83333333333334,NA,NA
80016,Arapahoe County,CO,3.4090909090909087,NA,NA
80026,Boulder County,CO,20.075757575757574,NA,NA
80126,Douglas County,CO,45.45454545454545,NA,NA
80219,Denver County,CO,NA,NA,22.767857142857142
80224,Denver County,CO,NA,85.00797448165869,NA
80620,Weld County,CO,NA,39.07496012759171,NA
80634,Weld County,CO,NA,3.6682615629984054,NA
80640,Adams County,CO,78.4090909090909,NA,NA
80817,El Paso County,CO,NA,47.687400318979265,NA
80915,El Paso County,CO,NA,57.09728867623605,NA
80923,El Paso County,CO,66.28787878787878,NA,NA
81003,Pueblo County,CO,72.72727272727273,NA,NA
81007,Pueblo County,CO,NA,40.98883572567783,NA
06010,Hartford County,CT,NA,2.5518341307814993,NA
06111,Hartford County,CT,NA,NA,41.517857142857146
06112,Hartford County,CT,NA,17.384370015948964,NA
06239,Windham County,CT,NA,92.82296650717703,NA
06241,Windham County,CT,NA,75.5980861244019,NA
06405,New Haven County,CT,NA,63.63636363636363,NA
06415,New London County,CT,NA,48.644338118022326,NA
06416,Middlesex County,CT,NA,80.22328548644339,NA
06608,Fairfield County,CT,57.1969696969697,NA,NA
06704,New Haven County,CT,NA,49.122807017543856,NA
06779,Litchfield County,CT,NA,96.65071770334929,NA
06790,Litchfield County,CT,NA,65.86921850079744,37.05357142857143
19701,New Castle County,DE,NA,25.039872408293462,NA
19803,New Castle County,DE,NA,53.74800637958532,NA
19904,Kent County,DE,NA,12.918660287081341,47.767857142857146
19938,Kent County,DE,NA,57.57575757575758,NA
32046,Nassau County,FL,37.121212121212125,NA,NA
32053,Hamilton County,FL,NA,90.1116427432217,NA
32446,Jackson County,FL,NA,56.14035087719298,NA
32448,Jackson County,FL,NA,51.674641148325364,NA
32503,Escambia County,FL,NA,NA,12.946428571428573
32526,Escambia County,FL,34.090909090909086,NA,NA
32609,Alachua County,FL,NA,47.04944178628389,NA
32773,Seminole County,FL,NA,44.33811802232855,NA
32778,Lake County,FL,32.95454545454545,NA,NA
32803,Orange County,FL,NA,64.11483253588517,NA
33144,Miami-Dade County,FL,NA,88.83572567783095,79.46428571428571
33317,Broward County,FL,NA,67.62360446570973,NA
33412,Palm Beach County,FL,NA,86.92185007974481,NA
33435,Palm Beach County,FL,NA,43.22169059011164,NA
33584,Hillsborough County,FL,NA,99.52153110047847,NA
33614,Hillsborough County,FL,NA,31.738437001594892,NA
33619,Hillsborough County,FL,26.515151515151516,31.57894736842105,NA
33711,Pinellas County,FL,NA,50.079744816586924,NA
33756,Pinellas County,FL,NA,41.94577352472089,NA
33771,Pinellas County,FL,NA,40.19138755980861,NA
33873,Hardee County,FL,NA,65.07177033492823,NA
33916,Lee County,FL,NA,74.00318979266348,NA
33936,Lee County,FL,NA,68.10207336523126,NA
33955,Charlotte County,FL,85.22727272727273,NA,NA
34114,Collier County,FL,NA,87.71929824561403,NA
34232,Sarasota County,FL,NA,43.70015948963317,NA
34491,Marion County,FL,69.31818181818183,NA,NA
34601,Hernando County,FL,NA,84.688995215311,NA
34669,Pasco County,FL,NA,67.46411483253588,NA
34785,Sumter County,FL,NA,60.76555023923444,NA
34950,St. Lucie County,FL,NA,NA,47.32142857142857
34986,St. Lucie County,FL,69.6969696969697,NA,NA
30038,DeKalb County,GA,15.530303030303031,NA,NA
30135,Douglas County,GA,9.090909090909092,NA,NA
30238,Clayton County,GA,21.59090909090909,NA,NA
30274,Clayton County,GA,34.090909090909086,NA,NA
30310,Fulton County,GA,NA,21.052631578947366,NA
30338,DeKalb County,GA,NA,NA,63.83928571428571
30341,DeKalb County,GA,NA,79.42583732057416,NA
30344,Fulton County,GA,NA,38.59649122807017,NA
30345,DeKalb County,GA,NA,73.20574162679426,NA
30401,Emanuel County,GA,NA,92.50398724082935,NA
30453,Tattnall County,GA,NA,NA,90.625
30471,Emanuel County,GA,NA,NA,96.875
30607,Clarke County,GA,NA,72.72727272727273,NA
30752,Dade County,GA,NA,NA,67.41071428571429
30815,Richmond County,GA,NA,19.617224880382775,NA
30817,Lincoln County,GA,98.86363636363636,NA,NA
30904,Richmond County,GA,NA,78.30940988835727,NA
30906,Richmond County,GA,NA,27.11323763955343,NA
31014,Bleckley County,GA,NA,95.21531100478468,NA
31093,Houston County,GA,NA,29.1866028708134,NA
31096,Johnson County,GA,NA,89.31419457735247,NA
31320,Liberty County,GA,NA,69.6969696969697,NA
31503,Ware County,GA,29.545454545454547,NA,NA
31602,Lowndes County,GA,NA,NA,42.857142857142854
31763,Lee County,GA,NA,45.614035087719294,NA
31907,Muscogee County,GA,18.560606060606062,NA,NA
39819,Decatur County,GA,NA,NA,73.21428571428571
96706,Honolulu County,HI,32.57575757575758,NA,NA
96720,Hawaii County,HI,36.36363636363637,NA,NA
96727,Hawaii County,HI,54.92424242424242,NA,NA
96740,Hawaii County,HI,NA,53.110047846889955,NA
96782,Honolulu County,HI,NA,NA,24.553571428571427
96789,Honolulu County,HI,19.318181818181817,NA,NA
96792,Honolulu County,HI,NA,12.599681020733652,NA
96816,Honolulu County,HI,NA,NA,14.285714285714285
96819,Honolulu County,HI,NA,15.789473684210526,NA
83301,Twin Falls County,ID,NA,32.854864433811805,1.3392857142857142
83318,Cassia County,ID,NA,NA,72.32142857142857
83642,Ada County,ID,NA,NA,6.696428571428571
83686,Canyon County,ID,NA,NA,2.6785714285714284
83687,Canyon County,ID,NA,20.574162679425836,NA
83704,Ada County,ID,68.93939393939394,NA,NA
60005,Cook County,IL,NA,50.398724082934606,NA
60069,Lake County,IL,NA,93.62041467304624,NA
60098,McHenry County,IL,NA,28.22966507177033,NA
60099,Lake County,IL,44.31818181818182,NA,NA
60108,DuPage County,IL,NA,NA,29.017857142857146
60153,Cook County,IL,NA,NA,25.44642857142857
60162,Cook County,IL,NA,70.81339712918661,NA
60435,Will County,IL,18.181818181818183,32.695374800637964,NA
60436,Will County,IL,31.060606060606062,NA,52.67857142857143
60438,Cook County,IL,NA,NA,36.607142857142854
60443,Cook County,IL,48.10606060606061,76.39553429027113,NA
60451,Will County,IL,NA,46.889952153110045,NA
60453,Cook County,IL,NA,13.716108452950559,NA
60461,Cook County,IL,NA,96.33173843700159,NA
60477,Cook County,IL,NA,23.923444976076556,NA
60487,Cook County,IL,NA,81.81818181818183,NA
60516,DuPage County,IL,NA,41.14832535885167,NA
60565,DuPage County,IL,NA,55.8213716108453,NA
60608,Cook County,IL,49.621212121212125,11.64274322169059,NA
60617,Cook County,IL,12.878787878787879,NA,NA
60626,Cook County,IL,NA,NA,5.803571428571429
60628,Cook County,IL,NA,8.452950558213717,NA
60629,Cook County,IL,17.803030303030305,NA,NA
60633,Cook County,IL,91.28787878787878,NA,NA
60646,Cook County,IL,NA,44.97607655502392,NA
60651,Cook County,IL,NA,9.728867623604467,NA
60655,Cook County,IL,93.93939393939394,68.2615629984051,NA
60659,Cook County,IL,NA,66.66666666666666,NA
60804,Cook County,IL,57.57575757575758,NA,NA
60954,Kankakee County,IL,NA,67.1451355661882,NA
60964,Kankakee County,IL,98.48484848484848,NA,NA
60970,Iroquois County,IL,NA,NA,90.17857142857143
61071,Whiteside County,IL,NA,22.48803827751196,NA
61101,Winnebago County,IL,89.39393939393939,NA,NA
61102,Winnebago County,IL,62.878787878787875,NA,NA
61111,Winnebago County,IL,NA,79.10685805422646,NA
61252,Whiteside County,IL,90.15151515151516,NA,NA
61282,Rock Island County,IL,88.25757575757575,NA,NA
61354,LaSalle County,IL,NA,71.1323763955343,NA
61401,Knox County,IL,NA,NA,30.80357142857143
61523,Peoria County,IL,NA,78.4688995215311,NA
61603,Peoria County,IL,92.04545454545455,NA,NA
61951,Moultrie County,IL,NA,NA,89.28571428571429
62040,Madison County,IL,NA,19.298245614035086,NA
62095,Madison County,IL,NA,NA,73.66071428571429
62226,St. Clair County,IL,NA,38.11802232854865,NA
62236,Monroe County,IL,NA,93.93939393939394,NA
62263,Washington County,IL,NA,85.32695374800639,NA
62363,Pike County,IL,NA,99.36204146730464,NA
62644,Mason County,IL,NA,98.24561403508771,NA
62703,Sangamon County,IL,NA,68.89952153110048,NA
62801,Marion County,IL,NA,89.792663476874,59.82142857142857
62864,Jefferson County,IL,NA,NA,38.839285714285715
62881,Marion County,IL,NA,81.18022328548645,NA
46011,Madison County,IN,NA,84.84848484848484,NA
46016,Madison County,IN,NA,72.40829346092504,NA
46112,Hendricks County,IN,45.07575757575758,NA,NA
46135,Putnam County,IN,NA,58.3732057416268,NA
46219,Marion County,IN,NA,NA,16.517857142857142
46224,Marion County,IN,80.68181818181817,NA,NA
46227,Marion County,IN,NA,NA,4.464285714285714
46250,Marion County,IN,NA,69.05901116427432,60.71428571428571
46260,Marion County,IN,NA,41.14832535885167,NA
46310,Jasper County,IN,52.65151515151515,NA,NA
46311,Lake County,IN,25.37878787878788,NA,NA
46322,Lake County,IN,NA,22.169059011164276,NA
46324,Lake County,IN,NA,NA,28.57142857142857
46368,Porter County,IN,26.136363636363637,NA,NA
46394,Lake County,IN,NA,71.61084529505582,NA
46406,Lake County,IN,NA,NA,62.05357142857143
46410,Lake County,IN,NA,NA,45.982142857142854
46507,Elkhart County,IN,NA,NA,78.125
46526,Elkhart County,IN,NA,90.9090909090909,NA
46534,Starke County,IN,NA,49.282296650717704,NA
46580,Kosciusko County,IN,NA,42.10526315789473,NA
46582,Kosciusko County,IN,51.89393939393939,69.53748006379585,NA
46617,St. Joseph County,IN,NA,NA,97.32142857142857
46714,Wells County,IN,NA,82.77511961722487,NA
46725,Whitley County,IN,NA,26.953748006379584,NA
46805,Allen County,IN,17.045454545454543,NA,NA
46808,Allen County,IN,NA,28.548644338118024,58.48214285714286
46809,Allen County,IN,NA,51.355661881977674,91.51785714285714
46815,Allen County,IN,NA,28.86762360446571,NA
46902,Howard County,IN,48.86363636363637,NA,NA
46992,Wabash County,IN,NA,82.93460925039872,NA
47025,Dearborn County,IN,31.439393939393938,NA,NA
47203,Bartholomew County,IN,NA,NA,20.535714285714285
47250,Jefferson County,IN,NA,NA,55.80357142857143
47265,Jennings County,IN,19.696969696969695,NA,NA
47274,Jackson County,IN,53.40909090909091,NA,NA
47304,Delaware County,IN,NA,NA,40.625
47331,Fayette County,IN,10.227272727272728,40.03189792663477,NA
47362,Henry County,IN,NA,80.54226475279107,42.410714285714285
47371,Jay County,IN,29.166666666666668,48.803827751196174,62.94642857142857
47374,Wayne County,IN,NA,5.263157894736842,NA
47404,Monroe County,IN,NA,56.29984051036683,NA
47567,Pike County,IN,NA,85.48644338118022,NA
47660,Gibson County,IN,NA,85.96491228070175,NA
47804,Vigo County,IN,NA,52.791068580542266,NA
47807,Vigo County,IN,NA,42.42424242424242,NA
47933,Montgomery County,IN,NA,28.38915470494418,NA
50009,Polk County,IA,NA,61.24401913875598,NA
50112,Poweshiek County,IA,NA,96.01275917065391,NA
50138,Marion County,IA,69.6969696969697,NA,NA
50201,Story County,IA,65.9090909090909,NA,NA
50313,Polk County,IA,NA,NA,85.26785714285714
50428,Cerro Gordo County,IA,83.33333333333334,70.81339712918661,79.01785714285714
50595,Hamilton County,IA,60.984848484848484,NA,NA
50801,Union County,IA,NA,74.64114832535886,NA
51351,Dickinson County,IA,NA,98.72408293460924,NA
51401,Carroll County,IA,NA,74.8006379585327,NA
51442,Crawford County,IA,NA,83.41307814992025,NA
51503,Pottawattamie County,IA,3.787878787878788,NA,NA
52001,Dubuque County,IA,NA,NA,23.660714285714285
52172,Allamakee County,IA,NA,NA,82.14285714285714
52227,Linn County,IA,91.66666666666666,NA,NA
52240,Johnson County,IA,2.6515151515151514,91.54704944178629,NA
52241,Johnson County,IA,NA,66.50717703349282,NA
52353,Washington County,IA,NA,NA,69.64285714285714
52601,Des Moines County,IA,78.78787878787878,70.17543859649122,NA
52627,Lee County,IA,NA,39.39393939393939,NA
52803,Scott County,IA,42.04545454545455,NA,NA
52806,Scott County,IA,NA,19.776714513556616,NA
66061,Johnson County,KS,8.712121212121213,NA,NA
66219,Johnson County,KS,87.87878787878788,NA,NA
67005,Cowley County,KS,97.34848484848484,NA,NA
67060,Sedgwick County,KS,NA,87.08133971291866,NA
67156,Cowley County,KS,NA,NA,74.55357142857143
67357,Labette County,KS,56.439393939393945,NA,NA
67501,Reno County,KS,58.333333333333336,NA,NA
67601,Ellis County,KS,NA,NA,16.071428571428573
40047,Bullitt County,KY,NA,25.837320574162682,NA
40206,Jefferson County,KY,NA,59.64912280701754,NA
40215,Jefferson County,KY,NA,59.33014354066985,NA
40241,Jefferson County,KY,56.81818181818182,NA,NA
40291,Jefferson County,KY,32.196969696969695,NA,NA
40484,Lincoln County,KY,NA,NA,54.01785714285714
40504,Fayette County,KY,NA,36.36363636363637,NA
40509,Fayette County,KY,NA,29.02711323763955,NA
41001,Campbell County,KY,NA,56.61881977671451,NA
41014,Kenton County,KY,NA,47.52791068580542,NA
41071,Campbell County,KY,NA,24.242424242424242,NA
42501,Pulaski County,KY,NA,NA,54.91071428571429
70114,Orleans Parish,LA,NA,84.05103668261563,NA
70115,Orleans Parish,LA,NA,18.341307814992025,NA
70117,Orleans Parish,LA,NA,34.76874003189793,NA
70121,Jefferson Parish,LA,NA,91.38755980861244,NA
70341,Assumption Parish,LA,NA,92.34449760765551,NA
70363,Terrebonne Parish,LA,NA,54.70494417862839,NA
70380,St. Mary Parish,LA,NA,20.414673046251995,NA
70403,Tangipahoa Parish,LA,NA,NA,30.357142857142854
70427,Washington Parish,LA,9.469696969696969,NA,NA
70501,Lafayette Parish,LA,NA,3.1897926634768736,NA
70544,Iberia Parish,LA,43.56060606060606,NA,NA
70611,Calcasieu Parish,LA,29.924242424242426,NA,NA
70663,Calcasieu Parish,LA,NA,NA,21.428571428571427
70810,East Baton Rouge Parish,LA,26.89393939393939,9.409888357256778,NA
71232,Richland Parish,LA,NA,NA,81.25
04073,York County,ME,NA,21.850079744816586,NA
04083,York County,ME,NA,72.24880382775119,NA
04096,Cumberland County,ME,79.92424242424242,NA,NA
04101,Cumberland County,ME,NA,31.419457735247207,NA
04102,Cumberland County,ME,NA,71.29186602870813,77.23214285714286
04103,Cumberland County,ME,NA,76.07655502392345,NA
04106,Cumberland County,ME,NA,NA,76.33928571428571
04268,Oxford County,ME,NA,71.45135566188198,NA
04330,Kennebec County,ME,NA,6.8580542264752795,NA
04401,Penobscot County,ME,NA,2.711323763955343,NA
04468,Penobscot County,ME,80.3030303030303,NA,NA
04605,Hancock County,ME,NA,38.91547049441787,NA
04736,Aroostook County,ME,85.98484848484848,NA,70.53571428571429
04901,Kennebec County,ME,NA,96.17224880382776,NA
04976,Somerset County,ME,NA,42.42424242424242,NA
20603,Charles County,MD,NA,77.83094098883574,NA
20723,Howard County,MD,81.81818181818183,NA,NA
21042,Howard County,MD,33.33333333333333,NA,NA
21078,Harford County,MD,NA,45.29505582137161,NA
21108,Anne Arundel County,MD,NA,76.87400318979266,NA
21113,Anne Arundel County,MD,53.78787878787878,NA,NA
21114,Anne Arundel County,MD,62.878787878787875,NA,NA
21131,Baltimore County,MD,99.24242424242425,NA,NA
21212,Baltimore city,MD,NA,86.44338118022328,NA
21213,Baltimore city,MD,20.454545454545457,NA,NA
21224,Baltimore city,MD,78.78787878787878,NA,NA
21244,Baltimore County,MD,NA,65.39074960127593,NA
21502,Allegany County,MD,59.84848484848485,NA,NA
21613,Dorchester County,MD,NA,NA,52.23214285714286
21702,Frederick County,MD,NA,79.26634768740031,NA
21740,Washington County,MD,14.393939393939394,45.45454545454545,NA
01035,Hampshire County,MA,NA,NA,83.48214285714286
01036,Hampden County,MA,NA,82.13716108452951,NA
01069,Hampden County,MA,NA,25.677830940988837,68.30357142857143
01089,Hampden County,MA,NA,34.13078149920255,NA
01095,Hampden County,MA,NA,NA,84.375
01104,Hampden County,MA,NA,1.7543859649122806,NA
01105,Hampden County,MA,NA,17.703349282296653,NA
01109,Hampden County,MA,NA,0.3189792663476874,NA
01364,Franklin County,MA,76.51515151515152,NA,NA
01370,Franklin County,MA,NA,90.27113237639554,NA
01376,Franklin County,MA,NA,54.385964912280706,NA
01460,Middlesex County,MA,NA,81.65869218500798,NA
01550,Worcester County,MA,NA,36.52312599681021,NA
01564,Worcester County,MA,NA,79.90430622009569,NA
01566,Worcester County,MA,NA,52.312599681020735,NA
01569,Worcester County,MA,NA,32.057416267942585,NA
01570,Worcester County,MA,NA,5.103668261562999,NA
01603,Worcester County,MA,78.03030303030303,NA,NA
01610,Worcester County,MA,NA,13.237639553429027,NA
01851,Middlesex County,MA,NA,3.0303030303030303,NA
01876,Middlesex County,MA,NA,7.814992025518341,NA
01902,Essex County,MA,4.545454545454546,4.146730462519936,NA
01904,Essex County,MA,77.65151515151516,NA,NA
01940,Essex County,MA,39.39393939393939,NA,NA
01949,Essex County,MA,NA,66.8261562998405,NA
01970,Essex County,MA,NA,8.133971291866029,NA
02043,Plymouth County,MA,NA,33.17384370015949,NA
02118,Suffolk County,MA,46.21212121212121,2.3923444976076556,NA
02122,Suffolk County,MA,NA,73.3652312599681,NA
02127,Suffolk County,MA,NA,11.164274322169058,NA
02131,Suffolk County,MA,64.77272727272727,NA,NA
02139,Middlesex County,MA,NA,0.4784688995215311,NA
02141,Middlesex County,MA,NA,NA,26.785714285714285
02143,Middlesex County,MA,NA,NA,9.375
02148,Middlesex County,MA,NA,0,NA
02176,Middlesex County,MA,NA,8.931419457735247,NA
02301,Plymouth County,MA,NA,0.1594896331738437,0
02302,Plymouth County,MA,NA,1.2759170653907497,NA
02333,Plymouth County,MA,NA,27.751196172248804,NA
02370,Plymouth County,MA,NA,NA,26.785714285714285
02724,Bristol County,MA,NA,4.4657097288676235,NA
02777,Bristol County,MA,56.060606060606055,NA,12.053571428571429
48035,Macomb County,MI,NA,10.845295055821373,NA
48118,Washtenaw County,MI,69.6969696969697,NA,NA
48152,Wayne County,MI,85.60606060606061,NA,NA
48184,Wayne County,MI,NA,14.992025518341306,NA
48209,Wayne County,MI,NA,21.21212121212121,NA
48471,Sanilac County,MI,NA,NA,75.44642857142857
48504,Genesee County,MI,NA,44.81658692185008,NA
48602,Saginaw County,MI,NA,99.04306220095694,NA
48603,Saginaw County,MI,NA,97.7671451355662,95.08928571428571
48609,Saginaw County,MI,NA,95.37480063795853,NA
48616,Saginaw County,MI,NA,99.68102073365232,NA
48655,Saginaw County,MI,NA,NA,98.21428571428571
48723,Tuscola County,MI,NA,25.199362041467303,NA
49047,Cass County,MI,46.590909090909086,NA,NA
49058,Barry County,MI,NA,27.27272727272727,NA
49332,Mecosta County,MI,NA,90.74960127591707,NA
49444,Muskegon County,MI,14.772727272727273,10.526315789473683,NA
49506,Kent County,MI,93.56060606060606,NA,NA
49512,Kent County,MI,NA,80.86124401913875,NA
49855,Marquette County,MI,NA,55.50239234449761,NA
55038,Washington County,MN,59.46969696969697,NA,NA
55057,Rice County,MN,NA,94.73684210526315,NA
55060,Steele County,MN,25.757575757575758,NA,NA
55109,Ramsey County,MN,NA,40.35087719298245,NA
55110,Ramsey County,MN,NA,77.99043062200957,NA
55113,Ramsey County,MN,NA,43.54066985645933,NA
55119,Ramsey County,MN,NA,NA,33.482142857142854
55331,Hennepin County,MN,22.348484848484848,NA,NA
55336,McLeod County,MN,61.74242424242424,NA,NA
55355,Meeker County,MN,NA,88.3572567783094,NA
55369,Hennepin County,MN,12.121212121212121,58.21371610845295,NA
55423,Hennepin County,MN,NA,18.819776714513555,NA
55429,Hennepin County,MN,41.66666666666667,35.56618819776715,NA
55430,Hennepin County,MN,NA,18.181818181818183,NA
55431,Hennepin County,MN,NA,53.90749601275917,NA
55449,Anoka County,MN,45.83333333333333,NA,NA
55720,Carlton County,MN,NA,69.85645933014354,NA
55792,St. Louis County,MN,NA,32.37639553429027,NA
55811,St. Louis County,MN,NA,69.377990430622,NA
55901,Olmsted County,MN,NA,NA,27.67857142857143
55902,Olmsted County,MN,NA,70.65390749601276,NA
55912,Mower County,MN,NA,7.974481658692185,25
56007,Freeborn County,MN,NA,41.46730462519936,NA
56011,Scott County,MN,64.77272727272727,NA,NA
56031,Martin County,MN,82.95454545454545,66.18819776714514,NA
56071,Scott County,MN,NA,76.71451355661883,NA
56093,Waseca County,MN,NA,62.0414673046252,NA
56201,Kandiyohi County,MN,NA,87.5598086124402,NA
56267,Stevens County,MN,NA,78.14992025518342,83.03571428571429
56379,Benton County,MN,NA,53.42902711323764,NA
56701,Pennington County,MN,NA,46.730462519936204,NA
56721,Polk County,MN,NA,80.38277511961722,NA
39051,Leake County,MS,43.93939393939394,NA,NA
39111,Simpson County,MS,NA,66.02870813397129,NA
39479,Covington County,MS,NA,NA,89.73214285714286
39532,Harrison County,MS,NA,37.63955342902711,NA
63106,St. Louis city,MO,NA,NA,67.85714285714286
63115,St. Louis city,MO,NA,68.42105263157895,NA
63138,St. Louis County,MO,NA,NA,46.42857142857143
63146,St. Louis County,MO,NA,46.09250398724083,NA
63301,St. Charles County,MO,NA,37.00159489633174,NA
63801,Scott County,MO,NA,49.441786283891545,NA
64052,Jackson County,MO,16.666666666666664,NA,NA
64055,Jackson County,MO,NA,NA,35.714285714285715
64106,Jackson County,MO,47.34848484848485,83.89154704944178,NA
64118,Clay County,MO,7.954545454545454,NA,NA
64119,Clay County,MO,NA,60.92503987240829,NA
64130,Jackson County,MO,NA,7.496012759170653,NA
64152,Platte County,MO,NA,18.660287081339714,NA
64424,Harrison County,MO,NA,NA,86.60714285714286
64683,Grundy County,MO,31.818181818181817,NA,NA
64772,Vernon County,MO,NA,35.24720893141946,NA
64804,Jasper County,MO,NA,17.22488038277512,NA
65201,Boone County,MO,NA,NA,87.94642857142857
65202,Boone County,MO,NA,33.49282296650718,NA
65203,Boone County,MO,72.34848484848484,88.6762360446571,NA
65251,Callaway County,MO,NA,NA,50.89285714285714
65542,Texas County,MO,NA,97.1291866028708,NA
65625,Barry County,MO,NA,NA,91.96428571428571
65802,Greene County,MO,NA,76.2360446570973,17.410714285714285
59102,Yellowstone County,MT,NA,65.23125996810208,NA
68135,Douglas County,NE,28.030303030303028,NA,NA
68136,Sarpy County,NE,30.681818181818183,NA,NA
68137,Douglas County,NE,NA,85.64593301435407,NA
68142,Douglas County,NE,96.96969696969697,NA,NA
68144,Douglas County,NE,NA,87.24082934609251,NA
68310,Gage County,NE,NA,56.9377990430622,NA
68845,Buffalo County,NE,93.18181818181817,NA,NA
03301,Merrimack County,NH,NA,16.586921850079744,NA
07005,Morris County,NJ,NA,86.28389154704944,NA
07013,Passaic County,NJ,NA,34.92822966507177,NA
07016,Union County,NJ,NA,NA,70.08928571428571
07017,Essex County,NJ,NA,3.349282296650718,NA
07018,Essex County,NJ,NA,59.4896331738437,NA
07039,Essex County,NJ,NA,70.01594896331738,NA
07070,Bergen County,NJ,98.10606060606061,NA,NA
07071,Bergen County,NJ,NA,NA,39.732142857142854
07080,Middlesex County,NJ,NA,51.196172248803826,NA
07202,Union County,NJ,NA,24.880382775119617,56.25
07307,Hudson County,NJ,96.5909090909091,NA,NA
07438,Morris County,NJ,NA,76.87400318979266,NA
07676,Bergen County,NJ,NA,85.16746411483254,NA
07753,Monmouth County,NJ,NA,58.53269537480064,NA
07760,Monmouth County,NJ,NA,83.73205741626795,NA
07840,Warren County,NJ,59.84848484848485,NA,NA
07860,Sussex County,NJ,NA,NA,93.75
07874,Sussex County,NJ,NA,NA,96.42857142857143
07936,Morris County,NJ,NA,80.06379585326954,NA
07974,Union County,NJ,NA,86.1244019138756,NA
08060,Burlington County,NJ,NA,NA,34.82142857142857
08201,Atlantic County,NJ,89.77272727272727,NA,NA
08610,Mercer County,NJ,NA,63.31738437001595,NA
08690,Mercer County,NJ,NA,82.29665071770334,NA
08721,Ocean County,NJ,NA,NA,85.71428571428571
08820,Middlesex County,NJ,NA,66.34768740031897,NA
08824,Middlesex County,NJ,NA,82.45614035087719,NA
08873,Somerset County,NJ,NA,14.673046251993622,NA
08901,Middlesex County,NJ,NA,6.0606060606060606,NA
87002,Valencia County,NM,NA,45.13556618819777,NA
87102,Bernalillo County,NM,66.66666666666666,NA,NA
87104,Bernalillo County,NM,75.75757575757575,NA,NA
87105,Bernalillo County,NM,NA,33.811802232854866,NA
87110,Bernalillo County,NM,21.21212121212121,12.121212121212121,NA
87112,Bernalillo County,NM,NA,13.556618819776714,NA
87120,Bernalillo County,NM,NA,10.207336523125997,NA
87505,Santa Fe County,NM,NA,5.901116427432217,NA
88001,Doa Ana County,NM,10.606060606060606,NA,NA
88005,Doa Ana County,NM,28.40909090909091,NA,NA
88008,Doa Ana County,NM,NA,88.51674641148325,NA
88201,Chaves County,NM,NA,30.303030303030305,NA
10001,New York County,NY,52.27272727272727,93.77990430622009,NA
10004,New York County,NY,NA,92.98245614035088,NA
10009,New York County,NY,NA,29.82456140350877,NA
10013,New York County,NY,NA,95.69377990430623,NA
10025,New York County,NY,NA,23.28548644338118,NA
10029,New York County,NY,NA,0.9569377990430622,NA
10033,New York County,NY,NA,16.108452950558213,NA
10035,New York County,NY,NA,22.807017543859647,NA
10038,New York County,NY,NA,83.25358851674642,66.51785714285714
10301,Richmond County,NY,NA,41.62679425837321,NA
10304,Richmond County,NY,NA,37.9585326953748,NA
10314,Richmond County,NY,NA,78.62838915470495,NA
10451,Bronx County,NY,NA,NA,4.910714285714286
10453,Bronx County,NY,0.3787878787878788,NA,7.142857142857142
10455,Bronx County,NY,NA,4.944178628389154,NA
10456,Bronx County,NY,3.0303030303030303,NA,0.4464285714285714
10457,Bronx County,NY,NA,6.220095693779904,NA
10461,Bronx County,NY,NA,34.29027113237639,NA
10463,Bronx County,NY,NA,45.77352472089314,NA
10466,Bronx County,NY,8.333333333333332,NA,NA
10467,Bronx County,NY,NA,0.7974481658692184,NA
10468,Bronx County,NY,NA,1.4354066985645932,NA
10470,Bronx County,NY,55.68181818181818,NA,NA
10509,Putnam County,NY,NA,90.43062200956938,NA
10532,Westchester County,NY,NA,99.20255183413079,97.76785714285714
10549,Westchester County,NY,81.81818181818183,NA,NA
10701,Westchester County,NY,NA,1.9138755980861244,NA
10705,Westchester County,NY,NA,31.259968102073366,NA
10920,Rockland County,NY,NA,97.4481658692185,100
10940,Orange County,NY,NA,NA,44.642857142857146
10941,Orange County,NY,40.15151515151515,96.96969696969697,80.35714285714286
10954,Rockland County,NY,NA,100,NA
10977,Rockland County,NY,NA,NA,76.78571428571429
10984,Rockland County,NY,NA,94.09888357256779,83.48214285714286
11201,Kings County,NY,NA,47.84688995215311,66.96428571428571
11207,Kings County,NY,NA,5.741626794258373,NA
11214,Kings County,NY,NA,15.151515151515152,NA
11215,Kings County,NY,NA,29.1866028708134,NA
11224,Kings County,NY,NA,75.27910685805422,NA
11226,Kings County,NY,39.015151515151516,4.625199362041467,NA
11233,Kings County,NY,NA,2.2328548644338118,NA
11235,Kings County,NY,NA,34.609250398724086,NA
11356,Queens County,NY,NA,NA,92.41071428571429
11421,Queens County,NY,NA,70.49441786283892,NA
11429,Queens County,NY,NA,89.15470494417863,32.142857142857146
11432,Queens County,NY,NA,23.444976076555022,NA
11434,Queens County,NY,71.96969696969697,13.716108452950559,NA
11545,Nassau County,NY,95.07575757575758,97.92663476874003,NA
11550,Nassau County,NY,NA,11.961722488038278,NA
11554,Nassau County,NY,NA,92.6634768740032,NA
11725,Suffolk County,NY,NA,84.52950558213716,NA
11726,Suffolk County,NY,NA,NA,87.5
11735,Nassau County,NY,NA,NA,57.14285714285714
11757,Suffolk County,NY,NA,NA,43.30357142857143
11763,Suffolk County,NY,NA,39.71291866028708,NA
11776,Suffolk County,NY,86.74242424242425,50.877192982456144,NA
11788,Suffolk County,NY,97.72727272727273,92.18500797448166,93.30357142857143
11798,Suffolk County,NY,64.01515151515152,NA,NA
11934,Suffolk County,NY,NA,89.95215311004785,NA
11949,Suffolk County,NY,87.12121212121212,81.3397129186603,NA
12020,Saratoga County,NY,NA,NA,28.125
12180,Rensselaer County,NY,NA,2.8708133971291865,7.5892857142857135
12205,Albany County,NY,67.42424242424242,NA,NA
12208,Albany County,NY,NA,75.75757575757575,NA
12304,Schenectady County,NY,NA,NA,36.160714285714285
12401,Ulster County,NY,NA,19.457735247208934,43.75
12533,Dutchess County,NY,NA,88.19776714513556,NA
12601,Dutchess County,NY,NA,98.88357256778309,NA
12603,Dutchess County,NY,NA,64.5933014354067,95.53571428571429
12701,Sullivan County,NY,16.28787878787879,NA,63.83928571428571
12804,Warren County,NY,NA,9.250398724082935,NA
13069,Oswego County,NY,62.121212121212125,NA,NA
13148,Seneca County,NY,NA,NA,29.464285714285715
13440,Oneida County,NY,NA,36.68261562998405,48.214285714285715
13476,Oneida County,NY,NA,79.74481658692186,NA
13492,Oneida County,NY,NA,55.183413078149925,NA
13601,Jefferson County,NY,NA,NA,15.178571428571427
13669,St. Lawrence County,NY,NA,19.936204146730464,NA
13905,Broome County,NY,NA,12.280701754385964,NA
14042,Cattaraugus County,NY,NA,NA,92.85714285714286
14214,Erie County,NY,NA,27.591706539074963,NA
14224,Erie County,NY,NA,38.75598086124402,NA
14304,Niagara County,NY,NA,5.582137161084529,NA
14423,Livingston County,NY,NA,NA,91.07142857142857
14424,Ontario County,NY,NA,15.94896331738437,NA
14437,Livingston County,NY,NA,NA,99.55357142857143
14456,Ontario County,NY,NA,81.0207336523126,NA
14513,Wayne County,NY,NA,36.84210526315789,2.232142857142857
14606,Monroe County,NY,NA,16.427432216905903,10.714285714285714
14609,Monroe County,NY,NA,NA,0.8928571428571428
14611,Monroe County,NY,NA,62.20095693779905,74.10714285714286
14701,Chautauqua County,NY,NA,17.065390749601274,1.7857142857142856
14760,Cattaraugus County,NY,NA,NA,11.607142857142858
14810,Steuben County,NY,NA,56.45933014354066,NA
14830,Steuben County,NY,NA,21.371610845295056,NA
14891,Schuyler County,NY,NA,NA,82.58928571428571
14895,Allegany County,NY,23.484848484848484,NA,NA
27284,Forsyth County,NC,NA,7.655502392344498,NA
27317,Randolph County,NC,NA,48.006379585326954,NA
27360,Davidson County,NC,NA,4.30622009569378,NA
27401,Guilford County,NC,62.5,NA,NA
27403,Guilford County,NC,79.54545454545455,NA,NA
27509,Granville County,NC,88.25757575757575,NA,NA
27529,Wake County,NC,NA,NA,13.839285714285715
27534,Wayne County,NC,NA,30.62200956937799,NA
27536,Vance County,NC,NA,53.110047846889955,NA
27589,Warren County,NC,96.21212121212122,NA,NA
27609,Wake County,NC,NA,31.89792663476874,NA
27856,Nash County,NC,NA,NA,59.375
28001,Stanly County,NC,59.09090909090909,NA,NA
28208,Mecklenburg County,NC,28.78787878787879,10.047846889952153,NA
28213,Mecklenburg County,NC,NA,86.60287081339713,48.660714285714285
28217,Mecklenburg County,NC,NA,46.57097288676236,NA
28269,Mecklenburg County,NC,10.606060606060606,12.759170653907494,NA
28304,Cumberland County,NC,20.833333333333336,NA,NA
28340,Robeson County,NC,65.53030303030303,NA,NA
28358,Robeson County,NC,NA,43.38118022328549,NA
28374,Moore County,NC,84.0909090909091,NA,NA
28379,Richmond County,NC,22.727272727272727,NA,NA
28384,Bladen County,NC,NA,92.02551834130782,NA
28394,Moore County,NC,NA,96.49122807017544,NA
28401,New Hanover County,NC,NA,66.98564593301435,NA
28501,Lenoir County,NC,NA,NA,41.964285714285715
28645,Caldwell County,NC,4.166666666666666,NA,NA
28655,Burke County,NC,13.257575757575758,NA,NA
28681,Alexander County,NC,NA,19.138755980861244,NA
28712,Transylvania County,NC,NA,NA,65.625
28715,Buncombe County,NC,NA,44.49760765550239,NA
28732,Henderson County,NC,46.96969696969697,NA,NA
28778,Buncombe County,NC,NA,95.05582137161085,NA
28787,Buncombe County,NC,NA,57.41626794258373,NA
58072,Barnes County,ND,NA,81.3397129186603,84.82142857142857
58078,Cass County,ND,7.575757575757576,22.966507177033492,NA
58201,Grand Forks County,ND,NA,NA,5.357142857142857
58501,Burleigh County,ND,60.60606060606061,NA,NA
58504,Burleigh County,ND,NA,NA,35.267857142857146
58554,Morton County,ND,NA,72.88676236044657,NA
58703,Ward County,ND,NA,64.43381180223285,NA
43015,Delaware County,OH,NA,14.513556618819775,NA
43040,Union County,OH,NA,NA,17.857142857142858
43050,Knox County,OH,NA,8.61244019138756,NA
43055,Licking County,OH,2.272727272727273,2.073365231259968,NA
43078,Champaign County,OH,NA,29.665071770334926,NA
43123,Franklin County,OH,NA,26.6347687400319,NA
43140,Madison County,OH,NA,NA,63.39285714285714
43204,Franklin County,OH,NA,6.698564593301436,NA
43209,Franklin County,OH,NA,44.1786283891547,NA
43213,Franklin County,OH,NA,10.36682615629984,NA
43214,Franklin County,OH,NA,88.99521531100478,NA
43215,Franklin County,OH,NA,61.88197767145136,NA
43223,Franklin County,OH,1.1363636363636365,NA,NA
43227,Franklin County,OH,51.13636363636363,NA,NA
43229,Franklin County,OH,NA,24.561403508771928,NA
43232,Franklin County,OH,NA,4.784688995215311,NA
43351,Wyandot County,OH,NA,35.08771929824561,NA
43420,Sandusky County,OH,15.909090909090908,NA,NA
43537,Lucas County,OH,NA,NA,62.5
43606,Lucas County,OH,NA,NA,32.589285714285715
43607,Lucas County,OH,NA,23.76395534290271,18.75
43609,Lucas County,OH,NA,21.5311004784689,NA
43613,Lucas County,OH,NA,32.535885167464116,NA
43764,Perry County,OH,NA,59.80861244019139,NA
43787,Morgan County,OH,NA,90.59011164274322,NA
43950,Belmont County,OH,NA,NA,13.392857142857142
43952,Jefferson County,OH,NA,8.771929824561402,NA
44001,Lorain County,OH,34.090909090909086,NA,NA
44011,Lorain County,OH,NA,55.02392344497608,NA
44017,Cuyahoga County,OH,NA,32.21690590111643,NA
44041,Ashtabula County,OH,94.31818181818183,NA,NA
44053,Lorain County,OH,48.484848484848484,NA,NA
44087,Summit County,OH,NA,35.24720893141946,NA
44095,Lake County,OH,NA,61.08452950558214,NA
44105,Cuyahoga County,OH,NA,14.832535885167463,16.964285714285715
44106,Cuyahoga County,OH,42.42424242424242,NA,NA
44108,Cuyahoga County,OH,NA,16.905901116427433,NA
44109,Cuyahoga County,OH,0,0.6379585326953748,NA
44111,Cuyahoga County,OH,NA,1.5948963317384368,NA
44120,Cuyahoga County,OH,9.848484848484848,NA,NA
44122,Cuyahoga County,OH,NA,20.893141945773525,NA
44124,Cuyahoga County,OH,NA,NA,20.089285714285715
44125,Cuyahoga County,OH,NA,10.685805422647528,NA
44128,Cuyahoga County,OH,NA,15.629984051036683,NA
44130,Cuyahoga County,OH,35.22727272727273,NA,NA
44131,Cuyahoga County,OH,NA,64.274322169059,NA
44135,Cuyahoga County,OH,NA,17.543859649122805,6.25
44266,Portage County,OH,NA,9.888357256778308,NA
44313,Summit County,OH,NA,67.94258373205741,NA
44319,Summit County,OH,35.60606060606061,NA,23.214285714285715
44410,Trumbull County,OH,NA,NA,25.892857142857146
44512,Mahoning County,OH,NA,NA,44.19642857142857
44515,Mahoning County,OH,NA,NA,9.821428571428571
44615,Carroll County,OH,NA,NA,81.69642857142857
44647,Stark County,OH,NA,NA,69.19642857142857
44672,Mahoning County,OH,NA,77.35247208931419,NA
44820,Crawford County,OH,NA,20.095693779904305,NA
44890,Huron County,OH,NA,34.44976076555024,NA
44903,Richland County,OH,NA,74.96012759170654,NA
45002,Hamilton County,OH,25,NA,NA
45011,Butler County,OH,NA,3.508771929824561,NA
45036,Warren County,OH,84.84848484848484,NA,NA
45044,Butler County,OH,NA,51.515151515151516,NA
45103,Clermont County,OH,NA,24.082934609250398,NA
45135,Highland County,OH,NA,NA,99.10714285714286
45202,Hamilton County,OH,24.242424242424242,NA,NA
45231,Hamilton County,OH,5.681818181818182,28.07017543859649,NA
45238,Hamilton County,OH,NA,37.16108452950559,NA
45241,Hamilton County,OH,71.5909090909091,NA,NA
45248,Hamilton County,OH,37.5,NA,NA
45373,Miami County,OH,5.303030303030303,NA,NA
45385,Greene County,OH,6.8181818181818175,51.8341307814992,NA
45415,Montgomery County,OH,47.72727272727273,NA,NA
45424,Montgomery County,OH,NA,NA,39.285714285714285
45459,Montgomery County,OH,NA,53.588516746411486,NA
45601,Ross County,OH,NA,1.1164274322169059,NA
45629,Scioto County,OH,NA,87.40031897926634,NA
45662,Scioto County,OH,NA,29.505582137161085,NA
45780,Athens County,OH,NA,85.8054226475279,NA
45840,Hancock County,OH,NA,3.827751196172249,NA
45875,Putnam County,OH,NA,NA,66.07142857142857
45885,Auglaize County,OH,NA,NA,51.33928571428571
73108,Oklahoma County,OK,NA,56.77830940988836,NA
73701,Garfield County,OK,NA,40.66985645933015,NA
74012,Tulsa County,OK,NA,NA,11.160714285714286
74146,Tulsa County,OK,54.54545454545454,NA,NA
74338,Delaware County,OK,NA,93.14194577352472,NA
74346,Delaware County,OK,76.89393939393939,NA,NA
74437,Okmulgee County,OK,76.89393939393939,NA,NA
74447,Okmulgee County,OK,58.71212121212122,58.85167464114832,NA
74601,Kay County,OK,NA,37.48006379585327,NA
74857,Cleveland County,OK,NA,69.05901116427432,NA
74902,Le Flore County,OK,NA,NA,87.05357142857143
74960,Adair County,OK,NA,NA,38.392857142857146
97004,Clackamas County,OR,99.62121212121212,NA,NA
97006,Washington County,OR,NA,26.31578947368421,NA
97045,Clackamas County,OR,NA,14.19457735247209,NA
97123,Washington County,OR,NA,47.368421052631575,NA
97124,Washington County,OR,NA,NA,54.46428571428571
97229,Washington County,OR,27.27272727272727,NA,NA
97266,Multnomah County,OR,NA,NA,33.92857142857143
97471,Douglas County,OR,33.33333333333333,NA,NA
97477,Lane County,OR,NA,NA,31.25
97501,Jackson County,OR,NA,28.708133971291865,NA
15010,Beaver County,PA,81.43939393939394,NA,NA
15136,Allegheny County,PA,NA,26.156299840510368,NA
15204,Allegheny County,PA,21.96969696969697,NA,NA
15210,Allegheny County,PA,NA,NA,40.17857142857143
15220,Allegheny County,PA,NA,61.72248803827751,NA
15238,Allegheny County,PA,NA,94.896331738437,NA
15239,Allegheny County,PA,NA,73.52472089314195,NA
15301,Washington County,PA,NA,NA,3.571428571428571
15401,Fayette County,PA,NA,NA,4.017857142857143
15601,Westmoreland County,PA,NA,33.652312599681025,NA
15666,Westmoreland County,PA,NA,NA,33.035714285714285
15801,Clearfield County,PA,NA,74.16267942583733,NA
15825,Jefferson County,PA,NA,39.23444976076555,NA
16504,Erie County,PA,54.92424242424242,NA,NA
16508,Erie County,PA,35.60606060606061,NA,NA
16602,Blair County,PA,27.65151515151515,13.078149920255184,NA
16652,Huntingdon County,PA,NA,NA,86.16071428571429
16830,Clearfield County,PA,NA,25.51834130781499,NA
16933,Tioga County,PA,NA,93.46092503987241,NA
17011,Cumberland County,PA,NA,NA,94.19642857142857
17019,York County,PA,NA,55.980861244019145,NA
17044,Mifflin County,PA,NA,35.72567783094099,NA
17103,Dauphin County,PA,71.21212121212122,NA,NA
17104,Dauphin County,PA,NA,44.65709728867623,NA
17109,Dauphin County,PA,76.13636363636364,NA,NA
17201,Franklin County,PA,90.53030303030303,NA,NA
17315,York County,PA,NA,25.199362041467303,NA
17402,York County,PA,42.803030303030305,NA,NA
17403,York County,PA,NA,3.9872408293460926,NA
17578,Lancaster County,PA,NA,98.08612440191388,NA
17801,Northumberland County,PA,NA,NA,19.642857142857142
17870,Snyder County,PA,NA,NA,61.16071428571429
18017,Northampton County,PA,NA,76.55502392344498,NA
18031,Lehigh County,PA,NA,NA,68.75
18040,Northampton County,PA,NA,59.01116427432217,NA
18042,Northampton County,PA,NA,6.539074960127592,NA
18088,Northampton County,PA,NA,NA,56.25
18201,Luzerne County,PA,NA,NA,24.107142857142858
18252,Schuylkill County,PA,NA,50.398724082934606,NA
18411,Lackawanna County,PA,37.5,NA,50.44642857142857
18436,Wayne County,PA,NA,49.760765550239235,NA
18612,Luzerne County,PA,NA,NA,45.089285714285715
18705,Luzerne County,PA,NA,47.208931419457734,NA
19008,Delaware County,PA,NA,45.933014354066984,NA
19010,Delaware County,PA,NA,51.03668261562998,NA
19063,Delaware County,PA,NA,48.484848484848484,10.267857142857142
19104,Philadelphia County,PA,NA,NA,15.178571428571427
19114,Philadelphia County,PA,NA,59.01116427432217,78.57142857142857
19119,Philadelphia County,PA,NA,22.00956937799043,NA
19144,Philadelphia County,PA,NA,5.422647527910686,NA
19154,Philadelphia County,PA,NA,NA,14.732142857142858
19312,Chester County,PA,NA,NA,72.76785714285714
19403,Montgomery County,PA,74.62121212121212,NA,NA
19426,Montgomery County,PA,NA,30.462519936204146,NA
19606,Berks County,PA,NA,NA,3.125
02852,Washington County,RI,68.56060606060606,NA,NA
02920,Providence County,RI,NA,75.43859649122807,NA
29044,Richland County,SC,NA,89.63317384370016,NA
29325,Laurens County,SC,NA,NA,53.125
29470,Charleston County,SC,NA,97.60765550239235,NA
29485,Dorchester County,SC,NA,24.242424242424242,NA
29902,Beaufort County,SC,NA,NA,61.60714285714286
29906,Beaufort County,SC,NA,60.28708133971292,NA
57006,Brookings County,SD,NA,75.9170653907496,NA
57106,Minnehaha County,SD,NA,NA,34.375
57301,Davison County,SD,44.696969696969695,43.859649122807014,NA
57350,Beadle County,SD,NA,72.08931419457734,NA
57401,Brown County,SD,NA,58.0542264752791,NA
37013,Davidson County,TN,NA,11.323763955342903,NA
37075,Sumner County,TN,NA,42.74322169059011,NA
37086,Rutherford County,TN,NA,42.90271132376395,NA
37211,Davidson County,TN,11.742424242424242,NA,18.303571428571427
37212,Davidson County,TN,NA,84.37001594896331,NA
37217,Davidson County,TN,NA,81.97767145135566,NA
37303,McMinn County,TN,NA,48.963317384370015,NA
37343,Hamilton County,TN,52.65151515151515,20.73365231259968,NA
37385,Monroe County,TN,69.6969696969697,NA,NA
37388,Coffee County,TN,NA,NA,41.07142857142857
37404,Hamilton County,TN,NA,55.34290271132376,NA
37743,Greene County,TN,NA,52.63157894736842,NA
37745,Greene County,TN,NA,22.647527910685806,NA
37771,Loudon County,TN,NA,NA,75.89285714285714
37830,Anderson County,TN,NA,64.91228070175438,57.58928571428571
37840,Roane County,TN,NA,94.41786283891547,NA
38008,Hardeman County,TN,NA,64.75279106858054,NA
38018,Shelby County,TN,40.53030303030303,NA,NA
38106,Shelby County,TN,NA,16.267942583732058,NA
38109,Shelby County,TN,NA,11.483253588516746,NA
38114,Shelby County,TN,NA,63.1578947368421,NA
38127,Shelby County,TN,1.5151515151515151,NA,NA
38134,Shelby County,TN,NA,60.12759170653907,NA
38261,Obion County,TN,NA,33.97129186602871,NA
38305,Madison County,TN,NA,30.78149920255183,NA
38501,Putnam County,TN,NA,18.50079744816587,NA
75052,Dallas County,TX,12.121212121212121,NA,NA
75088,Dallas County,TX,92.8030303030303,NA,NA
75146,Dallas County,TX,NA,52.95055821371611,NA
75236,Dallas County,TX,87.5,54.066985645933016,NA
75238,Dallas County,TX,NA,86.76236044657098,NA
75243,Dallas County,TX,NA,98.56459330143541,NA
75702,Smith County,TX,NA,60.60606060606061,NA
75785,Cherokee County,TX,NA,91.70653907496012,NA
75801,Anderson County,TX,NA,54.54545454545454,NA
75904,Angelina County,TX,NA,NA,12.5
76005,Tarrant County,TX,100,NA,NA
76028,Johnson County,TX,NA,11.802232854864434,NA
76051,Tarrant County,TX,NA,27.751196172248804,NA
76052,Tarrant County,TX,NA,87.87878787878788,NA
76053,Tarrant County,TX,NA,62.83891547049441,NA
76109,Tarrant County,TX,NA,93.30143540669856,NA
76114,Tarrant County,TX,NA,NA,50
76116,Tarrant County,TX,11.363636363636363,NA,NA
76119,Tarrant County,TX,NA,9.090909090909092,NA
76131,Tarrant County,TX,15.151515151515152,NA,NA
76137,Tarrant County,TX,23.863636363636363,NA,NA
76240,Cooke County,TX,24.62121212121212,NA,NA
76244,Tarrant County,TX,6.4393939393939394,NA,NA
76248,Tarrant County,TX,54.166666666666664,NA,NA
76302,Wichita County,TX,NA,62.67942583732058,NA
76401,Erath County,TX,NA,NA,46.875
76424,Stephens County,TX,75,NA,NA
76446,Erath County,TX,NA,83.09409888357257,NA
76501,Bell County,TX,NA,91.86602870813397,NA
76504,Bell County,TX,NA,11.004784688995215,NA
76522,Coryell County,TX,NA,39.87240829346093,NA
76642,Limestone County,TX,NA,61.56299840510366,NA
77007,Harris County,TX,NA,94.57735247208932,NA
77018,Harris County,TX,NA,37.32057416267943,NA
77029,Harris County,TX,NA,59.80861244019139,NA
77082,Harris County,TX,17.424242424242426,NA,NA
77091,Harris County,TX,NA,48.32535885167464,NA
77304,Montgomery County,TX,NA,NA,49.55357142857143
77423,Waller County,TX,NA,91.22807017543859,NA
77471,Fort Bend County,TX,NA,NA,55.35714285714286
77479,Fort Bend County,TX,NA,25.996810207336523,NA
77494,Fort Bend County,TX,NA,16.74641148325359,NA
77584,Brazoria County,TX,14.015151515151514,NA,NA
77630,Orange County,TX,NA,62.83891547049441,NA
77833,Washington County,TX,NA,40.5103668261563,NA
78040,Webb County,TX,NA,35.88516746411483,NA
78130,Comal County,TX,NA,49.601275917065394,19.196428571428573
78202,Bexar County,TX,NA,83.41307814992025,NA
78211,Bexar County,TX,NA,70.33492822966507,NA
78212,Bexar County,TX,NA,73.04625199362042,NA
78213,Bexar County,TX,NA,41.78628389154705,NA
78222,Bexar County,TX,NA,77.51196172248804,NA
78230,Bexar County,TX,NA,NA,53.57142857142857
78233,Bexar County,TX,NA,36.04465709728867,NA
78242,Bexar County,TX,NA,44.01913875598086,NA
78245,Bexar County,TX,NA,21.690590111642745,NA
78249,Bexar County,TX,NA,74.32216905901117,NA
78501,Hidalgo County,TX,NA,43.0622009569378,21.875
78520,Cameron County,TX,NA,49.760765550239235,NA
78550,Cameron County,TX,NA,63.95534290271132,NA
78759,Travis County,TX,92.42424242424242,68.58054226475278,NA
79415,Lubbock County,TX,NA,57.73524720893142,NA
79423,Lubbock County,TX,NA,NA,20.982142857142858
79556,Nolan County,TX,57.95454545454546,NA,NA
79603,Taylor County,TX,NA,26.475279106858054,NA
79605,Taylor County,TX,NA,61.40350877192983,NA
79703,Midland County,TX,NA,51.993620414673046,NA
84003,Utah County,UT,NA,NA,58.03571428571429
84025,Davis County,UT,61.36363636363637,NA,NA
84043,Utah County,UT,NA,65.70972886762361,NA
84047,Salt Lake County,UT,67.8030303030303,NA,NA
84084,Salt Lake County,UT,NA,40.82934609250399,NA
05855,Orleans County,VT,NA,77.67145135566189,NA
20164,Loudoun County,VA,NA,37.79904306220095,NA
22030,Fairfax County,VA,NA,26.6347687400319,NA
22033,Fairfax County,VA,NA,52.472089314194584,NA
22181,Fairfax County,VA,73.10606060606061,NA,NA
22192,Prince William County,VA,23.106060606060606,NA,NA
22314,Alexandria city,VA,73.48484848484848,NA,NA
22560,Essex County,VA,86.36363636363636,NA,NA
23061,Gloucester County,VA,NA,55.661881977671456,NA
23112,Chesterfield County,VA,75.37878787878788,NA,58.92857142857143
23225,Richmond city,VA,NA,13.397129186602871,NA
23236,Chesterfield County,VA,50.75757575757576,NA,NA
23462,Virginia Beach city,VA,13.636363636363635,NA,NA
23513,Norfolk city,VA,NA,18.022328548644335,NA
23518,Norfolk city,VA,NA,NA,29.464285714285715
23666,Hampton city,VA,NA,NA,8.482142857142858
23832,Chesterfield County,VA,NA,39.39393939393939,NA
23927,Mecklenburg County,VA,NA,NA,88.83928571428571
24112,Henry County,VA,NA,73.68421052631578,NA
24151,Franklin County,VA,NA,NA,79.91071428571429
24153,Salem city,VA,NA,29.82456140350877,NA
24450,Rockbridge County,VA,NA,NA,49.107142857142854
24502,Lynchburg city,VA,NA,36.20414673046252,NA
24541,Danville city,VA,NA,30.94098883572568,NA
24550,Campbell County,VA,NA,NA,88.39285714285714
98028,King County,WA,NA,63.79585326953748,NA
98118,King County,WA,36.74242424242424,NA,NA
98445,Pierce County,WA,51.515151515151516,NA,NA
98503,Thurston County,WA,50,NA,NA
98611,Cowlitz County,WA,NA,72.56778309409889,NA
98665,Clark County,WA,NA,71.77033492822966,NA
99022,Spokane County,WA,NA,87.87878787878788,NA
99216,Spokane County,WA,43.18181818181818,NA,NA
99336,Benton County,WA,NA,12.440191387559809,NA
20002,District of Columbia,DC,NA,38.27751196172249,NA
20003,District of Columbia,DC,NA,78.78787878787878,NA
20005,District of Columbia,DC,NA,NA,75
20011,District of Columbia,DC,NA,9.569377990430622,NA
20019,District of Columbia,DC,4.924242424242424,NA,NA
20024,District of Columbia,DC,NA,82.61562998405104,NA
24740,Mercer County,WV,NA,54.864433811802236,NA
25701,Cabell County,WV,NA,42.26475279106858,NA
25704,Wayne County,WV,NA,NA,65.17857142857143
25801,Raleigh County,WV,NA,NA,8.035714285714286
26003,Ohio County,WV,NA,6.379585326953747,NA
26301,Harrison County,WV,NA,68.74003189792663,8.928571428571429
26426,Harrison County,WV,NA,NA,71.42857142857143
26753,Mineral County,WV,NA,94.25837320574163,NA
53005,Waukesha County,WI,NA,89.47368421052632,NA
53074,Ozaukee County,WI,NA,79.58532695374801,NA
53090,Washington County,WI,NA,97.28867623604465,NA
53094,Jefferson County,WI,38.25757575757576,NA,NA
53142,Kenosha County,WI,6.0606060606060606,NA,NA
53168,Kenosha County,WI,89.01515151515152,NA,NA
53190,Walworth County,WI,NA,77.19298245614034,NA
53205,Milwaukee County,WI,NA,15.47049441786284,NA
53207,Milwaukee County,WI,NA,52.15311004784689,NA
53208,Milwaukee County,WI,18.939393939393938,NA,NA
53211,Milwaukee County,WI,95.45454545454545,NA,NA
53220,Milwaukee County,WI,NA,27.432216905901118,NA
53405,Racine County,WI,NA,7.017543859649122,NA
53406,Racine County,WI,NA,14.035087719298245,NA
53520,Green County,WI,NA,84.21052631578947,NA
53527,Dane County,WI,NA,NA,80.80357142857143
53913,Sauk County,WI,40.53030303030303,NA,NA
54001,Polk County,WI,NA,46.25199362041467,NA
54220,Manitowoc County,WI,NA,7.177033492822966,NA
54601,La Crosse County,WI,NA,8.293460925039872,NA
54703,Eau Claire County,WI,NA,NA,31.69642857142857
54751,Dunn County,WI,NA,30.14354066985646,NA
54880,Douglas County,WI,0.7575757575757576,14.354066985645932,NA
54901,Winnebago County,WI,NA,24.720893141945773,NA
54956,Winnebago County,WI,NA,23.604465709728867,NA
82240,Goshen County,WY,NA,78.94736842105263,NA
