ZipCode,county,state,Adult
35080,Shelby County,AL,64.64088397790056
99577,Anchorage Municipality,AK,79.00552486187846
85040,Maricopa County,AZ,18.784530386740332
85207,Maricopa County,AZ,65.74585635359117
90036,Los Angeles County,CA,71.27071823204419
90255,Los Angeles County,CA,34.25414364640884
90503,Los Angeles County,CA,55.24861878453039
90630,Orange County,CA,51.38121546961326
90660,Los Angeles County,CA,29.2817679558011
90713,Los Angeles County,CA,72.92817679558011
91042,Los Angeles County,CA,79.55801104972376
91343,Los Angeles County,CA,58.5635359116022
91406,Los Angeles County,CA,56.353591160220994
91702,Los Angeles County,CA,36.46408839779006
91731,Los Angeles County,CA,42.5414364640884
91942,San Diego County,CA,70.1657458563536
91945,San Diego County,CA,66.29834254143645
92126,San Diego County,CA,49.72375690607735
92503,Riverside County,CA,19.88950276243094
92543,Riverside County,CA,45.30386740331492
92553,Riverside County,CA,27.624309392265197
92801,Orange County,CA,39.226519337016576
92805,Orange County,CA,65.19337016574586
93004,Ventura County,CA,60.773480662983424
93012,Ventura County,CA,74.58563535911603
93060,Ventura County,CA,41.988950276243095
93901,Monterey County,CA,59.66850828729282
94544,Alameda County,CA,54.69613259668509
94558,Napa County,CA,35.35911602209944
94579,Alameda County,CA,95.58011049723757
95206,San Joaquin County,CA,23.204419889502763
95501,Humboldt County,CA,84.5303867403315
95519,Humboldt County,CA,78.45303867403315
95965,Butte County,CA,17.12707182320442
96021,Tehama County,CA,93.37016574585635
80487,Routt County,CO,97.23756906077348
80917,El Paso County,CO,90.60773480662984
06450,New Haven County,CT,8.287292817679557
06710,New Haven County,CT,62.430939226519335
06820,Fairfield County,CT,81.76795580110497
06901,Fairfield County,CT,95.02762430939227
32209,Duval County,FL,5.524861878453039
32277,Duval County,FL,24.861878453038674
32605,Alachua County,FL,30.939226519337016
32726,Lake County,FL,59.11602209944752
32773,Seminole County,FL,52.48618784530387
32809,Orange County,FL,51.93370165745856
33194,Miami-Dade County,FL,98.34254143646409
33513,Sumter County,FL,87.84530386740332
33704,Pinellas County,FL,90.05524861878453
33782,Pinellas County,FL,74.03314917127072
33913,Lee County,FL,86.74033149171271
30052,Walton County,GA,16.574585635359114
30277,Coweta County,GA,80.66298342541437
96701,Honolulu County,HI,39.77900552486188
60033,McHenry County,IL,76.24309392265194
60120,Kane County,IL,67.40331491712708
60540,DuPage County,IL,32.59668508287293
60637,Cook County,IL,14.917127071823206
60652,Cook County,IL,31.491712707182316
61364,LaSalle County,IL,61.32596685082873
46113,Marion County,IN,72.37569060773481
46181,Johnson County,IN,97.79005524861878
46725,Whitley County,IN,69.61325966850829
46835,Allen County,IN,85.6353591160221
46845,Allen County,IN,63.53591160220995
47024,Franklin County,IN,98.89502762430939
50703,Black Hawk County,IA,29.83425414364641
52732,Clinton County,IA,23.756906077348066
40160,Hardin County,KY,37.01657458563536
40215,Jefferson County,KY,17.67955801104972
40475,Madison County,KY,10.497237569060774
42602,Clinton County,KY,88.95027624309392
42633,Wayne County,KY,58.011049723756905
70072,Jefferson Parish,LA,1.6574585635359116
70075,St. Bernard Parish,LA,92.81767955801105
70127,Orleans Parish,LA,9.392265193370166
70538,St. Mary Parish,LA,48.61878453038674
70816,East Baton Rouge Parish,LA,7.734806629834254
71263,West Carroll Parish,LA,57.4585635359116
20751,Anne Arundel County,MD,100
21014,Harford County,MD,46.408839779005525
01906,Essex County,MA,3.314917127071823
02740,Bristol County,MA,0
48101,Wayne County,MI,25.41436464088398
48820,Clinton County,MI,75.13812154696133
49445,Muskegon County,MI,41.43646408839779
55033,Dakota County,MN,34.806629834254146
55303,Anoka County,MN,16.022099447513813
55428,Hennepin County,MN,19.337016574585636
55721,Itasca County,MN,99.4475138121547
56544,Becker County,MN,91.71270718232044
64024,Clay County,MO,53.591160220994475
64129,Jackson County,MO,53.03867403314917
64503,Buchanan County,MO,64.08839779005525
64505,Buchanan County,MO,35.91160220994475
64735,Henry County,MO,38.12154696132597
65804,Greene County,MO,33.70165745856354
89110,Clark County,NV,20.994475138121548
89123,Clark County,NV,56.9060773480663
89147,Clark County,NV,45.85635359116022
89165,Clark County,NV,96.13259668508287
03051,Hillsborough County,NH,24.30939226519337
08103,Camden County,NJ,6.077348066298343
87505,Santa Fe County,NM,6.629834254143646
88001,Doa Ana County,NM,27.071823204419886
88012,Doa Ana County,NM,40.331491712707184
10018,New York County,NY,96.68508287292818
10451,Bronx County,NY,2.7624309392265194
11223,Kings County,NY,21.54696132596685
11233,Kings County,NY,12.154696132596685
14580,Monroe County,NY,0.5524861878453038
27030,Surry County,NC,8.83977900552486
27127,Forsyth County,NC,13.812154696132598
27310,Guilford County,NC,94.47513812154696
27360,Davidson County,NC,4.972375690607735
28202,Mecklenburg County,NC,92.26519337016575
28270,Mecklenburg County,NC,89.50276243093923
28384,Bladen County,NC,67.95580110497238
28716,Haywood County,NC,55.80110497237569
43130,Fairfield County,OH,2.209944751381215
43338,Morrow County,OH,88.39779005524862
43537,Lucas County,OH,68.50828729281768
44240,Portage County,OH,28.176795580110497
44509,Mahoning County,OH,49.171270718232044
45013,Butler County,OH,3.867403314917127
45202,Hamilton County,OH,20.441988950276244
45205,Hamilton County,OH,60.22099447513812
45503,Clark County,OH,69.06077348066299
73135,Oklahoma County,OK,48.06629834254144
74135,Tulsa County,OK,83.97790055248619
74960,Adair County,OK,26.519337016574585
97212,Multnomah County,OR,93.92265193370166
97322,Linn County,OR,13.259668508287293
15650,Westmoreland County,PA,14.3646408839779
15656,Westmoreland County,PA,77.90055248618785
16001,Butler County,PA,4.41988950276243
16407,Erie County,PA,83.42541436464089
17007,Cumberland County,PA,91.16022099447514
17020,Perry County,PA,85.0828729281768
18088,Northampton County,PA,71.8232044198895
18102,Lehigh County,PA,1.1049723756906076
19061,Delaware County,PA,30.386740331491712
19111,Philadelphia County,PA,18.23204419889503
19148,Philadelphia County,PA,9.94475138121547
19473,Montgomery County,PA,86.1878453038674
29070,Lexington County,SC,81.21546961325967
29108,Newberry County,SC,87.29281767955801
29210,Richland County,SC,47.51381215469613
29461,Berkeley County,SC,37.569060773480665
29611,Greenville County,SC,12.70718232044199
29651,Greenville County,SC,22.65193370165746
37110,Warren County,TN,15.469613259668508
38261,Obion County,TN,44.19889502762431
38506,Putnam County,TN,46.96132596685083
75038,Dallas County,TX,66.85082872928176
75081,Dallas County,TX,75.69060773480662
75165,Ellis County,TX,28.7292817679558
76036,Tarrant County,TX,62.430939226519335
76106,Tarrant County,TX,50.82872928176796
76504,Bell County,TX,11.049723756906078
77365,Montgomery County,TX,54.14364640883977
77379,Harris County,TX,25.96685082872928
77450,Harris County,TX,43.646408839779006
77578,Brazoria County,TX,70.71823204419888
77642,Jefferson County,TX,32.04419889502763
78238,Bexar County,TX,80.11049723756905
79109,Randall County,TX,43.0939226519337
84105,Salt Lake County,UT,82.32044198895028
84404,Weber County,UT,21.54696132596685
23229,Henrico County,VA,72.92817679558011
24343,Carroll County,VA,76.79558011049724
24401,Staunton city,VA,11.602209944751381
98144,King County,WA,33.14917127071823
98203,Snohomish County,WA,50.27624309392266
98584,Mason County,WA,38.67403314917127
20032,District of Columbia,DC,7.18232044198895
53014,Calumet County,WI,77.34806629834254
53066,Waukesha County,WI,44.751381215469614
53072,Waukesha County,WI,61.87845303867403
54151,Marinette County,WI,82.87292817679558
54751,Dunn County,WI,40.88397790055249
