ZipCode,county,state,Youth,Pediatric,Adult
35080,Shelby County,AL,44.224137931034484,NA,NA
35125,St. Clair County,AL,78.5344827586207,NA,NA
35151,Talladega County,AL,93.62068965517241,NA,NA
35211,Jefferson County,AL,NA,NA,19.883040935672515
35214,Jefferson County,AL,72.93103448275862,NA,NA
35215,Jefferson County,AL,11.982758620689655,NA,NA
35405,Tuscaloosa County,AL,16.551724137931036,NA,NA
35601,Morgan County,AL,21.551724137931032,NA,NA
35622,Morgan County,AL,78.87931034482759,NA,NA
35810,Madison County,AL,39.13793103448276,NA,NA
35903,Etowah County,AL,NA,NA,84.7953216374269
36207,Calhoun County,AL,89.3103448275862,NA,NA
36278,Randolph County,AL,95.6896551724138,NA,NA
36507,Baldwin County,AL,48.10344827586207,NA,NA
36532,Baldwin County,AL,38.62068965517241,NA,NA
36862,Chambers County,AL,95.94827586206897,NA,NA
99504,Anchorage Municipality,AK,NA,30.79268292682927,30.994152046783626
99516,Anchorage Municipality,AK,87.93103448275862,NA,NA
85006,Maricopa County,AZ,NA,53.65853658536586,NA
85008,Maricopa County,AZ,34.39655172413793,10.365853658536585,NA
85009,Maricopa County,AZ,NA,8.231707317073171,NA
85016,Maricopa County,AZ,9.568965517241379,NA,NA
85023,Maricopa County,AZ,28.448275862068968,NA,NA
85027,Maricopa County,AZ,29.310344827586203,NA,NA
85028,Maricopa County,AZ,83.62068965517241,NA,NA
85033,Maricopa County,AZ,NA,28.65853658536585,NA
85035,Maricopa County,AZ,65.51724137931035,NA,NA
85040,Maricopa County,AZ,27.413793103448274,NA,NA
85051,Maricopa County,AZ,72.67241379310346,NA,NA
85122,Pinal County,AZ,48.53448275862069,NA,NA
85204,Maricopa County,AZ,NA,59.45121951219512,NA
85208,Maricopa County,AZ,NA,NA,77.77777777777779
85212,Maricopa County,AZ,NA,86.28048780487805,NA
85253,Maricopa County,AZ,54.05172413793103,NA,NA
85256,Maricopa County,AZ,94.91379310344827,NA,NA
85257,Maricopa County,AZ,NA,66.15853658536585,NA
85301,Maricopa County,AZ,NA,10.670731707317072,NA
85337,Maricopa County,AZ,NA,92.07317073170732,NA
85339,Maricopa County,AZ,11.46551724137931,NA,NA
85349,Yuma County,AZ,81.55172413793103,NA,NA
85364,Yuma County,AZ,20.517241379310345,NA,NA
85501,Gila County,AZ,NA,63.41463414634146,NA
85542,Gila County,AZ,97.75862068965517,NA,NA
85546,Graham County,AZ,64.82758620689654,NA,NA
85621,Santa Cruz County,AZ,21.20689655172414,NA,NA
85629,Pima County,AZ,NA,39.329268292682926,NA
85653,Pima County,AZ,56.03448275862068,NA,NA
85658,Pima County,AZ,83.01724137931035,NA,NA
85705,Pima County,AZ,NA,8.841463414634147,NA
85706,Pima County,AZ,8.706896551724137,NA,NA
85713,Pima County,AZ,5.344827586206897,NA,NA
85716,Pima County,AZ,12.327586206896552,NA,NA
85746,Pima County,AZ,NA,7.926829268292683,NA
85756,Pima County,AZ,90.51724137931035,NA,NA
85941,Apache County,AZ,63.53448275862069,NA,NA
86004,Coconino County,AZ,21.89655172413793,NA,NA
86025,Navajo County,AZ,92.06896551724138,NA,NA
86033,Navajo County,AZ,81.03448275862068,15.853658536585366,NA
86401,Mohave County,AZ,22.758620689655174,NA,NA
86406,Mohave County,AZ,70.6896551724138,NA,NA
86503,Apache County,AZ,28.706896551724135,NA,NA
86510,Navajo County,AZ,96.03448275862068,NA,NA
90007,Los Angeles County,CA,84.91379310344827,NA,NA
90011,Los Angeles County,CA,67.24137931034483,NA,NA
90023,Los Angeles County,CA,77.06896551724138,NA,NA
90025,Los Angeles County,CA,86.72413793103448,NA,NA
90026,Los Angeles County,CA,52.06896551724138,NA,NA
90028,Los Angeles County,CA,98.01724137931035,NA,NA
90029,Los Angeles County,CA,78.5344827586207,NA,NA
90031,Los Angeles County,CA,NA,NA,89.47368421052632
90038,Los Angeles County,CA,NA,NA,80.7017543859649
90043,Los Angeles County,CA,NA,50.91463414634146,NA
90044,Los Angeles County,CA,32.5,NA,NA
90045,Los Angeles County,CA,NA,NA,69.5906432748538
90058,Los Angeles County,CA,98.87931034482759,NA,NA
90065,Los Angeles County,CA,79.39655172413794,NA,NA
90220,Los Angeles County,CA,76.55172413793103,NA,NA
90250,Los Angeles County,CA,55.344827586206904,NA,NA
90255,Los Angeles County,CA,75.77586206896552,NA,NA
90270,Los Angeles County,CA,88.62068965517241,NA,NA
90405,Los Angeles County,CA,39.741379310344826,NA,NA
90501,Los Angeles County,CA,60.775862068965516,NA,NA
90621,Orange County,CA,67.8448275862069,NA,NA
90631,Orange County,CA,NA,NA,46.783625730994146
90712,Los Angeles County,CA,73.1896551724138,NA,NA
90745,Los Angeles County,CA,64.82758620689654,NA,NA
90804,Los Angeles County,CA,65.77586206896552,NA,NA
90810,Los Angeles County,CA,62.1551724137931,NA,NA
90813,Los Angeles County,CA,40.17241379310345,NA,NA
91016,Los Angeles County,CA,NA,NA,63.74269005847953
91104,Los Angeles County,CA,NA,78.04878048780488,NA
91331,Los Angeles County,CA,NA,10.060975609756099,NA
91342,Los Angeles County,CA,25.775862068965516,NA,NA
91360,Ventura County,CA,54.310344827586206,NA,NA
91387,Los Angeles County,CA,NA,NA,54.97076023391813
91504,Los Angeles County,CA,NA,90.85365853658537,NA
91605,Los Angeles County,CA,81.72413793103448,NA,NA
91706,Los Angeles County,CA,40.43103448275862,NA,NA
91745,Los Angeles County,CA,NA,NA,98.24561403508771
91770,Los Angeles County,CA,66.98275862068965,NA,NA
91789,Los Angeles County,CA,NA,NA,86.54970760233918
91910,San Diego County,CA,36.29310344827586,NA,NA
91911,San Diego County,CA,NA,63.109756097560975,NA
91977,San Diego County,CA,33.44827586206897,NA,NA
92020,San Diego County,CA,NA,31.402439024390244,NA
92021,San Diego County,CA,27.241379310344826,NA,NA
92027,San Diego County,CA,NA,NA,57.89473684210527
92028,San Diego County,CA,NA,NA,95.90643274853801
92057,San Diego County,CA,55.344827586206904,NA,NA
92115,San Diego County,CA,33.96551724137931,NA,NA
92118,San Diego County,CA,NA,NA,92.39766081871345
92122,San Diego County,CA,87.58620689655172,NA,NA
92126,San Diego County,CA,29.56896551724138,NA,NA
92131,San Diego County,CA,NA,97.2560975609756,NA
92154,San Diego County,CA,NA,81.09756097560977,NA
92223,Riverside County,CA,NA,82.6219512195122,NA
92240,Riverside County,CA,47.32758620689655,NA,NA
92243,Imperial County,CA,NA,NA,35.67251461988304
92324,San Bernardino County,CA,80,NA,NA
92346,San Bernardino County,CA,51.206896551724135,NA,37.42690058479532
92404,San Bernardino County,CA,8.793103448275861,NA,NA
92407,San Bernardino County,CA,69.3103448275862,NA,NA
92506,Riverside County,CA,81.72413793103448,NA,NA
92557,Riverside County,CA,NA,74.08536585365853,NA
92562,Riverside County,CA,31.810344827586206,NA,NA
92630,Orange County,CA,70,NA,NA
92647,Orange County,CA,41.98275862068965,NA,NA
92703,Orange County,CA,50.3448275862069,NA,NA
92802,Orange County,CA,61.98275862068966,NA,NA
92867,Orange County,CA,NA,NA,65.49707602339181
93001,Ventura County,CA,38.70689655172414,NA,NA
93003,Ventura County,CA,NA,44.207317073170735,19.298245614035086
93030,Ventura County,CA,15.517241379310345,NA,NA
93033,Ventura County,CA,19.56896551724138,NA,NA
93035,Ventura County,CA,71.89655172413794,NA,NA
93065,Ventura County,CA,6.293103448275862,NA,NA
93230,Kings County,CA,20.603448275862068,NA,NA
93257,Tulare County,CA,NA,19.20731707317073,NA
93274,Tulare County,CA,24.741379310344826,40.54878048780488,NA
93292,Tulare County,CA,49.48275862068965,NA,NA
93306,Kern County,CA,34.48275862068966,NA,NA
93402,San Luis Obispo County,CA,79.65517241379311,NA,NA
93422,San Luis Obispo County,CA,NA,56.40243902439024,NA
93436,Santa Barbara County,CA,39.39655172413793,14.939024390243901,NA
93446,San Luis Obispo County,CA,46.37931034482759,NA,NA
93458,Santa Barbara County,CA,17.32758620689655,NA,NA
93534,Los Angeles County,CA,NA,53.04878048780488,NA
93550,Los Angeles County,CA,47.241379310344826,NA,16.95906432748538
93618,Tulare County,CA,42.41379310344828,NA,NA
93635,Merced County,CA,52.672413793103445,NA,NA
93637,Madera County,CA,30.086206896551726,NA,NA
93638,Madera County,CA,63.793103448275865,NA,NA
93657,Fresno County,CA,30.689655172413794,NA,NA
93660,Fresno County,CA,97.1551724137931,NA,NA
93702,Fresno County,CA,13.879310344827585,NA,NA
93703,Fresno County,CA,31.982758620689655,NA,NA
93705,Fresno County,CA,54.741379310344826,33.53658536585366,NA
93706,Fresno County,CA,62.06896551724138,NA,NA
93725,Fresno County,CA,NA,66.76829268292683,NA
93726,Fresno County,CA,31.724137931034484,25.914634146341463,NA
94014,San Mateo County,CA,86.98275862068967,NA,NA
94103,San Francisco County,CA,86.98275862068967,NA,NA
94109,San Francisco County,CA,NA,97.5609756097561,NA
94110,San Francisco County,CA,73.79310344827587,NA,NA
94116,San Francisco County,CA,89.39655172413794,NA,NA
94121,San Francisco County,CA,84.91379310344827,NA,NA
94124,San Francisco County,CA,38.44827586206897,NA,NA
94558,Napa County,CA,NA,73.17073170731707,NA
94565,Contra Costa County,CA,21.03448275862069,NA,NA
94568,Alameda County,CA,NA,91.76829268292683,NA
94603,Alameda County,CA,33.01724137931035,43.90243902439025,NA
94611,Alameda County,CA,63.62068965517241,NA,NA
94804,Contra Costa County,CA,72.93103448275862,NA,NA
94901,Marin County,CA,87.67241379310344,NA,NA
94960,Marin County,CA,93.96551724137932,NA,NA
95003,Santa Cruz County,CA,88.10344827586208,NA,NA
95076,Santa Cruz County,CA,NA,NA,27.485380116959064
95122,Santa Clara County,CA,NA,NA,56.72514619883041
95205,San Joaquin County,CA,NA,38.41463414634146,NA
95240,San Joaquin County,CA,25.344827586206897,NA,NA
95242,San Joaquin County,CA,89.39655172413794,NA,NA
95301,Merced County,CA,73.87931034482759,35.670731707317074,NA
95307,Stanislaus County,CA,33.706896551724135,NA,NA
95336,San Joaquin County,CA,NA,NA,40.35087719298245
95340,Merced County,CA,46.12068965517241,NA,NA
95341,Merced County,CA,83.44827586206897,NA,NA
95358,Stanislaus County,CA,76.0344827586207,NA,NA
95365,Merced County,CA,86.98275862068967,NA,NA
95388,Merced County,CA,NA,67.07317073170732,NA
95391,San Joaquin County,CA,93.1896551724138,NA,NA
95540,Humboldt County,CA,NA,NA,64.32748538011695
95630,Sacramento County,CA,86.72413793103448,NA,NA
95632,Sacramento County,CA,85.94827586206897,NA,NA
95758,Sacramento County,CA,56.896551724137936,NA,NA
95823,Sacramento County,CA,NA,NA,14.619883040935672
95826,Sacramento County,CA,NA,85.0609756097561,NA
95951,Glenn County,CA,98.36206896551725,NA,NA
95966,Butte County,CA,NA,28.04878048780488,NA
95991,Sutter County,CA,NA,49.08536585365854,NA
96150,El Dorado County,CA,95.43103448275862,NA,NA
80011,Arapahoe County,CO,16.034482758620687,42.3780487804878,NA
80012,Arapahoe County,CO,33.96551724137931,NA,NA
80014,Arapahoe County,CO,27.155172413793103,NA,NA
80015,Arapahoe County,CO,6.724137931034482,NA,NA
80022,Adams County,CO,NA,NA,23.976608187134502
80108,Douglas County,CO,32.93103448275862,NA,NA
80126,Douglas County,CO,21.982758620689655,NA,NA
80128,Jefferson County,CO,41.206896551724135,NA,NA
80205,Denver County,CO,19.310344827586206,NA,NA
80206,Denver County,CO,NA,88.10975609756098,NA
80219,Denver County,CO,21.20689655172414,NA,NA
80241,Adams County,CO,53.5344827586207,NA,NA
80260,Adams County,CO,5.689655172413794,NA,NA
80521,Larimer County,CO,80.3448275862069,NA,NA
80601,Adams County,CO,22.93103448275862,83.84146341463415,NA
80602,Adams County,CO,8.793103448275861,NA,NA
80701,Morgan County,CO,23.362068965517242,NA,NA
80817,El Paso County,CO,65.77586206896552,NA,NA
80903,El Paso County,CO,72.24137931034483,NA,NA
81007,Pueblo County,CO,29.051724137931036,NA,NA
06001,Hartford County,CT,39.05172413793103,NA,NA
06082,Hartford County,CT,NA,NA,26.31578947368421
06098,Litchfield County,CT,84.3103448275862,NA,NA
06106,Hartford County,CT,10.431034482758621,NA,NA
06111,Hartford County,CT,NA,81.70731707317073,NA
06114,Hartford County,CT,12.672413793103448,NA,NA
06120,Hartford County,CT,65,NA,NA
06468,Fairfield County,CT,94.82758620689656,NA,NA
06470,Fairfield County,CT,87.93103448275862,NA,NA
06516,New Haven County,CT,NA,42.98780487804878,NA
06607,Fairfield County,CT,92.67241379310344,NA,NA
06710,New Haven County,CT,NA,62.80487804878049,NA
06776,Litchfield County,CT,57.67241379310345,NA,NA
06830,Fairfield County,CT,81.20689655172414,NA,NA
06902,Fairfield County,CT,28.793103448275865,NA,NA
19709,New Castle County,DE,NA,42.073170731707314,NA
19711,New Castle County,DE,61.46551724137931,NA,NA
19713,New Castle County,DE,26.20689655172414,NA,NA
19963,Sussex County,DE,45.51724137931035,NA,NA
19977,Kent County,DE,52.672413793103445,NA,NA
32114,Volusia County,FL,72.24137931034483,NA,NA
32119,Volusia County,FL,51.37931034482759,NA,NA
32168,Volusia County,FL,73.87931034482759,NA,NA
32218,Duval County,FL,15.862068965517242,NA,NA
32277,Duval County,FL,89.65517241379311,NA,NA
32305,Leon County,FL,67.8448275862069,NA,NA
32404,Bay County,FL,38.275862068965516,NA,34.50292397660819
32425,Holmes County,FL,NA,78.65853658536585,NA
32440,Jackson County,FL,NA,96.34146341463415,NA
32501,Escambia County,FL,25.25862068965517,NA,NA
32505,Escambia County,FL,17.06896551724138,NA,NA
32526,Escambia County,FL,43.62068965517241,NA,NA
32571,Santa Rosa County,FL,48.79310344827586,NA,NA
32609,Alachua County,FL,NA,60.97560975609756,NA
32773,Seminole County,FL,77.67241379310344,NA,NA
32805,Orange County,FL,41.206896551724135,NA,NA
32806,Orange County,FL,76.20689655172413,NA,NA
32807,Orange County,FL,10.948275862068964,NA,NA
32808,Orange County,FL,27.413793103448274,NA,NA
32818,Orange County,FL,21.20689655172414,NA,NA
32839,Orange County,FL,15,NA,NA
32966,Indian River County,FL,93.44827586206897,NA,NA
33009,Broward County,FL,NA,59.756097560975604,NA
33012,Miami-Dade County,FL,35.86206896551724,NA,NA
33015,Miami-Dade County,FL,29.48275862068965,NA,NA
33016,Miami-Dade County,FL,35.86206896551724,NA,NA
33021,Broward County,FL,39.6551724137931,NA,NA
33023,Broward County,FL,20,NA,NA
33025,Broward County,FL,NA,28.96341463414634,40.93567251461988
33027,Broward County,FL,45.3448275862069,NA,NA
33032,Miami-Dade County,FL,18.70689655172414,18.29268292682927,NA
33037,Monroe County,FL,NA,95.1219512195122,NA
33069,Broward County,FL,69.05172413793103,NA,NA
33133,Miami-Dade County,FL,87.41379310344828,NA,NA
33135,Miami-Dade County,FL,74.22413793103448,NA,NA
33139,Miami-Dade County,FL,84.91379310344827,NA,NA
33142,Miami-Dade County,FL,51.810344827586206,NA,60.81871345029239
33155,Miami-Dade County,FL,89.82758620689654,NA,NA
33157,Miami-Dade County,FL,NA,20.73170731707317,NA
33169,Miami-Dade County,FL,NA,39.02439024390244,NA
33174,Miami-Dade County,FL,68.62068965517241,NA,NA
33178,Miami-Dade County,FL,75.43103448275862,NA,NA
33186,Miami-Dade County,FL,3.706896551724138,NA,NA
33311,Broward County,FL,3.620689655172414,NA,NA
33458,Palm Beach County,FL,39.13793103448276,NA,NA
33523,Pasco County,FL,88.96551724137932,NA,NA
33570,Hillsborough County,FL,68.96551724137932,NA,NA
33701,Pinellas County,FL,59.741379310344826,NA,NA
33702,Pinellas County,FL,74.56896551724138,NA,NA
33707,Pinellas County,FL,70.51724137931035,NA,NA
33712,Pinellas County,FL,55.68965517241379,NA,NA
33764,Pinellas County,FL,94.48275862068965,NA,NA
33825,Highlands County,FL,73.36206896551725,NA,NA
33830,Polk County,FL,29.310344827586203,NA,NA
33868,Polk County,FL,93.1896551724138,NA,NA
33875,Highlands County,FL,72.93103448275862,NA,NA
34142,Collier County,FL,35.258620689655174,NA,NA
34219,Manatee County,FL,65.94827586206897,NA,NA
34235,Sarasota County,FL,92.41379310344827,NA,NA
34243,Manatee County,FL,NA,85.67073170731707,NA
34266,DeSoto County,FL,58.793103448275865,NA,NA
34431,Marion County,FL,58.44827586206897,NA,NA
34984,St. Lucie County,FL,68.62068965517241,NA,NA
30011,Barrow County,GA,86.63793103448276,NA,NA
30039,Gwinnett County,GA,NA,67.98780487804879,NA
30102,Cherokee County,GA,66.29310344827586,NA,NA
30122,Douglas County,GA,NA,65.2439024390244,NA
30135,Douglas County,GA,11.724137931034482,NA,NA
30144,Cobb County,GA,46.724137931034484,NA,NA
30179,Carroll County,GA,78.87931034482759,NA,NA
30240,Troup County,GA,16.46551724137931,NA,NA
30273,Clayton County,GA,NA,88.10975609756098,NA
30331,Fulton County,GA,11.810344827586206,NA,NA
30340,DeKalb County,GA,70.86206896551724,NA,NA
30341,DeKalb County,GA,NA,77.4390243902439,NA
30349,Fulton County,GA,7.844827586206897,NA,NA
30427,Tattnall County,GA,83.01724137931035,NA,NA
30533,Lumpkin County,GA,NA,75.3048780487805,NA
30567,Jackson County,GA,99.05172413793103,NA,NA
30720,Whitfield County,GA,64.65517241379311,NA,NA
30721,Whitfield County,GA,36.46551724137931,NA,NA
30824,McDuffie County,GA,59.13793103448276,NA,NA
31092,Dooly County,GA,NA,NA,87.71929824561403
31401,Chatham County,GA,90.60344827586206,NA,NA
31406,Chatham County,GA,45.17241379310345,NA,NA
31513,Appling County,GA,84.74137931034483,NA,NA
31525,Glynn County,GA,68.27586206896552,NA,NA
31632,Lowndes County,GA,NA,NA,85.38011695906432
31768,Colquitt County,GA,29.74137931034483,NA,NA
31771,Colquitt County,GA,97.67241379310346,NA,NA
31792,Thomas County,GA,62.93103448275862,NA,NA
31816,Meriwether County,GA,96.12068965517241,NA,NA
31903,Muscogee County,GA,85.77586206896551,NA,NA
96738,Hawaii County,HI,96.29310344827586,NA,NA
96740,Hawaii County,HI,97.84482758620689,NA,NA
96766,Kauai County,HI,74.22413793103448,NA,NA
96778,Hawaii County,HI,NA,NA,75.43859649122807
96817,Honolulu County,HI,NA,25,NA
83201,Bannock County,ID,17.155172413793103,NA,NA
83333,Blaine County,ID,NA,NA,84.21052631578947
83686,Canyon County,ID,NA,29.878048780487802,NA
60005,Cook County,IL,NA,NA,63.1578947368421
60073,Lake County,IL,71.29310344827586,NA,21.052631578947366
60118,Kane County,IL,NA,NA,77.19298245614034
60126,DuPage County,IL,15.431034482758621,NA,11.695906432748536
60142,McHenry County,IL,NA,NA,51.461988304093566
60160,Cook County,IL,28.793103448275865,NA,NA
60175,Kane County,IL,62.5,NA,NA
60177,Kane County,IL,53.01724137931034,NA,NA
60181,DuPage County,IL,NA,NA,41.52046783625731
60187,DuPage County,IL,38.793103448275865,NA,NA
60404,Will County,IL,53.5344827586207,NA,NA
60426,Cook County,IL,74.6551724137931,NA,NA
60433,Will County,IL,NA,NA,67.83625730994152
60441,Will County,IL,36.724137931034484,NA,NA
60446,Will County,IL,NA,NA,18.128654970760234
60447,Grundy County,IL,37.75862068965517,NA,NA
60450,Grundy County,IL,49.396551724137936,NA,NA
60491,Will County,IL,35.775862068965516,NA,NA
60501,Cook County,IL,97.24137931034483,NA,NA
60506,Kane County,IL,NA,NA,64.91228070175438
60516,DuPage County,IL,40.43103448275862,NA,NA
60526,Cook County,IL,28.27586206896552,NA,NA
60541,Kendall County,IL,80.3448275862069,NA,NA
60543,Kendall County,IL,58.793103448275865,NA,NA
60559,DuPage County,IL,29.224137931034484,NA,NA
60561,DuPage County,IL,90.77586206896552,NA,NA
60613,Cook County,IL,58.9655172413793,NA,NA
60615,Cook County,IL,43.79310344827586,NA,NA
60617,Cook County,IL,NA,NA,39.76608187134503
60630,Cook County,IL,43.53448275862069,NA,NA
60638,Cook County,IL,48.96551724137931,NA,NA
60660,Cook County,IL,NA,NA,66.66666666666666
61008,Boone County,IL,NA,NA,45.614035087719294
61011,Boone County,IL,96.29310344827586,NA,NA
61032,Stephenson County,IL,59.13793103448276,NA,NA
61072,Winnebago County,IL,80.60344827586206,NA,NA
61938,Coles County,IL,46.03448275862069,NA,NA
46113,Marion County,IN,83.53448275862068,NA,NA
46151,Morgan County,IN,65,NA,NA
46221,Marion County,IN,44.224137931034484,NA,NA
46222,Marion County,IN,36.55172413793103,NA,NA
46237,Marion County,IN,48.62068965517241,NA,NA
46260,Marion County,IN,53.36206896551724,NA,NA
46307,Lake County,IN,13.793103448275861,61.890243902439025,NA
46312,Lake County,IN,16.120689655172413,NA,NA
46342,Lake County,IN,15.344827586206897,NA,NA
46356,Lake County,IN,37.93103448275862,NA,NA
46360,LaPorte County,IN,1.3793103448275863,NA,NA
46408,Lake County,IN,38.44827586206897,NA,NA
46514,Elkhart County,IN,60.3448275862069,NA,NA
46561,St. Joseph County,IN,NA,75,NA
46806,Allen County,IN,25.344827586206897,NA,NA
46807,Allen County,IN,47.758620689655174,NA,NA
46808,Allen County,IN,41.63793103448276,NA,NA
47331,Fayette County,IN,12.155172413793103,NA,NA
47501,Daviess County,IN,41.55172413793103,NA,NA
47601,Warrick County,IN,NA,NA,67.2514619883041
47710,Vanderburgh County,IN,65.94827586206897,NA,NA
50208,Jasper County,IA,39.741379310344826,NA,NA
50312,Polk County,IA,NA,92.98780487804879,NA
50313,Polk County,IA,53.879310344827594,NA,NA
50401,Cerro Gordo County,IA,21.72413793103448,NA,NA
50801,Union County,IA,NA,NA,49.122807017543856
51401,Carroll County,IA,85.86206896551725,NA,NA
51510,Pottawattamie County,IA,95.6896551724138,NA,NA
52068,Dubuque County,IA,96.89655172413794,NA,NA
52241,Johnson County,IA,77.06896551724138,NA,NA
52338,Johnson County,IA,99.82758620689656,NA,NA
52404,Linn County,IA,NA,NA,9.941520467836257
52655,Des Moines County,IA,92.75862068965517,NA,NA
52742,Clinton County,IA,97.06896551724138,NA,NA
66007,Leavenworth County,KS,88.44827586206897,NA,NA
66061,Johnson County,KS,11.637931034482758,NA,NA
66204,Johnson County,KS,90,NA,NA
66208,Johnson County,KS,NA,NA,95.32163742690058
66436,Jackson County,KS,95.25862068965517,NA,NA
66801,Lyon County,KS,34.741379310344826,NA,NA
67501,Reno County,KS,NA,NA,73.09941520467837
67530,Barton County,KS,77.06896551724138,NA,NA
40165,Bullitt County,KY,47.58620689655172,NA,NA
40203,Jefferson County,KY,NA,38.71951219512195,NA
40210,Jefferson County,KY,50.689655172413794,NA,NA
40211,Jefferson County,KY,29.051724137931036,NA,NA
40217,Jefferson County,KY,91.55172413793103,NA,NA
40313,Rowan County,KY,NA,74.08536585365853,NA
40371,Bath County,KY,NA,NA,97.07602339181285
40505,Fayette County,KY,25.948275862068964,NA,NA
40701,Whitley County,KY,69.56896551724138,NA,NA
41005,Boone County,KY,42.672413793103445,NA,NA
41075,Campbell County,KY,89.05172413793103,NA,NA
41095,Gallatin County,KY,NA,89.63414634146342,NA
41143,Carter County,KY,28.01724137931034,73.47560975609755,NA
42127,Barren County,KY,90.77586206896552,NA,NA
42129,Metcalfe County,KY,77.58620689655173,NA,NA
42141,Barren County,KY,23.189655172413794,NA,NA
42276,Logan County,KY,60.43103448275862,NA,NA
42726,Grayson County,KY,NA,94.20731707317073,NA
70003,Jefferson Parish,LA,NA,5.7926829268292686,NA
70005,Jefferson Parish,LA,NA,43.292682926829265,NA
70006,Jefferson Parish,LA,NA,26.21951219512195,NA
70041,Plaquemines Parish,LA,NA,74.08536585365853,NA
70043,St. Bernard Parish,LA,12.586206896551724,NA,NA
70056,Jefferson Parish,LA,0.5172413793103449,NA,NA
70058,Jefferson Parish,LA,64.13793103448275,NA,NA
70062,Jefferson Parish,LA,21.810344827586206,NA,NA
70092,St. Bernard Parish,LA,94.39655172413794,NA,NA
70115,Orleans Parish,LA,NA,29.573170731707314,NA
70117,Orleans Parish,LA,18.189655172413794,NA,NA
70121,Jefferson Parish,LA,62.1551724137931,NA,NA
70127,Orleans Parish,LA,1.7241379310344827,NA,NA
70130,Orleans Parish,LA,NA,NA,52.63157894736842
70131,Orleans Parish,LA,NA,12.195121951219512,NA
70301,Lafourche Parish,LA,14.051724137931036,NA,NA
70364,Terrebonne Parish,LA,5.775862068965517,NA,NA
70433,St. Tammany Parish,LA,NA,46.34146341463415,NA
70445,St. Tammany Parish,LA,76.20689655172413,NA,NA
70447,St. Tammany Parish,LA,42.8448275862069,NA,NA
70448,St. Tammany Parish,LA,NA,23.78048780487805,NA
70458,St. Tammany Parish,LA,NA,4.573170731707317,NA
70503,Lafayette Parish,LA,57.155172413793096,NA,NA
70506,Lafayette Parish,LA,NA,46.95121951219512,NA
70507,Lafayette Parish,LA,61.810344827586206,NA,NA
70508,Lafayette Parish,LA,13.534482758620689,NA,NA
70528,Vermilion Parish,LA,100,NA,NA
70529,Lafayette Parish,LA,41.206896551724135,NA,NA
70555,Vermilion Parish,LA,NA,70.42682926829268,NA
70560,Iberia Parish,LA,NA,7.01219512195122,NA
70584,St. Landry Parish,LA,66.89655172413794,NA,NA
70592,Lafayette Parish,LA,46.724137931034484,NA,NA
70601,Calcasieu Parish,LA,7.931034482758621,NA,NA
70607,Calcasieu Parish,LA,22.24137931034483,NA,NA
70663,Calcasieu Parish,LA,NA,13.719512195121952,NA
70710,West Baton Rouge Parish,LA,NA,87.1951219512195,NA
70726,Livingston Parish,LA,NA,NA,2.3391812865497075
70734,Ascension Parish,LA,84.05172413793103,NA,NA
70802,East Baton Rouge Parish,LA,68.36206896551724,NA,NA
70805,East Baton Rouge Parish,LA,NA,NA,3.508771929824561
70806,East Baton Rouge Parish,LA,69.39655172413794,NA,NA
70808,East Baton Rouge Parish,LA,64.48275862068965,NA,NA
70810,East Baton Rouge Parish,LA,56.37931034482758,NA,NA
70815,East Baton Rouge Parish,LA,40.86206896551724,NA,NA
71108,Caddo Parish,LA,5.172413793103448,NA,NA
71111,Bossier Parish,LA,6.982758620689655,NA,NA
71118,Caddo Parish,LA,57.327586206896555,NA,NA
71201,Ouachita Parish,LA,44.6551724137931,NA,NA
71202,Ouachita Parish,LA,3.189655172413793,NA,NA
71232,Richland Parish,LA,91.55172413793103,NA,NA
71251,Jackson Parish,LA,97.58620689655172,NA,NA
71292,Ouachita Parish,LA,54.568965517241374,NA,NA
71360,Rapides Parish,LA,NA,NA,12.865497076023392
71373,Concordia Parish,LA,78.10344827586206,NA,NA
04005,York County,ME,NA,37.80487804878049,NA
04038,Cumberland County,ME,60.17241379310345,NA,NA
04062,Cumberland County,ME,57.41379310344827,NA,NA
04064,York County,ME,74.6551724137931,NA,NA
04073,York County,ME,26.20689655172414,NA,NA
04102,Cumberland County,ME,25,NA,NA
04103,Cumberland County,ME,34.56896551724138,NA,NA
04106,Cumberland County,ME,NA,69.51219512195121,NA
04210,Androscoggin County,ME,NA,37.19512195121951,NA
04240,Androscoggin County,ME,NA,30.79268292682927,NA
04270,Oxford County,ME,NA,69.51219512195121,NA
04330,Kennebec County,ME,NA,29.268292682926827,NA
04412,Penobscot County,ME,NA,46.646341463414636,NA
04468,Penobscot County,ME,95.08620689655173,NA,NA
04572,Lincoln County,ME,82.5,NA,NA
21040,Harford County,MD,49.310344827586206,NA,NA
21117,Baltimore County,MD,38.189655172413794,NA,NA
21214,Baltimore city,MD,74.6551724137931,NA,NA
21219,Baltimore County,MD,98.10344827586206,NA,NA
21793,Frederick County,MD,99.22413793103448,NA,NA
21863,Worcester County,MD,NA,NA,99.41520467836257
01104,Hampden County,MA,NA,9.451219512195122,NA
01108,Hampden County,MA,NA,4.878048780487805,NA
01109,Hampden County,MA,1.896551724137931,NA,NA
01420,Worcester County,MA,NA,2.7439024390243905,NA
01523,Worcester County,MA,92.41379310344827,NA,NA
01541,Worcester County,MA,99.48275862068967,NA,NA
01545,Worcester County,MA,14.913793103448276,NA,NA
01550,Worcester County,MA,NA,16.158536585365855,NA
01569,Worcester County,MA,46.724137931034484,NA,NA
01602,Worcester County,MA,NA,NA,85.96491228070175
01605,Worcester County,MA,63.793103448275865,3.048780487804878,NA
01610,Worcester County,MA,NA,1.524390243902439,NA
01702,Middlesex County,MA,31.120689655172413,NA,NA
01747,Worcester County,MA,86.98275862068967,NA,NA
01752,Middlesex County,MA,31.46551724137931,NA,NA
01757,Worcester County,MA,71.20689655172414,NA,NA
01841,Essex County,MA,0.1724137931034483,0,0
01843,Essex County,MA,4.396551724137931,NA,NA
01844,Essex County,MA,1.5517241379310345,NA,NA
01901,Essex County,MA,99.05172413793103,NA,NA
01902,Essex County,MA,50.172413793103445,0.6097560975609756,NA
01905,Essex County,MA,16.810344827586206,NA,NA
01913,Essex County,MA,NA,85.97560975609755,NA
01960,Essex County,MA,27.672413793103452,NA,NA
02030,Norfolk County,MA,90,NA,NA
02035,Norfolk County,MA,13.10344827586207,NA,NA
02038,Norfolk County,MA,41.03448275862069,NA,NA
02050,Plymouth County,MA,53.79310344827586,NA,NA
02118,Suffolk County,MA,40.08620689655172,NA,NA
02120,Suffolk County,MA,4.482758620689655,NA,NA
02121,Suffolk County,MA,51.55172413793103,NA,NA
02124,Suffolk County,MA,5.43103448275862,6.402439024390244,NA
02128,Suffolk County,MA,46.63793103448276,NA,NA
02129,Suffolk County,MA,31.551724137931036,NA,NA
02134,Suffolk County,MA,86.37931034482759,NA,14.035087719298245
02136,Suffolk County,MA,7.327586206896551,NA,NA
02140,Middlesex County,MA,NA,49.69512195121951,NA
02144,Middlesex County,MA,NA,NA,28.654970760233915
02145,Middlesex County,MA,NA,14.634146341463413,NA
02149,Middlesex County,MA,8.793103448275861,5.182926829268292,NA
02150,Suffolk County,MA,2.413793103448276,12.804878048780488,1.1695906432748537
02151,Suffolk County,MA,12.241379310344827,NA,0.5847953216374269
02169,Norfolk County,MA,31.29310344827586,NA,NA
02170,Norfolk County,MA,NA,NA,43.27485380116959
02330,Plymouth County,MA,NA,NA,59.06432748538012
02356,Bristol County,MA,NA,NA,78.3625730994152
02364,Plymouth County,MA,72.5,NA,NA
02445,Norfolk County,MA,NA,NA,38.01169590643275
02453,Middlesex County,MA,NA,59.14634146341463,NA
02465,Middlesex County,MA,NA,NA,61.98830409356725
02478,Middlesex County,MA,56.29310344827586,NA,33.33333333333333
02557,Dukes County,MA,95.25862068965517,NA,NA
02703,Bristol County,MA,15.086206896551724,NA,NA
02723,Bristol County,MA,NA,NA,2.923976608187134
48009,Oakland County,MI,48.706896551724135,NA,NA
48017,Oakland County,MI,NA,NA,83.04093567251462
48035,Macomb County,MI,47.1551724137931,NA,NA
48042,Macomb County,MI,24.224137931034484,NA,NA
48054,St. Clair County,MI,97.93103448275862,NA,NA
48066,Macomb County,MI,65.51724137931035,NA,NA
48083,Oakland County,MI,48.10344827586207,NA,NA
48088,Macomb County,MI,51.55172413793103,NA,NA
48089,Macomb County,MI,5.603448275862069,NA,NA
48091,Macomb County,MI,70.43103448275862,NA,NA
48093,Macomb County,MI,NA,61.890243902439025,NA
48094,Macomb County,MI,90.94827586206897,NA,NA
48098,Oakland County,MI,NA,NA,66.08187134502924
48103,Washtenaw County,MI,NA,30.48780487804878,NA
48111,Wayne County,MI,8.448275862068966,NA,NA
48114,Livingston County,MI,49.56896551724138,NA,NA
48116,Livingston County,MI,25.862068965517242,NA,NA
48122,Wayne County,MI,48.44827586206897,NA,NA
48126,Wayne County,MI,NA,24.390243902439025,NA
48128,Wayne County,MI,85.43103448275862,NA,NA
48134,Wayne County,MI,29.82758620689655,65.85365853658537,NA
48135,Wayne County,MI,32.758620689655174,NA,NA
48160,Washtenaw County,MI,NA,97.5609756097561,NA
48165,Oakland County,MI,83.62068965517241,NA,NA
48170,Wayne County,MI,NA,89.63414634146342,NA
48173,Wayne County,MI,NA,99.6951219512195,NA
48180,Wayne County,MI,1.293103448275862,NA,NA
48187,Wayne County,MI,NA,47.256097560975604,NA
48193,Wayne County,MI,60.43103448275862,NA,NA
48197,Washtenaw County,MI,NA,21.036585365853657,NA
48198,Washtenaw County,MI,2.1551724137931036,NA,NA
48205,Wayne County,MI,3.8793103448275863,NA,NA
48206,Wayne County,MI,28.965517241379313,NA,NA
48209,Wayne County,MI,NA,NA,33.91812865497076
48211,Wayne County,MI,96.29310344827586,NA,NA
48214,Wayne County,MI,44.13793103448276,NA,NA
48215,Wayne County,MI,60.43103448275862,NA,NA
48216,Wayne County,MI,94.13793103448276,NA,NA
48219,Wayne County,MI,0.9482758620689655,NA,NA
48221,Wayne County,MI,60.689655172413794,NA,NA
48223,Wayne County,MI,16.206896551724135,NA,NA
48234,Wayne County,MI,5.172413793103448,NA,NA
48237,Oakland County,MI,NA,93.29268292682927,NA
48238,Wayne County,MI,9.827586206896552,NA,NA
48239,Wayne County,MI,9.224137931034484,NA,NA
48307,Oakland County,MI,NA,NA,25.730994152046783
48309,Oakland County,MI,NA,NA,45.02923976608187
48310,Macomb County,MI,17.586206896551722,36.28048780487805,20.46783625730994
48313,Macomb County,MI,42.8448275862069,NA,NA
48316,Macomb County,MI,NA,NA,49.707602339181285
48336,Oakland County,MI,NA,NA,70.17543859649122
48342,Oakland County,MI,45.94827586206897,NA,NA
48348,Oakland County,MI,35.258620689655174,NA,NA
48371,Oakland County,MI,NA,94.8170731707317,NA
48381,Oakland County,MI,NA,NA,70.76023391812866
48382,Oakland County,MI,NA,89.32926829268293,NA
48393,Oakland County,MI,NA,NA,57.30994152046783
48505,Genesee County,MI,31.29310344827586,NA,NA
48602,Saginaw County,MI,3.4482758620689653,NA,NA
48616,Saginaw County,MI,84.3103448275862,98.47560975609755,NA
48642,Midland County,MI,NA,NA,26.900584795321635
48843,Livingston County,MI,2.0689655172413794,NA,NA
48849,Ionia County,MI,NA,79.57317073170732,NA
48906,Ingham County,MI,NA,60.0609756097561,NA
49013,Van Buren County,MI,83.62068965517241,NA,NA
49058,Barry County,MI,NA,NA,42.10526315789473
49087,Kalamazoo County,MI,89.91379310344828,NA,NA
49120,Berrien County,MI,NA,62.5,NA
49221,Lenawee County,MI,NA,54.57317073170732,NA
49247,Lenawee County,MI,71.72413793103448,NA,NA
49319,Kent County,MI,51.37931034482759,NA,NA
49327,Newaygo County,MI,69.6551724137931,NA,NA
49345,Kent County,MI,84.05172413793103,NA,NA
49424,Ottawa County,MI,13.534482758620689,NA,NA
49431,Mason County,MI,22.5,NA,NA
49460,Ottawa County,MI,89.05172413793103,NA,NA
49464,Ottawa County,MI,39.39655172413793,NA,NA
49506,Kent County,MI,44.6551724137931,NA,NA
49509,Kent County,MI,27.844827586206893,24.695121951219512,NA
49548,Kent County,MI,53.96551724137931,NA,NA
49660,Manistee County,MI,55.172413793103445,NA,NA
49783,Chippewa County,MI,49.56896551724138,NA,NA
55025,Washington County,MN,38.01724137931035,NA,NA
55063,Pine County,MN,61.206896551724135,NA,NA
55072,Pine County,MN,98.44827586206897,NA,NA
55112,Ramsey County,MN,90.25862068965517,NA,NA
55117,Ramsey County,MN,7.327586206896551,NA,NA
55303,Anoka County,MN,NA,NA,25.146198830409354
55311,Hennepin County,MN,37.58620689655172,NA,NA
55331,Hennepin County,MN,63.275862068965516,NA,NA
55371,Mille Lacs County,MN,77.32758620689654,NA,NA
55374,Hennepin County,MN,84.91379310344827,NA,NA
55376,Wright County,MN,77.8448275862069,NA,NA
55404,Hennepin County,MN,6.4655172413793105,6.097560975609756,NA
55407,Hennepin County,MN,28.18965517241379,NA,NA
55418,Hennepin County,MN,NA,35.0609756097561,NA
55420,Hennepin County,MN,73.36206896551725,NA,NA
55423,Hennepin County,MN,22.67241379310345,NA,NA
55431,Hennepin County,MN,81.72413793103448,NA,NA
55432,Anoka County,MN,41.98275862068965,NA,NA
55719,St. Louis County,MN,NA,91.46341463414635,NA
55901,Olmsted County,MN,19.137931034482758,NA,NA
55912,Mower County,MN,38.87931034482759,NA,NA
55944,Dodge County,MN,80.3448275862069,NA,NA
55987,Winona County,MN,18.79310344827586,NA,NA
56007,Freeborn County,MN,26.637931034482758,NA,NA
56187,Nobles County,MN,57.068965517241374,NA,NA
56241,Yellow Medicine County,MN,98.53448275862068,NA,NA
56401,Crow Wing County,MN,NA,6.707317073170732,NA
56425,Crow Wing County,MN,80.60344827586206,NA,NA
56431,Aitkin County,MN,78.5344827586207,NA,NA
56467,Hubbard County,MN,99.91379310344828,NA,NA
56479,Todd County,MN,89.65517241379311,NA,NA
56560,Clay County,MN,15.172413793103448,25.304878048780488,NA
56601,Beltrami County,MN,NA,27.743902439024392,NA
56636,Itasca County,MN,NA,55.1829268292683,NA
56763,Roseau County,MN,NA,NA,80.11695906432749
38654,DeSoto County,MS,26.89655172413793,NA,NA
38801,Lee County,MS,13.448275862068964,NA,NA
38860,Chickasaw County,MS,NA,NA,96.49122807017544
38863,Pontotoc County,MS,75.77586206896552,NA,NA
39046,Madison County,MS,25,NA,NA
39074,Scott County,MS,NA,NA,47.953216374269005
39092,Scott County,MS,98.27586206896551,NA,NA
39110,Madison County,MS,74.22413793103448,NA,NA
39114,Simpson County,MS,84.74137931034483,NA,NA
39206,Hinds County,MS,17.586206896551722,NA,NA
39211,Hinds County,MS,NA,41.15853658536585,NA
39213,Hinds County,MS,80.17241379310344,NA,NA
39301,Lauderdale County,MS,32.068965517241374,NA,NA
39437,Jones County,MS,NA,77.4390243902439,NA
39452,George County,MS,NA,48.78048780487805,36.84210526315789
39475,Lamar County,MS,96.12068965517241,NA,NA
39501,Harrison County,MS,NA,13.109756097560975,NA
39507,Harrison County,MS,NA,64.02439024390245,NA
39532,Harrison County,MS,25.948275862068964,NA,NA
39571,Harrison County,MS,NA,41.15853658536585,NA
39577,Stone County,MS,95.60344827586206,NA,NA
63033,St. Louis County,MO,20.603448275862068,NA,NA
63043,St. Louis County,MO,65.94827586206897,NA,NA
63084,Franklin County,MO,NA,52.13414634146341,NA
63090,Franklin County,MO,83.62068965517241,NA,NA
63104,St. Louis city,MO,60.775862068965516,NA,NA
63106,St. Louis city,MO,64.48275862068965,NA,NA
63107,St. Louis city,MO,NA,60.97560975609756,NA
63116,St. Louis city,MO,42.5,NA,NA
63118,St. Louis city,MO,NA,50.609756097560975,NA
63121,St. Louis County,MO,53.36206896551724,NA,NA
63125,St. Louis County,MO,59.741379310344826,51.52439024390244,NA
63135,St. Louis County,MO,NA,NA,42.69005847953216
63136,St. Louis County,MO,1.810344827586207,NA,NA
63137,St. Louis County,MO,75.51724137931033,NA,NA
63303,St. Charles County,MO,NA,NA,32.748538011695906
63343,Lincoln County,MO,99.48275862068967,NA,NA
63601,St. Francois County,MO,18.275862068965516,NA,NA
63630,Washington County,MO,92.75862068965517,NA,NA
63701,Cape Girardeau County,MO,3.0172413793103448,NA,NA
63801,Scott County,MO,11.379310344827587,NA,NA
63935,Ripley County,MO,72.67241379310346,NA,61.40350877192983
64012,Cass County,MO,21.20689655172414,NA,NA
64014,Jackson County,MO,NA,50.91463414634146,NA
64056,Jackson County,MO,61.12068965517241,NA,NA
64058,Jackson County,MO,88.1896551724138,NA,NA
64063,Jackson County,MO,76.72413793103449,NA,NA
64068,Clay County,MO,0.6896551724137931,NA,NA
64078,Cass County,MO,82.41379310344827,NA,NA
64080,Cass County,MO,67.24137931034483,NA,NA
64081,Jackson County,MO,93.36206896551724,NA,56.14035087719298
64082,Jackson County,MO,43.79310344827586,NA,NA
64083,Cass County,MO,NA,71.03658536585365,NA
64085,Ray County,MO,57.58620689655173,NA,NA
64106,Jackson County,MO,10.172413793103448,NA,NA
64109,Jackson County,MO,NA,64.9390243902439,NA
64116,Clay County,MO,51.206896551724135,NA,NA
64117,Clay County,MO,33.96551724137931,49.69512195121951,NA
64118,Clay County,MO,70.08620689655173,NA,NA
64129,Jackson County,MO,65.6896551724138,NA,NA
64132,Jackson County,MO,64.22413793103449,NA,NA
64134,Jackson County,MO,4.655172413793104,NA,NA
64137,Jackson County,MO,82.1551724137931,NA,NA
64151,Platte County,MO,25.17241379310345,NA,NA
64152,Platte County,MO,NA,71.95121951219512,NA
64157,Clay County,MO,17.75862068965517,NA,NA
64503,Buchanan County,MO,90.17241379310344,NA,NA
64701,Cass County,MO,70.17241379310344,NA,NA
64744,Cedar County,MO,82.5,NA,NA
64854,McDonald County,MO,88.87931034482759,NA,NA
65020,Camden County,MO,68.44827586206897,NA,NA
65026,Miller County,MO,60,NA,NA
65201,Boone County,MO,NA,NA,55.55555555555556
65203,Boone County,MO,10.258620689655173,NA,NA
65265,Audrain County,MO,28.01724137931034,NA,NA
65301,Pettis County,MO,10.60344827586207,NA,NA
65340,Saline County,MO,NA,80.48780487804879,NA
65401,Phelps County,MO,94.3103448275862,NA,NA
65536,Laclede County,MO,34.741379310344826,NA,NA
65605,Lawrence County,MO,80.60344827586206,NA,NA
65610,Christian County,MO,97.32758620689656,NA,NA
65721,Christian County,MO,39.13793103448276,NA,NA
65738,Greene County,MO,49.224137931034484,NA,NA
65802,Greene County,MO,19.74137931034483,NA,NA
65803,Greene County,MO,50.51724137931034,NA,NA
65807,Greene County,MO,14.56896551724138,NA,NA
68022,Douglas County,NE,61.46551724137931,NA,NA
68028,Sarpy County,NE,61.810344827586206,NA,NA
68104,Douglas County,NE,63.96551724137931,NA,NA
68112,Douglas County,NE,82.1551724137931,NA,NA
68123,Sarpy County,NE,74.6551724137931,NA,NA
68136,Sarpy County,NE,39.741379310344826,NA,NA
68137,Douglas County,NE,NA,82.01219512195121,NA
68144,Douglas County,NE,78.10344827586206,NA,NA
68508,Lancaster County,NE,99.6551724137931,NA,NA
89101,Clark County,NV,42.5,57.012195121951216,NA
89108,Clark County,NV,51.98275862068965,NA,NA
89115,Clark County,NV,66.55172413793103,38.109756097560975,NA
89118,Clark County,NV,96.55172413793103,NA,NA
89119,Clark County,NV,63.189655172413794,NA,NA
89120,Clark County,NV,93.01724137931035,NA,NA
89139,Clark County,NV,NA,NA,78.94736842105263
89145,Clark County,NV,74.6551724137931,NA,NA
89433,Washoe County,NV,67.58620689655173,NA,NA
89441,Washoe County,NV,77.67241379310344,NA,NA
89502,Washoe County,NV,18.879310344827584,NA,NA
89801,Elko County,NV,71.89655172413794,NA,NA
03038,Rockingham County,NH,NA,NA,15.789473684210526
03053,Rockingham County,NH,24.482758620689655,NA,NA
03102,Hillsborough County,NH,14.396551724137932,NA,NA
03235,Merrimack County,NH,74.6551724137931,NA,NA
07036,Union County,NJ,68.87931034482759,NA,NA
07047,Hudson County,NJ,34.56896551724138,NA,NA
07073,Bergen County,NJ,93.79310344827586,NA,NA
07083,Union County,NJ,66.8103448275862,NA,NA
07087,Hudson County,NJ,NA,3.6585365853658534,NA
07093,Hudson County,NJ,68.62068965517241,NA,NA
07104,Essex County,NJ,40,NA,NA
07108,Essex County,NJ,34.310344827586206,NA,NA
07203,Union County,NJ,42.672413793103445,NA,NA
07304,Hudson County,NJ,NA,NA,83.62573099415205
07307,Hudson County,NJ,41.63793103448276,44.81707317073171,NA
07501,Passaic County,NJ,62.758620689655174,NA,NA
07522,Passaic County,NJ,56.81034482758621,NA,NA
07524,Passaic County,NJ,NA,11.585365853658537,NA
07621,Bergen County,NJ,77.41379310344828,NA,NA
07657,Bergen County,NJ,85.43103448275862,NA,NA
07666,Bergen County,NJ,NA,33.23170731707317,NA
08030,Camden County,NJ,86.98275862068967,NA,NA
08031,Camden County,NJ,51.810344827586206,NA,NA
08050,Ocean County,NJ,59.741379310344826,NA,NA
08052,Burlington County,NJ,NA,54.87804878048781,NA
08081,Camden County,NJ,17.155172413793103,NA,NA
08094,Gloucester County,NJ,NA,NA,8.187134502923977
08104,Camden County,NJ,11.206896551724139,NA,NA
08105,Camden County,NJ,4.827586206896552,NA,NA
08226,Cape May County,NJ,95.86206896551724,NA,NA
08322,Gloucester County,NJ,58.189655172413794,NA,NA
08360,Cumberland County,NJ,6.637931034482758,NA,NA
08401,Atlantic County,NJ,22.32758620689655,NA,NA
08609,Mercer County,NJ,NA,81.40243902439023,NA
08610,Mercer County,NJ,NA,5.487804878048781,NA
08611,Mercer County,NJ,NA,7.317073170731707,NA
08619,Mercer County,NJ,73.36206896551725,NA,NA
08629,Mercer County,NJ,54.05172413793103,NA,NA
08638,Mercer County,NJ,79.3103448275862,NA,NA
08701,Ocean County,NJ,0,NA,NA
08861,Middlesex County,NJ,3.793103448275862,1.8292682926829267,NA
08901,Middlesex County,NJ,2.327586206896552,NA,NA
87052,Sandoval County,NM,91.8103448275862,NA,NA
87104,Bernalillo County,NM,86.72413793103448,NA,NA
87107,Bernalillo County,NM,NA,56.40243902439024,NA
87110,Bernalillo County,NM,29.655172413793103,NA,NA
87121,Bernalillo County,NM,3.189655172413793,NA,NA
87301,McKinley County,NM,NA,NA,36.25730994152047
87325,McKinley County,NM,NA,67.07317073170732,NA
87327,Cibola County,NM,96.63793103448276,NA,NA
88001,Doa Ana County,NM,12.672413793103448,NA,NA
88081,Otero County,NM,70.25862068965517,NA,NA
10002,New York County,NY,74.48275862068967,NA,NA
10013,New York County,NY,96.72413793103448,70.73170731707317,NA
10021,New York County,NY,80.60344827586206,NA,NA
10029,New York County,NY,7.155172413793104,NA,NA
10032,New York County,NY,56.72413793103448,NA,NA
10033,New York County,NY,30.862068965517242,NA,22.22222222222222
10035,New York County,NY,NA,22.5609756097561,NA
10038,New York County,NY,71.29310344827586,NA,79.53216374269006
10314,Richmond County,NY,NA,86.58536585365853,NA
10451,Bronx County,NY,47.672413793103445,NA,NA
10452,Bronx County,NY,33.275862068965516,NA,NA
10453,Bronx County,NY,7.758620689655173,2.1341463414634148,NA
10454,Bronx County,NY,9.137931034482758,NA,NA
10456,Bronx County,NY,0.08620689655172414,NA,NA
10457,Bronx County,NY,1.0344827586206897,NA,NA
10458,Bronx County,NY,11.120689655172415,NA,NA
10459,Bronx County,NY,7.06896551724138,NA,NA
10460,Bronx County,NY,0.7758620689655172,NA,NA
10461,Bronx County,NY,56.98275862068966,15.548780487804878,NA
10462,Bronx County,NY,NA,NA,7.017543859649122
10469,Bronx County,NY,19.137931034482758,NA,NA
10472,Bronx County,NY,15.172413793103448,NA,NA
10606,Westchester County,NY,70.6896551724138,NA,NA
10701,Westchester County,NY,4.137931034482759,3.353658536585366,NA
10705,Westchester County,NY,NA,14.329268292682926,NA
10801,Westchester County,NY,19.74137931034483,17.98780487804878,NA
10952,Rockland County,NY,85.34482758620689,NA,NA
10956,Rockland County,NY,77.93103448275862,NA,NA
11102,Queens County,NY,56.03448275862068,NA,NA
11106,Queens County,NY,94.6551724137931,NA,NA
11206,Kings County,NY,9.655172413793103,NA,NA
11207,Kings County,NY,9.482758620689655,18.597560975609756,NA
11209,Kings County,NY,NA,NA,44.44444444444444
11210,Kings County,NY,80.60344827586206,33.53658536585366,NA
11211,Kings County,NY,79.91379310344827,NA,NA
11212,Kings County,NY,16.379310344827587,NA,NA
11214,Kings County,NY,21.637931034482758,NA,NA
11219,Kings County,NY,7.672413793103448,2.4390243902439024,NA
11220,Kings County,NY,NA,3.9634146341463414,NA
11221,Kings County,NY,6.293103448275862,NA,NA
11224,Kings County,NY,28.448275862068968,NA,NA
11229,Kings County,NY,52.32758620689655,NA,NA
11232,Kings County,NY,68.53448275862068,NA,NA
11233,Kings County,NY,46.206896551724135,NA,NA
11235,Kings County,NY,23.96551724137931,NA,NA
11237,Kings County,NY,13.96551724137931,7.621951219512195,NA
11238,Kings County,NY,42.241379310344826,NA,NA
11354,Queens County,NY,27.586206896551722,NA,NA
11368,Queens County,NY,52.93103448275862,1.2195121951219512,NA
11369,Queens County,NY,34.741379310344826,NA,62.57309941520468
11372,Queens County,NY,NA,9.75609756097561,NA
11373,Queens County,NY,6.896551724137931,NA,NA
11377,Queens County,NY,69.39655172413794,NA,NA
11416,Queens County,NY,71.03448275862068,NA,NA
11419,Queens County,NY,NA,21.951219512195124,NA
11428,Queens County,NY,88.1896551724138,NA,NA
11433,Queens County,NY,47.41379310344828,23.170731707317074,NA
11435,Queens County,NY,37.5,NA,NA
11510,Nassau County,NY,41.98275862068965,NA,NA
11520,Nassau County,NY,55.603448275862064,27.134146341463417,NA
11545,Nassau County,NY,91.89655172413794,NA,NA
11550,Nassau County,NY,3.362068965517241,NA,NA
11553,Nassau County,NY,67.5,35.670731707317074,NA
11554,Nassau County,NY,83.01724137931035,NA,NA
11691,Queens County,NY,10.689655172413794,NA,NA
11722,Suffolk County,NY,32.068965517241374,NA,NA
11746,Suffolk County,NY,61.206896551724135,NA,NA
11784,Suffolk County,NY,NA,76.82926829268293,NA
11798,Suffolk County,NY,75.25862068965517,NA,NA
11946,Suffolk County,NY,NA,69.20731707317073,NA
12010,Montgomery County,NY,NA,NA,6.432748538011696
12206,Albany County,NY,NA,75.91463414634147,NA
12304,Schenectady County,NY,52.32758620689655,NA,NA
12308,Schenectady County,NY,53.5344827586207,NA,NA
12901,Clinton County,NY,NA,NA,4.093567251461988
12919,Clinton County,NY,NA,NA,91.22807017543859
13032,Madison County,NY,44.48275862068966,NA,NA
13041,Onondaga County,NY,NA,95.73170731707317,NA
13045,Cortland County,NY,46.98275862068966,NA,NA
13203,Onondaga County,NY,17.5,NA,NA
13204,Onondaga County,NY,36.724137931034484,NA,NA
13205,Onondaga County,NY,NA,NA,16.374269005847953
13206,Onondaga County,NY,NA,66.46341463414635,NA
13350,Herkimer County,NY,30.431034482758623,NA,NA
13357,Herkimer County,NY,NA,NA,72.51461988304094
13601,Jefferson County,NY,10,NA,NA
13617,St. Lawrence County,NY,33.01724137931035,NA,NA
13815,Chenango County,NY,30.086206896551726,NA,NA
13838,Delaware County,NY,74.6551724137931,NA,NA
13901,Broome County,NY,18.017241379310345,NA,NA
13905,Broome County,NY,NA,47.86585365853659,NA
14048,Chautauqua County,NY,30.862068965517242,NA,NA
14075,Erie County,NY,NA,NA,9.35672514619883
14094,Niagara County,NY,8.620689655172415,NA,NA
14120,Niagara County,NY,NA,71.95121951219512,NA
14206,Erie County,NY,45.689655172413794,53.963414634146346,NA
14211,Erie County,NY,5.086206896551724,NA,NA
14215,Erie County,NY,55.94827586206896,NA,NA
14218,Erie County,NY,57.49999999999999,NA,NA
14225,Erie County,NY,35.51724137931034,NA,NA
14305,Niagara County,NY,24.051724137931036,NA,NA
14414,Livingston County,NY,NA,NA,68.42105263157895
14420,Monroe County,NY,NA,NA,18.71345029239766
14425,Ontario County,NY,NA,NA,24.561403508771928
14428,Monroe County,NY,42.8448275862069,NA,NA
14469,Ontario County,NY,NA,NA,50.29239766081871
14489,Wayne County,NY,NA,NA,43.859649122807014
14534,Monroe County,NY,3.103448275862069,NA,38.59649122807017
14559,Monroe County,NY,14.741379310344826,NA,NA
14609,Monroe County,NY,NA,NA,1.7543859649122806
14617,Monroe County,NY,57.84482758620689,NA,NA
14624,Monroe County,NY,2.9310344827586206,NA,NA
14727,Allegany County,NY,NA,96.64634146341463,NA
14837,Yates County,NY,88.44827586206897,NA,NA
14843,Steuben County,NY,NA,39.329268292682926,NA
14886,Tompkins County,NY,NA,NA,69.00584795321637
14904,Chemung County,NY,32.67241379310345,NA,NA
27030,Surry County,NC,26.46551724137931,NA,NA
27105,Forsyth County,NC,38.96551724137931,NA,NA
27107,Forsyth County,NC,37.06896551724138,NA,NA
27205,Randolph County,NC,NA,65.2439024390244,NA
27263,Randolph County,NC,77.93103448275862,NA,NA
27295,Davidson County,NC,6.724137931034482,NA,NA
27302,Alamance County,NC,40.775862068965516,NA,NA
27312,Chatham County,NC,65,NA,NA
27316,Randolph County,NC,93.79310344827586,NA,NA
27320,Rockingham County,NC,19.396551724137932,NA,NA
27330,Lee County,NC,NA,NA,31.57894736842105
27344,Chatham County,NC,55.51724137931034,NA,NA
27357,Rockingham County,NC,NA,98.78048780487805,NA
27407,Guilford County,NC,35.60344827586207,NA,NA
27504,Johnston County,NC,75.25862068965517,NA,NA
27518,Wake County,NC,91.29310344827586,NA,NA
27574,Person County,NC,35.86206896551724,NA,NA
27576,Johnston County,NC,56.63793103448276,NA,NA
27596,Franklin County,NC,NA,92.07317073170732,NA
27603,Wake County,NC,15.775862068965518,NA,NA
27610,Wake County,NC,NA,11.890243902439025,NA
27703,Durham County,NC,20.862068965517242,NA,NA
27804,Nash County,NC,86.20689655172413,NA,NA
27834,Pitt County,NC,5.517241379310345,NA,NA
27882,Nash County,NC,NA,95.73170731707317,NA
27886,Edgecombe County,NC,60.775862068965516,NA,NA
27958,Currituck County,NC,88.62068965517241,NA,NA
28081,Cabarrus County,NC,43.36206896551724,NA,NA
28105,Mecklenburg County,NC,52.672413793103445,NA,NA
28173,Union County,NC,82.84482758620689,NA,NA
28205,Mecklenburg County,NC,30,26.52439024390244,NA
28211,Mecklenburg County,NC,43.79310344827586,NA,NA
28213,Mecklenburg County,NC,23.103448275862068,NA,NA
28216,Mecklenburg County,NC,9.224137931034484,NA,NA
28226,Mecklenburg County,NC,52.32758620689655,NA,NA
28314,Cumberland County,NC,5,NA,NA
28358,Robeson County,NC,16.29310344827586,NA,NA
28364,Robeson County,NC,54.05172413793103,NA,NA
28376,Hoke County,NC,26.551724137931032,NA,NA
28456,Columbus County,NC,NA,96.64634146341463,NA
28532,Craven County,NC,89.05172413793103,NA,NA
28540,Onslow County,NC,10.86206896551724,NA,NA
28638,Caldwell County,NC,NA,49.08536585365854,NA
28645,Caldwell County,NC,5.948275862068965,NA,NA
28716,Haywood County,NC,NA,NA,60.23391812865497
28792,Henderson County,NC,20.25862068965517,NA,NA
58103,Cass County,ND,16.982758620689655,NA,NA
58104,Cass County,ND,8.53448275862069,NA,NA
58203,Grand Forks County,ND,45.689655172413794,NA,NA
43019,Knox County,OH,84.05172413793103,NA,NA
43026,Franklin County,OH,13.275862068965516,NA,NA
43050,Knox County,OH,78.36206896551724,NA,8.771929824561402
43068,Franklin County,OH,23.879310344827587,NA,NA
43082,Delaware County,OH,76.20689655172413,NA,NA
43110,Franklin County,OH,0.603448275862069,10.975609756097562,NA
43119,Franklin County,OH,NA,11.28048780487805,NA
43130,Fairfield County,OH,18.620689655172416,32.31707317073171,NA
43138,Hocking County,OH,55.25862068965517,NA,NA
43140,Madison County,OH,65.43103448275862,34.45121951219512,NA
43147,Fairfield County,OH,59.56896551724138,NA,NA
43201,Franklin County,OH,79.82758620689656,NA,NA
43203,Franklin County,OH,37.1551724137931,NA,NA
43205,Franklin County,OH,NA,20.121951219512198,NA
43206,Franklin County,OH,1.9827586206896552,NA,NA
43207,Franklin County,OH,0.43103448275862066,NA,NA
43211,Franklin County,OH,23.448275862068964,4.2682926829268295,NA
43213,Franklin County,OH,8.275862068965518,NA,NA
43219,Franklin County,OH,70.51724137931035,52.743902439024396,NA
43220,Franklin County,OH,42.241379310344826,NA,NA
43221,Franklin County,OH,NA,NA,88.88888888888889
43223,Franklin County,OH,41.89655172413793,NA,NA
43224,Franklin County,OH,2.586206896551724,NA,NA
43227,Franklin County,OH,17.75862068965517,NA,NA
43228,Franklin County,OH,23.275862068965516,NA,NA
43229,Franklin County,OH,35.258620689655174,NA,NA
43230,Franklin County,OH,54.91379310344827,NA,NA
43231,Franklin County,OH,50,NA,NA
43232,Franklin County,OH,27.93103448275862,0.3048780487804878,NA
43235,Franklin County,OH,65,NA,NA
43302,Marion County,OH,4.051724137931034,NA,NA
43402,Wood County,OH,30.603448275862068,NA,NA
43506,Williams County,OH,67.58620689655173,NA,NA
43526,Defiance County,OH,81.55172413793103,NA,NA
43558,Fulton County,OH,41.63793103448276,NA,NA
43571,Lucas County,OH,NA,97.5609756097561,NA
43611,Lucas County,OH,NA,45.1219512195122,NA
43612,Lucas County,OH,2.5,NA,NA
43614,Lucas County,OH,NA,56.09756097560976,NA
43762,Muskingum County,OH,NA,NA,91.81286549707602
43764,Perry County,OH,90.25862068965517,NA,NA
43920,Columbiana County,OH,10.948275862068964,35.36585365853659,NA
43935,Belmont County,OH,73.36206896551725,NA,NA
44004,Ashtabula County,OH,NA,8.536585365853659,NA
44039,Lorain County,OH,12.931034482758621,NA,NA
44053,Lorain County,OH,57.84482758620689,NA,NA
44057,Lake County,OH,43.189655172413794,NA,NA
44060,Lake County,OH,26.982758620689655,NA,NA
44070,Cuyahoga County,OH,59.396551724137936,NA,NA
44089,Erie County,OH,76.0344827586207,NA,47.368421052631575
44092,Lake County,OH,63.01724137931034,NA,NA
44095,Lake County,OH,NA,21.646341463414632,28.07017543859649
44104,Cuyahoga County,OH,15.948275862068966,NA,NA
44105,Cuyahoga County,OH,4.224137931034483,NA,NA
44107,Cuyahoga County,OH,2.6724137931034484,NA,NA
44108,Cuyahoga County,OH,8.189655172413794,NA,NA
44109,Cuyahoga County,OH,0.25862068965517243,NA,NA
44110,Cuyahoga County,OH,10.775862068965516,NA,NA
44111,Cuyahoga County,OH,0.8620689655172413,NA,NA
44112,Cuyahoga County,OH,12.5,NA,NA
44120,Cuyahoga County,OH,11.89655172413793,NA,NA
44124,Cuyahoga County,OH,50.258620689655174,NA,35.08771929824561
44125,Cuyahoga County,OH,NA,36.890243902439025,NA
44127,Cuyahoga County,OH,NA,50.30487804878049,NA
44128,Cuyahoga County,OH,13.706896551724137,NA,NA
44130,Cuyahoga County,OH,NA,28.353658536585364,NA
44134,Cuyahoga County,OH,2.844827586206897,NA,NA
44139,Cuyahoga County,OH,NA,NA,50.877192982456144
44143,Cuyahoga County,OH,19.482758620689655,NA,NA
44145,Cuyahoga County,OH,NA,NA,71.9298245614035
44146,Cuyahoga County,OH,30.431034482758623,NA,NA
44203,Summit County,OH,62.41379310344828,25.609756097560975,NA
44221,Summit County,OH,NA,16.463414634146343,NA
44223,Summit County,OH,50.689655172413794,NA,NA
44230,Wayne County,OH,69.05172413793103,NA,NA
44231,Portage County,OH,NA,67.98780487804879,NA
44236,Summit County,OH,50.86206896551724,NA,NA
44241,Portage County,OH,NA,54.268292682926834,NA
44256,Medina County,OH,13.189655172413794,NA,29.239766081871345
44266,Portage County,OH,43.36206896551724,NA,NA
44281,Medina County,OH,62.8448275862069,NA,NA
44306,Summit County,OH,6.206896551724138,NA,NA
44312,Summit County,OH,NA,17.682926829268293,NA
44314,Summit County,OH,7.5,NA,NA
44405,Mahoning County,OH,61.46551724137931,NA,NA
44406,Mahoning County,OH,20.086206896551726,NA,NA
44410,Trumbull County,OH,NA,58.231707317073166,NA
44420,Trumbull County,OH,63.01724137931034,NA,NA
44425,Trumbull County,OH,NA,69.51219512195121,NA
44460,Columbiana County,OH,NA,55.79268292682927,NA
44471,Mahoning County,OH,76.46551724137932,NA,NA
44515,Mahoning County,OH,NA,NA,11.11111111111111
44601,Stark County,OH,29.913793103448278,NA,NA
44632,Stark County,OH,NA,78.04878048780488,NA
44646,Stark County,OH,NA,14.02439024390244,NA
44654,Holmes County,OH,NA,71.95121951219512,NA
44657,Stark County,OH,81.72413793103448,NA,NA
44663,Tuscarawas County,OH,20.086206896551726,NA,NA
44691,Wayne County,OH,55.08620689655173,16.463414634146343,NA
44708,Stark County,OH,36.98275862068965,NA,NA
44720,Stark County,OH,24.482758620689655,NA,NA
44827,Crawford County,OH,NA,83.53658536585365,NA
44833,Crawford County,OH,35,NA,NA
45011,Butler County,OH,0.3448275862068966,NA,NA
45013,Butler County,OH,2.2413793103448274,NA,NA
45015,Butler County,OH,46.55172413793103,NA,NA
45040,Warren County,OH,9.051724137931034,NA,NA
45065,Warren County,OH,69.05172413793103,NA,NA
45066,Warren County,OH,82.75862068965517,NA,NA
45067,Butler County,OH,42.8448275862069,NA,NA
45123,Highland County,OH,NA,93.59756097560977,NA
45130,Brown County,OH,94.56896551724138,NA,NA
45202,Hamilton County,OH,64.05172413793103,NA,NA
45203,Hamilton County,OH,98.87931034482759,NA,NA
45211,Hamilton County,OH,14.396551724137932,NA,NA
45212,Hamilton County,OH,NA,40.853658536585364,NA
45224,Hamilton County,OH,NA,NA,30.409356725146196
45230,Hamilton County,OH,48.01724137931034,NA,NA
45232,Hamilton County,OH,NA,27.439024390243905,NA
45237,Hamilton County,OH,72.41379310344827,NA,NA
45238,Hamilton County,OH,6.4655172413793105,NA,NA
45239,Hamilton County,OH,56.20689655172414,NA,NA
45244,Hamilton County,OH,50.94827586206897,NA,NA
45304,Darke County,OH,NA,93.59756097560977,NA
45327,Montgomery County,OH,62.5,NA,NA
45342,Montgomery County,OH,7.586206896551724,20.426829268292682,NA
45385,Greene County,OH,NA,NA,13.450292397660817
45403,Montgomery County,OH,24.224137931034484,NA,NA
45410,Montgomery County,OH,73.87931034482759,NA,NA
45417,Montgomery County,OH,48.36206896551724,NA,NA
45424,Montgomery County,OH,4.741379310344827,NA,NA
45429,Montgomery County,OH,NA,76.52439024390245,NA
45430,Greene County,OH,95.43103448275862,NA,NA
45431,Montgomery County,OH,56.37931034482758,NA,NA
45440,Montgomery County,OH,47.41379310344828,NA,NA
45459,Montgomery County,OH,45.689655172413794,NA,NA
45614,Gallia County,OH,82.84482758620689,NA,NA
45640,Jackson County,OH,63.36206896551724,NA,NA
45651,Vinton County,OH,91.37931034482759,NA,NA
45656,Jackson County,OH,NA,58.231707317073166,NA
45660,Adams County,OH,71.72413793103448,NA,NA
45661,Pike County,OH,65.94827586206897,NA,NA
45686,Gallia County,OH,95.17241379310344,NA,NA
45692,Jackson County,OH,71.4655172413793,NA,NA
45694,Scioto County,OH,71.63793103448276,NA,NA
45760,Meigs County,OH,87.8448275862069,NA,NA
45761,Athens County,OH,92.15517241379311,NA,NA
45764,Athens County,OH,79.39655172413794,NA,NA
45805,Allen County,OH,36.724137931034484,NA,NA
45891,Van Wert County,OH,NA,NA,39.1812865497076
73025,Oklahoma County,OK,NA,NA,74.26900584795322
73089,Grady County,OK,85.94827586206897,NA,NA
73106,Oklahoma County,OK,76.72413793103449,NA,NA
73111,Oklahoma County,OK,41.12068965517241,NA,NA
73119,Oklahoma County,OK,31.20689655172414,23.47560975609756,32.16374269005848
73505,Comanche County,OK,21.120689655172413,NA,NA
73717,Woods County,OK,NA,NA,90.05847953216374
74066,Creek County,OK,22.93103448275862,NA,NA
74110,Tulsa County,OK,NA,68.90243902439023,NA
74127,Tulsa County,OK,43.79310344827586,NA,NA
74354,Ottawa County,OK,32.758620689655174,NA,NA
74426,McIntosh County,OK,94.05172413793103,NA,NA
74467,Wagoner County,OK,86.20689655172413,NA,NA
74501,Pittsburg County,OK,37.32758620689655,34.756097560975604,NA
74604,Kay County,OK,91.37931034482759,NA,NA
74801,Pottawatomie County,OK,35.60344827586207,NA,NA
74873,Pottawatomie County,OK,79.65517241379311,NA,NA
74953,Le Flore County,OK,64.22413793103449,NA,NA
97015,Clackamas County,OR,81.72413793103448,NA,NA
97030,Multnomah County,OR,30.775862068965516,55.1829268292683,NA
97071,Marion County,OR,89.39655172413794,NA,NA
97132,Yamhill County,OR,NA,80.1829268292683,NA
97221,Multnomah County,OR,92.75862068965517,NA,NA
97225,Washington County,OR,NA,NA,76.0233918128655
97236,Multnomah County,OR,49.56896551724138,NA,NA
97304,Polk County,OR,37.58620689655172,NA,NA
97405,Lane County,OR,NA,NA,76.60818713450293
97527,Josephine County,OR,NA,NA,54.385964912280706
97701,Deschutes County,OR,59.6551724137931,NA,NA
15066,Beaver County,PA,NA,71.03658536585365,NA
15084,Allegheny County,PA,77.41379310344828,NA,NA
15132,Allegheny County,PA,8.103448275862068,NA,NA
15207,Allegheny County,PA,NA,NA,87.13450292397661
15219,Allegheny County,PA,92.58620689655173,NA,NA
15229,Allegheny County,PA,NA,NA,88.30409356725146
15237,Allegheny County,PA,NA,NA,81.28654970760235
15767,Jefferson County,PA,54.82758620689655,NA,NA
15853,Elk County,PA,64.22413793103449,NA,NA
16001,Butler County,PA,19.74137931034483,NA,NA
16117,Lawrence County,PA,60.258620689655174,NA,NA
16406,Crawford County,PA,99.6551724137931,NA,NA
16502,Erie County,PA,67.58620689655173,NA,NA
16601,Blair County,PA,27.327586206896555,NA,NA
17011,Cumberland County,PA,78.79310344827586,NA,NA
17020,Perry County,PA,NA,NA,81.87134502923976
17022,Lancaster County,PA,NA,NA,58.47953216374269
17036,Dauphin County,PA,58.362068965517246,NA,NA
17046,Lebanon County,PA,10.517241379310345,NA,NA
17111,Dauphin County,PA,55.00000000000001,NA,NA
17257,Cumberland County,PA,40.17241379310345,NA,NA
17319,York County,PA,93.10344827586206,NA,NA
17403,York County,PA,13.017241379310345,NA,NA
17578,Lancaster County,PA,NA,88.71951219512195,NA
17603,Lancaster County,PA,48.79310344827586,NA,NA
17724,Bradford County,PA,NA,NA,94.73684210526315
17737,Lycoming County,PA,66.98275862068965,NA,NA
17745,Clinton County,PA,40.43103448275862,NA,NA
17821,Montour County,PA,28.448275862068968,NA,NA
17837,Union County,PA,79.39655172413794,NA,NA
17853,Snyder County,PA,97.41379310344827,NA,NA
17866,Northumberland County,PA,62.5,NA,NA
17872,Northumberland County,PA,73.27586206896551,NA,NA
18014,Northampton County,PA,NA,90.54878048780488,NA
18042,Northampton County,PA,32.41379310344827,NA,53.80116959064327
18052,Lehigh County,PA,19.655172413793103,NA,NA
18104,Lehigh County,PA,52.06896551724138,NA,NA
18201,Luzerne County,PA,33.53448275862069,NA,NA
18504,Lackawanna County,PA,NA,61.58536585365854,NA
18505,Lackawanna County,PA,28.27586206896552,NA,NA
18640,Luzerne County,PA,70.94827586206897,NA,NA
18966,Bucks County,PA,88.36206896551724,NA,NA
19014,Delaware County,PA,49.137931034482754,NA,NA
19036,Delaware County,PA,87.41379310344828,NA,NA
19111,Philadelphia County,PA,12.068965517241379,NA,NA
19132,Philadelphia County,PA,64.74137931034483,NA,NA
19133,Philadelphia County,PA,14.827586206896552,NA,NA
19143,Philadelphia County,PA,1.1206896551724137,NA,NA
19144,Philadelphia County,PA,NA,NA,5.847953216374268
19382,Chester County,PA,5.862068965517241,84.7560975609756,NA
19390,Chester County,PA,57.84482758620689,NA,NA
19565,Berks County,PA,94.22413793103448,NA,NA
19604,Berks County,PA,12.413793103448276,NA,NA
29063,Richland County,SC,68.1896551724138,NA,NA
29160,Lexington County,SC,94.74137931034483,NA,NA
29164,Aiken County,SC,NA,99.39024390243902,NA
29172,Lexington County,SC,NA,87.1951219512195,NA
29301,Spartanburg County,SC,40.3448275862069,NA,NA
29341,Cherokee County,SC,62.1551724137931,NA,NA
29435,Colleton County,SC,98.53448275862068,NA,100
29440,Georgetown County,SC,81.29310344827586,NA,NA
29445,Berkeley County,SC,13.36206896551724,NA,NA
29483,Dorchester County,SC,63.44827586206897,NA,NA
29485,Dorchester County,SC,7.241379310344828,NA,NA
29607,Greenville County,SC,20.862068965517242,NA,NA
29621,Anderson County,SC,18.53448275862069,NA,NA
29690,Greenville County,SC,84.91379310344827,NA,NA
29692,Laurens County,SC,96.98275862068965,NA,NA
29707,Lancaster County,SC,86.37931034482759,NA,NA
29805,Aiken County,SC,97.41379310344827,NA,NA
29829,Aiken County,SC,78.10344827586206,NA,NA
29831,Aiken County,SC,99.39655172413792,NA,NA
29847,Edgefield County,SC,NA,99.08536585365853,NA
29860,Edgefield County,SC,NA,67.07317073170732,NA
57770,Shannon County,SD,NA,19.51219512195122,NA
37027,Williamson County,TN,39.56896551724138,NA,NA
37087,Wilson County,TN,NA,80.79268292682927,NA
37115,Davidson County,TN,18.362068965517242,NA,NA
37174,Williamson County,TN,57.84482758620689,NA,NA
37206,Davidson County,TN,23.448275862068964,NA,NA
37211,Davidson County,TN,14.13793103448276,NA,NA
37327,Sequatchie County,TN,75.77586206896552,NA,NA
37334,Lincoln County,TN,55.68965517241379,NA,NA
37416,Hamilton County,TN,76.55172413793103,NA,NA
37743,Greene County,TN,24.82758620689655,NA,NA
37763,Roane County,TN,NA,NA,71.34502923976608
37813,Hamblen County,TN,58.44827586206897,NA,NA
37912,Knox County,TN,61.724137931034484,NA,NA
38024,Dyer County,TN,9.913793103448276,NA,NA
38106,Shelby County,TN,37.24137931034483,NA,NA
38107,Shelby County,TN,66.29310344827586,NA,NA
38109,Shelby County,TN,3.8793103448275863,NA,NA
38117,Shelby County,TN,84.3103448275862,NA,NA
38118,Shelby County,TN,8.017241379310343,NA,NA
38119,Shelby County,TN,73.87931034482759,NA,NA
38122,Shelby County,TN,46.37931034482759,NA,NA
38128,Shelby County,TN,14.13793103448276,NA,NA
38301,Madison County,TN,1.206896551724138,NA,NA
38462,Lewis County,TN,NA,NA,74.26900584795322
75007,Denton County,TX,NA,86.89024390243902,NA
75060,Dallas County,TX,NA,57.92682926829268,NA
75061,Dallas County,TX,11.293103448275863,NA,NA
75063,Dallas County,TX,50.94827586206897,NA,NA
75067,Denton County,TX,15.517241379310345,NA,NA
75068,Denton County,TX,NA,47.5609756097561,NA
75070,Collin County,TX,9.655172413793103,NA,NA
75081,Dallas County,TX,66.72413793103448,NA,NA
75115,Dallas County,TX,18.103448275862068,NA,NA
75124,Henderson County,TX,99.22413793103448,NA,NA
75146,Dallas County,TX,31.03448275862069,NA,NA
75154,Ellis County,TX,NA,52.13414634146341,NA
75159,Dallas County,TX,75.60344827586208,NA,NA
75160,Kaufman County,TX,6.120689655172414,NA,NA
75203,Dallas County,TX,NA,64.02439024390245,NA
75208,Dallas County,TX,66.29310344827586,NA,NA
75215,Dallas County,TX,22.586206896551726,NA,NA
75217,Dallas County,TX,26.810344827586206,32.01219512195122,NA
75218,Dallas County,TX,69.74137931034483,NA,NA
75220,Dallas County,TX,31.551724137931036,NA,NA
75231,Dallas County,TX,15.689655172413794,NA,NA
75232,Dallas County,TX,37.75862068965517,NA,NA
75235,Dallas County,TX,58.189655172413794,NA,NA
75238,Dallas County,TX,43.62068965517241,NA,NA
75287,Denton County,TX,24.051724137931036,NA,NA
75503,Bowie County,TX,82.1551724137931,NA,NA
75604,Gregg County,TX,22.06896551724138,NA,NA
75662,Gregg County,TX,NA,44.207317073170735,NA
75702,Smith County,TX,NA,37.5,NA
75703,Smith County,TX,20.344827586206897,NA,NA
75706,Smith County,TX,91.12068965517241,NA,NA
75708,Smith County,TX,70.25862068965517,NA,NA
75766,Cherokee County,TX,NA,40.243902439024396,NA
75835,Houston County,TX,79.13793103448276,NA,NA
76006,Tarrant County,TX,NA,57.3170731707317,NA
76036,Tarrant County,TX,45.51724137931035,NA,NA
76051,Tarrant County,TX,35.172413793103445,NA,NA
76087,Parker County,TX,NA,72.86585365853658,NA
76104,Tarrant County,TX,NA,41.76829268292683,NA
76105,Tarrant County,TX,14.310344827586208,NA,NA
76106,Tarrant County,TX,NA,46.03658536585366,NA
76111,Tarrant County,TX,35.86206896551724,NA,NA
76114,Tarrant County,TX,57.24137931034483,NA,NA
76115,Tarrant County,TX,NA,19.51219512195122,NA
76131,Tarrant County,TX,86.12068965517241,NA,NA
76148,Tarrant County,TX,NA,91.15853658536585,NA
76164,Tarrant County,TX,58.44827586206897,NA,NA
76502,Bell County,TX,44.396551724137936,NA,NA
76504,Bell County,TX,NA,NA,10.526315789473683
76513,Bell County,TX,5.948275862068965,9.146341463414634,NA
76549,Bell County,TX,33.53448275862069,NA,NA
76642,Limestone County,TX,91.20689655172414,NA,NA
76712,McLennan County,TX,26.120689655172413,NA,NA
77004,Harris County,TX,16.637931034482758,NA,NA
77012,Harris County,TX,98.1896551724138,NA,NA
77015,Harris County,TX,80.25862068965517,NA,NA
77017,Harris County,TX,NA,39.9390243902439,NA
77034,Harris County,TX,NA,23.78048780487805,NA
77037,Harris County,TX,91.0344827586207,NA,NA
77039,Harris County,TX,NA,31.70731707317073,NA
77044,Harris County,TX,25.517241379310345,NA,NA
77049,Harris County,TX,76.72413793103449,NA,NA
77061,Harris County,TX,NA,60.0609756097561,NA
77064,Harris County,TX,NA,22.5609756097561,NA
77072,Harris County,TX,NA,32.6219512195122,NA
77083,Harris County,TX,22.413793103448278,84.45121951219512,NA
77084,Harris County,TX,NA,22.25609756097561,NA
77093,Harris County,TX,36.637931034482754,60.0609756097561,NA
77301,Montgomery County,TX,35.86206896551724,51.52439024390244,NA
77303,Montgomery County,TX,45,NA,NA
77306,Montgomery County,TX,NA,73.47560975609755,NA
77373,Harris County,TX,23.448275862068964,NA,NA
77407,Fort Bend County,TX,31.810344827586206,NA,NA
77414,Matagorda County,TX,84.6551724137931,NA,NA
77429,Harris County,TX,10.344827586206897,NA,NA
77433,Harris County,TX,53.189655172413794,NA,NA
77447,Harris County,TX,NA,82.92682926829268,NA
77477,Fort Bend County,TX,66.98275862068965,NA,NA
77486,Brazoria County,TX,NA,100,NA
77502,Harris County,TX,NA,85.36585365853658,NA
77504,Harris County,TX,68.01724137931035,NA,NA
77506,Harris County,TX,NA,21.036585365853657,NA
77510,Galveston County,TX,67.24137931034483,NA,NA
77518,Galveston County,TX,NA,75.3048780487805,NA
77521,Harris County,TX,23.448275862068964,NA,NA
77539,Galveston County,TX,4.913793103448276,18.902439024390244,NA
77563,Galveston County,TX,73.36206896551725,NA,NA
77568,Galveston County,TX,NA,45.426829268292686,NA
77573,Galveston County,TX,1.4655172413793103,NA,NA
77590,Galveston County,TX,12.844827586206897,NA,52.046783625730995
77591,Galveston County,TX,26.982758620689655,43.292682926829265,NA
77630,Orange County,TX,27.75862068965517,NA,NA
77657,Hardin County,TX,50.51724137931034,NA,NA
77701,Jefferson County,TX,NA,77.13414634146342,NA
77801,Brazos County,TX,86.37931034482759,NA,NA
77807,Brazos County,TX,69.74137931034483,NA,NA
77901,Victoria County,TX,16.724137931034484,NA,NA
78014,La Salle County,TX,NA,88.71951219512195,NA
78119,Karnes County,TX,NA,82.92682926829268,NA
78155,Guadalupe County,TX,10.086206896551724,NA,NA
78201,Bexar County,TX,20.775862068965516,NA,NA
78212,Bexar County,TX,NA,NA,94.15204678362574
78213,Bexar County,TX,NA,17.378048780487802,NA
78214,Bexar County,TX,72.1551724137931,NA,NA
78221,Bexar County,TX,26.20689655172414,NA,NA
78228,Bexar County,TX,40.689655172413794,NA,NA
78229,Bexar County,TX,53.01724137931034,NA,NA
78238,Bexar County,TX,44.48275862068966,NA,NA
78239,Bexar County,TX,NA,42.68292682926829,NA
78242,Bexar County,TX,22.758620689655174,47.86585365853659,NA
78249,Bexar County,TX,NA,53.04878048780488,NA
78404,Nueces County,TX,71.4655172413793,NA,NA
78413,Nueces County,TX,49.56896551724138,NA,NA
78415,Nueces County,TX,45.08620689655172,NA,NA
78516,Hidalgo County,TX,NA,78.65853658536585,NA
78574,Hidalgo County,TX,NA,0.9146341463414633,NA
78605,Burnet County,TX,98.70689655172413,NA,NA
78628,Williamson County,TX,51.55172413793103,NA,NA
78634,Williamson County,TX,43.189655172413794,NA,NA
78641,Williamson County,TX,33.87931034482759,NA,NA
78681,Williamson County,TX,NA,82.01219512195121,NA
78741,Travis County,TX,52.32758620689655,NA,NA
78753,Travis County,TX,NA,30.182926829268293,NA
79102,Potter County,TX,71.89655172413794,NA,NA
79106,Potter County,TX,48.10344827586207,NA,NA
79118,Randall County,TX,NA,63.71951219512195,NA
79360,Gaines County,TX,33.01724137931035,NA,NA
79403,Lubbock County,TX,44.6551724137931,NA,NA
79701,Midland County,TX,33.96551724137931,NA,NA
79706,Midland County,TX,24.913793103448274,NA,NA
79762,Ector County,TX,16.896551724137932,NA,NA
79763,Ector County,TX,14.56896551724138,NA,NA
79915,El Paso County,TX,NA,17.073170731707318,NA
79927,El Paso County,TX,52.06896551724138,NA,NA
84009,Salt Lake County,UT,NA,NA,82.45614035087719
84020,Salt Lake County,UT,NA,NA,53.216374269005854
84054,Davis County,UT,72.84482758620689,NA,NA
84057,Utah County,UT,58.44827586206897,NA,NA
84078,Uintah County,UT,4.482758620689655,NA,NA
84105,Salt Lake County,UT,82.5,NA,NA
84119,Salt Lake County,UT,NA,NA,15.204678362573098
84648,Juab County,UT,NA,NA,90.64327485380117
05641,Washington County,VT,NA,71.03658536585365,NA
20111,Prince William County,VA,50.94827586206897,NA,NA
20124,Fairfax County,VA,83.01724137931035,NA,NA
20170,Fairfax County,VA,44.6551724137931,NA,NA
22079,Fairfax County,VA,38.01724137931035,NA,NA
22180,Fairfax County,VA,66.55172413793103,NA,NA
22193,Prince William County,VA,33.793103448275865,NA,NA
22306,Fairfax County,VA,41.206896551724135,NA,NA
22554,Stafford County,VA,24.482758620689655,NA,NA
22815,Rockingham County,VA,75.60344827586208,NA,NA
22903,Charlottesville city,VA,23.448275862068964,NA,NA
22960,Orange County,VA,50.3448275862069,NA,NA
22973,Greene County,VA,88.62068965517241,NA,NA
23111,Hanover County,VA,NA,45.426829268292686,NA
23223,Henrico County,VA,3.4482758620689653,NA,NA
23228,Henrico County,VA,47.758620689655174,NA,NA
23231,Henrico County,VA,NA,26.82926829268293,NA
23234,Chesterfield County,VA,2.7586206896551726,36.58536585365854,NA
23238,Henrico County,VA,79.13793103448276,NA,NA
23464,Virginia Beach city,VA,NA,NA,21.637426900584796
23502,Norfolk city,VA,69.74137931034483,NA,NA
23602,Newport News city,VA,48.96551724137931,NA,NA
23608,Newport News city,VA,17.75862068965517,13.109756097560975,NA
23832,Chesterfield County,VA,56.55172413793104,NA,NA
23847,Greensville County,VA,83.9655172413793,NA,NA
23890,Sussex County,VA,96.8103448275862,NA,NA
24017,Roanoke city,VA,32.5,NA,NA
24054,Henry County,VA,93.62068965517241,NA,NA
24112,Henry County,VA,NA,NA,22.807017543859647
24141,Radford city,VA,NA,67.98780487804879,NA
24153,Salem city,VA,NA,NA,46.198830409356724
24361,Washington County,VA,84.3103448275862,NA,NA
24401,Staunton city,VA,NA,NA,12.280701754385964
24450,Rockbridge County,VA,72.5,NA,NA
24501,Lynchburg city,VA,32.068965517241374,NA,NA
24504,Lynchburg city,VA,NA,79.57317073170732,NA
24541,Danville city,VA,NA,64.02439024390245,NA
24588,Campbell County,VA,92.15517241379311,NA,NA
98002,King County,WA,NA,58.231707317073166,NA
98003,King County,WA,59.310344827586206,92.6829268292683,NA
98005,King County,WA,76.72413793103449,NA,NA
98011,King County,WA,92.15517241379311,NA,NA
98023,King County,WA,11.46551724137931,87.8048780487805,NA
98028,King County,WA,54.568965517241374,NA,NA
98042,King County,WA,18.879310344827584,NA,NA
98045,King County,WA,81.29310344827586,NA,NA
98058,King County,WA,54.48275862068965,NA,NA
98059,King County,WA,54.310344827586206,NA,NA
98115,King County,WA,37.32758620689655,NA,NA
98117,King County,WA,NA,94.51219512195121,NA
98118,King County,WA,45.3448275862069,NA,NA
98155,King County,WA,59.396551724137936,NA,NA
98178,King County,WA,68.10344827586206,NA,NA
98204,Snohomish County,WA,22.06896551724138,NA,NA
98226,Whatcom County,WA,85.43103448275862,NA,NA
98252,Snohomish County,WA,NA,NA,93.56725146198829
98284,Skagit County,WA,36.29310344827586,NA,NA
98292,Snohomish County,WA,61.206896551724135,NA,NA
98387,Pierce County,WA,80.08620689655173,NA,NA
98408,Pierce County,WA,NA,84.14634146341463,NA
98503,Thurston County,WA,58.9655172413793,NA,NA
98661,Clark County,WA,35,NA,NA
98682,Clark County,WA,32.068965517241374,NA,NA
98802,Douglas County,WA,25.517241379310345,NA,NA
98901,Yakima County,WA,65,NA,NA
98932,Yakima County,WA,98.70689655172413,NA,NA
99114,Stevens County,WA,90.60344827586206,NA,NA
99208,Spokane County,WA,NA,NA,48.53801169590643
99301,Franklin County,WA,17.413793103448274,32.926829268292686,NA
99337,Benton County,WA,24.224137931034484,NA,NA
99352,Benton County,WA,NA,57.3170731707317,NA
20007,District of Columbia,DC,87.67241379310344,NA,NA
20016,District of Columbia,DC,79.05172413793103,NA,NA
20019,District of Columbia,DC,NA,NA,4.678362573099415
20032,District of Columbia,DC,9.224137931034484,NA,NA
24801,McDowell County,WV,NA,NA,97.6608187134503
25419,Berkeley County,WV,46.293103448275865,NA,NA
26041,Marshall County,WV,55.68965517241379,NA,NA
26062,Hancock County,WV,47.06896551724138,NA,NA
26105,Wood County,WV,NA,95.1219512195122,NA
26354,Taylor County,WV,47.758620689655174,NA,NA
26452,Lewis County,WV,83.01724137931035,NA,NA
26554,Marion County,WV,NA,NA,5.263157894736842
53128,Walworth County,WI,81.12068965517241,NA,NA
53132,Milwaukee County,WI,30.086206896551726,NA,NA
53144,Kenosha County,WI,NA,NA,23.391812865497073
53149,Waukesha County,WI,85.43103448275862,NA,NA
53154,Milwaukee County,WI,90.25862068965517,NA,NA
53158,Kenosha County,WI,40.94827586206897,75.91463414634147,29.82456140350877
53172,Milwaukee County,WI,60,NA,73.68421052631578
53181,Kenosha County,WI,53.275862068965516,NA,NA
53185,Racine County,WI,50.08620689655172,NA,NA
53189,Waukesha County,WI,78.36206896551724,NA,NA
53205,Milwaukee County,WI,30.086206896551726,NA,NA
53208,Milwaukee County,WI,57.758620689655174,NA,NA
53209,Milwaukee County,WI,45.17241379310345,NA,NA
53212,Milwaukee County,WI,19.051724137931032,79.26829268292683,17.543859649122805
53215,Milwaukee County,WI,1.6379310344827587,NA,NA
53216,Milwaukee County,WI,4.310344827586207,15.24390243902439,7.602339181286549
53217,Milwaukee County,WI,25.689655172413794,NA,NA
53218,Milwaukee County,WI,NA,12.5,NA
53219,Milwaukee County,WI,NA,90.2439024390244,NA
53233,Milwaukee County,WI,93.44827586206897,NA,NA
53405,Racine County,WI,NA,48.47560975609756,NA
53511,Rock County,WI,20.43103448275862,NA,NA
53546,Rock County,WI,38.275862068965516,NA,NA
53711,Dane County,WI,18.448275862068968,NA,NA
53818,Grant County,WI,81.29310344827586,NA,NA
54005,Polk County,WI,94.91379310344827,NA,NA
54110,Calumet County,WI,NA,NA,92.98245614035088
54140,Outagamie County,WI,91.55172413793103,NA,NA
54302,Brown County,WI,63.62068965517241,NA,NA
54304,Brown County,WI,49.56896551724138,NA,NA
54473,Portage County,WI,NA,NA,98.83040935672514
54476,Marathon County,WI,26.637931034482758,NA,NA
54481,Portage County,WI,33.36206896551724,NA,NA
54601,La Crosse County,WI,NA,34.146341463414636,NA
54603,La Crosse County,WI,60.775862068965516,NA,NA
54660,Monroe County,WI,NA,NA,59.64912280701754
54667,Vernon County,WI,91.89655172413794,NA,NA
54902,Winnebago County,WI,71.03448275862068,NA,NA
54956,Winnebago County,WI,8.362068965517242,NA,NA
