ZipCode,county,state,Adult,Retirement,Geriatric
35055,Cullman County,AL,NA,NA,64.70588235294117
35115,Shelby County,AL,NA,86.74698795180723,NA
35146,St. Clair County,AL,NA,69.07630522088354,NA
35217,Jefferson County,AL,NA,80.32128514056225,NA
35555,Fayette County,AL,NA,58.63453815261044,NA
35903,Etowah County,AL,54.60251046025104,33.33333333333333,NA
35951,Marshall County,AL,NA,NA,80.99547511312217
35954,Etowah County,AL,NA,56.22489959839358,NA
35960,Cherokee County,AL,69.24686192468619,NA,NA
35966,Jackson County,AL,NA,100,NA
35976,Marshall County,AL,NA,NA,59.72850678733032
36022,Elmore County,AL,NA,82.32931726907631,NA
36467,Covington County,AL,NA,NA,83.2579185520362
36732,Marengo County,AL,88.70292887029288,NA,NA
85013,Maricopa County,AZ,75.10460251046025,NA,NA
85140,Pinal County,AZ,34.30962343096235,NA,NA
85251,Maricopa County,AZ,39.74895397489539,NA,NA
85284,Maricopa County,AZ,74.05857740585773,NA,NA
85298,Maricopa County,AZ,66.73640167364016,NA,NA
85365,Yuma County,AZ,NA,NA,13.574660633484163
85367,Yuma County,AZ,NA,NA,12.217194570135746
85382,Maricopa County,AZ,NA,46.98795180722892,NA
85395,Maricopa County,AZ,69.8744769874477,NA,NA
85653,Pima County,AZ,95.81589958158996,NA,NA
85713,Pima County,AZ,NA,84.73895582329317,NA
85730,Pima County,AZ,58.57740585774059,NA,NA
85746,Pima County,AZ,NA,39.75903614457831,NA
85749,Pima County,AZ,NA,40.562248995983936,NA
85750,Pima County,AZ,64.64435146443515,NA,NA
86303,Yavapai County,AZ,62.34309623430963,NA,NA
86314,Yavapai County,AZ,NA,24.096385542168676,NA
86503,Apache County,AZ,64.01673640167364,NA,NA
71822,Little River County,AR,NA,NA,79.63800904977376
72143,White County,AR,86.61087866108787,NA,NA
72455,Randolph County,AR,78.66108786610879,NA,NA
72837,Pope County,AR,83.68200836820083,NA,NA
90004,Los Angeles County,CA,NA,NA,84.16289592760181
90028,Los Angeles County,CA,NA,NA,48.41628959276018
90036,Los Angeles County,CA,NA,NA,38.009049773755656
90038,Los Angeles County,CA,NA,NA,87.33031674208145
90049,Los Angeles County,CA,96.02510460251045,NA,NA
90220,Los Angeles County,CA,NA,NA,44.34389140271493
90266,Los Angeles County,CA,60.46025104602511,NA,NA
90605,Los Angeles County,CA,NA,73.89558232931726,NA
90640,Los Angeles County,CA,NA,NA,35.74660633484163
90720,Orange County,CA,NA,99.19678714859438,NA
91042,Los Angeles County,CA,NA,NA,82.80542986425338
91214,Los Angeles County,CA,78.03347280334728,NA,NA
91306,Los Angeles County,CA,NA,NA,55.203619909502265
91316,Los Angeles County,CA,NA,NA,30.316742081447963
91364,Los Angeles County,CA,NA,NA,51.13122171945701
91423,Los Angeles County,CA,NA,NA,57.01357466063348
91744,Los Angeles County,CA,50.836820083682014,27.710843373493976,NA
91752,Riverside County,CA,52.51046025104602,NA,NA
92040,San Diego County,CA,NA,NA,37.55656108597285
92054,San Diego County,CA,70.92050209205021,NA,NA
92078,San Diego County,CA,53.55648535564853,NA,NA
92102,San Diego County,CA,37.029288702928866,NA,NA
92103,San Diego County,CA,NA,50.20080321285141,NA
92120,San Diego County,CA,NA,71.4859437751004,NA
92203,Riverside County,CA,NA,NA,90.49773755656109
92260,Riverside County,CA,NA,NA,0.904977375565611
92320,Riverside County,CA,94.35146443514645,NA,NA
92503,Riverside County,CA,20.0836820083682,NA,NA
92620,Orange County,CA,42.88702928870293,NA,NA
92646,Orange County,CA,26.778242677824267,NA,NA
92688,Orange County,CA,35.77405857740586,NA,NA
92704,Orange County,CA,NA,NA,49.321266968325794
92804,Orange County,CA,15.062761506276152,NA,NA
92883,Riverside County,CA,99.3723849372385,NA,NA
93003,Ventura County,CA,NA,NA,21.266968325791854
93619,Fresno County,CA,NA,43.373493975903614,NA
93727,Fresno County,CA,NA,NA,42.081447963800905
94066,San Mateo County,CA,43.09623430962343,NA,NA
94107,San Francisco County,CA,NA,NA,56.56108597285068
94112,San Francisco County,CA,25.10460251046025,NA,NA
94123,San Francisco County,CA,61.08786610878661,NA,NA
94131,San Francisco County,CA,61.71548117154811,NA,NA
94132,San Francisco County,CA,94.97907949790795,NA,NA
94552,Alameda County,CA,89.3305439330544,NA,NA
94587,Alameda County,CA,NA,NA,19.004524886877828
95020,Santa Clara County,CA,31.380753138075313,NA,NA
95032,Santa Clara County,CA,NA,67.8714859437751,NA
95062,Santa Cruz County,CA,92.67782426778243,NA,NA
95125,Santa Clara County,CA,48.53556485355649,NA,NA
95228,Calaveras County,CA,NA,83.93574297188755,NA
95330,San Joaquin County,CA,77.61506276150628,NA,NA
95817,Sacramento County,CA,76.98744769874477,NA,NA
95823,Sacramento County,CA,13.179916317991633,NA,NA
96001,Shasta County,CA,22.594142259414227,NA,NA
96161,Nevada County,CA,97.07112970711297,NA,NA
80010,Arapahoe County,CO,18.619246861924683,NA,NA
80011,Arapahoe County,CO,51.46443514644351,NA,NA
80016,Arapahoe County,CO,24.05857740585774,NA,NA
80026,Boulder County,CO,59.62343096234309,50.602409638554214,NA
80304,Boulder County,CO,NA,65.46184738955823,NA
80525,Larimer County,CO,16.317991631799163,NA,NA
80538,Larimer County,CO,40.79497907949791,NA,NA
80620,Weld County,CO,43.30543933054393,NA,NA
80905,El Paso County,CO,94.14225941422593,NA,88.23529411764706
81212,Fremont County,CO,39.9581589958159,NA,NA
06002,Hartford County,CT,NA,NA,39.81900452488688
06032,Hartford County,CT,75.73221757322176,NA,NA
06051,Hartford County,CT,3.765690376569038,18.473895582329316,NA
06067,Hartford County,CT,65.48117154811716,NA,NA
06451,New Haven County,CT,NA,73.49397590361446,NA
06470,Fairfield County,CT,98.11715481171548,NA,NA
06488,New Haven County,CT,NA,38.95582329317269,14.93212669683258
06513,New Haven County,CT,22.80334728033473,NA,NA
06705,New Haven County,CT,NA,32.53012048192771,NA
06776,Litchfield County,CT,87.23849372384937,NA,NA
06790,Litchfield County,CT,NA,72.69076305220884,NA
06810,Fairfield County,CT,16.527196652719663,NA,NA
06850,Fairfield County,CT,NA,38.152610441767074,NA
06877,Fairfield County,CT,96.44351464435147,60.6425702811245,NA
06901,Fairfield County,CT,92.46861924686193,NA,NA
19947,Sussex County,DE,NA,NA,58.371040723981906
19958,Sussex County,DE,32.42677824267782,NA,14.027149321266968
19970,Sussex County,DE,NA,NA,63.80090497737556
32025,Columbia County,FL,37.65690376569037,NA,NA
32081,St. Johns County,FL,NA,NA,99.5475113122172
32118,Volusia County,FL,78.8702928870293,64.65863453815261,NA
32256,Duval County,FL,31.171548117154813,NA,NA
32308,Leon County,FL,70.50209205020921,NA,NA
32344,Jefferson County,FL,NA,NA,95.92760180995475
32571,Santa Rosa County,FL,14.644351464435147,NA,NA
32607,Alachua County,FL,19.874476987447697,NA,NA
32609,Alachua County,FL,NA,53.41365461847389,NA
32641,Alachua County,FL,NA,92.3694779116466,75.56561085972851
32714,Seminole County,FL,NA,NA,50.678733031674206
32738,Volusia County,FL,NA,37.34939759036144,NA
32905,Brevard County,FL,NA,NA,39.366515837104075
32907,Brevard County,FL,47.90794979079498,NA,NA
32920,Brevard County,FL,98.9539748953975,NA,NA
32967,Indian River County,FL,48.32635983263599,NA,NA
32976,Brevard County,FL,79.70711297071131,NA,NA
33016,Miami-Dade County,FL,NA,NA,30.316742081447963
33040,Monroe County,FL,NA,44.97991967871486,NA
33133,Miami-Dade County,FL,NA,41.76706827309237,NA
33137,Miami-Dade County,FL,NA,NA,69.23076923076923
33138,Miami-Dade County,FL,NA,NA,54.75113122171946
33186,Miami-Dade County,FL,NA,35.34136546184739,NA
33322,Broward County,FL,NA,NA,92.3076923076923
33437,Palm Beach County,FL,NA,NA,0.4524886877828055
33441,Broward County,FL,NA,63.05220883534136,NA
33563,Hillsborough County,FL,49.163179916317986,NA,NA
33598,Hillsborough County,FL,NA,70.68273092369478,NA
33617,Hillsborough County,FL,NA,NA,60.18099547511312
33705,Pinellas County,FL,29.288702928870293,NA,NA
33771,Pinellas County,FL,44.97907949790795,NA,NA
33801,Polk County,FL,24.476987447698743,NA,NA
33803,Polk County,FL,NA,NA,40.723981900452486
33810,Polk County,FL,27.824267782426777,NA,33.03167420814479
33825,Highlands County,FL,52.30125523012552,17.269076305220885,NA
33852,Highlands County,FL,NA,74.69879518072288,NA
33870,Highlands County,FL,NA,31.32530120481928,NA
33905,Lee County,FL,NA,26.907630522088354,NA
33914,Lee County,FL,NA,16.06425702811245,NA
33990,Lee County,FL,NA,41.365461847389554,67.87330316742081
34119,Collier County,FL,42.05020920502092,NA,NA
34203,Manatee County,FL,NA,21.285140562248998,NA
34205,Manatee County,FL,NA,NA,48.86877828054298
34210,Manatee County,FL,NA,65.86345381526104,NA
34221,Manatee County,FL,38.28451882845189,28.915662650602407,NA
34224,Charlotte County,FL,NA,60.24096385542169,NA
34609,Hernando County,FL,NA,26.506024096385545,NA
34613,Hernando County,FL,NA,NA,38.91402714932127
34667,Pasco County,FL,43.30543933054393,NA,NA
34691,Pasco County,FL,44.76987447698745,NA,NA
34785,Sumter County,FL,NA,NA,70.58823529411765
34947,St. Lucie County,FL,NA,81.52610441767068,NA
30011,Barrow County,GA,67.99163179916317,NA,NA
30014,Newton County,GA,27.615062761506277,NA,NA
30030,DeKalb County,GA,45.81589958158996,NA,NA
30084,DeKalb County,GA,60.66945606694561,NA,NA
30120,Bartow County,GA,21.548117154811717,NA,NA
30305,Fulton County,GA,76.77824267782427,NA,NA
30318,Fulton County,GA,NA,NA,38.46153846153847
30427,Tattnall County,GA,NA,90.76305220883533,NA
30457,Treutlen County,GA,NA,NA,96.83257918552036
30471,Emanuel County,GA,NA,98.39357429718876,NA
30904,Richmond County,GA,NA,19.27710843373494,NA
30907,Columbia County,GA,NA,11.244979919678714,NA
31061,Baldwin County,GA,NA,30.522088353413658,NA
31204,Bibb County,GA,NA,30.923694779116467,NA
31320,Liberty County,GA,NA,95.18072289156626,NA
31405,Chatham County,GA,NA,40.963855421686745,NA
31503,Ware County,GA,NA,NA,87.78280542986425
31707,Dougherty County,GA,NA,42.570281124497996,NA
31906,Muscogee County,GA,NA,NA,64.25339366515837
31907,Muscogee County,GA,NA,NA,3.619909502262444
96704,Hawaii County,HI,93.72384937238493,NA,NA
96706,Honolulu County,HI,11.715481171548117,NA,NA
96782,Honolulu County,HI,NA,26.104417670682732,NA
96818,Honolulu County,HI,53.13807531380753,NA,NA
83301,Twin Falls County,ID,3.3472803347280333,NA,NA
83406,Bonneville County,ID,62.55230125523013,NA,NA
83607,Canyon County,ID,67.15481171548117,NA,NA
83616,Ada County,ID,85.35564853556485,NA,NA
60067,Cook County,IL,NA,19.67871485943775,NA
60074,Cook County,IL,41.63179916317992,NA,NA
60076,Cook County,IL,44.56066945606695,NA,NA
60160,Cook County,IL,NA,NA,52.94117647058824
60302,Cook County,IL,NA,14.859437751004014,23.52941176470588
60428,Cook County,IL,NA,80.72289156626506,NA
60452,Cook County,IL,50.418410041841,NA,NA
60501,Cook County,IL,84.93723849372385,NA,NA
60546,Cook County,IL,NA,42.570281124497996,NA
60565,DuPage County,IL,61.92468619246861,NA,NA
60586,Will County,IL,NA,34.53815261044177,NA
60612,Cook County,IL,19.03765690376569,NA,NA
60614,Cook County,IL,23.640167364016737,NA,NA
60617,Cook County,IL,NA,2.4096385542168677,NA
60619,Cook County,IL,28.24267782426778,NA,NA
60634,Cook County,IL,35.56485355648535,NA,NA
60638,Cook County,IL,NA,8.032128514056225,NA
60641,Cook County,IL,14.225941422594143,NA,NA
60659,Cook County,IL,NA,NA,51.58371040723983
60707,Cook County,IL,NA,NA,11.312217194570136
60915,Kankakee County,IL,NA,61.044176706827315,NA
60970,Iroquois County,IL,NA,NA,86.42533936651584
61071,Whiteside County,IL,26.359832635983267,NA,NA
61081,Whiteside County,IL,NA,NA,29.411764705882355
61364,LaSalle County,IL,NA,NA,50.2262443438914
61443,Henry County,IL,60.25104602510461,NA,NA
61701,McLean County,IL,NA,64.2570281124498,NA
61704,McLean County,IL,38.07531380753138,NA,NA
61821,Champaign County,IL,NA,NA,15.837104072398189
61853,Champaign County,IL,NA,NA,36.199095022624434
61944,Edgar County,IL,NA,55.82329317269076,NA
62906,Union County,IL,NA,75.90361445783132,NA
46072,Tipton County,IN,NA,NA,68.77828054298642
46143,Johnson County,IN,55.43933054393305,NA,NA
46160,Brown County,IN,NA,85.54216867469879,NA
46229,Marion County,IN,NA,90.36144578313254,NA
46260,Marion County,IN,NA,NA,45.70135746606335
46307,Lake County,IN,29.497907949790797,NA,NA
46360,LaPorte County,IN,NA,4.016064257028113,NA
46514,Elkhart County,IN,NA,92.7710843373494,NA
46516,Elkhart County,IN,17.364016736401673,NA,NA
46975,Fulton County,IN,NA,NA,67.42081447963801
47025,Dearborn County,IN,NA,NA,63.348416289592755
47102,Scott County,IN,NA,NA,93.21266968325791
47129,Clark County,IN,53.13807531380753,NA,NA
47150,Floyd County,IN,56.06694560669456,NA,NA
47353,Union County,IN,NA,95.98393574297188,NA
47421,Lawrence County,IN,33.47280334728033,NA,NA
50010,Story County,IA,57.11297071129707,75.50200803212851,NA
50266,Polk County,IA,74.89539748953975,NA,NA
50317,Polk County,IA,12.343096234309623,NA,NA
50327,Polk County,IA,79.49790794979079,NA,NA
51103,Woodbury County,IA,49.58158995815899,NA,NA
52040,Dubuque County,IA,100,NA,NA
52240,Johnson County,IA,23.01255230125523,20.080321285140563,NA
52333,Johnson County,IA,NA,NA,98.19004524886877
52761,Muscatine County,IA,12.133891213389122,NA,NA
66103,Wyandotte County,KS,NA,82.73092369477911,NA
66616,Shawnee County,KS,89.5397489539749,NA,NA
67002,Butler County,KS,95.18828451882845,NA,NA
67401,Saline County,KS,22.384937238493723,NA,NA
67601,Ellis County,KS,NA,NA,8.597285067873303
67654,Norton County,KS,92.88702928870293,NA,NA
40220,Jefferson County,KY,NA,20.883534136546185,NA
40229,Jefferson County,KY,12.552301255230125,NA,NA
41005,Boone County,KY,NA,NA,66.06334841628959
41041,Fleming County,KY,71.54811715481172,NA,NA
41701,Perry County,KY,29.916317991631797,NA,NA
42330,Muhlenberg County,KY,66.52719665271967,NA,NA
42420,Henderson County,KY,NA,NA,25.339366515837103
42718,Taylor County,KY,NA,NA,12.669683257918551
70072,Jefferson Parish,LA,NA,23.293172690763054,NA
70075,St. Bernard Parish,LA,88.49372384937239,NA,NA
70117,Orleans Parish,LA,40.37656903765691,NA,NA
70301,Lafourche Parish,LA,NA,NA,22.171945701357465
70422,Tangipahoa Parish,LA,NA,44.57831325301205,NA
70437,St. Tammany Parish,LA,59.20502092050209,NA,NA
70454,Tangipahoa Parish,LA,NA,10.040160642570282,NA
70462,Livingston Parish,LA,NA,NA,91.8552036199095
70578,Acadia Parish,LA,NA,NA,73.303167420814475
70605,Calcasieu Parish,LA,18.410041841004183,NA,NA
71052,De Soto Parish,LA,36.82008368200837,NA,NA
71342,La Salle Parish,LA,NA,65.06024096385542,NA
71351,Avoyelles Parish,LA,NA,NA,74.6606334841629
04101,Cumberland County,ME,NA,97.59036144578313,NA
04103,Cumberland County,ME,68.82845188284519,NA,NA
04210,Androscoggin County,ME,18.828451882845187,NA,NA
04240,Androscoggin County,ME,1.6736401673640167,NA,NA
04330,Kennebec County,ME,26.98744769874477,5.622489959839357,NA
04401,Penobscot County,ME,54.18410041841004,NA,NA
04937,Somerset County,ME,56.69456066945606,NA,NA
20817,Montgomery County,MD,74.47698744769873,NA,NA
21074,Carroll County,MD,75.94142259414227,NA,NA
21078,Harford County,MD,NA,54.21686746987952,NA
21113,Anne Arundel County,MD,NA,NA,62.89592760180995
21213,Baltimore city,MD,51.67364016736402,NA,NA
21228,Baltimore County,MD,52.09205020920502,NA,NA
21236,Baltimore County,MD,NA,NA,32.57918552036199
21771,Frederick County,MD,62.13389121338913,NA,NA
01056,Hampden County,MA,16.94560669456067,NA,NA
01077,Hampden County,MA,66.10878661087865,NA,NA
01082,Hampshire County,MA,25.313807531380757,NA,NA
01119,Hampden County,MA,47.28033472803347,NA,NA
01550,Worcester County,MA,NA,24.497991967871485,NA
01603,Worcester County,MA,NA,2.0080321285140563,NA
01702,Middlesex County,MA,1.0460251046025104,NA,NA
01775,Middlesex County,MA,88.07531380753139,NA,NA
01776,Middlesex County,MA,NA,43.77510040160642,NA
01801,Middlesex County,MA,63.59832635983263,NA,NA
01824,Middlesex County,MA,NA,6.425702811244979,NA
01830,Essex County,MA,11.92468619246862,NA,NA
01840,Essex County,MA,NA,55.020080321285135,NA
01902,Essex County,MA,NA,NA,2.262443438914027
01906,Essex County,MA,2.7196652719665275,NA,NA
01923,Essex County,MA,3.1380753138075312,NA,NA
02019,Norfolk County,MA,NA,8.835341365461847,NA
02043,Plymouth County,MA,80.3347280334728,NA,NA
02081,Norfolk County,MA,NA,49.79919678714859,NA
02119,Suffolk County,MA,91.0041841004184,NA,NA
02121,Suffolk County,MA,0,NA,NA
02125,Suffolk County,MA,NA,32.1285140562249,NA
02126,Suffolk County,MA,NA,NA,60.633484162895925
02128,Suffolk County,MA,56.48535564853556,NA,NA
02131,Suffolk County,MA,85.77405857740585,NA,72.85067873303167
02132,Suffolk County,MA,12.761506276150628,NA,NA
02138,Middlesex County,MA,NA,NA,17.194570135746606
02140,Middlesex County,MA,NA,83.13253012048193,NA
02141,Middlesex County,MA,90.5857740585774,27.309236947791167,NA
02143,Middlesex County,MA,6.2761506276150625,NA,NA
02144,Middlesex County,MA,20.711297071129707,NA,NA
02148,Middlesex County,MA,0.20920502092050208,NA,NA
02149,Middlesex County,MA,8.99581589958159,NA,NA
02150,Suffolk County,MA,13.598326359832635,NA,NA
02155,Middlesex County,MA,NA,NA,71.04072398190046
02190,Norfolk County,MA,82.63598326359832,NA,NA
02191,Norfolk County,MA,60.66945606694561,NA,NA
02301,Plymouth County,MA,30.543933054393307,NA,NA
02333,Plymouth County,MA,94.76987447698745,NA,NA
02360,Plymouth County,MA,17.782426778242677,17.670682730923694,35.294117647058826
02382,Plymouth County,MA,NA,94.77911646586345,NA
02445,Norfolk County,MA,86.19246861924687,NA,NA
02451,Middlesex County,MA,25.94142259414226,NA,NA
02458,Middlesex County,MA,NA,NA,81.44796380090497
02467,Norfolk County,MA,NA,32.93172690763052,NA
02476,Middlesex County,MA,NA,79.51807228915662,NA
02478,Middlesex County,MA,24.267782426778243,NA,NA
02481,Norfolk County,MA,97.69874476987448,NA,NA
02648,Barnstable County,MA,72.80334728033473,NA,NA
02720,Bristol County,MA,45.39748953974895,NA,2.7149321266968327
02740,Bristol County,MA,NA,0,NA
02743,Bristol County,MA,NA,NA,79.18552036199095
02746,Bristol County,MA,15.271966527196653,NA,NA
02769,Bristol County,MA,NA,59.43775100401606,NA
02777,Bristol County,MA,51.88284518828452,NA,NA
48021,Macomb County,MI,11.297071129707113,NA,NA
48035,Macomb County,MI,10.87866108786611,NA,NA
48038,Macomb County,MI,14.01673640167364,NA,NA
48045,Macomb County,MI,NA,NA,42.53393665158371
48066,Macomb County,MI,NA,NA,41.17647058823529
48071,Oakland County,MI,26.569037656903767,NA,NA
48075,Oakland County,MI,93.09623430962343,NA,NA
48080,Macomb County,MI,NA,14.056224899598394,NA
48089,Macomb County,MI,30.334728033472803,24.899598393574294,NA
48092,Macomb County,MI,NA,22.89156626506024,NA
48105,Washtenaw County,MI,NA,16.46586345381526,NA
48116,Livingston County,MI,28.870292887029287,NA,NA
48154,Wayne County,MI,NA,NA,5.429864253393665
48162,Monroe County,MI,41.004184100418414,NA,NA
48168,Wayne County,MI,NA,NA,37.10407239819005
48185,Wayne County,MI,NA,NA,8.144796380090497
48197,Washtenaw County,MI,1.882845188284519,NA,NA
48207,Wayne County,MI,NA,NA,24.8868778280543
48219,Wayne County,MI,5.648535564853557,NA,NA
48220,Oakland County,MI,NA,NA,85.97285067873304
48224,Wayne County,MI,NA,NA,61.53846153846154
48226,Wayne County,MI,NA,NA,94.11764705882352
48227,Wayne County,MI,NA,NA,29.86425339366516
48239,Wayne County,MI,NA,NA,46.15384615384615
48302,Oakland County,MI,67.36401673640168,48.99598393574297,NA
48312,Macomb County,MI,NA,NA,9.95475113122172
48316,Macomb County,MI,NA,46.58634538152611,NA
48324,Oakland County,MI,NA,57.028112449799195,NA
48336,Oakland County,MI,NA,NA,34.841628959276015
48375,Oakland County,MI,NA,NA,58.82352941176471
48442,Oakland County,MI,48.74476987447699,NA,NA
48723,Tuscola County,MI,NA,NA,49.7737556561086
48739,Iosco County,MI,82.84518828451883,NA,NA
48813,Eaton County,MI,37.44769874476987,NA,NA
48842,Ingham County,MI,NA,40.16064257028113,NA
48906,Ingham County,MI,NA,51.80722891566265,NA
48910,Ingham County,MI,NA,NA,74.2081447963801
49010,Allegan County,MI,42.67782426778243,NA,NA
49013,Van Buren County,MI,NA,NA,89.14027149321268
49091,St. Joseph County,MI,NA,38.55421686746988,NA
49201,Jackson County,MI,10.0418410041841,NA,NA
49415,Muskegon County,MI,83.26359832635984,NA,NA
49418,Kent County,MI,NA,28.11244979919679,NA
49686,Grand Traverse County,MI,73.43096234309623,NA,NA
49783,Chippewa County,MI,NA,NA,92.76018099547511
55021,Rice County,MN,36.61087866108787,NA,NA
55025,Washington County,MN,55.23012552301255,NA,NA
55051,Kanabec County,MN,95.39748953974896,NA,NA
55066,Goodhue County,MN,45.60669456066946,NA,NA
55075,Dakota County,MN,82.42677824267783,NA,NA
55082,Washington County,MN,32.21757322175732,NA,NA
55101,Ramsey County,MN,31.799163179916317,NA,NA
55106,Ramsey County,MN,29.079497907949794,NA,NA
55109,Ramsey County,MN,NA,NA,71.94570135746606
55112,Ramsey County,MN,NA,78.3132530120482,25.791855203619914
55113,Ramsey County,MN,NA,NA,28.95927601809955
55116,Ramsey County,MN,63.80753138075313,NA,NA
55118,Dakota County,MN,NA,NA,28.50678733031674
55119,Ramsey County,MN,14.435146443514643,NA,47.511312217194565
55122,Dakota County,MN,NA,63.45381526104418,NA
55125,Washington County,MN,40.58577405857741,51.00401606425703,NA
55127,Ramsey County,MN,84.51882845188284,NA,NA
55337,Dakota County,MN,32.42677824267782,NA,NA
55350,McLeod County,MN,NA,97.99196787148594,NA
55369,Hennepin County,MN,33.26359832635983,NA,NA
55398,Sherburne County,MN,NA,86.34538152610442,NA
55404,Hennepin County,MN,NA,45.38152610441767,NA
55412,Hennepin County,MN,32.00836820083682,NA,NA
55414,Hennepin County,MN,NA,76.30522088353415,NA
55415,Hennepin County,MN,67.36401673640168,NA,NA
55418,Hennepin County,MN,82.21757322175732,70.28112449799197,NA
55420,Hennepin County,MN,NA,57.42971887550201,NA
55427,Hennepin County,MN,78.24267782426779,NA,NA
55428,Hennepin County,MN,19.456066945606697,NA,NA
55431,Hennepin County,MN,NA,NA,76.01809954751131
55433,Anoka County,MN,90.1673640167364,NA,NA
55448,Anoka County,MN,NA,59.83935742971887,NA
55744,Itasca County,MN,NA,6.827309236947792,NA
55947,Houston County,MN,98.74476987447699,NA,NA
55987,Winona County,MN,9.414225941422593,3.2128514056224895,NA
56442,Crow Wing County,MN,NA,NA,69.68325791855203
56537,Otter Tail County,MN,50.627615062761514,NA,NA
38732,Bolivar County,MS,NA,74.29718875502009,NA
38901,Grenada County,MS,NA,NA,47.05882352941176
39056,Hinds County,MS,NA,69.47791164658635,NA
39157,Madison County,MS,NA,NA,70.13574660633483
39183,Warren County,MS,61.50627615062761,NA,NA
39206,Hinds County,MS,NA,49.39759036144578,NA
39443,Jones County,MS,NA,NA,56.10859728506787
39563,Jackson County,MS,NA,54.61847389558233,NA
39565,Jackson County,MS,NA,NA,76.92307692307693
63114,St. Louis County,MO,NA,NA,42.98642533936652
63116,St. Louis city,MO,33.47280334728033,NA,NA
63118,St. Louis city,MO,91.84100418410041,NA,NA
63119,St. Louis County,MO,63.38912133891213,NA,NA
63125,St. Louis County,MO,NA,NA,18.099547511312217
63147,St. Louis city,MO,57.94979079497908,NA,NA
63303,St. Charles County,MO,54.811715481171554,NA,NA
63383,Warren County,MO,NA,46.1847389558233,NA
63385,St. Charles County,MO,NA,13.654618473895583,NA
63841,Stoddard County,MO,NA,NA,66.9683257918552
63901,Butler County,MO,91.42259414225941,NA,NA
64106,Jackson County,MO,28.661087866108787,NA,NA
64112,Jackson County,MO,72.59414225941423,NA,NA
64128,Jackson County,MO,20.502092050209207,NA,NA
64133,Jackson County,MO,4.811715481171548,NA,NA
64505,Buchanan County,MO,30.125523012552303,NA,NA
64671,Caldwell County,MO,99.581589958159,NA,NA
64701,Cass County,MO,42.25941422594142,NA,NA
65201,Boone County,MO,88.91213389121339,NA,NA
65202,Boone County,MO,37.238493723849366,NA,NA
65203,Boone County,MO,80.1255230125523,44.17670682730924,NA
65233,Cooper County,MO,NA,94.37751004016064,NA
65301,Pettis County,MO,4.393305439330543,NA,NA
65355,Benton County,MO,52.719665271966534,NA,NA
59101,Yellowstone County,MT,38.49372384937239,NA,NA
59860,Lake County,MT,NA,47.791164658634536,NA
68123,Sarpy County,NE,NA,47.389558232931726,NA
68127,Douglas County,NE,64.22594142259415,NA,NA
68521,Lancaster County,NE,60.04184100418411,NA,NA
89108,Clark County,NV,23.430962343096233,NA,NA
89115,Clark County,NV,NA,NA,86.87782805429865
89120,Clark County,NV,73.64016736401673,NA,NA
89123,Clark County,NV,NA,36.144578313253014,NA
89148,Clark County,NV,71.96652719665272,NA,NA
03079,Rockingham County,NH,NA,NA,31.674208144796378
03087,Rockingham County,NH,85.56485355648536,NA,NA
03868,Strafford County,NH,NA,NA,80.54298642533936
07002,Hudson County,NJ,NA,NA,13.122171945701359
07013,Passaic County,NJ,NA,NA,57.466063348416284
07032,Hudson County,NJ,22.17573221757322,NA,NA
07071,Bergen County,NJ,84.30962343096235,NA,NA
07073,Bergen County,NJ,83.05439330543933,NA,NA
07092,Union County,NJ,94.56066945606695,NA,NA
07110,Essex County,NJ,71.1297071129707,NA,NA
07304,Hudson County,NJ,NA,62.65060240963856,NA
07444,Morris County,NJ,NA,NA,43.43891402714932
07470,Passaic County,NJ,NA,NA,5.88235294117647
07481,Bergen County,NJ,69.4560669456067,NA,NA
07601,Bergen County,NJ,58.995815899581594,NA,24.43438914027149
07621,Bergen County,NJ,NA,62.24899598393574,NA
07652,Bergen County,NJ,NA,77.51004016064257,NA
07719,Monmouth County,NJ,NA,NA,84.61538461538461
07722,Monmouth County,NJ,86.19246861924687,NA,NA
07724,Monmouth County,NJ,28.03347280334728,NA,NA
07728,Monmouth County,NJ,NA,NA,4.072398190045249
07732,Monmouth County,NJ,97.28033472803347,NA,NA
07850,Morris County,NJ,89.7489539748954,NA,NA
07922,Union County,NJ,93.93305439330544,NA,NA
08002,Camden County,NJ,NA,NA,43.89140271493213
08012,Camden County,NJ,NA,NA,47.963800904977376
08028,Gloucester County,NJ,NA,NA,71.49321266968326
08030,Camden County,NJ,23.221757322175733,NA,NA
08051,Gloucester County,NJ,NA,97.18875502008032,NA
08057,Burlington County,NJ,59.41422594142259,NA,NA
08103,Camden County,NJ,23.84937238493724,NA,NA
08105,Camden County,NJ,9.832635983263598,NA,NA
08518,Burlington County,NJ,80.75313807531381,NA,NA
08527,Ocean County,NJ,32.84518828451883,NA,NA
08610,Mercer County,NJ,NA,79.11646586345381,NA
08721,Ocean County,NJ,57.74058577405857,NA,NA
08753,Ocean County,NJ,2.301255230125523,NA,NA
08816,Middlesex County,NJ,NA,NA,44.79638009049774
87104,Bernalillo County,NM,NA,75.1004016064257,NA
87105,Bernalillo County,NM,3.9748953974895396,NA,NA
87109,Bernalillo County,NM,NA,51.40562248995983,NA
87111,Bernalillo County,NM,NA,63.85542168674698,NA
87114,Bernalillo County,NM,NA,15.66265060240964,NA
87144,Sandoval County,NM,NA,NA,57.466063348416284
87301,McKinley County,NM,NA,59.036144578313255,NA
87313,McKinley County,NM,75.31380753138075,NA,NA
87507,Santa Fe County,NM,30.962343096234306,NA,NA
88063,Doa Ana County,NM,66.94560669456067,NA,NA
10001,New York County,NY,NA,4.819277108433735,NA
10002,New York County,NY,NA,2.8112449799196786,NA
10011,New York County,NY,NA,NA,17.647058823529413
10022,New York County,NY,NA,NA,31.221719457013574
10025,New York County,NY,6.485355648535565,NA,NA
10026,New York County,NY,25.523012552301257,NA,NA
10029,New York County,NY,NA,0.4016064257028112,NA
10033,New York County,NY,NA,NA,19.90950226244344
10038,New York County,NY,72.38493723849372,NA,NA
10306,Richmond County,NY,19.246861924686193,53.01204819277109,NA
10308,Richmond County,NY,NA,96.78714859437751,NA
10309,Richmond County,NY,58.36820083682008,NA,NA
10312,Richmond County,NY,NA,25.702811244979916,NA
10314,Richmond County,NY,12.97071129707113,NA,NA
10451,Bronx County,NY,2.510460251046025,NA,NA
10452,Bronx County,NY,0.41841004184100417,NA,NA
10455,Bronx County,NY,NA,10.441767068273093,NA
10457,Bronx County,NY,NA,7.228915662650602,NA
10459,Bronx County,NY,NA,9.236947791164658,NA
10460,Bronx County,NY,NA,58.23293172690763,NA
10467,Bronx County,NY,5.230125523012552,NA,NA
10469,Bronx County,NY,NA,NA,4.97737556561086
10589,Westchester County,NY,NA,NA,55.65610859728507
10977,Rockland County,NY,76.56903765690377,NA,NA
10984,Rockland County,NY,96.86192468619247,NA,NA
11001,Nassau County,NY,NA,NA,77.37556561085974
11003,Nassau County,NY,55.64853556485355,NA,NA
11050,Nassau County,NY,NA,55.42168674698795,NA
11102,Queens County,NY,NA,99.59839357429718,NA
11204,Kings County,NY,NA,NA,7.239819004524888
11206,Kings County,NY,46.44351464435147,NA,NA
11208,Kings County,NY,NA,0.8032128514056224,NA
11209,Kings County,NY,30.753138075313807,NA,NA
11211,Kings County,NY,NA,NA,21.71945701357466
11214,Kings County,NY,46.86192468619247,NA,NA
11215,Kings County,NY,NA,89.1566265060241,NA
11219,Kings County,NY,NA,NA,16.7420814479638
11220,Kings County,NY,75.52301255230127,NA,NA
11222,Kings County,NY,NA,87.14859437751004,NA
11226,Kings County,NY,93.51464435146444,NA,NA
11237,Kings County,NY,69.6652719665272,NA,NA
11367,Queens County,NY,72.17573221757321,NA,NA
11420,Queens County,NY,NA,NA,93.66515837104072
11422,Queens County,NY,NA,84.33734939759037,NA
11423,Queens County,NY,NA,48.19277108433735,NA
11520,Nassau County,NY,96.65271966527197,NA,NA
11554,Nassau County,NY,87.65690376569037,NA,NA
11558,Nassau County,NY,99.7907949790795,NA,NA
11577,Nassau County,NY,88.28451882845188,NA,NA
11691,Queens County,NY,NA,NA,95.47511312217195
11703,Suffolk County,NY,NA,77.91164658634538,NA
11746,Suffolk County,NY,NA,NA,10.85972850678733
11763,Suffolk County,NY,44.35146443514644,NA,NA
11766,Suffolk County,NY,NA,NA,83.710407239819
11901,Suffolk County,NY,51.04602510460251,NA,NA
12010,Montgomery County,NY,NA,4.417670682730924,NA
12078,Fulton County,NY,53.76569037656904,NA,NA
12188,Saratoga County,NY,76.15062761506276,NA,NA
12204,Albany County,NY,NA,87.55020080321285,NA
12210,Albany County,NY,NA,85.94377510040161,NA
12771,Orange County,NY,64.85355648535564,NA,NA
12962,Clinton County,NY,61.08786610878661,NA,NA
12986,Franklin County,NY,NA,77.10843373493977,NA
13069,Oswego County,NY,NA,11.646586345381527,NA
13126,Oswego County,NY,3.556485355648536,NA,NA
13131,Oswego County,NY,NA,95.58232931726907,NA
13142,Oswego County,NY,65.06276150627615,NA,NA
13669,St. Lawrence County,NY,NA,23.694779116465863,NA
13733,Chenango County,NY,65.69037656903765,NA,NA
13790,Broome County,NY,NA,7.630522088353414,NA
14068,Erie County,NY,NA,88.35341365461848,NA
14070,Erie County,NY,NA,89.95983935742971,NA
14086,Erie County,NY,20.292887029288703,NA,NA
14094,Niagara County,NY,1.4644351464435146,1.2048192771084338,NA
14211,Erie County,NY,9.623430962343097,NA,NA
14225,Erie County,NY,82.00836820083683,NA,NA
14420,Monroe County,NY,46.02510460251046,NA,NA
14456,Ontario County,NY,8.158995815899582,NA,NA
14468,Monroe County,NY,49.7907949790795,NA,NA
14519,Wayne County,NY,NA,28.514056224899598,NA
14559,Monroe County,NY,57.53138075313807,NA,NA
14568,Wayne County,NY,89.9581589958159,NA,NA
14617,Monroe County,NY,7.322175732217573,NA,NA
14618,Monroe County,NY,NA,NA,20.81447963800905
14623,Monroe County,NY,91.21338912133892,22.48995983935743,NA
14760,Cattaraugus County,NY,10.460251046025103,NA,NA
27239,Davidson County,NC,64.43514644351464,NA,NA
27258,Alamance County,NC,NA,81.92771084337349,NA
27410,Guilford County,NC,NA,14.457831325301203,NA
27530,Wayne County,NC,15.481171548117153,NA,NA
27546,Harnett County,NC,92.25941422594143,NA,NA
27886,Edgecombe County,NC,35.146443514644346,NA,NA
27944,Perquimans County,NC,62.76150627615063,NA,NA
28326,Harnett County,NC,77.61506276150628,NA,NA
28387,Moore County,NC,71.75732217573221,NA,NA
28403,New Hanover County,NC,39.33054393305439,NA,NA
28463,Columbus County,NC,69.0376569037657,NA,NA
28625,Iredell County,NC,17.154811715481173,NA,NA
28655,Burke County,NC,6.066945606694561,3.614457831325301,NA
28677,Iredell County,NC,16.10878661087866,NA,NA
28681,Alexander County,NC,20.920502092050206,NA,NA
28739,Henderson County,NC,NA,13.253012048192772,NA
28791,Henderson County,NC,NA,NA,20.361990950226243
58103,Cass County,ND,87.44769874476988,1.6064257028112447,NA
58401,Stutsman County,ND,68.41004184100419,NA,NA
58503,Burleigh County,ND,83.89121338912135,NA,NA
58554,Morton County,ND,NA,29.31726907630522,NA
43015,Delaware County,OH,NA,6.024096385542169,NA
43062,Licking County,OH,34.51882845188285,NA,NA
43125,Franklin County,OH,NA,NA,78.28054298642535
43130,Fairfield County,OH,1.2552301255230125,NA,NA
43147,Fairfield County,OH,24.89539748953975,NA,NA
43204,Franklin County,OH,5.857740585774058,NA,NA
43205,Franklin County,OH,44.97907949790795,NA,NA
43209,Franklin County,OH,49.37238493723849,NA,NA
43221,Franklin County,OH,63.17991631799163,NA,NA
43228,Franklin County,OH,2.928870292887029,NA,NA
43229,Franklin County,OH,6.903765690376569,NA,NA
43232,Franklin County,OH,NA,15.261044176706829,NA
43512,Defiance County,OH,4.602510460251046,NA,NA
43526,Defiance County,OH,46.23430962343097,NA,NA
43615,Lucas County,OH,NA,NA,9.049773755656108
44004,Ashtabula County,OH,44.14225941422594,NA,NA
44060,Lake County,OH,7.531380753138076,NA,NA
44087,Summit County,OH,99.16317991631799,16.867469879518072,NA
44105,Cuyahoga County,OH,6.694560669456067,NA,NA
44120,Cuyahoga County,OH,50.2092050209205,22.08835341365462,NA
44124,Cuyahoga County,OH,56.903765690376574,NA,NA
44125,Cuyahoga County,OH,NA,9.63855421686747,NA
44128,Cuyahoga County,OH,NA,NA,1.809954751131222
44131,Cuyahoga County,OH,41.84100418410041,NA,NA
44133,Cuyahoga County,OH,27.19665271966527,NA,NA
44145,Cuyahoga County,OH,17.99163179916318,NA,NA
44202,Portage County,OH,NA,83.53413654618474,NA
44224,Summit County,OH,NA,NA,11.76470588235294
44231,Portage County,OH,NA,NA,94.57013574660633
44256,Medina County,OH,4.184100418410042,NA,NA
44266,Portage County,OH,NA,5.220883534136546,NA
44281,Medina County,OH,68.20083682008368,NA,NA
44286,Summit County,OH,90.7949790794979,NA,NA
44306,Summit County,OH,34.72803347280335,NA,NA
44406,Mahoning County,OH,78.45188284518828,NA,NA
44413,Columbiana County,OH,NA,69.87951807228916,NA
44460,Columbiana County,OH,21.338912133891213,NA,NA
44483,Trumbull County,OH,16.736401673640167,NA,NA
44515,Mahoning County,OH,11.08786610878661,NA,NA
44646,Stark County,OH,33.054393305439326,NA,NA
44805,Ashland County,OH,13.807531380753138,NA,NA
44883,Seneca County,OH,NA,NA,26.244343891402718
44907,Richland County,OH,NA,NA,44.79638009049774
45011,Butler County,OH,NA,NA,14.479638009049776
45039,Warren County,OH,48.95397489539749,NA,NA
45044,Butler County,OH,NA,12.851405622489958,NA
45069,Butler County,OH,NA,NA,18.552036199095024
45133,Highland County,OH,NA,NA,62.44343891402715
45140,Clermont County,OH,NA,NA,27.601809954751133
45150,Clermont County,OH,35.35564853556485,NA,NA
45220,Hamilton County,OH,NA,85.14056224899599,NA
45231,Hamilton County,OH,8.577405857740587,NA,NA
45233,Hamilton County,OH,NA,NA,95.02262443438913
45237,Hamilton County,OH,NA,NA,85.52036199095022
45241,Hamilton County,OH,NA,NA,52.03619909502263
45246,Hamilton County,OH,NA,66.66666666666666,NA
45385,Greene County,OH,NA,NA,9.502262443438914
45459,Montgomery County,OH,NA,NA,22.624434389140273
45619,Lawrence County,OH,28.451882845188287,NA,NA
45680,Lawrence County,OH,41.21338912133891,NA,NA
45822,Mercer County,OH,NA,NA,27.149321266968325
45875,Putnam County,OH,NA,98.79518072289156,NA
73139,Oklahoma County,OK,NA,61.44578313253012,NA
73507,Comanche County,OK,NA,NA,33.93665158371041
74006,Washington County,OK,NA,NA,36.65158371040724
74014,Wagoner County,OK,34.93723849372385,NA,NA
74344,Delaware County,OK,71.33891213389121,NA,NA
74948,Sequoyah County,OK,NA,78.714859437751,NA
97013,Clackamas County,OR,81.3807531380753,NA,NA
97217,Multnomah County,OR,40.1673640167364,NA,NA
97230,Multnomah County,OR,NA,NA,19.457013574660635
97415,Curry County,OR,NA,NA,65.61085972850678
97527,Josephine County,OR,43.93305439330544,NA,NA
97601,Klamath County,OR,17.573221757322173,NA,NA
15068,Westmoreland County,PA,NA,NA,4.524886877828054
15090,Allegheny County,PA,NA,71.08433734939759,NA
15146,Allegheny County,PA,47.48953974895397,NA,NA
15210,Allegheny County,PA,15.690376569037657,NA,NA
15215,Allegheny County,PA,79.07949790794979,NA,NA
15219,Allegheny County,PA,97.48953974895397,NA,NA
15227,Allegheny County,PA,36.40167364016737,NA,97.28506787330316
15239,Allegheny County,PA,80.3347280334728,NA,NA
15301,Washington County,PA,7.112970711297072,NA,NA
15601,Westmoreland County,PA,21.12970711297071,NA,NA
15642,Westmoreland County,PA,NA,96.3855421686747,NA
15857,Elk County,PA,NA,NA,10.407239819004525
15963,Somerset County,PA,62.97071129707113,NA,NA
16001,Butler County,PA,NA,18.072289156626507,NA
16148,Mercer County,PA,47.69874476987448,NA,NA
16441,Erie County,PA,76.35983263598327,NA,NA
16509,Erie County,PA,NA,35.7429718875502,NA
16830,Clearfield County,PA,59.83263598326359,NA,NA
16833,Clearfield County,PA,NA,NA,76.47058823529412
17036,Dauphin County,PA,24.476987447698743,NA,NA
17050,Cumberland County,PA,NA,NA,26.69683257918552
17322,York County,PA,NA,89.5582329317269,NA
17362,York County,PA,85.98326359832636,NA,NA
17408,York County,PA,NA,68.27309236947792,NA
17751,Clinton County,PA,NA,NA,73.7556561085973
17815,Columbia County,PA,NA,10.843373493975903,NA
18031,Lehigh County,PA,74.05857740585773,NA,NA
18062,Lehigh County,PA,NA,34.13654618473896,NA
18102,Lehigh County,PA,0.6276150627615062,NA,NA
18229,Carbon County,PA,68.41004184100419,NA,NA
18644,Luzerne County,PA,NA,NA,82.35294117647058
18702,Luzerne County,PA,NA,NA,6.787330316742081
18974,Bucks County,PA,NA,12.048192771084338,NA
19007,Bucks County,PA,25.732217573221757,NA,NA
19020,Bucks County,PA,8.786610878661087,NA,NA
19124,Philadelphia County,PA,0.8368200836820083,NA,NA
19140,Philadelphia County,PA,2.092050209205021,NA,NA
19342,Delaware County,PA,NA,NA,33.4841628959276
19380,Chester County,PA,NA,66.26506024096386,53.39366515837104
19446,Montgomery County,PA,NA,NA,7.6923076923076925
02860,Providence County,RI,7.949790794979079,NA,NA
02874,Washington County,RI,NA,93.57429718875501,NA
02904,Providence County,RI,31.589958158995817,73.09236947791165,NA
29036,Lexington County,SC,NA,NA,74.6606334841629
29161,Florence County,SC,67.78242677824268,NA,NA
29406,Charleston County,SC,57.32217573221757,NA,NA
29420,Dorchester County,SC,47.90794979079498,NA,NA
29690,Greenville County,SC,38.912133891213394,NA,NA
29812,Barnwell County,SC,81.17154811715481,NA,NA
57078,Yankton County,SD,66.31799163179917,NA,NA
57105,Minnehaha County,SD,46.65271966527197,12.449799196787147,NA
57703,Pennington County,SD,NA,NA,98.64253393665159
37015,Cheatham County,TN,NA,NA,90.04524886877829
37042,Montgomery County,TN,NA,NA,59.276018099547514
37075,Sumner County,TN,NA,36.54618473895582,NA
37076,Davidson County,TN,33.89121338912134,NA,NA
37146,Cheatham County,TN,NA,NA,100
37167,Rutherford County,TN,NA,NA,41.6289592760181
37203,Davidson County,TN,NA,67.46987951807229,NA
37211,Davidson County,TN,19.456066945606697,NA,NA
37214,Davidson County,TN,NA,NA,67.87330316742081
37620,Sullivan County,TN,13.389121338912133,NA,NA
37665,Sullivan County,TN,90.3765690376569,NA,NA
37716,Anderson County,TN,36.19246861924686,NA,NA
37803,Blount County,TN,NA,NA,23.076923076923077
37818,Greene County,TN,77.19665271966527,NA,NA
37830,Anderson County,TN,84.72803347280335,NA,NA
37918,Knox County,TN,14.853556485355648,NA,NA
37919,Knox County,TN,NA,37.75100401606426,NA
37920,Knox County,TN,NA,53.81526104417671,NA
37934,Knox County,TN,NA,NA,53.84615384615385
38075,Hardeman County,TN,98.5355648535565,NA,NA
38301,Madison County,TN,10.251046025104603,NA,NA
38464,Lawrence County,TN,NA,33.734939759036145,NA
75021,Grayson County,TX,84.10041841004184,NA,NA
75034,Denton County,TX,NA,29.71887550200803,NA
75075,Collin County,TX,NA,NA,54.29864253393665
75156,Henderson County,TX,91.63179916317992,NA,NA
75209,Dallas County,TX,85.14644351464436,NA,NA
75230,Dallas County,TX,87.02928870292888,NA,NA
75234,Dallas County,TX,NA,NA,52.488687782805435
75605,Gregg County,TX,52.719665271966534,NA,NA
75650,Harrison County,TX,NA,93.17269076305222,NA
75935,Shelby County,TX,NA,79.91967871485943,NA
76109,Tarrant County,TX,56.27615062761506,NA,NA
76205,Denton County,TX,95.60669456066945,NA,NA
76208,Denton County,TX,58.78661087866108,NA,NA
76210,Denton County,TX,79.2887029288703,NA,NA
76513,Bell County,TX,9.205020920502092,NA,NA
76522,Coryell County,TX,NA,NA,15.384615384615385
76549,Bell County,TX,55.020920502092054,NA,NA
77021,Harris County,TX,89.1213389121339,NA,NA
77027,Harris County,TX,NA,91.96787148594377,NA
77057,Harris County,TX,65.06276150627615,NA,NA
77065,Harris County,TX,NA,NA,77.82805429864254
77093,Harris County,TX,NA,NA,61.085972850678736
77099,Harris County,TX,NA,38.95582329317269,NA
77375,Harris County,TX,53.97489539748954,NA,NA
77386,Montgomery County,TX,77.40585774058577,NA,NA
77471,Fort Bend County,TX,37.65690376569037,NA,NA
77480,Brazoria County,TX,NA,81.12449799196787,NA
77515,Brazoria County,TX,NA,34.93975903614458,NA
77535,Liberty County,TX,NA,48.59437751004016,NA
77550,Galveston County,TX,NA,NA,6.334841628959276
77642,Jefferson County,TX,73.84937238493724,NA,NA
77801,Brazos County,TX,97.90794979079497,NA,NA
77845,Brazos County,TX,10.669456066945607,NA,NA
77979,Calhoun County,TX,NA,93.97590361445783,NA
78207,Bexar County,TX,21.75732217573222,NA,NA
78220,Bexar County,TX,NA,NA,88.68778280542986
78380,Nueces County,TX,NA,NA,89.59276018099548
78412,Nueces County,TX,86.82008368200836,NA,NA
78415,Nueces County,TX,NA,52.610441767068274,NA
79336,Hockley County,TX,NA,NA,72.39819004524887
79605,Taylor County,TX,96.02510460251045,NA,NA
79705,Midland County,TX,NA,36.94779116465863,NA
79901,El Paso County,TX,87.86610878661088,NA,NA
79907,El Paso County,TX,NA,56.62650602409639,NA
79912,El Paso County,TX,27.405857740585777,NA,NA
84003,Utah County,UT,42.46861924686193,NA,NA
84032,Wasatch County,UT,NA,NA,81.90045248868778
84044,Salt Lake County,UT,70.7112970711297,NA,NA
84054,Davis County,UT,69.8744769874477,NA,NA
84403,Weber County,UT,NA,61.84738955823293,NA
84404,Weber County,UT,21.96652719665272,NA,NA
84737,Washington County,UT,79.9163179916318,NA,NA
05443,Addison County,VT,NA,NA,97.73755656108597
05478,Franklin County,VT,54.18410041841004,NA,NA
20165,Loudoun County,VA,65.89958158995816,NA,NA
20171,Fairfax County,VA,51.25523012552301,NA,NA
22193,Prince William County,VA,NA,18.87550200803213,NA
22203,Arlington County,VA,NA,76.70682730923694,NA
22310,Fairfax County,VA,NA,NA,78.73303167420815
22401,Fredericksburg city,VA,NA,72.28915662650603,NA
22556,Stafford County,VA,91.84100418410041,NA,NA
22802,Harrisonburg city,VA,NA,52.208835341365464,NA
22911,Albemarle County,VA,NA,NA,34.38914027149321
23112,Chesterfield County,VA,NA,NA,46.60633484162896
23113,Chesterfield County,VA,81.79916317991632,NA,NA
23455,Virginia Beach city,VA,NA,NA,1.3574660633484164
23505,Norfolk city,VA,80.9623430962343,NA,NA
23831,Chesterfield County,VA,35.98326359832636,NA,NA
24015,Roanoke city,VA,NA,NA,96.38009049773756
24018,Roanoke County,VA,73.01255230125523,NA,NA
24078,Henry County,VA,81.3807531380753,NA,NA
24179,Roanoke County,VA,NA,NA,84.61538461538461
24244,Scott County,VA,NA,NA,90.9502262443439
24343,Carroll County,VA,NA,71.8875502008032,NA
24426,Alleghany County,VA,46.86192468619247,NA,NA
24477,Augusta County,VA,NA,NA,66.51583710407239
24541,Danville city,VA,33.89121338912134,NA,NA
98001,King County,WA,41.42259414225941,NA,NA
98030,King County,WA,26.15062761506276,NA,NA
98043,Snohomish County,WA,69.8744769874477,NA,NA
98053,King County,WA,93.30543933054393,NA,NA
98092,King County,WA,NA,NA,40.27149321266968
98109,King County,WA,58.15899581589959,NA,NA
98198,King County,WA,NA,30.120481927710845,NA
98261,San Juan County,WA,NA,91.56626506024097,NA
98277,Island County,WA,NA,NA,16.289592760180994
98660,Clark County,WA,83.47280334728033,NA,NA
98664,Clark County,WA,NA,67.06827309236948,NA
99006,Spokane County,WA,NA,88.75502008032129,NA
99114,Stevens County,WA,NA,NA,61.990950226244344
99217,Spokane County,WA,74.47698744769873,NA,NA
20003,District of Columbia,DC,NA,45.78313253012048,NA
20020,District of Columbia,DC,NA,NA,32.126696832579185
25015,Kanawha County,WV,NA,91.16465863453816,NA
25177,Kanawha County,WV,NA,NA,23.52941176470588
25320,Kanawha County,WV,NA,NA,99.09502262443439
25404,Berkeley County,WV,NA,42.168674698795186,NA
25705,Cabell County,WV,NA,20.481927710843372,NA
25962,Greenbrier County,WV,NA,87.95180722891565,NA
26047,Hancock County,WV,NA,NA,80.09049773755656
26330,Harrison County,WV,NA,31.72690763052209,NA
26354,Taylor County,WV,50,NA,NA
26508,Monongalia County,WV,5.439330543933055,NA,NA
26554,Marion County,WV,5.02092050209205,NA,3.167420814479638
53005,Waukesha County,WI,39.53974895397489,NA,NA
53066,Waukesha County,WI,39.12133891213389,NA,NA
53083,Sheboygan County,WI,NA,57.831325301204814,NA
53110,Milwaukee County,WI,29.707112970711297,NA,NA
53132,Milwaukee County,WI,38.70292887029289,NA,NA
53218,Milwaukee County,WI,7.740585774058577,NA,NA
53219,Milwaukee County,WI,18.200836820083683,NA,NA
53220,Milwaukee County,WI,NA,25.301204819277107,NA
53225,Milwaukee County,WI,11.506276150627615,NA,NA
53534,Rock County,WI,55.85774058577406,NA,NA
53593,Dane County,WI,NA,NA,65.15837104072398
54501,Oneida County,WI,NA,21.686746987951807,NA
54601,La Crosse County,WI,8.368200836820083,NA,0
54650,La Crosse County,WI,NA,8.433734939759036,28.054298642533936
54656,Monroe County,WI,73.22175732217573,NA,NA
54806,Ashland County,WI,98.32635983263597,NA,NA
54880,Douglas County,WI,43.72384937238494,68.67469879518072,NA
54935,Fond du Lac County,WI,15.899581589958158,NA,91.4027149321267
