ZipCode,county,state,Youth
35043,Shelby County,AL,65.26610644257703
35601,Morgan County,AL,40.056022408963585
35603,Morgan County,AL,17.366946778711483
35768,Jackson County,AL,77.87114845938376
36305,Houston County,AL,57.14285714285714
36613,Mobile County,AL,48.17927170868347
85009,Maricopa County,AZ,6.442577030812324
85016,Maricopa County,AZ,7.002801120448179
85143,Pinal County,AZ,27.450980392156865
85308,Maricopa County,AZ,13.725490196078432
85388,Maricopa County,AZ,95.51820728291317
72176,Lonoke County,AR,89.07563025210085
72401,Craighead County,AR,42.857142857142854
72703,Washington County,AR,71.42857142857143
90005,Los Angeles County,CA,96.35854341736695
90037,Los Angeles County,CA,68.0672268907563
90221,Los Angeles County,CA,23.809523809523807
90254,Los Angeles County,CA,63.305322128851536
90601,Los Angeles County,CA,49.01960784313725
90605,Los Angeles County,CA,78.71148459383754
90640,Los Angeles County,CA,58.543417366946784
90808,Los Angeles County,CA,11.204481792717088
91101,Los Angeles County,CA,88.23529411764706
91107,Los Angeles County,CA,63.305322128851536
91202,Los Angeles County,CA,94.9579831932773
91381,Los Angeles County,CA,87.6750700280112
91387,Los Angeles County,CA,74.2296918767507
91776,Los Angeles County,CA,75.63025210084034
91911,San Diego County,CA,86.5546218487395
91913,San Diego County,CA,66.94677871148458
91942,San Diego County,CA,52.94117647058824
92009,San Diego County,CA,39.77591036414566
92020,San Diego County,CA,30.81232492997199
92026,San Diego County,CA,26.610644257703083
92064,San Diego County,CA,84.593837535014
92109,San Diego County,CA,93.8375350140056
92114,San Diego County,CA,35.294117647058826
92307,San Bernardino County,CA,23.52941176470588
92399,San Bernardino County,CA,76.75070028011206
92557,Riverside County,CA,71.70868347338936
92602,Orange County,CA,84.87394957983193
92606,Orange County,CA,91.59663865546219
92620,Orange County,CA,65.54621848739495
92780,Orange County,CA,62.745098039215684
92805,Orange County,CA,16.5266106442577
93101,Santa Barbara County,CA,69.74789915966386
93109,Santa Barbara County,CA,98.59943977591037
93277,Tulare County,CA,73.38935574229691
93306,Kern County,CA,52.66106442577031
93635,Merced County,CA,61.904761904761905
94010,San Mateo County,CA,51.540616246498594
94014,San Mateo County,CA,70.02801120448179
94015,San Mateo County,CA,50.42016806722689
94112,San Francisco County,CA,51.26050420168067
94553,Contra Costa County,CA,63.02521008403361
94555,Alameda County,CA,79.83193277310924
94587,Alameda County,CA,58.82352941176471
95121,Santa Clara County,CA,62.46498599439776
95328,Stanislaus County,CA,98.0392156862745
95350,Stanislaus County,CA,15.686274509803921
95361,Stanislaus County,CA,28.011204481792717
95519,Humboldt County,CA,49.57983193277311
95624,Sacramento County,CA,71.98879551820728
95695,Yolo County,CA,92.43697478991596
95757,Sacramento County,CA,56.022408963585434
95762,El Dorado County,CA,39.21568627450981
95835,Sacramento County,CA,82.91316526610645
95991,Sutter County,CA,54.90196078431373
80015,Arapahoe County,CO,5.042016806722689
80018,Arapahoe County,CO,91.03641456582633
80104,Douglas County,CO,22.128851540616246
80218,Denver County,CO,87.39495798319328
80516,Weld County,CO,33.0532212885154
80538,Larimer County,CO,64.70588235294117
80915,El Paso County,CO,81.5126050420168
81230,Gunnison County,CO,74.78991596638656
06082,Hartford County,CT,16.246498599439775
06422,Middlesex County,CT,72.26890756302521
06489,Hartford County,CT,49.57983193277311
06492,New Haven County,CT,66.66666666666666
06790,Litchfield County,CT,40.056022408963585
06801,Fairfield County,CT,57.14285714285714
06831,Fairfield County,CT,70.58823529411765
19973,Sussex County,DE,26.330532212885156
32024,Columbia County,FL,80.3921568627451
32210,Duval County,FL,1.1204481792717087
32605,Alachua County,FL,24.92997198879552
32738,Volusia County,FL,25.770308123249297
32839,Orange County,FL,10.364145658263306
32967,Indian River County,FL,21.288515406162464
33032,Miami-Dade County,FL,36.97478991596639
33157,Miami-Dade County,FL,51.820728291316534
33170,Miami-Dade County,FL,56.30252100840336
33614,Hillsborough County,FL,24.649859943977592
34711,Lake County,FL,55.182072829131656
30038,DeKalb County,GA,12.885154061624648
30071,Gwinnett County,GA,70.58823529411765
30102,Cherokee County,GA,50.98039215686274
30126,Cobb County,GA,34.173669467787114
30144,Cobb County,GA,34.45378151260504
30680,Barrow County,GA,24.369747899159663
30830,Burke County,GA,63.305322128851536
30901,Richmond County,GA,82.35294117647058
31075,Laurens County,GA,97.47899159663865
31557,Pierce County,GA,99.15966386554622
96732,Maui County,HI,44.537815126050425
96740,Hawaii County,HI,64.9859943977591
96782,Honolulu County,HI,79.27170868347339
96789,Honolulu County,HI,16.80672268907563
96817,Honolulu County,HI,14.84593837535014
96825,Honolulu County,HI,78.15126050420169
83301,Twin Falls County,ID,2.2408963585434174
83687,Canyon County,ID,12.324929971988796
60016,Cook County,IL,41.17647058823529
60115,DeKalb County,IL,38.655462184873954
60201,Cook County,IL,22.689075630252102
60411,Cook County,IL,40.896358543417364
60526,Cook County,IL,69.187675070028
61310,Lee County,IL,89.91596638655463
46060,Hamilton County,IN,29.13165266106443
46131,Johnson County,IN,59.943977591036415
46322,Lake County,IN,89.35574229691878
46902,Howard County,IN,3.081232492997199
47265,Jennings County,IN,18.207282913165265
50072,Madison County,IA,96.9187675070028
50158,Marshall County,IA,66.38655462184873
50263,Dallas County,IA,41.17647058823529
50533,Wright County,IA,97.47899159663865
52302,Linn County,IA,38.095238095238095
52577,Mahaska County,IA,25.770308123249297
66204,Johnson County,KS,92.15686274509804
40330,Mercer County,KY,70.30812324929971
40509,Fayette County,KY,50.700280112044815
42701,Hardin County,KY,35.57422969187675
70126,Orleans Parish,LA,85.43417366946778
70812,East Baton Rouge Parish,LA,57.70308123249299
20878,Montgomery County,MD,56.86274509803921
20902,Montgomery County,MD,45.09803921568628
20910,Montgomery County,MD,84.87394957983193
21040,Harford County,MD,73.66946778711485
21144,Anne Arundel County,MD,79.55182072829132
21738,Howard County,MD,99.71988795518207
21793,Frederick County,MD,98.31932773109243
21851,Worcester County,MD,96.63865546218487
01604,Worcester County,MA,3.361344537815126
01701,Middlesex County,MA,15.686274509803921
01754,Middlesex County,MA,95.7983193277311
01906,Essex County,MA,13.165266106442578
01929,Essex County,MA,94.11764705882352
02125,Suffolk County,MA,76.47058823529412
02169,Norfolk County,MA,5.602240896358544
02189,Norfolk County,MA,86.83473389355743
02332,Plymouth County,MA,59.66386554621849
02375,Bristol County,MA,81.23249299719888
02459,Middlesex County,MA,40.61624649859944
02720,Bristol County,MA,2.801120448179272
02740,Bristol County,MA,1.400560224089636
02766,Bristol County,MA,17.366946778711483
48006,St. Clair County,MI,95.23809523809523
48127,Wayne County,MI,12.044817927170868
48174,Wayne County,MI,4.481792717086835
48221,Wayne County,MI,69.46778711484593
48348,Oakland County,MI,23.249299719887954
48386,Oakland County,MI,55.74229691876751
49004,Kalamazoo County,MI,90.75630252100841
49015,Calhoun County,MI,64.14565826330532
49037,Calhoun County,MI,6.722689075630252
49319,Kent County,MI,61.62464985994398
49507,Kent County,MI,52.10084033613446
55411,Hennepin County,MN,0.8403361344537815
55425,Hennepin County,MN,57.98319327731093
55447,Hennepin County,MN,85.71428571428571
56007,Freeborn County,MN,44.25770308123249
56378,Stearns County,MN,75.91036414565826
56431,Aitkin County,MN,37.53501400560224
56482,Wadena County,MN,60.50420168067227
56751,Roseau County,MN,94.11764705882352
39426,Pearl River County,MS,43.13725490196079
39759,Oktibbeha County,MS,31.932773109243694
63052,Jefferson County,MO,65.82633053221288
63135,St. Louis County,MO,10.92436974789916
63353,Pike County,MO,93.55742296918767
64129,Jackson County,MO,89.6358543417367
68025,Dodge County,NE,8.683473389355742
68046,Sarpy County,NE,34.73389355742297
68124,Douglas County,NE,25.210084033613445
68504,Lancaster County,NE,62.18487394957983
89135,Clark County,NV,44.81792717086835
89501,Washoe County,NV,99.15966386554622
03867,Strafford County,NH,45.378151260504204
07201,Union County,NJ,75.07002801120449
07461,Sussex County,NJ,46.49859943977591
07642,Bergen County,NJ,73.10924369747899
07740,Monmouth County,NJ,0.5602240896358543
07801,Morris County,NJ,57.98319327731093
07927,Morris County,NJ,98.8795518207283
07946,Morris County,NJ,97.19887955182072
08094,Gloucester County,NJ,33.33333333333333
08505,Burlington County,NJ,96.07843137254902
08844,Somerset County,NJ,19.327731092436977
87031,Valencia County,NM,22.128851540616246
88240,Lea County,NM,8.403361344537815
10029,New York County,NY,21.568627450980394
10314,Richmond County,NY,8.123249299719888
10451,Bronx County,NY,77.59103641456583
10470,Bronx County,NY,48.17927170868347
10523,Westchester County,NY,88.51540616246498
10708,Westchester County,NY,90.19607843137256
10960,Rockland County,NY,90.47619047619048
11207,Kings County,NY,0.2801120448179272
11212,Kings County,NY,10.644257703081232
11225,Kings County,NY,50.14005602240896
11354,Queens County,NY,17.92717086834734
11372,Queens County,NY,12.324929971988796
11373,Queens County,NY,5.322128851540616
12093,Schoharie County,NY,94.11764705882352
13045,Cortland County,NY,3.9215686274509802
13204,Onondaga County,NY,43.13725490196079
14468,Monroe County,NY,13.725490196078432
14489,Wayne County,NY,78.99159663865547
14616,Monroe County,NY,4.201680672268908
14624,Monroe County,NY,2.5210084033613445
27106,Forsyth County,NC,9.803921568627452
27519,Wake County,NC,32.773109243697476
27527,Johnston County,NC,83.19327731092437
27536,Vance County,NC,83.75350140056022
27540,Wake County,NC,52.38095238095239
27609,Wake County,NC,20.72829131652661
27701,Durham County,NC,84.31372549019608
28601,Catawba County,NC,78.43137254901961
28625,Iredell County,NC,53.78151260504202
28732,Henderson County,NC,81.5126050420168
28777,Mitchell County,NC,93.27731092436974
58703,Ward County,ND,43.69747899159664
43004,Franklin County,OH,80.95238095238095
43026,Franklin County,OH,28.851540616246496
43081,Franklin County,OH,9.243697478991598
43209,Franklin County,OH,26.610644257703083
43227,Franklin County,OH,36.134453781512605
43230,Franklin County,OH,6.162464985994398
43608,Lucas County,OH,33.61344537815126
44076,Ashtabula County,OH,77.03081232492998
44106,Cuyahoga County,OH,37.81512605042017
44147,Cuyahoga County,OH,34.73389355742297
44281,Medina County,OH,47.33893557422969
44306,Summit County,OH,60.78431372549019
44425,Trumbull County,OH,14.285714285714285
45014,Butler County,OH,45.378151260504204
45211,Hamilton County,OH,9.523809523809524
45212,Hamilton County,OH,68.62745098039215
45342,Montgomery County,OH,38.93557422969188
45680,Lawrence County,OH,42.57703081232493
45805,Allen County,OH,24.089635854341736
45891,Van Wert County,OH,67.50700280112045
73064,Canadian County,OK,48.739495798319325
74011,Tulsa County,OK,38.37535014005603
74019,Rogers County,OK,60.22408963585434
97123,Washington County,OR,29.971988795518207
97128,Yamhill County,OR,25.49019607843137
97266,Multnomah County,OR,88.79551820728291
97355,Linn County,OR,54.34173669467787
15102,Allegheny County,PA,80.67226890756302
15401,Fayette County,PA,8.683473389355742
15717,Indiana County,PA,67.78711484593838
15906,Cambria County,PA,77.03081232492998
16002,Butler County,PA,82.35294117647058
16403,Crawford County,PA,86.27450980392157
16506,Erie County,PA,56.582633053221286
17011,Cumberland County,PA,20.448179271708682
17022,Lancaster County,PA,7.282913165266107
17225,Franklin County,PA,92.71708683473389
17404,York County,PA,13.445378151260504
17545,Lancaster County,PA,19.607843137254903
17724,Bradford County,PA,83.75350140056022
19063,Delaware County,PA,19.047619047619047
19064,Delaware County,PA,28.57142857142857
19131,Philadelphia County,PA,30.252100840336134
19135,Philadelphia County,PA,36.41456582633053
19382,Chester County,PA,18.76750700280112
19426,Montgomery County,PA,19.88795518207283
19454,Montgomery County,PA,73.94957983193278
19533,Berks County,PA,74.2296918767507
19608,Berks County,PA,19.88795518207283
02879,Washington County,RI,68.90756302521008
02885,Bristol County,RI,55.182072829131656
29039,Orangeburg County,SC,100
29072,Lexington County,SC,18.487394957983195
29073,Lexington County,SC,29.13165266106443
29138,Saluda County,SC,72.82913165266106
29407,Charleston County,SC,16.80672268907563
29624,Anderson County,SC,54.621848739495796
29640,Pickens County,SC,41.73669467787115
29732,York County,SC,32.49299719887955
57064,Lincoln County,SD,91.87675070028011
37209,Davidson County,TN,31.932773109243694
37218,Davidson County,TN,7.563025210084033
37411,Hamilton County,TN,61.34453781512605
38128,Shelby County,TN,30.532212885154063
38401,Maury County,TN,45.378151260504204
75051,Dallas County,TX,10.084033613445378
75062,Dallas County,TX,21.008403361344538
75154,Ellis County,TX,54.061624649859944
76010,Tarrant County,TX,11.484593837535014
76103,Tarrant County,TX,86.83473389355743
76119,Tarrant County,TX,1.9607843137254901
76120,Tarrant County,TX,82.07282913165265
76177,Tarrant County,TX,87.95518207282913
76710,McLennan County,TX,46.21848739495798
77005,Harris County,TX,80.11204481792717
77037,Harris County,TX,76.19047619047619
77071,Harris County,TX,75.35014005602241
77078,Harris County,TX,91.31652661064426
77092,Harris County,TX,43.977591036414566
77346,Harris County,TX,68.0672268907563
77373,Harris County,TX,42.016806722689076
77407,Fort Bend County,TX,21.568627450980394
77433,Harris County,TX,49.299719887955185
77449,Harris County,TX,31.372549019607842
77503,Harris County,TX,85.99439775910365
77523,Chambers County,TX,15.406162464985995
77573,Galveston County,TX,1.680672268907563
77584,Brazoria County,TX,35.85434173669468
77802,Brazos County,TX,36.69467787114846
78253,Bexar County,TX,15.126050420168067
78574,Hidalgo County,TX,31.652661064425768
78634,Williamson County,TX,31.092436974789916
79763,Ector County,TX,47.05882352941176
79902,El Paso County,TX,47.89915966386555
84015,Davis County,UT,52.94117647058824
84062,Utah County,UT,52.94117647058824
84067,Weber County,UT,70.58823529411765
84096,Salt Lake County,UT,5.88235294117647
84116,Salt Lake County,UT,37.254901960784316
84118,Salt Lake County,UT,14.565826330532214
84663,Utah County,UT,46.778711484593835
20110,Manassas city,VA,7.8431372549019605
20169,Prince William County,VA,59.103641456582636
22207,Arlington County,VA,33.61344537815126
22903,Charlottesville city,VA,42.016806722689076
23601,Newport News city,VA,27.170868347338935
98042,King County,WA,11.76470588235294
98043,Snohomish County,WA,65.82633053221288
98155,King County,WA,67.22689075630252
98226,Whatcom County,WA,83.4733893557423
98801,Chelan County,WA,27.73109243697479
99021,Spokane County,WA,92.71708683473389
99218,Spokane County,WA,64.42577030812325
20015,District of Columbia,DC,29.13165266106443
20019,District of Columbia,DC,4.761904761904762
25177,Kanawha County,WV,47.61904761904761
53018,Waukesha County,WI,72.26890756302521
53045,Waukesha County,WI,28.011204481792717
53083,Sheboygan County,WI,59.38375350140056
53090,Washington County,WI,61.06442577030813
53142,Kenosha County,WI,39.49579831932773
53215,Milwaukee County,WI,22.969187675070028
53218,Milwaukee County,WI,3.6414565826330536
54880,Douglas County,WI,0
