ZipCode,county,state,Adult,Retirement,Geriatric
35057,Cullman County,AL,NA,81.87919463087249,NA
35476,Tuscaloosa County,AL,NA,84.22818791946308,NA
35504,Walker County,AL,NA,NA,64.12698412698413
35634,Lauderdale County,AL,NA,82.88590604026845,NA
35648,Lauderdale County,AL,NA,NA,96.82539682539682
35749,Madison County,AL,54.54545454545454,NA,NA
35802,Madison County,AL,73.45454545454545,NA,NA
36109,Montgomery County,AL,NA,61.74496644295302,NA
36303,Houston County,AL,NA,40.26845637583892,NA
36535,Baldwin County,AL,NA,NA,40.63492063492063
85041,Maricopa County,AZ,39.27272727272727,NA,NA
85132,Pinal County,AZ,43.63636363636363,NA,NA
85143,Pinal County,AZ,NA,36.241610738255034,NA
85225,Maricopa County,AZ,NA,NA,63.17460317460317
85251,Maricopa County,AZ,NA,NA,41.904761904761905
85298,Maricopa County,AZ,92,58.7248322147651,NA
85308,Maricopa County,AZ,40.36363636363636,NA,NA
85373,Maricopa County,AZ,85.81818181818181,NA,NA
85635,Cochise County,AZ,NA,NA,39.36507936507937
85701,Pima County,AZ,NA,81.54362416107382,NA
85730,Pima County,AZ,29.09090909090909,NA,NA
85739,Pinal County,AZ,70.54545454545455,NA,NA
85755,Pima County,AZ,NA,48.99328859060403,NA
85901,Navajo County,AZ,NA,NA,66.98412698412697
85925,Apache County,AZ,NA,97.31543624161074,NA
86001,Coconino County,AZ,NA,46.308724832214764,NA
86401,Mohave County,AZ,12,NA,NA
71635,Ashley County,AR,NA,56.711409395973156,NA
72010,White County,AR,NA,NA,81.58730158730158
72034,Faulkner County,AR,NA,NA,21.26984126984127
72076,Pulaski County,AR,NA,35.90604026845637,NA
72204,Pulaski County,AR,NA,NA,46.03174603174603
72207,Pulaski County,AR,NA,NA,88.25396825396825
72223,Pulaski County,AR,NA,NA,52.38095238095239
72301,Crittenden County,AR,86.9090909090909,NA,NA
72401,Craighead County,AR,NA,NA,58.41269841269842
72616,Carroll County,AR,NA,82.21476510067114,NA
72650,Searcy County,AR,NA,NA,95.23809523809523
72753,Washington County,AR,92.36363636363636,NA,NA
72756,Benton County,AR,NA,35.23489932885906,NA
72764,Washington County,AR,NA,54.36241610738255,NA
72855,Logan County,AR,NA,NA,98.09523809523809
72903,Sebastian County,AR,NA,NA,62.53968253968254
72949,Franklin County,AR,NA,NA,79.68253968253968
90035,Los Angeles County,CA,NA,NA,29.523809523809526
90220,Los Angeles County,CA,NA,NA,44.12698412698413
90241,Los Angeles County,CA,60,NA,NA
90631,Orange County,CA,93.81818181818183,NA,NA
90680,Orange County,CA,NA,73.8255033557047,NA
91042,Los Angeles County,CA,NA,NA,83.4920634920635
91201,Los Angeles County,CA,NA,NA,69.52380952380952
91202,Los Angeles County,CA,NA,NA,31.428571428571427
91214,Los Angeles County,CA,NA,NA,84.44444444444444
91316,Los Angeles County,CA,77.0909090909091,NA,NA
91324,Los Angeles County,CA,NA,90.60402684563759,NA
91345,Los Angeles County,CA,91.27272727272727,NA,NA
91350,Los Angeles County,CA,NA,80.53691275167785,NA
91423,Los Angeles County,CA,NA,NA,56.507936507936506
91602,Los Angeles County,CA,87.27272727272727,NA,NA
91746,Los Angeles County,CA,NA,NA,82.22222222222221
91750,Los Angeles County,CA,NA,NA,38.41269841269842
91752,Riverside County,CA,85.45454545454545,NA,NA
91784,San Bernardino County,CA,78.9090909090909,NA,NA
91942,San Diego County,CA,69.81818181818183,NA,NA
92024,San Diego County,CA,47.63636363636364,NA,NA
92075,San Diego County,CA,NA,NA,84.76190476190476
92107,San Diego County,CA,74.18181818181819,NA,NA
92113,San Diego County,CA,NA,NA,61.26984126984127
92130,San Diego County,CA,NA,NA,83.80952380952381
92220,Riverside County,CA,NA,NA,30.158730158730158
92234,Riverside County,CA,17.81818181818182,NA,NA
92336,San Bernardino County,CA,NA,17.114093959731544,NA
92545,Riverside County,CA,NA,NA,20.634920634920633
92586,Riverside County,CA,NA,45.302013422818796,26.666666666666668
92604,Orange County,CA,NA,61.40939597315436,NA
92620,Orange County,CA,NA,43.288590604026844,NA
92653,Orange County,CA,81.45454545454545,NA,NA
92701,Orange County,CA,NA,94.63087248322147,NA
92703,Orange County,CA,45.09090909090909,NA,NA
92841,Orange County,CA,NA,63.758389261744966,NA
92880,Riverside County,CA,25.09090909090909,NA,NA
93035,Ventura County,CA,NA,59.395973154362416,NA
93036,Ventura County,CA,NA,NA,86.34920634920636
93274,Tulare County,CA,8,NA,NA
93277,Tulare County,CA,NA,18.120805369127517,NA
93307,Kern County,CA,NA,17.449664429530202,NA
93311,Kern County,CA,NA,55.033557046979865,95.87301587301587
93458,Santa Barbara County,CA,NA,30.201342281879196,NA
93635,Merced County,CA,78.54545454545455,NA,NA
93702,Fresno County,CA,33.09090909090909,NA,NA
93722,Fresno County,CA,10.909090909090908,NA,NA
94024,Santa Clara County,CA,NA,NA,93.01587301587301
94110,San Francisco County,CA,NA,9.060402684563758,NA
94131,San Francisco County,CA,NA,53.355704697986575,NA
94503,Napa County,CA,NA,86.91275167785236,NA
94521,Contra Costa County,CA,63.63636363636363,NA,NA
94558,Napa County,CA,NA,8.053691275167784,NA
94563,Contra Costa County,CA,NA,NA,96.5079365079365
94566,Alameda County,CA,NA,38.59060402684564,NA
94577,Alameda County,CA,75.63636363636364,NA,NA
94601,Alameda County,CA,49.09090909090909,NA,NA
94703,Alameda County,CA,NA,95.63758389261746,NA
94705,Alameda County,CA,NA,88.9261744966443,NA
94947,Marin County,CA,NA,92.61744966442953,NA
95117,Santa Clara County,CA,NA,NA,73.01587301587301
95123,Santa Clara County,CA,NA,27.516778523489933,NA
95337,San Joaquin County,CA,46.909090909090914,NA,73.33333333333333
95354,Stanislaus County,CA,37.81818181818182,NA,NA
95367,Stanislaus County,CA,NA,76.84563758389261,NA
95389,Mariposa County,CA,NA,95.9731543624161,NA
95461,Lake County,CA,NA,99.66442953020133,NA
95492,Sonoma County,CA,NA,NA,49.2063492063492
95519,Humboldt County,CA,95.27272727272728,NA,NA
95608,Sacramento County,CA,NA,NA,9.206349206349207
95823,Sacramento County,CA,NA,19.12751677852349,NA
95826,Sacramento County,CA,59.63636363636363,NA,NA
95828,Sacramento County,CA,NA,NA,75.55555555555556
95969,Butte County,CA,NA,34.56375838926174,NA
96097,Siskiyou County,CA,NA,55.369127516778526,NA
80014,Arapahoe County,CO,NA,NA,10.158730158730158
80109,Douglas County,CO,76,NA,NA
80120,Arapahoe County,CO,NA,NA,53.333333333333336
80204,Denver County,CO,24.727272727272727,NA,NA
80228,Jefferson County,CO,60.72727272727273,NA,NA
80503,Boulder County,CO,72.36363636363636,NA,NA
80516,Weld County,CO,72.72727272727273,NA,NA
80525,Larimer County,CO,19.272727272727273,NA,8.88888888888889
80537,Larimer County,CO,NA,15.771812080536913,NA
80549,Larimer County,CO,NA,91.61073825503355,NA
80601,Adams County,CO,NA,39.261744966442954,NA
80915,El Paso County,CO,NA,77.18120805369128,NA
81003,Pueblo County,CO,41.81818181818181,NA,NA
81007,Pueblo County,CO,NA,NA,59.04761904761905
81122,La Plata County,CO,NA,90.93959731543623,NA
81401,Montrose County,CO,NA,NA,35.87301587301587
06032,Hartford County,CT,NA,72.48322147651007,NA
06033,Hartford County,CT,NA,NA,54.920634920634924
06071,Tolland County,CT,90.18181818181819,NA,NA
06268,Tolland County,CT,NA,93.95973154362416,NA
06401,New Haven County,CT,NA,59.06040268456376,NA
06416,Middlesex County,CT,77.81818181818181,NA,NA
06450,New Haven County,CT,7.636363636363637,NA,29.20634920634921
06479,Hartford County,CT,NA,NA,79.04761904761905
06492,New Haven County,CT,23.272727272727273,NA,NA
06708,New Haven County,CT,25.454545454545453,NA,NA
06790,Litchfield County,CT,NA,NA,6.349206349206349
06810,Fairfield County,CT,19.636363636363637,NA,NA
06812,Fairfield County,CT,NA,NA,73.65079365079366
06825,Fairfield County,CT,NA,NA,72.06349206349206
06830,Fairfield County,CT,NA,NA,14.285714285714285
19807,New Castle County,DE,NA,98.3221476510067,NA
19901,Kent County,DE,20.363636363636363,NA,NA
19938,Kent County,DE,NA,58.053691275167786,NA
19958,Sussex County,DE,NA,27.181208053691275,NA
32054,Union County,FL,NA,80.20134228187919,NA
32086,St. Johns County,FL,NA,18.456375838926174,NA
32095,St. Johns County,FL,NA,82.88590604026845,NA
32117,Volusia County,FL,38.90909090909091,NA,NA
32127,Volusia County,FL,NA,39.59731543624161,NA
32137,Flagler County,FL,NA,NA,41.269841269841265
32163,Sumter County,FL,NA,NA,91.74603174603175
32246,Duval County,FL,NA,NA,53.65079365079365
32344,Jefferson County,FL,NA,NA,98.73015873015873
32401,Bay County,FL,44,NA,NA
32405,Bay County,FL,30.545454545454547,NA,21.904761904761905
32444,Bay County,FL,NA,NA,47.3015873015873
32505,Escambia County,FL,21.09090909090909,NA,NA
32506,Escambia County,FL,NA,NA,18.73015873015873
32507,Escambia County,FL,42.90909090909091,NA,NA
32514,Escambia County,FL,27.27272727272727,NA,NA
32534,Escambia County,FL,48.72727272727273,NA,NA
32541,Okaloosa County,FL,NA,NA,33.96825396825397
32563,Santa Rosa County,FL,NA,NA,28.888888888888886
32765,Seminole County,FL,NA,41.61073825503356,NA
32818,Orange County,FL,NA,51.006711409395976,NA
32835,Orange County,FL,NA,NA,60.63492063492063
32904,Brevard County,FL,NA,NA,40.317460317460316
32952,Brevard County,FL,NA,44.63087248322148,NA
32958,Indian River County,FL,NA,11.74496644295302,NA
32963,Indian River County,FL,NA,NA,19.365079365079367
32967,Indian River County,FL,NA,NA,48.57142857142857
33015,Miami-Dade County,FL,57.45454545454546,NA,NA
33037,Monroe County,FL,NA,NA,81.58730158730158
33062,Broward County,FL,77.45454545454545,NA,NA
33144,Miami-Dade County,FL,NA,NA,19.047619047619047
33149,Miami-Dade County,FL,NA,96.64429530201343,NA
33161,Miami-Dade County,FL,41.45454545454545,NA,NA
33321,Broward County,FL,NA,NA,5.396825396825397
33463,Palm Beach County,FL,NA,37.24832214765101,NA
33486,Palm Beach County,FL,NA,49.328859060402685,NA
33549,Hillsborough County,FL,82.54545454545455,NA,NA
33614,Hillsborough County,FL,NA,NA,43.492063492063494
33810,Polk County,FL,66.18181818181819,NA,NA
33880,Polk County,FL,62.909090909090914,NA,NA
33913,Lee County,FL,88.36363636363636,NA,NA
33917,Lee County,FL,NA,NA,18.412698412698415
33919,Lee County,FL,64.72727272727272,NA,NA
33936,Lee County,FL,NA,NA,52.06349206349207
34135,Lee County,FL,NA,15.100671140939598,NA
34209,Manatee County,FL,NA,23.154362416107382,NA
34238,Sarasota County,FL,NA,NA,6.031746031746032
34476,Marion County,FL,NA,NA,32.38095238095238
34668,Pasco County,FL,NA,NA,35.55555555555556
34690,Pasco County,FL,NA,79.86577181208054,NA
34772,Osceola County,FL,73.81818181818181,NA,NA
34986,St. Lucie County,FL,NA,NA,10.793650793650794
30005,Fulton County,GA,NA,75.50335570469798,NA
30019,Gwinnett County,GA,NA,40.604026845637584,NA
30044,Gwinnett County,GA,NA,15.436241610738255,NA
30141,Paulding County,GA,NA,NA,90.47619047619048
30157,Paulding County,GA,29.454545454545457,NA,NA
30215,Fayette County,GA,NA,33.557046979865774,NA
30248,Henry County,GA,NA,NA,75.87301587301587
30281,Henry County,GA,65.0909090909091,NA,NA
30338,DeKalb County,GA,80.72727272727272,NA,NA
30341,DeKalb County,GA,NA,77.85234899328859,NA
30536,Gilmer County,GA,NA,NA,85.71428571428571
30540,Gilmer County,GA,54.90909090909091,NA,NA
30680,Barrow County,GA,NA,NA,35.23809523809524
30736,Catoosa County,GA,NA,19.798657718120804,NA
30739,Walker County,GA,94.18181818181817,NA,NA
30815,Richmond County,GA,NA,14.093959731543624,NA
30904,Richmond County,GA,NA,NA,72.38095238095238
30906,Richmond County,GA,NA,6.7114093959731544,NA
30909,Richmond County,GA,28.363636363636363,NA,NA
31210,Bibb County,GA,NA,NA,83.17460317460318
31216,Bibb County,GA,NA,94.63087248322147,NA
31410,Chatham County,GA,90.9090909090909,NA,NA
31605,Lowndes County,GA,NA,NA,80.63492063492063
31750,Ben Hill County,GA,NA,NA,88.88888888888889
31792,Thomas County,GA,NA,32.21476510067114,NA
96707,Honolulu County,HI,NA,NA,62.22222222222222
96744,Honolulu County,HI,NA,NA,3.1746031746031744
96817,Honolulu County,HI,NA,NA,5.079365079365079
96825,Honolulu County,HI,NA,NA,4.444444444444445
83301,Twin Falls County,ID,NA,NA,0.31746031746031744
83336,Minidoka County,ID,97.45454545454545,NA,NA
83402,Bonneville County,ID,NA,78.52348993288591,NA
83404,Bonneville County,ID,NA,NA,59.682539682539684
83501,Nez Perce County,ID,NA,NA,5.714285714285714
83647,Elmore County,ID,NA,48.322147651006716,NA
83704,Ada County,ID,NA,4.026845637583892,NA
83864,Bonner County,ID,76.72727272727272,NA,58.0952380952381
60025,Cook County,IL,NA,29.194630872483224,NA
60030,Lake County,IL,NA,NA,20.317460317460316
60046,Lake County,IL,NA,26.174496644295303,NA
60067,Cook County,IL,NA,NA,17.77777777777778
60120,Kane County,IL,NA,NA,58.730158730158735
60134,Kane County,IL,NA,NA,32.06349206349206
60139,DuPage County,IL,NA,NA,74.28571428571429
60169,Cook County,IL,53.090909090909086,NA,NA
60189,DuPage County,IL,NA,NA,38.095238095238095
60194,Cook County,IL,81.0909090909091,NA,NA
60419,Cook County,IL,NA,36.577181208053695,NA
60433,Will County,IL,68.36363636363636,NA,NA
60448,Will County,IL,NA,NA,55.87301587301587
60450,Grundy County,IL,NA,NA,23.49206349206349
60456,Cook County,IL,NA,NA,93.96825396825396
60464,Cook County,IL,NA,NA,70.47619047619048
60471,Cook County,IL,NA,NA,97.14285714285714
60477,Cook County,IL,29.454545454545457,NA,NA
60525,Cook County,IL,NA,NA,16.507936507936506
60564,Will County,IL,NA,NA,95.55555555555556
60565,DuPage County,IL,NA,20.80536912751678,NA
60601,Cook County,IL,NA,86.24161073825503,NA
60613,Cook County,IL,31.636363636363633,NA,NA
60628,Cook County,IL,8.727272727272728,NA,NA
60645,Cook County,IL,NA,22.14765100671141,NA
60646,Cook County,IL,NA,NA,30.793650793650794
60656,Cook County,IL,NA,NA,46.666666666666664
60707,Cook County,IL,NA,NA,12.063492063492063
61108,Winnebago County,IL,NA,NA,29.841269841269842
62203,St. Clair County,IL,NA,96.97986577181209,NA
62656,Logan County,IL,NA,NA,55.55555555555556
62702,Sangamon County,IL,NA,NA,43.17460317460318
62801,Marion County,IL,56.36363636363636,NA,NA
46011,Madison County,IN,55.63636363636364,NA,NA
46038,Hamilton County,IN,NA,52.68456375838926,NA
46062,Hamilton County,IN,NA,NA,50.15873015873016
46123,Hendricks County,IN,53.81818181818182,NA,NA
46135,Putnam County,IN,NA,59.395973154362416,NA
46220,Marion County,IN,NA,44.966442953020135,NA
46221,Marion County,IN,NA,NA,74.92063492063492
46227,Marion County,IN,13.090909090909092,NA,NA
46534,Starke County,IN,61.45454545454545,NA,NA
47006,Ripley County,IN,NA,60.06711409395973,NA
47112,Harrison County,IN,62.54545454545455,NA,NA
47336,Jay County,IN,99.27272727272727,NA,NA
47374,Wayne County,IN,NA,NA,0.6349206349206349
47446,Lawrence County,IN,75.27272727272727,NA,NA
47591,Knox County,IN,NA,58.38926174496645,NA
47630,Warrick County,IN,NA,NA,40.95238095238095
47715,Vanderburgh County,IN,NA,NA,17.46031746031746
47803,Vigo County,IN,67.63636363636364,NA,NA
50036,Boone County,IA,NA,NA,66.66666666666666
50156,Boone County,IA,100,NA,NA
50310,Polk County,IA,22.90909090909091,NA,NA
50327,Polk County,IA,NA,91.94630872483222,NA
50461,Mitchell County,IA,NA,85.57046979865773,NA
50511,Kossuth County,IA,NA,75.83892617449665,NA
50701,Black Hawk County,IA,38.54545454545455,NA,NA
50801,Union County,IA,NA,NA,57.460317460317455
51104,Woodbury County,IA,NA,NA,85.07936507936508
52246,Johnson County,IA,NA,93.28859060402685,NA
52402,Linn County,IA,21.818181818181817,NA,NA
52722,Scott County,IA,22.545454545454547,NA,NA
66044,Douglas County,KS,NA,NA,88.88888888888889
66215,Johnson County,KS,NA,NA,45.714285714285715
66502,Riley County,KS,NA,NA,71.42857142857143
66605,Shawnee County,KS,NA,NA,64.76190476190476
67010,Butler County,KS,82.9090909090909,NA,NA
67216,Sedgwick County,KS,NA,67.11409395973155,NA
67735,Sherman County,KS,NA,82.5503355704698,NA
40503,Fayette County,KY,NA,NA,36.507936507936506
40508,Fayette County,KY,39.63636363636363,NA,NA
40511,Fayette County,KY,45.45454545454545,NA,NA
40962,Clay County,KY,21.454545454545453,NA,NA
41011,Kenton County,KY,17.454545454545457,NA,NA
41015,Kenton County,KY,NA,57.04697986577181,NA
41017,Kenton County,KY,NA,21.812080536912752,NA
41095,Gallatin County,KY,NA,98.99328859060402,NA
41097,Grant County,KY,80,NA,NA
41129,Boyd County,KY,NA,NA,80.95238095238095
41144,Greenup County,KY,NA,53.02013422818792,NA
42066,Graves County,KY,25.818181818181817,21.476510067114095,NA
42101,Warren County,KY,8.363636363636363,NA,NA
42301,Daviess County,KY,12,NA,NA
42459,Union County,KY,93.45454545454545,NA,NA
42701,Hardin County,KY,NA,NA,6.666666666666667
42718,Taylor County,KY,15.272727272727273,10.06711409395973,NA
70056,Jefferson Parish,LA,NA,16.10738255033557,NA
70115,Orleans Parish,LA,NA,24.496644295302016,NA
70363,Terrebonne Parish,LA,NA,NA,45.3968253968254
70438,Washington Parish,LA,NA,14.76510067114094,NA
70454,Tangipahoa Parish,LA,NA,NA,37.77777777777778
70507,Lafayette Parish,LA,NA,NA,86.03174603174604
70512,St. Landry Parish,LA,NA,74.16107382550335,NA
70592,Lafayette Parish,LA,NA,NA,88.57142857142857
70816,East Baton Rouge Parish,LA,7.2727272727272725,NA,NA
70817,East Baton Rouge Parish,LA,36.36363636363637,NA,NA
71118,Caddo Parish,LA,NA,NA,21.58730158730159
71303,Rapides Parish,LA,NA,NA,61.58730158730159
03901,York County,ME,71.63636363636363,NA,NA
04072,York County,ME,45.81818181818182,NA,NA
04084,Cumberland County,ME,77.81818181818181,NA,NA
04240,Androscoggin County,ME,NA,NA,1.5873015873015872
04401,Penobscot County,ME,NA,2.348993288590604,NA
04605,Hancock County,ME,NA,NA,24.126984126984127
20650,St. Mary's County,MD,86.18181818181819,NA,NA
20817,Montgomery County,MD,NA,NA,70.7936507936508
20850,Montgomery County,MD,72,NA,NA
20855,Montgomery County,MD,92.72727272727272,NA,NA
21217,Baltimore city,MD,NA,17.78523489932886,NA
21222,Baltimore County,MD,6.545454545454546,NA,NA
21742,Washington County,MD,NA,NA,44.44444444444444
01001,Hampden County,MA,NA,20.469798657718123,NA
01056,Hampden County,MA,NA,NA,13.968253968253968
01057,Hampden County,MA,NA,NA,99.36507936507937
01085,Hampden County,MA,NA,NA,7.6190476190476195
01104,Hampden County,MA,1.8181818181818181,NA,NA
01105,Hampden County,MA,4.7272727272727275,NA,NA
01119,Hampden County,MA,NA,45.97315436241611,NA
01226,Berkshire County,MA,NA,61.07382550335571,NA
01240,Berkshire County,MA,NA,NA,57.14285714285714
01504,Worcester County,MA,98.54545454545455,NA,NA
01568,Worcester County,MA,NA,NA,31.11111111111111
01605,Worcester County,MA,1.4545454545454546,NA,NA
01606,Worcester County,MA,54.18181818181819,NA,NA
01607,Worcester County,MA,NA,69.46308724832215,NA
01747,Worcester County,MA,NA,NA,89.52380952380953
01752,Middlesex County,MA,NA,12.080536912751679,NA
01801,Middlesex County,MA,0.7272727272727273,NA,NA
01803,Middlesex County,MA,NA,NA,1.9047619047619049
01824,Middlesex County,MA,NA,NA,8.571428571428571
01844,Essex County,MA,0.36363636363636365,NA,NA
01851,Middlesex County,MA,2.5454545454545454,NA,NA
01854,Middlesex County,MA,NA,6.375838926174497,NA
01876,Middlesex County,MA,88,NA,NA
02115,Suffolk County,MA,NA,5.033557046979865,NA
02130,Suffolk County,MA,NA,2.684563758389262,NA
02151,Suffolk County,MA,90.54545454545455,NA,NA
02180,Middlesex County,MA,15.636363636363637,NA,NA
02184,Norfolk County,MA,NA,8.389261744966444,NA
02189,Norfolk County,MA,NA,55.70469798657718,NA
02191,Norfolk County,MA,NA,NA,78.0952380952381
02302,Plymouth County,MA,NA,3.0201342281879198,4.761904761904762
02481,Norfolk County,MA,NA,52.348993288590606,NA
02673,Barnstable County,MA,NA,NA,56.82539682539682
02675,Barnstable County,MA,NA,NA,50.476190476190474
02703,Bristol County,MA,NA,NA,37.46031746031746
48066,Macomb County,MI,5.090909090909091,NA,NA
48117,Monroe County,MI,58.54545454545455,NA,NA
48134,Wayne County,MI,31.272727272727273,NA,NA
48162,Monroe County,MI,14.909090909090908,NA,NA
48170,Wayne County,MI,NA,NA,2.5396825396825395
48178,Oakland County,MI,NA,12.751677852348994,NA
48192,Wayne County,MI,NA,NA,89.84126984126985
48193,Wayne County,MI,59.27272727272728,NA,NA
48197,Washtenaw County,MI,2.909090909090909,NA,NA
48235,Wayne County,MI,3.272727272727273,NA,NA
48342,Oakland County,MI,NA,36.91275167785235,NA
48393,Oakland County,MI,52,NA,NA
48458,Genesee County,MI,35.27272727272727,NA,63.49206349206349
48626,Saginaw County,MI,NA,71.14093959731544,NA
48706,Bay County,MI,NA,1.6778523489932886,NA
48708,Bay County,MI,NA,NA,26.031746031746035
48836,Livingston County,MI,58.909090909090914,NA,NA
48837,Eaton County,MI,NA,NA,71.74603174603175
48846,Ionia County,MI,NA,47.98657718120805,NA
48875,Ionia County,MI,NA,NA,69.2063492063492
49002,Kalamazoo County,MI,37.45454545454546,NA,NA
49038,Berrien County,MI,NA,62.751677852349,NA
49055,Van Buren County,MI,NA,NA,96.19047619047619
49058,Barry County,MI,34.909090909090914,NA,NA
49083,Kalamazoo County,MI,NA,NA,86.66666666666667
49107,Berrien County,MI,NA,77.51677852348993,NA
49221,Lenawee County,MI,NA,NA,7.301587301587302
49332,Mecosta County,MI,NA,87.58389261744966,NA
49337,Newaygo County,MI,NA,56.04026845637584,NA
49451,Muskegon County,MI,93.0909090909091,NA,NA
49509,Kent County,MI,NA,51.34228187919463,NA
49651,Missaukee County,MI,NA,97.98657718120806,NA
49855,Marquette County,MI,18.181818181818183,NA,NA
49930,Houghton County,MI,84.72727272727273,NA,NA
55123,Dakota County,MN,NA,76.1744966442953,NA
55304,Anoka County,MN,47.27272727272727,NA,NA
55336,McLeod County,MN,NA,NA,53.01587301587302
55405,Hennepin County,MN,42.18181818181818,NA,NA
55426,Hennepin County,MN,32.36363636363636,NA,NA
55805,St. Louis County,MN,NA,NA,85.39682539682539
55901,Olmsted County,MN,NA,NA,14.603174603174605
56560,Clay County,MN,2.181818181818182,5.369127516778524,13.65079365079365
38801,Lee County,MS,NA,48.322147651006716,NA
39154,Hinds County,MS,NA,NA,94.92063492063491
39157,Madison County,MS,73.0909090909091,NA,NA
39213,Hinds County,MS,NA,50.33557046979866,NA
39350,Neshoba County,MS,28.363636363636363,NA,NA
63010,Jefferson County,MO,44.72727272727273,NA,NA
63016,Jefferson County,MO,NA,NA,99.04761904761905
63028,Jefferson County,MO,NA,24.161073825503358,NA
63043,St. Louis County,MO,NA,NA,32.698412698412696
63049,Jefferson County,MO,NA,63.08724832214765,NA
63077,Franklin County,MO,NA,70.46979865771812,NA
63113,St. Louis city,MO,NA,68.45637583892618,NA
63125,St. Louis County,MO,NA,NA,16.825396825396826
63128,St. Louis County,MO,NA,22.483221476510067,NA
63141,St. Louis County,MO,NA,71.14093959731544,NA
63147,St. Louis city,MO,89.81818181818181,NA,NA
63376,St. Charles County,MO,NA,NA,4.1269841269841265
63640,St. Francois County,MO,NA,NA,42.857142857142854
63701,Cape Girardeau County,MO,44.36363636363637,NA,NA
63901,Butler County,MO,16.727272727272727,NA,NA
64037,Lafayette County,MO,NA,80.87248322147651,NA
64050,Jackson County,MO,NA,16.778523489932887,NA
64052,Jackson County,MO,NA,NA,87.61904761904762
64070,Jackson County,MO,NA,98.65771812080537,NA
64106,Jackson County,MO,32,NA,NA
64506,Buchanan County,MO,NA,NA,1.2698412698412698
64730,Bates County,MO,NA,NA,65.07936507936508
64744,Cedar County,MO,83.27272727272728,NA,NA
65270,Randolph County,MO,NA,NA,69.84126984126983
65721,Christian County,MO,NA,NA,52.6984126984127
65803,Greene County,MO,NA,11.409395973154362,NA
59047,Park County,MT,NA,66.10738255033557,NA
59101,Yellowstone County,MT,NA,NA,16.19047619047619
59102,Yellowstone County,MT,NA,6.0402684563758395,NA
59715,Gallatin County,MT,NA,34.899328859060404,NA
59808,Missoula County,MT,NA,85.23489932885906,NA
59860,Lake County,MT,NA,43.95973154362416,NA
59901,Flathead County,MT,NA,NA,13.333333333333334
68022,Douglas County,NE,NA,NA,62.857142857142854
68105,Douglas County,NE,NA,88.59060402684564,NA
68154,Douglas County,NE,NA,47.651006711409394,NA
68701,Madison County,NE,NA,91.2751677852349,NA
89108,Clark County,NV,NA,NA,41.58730158730159
89502,Washoe County,NV,NA,19.463087248322147,NA
03055,Hillsborough County,NH,52.36363636363637,NA,NA
03076,Hillsborough County,NH,NA,NA,70.7936507936508
03101,Hillsborough County,NH,NA,100,NA
03246,Belknap County,NH,83.63636363636363,NA,NA
03848,Rockingham County,NH,NA,88.25503355704699,NA
07040,Essex County,NJ,NA,85.90604026845638,NA
07083,Union County,NJ,88.72727272727273,NA,NA
07112,Essex County,NJ,5.818181818181818,NA,NA
07202,Union County,NJ,NA,NA,31.746031746031743
07442,Passaic County,NJ,76.36363636363637,NA,NA
07650,Bergen County,NJ,NA,NA,74.28571428571429
07722,Monmouth County,NJ,NA,89.59731543624162,NA
07871,Sussex County,NJ,62.18181818181818,NA,NA
08302,Cumberland County,NJ,1.090909090909091,NA,NA
08540,Mercer County,NJ,NA,NA,36.19047619047619
08610,Mercer County,NJ,NA,78.85906040268456,NA
08618,Mercer County,NJ,NA,NA,42.22222222222222
08620,Mercer County,NJ,NA,NA,82.85714285714286
08731,Ocean County,NJ,NA,79.53020134228188,NA
08758,Ocean County,NJ,NA,70.13422818791946,NA
08759,Ocean County,NJ,NA,1.342281879194631,NA
08816,Middlesex County,NJ,NA,NA,45.07936507936508
08846,Middlesex County,NJ,NA,69.12751677852349,NA
08876,Somerset County,NJ,NA,NA,93.33333333333333
87002,Valencia County,NM,NA,NA,72.6984126984127
87740,Colfax County,NM,NA,94.29530201342283,NA
88201,Chaves County,NM,NA,37.58389261744966,NA
10001,New York County,NY,NA,NA,54.285714285714285
10002,New York County,NY,NA,3.3557046979865772,NA
10034,New York County,NY,38.18181818181819,NA,NA
10312,Richmond County,NY,NA,24.832214765100673,NA
10314,Richmond County,NY,NA,4.3624161073825505,NA
10543,Westchester County,NY,NA,74.49664429530202,NA
10562,Westchester County,NY,NA,NA,44.761904761904766
10583,Westchester County,NY,NA,76.51006711409396,34.285714285714285
10701,Westchester County,NY,NA,4.697986577181208,NA
10960,Rockland County,NY,NA,NA,80.31746031746032
11102,Queens County,NY,NA,79.19463087248322,NA
11209,Kings County,NY,70.9090909090909,NA,15.555555555555555
11214,Kings County,NY,NA,NA,7.936507936507936
11222,Kings County,NY,NA,63.42281879194631,NA
11377,Queens County,NY,NA,16.44295302013423,NA
11561,Nassau County,NY,NA,30.87248322147651,25.396825396825395
11563,Nassau County,NY,NA,NA,60.952380952380956
11746,Suffolk County,NY,56.00000000000001,NA,NA
11779,Suffolk County,NY,46.18181818181818,NA,NA
11901,Suffolk County,NY,NA,NA,66.03174603174602
12078,Fulton County,NY,NA,NA,12.698412698412698
13080,Onondaga County,NY,97.0909090909091,NA,NA
13104,Onondaga County,NY,57.09090909090909,NA,NA
13126,Oswego County,NY,6.181818181818182,NA,NA
13140,Cayuga County,NY,NA,92.9530201342282,NA
13205,Onondaga County,NY,NA,NA,46.98412698412698
13212,Onondaga County,NY,35.63636363636364,NA,NA
13340,Herkimer County,NY,61.09090909090909,NA,NA
13365,Herkimer County,NY,40,NA,NA
13367,Lewis County,NY,NA,60.738255033557046,NA
13601,Jefferson County,NY,NA,NA,20.952380952380953
13790,Broome County,NY,NA,8.724832214765101,NA
13815,Chenango County,NY,NA,13.087248322147651,NA
13820,Otsego County,NY,13.454545454545455,NA,NA
13827,Tioga County,NY,NA,32.88590604026846,NA
14028,Niagara County,NY,NA,99.32885906040269,NA
14305,Niagara County,NY,6.909090909090909,NA,NA
14482,Genesee County,NY,56.72727272727273,NA,NA
14512,Ontario County,NY,NA,65.1006711409396,NA
14605,Monroe County,NY,10.545454545454545,NA,NA
14612,Monroe County,NY,NA,NA,37.142857142857146
14787,Chautauqua County,NY,NA,89.93288590604027,NA
27028,Davie County,NC,NA,NA,22.53968253968254
27217,Alamance County,NC,NA,10.738255033557047,NA
27295,Davidson County,NC,NA,3.691275167785235,NA
27406,Guilford County,NC,NA,0.6711409395973155,22.857142857142858
27410,Guilford County,NC,NA,14.093959731543624,NA
27513,Wake County,NC,NA,NA,56.19047619047619
27560,Wake County,NC,82.18181818181817,NA,NA
27603,Wake County,NC,NA,NA,48.25396825396825
27615,Wake County,NC,NA,NA,14.920634920634921
28031,Mecklenburg County,NC,65.81818181818181,NA,NA
28052,Gaston County,NC,NA,NA,47.93650793650794
28092,Lincoln County,NC,NA,12.416107382550337,NA
28115,Iredell County,NC,NA,29.53020134228188,NA
28152,Cleveland County,NC,42.54545454545455,NA,NA
28315,Moore County,NC,NA,NA,79.68253968253968
28337,Bladen County,NC,NA,NA,87.3015873015873
28470,Brunswick County,NC,NA,NA,91.11111111111111
28560,Craven County,NC,NA,38.92617449664429,NA
28602,Catawba County,NC,24,NA,NA
28731,Henderson County,NC,96.72727272727273,NA,NA
28734,Macon County,NC,NA,NA,3.8095238095238098
28754,Madison County,NC,NA,87.24832214765101,NA
28761,McDowell County,NC,NA,78.18791946308725,NA
28777,Mitchell County,NC,NA,68.12080536912751,NA
28806,Buncombe County,NC,NA,42.61744966442953,NA
58201,Grand Forks County,ND,NA,7.718120805369128,NA
58601,Stark County,ND,NA,66.44295302013423,NA
58701,Ward County,ND,14.181818181818182,NA,NA
43019,Knox County,OH,79.63636363636364,NA,NA
43026,Franklin County,OH,NA,21.140939597315437,NA
43050,Knox County,OH,9.090909090909092,NA,NA
43065,Delaware County,OH,NA,27.85234899328859,NA
43082,Delaware County,OH,NA,72.81879194630872,NA
43146,Pickaway County,OH,NA,86.24161073825503,NA
43201,Franklin County,OH,51.272727272727266,NA,NA
43222,Franklin County,OH,61.81818181818181,92.28187919463086,NA
43311,Logan County,OH,34.54545454545455,NA,NA
43558,Fulton County,OH,NA,NA,68.57142857142857
43569,Wood County,OH,96.36363636363636,NA,NA
43623,Lucas County,OH,NA,NA,39.04761904761905
43920,Columbiana County,OH,11.272727272727273,NA,NA
43938,Jefferson County,OH,NA,68.79194630872483,NA
44017,Cuyahoga County,OH,NA,NA,33.33333333333333
44149,Cuyahoga County,OH,NA,NA,15.238095238095239
44202,Portage County,OH,NA,NA,9.523809523809524
44212,Medina County,OH,NA,0.33557046979865773,NA
44221,Summit County,OH,NA,NA,51.746031746031754
44223,Summit County,OH,51.272727272727266,NA,NA
44224,Summit County,OH,23.636363636363637,NA,NA
44444,Trumbull County,OH,NA,NA,77.77777777777779
44615,Carroll County,OH,NA,NA,75.87301587301587
44820,Crawford County,OH,NA,NA,27.3015873015873
45013,Butler County,OH,5.454545454545454,NA,NA
45040,Warren County,OH,NA,NA,27.61904761904762
45066,Warren County,OH,NA,NA,68.25396825396825
45069,Butler County,OH,NA,NA,17.142857142857142
45202,Hamilton County,OH,22.181818181818183,NA,NA
45227,Hamilton County,OH,NA,NA,64.12698412698413
45245,Clermont County,OH,NA,NA,76.5079365079365
45324,Greene County,OH,NA,NA,24.444444444444443
45377,Montgomery County,OH,NA,NA,90.7936507936508
45410,Montgomery County,OH,80.36363636363636,NA,NA
45429,Montgomery County,OH,NA,31.543624161073826,NA
45503,Clark County,OH,9.454545454545455,NA,NA
45638,Lawrence County,OH,NA,NA,27.936507936507937
45652,Scioto County,OH,NA,97.6510067114094,NA
45661,Pike County,OH,NA,43.624161073825505,NA
45895,Auglaize County,OH,NA,31.879194630872483,NA
73008,Oklahoma County,OK,NA,54.69798657718121,NA
73020,Oklahoma County,OK,NA,NA,67.61904761904762
73034,Oklahoma County,OK,NA,13.758389261744966,NA
73071,Cleveland County,OK,NA,47.31543624161073,NA
73120,Oklahoma County,OK,NA,62.08053691275168,NA
73533,Stephens County,OK,24.363636363636363,NA,NA
73701,Garfield County,OK,50.54545454545455,NA,NA
74135,Tulsa County,OK,NA,42.95302013422819,NA
74354,Ottawa County,OK,NA,NA,70.15873015873015
74436,Muskogee County,OK,97.81818181818181,NA,NA
74859,Okfuskee County,OK,NA,95.30201342281879,NA
74948,Sequoyah County,OK,NA,NA,75.23809523809524
74960,Adair County,OK,NA,39.93288590604027,NA
97058,Wasco County,OR,46.54545454545455,30.201342281879196,NA
97071,Marion County,OR,NA,NA,60.317460317460316
97140,Washington County,OR,NA,NA,67.3015873015873
97206,Multnomah County,OR,NA,23.825503355704697,NA
97230,Multnomah County,OR,NA,NA,18.095238095238095
97355,Linn County,OR,NA,NA,8.253968253968253
97467,Douglas County,OR,95.63636363636364,93.6241610738255,NA
97470,Douglas County,OR,NA,25.838926174496645,NA
97501,Jackson County,OR,10.181818181818182,NA,NA
97503,Jackson County,OR,69.0909090909091,NA,NA
97702,Deschutes County,OR,NA,NA,36.82539682539683
97814,Baker County,OR,NA,NA,49.84126984126984
15014,Allegheny County,PA,98.9090909090909,NA,NA
15057,Washington County,PA,84,NA,NA
15101,Allegheny County,PA,NA,NA,15.873015873015872
15108,Allegheny County,PA,NA,NA,12.380952380952381
15122,Allegheny County,PA,NA,54.0268456375839,NA
15212,Allegheny County,PA,NA,NA,42.53968253968254
15478,Fayette County,PA,NA,57.71812080536913,NA
15501,Somerset County,PA,NA,NA,50.79365079365079
15650,Westmoreland County,PA,NA,NA,13.015873015873018
15801,Clearfield County,PA,NA,NA,24.761904761904763
15851,Jefferson County,PA,NA,NA,33.65079365079365
15853,Elk County,PA,NA,NA,61.904761904761905
15857,Elk County,PA,NA,NA,10.476190476190476
16142,Lawrence County,PA,NA,87.91946308724832,NA
16316,Crawford County,PA,89.0909090909091,NA,NA
16354,Crawford County,PA,NA,NA,66.34920634920634
16506,Erie County,PA,NA,NA,46.34920634920635
16601,Blair County,PA,11.636363636363637,NA,NA
16602,Blair County,PA,16.363636363636363,NA,25.07936507936508
16686,Blair County,PA,64,NA,59.04761904761905
17020,Perry County,PA,86.54545454545455,NA,NA
17033,Dauphin County,PA,NA,NA,26.34920634920635
17036,Dauphin County,PA,26.181818181818183,NA,NA
17074,Perry County,PA,NA,NA,98.4126984126984
17111,Dauphin County,PA,NA,7.046979865771812,NA
17201,Franklin County,PA,NA,20.13422818791946,NA
17315,York County,PA,67.27272727272727,NA,NA
17331,York County,PA,NA,NA,0.9523809523809524
17356,York County,PA,NA,NA,43.80952380952381
17401,York County,PA,NA,90.26845637583892,NA
17403,York County,PA,4.363636363636364,NA,NA
17540,Lancaster County,PA,84.36363636363636,NA,NA
17820,Columbia County,PA,89.45454545454545,NA,NA
17870,Snyder County,PA,NA,29.86577181208054,NA
18014,Northampton County,PA,NA,35.57046979865772,NA
18015,Northampton County,PA,37.09090909090909,25.16778523489933,NA
18020,Northampton County,PA,NA,NA,28.57142857142857
18049,Lehigh County,PA,NA,73.48993288590604,NA
18062,Lehigh County,PA,NA,65.43624161073825,NA
18064,Northampton County,PA,NA,NA,22.22222222222222
18102,Lehigh County,PA,0,NA,NA
18104,Lehigh County,PA,17.09090909090909,NA,NA
18472,Wayne County,PA,NA,89.26174496644296,NA
18661,Luzerne County,PA,NA,74.49664429530202,NA
18702,Luzerne County,PA,NA,NA,6.984126984126984
18940,Bucks County,PA,68,NA,NA
18966,Bucks County,PA,NA,41.2751677852349,NA
19027,Montgomery County,PA,NA,NA,25.71428571428571
19055,Bucks County,PA,NA,73.15436241610739,NA
19130,Philadelphia County,PA,NA,33.89261744966443,NA
19133,Philadelphia County,PA,18.545454545454547,NA,NA
19344,Chester County,PA,NA,NA,77.46031746031747
19363,Chester County,PA,NA,69.79865771812081,NA
19380,Chester County,PA,NA,NA,3.492063492063492
19438,Montgomery County,PA,NA,51.67785234899329,NA
19468,Montgomery County,PA,NA,33.22147651006711,NA
19567,Berks County,PA,NA,NA,92.6984126984127
02879,Washington County,RI,NA,NA,39.682539682539684
29036,Lexington County,SC,NA,NA,76.82539682539684
29045,Kershaw County,SC,NA,50.671140939597315,NA
29053,Lexington County,SC,NA,NA,97.46031746031746
29072,Lexington County,SC,30.181818181818183,NA,NA
29160,Lexington County,SC,NA,NA,94.6031746031746
29210,Richland County,SC,48.36363636363637,NA,NA
29229,Richland County,SC,43.27272727272727,NA,NA
29464,Charleston County,SC,NA,NA,20
29488,Colleton County,SC,NA,34.22818791946309,NA
29672,Oconee County,SC,NA,66.77852348993288,NA
29676,Oconee County,SC,NA,NA,94.28571428571428
57702,Pennington County,SD,NA,NA,11.428571428571429
37014,Williamson County,TN,99.63636363636364,NA,NA
37064,Williamson County,TN,NA,NA,67.93650793650794
37066,Sumner County,TN,NA,9.395973154362416,NA
37072,Davidson County,TN,69.45454545454545,NA,NA
37075,Sumner County,TN,NA,7.38255033557047,NA
37110,Warren County,TN,20,NA,NA
37135,Williamson County,TN,NA,NA,99.68253968253968
37377,Hamilton County,TN,NA,83.89261744966443,NA
37615,Washington County,TN,NA,56.375838926174495,NA
37650,Unicoi County,TN,NA,NA,49.523809523809526
37660,Sullivan County,TN,9.818181818181818,NA,NA
37801,Blount County,TN,18.90909090909091,NA,NA
37804,Blount County,TN,32.72727272727273,NA,NA
37814,Hamblen County,TN,36,NA,NA
37830,Anderson County,TN,27.636363636363637,NA,NA
37841,Scott County,TN,81.81818181818183,NA,NA
38016,Shelby County,TN,NA,46.97986577181208,NA
38019,Tipton County,TN,NA,49.664429530201346,NA
38117,Shelby County,TN,NA,NA,60
38301,Madison County,TN,13.818181818181818,NA,NA
38305,Madison County,TN,NA,NA,19.682539682539684
38340,Chester County,TN,70.18181818181817,NA,NA
38351,Henderson County,TN,58.18181818181818,NA,NA
75023,Collin County,TX,NA,NA,63.8095238095238
75041,Dallas County,TX,NA,NA,65.71428571428571
75057,Denton County,TX,NA,84.22818791946308,NA
75093,Collin County,TX,NA,NA,40
75126,Kaufman County,TX,NA,41.946308724832214,NA
75204,Dallas County,TX,NA,NA,97.46031746031746
75206,Dallas County,TX,NA,NA,92.06349206349206
75228,Dallas County,TX,30.909090909090907,NA,NA
75244,Dallas County,TX,NA,NA,90.15873015873017
75652,Rusk County,TX,NA,NA,78.73015873015873
75662,Gregg County,TX,NA,NA,48.888888888888886
75754,Van Zandt County,TX,NA,75.16778523489933,NA
75771,Smith County,TX,60.36363636363637,NA,NA
75951,Jasper County,TX,55.27272727272727,NA,NA
76021,Tarrant County,TX,40.72727272727273,NA,NA
76036,Tarrant County,TX,64.36363636363637,NA,NA
76044,Johnson County,TX,98.18181818181819,NA,NA
76107,Tarrant County,TX,NA,NA,92.38095238095238
76118,Tarrant County,TX,NA,NA,86.98412698412699
76132,Tarrant County,TX,NA,NA,54.6031746031746
76502,Bell County,TX,NA,NA,0
76633,McLennan County,TX,NA,NA,100
77005,Harris County,TX,78.9090909090909,NA,NA
77036,Harris County,TX,NA,23.48993288590604,NA
77069,Harris County,TX,NA,44.29530201342282,NA
77070,Harris County,TX,50.90909090909091,NA,NA
77328,San Jacinto County,TX,NA,83.55704697986577,NA
77339,Harris County,TX,63.272727272727266,NA,NA
77373,Harris County,TX,33.45454545454545,NA,NA
77377,Harris County,TX,NA,NA,51.42857142857142
77381,Montgomery County,TX,NA,NA,57.77777777777777
77388,Harris County,TX,49.45454545454545,NA,NA
77418,Austin County,TX,NA,NA,79.36507936507937
77479,Fort Bend County,TX,NA,18.79194630872483,NA
77539,Galveston County,TX,NA,NA,38.730158730158735
77571,Harris County,TX,NA,45.63758389261745,NA
77573,Galveston County,TX,NA,5.704697986577181,NA
77590,Galveston County,TX,NA,NA,30.476190476190478
77632,Orange County,TX,NA,NA,82.53968253968253
77807,Brazos County,TX,NA,67.78523489932886,NA
78041,Webb County,TX,NA,NA,33.01587301587301
78043,Webb County,TX,NA,28.859060402684566,NA
78201,Bexar County,TX,26.545454545454543,NA,NA
78213,Bexar County,TX,NA,60.06711409395973,NA
78221,Bexar County,TX,50.18181818181818,NA,NA
78244,Bexar County,TX,66.54545454545455,NA,NA
78620,Hays County,TX,96,NA,NA
78628,Williamson County,TX,NA,26.51006711409396,NA
78681,Williamson County,TX,NA,31.20805369127517,NA
78739,Travis County,TX,NA,96.30872483221476,NA
79106,Potter County,TX,NA,NA,47.3015873015873
79360,Gaines County,TX,NA,NA,65.39682539682539
79601,Taylor County,TX,94.54545454545455,NA,NA
79603,Taylor County,TX,NA,32.5503355704698,NA
79706,Midland County,TX,49.81818181818182,64.76510067114094,NA
84040,Davis County,UT,NA,84.8993288590604,NA
84074,Tooele County,UT,NA,NA,34.6031746031746
84098,Summit County,UT,71.27272727272728,NA,NA
84106,Salt Lake County,UT,NA,NA,28.253968253968253
84119,Salt Lake County,UT,48,NA,NA
84121,Salt Lake County,UT,NA,NA,23.174603174603174
05346,Windham County,VT,NA,NA,84.12698412698413
05491,Addison County,VT,NA,NA,91.42857142857143
22101,Fairfax County,VA,57.81818181818181,NA,NA
22193,Prince William County,VA,16,NA,NA
22312,Fairfax County,VA,NA,NA,93.65079365079364
22401,Fredericksburg city,VA,NA,71.81208053691275,NA
22407,Spotsylvania County,VA,20.727272727272727,NA,NA
22701,Culpeper County,VA,28.000000000000004,NA,NA
22963,Fluvanna County,VA,NA,NA,51.11111111111111
23238,Henrico County,VA,91.63636363636364,NA,NA
23320,Chesapeake city,VA,NA,NA,11.11111111111111
23451,Virginia Beach city,VA,NA,NA,2.857142857142857
23454,Virginia Beach city,VA,33.81818181818182,NA,NA
23456,Virginia Beach city,VA,NA,9.731543624161073,NA
23462,Virginia Beach city,VA,NA,10.40268456375839,NA
23518,Norfolk city,VA,NA,64.42953020134227,NA
23663,Hampton city,VA,NA,53.691275167785236,NA
23669,Hampton city,VA,NA,13.422818791946309,NA
23701,Portsmouth city,VA,53.45454545454545,NA,NA
23805,Petersburg city,VA,NA,57.38255033557047,NA
24121,Bedford County,VA,NA,NA,78.41269841269842
24343,Carroll County,VA,NA,70.80536912751678,NA
24360,Wythe County,VA,94.9090909090909,NA,NA
24370,Smyth County,VA,85.0909090909091,NA,NA
24504,Lynchburg city,VA,NA,72.14765100671141,NA
98042,King County,WA,NA,NA,26.984126984126984
98056,King County,WA,87.63636363636364,NA,NA
98102,King County,WA,NA,65.77181208053692,NA
98119,King County,WA,NA,NA,73.96825396825398
98122,King County,WA,NA,40.939597315436245,NA
98126,King County,WA,65.45454545454545,NA,NA
98144,King County,WA,34.18181818181818,NA,NA
98166,King County,WA,NA,50,NA
98188,King County,WA,NA,NA,68.88888888888889
98272,Snohomish County,WA,NA,41.946308724832214,NA
98273,Skagit County,WA,NA,NA,9.841269841269842
98277,Island County,WA,NA,25.503355704697988,NA
98310,Kitsap County,WA,NA,64.09395973154362,NA
98311,Kitsap County,WA,NA,81.20805369127517,NA
98367,Kitsap County,WA,NA,46.308724832214764,NA
98466,Pierce County,WA,66.9090909090909,NA,NA
98626,Cowlitz County,WA,NA,NA,55.23809523809524
98632,Cowlitz County,WA,NA,NA,2.2222222222222223
98671,Clark County,WA,NA,NA,77.14285714285715
98802,Douglas County,WA,NA,28.187919463087248,NA
99223,Spokane County,WA,NA,52.013422818791945,NA
99354,Benton County,WA,NA,NA,23.809523809523807
99362,Walla Walla County,WA,NA,NA,11.746031746031745
25064,Kanawha County,WV,NA,62.41610738255034,NA
25427,Berkeley County,WV,68.72727272727272,NA,NA
25661,Mingo County,WV,52.72727272727272,NA,NA
26101,Wood County,WV,26.90909090909091,NA,NA
26554,Marion County,WV,NA,2.013422818791946,NA
53105,Racine County,WI,NA,11.073825503355705,NA
53150,Waukesha County,WI,NA,37.919463087248324,NA
53205,Milwaukee County,WI,4,NA,NA
53206,Milwaukee County,WI,12.727272727272727,NA,NA
53208,Milwaukee County,WI,NA,28.523489932885905,NA
53209,Milwaukee County,WI,3.6363636363636362,NA,NA
53217,Milwaukee County,WI,NA,26.845637583892618,NA
53226,Milwaukee County,WI,NA,67.4496644295302,NA
53511,Rock County,WI,NA,0,NA
53704,Dane County,WI,14.545454545454545,NA,NA
53711,Dane County,WI,36.36363636363637,NA,NA
53901,Columbia County,WI,74.90909090909092,NA,NA
54313,Brown County,WI,NA,NA,34.92063492063492
54409,Langlade County,WI,NA,22.818791946308725,NA
54501,Oneida County,WI,NA,NA,87.93650793650794
54521,Vilas County,WI,NA,NA,53.96825396825397
54601,La Crosse County,WI,NA,1.006711409395973,NA
54656,Monroe County,WI,NA,38.25503355704698,NA
54751,Dunn County,WI,40.72727272727273,NA,NA
54806,Ashland County,WI,NA,NA,81.26984126984127
54915,Outagamie County,WI,74.54545454545455,NA,NA
