ZipCode,county,state,Adult,Retirement,Geriatric
35242,Shelby County,AL,NA,NA,8.627450980392156
35619,Morgan County,AL,90.5829596412556,NA,NA
35622,Morgan County,AL,NA,NA,94.50980392156862
35903,Etowah County,AL,56.05381165919282,NA,NA
35967,DeKalb County,AL,NA,NA,75.68627450980392
36054,Elmore County,AL,NA,NA,88.23529411764706
36093,Elmore County,AL,73.99103139013454,NA,NA
36375,Geneva County,AL,NA,80.97165991902834,NA
36421,Covington County,AL,78.9237668161435,NA,NA
99603,Kenai Peninsula Borough,AK,NA,61.53846153846154,NA
99654,Matanuska-Susitna Borough,AK,NA,48.987854251012145,NA
85020,Maricopa County,AZ,NA,43.31983805668016,NA
85027,Maricopa County,AZ,NA,60.32388663967612,NA
85029,Maricopa County,AZ,NA,NA,52.94117647058824
85035,Maricopa County,AZ,NA,NA,91.37254901960785
85132,Pinal County,AZ,69.50672645739911,NA,NA
85207,Maricopa County,AZ,NA,NA,54.11764705882353
85225,Maricopa County,AZ,NA,35.62753036437247,NA
85257,Maricopa County,AZ,NA,72.8744939271255,NA
85295,Maricopa County,AZ,NA,81.37651821862349,NA
85302,Maricopa County,AZ,NA,69.63562753036437,NA
85648,Santa Cruz County,AZ,53.81165919282511,NA,NA
86001,Coconino County,AZ,NA,52.63157894736842,NA
86314,Yavapai County,AZ,NA,NA,14.50980392156863
86326,Yavapai County,AZ,NA,64.77732793522267,NA
86442,Mohave County,AZ,NA,NA,25.098039215686274
71801,Hempstead County,AR,NA,NA,71.37254901960785
72031,Van Buren County,AR,NA,NA,91.76470588235294
72088,Van Buren County,AR,NA,97.97570850202429,NA
72903,Sebastian County,AR,NA,NA,60.78431372549019
72908,Sebastian County,AR,81.61434977578476,NA,NA
90013,Los Angeles County,CA,56.95067264573991,NA,NA
90025,Los Angeles County,CA,NA,NA,11.76470588235294
90038,Los Angeles County,CA,74.43946188340807,NA,NA
90039,Los Angeles County,CA,81.16591928251121,NA,NA
90221,Los Angeles County,CA,NA,44.93927125506073,NA
90248,Los Angeles County,CA,NA,NA,97.6470588235294
90274,Los Angeles County,CA,NA,68.0161943319838,NA
90604,Los Angeles County,CA,NA,NA,33.33333333333333
90638,Los Angeles County,CA,NA,46.558704453441294,NA
90650,Los Angeles County,CA,21.524663677130047,NA,NA
90744,Los Angeles County,CA,60.0896860986547,NA,NA
91306,Los Angeles County,CA,NA,NA,50.98039215686274
91316,Los Angeles County,CA,NA,59.10931174089069,NA
91335,Los Angeles County,CA,NA,42.91497975708502,NA
91355,Los Angeles County,CA,NA,NA,70.58823529411765
91730,San Bernardino County,CA,NA,45.34412955465587,NA
91737,San Bernardino County,CA,75.33632286995515,NA,NA
91764,San Bernardino County,CA,37.219730941704036,NA,NA
91911,San Diego County,CA,NA,21.45748987854251,10.196078431372548
91950,San Diego County,CA,NA,NA,84.31372549019608
91977,San Diego County,CA,36.32286995515695,NA,NA
92021,San Diego County,CA,NA,17.408906882591094,NA
92025,San Diego County,CA,NA,57.89473684210527,NA
92027,San Diego County,CA,NA,NA,48.627450980392155
92040,San Diego County,CA,49.775784753363226,NA,NA
92067,San Diego County,CA,NA,NA,70.19607843137254
92084,San Diego County,CA,58.29596412556054,NA,NA
92101,San Diego County,CA,NA,NA,39.6078431372549
92120,San Diego County,CA,77.13004484304933,NA,NA
92129,San Diego County,CA,NA,NA,52.54901960784314
92139,San Diego County,CA,NA,NA,56.07843137254902
92234,Riverside County,CA,NA,NA,40
92563,Riverside County,CA,NA,49.392712550607285,NA
92570,Riverside County,CA,NA,52.226720647773284,NA
92657,Orange County,CA,97.75784753363229,NA,NA
92881,Riverside County,CA,NA,80.16194331983806,NA
93030,Ventura County,CA,21.076233183856502,NA,NA
93036,Ventura County,CA,NA,NA,83.92156862745098
93105,Santa Barbara County,CA,NA,93.92712550607287,NA
93274,Tulare County,CA,6.278026905829597,NA,NA
93280,Kern County,CA,NA,91.49797570850203,NA
93285,Kern County,CA,100,NA,NA
93308,Kern County,CA,31.390134529147986,NA,NA
93402,San Luis Obispo County,CA,NA,NA,90.19607843137256
93446,San Luis Obispo County,CA,NA,NA,55.68627450980392
93543,Los Angeles County,CA,87.89237668161435,NA,NA
93561,Kern County,CA,NA,58.2995951417004,NA
93611,Fresno County,CA,NA,76.11336032388664,NA
94115,San Francisco County,CA,NA,NA,15.686274509803921
94301,Santa Clara County,CA,NA,91.09311740890689,NA
94501,Alameda County,CA,39.46188340807175,NA,27.84313725490196
94515,Napa County,CA,NA,NA,93.72549019607843
94577,Alameda County,CA,NA,NA,76.07843137254902
94603,Alameda County,CA,73.54260089686099,NA,NA
94920,Marin County,CA,NA,NA,49.80392156862745
95008,Santa Clara County,CA,62.78026905829597,NA,NA
95110,Santa Clara County,CA,79.82062780269058,NA,NA
95380,Stanislaus County,CA,NA,NA,61.96078431372549
95401,Sonoma County,CA,NA,NA,45.09803921568628
95423,Lake County,CA,NA,93.52226720647774,NA
95608,Sacramento County,CA,42.600896860986545,NA,NA
95610,Sacramento County,CA,NA,51.417004048582996,NA
95632,Sacramento County,CA,NA,NA,73.33333333333333
95667,El Dorado County,CA,NA,NA,1.5686274509803921
95746,Placer County,CA,NA,79.35222672064778,NA
95828,Sacramento County,CA,NA,40.08097165991903,NA
95965,Butte County,CA,51.12107623318386,NA,NA
95973,Butte County,CA,NA,NA,22.35294117647059
80014,Arapahoe County,CO,NA,NA,9.803921568627452
80020,Broomfield County,CO,NA,42.51012145748988,NA
80127,Jefferson County,CO,NA,NA,66.27450980392156
80128,Jefferson County,CO,NA,NA,78.03921568627452
80204,Denver County,CO,26.905829596412556,NA,NA
80219,Denver County,CO,4.932735426008969,NA,NA
80226,Jefferson County,CO,NA,NA,69.01960784313725
80241,Adams County,CO,56.502242152466366,NA,NA
80504,Boulder County,CO,33.6322869955157,NA,NA
80621,Weld County,CO,NA,84.21052631578947,NA
80906,El Paso County,CO,83.85650224215246,NA,NA
80911,El Paso County,CO,NA,81.78137651821862,NA
81005,Pueblo County,CO,NA,NA,38.03921568627451
81301,La Plata County,CO,NA,48.582995951417004,NA
81501,Mesa County,CO,47.08520179372198,NA,NA
81621,Eagle County,CO,NA,NA,98.0392156862745
06040,Hartford County,CT,NA,24.291497975708502,NA
06062,Hartford County,CT,NA,NA,66.66666666666666
06082,Hartford County,CT,NA,17.00404858299595,NA
06226,Windham County,CT,20.62780269058296,NA,NA
06405,New Haven County,CT,NA,NA,44.70588235294118
06418,New Haven County,CT,68.60986547085201,NA,NA
06460,New Haven County,CT,NA,19.02834008097166,NA
06776,Litchfield County,CT,NA,NA,61.568627450980394
19720,New Castle County,DE,NA,3.643724696356275,NA
32033,St. Johns County,FL,NA,96.35627530364373,NA
32043,Clay County,FL,NA,NA,55.294117647058826
32054,Union County,FL,NA,85.02024291497976,NA
32210,Duval County,FL,NA,8.097165991902834,NA
32246,Duval County,FL,NA,NA,51.37254901960784
32309,Leon County,FL,NA,75.7085020242915,NA
32312,Leon County,FL,83.40807174887892,NA,NA
32348,Taylor County,FL,NA,88.25910931174089,NA
32401,Bay County,FL,NA,37.24696356275304,NA
32404,Bay County,FL,NA,NA,26.27450980392157
32547,Okaloosa County,FL,44.39461883408072,NA,NA
32566,Santa Rosa County,FL,NA,29.1497975708502,NA
32807,Orange County,FL,NA,68.0161943319838,NA
32822,Orange County,FL,NA,NA,33.72549019607843
32926,Brevard County,FL,NA,NA,60.3921568627451
32958,Indian River County,FL,NA,NA,5.88235294117647
32966,Indian River County,FL,NA,NA,18.03921568627451
33065,Broward County,FL,NA,56.68016194331984,NA
33134,Miami-Dade County,FL,NA,NA,32.549019607843135
33136,Miami-Dade County,FL,NA,NA,85.49019607843137
33157,Miami-Dade County,FL,NA,NA,25.882352941176475
33174,Miami-Dade County,FL,NA,NA,18.43137254901961
33322,Broward County,FL,NA,NA,14.901960784313726
33410,Palm Beach County,FL,NA,NA,34.11764705882353
33428,Palm Beach County,FL,NA,NA,19.215686274509807
33432,Palm Beach County,FL,NA,NA,30.980392156862745
33436,Palm Beach County,FL,57.399103139013455,NA,NA
33460,Palm Beach County,FL,NA,NA,76.47058823529412
33467,Palm Beach County,FL,NA,NA,17.647058823529413
33471,Glades County,FL,96.41255605381166,NA,NA
33573,Hillsborough County,FL,NA,NA,3.5294117647058822
33613,Hillsborough County,FL,43.946188340807176,NA,NA
33619,Hillsborough County,FL,NA,46.963562753036435,NA
33703,Pinellas County,FL,NA,NA,61.1764705882353
33709,Pinellas County,FL,NA,NA,54.509803921568626
33762,Pinellas County,FL,NA,97.57085020242914,NA
33774,Pinellas County,FL,NA,NA,64.31372549019608
33810,Polk County,FL,NA,43.7246963562753,NA
33844,Polk County,FL,NA,44.534412955465584,NA
33950,Charlotte County,FL,NA,NA,27.450980392156865
34105,Collier County,FL,NA,76.92307692307693,NA
34223,Sarasota County,FL,88.34080717488789,NA,NA
34442,Citrus County,FL,NA,NA,72.94117647058823
34667,Pasco County,FL,NA,33.603238866396765,NA
34698,Pinellas County,FL,NA,28.34008097165992,NA
34741,Osceola County,FL,NA,NA,72.15686274509804
34772,Osceola County,FL,NA,NA,80
34951,St. Lucie County,FL,82.51121076233184,NA,NA
34990,Martin County,FL,NA,31.17408906882591,NA
30019,Gwinnett County,GA,41.25560538116592,NA,NA
30030,DeKalb County,GA,NA,NA,52.156862745098046
30044,Gwinnett County,GA,23.766816143497756,NA,NA
30066,Cobb County,GA,48.87892376681614,NA,NA
30101,Cobb County,GA,NA,NA,41.568627450980394
30108,Carroll County,GA,NA,NA,98.4313725490196
30135,Douglas County,GA,NA,15.789473684210526,NA
30180,Carroll County,GA,28.251121076233183,NA,NA
30268,Fulton County,GA,NA,NA,90.58823529411765
30308,Fulton County,GA,NA,90.68825910931174,NA
30338,DeKalb County,GA,91.03139013452915,NA,NA
30458,Bulloch County,GA,NA,44.12955465587044,NA
30650,Morgan County,GA,65.02242152466367,NA,NA
30701,Gordon County,GA,NA,36.84210526315789,NA
30728,Walker County,GA,37.66816143497758,NA,NA
30739,Walker County,GA,93.27354260089686,NA,NA
31546,Wayne County,GA,84.30493273542601,NA,NA
31816,Meriwether County,GA,NA,94.73684210526315,NA
96701,Honolulu County,HI,35.874439461883405,NA,NA
96734,Honolulu County,HI,NA,NA,10.588235294117647
96793,Maui County,HI,NA,92.71255060728745,NA
96797,Honolulu County,HI,9.865470852017937,NA,NA
96817,Honolulu County,HI,14.798206278026907,NA,NA
83301,Twin Falls County,ID,NA,NA,0.39215686274509803
83316,Twin Falls County,ID,NA,NA,32.15686274509804
83404,Bonneville County,ID,NA,NA,57.647058823529406
83442,Jefferson County,ID,45.73991031390135,NA,81.17647058823529
83642,Ada County,ID,NA,NA,8.235294117647058
83686,Canyon County,ID,NA,5.668016194331984,NA
83702,Ada County,ID,86.09865470852019,NA,NA
60020,Lake County,IL,NA,NA,78.43137254901961
60062,Cook County,IL,41.70403587443946,NA,NA
60112,DeKalb County,IL,99.55156950672645,NA,NA
60143,DuPage County,IL,NA,78.13765182186235,NA
60145,DeKalb County,IL,98.20627802690582,NA,NA
60194,Cook County,IL,NA,NA,45.88235294117647
60404,Will County,IL,NA,NA,59.6078431372549
60433,Will County,IL,NA,79.75708502024291,NA
60452,Cook County,IL,NA,NA,40.3921568627451
60482,Cook County,IL,NA,NA,89.01960784313725
60517,DuPage County,IL,NA,NA,47.84313725490196
60563,DuPage County,IL,47.98206278026906,NA,26.666666666666668
60614,Cook County,IL,NA,NA,15.294117647058824
61021,Lee County,IL,NA,NA,3.9215686274509802
61301,LaSalle County,IL,NA,NA,67.84313725490196
61350,LaSalle County,IL,NA,NA,30.19607843137255
61604,Peoria County,IL,NA,47.77327935222672,NA
61866,Champaign County,IL,NA,76.51821862348179,NA
61920,Coles County,IL,NA,NA,43.529411764705884
62263,Washington County,IL,NA,NA,89.80392156862746
62521,Macon County,IL,NA,10.121457489878543,NA
62675,Menard County,IL,NA,NA,99.2156862745098
62681,Schuyler County,IL,NA,87.04453441295547,NA
62839,Clay County,IL,NA,NA,86.66666666666667
46135,Putnam County,IN,65.91928251121077,NA,NA
46208,Marion County,IN,NA,NA,74.90196078431373
46222,Marion County,IN,24.2152466367713,NA,NA
46375,Lake County,IN,NA,19.838056680161944,NA
46383,Porter County,IN,NA,6.882591093117409,NA
46755,Noble County,IN,NA,NA,69.80392156862744
46825,Allen County,IN,NA,NA,34.509803921568626
46835,Allen County,IN,NA,13.360323886639677,NA
46901,Howard County,IN,17.48878923766816,NA,NA
47130,Clark County,IN,NA,7.28744939271255,NA
47424,Greene County,IN,90.13452914798206,NA,NA
47842,Vermillion County,IN,NA,NA,88.62745098039215
47904,Tippecanoe County,IN,60.53811659192825,NA,NA
47933,Montgomery County,IN,NA,NA,29.01960784313726
50317,Polk County,IA,NA,18.218623481781375,NA
50327,Polk County,IA,NA,NA,87.84313725490196
50701,Black Hawk County,IA,34.52914798206278,NA,NA
51501,Pottawattamie County,IA,NA,12.955465587044534,NA
51601,Page County,IA,NA,NA,63.13725490196078
52402,Linn County,IA,NA,NA,36.07843137254902
52403,Linn County,IA,NA,NA,36.470588235294116
52501,Wapello County,IA,NA,38.05668016194332,NA
66044,Douglas County,KS,NA,69.23076923076923,NA
66062,Johnson County,KS,NA,18.62348178137652,NA
66067,Franklin County,KS,NA,NA,43.92156862745098
66213,Johnson County,KS,NA,53.036437246963565,NA
66538,Nemaha County,KS,94.61883408071749,NA,NA
67214,Sedgwick County,KS,NA,NA,97.25490196078431
67218,Sedgwick County,KS,NA,91.90283400809717,NA
67226,Sedgwick County,KS,85.20179372197309,NA,NA
40047,Bullitt County,KY,NA,59.91902834008097,NA
40065,Shelby County,KY,NA,38.46153846153847,NA
40216,Jefferson County,KY,11.210762331838566,NA,NA
40219,Jefferson County,KY,16.143497757847534,NA,NA
40245,Jefferson County,KY,74.88789237668162,NA,NA
40508,Fayette County,KY,NA,74.49392712550608,NA
40729,Laurel County,KY,79.37219730941703,NA,NA
40965,Bell County,KY,NA,39.27125506072874,NA
41017,Kenton County,KY,33.18385650224215,NA,23.92156862745098
41144,Greenup County,KY,43.04932735426009,NA,NA
41501,Pike County,KY,NA,16.194331983805668,NA
41514,Pike County,KY,NA,99.19028340080972,NA
41553,Pike County,KY,99.10313901345292,NA,NA
42003,McCracken County,KY,17.937219730941703,NA,NA
42104,Warren County,KY,45.2914798206278,NA,NA
42303,Daviess County,KY,NA,NA,24.313725490196077
42420,Henderson County,KY,NA,15.384615384615385,NA
42503,Pulaski County,KY,46.18834080717489,NA,NA
42602,Clinton County,KY,82.95964125560538,NA,NA
42701,Hardin County,KY,14.349775784753364,NA,NA
70435,St. Tammany Parish,LA,25.112107623318387,NA,NA
70441,St. Helena Parish,LA,92.82511210762333,NA,NA
70529,Lafayette Parish,LA,NA,88.25910931174089,NA
70769,Ascension Parish,LA,12.10762331838565,NA,NA
70816,East Baton Rouge Parish,LA,NA,41.70040485829959,NA
71295,Franklin Parish,LA,22.421524663677133,NA,NA
71351,Avoyelles Parish,LA,32.73542600896861,NA,NA
71463,Allen Parish,LA,60.98654708520179,NA,NA
04021,Cumberland County,ME,NA,NA,81.56862745098039
04072,York County,ME,NA,NA,35.68627450980392
04086,Sagadahoc County,ME,NA,NA,50.19607843137255
04103,Cumberland County,ME,NA,28.74493927125506,NA
04901,Kennebec County,ME,NA,NA,5.490196078431373
04967,Somerset County,ME,NA,NA,96.47058823529412
20707,Prince George's County,MD,66.3677130044843,NA,NA
20745,Prince George's County,MD,NA,62.34817813765182,NA
20850,Montgomery County,MD,63.67713004484305,NA,NA
21701,Frederick County,MD,NA,NA,41.17647058823529
21740,Washington County,MD,NA,NA,30.58823529411765
01040,Hampden County,MA,NA,0,NA
01082,Hampshire County,MA,NA,NA,58.82352941176471
01201,Berkshire County,MA,NA,0.4048582995951417,NA
01230,Berkshire County,MA,NA,55.465587044534416,NA
01453,Worcester County,MA,NA,0.8097165991902834,NA
01545,Worcester County,MA,NA,19.02834008097166,NA
01569,Worcester County,MA,66.81614349775785,NA,NA
01570,Worcester County,MA,NA,4.048582995951417,NA
01602,Worcester County,MA,7.623318385650224,NA,NA
01803,Middlesex County,MA,NA,36.032388663967616,3.1372549019607843
01810,Essex County,MA,16.591928251121075,NA,NA
01841,Essex County,MA,NA,NA,65.49019607843137
02021,Norfolk County,MA,NA,73.27935222672065,NA
02025,Norfolk County,MA,NA,85.4251012145749,NA
02081,Norfolk County,MA,NA,NA,38.82352941176471
02148,Middlesex County,MA,NA,4.4534412955465585,NA
02155,Middlesex County,MA,NA,NA,0.7843137254901961
02176,Middlesex County,MA,NA,NA,16.470588235294116
02302,Plymouth County,MA,NA,2.834008097165992,NA
02653,Barnstable County,MA,NA,NA,83.13725490196079
02743,Bristol County,MA,NA,NA,79.6078431372549
48017,Oakland County,MI,NA,78.94736842105263,NA
48040,St. Clair County,MI,NA,77.32793522267207,NA
48081,Macomb County,MI,NA,30.364372469635626,NA
48111,Wayne County,MI,6.726457399103139,NA,NA
48134,Wayne County,MI,30.94170403587444,NA,NA
48146,Wayne County,MI,9.417040358744394,NA,NA
48162,Monroe County,MI,NA,3.2388663967611335,NA
48165,Oakland County,MI,75.33632286995515,NA,NA
48166,Monroe County,MI,44.39461883408072,NA,NA
48174,Wayne County,MI,NA,NA,39.21568627450981
48189,Washtenaw County,MI,61.43497757847533,NA,NA
48201,Wayne County,MI,NA,63.1578947368421,NA
48304,Oakland County,MI,NA,NA,29.411764705882355
48309,Oakland County,MI,NA,33.198380566801625,NA
48328,Oakland County,MI,39.01345291479821,NA,NA
48381,Oakland County,MI,NA,59.51417004048582,NA
48423,Genesee County,MI,NA,26.720647773279353,NA
48640,Midland County,MI,NA,17.813765182186234,NA
48657,Midland County,MI,NA,74.89878542510121,NA
48843,Livingston County,MI,NA,6.0728744939271255,NA
49002,Kalamazoo County,MI,NA,38.8663967611336,NA
49004,Kalamazoo County,MI,46.63677130044843,NA,NA
49240,Jackson County,MI,NA,NA,89.01960784313725
49242,Hillsdale County,MI,NA,NA,53.333333333333336
49525,Kent County,MI,NA,30.76923076923077,NA
49635,Benzie County,MI,NA,NA,81.56862745098039
55024,Dakota County,MN,NA,NA,87.45098039215686
55082,Washington County,MN,NA,NA,49.411764705882355
55119,Ramsey County,MN,NA,NA,41.96078431372549
55317,Carver County,MN,NA,93.11740890688259,NA
55343,Hennepin County,MN,NA,48.178137651821864,NA
55344,Hennepin County,MN,91.4798206278027,NA,NA
55901,Olmsted County,MN,NA,32.388663967611336,NA
55912,Mower County,MN,NA,4.8582995951417,NA
55963,Goodhue County,MN,NA,NA,94.11764705882352
56013,Faribault County,MN,NA,89.06882591093117,NA
56308,Douglas County,MN,30.493273542600896,NA,NA
56479,Todd County,MN,NA,NA,75.29411764705883
38632,DeSoto County,MS,NA,NA,67.45098039215686
39191,Copiah County,MS,NA,87.85425101214574,NA
39426,Pearl River County,MS,NA,NA,72.54901960784314
39429,Marion County,MS,64.57399103139014,NA,NA
39452,George County,MS,NA,NA,35.294117647058826
63021,St. Louis County,MO,NA,12.550607287449392,NA
63031,St. Louis County,MO,NA,NA,7.0588235294117645
63119,St. Louis County,MO,NA,51.012145748987855,NA
63122,St. Louis County,MO,NA,29.959514170040485,NA
63123,St. Louis County,MO,NA,NA,4.313725490196078
63125,St. Louis County,MO,NA,NA,17.254901960784313
63128,St. Louis County,MO,NA,27.530364372469634,NA
63301,St. Charles County,MO,17.040358744394617,NA,NA
63801,Scott County,MO,NA,NA,21.568627450980394
63901,Butler County,MO,NA,NA,36.86274509803922
64014,Jackson County,MO,NA,39.67611336032389,NA
64024,Clay County,MO,21.973094170403588,NA,NA
64050,Jackson County,MO,18.83408071748879,NA,NA
64062,Ray County,MO,NA,NA,92.15686274509804
64075,Jackson County,MO,NA,72.06477732793523,NA
64085,Ray County,MO,51.569506726457405,NA,NA
64133,Jackson County,MO,4.484304932735426,NA,NA
64151,Platte County,MO,NA,20.242914979757085,NA
64507,Buchanan County,MO,NA,77.7327935222672,NA
64730,Bates County,MO,NA,NA,62.35294117647059
64744,Cedar County,MO,NA,86.23481781376519,NA
64850,Newton County,MO,NA,25.910931174089068,NA
65616,Taney County,MO,NA,NA,28.235294117647058
59102,Yellowstone County,MT,NA,NA,1.1764705882352942
59840,Ravalli County,MT,NA,NA,42.35294117647059
68137,Douglas County,NE,NA,NA,65.88235294117646
68502,Lancaster County,NE,69.05829596412556,NA,NA
68504,Lancaster County,NE,76.23318385650224,NA,NA
68701,Madison County,NE,NA,NA,44.31372549019608
89110,Clark County,NV,24.663677130044842,NA,NA
89118,Clark County,NV,86.99551569506725,NA,NA
89122,Clark County,NV,NA,NA,51.76470588235295
89123,Clark County,NV,NA,NA,56.470588235294116
89135,Clark County,NV,NA,NA,63.52941176470588
89521,Washoe County,NV,NA,40.48582995951417,NA
89523,Washoe County,NV,NA,NA,57.25490196078431
89815,Elko County,NV,82.0627802690583,NA,NA
03063,Hillsborough County,NH,NA,49.797570850202426,NA
03235,Merrimack County,NH,NA,75.30364372469636,NA
03261,Rockingham County,NH,98.65470852017937,NA,NA
07002,Hudson County,NJ,NA,NA,12.941176470588237
07013,Passaic County,NJ,43.49775784753363,NA,NA
07081,Union County,NJ,87.4439461883408,NA,NA
07111,Essex County,NJ,NA,NA,25.49019607843137
07503,Passaic County,NJ,NA,67.20647773279353,NA
07730,Monmouth County,NJ,NA,51.821862348178136,NA
08002,Camden County,NJ,26.45739910313901,NA,NA
08009,Camden County,NJ,59.64125560538116,NA,NA
08088,Burlington County,NJ,NA,34.41295546558704,NA
08226,Cape May County,NJ,58.744394618834086,NA,NA
08401,Atlantic County,NJ,0.4484304932735426,NA,NA
08527,Ocean County,NJ,10.762331838565023,NA,NA
08691,Mercer County,NJ,NA,NA,85.88235294117646
08731,Ocean County,NJ,NA,53.441295546558706,NA
08757,Ocean County,NJ,15.246636771300448,NA,NA
08831,Middlesex County,NJ,NA,10.526315789473683,NA
08854,Middlesex County,NJ,8.968609865470851,NA,NA
08859,Middlesex County,NJ,52.91479820627802,NA,NA
08865,Warren County,NJ,NA,11.740890688259109,16.07843137254902
87104,Bernalillo County,NM,NA,78.54251012145748,NA
87105,Bernalillo County,NM,NA,5.263157894736842,NA
87107,Bernalillo County,NM,NA,29.554655870445345,NA
87301,McKinley County,NM,NA,NA,80.3921568627451
88030,Luna County,NM,NA,NA,62.745098039215684
88220,Eddy County,NM,NA,NA,27.058823529411764
10003,New York County,NY,NA,NA,22.745098039215687
10011,New York County,NY,NA,NA,16.862745098039216
10026,New York County,NY,NA,23.88663967611336,NA
10305,Richmond County,NY,22.869955156950674,NA,NA
10458,Bronx County,NY,NA,NA,6.2745098039215685
10704,Westchester County,NY,NA,NA,49.01960784313725
11212,Kings County,NY,NA,1.6194331983805668,NA
11230,Kings County,NY,20.179372197309416,NA,NA
11372,Queens County,NY,NA,26.31578947368421,NA
11374,Queens County,NY,NA,31.57894736842105,NA
11375,Queens County,NY,NA,NA,6.666666666666667
11550,Nassau County,NY,13.901345291479823,NA,NA
11563,Nassau County,NY,NA,NA,60
11691,Queens County,NY,NA,8.906882591093117,NA
11763,Suffolk County,NY,NA,NA,47.45098039215686
11783,Nassau County,NY,NA,89.47368421052632,NA
11791,Nassau County,NY,NA,NA,67.05882352941175
11795,Suffolk County,NY,73.09417040358744,NA,NA
11801,Nassau County,NY,NA,NA,50.588235294117645
12020,Saratoga County,NY,23.318385650224215,NA,NA
12401,Ulster County,NY,25.56053811659193,NA,NA
12871,Saratoga County,NY,96.8609865470852,NA,NA
13084,Onondaga County,NY,95.51569506726457,NA,NA
13204,Onondaga County,NY,NA,58.2995951417004,NA
13316,Oneida County,NY,NA,71.65991902834008,NA
13403,Oneida County,NY,NA,NA,96.47058823529412
13736,Tioga County,NY,NA,98.78542510121457,NA
13901,Broome County,NY,4.0358744394618835,NA,NA
14043,Erie County,NY,NA,70.8502024291498,NA
14080,Erie County,NY,93.27354260089686,NA,NA
14217,Erie County,NY,59.19282511210763,NA,NA
14222,Erie County,NY,NA,71.25506072874494,NA
14450,Monroe County,NY,NA,2.42914979757085,NA
14532,Ontario County,NY,55.15695067264574,NA,NA
14586,Monroe County,NY,34.08071748878923,NA,NA
14615,Monroe County,NY,NA,40.89068825910931,NA
14616,Monroe County,NY,2.690582959641256,NA,NA
14623,Monroe County,NY,NA,62.75303643724697,NA
14850,Tompkins County,NY,NA,NA,30.980392156862745
14871,Chemung County,NY,91.92825112107623,NA,NA
14892,Tioga County,NY,52.46636771300448,NA,NA
27012,Forsyth County,NC,NA,NA,7.8431372549019605
27028,Davie County,NC,NA,9.7165991902834,NA
27041,Surry County,NC,NA,NA,64.70588235294117
27107,Forsyth County,NC,NA,NA,2.3529411764705883
27278,Orange County,NC,27.802690582959645,NA,NA
27299,Davidson County,NC,NA,95.95141700404858,NA
27302,Alamance County,NC,NA,82.18623481781377,NA
27310,Guilford County,NC,94.17040358744396,NA,NA
27349,Alamance County,NC,NA,84.61538461538461,NA
27360,Davidson County,NC,NA,NA,12.549019607843137
27370,Randolph County,NC,70.85201793721974,NA,NA
27410,Guilford County,NC,NA,NA,7.450980392156863
27509,Granville County,NC,NA,NA,87.05882352941177
27517,Orange County,NC,54.7085201793722,NA,NA
27592,Wake County,NC,69.95515695067265,NA,NA
27597,Wake County,NC,52.01793721973094,NA,NA
27893,Wilson County,NC,18.385650224215247,NA,NA
27909,Pasquotank County,NC,NA,14.979757085020243,NA
28105,Mecklenburg County,NC,NA,NA,37.64705882352941
28134,Mecklenburg County,NC,92.37668161434978,NA,NA
28212,Mecklenburg County,NC,NA,60.72874493927125,NA
28213,Mecklenburg County,NC,NA,NA,80.7843137254902
28443,Pender County,NC,NA,61.1336032388664,NA
28461,Brunswick County,NC,NA,8.502024291497975,NA
28463,Columbus County,NC,NA,NA,92.94117647058823
28557,Carteret County,NC,NA,NA,54.90196078431373
28645,Caldwell County,NC,3.587443946188341,1.214574898785425,NA
28659,Wilkes County,NC,NA,34.0080971659919,NA
28792,Henderson County,NC,NA,11.336032388663968,NA
28806,Buncombe County,NC,NA,50.20242914979757,NA
58554,Morton County,ND,NA,NA,12.156862745098039
58701,Ward County,ND,12.556053811659194,NA,NA
43021,Delaware County,OH,NA,86.63967611336032,NA
43026,Franklin County,OH,53.36322869955157,NA,NA
43031,Licking County,OH,78.02690582959642,NA,NA
43040,Union County,OH,29.596412556053814,NA,NA
43235,Franklin County,OH,NA,NA,31.76470588235294
43302,Marion County,OH,1.7937219730941705,NA,NA
43551,Wood County,OH,NA,7.6923076923076925,NA
43611,Lucas County,OH,NA,70.44534412955466,NA
43812,Coshocton County,OH,5.829596412556054,9.31174089068826,NA
44035,Lorain County,OH,0,NA,NA
44110,Cuyahoga County,OH,11.659192825112108,NA,NA
44143,Cuyahoga County,OH,NA,NA,1.9607843137254901
44212,Medina County,OH,NA,2.0242914979757085,NA
44223,Summit County,OH,NA,56.2753036437247,NA
44236,Summit County,OH,NA,27.93522267206478,NA
44281,Medina County,OH,NA,NA,19.607843137254903
44305,Summit County,OH,NA,45.74898785425101,NA
44310,Summit County,OH,13.004484304932735,NA,NA
44406,Mahoning County,OH,NA,34.81781376518219,NA
44413,Columbiana County,OH,71.30044843049326,NA,NA
44601,Stark County,OH,7.174887892376682,NA,NA
44614,Stark County,OH,NA,NA,85.09803921568627
44647,Stark County,OH,50.672645739910315,NA,NA
44805,Ashland County,OH,NA,6.477732793522267,NA
44890,Huron County,OH,42.152466367713004,NA,NA
45011,Butler County,OH,2.242152466367713,NA,NA
45013,Butler County,OH,3.1390134529147984,NA,NA
45014,Butler County,OH,NA,24.696356275303643,NA
45231,Hamilton County,OH,NA,22.267206477732792,NA
45324,Greene County,OH,NA,20.647773279352226,24.705882352941178
45331,Darke County,OH,NA,NA,38.43137254901961
45377,Montgomery County,OH,NA,83.80566801619433,NA
45429,Montgomery County,OH,NA,NA,21.96078431372549
45430,Greene County,OH,NA,97.16599190283401,NA
45601,Ross County,OH,NA,NA,0
45648,Scioto County,OH,28.699551569506728,NA,NA
45656,Jackson County,OH,NA,NA,95.68627450980392
45657,Scioto County,OH,NA,100,NA
45692,Jackson County,OH,NA,42.10526315789473,NA
45750,Washington County,OH,1.345291479820628,NA,NA
45806,Allen County,OH,62.33183856502242,NA,NA
45840,Hancock County,OH,NA,NA,9.019607843137255
45856,Putnam County,OH,NA,NA,90.98039215686275
73111,Oklahoma County,OK,NA,NA,68.62745098039215
73507,Comanche County,OK,47.53363228699551,NA,NA
74014,Wagoner County,OK,36.771300448430495,NA,NA
74017,Rogers County,OK,NA,53.84615384615385,NA
74105,Tulsa County,OK,38.56502242152467,NA,NA
74441,Cherokee County,OK,86.54708520179372,NA,NA
74464,Cherokee County,OK,NA,23.076923076923077,NA
74631,Kay County,OK,NA,NA,85.88235294117646
97023,Clackamas County,OR,89.23766816143498,NA,NA
97058,Wasco County,OR,NA,37.65182186234818,NA
97132,Yamhill County,OR,40.35874439461883,NA,NA
97138,Clatsop County,OR,NA,NA,93.33333333333333
97211,Multnomah County,OR,85.65022421524664,NA,NA
97213,Multnomah County,OR,67.71300448430493,NA,NA
97504,Jackson County,OR,NA,NA,4.705882352941177
97524,Jackson County,OR,NA,63.56275303643725,NA
97525,Jackson County,OR,NA,89.87854251012146,NA
97527,Josephine County,OR,NA,23.481781376518217,NA
97601,Klamath County,OR,NA,NA,43.13725490196079
97702,Deschutes County,OR,NA,NA,32.94117647058823
97838,Umatilla County,OR,50.224215246636774,NA,NA
15022,Washington County,PA,NA,NA,70.98039215686275
15220,Allegheny County,PA,70.4035874439462,NA,NA
15221,Allegheny County,PA,NA,NA,18.823529411764707
15235,Allegheny County,PA,NA,NA,9.411764705882353
15238,Allegheny County,PA,NA,55.87044534412956,NA
15241,Allegheny County,PA,NA,68.82591093117408,NA
15401,Fayette County,PA,8.520179372197308,NA,NA
16059,Butler County,PA,NA,NA,84.70588235294117
16314,Crawford County,PA,NA,NA,98.82352941176471
16335,Crawford County,PA,NA,10.931174089068826,NA
16354,Crawford County,PA,NA,72.46963562753037,NA
16652,Huntingdon County,PA,NA,NA,23.52941176470588
17512,Lancaster County,PA,NA,NA,77.64705882352942
17701,Lycoming County,PA,27.3542600896861,NA,NA
18015,Northampton County,PA,10.31390134529148,NA,NA
18045,Northampton County,PA,NA,NA,11.372549019607844
18102,Lehigh County,PA,0.8968609865470852,NA,NA
18104,Lehigh County,PA,NA,32.79352226720648,NA
18255,Carbon County,PA,NA,NA,82.74509803921568
18411,Lackawanna County,PA,NA,NA,28.627450980392155
18840,Bradford County,PA,NA,NA,83.52941176470588
18848,Bradford County,PA,77.57847533632287,NA,NA
18966,Bucks County,PA,NA,NA,14.117647058823529
19020,Bucks County,PA,NA,47.368421052631575,NA
19057,Bucks County,PA,NA,NA,45.490196078431374
19063,Delaware County,PA,NA,NA,13.333333333333334
19130,Philadelphia County,PA,NA,NA,58.03921568627452
19141,Philadelphia County,PA,8.071748878923767,NA,NA
19335,Chester County,PA,NA,16.599190283400812,NA
19342,Delaware County,PA,NA,NA,29.80392156862745
19464,Montgomery County,PA,5.381165919282512,NA,NA
19520,Chester County,PA,NA,NA,79.2156862745098
19606,Berks County,PA,NA,NA,20
02889,Kent County,RI,29.14798206278027,NA,NA
29407,Charleston County,SC,39.91031390134529,NA,NA
29461,Berkeley County,SC,NA,NA,46.27450980392157
29483,Dorchester County,SC,NA,25.101214574898783,NA
29569,Horry County,SC,NA,63.96761133603239,NA
29625,Anderson County,SC,NA,35.22267206477733,NA
29702,Cherokee County,SC,NA,NA,99.6078431372549
57106,Minnehaha County,SD,NA,NA,5.098039215686274
57702,Pennington County,SD,NA,NA,10.980392156862745
57719,Pennington County,SD,96.8609865470852,NA,NA
37030,Smith County,TN,72.6457399103139,NA,NA
37062,Williamson County,TN,NA,85.82995951417004,NA
37128,Rutherford County,TN,NA,55.06072874493927,NA
37172,Robertson County,TN,19.282511210762333,NA,NA
37343,Hamilton County,TN,NA,27.125506072874494,NA
37367,Bledsoe County,TN,NA,NA,95.29411764705881
37385,Monroe County,TN,NA,66.39676113360325,NA
37397,Marion County,TN,NA,NA,94.90196078431372
37398,Franklin County,TN,NA,NA,47.05882352941176
37604,Washington County,TN,NA,25.506072874493928,NA
37620,Sullivan County,TN,15.695067264573993,NA,NA
37725,Jefferson County,TN,NA,NA,37.254901960784316
37841,Scott County,TN,NA,NA,92.54901960784314
37849,Knox County,TN,NA,NA,46.666666666666664
37874,Monroe County,TN,NA,57.08502024291497,NA
37920,Knox County,TN,NA,NA,34.90196078431372
37922,Knox County,TN,NA,57.48987854251012,NA
38115,Shelby County,TN,NA,NA,76.86274509803923
38127,Shelby County,TN,NA,46.15384615384615,NA
38474,Maury County,TN,NA,NA,96.07843137254902
75013,Collin County,TX,NA,73.68421052631578,NA
75070,Collin County,TX,NA,12.145748987854251,NA
75148,Henderson County,TX,NA,92.3076923076923,NA
75159,Dallas County,TX,67.71300448430493,NA,NA
75604,Gregg County,TX,NA,64.37246963562752,NA
75644,Upshur County,TX,NA,67.61133603238866,NA
75662,Gregg County,TX,54.26008968609865,NA,NA
75703,Smith County,TX,NA,NA,2.7450980392156863
75904,Angelina County,TX,34.97757847533632,NA,NA
76013,Tarrant County,TX,NA,65.9919028340081,NA
76067,Palo Pinto County,TX,NA,61.943319838056674,NA
76107,Tarrant County,TX,NA,NA,68.23529411764706
76131,Tarrant County,TX,NA,70.04048582995951,NA
76179,Tarrant County,TX,32.28699551569507,41.29554655870445,NA
76248,Tarrant County,TX,NA,50.607287449392715,42.745098039215684
76310,Wichita County,TX,89.23766816143498,NA,NA
76642,Limestone County,TX,NA,NA,82.35294117647058
76708,McLennan County,TX,48.4304932735426,NA,NA
77038,Harris County,TX,76.68161434977578,NA,NA
77089,Harris County,TX,NA,NA,74.50980392156863
77328,San Jacinto County,TX,NA,87.4493927125506,NA
77389,Harris County,TX,NA,65.18218623481782,NA
77459,Fort Bend County,TX,NA,14.5748987854251,NA
77505,Harris County,TX,NA,NA,69.41176470588235
77539,Galveston County,TX,NA,14.17004048582996,NA
77808,Brazos County,TX,NA,66.80161943319838,NA
78114,Wilson County,TX,NA,54.25101214574899,NA
78247,Bexar County,TX,NA,NA,78.82352941176471
78521,Cameron County,TX,NA,21.052631578947366,NA
78557,Hidalgo County,TX,NA,NA,99.6078431372549
78605,Burnet County,TX,95.96412556053812,NA,NA
78617,Travis County,TX,71.74887892376681,NA,NA
78628,Williamson County,TX,NA,NA,58.43137254901961
78641,Williamson County,TX,NA,NA,74.11764705882354
78648,Caldwell County,TX,NA,82.99595141700405,NA
79106,Potter County,TX,55.60538116591929,NA,NA
79119,Randall County,TX,80.71748878923766,NA,NA
79703,Midland County,TX,NA,80.5668016194332,NA
84067,Weber County,UT,NA,65.58704453441295,56.86274509803921
84341,Cache County,UT,80.26905829596413,NA,NA
84404,Weber County,UT,26.00896860986547,NA,NA
22031,Fairfax County,VA,63.22869955156951,NA,NA
22307,Fairfax County,VA,NA,96.76113360323887,NA
22407,Spotsylvania County,VA,NA,21.86234817813765,NA
22611,Clarke County,VA,NA,94.33198380566802,NA
22664,Shenandoah County,VA,72.19730941704036,NA,NA
22824,Shenandoah County,VA,NA,83.40080971659918,NA
23970,Mecklenburg County,VA,64.12556053811659,NA,NA
24012,Roanoke city,VA,31.838565022421523,NA,NA
24151,Franklin County,VA,NA,54.655870445344135,NA
24153,Salem city,VA,35.42600896860987,NA,NA
24504,Lynchburg city,VA,NA,95.1417004048583,NA
98020,Snohomish County,WA,NA,NA,73.72549019607844
98026,Snohomish County,WA,65.47085201793722,NA,NA
98042,King County,WA,NA,13.765182186234817,NA
98188,King County,WA,67.2645739910314,NA,NA
98270,Snohomish County,WA,NA,NA,63.921568627450974
98282,Island County,WA,84.75336322869956,NA,NA
98370,Kitsap County,WA,NA,NA,59.21568627450981
98374,Pierce County,WA,NA,NA,65.09803921568627
98422,Pierce County,WA,61.88340807174888,NA,NA
98579,Thurston County,WA,NA,82.5910931174089,NA
99003,Spokane County,WA,NA,99.59514170040485,NA
99208,Spokane County,WA,40.80717488789238,NA,NA
20012,District of Columbia,DC,78.47533632286996,NA,NA
25701,Cabell County,WV,19.730941704035875,NA,NA
26062,Hancock County,WV,NA,31.983805668016196,NA
26101,Wood County,WV,NA,NA,20.784313725490197
26601,Braxton County,WV,95.06726457399103,NA,NA
26753,Mineral County,WV,NA,90.2834008097166,NA
53024,Ozaukee County,WI,NA,NA,23.137254901960784
53051,Waukesha County,WI,NA,NA,13.725490196078432
53092,Ozaukee County,WI,57.847533632286996,NA,NA
53095,Washington County,WI,NA,22.672064777327936,NA
53144,Kenosha County,WI,49.327354260089685,NA,NA
53208,Milwaukee County,WI,NA,36.43724696356275,NA
53227,Milwaukee County,WI,NA,NA,21.176470588235293
53704,Dane County,WI,13.452914798206278,NA,NA
53901,Columbia County,WI,88.78923766816143,NA,NA
53913,Sauk County,WI,38.11659192825112,NA,NA
53916,Dodge County,WI,NA,NA,71.76470588235294
53925,Columbia County,WI,NA,95.1417004048583,NA
54139,Oconto County,WI,NA,98.38056680161942,NA
54151,Marinette County,WI,NA,74.08906882591093,NA
54302,Brown County,WI,30.04484304932735,NA,NA
54476,Marathon County,WI,NA,NA,53.72549019607843
54501,Oneida County,WI,NA,NA,20.392156862745097
82001,Laramie County,WY,NA,NA,48.23529411764706
82007,Laramie County,WY,NA,NA,77.25490196078432
82414,Park County,WY,NA,NA,40.78431372549019
