ZipCode,county,state,Adult,Retirement,Geriatric
35010,Tallapoosa County,AL,NA,25,NA
35023,Jefferson County,AL,NA,68.43575418994413,NA
35054,St. Clair County,AL,NA,93.01675977653632,NA
35077,Cullman County,AL,NA,55.44692737430168,NA
35079,Blount County,AL,84.35374149659864,NA,NA
35111,Tuscaloosa County,AL,NA,23.463687150837988,NA
35150,Talladega County,AL,NA,NA,73.39285714285714
35204,Jefferson County,AL,NA,80.8659217877095,NA
35206,Jefferson County,AL,NA,82.12290502793296,NA
35217,Jefferson County,AL,NA,37.56983240223464,NA
35244,Jefferson County,AL,68.5374149659864,NA,NA
35405,Tuscaloosa County,AL,NA,34.497206703910614,NA
35473,Tuscaloosa County,AL,NA,42.877094972067034,NA
35475,Tuscaloosa County,AL,70.23809523809523,NA,NA
35476,Tuscaloosa County,AL,78.06122448979592,NA,NA
35570,Marion County,AL,NA,71.64804469273743,85.53571428571428
35579,Walker County,AL,NA,NA,87.67857142857143
35581,Franklin County,AL,NA,90.08379888268156,NA
35613,Limestone County,AL,76.36054421768708,NA,NA
35670,Morgan County,AL,NA,NA,87.14285714285714
35673,Morgan County,AL,NA,79.74860335195531,NA
35674,Colbert County,AL,60.8843537414966,NA,NA
35763,Madison County,AL,NA,74.30167597765363,64.10714285714286
35768,Jackson County,AL,95.91836734693877,NA,NA
35769,Jackson County,AL,NA,NA,84.64285714285714
35811,Madison County,AL,NA,NA,90.53571428571429
35968,DeKalb County,AL,87.07482993197279,NA,NA
35976,Marshall County,AL,NA,NA,46.964285714285715
36078,Elmore County,AL,NA,NA,76.78571428571429
36083,Macon County,AL,78.4013605442177,NA,NA
36110,Montgomery County,AL,NA,76.81564245810057,NA
36264,Cleburne County,AL,NA,NA,65
36340,Geneva County,AL,NA,NA,98.39285714285714
36401,Conecuh County,AL,NA,NA,85.35714285714285
36420,Covington County,AL,NA,94.1340782122905,NA
36451,Clarke County,AL,NA,NA,97.5
36467,Covington County,AL,84.01360544217688,NA,NA
36477,Geneva County,AL,NA,87.70949720670392,NA
36532,Baldwin County,AL,NA,18.01675977653631,NA
36544,Mobile County,AL,NA,NA,93.03571428571429
36545,Clarke County,AL,81.63265306122449,NA,NA
36571,Mobile County,AL,NA,NA,80.89285714285714
36604,Mobile County,AL,79.93197278911565,NA,NA
36607,Mobile County,AL,75.85034013605441,NA,NA
36613,Mobile County,AL,NA,64.66480446927375,NA
36618,Mobile County,AL,NA,NA,63.74999999999999
36695,Mobile County,AL,29.25170068027211,NA,NA
36784,Clarke County,AL,NA,99.30167597765363,NA
36867,Russell County,AL,NA,NA,58.214285714285715
99502,Anchorage Municipality,AK,NA,66.89944134078212,NA
99507,Anchorage Municipality,AK,90.81632653061224,NA,NA
99508,Anchorage Municipality,AK,15.98639455782313,NA,NA
99603,Kenai Peninsula Borough,AK,NA,NA,65.17857142857143
99623,,AK,NA,81.00558659217877,NA
99705,Fairbanks North Star Borough,AK,NA,84.77653631284916,NA
85023,Maricopa County,AZ,NA,48.04469273743017,NA
85044,Maricopa County,AZ,NA,36.73184357541899,NA
85138,Pinal County,AZ,NA,NA,69.46428571428571
85201,Maricopa County,AZ,12.755102040816327,NA,NA
85255,Maricopa County,AZ,NA,33.5195530726257,NA
85260,Maricopa County,AZ,NA,NA,78.39285714285714
85374,Maricopa County,AZ,NA,13.687150837988826,NA
85375,Maricopa County,AZ,NA,NA,0.8928571428571428
85616,Cochise County,AZ,NA,89.66480446927375,NA
85629,Pima County,AZ,NA,49.30167597765363,NA
85634,Pima County,AZ,NA,21.92737430167598,NA
85713,Pima County,AZ,NA,NA,17.32142857142857
85716,Pima County,AZ,15.646258503401361,NA,NA
85719,Pima County,AZ,NA,30.16759776536313,NA
85750,Pima County,AZ,NA,37.849162011173185,NA
86001,Coconino County,AZ,18.197278911564627,NA,NA
86045,Coconino County,AZ,NA,31.145251396648042,NA
86301,Yavapai County,AZ,NA,NA,45.89285714285714
86326,Yavapai County,AZ,NA,NA,76.25
86351,Yavapai County,AZ,NA,87.56983240223464,NA
86413,Mohave County,AZ,52.21088435374149,NA,NA
71603,Jefferson County,AR,NA,16.201117318435752,NA
71701,Ouachita County,AR,NA,43.435754189944134,NA
71901,Garland County,AR,NA,66.20111731843575,NA
71913,Garland County,AR,74.14965986394559,NA,NA
71953,Polk County,AR,NA,70.81005586592178,NA
72002,Saline County,AR,NA,NA,57.49999999999999
72020,White County,AR,NA,NA,70.17857142857142
72023,Lonoke County,AR,NA,52.0949720670391,NA
72034,Faulkner County,AR,NA,NA,13.571428571428571
72058,Faulkner County,AR,87.41496598639455,NA,NA
72206,Pulaski County,AR,NA,21.648044692737432,NA
72301,Crittenden County,AR,NA,NA,77.85714285714286
72401,Craighead County,AR,NA,8.240223463687151,63.57142857142857
72454,Clay County,AR,NA,NA,70.71428571428572
72653,Baxter County,AR,89.28571428571429,NA,8.928571428571429
72714,Benton County,AR,NA,82.82122905027933,NA
72758,Benton County,AR,NA,NA,43.214285714285715
72761,Benton County,AR,NA,55.58659217877096,NA
72823,Pope County,AR,NA,83.5195530726257,NA
72949,Franklin County,AR,NA,NA,66.96428571428571
90006,Los Angeles County,CA,59.353741496598644,NA,NA
90012,Los Angeles County,CA,57.48299319727891,NA,NA
90044,Los Angeles County,CA,6.63265306122449,NA,31.25
90221,Los Angeles County,CA,NA,75,NA
90250,Los Angeles County,CA,NA,NA,29.464285714285715
90405,Los Angeles County,CA,NA,43.296089385474865,NA
90706,Los Angeles County,CA,NA,28.631284916201118,NA
90713,Los Angeles County,CA,60.71428571428571,NA,NA
90803,Los Angeles County,CA,NA,67.73743016759776,NA
90808,Los Angeles County,CA,51.02040816326531,NA,NA
90813,Los Angeles County,CA,NA,67.45810055865921,NA
91103,Los Angeles County,CA,NA,71.7877094972067,NA
91342,Los Angeles County,CA,NA,NA,33.92857142857143
91423,Los Angeles County,CA,NA,50.5586592178771,NA
91504,Los Angeles County,CA,82.82312925170068,NA,NA
91737,San Bernardino County,CA,NA,45.2513966480447,NA
91741,Los Angeles County,CA,NA,40.22346368715084,NA
91763,San Bernardino County,CA,NA,NA,79.10714285714285
91942,San Diego County,CA,56.63265306122449,NA,NA
92008,San Diego County,CA,NA,NA,36.607142857142854
92103,San Diego County,CA,NA,37.290502793296085,NA
92109,San Diego County,CA,NA,44.97206703910614,NA
92118,San Diego County,CA,85.71428571428571,NA,NA
92126,San Diego County,CA,40.816326530612244,NA,NA
92210,Riverside County,CA,99.48979591836735,NA,NA
92211,Riverside County,CA,NA,NA,0
92234,Riverside County,CA,NA,NA,34.10714285714286
92313,San Bernardino County,CA,NA,80.58659217877096,NA
92376,San Bernardino County,CA,7.8231292517006805,NA,NA
92392,San Bernardino County,CA,NA,23.60335195530726,NA
92505,Riverside County,CA,NA,39.52513966480447,NA
92507,Riverside County,CA,NA,59.63687150837988,NA
92532,Riverside County,CA,NA,70.11173184357543,NA
92544,Riverside County,CA,43.36734693877551,NA,NA
92545,Riverside County,CA,37.58503401360544,NA,NA
92553,Riverside County,CA,52.721088435374156,NA,NA
92602,Orange County,CA,NA,NA,90.35714285714286
92629,Orange County,CA,NA,32.122905027932966,NA
92630,Orange County,CA,29.081632653061224,NA,NA
92646,Orange County,CA,NA,5.865921787709497,NA
92653,Orange County,CA,NA,41.4804469273743,NA
92656,Orange County,CA,79.76190476190477,NA,NA
92679,Orange County,CA,NA,NA,68.57142857142857
92694,Orange County,CA,NA,NA,88.03571428571428
92704,Orange County,CA,NA,NA,36.25
92844,Orange County,CA,64.45578231292517,NA,NA
92870,Orange County,CA,NA,NA,87.85714285714286
92879,Riverside County,CA,NA,45.530726256983236,NA
93221,Tulare County,CA,NA,NA,78.92857142857143
93230,Kings County,CA,NA,NA,18.571428571428573
93277,Tulare County,CA,22.108843537414966,NA,NA
93309,Kern County,CA,NA,86.03351955307262,NA
93433,San Luis Obispo County,CA,NA,81.28491620111731,NA
93454,Santa Barbara County,CA,NA,NA,35.535714285714285
93463,Santa Barbara County,CA,NA,NA,80.89285714285714
93550,Los Angeles County,CA,NA,35.33519553072625,NA
93552,Los Angeles County,CA,NA,66.06145251396647,NA
93657,Fresno County,CA,NA,65.08379888268156,NA
93720,Fresno County,CA,NA,19.134078212290504,NA
93722,Fresno County,CA,7.993197278911565,NA,NA
94015,San Mateo County,CA,NA,NA,3.571428571428571
94085,Santa Clara County,CA,NA,NA,83.03571428571429
94117,San Francisco County,CA,31.63265306122449,NA,NA
94118,San Francisco County,CA,NA,27.37430167597765,NA
94134,San Francisco County,CA,NA,NA,24.285714285714285
94509,Contra Costa County,CA,NA,NA,13.214285714285715
94541,Alameda County,CA,NA,14.106145251396649,NA
94609,Alameda County,CA,77.89115646258503,NA,NA
94707,Alameda County,CA,NA,NA,70
95008,Santa Clara County,CA,57.14285714285714,NA,NA
95014,Santa Clara County,CA,NA,88.26815642458101,NA
95030,Santa Clara County,CA,NA,95.94972067039106,NA
95051,Santa Clara County,CA,NA,41.06145251396648,NA
95076,Santa Cruz County,CA,NA,41.75977653631285,NA
95124,Santa Clara County,CA,NA,30.027932960893857,NA
95126,Santa Clara County,CA,NA,NA,58.57142857142858
95136,Santa Clara County,CA,NA,78.2122905027933,NA
95202,San Joaquin County,CA,25.850340136054424,NA,NA
95207,San Joaquin County,CA,NA,79.88826815642457,NA
95327,Tuolumne County,CA,NA,75.41899441340783,NA
95350,Stanislaus County,CA,NA,10.195530726256983,NA
95367,Stanislaus County,CA,NA,86.87150837988827,NA
95370,Tuolumne County,CA,NA,2.3743016759776534,NA
95437,Mendocino County,CA,NA,NA,26.25
95482,Mendocino County,CA,NA,18.994413407821227,NA
95501,Humboldt County,CA,NA,26.675977653631282,69.10714285714286
95519,Humboldt County,CA,NA,69.41340782122904,NA
95531,Del Norte County,CA,NA,NA,30
95540,Humboldt County,CA,NA,44.273743016759774,NA
95628,Sacramento County,CA,NA,62.56983240223464,NA
95662,Sacramento County,CA,91.49659863945578,NA,NA
95825,Sacramento County,CA,44.89795918367347,NA,34.285714285714285
95826,Sacramento County,CA,NA,NA,47.67857142857143
95901,Yuba County,CA,NA,39.385474860335194,NA
95928,Butte County,CA,NA,25.558659217877093,20.714285714285715
95961,Yuba County,CA,40.64625850340136,NA,NA
95965,Butte County,CA,16.3265306122449,NA,36.42857142857142
96001,Shasta County,CA,NA,NA,40.17857142857143
96080,Tehama County,CA,NA,NA,36.07142857142857
80011,Arapahoe County,CO,NA,56.98324022346368,NA
80016,Arapahoe County,CO,85.8843537414966,NA,NA
80021,Jefferson County,CO,NA,73.18435754189943,NA
80108,Douglas County,CO,NA,48.60335195530726,NA
80304,Boulder County,CO,NA,80.44692737430168,NA
80631,Weld County,CO,NA,18.575418994413408,NA
80909,El Paso County,CO,NA,NA,25.71428571428571
80917,El Paso County,CO,NA,43.994413407821234,NA
80919,El Paso County,CO,NA,89.80446927374301,NA
80920,El Paso County,CO,NA,50.13966480446928,NA
81007,Pueblo County,CO,NA,32.262569832402235,NA
81050,Otero County,CO,NA,NA,89.10714285714286
81240,Fremont County,CO,98.29931972789116,NA,NA
81321,Montezuma County,CO,NA,NA,43.57142857142857
81625,Moffat County,CO,NA,NA,95
06057,Litchfield County,CT,80.27210884353741,NA,NA
06066,Tolland County,CT,15.476190476190476,NA,NA
06071,Tolland County,CT,75,NA,NA
06084,Tolland County,CT,NA,NA,51.60714285714286
06105,Hartford County,CT,19.217687074829932,NA,NA
06426,Middlesex County,CT,NA,98.46368715083798,NA
06443,New Haven County,CT,87.58503401360545,NA,NA
06480,Middlesex County,CT,NA,97.76536312849163,NA
06488,New Haven County,CT,NA,NA,10
06492,New Haven County,CT,72.78911564625851,NA,NA
06511,New Haven County,CT,19.727891156462583,NA,NA
06519,New Haven County,CT,NA,33.37988826815643,NA
06831,Fairfield County,CT,NA,NA,80.71428571428572
06896,Fairfield County,CT,99.82993197278913,NA,NA
06902,Fairfield County,CT,18.537414965986397,NA,NA
06903,Fairfield County,CT,NA,49.022346368715084,NA
19802,New Castle County,DE,13.60544217687075,NA,NA
19805,New Castle County,DE,NA,NA,27.142857142857142
19934,Kent County,DE,NA,NA,54.285714285714285
19940,Sussex County,DE,NA,81.84357541899442,NA
19958,Sussex County,DE,NA,3.212290502793296,NA
19970,Sussex County,DE,97.27891156462584,NA,NA
32068,Clay County,FL,NA,6.564245810055866,NA
32082,St. Johns County,FL,NA,NA,20.357142857142858
32132,Volusia County,FL,NA,NA,78.03571428571429
32164,Flagler County,FL,29.761904761904763,NA,NA
32174,Volusia County,FL,42.3469387755102,NA,NA
32217,Duval County,FL,63.94557823129252,NA,NA
32218,Duval County,FL,NA,2.094972067039106,NA
32219,Duval County,FL,89.79591836734694,NA,NA
32221,Duval County,FL,NA,27.09497206703911,NA
32224,Duval County,FL,NA,34.07821229050279,NA
32257,Duval County,FL,21.598639455782312,NA,NA
32258,Duval County,FL,49.31972789115646,NA,NA
32407,Bay County,FL,76.87074829931973,NA,NA
32433,Walton County,FL,NA,31.843575418994412,NA
32446,Jackson County,FL,NA,NA,74.82142857142857
32514,Escambia County,FL,NA,NA,34.285714285714285
32547,Okaloosa County,FL,37.755102040816325,NA,NA
32563,Santa Rosa County,FL,NA,48.324022346368714,NA
32601,Alachua County,FL,NA,73.18435754189943,NA
32606,Alachua County,FL,NA,98.18435754189943,NA
32615,Alachua County,FL,89.62585034013605,NA,NA
32618,Alachua County,FL,NA,74.58100558659217,NA
32653,Alachua County,FL,57.31292517006803,NA,NA
32693,Gilchrist County,FL,NA,NA,76.25
32701,Seminole County,FL,NA,NA,75.71428571428571
32724,Volusia County,FL,NA,17.039106145251395,NA
32725,Volusia County,FL,31.462585034013607,NA,NA
32771,Seminole County,FL,NA,NA,87.5
32789,Orange County,FL,65.64625850340136,NA,NA
32796,Brevard County,FL,46.93877551020408,NA,NA
32808,Orange County,FL,87.92517006802721,NA,NA
32822,Orange County,FL,17.687074829931973,NA,NA
32824,Orange County,FL,NA,55.865921787709496,NA
32935,Brevard County,FL,NA,NA,17.67857142857143
32952,Brevard County,FL,NA,NA,15.357142857142858
33018,Miami-Dade County,FL,89.96598639455783,NA,NA
33035,Miami-Dade County,FL,NA,NA,94.82142857142857
33060,Broward County,FL,32.31292517006803,NA,NA
33062,Broward County,FL,NA,20.670391061452513,NA
33125,Miami-Dade County,FL,NA,29.05027932960894,NA
33145,Miami-Dade County,FL,NA,NA,26.071428571428573
33147,Miami-Dade County,FL,NA,NA,35
33155,Miami-Dade County,FL,NA,NA,10.357142857142858
33156,Miami-Dade County,FL,NA,73.46368715083798,NA
33170,Miami-Dade County,FL,NA,NA,86.07142857142858
33173,Miami-Dade County,FL,NA,NA,14.821428571428571
33174,Miami-Dade County,FL,65.98639455782312,NA,12.857142857142856
33308,Broward County,FL,69.72789115646259,11.452513966480447,NA
33322,Broward County,FL,63.26530612244898,NA,NA
33409,Palm Beach County,FL,59.013605442176875,NA,NA
33433,Palm Beach County,FL,NA,15.083798882681565,NA
33436,Palm Beach County,FL,NA,37.988826815642454,NA
33437,Palm Beach County,FL,NA,NA,0.35714285714285715
33441,Broward County,FL,NA,NA,39.464285714285715
33462,Palm Beach County,FL,NA,NA,37.32142857142857
33469,Palm Beach County,FL,NA,NA,24.107142857142858
33477,Palm Beach County,FL,93.70748299319727,NA,NA
33525,Pasco County,FL,NA,33.93854748603352,NA
33543,Pasco County,FL,NA,NA,89.46428571428572
33612,Hillsborough County,FL,NA,28.910614525139668,NA
33617,Hillsborough County,FL,NA,NA,47.5
33701,Pinellas County,FL,NA,NA,52.5
33712,Pinellas County,FL,31.292517006802722,NA,NA
33881,Polk County,FL,NA,72.3463687150838,NA
33928,Lee County,FL,73.9795918367347,NA,NA
33952,Charlotte County,FL,21.93877551020408,NA,NA
34119,Collier County,FL,38.265306122448976,NA,15.714285714285714
34202,Manatee County,FL,NA,NA,32.32142857142858
34212,Manatee County,FL,NA,NA,93.21428571428572
34222,Manatee County,FL,NA,86.31284916201118,NA
34229,Sarasota County,FL,NA,NA,29.642857142857142
34231,Sarasota County,FL,NA,70.39106145251397,3.9285714285714284
34233,Sarasota County,FL,NA,NA,21.428571428571427
34238,Sarasota County,FL,NA,30.307262569832403,NA
34293,Sarasota County,FL,NA,NA,18.21428571428571
34472,Marion County,FL,NA,NA,68.92857142857143
34473,Marion County,FL,NA,50.83798882681564,NA
34601,Hernando County,FL,NA,NA,38.035714285714285
34772,Osceola County,FL,NA,54.46927374301676,NA
34953,St. Lucie County,FL,80.78231292517006,NA,16.25
34982,St. Lucie County,FL,NA,NA,44.46428571428571
34994,Martin County,FL,NA,68.85474860335195,NA
30002,DeKalb County,GA,NA,99.58100558659217,NA
30004,Fulton County,GA,NA,27.79329608938548,NA
30008,Cobb County,GA,NA,59.0782122905028,NA
30012,Rockdale County,GA,NA,NA,60.71428571428571
30019,Gwinnett County,GA,34.35374149659864,NA,NA
30022,Fulton County,GA,NA,80.02793296089385,NA
30024,Gwinnett County,GA,NA,66.4804469273743,NA
30025,Walton County,GA,67.68707482993197,NA,NA
30032,DeKalb County,GA,NA,79.18994413407822,NA
30034,DeKalb County,GA,26.53061224489796,16.75977653631285,NA
30040,Forsyth County,GA,22.789115646258505,NA,NA
30052,Walton County,GA,16.156462585034014,NA,NA
30062,Cobb County,GA,NA,NA,23.75
30083,DeKalb County,GA,NA,55.167597765363126,NA
30087,DeKalb County,GA,NA,NA,75.35714285714286
30097,Fulton County,GA,NA,43.15642458100559,NA
30115,Cherokee County,GA,63.435374149659864,NA,NA
30125,Polk County,GA,NA,64.94413407821229,33.75
30135,Douglas County,GA,NA,NA,80.35714285714286
30188,Cherokee County,GA,NA,12.011173184357542,NA
30233,Butts County,GA,NA,38.96648044692738,NA
30241,Troup County,GA,24.65986394557823,NA,NA
30269,Fayette County,GA,NA,39.245810055865924,NA
30274,Clayton County,GA,NA,61.871508379888276,NA
30286,Upson County,GA,81.12244897959184,NA,NA
30291,Fulton County,GA,33.50340136054422,NA,NA
30294,DeKalb County,GA,NA,85.05586592178771,NA
30305,Fulton County,GA,NA,62.709497206703915,NA
30311,Fulton County,GA,NA,NA,15.178571428571427
30349,Fulton County,GA,7.482993197278912,NA,NA
30360,DeKalb County,GA,86.22448979591837,NA,NA
30434,Jefferson County,GA,NA,94.97206703910615,NA
30439,Candler County,GA,97.44897959183673,NA,NA
30461,Bulloch County,GA,85.03401360544217,NA,NA
30467,Screven County,GA,NA,NA,52.85714285714286
30474,Toombs County,GA,75.68027210884354,NA,NA
30507,Hall County,GA,39.1156462585034,NA,NA
30510,Habersham County,GA,NA,NA,97.32142857142857
30523,Habersham County,GA,NA,92.59776536312849,NA
30546,Towns County,GA,NA,NA,44.107142857142854
30680,Barrow County,GA,48.12925170068027,NA,NA
30721,Whitfield County,GA,20.918367346938776,NA,NA
30740,Whitfield County,GA,NA,84.07821229050279,NA
31204,Bibb County,GA,28.401360544217685,NA,NA
31210,Bibb County,GA,NA,74.72067039106145,NA
31419,Chatham County,GA,NA,NA,40.89285714285714
31510,Bacon County,GA,68.87755102040816,NA,NA
31537,Charlton County,GA,NA,69.1340782122905,NA
31714,Turner County,GA,NA,93.99441340782123,NA
31904,Muscogee County,GA,27.89115646258503,42.45810055865922,NA
39819,Decatur County,GA,NA,NA,61.42857142857143
96717,Honolulu County,HI,NA,NA,100
96782,Honolulu County,HI,NA,NA,9.107142857142856
96822,Honolulu County,HI,NA,14.52513966480447,NA
83401,Bonneville County,ID,40.476190476190474,NA,NA
83605,Canyon County,ID,24.31972789115646,NA,NA
83644,Canyon County,ID,NA,40.78212290502793,NA
83704,Ada County,ID,NA,NA,1.607142857142857
83801,Kootenai County,ID,NA,79.3296089385475,NA
83861,Benewah County,ID,NA,NA,96.42857142857143
83864,Bonner County,ID,NA,NA,73.75
60004,Cook County,IL,NA,6.983240223463687,NA
60025,Cook County,IL,NA,NA,3.392857142857143
60033,McHenry County,IL,NA,NA,92.85714285714286
60053,Cook County,IL,68.36734693877551,NA,NA
60067,Cook County,IL,NA,NA,71.60714285714286
60085,Lake County,IL,15.816326530612246,NA,NA
60089,Lake County,IL,NA,7.681564245810056,NA
60090,Cook County,IL,87.24489795918367,NA,NA
60108,DuPage County,IL,75.17006802721087,NA,NA
60123,Kane County,IL,64.28571428571429,NA,NA
60137,DuPage County,IL,NA,22.206703910614525,NA
60140,Kane County,IL,NA,NA,83.39285714285715
60148,DuPage County,IL,NA,3.7709497206703912,NA
60152,McHenry County,IL,NA,NA,54.107142857142854
60189,DuPage County,IL,NA,47.76536312849162,NA
60202,Cook County,IL,NA,76.11731843575419,NA
60411,Cook County,IL,NA,71.36871508379889,NA
60419,Cook County,IL,NA,NA,75.53571428571428
60428,Cook County,IL,NA,NA,52.85714285714286
60431,Will County,IL,NA,33.24022346368715,NA
60435,Will County,IL,NA,7.12290502793296,NA
60438,Cook County,IL,NA,84.63687150837988,NA
60440,Will County,IL,NA,10.614525139664805,NA
60446,Will County,IL,13.945578231292515,NA,NA
60453,Cook County,IL,13.26530612244898,NA,NA
60464,Cook County,IL,NA,NA,55.53571428571429
60477,Cook County,IL,NA,NA,9.285714285714286
60487,Cook County,IL,49.48979591836735,NA,NA
60506,Kane County,IL,NA,NA,48.035714285714285
60510,Kane County,IL,80.61224489795919,NA,NA
60515,DuPage County,IL,NA,26.955307262569832,NA
60521,DuPage County,IL,63.60544217687075,NA,NA
60526,Cook County,IL,84.52380952380952,63.547486033519554,NA
60560,Kendall County,IL,38.775510204081634,NA,NA
60561,DuPage County,IL,51.36054421768708,NA,NA
60563,DuPage County,IL,NA,NA,18.928571428571427
60565,DuPage County,IL,56.80272108843537,NA,NA
60613,Cook County,IL,NA,25.977653631284912,NA
60623,Cook County,IL,NA,8.659217877094973,NA
60628,Cook County,IL,NA,2.9329608938547485,NA
60630,Cook County,IL,20.578231292517007,NA,NA
60632,Cook County,IL,NA,NA,23.392857142857142
60637,Cook County,IL,NA,9.217877094972067,NA
60639,Cook County,IL,NA,46.787709497206706,NA
60641,Cook County,IL,12.074829931972788,NA,NA
60643,Cook County,IL,7.653061224489796,NA,NA
60644,Cook County,IL,NA,8.938547486033519,NA
60645,Cook County,IL,NA,15.921787709497206,NA
60652,Cook County,IL,54.761904761904766,NA,NA
60659,Cook County,IL,68.02721088435374,NA,NA
60804,Cook County,IL,71.7687074829932,10.05586592178771,NA
60957,Ford County,IL,NA,82.40223463687151,NA
61115,Winnebago County,IL,NA,20.810055865921786,NA
61264,Rock Island County,IL,96.25850340136054,NA,NA
61523,Peoria County,IL,NA,65.36312849162012,NA
61554,Tazewell County,IL,77.21088435374149,NA,NA
61603,Peoria County,IL,NA,95.25139664804469,NA
61604,Peoria County,IL,36.224489795918366,61.312849162011176,NA
61615,Peoria County,IL,NA,77.6536312849162,NA
61801,Champaign County,IL,NA,NA,41.60714285714286
62025,Madison County,IL,NA,NA,22.142857142857142
62208,St. Clair County,IL,NA,54.05027932960894,NA
62220,St. Clair County,IL,NA,58.5195530726257,NA
62234,Madison County,IL,NA,NA,20.535714285714285
62294,Madison County,IL,NA,71.22905027932961,NA
62441,Clark County,IL,NA,78.07262569832403,NA
62522,Macon County,IL,50,NA,NA
62704,Sangamon County,IL,NA,NA,42.32142857142857
62960,Massac County,IL,NA,67.17877094972067,43.392857142857146
46032,Hamilton County,IN,NA,NA,51.964285714285715
46038,Hamilton County,IN,NA,94.55307262569832,NA
46112,Hendricks County,IN,NA,NA,74.46428571428572
46135,Putnam County,IN,NA,NA,32.857142857142854
46140,Hancock County,IN,25.510204081632654,NA,47.85714285714286
46151,Morgan County,IN,51.53061224489795,NA,NA
46176,Shelby County,IN,NA,NA,5.714285714285714
46224,Marion County,IN,27.721088435374146,NA,NA
46226,Marion County,IN,10.714285714285714,NA,53.92857142857142
46260,Marion County,IN,NA,NA,34.82142857142857
46307,Lake County,IN,NA,0.9776536312849162,NA
46311,Lake County,IN,NA,12.849162011173185,NA
46312,Lake County,IN,42.517006802721085,NA,NA
46320,Lake County,IN,NA,NA,66.60714285714285
46323,Lake County,IN,18.367346938775512,NA,NA
46410,Lake County,IN,NA,NA,20.892857142857142
46506,Marshall County,IN,NA,77.93296089385476,NA
46750,Huntington County,IN,17.857142857142858,NA,NA
46755,Noble County,IN,24.149659863945576,NA,NA
46774,Allen County,IN,NA,78.91061452513966,NA
46814,Allen County,IN,NA,NA,69.82142857142857
46818,Allen County,IN,NA,66.75977653631286,NA
46901,Howard County,IN,3.061224489795918,NA,NA
46902,Howard County,IN,NA,NA,30.178571428571427
46947,Cass County,IN,11.224489795918368,NA,7.321428571428572
47025,Dearborn County,IN,NA,NA,50
47031,Ripley County,IN,NA,94.41340782122904,NA
47138,Scott County,IN,NA,96.92737430167597,NA
47150,Floyd County,IN,NA,5.307262569832402,NA
47331,Fayette County,IN,13.77551020408163,NA,NA
47401,Monroe County,IN,NA,63.40782122905028,NA
47670,Gibson County,IN,NA,93.43575418994413,NA
47710,Vanderburgh County,IN,NA,NA,40
47905,Tippecanoe County,IN,NA,39.94413407821229,NA
47909,Tippecanoe County,IN,64.1156462585034,NA,NA
50036,Boone County,IA,NA,NA,17.857142857142858
50112,Poweshiek County,IA,NA,82.68156424581005,NA
50138,Marion County,IA,47.27891156462585,NA,19.82142857142857
50310,Polk County,IA,NA,NA,36.964285714285715
50317,Polk County,IA,10.54421768707483,NA,NA
50613,Black Hawk County,IA,NA,9.078212290502794,NA
50701,Black Hawk County,IA,72.44897959183673,NA,NA
50702,Black Hawk County,IA,NA,87.98882681564247,NA
50703,Black Hawk County,IA,54.59183673469388,NA,NA
51301,Clay County,IA,NA,NA,24.285714285714285
52002,Dubuque County,IA,NA,NA,69.28571428571428
52205,Jones County,IA,NA,95.39106145251397,NA
52240,Johnson County,IA,NA,NA,22.678571428571427
52245,Johnson County,IA,NA,31.424581005586592,NA
52404,Linn County,IA,NA,59.357541899441344,NA
52537,Davis County,IA,NA,87.15083798882681,NA
52601,Des Moines County,IA,NA,37.709497206703915,NA
52632,Lee County,IA,NA,83.37988826815642,NA
52722,Scott County,IA,NA,21.22905027932961,NA
52807,Scott County,IA,73.12925170068027,NA,NA
66007,Leavenworth County,KS,NA,95.53072625698324,NA
66032,Anderson County,KS,NA,73.04469273743017,NA
66062,Johnson County,KS,32.482993197278915,NA,65.35714285714286
66207,Johnson County,KS,NA,97.3463687150838,NA
66614,Shawnee County,KS,NA,14.24581005586592,NA
67217,Sedgwick County,KS,NA,65.36312849162012,NA
67401,Saline County,KS,NA,NA,48.92857142857142
67410,Dickinson County,KS,NA,58.10055865921788,NA
67420,Mitchell County,KS,NA,97.62569832402235,NA
67550,Pawnee County,KS,NA,95.6703910614525,NA
67601,Ellis County,KS,NA,60.614525139664806,NA
40004,Nelson County,KY,16.83673469387755,NA,NA
40031,Oldham County,KY,57.993197278911566,NA,NA
40047,Bullitt County,KY,77.38095238095238,NA,NA
40059,Jefferson County,KY,86.05442176870748,NA,NA
40071,Spencer County,KY,NA,40.08379888268156,NA
40160,Hardin County,KY,NA,NA,48.57142857142857
40204,Jefferson County,KY,91.3265306122449,NA,NA
40214,Jefferson County,KY,6.292517006802721,NA,NA
40222,Jefferson County,KY,NA,52.79329608938548,NA
40229,Jefferson County,KY,11.054421768707483,NA,NA
40272,Jefferson County,KY,55.78231292517006,NA,NA
40361,Bourbon County,KY,31.97278911564626,NA,NA
40419,Lincoln County,KY,NA,97.90502793296089,NA
40422,Boyle County,KY,NA,NA,49.82142857142857
40504,Fayette County,KY,38.095238095238095,NA,NA
40514,Fayette County,KY,NA,NA,88.92857142857142
40515,Fayette County,KY,NA,NA,94.10714285714286
40741,Laurel County,KY,NA,31.70391061452514,NA
40962,Clay County,KY,16.666666666666664,NA,NA
41001,Campbell County,KY,NA,90.78212290502793,NA
41102,Boyd County,KY,NA,43.575418994413404,NA
41129,Boyd County,KY,NA,NA,67.85714285714286
41143,Carter County,KY,65.81632653061224,NA,NA
41144,Greenup County,KY,65.3061224489796,NA,NA
41219,Johnson County,KY,95.578231292517,NA,NA
41501,Pike County,KY,NA,NA,24.821428571428573
42001,McCracken County,KY,NA,15.363128491620111,NA
42103,Warren County,KY,56.12244897959183,NA,NA
42240,Christian County,KY,NA,10.474860335195531,NA
42420,Henderson County,KY,8.16326530612245,34.91620111731844,NA
42602,Clinton County,KY,NA,58.37988826815642,NA
70001,Jefferson Parish,LA,NA,50.41899441340782,NA
70003,Jefferson Parish,LA,28.57142857142857,NA,1.9642857142857142
70053,Jefferson Parish,LA,74.31972789115646,NA,NA
70065,Jefferson Parish,LA,NA,1.536312849162011,NA
70068,St. John the Baptist Parish,LA,NA,41.340782122905026,NA
70092,St. Bernard Parish,LA,NA,NA,91.60714285714285
70119,Orleans Parish,LA,NA,5.167597765363128,NA
70123,Jefferson Parish,LA,NA,NA,8.214285714285714
70131,Orleans Parish,LA,55.952380952380956,NA,NA
70364,Terrebonne Parish,LA,NA,NA,41.964285714285715
70427,Washington Parish,LA,NA,16.620111731843576,NA
70445,St. Tammany Parish,LA,NA,90.5027932960894,NA
70454,Tangipahoa Parish,LA,NA,30.726256983240223,NA
70458,St. Tammany Parish,LA,NA,18.156424581005588,35.714285714285715
70471,St. Tammany Parish,LA,NA,45.67039106145251,NA
70663,Calcasieu Parish,LA,NA,NA,38.92857142857143
70814,East Baton Rouge Parish,LA,30.272108843537417,NA,NA
71006,Bossier Parish,LA,95.40816326530613,NA,NA
71075,Webster Parish,LA,NA,NA,81.42857142857143
71106,Caddo Parish,LA,5.952380952380952,35.055865921787714,NA
71108,Caddo Parish,LA,9.183673469387756,NA,NA
71111,Bossier Parish,LA,NA,67.31843575418995,NA
71115,Caddo Parish,LA,NA,76.25698324022346,NA
71129,Caddo Parish,LA,34.01360544217687,NA,NA
71220,Morehouse Parish,LA,44.72789115646258,NA,NA
71457,Natchitoches Parish,LA,NA,NA,76.96428571428572
04005,York County,ME,14.285714285714285,NA,NA
04009,Cumberland County,ME,NA,NA,67.67857142857143
04062,Cumberland County,ME,NA,NA,65.71428571428571
04073,York County,ME,NA,24.581005586592177,NA
04084,Cumberland County,ME,63.775510204081634,NA,NA
04364,Kennebec County,ME,84.18367346938776,NA,NA
04401,Penobscot County,ME,2.891156462585034,NA,NA
04462,Penobscot County,ME,NA,71.92737430167597,NA
04742,Aroostook County,ME,69.89795918367348,NA,NA
04976,Somerset County,ME,NA,11.59217877094972,NA
20603,Charles County,MD,NA,NA,85.89285714285714
20646,Charles County,MD,NA,NA,69.64285714285714
20659,St. Mary's County,MD,55.44217687074829,NA,NA
20816,Montgomery County,MD,NA,87.29050279329608,NA
20878,Montgomery County,MD,NA,92.17877094972067,NA
21042,Howard County,MD,NA,NA,71.96428571428571
21090,Anne Arundel County,MD,NA,96.22905027932961,NA
21114,Anne Arundel County,MD,78.91156462585033,NA,NA
21157,Carroll County,MD,NA,NA,16.964285714285715
21162,Baltimore County,MD,97.10884353741497,NA,NA
21206,Baltimore city,MD,35.544217687074834,NA,NA
21207,Baltimore County,MD,NA,17.318435754189945,NA
21213,Baltimore city,MD,61.73469387755102,36.452513966480446,NA
21216,Baltimore city,MD,NA,NA,47.32142857142857
21218,Baltimore city,MD,9.013605442176871,NA,NA
21231,Baltimore city,MD,59.863945578231295,NA,NA
21244,Baltimore County,MD,NA,NA,81.96428571428571
21502,Allegany County,MD,NA,NA,28.749999999999996
21601,Talbot County,MD,61.564625850340136,NA,NA
21801,Wicomico County,MD,NA,76.53631284916202,NA
21811,Worcester County,MD,NA,50.977653631284916,NA
21901,Cecil County,MD,NA,NA,72.67857142857143
01040,Hampden County,MA,22.27891156462585,NA,NA
01082,Hampshire County,MA,NA,NA,48.214285714285715
01468,Worcester County,MA,NA,84.91620111731844,NA
01540,Worcester County,MA,34.69387755102041,NA,55.35714285714286
01604,Worcester County,MA,NA,12.988826815642456,NA
01609,Worcester County,MA,3.741496598639456,NA,NA
01730,Middlesex County,MA,NA,41.201117318435756,NA
01741,Middlesex County,MA,NA,93.71508379888269,NA
01742,Middlesex County,MA,NA,NA,24.642857142857146
01756,Worcester County,MA,NA,NA,96.07142857142857
01760,Middlesex County,MA,86.56462585034014,NA,7.142857142857142
01772,Worcester County,MA,NA,NA,66.96428571428571
01776,Middlesex County,MA,NA,NA,50.357142857142854
01778,Middlesex County,MA,NA,88.12849162011173,NA
01801,Middlesex County,MA,2.0408163265306123,NA,NA
01810,Essex County,MA,NA,86.45251396648045,NA
01843,Essex County,MA,NA,NA,29.82142857142857
01844,Essex County,MA,47.44897959183674,NA,NA
01863,Middlesex County,MA,NA,50,NA
01887,Middlesex County,MA,43.197278911564624,NA,NA
01907,Essex County,MA,47.10884353741497,NA,NA
01960,Essex County,MA,NA,NA,25.892857142857146
02026,Norfolk County,MA,NA,NA,60.535714285714285
02043,Plymouth County,MA,NA,NA,86.78571428571429
02045,Plymouth County,MA,NA,NA,63.035714285714285
02053,Norfolk County,MA,NA,96.50837988826815,NA
02056,Norfolk County,MA,NA,NA,86.60714285714286
02072,Norfolk County,MA,NA,47.3463687150838,NA
02118,Suffolk County,MA,0.3401360544217687,NA,NA
02120,Suffolk County,MA,NA,12.290502793296088,NA
02124,Suffolk County,MA,0.17006802721088435,NA,NA
02127,Suffolk County,MA,NA,5.4469273743016755,NA
02128,Suffolk County,MA,46.59863945578231,NA,NA
02140,Middlesex County,MA,NA,7.960893854748603,NA
02143,Middlesex County,MA,NA,7.5418994413407825,NA
02145,Middlesex County,MA,20.238095238095237,NA,NA
02148,Middlesex County,MA,0,NA,NA
02151,Suffolk County,MA,NA,NA,0.17857142857142858
02169,Norfolk County,MA,0.8503401360544218,NA,NA
02301,Plymouth County,MA,1.3605442176870748,NA,NA
02322,Norfolk County,MA,58.16326530612245,NA,NA
02330,Plymouth County,MA,NA,70.25139664804469,NA
02360,Plymouth County,MA,1.870748299319728,NA,1.0714285714285714
02465,Middlesex County,MA,48.46938775510204,NA,37.67857142857143
02476,Middlesex County,MA,NA,77.79329608938548,NA
02478,Middlesex County,MA,NA,17.877094972067038,NA
02540,Barnstable County,MA,NA,NA,28.392857142857142
02554,Nantucket County,MA,NA,NA,80.17857142857143
02601,Barnstable County,MA,NA,16.480446927374302,NA
02631,Barnstable County,MA,NA,NA,86.42857142857143
02760,Bristol County,MA,51.19047619047619,NA,NA
02780,Bristol County,MA,0.6802721088435374,25.41899441340782,37.5
48042,Macomb County,MI,NA,51.675977653631286,NA
48043,Macomb County,MI,NA,43.71508379888268,NA
48045,Macomb County,MI,NA,NA,33.035714285714285
48054,St. Clair County,MI,NA,57.821229050279335,NA
48060,St. Clair County,MI,4.081632653061225,NA,NA
48066,Macomb County,MI,4.2517006802721085,NA,NA
48070,Oakland County,MI,NA,97.48603351955308,NA
48075,Oakland County,MI,NA,23.18435754189944,NA
48081,Macomb County,MI,62.755102040816325,49.162011173184354,NA
48082,Macomb County,MI,42.857142857142854,NA,NA
48088,Macomb County,MI,NA,17.59776536312849,NA
48101,Wayne County,MI,NA,21.787709497206702,NA
48103,Washtenaw County,MI,67.17687074829932,NA,NA
48105,Washtenaw County,MI,NA,11.033519553072626,NA
48114,Livingston County,MI,NA,19.972067039106143,NA
48118,Washtenaw County,MI,NA,25.27932960893855,NA
48138,Wayne County,MI,NA,47.486033519553075,NA
48154,Wayne County,MI,21.258503401360542,NA,NA
48180,Wayne County,MI,NA,12.569832402234638,NA
48182,Monroe County,MI,NA,32.960893854748605,NA
48187,Wayne County,MI,NA,1.3966480446927374,NA
48213,Wayne County,MI,NA,19.273743016759777,NA
48219,Wayne County,MI,NA,1.675977653631285,NA
48223,Wayne County,MI,NA,30.446927374301673,NA
48306,Oakland County,MI,38.435374149659864,NA,NA
48310,Macomb County,MI,14.45578231292517,NA,NA
48316,Macomb County,MI,35.204081632653065,NA,NA
48323,Oakland County,MI,NA,NA,31.071428571428573
48329,Oakland County,MI,28.741496598639454,NA,NA
48331,Oakland County,MI,NA,15.64245810055866,NA
48356,Oakland County,MI,NA,90.92178770949721,NA
48420,Genesee County,MI,67.3469387755102,NA,NA
48422,Sanilac County,MI,NA,63.687150837988824,NA
48433,Genesee County,MI,NA,NA,32.5
48439,Genesee County,MI,NA,77.23463687150837,NA
48441,Huron County,MI,94.21768707482994,NA,NA
48509,Genesee County,MI,NA,67.59776536312849,NA
48532,Genesee County,MI,NA,76.81564245810057,NA
48601,Saginaw County,MI,11.73469387755102,NA,NA
48602,Saginaw County,MI,NA,NA,35.35714285714286
48603,Saginaw County,MI,NA,61.452513966480446,NA
48604,Saginaw County,MI,49.82993197278912,92.87709497206704,NA
48609,Saginaw County,MI,NA,88.54748603351955,NA
48611,Bay County,MI,NA,56.28491620111732,NA
48612,Gladwin County,MI,NA,35.19553072625698,NA
48624,Gladwin County,MI,NA,NA,17.5
48626,Saginaw County,MI,NA,91.34078212290503,NA
48647,Oscoda County,MI,NA,NA,84.28571428571429
48656,Roscommon County,MI,NA,NA,89.82142857142857
48706,Bay County,MI,26.700680272108844,10.754189944134078,NA
48708,Bay County,MI,27.55102040816326,NA,NA
48722,Saginaw County,MI,95.06802721088435,NA,NA
48723,Tuscola County,MI,NA,NA,36.78571428571429
48726,Tuscola County,MI,79.421768707483,NA,NA
48858,Isabella County,MI,NA,4.189944134078212,NA
48867,Shiawassee County,MI,NA,4.4692737430167595,NA
48875,Ionia County,MI,NA,NA,53.57142857142857
49004,Kalamazoo County,MI,NA,38.547486033519554,NA
49006,Kalamazoo County,MI,NA,51.39664804469274,NA
49009,Kalamazoo County,MI,36.564625850340136,84.35754189944134,NA
49015,Calhoun County,MI,68.19727891156462,NA,NA
49017,Calhoun County,MI,NA,NA,21.25
49021,Eaton County,MI,NA,97.06703910614524,NA
49022,Berrien County,MI,NA,53.63128491620112,NA
49024,Kalamazoo County,MI,23.299319727891156,16.061452513966483,NA
49036,Branch County,MI,NA,NA,24.821428571428573
49047,Cass County,MI,NA,53.49162011173184,NA
49058,Barry County,MI,27.040816326530614,NA,NA
49068,Calhoun County,MI,NA,80.3072625698324,NA
49098,Berrien County,MI,NA,95.11173184357543,NA
49120,Berrien County,MI,13.435374149659864,NA,44.82142857142858
49307,Mecosta County,MI,NA,NA,39.107142857142854
49341,Kent County,MI,NA,NA,53.39285714285714
49423,Ottawa County,MI,64.96598639455783,NA,NA
49442,Muskegon County,MI,NA,NA,5.178571428571429
49456,Ottawa County,MI,NA,20.251396648044693,NA
49504,Kent County,MI,39.965986394557824,NA,NA
49506,Kent County,MI,66.83673469387756,NA,NA
49508,Kent County,MI,NA,NA,7.678571428571429
49509,Kent County,MI,NA,NA,47.14285714285714
49546,Kent County,MI,NA,71.50837988826815,NA
49548,Kent County,MI,6.802721088435375,NA,61.60714285714286
49735,Otsego County,MI,NA,13.966480446927374,NA
49801,Dickinson County,MI,NA,31.564245810055862,NA
49855,Marquette County,MI,NA,NA,20
49866,Marquette County,MI,91.15646258503402,NA,NA
49878,Delta County,MI,NA,91.89944134078212,NA
49931,Houghton County,MI,NA,60.47486033519554,NA
49935,Iron County,MI,NA,89.94413407821229,NA
55009,Goodhue County,MN,NA,47.20670391061452,NA
55068,Dakota County,MN,NA,68.99441340782123,NA
55102,Ramsey County,MN,NA,30.8659217877095,NA
55109,Ramsey County,MN,NA,21.368715083798882,NA
55125,Washington County,MN,NA,NA,33.57142857142857
55127,Ramsey County,MN,59.693877551020414,NA,NA
55350,McLeod County,MN,NA,NA,11.964285714285715
55371,Mille Lacs County,MN,45.57823129251701,NA,NA
55404,Hennepin County,MN,2.2108843537414966,NA,NA
55408,Hennepin County,MN,NA,NA,58.75
55420,Hennepin County,MN,NA,NA,37.857142857142854
55810,St. Louis County,MN,NA,37.011173184357546,NA
55811,St. Louis County,MN,NA,3.6312849162011176,NA
55981,Wabasha County,MN,NA,68.15642458100558,NA
56001,Blue Earth County,MN,NA,26.536312849162012,NA
56003,Nicollet County,MN,NA,57.54189944134078,NA
56164,Pipestone County,MN,88.94557823129252,72.20670391061452,NA
56215,Swift County,MN,NA,100,NA
56265,Chippewa County,MN,NA,NA,78.21428571428571
56401,Crow Wing County,MN,NA,39.10614525139665,3.214285714285714
56501,Becker County,MN,62.585034013605444,NA,NA
56554,Becker County,MN,100,NA,NA
56560,Clay County,MN,NA,NA,0.7142857142857143
56636,Itasca County,MN,NA,60.19553072625698,NA
56701,Pennington County,MN,NA,NA,27.67857142857143
38632,DeSoto County,MS,45.06802721088435,NA,NA
38703,Washington County,MS,NA,NA,71.42857142857143
38863,Pontotoc County,MS,NA,93.85474860335195,NA
38930,Leflore County,MS,NA,87.01117318435753,NA
38965,Yalobusha County,MS,NA,85.75418994413407,NA
39056,Hinds County,MS,NA,91.06145251396647,NA
39111,Simpson County,MS,85.20408163265306,NA,NA
39120,Adams County,MS,NA,NA,38.21428571428571
39154,Hinds County,MS,96.42857142857143,NA,83.21428571428572
39157,Madison County,MS,NA,NA,55.00000000000001
39180,Warren County,MS,NA,36.312849162011176,NA
39211,Hinds County,MS,NA,NA,64.64285714285715
39213,Hinds County,MS,30.782312925170068,NA,NA
39218,Rankin County,MS,NA,96.08938547486034,NA
39232,Rankin County,MS,NA,NA,83.75
39301,Lauderdale County,MS,NA,81.42458100558659,NA
39305,Lauderdale County,MS,73.29931972789116,NA,NA
39307,Lauderdale County,MS,NA,82.9608938547486,NA
39339,Winston County,MS,65.47619047619048,NA,NA
39345,Newton County,MS,NA,NA,93.57142857142857
39350,Neshoba County,MS,23.12925170068027,NA,NA
39422,Jasper County,MS,NA,NA,78.57142857142857
39426,Pearl River County,MS,49.14965986394558,NA,NA
39443,Jones County,MS,NA,NA,43.75
39465,Forrest County,MS,62.414965986394556,NA,NA
39470,Pearl River County,MS,NA,NA,56.07142857142857
39501,Harrison County,MS,NA,78.35195530726257,NA
39556,Hancock County,MS,NA,64.3854748603352,NA
39562,Jackson County,MS,NA,NA,96.78571428571429
39563,Jackson County,MS,NA,NA,50.535714285714285
39564,Jackson County,MS,72.27891156462584,NA,23.214285714285715
39577,Stone County,MS,95.06802721088435,NA,NA
39581,Jackson County,MS,92.00680272108843,NA,NA
39667,Walthall County,MS,NA,52.374301675977655,NA
39705,Lowndes County,MS,NA,NA,71.78571428571429
63005,St. Louis County,MO,NA,NA,96.96428571428571
63020,Jefferson County,MO,NA,NA,44.642857142857146
63028,Jefferson County,MO,NA,16.899441340782122,NA
63112,St. Louis city,MO,NA,NA,56.42857142857143
63113,St. Louis city,MO,NA,57.12290502793296,NA
63119,St. Louis County,MO,NA,NA,6.607142857142858
63121,St. Louis County,MO,NA,NA,95.35714285714286
63122,St. Louis County,MO,NA,65.64245810055866,NA
63128,St. Louis County,MO,NA,NA,5.357142857142857
63130,St. Louis County,MO,NA,NA,91.78571428571428
63136,St. Louis County,MO,NA,NA,27.500000000000004
63137,St. Louis County,MO,NA,63.96648044692738,NA
63366,St. Charles County,MO,NA,NA,8.571428571428571
63379,Lincoln County,MO,90.98639455782312,NA,NA
63645,Madison County,MO,NA,NA,74.10714285714286
63801,Scott County,MO,NA,52.23463687150838,NA
63873,New Madrid County,MO,NA,NA,82.67857142857142
63935,Ripley County,MO,NA,NA,64.28571428571429
64052,Jackson County,MO,9.523809523809524,NA,NA
64068,Clay County,MO,NA,4.608938547486034,NA
64086,Jackson County,MO,60.204081632653065,NA,NA
64093,Johnson County,MO,30.612244897959183,NA,NA
64127,Jackson County,MO,NA,28.212290502793298,NA
64132,Jackson County,MO,13.945578231292515,NA,NA
64137,Jackson County,MO,NA,85.6145251396648,NA
64138,Jackson County,MO,NA,12.150837988826815,NA
64485,Andrew County,MO,NA,NA,67.32142857142858
64505,Buchanan County,MO,78.74149659863946,NA,NA
64628,Linn County,MO,NA,83.10055865921788,NA
64730,Bates County,MO,NA,NA,50.17857142857143
64735,Henry County,MO,NA,NA,64.82142857142857
64772,Vernon County,MO,NA,NA,84.10714285714286
64836,Jasper County,MO,NA,NA,12.5
65013,Maries County,MO,86.39455782312925,NA,NA
65020,Camden County,MO,NA,56.70391061452514,NA
65026,Miller County,MO,NA,62.01117318435754,NA
65041,Gasconade County,MO,96.08843537414967,NA,NA
65203,Boone County,MO,NA,NA,4.285714285714286
65560,Dent County,MO,NA,39.80446927374302,NA
65565,Crawford County,MO,NA,89.10614525139665,NA
65613,Polk County,MO,73.80952380952381,NA,NA
65653,Taney County,MO,NA,64.24581005586593,NA
65802,Greene County,MO,9.863945578231291,NA,NA
65803,Greene County,MO,NA,8.519553072625698,NA
65807,Greene County,MO,NA,NA,5.535714285714286
59101,Yellowstone County,MT,NA,17.178770949720672,NA
59102,Yellowstone County,MT,NA,NA,1.4285714285714286
59802,Missoula County,MT,NA,96.7877094972067,NA
59901,Flathead County,MT,NA,NA,0.5357142857142857
68007,Douglas County,NE,NA,NA,95.53571428571429
68008,Washington County,NE,NA,51.955307262569825,NA
68108,Douglas County,NE,NA,85.89385474860335,NA
68154,Douglas County,NE,88.09523809523809,NA,NA
68502,Lancaster County,NE,NA,84.21787709497207,NA
68521,Lancaster County,NE,NA,NA,61.78571428571429
68776,Dakota County,NE,NA,93.15642458100558,NA
69101,Lincoln County,NE,NA,NA,39.82142857142857
89123,Clark County,NV,NA,NA,45.17857142857143
89130,Clark County,NV,NA,NA,41.07142857142857
89169,Clark County,NV,47.7891156462585,NA,NA
89436,Washoe County,NV,20.068027210884352,NA,NA
03054,Hillsborough County,NH,NA,13.268156424581006,NA
03102,Hillsborough County,NH,18.027210884353742,NA,NA
03104,Hillsborough County,NH,NA,9.916201117318437,NA
03106,Merrimack County,NH,72.61904761904762,NA,NA
03110,Hillsborough County,NH,NA,NA,11.25
03229,Merrimack County,NH,NA,NA,81.78571428571428
03244,Hillsborough County,NH,NA,76.67597765363129,NA
03281,Hillsborough County,NH,NA,94.83240223463687,NA
03766,Grafton County,NH,NA,54.7486033519553,NA
03825,Strafford County,NH,71.08843537414967,NA,NA
03833,Rockingham County,NH,NA,NA,25.535714285714285
07002,Hudson County,NJ,NA,1.2569832402234637,NA
07006,Essex County,NJ,NA,NA,42.857142857142854
07026,Bergen County,NJ,73.63945578231292,NA,NA
07036,Union County,NJ,NA,NA,27.32142857142857
07040,Essex County,NJ,98.63945578231292,NA,NA
07054,Morris County,NJ,45.74829931972789,NA,NA
07087,Hudson County,NJ,NA,NA,4.464285714285714
07106,Essex County,NJ,5.1020408163265305,NA,NA
07305,Hudson County,NJ,NA,NA,57.32142857142857
07307,Hudson County,NJ,NA,61.452513966480446,NA
07403,Passaic County,NJ,NA,NA,90.71428571428571
07405,Morris County,NJ,94.89795918367348,NA,NA
07410,Bergen County,NJ,NA,99.02234636871509,29.107142857142858
07419,Sussex County,NJ,NA,NA,98.03571428571428
07430,Bergen County,NJ,NA,40.36312849162011,NA
07438,Morris County,NJ,79.08163265306123,NA,NA
07444,Morris County,NJ,94.72789115646259,NA,NA
07501,Passaic County,NJ,2.7210884353741496,NA,NA
07502,Passaic County,NJ,97.95918367346938,NA,NA
07512,Passaic County,NJ,NA,NA,95.17857142857142
07514,Passaic County,NJ,NA,90.22346368715084,NA
07522,Passaic County,NJ,NA,NA,82.32142857142857
07601,Bergen County,NJ,NA,NA,63.39285714285714
07603,Bergen County,NJ,NA,NA,98.21428571428571
07666,Bergen County,NJ,38.605442176870746,NA,NA
07716,Monmouth County,NJ,83.84353741496598,NA,NA
07724,Monmouth County,NJ,52.89115646258503,NA,NA
07735,Monmouth County,NJ,28.2312925170068,NA,NA
07860,Sussex County,NJ,22.789115646258505,NA,NA
07869,Morris County,NJ,NA,99.86033519553072,NA
07885,Morris County,NJ,NA,86.73184357541899,NA
07960,Morris County,NJ,17.17687074829932,NA,NA
08002,Camden County,NJ,NA,78.63128491620111,NA
08012,Camden County,NJ,NA,38.26815642458101,NA
08021,Camden County,NJ,0.5102040816326531,NA,NA
08033,Camden County,NJ,NA,95.81005586592178,NA
08046,Burlington County,NJ,5.782312925170068,NA,NA
08048,Burlington County,NJ,96.7687074829932,NA,NA
08055,Burlington County,NJ,60.37414965986394,NA,NA
08070,Salem County,NJ,NA,83.79888268156425,NA
08087,Ocean County,NJ,NA,NA,11.785714285714285
08096,Gloucester County,NJ,36.904761904761905,NA,NA
08103,Camden County,NJ,NA,NA,79.46428571428571
08204,Cape May County,NJ,NA,NA,59.82142857142857
08210,Cape May County,NJ,NA,65.22346368715084,73.92857142857143
08230,Cape May County,NJ,NA,96.64804469273743,NA
08234,Atlantic County,NJ,47.61904761904761,NA,NA
08302,Cumberland County,NJ,NA,70.94972067039106,NA
08330,Atlantic County,NJ,NA,NA,41.785714285714285
08360,Cumberland County,NJ,1.7006802721088436,6.284916201117319,NA
08401,Atlantic County,NJ,71.5986394557823,1.8156424581005588,NA
08611,Mercer County,NJ,NA,24.162011173184357,NA
08731,Ocean County,NJ,NA,NA,91.25
08757,Ocean County,NJ,92.17687074829932,NA,NA
08812,Middlesex County,NJ,NA,81.00558659217877,NA
08822,Hunterdon County,NJ,NA,25.69832402234637,NA
08831,Middlesex County,NJ,26.87074829931973,69.55307262569832,30.53571428571429
08854,Middlesex County,NJ,NA,NA,99.64285714285714
08861,Middlesex County,NJ,10.204081632653061,NA,16.25
87047,Bernalillo County,NM,NA,99.16201117318437,NA
87108,Bernalillo County,NM,NA,NA,22.857142857142858
87109,Bernalillo County,NM,NA,11.312849162011174,NA
87111,Bernalillo County,NM,4.421768707482993,NA,NA
87120,Bernalillo County,NM,29.591836734693878,NA,NA
87505,Santa Fe County,NM,5.272108843537415,NA,NA
87506,Santa Fe County,NM,96.93877551020408,NA,NA
87507,Santa Fe County,NM,NA,NA,16.607142857142858
87532,Santa Fe County,NM,33.16326530612245,78.49162011173185,NA
87557,Taos County,NM,NA,69.83240223463687,NA
88030,Luna County,NM,NA,34.63687150837989,50.71428571428571
88130,Roosevelt County,NM,93.5374149659864,NA,NA
88220,Eddy County,NM,NA,NA,19.642857142857142
88260,Lea County,NM,35.714285714285715,NA,75.17857142857143
88345,Lincoln County,NM,NA,NA,97.14285714285714
10009,New York County,NY,NA,3.35195530726257,NA
10011,New York County,NY,NA,NA,10.535714285714286
10026,New York County,NY,NA,NA,62.67857142857143
10027,New York County,NY,59.013605442176875,NA,NA
10031,New York County,NY,NA,11.1731843575419,NA
10032,New York County,NY,NA,4.748603351955307,NA
10033,New York County,NY,42.68707482993197,NA,NA
10035,New York County,NY,NA,5.726256983240224,NA
10075,New York County,NY,NA,51.675977653631286,NA
10306,Richmond County,NY,NA,NA,10.892857142857142
10458,Bronx County,NY,1.0204081632653061,NA,NA
10463,Bronx County,NY,6.972789115646258,NA,NA
10469,Bronx County,NY,66.3265306122449,NA,NA
10475,Bronx County,NY,NA,NA,5
10530,Westchester County,NY,NA,NA,75
10590,Westchester County,NY,NA,NA,98.92857142857143
10701,Westchester County,NY,44.5578231292517,NA,NA
11201,Kings County,NY,NA,NA,20
11212,Kings County,NY,NA,0.27932960893854747,NA
11214,Kings County,NY,NA,63.8268156424581,NA
11215,Kings County,NY,NA,NA,13.928571428571429
11217,Kings County,NY,NA,NA,46.60714285714286
11236,Kings County,NY,47.95918367346938,NA,NA
11237,Kings County,NY,NA,10.893854748603351,NA
11364,Queens County,NY,NA,59.91620111731844,NA
11374,Queens County,NY,NA,49.72067039106145,NA
11412,Queens County,NY,NA,NA,38.57142857142858
11417,Queens County,NY,NA,39.52513966480447,NA
11542,Nassau County,NY,53.57142857142857,NA,NA
11550,Nassau County,NY,NA,NA,30.357142857142854
11580,Nassau County,NY,74.82993197278913,NA,NA
11590,Nassau County,NY,NA,23.044692737430168,NA
11692,Queens County,NY,NA,NA,71.07142857142857
11704,Suffolk County,NY,NA,NA,23.57142857142857
11726,Suffolk County,NY,NA,NA,61.25000000000001
11727,Suffolk County,NY,NA,22.62569832402235,NA
11767,Suffolk County,NY,97.78911564625851,NA,NA
11772,Suffolk County,NY,NA,50.27932960893855,NA
11776,Suffolk County,NY,NA,85.33519553072625,NA
11790,Suffolk County,NY,NA,NA,62.142857142857146
11944,Suffolk County,NY,NA,NA,72.14285714285714
12033,Rensselaer County,NY,NA,NA,70.53571428571429
12077,Albany County,NY,97.61904761904762,NA,NA
12309,Schenectady County,NY,82.14285714285714,NA,NA
12534,Columbia County,NY,NA,43.85474860335196,NA
12561,Ulster County,NY,NA,NA,82.85714285714286
12901,Clinton County,NY,30.102040816326532,NA,NA
12981,Clinton County,NY,90.47619047619048,NA,NA
12983,Franklin County,NY,44.21768707482993,NA,NA
13031,Onondaga County,NY,38.775510204081634,NA,NA
13036,Oswego County,NY,51.87074829931972,NA,NA
13126,Oswego County,NY,NA,NA,9.642857142857144
13206,Onondaga County,NY,21.08843537414966,NA,NA
13215,Onondaga County,NY,70.91836734693877,NA,NA
13413,Oneida County,NY,NA,22.067039106145252,NA
13452,Montgomery County,NY,NA,NA,99.82142857142857
13601,Jefferson County,NY,NA,NA,13.392857142857142
13676,St. Lawrence County,NY,NA,NA,92.14285714285714
13760,Broome County,NY,NA,33.798882681564244,NA
13820,Otsego County,NY,8.843537414965986,NA,NA
13830,Chenango County,NY,NA,86.1731843575419,NA
14004,Erie County,NY,NA,NA,79.82142857142858
14020,Genesee County,NY,NA,9.497206703910614,NA
14072,Erie County,NY,NA,73.74301675977654,NA
14210,Erie County,NY,22.448979591836736,NA,NA
14213,Erie County,NY,17.006802721088434,NA,NA
14220,Erie County,NY,12.414965986394558,NA,NA
14224,Erie County,NY,NA,29.608938547486037,9.821428571428571
14304,Niagara County,NY,19.897959183673468,NA,NA
14424,Ontario County,NY,NA,0.41899441340782123,NA
14445,Monroe County,NY,33.33333333333333,NA,NA
14454,Livingston County,NY,82.6530612244898,NA,NA
14456,Ontario County,NY,26.360544217687078,NA,NA
14469,Ontario County,NY,36.734693877551024,NA,NA
14502,Wayne County,NY,23.639455782312925,NA,NA
14526,Monroe County,NY,NA,NA,21.607142857142858
14534,Monroe County,NY,6.122448979591836,NA,NA
14589,Wayne County,NY,29.931972789115648,NA,NA
14610,Monroe County,NY,NA,18.435754189944134,NA
14612,Monroe County,NY,NA,0.8379888268156425,NA
14617,Monroe County,NY,NA,2.793296089385475,NA
14621,Monroe County,NY,NA,NA,12.678571428571427
27017,Surry County,NC,NA,81.98324022346368,NA
27052,Stokes County,NC,NA,NA,94.46428571428571
27106,Forsyth County,NC,11.564625850340136,NA,1.25
27107,Forsyth County,NC,NA,NA,13.035714285714286
27265,Guilford County,NC,46.42857142857143,10.335195530726256,NA
27282,Guilford County,NC,NA,NA,81.25
27284,Forsyth County,NC,NA,NA,2.3214285714285716
27292,Davidson County,NC,NA,NA,58.392857142857146
27295,Davidson County,NC,NA,NA,15
27401,Guilford County,NC,24.829931972789115,NA,NA
27455,Guilford County,NC,NA,NA,42.5
27511,Wake County,NC,NA,23.60335195530726,NA
27517,Orange County,NC,NA,NA,88.75
27525,Franklin County,NC,50.34013605442177,NA,NA
27530,Wayne County,NC,NA,15.223463687150836,NA
27540,Wake County,NC,NA,NA,77.32142857142857
27546,Harnett County,NC,NA,NA,56.785714285714285
27549,Franklin County,NC,NA,NA,30.892857142857146
27573,Person County,NC,40.30612244897959,NA,NA
27576,Johnston County,NC,50.51020408163265,NA,NA
27577,Johnston County,NC,NA,23.88268156424581,NA
27587,Wake County,NC,18.877551020408163,NA,NA
27604,Wake County,NC,NA,NA,51.24999999999999
27610,Wake County,NC,NA,24.441340782122907,NA
27615,Wake County,NC,35.374149659863946,NA,NA
27704,Durham County,NC,10.374149659863946,NA,NA
27705,Durham County,NC,78.57142857142857,NA,49.28571428571429
27809,Nash County,NC,NA,92.31843575418995,NA
27817,Beaufort County,NC,70.06802721088435,NA,NA
27834,Pitt County,NC,NA,NA,41.25
27889,Beaufort County,NC,NA,47.90502793296089,NA
27892,Martin County,NC,67.85714285714286,NA,NA
27983,Bertie County,NC,NA,NA,32.142857142857146
28037,Lincoln County,NC,55.27210884353742,NA,NA
28054,Gaston County,NC,NA,NA,26.607142857142858
28081,Cabarrus County,NC,NA,36.87150837988827,NA
28083,Cabarrus County,NC,25.68027210884354,NA,NA
28110,Union County,NC,NA,38.8268156424581,NA
28112,Union County,NC,NA,27.37430167597765,NA
28127,Stanly County,NC,86.90476190476191,NA,NA
28128,Stanly County,NC,82.31292517006803,NA,NA
28139,Rutherford County,NC,NA,NA,46.785714285714285
28144,Rowan County,NC,NA,NA,73.03571428571428
28150,Cleveland County,NC,NA,31.28491620111732,NA
28168,Lincoln County,NC,64.62585034013605,NA,NA
28173,Union County,NC,63.095238095238095,NA,NA
28212,Mecklenburg County,NC,21.428571428571427,45.2513966480447,NA
28227,Mecklenburg County,NC,NA,NA,56.25
28303,Cumberland County,NC,NA,NA,82.5
28315,Moore County,NC,NA,64.66480446927375,NA
28326,Harnett County,NC,NA,88.96648044692738,NA
28328,Sampson County,NC,30.4421768707483,NA,NA
28409,New Hanover County,NC,34.69387755102041,NA,NA
28431,Columbus County,NC,NA,90.36312849162012,NA
28461,Brunswick County,NC,NA,NA,62.857142857142854
28472,Columbus County,NC,31.802721088435376,NA,NA
28501,Lenoir County,NC,NA,33.659217877094974,NA
28539,Onslow County,NC,83.6734693877551,NA,NA
28551,Lenoir County,NC,NA,89.52513966480447,NA
28562,Craven County,NC,NA,NA,11.071428571428571
28570,Carteret County,NC,NA,NA,72.85714285714285
28602,Catawba County,NC,18.70748299319728,NA,NA
28607,Watauga County,NC,70.578231292517,NA,91.96428571428571
28609,Catawba County,NC,NA,NA,93.21428571428572
28645,Caldwell County,NC,4.591836734693878,NA,NA
28650,Catawba County,NC,NA,NA,57.67857142857142
28655,Burke County,NC,NA,2.5139664804469275,33.39285714285714
28677,Iredell County,NC,NA,14.94413407821229,NA
28681,Alexander County,NC,NA,30.58659217877095,NA
28694,Ashe County,NC,NA,58.5195530726257,NA
28723,Jackson County,NC,NA,NA,83.75
28731,Henderson County,NC,89.1156462585034,NA,NA
28739,Henderson County,NC,NA,34.77653631284916,8.035714285714286
28771,Graham County,NC,92.85714285714286,NA,NA
28787,Buncombe County,NC,NA,92.73743016759776,NA
58301,Ramsey County,ND,NA,53.212290502793294,NA
58554,Morton County,ND,NA,NA,8.75
43015,Delaware County,OH,40.136054421768705,56.564245810055866,NA
43026,Franklin County,OH,NA,63.268156424581,41.42857142857143
43028,Knox County,OH,NA,87.84916201117319,NA
43050,Knox County,OH,NA,18.854748603351958,NA
43055,Licking County,OH,2.380952380952381,NA,NA
43064,Madison County,OH,86.73469387755102,NA,NA
43082,Delaware County,OH,NA,77.51396648044692,NA
43113,Pickaway County,OH,12.585034013605442,NA,NA
43147,Fairfield County,OH,NA,NA,40.535714285714285
43160,Fayette County,OH,NA,NA,18.035714285714285
43202,Franklin County,OH,NA,94.6927374301676,NA
43206,Franklin County,OH,NA,44.134078212290504,NA
43213,Franklin County,OH,NA,NA,67.5
43227,Franklin County,OH,19.5578231292517,NA,NA
43230,Franklin County,OH,NA,36.452513966480446,77.67857142857143
43232,Franklin County,OH,NA,56.005586592178766,NA
43235,Franklin County,OH,NA,73.88268156424581,NA
43311,Logan County,OH,26.190476190476193,27.6536312849162,NA
43440,Ottawa County,OH,NA,NA,76.07142857142857
43452,Ottawa County,OH,NA,NA,71.25
43537,Lucas County,OH,76.70068027210884,NA,NA
43545,Henry County,OH,NA,NA,52.67857142857143
43551,Wood County,OH,72.95918367346938,NA,NA
43560,Lucas County,OH,NA,37.43016759776536,19.107142857142854
43606,Lucas County,OH,NA,23.324022346368714,NA
43612,Lucas County,OH,4.931972789115646,NA,NA
43701,Muskingum County,OH,1.530612244897959,NA,NA
43713,Belmont County,OH,NA,67.87709497206704,NA
43723,Guernsey County,OH,76.19047619047619,NA,NA
43725,Guernsey County,OH,NA,26.11731843575419,70.89285714285715
44011,Lorain County,OH,NA,NA,35.892857142857146
44024,Geauga County,OH,41.49659863945578,NA,11.428571428571429
44035,Lorain County,OH,NA,1.1173184357541899,NA
44039,Lorain County,OH,7.312925170068027,NA,NA
44053,Lorain County,OH,74.48979591836735,NA,NA
44067,Summit County,OH,NA,13.547486033519554,NA
44077,Lake County,OH,NA,NA,6.964285714285714
44105,Cuyahoga County,OH,1.1904761904761905,4.050279329608938,NA
44106,Cuyahoga County,OH,NA,NA,48.92857142857142
44111,Cuyahoga County,OH,9.693877551020408,NA,NA
44116,Cuyahoga County,OH,34.35374149659864,NA,25.357142857142854
44118,Cuyahoga County,OH,NA,NA,66.42857142857143
44123,Cuyahoga County,OH,53.40136054421769,NA,NA
44124,Cuyahoga County,OH,NA,32.82122905027933,NA
44126,Cuyahoga County,OH,NA,NA,63.92857142857142
44130,Cuyahoga County,OH,NA,19.553072625698324,NA
44132,Cuyahoga County,OH,20.578231292517007,NA,NA
44140,Cuyahoga County,OH,NA,NA,29.28571428571429
44143,Cuyahoga County,OH,28.91156462585034,9.776536312849162,NA
44202,Portage County,OH,NA,13.8268156424581,NA
44212,Medina County,OH,30.952380952380953,NA,NA
44223,Summit County,OH,NA,NA,31.428571428571427
44236,Summit County,OH,NA,16.34078212290503,NA
44255,Portage County,OH,83.50340136054422,NA,NA
44256,Medina County,OH,NA,0.13966480446927373,NA
44262,Summit County,OH,88.43537414965986,NA,NA
44281,Medina County,OH,19.047619047619047,NA,NA
44305,Summit County,OH,NA,28.77094972067039,NA
44319,Summit County,OH,NA,47.625698324022345,NA
44333,Summit County,OH,NA,NA,32.5
44403,Trumbull County,OH,NA,NA,94.64285714285714
44406,Mahoning County,OH,48.97959183673469,NA,NA
44446,Trumbull County,OH,11.904761904761903,NA,NA
44484,Trumbull County,OH,NA,NA,14.285714285714285
44485,Trumbull County,OH,NA,25,NA
44502,Mahoning County,OH,NA,83.24022346368714,NA
44601,Stark County,OH,NA,6.005586592178771,NA
44622,Tuscarawas County,OH,NA,56.84357541899442,NA
44663,Tuscarawas County,OH,NA,NA,58.03571428571429
44714,Stark County,OH,NA,NA,67.85714285714286
44906,Richland County,OH,NA,NA,22.321428571428573
45011,Butler County,OH,50.17006802721088,1.9553072625698324,NA
45042,Butler County,OH,46.25850340136054,NA,NA
45212,Hamilton County,OH,NA,46.36871508379888,NA
45219,Hamilton County,OH,71.93877551020408,NA,NA
45240,Hamilton County,OH,NA,34.21787709497207,NA
45324,Greene County,OH,NA,NA,16.785714285714285
45327,Montgomery County,OH,NA,NA,92.67857142857143
45342,Montgomery County,OH,10.034013605442176,NA,NA
45365,Shelby County,OH,NA,54.88826815642458,NA
45371,Miami County,OH,NA,NA,28.035714285714285
45385,Greene County,OH,NA,29.329608938547487,NA
45424,Montgomery County,OH,62.244897959183675,NA,NA
45430,Greene County,OH,98.12925170068027,NA,NA
45601,Ross County,OH,NA,0,NA
45628,Ross County,OH,NA,44.41340782122905,NA
45638,Lawrence County,OH,NA,2.2346368715083798,NA
45640,Jackson County,OH,NA,42.597765363128495,NA
45662,Scioto County,OH,3.571428571428571,NA,21.071428571428573
45680,Lawrence County,OH,NA,NA,31.96428571428571
45701,Athens County,OH,53.91156462585034,NA,NA
45750,Washington County,OH,2.5510204081632653,NA,NA
45804,Allen County,OH,75.34013605442176,NA,NA
45805,Allen County,OH,54.93197278911565,NA,NA
45822,Mercer County,OH,NA,NA,51.07142857142857
45840,Hancock County,OH,3.4013605442176873,NA,NA
45856,Putnam County,OH,96.5986394557823,88.8268156424581,NA
45885,Auglaize County,OH,NA,NA,44.285714285714285
45891,Van Wert County,OH,NA,NA,96.25
73010,McClain County,OK,41.83673469387755,NA,NA
73012,Oklahoma County,OK,88.60544217687075,82.26256983240224,NA
73013,Oklahoma County,OK,NA,60.893854748603346,NA
73025,Oklahoma County,OK,62.074829931972786,NA,NA
73034,Oklahoma County,OK,54.25170068027211,55.02793296089386,NA
73069,Cleveland County,OK,NA,NA,81.60714285714286
73129,Oklahoma County,OK,NA,62.709497206703915,NA
73159,Oklahoma County,OK,41.156462585034014,NA,NA
73160,Cleveland County,OK,53.2312925170068,3.4916201117318435,NA
73162,Oklahoma County,OK,NA,NA,15.535714285714286
73179,Oklahoma County,OK,91.83673469387756,NA,NA
73507,Comanche County,OK,NA,NA,56.96428571428571
74006,Washington County,OK,NA,NA,59.285714285714285
74055,Tulsa County,OK,NA,NA,30.714285714285715
74063,Tulsa County,OK,NA,29.748603351955303,NA
74129,Tulsa County,OK,NA,68.01675977653632,NA
74370,Ottawa County,OK,NA,98.32402234636871,NA
74401,Muskogee County,OK,66.66666666666666,NA,NA
74467,Wagoner County,OK,NA,45.81005586592179,NA
74523,Pushmataha County,OK,NA,75.97765363128491,NA
74764,McCurtain County,OK,NA,NA,99.28571428571429
74955,Sequoyah County,OK,NA,NA,53.214285714285715
97035,Clackamas County,OR,NA,NA,60.357142857142854
97058,Wasco County,OR,NA,22.3463687150838,NA
97116,Washington County,OR,43.53741496598639,NA,NA
97202,Multnomah County,OR,23.97959183673469,NA,NA
97206,Multnomah County,OR,12.244897959183673,NA,NA
97211,Multnomah County,OR,NA,71.08938547486034,NA
97224,Washington County,OR,NA,57.960893854748605,NA
97317,Marion County,OR,NA,NA,85.71428571428571
97325,Marion County,OR,77.55102040816327,NA,NA
97330,Benton County,OR,45.40816326530612,NA,NA
97355,Linn County,OR,33.6734693877551,NA,NA
97367,Lincoln County,OR,64.79591836734694,NA,NA
97386,Linn County,OR,NA,62.150837988826815,NA
97420,Coos County,OR,NA,32.54189944134078,NA
97477,Lane County,OR,NA,22.48603351955307,NA
97478,Lane County,OR,NA,66.62011173184358,NA
97603,Klamath County,OR,NA,NA,19.28571428571429
15025,Allegheny County,PA,43.87755102040816,NA,NA
15062,Westmoreland County,PA,NA,51.536312849162016,NA
15108,Allegheny County,PA,35.034013605442176,NA,NA
15136,Allegheny County,PA,26.02040816326531,NA,NA
15213,Allegheny County,PA,NA,59.77653631284916,NA
15217,Allegheny County,PA,NA,NA,17.142857142857142
15317,Washington County,PA,NA,6.424581005586592,NA
15642,Westmoreland County,PA,NA,3.910614525139665,NA
15801,Clearfield County,PA,NA,NA,2.142857142857143
16057,Butler County,PA,58.843537414965986,NA,NA
16146,Mercer County,PA,20.408163265306122,NA,NA
16505,Erie County,PA,NA,NA,52.142857142857146
16508,Erie County,PA,46.08843537414966,NA,NA
16509,Erie County,PA,NA,NA,89.28571428571429
16601,Blair County,PA,48.63945578231292,NA,NA
16652,Huntingdon County,PA,33.843537414965986,NA,NA
16801,Centre County,PA,NA,NA,58.92857142857143
16833,Clearfield County,PA,NA,46.927374301675975,NA
16841,Centre County,PA,NA,77.23463687150837,NA
17022,Lancaster County,PA,NA,NA,45
17025,Cumberland County,PA,72.10884353741497,NA,NA
17033,Dauphin County,PA,NA,NA,18.75
17046,Lebanon County,PA,8.333333333333332,NA,NA
17055,Cumberland County,PA,NA,NA,6.25
17057,Dauphin County,PA,NA,12.290502793296088,NA
17110,Dauphin County,PA,NA,19.273743016759777,NA
17201,Franklin County,PA,32.142857142857146,14.664804469273744,NA
17202,Franklin County,PA,NA,NA,10.714285714285714
17331,York County,PA,6.462585034013606,NA,NA
17362,York County,PA,NA,NA,42.142857142857146
17372,Adams County,PA,88.26530612244898,NA,NA
17402,York County,PA,81.29251700680273,NA,NA
17403,York County,PA,3.9115646258503403,NA,NA
17543,Lancaster County,PA,NA,NA,6.071428571428571
17578,Lancaster County,PA,80.10204081632652,NA,NA
17584,Lancaster County,PA,NA,NA,68.39285714285714
17603,Lancaster County,PA,NA,NA,5.892857142857142
17740,Lycoming County,PA,70.40816326530613,NA,NA
17815,Columbia County,PA,15.136054421768709,NA,NA
17820,Columbia County,PA,NA,NA,73.21428571428571
17821,Montour County,PA,67.00680272108843,NA,2.5
17847,Northumberland County,PA,89.45578231292517,NA,NA
17922,Schuylkill County,PA,NA,93.43575418994413,NA
18017,Northampton County,PA,NA,49.86033519553072,NA
18042,Northampton County,PA,5.442176870748299,NA,NA
18045,Northampton County,PA,NA,NA,8.392857142857142
18052,Lehigh County,PA,45.91836734693878,NA,68.75
18104,Lehigh County,PA,NA,NA,2.857142857142857
18201,Luzerne County,PA,17.346938775510203,NA,NA
18229,Carbon County,PA,NA,NA,78.75
18360,Monroe County,PA,24.489795918367346,NA,NA
18411,Lackawanna County,PA,NA,NA,85.17857142857143
18504,Lackawanna County,PA,NA,78.77094972067039,NA
18507,Lackawanna County,PA,99.14965986394559,NA,NA
18509,Lackawanna County,PA,90.64625850340136,NA,59.285714285714285
19003,Montgomery County,PA,NA,57.54189944134078,NA
19004,Montgomery County,PA,NA,NA,62.5
19014,Delaware County,PA,65.98639455782312,NA,NA
19018,Delaware County,PA,NA,28.35195530726257,NA
19020,Bucks County,PA,66.49659863945578,NA,NA
19027,Montgomery County,PA,NA,NA,52.32142857142858
19031,Montgomery County,PA,82.48299319727892,NA,NA
19047,Bucks County,PA,50.68027210884354,NA,NA
19063,Delaware County,PA,81.97278911564626,NA,NA
19067,Bucks County,PA,NA,NA,75.89285714285714
19104,Philadelphia County,PA,NA,13.40782122905028,NA
19115,Philadelphia County,PA,45.23809523809524,NA,NA
19128,Philadelphia County,PA,NA,NA,94.28571428571428
19132,Philadelphia County,PA,22.61904761904762,NA,NA
19139,Philadelphia County,PA,NA,25.837988826815643,NA
19141,Philadelphia County,PA,NA,11.871508379888269,26.25
19143,Philadelphia County,PA,NA,NA,7.857142857142857
19146,Philadelphia County,PA,14.625850340136054,NA,NA
19152,Philadelphia County,PA,NA,44.6927374301676,NA
19320,Chester County,PA,NA,8.798882681564246,NA
19373,Delaware County,PA,99.31972789115646,NA,NA
19380,Chester County,PA,NA,NA,3.0357142857142856
19403,Montgomery County,PA,16.3265306122449,NA,NA
19406,Montgomery County,PA,NA,58.798882681564244,NA
19422,Montgomery County,PA,NA,NA,43.92857142857143
19440,Montgomery County,PA,NA,NA,59.10714285714286
19446,Montgomery County,PA,NA,NA,61.964285714285715
19522,Berks County,PA,NA,NA,45.357142857142854
19530,Berks County,PA,NA,80.16759776536313,NA
19605,Berks County,PA,NA,NA,84.46428571428571
19608,Berks County,PA,NA,NA,39.285714285714285
19609,Berks County,PA,74.65986394557824,NA,NA
02813,Washington County,RI,NA,53.63128491620112,NA
02816,Kent County,RI,NA,56.14525139664804,NA
02835,Newport County,RI,NA,NA,90.89285714285714
02863,Providence County,RI,NA,49.44134078212291,NA
02886,Kent County,RI,28.061224489795915,NA,NA
02891,Washington County,RI,NA,18.71508379888268,NA
29020,Kershaw County,SC,58.333333333333336,NA,NA
29073,Lexington County,SC,19.387755102040817,NA,NA
29102,Clarendon County,SC,NA,NA,85
29118,Orangeburg County,SC,NA,NA,54.46428571428571
29154,Sumter County,SC,NA,NA,80
29180,Fairfield County,SC,NA,63.128491620111724,NA
29203,Richland County,SC,NA,15.502793296089385,NA
29205,Richland County,SC,NA,NA,60.17857142857142
29209,Richland County,SC,NA,37.150837988826815,NA
29210,Richland County,SC,37.244897959183675,41.62011173184357,NA
29302,Spartanburg County,SC,NA,NA,56.607142857142854
29316,Spartanburg County,SC,NA,23.88268156424581,NA
29349,Spartanburg County,SC,NA,NA,19.464285714285715
29353,Union County,SC,NA,92.0391061452514,NA
29356,Spartanburg County,SC,94.38775510204081,NA,NA
29360,Laurens County,SC,36.054421768707485,NA,NA
29412,Charleston County,SC,NA,14.804469273743019,NA
29418,Charleston County,SC,NA,NA,77.5
29527,Horry County,SC,43.87755102040816,NA,NA
29571,Marion County,SC,NA,NA,64.28571428571429
29588,Horry County,SC,NA,7.262569832402235,NA
29609,Greenville County,SC,NA,NA,39.64285714285714
29615,Greenville County,SC,NA,29.18994413407821,15.892857142857142
29617,Greenville County,SC,NA,NA,26.607142857142858
29620,Abbeville County,SC,93.19727891156462,NA,NA
29640,Pickens County,SC,48.80952380952381,75.27932960893855,NA
29642,Pickens County,SC,NA,40.642458100558656,NA
29646,Greenwood County,SC,NA,NA,23.035714285714285
29662,Greenville County,SC,NA,NA,80.53571428571429
29671,Pickens County,SC,68.70748299319727,NA,NA
29681,Greenville County,SC,23.46938775510204,NA,NA
29687,Greenville County,SC,NA,NA,13.750000000000002
29691,Oconee County,SC,78.2312925170068,72.76536312849163,NA
29720,Lancaster County,SC,NA,20.53072625698324,NA
29847,Edgefield County,SC,81.4625850340136,NA,NA
29902,Beaufort County,SC,NA,89.24581005586593,NA
57105,Minnehaha County,SD,NA,8.379888268156424,4.821428571428572
57106,Minnehaha County,SD,NA,4.329608938547486,NA
57702,Pennington County,SD,NA,13.128491620111731,NA
37022,Sumner County,TN,77.55102040816327,NA,NA
37027,Williamson County,TN,NA,47.06703910614525,NA
37030,Smith County,TN,NA,69.97206703910615,NA
37075,Sumner County,TN,NA,NA,7.321428571428572
37076,Davidson County,TN,NA,70.6703910614525,NA
37160,Bedford County,TN,NA,24.720670391061454,NA
37206,Davidson County,TN,NA,NA,79.28571428571428
37303,McMinn County,TN,NA,NA,35.17857142857143
37321,Rhea County,TN,25.34013605442177,NA,91.42857142857143
37363,Hamilton County,TN,36.224489795918366,NA,NA
37381,Rhea County,TN,NA,53.910614525139664,NA
37388,Coffee County,TN,58.50340136054422,NA,NA
37412,Hamilton County,TN,NA,NA,48.75
37415,Hamilton County,TN,NA,46.089385474860336,NA
37416,Hamilton County,TN,NA,41.899441340782126,NA
37604,Washington County,TN,NA,44.55307262569833,NA
37620,Sullivan County,TN,83.16326530612244,NA,NA
37641,Greene County,TN,NA,46.50837988826816,NA
37643,Carter County,TN,11.394557823129253,5.58659217877095,48.392857142857146
37659,Washington County,TN,NA,20.949720670391063,NA
37660,Sullivan County,TN,NA,NA,55.892857142857146
37687,Carter County,TN,NA,85.47486033519553,NA
37692,Unicoi County,TN,NA,NA,68.21428571428572
37701,Blount County,TN,61.904761904761905,NA,NA
37763,Roane County,TN,NA,32.262569832402235,NA
37766,Campbell County,TN,NA,18.296089385474858,NA
37801,Blount County,TN,NA,NA,25.178571428571427
37813,Hamblen County,TN,NA,NA,60
37814,Hamblen County,TN,NA,NA,61.07142857142858
37857,Hawkins County,TN,NA,31.00558659217877,NA
37876,Sevier County,TN,NA,74.86033519553072,31.785714285714285
37909,Knox County,TN,NA,NA,92.32142857142858
37919,Knox County,TN,NA,NA,66.07142857142857
38019,Tipton County,TN,NA,NA,66.25
38112,Shelby County,TN,NA,60.33519553072626,NA
38139,Shelby County,TN,NA,NA,89.64285714285715
38201,Carroll County,TN,NA,NA,93.75
38237,Weakley County,TN,NA,52.6536312849162,NA
38242,Henry County,TN,NA,29.88826815642458,NA
38351,Henderson County,TN,NA,64.10614525139665,NA
38382,Gibson County,TN,95.74829931972789,NA,NA
38401,Maury County,TN,44.38775510204081,5.027932960893855,82.14285714285714
38485,Wayne County,TN,NA,83.5195530726257,NA
38501,Putnam County,TN,NA,NA,21.964285714285715
38558,Cumberland County,TN,NA,NA,91.07142857142857
38562,Jackson County,TN,NA,NA,95.89285714285715
75002,Collin County,TX,NA,20.11173184357542,NA
75006,Dallas County,TX,NA,20.391061452513966,NA
75007,Denton County,TX,NA,66.34078212290503,NA
75013,Collin County,TX,NA,54.608938547486034,NA
75033,,TX,NA,99.4413407821229,NA
75035,Collin County,TX,92.3469387755102,82.54189944134079,NA
75038,Dallas County,TX,NA,NA,99.10714285714286
75043,Dallas County,TX,NA,59.49720670391061,NA
75048,Dallas County,TX,98.80952380952381,46.50837988826816,NA
75052,Dallas County,TX,NA,8.100558659217876,NA
75060,Dallas County,TX,82.99319727891157,NA,NA
75062,Dallas County,TX,NA,99.72067039106145,NA
75070,Collin County,TX,NA,32.68156424581006,NA
75071,Collin County,TX,92.51700680272108,NA,NA
75075,Collin County,TX,NA,72.48603351955308,NA
75134,Dallas County,TX,56.292517006802726,NA,NA
75150,Dallas County,TX,NA,40.502793296089386,NA
75159,Dallas County,TX,NA,NA,97.85714285714285
75167,Ellis County,TX,NA,98.04469273743017,NA
75169,Van Zandt County,TX,NA,NA,59.64285714285714
75205,Dallas County,TX,90.3061224489796,59.217877094972074,NA
75209,Dallas County,TX,NA,98.60335195530726,NA
75215,Dallas County,TX,NA,91.62011173184358,NA
75219,Dallas County,TX,NA,NA,37.142857142857146
75225,Dallas County,TX,NA,98.74301675977654,27.857142857142858
75230,Dallas County,TX,NA,NA,43.03571428571429
75231,Dallas County,TX,NA,52.932960893854755,NA
75233,Dallas County,TX,NA,NA,74.10714285714286
75235,Dallas County,TX,NA,81.56424581005587,NA
75237,Dallas County,TX,39.625850340136054,NA,NA
75238,Dallas County,TX,NA,80.72625698324022,NA
75243,Dallas County,TX,12.925170068027212,NA,NA
75244,Dallas County,TX,NA,75.5586592178771,NA
75248,Dallas County,TX,NA,NA,31.607142857142854
75287,Denton County,TX,35.714285714285715,NA,NA
75410,Wood County,TX,NA,89.3854748603352,NA
75440,Rains County,TX,NA,NA,95.71428571428572
75462,Lamar County,TX,NA,72.62569832402235,NA
75603,Gregg County,TX,NA,76.39664804469274,NA
75644,Upshur County,TX,NA,NA,66.60714285714285
75701,Smith County,TX,NA,9.35754189944134,NA
75703,Smith County,TX,71.42857142857143,3.072625698324022,NA
75707,Smith County,TX,NA,NA,28.92857142857143
75758,Henderson County,TX,NA,33.100558659217874,NA
75791,Smith County,TX,57.82312925170068,NA,NA
75862,Trinity County,TX,NA,68.57541899441341,NA
75961,Nacogdoches County,TX,60.03401360544217,NA,NA
76002,Tarrant County,TX,NA,51.25698324022346,NA
76008,Parker County,TX,69.38775510204081,NA,98.75
76010,Tarrant County,TX,15.306122448979592,NA,NA
76016,Tarrant County,TX,NA,48.184357541899445,NA
76018,Tarrant County,TX,50.85034013605442,NA,NA
76021,Tarrant County,TX,29.421768707482993,NA,NA
76028,Johnson County,TX,NA,NA,10.178571428571429
76034,Tarrant County,TX,NA,97.20670391061452,NA
76049,Hood County,TX,NA,14.385474860335195,NA
76053,Tarrant County,TX,65.1360544217687,NA,NA
76063,Tarrant County,TX,39.455782312925166,NA,NA
76065,Ellis County,TX,NA,26.81564245810056,NA
76085,Parker County,TX,79.25170068027211,NA,NA
76092,Tarrant County,TX,NA,49.581005586592184,96.60714285714286
76107,Tarrant County,TX,37.07482993197279,NA,NA
76119,Tarrant County,TX,7.142857142857142,NA,NA
76134,Tarrant County,TX,NA,50.69832402234636,NA
76135,Tarrant County,TX,NA,NA,72.5
76180,Tarrant County,TX,NA,26.39664804469274,NA
76240,Cooke County,TX,34.01360544217687,NA,NA
76262,Denton County,TX,84.8639455782313,NA,NA
76310,Wichita County,TX,NA,NA,55.17857142857143
76354,Wichita County,TX,NA,NA,63.035714285714285
76401,Erath County,TX,NA,38.407821229050285,NA
76426,Wise County,TX,NA,57.402234636871505,NA
76442,Comanche County,TX,80.4421768707483,NA,NA
76513,Bell County,TX,NA,0.5586592178770949,NA
76542,Bell County,TX,13.095238095238097,NA,NA
76642,Limestone County,TX,NA,70.53072625698324,NA
76707,McLennan County,TX,NA,94.27374301675978,NA
76712,McLennan County,TX,83.33333333333334,NA,NA
76901,Tom Green County,TX,NA,22.905027932960895,NA
77003,Harris County,TX,87.75510204081633,NA,NA
77007,Harris County,TX,NA,58.240223463687144,NA
77008,Harris County,TX,NA,58.93854748603352,NA
77014,Harris County,TX,52.38095238095239,NA,NA
77016,Harris County,TX,NA,NA,38.21428571428571
77019,Harris County,TX,62.925170068027214,NA,NA
77024,Harris County,TX,NA,NA,33.035714285714285
77025,Harris County,TX,61.05442176870748,NA,NA
77031,Harris County,TX,NA,74.4413407821229,NA
77039,Harris County,TX,NA,90.64245810055866,NA
77042,Harris County,TX,NA,56.424581005586596,NA
77051,Harris County,TX,48.29931972789115,45.94972067039106,NA
77053,Fort Bend County,TX,NA,45.11173184357542,NA
77056,Harris County,TX,NA,44.832402234636874,40.714285714285715
77062,Harris County,TX,NA,NA,49.464285714285715
77069,Harris County,TX,NA,65.78212290502793,NA
77070,Harris County,TX,41.66666666666667,48.463687150837984,77.14285714285715
77073,Harris County,TX,NA,75.13966480446928,NA
77074,Harris County,TX,NA,NA,88.57142857142857
77083,Harris County,TX,NA,19.692737430167597,NA
77086,Harris County,TX,59.523809523809526,NA,NA
77088,Harris County,TX,NA,24.720670391061454,NA
77092,Harris County,TX,49.65986394557823,NA,NA
77093,Harris County,TX,NA,40.92178770949721,NA
77095,Harris County,TX,NA,92.45810055865921,NA
77304,Montgomery County,TX,54.421768707483,42.17877094972067,NA
77318,Montgomery County,TX,70.74829931972789,NA,90.17857142857143
77338,Harris County,TX,40.816326530612244,NA,NA
77355,Montgomery County,TX,NA,35.89385474860335,NA
77371,San Jacinto County,TX,91.66666666666666,NA,NA
77375,Harris County,TX,NA,28.07262569832402,NA
77379,Harris County,TX,NA,6.843575418994413,NA
77385,Montgomery County,TX,NA,62.98882681564246,NA
77407,Fort Bend County,TX,46.7687074829932,NA,NA
77422,Brazoria County,TX,NA,61.452513966480446,NA
77423,Waller County,TX,NA,96.36871508379889,NA
77433,Harris County,TX,10.884353741496598,60.754189944134076,NA
77434,Colorado County,TX,NA,NA,99.46428571428572
77435,Wharton County,TX,98.46938775510205,NA,NA
77445,Waller County,TX,94.38775510204081,NA,NA
77450,Harris County,TX,NA,42.737430167597765,NA
77459,Fort Bend County,TX,NA,72.90502793296089,NA
77493,Harris County,TX,54.08163265306123,NA,NA
77494,Fort Bend County,TX,NA,38.687150837988824,NA
77505,Harris County,TX,90.1360544217687,NA,NA
77510,Galveston County,TX,NA,53.351955307262564,NA
77515,Brazoria County,TX,NA,24.30167597765363,NA
77520,Harris County,TX,NA,46.229050279329606,NA
77536,Harris County,TX,32.99319727891156,NA,NA
77541,Brazoria County,TX,NA,85.19553072625699,79.64285714285714
77546,Galveston County,TX,NA,7.82122905027933,NA
77550,Galveston County,TX,17.517006802721088,NA,NA
77566,Brazoria County,TX,NA,34.357541899441344,NA
77571,Harris County,TX,NA,NA,45.535714285714285
77573,Galveston County,TX,8.503401360544217,35.754189944134076,NA
77575,Liberty County,TX,NA,48.74301675977654,NA
77584,Brazoria County,TX,9.35374149659864,NA,65.89285714285714
77590,Galveston County,TX,NA,9.636871508379889,NA
77642,Jefferson County,TX,NA,NA,46.07142857142857
77833,Washington County,TX,NA,19.832402234636874,NA
77836,Burleson County,TX,NA,37.988826815642454,NA
77859,Robertson County,TX,NA,NA,74.64285714285714
77901,Victoria County,TX,21.768707482993197,74.02234636871509,NA
77904,Victoria County,TX,NA,27.23463687150838,70.35714285714286
77964,Lavaca County,TX,NA,NA,76.25
78023,Bexar County,TX,NA,98.88268156424581,NA
78028,Kerr County,TX,32.6530612244898,NA,NA
78114,Wilson County,TX,NA,NA,97.67857142857143
78124,Guadalupe County,TX,92.68707482993197,NA,NA
78222,Bexar County,TX,93.36734693877551,NA,NA
78230,Bexar County,TX,NA,NA,46.25
78245,Bexar County,TX,NA,69.27374301675978,NA
78247,Bexar County,TX,NA,NA,86.96428571428572
78250,Bexar County,TX,NA,43.01675977653631,NA
78251,Bexar County,TX,73.46938775510205,NA,NA
78363,Kleberg County,TX,NA,48.882681564245814,NA
78382,Aransas County,TX,NA,NA,73.57142857142858
78501,Hidalgo County,TX,NA,NA,40.35714285714286
78516,Hidalgo County,TX,53.74149659863946,NA,NA
78539,Hidalgo County,TX,51.70068027210885,NA,NA
78566,Cameron County,TX,81.80272108843538,NA,NA
78577,Hidalgo County,TX,NA,NA,38.75
78578,Cameron County,TX,98.9795918367347,NA,NA
78599,Hidalgo County,TX,NA,68.29608938547486,NA
78602,Bastrop County,TX,NA,NA,51.78571428571429
78633,Williamson County,TX,NA,0.6983240223463687,NA
78664,Williamson County,TX,NA,26.256983240223462,18.392857142857146
78666,Hays County,TX,53.06122448979592,27.932960893854748,NA
78681,Williamson County,TX,NA,NA,21.785714285714285
78735,Travis County,TX,NA,88.68715083798882,NA
78737,Hays County,TX,NA,NA,98.57142857142858
78759,Travis County,TX,68.87755102040816,91.20111731843575,28.392857142857142
78801,Uvalde County,TX,77.04081632653062,77.09497206703911,NA
78934,Colorado County,TX,NA,NA,93.92857142857143
79336,Hockley County,TX,NA,50.977653631284916,NA
79407,Lubbock County,TX,NA,NA,50.71428571428571
79416,Lubbock County,TX,NA,NA,23.92857142857143
79424,Lubbock County,TX,52.04081632653062,NA,14.464285714285715
79606,Taylor County,TX,76.53061224489795,NA,NA
79703,Midland County,TX,NA,64.52513966480447,NA
79706,Midland County,TX,NA,79.60893854748603,NA
79735,Pecos County,TX,NA,NA,92.5
84037,Davis County,UT,61.39455782312925,52.374301675977655,NA
84043,Utah County,UT,39.795918367346935,NA,NA
84054,Davis County,UT,NA,62.290502793296085,NA
84078,Uintah County,UT,42.17687074829932,NA,NA
84081,Salt Lake County,UT,NA,NA,88.21428571428571
84084,Salt Lake County,UT,41.3265306122449,NA,NA
84094,Salt Lake County,UT,NA,NA,62.32142857142857
84105,Salt Lake County,UT,NA,NA,87.32142857142857
84108,Salt Lake County,UT,NA,42.039106145251395,NA
84117,Salt Lake County,UT,NA,54.18994413407822,60.89285714285714
84401,Weber County,UT,37.92517006802721,NA,NA
84601,Utah County,UT,NA,NA,84.82142857142857
84645,Juab County,UT,99.65986394557824,NA,NA
84701,Sevier County,UT,85.37414965986395,NA,NA
84738,Washington County,UT,NA,93.29608938547486,NA
84780,Washington County,UT,NA,36.1731843575419,NA
05301,Windham County,VT,NA,21.089385474860336,NA
05661,Lamoille County,VT,NA,78.91061452513966,NA
05753,Addison County,VT,NA,NA,51.42857142857142
20170,Fairfax County,VA,56.97278911564626,NA,NA
22101,Fairfax County,VA,NA,36.03351955307262,NA
22102,Fairfax County,VA,NA,65.92178770949721,NA
22202,Arlington County,VA,67.51700680272108,NA,NA
22205,Arlington County,VA,93.87755102040816,NA,NA
22302,Alexandria city,VA,79.421768707483,55.3072625698324,NA
22901,Albemarle County,VA,NA,NA,6.785714285714286
22903,Charlottesville city,VA,25.170068027210885,NA,NA
22968,Greene County,VA,55.61224489795919,NA,NA
23059,Henrico County,VA,NA,54.329608938547494,NA
23111,Hanover County,VA,69.21768707482994,NA,NA
23113,Chesterfield County,VA,NA,NA,83.57142857142857
23116,Hanover County,VA,NA,NA,45.714285714285715
23185,James City County,VA,NA,17.45810055865922,NA
23221,Richmond city,VA,88.77551020408163,NA,NA
23228,Henrico County,VA,69.38775510204081,NA,NA
23237,Chesterfield County,VA,NA,75.83798882681563,NA
23434,Suffolk city,VA,NA,6.70391061452514,NA
23435,Suffolk city,VA,NA,57.262569832402235,NA
23452,Virginia Beach city,VA,NA,6.145251396648044,NA
23454,Virginia Beach city,VA,NA,NA,3.75
23456,Virginia Beach city,VA,NA,NA,11.607142857142858
23508,Norfolk city,VA,NA,52.932960893854755,NA
23701,Portsmouth city,VA,43.02721088435374,NA,NA
23834,Colonial Heights city,VA,NA,88.40782122905027,NA
23851,Franklin city,VA,NA,NA,34.64285714285714
23860,Hopewell city,VA,NA,NA,55.714285714285715
24014,Roanoke city,VA,NA,69.6927374301676,NA
24055,Henry County,VA,NA,NA,57.14285714285714
24134,Giles County,VA,NA,NA,65.35714285714286
24201,Bristol city,VA,39.285714285714285,NA,NA
24202,Washington County,VA,NA,72.06703910614524,NA
24210,Washington County,VA,31.122448979591837,NA,NA
24230,Wise County,VA,NA,59.91620111731844,NA
24244,Scott County,VA,76.0204081632653,NA,NA
24354,Smyth County,VA,NA,60.893854748603346,NA
24401,Staunton city,VA,NA,NA,4.642857142857143
98001,King County,WA,37.41496598639456,NA,NA
98002,King County,WA,60.544217687074834,NA,NA
98031,King County,WA,NA,11.731843575418994,NA
98052,King County,WA,NA,NA,12.321428571428573
98092,King County,WA,NA,NA,28.214285714285715
98102,King County,WA,NA,NA,88.21428571428571
98107,King County,WA,NA,55.72625698324022,NA
98117,King County,WA,NA,42.31843575418994,NA
98126,King County,WA,NA,NA,86.25
98168,King County,WA,NA,21.508379888268156,NA
98221,Skagit County,WA,55.10204081632652,NA,NA
98226,Whatcom County,WA,NA,29.46927374301676,NA
98273,Skagit County,WA,NA,NA,6.428571428571428
98335,Pierce County,WA,52.55102040816326,NA,NA
98362,Clallam County,WA,NA,NA,4.107142857142857
98408,Pierce County,WA,75.51020408163265,NA,NA
98503,Thurston County,WA,61.224489795918366,NA,NA
98520,Grays Harbor County,WA,NA,35.33519553072625,NA
98541,Grays Harbor County,WA,85.54421768707483,75.69832402234637,NA
98632,Cowlitz County,WA,NA,NA,1.7857142857142856
98682,Clark County,WA,NA,79.46927374301676,NA
98683,Clark County,WA,NA,83.93854748603353,NA
98816,Chelan County,WA,NA,67.0391061452514,NA
98823,Grant County,WA,NA,68.71508379888269,NA
99328,Columbia County,WA,NA,91.75977653631286,NA
99350,Benton County,WA,NA,NA,53.75
99354,Benton County,WA,NA,22.765363128491618,NA
20009,District of Columbia,DC,27.380952380952383,NA,NA
20010,District of Columbia,DC,NA,91.4804469273743,NA
20017,District of Columbia,DC,NA,NA,54.82142857142858
20019,District of Columbia,DC,4.761904761904762,NA,NA
20020,District of Columbia,DC,NA,NA,54.64285714285714
25302,Kanawha County,WV,NA,NA,46.25
25314,Kanawha County,WV,NA,81.70391061452514,NA
25901,Fayette County,WV,41.83673469387755,NA,NA
26101,Wood County,WV,NA,NA,13.928571428571429
26201,Upshur County,WV,NA,12.70949720670391,NA
26261,Nicholas County,WV,93.02721088435374,NA,NA
26301,Harrison County,WV,NA,7.402234636871509,NA
26330,Harrison County,WV,NA,NA,26.96428571428571
53072,Waukesha County,WI,84.6938775510204,NA,NA
53074,Ozaukee County,WI,NA,60.893854748603346,NA
53081,Sheboygan County,WI,14.625850340136054,86.59217877094973,NA
53089,Waukesha County,WI,57.6530612244898,NA,NA
53132,Milwaukee County,WI,NA,74.16201117318437,NA
53142,Kenosha County,WI,8.673469387755102,NA,NA
53181,Kenosha County,WI,NA,73.60335195530726,NA
53204,Milwaukee County,WI,25,NA,NA
53205,Milwaukee County,WI,NA,35.614525139664806,NA
53209,Milwaukee County,WI,3.231292517006803,NA,NA
53210,Milwaukee County,WI,27.2108843537415,NA,NA
53220,Milwaukee County,WI,56.4625850340136,17.737430167597765,12.142857142857142
53223,Milwaukee County,WI,14.965986394557824,NA,NA
53227,Milwaukee County,WI,NA,NA,14.642857142857144
53402,Racine County,WI,5.612244897959184,NA,NA
53546,Rock County,WI,NA,2.653631284916201,NA
53548,Rock County,WI,NA,NA,22.5
53566,Green County,WI,NA,NA,9.464285714285714
53590,Dane County,WI,32.82312925170068,31.98324022346369,NA
53916,Dodge County,WI,NA,NA,72.32142857142857
54114,Marinette County,WI,NA,87.43016759776536,NA
54170,Outagamie County,WI,94.04761904761905,NA,NA
54220,Manitowoc County,WI,23.809523809523807,NA,NA
54235,Door County,WI,NA,NA,16.071428571428573
54457,Wood County,WI,NA,NA,57.67857142857142
54467,Portage County,WI,NA,NA,49.642857142857146
54494,Wood County,WI,NA,4.888268156424581,NA
54501,Oneida County,WI,NA,15.782122905027931,NA
54636,La Crosse County,WI,58.673469387755105,NA,NA
54650,La Crosse County,WI,NA,NA,2.6785714285714284
54660,Monroe County,WI,43.707482993197274,NA,90
54837,Polk County,WI,NA,84.4972067039106,NA
54904,Winnebago County,WI,NA,28.49162011173184,NA
54929,Waupaca County,WI,80.95238095238095,NA,NA
54937,Fond du Lac County,WI,NA,NA,42.67857142857142
82501,Fremont County,WY,71.25850340136054,NA,NA
82601,Natrona County,WY,NA,62.43016759776536,NA
