ZipCode,county,state,Adult,Retirement,Geriatric
35022,Jefferson County,AL,NA,11.483253588516746,NA
35243,Jefferson County,AL,NA,NA,44.11764705882353
35474,Hale County,AL,51.63043478260869,NA,NA
35586,Lamar County,AL,NA,79.42583732057416,NA
35613,Limestone County,AL,NA,NA,53.529411764705884
35769,Jackson County,AL,NA,NA,55.58823529411765
35906,Etowah County,AL,NA,NA,87.3529411764706
36027,Barbour County,AL,NA,NA,55.294117647058826
36203,Calhoun County,AL,NA,37.32057416267943,NA
36426,Escambia County,AL,44.02173913043478,NA,NA
36460,Monroe County,AL,89.13043478260869,NA,NA
36541,Mobile County,AL,NA,77.03349282296651,NA
36695,Mobile County,AL,NA,NA,74.41176470588235
36867,Russell County,AL,NA,56.9377990430622,NA
99502,Anchorage Municipality,AK,38.04347826086957,NA,NA
99508,Anchorage Municipality,AK,10.326086956521738,NA,NA
85004,Maricopa County,AZ,NA,NA,90.88235294117646
85020,Maricopa County,AZ,NA,24.16267942583732,NA
85022,Maricopa County,AZ,NA,19.37799043062201,NA
85031,Maricopa County,AZ,NA,77.75119617224881,NA
85083,Maricopa County,AZ,NA,NA,83.82352941176471
85118,Pinal County,AZ,NA,NA,82.94117647058825
85138,Pinal County,AZ,NA,51.196172248803826,NA
85255,Maricopa County,AZ,NA,NA,90
85258,Maricopa County,AZ,NA,NA,78.52941176470588
85331,Maricopa County,AZ,NA,NA,46.76470588235294
85374,Maricopa County,AZ,NA,NA,4.705882352941177
85383,Maricopa County,AZ,NA,NA,80
85629,Pima County,AZ,NA,43.7799043062201,NA
85634,Pima County,AZ,41.30434782608695,NA,NA
85635,Cochise County,AZ,NA,35.406698564593306,NA
85650,Cochise County,AZ,NA,42.3444976076555,NA
85653,Pima County,AZ,NA,54.30622009569378,NA
85718,Pima County,AZ,NA,NA,12.647058823529411
85743,Pima County,AZ,28.26086956521739,NA,NA
85925,Apache County,AZ,NA,NA,100
86315,Yavapai County,AZ,92.93478260869566,NA,NA
86335,Yavapai County,AZ,NA,97.84688995215312,NA
86403,Mohave County,AZ,NA,63.63636363636363,NA
86406,Mohave County,AZ,NA,78.70813397129187,NA
72143,White County,AR,NA,NA,42.94117647058823
72150,Grant County,AR,NA,NA,72.94117647058823
72211,Pulaski County,AR,NA,60.28708133971292,NA
72450,Greene County,AR,NA,58.85167464114832,NA
72762,Washington County,AR,NA,43.301435406698566,NA
90028,Los Angeles County,CA,NA,53.827751196172244,NA
90036,Los Angeles County,CA,NA,99.28229665071771,NA
90038,Los Angeles County,CA,NA,NA,93.82352941176471
90044,Los Angeles County,CA,67.93478260869566,NA,NA
90077,Los Angeles County,CA,NA,NA,59.411764705882355
90221,Los Angeles County,CA,NA,25.598086124401913,NA
90242,Los Angeles County,CA,NA,NA,80.88235294117648
90255,Los Angeles County,CA,18.478260869565215,NA,NA
90404,Los Angeles County,CA,NA,40.430622009569376,NA
90740,Orange County,CA,NA,32.29665071770335,NA
91016,Los Angeles County,CA,NA,NA,62.05882352941177
91106,Los Angeles County,CA,79.8913043478261,NA,NA
91304,Los Angeles County,CA,NA,NA,38.529411764705884
91331,Los Angeles County,CA,NA,13.157894736842104,NA
91340,Los Angeles County,CA,99.45652173913044,NA,NA
91343,Los Angeles County,CA,NA,60.526315789473685,NA
91344,Los Angeles County,CA,NA,NA,14.411764705882351
91356,Los Angeles County,CA,NA,NA,17.058823529411764
91361,Ventura County,CA,NA,45.69377990430622,NA
91384,Los Angeles County,CA,61.95652173913043,NA,NA
91387,Los Angeles County,CA,30.434782608695656,NA,NA
91423,Los Angeles County,CA,54.891304347826086,NA,NA
91504,Los Angeles County,CA,NA,NA,59.11764705882353
91701,San Bernardino County,CA,NA,20.334928229665074,NA
91766,Los Angeles County,CA,NA,NA,86.47058823529412
92010,San Diego County,CA,NA,NA,70.88235294117648
92027,San Diego County,CA,78.26086956521739,NA,NA
92071,San Diego County,CA,14.130434782608695,NA,NA
92129,San Diego County,CA,NA,75.5980861244019,NA
92234,Riverside County,CA,NA,NA,57.35294117647059
92243,Imperial County,CA,NA,21.5311004784689,NA
92260,Riverside County,CA,NA,9.090909090909092,NA
92262,Riverside County,CA,NA,6.698564593301436,31.470588235294116
92264,Riverside County,CA,NA,NA,8.529411764705882
92270,Riverside County,CA,NA,55.02392344497608,NA
92354,San Bernardino County,CA,NA,53.588516746411486,NA
92376,San Bernardino County,CA,3.260869565217391,NA,NA
92530,Riverside County,CA,NA,40.19138755980861,NA
92606,Orange County,CA,NA,64.83253588516746,NA
92625,Orange County,CA,NA,77.51196172248804,NA
92656,Orange County,CA,21.73913043478261,NA,NA
92683,Orange County,CA,NA,NA,3.823529411764706
92704,Orange County,CA,NA,71.05263157894737,NA
92706,Orange County,CA,64.67391304347827,NA,NA
92844,Orange County,CA,56.52173913043478,NA,NA
92867,Orange County,CA,46.19565217391305,NA,NA
92886,Orange County,CA,NA,NA,17.058823529411764
93001,Ventura County,CA,NA,NA,41.47058823529412
93230,Kings County,CA,NA,35.645933014354064,NA
93274,Tulare County,CA,NA,NA,80.29411764705883
93308,Kern County,CA,NA,20.574162679425836,NA
93444,San Luis Obispo County,CA,NA,NA,48.23529411764706
93458,Santa Barbara County,CA,48.369565217391305,NA,NA
93550,Los Angeles County,CA,NA,NA,42.35294117647059
94040,Santa Clara County,CA,NA,74.4019138755981,NA
94105,San Francisco County,CA,NA,92.82296650717703,NA
94109,San Francisco County,CA,NA,NA,2.0588235294117645
94110,San Francisco County,CA,NA,5.023923444976076,NA
94506,Contra Costa County,CA,NA,NA,79.70588235294119
94523,Contra Costa County,CA,NA,40.66985645933015,NA
94530,Contra Costa County,CA,NA,NA,31.176470588235293
94531,Contra Costa County,CA,NA,NA,92.05882352941175
94536,Alameda County,CA,NA,15.311004784688995,NA
94541,Alameda County,CA,NA,NA,30.88235294117647
94544,Alameda County,CA,NA,33.014354066985646,NA
94550,Alameda County,CA,NA,97.60765550239235,NA
94558,Napa County,CA,NA,23.684210526315788,NA
94574,Napa County,CA,NA,66.26794258373205,NA
94618,Alameda County,CA,NA,NA,54.11764705882353
94806,Contra Costa County,CA,22.82608695652174,NA,NA
95014,Santa Clara County,CA,NA,NA,15
95020,Santa Clara County,CA,NA,21.770334928229666,NA
95035,Santa Clara County,CA,34.78260869565217,NA,NA
95050,Santa Clara County,CA,NA,NA,39.11764705882353
95111,Santa Clara County,CA,NA,NA,57.94117647058824
95117,Santa Clara County,CA,NA,54.54545454545454,NA
95129,Santa Clara County,CA,NA,56.698564593301434,NA
95350,Stanislaus County,CA,NA,9.808612440191387,NA
95403,Sonoma County,CA,NA,72.24880382775119,NA
95425,Sonoma County,CA,NA,NA,70
95472,Sonoma County,CA,NA,NA,41.17647058823529
95476,Sonoma County,CA,NA,99.04306220095694,NA
95482,Mendocino County,CA,23.91304347826087,NA,NA
95531,Del Norte County,CA,NA,NA,23.52941176470588
95618,Yolo County,CA,NA,NA,88.23529411764706
95630,Sacramento County,CA,15.760869565217392,71.5311004784689,NA
95660,Sacramento County,CA,NA,41.866028708133975,NA
95683,Sacramento County,CA,NA,NA,90.29411764705883
95776,Yolo County,CA,72.82608695652173,NA,NA
95820,Sacramento County,CA,NA,100,NA
95828,Sacramento County,CA,NA,22.48803827751196,NA
95946,Nevada County,CA,NA,51.91387559808612,NA
95969,Butte County,CA,19.565217391304348,NA,NA
96003,Shasta County,CA,NA,NA,19.705882352941178
96022,Tehama County,CA,NA,69.85645933014354,NA
96080,Tehama County,CA,76.63043478260869,NA,NA
80015,Arapahoe County,CO,NA,83.73205741626795,NA
80023,Broomfield County,CO,NA,59.80861244019139,NA
80123,Jefferson County,CO,NA,NA,23.52941176470588
80127,Jefferson County,CO,NA,34.688995215311,NA
80223,Denver County,CO,NA,39.23444976076555,NA
80236,Denver County,CO,NA,NA,83.23529411764706
80249,Denver County,CO,NA,NA,77.64705882352942
80260,Adams County,CO,NA,44.01913875598086,52.94117647058824
80303,Boulder County,CO,NA,NA,49.411764705882355
80517,Larimer County,CO,NA,NA,25
80525,Larimer County,CO,6.521739130434782,7.4162679425837315,NA
80537,Larimer County,CO,11.956521739130435,86.60287081339713,NA
80602,Adams County,CO,NA,82.77511961722487,NA
80906,El Paso County,CO,NA,29.1866028708134,NA
80917,El Paso County,CO,NA,NA,91.76470588235294
80918,El Paso County,CO,NA,NA,28.235294117647058
06010,Hartford County,CT,NA,1.674641148325359,NA
06066,Tolland County,CT,9.782608695652174,NA,NA
06443,New Haven County,CT,NA,22.248803827751196,NA
06457,Middlesex County,CT,NA,87.08133971291866,NA
06705,New Haven County,CT,NA,61.961722488038276,NA
06770,New Haven County,CT,13.043478260869565,59.09090909090909,NA
19701,New Castle County,DE,NA,37.55980861244019,NA
19702,New Castle County,DE,5.978260869565218,NA,NA
19707,New Castle County,DE,71.19565217391305,NA,NA
19713,New Castle County,DE,NA,NA,81.17647058823529
19720,New Castle County,DE,8.152173913043478,NA,NA
19802,New Castle County,DE,NA,58.133971291866025,NA
19803,New Castle County,DE,NA,35.167464114832534,NA
19808,New Castle County,DE,NA,15.550239234449762,5
19809,New Castle County,DE,NA,80.86124401913875,NA
19904,Kent County,DE,5.434782608695652,NA,NA
19947,Sussex County,DE,NA,29.42583732057416,NA
19966,Sussex County,DE,NA,5.263157894736842,NA
32068,Clay County,FL,NA,28.4688995215311,25.588235294117645
32164,Flagler County,FL,NA,10.526315789473683,NA
32177,Putnam County,FL,NA,NA,61.76470588235294
32216,Duval County,FL,10.869565217391305,NA,NA
32223,Duval County,FL,NA,23.444976076555022,NA
32431,Jackson County,FL,NA,65.78947368421053,NA
32514,Escambia County,FL,NA,9.330143540669857,75.58823529411765
32539,Okaloosa County,FL,NA,NA,67.3529411764706
32570,Santa Rosa County,FL,43.47826086956522,NA,NA
32583,Santa Rosa County,FL,NA,NA,28.235294117647058
32701,Seminole County,FL,42.391304347826086,NA,NA
32725,Volusia County,FL,NA,27.751196172248804,NA
32754,Brevard County,FL,NA,57.655502392344495,NA
32757,Lake County,FL,NA,20.095693779904305,NA
32792,Orange County,FL,NA,NA,14.705882352941178
32818,Orange County,FL,NA,NA,45.588235294117645
32835,Orange County,FL,NA,86.36363636363636,NA
32935,Brevard County,FL,NA,31.100478468899524,NA
32951,Brevard County,FL,NA,64.5933014354067,NA
32952,Brevard County,FL,NA,NA,11.76470588235294
32953,Brevard County,FL,NA,NA,9.117647058823529
33009,Broward County,FL,NA,NA,6.176470588235294
33020,Broward County,FL,NA,NA,51.76470588235295
33027,Broward County,FL,69.56521739130434,NA,NA
33133,Miami-Dade County,FL,NA,28.947368421052634,NA
33146,Miami-Dade County,FL,NA,NA,63.8235294117647
33161,Miami-Dade County,FL,NA,34.44976076555024,NA
33176,Miami-Dade County,FL,NA,NA,20.294117647058822
33180,Miami-Dade County,FL,NA,79.66507177033493,NA
33408,Palm Beach County,FL,58.69565217391305,NA,NA
33418,Palm Beach County,FL,NA,19.617224880382775,5.88235294117647
33434,Palm Beach County,FL,NA,NA,41.76470588235294
33478,Palm Beach County,FL,85.86956521739131,NA,NA
33480,Palm Beach County,FL,NA,66.98564593301435,NA
33483,Palm Beach County,FL,98.36956521739131,NA,NA
33594,Hillsborough County,FL,NA,NA,69.41176470588235
33615,Hillsborough County,FL,95.1086956521739,NA,NA
33618,Hillsborough County,FL,NA,NA,24.705882352941178
33709,Pinellas County,FL,NA,NA,36.470588235294116
33712,Pinellas County,FL,NA,NA,48.8235294117647
33764,Pinellas County,FL,NA,NA,83.52941176470588
33767,Pinellas County,FL,95.65217391304348,NA,NA
33770,Pinellas County,FL,NA,NA,75.29411764705883
33801,Polk County,FL,NA,30.62200956937799,NA
33844,Polk County,FL,84.23913043478261,NA,NA
33853,Polk County,FL,NA,60.76555023923444,NA
33884,Polk County,FL,NA,NA,51.470588235294116
33897,Polk County,FL,NA,NA,96.47058823529412
33919,Lee County,FL,NA,NA,56.1764705882353
33922,Lee County,FL,NA,83.49282296650718,NA
33928,Lee County,FL,NA,NA,13.529411764705882
33971,Lee County,FL,NA,48.803827751196174,NA
33993,Lee County,FL,NA,71.77033492822966,NA
34113,Collier County,FL,NA,41.38755980861244,NA
34209,Manatee County,FL,NA,NA,15.588235294117647
34235,Sarasota County,FL,NA,41.14832535885167,NA
34243,Manatee County,FL,NA,NA,26.176470588235297
34285,Sarasota County,FL,NA,NA,32.64705882352941
34476,Marion County,FL,NA,NA,20.88235294117647
34491,Marion County,FL,NA,NA,15.88235294117647
34685,Pinellas County,FL,NA,NA,50
34698,Pinellas County,FL,NA,41.62679425837321,NA
34711,Lake County,FL,NA,NA,2.3529411764705883
34769,Osceola County,FL,32.065217391304344,NA,NA
34788,Lake County,FL,52.17391304347826,NA,NA
34957,Martin County,FL,NA,63.397129186602875,NA
34986,St. Lucie County,FL,NA,16.985645933014354,NA
30022,Fulton County,GA,NA,32.77511961722488,NA
30088,DeKalb County,GA,NA,NA,97.94117647058823
30115,Cherokee County,GA,25,NA,NA
30125,Polk County,GA,NA,88.99521531100478,NA
30180,Carroll County,GA,NA,54.066985645933016,NA
30215,Fayette County,GA,NA,24.401913875598087,NA
30240,Troup County,GA,NA,NA,25.588235294117645
30260,Clayton County,GA,96.19565217391305,NA,NA
30309,Fulton County,GA,NA,NA,85.58823529411764
30318,Fulton County,GA,16.847826086956523,NA,NA
30331,Fulton County,GA,NA,27.033492822966508,NA
30349,Fulton County,GA,NA,8.133971291866029,NA
30350,Fulton County,GA,80.43478260869566,NA,NA
30434,Jefferson County,GA,NA,95.69377990430623,NA
30506,Hall County,GA,NA,39.71291866028708,NA
30519,Gwinnett County,GA,32.608695652173914,NA,NA
30542,Hall County,GA,39.67391304347826,NA,NA
30814,Columbia County,GA,NA,94.97607655502392,95.88235294117648
30830,Burke County,GA,40.21739130434783,NA,NA
30907,Columbia County,GA,NA,NA,21.764705882352942
30909,Richmond County,GA,NA,NA,19.11764705882353
31024,Putnam County,GA,NA,28.708133971291865,NA
31047,Houston County,GA,NA,NA,85.88235294117646
31324,Bryan County,GA,NA,NA,87.94117647058823
31404,Chatham County,GA,NA,NA,34.11764705882353
31601,Lowndes County,GA,NA,26.076555023923444,NA
31636,Lowndes County,GA,NA,89.71291866028707,NA
31906,Muscogee County,GA,NA,30.861244019138756,NA
96704,Hawaii County,HI,NA,87.5598086124402,NA
96706,Honolulu County,HI,NA,NA,37.94117647058823
96817,Honolulu County,HI,26.08695652173913,NA,NA
96825,Honolulu County,HI,NA,NA,86.1764705882353
83467,Lemhi County,ID,NA,NA,78.82352941176471
83501,Nez Perce County,ID,NA,NA,4.117647058823529
83605,Canyon County,ID,NA,NA,27.35294117647059
83651,Canyon County,ID,NA,32.535885167464116,NA
83661,Payette County,ID,NA,NA,36.76470588235294
83835,Kootenai County,ID,NA,25.358851674641148,NA
60005,Cook County,IL,NA,27.990430622009573,NA
60013,McHenry County,IL,NA,64.35406698564593,NA
60035,Lake County,IL,NA,59.569377990430624,NA
60062,Cook County,IL,NA,3.349282296650718,NA
60070,Cook County,IL,NA,NA,45
60076,Cook County,IL,NA,43.0622009569378,NA
60083,Lake County,IL,NA,52.87081339712919,NA
60172,DuPage County,IL,NA,30.14354066985646,NA
60409,Cook County,IL,NA,NA,24.41176470588235
60417,Will County,IL,NA,25.837320574162682,NA
60433,Will County,IL,70.1086956521739,NA,NA
60463,Cook County,IL,NA,33.49282296650718,NA
60467,Cook County,IL,NA,18.181818181818183,NA
60473,Cook County,IL,NA,NA,63.52941176470588
60477,Cook County,IL,NA,49.282296650717704,NA
60481,Will County,IL,NA,39.473684210526315,NA
60482,Cook County,IL,NA,NA,81.76470588235294
60490,Will County,IL,NA,NA,76.47058823529412
60521,DuPage County,IL,55.434782608695656,NA,NA
60527,DuPage County,IL,NA,NA,65
60558,Cook County,IL,NA,NA,82.35294117647058
60586,Will County,IL,NA,NA,88.8235294117647
60613,Cook County,IL,NA,70.81339712918661,NA
60628,Cook County,IL,NA,2.3923444976076556,NA
60640,Cook County,IL,NA,4.0669856459330145,NA
60655,Cook County,IL,NA,89.23444976076556,NA
60656,Cook County,IL,34.23913043478261,NA,NA
61081,Whiteside County,IL,NA,79.18660287081339,NA
61107,Winnebago County,IL,NA,NA,12.941176470588237
61455,McDonough County,IL,NA,NA,24.11764705882353
61603,Peoria County,IL,NA,87.79904306220095,NA
61764,Livingston County,IL,NA,82.29665071770334,NA
61920,Coles County,IL,66.84782608695652,NA,NA
62025,Madison County,IL,NA,80.622009569378,NA
62230,Clinton County,IL,77.71739130434783,NA,NA
62526,Macon County,IL,NA,NA,3.5294117647058822
62801,Marion County,IL,NA,19.85645933014354,NA
62837,Wayne County,IL,NA,71.29186602870813,NA
62864,Jefferson County,IL,NA,NA,25.294117647058822
46013,Madison County,IN,21.195652173913043,NA,NA
46017,Madison County,IN,NA,NA,60.882352941176464
46131,Johnson County,IN,NA,NA,32.05882352941177
46176,Shelby County,IN,NA,7.655502392344498,NA
46259,Marion County,IN,NA,93.30143540669856,NA
46322,Lake County,IN,NA,NA,7.352941176470589
46375,Lake County,IN,82.06521739130434,NA,NA
46385,Porter County,IN,NA,16.507177033492823,NA
46407,Lake County,IN,NA,NA,50.882352941176464
46514,Elkhart County,IN,NA,NA,33.52941176470588
46761,LaGrange County,IN,NA,45.21531100478469,NA
46809,Allen County,IN,88.04347826086956,NA,NA
46992,Wabash County,IN,NA,NA,43.8235294117647
47031,Ripley County,IN,81.52173913043478,NA,NA
47112,Harrison County,IN,NA,83.25358851674642,NA
47150,Floyd County,IN,NA,4.30622009569378,NA
47396,Delaware County,IN,83.15217391304348,73.92344497607655,NA
47501,Daviess County,IN,79.34782608695652,NA,NA
47591,Knox County,IN,NA,86.1244019138756,NA
47711,Vanderburgh County,IN,NA,NA,12.352941176470589
50125,Warren County,IA,NA,66.74641148325358,NA
50317,Polk County,IA,NA,NA,27.647058823529413
50428,Cerro Gordo County,IA,NA,59.33014354066985,NA
50613,Black Hawk County,IA,NA,NA,34.705882352941174
51301,Clay County,IA,NA,NA,21.176470588235293
51401,Carroll County,IA,NA,NA,43.529411764705884
51537,Shelby County,IA,NA,90.9090909090909,NA
66085,Johnson County,KS,NA,80.14354066985646,NA
66104,Wyandotte County,KS,NA,68.18181818181817,43.23529411764706
66109,Wyandotte County,KS,NA,35.645933014354064,NA
66202,Johnson County,KS,NA,NA,52.05882352941177
66203,Johnson County,KS,65.76086956521739,NA,NA
66206,Johnson County,KS,NA,NA,58.235294117647065
66210,Johnson County,KS,NA,50.717703349282296,NA
66212,Johnson County,KS,NA,NA,34.411764705882355
66213,Johnson County,KS,NA,69.61722488038278,NA
66224,Johnson County,KS,NA,67.94258373205741,NA
67550,Pawnee County,KS,NA,NA,56.470588235294116
67701,Thomas County,KS,61.41304347826087,NA,NA
67846,Finney County,KS,NA,NA,70.29411764705881
67880,Grant County,KS,NA,NA,84.70588235294117
40059,Jefferson County,KY,NA,47.60765550239234,NA
40160,Hardin County,KY,NA,62.44019138755981,NA
40223,Jefferson County,KY,NA,NA,66.17647058823529
40299,Jefferson County,KY,NA,NA,12.058823529411764
40324,Scott County,KY,NA,42.10526315789473,NA
40447,Jackson County,KY,NA,62.91866028708134,NA
40508,Fayette County,KY,NA,NA,57.647058823529406
40831,Harlan County,KY,NA,46.411483253588514,NA
41143,Carter County,KY,NA,NA,94.41176470588235
42071,Calloway County,KY,27.173913043478258,NA,NA
42301,Daviess County,KY,3.804347826086957,NA,NA
42320,Ohio County,KY,NA,36.124401913875595,NA
42345,Muhlenberg County,KY,NA,48.5645933014354,44.41176470588235
42642,Russell County,KY,NA,NA,73.23529411764706
70056,Jefferson Parish,LA,51.08695652173913,NA,NA
70058,Jefferson Parish,LA,NA,NA,60.588235294117645
70072,Jefferson Parish,LA,NA,1.9138755980861244,NA
70124,Orleans Parish,LA,NA,57.17703349282297,NA
70131,Orleans Parish,LA,NA,NA,35.88235294117647
70452,St. Tammany Parish,LA,NA,74.16267942583733,NA
70501,Lafayette Parish,LA,NA,17.464114832535884,NA
70506,Lafayette Parish,LA,NA,90.66985645933015,NA
70525,Acadia Parish,LA,NA,39.952153110047846,NA
70570,St. Landry Parish,LA,0,NA,NA
70754,Livingston Parish,LA,NA,98.08612440191388,NA
71263,West Carroll Parish,LA,NA,NA,42.64705882352941
71292,Ouachita Parish,LA,NA,82.53588516746412,NA
04002,York County,ME,NA,33.97129186602871,NA
04064,York County,ME,59.2391304347826,NA,NA
20748,Prince George's County,MD,NA,NA,37.64705882352941
20782,Prince George's County,MD,NA,52.15311004784689,NA
20852,Montgomery County,MD,NA,44.25837320574163,NA
20902,Montgomery County,MD,53.2608695652174,NA,NA
20904,Montgomery County,MD,NA,NA,14.117647058823529
21015,Harford County,MD,NA,87.32057416267942,NA
21061,Anne Arundel County,MD,NA,NA,16.176470588235293
21075,Howard County,MD,NA,NA,87.05882352941177
21131,Baltimore County,MD,NA,NA,98.52941176470588
21158,Carroll County,MD,NA,NA,61.1764705882353
21209,Baltimore County,MD,47.82608695652174,NA,97.05882352941177
21216,Baltimore city,MD,NA,NA,94.70588235294117
21234,Baltimore County,MD,NA,26.31578947368421,NA
21236,Baltimore County,MD,54.347826086956516,NA,NA
21244,Baltimore County,MD,NA,75.83732057416267,NA
21502,Allegany County,MD,NA,55.980861244019145,NA
01085,Hampden County,MA,NA,1.1961722488038278,NA
01104,Hampden County,MA,NA,NA,0.8823529411764706
01240,Berkshire County,MA,NA,47.368421052631575,NA
01420,Worcester County,MA,NA,88.75598086124403,NA
01460,Middlesex County,MA,26.6304347826087,NA,NA
01570,Worcester County,MA,2.1739130434782608,NA,NA
01581,Worcester County,MA,NA,NA,47.647058823529406
01590,Worcester County,MA,NA,NA,97.6470588235294
01609,Worcester County,MA,NA,50,NA
01702,Middlesex County,MA,NA,NA,3.2352941176470593
01752,Middlesex County,MA,NA,NA,51.17647058823529
01773,Middlesex County,MA,NA,91.14832535885168,NA
01810,Essex County,MA,NA,11.004784688995215,NA
01841,Essex County,MA,31.521739130434785,NA,1.4705882352941175
01844,Essex County,MA,NA,NA,2.6470588235294117
01850,Middlesex County,MA,NA,72.48803827751196,NA
01852,Middlesex County,MA,NA,60.04784688995215,NA
01864,Middlesex County,MA,NA,24.641148325358852,NA
01913,Essex County,MA,NA,5.741626794258373,NA
01960,Essex County,MA,NA,0.23923444976076555,NA
02035,Norfolk County,MA,NA,16.74641148325359,NA
02090,Norfolk County,MA,NA,51.43540669856459,NA
02093,Norfolk County,MA,NA,83.97129186602871,NA
02111,Suffolk County,MA,NA,88.27751196172248,NA
02116,Suffolk County,MA,60.86956521739131,NA,NA
02130,Suffolk County,MA,NA,NA,1.7647058823529411
02135,Suffolk County,MA,NA,NA,0.29411764705882354
02145,Middlesex County,MA,NA,NA,49.11764705882353
02148,Middlesex County,MA,NA,0,NA
02149,Middlesex County,MA,NA,NA,0.5882352941176471
02170,Norfolk County,MA,NA,5.502392344497608,NA
02186,Norfolk County,MA,NA,17.703349282296653,NA
02482,Norfolk County,MA,57.608695652173914,NA,NA
02649,Barnstable County,MA,NA,18.899521531100476,NA
02738,Plymouth County,MA,NA,84.21052631578947,NA
48035,Macomb County,MI,NA,44.49760765550239,NA
48044,Macomb County,MI,36.41304347826087,NA,NA
48073,Oakland County,MI,NA,52.63157894736842,NA
48082,Macomb County,MI,NA,NA,19.411764705882355
48085,Oakland County,MI,NA,76.31578947368422,NA
48088,Macomb County,MI,29.891304347826086,NA,13.23529411764706
48091,Macomb County,MI,16.304347826086957,NA,NA
48125,Wayne County,MI,12.5,NA,NA
48127,Wayne County,MI,NA,NA,68.52941176470588
48138,Wayne County,MI,NA,NA,30.294117647058822
48162,Monroe County,MI,NA,77.03349282296651,NA
48166,Monroe County,MI,NA,85.64593301435407,NA
48195,Wayne County,MI,42.934782608695656,NA,NA
48203,Wayne County,MI,NA,40.909090909090914,NA
48208,Wayne County,MI,NA,NA,93.23529411764706
48217,Wayne County,MI,NA,NA,54.41176470588235
48227,Wayne County,MI,NA,4.545454545454546,NA
48228,Wayne County,MI,0.5434782608695652,NA,NA
48234,Wayne County,MI,NA,NA,17.941176470588236
48235,Wayne County,MI,NA,15.789473684210526,NA
48237,Oakland County,MI,NA,NA,74.70588235294117
48239,Wayne County,MI,NA,6.220095693779904,NA
48314,Macomb County,MI,NA,26.555023923444978,94.11764705882352
48315,Macomb County,MI,57.065217391304344,NA,NA
48323,Oakland County,MI,NA,NA,55.00000000000001
48346,Oakland County,MI,NA,NA,30.58823529411765
48350,Oakland County,MI,NA,63.8755980861244,NA
48463,Genesee County,MI,NA,NA,91.17647058823529
48507,Genesee County,MI,NA,50.95693779904307,NA
48732,Bay County,MI,NA,NA,39.411764705882355
49006,Kalamazoo County,MI,NA,NA,96.17647058823529
49042,St. Joseph County,MI,NA,94.49760765550239,NA
49080,Allegan County,MI,NA,30.38277511961722,NA
49103,Berrien County,MI,NA,73.20574162679426,NA
49120,Berrien County,MI,NA,NA,8.823529411764707
49319,Kent County,MI,17.934782608695652,NA,NA
49424,Ottawa County,MI,NA,8.61244019138756,NA
49431,Mason County,MI,NA,NA,16.76470588235294
49442,Muskegon County,MI,NA,NA,85
49677,Osceola County,MI,49.45652173913043,NA,NA
49855,Marquette County,MI,NA,36.36363636363637,NA
55117,Ramsey County,MN,NA,55.50239234449761,NA
55118,Dakota County,MN,NA,NA,45.294117647058826
55125,Washington County,MN,25.543478260869566,NA,NA
55306,Dakota County,MN,73.36956521739131,NA,NA
55409,Hennepin County,MN,NA,62.91866028708134,NA
55416,Hennepin County,MN,NA,NA,27.058823529411764
55421,Anoka County,MN,NA,NA,29.411764705882355
55422,Hennepin County,MN,NA,84.688995215311,NA
55427,Hennepin County,MN,NA,NA,40.88235294117647
55807,St. Louis County,MN,NA,38.27751196172249,NA
55808,St. Louis County,MN,67.3913043478261,NA,NA
55947,Houston County,MN,87.5,NA,NA
56283,Redwood County,MN,NA,NA,67.94117647058823
56304,Sherburne County,MN,69.02173913043478,NA,NA
56560,Clay County,MN,1.0869565217391304,NA,NA
38651,DeSoto County,MS,NA,78.94736842105263,NA
38703,Washington County,MS,NA,NA,63.23529411764706
39120,Adams County,MS,80.97826086956522,NA,NA
39437,Jones County,MS,NA,73.68421052631578,NA
39503,Harrison County,MS,4.3478260869565215,NA,NA
39563,Jackson County,MS,NA,NA,69.11764705882352
39740,Lowndes County,MS,94.56521739130434,NA,NA
63011,St. Louis County,MO,NA,11.722488038277511,92.3529411764706
63016,Jefferson County,MO,NA,81.10047846889952,NA
63033,St. Louis County,MO,NA,NA,53.8235294117647
63124,St. Louis County,MO,NA,NA,22.058823529411764
63301,St. Charles County,MO,NA,NA,1.1764705882352942
63304,St. Charles County,MO,NA,NA,40.588235294117645
63780,Scott County,MO,NA,NA,99.41176470588235
64030,Jackson County,MO,NA,NA,28.823529411764703
64055,Jackson County,MO,NA,NA,64.11764705882354
64075,Jackson County,MO,NA,NA,88.52941176470588
64079,Platte County,MO,NA,74.64114832535886,NA
64106,Jackson County,MO,88.58695652173914,NA,NA
64111,Jackson County,MO,NA,33.73205741626794,NA
64152,Platte County,MO,NA,24.880382775119617,NA
65020,Camden County,MO,59.2391304347826,NA,NA
65401,Phelps County,MO,NA,NA,99.11764705882354
65742,Webster County,MO,NA,NA,47.05882352941176
65746,Webster County,MO,90.21739130434783,NA,NA
65807,Greene County,MO,NA,NA,22.941176470588236
59102,Yellowstone County,MT,NA,2.8708133971291865,NA
59601,Lewis and Clark County,MT,NA,12.200956937799043,NA
68007,Douglas County,NE,NA,NA,89.11764705882354
68022,Douglas County,NE,NA,NA,66.47058823529412
68701,Madison County,NE,35.32608695652174,NA,NA
89121,Clark County,NV,NA,48.32535885167464,NA
89410,Douglas County,NV,NA,68.89952153110048,NA
89512,Washoe County,NV,NA,NA,62.64705882352941
89519,Washoe County,NV,NA,67.70334928229666,NA
89521,Washoe County,NV,NA,22.727272727272727,NA
03038,Rockingham County,NH,NA,11.24401913875598,NA
03055,Hillsborough County,NH,NA,34.21052631578947,NA
03257,Merrimack County,NH,NA,94.73684210526315,NA
03290,Rockingham County,NH,NA,96.41148325358851,NA
03303,Merrimack County,NH,NA,NA,22.647058823529413
03773,Sullivan County,NH,NA,78.22966507177034,NA
03811,Rockingham County,NH,NA,43.54066985645933,NA
03862,Rockingham County,NH,NA,97.1291866028708,NA
03873,Rockingham County,NH,NA,95.21531100478468,NA
07017,Essex County,NJ,NA,10.76555023923445,NA
07076,Union County,NJ,NA,90.43062200956938,NA
07083,Union County,NJ,7.065217391304348,61.004784688995215,NA
07087,Hudson County,NJ,1.6304347826086956,NA,NA
07103,Essex County,NJ,NA,0.9569377990430622,NA
07107,Essex County,NJ,NA,48.08612440191388,NA
07202,Union County,NJ,NA,NA,72.6470588235294
07208,Union County,NJ,NA,16.028708133971293,NA
07442,Passaic County,NJ,NA,92.34449760765551,NA
07503,Passaic County,NJ,NA,91.38755980861244,NA
07735,Monmouth County,NJ,20.108695652173914,NA,NA
08003,Camden County,NJ,NA,NA,58.82352941176471
08009,Camden County,NJ,44.565217391304344,NA,NA
08030,Camden County,NJ,NA,NA,98.23529411764706
08037,Atlantic County,NJ,NA,NA,15.294117647058824
08057,Burlington County,NJ,NA,72.72727272727273,82.05882352941177
08251,Cape May County,NJ,NA,74.88038277511961,NA
08540,Mercer County,NJ,24.456521739130434,NA,NA
08852,Middlesex County,NJ,65.21739130434783,NA,NA
87016,Torrance County,NM,NA,99.76076555023924,NA
87112,Bernalillo County,NM,NA,NA,2.941176470588235
87124,Sandoval County,NM,NA,NA,6.470588235294119
87410,San Juan County,NM,50.54347826086957,NA,NA
87701,San Miguel County,NM,NA,NA,61.1764705882353
88201,Chaves County,NM,NA,26.794258373205743,NA
88310,Otero County,NM,NA,44.97607655502392,NA
10023,New York County,NY,NA,NA,49.705882352941174
10065,New York County,NY,NA,NA,30
10312,Richmond County,NY,70.65217391304348,NA,NA
10460,Bronx County,NY,NA,21.291866028708135,NA
10465,Bronx County,NY,NA,NA,68.82352941176471
10475,Bronx County,NY,58.152173913043484,NA,NA
10704,Westchester County,NY,NA,65.78947368421053,NA
10940,Orange County,NY,NA,NA,11.470588235294118
11208,Kings County,NY,NA,NA,10.294117647058822
11209,Kings County,NY,NA,NA,52.64705882352941
11224,Kings County,NY,NA,NA,9.411764705882353
11233,Kings County,NY,NA,NA,27.941176470588236
11354,Queens County,NY,NA,NA,44.70588235294118
11370,Queens County,NY,NA,NA,98.82352941176471
11421,Queens County,NY,NA,NA,33.82352941176471
11501,Nassau County,NY,NA,NA,83.82352941176471
11560,Nassau County,NY,97.28260869565217,NA,NA
11566,Nassau County,NY,NA,NA,33.23529411764706
11729,Suffolk County,NY,NA,NA,35.294117647058826
11747,Suffolk County,NY,NA,NA,38.23529411764706
11797,Nassau County,NY,NA,NA,73.23529411764706
12095,Fulton County,NY,NA,22.00956937799043,NA
12144,Rensselaer County,NY,NA,NA,40.294117647058826
12182,Rensselaer County,NY,NA,61.72248803827751,NA
12986,Franklin County,NY,NA,NA,65.88235294117646
13040,Cortland County,NY,NA,93.77990430622009,NA
13068,Tompkins County,NY,62.5,NA,NA
13090,Onondaga County,NY,NA,19.138755980861244,NA
13110,Onondaga County,NY,NA,90.19138755980862,NA
13350,Herkimer County,NY,23.369565217391305,NA,NA
13417,Oneida County,NY,93.47826086956522,NA,NA
13617,St. Lawrence County,NY,22.282608695652172,NA,NA
13660,St. Lawrence County,NY,NA,91.86602870813397,NA
13676,St. Lawrence County,NY,NA,29.665071770334926,NA
13850,Broome County,NY,NA,NA,18.823529411764707
14086,Erie County,NY,NA,13.397129186602871,NA
14094,Niagara County,NY,NA,72.00956937799043,NA
14225,Erie County,NY,2.717391304347826,NA,NA
14616,Monroe County,NY,NA,4.784688995215311,NA
14618,Monroe County,NY,NA,32.057416267942585,NA
27018,Yadkin County,NC,77.17391304347827,NA,NA
27104,Forsyth County,NC,NA,81.81818181818183,NA
27214,Guilford County,NC,NA,98.32535885167464,NA
27217,Alamance County,NC,86.95652173913044,70.57416267942584,76.76470588235294
27295,Davidson County,NC,NA,66.50717703349282,NA
27312,Chatham County,NC,NA,12.918660287081341,NA
27406,Guilford County,NC,NA,NA,11.176470588235295
27501,Harnett County,NC,NA,94.25837320574163,NA
27518,Wake County,NC,NA,81.57894736842105,NA
27520,Johnston County,NC,20.652173913043477,NA,NA
27526,Wake County,NC,NA,14.832535885167463,NA
27540,Wake County,NC,NA,80.38277511961722,NA
27569,Johnston County,NC,NA,65.311004784689,NA
27587,Wake County,NC,NA,NA,10
27703,Durham County,NC,NA,6.937799043062201,NA
27909,Pasquotank County,NC,NA,58.3732057416268,NA
28001,Stanly County,NC,NA,NA,42.05882352941177
28027,Cabarrus County,NC,NA,23.923444976076556,NA
28144,Rowan County,NC,NA,NA,37.05882352941177
28170,Anson County,NC,NA,NA,57.05882352941176
28213,Mecklenburg County,NC,NA,36.60287081339713,NA
28278,Mecklenburg County,NC,82.6086956521739,NA,NA
28303,Cumberland County,NC,66.30434782608695,96.17224880382776,NA
28314,Cumberland County,NC,NA,NA,31.76470588235294
28360,Robeson County,NC,NA,75.11961722488039,NA
28412,New Hanover County,NC,NA,NA,20.588235294117645
28472,Columbus County,NC,NA,NA,90.58823529411765
28753,Madison County,NC,NA,NA,73.82352941176471
28779,Jackson County,NC,NA,88.03827751196172,NA
28782,Polk County,NC,NA,NA,99.70588235294117
28803,Buncombe County,NC,63.04347826086957,NA,NA
58201,Grand Forks County,ND,NA,38.995215311004785,NA
58203,Grand Forks County,ND,NA,NA,38.82352941176471
43016,Franklin County,OH,NA,NA,89.41176470588236
43023,Licking County,OH,NA,NA,64.70588235294117
43055,Licking County,OH,NA,0.7177033492822966,NA
43138,Hocking County,OH,NA,NA,23.235294117647058
43221,Franklin County,OH,NA,NA,93.52941176470588
43229,Franklin County,OH,NA,NA,75
43311,Logan County,OH,19.021739130434785,NA,NA
43431,Sandusky County,OH,75,NA,NA
43465,Wood County,OH,NA,52.39234449760766,NA
43512,Defiance County,OH,NA,NA,7.941176470588235
43615,Lucas County,OH,NA,NA,26.764705882352942
43617,Lucas County,OH,NA,NA,60
43701,Muskingum County,OH,NA,3.827751196172249,NA
43906,Belmont County,OH,NA,NA,95.58823529411765
43907,Harrison County,OH,NA,92.58373205741627,NA
44004,Ashtabula County,OH,NA,13.875598086124402,NA
44060,Lake County,OH,NA,0.4784688995215311,NA
44074,Lorain County,OH,97.82608695652173,NA,NA
44092,Lake County,OH,NA,22.966507177033492,NA
44095,Lake County,OH,11.41304347826087,56.2200956937799,NA
44122,Cuyahoga County,OH,NA,34.92822966507177,NA
44129,Cuyahoga County,OH,NA,9.569377990430622,NA
44130,Cuyahoga County,OH,NA,NA,13.823529411764707
44138,Cuyahoga County,OH,NA,NA,69.70588235294117
44212,Medina County,OH,NA,95.93301435406698,NA
44224,Summit County,OH,NA,NA,5.588235294117648
44230,Wayne County,OH,NA,NA,81.47058823529412
44255,Portage County,OH,NA,NA,54.70588235294118
44314,Summit County,OH,14.673913043478262,NA,NA
44403,Trumbull County,OH,NA,NA,76.17647058823529
44662,Stark County,OH,NA,42.822966507177036,NA
44720,Stark County,OH,NA,NA,35
44883,Seneca County,OH,52.71739130434783,NA,NA
45011,Butler County,OH,NA,NA,7.0588235294117645
45206,Hamilton County,OH,NA,NA,65.58823529411765
45220,Hamilton County,OH,NA,NA,47.05882352941176
45231,Hamilton County,OH,NA,12.440191387559809,NA
45241,Hamilton County,OH,NA,NA,32.35294117647059
45356,Miami County,OH,NA,31.57894736842105,NA
45380,Darke County,OH,NA,NA,78.23529411764706
45402,Montgomery County,OH,NA,NA,67.64705882352942
45601,Ross County,OH,NA,NA,0
45662,Scioto County,OH,7.608695652173914,NA,NA
73005,Caddo County,OK,NA,NA,62.05882352941177
73109,Oklahoma County,OK,NA,50.47846889952153,NA
73129,Oklahoma County,OK,NA,93.54066985645933,NA
73703,Garfield County,OK,36.95652173913043,NA,NA
74467,Wagoner County,OK,NA,NA,48.529411764705884
74848,Hughes County,OK,84.78260869565217,NA,NA
74962,Sequoyah County,OK,94.02173913043478,NA,NA
97006,Washington County,OR,NA,20.813397129186605,NA
97055,Clackamas County,OR,NA,36.60287081339713,NA
97060,Multnomah County,OR,NA,33.014354066985646,NA
97123,Washington County,OR,NA,NA,16.470588235294116
97229,Washington County,OR,NA,NA,77.05882352941177
97230,Multnomah County,OR,NA,NA,7.647058823529412
97330,Benton County,OR,NA,17.942583732057415,NA
97404,Lane County,OR,45.108695652173914,NA,NA
97754,Crook County,OR,NA,70.09569377990431,NA
97914,Malheur County,OR,NA,14.5933014354067,NA
15201,Allegheny County,PA,45.65217391304348,NA,NA
15211,Allegheny County,PA,NA,58.61244019138756,NA
15221,Allegheny County,PA,33.69565217391305,NA,NA
15228,Allegheny County,PA,NA,51.674641148325364,52.05882352941177
15301,Washington County,PA,NA,3.110047846889952,NA
15478,Fayette County,PA,NA,67.22488038277513,NA
15541,Somerset County,PA,100,NA,NA
15613,Westmoreland County,PA,NA,61.24401913875598,NA
15632,Westmoreland County,PA,75.54347826086956,NA,NA
15642,Westmoreland County,PA,NA,37.79904306220095,NA
15650,Westmoreland County,PA,NA,37.08133971291866,NA
15851,Jefferson County,PA,NA,99.52153110047847,NA
16102,Lawrence County,PA,76.08695652173914,NA,NA
16201,Armstrong County,PA,NA,NA,92.64705882352942
16346,Venango County,PA,NA,NA,58.529411764705884
16407,Erie County,PA,NA,49.760765550239235,NA
16504,Erie County,PA,47.28260869565217,NA,NA
16506,Erie County,PA,NA,NA,29.705882352941178
16509,Erie County,PA,NA,NA,18.235294117647058
16602,Blair County,PA,NA,8.373205741626794,NA
16801,Centre County,PA,NA,47.12918660287082,NA
16901,Tioga County,PA,73.91304347826086,NA,NA
17011,Cumberland County,PA,60.32608695652174,NA,NA
17050,Cumberland County,PA,NA,5.980861244019139,NA
17202,Franklin County,PA,NA,92.10526315789474,NA
17313,York County,PA,NA,NA,50.588235294117645
17404,York County,PA,4.891304347826087,NA,NA
17522,Lancaster County,PA,NA,78.4688995215311,NA
17815,Columbia County,PA,NA,NA,8.235294117647058
18045,Northampton County,PA,NA,NA,47.94117647058824
18202,Luzerne County,PA,91.84782608695652,NA,NA
18210,Carbon County,PA,NA,85.88516746411483,NA
18255,Carbon County,PA,NA,54.78468899521531,NA
18447,Lackawanna County,PA,NA,NA,46.470588235294116
18610,Monroe County,PA,64.13043478260869,NA,NA
18810,Bradford County,PA,68.47826086956522,NA,NA
18966,Bucks County,PA,NA,7.177033492822966,NA
19067,Bucks County,PA,NA,NA,6.764705882352941
19403,Montgomery County,PA,NA,3.588516746411483,4.411764705882353
19505,Berks County,PA,NA,89.47368421052632,NA
19518,Berks County,PA,NA,38.038277511961724,NA
19606,Berks County,PA,NA,2.631578947368421,NA
19608,Berks County,PA,NA,NA,32.94117647058823
02818,Kent County,RI,NA,57.89473684210527,NA
02835,Newport County,RI,96.73913043478261,NA,NA
02906,Providence County,RI,40.76086956521739,NA,NA
29006,Lexington County,SC,NA,70.33492822966507,NA
29078,Kershaw County,SC,NA,79.90430622009569,NA
29445,Berkeley County,SC,NA,44.73684210526316,NA
29512,Marlboro County,SC,NA,45.933014354066984,NA
29581,Horry County,SC,NA,69.377990430622,NA
29625,Anderson County,SC,63.58695652173913,NA,NA
29681,Greenville County,SC,NA,10.047846889952153,NA
29710,York County,SC,NA,NA,36.17647058823529
29732,York County,SC,NA,NA,59.705882352941174
29906,Beaufort County,SC,53.80434782608695,NA,NA
37064,Williamson County,TN,72.28260869565217,NA,NA
37066,Sumner County,TN,NA,NA,71.17647058823529
37087,Wilson County,TN,8.695652173913043,NA,NA
37091,Marshall County,TN,NA,85.16746411483254,NA
37115,Davidson County,TN,55.97826086956522,NA,NA
37206,Davidson County,TN,NA,91.6267942583732,NA
37207,Davidson County,TN,NA,47.84688995215311,NA
37341,Hamilton County,TN,86.41304347826086,NA,NA
37363,Hamilton County,TN,NA,NA,66.47058823529412
37643,Carter County,TN,NA,NA,10.882352941176471
37683,Johnson County,TN,NA,NA,84.41176470588235
37711,Hawkins County,TN,NA,65.07177033492823,NA
37725,Jefferson County,TN,NA,NA,26.47058823529412
37745,Greene County,TN,NA,16.267942583732058,NA
37774,Loudon County,TN,NA,NA,21.470588235294116
37807,Union County,TN,NA,NA,95.29411764705881
37876,Sevier County,TN,NA,15.07177033492823,NA
37921,Knox County,TN,17.391304347826086,NA,NA
38141,Shelby County,TN,NA,72.96650717703349,NA
38242,Henry County,TN,NA,55.26315789473685,NA
38340,Chester County,TN,48.91304347826087,NA,NA
38375,McNairy County,TN,NA,NA,87.6470588235294
38401,Maury County,TN,NA,64.11483253588517,NA
38483,Lawrence County,TN,78.80434782608695,NA,NA
38556,Fentress County,TN,NA,28.22966507177033,NA
75052,Dallas County,TX,9.239130434782608,NA,NA
75062,Dallas County,TX,90.76086956521739,NA,NA
75070,Collin County,TX,NA,6.4593301435406705,NA
75078,Collin County,TX,NA,NA,86.76470588235294
75147,Kaufman County,TX,73.91304347826086,NA,NA
75189,Rockwall County,TX,29.347826086956523,NA,NA
75249,Dallas County,TX,NA,82.05741626794259,NA
75551,Cass County,TX,NA,76.07655502392345,NA
75559,Bowie County,TX,NA,83.01435406698565,NA
75605,Gregg County,TX,39.130434782608695,NA,NA
75789,Smith County,TX,NA,46.411483253588514,NA
75951,Jasper County,TX,NA,68.42105263157895,NA
75966,Newton County,TX,NA,NA,97.35294117647058
76009,Johnson County,TX,NA,NA,62.94117647058823
76123,Tarrant County,TX,33.15217391304348,NA,NA
76301,Wichita County,TX,NA,NA,74.11764705882354
76424,Stephens County,TX,NA,56.45933014354066,NA
76504,Bell County,TX,NA,1.4354066985645932,NA
76539,Lampasas County,TX,NA,NA,91.47058823529412
77007,Harris County,TX,37.5,98.80382775119617,NA
77019,Harris County,TX,98.91304347826086,NA,NA
77021,Harris County,TX,NA,NA,82.6470588235294
77031,Harris County,TX,NA,65.311004784689,NA
77059,Harris County,TX,NA,NA,77.94117647058823
77062,Harris County,TX,46.73913043478261,NA,NA
77077,Harris County,TX,NA,21.052631578947366,NA
77083,Harris County,TX,NA,18.421052631578945,NA
77089,Harris County,TX,NA,23.205741626794257,NA
77304,Montgomery County,TX,NA,NA,39.705882352941174
77356,Montgomery County,TX,NA,NA,37.35294117647059
77360,Polk County,TX,NA,NA,72.05882352941177
77373,Harris County,TX,NA,18.660287081339714,NA
77388,Harris County,TX,NA,NA,50.294117647058826
77450,Harris County,TX,NA,94.01913875598086,NA
77474,Austin County,TX,NA,77.99043062200957,NA
77480,Brazoria County,TX,NA,86.8421052631579,NA
77551,Galveston County,TX,15.217391304347828,NA,NA
77581,Brazoria County,TX,NA,14.354066985645932,NA
77583,Brazoria County,TX,35.869565217391305,84.92822966507177,NA
77833,Washington County,TX,NA,NA,53.23529411764706
78076,Zapata County,TX,NA,68.6602870813397,NA
78228,Bexar County,TX,NA,NA,17.647058823529413
78250,Bexar County,TX,NA,38.75598086124402,NA
78380,Nueces County,TX,NA,NA,70.58823529411765
78405,Nueces County,TX,NA,NA,75.88235294117646
78504,Hidalgo County,TX,NA,NA,46.1764705882353
78620,Hays County,TX,NA,NA,67.05882352941175
78639,Llano County,TX,NA,85.4066985645933,NA
78654,Burnet County,TX,NA,55.74162679425837,NA
78852,Maverick County,TX,NA,NA,92.94117647058823
79103,Potter County,TX,NA,76.55502392344498,NA
79118,Randall County,TX,NA,62.20095693779905,NA
79119,Randall County,TX,NA,62.67942583732058,NA
79556,Nolan County,TX,NA,NA,40
79707,Midland County,TX,NA,31.33971291866029,NA
79830,Brewster County,TX,NA,NA,85.29411764705883
84003,Utah County,UT,28.804347826086957,NA,NA
84032,Wasatch County,UT,NA,73.44497607655502,NA
84044,Salt Lake County,UT,NA,50.23923444976076,NA
84094,Salt Lake County,UT,50,NA,NA
84117,Salt Lake County,UT,NA,NA,22.35294117647059
84120,Salt Lake County,UT,NA,13.636363636363635,NA
84604,Utah County,UT,83.69565217391305,NA,NA
05346,Windham County,VT,NA,84.44976076555024,NA
20106,Culpeper County,VA,NA,81.10047846889952,NA
22192,Prince William County,VA,NA,29.904306220095695,NA
22482,Lancaster County,VA,NA,NA,80.58823529411765
22701,Culpeper County,VA,NA,11.961722488038278,NA
22815,Rockingham County,VA,38.58695652173913,NA,NA
23188,James City County,VA,NA,NA,5.294117647058823
23227,Henrico County,VA,NA,25.11961722488038,NA
23228,Henrico County,VA,NA,NA,18.235294117647058
23454,Virginia Beach city,VA,NA,7.894736842105263,NA
23692,York County,VA,NA,95.45454545454545,NA
23847,Greensville County,VA,NA,49.04306220095694,NA
24018,Roanoke County,VA,NA,NA,65.29411764705883
24019,Roanoke County,VA,41.84782608695652,NA,NA
24251,Scott County,VA,NA,NA,71.76470588235294
24368,Wythe County,VA,92.3913043478261,NA,NA
24590,Albemarle County,VA,NA,NA,67.94117647058823
98003,King County,WA,91.30434782608695,NA,NA
98012,Snohomish County,WA,71.73913043478261,75.35885167464114,NA
98023,King County,WA,NA,NA,95
98029,King County,WA,NA,NA,79.11764705882352
98031,King County,WA,27.717391304347828,NA,NA
98034,King County,WA,NA,8.851674641148326,NA
98040,King County,WA,NA,NA,29.117647058823533
98042,King County,WA,NA,46.172248803827756,NA
98059,King County,WA,NA,46.889952153110045,NA
98074,King County,WA,NA,98.56459330143541,NA
98201,Snohomish County,WA,NA,69.13875598086125,NA
98225,Whatcom County,WA,NA,31.818181818181817,NA
98277,Island County,WA,NA,17.22488038277512,NA
98292,Snohomish County,WA,NA,27.27272727272727,NA
98371,Pierce County,WA,NA,38.27751196172249,NA
98373,Pierce County,WA,NA,53.34928229665071,NA
98391,Pierce County,WA,NA,NA,79.41176470588235
98512,Thurston County,WA,NA,57.41626794258373,NA
98604,Clark County,WA,NA,NA,45.88235294117647
98812,Okanogan County,WA,NA,88.51674641148325,NA
98848,Grant County,WA,NA,61.48325358851675,NA
98901,Yakima County,WA,NA,NA,71.47058823529412
98902,Yakima County,WA,NA,97.36842105263158,NA
99025,Spokane County,WA,NA,96.88995215311004,NA
99206,Spokane County,WA,30.978260869565215,NA,NA
99207,Spokane County,WA,NA,42.58373205741627,NA
99336,Benton County,WA,NA,10.287081339712918,NA
99337,Benton County,WA,NA,NA,64.41176470588236
20032,District of Columbia,DC,13.586956521739129,NA,NA
24901,Greenbrier County,WV,NA,NA,77.3529411764706
25177,Kanawha County,WV,NA,NA,9.705882352941178
25303,Kanawha County,WV,NA,NA,89.70588235294117
25413,Berkeley County,WV,NA,93.0622009569378,NA
25427,Berkeley County,WV,NA,NA,56.76470588235294
25705,Cabell County,WV,NA,14.114832535885165,NA
53040,Washington County,WI,NA,NA,96.76470588235294
53095,Washington County,WI,NA,12.679425837320574,NA
53115,Walworth County,WI,NA,NA,60.29411764705882
53130,Milwaukee County,WI,NA,NA,55.88235294117647
53217,Milwaukee County,WI,NA,45.45454545454545,NA
53227,Milwaukee County,WI,NA,NA,10.588235294117647
53402,Racine County,WI,NA,27.51196172248804,NA
53405,Racine County,WI,NA,2.15311004784689,NA
53538,Jefferson County,WI,NA,NA,20
53558,Dane County,WI,85.32608695652173,NA,NA
53913,Sauk County,WI,NA,NA,35.588235294117645
53948,Juneau County,WI,NA,49.52153110047847,NA
54011,Pierce County,WI,NA,89.95215311004785,NA
54241,Manitowoc County,WI,NA,52.87081339712919,NA
54457,Wood County,WI,NA,67.46411483253588,NA
54986,Winnebago County,WI,NA,96.65071770334929,NA
82401,Washakie County,WY,NA,NA,72.35294117647058
82633,Converse County,WY,89.67391304347827,NA,NA
82901,Sweetwater County,WY,NA,76.79425837320574,NA
