ZipCode,county,state,Retirement,Geriatric
35406,Tuscaloosa County,AL,NA,35.785288270377734
35462,Greene County,AL,NA,85.08946322067594
35476,Tuscaloosa County,AL,NA,88.86679920477137
35549,Walker County,AL,NA,97.4155069582505
35763,Madison County,AL,47.019867549668874,NA
35768,Jackson County,AL,NA,61.431411530815105
35810,Madison County,AL,NA,51.491053677932406
36106,Montgomery County,AL,NA,99.80119284294234
36542,Baldwin County,AL,NA,57.45526838966203
36867,Russell County,AL,62.913907284768214,NA
85051,Maricopa County,AZ,NA,63.41948310139165
85083,Maricopa County,AZ,NA,92.84294234592446
85138,Pinal County,AZ,56.95364238410596,NA
85213,Maricopa County,AZ,NA,84.49304174950298
85255,Maricopa County,AZ,NA,24.254473161033797
85263,Maricopa County,AZ,NA,99.20477137176938
85304,Maricopa County,AZ,NA,59.24453280318092
85373,Maricopa County,AZ,NA,66.00397614314116
85379,Maricopa County,AZ,48.675496688741724,NA
85718,Pima County,AZ,16.55629139072848,NA
86351,Yavapai County,AZ,NA,74.75149105367794
71742,Dallas County,AR,NA,88.27037773359841
71923,Clark County,AR,NA,52.48508946322068
72206,Pulaski County,AR,NA,43.141153081510936
72956,Crawford County,AR,22.185430463576157,NA
90006,Los Angeles County,CA,74.17218543046357,NA
90008,Los Angeles County,CA,76.49006622516556,NA
90024,Los Angeles County,CA,70.86092715231787,NA
90028,Los Angeles County,CA,NA,36.779324055666
90033,Los Angeles County,CA,NA,70.9741550695825
90056,Los Angeles County,CA,NA,86.08349900596421
90057,Los Angeles County,CA,NA,50.89463220675944
90064,Los Angeles County,CA,NA,22.067594433399602
90066,Los Angeles County,CA,NA,58.05168986083499
90210,Los Angeles County,CA,NA,17.09741550695825
90242,Los Angeles County,CA,NA,84.09542743538768
90272,Los Angeles County,CA,NA,26.043737574552683
90293,Los Angeles County,CA,NA,82.10735586481114
90504,Los Angeles County,CA,77.81456953642383,NA
90731,Los Angeles County,CA,51.65562913907284,NA
90805,Los Angeles County,CA,NA,76.1431411530815
91103,Los Angeles County,CA,NA,63.41948310139165
91331,Los Angeles County,CA,NA,29.025844930417495
91343,Los Angeles County,CA,NA,35.387673956262425
91344,Los Angeles County,CA,NA,19.284294234592444
91360,Ventura County,CA,NA,66.79920477137176
91367,Los Angeles County,CA,NA,17.495029821073558
91390,Los Angeles County,CA,NA,73.1610337972167
91505,Los Angeles County,CA,NA,63.817097415506964
91604,Los Angeles County,CA,NA,39.761431411530815
91607,Los Angeles County,CA,NA,31.610337972166995
91701,San Bernardino County,CA,87.41721854304636,NA
91702,Los Angeles County,CA,NA,47.713717693836976
91709,San Bernardino County,CA,92.71523178807946,NA
91724,Los Angeles County,CA,NA,65.00994035785288
91748,Los Angeles County,CA,NA,30.019880715705767
91764,San Bernardino County,CA,NA,97.8131212723658
91766,Los Angeles County,CA,NA,62.02783300198808
91776,Los Angeles County,CA,NA,86.67992047713717
91901,San Diego County,CA,NA,58.64811133200796
92003,San Diego County,CA,NA,96.81908548707754
92027,San Diego County,CA,NA,41.15308151093439
92056,San Diego County,CA,NA,10.73558648111332
92250,Imperial County,CA,NA,92.2465208747515
92253,Riverside County,CA,5.629139072847682,NA
92270,Riverside County,CA,4.966887417218543,NA
92335,San Bernardino County,CA,11.589403973509933,NA
92337,San Bernardino County,CA,NA,94.63220675944333
92354,San Bernardino County,CA,96.68874172185431,NA
92399,San Bernardino County,CA,NA,24.45328031809145
92586,Riverside County,CA,NA,53.08151093439364
92625,Orange County,CA,54.3046357615894,43.93638170974155
92627,Orange County,CA,23.509933774834437,NA
92646,Orange County,CA,NA,32.20675944333996
92649,Orange County,CA,NA,30.61630218687873
92683,Orange County,CA,NA,5.7654075546719685
92692,Orange County,CA,64.90066225165563,NA
92844,Orange County,CA,82.11920529801324,NA
92882,Riverside County,CA,30.79470198675497,NA
93003,Ventura County,CA,NA,13.916500994035786
93004,Ventura County,CA,NA,47.31610337972167
93063,Ventura County,CA,NA,38.9662027833002
93950,Monterey County,CA,57.94701986754966,NA
94015,San Mateo County,CA,NA,4.970178926441352
94061,San Mateo County,CA,NA,15.904572564612327
94080,San Mateo County,CA,NA,3.180914512922465
94087,Santa Clara County,CA,40.728476821192054,NA
94122,San Francisco County,CA,NA,6.163021868787276
94132,San Francisco County,CA,99.00662251655629,NA
94403,San Mateo County,CA,NA,10.536779324055665
94530,Contra Costa County,CA,NA,96.62027833001989
94544,Alameda County,CA,73.17880794701986,NA
94550,Alameda County,CA,81.12582781456953,NA
94553,Contra Costa County,CA,NA,71.57057654075547
94559,Napa County,CA,50.66225165562914,NA
94566,Alameda County,CA,NA,42.74353876739563
94577,Alameda County,CA,NA,78.92644135188867
94591,Solano County,CA,NA,17.693836978131213
94611,Alameda County,CA,49.00662251655629,NA
94621,Alameda County,CA,79.13907284768213,NA
94703,Alameda County,CA,64.56953642384106,NA
94708,Alameda County,CA,NA,87.47514910536779
94925,Marin County,CA,86.75496688741721,NA
94928,Sonoma County,CA,NA,39.363817097415506
95003,Santa Cruz County,CA,NA,54.07554671968191
95019,Santa Cruz County,CA,88.41059602649007,NA
95020,Santa Clara County,CA,56.622516556291394,NA
95070,Santa Clara County,CA,NA,16.50099403578529
95118,Santa Clara County,CA,NA,55.26838966202783
95340,Merced County,CA,NA,87.67395626242545
95380,Stanislaus County,CA,NA,99.60238568588468
95407,Sonoma County,CA,NA,83.49900596421472
95503,Humboldt County,CA,NA,47.514910536779325
95608,Sacramento County,CA,NA,7.5546719681908545
95677,Placer County,CA,NA,91.25248508946322
95864,Sacramento County,CA,NA,70.57654075546719
95928,Butte County,CA,NA,22.86282306163022
95953,Sutter County,CA,NA,88.46918489065607
95973,Butte County,CA,18.874172185430464,NA
95991,Sutter County,CA,NA,36.97813121272366
96097,Siskiyou County,CA,NA,65.8051689860835
80015,Arapahoe County,CO,63.576158940397356,NA
80121,Arapahoe County,CO,NA,46.12326043737575
80122,Arapahoe County,CO,42.71523178807947,NA
80129,Douglas County,CO,75.16556291390728,NA
80138,Douglas County,CO,NA,63.817097415506964
80223,Denver County,CO,45.033112582781456,NA
80537,Larimer County,CO,58.609271523178805,NA
80602,Adams County,CO,71.52317880794702,NA
80917,El Paso County,CO,NA,93.83697813121272
81321,Montezuma County,CO,52.317880794701985,NA
81506,Mesa County,CO,95.69536423841059,NA
81623,Garfield County,CO,79.47019867549669,NA
06040,Hartford County,CT,45.36423841059602,NA
06082,Hartford County,CT,38.079470198675494,NA
06109,Hartford County,CT,NA,98.40954274353876
06405,New Haven County,CT,NA,9.343936381709742
06415,New London County,CT,NA,67.19681908548708
06457,Middlesex County,CT,50.331125827814574,NA
06471,New Haven County,CT,NA,61.23260437375746
06484,Fairfield County,CT,NA,45.32803180914513
06492,New Haven County,CT,NA,46.91848906560636
06516,New Haven County,CT,NA,10.139165009940358
06790,Litchfield County,CT,15.2317880794702,NA
06824,Fairfield County,CT,NA,48.70775347912525
06902,Fairfield County,CT,NA,5.964214711729622
06905,Fairfield County,CT,NA,37.37574552683897
19703,New Castle County,DE,NA,69.58250497017893
19933,Sussex County,DE,NA,69.98011928429423
19973,Sussex County,DE,NA,80.9145129224652
32034,Nassau County,FL,5.298013245033113,64.61232604373758
32073,Clay County,FL,NA,19.880715705765407
32117,Volusia County,FL,NA,31.01391650099404
32128,Volusia County,FL,74.83443708609272,38.17097415506958
32179,Marion County,FL,91.3907284768212,NA
32218,Duval County,FL,NA,20.87475149105368
32317,Leon County,FL,80.13245033112582,NA
32324,Gadsden County,FL,97.35099337748345,NA
32465,Gulf County,FL,86.09271523178808,NA
32506,Escambia County,FL,NA,13.12127236580517
32539,Okaloosa County,FL,NA,77.9324055666004
32561,Santa Rosa County,FL,NA,72.16699801192843
32577,Escambia County,FL,91.05960264900662,NA
32583,Santa Rosa County,FL,18.543046357615893,36.18290258449304
32626,Levy County,FL,NA,87.27634194831015
32668,Levy County,FL,NA,85.48707753479125
32708,Seminole County,FL,NA,23.856858846918488
32712,Orange County,FL,NA,20.87475149105368
32809,Orange County,FL,NA,43.737574552683895
32837,Orange County,FL,NA,46.52087475149106
32960,Indian River County,FL,NA,41.74950298210736
32966,Indian River County,FL,24.17218543046358,NA
33009,Broward County,FL,NA,56.85884691848907
33018,Miami-Dade County,FL,45.6953642384106,NA
33021,Broward County,FL,NA,27.634194831013914
33031,Miami-Dade County,FL,NA,91.84890656063618
33055,Miami-Dade County,FL,50,NA
33067,Broward County,FL,66.22516556291392,NA
33144,Miami-Dade County,FL,80.79470198675497,NA
33150,Miami-Dade County,FL,53.31125827814569,NA
33160,Miami-Dade County,FL,60.59602649006622,NA
33180,Miami-Dade County,FL,88.74172185430463,42.54473161033797
33305,Broward County,FL,NA,79.92047713717693
33308,Broward County,FL,NA,23.45924453280318
33311,Broward County,FL,NA,25.646123260437374
33319,Broward County,FL,NA,16.10337972166998
33410,Palm Beach County,FL,58.27814569536424,NA
33418,Palm Beach County,FL,21.85430463576159,NA
33433,Palm Beach County,FL,17.549668874172188,33.00198807157058
33434,Palm Beach County,FL,NA,76.93836978131213
33437,Palm Beach County,FL,90.06622516556291,NA
33446,Palm Beach County,FL,24.834437086092713,4.174950298210735
33480,Palm Beach County,FL,NA,33.39960238568588
33547,Hillsborough County,FL,NA,94.43339960238568
33611,Hillsborough County,FL,NA,77.53479125248509
33613,Hillsborough County,FL,40.06622516556291,NA
33618,Hillsborough County,FL,NA,30.81510934393638
33629,Hillsborough County,FL,NA,54.07554671968191
33701,Pinellas County,FL,52.64900662251656,NA
33713,Pinellas County,FL,55.29801324503312,NA
33755,Pinellas County,FL,NA,90.05964214711729
33859,Polk County,FL,NA,70.9741550695825
33904,Lee County,FL,NA,6.759443339960239
33909,Lee County,FL,NA,50.09940357852882
33914,Lee County,FL,NA,19.08548707753479
33917,Lee County,FL,NA,12.524850894632205
33993,Lee County,FL,NA,56.461232604373755
34110,Collier County,FL,68.87417218543047,NA
34229,Sarasota County,FL,NA,78.52882703777337
34235,Sarasota County,FL,NA,31.411530815109344
34293,Sarasota County,FL,NA,3.7773359840954273
34472,Marion County,FL,41.72185430463576,NA
34476,Marion County,FL,NA,57.45526838966203
34479,Marion County,FL,NA,80.71570576540755
34668,Pasco County,FL,NA,75.94433399602386
34689,Pinellas County,FL,NA,18.290258449304176
34711,Lake County,FL,3.3112582781456954,NA
34761,Orange County,FL,NA,28.628230616302186
34947,St. Lucie County,FL,NA,84.89065606361828
34949,St. Lucie County,FL,68.21192052980133,NA
34953,St. Lucie County,FL,NA,67.9920477137177
34957,Martin County,FL,28.807947019867548,NA
30017,Gwinnett County,GA,NA,73.558648111332
30022,Fulton County,GA,NA,44.53280318091451
30060,Cobb County,GA,NA,82.7037773359841
30064,Cobb County,GA,NA,25.844930417495032
30102,Cherokee County,GA,24.503311258278146,NA
30115,Cherokee County,GA,NA,90.85487077534792
30180,Carroll County,GA,31.125827814569533,NA
30240,Troup County,GA,NA,86.28230616302187
30305,Fulton County,GA,NA,34.990059642147116
30439,Candler County,GA,NA,70.77534791252485
30540,Gilmer County,GA,62.58278145695364,NA
30549,Jackson County,GA,NA,60.238568588469185
30814,Columbia County,GA,NA,69.18489065606362
31015,Crisp County,GA,NA,86.87872763419483
31513,Appling County,GA,NA,67.39562624254472
31520,Glynn County,GA,46.026490066225165,NA
31721,Dougherty County,GA,NA,59.64214711729622
96704,Hawaii County,HI,96.02649006622516,NA
96732,Maui County,HI,NA,70.37773359840955
96819,Honolulu County,HI,NA,51.0934393638171
83221,Bingham County,ID,14.23841059602649,NA
83301,Twin Falls County,ID,NA,0.19880715705765406
83406,Bonneville County,ID,NA,95.62624254473161
83605,Canyon County,ID,NA,34.39363817097416
83607,Canyon County,ID,NA,69.78131212723659
83651,Canyon County,ID,8.27814569536424,NA
83702,Ada County,ID,17.880794701986755,NA
83704,Ada County,ID,NA,16.898608349900595
60013,McHenry County,IL,60.264900662251655,NA
60016,Cook County,IL,NA,7.157057654075547
60050,McHenry County,IL,NA,75.7455268389662
60123,Kane County,IL,11.920529801324504,NA
60142,McHenry County,IL,NA,2.584493041749503
60189,DuPage County,IL,49.337748344370866,NA
60441,Will County,IL,NA,90.4572564612326
60450,Grundy County,IL,NA,49.30417495029821
60473,Cook County,IL,NA,82.50497017892644
60482,Cook County,IL,NA,96.42147117296223
60510,Kane County,IL,38.741721854304636,NA
60527,DuPage County,IL,NA,63.02186878727635
60610,Cook County,IL,NA,49.30417495029821
60615,Cook County,IL,NA,91.65009940357854
60616,Cook County,IL,5.960264900662252,NA
60629,Cook County,IL,NA,8.946322067594433
60630,Cook County,IL,9.271523178807946,NA
60914,Kankakee County,IL,NA,55.864811133200796
61008,Boone County,IL,79.80132450331125,NA
61073,Winnebago County,IL,NA,43.93638170974155
62025,Madison County,IL,76.82119205298014,NA
62035,Madison County,IL,97.68211920529801,NA
62557,Christian County,IL,NA,65.60636182902584
62959,Williamson County,IL,13.90728476821192,NA
46037,Hamilton County,IN,31.456953642384107,NA
46131,Johnson County,IN,NA,39.562624254473164
46135,Putnam County,IN,51.98675496688742,NA
46142,Johnson County,IN,53.64238410596026,NA
46217,Marion County,IN,90.72847682119205,NA
46227,Marion County,IN,3.9735099337748347,NA
46307,Lake County,IN,NA,2.982107355864811
46375,Lake County,IN,NA,53.28031809145129
47201,Bartholomew County,IN,NA,13.320079522862823
47203,Bartholomew County,IN,NA,11.332007952286283
47303,Delaware County,IN,42.05298013245033,NA
47403,Monroe County,IN,NA,66.40159045725646
47421,Lawrence County,IN,15.562913907284766,NA
47446,Lawrence County,IN,60.9271523178808,NA
47586,Perry County,IN,NA,85.2882703777336
47591,Knox County,IN,66.55629139072848,NA
47834,Clay County,IN,95.36423841059603,NA
50314,Polk County,IA,93.70860927152319,NA
50317,Polk County,IA,NA,35.984095427435385
50428,Cerro Gordo County,IA,80.4635761589404,NA
50662,Fayette County,IA,97.01986754966887,NA
50677,Bremer County,IA,NA,45.12922465208747
50703,Black Hawk County,IA,NA,29.4234592445328
52052,Clayton County,IA,94.37086092715232,NA
52205,Jones County,IA,71.19205298013244,NA
52302,Linn County,IA,29.80132450331126,NA
66048,Leavenworth County,KS,NA,30.218687872763418
66104,Wyandotte County,KS,36.423841059602644,50.49701789264414
66212,Johnson County,KS,11.258278145695364,NA
66216,Johnson County,KS,NA,44.93041749502982
67601,Ellis County,KS,14.56953642384106,NA
40047,Bullitt County,KY,NA,59.84095427435388
40059,Jefferson County,KY,NA,62.42544731610338
40160,Hardin County,KY,43.70860927152318,NA
40214,Jefferson County,KY,59.93377483443708,NA
40220,Jefferson County,KY,NA,20.47713717693837
40241,Jefferson County,KY,NA,26.838966202783297
40517,Fayette County,KY,NA,40.15904572564612
41008,Carroll County,KY,67.54966887417218,NA
42539,Casey County,KY,NA,66.6003976143141
42728,Adair County,KY,35.099337748344375,NA
70122,Orleans Parish,LA,NA,88.07157057654076
70301,Lafourche Parish,LA,NA,14.314115308151093
70452,St. Tammany Parish,LA,57.284768211920536,NA
70506,Lafayette Parish,LA,13.245033112582782,NA
70508,Lafayette Parish,LA,82.78145695364239,NA
70554,Evangeline Parish,LA,NA,69.38369781312127
70586,Evangeline Parish,LA,NA,73.35984095427436
70601,Calcasieu Parish,LA,NA,25.24850894632207
70711,Livingston Parish,LA,69.86754966887418,NA
71119,Caddo Parish,LA,NA,90.65606361829026
71220,Morehouse Parish,LA,NA,43.538767395626245
71263,West Carroll Parish,LA,NA,48.111332007952285
71269,Richland Parish,LA,67.54966887417218,NA
71295,Franklin Parish,LA,NA,38.56858846918489
71301,Rapides Parish,LA,NA,59.443339960238575
04011,Cumberland County,ME,98.34437086092716,NA
04043,York County,ME,34.437086092715234,NA
04086,Sagadahoc County,ME,41.390728476821195,NA
04401,Penobscot County,ME,NA,1.1928429423459244
04901,Kennebec County,ME,NA,5.36779324055666
04938,Franklin County,ME,NA,87.8727634194831
20735,Prince George's County,MD,NA,58.8469184890656
20895,Montgomery County,MD,85.09933774834437,NA
21093,Baltimore County,MD,51.324503311258276,7.75347912524851
21117,Baltimore County,MD,NA,37.17693836978131
21133,Baltimore County,MD,68.54304635761589,NA
21158,Carroll County,MD,NA,72.76341948310139
21216,Baltimore city,MD,NA,76.73956262425448
21229,Baltimore city,MD,17.218543046357617,NA
21502,Allegany County,MD,NA,6.36182902584493
21783,Washington County,MD,82.45033112582782,NA
01201,Berkshire County,MA,NA,0.9940357852882704
01230,Berkshire County,MA,NA,52.683896620278325
01420,Worcester County,MA,89.73509933774835,NA
01536,Worcester County,MA,69.20529801324503,NA
01590,Worcester County,MA,NA,76.54075546719682
01609,Worcester County,MA,NA,45.92445328031809
01801,Middlesex County,MA,0.9933774834437087,NA
01810,Essex County,MA,12.582781456953644,NA
01821,Middlesex County,MA,28.14569536423841,NA
01826,Middlesex County,MA,47.35099337748344,NA
01844,Essex County,MA,NA,4.7713717693836974
01850,Middlesex County,MA,15.894039735099339,NA
01887,Middlesex County,MA,NA,21.669980119284293
01960,Essex County,MA,0.33112582781456956,NA
02026,Norfolk County,MA,NA,12.127236580516898
02038,Norfolk County,MA,NA,25.04970178926441
02062,Norfolk County,MA,NA,15.308151093439365
02066,Plymouth County,MA,37.086092715231786,NA
02072,Norfolk County,MA,48.01324503311258,NA
02115,Suffolk County,MA,NA,3.9761431411530817
02169,Norfolk County,MA,NA,7.952286282306163
02176,Middlesex County,MA,4.304635761589404,NA
02351,Plymouth County,MA,NA,75.3479125248509
02360,Plymouth County,MA,NA,1.5904572564612325
02494,Norfolk County,MA,NA,98.60834990059642
02571,Plymouth County,MA,32.450331125827816,NA
02648,Barnstable County,MA,54.63576158940398,NA
02767,Bristol County,MA,NA,77.73359840954275
02780,Bristol County,MA,1.6556291390728477,NA
48005,Macomb County,MI,NA,83.69781312127238
48025,Oakland County,MI,NA,55.666003976143145
48048,Macomb County,MI,NA,89.26441351888667
48051,Macomb County,MI,81.45695364238411,NA
48071,Oakland County,MI,NA,40.357852882703774
48152,Wayne County,MI,NA,8.34990059642147
48160,Washtenaw County,MI,NA,53.677932405566594
48166,Monroe County,MI,89.0728476821192,NA
48185,Wayne County,MI,NA,7.3558648111332
48187,Wayne County,MI,2.3178807947019866,NA
48207,Wayne County,MI,30.132450331125828,NA
48219,Wayne County,MI,46.35761589403973,NA
48234,Wayne County,MI,NA,22.46520874751491
48238,Wayne County,MI,NA,29.025844930417495
48239,Wayne County,MI,6.291390728476822,NA
48307,Oakland County,MI,NA,12.922465208747516
48341,Oakland County,MI,35.430463576158935,NA
48420,Genesee County,MI,NA,39.960238568588466
48438,Genesee County,MI,81.78807947019867,NA
48601,Saginaw County,MI,2.980132450331126,NA
48706,Bay County,MI,NA,3.5785288270377733
48838,Montcalm County,MI,NA,35.586481113320076
48858,Isabella County,MI,NA,8.548707753479125
49022,Berrien County,MI,8.940397350993377,NA
49024,Kalamazoo County,MI,NA,24.45328031809145
49202,Jackson County,MI,84.76821192052981,NA
49426,Ottawa County,MI,NA,70.17892644135189
49685,Grand Traverse County,MI,39.40397350993378,NA
49686,Grand Traverse County,MI,NA,15.705765407554672
55025,Washington County,MN,NA,89.46322067594433
55038,Washington County,MN,NA,72.56461232604374
55082,Washington County,MN,19.867549668874172,NA
55130,Ramsey County,MN,NA,96.02385685884693
55337,Dakota County,MN,NA,27.236580516898606
55345,Hennepin County,MN,NA,68.78727634194831
55404,Hennepin County,MN,NA,34.1948310139165
55407,Hennepin County,MN,NA,47.912524850894634
55446,Hennepin County,MN,NA,72.76341948310139
55768,St. Louis County,MN,96.35761589403974,NA
55912,Mower County,MN,NA,0.5964214711729622
56082,Nicollet County,MN,NA,74.15506958250498
56156,Rock County,MN,85.76158940397352,NA
56215,Swift County,MN,NA,78.72763419483101
56267,Stevens County,MN,NA,91.45129224652088
56379,Benton County,MN,95.03311258278146,NA
56537,Otter Tail County,MN,NA,30.417495029821072
38701,Washington County,MS,52.980132450331126,NA
39120,Adams County,MS,44.03973509933775,NA
63033,St. Louis County,MO,NA,6.560636182902585
63111,St. Louis city,MO,NA,62.62425447316103
63367,St. Charles County,MO,27.81456953642384,NA
63640,St. Francois County,MO,NA,97.01789264413519
63780,Scott County,MO,NA,78.13121272365805
64030,Jackson County,MO,42.384105960264904,NA
64055,Jackson County,MO,NA,12.72365805168986
64064,Jackson County,MO,NA,75.3479125248509
64151,Platte County,MO,NA,44.333996023856855
64157,Clay County,MO,77.48344370860927,NA
64683,Grundy County,MO,NA,53.87673956262425
64801,Jasper County,MO,88.0794701986755,NA
65401,Phelps County,MO,NA,27.037773359840955
65616,Taney County,MO,NA,94.03578528827038
65742,Webster County,MO,NA,80.11928429423459
65807,Greene County,MO,NA,61.82902584493042
59457,Fergus County,MT,NA,28.230616302186878
59602,Lewis and Clark County,MT,55.62913907284768,NA
59840,Ravalli County,MT,NA,36.381709741550694
59912,Flathead County,MT,NA,48.70775347912525
59917,Lincoln County,MT,NA,97.21669980119285
68005,Sarpy County,NE,54.966887417218544,NA
68118,Douglas County,NE,86.42384105960265,NA
68154,Douglas County,NE,38.41059602649007,NA
68310,Gage County,NE,NA,64.21471172962227
68801,Hall County,NE,NA,60.437375745526836
68803,Hall County,NE,NA,87.07753479125249
69153,Keith County,NE,65.56291390728477,NA
69337,Dawes County,NE,NA,82.90258449304176
89113,Clark County,NV,NA,99.40357852882704
89431,Washoe County,NV,NA,24.055666003976143
89521,Washoe County,NV,26.158940397350992,NA
03063,Hillsborough County,NH,NA,32.40556660039761
03301,Merrimack County,NH,8.609271523178808,NA
03458,Hillsborough County,NH,NA,92.6441351888668
07072,Bergen County,NJ,NA,95.02982107355865
07109,Essex County,NJ,NA,26.043737574552683
07470,Passaic County,NJ,NA,47.11729622266402
07666,Bergen County,NJ,NA,13.717693836978132
07675,Bergen County,NJ,NA,32.60437375745527
07827,Sussex County,NJ,NA,85.6858846918489
07828,Morris County,NJ,58.94039735099338,NA
07834,Morris County,NJ,NA,67.79324055666004
08003,Camden County,NJ,NA,17.892644135188867
08012,Camden County,NJ,NA,36.58051689860835
08043,Camden County,NJ,NA,48.31013916500994
08093,Gloucester County,NJ,62.251655629139066,NA
08505,Burlington County,NJ,46.688741721854306,NA
08514,Monmouth County,NJ,NA,92.04771371769384
08759,Ocean County,NJ,NA,43.33996023856859
08831,Middlesex County,NJ,NA,2.1868787276341948
08861,Middlesex County,NJ,53.973509933774835,NA
08865,Warren County,NJ,NA,11.72962226640159
87111,Bernalillo County,NM,NA,5.566600397614314
88030,Luna County,NM,NA,50.695825049701796
88081,Otero County,NM,72.51655629139073,NA
88201,Chaves County,NM,32.11920529801324,NA
10022,New York County,NY,NA,23.45924453280318
10024,New York County,NY,NA,5.168986083499006
10026,New York County,NY,NA,31.809145129224653
10028,New York County,NY,23.841059602649008,NA
10040,New York County,NY,NA,28.82703777335984
10305,Richmond County,NY,12.91390728476821,NA
10553,Westchester County,NY,NA,95.82504970178927
10566,Westchester County,NY,NA,58.25049701789264
10589,Westchester County,NY,NA,41.94831013916501
10704,Westchester County,NY,NA,41.5506958250497
10710,Westchester County,NY,NA,38.36978131212724
10805,Westchester County,NY,NA,95.42743538767395
10990,Orange County,NY,32.78145695364238,NA
11209,Kings County,NY,16.225165562913908,NA
11213,Kings County,NY,NA,26.640159045725646
11234,Kings County,NY,NA,14.512922465208748
11235,Kings County,NY,39.0728476821192,NA
11364,Queens County,NY,NA,57.25646123260437
11701,Suffolk County,NY,NA,33.79721669980119
11746,Suffolk County,NY,NA,8.747514910536779
11783,Nassau County,NY,72.18543046357617,NA
11787,Suffolk County,NY,NA,75.14910536779324
12020,Saratoga County,NY,20.86092715231788,NA
12047,Albany County,NY,NA,45.52683896620278
12095,Fulton County,NY,25.496688741721858,NA
12118,Saratoga County,NY,NA,71.96819085487077
12134,Fulton County,NY,92.3841059602649,NA
12148,Saratoga County,NY,NA,93.43936381709742
12498,Ulster County,NY,NA,88.46918489065607
12533,Dutchess County,NY,NA,56.2624254473161
13077,Cortland County,NY,NA,79.32405566600397
13212,Onondaga County,NY,NA,51.88866799204771
13224,Onondaga County,NY,99.66887417218543,NA
13413,Oneida County,NY,69.5364238410596,NA
13760,Broome County,NY,NA,1.3916500994035785
13901,Broome County,NY,NA,10.934393638170974
13905,Broome County,NY,NA,3.3797216699801194
14220,Erie County,NY,20.198675496688743,NA
14304,Niagara County,NY,2.6490066225165565,NA
14411,Orleans County,NY,33.443708609271525,NA
14622,Monroe County,NY,NA,57.85288270377733
14623,Monroe County,NY,NA,37.77335984095427
27103,Forsyth County,NC,NA,11.133200795228628
27105,Forsyth County,NC,NA,6.958250497017893
27205,Randolph County,NC,65.23178807947019,NA
27217,Alamance County,NC,76.15894039735099,NA
27263,Randolph County,NC,94.03973509933775,NA
27295,Davidson County,NC,NA,2.783300198807157
27501,Harnett County,NC,37.41721854304636,NA
27537,Vance County,NC,66.88741721854305,NA
27565,Granville County,NC,NA,25.44731610337972
27569,Johnston County,NC,73.50993377483444,NA
27577,Johnston County,NC,25.165562913907287,NA
27587,Wake County,NC,NA,15.109343936381709
27707,Durham County,NC,NA,93.24055666003976
27823,Halifax County,NC,75.49668874172185,NA
27889,Beaufort County,NC,NA,93.63817097415506
27892,Martin County,NC,84.43708609271523,NA
28023,Rowan County,NC,70.19867549668875,NA
28150,Cleveland County,NC,33.11258278145696,NA
28314,Cumberland County,NC,31.788079470198678,NA
28376,Hoke County,NC,27.1523178807947,NA
28431,Columbus County,NC,NA,79.12524850894633
28443,Pender County,NC,NA,85.88469184890656
28472,Columbus County,NC,85.43046357615894,71.76938369781311
28532,Craven County,NC,NA,74.35387673956262
28601,Catawba County,NC,NA,16.302186878727635
28753,Madison County,NC,NA,84.29423459244532
28782,Polk County,NC,NA,81.70974155069582
28792,Henderson County,NC,NA,9.542743538767395
58501,Burleigh County,ND,NA,8.151093439363818
43055,Licking County,OH,1.3245033112582782,NA
43123,Franklin County,OH,4.635761589403973,NA
43221,Franklin County,OH,33.77483443708609,NA
43229,Franklin County,OH,NA,18.687872763419485
43410,Sandusky County,OH,39.735099337748345,NA
43545,Henry County,OH,35.76158940397351,NA
43701,Muskingum County,OH,0.6622516556291391,NA
43725,Guernsey County,OH,NA,23.061630218687874
43764,Perry County,OH,NA,80.51689860834989
43920,Columbiana County,OH,6.622516556291391,NA
43953,Jefferson County,OH,NA,33.20079522862823
44004,Ashtabula County,OH,NA,1.9880715705765408
44024,Geauga County,OH,10.596026490066226,NA
44041,Ashtabula County,OH,NA,21.868787276341948
44060,Lake County,OH,NA,0.3976143141153081
44106,Cuyahoga County,OH,9.933774834437086,NA
44110,Cuyahoga County,OH,30.4635761589404,NA
44124,Cuyahoga County,OH,NA,74.95029821073558
44128,Cuyahoga County,OH,1.9867549668874174,2.3856858846918487
44135,Cuyahoga County,OH,NA,22.46520874751491
44140,Cuyahoga County,OH,NA,61.63021868787276
44141,Cuyahoga County,OH,NA,33.39960238568588
44266,Portage County,OH,NA,46.71968190854871
44281,Medina County,OH,NA,98.01192842942345
44408,Columbiana County,OH,NA,73.75745526838966
44509,Mahoning County,OH,NA,66.00397614314116
44680,Tuscarawas County,OH,NA,94.83101391650099
44718,Stark County,OH,89.40397350993378,NA
44883,Seneca County,OH,73.84105960264901,NA
45011,Butler County,OH,NA,10.337972166998012
45171,Brown County,OH,NA,94.23459244532803
45229,Hamilton County,OH,NA,65.20874751491054
45414,Montgomery County,OH,40.397350993377486,NA
45458,Montgomery County,OH,70.52980132450331,NA
45503,Clark County,OH,NA,9.74155069582505
45692,Jackson County,OH,27.483443708609272,NA
45822,Mercer County,OH,NA,19.681908548707753
73078,Canadian County,OK,87.08609271523179,NA
73135,Oklahoma County,OK,NA,89.06560636182903
73505,Comanche County,OK,NA,4.3737574552683895
73527,Comanche County,OK,NA,100
74135,Tulsa County,OK,63.90728476821192,NA
74801,Pottawatomie County,OK,20.52980132450331,NA
74820,Pontotoc County,OK,NA,21.272365805168985
97006,Washington County,OR,NA,34.39363817097416
97027,Clackamas County,OR,67.21854304635761,NA
97070,Clackamas County,OR,NA,29.62226640159046
97220,Multnomah County,OR,23.178807947019866,NA
97222,Clackamas County,OR,NA,38.767395626242546
97230,Multnomah County,OR,10.264900662251655,NA
97303,Marion County,OR,NA,32.80318091451292
97420,Coos County,OR,34.7682119205298,NA
97504,Jackson County,OR,NA,4.572564612326044
97527,Josephine County,OR,44.370860927152314,NA
97601,Klamath County,OR,7.9470198675496695,NA
15010,Beaver County,PA,NA,13.518886679920477
15063,Washington County,PA,61.58940397350994,NA
15104,Allegheny County,PA,NA,81.31212723658051
15139,Allegheny County,PA,NA,55.069582504970185
15206,Allegheny County,PA,NA,14.7117296222664
15501,Somerset County,PA,NA,40.55666003976143
15851,Jefferson County,PA,83.44370860927152,NA
16201,Armstrong County,PA,6.95364238410596,NA
16504,Erie County,PA,61.258278145695364,89.86083499005964
16506,Erie County,PA,NA,82.30616302186878
16602,Blair County,PA,NA,51.29224652087475
16646,Cambria County,PA,98.67549668874173,NA
16652,Huntingdon County,PA,NA,18.09145129224652
17033,Dauphin County,PA,NA,52.88270377733598
17241,Cumberland County,PA,NA,66.79920477137176
17404,York County,PA,NA,12.326043737574553
17545,Lancaster County,PA,NA,14.910536779324055
17552,Lancaster County,PA,NA,42.34592445328032
17866,Northumberland County,PA,49.668874172185426,NA
18036,Lehigh County,PA,28.47682119205298,NA
18411,Lackawanna County,PA,44.70198675496689,NA
18512,Lackawanna County,PA,NA,92.44532803180915
18640,Luzerne County,PA,NA,20.07952286282306
18706,Luzerne County,PA,NA,62.82306163021869
18977,Bucks County,PA,NA,77.33598409542743
19010,Delaware County,PA,NA,72.36580516898609
19067,Bucks County,PA,NA,39.165009940357855
19086,Delaware County,PA,NA,64.41351888667992
19128,Philadelphia County,PA,NA,29.82107355864811
19475,Chester County,PA,NA,86.48111332007953
19506,Berks County,PA,NA,96.22266401590457
02806,Bristol County,RI,56.29139072847682,NA
02809,Bristol County,RI,26.490066225165563,NA
02816,Kent County,RI,10.927152317880795,NA
02882,Washington County,RI,NA,31.21272365805169
02891,Washington County,RI,NA,20.278330019880716
02917,Providence County,RI,NA,68.98608349900597
02919,Providence County,RI,NA,16.69980119284294
02920,Providence County,RI,12.251655629139073,NA
29072,Lexington County,SC,NA,27.435387673956264
29316,Spartanburg County,SC,NA,83.1013916500994
29388,Spartanburg County,SC,NA,63.02186878727635
29407,Charleston County,SC,NA,44.53280318091451
29412,Charleston County,SC,16.887417218543046,60.63618290258449
29414,Charleston County,SC,NA,60.834990059642145
29526,Horry County,SC,7.28476821192053,NA
29585,Georgetown County,SC,NA,32.007952286282304
29621,Anderson County,SC,14.90066225165563,NA
29654,Anderson County,SC,78.80794701986756,NA
29657,Pickens County,SC,74.50331125827815,NA
29720,Lancaster County,SC,NA,55.46719681908549
57042,Lake County,SD,94.70198675496688,67.59443339960238
57103,Minnehaha County,SD,NA,81.90854870775348
57401,Brown County,SD,NA,1.7892644135188867
57702,Pennington County,SD,13.57615894039735,NA
37064,Williamson County,TN,NA,21.272365805168985
37207,Davidson County,TN,NA,49.10536779324055
37419,Hamilton County,TN,NA,81.11332007952286
37659,Washington County,TN,NA,99.00596421471172
37716,Anderson County,TN,22.8476821192053,NA
37857,Hawkins County,TN,NA,33.99602385685885
37918,Knox County,TN,NA,17.296222664015904
38320,Benton County,TN,NA,65.4075546719682
38464,Lawrence County,TN,NA,68.19085487077535
75019,Dallas County,TX,43.04635761589404,NA
75062,Dallas County,TX,NA,37.97216699801193
75070,Collin County,TX,91.72185430463577,NA
75093,Collin County,TX,25.82781456953642,NA
75119,Ellis County,TX,57.615894039735096,NA
75243,Dallas County,TX,NA,80.31809145129225
75692,Harrison County,TX,84.10596026490066,NA
75904,Angelina County,TX,NA,34.791252485089466
75951,Jasper County,TX,78.47682119205298,NA
75965,Nacogdoches County,TX,87.74834437086093,NA
75966,Newton County,TX,NA,98.80715705765407
76020,Tarrant County,TX,22.516556291390728,NA
76052,Tarrant County,TX,72.84768211920529,NA
76107,Tarrant County,TX,NA,54.67196819085487
76108,Tarrant County,TX,19.5364238410596,NA
76118,Tarrant County,TX,64.23841059602648,NA
76240,Cooke County,TX,29.13907284768212,NA
76426,Wise County,TX,NA,52.087475149105366
76501,Bell County,TX,NA,26.44135188866799
76667,Limestone County,TX,NA,42.14711729622266
77036,Harris County,TX,NA,45.72564612326044
77053,Fort Bend County,TX,NA,91.05367793240556
77074,Harris County,TX,47.682119205298015,NA
77089,Harris County,TX,26.82119205298013,NA
77351,Polk County,TX,NA,28.031809145129227
77378,Montgomery County,TX,NA,95.2286282306163
77384,Montgomery County,TX,NA,56.66003976143141
77388,Harris County,TX,NA,83.30019880715706
77474,Austin County,TX,100,NA
77583,Brazoria County,TX,59.60264900662252,NA
77705,Jefferson County,TX,NA,58.25049701789264
77706,Jefferson County,TX,NA,73.95626242544732
77840,Brazos County,TX,NA,68.58846918489066
77957,Jackson County,TX,61.920529801324506,NA
77964,Lavaca County,TX,NA,49.70178926441352
78209,Bexar County,TX,NA,37.37574552683897
78212,Bexar County,TX,NA,71.37176938369781
78228,Bexar County,TX,NA,22.266401590457257
78247,Bexar County,TX,48.34437086092716,NA
78251,Bexar County,TX,NA,54.87077534791253
78410,Nueces County,TX,99.33774834437085,NA
78415,Nueces County,TX,NA,79.52286282306163
78501,Hidalgo County,TX,NA,40.75546719681908
78542,Hidalgo County,TX,NA,42.94234592445328
78543,Hidalgo County,TX,NA,90.25844930417495
78602,Bastrop County,TX,NA,52.286282306163024
78617,Travis County,TX,78.1456953642384,NA
78660,Travis County,TX,NA,46.12326043737575
79109,Randall County,TX,36.75496688741722,NA
79336,Hockley County,TX,50.993377483443716,NA
79549,Scurry County,TX,36.092715231788084,NA
79606,Taylor County,TX,NA,61.0337972166998
79924,El Paso County,TX,NA,19.284294234592444
84062,Utah County,UT,55.960264900662246,NA
84117,Salt Lake County,UT,NA,77.13717693836978
84302,Box Elder County,UT,NA,62.22664015904572
84737,Washington County,UT,98.01324503311258,NA
84738,Washington County,UT,NA,74.55268389662028
84780,Washington County,UT,37.74834437086093,NA
05346,Windham County,VT,93.04635761589404,NA
05701,Rutland County,VT,NA,11.530815109343937
20112,Prince William County,VA,65.89403973509934,NA
22191,Prince William County,VA,NA,97.61431411530815
22311,Alexandria city,VA,NA,59.04572564612326
22312,Fairfax County,VA,NA,83.89662027833002
22482,Lancaster County,VA,NA,78.13121272365805
22815,Rockingham County,VA,NA,50.29821073558648
22835,Page County,VA,NA,68.389662027833
23188,James City County,VA,NA,0.7952286282306162
23229,Henrico County,VA,34.105960264900666,NA
23860,Hopewell city,VA,NA,56.063618290258454
24171,Patrick County,VA,77.15231788079471,NA
98023,King County,WA,NA,23.061630218687874
98033,King County,WA,NA,24.85089463220676
98230,Whatcom County,WA,59.27152317880795,NA
98294,Snohomish County,WA,92.05298013245033,NA
98311,Kitsap County,WA,41.05960264900662,NA
98363,Clallam County,WA,NA,35.188866799204774
98366,Kitsap County,WA,NA,89.66202783300199
98465,Pierce County,WA,NA,76.34194831013916
98604,Clark County,WA,NA,53.47912524850894
98632,Cowlitz County,WA,3.642384105960265,NA
98801,Chelan County,WA,29.47019867549669,NA
98908,Yakima County,WA,NA,40.75546719681908
98930,Yakima County,WA,NA,79.72166998011929
99208,Spokane County,WA,NA,9.940357852882704
99354,Benton County,WA,NA,49.90059642147117
26003,Ohio County,WV,NA,18.886679920477135
26041,Marshall County,WV,NA,41.35188866799205
26062,Hancock County,WV,NA,9.145129224652088
26104,Wood County,WV,NA,48.508946322067594
26250,Barbour County,WV,93.37748344370861,NA
26726,Mineral County,WV,NA,54.47316103379721
53097,Ozaukee County,WI,NA,60.039761431411534
53105,Racine County,WI,7.6158940397351,NA
53110,Milwaukee County,WI,NA,27.634194831013914
53122,Waukesha County,WI,83.11258278145695,NA
53140,Kenosha County,WI,NA,81.51093439363817
53150,Waukesha County,WI,NA,84.69184890656064
53181,Kenosha County,WI,71.8543046357616,NA
53186,Waukesha County,WI,NA,28.429423459244536
53216,Milwaukee County,WI,43.377483443708606,NA
53217,Milwaukee County,WI,21.192052980132452,11.928429423459244
53220,Milwaukee County,WI,NA,14.115308151093439
53405,Racine County,WI,19.205298013245034,NA
53511,Rock County,WI,0,NA
53538,Jefferson County,WI,NA,57.057654075546715
53572,Dane County,WI,63.24503311258278,NA
53581,Richland County,WI,NA,98.2107355864811
53821,Crawford County,WI,NA,64.81113320079523
54011,Pierce County,WI,75.82781456953643,NA
54235,Door County,WI,NA,18.48906560636183
54304,Brown County,WI,NA,20.675944333996025
54311,Brown County,WI,21.52317880794702,51.689860834990064
54449,Wood County,WI,83.77483443708608,NA
54501,Oneida County,WI,NA,15.50695825049702
54601,La Crosse County,WI,NA,0
54701,Eau Claire County,WI,18.211920529801322,NA
54840,Burnett County,WI,NA,93.04174950298211
54935,Fond du Lac County,WI,9.602649006622517,NA
54986,Winnebago County,WI,90.39735099337747,NA
