ZipCode,county,state,Youth,Pediatric,Adult,Retirement,Geriatric
36104,Montgomery County,AL,NA,NA,NA,80.57142857142857,NA
36421,Covington County,AL,NA,NA,NA,NA,77.71084337349397
36613,Mobile County,AL,NA,NA,NA,79.71428571428572,NA
36801,Lee County,AL,NA,NA,NA,NA,78.3132530120482
99501,Anchorage Municipality,AK,NA,57.03971119133574,NA,NA,NA
99502,Anchorage Municipality,AK,NA,NA,NA,81.14285714285714,NA
99518,Anchorage Municipality,AK,89.8989898989899,NA,NA,NA,NA
99645,Matanuska-Susitna Borough,AK,24.242424242424242,NA,NA,NA,NA
99801,Juneau City and Borough,AK,NA,NA,NA,91.14285714285715,NA
99835,Sitka City and Borough,AK,NA,NA,NA,82.28571428571428,NA
85007,Maricopa County,AZ,NA,NA,NA,72.57142857142857,NA
85008,Maricopa County,AZ,NA,15.162454873646208,NA,NA,NA
85009,Maricopa County,AZ,NA,NA,NA,30.28571428571429,NA
85012,Maricopa County,AZ,NA,NA,88.3495145631068,NA,NA
85017,Maricopa County,AZ,NA,29.602888086642597,NA,NA,NA
85019,Maricopa County,AZ,NA,70.3971119133574,NA,NA,NA
85027,Maricopa County,AZ,NA,77.9783393501805,NA,NA,NA
85035,Maricopa County,AZ,NA,44.4043321299639,NA,NA,NA
85041,Maricopa County,AZ,NA,50.18050541516246,NA,NA,NA
85122,Pinal County,AZ,8.080808080808081,15.884476534296029,NA,NA,NA
85138,Pinal County,AZ,NA,NA,NA,71.14285714285714,NA
85204,Maricopa County,AZ,NA,40.43321299638989,NA,NA,NA
85205,Maricopa County,AZ,NA,NA,NA,NA,34.33734939759036
85210,Maricopa County,AZ,NA,47.292418772563174,NA,NA,NA
85256,Maricopa County,AZ,95.95959595959596,NA,NA,NA,NA
85283,Maricopa County,AZ,NA,NA,29.85436893203883,NA,NA
85321,Pima County,AZ,NA,82.31046931407943,NA,NA,NA
85335,Maricopa County,AZ,63.63636363636363,NA,NA,NA,NA
85339,Maricopa County,AZ,NA,33.935018050541515,33.49514563106796,NA,NA
85344,La Paz County,AZ,NA,57.761732851985556,NA,NA,NA
85501,Gila County,AZ,NA,72.56317689530685,NA,NA,NA
85550,Graham County,AZ,NA,NA,79.12621359223301,NA,NA
85634,Pima County,AZ,38.38383838383838,68.95306859205776,63.59223300970874,69.71428571428572,NA
85706,Pima County,AZ,0,NA,5.339805825242718,NA,NA
85714,Pima County,AZ,NA,NA,73.7864077669903,NA,NA
85716,Pima County,AZ,NA,NA,28.398058252427184,NA,NA
85735,Pima County,AZ,NA,71.11913357400722,NA,NA,NA
86025,Navajo County,AZ,NA,NA,91.74757281553399,NA,NA
86033,Navajo County,AZ,NA,NA,86.89320388349515,NA,NA
86035,Coconino County,AZ,NA,84.83754512635379,98.54368932038835,NA,NA
86040,Coconino County,AZ,NA,63.537906137184116,NA,NA,NA
86043,Navajo County,AZ,NA,93.50180505415162,NA,NA,NA
86044,San Juan County,AZ,95.45454545454545,38.26714801444043,91.2621359223301,NA,NA
86045,Coconino County,AZ,NA,8.664259927797833,37.62135922330097,NA,NA
86047,Navajo County,AZ,64.14141414141415,36.462093862815884,NA,NA,89.1566265060241
86314,Yavapai County,AZ,72.22222222222221,NA,NA,NA,NA
86503,Apache County,AZ,NA,54.87364620938629,74.51456310679612,NA,NA
86505,Apache County,AZ,NA,55.5956678700361,71.11650485436894,NA,NA
86510,Navajo County,AZ,NA,70.3971119133574,66.74757281553399,NA,NA
86538,Apache County,AZ,NA,69.67509025270758,96.84466019417476,NA,NA
86556,Apache County,AZ,NA,80.14440433212997,NA,NA,NA
71667,Lincoln County,AR,NA,NA,NA,NA,94.57831325301204
71730,Union County,AR,NA,NA,NA,NA,75.90361445783132
71854,Miller County,AR,NA,NA,NA,30.857142857142854,NA
72015,Saline County,AR,34.84848484848485,NA,NA,NA,NA
72086,Lonoke County,AR,NA,NA,75.24271844660194,NA,NA
72104,Hot Spring County,AR,NA,NA,66.01941747572816,NA,NA
72114,Pulaski County,AR,NA,NA,82.52427184466019,NA,NA
72116,Pulaski County,AR,NA,NA,78.64077669902912,NA,NA
72921,Crawford County,AR,NA,NA,NA,83.42857142857143,NA
90077,Los Angeles County,CA,NA,NA,NA,95.71428571428572,NA
90266,Los Angeles County,CA,60.1010101010101,NA,NA,NA,NA
90815,Los Angeles County,CA,NA,NA,NA,46.57142857142857,NA
91030,Los Angeles County,CA,NA,NA,NA,NA,88.55421686746988
91301,Los Angeles County,CA,NA,97.11191335740072,NA,NA,NA
91304,Los Angeles County,CA,NA,64.25992779783394,NA,NA,NA
91387,Los Angeles County,CA,NA,NA,NA,48,NA
91711,Los Angeles County,CA,NA,NA,NA,NA,30.72289156626506
91792,Los Angeles County,CA,NA,79.06137184115524,NA,NA,NA
92020,San Diego County,CA,51.010101010101,NA,NA,NA,NA
92057,San Diego County,CA,NA,NA,NA,NA,46.98795180722892
92109,San Diego County,CA,NA,NA,NA,NA,65.06024096385542
92114,San Diego County,CA,NA,NA,43.689320388349515,NA,NA
92128,San Diego County,CA,NA,NA,NA,56.00000000000001,NA
92346,San Bernardino County,CA,NA,NA,NA,53.714285714285715,NA
92376,San Bernardino County,CA,NA,NA,16.2621359223301,NA,NA
92507,Riverside County,CA,NA,NA,NA,74.57142857142857,NA
92530,Riverside County,CA,NA,NA,NA,63.42857142857142,NA
92571,Riverside County,CA,NA,80.86642599277978,77.42718446601941,NA,NA
92618,Orange County,CA,88.38383838383838,NA,NA,NA,NA
92620,Orange County,CA,NA,NA,55.09708737864077,NA,NA
92647,Orange County,CA,NA,NA,33.737864077669904,NA,NA
92705,Orange County,CA,NA,NA,NA,60,NA
92708,Orange County,CA,62.62626262626263,NA,NA,NA,NA
92882,Riverside County,CA,NA,NA,NA,44.857142857142854,NA
93305,Kern County,CA,NA,66.4259927797834,NA,96.85714285714285,NA
93306,Kern County,CA,NA,NA,32.76699029126214,NA,NA
93405,San Luis Obispo County,CA,NA,92.7797833935018,NA,NA,NA
93434,Santa Barbara County,CA,NA,NA,97.81553398058253,99.71428571428571,NA
93436,Santa Barbara County,CA,NA,21.660649819494584,NA,NA,NA
93458,Santa Barbara County,CA,NA,NA,NA,36.57142857142857,NA
93705,Fresno County,CA,NA,NA,44.1747572815534,NA,NA
93727,Fresno County,CA,NA,NA,NA,28.57142857142857,NA
94002,San Mateo County,CA,NA,NA,NA,NA,86.14457831325302
94010,San Mateo County,CA,NA,NA,NA,41.42857142857143,NA
94014,San Mateo County,CA,NA,NA,57.52427184466019,NA,NA
94019,San Mateo County,CA,NA,84.11552346570397,NA,NA,NA
94025,San Mateo County,CA,NA,NA,NA,NA,36.144578313253014
94027,San Mateo County,CA,NA,NA,NA,98,NA
94040,Santa Clara County,CA,NA,NA,81.79611650485437,NA,NA
94044,San Mateo County,CA,NA,NA,NA,84,NA
94061,San Mateo County,CA,NA,NA,84.70873786407766,NA,NA
94063,San Mateo County,CA,NA,32.49097472924188,79.36893203883496,NA,74.09638554216868
94066,San Mateo County,CA,NA,NA,55.8252427184466,16.28571428571429,NA
94080,San Mateo County,CA,NA,NA,72.57281553398059,NA,NA
94086,Santa Clara County,CA,NA,NA,92.71844660194175,NA,NA
94102,San Francisco County,CA,40.909090909090914,NA,14.320388349514563,12.571428571428573,NA
94103,San Francisco County,CA,NA,NA,21.844660194174757,NA,NA
94108,San Francisco County,CA,NA,NA,NA,93.14285714285714,NA
94109,San Francisco County,CA,78.78787878787878,NA,NA,NA,NA
94110,San Francisco County,CA,NA,NA,NA,14.285714285714285,NA
94112,San Francisco County,CA,NA,NA,NA,11.714285714285715,NA
94121,San Francisco County,CA,NA,NA,NA,NA,21.084337349397593
94124,San Francisco County,CA,45.95959595959596,NA,NA,NA,NA
94130,San Francisco County,CA,NA,NA,NA,100,NA
94134,San Francisco County,CA,NA,NA,NA,31.428571428571427,NA
94303,San Mateo County,CA,NA,NA,NA,NA,34.93975903614458
94513,Contra Costa County,CA,NA,NA,NA,NA,40.36144578313253
94530,Contra Costa County,CA,NA,NA,NA,NA,54.81927710843374
94553,Contra Costa County,CA,NA,NA,NA,68,NA
94560,Alameda County,CA,NA,NA,NA,NA,51.80722891566265
94574,Napa County,CA,NA,NA,NA,NA,80.12048192771084
94601,Alameda County,CA,NA,NA,NA,NA,66.26506024096386
94611,Alameda County,CA,NA,NA,NA,NA,43.373493975903614
94806,Contra Costa County,CA,NA,NA,45.38834951456311,NA,NA
94947,Marin County,CA,NA,NA,NA,56.85714285714286,NA
95035,Santa Clara County,CA,NA,NA,NA,NA,32.53012048192771
95126,Santa Clara County,CA,NA,NA,71.84466019417476,NA,NA
95207,San Joaquin County,CA,NA,NA,NA,36,NA
95304,San Joaquin County,CA,92.92929292929293,NA,NA,NA,NA
95351,Stanislaus County,CA,NA,NA,NA,76.28571428571429,NA
95376,San Joaquin County,CA,67.17171717171718,NA,NA,NA,NA
95448,Sonoma County,CA,NA,NA,NA,53.42857142857142,NA
95482,Mendocino County,CA,NA,NA,NA,29.142857142857142,NA
95621,Sacramento County,CA,NA,NA,NA,44.57142857142857,NA
95623,El Dorado County,CA,NA,NA,98.05825242718447,NA,NA
95624,Sacramento County,CA,NA,NA,NA,28.857142857142858,NA
95670,Sacramento County,CA,NA,NA,NA,NA,35.54216867469879
95687,Solano County,CA,NA,85.92057761732852,NA,NA,NA
95688,Solano County,CA,NA,NA,72.81553398058253,NA,NA
95815,Sacramento County,CA,NA,NA,NA,67.42857142857143,NA
95826,Sacramento County,CA,NA,90.97472924187726,NA,NA,NA
95832,Sacramento County,CA,NA,NA,NA,92.57142857142857,NA
95841,Sacramento County,CA,NA,NA,NA,85.42857142857143,NA
80007,Jefferson County,CO,85.85858585858585,NA,NA,NA,NA
80014,Arapahoe County,CO,32.82828282828283,NA,NA,NA,NA
80016,Arapahoe County,CO,NA,85.5595667870036,NA,NA,NA
80017,Arapahoe County,CO,NA,NA,NA,NA,90.96385542168674
80020,Broomfield County,CO,19.19191919191919,NA,NA,NA,NA
80023,Broomfield County,CO,55.55555555555556,NA,NA,NA,NA
80121,Arapahoe County,CO,NA,NA,NA,NA,63.25301204819277
80202,Denver County,CO,NA,NA,61.89320388349514,NA,NA
80204,Denver County,CO,NA,40.07220216606498,NA,NA,NA
80205,Denver County,CO,NA,59.205776173285194,22.572815533980584,NA,NA
80207,Denver County,CO,NA,NA,54.36893203883495,NA,NA
80219,Denver County,CO,NA,28.158844765342963,NA,NA,NA
80221,Adams County,CO,30.303030303030305,NA,NA,NA,NA
80227,Jefferson County,CO,NA,61.371841155234655,NA,NA,NA
80236,Denver County,CO,NA,73.28519855595668,NA,NA,NA
80239,Denver County,CO,27.27272727272727,NA,NA,58.857142857142854,NA
80249,Denver County,CO,NA,NA,NA,78.28571428571428,NA
80260,Adams County,CO,8.585858585858585,NA,NA,NA,NA
80634,Weld County,CO,NA,NA,25.485436893203882,NA,NA
80817,El Paso County,CO,NA,NA,62.37864077669902,NA,NA
81201,Chaffee County,CO,NA,NA,NA,NA,93.37349397590361
06053,Hartford County,CT,27.77777777777778,NA,NA,29.428571428571427,NA
06066,Tolland County,CT,NA,NA,27.9126213592233,NA,NA
06108,Hartford County,CT,NA,NA,41.50485436893204,NA,NA
06515,New Haven County,CT,NA,NA,69.90291262135922,NA,NA
06525,New Haven County,CT,86.86868686868688,NA,NA,NA,NA
06831,Fairfield County,CT,NA,NA,84.46601941747572,NA,NA
19701,New Castle County,DE,NA,NA,38.592233009708735,NA,NA
32073,Clay County,FL,NA,NA,35.67961165048544,NA,NA
32092,St. Johns County,FL,53.535353535353536,NA,NA,NA,NA
32163,Sumter County,FL,NA,NA,NA,41.14285714285714,NA
32583,Santa Rosa County,FL,NA,61.371841155234655,NA,NA,NA
32609,Alachua County,FL,NA,NA,32.28155339805826,NA,NA
32656,Clay County,FL,NA,NA,NA,66.57142857142857,NA
32746,Seminole County,FL,NA,NA,NA,51.142857142857146,NA
32778,Lake County,FL,51.515151515151516,NA,NA,NA,NA
32807,Orange County,FL,NA,NA,NA,NA,48.795180722891565
32828,Orange County,FL,NA,NA,NA,NA,73.49397590361446
33015,Miami-Dade County,FL,NA,NA,61.40776699029126,NA,NA
33020,Broward County,FL,NA,NA,70.87378640776699,NA,NA
33023,Broward County,FL,NA,NA,NA,52.57142857142857,NA
33027,Broward County,FL,NA,NA,NA,75.42857142857143,NA
33032,Miami-Dade County,FL,NA,NA,NA,NA,72.28915662650603
33055,Miami-Dade County,FL,33.33333333333333,NA,NA,NA,NA
33062,Broward County,FL,NA,NA,NA,32.857142857142854,NA
33065,Broward County,FL,NA,NA,NA,57.714285714285715,NA
33125,Miami-Dade County,FL,NA,NA,NA,NA,19.27710843373494
33133,Miami-Dade County,FL,NA,NA,NA,47.42857142857143,NA
33135,Miami-Dade County,FL,NA,NA,NA,NA,66.86746987951807
33137,Miami-Dade County,FL,NA,NA,93.93203883495146,NA,NA
33142,Miami-Dade County,FL,NA,NA,30.339805825242717,NA,NA
33155,Miami-Dade County,FL,NA,NA,80.33980582524272,NA,22.89156626506024
33161,Miami-Dade County,FL,NA,NA,NA,55.714285714285715,NA
33165,Miami-Dade County,FL,NA,NA,NA,42.857142857142854,NA
33178,Miami-Dade County,FL,NA,NA,78.39805825242718,NA,NA
33322,Broward County,FL,NA,NA,NA,NA,21.686746987951807
33418,Palm Beach County,FL,NA,NA,NA,33.714285714285715,NA
33444,Palm Beach County,FL,NA,NA,NA,NA,91.56626506024097
33809,Polk County,FL,NA,NA,NA,58.57142857142858,NA
34210,Manatee County,FL,NA,NA,88.59223300970875,NA,NA
34428,Citrus County,FL,NA,NA,86.89320388349515,NA,NA
34453,Citrus County,FL,NA,NA,77.66990291262135,NA,NA
34711,Lake County,FL,NA,NA,34.22330097087379,NA,NA
34758,Osceola County,FL,NA,NA,NA,57.42857142857143,NA
34997,Martin County,FL,NA,30.685920577617328,NA,NA,NA
30016,Newton County,GA,20.707070707070706,NA,22.815533980582526,NA,NA
30032,DeKalb County,GA,NA,NA,22.0873786407767,NA,NA
30180,Carroll County,GA,17.67676767676768,NA,NA,NA,NA
30217,Heard County,GA,NA,NA,89.80582524271846,NA,NA
30308,Fulton County,GA,NA,NA,NA,NA,95.78313253012048
30312,Fulton County,GA,NA,NA,NA,59.42857142857143,NA
30331,Fulton County,GA,NA,NA,74.27184466019418,NA,NA
30344,Fulton County,GA,NA,NA,55.582524271844655,NA,NA
30442,Jenkins County,GA,NA,90.61371841155234,NA,NA,NA
30906,Richmond County,GA,NA,NA,NA,37.42857142857143,NA
96786,Honolulu County,HI,NA,NA,NA,52.28571428571429,NA
96789,Honolulu County,HI,NA,NA,63.10679611650486,NA,NA
96813,Honolulu County,HI,NA,NA,NA,42.57142857142857,NA
96817,Honolulu County,HI,NA,31.40794223826715,NA,NA,39.1566265060241
96819,Honolulu County,HI,NA,40.43321299638989,NA,NA,NA
96821,Honolulu County,HI,NA,NA,NA,75.71428571428571,NA
96822,Honolulu County,HI,NA,NA,NA,NA,18.072289156626507
83338,Jerome County,ID,47.97979797979798,NA,NA,NA,NA
83646,Ada County,ID,NA,NA,20.87378640776699,NA,NA
83702,Ada County,ID,50,NA,NA,NA,NA
60044,Lake County,IL,91.41414141414141,NA,NA,NA,NA
60053,Cook County,IL,NA,NA,NA,40.57142857142857,NA
60091,Cook County,IL,NA,NA,76.45631067961165,NA,NA
60101,DuPage County,IL,62.121212121212125,NA,39.07766990291262,NA,NA
60126,DuPage County,IL,17.67676767676768,NA,17.718446601941746,NA,NA
60134,Kane County,IL,NA,NA,NA,49.142857142857146,NA
60137,DuPage County,IL,NA,NA,45.63106796116505,NA,NA
60140,Kane County,IL,NA,NA,NA,72.85714285714285,NA
60169,Cook County,IL,NA,NA,NA,60.57142857142858,NA
60177,Kane County,IL,NA,NA,NA,60.857142857142854,NA
60178,DeKalb County,IL,NA,NA,NA,55.42857142857143,NA
60201,Cook County,IL,NA,NA,NA,65.14285714285715,NA
60402,Cook County,IL,26.767676767676768,NA,NA,NA,NA
60409,Cook County,IL,NA,NA,87.37864077669903,87.14285714285714,NA
60410,Will County,IL,50.505050505050505,NA,NA,NA,NA
60417,Will County,IL,82.82828282828282,NA,NA,45.14285714285714,NA
60423,Will County,IL,NA,NA,51.94174757281553,NA,NA
60438,Cook County,IL,NA,NA,88.10679611650485,NA,NA
60439,Cook County,IL,63.13131313131313,NA,NA,NA,NA
60445,Cook County,IL,NA,91.69675090252709,NA,NA,NA
60448,Will County,IL,NA,NA,85.67961165048543,NA,NA
60462,Cook County,IL,NA,NA,NA,9.714285714285714,NA
60480,Cook County,IL,NA,NA,94.66019417475728,NA,NA
60515,DuPage County,IL,NA,NA,51.45631067961165,NA,NA
60542,Kane County,IL,79.7979797979798,NA,NA,NA,NA
60546,Cook County,IL,NA,NA,NA,76.85714285714286,NA
60561,DuPage County,IL,NA,NA,NA,37.714285714285715,NA
60564,Will County,IL,NA,NA,49.271844660194176,NA,NA
60608,Cook County,IL,NA,NA,19.41747572815534,NA,NA
60609,Cook County,IL,NA,NA,18.446601941747574,NA,NA
60617,Cook County,IL,19.19191919191919,NA,NA,NA,NA
60618,Cook County,IL,NA,76.17328519855594,NA,NA,NA
60622,Cook County,IL,NA,NA,NA,52.85714285714286,NA
60626,Cook County,IL,NA,NA,60.922330097087375,NA,NA
60628,Cook County,IL,25.252525252525253,96.38989169675091,NA,NA,NA
60632,Cook County,IL,NA,76.89530685920577,NA,NA,NA
60641,Cook County,IL,NA,NA,23.54368932038835,NA,NA
60651,Cook County,IL,NA,NA,NA,NA,60.24096385542169
60901,Kankakee County,IL,NA,NA,26.699029126213592,NA,NA
61021,Lee County,IL,NA,NA,71.60194174757282,NA,4.216867469879518
61032,Stephenson County,IL,NA,NA,74.75728155339806,NA,74.69879518072288
61080,Winnebago County,IL,NA,NA,NA,85.14285714285714,NA
61107,Winnebago County,IL,65.65656565656566,NA,NA,NA,NA
61801,Champaign County,IL,NA,NA,92.47572815533981,NA,57.831325301204814
61820,Champaign County,IL,NA,NA,NA,80.85714285714286,NA
61853,Champaign County,IL,NA,NA,NA,91.71428571428571,41.566265060240966
61856,Piatt County,IL,NA,NA,NA,NA,83.13253012048193
62040,Madison County,IL,53.535353535353536,NA,NA,NA,NA
62557,Christian County,IL,NA,97.47292418772562,NA,NA,NA
46222,Marion County,IN,NA,NA,NA,33.42857142857143,NA
46235,Marion County,IN,NA,NA,NA,73.14285714285714,NA
46254,Marion County,IN,NA,NA,33.980582524271846,35.42857142857142,NA
46383,Porter County,IN,NA,NA,14.077669902912621,NA,NA
46514,Elkhart County,IN,NA,NA,NA,25.71428571428571,NA
47025,Dearborn County,IN,48.484848484848484,NA,NA,NA,NA
47346,Wayne County,IN,NA,NA,100,NA,NA
47906,Tippecanoe County,IN,NA,NA,NA,32.57142857142858,NA
50265,Polk County,IA,NA,89.16967509025271,NA,NA,NA
50313,Polk County,IA,NA,NA,50.970873786407765,NA,NA
50315,Polk County,IA,NA,39.71119133574007,15.776699029126215,NA,NA
50316,Polk County,IA,NA,NA,52.18446601941748,NA,NA
51501,Pottawattamie County,IA,12.121212121212121,NA,NA,NA,NA
51503,Pottawattamie County,IA,NA,NA,NA,30.571428571428573,NA
52057,Delaware County,IA,NA,NA,87.86407766990291,NA,NA
52136,Howard County,IA,NA,NA,NA,80,NA
52246,Johnson County,IA,NA,87.72563176895306,NA,NA,NA
52317,Johnson County,IA,NA,NA,NA,76.57142857142857,NA
52402,Linn County,IA,NA,NA,30.8252427184466,NA,NA
52404,Linn County,IA,NA,NA,15.53398058252427,NA,NA
52641,Henry County,IA,NA,NA,NA,62.57142857142857,NA
52722,Scott County,IA,NA,NA,32.5242718446602,NA,NA
66101,Wyandotte County,KS,NA,99.27797833935018,NA,NA,NA
66604,Shawnee County,KS,NA,NA,NA,48.57142857142857,NA
40150,Bullitt County,KY,NA,NA,93.20388349514563,NA,NA
40291,Jefferson County,KY,NA,NA,NA,22.285714285714285,NA
40330,Mercer County,KY,NA,NA,NA,59.14285714285714,NA
40342,Anderson County,KY,NA,NA,NA,62.28571428571429,NA
40509,Fayette County,KY,41.91919191919192,NA,NA,NA,NA
41011,Kenton County,KY,60.60606060606061,NA,NA,NA,NA
41031,Harrison County,KY,NA,NA,64.56310679611651,NA,NA
41074,Campbell County,KY,86.36363636363636,NA,NA,NA,NA
41572,Pike County,KY,NA,97.47292418772562,NA,NA,NA
42303,Daviess County,KY,NA,NA,NA,23.142857142857142,NA
42503,Pulaski County,KY,NA,NA,54.61165048543689,NA,NA
70072,Jefferson Parish,LA,3.535353535353535,NA,NA,NA,NA
70114,Orleans Parish,LA,NA,NA,NA,40.285714285714285,NA
70118,Orleans Parish,LA,NA,NA,NA,23.42857142857143,NA
70126,Orleans Parish,LA,NA,12.996389891696749,NA,NA,NA
70128,Orleans Parish,LA,56.56565656565656,NA,NA,38.285714285714285,NA
70344,Terrebonne Parish,LA,NA,94.22382671480143,NA,NA,NA
70363,Terrebonne Parish,LA,NA,3.6101083032490973,NA,NA,NA
70364,Terrebonne Parish,LA,NA,NA,NA,94,NA
70420,St. Tammany Parish,LA,NA,NA,NA,NA,79.51807228915662
70435,St. Tammany Parish,LA,42.42424242424242,NA,NA,NA,NA
70711,Livingston Parish,LA,NA,NA,NA,86.85714285714286,NA
70737,Ascension Parish,LA,NA,74.0072202166065,NA,NA,NA
70769,Ascension Parish,LA,NA,63.898916967509024,NA,NA,NA
70808,East Baton Rouge Parish,LA,NA,NA,56.310679611650485,NA,NA
71201,Ouachita Parish,LA,NA,NA,46.359223300970875,NA,NA
04083,York County,ME,NA,NA,85.92233009708737,NA,NA
04345,Kennebec County,ME,NA,NA,NA,85.71428571428571,NA
04401,Penobscot County,ME,NA,NA,NA,3.428571428571429,NA
04578,Lincoln County,ME,NA,NA,NA,93.71428571428572,NA
04769,Aroostook County,ME,NA,NA,NA,52,NA
20816,Montgomery County,MD,NA,NA,NA,94.28571428571428,NA
21085,Harford County,MD,NA,NA,77.18446601941747,NA,NA
21093,Baltimore County,MD,NA,NA,NA,NA,49.39759036144578
21210,Baltimore city,MD,NA,NA,91.01941747572816,NA,NA
21217,Baltimore city,MD,NA,NA,64.07766990291263,NA,NA
21222,Baltimore County,MD,NA,NA,NA,NA,9.036144578313253
21229,Baltimore city,MD,NA,NA,29.36893203883495,NA,NA
21234,Baltimore County,MD,NA,NA,25.970873786407765,NA,NA
21617,Queen Anne's County,MD,NA,NA,92.23300970873787,NA,NA
01005,Worcester County,MA,NA,NA,76.94174757281553,NA,NA
01020,Hampden County,MA,NA,NA,7.281553398058252,NA,NA
01040,Hampden County,MA,NA,NA,0.24271844660194172,NA,NA
01106,Hampden County,MA,NA,89.53068592057761,NA,NA,NA
01107,Hampden County,MA,NA,19.494584837545126,NA,NA,NA
01108,Hampden County,MA,NA,NA,3.640776699029126,NA,NA
01109,Hampden County,MA,NA,29.96389891696751,4.611650485436893,66,NA
01119,Hampden County,MA,NA,52.34657039711191,NA,NA,NA
01450,Middlesex County,MA,NA,NA,NA,NA,89.7590361445783
01534,Worcester County,MA,NA,NA,78.88349514563106,NA,NA
01545,Worcester County,MA,16.666666666666664,NA,NA,NA,NA
01566,Worcester County,MA,NA,NA,68.44660194174757,NA,NA
01568,Worcester County,MA,87.37373737373737,NA,NA,NA,NA
01605,Worcester County,MA,NA,NA,NA,1.1428571428571428,NA
01607,Worcester County,MA,NA,NA,23.300970873786408,NA,NA
01730,Middlesex County,MA,NA,NA,NA,59.42857142857143,NA
01775,Middlesex County,MA,NA,NA,90.53398058252428,NA,NA
01801,Middlesex County,MA,NA,NA,NA,2,NA
01803,Middlesex County,MA,NA,NA,NA,8.285714285714285,3.614457831325301
01821,Middlesex County,MA,NA,NA,NA,NA,15.66265060240964
01841,Essex County,MA,NA,1.083032490974729,NA,NA,NA
01844,Essex County,MA,NA,NA,NA,7.7142857142857135,NA
01876,Middlesex County,MA,NA,NA,NA,NA,13.855421686746988
01902,Essex County,MA,NA,NA,0.9708737864077669,NA,NA
01923,Essex County,MA,NA,NA,NA,NA,3.0120481927710845
01940,Essex County,MA,NA,NA,NA,82.57142857142857,NA
01960,Essex County,MA,NA,NA,10.679611650485436,NA,NA
02021,Norfolk County,MA,84.84848484848484,NA,NA,NA,13.253012048192772
02025,Norfolk County,MA,NA,NA,NA,84.57142857142857,NA
02026,Norfolk County,MA,NA,NA,8.495145631067961,NA,NA
02050,Plymouth County,MA,NA,NA,NA,27.42857142857143,NA
02052,Norfolk County,MA,NA,NA,70.3883495145631,NA,NA
02111,Suffolk County,MA,NA,NA,91.50485436893204,NA,NA
02114,Suffolk County,MA,NA,NA,28.155339805825243,NA,NA
02116,Suffolk County,MA,NA,NA,NA,26.571428571428573,NA
02118,Suffolk County,MA,90.9090909090909,20.938628158844764,40.77669902912621,NA,8.433734939759036
02119,Suffolk County,MA,NA,6.137184115523466,0.48543689320388345,0,NA
02120,Suffolk County,MA,6.565656565656567,NA,10.194174757281553,NA,NA
02121,Suffolk County,MA,NA,3.9711191335740073,41.019417475728154,NA,NA
02122,Suffolk County,MA,NA,NA,36.650485436893206,NA,NA
02124,Suffolk County,MA,NA,NA,2.1844660194174756,NA,NA
02125,Suffolk County,MA,NA,52.34657039711191,1.4563106796116505,NA,NA
02126,Suffolk County,MA,NA,16.60649819494585,NA,NA,NA
02127,Suffolk County,MA,59.59595959595959,18.4115523465704,NA,NA,NA
02128,Suffolk County,MA,NA,45.12635379061371,1.2135922330097086,3.1428571428571432,NA
02129,Suffolk County,MA,39.8989898989899,48.375451263537904,NA,NA,NA
02130,Suffolk County,MA,NA,6.859205776173286,NA,NA,NA
02131,Suffolk County,MA,NA,NA,19.174757281553397,8.857142857142856,NA
02132,Suffolk County,MA,NA,NA,21.11650485436893,NA,NA
02134,Suffolk County,MA,NA,NA,NA,87.71428571428571,NA
02135,Suffolk County,MA,37.37373737373738,NA,NA,NA,NA
02136,Suffolk County,MA,NA,13.357400722021662,40.04854368932039,9.142857142857142,NA
02138,Middlesex County,MA,NA,NA,21.35922330097087,NA,NA
02139,Middlesex County,MA,NA,27.436823104693143,5.097087378640777,NA,NA
02140,Middlesex County,MA,NA,NA,NA,17.142857142857142,NA
02141,Middlesex County,MA,NA,NA,69.41747572815534,NA,NA
02143,Middlesex County,MA,NA,29.24187725631769,9.951456310679612,16,NA
02145,Middlesex County,MA,NA,21.299638989169676,34.95145631067961,15.428571428571427,16.867469879518072
02148,Middlesex County,MA,NA,34.29602888086642,35.92233009708738,NA,15.060240963855422
02149,Middlesex County,MA,NA,32.851985559566785,0.7281553398058253,NA,62.65060240963856
02150,Suffolk County,MA,NA,9.386281588447654,NA,NA,37.34939759036144
02151,Suffolk County,MA,46.96969696969697,NA,NA,3.7142857142857144,NA
02155,Middlesex County,MA,3.0303030303030303,NA,13.106796116504855,NA,0.6024096385542169
02169,Norfolk County,MA,NA,NA,NA,0.8571428571428572,NA
02170,Norfolk County,MA,66.66666666666666,NA,NA,NA,NA
02176,Middlesex County,MA,NA,NA,13.834951456310678,NA,NA
02186,Norfolk County,MA,NA,79.06137184115524,24.271844660194176,NA,NA
02301,Plymouth County,MA,NA,NA,0,NA,NA
02302,Plymouth County,MA,NA,32.12996389891697,NA,4.571428571428571,NA
02356,Bristol County,MA,76.76767676767676,NA,NA,NA,NA
02360,Plymouth County,MA,NA,NA,NA,0.2857142857142857,NA
02368,Norfolk County,MA,46.464646464646464,NA,23.78640776699029,9.428571428571429,NA
02420,Middlesex County,MA,NA,NA,NA,89.42857142857143,NA
02421,Middlesex County,MA,NA,NA,NA,46,NA
02452,Middlesex County,MA,NA,NA,NA,46.85714285714286,NA
02459,Middlesex County,MA,NA,NA,56.067961165048544,NA,NA
02476,Middlesex County,MA,NA,NA,NA,30,NA
02493,Middlesex County,MA,NA,NA,72.81553398058253,NA,NA
02703,Bristol County,MA,NA,NA,NA,1.7142857142857144,NA
02745,Bristol County,MA,NA,NA,4.368932038834951,NA,NA
02790,Bristol County,MA,NA,NA,NA,28.000000000000004,NA
48060,St. Clair County,MI,NA,NA,NA,NA,28.915662650602407
48080,Macomb County,MI,NA,NA,NA,NA,68.07228915662651
48098,Oakland County,MI,NA,NA,NA,43.714285714285715,NA
48103,Washtenaw County,MI,29.292929292929294,NA,NA,NA,NA
48104,Washtenaw County,MI,NA,NA,NA,42,NA
48105,Washtenaw County,MI,42.92929292929293,NA,NA,56.57142857142857,NA
48111,Wayne County,MI,NA,51.985559566786996,12.864077669902912,NA,NA
48127,Wayne County,MI,22.727272727272727,NA,NA,NA,NA
48141,Wayne County,MI,NA,NA,15.291262135922329,NA,NA
48152,Wayne County,MI,NA,NA,NA,10.285714285714285,NA
48170,Wayne County,MI,NA,NA,NA,6.857142857142858,NA
48180,Wayne County,MI,NA,NA,NA,4,NA
48185,Wayne County,MI,10.606060606060606,NA,NA,12,NA
48187,Wayne County,MI,NA,NA,NA,5.714285714285714,NA
48197,Washtenaw County,MI,NA,NA,24.75728155339806,NA,NA
48207,Wayne County,MI,NA,NA,NA,42.285714285714285,NA
48215,Wayne County,MI,NA,NA,NA,NA,81.32530120481928
48230,Wayne County,MI,NA,NA,NA,73.42857142857143,NA
48238,Wayne County,MI,NA,NA,NA,21.428571428571427,NA
48309,Oakland County,MI,NA,NA,44.66019417475729,NA,NA
48315,Macomb County,MI,NA,NA,51.213592233009706,NA,NA
48374,Oakland County,MI,NA,NA,NA,97.42857142857143,NA
48390,Oakland County,MI,NA,NA,NA,43.42857142857143,NA
48423,Genesee County,MI,NA,NA,NA,24.571428571428573,NA
48457,Genesee County,MI,NA,NA,NA,90,NA
48625,Clare County,MI,NA,NA,NA,24.857142857142858,NA
48629,Roscommon County,MI,NA,NA,NA,72,NA
48708,Bay County,MI,66.16161616161617,NA,NA,NA,NA
48864,Ingham County,MI,NA,NA,NA,NA,67.46987951807229
49080,Allegan County,MI,NA,NA,NA,50,NA
49424,Ottawa County,MI,NA,NA,NA,18.857142857142858,16.867469879518072
49426,Ottawa County,MI,NA,NA,NA,NA,33.734939759036145
49505,Kent County,MI,NA,NA,35.19417475728155,NA,NA
49508,Kent County,MI,NA,NA,38.10679611650485,NA,NA
49849,Marquette County,MI,NA,NA,NA,86.28571428571429,NA
49855,Marquette County,MI,NA,NA,NA,57.99999999999999,NA
49931,Houghton County,MI,NA,NA,86.6504854368932,NA,NA
55021,Rice County,MN,61.61616161616161,NA,NA,NA,NA
55066,Goodhue County,MN,NA,NA,NA,NA,18.67469879518072
55068,Dakota County,MN,NA,98.55595667870037,NA,84.28571428571429,NA
55106,Ramsey County,MN,NA,9.747292418772563,NA,NA,NA
55113,Ramsey County,MN,24.747474747474747,NA,NA,NA,NA
55123,Dakota County,MN,NA,NA,NA,80.28571428571428,NA
55303,Anoka County,MN,NA,NA,28.640776699029125,NA,NA
55311,Hennepin County,MN,NA,NA,NA,70.28571428571428,NA
55334,Sibley County,MN,NA,NA,NA,99.42857142857143,NA
55337,Dakota County,MN,NA,NA,44.90291262135923,NA,NA
55347,Hennepin County,MN,44.44444444444444,NA,NA,NA,NA
55369,Hennepin County,MN,NA,54.51263537906137,NA,NA,NA
55391,Hennepin County,MN,77.27272727272727,NA,NA,NA,NA
55404,Hennepin County,MN,NA,30.324909747292416,16.74757281553398,NA,NA
55405,Hennepin County,MN,NA,65.34296028880865,48.30097087378641,NA,NA
55407,Hennepin County,MN,NA,NA,11.650485436893204,10.571428571428571,NA
55408,Hennepin County,MN,NA,37.18411552346571,NA,49.42857142857143,NA
55411,Hennepin County,MN,NA,7.9422382671480145,NA,NA,85.54216867469879
55412,Hennepin County,MN,64.64646464646465,35.74007220216607,NA,NA,NA
55413,Hennepin County,MN,NA,NA,53.15533980582524,81.42857142857143,NA
55414,Hennepin County,MN,NA,NA,83.98058252427184,NA,NA
55417,Hennepin County,MN,NA,46.931407942238266,82.76699029126213,NA,NA
55418,Hennepin County,MN,48.98989898989899,NA,NA,NA,87.34939759036145
55419,Hennepin County,MN,NA,NA,NA,64.85714285714286,NA
55421,Anoka County,MN,NA,NA,NA,NA,51.204819277108435
55423,Hennepin County,MN,28.78787878787879,NA,31.55339805825243,NA,NA
55425,Hennepin County,MN,NA,93.14079422382672,NA,NA,NA
55428,Hennepin County,MN,NA,NA,31.06796116504854,NA,NA
55430,Hennepin County,MN,NA,57.761732851985556,29.61165048543689,NA,NA
55432,Anoka County,MN,NA,86.64259927797833,NA,NA,69.87951807228916
55443,Hennepin County,MN,NA,NA,43.203883495145625,NA,NA
55447,Hennepin County,MN,NA,87.72563176895306,NA,NA,NA
55449,Anoka County,MN,NA,NA,NA,NA,92.7710843373494
55792,St. Louis County,MN,NA,58.48375451263538,47.57281553398058,NA,NA
55802,St. Louis County,MN,NA,NA,81.55339805825243,96.28571428571429,NA
55803,St. Louis County,MN,NA,NA,75.72815533980582,NA,NA
55804,St. Louis County,MN,NA,NA,NA,NA,33.13253012048193
55805,St. Louis County,MN,82.32323232323232,NA,NA,NA,NA
55811,St. Louis County,MN,NA,NA,70.63106796116504,NA,NA
55812,St. Louis County,MN,NA,NA,NA,90.57142857142857,NA
55901,Olmsted County,MN,23.737373737373737,NA,67.71844660194175,81.71428571428572,NA
55902,Olmsted County,MN,NA,NA,NA,NA,71.08433734939759
55904,Olmsted County,MN,NA,NA,47.81553398058252,NA,NA
55906,Olmsted County,MN,NA,NA,NA,70.57142857142857,NA
55912,Mower County,MN,15.656565656565657,NA,NA,53.142857142857146,58.43373493975904
55921,Houston County,MN,NA,NA,NA,86.57142857142858,NA
55944,Dodge County,MN,NA,NA,90.29126213592234,NA,NA
55947,Houston County,MN,NA,NA,85.19417475728154,65.71428571428571,NA
55987,Winona County,MN,NA,NA,NA,65.42857142857143,NA
56007,Freeborn County,MN,NA,NA,71.35922330097088,74,59.63855421686747
56031,Martin County,MN,NA,66.4259927797834,58.009708737864074,61.71428571428571,55.42168674698795
56071,Scott County,MN,72.72727272727273,NA,NA,NA,NA
56073,Brown County,MN,69.1919191919192,NA,NA,NA,NA
56082,Nicollet County,MN,83.33333333333334,NA,NA,NA,NA
56097,Faribault County,MN,NA,95.66787003610109,NA,NA,NA
56201,Kandiyohi County,MN,NA,NA,56.55339805825243,NA,NA
56258,Lyon County,MN,NA,92.4187725631769,NA,87.42857142857143,84.33734939759037
56267,Stevens County,MN,NA,84.83754512635379,NA,NA,53.6144578313253
56303,Stearns County,MN,NA,NA,42.961165048543684,NA,NA
56304,Sherburne County,MN,NA,NA,68.20388349514563,NA,NA
56352,Stearns County,MN,NA,NA,NA,NA,80.72289156626506
56377,Stearns County,MN,NA,NA,81.06796116504854,NA,NA
56470,Hubbard County,MN,NA,NA,74.75728155339806,NA,48.19277108433735
56473,Cass County,MN,NA,NA,99.51456310679612,NA,NA
56484,Cass County,MN,NA,NA,NA,NA,92.16867469879519
56501,Becker County,MN,NA,NA,NA,31.142857142857146,30.120481927710845
56515,Otter Tail County,MN,NA,NA,NA,90.85714285714286,NA
56537,Otter Tail County,MN,NA,NA,NA,47.14285714285714,NA
56544,Becker County,MN,NA,77.6173285198556,NA,NA,NA
56560,Clay County,MN,NA,19.133574007220215,NA,NA,19.879518072289155
56572,Otter Tail County,MN,NA,NA,NA,70.85714285714285,NA
56601,Beltrami County,MN,NA,NA,58.495145631067956,90.28571428571428,40.963855421686745
56621,Clearwater County,MN,NA,NA,NA,NA,43.97590361445783
56630,Beltrami County,MN,NA,NA,98.30097087378641,NA,NA
56633,Hubbard County,MN,NA,NA,NA,76,NA
56649,Koochiching County,MN,NA,60.28880866425993,NA,NA,NA
56763,Roseau County,MN,NA,NA,82.03883495145631,NA,NA
39189,Leake County,MS,NA,83.03249097472924,NA,NA,NA
39212,Hinds County,MS,12.626262626262626,NA,NA,NA,NA
39330,Clarke County,MS,93.93939393939394,NA,NA,NA,NA
39401,Forrest County,MS,NA,NA,NA,NA,42.168674698795186
39482,Lamar County,MS,NA,81.2274368231047,NA,NA,NA
63021,St. Louis County,MO,37.878787878787875,NA,NA,NA,NA
63033,St. Louis County,MO,25.757575757575758,NA,NA,NA,NA
63043,St. Louis County,MO,70.2020202020202,NA,NA,NA,NA
63069,Franklin County,MO,NA,NA,NA,66.57142857142857,NA
63106,St. Louis city,MO,68.68686868686868,NA,NA,NA,98.19277108433735
63111,St. Louis city,MO,NA,72.20216606498195,NA,NA,NA
63136,St. Louis County,MO,2.0202020202020203,NA,NA,NA,NA
63301,St. Charles County,MO,17.17171717171717,NA,NA,NA,NA
63368,St. Charles County,MO,NA,NA,52.66990291262136,NA,NA
64012,Cass County,MO,NA,42.59927797833935,NA,NA,NA
64030,Jackson County,MO,NA,41.15523465703971,NA,NA,NA
64064,Jackson County,MO,60.60606060606061,NA,NA,NA,NA
64068,Clay County,MO,NA,68.23104693140795,NA,NA,NA
64106,Jackson County,MO,NA,NA,39.56310679611651,NA,NA
64123,Jackson County,MO,NA,63.1768953068592,54.12621359223301,NA,NA
64124,Jackson County,MO,NA,NA,NA,68.85714285714286,NA
64128,Jackson County,MO,NA,NA,32.038834951456316,NA,NA
64129,Jackson County,MO,NA,NA,NA,79.42857142857143,NA
64130,Jackson County,MO,NA,NA,12.135922330097088,NA,NA
64131,Jackson County,MO,NA,NA,24.514563106796118,NA,NA
64134,Jackson County,MO,NA,NA,52.9126213592233,NA,NA
64137,Jackson County,MO,NA,NA,NA,77.14285714285715,NA
64151,Platte County,MO,31.818181818181817,87.00361010830325,NA,NA,NA
64154,Platte County,MO,NA,NA,80.09708737864078,NA,NA
64735,Henry County,MO,67.67676767676768,NA,NA,NA,NA
64744,Cedar County,MO,81.81818181818183,NA,NA,NA,NA
65084,Morgan County,MO,NA,NA,NA,91.71428571428571,NA
65202,Boone County,MO,NA,NA,18.932038834951456,NA,NA
65203,Boone County,MO,NA,NA,36.407766990291265,16.57142857142857,NA
65233,Cooper County,MO,73.73737373737373,NA,NA,NA,NA
65251,Callaway County,MO,NA,NA,NA,61.142857142857146,NA
59101,Yellowstone County,MT,NA,NA,50.24271844660194,NA,NA
59715,Gallatin County,MT,NA,NA,NA,NA,31.92771084337349
59901,Flathead County,MT,NA,NA,NA,6.571428571428571,NA
68025,Dodge County,NE,NA,NA,NA,27.714285714285715,NA
68028,Sarpy County,NE,NA,NA,84.9514563106796,NA,NA
68114,Douglas County,NE,NA,NA,83.25242718446601,NA,NA
68124,Douglas County,NE,NA,NA,NA,NA,71.6867469879518
68134,Douglas County,NE,NA,NA,66.2621359223301,NA,NA
68152,Douglas County,NE,NA,NA,98.7864077669903,NA,NA
89801,Elko County,NV,NA,NA,73.30097087378641,NA,NA
03431,Cheshire County,NH,NA,NA,69.66019417475728,32.285714285714285,NA
03452,Cheshire County,NH,NA,NA,NA,74.28571428571429,NA
03755,Grafton County,NH,NA,NA,NA,88,NA
03833,Rockingham County,NH,NA,NA,49.75728155339806,NA,NA
03862,Rockingham County,NH,NA,NA,NA,92.85714285714286,NA
03867,Strafford County,NH,NA,NA,NA,32,38.55421686746988
07008,Middlesex County,NJ,NA,NA,37.86407766990291,NA,NA
07040,Essex County,NJ,NA,89.53068592057761,NA,NA,NA
07103,Essex County,NJ,NA,NA,3.1553398058252426,NA,NA
07104,Essex County,NJ,NA,2.166064981949458,NA,NA,NA
07501,Passaic County,NJ,NA,1.444043321299639,NA,20.857142857142858,NA
07731,Monmouth County,NJ,46.96969696969697,NA,NA,NA,NA
08070,Salem County,NJ,NA,NA,NA,58.285714285714285,NA
08401,Atlantic County,NJ,NA,NA,NA,6.2857142857142865,NA
08901,Middlesex County,NJ,NA,43.32129963898917,NA,NA,NA
87015,Santa Fe County,NM,NA,NA,83.7378640776699,NA,NA
87024,Sandoval County,NM,NA,71.11913357400722,NA,NA,NA
87026,Valencia County,NM,NA,NA,96.35922330097088,NA,NA
87031,Valencia County,NM,NA,NA,39.80582524271845,NA,NA
87052,Sandoval County,NM,88.88888888888889,NA,99.02912621359224,NA,NA
87068,Valencia County,NM,NA,NA,97.57281553398059,NA,NA
87105,Bernalillo County,NM,NA,11.552346570397113,NA,NA,NA
87109,Bernalillo County,NM,NA,NA,27.427184466019416,NA,NA
87110,Bernalillo County,NM,NA,NA,20.631067961165048,NA,NA
87111,Bernalillo County,NM,NA,NA,6.796116504854369,NA,NA
87114,Bernalillo County,NM,52.52525252525253,NA,NA,NA,NA
87120,Bernalillo County,NM,18.68686868686869,NA,NA,NA,NA
87121,Bernalillo County,NM,NA,7.2202166064981945,NA,NA,NA
87301,McKinley County,NM,NA,22.743682310469314,91.99029126213593,NA,NA
87313,McKinley County,NM,NA,81.94945848375451,NA,95.42857142857143,NA
87323,McKinley County,NM,NA,93.86281588447653,99.27184466019418,NA,NA
87327,Cibola County,NM,NA,68.59205776173285,74.02912621359224,NA,NA
87328,McKinley County,NM,NA,77.25631768953069,NA,NA,NA
87413,San Juan County,NM,NA,NA,61.40776699029126,NA,NA
87420,San Juan County,NM,NA,51.26353790613718,41.74757281553398,NA,NA
87505,Santa Fe County,NM,NA,NA,9.466019417475728,NA,NA
87532,Santa Fe County,NM,NA,NA,50,NA,NA
87557,Taos County,NM,NA,87.72563176895306,NA,NA,NA
87566,Rio Arriba County,NM,NA,NA,95.3883495145631,NA,NA
87571,Taos County,NM,NA,NA,64.32038834951457,NA,NA
87701,San Miguel County,NM,NA,NA,NA,NA,57.22891566265061
88011,Doa Ana County,NM,44.94949494949495,NA,NA,NA,NA
88030,Luna County,NM,NA,NA,NA,NA,63.85542168674698
88240,Lea County,NM,NA,NA,NA,NA,39.75903614457831
10001,New York County,NY,NA,NA,NA,38.57142857142858,NA
10002,New York County,NY,NA,45.84837545126354,NA,NA,NA
10004,New York County,NY,NA,NA,NA,98.57142857142858,NA
10009,New York County,NY,45.45454545454545,NA,NA,NA,NA
10011,New York County,NY,NA,83.03249097472924,NA,NA,NA
10013,New York County,NY,89.8989898989899,NA,94.90291262135922,NA,NA
10016,New York County,NY,NA,NA,46.84466019417476,NA,NA
10023,New York County,NY,NA,NA,NA,20,NA
10026,New York County,NY,NA,25.27075812274368,NA,NA,NA
10027,New York County,NY,35.858585858585855,15.884476534296029,NA,NA,NA
10029,New York County,NY,NA,0,1.9417475728155338,NA,NA
10030,New York County,NY,NA,53.42960288808665,NA,NA,NA
10031,New York County,NY,40.4040404040404,NA,14.805825242718445,57.14285714285714,NA
10032,New York County,NY,31.313131313131315,33.2129963898917,NA,NA,NA
10033,New York County,NY,NA,23.465703971119133,NA,NA,NA
10034,New York County,NY,NA,22.021660649819495,NA,NA,NA
10035,New York County,NY,NA,NA,10.436893203883495,13.714285714285715,NA
10037,New York County,NY,NA,49.81949458483754,NA,NA,NA
10038,New York County,NY,NA,67.87003610108303,NA,NA,NA
10304,Richmond County,NY,NA,NA,24.029126213592235,NA,NA
10305,Richmond County,NY,NA,NA,30.582524271844658,NA,NA
10312,Richmond County,NY,NA,NA,NA,NA,31.32530120481928
10451,Bronx County,NY,NA,NA,NA,10.857142857142858,NA
10452,Bronx County,NY,NA,15.523465703971121,NA,NA,20.481927710843372
10453,Bronx County,NY,NA,4.332129963898916,2.4271844660194173,1.4285714285714286,NA
10454,Bronx County,NY,NA,4.693140794223827,NA,10,NA
10455,Bronx County,NY,NA,5.415162454873646,7.524271844660194,NA,NA
10456,Bronx County,NY,NA,6.4981949458483745,14.563106796116504,NA,NA
10457,Bronx County,NY,NA,0.7220216606498195,37.37864077669903,NA,NA
10458,Bronx County,NY,32.323232323232325,0.36101083032490977,NA,NA,NA
10459,Bronx County,NY,NA,41.87725631768953,NA,NA,NA
10460,Bronx County,NY,NA,NA,39.32038834951456,NA,54.21686746987952
10462,Bronx County,NY,NA,17.328519855595665,11.165048543689322,NA,12.650602409638553
10463,Bronx County,NY,NA,NA,42.23300970873786,NA,NA
10466,Bronx County,NY,NA,14.440433212996389,8.009708737864079,NA,NA
10467,Bronx County,NY,13.636363636363635,11.191335740072201,1.6990291262135921,NA,NA
10468,Bronx County,NY,4.040404040404041,3.2490974729241873,NA,NA,NA
10469,Bronx County,NY,NA,12.63537906137184,NA,NA,NA
10470,Bronx County,NY,NA,60.28880866425993,NA,NA,NA
10472,Bronx County,NY,1.0101010101010102,14.801444043321299,NA,4.285714285714286,NA
10473,Bronx County,NY,NA,9.025270758122744,NA,NA,NA
10474,Bronx County,NY,NA,61.01083032490975,66.99029126213593,NA,NA
10475,Bronx County,NY,NA,58.48375451263538,NA,NA,NA
10573,Westchester County,NY,NA,14.079422382671481,NA,NA,NA
10703,Westchester County,NY,NA,NA,76.2135922330097,NA,NA
10705,Westchester County,NY,NA,20.577617328519857,NA,NA,NA
10927,Rockland County,NY,NA,NA,NA,94.85714285714286,NA
10954,Rockland County,NY,NA,NA,63.834951456310684,NA,NA
11103,Queens County,NY,84.34343434343434,NA,NA,NA,NA
11105,Queens County,NY,88.88888888888889,NA,NA,NA,NA
11201,Kings County,NY,NA,NA,33.00970873786408,NA,NA
11204,Kings County,NY,NA,NA,NA,38.857142857142854,NA
11205,Kings County,NY,NA,36.8231046931408,NA,NA,NA
11206,Kings County,NY,NA,5.776173285198556,4.854368932038835,NA,NA
11207,Kings County,NY,0.5050505050505051,1.8050541516245486,8.980582524271846,NA,NA
11208,Kings County,NY,NA,37.545126353790614,3.3980582524271843,2.857142857142857,NA
11212,Kings County,NY,NA,2.527075812274368,2.912621359223301,NA,NA
11219,Kings County,NY,NA,13.718411552346572,NA,NA,NA
11220,Kings County,NY,NA,NA,30.097087378640776,NA,NA
11221,Kings County,NY,9.595959595959595,NA,NA,7.142857142857142,NA
11223,Kings County,NY,NA,NA,33.25242718446602,NA,NA
11225,Kings County,NY,69.6969696969697,NA,NA,NA,NA
11226,Kings County,NY,NA,NA,NA,23.714285714285715,NA
11230,Kings County,NY,79.29292929292929,NA,NA,NA,NA
11233,Kings County,NY,NA,NA,20.388349514563107,NA,NA
11234,Kings County,NY,NA,NA,31.79611650485437,NA,NA
11237,Kings County,NY,NA,12.274368231046932,NA,NA,NA
11355,Queens County,NY,NA,NA,NA,22,NA
11358,Queens County,NY,NA,88.8086642599278,NA,NA,NA
11360,Queens County,NY,NA,NA,93.44660194174757,NA,NA
11362,Queens County,NY,NA,NA,NA,88.85714285714286,NA
11365,Queens County,NY,NA,NA,NA,26,NA
11368,Queens County,NY,NA,NA,13.349514563106796,NA,NA
11370,Queens County,NY,NA,71.84115523465704,NA,NA,NA
11372,Queens County,NY,NA,38.98916967509025,NA,NA,NA
11373,Queens County,NY,10.1010101010101,27.79783393501805,NA,NA,NA
11377,Queens County,NY,NA,18.772563176895307,NA,NA,NA
11379,Queens County,NY,NA,94.94584837545126,NA,NA,NA
11385,Queens County,NY,NA,64.98194945848375,NA,NA,NA
11418,Queens County,NY,NA,24.90974729241877,NA,NA,NA
11419,Queens County,NY,NA,28.51985559566787,NA,NA,NA
11421,Queens County,NY,NA,22.021660649819495,NA,62,NA
11435,Queens County,NY,NA,42.238267148014444,NA,NA,NA
11436,Queens County,NY,NA,NA,NA,78.85714285714286,NA
11691,Queens County,NY,NA,10.108303249097473,15.048543689320388,NA,NA
12043,Schoharie County,NY,NA,NA,NA,73.71428571428571,NA
12122,Schoharie County,NY,NA,NA,78.15533980582524,NA,NA
13104,Onondaga County,NY,NA,NA,61.165048543689316,NA,NA
13148,Seneca County,NY,NA,NA,NA,35.14285714285714,NA
13203,Onondaga County,NY,20.2020202020202,NA,NA,NA,NA
13205,Onondaga County,NY,NA,NA,23.058252427184467,NA,NA
13208,Onondaga County,NY,NA,42.96028880866426,NA,NA,NA
13219,Onondaga County,NY,NA,NA,65.0485436893204,NA,NA
13326,Otsego County,NY,NA,NA,NA,64.28571428571429,NA
13617,St. Lawrence County,NY,NA,NA,45.14563106796117,NA,NA
13732,Tioga County,NY,NA,NA,NA,50.57142857142857,NA
13753,Delaware County,NY,NA,NA,72.0873786407767,NA,NA
13760,Broome County,NY,NA,NA,NA,0.5714285714285714,NA
13905,Broome County,NY,2.525252525252525,NA,NA,NA,NA
14127,Erie County,NY,NA,97.47292418772562,NA,NA,NA
14215,Erie County,NY,13.131313131313133,NA,NA,NA,NA
14227,Erie County,NY,NA,NA,36.16504854368932,NA,NA
14304,Niagara County,NY,NA,NA,8.25242718446602,NA,NA
14418,Yates County,NY,NA,NA,NA,99.14285714285714,NA
14589,Wayne County,NY,NA,NA,45.87378640776699,NA,NA
14608,Monroe County,NY,NA,NA,22.330097087378643,NA,NA
14611,Monroe County,NY,NA,NA,NA,NA,60.8433734939759
14612,Monroe County,NY,NA,NA,4.12621359223301,NA,NA
14615,Monroe County,NY,NA,NA,19.902912621359224,NA,NA
14845,Chemung County,NY,NA,NA,25.24271844660194,NA,NA
27012,Forsyth County,NC,NA,NA,NA,NA,12.048192771084338
27023,Forsyth County,NC,NA,95.66787003610109,NA,NA,NA
27103,Forsyth County,NC,49.494949494949495,NA,NA,NA,24.096385542168676
27104,Forsyth County,NC,NA,NA,NA,11.142857142857142,NA
27106,Forsyth County,NC,NA,NA,NA,NA,1.2048192771084338
27127,Forsyth County,NC,NA,NA,NA,NA,9.63855421686747
27215,Alamance County,NC,NA,NA,17.475728155339805,NA,NA
27288,Rockingham County,NC,NA,NA,NA,26.285714285714285,NA
27292,Davidson County,NC,NA,NA,NA,NA,7.228915662650602
27295,Davidson County,NC,NA,NA,7.038834951456311,NA,NA
27312,Chatham County,NC,NA,NA,70.14563106796116,NA,NA
27360,Davidson County,NC,NA,NA,NA,NA,82.53012048192771
27410,Guilford County,NC,NA,NA,NA,NA,10.843373493975903
27519,Wake County,NC,NA,NA,59.46601941747572,NA,NA
27534,Wayne County,NC,NA,NA,46.116504854368934,NA,NA
27537,Vance County,NC,NA,53.79061371841155,NA,NA,NA
27703,Durham County,NC,NA,23.465703971119133,NA,NA,NA
27962,Washington County,NC,81.31313131313132,NA,NA,NA,NA
28073,Cleveland County,NC,NA,NA,NA,92.28571428571428,NA
28105,Mecklenburg County,NC,NA,NA,NA,NA,46.3855421686747
28112,Union County,NC,NA,NA,NA,NA,45.18072289156627
28314,Cumberland County,NC,NA,NA,NA,45.42857142857143,NA
28376,Hoke County,NC,NA,NA,NA,39.42857142857143,NA
28443,Pender County,NC,NA,NA,NA,63.142857142857146,NA
28461,Brunswick County,NC,NA,NA,53.883495145631066,NA,27.710843373493976
28465,Brunswick County,NC,NA,NA,NA,62.857142857142854,NA
28467,Brunswick County,NC,NA,NA,NA,NA,75.30120481927712
28516,Carteret County,NC,NA,NA,76.69902912621359,NA,NA
28540,Onslow County,NC,NA,NA,80.8252427184466,NA,NA
28602,Catawba County,NC,NA,NA,NA,47.714285714285715,NA
28655,Burke County,NC,NA,NA,9.70873786407767,NA,NA
28677,Iredell County,NC,NA,NA,58.252427184466015,NA,56.024096385542165
28697,Wilkes County,NC,NA,NA,NA,63.714285714285715,NA
28719,Jackson County,NC,NA,57.03971119133574,57.76699029126213,NA,NA
28721,Haywood County,NC,NA,NA,NA,77.71428571428571,NA
58078,Cass County,ND,NA,NA,NA,NA,28.313253012048197
58103,Cass County,ND,1.5151515151515151,49.458483754512635,NA,5.142857142857142,2.4096385542168677
58104,Cass County,ND,NA,44.4043321299639,NA,NA,5.421686746987952
58203,Grand Forks County,ND,NA,74.72924187725631,NA,NA,NA
58316,Rolette County,ND,NA,31.046931407942242,NA,NA,NA
58504,Burleigh County,ND,NA,NA,62.62135922330098,NA,NA
58701,Ward County,ND,NA,NA,NA,14.571428571428571,NA
43016,Franklin County,OH,NA,74.36823104693141,NA,NA,NA
43023,Licking County,OH,NA,NA,NA,84.85714285714285,NA
43040,Union County,OH,74.74747474747475,NA,NA,NA,NA
43055,Licking County,OH,NA,10.830324909747292,NA,2.571428571428571,NA
43056,Licking County,OH,NA,59.205776173285194,NA,NA,NA
43068,Franklin County,OH,5.05050505050505,NA,17.233009708737864,NA,NA
43110,Franklin County,OH,NA,NA,NA,15.714285714285714,NA
43123,Franklin County,OH,14.14141414141414,NA,NA,NA,NA
43138,Hocking County,OH,NA,26.714801444043324,NA,NA,NA
43147,Fairfield County,OH,NA,46.20938628158845,NA,NA,NA
43201,Franklin County,OH,NA,NA,81.31067961165049,NA,NA
43202,Franklin County,OH,NA,81.58844765342961,NA,NA,NA
43205,Franklin County,OH,NA,27.075812274368232,57.03883495145631,NA,NA
43206,Franklin County,OH,NA,NA,51.69902912621359,NA,NA
43207,Franklin County,OH,15.151515151515152,11.913357400722022,3.8834951456310676,NA,NA
43211,Franklin County,OH,NA,NA,18.203883495145632,NA,NA
43219,Franklin County,OH,NA,NA,NA,NA,50
43223,Franklin County,OH,NA,2.888086642599278,NA,NA,NA
43224,Franklin County,OH,NA,NA,NA,20.285714285714285,NA
43227,Franklin County,OH,NA,NA,34.70873786407767,NA,NA
43228,Franklin County,OH,NA,17.689530685920577,NA,NA,NA
43229,Franklin County,OH,22.22222222222222,NA,11.165048543689322,NA,NA
43512,Defiance County,OH,NA,NA,NA,8.285714285714285,26.506024096385545
44001,Lorain County,OH,52.02020202020202,NA,NA,NA,NA
44004,Ashtabula County,OH,NA,36.101083032490976,NA,NA,NA
44011,Lorain County,OH,NA,62.093862815884485,NA,NA,NA
44012,Lorain County,OH,NA,84.47653429602889,NA,NA,NA
44017,Cuyahoga County,OH,73.23232323232324,NA,47.0873786407767,NA,NA
44023,Geauga County,OH,NA,NA,75.97087378640776,NA,NA
44026,Geauga County,OH,NA,NA,94.41747572815534,NA,NA
44052,Lorain County,OH,NA,35.018050541516246,25.970873786407765,NA,NA
44053,Lorain County,OH,NA,NA,42.71844660194174,NA,NA
44054,Lorain County,OH,NA,NA,46.601941747572816,NA,NA
44055,Lorain County,OH,NA,NA,44.417475728155345,NA,NA
44056,Summit County,OH,NA,NA,88.83495145631069,NA,NA
44060,Lake County,OH,NA,NA,12.37864077669903,NA,NA
44074,Lorain County,OH,NA,NA,NA,54.57142857142857,NA
44076,Ashtabula County,OH,NA,NA,83.00970873786407,NA,NA
44077,Lake County,OH,NA,NA,NA,6,NA
44090,Lorain County,OH,NA,NA,NA,NA,65.06024096385542
44094,Lake County,OH,NA,NA,NA,8,24.69879518072289
44102,Cuyahoga County,OH,NA,NA,17.96116504854369,NA,NA
44105,Cuyahoga County,OH,5.555555555555555,24.548736462093864,10.922330097087379,NA,NA
44108,Cuyahoga County,OH,NA,NA,26.941747572815533,NA,NA
44109,Cuyahoga County,OH,NA,5.054151624548736,21.601941747572813,NA,NA
44110,Cuyahoga County,OH,NA,NA,63.3495145631068,NA,NA
44111,Cuyahoga County,OH,NA,NA,NA,5.428571428571429,NA
44112,Cuyahoga County,OH,NA,52.34657039711191,43.44660194174757,NA,NA
44116,Cuyahoga County,OH,NA,NA,NA,68.57142857142857,NA
44117,Cuyahoga County,OH,NA,68.95306859205776,NA,NA,NA
44118,Cuyahoga County,OH,NA,66.06498194945848,NA,NA,NA
44119,Cuyahoga County,OH,NA,76.17328519855594,62.13592233009708,NA,NA
44120,Cuyahoga County,OH,NA,NA,6.067961165048544,NA,NA
44124,Cuyahoga County,OH,NA,NA,36.89320388349515,24,0
44126,Cuyahoga County,OH,74.24242424242425,NA,NA,NA,NA
44129,Cuyahoga County,OH,NA,38.26714801444043,NA,NA,NA
44130,Cuyahoga County,OH,NA,NA,34.46601941747573,NA,NA
44131,Cuyahoga County,OH,NA,NA,NA,75.14285714285714,7.83132530120482
44133,Cuyahoga County,OH,NA,89.53068592057761,38.349514563106794,18.285714285714285,NA
44134,Cuyahoga County,OH,NA,NA,NA,4.857142857142857,6.626506024096386
44135,Cuyahoga County,OH,NA,24.187725631768952,NA,13.142857142857142,NA
44136,Cuyahoga County,OH,33.83838383838384,NA,NA,NA,NA
44137,Cuyahoga County,OH,NA,34.65703971119133,NA,NA,NA
44142,Cuyahoga County,OH,33.83838383838384,NA,NA,NA,NA
44144,Cuyahoga County,OH,NA,NA,NA,NA,53.01204819277109
44147,Cuyahoga County,OH,NA,NA,NA,34.85714285714286,NA
44149,Cuyahoga County,OH,NA,NA,NA,21.714285714285715,NA
44202,Portage County,OH,NA,NA,NA,NA,14.457831325301203
44203,Summit County,OH,9.090909090909092,NA,NA,NA,NA
44212,Medina County,OH,NA,NA,6.310679611650485,NA,NA
44236,Summit County,OH,NA,NA,NA,25.142857142857146,NA
44256,Medina County,OH,NA,31.768953068592058,NA,NA,NA
44272,Portage County,OH,93.93939393939394,NA,NA,NA,NA
44286,Summit County,OH,NA,NA,NA,91.42857142857143,NA
44310,Summit County,OH,NA,28.880866425992778,NA,NA,NA
44313,Summit County,OH,NA,NA,40.53398058252427,NA,NA
44320,Summit County,OH,NA,25.63176895306859,NA,NA,NA
44460,Columbiana County,OH,NA,NA,NA,13.714285714285715,NA
44485,Trumbull County,OH,NA,25.992779783393498,NA,NA,NA
44512,Mahoning County,OH,NA,NA,NA,19.142857142857142,NA
44515,Mahoning County,OH,NA,NA,NA,17.71428571428571,NA
44621,Tuscarawas County,OH,85.35353535353535,NA,NA,NA,NA
44646,Stark County,OH,NA,19.855595667870034,16.50485436893204,69.14285714285714,NA
44704,Stark County,OH,93.43434343434343,NA,NA,NA,NA
44851,Huron County,OH,99.4949494949495,NA,NA,NA,NA
44857,Huron County,OH,NA,NA,NA,12.857142857142856,NA
44903,Richland County,OH,NA,NA,29.126213592233007,NA,NA
44904,Richland County,OH,NA,NA,93.68932038834951,NA,NA
44907,Richland County,OH,NA,41.51624548736462,NA,NA,NA
45002,Hamilton County,OH,NA,NA,84.22330097087378,NA,NA
45011,Butler County,OH,NA,7.581227436823104,NA,NA,NA
45015,Butler County,OH,NA,48.73646209386281,NA,NA,NA
45030,Hamilton County,OH,NA,55.23465703971119,NA,NA,NA
45044,Butler County,OH,NA,10.469314079422382,NA,NA,NA
45102,Clermont County,OH,43.43434343434344,NA,NA,NA,NA
45106,Clermont County,OH,NA,45.48736462093863,NA,NA,NA
45140,Clermont County,OH,NA,50.54151624548736,NA,NA,NA
45150,Clermont County,OH,NA,55.95667870036101,NA,NA,NA
45154,Brown County,OH,71.71717171717171,NA,NA,NA,NA
45157,Clermont County,OH,83.83838383838383,NA,NA,NA,NA
45202,Hamilton County,OH,39.39393939393939,NA,NA,NA,NA
45205,Hamilton County,OH,NA,33.2129963898917,NA,NA,NA
45206,Hamilton County,OH,35.35353535353536,NA,NA,NA,NA
45211,Hamilton County,OH,NA,20.216606498194945,NA,NA,NA
45212,Hamilton County,OH,NA,51.26353790613718,NA,NA,NA
45215,Hamilton County,OH,NA,35.37906137184115,37.13592233009709,NA,NA
45216,Hamilton County,OH,NA,NA,65.53398058252428,NA,NA
45223,Hamilton County,OH,NA,NA,53.398058252427184,NA,NA
45229,Hamilton County,OH,NA,NA,NA,36.857142857142854,NA
45230,Hamilton County,OH,NA,39.35018050541516,NA,NA,NA
45237,Hamilton County,OH,NA,26.353790613718413,NA,NA,NA
45238,Hamilton County,OH,NA,44.04332129963899,NA,NA,NA
45244,Hamilton County,OH,NA,72.92418772563177,NA,NA,NA
45245,Clermont County,OH,NA,NA,NA,54.85714285714286,NA
45342,Montgomery County,OH,NA,NA,NA,15.142857142857144,NA
45359,Miami County,OH,98.98989898989899,NA,NA,NA,NA
45414,Montgomery County,OH,NA,NA,NA,NA,56.62650602409639
45426,Montgomery County,OH,NA,NA,NA,44,NA
45640,Jackson County,OH,68.18181818181817,NA,12.62135922330097,NA,NA
45653,Scioto County,OH,100,NA,NA,NA,NA
45662,Scioto County,OH,NA,NA,5.582524271844661,NA,NA
45692,Jackson County,OH,NA,62.454873646209386,NA,NA,NA
73005,Caddo County,OK,NA,53.79061371841155,NA,NA,NA
73018,Grady County,OK,NA,NA,NA,38,NA
73099,Canadian County,OK,NA,NA,NA,39.14285714285714,NA
73162,Oklahoma County,OK,NA,NA,60.19417475728155,NA,NA
73505,Comanche County,OK,26.262626262626267,NA,NA,NA,NA
73507,Comanche County,OK,NA,NA,NA,36.285714285714285,NA
74331,Delaware County,OK,NA,NA,94.1747572815534,NA,NA
74347,Delaware County,OK,NA,98.91696750902527,NA,NA,NA
74434,Muskogee County,OK,NA,NA,89.32038834951457,NA,NA
74441,Cherokee County,OK,NA,NA,NA,NA,97.59036144578313
74462,Haskell County,OK,NA,78.70036101083032,NA,NA,NA
74464,Cherokee County,OK,NA,NA,16.019417475728158,22.857142857142858,50.602409638554214
74501,Pittsburg County,OK,NA,NA,60.679611650485434,NA,NA
74547,Pittsburg County,OK,NA,96.75090252707581,NA,NA,NA
74728,McCurtain County,OK,NA,65.34296028880865,NA,NA,NA
74743,Choctaw County,OK,NA,94.58483754512635,NA,NA,NA
74820,Pontotoc County,OK,NA,NA,NA,34.57142857142857,NA
74849,Seminole County,OK,NA,NA,99.75728155339806,NA,NA
74948,Sequoyah County,OK,NA,NA,NA,82,NA
74965,Adair County,OK,NA,NA,NA,93.42857142857143,NA
97005,Washington County,OR,NA,NA,NA,NA,51.80722891566265
97022,Clackamas County,OR,NA,NA,NA,98.28571428571429,NA
97071,Marion County,OR,NA,50.90252707581227,NA,NA,NA
97236,Multnomah County,OR,NA,46.20938628158845,NA,NA,NA
97267,Clackamas County,OR,NA,NA,NA,46.285714285714285,NA
97423,Coos County,OR,NA,NA,NA,79.14285714285715,NA
97470,Douglas County,OR,NA,NA,NA,28.285714285714285,NA
97504,Jackson County,OR,NA,NA,NA,18.571428571428573,NA
97537,Jackson County,OR,NA,NA,85.43689320388349,NA,NA
15106,Allegheny County,PA,NA,NA,65.77669902912622,NA,NA
15120,Allegheny County,PA,NA,87.36462093862815,NA,NA,NA
15132,Allegheny County,PA,NA,NA,20.145631067961165,NA,NA
15235,Allegheny County,PA,NA,NA,NA,20.57142857142857,NA
15317,Washington County,PA,NA,NA,NA,14.857142857142858,NA
15801,Clearfield County,PA,NA,NA,NA,NA,4.819277108433735
15851,Jefferson County,PA,36.868686868686865,NA,NA,NA,NA
16125,Mercer County,PA,NA,NA,48.786407766990294,NA,NA
16504,Erie County,PA,NA,NA,NA,74.85714285714286,NA
16506,Erie County,PA,NA,NA,75.48543689320388,NA,NA
17007,Cumberland County,PA,92.42424242424242,NA,NA,NA,NA
17013,Cumberland County,PA,28.28282828282828,NA,NA,NA,NA
17018,Dauphin County,PA,NA,NA,NA,98.85714285714286,NA
17033,Dauphin County,PA,NA,NA,43.932038834951456,24.285714285714285,NA
17036,Dauphin County,PA,7.07070707070707,NA,NA,NA,NA
17042,Lebanon County,PA,11.11111111111111,NA,8.737864077669903,NA,NA
17055,Cumberland County,PA,NA,NA,40.29126213592233,NA,NA
17057,Dauphin County,PA,NA,NA,28.883495145631066,NA,NA
17078,Lebanon County,PA,NA,NA,27.184466019417474,NA,NA
17110,Dauphin County,PA,40.909090909090914,NA,25,29.714285714285715,NA
17112,Dauphin County,PA,21.21212121212121,NA,NA,NA,NA
17751,Clinton County,PA,NA,NA,NA,83.71428571428572,NA
17754,Lycoming County,PA,NA,NA,NA,NA,36.74698795180723
17777,Northumberland County,PA,NA,NA,NA,83.14285714285714,NA
17815,Columbia County,PA,65.15151515151516,69.67509025270758,26.45631067961165,NA,NA
17820,Columbia County,PA,NA,NA,86.40776699029125,NA,NA
17821,Montour County,PA,NA,75.09025270758123,67.23300970873787,56.285714285714285,NA
17844,Union County,PA,NA,NA,77.9126213592233,NA,NA
17857,Northumberland County,PA,NA,85.92057761732852,NA,NA,NA
17866,Northumberland County,PA,NA,NA,NA,66.28571428571428,NA
17870,Snyder County,PA,NA,NA,58.7378640776699,NA,NA
18202,Luzerne County,PA,NA,NA,NA,50.857142857142854,NA
18504,Lackawanna County,PA,NA,NA,41.99029126213592,NA,NA
18512,Lackawanna County,PA,75.25252525252525,NA,NA,NA,NA
18612,Luzerne County,PA,NA,91.33574007220217,NA,NA,NA
18640,Luzerne County,PA,NA,NA,53.640776699029125,NA,NA
18651,Luzerne County,PA,NA,73.6462093862816,89.56310679611651,NA,NA
18702,Luzerne County,PA,59.09090909090909,NA,60.43689320388349,NA,NA
18704,Luzerne County,PA,NA,48.014440433213,NA,19.428571428571427,NA
18706,Luzerne County,PA,NA,56.678700361010826,NA,NA,NA
18707,Luzerne County,PA,NA,NA,66.50485436893204,37.142857142857146,NA
19031,Montgomery County,PA,NA,NA,90.0485436893204,NA,NA
19063,Delaware County,PA,NA,NA,NA,18,NA
19083,Delaware County,PA,NA,NA,38.83495145631068,NA,NA
19111,Philadelphia County,PA,NA,NA,6.553398058252427,NA,NA
19120,Philadelphia County,PA,NA,NA,5.825242718446602,NA,NA
19130,Philadelphia County,PA,NA,NA,NA,NA,62.048192771084345
19140,Philadelphia County,PA,NA,NA,NA,NA,47.59036144578313
19147,Philadelphia County,PA,NA,NA,NA,NA,61.44578313253012
19149,Philadelphia County,PA,NA,NA,41.262135922330096,NA,NA
19401,Montgomery County,PA,NA,NA,NA,NA,45.78313253012048
19606,Berks County,PA,NA,NA,18.689320388349515,NA,NA
02888,Kent County,RI,NA,NA,59.95145631067961,NA,NA
02911,Providence County,RI,NA,NA,NA,64,NA
29070,Lexington County,SC,NA,NA,80.58252427184466,NA,NA
29115,Orangeburg County,SC,NA,NA,48.05825242718447,NA,NA
29153,Sumter County,SC,NA,NA,NA,NA,69.27710843373494
29403,Charleston County,SC,NA,NA,NA,NA,83.73493975903614
29405,Charleston County,SC,NA,37.90613718411552,NA,NA,NA
29468,Berkeley County,SC,NA,99.63898916967509,NA,NA,NA
29526,Horry County,SC,NA,NA,NA,16.857142857142858,NA
29576,Horry County,SC,NA,NA,NA,51.42857142857142,NA
29640,Pickens County,SC,30.303030303030305,NA,NA,NA,NA
29672,Oconee County,SC,NA,NA,NA,71.71428571428572,NA
29902,Beaufort County,SC,NA,NA,NA,70,NA
29924,Hampton County,SC,97.47474747474747,NA,NA,NA,NA
57006,Brookings County,SD,NA,NA,NA,49.714285714285715,NA
57104,Minnehaha County,SD,NA,NA,NA,11.428571428571429,NA
57108,Lincoln County,SD,NA,NA,NA,NA,11.44578313253012
57201,Codington County,SD,NA,NA,NA,68.28571428571428,NA
57625,Dewey County,SD,NA,75.09025270758123,96.11650485436894,NA,NA
57701,Pennington County,SD,NA,43.682310469314075,NA,NA,NA
57702,Pennington County,SD,NA,NA,67.47572815533981,NA,NA
57752,Shannon County,SD,91.91919191919192,67.14801444043322,NA,NA,NA
38118,Shelby County,TN,NA,16.967509025270758,NA,NA,NA
75057,Denton County,TX,NA,NA,86.16504854368931,NA,NA
75075,Collin County,TX,NA,NA,NA,40,NA
75104,Dallas County,TX,NA,NA,65.29126213592234,NA,NA
75211,Dallas County,TX,NA,NA,NA,25.428571428571427,NA
75229,Dallas County,TX,53.03030303030303,NA,NA,NA,NA
75474,Hunt County,TX,NA,64.62093862815884,NA,NA,NA
75495,Grayson County,TX,NA,NA,92.96116504854369,NA,NA
75684,Rusk County,TX,NA,NA,NA,NA,99.3975903614458
75706,Smith County,TX,NA,79.06137184115524,NA,96,NA
75790,Van Zandt County,TX,NA,NA,NA,89.71428571428571,95.18072289156626
76018,Tarrant County,TX,NA,NA,NA,NA,100
76034,Tarrant County,TX,NA,NA,NA,94.57142857142857,NA
76123,Tarrant County,TX,NA,49.09747292418773,NA,NA,NA
76240,Cooke County,TX,NA,NA,50.48543689320388,NA,NA
76384,Wilbarger County,TX,NA,NA,NA,NA,87.95180722891565
76537,Williamson County,TX,NA,NA,97.33009708737865,NA,NA
76549,Bell County,TX,11.616161616161616,NA,NA,NA,NA
76657,McLennan County,TX,NA,NA,NA,88.28571428571429,NA
76661,Falls County,TX,NA,NA,96.35922330097088,NA,NA
76691,McLennan County,TX,NA,NA,NA,97.71428571428571,NA
76692,Hill County,TX,NA,NA,96.84466019417476,NA,NA
76705,McLennan County,TX,NA,NA,59.22330097087378,NA,NA
76708,McLennan County,TX,NA,NA,NA,86,NA
76710,McLennan County,TX,NA,NA,NA,NA,25.903614457831324
77011,Harris County,TX,80.3030303030303,NA,NA,NA,NA
77036,Harris County,TX,NA,NA,NA,26.857142857142858,NA
77057,Harris County,TX,NA,82.67148014440433,NA,NA,NA
77081,Harris County,TX,54.54545454545454,NA,NA,NA,NA
77096,Harris County,TX,57.57575757575758,NA,NA,NA,NA
77099,Harris County,TX,NA,NA,NA,45.714285714285715,NA
77380,Montgomery County,TX,NA,NA,NA,64.57142857142857,NA
77433,Harris County,TX,NA,47.65342960288809,NA,NA,NA
77494,Fort Bend County,TX,38.88888888888889,NA,NA,NA,NA
77504,Harris County,TX,NA,NA,73.30097087378641,NA,NA
77523,Chambers County,TX,NA,94.94584837545126,NA,NA,NA
77546,Galveston County,TX,NA,NA,NA,NA,43.97590361445783
77590,Galveston County,TX,NA,NA,NA,19.714285714285715,NA
77612,Jasper County,TX,NA,NA,89.07766990291263,NA,NA
77640,Jefferson County,TX,NA,NA,NA,67.71428571428572,NA
77662,Orange County,TX,NA,NA,NA,54.285714285714285,NA
77706,Jefferson County,TX,NA,NA,NA,40.85714285714286,NA
77803,Brazos County,TX,NA,NA,67.96116504854369,NA,NA
77833,Washington County,TX,NA,NA,57.28155339805825,NA,NA
78040,Webb County,TX,NA,NA,NA,NA,29.518072289156628
78041,Webb County,TX,NA,NA,NA,NA,37.95180722891566
78045,Webb County,TX,NA,NA,35.43689320388349,NA,NA
78154,Guadalupe County,TX,NA,NA,NA,78.57142857142857,NA
78217,Bexar County,TX,14.646464646464647,NA,NA,NA,NA
78228,Bexar County,TX,4.545454545454546,NA,NA,NA,NA
78242,Bexar County,TX,29.797979797979796,NA,NA,NA,NA
78252,Bexar County,TX,94.94949494949495,NA,NA,NA,NA
78413,Nueces County,TX,NA,NA,NA,NA,72.89156626506023
78414,Nueces County,TX,NA,NA,NA,89.14285714285714,NA
78633,Williamson County,TX,NA,NA,NA,2.2857142857142856,NA
78641,Williamson County,TX,43.93939393939394,NA,NA,NA,NA
78758,Travis County,TX,NA,62.8158844765343,NA,NA,NA
79412,Lubbock County,TX,NA,NA,NA,NA,84.93975903614458
79720,Howard County,TX,NA,78.33935018050542,NA,NA,NA
79927,El Paso County,TX,NA,NA,64.80582524271846,NA,NA
84020,Salt Lake County,UT,NA,NA,54.85436893203883,NA,NA
84041,Davis County,UT,NA,NA,NA,67.14285714285714,NA
84054,Davis County,UT,NA,NA,NA,NA,90.36144578313254
84057,Utah County,UT,NA,NA,NA,NA,93.97590361445783
84084,Salt Lake County,UT,NA,NA,NA,NA,77.10843373493977
84088,Salt Lake County,UT,NA,NA,48.54368932038835,NA,NA
84102,Salt Lake County,UT,97.97979797979798,NA,NA,NA,NA
84118,Salt Lake County,UT,NA,NA,27.669902912621357,NA,NA
84124,Salt Lake County,UT,NA,NA,NA,71.42857142857143,NA
05301,Windham County,VT,NA,NA,NA,34.285714285714285,NA
05401,Chittenden County,VT,NA,NA,NA,NA,59.036144578313255
05468,Chittenden County,VT,NA,NA,NA,51.42857142857142,NA
22401,Fredericksburg city,VA,NA,NA,58.98058252427184,NA,NA
22901,Albemarle County,VA,NA,NA,NA,31.71428571428571,NA
22902,Charlottesville city,VA,80.8080808080808,NA,NA,NA,NA
23320,Chesapeake city,VA,NA,NA,NA,21.142857142857142,NA
24401,Staunton city,VA,NA,NA,NA,12.285714285714286,10.240963855421686
98029,King County,WA,NA,NA,68.93203883495146,NA,NA
98037,Snohomish County,WA,NA,NA,69.1747572815534,NA,NA
98040,King County,WA,NA,NA,NA,88.57142857142857,NA
98052,King County,WA,NA,NA,NA,NA,27.10843373493976
98107,King County,WA,NA,NA,NA,72.28571428571429,NA
98110,Kitsap County,WA,NA,NA,NA,44.285714285714285,NA
98117,King County,WA,NA,NA,NA,60.285714285714285,NA
98136,King County,WA,NA,NA,NA,77.71428571428571,NA
98155,King County,WA,NA,NA,56.79611650485437,NA,NA
98198,King County,WA,NA,NA,NA,33.14285714285714,NA
98199,King County,WA,NA,NA,NA,NA,63.85542168674698
98248,Whatcom County,WA,76.26262626262627,NA,NA,NA,NA
98290,Snohomish County,WA,56.060606060606055,NA,NA,NA,NA
98409,Pierce County,WA,NA,NA,NA,NA,78.91566265060241
98466,Pierce County,WA,NA,NA,68.68932038834951,NA,NA
98801,Chelan County,WA,NA,67.50902527075813,79.85436893203884,NA,NA
98802,Douglas County,WA,NA,83.03249097472924,NA,34,NA
98815,Chelan County,WA,NA,NA,NA,96.57142857142857,NA
98816,Chelan County,WA,NA,NA,NA,NA,81.92771084337349
98848,Grant County,WA,NA,NA,NA,NA,96.98795180722891
98926,Kittitas County,WA,NA,NA,NA,41.714285714285715,NA
99019,Spokane County,WA,NA,NA,95.14563106796116,NA,NA
20017,District of Columbia,DC,NA,NA,NA,69.42857142857143,NA
25661,Mingo County,WV,NA,NA,NA,77.42857142857143,NA
26330,Harrison County,WV,NA,NA,87.62135922330097,NA,NA
26508,Monongalia County,WV,NA,NA,9.223300970873787,NA,NA
26542,Preston County,WV,96.96969696969697,NA,NA,NA,NA
26554,Marion County,WV,NA,NA,7.766990291262135,NA,NA
26651,Nicholas County,WV,71.21212121212122,NA,NA,NA,NA
53005,Waukesha County,WI,NA,NA,NA,55.14285714285714,NA
53072,Waukesha County,WI,NA,NA,NA,48.857142857142854,NA
53089,Waukesha County,WI,58.080808080808076,NA,NA,NA,NA
53094,Jefferson County,WI,55.05050505050505,NA,52.42718446601942,NA,NA
53103,Waukesha County,WI,NA,NA,95.63106796116504,NA,NA
53104,Kenosha County,WI,NA,NA,82.28155339805825,NA,NA
53105,Racine County,WI,NA,NA,NA,17.42857142857143,NA
53121,Walworth County,WI,NA,NA,55.33980582524271,NA,NA
53142,Kenosha County,WI,NA,NA,16.990291262135923,NA,NA
53151,Waukesha County,WI,NA,NA,50.728155339805824,NA,NA
53188,Waukesha County,WI,16.161616161616163,NA,NA,NA,NA
53208,Milwaukee County,WI,NA,NA,19.66019417475728,NA,NA
53211,Milwaukee County,WI,70.70707070707071,NA,72.33009708737865,NA,NA
53212,Milwaukee County,WI,22.727272727272727,NA,NA,NA,NA
53214,Milwaukee County,WI,NA,NA,NA,50.28571428571429,NA
53215,Milwaukee County,WI,21.71717171717172,8.303249097472925,NA,NA,16.265060240963855
53216,Milwaukee County,WI,6.0606060606060606,NA,11.893203883495145,22.57142857142857,NA
53218,Milwaukee County,WI,NA,18.050541516245488,NA,NA,NA
53220,Milwaukee County,WI,NA,NA,42.4757281553398,NA,NA
53223,Milwaukee County,WI,NA,NA,25.728155339805824,NA,NA
53224,Milwaukee County,WI,NA,56.317689530685925,47.33009708737864,NA,NA
53226,Milwaukee County,WI,NA,NA,NA,39.42857142857143,NA
53511,Rock County,WI,NA,23.104693140794225,2.669902912621359,NA,NA
53520,Green County,WI,NA,NA,NA,NA,42.77108433734939
53532,Dane County,WI,NA,NA,NA,NA,86.74698795180723
53534,Rock County,WI,NA,NA,NA,NA,68.67469879518072
53536,Rock County,WI,NA,NA,NA,97.14285714285714,NA
53546,Rock County,WI,NA,NA,59.70873786407766,NA,NA
53555,Columbia County,WI,NA,NA,95.87378640776699,NA,NA
53558,Dane County,WI,96.46464646464646,NA,NA,NA,NA
53562,Dane County,WI,57.07070707070707,NA,NA,NA,NA
53566,Green County,WI,NA,NA,83.49514563106796,61.142857142857146,NA
53589,Dane County,WI,NA,92.05776173285199,NA,43.142857142857146,NA
53590,Dane County,WI,NA,NA,49.51456310679612,48.285714285714285,NA
53704,Dane County,WI,NA,59.205776173285194,49.029126213592235,NA,NA
53705,Dane County,WI,NA,NA,NA,54,23.49397590361446
53711,Dane County,WI,58.58585858585859,80.50541516245488,NA,NA,25.301204819277107
53716,Dane County,WI,NA,NA,79.6116504854369,NA,NA
53718,Dane County,WI,NA,NA,NA,NA,70.48192771084338
53925,Columbia County,WI,NA,NA,90.77669902912622,NA,96.3855421686747
53955,Columbia County,WI,NA,NA,NA,95.14285714285714,NA
53959,Sauk County,WI,78.28282828282829,NA,NA,NA,NA
53965,Sauk County,WI,NA,NA,NA,NA,76.50602409638554
54208,Brown County,WI,98.48484848484848,NA,NA,NA,NA
54241,Manitowoc County,WI,77.77777777777779,NA,NA,NA,NA
54481,Portage County,WI,NA,NA,31.31067961165049,NA,NA
54601,La Crosse County,WI,7.575757575757576,NA,13.592233009708737,35.714285714285715,22.289156626506024
54603,La Crosse County,WI,NA,75.81227436823104,62.62135922330098,27.142857142857142,NA
54636,La Crosse County,WI,75.75757575757575,NA,NA,NA,NA
54650,La Crosse County,WI,NA,NA,NA,13.428571428571429,6.024096385542169
54669,La Crosse County,WI,NA,NA,NA,82.85714285714286,NA
54729,Chippewa County,WI,36.36363636363637,NA,NA,NA,NA
54730,Dunn County,WI,NA,100,NA,NA,NA
54880,Douglas County,WI,NA,NA,NA,7.428571428571429,1.8072289156626504
54986,Winnebago County,WI,NA,NA,NA,NA,98.79518072289156
82601,Natrona County,WY,87.87878787878788,NA,NA,NA,NA
