ZipCode,county,state,Youth,Adult,Retirement,Geriatric
35023,Jefferson County,AL,NA,NA,12.808349146110057,NA
35111,Tuscaloosa County,AL,NA,NA,77.60910815939279,NA
35150,Talladega County,AL,NA,NA,80.74003795066413,NA
35151,Talladega County,AL,NA,86.8088467614534,NA,NA
35160,Talladega County,AL,10.8,NA,NA,NA
35204,Jefferson County,AL,NA,85.78199052132702,NA,NA
35208,Jefferson County,AL,NA,NA,NA,80.07181328545781
35242,Shelby County,AL,NA,NA,NA,7.1813285457809695
35243,Jefferson County,AL,NA,NA,NA,56.37342908438061
35563,Marion County,AL,NA,NA,NA,84.91921005385996
35594,Marion County,AL,NA,77.56714060031595,NA,NA
35603,Morgan County,AL,29.2,NA,NA,NA
35634,Lauderdale County,AL,NA,NA,NA,92.99820466786356
35645,Lauderdale County,AL,NA,66.5086887835703,NA,NA
35803,Madison County,AL,NA,NA,31.499051233396585,NA
35976,Marshall County,AL,NA,NA,31.309297912713475,NA
36092,Elmore County,AL,NA,NA,NA,84.91921005385996
36093,Elmore County,AL,NA,NA,79.5066413662239,NA
36105,Montgomery County,AL,NA,NA,81.11954459203035,NA
36116,Montgomery County,AL,NA,18.799368088467613,NA,NA
36301,Houston County,AL,NA,NA,NA,83.66247755834829
36303,Houston County,AL,NA,NA,NA,48.83303411131059
36323,Coffee County,AL,NA,NA,84.53510436432637,NA
36549,Baldwin County,AL,NA,NA,66.12903225806451,NA
36618,Mobile County,AL,71.2,NA,NA,NA
36874,Lee County,AL,NA,84.83412322274881,NA,NA
99501,Anchorage Municipality,AK,NA,NA,66.69829222011386,NA
99502,Anchorage Municipality,AK,NA,NA,73.62428842504744,NA
99508,Anchorage Municipality,AK,NA,15.402843601895736,NA,NA
99669,Kenai Peninsula Borough,AK,NA,67.14060031595577,NA,NA
99701,Fairbanks North Star Borough,AK,58.8,NA,NA,NA
85004,Maricopa County,AZ,NA,86.65086887835703,NA,NA
85007,Maricopa County,AZ,NA,9.557661927330175,NA,NA
85016,Maricopa County,AZ,NA,81.04265402843602,NA,63.91382405745063
85018,Maricopa County,AZ,NA,NA,NA,50.987432675044886
85019,Maricopa County,AZ,NA,36.492890995260666,NA,NA
85020,Maricopa County,AZ,NA,NA,NA,76.12208258527828
85035,Maricopa County,AZ,NA,14.375987361769353,NA,NA
85120,Pinal County,AZ,NA,39.33649289099526,NA,NA
85122,Pinal County,AZ,NA,75.11848341232228,NA,NA
85132,Pinal County,AZ,NA,35.54502369668246,NA,NA
85142,Maricopa County,AZ,39.6,NA,23.14990512333966,NA
85201,Maricopa County,AZ,NA,11.92733017377567,29.601518026565465,NA
85254,Maricopa County,AZ,NA,NA,NA,92.10053859964094
85266,Maricopa County,AZ,NA,NA,NA,93.17773788150808
85321,Pima County,AZ,85.2,NA,NA,NA
85338,Maricopa County,AZ,NA,32.148499210110586,NA,NA
85344,La Paz County,AZ,NA,35.624012638230646,NA,NA
85345,Maricopa County,AZ,NA,11.058451816745656,NA,NA
85350,Yuma County,AZ,NA,NA,62.808349146110054,NA
85361,Maricopa County,AZ,NA,96.99842022116904,NA,NA
85364,Yuma County,AZ,NA,NA,2.941176470588235,NA
85392,Maricopa County,AZ,16,NA,NA,NA
85395,Maricopa County,AZ,NA,NA,NA,88.50987432675045
85396,Maricopa County,AZ,NA,NA,51.61290322580645,NA
85541,Gila County,AZ,NA,NA,NA,28.366247755834827
85607,Cochise County,AZ,NA,NA,73.52941176470588,58.34829443447038
85704,Pima County,AZ,NA,NA,26.37571157495256,22.262118491921004
85705,Pima County,AZ,NA,NA,5.692599620493358,NA
85706,Pima County,AZ,NA,2.3696682464454977,NA,NA
85713,Pima County,AZ,NA,27.804107424960506,54.64895635673624,NA
85736,Pima County,AZ,NA,98.49921011058453,NA,NA
85742,Pima County,AZ,NA,NA,44.87666034155598,NA
85743,Pima County,AZ,NA,67.4565560821485,NA,NA
85747,Pima County,AZ,NA,NA,NA,64.99102333931778
85748,Pima County,AZ,NA,NA,NA,85.45780969479354
85750,Pima County,AZ,NA,NA,NA,39.31777378815081
85941,Apache County,AZ,NA,11.453396524486571,NA,NA
86426,Mohave County,AZ,NA,NA,NA,61.04129263913825
71854,Miller County,AR,NA,NA,NA,67.14542190305207
72023,Lonoke County,AR,NA,56.6350710900474,NA,NA
72110,Conway County,AR,NA,NA,NA,95.87073608617594
72118,Pulaski County,AR,NA,NA,NA,44.165170556552965
72120,Pulaski County,AR,NA,NA,14.61100569259962,NA
72209,Pulaski County,AR,77.2,NA,NA,NA
72653,Baxter County,AR,94.8,NA,NA,NA
72715,Benton County,AR,NA,87.36176935229068,NA,NA
72834,Yell County,AR,NA,NA,77.32447817836811,NA
90003,Los Angeles County,CA,NA,33.57030015797788,NA,NA
90025,Los Angeles County,CA,NA,NA,NA,8.617594254937163
90035,Los Angeles County,CA,NA,61.532385466034754,NA,NA
90036,Los Angeles County,CA,NA,62.08530805687204,NA,NA
90039,Los Angeles County,CA,NA,NA,74.66793168880456,NA
90044,Los Angeles County,CA,NA,27.96208530805687,NA,NA
90045,Los Angeles County,CA,NA,NA,50.75901328273245,NA
90047,Los Angeles County,CA,NA,NA,NA,26.391382405745063
90066,Los Angeles County,CA,NA,42.338072669826225,NA,NA
90241,Los Angeles County,CA,NA,50.31595576619273,NA,NA
90242,Los Angeles County,CA,NA,NA,51.992409867172675,NA
90245,Los Angeles County,CA,NA,80.72669826224329,NA,NA
90254,Los Angeles County,CA,NA,79.54186413902053,NA,NA
90260,Los Angeles County,CA,NA,NA,64.99051233396584,NA
90262,Los Angeles County,CA,NA,32.62243285939969,NA,NA
90266,Los Angeles County,CA,85.6,NA,NA,NA
90277,Los Angeles County,CA,NA,NA,28.937381404174573,NA
90503,Los Angeles County,CA,61.6,NA,NA,NA
90505,Los Angeles County,CA,NA,55.29225908372828,NA,NA
90605,Los Angeles County,CA,NA,NA,68.69070208728652,NA
90621,Orange County,CA,NA,NA,NA,66.6068222621185
90638,Los Angeles County,CA,NA,52.21169036334913,NA,28.545780969479356
90720,Orange County,CA,NA,NA,54.93358633776091,NA
90723,Los Angeles County,CA,NA,48.973143759873615,NA,NA
90731,Los Angeles County,CA,NA,29.620853080568722,NA,NA
90740,Orange County,CA,NA,NA,39.658444022770404,NA
90745,Los Angeles County,CA,NA,37.203791469194314,NA,NA
90803,Los Angeles County,CA,NA,NA,42.8842504743833,NA
90804,Los Angeles County,CA,NA,42.18009478672986,NA,NA
90805,Los Angeles County,CA,NA,NA,72.29601518026566,NA
90807,Los Angeles County,CA,NA,NA,NA,52.42369838420108
90815,Los Angeles County,CA,NA,NA,34.9146110056926,NA
91106,Los Angeles County,CA,83.2,NA,NA,NA
91206,Los Angeles County,CA,NA,68.24644549763033,NA,NA
91324,Los Angeles County,CA,NA,71.32701421800948,NA,NA
91325,Los Angeles County,CA,NA,NA,NA,54.39856373429084
91326,Los Angeles County,CA,NA,NA,48.95635673624288,NA
91360,Ventura County,CA,NA,NA,44.49715370018975,NA
91361,Ventura County,CA,NA,85.22906793048973,NA,NA
91501,Los Angeles County,CA,NA,NA,77.7988614800759,NA
91607,Los Angeles County,CA,NA,76.54028436018957,NA,NA
91711,Los Angeles County,CA,NA,NA,NA,55.11669658886894
91741,Los Angeles County,CA,NA,NA,45.82542694497154,NA
91744,Los Angeles County,CA,NA,15.639810426540285,NA,NA
91750,Los Angeles County,CA,NA,60.90047393364929,NA,NA
91754,Los Angeles County,CA,NA,NA,NA,22.621184919210055
91765,Los Angeles County,CA,NA,NA,NA,52.244165170556556
91789,Los Angeles County,CA,NA,92.10110584518168,NA,NA
91791,Los Angeles County,CA,NA,NA,NA,50.269299820466784
91911,San Diego County,CA,NA,54.10742496050553,NA,NA
91942,San Diego County,CA,NA,NA,38.70967741935484,NA
92020,San Diego County,CA,NA,NA,6.451612903225806,NA
92028,San Diego County,CA,NA,NA,NA,74.1472172351885
92040,San Diego County,CA,NA,NA,NA,30.879712746858168
92081,San Diego County,CA,NA,65.79778830963664,NA,NA
92083,San Diego County,CA,NA,NA,60.72106261859582,71.0951526032316
92101,San Diego County,CA,NA,12.63823064770932,NA,NA
92102,San Diego County,CA,NA,78.67298578199052,NA,NA
92103,San Diego County,CA,NA,43.3649289099526,NA,NA
92104,San Diego County,CA,NA,57.10900473933649,NA,NA
92108,San Diego County,CA,NA,NA,99.52561669829223,NA
92111,San Diego County,CA,NA,51.18483412322274,NA,NA
92114,San Diego County,CA,NA,61.137440758293835,NA,NA
92115,San Diego County,CA,NA,30.09478672985782,NA,NA
92122,San Diego County,CA,NA,NA,62.04933586337761,NA
92129,San Diego County,CA,57.99999999999999,NA,NA,NA
92130,San Diego County,CA,NA,NA,81.30929791271348,NA
92131,San Diego County,CA,68.8,NA,NA,NA
92139,San Diego County,CA,NA,NA,87.9506641366224,NA
92154,San Diego County,CA,NA,NA,NA,11.8491921005386
92203,Riverside County,CA,NA,40.44233807266983,NA,NA
92210,Riverside County,CA,NA,NA,NA,54.39856373429084
92211,Riverside County,CA,NA,NA,8.254269449715371,0
92253,Riverside County,CA,NA,42.65402843601896,NA,NA
92260,Riverside County,CA,NA,NA,12.144212523719165,NA
92284,San Bernardino County,CA,NA,NA,23.81404174573055,NA
92301,San Bernardino County,CA,NA,31.67456556082148,NA,NA
92307,San Bernardino County,CA,NA,26.540284360189574,NA,NA
92311,San Bernardino County,CA,NA,NA,47.72296015180266,NA
92315,San Bernardino County,CA,NA,NA,90.22770398481973,NA
92316,San Bernardino County,CA,NA,47.94628751974723,NA,NA
92324,San Bernardino County,CA,34,NA,NA,NA
92325,San Bernardino County,CA,NA,80.41074249605056,NA,NA
92336,San Bernardino County,CA,NA,NA,15.180265654648956,NA
92337,San Bernardino County,CA,NA,NA,NA,96.05026929982047
92342,San Bernardino County,CA,NA,97.1563981042654,NA,NA
92346,San Bernardino County,CA,54.400000000000006,NA,NA,NA
92354,San Bernardino County,CA,NA,NA,87.57115749525617,NA
92410,San Bernardino County,CA,NA,31.04265402843602,NA,NA
92504,Riverside County,CA,NA,39.41548183254344,NA,NA
92505,Riverside County,CA,NA,NA,45.44592030360531,NA
92548,Riverside County,CA,NA,NA,96.39468690702088,NA
92563,Riverside County,CA,23.200000000000003,NA,NA,NA
92586,Riverside County,CA,NA,NA,41.46110056925996,NA
92596,Riverside County,CA,NA,NA,79.88614800759012,NA
92606,Orange County,CA,NA,NA,79.12713472485768,NA
92612,Orange County,CA,NA,NA,NA,89.40754039497307
92630,Orange County,CA,NA,31.83254344391785,NA,NA
92646,Orange County,CA,NA,NA,7.30550284629981,NA
92647,Orange County,CA,NA,NA,18.59582542694497,NA
92663,Orange County,CA,NA,NA,76.37571157495256,NA
92675,Orange County,CA,NA,82.93838862559242,NA,NA
92679,Orange County,CA,NA,NA,NA,72.35188509874327
92683,Orange County,CA,NA,NA,69.35483870967742,NA
92704,Orange County,CA,NA,30.963665086887836,NA,40.21543985637343
92705,Orange County,CA,87.6,NA,NA,NA
92707,Orange County,CA,NA,39.88941548183254,NA,NA
92708,Orange County,CA,NA,NA,13.946869070208729,NA
92802,Orange County,CA,NA,NA,83.58633776091081,NA
92840,Orange County,CA,NA,47.23538704581359,NA,22.800718132854577
92844,Orange County,CA,NA,NA,69.25996204933587,NA
92870,Orange County,CA,NA,NA,53.889943074003796,NA
92883,Riverside County,CA,NA,83.41232227488152,NA,NA
92886,Orange County,CA,NA,NA,16.03415559772296,NA
93001,Ventura County,CA,NA,70.22116903633491,NA,NA
93021,Ventura County,CA,NA,NA,44.97153700189753,NA
93022,Ventura County,CA,NA,NA,NA,95.69120287253142
93023,Ventura County,CA,NA,NA,52.84629981024668,NA
93033,Ventura County,CA,NA,NA,9.013282732447818,NA
93063,Ventura County,CA,NA,NA,56.54648956356736,NA
93110,Santa Barbara County,CA,NA,NA,NA,82.76481149012568
93245,Kings County,CA,NA,59.0047393364929,NA,NA
93257,Tulare County,CA,NA,NA,NA,21.005385996409338
93277,Tulare County,CA,NA,NA,48.4819734345351,NA
93307,Kern County,CA,NA,NA,15.939278937381404,NA
93444,San Luis Obispo County,CA,NA,NA,82.92220113851992,NA
93455,Santa Barbara County,CA,51.2,NA,NA,NA
93534,Los Angeles County,CA,NA,NA,33.301707779886144,NA
93536,Los Angeles County,CA,NA,NA,46.86907020872865,NA
93543,Los Angeles County,CA,NA,NA,84.53510436432637,NA
93555,Kern County,CA,NA,23.933649289099527,NA,NA
93619,Fresno County,CA,27.6,NA,NA,NA
93631,Fresno County,CA,NA,68.32543443917851,NA,NA
93703,Fresno County,CA,NA,69.19431279620854,NA,NA
93720,Fresno County,CA,NA,31.516587677725116,NA,NA
93725,Fresno County,CA,NA,NA,70.96774193548387,NA
93730,Fresno County,CA,NA,NA,97.34345351043643,NA
93955,Monterey County,CA,NA,79.14691943127961,30.075901328273247,NA
94002,San Mateo County,CA,NA,77.40916271721959,NA,NA
94010,San Mateo County,CA,NA,NA,NA,9.33572710951526
94025,San Mateo County,CA,NA,NA,NA,62.11849192100538
94040,Santa Clara County,CA,NA,NA,72.86527514231499,NA
94044,San Mateo County,CA,NA,NA,NA,41.11310592459605
94061,San Mateo County,CA,NA,NA,NA,51.16696588868941
94066,San Mateo County,CA,68,NA,NA,NA
94080,San Mateo County,CA,NA,NA,6.072106261859583,NA
94086,Santa Clara County,CA,NA,56.95102685624013,NA,NA
94087,Santa Clara County,CA,NA,NA,NA,23.518850987432675
94102,San Francisco County,CA,NA,NA,5.977229601518026,NA
94107,San Francisco County,CA,NA,NA,NA,47.217235188509875
94110,San Francisco County,CA,NA,11.137440758293838,NA,NA
94115,San Francisco County,CA,NA,NA,NA,10.771992818671453
94306,Santa Clara County,CA,NA,NA,94.49715370018976,NA
94523,Contra Costa County,CA,52.800000000000004,NA,NA,NA
94539,Alameda County,CA,NA,NA,NA,38.77917414721723
94544,Alameda County,CA,NA,45.65560821484992,NA,NA
94545,Alameda County,CA,NA,NA,65.65464895635674,NA
94582,Contra Costa County,CA,NA,63.74407582938388,NA,NA
94583,Contra Costa County,CA,NA,NA,59.108159392789375,NA
94588,Alameda County,CA,NA,NA,68.1214421252372,NA
94599,Napa County,CA,NA,NA,NA,64.27289048473968
94602,Alameda County,CA,NA,89.88941548183254,NA,NA
94612,Alameda County,CA,NA,70.7740916271722,NA,NA
94707,Alameda County,CA,NA,NA,86.05313092979127,NA
94804,Contra Costa County,CA,NA,59.55766192733017,NA,NA
94901,Marin County,CA,63.6,NA,34.440227703984824,36.62477558348294
94939,Marin County,CA,NA,97.6303317535545,NA,NA
95037,Santa Clara County,CA,NA,53.47551342812006,NA,NA
95070,Santa Clara County,CA,NA,NA,68.78557874762808,NA
95076,Santa Cruz County,CA,NA,NA,15.749525616698293,NA
95122,Santa Clara County,CA,NA,NA,44.11764705882353,NA
95132,Santa Clara County,CA,84.39999999999999,NA,NA,NA
95207,San Joaquin County,CA,NA,81.83254344391784,NA,NA
95252,Calaveras County,CA,NA,92.10110584518168,86.24288425047439,75.76301615798923
95330,San Joaquin County,CA,NA,75.9083728278041,NA,NA
95338,Mariposa County,CA,NA,81.67456556082149,NA,NA
95355,Stanislaus County,CA,NA,49.447077409162716,NA,NA
95366,San Joaquin County,CA,NA,NA,76.85009487666035,NA
95404,Sonoma County,CA,NA,NA,24.952561669829223,21.903052064631957
95407,Sonoma County,CA,NA,57.187993680884674,NA,NA
95451,Lake County,CA,NA,NA,NA,61.40035906642729
95521,Humboldt County,CA,NA,79.38388625592417,NA,NA
95602,Placer County,CA,NA,86.7298578199052,NA,NA
95610,Sacramento County,CA,NA,NA,NA,41.4721723518851
95618,Yolo County,CA,NA,96.6824644549763,NA,NA
95620,Solano County,CA,NA,NA,94.21252371916509,NA
95621,Sacramento County,CA,NA,NA,NA,23.339317773788153
95660,Sacramento County,CA,NA,NA,NA,58.88689407540395
95662,Sacramento County,CA,NA,NA,58.63377609108159,NA
95670,Sacramento County,CA,NA,32.46445497630332,NA,NA
95678,Placer County,CA,NA,45.33965244865718,NA,NA
95688,Solano County,CA,NA,NA,55.88235294117647,NA
95758,Sacramento County,CA,NA,NA,42.22011385199241,NA
95818,Sacramento County,CA,NA,88.23064770932069,NA,NA
95820,Sacramento County,CA,NA,47.55134281200632,NA,NA
95821,Sacramento County,CA,NA,NA,27.514231499051235,NA
95823,Sacramento County,CA,NA,10.66350710900474,NA,NA
95825,Sacramento County,CA,NA,45.892575039494474,NA,NA
95901,Yuba County,CA,NA,22.748815165876778,NA,NA
95926,Butte County,CA,NA,32.30647709320695,NA,NA
95945,Nevada County,CA,NA,54.818325434439174,NA,NA
95948,Butte County,CA,NA,NA,78.93738140417457,NA
95954,Butte County,CA,NA,NA,NA,35.90664272890485
95965,Butte County,CA,NA,16.034755134281202,NA,NA
95966,Butte County,CA,NA,NA,NA,27.109515260323157
95993,Sutter County,CA,NA,NA,81.97343453510436,NA
96122,Plumas County,CA,NA,NA,79.12713472485768,NA
80010,Arapahoe County,CO,NA,16.429699842022117,NA,61.57989228007181
80011,Arapahoe County,CO,NA,74.01263823064771,NA,NA
80012,Arapahoe County,CO,NA,9.873617693522906,NA,18.13285457809695
80014,Arapahoe County,CO,28.799999999999997,NA,NA,NA
80016,Arapahoe County,CO,NA,52.922590837282776,NA,NA
80017,Arapahoe County,CO,NA,89.1785150078989,NA,NA
80021,Jefferson County,CO,39.2,NA,NA,NA
80104,Douglas County,CO,NA,NA,59.867172675521815,NA
80111,Arapahoe County,CO,NA,65.5608214849921,NA,NA
80112,Arapahoe County,CO,NA,49.842022116903635,NA,NA
80128,Jefferson County,CO,46.400000000000006,NA,NA,NA
80204,Denver County,CO,NA,19.510268562401265,NA,NA
80205,Denver County,CO,NA,NA,NA,91.20287253141831
80206,Denver County,CO,NA,64.29699842022117,59.20303605313093,NA
80207,Denver County,CO,NA,40.44233807266983,NA,NA
80210,Denver County,CO,NA,NA,49.905123339658445,NA
80215,Jefferson County,CO,NA,NA,75.99620493358634,NA
80218,Denver County,CO,NA,57.187993680884674,NA,NA
80220,Denver County,CO,46.400000000000006,NA,NA,NA
80227,Jefferson County,CO,NA,NA,NA,51.8850987432675
80229,Adams County,CO,10.4,NA,NA,NA
80246,Denver County,CO,NA,NA,NA,83.48294434470377
80247,Arapahoe County,CO,NA,NA,NA,35.00897666068223
80260,Adams County,CO,NA,NA,54.83870967741935,NA
80301,Boulder County,CO,NA,NA,NA,54.039497307001795
80465,Jefferson County,CO,NA,NA,NA,95.33213644524237
80501,Boulder County,CO,NA,NA,50.284629981024665,68.2226211849192
80524,Larimer County,CO,NA,NA,97.43833017077799,NA
80525,Larimer County,CO,NA,13.191153238546605,NA,NA
80528,Larimer County,CO,36.8,NA,NA,NA
80537,Larimer County,CO,NA,NA,13.567362428842506,NA
80550,Weld County,CO,NA,NA,39.46869070208729,NA
80601,Adams County,CO,NA,NA,34.0607210626186,NA
80615,Weld County,CO,NA,NA,92.31499051233396,NA
80631,Weld County,CO,NA,NA,22.296015180265655,NA
80634,Weld County,CO,NA,NA,1.3282732447817838,NA
80701,Morgan County,CO,22.8,19.826224328593998,73.05502846299811,NA
80751,Logan County,CO,NA,NA,82.82732447817837,NA
80906,El Paso County,CO,NA,NA,36.14800759013283,NA
80909,El Paso County,CO,NA,23.459715639810426,44.686907020872866,NA
80911,El Paso County,CO,NA,80.33175355450237,NA,NA
80915,El Paso County,CO,NA,NA,73.14990512333965,NA
80920,El Paso County,CO,NA,NA,55.88235294117647,NA
80923,El Paso County,CO,NA,58.0568720379147,NA,NA
81004,Pueblo County,CO,43.2,NA,NA,NA
81005,Pueblo County,CO,60,NA,20.683111954459203,NA
81101,Alamosa County,CO,NA,41.07424960505529,NA,NA
81201,Chaffee County,CO,NA,NA,NA,93.53680430879713
81401,Montrose County,CO,98,NA,36.43263757115749,NA
81501,Mesa County,CO,NA,NA,NA,70.73608617594255
81507,Mesa County,CO,NA,86.41390205371248,NA,NA
81521,Mesa County,CO,NA,63.98104265402843,NA,NA
06001,Hartford County,CT,43.6,74.88151658767772,NA,NA
06002,Hartford County,CT,NA,45.26066350710901,NA,NA
06029,Tolland County,CT,NA,NA,59.67741935483871,NA
06033,Hartford County,CT,NA,NA,50.094876660341555,NA
06040,Hartford County,CT,NA,NA,50,25.314183123877914
06042,Hartford County,CT,NA,36.334913112164294,NA,NA
06052,Hartford County,CT,NA,NA,84.53510436432637,NA
06053,Hartford County,CT,NA,55.45023696682464,NA,NA
06067,Hartford County,CT,NA,NA,59.487666034155595,NA
06071,Tolland County,CT,NA,92.25908372827804,NA,NA
06074,Hartford County,CT,42.4,NA,NA,NA
06082,Hartford County,CT,NA,16.824644549763033,NA,NA
06084,Tolland County,CT,NA,71.95892575039494,60.24667931688804,NA
06111,Hartford County,CT,NA,NA,38.804554079696395,NA
06114,Hartford County,CT,NA,NA,42.314990512333964,NA
06117,Hartford County,CT,NA,NA,NA,83.12387791741472
06249,New London County,CT,NA,77.88309636650868,NA,NA
06403,New Haven County,CT,NA,NA,94.11764705882352,NA
06410,New Haven County,CT,NA,NA,83.30170777988614,NA
06415,New London County,CT,NA,51.421800947867304,NA,NA
06422,Middlesex County,CT,NA,79.69984202211691,NA,NA
06441,Middlesex County,CT,NA,NA,NA,94.43447037701975
06450,New Haven County,CT,NA,NA,NA,76.48114901256733
06451,New Haven County,CT,NA,55.21327014218009,34.25047438330171,NA
06457,Middlesex County,CT,NA,6.79304897314376,NA,NA
06484,Fairfield County,CT,NA,33.649289099526065,NA,NA
06492,New Haven County,CT,NA,NA,60.341555977229596,NA
06511,New Haven County,CT,NA,4.502369668246446,NA,NA
06512,New Haven County,CT,NA,NA,NA,14.362657091561939
06514,New Haven County,CT,NA,NA,29.127134724857683,NA
06517,New Haven County,CT,NA,46.52448657187993,NA,NA
06519,New Haven County,CT,NA,22.59083728278041,NA,NA
06608,Fairfield County,CT,NA,NA,91.17647058823529,NA
06614,Fairfield County,CT,NA,NA,63.5673624288425,NA
06704,New Haven County,CT,NA,20.14218009478673,NA,NA
06705,New Haven County,CT,NA,21.563981042654028,NA,NA
06708,New Haven County,CT,NA,77.09320695102686,NA,NA
06770,New Haven County,CT,NA,23.06477093206951,81.78368121442125,59.06642728904848
06790,Litchfield County,CT,20.4,NA,1.6129032258064515,NA
06804,Fairfield County,CT,NA,NA,NA,91.74147217235189
06811,Fairfield County,CT,NA,NA,58.44402277039848,NA
06825,Fairfield County,CT,NA,NA,78.08349146110058,NA
06880,Fairfield County,CT,NA,NA,57.3055028462998,NA
06905,Fairfield County,CT,NA,73.45971563981043,NA,NA
19702,New Castle County,DE,NA,NA,16.413662239089184,NA
19709,New Castle County,DE,NA,NA,17.552182163187855,NA
19713,New Castle County,DE,NA,NA,26.280834914611006,NA
19802,New Castle County,DE,NA,13.033175355450238,NA,NA
19808,New Castle County,DE,NA,NA,52.56166982922201,NA
19810,New Castle County,DE,NA,77.17219589257503,NA,NA
19901,Kent County,DE,NA,NA,16.793168880455408,NA
19943,Kent County,DE,NA,NA,65.74952561669829,NA
19946,Kent County,DE,NA,94.47077409162718,NA,NA
19947,Sussex County,DE,NA,NA,36.43263757115749,NA
19963,Sussex County,DE,NA,33.0173775671406,NA,NA
19966,Sussex County,DE,NA,NA,7.7798861480075905,NA
19973,Sussex County,DE,NA,13.428120063191153,18.026565464895636,NA
32011,Nassau County,FL,NA,56.31911532385466,NA,NA
32033,St. Johns County,FL,NA,NA,88.51992409867174,NA
32043,Clay County,FL,NA,NA,19.25996204933586,NA
32052,Hamilton County,FL,NA,82.5434439178515,NA,NA
32055,Columbia County,FL,NA,NA,57.49525616698292,NA
32073,Clay County,FL,NA,NA,NA,20.107719928186714
32080,St. Johns County,FL,NA,66.0347551342812,NA,NA
32084,St. Johns County,FL,NA,93.12796208530806,NA,34.8294434470377
32086,St. Johns County,FL,NA,NA,67.93168880455408,NA
32095,St. Johns County,FL,74.8,NA,NA,NA
32117,Volusia County,FL,NA,NA,46.39468690702087,NA
32119,Volusia County,FL,NA,NA,47.05882352941176,NA
32127,Volusia County,FL,NA,NA,NA,60.86175942549371
32129,Volusia County,FL,NA,NA,64.13662239089184,NA
32136,Flagler County,FL,NA,NA,67.83681214421252,NA
32137,Flagler County,FL,NA,NA,NA,34.47037701974865
32162,Sumter County,FL,NA,NA,NA,1.7953321364452424
32164,Flagler County,FL,NA,NA,NA,10.59245960502693
32174,Volusia County,FL,NA,NA,39.27893738140417,NA
32219,Duval County,FL,NA,42.65402843601896,NA,70.3770197486535
32221,Duval County,FL,NA,NA,30.929791271347252,NA
32222,Duval County,FL,NA,NA,NA,97.66606822262118
32223,Duval County,FL,74,NA,NA,NA
32244,Duval County,FL,NA,5.371248025276461,NA,NA
32246,Duval County,FL,NA,13.507109004739338,20.398481973434535,NA
32257,Duval County,FL,NA,55.134281200631904,NA,NA
32301,Leon County,FL,NA,NA,68.21631878557875,NA
32303,Leon County,FL,NA,NA,NA,53.50089766606823
32401,Bay County,FL,NA,35.8609794628752,NA,NA
32405,Bay County,FL,NA,NA,26.091081593927896,80.96947935368043
32409,Bay County,FL,NA,NA,NA,83.30341113105925
32433,Walton County,FL,NA,NA,36.717267552182165,NA
32444,Bay County,FL,NA,NA,NA,42.36983842010772
32448,Jackson County,FL,NA,55.371248025276465,NA,NA
32526,Escambia County,FL,NA,12.085308056872037,55.123339658444024,NA
32533,Escambia County,FL,NA,28.12006319115324,NA,NA
32548,Okaloosa County,FL,NA,60.821484992101105,NA,NA
32566,Santa Rosa County,FL,NA,NA,20.113851992409867,NA
32607,Alachua County,FL,NA,17.298578199052134,NA,NA
32615,Alachua County,FL,23.599999999999998,NA,NA,NA
32707,Seminole County,FL,67.60000000000001,NA,NA,NA
32712,Orange County,FL,NA,NA,NA,57.09156193895871
32720,Volusia County,FL,NA,55.52922590837282,68.50094876660341,NA
32773,Seminole County,FL,NA,NA,NA,69.83842010771993
32780,Brevard County,FL,NA,NA,15.559772296015181,NA
32811,Orange County,FL,NA,NA,NA,53.3213644524237
32817,Orange County,FL,NA,61.92733017377567,NA,NA
32839,Orange County,FL,NA,25.59241706161137,NA,NA
32948,Indian River County,FL,NA,NA,98.67172675521822,NA
32962,Indian River County,FL,NA,NA,36.05313092979127,NA
32966,Indian River County,FL,NA,70.53712480252766,NA,NA
32976,Brevard County,FL,NA,77.48815165876776,NA,18.31238779174147
33015,Miami-Dade County,FL,NA,47.867298578199055,NA,NA
33018,Miami-Dade County,FL,NA,70.06319115323855,50.664136622390885,NA
33021,Broward County,FL,44,NA,NA,NA
33024,Broward County,FL,NA,28.672985781990523,NA,NA
33026,Broward County,FL,NA,79.62085308056872,NA,NA
33037,Monroe County,FL,NA,NA,67.26755218216319,NA
33056,Miami-Dade County,FL,NA,37.83570300157978,NA,NA
33064,Broward County,FL,NA,NA,48.38709677419355,NA
33068,Broward County,FL,NA,NA,NA,72.35188509874327
33142,Miami-Dade County,FL,NA,16.5086887835703,NA,NA
33147,Miami-Dade County,FL,NA,75.27646129541864,NA,NA
33157,Miami-Dade County,FL,NA,62.480252764612956,NA,NA
33172,Miami-Dade County,FL,NA,NA,54.459203036053125,NA
33173,Miami-Dade County,FL,NA,NA,47.43833017077799,NA
33184,Miami-Dade County,FL,NA,71.7219589257504,NA,NA
33186,Miami-Dade County,FL,NA,NA,NA,27.827648114901255
33308,Broward County,FL,NA,73.38072669826225,NA,NA
33309,Broward County,FL,NA,NA,73.33965844402277,NA
33311,Broward County,FL,NA,NA,17.836812144212523,NA
33314,Broward County,FL,NA,62.95418641390206,NA,NA
33317,Broward County,FL,NA,NA,NA,44.344703770197484
33321,Broward County,FL,NA,98.02527646129542,NA,NA
33324,Broward County,FL,NA,NA,42.0303605313093,NA
33325,Broward County,FL,NA,NA,NA,73.60861759425494
33405,Palm Beach County,FL,NA,82.22748815165876,NA,NA
33411,Palm Beach County,FL,NA,36.492890995260666,NA,NA
33428,Palm Beach County,FL,NA,NA,NA,49.371633752244165
33432,Palm Beach County,FL,NA,78.98894154818325,NA,28.904847396768403
33433,Palm Beach County,FL,NA,NA,NA,62.65709156193896
33434,Palm Beach County,FL,NA,NA,NA,5.565529622980251
33445,Palm Beach County,FL,NA,NA,60.53130929791271,NA
33446,Palm Beach County,FL,NA,NA,27.988614800759017,NA
33469,Palm Beach County,FL,NA,NA,92.50474383301707,NA
33486,Palm Beach County,FL,NA,NA,75.90132827324479,NA
33540,Pasco County,FL,NA,85.07109004739335,NA,NA
33542,Pasco County,FL,NA,NA,NA,44.703770197486534
33610,Hillsborough County,FL,NA,12.243285939968404,NA,NA
33611,Hillsborough County,FL,NA,NA,NA,53.680430879712745
33615,Hillsborough County,FL,NA,NA,NA,54.219030520646314
33617,Hillsborough County,FL,NA,31.83254344391785,86.81214421252372,NA
33635,Hillsborough County,FL,NA,NA,NA,86.53500897666068
33647,Hillsborough County,FL,NA,NA,40.22770398481973,NA
33709,Pinellas County,FL,NA,NA,51.13851992409867,NA
33712,Pinellas County,FL,NA,NA,53.2258064516129,NA
33714,Pinellas County,FL,NA,52.527646129541864,NA,NA
33765,Pinellas County,FL,NA,NA,86.4326375711575,NA
33771,Pinellas County,FL,NA,NA,29.506641366223906,NA
33776,Pinellas County,FL,NA,NA,NA,73.24955116696589
33777,Pinellas County,FL,NA,NA,67.17267552182163,NA
33781,Pinellas County,FL,NA,NA,66.22390891840607,NA
33782,Pinellas County,FL,NA,NA,44.78178368121442,NA
33785,Pinellas County,FL,NA,98.5781990521327,NA,NA
33810,Polk County,FL,NA,NA,NA,27.468581687612208
33813,Polk County,FL,NA,NA,43.16888045540797,NA
33823,Polk County,FL,38,NA,NA,NA
33825,Highlands County,FL,NA,NA,NA,19.748653500897667
33837,Polk County,FL,NA,45.57661927330174,NA,NA
33870,Highlands County,FL,NA,27.567140600315952,NA,NA
33873,Hardee County,FL,NA,68.79936808846762,NA,NA
33897,Polk County,FL,NA,NA,66.31878557874764,NA
33905,Lee County,FL,NA,NA,21.916508538899432,NA
33909,Lee County,FL,NA,40.20537124802528,NA,NA
33916,Lee County,FL,NA,NA,64.61100569259962,NA
33928,Lee County,FL,NA,91.62717219589257,NA,NA
33935,Hendry County,FL,NA,NA,64.70588235294117,NA
33967,Lee County,FL,NA,55.76619273301737,NA,NA
33971,Lee County,FL,NA,NA,85.00948766603416,NA
33981,Charlotte County,FL,NA,NA,NA,65.1705565529623
33990,Lee County,FL,NA,NA,91.55597722960151,NA
33991,Lee County,FL,NA,62.40126382306477,NA,NA
34104,Collier County,FL,NA,75.75039494470775,NA,NA
34114,Collier County,FL,NA,NA,NA,43.62657091561939
34119,Collier County,FL,NA,NA,NA,18.31238779174147
34135,Lee County,FL,NA,NA,13.092979127134724,NA
34202,Manatee County,FL,NA,NA,34.0607210626186,NA
34205,Manatee County,FL,44.800000000000004,NA,NA,NA
34207,Manatee County,FL,NA,51.18483412322274,NA,NA
34221,Manatee County,FL,NA,36.65086887835703,23.62428842504744,NA
34233,Sarasota County,FL,NA,NA,85.48387096774194,NA
34238,Sarasota County,FL,NA,NA,NA,67.3249551166966
34286,Sarasota County,FL,NA,55.055292259083735,NA,NA
34473,Marion County,FL,NA,NA,57.210626185958255,NA
34476,Marion County,FL,NA,NA,33.49146110056926,NA
34491,Marion County,FL,NA,NA,29.22201138519924,NA
34608,Hernando County,FL,NA,NA,42.69449715370019,75.22441651705566
34609,Hernando County,FL,NA,30.410742496050553,NA,NA
34610,Pasco County,FL,NA,NA,97.6280834914611,NA
34652,Pasco County,FL,NA,66.82464454976304,NA,NA
34677,Pinellas County,FL,NA,71.56398104265402,NA,NA
34711,Lake County,FL,NA,20.221169036334913,NA,NA
34747,Osceola County,FL,NA,NA,53.13092979127134,NA
34761,Orange County,FL,NA,NA,NA,66.06822262118493
34769,Osceola County,FL,NA,NA,NA,45.601436265709154
34788,Lake County,FL,NA,NA,25.901328273244783,NA
34951,St. Lucie County,FL,97.2,NA,NA,NA
34974,Okeechobee County,FL,NA,NA,35.57874762808349,NA
34990,Martin County,FL,NA,NA,NA,3.949730700179533
30012,Rockdale County,GA,66,NA,NA,NA
30024,Gwinnett County,GA,21.6,NA,NA,NA
30041,Forsyth County,GA,NA,26.698262243285942,NA,NA
30043,Gwinnett County,GA,NA,21.09004739336493,NA,NA
30052,Walton County,GA,NA,NA,7.969639468690702,NA
30054,Newton County,GA,NA,NA,63.18785578747628,NA
30087,DeKalb County,GA,NA,NA,18.59582542694497,NA
30101,Cobb County,GA,NA,NA,23.434535104364326,NA
30108,Carroll County,GA,NA,NA,94.59203036053131,NA
30117,Carroll County,GA,NA,31.27962085308057,NA,NA
30122,Douglas County,GA,NA,86.88783570300158,NA,NA
30176,Haralson County,GA,NA,76.69826224328594,NA,NA
30179,Carroll County,GA,NA,NA,98.19734345351043,NA
30180,Carroll County,GA,NA,21.80094786729858,NA,NA
30188,Cherokee County,GA,NA,76.54028436018957,NA,NA
30240,Troup County,GA,NA,24.723538704581358,NA,NA
30241,Troup County,GA,NA,26.38230647709321,NA,NA
30291,Fulton County,GA,NA,65.32385466034755,NA,NA
30313,Fulton County,GA,NA,92.65402843601895,NA,NA
30314,Fulton County,GA,NA,NA,41.84060721062618,NA
30331,Fulton County,GA,NA,NA,7.115749525616698,NA
30501,Hall County,GA,NA,NA,62.7134724857685,NA
30518,Gwinnett County,GA,NA,NA,30.55028462998102,NA
30606,Clarke County,GA,NA,36.808846761453395,NA,NA
30643,Hart County,GA,NA,60.58451816745656,NA,NA
30683,Clarke County,GA,NA,85.86097946287519,NA,NA
30809,Columbia County,GA,NA,34.28120063191153,NA,NA
30830,Burke County,GA,NA,NA,56.2618595825427,NA
30909,Richmond County,GA,NA,25.27646129541864,NA,NA
31021,Laurens County,GA,55.60000000000001,NA,NA,NA
31052,Bibb County,GA,NA,NA,82.63757115749526,NA
31216,Bibb County,GA,NA,NA,80.1707779886148,NA
31404,Chatham County,GA,NA,NA,36.62239089184061,NA
31569,Camden County,GA,NA,94.62875197472354,NA,NA
31705,Dougherty County,GA,NA,28.83096366508689,NA,NA
31707,Dougherty County,GA,NA,NA,93.45351043643264,NA
39817,Decatur County,GA,NA,60.03159557661928,NA,NA
39819,Decatur County,GA,NA,NA,75.61669829222012,NA
96706,Honolulu County,HI,NA,NA,NA,14.721723518850988
96734,Honolulu County,HI,NA,NA,10.15180265654649,NA
96797,Honolulu County,HI,NA,7.5829383886255926,NA,NA
96817,Honolulu County,HI,NA,10.347551342812006,5.407969639468691,NA
83201,Bannock County,ID,NA,NA,NA,33.75224416517056
83221,Bingham County,ID,NA,NA,NA,76.66068222621185
83301,Twin Falls County,ID,NA,NA,10.436432637571158,NA
83316,Twin Falls County,ID,NA,NA,NA,79.89228007181327
83406,Bonneville County,ID,NA,NA,68.59582542694497,NA
83616,Ada County,ID,NA,NA,9.487666034155598,NA
83702,Ada County,ID,NA,NA,NA,38.42010771992819
83704,Ada County,ID,NA,NA,54.17457305502846,NA
83709,Ada County,ID,NA,NA,25.332068311195442,NA
83714,Ada County,ID,NA,NA,63.946869070208734,NA
83835,Kootenai County,ID,69.19999999999999,53.47551342812006,NA,NA
83860,Bonner County,ID,NA,NA,81.40417457305503,NA
83864,Bonner County,ID,NA,NA,NA,49.19210053859964
60004,Cook County,IL,NA,24.091627172195892,NA,NA
60015,Lake County,IL,NA,NA,74.28842504743834,NA
60018,Cook County,IL,NA,NA,67.55218216318785,NA
60025,Cook County,IL,NA,68.79936808846762,NA,NA
60030,Lake County,IL,NA,NA,21.157495256166982,NA
60044,Lake County,IL,NA,NA,NA,59.78456014362658
60062,Cook County,IL,NA,NA,NA,6.642728904847396
60068,Cook County,IL,NA,NA,92.6944971537002,NA
60070,Cook County,IL,NA,85.07109004739335,NA,NA
60073,Lake County,IL,NA,13.82306477093207,NA,NA
60077,Cook County,IL,18.4,NA,NA,NA
60083,Lake County,IL,NA,NA,92.22011385199241,NA
60085,Lake County,IL,NA,NA,NA,27.648114901256733
60090,Cook County,IL,NA,NA,24.857685009487664,NA
60091,Cook County,IL,NA,NA,19.54459203036053,NA
60103,DuPage County,IL,NA,27.251184834123222,NA,NA
60104,Cook County,IL,NA,NA,23.055028462998102,NA
60107,Cook County,IL,NA,47.077409162717224,NA,NA
60108,DuPage County,IL,NA,56.08214849921011,NA,NA
60118,Kane County,IL,NA,NA,61.195445920303605,NA
60123,Kane County,IL,NA,19.194312796208532,NA,NA
60126,DuPage County,IL,NA,NA,2.0872865275142316,NA
60130,Cook County,IL,71.6,NA,NA,NA
60134,Kane County,IL,NA,NA,37.2865275142315,NA
60137,DuPage County,IL,NA,32.38546603475513,NA,NA
60140,Kane County,IL,NA,NA,63.662239089184055,NA
60142,McHenry County,IL,NA,NA,NA,17.0556552962298
60148,DuPage County,IL,NA,12.87519747235387,NA,NA
60152,McHenry County,IL,NA,71.80094786729858,NA,NA
60154,Cook County,IL,76.4,NA,22.770398481973434,NA
60160,Cook County,IL,NA,48.42022116903634,NA,NA
60172,DuPage County,IL,NA,NA,37.381404174573056,56.193895870736085
60181,DuPage County,IL,NA,NA,27.13472485768501,40.394973070017954
60187,DuPage County,IL,NA,35.46603475513428,NA,NA
60188,DuPage County,IL,NA,16.74565560821485,NA,84.20107719928187
60201,Cook County,IL,NA,41.943127962085306,NA,NA
60202,Cook County,IL,NA,56.477093206951025,NA,NA
60302,Cook County,IL,NA,31.83254344391785,NA,NA
60304,Cook County,IL,NA,NA,NA,70.55655296229803
60401,Will County,IL,NA,NA,NA,94.61400359066428
60403,Will County,IL,NA,NA,NA,45.78096947935368
60406,Cook County,IL,NA,NA,93.16888045540796,NA
60419,Cook County,IL,NA,NA,31.973434535104367,53.14183123877917
60422,Cook County,IL,NA,79.30489731437599,NA,NA
60429,Cook County,IL,95.19999999999999,NA,NA,NA
60435,Will County,IL,22.400000000000002,NA,NA,NA
60447,Grundy County,IL,NA,NA,70.30360531309297,NA
60449,Will County,IL,NA,NA,NA,86.35547576301616
60453,Cook County,IL,NA,NA,7.2106261859582546,NA
60455,Cook County,IL,63.2,NA,NA,NA
60462,Cook County,IL,NA,NA,26.85009487666034,59.964093357271096
60463,Cook County,IL,NA,NA,NA,26.570915619389584
60467,Cook County,IL,NA,NA,NA,47.755834829443444
60468,Will County,IL,NA,97.23538704581358,NA,NA
60473,Cook County,IL,NA,NA,75.04743833017078,NA
60477,Cook County,IL,NA,56.24012638230648,11.195445920303605,62.83662477558348
60490,Will County,IL,NA,NA,86.90702087286527,NA
60491,Will County,IL,NA,33.80726698262243,NA,NA
60504,DuPage County,IL,40.400000000000006,NA,NA,NA
60515,DuPage County,IL,NA,38.072669826224335,30.64516129032258,NA
60526,Cook County,IL,NA,NA,NA,38.06104129263914
60527,DuPage County,IL,NA,74.72353870458136,9.67741935483871,14.542190305206462
60532,DuPage County,IL,NA,43.127962085308056,NA,NA
60538,Kendall County,IL,34.8,NA,44.212523719165084,NA
60540,DuPage County,IL,24.4,NA,NA,NA
60544,Will County,IL,NA,36.09794628751975,NA,NA
60558,Cook County,IL,NA,NA,58.538899430740045,NA
60608,Cook County,IL,NA,NA,62.903225806451616,NA
60609,Cook County,IL,NA,NA,NA,18.850987432675044
60612,Cook County,IL,NA,16.666666666666664,NA,NA
60614,Cook County,IL,NA,20.063191153238545,NA,NA
60617,Cook County,IL,NA,NA,NA,1.615798922800718
60618,Cook County,IL,9.2,NA,NA,NA
60619,Cook County,IL,NA,5.924170616113744,3.984819734345351,NA
60620,Cook County,IL,10,NA,NA,NA
60621,Cook County,IL,NA,33.4913112164297,NA,NA
60622,Cook County,IL,NA,NA,40.60721062618596,NA
60623,Cook County,IL,NA,28.90995260663507,NA,NA
60624,Cook County,IL,NA,NA,NA,41.83123877917414
60628,Cook County,IL,NA,6.556082148499211,NA,NA
60629,Cook County,IL,NA,NA,3.700189753320683,60.14362657091562
60630,Cook County,IL,NA,22.35387045813586,NA,75.40394973070018
60631,Cook County,IL,NA,NA,93.07400379506642,NA
60633,Cook County,IL,NA,63.82306477093207,NA,NA
60634,Cook County,IL,NA,53.87045813586098,NA,NA
60637,Cook County,IL,NA,NA,11.195445920303605,NA
60638,Cook County,IL,NA,8.846761453396525,NA,4.66786355475763
60639,Cook County,IL,6,NA,NA,NA
60640,Cook County,IL,NA,NA,NA,90.12567324955117
60643,Cook County,IL,NA,8.214849921011059,NA,NA
60645,Cook County,IL,NA,34.4391785150079,NA,19.389587073608617
60646,Cook County,IL,NA,45.497630331753555,NA,NA
60651,Cook County,IL,NA,NA,7.495256166982922,NA
60653,Cook County,IL,NA,28.436018957345972,NA,NA
60656,Cook County,IL,NA,72.90679304897314,NA,NA
60657,Cook County,IL,NA,NA,11.859582542694497,NA
60660,Cook County,IL,NA,25.908372827804104,NA,NA
60804,Cook County,IL,NA,17.77251184834123,NA,NA
60901,Kankakee County,IL,NA,NA,74.19354838709677,NA
60942,Vermilion County,IL,NA,86.96682464454977,56.166982922201136,NA
60970,Iroquois County,IL,NA,NA,73.24478178368122,NA
61021,Lee County,IL,NA,NA,NA,2.5134649910233393
61032,Stephenson County,IL,NA,NA,15.27514231499051,45.421903052064636
61054,Ogle County,IL,NA,98.26224328593996,NA,NA
61068,Ogle County,IL,NA,NA,77.70398481973434,NA
61071,Whiteside County,IL,NA,NA,14.800759013282732,NA
61081,Whiteside County,IL,16.400000000000002,NA,13.757115749525617,NA
61101,Winnebago County,IL,NA,43.99684044233807,NA,NA
61102,Winnebago County,IL,NA,NA,51.89753320683111,NA
61109,Winnebago County,IL,NA,NA,42.50474383301708,NA
61265,Rock Island County,IL,NA,NA,NA,66.96588868940754
61282,Rock Island County,IL,90.4,NA,NA,NA
61350,LaSalle County,IL,NA,NA,NA,28.725314183123878
61354,LaSalle County,IL,NA,NA,NA,29.982046678635548
61356,Bureau County,IL,NA,NA,59.01328273244781,NA
61364,LaSalle County,IL,NA,91.31121642969984,49.24098671726755,NA
61520,Fulton County,IL,NA,66.74565560821485,NA,NA
61523,Peoria County,IL,NA,NA,NA,67.68402154398564
61554,Tazewell County,IL,NA,58.53080568720379,10.246679316888045,7.899461400359066
61571,Tazewell County,IL,NA,NA,NA,48.473967684021545
61605,Peoria County,IL,65.2,68.08846761453397,NA,NA
61611,Tazewell County,IL,NA,92.89099526066352,NA,NA
61614,Peoria County,IL,66,95.49763033175356,31.688804554079695,NA
61801,Champaign County,IL,NA,NA,42.599620493358636,NA
61821,Champaign County,IL,NA,NA,NA,86.71454219030521
61846,Vermilion County,IL,NA,NA,98.10246679316889,NA
61874,Champaign County,IL,NA,NA,91.27134724857684,NA
61944,Edgar County,IL,NA,72.51184834123224,NA,NA
62040,Madison County,IL,NA,18.167456556082147,NA,16.517055655296232
62203,St. Clair County,IL,NA,84.83412322274881,NA,NA
62249,Madison County,IL,NA,NA,85.19924098671727,NA
62448,Jasper County,IL,NA,NA,83.11195445920305,NA
62454,Crawford County,IL,NA,NA,69.8292220113852,NA
62522,Macon County,IL,NA,NA,NA,42.72890484739677
62704,Sangamon County,IL,NA,NA,NA,12.028725314183124
62812,Franklin County,IL,NA,74.88151658767772,NA,NA
62821,White County,IL,NA,NA,NA,78.27648114901257
62837,Wayne County,IL,NA,NA,NA,66.24775583482945
62864,Jefferson County,IL,79.60000000000001,NA,NA,NA
62959,Williamson County,IL,NA,NA,NA,17.594254937163374
46011,Madison County,IN,NA,45.813586097946285,18.975332068311197,NA
46012,Madison County,IN,NA,35.78199052132701,NA,NA
46032,Hamilton County,IN,NA,NA,NA,21.723518850987432
46033,Hamilton County,IN,NA,81.35860979462876,NA,NA
46052,Boone County,IN,NA,NA,44.022770398481974,NA
46060,Hamilton County,IN,NA,NA,24.193548387096776,35.36804308797127
46143,Johnson County,IN,NA,NA,14.990512333965844,NA
46151,Morgan County,IN,NA,NA,NA,29.622980251346497
46173,Rush County,IN,NA,NA,40.512333965844405,NA
46201,Marion County,IN,NA,16.27172195892575,NA,NA
46203,Marion County,IN,NA,8.372827804107425,NA,NA
46205,Marion County,IN,NA,34.913112164297,79.69639468690703,NA
46226,Marion County,IN,NA,NA,44.30740037950664,NA
46227,Marion County,IN,NA,8.767772511848342,NA,NA
46236,Marion County,IN,73.2,NA,NA,NA
46240,Marion County,IN,NA,NA,69.63946869070209,NA
46250,Marion County,IN,NA,NA,NA,83.84201077199282
46259,Marion County,IN,NA,87.59873617693523,94.78178368121442,NA
46260,Marion County,IN,56.8,NA,NA,NA
46307,Lake County,IN,NA,11.61137440758294,NA,NA
46320,Lake County,IN,NA,32.93838862559242,NA,NA
46324,Lake County,IN,NA,14.84992101105845,NA,NA
46342,Lake County,IN,NA,5.134281200631912,NA,NA
46356,Lake County,IN,NA,NA,64.89563567362428,NA
46368,Porter County,IN,NA,2.448657187993681,NA,NA
46373,Lake County,IN,NA,59.320695102685626,NA,NA
46383,Porter County,IN,NA,NA,4.174573055028463,NA
46385,Porter County,IN,NA,NA,2.6565464895635675,NA
46392,Jasper County,IN,NA,62.796208530805686,NA,NA
46403,Lake County,IN,NA,63.191153238546605,NA,NA
46410,Lake County,IN,NA,NA,NA,24.59605026929982
46517,Elkhart County,IN,NA,NA,64.2314990512334,NA
46538,Kosciusko County,IN,NA,96.36650868878357,NA,NA
46542,Kosciusko County,IN,NA,NA,NA,94.97307001795332
46545,St. Joseph County,IN,NA,44.70774091627172,NA,NA
46580,Kosciusko County,IN,NA,NA,NA,87.4326750448833
46628,St. Joseph County,IN,NA,NA,NA,65.8886894075404
46703,Steuben County,IN,NA,47.788309636650865,NA,NA
46711,Adams County,IN,NA,NA,NA,90.84380610412927
46714,Wells County,IN,NA,NA,75.33206831119544,NA
46721,DeKalb County,IN,NA,88.94154818325435,NA,NA
46738,DeKalb County,IN,NA,65.16587677725119,NA,NA
46748,Allen County,IN,NA,90.60031595576619,NA,NA
46761,LaGrange County,IN,NA,NA,NA,68.9407540394973
46806,Allen County,IN,NA,25.829383886255926,NA,NA
46809,Allen County,IN,NA,53.87045813586098,NA,NA
46818,Allen County,IN,NA,NA,40.98671726755218,NA
46901,Howard County,IN,NA,1.9747235387045814,NA,NA
46933,Grant County,IN,NA,NA,69.16508538899431,NA
46936,Howard County,IN,NA,71.64296998420221,NA,NA
46952,Grant County,IN,NA,84.12322274881517,NA,NA
46970,Miami County,IN,NA,NA,NA,32.85457809694793
46992,Wabash County,IN,NA,NA,37.571157495256166,NA
47025,Dearborn County,IN,NA,NA,47.34345351043643,NA
47129,Clark County,IN,NA,49.13112164296998,NA,NA
47130,Clark County,IN,NA,NA,NA,32.675044883303414
47150,Floyd County,IN,NA,NA,52.18216318785579,NA
47172,Clark County,IN,NA,62.63823064770933,NA,NA
47203,Bartholomew County,IN,NA,77.01421800947867,19.07020872865275,NA
47220,Jackson County,IN,NA,NA,91.93548387096774,NA
47240,Decatur County,IN,NA,NA,19.449715370018975,NA
47265,Jennings County,IN,NA,NA,64.99051233396584,NA
47304,Delaware County,IN,NA,NA,93.54838709677419,NA
47356,Henry County,IN,NA,NA,66.79316888045541,NA
47371,Jay County,IN,NA,NA,61.859582542694504,NA
47441,Greene County,IN,NA,85.46603475513427,NA,NA
47448,Brown County,IN,NA,97.07740916271722,NA,NA
47501,Daviess County,IN,NA,NA,NA,73.24955116696589
47591,Knox County,IN,NA,NA,NA,16.337522441651707
47601,Warrick County,IN,NA,NA,NA,42.549371633752244
47620,Posey County,IN,NA,NA,NA,87.79174147217235
47630,Warrick County,IN,NA,NA,71.91650853889942,67.50448833034112
47711,Vanderburgh County,IN,NA,26.77725118483412,NA,NA
47712,Vanderburgh County,IN,NA,NA,NA,79.71274685816876
47802,Vigo County,IN,4.8,NA,NA,NA
47807,Vigo County,IN,NA,NA,NA,97.12746858168761
47834,Clay County,IN,NA,61.05845181674565,45.2561669829222,NA
47905,Tippecanoe County,IN,NA,NA,NA,15.439856373429084
47909,Tippecanoe County,IN,NA,NA,73.43453510436433,NA
47978,Jasper County,IN,NA,62.95418641390206,NA,NA
50009,Polk County,IA,NA,85.30805687203792,NA,NA
50023,Polk County,IA,NA,96.84044233807268,NA,NA
50036,Boone County,IA,NA,NA,NA,21.18491921005386
50047,Warren County,IA,NA,89.65244865718799,NA,NA
50211,Warren County,IA,NA,NA,NA,89.94614003590664
50219,Marion County,IA,NA,NA,NA,82.58527827648115
50220,Dallas County,IA,NA,NA,NA,85.81687612208259
50265,Polk County,IA,NA,NA,NA,55.475763016157984
50316,Polk County,IA,NA,39.02053712480253,NA,NA
50322,Polk County,IA,NA,58.767772511848335,NA,NA
50548,Humboldt County,IA,NA,NA,84.81973434535104,NA
50662,Fayette County,IA,NA,NA,NA,99.10233393177738
50677,Bremer County,IA,NA,NA,84.44022770398482,49.012567324955114
50703,Black Hawk County,IA,49.6,NA,NA,NA
51250,Sioux County,IA,NA,NA,NA,45.960502692998205
51501,Pottawattamie County,IA,NA,3.39652448657188,NA,NA
51503,Pottawattamie County,IA,NA,8.135860979462874,NA,NA
51566,Montgomery County,IA,88.8,NA,NA,NA
52240,Johnson County,IA,NA,NA,NA,27.827648114901255
52246,Johnson County,IA,NA,56.55608214849921,NA,NA
52302,Linn County,IA,NA,19.194312796208532,NA,NA
52402,Linn County,IA,NA,17.061611374407583,NA,34.1113105924596
52403,Linn County,IA,NA,NA,35.95825426944971,NA
52405,Linn County,IA,NA,NA,NA,41.651705565529625
52531,Monroe County,IA,NA,NA,NA,75.04488330341114
52627,Lee County,IA,NA,NA,40.03795066413662,NA
52722,Scott County,IA,NA,18.325434439178515,NA,NA
52761,Muscatine County,IA,NA,NA,10.910815939278939,NA
52804,Scott County,IA,NA,14.533965244865717,NA,NA
66030,Johnson County,KS,NA,NA,NA,86.89407540394973
66048,Leavenworth County,KS,54.400000000000006,61.37440758293838,NA,NA
66061,Johnson County,KS,NA,17.614533965244867,NA,NA
66103,Wyandotte County,KS,92.80000000000001,NA,NA,NA
66205,Johnson County,KS,NA,NA,85.29411764705883,NA
66208,Johnson County,KS,NA,79.06793048973144,NA,NA
66213,Johnson County,KS,NA,66.19273301737756,NA,NA
66547,Pottawatomie County,KS,NA,81.99052132701422,NA,NA
66605,Shawnee County,KS,NA,45.97156398104265,NA,NA
66607,Shawnee County,KS,NA,77.64612954186414,NA,NA
66743,Crawford County,KS,NA,NA,87.38140417457305,NA
66935,Republic County,KS,NA,100,NA,NA
67010,Butler County,KS,NA,NA,NA,89.5870736086176
67211,Sedgwick County,KS,NA,50.39494470774092,NA,NA
67218,Sedgwick County,KS,NA,NA,NA,90.66427289048474
67401,Saline County,KS,NA,NA,18.785578747628083,NA
67502,Reno County,KS,NA,NA,53.41555977229602,NA
67526,Barton County,KS,NA,NA,99.90512333965845,NA
67601,Ellis County,KS,NA,NA,NA,7.360861759425494
67665,Russell County,KS,NA,87.7567140600316,NA,NA
67748,Logan County,KS,NA,99.68404423380727,NA,NA
40047,Bullitt County,KY,NA,28.35703001579779,NA,NA
40057,Henry County,KY,NA,94.3127962085308,NA,NA
40065,Shelby County,KY,NA,NA,26.66034155597723,NA
40071,Spencer County,KY,72,NA,NA,NA
40208,Jefferson County,KY,NA,46.287519747235386,NA,NA
40211,Jefferson County,KY,NA,NA,32.82732447817837,NA
40213,Jefferson County,KY,40.8,NA,NA,NA
40215,Jefferson County,KY,NA,NA,NA,85.63734290843806
40222,Jefferson County,KY,NA,NA,58.72865275142315,26.929982046678635
40229,Jefferson County,KY,NA,10.505529225908374,NA,NA
40311,Nicholas County,KY,NA,68.16745655608216,NA,NA
40312,Powell County,KY,NA,NA,98.57685009487666,NA
40351,Rowan County,KY,NA,19.747235387045812,NA,NA
40353,Montgomery County,KY,NA,51.65876777251185,61.574952561669825,NA
40356,Jessamine County,KY,NA,76.8562401263823,20.777988614800762,NA
40359,Owen County,KY,NA,NA,85.10436432637572,NA
40360,Bath County,KY,NA,NA,NA,83.84201077199282
40391,Clark County,KY,NA,49.21011058451817,90.32258064516128,NA
40403,Madison County,KY,NA,20.537124802527646,NA,NA
40475,Madison County,KY,NA,30.726698262243286,NA,NA
40504,Fayette County,KY,NA,80.80568720379146,NA,NA
40505,Fayette County,KY,NA,22.432859399684045,NA,NA
40509,Fayette County,KY,NA,31.437598736176938,NA,NA
40511,Fayette County,KY,NA,86.17693522906794,NA,NA
40517,Fayette County,KY,NA,NA,89.37381404174573,NA
40701,Whitley County,KY,NA,9.47867298578199,NA,NA
40734,Knox County,KY,NA,98.18325434439178,NA,NA
40741,Laurel County,KY,52,NA,NA,NA
40769,Whitley County,KY,NA,NA,78.55787476280834,NA
40977,Bell County,KY,NA,75.67140600315956,NA,NA
41003,Harrison County,KY,NA,97.70932069510269,NA,NA
41015,Kenton County,KY,NA,25.513428120063192,NA,NA
41017,Kenton County,KY,32,29.936808846761455,NA,NA
41031,Harrison County,KY,NA,91.07424960505529,NA,NA
41035,Grant County,KY,NA,43.60189573459716,NA,NA
41071,Campbell County,KY,NA,25.75039494470774,NA,NA
41144,Greenup County,KY,NA,38.15165876777251,NA,NA
41175,Greenup County,KY,NA,NA,NA,58.16876122082585
41301,Wolfe County,KY,NA,67.93048973143759,NA,NA
41465,Magoffin County,KY,60.8,NA,NA,NA
41501,Pike County,KY,45.6,NA,12.23908918406072,NA
41522,Pike County,KY,NA,93.36492890995261,NA,NA
41572,Pike County,KY,NA,73.77567140600317,NA,NA
41653,Floyd County,KY,80,NA,NA,NA
41701,Perry County,KY,NA,NA,57.02087286527514,NA
42066,Graves County,KY,NA,21.32701421800948,18.12144212523719,NA
42071,Calloway County,KY,NA,NA,38.614800759013285,NA
42101,Warren County,KY,NA,6.398104265402843,NA,60.502692998204665
42211,Trigg County,KY,NA,NA,40.891840607210625,NA
42240,Christian County,KY,NA,57.50394944707741,NA,NA
42347,Ohio County,KY,NA,NA,63.47248576850095,NA
42408,Hopkins County,KY,NA,NA,NA,88.68940754039497
42420,Henderson County,KY,NA,32.859399684044234,11.385199240986717,NA
42431,Hopkins County,KY,NA,21.169036334913113,23.62428842504744,NA
42459,Union County,KY,NA,90.67930489731437,NA,NA
42754,Grayson County,KY,NA,71.48499210110585,NA,NA
70003,Jefferson Parish,LA,NA,NA,2.5616698292220113,NA
70006,Jefferson Parish,LA,NA,NA,NA,29.443447037701976
70037,Plaquemines Parish,LA,NA,39.57345971563981,NA,NA
70047,St. Charles Parish,LA,NA,86.09794628751975,NA,NA
70056,Jefferson Parish,LA,0,4.423380726698262,13.66223908918406,25.134649910233392
70062,Jefferson Parish,LA,NA,NA,26.755218216318788,NA
70065,Jefferson Parish,LA,NA,NA,69.73434535104364,3.5906642728904847
70090,St. James Parish,LA,NA,87.44075829383885,NA,NA
70094,Jefferson Parish,LA,NA,23.143759873617693,NA,NA
70114,Orleans Parish,LA,NA,93.60189573459715,NA,NA
70115,Orleans Parish,LA,30,NA,NA,NA
70116,Orleans Parish,LA,NA,NA,63.37760910815939,NA
70122,Orleans Parish,LA,NA,NA,91.08159392789373,68.76122082585279
70123,Jefferson Parish,LA,NA,NA,68.88045540796965,NA
70127,Orleans Parish,LA,62,NA,NA,NA
70131,Orleans Parish,LA,NA,NA,96.9639468690702,NA
70301,Lafourche Parish,LA,NA,NA,53.98481973434534,NA
70364,Terrebonne Parish,LA,5.6000000000000005,NA,NA,NA
70380,St. Mary Parish,LA,49.2,NA,NA,NA
70394,Lafourche Parish,LA,NA,NA,NA,81.50807899461401
70401,Tangipahoa Parish,LA,NA,24.407582938388625,NA,NA
70403,Tangipahoa Parish,LA,NA,6.240126382306476,NA,NA
70422,Tangipahoa Parish,LA,NA,87.67772511848341,NA,NA
70435,St. Tammany Parish,LA,NA,NA,NA,66.42728904847397
70447,St. Tammany Parish,LA,NA,NA,NA,65.35008976660683
70448,St. Tammany Parish,LA,NA,NA,76.280834914611,NA
70452,St. Tammany Parish,LA,NA,NA,NA,56.91202872531418
70458,St. Tammany Parish,LA,NA,42.10110584518168,NA,NA
70460,St. Tammany Parish,LA,NA,10.90047393364929,NA,NA
70461,St. Tammany Parish,LA,NA,83.17535545023696,NA,NA
70506,Lafayette Parish,LA,NA,24.881516587677723,NA,NA
70510,Vermilion Parish,LA,7.6,NA,NA,NA
70518,Lafayette Parish,LA,NA,73.5387045813586,NA,NA
70538,St. Mary Parish,LA,NA,NA,46.01518026565465,NA
70563,Iberia Parish,LA,NA,NA,83.39658444022771,NA
70578,Acadia Parish,LA,26,NA,NA,NA
70586,Evangeline Parish,LA,NA,43.20695102685624,NA,NA
70737,Ascension Parish,LA,NA,72.74881516587678,NA,NA
70754,Livingston Parish,LA,NA,NA,NA,99.46140035906643
70785,Livingston Parish,LA,NA,NA,32.35294117647059,NA
70805,East Baton Rouge Parish,LA,NA,15.086887835703003,NA,NA
70816,East Baton Rouge Parish,LA,NA,NA,NA,36.44524236983842
70817,East Baton Rouge Parish,LA,NA,NA,14.041745730550284,NA
71106,Caddo Parish,LA,NA,NA,11.480075901328274,NA
71109,Caddo Parish,LA,NA,NA,NA,37.52244165170557
71203,Ouachita Parish,LA,NA,7.819905213270142,NA,NA
71220,Morehouse Parish,LA,NA,15.876777251184834,NA,NA
71303,Rapides Parish,LA,NA,59.47867298578199,NA,NA
71360,Rapides Parish,LA,NA,9.95260663507109,NA,NA
71409,Rapides Parish,LA,NA,NA,82.35294117647058,NA
71446,Vernon Parish,LA,NA,NA,32.922201138519924,NA
03909,York County,ME,NA,50.86887835703001,NA,40.93357271095152
04005,York County,ME,NA,13.270142180094787,25.426944971537,NA
04064,York County,ME,NA,NA,71.15749525616698,NA
04072,York County,ME,NA,37.2827804107425,NA,NA
04086,Sagadahoc County,ME,NA,89.0995260663507,NA,NA
04092,Cumberland County,ME,NA,NA,24.667931688804554,NA
04102,Cumberland County,ME,26.400000000000002,NA,32.542694497153704,NA
04106,Cumberland County,ME,NA,33.25434439178515,NA,NA
04210,Androscoggin County,ME,NA,NA,8.538899430740038,NA
04240,Androscoggin County,ME,NA,NA,NA,1.436265709156194
04276,Oxford County,ME,NA,81.51658767772511,NA,NA
04280,Androscoggin County,ME,NA,72.43285939968405,NA,NA
04330,Kennebec County,ME,NA,24.960505529225905,NA,NA
04364,Kennebec County,ME,NA,54.34439178515008,NA,NA
04401,Penobscot County,ME,NA,12.006319115323855,13.18785578747628,9.515260323159785
04444,Penobscot County,ME,NA,NA,NA,88.1508078994614
04843,Knox County,ME,NA,NA,NA,46.319569120287255
04901,Kennebec County,ME,NA,NA,20.967741935483872,NA
04976,Somerset County,ME,37.2,NA,NA,NA
20607,Prince George's County,MD,NA,NA,93.35863377609108,NA
20664,Charles County,MD,NA,99.13112164296999,NA,NA
20715,Prince George's County,MD,NA,NA,NA,70.19748653500898
20735,Prince George's County,MD,NA,NA,63.09297912713473,NA
20744,Prince George's County,MD,NA,NA,33.96584440227704,NA
20745,Prince George's County,MD,NA,67.21958925750396,NA,NA
20772,Prince George's County,MD,NA,72.27488151658767,NA,NA
20774,Prince George's County,MD,NA,41.07424960505529,NA,NA
20871,Montgomery County,MD,NA,82.78041074249604,87.85578747628084,NA
21078,Harford County,MD,NA,46.05055292259084,NA,NA
21093,Baltimore County,MD,NA,40.363349131121645,NA,NA
21117,Baltimore County,MD,NA,29.225908372827803,NA,NA
21131,Baltimore County,MD,78,NA,NA,NA
21133,Baltimore County,MD,NA,NA,45.06641366223909,NA
21206,Baltimore city,MD,8.799999999999999,NA,NA,NA
21210,Baltimore city,MD,NA,NA,66.79316888045541,NA
21215,Baltimore city,MD,NA,NA,8.633776091081593,NA
21218,Baltimore city,MD,NA,63.6650868878357,NA,5.385996409335727
21222,Baltimore County,MD,15.2,NA,NA,31.41831238779174
21234,Baltimore County,MD,NA,91.9431279620853,6.7362428842504745,NA
21236,Baltimore County,MD,NA,NA,NA,27.289048473967686
21401,Anne Arundel County,MD,NA,NA,28.178368121442126,NA
21804,Wicomico County,MD,NA,NA,50.18975332068312,NA
21811,Worcester County,MD,NA,NA,22.960151802656547,NA
21921,Cecil County,MD,NA,NA,NA,19.03052064631957
01005,Worcester County,MA,NA,NA,91.36622390891841,NA
01027,Hampshire County,MA,NA,NA,36.907020872865274,NA
01030,Hampden County,MA,NA,NA,66.60341555977229,NA
01075,Hampshire County,MA,NA,19.036334913112167,NA,NA
01085,Hampden County,MA,NA,1.5007898894154819,NA,NA
01107,Hampden County,MA,NA,57.030015797788316,NA,NA
01201,Berkshire County,MA,NA,54.739336492891,NA,NA
01220,Berkshire County,MA,NA,52.3696682464455,36.337760910815945,NA
01247,Berkshire County,MA,NA,82.14849921011059,55.692599620493354,NA
01301,Franklin County,MA,NA,36.887835703001585,NA,NA
01453,Worcester County,MA,NA,NA,NA,14.183123877917414
01501,Worcester County,MA,NA,31.753554502369667,NA,NA
01510,Worcester County,MA,NA,48.973143759873615,NA,NA
01550,Worcester County,MA,NA,NA,2.3719165085388996,NA
01571,Worcester County,MA,NA,NA,54.55407969639469,NA
01590,Worcester County,MA,NA,67.21958925750396,NA,NA
01603,Worcester County,MA,NA,1.7377567140600316,NA,NA
01604,Worcester County,MA,NA,1.0268562401263823,NA,NA
01606,Worcester County,MA,NA,15.323854660347552,NA,NA
01609,Worcester County,MA,NA,NA,4.554079696394687,NA
01702,Middlesex County,MA,NA,1.263823064770932,NA,NA
01721,Middlesex County,MA,NA,87.51974723538704,80.36053130929791,61.93895870736086
01730,Middlesex County,MA,NA,NA,NA,15.978456014362658
01752,Middlesex County,MA,NA,3.238546603475513,NA,NA
01772,Worcester County,MA,NA,NA,NA,71.8132854578097
01778,Middlesex County,MA,48.4,NA,42.97912713472486,NA
01801,Middlesex County,MA,NA,8.293838862559241,0.9487666034155597,NA
01826,Middlesex County,MA,NA,4.107424960505529,1.9924098671726755,NA
01843,Essex County,MA,4,NA,NA,NA
01844,Essex County,MA,NA,1.1848341232227488,NA,NA
01845,Essex County,MA,NA,26.14533965244866,NA,NA
01850,Middlesex County,MA,NA,NA,88.70967741935483,NA
01852,Middlesex County,MA,NA,0.1579778830963665,NA,NA
01867,Middlesex County,MA,NA,26.066350710900476,NA,NA
01902,Essex County,MA,NA,0.315955766192733,NA,NA
01906,Essex County,MA,67.2,NA,NA,NA
01913,Essex County,MA,NA,NA,8.823529411764707,NA
01915,Essex County,MA,NA,NA,24.383301707779886,NA
01923,Essex County,MA,NA,NA,NA,15.61938958707361
01930,Essex County,MA,NA,NA,0.7590132827324478,NA
01938,Essex County,MA,NA,96.2085308056872,NA,41.292639138240574
01960,Essex County,MA,NA,0.8688783570300158,NA,NA
01966,Essex County,MA,NA,NA,57.779886148007584,NA
01983,Essex County,MA,NA,NA,77.51423149905123,NA
02021,Norfolk County,MA,NA,NA,61.76470588235294,NA
02025,Norfolk County,MA,NA,92.4960505529226,NA,NA
02038,Norfolk County,MA,NA,11.532385466034755,NA,NA
02045,Plymouth County,MA,NA,31.35860979462875,NA,NA
02048,Bristol County,MA,NA,17.851500789889414,NA,NA
02081,Norfolk County,MA,30.8,NA,NA,NA
02115,Suffolk County,MA,NA,NA,NA,25.852782764811487
02118,Suffolk County,MA,2.8000000000000003,NA,NA,NA
02119,Suffolk County,MA,NA,1.579778830963665,0,NA
02121,Suffolk County,MA,NA,28.199052132701425,NA,NA
02124,Suffolk County,MA,NA,0,NA,NA
02125,Suffolk County,MA,NA,0.47393364928909953,NA,NA
02126,Suffolk County,MA,NA,NA,41.36622390891841,NA
02128,Suffolk County,MA,NA,3.7914691943127963,NA,NA
02129,Suffolk County,MA,NA,90.36334913112164,NA,NA
02130,Suffolk County,MA,NA,NA,1.2333965844402277,70.01795332136446
02131,Suffolk County,MA,96.39999999999999,NA,NA,NA
02132,Suffolk County,MA,NA,NA,NA,65.70915619389586
02135,Suffolk County,MA,NA,NA,35.86337760910816,NA
02136,Suffolk County,MA,NA,NA,4.0796963946869065,NA
02138,Middlesex County,MA,NA,10.584518167456556,4.743833017077799,45.062836624775585
02139,Middlesex County,MA,NA,13.981042654028435,NA,NA
02140,Middlesex County,MA,91.2,NA,89.6584440227704,NA
02144,Middlesex County,MA,NA,18.009478672985782,NA,NA
02145,Middlesex County,MA,NA,NA,35.294117647058826,NA
02148,Middlesex County,MA,NA,NA,0.09487666034155598,0.8976660682226212
02149,Middlesex County,MA,NA,0.23696682464454977,NA,16.696588868940754
02150,Suffolk County,MA,NA,NA,25.047438330170777,NA
02151,Suffolk County,MA,NA,0.07898894154818326,NA,NA
02155,Middlesex County,MA,NA,NA,NA,0.718132854578097
02163,Suffolk County,MA,NA,99.0521327014218,NA,NA
02169,Norfolk County,MA,6.800000000000001,0.5529225908372828,0.3795066413662239,NA
02184,Norfolk County,MA,NA,NA,52.27703984819735,NA
02188,Norfolk County,MA,NA,48.5781990521327,NA,NA
02301,Plymouth County,MA,NA,2.211690363349131,55.40796963946869,1.2567324955116697
02302,Plymouth County,MA,NA,7.345971563981042,14.89563567362429,82.9443447037702
02330,Plymouth County,MA,NA,NA,26.944971537001898,NA
02333,Plymouth County,MA,NA,NA,72.58064516129032,NA
02351,Plymouth County,MA,NA,71.24802527646129,NA,NA
02360,Plymouth County,MA,NA,1.1058451816745656,NA,NA
02364,Plymouth County,MA,NA,NA,58.254269449715366,NA
02368,Norfolk County,MA,NA,1.8957345971563981,NA,NA
02370,Plymouth County,MA,NA,42.022116903633496,74.09867172675521,NA
02375,Bristol County,MA,NA,51.97472353870458,NA,NA
02382,Plymouth County,MA,NA,NA,48.76660341555977,NA
02421,Middlesex County,MA,NA,16.903633491311215,NA,NA
02446,Norfolk County,MA,NA,NA,63.75711574952562,NA
02451,Middlesex County,MA,NA,NA,77.98861480075901,NA
02453,Middlesex County,MA,NA,76.14533965244867,NA,16.87612208258528
02461,Middlesex County,MA,NA,NA,NA,80.43087971274686
02465,Middlesex County,MA,NA,50.78988941548184,NA,NA
02467,Norfolk County,MA,NA,44.15481832543444,NA,NA
02472,Middlesex County,MA,NA,83.72827804107425,5.597722960151803,NA
02532,Barnstable County,MA,NA,52.13270142180095,NA,47.93536804308797
02540,Barnstable County,MA,NA,NA,NA,33.21364452423698
02563,Barnstable County,MA,NA,NA,94.97153700189753,96.22980251346499
02645,Barnstable County,MA,NA,90.1263823064771,NA,NA
02649,Barnstable County,MA,NA,NA,NA,17.953321364452425
02653,Barnstable County,MA,NA,NA,97.72296015180265,NA
02655,Barnstable County,MA,NA,NA,NA,100
02660,Barnstable County,MA,NA,NA,NA,97.84560143626571
02673,Barnstable County,MA,NA,NA,NA,78.81508078994614
02702,Bristol County,MA,NA,NA,95.73055028462998,NA
02703,Bristol County,MA,NA,NA,NA,31.597845601436266
02720,Bristol County,MA,NA,47.6303317535545,NA,2.154398563734291
02721,Bristol County,MA,NA,NA,NA,9.515260323159785
02746,Bristol County,MA,NA,2.0537124802527646,NA,NA
02748,Bristol County,MA,NA,NA,NA,25.673249551166965
02766,Bristol County,MA,NA,46.05055292259084,NA,NA
02767,Bristol County,MA,NA,NA,37.00189753320683,NA
02780,Bristol County,MA,2.4,0.3949447077409162,NA,NA
48017,Oakland County,MI,NA,NA,69.44971537001898,NA
48021,Macomb County,MI,NA,9.162717219589258,NA,NA
48026,Macomb County,MI,NA,33.72827804107425,NA,NA
48034,Oakland County,MI,NA,62.7172195892575,NA,NA
48035,Macomb County,MI,NA,NA,8.444022770398481,NA
48040,St. Clair County,MI,NA,NA,98.292220113852,NA
48044,Macomb County,MI,NA,7.266982622432859,NA,NA
48045,Macomb County,MI,NA,23.617693522906794,NA,NA
48047,Macomb County,MI,NA,68.72037914691943,NA,NA
48065,Macomb County,MI,NA,NA,71.5370018975332,NA
48066,Macomb County,MI,NA,15.955766192733018,6.83111954459203,NA
48076,Oakland County,MI,NA,NA,57.1157495256167,NA
48089,Macomb County,MI,NA,7.187993680884676,NA,NA
48093,Macomb County,MI,NA,NA,92.97912713472486,NA
48094,Macomb County,MI,NA,74.24960505529225,NA,NA
48108,Washtenaw County,MI,33.6,NA,NA,NA
48111,Wayne County,MI,NA,NA,28.74762808349146,NA
48114,Livingston County,MI,NA,NA,74.95256166982922,NA
48122,Wayne County,MI,NA,51.57977883096366,NA,NA
48127,Wayne County,MI,18.8,NA,NA,NA
48154,Wayne County,MI,NA,23.30173775671406,NA,NA
48162,Monroe County,MI,NA,10.821484992101107,39.37381404174573,NA
48164,Wayne County,MI,NA,NA,68.21631878557875,NA
48168,Wayne County,MI,NA,50,NA,NA
48178,Oakland County,MI,NA,NA,11.669829222011385,NA
48180,Wayne County,MI,NA,13.665086887835704,NA,NA
48184,Wayne County,MI,NA,NA,NA,38.06104129263914
48185,Wayne County,MI,NA,5.292259083728278,NA,NA
48187,Wayne County,MI,NA,NA,NA,7.001795332136446
48197,Washtenaw County,MI,NA,12.796208530805686,NA,NA
48201,Wayne County,MI,NA,86.01895734597157,NA,NA
48205,Wayne County,MI,NA,3.949447077409163,NA,NA
48208,Wayne County,MI,NA,53.23854660347551,NA,NA
48210,Wayne County,MI,NA,24.486571879936808,NA,NA
48214,Wayne County,MI,NA,17.4565560821485,NA,NA
48219,Wayne County,MI,1.6,NA,NA,12.208258527827647
48221,Wayne County,MI,NA,4.976303317535545,NA,NA
48224,Wayne County,MI,0.8,12.954186413902052,NA,NA
48227,Wayne County,MI,NA,2.9225908372827805,NA,NA
48229,Wayne County,MI,NA,NA,67.07779886148008,NA
48230,Wayne County,MI,NA,47.70932069510268,NA,NA
48237,Oakland County,MI,NA,18.246445497630333,NA,NA
48240,Wayne County,MI,NA,18.404423380726698,NA,NA
48301,Oakland County,MI,NA,NA,NA,75.58348294434471
48302,Oakland County,MI,NA,NA,NA,29.80251346499102
48306,Oakland County,MI,NA,NA,NA,40.035906642728904
48315,Macomb County,MI,50,NA,NA,NA
48316,Macomb County,MI,NA,NA,72.01138519924099,NA
48322,Oakland County,MI,NA,39.494470774091624,NA,NA
48323,Oakland County,MI,84,51.81674565560821,38.89943074003795,NA
48326,Oakland County,MI,72.39999999999999,NA,NA,NA
48329,Oakland County,MI,57.199999999999996,NA,NA,NA
48334,Oakland County,MI,NA,51.026856240126385,NA,NA
48335,Oakland County,MI,NA,NA,45.82542694497154,NA
48336,Oakland County,MI,NA,30.80568720379147,NA,NA
48341,Oakland County,MI,NA,28.751974723538705,NA,NA
48348,Oakland County,MI,NA,34.360189573459714,NA,NA
48371,Oakland County,MI,NA,77.8041074249605,NA,NA
48374,Oakland County,MI,NA,69.3522906793049,NA,NA
48382,Oakland County,MI,NA,72.98578199052133,NA,NA
48386,Oakland County,MI,NA,NA,37.95066413662239,NA
48413,Huron County,MI,NA,NA,46.110056925996204,NA
48416,Sanilac County,MI,NA,95.97156398104265,NA,NA
48420,Genesee County,MI,NA,NA,38.425047438330175,NA
48429,Shiawassee County,MI,NA,60.26856240126383,NA,NA
48442,Oakland County,MI,NA,NA,43.833017077798864,NA
48446,Lapeer County,MI,NA,12.480252764612953,NA,NA
48451,Genesee County,MI,90,NA,NA,NA
48461,Lapeer County,MI,NA,NA,83.77609108159393,NA
48462,Oakland County,MI,NA,NA,69.54459203036053,NA
48473,Genesee County,MI,NA,NA,34.53510436432637,NA
48602,Saginaw County,MI,NA,3.7124802527646126,NA,NA
48618,Midland County,MI,NA,NA,NA,78.63554757630162
48622,Clare County,MI,NA,NA,71.72675521821633,NA
48625,Clare County,MI,NA,27.409162717219587,NA,NA
48631,Bay County,MI,92.4,NA,NA,NA
48642,Midland County,MI,NA,16.982622432859397,NA,NA
48657,Midland County,MI,NA,76.22432859399683,NA,NA
48706,Bay County,MI,NA,NA,NA,2.6929982046678633
48723,Tuscola County,MI,NA,26.224328593996844,NA,NA
48842,Ingham County,MI,NA,NA,32.44781783681214,NA
48850,Montcalm County,MI,NA,NA,97.24857685009488,NA
48855,Livingston County,MI,NA,NA,43.7381404174573,NA
48858,Isabella County,MI,NA,5.608214849921011,NA,NA
48879,Clinton County,MI,NA,46.208530805687204,NA,NA
48895,Ingham County,MI,75.2,76.4612954186414,NA,NA
48906,Ingham County,MI,NA,NA,NA,32.49551166965889
49006,Kalamazoo County,MI,NA,46.36650868878357,NA,NA
49008,Kalamazoo County,MI,NA,NA,NA,82.40574506283662
49014,Calhoun County,MI,NA,91.15323854660348,NA,96.40933572710951
49015,Calhoun County,MI,NA,44.07582938388626,84.15559772296015,12.926391382405743
49022,Berrien County,MI,NA,NA,NA,52.96229802513464
49024,Kalamazoo County,MI,NA,NA,71.25237191650854,NA
49028,Branch County,MI,NA,94.70774091627172,NA,NA
49036,Branch County,MI,NA,88.70458135860979,NA,NA
49047,Cass County,MI,78.4,NA,NA,NA
49048,Kalamazoo County,MI,NA,NA,NA,12.926391382405743
49055,Van Buren County,MI,NA,89.33649289099526,68.97533206831119,NA
49068,Calhoun County,MI,NA,NA,40.41745730550284,NA
49076,Eaton County,MI,NA,97.47235387045814,NA,NA
49078,Allegan County,MI,NA,NA,80.83491461100569,92.81867145421903
49079,Van Buren County,MI,NA,NA,NA,62.29802513464991
49080,Allegan County,MI,NA,40.047393364928915,NA,NA
49082,Branch County,MI,NA,75.59241706161137,NA,NA
49083,Kalamazoo County,MI,NA,NA,60.72106261859582,NA
49203,Jackson County,MI,NA,NA,99.05123339658444,NA
49224,Calhoun County,MI,NA,95.89257503949446,NA,NA
49247,Lenawee County,MI,NA,67.69352290679305,NA,NA
49250,Hillsdale County,MI,NA,72.1958925750395,NA,NA
49265,Lenawee County,MI,NA,89.65244865718799,NA,NA
49285,Ingham County,MI,NA,NA,74.00379506641366,NA
49302,Kent County,MI,NA,NA,89.46869070208729,NA
49333,Barry County,MI,NA,NA,65.9392789373814,NA
49341,Kent County,MI,NA,NA,NA,22.980251346499102
49417,Ottawa County,MI,NA,NA,4.838709677419355,NA
49418,Kent County,MI,NA,35.8609794628752,23.52941176470588,NA
49423,Ottawa County,MI,NA,10.268562401263823,NA,NA
49428,Ottawa County,MI,NA,48.42022116903634,NA,NA
49431,Mason County,MI,NA,NA,NA,21.903052064631957
49437,Muskegon County,MI,NA,94.23380726698262,NA,NA
49442,Muskegon County,MI,NA,NA,3.510436432637571,NA
49444,Muskegon County,MI,NA,8.688783570300158,18.40607210626186,NA
49505,Kent County,MI,NA,NA,56.07210626185958,NA
49508,Kent County,MI,NA,NA,NA,8.258527827648116
49519,Kent County,MI,NA,14.612954186413901,NA,NA
49525,Kent County,MI,NA,33.175355450236964,NA,NA
49546,Kent County,MI,NA,35.70300157977883,NA,NA
49548,Kent County,MI,8.4,NA,NA,NA
49601,Wexford County,MI,NA,NA,45.16129032258064,NA
49615,Antrim County,MI,NA,NA,NA,97.48653500897666
49646,Kalkaska County,MI,NA,NA,72.77039848197343,NA
49651,Missaukee County,MI,NA,NA,NA,60.68222621184919
49677,Osceola County,MI,NA,60.90047393364929,NA,NA
49684,Grand Traverse County,MI,NA,53.08056872037915,NA,NA
49686,Grand Traverse County,MI,NA,NA,22.39089184060721,NA
49707,Alpena County,MI,NA,NA,18.311195445920305,NA
49715,Chippewa County,MI,NA,91.39020537124803,NA,NA
49749,Cheboygan County,MI,NA,95.260663507109,NA,NA
49801,Dickinson County,MI,NA,59.71563981042654,NA,NA
49849,Marquette County,MI,NA,NA,47.91271347248577,NA
49870,Dickinson County,MI,93.2,NA,NA,NA
49930,Houghton County,MI,NA,73.85466034755133,NA,NA
55016,Washington County,MN,NA,NA,NA,64.4524236983842
55019,Rice County,MN,NA,99.68404423380727,NA,NA
55033,Dakota County,MN,51.6,NA,NA,NA
55042,Washington County,MN,NA,NA,75.99620493358634,NA
55051,Kanabec County,MN,NA,NA,34.34535104364326,NA
55063,Pine County,MN,NA,70.30015797788309,NA,NA
55082,Washington County,MN,NA,32.069510268562404,21.44212523719165,NA
55105,Ramsey County,MN,NA,69.11532385466035,NA,NA
55106,Ramsey County,MN,NA,27.251184834123222,NA,NA
55110,Ramsey County,MN,NA,88.86255924170617,NA,NA
55112,Ramsey County,MN,NA,NA,NA,52.6032315978456
55117,Ramsey County,MN,8,NA,NA,NA
55119,Ramsey County,MN,NA,NA,62.52371916508539,NA
55122,Dakota County,MN,NA,NA,57.9696394686907,NA
55130,Ramsey County,MN,32.800000000000004,NA,NA,NA
55316,Hennepin County,MN,NA,83.0173775671406,NA,NA
55343,Hennepin County,MN,NA,41.07424960505529,36.24288425047438,NA
55401,Hennepin County,MN,NA,60.426540284360186,NA,NA
55404,Hennepin County,MN,NA,NA,NA,37.16337522441652
55406,Hennepin County,MN,NA,78.19905213270142,NA,NA
55412,Hennepin County,MN,NA,50.07898894154819,NA,NA
55418,Hennepin County,MN,NA,80.09478672985783,NA,46.678635547576306
55420,Hennepin County,MN,NA,NA,79.03225806451613,NA
55423,Hennepin County,MN,NA,17.377567140600316,NA,NA
55428,Hennepin County,MN,NA,17.21958925750395,NA,NA
55430,Hennepin County,MN,NA,45.7345971563981,NA,NA
55435,Hennepin County,MN,89.2,NA,NA,NA
55446,Hennepin County,MN,46.400000000000006,NA,NA,NA
55448,Anoka County,MN,NA,38.388625592417064,NA,NA
55449,Anoka County,MN,NA,46.998420221169035,NA,NA
55454,Hennepin County,MN,NA,NA,NA,96.94793536804309
55744,Itasca County,MN,NA,NA,64.42125237191651,NA
55792,St. Louis County,MN,NA,34.20221169036335,26.47058823529412,NA
55804,St. Louis County,MN,NA,65.40284360189574,NA,NA
55806,St. Louis County,MN,NA,70.85308056872039,55.123339658444024,NA
55808,St. Louis County,MN,82.8,NA,70.87286527514232,NA
55811,St. Louis County,MN,NA,29.067930489731435,4.269449715370019,NA
55963,Goodhue County,MN,NA,NA,95.9203036053131,NA
55981,Wabasha County,MN,NA,NA,90.98671726755218,NA
56058,Le Sueur County,MN,NA,85.54502369668246,NA,NA
56073,Brown County,MN,NA,19.984202211690363,11.10056925996205,NA
56159,Cottonwood County,MN,96,NA,NA,NA
56265,Chippewa County,MN,NA,NA,50.948766603415564,NA
56308,Douglas County,MN,6.4,NA,NA,NA
56352,Stearns County,MN,NA,99.60505529225908,NA,NA
56367,Benton County,MN,86.4,NA,NA,NA
56379,Benton County,MN,28.4,NA,NA,NA
56401,Crow Wing County,MN,NA,8.609794628751976,NA,4.129263913824058
56470,Hubbard County,MN,NA,83.57030015797788,NA,98.74326750448833
56484,Cass County,MN,NA,NA,81.02466793168881,NA
56537,Otter Tail County,MN,NA,NA,8.633776091081593,NA
56542,Polk County,MN,NA,97.47235387045814,NA,NA
56544,Becker County,MN,NA,NA,96.20493358633776,NA
56560,Clay County,MN,NA,1.8167456556082147,NA,NA
56572,Otter Tail County,MN,NA,NA,NA,99.82046678635548
56601,Beltrami County,MN,NA,5.687203791469194,NA,NA
56636,Itasca County,MN,NA,70.61611374407583,NA,NA
56701,Pennington County,MN,NA,NA,55.313092979127134,32.31597845601436
38637,DeSoto County,MS,NA,72.66982622432859,NA,NA
38703,Washington County,MS,NA,64.53396524486573,NA,NA
38732,Bolivar County,MS,NA,NA,81.6888045540797,NA
38827,Tishomingo County,MS,NA,93.44391785150079,NA,NA
38834,Alcorn County,MS,NA,NA,21.821631878557877,NA
39154,Hinds County,MS,NA,NA,86.05313092979127,NA
39191,Copiah County,MS,NA,84.12322274881517,NA,NA
39301,Lauderdale County,MS,NA,NA,41.745730550284634,NA
39440,Jones County,MS,NA,NA,51.802656546489565,NA
39466,Pearl River County,MS,NA,NA,NA,54.937163375224415
39503,Harrison County,MS,NA,34.834123222748815,NA,NA
39520,Hancock County,MS,NA,94.39178515007899,NA,NA
39525,Hancock County,MS,NA,NA,47.6280834914611,NA
39530,Harrison County,MS,NA,83.64928909952607,NA,NA
39532,Harrison County,MS,27.6,NA,NA,NA
39553,Jackson County,MS,NA,98.42022116903634,NA,NA
39571,Harrison County,MS,NA,NA,NA,35.727109515260324
63005,St. Louis County,MO,99.2,NA,NA,NA
63021,St. Louis County,MO,NA,NA,NA,7.5403949730700175
63028,Jefferson County,MO,NA,NA,20.49335863377609,43.26750448833034
63031,St. Louis County,MO,25.6,15.24486571879937,NA,NA
63084,Franklin County,MO,NA,49.842022116903635,NA,NA
63106,St. Louis city,MO,NA,93.8388625592417,NA,NA
63107,St. Louis city,MO,NA,NA,70.11385199240988,NA
63110,St. Louis city,MO,NA,NA,57.400379506641364,NA
63117,St. Louis County,MO,NA,97.31437598736177,NA,NA
63118,St. Louis city,MO,NA,30.647709320695103,NA,NA
63123,St. Louis County,MO,21.2,NA,NA,NA
63124,St. Louis County,MO,NA,NA,NA,31.956912028725316
63126,St. Louis County,MO,NA,NA,72.96015180265655,NA
63133,St. Louis County,MO,77.2,NA,NA,NA
63366,St. Charles County,MO,NA,38.62559241706161,NA,NA
63367,St. Charles County,MO,NA,NA,NA,57.989228007181325
63368,St. Charles County,MO,NA,39.09952606635071,NA,NA
63379,Lincoln County,MO,NA,27.64612954186414,NA,34.29084380610413
63383,Warren County,MO,40.8,50.71090047393365,39.08918406072106,NA
63385,St. Charles County,MO,NA,14.139020537124802,NA,NA
63390,Warren County,MO,NA,NA,88.04554079696395,NA
63401,Marion County,MO,NA,97.78830963665087,NA,NA
63552,Macon County,MO,NA,NA,NA,57.63016157989228
63640,St. Francois County,MO,NA,NA,NA,35.5475763016158
63701,Cape Girardeau County,MO,NA,36.96682464454976,NA,NA
63755,Cape Girardeau County,MO,NA,NA,NA,35.18850987432675
63775,Perry County,MO,NA,34.044233807266984,NA,NA
63780,Scott County,MO,NA,NA,90.60721062618596,NA
63801,Scott County,MO,NA,NA,24.573055028463,NA
63825,Stoddard County,MO,NA,90.91627172195894,NA,NA
63834,Mississippi County,MO,NA,96.05055292259084,NA,91.02333931777379
63841,Stoddard County,MO,NA,46.682464454976305,NA,58.707360861759426
63845,Mississippi County,MO,NA,69.3522906793049,NA,NA
63857,Dunklin County,MO,NA,41.07424960505529,NA,NA
63901,Butler County,MO,NA,NA,20.30360531309298,NA
63957,Wayne County,MO,NA,NA,NA,91.38240574506284
64015,Jackson County,MO,NA,NA,45.73055028462998,NA
64016,Jackson County,MO,NA,82.85939968404423,NA,NA
64020,Lafayette County,MO,NA,86.96682464454977,NA,NA
64050,Jackson County,MO,NA,NA,14.61100569259962,NA
64055,Jackson County,MO,NA,NA,6.1669829222011385,NA
64056,Jackson County,MO,31.2,NA,NA,NA
64064,Jackson County,MO,NA,48.262243285939974,NA,NA
64067,Lafayette County,MO,NA,61.61137440758294,NA,NA
64068,Clay County,MO,NA,NA,29.79127134724858,NA
64075,Jackson County,MO,NA,39.88941548183254,NA,NA
64086,Jackson County,MO,NA,NA,35.38899430740038,NA
64109,Jackson County,MO,NA,NA,30.45540796963947,85.27827648114902
64119,Clay County,MO,NA,9.399684044233807,NA,NA
64124,Jackson County,MO,NA,66.90363349131123,NA,NA
64138,Jackson County,MO,NA,NA,14.231499051233396,NA
64151,Platte County,MO,NA,29.85781990521327,NA,NA
64153,Platte County,MO,NA,93.68088467614534,NA,NA
64501,Buchanan County,MO,NA,NA,91.65085388994308,NA
64505,Buchanan County,MO,NA,60.66350710900474,NA,NA
64644,Caldwell County,MO,NA,96.91943127962085,NA,NA
64701,Cass County,MO,NA,81.27962085308057,NA,NA
64735,Henry County,MO,NA,31.200631911532383,NA,NA
64801,Jasper County,MO,NA,NA,63.282732447817835,NA
64804,Jasper County,MO,NA,NA,7.590132827324478,NA
64844,Newton County,MO,NA,95.10268562401264,NA,NA
64850,Newton County,MO,NA,13.58609794628752,NA,NA
64870,Jasper County,MO,NA,69.98420221169036,53.79506641366224,NA
65049,Camden County,MO,NA,NA,NA,73.07001795332137
65202,Boone County,MO,NA,64.45497630331754,NA,NA
65340,Saline County,MO,NA,NA,54.93358633776091,NA
65625,Barry County,MO,NA,82.30647709320695,NA,NA
65807,Greene County,MO,NA,56.793048973143755,NA,NA
65810,Greene County,MO,NA,NA,59.96204933586338,NA
59602,Lewis and Clark County,MT,NA,NA,27.798861480075903,NA
59714,Gallatin County,MT,NA,61.45339652448657,NA,NA
59808,Missoula County,MT,NA,81.5955766192733,NA,NA
59840,Ravalli County,MT,NA,NA,NA,39.497307001795335
68025,Dodge County,NE,15.6,33.33333333333333,NA,NA
68046,Sarpy County,NE,NA,NA,67.64705882352942,NA
68104,Douglas County,NE,NA,24.644549763033176,30.265654648956357,NA
68106,Douglas County,NE,NA,NA,72.39089184060721,NA
68117,Douglas County,NE,NA,88.62559241706161,NA,NA
68124,Douglas County,NE,95.6,NA,NA,NA
68127,Douglas County,NE,NA,NA,89.56356736242884,NA
68135,Douglas County,NE,NA,65.71879936808847,NA,NA
68137,Douglas County,NE,NA,48.34123222748815,NA,NA
68410,Otoe County,NE,NA,NA,74.76280834914611,NA
68467,York County,NE,NA,NA,83.96584440227703,NA
68818,Hamilton County,NE,93.60000000000001,NA,NA,NA
69101,Lincoln County,NE,NA,22.274881516587676,NA,NA
69341,Scotts Bluff County,NE,NA,84.99210110584518,NA,NA
89101,Clark County,NV,NA,57.66192733017378,NA,NA
89108,Clark County,NV,NA,NA,35.673624288425046,NA
89115,Clark County,NV,NA,18.562401263823062,NA,NA
89128,Clark County,NV,NA,NA,64.80075901328273,NA
89156,Clark County,NV,44.800000000000004,NA,NA,92.45960502692998
89433,Washoe County,NV,NA,37.36176935229068,NA,NA
89434,Washoe County,NV,NA,40.91627172195892,NA,NA
89436,Washoe County,NV,NA,21.484992101105846,NA,NA
89451,Washoe County,NV,NA,NA,NA,87.25314183123878
89502,Washoe County,NV,NA,NA,17.17267552182163,NA
89511,Washoe County,NV,NA,NA,NA,42.190305206463194
89523,Washoe County,NV,NA,85.93996840442338,NA,NA
03038,Rockingham County,NH,NA,11.216429699842022,NA,24.057450628366247
03045,Hillsborough County,NH,NA,63.34913112164296,NA,NA
03062,Hillsborough County,NH,NA,16.192733017377567,6.925996204933586,NA
03070,Hillsborough County,NH,NA,91.70616113744076,NA,NA
03076,Hillsborough County,NH,NA,42.41706161137441,NA,NA
03087,Rockingham County,NH,NA,NA,49.52561669829222,NA
03103,Hillsborough County,NH,NA,5.450236966824645,9.108159392789373,NA
03290,Rockingham County,NH,NA,97.39336492890996,NA,NA
03303,Merrimack County,NH,NA,65.086887835703,NA,NA
03570,Coos County,NH,NA,98.73617693522907,76.94497153700189,59.245960502692995
03581,Coos County,NH,NA,99.92101105845181,NA,NA
03833,Rockingham County,NH,NA,36.413902053712484,NA,93.71633752244165
03842,Rockingham County,NH,NA,NA,25.521821631878556,NA
03867,Strafford County,NH,NA,20.45813586097946,NA,NA
03874,Rockingham County,NH,NA,NA,78.55787476280834,47.3967684021544
07005,Morris County,NJ,NA,NA,77.89373814041745,NA
07006,Essex County,NJ,NA,80.25276461295418,90.89184060721063,NA
07013,Passaic County,NJ,NA,38.2306477093207,NA,NA
07017,Essex County,NJ,NA,NA,13.851992409867172,79.17414721723519
07039,Essex County,NJ,NA,64.37598736176935,93.83301707779886,87.07360861759426
07042,Essex County,NJ,NA,78.04107424960506,51.328273244781784,NA
07047,Hudson County,NJ,38.4,22.906793048973142,NA,NA
07050,Essex County,NJ,NA,36.018957345971565,77.41935483870968,NA
07052,Essex County,NJ,NA,42.57503949447077,81.49905123339659,17.235188509874327
07054,Morris County,NJ,NA,84.67614533965245,NA,NA
07055,Passaic County,NJ,NA,8.530805687203792,NA,NA
07068,Essex County,NJ,NA,NA,NA,77.737881508079
07076,Union County,NJ,NA,79.93680884676145,NA,NA
07078,Essex County,NJ,NA,NA,97.91271347248576,NA
07079,Essex County,NJ,NA,92.96998420221169,94.02277039848197,NA
07081,Union County,NJ,NA,NA,75.14231499051233,NA
07090,Union County,NJ,NA,NA,NA,42.010771992818675
07095,Middlesex County,NJ,NA,NA,NA,77.737881508079
07107,Essex County,NJ,32.4,8.925750394944707,NA,53.85996409335727
07112,Essex County,NJ,NA,NA,31.024667931688803,NA
07202,Union County,NJ,NA,43.68088467614534,NA,NA
07205,Union County,NJ,NA,NA,NA,93.35727109515261
07304,Hudson County,NJ,NA,2.527646129541864,NA,NA
07407,Bergen County,NJ,NA,NA,52.656546489563574,NA
07424,Passaic County,NJ,NA,NA,49.146110056926,NA
07444,Morris County,NJ,NA,NA,NA,37.70197486535009
07470,Passaic County,NJ,24,NA,NA,NA
07628,Bergen County,NJ,NA,NA,60.151802656546494,NA
07644,Bergen County,NJ,NA,98.65718799368088,NA,NA
07656,Bergen County,NJ,NA,NA,NA,79.17414721723519
07663,Bergen County,NJ,99.6,NA,NA,NA
07712,Monmouth County,NJ,NA,NA,4.648956356736242,NA
07719,Monmouth County,NJ,NA,NA,58.34914611005693,77.37881508078995
07726,Monmouth County,NJ,NA,NA,22.86527514231499,NA
07730,Monmouth County,NJ,NA,51.73775671406003,NA,NA
07735,Monmouth County,NJ,NA,NA,32.25806451612903,74.50628366247756
07740,Monmouth County,NJ,NA,95.33965244865719,NA,NA
07751,Monmouth County,NJ,NA,NA,75.80645161290323,NA
07753,Monmouth County,NJ,NA,NA,8.349146110056926,72.17235188509873
07764,Monmouth County,NJ,NA,NA,92.78937381404174,NA
07834,Morris County,NJ,NA,NA,67.64705882352942,39.497307001795335
07860,Sussex County,NJ,NA,NA,NA,59.245960502692995
07866,Morris County,NJ,66.8,NA,NA,NA
07882,Warren County,NJ,NA,NA,51.70777988614801,NA
07901,Union County,NJ,NA,NA,78.74762808349146,NA
07921,Somerset County,NJ,NA,NA,NA,97.30700179533214
07936,Morris County,NJ,NA,NA,92.0303605313093,NA
07960,Morris County,NJ,NA,NA,17.741935483870968,NA
07974,Union County,NJ,NA,96.28751974723538,NA,NA
08012,Camden County,NJ,NA,NA,NA,39.85637342908438
08021,Camden County,NJ,NA,NA,6.261859582542694,NA
08033,Camden County,NJ,NA,NA,82.25806451612904,63.016157989228006
08034,Camden County,NJ,50.4,NA,NA,NA
08048,Burlington County,NJ,NA,NA,NA,84.56014362657092
08053,Burlington County,NJ,NA,NA,22.2011385199241,NA
08054,Burlington County,NJ,NA,NA,12.428842504743832,NA
08075,Burlington County,NJ,NA,69.66824644549763,25.711574952561673,NA
08077,Burlington County,NJ,NA,NA,57.874762808349146,NA
08080,Gloucester County,NJ,NA,NA,NA,30.520646319569124
08094,Gloucester County,NJ,NA,5.845181674565561,NA,NA
08096,Gloucester County,NJ,NA,21.248025276461295,NA,NA
08102,Camden County,NJ,NA,6.9510268562401265,NA,NA
08108,Camden County,NJ,NA,NA,88.89943074003796,NA
08204,Cape May County,NJ,NA,49.60505529225908,19.35483870967742,NA
08210,Cape May County,NJ,NA,NA,72.2011385199241,NA
08318,Salem County,NJ,NA,NA,59.29791271347249,NA
08518,Burlington County,NJ,NA,NA,93.26375711574953,NA
08701,Ocean County,NJ,NA,NA,34.819734345351044,NA
08731,Ocean County,NJ,NA,NA,43.16888045540797,NA
08753,Ocean County,NJ,11.200000000000001,NA,NA,NA
08755,Ocean County,NJ,NA,22.03791469194313,NA,NA
08757,Ocean County,NJ,NA,NA,22.58064516129032,NA
08759,Ocean County,NJ,NA,NA,NA,6.463195691202872
08807,Somerset County,NJ,NA,NA,NA,37.16337522441652
08817,Middlesex County,NJ,NA,NA,19.829222011385202,NA
08820,Middlesex County,NJ,NA,NA,22.67552182163188,NA
08857,Middlesex County,NJ,NA,7.03001579778831,NA,NA
08861,Middlesex County,NJ,NA,24.01263823064771,NA,NA
08865,Warren County,NJ,NA,4.739336492890995,NA,NA
08886,Warren County,NJ,NA,NA,94.30740037950665,NA
87002,Valencia County,NM,NA,NA,NA,99.2818671454219
87015,Santa Fe County,NM,NA,NA,74.38330170777988,NA
87020,Cibola County,NM,NA,73.22274881516587,NA,NA
87031,Valencia County,NM,NA,27.014218009478675,25.616698292220114,NA
87048,Sandoval County,NM,NA,91.23222748815166,NA,NA
87102,Bernalillo County,NM,NA,19.589257503949447,NA,NA
87105,Bernalillo County,NM,NA,18.088467614533965,NA,NA
87108,Bernalillo County,NM,NA,NA,26.091081593927896,NA
87109,Bernalillo County,NM,NA,45.023696682464454,NA,9.156193895870736
87111,Bernalillo County,NM,NA,3.8704581358609795,NA,NA
87112,Bernalillo County,NM,NA,59.241706161137444,NA,NA
87401,San Juan County,NM,NA,14.928909952606634,NA,NA
87413,San Juan County,NM,NA,NA,49.71537001897533,NA
88001,Doa Ana County,NM,NA,25.355450236966824,NA,NA
88005,Doa Ana County,NM,NA,NA,35.199240986717264,NA
88007,Doa Ana County,NM,56.39999999999999,NA,88.61480075901328,NA
88011,Doa Ana County,NM,NA,NA,NA,77.0197486535009
88210,Eddy County,NM,NA,39.652448657187996,NA,NA
88240,Lea County,NM,NA,42.96998420221169,NA,NA
88340,Otero County,NM,NA,83.80726698262244,NA,NA
10001,New York County,NY,NA,NA,28.6527514231499,NA
10016,New York County,NY,NA,NA,NA,23.877917414721722
10018,New York County,NY,NA,NA,NA,88.8689407540395
10019,New York County,NY,NA,59.3996840442338,NA,NA
10022,New York County,NY,NA,77.96208530805687,75.71157495256166,24.59605026929982
10027,New York County,NY,NA,22.11690363349131,NA,NA
10028,New York County,NY,NA,NA,27.419354838709676,NA
10029,New York County,NY,NA,0.7898894154818324,NA,NA
10030,New York County,NY,NA,20.932069510268562,NA,NA
10031,New York County,NY,NA,NA,13.472485768500949,20.825852782764812
10032,New York County,NY,NA,35.07109004739337,5.502846299810247,NA
10033,New York County,NY,NA,14.296998420221168,NA,NA
10034,New York County,NY,NA,NA,14.421252371916509,NA
10036,New York County,NY,NA,NA,41.27134724857685,NA
10065,New York County,NY,NA,NA,90.70208728652752,NA
10303,Richmond County,NY,NA,37.44075829383886,NA,NA
10305,Richmond County,NY,NA,NA,45.54079696394687,NA
10314,Richmond County,NY,13.600000000000001,NA,3.320683111954459,NA
10453,Bronx County,NY,NA,6.082148499210111,NA,NA
10454,Bronx County,NY,NA,NA,28.178368121442126,NA
10455,Bronx County,NY,NA,19.11532385466035,35.483870967741936,NA
10458,Bronx County,NY,NA,4.265402843601896,NA,33.034111310592465
10459,Bronx County,NY,7.199999999999999,4.818325434439179,8.159392789373813,NA
10460,Bronx County,NY,0.4,NA,1.0436432637571158,9.874326750448834
10461,Bronx County,NY,NA,NA,16.22390891840607,NA
10466,Bronx County,NY,NA,NA,NA,8.976660682226212
10467,Bronx County,NY,NA,0.7109004739336493,NA,NA
10468,Bronx County,NY,NA,NA,16.129032258064516,NA
10469,Bronx County,NY,NA,15.481832543443918,NA,NA
10472,Bronx County,NY,NA,NA,NA,14.003590664272892
10514,Westchester County,NY,NA,NA,NA,91.92100538599641
10562,Westchester County,NY,NA,NA,59.58254269449716,NA
10580,Westchester County,NY,90.4,NA,NA,34.64991023339318
10589,Westchester County,NY,NA,NA,93.7381404174573,NA
10591,Westchester County,NY,NA,NA,89.27893738140418,NA
10601,Westchester County,NY,NA,NA,NA,73.78815080789947
10701,Westchester County,NY,NA,1.4218009478672986,NA,NA
10703,Westchester County,NY,89.60000000000001,NA,NA,NA
10704,Westchester County,NY,NA,NA,NA,75.94254937163375
10710,Westchester County,NY,NA,NA,53.036053130929794,NA
10941,Orange County,NY,NA,69.74723538704582,NA,NA
10952,Rockland County,NY,NA,NA,79.88614800759012,NA
11003,Nassau County,NY,NA,78.12006319115325,NA,NA
11040,Nassau County,NY,82.39999999999999,NA,NA,NA
11201,Kings County,NY,NA,18.64139020537125,NA,NA
11203,Kings County,NY,NA,NA,NA,8.07899461400359
11208,Kings County,NY,NA,NA,27.893738140417458,NA
11213,Kings County,NY,NA,NA,NA,29.084380610412925
11220,Kings County,NY,NA,NA,NA,11.669658886894076
11221,Kings County,NY,NA,44.312796208530806,NA,5.026929982046679
11225,Kings County,NY,NA,53.712480252764614,NA,NA
11226,Kings County,NY,NA,36.25592417061612,NA,NA
11231,Kings County,NY,NA,38.704581358609794,NA,NA
11236,Kings County,NY,9.6,NA,NA,NA
11360,Queens County,NY,NA,NA,96.29981024667931,NA
11368,Queens County,NY,NA,NA,66.98292220113852,NA
11372,Queens County,NY,NA,NA,19.165085388994306,NA
11374,Queens County,NY,NA,NA,21.631878557874764,NA
11377,Queens County,NY,NA,15.165876777251185,NA,NA
11385,Queens County,NY,NA,NA,10.056925996204933,NA
11414,Queens County,NY,NA,NA,73.719165085389,NA
11418,Queens County,NY,NA,69.90521327014217,NA,NA
11419,Queens County,NY,NA,37.124802527646125,NA,NA
11422,Queens County,NY,NA,NA,53.510436432637576,NA
11435,Queens County,NY,12.4,NA,NA,NA
11550,Nassau County,NY,NA,NA,46.29981024667932,NA
11576,Nassau County,NY,NA,NA,99.14611005692599,NA
11577,Nassau County,NY,NA,87.20379146919431,NA,NA
11590,Nassau County,NY,NA,43.44391785150079,NA,NA
11691,Queens County,NY,NA,7.740916271721959,5.787476280834915,NA
11703,Suffolk County,NY,NA,NA,73.719165085389,NA
11706,Suffolk County,NY,NA,19.90521327014218,NA,NA
11714,Nassau County,NY,NA,74.80252764612955,NA,NA
11722,Suffolk County,NY,NA,NA,NA,64.63195691202873
11727,Suffolk County,NY,NA,58.767772511848335,NA,NA
11731,Suffolk County,NY,NA,77.72511848341233,NA,NA
11766,Suffolk County,NY,97.2,NA,NA,NA
11767,Suffolk County,NY,NA,97.86729857819904,NA,NA
11779,Suffolk County,NY,NA,NA,NA,36.80430879712747
11788,Suffolk County,NY,NA,64.84992101105846,NA,NA
11790,Suffolk County,NY,NA,NA,NA,68.04308797127469
11968,Suffolk County,NY,NA,96.44549763033176,NA,NA
12065,Saratoga County,NY,NA,22.195892575039494,15.085388994307399,NA
12078,Fulton County,NY,NA,4.028436018957346,NA,NA
12134,Fulton County,NY,NA,NA,NA,84.73967684021544
12180,Rensselaer County,NY,NA,NA,NA,36.983842010771994
12202,Albany County,NY,NA,NA,56.73624288425047,NA
12204,Albany County,NY,NA,83.09636650868877,NA,NA
12303,Schenectady County,NY,NA,NA,37.85578747628083,NA
12401,Ulster County,NY,NA,49.5260663507109,NA,NA
12528,Ulster County,NY,NA,NA,89.75332068311197,81.14901256732495
12832,Washington County,NY,NA,NA,NA,72.71095152603232
12833,Saratoga County,NY,NA,86.57187993680886,NA,NA
12901,Clinton County,NY,NA,3.080568720379147,NA,NA
12918,Clinton County,NY,NA,NA,97.53320683111954,NA
12972,Clinton County,NY,NA,53.23854660347551,67.36242884250474,NA
12986,Franklin County,NY,NA,82.38546603475514,NA,NA
13021,Cayuga County,NY,NA,3.3175355450236967,NA,NA
13032,Madison County,NY,NA,30.568720379146917,NA,NA
13036,Oswego County,NY,NA,55.92417061611374,91.46110056925995,NA
13068,Tompkins County,NY,NA,89.02053712480253,NA,NA
13088,Onondaga County,NY,64,25.59241706161137,NA,NA
13120,Onondaga County,NY,NA,96.76145339652449,98.38709677419355,NA
13126,Oswego County,NY,NA,17.535545023696685,NA,NA
13160,Cayuga County,NY,NA,95.57661927330173,NA,NA
13304,Oneida County,NY,NA,NA,99.24098671726756,NA
13339,Montgomery County,NY,NA,NA,48.007590132827325,NA
13350,Herkimer County,NY,33.2,NA,NA,NA
13357,Herkimer County,NY,NA,NA,NA,81.14901256732495
13365,Herkimer County,NY,NA,NA,28.842504743833018,NA
13421,Madison County,NY,NA,NA,46.58444022770398,NA
13619,Jefferson County,NY,NA,NA,57.685009487666036,NA
13648,Lewis County,NY,NA,NA,98.4819734345351,NA
13676,St. Lawrence County,NY,NA,30.410742496050553,NA,NA
13760,Broome County,NY,NA,NA,0.2846299810246679,NA
13820,Otsego County,NY,18,NA,29.98102466793169,NA
13901,Broome County,NY,NA,NA,NA,10.412926391382406
13905,Broome County,NY,NA,NA,44.4022770398482,NA
14063,Chautauqua County,NY,NA,38.54660347551343,NA,NA
14086,Erie County,NY,NA,17.69352290679305,NA,NA
14103,Orleans County,NY,NA,41.70616113744076,NA,NA
14120,Niagara County,NY,NA,NA,NA,22.44165170556553
14150,Erie County,NY,NA,NA,4.364326375711575,NA
14220,Erie County,NY,NA,NA,22.39089184060721,NA
14221,Erie County,NY,NA,NA,1.7077798861480076,NA
14227,Erie County,NY,NA,54.18641390205371,NA,NA
14304,Niagara County,NY,NA,NA,2.846299810246679,12.567324955116696
14305,Niagara County,NY,NA,NA,NA,94.0754039497307
14414,Livingston County,NY,NA,NA,42.125237191650854,NA
14420,Monroe County,NY,NA,NA,70.58823529411765,NA
14424,Ontario County,NY,NA,NA,0.8538899430740038,NA
14450,Monroe County,NY,NA,66.66666666666666,NA,NA
14464,Monroe County,NY,NA,48.02527646129542,NA,NA
14467,Monroe County,NY,NA,NA,46.20493358633776,NA
14469,Ontario County,NY,NA,NA,50.37950664136622,NA
14476,Orleans County,NY,NA,NA,95.2561669829222,NA
14482,Genesee County,NY,NA,47.39336492890995,NA,NA
14512,Ontario County,NY,NA,69.51026856240127,NA,NA
14513,Wayne County,NY,NA,40.28436018957346,2.4667931688804554,NA
14519,Wayne County,NY,NA,20.379146919431278,NA,NA
14522,Wayne County,NY,NA,NA,NA,90.48473967684022
14527,Yates County,NY,NA,25.434439178515007,NA,NA
14543,Monroe County,NY,NA,88.30963665086888,NA,NA
14559,Monroe County,NY,NA,NA,NA,30.341113105924595
14606,Monroe County,NY,36.4,NA,NA,NA
14609,Monroe County,NY,NA,0.631911532385466,NA,NA
14612,Monroe County,NY,NA,NA,12.998102466793169,NA
14616,Monroe County,NY,NA,3.0015797788309637,6.641366223908918,NA
14617,Monroe County,NY,NA,NA,82.16318785578748,NA
14620,Monroe County,NY,NA,NA,14.32637571157495,NA
14621,Monroe County,NY,NA,NA,33.87096774193548,14.721723518850988
14624,Monroe County,NY,NA,13.744075829383887,NA,NA
14626,Monroe County,NY,NA,2.6856240126382307,3.225806451612903,NA
14706,Cattaraugus County,NY,NA,54.66034755134282,NA,NA
14724,Chautauqua County,NY,NA,NA,96.67931688804555,NA
14733,Chautauqua County,NY,NA,NA,85.38899430740038,NA
14837,Yates County,NY,NA,NA,82.35294117647058,NA
14847,Seneca County,NY,NA,NA,95.82542694497154,NA
14867,Tompkins County,NY,NA,57.89889415481832,NA,NA
14886,Tompkins County,NY,NA,NA,59.772296015180274,NA
14891,Schuyler County,NY,NA,87.12480252764612,NA,NA
27012,Forsyth County,NC,NA,29.14691943127962,NA,NA
27013,Rowan County,NC,NA,NA,92.40986717267552,NA
27028,Davie County,NC,NA,NA,6.546489563567362,NA
27030,Surry County,NC,NA,6.161137440758294,1.1385199240986716,NA
27054,Rowan County,NC,NA,98.97314375987362,NA,NA
27104,Forsyth County,NC,NA,58.37282780410743,NA,NA
27105,Forsyth County,NC,NA,NA,1.8026565464895636,NA
27106,Forsyth County,NC,NA,11.295418641390205,1.8975332068311195,NA
27127,Forsyth County,NC,NA,NA,3.6053130929791273,NA
27215,Alamance County,NC,NA,33.88625592417062,NA,NA
27217,Alamance County,NC,NA,67.85150078988941,9.392789373814042,NA
27263,Randolph County,NC,73.6,NA,48.95635673624288,NA
27265,Guilford County,NC,NA,NA,12.618595825426945,NA
27278,Orange County,NC,NA,NA,NA,69.47935368043088
27288,Rockingham County,NC,NA,11.769352290679306,NA,NA
27292,Davidson County,NC,NA,NA,NA,4.847396768402154
27302,Alamance County,NC,NA,28.436018957345972,NA,NA
27332,Lee County,NC,NA,35.229067930489734,NA,NA
27360,Davidson County,NC,NA,3.6334913112164293,NA,NA
27401,Guilford County,NC,NA,26.93522906793049,NA,NA
27403,Guilford County,NC,NA,62.55924170616114,NA,NA
27406,Guilford County,NC,NA,18.72037914691943,NA,NA
27407,Guilford County,NC,NA,46.60347551342812,30.36053130929791,NA
27510,Orange County,NC,NA,NA,95.63567362428842,NA
27511,Wake County,NC,NA,82.06951026856241,62.239089184060724,NA
27516,Orange County,NC,NA,59.95260663507109,NA,NA
27517,Orange County,NC,NA,NA,83.39658444022771,NA
27525,Franklin County,NC,NA,54.02843601895735,NA,NA
27527,Johnston County,NC,NA,NA,76.75521821631878,NA
27537,Vance County,NC,NA,NA,23.33965844402277,NA
27545,Wake County,NC,NA,41.864139020537124,NA,NA
27549,Franklin County,NC,NA,20.300157977883096,NA,NA
27587,Wake County,NC,NA,NA,7.874762808349146,NA
27592,Wake County,NC,86,NA,NA,74.86535008976661
27603,Wake County,NC,NA,19.66824644549763,NA,NA
27604,Wake County,NC,42,NA,NA,NA
27614,Wake County,NC,NA,NA,NA,44.88330341113106
27615,Wake County,NC,NA,NA,11.954459203036052,NA
27616,Wake County,NC,NA,49.763033175355446,87.66603415559773,NA
27804,Nash County,NC,NA,NA,32.06831119544592,NA
27807,Nash County,NC,NA,88.30963665086888,NA,92.63913824057451
27834,Pitt County,NC,NA,27.883096366508685,NA,92.28007181328546
27892,Martin County,NC,NA,43.838862559241704,NA,NA
27958,Currituck County,NC,NA,NA,NA,90.30520646319569
28021,Gaston County,NC,NA,50.15797788309637,NA,NA
28025,Cabarrus County,NC,NA,NA,12.523719165085389,NA
28034,Gaston County,NC,NA,40.99526066350711,NA,NA
28075,Cabarrus County,NC,NA,NA,89.08918406072107,NA
28081,Cabarrus County,NC,NA,86.49289099526067,NA,NA
28092,Lincoln County,NC,NA,20.537124802527646,40.79696394686907,NA
28166,Iredell County,NC,NA,74.17061611374407,NA,NA
28215,Mecklenburg County,NC,NA,NA,16.508538899430743,NA
28328,Sampson County,NC,NA,NA,19.639468690702085,NA
28334,Sampson County,NC,NA,NA,25.142314990512332,NA
28358,Robeson County,NC,NA,14.06003159557662,NA,NA
28366,Sampson County,NC,NA,87.99368088467614,NA,NA
28379,Richmond County,NC,NA,14.375987361769353,NA,NA
28390,Harnett County,NC,NA,74.32859399684044,NA,NA
28403,New Hanover County,NC,NA,NA,49.81024667931689,NA
28405,New Hanover County,NC,NA,32.78041074249605,NA,NA
28411,New Hanover County,NC,NA,NA,33.776091081593925,NA
28412,New Hanover County,NC,NA,43.04897314375987,NA,NA
28472,Columbus County,NC,NA,NA,39.18406072106262,NA
28540,Onslow County,NC,NA,NA,56.831119544592035,NA
28546,Onslow County,NC,NA,NA,43.07400379506641,NA
28601,Catawba County,NC,NA,NA,NA,17.7737881508079
28602,Catawba County,NC,96.8,19.352290679304897,NA,NA
28605,Watauga County,NC,NA,NA,79.60151802656547,NA
28630,Caldwell County,NC,NA,30.88467614533965,NA,77.55834829443447
28645,Caldwell County,NC,NA,48.73617693522907,0.6641366223908919,NA
28655,Burke County,NC,NA,5.213270142180095,NA,NA
28658,Catawba County,NC,NA,NA,82.06831119544592,NA
28673,Catawba County,NC,NA,NA,85.67362428842505,NA
28675,Alleghany County,NC,NA,75.19747235387045,NA,NA
28697,Wilkes County,NC,NA,NA,NA,56.552962298025136
28714,Yancey County,NC,NA,62.16429699842022,NA,NA
28731,Henderson County,NC,NA,NA,96.7741935483871,NA
28732,Henderson County,NC,NA,66.58767772511848,NA,NA
28792,Henderson County,NC,NA,NA,NA,1.0771992818671454
28906,Cherokee County,NC,NA,45.102685624012636,NA,NA
58103,Cass County,ND,2,NA,49.43074003795066,NA
58201,Grand Forks County,ND,NA,NA,5.1233396584440225,NA
58318,Bottineau County,ND,NA,96.52448657187995,NA,NA
58504,Burleigh County,ND,NA,NA,64.04174573055028,NA
58554,Morton County,ND,NA,NA,NA,8.797127468581687
58601,Stark County,ND,NA,68.48341232227489,NA,NA
58701,Ward County,ND,4.3999999999999995,34.59715639810427,33.396584440227706,NA
58703,Ward County,ND,NA,NA,NA,24.416517055655294
43017,Franklin County,OH,NA,NA,31.404174573055027,33.931777378815084
43025,Licking County,OH,NA,NA,79.69639468690703,NA
43026,Franklin County,OH,NA,17.9304897314376,NA,NA
43040,Union County,OH,NA,NA,16.888045540796963,NA
43050,Knox County,OH,NA,6.6350710900473935,3.415559772296015,NA
43080,Licking County,OH,NA,81.1216429699842,NA,NA
43119,Franklin County,OH,NA,22.985781990521325,NA,NA
43160,Fayette County,OH,NA,NA,17.93168880455408,NA
43206,Franklin County,OH,NA,10.347551342812006,NA,NA
43214,Franklin County,OH,NA,44.62875197472354,NA,NA
43215,Franklin County,OH,NA,36.72985781990521,NA,NA
43223,Franklin County,OH,NA,5.529225908372828,NA,NA
43229,Franklin County,OH,NA,5.766192733017378,NA,19.569120287253142
43230,Franklin County,OH,NA,13.349131121642971,NA,21.364452423698385
43231,Franklin County,OH,NA,91.5481832543444,NA,NA
43232,Franklin County,OH,NA,NA,12.7134724857685,NA
43235,Franklin County,OH,NA,42.25908372827804,NA,NA
43311,Logan County,OH,NA,NA,NA,46.49910233393178
43315,Morrow County,OH,60.4,NA,NA,NA
43420,Sandusky County,OH,NA,63.90205371248025,14.13662239089184,NA
43431,Sandusky County,OH,94.39999999999999,NA,NA,NA
43465,Wood County,OH,NA,74.40758293838863,NA,NA
43469,Sandusky County,OH,NA,96.12954186413903,NA,NA
43528,Lucas County,OH,NA,NA,38.994307400379505,NA
43537,Lucas County,OH,26.8,27.093206951026854,NA,26.750448833034113
43551,Wood County,OH,NA,NA,5.218216318785579,NA
43558,Fulton County,OH,NA,52.29067930489732,NA,NA
43569,Wood County,OH,NA,99.84202211690362,NA,NA
43571,Lucas County,OH,NA,80.56872037914692,NA,NA
43605,Lucas County,OH,14.799999999999999,13.112164296998422,NA,NA
43607,Lucas County,OH,NA,25.19747235387046,69.92409867172675,NA
43612,Lucas County,OH,20.8,NA,NA,NA
43614,Lucas County,OH,NA,9.320695102685624,NA,NA
43615,Lucas County,OH,5.2,3.5545023696682465,3.795066413662239,NA
43619,Wood County,OH,NA,61.69036334913112,NA,NA
43623,Lucas County,OH,NA,NA,21.72675521821632,NA
43701,Muskingum County,OH,NA,6.003159557661927,NA,NA
43764,Perry County,OH,NA,NA,64.2314990512334,NA
43812,Coshocton County,OH,NA,41.78515007898894,NA,NA
43822,Muskingum County,OH,NA,83.25434439178515,NA,NA
43830,Muskingum County,OH,NA,70.30015797788309,NA,NA
43920,Columbiana County,OH,NA,NA,9.297912713472485,11.490125673249551
43950,Belmont County,OH,NA,NA,13.282732447817835,NA
43953,Jefferson County,OH,NA,NA,22.106261859582542,NA
43968,Columbiana County,OH,NA,NA,NA,80.61041292639139
44001,Lorain County,OH,NA,27.17219589257504,NA,NA
44004,Ashtabula County,OH,NA,2.132701421800948,NA,NA
44011,Lorain County,OH,37.6,NA,NA,NA
44012,Lorain County,OH,NA,NA,5.313092979127135,NA
44017,Cuyahoga County,OH,NA,33.965244865718795,NA,NA
44022,Cuyahoga County,OH,NA,NA,23.908918406072104,NA
44023,Geauga County,OH,NA,63.270142180094794,NA,NA
44024,Geauga County,OH,NA,NA,43.35863377609108,NA
44035,Lorain County,OH,NA,8.056872037914692,NA,NA
44039,Lorain County,OH,NA,NA,18.500948766603415,28.186714542190305
44041,Ashtabula County,OH,NA,40.60031595576619,NA,NA
44052,Lorain County,OH,NA,2.2906793048973144,NA,6.104129263913824
44054,Lorain County,OH,NA,NA,32.732447817836814,NA
44055,Lorain County,OH,NA,NA,16.603415559772298,NA
44056,Summit County,OH,NA,89.96840442338072,NA,NA
44057,Lake County,OH,81.6,26.303317535545023,NA,NA
44074,Lorain County,OH,NA,73.06477093206951,41.935483870967744,NA
44077,Lake County,OH,NA,3.4755134281200633,NA,NA
44087,Summit County,OH,NA,NA,NA,3.7701974865350087
44089,Erie County,OH,NA,84.59715639810426,NA,NA
44090,Lorain County,OH,NA,NA,38.33017077798861,55.65529622980251
44102,Cuyahoga County,OH,NA,26.856240126382307,16.318785578747626,NA
44105,Cuyahoga County,OH,NA,0.9478672985781991,0.47438330170777987,NA
44107,Cuyahoga County,OH,NA,NA,37.76091081593928,NA
44108,Cuyahoga County,OH,NA,44.47077409162718,NA,NA
44109,Cuyahoga County,OH,34.4,4.344391785150079,13.377609108159394,NA
44110,Cuyahoga County,OH,NA,33.09636650868878,NA,NA
44111,Cuyahoga County,OH,1.2,NA,60.62618595825426,11.131059245960502
44112,Cuyahoga County,OH,NA,NA,3.8899430740037952,NA
44113,Cuyahoga County,OH,NA,47.1563981042654,NA,NA
44114,Cuyahoga County,OH,NA,30.01579778830964,NA,NA
44118,Cuyahoga County,OH,29.599999999999998,10.031595576619273,NA,NA
44121,Cuyahoga County,OH,NA,NA,10.62618595825427,19.748653500897667
44122,Cuyahoga County,OH,62.8,NA,NA,NA
44124,Cuyahoga County,OH,NA,23.538704581358612,NA,0.3590664272890485
44125,Cuyahoga County,OH,NA,1.3428120063191153,NA,NA
44130,Cuyahoga County,OH,NA,61.216429699842024,36.81214421252372,0.5385996409335727
44133,Cuyahoga County,OH,46,NA,84.25047438330171,NA
44134,Cuyahoga County,OH,NA,NA,1.5180265654648957,NA
44135,Cuyahoga County,OH,NA,2.764612954186414,6.35673624288425,NA
44136,Cuyahoga County,OH,NA,57.42496050552922,NA,NA
44137,Cuyahoga County,OH,16.8,NA,NA,NA
44138,Cuyahoga County,OH,NA,NA,20.588235294117645,NA
44139,Cuyahoga County,OH,NA,95.02369668246445,NA,NA
44141,Cuyahoga County,OH,NA,79.38388625592417,96.1100569259962,NA
44142,Cuyahoga County,OH,NA,NA,NA,15.798922800718133
44144,Cuyahoga County,OH,19.6,56.39810426540285,NA,NA
44145,Cuyahoga County,OH,NA,NA,24.28842504743833,26.032315978456015
44146,Cuyahoga County,OH,NA,76.69826224328594,NA,NA
44147,Cuyahoga County,OH,NA,43.91785150078989,NA,NA
44202,Portage County,OH,NA,82.46445497630332,NA,7.719928186714542
44203,Summit County,OH,NA,NA,7.020872865275142,NA
44212,Medina County,OH,NA,3.15955766192733,NA,NA
44221,Summit County,OH,NA,NA,15.464895635673626,NA
44223,Summit County,OH,NA,70.85308056872039,NA,NA
44240,Portage County,OH,NA,79.85781990521326,NA,NA
44255,Portage County,OH,NA,67.61453396524486,NA,NA
44256,Medina County,OH,NA,NA,0.5692599620493358,NA
44260,Portage County,OH,NA,NA,NA,51.34649910233393
44278,Summit County,OH,NA,NA,39.46869070208729,NA
44281,Medina County,OH,NA,51.50078988941548,NA,NA
44303,Summit County,OH,NA,NA,87.00189753320683,98.20466786355476
44310,Summit County,OH,NA,9.24170616113744,NA,NA
44311,Summit County,OH,NA,46.682464454976305,NA,NA
44312,Summit County,OH,NA,12.164296998420221,NA,NA
44319,Summit County,OH,NA,NA,20.20872865275142,NA
44320,Summit County,OH,NA,14.691943127962084,NA,NA
44333,Summit County,OH,NA,64.6129541864139,NA,NA
44406,Mahoning County,OH,NA,52.05371248025277,NA,NA
44408,Columbiana County,OH,NA,NA,64.51612903225806,NA
44425,Trumbull County,OH,NA,29.6998420221169,NA,NA
44432,Columbiana County,OH,58.8,NA,NA,NA
44444,Trumbull County,OH,NA,48.1042654028436,NA,NA
44446,Trumbull County,OH,52.400000000000006,NA,NA,NA
44460,Columbiana County,OH,NA,49.28909952606635,NA,NA
44483,Trumbull County,OH,NA,NA,10.531309297912713,NA
44484,Trumbull County,OH,27.200000000000003,NA,NA,NA
44505,Mahoning County,OH,NA,29.778830963665087,32.16318785578748,NA
44509,Mahoning County,OH,NA,40.758293838862556,NA,NA
44511,Mahoning County,OH,NA,21.721958925750396,NA,NA
44512,Mahoning County,OH,NA,9.004739336492891,NA,15.080789946140035
44514,Mahoning County,OH,NA,NA,NA,18.67145421903052
44515,Mahoning County,OH,NA,53.396524486571884,NA,NA
44601,Stark County,OH,NA,NA,7.400379506641366,NA
44632,Stark County,OH,NA,91.78515007898895,NA,NA
44647,Stark County,OH,NA,NA,38.23529411764706,NA
44663,Tuscarawas County,OH,NA,NA,NA,10.23339317773788
44667,Wayne County,OH,NA,60.11058451816746,NA,NA
44685,Summit County,OH,NA,NA,19.924098671726757,NA
44710,Stark County,OH,NA,58.21484992101106,NA,NA
44805,Ashland County,OH,NA,11.374407582938389,NA,NA
44833,Crawford County,OH,NA,30.33175355450237,46.774193548387096,NA
44839,Erie County,OH,NA,NA,NA,65.52962298025135
44851,Huron County,OH,NA,90.67930489731437,NA,NA
44857,Huron County,OH,NA,NA,30.64516129032258,NA
44875,Richland County,OH,NA,66.27172195892575,NA,NA
44883,Seneca County,OH,NA,45.18167456556082,NA,NA
44903,Richland County,OH,NA,15.560821484992102,NA,NA
45011,Butler County,OH,NA,NA,2.2770398481973433,NA
45013,Butler County,OH,NA,NA,2.1821631878557874,NA
45014,Butler County,OH,NA,12.717219589257503,NA,NA
45015,Butler County,OH,NA,NA,61.66982922201139,NA
45039,Warren County,OH,NA,44.54976303317535,NA,NA
45040,Warren County,OH,NA,NA,65.37001897533207,23.159784560143628
45044,Butler County,OH,NA,23.696682464454977,NA,NA
45069,Butler County,OH,NA,20.537124802527646,48.29222011385199,NA
45154,Brown County,OH,NA,73.5387045813586,NA,NA
45202,Hamilton County,OH,64.4,NA,NA,NA
45209,Hamilton County,OH,NA,NA,NA,93.89587073608617
45216,Hamilton County,OH,NA,53.79146919431279,NA,NA
45217,Hamilton County,OH,NA,80.48973143759873,NA,NA
45227,Hamilton County,OH,NA,NA,40.32258064516129,NA
45230,Hamilton County,OH,NA,48.657187993680886,NA,NA
45231,Hamilton County,OH,NA,6.872037914691943,NA,NA
45238,Hamilton County,OH,NA,NA,NA,8.43806104129264
45239,Hamilton County,OH,NA,14.218009478672986,29.69639468690702,NA
45241,Hamilton County,OH,NA,NA,NA,43.08797127468581
45244,Hamilton County,OH,NA,NA,40.702087286527515,NA
45248,Hamilton County,OH,NA,86.3349131121643,NA,NA
45305,Greene County,OH,NA,67.53554502369668,NA,NA
45322,Montgomery County,OH,NA,37.04581358609795,NA,NA
45342,Montgomery County,OH,NA,NA,NA,20.646319569120287
45405,Montgomery County,OH,NA,22.511848341232227,NA,NA
45410,Montgomery County,OH,NA,39.73143759873617,NA,NA
45424,Montgomery County,OH,NA,NA,9.20303605313093,NA
45426,Montgomery County,OH,NA,NA,31.78368121442125,NA
45505,Clark County,OH,NA,NA,51.04364326375711,NA
45619,Lawrence County,OH,NA,80.01579778830964,NA,NA
45629,Scioto County,OH,NA,77.25118483412322,NA,NA
45669,Lawrence County,OH,NA,15.718799368088469,NA,NA
45680,Lawrence County,OH,NA,10.979462875197472,NA,NA
45693,Adams County,OH,NA,NA,70.77798861480076,NA
45714,Washington County,OH,NA,62.24328593996841,45.63567362428842,NA
45750,Washington County,OH,NA,1.6587677725118484,16.98292220113852,NA
45805,Allen County,OH,NA,11.690363349131122,NA,NA
45822,Mercer County,OH,NA,64.06003159557662,NA,NA
45891,Van Wert County,OH,NA,NA,21.347248576850095,NA
45895,Auglaize County,OH,38.800000000000004,29.383886255924168,NA,NA
73003,Oklahoma County,OK,NA,60.505529225908376,NA,NA
73044,Logan County,OK,NA,NA,12.333965844402277,NA
73045,Oklahoma County,OK,NA,75.82938388625593,NA,NA
73071,Cleveland County,OK,NA,NA,43.54838709677419,NA
73115,Oklahoma County,OK,NA,NA,38.04554079696395,NA
73119,Oklahoma County,OK,NA,20.774091627172194,NA,NA
73127,Oklahoma County,OK,NA,46.682464454976305,NA,NA
73134,Oklahoma County,OK,NA,92.81200631911533,NA,NA
73401,Carter County,OK,NA,NA,37.47628083491461,NA
73448,Love County,OK,NA,92.41706161137441,NA,NA
73533,Stephens County,OK,NA,19.431279620853083,NA,16.15798922800718
74006,Washington County,OK,44.4,NA,34.72485768500949,NA
74011,Tulsa County,OK,NA,61.7693522906793,NA,NA
74012,Tulsa County,OK,NA,23.380726698262244,NA,NA
74014,Wagoner County,OK,NA,NA,NA,46.858168761220824
74114,Tulsa County,OK,NA,NA,NA,80.78994614003591
74115,Tulsa County,OK,NA,NA,NA,64.81149012567326
74137,Tulsa County,OK,64.4,NA,NA,NA
74354,Ottawa County,OK,76,85.30805687203792,NA,NA
74462,Haskell County,OK,NA,NA,80.07590132827325,NA
74523,Pushmataha County,OK,NA,NA,95.35104364326375,NA
74601,Kay County,OK,NA,NA,51.23339658444023,NA
74631,Kay County,OK,NA,78.51500789889415,NA,NA
74728,McCurtain County,OK,57.599999999999994,NA,NA,NA
74745,McCurtain County,OK,NA,NA,79.31688804554081,NA
74848,Hughes County,OK,NA,71.01105845181675,NA,NA
74851,Pottawatomie County,OK,NA,72.82780410742497,NA,NA
74884,Seminole County,OK,NA,75.434439178515,NA,NA
97007,Washington County,OR,NA,NA,24.003795066413662,NA
97008,Washington County,OR,NA,54.58135860979463,NA,NA
97030,Multnomah County,OR,NA,NA,47.53320683111954,NA
97051,Columbia County,OR,NA,57.89889415481832,NA,NA
97055,Clackamas County,OR,NA,NA,NA,48.114901256732495
97056,Columbia County,OR,NA,NA,79.41176470588235,NA
97060,Multnomah County,OR,NA,39.25750394944708,NA,NA
97064,Columbia County,OR,NA,98.10426540284361,NA,NA
97071,Marion County,OR,NA,NA,52.75142314990512,NA
97078,Washington County,OR,NA,NA,NA,82.04667863554758
97080,Multnomah County,OR,NA,NA,NA,36.2657091561939
97103,Clatsop County,OR,NA,50.86887835703001,NA,NA
97113,Washington County,OR,NA,65.00789889415482,NA,NA
97116,Washington County,OR,NA,NA,86.71726755218216,NA
97128,Yamhill County,OR,NA,NA,24.76280834914611,NA
97132,Yamhill County,OR,NA,NA,59.29791271347249,NA
97203,Multnomah County,OR,NA,37.598736176935226,NA,NA
97213,Multnomah County,OR,NA,34.4391785150079,NA,NA
97214,Multnomah County,OR,NA,NA,75.33206831119544,NA
97216,Multnomah County,OR,NA,NA,NA,38.59964093357271
97220,Multnomah County,OR,NA,33.41232227488152,NA,NA
97229,Washington County,OR,NA,NA,31.87855787476281,NA
97233,Multnomah County,OR,79.2,NA,NA,NA
97236,Multnomah County,OR,NA,NA,23.244781783681216,NA
97267,Clackamas County,OR,NA,63.112164296998415,NA,NA
97302,Marion County,OR,NA,92.96998420221169,NA,NA
97321,Linn County,OR,NA,25.98736176935229,NA,NA
97322,Linn County,OR,NA,NA,11.57495256166983,NA
97330,Benton County,OR,92,NA,NA,NA
97338,Polk County,OR,41.6,NA,NA,NA
97355,Linn County,OR,NA,NA,NA,6.822262118491921
97365,Lincoln County,OR,NA,NA,35.10436432637571,NA
97378,Yamhill County,OR,NA,80.56872037914692,NA,NA
97394,Lincoln County,OR,NA,NA,NA,67.86355475763017
97408,Lane County,OR,NA,89.25750394944708,NA,NA
97424,Lane County,OR,NA,41.54818325434439,NA,NA
97439,Lane County,OR,NA,NA,NA,50.80789946140036
97471,Douglas County,OR,NA,62.00631911532386,NA,NA
97477,Lane County,OR,NA,22.82780410742496,NA,NA
97501,Jackson County,OR,NA,7.898894154818326,9.962049335863378,NA
97504,Jackson County,OR,NA,NA,11.005692599620494,4.308797127468582
97520,Jackson County,OR,NA,NA,NA,30.879712746858168
97601,Klamath County,OR,30.4,NA,NA,NA
97630,Lake County,OR,NA,NA,NA,99.64093357271095
97882,Umatilla County,OR,NA,76.30331753554502,NA,NA
15001,Beaver County,PA,NA,NA,14.516129032258066,NA
15010,Beaver County,PA,NA,18.878357030015795,NA,12.746858168761221
15042,Beaver County,PA,NA,92.33807266982622,NA,69.47935368043088
15061,Beaver County,PA,NA,NA,NA,55.65529622980251
15102,Allegheny County,PA,NA,NA,NA,13.464991023339318
15108,Allegheny County,PA,NA,NA,46.48956356736243,NA
15110,Allegheny County,PA,NA,NA,89.8481973434535,NA
15131,Allegheny County,PA,NA,NA,80.45540796963947,NA
15136,Allegheny County,PA,NA,NA,NA,43.806104129263915
15143,Allegheny County,PA,NA,NA,89.94307400379506,NA
15205,Allegheny County,PA,NA,NA,NA,57.450628366247756
15210,Allegheny County,PA,NA,NA,37.19165085388994,NA
15218,Allegheny County,PA,NA,NA,92.88425047438331,NA
15219,Allegheny County,PA,NA,30.173775671406005,NA,NA
15220,Allegheny County,PA,NA,64.77093206951027,NA,NA
15243,Allegheny County,PA,NA,84.28120063191153,NA,NA
15401,Fayette County,PA,NA,7.109004739336493,NA,NA
15478,Fayette County,PA,25.2,NA,NA,NA
15501,Somerset County,PA,NA,NA,43.45351043643264,NA
15537,Bedford County,PA,NA,76.06635071090048,NA,NA
15666,Westmoreland County,PA,NA,NA,28.46299810246679,NA
15690,Westmoreland County,PA,88.4,NA,NA,NA
15701,Indiana County,PA,NA,18.878357030015795,NA,NA
15728,Indiana County,PA,NA,NA,99.33586337760912,NA
15767,Jefferson County,PA,NA,57.58293838862559,NA,NA
15801,Clearfield County,PA,NA,47.39336492890995,NA,NA
15824,Jefferson County,PA,NA,NA,80.55028462998102,NA
15834,Cameron County,PA,NA,NA,NA,98.02513464991023
15853,Elk County,PA,NA,57.74091627172196,NA,NA
15857,Elk County,PA,NA,69.826224328594,85.57874762808349,37.881508078994614
15909,Cambria County,PA,NA,NA,NA,91.56193895870736
16053,Butler County,PA,NA,NA,87.76091081593927,NA
16117,Lawrence County,PA,NA,48.183254344391784,NA,NA
16137,Mercer County,PA,NA,NA,62.61859582542695,NA
16157,Lawrence County,PA,NA,NA,99.62049335863378,NA
16201,Armstrong County,PA,NA,NA,9.582542694497153,NA
16214,Clarion County,PA,NA,68.4044233807267,62.14421252371917,NA
16226,Armstrong County,PA,NA,84.51816745655609,NA,NA
16232,Clarion County,PA,NA,92.57503949447077,NA,NA
16316,Crawford County,PA,NA,78.59399684044234,NA,NA
16354,Crawford County,PA,70,NA,NA,NA
16371,Warren County,PA,NA,99.44707740916272,NA,NA
16648,Blair County,PA,NA,55.52922590837282,NA,NA
16652,Huntingdon County,PA,NA,65.63981042654028,NA,NA
16686,Blair County,PA,NA,NA,NA,49.55116696588869
16801,Centre County,PA,42.8,NA,NA,NA
16803,Centre County,PA,NA,56.872037914691944,53.510436432637576,39.138240574506284
16823,Centre County,PA,NA,50.23696682464455,NA,NA
16827,Centre County,PA,NA,NA,84.0607210626186,NA
16841,Centre County,PA,NA,NA,NA,74.50628366247756
16858,Clearfield County,PA,NA,94.15481832543445,NA,NA
16866,Centre County,PA,78.8,NA,NA,NA
17003,Lebanon County,PA,NA,NA,43.643263757115754,NA
17015,Cumberland County,PA,NA,NA,NA,33.572710951526034
17022,Lancaster County,PA,NA,NA,44.49715370018975,48.65350089766607
17036,Dauphin County,PA,NA,21.958925750394943,NA,NA
17038,Lebanon County,PA,NA,NA,67.4573055028463,NA
17042,Lebanon County,PA,NA,4.660347551342812,NA,NA
17044,Mifflin County,PA,NA,NA,51.423149905123346,40.754039497307005
17046,Lebanon County,PA,12.8,NA,NA,NA
17057,Dauphin County,PA,NA,73.1437598736177,NA,NA
17067,Lebanon County,PA,NA,NA,71.63187855787476,NA
17078,Lebanon County,PA,NA,15.00789889415482,NA,NA
17111,Dauphin County,PA,NA,NA,5.028462998102467,NA
17201,Franklin County,PA,NA,NA,17.647058823529413,NA
17314,York County,PA,NA,NA,93.92789373814043,NA
17319,York County,PA,NA,NA,65.55977229601518,NA
17331,York County,PA,NA,6.477093206951026,NA,NA
17340,Adams County,PA,NA,86.25592417061611,NA,NA
17345,York County,PA,NA,64.06003159557662,NA,NA
17363,York County,PA,NA,75.03949447077409,NA,NA
17368,York County,PA,NA,NA,74.85768500948767,NA
17404,York County,PA,NA,NA,41.17647058823529,NA
17406,York County,PA,NA,NA,37.096774193548384,NA
17512,Lancaster County,PA,NA,NA,70.96774193548387,NA
17516,Lancaster County,PA,NA,NA,95.06641366223909,NA
17527,Lancaster County,PA,NA,NA,97.05882352941177,NA
17540,Lancaster County,PA,NA,NA,NA,98.38420107719928
17545,Lancaster County,PA,NA,68.64139020537124,27.703984819734345,NA
17552,Lancaster County,PA,NA,NA,92.59962049335864,46.14003590664273
17554,Lancaster County,PA,NA,NA,90.79696394686907,98.92280071813285
17557,Lancaster County,PA,NA,71.40600315955766,NA,76.84021543985638
17560,Lancaster County,PA,NA,NA,96.48956356736242,NA
17584,Lancaster County,PA,NA,NA,70.01897533206831,40.57450628366247
17601,Lancaster County,PA,NA,32.5434439178515,76.18595825426945,NA
17603,Lancaster County,PA,NA,70.14218009478674,54.36432637571158,NA
17701,Lycoming County,PA,NA,4.1864139020537126,NA,NA
17801,Northumberland County,PA,NA,80.96366508688784,18.12144212523719,32.13644524236984
17815,Columbia County,PA,NA,90.20537124802527,NA,12.387791741472173
17821,Montour County,PA,NA,23.85466034755134,12.808349146110057,3.231597845601436
17834,Northumberland County,PA,NA,NA,NA,78.09694793536805
17837,Union County,PA,NA,NA,35.7685009487666,NA
17851,Northumberland County,PA,NA,NA,NA,87.61220825852783
17857,Northumberland County,PA,NA,61.84834123222749,86.62239089184061,NA
17866,Northumberland County,PA,NA,58.53080568720379,80.55028462998102,NA
17870,Snyder County,PA,NA,NA,25.996204933586338,NA
17872,Northumberland County,PA,48.8,66.35071090047393,32.542694497153704,NA
17921,Schuylkill County,PA,NA,NA,81.59392789373814,NA
17963,Schuylkill County,PA,75.6,NA,NA,NA
17972,Schuylkill County,PA,NA,58.451816745655606,51.51802656546489,NA
17981,Schuylkill County,PA,NA,NA,98.9563567362429,NA
18013,Northampton County,PA,NA,34.75513428120063,NA,NA
18015,Northampton County,PA,NA,7.661927330173776,NA,NA
18017,Northampton County,PA,NA,NA,22.011385199240987,3.052064631956912
18018,Lehigh County,PA,NA,21.563981042654028,54.26944971537002,NA
18020,Northampton County,PA,NA,NA,NA,25.314183123877914
18037,Lehigh County,PA,NA,NA,82.35294117647058,NA
18040,Northampton County,PA,NA,NA,71.34724857685009,NA
18045,Northampton County,PA,NA,35.150078988941544,NA,NA
18051,Lehigh County,PA,NA,NA,94.87666034155598,NA
18052,Lehigh County,PA,NA,NA,NA,20.46678635547576
18064,Northampton County,PA,NA,67.06161137440758,NA,NA
18067,Northampton County,PA,NA,37.519747235387044,NA,NA
18080,Lehigh County,PA,NA,42.49605055292259,NA,NA
18103,Lehigh County,PA,NA,23.77567140600316,NA,NA
18104,Lehigh County,PA,NA,NA,NA,3.4111310592459607
18210,Carbon County,PA,NA,69.19431279620854,NA,89.04847396768402
18222,Luzerne County,PA,NA,78.19905213270142,NA,NA
18235,Carbon County,PA,NA,NA,NA,36.08617594254937
18360,Monroe County,PA,NA,NA,NA,13.644524236983843
18407,Lackawanna County,PA,NA,71.01105845181675,NA,NA
18411,Lackawanna County,PA,NA,44.15481832543444,NA,26.21184919210054
18424,Lackawanna County,PA,NA,90.44233807266983,NA,NA
18431,Wayne County,PA,NA,58.68878357030016,NA,NA
18436,Wayne County,PA,76.8,52.527646129541864,NA,NA
18466,Monroe County,PA,NA,NA,61.29032258064516,NA
18504,Lackawanna County,PA,NA,59.63665086887836,NA,NA
18510,Lackawanna County,PA,NA,82.70142180094787,NA,NA
18512,Lackawanna County,PA,NA,NA,NA,58.52782764811491
18603,Columbia County,PA,NA,76.38230647709321,NA,NA
18621,Luzerne County,PA,NA,NA,82.63757115749526,NA
18634,Luzerne County,PA,NA,40.12638230647709,38.1404174573055,NA
18640,Luzerne County,PA,NA,39.81042654028436,85.86337760910816,NA
18641,Luzerne County,PA,NA,93.28593996840442,NA,NA
18643,Luzerne County,PA,NA,50.4739336492891,47.15370018975332,NA
18655,Luzerne County,PA,NA,NA,NA,76.12208258527828
18657,Wyoming County,PA,NA,59.79462875197472,NA,NA
18661,Luzerne County,PA,NA,78.90995260663507,70.58823529411765,NA
18701,Luzerne County,PA,NA,NA,99.71537001897534,NA
18702,Luzerne County,PA,NA,6.714060031595577,NA,6.283662477558348
18704,Luzerne County,PA,NA,43.75987361769352,41.555977229601524,NA
18706,Luzerne County,PA,NA,NA,65.46489563567363,NA
18707,Luzerne County,PA,NA,54.42338072669827,NA,NA
18801,Susquehanna County,PA,91.60000000000001,NA,NA,NA
18822,Susquehanna County,PA,NA,92.65402843601895,NA,NA
18847,Susquehanna County,PA,NA,NA,84.34535104364326,NA
18850,Bradford County,PA,NA,NA,99.90512333965845,NA
18925,Bucks County,PA,NA,90.28436018957346,NA,NA
18944,Bucks County,PA,NA,49.68404423380727,NA,NA
18951,Bucks County,PA,NA,47.31437598736177,15.27514231499051,NA
18966,Bucks County,PA,NA,NA,9.867172675521822,NA
19006,Montgomery County,PA,NA,NA,28.368121442125236,NA
19010,Delaware County,PA,NA,NA,NA,96.76840215439856
19013,Delaware County,PA,NA,NA,12.04933586337761,NA
19022,Delaware County,PA,NA,90.04739336492891,NA,NA
19023,Delaware County,PA,NA,NA,NA,68.9407540394973
19036,Delaware County,PA,NA,NA,70.20872865275142,NA
19040,Montgomery County,PA,NA,NA,40.13282732447818,NA
19041,Delaware County,PA,NA,98.34123222748815,85.95825426944972,NA
19050,Delaware County,PA,NA,NA,90.5123339658444,NA
19057,Bucks County,PA,NA,60.18957345971564,NA,NA
19066,Montgomery County,PA,NA,80.173775671406,NA,NA
19087,Chester County,PA,NA,73.69668246445498,80.1707779886148,NA
19096,Montgomery County,PA,NA,NA,NA,57.27109515260324
19102,Philadelphia County,PA,NA,90.52132701421802,NA,NA
19104,Philadelphia County,PA,NA,9.715639810426541,NA,NA
19107,Philadelphia County,PA,NA,NA,42.69449715370019,NA
19120,Philadelphia County,PA,NA,2.843601895734597,NA,43.447037701974864
19122,Philadelphia County,PA,NA,42.89099526066351,NA,NA
19124,Philadelphia County,PA,NA,7.977883096366509,NA,NA
19125,Philadelphia County,PA,NA,72.03791469194313,NA,NA
19131,Philadelphia County,PA,NA,25.039494470774095,18.88045540796964,NA
19132,Philadelphia County,PA,NA,NA,NA,45.24236983842011
19134,Philadelphia County,PA,NA,2.6066350710900474,NA,NA
19139,Philadelphia County,PA,NA,49.368088467614534,NA,NA
19140,Philadelphia County,PA,NA,NA,NA,89.76660682226212
19142,Philadelphia County,PA,NA,10.742496050552923,83.01707779886148,NA
19144,Philadelphia County,PA,NA,4.581358609794629,8.918406072106261,NA
19152,Philadelphia County,PA,NA,16.587677725118482,NA,NA
19312,Chester County,PA,NA,95.18167456556083,NA,NA
19320,Chester County,PA,NA,NA,10.721062618595825,NA
19348,Chester County,PA,68,NA,NA,NA
19363,Chester County,PA,NA,NA,66.31878557874764,NA
19380,Chester County,PA,NA,NA,4.459203036053131,NA
19403,Montgomery County,PA,NA,16.034755134281202,NA,NA
19422,Montgomery County,PA,NA,NA,NA,47.57630161579892
19454,Montgomery County,PA,NA,40.67930489731438,NA,NA
19460,Chester County,PA,NA,NA,NA,20.287253141831236
19508,Berks County,PA,NA,NA,70.4933586337761,NA
19530,Berks County,PA,NA,NA,60.43643263757116,NA
19601,Berks County,PA,3.2,NA,NA,NA
19605,Berks County,PA,NA,NA,NA,23.518850987432675
19607,Berks County,PA,NA,57.345971563981045,NA,NA
19608,Berks County,PA,NA,58.29383886255924,NA,NA
19609,Berks County,PA,NA,NA,88.8045540796964,NA
02806,Bristol County,RI,NA,NA,61.95445920303605,NA
02809,Bristol County,RI,NA,NA,29.03225806451613,NA
02825,Providence County,RI,NA,NA,90.03795066413662,NA
02842,Newport County,RI,NA,73.85466034755133,46.67931688804554,NA
02860,Providence County,RI,NA,28.041074249605057,NA,NA
02864,Providence County,RI,NA,24.80252764612954,NA,NA
02871,Newport County,RI,NA,NA,NA,73.96768402154399
02879,Washington County,RI,NA,NA,30.834914611005694,NA
02886,Kent County,RI,NA,30.252764612954188,NA,NA
02893,Kent County,RI,NA,NA,20.01897533206831,NA
02915,Providence County,RI,NA,NA,78.36812144212524,NA
29063,Richland County,SC,NA,NA,NA,52.6032315978456
29073,Lexington County,SC,NA,NA,NA,44.52423698384201
29148,Clarendon County,SC,NA,88.54660347551344,88.1404174573055,NA
29169,Lexington County,SC,NA,52.76461295418642,NA,NA
29323,Spartanburg County,SC,NA,NA,NA,68.9407540394973
29341,Cherokee County,SC,NA,NA,49.33586337760911,NA
29360,Laurens County,SC,72.8,NA,NA,NA
29379,Union County,SC,NA,NA,NA,78.45601436265709
29574,Marion County,SC,NA,56.16113744075829,NA,NA
29585,Georgetown County,SC,NA,NA,43.92789373814042,NA
29591,Florence County,SC,NA,90.99526066350711,NA,NA
29601,Greenville County,SC,NA,NA,NA,81.86714542190305
29607,Greenville County,SC,NA,26.540284360189574,NA,NA
29620,Abbeville County,SC,NA,78.35703001579779,NA,NA
29621,Anderson County,SC,NA,NA,NA,11.310592459605028
29625,Anderson County,SC,NA,NA,24.09867172675522,NA
29626,Anderson County,SC,NA,NA,69.07020872865274,NA
29627,Anderson County,SC,14.399999999999999,56.00315955766193,NA,NA
29654,Anderson County,SC,NA,NA,60.05692599620494,NA
29662,Greenville County,SC,NA,NA,53.32068311195446,NA
29671,Pickens County,SC,NA,44.86571879936809,NA,NA
29678,Oconee County,SC,NA,52.843601895734594,NA,NA
29702,Cherokee County,SC,65.60000000000001,NA,NA,NA
29730,York County,SC,NA,NA,31.119544592030362,NA
29801,Aiken County,SC,NA,NA,40.98671726755218,NA
29812,Barnwell County,SC,NA,NA,92.12523719165085,NA
29829,Aiken County,SC,NA,76.93522906793049,NA,NA
29910,Beaufort County,SC,NA,NA,33.111954459203034,NA
29928,Beaufort County,SC,NA,NA,NA,43.98563734290844
57103,Minnehaha County,SD,NA,NA,3.0360531309297913,5.745062836624776
57105,Minnehaha County,SD,NA,NA,10.341555977229602,NA
57108,Lincoln County,SD,NA,NA,17.362428842504745,NA
57301,Davison County,SD,NA,71.80094786729858,NA,NA
57350,Beadle County,SD,82,NA,NA,NA
37013,Davidson County,TN,NA,9.083728278041074,NA,NA
37042,Montgomery County,TN,NA,22.59083728278041,NA,NA
37069,Williamson County,TN,87.2,NA,NA,NA
37074,Trousdale County,TN,NA,NA,73.719165085389,NA
37083,Macon County,TN,NA,NA,29.411764705882355,NA
37086,Rutherford County,TN,NA,NA,90.41745730550285,NA
37130,Rutherford County,TN,NA,NA,27.229601518026563,NA
37203,Davidson County,TN,NA,NA,91.84060721062619,NA
37205,Davidson County,TN,NA,64.84992101105846,NA,19.210053859964095
37208,Davidson County,TN,NA,55.84518167456556,NA,NA
37217,Davidson County,TN,NA,NA,78.4629981024668,NA
37311,Bradley County,TN,NA,32.22748815165877,NA,NA
37312,Bradley County,TN,NA,NA,NA,33.39317773788151
37323,Bradley County,TN,NA,38.467614533965246,NA,NA
37327,Sequatchie County,TN,NA,NA,83.20683111954459,NA
37334,Lincoln County,TN,NA,34.12322274881517,NA,NA
37350,Hamilton County,TN,100,NA,NA,NA
37367,Bledsoe County,TN,NA,89.41548183254343,58.918406072106265,NA
37388,Coffee County,TN,NA,NA,NA,48.29443447037702
37412,Hamilton County,TN,NA,NA,53.510436432637576,NA
37725,Jefferson County,TN,NA,48.89415481832543,NA,NA
37774,Loudon County,TN,NA,42.812006319115326,NA,31.23877917414722
37777,Blount County,TN,NA,NA,49.62049335863378,NA
37801,Blount County,TN,NA,NA,11.669829222011385,NA
37803,Blount County,TN,NA,61.29541864139021,NA,15.260323159784562
37804,Blount County,TN,NA,NA,NA,80.25134649910234
37874,Monroe County,TN,NA,37.75671406003159,NA,NA
37921,Knox County,TN,NA,27.64612954186414,NA,NA
37923,Knox County,TN,74.4,NA,NA,NA
37938,Knox County,TN,NA,65.95576619273301,NA,NA
38019,Tipton County,TN,NA,53.15955766192732,NA,NA
38024,Dyer County,TN,12,NA,NA,NA
38104,Shelby County,TN,NA,NA,NA,71.99281867145422
38109,Shelby County,TN,NA,55.687203791469194,NA,NA
38111,Shelby County,TN,NA,NA,NA,42.908438061041295
38114,Shelby County,TN,NA,NA,28.55787476280835,NA
38116,Shelby County,TN,NA,15.718799368088469,NA,NA
38127,Shelby County,TN,NA,8.451816745655607,NA,NA
38134,Shelby County,TN,NA,34.67614533965245,NA,NA
38261,Obion County,TN,NA,NA,29.886148007590137,NA
38344,Carroll County,TN,NA,66.42969984202212,NA,NA
38485,Wayne County,TN,NA,NA,87.4762808349146,NA
38574,Putnam County,TN,NA,74.48657187993682,NA,NA
75019,Dallas County,TX,NA,50.4739336492891,NA,NA
75020,Grayson County,TX,NA,NA,66.03415559772297,NA
75021,Grayson County,TX,NA,93.99684044233807,NA,NA
75033,,TX,NA,62.875197472353875,NA,NA
75041,Dallas County,TX,NA,41.46919431279621,NA,NA
75044,Dallas County,TX,NA,NA,25.23719165085389,NA
75056,Denton County,TX,NA,NA,NA,61.759425493716336
75065,Denton County,TX,NA,NA,NA,94.7935368043088
75069,Collin County,TX,NA,NA,NA,24.236983842010773
75070,Collin County,TX,11.600000000000001,NA,NA,NA
75071,Collin County,TX,NA,NA,27.32447817836812,NA
75076,Grayson County,TX,NA,99.36808846761454,NA,NA
75080,Dallas County,TX,NA,54.976303317535546,NA,NA
75089,Dallas County,TX,NA,NA,NA,84.38061041292639
75093,Collin County,TX,31.6,NA,NA,NA
75116,Dallas County,TX,NA,74.0916271721959,NA,NA
75134,Dallas County,TX,NA,NA,NA,95.33213644524237
75137,Dallas County,TX,NA,NA,71.34724857685009,NA
75149,Dallas County,TX,NA,16.350710900473935,NA,NA
75156,Henderson County,TX,NA,44.78672985781991,NA,59.60502692998204
75180,Dallas County,TX,NA,NA,NA,61.22082585278277
75215,Dallas County,TX,22,NA,NA,NA
75217,Dallas County,TX,NA,NA,7.685009487666034,NA
75218,Dallas County,TX,NA,69.51026856240127,NA,NA
75219,Dallas County,TX,NA,NA,55.597722960151806,NA
75220,Dallas County,TX,NA,44.39178515007899,NA,NA
75225,Dallas County,TX,NA,NA,50.47438330170778,NA
75227,Dallas County,TX,98.8,NA,NA,NA
75228,Dallas County,TX,NA,NA,17.4573055028463,NA
75240,Dallas County,TX,NA,NA,NA,66.6068222621185
75241,Dallas County,TX,NA,21.011058451816748,NA,NA
75253,Dallas County,TX,NA,NA,78.08349146110058,NA
75287,Denton County,TX,NA,37.993680884676145,NA,NA
75407,Collin County,TX,NA,58.92575039494471,NA,NA
75455,Titus County,TX,NA,NA,NA,46.858168761220824
75457,Franklin County,TX,69.19999999999999,NA,NA,NA
75605,Gregg County,TX,NA,NA,33.017077798861486,NA
75652,Rusk County,TX,61.199999999999996,NA,NA,71.27468581687613
75693,Gregg County,TX,NA,95.41864139020537,NA,NA
75701,Smith County,TX,NA,NA,NA,5.206463195691203
75709,Smith County,TX,NA,NA,91.74573055028463,NA
75762,Smith County,TX,62,NA,NA,NA
75765,Wood County,TX,NA,NA,71.82163187855788,NA
75771,Smith County,TX,NA,51.342812006319114,NA,NA
75785,Cherokee County,TX,NA,84.28120063191153,NA,NA
75790,Van Zandt County,TX,NA,NA,NA,89.22800718132855
75791,Smith County,TX,NA,89.81042654028435,NA,NA
75840,Freestone County,TX,NA,95.73459715639811,NA,NA
75860,Freestone County,TX,NA,85.62401263823065,NA,NA
75972,San Augustine County,TX,NA,64.21800947867298,NA,NA
76020,Tarrant County,TX,NA,NA,NA,54.7576301615799
76033,Johnson County,TX,NA,NA,NA,51.526032315978455
76039,Tarrant County,TX,NA,98.89415481832543,NA,NA
76065,Ellis County,TX,NA,37.598736176935226,NA,NA
76078,Wise County,TX,NA,93.52290679304897,NA,NA
76105,Tarrant County,TX,NA,NA,21.062618595825427,NA
76107,Tarrant County,TX,NA,67.37756714060032,NA,NA
76131,Tarrant County,TX,NA,NA,57.59013282732448,NA
76148,Tarrant County,TX,NA,NA,48.19734345351044,NA
76179,Tarrant County,TX,NA,NA,29.316888045540797,NA
76205,Denton County,TX,NA,NA,74.573055028463,NA
76210,Denton County,TX,NA,NA,52.08728652751423,NA
76426,Wise County,TX,NA,83.9652448657188,64.99051233396584,56.732495511669654
76501,Bell County,TX,NA,12.40126382306477,4.933586337760911,4.488330341113106
76502,Bell County,TX,NA,NA,25.806451612903224,NA
76504,Bell County,TX,35.199999999999996,NA,60.91081593927894,NA
76513,Bell County,TX,NA,7.424960505529225,86.33776091081594,NA
76520,Milam County,TX,NA,94.54976303317537,NA,NA
76522,Coryell County,TX,NA,NA,83.68121442125236,NA
76528,Coryell County,TX,NA,72.51184834123224,62.99810246679317,NA
76542,Bell County,TX,NA,94.07582938388626,72.10626185958255,79.53321364452424
76543,Bell County,TX,47.599999999999994,90.83728278041075,17.077798861480076,74.32675044883304
76549,Bell County,TX,35.6,21.80094786729858,27.609108159392786,NA
76550,Lampasas County,TX,NA,59.87361769352291,50.75901328273245,NA
76579,Bell County,TX,NA,98.81516587677726,NA,NA
76633,McLennan County,TX,NA,94.94470774091627,NA,NA
76634,Bosque County,TX,NA,94.8657187993681,NA,NA
76642,Limestone County,TX,NA,64.69194312796208,NA,NA
76643,McLennan County,TX,NA,65.87677725118483,55.787476280834916,82.2262118491921
76655,McLennan County,TX,NA,NA,94.40227703984819,NA
76661,Falls County,TX,NA,88.30963665086888,99.43074003795066,NA
76667,Limestone County,TX,NA,91.86413902053712,81.21442125237192,NA
76689,Bosque County,TX,NA,NA,99.81024667931689,NA
76691,McLennan County,TX,NA,NA,94.68690702087287,NA
76692,Hill County,TX,NA,88.78357030015798,NA,NA
76704,McLennan County,TX,NA,NA,98.86148007590133,NA
76705,McLennan County,TX,58.4,NA,81.8785578747628,29.263913824057454
76706,McLennan County,TX,NA,32.70142180094787,NA,NA
76707,McLennan County,TX,NA,85.70300157977883,77.03984819734345,NA
76708,McLennan County,TX,NA,NA,47.24857685009488,NA
76710,McLennan County,TX,NA,NA,38.51992409867172,77.19928186714542
76711,McLennan County,TX,NA,81.91153238546603,NA,NA
76712,McLennan County,TX,84.39999999999999,39.09952606635071,NA,52.06463195691203
76821,Runnels County,TX,NA,91.39020537124803,NA,NA
76849,Kimble County,TX,NA,NA,88.89943074003796,NA
76904,Tom Green County,TX,NA,58.13586097946287,NA,NA
77004,Harris County,TX,NA,26.38230647709321,39.75332068311195,NA
77005,Harris County,TX,NA,NA,50.56925996204934,NA
77022,Harris County,TX,NA,51.8957345971564,NA,NA
77026,Harris County,TX,18.8,NA,NA,NA
77033,Harris County,TX,NA,NA,16.698292220113853,NA
77036,Harris County,TX,NA,48.81516587677725,NA,NA
77037,Harris County,TX,NA,NA,NA,98.56373429084381
77044,Harris County,TX,NA,NA,NA,96.58886894075404
77047,Harris County,TX,NA,77.33017377567141,NA,NA
77049,Harris County,TX,50.8,NA,NA,NA
77056,Harris County,TX,NA,70.30015797788309,NA,NA
77060,Harris County,TX,NA,57.81990521327014,NA,NA
77070,Harris County,TX,NA,43.28593996840443,20.777988614800762,NA
77074,Harris County,TX,NA,72.35387045813586,NA,NA
77303,Montgomery County,TX,NA,NA,76.56546489563567,NA
77306,Montgomery County,TX,NA,NA,75.52182163187857,NA
77316,Montgomery County,TX,NA,NA,56.64136622390892,NA
77340,Walker County,TX,NA,NA,NA,63.73429084380611
77373,Harris County,TX,NA,27.488151658767773,NA,NA
77379,Harris County,TX,NA,24.091627172195892,NA,NA
77418,Austin County,TX,NA,NA,NA,71.63375224416517
77449,Harris County,TX,3.5999999999999996,NA,NA,50.08976660682226
77471,Fort Bend County,TX,NA,36.17693522906793,NA,NA
77520,Harris County,TX,NA,NA,52.371916508538895,NA
77531,Brazoria County,TX,NA,NA,77.22960151802657,NA
77550,Galveston County,TX,NA,17.140600315955766,NA,NA
77566,Brazoria County,TX,NA,NA,72.67552182163189,NA
77568,Galveston County,TX,NA,NA,NA,56.01436265709157
77581,Brazoria County,TX,NA,28.278041074249604,NA,NA
77584,Brazoria County,TX,17.2,NA,NA,NA
77590,Galveston County,TX,14.000000000000002,NA,NA,NA
77591,Galveston County,TX,NA,53.001579778830965,NA,NA
77619,Jefferson County,TX,NA,NA,75.23719165085389,78.99461400359067
77627,Jefferson County,TX,NA,NA,NA,50.44883303411131
77632,Orange County,TX,NA,NA,87.00189753320683,NA
77640,Jefferson County,TX,NA,NA,NA,63.19569120287253
77642,Jefferson County,TX,NA,NA,NA,49.55116696588869
77656,Hardin County,TX,NA,NA,NA,64.09335727109516
77657,Hardin County,TX,NA,54.2654028436019,56.2618595825427,NA
77802,Brazos County,TX,NA,87.91469194312796,NA,NA
77808,Brazos County,TX,NA,79.77883096366509,NA,NA
77833,Washington County,TX,NA,NA,88.42504743833017,88.33034111310593
77840,Brazos County,TX,48,NA,NA,NA
77845,Brazos County,TX,NA,NA,NA,1.9748653500897666
77868,Grimes County,TX,NA,NA,96.58444022770398,NA
77879,Burleson County,TX,NA,NA,96.7741935483871,NA
77954,DeWitt County,TX,NA,NA,52.94117647058824,NA
77979,Calhoun County,TX,NA,66.11374407582939,NA,NA
77984,Lavaca County,TX,NA,NA,86.52751423149905,85.99640933572711
78064,Atascosa County,TX,NA,NA,76.56546489563567,NA
78119,Karnes County,TX,88,NA,NA,NA
78130,Comal County,TX,NA,20.85308056872038,NA,NA
78154,Guadalupe County,TX,NA,87.2827804107425,NA,NA
78207,Bexar County,TX,NA,18.48341232227488,NA,NA
78213,Bexar County,TX,13.200000000000001,NA,NA,NA
78216,Bexar County,TX,NA,40.837282780410746,NA,NA
78232,Bexar County,TX,NA,68.00947867298578,NA,NA
78233,Bexar County,TX,NA,38.862559241706165,NA,49.91023339317774
78237,Bexar County,TX,NA,NA,NA,50.44883303411131
78240,Bexar County,TX,NA,NA,53.98481973434534,NA
78247,Bexar County,TX,NA,NA,NA,71.45421903052065
78253,Bexar County,TX,59.599999999999994,NA,NA,NA
78418,Nueces County,TX,NA,NA,72.39089184060721,NA
78520,Cameron County,TX,NA,52.527646129541864,NA,NA
78538,Hidalgo County,TX,70.39999999999999,NA,NA,NA
78542,Hidalgo County,TX,NA,38.783570300157976,NA,NA
78573,Hidalgo County,TX,NA,51.026856240126385,NA,NA
78605,Burnet County,TX,NA,93.20695102685625,NA,NA
78611,Burnet County,TX,NA,NA,95.54079696394687,NA
78613,Williamson County,TX,NA,NA,90.13282732447819,5.9245960502693
78626,Williamson County,TX,NA,54.897314375987364,NA,NA
78628,Williamson County,TX,56.00000000000001,67.69352290679305,NA,NA
78643,Llano County,TX,NA,97.94628751974723,52.46679316888046,NA
78664,Williamson County,TX,NA,NA,30.170777988614798,NA
78726,Travis County,TX,NA,96.60347551342812,NA,NA
78729,Williamson County,TX,NA,73.30173775671406,NA,NA
78752,Travis County,TX,NA,88.07266982622433,NA,NA
79109,Randall County,TX,NA,NA,39.75332068311195,NA
79121,Randall County,TX,NA,NA,93.64326375711575,NA
79347,Bailey County,TX,NA,81.20063191153238,NA,NA
79414,Lubbock County,TX,NA,71.16903633491312,NA,NA
79556,Nolan County,TX,NA,53.47551342812006,NA,NA
79735,Pecos County,TX,NA,NA,80.83491461100569,NA
79902,El Paso County,TX,NA,81.75355450236967,NA,NA
79907,El Paso County,TX,NA,NA,NA,30.520646319569124
79915,El Paso County,TX,NA,NA,NA,13.285457809694792
79936,El Paso County,TX,NA,NA,48.4819734345351,NA
84020,Salt Lake County,UT,NA,NA,58.06451612903226,NA
84032,Wasatch County,UT,NA,81.43759873617694,NA,NA
84041,Davis County,UT,NA,NA,55.50284629981025,NA
84044,Salt Lake County,UT,NA,68.56240126382306,NA,NA
84047,Salt Lake County,UT,20,NA,NA,NA
84102,Salt Lake County,UT,NA,75.51342812006318,NA,NA
84106,Salt Lake County,UT,NA,NA,NA,24.95511669658887
84117,Salt Lake County,UT,81.2,NA,NA,NA
84120,Salt Lake County,UT,NA,NA,17.267552182163186,NA
84123,Salt Lake County,UT,NA,NA,33.586337760910816,NA
84124,Salt Lake County,UT,NA,NA,62.33396584440227,NA
84128,Salt Lake County,UT,NA,65.24486571879937,NA,NA
84302,Box Elder County,UT,83.6,NA,NA,NA
84405,Weber County,UT,NA,NA,56.2618595825427,NA
84501,Carbon County,UT,NA,NA,97.81783681214421,NA
84720,Iron County,UT,NA,NA,68.21631878557875,NA
05156,Windsor County,VT,NA,NA,58.72865275142315,NA
05301,Windham County,VT,NA,NA,89.18406072106262,NA
05403,Chittenden County,VT,NA,NA,NA,63.55475763016158
05443,Addison County,VT,NA,NA,70.39848197343453,NA
05446,Chittenden County,VT,NA,59.08372827804107,NA,NA
05450,Franklin County,VT,NA,95.65560821484992,NA,NA
05452,Chittenden County,VT,NA,NA,65.84440227703985,NA
05482,Chittenden County,VT,NA,NA,NA,57.63016157989228
20147,Loudoun County,VA,NA,34.99210110584518,NA,NA
20191,Fairfax County,VA,NA,NA,61.005692599620495,NA
22003,Fairfax County,VA,24.8,NA,NA,NA
22030,Fairfax County,VA,NA,28.988941548183256,NA,NA
22032,Fairfax County,VA,NA,NA,NA,68.40215439856372
22041,Fairfax County,VA,NA,92.02211690363349,NA,62.47755834829444
22046,Falls Church city,VA,NA,NA,88.1404174573055,NA
22101,Fairfax County,VA,NA,NA,42.314990512333964,NA
22191,Prince William County,VA,NA,NA,61.48007590132827,NA
22193,Prince William County,VA,NA,11.848341232227488,NA,NA
22304,Alexandria city,VA,NA,12.322274881516588,NA,NA
22405,Stafford County,VA,NA,NA,48.10246679316888,NA
22508,Orange County,VA,NA,78.35703001579779,NA,NA
22551,Spotsylvania County,VA,NA,56.71406003159558,NA,NA
22727,Madison County,VA,NA,NA,NA,81.68761220825853
22815,Rockingham County,VA,NA,NA,61.005692599620495,NA
22835,Page County,VA,NA,NA,45.35104364326376,NA
22851,Page County,VA,NA,NA,NA,95.15260323159784
22902,Charlottesville city,VA,NA,23.22274881516588,NA,NA
22960,Orange County,VA,53.6,NA,NA,NA
22963,Fluvanna County,VA,NA,93.75987361769353,NA,NA
22968,Greene County,VA,NA,NA,66.31878557874764,NA
23139,Powhatan County,VA,NA,NA,41.65085388994307,NA
23188,James City County,VA,NA,41.39020537124802,NA,NA
23321,Chesapeake city,VA,NA,NA,77.13472485768501,NA
23453,Virginia Beach city,VA,53.2,NA,NA,NA
23454,Virginia Beach city,VA,54.400000000000006,NA,NA,NA
23455,Virginia Beach city,VA,NA,NA,8.064516129032258,13.824057450628366
23456,Virginia Beach city,VA,NA,NA,35.009487666034154,NA
23513,Norfolk city,VA,NA,NA,28.083491461100568,NA
23523,Norfolk city,VA,NA,83.80726698262244,NA,NA
23602,Newport News city,VA,17.599999999999998,NA,24.47817836812144,NA
23803,Petersburg city,VA,NA,10.110584518167457,NA,NA
23930,Nottoway County,VA,NA,89.49447077409162,NA,NA
24015,Roanoke city,VA,NA,69.03633491311216,NA,NA
24018,Roanoke County,VA,NA,NA,27.039848197343453,NA
24054,Henry County,VA,NA,NA,87.28652751423151,NA
24202,Washington County,VA,NA,NA,NA,68.58168761220826
24211,Washington County,VA,NA,75.9083728278041,NA,NA
24219,Wise County,VA,NA,NA,NA,60.32315978456014
24340,Washington County,VA,NA,88.15165876777252,78.27324478178367,NA
24343,Carroll County,VA,NA,66.9826224328594,NA,NA
24401,Staunton city,VA,NA,78.83096366508688,NA,NA
24503,Lynchburg city,VA,NA,NA,56.831119544592035,NA
24523,Bedford County,VA,NA,74.64454976303317,NA,NA
24592,Halifax County,VA,NA,NA,63.85199240986717,NA
98001,King County,WA,NA,NA,34.53510436432637,NA
98002,King County,WA,NA,NA,31.214421252371917,NA
98008,King County,WA,NA,82.5434439178515,NA,NA
98010,King County,WA,NA,94.7867298578199,NA,NA
98012,Snohomish County,WA,NA,NA,88.1404174573055,NA
98023,King County,WA,NA,24.486571879936808,NA,NA
98027,King County,WA,NA,59.162717219589254,NA,NA
98030,King County,WA,NA,24.328593996840443,NA,NA
98031,King County,WA,NA,38.862559241706165,NA,NA
98038,King County,WA,NA,31.595576619273302,NA,NA
98042,King County,WA,NA,14.770932069510268,NA,NA
98055,King County,WA,NA,68.79936808846762,NA,NA
98072,King County,WA,NA,NA,NA,55.296229802513466
98104,King County,WA,NA,NA,33.111954459203034,NA
98112,King County,WA,NA,52.44865718799369,NA,NA
98115,King County,WA,NA,NA,NA,63.37522441651705
98119,King County,WA,NA,NA,NA,87.79174147217235
98121,King County,WA,NA,NA,84.91461100569259,NA
98126,King County,WA,93.60000000000001,NA,NA,NA
98208,Snohomish County,WA,NA,65.48183254344391,NA,NA
98272,Snohomish County,WA,NA,54.502369668246445,NA,NA
98332,Pierce County,WA,NA,84.04423380726699,47.72296015180266,NA
98335,Pierce County,WA,NA,NA,NA,31.77737881508079
98363,Clallam County,WA,NA,NA,33.586337760910816,70.91561938958706
98370,Kitsap County,WA,NA,NA,37.66603415559772,NA
98382,Clallam County,WA,NA,NA,NA,10.951526032315979
98407,Pierce County,WA,NA,63.42812006319115,NA,NA
98466,Pierce County,WA,NA,NA,65.2751423149905,NA
98498,Pierce County,WA,NA,NA,48.67172675521822,NA
98506,Thurston County,WA,NA,70.69510268562401,NA,NA
98516,Thurston County,WA,NA,84.4391785150079,NA,NA
98563,Grays Harbor County,WA,NA,87.83570300157977,NA,NA
98625,Cowlitz County,WA,NA,NA,98.76660341555977,NA
98626,Cowlitz County,WA,NA,NA,26.56546489563567,NA
98801,Chelan County,WA,NA,NA,5.88235294117647,NA
98802,Douglas County,WA,NA,46.44549763033176,NA,NA
98816,Chelan County,WA,NA,NA,NA,72.89048473967684
98837,Grant County,WA,NA,29.462875197472354,61.38519924098672,NA
98926,Kittitas County,WA,NA,NA,78.84250474383302,NA
98951,Yakima County,WA,NA,NA,83.87096774193549,NA
99109,Stevens County,WA,NA,99.21011058451816,95.16129032258065,NA
99114,Stevens County,WA,NA,74.565560821485,NA,NA
99156,Pend Oreille County,WA,NA,NA,74.47817836812143,NA
99205,Spokane County,WA,NA,37.91469194312796,NA,NA
99208,Spokane County,WA,NA,NA,NA,10.053859964093357
99223,Spokane County,WA,NA,NA,46.96394686907021,NA
99336,Benton County,WA,NA,38.309636650868875,NA,NA
99347,Garfield County,WA,NA,99.28909952606635,NA,NA
99352,Benton County,WA,NA,NA,21.44212523719165,NA
99353,Benton County,WA,NA,62.24328593996841,NA,NA
20002,District of Columbia,DC,NA,NA,NA,38.95870736086176
20009,District of Columbia,DC,NA,29.541864139020536,NA,NA
20011,District of Columbia,DC,NA,7.50394944707741,NA,NA
20020,District of Columbia,DC,NA,12.559241706161137,NA,NA
24740,Mercer County,WV,NA,29.30489731437599,NA,NA
25045,Kanawha County,WV,NA,93.91785150078988,NA,NA
25271,Jackson County,WV,NA,83.4913112164297,NA,NA
25313,Kanawha County,WV,NA,44.86571879936809,NA,NA
25314,Kanawha County,WV,NA,50.4739336492891,NA,NA
25427,Berkeley County,WV,NA,NA,85.67362428842505,NA
25560,Putnam County,WV,86.8,NA,NA,NA
25601,Logan County,WV,NA,NA,58.15939278937381,NA
25661,Mingo County,WV,98.4,NA,NA,NA
25670,Mingo County,WV,NA,80.88467614533965,NA,NA
25701,Cabell County,WV,NA,43.52290679304897,NA,NA
25832,Raleigh County,WV,NA,95.81358609794628,NA,NA
25901,Fayette County,WV,NA,NA,76.37571157495256,94.25493716337523
26003,Ohio County,WV,NA,5.055292259083728,NA,2.333931777378815
26205,Nicholas County,WV,NA,NA,97.91271347248576,NA
26241,Randolph County,WV,NA,60.34755134281201,NA,NA
26301,Harrison County,WV,NA,28.436018957345972,9.772296015180265,NA
26354,Taylor County,WV,NA,45.33965244865718,NA,NA
26508,Monongalia County,WV,NA,4.897314375987362,NA,NA
26554,Marion County,WV,NA,NA,NA,2.872531418312388
26757,Hampshire County,WV,NA,NA,96.01518026565465,NA
53012,Ozaukee County,WI,NA,NA,NA,30.16157989228007
53051,Waukesha County,WI,NA,NA,21.25237191650854,NA
53126,Racine County,WI,NA,NA,62.33396584440227,NA
53128,Walworth County,WI,NA,63.586097946287524,NA,NA
53130,Milwaukee County,WI,70.8,NA,NA,NA
53140,Kenosha County,WI,NA,9.794628751974724,NA,NA
53144,Kenosha County,WI,NA,NA,NA,51.526032315978455
53147,Walworth County,WI,NA,41.62717219589258,NA,NA
53150,Waukesha County,WI,39.6,NA,NA,NA
53172,Milwaukee County,WI,NA,63.42812006319115,NA,NA
53182,Racine County,WI,NA,60.742496050552916,NA,NA
53204,Milwaukee County,WI,NA,NA,31.59392789373814,NA
53207,Milwaukee County,WI,NA,25.039494470774095,NA,NA
53214,Milwaukee County,WI,NA,10.189573459715639,NA,NA
53215,Milwaukee County,WI,NA,NA,3.130929791271347,NA
53218,Milwaukee County,WI,NA,6.31911532385466,NA,NA
53220,Milwaukee County,WI,NA,NA,54.743833017077804,NA
53223,Milwaukee County,WI,NA,13.902053712480253,NA,NA
53225,Milwaukee County,WI,NA,9.636650868878357,NA,NA
53402,Racine County,WI,NA,75.35545023696683,68.02656546489564,NA
53403,Racine County,WI,NA,31.121642969984205,NA,NA
53406,Racine County,WI,NA,NA,1.4231499051233396,17.41472172351885
53511,Rock County,WI,NA,NA,0.18975332068311196,NA
53520,Green County,WI,NA,NA,48.76660341555977,NA
53548,Rock County,WI,35.6,24.24960505529226,NA,NA
53558,Dane County,WI,NA,83.25434439178515,NA,NA
53566,Green County,WI,53.6,46.91943127962085,NA,NA
53593,Dane County,WI,NA,79.2259083728278,NA,NA
53594,Jefferson County,WI,NA,84.75513428120063,NA,NA
53704,Dane County,WI,NA,35.308056872037916,NA,NA
53821,Crawford County,WI,NA,78.75197472353871,NA,NA
53913,Sauk County,WI,NA,35.3870458135861,15.844402277039848,NA
53916,Dodge County,WI,NA,NA,39.94307400379506,NA
53954,Columbia County,WI,NA,89.49447077409162,87.19165085388994,NA
54002,St. Croix County,WI,NA,NA,97.15370018975332,NA
54155,Brown County,WI,NA,NA,NA,85.99640933572711
54220,Manitowoc County,WI,NA,NA,15.654648956356738,NA
54301,Brown County,WI,80.4,NA,NA,NA
54304,Brown County,WI,NA,NA,95.44592030360532,21.543985637342907
54601,La Crosse County,WI,NA,NA,10.815939278937382,0.17953321364452424
54701,Eau Claire County,WI,NA,NA,19.734345351043643,NA
54724,Chippewa County,WI,80.80000000000001,NA,NA,NA
54880,Douglas County,WI,NA,NA,2.7514231499051234,NA
54914,Outagamie County,WI,NA,21.406003159557663,NA,NA
54947,Winnebago County,WI,NA,99.52606635071089,NA,NA
54952,Winnebago County,WI,NA,72.03791469194313,NA,NA
