ZipCode,county,state,Adult,Retirement,Geriatric
35022,Jefferson County,AL,NA,48.13278008298755,NA
35126,Jefferson County,AL,55.50660792951542,NA,NA
35128,St. Clair County,AL,NA,64.21161825726142,NA
35216,Jefferson County,AL,NA,46.57676348547718,NA
35221,Jefferson County,AL,NA,NA,81.17206982543641
35244,Jefferson County,AL,NA,NA,48.50374064837905
35750,Madison County,AL,NA,79.35684647302904,NA
35773,Madison County,AL,NA,58.713692946058096,NA
35803,Madison County,AL,64.31718061674009,NA,NA
35951,Marshall County,AL,NA,72.71784232365145,NA
36092,Elmore County,AL,48.164464023494865,NA,NA
36108,Montgomery County,AL,NA,94.39834024896265,55.48628428927681
36109,Montgomery County,AL,NA,NA,39.02743142144639
36110,Montgomery County,AL,56.6813509544787,NA,65.46134663341647
36264,Cleburne County,AL,NA,80.91286307053942,NA
36265,Calhoun County,AL,NA,54.77178423236515,NA
36303,Houston County,AL,NA,NA,44.01496259351621
36605,Mobile County,AL,NA,46.99170124481328,NA
36701,Dallas County,AL,32.305433186490454,NA,NA
36830,Lee County,AL,NA,NA,48.87780548628429
36867,Russell County,AL,NA,NA,87.4064837905237
36869,Russell County,AL,NA,81.6390041493776,NA
99501,Anchorage Municipality,AK,88.10572687224669,NA,93.64089775561098
99503,Anchorage Municipality,AK,92.2173274596182,NA,NA
99504,Anchorage Municipality,AK,NA,69.6058091286307,NA
99507,Anchorage Municipality,AK,37.15124816446402,NA,53.86533665835411
99508,Anchorage Municipality,AK,NA,80.49792531120332,NA
99515,Anchorage Municipality,AK,NA,NA,93.39152119700748
99611,Kenai Peninsula Borough,AK,70.19089574155653,90.04149377593362,99.37655860349128
99654,Matanuska-Susitna Borough,AK,39.647577092511014,NA,NA
99669,Kenai Peninsula Borough,AK,96.0352422907489,92.32365145228216,94.38902743142144
99686,Valdez-Cordova Census Area,AK,NA,98.96265560165975,NA
99709,Fairbanks North Star Borough,AK,85.75624082232012,51.244813278008294,NA
99801,Juneau City and Borough,AK,51.68869309838473,61.20331950207469,NA
85007,Maricopa County,AZ,NA,61.72199170124482,95.6359102244389
85008,Maricopa County,AZ,NA,56.32780082987552,NA
85027,Maricopa County,AZ,44.052863436123346,NA,NA
85040,Maricopa County,AZ,NA,52.178423236514526,NA
85042,Maricopa County,AZ,31.5712187958884,NA,NA
85048,Maricopa County,AZ,NA,82.88381742738589,NA
85119,Pinal County,AZ,NA,NA,37.78054862842893
85139,Pinal County,AZ,NA,98.23651452282157,NA
85205,Maricopa County,AZ,NA,24.688796680497926,NA
85226,Maricopa County,AZ,80.02936857562408,NA,NA
85254,Maricopa County,AZ,NA,NA,80.79800498753117
85257,Maricopa County,AZ,NA,NA,35.03740648379052
85260,Maricopa County,AZ,NA,38.07053941908713,NA
85281,Maricopa County,AZ,NA,87.44813278008299,NA
85283,Maricopa County,AZ,24.082232011747433,25.518672199170123,NA
85286,Maricopa County,AZ,38.32599118942731,NA,NA
85301,Maricopa County,AZ,NA,21.57676348547718,NA
85304,Maricopa County,AZ,78.26725403817915,NA,NA
85321,Pima County,AZ,98.09104258443465,NA,NA
85335,Maricopa County,AZ,66.96035242290749,NA,NA
85344,La Paz County,AZ,NA,64.00414937759335,85.41147132169577
85345,Maricopa County,AZ,17.033773861967695,NA,NA
85365,Yuma County,AZ,33.33333333333333,NA,NA
85382,Maricopa County,AZ,NA,41.286307053941904,NA
85542,Gila County,AZ,NA,NA,96.25935162094763
85648,Santa Cruz County,AZ,NA,NA,81.29675810473816
85653,Pima County,AZ,69.01615271659325,NA,NA
85705,Pima County,AZ,25.25697503671072,34.64730290456431,NA
85710,Pima County,AZ,12.041116005873716,NA,NA
85711,Pima County,AZ,11.600587371512482,NA,NA
85713,Pima County,AZ,NA,56.016597510373444,NA
85715,Pima County,AZ,76.2114537444934,NA,NA
85718,Pima County,AZ,NA,NA,16.58354114713217
85730,Pima County,AZ,NA,NA,42.768079800498754
85745,Pima County,AZ,NA,19.398340248962658,NA
85757,Pima County,AZ,NA,51.867219917012456,NA
85901,Navajo County,AZ,NA,28.008298755186722,NA
85929,Navajo County,AZ,83.84728340675477,NA,NA
86001,Coconino County,AZ,55.800293685756245,43.87966804979253,NA
86004,Coconino County,AZ,49.926578560939795,60.47717842323651,NA
86045,Coconino County,AZ,NA,81.2240663900415,40.02493765586035
86047,Navajo County,AZ,67.40088105726872,NA,NA
86403,Mohave County,AZ,NA,51.76348547717843,NA
86406,Mohave County,AZ,NA,72.40663900414937,NA
86442,Mohave County,AZ,NA,39.211618257261414,NA
86503,Apache County,AZ,67.25403817914831,NA,NA
71909,Garland County,AR,NA,NA,12.219451371571072
71913,Garland County,AR,41.409691629955944,NA,NA
72067,Cleburne County,AR,NA,79.5643153526971,NA
72112,Jackson County,AR,74.15565345080763,NA,NA
72176,Lonoke County,AR,NA,NA,88.40399002493766
72204,Pulaski County,AR,NA,83.50622406639005,34.91271820448878
72206,Pulaski County,AR,NA,29.979253112033195,NA
72390,Phillips County,AR,92.36417033773861,NA,NA
72450,Greene County,AR,26.138032305433185,NA,NA
72543,Cleburne County,AR,65.34508076358296,NA,NA
72764,Washington County,AR,NA,52.4896265560166,58.35411471321695
90006,Los Angeles County,CA,NA,NA,34.28927680798005
90008,Los Angeles County,CA,NA,39.41908713692946,NA
90024,Los Angeles County,CA,NA,52.282157676348554,NA
90025,Los Angeles County,CA,58.737151248164466,NA,8.603491271820449
90026,Los Angeles County,CA,48.751835535976504,NA,NA
90027,Los Angeles County,CA,NA,NA,14.962593516209477
90032,Los Angeles County,CA,51.395007342143906,NA,NA
90035,Los Angeles County,CA,NA,NA,21.820448877805486
90037,Los Angeles County,CA,69.60352422907489,NA,NA
90043,Los Angeles County,CA,NA,21.991701244813278,NA
90044,Los Angeles County,CA,NA,19.08713692946058,NA
90045,Los Angeles County,CA,NA,NA,79.17705735660849
90057,Los Angeles County,CA,NA,80.3941908713693,NA
90065,Los Angeles County,CA,NA,64.31535269709543,NA
90250,Los Angeles County,CA,NA,24.273858921161825,NA
90260,Los Angeles County,CA,NA,63.48547717842323,NA
90501,Los Angeles County,CA,NA,54.149377593360995,41.14713216957606
90504,Los Angeles County,CA,92.07048458149781,NA,NA
90602,Los Angeles County,CA,NA,NA,52.867830423940156
90623,Orange County,CA,NA,NA,85.286783042394
90638,Los Angeles County,CA,NA,36.203319502074685,NA
90680,Orange County,CA,NA,68.98340248962656,NA
90706,Los Angeles County,CA,NA,NA,56.35910224438903
90804,Los Angeles County,CA,47.28340675477239,NA,NA
91016,Los Angeles County,CA,NA,53.00829875518672,NA
91203,Los Angeles County,CA,NA,NA,68.82793017456359
91206,Los Angeles County,CA,NA,NA,9.351620947630924
91208,Los Angeles County,CA,NA,65.76763485477179,NA
91306,Los Angeles County,CA,94.56681350954479,46.88796680497925,NA
91307,Los Angeles County,CA,NA,76.2448132780083,73.44139650872819
91325,Los Angeles County,CA,NA,NA,83.79052369077307
91331,Los Angeles County,CA,16.44640234948605,19.70954356846473,NA
91335,Los Angeles County,CA,35.389133627019085,NA,NA
91355,Los Angeles County,CA,71.21879588839941,NA,NA
91403,Los Angeles County,CA,NA,NA,94.76309226932669
91604,Los Angeles County,CA,NA,55.3941908713693,NA
91744,Los Angeles County,CA,23.641703377386197,NA,16.708229426433917
91762,San Bernardino County,CA,38.032305433186494,NA,NA
91764,San Bernardino County,CA,40.23494860499266,NA,NA
91767,Los Angeles County,CA,NA,NA,42.14463840399002
91902,San Diego County,CA,NA,78.52697095435684,NA
92024,San Diego County,CA,NA,NA,27.18204488778055
92026,San Diego County,CA,NA,45.12448132780083,NA
92082,San Diego County,CA,NA,71.47302904564316,NA
92101,San Diego County,CA,NA,NA,83.54114713216958
92201,Riverside County,CA,NA,NA,23.940149625935163
92234,Riverside County,CA,18.64904552129222,19.70954356846473,NA
92240,Riverside County,CA,NA,66.18257261410788,NA
92253,Riverside County,CA,NA,NA,8.104738154613466
92270,Riverside County,CA,NA,NA,47.381546134663346
92324,San Bernardino County,CA,26.725403817914835,NA,NA
92354,San Bernardino County,CA,NA,64.73029045643153,NA
92376,San Bernardino County,CA,NA,17.219917012448132,NA
92377,San Bernardino County,CA,77.67988252569751,NA,NA
92382,San Bernardino County,CA,NA,NA,98.00498753117208
92391,San Bernardino County,CA,NA,99.89626556016597,NA
92404,San Bernardino County,CA,75.77092511013215,NA,NA
92408,San Bernardino County,CA,91.04258443465491,NA,NA
92410,San Bernardino County,CA,NA,NA,68.82793017456359
92503,Riverside County,CA,25.991189427312776,NA,33.416458852867834
92506,Riverside County,CA,NA,39.522821576763484,NA
92507,Riverside County,CA,NA,85.78838174273858,NA
92545,Riverside County,CA,NA,NA,13.591022443890274
92562,Riverside County,CA,NA,NA,33.29177057356609
92592,Riverside County,CA,33.03964757709251,NA,NA
92606,Orange County,CA,NA,NA,81.92019950124688
92614,Orange County,CA,NA,57.572614107883815,NA
92780,Orange County,CA,NA,NA,63.46633416458853
92802,Orange County,CA,NA,40.560165975103736,64.713216957606
92805,Orange County,CA,NA,87.65560165975104,NA
92843,Orange County,CA,NA,48.96265560165975,NA
92866,Orange County,CA,NA,95.95435684647303,NA
92867,Orange County,CA,NA,NA,58.47880299251871
93004,Ventura County,CA,NA,NA,72.9426433915212
93030,Ventura County,CA,22.46696035242291,NA,NA
93033,Ventura County,CA,16.152716593245227,NA,NA
93065,Ventura County,CA,NA,20.95435684647303,NA
93241,Kern County,CA,NA,NA,98.87780548628429
93307,Kern County,CA,17.76798825256975,NA,NA
93308,Kern County,CA,32.74596182085169,NA,NA
93436,Santa Barbara County,CA,20.998531571218795,NA,NA
93444,San Luis Obispo County,CA,60.352422907488986,NA,NA
93458,Santa Barbara County,CA,NA,30.91286307053942,NA
93550,Los Angeles County,CA,NA,NA,95.51122194513717
93552,Los Angeles County,CA,NA,NA,83.0423940149626
93701,Fresno County,CA,75.18355359765052,NA,NA
93702,Fresno County,CA,NA,63.38174273858921,NA
93726,Fresno County,CA,28.193832599118945,44.398340248962654,NA
93901,Monterey County,CA,NA,66.80497925311202,NA
93905,Monterey County,CA,NA,50.20746887966805,63.84039900249376
93906,Monterey County,CA,82.96622613803231,70.33195020746888,36.78304239401496
93907,Monterey County,CA,NA,72.0954356846473,NA
93908,Monterey County,CA,NA,77.69709543568464,NA
93933,Monterey County,CA,65.05139500734214,NA,NA
93950,Monterey County,CA,86.34361233480176,NA,NA
94002,San Mateo County,CA,NA,38.27800829875518,NA
94014,San Mateo County,CA,NA,27.69709543568465,NA
94025,San Mateo County,CA,NA,NA,23.44139650872818
94028,San Mateo County,CA,NA,89.52282157676349,NA
94040,Santa Clara County,CA,NA,NA,59.725685785536164
94043,Santa Clara County,CA,NA,61.72199170124482,70.94763092269328
94061,San Mateo County,CA,96.32892804698973,49.37759336099585,NA
94063,San Mateo County,CA,NA,38.796680497925315,NA
94065,San Mateo County,CA,NA,NA,91.2718204488778
94066,San Mateo County,CA,88.98678414096916,NA,NA
94070,San Mateo County,CA,78.41409691629956,NA,NA
94080,San Mateo County,CA,NA,72.30290456431536,57.98004987531172
94085,Santa Clara County,CA,NA,89.00414937759335,NA
94109,San Francisco County,CA,NA,13.174273858921163,NA
94115,San Francisco County,CA,NA,79.77178423236515,10.723192019950124
94116,San Francisco County,CA,NA,NA,9.850374064837904
94121,San Francisco County,CA,NA,37.96680497925311,NA
94127,San Francisco County,CA,NA,63.69294605809128,NA
94131,San Francisco County,CA,NA,NA,49.12718204488778
94134,San Francisco County,CA,NA,26.348547717842326,NA
94303,San Mateo County,CA,NA,74.48132780082987,22.942643391521198
94306,Santa Clara County,CA,NA,91.80497925311202,46.25935162094763
94401,San Mateo County,CA,94.41997063142438,NA,NA
94403,San Mateo County,CA,NA,18.983402489626556,NA
94509,Contra Costa County,CA,NA,NA,78.55361596009975
94513,Contra Costa County,CA,NA,23.443983402489625,NA
94520,Contra Costa County,CA,NA,NA,60.97256857855362
94521,Contra Costa County,CA,NA,NA,19.950124688279303
94523,Contra Costa County,CA,94.7136563876652,NA,NA
94539,Alameda County,CA,NA,51.45228215767634,NA
94541,Alameda County,CA,NA,51.037344398340245,NA
94551,Alameda County,CA,NA,49.1701244813278,NA
94553,Contra Costa County,CA,NA,27.904564315352697,NA
94565,Contra Costa County,CA,NA,8.29875518672199,NA
94568,Alameda County,CA,NA,NA,46.13466334164589
94577,Alameda County,CA,81.64464023494861,NA,NA
94597,Contra Costa County,CA,NA,68.46473029045643,NA
94601,Alameda County,CA,NA,36.30705394190871,NA
94602,Alameda County,CA,NA,55.601659751037346,NA
94611,Alameda County,CA,62.261380323054325,NA,NA
94803,Contra Costa County,CA,94.86049926578562,NA,NA
94804,Contra Costa County,CA,NA,NA,76.55860349127181
94806,Contra Costa County,CA,NA,NA,48.00498753117207
94920,Marin County,CA,NA,76.55601659751036,NA
95014,Santa Clara County,CA,64.61086637298091,NA,NA
95020,Santa Clara County,CA,36.56387665198238,NA,NA
95023,San Benito County,CA,32.59911894273127,NA,NA
95030,Santa Clara County,CA,NA,NA,57.73067331670823
95032,Santa Clara County,CA,NA,92.21991701244814,40.399002493765586
95035,Santa Clara County,CA,52.12922173274597,NA,NA
95051,Santa Clara County,CA,NA,75.51867219917013,NA
95060,Santa Cruz County,CA,73.42143906020559,NA,NA
95076,Santa Cruz County,CA,25.40381791483113,NA,NA
95116,Santa Clara County,CA,45.66813509544787,NA,NA
95117,Santa Clara County,CA,74.30249632892804,NA,NA
95120,Santa Clara County,CA,NA,84.75103734439834,NA
95122,Santa Clara County,CA,48.458149779735685,NA,NA
95123,Santa Clara County,CA,42.143906020558006,NA,NA
95124,Santa Clara County,CA,82.37885462555066,36.61825726141078,NA
95125,Santa Clara County,CA,NA,53.7344398340249,NA
95127,Santa Clara County,CA,NA,42.427385892116185,NA
95128,Santa Clara County,CA,68.57562408223201,NA,69.45137157107231
95135,Santa Clara County,CA,NA,71.16182572614107,NA
95148,Santa Clara County,CA,NA,40.14522821576764,NA
95203,San Joaquin County,CA,NA,95.74688796680498,NA
95206,San Joaquin County,CA,NA,26.2448132780083,NA
95212,San Joaquin County,CA,77.97356828193833,NA,NA
95222,Calaveras County,CA,NA,89.73029045643153,NA
95236,San Joaquin County,CA,NA,NA,93.01745635910224
95307,Stanislaus County,CA,36.27019089574156,NA,NA
95330,San Joaquin County,CA,NA,75.72614107883817,NA
95350,Stanislaus County,CA,NA,15.145228215767634,NA
95357,Stanislaus County,CA,NA,97.5103734439834,NA
95403,Sonoma County,CA,52.71659324522761,NA,NA
95448,Sonoma County,CA,NA,NA,37.281795511221944
95602,Placer County,CA,NA,46.47302904564315,NA
95608,Sacramento County,CA,NA,51.65975103734441,7.107231920199501
95660,Sacramento County,CA,NA,54.9792531120332,NA
95677,Placer County,CA,NA,74.06639004149378,NA
95757,Sacramento County,CA,NA,54.460580912863065,NA
95762,El Dorado County,CA,NA,35.788381742738586,NA
95822,Sacramento County,CA,42.290748898678416,NA,NA
95829,Sacramento County,CA,NA,NA,38.65336658354115
95965,Butte County,CA,23.93538913362702,31.327800829875518,NA
95966,Butte County,CA,13.509544787077827,NA,NA
95988,Glenn County,CA,82.23201174743025,NA,NA
80011,Arapahoe County,CO,NA,33.713692946058096,NA
80016,Arapahoe County,CO,NA,NA,84.78802992518703
80031,Adams County,CO,NA,NA,45.261845386533665
80108,Douglas County,CO,NA,55.809128630705395,NA
80116,Douglas County,CO,98.82525697503671,NA,NA
80125,Douglas County,CO,NA,89.83402489626556,NA
80134,Douglas County,CO,NA,35.684647302904565,NA
80202,Denver County,CO,54.91923641703378,NA,NA
80207,Denver County,CO,NA,NA,66.83291770573567
80219,Denver County,CO,6.4610866372980915,NA,NA
80226,Jefferson County,CO,NA,NA,52.36907730673317
80232,Jefferson County,CO,NA,NA,42.269326683291766
80239,Denver County,CO,NA,NA,88.2793017456359
80247,Arapahoe County,CO,NA,NA,74.3142144638404
80403,Jefferson County,CO,NA,92.01244813278008,NA
80517,Larimer County,CO,NA,44.91701244813278,NA
80538,Larimer County,CO,NA,NA,23.566084788029926
80759,Yuma County,CO,NA,95.4356846473029,NA
80910,El Paso County,CO,NA,NA,82.91770573566085
80918,El Paso County,CO,NA,NA,64.58852867830423
81003,Pueblo County,CO,38.91336270190896,NA,NA
81004,Pueblo County,CO,NA,31.12033195020747,NA
81122,La Plata County,CO,NA,NA,89.52618453865337
06001,Hartford County,CT,NA,NA,45.6359102244389
06002,Hartford County,CT,51.541850220264315,NA,NA
06032,Hartford County,CT,NA,NA,81.4214463840399
06066,Tolland County,CT,NA,19.91701244813278,NA
06098,Litchfield County,CT,NA,42.84232365145228,NA
06441,Middlesex County,CT,NA,96.36929460580913,NA
06450,New Haven County,CT,NA,13.900414937759336,NA
06460,New Haven County,CT,34.2143906020558,16.90871369294606,NA
06482,Fairfield County,CT,NA,99.48132780082987,NA
06492,New Haven County,CT,NA,NA,4.987531172069826
06513,New Haven County,CT,NA,37.344398340248965,NA
06705,New Haven County,CT,NA,94.70954356846472,NA
06708,New Haven County,CT,NA,34.85477178423236,NA
06810,Fairfield County,CT,20.411160058737153,NA,NA
06870,Fairfield County,CT,NA,89.62655601659752,NA
19701,New Castle County,DE,60.939794419970625,NA,NA
19702,New Castle County,DE,NA,49.5850622406639,NA
19703,New Castle County,DE,NA,NA,66.08478802992519
32073,Clay County,FL,29.662261380323052,NA,NA
32084,St. Johns County,FL,NA,27.074688796680498,NA
32208,Duval County,FL,NA,6.327800829875518,NA
32209,Duval County,FL,NA,NA,59.10224438902743
32218,Duval County,FL,NA,23.54771784232365,19.576059850374065
32221,Duval County,FL,34.50807635829663,NA,NA
32223,Duval County,FL,NA,33.50622406639004,NA
32244,Duval County,FL,7.195301027900147,NA,NA
32405,Bay County,FL,NA,NA,14.83790523690773
32424,Calhoun County,FL,NA,72.82157676348547,NA
32504,Escambia County,FL,NA,NA,18.5785536159601
32534,Escambia County,FL,NA,NA,36.907730673316706
32536,Okaloosa County,FL,NA,NA,38.5286783042394
32566,Santa Rosa County,FL,NA,22.510373443983404,NA
32605,Alachua County,FL,33.627019089574155,NA,NA
32703,Orange County,FL,NA,67.21991701244814,NA
32720,Volusia County,FL,NA,NA,25.06234413965087
32750,Seminole County,FL,NA,48.54771784232365,NA
32780,Brevard County,FL,NA,NA,3.99002493765586
32804,Orange County,FL,82.67254038179148,NA,NA
32909,Brevard County,FL,NA,NA,98.3790523690773
32937,Brevard County,FL,NA,55.08298755186723,NA
32940,Brevard County,FL,NA,25.20746887966805,NA
32958,Indian River County,FL,NA,41.39004149377593,5.486284289276807
32967,Indian River County,FL,NA,NA,99.25187032418953
32976,Brevard County,FL,NA,NA,64.33915211970074
33013,Miami-Dade County,FL,71.65932452276064,NA,NA
33032,Miami-Dade County,FL,NA,61.41078838174274,NA
33069,Broward County,FL,NA,NA,10.972568578553615
33126,Miami-Dade County,FL,NA,NA,18.329177057356606
33137,Miami-Dade County,FL,NA,NA,52.244389027431424
33150,Miami-Dade County,FL,NA,83.19502074688798,NA
33168,Miami-Dade County,FL,NA,NA,97.88029925187033
33187,Miami-Dade County,FL,81.05726872246696,NA,NA
33324,Broward County,FL,NA,NA,43.266832917705734
33410,Palm Beach County,FL,NA,33.40248962655601,NA
33415,Palm Beach County,FL,NA,NA,46.758104738154614
33437,Palm Beach County,FL,NA,NA,0.24937655860349126
33541,Pasco County,FL,NA,NA,18.07980049875312
33629,Hillsborough County,FL,NA,NA,50.99750623441397
33711,Pinellas County,FL,NA,68.67219917012449,NA
33778,Pinellas County,FL,97.94419970631424,NA,NA
33810,Polk County,FL,NA,NA,52.9925187032419
33916,Lee County,FL,87.81204111600587,NA,NA
34102,Collier County,FL,NA,79.9792531120332,NA
34103,Collier County,FL,NA,59.64730290456431,NA
34104,Collier County,FL,NA,48.7551867219917,NA
34110,Collier County,FL,NA,NA,11.72069825436409
34205,Manatee County,FL,37.29809104258444,NA,NA
34208,Manatee County,FL,NA,NA,53.11720698254364
34209,Manatee County,FL,NA,22.095435684647303,NA
34212,Manatee County,FL,79.00146842878121,NA,NA
34266,DeSoto County,FL,NA,NA,30.29925187032419
34292,Sarasota County,FL,NA,45.954356846473026,NA
34639,Pasco County,FL,NA,52.385892116182575,NA
34652,Pasco County,FL,NA,49.68879668049793,NA
34785,Sumter County,FL,87.66519823788546,NA,NA
34787,Orange County,FL,NA,21.78423236514523,NA
34952,St. Lucie County,FL,NA,36.82572614107884,NA
34957,Martin County,FL,NA,34.128630705394194,NA
30032,DeKalb County,GA,NA,41.078838174273855,NA
30114,Cherokee County,GA,NA,28.008298755186722,NA
30125,Polk County,GA,NA,40.975103734439834,32.418952618453865
30135,Douglas County,GA,18.355359765051396,NA,NA
30147,Floyd County,GA,NA,NA,89.77556109725685
30161,Floyd County,GA,NA,21.680497925311204,NA
30165,Floyd County,GA,NA,87.13692946058092,62.71820448877805
30248,Henry County,GA,NA,NA,59.97506234413965
30281,Henry County,GA,NA,NA,38.02992518703242
30311,Fulton County,GA,NA,NA,15.46134663341646
30314,Fulton County,GA,46.54919236417034,NA,NA
30316,DeKalb County,GA,79.58883994126285,NA,NA
30337,Fulton County,GA,NA,93.7759336099585,NA
30536,Gilmer County,GA,99.26578560939795,NA,NA
30540,Gilmer County,GA,NA,69.29460580912863,NA
30747,Chattooga County,GA,NA,NA,63.21695760598504
30906,Richmond County,GA,9.985315712187958,NA,NA
31093,Houston County,GA,37.00440528634361,NA,NA
31210,Bibb County,GA,NA,54.253112033195016,NA
31520,Glynn County,GA,54.03817914831131,NA,NA
31634,Clinch County,GA,NA,NA,96.13466334164589
31903,Muscogee County,GA,NA,94.91701244813278,NA
31904,Muscogee County,GA,NA,NA,70.69825436408978
31907,Muscogee County,GA,10.866372980910425,4.149377593360995,35.785536159601
39819,Decatur County,GA,NA,NA,59.22693266832918
39823,Early County,GA,NA,88.58921161825725,NA
39842,Terrell County,GA,65.19823788546255,NA,NA
96701,Honolulu County,HI,NA,18.049792531120332,8.478802992518704
96707,Honolulu County,HI,NA,31.950207468879665,NA
96743,Hawaii County,HI,NA,NA,69.20199501246883
96744,Honolulu County,HI,NA,NA,2.6184538653366585
96813,Honolulu County,HI,NA,64.00414937759335,NA
96814,Honolulu County,HI,NA,78.83817427385893,NA
96825,Honolulu County,HI,NA,NA,3.865336658354115
83201,Bannock County,ID,72.54038179148311,NA,29.052369077306732
83301,Twin Falls County,ID,NA,13.381742738589212,0.12468827930174563
83330,Gooding County,ID,NA,76.03734439834025,NA
83401,Bonneville County,ID,19.530102790014684,NA,NA
83501,Nez Perce County,ID,NA,12.551867219917012,27.805486284289277
83605,Canyon County,ID,NA,NA,32.16957605985037
83616,Ada County,ID,51.98237885462555,NA,NA
83617,Gem County,ID,71.36563876651982,NA,NA
83619,Payette County,ID,NA,NA,64.08977556109726
83642,Ada County,ID,23.05433186490455,8.195020746887966,6.483790523690773
83646,Ada County,ID,NA,34.33609958506224,NA
83651,Canyon County,ID,NA,NA,12.344139650872817
83661,Payette County,ID,NA,NA,69.57605985037407
83686,Canyon County,ID,55.21292217327459,73.13278008298755,NA
83687,Canyon County,ID,28.487518355359764,18.568464730290458,NA
83702,Ada County,ID,85.02202643171806,NA,32.66832917705736
83704,Ada County,ID,NA,NA,1.6209476309226933
83705,Ada County,ID,NA,16.390041493775932,NA
83706,Ada County,ID,NA,22.821576763485478,46.50872817955112
83709,Ada County,ID,19.970631424375917,NA,54.11471321695761
83714,Ada County,ID,NA,NA,68.20448877805487
83805,Boundary County,ID,NA,92.42738589211619,NA
83835,Kootenai County,ID,NA,NA,35.28678304239401
60015,Lake County,IL,NA,NA,46.38403990024938
60022,Cook County,IL,NA,NA,88.65336658354114
60025,Cook County,IL,NA,29.66804979253112,3.366583541147132
60026,Cook County,IL,NA,NA,52.7431421446384
60035,Lake County,IL,NA,NA,83.41645885286782
60045,Lake County,IL,NA,NA,11.471321695760599
60047,Lake County,IL,40.969162995594715,NA,NA
60053,Cook County,IL,NA,33.09128630705394,NA
60062,Cook County,IL,NA,69.1908713692946,39.65087281795511
60084,Lake County,IL,NA,62.448132780082986,NA
60089,Lake County,IL,42.584434654919235,NA,45.01246882793018
60091,Cook County,IL,70.77826725403817,NA,NA
60093,Cook County,IL,NA,47.0954356846473,NA
60103,DuPage County,IL,NA,NA,34.78802992518703
60108,DuPage County,IL,60.205580029368576,27.593360995850624,NA
60115,DeKalb County,IL,NA,NA,54.738154613466335
60120,Kane County,IL,NA,NA,44.88778054862843
60126,DuPage County,IL,12.922173274596183,3.423236514522822,25.43640897755611
60131,Cook County,IL,72.68722466960352,NA,NA
60139,DuPage County,IL,NA,35.16597510373444,NA
60148,DuPage County,IL,NA,60.58091286307054,NA
60153,Cook County,IL,NA,NA,44.2643391521197
60154,Cook County,IL,77.5330396475771,NA,NA
60155,Cook County,IL,NA,58.60995850622407,NA
60164,Cook County,IL,NA,39.315352697095435,NA
60177,Kane County,IL,NA,NA,48.753117206982544
60188,DuPage County,IL,NA,22.302904564315355,NA
60189,DuPage County,IL,81.35095447870778,NA,NA
60191,DuPage County,IL,NA,47.82157676348548,NA
60193,Cook County,IL,82.81938325991189,10.995850622406639,NA
60201,Cook County,IL,46.69603524229075,NA,6.109725685785536
60402,Cook County,IL,NA,10.684647302904564,NA
60409,Cook County,IL,NA,32.88381742738589,NA
60426,Cook County,IL,57.415565345080765,NA,82.29426433915212
60431,Will County,IL,NA,39.73029045643153,NA
60435,Will County,IL,NA,11.307053941908714,NA
60463,Cook County,IL,NA,43.36099585062241,NA
60473,Cook County,IL,57.70925110132159,NA,NA
60482,Cook County,IL,NA,NA,97.38154613466334
60491,Will County,IL,NA,NA,37.1571072319202
60513,Cook County,IL,43.75917767988253,NA,NA
60525,Cook County,IL,NA,NA,76.18453865336659
60527,DuPage County,IL,NA,11.618257261410788,NA
60559,DuPage County,IL,95.00734214390602,NA,NA
60561,DuPage County,IL,NA,NA,57.48129675810474
60564,Will County,IL,41.85022026431718,NA,NA
60601,Cook County,IL,NA,93.67219917012449,NA
60607,Cook County,IL,NA,44.294605809128626,NA
60608,Cook County,IL,NA,14.937759336099585,6.733167082294264
60609,Cook County,IL,14.243759177679882,NA,NA
60617,Cook County,IL,NA,3.008298755186722,NA
60618,Cook County,IL,NA,20.539419087136928,NA
60619,Cook County,IL,32.158590308370044,NA,0.6234413965087282
60620,Cook County,IL,NA,4.253112033195021,3.117206982543641
60621,Cook County,IL,68.28193832599119,NA,NA
60624,Cook County,IL,20.704845814977972,NA,NA
60625,Cook County,IL,NA,NA,15.835411471321695
60629,Cook County,IL,NA,26.037344398340252,NA
60630,Cook County,IL,NA,NA,38.279301745635905
60632,Cook County,IL,NA,29.771784232365146,NA
60638,Cook County,IL,NA,8.402489626556017,43.391521197007485
60641,Cook County,IL,NA,NA,20.074812967581046
60643,Cook County,IL,NA,NA,49.00249376558604
60644,Cook County,IL,NA,42.531120331950206,NA
60651,Cook County,IL,NA,NA,12.8428927680798
60653,Cook County,IL,NA,NA,54.613466334164585
60655,Cook County,IL,NA,95.0207468879668,NA
60659,Cook County,IL,NA,NA,79.30174563591022
60660,Cook County,IL,NA,16.701244813278006,NA
60914,Kankakee County,IL,NA,21.058091286307054,NA
61021,Lee County,IL,36.12334801762114,33.921161825726145,1.99501246882793
61032,Stephenson County,IL,80.46989720998532,NA,NA
61061,Ogle County,IL,NA,87.24066390041494,NA
61065,Boone County,IL,NA,72.19917012448133,NA
61071,Whiteside County,IL,59.76505139500734,65.56016597510373,86.28428927680798
61080,Winnebago County,IL,NA,90.87136929460581,NA
61081,Whiteside County,IL,88.39941262848751,NA,93.26683291770573
61270,Whiteside County,IL,NA,NA,90.89775561097257
61356,Bureau County,IL,NA,NA,34.538653366583546
61362,Bureau County,IL,NA,59.33609958506224,NA
61801,Champaign County,IL,NA,NA,92.26932668329178
61802,Champaign County,IL,91.33627019089575,NA,NA
61832,Vermilion County,IL,13.803230543318648,NA,7.231920199501247
61866,Champaign County,IL,44.199706314243755,NA,NA
61883,Vermilion County,IL,NA,NA,86.9077306733167
61938,Coles County,IL,NA,NA,27.93017456359102
61951,Moultrie County,IL,NA,70.850622406639,NA
62301,Adams County,IL,97.20998531571219,NA,NA
62305,Adams County,IL,92.51101321585902,55.705394190871374,NA
62526,Macon County,IL,NA,NA,4.364089775561098
62656,Logan County,IL,NA,NA,41.5211970074813
62704,Sangamon County,IL,NA,30.809128630705395,NA
46062,Hamilton County,IN,NA,17.738589211618258,NA
46072,Tipton County,IN,NA,NA,51.74563591022444
46143,Johnson County,IN,29.368575624082233,NA,NA
46151,Morgan County,IN,NA,21.369294605809127,NA
46204,Marion County,IN,44.49339207048458,NA,98.50374064837905
46219,Marion County,IN,NA,50.62240663900415,NA
46222,Marion County,IN,NA,NA,49.750623441396506
46224,Marion County,IN,NA,NA,32.7930174563591
46226,Marion County,IN,60.792951541850215,15.975103734439832,51.246882793017456
46227,Marion County,IN,NA,NA,23.19201995012469
46228,Marion County,IN,NA,65.56016597510373,NA
46229,Marion County,IN,NA,NA,83.29177057356608
46234,Marion County,IN,61.38032305433187,NA,NA
46235,Marion County,IN,NA,63.17427385892116,NA
46237,Marion County,IN,25.11013215859031,NA,NA
46241,Marion County,IN,27.019089574155654,NA,NA
46250,Marion County,IN,91.18942731277532,NA,NA
46254,Marion County,IN,NA,30.08298755186722,NA
46307,Lake County,IN,1.908957415565345,NA,NA
46342,Lake County,IN,6.901615271659324,NA,NA
46350,LaPorte County,IN,NA,7.468879668049793,NA
46368,Porter County,IN,NA,NA,11.845386533665836
46383,Porter County,IN,NA,5.394190871369295,NA
46405,Lake County,IN,NA,45.643153526970956,NA
46408,Lake County,IN,48.89867841409692,NA,NA
46723,Whitley County,IN,NA,68.3609958506224,NA
46750,Huntington County,IN,25.844346549192366,NA,NA
46804,Allen County,IN,NA,24.5850622406639,NA
46805,Allen County,IN,NA,46.6804979253112,NA
46809,Allen County,IN,NA,66.39004149377593,NA
47170,Scott County,IN,NA,49.89626556016597,NA
47353,Union County,IN,NA,97.61410788381743,NA
47374,Wayne County,IN,28.634361233480178,24.896265560165975,NA
47805,Vigo County,IN,NA,70.22821576763485,NA
47932,Fountain County,IN,NA,66.70124481327801,NA
50010,Story County,IA,59.03083700440529,NA,NA
50022,Cass County,IA,94.12628487518356,91.39004149377593,58.85286783042394
50036,Boone County,IA,NA,NA,19.201995012468828
50138,Marion County,IA,NA,88.48547717842324,92.643391521197
50201,Story County,IA,NA,NA,93.76558603491272
50310,Polk County,IA,NA,45.53941908713693,35.53615960099751
50312,Polk County,IA,85.46255506607929,NA,NA
50316,Polk County,IA,NA,49.68879668049793,NA
50317,Polk County,IA,NA,45.850622406639005,64.46384039900249
50401,Cerro Gordo County,IA,16.593245227606463,NA,NA
50436,Winnebago County,IA,99.11894273127754,NA,NA
50501,Webster County,IA,30.396475770925107,NA,NA
50659,Chickasaw County,IA,NA,NA,62.71820448877805
50701,Black Hawk County,IA,NA,NA,12.593516209476311
50703,Black Hawk County,IA,33.480176211453745,NA,NA
51250,Sioux County,IA,87.22466960352423,82.36514522821577,NA
51360,Dickinson County,IA,87.37151248164464,NA,44.51371571072319
52003,Dubuque County,IA,NA,84.64730290456431,NA
52101,Winneshiek County,IA,NA,58.50622406639005,25.6857855361596
52240,Johnson County,IA,27.75330396475771,NA,NA
52241,Johnson County,IA,85.90308370044053,NA,NA
52245,Johnson County,IA,NA,NA,71.94513715710723
52246,Johnson County,IA,60.64610866372981,83.19502074688798,NA
52302,Linn County,IA,NA,NA,78.17955112219451
52317,Johnson County,IA,NA,67.73858921161826,NA
52353,Washington County,IA,NA,87.75933609958506,NA
52577,Mahaska County,IA,40.67547723935389,NA,18.703241895261847
52601,Des Moines County,IA,NA,15.663900414937759,58.22942643391521
52732,Clinton County,IA,28.34067547723935,NA,NA
66002,Atchison County,KS,75.33039647577093,NA,NA
66208,Johnson County,KS,NA,74.1701244813278,NA
66226,Johnson County,KS,83.70044052863436,NA,NA
66434,Brown County,KS,NA,NA,93.89027431421447
66614,Shawnee County,KS,NA,NA,43.64089775561097
67042,Butler County,KS,NA,NA,44.2643391521197
67208,Sedgwick County,KS,NA,93.87966804979253,NA
67846,Finney County,KS,NA,54.56431535269709,NA
67871,Scott County,KS,NA,60.06224066390041,NA
40143,Breckinridge County,KY,NA,NA,74.68827930174564
40204,Jefferson County,KY,NA,76.45228215767634,NA
40218,Jefferson County,KY,18.06167400881057,90.97510373443983,NA
40219,Jefferson County,KY,17.180616740088105,NA,27.556109725685786
40222,Jefferson County,KY,NA,NA,22.31920199501247
40258,Jefferson County,KY,NA,37.75933609958506,NA
40351,Rowan County,KY,87.95888399412628,74.37759336099586,95.88528678304239
40360,Bath County,KY,NA,NA,89.9002493765586
40502,Fayette County,KY,NA,NA,36.28428927680798
40511,Fayette County,KY,NA,NA,89.6508728179551
41018,Kenton County,KY,NA,25.311203319502074,NA
41143,Carter County,KY,NA,73.85892116182573,74.93765586034912
41164,Carter County,KY,NA,NA,90.52369077306733
41501,Pike County,KY,NA,14.83402489626556,26.184538653366584
42301,Daviess County,KY,12.62848751835536,NA,NA
42320,Ohio County,KY,54.33186490455213,NA,NA
42701,Hardin County,KY,NA,11.099585062240664,NA
70003,Jefferson Parish,LA,NA,3.8381742738589213,NA
70043,St. Bernard Parish,LA,NA,NA,71.82044887780549
70047,St. Charles Parish,LA,70.92511013215858,NA,NA
70058,Jefferson Parish,LA,NA,NA,66.33416458852868
70072,Jefferson Parish,LA,NA,NA,5.236907730673317
70115,Orleans Parish,LA,24.375917767988252,NA,34.28927680798005
70116,Orleans Parish,LA,NA,62.03319502074689,NA
70117,Orleans Parish,LA,5.4331864904552125,18.153526970954356,NA
70119,Orleans Parish,LA,NA,34.54356846473029,NA
70122,Orleans Parish,LA,NA,12.448132780082988,NA
70123,Jefferson Parish,LA,NA,20.228215767634854,NA
70126,Orleans Parish,LA,7.782672540381791,NA,NA
70128,Orleans Parish,LA,NA,32.468879668049794,NA
70345,Lafourche Parish,LA,NA,NA,91.89526184538653
70363,Terrebonne Parish,LA,4.405286343612335,NA,NA
70373,Lafourche Parish,LA,91.92364170337738,NA,NA
70401,Tangipahoa Parish,LA,59.61820851688693,NA,NA
70420,St. Tammany Parish,LA,NA,84.85477178423237,NA
70427,Washington Parish,LA,NA,22.61410788381743,NA
70445,St. Tammany Parish,LA,NA,62.448132780082986,NA
70460,St. Tammany Parish,LA,NA,28.838174273858918,NA
70462,Livingston Parish,LA,NA,93.56846473029046,NA
70508,Lafayette Parish,LA,NA,NA,26.433915211970078
70529,Lafayette Parish,LA,51.83553597650514,NA,NA
70748,East Feliciana Parish,LA,79.73568281938326,NA,NA
70802,East Baton Rouge Parish,LA,NA,38.90041493775934,NA
70805,East Baton Rouge Parish,LA,NA,28.21576763485477,NA
70814,East Baton Rouge Parish,LA,38.61967694566813,NA,NA
70816,East Baton Rouge Parish,LA,NA,NA,31.296758104738153
71037,Bossier Parish,LA,NA,76.03734439834025,NA
71103,Caddo Parish,LA,NA,100,NA
71105,Caddo Parish,LA,NA,43.15352697095436,NA
71106,Caddo Parish,LA,61.08663729809104,NA,NA
71107,Caddo Parish,LA,NA,NA,24.688279301745634
71118,Caddo Parish,LA,96.62261380323054,NA,NA
71201,Ouachita Parish,LA,67.69456681350955,NA,NA
71202,Ouachita Parish,LA,6.167400881057269,90.14522821576763,41.77057356608479
71203,Ouachita Parish,LA,NA,NA,29.177057356608476
71220,Morehouse Parish,LA,23.788546255506606,NA,NA
71241,Union Parish,LA,NA,NA,73.81546134663341
71291,Ouachita Parish,LA,13.656387665198238,NA,NA
71292,Ouachita Parish,LA,NA,78.00829875518673,NA
71446,Vernon Parish,LA,NA,36.51452282157676,NA
71457,Natchitoches Parish,LA,NA,56.22406639004149,NA
04005,York County,ME,NA,29.564315352697097,37.65586034912718
04009,Cumberland County,ME,88.54625550660793,NA,NA
04043,York County,ME,NA,NA,24.56359102244389
04102,Cumberland County,ME,NA,NA,51.87032418952619
04210,Androscoggin County,ME,NA,37.863070539419084,NA
04260,Cumberland County,ME,92.95154185022027,NA,NA
04270,Oxford County,ME,68.86930983847283,NA,NA
04276,Oxford County,ME,63.436123348017624,NA,84.28927680798004
04330,Kennebec County,ME,7.342143906020558,NA,9.226932668329177
04345,Kennebec County,ME,85.6093979441997,85.68464730290457,58.85286783042394
04401,Penobscot County,ME,2.3494860499265786,2.2821576763485476,NA
04572,Lincoln County,ME,NA,77.17842323651453,NA
04730,Aroostook County,ME,NA,89.93775933609959,NA
04736,Aroostook County,ME,95.15418502202643,95.850622406639,92.01995012468828
04742,Aroostook County,ME,NA,60.06224066390041,92.8927680798005
04750,Aroostook County,ME,98.38472834067548,NA,NA
04769,Aroostook County,ME,61.96769456681351,88.17427385892115,98.25436408977556
04785,Aroostook County,ME,NA,NA,99.50124688279301
04841,Knox County,ME,74.8898678414097,NA,95.38653366583542
04843,Knox County,ME,NA,94.08713692946058,NA
04849,Waldo County,ME,NA,NA,84.4139650872818
04856,Knox County,ME,NA,NA,95.13715710723191
04901,Kennebec County,ME,NA,23.3402489626556,NA
04915,Waldo County,ME,NA,NA,41.895261845386536
04917,Kennebec County,ME,96.91629955947137,NA,NA
04930,Penobscot County,ME,84.28781204111601,NA,NA
04957,Somerset County,ME,NA,78.94190871369294,NA
04963,Kennebec County,ME,61.67400881057269,83.81742738589212,NA
04967,Somerset County,ME,78.56093979441997,78.3195020746888,NA
20685,Calvert County,MD,NA,87.96680497925311,NA
20770,Prince George's County,MD,NA,80.60165975103735,NA
20772,Prince George's County,MD,50.80763582966226,NA,NA
20850,Montgomery County,MD,66.22613803230544,NA,NA
21030,Baltimore County,MD,NA,NA,60.59850374064838
21032,Anne Arundel County,MD,91.48311306901616,NA,NA
21111,Baltimore County,MD,NA,96.78423236514523,NA
21122,Anne Arundel County,MD,NA,NA,22.443890274314214
21205,Baltimore city,MD,NA,NA,44.63840399002494
21215,Baltimore city,MD,10.572687224669604,9.95850622406639,NA
21222,Baltimore County,MD,6.020558002936858,NA,NA
21231,Baltimore city,MD,86.49045521292217,NA,NA
21550,Garrett County,MD,NA,NA,13.715710723192021
21701,Frederick County,MD,NA,NA,33.66583541147132
21921,Cecil County,MD,19.676945668135097,NA,NA
01007,Hampshire County,MA,76.79882525697504,NA,NA
01020,Hampden County,MA,4.698972099853157,NA,NA
01027,Hampshire County,MA,16.299559471365637,NA,NA
01057,Hampden County,MA,35.68281938325991,NA,NA
01077,Hampden County,MA,NA,76.97095435684648,NA
01082,Hampshire County,MA,NA,NA,72.81795511221945
01104,Hampden County,MA,NA,NA,2.119700748129676
01109,Hampden County,MA,NA,80.08298755186722,NA
01331,Worcester County,MA,5.873715124816446,NA,NA
01364,Franklin County,MA,NA,NA,64.214463840399
01440,Worcester County,MA,NA,37.136929460580916,NA
01520,Worcester County,MA,45.521292217327456,NA,NA
01545,Worcester County,MA,NA,16.90871369294606,NA
01570,Worcester County,MA,NA,NA,15.710723192019952
01603,Worcester County,MA,NA,NA,46.00997506234414
01604,Worcester County,MA,NA,2.8008298755186725,NA
01607,Worcester County,MA,44.7870778267254,NA,NA
01609,Worcester County,MA,NA,NA,4.738154613466334
01610,Worcester County,MA,NA,57.05394190871369,NA
01702,Middlesex County,MA,NA,NA,4.239401496259352
01720,Middlesex County,MA,37.44493392070485,NA,NA
01730,Middlesex County,MA,NA,NA,13.96508728179551
01760,Middlesex County,MA,NA,7.572614107883817,NA
01772,Worcester County,MA,NA,74.5850622406639,NA
01801,Middlesex County,MA,1.3215859030837005,NA,NA
01803,Middlesex County,MA,69.89720998531571,28.319502074688796,NA
01821,Middlesex County,MA,6.607929515418502,NA,NA
01824,Middlesex County,MA,56.093979441997064,33.50622406639004,NA
01826,Middlesex County,MA,5.139500734214391,96.57676348547717,NA
01834,Essex County,MA,NA,97.82157676348547,NA
01845,Essex County,MA,NA,NA,75.6857855361596
01851,Middlesex County,MA,2.4963289280469896,NA,NA
01852,Middlesex County,MA,NA,NA,16.084788029925186
01864,Middlesex County,MA,NA,NA,92.76807980049875
01867,Middlesex County,MA,NA,NA,12.718204488778055
01876,Middlesex County,MA,NA,59.232365145228215,NA
01879,Middlesex County,MA,33.186490455212926,NA,NA
01880,Middlesex County,MA,NA,6.431535269709543,NA
01887,Middlesex County,MA,NA,NA,19.825436408977556
01890,Middlesex County,MA,NA,32.67634854771784,NA
01901,Essex County,MA,NA,84.12863070539419,NA
01902,Essex County,MA,0.4405286343612335,0.7261410788381742,1.1221945137157108
01905,Essex County,MA,41.262848751835534,7.676348547717843,NA
01906,Essex County,MA,3.3773861967694567,9.647302904564317,78.30423940149626
01907,Essex County,MA,77.82672540381792,NA,NA
01915,Essex County,MA,NA,50.829875518672196,35.910224438902745
01923,Essex County,MA,3.9647577092511015,NA,61.471321695760594
01930,Essex County,MA,NA,90.66390041493776,NA
01945,Essex County,MA,43.17180616740088,NA,NA
01960,Essex County,MA,NA,84.95850622406638,0
01966,Essex County,MA,66.81350954478708,NA,NA
01982,Essex County,MA,73.86196769456681,NA,NA
02038,Norfolk County,MA,NA,NA,23.067331670822945
02045,Plymouth County,MA,79.29515418502203,NA,NA
02048,Bristol County,MA,NA,NA,62.094763092269325
02066,Plymouth County,MA,NA,42.219917012448136,88.90274314214463
02067,Norfolk County,MA,NA,NA,43.01745635910225
02114,Suffolk County,MA,NA,NA,37.905236907730675
02115,Suffolk County,MA,8.663729809104257,65.87136929460581,2.9925187032418954
02116,Suffolk County,MA,19.823788546255507,NA,60.84788029925187
02118,Suffolk County,MA,2.2026431718061676,6.950207468879668,72.06982543640898
02119,Suffolk County,MA,15.565345080763581,41.70124481327801,71.571072319202
02120,Suffolk County,MA,NA,17.323651452282157,71.44638403990025
02121,Suffolk County,MA,0.5873715124816447,NA,64.83790523690773
02122,Suffolk County,MA,NA,1.3485477178423237,33.915211970074814
02124,Suffolk County,MA,6.7547723935389135,38.589211618257266,63.71571072319202
02125,Suffolk County,MA,26.87224669603524,13.485477178423237,50.748129675810475
02126,Suffolk County,MA,NA,4.564315352697095,14.713216957605985
02127,Suffolk County,MA,NA,7.987551867219916,82.41895261845387
02128,Suffolk County,MA,NA,55.18672199170125,71.69576059850374
02129,Suffolk County,MA,53.15712187958884,92.63485477178423,36.53366583541147
02130,Suffolk County,MA,69.01615271659325,NA,68.45386533665835
02131,Suffolk County,MA,14.977973568281937,28.63070539419087,75.18703241895261
02132,Suffolk County,MA,16.886930983847286,NA,26.683291770573565
02134,Suffolk County,MA,60.4992657856094,NA,48.12967581047381
02135,Suffolk County,MA,NA,68.04979253112033,48.6284289276808
02136,Suffolk County,MA,NA,29.356846473029048,67.45635910224439
02138,Middlesex County,MA,NA,NA,38.77805486284289
02139,Middlesex County,MA,NA,68.25726141078839,74.18952618453865
02140,Middlesex County,MA,22.173274596182086,39.62655601659751,68.3291770573566
02141,Middlesex County,MA,NA,57.15767634854772,80.17456359102243
02143,Middlesex County,MA,30.837004405286343,11.929460580912863,45.51122194513716
02144,Middlesex County,MA,55.06607929515418,69.08713692946058,46.633416458852864
02145,Middlesex County,MA,NA,NA,72.19451371571073
02148,Middlesex County,MA,11.747430249632892,14.004149377593361,63.21695760598504
02149,Middlesex County,MA,0.14684287812041116,8.71369294605809,14.214463840399002
02150,Suffolk County,MA,NA,65.35269709543569,79.55112219451371
02151,Suffolk County,MA,15.712187958883995,77.38589211618257,84.91271820448878
02152,Suffolk County,MA,NA,54.04564315352697,32.917705735660846
02155,Middlesex County,MA,NA,0.4149377593360996,NA
02169,Norfolk County,MA,NA,NA,0.3740648379052369
02171,Norfolk County,MA,NA,76.6597510373444,NA
02180,Middlesex County,MA,NA,NA,54.48877805486284
02184,Norfolk County,MA,NA,8.091286307053942,6.982543640897755
02186,Norfolk County,MA,NA,NA,17.08229426433915
02191,Norfolk County,MA,62.84875183553598,NA,NA
02301,Plymouth County,MA,0,NA,NA
02302,Plymouth County,MA,NA,2.6970954356846475,NA
02332,Plymouth County,MA,NA,82.26141078838174,44.01496259351621
02351,Plymouth County,MA,21.58590308370044,NA,NA
02368,Norfolk County,MA,2.0558002936857562,NA,18.453865336658353
02370,Plymouth County,MA,NA,24.79253112033195,NA
02375,Bristol County,MA,NA,79.87551867219918,NA
02421,Middlesex County,MA,NA,NA,57.356608478803
02445,Norfolk County,MA,NA,33.29875518672199,25.935162094763093
02446,Norfolk County,MA,77.38619676945669,71.6804979253112,NA
02453,Middlesex County,MA,11.894273127753303,62.344398340248965,NA
02458,Middlesex County,MA,49.48604992657856,NA,NA
02459,Middlesex County,MA,NA,22.199170124481327,9.72568578553616
02478,Middlesex County,MA,NA,NA,82.54364089775561
02536,Barnstable County,MA,NA,NA,11.221945137157107
02540,Barnstable County,MA,NA,66.07883817427386,NA
02554,Nantucket County,MA,NA,NA,78.6783042394015
02571,Plymouth County,MA,45.22760646108664,NA,NA
02740,Bristol County,MA,NA,0.1037344398340249,NA
02748,Bristol County,MA,42.87812041116006,NA,NA
02760,Bristol County,MA,NA,NA,43.89027431421446
02790,Bristol County,MA,NA,NA,55.36159600997507
48001,St. Clair County,MI,NA,64.62655601659752,NA
48017,Oakland County,MI,78.8546255506608,NA,87.78054862842892
48035,Macomb County,MI,NA,NA,7.855361596009976
48051,Macomb County,MI,58.590308370044056,NA,NA
48067,Oakland County,MI,40.08810572687225,NA,NA
48072,Oakland County,MI,53.74449339207048,NA,46.758104738154614
48073,Oakland County,MI,NA,33.81742738589212,NA
48075,Oakland County,MI,NA,31.84647302904564,21.44638403990025
48081,Macomb County,MI,NA,NA,13.341645885286782
48092,Macomb County,MI,NA,NA,27.057356608478806
48094,Macomb County,MI,77.09251101321586,NA,NA
48101,Wayne County,MI,NA,NA,19.07730673316708
48105,Washtenaw County,MI,NA,NA,1.7456359102244388
48108,Washtenaw County,MI,NA,NA,21.3216957605985
48111,Wayne County,MI,50.95447870778267,NA,NA
48114,Livingston County,MI,NA,26.45228215767635,NA
48118,Washtenaw County,MI,NA,NA,54.862842892768086
48126,Wayne County,MI,13.215859030837004,NA,NA
48127,Wayne County,MI,NA,NA,6.359102244389027
48133,Monroe County,MI,NA,NA,77.93017456359102
48135,Wayne County,MI,NA,23.651452282157674,15.087281795511224
48150,Wayne County,MI,NA,NA,39.40149625935162
48152,Wayne County,MI,NA,32.365145228215766,NA
48154,Wayne County,MI,NA,NA,5.112219451371571
48160,Washtenaw County,MI,NA,NA,76.93266832917706
48169,Livingston County,MI,50.073421439060205,NA,NA
48170,Wayne County,MI,NA,NA,2.2443890274314215
48174,Wayne County,MI,9.544787077826726,NA,NA
48176,Washtenaw County,MI,43.02496328928047,NA,19.70074812967581
48185,Wayne County,MI,7.048458149779736,62.655601659751035,NA
48187,Wayne County,MI,NA,59.024896265560166,NA
48188,Wayne County,MI,NA,NA,61.22194513715711
48189,Washtenaw County,MI,NA,48.85892116182573,62.46882793017456
48193,Wayne County,MI,NA,56.53526970954357,NA
48197,Washtenaw County,MI,19.23641703377386,NA,NA
48206,Wayne County,MI,NA,28.94190871369295,NA
48210,Wayne County,MI,NA,NA,90.3990024937656
48227,Wayne County,MI,NA,85.37344398340248,NA
48228,Wayne County,MI,1.4684287812041115,NA,NA
48234,Wayne County,MI,10.279001468428781,NA,50.87281795511222
48235,Wayne County,MI,NA,3.630705394190872,9.600997506234414
48238,Wayne County,MI,30.102790014684288,NA,28.30423940149626
48307,Oakland County,MI,23.494860499265783,NA,NA
48310,Macomb County,MI,48.604992657856094,42.01244813278009,16.708229426433917
48314,Macomb County,MI,NA,NA,20.82294264339152
48315,Macomb County,MI,NA,NA,24.688279301745634
48317,Macomb County,MI,NA,20.643153526970952,NA
48324,Oakland County,MI,NA,52.4896265560166,NA
48348,Oakland County,MI,NA,42.11618257261411,NA
48353,Livingston County,MI,NA,80.70539419087137,NA
48377,Oakland County,MI,64.90455212922174,NA,NA
48390,Oakland County,MI,NA,64.83402489626556,NA
48421,Lapeer County,MI,90.16152716593245,NA,NA
48611,Bay County,MI,NA,61.72199170124482,NA
48631,Bay County,MI,NA,71.57676348547717,NA
48640,Midland County,MI,NA,61.51452282157677,NA
48647,Oscoda County,MI,NA,87.55186721991701,NA
48655,Saginaw County,MI,NA,NA,81.04738154613467
48842,Ingham County,MI,NA,36.099585062240664,NA
48855,Livingston County,MI,NA,45.43568464730291,NA
48888,Montcalm County,MI,NA,NA,63.092269326683294
48895,Ingham County,MI,80.76358296622614,NA,NA
48911,Ingham County,MI,NA,15.767634854771783,NA
49007,Kalamazoo County,MI,71.071953010279,NA,NA
49010,Allegan County,MI,46.1086637298091,NA,NA
49082,Branch County,MI,79.44199706314244,NA,NA
49201,Jackson County,MI,11.30690161527166,67.9460580912863,NA
49285,Ingham County,MI,NA,89.21161825726142,NA
49316,Kent County,MI,53.01027900146843,NA,NA
49319,Kent County,MI,NA,NA,40.27431421446384
49346,Mecosta County,MI,NA,62.96680497925311,NA
49348,Allegan County,MI,36.41703377386197,NA,NA
49423,Ottawa County,MI,42.731277533039645,NA,4.86284289276808
49424,Ottawa County,MI,NA,14.21161825726141,NA
49426,Ottawa County,MI,NA,35.892116182572614,NA
49431,Mason County,MI,NA,24.066390041493776,NA
49437,Muskegon County,MI,NA,85.78838174273858,NA
49442,Muskegon County,MI,3.81791483113069,4.875518672199171,NA
49456,Ottawa County,MI,NA,26.970954356846473,NA
49461,Muskegon County,MI,NA,60.26970954356846,NA
49503,Kent County,MI,14.537444933920703,NA,NA
49506,Kent County,MI,73.7151248164464,NA,NA
49534,Kent County,MI,58.0029368575624,NA,NA
49546,Kent County,MI,41.99706314243759,NA,NA
49548,Kent County,MI,NA,14.730290456431536,NA
49684,Grand Traverse County,MI,NA,26.6597510373444,NA
49685,Grand Traverse County,MI,54.62555066079295,NA,NA
49706,Emmet County,MI,NA,99.1701244813278,NA
49801,Dickinson County,MI,NA,38.69294605809129,NA
49837,Delta County,MI,NA,48.44398340248963,NA
55008,Isanti County,MN,NA,50.10373443983403,NA
55009,Goodhue County,MN,NA,54.87551867219918,77.43142144638404
55016,Washington County,MN,NA,NA,55.61097256857855
55025,Washington County,MN,NA,58.40248962655602,NA
55051,Kanabec County,MN,NA,36.92946058091287,NA
55063,Pine County,MN,NA,83.40248962655602,NA
55113,Ramsey County,MN,NA,NA,66.9576059850374
55122,Dakota County,MN,NA,NA,50.24937655860349
55125,Washington County,MN,NA,NA,63.591022443890274
55127,Ramsey County,MN,NA,NA,62.96758104738155
55128,Washington County,MN,NA,NA,40.14962593516209
55303,Anoka County,MN,23.201174743024964,NA,NA
55318,Carver County,MN,NA,NA,61.84538653366584
55319,Sherburne County,MN,98.97209985315712,NA,NA
55330,Sherburne County,MN,NA,NA,42.269326683291766
55350,McLeod County,MN,NA,31.431535269709542,NA
55364,Hennepin County,MN,NA,88.58921161825725,NA
55369,Hennepin County,MN,38.1791483113069,NA,NA
55405,Hennepin County,MN,39.94126284875183,NA,NA
55407,Hennepin County,MN,NA,49.89626556016597,NA
55412,Hennepin County,MN,11.45374449339207,NA,NA
55413,Hennepin County,MN,73.27459618208518,NA,NA
55416,Hennepin County,MN,NA,59.128630705394194,NA
55423,Hennepin County,MN,54.478707782672544,NA,NA
55435,Hennepin County,MN,NA,NA,50.12468827930174
55443,Hennepin County,MN,64.17033773861968,NA,NA
55744,Itasca County,MN,48.31130690161527,51.556016597510364,86.53366583541147
55746,St. Louis County,MN,NA,60.89211618257261,24.438902743142144
55804,St. Louis County,MN,NA,NA,75.43640897755611
55805,St. Louis County,MN,74.59618208516888,84.23236514522821,69.57605985037407
55810,St. Louis County,MN,NA,45.22821576763486,56.35910224438903
55811,St. Louis County,MN,NA,NA,1.3715710723192018
55901,Olmsted County,MN,31.277533039647576,NA,10.473815461346634
55902,Olmsted County,MN,NA,NA,79.67581047381546
55906,Olmsted County,MN,NA,NA,79.05236907730672
55912,Mower County,MN,9.251101321585903,43.04979253112033,87.28179551122194
55947,Houston County,MN,80.32305433186491,95.95435684647303,NA
55963,Goodhue County,MN,90.7488986784141,NA,NA
55964,Wabasha County,MN,NA,NA,99.87531172069825
55975,Fillmore County,MN,NA,86.82572614107885,NA
55976,Olmsted County,MN,NA,NA,86.15960099750623
55987,Winona County,MN,NA,3.7344398340248963,66.70822942643392
56007,Freeborn County,MN,20.11747430249633,91.59751037344398,73.06733167082294
56013,Faribault County,MN,88.69309838472834,NA,90.64837905236908
56081,Watonwan County,MN,NA,NA,35.16209476309227
56097,Faribault County,MN,NA,96.2655601659751,NA
56164,Pipestone County,MN,71.95301027900148,NA,68.70324189526184
56187,Nobles County,MN,NA,NA,42.643391521197
56267,Stevens County,MN,NA,97.0954356846473,65.5860349127182
56301,Stearns County,MN,NA,62.863070539419084,NA
56308,Douglas County,MN,31.718061674008812,13.692946058091287,85.16209476309227
56334,Pope County,MN,NA,NA,55.23690773067331
56345,Morrison County,MN,NA,NA,76.68329177057358
56347,Todd County,MN,NA,NA,67.2069825436409
56362,Stearns County,MN,NA,NA,45.6359102244389
56378,Stearns County,MN,NA,73.96265560165975,77.55610972568579
56401,Crow Wing County,MN,12.481644640234949,NA,21.695760598503743
56425,Crow Wing County,MN,86.78414096916299,NA,29.67581047381546
56431,Aitkin County,MN,71.36563876651982,82.15767634854771,86.78304239401497
56441,Crow Wing County,MN,NA,99.79253112033194,NA
56442,Crow Wing County,MN,NA,NA,52.618453865336654
56444,Crow Wing County,MN,NA,96.47302904564316,NA
56470,Hubbard County,MN,NA,NA,62.219451371571076
56472,Crow Wing County,MN,NA,NA,84.66334164588528
56479,Todd County,MN,NA,90.56016597510373,NA
56501,Becker County,MN,NA,NA,15.211970074812967
56515,Otter Tail County,MN,NA,NA,87.65586034912718
56537,Otter Tail County,MN,NA,NA,0.7481296758104738
56573,Otter Tail County,MN,NA,68.87966804979253,NA
56601,Beltrami County,MN,69.30983847283406,2.1784232365145226,71.07231920199501
56633,Hubbard County,MN,NA,NA,86.53366583541147
56636,Itasca County,MN,NA,NA,61.59600997506235
56701,Pennington County,MN,25.697503671071953,NA,28.553615960099748
56716,Polk County,MN,64.02349486049927,NA,NA
56721,Polk County,MN,NA,NA,59.22693266832918
38611,Marshall County,MS,62.99559471365639,NA,NA
38663,Tippah County,MS,NA,NA,90.89775561097257
38801,Lee County,MS,NA,90.35269709543569,87.53117206982543
38821,Monroe County,MS,90.30837004405286,NA,NA
38826,Lee County,MS,NA,NA,70.32418952618454
38843,Itawamba County,MS,NA,92.9460580912863,NA
38863,Pontotoc County,MS,NA,88.07053941908714,38.15461346633416
39051,Leake County,MS,NA,NA,91.77057356608479
39056,Hinds County,MS,63.729809104258436,NA,NA
39213,Hinds County,MS,39.06020558002937,NA,NA
39437,Jones County,MS,61.820851688693104,NA,NA
39443,Jones County,MS,NA,NA,41.39650872817955
39466,Pearl River County,MS,NA,NA,16.957605985037407
39503,Harrison County,MS,13.950073421439061,NA,NA
39532,Harrison County,MS,NA,50.62240663900415,NA
39553,Jackson County,MS,47.57709251101321,NA,NA
39560,Harrison County,MS,NA,38.48547717842324,59.60099750623441
39565,Jackson County,MS,63.289280469897214,NA,NA
39667,Walthall County,MS,72.83406754772393,NA,NA
39702,Lowndes County,MS,NA,NA,41.02244389027431
39744,Webster County,MS,NA,89.41908713692946,NA
63021,St. Louis County,MO,NA,11.825726141078837,NA
63042,St. Louis County,MO,NA,37.24066390041494,NA
63069,Franklin County,MO,NA,NA,52.119700748129674
63116,St. Louis city,MO,NA,50.518672199170126,NA
63122,St. Louis County,MO,59.471365638766514,NA,NA
63123,St. Louis County,MO,NA,15.145228215767634,NA
63125,St. Louis County,MO,45.08076358296623,NA,NA
63136,St. Louis County,MO,9.691629955947137,NA,NA
63303,St. Charles County,MO,NA,12.655601659751037,NA
63368,St. Charles County,MO,NA,69.91701244813278,NA
63376,St. Charles County,MO,NA,35.477178423236516,NA
64040,Johnson County,MO,NA,NA,96.50872817955111
64057,Jackson County,MO,45.66813509544787,73.7551867219917,NA
64067,Lafayette County,MO,65.63876651982379,92.11618257261411,80.29925187032418
64068,Clay County,MO,NA,NA,30.92269326683292
64078,Cass County,MO,NA,NA,94.0149625935162
64079,Platte County,MO,NA,42.738589211618255,NA
64080,Cass County,MO,NA,68.56846473029046,NA
64086,Jackson County,MO,37.88546255506608,NA,NA
64093,Johnson County,MO,NA,NA,36.408977556109726
64114,Jackson County,MO,89.5741556534508,NA,NA
64124,Jackson County,MO,72.3935389133627,NA,NA
64131,Jackson County,MO,18.79588839941263,NA,NA
64133,Jackson County,MO,4.845814977973569,NA,NA
64158,Clay County,MO,88.83994126284875,98.7551867219917,NA
64492,Clinton County,MO,NA,99.5850622406639,NA
64505,Buchanan County,MO,NA,NA,32.294264339152114
64601,Livingston County,MO,NA,40.871369294605806,82.04488778054862
64633,Carroll County,MO,93.97944199706313,99.37759336099586,99.62593516209476
64683,Grundy County,MO,NA,NA,90.02493765586036
64701,Cass County,MO,NA,NA,96.75810473815461
64735,Henry County,MO,66.07929515418502,NA,NA
64744,Cedar County,MO,NA,95.12448132780082,NA
64772,Vernon County,MO,83.55359765051395,NA,NA
64804,Jasper County,MO,NA,9.439834024896266,NA
64850,Newton County,MO,21.145374449339208,NA,NA
65043,Callaway County,MO,79.14831130690162,NA,NA
65203,Boone County,MO,NA,12.240663900414937,NA
65233,Cooper County,MO,NA,58.09128630705395,NA
65301,Pettis County,MO,4.552129221732746,NA,NA
65622,Dallas County,MO,74.74302496328929,NA,NA
65625,Barry County,MO,NA,76.86721991701245,NA
65785,Cedar County,MO,76.5051395007342,NA,NA
65802,Greene County,MO,NA,20.12448132780083,17.830423940149625
59101,Yellowstone County,MT,NA,NA,11.346633416458852
59102,Yellowstone County,MT,NA,5.29045643153527,0.4987531172069825
59270,Richland County,MT,NA,58.81742738589212,NA
59330,Dawson County,MT,NA,NA,51.6209476309227
59401,Cascade County,MT,NA,84.02489626556017,93.14214463840399
59404,Cascade County,MT,47.43024963289281,57.676348547717836,10.847880299251871
59405,Cascade County,MT,NA,64.93775933609959,30.423940149625935
59715,Gallatin County,MT,NA,78.21576763485477,NA
59718,Gallatin County,MT,39.353891336270195,NA,NA
59901,Flathead County,MT,NA,NA,23.815461346633416
59917,Lincoln County,MT,NA,73.54771784232366,NA
68104,Douglas County,NE,NA,NA,67.95511221945138
68107,Douglas County,NE,53.30396475770925,NA,NA
68110,Douglas County,NE,NA,NA,87.03241895261846
68111,Douglas County,NE,NA,78.11203319502074,NA
68123,Sarpy County,NE,97.79735682819384,NA,NA
68305,Nemaha County,NE,95.74155653450808,NA,NA
68333,Saline County,NE,NA,98.65145228215768,NA
68355,Richardson County,NE,NA,NA,81.79551122194513
68434,Seward County,NE,90.45521292217327,NA,NA
68504,Lancaster County,NE,NA,NA,99.75062344139651
68507,Lancaster County,NE,95.88839941262849,NA,NA
68510,Lancaster County,NE,NA,97.40663900414937,NA
68512,Lancaster County,NE,NA,NA,98.00498753117208
68516,Lancaster County,NE,NA,NA,80.54862842892769
68601,Platte County,NE,NA,NA,72.31920199501248
68801,Hall County,NE,NA,NA,56.10972568578554
69130,Dawson County,NE,99.41262848751835,NA,NA
69162,Cheyenne County,NE,77.23935389133626,NA,NA
69301,Box Butte County,NE,NA,97.19917012448133,99.12718204488779
89121,Clark County,NV,NA,75.10373443983403,NA
89145,Clark County,NV,NA,NA,79.30174563591022
89460,Douglas County,NV,NA,43.87966804979253,NA
89512,Washoe County,NV,21.292217327459618,NA,NA
89519,Washoe County,NV,NA,NA,74.43890274314214
89706,Carson City,NV,61.23348017621145,NA,NA
89801,Elko County,NV,NA,60.68464730290456,NA
03038,Rockingham County,NH,17.327459618208515,NA,20.698254364089774
03062,Hillsborough County,NH,NA,8.817427385892117,NA
03063,Hillsborough County,NH,NA,39.83402489626556,NA
03104,Hillsborough County,NH,NA,NA,54.239401496259354
03235,Merrimack County,NH,NA,NA,67.58104738154613
03246,Belknap County,NH,NA,NA,73.31670822942642
03301,Merrimack County,NH,22.026431718061673,NA,3.7406483790523692
03303,Merrimack County,NH,NA,79.04564315352697,NA
03431,Cheshire County,NH,62.11453744493392,27.282157676348547,84.03990024937656
03446,Cheshire County,NH,NA,NA,77.68079800498752
03452,Cheshire County,NH,NA,NA,81.6708229426434
03458,Hillsborough County,NH,NA,NA,78.05486284289277
03561,Grafton County,NH,93.68575624082231,98.3402489626556,NA
03743,Sullivan County,NH,NA,37.448132780082986,NA
03766,Grafton County,NH,NA,NA,95.76059850374065
03773,Sullivan County,NH,NA,NA,67.08229426433915
03824,Strafford County,NH,NA,76.76348547717843,NA
03841,Rockingham County,NH,NA,NA,77.3067331670823
07016,Union County,NJ,NA,NA,62.34413965087282
07030,Hudson County,NJ,8.516886930983848,NA,NA
07039,Essex County,NJ,26.57856093979442,NA,NA
07047,Hudson County,NJ,NA,1.5560165975103735,NA
07050,Essex County,NJ,14.684287812041116,NA,NA
07063,Union County,NJ,NA,85.78838174273858,NA
07067,Middlesex County,NJ,NA,NA,48.25436408977556
07103,Essex County,NJ,NA,2.4896265560165975,NA
07112,Essex County,NJ,NA,NA,34.1645885286783
07503,Passaic County,NJ,26.431718061674008,NA,NA
07522,Passaic County,NJ,NA,31.63900414937759,NA
07801,Morris County,NJ,53.89133627019089,NA,NA
08033,Camden County,NJ,NA,81.95020746887967,NA
08070,Salem County,NJ,NA,47.406639004149376,NA
08086,Gloucester County,NJ,NA,96.16182572614107,NA
08087,Ocean County,NJ,NA,16.07883817427386,NA
08103,Camden County,NJ,NA,NA,51.49625935162094
08104,Camden County,NJ,9.104258443465492,3.112033195020747,55.86034912718204
08534,Mercer County,NJ,NA,91.70124481327801,NA
08540,Mercer County,NJ,NA,34.95850622406639,NA
08611,Mercer County,NJ,NA,NA,62.593516209476306
08619,Mercer County,NJ,NA,98.54771784232366,NA
08701,Ocean County,NJ,NA,NA,14.588528678304238
08753,Ocean County,NJ,NA,NA,8.977556109725686
08759,Ocean County,NJ,NA,2.0746887966804977,NA
08831,Middlesex County,NJ,NA,9.54356846473029,NA
08844,Somerset County,NJ,NA,NA,49.37655860349127
08863,Middlesex County,NJ,NA,NA,73.94014962593516
08886,Warren County,NJ,83.25991189427313,NA,NA
87002,Valencia County,NM,NA,51.037344398340245,NA
87004,Sandoval County,NM,NA,NA,83.0423940149626
87013,Sandoval County,NM,97.50367107195301,NA,NA
87020,Cibola County,NM,75.91776798825258,NA,NA
87048,Sandoval County,NM,NA,69.39834024896265,NA
87102,Bernalillo County,NM,56.24082232011748,43.77593360995851,NA
87104,Bernalillo County,NM,NA,NA,53.241895261845386
87105,Bernalillo County,NM,4.258443465491924,4.356846473029045,13.092269326683292
87107,Bernalillo County,NM,NA,22.717842323651453,NA
87108,Bernalillo County,NM,8.95741556534508,30.29045643153527,NA
87109,Bernalillo County,NM,NA,NA,53.36658354114713
87110,Bernalillo County,NM,NA,10.062240663900415,8.728179551122196
87111,Bernalillo County,NM,NA,12.966804979253114,NA
87112,Bernalillo County,NM,NA,10.269709543568464,4.114713216957606
87114,Bernalillo County,NM,10.719530102790015,NA,54.3640897755611
87120,Bernalillo County,NM,NA,14.419087136929459,NA
87121,Bernalillo County,NM,NA,5.9128630705394185,22.194513715710723
87124,Sandoval County,NM,14.831130690161526,67.11618257261411,53.99002493765585
87144,Sandoval County,NM,NA,NA,43.51620947630923
87301,McKinley County,NM,74.44933920704845,55.290456431535276,65.71072319201996
87327,Cibola County,NM,86.63729809104258,NA,NA
87328,McKinley County,NM,97.3568281938326,NA,NA
87547,,NM,NA,71.99170124481327,NA
88021,Doa Ana County,NM,NA,NA,84.16458852867831
88310,Otero County,NM,NA,NA,5.860349127182045
10002,New York County,NY,NA,88.79668049792531,NA
10011,New York County,NY,NA,18.87966804979253,NA
10014,New York County,NY,84.72834067547724,NA,NA
10021,New York County,NY,72.98091042584434,NA,NA
10025,New York County,NY,NA,1.4522821576763485,NA
10029,New York County,NY,0.7342143906020557,5.394190871369295,5.985037406483791
10031,New York County,NY,NA,15.871369294605808,18.82793017456359
10032,New York County,NY,NA,7.261410788381744,65.33665835411472
10034,New York County,NY,NA,17.116182572614107,NA
10035,New York County,NY,NA,8.609958506224066,10.349127182044887
10036,New York County,NY,NA,89.10788381742739,NA
10038,New York County,NY,NA,68.15352697095436,NA
10039,New York County,NY,NA,67.5311203319502,NA
10301,Richmond County,NY,NA,12.863070539419086,NA
10303,Richmond County,NY,NA,NA,60.47381546134664
10305,Richmond County,NY,NA,47.614107883817425,NA
10452,Bronx County,NY,NA,0.9336099585062241,NA
10453,Bronx County,NY,1.1747430249632893,1.0373443983402488,NA
10454,Bronx County,NY,NA,6.1203319502074685,NA
10455,Bronx County,NY,27.606461086637296,NA,NA
10456,Bronx County,NY,NA,12.136929460580912,NA
10457,Bronx County,NY,NA,0.6224066390041494,NA
10458,Bronx County,NY,NA,NA,6.234413965087282
10459,Bronx County,NY,NA,36.92946058091287,NA
10460,Bronx County,NY,NA,43.46473029045643,NA
10461,Bronx County,NY,15.859030837004406,NA,NA
10462,Bronx County,NY,7.929515418502203,5.08298755186722,NA
10463,Bronx County,NY,NA,NA,17.955112219451372
10465,Bronx County,NY,35.095447870778266,NA,NA
10466,Bronx County,NY,NA,58.298755186722,NA
10468,Bronx County,NY,NA,18.775933609958507,NA
10469,Bronx County,NY,23.348017621145374,7.365145228215768,NA
10473,Bronx County,NY,NA,6.535269709543569,7.73067331670823
10474,Bronx County,NY,59.1776798825257,NA,NA
10595,Westchester County,NY,85.16886930983847,NA,NA
10701,Westchester County,NY,NA,24.37759336099585,NA
10705,Westchester County,NY,NA,NA,71.3216957605985
11010,Nassau County,NY,86.78414096916299,NA,NA
11050,Nassau County,NY,NA,51.34854771784232,NA
11203,Kings County,NY,12.187958883994126,NA,7.356608478802992
11207,Kings County,NY,NA,11.410788381742739,NA
11208,Kings County,NY,NA,14.522821576763487,14.089775561097257
11209,Kings County,NY,NA,NA,68.07980049875312
11210,Kings County,NY,NA,21.887966804979254,NA
11211,Kings County,NY,NA,93.15352697095436,12.967581047381547
11212,Kings County,NY,NA,0.8298755186721992,47.13216957605985
11215,Kings County,NY,NA,NA,14.33915211970075
11216,Kings County,NY,NA,72.9253112033195,17.206982543640898
11217,Kings County,NY,NA,24.066390041493776,NA
11218,Kings County,NY,NA,NA,58.728179551122196
11220,Kings County,NY,NA,4.979253112033195,NA
11221,Kings County,NY,3.524229074889868,NA,4.488778054862843
11223,Kings County,NY,NA,42.32365145228216,NA
11224,Kings County,NY,24.816446402349488,5.601659751037345,NA
11226,Kings County,NY,NA,NA,35.41147132169576
11230,Kings County,NY,NA,10.16597510373444,NA
11233,Kings County,NY,NA,1.2448132780082988,NA
11238,Kings County,NY,27.312775330396477,NA,NA
11249,Kings County,NY,NA,90.24896265560166,NA
11368,Queens County,NY,9.397944199706314,NA,NA
11369,Queens County,NY,57.268722466960355,NA,39.15211970074813
11372,Queens County,NY,NA,NA,33.042394014962596
11375,Queens County,NY,50.51395007342144,NA,NA
11377,Queens County,NY,NA,93.46473029045643,17.581047381546135
11418,Queens County,NY,NA,44.81327800829876,NA
11420,Queens County,NY,NA,NA,26.80798004987531
11421,Queens County,NY,NA,77.80082987551867,NA
11434,Queens County,NY,NA,NA,45.38653366583541
11435,Queens County,NY,NA,16.493775933609957,NA
11436,Queens County,NY,NA,69.70954356846472,NA
11554,Nassau County,NY,NA,43.25726141078838,NA
11565,Nassau County,NY,NA,99.06639004149378,NA
11566,Nassau County,NY,95.44787077826726,NA,NA
11701,Suffolk County,NY,NA,NA,31.67082294264339
11703,Suffolk County,NY,NA,NA,49.62593516209476
11706,Suffolk County,NY,NA,33.19502074688796,NA
11717,Suffolk County,NY,NA,NA,24.93765586034913
11721,Suffolk County,NY,NA,NA,96.88279301745636
11746,Suffolk County,NY,52.42290748898678,NA,NA
11961,Suffolk County,NY,NA,56.84647302904564,NA
12010,Montgomery County,NY,45.37444933920705,NA,NA
12020,Saratoga County,NY,NA,25.622406639004147,NA
12043,Schoharie County,NY,80.91042584434655,85.58091286307054,NA
12122,Schoharie County,NY,NA,69.50207468879668,92.39401496259352
12123,Rensselaer County,NY,92.80469897209986,NA,NA
12134,Fulton County,NY,90.01468428781205,NA,NA
12157,Schoharie County,NY,NA,98.02904564315352,NA
12180,Rensselaer County,NY,NA,9.232365145228217,NA
12303,Schenectady County,NY,NA,NA,29.42643391521197
12816,Washington County,NY,93.83259911894272,NA,NA
12866,Saratoga County,NY,46.25550660792951,10.58091286307054,32.54364089775561
12912,Clinton County,NY,89.42731277533039,NA,NA
12983,Franklin County,NY,NA,48.3402489626556,NA
12986,Franklin County,NY,64.31718061674009,NA,NA
13045,Cortland County,NY,NA,10.477178423236515,NA
13077,Cortland County,NY,NA,60.99585062240664,NA
13114,Oswego County,NY,60.05873715124817,NA,NA
13206,Onondaga County,NY,58.44346549192364,NA,NA
13208,Onondaga County,NY,16.740088105726873,NA,NA
13219,Onondaga County,NY,57.562408223201174,NA,NA
13224,Onondaga County,NY,NA,73.65145228215768,NA
13320,Otsego County,NY,98.53157121879589,NA,NA
13326,Otsego County,NY,NA,NA,95.01246882793018
13339,Montgomery County,NY,56.38766519823789,NA,NA
13340,Herkimer County,NY,NA,84.54356846473028,NA
13350,Herkimer County,NY,67.1071953010279,NA,NA
13357,Herkimer County,NY,NA,NA,97.0074812967581
13365,Herkimer County,NY,NA,NA,43.765586034912715
13421,Madison County,NY,29.955947136563875,NA,NA
13439,Otsego County,NY,81.93832599118943,NA,NA
13617,St. Lawrence County,NY,NA,34.232365145228215,NA
13733,Chenango County,NY,NA,81.12033195020747,NA
13760,Broome County,NY,NA,0.3112033195020747,NA
13808,Otsego County,NY,NA,95.64315352697096,NA
13820,Otsego County,NY,NA,NA,71.19700748129677
13833,Broome County,NY,NA,95.53941908713693,NA
13850,Broome County,NY,20.558002936857562,NA,2.8678304239401498
13905,Broome County,NY,NA,46.16182572614108,NA
14063,Chautauqua County,NY,NA,72.5103734439834,NA
14086,Erie County,NY,NA,67.84232365145229,NA
14208,Erie County,NY,NA,25.933609958506228,NA
14211,Erie County,NY,11.013215859030836,NA,NA
14220,Erie County,NY,17.91483113069016,NA,NA
14304,Niagara County,NY,28.928046989721,4.045643153526971,NA
14423,Livingston County,NY,NA,94.6058091286307,NA
14428,Monroe County,NY,47.72393538913363,NA,NA
14450,Monroe County,NY,NA,1.8672199170124482,NA
14513,Wayne County,NY,NA,NA,26.059850374064837
14534,Monroe County,NY,NA,NA,3.2418952618453867
14580,Monroe County,NY,NA,0.2074688796680498,NA
14604,Monroe County,NY,87.51835535976505,NA,NA
14606,Monroe County,NY,3.2305433186490458,NA,NA
14607,Monroe County,NY,NA,40.04149377593361,NA
14617,Monroe County,NY,8.076358296622614,4.771784232365145,NA
14621,Monroe County,NY,18.94273127753304,NA,NA
14623,Monroe County,NY,NA,53.83817427385892,NA
14701,Chautauqua County,NY,3.671071953010279,2.5933609958506225,NA
14830,Steuben County,NY,NA,31.224066390041493,NA
14850,Tompkins County,NY,NA,5.809128630705394,NA
14891,Schuyler County,NY,NA,67.32365145228216,NA
14892,Tioga County,NY,NA,77.4896265560166,NA
14904,Chemung County,NY,32.011747430249635,NA,NA
27012,Forsyth County,NC,NA,4.460580912863071,NA
27018,Yadkin County,NC,NA,NA,41.5211970074813
27052,Stokes County,NC,91.62995594713657,NA,NA
27103,Forsyth County,NC,NA,9.336099585062241,NA
27105,Forsyth County,NC,NA,3.2157676348547715,NA
27127,Forsyth County,NC,NA,NA,5.361596009975062
27253,Alamance County,NC,NA,17.531120331950206,NA
27265,Guilford County,NC,NA,NA,19.45137157107232
27284,Forsyth County,NC,NA,15.560165975103734,2.369077306733167
27302,Alamance County,NC,NA,13.796680497925312,NA
27360,Davidson County,NC,NA,27.178423236514522,9.102244389027431
27513,Wake County,NC,NA,NA,42.768079800498754
27537,Vance County,NC,NA,NA,37.53117206982544
27597,Wake County,NC,NA,NA,58.60349127182045
27604,Wake County,NC,NA,NA,49.12718204488778
27614,Wake County,NC,NA,35.26970954356847,NA
27703,Durham County,NC,14.096916299559473,NA,20.32418952618454
27704,Durham County,NC,15.418502202643172,NA,NA
27705,Durham County,NC,NA,13.278008298755188,NA
27870,Halifax County,NC,NA,30.29045643153527,NA
28139,Rutherford County,NC,NA,54.356846473029044,NA
28144,Rowan County,NC,NA,32.261410788381745,42.01995012468828
28205,Mecklenburg County,NC,NA,NA,39.52618453865336
28216,Mecklenburg County,NC,12.334801762114537,NA,NA
28306,Bladen County,NC,NA,34.439834024896264,NA
28351,Scotland County,NC,NA,95.12448132780082,NA
28366,Sampson County,NC,NA,NA,67.2069825436409
28479,Brunswick County,NC,NA,93.3609958506224,NA
28557,Carteret County,NC,NA,NA,97.2568578553616
28570,Carteret County,NC,55.359765051395,NA,NA
28590,Pitt County,NC,NA,NA,53.49127182044888
28645,Caldwell County,NC,NA,NA,13.466334164588527
28655,Burke County,NC,NA,NA,7.4812967581047385
28712,Transylvania County,NC,NA,65.24896265560166,96.63341645885288
28729,Henderson County,NC,NA,85.06224066390041,NA
28768,Transylvania County,NC,NA,81.74273858921161,NA
28792,Henderson County,NC,NA,10.892116182572614,NA
28906,Cherokee County,NC,NA,NA,16.209476309226932
58103,Cass County,ND,NA,NA,0.8728179551122194
58201,Grand Forks County,ND,NA,84.33609958506224,45.885286783042396
58203,Grand Forks County,ND,55.65345080763583,79.25311203319502,82.16957605985037
58237,Walsh County,ND,99.55947136563876,NA,NA
58503,Burleigh County,ND,NA,27.69709543568465,NA
58554,Morton County,ND,NA,NA,8.85286783042394
58701,Ward County,ND,13.362701908957417,83.60995850622407,52.49376558603491
58703,Ward County,ND,NA,NA,20.947630922693268
58801,Williams County,ND,NA,NA,43.14214463840399
43015,Delaware County,OH,63.582966226138026,NA,NA
43062,Licking County,OH,NA,NA,35.66084788029925
43110,Franklin County,OH,29.22173274596182,NA,NA
43113,Pickaway County,OH,NA,NA,6.608478802992519
43125,Franklin County,OH,NA,56.43153526970954,NA
43130,Fairfield County,OH,1.6152716593245229,2.904564315352697,NA
43160,Fayette County,OH,17.474302496328928,NA,66.45885286783042
43203,Franklin County,OH,NA,NA,82.7930174563591
43205,Franklin County,OH,NA,53.941908713692946,67.83042394014963
43213,Franklin County,OH,NA,18.36099585062241,NA
43351,Wyandot County,OH,43.4654919236417,NA,NA
43440,Ottawa County,OH,NA,70.95435684647303,NA
43528,Lucas County,OH,NA,NA,59.47630922693266
43558,Fulton County,OH,NA,44.190871369294605,NA
43604,Lucas County,OH,NA,75.8298755186722,NA
43605,Lucas County,OH,2.7900146842878124,NA,NA
43607,Lucas County,OH,7.488986784140969,NA,NA
43612,Lucas County,OH,4.992657856093979,NA,NA
43616,Lucas County,OH,NA,NA,47.63092269326683
43725,Guernsey County,OH,19.08957415565345,NA,NA
43731,Perry County,OH,NA,83.09128630705395,NA
43830,Muskingum County,OH,NA,NA,91.14713216957607
43952,Jefferson County,OH,NA,11.721991701244812,NA
44011,Lorain County,OH,NA,NA,8.354114713216958
44012,Lorain County,OH,37.73861967694567,NA,NA
44024,Geauga County,OH,NA,15.352697095435685,NA
44035,Lorain County,OH,0.2936857562408223,9.12863070539419,61.09725685785536
44039,Lorain County,OH,10.13215859030837,53.3195020746888,NA
44050,Lorain County,OH,NA,73.3402489626556,NA
44052,Lorain County,OH,3.0837004405286343,NA,NA
44054,Lorain County,OH,NA,80.18672199170125,NA
44055,Lorain County,OH,NA,19.605809128630707,NA
44070,Cuyahoga County,OH,57.12187958883994,NA,NA
44077,Lake County,OH,24.229074889867842,NA,NA
44087,Summit County,OH,NA,NA,2.7431421446384037
44094,Lake County,OH,NA,25.103734439834025,NA
44102,Cuyahoga County,OH,NA,49.481327800829874,NA
44105,Cuyahoga County,OH,1.0279001468428781,20.020746887966805,NA
44106,Cuyahoga County,OH,13.069016152716593,NA,NA
44107,Cuyahoga County,OH,NA,3.319502074688797,NA
44108,Cuyahoga County,OH,NA,5.7053941908713695,NA
44109,Cuyahoga County,OH,5.726872246696035,NA,NA
44110,Cuyahoga County,OH,67.84140969162996,NA,NA
44111,Cuyahoga County,OH,14.390602055800294,NA,NA
44112,Cuyahoga County,OH,10.425844346549193,NA,NA
44114,Cuyahoga County,OH,NA,NA,77.0573566084788
44115,Cuyahoga County,OH,NA,79.5643153526971,NA
44117,Cuyahoga County,OH,NA,NA,65.08728179551122
44121,Cuyahoga County,OH,NA,82.98755186721992,NA
44122,Cuyahoga County,OH,29.074889867841406,NA,NA
44123,Cuyahoga County,OH,NA,23.236514522821576,NA
44124,Cuyahoga County,OH,NA,NA,16.458852867830423
44128,Cuyahoga County,OH,NA,NA,30.049875311720697
44129,Cuyahoga County,OH,NA,80.29045643153528,NA
44131,Cuyahoga County,OH,NA,NA,4.488778054862843
44135,Cuyahoga County,OH,NA,7.883817427385892,NA
44136,Cuyahoga County,OH,NA,8.506224066390041,NA
44137,Cuyahoga County,OH,NA,10.37344398340249,53.61596009975062
44140,Cuyahoga County,OH,NA,30.186721991701244,28.92768079800499
44144,Cuyahoga County,OH,16.005873715124817,7.780082987551867,NA
44145,Cuyahoga County,OH,NA,45.74688796680498,NA
44146,Cuyahoga County,OH,8.81057268722467,2.3858921161825726,5.610972568578553
44147,Cuyahoga County,OH,NA,87.03319502074689,25.561097256857856
44202,Portage County,OH,64.75770925110133,NA,NA
44203,Summit County,OH,NA,8.921161825726141,NA
44212,Medina County,OH,NA,1.1410788381742738,NA
44216,Summit County,OH,89.86784140969164,NA,NA
44224,Summit County,OH,NA,35.995850622406635,NA
44240,Portage County,OH,NA,NA,15.96009975062344
44241,Portage County,OH,35.5359765051395,53.21576763485477,NA
44266,Portage County,OH,NA,6.846473029045644,NA
44319,Summit County,OH,52.56975036710719,NA,NA
44333,Summit County,OH,NA,40.35269709543569,NA
44437,Trumbull County,OH,NA,98.13278008298755,NA
44446,Trumbull County,OH,17.62114537444934,NA,NA
44460,Columbiana County,OH,27.165932452276063,NA,NA
44484,Trumbull County,OH,NA,13.589211618257261,NA
44622,Tuscarawas County,OH,NA,NA,15.336658354114713
44647,Stark County,OH,52.27606461086637,NA,NA
44830,Seneca County,OH,22.760646108663728,NA,NA
44833,Crawford County,OH,NA,17.842323651452283,NA
44857,Huron County,OH,NA,NA,13.840399002493767
44870,Erie County,OH,NA,20.33195020746888,NA
44889,Huron County,OH,NA,NA,94.2643391521197
45013,Butler County,OH,NA,NA,3.6159600997506236
45122,Clermont County,OH,NA,NA,65.21197007481297
45123,Highland County,OH,NA,NA,77.80548628428927
45205,Hamilton County,OH,NA,50.20746887966805,NA
45217,Hamilton County,OH,84.14096916299559,NA,NA
45220,Hamilton County,OH,NA,81.32780082987551,NA
45243,Hamilton County,OH,NA,NA,56.98254364089775
45331,Darke County,OH,NA,23.858921161825727,NA
45356,Miami County,OH,NA,NA,22.069825436408976
45373,Miami County,OH,70.48458149779736,NA,NA
45383,Miami County,OH,NA,89.31535269709543,NA
45601,Ross County,OH,0.881057268722467,0,60.099750623441395
45631,Gallia County,OH,58.14977973568281,68.7759336099585,NA
45640,Jackson County,OH,NA,NA,85.785536159601
45656,Jackson County,OH,NA,NA,61.97007481296758
45661,Pike County,OH,NA,40.767634854771785,NA
45690,Pike County,OH,NA,47.5103734439834,NA
45701,Athens County,OH,NA,47.9253112033195,61.34663341645885
45714,Washington County,OH,NA,47.71784232365145,NA
45750,Washington County,OH,1.762114537444934,0.5186721991701244,0.997506234413965
45769,Meigs County,OH,NA,NA,55.11221945137157
45822,Mercer County,OH,NA,76.34854771784232,48.37905236907731
45879,Paulding County,OH,NA,70.0207468879668,NA
73034,Oklahoma County,OK,NA,44.60580912863071,NA
73075,Garvin County,OK,NA,NA,74.81296758104739
73439,Marshall County,OK,NA,NA,85.53615960099751
73773,Garfield County,OK,99.85315712187959,NA,NA
74112,Tulsa County,OK,NA,83.92116182572614,NA
74403,Muskogee County,OK,36.8575624082232,26.86721991701245,NA
74451,Cherokee County,OK,NA,90.45643153526972,NA
74462,Haskell County,OK,NA,NA,68.5785536159601
74464,Cherokee County,OK,11.16005873715125,19.502074688796682,NA
74571,Le Flore County,OK,NA,82.78008298755186,NA
74868,Seminole County,OK,NA,57.26141078838174,NA
74937,Le Flore County,OK,NA,NA,88.02992518703242
74948,Sequoyah County,OK,NA,NA,89.02743142144638
74953,Le Flore County,OK,NA,94.29460580912863,NA
74960,Adair County,OK,75.03671071953009,NA,NA
97005,Washington County,OR,50.22026431718062,NA,NA
97013,Clackamas County,OR,NA,65.45643153526972,NA
97062,Washington County,OR,NA,NA,75.93516209476309
97068,Clackamas County,OR,65.34508076358296,NA,NA
97123,Washington County,OR,NA,NA,19.326683291770575
97124,Washington County,OR,NA,NA,24.189526184538654
97140,Washington County,OR,NA,NA,50
97146,Clatsop County,OR,NA,67.42738589211619,76.80798004987531
97202,Multnomah County,OR,NA,73.23651452282157,NA
97209,Multnomah County,OR,41.55653450807636,NA,NA
97216,Multnomah County,OR,NA,58.921161825726145,NA
97230,Multnomah County,OR,28.781204111600587,NA,NA
97267,Clackamas County,OR,NA,NA,17.45635910224439
97401,Lane County,OR,92.65785609397945,NA,32.04488778054863
97402,Lane County,OR,NA,94.1908713692946,91.39650872817955
97411,Coos County,OR,81.20411160058737,NA,73.94014962593516
97415,Curry County,OR,NA,24.481327800829874,NA
97424,Lane County,OR,NA,96.99170124481327,98.75311720698254
97426,Lane County,OR,NA,NA,51.3715710723192
97439,Lane County,OR,NA,NA,82.66832917705736
97467,Douglas County,OR,NA,91.90871369294605,NA
97477,Lane County,OR,29.515418502202646,NA,NA
97487,Lane County,OR,NA,NA,69.9501246882793
97504,Jackson County,OR,NA,NA,3.366583541147132
97739,Deschutes County,OR,NA,63.79668049792531,NA
97801,Umatilla County,OR,NA,57.365145228215766,NA
97814,Baker County,OR,44.93392070484582,NA,NA
97844,Morrow County,OR,NA,96.6804979253112,NA
15010,Beaver County,PA,NA,25.72614107883817,NA
15061,Beaver County,PA,61.52716593245228,NA,NA
15084,Allegheny County,PA,96.47577092511013,NA,NA
15089,Westmoreland County,PA,NA,76.97095435684648,NA
15206,Allegheny County,PA,NA,21.473029045643152,NA
15210,Allegheny County,PA,19.383259911894275,NA,NA
15461,Fayette County,PA,NA,NA,85.03740648379052
15601,Westmoreland County,PA,NA,1.970954356846473,NA
15767,Jefferson County,PA,NA,31.742738589211616,NA
15902,Cambria County,PA,73.568281938326,NA,NA
15905,Cambria County,PA,49.632892804698976,NA,NA
16101,Lawrence County,PA,7.63582966226138,NA,16.33416458852868
16117,Lawrence County,PA,NA,42.634854771784234,NA
16127,Mercer County,PA,NA,NA,18.952618453865338
16301,Venango County,PA,50.36710719530103,NA,NA
16323,Venango County,PA,54.18502202643172,NA,NA
16428,Erie County,PA,81.79148311306902,NA,NA
16652,Huntingdon County,PA,NA,19.19087136929461,17.206982543640898
16693,Blair County,PA,89.13362701908957,NA,NA
16801,Centre County,PA,70.63142437591777,NA,NA
16827,Centre County,PA,91.77679882525698,NA,NA
17033,Dauphin County,PA,NA,NA,20.199501246882793
17036,Dauphin County,PA,NA,70.53941908713693,NA
17046,Lebanon County,PA,56.53450807635829,NA,NA
17055,Cumberland County,PA,NA,16.701244813278006,NA
17057,Dauphin County,PA,NA,65.04149377593362,NA
17078,Lebanon County,PA,NA,12.344398340248963,66.58354114713218
17109,Dauphin County,PA,NA,NA,26.309226932668327
17111,Dauphin County,PA,20.851688693098385,50.933609958506224,31.795511221945137
17113,Dauphin County,PA,NA,86.09958506224066,NA
17257,Cumberland County,PA,NA,NA,30.423940149625935
17319,York County,PA,NA,63.90041493775933,NA
17350,Adams County,PA,NA,52.9045643153527,NA
17360,York County,PA,NA,99.27385892116183,NA
17361,York County,PA,NA,NA,70.32418952618454
17402,York County,PA,NA,10.78838174273859,NA
17403,York County,PA,37.59177679882526,NA,NA
17560,Lancaster County,PA,NA,96.88796680497926,NA
17701,Lycoming County,PA,5.286343612334802,NA,NA
17740,Lycoming County,PA,53.45080763582967,NA,NA
17820,Columbia County,PA,NA,92.5311203319502,NA
17821,Montour County,PA,NA,15.45643153526971,2.493765586034913
17847,Northumberland County,PA,63.87665198237885,44.502074688796675,NA
17851,Northumberland County,PA,66.51982378854625,NA,NA
17870,Snyder County,PA,49.77973568281938,NA,NA
18020,Northampton County,PA,NA,30.601659751037346,NA
18045,Northampton County,PA,NA,16.59751037344398,NA
18073,Montgomery County,PA,90.8957415565345,NA,NA
18102,Lehigh County,PA,NA,7.053941908713693,18.07980049875312
18222,Luzerne County,PA,82.08516886930984,NA,NA
18324,Pike County,PA,NA,NA,80.92269326683291
18360,Monroe County,PA,NA,14.107883817427386,12.468827930174564
18447,Lackawanna County,PA,NA,NA,50.24937655860349
18505,Lackawanna County,PA,NA,64.41908713692946,NA
18518,Lackawanna County,PA,83.11306901615272,NA,80.67331670822942
18603,Columbia County,PA,62.55506607929515,18.25726141078838,35.910224438902745
18610,Monroe County,PA,NA,NA,97.13216957605985
18612,Luzerne County,PA,NA,44.70954356846473,85.91022443890274
18634,Luzerne County,PA,NA,39.93775933609959,NA
18641,Luzerne County,PA,NA,NA,90.02493765586036
18644,Luzerne County,PA,NA,91.18257261410788,NA
18651,Luzerne County,PA,87.07782672540382,NA,NA
18702,Luzerne County,PA,9.838472834067549,78.7344398340249,67.70573566084788
18704,Luzerne County,PA,21.73274596182085,NA,6.857855361596011
18705,Luzerne County,PA,NA,87.86307053941908,25.311720698254366
18706,Luzerne County,PA,NA,NA,30.174563591022448
18707,Luzerne County,PA,NA,83.71369294605809,78.92768079800499
19013,Delaware County,PA,NA,NA,28.05486284289277
19057,Bucks County,PA,35.82966226138032,NA,NA
19066,Montgomery County,PA,93.24522760646109,NA,NA
19083,Delaware County,PA,NA,NA,20.57356608478803
19095,Montgomery County,PA,NA,75,NA
19104,Philadelphia County,PA,NA,18.464730290456433,NA
19111,Philadelphia County,PA,NA,29.149377593361,NA
19125,Philadelphia County,PA,50.66079295154186,NA,NA
19133,Philadelphia County,PA,NA,32.98755186721991,NA
19134,Philadelphia County,PA,22.61380323054332,NA,NA
19139,Philadelphia County,PA,NA,7.157676348547717,NA
19333,Chester County,PA,NA,NA,78.80299251870323
19355,Chester County,PA,NA,NA,41.271820448877804
19362,Chester County,PA,NA,86.92946058091286,NA
19403,Montgomery County,PA,NA,6.224066390041494,NA
19508,Berks County,PA,NA,NA,65.83541147132169
19526,Berks County,PA,69.7503671071953,NA,NA
19602,Berks County,PA,15.27165932452276,NA,NA
19606,Berks County,PA,NA,5.186721991701245,NA
19608,Berks County,PA,NA,22.925311203319502,NA
02809,Bristol County,RI,NA,32.780082987551864,NA
02860,Providence County,RI,NA,13.070539419087138,NA
02861,Providence County,RI,NA,29.87551867219917,NA
02864,Providence County,RI,31.130690161527163,NA,NA
02888,Kent County,RI,NA,40.24896265560166,34.538653366583546
02904,Providence County,RI,36.71071953010279,NA,NA
02908,Providence County,RI,NA,NA,54.98753117206982
02909,Providence County,RI,24.669603524229075,34.75103734439834,NA
02921,Providence County,RI,NA,77.9045643153527,NA
29063,Richland County,SC,NA,45.02074688796681,NA
29150,Sumter County,SC,39.500734214390604,NA,NA
29302,Spartanburg County,SC,NA,66.59751037344398,NA
29303,Spartanburg County,SC,NA,53.11203319502075,NA
29307,Spartanburg County,SC,NA,NA,39.900249376558605
29349,Spartanburg County,SC,30.690161527165934,NA,NA
29365,Spartanburg County,SC,NA,59.85477178423236,NA
29376,Spartanburg County,SC,NA,NA,81.54613466334165
29414,Charleston County,SC,NA,23.96265560165975,57.107231920199496
29420,Dorchester County,SC,49.04552129221732,NA,NA
29461,Berkeley County,SC,65.7856093979442,NA,NA
29483,Dorchester County,SC,22.3201174743025,NA,NA
29605,Greenville County,SC,NA,NA,24.189526184538654
29624,Anderson County,SC,40.52863436123348,NA,NA
29650,Greenville County,SC,NA,40.35269709543569,NA
29803,Aiken County,SC,NA,9.854771784232366,NA
57006,Brookings County,SD,NA,91.49377593360995,12.094763092269327
57049,Union County,SD,NA,86.51452282157676,NA
57103,Minnehaha County,SD,NA,NA,5.7356608478802995
57104,Minnehaha County,SD,NA,6.742738589211618,40.52369077306734
57106,Minnehaha County,SD,NA,6.639004149377594,NA
57108,Lincoln County,SD,NA,20.850622406639005,60.349127182044896
57301,Davison County,SD,NA,62.136929460580916,NA
57401,Brown County,SD,NA,9.024896265560166,NA
57701,Pennington County,SD,NA,17.42738589211618,NA
57717,Butte County,SD,NA,90.76763485477179,NA
57785,Meade County,SD,89.28046989721,NA,NA
37110,Warren County,TN,NA,NA,24.064837905236907
37115,Davidson County,TN,NA,NA,60.723192019950126
37122,Wilson County,TN,NA,NA,55.9850374064838
37129,Rutherford County,TN,21.879588839941263,NA,NA
37167,Rutherford County,TN,NA,NA,31.421446384039903
37172,Robertson County,TN,20.26431718061674,NA,NA
37207,Davidson County,TN,NA,NA,47.50623441396509
37211,Davidson County,TN,25.55066079295154,NA,NA
37214,Davidson County,TN,NA,50.4149377593361,NA
37334,Lincoln County,TN,NA,30.29045643153527,NA
37381,Rhea County,TN,NA,NA,56.10972568578554
37398,Franklin County,TN,NA,NA,37.03241895261846
37616,Greene County,TN,NA,84.43983402489627,NA
37716,Anderson County,TN,40.822320117474305,NA,NA
37743,Greene County,TN,NA,4.668049792531121,NA
37771,Loudon County,TN,NA,51.97095435684648,NA
37777,Blount County,TN,NA,NA,73.69077306733168
37818,Greene County,TN,95.30102790014683,NA,NA
37857,Hawkins County,TN,NA,NA,31.92019950124688
37865,Sevier County,TN,NA,NA,30.423940149625935
37882,Blount County,TN,NA,94.81327800829875,NA
37919,Knox County,TN,55.947136563876654,NA,NA
38106,Shelby County,TN,49.33920704845815,NA,NA
38107,Shelby County,TN,NA,56.12033195020747,NA
38112,Shelby County,TN,NA,67.01244813278008,NA
38114,Shelby County,TN,NA,32.572614107883815,NA
38128,Shelby County,TN,26.284875183553595,NA,79.92518703241896
75041,Dallas County,TX,46.40234948604993,NA,NA
75077,Denton County,TX,NA,45.33195020746888,NA
75092,Grayson County,TX,NA,46.058091286307054,NA
75119,Ellis County,TX,NA,62.136929460580916,NA
75156,Henderson County,TX,NA,91.07883817427386,NA
75169,Van Zandt County,TX,NA,NA,56.733167082294266
75189,Rockwall County,TX,47.136563876651984,NA,NA
75208,Dallas County,TX,NA,48.65145228215768,NA
75209,Dallas County,TX,NA,61.09958506224067,NA
75210,Dallas County,TX,NA,88.27800829875518,NA
75215,Dallas County,TX,32.45227606461087,NA,NA
75216,Dallas County,TX,NA,9.751037344398341,31.17206982543641
75217,Dallas County,TX,NA,36.72199170124482,NA
75224,Dallas County,TX,NA,38.17427385892116,NA
75227,Dallas County,TX,24.52276064610866,NA,NA
75228,Dallas County,TX,8.370044052863436,NA,NA
75235,Dallas County,TX,68.13509544787078,NA,NA
75243,Dallas County,TX,18.208516886930983,NA,NA
75252,Collin County,TX,NA,53.52697095435685,NA
75410,Wood County,TX,NA,NA,83.91521197007481
75701,Smith County,TX,39.20704845814978,14.315352697095435,NA
75702,Smith County,TX,NA,NA,57.23192019950125
75703,Smith County,TX,35.97650513950074,NA,1.4962593516209477
75706,Smith County,TX,NA,61.61825726141079,NA
75751,Henderson County,TX,NA,46.2655601659751,NA
75762,Smith County,TX,NA,47.9253112033195,NA
75771,Smith County,TX,NA,NA,40.89775561097257
75773,Wood County,TX,NA,27.4896265560166,NA
76017,Tarrant County,TX,NA,NA,29.800498753117203
76031,Johnson County,TX,NA,47.30290456431535,NA
76036,Tarrant County,TX,82.37885462555066,NA,NA
76039,Tarrant County,TX,40.38179148311307,NA,NA
76086,Parker County,TX,NA,NA,28.6783042394015
76102,Tarrant County,TX,72.09985315712188,85.06224066390041,NA
76104,Tarrant County,TX,NA,57.46887966804979,58.104738154613464
76116,Tarrant County,TX,NA,14.626556016597512,NA
76179,Tarrant County,TX,34.06754772393539,NA,NA
76501,Bell County,TX,NA,NA,25.187032418952622
76502,Bell County,TX,NA,52.80082987551867,34.03990024937656
76504,Bell County,TX,NA,38.38174273858922,22.568578553615957
76513,Bell County,TX,54.77239353891336,66.49377593360995,60.22443890274314
76522,Coryell County,TX,NA,40.66390041493776,10.224438902743142
76528,Coryell County,TX,NA,NA,21.197007481296758
76531,Hamilton County,TX,NA,79.46058091286307,NA
76539,Lampasas County,TX,NA,92.84232365145229,NA
76542,Bell County,TX,18.502202643171806,23.029045643153527,78.428927680798
76543,Bell County,TX,NA,20.435684647302903,28.428927680798004
76548,Bell County,TX,46.84287812041116,17.531120331950206,NA
76549,Bell County,TX,NA,31.535269709543567,NA
76571,Bell County,TX,NA,NA,96.00997506234414
76574,Williamson County,TX,NA,NA,8.229426433915211
76643,McLennan County,TX,NA,56.74273858921162,88.5286783042394
76657,McLennan County,TX,NA,NA,69.07730673316709
76661,Falls County,TX,96.76945668135095,NA,NA
76705,McLennan County,TX,66.66666666666666,NA,70.57356608478803
76706,McLennan County,TX,NA,69.70954356846472,NA
76707,McLennan County,TX,NA,NA,75.93516209476309
77021,Harris County,TX,NA,35.37344398340249,NA
77028,Harris County,TX,76.3582966226138,NA,NA
77033,Harris County,TX,NA,NA,33.042394014962596
77051,Harris County,TX,NA,53.42323651452282,NA
77066,Harris County,TX,67.98825256975036,NA,NA
77067,Harris County,TX,NA,NA,92.14463840399002
77083,Harris County,TX,NA,NA,59.85037406483791
77091,Harris County,TX,98.23788546255507,NA,NA
77351,Polk County,TX,NA,NA,26.932668329177055
77379,Harris County,TX,NA,11.20331950207469,NA
77414,Matagorda County,TX,NA,39.004149377593365,NA
77479,Fort Bend County,TX,NA,NA,27.306733167082292
77510,Galveston County,TX,NA,NA,47.0074812967581
77539,Galveston County,TX,NA,12.759336099585061,NA
77568,Galveston County,TX,NA,57.8838174273859,NA
77571,Harris County,TX,32.74596182085169,NA,NA
77573,Galveston County,TX,12.77533039647577,44.08713692946058,NA
77590,Galveston County,TX,NA,43.67219917012448,NA
77591,Galveston County,TX,NA,41.80497925311204,NA
77612,Jasper County,TX,NA,88.38174273858921,NA
77619,Jefferson County,TX,NA,73.44398340248964,70.82294264339151
77640,Jefferson County,TX,NA,95.33195020746888,97.63092269326683
77642,Jefferson County,TX,NA,61.30705394190872,NA
77651,Jefferson County,TX,NA,65.97510373443983,NA
77657,Hardin County,TX,58.29662261380323,NA,NA
77802,Brazos County,TX,30.983847283406757,NA,7.98004987531172
77808,Brazos County,TX,NA,NA,94.51371571072319
77864,Madison County,TX,NA,NA,91.64588528678304
78009,Medina County,TX,98.6784140969163,NA,NA
78028,Kerr County,TX,41.116005873715125,NA,29.551122194513717
78108,Guadalupe County,TX,NA,NA,90.77306733167082
78201,Bexar County,TX,NA,20.74688796680498,NA
78202,Bexar County,TX,89.72099853157121,NA,94.63840399002493
78210,Bexar County,TX,30.2496328928047,NA,NA
78213,Bexar County,TX,NA,NA,69.32668329177058
78221,Bexar County,TX,NA,74.79253112033194,NA
78223,Bexar County,TX,24.963289280469898,NA,NA
78225,Bexar County,TX,NA,NA,76.43391521197007
78228,Bexar County,TX,33.77386196769457,32.053941908713696,NA
78237,Bexar County,TX,62.40822320117474,NA,45.137157107231914
78242,Bexar County,TX,86.19676945668135,NA,NA
78245,Bexar County,TX,57.856093979442,NA,38.403990024937656
78266,Comal County,TX,NA,NA,94.13965087281795
78332,Jim Wells County,TX,84.43465491923642,NA,NA
78408,Nueces County,TX,93.3920704845815,NA,NA
78413,Nueces County,TX,88.2525697503671,NA,NA
78520,Cameron County,TX,56.97503671071953,28.42323651452282,65.96009975062344
78521,Cameron County,TX,NA,75.93360995850622,75.06234413965088
78550,Cameron County,TX,44.640234948605,NA,25.81047381546135
78552,Cameron County,TX,68.72246696035242,NA,NA
78575,Cameron County,TX,NA,93.87966804979253,NA
78586,Cameron County,TX,84.87518355359765,42.946058091286304,NA
78611,Burnet County,TX,76.94566813509545,NA,NA
78613,Williamson County,TX,NA,NA,28.802992518703242
78624,Gillespie County,TX,NA,NA,39.775561097256855
78633,Williamson County,TX,NA,1.7634854771784232,NA
78639,Llano County,TX,NA,41.18257261410788,NA
78641,Williamson County,TX,28.046989720998532,NA,NA
78643,Llano County,TX,NA,92.73858921161826,NA
78653,Travis County,TX,75.62408223201174,NA,NA
78654,Burnet County,TX,NA,NA,40.77306733167082
78704,Travis County,TX,NA,72.61410788381743,NA
78840,Val Verde County,TX,NA,18.672199170124482,NA
78957,Bastrop County,TX,NA,NA,72.44389027431421
79331,Dawson County,TX,70.04405286343612,NA,NA
79364,Lubbock County,TX,NA,81.43153526970954,NA
79413,Lubbock County,TX,67.54772393538914,NA,NA
79549,Scurry County,TX,72.24669603524228,NA,NA
79720,Howard County,TX,NA,49.066390041493776,NA
79912,El Paso County,TX,NA,NA,75.56109725685786
79925,El Paso County,TX,NA,47.19917012448133,NA
79927,El Paso County,TX,NA,56.63900414937759,NA
79928,El Paso County,TX,NA,57.780082987551864,NA
79936,El Paso County,TX,NA,19.294605809128633,NA
84003,Utah County,UT,45.96182085168869,NA,NA
84015,Davis County,UT,27.900146842878122,NA,NA
84043,Utah County,UT,46.84287812041116,NA,NA
84044,Salt Lake County,UT,NA,59.33609958506224,NA
84065,Salt Lake County,UT,41.55653450807636,NA,NA
84070,Salt Lake County,UT,76.65198237885463,NA,NA
84084,Salt Lake County,UT,NA,86.72199170124482,NA
84092,Salt Lake County,UT,NA,41.90871369294606,NA
84095,Salt Lake County,UT,NA,27.282157676348547,NA
84096,Salt Lake County,UT,31.864904552129218,NA,NA
84102,Salt Lake County,UT,NA,82.0539419087137,NA
84106,Salt Lake County,UT,NA,NA,21.07231920199501
84107,Salt Lake County,UT,NA,70.64315352697096,NA
84109,Salt Lake County,UT,NA,75.31120331950207,NA
84111,Salt Lake County,UT,93.53891336270192,NA,NA
84115,Salt Lake County,UT,NA,63.07053941908713,NA
84117,Salt Lake County,UT,76.06461086637299,NA,28.179551122194514
84118,Salt Lake County,UT,NA,48.23651452282158,NA
84120,Salt Lake County,UT,NA,77.59336099585063,NA
84121,Salt Lake County,UT,43.31864904552129,75.20746887966806,15.586034912718205
84124,Salt Lake County,UT,NA,NA,70.19950124688279
84129,,UT,34.36123348017621,NA,NA
84404,Weber County,UT,NA,36.410788381742734,NA
05001,Windsor County,VT,NA,93.25726141078839,94.88778054862843
05060,Orange County,VT,NA,88.90041493775934,97.38154613466334
05091,Windsor County,VT,NA,NA,97.75561097256858
05301,Windham County,VT,NA,28.734439834024894,NA
05403,Chittenden County,VT,62.70190895741556,NA,NA
05465,Chittenden County,VT,NA,99.68879668049793,NA
05468,Chittenden County,VT,NA,NA,51.12219451371571
05478,Franklin County,VT,80.61674008810573,NA,NA
05495,Chittenden County,VT,NA,58.19502074688797,NA
05602,Washington County,VT,NA,64.52282157676349,40.64837905236908
05641,Washington County,VT,NA,74.27385892116183,90.27431421446383
05676,Washington County,VT,NA,NA,75.31172069825436
05733,Rutland County,VT,NA,66.90871369294605,NA
05753,Addison County,VT,NA,86.61825726141079,49.50124688279301
20111,Prince William County,VA,NA,66.28630705394191,NA
22102,Fairfax County,VA,NA,71.2655601659751,NA
22314,Alexandria city,VA,35.24229074889868,NA,NA
22443,Westmoreland County,VA,85.31571218795888,NA,NA
22903,Charlottesville city,VA,NA,NA,29.925187032418954
22911,Albemarle County,VA,NA,81.84647302904564,NA
22963,Fluvanna County,VA,NA,NA,38.77805486284289
23059,Henrico County,VA,NA,59.33609958506224,NA
23112,Chesterfield County,VA,NA,26.141078838174277,NA
23139,Powhatan County,VA,NA,43.56846473029046,39.276807980049874
23140,New Kent County,VA,NA,78.63070539419087,NA
23223,Henrico County,VA,4.1116005873715125,NA,NA
23224,Richmond city,VA,NA,59.64730290456431,NA
23227,Henrico County,VA,44.34654919236417,NA,NA
23350,Northampton County,VA,NA,NA,100
23417,Accomack County,VA,95.59471365638767,97.71784232365145,NA
23456,Virginia Beach city,VA,NA,37.655601659751035,NA
23464,Virginia Beach city,VA,NA,3.5269709543568464,1.2468827930174564
23505,Norfolk city,VA,NA,60.26970954356846,NA
23513,Norfolk city,VA,NA,32.15767634854772,47.75561097256858
23666,Hampton city,VA,NA,11.514522821576763,NA
23803,Petersburg city,VA,NA,NA,22.81795511221945
24012,Roanoke city,VA,33.92070484581498,NA,NA
24015,Roanoke city,VA,NA,NA,63.965087281795505
24019,Roanoke County,VA,NA,26.556016597510375,66.20947630922693
24084,Pulaski County,VA,78.12041116005874,NA,NA
24088,Franklin County,VA,NA,NA,96.25935162094763
24112,Henry County,VA,65.93245227606461,NA,NA
24151,Franklin County,VA,47.87077826725404,46.6804979253112,NA
24153,Salem city,VA,NA,NA,72.56857855361596
24171,Patrick County,VA,NA,NA,89.27680798004988
24184,Franklin County,VA,97.65051395007343,NA,93.51620947630923
24256,Dickenson County,VA,78.56093979441997,NA,NA
24361,Washington County,VA,NA,NA,88.02992518703242
24503,Lynchburg city,VA,86.04992657856094,NA,NA
24574,Amherst County,VA,NA,97.9253112033195,NA
98001,King County,WA,NA,NA,53.61596009975062
98002,King County,WA,38.32599118942731,NA,NA
98003,King County,WA,NA,NA,21.94513715710723
98012,Snohomish County,WA,34.948604992657856,NA,NA
98020,Snohomish County,WA,NA,NA,72.6932668329177
98022,King County,WA,NA,22.40663900414938,NA
98023,King County,WA,NA,15.04149377593361,NA
98030,King County,WA,30.54331864904552,NA,NA
98031,King County,WA,43.61233480176212,NA,NA
98034,King County,WA,NA,NA,27.680798004987533
98052,King County,WA,51.248164464023496,NA,NA
98056,King County,WA,NA,52.4896265560166,NA
98058,King County,WA,NA,53.63070539419087,30.798004987531176
98059,King County,WA,NA,28.42323651452282,NA
98072,King County,WA,NA,NA,47.880299251870326
98074,King County,WA,NA,60.788381742738586,NA
98087,Snohomish County,WA,NA,46.36929460580913,NA
98092,King County,WA,NA,17.946058091286307,NA
98101,King County,WA,NA,NA,61.720698254364095
98102,King County,WA,NA,91.28630705394191,NA
98104,King County,WA,75.47723935389133,NA,NA
98105,King County,WA,79.88252569750367,NA,87.90523690773068
98110,Kitsap County,WA,NA,65.14522821576763,NA
98112,King County,WA,56.82819383259912,NA,NA
98115,King County,WA,39.794419970631424,23.7551867219917,NA
98116,King County,WA,NA,57.98755186721992,NA
98118,King County,WA,NA,34.024896265560166,NA
98126,King County,WA,NA,55.91286307053942,NA
98144,King County,WA,NA,63.27800829875518,NA
98146,King County,WA,83.40675477239354,NA,80.0498753117207
98155,King County,WA,NA,NA,33.790523690773064
98168,King County,WA,NA,29.460580912863072,NA
98198,King County,WA,43.906020558002936,NA,NA
98199,King County,WA,92.95154185022027,86.30705394190872,NA
98226,Whatcom County,WA,NA,NA,9.975062344139651
98232,Skagit County,WA,NA,81.53526970954357,NA
98271,Snohomish County,WA,NA,74.89626556016597,NA
98273,Skagit County,WA,83.99412628487518,16.286307053941908,NA
98274,Skagit County,WA,63.1424375917768,39.107883817427386,57.605985037406484
98275,Snohomish County,WA,71.80616740088107,NA,NA
98282,Island County,WA,NA,37.551867219917014,37.281795511221944
98284,Skagit County,WA,NA,85.26970954356847,NA
98292,Snohomish County,WA,NA,NA,76.30922693266832
98296,Snohomish County,WA,48.01762114537445,NA,NA
98338,Pierce County,WA,49.04552129221732,NA,NA
98349,Pierce County,WA,99.70631424375918,NA,NA
98372,Pierce County,WA,59.91189427312775,NA,NA
98373,Pierce County,WA,68.4287812041116,NA,NA
98382,Clallam County,WA,NA,NA,26.55860349127182
98383,Kitsap County,WA,NA,NA,89.15211970074813
98502,Thurston County,WA,84.43465491923642,NA,NA
98584,Mason County,WA,66.37298091042585,86.41078838174275,95.26184538653366
98685,Clark County,WA,NA,63.58921161825726,NA
98816,Chelan County,WA,94.27312775330397,NA,NA
98922,Kittitas County,WA,NA,74.5850622406639,NA
98930,Yakima County,WA,NA,NA,75.81047381546135
98944,Yakima County,WA,NA,NA,86.0349127182045
99141,Stevens County,WA,NA,86.20331950207469,NA
99207,Spokane County,WA,52.863436123348016,NA,NA
99352,Benton County,WA,NA,NA,49.87531172069826
99354,Benton County,WA,NA,75.62240663900414,17.581047381546135
20001,District of Columbia,DC,27.45961820851689,NA,NA
20015,District of Columbia,DC,NA,98.85892116182573,NA
20020,District of Columbia,DC,2.643171806167401,NA,NA
20024,District of Columbia,DC,58.883994126284875,NA,NA
20032,District of Columbia,DC,NA,21.16182572614108,NA
25670,Mingo County,WV,97.06314243759178,NA,NA
26003,Ohio County,WV,NA,NA,1.8703241895261846
26101,Wood County,WV,6.31424375917768,6.016597510373444,14.33915211970075
26150,Wood County,WV,73.86196769456681,NA,NA
26287,Tucker County,WV,NA,82.57261410788381,NA
26501,Monongalia County,WV,22.90748898678414,29.253112033195023,NA
26505,Monongalia County,WV,38.76651982378855,NA,NA
26508,Monongalia County,WV,29.662261380323052,30.70539419087137,NA
26537,Preston County,WV,81.4977973568282,56.84647302904564,NA
26847,Grant County,WV,NA,70.74688796680498,NA
53005,Waukesha County,WI,NA,NA,89.40149625935162
53012,Ozaukee County,WI,NA,NA,80.29925187032418
53024,Ozaukee County,WI,NA,NA,47.256857855361595
53051,Waukesha County,WI,NA,NA,9.476309226932669
53081,Sheboygan County,WI,NA,23.029045643153527,NA
53115,Walworth County,WI,NA,NA,91.52119700748129
53121,Walworth County,WI,NA,29.045643153526974,69.82543640897757
53122,Waukesha County,WI,NA,NA,64.96259351620948
53142,Kenosha County,WI,NA,21.265560165975103,NA
53147,Walworth County,WI,NA,NA,69.9501246882793
53151,Waukesha County,WI,NA,NA,13.216957605985039
53154,Milwaukee County,WI,NA,NA,29.301745635910226
53181,Kenosha County,WI,NA,78.42323651452283,NA
53182,Racine County,WI,NA,55.497925311203325,NA
53186,Waukesha County,WI,NA,NA,27.431421446384043
53190,Walworth County,WI,NA,94.50207468879668,NA
53202,Milwaukee County,WI,NA,41.59751037344399,31.047381546134662
53204,Milwaukee County,WI,NA,35.06224066390041,55.7356608478803
53206,Milwaukee County,WI,NA,NA,36.15960099750624
53207,Milwaukee County,WI,31.42437591776799,NA,NA
53208,Milwaukee County,WI,15.12481644640235,NA,NA
53209,Milwaukee County,WI,2.936857562408223,NA,7.605985037406484
53211,Milwaukee County,WI,NA,NA,51.99501246882793
53212,Milwaukee County,WI,NA,93.04979253112033,36.65835411471321
53213,Milwaukee County,WI,NA,31.016597510373444,NA
53214,Milwaukee County,WI,42.437591776798826,12.033195020746888,20.448877805486283
53215,Milwaukee County,WI,5.580029368575625,NA,NA
53216,Milwaukee County,WI,8.076358296622614,49.27385892116183,NA
53217,Milwaukee County,WI,NA,25.72614107883817,11.970074812967582
53218,Milwaukee County,WI,51.10132158590308,NA,31.546134663341647
53219,Milwaukee County,WI,NA,NA,74.56359102244389
53220,Milwaukee County,WI,NA,NA,42.51870324189526
53221,Milwaukee County,WI,NA,NA,10.099750623441397
53223,Milwaukee County,WI,21.43906020558003,NA,11.097256857855362
53227,Milwaukee County,WI,NA,51.97095435684648,NA
53228,Milwaukee County,WI,NA,71.05809128630706,NA
53511,Rock County,WI,34.65491923641703,75.4149377593361,50.62344139650873
53532,Dane County,WI,NA,80.91286307053942,NA
53536,Rock County,WI,NA,80.8091286307054,NA
53538,Jefferson County,WI,NA,NA,23.316708229426432
53545,Rock County,WI,NA,NA,44.763092269326684
53546,Rock County,WI,NA,25,84.53865336658353
53548,Rock County,WI,NA,71.78423236514523,22.693266832917704
53558,Dane County,WI,NA,71.78423236514523,NA
53562,Dane County,WI,NA,25.311203319502074,NA
53566,Green County,WI,NA,67.63485477178423,NA
53590,Dane County,WI,NA,NA,21.571072319201996
53705,Dane County,WI,NA,NA,56.60847880299252
53711,Dane County,WI,NA,16.182572614107883,11.596009975062344
53714,Dane County,WI,NA,NA,56.733167082294266
53718,Dane County,WI,NA,62.75933609958506,NA
53818,Grant County,WI,NA,82.4688796680498,NA
53821,Crawford County,WI,NA,98.44398340248964,NA
53901,Columbia County,WI,NA,59.95850622406639,NA
53913,Sauk County,WI,69.45668135095447,NA,NA
53916,Dodge County,WI,NA,41.49377593360996,23.690773067331673
53959,Sauk County,WI,NA,70.0207468879668,88.7780548628429
54017,St. Croix County,WI,53.59765051395007,35.58091286307054,NA
54020,Polk County,WI,NA,NA,73.56608478802993
54130,Outagamie County,WI,59.324522760646104,NA,NA
54157,Marinette County,WI,NA,82.67634854771784,NA
54220,Manitowoc County,WI,80.1762114537445,NA,33.54114713216958
54460,Clark County,WI,NA,97.30290456431536,NA
54601,La Crosse County,WI,34.801762114537446,1.6597510373443984,10.598503740648379
54603,La Crosse County,WI,NA,NA,77.18204488778055
54615,Jackson County,WI,NA,71.2655601659751,NA
54650,La Crosse County,WI,NA,54.668049792531114,79.80049875311721
54660,Monroe County,WI,NA,NA,86.40897755610972
54669,La Crosse County,WI,NA,73.02904564315352,92.51870324189527
54701,Eau Claire County,WI,73.12775330396477,NA,NA
54728,Barron County,WI,NA,NA,83.66583541147132
54730,Dunn County,WI,NA,77.17842323651453,NA
54751,Dunn County,WI,NA,26.6597510373444,NA
54755,Buffalo County,WI,90.60205580029368,70.4356846473029,99.00249376558602
54812,Barron County,WI,NA,NA,87.1571072319202
54822,Barron County,WI,NA,79.149377593361,98.6284289276808
54848,Rusk County,WI,NA,NA,85.66084788029926
54868,Barron County,WI,NA,NA,57.85536159600998
54880,Douglas County,WI,NA,3.941908713692946,50.49875311720699
54904,Winnebago County,WI,NA,85.47717842323651,NA
54986,Winnebago County,WI,100,NA,NA
82633,Converse County,WY,96.1820851688693,87.34439834024896,73.19201995012469
82801,Sheridan County,WY,70.33773861967695,NA,NA
