ZipCode,county,state,Adult,Retirement,Geriatric
35125,St. Clair County,AL,64.72602739726028,NA,NA
35126,Jefferson County,AL,NA,49.85163204747774,NA
35173,Jefferson County,AL,NA,NA,40.772532188841204
36093,Elmore County,AL,81.5068493150685,NA,NA
36111,Montgomery County,AL,69.86301369863014,NA,88.8412017167382
36301,Houston County,AL,NA,78.93175074183976,NA
36867,Russell County,AL,NA,NA,90.55793991416309
99611,Kenai Peninsula Borough,AK,NA,48.07121661721068,84.97854077253218
99669,Kenai Peninsula Borough,AK,79.1095890410959,95.25222551928783,76.82403433476395
99801,Juneau City and Borough,AK,59.24657534246576,NA,99.57081545064378
99901,Ketchikan Gateway Borough,AK,NA,53.70919881305638,NA
85006,Maricopa County,AZ,NA,91.3946587537092,NA
85007,Maricopa County,AZ,NA,67.35905044510386,NA
85008,Maricopa County,AZ,NA,NA,92.27467811158799
85019,Maricopa County,AZ,92.8082191780822,NA,NA
85021,Maricopa County,AZ,21.232876712328768,NA,NA
85128,Pinal County,AZ,50.68493150684932,NA,NA
85132,Pinal County,AZ,NA,NA,69.09871244635193
85138,Pinal County,AZ,49.65753424657534,NA,NA
85201,Maricopa County,AZ,NA,35.60830860534125,NA
85301,Maricopa County,AZ,NA,58.753709198813056,NA
85302,Maricopa County,AZ,36.3013698630137,NA,NA
85335,Maricopa County,AZ,46.57534246575342,NA,NA
85353,Maricopa County,AZ,71.23287671232876,NA,NA
85552,Graham County,AZ,NA,NA,87.98283261802575
85634,Pima County,AZ,63.6986301369863,NA,NA
85648,Santa Cruz County,AZ,NA,NA,83.2618025751073
85706,Pima County,AZ,NA,13.353115727002967,NA
85710,Pima County,AZ,NA,52.52225519287834,NA
85713,Pima County,AZ,11.643835616438356,NA,NA
85716,Pima County,AZ,NA,28.18991097922849,NA
85746,Pima County,AZ,NA,83.38278931750742,NA
85750,Pima County,AZ,73.63013698630137,NA,NA
86025,Navajo County,AZ,96.57534246575342,NA,NA
86034,Navajo County,AZ,NA,96.439169139465875,NA
86053,Coconino County,AZ,96.23287671232876,NA,NA
86507,Apache County,AZ,NA,98.21958456973294,NA
71832,Sevier County,AR,NA,75.66765578635015,NA
72113,Pulaski County,AR,NA,45.99406528189911,NA
72207,Pulaski County,AR,NA,79.22848664688428,NA
72454,Clay County,AR,NA,NA,67.81115879828327
72936,Sebastian County,AR,NA,NA,96.99570815450643
90032,Los Angeles County,CA,NA,NA,40.772532188841204
90046,Los Angeles County,CA,60.61643835616438,NA,NA
90061,Los Angeles County,CA,78.08219178082192,NA,NA
90277,Los Angeles County,CA,62.328767123287676,NA,NA
90291,Los Angeles County,CA,NA,59.64391691394659,NA
90640,Los Angeles County,CA,84.58904109589042,NA,NA
90660,Los Angeles County,CA,NA,37.0919881305638,NA
90720,Orange County,CA,NA,NA,58.36909871244635
90745,Los Angeles County,CA,86.64383561643835,NA,NA
91205,Los Angeles County,CA,NA,NA,54.077253218884124
91387,Los Angeles County,CA,NA,42.13649851632047,NA
91405,Los Angeles County,CA,NA,NA,70.3862660944206
91709,San Bernardino County,CA,44.86301369863014,NA,38.62660944206009
91730,San Bernardino County,CA,31.506849315068493,NA,NA
91733,Los Angeles County,CA,72.6027397260274,NA,NA
91911,San Diego County,CA,NA,22.551928783382788,NA
92101,San Diego County,CA,NA,14.836795252225517,36.48068669527897
92111,San Diego County,CA,63.013698630136986,NA,NA
92324,San Bernardino County,CA,NA,41.839762611275965,NA
92335,San Bernardino County,CA,NA,49.554896142433236,NA
92503,Riverside County,CA,30.82191780821918,NA,NA
92507,Riverside County,CA,NA,70.91988130563797,NA
92571,Riverside County,CA,51.02739726027398,NA,NA
92587,Riverside County,CA,77.3972602739726,NA,NA
92604,Orange County,CA,83.56164383561644,NA,NA
92683,Orange County,CA,57.1917808219178,24.03560830860534,NA
93003,Ventura County,CA,NA,24.92581602373887,NA
93035,Ventura County,CA,74.31506849315068,NA,NA
93036,Ventura County,CA,NA,49.85163204747774,NA
93306,Kern County,CA,NA,NA,64.8068669527897
93454,Santa Barbara County,CA,NA,46.88427299703264,NA
94015,San Mateo County,CA,NA,73.29376854599407,NA
94025,San Mateo County,CA,88.6986301369863,NA,NA
94044,San Mateo County,CA,NA,29.970326409495552,NA
94066,San Mateo County,CA,NA,16.023738872403563,NA
94080,San Mateo County,CA,NA,58.160237388724035,NA
94085,Santa Clara County,CA,87.32876712328768,NA,NA
94089,Santa Clara County,CA,NA,80.71216617210682,NA
94109,San Francisco County,CA,39.04109589041096,NA,NA
94115,San Francisco County,CA,58.56164383561644,NA,NA
94116,San Francisco County,CA,NA,NA,11.587982832618025
94117,San Francisco County,CA,47.6027397260274,NA,NA
94118,San Francisco County,CA,NA,NA,21.45922746781116
94303,San Mateo County,CA,NA,64.39169139465875,27.467811158798284
94520,Contra Costa County,CA,71.91780821917808,NA,NA
94521,Contra Costa County,CA,NA,NA,23.605150214592275
94526,Contra Costa County,CA,NA,78.04154302670622,NA
94538,Alameda County,CA,NA,44.80712166172107,NA
94539,Alameda County,CA,NA,56.97329376854599,NA
94565,Contra Costa County,CA,NA,12.462908011869436,NA
94571,Solano County,CA,NA,84.86646884272997,NA
94574,Napa County,CA,99.31506849315068,NA,NA
94602,Alameda County,CA,NA,60.83086053412463,NA
94610,Alameda County,CA,NA,88.72403560830861,NA
95020,Santa Clara County,CA,44.178082191780824,NA,NA
95037,Santa Clara County,CA,64.38356164383562,NA,NA
95051,Santa Clara County,CA,NA,53.11572700296736,NA
95110,Santa Clara County,CA,85.95890410958904,NA,NA
95111,Santa Clara County,CA,NA,NA,64.37768240343348
95120,Santa Clara County,CA,NA,51.92878338278932,NA
95123,Santa Clara County,CA,75.34246575342466,NA,NA
95207,San Joaquin County,CA,NA,31.750741839762615,NA
95388,Merced County,CA,97.26027397260275,NA,NA
95632,Sacramento County,CA,NA,NA,56.22317596566524
95688,Solano County,CA,71.57534246575342,NA,NA
95747,Placer County,CA,51.71232876712328,NA,NA
95762,El Dorado County,CA,NA,37.98219584569733,37.76824034334764
95816,Sacramento County,CA,83.21917808219177,NA,NA
95831,Sacramento County,CA,NA,50.74183976261127,NA
80016,Arapahoe County,CO,35.273972602739725,NA,NA
80027,Boulder County,CO,NA,54.3026706231454,NA
80239,Denver County,CO,NA,NA,74.67811158798283
80526,Larimer County,CO,NA,35.311572700296736,NA
80534,Weld County,CO,NA,NA,84.54935622317596
80634,Weld County,CO,43.49315068493151,NA,NA
80904,El Paso County,CO,NA,63.20474777448071,NA
81101,Alamosa County,CO,NA,56.083086053412465,NA
06085,Hartford County,CT,NA,98.81305637982196,NA
06108,Hartford County,CT,41.78082191780822,NA,NA
06516,New Haven County,CT,11.986301369863012,NA,NA
06610,Fairfield County,CT,NA,57.86350148367953,NA
06614,Fairfield County,CT,NA,35.01483679525222,NA
06615,Fairfield County,CT,NA,59.940652818991104,NA
06790,Litchfield County,CT,NA,2.967359050445104,NA
06850,Fairfield County,CT,NA,70.62314540059347,NA
19703,New Castle County,DE,NA,NA,66.52360515021459
19720,New Castle County,DE,NA,4.451038575667656,NA
32086,St. Johns County,FL,NA,NA,12.875536480686694
32536,Okaloosa County,FL,NA,NA,40.343347639484975
32724,Volusia County,FL,NA,NA,24.892703862660944
32730,Seminole County,FL,97.6027397260274,NA,NA
32825,Orange County,FL,43.15068493150685,NA,NA
32976,Brevard County,FL,NA,NA,18.88412017167382
33150,Miami-Dade County,FL,NA,NA,97.42489270386267
33161,Miami-Dade County,FL,NA,47.774480712166174,NA
33183,Miami-Dade County,FL,NA,NA,36.48068669527897
33437,Palm Beach County,FL,NA,NA,30.042918454935624
33909,Lee County,FL,NA,44.510385756676556,NA
34103,Collier County,FL,NA,65.8753709198813,NA
34232,Sarasota County,FL,56.16438356164384,NA,NA
34652,Pasco County,FL,NA,55.19287833827893,NA
34731,Lake County,FL,NA,81.89910979228486,NA
34982,St. Lucie County,FL,NA,38.27893175074184,NA
34983,St. Lucie County,FL,NA,31.15727002967359,NA
34997,Martin County,FL,NA,NA,44.20600858369099
30028,Forsyth County,GA,66.43835616438356,NA,NA
30147,Floyd County,GA,NA,NA,97.85407725321889
30349,Fulton County,GA,14.04109589041096,NA,NA
30747,Chattooga County,GA,NA,NA,63.519313304721024
31204,Bibb County,GA,NA,NA,35.622317596566525
31601,Lowndes County,GA,36.986301369863014,NA,NA
31909,Muscogee County,GA,NA,28.783382789317507,NA
96749,Hawaii County,HI,NA,72.40356083086054,NA
96789,Honolulu County,HI,33.9041095890411,NA,NA
96818,Honolulu County,HI,NA,67.95252225519289,NA
83607,Canyon County,ID,NA,32.93768545994065,NA
83642,Ada County,ID,NA,NA,9.44206008583691
83651,Canyon County,ID,NA,NA,41.63090128755365
83687,Canyon County,ID,34.24657534246575,80.41543026706232,NA
83704,Ada County,ID,26.71232876712329,NA,NA
83706,Ada County,ID,40.06849315068493,NA,NA
83713,Ada County,ID,NA,20.77151335311573,NA
60012,McHenry County,IL,NA,62.01780415430267,56.65236051502146
60015,Lake County,IL,NA,NA,18.025751072961373
60031,Lake County,IL,NA,NA,46.78111587982833
60062,Cook County,IL,NA,NA,61.37339055793991
60091,Cook County,IL,77.73972602739725,NA,NA
60093,Cook County,IL,NA,NA,25.75107296137339
60101,DuPage County,IL,38.6986301369863,NA,NA
60126,DuPage County,IL,17.80821917808219,NA,NA
60134,Kane County,IL,53.42465753424658,NA,NA
60137,DuPage County,IL,NA,32.047477744807125,NA
60169,Cook County,IL,NA,54.89614243323442,NA
60178,DeKalb County,IL,84.93150684931507,NA,NA
60193,Cook County,IL,49.31506849315068,41.54302670623146,NA
60302,Cook County,IL,45.20547945205479,18.991097922848667,NA
60411,Cook County,IL,NA,15.727002967359049,NA
60419,Cook County,IL,NA,37.68545994065282,NA
60443,Cook County,IL,NA,39.762611275964396,NA
60515,DuPage County,IL,NA,36.49851632047478,NA
60563,DuPage County,IL,NA,NA,24.463519313304722
60621,Cook County,IL,NA,34.42136498516321,NA
60623,Cook County,IL,NA,NA,60.08583690987125
60624,Cook County,IL,NA,27.89317507418398,NA
60634,Cook County,IL,NA,NA,10.300429184549357
60636,Cook County,IL,NA,NA,52.78969957081545
60644,Cook County,IL,NA,18.397626112759642,16.30901287553648
60652,Cook County,IL,39.726027397260275,84.27299703264094,NA
60657,Cook County,IL,NA,18.694362017804153,NA
60827,Cook County,IL,NA,81.30563798219585,NA
61021,Lee County,IL,NA,NA,70.81545064377683
61032,Stephenson County,IL,84.24657534246576,NA,NA
61071,Whiteside County,IL,NA,79.82195845697329,NA
61081,Whiteside County,IL,NA,NA,67.38197424892704
61342,LaSalle County,IL,NA,75.96439169139467,NA
61554,Tazewell County,IL,NA,NA,53.21888412017167
61802,Champaign County,IL,NA,NA,13.733905579399142
61832,Vermilion County,IL,NA,42.433234421364986,NA
62088,Macoupin County,IL,NA,86.35014836795251,NA
62301,Adams County,IL,NA,NA,82.83261802575107
62305,Adams County,IL,NA,94.06528189910979,NA
62948,Williamson County,IL,NA,NA,55.36480686695279
46203,Marion County,IN,15.068493150684931,NA,NA
46208,Marion County,IN,NA,88.13056379821958,NA
46231,Marion County,IN,NA,NA,88.41201716738198
46236,Marion County,IN,NA,77.74480712166172,NA
46312,Lake County,IN,NA,NA,26.180257510729614
46342,Lake County,IN,10.95890410958904,NA,NA
46383,Porter County,IN,NA,7.121661721068249,NA
46530,St. Joseph County,IN,NA,NA,53.648068669527895
46806,Allen County,IN,NA,40.0593471810089,NA
46975,Fulton County,IN,NA,45.6973293768546,NA
47330,Wayne County,IN,NA,85.16320474777447,NA
47362,Henry County,IN,NA,16.913946587537094,NA
47371,Jay County,IN,63.35616438356164,NA,NA
47403,Monroe County,IN,68.83561643835617,NA,NA
50023,Polk County,IA,NA,91.98813056379822,NA
50138,Marion County,IA,NA,NA,25.321888412017167
50317,Polk County,IA,19.863013698630137,NA,NA
50401,Cerro Gordo County,IA,NA,40.94955489614243,NA
50461,Mitchell County,IA,NA,NA,79.39914163090128
51503,Pottawattamie County,IA,14.726027397260275,NA,NA
51537,Shelby County,IA,74.65753424657534,NA,NA
52172,Allamakee County,IA,NA,89.61424332344214,NA
52241,Johnson County,IA,NA,61.12759643916914,NA
52328,Linn County,IA,100,NA,NA
52402,Linn County,IA,30.136986301369863,NA,NA
52577,Mahaska County,IA,NA,44.21364985163205,NA
52601,Des Moines County,IA,67.8082191780822,NA,NA
66061,Johnson County,KS,31.164383561643838,NA,NA
66739,Cherokee County,KS,95.2054794520548,NA,NA
40004,Nelson County,KY,29.45205479452055,NA,NA
40330,Mercer County,KY,NA,NA,39.91416309012876
40351,Rowan County,KY,78.42465753424658,NA,NA
40502,Fayette County,KY,93.4931506849315,NA,NA
40831,Harlan County,KY,78.76712328767124,NA,NA
42301,Daviess County,KY,NA,NA,61.80257510729614
42303,Daviess County,KY,16.78082191780822,NA,NA
42347,Ohio County,KY,NA,93.76854599406528,NA
70058,Jefferson Parish,LA,NA,17.210682492581604,NA
70115,Orleans Parish,LA,NA,NA,65.66523605150213
70118,Orleans Parish,LA,NA,56.676557863501486,NA
70126,Orleans Parish,LA,NA,25.519287833827892,NA
70127,Orleans Parish,LA,12.67123287671233,NA,NA
70128,Orleans Parish,LA,NA,33.531157270029674,NA
70373,Lafourche Parish,LA,83.9041095890411,NA,NA
70437,St. Tammany Parish,LA,NA,62.31454005934718,NA
70452,St. Tammany Parish,LA,NA,34.718100890207715,NA
70461,St. Tammany Parish,LA,26.36986301369863,NA,NA
70503,Lafayette Parish,LA,NA,27.299703264094955,NA
70508,Lafayette Parish,LA,NA,24.33234421364985,NA
70769,Ascension Parish,LA,17.123287671232877,NA,NA
70791,East Baton Rouge Parish,LA,NA,NA,60.94420600858369
70815,East Baton Rouge Parish,LA,25.684931506849317,NA,NA
71055,Webster Parish,LA,57.87671232876712,NA,NA
71202,Ouachita Parish,LA,NA,29.673590504451035,NA
71220,Morehouse Parish,LA,28.424657534246577,NA,NA
03904,York County,ME,NA,NA,57.08154506437768
04009,Cumberland County,ME,NA,52.22551928783383,NA
04086,Sagadahoc County,ME,NA,53.41246290801187,NA
04105,Cumberland County,ME,NA,78.63501483679525,NA
04210,Androscoggin County,ME,NA,14.243323442136498,NA
04250,Androscoggin County,ME,NA,94.3620178041543,NA
04276,Oxford County,ME,NA,91.0979228486647,NA
04330,Kennebec County,ME,NA,10.682492581602373,NA
04401,Penobscot County,ME,6.164383561643835,NA,NA
04468,Penobscot County,ME,92.12328767123287,NA,NA
04572,Lincoln County,ME,NA,81.30563798219585,NA
04736,Aroostook County,ME,61.64383561643836,NA,NA
04742,Aroostook County,ME,NA,66.76557863501483,77.25321888412017
04785,Aroostook County,ME,NA,NA,98.71244635193133
04841,Knox County,ME,79.7945205479452,NA,NA
04901,Kennebec County,ME,NA,NA,42.91845493562232
04976,Somerset County,ME,NA,NA,16.738197424892704
20712,Prince George's County,MD,97.94520547945206,NA,NA
20721,Prince George's County,MD,80.47945205479452,NA,NA
21210,Baltimore city,MD,NA,69.43620178041543,NA
21218,Baltimore city,MD,NA,NA,7.725321888412018
01475,Worcester County,MA,37.67123287671233,NA,NA
01610,Worcester County,MA,0.684931506849315,NA,NA
01742,Middlesex County,MA,NA,38.87240356083086,NA
01754,Middlesex County,MA,NA,90.20771513353115,NA
01760,Middlesex County,MA,18.15068493150685,NA,NA
01801,Middlesex County,MA,NA,NA,51.931330472103
01803,Middlesex County,MA,NA,6.528189910979229,NA
01843,Essex County,MA,NA,80.1186943620178,NA
01890,Middlesex County,MA,NA,NA,12.017167381974248
01902,Essex County,MA,8.904109589041095,NA,NA
01905,Essex County,MA,4.10958904109589,NA,NA
01915,Essex County,MA,22.26027397260274,NA,NA
01923,Essex County,MA,NA,NA,45.92274678111588
01929,Essex County,MA,96.91780821917808,NA,NA
01970,Essex County,MA,NA,0.8902077151335311,NA
02021,Norfolk County,MA,42.465753424657535,NA,NA
02114,Suffolk County,MA,NA,71.2166172106825,NA
02115,Suffolk County,MA,NA,5.341246290801187,NA
02118,Suffolk County,MA,5.821917808219178,0.5934718100890208,73.8197424892704
02119,Suffolk County,MA,NA,4.747774480712167,NA
02121,Suffolk County,MA,NA,8.902077151335313,6.437768240343347
02122,Suffolk County,MA,4.4520547945205475,1.483679525222552,NA
02124,Suffolk County,MA,NA,3.5608308605341246,63.94849785407726
02126,Suffolk County,MA,20.89041095890411,NA,NA
02129,Suffolk County,MA,NA,NA,96.13733905579399
02130,Suffolk County,MA,3.4246575342465753,48.6646884272997,3.862660944206009
02131,Suffolk County,MA,NA,72.70029673590504,59.227467811158796
02134,Suffolk County,MA,20.54794520547945,NA,NA
02136,Suffolk County,MA,22.945205479452056,6.824925816023739,NA
02138,Middlesex County,MA,NA,NA,12.446351931330472
02141,Middlesex County,MA,40.41095890410959,NA,NA
02143,Middlesex County,MA,NA,NA,47.21030042918455
02144,Middlesex County,MA,NA,NA,80.25751072961373
02148,Middlesex County,MA,10.273972602739725,NA,1.2875536480686696
02149,Middlesex County,MA,NA,NA,2.575107296137339
02150,Suffolk County,MA,NA,64.09495548961425,NA
02151,Suffolk County,MA,NA,NA,15.879828326180256
02152,Suffolk County,MA,NA,12.166172106824925,NA
02155,Middlesex County,MA,3.0821917808219177,NA,NA
02169,Norfolk County,MA,NA,NA,10.72961373390558
02170,Norfolk County,MA,NA,40.35608308605341,NA
02176,Middlesex County,MA,13.013698630136986,NA,NA
02186,Norfolk County,MA,NA,NA,19.742489270386265
02364,Plymouth County,MA,82.53424657534246,NA,NA
02368,Norfolk County,MA,NA,NA,22.317596566523605
02451,Middlesex County,MA,NA,23.14540059347181,NA
02453,Middlesex County,MA,NA,19.584569732937684,NA
02458,Middlesex County,MA,56.849315068493155,NA,NA
02460,Middlesex County,MA,68.4931506849315,NA,NA
02474,Middlesex County,MA,NA,27.002967359050444,NA
02554,Nantucket County,MA,44.52054794520548,NA,NA
02571,Plymouth County,MA,23.63013698630137,NA,NA
02703,Bristol County,MA,2.73972602739726,NA,NA
02717,Bristol County,MA,NA,93.17507418397626,NA
02720,Bristol County,MA,0,NA,NA
02743,Bristol County,MA,64.04109589041096,NA,NA
48026,Macomb County,MI,NA,NA,46.3519313304721
48051,Macomb County,MI,65.06849315068493,NA,NA
48067,Oakland County,MI,47.94520547945205,NA,NA
48101,Wayne County,MI,NA,NA,82.40343347639485
48103,Washtenaw County,MI,25.34246575342466,NA,NA
48108,Washtenaw County,MI,48.28767123287671,NA,NA
48111,Wayne County,MI,NA,34.124629080118694,NA
48126,Wayne County,MI,NA,NA,14.592274678111588
48127,Wayne County,MI,NA,NA,49.78540772532189
48135,Wayne County,MI,34.93150684931507,NA,NA
48166,Monroe County,MI,79.45205479452055,NA,NA
48180,Wayne County,MI,7.876712328767123,NA,NA
48184,Wayne County,MI,26.027397260273972,NA,NA
48185,Wayne County,MI,NA,10.979228486646884,NA
48197,Washtenaw County,MI,7.534246575342466,NA,NA
48202,Wayne County,MI,NA,84.56973293768546,NA
48204,Wayne County,MI,NA,NA,93.56223175965665
48207,Wayne County,MI,29.794520547945208,NA,NA
48212,Wayne County,MI,NA,NA,81.54506437768241
48215,Wayne County,MI,NA,NA,66.09442060085837
48219,Wayne County,MI,35.61643835616438,3.857566765578635,NA
48228,Wayne County,MI,4.794520547945205,NA,NA
48237,Oakland County,MI,33.21917808219178,NA,NA
48342,Oakland County,MI,53.76712328767124,NA,NA
48503,Genesee County,MI,28.767123287671232,NA,NA
48843,Livingston County,MI,21.91780821917808,NA,NA
48854,Ingham County,MI,59.589041095890416,NA,NA
49006,Kalamazoo County,MI,59.93150684931506,NA,NA
49046,Barry County,MI,NA,NA,74.2489270386266
49048,Kalamazoo County,MI,28.08219178082192,NA,NA
49330,Kent County,MI,91.43835616438356,NA,NA
49424,Ottawa County,MI,NA,82.19584569732937,NA
49441,Muskegon County,MI,NA,5.637982195845697,NA
49451,Muskegon County,MI,91.78082191780823,NA,NA
49509,Kent County,MI,23.28767123287671,NA,NA
49721,Cheboygan County,MI,NA,NA,34.763948497854074
49735,Otsego County,MI,NA,23.44213649851632,NA
49802,Dickinson County,MI,NA,87.24035608308606,NA
49930,Houghton County,MI,NA,NA,58.798283261802574
49931,Houghton County,MI,NA,71.81008902077151,NA
55008,Isanti County,MN,NA,55.48961424332344,NA
55016,Washington County,MN,NA,61.72106824925816,NA
55038,Washington County,MN,NA,93.47181008902076,NA
55051,Kanabec County,MN,67.46575342465754,NA,NA
55060,Steele County,MN,NA,NA,71.67381974248927
55109,Ramsey County,MN,54.45205479452054,NA,NA
55350,McLeod County,MN,NA,32.34421364985163,NA
55372,Scott County,MN,NA,NA,89.69957081545064
55407,Hennepin County,MN,NA,33.82789317507419,NA
55423,Hennepin County,MN,NA,41.246290801186944,NA
55744,Itasca County,MN,NA,NA,47.63948497854077
55792,St. Louis County,MN,NA,65.28189910979229,NA
55810,St. Louis County,MN,NA,77.1513353115727,NA
55811,St. Louis County,MN,NA,NA,48.497854077253216
55912,Mower County,MN,NA,5.044510385756676,NA
56007,Freeborn County,MN,55.13698630136986,NA,NA
56073,Brown County,MN,NA,NA,3.004291845493562
56081,Watonwan County,MN,NA,NA,38.197424892703864
56303,Stearns County,MN,NA,NA,45.06437768240343
56308,Douglas County,MN,NA,NA,57.5107296137339
56320,Stearns County,MN,NA,NA,98.28326180257511
56334,Pope County,MN,NA,75.07418397626114,80.68669527896995
56345,Morrison County,MN,NA,NA,42.06008583690987
56379,Benton County,MN,NA,NA,99.14163090128756
56401,Crow Wing County,MN,NA,NA,27.038626609442062
56431,Aitkin County,MN,93.15068493150685,42.72997032640949,54.506437768240346
56472,Crow Wing County,MN,NA,NA,85.40772532188842
56501,Becker County,MN,NA,28.486646884272997,NA
56515,Otter Tail County,MN,NA,NA,57.93991416309014
56601,Beltrami County,MN,NA,NA,1.7167381974248928
38801,Lee County,MS,NA,NA,84.12017167381974
38824,Prentiss County,MS,90.06849315068493,NA,NA
38921,Tallahatchie County,MS,NA,69.43620178041543,NA
39307,Lauderdale County,MS,NA,NA,59.65665236051502
39465,Forrest County,MS,NA,76.55786350148368,NA
39525,Hancock County,MS,NA,NA,33.90557939914164
63136,St. Louis County,MO,11.986301369863012,NA,NA
63301,St. Charles County,MO,NA,NA,23.17596566523605
63303,St. Charles County,MO,NA,NA,8.583690987124463
63670,Ste. Genevieve County,MO,65.75342465753424,NA,NA
64024,Clay County,MO,73.28767123287672,NA,NA
64050,Jackson County,MO,NA,21.66172106824926,NA
64131,Jackson County,MO,24.65753424657534,NA,NA
64601,Livingston County,MO,81.84931506849315,NA,NA
64633,Carroll County,MO,NA,97.62611275964392,NA
64683,Grundy County,MO,NA,NA,87.1244635193133
64701,Cass County,MO,NA,NA,94.4206008583691
65202,Boone County,MO,18.835616438356166,NA,NA
65738,Greene County,MO,70.2054794520548,NA,NA
59270,Richland County,MT,NA,NA,85.83690987124464
59601,Lewis and Clark County,MT,NA,22.8486646884273,NA
59803,Missoula County,MT,98.97260273972603,NA,NA
59840,Ravalli County,MT,NA,NA,37.33905579399141
68008,Washington County,NE,89.04109589041096,NA,NA
68110,Douglas County,NE,NA,NA,89.27038626609442
68333,Saline County,NE,NA,92.28486646884274,NA
68434,Seward County,NE,NA,NA,65.23605150214593
68516,Lancaster County,NE,NA,NA,68.24034334763948
68826,Merrick County,NE,NA,88.4272997032641,NA
89511,Washoe County,NV,NA,29.080118694362017,NA
03275,Merrimack County,NH,80.82191780821918,NA,NA
03431,Cheshire County,NH,40.75342465753425,30.267062314540063,49.35622317596567
03755,Grafton County,NH,NA,NA,55.793991416309005
07017,Essex County,NJ,6.8493150684931505,NA,NA
07035,Morris County,NJ,69.17808219178082,NA,NA
07410,Bergen County,NJ,82.1917808219178,NA,NA
07719,Monmouth County,NJ,50,NA,NA
07960,Morris County,NJ,NA,NA,21.45922746781116
08030,Camden County,NJ,89.38356164383562,NA,NA
08081,Camden County,NJ,5.136986301369863,NA,NA
08611,Mercer County,NJ,10.616438356164384,33.23442136498516,NA
08759,Ocean County,NJ,NA,NA,0
08807,Somerset County,NJ,41.43835616438356,NA,NA
87108,Bernalillo County,NM,NA,7.71513353115727,NA
87111,Bernalillo County,NM,NA,16.61721068249258,5.150214592274678
87112,Bernalillo County,NM,24.315068493150687,14.540059347181009,29.184549356223176
87123,Bernalillo County,NM,68.15068493150685,NA,NA
87144,Sandoval County,NM,NA,24.629080118694365,43.776824034334766
87325,McKinley County,NM,93.83561643835617,NA,NA
88210,Eddy County,NM,NA,61.42433234421365,NA
88310,Otero County,NM,NA,5.934718100890208,NA
10001,New York County,NY,21.575342465753426,NA,NA
10009,New York County,NY,45.54794520547945,6.231454005934718,NA
10023,New York County,NY,58.21917808219178,NA,NA
10024,New York County,NY,NA,26.409495548961427,NA
10025,New York County,NY,NA,17.50741839762611,NA
10029,New York County,NY,NA,7.121661721068249,NA
10032,New York County,NY,NA,11.572700296735905,7.296137339055794
10035,New York County,NY,NA,38.57566765578635,NA
10036,New York County,NY,NA,86.64688427299704,NA
10309,Richmond County,NY,65.75342465753424,NA,NA
10452,Bronx County,NY,1.7123287671232876,NA,NA
10456,Bronx County,NY,NA,4.154302670623145,NA
10457,Bronx County,NY,1.0273972602739725,NA,NA
10458,Bronx County,NY,NA,9.495548961424333,NA
10461,Bronx County,NY,20.205479452054796,NA,NA
10467,Bronx County,NY,NA,0,NA
10468,Bronx County,NY,NA,NA,51.50214592274678
10704,Westchester County,NY,NA,82.7893175074184,NA
10804,Westchester County,NY,NA,NA,73.39055793991416
10970,Rockland County,NY,91.0958904109589,NA,NA
11208,Kings County,NY,NA,1.7804154302670623,NA
11210,Kings County,NY,NA,NA,32.18884120171674
11225,Kings County,NY,NA,NA,30.90128755364807
11229,Kings County,NY,NA,23.738872403560833,NA
11234,Kings County,NY,NA,NA,44.63519313304721
11238,Kings County,NY,32.87671232876712,NA,NA
11417,Queens County,NY,NA,89.02077151335311,NA
11420,Queens County,NY,NA,36.795252225519285,NA
11550,Nassau County,NY,19.17808219178082,NA,NA
11590,Nassau County,NY,NA,32.640949554896146,NA
11691,Queens County,NY,14.383561643835616,NA,NA
11692,Queens County,NY,NA,70.02967359050444,NA
11784,Suffolk County,NY,NA,NA,45.493562231759654
11790,Suffolk County,NY,NA,87.53709198813057,NA
12043,Schoharie County,NY,NA,70.32640949554896,NA
12831,Saratoga County,NY,55.821917808219176,NA,NA
13045,Cortland County,NY,32.19178082191781,NA,NA
13066,Onondaga County,NY,NA,54.59940652818991,NA
13204,Onondaga County,NY,NA,NA,78.96995708154506
13206,Onondaga County,NY,35.95890410958904,NA,NA
13219,Onondaga County,NY,85.27397260273972,NA,NA
13357,Herkimer County,NY,47.26027397260274,NA,NA
13480,Oneida County,NY,NA,92.87833827893175,NA
13694,St. Lawrence County,NY,99.65753424657534,NA,NA
13865,Broome County,NY,NA,NA,68.6695278969957
14120,Niagara County,NY,9.931506849315069,NA,NA
14211,Erie County,NY,NA,49.25816023738873,NA
14215,Erie County,NY,5.47945205479452,11.572700296735905,NA
14224,Erie County,NY,NA,13.056379821958458,NA
14428,Monroe County,NY,NA,56.37982195845698,NA
14517,Livingston County,NY,NA,94.95548961424333,NA
14551,Wayne County,NY,58.9041095890411,NA,NA
14559,Monroe County,NY,NA,25.222551928783382,NA
14580,Monroe County,NY,2.3972602739726026,NA,NA
14612,Monroe County,NY,6.506849315068493,NA,NA
14760,Cattaraugus County,NY,16.095890410958905,NA,NA
14895,Allegany County,NY,39.38356164383562,NA,NA
14901,Chemung County,NY,42.12328767123288,NA,NA
27007,Surry County,NC,NA,100,NA
27104,Forsyth County,NC,NA,9.792284866468842,NA
27105,Forsyth County,NC,NA,NA,9.012875536480687
27253,Alamance County,NC,NA,NA,30.042918454935624
27360,Davidson County,NC,9.246575342465754,NA,NA
27503,Durham County,NC,NA,99.70326409495549,NA
27713,Durham County,NC,NA,22.255192878338278,NA
27909,Pasquotank County,NC,22.602739726027394,NA,NA
27962,Washington County,NC,NA,79.52522255192879,NA
28202,Mecklenburg County,NC,95.54794520547945,NA,NA
28208,Mecklenburg County,NC,15.41095890410959,NA,NA
28374,Moore County,NC,NA,51.33531157270029,NA
28741,Macon County,NC,NA,86.05341246290801,NA
28768,Transylvania County,NC,NA,NA,91.84549356223177
58201,Grand Forks County,ND,94.52054794520548,NA,NA
58554,Morton County,ND,NA,NA,11.158798283261802
58701,Ward County,ND,NA,NA,15.450643776824036
58801,Williams County,ND,NA,NA,43.34763948497854
43113,Pickaway County,OH,NA,NA,9.871244635193133
43213,Franklin County,OH,NA,21.958456973293767,NA
43224,Franklin County,OH,NA,19.881305637982198,NA
43701,Muskingum County,OH,2.054794520547945,NA,NA
44001,Lorain County,OH,NA,45.40059347181009,NA
44024,Geauga County,OH,NA,NA,14.163090128755366
44039,Lorain County,OH,NA,NA,27.896995708154503
44041,Ashtabula County,OH,52.3972602739726,NA,NA
44052,Lorain County,OH,8.21917808219178,2.6706231454005933,NA
44053,Lorain County,OH,NA,NA,31.330472103004293
44054,Lorain County,OH,NA,39.46587537091988,NA
44074,Lorain County,OH,NA,75.37091988130564,NA
44087,Summit County,OH,NA,NA,3.4334763948497855
44095,Lake County,OH,NA,NA,5.579399141630901
44105,Cuyahoga County,OH,1.36986301369863,0.2967359050445104,NA
44109,Cuyahoga County,OH,0.3424657534246575,NA,NA
44111,Cuyahoga County,OH,NA,3.2640949554896146,NA
44112,Cuyahoga County,OH,NA,NA,17.59656652360515
44113,Cuyahoga County,OH,13.356164383561644,NA,NA
44118,Cuyahoga County,OH,NA,15.133531157270031,NA
44119,Cuyahoga County,OH,31.84931506849315,NA,NA
44120,Cuyahoga County,OH,8.561643835616438,NA,NA
44121,Cuyahoga County,OH,15.753424657534246,NA,NA
44125,Cuyahoga County,OH,NA,13.94658753709199,NA
44131,Cuyahoga County,OH,NA,NA,6.866952789699571
44134,Cuyahoga County,OH,13.698630136986301,NA,NA
44135,Cuyahoga County,OH,NA,37.388724035608305,NA
44136,Cuyahoga County,OH,38.35616438356164,NA,NA
44141,Cuyahoga County,OH,NA,58.45697329376854,NA
44146,Cuyahoga County,OH,NA,2.0771513353115725,NA
44212,Medina County,OH,NA,1.1869436201780417,NA
44256,Medina County,OH,9.58904109589041,NA,NA
44286,Summit County,OH,NA,87.83382789317507,NA
44509,Mahoning County,OH,52.73972602739726,NA,NA
44515,Mahoning County,OH,17.465753424657535,NA,NA
44691,Wayne County,OH,NA,31.454005934718097,NA
44708,Stark County,OH,38.013698630136986,NA,NA
44839,Erie County,OH,NA,NA,31.759656652360512
44904,Richland County,OH,98.28767123287672,NA,NA
45385,Greene County,OH,19.52054794520548,NA,NA
45601,Ross County,OH,25,NA,0.4291845493562232
45612,Ross County,OH,85.61643835616438,NA,NA
45631,Gallia County,OH,NA,15.43026706231454,8.15450643776824
45640,Jackson County,OH,NA,9.198813056379821,NA
45656,Jackson County,OH,NA,NA,63.0901287553648
45661,Pike County,OH,NA,73.88724035608308,NA
45701,Athens County,OH,NA,NA,62.231759656652365
45771,Meigs County,OH,82.87671232876713,NA,NA
45822,Mercer County,OH,75,86.94362017804154,21.030042918454935
73013,Oklahoma County,OK,42.80821917808219,NA,NA
73018,Grady County,OK,54.794520547945204,NA,NA
73036,Canadian County,OK,NA,62.61127596439169,NA
73099,Canadian County,OK,23.63013698630137,NA,NA
73117,Oklahoma County,OK,NA,90.20771513353115,NA
73127,Oklahoma County,OK,60.273972602739725,NA,NA
73505,Comanche County,OK,NA,NA,4.291845493562231
73533,Stephens County,OK,NA,NA,79.82832618025752
74571,Le Flore County,OK,98.63013698630137,NA,NA
74948,Sequoyah County,OK,NA,76.26112759643917,NA
97007,Washington County,OR,NA,29.376854599406528,NA
97015,Clackamas County,OR,NA,68.5459940652819,NA
97086,Clackamas County,OR,NA,NA,83.69098712446352
97123,Washington County,OR,32.534246575342465,NA,NA
97138,Clatsop County,OR,NA,62.908011869436194,NA
97217,Multnomah County,OR,NA,95.84569732937686,NA
97230,Multnomah County,OR,34.58904109589041,NA,NA
97233,Multnomah County,OR,NA,36.20178041543027,NA
97322,Linn County,OR,NA,NA,77.6824034334764
97386,Linn County,OR,57.534246575342465,NA,NA
97394,Lincoln County,OR,NA,95.54896142433235,NA
97424,Lane County,OR,NA,69.13946587537092,NA
97426,Lane County,OR,NA,NA,78.11158798283262
97439,Lane County,OR,NA,74.4807121661721,17.167381974248926
97477,Lane County,OR,90.75342465753424,NA,NA
97623,Klamath County,OR,NA,99.40652818991099,NA
15473,Fayette County,PA,94.17808219178082,NA,NA
16001,Butler County,PA,NA,2.3738872403560833,NA
16066,Butler County,PA,NA,NA,78.54077253218884
16323,Venango County,PA,NA,35.90504451038576,NA
16412,Erie County,PA,NA,85.7566765578635,NA
16823,Centre County,PA,33.56164383561644,NA,NA
17019,York County,PA,NA,46.29080118694362,NA
17033,Dauphin County,PA,NA,NA,24.034334763948497
17050,Cumberland County,PA,NA,NA,20.171673819742487
17057,Dauphin County,PA,NA,21.068249258160236,NA
17078,Lebanon County,PA,NA,43.32344213649852,NA
17103,Dauphin County,PA,48.63013698630137,NA,NA
17202,Franklin County,PA,NA,NA,81.97424892703863
17315,York County,PA,NA,20.178041543026705,NA
17402,York County,PA,29.10958904109589,NA,28.32618025751073
17403,York County,PA,27.397260273972602,NA,NA
17406,York County,PA,46.917808219178085,NA,NA
17512,Lancaster County,PA,NA,43.62017804154303,NA
17824,Northumberland County,PA,NA,NA,87.1244635193133
18015,Northampton County,PA,43.83561643835616,NA,NA
18073,Montgomery County,PA,94.86301369863014,NA,NA
18080,Lehigh County,PA,54.109589041095894,NA,NA
18102,Lehigh County,PA,3.767123287671233,11.275964391691394,NA
18222,Luzerne County,PA,86.3013698630137,NA,NA
18235,Carbon County,PA,NA,30.86053412462908,NA
18302,Monroe County,PA,61.3013698630137,NA,NA
18612,Luzerne County,PA,NA,76.8545994065282,NA
18634,Luzerne County,PA,NA,43.916913946587535,51.072961373390555
18640,Luzerne County,PA,NA,80.71216617210682,96.56652360515021
18641,Luzerne County,PA,NA,NA,95.27896995708154
18644,Luzerne County,PA,NA,96.73590504451039,NA
18702,Luzerne County,PA,NA,89.91097922848664,60.51502145922747
18704,Luzerne County,PA,NA,NA,34.33476394849785
18705,Luzerne County,PA,NA,85.45994065281899,90.12875536480686
18706,Luzerne County,PA,NA,NA,33.47639484978541
18707,Luzerne County,PA,NA,66.17210682492582,NA
18708,Luzerne County,PA,NA,NA,75.53648068669528
19026,Delaware County,PA,27.73972602739726,NA,NA
19139,Philadelphia County,PA,NA,NA,18.4549356223176
19146,Philadelphia County,PA,NA,NA,71.24463519313305
19150,Philadelphia County,PA,NA,26.112759643916917,NA
19403,Montgomery County,PA,NA,8.605341246290802,NA
19526,Berks County,PA,75.68493150684932,NA,NA
19606,Berks County,PA,18.493150684931507,NA,NA
19610,Berks County,PA,70.54794520547945,NA,NA
02832,Washington County,RI,NA,99.10979228486647,NA
02879,Washington County,RI,73.97260273972603,NA,NA
02905,Providence County,RI,51.369863013698634,NA,NA
29605,Greenville County,SC,NA,NA,28.75536480686695
29801,Aiken County,SC,50.34246575342466,NA,NA
57078,Yankton County,SD,NA,83.67952522255193,NA
57104,Minnehaha County,SD,NA,10.385756676557865,NA
57106,Minnehaha County,SD,NA,10.089020771513352,NA
57108,Lincoln County,SD,NA,NA,49.78540772532189
57252,Grant County,SD,NA,96.14243323442136,NA
57401,Brown County,SD,NA,12.759643916913946,NA
37323,Bradley County,TN,NA,51.33531157270029,NA
37745,Greene County,TN,NA,73.59050445103857,NA
38053,Shelby County,TN,NA,92.58160237388724,NA
38106,Shelby County,TN,NA,NA,48.068669527896994
38109,Shelby County,TN,NA,20.474777448071215,NA
38112,Shelby County,TN,69.52054794520548,NA,NA
38261,Obion County,TN,48.97260273972603,NA,NA
38301,Madison County,TN,NA,21.364985163204746,NA
38478,Giles County,TN,89.72602739726028,NA,NA
75216,Dallas County,TX,11.301369863013697,NA,NA
75225,Dallas County,TX,NA,57.27002967359051,NA
75232,Dallas County,TX,NA,43.02670623145401,NA
75703,Smith County,TX,NA,NA,75.10729613733905
75771,Smith County,TX,NA,NA,15.021459227467812
76009,Johnson County,TX,NA,NA,69.52789699570815
76021,Tarrant County,TX,NA,40.652818991097924,NA
76106,Tarrant County,TX,56.5068493150685,NA,NA
76108,Tarrant County,TX,76.02739726027397,NA,NA
76117,Tarrant County,TX,45.89041095890411,NA,NA
76137,Tarrant County,TX,61.986301369863014,NA,NA
76501,Bell County,TX,NA,NA,6.008583690987124
76502,Bell County,TX,NA,NA,20.600858369098713
76504,Bell County,TX,NA,NA,4.721030042918455
76513,Bell County,TX,NA,17.804154302670625,NA
76528,Coryell County,TX,NA,47.18100890207715,NA
76541,Bell County,TX,NA,74.1839762611276,NA
76542,Bell County,TX,NA,74.4807121661721,NA
76643,McLennan County,TX,NA,91.69139465875371,NA
76705,McLennan County,TX,27.054794520547947,NA,NA
76707,McLennan County,TX,76.36986301369863,NA,NA
77014,Harris County,TX,67.12328767123287,NA,NA
77025,Harris County,TX,NA,NA,54.93562231759657
77042,Harris County,TX,NA,67.65578635014838,NA
77051,Harris County,TX,NA,59.05044510385756,NA
77061,Harris County,TX,NA,NA,86.69527896995707
77072,Harris County,TX,62.671232876712324,NA,NA
77377,Harris County,TX,53.082191780821915,NA,NA
77389,Harris County,TX,NA,60.23738872403561,NA
77546,Galveston County,TX,36.64383561643836,NA,NA
77550,Galveston County,TX,NA,19.287833827893174,NA
77642,Jefferson County,TX,NA,NA,90.98712446351931
77845,Brazos County,TX,16.43835616438356,27.596439169139465,NA
77859,Robertson County,TX,92.46575342465754,NA,NA
78201,Bexar County,TX,NA,57.566765578635014,NA
78217,Bexar County,TX,72.94520547945206,NA,NA
78221,Bexar County,TX,NA,50.445103857566764,NA
78520,Cameron County,TX,NA,NA,22.746781115879827
78605,Burnet County,TX,NA,NA,81.11587982832617
78621,Bastrop County,TX,NA,66.46884272997032,NA
78633,Williamson County,TX,88.01369863013699,18.100890207715135,NA
78643,Llano County,TX,NA,82.49258160237389,48.927038626609445
78654,Burnet County,TX,NA,72.10682492581603,NA
79410,Lubbock County,TX,95.8904109589041,NA,NA
79720,Howard County,TX,NA,54.00593471810089,NA
79925,El Paso County,TX,NA,51.038575667655785,NA
84040,Davis County,UT,81.16438356164383,NA,NA
84104,Salt Lake County,UT,NA,67.06231454005935,NA
84109,Salt Lake County,UT,NA,52.818991097922854,NA
05060,Orange County,VT,NA,NA,94.84978540772532
05089,Windsor County,VT,NA,NA,76.39484978540773
05452,Chittenden County,VT,NA,NA,39.48497854077253
05488,Franklin County,VT,NA,59.34718100890207,NA
05602,Washington County,VT,NA,68.84272997032642,NA
05641,Washington County,VT,NA,30.56379821958457,NA
20121,Fairfax County,VA,70.8904109589041,NA,NA
22101,Fairfax County,VA,60.95890410958904,NA,NA
22306,Fairfax County,VA,40.75342465753425,NA,NA
22903,Charlottesville city,VA,NA,NA,33.047210300429185
23059,Henrico County,VA,NA,65.57863501483679,NA
23185,James City County,VA,NA,NA,0.8583690987124464
23219,Richmond city,VA,NA,97.03264094955489,NA
23228,Henrico County,VA,NA,68.24925816023739,NA
23350,Northampton County,VA,NA,NA,100
23435,Suffolk city,VA,NA,NA,72.53218884120172
24013,Roanoke city,VA,NA,NA,91.41630901287554
24017,Roanoke city,VA,NA,NA,93.13304721030042
24018,Roanoke County,VA,NA,NA,72.96137339055794
24151,Franklin County,VA,80.13698630136986,48.96142433234421,NA
24153,Salem city,VA,88.35616438356165,NA,NA
24171,Patrick County,VA,NA,NA,52.36051502145923
24450,Rockbridge County,VA,NA,NA,36.05150214592275
98001,King County,WA,52.054794520547944,NA,NA
98028,King County,WA,NA,63.798219584569736,NA
98030,King County,WA,NA,NA,42.48927038626609
98042,King County,WA,NA,16.320474777448073,NA
98059,King County,WA,90.41095890410958,NA,NA
98103,King County,WA,55.47945205479452,NA,NA
98116,King County,WA,NA,63.50148367952523,NA
98125,King County,WA,NA,NA,32.61802575107296
98273,Skagit County,WA,NA,NA,35.1931330472103
98274,Skagit County,WA,NA,NA,86.26609442060087
98292,Snohomish County,WA,NA,71.51335311572701,NA
98333,Pierce County,WA,NA,98.51632047477746,NA
98362,Clallam County,WA,72.26027397260275,NA,NA
98371,Pierce County,WA,NA,55.78635014836796,NA
98503,Thurston County,WA,NA,48.367952522255194,NA
98584,Mason County,WA,87.67123287671232,90.80118694362018,29.613733905579398
98642,Clark County,WA,NA,NA,75.9656652360515
98683,Clark County,WA,86.98630136986301,NA,NA
98944,Yakima County,WA,65.41095890410958,NA,NA
98953,Yakima County,WA,NA,97.92284866468842,NA
99217,Spokane County,WA,NA,NA,66.95278969957081
99337,Benton County,WA,37.32876712328767,NA,NA
99353,Benton County,WA,NA,60.534124629080125,NA
99354,Benton County,WA,NA,NA,50.64377682403433
20010,District of Columbia,DC,NA,46.58753709198813,NA
20020,District of Columbia,DC,7.191780821917808,NA,NA
24870,Wyoming County,WV,NA,NA,92.7038626609442
26508,Monongalia County,WV,NA,8.011869436201781,NA
53012,Ozaukee County,WI,NA,77.44807121661721,NA
53061,Calumet County,WI,NA,97.3293768545994,NA
53092,Ozaukee County,WI,NA,72.99703264094956,NA
53132,Milwaukee County,WI,NA,25.816023738872403,NA
53202,Milwaukee County,WI,NA,45.103857566765576,NA
53208,Milwaukee County,WI,76.71232876712328,NA,NA
53212,Milwaukee County,WI,NA,47.47774480712167,NA
53217,Milwaukee County,WI,NA,NA,13.304721030042918
53218,Milwaukee County,WI,NA,13.649851632047477,NA
53221,Milwaukee County,WI,30.47945205479452,NA,NA
53225,Milwaukee County,WI,NA,83.97626112759644,NA
53511,Rock County,WI,NA,8.30860534124629,NA
53545,Rock County,WI,NA,NA,62.66094420600859
53548,Rock County,WI,NA,NA,69.95708154506438
53590,Dane County,WI,NA,NA,26.609442060085836
53703,Dane County,WI,NA,94.65875370919882,NA
53821,Crawford County,WI,NA,78.33827893175074,NA
54235,Door County,WI,NA,26.706231454005934,NA
54467,Portage County,WI,NA,39.16913946587537,NA
54601,La Crosse County,WI,NA,64.68842729970326,NA
54650,La Crosse County,WI,NA,83.08605341246292,39.05579399141631
54656,Monroe County,WI,NA,NA,19.313304721030043
54751,Dunn County,WI,46.23287671232877,NA,NA
54755,Buffalo County,WI,NA,NA,93.99141630901288
54812,Barron County,WI,NA,NA,72.1030042918455
54880,Douglas County,WI,NA,NA,2.1459227467811157
54904,Winnebago County,WI,NA,89.31750741839762,NA
82633,Converse County,WY,66.78082191780823,NA,95.708154506437765
82801,Sheridan County,WY,77.05479452054794,NA,NA
82901,Sweetwater County,WY,NA,64.98516320474778,NA
