ZipCode,county,state,Youth
35045,Chilton County,AL,88.08290155440415
35210,Jefferson County,AL,90.15544041450777
35401,Tuscaloosa County,AL,35.233160621761655
35550,Walker County,AL,95.33678756476684
36025,Elmore County,AL,90.41450777202073
36110,Montgomery County,AL,61.398963730569946
36609,Mobile County,AL,68.39378238341969
99705,Fairbanks North Star Borough,AK,79.01554404145078
85017,Maricopa County,AZ,22.797927461139896
85023,Maricopa County,AZ,32.90155440414508
85041,Maricopa County,AZ,7.512953367875648
85043,Maricopa County,AZ,81.0880829015544
85051,Maricopa County,AZ,27.979274611398964
85201,Maricopa County,AZ,18.911917098445596
85209,Maricopa County,AZ,33.93782383419689
85210,Maricopa County,AZ,43.26424870466321
85301,Maricopa County,AZ,31.865284974093267
85302,Maricopa County,AZ,47.92746113989637
85307,Maricopa County,AZ,98.18652849740933
85335,Maricopa County,AZ,62.69430051813472
85621,Santa Cruz County,AZ,62.17616580310881
85701,Pima County,AZ,39.119170984455955
85705,Pima County,AZ,11.917098445595855
85710,Pima County,AZ,46.63212435233161
85746,Pima County,AZ,65.02590673575129
85756,Pima County,AZ,96.89119170984456
86025,Navajo County,AZ,92.48704663212435
86047,Navajo County,AZ,65.28497409326425
72023,Lonoke County,AR,48.18652849740933
91702,Los Angeles County,CA,46.89119170984456
91766,Los Angeles County,CA,47.66839378238342
92019,San Diego County,CA,35.751295336787564
92021,San Diego County,CA,31.088082901554404
92109,San Diego County,CA,82.64248704663213
92411,San Bernardino County,CA,83.67875647668393
93030,Ventura County,CA,17.875647668393782
93268,Kern County,CA,94.55958549222798
93274,Tulare County,CA,5.699481865284974
93905,Monterey County,CA,69.43005181347151
95019,Santa Cruz County,CA,91.45077720207254
80204,Denver County,CO,38.082901554404145
80219,Denver County,CO,24.352331606217618
80640,Adams County,CO,71.76165803108809
81050,Otero County,CO,94.04145077720207
06051,Hartford County,CT,9.585492227979273
06052,Hartford County,CT,59.58549222797927
06516,New Haven County,CT,21.761658031088082
06610,Fairfield County,CT,54.66321243523316
19963,Sussex County,DE,51.554404145077726
32025,Columbia County,FL,37.30569948186528
32055,Columbia County,FL,55.95854922279793
32065,Clay County,FL,52.59067357512953
32207,Duval County,FL,76.16580310880829
32208,Duval County,FL,32.38341968911917
32210,Duval County,FL,2.072538860103627
32401,Bay County,FL,67.87564766839378
32724,Volusia County,FL,36.52849740932643
32828,Orange County,FL,67.35751295336787
33016,Miami-Dade County,FL,43.523316062176164
33157,Miami-Dade County,FL,19.94818652849741
33311,Broward County,FL,5.4404145077720205
33705,Pinellas County,FL,86.26943005181347
33711,Pinellas County,FL,90.93264248704664
34420,Marion County,FL,50
34442,Citrus County,FL,83.16062176165802
34482,Marion County,FL,76.42487046632125
34601,Hernando County,FL,79.01554404145078
34746,Osceola County,FL,54.66321243523316
34983,St. Lucie County,FL,27.202072538860104
30032,DeKalb County,GA,33.67875647668394
30044,Gwinnett County,GA,22.020725388601036
30116,Carroll County,GA,57.51295336787565
30117,Carroll County,GA,48.44559585492228
30134,Douglas County,GA,34.715025906735754
30180,Carroll County,GA,17.616580310880828
30310,Fulton County,GA,49.22279792746114
30312,Fulton County,GA,86.01036269430051
30318,Fulton County,GA,66.58031088082902
30458,Bulloch County,GA,37.56476683937824
30507,Hall County,GA,69.94818652849742
30643,Hart County,GA,63.730569948186535
30815,Richmond County,GA,63.98963730569949
30906,Richmond County,GA,8.031088082901555
31620,Cook County,GA,84.71502590673575
83651,Canyon County,ID,32.64248704663213
60160,Cook County,IL,33.41968911917099
60804,Cook County,IL,39.37823834196891
61102,Winnebago County,IL,80.82901554404145
61109,Winnebago County,IL,87.56476683937824
46135,Putnam County,IN,84.4559585492228
46226,Marion County,IN,20.207253886010363
46236,Marion County,IN,81.86528497409327
46260,Marion County,IN,59.58549222797927
46322,Lake County,IN,65.80310880829016
46563,Marshall County,IN,72.02072538860104
46628,St. Joseph County,IN,54.145077720207254
46806,Allen County,IN,29.015544041450774
46816,Allen County,IN,49.48186528497409
46825,Allen County,IN,10.621761658031089
50311,Polk County,IA,89.63730569948186
52240,Johnson County,IA,6.476683937823833
67209,Sedgwick County,KS,97.40932642487047
40214,Jefferson County,KY,24.093264248704664
40215,Jefferson County,KY,6.7357512953367875
40360,Bath County,KY,81.34715025906736
41011,Kenton County,KY,60.62176165803109
41143,Carter County,KY,31.865284974093267
42001,McCracken County,KY,55.181347150259064
42501,Pulaski County,KY,47.15025906735752
42642,Russell County,KY,82.90155440414507
42718,Taylor County,KY,46.1139896373057
70005,Jefferson Parish,LA,44.30051813471503
70057,St. Charles Parish,LA,98.70466321243524
70068,St. John the Baptist Parish,LA,6.994818652849741
70072,Jefferson Parish,LA,0
70131,Orleans Parish,LA,60.10362694300518
70443,Tangipahoa Parish,LA,26.42487046632124
70471,St. Tammany Parish,LA,63.212435233160626
70722,East Feliciana Parish,LA,95.33678756476684
70769,Ascension Parish,LA,41.968911917098445
71449,Sabine Parish,LA,80.31088082901555
04103,Cumberland County,ME,42.74611398963731
04976,Somerset County,ME,73.83419689119171
21703,Frederick County,MD,86.78756476683938
01108,Hampden County,MA,1.0362694300518136
01151,Hampden County,MA,82.38341968911918
01701,Middlesex County,MA,28.497409326424872
01757,Worcester County,MA,25.38860103626943
01821,Middlesex County,MA,36.52849740932643
02301,Plymouth County,MA,64.76683937823834
02721,Bristol County,MA,58.80829015544041
48021,Macomb County,MI,56.476683937823836
48030,Oakland County,MI,45.59585492227979
48111,Wayne County,MI,11.398963730569948
48202,Wayne County,MI,56.73575129533679
48203,Wayne County,MI,21.243523316062177
48205,Wayne County,MI,5.958549222797927
48223,Wayne County,MI,89.37823834196891
48236,Wayne County,MI,45.07772020725388
48423,Genesee County,MI,62.69430051813472
48446,Lapeer County,MI,81.60621761658031
48457,Genesee County,MI,79.01554404145078
48817,Shiawassee County,MI,91.45077720207254
49009,Kalamazoo County,MI,29.792746113989637
49022,Berrien County,MI,9.32642487046632
49037,Calhoun County,MI,12.176165803108809
49341,Kent County,MI,28.756476683937827
49348,Allegan County,MI,63.47150259067358
49442,Muskegon County,MI,22.53886010362694
49503,Kent County,MI,15.025906735751295
49507,Kent County,MI,67.61658031088082
49677,Osceola County,MI,88.3419689119171
55106,Ramsey County,MN,3.3678756476683938
55120,Dakota County,MN,99.48186528497409
55313,Wright County,MN,20.72538860103627
55372,Scott County,MN,30.82901554404145
55427,Hennepin County,MN,61.13989637305699
55428,Hennepin County,MN,20.72538860103627
55746,St. Louis County,MN,73.31606217616581
55792,St. Louis County,MN,64.24870466321244
55904,Olmsted County,MN,75.90673575129534
56241,Yellow Medicine County,MN,98.70466321243524
56670,Beltrami County,MN,96.11398963730569
39360,Clarke County,MS,97.15025906735751
39476,Perry County,MS,87.30569948186529
39503,Harrison County,MS,14.507772020725387
39702,Lowndes County,MS,21.502590673575128
39744,Webster County,MS,83.93782383419689
63111,St. Louis city,MO,72.02072538860104
63118,St. Louis city,MO,41.45077720207254
63120,St. Louis city,MO,70.98445595854922
63136,St. Louis County,MO,3.6269430051813467
63143,St. Louis County,MO,91.96891191709845
63501,Adair County,MO,74.35233160621762
64050,Jackson County,MO,14.766839378238341
64127,Jackson County,MO,14.248704663212436
65714,Christian County,MO,33.160621761658035
65803,Greene County,MO,34.4559585492228
68508,Lancaster County,NE,99.74093264248705
89106,Clark County,NV,85.49222797927462
89115,Clark County,NV,39.89637305699482
89512,Washoe County,NV,61.398963730569946
03275,Merrimack County,NH,54.145077720207254
87121,Bernalillo County,NM,4.66321243523316
87506,Santa Fe County,NM,87.8238341968912
88240,Lea County,NM,15.544041450777202
10033,New York County,NY,83.41968911917098
10034,New York County,NY,35.233160621761655
10453,Bronx County,NY,10.103626943005182
10456,Bronx County,NY,0.2590673575129534
10457,Bronx County,NY,16.06217616580311
10468,Bronx County,NY,4.404145077720207
10470,Bronx County,NY,70.98445595854922
11201,Kings County,NY,85.23316062176166
11204,Kings County,NY,24.870466321243523
11218,Kings County,NY,9.844559585492227
11228,Kings County,NY,73.57512953367875
11229,Kings County,NY,58.80829015544041
11428,Queens County,NY,89.11917098445595
11772,Suffolk County,NY,62.43523316062176
11967,Suffolk County,NY,70.72538860103627
12110,Albany County,NY,93.78238341968913
12180,Rensselaer County,NY,38.34196891191709
12566,Ulster County,NY,91.19170984455958
12983,Franklin County,NY,89.63730569948186
13210,Onondaga County,NY,67.09844559585493
13617,St. Lawrence County,NY,39.37823834196891
13790,Broome County,NY,24.61139896373057
13833,Broome County,NY,94.81865284974094
14208,Erie County,NY,79.79274611398964
14437,Livingston County,NY,51.813471502590666
14469,Ontario County,NY,75.38860103626943
14606,Monroe County,NY,10.880829015544041
14621,Monroe County,NY,3.8860103626943006
27292,Davidson County,NC,13.471502590673575
27520,Johnston County,NC,29.533678756476682
27587,Wake County,NC,23.316062176165804
28212,Mecklenburg County,NC,20.466321243523318
28213,Mecklenburg County,NC,27.202072538860104
28215,Mecklenburg County,NC,15.284974093264248
28217,Mecklenburg County,NC,37.04663212435233
28314,Cumberland County,NC,7.253886010362693
28376,Hoke County,NC,30.310880829015545
28697,Wilkes County,NC,72.7979274611399
28785,Haywood County,NC,95.07772020725389
43056,Licking County,OH,78.23834196891191
43204,Franklin County,OH,1.2953367875647668
43207,Franklin County,OH,12.435233160621761
43209,Franklin County,OH,77.97927461139896
43211,Franklin County,OH,5.181347150259067
43212,Franklin County,OH,84.19689119170984
43213,Franklin County,OH,0.7772020725388601
43223,Franklin County,OH,15.803108808290157
43227,Franklin County,OH,2.33160621761658
43228,Franklin County,OH,4.922279792746114
43229,Franklin County,OH,2.849740932642487
43506,Williams County,OH,74.87046632124353
43607,Lucas County,OH,13.21243523316062
43612,Lucas County,OH,4.145077720207254
43613,Lucas County,OH,16.83937823834197
43724,Noble County,OH,86.78756476683938
44004,Ashtabula County,OH,1.5544041450777202
44035,Lorain County,OH,0.5181347150259068
44055,Lorain County,OH,2.849740932642487
44095,Lake County,OH,37.82383419689119
44103,Cuyahoga County,OH,28.238341968911918
44120,Cuyahoga County,OH,47.15025906735752
44137,Cuyahoga County,OH,52.84974093264248
44203,Summit County,OH,7.772020725388601
44240,Portage County,OH,65.28497409326425
44306,Summit County,OH,8.290155440414509
44432,Columbiana County,OH,64.24870466321244
44446,Trumbull County,OH,53.8860103626943
44483,Trumbull County,OH,16.321243523316063
44663,Tuscarawas County,OH,23.05699481865285
44667,Wayne County,OH,76.94300518134715
44683,Tuscarawas County,OH,77.46113989637306
44691,Wayne County,OH,25.129533678756477
45005,Warren County,OH,18.134715025906736
45044,Butler County,OH,1.8134715025906734
45102,Clermont County,OH,40.932642487046635
45140,Clermont County,OH,11.658031088082902
45177,Clinton County,OH,77.720207253886
45206,Hamilton County,OH,31.34715025906736
45237,Hamilton County,OH,78.75647668393782
45238,Hamilton County,OH,8.549222797927461
45248,Hamilton County,OH,52.331606217616574
45341,Clark County,OH,95.33678756476684
45406,Montgomery County,OH,44.04145077720207
45417,Montgomery County,OH,73.05699481865285
45420,Montgomery County,OH,66.83937823834198
45601,Ross County,OH,57.77202072538861
45640,Jackson County,OH,17.357512953367877
45710,Athens County,OH,88.86010362694302
45771,Meigs County,OH,91.96891191709845
73020,Oklahoma County,OK,75.64766839378238
73071,Cleveland County,OK,42.2279792746114
73110,Oklahoma County,OK,30.05181347150259
73139,Oklahoma County,OK,86.52849740932642
73507,Comanche County,OK,17.098445595854923
73527,Comanche County,OK,98.70466321243524
74058,Pawnee County,OK,100
74112,Tulsa County,OK,66.32124352331607
74338,Delaware County,OK,96.6321243523316
74525,Atoka County,OK,90.67357512953367
74701,Bryan County,OK,40.67357512953368
74953,Le Flore County,OK,93.52331606217616
97071,Marion County,OR,74.35233160621762
97138,Clatsop County,OR,93.26424870466322
97141,Tillamook County,OR,79.79274611398964
97232,Multnomah County,OR,97.92746113989638
97355,Linn County,OR,60.362694300518136
97526,Josephine County,OR,50
15010,Beaver County,PA,43.78238341968912
15136,Allegheny County,PA,58.03108808290155
15401,Fayette County,PA,16.580310880829018
15601,Westmoreland County,PA,6.217616580310881
15632,Westmoreland County,PA,96.37305699481865
16423,Erie County,PA,98.18652849740933
16502,Erie County,PA,42.487046632124354
16507,Erie County,PA,93.00518134715026
17404,York County,PA,23.83419689119171
17701,Lycoming County,PA,40.932642487046635
18104,Lehigh County,PA,22.279792746113987
19013,Delaware County,PA,18.393782383419687
19104,Philadelphia County,PA,19.689119170984455
19139,Philadelphia County,PA,12.694300518134716
19363,Chester County,PA,74.09326424870466
02878,Newport County,RI,38.60103626943005
02886,Kent County,RI,43.005181347150256
29301,Spartanburg County,SC,48.96373056994819
29302,Spartanburg County,SC,92.48704663212435
29576,Horry County,SC,97.66839378238342
29624,Anderson County,SC,45.854922279792746
29640,Pickens County,SC,27.202072538860104
29687,Greenville County,SC,35.751295336787564
37087,Wilson County,TN,26.683937823834196
37148,Sumner County,TN,59.32642487046632
37615,Washington County,TN,84.71502590673575
37618,Sullivan County,TN,75.12953367875647
37801,Blount County,TN,25.38860103626943
37849,Knox County,TN,58.549222797927456
38018,Shelby County,TN,56.21761658031088
75023,Collin County,TX,50.77720207253886
75189,Rockwall County,TX,52.07253886010362
75216,Dallas County,TX,9.067357512953368
75241,Dallas County,TX,30.310880829015545
75501,Bowie County,TX,34.715025906735754
75904,Angelina County,TX,60.880829015544045
76082,Parker County,TX,69.68911917098445
76115,Tarrant County,TX,57.2538860103627
76123,Tarrant County,TX,26.94300518134715
76180,Tarrant County,TX,44.81865284974093
76513,Bell County,TX,34.196891191709845
77033,Harris County,TX,44.559585492227974
77038,Harris County,TX,76.42487046632125
77040,Harris County,TX,45.33678756476684
77044,Harris County,TX,29.274611398963728
77048,Harris County,TX,81.86528497409327
77060,Harris County,TX,49.740932642487046
77082,Harris County,TX,26.165803108808287
77087,Harris County,TX,72.02072538860104
77471,Fort Bend County,TX,69.17098445595855
77486,Brazoria County,TX,85.49222797927462
77539,Galveston County,TX,31.606217616580313
77598,Harris County,TX,55.181347150259064
78102,Bee County,TX,55.181347150259064
78201,Bexar County,TX,77.2020725388601
78572,Hidalgo County,TX,25.906735751295333
78589,Hidalgo County,TX,50.77720207253886
78744,Travis County,TX,48.704663212435236
79107,Potter County,TX,18.65284974093264
84047,Salt Lake County,UT,23.57512953367876
84120,Salt Lake County,UT,13.989637305699482
84121,Salt Lake County,UT,70.46632124352331
22601,Winchester city,VA,65.80310880829016
22630,Warren County,VA,12.953367875647666
23060,Henrico County,VA,53.36787564766839
23231,Henrico County,VA,35.751295336787564
23294,Henrico County,VA,80.31088082901555
23324,Chesapeake city,VA,19.4300518134715
23707,Portsmouth city,VA,41.70984455958549
24017,Roanoke city,VA,38.860103626943
24266,Russell County,VA,78.49740932642487
98032,King County,WA,68.9119170984456
98105,King County,WA,69.94818652849742
98684,Clark County,WA,94.30051813471503
20002,District of Columbia,DC,39.89637305699482
20020,District of Columbia,DC,8.808290155440414
25311,Kanawha County,WV,67.87564766839378
26003,Ohio County,WV,19.170984455958546
26354,Taylor County,WV,53.626943005181346
26554,Marion County,WV,50.51813471502591
53110,Milwaukee County,WI,46.373056994818654
53210,Milwaukee County,WI,13.730569948186528
53212,Milwaukee County,WI,56.994818652849744
53215,Milwaukee County,WI,2.5906735751295336
53222,Milwaukee County,WI,51.29533678756477
53402,Racine County,WI,10.362694300518134
53548,Rock County,WI,40.41450777202073
53965,Sauk County,WI,61.398963730569946
54302,Brown County,WI,71.50259067357513
54656,Monroe County,WI,53.10880829015544
54701,Eau Claire County,WI,58.03108808290155
54911,Outagamie County,WI,68.65284974093264
54929,Waupaca County,WI,88.60103626943005
54956,Winnebago County,WI,11.139896373056994
