ZipCode,county,state,Adult,Retirement
35071,Jefferson County,AL,68.75,NA
35151,Talladega County,AL,NA,83.33333333333334
35204,Jefferson County,AL,65.38461538461539,NA
35226,Jefferson County,AL,45.67307692307692,NA
35579,Walker County,AL,90.86538461538461,NA
36066,Autauga County,AL,50.480769230769226,NA
36272,Calhoun County,AL,NA,73.21428571428571
36541,Mobile County,AL,NA,79.16666666666666
36875,Russell County,AL,NA,97.02380952380952
85023,Maricopa County,AZ,NA,61.904761904761905
85085,Maricopa County,AZ,82.6923076923077,NA
85143,Pinal County,AZ,33.65384615384615,NA
85254,Maricopa County,AZ,NA,69.64285714285714
85258,Maricopa County,AZ,63.942307692307686,NA
85308,Maricopa County,AZ,NA,52.976190476190474
85338,Maricopa County,AZ,81.73076923076923,NA
71653,Chicot County,AR,NA,94.04761904761905
90019,Los Angeles County,CA,NA,78.57142857142857
90047,Los Angeles County,CA,NA,12.5
90650,Los Angeles County,CA,NA,15.476190476190476
91364,Los Angeles County,CA,NA,86.90476190476191
91711,Los Angeles County,CA,NA,29.166666666666668
91977,San Diego County,CA,32.21153846153847,NA
92026,San Diego County,CA,NA,48.214285714285715
92056,San Diego County,CA,76.4423076923077,NA
92127,San Diego County,CA,62.980769230769226,NA
92503,Riverside County,CA,20.192307692307693,NA
92603,Orange County,CA,NA,85.71428571428571
92675,Orange County,CA,NA,45.23809523809524
92683,Orange County,CA,17.78846153846154,18.452380952380953
92844,Orange County,CA,NA,72.61904761904762
92845,Orange County,CA,71.63461538461539,NA
92866,Orange County,CA,96.63461538461539,NA
92880,Riverside County,CA,22.115384615384613,NA
93001,Ventura County,CA,NA,91.07142857142857
93033,Ventura County,CA,37.5,NA
93241,Kern County,CA,88.46153846153845,NA
94019,San Mateo County,CA,77.40384615384616,NA
94062,San Mateo County,CA,NA,51.78571428571429
94063,San Mateo County,CA,NA,36.30952380952381
94080,San Mateo County,CA,NA,7.738095238095238
94103,San Francisco County,CA,13.461538461538462,NA
94110,San Francisco County,CA,39.42307692307692,NA
94134,San Francisco County,CA,64.90384615384616,NA
94303,San Mateo County,CA,NA,25.595238095238095
94542,Alameda County,CA,92.78846153846155,NA
94555,Alameda County,CA,63.46153846153846,NA
94941,Marin County,CA,NA,39.88095238095239
94949,Marin County,CA,NA,71.42857142857143
95382,Stanislaus County,CA,NA,67.26190476190477
95608,Sacramento County,CA,37.019230769230774,NA
95678,Placer County,CA,47.59615384615385,NA
95965,Butte County,CA,NA,79.16666666666666
80920,El Paso County,CO,56.730769230769226,NA
81005,Pueblo County,CO,NA,20.833333333333336
06776,Litchfield County,CT,NA,31.547619047619047
32011,Nassau County,FL,58.65384615384615,NA
32080,St. Johns County,FL,66.82692307692307,NA
32163,Sumter County,FL,97.11538461538461,NA
32656,Clay County,FL,64.42307692307693,NA
32960,Indian River County,FL,NA,73.80952380952381
33010,Miami-Dade County,FL,NA,37.5
33055,Miami-Dade County,FL,49.03846153846153,NA
33135,Miami-Dade County,FL,85.57692307692307,NA
33436,Palm Beach County,FL,NA,50
33613,Hillsborough County,FL,NA,51.19047619047619
33762,Pinellas County,FL,NA,97.61904761904762
33825,Highlands County,FL,50,NA
34208,Manatee County,FL,NA,49.404761904761905
34736,Lake County,FL,69.23076923076923,NA
34953,St. Lucie County,FL,6.730769230769231,NA
34982,St. Lucie County,FL,NA,34.523809523809526
30062,Cobb County,GA,NA,16.071428571428573
30125,Polk County,GA,NA,43.452380952380956
30161,Floyd County,GA,19.71153846153846,NA
30165,Floyd County,GA,57.692307692307686,NA
30504,Hall County,GA,NA,74.40476190476191
30534,Dawson County,GA,91.82692307692307,NA
30542,Hall County,GA,NA,36.30952380952381
30577,Stephens County,GA,NA,68.45238095238095
31907,Muscogee County,GA,8.653846153846153,NA
96797,Honolulu County,HI,9.134615384615383,NA
96815,Honolulu County,HI,47.11538461538461,NA
96817,Honolulu County,HI,78.84615384615384,NA
96819,Honolulu County,HI,NA,14.285714285714285
83301,Twin Falls County,ID,NA,0.5952380952380952
83709,Ada County,ID,16.826923076923077,NA
83716,Ada County,ID,74.03846153846155,NA
83814,Kootenai County,ID,62.5,NA
83835,Kootenai County,ID,54.32692307692307,NA
60189,DuPage County,IL,NA,61.30952380952381
60302,Cook County,IL,75,NA
60446,Will County,IL,43.269230769230774,NA
60459,Cook County,IL,31.73076923076923,NA
60462,Cook County,IL,70.67307692307693,NA
60465,Cook County,IL,72.59615384615384,NA
60515,DuPage County,IL,37.980769230769226,NA
60521,DuPage County,IL,NA,64.28571428571429
60532,DuPage County,IL,NA,45.83333333333333
60561,DuPage County,IL,57.21153846153846,NA
60565,DuPage County,IL,60.57692307692307,NA
60616,Cook County,IL,NA,9.523809523809524
60628,Cook County,IL,NA,24.404761904761905
60641,Cook County,IL,14.903846153846153,NA
60643,Cook County,IL,NA,3.571428571428571
60652,Cook County,IL,NA,22.023809523809522
60660,Cook County,IL,NA,16.666666666666664
61071,Whiteside County,IL,NA,53.57142857142857
61615,Peoria County,IL,72.11538461538461,NA
61832,Vermilion County,IL,NA,10.119047619047619
62035,Madison County,IL,84.61538461538461,NA
62959,Williamson County,IL,NA,55.952380952380956
46072,Tipton County,IN,73.5576923076923,NA
46203,Marion County,IN,51.92307692307693,NA
46307,Lake County,IN,NA,2.380952380952381
46312,Lake County,IN,NA,72.02380952380952
46405,Lake County,IN,38.46153846153847,NA
46637,St. Joseph County,IN,81.25,NA
46996,Pulaski County,IN,72.59615384615384,NA
47802,Vigo County,IN,24.03846153846154,35.714285714285715
51503,Pottawattamie County,IA,9.615384615384617,NA
52317,Johnson County,IA,49.519230769230774,NA
66012,Wyandotte County,KS,100,NA
66062,Johnson County,KS,12.01923076923077,NA
67205,Sedgwick County,KS,NA,91.66666666666666
67501,Reno County,KS,NA,70.83333333333334
40059,Jefferson County,KY,74.51923076923077,NA
40071,Spencer County,KY,52.88461538461539,NA
40291,Jefferson County,KY,18.75,NA
41018,Kenton County,KY,NA,66.07142857142857
41701,Perry County,KY,29.807692307692307,65.47619047619048
42038,Lyon County,KY,NA,90.47619047619048
42064,Crittenden County,KY,66.34615384615384,NA
42420,Henderson County,KY,11.057692307692307,NA
70092,St. Bernard Parish,LA,NA,88.69047619047619
70517,St. Martin Parish,LA,14.423076923076922,17.857142857142858
71111,Bossier Parish,LA,5.769230769230769,NA
20879,Montgomery County,MD,77.88461538461539,NA
21093,Baltimore County,MD,79.32692307692307,NA
21673,Talbot County,MD,92.3076923076923,NA
01027,Hampshire County,MA,12.980769230769232,NA
01106,Hampden County,MA,87.01923076923077,NA
01226,Berkshire County,MA,71.15384615384616,NA
01230,Berkshire County,MA,91.34615384615384,NA
01516,Worcester County,MA,30.288461538461537,NA
01602,Worcester County,MA,NA,19.047619047619047
01610,Worcester County,MA,NA,23.809523809523807
01702,Middlesex County,MA,1.4423076923076923,NA
01742,Middlesex County,MA,75.96153846153845,NA
01801,Middlesex County,MA,0.9615384615384616,NA
01841,Essex County,MA,NA,57.14285714285714
01906,Essex County,MA,18.269230769230766,NA
02062,Norfolk County,MA,40.86538461538461,NA
02115,Suffolk County,MA,NA,4.166666666666666
02118,Suffolk County,MA,NA,7.142857142857142
02351,Plymouth County,MA,NA,76.19047619047619
02370,Plymouth County,MA,NA,87.5
02421,Middlesex County,MA,19.230769230769234,NA
02467,Norfolk County,MA,44.71153846153847,NA
02721,Bristol County,MA,NA,5.357142857142857
02780,Bristol County,MA,NA,1.7857142857142856
48158,Washtenaw County,MI,70.1923076923077,NA
48182,Monroe County,MI,59.61538461538461,NA
48310,Macomb County,MI,NA,11.904761904761903
48323,Oakland County,MI,NA,42.26190476190476
48656,Roscommon County,MI,NA,82.14285714285714
48836,Livingston County,MI,NA,88.09523809523809
48906,Ingham County,MI,13.942307692307693,NA
49024,Kalamazoo County,MI,NA,20.238095238095237
49046,Barry County,MI,79.8076923076923,NA
49505,Kent County,MI,23.557692307692307,NA
49920,Iron County,MI,NA,60.71428571428571
55119,Ramsey County,MN,15.384615384615385,NA
55416,Hennepin County,MN,39.90384615384615,NA
55421,Anoka County,MN,20.673076923076923,NA
38901,Grenada County,MS,NA,67.85714285714286
39666,Pike County,MS,69.71153846153845,NA
63050,Jefferson County,MO,97.59615384615384,NA
63111,St. Louis city,MO,31.25,NA
63301,St. Charles County,MO,15.865384615384615,NA
64055,Jackson County,MO,NA,8.333333333333332
64468,Nodaway County,MO,NA,60.11904761904761
64503,Buchanan County,MO,NA,30.952380952380953
65536,Laclede County,MO,36.05769230769231,NA
65610,Christian County,MO,93.26923076923077,NA
65803,Greene County,MO,NA,42.857142857142854
59102,Yellowstone County,MT,NA,4.761904761904762
59602,Lewis and Clark County,MT,NA,28.57142857142857
89523,Washoe County,NV,50.96153846153846,NA
03063,Hillsborough County,NH,40.38461538461539,NA
03087,Rockingham County,NH,48.07692307692308,NA
03811,Rockingham County,NH,NA,62.5
03826,Rockingham County,NH,98.07692307692307,NA
03865,Rockingham County,NH,NA,70.23809523809523
03867,Strafford County,NH,22.596153846153847,NA
07087,Hudson County,NJ,3.8461538461538463,NA
07107,Essex County,NJ,NA,26.190476190476193
07470,Passaic County,NJ,NA,22.61904761904762
07882,Warren County,NJ,NA,58.333333333333336
07885,Morris County,NJ,76.92307692307693,NA
08050,Ocean County,NJ,NA,30.357142857142854
08065,Burlington County,NJ,NA,92.85714285714286
08110,Camden County,NJ,NA,63.095238095238095
08230,Cape May County,NJ,NA,80.35714285714286
08401,Atlantic County,NJ,0,NA
08807,Somerset County,NJ,28.365384615384613,NA
87105,Bernalillo County,NM,4.326923076923077,NA
87547,,NM,NA,77.38095238095238
10012,New York County,NY,NA,80.95238095238095
10028,New York County,NY,NA,94.64285714285714
10454,Bronx County,NY,NA,5.952380952380952
11207,Kings County,NY,NA,39.285714285714285
11212,Kings County,NY,NA,0
11236,Kings County,NY,NA,33.33333333333333
11510,Nassau County,NY,NA,38.095238095238095
11518,Nassau County,NY,90.38461538461539,NA
11741,Suffolk County,NY,67.78846153846155,NA
11746,Suffolk County,NY,NA,82.73809523809523
12148,Saratoga County,NY,NA,92.26190476190477
12303,Schenectady County,NY,NA,40.476190476190474
12561,Ulster County,NY,99.03846153846155,NA
12804,Warren County,NY,8.173076923076923,NA
12885,Warren County,NY,94.71153846153845,NA
12983,Franklin County,NY,NA,54.166666666666664
13039,Onondaga County,NY,41.34615384615385,NA
13073,Tompkins County,NY,NA,85.11904761904762
13148,Seneca County,NY,25.961538461538463,NA
13167,Oswego County,NY,88.9423076923077,NA
13212,Onondaga County,NY,29.326923076923077,NA
13491,Herkimer County,NY,95.1923076923077,NA
13662,St. Lawrence County,NY,7.6923076923076925,NA
13732,Tioga County,NY,44.230769230769226,NA
13815,Chenango County,NY,NA,13.095238095238097
14032,Erie County,NY,88.9423076923077,NA
14120,Niagara County,NY,5.288461538461538,NA
14215,Erie County,NY,2.403846153846154,NA
14534,Monroe County,NY,7.211538461538461,NA
27540,Wake County,NC,43.75,NA
27932,Chowan County,NC,NA,44.642857142857146
27959,Dare County,NC,NA,98.21428571428571
28314,Cumberland County,NC,NA,33.92857142857143
28377,Robeson County,NC,NA,84.52380952380952
28387,Moore County,NC,NA,95.83333333333334
28655,Burke County,NC,41.82692307692308,NA
43055,Licking County,OH,12.5,NA
43062,Licking County,OH,32.69230769230769,NA
43211,Franklin County,OH,11.538461538461538,NA
43402,Wood County,OH,NA,14.880952380952381
43623,Lucas County,OH,NA,23.214285714285715
43912,Belmont County,OH,51.442307692307686,NA
44055,Lorain County,OH,10.096153846153847,NA
44090,Lorain County,OH,NA,41.66666666666667
44104,Cuyahoga County,OH,4.807692307692308,NA
44111,Cuyahoga County,OH,1.9230769230769231,NA
44131,Cuyahoga County,OH,NA,55.35714285714286
44138,Cuyahoga County,OH,61.53846153846154,NA
44144,Cuyahoga County,OH,36.53846153846153,NA
44281,Medina County,OH,NA,47.023809523809526
44410,Trumbull County,OH,NA,64.88095238095238
44483,Trumbull County,OH,NA,11.30952380952381
44601,Stark County,OH,NA,35.11904761904761
44622,Tuscarawas County,OH,99.51923076923077,NA
44646,Stark County,OH,NA,44.047619047619044
44870,Erie County,OH,2.8846153846153846,NA
44906,Richland County,OH,NA,46.42857142857143
45005,Warren County,OH,10.576923076923077,NA
45013,Butler County,OH,NA,2.976190476190476
45069,Butler County,OH,23.076923076923077,NA
45208,Hamilton County,OH,NA,96.42857142857143
45243,Hamilton County,OH,82.21153846153845,NA
45344,Clark County,OH,55.769230769230774,NA
45406,Montgomery County,OH,16.346153846153847,NA
45640,Jackson County,OH,27.884615384615387,NA
45840,Hancock County,OH,3.3653846153846154,NA
74344,Delaware County,OK,89.90384615384616,NA
97006,Washington County,OR,NA,27.976190476190478
97008,Washington County,OR,NA,54.761904761904766
97070,Clackamas County,OR,86.0576923076923,NA
97071,Marion County,OR,NA,59.523809523809526
97123,Washington County,OR,NA,48.80952380952381
97224,Washington County,OR,NA,32.73809523809524
97239,Multnomah County,OR,80.76923076923077,NA
97306,Marion County,OR,53.84615384615385,NA
97321,Linn County,OR,NA,76.78571428571429
97355,Linn County,OR,65.86538461538461,NA
15209,Allegheny County,PA,NA,86.30952380952381
15330,Washington County,PA,98.5576923076923,NA
15701,Indiana County,PA,21.153846153846153,NA
16046,Butler County,PA,NA,99.40476190476191
16646,Cambria County,PA,NA,100
17036,Dauphin County,PA,NA,10.714285714285714
17112,Dauphin County,PA,NA,26.785714285714285
17815,Columbia County,PA,17.307692307692307,NA
17824,Northumberland County,PA,93.75,NA
17981,Schuylkill County,PA,95.67307692307693,NA
18042,Northampton County,PA,6.25,NA
18102,Lehigh County,PA,0.4807692307692308,NA
18201,Luzerne County,PA,NA,21.428571428571427
19010,Delaware County,PA,54.807692307692314,NA
19022,Delaware County,PA,87.98076923076923,NA
19050,Delaware County,PA,27.403846153846157,NA
19064,Delaware County,PA,35.09615384615385,NA
19132,Philadelphia County,PA,26.442307692307693,NA
02907,Providence County,RI,35.57692307692308,NA
02914,Providence County,RI,42.30769230769231,NA
29488,Colleton County,SC,83.17307692307693,NA
29505,Florence County,SC,45.19230769230769,NA
29920,Beaufort County,SC,78.36538461538461,NA
37055,Dickson County,TN,25,NA
37091,Marshall County,TN,NA,50.595238095238095
37179,Williamson County,TN,NA,83.92857142857143
37354,Monroe County,TN,34.13461538461539,NA
37398,Franklin County,TN,NA,57.738095238095234
37643,Carter County,TN,NA,8.928571428571429
37814,Hamblen County,TN,61.057692307692314,NA
37876,Sevier County,TN,30.76923076923077,NA
37920,Knox County,TN,NA,17.261904761904763
75038,Dallas County,TX,NA,93.45238095238095
75080,Dallas County,TX,56.25,NA
75143,Henderson County,TX,NA,58.92857142857143
75401,Hunt County,TX,53.36538461538461,NA
75409,Collin County,TX,NA,81.54761904761905
75791,Smith County,TX,NA,75
76116,Tarrant County,TX,NA,13.690476190476192
76301,Wichita County,TX,NA,69.04761904761905
77006,Harris County,TX,85.09615384615384,NA
77038,Harris County,TX,NA,89.28571428571429
77064,Harris County,TX,33.17307692307692,NA
77375,Harris County,TX,21.634615384615387,NA
77382,Montgomery County,TX,86.53846153846155,NA
77401,Harris County,TX,84.13461538461539,NA
77478,Fort Bend County,TX,NA,47.61904761904761
77488,Wharton County,TX,94.23076923076923,NA
77840,Brazos County,TX,42.78846153846153,NA
77901,Victoria County,TX,NA,19.642857142857142
78155,Guadalupe County,TX,25.48076923076923,NA
78245,Bexar County,TX,24.519230769230766,NA
78250,Bexar County,TX,NA,56.547619047619044
78634,Williamson County,TX,NA,66.66666666666666
78741,Travis County,TX,NA,75.59523809523809
84414,Weber County,UT,68.26923076923077,NA
84501,Carbon County,UT,60.09615384615385,NA
22101,Fairfax County,VA,83.65384615384616,NA
22405,Stafford County,VA,55.28846153846154,NA
22554,Stafford County,VA,28.846153846153843,NA
22923,Greene County,VA,NA,95.23809523809523
23227,Henrico County,VA,38.94230769230769,NA
23234,Chesterfield County,VA,NA,29.761904761904763
23504,Norfolk city,VA,26.923076923076923,NA
23602,Newport News city,VA,NA,25
24219,Wise County,VA,87.5,NA
98052,King County,WA,46.63461538461539,NA
98106,King County,WA,59.13461538461539,NA
98272,Snohomish County,WA,NA,41.07142857142857
98274,Skagit County,WA,NA,38.69047619047619
98926,Kittitas County,WA,NA,32.142857142857146
99207,Spokane County,WA,48.55769230769231,NA
20020,District of Columbia,DC,NA,6.547619047619048
20024,District of Columbia,DC,NA,63.69047619047619
25314,Kanawha County,WV,75.48076923076923,NA
25419,Berkeley County,WV,NA,77.97619047619048
25526,Putnam County,WV,34.61538461538461,NA
26175,Tyler County,WV,96.15384615384616,NA
26201,Upshur County,WV,52.40384615384615,NA
26554,Marion County,WV,NA,1.1904761904761905
53039,Dodge County,WI,NA,98.80952380952381
53090,Washington County,WI,NA,52.38095238095239
53181,Kenosha County,WI,58.17307692307693,NA
53188,Waukesha County,WI,67.3076923076923,NA
53211,Milwaukee County,WI,62.019230769230774,NA
53213,Milwaukee County,WI,NA,27.380952380952383
54143,Marinette County,WI,46.15384615384615,NA
54154,Oconto County,WI,80.28846153846155,NA
82716,Campbell County,WY,NA,89.88095238095238
