ZipCode,county,state,Adult,Retirement,Geriatric
35004,St. Clair County,AL,90.6515580736544,NA,NA
35051,Shelby County,AL,NA,75.74171029668412,NA
35146,St. Clair County,AL,NA,NA,89.21052631578948
35160,Talladega County,AL,NA,NA,33.68421052631579
35223,Jefferson County,AL,NA,98.08027923211169,NA
35401,Tuscaloosa County,AL,NA,91.09947643979058,NA
35406,Tuscaloosa County,AL,NA,92.84467713787086,NA
35453,Tuscaloosa County,AL,76.20396600566572,NA,NA
35475,Tuscaloosa County,AL,NA,82.02443280977313,NA
35555,Fayette County,AL,62.606232294617556,NA,NA
35592,Lamar County,AL,NA,97.73123909249564,NA
35601,Morgan County,AL,16.43059490084986,NA,NA
35801,Madison County,AL,66.28895184135978,NA,NA
35824,Madison County,AL,95.18413597733712,NA,NA
35957,Marshall County,AL,NA,95.81151832460732,NA
35986,DeKalb County,AL,NA,99.82547993019197,NA
36266,Clay County,AL,80.16997167138811,NA,NA
36609,Mobile County,AL,NA,55.32286212914486,NA
36695,Mobile County,AL,NA,25.13089005235602,NA
36867,Russell County,AL,NA,36.474694589877835,NA
99515,Anchorage Municipality,AK,NA,NA,77.89473684210526
99901,Ketchikan Gateway Borough,AK,NA,46.247818499127405,NA
85020,Maricopa County,AZ,39.376770538243626,NA,NA
85041,Maricopa County,AZ,NA,52.70506108202443,NA
85044,Maricopa County,AZ,NA,90.75043630017451,NA
85118,Pinal County,AZ,NA,57.06806282722513,NA
85209,Maricopa County,AZ,NA,77.13787085514834,NA
85213,Maricopa County,AZ,NA,74.69458987783595,NA
85248,Maricopa County,AZ,NA,24.60732984293194,NA
85306,Maricopa County,AZ,NA,76.26527050610821,NA
85339,Maricopa County,AZ,23.512747875354105,NA,NA
85387,Maricopa County,AZ,NA,66.49214659685863,NA
85390,Maricopa County,AZ,NA,NA,61.8421052631579
85621,Santa Cruz County,AZ,46.742209631728045,NA,NA
85704,Pima County,AZ,49.29178470254957,NA,NA
85712,Pima County,AZ,NA,NA,44.21052631578947
85718,Pima County,AZ,NA,NA,20
85750,Pima County,AZ,NA,NA,38.94736842105263
85929,Navajo County,AZ,79.60339943342775,NA,NA
86301,Yavapai County,AZ,NA,NA,17.105263157894736
86429,Mohave County,AZ,NA,51.13438045375218,NA
71603,Jefferson County,AR,NA,81.32635253054102,NA
71665,Cleveland County,AR,NA,83.7696335078534,NA
71671,Bradley County,AR,88.95184135977338,NA,NA
71854,Miller County,AR,NA,68.06282722513089,NA
72015,Saline County,AR,NA,28.097731239092493,NA
72019,Saline County,AR,NA,NA,99.47368421052632
72088,Van Buren County,AR,99.43342776203966,NA,NA
72113,Pulaski County,AR,99.71671388101983,NA,NA
72117,Pulaski County,AR,53.82436260623229,NA,NA
72143,White County,AR,NA,35.25305410122164,NA
72206,Pulaski County,AR,NA,23.56020942408377,NA
72315,Mississippi County,AR,98.30028328611898,NA,NA
72855,Logan County,AR,NA,NA,92.63157894736842
72904,Sebastian County,AR,59.773371104815865,NA,NA
72927,Logan County,AR,NA,NA,79.47368421052632
90025,Los Angeles County,CA,NA,NA,10.789473684210527
90029,Los Angeles County,CA,60.62322946175638,NA,NA
90037,Los Angeles County,CA,NA,35.07853403141361,NA
90047,Los Angeles County,CA,NA,75.04363001745202,NA
90210,Los Angeles County,CA,NA,93.54275741710296,NA
90211,Los Angeles County,CA,NA,NA,74.73684210526315
90280,Los Angeles County,CA,NA,31.762652705061083,NA
90603,Los Angeles County,CA,74.22096317280453,NA,NA
90650,Los Angeles County,CA,20.396600566572236,NA,NA
90712,Los Angeles County,CA,NA,44.67713787085515,NA
90713,Los Angeles County,CA,92.91784702549575,NA,NA
91042,Los Angeles County,CA,69.97167138810198,NA,NA
91326,Los Angeles County,CA,NA,73.1239092495637,NA
91335,Los Angeles County,CA,33.14447592067989,NA,NA
91367,Los Angeles County,CA,56.657223796033996,NA,NA
91423,Los Angeles County,CA,NA,NA,49.21052631578947
91501,Los Angeles County,CA,NA,NA,59.73684210526316
91702,Los Angeles County,CA,NA,38.7434554973822,NA
91730,San Bernardino County,CA,NA,31.588132635253054,NA
91784,San Bernardino County,CA,NA,NA,37.89473684210527
91792,Los Angeles County,CA,NA,NA,62.36842105263158
92057,San Diego County,CA,NA,50.959860383944154,NA
92102,San Diego County,CA,NA,NA,66.3157894736842
92103,San Diego County,CA,NA,NA,42.63157894736842
92105,San Diego County,CA,50.14164305949008,NA,NA
92201,Riverside County,CA,NA,NA,27.105263157894736
92225,Riverside County,CA,NA,94.24083769633508,NA
92236,Riverside County,CA,45.3257790368272,NA,NA
92311,San Bernardino County,CA,38.81019830028329,NA,NA
92407,San Bernardino County,CA,NA,NA,93.94736842105263
92503,Riverside County,CA,22.379603399433428,NA,NA
92530,Riverside County,CA,36.26062322946176,89.3542757417103,NA
92571,Riverside County,CA,NA,47.64397905759162,NA
92585,Riverside County,CA,NA,76.61431064572426,NA
92620,Orange County,CA,NA,38.045375218150085,NA
92625,Orange County,CA,NA,NA,48.94736842105264
92656,Orange County,CA,35.41076487252124,NA,NA
92844,Orange County,CA,NA,64.57242582897034,NA
92845,Orange County,CA,NA,80.10471204188482,NA
93003,Ventura County,CA,NA,16.404886561954623,NA
93041,Ventura County,CA,NA,51.48342059336824,NA
93274,Tulare County,CA,NA,NA,26.052631578947366
93611,Fresno County,CA,NA,30.19197207678883,NA
93619,Fresno County,CA,44.47592067988669,35.602094240837694,NA
93635,Merced County,CA,41.359773371104815,NA,NA
93711,Fresno County,CA,NA,NA,35.526315789473685
94122,San Francisco County,CA,NA,NA,6.315789473684211
94507,Contra Costa County,CA,88.6685552407932,NA,NA
94523,Contra Costa County,CA,NA,49.91273996509599,NA
94526,Contra Costa County,CA,NA,NA,84.47368421052632
94558,Napa County,CA,NA,47.99301919720768,NA
94572,Contra Costa County,CA,NA,97.90575916230367,NA
94587,Alameda County,CA,NA,NA,15
94606,Alameda County,CA,NA,76.09075043630017,NA
94703,Alameda County,CA,65.72237960339945,NA,NA
94930,Marin County,CA,NA,NA,98.42105263157895
94954,Sonoma County,CA,NA,NA,30.789473684210527
95125,Santa Clara County,CA,NA,17.62652705061082,NA
95133,Santa Clara County,CA,NA,61.95462478184991,NA
95301,Merced County,CA,NA,77.83595113438045,NA
95307,Stanislaus County,CA,63.172804532577906,NA,NA
95327,Tuolumne County,CA,NA,NA,41.8421052631579
95355,Stanislaus County,CA,NA,6.108202443280978,NA
95356,Stanislaus County,CA,42.20963172804532,NA,NA
95361,Stanislaus County,CA,43.626062322946176,NA,NA
95370,Tuolumne County,CA,NA,20.76788830715532,NA
95380,Stanislaus County,CA,NA,64.92146596858639,NA
95382,Stanislaus County,CA,27.47875354107649,69.80802792321117,NA
95492,Sonoma County,CA,61.18980169971672,NA,NA
95519,Humboldt County,CA,NA,91.62303664921467,NA
95827,Sacramento County,CA,NA,61.08202443280978,NA
95834,Sacramento County,CA,NA,67.88830715532286,NA
95864,Sacramento County,CA,NA,NA,43.42105263157895
95973,Butte County,CA,NA,19.895287958115183,19.210526315789473
96097,Siskiyou County,CA,77.33711048158641,NA,NA
80011,Arapahoe County,CO,33.42776203966006,NA,NA
80015,Arapahoe County,CO,20.113314447592067,NA,NA
80017,Arapahoe County,CO,NA,NA,56.05263157894736
80026,Boulder County,CO,NA,68.58638743455498,NA
80118,Douglas County,CO,NA,NA,99.73684210526315
80122,Arapahoe County,CO,NA,46.77137870855148,NA
80127,Jefferson County,CO,48.44192634560906,NA,NA
80138,Douglas County,CO,NA,NA,63.94736842105263
80215,Jefferson County,CO,NA,87.26003490401396,NA
80227,Jefferson County,CO,NA,NA,51.31578947368421
80229,Adams County,CO,NA,NA,97.10526315789474
80249,Denver County,CO,38.243626062322946,NA,NA
80521,Larimer County,CO,90.36827195467421,NA,NA
80525,Larimer County,CO,92.06798866855524,73.29842931937172,NA
80526,Larimer County,CO,NA,81.50087260034904,35.78947368421053
80534,Weld County,CO,NA,NA,65.78947368421053
80537,Larimer County,CO,54.95750708215298,NA,NA
80538,Larimer County,CO,15.01416430594901,NA,NA
80550,Weld County,CO,31.444759206798867,NA,47.89473684210526
80634,Weld County,CO,NA,82.37347294938918,NA
80723,Morgan County,CO,NA,90.57591623036649,NA
80922,El Paso County,CO,56.37393767705382,85.16579406631763,NA
81005,Pueblo County,CO,NA,19.720767888307154,NA
81301,La Plata County,CO,NA,NA,50.78947368421053
81321,Montezuma County,CO,NA,NA,47.63157894736842
81505,Mesa County,CO,NA,NA,80.26315789473685
81623,Garfield County,CO,NA,NA,91.05263157894737
81632,Eagle County,CO,NA,79.05759162303664,NA
06010,Hartford County,CT,NA,2.2687609075043627,24.210526315789473
06029,Tolland County,CT,58.92351274787535,NA,NA
06074,Hartford County,CT,NA,46.596858638743456,NA
06082,Hartford County,CT,NA,NA,15.263157894736842
06105,Hartford County,CT,NA,NA,78.6842105263158
06110,Hartford County,CT,NA,96.16055846422339,NA
06118,Hartford County,CT,NA,NA,64.47368421052632
06239,Windham County,CT,37.110481586402265,NA,NA
06410,New Haven County,CT,NA,37.17277486910995,NA
06426,Middlesex County,CT,NA,91.97207678883072,NA
06450,New Haven County,CT,NA,NA,87.10526315789474
06457,Middlesex County,CT,NA,33.1588132635253,NA
06473,New Haven County,CT,NA,58.1151832460733,NA
06475,Middlesex County,CT,NA,NA,45.78947368421053
06478,New Haven County,CT,NA,NA,85.52631578947368
06484,Fairfield County,CT,NA,56.54450261780105,16.842105263157894
06513,New Haven County,CT,5.099150141643059,NA,NA
06514,New Haven County,CT,83.0028328611898,NA,NA
06516,New Haven County,CT,NA,20.069808027923212,NA
06614,Fairfield County,CT,NA,27.399650959860384,NA
06779,Litchfield County,CT,NA,79.75567190226876,66.84210526315789
06784,Fairfield County,CT,NA,100,NA
06790,Litchfield County,CT,NA,1.9197207678883073,NA
06811,Fairfield County,CT,47.875354107648725,NA,49.473684210526315
06850,Fairfield County,CT,67.98866855524079,NA,NA
06880,Fairfield County,CT,NA,NA,54.736842105263165
06902,Fairfield County,CT,NA,7.853403141361256,NA
19702,New Castle County,DE,NA,14.136125654450263,NA
19709,New Castle County,DE,NA,16.230366492146597,NA
19804,New Castle County,DE,NA,41.18673647469459,NA
19933,Sussex County,DE,NA,NA,68.94736842105263
19934,Kent County,DE,NA,63.525305410122165,NA
19947,Sussex County,DE,NA,34.72949389179756,NA
32068,Clay County,FL,14.164305949008499,NA,NA
32080,St. Johns County,FL,NA,51.30890052356021,NA
32081,St. Johns County,FL,NA,71.72774869109948,NA
32084,St. Johns County,FL,NA,NA,35
32086,St. Johns County,FL,NA,NA,13.421052631578947
32091,Bradford County,FL,NA,35.42757417102967,NA
32092,St. Johns County,FL,52.40793201133145,NA,NA
32174,Volusia County,FL,NA,NA,9.736842105263158
32216,Duval County,FL,NA,23.7347294938918,NA
32226,Duval County,FL,NA,NA,69.73684210526315
32407,Bay County,FL,NA,95.98603839441536,NA
32413,Bay County,FL,NA,47.12041884816754,NA
32456,Gulf County,FL,NA,51.832460732984295,NA
32571,Santa Rosa County,FL,NA,43.1064572425829,NA
32578,Okaloosa County,FL,NA,15.706806282722512,NA
32696,Levy County,FL,NA,NA,71.84210526315789
32806,Orange County,FL,NA,NA,32.631578947368425
32809,Orange County,FL,NA,NA,48.68421052631579
32931,Brevard County,FL,NA,56.36998254799301,NA
32935,Brevard County,FL,NA,38.045375218150085,NA
32952,Brevard County,FL,NA,NA,18.947368421052634
33015,Miami-Dade County,FL,NA,39.9650959860384,NA
33019,Broward County,FL,NA,71.55322862129145,NA
33070,Monroe County,FL,NA,NA,96.57894736842105
33140,Miami-Dade County,FL,NA,NA,53.421052631578945
33142,Miami-Dade County,FL,88.10198300283287,NA,NA
33175,Miami-Dade County,FL,NA,52.18150087260035,NA
33187,Miami-Dade County,FL,97.73371104815864,NA,NA
33308,Broward County,FL,72.80453257790369,NA,NA
33321,Broward County,FL,NA,97.38219895287958,NA
33324,Broward County,FL,NA,41.8848167539267,NA
33437,Palm Beach County,FL,NA,NA,0.2631578947368421
33458,Palm Beach County,FL,NA,52.00698080279233,NA
33467,Palm Beach County,FL,77.62039660056658,NA,NA
33496,Palm Beach County,FL,NA,97.20767888307155,NA
33534,Hillsborough County,FL,NA,83.94415357766142,NA
33542,Pasco County,FL,55.80736543909348,NA,NA
33543,Pasco County,FL,77.05382436260622,NA,NA
33556,Hillsborough County,FL,NA,54.79930191972077,NA
33579,Hillsborough County,FL,NA,67.5392670157068,NA
33584,Hillsborough County,FL,NA,57.417102966841185,NA
33596,Hillsborough County,FL,NA,NA,71.84210526315789
33612,Hillsborough County,FL,11.3314447592068,NA,NA
33616,Hillsborough County,FL,NA,92.67015706806284,NA
33624,Hillsborough County,FL,NA,40.31413612565445,NA
33626,Hillsborough County,FL,96.03399433427762,NA,NA
33634,Hillsborough County,FL,NA,NA,70.78947368421052
33637,Hillsborough County,FL,78.18696883852692,NA,NA
33712,Pinellas County,FL,NA,NA,82.89473684210526
33810,Polk County,FL,NA,60.03490401396161,NA
33898,Polk County,FL,NA,NA,71.57894736842105
33974,Lee County,FL,NA,86.73647469458989,NA
33983,Charlotte County,FL,NA,NA,55.26315789473685
34108,Collier County,FL,NA,48.69109947643979,NA
34119,Collier County,FL,NA,21.640488656195462,NA
34202,Manatee County,FL,NA,33.33333333333333,NA
34203,Manatee County,FL,55.240793201133144,NA,NA
34228,Sarasota County,FL,NA,NA,41.05263157894737
34243,Manatee County,FL,98.58356940509914,NA,8.157894736842106
34292,Sarasota County,FL,NA,NA,12.105263157894736
34442,Citrus County,FL,NA,74.3455497382199,NA
34446,Citrus County,FL,NA,NA,35.26315789473684
34473,Marion County,FL,50.42492917847026,NA,NA
34480,Marion County,FL,NA,68.93542757417103,NA
34607,Hernando County,FL,NA,65.96858638743456,NA
34637,Pasco County,FL,NA,93.89179755671903,NA
34654,Pasco County,FL,49.008498583569406,NA,NA
34695,Pinellas County,FL,87.53541076487252,NA,NA
34786,Orange County,FL,78.47025495750708,NA,NA
34949,St. Lucie County,FL,NA,NA,64.21052631578948
34957,Martin County,FL,NA,NA,17.105263157894736
34997,Martin County,FL,NA,NA,5.263157894736842
30008,Cobb County,GA,NA,NA,71.05263157894737
30017,Gwinnett County,GA,63.45609065155807,NA,NA
30022,Fulton County,GA,NA,40.139616055846425,NA
30044,Gwinnett County,GA,NA,11.518324607329843,NA
30046,Gwinnett County,GA,NA,NA,43.15789473684211
30117,Carroll County,GA,NA,NA,30.526315789473685
30127,Cobb County,GA,NA,25.82897033158813,NA
30173,Floyd County,GA,NA,NA,95
30215,Fayette County,GA,NA,28.970331588132638,NA
30252,Henry County,GA,NA,NA,62.63157894736842
30288,Clayton County,GA,94.61756373937678,NA,NA
30518,Gwinnett County,GA,NA,30.017452006980804,NA
30721,Whitfield County,GA,NA,66.84118673647468,NA
30747,Chattooga County,GA,73.08781869688386,NA,NA
30814,Columbia County,GA,NA,NA,68.42105263157895
31204,Bibb County,GA,NA,78.70855148342059,NA
31510,Bacon County,GA,NA,NA,50.526315789473685
31535,Coffee County,GA,NA,NA,71.3157894736842
31569,Camden County,GA,94.3342776203966,NA,NA
31602,Lowndes County,GA,NA,39.44153577661431,NA
31605,Lowndes County,GA,68.55524079320114,NA,NA
31634,Clinch County,GA,NA,NA,92.10526315789474
31721,Dougherty County,GA,NA,54.275741710296685,NA
31792,Thomas County,GA,NA,27.05061082024433,NA
39840,Randolph County,GA,NA,NA,82.10526315789474
96817,Honolulu County,HI,13.314447592067987,NA,NA
96826,Honolulu County,HI,NA,26.701570680628272,NA
83211,Power County,ID,79.3201133144476,NA,NA
83333,Blaine County,ID,NA,53.054101221640494,NA
83501,Nez Perce County,ID,NA,NA,6.052631578947368
83617,Gem County,ID,67.42209631728045,NA,NA
83634,Ada County,ID,85.8356940509915,NA,NA
83646,Ada County,ID,41.92634560906516,NA,NA
83651,Canyon County,ID,NA,NA,14.736842105263156
83686,Canyon County,ID,NA,NA,3.684210526315789
83713,Ada County,ID,83.56940509915015,NA,NA
83805,Boundary County,ID,NA,60.38394415357766,NA
83856,Bonner County,ID,86.11898016997166,NA,NA
60005,Cook County,IL,56.09065155807366,NA,NA
60010,Lake County,IL,NA,NA,17.894736842105264
60030,Lake County,IL,45.04249291784703,NA,NA
60045,Lake County,IL,NA,50.6108202443281,NA
60053,Cook County,IL,NA,27.923211169284468,NA
60064,Lake County,IL,NA,NA,78.42105263157895
60067,Cook County,IL,NA,NA,72.63157894736842
60068,Cook County,IL,NA,NA,21.578947368421055
60076,Cook County,IL,46.1756373937677,NA,NA
60085,Lake County,IL,20.679886685552407,NA,NA
60119,Kane County,IL,NA,NA,86.8421052631579
60126,DuPage County,IL,37.39376770538244,18.32460732984293,NA
60134,Kane County,IL,NA,NA,26.842105263157894
60143,DuPage County,IL,NA,NA,76.05263157894737
60152,McHenry County,IL,NA,NA,56.84210526315789
60156,McHenry County,IL,NA,50.26178010471204,NA
60181,DuPage County,IL,32.86118980169972,NA,NA
60403,Will County,IL,NA,NA,46.05263157894737
60406,Cook County,IL,NA,63.87434554973822,NA
60419,Cook County,IL,NA,NA,88.94736842105263
60439,Cook County,IL,45.609065155807365,NA,NA
60450,Grundy County,IL,27.19546742209632,NA,NA
60451,Will County,IL,NA,11.69284467713787,44.73684210526316
60462,Cook County,IL,NA,NA,57.10526315789474
60475,Will County,IL,NA,NA,83.15789473684211
60510,Kane County,IL,NA,43.280977312390924,NA
60527,DuPage County,IL,NA,35.602094240837694,NA
60540,DuPage County,IL,NA,87.43455497382199,34.73684210526316
60544,Will County,IL,NA,20.593368237347295,NA
60559,DuPage County,IL,NA,NA,91.84210526315789
60585,Will County,IL,86.68555240793201,NA,NA
60608,Cook County,IL,12.181303116147308,10.296684118673648,NA
60609,Cook County,IL,NA,NA,20.789473684210527
60619,Cook County,IL,NA,NA,2.368421052631579
60626,Cook County,IL,NA,5.06108202443281,NA
60638,Cook County,IL,NA,NA,5
60914,Kankakee County,IL,NA,NA,26.31578947368421
61008,Boone County,IL,NA,15.532286212914483,NA
61107,Winnebago County,IL,NA,NA,20.263157894736842
61111,Winnebago County,IL,NA,NA,75.78947368421053
61401,Knox County,IL,NA,24.25828970331588,NA
61520,Fulton County,IL,NA,NA,32.36842105263158
61603,Peoria County,IL,64.30594900849859,NA,NA
61821,Champaign County,IL,NA,NA,11.842105263157894
61832,Vermilion County,IL,NA,6.806282722513089,NA
62035,Madison County,IL,NA,49.21465968586388,NA
62095,Madison County,IL,NA,NA,50.26315789473684
62208,St. Clair County,IL,NA,56.8935427574171,NA
62521,Macon County,IL,NA,32.63525305410122,NA
62618,Cass County,IL,NA,74.86910994764398,NA
62704,Sangamon County,IL,NA,24.083769633507853,NA
62821,White County,IL,NA,78.35951134380453,NA
46001,Madison County,IN,NA,NA,51.84210526315789
46012,Madison County,IN,39.94334277620396,16.57940663176265,NA
46034,Hamilton County,IN,NA,86.2129144851658,NA
46062,Hamilton County,IN,NA,87.78359511343804,NA
46123,Hendricks County,IN,NA,37.347294938917976,NA
46135,Putnam County,IN,NA,53.92670157068062,NA
46140,Hancock County,IN,NA,NA,64.73684210526316
46168,Hendricks County,IN,41.07648725212464,NA,NA
46218,Marion County,IN,NA,NA,25.526315789473685
46219,Marion County,IN,14.44759206798867,NA,NA
46231,Marion County,IN,NA,57.76614310645725,NA
46236,Marion County,IN,NA,43.97905759162304,NA
46241,Marion County,IN,NA,NA,77.63157894736842
46259,Marion County,IN,NA,NA,87.36842105263159
46304,Porter County,IN,NA,13.438045375218149,NA
46307,Lake County,IN,NA,NA,38.421052631578945
46312,Lake County,IN,NA,33.85689354275742,NA
46323,Lake County,IN,NA,NA,34.21052631578947
46534,Starke County,IN,55.524079320113316,NA,NA
46580,Kosciusko County,IN,NA,NA,31.05263157894737
46637,St. Joseph County,IN,81.30311614730878,NA,NA
46706,DeKalb County,IN,NA,NA,85.78947368421052
46809,Allen County,IN,56.94050991501416,NA,NA
46835,Allen County,IN,NA,7.504363001745201,NA
46901,Howard County,IN,NA,NA,6.842105263157896
46947,Cass County,IN,NA,8.027923211169284,NA
46952,Grant County,IN,21.529745042492916,NA,NA
46953,Grant County,IN,NA,8.202443280977311,NA
47112,Harrison County,IN,NA,NA,60
47130,Clark County,IN,NA,NA,62.10526315789474
47150,Floyd County,IN,NA,NA,23.42105263157895
47304,Delaware County,IN,NA,36.12565445026178,NA
47331,Fayette County,IN,NA,NA,8.947368421052632
47371,Jay County,IN,NA,NA,74.21052631578947
47460,Owen County,IN,95.75070821529745,NA,NA
47501,Daviess County,IN,39.09348441926346,NA,NA
47546,Dubois County,IN,NA,32.460732984293195,NA
47620,Posey County,IN,NA,86.91099476439791,NA
47842,Vermillion County,IN,NA,89.00523560209425,NA
50010,Story County,IA,NA,64.74694589877836,NA
50129,Greene County,IA,NA,NA,88.68421052631578
50220,Dallas County,IA,NA,NA,83.15789473684211
50322,Polk County,IA,80.73654390934844,NA,NA
50703,Black Hawk County,IA,71.671388101983,NA,NA
51501,Pottawattamie County,IA,NA,36.3001745200698,NA
52101,Winneshiek County,IA,NA,NA,28.947368421052634
52349,Benton County,IA,68.83852691218131,NA,NA
52556,Jefferson County,IA,NA,53.403141361256544,NA
52601,Des Moines County,IA,NA,11.169284467713787,NA
52641,Henry County,IA,NA,73.99650959860384,NA
52722,Scott County,IA,NA,23.38568935427574,NA
52761,Muscatine County,IA,12.747875354107649,NA,NA
52806,Scott County,IA,NA,31.239092495637,NA
66006,Douglas County,KS,NA,94.58987783595113,NA
66061,Johnson County,KS,22.6628895184136,NA,NA
66062,Johnson County,KS,NA,12.390924956369982,NA
66208,Johnson County,KS,NA,44.32809773123909,NA
66214,Johnson County,KS,NA,72.77486910994764,NA
66215,Johnson County,KS,NA,37.52181500872601,NA
66221,Johnson County,KS,NA,93.01919720767889,NA
66536,Pottawatomie County,KS,97.16713881019831,NA,NA
66610,Shawnee County,KS,NA,78.01047120418848,NA
66614,Shawnee County,KS,NA,NA,16.315789473684212
66801,Lyon County,KS,NA,73.64746945898779,NA
67152,Sumner County,KS,NA,90.92495636998254,NA
67218,Sedgwick County,KS,70.53824362606233,NA,NA
67357,Labette County,KS,NA,85.34031413612566,NA
67410,Dickinson County,KS,NA,61.60558464223386,NA
67601,Ellis County,KS,42.77620396600567,14.31064572425829,NA
40031,Oldham County,KY,NA,72.6003490401396,NA
40203,Jefferson County,KY,23.79603399433428,NA,NA
40207,Jefferson County,KY,NA,28.097731239092493,NA
40216,Jefferson County,KY,NA,9.07504363001745,NA
40218,Jefferson County,KY,16.997167138810198,NA,NA
40361,Bourbon County,KY,38.52691218130311,NA,NA
40391,Clark County,KY,NA,NA,25.789473684210527
40403,Madison County,KY,NA,34.904013961605585,NA
40422,Boyle County,KY,NA,NA,52.89473684210526
40444,Garrard County,KY,59.20679886685553,NA,NA
40456,Rockcastle County,KY,NA,89.52879581151832,NA
40509,Fayette County,KY,35.12747875354108,NA,NA
40744,Laurel County,KY,NA,NA,70
40965,Bell County,KY,NA,84.64223385689354,NA
41005,Boone County,KY,NA,NA,80.78947368421052
41071,Campbell County,KY,NA,28.970331588132638,NA
41102,Boyd County,KY,23.229461756373937,NA,NA
41139,Greenup County,KY,43.90934844192634,NA,NA
41230,Lawrence County,KY,28.328611898016998,NA,NA
41501,Pike County,KY,NA,NA,29.736842105263158
41537,Letcher County,KY,83.28611898016997,NA,NA
41653,Floyd County,KY,NA,32.98429319371728,NA
41701,Perry County,KY,96.60056657223795,NA,94.73684210526315
42001,McCracken County,KY,31.1614730878187,NA,NA
42066,Graves County,KY,24.929178470254957,NA,NA
42129,Metcalfe County,KY,NA,54.62478184991274,NA
42256,Logan County,KY,NA,84.81675392670157,NA
42261,Butler County,KY,NA,80.45375218150087,NA
42303,Daviess County,KY,NA,NA,21.842105263157897
42539,Casey County,KY,NA,NA,66.05263157894737
42633,Wayne County,KY,NA,30.36649214659686,NA
42718,Taylor County,KY,42.492917847025495,34.3804537521815,NA
70002,Jefferson Parish,LA,NA,NA,34.473684210526315
70003,Jefferson Parish,LA,8.78186968838527,NA,NA
70006,Jefferson Parish,LA,NA,38.917975567190226,28.421052631578945
70114,Orleans Parish,LA,NA,NA,90.78947368421053
70115,Orleans Parish,LA,73.37110481586402,NA,NA
70116,Orleans Parish,LA,NA,NA,86.05263157894737
70122,Orleans Parish,LA,78.75354107648725,NA,NA
70131,Orleans Parish,LA,NA,60.90750436300174,NA
70359,Terrebonne Parish,LA,33.711048158640224,NA,NA
70360,Terrebonne Parish,LA,11.89801699716714,NA,NA
70363,Terrebonne Parish,LA,40.50991501416431,NA,NA
70403,Tangipahoa Parish,LA,8.21529745042493,NA,NA
70431,St. Tammany Parish,LA,NA,NA,82.63157894736842
70458,St. Tammany Parish,LA,7.0821529745042495,NA,NA
70471,St. Tammany Parish,LA,43.05949008498583,NA,NA
70503,Lafayette Parish,LA,39.6600566572238,NA,NA
70510,Vermilion Parish,LA,10.48158640226629,NA,NA
70512,St. Landry Parish,LA,62.3229461756374,NA,NA
70535,St. Landry Parish,LA,NA,39.09249563699825,NA
70726,Livingston Parish,LA,NA,NA,22.105263157894736
70775,West Feliciana Parish,LA,NA,97.55671902268762,NA
70809,East Baton Rouge Parish,LA,NA,NA,37.631578947368425
70817,East Baton Rouge Parish,LA,NA,77.4869109947644,NA
71047,Caddo Parish,LA,NA,44.50261780104712,NA
71105,Caddo Parish,LA,NA,NA,67.63157894736842
71108,Caddo Parish,LA,37.960339943342774,NA,NA
71109,Caddo Parish,LA,NA,21.291448516579408,NA
71111,Bossier Parish,LA,NA,9.947643979057592,NA
71118,Caddo Parish,LA,NA,NA,18.157894736842106
71322,Avoyelles Parish,LA,79.03682719546742,NA,NA
04222,Androscoggin County,ME,98.86685552407933,NA,NA
04240,Androscoggin County,ME,2.5495750708215295,15.008726003490402,NA
04280,Androscoggin County,ME,NA,NA,57.89473684210527
04281,Oxford County,ME,NA,NA,62.89473684210526
04345,Kennebec County,ME,NA,92.32111692844677,NA
04416,Hancock County,ME,NA,89.70331588132635,NA
04426,Piscataquis County,ME,NA,NA,82.36842105263158
04730,Aroostook County,ME,NA,NA,32.10526315789474
04963,Kennebec County,ME,NA,57.940663176265275,NA
20640,Charles County,MD,NA,NA,88.1578947368421
20772,Prince George's County,MD,NA,45.54973821989529,NA
21037,Anne Arundel County,MD,NA,63.00174520069808,NA
21050,Harford County,MD,67.98866855524079,NA,NA
21102,Carroll County,MD,NA,NA,88.42105263157895
21222,Baltimore County,MD,5.94900849858357,13.787085514834205,NA
21244,Baltimore County,MD,NA,96.33507853403141,NA
21601,Talbot County,MD,NA,37.87085514834206,NA
21613,Dorchester County,MD,NA,48.86561954624782,NA
21903,Cecil County,MD,NA,84.99127399650959,NA
01151,Hampden County,MA,84.13597733711048,NA,NA
01364,Franklin County,MA,NA,19.19720767888307,NA
01520,Worcester County,MA,NA,NA,97.36842105263158
01760,Middlesex County,MA,NA,5.2356020942408374,NA
01801,Middlesex County,MA,1.41643059490085,NA,1.8421052631578945
01821,Middlesex County,MA,NA,1.2216404886561953,NA
01852,Middlesex County,MA,0.28328611898017,NA,NA
01867,Middlesex County,MA,29.178470254957507,NA,NA
01880,Middlesex County,MA,8.498583569405099,NA,NA
01887,Middlesex County,MA,NA,NA,92.89473684210526
01913,Essex County,MA,NA,6.282722513089005,NA
01930,Essex County,MA,NA,NA,7.105263157894736
01983,Essex County,MA,81.01983002832861,NA,NA
02035,Norfolk County,MA,34.56090651558073,NA,NA
02067,Norfolk County,MA,77.90368271954674,NA,NA
02121,Suffolk County,MA,NA,NA,84.21052631578947
02128,Suffolk County,MA,NA,NA,5.7894736842105265
02130,Suffolk County,MA,NA,12.041884816753926,NA
02131,Suffolk County,MA,NA,3.664921465968586,NA
02135,Suffolk County,MA,4.53257790368272,NA,NA
02149,Middlesex County,MA,NA,0.6980802792321117,NA
02155,Middlesex County,MA,NA,0.34904013961605584,NA
02180,Middlesex County,MA,NA,NA,42.89473684210526
02301,Plymouth County,MA,0,0,NA
02347,Plymouth County,MA,NA,79.23211169284468,NA
02360,Plymouth County,MA,1.13314447592068,NA,NA
02420,Middlesex County,MA,NA,75.21815008726004,NA
02446,Norfolk County,MA,NA,4.886561954624781,NA
02453,Middlesex County,MA,9.631728045325778,NA,NA
02461,Middlesex County,MA,NA,NA,76.84210526315789
02467,Norfolk County,MA,NA,NA,29.47368421052631
02476,Middlesex County,MA,NA,NA,40.526315789473685
02601,Barnstable County,MA,5.6657223796034,NA,NA
02632,Barnstable County,MA,NA,NA,36.578947368421055
02648,Barnstable County,MA,NA,57.59162303664922,NA
02653,Barnstable County,MA,NA,NA,47.368421052631575
02760,Bristol County,MA,40.226628895184135,NA,NA
02766,Bristol County,MA,NA,70.15706806282722,NA
02771,Bristol County,MA,NA,41.361256544502616,NA
02779,Bristol County,MA,NA,60.20942408376963,NA
48021,Macomb County,MI,NA,13.612565445026178,NA
48025,Oakland County,MI,75.63739376770539,NA,NA
48043,Macomb County,MI,NA,47.4694589877836,NA
48044,Macomb County,MI,NA,26.003490401396164,NA
48047,Macomb County,MI,NA,10.471204188481675,NA
48066,Macomb County,MI,36.827195467422094,NA,NA
48082,Macomb County,MI,NA,31.413612565445025,NA
48083,Oakland County,MI,57.50708215297451,NA,NA
48092,Macomb County,MI,NA,49.73821989528796,NA
48105,Washtenaw County,MI,NA,10.820244328097731,NA
48130,Washtenaw County,MI,NA,63.35078534031413,NA
48135,Wayne County,MI,NA,20.418848167539267,NA
48150,Wayne County,MI,NA,17.277486910994764,NA
48160,Washtenaw County,MI,86.11898016997166,NA,NA
48161,Monroe County,MI,32.577903682719544,NA,NA
48167,Oakland County,MI,NA,NA,12.894736842105264
48176,Washtenaw County,MI,NA,NA,23.94736842105263
48192,Wayne County,MI,NA,25.479930191972077,NA
48197,Washtenaw County,MI,18.69688385269122,NA,NA
48219,Wayne County,MI,26.062322946175637,NA,NA
48221,Wayne County,MI,NA,4.363001745200698,NA
48236,Wayne County,MI,NA,10.12216404886562,NA
48240,Wayne County,MI,NA,49.040139616055846,NA
48304,Oakland County,MI,NA,94.9389179755672,NA
48306,Oakland County,MI,NA,NA,40.26315789473684
48313,Macomb County,MI,28.611898016997166,NA,NA
48323,Oakland County,MI,NA,66.14310645724258,NA
48327,Oakland County,MI,34.27762039660057,NA,NA
48329,Oakland County,MI,34.844192634560905,49.389179755671904,NA
48348,Oakland County,MI,NA,NA,55.00000000000001
48363,Oakland County,MI,NA,83.07155322862128,NA
48393,Oakland County,MI,NA,89.17975567190227,NA
48439,Genesee County,MI,NA,NA,12.368421052631579
48446,Lapeer County,MI,18.13031161473088,NA,NA
48475,Huron County,MI,NA,98.25479930191972,NA
48507,Genesee County,MI,NA,25.654450261780106,NA
48609,Saginaw County,MI,NA,NA,52.63157894736842
48723,Tuscola County,MI,NA,NA,41.578947368421055
48840,Ingham County,MI,NA,78.53403141361257,NA
48858,Isabella County,MI,7.932011331444759,NA,NA
48911,Ingham County,MI,NA,11.343804537521814,NA
49009,Kalamazoo County,MI,14.44759206798867,NA,NA
49201,Jackson County,MI,NA,NA,7.631578947368421
49221,Lenawee County,MI,NA,NA,63.421052631578945
49426,Ottawa County,MI,NA,31.93717277486911,NA
49503,Kent County,MI,10.764872521246458,NA,NA
49506,Kent County,MI,NA,NA,19.473684210526315
49635,Benzie County,MI,NA,NA,98.15789473684211
49646,Kalkaska County,MI,53.25779036827195,NA,NA
49684,Grand Traverse County,MI,NA,21.98952879581152,NA
49686,Grand Traverse County,MI,NA,53.22862129144852,NA
49770,Emmet County,MI,NA,44.85165794066317,NA
49802,Dickinson County,MI,NA,80.97731239092496,NA
49829,Delta County,MI,NA,22.862129144851657,NA
49868,Luce County,MI,NA,79.75567190226876,NA
49920,Iron County,MI,NA,50.78534031413613,NA
49930,Houghton County,MI,NA,NA,60.78947368421053
55014,Anoka County,MN,NA,59.16230366492147,NA
55033,Dakota County,MN,32.01133144475921,NA,NA
55045,Chisago County,MN,97.45042492917847,NA,NA
55076,Dakota County,MN,NA,48.167539267015705,NA
55126,Ramsey County,MN,NA,58.813263525305416,NA
55309,Sherburne County,MN,NA,NA,99.21052631578947
55330,Sherburne County,MN,NA,34.55497382198953,NA
55345,Hennepin County,MN,NA,62.82722513089005,NA
55350,McLeod County,MN,NA,NA,16.05263157894737
55352,Scott County,MN,NA,80.80279232111693,NA
55371,Mille Lacs County,MN,NA,NA,78.6842105263158
55404,Hennepin County,MN,NA,2.6178010471204187,NA
55406,Hennepin County,MN,26.912181303116146,NA,NA
55407,Hennepin County,MN,NA,26.527050610820247,NA
55408,Hennepin County,MN,12.464589235127479,35.602094240837694,NA
55411,Hennepin County,MN,NA,12.739965095986038,NA
55418,Hennepin County,MN,NA,30.715532286212916,NA
55981,Wabasha County,MN,NA,NA,76.57894736842105
55987,Winona County,MN,NA,2.7923211169284468,NA
56003,Nicollet County,MN,NA,60.73298429319372,NA
56011,Scott County,MN,NA,NA,94.21052631578948
56347,Todd County,MN,90.93484419263456,NA,NA
56425,Crow Wing County,MN,NA,63.17626527050611,NA
56544,Becker County,MN,85.55240793201133,NA,NA
56621,Clearwater County,MN,NA,53.57766143106457,NA
38632,DeSoto County,MS,51.84135977337111,NA,81.3157894736842
38824,Prentiss County,MS,NA,NA,66.57894736842105
38843,Itawamba County,MS,70.25495750708215,NA,NA
38851,Chickasaw County,MS,NA,NA,97.63157894736842
38858,Monroe County,MS,NA,93.717277486911,NA
38922,Yalobusha County,MS,NA,88.1326352530541,NA
39046,Madison County,MS,29.745042492917843,NA,NA
39507,Harrison County,MS,NA,NA,11.578947368421053
39556,Hancock County,MS,61.756373937677054,NA,NA
39652,Pike County,MS,NA,68.93542757417103,NA
39705,Lowndes County,MS,64.58923512747874,NA,NA
63011,St. Louis County,MO,NA,13.089005235602095,NA
63021,St. Louis County,MO,NA,7.155322862129145,NA
63043,St. Louis County,MO,NA,44.153577661431065,NA
63114,St. Louis County,MO,96.88385269121812,NA,NA
63123,St. Louis County,MO,NA,NA,40.78947368421053
63125,St. Louis County,MO,NA,23.036649214659686,NA
63128,St. Louis County,MO,69.40509915014165,NA,NA
63129,St. Louis County,MO,NA,NA,10
63130,St. Louis County,MO,NA,48.51657940663176,NA
63134,St. Louis County,MO,87.25212464589235,NA,NA
63147,St. Louis city,MO,NA,78.70855148342059,NA
63301,St. Charles County,MO,NA,NA,42.368421052631575
63303,St. Charles County,MO,NA,37.696335078534034,NA
63367,St. Charles County,MO,NA,NA,24.47368421052632
63401,Marion County,MO,NA,NA,68.15789473684211
63935,Ripley County,MO,54.107648725212464,NA,NA
63957,Wayne County,MO,NA,86.03839441535777,NA
64020,Lafayette County,MO,94.90084985835693,NA,NA
64024,Clay County,MO,51.27478753541076,NA,NA
64030,Jackson County,MO,50.991501416430594,NA,NA
64055,Jackson County,MO,NA,5.4101221640488655,NA
64081,Jackson County,MO,NA,33.50785340314136,NA
64112,Jackson County,MO,NA,67.5392670157068,NA
64116,Clay County,MO,26.345609065155806,NA,NA
64118,Clay County,MO,6.79886685552408,NA,NA
64119,Clay County,MO,NA,65.27050610820244,NA
64127,Jackson County,MO,NA,30.89005235602094,NA
64151,Platte County,MO,NA,95.28795811518324,NA
64157,Clay County,MO,75.07082152974505,NA,NA
64628,Linn County,MO,NA,81.84991273996509,NA
64683,Grundy County,MO,NA,52.879581151832454,NA
64834,Jasper County,MO,NA,NA,59.473684210526315
65203,Boone County,MO,NA,NA,60.526315789473685
65270,Randolph County,MO,30.878186968838527,NA,NA
65301,Pettis County,MO,4.2492917847025495,5.5846422338568935,NA
65802,Greene County,MO,NA,15.18324607329843,NA
59101,Yellowstone County,MT,NA,NA,13.157894736842104
59330,Dawson County,MT,NA,NA,56.57894736842105
59405,Cascade County,MT,NA,NA,7.368421052631578
59714,Gallatin County,MT,NA,NA,81.3157894736842
59718,Gallatin County,MT,NA,76.96335078534031,95.26315789473684
59901,Flathead County,MT,NA,NA,1.3157894736842104
59937,Flathead County,MT,88.38526912181302,NA,55.78947368421052
68022,Douglas County,NE,NA,NA,89.47368421052632
68025,Dodge County,NE,NA,20.94240837696335,NA
68116,Douglas County,NE,94.05099150141642,NA,NA
68137,Douglas County,NE,52.69121813031161,NA,NA
68310,Gage County,NE,NA,46.247818499127405,NA
68434,Seward County,NE,NA,NA,67.10526315789474
68850,Dawson County,NE,NA,73.47294938917976,NA
69001,Red Willow County,NE,NA,NA,46.578947368421055
89113,Clark County,NV,NA,86.56195462478185,NA
89130,Clark County,NV,54.6742209631728,NA,NA
89451,Washoe County,NV,NA,78.1849912739965,NA
89801,Elko County,NV,63.73937677053825,NA,NA
03031,Hillsborough County,NH,NA,80.10471204188482,NA
03051,Hillsborough County,NH,24.645892351274785,NA,NA
03104,Hillsborough County,NH,16.71388101983003,NA,NA
03743,Sullivan County,NH,54.39093484419264,NA,NA
03825,Strafford County,NH,NA,42.059336823734725,NA
03867,Strafford County,NH,NA,NA,4.736842105263158
07006,Essex County,NJ,NA,NA,73.42105263157895
07013,Passaic County,NJ,NA,NA,75
07036,Union County,NJ,NA,93.19371727748691,NA
07417,Bergen County,NJ,NA,91.2739965095986,NA
07712,Monmouth County,NJ,3.1161473087818696,NA,NA
07716,Monmouth County,NJ,NA,79.40663176265271,NA
07722,Monmouth County,NJ,NA,NA,91.3157894736842
07726,Monmouth County,NJ,31.728045325779036,NA,NA
07746,Monmouth County,NJ,NA,NA,61.31578947368421
07843,Sussex County,NJ,NA,70.33158813263525,NA
07885,Morris County,NJ,NA,NA,46.8421052631579
08056,Gloucester County,NJ,NA,98.95287958115183,NA
08759,Ocean County,NJ,NA,1.0471204188481675,NA
08820,Middlesex County,NJ,NA,NA,19.736842105263158
08822,Hunterdon County,NJ,NA,28.44677137870855,NA
08837,Middlesex County,NJ,NA,75.5671902268761,NA
08861,Middlesex County,NJ,1.69971671388102,NA,21.052631578947366
08865,Warren County,NJ,NA,6.631762652705062,NA
87111,Bernalillo County,NM,3.39943342776204,NA,NA
87123,Bernalillo County,NM,NA,3.8394415357766145,NA
87410,San Juan County,NM,NA,82.72251308900523,NA
87505,Santa Fe County,NM,6.515580736543909,4.712041884816754,NA
87508,Santa Fe County,NM,NA,45.37521815008726,NA
88001,Doa Ana County,NM,NA,NA,73.68421052631578
88007,Doa Ana County,NM,57.22379603399433,NA,NA
88012,Doa Ana County,NM,NA,NA,77.36842105263158
88310,Otero County,NM,NA,3.4904013961605584,NA
88345,Lincoln County,NM,69.68838526912181,NA,NA
10002,New York County,NY,3.9660056657223794,NA,NA
10011,New York County,NY,NA,NA,13.684210526315791
10304,Richmond County,NY,NA,NA,26.57894736842105
10452,Bronx County,NY,0.56657223796034,0.5235602094240838,NA
10456,Bronx County,NY,NA,0.17452006980802792,NA
10466,Bronx County,NY,NA,1.3961605584642234,NA
10520,Westchester County,NY,NA,85.68935427574172,NA
10990,Orange County,NY,NA,32.809773123909245,NA
11206,Kings County,NY,NA,NA,5.526315789473684
11215,Kings County,NY,NA,26.003490401396164,NA
11220,Kings County,NY,NA,NA,14.210526315789473
11426,Queens County,NY,NA,86.38743455497382,NA
11757,Suffolk County,NY,NA,39.79057591623037,NA
11766,Suffolk County,NY,NA,NA,70.52631578947368
11949,Suffolk County,NY,NA,NA,80
12118,Saratoga County,NY,NA,NA,91.57894736842105
12154,Rensselaer County,NY,99.15014164305948,NA,NA
12839,Washington County,NY,28.89518413597734,NA,NA
12883,Essex County,NY,NA,65.61954624781849,NA
12920,Franklin County,NY,89.80169971671388,NA,NA
12953,Franklin County,NY,20.679886685552407,NA,NA
12962,Clinton County,NY,NA,NA,77.10526315789473
13045,Cortland County,NY,3.6827195467422094,NA,NA
13104,Onondaga County,NY,52.124645892351275,NA,NA
13165,Seneca County,NY,NA,16.92844677137871,65
13219,Onondaga County,NY,NA,43.63001745200698,NA
13346,Madison County,NY,NA,47.64397905759162,86.05263157894737
13416,Herkimer County,NY,NA,98.77835951134381,NA
13669,St. Lawrence County,NY,NA,NA,49.73684210526316
13748,Broome County,NY,67.13881019830028,NA,NA
13901,Broome County,NY,NA,NA,69.47368421052632
14009,Wyoming County,NY,NA,76.43979057591623,NA
14047,Erie County,NY,NA,NA,93.15789473684211
14062,Chautauqua County,NY,92.3512747875354,NA,NA
14068,Erie County,NY,87.81869688385268,NA,NA
14094,Niagara County,NY,NA,1.7452006980802792,NA
14103,Orleans County,NY,NA,43.63001745200698,NA
14127,Erie County,NY,NA,NA,51.84210526315789
14174,Niagara County,NY,NA,NA,92.36842105263158
14204,Erie County,NY,NA,74.17102966841188,NA
14208,Erie County,NY,NA,NA,63.1578947368421
14224,Erie County,NY,NA,5.7591623036649215,NA
14225,Erie County,NY,9.06515580736544,NA,NA
14420,Monroe County,NY,NA,49.56369982547993,NA
14456,Ontario County,NY,NA,4.013961605584642,NA
14512,Ontario County,NY,NA,NA,98.94736842105263
14522,Wayne County,NY,NA,22.338568935427574,NA
14526,Monroe County,NY,NA,10.645724258289704,NA
14530,Wyoming County,NY,72.52124645892351,NA,NA
14534,Monroe County,NY,NA,62.129144851657934,NA
14559,Monroe County,NY,11.048158640226628,16.75392670157068,NA
14580,Monroe County,NY,0.84985835694051,4.18848167539267,NA
14701,Chautauqua County,NY,2.8328611898017,NA,NA
14755,Cattaraugus County,NY,NA,96.68411867364746,NA
14787,Chautauqua County,NY,86.96883852691218,NA,NA
27020,Yadkin County,NC,66.57223796033995,NA,NA
27030,Surry County,NC,NA,NA,1.5789473684210527
27045,Forsyth County,NC,NA,NA,53.94736842105263
27103,Forsyth County,NC,NA,5.93368237347295,NA
27104,Forsyth County,NC,NA,NA,25.263157894736842
27105,Forsyth County,NC,NA,64.3979057591623,NA
27107,Forsyth County,NC,4.815864022662889,NA,NA
27217,Alamance County,NC,NA,NA,100
27244,Alamance County,NC,NA,67.01570680628272,NA
27278,Orange County,NC,NA,9.424083769633508,NA
27292,Davidson County,NC,NA,0.8726003490401396,NA
27349,Alamance County,NC,NA,NA,87.89473684210526
27360,Davidson County,NC,22.096317280453256,NA,NA
27516,Orange County,NC,NA,8.900523560209423,NA
27526,Wake County,NC,NA,18.1500872600349,NA
27565,Granville County,NC,NA,NA,96.05263157894737
27574,Person County,NC,NA,NA,60.26315789473684
27592,Wake County,NC,NA,99.47643979057592,NA
27617,Wake County,NC,NA,97.03315881326353,NA
27712,Durham County,NC,NA,NA,36.84210526315789
27713,Durham County,NC,NA,72.07678883071553,NA
27817,Beaufort County,NC,NA,NA,95.78947368421052
27834,Pitt County,NC,NA,11.8673647469459,NA
28012,Gaston County,NC,NA,45.89877835951135,NA
28034,Gaston County,NC,NA,59.51134380453752,NA
28110,Union County,NC,24.07932011331445,NA,NA
28112,Union County,NC,47.02549575070821,61.78010471204188,NA
28117,Iredell County,NC,NA,25.30541012216405,NA
28208,Mecklenburg County,NC,9.91501416430595,NA,NA
28212,Mecklenburg County,NC,NA,48.34205933682373,NA
28348,Cumberland County,NC,36.54390934844193,NA,NA
28352,Scotland County,NC,NA,75.39267015706807,NA
28382,Sampson County,NC,NA,72.42582897033158,NA
28405,New Hanover County,NC,NA,57.24258289703316,NA
28409,New Hanover County,NC,40.79320113314447,NA,NA
28412,New Hanover County,NC,46.45892351274787,NA,NA
28422,Brunswick County,NC,NA,62.30366492146597,NA
28469,Brunswick County,NC,NA,NA,93.42105263157895
28512,Carteret County,NC,NA,NA,98.68421052631578
28584,Carteret County,NC,NA,54.10122164048866,NA
28594,Carteret County,NC,NA,94.4153577661431,NA
28601,Catawba County,NC,17.56373937677054,NA,NA
28605,Watauga County,NC,NA,99.12739965095986,NA
28675,Alleghany County,NC,74.78753541076487,NA,NA
28690,Burke County,NC,NA,NA,85
28734,Macon County,NC,NA,NA,3.9473684210526314
28752,McDowell County,NC,NA,9.773123909249563,NA
58104,Cass County,ND,NA,NA,23.157894736842106
58201,Grand Forks County,ND,NA,NA,17.63157894736842
58701,Ward County,ND,10.198300283286118,NA,NA
43004,Franklin County,OH,NA,NA,75.52631578947368
43023,Licking County,OH,NA,69.80802792321117,74.47368421052632
43055,Licking County,OH,1.9830028328611897,NA,NA
43130,Fairfield County,OH,NA,2.094240837696335,3.421052631578948
43207,Franklin County,OH,NA,27.225130890052355,NA
43209,Franklin County,OH,NA,29.668411867364746,NA
43440,Ottawa County,OH,NA,66.66666666666666,NA
43526,Defiance County,OH,47.30878186968839,NA,NA
43607,Lucas County,OH,NA,16.05584642233857,NA
43609,Lucas County,OH,6.232294617563739,NA,NA
43611,Lucas County,OH,17.280453257790366,NA,NA
43832,Tuscarawas County,OH,59.490084985835686,NA,NA
43912,Belmont County,OH,53.54107648725213,69.45898778359512,NA
43933,Belmont County,OH,NA,99.30191972076788,NA
43950,Belmont County,OH,NA,10.99476439790576,NA
44004,Ashtabula County,OH,18.413597733711047,NA,NA
44012,Lorain County,OH,35.69405099150141,NA,7.894736842105263
44030,Ashtabula County,OH,NA,42.582897033158815,NA
44052,Lorain County,OH,NA,1.5706806282722512,NA
44057,Lake County,OH,NA,12.914485165794066,NA
44067,Summit County,OH,NA,NA,12.631578947368421
44106,Cuyahoga County,OH,NA,NA,52.368421052631575
44121,Cuyahoga County,OH,70.82152974504248,39.61605584642234,NA
44124,Cuyahoga County,OH,NA,2.4432809773123907,NA
44136,Cuyahoga County,OH,NA,NA,14.473684210526317
44137,Cuyahoga County,OH,NA,6.457242582897033,NA
44143,Cuyahoga County,OH,NA,9.598603839441536,NA
44149,Cuyahoga County,OH,NA,71.02966841186736,NA
44203,Summit County,OH,7.64872521246459,NA,NA
44256,Medina County,OH,NA,15.357766143106458,NA
44266,Portage County,OH,9.34844192634561,NA,NA
44312,Summit County,OH,61.47308781869688,NA,NA
44319,Summit County,OH,NA,19.3717277486911,NA
44406,Mahoning County,OH,NA,NA,24.736842105263158
44460,Columbiana County,OH,NA,87.08551483420594,NA
44484,Trumbull County,OH,30.02832861189802,NA,NA
44511,Mahoning County,OH,25.21246458923513,NA,NA
44703,Stark County,OH,51.55807365439094,NA,NA
44820,Crawford County,OH,NA,NA,25
44833,Crawford County,OH,33.994334277620396,NA,NA
44870,Erie County,OH,15.58073654390935,NA,NA
44890,Huron County,OH,NA,52.35602094240838,NA
45050,Butler County,OH,83.85269121813032,81.67539267015707,NA
45122,Clermont County,OH,NA,71.20418848167539,NA
45169,Clinton County,OH,71.10481586402267,NA,NA
45211,Hamilton County,OH,NA,23.909249563699824,NA
45224,Hamilton County,OH,22.946175637393768,NA,NA
45231,Hamilton County,OH,NA,13.961605584642234,NA
45322,Montgomery County,OH,NA,42.23385689354276,33.94736842105263
45342,Montgomery County,OH,11.614730878186968,NA,NA
45371,Miami County,OH,NA,15.881326352530541,NA
45373,Miami County,OH,NA,8.726003490401396,NA
45405,Montgomery County,OH,NA,40.48865619546248,NA
45414,Montgomery County,OH,NA,NA,45.26315789473684
45458,Montgomery County,OH,NA,8.55148342059337,NA
45648,Scioto County,OH,NA,14.834205933682373,NA
45669,Lawrence County,OH,21.246458923512748,NA,NA
45694,Scioto County,OH,NA,NA,47.10526315789474
45750,Washington County,OH,2.26628895184136,27.57417102966841,NA
45784,Washington County,OH,67.70538243626062,NA,NA
73030,Murray County,OK,NA,NA,96.3157894736842
73051,Cleveland County,OK,85.26912181303116,NA,NA
73064,Canadian County,OK,NA,NA,90
73096,Custer County,OK,62.889518413597735,NA,NA
73099,Canadian County,OK,15.864022662889518,NA,51.578947368421055
73505,Comanche County,OK,NA,NA,4.2105263157894735
73801,Woodward County,OK,60.90651558073654,NA,NA
74074,Payne County,OK,NA,NA,36.05263157894737
74434,Muskogee County,OK,NA,74.52006980802793,NA
74464,Cherokee County,OK,NA,NA,39.73684210526316
74955,Sequoyah County,OK,NA,73.82198952879581,NA
97045,Clackamas County,OR,NA,NA,15.789473684210526
97055,Clackamas County,OR,64.02266288951841,NA,NA
97128,Yamhill County,OR,21.813031161473088,NA,NA
97206,Multnomah County,OR,16.147308781869686,NA,NA
97220,Multnomah County,OR,NA,24.43280977312391,NA
97225,Washington County,OR,NA,58.63874345549738,NA
97233,Multnomah County,OR,NA,29.84293193717277,NA
97355,Linn County,OR,NA,NA,8.421052631578947
97381,Marion County,OR,NA,55.32286212914486,NA
97457,Douglas County,OR,NA,83.59511343804537,NA
97470,Douglas County,OR,32.29461756373937,NA,NA
97471,Douglas County,OR,NA,4.537521815008725,44.473684210526315
97504,Jackson County,OR,NA,NA,4.473684210526316
97526,Josephine County,OR,28.04532577903683,NA,NA
97601,Klamath County,OR,NA,NA,40
97707,Deschutes County,OR,NA,98.60383944153578,NA
97914,Malheur County,OR,25.495750708215297,17.975567190226876,NA
15010,Beaver County,PA,NA,NA,15.526315789473685
15012,Westmoreland County,PA,NA,45.20069808027923,NA
15025,Allegheny County,PA,50.70821529745042,NA,NA
15057,Washington County,PA,72.23796033994334,NA,73.94736842105263
15102,Allegheny County,PA,NA,22.164048865619545,NA
15129,Allegheny County,PA,NA,67.36474694589877,NA
15213,Allegheny County,PA,NA,NA,36.31578947368421
15401,Fayette County,PA,NA,NA,8.68421052631579
15417,Fayette County,PA,82.43626062322946,NA,NA
15650,Westmoreland County,PA,18.980169971671387,NA,NA
15714,Cambria County,PA,73.93767705382436,NA,NA
15748,Indiana County,PA,NA,NA,80.52631578947368
15853,Elk County,PA,NA,84.29319371727748,NA
15904,Cambria County,PA,NA,NA,21.31578947368421
15905,Cambria County,PA,NA,30.54101221640489,NA
16066,Butler County,PA,NA,33.682373472949386,NA
16127,Mercer County,PA,NA,NA,22.63157894736842
16314,Crawford County,PA,NA,62.478184991274,NA
16602,Blair County,PA,NA,NA,22.105263157894736
16701,McKean County,PA,NA,NA,20.526315789473685
16823,Centre County,PA,NA,NA,18.421052631578945
17022,Lancaster County,PA,19.54674220963173,NA,NA
17036,Dauphin County,PA,NA,38.56893542757417,NA
17044,Mifflin County,PA,NA,NA,11.052631578947368
17046,Lebanon County,PA,NA,51.65794066317626,NA
17050,Cumberland County,PA,81.58640226628894,NA,NA
17090,Perry County,PA,NA,93.36823734729494,NA
17104,Dauphin County,PA,NA,62.652705061082024,NA
17109,Dauphin County,PA,NA,NA,30
17110,Dauphin County,PA,47.59206798866856,NA,NA
17331,York County,PA,NA,NA,2.631578947368421
17406,York County,PA,64.87252124645893,NA,NA
17538,Lancaster County,PA,NA,77.31239092495636,NA
17543,Lancaster County,PA,NA,7.678883071553229,NA
17552,Lancaster County,PA,NA,NA,46.31578947368421
17745,Clinton County,PA,NA,40.83769633507853,NA
17801,Northumberland County,PA,NA,17.10296684118674,NA
17851,Northumberland County,PA,NA,NA,45.526315789473685
17872,Northumberland County,PA,41.64305949008499,NA,NA
18017,Northampton County,PA,65.43909348441926,NA,NA
18066,Lehigh County,PA,NA,NA,94.47368421052632
18302,Monroe County,PA,NA,54.45026178010471,NA
18324,Pike County,PA,NA,83.42059336823735,NA
18661,Luzerne County,PA,NA,84.11867364746945,NA
18704,Luzerne County,PA,NA,NA,9.210526315789473
18706,Luzerne County,PA,NA,29.49389179755672,NA
18707,Luzerne County,PA,58.07365439093485,NA,NA
19006,Montgomery County,PA,NA,NA,41.31578947368421
19044,Montgomery County,PA,NA,64.04886561954625,NA
19073,Delaware County,PA,NA,NA,16.57894736842105
19129,Philadelphia County,PA,NA,56.195462478184986,NA
19146,Philadelphia County,PA,NA,NA,48.1578947368421
19468,Montgomery County,PA,NA,28.62129144851658,NA
19520,Chester County,PA,100,NA,NA
19565,Berks County,PA,93.20113314447592,NA,NA
19601,Berks County,PA,69.12181303116147,NA,NA
02813,Washington County,RI,NA,56.02094240837696,NA
02816,Kent County,RI,NA,68.23734729493893,NA
02840,Newport County,RI,93.48441926345609,NA,NA
02857,Providence County,RI,82.15297450424929,NA,NA
02859,Providence County,RI,89.51841359773371,NA,NA
02860,Providence County,RI,NA,NA,28.68421052631579
02865,Providence County,RI,NA,50.08726003490401,NA
02879,Washington County,RI,NA,NA,32.89473684210527
02882,Washington County,RI,NA,71.37870855148341,NA
02889,Kent County,RI,NA,13.263525305410123,NA
02891,Washington County,RI,NA,21.465968586387437,NA
29020,Kershaw County,SC,NA,59.68586387434554,NA
29135,Calhoun County,SC,NA,80.6282722513089,NA
29306,Spartanburg County,SC,NA,58.46422338568935,NA
29335,Spartanburg County,SC,NA,NA,97.63157894736842
29341,Cherokee County,SC,NA,83.24607329842932,NA
29405,Charleston County,SC,NA,34.031413612565444,NA
29455,Charleston County,SC,84.41926345609065,NA,NA
29464,Charleston County,SC,NA,18.848167539267017,NA
29506,Florence County,SC,45.892351274787536,NA,NA
29526,Horry County,SC,NA,7.329842931937172,NA
29532,Darlington County,SC,NA,NA,61.05263157894737
29550,Darlington County,SC,NA,17.801047120418847,NA
29574,Marion County,SC,NA,55.32286212914486,NA
29579,Horry County,SC,NA,NA,38.15789473684211
29605,Greenville County,SC,NA,40.83769633507853,NA
29615,Greenville County,SC,NA,32.11169284467714,NA
29630,Pickens County,SC,NA,87.60907504363001,NA
29640,Pickens County,SC,NA,18.49912739965096,NA
29646,Greenwood County,SC,NA,NA,58.684210526315795
29651,Greenville County,SC,75.3541076487252,NA,NA
29661,Greenville County,SC,NA,70.68062827225131,NA
29669,Anderson County,SC,NA,95.11343804537522,NA
29678,Oconee County,SC,NA,NA,68.6842105263158
29681,Greenville County,SC,NA,42.75741710296684,NA
29687,Greenville County,SC,NA,65.79406631762653,NA
29708,York County,SC,71.38810198300283,NA,NA
29710,York County,SC,NA,69.2844677137871,NA
29907,Beaufort County,SC,NA,68.41186736474695,NA
29909,Beaufort County,SC,NA,12.56544502617801,NA
57106,Minnehaha County,SD,24.362606232294617,NA,NA
57401,Brown County,SD,NA,NA,2.1052631578947367
37042,Montgomery County,TN,25.77903682719547,NA,NA
37067,Williamson County,TN,NA,61.25654450261781,NA
37075,Sumner County,TN,NA,NA,9.473684210526317
37128,Rutherford County,TN,29.461756373937675,NA,NA
37204,Davidson County,TN,NA,NA,89.73684210526316
37367,Bledsoe County,TN,NA,NA,61.578947368421055
37663,Sullivan County,TN,NA,NA,65.52631578947368
37745,Greene County,TN,NA,50.43630017452006,NA
37748,Roane County,TN,NA,NA,39.473684210526315
37752,Claiborne County,TN,NA,NA,87.36842105263159
37869,Hancock County,TN,NA,NA,83.94736842105263
37917,Knox County,TN,NA,19.022687609075042,NA
38053,Shelby County,TN,49.57507082152974,NA,NA
38109,Shelby County,TN,NA,NA,29.210526315789476
38221,Benton County,TN,93.76770538243626,NA,NA
38261,Obion County,TN,NA,59.33682373472949,NA
38351,Henderson County,TN,NA,NA,81.84210526315789
38462,Lewis County,TN,84.70254957507082,NA,NA
38464,Lawrence County,TN,NA,24.956369982547994,NA
38485,Wayne County,TN,NA,94.06631762652705,NA
75034,Denton County,TX,96.3172804532578,NA,NA
75052,Dallas County,TX,19.8300283286119,NA,NA
75070,Collin County,TX,NA,6.980802792321117,NA
75076,Grayson County,TX,NA,NA,84.73684210526315
75090,Grayson County,TX,48.725212464589234,NA,NA
75093,Collin County,TX,49.858356940509914,26.352530541012214,NA
75146,Dallas County,TX,79.88668555240793,NA,NA
75219,Dallas County,TX,NA,NA,42.10526315789473
75225,Dallas County,TX,NA,NA,33.1578947368421
75402,Hunt County,TX,NA,45.724258289703315,NA
75409,Collin County,TX,NA,76.78883071553228,NA
75454,Collin County,TX,NA,98.42931937172776,NA
75460,Lamar County,TX,58.640226628895185,NA,NA
75501,Bowie County,TX,NA,19.546247818499126,NA
75551,Cass County,TX,76.48725212464589,NA,NA
75692,Harrison County,TX,91.5014164305949,NA,NA
75762,Smith County,TX,NA,70.85514834205934,NA
75803,Anderson County,TX,NA,42.93193717277487,NA
75951,Jasper County,TX,NA,39.26701570680628,NA
76002,Tarrant County,TX,NA,53.752181500872595,NA
76006,Tarrant County,TX,NA,NA,93.6842105263158
76092,Tarrant County,TX,NA,52.5305410122164,NA
76108,Tarrant County,TX,NA,NA,48.1578947368421
76118,Tarrant County,TX,NA,NA,76.05263157894737
76207,Denton County,TX,74.22096317280453,72.77486910994764,NA
76247,Denton County,TX,75.92067988668555,NA,NA
76301,Wichita County,TX,48.1586402266289,NA,NA
76501,Bell County,TX,NA,NA,27.89473684210526
76513,Bell County,TX,NA,NA,1.0526315789473684
76522,Coryell County,TX,NA,38.39441535776614,NA
76542,Bell County,TX,17.847025495750707,NA,NA
76692,Hill County,TX,NA,NA,53.68421052631579
76712,McLennan County,TX,43.90934844192634,NA,NA
77029,Harris County,TX,NA,59.860383944153575,NA
77035,Harris County,TX,98.01699716713881,NA,NA
77036,Harris County,TX,52.97450424929179,NA,NA
77040,Harris County,TX,NA,55.846422338568935,NA
77041,Harris County,TX,91.78470254957507,NA,NA
77065,Harris County,TX,NA,77.66143106457243,NA
77069,Harris County,TX,NA,NA,58.42105263157895
77074,Harris County,TX,NA,NA,69.21052631578948
77080,Harris County,TX,66.0056657223796,NA,NA
77090,Harris County,TX,60.05665722379604,NA,NA
77304,Montgomery County,TX,NA,46.94589877835951,NA
77339,Harris County,TX,NA,63.6998254799302,NA
77345,Harris County,TX,NA,NA,83.6842105263158
77355,Montgomery County,TX,NA,90.40139616055846,NA
77396,Harris County,TX,NA,NA,72.89473684210527
77406,Fort Bend County,TX,NA,NA,85.26315789473684
77414,Matagorda County,TX,NA,NA,51.05263157894737
77429,Harris County,TX,NA,21.81500872600349,23.42105263157895
77433,Harris County,TX,13.881019830028329,14.485165794066319,NA
77474,Austin County,TX,NA,NA,78.6842105263158
77479,Fort Bend County,TX,NA,14.659685863874344,NA
77484,Waller County,TX,NA,95.6369982547993,NA
77494,Fort Bend County,TX,NA,69.63350785340315,NA
77511,Brazoria County,TX,NA,9.24956369982548,NA
77521,Harris County,TX,NA,72.25130890052355,NA
77523,Chambers County,TX,58.35694050991501,NA,NA
77536,Harris County,TX,NA,34.20593368237348,NA
77550,Galveston County,TX,NA,NA,6.578947368421052
77554,Galveston County,TX,NA,40.66317626527051,NA
77565,Galveston County,TX,NA,58.813263525305416,NA
77573,Galveston County,TX,NA,3.315881326352531,NA
77706,Jefferson County,TX,NA,92.14659685863874,NA
77802,Brazos County,TX,NA,NA,10.526315789473683
77845,Brazos County,TX,NA,NA,3.1578947368421053
77957,Jackson County,TX,NA,91.62303664921467,NA
78006,Kendall County,TX,NA,84.46771378708551,NA
78015,Bexar County,TX,95.46742209631728,88.48167539267016,NA
78059,Medina County,TX,NA,91.44851657940663,NA
78108,Guadalupe County,TX,NA,64.22338568935427,NA
78363,Kleberg County,TX,NA,NA,58.15789473684211
78410,Nueces County,TX,NA,85.86387434554975,NA
78626,Williamson County,TX,NA,NA,27.368421052631582
78665,Williamson County,TX,NA,22.68760907504363,NA
78745,Travis County,TX,NA,NA,53.1578947368421
78750,Travis County,TX,NA,67.19022687609075,NA
79360,Gaines County,TX,NA,75.91623036649214,NA
79603,Taylor County,TX,NA,27.748691099476442,NA
84003,Utah County,UT,NA,NA,58.94736842105262
84009,Salt Lake County,UT,NA,NA,70.26315789473684
84032,Wasatch County,UT,NA,66.3176265270506,NA
84041,Davis County,UT,37.6770538243626,NA,NA
84043,Utah County,UT,NA,81.15183246073299,NA
84058,Utah County,UT,76.77053824362606,NA,72.36842105263158
84074,Tooele County,UT,NA,NA,28.157894736842103
84081,Salt Lake County,UT,62.03966005665722,NA,NA
84094,Salt Lake County,UT,NA,NA,63.68421052631579
84107,Salt Lake County,UT,NA,88.8307155322862,NA
84108,Salt Lake County,UT,NA,NA,79.73684210526316
84116,Salt Lake County,UT,NA,26.876090750436298,NA
84118,Salt Lake County,UT,NA,46.07329842931937,NA
84121,Salt Lake County,UT,NA,NA,18.684210526315788
84129,,UT,NA,23.211169284467715,NA
84770,Washington County,UT,91.21813031161473,22.5130890052356,NA
05201,Bennington County,VT,NA,18.673647469458988,NA
05403,Chittenden County,VT,NA,42.40837696335078,NA
05468,Chittenden County,VT,82.71954674220963,NA,NA
05673,Washington County,VT,NA,99.65095986038395,NA
20186,Fauquier County,VA,NA,NA,59.210526315789465
22801,Harrisonburg city,VA,NA,61.43106457242583,NA
22821,Rockingham County,VA,NA,87.95811518324608,NA
22939,Augusta County,VA,NA,96.50959860383944,NA
22980,Waynesboro city,VA,NA,NA,45
23188,James City County,VA,NA,NA,0.5263157894736842
23220,Richmond city,VA,NA,47.294938917975564,NA
23225,Richmond city,VA,NA,NA,30
23234,Chesterfield County,VA,73.65439093484419,NA,NA
23294,Henrico County,VA,NA,79.40663176265271,NA
23455,Virginia Beach city,VA,NA,NA,2.8947368421052633
23669,Hampton city,VA,NA,NA,37.368421052631575
23692,York County,VA,NA,NA,81.05263157894737
23704,Portsmouth city,VA,30.31161473087819,NA,NA
23847,Greensville County,VA,NA,56.719022687609076,NA
23936,Buckingham County,VA,NA,NA,86.57894736842105
23970,Mecklenburg County,VA,NA,NA,56.315789473684205
24073,Montgomery County,VA,43.342776203966004,NA,NA
24101,Franklin County,VA,NA,71.72774869109948,NA
24219,Wise County,VA,NA,60.55846422338569,NA
24301,Pulaski County,VA,57.50708215297451,NA,NA
24426,Alleghany County,VA,NA,41.361256544502616,NA
98002,King County,WA,NA,NA,38.68421052631579
98003,King County,WA,30.59490084985836,NA,NA
98033,King County,WA,NA,24.60732984293194,NA
98038,King County,WA,NA,31.064572425828967,NA
98056,King County,WA,NA,NA,55.52631578947368
98070,King County,WA,NA,90.22687609075044,NA
98074,King County,WA,NA,58.289703315881326,NA
98092,King County,WA,26.628895184135974,NA,33.421052631578945
98112,King County,WA,NA,NA,57.631578947368425
98125,King County,WA,NA,29.31937172774869,NA
98133,King County,WA,NA,NA,11.31578947368421
98166,King County,WA,NA,45.0261780104712,NA
98178,King County,WA,NA,NA,73.15789473684211
98221,Skagit County,WA,NA,NA,50
98273,Skagit County,WA,NA,12.216404886561955,54.473684210526315
98284,Skagit County,WA,NA,21.11692844677138,NA
98332,Pierce County,WA,NA,NA,78.15789473684211
98335,Pierce County,WA,NA,NA,31.842105263157894
98362,Clallam County,WA,35.977337110481585,NA,27.631578947368425
98368,Jefferson County,WA,NA,NA,43.684210526315795
98373,Pierce County,WA,90.08498583569406,NA,NA
98374,Pierce County,WA,44.759206798866856,NA,54.21052631578947
98380,Kitsap County,WA,NA,65.09598603839441,NA
98404,Pierce County,WA,NA,36.99825479930192,NA
98422,Pierce County,WA,60.3399433427762,NA,NA
98512,Thurston County,WA,NA,65.44502617801047,NA
98520,Grays Harbor County,WA,NA,89.87783595113437,NA
98606,Clark County,WA,NA,88.65619546247818,NA
98607,Clark County,WA,NA,90.0523560209424,NA
98662,Clark County,WA,NA,NA,39.21052631578947
98683,Clark County,WA,NA,82.54799301919721,NA
98823,Grant County,WA,NA,NA,75.26315789473685
98902,Yakima County,WA,NA,20.24432809773124,NA
98903,Yakima County,WA,84.98583569405099,NA,NA
98930,Yakima County,WA,NA,68.760907504363,NA
98944,Yakima County,WA,NA,55.14834205933682,NA
99207,Spokane County,WA,NA,NA,57.36842105263158
99336,Benton County,WA,13.59773371104816,NA,NA
99362,Walla Walla County,WA,NA,NA,10.263157894736842
20018,District of Columbia,DC,NA,NA,90.26315789473685
24740,Mercer County,WV,NA,95.46247818499127,NA
24901,Greenbrier County,WV,NA,96.8586387434555,NA
25045,Kanawha County,WV,81.86968838526913,NA,NA
25064,Kanawha County,WV,NA,54.973821989528794,NA
25526,Putnam County,WV,NA,32.11169284467714,NA
25560,Putnam County,WV,NA,NA,65.26315789473685
25801,Raleigh County,WV,15.29745042492918,NA,NA
26003,Ohio County,WV,27.762039660056658,NA,NA
26047,Hancock County,WV,NA,88.30715532286213,NA
26101,Wood County,WV,80.45325779036827,NA,NA
26105,Wood County,WV,NA,36.64921465968586,NA
26170,Pleasants County,WV,NA,NA,67.10526315789474
26187,Wood County,WV,65.15580736543909,NA,NA
26330,Harrison County,WV,NA,92.49563699825481,NA
26501,Monongalia County,WV,NA,NA,37.10526315789473
26554,Marion County,WV,5.382436260623229,NA,NA
53022,Washington County,WI,NA,43.455497382198956,NA
53045,Waukesha County,WI,NA,41.710296684118674,NA
53080,Ozaukee County,WI,NA,NA,96.84210526315789
53118,Waukesha County,WI,89.23512747875354,NA,NA
53144,Kenosha County,WI,19.263456090651555,NA,NA
53146,Waukesha County,WI,NA,94.76439790575915,NA
53186,Waukesha County,WI,NA,NA,31.57894736842105
53189,Waukesha County,WI,NA,NA,95.52631578947368
53214,Milwaukee County,WI,13.031161473087819,NA,NA
53219,Milwaukee County,WI,NA,8.37696335078534,NA
53405,Racine County,WI,7.365439093484419,2.966841186736475,13.94736842105263
53533,Iowa County,WI,NA,85.51483420593368,NA
53534,Rock County,WI,92.63456090651559,NA,NA
53546,Rock County,WI,NA,3.1413612565445024,NA
53563,Rock County,WI,NA,36.64921465968586,NA
53704,Dane County,WI,NA,70.50610820244329,NA
53954,Columbia County,WI,NA,82.19895287958116,NA
54115,Brown County,WI,NA,NA,22.894736842105264
54151,Marinette County,WI,71.95467422096317,NA,NA
54220,Manitowoc County,WI,NA,NA,0.7894736842105263
54455,Marathon County,WI,NA,NA,67.89473684210526
54494,Wood County,WI,NA,28.79581151832461,NA
54501,Oneida County,WI,NA,17.452006980802793,NA
54601,La Crosse County,WI,NA,NA,0
54751,Dunn County,WI,NA,NA,43.94736842105263
54848,Rusk County,WI,NA,NA,90.52631578947368
54914,Outagamie County,WI,NA,82.89703315881326,NA
82801,Sheridan County,WY,66.85552407932012,NA,31.31578947368421
