ZipCode,county,state,Adult,Retirement,Geriatric
35207,Jefferson County,AL,NA,NA,96.55172413793103
35214,Jefferson County,AL,NA,40.894568690095845,NA
35619,Morgan County,AL,91.12426035502959,NA,NA
35976,Marshall County,AL,NA,35.14376996805112,NA
36067,Autauga County,AL,NA,54.632587859424916,NA
36266,Clay County,AL,NA,91.69329073482429,NA
36695,Mobile County,AL,NA,NA,48.275862068965516
36701,Dallas County,AL,NA,29.712460063897762,NA
99515,Anchorage Municipality,AK,NA,80.5111821086262,NA
99611,Kenai Peninsula Borough,AK,71.00591715976331,NA,NA
99615,Kodiak Island Borough,AK,NA,90.41533546325878,NA
85021,Maricopa County,AZ,NA,32.587859424920126,NA
85257,Maricopa County,AZ,69.23076923076923,NA,NA
85326,Maricopa County,AZ,35.50295857988166,NA,NA
85338,Maricopa County,AZ,NA,NA,78.44827586206897
85388,Maricopa County,AZ,NA,NA,87.06896551724138
85756,Pima County,AZ,40.23668639053255,NA,NA
86442,Mohave County,AZ,NA,NA,22.413793103448278
71909,Garland County,AR,NA,NA,12.5
71913,Garland County,AR,NA,NA,68.96551724137932
72103,Saline County,AR,NA,NA,66.8103448275862
72106,Faulkner County,AR,NA,94.24920127795528,NA
72143,White County,AR,NA,10.86261980830671,NA
72212,Pulaski County,AR,NA,NA,57.327586206896555
72401,Craighead County,AR,NA,11.501597444089457,NA
72753,Washington County,AR,NA,NA,97.41379310344827
72761,Benton County,AR,78.10650887573965,NA,NA
90024,Los Angeles County,CA,NA,NA,6.0344827586206895
90029,Los Angeles County,CA,65.68047337278107,NA,40.51724137931034
90031,Los Angeles County,CA,NA,96.1661341853035,NA
90041,Los Angeles County,CA,NA,NA,64.22413793103449
90064,Los Angeles County,CA,33.13609467455622,NA,NA
90275,Los Angeles County,CA,NA,41.21405750798722,NA
90280,Los Angeles County,CA,NA,NA,43.53448275862069
90504,Los Angeles County,CA,NA,NA,58.620689655172406
90620,Orange County,CA,NA,NA,28.448275862068968
90712,Los Angeles County,CA,NA,57.50798722044729,NA
91306,Los Angeles County,CA,72.7810650887574,NA,NA
91311,Los Angeles County,CA,60.35502958579882,NA,NA
91331,Los Angeles County,CA,NA,20.447284345047922,NA
91343,Los Angeles County,CA,59.171597633136095,NA,NA
91754,Los Angeles County,CA,NA,65.17571884984025,NA
91762,San Bernardino County,CA,NA,55.27156549520767,57.758620689655174
91790,Los Angeles County,CA,NA,NA,38.362068965517246
92054,San Diego County,CA,NA,68.05111821086261,NA
92069,San Diego County,CA,69.8224852071006,NA,NA
92105,San Diego County,CA,NA,NA,59.05172413793104
92203,Riverside County,CA,NA,20.766773162939298,NA
92211,Riverside County,CA,NA,9.26517571884984,NA
92320,Riverside County,CA,NA,NA,94.39655172413794
92395,San Bernardino County,CA,NA,NA,42.241379310344826
92410,San Bernardino County,CA,NA,95.52715654952077,NA
92582,Riverside County,CA,NA,94.88817891373802,NA
92595,Riverside County,CA,46.15384615384615,NA,72.41379310344827
92691,Orange County,CA,NA,NA,81.46551724137932
92706,Orange County,CA,NA,NA,86.63793103448276
92844,Orange County,CA,NA,NA,94.39655172413794
93010,Ventura County,CA,39.053254437869825,NA,NA
93313,Kern County,CA,NA,61.0223642172524,NA
93561,Kern County,CA,NA,61.34185303514377,NA
93705,Fresno County,CA,NA,47.92332268370607,NA
93906,Monterey County,CA,NA,NA,47.41379310344828
93930,Monterey County,CA,76.33136094674556,NA,NA
93955,Monterey County,CA,NA,33.86581469648562,34.48275862068966
94022,Santa Clara County,CA,NA,NA,68.53448275862068
94403,San Mateo County,CA,NA,NA,10.344827586206897
94549,Contra Costa County,CA,NA,NA,35.775862068965516
94590,Solano County,CA,34.319526627218934,NA,NA
95122,Santa Clara County,CA,NA,NA,79.3103448275862
95252,Calaveras County,CA,NA,NA,81.46551724137932
95501,Humboldt County,CA,NA,75.39936102236422,NA
95608,Sacramento County,CA,NA,NA,7.327586206896551
95632,Sacramento County,CA,NA,46.00638977635783,NA
95713,Placer County,CA,NA,98.08306709265176,NA
95762,El Dorado County,CA,NA,36.42172523961661,NA
95822,Sacramento County,CA,NA,NA,62.06896551724138
95949,Nevada County,CA,NA,NA,51.293103448275865
95961,Yuba County,CA,NA,73.48242811501598,NA
95991,Sutter County,CA,NA,76.35782747603834,NA
80011,Arapahoe County,CO,NA,NA,50
80012,Arapahoe County,CO,NA,NA,19.396551724137932
80015,Arapahoe County,CO,24.2603550295858,NA,NA
80111,Arapahoe County,CO,NA,NA,74.13793103448276
80206,Denver County,CO,NA,NA,80.60344827586206
80501,Boulder County,CO,NA,61.980830670926515,NA
80701,Morgan County,CO,NA,NA,56.03448275862068
80911,El Paso County,CO,47.337278106508876,NA,NA
81006,Pueblo County,CO,73.37278106508876,NA,NA
81416,Delta County,CO,NA,86.5814696485623,NA
81504,Mesa County,CO,NA,NA,71.55172413793103
06010,Hartford County,CT,20.710059171597635,NA,NA
06042,Hartford County,CT,NA,51.75718849840255,NA
06117,Hartford County,CT,NA,90.09584664536742,NA
06118,Hartford County,CT,NA,38.019169329073485,NA
06614,Fairfield County,CT,63.31360946745562,NA,NA
06705,New Haven County,CT,60.946745562130175,NA,NA
06770,New Haven County,CT,62.1301775147929,NA,NA
06790,Litchfield County,CT,11.242603550295858,NA,NA
06820,Fairfield County,CT,77.51479289940828,NA,NA
19701,New Castle County,DE,NA,NA,48.706896551724135
19804,New Castle County,DE,NA,NA,63.36206896551724
19947,Sussex County,DE,NA,43.13099041533546,97.84482758620689
19960,Sussex County,DE,NA,91.05431309904152,NA
19966,Sussex County,DE,61.53846153846154,8.945686900958465,NA
19971,Sussex County,DE,NA,NA,35.3448275862069
19977,Kent County,DE,75.14792899408283,NA,NA
32034,Nassau County,FL,NA,9.584664536741213,NA
32225,Duval County,FL,34.9112426035503,NA,NA
32259,St. Johns County,FL,NA,38.33865814696485,NA
32333,Gadsden County,FL,NA,84.34504792332268,NA
32455,Walton County,FL,85.20710059171599,NA,NA
32570,Santa Rosa County,FL,NA,NA,9.482758620689655
32605,Alachua County,FL,NA,NA,25.43103448275862
32606,Alachua County,FL,NA,NA,3.0172413793103448
32609,Alachua County,FL,NA,NA,76.72413793103449
32656,Clay County,FL,70.41420118343196,NA,NA
32708,Seminole County,FL,NA,38.65814696485623,NA
32714,Seminole County,FL,NA,NA,46.12068965517241
32720,Volusia County,FL,NA,NA,31.03448275862069
32778,Lake County,FL,NA,27.47603833865815,NA
32779,Seminole County,FL,NA,41.533546325878596,NA
32780,Brevard County,FL,NA,18.849840255591054,NA
32796,Brevard County,FL,81.06508875739645,NA,NA
32818,Orange County,FL,23.668639053254438,NA,NA
32825,Orange County,FL,37.278106508875744,NA,NA
32926,Brevard County,FL,NA,50.159744408945684,NA
32931,Brevard County,FL,NA,71.56549520766772,NA
32953,Brevard County,FL,NA,NA,14.655172413793101
32958,Indian River County,FL,NA,13.099041533546327,NA
32962,Indian River County,FL,NA,42.17252396166134,NA
33013,Miami-Dade County,FL,NA,NA,27.155172413793103
33133,Miami-Dade County,FL,92.89940828402366,NA,NA
33142,Miami-Dade County,FL,NA,NA,17.24137931034483
33144,Miami-Dade County,FL,NA,NA,13.36206896551724
33179,Miami-Dade County,FL,NA,NA,43.103448275862064
33196,Miami-Dade County,FL,68.04733727810651,NA,NA
33322,Broward County,FL,NA,30.031948881789138,NA
33334,Broward County,FL,NA,NA,98.70689655172413
33414,Palm Beach County,FL,NA,44.40894568690096,NA
33415,Palm Beach County,FL,49.112426035502956,NA,NA
33431,Palm Beach County,FL,NA,61.66134185303515,NA
33433,Palm Beach County,FL,NA,NA,1.293103448275862
33496,Palm Beach County,FL,NA,42.17252396166134,NA
33714,Pinellas County,FL,NA,NA,87.5
33809,Polk County,FL,56.80473372781065,NA,NA
33823,Polk County,FL,41.42011834319527,NA,NA
33830,Polk County,FL,NA,51.118210862619804,NA
33860,Polk County,FL,63.905325443786985,NA,NA
33919,Lee County,FL,NA,15.335463258785943,NA
34102,Collier County,FL,96.44970414201184,NA,NA
34228,Sarasota County,FL,NA,92.65175718849841,NA
34233,Sarasota County,FL,NA,54.31309904153354,NA
34470,Marion County,FL,NA,75.07987220447284,NA
34748,Lake County,FL,NA,9.904153354632587,NA
34953,St. Lucie County,FL,NA,33.54632587859425,NA
34957,Martin County,FL,NA,NA,15.948275862068966
30115,Cherokee County,GA,NA,39.61661341853035,NA
30117,Carroll County,GA,38.46153846153847,NA,NA
30127,Cobb County,GA,26.035502958579883,NA,NA
30153,Polk County,GA,NA,58.78594249201278,NA
30187,Douglas County,GA,NA,86.26198083067092,NA
30215,Fayette County,GA,NA,86.90095846645367,NA
30273,Clayton County,GA,NA,NA,90.08620689655173
30324,Fulton County,GA,NA,96.80511182108627,NA
30349,Fulton County,GA,NA,11.821086261980831,NA
30436,Toombs County,GA,NA,83.06709265175719,NA
30461,Bulloch County,GA,NA,NA,83.62068965517241
30506,Hall County,GA,NA,NA,11.206896551724139
30606,Clarke County,GA,NA,27.79552715654952,NA
30662,Franklin County,GA,NA,95.2076677316294,NA
30736,Catoosa County,GA,NA,22.683706070287542,NA
31220,Bibb County,GA,NA,NA,91.37931034482759
31601,Lowndes County,GA,NA,36.74121405750799,NA
96707,Honolulu County,HI,42.60355029585799,NA,NA
83333,Blaine County,ID,NA,89.45686900958466,NA
83616,Ada County,ID,NA,78.59424920127796,NA
83703,Ada County,ID,NA,NA,56.46551724137932
83709,Ada County,ID,NA,28.434504792332266,NA
83716,Ada County,ID,NA,42.81150159744409,NA
60008,Cook County,IL,NA,NA,51.724137931034484
60010,Lake County,IL,NA,14.696485623003195,NA
60035,Lake County,IL,NA,14.376996805111823,NA
60046,Lake County,IL,NA,26.198083067092654,NA
60060,Lake County,IL,NA,16.293929712460063,NA
60091,Cook County,IL,71.59763313609467,NA,NA
60164,Cook County,IL,NA,44.40894568690096,NA
60169,Cook County,IL,NA,NA,54.310344827586206
60462,Cook County,IL,NA,6.7092651757188495,NA
60463,Cook County,IL,NA,NA,28.01724137931034
60513,Cook County,IL,NA,62.30031948881789,NA
60565,DuPage County,IL,NA,NA,49.56896551724138
60614,Cook County,IL,NA,NA,10.775862068965516
60615,Cook County,IL,NA,NA,20.25862068965517
60632,Cook County,IL,NA,28.753993610223645,NA
60634,Cook County,IL,18.93491124260355,NA,7.758620689655173
60638,Cook County,IL,17.159763313609467,NA,NA
60643,Cook County,IL,NA,25.878594249201274,NA
60657,Cook County,IL,NA,NA,21.120689655172413
61071,Whiteside County,IL,NA,18.210862619808307,NA
61111,Winnebago County,IL,NA,85.3035143769968,NA
61761,McLean County,IL,NA,NA,36.637931034482754
61856,Piatt County,IL,NA,NA,45.689655172413794
62040,Madison County,IL,NA,NA,16.810344827586206
62960,Massac County,IL,NA,NA,55.172413793103445
46017,Madison County,IN,79.88165680473372,NA,NA
46038,Hamilton County,IN,NA,60.70287539936102,NA
46201,Marion County,IN,NA,34.504792332268366,NA
46219,Marion County,IN,NA,21.08626198083067,NA
46220,Marion County,IN,NA,52.07667731629393,NA
46240,Marion County,IN,95.26627218934911,NA,NA
46250,Marion County,IN,NA,70.6070287539936,NA
46256,Marion County,IN,NA,79.55271565495208,NA
46321,Lake County,IN,NA,17.57188498402556,NA
46342,Lake County,IN,8.875739644970414,NA,NA
46350,LaPorte County,IN,NA,8.626198083067091,NA
46368,Porter County,IN,NA,57.18849840255591,NA
46373,Lake County,IN,NA,76.03833865814697,NA
46526,Elkhart County,IN,NA,NA,76.29310344827587
46617,St. Joseph County,IN,NA,NA,94.39655172413794
46733,Adams County,IN,NA,53.674121405750796,NA
46783,Huntington County,IN,NA,96.48562300319489,NA
46795,LaGrange County,IN,NA,87.8594249201278,NA
46902,Howard County,IN,NA,NA,37.06896551724138
46947,Cass County,IN,NA,NA,8.189655172413794
47129,Clark County,IN,NA,56.86900958466453,NA
47274,Jackson County,IN,NA,NA,33.62068965517241
47362,Henry County,IN,NA,12.140575079872203,NA
47460,Owen County,IN,78.69822485207101,NA,NA
47501,Daviess County,IN,NA,25.23961661341853,NA
47978,Jasper County,IN,NA,72.84345047923323,NA
50501,Webster County,IA,NA,36.102236421725244,NA
52556,Jefferson County,IA,NA,67.41214057507987,NA
52577,Mahaska County,IA,43.786982248520715,NA,NA
66049,Douglas County,KS,62.721893491124256,NA,NA
66204,Johnson County,KS,NA,100,NA
66205,Johnson County,KS,89.3491124260355,NA,NA
66211,Johnson County,KS,NA,NA,95.6896551724138
66214,Johnson County,KS,NA,85.62300319488818,NA
66223,Johnson County,KS,87.57396449704143,NA,NA
67156,Cowley County,KS,NA,NA,52.58620689655172
67212,Sedgwick County,KS,NA,NA,82.32758620689656
40065,Shelby County,KY,NA,29.073482428115017,NA
40165,Bullitt County,KY,NA,17.89137380191693,NA
40214,Jefferson County,KY,NA,16.61341853035144,NA
40241,Jefferson County,KY,NA,NA,31.896551724137932
40324,Scott County,KY,NA,23.642172523961662,NA
40828,Harlan County,KY,94.67455621301775,NA,NA
42240,Christian County,KY,13.017751479289942,NA,NA
42348,Hancock County,KY,98.81656804733728,NA,NA
42567,Pulaski County,KY,NA,91.3738019169329,NA
42717,Cumberland County,KY,NA,NA,75.43103448275862
70114,Orleans Parish,LA,NA,32.587859424920126,NA
70118,Orleans Parish,LA,NA,21.405750798722046,NA
70570,St. Landry Parish,LA,NA,47.284345047923324,NA
71037,Bossier Parish,LA,25.443786982248522,NA,NA
71052,De Soto Parish,LA,NA,NA,78.87931034482759
71108,Caddo Parish,LA,NA,44.40894568690096,NA
71292,Ouachita Parish,LA,20.118343195266274,NA,NA
71301,Rapides Parish,LA,14.201183431952662,NA,NA
04038,Cumberland County,ME,NA,52.715654952076676,NA
04093,York County,ME,82.24852071005917,NA,NA
04401,Penobscot County,ME,NA,2.8753993610223643,NA
20724,Anne Arundel County,MD,NA,NA,98.27586206896551
20745,Prince George's County,MD,74.55621301775149,NA,NA
20782,Prince George's County,MD,83.4319526627219,NA,69.39655172413794
20815,Montgomery County,MD,NA,80.5111821086262,NA
20817,Montgomery County,MD,NA,82.10862619808307,NA
21093,Baltimore County,MD,NA,94.56869009584665,NA
21108,Anne Arundel County,MD,NA,83.70607028753993,NA
21209,Baltimore County,MD,NA,NA,69.82758620689656
21224,Baltimore city,MD,NA,35.14376996805112,NA
21631,Dorchester County,MD,99.40828402366864,NA,NA
01504,Worcester County,MA,NA,NA,100
01520,Worcester County,MA,NA,NA,65.51724137931035
01550,Worcester County,MA,NA,92.01277955271566,NA
01606,Worcester County,MA,NA,75.71884984025559,NA
01841,Essex County,MA,NA,0.3194888178913738,NA
01845,Essex County,MA,33.72781065088758,NA,NA
01850,Middlesex County,MA,15.384615384615385,NA,NA
01907,Essex County,MA,NA,NA,16.379310344827587
02122,Suffolk County,MA,NA,1.9169329073482428,NA
02124,Suffolk County,MA,NA,0,NA
02148,Middlesex County,MA,0,NA,NA
02151,Suffolk County,MA,0.591715976331361,NA,NA
02476,Middlesex County,MA,44.97041420118343,NA,NA
02632,Barnstable County,MA,NA,83.38658146964856,NA
02673,Barnstable County,MA,NA,88.17891373801918,NA
02723,Bristol County,MA,NA,5.7507987220447285,NA
48035,Macomb County,MI,NA,40.57507987220447,NA
48045,Macomb County,MI,31.952662721893493,16.93290734824281,NA
48066,Macomb County,MI,5.325443786982249,NA,NA
48131,Monroe County,MI,NA,88.81789137380191,NA
48146,Wayne County,MI,NA,NA,27.586206896551722
48187,Wayne County,MI,NA,3.8338658146964857,NA
48195,Wayne County,MI,NA,NA,18.53448275862069
48204,Wayne County,MI,17.75147928994083,NA,NA
48209,Wayne County,MI,NA,NA,88.36206896551724
48224,Wayne County,MI,NA,62.939297124600635,NA
48228,Wayne County,MI,NA,63.25878594249201,NA
48236,Wayne County,MI,NA,NA,9.913793103448276
48239,Wayne County,MI,NA,10.223642172523961,NA
48304,Oakland County,MI,NA,59.7444089456869,NA
48312,Macomb County,MI,NA,17.252396166134183,NA
48316,Macomb County,MI,NA,48.242811501597444,NA
48317,Macomb County,MI,NA,22.044728434504794,NA
48346,Oakland County,MI,NA,NA,46.55172413793103
48444,Lapeer County,MI,81.65680473372781,NA,NA
48455,Lapeer County,MI,84.61538461538461,NA,NA
48473,Genesee County,MI,50.29585798816568,NA,NA
48507,Genesee County,MI,NA,30.35143769968051,NA
48601,Saginaw County,MI,NA,49.84025559105431,NA
48640,Midland County,MI,NA,NA,4.741379310344827
48656,Roscommon County,MI,NA,89.1373801916933,NA
48836,Livingston County,MI,NA,NA,73.27586206896551
48906,Ingham County,MI,NA,NA,72.84482758620689
49036,Branch County,MI,NA,NA,33.189655172413794
49091,St. Joseph County,MI,NA,37.06070287539936,NA
49098,Berrien County,MI,90.53254437869822,NA,NA
49202,Jackson County,MI,NA,NA,26.29310344827586
49401,Ottawa County,MI,NA,87.22044728434504,NA
49404,Ottawa County,MI,NA,NA,93.10344827586206
49525,Kent County,MI,NA,24.600638977635782,NA
49601,Wexford County,MI,NA,58.146964856230035,NA
49930,Houghton County,MI,NA,NA,70.25862068965517
55103,Ramsey County,MN,54.437869822485204,NA,NA
55107,Ramsey County,MN,NA,NA,89.65517241379311
55110,Ramsey County,MN,NA,NA,37.93103448275862
55311,Hennepin County,MN,NA,71.56549520766772,NA
55325,Meeker County,MN,NA,99.68051118210862,NA
55362,Wright County,MN,NA,NA,64.65517241379311
55416,Hennepin County,MN,49.70414201183432,NA,NA
55431,Hennepin County,MN,NA,81.15015974440894,NA
55439,Hennepin County,MN,NA,NA,84.91379310344827
55902,Olmsted County,MN,NA,66.45367412140575,NA
55906,Olmsted County,MN,NA,NA,65.94827586206897
56073,Brown County,MN,NA,NA,1.7241379310344827
56101,Cottonwood County,MN,NA,77.95527156549521,NA
56377,Stearns County,MN,NA,NA,71.98275862068965
56482,Wadena County,MN,NA,62.61980830670927,NA
39042,Rankin County,MS,NA,NA,14.224137931034484
39074,Scott County,MS,NA,69.00958466453673,NA
39648,Pike County,MS,29.585798816568047,NA,NA
63010,Jefferson County,MO,NA,NA,21.551724137931032
63033,St. Louis County,MO,NA,53.03514376996805,NA
63122,St. Louis County,MO,NA,NA,9.051724137931034
63125,St. Louis County,MO,48.5207100591716,NA,NA
63703,Cape Girardeau County,MO,NA,NA,83.1896551724138
63901,Butler County,MO,NA,23.961661341853034,NA
64012,Cass County,MO,NA,26.517571884984026,NA
64014,Jackson County,MO,NA,NA,59.48275862068966
64080,Cass County,MO,86.3905325443787,NA,NA
64081,Jackson County,MO,NA,39.936102236421725,NA
64137,Jackson County,MO,92.3076923076923,NA,NA
64759,Barton County,MO,NA,68.69009584664538,NA
64772,Vernon County,MO,NA,60.063897763578275,NA
65202,Boone County,MO,NA,80.19169329073482,NA
65355,Benton County,MO,NA,23.003194888178914,NA
65401,Phelps County,MO,NA,NA,32.327586206896555
65610,Christian County,MO,NA,93.61022364217251,NA
65775,Howell County,MO,NA,NA,54.741379310344826
59725,Beaverhead County,MT,NA,92.97124600638978,NA
59901,Flathead County,MT,NA,NA,0
68111,Douglas County,NE,NA,34.185303514377,NA
89106,Clark County,NV,NA,72.52396166134186,NA
89108,Clark County,NV,30.17751479289941,NA,NA
89502,Washoe County,NV,NA,21.72523961661342,NA
03060,Hillsborough County,NH,NA,NA,18.103448275862068
03301,Merrimack County,NH,NA,NA,3.8793103448275863
03860,Carroll County,NH,NA,93.29073482428115,NA
07006,Essex County,NJ,64.49704142011834,NA,NA
07601,Bergen County,NJ,NA,NA,15.517241379310345
07656,Bergen County,NJ,NA,97.44408945686901,NA
07828,Morris County,NJ,NA,74.76038338658148,NA
08052,Burlington County,NJ,NA,NA,61.206896551724135
08108,Camden County,NJ,NA,NA,70.6896551724138
08232,Atlantic County,NJ,9.467455621301776,NA,NA
08322,Gloucester County,NJ,NA,NA,92.24137931034483
08332,Cumberland County,NJ,1.7751479289940828,59.105431309904155,NA
08361,Cumberland County,NJ,NA,NA,52.1551724137931
08742,Ocean County,NJ,NA,44.08945686900959,NA
08755,Ocean County,NJ,NA,NA,8.620689655172415
87047,Bernalillo County,NM,NA,95.84664536741214,NA
87105,Bernalillo County,NM,NA,5.111821086261981,NA
87111,Bernalillo County,NM,NA,NA,31.46551724137931
87505,Santa Fe County,NM,NA,7.667731629392971,NA
88203,Chaves County,NM,NA,19.808306709265175,NA
10002,New York County,NY,NA,4.15335463258786,NA
10471,Bronx County,NY,NA,NA,42.672413793103445
10583,Westchester County,NY,NA,NA,84.05172413793103
11040,Nassau County,NY,NA,74.4408945686901,30.603448275862068
11209,Kings County,NY,37.8698224852071,NA,NA
11222,Kings County,NY,NA,69.32907348242811,NA
11224,Kings County,NY,NA,NA,15.086206896551724
11226,Kings County,NY,NA,NA,66.37931034482759
11235,Kings County,NY,NA,NA,0.43103448275862066
11249,Kings County,NY,NA,84.02555910543131,NA
11358,Queens County,NY,NA,63.578274760383394,NA
11717,Suffolk County,NY,27.810650887573964,NA,NA
11731,Suffolk County,NY,NA,74.12140575079871,NA
11756,Nassau County,NY,NA,NA,44.396551724137936
11763,Suffolk County,NY,NA,NA,49.137931034482754
11787,Suffolk County,NY,NA,34.82428115015975,NA
12010,Montgomery County,NY,NA,NA,5.603448275862069
12020,Saratoga County,NY,28.994082840236686,NA,NA
12206,Albany County,NY,NA,NA,92.67241379310344
12883,Essex County,NY,NA,NA,79.74137931034483
13031,Onondaga County,NY,51.4792899408284,NA,NA
13601,Jefferson County,NY,NA,19.488817891373802,NA
13617,St. Lawrence County,NY,NA,NA,47.8448275862069
13760,Broome County,NY,NA,0.6389776357827476,NA
13815,Chenango County,NY,NA,13.738019169329075,NA
13850,Broome County,NY,NA,5.431309904153355,NA
13905,Broome County,NY,2.9585798816568047,NA,2.1551724137931036
14075,Erie County,NY,NA,7.348242811501597,NA
14103,Orleans County,NY,NA,55.91054313099042,NA
14120,Niagara County,NY,NA,NA,25
14127,Erie County,NY,NA,NA,19.82758620689655
14223,Erie County,NY,NA,38.977635782747605,NA
14437,Livingston County,NY,NA,47.6038338658147,NA
14612,Monroe County,NY,NA,2.5559105431309903,NA
14623,Monroe County,NY,NA,NA,44.827586206896555
14850,Tompkins County,NY,7.6923076923076925,NA,NA
27018,Yadkin County,NC,91.71597633136095,NA,NA
27265,Guilford County,NC,NA,15.654952076677317,NA
27292,Davidson County,NC,6.508875739644971,NA,NA
27376,Moore County,NC,NA,NA,90.51724137931035
27406,Guilford County,NC,NA,2.2364217252396164,NA
27520,Johnston County,NC,NA,31.629392971246006,NA
27597,Wake County,NC,NA,64.85623003194888,NA
27614,Wake County,NC,NA,35.78274760383386,NA
27705,Durham County,NC,NA,12.460063897763577,NA
27909,Pasquotank County,NC,NA,50.47923322683706,NA
27910,Hertford County,NC,72.18934911242604,NA,NA
28078,Mecklenburg County,NC,NA,73.1629392971246,NA
28105,Mecklenburg County,NC,NA,82.74760383386581,NA
28128,Stanly County,NC,NA,82.42811501597444,NA
28150,Cleveland County,NC,NA,NA,39.224137931034484
28213,Mecklenburg County,NC,NA,59.424920127795524,NA
28638,Caldwell County,NC,NA,70.6070287539936,NA
28645,Caldwell County,NC,94.0828402366864,NA,NA
28694,Ashe County,NC,NA,92.33226837060703,NA
28785,Haywood County,NC,NA,NA,78.01724137931035
58104,Cass County,ND,66.86390532544378,NA,NA
43062,Licking County,OH,40.828402366863905,NA,NA
43110,Franklin County,OH,30.76923076923077,NA,NA
43207,Franklin County,OH,2.366863905325444,NA,NA
43211,Franklin County,OH,NA,73.80191693290735,NA
43223,Franklin County,OH,10.650887573964498,NA,NA
43420,Sandusky County,OH,18.34319526627219,NA,22.844827586206897
43512,Defiance County,OH,NA,NA,12.931034482758621
43560,Lucas County,OH,NA,NA,25.862068965517242
43567,Fulton County,OH,NA,88.49840255591054,NA
44012,Lorain County,OH,NA,NA,6.4655172413793105
44022,Cuyahoga County,OH,NA,NA,77.58620689655173
44035,Lorain County,OH,1.183431952662722,NA,NA
44039,Lorain County,OH,NA,NA,3.4482758620689653
44052,Lorain County,OH,NA,NA,59.91379310344828
44053,Lorain County,OH,14.792899408284024,NA,NA
44102,Cuyahoga County,OH,5.9171597633136095,NA,NA
44106,Cuyahoga County,OH,43.19526627218935,NA,NA
44108,Cuyahoga County,OH,NA,7.0287539936102235,NA
44118,Cuyahoga County,OH,NA,NA,4.310344827586207
44128,Cuyahoga County,OH,NA,3.1948881789137378,NA
44129,Cuyahoga County,OH,21.893491124260358,NA,NA
44130,Cuyahoga County,OH,NA,1.5974440894568689,NA
44143,Cuyahoga County,OH,NA,NA,0.8620689655172413
44256,Medina County,OH,NA,0.9584664536741214,NA
44266,Portage County,OH,NA,7.987220447284344,NA
44281,Medina County,OH,NA,13.418530351437699,NA
44312,Summit County,OH,NA,NA,24.137931034482758
44406,Mahoning County,OH,NA,28.115015974440894,NA
44420,Trumbull County,OH,NA,NA,50.86206896551724
44460,Columbiana County,OH,NA,NA,23.275862068965516
44515,Mahoning County,OH,NA,NA,17.67241379310345
44646,Stark County,OH,NA,12.779552715654951,NA
44647,Stark County,OH,NA,NA,60.775862068965516
44870,Erie County,OH,3.5502958579881656,NA,NA
44903,Richland County,OH,24.85207100591716,NA,NA
45011,Butler County,OH,22.485207100591715,NA,NA
45107,Clinton County,OH,84.02366863905326,NA,NA
45431,Montgomery County,OH,NA,NA,40.08620689655172
45638,Lawrence County,OH,NA,NA,63.793103448275865
45640,Jackson County,OH,13.609467455621301,NA,NA
45656,Jackson County,OH,NA,69.96805111821087,NA
45662,Scioto County,OH,4.142011834319527,NA,NA
45750,Washington County,OH,NA,1.2779552715654952,NA
45801,Allen County,OH,NA,NA,40.94827586206897
45804,Allen County,OH,NA,24.920127795527154,NA
45840,Hancock County,OH,NA,NA,6.896551724137931
73018,Grady County,OK,NA,30.670926517571885,NA
73071,Cleveland County,OK,NA,NA,67.67241379310344
73112,Oklahoma County,OK,NA,NA,58.189655172413794
73160,Cleveland County,OK,19.526627218934912,NA,NA
73401,Carter County,OK,NA,NA,23.70689655172414
74003,Osage County,OK,NA,79.87220447284345,NA
74136,Tulsa County,OK,NA,48.56230031948881,NA
74346,Delaware County,OK,89.94082840236686,NA,NA
74354,Ottawa County,OK,NA,NA,65.08620689655173
74464,Cherokee County,OK,16.56804733727811,NA,NA
74578,Latimer County,OK,NA,NA,96.98275862068965
74834,Lincoln County,OK,NA,NA,99.56896551724138
74959,Le Flore County,OK,97.0414201183432,NA,NA
97035,Clackamas County,OR,NA,NA,88.79310344827587
97045,Clackamas County,OR,NA,NA,13.793103448275861
97123,Washington County,OR,NA,15.974440894568689,NA
97124,Washington County,OR,NA,NA,30.17241379310345
97141,Tillamook County,OR,NA,NA,75
97225,Washington County,OR,NA,NA,56.896551724137936
97267,Clackamas County,OR,NA,39.29712460063898,NA
97305,Marion County,OR,NA,56.54952076677316,NA
97462,Douglas County,OR,NA,93.9297124600639,NA
97478,Lane County,OR,NA,NA,53.01724137931034
97502,Jackson County,OR,NA,NA,36.206896551724135
97503,Jackson County,OR,NA,NA,93.53448275862068
97701,Deschutes County,OR,NA,NA,38.793103448275865
97862,Umatilla County,OR,65.08875739644971,NA,NA
15025,Allegheny County,PA,NA,NA,62.5
15143,Allegheny County,PA,NA,49.52076677316294,NA
15227,Allegheny County,PA,NA,64.21725239616613,NA
15401,Fayette County,PA,15.976331360946746,NA,NA
15425,Fayette County,PA,NA,NA,37.5
15530,Somerset County,PA,NA,98.40255591054313,NA
15666,Westmoreland County,PA,NA,NA,11.637931034482758
15825,Jefferson County,PA,52.662721893491124,48.881789137380196,NA
16056,Butler County,PA,95.85798816568047,NA,NA
16057,Butler County,PA,68.63905325443787,NA,NA
16148,Mercer County,PA,NA,23.322683706070286,NA
16412,Erie County,PA,NA,99.36102236421725,NA
16508,Erie County,PA,NA,66.77316293929712,NA
16509,Erie County,PA,NA,NA,26.72413793103448
16701,McKean County,PA,NA,24.281150159744406,NA
16950,Tioga County,PA,NA,99.04153354632588,NA
17070,Cumberland County,PA,NA,45.367412140575084,NA
17104,Dauphin County,PA,NA,NA,85.77586206896551
17202,Franklin County,PA,NA,NA,12.068965517241379
17233,Fulton County,PA,NA,NA,55.603448275862064
17356,York County,PA,NA,NA,39.6551724137931
17370,York County,PA,98.22485207100591,NA,NA
17403,York County,PA,NA,4.472843450479233,NA
17584,Lancaster County,PA,NA,78.27476038338658,NA
17815,Columbia County,PA,NA,11.182108626198083,NA
17821,Montour County,PA,NA,NA,24.568965517241377
17870,Snyder County,PA,56.213017751479285,NA,41.810344827586206
18055,Northampton County,PA,45.562130177514796,NA,NA
18202,Luzerne County,PA,55.02958579881657,NA,NA
18301,Monroe County,PA,NA,71.24600638977637,NA
18302,Monroe County,PA,58.57988165680473,NA,NA
18403,Lackawanna County,PA,NA,NA,90.51724137931035
18428,Pike County,PA,76.92307692307693,NA,NA
18504,Lackawanna County,PA,36.68639053254438,NA,NA
18641,Luzerne County,PA,86.98224852071006,NA,NA
18643,Luzerne County,PA,NA,60.383386581469644,NA
18702,Luzerne County,PA,NA,6.3897763578274756,NA
18938,Bucks County,PA,NA,NA,60.3448275862069
18944,Bucks County,PA,NA,NA,50.43103448275862
18951,Bucks County,PA,NA,18.53035143769968,29.310344827586203
19008,Delaware County,PA,NA,NA,96.12068965517241
19125,Philadelphia County,PA,NA,NA,87.93103448275862
19134,Philadelphia County,PA,4.733727810650888,NA,NA
19365,Chester County,PA,NA,97.76357827476039,NA
02871,Newport County,RI,66.27218934911244,NA,NA
02895,Providence County,RI,NA,27.15654952076677,NA
02909,Providence County,RI,28.402366863905325,NA,NA
29067,Lancaster County,SC,NA,NA,89.22413793103449
29170,Lexington County,SC,NA,81.78913738019169,NA
29205,Richland County,SC,NA,84.66453674121406,NA
29307,Spartanburg County,SC,NA,NA,53.44827586206896
29316,Spartanburg County,SC,NA,30.990415335463258,NA
29323,Spartanburg County,SC,NA,55.59105431309904,NA
29360,Laurens County,SC,NA,41.853035143769965,NA
29456,Dorchester County,SC,NA,54.9520766773163,NA
29582,Horry County,SC,93.49112426035504,NA,NA
29617,Greenville County,SC,82.84023668639054,NA,NA
29621,Anderson County,SC,NA,20.12779552715655,NA
29651,Greenville County,SC,NA,53.99361022364217,NA
29671,Pickens County,SC,NA,66.77316293929712,NA
29678,Oconee County,SC,59.76331360946746,NA,NA
29680,Greenville County,SC,NA,29.39297124600639,NA
37043,Montgomery County,TN,42.01183431952663,NA,NA
37083,Macon County,TN,NA,32.26837060702875,NA
37172,Robertson County,TN,53.84615384615385,72.20447284345049,NA
37215,Davidson County,TN,NA,68.370607028754,NA
37321,Rhea County,TN,NA,37.06070287539936,NA
37355,Coffee County,TN,NA,57.82747603833865,NA
37363,Hamilton County,TN,NA,43.76996805111821,NA
37601,Washington County,TN,23.076923076923077,NA,NA
37650,Unicoi County,TN,NA,48.881789137380196,NA
37742,Loudon County,TN,NA,81.15015974440894,NA
37766,Campbell County,TN,NA,25.23961661341853,NA
37772,Loudon County,TN,NA,65.49520766773162,NA
37774,Loudon County,TN,NA,NA,34.05172413793103
37886,Blount County,TN,88.16568047337277,NA,NA
37934,Knox County,TN,NA,45.68690095846645,NA
38016,Shelby County,TN,NA,53.35463258785943,NA
38063,Lauderdale County,TN,50.887573964497044,NA,NA
38111,Shelby County,TN,NA,52.39616613418531,NA
38401,Maury County,TN,NA,8.30670926517572,NA
38464,Lawrence County,TN,NA,NA,43.96551724137931
38555,Cumberland County,TN,NA,NA,67.24137931034483
75035,Collin County,TX,NA,56.23003194888179,NA
75062,Dallas County,TX,NA,31.309904153354633,NA
75149,Dallas County,TX,26.627218934911244,NA,NA
75409,Collin County,TX,79.28994082840237,NA,NA
75904,Angelina County,TX,NA,NA,75.86206896551724
76016,Tarrant County,TX,NA,NA,73.70689655172413
76021,Tarrant County,TX,NA,40.2555910543131,NA
76050,Johnson County,TX,85.79881656804734,NA,NA
76706,McLennan County,TX,39.64497041420118,NA,NA
77014,Harris County,TX,NA,67.73162939297124,NA
77075,Harris County,TX,57.396449704142015,NA,NA
77099,Harris County,TX,NA,37.69968051118211,NA
77318,Montgomery County,TX,NA,NA,93.96551724137932
77327,Liberty County,TX,NA,79.2332268370607,NA
77338,Harris County,TX,NA,NA,74.56896551724138
77356,Montgomery County,TX,NA,76.35782747603834,NA
77379,Harris County,TX,NA,10.543130990415335,NA
77388,Harris County,TX,53.25443786982249,NA,NA
77429,Harris County,TX,NA,6.070287539936102,NA
77477,Fort Bend County,TX,NA,90.73482428115017,NA
77505,Harris County,TX,67.45562130177515,NA,NA
77590,Galveston County,TX,NA,14.057507987220447,NA
77840,Brazos County,TX,52.071005917159766,NA,NA
78045,Webb County,TX,NA,31.948881789137378,NA
78070,Comal County,TX,NA,85.94249201277955,NA
78201,Bexar County,TX,31.360946745562128,22.364217252396166,NA
78240,Bexar County,TX,NA,NA,41.37931034482759
78501,Hidalgo County,TX,NA,87.53993610223642,NA
78537,Hidalgo County,TX,NA,NA,61.63793103448276
78640,Hays County,TX,NA,89.77635782747603,NA
78645,Travis County,TX,NA,NA,71.12068965517241
78676,Hays County,TX,NA,NA,82.75862068965517
78744,Travis County,TX,NA,65.814696485623,NA
79336,Hockley County,TX,NA,NA,68.10344827586206
79423,Lubbock County,TX,NA,63.897763578274756,NA
79549,Scurry County,TX,73.96449704142012,NA,NA
79762,Ector County,TX,NA,NA,85.34482758620689
79765,Ector County,TX,NA,NA,99.13793103448276
84115,Salt Lake County,UT,NA,33.22683706070288,NA
84121,Salt Lake County,UT,NA,NA,18.96551724137931
05819,Caledonia County,VT,80.4733727810651,NA,NA
20121,Fairfax County,VA,NA,77.63578274760383,NA
22003,Fairfax County,VA,NA,NA,53.879310344827594
22025,Prince William County,VA,NA,NA,84.48275862068965
22306,Fairfax County,VA,36.09467455621302,NA,NA
22580,Caroline County,VA,100,NA,NA
22657,Shenandoah County,VA,NA,NA,45.258620689655174
22701,Culpeper County,VA,NA,NA,32.758620689655174
22801,Harrisonburg city,VA,47.928994082840234,NA,NA
23060,Henrico County,VA,NA,NA,46.98275862068966
23185,James City County,VA,NA,4.792332268370607,NA
23233,Henrico County,VA,NA,76.99680511182109,NA
23235,Chesterfield County,VA,NA,50.798722044728436,NA
23320,Chesapeake city,VA,32.544378698224854,NA,NA
23601,Newport News city,VA,NA,NA,29.74137931034483
23701,Portsmouth city,VA,NA,NA,21.982758620689655
24017,Roanoke city,VA,NA,46.325878594249204,NA
24201,Bristol city,VA,NA,46.96485623003195,NA
24251,Scott County,VA,NA,NA,86.20689655172413
24333,Galax city,VA,NA,NA,62.93103448275862
24401,Staunton city,VA,NA,NA,5.172413793103448
98020,Snohomish County,WA,NA,NA,34.91379310344828
98023,King County,WA,NA,15.015974440894569,NA
98092,King County,WA,NA,19.169329073482427,NA
98136,King County,WA,NA,78.91373801916933,NA
98198,King County,WA,46.74556213017752,NA,NA
98199,King County,WA,NA,77.31629392971246,NA
98248,Whatcom County,WA,NA,97.12460063897763,NA
98270,Snohomish County,WA,27.218934911242602,NA,NA
98338,Pierce County,WA,55.62130177514793,NA,NA
98372,Pierce County,WA,NA,64.5367412140575,NA
98661,Clark County,WA,88.75739644970415,NA,NA
98802,Douglas County,WA,NA,NA,20.689655172413794
98908,Yakima County,WA,44.37869822485207,NA,NA
98942,Yakima County,WA,NA,NA,81.03448275862068
98944,Yakima County,WA,NA,69.6485623003195,NA
99022,Spokane County,WA,NA,NA,91.8103448275862
99109,Stevens County,WA,97.63313609467455,NA,80.17241379310344
99207,Spokane County,WA,57.98816568047337,NA,NA
99352,Benton County,WA,NA,NA,2.586206896551724
20002,District of Columbia,DC,8.284023668639055,NA,NA
20016,District of Columbia,DC,75.7396449704142,NA,NA
20018,District of Columbia,DC,NA,26.837060702875398,NA
25313,Kanawha County,WV,NA,58.146964856230035,NA
25880,Raleigh County,WV,NA,84.98402555910543,NA
53129,Milwaukee County,WI,NA,70.28753993610223,NA
53215,Milwaukee County,WI,7.100591715976331,NA,NA
53216,Milwaukee County,WI,12.42603550295858,NA,NA
53402,Racine County,WI,10.059171597633137,NA,NA
53405,Racine County,WI,11.834319526627219,51.43769968051119,NA
53406,Racine County,WI,21.301775147928996,3.5143769968051117,NA
53548,Rock County,WI,NA,66.13418530351439,28.879310344827587
53573,Grant County,WI,NA,98.7220447284345,NA
53959,Sauk County,WI,NA,46.325878594249204,NA
82414,Park County,WY,NA,43.45047923322684,77.15517241379311
