ZipCode,county,state,Adult,Retirement,Geriatric
35007,Shelby County,AL,78.43137254901961,NA,NA
35115,Shelby County,AL,NA,61.49825783972126,NA
35214,Jefferson County,AL,32.51633986928105,NA,NA
35476,Tuscaloosa County,AL,62.58169934640523,NA,NA
35504,Walker County,AL,NA,62.54355400696864,NA
35570,Marion County,AL,NA,NA,53.39506172839506
35603,Morgan County,AL,NA,28.745644599303137,NA
35758,Madison County,AL,NA,35.01742160278746,NA
35768,Jackson County,AL,NA,48.954703832752614,NA
35806,Madison County,AL,NA,91.81184668989548,NA
35957,Marshall County,AL,NA,NA,75
35967,DeKalb County,AL,NA,67.42160278745645,NA
36207,Calhoun County,AL,NA,57.8397212543554,NA
36305,Houston County,AL,83.00653594771242,NA,NA
36567,Baldwin County,AL,62.908496732026144,NA,NA
36607,Mobile County,AL,84.15032679738562,NA,NA
36609,Mobile County,AL,59.967320261437905,NA,NA
36619,Mobile County,AL,75.98039215686273,NA,NA
99705,Fairbanks North Star Borough,AK,73.8562091503268,NA,NA
99801,Juneau City and Borough,AK,48.366013071895424,NA,NA
85014,Maricopa County,AZ,43.4640522875817,NA,NA
85019,Maricopa County,AZ,NA,67.77003484320558,NA
85020,Maricopa County,AZ,NA,NA,46.913580246913575
85022,Maricopa County,AZ,21.07843137254902,NA,NA
85032,Maricopa County,AZ,16.013071895424837,NA,NA
85033,Maricopa County,AZ,NA,NA,89.81481481481481
85041,Maricopa County,AZ,33.66013071895425,NA,NA
85043,Maricopa County,AZ,NA,86.7595818815331,NA
85206,Maricopa County,AZ,NA,27.874564459930312,NA
85250,Maricopa County,AZ,NA,NA,58.95061728395061
85259,Maricopa County,AZ,NA,91.63763066202091,NA
85321,Pima County,AZ,94.77124183006535,NA,NA
85338,Maricopa County,AZ,NA,39.54703832752614,NA
85383,Maricopa County,AZ,84.47712418300654,NA,NA
85614,Pima County,AZ,NA,16.202090592334496,NA
85641,Pima County,AZ,NA,71.77700348432056,NA
85658,Pima County,AZ,NA,62.02090592334495,NA
85718,Pima County,AZ,58.66013071895425,NA,NA
85749,Pima County,AZ,76.9607843137255,NA,NA
85755,Pima County,AZ,NA,NA,34.876543209876544
86326,Yavapai County,AZ,57.35294117647059,NA,NA
86333,Yavapai County,AZ,NA,NA,82.71604938271605
86432,Mohave County,AZ,100,NA,NA
86440,Mohave County,AZ,NA,77.70034843205575,NA
86442,Mohave County,AZ,61.76470588235294,NA,NA
71901,Garland County,AR,NA,40.243902439024396,NA
72002,Saline County,AR,NA,70.20905923344948,NA
72031,Van Buren County,AR,NA,92.33449477351915,NA
72065,Saline County,AR,99.18300653594771,NA,NA
72104,Hot Spring County,AR,NA,56.968641114982574,NA
72112,Jackson County,AR,NA,NA,66.0493827160494
72143,White County,AR,NA,8.885017421602788,NA
72205,Pulaski County,AR,NA,83.62369337979094,NA
72364,Crittenden County,AR,NA,86.93379790940766,NA
72601,Boone County,AR,NA,64.98257839721255,NA
72715,Benton County,AR,NA,58.71080139372822,NA
72762,Washington County,AR,NA,NA,53.70370370370371
72927,Logan County,AR,NA,NA,98.4567901234568
90006,Los Angeles County,CA,NA,56.271777003484324,NA
90018,Los Angeles County,CA,38.39869281045752,NA,NA
90020,Los Angeles County,CA,79.73856209150327,NA,NA
90022,Los Angeles County,CA,88.0718954248366,NA,NA
90023,Los Angeles County,CA,NA,53.31010452961672,NA
90025,Los Angeles County,CA,57.6797385620915,NA,NA
90029,Los Angeles County,CA,NA,NA,84.87654320987654
90031,Los Angeles County,CA,NA,67.59581881533101,NA
90043,Los Angeles County,CA,NA,NA,35.49382716049383
90044,Los Angeles County,CA,7.18954248366013,NA,NA
90046,Los Angeles County,CA,97.38562091503267,NA,NA
90059,Los Angeles County,CA,NA,51.742160278745644,NA
90201,Los Angeles County,CA,31.372549019607842,NA,NA
90211,Los Angeles County,CA,NA,95.64459930313589,NA
90230,Los Angeles County,CA,77.2875816993464,NA,NA
90240,Los Angeles County,CA,NA,68.1184668989547,NA
90265,Los Angeles County,CA,NA,90.76655052264809,NA
90272,Los Angeles County,CA,NA,NA,28.39506172839506
90277,Los Angeles County,CA,53.431372549019606,NA,NA
90291,Los Angeles County,CA,NA,54.52961672473867,NA
90403,Los Angeles County,CA,NA,NA,29.629629629629626
90602,Los Angeles County,CA,NA,54.70383275261324,NA
90631,Orange County,CA,NA,13.763066202090593,NA
90638,Los Angeles County,CA,NA,NA,27.77777777777778
90640,Los Angeles County,CA,66.66666666666666,NA,NA
90720,Orange County,CA,90.19607843137256,NA,NA
90732,Los Angeles County,CA,83.33333333333334,NA,NA
90746,Los Angeles County,CA,98.0392156862745,NA,NA
91016,Los Angeles County,CA,NA,52.09059233449478,NA
91042,Los Angeles County,CA,NA,46.51567944250871,NA
91306,Los Angeles County,CA,NA,NA,48.148148148148145
91331,Los Angeles County,CA,12.581699346405228,NA,NA
91354,Los Angeles County,CA,NA,NA,81.17283950617285
91387,Los Angeles County,CA,43.790849673202615,NA,NA
91401,Los Angeles County,CA,65.84967320261438,NA,NA
91501,Los Angeles County,CA,NA,81.8815331010453,NA
91701,San Bernardino County,CA,NA,NA,51.54320987654321
91706,Los Angeles County,CA,25.816993464052292,NA,NA
91748,Los Angeles County,CA,68.79084967320262,NA,NA
91750,Los Angeles County,CA,65.0326797385621,NA,NA
91754,Los Angeles County,CA,86.11111111111111,55.92334494773519,NA
91761,San Bernardino County,CA,71.73202614379085,NA,NA
91935,San Diego County,CA,96.73202614379085,NA,NA
91945,San Diego County,CA,60.62091503267973,NA,NA
92027,San Diego County,CA,NA,43.72822299651568,NA
92101,San Diego County,CA,NA,NA,40.74074074074074
92104,San Diego County,CA,28.104575163398692,NA,NA
92105,San Diego County,CA,17.647058823529413,NA,NA
92113,San Diego County,CA,NA,31.18466898954704,NA
92114,San Diego County,CA,NA,23.519163763066203,NA
92115,San Diego County,CA,NA,91.1149825783972,NA
92119,San Diego County,CA,NA,73.69337979094077,NA
92123,San Diego County,CA,NA,NA,61.111111111111114
92131,San Diego County,CA,96.07843137254902,NA,NA
92234,Riverside County,CA,15.522875816993464,34.494773519163765,NA
92308,San Bernardino County,CA,48.69281045751634,NA,NA
92345,San Bernardino County,CA,NA,NA,24.691358024691358
92392,San Bernardino County,CA,NA,28.397212543554005,NA
92411,San Bernardino County,CA,NA,NA,80.8641975308642
92553,Riverside County,CA,27.287581699346404,NA,NA
92562,Riverside County,CA,26.47058823529412,29.61672473867596,NA
92563,Riverside County,CA,NA,37.282229965156795,NA
92586,Riverside County,CA,NA,41.81184668989547,NA
92603,Orange County,CA,NA,96.34146341463415,NA
92606,Orange County,CA,93.62745098039215,NA,NA
92620,Orange County,CA,96.89542483660131,NA,NA
92627,Orange County,CA,NA,NA,18.82716049382716
92647,Orange County,CA,NA,17.247386759581882,NA
92651,Orange County,CA,NA,87.45644599303137,NA
92653,Orange County,CA,72.87581699346404,47.5609756097561,NA
92677,Orange County,CA,33.169934640522875,NA,NA
92692,Orange County,CA,39.869281045751634,20.034843205574912,NA
92703,Orange County,CA,38.88888888888889,NA,NA
92704,Orange County,CA,32.84313725490196,NA,NA
92705,Orange County,CA,NA,NA,56.17283950617284
92708,Orange County,CA,NA,NA,22.530864197530864
92802,Orange County,CA,NA,74.21602787456446,NA
92806,Orange County,CA,82.02614379084967,NA,NA
92821,Orange County,CA,NA,NA,31.790123456790127
92831,Orange County,CA,92.97385620915033,NA,NA
92833,Orange County,CA,NA,NA,51.23456790123457
92840,Orange County,CA,NA,NA,23.765432098765434
92867,Orange County,CA,NA,82.57839721254355,NA
93003,Ventura County,CA,NA,51.393728222996515,NA
93230,Kings County,CA,49.01960784313725,NA,23.14814814814815
93257,Tulare County,CA,13.88888888888889,NA,NA
93274,Tulare County,CA,NA,NA,25.308641975308642
93277,Tulare County,CA,25.163398692810457,NA,NA
93433,San Luis Obispo County,CA,76.1437908496732,NA,NA
93436,Santa Barbara County,CA,NA,NA,14.506172839506174
93446,San Luis Obispo County,CA,NA,NA,50.617283950617285
93510,Los Angeles County,CA,NA,94.94773519163763,NA
93550,Los Angeles County,CA,NA,41.63763066202091,NA
93555,Kern County,CA,72.22222222222221,NA,NA
93611,Fresno County,CA,37.254901960784316,NA,NA
93662,Fresno County,CA,56.86274509803921,NA,NA
93702,Fresno County,CA,NA,31.010452961672474,NA
93705,Fresno County,CA,66.01307189542483,NA,NA
93711,Fresno County,CA,66.83006535947712,NA,NA
93722,Fresno County,CA,9.803921568627452,NA,NA
93726,Fresno County,CA,89.2156862745098,NA,NA
94010,San Mateo County,CA,NA,30.66202090592334,NA
94066,San Mateo County,CA,42.64705882352941,NA,11.419753086419753
94080,San Mateo County,CA,NA,NA,2.4691358024691357
94115,San Francisco County,CA,NA,32.57839721254355,NA
94124,San Francisco County,CA,58.16993464052288,NA,NA
94131,San Francisco County,CA,NA,NA,57.407407407407405
94132,San Francisco County,CA,NA,63.06620209059234,NA
94403,San Mateo County,CA,NA,NA,11.11111111111111
94518,Contra Costa County,CA,77.94117647058823,75.43554006968641,NA
94534,Solano County,CA,64.86928104575163,NA,NA
94536,Alameda County,CA,NA,18.81533101045296,NA
94545,Alameda County,CA,NA,93.37979094076655,NA
94546,Alameda County,CA,NA,59.58188153310105,NA
94583,Contra Costa County,CA,51.9607843137255,NA,NA
94598,Contra Costa County,CA,79.24836601307189,NA,NA
94603,Alameda County,CA,46.89542483660131,NA,NA
95035,Santa Clara County,CA,48.8562091503268,NA,NA
95066,Santa Cruz County,CA,91.17647058823529,NA,NA
95076,Santa Cruz County,CA,19.934640522875817,NA,NA
95148,Santa Clara County,CA,66.17647058823529,NA,NA
95252,Calaveras County,CA,83.16993464052288,NA,NA
95301,Merced County,CA,45.42483660130719,NA,NA
95315,Merced County,CA,89.2156862745098,NA,NA
95336,San Joaquin County,CA,77.12418300653596,NA,NA
95337,San Joaquin County,CA,40.35947712418301,NA,NA
95355,Stanislaus County,CA,9.313725490196079,NA,NA
95363,Stanislaus County,CA,61.9281045751634,NA,NA
95403,Sonoma County,CA,49.83660130718954,NA,NA
95482,Mendocino County,CA,NA,59.23344947735192,NA
95519,Humboldt County,CA,71.40522875816994,NA,NA
95624,Sacramento County,CA,NA,21.428571428571427,NA
95667,El Dorado County,CA,NA,NA,15.123456790123457
95709,El Dorado County,CA,NA,81.53310104529616,NA
95815,Sacramento County,CA,NA,NA,73.76543209876543
95822,Sacramento County,CA,89.05228758169935,NA,NA
95932,Colusa County,CA,NA,NA,92.28395061728395
95945,Nevada County,CA,NA,33.62369337979094,NA
95969,Butte County,CA,32.189542483660134,NA,NA
95991,Sutter County,CA,29.575163398692812,33.10104529616725,NA
96002,Shasta County,CA,57.18954248366013,NA,NA
80005,Jefferson County,CO,59.31372549019608,NA,NA
80013,Arapahoe County,CO,11.11111111111111,NA,NA
80017,Arapahoe County,CO,NA,78.04878048780488,NA
80020,Broomfield County,CO,NA,29.790940766550523,NA
80033,Jefferson County,CO,NA,58.88501742160279,NA
80112,Arapahoe County,CO,54.248366013071895,NA,NA
80126,Douglas County,CO,51.633986928104584,NA,NA
80138,Douglas County,CO,52.450980392156865,NA,NA
80219,Denver County,CO,4.901960784313726,NA,NA
80220,Denver County,CO,NA,63.06620209059234,NA
80239,Denver County,CO,NA,92.85714285714286,NA
80513,Larimer County,CO,75.32679738562092,NA,NA
80524,Larimer County,CO,NA,NA,73.14814814814815
80525,Larimer County,CO,NA,NA,7.4074074074074066
80621,Weld County,CO,73.52941176470588,NA,NA
80634,Weld County,CO,3.2679738562091507,NA,NA
80701,Morgan County,CO,NA,NA,50
80906,El Paso County,CO,62.254901960784316,NA,NA
80920,El Paso County,CO,NA,58.36236933797909,NA
81050,Otero County,CO,71.24183006535948,NA,NA
81521,Mesa County,CO,68.13725490196079,NA,NA
81601,Garfield County,CO,79.08496732026144,NA,NA
06001,Hartford County,CT,NA,NA,91.66666666666666
06029,Tolland County,CT,NA,62.19512195121951,NA
06033,Hartford County,CT,NA,49.65156794425087,NA
06057,Litchfield County,CT,NA,NA,95.98765432098766
06062,Hartford County,CT,58.66013071895425,NA,NA
06082,Hartford County,CT,19.28104575163399,NA,14.814814814814813
06098,Litchfield County,CT,NA,40.76655052264808,NA
06106,Hartford County,CT,4.738562091503268,NA,NA
06108,Hartford County,CT,NA,83.27526132404182,NA
06110,Hartford County,CT,81.37254901960785,NA,75.30864197530865
06111,Hartford County,CT,NA,38.32752613240418,NA
06112,Hartford County,CT,17.483660130718953,NA,60.802469135802475
06119,Hartford County,CT,81.69934640522875,NA,NA
06234,Windham County,CT,63.888888888888886,NA,NA
06239,Windham County,CT,35.947712418300654,NA,NA
06403,New Haven County,CT,NA,95.81881533101046,NA
06477,New Haven County,CT,NA,74.39024390243902,NA
06480,Middlesex County,CT,NA,71.95121951219512,NA
06511,New Haven County,CT,NA,9.233449477351916,NA
06516,New Haven County,CT,8.006535947712418,NA,NA
06605,Fairfield County,CT,34.150326797385624,NA,NA
06610,Fairfield County,CT,28.26797385620915,NA,NA
06704,New Haven County,CT,NA,50,NA
06759,Litchfield County,CT,NA,NA,87.65432098765432
06786,Litchfield County,CT,82.18954248366013,NA,NA
06790,Litchfield County,CT,5.718954248366013,NA,NA
06824,Fairfield County,CT,NA,90.59233449477352,NA
06903,Fairfield County,CT,NA,56.62020905923345,NA
19805,New Castle County,DE,3.594771241830065,8.188153310104529,NA
19808,New Castle County,DE,23.03921568627451,NA,7.098765432098765
19943,Kent County,DE,NA,67.07317073170732,NA
19966,Sussex County,DE,24.673202614379086,NA,NA
19973,Sussex County,DE,NA,17.073170731707318,NA
32054,Union County,FL,NA,NA,88.88888888888889
32068,Clay County,FL,12.908496732026146,NA,NA
32082,St. Johns County,FL,NA,NA,59.876543209876544
32091,Bradford County,FL,NA,36.7595818815331,NA
32137,Flagler County,FL,NA,NA,6.790123456790123
32162,Sumter County,FL,NA,1.0452961672473868,NA
32189,Putnam County,FL,97.87581699346404,NA,NA
32205,Duval County,FL,27.124183006535947,NA,NA
32208,Duval County,FL,22.22222222222222,NA,NA
32218,Duval County,FL,4.248366013071895,NA,NA
32277,Duval County,FL,NA,39.37282229965157,NA
32404,Bay County,FL,NA,17.94425087108014,NA
32501,Escambia County,FL,NA,NA,82.09876543209876
32503,Escambia County,FL,NA,11.67247386759582,NA
32506,Escambia County,FL,NA,48.08362369337979,NA
32578,Okaloosa County,FL,NA,15.33101045296167,NA
32606,Alachua County,FL,34.31372549019608,NA,NA
32615,Alachua County,FL,64.54248366013073,NA,NA
32621,Levy County,FL,NA,86.06271777003485,NA
32725,Volusia County,FL,35.294117647058826,NA,NA
32766,Seminole County,FL,94.6078431372549,NA,NA
32779,Seminole County,FL,75.16339869281046,NA,NA
32796,Brevard County,FL,NA,NA,36.7283950617284
32833,Orange County,FL,NA,NA,85.18518518518519
32905,Brevard County,FL,NA,NA,33.95061728395062
32922,Brevard County,FL,48.03921568627451,NA,NA
32926,Brevard County,FL,NA,39.721254355400696,NA
33014,Miami-Dade County,FL,NA,68.98954703832753,NA
33025,Broward County,FL,NA,NA,41.358024691358025
33027,Broward County,FL,NA,34.66898954703833,NA
33033,Miami-Dade County,FL,NA,47.90940766550523,NA
33037,Monroe County,FL,NA,70.03484320557492,NA
33056,Miami-Dade County,FL,NA,43.37979094076655,NA
33069,Broward County,FL,NA,60.97560975609756,NA
33076,Broward County,FL,NA,NA,59.25925925925925
33126,Miami-Dade County,FL,67.81045751633987,NA,NA
33130,Miami-Dade County,FL,NA,NA,57.098765432098766
33139,Miami-Dade County,FL,NA,80.66202090592334,NA
33144,Miami-Dade County,FL,NA,NA,16.049382716049383
33162,Miami-Dade County,FL,NA,58.18815331010453,NA
33180,Miami-Dade County,FL,NA,NA,15.74074074074074
33183,Miami-Dade County,FL,NA,71.25435540069687,NA
33187,Miami-Dade County,FL,NA,NA,70.06172839506173
33308,Broward County,FL,NA,13.414634146341465,NA
33314,Broward County,FL,NA,49.47735191637631,NA
33401,Palm Beach County,FL,NA,NA,60.49382716049383
33406,Palm Beach County,FL,91.83006535947712,NA,NA
33407,Palm Beach County,FL,NA,48.78048780487805,NA
33408,Palm Beach County,FL,NA,65.50522648083623,NA
33411,Palm Beach County,FL,NA,52.264808362369344,NA
33434,Palm Beach County,FL,85.13071895424837,NA,NA
33458,Palm Beach County,FL,NA,57.3170731707317,NA
33461,Palm Beach County,FL,NA,NA,81.79012345679013
33496,Palm Beach County,FL,NA,36.062717770034844,NA
33540,Pasco County,FL,88.56209150326796,NA,NA
33544,Pasco County,FL,NA,NA,93.51851851851852
33556,Hillsborough County,FL,72.38562091503267,NA,NA
33611,Hillsborough County,FL,NA,55.22648083623694,NA
33615,Hillsborough County,FL,29.08496732026144,NA,NA
33634,Hillsborough County,FL,67.3202614379085,NA,NA
33713,Pinellas County,FL,54.57516339869281,NA,NA
33825,Highlands County,FL,NA,NA,20.37037037037037
33881,Polk County,FL,38.0718954248366,NA,NA
33884,Polk County,FL,NA,74.91289198606272,NA
33901,Lee County,FL,53.59477124183007,NA,87.96296296296296
33908,Lee County,FL,NA,NA,8.950617283950617
33919,Lee County,FL,NA,11.32404181184669,NA
33948,Charlotte County,FL,NA,35.36585365853659,NA
33976,Lee County,FL,NA,NA,99.07407407407408
34135,Lee County,FL,NA,12.195121951219512,NA
34208,Manatee County,FL,NA,44.25087108013937,NA
34223,Sarasota County,FL,NA,NA,64.50617283950618
34229,Sarasota County,FL,NA,65.85365853658537,NA
34238,Sarasota County,FL,NA,NA,6.172839506172839
34243,Manatee County,FL,NA,20.38327526132404,NA
34288,Sarasota County,FL,NA,73.86759581881533,NA
34436,Citrus County,FL,NA,79.44250871080139,NA
34481,Marion County,FL,NA,NA,12.345679012345679
34491,Marion County,FL,NA,29.094076655052266,20.98765432098765
34711,Lake County,FL,22.385620915032682,NA,NA
34748,Lake County,FL,NA,8.710801393728223,NA
34759,Polk County,FL,NA,39.198606271777,NA
34947,St. Lucie County,FL,NA,NA,88.58024691358025
34950,St. Lucie County,FL,NA,44.94773519163763,NA
34957,Martin County,FL,NA,NA,18.51851851851852
34983,St. Lucie County,FL,22.058823529411764,NA,NA
34984,St. Lucie County,FL,NA,73.5191637630662,NA
30004,Fulton County,GA,41.33986928104575,NA,NA
30019,Gwinnett County,GA,NA,72.29965156794425,NA
30047,Gwinnett County,GA,NA,22.299651567944252,NA
30068,Cobb County,GA,NA,84.66898954703834,NA
30110,Haralson County,GA,NA,NA,58.0246913580247
30115,Cherokee County,GA,NA,34.84320557491289,63.580246913580254
30152,Cobb County,GA,56.5359477124183,NA,NA
30153,Polk County,GA,NA,45.99303135888502,NA
30161,Floyd County,GA,19.77124183006536,NA,NA
30188,Cherokee County,GA,55.88235294117647,NA,NA
30213,Fulton County,GA,NA,63.58885017421603,NA
30228,Henry County,GA,31.045751633986928,NA,NA
30308,Fulton County,GA,75,NA,NA
30319,DeKalb County,GA,NA,50.696864111498265,NA
30331,Fulton County,GA,18.30065359477124,NA,NA
30439,Candler County,GA,NA,78.74564459930313,NA
30467,Screven County,GA,NA,60.45296167247387,NA
30512,Union County,GA,NA,44.42508710801394,NA
30517,Jackson County,GA,93.79084967320262,NA,NA
30528,White County,GA,NA,NA,62.96296296296296
30533,Lumpkin County,GA,NA,41.289198606271775,NA
30540,Gilmer County,GA,NA,36.933797909407666,NA
30549,Jackson County,GA,46.24183006535948,NA,NA
30643,Hart County,GA,NA,46.68989547038328,NA
30646,Madison County,GA,NA,94.25087108013938,NA
30680,Barrow County,GA,21.405228758169933,NA,NA
30741,Walker County,GA,NA,15.33101045296167,NA
30906,Richmond County,GA,NA,4.70383275261324,NA
31217,Bibb County,GA,NA,44.94773519163763,NA
31510,Bacon County,GA,76.63398692810458,NA,NA
31822,Harris County,GA,97.22222222222221,96.16724738675958,NA
31903,Muscogee County,GA,NA,NA,60.18518518518518
31907,Muscogee County,GA,NA,1.7421602787456445,NA
96706,Honolulu County,HI,NA,10.104529616724738,NA
96768,Maui County,HI,88.39869281045752,NA,NA
96825,Honolulu County,HI,NA,5.2264808362369335,NA
83301,Twin Falls County,ID,NA,25.78397212543554,NA
83404,Bonneville County,ID,54.90196078431373,NA,53.086419753086425
83605,Canyon County,ID,NA,NA,39.81481481481482
83634,Ada County,ID,70.26143790849673,NA,NA
83642,Ada County,ID,48.529411764705884,NA,NA
83646,Ada County,ID,NA,NA,4.62962962962963
83703,Ada County,ID,NA,NA,50.617283950617285
83704,Ada County,ID,NA,NA,1.5432098765432098
83706,Ada County,ID,NA,NA,54.629629629629626
83835,Kootenai County,ID,NA,NA,44.75308641975309
83854,Kootenai County,ID,32.6797385620915,NA,NA
60010,Lake County,IL,69.44444444444444,NA,NA
60013,McHenry County,IL,NA,31.3588850174216,NA
60014,McHenry County,IL,NA,11.498257839721255,NA
60015,Lake County,IL,60.29411764705882,NA,NA
60051,McHenry County,IL,NA,NA,37.96296296296296
60053,Cook County,IL,NA,29.965156794425084,NA
60062,Cook County,IL,NA,NA,62.65432098765432
60068,Cook County,IL,NA,89.02439024390245,NA
60084,Lake County,IL,NA,66.02787456445994,NA
60091,Cook County,IL,NA,18.641114982578397,NA
60101,DuPage County,IL,NA,53.83275261324042,NA
60103,DuPage County,IL,28.921568627450984,93.03135888501743,NA
60108,DuPage County,IL,NA,60.801393728223,NA
60126,DuPage County,IL,57.02614379084967,NA,NA
60134,Kane County,IL,NA,NA,26.851851851851855
60140,Kane County,IL,NA,NA,89.19753086419753
60156,McHenry County,IL,NA,54.00696864111498,NA
60164,Cook County,IL,NA,72.99651567944251,NA
60178,DeKalb County,IL,89.54248366013073,43.55400696864111,NA
60404,Will County,IL,72.05882352941177,NA,NA
60419,Cook County,IL,NA,NA,54.93827160493827
60435,Will County,IL,11.76470588235294,NA,NA
60441,Will County,IL,NA,24.738675958188153,NA
60448,Will County,IL,56.209150326797385,NA,NA
60451,Will County,IL,NA,13.066202090592336,45.67901234567901
60491,Will County,IL,36.43790849673202,NA,NA
60504,DuPage County,IL,36.27450980392157,NA,NA
60505,Kane County,IL,32.02614379084967,NA,NA
60506,Kane County,IL,NA,21.777003484320556,NA
60510,Kane County,IL,NA,NA,97.8395061728395
60612,Cook County,IL,NA,NA,37.03703703703704
60622,Cook County,IL,68.95424836601308,NA,NA
60629,Cook County,IL,NA,2.7874564459930316,NA
60634,Cook County,IL,11.601307189542483,NA,7.716049382716049
60637,Cook County,IL,16.503267973856207,NA,NA
60641,Cook County,IL,14.215686274509803,NA,NA
60643,Cook County,IL,NA,68.46689895470384,NA
60656,Cook County,IL,NA,39.89547038327526,NA
60660,Cook County,IL,NA,13.588850174216027,NA
60914,Kankakee County,IL,33.49673202614379,NA,NA
60950,Kankakee County,IL,94.11764705882352,NA,NA
60957,Ford County,IL,NA,NA,97.53086419753086
60970,Iroquois County,IL,77.61437908496733,NA,NA
61061,Ogle County,IL,NA,72.99651567944251,NA
61065,Boone County,IL,NA,77.17770034843205,NA
61072,Winnebago County,IL,95.58823529411765,NA,NA
61108,Winnebago County,IL,NA,20.73170731707317,NA
61109,Winnebago County,IL,44.28104575163398,NA,NA
61241,Henry County,IL,NA,88.50174216027874,NA
61301,LaSalle County,IL,62.908496732026144,NA,NA
61727,De Witt County,IL,NA,71.602787456446,NA
61761,McLean County,IL,40.032679738562095,NA,NA
61801,Champaign County,IL,NA,77.52613240418118,NA
61820,Champaign County,IL,NA,NA,70.67901234567901
61920,Coles County,IL,NA,NA,42.901234567901234
61944,Edgar County,IL,NA,82.40418118466899,NA
62002,Madison County,IL,30.555555555555557,NA,NA
62040,Madison County,IL,21.241830065359476,NA,NA
62301,Adams County,IL,34.47712418300654,NA,NA
62439,Lawrence County,IL,NA,93.72822299651567,NA
62441,Clark County,IL,90.52287581699346,NA,NA
62832,Perry County,IL,NA,74.56445993031359,NA
62930,Saline County,IL,NA,NA,75.61728395061729
46011,Madison County,IN,NA,17.770034843205575,NA
46013,Madison County,IN,NA,14.982578397212542,NA
46033,Hamilton County,IN,85.45751633986927,NA,NA
46036,Madison County,IN,NA,51.045296167247386,NA
46072,Tipton County,IN,76.79738562091504,NA,NA
46112,Hendricks County,IN,NA,78.397212543554,NA
46163,Hancock County,IN,NA,NA,72.53086419753086
46217,Marion County,IN,NA,NA,41.9753086419753
46227,Marion County,IN,10.620915032679738,NA,26.543209876543212
46250,Marion County,IN,NA,63.06620209059234,NA
46307,Lake County,IN,2.287581699346405,NA,NA
46312,Lake County,IN,17.15686274509804,NA,NA
46356,Lake County,IN,NA,66.55052264808361,NA
46368,Porter County,IN,3.431372549019608,NA,NA
46385,Porter County,IN,8.169934640522875,NA,NA
46405,Lake County,IN,70.75163398692811,NA,NA
46407,Lake County,IN,46.40522875816993,NA,NA
46516,Elkhart County,IN,NA,35.01742160278746,NA
46544,St. Joseph County,IN,NA,50.87108013937283,NA
46574,St. Joseph County,IN,91.66666666666666,NA,NA
46628,St. Joseph County,IN,NA,NA,64.19753086419753
46637,St. Joseph County,IN,86.43790849673204,NA,NA
46703,Steuben County,IN,50.98039215686274,NA,NA
46714,Wells County,IN,NA,NA,68.51851851851852
46725,Whitley County,IN,NA,NA,32.407407407407405
46774,Allen County,IN,NA,38.501742160278745,NA
46806,Allen County,IN,NA,34.3205574912892,NA
46825,Allen County,IN,NA,24.21602787456446,NA
46835,Allen County,IN,33.006535947712415,37.45644599303136,NA
46901,Howard County,IN,NA,NA,6.481481481481481
47130,Clark County,IN,NA,4.181184668989547,NA
47172,Clark County,IN,NA,62.89198606271778,NA
47348,Blackford County,IN,NA,52.78745644599303,NA
47601,Warrick County,IN,NA,86.23693379790942,NA
47711,Vanderburgh County,IN,NA,23.34494773519164,NA
47713,Vanderburgh County,IN,63.56209150326797,NA,NA
47715,Vanderburgh County,IN,NA,NA,14.19753086419753
47960,White County,IN,93.4640522875817,NA,NA
50036,Boone County,IA,NA,NA,21.604938271604937
50213,Clarke County,IA,NA,81.18466898954703,NA
50219,Marion County,IA,86.76470588235294,NA,NA
50220,Dallas County,IA,NA,NA,86.72839506172839
50501,Webster County,IA,NA,32.22996515679443,NA
50703,Black Hawk County,IA,NA,28.04878048780488,NA
51104,Woodbury County,IA,NA,47.5609756097561,NA
51351,Dickinson County,IA,NA,76.65505226480836,NA
51503,Pottawattamie County,IA,NA,2.6132404181184667,NA
52002,Dubuque County,IA,NA,85.01742160278745,NA
52241,Johnson County,IA,NA,56.44599303135889,NA
52730,Clinton County,IA,NA,96.68989547038328,NA
52803,Scott County,IA,NA,NA,65.74074074074075
52806,Scott County,IA,NA,69.1637630662021,NA
52807,Scott County,IA,80.3921568627451,NA,NA
66104,Wyandotte County,KS,NA,NA,55.8641975308642
66212,Johnson County,KS,NA,12.89198606271777,NA
66221,Johnson County,KS,69.28104575163398,NA,NA
66607,Shawnee County,KS,NA,98.25783972125436,NA
67235,Sedgwick County,KS,NA,97.38675958188153,NA
67401,Saline County,KS,NA,17.59581881533101,NA
67502,Reno County,KS,NA,55.749128919860624,NA
67601,Ellis County,KS,NA,14.634146341463413,NA
67661,Phillips County,KS,NA,95.29616724738676,NA
40047,Bullitt County,KY,29.901960784313726,NA,NA
40203,Jefferson County,KY,NA,72.12543554006969,NA
40216,Jefferson County,KY,34.64052287581699,NA,NA
40229,Jefferson County,KY,12.745098039215685,NA,NA
40391,Clark County,KY,8.986928104575163,NA,NA
40403,Madison County,KY,22.54901960784314,NA,NA
40422,Boyle County,KY,75.81699346405229,NA,NA
40444,Garrard County,KY,59.64052287581699,NA,NA
40505,Fayette County,KY,24.019607843137255,NA,NA
40828,Harlan County,KY,NA,99.12891986062718,NA
40965,Bell County,KY,26.96078431372549,NA,NA
40977,Bell County,KY,53.92156862745098,NA,NA
41031,Harrison County,KY,NA,NA,58.64197530864198
41091,Boone County,KY,NA,NA,57.71604938271605
41230,Lawrence County,KY,NA,38.850174216027874,NA
41858,Letcher County,KY,57.84313725490197,NA,NA
42103,Warren County,KY,NA,82.75261324041811,NA
42141,Barren County,KY,61.111111111111114,7.8397212543554,NA
42276,Logan County,KY,NA,NA,55.24691358024691
42320,Ohio County,KY,NA,NA,77.46913580246914
42431,Hopkins County,KY,23.202614379084967,NA,NA
42442,Hopkins County,KY,97.7124183006536,NA,NA
42445,Caldwell County,KY,NA,NA,90.12345679012346
42718,Taylor County,KY,13.071895424836603,NA,NA
70002,Jefferson Parish,LA,46.07843137254902,NA,NA
70092,St. Bernard Parish,LA,NA,90.41811846689896,NA
70123,Jefferson Parish,LA,18.790849673202615,NA,NA
70125,Orleans Parish,LA,NA,NA,83.0246913580247
70127,Orleans Parish,LA,NA,27.177700348432055,NA
70128,Orleans Parish,LA,NA,28.57142857142857,NA
70364,Terrebonne Parish,LA,NA,NA,48.148148148148145
70380,St. Mary Parish,LA,NA,NA,71.29629629629629
70458,St. Tammany Parish,LA,NA,1.9163763066202089,NA
70503,Lafayette Parish,LA,NA,21.254355400696863,NA
70506,Lafayette Parish,LA,5.555555555555555,NA,NA
70507,Lafayette Parish,LA,NA,43.20557491289199,NA
70769,Ascension Parish,LA,NA,70.73170731707317,NA
70814,East Baton Rouge Parish,LA,66.99346405228758,NA,NA
71055,Webster Parish,LA,17.81045751633987,NA,NA
71103,Caddo Parish,LA,NA,NA,92.5925925925926
71106,Caddo Parish,LA,6.372549019607843,NA,NA
71109,Caddo Parish,LA,6.699346405228758,NA,NA
71201,Ouachita Parish,LA,NA,77.00348432055749,NA
71203,Ouachita Parish,LA,NA,19.51219512195122,NA
71360,Rapides Parish,LA,NA,60.278745644599304,28.703703703703702
04038,Cumberland County,ME,NA,95.99303135888502,NA
04090,York County,ME,NA,NA,69.75308641975309
04093,York County,ME,NA,89.54703832752612,NA
04281,Oxford County,ME,95.09803921568627,NA,NA
04350,Kennebec County,ME,NA,87.97909407665504,NA
20657,Calvert County,MD,NA,98.78048780487805,NA
20735,Prince George's County,MD,58.496732026143796,NA,NA
20815,Montgomery County,MD,NA,74.73867595818815,NA
20817,Montgomery County,MD,NA,NA,94.1358024691358
20850,Montgomery County,MD,NA,89.19860627177701,NA
20851,Montgomery County,MD,92.3202614379085,NA,NA
20853,Montgomery County,MD,NA,NA,55.55555555555556
20854,Montgomery County,MD,63.56209150326797,30.48780487804878,NA
20904,Montgomery County,MD,59.150326797385624,44.77351916376306,NA
20910,Montgomery County,MD,58.98692810457516,NA,NA
21032,Anne Arundel County,MD,92.48366013071896,NA,NA
21040,Harford County,MD,59.80392156862745,NA,NA
21046,Howard County,MD,NA,92.6829268292683,NA
21060,Anne Arundel County,MD,NA,NA,42.592592592592595
21104,Carroll County,MD,98.20261437908496,NA,NA
21146,Anne Arundel County,MD,68.62745098039215,NA,NA
21228,Baltimore County,MD,NA,62.36933797909408,NA
21550,Garrett County,MD,NA,NA,18.209876543209877
21703,Frederick County,MD,61.274509803921575,NA,NA
21771,Frederick County,MD,64.37908496732027,NA,NA
21797,Howard County,MD,99.67320261437908,NA,NA
21919,Cecil County,MD,NA,99.30313588850174,NA
21921,Cecil County,MD,NA,NA,83.33333333333334
01108,Hampden County,MA,NA,4.355400696864112,NA
01119,Hampden County,MA,NA,NA,54.01234567901234
01220,Berkshire County,MA,NA,85.54006968641114,NA
01331,Worcester County,MA,NA,29.268292682926827,NA
01430,Worcester County,MA,NA,NA,98.76543209876543
01432,Middlesex County,MA,NA,70.38327526132404,NA
01604,Worcester County,MA,NA,0.8710801393728222,NA
01606,Worcester County,MA,NA,NA,43.51851851851852
01742,Middlesex County,MA,NA,NA,29.938271604938272
01754,Middlesex County,MA,NA,49.30313588850174,NA
01760,Middlesex County,MA,11.437908496732026,NA,NA
01776,Middlesex County,MA,41.66666666666667,NA,NA
01803,Middlesex County,MA,NA,3.3101045296167246,NA
01810,Essex County,MA,14.052287581699346,NA,NA
01852,Middlesex County,MA,NA,0.5226480836236934,NA
01876,Middlesex County,MA,29.73856209150327,NA,NA
01880,Middlesex County,MA,7.026143790849673,NA,NA
01902,Essex County,MA,NA,0.17421602787456447,NA
01944,Essex County,MA,94.93464052287581,NA,NA
01983,Essex County,MA,NA,NA,95.37037037037037
01985,Essex County,MA,NA,85.36585365853658,NA
02045,Plymouth County,MA,79.90196078431373,NA,NA
02062,Norfolk County,MA,42.3202614379085,NA,NA
02072,Norfolk County,MA,9.15032679738562,NA,NA
02115,Suffolk County,MA,NA,NA,3.7037037037037033
02122,Suffolk County,MA,1.4705882352941175,NA,NA
02124,Suffolk County,MA,0.6535947712418301,NA,NA
02125,Suffolk County,MA,0.16339869281045752,NA,NA
02129,Suffolk County,MA,3.9215686274509802,NA,NA
02136,Suffolk County,MA,NA,3.8327526132404177,NA
02144,Middlesex County,MA,20.751633986928105,NA,NA
02148,Middlesex County,MA,NA,NA,23.456790123456788
02149,Middlesex County,MA,0,NA,NA
02150,Suffolk County,MA,0.32679738562091504,NA,NA
02152,Suffolk County,MA,NA,6.620209059233449,NA
02189,Norfolk County,MA,NA,54.35540069686411,NA
02190,Norfolk County,MA,28.594771241830063,NA,NA
02346,Plymouth County,MA,NA,9.75609756097561,NA
02359,Plymouth County,MA,NA,57.66550522648084,NA
02375,Bristol County,MA,55.71895424836602,NA,NA
02421,Middlesex County,MA,NA,NA,46.60493827160494
02445,Norfolk County,MA,NA,NA,79.32098765432099
02476,Middlesex County,MA,NA,59.756097560975604,NA
02540,Barnstable County,MA,NA,NA,35.18518518518518
02649,Barnstable County,MA,NA,22.99651567944251,NA
02673,Barnstable County,MA,NA,NA,50.308641975308646
02723,Bristol County,MA,NA,2.4390243902439024,NA
02738,Plymouth County,MA,NA,87.63066202090593,NA
02779,Bristol County,MA,81.5359477124183,NA,NA
02790,Bristol County,MA,21.895424836601308,NA,NA
48021,Macomb County,MI,NA,14.45993031358885,NA
48036,Macomb County,MI,28.75816993464052,NA,NA
48038,Macomb County,MI,NA,3.6585365853658534,4.012345679012346
48047,Macomb County,MI,14.705882352941178,78.57142857142857,NA
48060,St. Clair County,MI,3.758169934640523,NA,NA
48067,Oakland County,MI,36.9281045751634,NA,NA
48070,Oakland County,MI,98.36601307189542,NA,NA
48080,Macomb County,MI,35.62091503267974,NA,NA
48085,Oakland County,MI,30.718954248366014,25.261324041811843,NA
48089,Macomb County,MI,8.660130718954248,NA,NA
48092,Macomb County,MI,NA,18.29268292682927,NA
48098,Oakland County,MI,83.98692810457517,NA,NA
48103,Washtenaw County,MI,15.849673202614378,NA,NA
48108,Washtenaw County,MI,NA,95.47038327526133,NA
48124,Wayne County,MI,20.424836601307188,NA,NA
48126,Wayne County,MI,NA,85.71428571428571,NA
48140,Monroe County,MI,NA,99.65156794425087,NA
48150,Wayne County,MI,NA,52.4390243902439,47.22222222222222
48162,Monroe County,MI,NA,18.989547038327526,NA
48164,Wayne County,MI,NA,97.5609756097561,NA
48167,Oakland County,MI,NA,22.473867595818817,NA
48169,Livingston County,MI,NA,63.76306620209059,NA
48170,Wayne County,MI,14.869281045751634,NA,2.7777777777777777
48180,Wayne County,MI,NA,59.93031358885017,NA
48182,Monroe County,MI,84.80392156862744,NA,NA
48184,Wayne County,MI,16.830065359477125,57.491289198606275,NA
48188,Wayne County,MI,NA,NA,37.65432098765432
48207,Wayne County,MI,NA,31.53310104529617,NA
48208,Wayne County,MI,NA,NA,85.80246913580247
48210,Wayne County,MI,25.49019607843137,NA,NA
48215,Wayne County,MI,NA,46.16724738675958,NA
48219,Wayne County,MI,NA,16.550522648083625,NA
48221,Wayne County,MI,5.065359477124183,NA,NA
48227,Wayne County,MI,NA,6.794425087108014,NA
48229,Wayne County,MI,NA,69.68641114982579,NA
48235,Wayne County,MI,2.7777777777777777,NA,NA
48301,Oakland County,MI,NA,NA,46.2962962962963
48307,Oakland County,MI,49.34640522875817,NA,NA
48314,Macomb County,MI,NA,NA,91.0493827160494
48316,Macomb County,MI,39.54248366013072,NA,NA
48331,Oakland County,MI,NA,17.421602787456447,NA
48334,Oakland County,MI,55.06535947712419,NA,NA
48371,Oakland County,MI,37.091503267973856,NA,NA
48375,Oakland County,MI,77.77777777777779,NA,NA
48386,Oakland County,MI,NA,37.63066202090592,NA
48393,Oakland County,MI,74.83660130718954,82.92682926829268,NA
48420,Genesee County,MI,NA,NA,45.370370370370374
48461,Lapeer County,MI,68.4640522875817,NA,NA
48471,Sanilac County,MI,NA,NA,62.34567901234568
48640,Midland County,MI,NA,NA,5.246913580246913
48661,Ogemaw County,MI,81.04575163398692,NA,NA
48708,Bay County,MI,31.699346405228756,NA,NA
48732,Bay County,MI,52.614379084967325,NA,NA
48744,Tuscola County,MI,87.41830065359477,NA,NA
48858,Isabella County,MI,NA,5.052264808362369,NA
48906,Ingham County,MI,NA,44.599303135888505,NA
48917,Eaton County,MI,NA,NA,10.802469135802468
49006,Kalamazoo County,MI,NA,60.10452961672473,NA
49009,Kalamazoo County,MI,NA,7.491289198606271,13.580246913580247
49012,Kalamazoo County,MI,97.54901960784314,NA,NA
49022,Berrien County,MI,NA,NA,19.1358024691358
49024,Kalamazoo County,MI,26.633986928104576,NA,NA
49083,Kalamazoo County,MI,84.9673202614379,NA,NA
49091,St. Joseph County,MI,NA,32.752613240418114,NA
49093,St. Joseph County,MI,NA,NA,36.11111111111111
49201,Jackson County,MI,NA,3.484320557491289,NA
49301,Kent County,MI,NA,NA,91.9753086419753
49316,Kent County,MI,NA,76.82926829268293,58.333333333333336
49331,Kent County,MI,49.673202614379086,37.97909407665505,NA
49431,Mason County,MI,NA,76.4808362369338,22.839506172839506
49444,Muskegon County,MI,10.457516339869281,NA,NA
49445,Muskegon County,MI,NA,16.898954703832754,NA
49504,Kent County,MI,NA,NA,8.333333333333332
49546,Kent County,MI,NA,NA,13.271604938271606
49548,Kent County,MI,70.42483660130719,NA,NA
49646,Kalkaska County,MI,52.28758169934641,NA,NA
49685,Grand Traverse County,MI,51.9607843137255,NA,NA
49696,Grand Traverse County,MI,74.67320261437908,NA,NA
49738,Crawford County,MI,97.05882352941177,NA,NA
49770,Emmet County,MI,NA,45.64459930313589,NA
49783,Chippewa County,MI,79.57516339869281,NA,NA
49801,Dickinson County,MI,63.39869281045751,NA,NA
49849,Marquette County,MI,NA,48.43205574912892,NA
49920,Iron County,MI,NA,55.052264808362374,NA
55346,Hennepin County,MN,NA,NA,73.4567901234568
55350,McLeod County,MN,NA,NA,17.28395061728395
55355,Meeker County,MN,NA,73.34494773519164,NA
55372,Scott County,MN,84.640522875817,NA,NA
55379,Scott County,MN,NA,40.243902439024396,NA
55404,Hennepin County,MN,NA,1.5679442508710801,NA
55413,Hennepin County,MN,NA,42.33449477351917,NA
55792,St. Louis County,MN,NA,26.82926829268293,NA
56304,Sherburne County,MN,NA,NA,74.69135802469135
56347,Todd County,MN,82.84313725490196,NA,NA
56378,Stearns County,MN,NA,78.9198606271777,NA
56501,Becker County,MN,NA,22.64808362369338,NA
56537,Otter Tail County,MN,49.18300653594771,NA,NA
56601,Beltrami County,MN,27.450980392156865,NA,31.17283950617284
56633,Hubbard County,MN,NA,NA,76.5432098765432
38654,DeSoto County,MS,NA,18.466898954703833,NA
38901,Grenada County,MS,NA,63.937282229965156,NA
39066,Hinds County,MS,NA,100,NA
39090,Attala County,MS,NA,NA,72.22222222222221
39191,Copiah County,MS,NA,83.10104529616724,NA
39208,Rankin County,MS,NA,49.12891986062718,NA
39365,Neshoba County,MS,NA,72.82229965156795,NA
39401,Forrest County,MS,NA,NA,31.48148148148148
39429,Marion County,MS,NA,64.11149825783971,NA
39452,George County,MS,25.98039215686275,NA,NA
39503,Harrison County,MS,NA,20.209059233449477,NA
39560,Harrison County,MS,NA,NA,15.432098765432098
39666,Pike County,MS,NA,NA,84.25925925925925
39667,Walthall County,MS,NA,NA,47.53086419753087
39773,Clay County,MS,66.33986928104575,NA,NA
63077,Franklin County,MO,NA,69.51219512195121,NA
63090,Franklin County,MO,74.18300653594771,NA,NA
63105,St. Louis County,MO,NA,80.31358885017421,NA
63108,St. Louis city,MO,NA,94.77351916376307,NA
63111,St. Louis city,MO,NA,94.07665505226481,NA
63114,St. Louis County,MO,NA,26.65505226480836,39.50617283950617
63116,St. Louis city,MO,NA,NA,52.160493827160494
63135,St. Louis County,MO,30.88235294117647,NA,NA
63138,St. Louis County,MO,NA,44.076655052264805,NA
63301,St. Charles County,MO,14.54248366013072,NA,NA
63376,St. Charles County,MO,NA,NA,4.320987654320987
63834,Mississippi County,MO,85.29411764705883,NA,NA
63901,Butler County,MO,NA,NA,37.34567901234568
64015,Jackson County,MO,13.725490196078432,NA,NA
64062,Ray County,MO,82.6797385620915,NA,NA
64093,Johnson County,MO,67.48366013071896,NA,NA
64118,Clay County,MO,5.228758169934641,6.445993031358885,NA
64119,Clay County,MO,37.745098039215684,NA,NA
64127,Jackson County,MO,44.6078431372549,NA,NA
64154,Platte County,MO,90.359477124183,NA,NA
64155,Clay County,MO,23.366013071895424,NA,NA
64506,Buchanan County,MO,NA,NA,16.666666666666664
65301,Pettis County,MO,NA,NA,30.555555555555557
65401,Phelps County,MO,37.908496732026144,NA,NA
65548,Howell County,MO,NA,98.60627177700349,NA
65706,Webster County,MO,NA,65.33101045296166,NA
65781,Greene County,MO,NA,97.21254355400697,NA
59101,Yellowstone County,MT,NA,NA,13.88888888888889
59404,Cascade County,MT,NA,NA,12.962962962962962
68104,Douglas County,NE,25.653594771241828,NA,NA
68132,Douglas County,NE,NA,NA,94.44444444444444
68845,Buffalo County,NE,83.82352941176471,NA,NA
69001,Red Willow County,NE,NA,NA,49.074074074074076
69101,Lincoln County,NE,23.856209150326798,NA,NA
89101,Clark County,NV,NA,61.846689895470384,NA
89107,Clark County,NV,51.143790849673195,NA,NA
89121,Clark County,NV,NA,NA,34.25925925925926
89129,Clark County,NV,47.385620915032675,NA,NA
89134,Clark County,NV,80.22875816993465,NA,NA
89408,Lyon County,NV,NA,32.40418118466899,NA
89431,Washoe County,NV,NA,NA,25.617283950617285
89509,Washoe County,NV,49.50980392156863,NA,NA
89523,Washoe County,NV,52.94117647058824,NA,NA
03042,Rockingham County,NH,78.26797385620915,NA,NA
03053,Rockingham County,NH,NA,19.16376306620209,NA
03063,Hillsborough County,NH,42.15686274509804,NA,NA
03064,Hillsborough County,NH,NA,42.508710801393725,NA
03077,Rockingham County,NH,NA,NA,90.4320987654321
07002,Hudson County,NJ,1.3071895424836601,33.79790940766551,NA
07016,Union County,NJ,86.11111111111111,NA,NA
07043,Essex County,NJ,88.88888888888889,NA,NA
07065,Union County,NJ,NA,30.313588850174217,NA
07083,Union County,NJ,16.99346405228758,NA,NA
07104,Essex County,NJ,0.8169934640522877,NA,NA
07106,Essex County,NJ,NA,NA,41.04938271604938
07111,Essex County,NJ,1.1437908496732025,NA,20.061728395061728
07307,Hudson County,NJ,12.091503267973856,NA,NA
07604,Bergen County,NJ,NA,84.8432055749129,NA
07726,Monmouth County,NJ,NA,NA,32.71604938271605
07731,Monmouth County,NJ,NA,35.54006968641115,NA
07828,Morris County,NJ,95.26143790849673,NA,NA
07834,Morris County,NJ,NA,70.90592334494772,NA
07885,Morris County,NJ,80.88235294117648,NA,NA
08003,Camden County,NJ,59.31372549019608,NA,NA
08053,Burlington County,NJ,NA,21.0801393728223,NA
08070,Salem County,NJ,NA,NA,71.91358024691358
08075,Burlington County,NJ,NA,25.958188153310104,NA
08081,Camden County,NJ,NA,31.881533101045296,NA
08107,Camden County,NJ,NA,55.400696864111495,NA
08205,Atlantic County,NJ,NA,18.118466898954704,NA
08210,Cape May County,NJ,38.0718954248366,NA,NA
08234,Atlantic County,NJ,NA,10.801393728222997,NA
08361,Cumberland County,NJ,36.76470588235294,NA,NA
08401,Atlantic County,NJ,51.79738562091504,NA,NA
08530,Hunterdon County,NJ,94.44444444444444,NA,NA
08611,Mercer County,NJ,NA,NA,100
08724,Ocean County,NJ,NA,NA,68.20987654320987
08801,Hunterdon County,NJ,NA,NA,74.38271604938271
08820,Middlesex County,NJ,44.93464052287582,NA,NA
08844,Somerset County,NJ,NA,53.65853658536586,NA
87035,Torrance County,NM,96.56862745098039,NA,NA
87045,McKinley County,NM,98.69281045751634,NA,NA
87105,Bernalillo County,NM,NA,NA,17.901234567901234
87110,Bernalillo County,NM,NA,NA,10.493827160493826
87401,San Juan County,NM,17.320261437908496,NA,NA
87505,Santa Fe County,NM,24.183006535947712,NA,NA
88001,Doa Ana County,NM,NA,24.56445993031359,NA
88260,Lea County,NM,NA,35.714285714285715,NA
88310,Otero County,NM,87.09150326797386,NA,NA
10014,New York County,NY,NA,49.825783972125436,NA
10021,New York County,NY,NA,21.602787456445995,NA
10024,New York County,NY,52.77777777777778,NA,NA
10029,New York County,NY,NA,NA,0.30864197530864196
10034,New York County,NY,NA,67.94425087108013,NA
10314,Richmond County,NY,NA,NA,5.555555555555555
10452,Bronx County,NY,NA,6.968641114982578,NA
10453,Bronx County,NY,NA,7.142857142857142,16.666666666666664
10454,Bronx County,NY,NA,4.878048780487805,NA
10458,Bronx County,NY,4.57516339869281,NA,NA
10460,Bronx County,NY,2.1241830065359477,NA,NA
10467,Bronx County,NY,NA,0,NA
10567,Westchester County,NY,NA,79.09407665505228,NA
10801,Westchester County,NY,78.92156862745098,NA,NA
10952,Rockland County,NY,NA,84.3205574912892,NA
11206,Kings County,NY,3.104575163398693,NA,NA
11207,Kings County,NY,0.49019607843137253,NA,NA
11214,Kings County,NY,NA,60.62717770034843,NA
11217,Kings County,NY,70.09803921568627,92.1602787456446,NA
11235,Kings County,NY,NA,11.846689895470384,NA
11355,Queens County,NY,60.94771241830066,NA,NA
11367,Queens County,NY,45.588235294117645,NA,NA
11370,Queens County,NY,NA,61.32404181184668,NA
11374,Queens County,NY,NA,20.557491289198605,NA
11416,Queens County,NY,86.9281045751634,NA,NA
11423,Queens County,NY,50.49019607843137,NA,NA
11435,Queens County,NY,NA,NA,28.08641975308642
11542,Nassau County,NY,NA,NA,38.58024691358025
11694,Queens County,NY,NA,82.22996515679442,NA
11709,Nassau County,NY,NA,NA,95.67901234567901
11717,Suffolk County,NY,18.954248366013072,NA,NA
11727,Suffolk County,NY,NA,NA,85.49382716049382
11741,Suffolk County,NY,70.91503267973856,NA,NA
11753,Nassau County,NY,NA,NA,99.69135802469135
11757,Suffolk County,NY,NA,NA,26.234567901234566
12043,Schoharie County,NY,NA,NA,63.27160493827161
12065,Saratoga County,NY,23.692810457516337,47.21254355400697,NA
12095,Fulton County,NY,42.48366013071895,NA,NA
12110,Albany County,NY,NA,NA,45.98765432098765
12148,Saratoga County,NY,NA,94.5993031358885,NA
12159,Albany County,NY,NA,NA,69.1358024691358
12306,Schenectady County,NY,NA,66.37630662020906,NA
12590,Dutchess County,NY,53.26797385620915,NA,NA
12804,Warren County,NY,65.19607843137256,NA,NA
12866,Saratoga County,NY,15.032679738562091,NA,40.4320987654321
12901,Clinton County,NY,48.20261437908497,NA,NA
13045,Cortland County,NY,NA,58.01393728222997,NA
13052,Madison County,NY,95.91503267973856,NA,NA
13090,Onondaga County,NY,45.91503267973856,NA,NA
13101,Cortland County,NY,98.52941176470588,NA,NA
13104,Onondaga County,NY,51.307189542483655,NA,NA
13108,Onondaga County,NY,NA,88.32752613240417,NA
13210,Onondaga County,NY,NA,96.86411149825784,NA
13316,Oneida County,NY,63.23529411764706,NA,NA
13403,Oneida County,NY,NA,69.86062717770035,NA
13478,Oneida County,NY,92.81045751633987,NA,NA
13662,St. Lawrence County,NY,31.209150326797385,NA,NA
13733,Chenango County,NY,NA,NA,79.01234567901234
13746,Broome County,NY,NA,89.37282229965156,NA
13760,Broome County,NY,0.9803921568627451,14.285714285714285,NA
13778,Chenango County,NY,NA,NA,66.35802469135803
13790,Broome County,NY,55.22875816993464,NA,NA
13812,Tioga County,NY,NA,98.25783972125436,NA
13827,Tioga County,NY,55.55555555555556,NA,NA
13833,Broome County,NY,71.89542483660131,NA,NA
13850,Broome County,NY,45.26143790849673,NA,3.3950617283950617
13856,Delaware County,NY,NA,32.05574912891986,NA
13901,Broome County,NY,4.411764705882353,2.0905923344947737,11.728395061728394
13905,Broome County,NY,1.9607843137254901,25.087108013937282,NA
14051,Erie County,NY,NA,NA,93.20987654320987
14094,Niagara County,NY,2.6143790849673203,NA,NA
14103,Orleans County,NY,NA,87.8048780487805,NA
14216,Erie County,NY,28.431372549019606,NA,NA
14218,Erie County,NY,NA,NA,49.382716049382715
14224,Erie County,NY,5.392156862745098,NA,NA
14432,Ontario County,NY,35.62091503267974,45.29616724738676,NA
14456,Ontario County,NY,7.6797385620915035,NA,NA
14526,Monroe County,NY,16.33986928104575,NA,NA
14527,Yates County,NY,26.797385620915033,NA,NA
14534,Monroe County,NY,6.535947712418301,NA,NA
14580,Monroe County,NY,NA,NA,1.2345679012345678
14608,Monroe County,NY,13.23529411764706,NA,NA
14612,Monroe County,NY,NA,0.6968641114982579,NA
14617,Monroe County,NY,6.209150326797386,NA,NA
14621,Monroe County,NY,NA,14.80836236933798,NA
14622,Monroe County,NY,NA,NA,62.03703703703704
14701,Chautauqua County,NY,33.82352941176471,NA,NA
14711,Allegany County,NY,NA,98.95470383275261,NA
14760,Cattaraugus County,NY,10.784313725490197,NA,NA
14823,Steuben County,NY,NA,82.05574912891987,NA
14845,Chemung County,NY,NA,24.041811846689896,NA
27055,Yadkin County,NC,NA,75.78397212543554,NA
27105,Forsyth County,NC,2.941176470588235,NA,NA
27215,Alamance County,NC,10.947712418300654,NA,NA
27253,Alamance County,NC,65.52287581699346,NA,30.246913580246915
27265,Guilford County,NC,20.26143790849673,NA,NA
27284,Forsyth County,NC,NA,NA,3.0864197530864197
27330,Lee County,NC,NA,19.686411149825783,NA
27344,Chatham County,NC,47.22222222222222,NA,NA
27405,Guilford County,NC,11.928104575163399,NA,NA
27513,Wake County,NC,NA,90.06968641114983,NA
27516,Orange County,NC,78.10457516339869,NA,NA
27529,Wake County,NC,24.836601307189543,NA,NA
27534,Wayne County,NC,NA,NA,29.32098765432099
27592,Wake County,NC,NA,NA,74.07407407407408
27610,Wake County,NC,7.352941176470589,NA,NA
27616,Wake County,NC,NA,83.97212543554006,NA
27703,Durham County,NC,37.58169934640523,NA,NA
27707,Durham County,NC,NA,53.484320557491294,NA
27804,Nash County,NC,33.98692810457516,NA,NA
27889,Beaufort County,NC,64.2156862745098,NA,NA
27983,Bertie County,NC,NA,NA,39.19753086419753
28023,Rowan County,NC,67.64705882352942,NA,NA
28052,Gaston County,NC,NA,22.125435540069684,NA
28115,Iredell County,NC,21.73202614379085,NA,NA
28207,Mecklenburg County,NC,NA,NA,77.1604938271605
28212,Mecklenburg County,NC,25,NA,NA
28214,Mecklenburg County,NC,29.248366013071898,NA,NA
28301,Cumberland County,NC,37.254901960784316,NA,NA
28334,Sampson County,NC,27.941176470588236,NA,NA
28348,Cumberland County,NC,NA,71.42857142857143,NA
28352,Scotland County,NC,NA,NA,51.85185185185185
28376,Hoke County,NC,85.62091503267973,NA,NA
28387,Moore County,NC,NA,77.35191637630662,NA
28405,New Hanover County,NC,NA,27.700348432055748,NA
28409,New Hanover County,NC,39.37908496732026,NA,NA
28516,Carteret County,NC,NA,52.613240418118465,NA
28601,Catawba County,NC,41.993464052287585,NA,NA
28630,Caldwell County,NC,NA,36.23693379790941,NA
28645,Caldwell County,NC,20.588235294117645,5.7491289198606275,NA
28658,Catawba County,NC,NA,NA,47.53086419753087
28690,Burke County,NC,53.75816993464052,NA,NA
28713,Swain County,NC,NA,56.79442508710801,NA
28734,Macon County,NC,NA,7.317073170731707,NA
28785,Haywood County,NC,NA,64.63414634146342,NA
28904,Clay County,NC,NA,NA,49.691358024691354
58401,Stutsman County,ND,69.93464052287581,NA,NA
43050,Knox County,OH,7.8431372549019605,2.264808362369338,NA
43055,Licking County,OH,1.6339869281045754,NA,NA
43080,Licking County,OH,NA,89.89547038327527,NA
43103,Pickaway County,OH,72.38562091503267,NA,NA
43140,Madison County,OH,NA,28.9198606271777,NA
43204,Franklin County,OH,NA,10.452961672473867,NA
43207,Franklin County,OH,1.7973856209150325,NA,NA
43212,Franklin County,OH,NA,NA,63.888888888888886
43214,Franklin County,OH,47.875816993464056,NA,NA
43220,Franklin County,OH,NA,45.47038327526132,NA
43229,Franklin County,OH,6.045751633986928,33.44947735191638,NA
43230,Franklin County,OH,NA,NA,22.22222222222222
43235,Franklin County,OH,43.13725490196079,NA,NA
43420,Sandusky County,OH,11.27450980392157,NA,NA
43452,Ottawa County,OH,NA,65.6794425087108,NA
43526,Defiance County,OH,44.44444444444444,NA,NA
43615,Lucas County,OH,NA,2.961672473867596,NA
43616,Lucas County,OH,13.562091503267974,37.80487804878049,NA
43713,Belmont County,OH,NA,NA,67.90123456790124
43725,Guernsey County,OH,15.686274509803921,NA,NA
43762,Muskingum County,OH,91.50326797385621,NA,NA
43812,Coshocton County,OH,NA,6.097560975609756,NA
43907,Harrison County,OH,73.20261437908496,NA,NA
43912,Belmont County,OH,53.10457516339869,NA,NA
43920,Columbiana County,OH,9.967320261437909,NA,NA
43938,Jefferson County,OH,NA,98.08362369337979,NA
43947,Belmont County,OH,74.34640522875817,NA,NA
43950,Belmont County,OH,NA,12.369337979094077,NA
44011,Lorain County,OH,NA,NA,9.5679012345679
44022,Cuyahoga County,OH,NA,23.693379790940767,NA
44039,Lorain County,OH,31.862745098039213,1.2195121951219512,NA
44060,Lake County,OH,NA,NA,0
44070,Cuyahoga County,OH,NA,26.306620209059233,NA
44087,Summit County,OH,40.849673202614376,NA,NA
44094,Lake County,OH,NA,NA,0.9259259259259258
44095,Lake County,OH,NA,8.536585365853659,NA
44103,Cuyahoga County,OH,9.640522875816995,NA,NA
44105,Cuyahoga County,OH,44.771241830065364,NA,NA
44106,Cuyahoga County,OH,NA,11.149825783972126,NA
44109,Cuyahoga County,OH,NA,12.717770034843207,NA
44112,Cuyahoga County,OH,NA,3.1358885017421603,NA
44134,Cuyahoga County,OH,8.49673202614379,NA,NA
44146,Cuyahoga County,OH,NA,NA,5.864197530864197
44212,Medina County,OH,NA,NA,2.1604938271604937
44223,Summit County,OH,45.751633986928105,NA,NA
44236,Summit County,OH,88.72549019607843,90.94076655052264,NA
44240,Portage County,OH,NA,16.02787456445993,NA
44281,Medina County,OH,NA,10.627177700348431,NA
44470,Trumbull County,OH,99.01960784313727,NA,NA
44483,Trumbull County,OH,NA,9.930313588850174,NA
44512,Mahoning County,OH,NA,41.46341463414634,NA
44685,Summit County,OH,NA,NA,25.925925925925924
44720,Stark County,OH,NA,15.156794425087108,NA
44820,Crawford County,OH,NA,NA,24.074074074074073
44870,Erie County,OH,2.450980392156863,78.22299651567944,NA
44906,Richland County,OH,NA,41.11498257839721,NA
45005,Warren County,OH,9.477124183006536,NA,NA
45011,Butler County,OH,NA,87.97909407665504,NA
45014,Butler County,OH,NA,NA,19.444444444444446
45069,Butler County,OH,22.54901960784314,NA,NA
45206,Hamilton County,OH,53.92156862745098,NA,NA
45214,Hamilton County,OH,47.549019607843135,NA,NA
45231,Hamilton County,OH,NA,NA,12.037037037037036
45244,Hamilton County,OH,NA,40.94076655052265,NA
45246,Hamilton County,OH,73.0392156862745,NA,NA
45305,Greene County,OH,71.07843137254902,NA,NA
45324,Greene County,OH,10.294117647058822,NA,NA
45331,Darke County,OH,26.143790849673206,NA,NA
45368,Clark County,OH,96.24183006535948,NA,NA
45385,Greene County,OH,NA,7.665505226480835,NA
45406,Montgomery County,OH,16.013071895424837,NA,NA
45415,Montgomery County,OH,NA,55.400696864111495,NA
45417,Montgomery County,OH,NA,13.240418118466899,NA
45440,Montgomery County,OH,60.78431372549019,NA,NA
45614,Gallia County,OH,NA,96.51567944250871,NA
45619,Lawrence County,OH,NA,50.34843205574913,NA
45669,Lawrence County,OH,NA,15.853658536585366,NA
45686,Gallia County,OH,83.49673202614379,NA,NA
45690,Pike County,OH,NA,NA,25
45801,Allen County,OH,12.418300653594772,NA,NA
45806,Allen County,OH,62.58169934640523,NA,NA
45840,Hancock County,OH,NA,36.41114982578397,NA
45843,Hardin County,OH,98.8562091503268,NA,NA
73065,McClain County,OK,87.25490196078431,NA,NA
73071,Cleveland County,OK,56.69934640522876,NA,NA
73110,Oklahoma County,OK,18.627450980392158,NA,NA
73112,Oklahoma County,OK,NA,NA,52.77777777777778
73139,Oklahoma County,OK,54.738562091503276,NA,NA
73505,Comanche County,OK,22.875816993464053,NA,NA
73507,Comanche County,OK,43.30065359477124,NA,NA
73703,Garfield County,OK,NA,13.937282229965156,NA
74011,Tulsa County,OK,NA,40.069686411149824,NA
74012,Tulsa County,OK,NA,NA,8.641975308641975
74014,Wagoner County,OK,36.11111111111111,NA,NA
74020,Pawnee County,OK,NA,79.96515679442508,NA
74033,Tulsa County,OK,NA,88.85017421602788,NA
74066,Creek County,OK,NA,NA,79.62962962962963
74601,Kay County,OK,NA,NA,69.44444444444444
74960,Adair County,OK,26.307189542483663,NA,NA
97078,Washington County,OR,NA,NA,82.4074074074074
97128,Yamhill County,OR,NA,24.390243902439025,NA
97203,Multnomah County,OR,39.54248366013072,NA,NA
97211,Multnomah County,OR,NA,48.606271777003485,NA
97220,Multnomah County,OR,NA,26.82926829268293,NA
97301,Marion County,OR,NA,19.860627177700348,NA
97305,Marion County,OR,91.01307189542483,NA,NA
97361,Polk County,OR,99.83660130718954,NA,NA
97367,Lincoln County,OR,NA,NA,83.9506172839506
97401,Lane County,OR,38.72549019607843,NA,NA
97402,Lane County,OR,NA,26.132404181184672,NA
97405,Lane County,OR,NA,58.536585365853654,NA
97411,Coos County,OR,NA,66.2020905923345,NA
97415,Curry County,OR,74.50980392156863,NA,NA
97527,Josephine County,OR,42.97385620915033,NA,NA
97537,Jackson County,OR,NA,NA,86.11111111111111
97914,Malheur County,OR,23.52941176470588,NA,48.76543209876543
15089,Westmoreland County,PA,83.66013071895425,NA,NA
15102,Allegheny County,PA,NA,NA,16.358024691358025
15122,Allegheny County,PA,50,NA,NA
15129,Allegheny County,PA,NA,91.98606271777004,NA
15133,Allegheny County,PA,NA,93.55400696864112,NA
15207,Allegheny County,PA,NA,72.64808362369338,NA
15220,Allegheny County,PA,NA,NA,54.32098765432099
15226,Allegheny County,PA,NA,83.44947735191639,NA
15235,Allegheny County,PA,20.098039215686274,NA,NA
15236,Allegheny County,PA,NA,26.480836236933797,NA
15317,Washington County,PA,NA,8.362369337979095,NA
15401,Fayette County,PA,8.333333333333332,NA,NA
15601,Westmoreland County,PA,NA,NA,0.6172839506172839
16055,Butler County,PA,NA,84.14634146341463,NA
16125,Mercer County,PA,NA,NA,10.185185185185185
16148,Mercer County,PA,75.49019607843137,NA,NA
16509,Erie County,PA,NA,NA,24.382716049382715
16510,Erie County,PA,NA,NA,21.91358024691358
16602,Blair County,PA,14.37908496732026,NA,NA
16827,Centre County,PA,93.30065359477125,NA,NA
16901,Tioga County,PA,NA,NA,68.82716049382715
17003,Lebanon County,PA,NA,43.90243902439025,NA
17011,Cumberland County,PA,NA,NA,17.59259259259259
17044,Mifflin County,PA,NA,6.2717770034843205,NA
17046,Lebanon County,PA,10.130718954248366,NA,NA
17057,Dauphin County,PA,18.4640522875817,NA,NA
17059,Juniata County,PA,81.86274509803921,NA,NA
17067,Lebanon County,PA,NA,97.90940766550523,NA
17222,Franklin County,PA,NA,46.864111498257834,NA
17325,Adams County,PA,24.34640522875817,NA,NA
17363,York County,PA,NA,64.45993031358886,NA
17403,York County,PA,17.973856209150327,NA,NA
17517,Lancaster County,PA,NA,NA,64.81481481481481
17566,Lancaster County,PA,84.31372549019608,NA,NA
17740,Lycoming County,PA,NA,NA,44.44444444444444
17754,Lycoming County,PA,NA,NA,27.160493827160494
17801,Northumberland County,PA,NA,NA,33.641975308641975
17844,Union County,PA,70.58823529411765,NA,NA
17847,Northumberland County,PA,63.888888888888886,NA,NA
17866,Northumberland County,PA,NA,56.09756097560976,NA
18014,Northampton County,PA,NA,31.70731707317073,NA
18017,Northampton County,PA,5.88235294117647,NA,NA
18018,Lehigh County,PA,NA,34.146341463414636,NA
18045,Northampton County,PA,NA,NA,9.25925925925926
18103,Lehigh County,PA,NA,4.529616724738676,NA
18201,Luzerne County,PA,19.607843137254903,NA,NA
18202,Luzerne County,PA,46.568627450980394,NA,NA
18222,Luzerne County,PA,NA,NA,67.28395061728395
18224,Luzerne County,PA,NA,NA,87.34567901234568
18235,Carbon County,PA,NA,NA,38.2716049382716
18301,Monroe County,PA,34.80392156862745,NA,NA
18302,Monroe County,PA,NA,NA,70.98765432098766
18504,Lackawanna County,PA,30.392156862745097,NA,NA
18634,Luzerne County,PA,41.50326797385621,NA,NA
18704,Luzerne County,PA,NA,41.98606271777003,NA
18801,Susquehanna County,PA,NA,NA,97.22222222222221
18901,Bucks County,PA,73.69281045751634,NA,NA
18944,Bucks County,PA,80.06535947712419,NA,NA
18974,Bucks County,PA,55.392156862745104,NA,NA
19002,Montgomery County,PA,NA,53.13588850174216,NA
19006,Montgomery County,PA,NA,81.70731707317073,NA
19020,Bucks County,PA,8.823529411764707,NA,NA
19038,Montgomery County,PA,NA,75.60975609756098,NA
19061,Delaware County,PA,NA,NA,52.160493827160494
19083,Delaware County,PA,NA,87.10801393728222,NA
19096,Montgomery County,PA,NA,71.0801393728223,NA
19104,Philadelphia County,PA,NA,48.257839721254356,NA
19111,Philadelphia County,PA,4.084967320261438,NA,NA
19131,Philadelphia County,PA,NA,1.3937282229965158,NA
19136,Philadelphia County,PA,NA,NA,40.123456790123456
19137,Philadelphia County,PA,NA,75.08710801393728,NA
19138,Philadelphia County,PA,13.23529411764706,NA,NA
19139,Philadelphia County,PA,NA,5.574912891986063,NA
19140,Philadelphia County,PA,NA,57.14285714285714,NA
19145,Philadelphia County,PA,30.22875816993464,61.672473867595826,NA
19149,Philadelphia County,PA,7.516339869281046,NA,NA
19152,Philadelphia County,PA,50.326797385620914,NA,NA
19335,Chester County,PA,18.137254901960784,NA,NA
19355,Chester County,PA,40.68627450980392,NA,NA
19422,Montgomery County,PA,NA,68.81533101045297,NA
19428,Montgomery County,PA,44.93464052287582,NA,NA
19438,Montgomery County,PA,NA,NA,33.0246913580247
19460,Chester County,PA,NA,NA,56.79012345679012
19464,Montgomery County,PA,NA,5.400696864111499,NA
19468,Montgomery County,PA,NA,30.139372822299652,NA
19508,Berks County,PA,NA,37.10801393728223,NA
19533,Berks County,PA,90.0326797385621,NA,NA
19543,Berks County,PA,96.40522875816994,NA,NA
19565,Berks County,PA,NA,61.14982578397212,NA
02871,Newport County,RI,62.41830065359477,NA,NA
02882,Washington County,RI,NA,NA,36.41975308641975
02888,Kent County,RI,NA,NA,42.28395061728395
02889,Kent County,RI,NA,14.111498257839722,NA
02907,Providence County,RI,93.95424836601308,NA,NA
02910,Providence County,RI,NA,NA,86.41975308641975
29020,Kershaw County,SC,NA,30.66202090592334,NA
29040,Sumter County,SC,94.28104575163398,NA,NA
29127,Newberry County,SC,NA,NA,84.5679012345679
29210,Richland County,SC,41.17647058823529,NA,NA
29301,Spartanburg County,SC,NA,32.752613240418114,NA
29353,Union County,SC,NA,93.90243902439023,NA
29466,Charleston County,SC,NA,80.13937282229965,NA
29483,Dorchester County,SC,NA,50.174216027874564,NA
29485,Dorchester County,SC,NA,27.35191637630662,NA
29486,Berkeley County,SC,NA,77.87456445993031,NA
29526,Horry County,SC,NA,9.059233449477352,NA
29541,Florence County,SC,77.45098039215686,NA,NA
29554,Williamsburg County,SC,NA,97.73519163763066,NA
29556,Williamsburg County,SC,NA,NA,65.4320987654321
29583,Florence County,SC,NA,88.50174216027874,NA
29605,Greenville County,SC,71.56862745098039,NA,NA
29624,Anderson County,SC,NA,NA,88.27160493827161
29645,Laurens County,SC,67.15686274509804,NA,NA
29670,Anderson County,SC,NA,NA,86.72839506172839
29678,Oconee County,SC,NA,NA,45.06172839506173
57030,Minnehaha County,SD,NA,99.82578397212544,NA
57105,Minnehaha County,SD,NA,9.581881533101045,NA
57717,Butte County,SD,NA,79.61672473867596,NA
37027,Williamson County,TN,39.21568627450981,NA,NA
37042,Montgomery County,TN,NA,33.972125435540065,NA
37043,Montgomery County,TN,35.45751633986928,NA,NA
37067,Williamson County,TN,NA,66.89895470383276,NA
37076,Davidson County,TN,34.967320261437905,NA,NA
37130,Rutherford County,TN,NA,27.35191637630662,NA
37207,Davidson County,TN,NA,79.79094076655052,NA
37209,Davidson County,TN,32.35294117647059,NA,NA
37214,Davidson County,TN,60.130718954248366,NA,NA
37215,Davidson County,TN,92.64705882352942,NA,NA
37334,Lincoln County,TN,36.60130718954248,NA,NA
37363,Hamilton County,TN,NA,36.58536585365854,NA
37377,Hamilton County,TN,NA,16.72473867595819,NA
37379,Hamilton County,TN,40.52287581699346,NA,NA
37604,Washington County,TN,51.307189542483655,NA,NA
37618,Sullivan County,TN,NA,NA,76.85185185185185
37660,Sullivan County,TN,NA,8.013937282229964,NA
37664,Sullivan County,TN,NA,NA,27.469135802469136
37686,Sullivan County,TN,NA,85.88850174216029,NA
37766,Campbell County,TN,NA,NA,33.0246913580247
37807,Union County,TN,NA,81.01045296167247,NA
37917,Knox County,TN,NA,54.181184668989545,NA
37918,Knox County,TN,15.196078431372548,NA,NA
37919,Knox County,TN,54.41176470588235,NA,NA
38063,Lauderdale County,TN,NA,NA,65.12345679012346
38109,Shelby County,TN,NA,NA,30.864197530864196
38118,Shelby County,TN,NA,50.522648083623686,NA
38122,Shelby County,TN,NA,NA,67.28395061728395
38201,Carroll County,TN,91.99346405228758,NA,NA
38344,Carroll County,TN,NA,NA,81.48148148148148
38401,Maury County,TN,NA,NA,19.753086419753085
38469,Lawrence County,TN,99.34640522875817,NA,NA
38501,Putnam County,TN,19.444444444444446,NA,NA
38558,Cumberland County,TN,NA,45.818815331010455,NA
38562,Jackson County,TN,85.7843137254902,NA,NA
38581,Warren County,TN,NA,93.20557491289199,NA
75006,Dallas County,TX,NA,NA,29.01234567901235
75020,Grayson County,TX,46.73202614379085,NA,NA
75028,Denton County,TX,89.70588235294117,NA,NA
75061,Dallas County,TX,50.81699346405229,NA,NA
75063,Dallas County,TX,95.42483660130719,NA,NA
75093,Collin County,TX,75.65359477124183,NA,NA
75159,Dallas County,TX,NA,75.9581881533101,NA
75206,Dallas County,TX,NA,NA,59.5679012345679
75211,Dallas County,TX,19.11764705882353,NA,NA
75214,Dallas County,TX,41.830065359477125,NA,NA
75215,Dallas County,TX,NA,NA,96.60493827160494
75218,Dallas County,TX,72.7124183006536,NA,NA
75243,Dallas County,TX,NA,38.67595818815331,NA
75248,Dallas County,TX,58.00653594771242,NA,NA
75563,Cass County,TX,99.50980392156863,NA,NA
75604,Gregg County,TX,40.19607843137255,NA,NA
75644,Upshur County,TX,NA,NA,70.37037037037037
75654,Rusk County,TX,82.35294117647058,NA,NA
75672,Harrison County,TX,NA,59.40766550522648,NA
75693,Gregg County,TX,NA,91.46341463414635,NA
75758,Henderson County,TX,NA,NA,56.481481481481474
75763,Anderson County,TX,NA,NA,66.66666666666666
75803,Anderson County,TX,NA,NA,78.08641975308642
76012,Tarrant County,TX,46.89542483660131,NA,NA
76016,Tarrant County,TX,NA,NA,35.49382716049383
76082,Parker County,TX,NA,43.031358885017426,NA
76117,Tarrant County,TX,80.55555555555556,NA,NA
76248,Tarrant County,TX,NA,38.153310104529616,NA
76502,Bell County,TX,NA,NA,41.66666666666667
76708,McLennan County,TX,NA,89.72125435540069,NA
77030,Harris County,TX,89.86928104575163,NA,NA
77043,Harris County,TX,NA,76.30662020905923,NA
77045,Harris County,TX,57.51633986928104,NA,NA
77048,Harris County,TX,NA,75.26132404181185,NA
77058,Harris County,TX,NA,80.48780487804879,NA
77065,Harris County,TX,61.43790849673203,NA,NA
77070,Harris County,TX,NA,19.337979094076655,NA
77076,Harris County,TX,NA,64.28571428571429,NA
77354,Montgomery County,TX,NA,39.02439024390244,NA
77356,Montgomery County,TX,NA,33.10104529616725,NA
77360,Polk County,TX,NA,72.47386759581882,NA
77371,San Jacinto County,TX,NA,86.41114982578398,NA
77381,Montgomery County,TX,NA,67.24738675958189,NA
77429,Harris County,TX,NA,22.822299651567945,NA
77449,Harris County,TX,NA,NA,80.55555555555556
77480,Brazoria County,TX,87.90849673202614,NA,NA
77511,Brazoria County,TX,NA,10.278745644599303,NA
77523,Chambers County,TX,82.51633986928104,NA,NA
77539,Galveston County,TX,20.751633986928105,NA,NA
77546,Galveston County,TX,NA,9.40766550522648,NA
77627,Jefferson County,TX,69.6078431372549,NA,NA
77802,Brazos County,TX,25.326797385620914,NA,NA
77833,Washington County,TX,NA,23.170731707317074,NA
78040,Webb County,TX,41.01307189542484,NA,NA
78102,Bee County,TX,NA,NA,72.53086419753086
78155,Guadalupe County,TX,24.509803921568626,NA,NA
78203,Bexar County,TX,NA,94.42508710801394,NA
78207,Bexar County,TX,NA,NA,20.679012345679013
78209,Bexar County,TX,NA,NA,43.20987654320987
78211,Bexar County,TX,NA,54.87804878048781,NA
78408,Nueces County,TX,NA,NA,91.35802469135803
78516,Hidalgo County,TX,61.60130718954249,NA,NA
78573,Hidalgo County,TX,NA,42.1602787456446,NA
78574,Hidalgo County,TX,NA,NA,43.51851851851852
78578,Cameron County,TX,NA,NA,92.90123456790124
78596,Hidalgo County,TX,NA,NA,34.5679012345679
78613,Williamson County,TX,86.60130718954248,NA,NA
78624,Gillespie County,TX,NA,NA,75.92592592592592
78644,Caldwell County,TX,NA,51.393728222996515,NA
78664,Williamson County,TX,43.4640522875817,NA,NA
78702,Travis County,TX,91.33986928104575,NA,NA
78741,Travis County,TX,NA,73.86759581881533,NA
78750,Travis County,TX,NA,75.9581881533101,NA
78962,Colorado County,TX,NA,NA,94.44444444444444
79323,Yoakum County,TX,76.47058823529412,NA,NA
79603,Taylor County,TX,NA,NA,44.135802469135804
79706,Midland County,TX,44.11764705882353,NA,NA
79745,Winkler County,TX,88.23529411764706,NA,NA
79764,Ector County,TX,56.04575163398693,NA,NA
79905,El Paso County,TX,74.01960784313727,51.742160278745644,NA
79924,El Paso County,TX,NA,86.58536585365853,NA
79932,El Paso County,TX,NA,NA,66.9753086419753
84003,Utah County,UT,NA,85.19163763066202,NA
84074,Tooele County,UT,NA,16.376306620209057,NA
84088,Salt Lake County,UT,NA,47.038327526132406,NA
84095,Salt Lake County,UT,NA,23.86759581881533,NA
84096,Salt Lake County,UT,27.61437908496732,NA,NA
84120,Salt Lake County,UT,NA,15.6794425087108,NA
84701,Sevier County,UT,NA,NA,95.06172839506173
05060,Orange County,VT,NA,NA,90.74074074074075
05401,Chittenden County,VT,NA,42.857142857142854,NA
20111,Prince William County,VA,92.97385620915033,NA,NA
20171,Fairfax County,VA,50.16339869281046,NA,NA
22032,Fairfax County,VA,64.54248366013073,NA,NA
22102,Fairfax County,VA,73.36601307189542,NA,NA
22150,Fairfax County,VA,NA,64.80836236933798,NA
22153,Fairfax County,VA,58.333333333333336,NA,NA
22203,Arlington County,VA,NA,91.28919860627178,NA
22407,Spotsylvania County,VA,87.58169934640523,NA,NA
22473,Northumberland County,VA,NA,NA,98.14814814814815
22520,Westmoreland County,VA,NA,80.8362369337979,NA
22560,Essex County,VA,NA,NA,77.77777777777779
22801,Harrisonburg city,VA,NA,NA,21.296296296296298
22849,Page County,VA,NA,NA,96.91358024691358
22942,Louisa County,VA,80.71895424836602,NA,NA
22968,Greene County,VA,NA,NA,83.64197530864197
23225,Richmond city,VA,NA,NA,80.24691358024691
23227,Henrico County,VA,NA,68.29268292682927,NA
23234,Chesterfield County,VA,NA,NA,61.419753086419746
23417,Accomack County,VA,NA,97.0383275261324,NA
23451,Virginia Beach city,VA,NA,12.543554006968641,NA
23669,Hampton city,VA,NA,10.975609756097562,NA
23847,Greensville County,VA,NA,NA,78.08641975308642
24012,Roanoke city,VA,29.411764705882355,NA,NA
24171,Patrick County,VA,90.84967320261438,NA,NA
24224,Russell County,VA,76.30718954248366,NA,NA
24236,Washington County,VA,NA,NA,99.38271604938271
24273,Norton city,VA,69.11764705882352,NA,NA
24401,Staunton city,VA,12.254901960784313,NA,NA
24416,Buena Vista city,VA,NA,NA,71.60493827160494
24502,Lynchburg city,VA,NA,40.59233449477352,NA
24572,Amherst County,VA,62.091503267973856,NA,NA
98012,Snohomish County,WA,30.065359477124183,NA,NA
98014,King County,WA,NA,99.4773519163763,NA
98029,King County,WA,NA,NA,93.82716049382715
98030,King County,WA,NA,35.88850174216028,NA
98038,King County,WA,33.33333333333333,NA,NA
98040,King County,WA,NA,51.045296167247386,NA
98042,King County,WA,47.712418300653596,NA,NA
98053,King County,WA,NA,NA,89.50617283950618
98057,King County,WA,81.20915032679738,NA,NA
98074,King County,WA,NA,65.1567944250871,NA
98075,King County,WA,78.75816993464052,NA,NA
98107,King County,WA,67.97385620915033,NA,NA
98110,Kitsap County,WA,NA,68.6411149825784,NA
98112,King County,WA,56.372549019607845,NA,NA
98119,King County,WA,69.77124183006535,NA,NA
98199,King County,WA,NA,90.06968641114983,NA
98208,Snohomish County,WA,21.568627450980394,NA,NA
98273,Skagit County,WA,NA,NA,8.024691358024691
98274,Skagit County,WA,NA,NA,32.098765432098766
98284,Skagit County,WA,50.49019607843137,NA,NA
98366,Kitsap County,WA,NA,25.609756097560975,NA
98368,Jefferson County,WA,68.30065359477125,NA,NA
98371,Pierce County,WA,65.68627450980392,NA,NA
98391,Pierce County,WA,NA,NA,61.72839506172839
98513,Thurston County,WA,NA,59.059233449477354,NA
98541,Grays Harbor County,WA,NA,84.49477351916377,NA
98563,Grays Harbor County,WA,NA,83.7979094076655,NA
98577,Pacific County,WA,87.74509803921569,NA,NA
98607,Clark County,WA,91.99346405228758,NA,NA
98632,Cowlitz County,WA,NA,4.006968641114982,1.8518518518518516
98684,Clark County,WA,NA,NA,79.93827160493827
98685,Clark County,WA,NA,66.72473867595818,NA
98801,Chelan County,WA,NA,5.923344947735192,NA
98908,Yakima County,WA,NA,NA,12.654320987654321
98922,Kittitas County,WA,NA,79.26829268292683,NA
99114,Stevens County,WA,78.59477124183006,NA,NA
99202,Spokane County,WA,NA,69.33797909407666,NA
99218,Spokane County,WA,90.68627450980392,NA,NA
99301,Franklin County,WA,NA,NA,9.876543209876543
20008,District of Columbia,DC,NA,70.38327526132404,NA
20009,District of Columbia,DC,31.5359477124183,NA,NA
20010,District of Columbia,DC,NA,42.68292682926829,NA
20011,District of Columbia,DC,NA,NA,4.938271604938271
20017,District of Columbia,DC,NA,62.54355400696864,NA
24701,Mercer County,WV,NA,24.738675958188153,NA
25309,Kanawha County,WV,66.50326797385621,NA,NA
25312,Kanawha County,WV,NA,46.34146341463415,NA
25401,Berkeley County,WV,NA,29.268292682926827,NA
25526,Putnam County,WV,NA,NA,38.88888888888889
25550,Mason County,WV,NA,28.222996515679444,NA
25670,Mingo County,WV,NA,92.50871080139372,NA
25701,Cabell County,WV,16.666666666666664,NA,NA
25962,Greenbrier County,WV,NA,87.2822299651568,NA
26062,Hancock County,WV,38.56209150326798,NA,NA
26155,Wetzel County,WV,79.41176470588235,NA,NA
26330,Harrison County,WV,42.810457516339866,NA,NA
26554,Marion County,WV,NA,12.020905923344948,NA
26651,Nicholas County,WV,NA,81.3588850174216,NA
53066,Waukesha County,WI,39.052287581699346,NA,NA
53208,Milwaukee County,WI,NA,25.435540069686414,NA
53211,Milwaukee County,WI,65.359477124183,NA,NA
53218,Milwaukee County,WI,6.862745098039216,NA,NA
53402,Racine County,WI,43.95424836601307,NA,NA
53406,Racine County,WI,15.359477124183007,NA,NA
53545,Rock County,WI,35.130718954248366,NA,NA
53548,Rock County,WI,NA,20.905923344947734,NA
53555,Columbia County,WI,NA,95.1219512195122,NA
53562,Dane County,WI,NA,21.951219512195124,NA
53713,Dane County,WI,NA,52.961672473867594,NA
54002,St. Croix County,WI,95.75163398692811,NA,NA
54154,Oconto County,WI,85.94771241830065,NA,NA
54217,Kewaunee County,WI,NA,NA,95.98765432098766
54235,Door County,WI,60.45751633986928,NA,NA
54555,Price County,WI,NA,NA,76.23456790123457
54601,La Crosse County,WI,NA,0.34843205574912894,NA
54901,Winnebago County,WI,27.77777777777778,NA,NA
54902,Winnebago County,WI,NA,47.386759581881535,NA
54904,Winnebago County,WI,NA,NA,78.70370370370371
