ZipCode,county,state,Adult,Retirement,Geriatric
35120,St. Clair County,AL,NA,73.07132459970887,NA
35124,Shelby County,AL,NA,37.99126637554585,NA
35173,Jefferson County,AL,NA,NA,49.77064220183486
35205,Jefferson County,AL,NA,69.43231441048034,NA
35209,Jefferson County,AL,NA,64.91994177583697,NA
35216,Jefferson County,AL,NA,50.509461426491995,NA
35242,Shelby County,AL,29.84790874524715,NA,9.862385321100918
35244,Jefferson County,AL,47.52851711026616,NA,84.86238532110092
35592,Lamar County,AL,NA,NA,94.03669724770643
35802,Madison County,AL,NA,NA,22.24770642201835
35907,Etowah County,AL,81.1787072243346,NA,NA
35986,DeKalb County,AL,NA,76.12809315866085,NA
36264,Cleburne County,AL,NA,NA,92.20183486238533
36265,Calhoun County,AL,NA,82.38719068413391,NA
36277,Calhoun County,AL,95.24714828897338,NA,NA
36575,Mobile County,AL,NA,72.34352256186317,NA
99502,Anchorage Municipality,AK,52.28136882129277,NA,NA
99508,Anchorage Municipality,AK,16.53992395437262,NA,NA
85015,Maricopa County,AZ,NA,51.81950509461426,NA
85035,Maricopa County,AZ,NA,NA,85.55045871559633
85053,Maricopa County,AZ,44.29657794676806,NA,NA
85226,Maricopa County,AZ,NA,66.66666666666666,NA
85248,Maricopa County,AZ,NA,32.751091703056765,NA
85258,Maricopa County,AZ,NA,NA,37.15596330275229
85546,Graham County,AZ,NA,86.02620087336244,NA
85607,Cochise County,AZ,92.9657794676806,47.161572052401745,NA
85614,Pima County,AZ,NA,21.106259097525474,NA
85641,Pima County,AZ,80.98859315589354,NA,98.1651376146789
85705,Pima County,AZ,NA,7.5691411935953425,NA
85710,Pima County,AZ,10.26615969581749,NA,37.84403669724771
85716,Pima County,AZ,NA,28.38427947598253,NA
85718,Pima County,AZ,NA,NA,57.798165137614674
85719,Pima County,AZ,66.15969581749049,NA,NA
85742,Pima County,AZ,NA,77.14701601164484,NA
85743,Pima County,AZ,NA,62.882096069869,NA
85749,Pima County,AZ,95.81749049429658,NA,NA
85750,Pima County,AZ,NA,NA,43.34862385321101
85901,Navajo County,AZ,51.90114068441065,NA,NA
86325,Yavapai County,AZ,98.85931558935361,NA,NA
86426,Mohave County,AZ,76.61596958174906,NA,NA
86510,Navajo County,AZ,56.27376425855514,NA,NA
71923,Clark County,AR,79.65779467680608,NA,NA
72143,White County,AR,NA,10.625909752547306,NA
72631,Carroll County,AR,NA,93.74090247452693,NA
72756,Benton County,AR,59.125475285171106,NA,NA
90025,Los Angeles County,CA,56.463878326996195,NA,NA
90028,Los Angeles County,CA,64.44866920152091,NA,NA
90039,Los Angeles County,CA,NA,75.54585152838428,NA
90046,Los Angeles County,CA,76.23574144486692,24.599708879184863,NA
90048,Los Angeles County,CA,NA,NA,47.706422018348626
90066,Los Angeles County,CA,NA,66.37554585152839,NA
90247,Los Angeles County,CA,NA,51.52838427947598,NA
90275,Los Angeles County,CA,NA,41.3391557496361,NA
90403,Los Angeles County,CA,67.30038022813687,NA,NA
90606,Los Angeles County,CA,NA,60.11644832605532,NA
90638,Los Angeles County,CA,54.372623574144484,NA,NA
90703,Los Angeles County,CA,NA,94.46870451237264,38.53211009174312
90731,Los Angeles County,CA,28.707224334600763,NA,NA
90744,Los Angeles County,CA,NA,NA,66.5137614678899
90803,Los Angeles County,CA,NA,NA,52.293577981651374
91304,Los Angeles County,CA,48.47908745247148,NA,NA
91335,Los Angeles County,CA,NA,NA,13.53211009174312
91350,Los Angeles County,CA,63.30798479087453,NA,NA
91352,Los Angeles County,CA,NA,45.851528384279476,NA
91355,Los Angeles County,CA,NA,50.80058224163027,NA
91361,Ventura County,CA,NA,62.29985443959243,NA
91381,Los Angeles County,CA,72.0532319391635,NA,NA
91384,Los Angeles County,CA,NA,86.02620087336244,NA
91390,Los Angeles County,CA,NA,72.63464337700145,NA
91405,Los Angeles County,CA,42.39543726235742,NA,NA
91701,San Bernardino County,CA,23.193916349809886,NA,NA
91709,San Bernardino County,CA,65.96958174904944,NA,NA
91773,Los Angeles County,CA,NA,31.58660844250364,NA
91913,San Diego County,CA,NA,NA,88.76146788990825
91932,San Diego County,CA,NA,NA,90.13761467889908
92009,San Diego County,CA,NA,NA,47.018348623853214
92024,San Diego County,CA,96.38783269961976,NA,33.25688073394495
92025,San Diego County,CA,46.958174904942965,NA,NA
92026,San Diego County,CA,NA,48.90829694323144,NA
92064,San Diego County,CA,NA,39.737991266375545,NA
92081,San Diego County,CA,NA,68.41339155749637,NA
92102,San Diego County,CA,36.12167300380228,NA,NA
92103,San Diego County,CA,44.48669201520912,NA,NA
92111,San Diego County,CA,NA,NA,28.440366972477065
92114,San Diego County,CA,NA,NA,30.73394495412844
92129,San Diego County,CA,NA,49.34497816593886,NA
92223,Riverside County,CA,NA,42.503639010189225,NA
92234,Riverside County,CA,14.44866920152091,NA,NA
92241,Riverside County,CA,NA,92.72197962154294,NA
92260,Riverside County,CA,NA,NA,0.45871559633027525
92264,Riverside County,CA,NA,44.68704512372635,NA
92335,San Bernardino County,CA,11.02661596958175,NA,NA
92376,San Bernardino County,CA,NA,NA,55.04587155963303
92397,San Bernardino County,CA,98.66920152091255,NA,NA
92506,Riverside County,CA,NA,43.95924308588064,NA
92570,Riverside County,CA,40.11406844106464,NA,NA
92584,Riverside County,CA,NA,NA,87.61467889908256
92625,Orange County,CA,NA,65.21106259097526,NA
92646,Orange County,CA,NA,39.30131004366812,NA
92707,Orange County,CA,NA,52.11062590975255,NA
92804,Orange County,CA,62.3574144486692,NA,NA
92807,Orange County,CA,NA,41.77583697234352,NA
92831,Orange County,CA,NA,45.26928675400291,NA
92869,Orange County,CA,94.67680608365019,NA,NA
92870,Orange County,CA,93.15589353612167,NA,NA
93001,Ventura County,CA,24.524714828897338,78.4570596797671,NA
93003,Ventura County,CA,15.209125475285171,NA,NA
93010,Ventura County,CA,77.18631178707224,NA,NA
93030,Ventura County,CA,NA,NA,31.19266055045872
93060,Ventura County,CA,67.87072243346007,NA,NA
93063,Ventura County,CA,NA,26.78311499272198,NA
93065,Ventura County,CA,NA,81.51382823871907,NA
93108,Santa Barbara County,CA,NA,99.85443959243085,NA
93230,Kings County,CA,NA,16.302765647743815,NA
93257,Tulare County,CA,13.307984790874524,NA,NA
93277,Tulare County,CA,23.00380228136882,NA,NA
93309,Kern County,CA,NA,32.45997088791849,NA
93444,San Luis Obispo County,CA,58.74524714828897,NA,NA
93455,Santa Barbara County,CA,29.65779467680608,NA,NA
93551,Los Angeles County,CA,NA,55.31295487627366,NA
93619,Fresno County,CA,NA,42.94032023289665,NA
93711,Fresno County,CA,NA,39.88355167394469,NA
93722,Fresno County,CA,NA,NA,39.44954128440367
94002,San Mateo County,CA,54.94296577946768,NA,NA
94015,San Mateo County,CA,NA,NA,4.587155963302752
94025,San Mateo County,CA,48.85931558935361,NA,28.6697247706422
94044,San Mateo County,CA,NA,29.403202328966522,NA
94062,San Mateo County,CA,55.13307984790875,77.87481804949053,NA
94063,San Mateo County,CA,41.06463878326996,NA,NA
94102,San Francisco County,CA,NA,36.681222707423586,NA
94107,San Francisco County,CA,42.585551330798474,NA,NA
94109,San Francisco County,CA,25.85551330798479,NA,27.981651376146786
94114,San Francisco County,CA,NA,79.91266375545851,NA
94115,San Francisco County,CA,47.71863117870723,NA,NA
94121,San Francisco County,CA,89.92395437262357,NA,NA
94122,San Francisco County,CA,45.627376425855516,NA,NA
94123,San Francisco County,CA,NA,NA,59.174311926605505
94127,San Francisco County,CA,NA,93.30422125181951,NA
94301,Santa Clara County,CA,NA,NA,87.1559633027523
94306,Santa Clara County,CA,84.79087452471484,NA,NA
94403,San Mateo County,CA,51.52091254752852,NA,NA
94501,Alameda County,CA,36.50190114068441,46.43377001455604,NA
94507,Contra Costa County,CA,NA,69.28675400291121,NA
94513,Contra Costa County,CA,NA,NA,30.504587155963304
94518,Contra Costa County,CA,NA,NA,58.02752293577982
94519,Contra Costa County,CA,NA,80.05822416302766,NA
94526,Contra Costa County,CA,65.39923954372624,NA,NA
94544,Alameda County,CA,NA,13.973799126637553,NA
94549,Contra Costa County,CA,NA,59.97088791848617,NA
94552,Alameda County,CA,92.39543726235742,NA,NA
94553,Contra Costa County,CA,39.92395437262358,29.694323144104807,NA
94558,Napa County,CA,28.517110266159694,NA,2.981651376146789
94563,Contra Costa County,CA,85.74144486692015,NA,NA
94568,Alameda County,CA,53.2319391634981,NA,NA
94595,Contra Costa County,CA,NA,52.256186317321685,10.321100917431194
94610,Alameda County,CA,NA,67.54002911208151,NA
94707,Alameda County,CA,97.33840304182509,86.8995633187773,NA
94709,Alameda County,CA,NA,93.88646288209607,NA
94804,Contra Costa County,CA,NA,44.25036390101892,NA
94901,Marin County,CA,NA,NA,40.596330275229356
94903,Marin County,CA,NA,53.12954876273653,NA
94952,Sonoma County,CA,NA,39.5924308588064,NA
94954,Sonoma County,CA,NA,NA,33.02752293577982
94965,Marin County,CA,NA,75.69141193595343,NA
95008,Santa Clara County,CA,63.87832699619772,NA,64.44954128440367
95010,Santa Cruz County,CA,NA,87.04512372634643,NA
95014,Santa Clara County,CA,NA,83.98835516739447,22.018348623853214
95037,Santa Clara County,CA,NA,80.49490538573508,NA
95051,Santa Clara County,CA,NA,NA,41.97247706422018
95060,Santa Cruz County,CA,71.86311787072243,NA,NA
95117,Santa Clara County,CA,73.57414448669202,NA,NA
95122,Santa Clara County,CA,92.20532319391636,NA,NA
95124,Santa Clara County,CA,57.414448669201526,NA,NA
95125,Santa Clara County,CA,46.57794676806083,NA,NA
95212,San Joaquin County,CA,NA,NA,80.73394495412845
95215,San Joaquin County,CA,NA,NA,80.27522935779817
95333,Merced County,CA,NA,99.56331877729258,NA
95350,Stanislaus County,CA,NA,NA,19.724770642201836
95354,Stanislaus County,CA,31.368821292775667,NA,NA
95355,Stanislaus County,CA,NA,9.024745269286754,NA
95370,Tuolumne County,CA,NA,4.075691411935954,NA
95380,Stanislaus County,CA,25.285171102661597,NA,NA
95391,San Joaquin County,CA,NA,NA,97.70642201834863
95403,Sonoma County,CA,50.19011406844106,40.756914119359536,NA
95404,Sonoma County,CA,NA,63.6098981077147,NA
95423,Lake County,CA,NA,86.31732168850073,NA
95448,Sonoma County,CA,NA,46.87045123726347,NA
95472,Sonoma County,CA,NA,59.243085880640464,NA
95476,Sonoma County,CA,NA,68.70451237263464,NA
95503,Humboldt County,CA,48.28897338403042,NA,NA
95540,Humboldt County,CA,NA,81.07714701601164,NA
95602,Placer County,CA,NA,50.21834061135371,35.091743119266056
95608,Sacramento County,CA,NA,20.815138282387192,40.36697247706422
95610,Sacramento County,CA,NA,NA,76.8348623853211
95621,Sacramento County,CA,41.254752851711025,88.35516739446871,NA
95624,Sacramento County,CA,NA,NA,75.22935779816514
95628,Sacramento County,CA,83.65019011406845,41.92139737991266,63.99082568807339
95630,Sacramento County,CA,NA,52.9839883551674,25.229357798165136
95631,Placer County,CA,NA,85.00727802037845,NA
95632,Sacramento County,CA,NA,NA,95.87155963302753
95640,Amador County,CA,NA,NA,93.34862385321101
95648,Placer County,CA,60.45627376425855,83.26055312954877,81.65137614678899
95650,Placer County,CA,NA,NA,98.85321100917432
95661,Placer County,CA,NA,80.78602620087337,51.60550458715596
95662,Sacramento County,CA,67.11026615969583,91.99417758369724,NA
95667,El Dorado County,CA,NA,NA,50.22935779816514
95670,Sacramento County,CA,NA,67.10334788937409,65.13761467889908
95673,Sacramento County,CA,83.26996197718631,NA,NA
95677,Placer County,CA,NA,NA,83.4862385321101
95678,Placer County,CA,NA,35.22561863173217,61.69724770642202
95682,El Dorado County,CA,NA,83.4061135371179,NA
95693,Sacramento County,CA,NA,94.90538573508006,NA
95746,Placer County,CA,NA,NA,72.01834862385321
95747,Placer County,CA,NA,NA,13.073394495412844
95758,Sacramento County,CA,NA,NA,96.3302752293578
95762,El Dorado County,CA,50.950570342205324,NA,NA
95765,Placer County,CA,NA,NA,67.20183486238533
95814,Sacramento County,CA,NA,82.6783114992722,89.22018348623854
95819,Sacramento County,CA,NA,94.17758369723435,NA
95821,Sacramento County,CA,NA,65.3566229985444,NA
95822,Sacramento County,CA,NA,44.97816593886463,NA
95826,Sacramento County,CA,NA,56.04075691411936,NA
95829,Sacramento County,CA,NA,96.21542940320232,NA
95831,Sacramento County,CA,NA,NA,25
95833,Sacramento County,CA,NA,60.84425036390102,NA
95835,Sacramento County,CA,NA,87.627365356623,NA
95842,Sacramento County,CA,NA,70.45123726346434,NA
95843,Sacramento County,CA,NA,63.464337700145556,NA
95864,Sacramento County,CA,NA,NA,46.10091743119266
95928,Butte County,CA,NA,NA,25.91743119266055
95949,Nevada County,CA,NA,51.382823871906844,NA
95959,Nevada County,CA,NA,NA,62.61467889908256
96002,Shasta County,CA,55.70342205323195,NA,NA
80003,Jefferson County,CO,NA,54.87627365356623,NA
80010,Arapahoe County,CO,50.57034220532319,NA,NA
80014,Arapahoe County,CO,29.277566539923956,NA,NA
80016,Arapahoe County,CO,NA,NA,58.48623853211009
80109,Douglas County,CO,NA,NA,91.97247706422019
80118,Douglas County,CO,NA,93.15866084425036,NA
80126,Douglas County,CO,51.71102661596958,NA,NA
80206,Denver County,CO,68.63117870722434,NA,NA
80302,Boulder County,CO,NA,NA,70.41284403669725
80401,Jefferson County,CO,34.79087452471482,NA,NA
80916,El Paso County,CO,34.60076045627377,NA,NA
81005,Pueblo County,CO,NA,25.327510917030565,NA
81504,Mesa County,CO,27.9467680608365,NA,NA
81611,Pitkin County,CO,NA,100,NA
06057,Litchfield County,CT,NA,87.48180494905385,NA
06239,Windham County,CT,NA,60.98981077147017,82.11009174311926
06260,Windham County,CT,28.89733840304182,NA,NA
06410,New Haven County,CT,NA,NA,43.80733944954128
06424,Middlesex County,CT,NA,NA,95.18348623853211
06457,Middlesex County,CT,NA,9.315866084425037,NA
06470,Fairfield County,CT,NA,NA,77.06422018348624
06478,New Haven County,CT,NA,NA,69.72477064220183
06489,Hartford County,CT,NA,NA,11.238532110091743
06511,New Haven County,CT,6.273764258555133,NA,NA
06512,New Haven County,CT,NA,23.871906841339154,NA
06513,New Haven County,CT,NA,NA,21.3302752293578
06517,New Haven County,CT,50.760456273764255,NA,NA
06716,New Haven County,CT,64.25855513307985,NA,NA
06762,New Haven County,CT,NA,87.91848617176127,NA
06830,Fairfield County,CT,NA,39.44687045123727,NA
06840,Fairfield County,CT,NA,73.7991266375546,NA
19720,New Castle County,DE,NA,3.3478893740902476,NA
32040,Baker County,FL,NA,77.72925764192141,NA
32097,Nassau County,FL,NA,NA,82.33944954128441
32159,Lake County,FL,NA,NA,7.110091743119266
32174,Volusia County,FL,NA,13.100436681222707,NA
32210,Duval County,FL,5.7034220532319395,NA,NA
32225,Duval County,FL,NA,51.67394468704513,NA
32250,Duval County,FL,82.12927756653993,NA,NA
32254,Duval County,FL,47.338403041825096,NA,NA
32328,Franklin County,FL,NA,98.54439592430859,NA
32514,Escambia County,FL,21.482889733840306,NA,NA
32534,Escambia County,FL,NA,47.30713245997089,NA
32571,Santa Rosa County,FL,NA,49.49053857350801,NA
32746,Seminole County,FL,53.42205323193916,NA,NA
32822,Orange County,FL,NA,27.074235807860266,NA
32904,Brevard County,FL,NA,NA,36.92660550458716
32937,Brevard County,FL,NA,58.806404657933044,NA
32940,Brevard County,FL,66.73003802281369,NA,NA
32953,Brevard County,FL,NA,21.542940320232898,NA
32968,Indian River County,FL,78.70722433460075,NA,NA
33073,Broward County,FL,NA,91.26637554585153,NA
33125,Miami-Dade County,FL,NA,38.427947598253276,NA
33129,Miami-Dade County,FL,NA,88.20960698689956,NA
33142,Miami-Dade County,FL,NA,NA,19.495412844036696
33155,Miami-Dade County,FL,73.38403041825094,NA,NA
33173,Miami-Dade County,FL,98.47908745247148,NA,NA
33301,Broward County,FL,86.12167300380229,NA,NA
33316,Broward County,FL,NA,NA,79.58715596330275
33328,Broward County,FL,NA,74.96360989810772,NA
33418,Palm Beach County,FL,NA,30.567685589519648,NA
33433,Palm Beach County,FL,NA,56.62299854439592,17.889908256880734
33437,Palm Beach County,FL,NA,NA,5.73394495412844
33458,Palm Beach County,FL,22.0532319391635,NA,NA
33573,Hillsborough County,FL,NA,NA,1.6055045871559634
33634,Hillsborough County,FL,NA,86.75400291120815,NA
33704,Pinellas County,FL,NA,78.02037845705968,NA
33756,Pinellas County,FL,NA,NA,38.76146788990826
33764,Pinellas County,FL,NA,NA,63.76146788990825
33914,Lee County,FL,NA,15.283842794759824,NA
33919,Lee County,FL,NA,NA,3.211009174311927
33981,Charlotte County,FL,NA,69.5778748180495,NA
34103,Collier County,FL,NA,NA,39.908256880733944
34119,Collier County,FL,72.24334600760456,NA,NA
34120,Collier County,FL,NA,44.832605531295485,NA
34224,Charlotte County,FL,91.06463878326996,NA,NA
34232,Sarasota County,FL,86.69201520912547,NA,NA
34236,Sarasota County,FL,NA,NA,17.660550458715598
34237,Sarasota County,FL,56.65399239543726,NA,NA
34238,Sarasota County,FL,NA,40.32023289665211,NA
34293,Sarasota County,FL,NA,NA,2.7522935779816518
34442,Citrus County,FL,NA,NA,66.74311926605505
34452,Citrus County,FL,62.9277566539924,NA,NA
34453,Citrus County,FL,NA,NA,87.8440366972477
34465,Citrus County,FL,NA,NA,88.53211009174312
34471,Marion County,FL,NA,47.59825327510917,NA
34609,Hernando County,FL,30.038022813688215,NA,NA
34653,Pasco County,FL,26.996197718631176,NA,NA
34982,St. Lucie County,FL,NA,NA,52.06422018348624
34997,Martin County,FL,NA,8.58806404657933,NA
30075,Fulton County,GA,81.36882129277566,NA,NA
30084,DeKalb County,GA,NA,83.84279475982532,NA
30088,DeKalb County,GA,38.21292775665399,NA,NA
30097,Fulton County,GA,NA,NA,45.642201834862384
30252,Henry County,GA,37.0722433460076,NA,NA
30291,Fulton County,GA,NA,68.26783114992722,NA
30439,Candler County,GA,NA,NA,77.52293577981652
30518,Gwinnett County,GA,NA,36.82678311499272,NA
30809,Columbia County,GA,34.030418250950575,NA,NA
30814,Columbia County,GA,78.13688212927757,NA,NA
30909,Richmond County,GA,73.95437262357414,NA,NA
31520,Glynn County,GA,NA,55.895196506550214,NA
96734,Honolulu County,HI,NA,NA,11.697247706422019
96738,Hawaii County,HI,NA,92.43085880640466,NA
96744,Honolulu County,HI,NA,23.144104803493452,NA
96753,Maui County,HI,NA,NA,99.54128440366972
96768,Maui County,HI,NA,85.58951965065502,NA
96786,Honolulu County,HI,31.749049429657795,NA,NA
96793,Maui County,HI,NA,63.17321688500728,NA
96815,Honolulu County,HI,48.47908745247148,NA,NA
96816,Honolulu County,HI,NA,52.54730713245998,NA
96825,Honolulu County,HI,NA,35.08005822416303,NA
96826,Honolulu County,HI,NA,NA,39.44954128440367
83221,Bingham County,ID,NA,19.65065502183406,NA
83318,Cassia County,ID,NA,75.10917030567686,NA
83341,Twin Falls County,ID,NA,NA,100
83607,Canyon County,ID,NA,34.206695778748184,NA
83646,Ada County,ID,NA,NA,5.045871559633028
83704,Ada County,ID,NA,3.6390101892285296,NA
83843,Latah County,ID,NA,80.2037845705968,NA
60010,Lake County,IL,NA,NA,18.577981651376145
60014,McHenry County,IL,NA,NA,59.862385321100916
60025,Cook County,IL,41.825095057034225,NA,28.211009174311926
60030,Lake County,IL,41.634980988593156,NA,NA
60035,Lake County,IL,NA,14.701601164483261,NA
60048,Lake County,IL,NA,27.947598253275107,NA
60061,Lake County,IL,NA,77.14701601164484,NA
60062,Cook County,IL,37.832699619771866,NA,NA
60087,Lake County,IL,NA,NA,61.23853211009175
60089,Lake County,IL,38.59315589353612,NA,NA
60103,DuPage County,IL,NA,26.055312954876275,NA
60126,DuPage County,IL,33.840304182509506,NA,NA
60130,Cook County,IL,NA,65.64774381368268,NA
60143,DuPage County,IL,82.88973384030417,NA,NA
60156,McHenry County,IL,33.460076045627375,NA,NA
60164,Cook County,IL,70.15209125475285,NA,NA
60181,DuPage County,IL,NA,33.18777292576419,NA
60192,Cook County,IL,NA,95.92430858806405,NA
60201,Cook County,IL,NA,NA,36.00917431192661
60202,Cook County,IL,58.935361216730044,NA,NA
60410,Will County,IL,48.09885931558935,NA,NA
60411,Cook County,IL,NA,NA,20.18348623853211
60439,Cook County,IL,NA,69.72343522561863,NA
60452,Cook County,IL,49.42965779467681,NA,NA
60463,Cook County,IL,NA,47.45269286754003,NA
60464,Cook County,IL,NA,NA,64.90825688073394
60465,Cook County,IL,NA,NA,54.58715596330275
60477,Cook County,IL,NA,14.119359534206696,NA
60487,Cook County,IL,54.752851711026615,NA,NA
60491,Will County,IL,NA,NA,77.75229357798165
60513,Cook County,IL,70.91254752851711,NA,85.55045871559633
60521,DuPage County,IL,69.3916349809886,NA,NA
60542,Kane County,IL,NA,NA,65.13761467889908
60563,DuPage County,IL,74.1444866920152,NA,NA
60605,Cook County,IL,58.55513307984791,NA,NA
60608,Cook County,IL,11.977186311787072,NA,NA
60609,Cook County,IL,35.551330798479086,18.340611353711793,NA
60611,Cook County,IL,NA,56.33187772925764,NA
60615,Cook County,IL,57.03422053231939,NA,NA
60616,Cook County,IL,NA,NA,23.394495412844037
60617,Cook County,IL,8.17490494296578,NA,NA
60618,Cook County,IL,NA,20.66957787481805,NA
60619,Cook County,IL,7.0342205323193925,NA,NA
60630,Cook County,IL,NA,NA,48.39449541284404
60632,Cook County,IL,NA,31.732168850072778,NA
60634,Cook County,IL,NA,8.73362445414847,NA
60637,Cook County,IL,44.106463878327,NA,22.93577981651376
60638,Cook County,IL,NA,8.442503639010189,NA
60647,Cook County,IL,8.935361216730039,NA,NA
60654,Cook County,IL,69.3916349809886,NA,NA
60657,Cook County,IL,18.631178707224336,NA,NA
60659,Cook County,IL,46.38783269961977,NA,NA
60714,Cook County,IL,NA,41.48471615720524,13.302752293577983
60901,Kankakee County,IL,15.5893536121673,NA,NA
60942,Vermilion County,IL,91.4448669201521,NA,NA
60957,Ford County,IL,NA,NA,87.38532110091744
61021,Lee County,IL,30.228136882129274,35.662299854439595,NA
61081,Whiteside County,IL,NA,15.866084425036389,NA
61462,Warren County,IL,NA,NA,80.04587155963303
61520,Fulton County,IL,NA,55.31295487627366,NA
61604,Peoria County,IL,NA,40.61135371179039,NA
61607,Peoria County,IL,NA,75.254730713246,NA
61615,Peoria County,IL,75.47528517110266,NA,NA
61701,McLean County,IL,76.42585551330798,NA,NA
61802,Champaign County,IL,NA,34.06113537117904,NA
61820,Champaign County,IL,NA,NA,76.14678899082568
61821,Champaign County,IL,40.3041825095057,NA,14.220183486238533
61832,Vermilion County,IL,NA,10.771470160116449,NA
61853,Champaign County,IL,NA,68.12227074235808,NA
61944,Edgar County,IL,NA,89.51965065502183,NA
62062,Madison County,IL,NA,92.57641921397381,NA
62401,Effingham County,IL,NA,NA,68.80733944954129
62467,Effingham County,IL,99.23954372623575,NA,NA
62521,Macon County,IL,NA,NA,4.81651376146789
62558,Sangamon County,IL,99.04942965779468,NA,NA
62946,Saline County,IL,77.9467680608365,NA,NA
46038,Hamilton County,IN,57.98479087452472,NA,NA
46106,Johnson County,IN,95.05703422053232,NA,NA
46131,Johnson County,IN,NA,NA,13.990825688073393
46157,Morgan County,IN,NA,99.12663755458514,NA
46173,Rush County,IN,NA,NA,61.46788990825688
46219,Marion County,IN,NA,53.56622998544396,NA
46222,Marion County,IN,NA,NA,60.77981651376147
46234,Marion County,IN,NA,76.41921397379913,NA
46260,Marion County,IN,NA,NA,42.88990825688073
46268,Marion County,IN,NA,NA,68.34862385321101
46304,Porter County,IN,13.11787072243346,NA,NA
46307,Lake County,IN,2.4714828897338403,NA,NA
46311,Lake County,IN,NA,18.922852983988356,NA
46368,Porter County,IN,3.9923954372623576,NA,NA
46375,Lake County,IN,30.418250950570343,NA,NA
46405,Lake County,IN,38.97338403041825,NA,NA
46511,Marshall County,IN,NA,NA,97.47706422018348
46738,DeKalb County,IN,69.20152091254754,NA,NA
46947,Cass County,IN,NA,44.54148471615721,NA
47031,Ripley County,IN,NA,NA,93.57798165137615
47041,Ripley County,IN,NA,84.4250363901019,NA
47303,Delaware County,IN,32.50950570342205,NA,NA
47408,Monroe County,IN,NA,91.84861717612809,NA
47904,Tippecanoe County,IN,NA,72.0524017467249,NA
50126,Hardin County,IA,NA,NA,65.82568807339449
50588,Buena Vista County,IA,39.543726235741445,NA,NA
50613,Black Hawk County,IA,NA,NA,3.669724770642202
50801,Union County,IA,38.02281368821293,NA,NA
51334,Emmet County,IA,NA,NA,60.09174311926605
51360,Dickinson County,IA,NA,NA,53.44036697247706
51537,Shelby County,IA,NA,NA,79.58715596330275
51632,Page County,IA,NA,63.02765647743813,NA
52101,Winneshiek County,IA,NA,63.75545851528385,31.422018348623855
52245,Johnson County,IA,NA,41.193595342066956,NA
52403,Linn County,IA,NA,41.630276564774384,NA
52405,Linn County,IA,37.0722433460076,NA,NA
66030,Johnson County,KS,89.92395437262357,57.933042212518195,NA
66043,Leavenworth County,KS,NA,90.39301310043668,NA
66048,Leavenworth County,KS,64.63878326996198,NA,NA
66086,Leavenworth County,KS,NA,79.03930131004367,NA
66202,Johnson County,KS,NA,NA,67.88990825688074
66208,Johnson County,KS,81.74904942965779,49.78165938864629,NA
66212,Johnson County,KS,NA,15.574963609898107,NA
66219,Johnson County,KS,NA,79.62154294032024,NA
66221,Johnson County,KS,89.54372623574145,NA,NA
66226,Johnson County,KS,NA,98.39883551673945,NA
66547,Pottawatomie County,KS,85.36121673003802,NA,NA
66604,Shawnee County,KS,46.7680608365019,NA,NA
67665,Russell County,KS,NA,NA,74.08256880733946
40291,Jefferson County,KY,NA,NA,34.862385321100916
40391,Clark County,KY,30.798479087452474,NA,NA
40831,Harlan County,KY,70.53231939163499,NA,NA
40977,Bell County,KY,NA,67.68558951965066,NA
41018,Kenton County,KY,22.813688212927758,NA,NA
41071,Campbell County,KY,NA,36.098981077147016,NA
41701,Perry County,KY,29.087452471482887,NA,NA
42025,Marshall County,KY,42.01520912547528,NA,NA
42031,Hickman County,KY,NA,NA,99.08256880733946
42103,Warren County,KY,62.737642585551335,NA,NA
42127,Barren County,KY,NA,NA,91.05504587155964
42501,Pulaski County,KY,NA,NA,40.137614678899084
70002,Jefferson Parish,LA,NA,34.49781659388647,NA
70003,Jefferson Parish,LA,9.695817490494296,3.4934497816593884,NA
70005,Jefferson Parish,LA,NA,25.47307132459971,NA
70043,St. Bernard Parish,LA,14.638783269961978,NA,NA
70058,Jefferson Parish,LA,3.6121673003802277,13.682678311499272,NA
70065,Jefferson Parish,LA,NA,2.911208151382824,NA
70092,St. Bernard Parish,LA,NA,NA,83.25688073394495
70094,Jefferson Parish,LA,NA,16.448326055312958,NA
70118,Orleans Parish,LA,NA,NA,33.715596330275226
70121,Jefferson Parish,LA,49.80988593155893,59.388646288209614,NA
70123,Jefferson Parish,LA,16.730038022813687,20.378457059679768,NA
70126,Orleans Parish,LA,NA,22.12518195050946,NA
70131,Orleans Parish,LA,NA,36.53566229985444,NA
70363,Terrebonne Parish,LA,NA,33.47889374090248,NA
70380,St. Mary Parish,LA,NA,32.751091703056765,NA
70426,Washington Parish,LA,61.78707224334601,NA,NA
70445,St. Tammany Parish,LA,NA,67.24890829694323,NA
70460,St. Tammany Parish,LA,NA,NA,49.31192660550459
70461,St. Tammany Parish,LA,NA,20.96069868995633,NA
70533,Vermilion Parish,LA,60.07604562737643,NA,NA
70785,Livingston Parish,LA,NA,NA,58.256880733944946
70810,East Baton Rouge Parish,LA,NA,62.00873362445415,NA
70816,East Baton Rouge Parish,LA,NA,35.37117903930131,NA
71111,Bossier Parish,LA,NA,NA,33.48623853211009
71118,Caddo Parish,LA,18.8212927756654,NA,NA
71203,Ouachita Parish,LA,NA,25.61863173216885,NA
71269,Richland Parish,LA,NA,76.41921397379913,NA
04011,Cumberland County,ME,NA,NA,19.03669724770642
04101,Cumberland County,ME,NA,26.4919941775837,NA
04102,Cumberland County,ME,NA,39.15574963609898,NA
04240,Androscoggin County,ME,NA,2.4745269286754,NA
04276,Oxford County,ME,NA,72.7802037845706,NA
04330,Kennebec County,ME,NA,54.43959243085881,NA
04841,Knox County,ME,NA,NA,96.78899082568807
04856,Knox County,ME,NA,96.36098981077147,94.26605504587155
04901,Kennebec County,ME,NA,3.7845705967976713,NA
04915,Waldo County,ME,NA,37.70014556040756,NA
04937,Somerset County,ME,NA,84.57059679767104,NA
04976,Somerset County,ME,NA,16.157205240174672,NA
20602,Charles County,MD,NA,67.8311499272198,NA
20895,Montgomery County,MD,89.35361216730038,NA,NA
20904,Montgomery County,MD,NA,50.509461426491995,NA
21001,Harford County,MD,61.97718631178707,NA,NA
21040,Harford County,MD,58.174904942965775,NA,NA
21042,Howard County,MD,68.44106463878326,NA,NA
21093,Baltimore County,MD,41.44486692015209,28.093158660844253,NA
21102,Carroll County,MD,NA,NA,91.74311926605505
21117,Baltimore County,MD,NA,26.92867540029112,NA
21122,Anne Arundel County,MD,NA,14.41048034934498,NA
21131,Baltimore County,MD,NA,88.50072780203784,NA
21212,Baltimore city,MD,91.25475285171103,NA,NA
21217,Baltimore city,MD,20.53231939163498,NA,NA
21218,Baltimore city,MD,NA,13.39155749636099,6.651376146788992
21221,Baltimore County,MD,NA,22.707423580786028,NA
21225,Baltimore city,MD,33.07984790874524,NA,NA
21703,Frederick County,MD,60.646387832699624,NA,NA
21771,Frederick County,MD,NA,64.3377001455604,NA
21911,Cecil County,MD,NA,NA,62.38532110091744
01082,Hampshire County,MA,NA,38.864628820960704,NA
01230,Berkshire County,MA,NA,77.58369723435226,NA
01337,Franklin County,MA,NA,99.2721979621543,NA
01430,Worcester County,MA,NA,74.235807860262,NA
01440,Worcester County,MA,2.091254752851711,NA,NA
01453,Worcester County,MA,NA,0.43668122270742354,NA
01475,Worcester County,MA,24.904942965779465,51.09170305676856,NA
01501,Worcester County,MA,NA,NA,76.60550458715596
01516,Worcester County,MA,NA,88.93740902474528,NA
01524,Worcester County,MA,NA,62.59097525473072,NA
01562,Worcester County,MA,NA,89.8107714701601,NA
01581,Worcester County,MA,NA,NA,62.84403669724771
01583,Worcester County,MA,NA,85.1528384279476,93.80733944954129
01588,Worcester County,MA,17.870722433460077,NA,NA
01602,Worcester County,MA,NA,71.47016011644833,NA
01605,Worcester County,MA,1.7110266159695817,8.296943231441048,NA
01609,Worcester County,MA,NA,5.531295487627365,68.11926605504587
01701,Middlesex County,MA,NA,81.36826783114994,NA
01720,Middlesex County,MA,31.93916349809886,34.643377001455605,NA
01730,Middlesex County,MA,NA,52.40174672489083,17.431192660550458
01757,Worcester County,MA,3.041825095057034,NA,NA
01773,Middlesex County,MA,NA,NA,94.72477064220183
01776,Middlesex County,MA,NA,NA,58.944954128440365
01803,Middlesex County,MA,18.250950570342205,30.27656477438137,1.146788990825688
01810,Essex County,MA,13.498098859315588,17.321688500727802,NA
01821,Middlesex County,MA,NA,1.3100436681222707,NA
01824,Middlesex County,MA,NA,7.278020378457059,NA
01830,Essex County,MA,1.9011406844106464,NA,NA
01833,Essex County,MA,77.3764258555133,NA,NA
01845,Essex County,MA,NA,46.142649199417754,NA
01852,Middlesex County,MA,NA,14.992721979621543,NA
01854,Middlesex County,MA,NA,NA,6.8807339449541285
01860,Essex County,MA,NA,NA,86.0091743119266
01862,Middlesex County,MA,44.866920152091254,87.33624454148472,NA
01880,Middlesex County,MA,NA,6.695778748180495,NA
01886,Middlesex County,MA,NA,34.35225618631732,NA
01890,Middlesex County,MA,72.81368821292776,NA,47.935779816513765
01906,Essex County,MA,NA,NA,35.321100917431195
01915,Essex County,MA,NA,53.711790393013104,NA
01921,Essex County,MA,78.89733840304183,NA,NA
01930,Essex County,MA,NA,NA,8.944954128440367
01940,Essex County,MA,83.46007604562737,NA,NA
01952,Essex County,MA,NA,NA,56.42201834862385
01960,Essex County,MA,NA,NA,1.834862385321101
01969,Essex County,MA,89.73384030418251,NA,NA
01970,Essex County,MA,49.049429657794676,NA,NA
01982,Essex County,MA,NA,NA,98.62385321100918
02026,Norfolk County,MA,NA,17.03056768558952,NA
02035,Norfolk County,MA,NA,60.26200873362445,NA
02038,Norfolk County,MA,NA,50.072780203784575,NA
02043,Plymouth County,MA,35.93155893536122,NA,NA
02048,Bristol County,MA,NA,NA,95.41284403669725
02052,Norfolk County,MA,84.60076045627376,NA,NA
02061,Plymouth County,MA,NA,NA,73.85321100917432
02066,Plymouth County,MA,NA,NA,57.3394495412844
02109,Suffolk County,MA,96.57794676806084,NA,NA
02115,Suffolk County,MA,7.224334600760455,NA,NA
02116,Suffolk County,MA,NA,98.98107714701602,NA
02127,Suffolk County,MA,NA,37.84570596797671,46.788990825688074
02128,Suffolk County,MA,NA,1.0189228529839884,67.66055045871559
02129,Suffolk County,MA,NA,62.73653566229985,77.29357798165137
02130,Suffolk County,MA,9.505703422053232,1.7467248908296942,NA
02132,Suffolk County,MA,NA,16.73944687045124,6.192660550458716
02135,Suffolk County,MA,5.513307984790875,NA,NA
02136,Suffolk County,MA,NA,5.094614264919942,NA
02139,Middlesex County,MA,0.38022813688212925,NA,NA
02150,Suffolk County,MA,12.927756653992395,NA,NA
02151,Suffolk County,MA,NA,NA,5.5045871559633035
02152,Suffolk County,MA,NA,8.005822416302767,NA
02169,Norfolk County,MA,0.5703422053231939,NA,NA
02171,Norfolk County,MA,NA,54.14847161572053,NA
02176,Middlesex County,MA,8.555133079847907,NA,NA
02180,Middlesex County,MA,NA,23.28966521106259,NA
02184,Norfolk County,MA,NA,8.151382823871907,NA
02186,Norfolk County,MA,NA,27.510917030567683,NA
02190,Norfolk County,MA,25.665399239543724,NA,NA
02301,Plymouth County,MA,0,NA,NA
02333,Plymouth County,MA,NA,NA,78.21100917431193
02360,Plymouth County,MA,NA,NA,0.22935779816513763
02420,Middlesex County,MA,NA,58.660844250363894,48.1651376146789
02421,Middlesex County,MA,NA,38.719068413391554,NA
02446,Norfolk County,MA,17.300380228136884,NA,NA
02451,Middlesex County,MA,NA,53.42066957787481,NA
02458,Middlesex County,MA,46.00760456273764,NA,NA
02459,Middlesex County,MA,84.9809885931559,NA,13.761467889908257
02460,Middlesex County,MA,NA,96.94323144104804,NA
02468,Middlesex County,MA,88.78326996197718,NA,NA
02472,Middlesex County,MA,7.984790874524715,NA,NA
02474,Middlesex County,MA,76.99619771863118,26.200873362445414,NA
02476,Middlesex County,MA,35.741444866920155,NA,44.26605504587156
02478,Middlesex County,MA,NA,NA,40.596330275229356
02482,Norfolk County,MA,NA,76.85589519650655,NA
02494,Norfolk County,MA,NA,NA,47.477064220183486
02540,Barnstable County,MA,NA,NA,36.46788990825688
02559,Barnstable County,MA,NA,86.60844250363901,NA
02632,Barnstable County,MA,NA,49.053857350800584,NA
02645,Barnstable County,MA,NA,63.901018922852984,NA
02703,Bristol County,MA,1.3307984790874523,NA,NA
02718,Bristol County,MA,NA,77.00145560407569,NA
02720,Bristol County,MA,0.19011406844106463,NA,NA
02740,Bristol County,MA,NA,NA,0
02766,Bristol County,MA,NA,9.170305676855897,NA
48009,Oakland County,MI,51.33079847908745,NA,NA
48023,St. Clair County,MI,93.34600760456274,NA,NA
48033,Oakland County,MI,NA,NA,22.477064220183486
48034,Oakland County,MI,NA,94.75982532751091,NA
48038,Macomb County,MI,NA,4.9490538573508,NA
48042,Macomb County,MI,20.15209125475285,NA,NA
48044,Macomb County,MI,NA,6.259097525473072,NA
48045,Macomb County,MI,NA,16.885007278020378,NA
48054,St. Clair County,MI,90.68441064638783,NA,NA
48062,Macomb County,MI,81.93916349809885,NA,NA
48065,Macomb County,MI,74.33460076045627,NA,NA
48080,Macomb County,MI,NA,14.847161572052403,63.30275229357798
48085,Oakland County,MI,NA,30.42212518195051,NA
48092,Macomb County,MI,27.186311787072242,NA,NA
48094,Macomb County,MI,NA,50.21834061135371,NA
48103,Washtenaw County,MI,NA,1.1644832605531297,NA
48108,Washtenaw County,MI,NA,33.9155749636099,NA
48111,Wayne County,MI,26.61596958174905,NA,NA
48114,Livingston County,MI,NA,28.82096069868996,NA
48125,Wayne County,MI,NA,48.47161572052402,NA
48127,Wayne County,MI,NA,54.73071324599709,8.256880733944955
48130,Washtenaw County,MI,NA,NA,46.330275229357795
48150,Wayne County,MI,59.885931558935354,71.90684133915575,NA
48167,Oakland County,MI,NA,27.802037845705968,NA
48168,Wayne County,MI,NA,83.11499272197962,NA
48170,Wayne County,MI,14.068441064638785,3.056768558951965,NA
48174,Wayne County,MI,NA,NA,42.43119266055046
48178,Oakland County,MI,30.988593155893536,NA,58.48623853211009
48184,Wayne County,MI,NA,NA,42.201834862385326
48185,Wayne County,MI,42.77566539923954,NA,9.403669724770642
48187,Wayne County,MI,11.216730038022813,2.7656477438136826,NA
48220,Oakland County,MI,44.67680608365019,NA,NA
48221,Wayne County,MI,NA,NA,20.871559633027523
48236,Wayne County,MI,28.32699619771863,48.180494905385736,NA
48238,Wayne County,MI,NA,18.19505094614265,NA
48307,Oakland County,MI,NA,22.561863173216885,NA
48314,Macomb County,MI,71.48288973384031,NA,25.91743119266055
48315,Macomb County,MI,NA,20.087336244541483,NA
48323,Oakland County,MI,NA,NA,71.10091743119266
48331,Oakland County,MI,68.06083650190115,NA,NA
48341,Oakland County,MI,NA,44.395924308588064,NA
48348,Oakland County,MI,34.22053231939163,NA,NA
48371,Oakland County,MI,NA,47.74381368267831,NA
48377,Oakland County,MI,NA,NA,32.56880733944954
48386,Oakland County,MI,NA,72.19796215429403,NA
48423,Genesee County,MI,NA,22.852983988355167,42.6605504587156
48446,Lapeer County,MI,NA,25.76419213973799,NA
48602,Saginaw County,MI,5.323193916349809,NA,NA
48642,Midland County,MI,NA,7.714701601164483,NA
49014,Calhoun County,MI,NA,NA,29.587155963302752
49017,Calhoun County,MI,27.376425855513308,NA,NA
49046,Barry County,MI,NA,90.97525473071325,NA
49048,Kalamazoo County,MI,16.159695817490494,65.06550218340611,NA
49068,Calhoun County,MI,55.32319391634981,NA,NA
49087,Kalamazoo County,MI,90.8745247148289,NA,NA
49098,Berrien County,MI,NA,81.22270742358079,NA
49265,Lenawee County,MI,NA,85.44395924308587,NA
49304,Lake County,MI,NA,88.79184861717613,NA
49345,Kent County,MI,NA,56.477438136826784,NA
49412,Newaygo County,MI,NA,57.49636098981077,NA
49428,Ottawa County,MI,52.47148288973384,NA,NA
49442,Muskegon County,MI,4.942965779467681,NA,NA
49457,Muskegon County,MI,70.15209125475285,NA,NA
49461,Muskegon County,MI,NA,86.46288209606988,NA
49505,Kent County,MI,21.102661596958175,NA,NA
49509,Kent County,MI,NA,18.486171761280932,NA
49601,Wexford County,MI,45.627376425855516,NA,NA
49684,Grand Traverse County,MI,NA,29.112081513828237,NA
49685,Grand Traverse County,MI,52.661596958174904,NA,NA
49686,Grand Traverse County,MI,NA,27.219796215429405,NA
49696,Grand Traverse County,MI,74.52471482889734,NA,NA
49707,Alpena County,MI,28.13688212927757,21.83406113537118,NA
49740,Emmet County,MI,NA,61.863173216885,NA
49935,Iron County,MI,NA,65.93886462882097,NA
55011,Anoka County,MN,NA,88.64628820960698,NA
55024,Dakota County,MN,50.38022813688213,NA,NA
55106,Ramsey County,MN,7.604562737642586,NA,NA
55129,Washington County,MN,71.67300380228137,NA,NA
55350,McLeod County,MN,NA,33.33333333333333,NA
55379,Scott County,MN,24.334600760456272,NA,NA
55422,Hennepin County,MN,98.09885931558935,NA,NA
55719,St. Louis County,MN,NA,NA,82.79816513761467
55720,Carlton County,MN,NA,NA,75
55792,St. Louis County,MN,NA,NA,24.08256880733945
55803,St. Louis County,MN,NA,66.8122270742358,35.55045871559633
55804,St. Louis County,MN,NA,NA,22.706422018348622
55808,St. Louis County,MN,NA,NA,89.6788990825688
55811,St. Louis County,MN,NA,5.240174672489083,NA
55912,Mower County,MN,NA,4.2212518195050945,NA
55987,Winona County,MN,NA,23.580786026200872,NA
56013,Faribault County,MN,NA,81.80494905385734,NA
56267,Stevens County,MN,95.62737642585552,NA,NA
56377,Stearns County,MN,NA,84.86171761280931,NA
56501,Becker County,MN,NA,NA,19.26605504587156
56537,Otter Tail County,MN,NA,9.8981077147016,NA
56573,Otter Tail County,MN,84.4106463878327,NA,NA
56701,Pennington County,MN,17.680608365019012,26.346433770014556,NA
56721,Polk County,MN,77.56653992395437,NA,35.55045871559633
56751,Roseau County,MN,88.40304182509506,NA,NA
38637,DeSoto County,MS,NA,79.1848617176128,NA
38671,DeSoto County,MS,87.45247148288973,NA,NA
39038,Humphreys County,MS,93.91634980988593,NA,NA
39042,Rankin County,MS,32.129277566539926,NA,NA
39110,Madison County,MS,NA,60.698689956331876,NA
39154,Hinds County,MS,NA,95.19650655021834,89.90825688073394
39208,Rankin County,MS,NA,NA,27.293577981651374
39211,Hinds County,MS,NA,70.59679767103349,NA
39328,Kemper County,MS,NA,96.06986899563319,NA
39350,Neshoba County,MS,NA,32.314410480349345,NA
39402,Lamar County,MS,63.68821292775665,NA,NA
39466,Pearl River County,MS,NA,NA,20.642201834862387
39501,Harrison County,MS,NA,19.068413391557495,NA
39520,Hancock County,MS,NA,NA,57.3394495412844
39573,Stone County,MS,NA,80.9315866084425,NA
63114,St. Louis County,MO,NA,32.1688500727802,NA
63122,St. Louis County,MO,57.22433460076045,NA,NA
63136,St. Louis County,MO,8.365019011406844,NA,NA
63303,St. Charles County,MO,NA,12.081513828238718,NA
63304,St. Charles County,MO,NA,NA,18.11926605504587
63435,Lewis County,MO,98.28897338403041,NA,NA
63703,Cape Girardeau County,MO,NA,89.3740902474527,NA
64029,Jackson County,MO,36.88212927756654,NA,NA
64067,Lafayette County,MO,86.50190114068441,NA,NA
64068,Clay County,MO,NA,7.423580786026202,NA
64083,Cass County,MO,NA,40.174672489082965,NA
64089,Clay County,MO,53.041825095057035,NA,NA
64114,Jackson County,MO,NA,NA,34.403669724770644
64119,Clay County,MO,NA,21.688500727802037,NA
64129,Jackson County,MO,NA,72.48908296943232,NA
64131,Jackson County,MO,NA,36.24454148471616,NA
64132,Jackson County,MO,NA,NA,78.44036697247707
64137,Jackson County,MO,NA,90.24745269286754,NA
64152,Platte County,MO,17.490494296577946,NA,NA
64155,Clay County,MO,20.722433460076044,NA,NA
64503,Buchanan County,MO,NA,NA,46.559633027522935
64505,Buchanan County,MO,NA,25.181950509461426,NA
64506,Buchanan County,MO,NA,NA,0.9174311926605505
64601,Livingston County,MO,NA,NA,86.46788990825688
64776,St. Clair County,MO,NA,NA,75.68807339449542
65043,Callaway County,MO,NA,83.69723435225619,NA
65201,Boone County,MO,NA,NA,53.44036697247706
65265,Audrain County,MO,57.414448669201526,NA,NA
65340,Saline County,MO,NA,NA,73.1651376146789
65355,Benton County,MO,NA,21.397379912663755,NA
65803,Greene County,MO,NA,45.70596797671033,NA
59068,Carbon County,MT,NA,95.0509461426492,NA
59072,Musselshell County,MT,NA,84.13391557496361,NA
59101,Yellowstone County,MT,NA,NA,79.12844036697247
59102,Yellowstone County,MT,NA,76.7103347889374,15.137614678899084
59405,Cascade County,MT,NA,NA,9.174311926605505
59457,Fergus County,MT,NA,77.43813682678311,NA
59501,Hill County,MT,NA,94.32314410480349,NA
59634,Jefferson County,MT,NA,NA,92.88990825688074
59937,Flathead County,MT,NA,69.14119359534206,NA
68152,Douglas County,NE,NA,NA,84.17431192660551
68164,Douglas County,NE,NA,NA,70.18348623853211
69337,Dawes County,NE,NA,NA,99.31192660550458
89121,Clark County,NV,NA,NA,34.63302752293578
89451,Washoe County,NV,NA,NA,88.9908256880734
89815,Elko County,NV,81.55893536121674,NA,NA
03031,Hillsborough County,NH,NA,64.62882096069869,NA
03076,Hillsborough County,NH,42.96577946768061,NA,NA
03077,Rockingham County,NH,NA,NA,90.59633027522935
03079,Rockingham County,NH,14.82889733840304,NA,NA
03104,Hillsborough County,NH,NA,NA,28.899082568807337
03222,Grafton County,NH,NA,NA,94.4954128440367
03249,Belknap County,NH,88.97338403041825,NA,72.24770642201835
03301,Merrimack County,NH,15.779467680608365,NA,NA
03576,Coos County,NH,NA,93.44978165938865,NA
03753,Sullivan County,NH,99.42965779467681,NA,NA
03824,Strafford County,NH,NA,80.64046579330422,NA
03841,Rockingham County,NH,NA,NA,86.23853211009175
03842,Rockingham County,NH,NA,NA,66.28440366972477
03865,Rockingham County,NH,65.20912547528516,NA,NA
07026,Bergen County,NJ,NA,31.004366812227076,NA
07055,Passaic County,NJ,NA,23.726346433770015,NA
07078,Essex County,NJ,NA,91.12081513828238,NA
07106,Essex County,NJ,6.4638783269961975,NA,NA
07110,Essex County,NJ,73.00380228136882,NA,NA
07456,Passaic County,NJ,88.97338403041825,NA,NA
07480,Passaic County,NJ,NA,89.22852983988355,NA
07481,Bergen County,NJ,70.72243346007605,NA,NA
07605,Bergen County,NJ,NA,99.70887918486171,NA
07649,Bergen County,NJ,NA,98.83551673944687,NA
07670,Bergen County,NJ,NA,93.88646288209607,NA
07676,Bergen County,NJ,NA,92.13973799126637,NA
07840,Warren County,NJ,NA,65.50218340611353,NA
07960,Morris County,NJ,NA,NA,97.24770642201835
07974,Union County,NJ,NA,93.01310043668121,NA
08033,Camden County,NJ,NA,61.71761280931587,NA
08204,Cape May County,NJ,NA,58.22416302765647,82.56880733944955
08721,Ocean County,NJ,22.623574144486692,NA,NA
08723,Ocean County,NJ,NA,22.99854439592431,NA
08750,Monmouth County,NJ,NA,96.65211062590974,NA
08846,Middlesex County,NJ,67.68060836501901,NA,NA
87031,Valencia County,NM,NA,64.19213973799127,NA
87102,Bernalillo County,NM,NA,97.96215429403202,NA
87111,Bernalillo County,NM,NA,12.518195050946144,NA
87557,Taos County,NM,NA,99.41775836972343,NA
87571,Taos County,NM,NA,49.927219796215425,NA
87701,San Miguel County,NM,NA,NA,48.853211009174316
88005,Doa Ana County,NM,NA,41.04803493449782,NA
10010,New York County,NY,NA,NA,50.917431192660544
10016,New York County,NY,33.26996197718631,NA,NA
10019,New York County,NY,NA,NA,24.770642201834864
10022,New York County,NY,NA,NA,26.376146788990823
10028,New York County,NY,NA,33.624454148471614,NA
10029,New York County,NY,0.7604562737642585,NA,NA
10030,New York County,NY,NA,29.985443959243085,NA
10305,Richmond County,NY,17.110266159695815,NA,NA
10314,Richmond County,NY,NA,4.366812227074235,NA
10451,Bronx County,NY,NA,6.404657933042213,NA
10453,Bronx County,NY,1.1406844106463878,NA,NA
10454,Bronx County,NY,NA,5.676855895196507,NA
10458,Bronx County,NY,NA,0.2911208151382824,NA
10461,Bronx County,NY,NA,19.359534206695777,NA
10465,Bronx County,NY,90.49429657794677,NA,NA
10466,Bronx County,NY,19.20152091254753,NA,NA
10475,Bronx County,NY,22.433460076045627,NA,NA
10509,Putnam County,NY,NA,57.64192139737992,NA
10550,Westchester County,NY,NA,24.308588064046578,NA
11206,Kings County,NY,3.802281368821293,NA,NA
11207,Kings County,NY,NA,NA,12.385321100917432
11216,Kings County,NY,11.787072243346007,NA,NA
11417,Queens County,NY,49.23954372623574,NA,NA
11518,Nassau County,NY,NA,85.29839883551674,NA
11530,Nassau County,NY,86.69201520912547,NA,NA
11550,Nassau County,NY,12.357414448669202,NA,NA
11570,Nassau County,NY,NA,58.515283842794766,NA
11706,Suffolk County,NY,NA,NA,55.73394495412845
11716,Suffolk County,NY,NA,91.70305676855895,NA
11720,Suffolk County,NY,NA,NA,30.275229357798167
11731,Suffolk County,NY,80.22813688212928,NA,NA
11743,Suffolk County,NY,NA,49.63609898107715,NA
11755,Suffolk County,NY,NA,89.95633187772926,NA
11782,Suffolk County,NY,94.86692015209125,NA,NA
11784,Suffolk County,NY,88.02281368821293,NA,NA
11787,Suffolk County,NY,NA,68.5589519650655,NA
11951,Suffolk County,NY,67.49049429657795,NA,NA
12051,Greene County,NY,NA,97.08879184861718,NA
12078,Fulton County,NY,NA,9.461426491994178,NA
12090,Rensselaer County,NY,NA,78.16593886462883,NA
12134,Fulton County,NY,NA,NA,86.46788990825688
12203,Albany County,NY,NA,NA,39.22018348623853
12538,Dutchess County,NY,NA,NA,54.357798165137616
12804,Warren County,NY,NA,10.480349344978166,NA
12831,Saratoga County,NY,45.05703422053232,NA,NA
12866,Saratoga County,NY,NA,10.189228529839884,41.74311926605505
12901,Clinton County,NY,NA,NA,37.61467889908257
12919,Clinton County,NY,92.77566539923954,NA,NA
12946,Essex County,NY,NA,NA,91.5137614678899
12953,Franklin County,NY,16.34980988593156,20.232896652110625,NA
12986,Franklin County,NY,93.72623574144487,NA,NA
13021,Cayuga County,NY,4.752851711026616,NA,NA
13057,Onondaga County,NY,87.6425855513308,NA,NA
13069,Oswego County,NY,6.844106463878327,NA,NA
13073,Tompkins County,NY,NA,98.2532751091703,NA
13077,Cortland County,NY,NA,65.93886462882097,NA
13082,Madison County,NY,NA,91.41193595342067,NA
13126,Oswego County,NY,NA,6.841339155749636,NA
13142,Oswego County,NY,NA,95.77874818049492,NA
13165,Seneca County,NY,24.714828897338403,NA,NA
13209,Onondaga County,NY,NA,NA,72.47706422018348
13215,Onondaga County,NY,NA,78.60262008733623,NA
13343,Lewis County,NY,NA,97.67103347889375,NA
13346,Madison County,NY,65.5893536121673,NA,NA
13365,Herkimer County,NY,NA,66.52110625909754,NA
13408,Madison County,NY,94.48669201520913,NA,NA
13440,Oneida County,NY,2.6615969581749046,NA,NA
13460,Chenango County,NY,49.619771863117876,NA,NA
13491,Herkimer County,NY,84.22053231939164,NA,NA
13601,Jefferson County,NY,NA,NA,16.972477064220186
13617,St. Lawrence County,NY,NA,35.80786026200873,NA
13733,Chenango County,NY,94.29657794676805,NA,NA
13801,Chenango County,NY,NA,96.50655021834062,NA
13815,Chenango County,NY,14.258555133079847,NA,NA
13820,Otsego County,NY,10.836501901140684,NA,16.743119266055047
13850,Broome County,NY,15.399239543726237,4.512372634643377,NA
13901,Broome County,NY,NA,NA,14.678899082568808
13905,Broome County,NY,2.2813688212927756,NA,NA
14001,Erie County,NY,NA,NA,85.3211009174312
14020,Genesee County,NY,NA,14.264919941775837,NA
14047,Erie County,NY,NA,73.5080058224163,NA
14048,Chautauqua County,NY,34.98098859315589,42.79475982532751,94.95412844036697
14051,Erie County,NY,39.163498098859314,NA,NA
14059,Erie County,NY,68.8212927756654,NA,NA
14063,Chautauqua County,NY,NA,48.03493449781659,NA
14075,Erie County,NY,NA,5.9679767103347885,NA
14094,Niagara County,NY,2.8517110266159698,2.1834061135371177,NA
14120,Niagara County,NY,6.083650190114068,NA,NA
14216,Erie County,NY,25.475285171102662,NA,NA
14218,Erie County,NY,NA,42.21251819505095,NA
14225,Erie County,NY,NA,17.612809315866084,NA
14227,Erie County,NY,55.893536121673,NA,NA
14411,Orleans County,NY,24.904942965779465,NA,NA
14425,Ontario County,NY,NA,27.365356622998544,NA
14456,Ontario County,NY,NA,NA,45.87155963302752
14472,Monroe County,NY,NA,31.4410480349345,NA
14489,Wayne County,NY,NA,NA,52.522935779816514
14504,Ontario County,NY,90.30418250950571,NA,NA
14512,Ontario County,NY,73.19391634980988,NA,NA
14526,Monroe County,NY,43.72623574144487,NA,NA
14534,Monroe County,NY,NA,NA,3.89908256880734
14559,Monroe County,NY,NA,NA,32.11009174311927
14586,Monroe County,NY,NA,NA,83.71559633027523
14616,Monroe County,NY,4.562737642585551,NA,NA
14625,Monroe County,NY,NA,45.56040756914119,NA
14626,Monroe County,NY,4.3726235741444865,NA,NA
14772,Cattaraugus County,NY,NA,96.79767103347889,NA
27018,Yadkin County,NC,NA,NA,51.37614678899083
27030,Surry County,NC,74.7148288973384,15.72052401746725,NA
27040,Forsyth County,NC,68.25095057034221,NA,NA
27052,Stokes County,NC,NA,59.09752547307132,NA
27103,Forsyth County,NC,NA,59.82532751091703,NA
27105,Forsyth County,NC,3.4220532319391634,NA,NA
27106,Forsyth County,NC,61.21673003802282,44.10480349344978,NA
27107,Forsyth County,NC,NA,3.9301310043668125,NA
27127,Forsyth County,NC,NA,4.657933042212519,56.19266055045872
27278,Orange County,NC,19.771863117870723,NA,NA
27284,Forsyth County,NC,26.425855513307983,NA,2.522935779816514
27292,Davidson County,NC,NA,0.8733624454148471,NA
27295,Davidson County,NC,NA,3.2023289665211063,NA
27302,Alamance County,NC,NA,13.828238719068414,NA
27376,Moore County,NC,NA,82.09606986899564,NA
27502,Wake County,NC,60.836501901140686,NA,NA
27504,Johnston County,NC,NA,61.135371179039296,NA
27517,Orange County,NC,NA,29.54876273653566,NA
27522,Granville County,NC,74.90494296577947,NA,NA
27527,Johnston County,NC,NA,78.31149927219796,NA
27574,Person County,NC,64.82889733840305,NA,NA
27603,Wake County,NC,19.581749049429657,NA,NA
27614,Wake County,NC,NA,37.26346433770015,NA
27615,Wake County,NC,38.40304182509506,NA,NA
27703,Durham County,NC,35.361216730038024,11.353711790393014,NA
27705,Durham County,NC,19.39163498098859,13.537117903930133,NA
27707,Durham County,NC,NA,NA,56.88073394495413
27713,Durham County,NC,21.673003802281368,NA,NA
27806,Beaufort County,NC,100,NA,NA
27983,Bertie County,NC,NA,82.96943231441048,NA
28027,Cabarrus County,NC,16.920152091254753,NA,NA
28052,Gaston County,NC,23.76425855513308,NA,NA
28054,Gaston County,NC,NA,28.529839883551674,NA
28105,Mecklenburg County,NC,NA,75.69141193595343,NA
28270,Mecklenburg County,NC,59.50570342205324,NA,NA
28277,Mecklenburg County,NC,39.353612167300376,NA,NA
28409,New Hanover County,NC,37.6425855513308,NA,NA
28461,Brunswick County,NC,NA,35.95342066957787,NA
28539,Onslow County,NC,NA,95.34206695778748,NA
28607,Watauga County,NC,NA,38.28238719068413,NA
28625,Iredell County,NC,NA,19.7962154294032,NA
28645,Caldwell County,NC,NA,0.5822416302765648,NA
28651,Wilkes County,NC,82.31939163498099,NA,NA
28655,Burke County,NC,NA,NA,11.009174311926607
28732,Henderson County,NC,NA,NA,86.92660550458714
28739,Henderson County,NC,NA,64.77438136826783,12.155963302752294
28787,Buncombe County,NC,NA,71.76128093158661,NA
28791,Henderson County,NC,NA,29.694323144104807,NA
28906,Cherokee County,NC,NA,30.131004366812224,NA
58103,Cass County,ND,NA,2.3289665211062593,NA
58104,Cass County,ND,NA,12.22707423580786,23.853211009174313
58201,Grand Forks County,ND,76.04562737642586,NA,18.34862385321101
58301,Ramsey County,ND,NA,NA,66.97247706422019
58401,Stutsman County,ND,NA,NA,45.18348623853211
58504,Burleigh County,ND,NA,NA,19.954128440366972
58701,Ward County,ND,11.406844106463879,NA,NA
58703,Ward County,ND,40.49429657794677,43.37700145560407,NA
43026,Franklin County,OH,18.06083650190114,NA,NA
43135,Hocking County,OH,NA,98.10771470160117,NA
43160,Fayette County,OH,13.688212927756654,NA,NA
43212,Franklin County,OH,92.01520912547528,NA,NA
43224,Franklin County,OH,NA,15.429403202328967,NA
43452,Ottawa County,OH,NA,NA,49.54128440366973
43537,Lucas County,OH,NA,NA,64.22018348623854
43606,Lucas County,OH,NA,79.47598253275109,NA
43713,Belmont County,OH,58.36501901140685,NA,NA
43906,Belmont County,OH,NA,74.5269286754003,NA
43938,Jefferson County,OH,NA,67.97671033478893,NA
43952,Jefferson County,OH,NA,11.06259097525473,NA
43953,Jefferson County,OH,64.82889733840305,NA,NA
44001,Lorain County,OH,26.045627376425855,NA,8.715596330275229
44011,Lorain County,OH,27.566539923954377,NA,NA
44012,Lorain County,OH,NA,7.132459970887918,NA
44017,Cuyahoga County,OH,33.65019011406844,NA,NA
44023,Geauga County,OH,88.59315589353612,84.71615720524017,NA
44028,Lorain County,OH,83.07984790874525,NA,NA
44035,Lorain County,OH,NA,0,NA
44039,Lorain County,OH,8.935361216730039,NA,NA
44044,Lorain County,OH,NA,NA,93.11926605504587
44052,Lorain County,OH,NA,1.8922852983988356,NA
44053,Lorain County,OH,NA,NA,5.963302752293578
44056,Summit County,OH,NA,55.604075691411936,NA
44060,Lake County,OH,7.79467680608365,7.860262008733625,NA
44074,Lorain County,OH,NA,NA,53.899082568807344
44081,Lake County,OH,NA,79.33042212518195,NA
44092,Lake County,OH,NA,NA,12.614678899082568
44095,Lake County,OH,NA,NA,5.275229357798166
44102,Cuyahoga County,OH,NA,19.50509461426492,47.24770642201835
44107,Cuyahoga County,OH,NA,22.270742358078603,NA
44108,Cuyahoga County,OH,4.182509505703422,NA,NA
44109,Cuyahoga County,OH,NA,1.455604075691412,NA
44110,Cuyahoga County,OH,NA,37.409024745269285,NA
44111,Cuyahoga County,OH,NA,54.29403202328966,NA
44112,Cuyahoga County,OH,9.315589353612168,NA,NA
44116,Cuyahoga County,OH,NA,NA,6.422018348623854
44119,Cuyahoga County,OH,84.03041825095056,NA,NA
44123,Cuyahoga County,OH,NA,25.036390101892287,NA
44124,Cuyahoga County,OH,22.24334600760456,NA,NA
44125,Cuyahoga County,OH,NA,9.606986899563319,NA
44130,Cuyahoga County,OH,5.893536121673003,61.42649199417758,NA
44134,Cuyahoga County,OH,29.467680608365022,2.037845705967977,4.128440366972478
44136,Cuyahoga County,OH,60.26615969581749,NA,NA
44138,Cuyahoga County,OH,NA,24.745269286754006,23.623853211009173
44139,Cuyahoga County,OH,NA,85.8806404657933,15.59633027522936
44140,Cuyahoga County,OH,NA,31.877729257641924,NA
44141,Cuyahoga County,OH,NA,56.91411935953421,72.70642201834863
44143,Cuyahoga County,OH,NA,14.556040756914118,38.99082568807339
44144,Cuyahoga County,OH,38.59315589353612,37.117903930131,44.95412844036697
44145,Cuyahoga County,OH,NA,4.8034934497816595,NA
44146,Cuyahoga County,OH,7.41444866920152,1.6011644832605532,56.65137614678899
44212,Medina County,OH,NA,0.727802037845706,NA
44224,Summit County,OH,19.011406844106464,NA,NA
44255,Portage County,OH,NA,NA,90.82568807339449
44256,Medina County,OH,NA,54.58515283842795,NA
44266,Portage County,OH,10.076045627376425,NA,NA
44305,Summit County,OH,13.878326996197718,NA,NA
44312,Summit County,OH,NA,NA,22.93577981651376
44313,Summit County,OH,NA,18.777292576419214,NA
44446,Trumbull County,OH,NA,17.46724890829694,16.055045871559635
44460,Columbiana County,OH,18.44106463878327,NA,NA
44512,Mahoning County,OH,NA,NA,16.51376146788991
44601,Stark County,OH,NA,NA,11.46788990825688
44672,Mahoning County,OH,87.26235741444867,NA,NA
44691,Wayne County,OH,8.555133079847907,NA,NA
44710,Stark County,OH,61.40684410646388,NA,NA
44720,Stark County,OH,26.23574144486692,20.52401746724891,NA
44820,Crawford County,OH,NA,11.790393013100436,NA
44830,Seneca County,OH,NA,32.02328966521107,NA
44839,Erie County,OH,NA,89.08296943231441,NA
45036,Warren County,OH,NA,61.572052401746724,NA
45069,Butler County,OH,20.342205323193916,NA,NA
45133,Highland County,OH,NA,NA,57.11009174311926
45177,Clinton County,OH,21.292775665399237,NA,NA
45230,Hamilton County,OH,NA,49.19941775836973,NA
45231,Hamilton County,OH,NA,NA,14.908256880733944
45240,Hamilton County,OH,NA,45.99708879184862,NA
45241,Hamilton County,OH,NA,38.57350800582242,NA
45320,Preble County,OH,NA,NA,41.51376146788991
45344,Clark County,OH,80.6083650190114,NA,NA
45356,Miami County,OH,NA,12.809315866084425,NA
45365,Shelby County,OH,12.737642585551331,NA,NA
45440,Montgomery County,OH,59.6958174904943,NA,NA
45449,Montgomery County,OH,32.88973384030418,NA,NA
45458,Montgomery County,OH,36.31178707224335,NA,NA
45601,Ross County,OH,0.9505703422053232,NA,8.027522935779817
45612,Ross County,OH,80.03802281368822,NA,NA
45623,Gallia County,OH,85.55133079847909,NA,NA
45631,Gallia County,OH,11.596958174904943,10.91703056768559,NA
45661,Pike County,OH,45.247148288973385,NA,NA
45690,Pike County,OH,NA,17.903930131004365,27.06422018348624
45692,Jackson County,OH,32.50950570342205,NA,NA
45694,Scioto County,OH,NA,57.35080058224163,NA
45764,Athens County,OH,NA,NA,91.05504587155964
45805,Allen County,OH,NA,27.65647743813683,NA
45807,Allen County,OH,NA,NA,51.146788990825684
45891,Van Wert County,OH,26.806083650190114,NA,NA
45895,Auglaize County,OH,NA,NA,98.39449541284404
73036,Canadian County,OK,NA,NA,62.15596330275229
73069,Cleveland County,OK,NA,66.8122270742358,NA
73159,Oklahoma County,OK,43.91634980988593,NA,NA
74010,Creek County,OK,NA,73.65356622998544,NA
74743,Choctaw County,OK,85.93155893536122,NA,NA
74804,Pottawatomie County,OK,NA,NA,38.07339449541284
97045,Clackamas County,OR,NA,11.790393013100436,NA
97062,Washington County,OR,56.84410646387833,NA,NA
97080,Multnomah County,OR,72.6235741444867,NA,NA
97089,Clackamas County,OR,79.27756653992395,NA,NA
97203,Multnomah County,OR,69.77186311787072,NA,NA
97206,Multnomah County,OR,NA,24.308588064046578,NA
97213,Multnomah County,OR,34.4106463878327,NA,NA
97214,Multnomah County,OR,71.10266159695817,NA,NA
97224,Washington County,OR,52.661596958174904,NA,29.128440366972473
97233,Multnomah County,OR,NA,NA,55.27522935779816
97239,Multnomah County,OR,NA,NA,61.00917431192661
97330,Benton County,OR,NA,NA,21.55963302752294
97355,Linn County,OR,NA,5.385735080058224,NA
97426,Lane County,OR,NA,NA,63.07339449541285
97470,Douglas County,OR,62.547528517110266,NA,NA
97471,Douglas County,OR,15.96958174904943,6.11353711790393,NA
97496,Douglas County,OR,NA,68.99563318777294,NA
97539,Jackson County,OR,NA,90.68413391557496,NA
97630,Lake County,OR,NA,NA,97.93577981651376
97838,Umatilla County,OR,NA,18.049490538573508,NA
97850,Union County,OR,37.452471482889734,NA,NA
15022,Washington County,PA,78.32699619771863,NA,NA
15044,Allegheny County,PA,NA,53.275109170305676,NA
15068,Westmoreland County,PA,NA,NA,3.4403669724770642
15120,Allegheny County,PA,NA,NA,70.87155963302753
15201,Allegheny County,PA,NA,50.94614264919942,71.78899082568807
15202,Allegheny County,PA,NA,71.03347889374089,NA
15209,Allegheny County,PA,NA,NA,55.96330275229357
15210,Allegheny County,PA,NA,NA,50.68807339449541
15217,Allegheny County,PA,NA,57.20524017467249,NA
15342,Washington County,PA,88.212927756654,NA,NA
15401,Fayette County,PA,NA,NA,10.091743119266056
15425,Fayette County,PA,NA,24.017467248908297,NA
15801,Clearfield County,PA,NA,NA,2.293577981651376
15851,Jefferson County,PA,NA,57.64192139737992,NA
15906,Cambria County,PA,NA,NA,80.5045871559633
16053,Butler County,PA,NA,NA,89.44954128440367
16066,Butler County,PA,NA,40.46579330422125,NA
16214,Clarion County,PA,72.43346007604563,NA,NA
16335,Crawford County,PA,35.17110266159696,10.043668122270741,NA
16365,Warren County,PA,NA,NA,30.963302752293576
16701,McKean County,PA,NA,59.53420669577875,20.412844036697248
16749,McKean County,PA,NA,83.55167394468704,NA
16801,Centre County,PA,NA,30.858806404657933,48.62385321100918
16803,Centre County,PA,NA,NA,75.45871559633028
16823,Centre County,PA,NA,17.17612809315866,NA
17003,Lebanon County,PA,NA,76.27365356622998,NA
17004,Mifflin County,PA,NA,97.81659388646288,NA
17011,Cumberland County,PA,23.574144486692013,NA,NA
17022,Lancaster County,PA,NA,NA,16.28440366972477
17033,Dauphin County,PA,NA,21.83406113537118,24.541284403669724
17036,Dauphin County,PA,20.912547528517113,NA,26.605504587155966
17040,Perry County,PA,99.42965779467681,NA,NA
17046,Lebanon County,PA,10.646387832699618,NA,NA
17050,Cumberland County,PA,NA,10.334788937409025,NA
17055,Cumberland County,PA,75.09505703422053,NA,NA
17057,Dauphin County,PA,NA,51.96506550218341,NA
17065,Cumberland County,PA,91.63498098859316,NA,NA
17078,Lebanon County,PA,NA,11.644832605531295,NA
17104,Dauphin County,PA,NA,37.99126637554585,NA
17110,Dauphin County,PA,15.019011406844108,NA,45.412844036697244
17111,Dauphin County,PA,NA,6.986899563318777,NA
17202,Franklin County,PA,NA,18.486171761280932,NA
17233,Fulton County,PA,NA,82.53275109170306,NA
17257,Cumberland County,PA,NA,NA,71.55963302752293
17268,Franklin County,PA,NA,58.369723435225616,NA
17319,York County,PA,NA,NA,87.8440366972477
17601,Lancaster County,PA,32.31939163498099,NA,NA
17701,Lycoming County,PA,NA,5.822416302765648,34.174311926605505
17728,Lycoming County,PA,86.12167300380229,NA,NA
17745,Clinton County,PA,NA,74.09024745269286,NA
17801,Northumberland County,PA,NA,NA,68.57798165137615
17815,Columbia County,PA,NA,43.085880640465795,NA
17963,Schuylkill County,PA,NA,NA,85.09174311926606
18073,Montgomery County,PA,75.66539923954373,NA,NA
18103,Lehigh County,PA,NA,52.69286754002911,NA
18202,Luzerne County,PA,45.43726235741445,NA,NA
18301,Monroe County,PA,NA,NA,71.3302752293578
18603,Columbia County,PA,NA,19.213973799126638,NA
18635,Luzerne County,PA,96.95817490494296,NA,NA
18706,Luzerne County,PA,NA,NA,38.07339449541284
18707,Luzerne County,PA,56.083650190114064,NA,NA
18914,Bucks County,PA,NA,81.6593886462882,NA
18966,Bucks County,PA,NA,43.8136826783115,NA
18977,Bucks County,PA,NA,87.19068413391557,NA
19006,Montgomery County,PA,NA,NA,44.4954128440367
19013,Delaware County,PA,5.133079847908745,NA,NA
19018,Delaware County,PA,59.31558935361216,NA,NA
19021,Bucks County,PA,NA,74.81804949053857,NA
19040,Montgomery County,PA,NA,NA,31.880733944954127
19046,Montgomery County,PA,43.346007604562736,NA,NA
19056,Bucks County,PA,NA,60.55312954876274,NA
19063,Delaware County,PA,NA,12.954876273653564,83.94495412844036
19064,Delaware County,PA,NA,NA,43.11926605504588
19066,Montgomery County,PA,NA,94.61426491994177,NA
19067,Bucks County,PA,50,36.972343522561864,NA
19082,Delaware County,PA,NA,NA,96.10091743119266
19087,Chester County,PA,NA,NA,73.39449541284404
19090,Montgomery County,PA,NA,NA,81.42201834862385
19103,Philadelphia County,PA,NA,24.163027656477436,NA
19116,Philadelphia County,PA,NA,48.7627365356623,NA
19120,Philadelphia County,PA,NA,6.550218340611353,NA
19139,Philadelphia County,PA,69.01140684410646,NA,NA
19144,Philadelphia County,PA,NA,NA,21.100917431192663
19312,Chester County,PA,NA,NA,54.81651376146789
19320,Chester County,PA,10.456273764258556,NA,NA
19335,Chester County,PA,47.90874524714829,NA,NA
19348,Chester County,PA,NA,NA,32.3394495412844
19350,Chester County,PA,NA,NA,92.66055045871559
19352,Chester County,PA,87.83269961977186,NA,NA
19355,Chester County,PA,NA,43.23144104803494,NA
19382,Chester County,PA,63.11787072243346,8.879184861717611,NA
19401,Montgomery County,PA,9.885931558935361,NA,NA
19428,Montgomery County,PA,NA,69.86899563318777,NA
19460,Chester County,PA,79.84790874524715,NA,NA
19465,Chester County,PA,NA,NA,67.43119266055045
02814,Providence County,RI,80.41825095057035,NA,NA
02864,Providence County,RI,23.38403041825095,NA,NA
02865,Providence County,RI,NA,58.07860262008734,NA
02886,Kent County,RI,NA,24.745269286754006,NA
02915,Providence County,RI,NA,53.85735080058224,NA
29073,Lexington County,SC,19.771863117870723,NA,NA
29414,Charleston County,SC,NA,NA,32.798165137614674
29418,Charleston County,SC,NA,93.59534206695778,NA
29455,Charleston County,SC,NA,NA,72.93577981651376
29456,Dorchester County,SC,NA,75.9825327510917,NA
29464,Charleston County,SC,42.20532319391635,NA,NA
29526,Horry County,SC,NA,11.353711790393014,NA
29566,Horry County,SC,NA,51.2372634643377,NA
29642,Pickens County,SC,31.1787072243346,NA,NA
29841,Aiken County,SC,NA,89.66521106259097,NA
29909,Beaufort County,SC,NA,17.612809315866084,NA
29920,Beaufort County,SC,97.14828897338404,NA,NA
57006,Brookings County,SD,NA,NA,15.36697247706422
57042,Lake County,SD,NA,47.01601164483261,43.57798165137615
57105,Minnehaha County,SD,NA,12.372634643377003,7.568807339449542
57106,Minnehaha County,SD,NA,54.00291120815138,4.3577981651376145
57108,Lincoln County,SD,NA,21.251819505094613,8.256880733944955
57110,Minnehaha County,SD,NA,62.154294032023294,68.80733944954129
57350,Beadle County,SD,54.562737642585546,NA,NA
57702,Pennington County,SD,NA,NA,11.926605504587156
57747,Fall River County,SD,NA,NA,66.05504587155964
57785,Meade County,SD,NA,95.48762736535662,NA
37073,Robertson County,TN,NA,NA,78.89908256880734
37160,Bedford County,TN,NA,NA,41.05504587155963
37421,Hamilton County,TN,NA,30.71324599708879,NA
37650,Unicoi County,TN,NA,46.288209606986904,NA
37854,Roane County,TN,NA,NA,77.98165137614679
38104,Shelby County,TN,NA,88.06404657933042,NA
38122,Shelby County,TN,NA,67.39446870451238,NA
38555,Cumberland County,TN,36.69201520912547,NA,NA
75040,Dallas County,TX,NA,NA,74.77064220183486
75068,Denton County,TX,NA,54.87627365356623,NA
75090,Grayson County,TX,46.19771863117871,NA,NA
75093,Collin County,TX,46.958174904942965,NA,NA
75137,Dallas County,TX,83.84030418250951,NA,NA
75216,Dallas County,TX,NA,NA,9.63302752293578
75407,Collin County,TX,61.97718631178707,NA,NA
75692,Harrison County,TX,NA,90.53857350800583,NA
75707,Smith County,TX,NA,NA,36.69724770642202
75757,Smith County,TX,NA,43.522561863173216,NA
75771,Smith County,TX,NA,NA,15.825688073394495
76011,Tarrant County,TX,53.80228136882129,NA,NA
76028,Johnson County,TX,12.167300380228136,NA,NA
76501,Bell County,TX,NA,34.78893740902475,NA
76502,Bell County,TX,NA,56.186317321688506,NA
76504,Bell County,TX,NA,2.6200873362445414,27.293577981651374
76513,Bell County,TX,NA,NA,12.844036697247708
76520,Milam County,TX,NA,73.94468704512373,33.94495412844037
76522,Coryell County,TX,NA,12.663755458515283,NA
76528,Coryell County,TX,NA,NA,78.6697247706422
76537,Williamson County,TX,97.52851711026615,NA,NA
76539,Lampasas County,TX,NA,82.24163027656476,NA
76541,Bell County,TX,NA,45.414847161572055,NA
76542,Bell County,TX,NA,NA,52.752293577981646
76567,Milam County,TX,NA,56.91411935953421,NA
76571,Bell County,TX,NA,NA,74.31192660550458
76574,Williamson County,TX,NA,NA,75.91743119266054
76655,McLennan County,TX,NA,NA,97.01834862385321
76904,Tom Green County,TX,NA,39.01018922852984,NA
77005,Harris County,TX,NA,55.167394468704515,NA
77007,Harris County,TX,52.09125475285171,NA,NA
77027,Harris County,TX,80.79847908745246,NA,NA
77059,Harris County,TX,94.10646387832699,NA,NA
77065,Harris County,TX,NA,43.522561863173216,NA
77079,Harris County,TX,NA,NA,52.981651376146786
77083,Harris County,TX,NA,28.529839883551674,NA
77091,Harris County,TX,53.61216730038023,NA,NA
77301,Montgomery County,TX,NA,NA,79.35779816513761
77327,Liberty County,TX,NA,NA,70.64220183486239
77356,Montgomery County,TX,65.77946768060836,NA,NA
77357,Montgomery County,TX,NA,71.03347889374089,NA
77379,Harris County,TX,NA,70.88791848617177,NA
77380,Montgomery County,TX,69.96197718631178,NA,NA
77384,Montgomery County,TX,NA,NA,65.59633027522935
77388,Harris County,TX,73.76425855513308,NA,NA
77406,Fort Bend County,TX,NA,31.149927219796215,NA
77418,Austin County,TX,NA,70.59679767103349,NA
77429,Harris County,TX,12.547528517110266,NA,NA
77433,Harris County,TX,NA,19.941775836972344,NA
77494,Fort Bend County,TX,NA,16.593886462882097,NA
77498,Fort Bend County,TX,77.56653992395437,NA,NA
77510,Galveston County,TX,NA,64.04657933042213,NA
77546,Galveston County,TX,NA,NA,36.23853211009174
77550,Galveston County,TX,NA,NA,7.79816513761468
77554,Galveston County,TX,91.82509505703422,46.724890829694324,NA
77573,Galveston County,TX,NA,NA,21.788990825688074
77583,Brazoria County,TX,51.14068441064639,NA,NA
77590,Galveston County,TX,NA,NA,27.75229357798165
77807,Brazos County,TX,NA,NA,96.55963302752293
77808,Brazos County,TX,NA,60.4075691411936,NA
77833,Washington County,TX,43.346007604562736,NA,NA
77836,Burleson County,TX,NA,NA,69.26605504587155
77845,Brazos County,TX,NA,NA,1.3761467889908259
77859,Robertson County,TX,NA,NA,83.02752293577981
77864,Madison County,TX,NA,85.73508005822417,NA
78014,La Salle County,TX,97.90874524714829,NA,NA
78222,Bexar County,TX,66.34980988593155,NA,NA
78228,Bexar County,TX,NA,NA,25.458715596330272
78251,Bexar County,TX,NA,NA,63.30275229357798
78589,Hidalgo County,TX,93.5361216730038,NA,NA
78613,Williamson County,TX,NA,NA,84.40366972477065
78628,Williamson County,TX,NA,26.637554585152838,NA
78633,Williamson County,TX,NA,32.60553129548763,10.77981651376147
78639,Llano County,TX,NA,73.36244541484717,NA
78654,Burnet County,TX,NA,NA,69.95412844036697
78681,Williamson County,TX,NA,65.79330422125183,NA
78734,Travis County,TX,NA,NA,92.20183486238533
79413,Lubbock County,TX,66.53992395437263,NA,NA
79602,Taylor County,TX,NA,52.838427947598255,NA
79606,Taylor County,TX,61.026615969581755,NA,NA
79714,Andrews County,TX,79.46768060836501,NA,NA
79928,El Paso County,TX,NA,62.29985443959243,NA
84010,Davis County,UT,NA,58.951965065502186,NA
84074,Tooele County,UT,NA,NA,30.045871559633024
84115,Salt Lake County,UT,NA,NA,60.550458715596335
84129,,UT,NA,31.29548762736536,NA
84401,Weber County,UT,40.874524714828894,NA,NA
05060,Orange County,VT,NA,74.38136826783115,NA
05089,Windsor County,VT,NA,90.68413391557496,NA
05091,Windsor County,VT,NA,97.37991266375546,NA
05156,Windsor County,VT,NA,63.17321688500728,NA
05201,Bennington County,VT,NA,23.435225618631733,NA
05401,Chittenden County,VT,NA,75.40029112081513,NA
05403,Chittenden County,VT,NA,48.32605531295487,29.81651376146789
05452,Chittenden County,VT,57.414448669201526,NA,NA
05478,Franklin County,VT,53.99239543726235,NA,26.834862385321102
05482,Chittenden County,VT,NA,NA,61.92660550458715
05495,Chittenden County,VT,NA,84.27947598253274,NA
20171,Fairfax County,VA,NA,NA,84.63302752293578
20181,Prince William County,VA,96.1977186311787,NA,NA
20187,Fauquier County,VA,76.80608365019012,NA,NA
22032,Fairfax County,VA,63.87832699619772,NA,NA
22124,Fairfax County,VA,85.17110266159695,NA,NA
22202,Arlington County,VA,92.58555133079848,NA,NA
22203,Arlington County,VA,NA,72.92576419213974,NA
22304,Alexandria city,VA,NA,35.516739446870446,NA
22308,Fairfax County,VA,NA,78.74818049490538,NA
22314,Alexandria city,VA,27.756653992395435,NA,NA
22485,King George County,VA,63.49809885931559,NA,NA
22520,Westmoreland County,VA,NA,92.28529839883551,NA
22554,Stafford County,VA,NA,45.12372634643377,NA
22851,Page County,VA,82.50950570342205,NA,NA
22901,Albemarle County,VA,NA,28.966521106259098,10.550458715596331
22902,Charlottesville city,VA,21.863117870722434,NA,NA
23113,Chesterfield County,VA,NA,NA,50
23221,Richmond city,VA,NA,NA,81.88073394495413
23223,Henrico County,VA,NA,46.57933042212518,NA
23234,Chesterfield County,VA,NA,98.68995633187772,NA
23454,Virginia Beach city,VA,75.2851711026616,NA,NA
23661,Hampton city,VA,NA,61.280931586608446,NA
23831,Chesterfield County,VA,NA,33.624454148471614,NA
23970,Mecklenburg County,VA,NA,81.95050946142649,NA
23974,Lunenburg County,VA,NA,NA,81.19266055045871
24015,Roanoke city,VA,NA,71.61572052401746,NA
24148,Henry County,VA,NA,78.89374090247453,NA
24153,Salem city,VA,NA,91.55749636098982,18.807339449541285
24171,Patrick County,VA,NA,NA,59.403669724770644
24175,Botetourt County,VA,NA,NA,88.30275229357798
24401,Staunton city,VA,NA,NA,7.339449541284404
24541,Danville city,VA,79.08745247148289,NA,NA
24592,Halifax County,VA,NA,NA,31.65137614678899
98001,King County,WA,39.73384030418251,NA,NA
98004,King County,WA,NA,65.93886462882097,NA
98005,King County,WA,NA,NA,51.8348623853211
98020,Snohomish County,WA,NA,56.76855895196506,NA
98021,Snohomish County,WA,NA,47.88937409024746,NA
98028,King County,WA,71.29277566539925,NA,NA
98033,King County,WA,NA,32.751091703056765,NA
98038,King County,WA,31.55893536121673,NA,NA
98040,King County,WA,NA,NA,44.03669724770643
98053,King County,WA,NA,40.02911208151383,NA
98058,King County,WA,NA,22.416302765647742,NA
98072,King County,WA,61.59695817490495,NA,NA
98101,King County,WA,NA,80.34934497816593,NA
98103,King County,WA,NA,40.90247452692867,NA
98105,King County,WA,78.32699619771863,NA,NA
98109,King County,WA,NA,92.86754002911208,NA
98110,Kitsap County,WA,NA,37.55458515283843,NA
98115,King County,WA,NA,NA,29.357798165137616
98125,King County,WA,NA,36.3901018922853,NA
98155,King County,WA,42.96577946768061,42.35807860262008,NA
98199,King County,WA,82.50950570342205,NA,NA
98208,Snohomish County,WA,NA,28.238719068413392,NA
98221,Skagit County,WA,NA,55.74963609898108,53.21100917431193
98223,Snohomish County,WA,NA,NA,76.37614678899082
98233,Skagit County,WA,NA,NA,49.08256880733945
98257,Skagit County,WA,NA,97.5254730713246,NA
98261,San Juan County,WA,NA,97.23435225618631,NA
98273,Skagit County,WA,NA,87.77292576419214,41.284403669724774
98277,Island County,WA,NA,NA,14.449541284403669
98284,Skagit County,WA,NA,NA,55.5045871559633
98363,Clallam County,WA,NA,70.01455604075691,73.62385321100918
98368,Jefferson County,WA,NA,25.90975254730713,NA
98374,Pierce County,WA,40.68441064638783,NA,NA
98375,Pierce County,WA,NA,73.07132459970887,NA
98405,Pierce County,WA,30.418250950570343,NA,NA
98531,Lewis County,WA,NA,48.617176128093156,NA
98580,Pierce County,WA,97.71863117870723,NA,NA
98901,Yakima County,WA,NA,74.67248908296943,NA
98922,Kittitas County,WA,96.7680608365019,NA,NA
99019,Spokane County,WA,95.43726235741445,NA,NA
99224,Spokane County,WA,NA,70.3056768558952,NA
99353,Benton County,WA,66.92015209125475,59.67976710334789,NA
99362,Walla Walla County,WA,23.954372623574145,13.24599708879185,NA
20007,District of Columbia,DC,75.8555133079848,64.48326055312955,NA
20010,District of Columbia,DC,NA,NA,59.403669724770644
20015,District of Columbia,DC,86.69201520912547,79.76710334788937,NA
20020,District of Columbia,DC,3.2319391634980987,NA,NA
25302,Kanawha County,WV,NA,NA,54.12844036697248
25438,Jefferson County,WV,NA,95.63318777292577,NA
25704,Wayne County,WV,NA,68.85007278020379,NA
25801,Raleigh County,WV,NA,9.75254730713246,NA
26003,Ohio County,WV,NA,NA,2.064220183486239
26508,Monongalia County,WV,6.653992395437262,NA,NA
53012,Ozaukee County,WI,96.00760456273764,NA,NA
53072,Waukesha County,WI,NA,71.32459970887919,NA
53115,Walworth County,WI,NA,70.16011644832606,44.4954128440367
53158,Kenosha County,WI,NA,29.257641921397383,NA
53207,Milwaukee County,WI,24.14448669201521,NA,NA
53212,Milwaukee County,WI,NA,15.138282387190685,NA
53214,Milwaukee County,WI,NA,11.208151382823871,25.688073394495415
53222,Milwaukee County,WI,55.51330798479087,NA,NA
53226,Milwaukee County,WI,NA,34.93449781659388,NA
53402,Racine County,WI,NA,NA,0.6880733944954129
53511,Rock County,WI,1.520912547528517,0.1455604075691412,NA
53527,Dane County,WI,NA,NA,74.54128440366972
53545,Rock County,WI,NA,NA,17.201834862385322
53546,Rock County,WI,NA,NA,37.38532110091743
53563,Rock County,WI,NA,NA,64.6788990825688
53593,Dane County,WI,NA,NA,60.321100917431195
53711,Dane County,WI,NA,16.011644832605533,NA
53719,Dane County,WI,54.18250950570342,42.64919941775837,NA
54020,Polk County,WI,NA,82.82387190684133,NA
54169,Calumet County,WI,99.80988593155894,NA,NA
54217,Kewaunee County,WI,NA,NA,99.77064220183486
54452,Lincoln County,WI,NA,NA,24.31192660550459
54476,Marathon County,WI,NA,NA,50.45871559633027
54548,Oneida County,WI,NA,NA,80.96330275229357
54630,Trempealeau County,WI,NA,NA,95.64220183486239
54669,La Crosse County,WI,NA,NA,69.26605504587155
82414,Park County,WY,NA,41.92139737991266,NA
82435,Park County,WY,NA,NA,90.36697247706422
82520,Fremont County,WY,NA,90.1018922852984,NA
