ZipCode,county,state,Adult,Retirement
35128,St. Clair County,AL,NA,66.3594470046083
36272,Calhoun County,AL,NA,71.42857142857143
36303,Houston County,AL,20.48780487804878,NA
36305,Houston County,AL,75.1219512195122,NA
85033,Maricopa County,AZ,NA,37.78801843317972
85266,Maricopa County,AZ,NA,89.40092165898618
85296,Maricopa County,AZ,100,NA
86001,Coconino County,AZ,17.560975609756095,NA
71801,Hempstead County,AR,82.4390243902439,NA
72081,White County,AR,NA,51.61290322580645
72104,Hot Spring County,AR,NA,54.83870967741935
90249,Los Angeles County,CA,72.6829268292683,NA
90275,Los Angeles County,CA,NA,37.327188940092164
90505,Los Angeles County,CA,NA,39.1705069124424
91207,Los Angeles County,CA,97.5609756097561,NA
92065,San Diego County,CA,NA,62.21198156682027
92081,San Diego County,CA,NA,65.89861751152074
92203,Riverside County,CA,64.39024390243902,NA
92225,Riverside County,CA,NA,78.80184331797236
92262,Riverside County,CA,NA,40.09216589861751
92703,Orange County,CA,63.41463414634146,NA
93265,Tulare County,CA,NA,94.47004608294931
93510,Los Angeles County,CA,NA,97.23502304147466
93720,Fresno County,CA,28.292682926829265,NA
93727,Fresno County,CA,12.195121951219512,NA
94105,San Francisco County,CA,94.14634146341463,NA
94566,Alameda County,CA,52.6829268292683,NA
95333,Merced County,CA,NA,99.53917050691244
95360,Stanislaus County,CA,74.63414634146342,NA
95726,El Dorado County,CA,71.70731707317073,NA
80126,Douglas County,CO,42.4390243902439,NA
80526,Larimer County,CO,NA,33.17972350230415
80550,Weld County,CO,53.170731707317074,NA
80916,El Paso County,CO,NA,63.133640552995395
06016,Hartford County,CT,81.95121951219512,NA
06111,Hartford County,CT,30.24390243902439,NA
06234,Windham County,CT,54.146341463414636,NA
06424,Middlesex County,CT,68.29268292682927,NA
06457,Middlesex County,CT,7.804878048780488,NA
06511,New Haven County,CT,3.902439024390244,NA
06854,Fairfield County,CT,37.073170731707314,NA
06883,Fairfield County,CT,NA,90.78341013824884
06902,Fairfield County,CT,18.048780487804876,NA
19703,New Castle County,DE,50.24390243902439,NA
19809,New Castle County,DE,50.73170731707317,NA
19973,Sussex County,DE,14.146341463414632,NA
32068,Clay County,FL,NA,14.285714285714285
32219,Duval County,FL,37.5609756097561,NA
32408,Bay County,FL,64.8780487804878,NA
32536,Okaloosa County,FL,NA,57.14285714285714
32541,Okaloosa County,FL,NA,35.944700460829495
32579,Okaloosa County,FL,NA,93.08755760368663
32608,Alachua County,FL,NA,19.81566820276498
32726,Lake County,FL,70.73170731707317,NA
32738,Volusia County,FL,89.26829268292683,NA
32754,Brevard County,FL,NA,88.47926267281106
32909,Brevard County,FL,32.19512195121951,NA
32967,Indian River County,FL,40,NA
33179,Miami-Dade County,FL,NA,60.82949308755761
33565,Hillsborough County,FL,NA,70.04608294930875
33897,Polk County,FL,65.3658536585366,NA
33904,Lee County,FL,29.756097560975608,NA
34207,Manatee County,FL,NA,51.1520737327189
34471,Marion County,FL,43.41463414634146,NA
34731,Lake County,FL,76.58536585365854,NA
34787,Orange County,FL,21.463414634146343,NA
30228,Henry County,GA,NA,55.76036866359447
30265,Coweta County,GA,NA,39.63133640552996
30328,Fulton County,GA,58.536585365853654,NA
30546,Towns County,GA,80.48780487804879,65.43778801843318
30809,Columbia County,GA,82.92682926829268,NA
31525,Glynn County,GA,41.951219512195124,NA
96701,Honolulu County,HI,57.073170731707314,NA
83318,Cassia County,ID,NA,44.70046082949309
60438,Cook County,IL,NA,35.483870967741936
60447,Grundy County,IL,NA,96.7741935483871
60525,Cook County,IL,20,NA
60619,Cook County,IL,NA,29.03225806451613
46052,Boone County,IN,NA,46.08294930875576
46307,Lake County,IN,NA,2.3041474654377883
46311,Lake County,IN,NA,20.737327188940093
46383,Porter County,IN,26.34146341463415,NA
46385,Porter County,IN,NA,25.34562211981567
47591,Knox County,IN,NA,28.110599078341014
47834,Clay County,IN,27.31707317073171,NA
50219,Marion County,IA,80.97560975609757,NA
50263,Dallas County,IA,84.39024390243902,NA
50314,Polk County,IA,38.048780487804876,NA
52402,Linn County,IA,NA,27.64976958525346
52655,Des Moines County,IA,NA,95.39170506912443
66043,Leavenworth County,KS,72.6829268292683,NA
66502,Riley County,KS,65.85365853658537,NA
66503,Riley County,KS,93.65853658536587,NA
67107,McPherson County,KS,NA,98.61751152073732
40216,Jefferson County,KY,NA,16.129032258064516
40219,Jefferson County,KY,NA,24.88479262672811
40502,Fayette County,KY,NA,48.8479262672811
41094,Boone County,KY,NA,64.0552995391705
42086,McCracken County,KY,95.60975609756098,NA
42211,Trigg County,KY,NA,43.31797235023041
42748,Larue County,KY,NA,70.50691244239631
70117,Orleans Parish,LA,NA,21.19815668202765
70118,Orleans Parish,LA,NA,22.119815668202765
70119,Orleans Parish,LA,NA,33.6405529953917
70344,Terrebonne Parish,LA,59.02439024390244,NA
70458,St. Tammany Parish,LA,88.29268292682927,4.6082949308755765
70460,St. Tammany Parish,LA,35.12195121951219,NA
70466,Tangipahoa Parish,LA,NA,83.41013824884793
70526,Acadia Parish,LA,99.02439024390245,NA
70665,Calcasieu Parish,LA,61.46341463414634,79.26267281105991
70706,Livingston Parish,LA,55.1219512195122,NA
71019,Red River Parish,LA,51.707317073170735,NA
71129,Caddo Parish,LA,NA,62.67281105990783
71251,Jackson Parish,LA,NA,90.32258064516128
04605,Hancock County,ME,NA,26.26728110599078
21001,Harford County,MD,NA,59.44700460829493
21212,Baltimore city,MD,35.609756097560975,NA
21635,Kent County,MD,NA,98.15668202764977
21742,Washington County,MD,55.1219512195122,NA
21921,Cecil County,MD,13.170731707317074,7.373271889400922
01013,Hampden County,MA,NA,17.51152073732719
01095,Hampden County,MA,NA,58.986175115207374
01760,Middlesex County,MA,NA,11.059907834101383
01801,Middlesex County,MA,NA,0.9216589861751152
01826,Middlesex County,MA,3.414634146341464,NA
01854,Middlesex County,MA,0.975609756097561,NA
01906,Essex County,MA,NA,12.903225806451612
02021,Norfolk County,MA,25.853658536585368,NA
02115,Suffolk County,MA,23.902439024390244,NA
02125,Suffolk County,MA,58.048780487804876,NA
02130,Suffolk County,MA,8.292682926829269,NA
02149,Middlesex County,MA,61.951219512195124,NA
02150,Suffolk County,MA,0,NA
02421,Middlesex County,MA,NA,34.56221198156682
02446,Norfolk County,MA,NA,8.294930875576037
02642,Barnstable County,MA,NA,77.41935483870968
02746,Bristol County,MA,NA,67.2811059907834
48040,St. Clair County,MI,63.90243902439025,NA
48047,Macomb County,MI,NA,17.972350230414747
48059,St. Clair County,MI,60.97560975609756,41.013824884792626
48214,Wayne County,MI,16.585365853658537,NA
48362,Oakland County,MI,86.82926829268293,NA
48888,Montcalm County,MI,NA,77.88018433179722
49441,Muskegon County,MI,11.707317073170733,NA
49442,Muskegon County,MI,2.9268292682926833,NA
49461,Muskegon County,MI,66.34146341463415,NA
49855,Marquette County,MI,12.682926829268293,NA
49858,Menominee County,MI,69.7560975609756,NA
55044,Dakota County,MN,41.46341463414634,NA
55117,Ramsey County,MN,14.634146341463413,NA
55744,Itasca County,MN,NA,9.216589861751153
56345,Morrison County,MN,24.878048780487806,NA
56464,Wadena County,MN,78.04878048780488,NA
38901,Grenada County,MS,92.19512195121952,NA
39073,Rankin County,MS,NA,53.45622119815668
39180,Warren County,MS,NA,76.95852534562212
39553,Jackson County,MS,NA,86.63594470046083
39759,Oktibbeha County,MS,56.58536585365853,NA
63021,St. Louis County,MO,36.09756097560975,NA
63129,St. Louis County,MO,NA,10.138248847926267
63303,St. Charles County,MO,19.024390243902438,NA
63755,Cape Girardeau County,MO,NA,47.926267281105986
63857,Dunklin County,MO,77.5609756097561,NA
64151,Platte County,MO,26.82926829268293,NA
64836,Jasper County,MO,15.609756097560975,NA
65616,Taney County,MO,NA,80.18433179723502
65672,Taney County,MO,NA,74.65437788018433
65781,Greene County,MO,96.09756097560975,NA
89129,Clark County,NV,NA,36.405529953917046
89135,Clark County,NV,NA,58.525345622119815
89436,Washoe County,NV,NA,15.668202764976957
89445,Humboldt County,NV,69.26829268292683,NA
89502,Washoe County,NV,17.073170731707318,NA
89509,Washoe County,NV,68.78048780487805,NA
03060,Hillsborough County,NH,5.853658536585367,NA
03079,Rockingham County,NH,NA,21.658986175115206
07011,Passaic County,NJ,15.121951219512194,NA
07094,Hudson County,NJ,NA,75.57603686635944
07103,Essex County,NJ,NA,1.8433179723502304
07111,Essex County,NJ,0.4878048780487805,NA
07444,Morris County,NJ,90.73170731707317,97.6958525345622
07656,Bergen County,NJ,88.78048780487805,NA
07675,Bergen County,NJ,56.09756097560976,NA
07753,Monmouth County,NJ,NA,13.36405529953917
08005,Ocean County,NJ,NA,32.71889400921659
08008,Ocean County,NJ,NA,82.02764976958525
08053,Burlington County,NJ,20.975609756097562,NA
08075,Burlington County,NJ,NA,30.414746543778804
08080,Gloucester County,NJ,31.21951219512195,NA
08085,Gloucester County,NJ,47.80487804878049,46.54377880184332
08724,Ocean County,NJ,NA,18.89400921658986
08753,Ocean County,NJ,1.4634146341463417,NA
08865,Warren County,NJ,4.390243902439024,NA
87102,Bernalillo County,NM,18.536585365853657,NA
87111,Bernalillo County,NM,NA,73.27188940092167
87124,Sandoval County,NM,NA,12.442396313364055
88072,Doa Ana County,NM,98.53658536585365,NA
10009,New York County,NY,NA,5.990783410138248
10021,New York County,NY,NA,28.57142857142857
10024,New York County,NY,NA,75.11520737327189
10025,New York County,NY,NA,1.3824884792626728
10040,New York County,NY,79.51219512195122,NA
10314,Richmond County,NY,11.219512195121952,NA
10452,Bronx County,NY,5.365853658536586,NA
10454,Bronx County,NY,NA,49.76958525345622
10455,Bronx County,NY,NA,15.207373271889402
10463,Bronx County,NY,7.317073170731707,NA
10950,Orange County,NY,59.512195121951216,NA
11226,Kings County,NY,NA,22.58064516129032
11358,Queens County,NY,NA,87.55760368663594
11375,Queens County,NY,NA,30.87557603686636
11435,Queens County,NY,NA,19.35483870967742
11566,Nassau County,NY,83.90243902439025,NA
11756,Nassau County,NY,48.292682926829265,NA
11790,Suffolk County,NY,NA,85.71428571428571
11949,Suffolk County,NY,NA,80.64516129032258
12065,Saratoga County,NY,NA,20.276497695852534
12962,Clinton County,NY,53.65853658536586,NA
12992,Clinton County,NY,48.78048780487805,NA
13045,Cortland County,NY,NA,14.746543778801843
13066,Onondaga County,NY,60.48780487804878,NA
13077,Cortland County,NY,NA,63.133640552995395
13114,Oswego County,NY,75.60975609756098,NA
13409,Madison County,NY,93.17073170731707,NA
13905,Broome County,NY,NA,6.451612903225806
14048,Chautauqua County,NY,83.41463414634146,NA
14072,Erie County,NY,34.63414634146341,NA
14127,Erie County,NY,NA,18.433179723502306
14210,Erie County,NY,22.926829268292686,NA
14424,Ontario County,NY,1.951219512195122,0
14425,Ontario County,NY,NA,56.22119815668203
14489,Wayne County,NY,NA,31.797235023041477
14512,Ontario County,NY,NA,61.29032258064516
14513,Wayne County,NY,NA,4.147465437788019
14701,Chautauqua County,NY,2.4390243902439024,NA
14727,Allegany County,NY,NA,76.49769585253456
14850,Tompkins County,NY,NA,32.25806451612903
14871,Chemung County,NY,87.3170731707317,NA
27589,Warren County,NC,NA,91.70506912442397
27863,Wayne County,NC,NA,68.66359447004609
28043,Rutherford County,NC,NA,69.5852534562212
28150,Cleveland County,NC,NA,36.86635944700461
28208,Mecklenburg County,NC,10.24390243902439,NA
28270,Mecklenburg County,NC,76.09756097560975,NA
28349,Duplin County,NC,97.07317073170731,NA
28365,Wayne County,NC,77.07317073170732,NA
28451,Brunswick County,NC,NA,26.72811059907834
28463,Columbus County,NC,84.8780487804878,NA
28472,Columbus County,NC,29.268292682926827,84.33179723502305
28546,Onslow County,NC,22.439024390243905,NA
28690,Burke County,NC,45.36585365853659,NA
28792,Henderson County,NC,54.63414634146342,NA
58103,Cass County,ND,6.341463414634147,NA
58201,Grand Forks County,ND,25.365853658536587,NA
43078,Champaign County,OH,NA,81.5668202764977
43125,Franklin County,OH,NA,82.48847926267281
43920,Columbiana County,OH,9.75609756097561,NA
44060,Lake County,OH,NA,11.52073732718894
44103,Cuyahoga County,OH,NA,41.935483870967744
44130,Cuyahoga County,OH,NA,0.4608294930875576
44266,Portage County,OH,NA,7.834101382488479
44709,Stark County,OH,NA,42.857142857142854
44813,Richland County,OH,67.31707317073172,NA
44907,Richland County,OH,33.65853658536586,NA
45005,Warren County,OH,9.268292682926829,NA
45102,Clermont County,OH,NA,52.07373271889401
45309,Montgomery County,OH,NA,53.91705069124424
45404,Montgomery County,OH,44.87804878048781,84.7926267281106
45432,Greene County,OH,62.4390243902439,NA
74047,Tulsa County,OK,92.6829268292683,NA
74133,Tulsa County,OK,NA,23.502304147465438
74344,Delaware County,OK,NA,49.30875576036866
74873,Pottawatomie County,OK,NA,61.75115207373272
97013,Clackamas County,OR,NA,67.74193548387096
97038,Clackamas County,OR,60,NA
97071,Marion County,OR,NA,81.10599078341014
97080,Multnomah County,OR,NA,23.04147465437788
97138,Clatsop County,OR,NA,57.6036866359447
97215,Multnomah County,OR,87.8048780487805,NA
97301,Marion County,OR,NA,27.188940092165897
97305,Marion County,OR,21.951219512195124,NA
97362,Marion County,OR,98.04878048780488,NA
97381,Marion County,OR,NA,59.907834101382484
97603,Klamath County,OR,NA,6.912442396313365
97818,Morrow County,OR,NA,100
15237,Allegheny County,PA,NA,25.806451612903224
15552,Somerset County,PA,NA,95.85253456221197
15701,Indiana County,PA,NA,48.38709677419355
15904,Cambria County,PA,NA,34.10138248847927
15905,Cambria County,PA,39.51219512195122,NA
15906,Cambria County,PA,74.14634146341463,NA
16057,Butler County,PA,NA,72.35023041474655
16506,Erie County,PA,NA,60.36866359447005
16611,Huntingdon County,PA,NA,99.07834101382488
16701,McKean County,PA,NA,52.995391705069125
17026,Lebanon County,PA,96.58536585365853,NA
17036,Dauphin County,PA,19.51219512195122,NA
17043,Cumberland County,PA,NA,92.62672811059907
17044,Mifflin County,PA,NA,10.599078341013826
17063,Mifflin County,PA,99.51219512195122,NA
17241,Cumberland County,PA,NA,91.24423963133641
17404,York County,PA,49.26829268292683,NA
17501,Lancaster County,PA,91.70731707317074,NA
18017,Northampton County,PA,NA,88.94009216589862
18032,Lehigh County,PA,NA,72.81105990783409
18036,Lehigh County,PA,NA,64.97695852534562
18052,Lehigh County,PA,NA,94.93087557603687
18067,Northampton County,PA,NA,83.87096774193549
18069,Lehigh County,PA,NA,82.94930875576037
18102,Lehigh County,PA,NA,8.755760368663594
18109,Lehigh County,PA,NA,45.622119815668206
18201,Luzerne County,PA,16.097560975609756,NA
18202,Luzerne County,PA,39.02439024390244,NA
18235,Carbon County,PA,NA,29.493087557603687
18508,Lackawanna County,PA,NA,42.3963133640553
18704,Luzerne County,PA,NA,17.050691244239633
18940,Bucks County,PA,NA,38.24884792626728
19020,Bucks County,PA,8.780487804878048,NA
19047,Bucks County,PA,NA,47.465437788018434
19055,Bucks County,PA,43.90243902439025,NA
19067,Bucks County,PA,NA,66.82027649769586
19070,Delaware County,PA,79.02439024390245,NA
19138,Philadelphia County,PA,NA,24.42396313364055
19147,Philadelphia County,PA,NA,58.06451612903226
19154,Philadelphia County,PA,38.53658536585366,NA
19380,Chester County,PA,34.146341463414636,NA
19382,Chester County,PA,NA,11.981566820276496
19403,Montgomery County,PA,NA,50.23041474654379
19440,Montgomery County,PA,51.21951219512195,NA
19533,Berks County,PA,NA,79.72350230414746
19604,Berks County,PA,49.75609756097561,NA
29069,Darlington County,SC,NA,87.09677419354838
29070,Lexington County,SC,66.82926829268293,NA
29464,Charleston County,SC,36.58536585365854,NA
29512,Marlboro County,SC,46.82926829268293,NA
29550,Darlington County,SC,NA,23.963133640552993
29568,Horry County,SC,90.2439024390244,NA
29630,Pickens County,SC,81.46341463414633,NA
29653,Greenwood County,SC,NA,94.00921658986175
37064,Williamson County,TN,NA,88.0184331797235
37091,Marshall County,TN,31.70731707317073,47.004608294930875
37167,Rutherford County,TN,23.414634146341466,NA
37312,Bradley County,TN,NA,45.16129032258064
37416,Hamilton County,TN,71.21951219512195,NA
38242,Henry County,TN,NA,69.12442396313364
38256,Henry County,TN,NA,93.54838709677419
38401,Maury County,TN,6.829268292682928,9.67741935483871
75007,Denton County,TX,80,NA
75070,Collin County,TX,13.658536585365855,NA
75501,Bowie County,TX,NA,52.53456221198156
75835,Houston County,TX,57.56097560975609,NA
76018,Tarrant County,TX,NA,55.29953917050692
76028,Johnson County,TX,NA,5.0691244239631335
76301,Wichita County,TX,NA,64.51612903225806
76504,Bell County,TX,NA,3.225806451612903
77007,Harris County,TX,42.926829268292686,NA
77047,Harris County,TX,NA,70.96774193548387
77091,Harris County,TX,45.85365853658537,NA
77098,Harris County,TX,NA,85.25345622119815
77382,Montgomery County,TX,NA,56.68202764976959
77429,Harris County,TX,NA,5.529953917050691
77535,Liberty County,TX,33.170731707317074,NA
77571,Harris County,TX,NA,43.77880184331797
77591,Galveston County,TX,NA,41.474654377880185
77995,Lavaca County,TX,70.24390243902438,NA
78043,Webb County,TX,NA,29.953917050691242
78665,Williamson County,TX,40.97560975609756,NA
79701,Midland County,TX,85.85365853658537,NA
79762,Ector County,TX,24.390243902439025,NA
79763,Ector County,TX,NA,71.88940092165899
79764,Ector County,TX,47.3170731707317,92.16589861751152
79766,Ector County,TX,89.75609756097562,NA
84087,Davis County,UT,78.53658536585367,NA
84095,Salt Lake County,UT,32.6829268292683,NA
84119,Salt Lake County,UT,NA,35.02304147465438
84770,Washington County,UT,30.73170731707317,NA
22101,Fairfax County,VA,NA,85.71428571428571
22181,Fairfax County,VA,NA,89.86175115207374
22203,Arlington County,VA,NA,73.73271889400922
22942,Louisa County,VA,71.70731707317073,NA
23024,Louisa County,VA,86.34146341463415,NA
24201,Bristol city,VA,NA,40.55299539170507
24273,Norton city,VA,62.926829268292686,NA
98033,King County,WA,NA,31.336405529953915
98057,King County,WA,91.21951219512195,NA
98258,Snohomish County,WA,NA,44.23963133640553
98382,Clallam County,WA,NA,3.686635944700461
98391,Pierce County,WA,NA,16.589861751152075
98502,Thurston County,WA,52.19512195121951,NA
98541,Grays Harbor County,WA,67.8048780487805,NA
99301,Franklin County,WA,28.780487804878046,NA
24739,Mercer County,WV,NA,76.036866359447
24901,Greenbrier County,WV,73.65853658536585,NA
25302,Kanawha County,WV,46.34146341463415,NA
25311,Kanawha County,WV,NA,54.377880184331794
25541,Cabell County,WV,NA,74.19354838709677
25801,Raleigh County,WV,NA,13.82488479262673
26101,Wood County,WV,4.878048780487805,NA
26143,Wirt County,WV,NA,96.31336405529954
26170,Pleasants County,WV,NA,68.20276497695853
26505,Monongalia County,WV,10.731707317073171,NA
26836,Hardy County,WV,94.6341463414634,NA
53711,Dane County,WI,27.80487804878049,NA
53821,Crawford County,WI,NA,78.3410138248848
54220,Manitowoc County,WI,NA,2.7649769585253456
54521,Vilas County,WI,85.36585365853658,NA
54603,La Crosse County,WI,44.390243902439025,NA
54727,Chippewa County,WI,95.1219512195122,NA
54952,Winnebago County,WI,40.487804878048784,NA
82009,Laramie County,WY,NA,50.69124423963134
82414,Park County,WY,NA,38.70967741935484
