ZipCode,county,state,Adult,Retirement,Geriatric
35022,Jefferson County,AL,NA,17.344173441734416,NA
35080,Shelby County,AL,NA,NA,87.73006134969326
35128,St. Clair County,AL,NA,NA,91.28834355828221
35211,Jefferson County,AL,13.533834586466165,NA,32.02453987730061
35216,Jefferson County,AL,NA,NA,88.22085889570552
35223,Jefferson County,AL,NA,NA,69.32515337423312
35652,Lauderdale County,AL,91.72932330827066,NA,NA
35773,Madison County,AL,65.41353383458647,NA,NA
35811,Madison County,AL,NA,NA,34.355828220858896
35906,Etowah County,AL,NA,NA,89.93865030674847
35907,Etowah County,AL,NA,NA,79.2638036809816
35954,Etowah County,AL,NA,NA,80.7361963190184
36054,Elmore County,AL,NA,97.289972899729,NA
36104,Montgomery County,AL,NA,75.47425474254743,NA
36303,Houston County,AL,NA,39.15989159891599,NA
36323,Coffee County,AL,NA,87.39837398373984,NA
36532,Baldwin County,AL,NA,NA,20.858895705521473
36535,Baldwin County,AL,NA,73.71273712737127,NA
36542,Baldwin County,AL,NA,NA,61.22699386503068
36605,Mobile County,AL,NA,48.509485094850945,NA
36701,Dallas County,AL,NA,29.539295392953928,NA
36870,Lee County,AL,NA,NA,68.95705521472392
99501,Anchorage Municipality,AK,NA,NA,81.1042944785276
99515,Anchorage Municipality,AK,65.78947368421053,NA,NA
99516,Anchorage Municipality,AK,NA,NA,96.68711656441718
99518,Anchorage Municipality,AK,NA,NA,99.01840490797545
99603,Kenai Peninsula Borough,AK,NA,55.82655826558266,NA
99701,Fairbanks North Star Borough,AK,36.84210526315789,NA,NA
85007,Maricopa County,AZ,67.66917293233082,NA,NA
85016,Maricopa County,AZ,NA,35.09485094850949,NA
85027,Maricopa County,AZ,NA,NA,66.38036809815951
85040,Maricopa County,AZ,18.421052631578945,NA,NA
85048,Maricopa County,AZ,NA,62.737127371273715,NA
85194,Pinal County,AZ,NA,NA,95.21472392638037
85202,Maricopa County,AZ,NA,46.612466124661246,NA
85205,Maricopa County,AZ,NA,NA,74.23312883435584
85207,Maricopa County,AZ,NA,NA,47.36196319018405
85209,Maricopa County,AZ,60.902255639097746,NA,NA
85224,Maricopa County,AZ,NA,43.22493224932249,NA
85248,Maricopa County,AZ,NA,28.997289972899733,NA
85255,Maricopa County,AZ,NA,42.41192411924119,NA
85260,Maricopa County,AZ,NA,37.94037940379404,NA
85296,Maricopa County,AZ,NA,NA,56.93251533742332
85310,Maricopa County,AZ,77.81954887218046,NA,NA
85339,Maricopa County,AZ,NA,50.40650406504065,NA
85351,Maricopa County,AZ,NA,NA,0.49079754601227
85364,Yuma County,AZ,NA,3.9295392953929538,NA
85392,Maricopa County,AZ,NA,NA,74.7239263803681
85546,Graham County,AZ,50,NA,NA
85602,Cochise County,AZ,NA,NA,60.613496932515346
85650,Cochise County,AZ,NA,NA,42.944785276073624
85658,Pima County,AZ,NA,NA,89.8159509202454
85719,Pima County,AZ,NA,70.18970189701898,NA
85735,Pima County,AZ,NA,67.20867208672087,NA
85756,Pima County,AZ,NA,NA,71.41104294478528
85936,Apache County,AZ,NA,98.6449864498645,NA
71601,Jefferson County,AR,NA,83.19783197831978,NA
71602,Jefferson County,AR,NA,69.37669376693766,NA
71832,Sevier County,AR,NA,NA,91.04294478527606
71913,Garland County,AR,NA,NA,11.28834355828221
72019,Saline County,AR,NA,44.3089430894309,NA
72023,Lonoke County,AR,NA,NA,76.80981595092024
72114,Pulaski County,AR,NA,86.72086720867209,NA
72118,Pulaski County,AR,62.03007518796993,NA,NA
72204,Pulaski County,AR,NA,NA,86.13496932515338
72653,Baxter County,AR,NA,NA,9.325153374233128
72712,Benton County,AR,NA,NA,71.77914110429448
72745,Benton County,AR,NA,NA,98.03680981595092
72761,Benton County,AR,NA,66.12466124661248,NA
72823,Pope County,AR,NA,NA,83.8036809815951
90001,Los Angeles County,CA,NA,88.48238482384824,NA
90006,Los Angeles County,CA,NA,NA,36.93251533742331
90008,Los Angeles County,CA,NA,NA,23.31288343558282
90012,Los Angeles County,CA,NA,51.0840108401084,NA
90022,Los Angeles County,CA,81.95488721804512,NA,NA
90024,Los Angeles County,CA,NA,NA,6.38036809815951
90025,Los Angeles County,CA,NA,35.230352303523034,NA
90034,Los Angeles County,CA,NA,51.355013550135496,NA
90035,Los Angeles County,CA,63.90977443609023,NA,NA
90036,Los Angeles County,CA,NA,NA,29.325153374233125
90046,Los Angeles County,CA,NA,NA,6.134969325153374
90049,Los Angeles County,CA,NA,NA,18.52760736196319
90210,Los Angeles County,CA,NA,NA,53.86503067484662
90242,Los Angeles County,CA,NA,NA,73.74233128834355
90250,Los Angeles County,CA,24.43609022556391,NA,NA
90266,Los Angeles County,CA,NA,47.696476964769644,NA
90274,Los Angeles County,CA,NA,NA,40.49079754601227
90278,Los Angeles County,CA,NA,53.5230352303523,NA
90505,Los Angeles County,CA,NA,NA,31.16564417177914
90601,Los Angeles County,CA,NA,NA,37.79141104294478
90606,Los Angeles County,CA,52.63157894736842,NA,NA
90720,Orange County,CA,NA,58.67208672086721,NA
90745,Los Angeles County,CA,NA,NA,54.969325153374236
90746,Los Angeles County,CA,NA,52.98102981029811,NA
90807,Los Angeles County,CA,50.37593984962406,NA,NA
90810,Los Angeles County,CA,57.89473684210527,NA,NA
91107,Los Angeles County,CA,NA,47.5609756097561,NA
91205,Los Angeles County,CA,NA,48.6449864498645,NA
91214,Los Angeles County,CA,NA,NA,45.52147239263803
91311,Los Angeles County,CA,NA,50.135501355013545,NA
91326,Los Angeles County,CA,63.53383458646616,NA,NA
91331,Los Angeles County,CA,NA,18.834688346883468,NA
91344,Los Angeles County,CA,NA,24.390243902439025,NA
91351,Los Angeles County,CA,63.1578947368421,NA,NA
91352,Los Angeles County,CA,NA,42.953929539295395,NA
91354,Los Angeles County,CA,80.45112781954887,NA,NA
91360,Ventura County,CA,NA,NA,16.56441717791411
91362,Ventura County,CA,NA,40.37940379403794,NA
91732,Los Angeles County,CA,NA,65.17615176151762,27.73006134969325
91740,Los Angeles County,CA,NA,NA,59.87730061349693
91761,San Bernardino County,CA,NA,33.06233062330624,NA
91766,Los Angeles County,CA,NA,44.579945799457995,NA
91780,Los Angeles County,CA,NA,NA,44.9079754601227
91786,San Bernardino County,CA,NA,33.19783197831978,NA
91911,San Diego County,CA,NA,NA,8.220858895705522
91932,San Diego County,CA,NA,82.11382113821138,NA
92009,San Diego County,CA,NA,NA,41.59509202453987
92026,San Diego County,CA,NA,77.23577235772358,NA
92071,San Diego County,CA,26.31578947368421,NA,NA
92122,San Diego County,CA,NA,NA,50.5521472392638
92264,Riverside County,CA,48.1203007518797,NA,NA
92336,San Bernardino County,CA,NA,50.271002710027105,NA
92404,San Bernardino County,CA,NA,29.67479674796748,NA
92503,Riverside County,CA,NA,NA,36.19631901840491
92505,Riverside County,CA,NA,49.32249322493225,NA
92509,Riverside County,CA,23.308270676691727,NA,NA
92562,Riverside County,CA,27.44360902255639,NA,NA
92586,Riverside County,CA,NA,44.986449864498645,NA
92587,Riverside County,CA,NA,84.28184281842819,NA
92610,Orange County,CA,NA,93.4959349593496,NA
92625,Orange County,CA,NA,NA,49.325153374233125
92626,Orange County,CA,NA,44.173441734417345,NA
92627,Orange County,CA,NA,NA,14.723926380368098
92648,Orange County,CA,NA,NA,54.355828220858896
92683,Orange County,CA,NA,20.05420054200542,NA
92692,Orange County,CA,NA,58.40108401084011,NA
92708,Orange County,CA,NA,NA,72.88343558282209
92780,Orange County,CA,NA,96.07046070460704,NA
92802,Orange County,CA,54.13533834586466,NA,NA
92804,Orange County,CA,NA,19.91869918699187,NA
92833,Orange County,CA,NA,63.82113821138211,NA
92844,Orange County,CA,NA,NA,93.12883435582822
92867,Orange County,CA,NA,54.47154471544715,NA
92869,Orange County,CA,NA,46.7479674796748,NA
93001,Ventura County,CA,NA,29.132791327913278,NA
93003,Ventura County,CA,NA,NA,65.76687116564418
93065,Ventura County,CA,NA,55.28455284552846,NA
93219,Tulare County,CA,100,NA,NA
93221,Tulare County,CA,NA,76.01626016260163,84.41717791411043
93230,Kings County,CA,NA,NA,73.86503067484662
93274,Tulare County,CA,NA,NA,23.190184049079754
93312,Kern County,CA,NA,43.49593495934959,NA
93422,San Luis Obispo County,CA,NA,44.85094850948509,NA
93446,San Luis Obispo County,CA,NA,NA,50.1840490797546
93534,Los Angeles County,CA,NA,NA,59.38650306748466
93612,Fresno County,CA,NA,59.078590785907856,NA
93704,Fresno County,CA,50.37593984962406,NA,NA
93720,Fresno County,CA,NA,NA,45.644171779141104
93727,Fresno County,CA,NA,NA,33.12883435582822
94015,San Mateo County,CA,NA,NA,24.785276073619634
94070,San Mateo County,CA,NA,64.36314363143632,NA
94080,San Mateo County,CA,NA,NA,2.8220858895705523
94109,San Francisco County,CA,NA,NA,4.294478527607362
94116,San Francisco County,CA,NA,36.043360433604335,NA
94122,San Francisco County,CA,NA,NA,30.061349693251532
94123,San Francisco County,CA,62.40601503759399,NA,NA
94131,San Francisco County,CA,NA,NA,56.19631901840491
94507,Contra Costa County,CA,NA,68.97018970189703,NA
94513,Contra Costa County,CA,NA,57.994579945799465,NA
94521,Contra Costa County,CA,NA,NA,20.368098159509202
94533,Solano County,CA,23.684210526315788,NA,NA
94546,Alameda County,CA,NA,60.84010840108402,NA
94553,Contra Costa County,CA,NA,27.371273712737125,NA
94589,Solano County,CA,NA,48.3739837398374,NA
94595,Contra Costa County,CA,NA,NA,8.098159509202455
94603,Alameda County,CA,48.49624060150376,NA,NA
94607,Alameda County,CA,NA,NA,90.67484662576688
94901,Marin County,CA,NA,NA,33.987730061349694
94928,Sonoma County,CA,60.150375939849624,NA,NA
95020,Santa Clara County,CA,NA,NA,48.34355828220859
95023,San Benito County,CA,NA,34.010840108401084,NA
95120,Santa Clara County,CA,NA,NA,31.28834355828221
95324,Merced County,CA,NA,87.53387533875339,NA
95337,San Joaquin County,CA,42.10526315789473,NA,NA
95348,Merced County,CA,NA,NA,83.55828220858895
95350,Stanislaus County,CA,NA,NA,15.70552147239264
95380,Stanislaus County,CA,NA,20.59620596205962,NA
95451,Lake County,CA,80.07518796992481,NA,86.38036809815951
95519,Humboldt County,CA,NA,NA,61.104294478527606
95630,Sacramento County,CA,NA,17.88617886178862,NA
95662,Sacramento County,CA,NA,61.78861788617886,NA
95687,Solano County,CA,NA,22.22222222222222,NA
95726,El Dorado County,CA,NA,NA,52.88343558282208
95823,Sacramento County,CA,NA,19.10569105691057,NA
95825,Sacramento County,CA,NA,NA,69.4478527607362
95841,Sacramento County,CA,NA,NA,72.39263803680981
95901,Yuba County,CA,NA,49.1869918699187,NA
95966,Butte County,CA,NA,9.34959349593496,24.049079754601227
95973,Butte County,CA,NA,23.983739837398375,NA
96101,Modoc County,CA,NA,NA,88.09815950920246
80002,Jefferson County,CO,NA,75.74525745257452,NA
80010,Arapahoe County,CO,NA,75.60975609756098,NA
80013,Arapahoe County,CO,NA,22.899728997289973,NA
80016,Arapahoe County,CO,NA,18.021680216802167,NA
80017,Arapahoe County,CO,40.6015037593985,NA,NA
80020,Broomfield County,CO,NA,NA,33.25153374233129
80033,Jefferson County,CO,NA,NA,65.2760736196319
80108,Douglas County,CO,NA,NA,74.11042944785277
80113,Arapahoe County,CO,NA,78.86178861788618,NA
80129,Douglas County,CO,NA,85.50135501355014,NA
80205,Denver County,CO,10.526315789473683,NA,NA
80206,Denver County,CO,NA,NA,91.90184049079755
80222,Denver County,CO,44.3609022556391,NA,NA
80228,Jefferson County,CO,NA,55.96205962059621,NA
80526,Larimer County,CO,NA,32.79132791327913,NA
80538,Larimer County,CO,NA,NA,60.858895705521476
80701,Morgan County,CO,21.052631578947366,NA,NA
80817,El Paso County,CO,NA,NA,92.76073619631902
80829,El Paso County,CO,NA,96.34146341463415,NA
80909,El Paso County,CO,NA,NA,28.711656441717793
81005,Pueblo County,CO,NA,NA,33.00613496932515
81137,San Juan County,CO,NA,NA,98.52760736196319
81144,Rio Grande County,CO,NA,97.8319783197832,NA
81301,La Plata County,CO,NA,NA,52.02453987730061
81647,Garfield County,CO,NA,99.59349593495935,NA
06002,Hartford County,CT,NA,NA,30.306748466257673
06033,Hartford County,CT,NA,54.20054200542005,NA
06095,Hartford County,CT,NA,28.455284552845526,NA
06098,Litchfield County,CT,NA,76.01626016260163,NA
06117,Hartford County,CT,NA,NA,82.94478527607362
06118,Hartford County,CT,25.563909774436087,NA,NA
06241,Windham County,CT,NA,84.41734417344173,NA
06416,Middlesex County,CT,69.54887218045113,NA,NA
06437,New Haven County,CT,NA,59.48509485094851,NA
06450,New Haven County,CT,NA,13.008130081300814,NA
06471,New Haven County,CT,NA,NA,64.66257668711657
06475,Middlesex County,CT,NA,56.91056910569105,NA
06478,New Haven County,CT,NA,61.92411924119241,NA
06483,New Haven County,CT,NA,NA,64.78527607361964
06492,New Haven County,CT,NA,12.872628726287264,5.521472392638037
06498,Middlesex County,CT,NA,NA,73.12883435582822
06512,New Haven County,CT,NA,NA,14.23312883435583
06513,New Haven County,CT,3.007518796992481,NA,NA
06516,New Haven County,CT,NA,NA,39.87730061349693
06518,New Haven County,CT,NA,75.33875338753387,NA
06604,Fairfield County,CT,NA,NA,87.23926380368098
06605,Fairfield County,CT,35.338345864661655,NA,NA
06611,Fairfield County,CT,77.06766917293233,NA,NA
06614,Fairfield County,CT,NA,32.52032520325203,NA
06705,New Haven County,CT,NA,NA,38.282208588957054
06787,Litchfield County,CT,NA,NA,66.50306748466258
06804,Fairfield County,CT,NA,NA,59.14110429447853
06825,Fairfield County,CT,NA,NA,61.84049079754601
06905,Fairfield County,CT,NA,NA,37.05521472392638
19702,New Castle County,DE,12.406015037593985,NA,NA
19709,New Castle County,DE,20.30075187969925,NA,NA
19803,New Castle County,DE,NA,48.23848238482385,NA
19930,Sussex County,DE,NA,NA,91.04294478527606
19945,Sussex County,DE,NA,60.43360433604336,NA
19958,Sussex County,DE,NA,NA,10.429447852760736
19962,Kent County,DE,NA,NA,99.38650306748467
19973,Sussex County,DE,NA,NA,13.742331288343559
32034,Nassau County,FL,NA,9.75609756097561,NA
32114,Volusia County,FL,NA,NA,90.42944785276073
32127,Volusia County,FL,NA,NA,24.41717791411043
32163,Sumter County,FL,NA,NA,57.668711656441715
32174,Volusia County,FL,NA,12.059620596205962,NA
32179,Marion County,FL,NA,85.63685636856368,NA
32207,Duval County,FL,NA,11.653116531165312,NA
32208,Duval County,FL,21.804511278195488,NA,NA
32219,Duval County,FL,NA,65.4471544715447,NA
32220,Duval County,FL,NA,51.8970189701897,NA
32233,Duval County,FL,NA,36.856368563685635,NA
32259,St. Johns County,FL,NA,NA,49.079754601226995
32413,Bay County,FL,74.43609022556392,NA,NA
32455,Walton County,FL,NA,86.04336043360433,NA
32501,Escambia County,FL,NA,38.21138211382114,NA
32506,Escambia County,FL,NA,NA,12.883435582822086
32534,Escambia County,FL,NA,NA,41.34969325153374
32536,Okaloosa County,FL,NA,24.932249322493224,NA
32539,Okaloosa County,FL,42.4812030075188,26.422764227642276,NA
32605,Alachua County,FL,NA,NA,20.61349693251534
32606,Alachua County,FL,NA,NA,3.92638036809816
32640,Putnam County,FL,NA,NA,82.08588957055215
32656,Clay County,FL,NA,NA,58.65030674846625
32708,Seminole County,FL,NA,NA,22.33128834355828
32746,Seminole County,FL,NA,41.59891598915989,NA
32763,Volusia County,FL,NA,61.382113821138205,23.558282208588956
32771,Seminole County,FL,NA,34.28184281842818,NA
32789,Orange County,FL,NA,NA,50.920245398773
32822,Orange County,FL,NA,24.661246612466126,NA
32826,Orange County,FL,NA,93.90243902439023,NA
32832,Orange County,FL,85.71428571428571,NA,NA
32905,Brevard County,FL,NA,NA,64.9079754601227
32940,Brevard County,FL,NA,25.067750677506773,NA
32955,Brevard County,FL,NA,23.306233062330623,NA
32963,Indian River County,FL,NA,50.94850948509485,NA
32966,Indian River County,FL,NA,NA,51.04294478527608
33013,Miami-Dade County,FL,NA,NA,21.84049079754601
33015,Miami-Dade County,FL,NA,43.360433604336045,NA
33018,Miami-Dade County,FL,75.56390977443608,NA,NA
33024,Broward County,FL,NA,NA,18.03680981595092
33040,Monroe County,FL,NA,NA,60.24539877300613
33056,Miami-Dade County,FL,NA,46.205962059620596,NA
33068,Broward County,FL,NA,NA,71.53374233128834
33069,Broward County,FL,NA,NA,11.779141104294478
33138,Miami-Dade County,FL,NA,60.56910569105691,NA
33145,Miami-Dade County,FL,NA,NA,28.957055214723926
33154,Miami-Dade County,FL,NA,77.64227642276423,NA
33156,Miami-Dade County,FL,NA,NA,76.56441717791411
33161,Miami-Dade County,FL,NA,NA,34.23312883435583
33165,Miami-Dade County,FL,NA,34.68834688346883,NA
33174,Miami-Dade County,FL,NA,92.95392953929539,NA
33312,Broward County,FL,NA,19.37669376693767,NA
33322,Broward County,FL,NA,64.63414634146342,NA
33409,Palm Beach County,FL,NA,84.82384823848238,NA
33411,Palm Beach County,FL,NA,NA,19.38650306748466
33414,Palm Beach County,FL,NA,NA,63.68098159509202
33441,Broward County,FL,NA,61.24661246612466,NA
33445,Palm Beach County,FL,NA,63.41463414634146,NA
33446,Palm Beach County,FL,NA,NA,22.33128834355828
33461,Palm Beach County,FL,NA,83.33333333333334,NA
33462,Palm Beach County,FL,NA,NA,39.018404907975466
33477,Palm Beach County,FL,NA,NA,36.809815950920246
33484,Palm Beach County,FL,NA,NA,2.331288343558282
33540,Pasco County,FL,89.47368421052632,NA,NA
33573,Hillsborough County,FL,NA,NA,2.6993865030674846
33611,Hillsborough County,FL,NA,84.14634146341463,NA
33716,Pinellas County,FL,NA,NA,82.20858895705521
33759,Pinellas County,FL,NA,74.25474254742548,NA
33776,Pinellas County,FL,NA,NA,72.51533742331289
33812,Polk County,FL,NA,87.12737127371274,NA
33860,Polk County,FL,NA,NA,97.42331288343559
33870,Highlands County,FL,NA,NA,9.938650306748466
33875,Highlands County,FL,NA,NA,87.85276073619632
33903,Lee County,FL,NA,NA,23.43558282208589
33913,Lee County,FL,93.60902255639097,NA,NA
33917,Lee County,FL,NA,NA,12.515337423312884
33922,Lee County,FL,NA,NA,86.62576687116564
33950,Charlotte County,FL,NA,NA,21.226993865030675
33952,Charlotte County,FL,NA,32.113821138211385,NA
33983,Charlotte County,FL,NA,72.35772357723577,NA
34104,Collier County,FL,NA,80.75880758807588,NA
34108,Collier County,FL,NA,NA,29.20245398773006
34110,Collier County,FL,NA,48.9159891598916,NA
34114,Collier County,FL,NA,NA,74.47852760736197
34119,Collier County,FL,NA,26.287262872628723,NA
34203,Manatee County,FL,NA,21.680216802168022,NA
34209,Manatee County,FL,NA,NA,19.631901840490798
34210,Manatee County,FL,NA,NA,96.07361963190183
34219,Manatee County,FL,NA,NA,89.57055214723927
34223,Sarasota County,FL,NA,NA,29.69325153374233
34231,Sarasota County,FL,NA,NA,4.41717791411043
34243,Manatee County,FL,NA,NA,7.116564417177915
34285,Sarasota County,FL,NA,70.05420054200542,41.47239263803681
34287,Sarasota County,FL,NA,28.72628726287263,NA
34293,Sarasota County,FL,NA,NA,40.98159509202454
34471,Marion County,FL,NA,NA,45.15337423312884
34472,Marion County,FL,40.225563909774436,NA,72.26993865030676
34481,Marion County,FL,NA,NA,11.28834355828221
34606,Hernando County,FL,NA,70.59620596205963,NA
34613,Hernando County,FL,NA,33.60433604336043,NA
34653,Pasco County,FL,29.32330827067669,NA,NA
34668,Pasco County,FL,NA,22.086720867208673,NA
34683,Pinellas County,FL,NA,NA,44.417177914110425
34691,Pasco County,FL,NA,79.13279132791328,NA
34731,Lake County,FL,NA,82.52032520325203,NA
34737,Lake County,FL,NA,100,NA
34787,Orange County,FL,NA,NA,55.828220858895705
34953,St. Lucie County,FL,4.887218045112782,NA,NA
34982,St. Lucie County,FL,NA,NA,49.693251533742334
34984,St. Lucie County,FL,NA,73.84823848238482,NA
34997,Martin County,FL,NA,8.130081300813007,NA
30041,Forsyth County,GA,28.195488721804512,NA,NA
30045,Gwinnett County,GA,NA,70.73170731707317,NA
30047,Gwinnett County,GA,NA,25.609756097560975,NA
30064,Cobb County,GA,NA,67.47967479674797,NA
30084,DeKalb County,GA,NA,NA,64.1717791411043
30097,Fulton County,GA,NA,NA,39.263803680981596
30101,Cobb County,GA,NA,26.151761517615174,NA
30114,Cherokee County,GA,NA,27.506775067750677,NA
30117,Carroll County,GA,NA,NA,28.588957055214724
30120,Bartow County,GA,19.548872180451127,43.63143631436314,NA
30126,Cobb County,GA,NA,61.517615176151764,NA
30143,Pickens County,GA,85.33834586466166,NA,NA
30157,Paulding County,GA,NA,NA,46.74846625766872
30349,Fulton County,GA,NA,NA,62.08588957055214
30517,Jackson County,GA,NA,81.30081300813008,NA
30533,Lumpkin County,GA,NA,76.28726287262873,NA
30542,Hall County,GA,NA,39.701897018970186,NA
30566,Hall County,GA,NA,NA,91.53374233128835
30582,Towns County,GA,NA,95.1219512195122,NA
30643,Hart County,GA,NA,NA,59.87730061349693
30662,Franklin County,GA,NA,92.54742547425474,NA
30683,Clarke County,GA,NA,92.6829268292683,NA
30728,Walker County,GA,NA,NA,65.52147239263803
30813,Columbia County,GA,NA,37.94037940379404,NA
30815,Richmond County,GA,NA,65.85365853658537,NA
30904,Richmond County,GA,NA,19.51219512195122,NA
30909,Richmond County,GA,NA,NA,59.018404907975466
31015,Crisp County,GA,NA,31.70731707317073,NA
31052,Bibb County,GA,NA,85.77235772357723,NA
31320,Liberty County,GA,NA,83.46883468834689,NA
31324,Bryan County,GA,92.4812030075188,NA,NA
31406,Chatham County,GA,NA,NA,27.484662576687118
31501,Ware County,GA,NA,NA,81.47239263803681
31605,Lowndes County,GA,NA,NA,71.16564417177914
31636,Lowndes County,GA,NA,60.298102981029814,NA
31701,Dougherty County,GA,NA,35.636856368563684,NA
31768,Colquitt County,GA,NA,79.81029810298102,NA
31779,Mitchell County,GA,NA,NA,88.58895705521472
31822,Harris County,GA,NA,NA,96.1963190184049
96707,Honolulu County,HI,NA,NA,53.74233128834356
96717,Honolulu County,HI,NA,98.3739837398374,NA
96744,Honolulu County,HI,NA,NA,3.190184049079755
96753,Maui County,HI,NA,71.95121951219512,NA
96786,Honolulu County,HI,33.83458646616541,NA,NA
96816,Honolulu County,HI,NA,NA,5.276073619631902
96817,Honolulu County,HI,NA,NA,4.662576687116564
96826,Honolulu County,HI,NA,NA,32.63803680981595
83301,Twin Falls County,ID,18.045112781954884,NA,NA
83338,Jerome County,ID,NA,NA,35.95092024539877
83402,Bonneville County,ID,80.82706766917293,NA,NA
83501,Nez Perce County,ID,NA,NA,5.766871165644172
83634,Ada County,ID,NA,45.25745257452575,59.38650306748466
83644,Canyon County,ID,NA,50,NA
83646,Ada County,ID,NA,NA,69.93865030674846
83647,Elmore County,ID,NA,NA,43.80368098159509
83669,Ada County,ID,NA,NA,60.122699386503065
83704,Ada County,ID,NA,3.7940379403794036,NA
83706,Ada County,ID,NA,23.170731707317074,NA
83714,Ada County,ID,NA,15.040650406504067,43.92638036809816
83854,Kootenai County,ID,NA,22.493224932249323,NA
83860,Bonner County,ID,NA,98.23848238482384,NA
60014,McHenry County,IL,NA,14.498644986449866,NA
60026,Cook County,IL,NA,NA,59.6319018404908
60031,Lake County,IL,NA,22.628726287262875,NA
60041,Lake County,IL,NA,74.11924119241192,NA
60067,Cook County,IL,NA,NA,12.392638036809817
60076,Cook County,IL,NA,23.306233062330623,NA
60083,Lake County,IL,NA,NA,88.95705521472392
60102,McHenry County,IL,NA,NA,46.13496932515338
60108,DuPage County,IL,NA,NA,64.5398773006135
60115,DeKalb County,IL,NA,NA,25.644171779141107
60154,Cook County,IL,NA,25.067750677506773,NA
60178,DeKalb County,IL,55.26315789473685,NA,NA
60185,DuPage County,IL,NA,27.91327913279133,NA
60302,Cook County,IL,NA,NA,66.99386503067485
60402,Cook County,IL,NA,38.75338753387534,NA
60403,Will County,IL,NA,38.88888888888889,NA
60404,Will County,IL,NA,40.921409214092144,NA
60409,Cook County,IL,NA,31.842818428184284,NA
60411,Cook County,IL,NA,10.70460704607046,NA
60422,Cook County,IL,83.0827067669173,NA,NA
60423,Will County,IL,NA,NA,40.3680981595092
60439,Cook County,IL,NA,51.6260162601626,NA
60443,Cook County,IL,NA,36.58536585365854,NA
60450,Grundy County,IL,24.81203007518797,NA,NA
60459,Cook County,IL,NA,NA,38.52760736196319
60465,Cook County,IL,NA,NA,80.3680981595092
60473,Cook County,IL,NA,NA,24.294478527607364
60481,Will County,IL,NA,54.74254742547425,NA
60517,DuPage County,IL,NA,32.65582655826558,NA
60527,DuPage County,IL,NA,10.975609756097562,NA
60560,Kendall County,IL,NA,52.574525745257446,NA
60561,DuPage County,IL,57.5187969924812,NA,NA
60611,Cook County,IL,NA,NA,10.30674846625767
60614,Cook County,IL,NA,16.93766937669377,NA
60615,Cook County,IL,NA,17.208672086720867,NA
60619,Cook County,IL,NA,NA,1.5950920245398774
60630,Cook County,IL,73.30827067669173,NA,NA
60634,Cook County,IL,NA,8.807588075880759,NA
60638,Cook County,IL,NA,NA,26.012269938650306
60641,Cook County,IL,NA,67.75067750677508,NA
60644,Cook County,IL,NA,NA,14.355828220858896
60645,Cook County,IL,NA,NA,17.791411042944784
60651,Cook County,IL,NA,8.94308943089431,NA
60652,Cook County,IL,NA,NA,45.15337423312884
60942,Vermilion County,IL,NA,95.39295392953929,NA
61008,Boone County,IL,NA,NA,29.447852760736197
61101,Winnebago County,IL,NA,NA,40.24539877300614
61611,Tazewell County,IL,NA,NA,75.21472392638037
61614,Peoria County,IL,NA,NA,57.79141104294479
61727,De Witt County,IL,70.67669172932331,NA,NA
62025,Madison County,IL,NA,41.19241192411924,NA
62526,Macon County,IL,NA,NA,4.785276073619632
62650,Morgan County,IL,53.383458646616546,NA,NA
62704,Sangamon County,IL,NA,28.86178861788618,12.269938650306749
46013,Madison County,IN,NA,19.78319783197832,NA
46016,Madison County,IN,NA,30.35230352303523,37.54601226993865
46041,Clinton County,IN,34.58646616541353,NA,NA
46060,Hamilton County,IN,NA,NA,32.39263803680982
46062,Hamilton County,IN,NA,17.615176151761517,NA
46135,Putnam County,IN,NA,NA,34.7239263803681
46143,Johnson County,IN,NA,NA,5.030674846625767
46158,Morgan County,IN,NA,NA,19.509202453987733
46168,Hendricks County,IN,NA,51.21951219512195,NA
46235,Marion County,IN,NA,NA,57.54601226993865
46241,Marion County,IN,NA,NA,52.638036809815944
46260,Marion County,IN,NA,45.799457994579946,NA
46307,Lake County,IN,NA,1.8970189701897018,NA
46342,Lake County,IN,NA,13.279132791327914,16.19631901840491
46360,LaPorte County,IN,NA,5.420054200542006,16.07361963190184
46368,Porter County,IN,NA,15.718157181571815,NA
46373,Lake County,IN,NA,36.17886178861789,NA
46383,Porter County,IN,NA,5.691056910569105,NA
46406,Lake County,IN,62.78195488721805,NA,NA
46407,Lake County,IN,NA,71.13821138211382,NA
46530,St. Joseph County,IN,NA,63.143631436314365,NA
46582,Kosciusko County,IN,NA,73.03523035230353,NA
46795,LaGrange County,IN,96.61654135338345,NA,NA
46902,Howard County,IN,NA,4.200542005420054,NA
46947,Cass County,IN,43.233082706766915,NA,NA
46953,Grant County,IN,NA,NA,47.607361963190186
46962,Wabash County,IN,NA,85.36585365853658,NA
46970,Miami County,IN,7.142857142857142,56.77506775067751,NA
47041,Ripley County,IN,NA,86.58536585365853,NA
47172,Clark County,IN,NA,62.87262872628726,NA
47274,Jackson County,IN,NA,NA,28.098159509202453
47362,Henry County,IN,NA,NA,8.83435582822086
47429,Monroe County,IN,NA,NA,82.69938650306749
47546,Dubois County,IN,51.8796992481203,NA,NA
47725,Vanderburgh County,IN,NA,NA,91.65644171779141
47933,Montgomery County,IN,NA,NA,22.57668711656442
50021,Polk County,IA,74.81203007518798,NA,NA
50208,Jasper County,IA,NA,NA,96.31901840490798
50273,Madison County,IA,NA,NA,78.15950920245399
50309,Polk County,IA,NA,63.143631436314365,NA
50441,Franklin County,IA,NA,NA,67.48466257668711
50501,Webster County,IA,57.14285714285714,NA,60.858895705521476
50548,Humboldt County,IA,NA,87.53387533875339,NA
50613,Black Hawk County,IA,NA,NA,3.8036809815950923
50701,Black Hawk County,IA,NA,NA,48.58895705521473
50801,Union County,IA,NA,NA,50.42944785276073
51012,Cherokee County,IA,NA,92.81842818428184,NA
52002,Dubuque County,IA,NA,NA,73.49693251533742
52057,Delaware County,IA,NA,NA,80.85889570552148
52403,Linn County,IA,NA,39.43089430894309,NA
52501,Wapello County,IA,NA,NA,26.87116564417178
52742,Clinton County,IA,NA,94.44444444444444,NA
66216,Johnson County,KS,NA,56.36856368563685,NA
66605,Shawnee County,KS,NA,53.387533875338754,NA
66616,Shawnee County,KS,NA,NA,93.86503067484662
67147,Sedgwick County,KS,NA,NA,92.26993865030676
67230,Sedgwick County,KS,99.62406015037594,NA,NA
67357,Labette County,KS,88.34586466165413,NA,NA
67502,Reno County,KS,NA,NA,51.90184049079755
40031,Oldham County,KY,NA,52.30352303523035,NA
40047,Bullitt County,KY,NA,53.794037940379404,NA
40069,Washington County,KY,NA,NA,97.79141104294479
40203,Jefferson County,KY,NA,39.02439024390244,NA
40207,Jefferson County,KY,69.92481203007519,NA,NA
40218,Jefferson County,KY,NA,37.53387533875339,NA
40241,Jefferson County,KY,NA,NA,62.20858895705521
40383,Woodford County,KY,NA,42.54742547425474,NA
40475,Madison County,KY,NA,NA,55.4601226993865
40502,Fayette County,KY,NA,50.5420054200542,NA
40503,Fayette County,KY,NA,NA,63.80368098159509
40508,Fayette County,KY,34.962406015037594,NA,NA
40701,Whitley County,KY,7.518796992481203,NA,22.085889570552148
40769,Whitley County,KY,34.21052631578947,NA,NA
40965,Bell County,KY,58.64661654135338,NA,NA
40977,Bell County,KY,53.75939849624061,NA,NA
41230,Lawrence County,KY,NA,NA,63.92638036809816
41311,Lee County,KY,NA,80.08130081300813,NA
41339,Breathitt County,KY,NA,NA,67.23926380368098
42001,McCracken County,KY,NA,NA,35.21472392638037
42041,Fulton County,KY,NA,NA,88.83435582822085
42141,Barren County,KY,NA,NA,8.957055214723926
42206,Logan County,KY,NA,NA,98.77300613496932
42431,Hopkins County,KY,22.18045112781955,26.558265582655828,NA
42445,Caldwell County,KY,NA,62.46612466124661,NA
42501,Pulaski County,KY,NA,NA,33.49693251533743
42718,Taylor County,KY,10.150375939849624,NA,NA
70005,Jefferson Parish,LA,NA,23.848238482384822,NA
70126,Orleans Parish,LA,NA,NA,17.66871165644172
70359,Terrebonne Parish,LA,NA,70.86720867208672,NA
70364,Terrebonne Parish,LA,NA,58.80758807588076,NA
70403,Tangipahoa Parish,LA,5.639097744360902,NA,NA
70433,St. Tammany Parish,LA,NA,7.8590785907859075,4.539877300613497
70445,St. Tammany Parish,LA,NA,NA,84.78527607361963
70501,Lafayette Parish,LA,55.639097744360896,NA,NA
70506,Lafayette Parish,LA,NA,17.479674796747968,NA
70507,Lafayette Parish,LA,NA,46.070460704607044,NA
70578,Acadia Parish,LA,NA,41.32791327913279,NA
70601,Calcasieu Parish,LA,1.1278195488721803,NA,NA
70668,Calcasieu Parish,LA,NA,NA,86.99386503067484
70754,Livingston Parish,LA,NA,NA,96.56441717791411
70812,East Baton Rouge Parish,LA,NA,80.35230352303523,NA
71078,De Soto Parish,LA,NA,75.06775067750678,NA
71106,Caddo Parish,LA,NA,13.143631436314362,NA
71270,Lincoln Parish,LA,NA,NA,52.392638036809814
71360,Rapides Parish,LA,NA,26.693766937669377,NA
71418,Caldwell Parish,LA,46.616541353383454,NA,NA
71483,Winn Parish,LA,68.796992481203,NA,NA
04005,York County,ME,13.909774436090224,NA,NA
04090,York County,ME,NA,30.081300813008134,NA
04105,Cumberland County,ME,NA,79.40379403794037,NA
04276,Oxford County,ME,NA,NA,70.5521472392638
04280,Androscoggin County,ME,NA,NA,59.263803680981596
04281,Oxford County,ME,NA,NA,96.80981595092024
04330,Kennebec County,ME,NA,7.046070460704606,9.938650306748466
04345,Kennebec County,ME,NA,50.67750677506775,NA
04730,Aroostook County,ME,NA,77.77777777777779,NA
04843,Knox County,ME,NA,NA,77.30061349693251
04915,Waldo County,ME,71.42857142857143,NA,NA
20706,Prince George's County,MD,NA,NA,80.98159509202453
20740,Prince George's County,MD,NA,92.14092140921409,NA
20747,Prince George's County,MD,47.744360902255636,NA,NA
20764,Anne Arundel County,MD,98.49624060150376,NA,NA
20782,Prince George's County,MD,NA,66.53116531165311,NA
20852,Montgomery County,MD,NA,NA,22.699386503067483
20876,Montgomery County,MD,66.54135338345864,NA,NA
20877,Montgomery County,MD,NA,81.43631436314364,NA
20878,Montgomery County,MD,NA,59.62059620596206,NA
20895,Montgomery County,MD,NA,NA,68.22085889570552
21013,Baltimore County,MD,NA,NA,94.60122699386503
21042,Howard County,MD,NA,NA,46.25766871165644
21122,Anne Arundel County,MD,NA,45.1219512195122,NA
21222,Baltimore County,MD,43.984962406015036,NA,NA
21227,Baltimore County,MD,NA,47.15447154471545,NA
21286,Baltimore County,MD,92.10526315789474,NA,NA
21502,Allegany County,MD,NA,NA,6.012269938650307
21601,Talbot County,MD,NA,41.46341463414634,NA
21617,Queen Anne's County,MD,NA,90.37940379403794,NA
21620,Kent County,MD,NA,NA,46.62576687116564
21817,Somerset County,MD,NA,NA,78.8957055214724
21842,Worcester County,MD,NA,NA,44.29447852760736
01013,Hampden County,MA,NA,NA,16.93251533742331
01073,Hampshire County,MA,NA,NA,84.78527607361963
01075,Hampshire County,MA,NA,NA,42.08588957055215
01085,Hampden County,MA,NA,2.4390243902439024,31.901840490797547
01240,Berkshire County,MA,NA,NA,49.938650306748464
01463,Middlesex County,MA,NA,49.457994579945805,NA
01501,Worcester County,MA,NA,NA,18.89570552147239
01536,Worcester County,MA,79.32330827067669,NA,NA
01581,Worcester County,MA,NA,NA,58.40490797546012
01603,Worcester County,MA,NA,2.8455284552845526,NA
01701,Middlesex County,MA,NA,NA,7.730061349693251
01740,Worcester County,MA,NA,98.1029810298103,NA
01742,Middlesex County,MA,NA,NA,26.748466257668714
01748,Middlesex County,MA,NA,69.64769647696477,NA
01752,Middlesex County,MA,NA,NA,25.766871165644172
01754,Middlesex County,MA,NA,NA,98.28220858895705
01776,Middlesex County,MA,NA,40.243902439024396,NA
01832,Essex County,MA,NA,10.433604336043361,NA
01841,Essex County,MA,NA,84.01084010840108,NA
01844,Essex County,MA,0.37593984962406013,NA,98.65030674846625
01867,Middlesex County,MA,NA,37.80487804878049,NA
01876,Middlesex County,MA,NA,3.2520325203252036,NA
01880,Middlesex County,MA,NA,NA,10.920245398773005
01890,Middlesex County,MA,NA,31.571815718157183,NA
01902,Essex County,MA,NA,0.8130081300813009,NA
01915,Essex County,MA,NA,NA,0.7361963190184049
01923,Essex County,MA,NA,NA,2.085889570552147
01969,Essex County,MA,90.6015037593985,NA,NA
01970,Essex County,MA,NA,NA,75.33742331288343
02048,Bristol County,MA,NA,NA,33.374233128834355
02054,Norfolk County,MA,NA,NA,97.05521472392637
02116,Suffolk County,MA,NA,NA,49.8159509202454
02119,Suffolk County,MA,NA,NA,93.25153374233128
02134,Suffolk County,MA,NA,NA,54.84662576687117
02138,Middlesex County,MA,NA,NA,11.901840490797547
02139,Middlesex County,MA,NA,NA,41.84049079754602
02143,Middlesex County,MA,NA,73.17073170731707,NA
02148,Middlesex County,MA,NA,NA,48.95705521472393
02150,Suffolk County,MA,NA,1.084010840108401,70.1840490797546
02151,Suffolk County,MA,NA,0,NA
02155,Middlesex County,MA,NA,0.6775067750677507,NA
02330,Plymouth County,MA,NA,80.62330623306234,NA
02360,Plymouth County,MA,NA,6.097560975609756,0.98159509202454
02375,Bristol County,MA,92.85714285714286,NA,NA
02446,Norfolk County,MA,NA,32.926829268292686,NA
02466,Middlesex County,MA,NA,95.6639566395664,NA
02474,Middlesex County,MA,NA,NA,40.736196319018404
02476,Middlesex County,MA,NA,26.01626016260163,NA
02494,Norfolk County,MA,NA,NA,42.45398773006135
02648,Barnstable County,MA,NA,NA,57.91411042944785
02649,Barnstable County,MA,NA,NA,53.25153374233129
02740,Bristol County,MA,NA,0.13550135501355012,NA
02744,Bristol County,MA,NA,NA,56.31901840490797
02777,Bristol County,MA,NA,14.092140921409213,NA
02780,Bristol County,MA,NA,NA,39.14110429447853
48001,St. Clair County,MI,NA,68.56368563685636,NA
48033,Oakland County,MI,NA,NA,56.07361963190184
48034,Oakland County,MI,NA,NA,37.17791411042945
48035,Macomb County,MI,NA,9.89159891598916,NA
48038,Macomb County,MI,NA,NA,3.6809815950920246
48044,Macomb County,MI,NA,NA,19.87730061349693
48045,Macomb County,MI,25.18796992481203,NA,NA
48059,St. Clair County,MI,66.16541353383458,NA,NA
48066,Macomb County,MI,NA,7.994579945799458,NA
48067,Oakland County,MI,NA,42.140921409214094,NA
48072,Oakland County,MI,NA,NA,53.37423312883436
48088,Macomb County,MI,86.09022556390977,NA,NA
48089,Macomb County,MI,NA,NA,47.484662576687114
48093,Macomb County,MI,NA,36.449864498644985,17.42331288343558
48103,Washtenaw County,MI,NA,NA,1.96319018404908
48104,Washtenaw County,MI,86.8421052631579,NA,NA
48108,Washtenaw County,MI,NA,NA,21.96319018404908
48118,Washtenaw County,MI,NA,66.39566395663957,NA
48125,Wayne County,MI,NA,88.34688346883469,NA
48126,Wayne County,MI,NA,NA,65.15337423312883
48127,Wayne County,MI,NA,NA,66.13496932515336
48133,Monroe County,MI,NA,NA,86.0122699386503
48146,Wayne County,MI,NA,NA,22.94478527607362
48150,Wayne County,MI,NA,NA,94.84662576687116
48154,Wayne County,MI,NA,7.317073170731707,85.6441717791411
48160,Washtenaw County,MI,NA,NA,58.03680981595092
48164,Wayne County,MI,NA,NA,71.65644171779141
48167,Oakland County,MI,NA,25.880758807588077,NA
48168,Wayne County,MI,NA,NA,28.22085889570552
48169,Livingston County,MI,NA,63.55013550135501,31.779141104294478
48178,Oakland County,MI,NA,NA,6.871165644171779
48183,Wayne County,MI,NA,NA,10.184049079754601
48185,Wayne County,MI,4.511278195488721,NA,6.993865030674846
48187,Wayne County,MI,NA,NA,7.6073619631901845
48204,Wayne County,MI,NA,29.945799457994582,NA
48210,Wayne County,MI,27.06766917293233,NA,NA
48221,Wayne County,MI,NA,6.368563685636857,70.67484662576688
48223,Wayne County,MI,NA,37.12737127371274,NA
48229,Wayne County,MI,NA,90.10840108401084,NA
48234,Wayne County,MI,NA,NA,21.472392638036812
48235,Wayne County,MI,1.5037593984962405,NA,NA
48236,Wayne County,MI,NA,13.956639566395665,NA
48237,Oakland County,MI,NA,18.97018970189702,27.23926380368098
48302,Oakland County,MI,68.42105263157895,NA,26.87116564417178
48307,Oakland County,MI,NA,NA,12.76073619631902
48309,Oakland County,MI,NA,NA,20.736196319018404
48312,Macomb County,MI,NA,16.260162601626014,NA
48323,Oakland County,MI,54.51127819548872,NA,82.33128834355828
48324,Oakland County,MI,58.27067669172933,NA,78.40490797546012
48327,Oakland County,MI,31.954887218045116,NA,NA
48329,Oakland County,MI,NA,21.27371273712737,NA
48341,Oakland County,MI,29.69924812030075,NA,NA
48382,Oakland County,MI,NA,67.88617886178862,NA
48393,Oakland County,MI,47.368421052631575,NA,NA
48416,Sanilac County,MI,NA,94.17344173441734,NA
48433,Genesee County,MI,NA,NA,34.60122699386503
48439,Genesee County,MI,NA,15.311653116531165,NA
48441,Huron County,MI,NA,NA,93.74233128834356
48442,Oakland County,MI,87.21804511278195,NA,NA
48504,Genesee County,MI,NA,NA,48.83435582822086
48612,Gladwin County,MI,NA,44.44444444444444,NA
48623,Saginaw County,MI,NA,47.018970189701896,NA
48632,Clare County,MI,NA,NA,93.37423312883436
48638,Saginaw County,MI,NA,NA,57.05521472392638
48650,Bay County,MI,NA,NA,89.079754601227
48653,Roscommon County,MI,NA,NA,57.17791411042945
48655,Saginaw County,MI,NA,83.60433604336043,NA
48661,Ogemaw County,MI,NA,51.76151761517615,NA
48827,Eaton County,MI,NA,NA,51.533742331288344
48836,Livingston County,MI,90.22556390977444,NA,NA
48840,Ingham County,MI,NA,NA,57.17791411042945
48858,Isabella County,MI,NA,31.978319783197833,8.588957055214724
48867,Shiawassee County,MI,NA,NA,67.11656441717791
48883,Isabella County,MI,NA,87.26287262872629,NA
49008,Kalamazoo County,MI,NA,92.27642276422763,NA
49022,Berrien County,MI,NA,43.766937669376695,NA
49028,Branch County,MI,NA,82.92682926829268,NA
49046,Barry County,MI,NA,NA,94.23312883435582
49048,Kalamazoo County,MI,NA,30.21680216802168,NA
49058,Barry County,MI,NA,NA,43.31288343558282
49068,Calhoun County,MI,56.015037593984964,NA,NA
49076,Eaton County,MI,NA,93.08943089430895,NA
49093,St. Joseph County,MI,NA,NA,31.41104294478528
49250,Hillsdale County,MI,NA,NA,90.920245398773
49286,Lenawee County,MI,NA,NA,95.8282208588957
49344,Allegan County,MI,NA,98.91598915989161,NA
49346,Mecosta County,MI,NA,66.80216802168022,NA
49404,Ottawa County,MI,88.7218045112782,NA,NA
49417,Ottawa County,MI,16.165413533834585,6.775067750677506,13.25153374233129
49418,Kent County,MI,NA,61.111111111111114,NA
49423,Ottawa County,MI,NA,57.18157181571816,NA
49424,Ottawa County,MI,11.278195488721805,NA,NA
49428,Ottawa County,MI,NA,NA,47.85276073619632
49441,Muskegon County,MI,NA,24.796747967479675,2.4539877300613497
49525,Kent County,MI,NA,NA,34.96932515337423
49548,Kent County,MI,NA,13.685636856368562,NA
49601,Wexford County,MI,NA,NA,81.96319018404908
49651,Missaukee County,MI,NA,89.83739837398373,NA
49685,Grand Traverse County,MI,51.50375939849624,47.425474254742554,NA
49686,Grand Traverse County,MI,NA,NA,15.337423312883436
49756,Montmorency County,MI,NA,NA,76.31901840490798
49807,Delta County,MI,NA,94.03794037940379,NA
49829,Delta County,MI,33.45864661654135,NA,NA
49841,Marquette County,MI,NA,74.52574525745257,NA
49913,Houghton County,MI,NA,NA,71.28834355828221
55037,Pine County,MN,NA,NA,92.76073619631902
55068,Dakota County,MN,NA,NA,87.48466257668711
55077,Dakota County,MN,NA,NA,75.4601226993865
55082,Washington County,MN,NA,NA,75.58282208588956
55118,Dakota County,MN,NA,41.05691056910569,NA
55128,Washington County,MN,NA,NA,46.012269938650306
55336,McLeod County,MN,NA,NA,45.39877300613497
55337,Dakota County,MN,NA,NA,27.23926380368098
55347,Hennepin County,MN,NA,NA,95.4601226993865
55369,Hennepin County,MN,36.46616541353384,NA,NA
55387,Carver County,MN,NA,81.84281842818429,NA
55405,Hennepin County,MN,NA,NA,79.87730061349694
55406,Hennepin County,MN,NA,NA,63.312883435582826
55413,Hennepin County,MN,NA,97.15447154471545,NA
55423,Hennepin County,MN,NA,38.482384823848236,NA
55446,Hennepin County,MN,82.33082706766918,NA,NA
55731,St. Louis County,MN,NA,NA,89.4478527607362
55744,Itasca County,MN,14.661654135338345,54.607046070460704,NA
55804,St. Louis County,MN,NA,NA,19.754601226993866
55811,St. Louis County,MN,NA,NA,2.208588957055215
56073,Brown County,MN,NA,NA,2.5766871165644174
56377,Stearns County,MN,NA,86.85636856368563,NA
56501,Becker County,MN,NA,NA,68.46625766871166
56537,Otter Tail County,MN,16.541353383458645,NA,NA
56573,Otter Tail County,MN,NA,72.76422764227642,88.46625766871166
56601,Beltrami County,MN,NA,NA,43.190184049079754
56621,Clearwater County,MN,NA,NA,65.39877300613497
38606,Panola County,MS,NA,77.50677506775068,NA
38611,Marshall County,MS,NA,NA,81.47239263803681
38804,Lee County,MS,NA,NA,68.58895705521473
39042,Rankin County,MS,NA,NA,13.374233128834357
39047,Rankin County,MS,NA,39.83739837398374,NA
39120,Adams County,MS,NA,NA,72.63803680981596
39301,Lauderdale County,MS,16.917293233082706,NA,NA
39325,Lauderdale County,MS,NA,NA,95.70552147239265
39341,Noxubee County,MS,NA,89.43089430894308,NA
39482,Lamar County,MS,87.96992481203007,NA,NA
39507,Harrison County,MS,NA,33.33333333333333,NA
39562,Jackson County,MS,NA,44.579945799457995,NA
39730,Monroe County,MS,78.19548872180451,64.90514905149053,83.92638036809817
39735,Choctaw County,MS,NA,87.8048780487805,NA
63031,St. Louis County,MO,NA,12.330623306233063,NA
63090,Franklin County,MO,NA,91.869918699187,NA
63117,St. Louis County,MO,NA,NA,94.11042944785277
63123,St. Louis County,MO,NA,NA,2.9447852760736195
63130,St. Louis County,MO,NA,NA,39.87730061349693
63131,St. Louis County,MO,NA,71.27371273712737,NA
63132,St. Louis County,MO,NA,NA,43.43558282208589
63137,St. Louis County,MO,NA,NA,69.57055214723925
63664,Washington County,MO,NA,NA,60.24539877300613
63857,Dunklin County,MO,45.48872180451128,NA,NA
63935,Ripley County,MO,NA,NA,67.97546012269939
64037,Lafayette County,MO,NA,79.53929539295393,NA
64093,Johnson County,MO,NA,35.50135501355013,NA
64116,Clay County,MO,NA,40.10840108401084,NA
64118,Clay County,MO,NA,NA,26.134969325153374
64138,Jackson County,MO,NA,16.53116531165312,29.938650306748464
64505,Buchanan County,MO,NA,23.306233062330623,NA
64628,Linn County,MO,NA,88.88888888888889,NA
64640,Daviess County,MO,NA,99.7289972899729,NA
64836,Jasper County,MO,NA,NA,14.11042944785276
64850,Newton County,MO,NA,NA,56.687116564417174
65202,Boone County,MO,7.894736842105263,NA,NA
65203,Boone County,MO,NA,11.246612466124661,5.398773006134969
65270,Randolph County,MO,NA,71.27371273712737,NA
65301,Pettis County,MO,NA,8.401084010840108,NA
65336,Johnson County,MO,NA,99.86449864498645,NA
65536,Laclede County,MO,NA,NA,24.171779141104295
65653,Taney County,MO,NA,NA,80
59404,Cascade County,MT,NA,NA,11.65644171779141
59701,Silver Bow County,MT,NA,36.72086720867209,NA
68107,Douglas County,NE,NA,54.87804878048781,NA
68136,Sarpy County,NE,NA,86.44986449864498,NA
68352,Jefferson County,NE,NA,NA,97.66871165644172
68467,York County,NE,NA,NA,77.54601226993864
68701,Madison County,NE,NA,96.88346883468834,NA
69301,Box Butte County,NE,NA,66.12466124661248,NA
89107,Clark County,NV,NA,NA,73.25153374233129
89130,Clark County,NV,NA,53.116531165311656,NA
89142,Clark County,NV,NA,NA,90.30674846625767
89148,Clark County,NV,NA,NA,84.29447852760737
89178,Clark County,NV,NA,88.21138211382113,NA
89434,Washoe County,NV,NA,67.20867208672087,NA
89445,Humboldt County,NV,95.11278195488721,NA,NA
89503,Washoe County,NV,NA,41.59891598915989,NA
89506,Washoe County,NV,NA,95.52845528455285,NA
89511,Washoe County,NV,NA,26.693766937669377,NA
89512,Washoe County,NV,NA,NA,76.31901840490798
03033,Hillsborough County,NH,98.1203007518797,NA,NA
03051,Hillsborough County,NH,22.18045112781955,NA,NA
03062,Hillsborough County,NH,NA,69.24119241192412,NA
03076,Hillsborough County,NH,NA,55.420054200542005,NA
03077,Rockingham County,NH,NA,NA,89.20245398773005
03102,Hillsborough County,NH,NA,15.447154471544716,NA
03104,Hillsborough County,NH,NA,13.550135501355012,NA
03110,Hillsborough County,NH,NA,34.823848238482384,NA
03301,Merrimack County,NH,NA,90.2439024390244,NA
03303,Merrimack County,NH,NA,82.65582655826557,NA
03561,Grafton County,NH,NA,91.73441734417345,NA
03818,Carroll County,NH,NA,99.1869918699187,NA
07026,Bergen County,NJ,NA,NA,39.6319018404908
07035,Morris County,NJ,60.526315789473685,NA,NA
07052,Essex County,NJ,NA,14.905149051490515,NA
07063,Union County,NJ,NA,NA,90.79754601226993
07067,Middlesex County,NJ,NA,71.54471544715447,55.09202453987731
07083,Union County,NJ,NA,NA,24.9079754601227
07094,Hudson County,NJ,NA,76.69376693766937,58.77300613496933
07103,Essex County,NJ,NA,NA,50.061349693251536
07105,Essex County,NJ,NA,29.40379403794038,NA
07111,Essex County,NJ,NA,9.214092140921409,NA
07208,Union County,NJ,NA,NA,40.61349693251534
07304,Hudson County,NJ,NA,NA,36.07361963190184
07438,Morris County,NJ,NA,NA,76.1963190184049
07442,Passaic County,NJ,NA,72.89972899728997,NA
07656,Bergen County,NJ,NA,NA,78.77300613496932
07663,Bergen County,NJ,NA,91.32791327913279,NA
07701,Monmouth County,NJ,NA,NA,46.74846625766872
07724,Monmouth County,NJ,NA,34.417344173441734,NA
07726,Monmouth County,NJ,NA,NA,64.41717791411043
07832,Warren County,NJ,NA,99.05149051490515,NA
07843,Sussex County,NJ,NA,92.41192411924119,NA
07866,Morris County,NJ,NA,42.00542005420054,NA
07920,Somerset County,NJ,NA,NA,61.717791411042946
07960,Morris County,NJ,NA,20.867208672086722,NA
08003,Camden County,NJ,NA,NA,17.177914110429448
08029,Camden County,NJ,84.21052631578947,NA,NA
08030,Camden County,NJ,NA,57.3170731707317,NA
08037,Atlantic County,NJ,15.413533834586465,NA,19.141104294478527
08054,Burlington County,NJ,NA,NA,15.092024539877299
08080,Gloucester County,NJ,NA,56.50406504065041,NA
08081,Camden County,NJ,NA,7.588075880758807,NA
08087,Ocean County,NJ,NA,84.95934959349594,NA
08110,Camden County,NJ,NA,NA,85.76687116564418
08204,Cape May County,NJ,NA,NA,28.46625766871166
08244,Atlantic County,NJ,39.097744360902254,NA,NA
08360,Cumberland County,NJ,NA,9.078590785907858,NA
08401,Atlantic County,NJ,NA,21.81571815718157,NA
08535,Monmouth County,NJ,NA,NA,96.44171779141104
08620,Mercer County,NJ,NA,93.63143631436314,NA
08690,Mercer County,NJ,NA,49.86449864498645,NA
08701,Ocean County,NJ,NA,9.620596205962059,NA
08724,Ocean County,NJ,NA,15.853658536585366,51.16564417177914
08731,Ocean County,NJ,39.849624060150376,NA,62.944785276073624
08750,Monmouth County,NJ,NA,96.7479674796748,NA
08755,Ocean County,NJ,NA,NA,79.6319018404908
08759,Ocean County,NJ,NA,1.7615176151761516,NA
08817,Middlesex County,NJ,NA,96.4769647696477,NA
08844,Somerset County,NJ,NA,NA,56.44171779141104
08857,Middlesex County,NJ,NA,15.989159891598916,NA
08869,Somerset County,NJ,NA,94.3089430894309,NA
08876,Somerset County,NJ,NA,98.50948509485094,NA
87002,Valencia County,NM,49.24812030075188,NA,NA
87045,McKinley County,NM,NA,97.96747967479675,NA
87108,Bernalillo County,NM,NA,5.826558265582656,NA
87111,Bernalillo County,NM,NA,11.924119241192411,NA
87120,Bernalillo County,NM,NA,NA,73.00613496932516
87121,Bernalillo County,NM,NA,30.758807588075882,NA
87124,Sandoval County,NM,8.646616541353383,NA,NA
87301,McKinley County,NM,NA,NA,71.90184049079754
87507,Santa Fe County,NM,NA,21.00271002710027,NA
87508,Santa Fe County,NM,NA,49.728997289972895,NA
87701,San Miguel County,NM,NA,47.96747967479675,NA
88001,Doa Ana County,NM,27.819548872180448,NA,NA
88011,Doa Ana County,NM,NA,NA,23.680981595092025
88030,Luna County,NM,NA,NA,55.21472392638037
88220,Eddy County,NM,NA,NA,20.98159509202454
10011,New York County,NY,40.97744360902256,NA,NA
10023,New York County,NY,NA,NA,4.171779141104294
10025,New York County,NY,NA,1.3550135501355014,NA
10033,New York County,NY,NA,NA,13.006134969325153
10035,New York County,NY,NA,NA,42.69938650306748
10040,New York County,NY,NA,18.69918699186992,NA
10305,Richmond County,NY,NA,NA,28.834355828220858
10312,Richmond County,NY,NA,58.536585365853654,NA
10451,Bronx County,NY,NA,65.98915989159892,NA
10456,Bronx County,NY,1.8796992481203008,NA,NA
10457,Bronx County,NY,NA,NA,60.73619631901841
10458,Bronx County,NY,NA,0.40650406504065045,NA
10460,Bronx County,NY,NA,NA,38.77300613496932
10463,Bronx County,NY,30.451127819548873,4.742547425474255,NA
10472,Bronx County,NY,30.075187969924812,NA,NA
10538,Westchester County,NY,NA,NA,66.74846625766871
10543,Westchester County,NY,NA,NA,71.90184049079754
10562,Westchester County,NY,NA,62.46612466124661,35.4601226993865
10701,Westchester County,NY,NA,NA,18.773006134969325
10804,Westchester County,NY,NA,NA,93.00613496932515
10941,Orange County,NY,75.18796992481202,NA,NA
10954,Rockland County,NY,NA,NA,77.66871165644172
10977,Rockland County,NY,31.203007518796994,NA,NA
10980,Rockland County,NY,NA,NA,83.68098159509204
11004,Queens County,NY,95.86466165413535,NA,NA
11010,Nassau County,NY,NA,NA,42.576687116564415
11050,Nassau County,NY,NA,NA,26.380368098159508
11102,Queens County,NY,NA,NA,38.036809815950924
11203,Kings County,NY,NA,6.504065040650407,NA
11208,Kings County,NY,NA,1.6260162601626018,NA
11218,Kings County,NY,NA,NA,30.306748466257673
11220,Kings County,NY,NA,NA,12.147239263803682
11223,Kings County,NY,NA,43.90243902439025,NA
11225,Kings County,NY,NA,NA,27.85276073619632
11230,Kings County,NY,NA,NA,5.644171779141105
11234,Kings County,NY,NA,62.05962059620597,NA
11356,Queens County,NY,NA,97.01897018970189,NA
11357,Queens County,NY,73.68421052631578,NA,31.533742331288344
11373,Queens County,NY,NA,16.395663956639567,NA
11375,Queens County,NY,NA,NA,6.257668711656442
11377,Queens County,NY,NA,NA,17.914110429447852
11428,Queens County,NY,NA,NA,74.84662576687117
11432,Queens County,NY,NA,NA,24.539877300613497
11436,Queens County,NY,NA,NA,81.22699386503068
11561,Nassau County,NY,NA,31.029810298102984,20.245398773006134
11563,Nassau County,NY,NA,NA,90.5521472392638
11572,Nassau County,NY,NA,62.33062330623306,41.717791411042946
11575,Nassau County,NY,NA,86.99186991869918,NA
11580,Nassau County,NY,NA,81.02981029810297,27.116564417177912
11691,Queens County,NY,NA,NA,16.687116564417177
11704,Suffolk County,NY,NA,47.696476964769644,NA
11710,Nassau County,NY,NA,NA,66.0122699386503
11714,Nassau County,NY,NA,NA,50.5521472392638
11725,Suffolk County,NY,NA,NA,18.15950920245399
11731,Suffolk County,NY,NA,66.53116531165311,NA
11740,Suffolk County,NY,96.99248120300751,NA,NA
11746,Suffolk County,NY,NA,NA,8.71165644171779
11754,Suffolk County,NY,81.57894736842105,NA,NA
11756,Nassau County,NY,NA,NA,38.036809815950924
11764,Suffolk County,NY,98.87218045112782,NA,NA
11783,Nassau County,NY,NA,NA,61.963190184049076
11787,Suffolk County,NY,NA,NA,62.45398773006134
11788,Suffolk County,NY,NA,NA,64.29447852760735
11791,Nassau County,NY,NA,NA,84.78527607361963
11901,Suffolk County,NY,NA,NA,83.06748466257669
11953,Suffolk County,NY,NA,NA,78.52760736196319
11963,Suffolk County,NY,NA,96.61246612466124,NA
12010,Montgomery County,NY,NA,NA,53.61963190184049
12020,Saratoga County,NY,NA,60.70460704607046,34.7239263803681
12037,Columbia County,NY,NA,NA,99.87730061349693
12043,Schoharie County,NY,NA,NA,63.312883435582826
12148,Saratoga County,NY,NA,NA,87.97546012269939
12188,Saratoga County,NY,NA,78.99728997289974,NA
12189,Albany County,NY,NA,NA,55.33742331288344
12302,Schenectady County,NY,NA,NA,26.25766871165644
12413,Greene County,NY,NA,NA,97.54601226993866
12553,Orange County,NY,NA,NA,89.32515337423312
12569,Dutchess County,NY,NA,NA,92.39263803680981
12701,Sullivan County,NY,NA,NA,80.12269938650307
12803,Saratoga County,NY,NA,NA,99.14110429447854
12804,Warren County,NY,NA,10.29810298102981,NA
12839,Washington County,NY,NA,NA,53.987730061349694
12885,Warren County,NY,75.93984962406014,NA,NA
12920,Franklin County,NY,97.74436090225564,NA,NA
13021,Cayuga County,NY,NA,NA,14.723926380368098
13027,Onondaga County,NY,NA,16.802168021680217,NA
13039,Onondaga County,NY,NA,NA,80.49079754601227
13045,Cortland County,NY,19.172932330827066,10.16260162601626,NA
13077,Cortland County,NY,NA,65.58265582655827,NA
13165,Seneca County,NY,59.02255639097744,NA,NA
13203,Onondaga County,NY,NA,51.490514905149055,NA
13205,Onondaga County,NY,NA,NA,39.263803680981596
13209,Onondaga County,NY,95.48872180451127,NA,NA
13219,Onondaga County,NY,NA,78.31978319783198,NA
13413,Oneida County,NY,78.94736842105263,NA,22.085889570552148
13478,Oneida County,NY,NA,96.2059620596206,NA
13605,Jefferson County,NY,NA,80.89430894308943,NA
13620,Lewis County,NY,NA,98.78048780487805,NA
13662,St. Lawrence County,NY,6.390977443609022,NA,NA
13733,Chenango County,NY,NA,85.09485094850947,NA
13748,Broome County,NY,NA,90.5149051490515,NA
13760,Broome County,NY,0,18.428184281842817,0.6134969325153374
13790,Broome County,NY,NA,56.639566395663955,44.5398773006135
13850,Broome County,NY,14.285714285714285,NA,3.4355828220858897
13865,Broome County,NY,NA,NA,98.40490797546012
13901,Broome County,NY,NA,4.336043360433604,11.042944785276074
13905,Broome County,NY,0.7518796992481203,5.149051490514905,18.282208588957054
14043,Erie County,NY,NA,NA,80.49079754601227
14048,Chautauqua County,NY,NA,95.25745257452574,NA
14063,Chautauqua County,NY,NA,45.66395663956639,NA
14075,Erie County,NY,33.08270676691729,NA,NA
14150,Erie County,NY,NA,NA,15.58282208588957
14215,Erie County,NY,NA,33.87533875338754,NA
14216,Erie County,NY,NA,37.669376693766935,NA
14217,Erie County,NY,26.691729323308273,NA,NA
14221,Erie County,NY,NA,3.116531165311653,NA
14222,Erie County,NY,NA,63.68563685636857,NA
14304,Niagara County,NY,22.932330827067666,NA,NA
14414,Livingston County,NY,NA,45.52845528455284,NA
14420,Monroe County,NY,12.030075187969924,NA,NA
14424,Ontario County,NY,NA,0.9485094850948509,NA
14433,Wayne County,NY,NA,NA,95.95092024539878
14464,Monroe County,NY,NA,NA,82.82208588957054
14470,Orleans County,NY,NA,NA,66.25766871165644
14476,Orleans County,NY,94.3609022556391,NA,NA
14510,Livingston County,NY,59.77443609022557,NA,NA
14522,Wayne County,NY,NA,26.964769647696478,91.41104294478528
14534,Monroe County,NY,5.263157894736842,NA,4.049079754601228
14551,Wayne County,NY,NA,65.31165311653116,NA
14580,Monroe County,NY,NA,5.555555555555555,NA
14589,Wayne County,NY,36.09022556390977,NA,NA
14609,Monroe County,NY,NA,NA,16.441717791411044
14616,Monroe County,NY,NA,NA,61.59509202453988
14620,Monroe County,NY,NA,NA,84.1717791411043
14622,Monroe County,NY,NA,19.241192411924118,NA
14626,Monroe County,NY,NA,NA,6.5030674846625764
14733,Chautauqua County,NY,NA,NA,99.2638036809816
14845,Chemung County,NY,NA,NA,30.552147239263803
14865,Schuyler County,NY,NA,95.9349593495935,NA
14882,Tompkins County,NY,83.83458646616542,92.00542005420054,NA
14883,Tioga County,NY,93.98496240601504,NA,NA
14892,Tioga County,NY,NA,54.33604336043361,NA
14901,Chemung County,NY,NA,82.11382113821138,NA
27006,Davie County,NC,NA,NA,15.460122699386503
27012,Forsyth County,NC,NA,59.891598915989164,NA
27021,Stokes County,NC,NA,88.07588075880759,NA
27023,Forsyth County,NC,NA,56.233062330623305,NA
27030,Surry County,NC,NA,NA,0.8588957055214724
27103,Forsyth County,NC,NA,NA,1.3496932515337423
27104,Forsyth County,NC,NA,NA,43.06748466257669
27106,Forsyth County,NC,NA,NA,1.1042944785276074
27107,Forsyth County,NC,NA,4.0650406504065035,NA
27249,Guilford County,NC,NA,NA,62.944785276073624
27292,Davidson County,NC,NA,1.2195121951219512,NA
27295,Davidson County,NC,NA,23.035230352303522,NA
27312,Chatham County,NC,NA,69.78319783197831,NA
27317,Randolph County,NC,NA,68.83468834688347,NA
27350,Randolph County,NC,NA,NA,79.01840490797547
27360,Davidson County,NC,NA,NA,9.69325153374233
27511,Wake County,NC,NA,31.300813008130078,NA
27524,Johnston County,NC,NA,NA,68.95705521472392
27529,Wake County,NC,NA,48.78048780487805,NA
27537,Vance County,NC,NA,NA,41.84049079754602
27574,Person County,NC,NA,NA,63.558282208588956
27587,Wake County,NC,NA,79.67479674796748,NA
27589,Warren County,NC,NA,NA,68.95705521472392
27610,Wake County,NC,NA,6.639566395663957,NA
27614,Wake County,NC,NA,NA,44.171779141104295
27615,Wake County,NC,NA,NA,11.533742331288344
27705,Durham County,NC,NA,12.737127371273713,NA
27909,Pasquotank County,NC,NA,NA,53.37423312883436
28001,Stanly County,NC,NA,39.56639566395664,NA
28056,Gaston County,NC,NA,46.476964769647694,NA
28078,Mecklenburg County,NC,NA,NA,28.343558282208587
28129,Stanly County,NC,NA,95.79945799457995,NA
28146,Rowan County,NC,NA,43.08943089430895,NA
28207,Mecklenburg County,NC,NA,NA,92.51533742331289
28216,Mecklenburg County,NC,NA,15.176151761517614,NA
28226,Mecklenburg County,NC,NA,NA,31.04294478527607
28262,Mecklenburg County,NC,37.96992481203007,67.61517615176152,NA
28312,Cumberland County,NC,NA,NA,70.79754601226995
28320,Bladen County,NC,NA,74.79674796747967,NA
28334,Sampson County,NC,NA,NA,35.828220858895705
28351,Scotland County,NC,NA,NA,99.50920245398774
28365,Wayne County,NC,NA,69.51219512195121,NA
28371,Robeson County,NC,NA,89.56639566395664,NA
28374,Moore County,NC,NA,48.9159891598916,NA
28390,Harnett County,NC,NA,63.00813008130082,NA
28394,Moore County,NC,NA,NA,93.49693251533743
28403,New Hanover County,NC,NA,53.65853658536586,NA
28405,New Hanover County,NC,NA,64.63414634146342,NA
28472,Columbus County,NC,NA,NA,74.60122699386503
28501,Lenoir County,NC,45.11278195488722,NA,NA
28532,Craven County,NC,NA,NA,77.79141104294479
28557,Carteret County,NC,NA,85.90785907859079,NA
28601,Catawba County,NC,NA,9.48509485094851,NA
28677,Iredell County,NC,13.157894736842104,NA,NA
28713,Swain County,NC,NA,58.13008130081301,NA
28714,Yancey County,NC,NA,NA,58.15950920245398
28782,Polk County,NC,NA,83.73983739837398,NA
28786,Haywood County,NC,NA,18.29268292682927,NA
28901,Cherokee County,NC,NA,NA,76.93251533742331
58104,Cass County,ND,NA,62.19512195121951,NA
58201,Grand Forks County,ND,NA,6.910569105691057,NA
58501,Burleigh County,ND,NA,NA,8.466257668711656
58504,Burleigh County,ND,NA,33.46883468834688,NA
58601,Stark County,ND,NA,NA,36.441717791411044
58703,Ward County,ND,NA,40.514905149051486,NA
43004,Franklin County,OH,NA,58.265582655826556,NA
43017,Franklin County,OH,NA,NA,65.88957055214723
43019,Knox County,OH,NA,73.30623306233063,NA
43050,Knox County,OH,NA,76.82926829268293,NA
43055,Licking County,OH,NA,NA,3.5582822085889574
43056,Licking County,OH,NA,35.636856368563684,NA
43062,Licking County,OH,NA,28.59078590785908,NA
43080,Licking County,OH,NA,NA,94.96932515337423
43081,Franklin County,OH,21.428571428571427,NA,NA
43085,Franklin County,OH,NA,NA,49.325153374233125
43105,Fairfield County,OH,93.23308270676691,NA,NA
43123,Franklin County,OH,NA,7.452574525745257,NA
43130,Fairfield County,OH,NA,2.710027100271003,NA
43207,Franklin County,OH,9.774436090225564,NA,NA
43230,Franklin County,OH,NA,14.227642276422763,NA
43235,Franklin County,OH,45.86466165413533,67.88617886178862,NA
43326,Hardin County,OH,NA,40.78590785907859,NA
43420,Sandusky County,OH,NA,NA,18.650306748466257
43452,Ottawa County,OH,NA,NA,44.785276073619634
43465,Wood County,OH,NA,67.07317073170732,NA
43512,Defiance County,OH,NA,5.284552845528456,46.25766871165644
43526,Defiance County,OH,NA,68.15718157181571,NA
43543,Williams County,OH,NA,81.97831978319783,NA
43551,Wood County,OH,44.73684210526316,NA,NA
43556,Defiance County,OH,NA,97.69647696476966,NA
43558,Fulton County,OH,NA,NA,84.04907975460122
43560,Lucas County,OH,NA,14.634146341463413,NA
43569,Wood County,OH,NA,99.45799457994579,NA
43607,Lucas County,OH,NA,55.013550135501355,NA
43613,Lucas County,OH,NA,57.859078590785906,NA
43615,Lucas County,OH,NA,4.878048780487805,NA
43616,Lucas County,OH,NA,11.38211382113821,17.54601226993865
43619,Wood County,OH,NA,66.80216802168022,NA
43725,Guernsey County,OH,10.902255639097744,NA,NA
43907,Harrison County,OH,NA,NA,99.75460122699387
43935,Belmont County,OH,NA,60.97560975609756,NA
43964,Jefferson County,OH,NA,30.62330623306233,NA
44001,Lorain County,OH,28.947368421052634,NA,NA
44004,Ashtabula County,OH,NA,3.387533875338753,NA
44024,Geauga County,OH,NA,14.363143631436316,NA
44035,Lorain County,OH,NA,NA,3.3128834355828225
44041,Ashtabula County,OH,84.9624060150376,NA,NA
44055,Lorain County,OH,NA,52.84552845528455,44.66257668711656
44057,Lake County,OH,NA,NA,13.12883435582822
44060,Lake County,OH,NA,56.09756097560976,NA
44067,Summit County,OH,NA,NA,11.16564417177914
44095,Lake County,OH,NA,80.48780487804879,NA
44102,Cuyahoga County,OH,NA,NA,42.20858895705521
44105,Cuyahoga County,OH,NA,0.5420054200542005,NA
44106,Cuyahoga County,OH,NA,13.821138211382115,NA
44107,Cuyahoga County,OH,NA,21.544715447154474,NA
44108,Cuyahoga County,OH,NA,NA,14.478527607361963
44116,Cuyahoga County,OH,NA,NA,51.41104294478528
44122,Cuyahoga County,OH,NA,NA,0
44124,Cuyahoga County,OH,NA,3.6585365853658534,70.30674846625767
44125,Cuyahoga County,OH,NA,59.078590785907856,56.80981595092025
44126,Cuyahoga County,OH,NA,NA,33.61963190184049
44130,Cuyahoga County,OH,NA,NA,0.1226993865030675
44131,Cuyahoga County,OH,NA,NA,26.625766871165645
44135,Cuyahoga County,OH,NA,7.723577235772358,NA
44137,Cuyahoga County,OH,NA,38.34688346883468,NA
44140,Cuyahoga County,OH,NA,28.319783197831978,NA
44202,Portage County,OH,NA,53.2520325203252,NA
44212,Medina County,OH,NA,8.672086720867208,NA
44240,Portage County,OH,NA,20.32520325203252,NA
44256,Medina County,OH,NA,NA,45.766871165644176
44262,Summit County,OH,NA,80.21680216802169,NA
44273,Medina County,OH,87.59398496240601,NA,NA
44281,Medina County,OH,NA,13.414634146341465,NA
44405,Mahoning County,OH,NA,NA,62.33128834355828
44406,Mahoning County,OH,NA,NA,57.17791411042945
44410,Trumbull County,OH,NA,NA,77.17791411042944
44446,Trumbull County,OH,NA,NA,49.57055214723927
44483,Trumbull County,OH,15.037593984962406,NA,NA
44514,Mahoning County,OH,NA,NA,17.05521472392638
44601,Stark County,OH,6.015037593984962,8.536585365853659,NA
44641,Stark County,OH,NA,NA,78.28220858895706
44646,Stark County,OH,NA,NA,52.51533742331288
44663,Tuscarawas County,OH,NA,NA,10.552147239263803
44691,Wayne County,OH,NA,NA,43.68098159509202
44705,Stark County,OH,NA,35.636856368563684,NA
44720,Stark County,OH,NA,71.00271002710026,NA
44813,Richland County,OH,NA,NA,75.95092024539876
44839,Erie County,OH,NA,NA,79.75460122699386
44870,Erie County,OH,NA,NA,26.50306748466258
45050,Butler County,OH,NA,88.75338753387534,NA
45123,Highland County,OH,NA,NA,36.56441717791411
45140,Clermont County,OH,NA,NA,19.263803680981596
45169,Clinton County,OH,76.69172932330827,NA,NA
45231,Hamilton County,OH,6.7669172932330826,NA,NA
45236,Hamilton County,OH,NA,NA,23.803680981595093
45309,Montgomery County,OH,NA,57.72357723577236,NA
45331,Darke County,OH,NA,24.254742547425472,NA
45403,Montgomery County,OH,38.721804511278194,NA,NA
45406,Montgomery County,OH,NA,NA,56.56441717791411
45429,Montgomery County,OH,NA,NA,15.950920245398773
45432,Greene County,OH,NA,NA,85.88957055214725
45459,Montgomery County,OH,NA,21.40921409214092,NA
45502,Clark County,OH,79.69924812030075,NA,NA
45631,Gallia County,OH,NA,10.433604336043361,NA
45669,Lawrence County,OH,NA,20.18970189701897,NA
45701,Athens County,OH,NA,79.94579945799458,NA
45710,Athens County,OH,NA,NA,95.58282208588957
45750,Washington County,OH,NA,NA,1.8404907975460123
45804,Allen County,OH,9.398496240601503,NA,NA
45805,Allen County,OH,NA,25.745257452574528,NA
45807,Allen County,OH,NA,NA,47.97546012269939
45833,Allen County,OH,NA,NA,48.466257668711656
45840,Hancock County,OH,NA,3.523035230352303,7.85276073619632
45895,Auglaize County,OH,NA,31.43631436314363,NA
73020,Oklahoma County,OK,NA,25.474254742547426,NA
73026,Cleveland County,OK,NA,73.57723577235772,NA
73034,Oklahoma County,OK,NA,NA,29.07975460122699
73052,Garvin County,OK,NA,83.87533875338752,NA
73064,Canadian County,OK,NA,NA,37.423312883435585
73080,McClain County,OK,NA,NA,65.52147239263803
73086,Murray County,OK,NA,86.31436314363144,NA
73089,Grady County,OK,NA,NA,73.49693251533742
73401,Carter County,OK,NA,NA,83.31288343558282
73772,Blaine County,OK,NA,91.19241192411924,NA
74006,Washington County,OK,NA,37.39837398373984,NA
74017,Rogers County,OK,NA,NA,22.699386503067483
74059,Payne County,OK,NA,85.23035230352303,NA
74110,Tulsa County,OK,NA,94.98644986449864,NA
74115,Tulsa County,OK,NA,NA,63.190184049079754
74462,Haskell County,OK,76.31578947368422,NA,NA
74701,Bryan County,OK,NA,53.929539295392956,NA
74851,Pottawatomie County,OK,NA,NA,82.45398773006136
74955,Sequoyah County,OK,NA,54.0650406504065,NA
97008,Washington County,OR,56.766917293233085,NA,NA
97034,Clackamas County,OR,NA,57.58807588075881,32.26993865030675
97060,Multnomah County,OR,43.609022556390975,NA,NA
97124,Washington County,OR,NA,NA,25.153374233128833
97128,Yamhill County,OR,NA,78.72628726287263,NA
97141,Tillamook County,OR,NA,NA,67.73006134969324
97146,Clatsop County,OR,NA,NA,84.66257668711657
97233,Multnomah County,OR,NA,NA,52.14723926380368
97301,Marion County,OR,NA,NA,38.52760736196319
97351,Polk County,OR,NA,81.70731707317073,NA
97355,Linn County,OR,NA,6.233062330623306,NA
97367,Lincoln County,OR,NA,NA,55.95092024539877
97378,Yamhill County,OR,84.58646616541353,NA,NA
97402,Lane County,OR,NA,NA,37.30061349693251
97444,Curry County,OR,NA,NA,66.87116564417178
97477,Lane County,OR,NA,29.132791327913278,NA
97479,Douglas County,OR,NA,NA,44.04907975460123
97487,Lane County,OR,NA,88.6178861788618,NA
97701,Deschutes County,OR,NA,78.04878048780488,32.760736196319016
97754,Crook County,OR,NA,NA,30.920245398773005
97801,Umatilla County,OR,NA,25.338753387533874,67.85276073619632
97814,Baker County,OR,NA,74.93224932249322,NA
97838,Umatilla County,OR,NA,68.69918699186992,NA
97862,Umatilla County,OR,NA,NA,96.93251533742331
15001,Beaver County,PA,NA,17.073170731707318,NA
15042,Beaver County,PA,NA,72.22222222222221,NA
15044,Allegheny County,PA,NA,52.4390243902439,NA
15045,Allegheny County,PA,NA,90.65040650406505,NA
15120,Allegheny County,PA,NA,42.81842818428184,NA
15146,Allegheny County,PA,NA,31.16531165311653,NA
15209,Allegheny County,PA,NA,NA,52.638036809815944
15210,Allegheny County,PA,NA,NA,47.73006134969325
15220,Allegheny County,PA,NA,70.18970189701898,NA
15227,Allegheny County,PA,NA,NA,25.52147239263804
15235,Allegheny County,PA,NA,NA,7.975460122699387
15236,Allegheny County,PA,NA,NA,9.570552147239264
15238,Allegheny County,PA,NA,NA,33.74233128834356
15239,Allegheny County,PA,NA,NA,41.104294478527606
15301,Washington County,PA,NA,28.184281842818425,10.67484662576687
15401,Fayette County,PA,NA,49.59349593495935,NA
15642,Westmoreland County,PA,70.30075187969925,NA,NA
15656,Westmoreland County,PA,NA,NA,68.22085889570552
15714,Cambria County,PA,NA,NA,83.19018404907975
15801,Clearfield County,PA,NA,NA,55.582822085889575
15857,Elk County,PA,NA,NA,8.343558282208589
15905,Cambria County,PA,NA,35.230352303523034,NA
15909,Cambria County,PA,NA,83.06233062330624,NA
16001,Butler County,PA,NA,2.303523035230352,3.067484662576687
16101,Lawrence County,PA,NA,NA,70.06134969325153
16127,Mercer County,PA,68.04511278195488,NA,NA
16137,Mercer County,PA,NA,NA,44.9079754601227
16148,Mercer County,PA,NA,NA,32.14723926380368
16159,Mercer County,PA,NA,NA,79.50920245398773
16201,Armstrong County,PA,30.82706766917293,NA,NA
16354,Crawford County,PA,NA,64.22764227642277,NA
16412,Erie County,PA,91.35338345864662,NA,NA
16423,Erie County,PA,NA,99.32249322493224,NA
16506,Erie County,PA,NA,NA,37.91411042944785
16509,Erie County,PA,NA,NA,21.717791411042946
16648,Blair County,PA,NA,34.552845528455286,NA
16801,Centre County,PA,NA,79.26829268292683,NA
16866,Centre County,PA,61.278195488721806,NA,NA
16947,Bradford County,PA,NA,NA,86.99386503067484
17022,Lancaster County,PA,NA,48.1029810298103,NA
17044,Mifflin County,PA,NA,NA,38.40490797546012
17110,Dauphin County,PA,12.781954887218044,NA,NA
17112,Dauphin County,PA,15.789473684210526,NA,NA
17201,Franklin County,PA,NA,20.73170731707317,NA
17257,Cumberland County,PA,NA,NA,32.39263803680982
17268,Franklin County,PA,NA,NA,13.865030674846626
17313,York County,PA,NA,NA,61.34969325153374
17325,Adams County,PA,NA,NA,9.447852760736195
17362,York County,PA,NA,78.18428184281842,NA
17368,York County,PA,NA,77.23577235772358,NA
17404,York County,PA,9.022556390977442,NA,NA
17406,York County,PA,NA,39.97289972899729,NA
17557,Lancaster County,PA,NA,65.04065040650406,NA
17603,Lancaster County,PA,NA,NA,7.2392638036809815
17701,Lycoming County,PA,3.3834586466165413,NA,NA
17756,Lycoming County,PA,NA,63.82113821138211,75.8282208588957
17801,Northumberland County,PA,NA,21.138211382113823,NA
17815,Columbia County,PA,NA,11.11111111111111,12.63803680981595
17820,Columbia County,PA,NA,82.38482384823848,NA
17821,Montour County,PA,NA,14.769647696476964,87.36196319018404
17824,Northumberland County,PA,NA,NA,95.33742331288344
17837,Union County,PA,NA,NA,19.87730061349693
17870,Snyder County,PA,48.87218045112782,NA,NA
17872,Northumberland County,PA,NA,NA,77.05521472392638
17901,Schuylkill County,PA,NA,NA,74.84662576687117
17921,Schuylkill County,PA,NA,84.5528455284553,NA
18032,Lehigh County,PA,NA,74.66124661246613,NA
18045,Northampton County,PA,39.473684210526315,NA,NA
18072,Northampton County,PA,NA,NA,92.02453987730061
18102,Lehigh County,PA,NA,7.181571815718158,NA
18201,Luzerne County,PA,NA,NA,27.607361963190186
18202,Luzerne County,PA,77.44360902255639,73.98373983739837,NA
18235,Carbon County,PA,NA,NA,32.88343558282209
18360,Monroe County,PA,NA,NA,13.496932515337424
18414,Lackawanna County,PA,NA,NA,98.8957055214724
18428,Pike County,PA,NA,NA,52.26993865030675
18447,Lackawanna County,PA,NA,70.46070460704607,NA
18505,Lackawanna County,PA,NA,34.959349593495936,NA
18603,Columbia County,PA,NA,NA,39.87730061349693
18643,Luzerne County,PA,NA,NA,78.03680981595093
18644,Luzerne County,PA,NA,NA,75.0920245398773
18651,Luzerne County,PA,NA,81.16531165311653,NA
18702,Luzerne County,PA,NA,47.289972899729,NA
18848,Bradford County,PA,97.36842105263158,NA,NA
18901,Bucks County,PA,NA,NA,9.815950920245399
18940,Bucks County,PA,NA,NA,48.22085889570552
19003,Montgomery County,PA,NA,NA,92.14723926380368
19020,Bucks County,PA,31.57894736842105,37.262872628726285,NA
19033,Delaware County,PA,NA,78.59078590785907,NA
19036,Delaware County,PA,NA,72.62872628726286,NA
19086,Delaware County,PA,NA,69.91869918699187,NA
19090,Montgomery County,PA,NA,NA,48.71165644171779
19133,Philadelphia County,PA,11.654135338345863,NA,NA
19134,Philadelphia County,PA,NA,77.10027100271003,NA
19139,Philadelphia County,PA,2.631578947368421,NA,NA
19140,Philadelphia County,PA,NA,NA,67.60736196319019
19147,Philadelphia County,PA,NA,86.1788617886179,NA
19148,Philadelphia County,PA,NA,45.25745257452575,NA
19150,Philadelphia County,PA,NA,NA,34.355828220858896
19151,Philadelphia County,PA,NA,50.81300813008131,NA
19152,Philadelphia County,PA,17.293233082706767,20.460704607046072,NA
19403,Montgomery County,PA,NA,NA,5.889570552147239
19406,Montgomery County,PA,NA,NA,50.5521472392638
19444,Montgomery County,PA,NA,NA,76.68711656441718
19460,Chester County,PA,NA,NA,19.018404907975462
19530,Berks County,PA,NA,NA,73.25153374233129
02809,Bristol County,RI,NA,NA,34.11042944785276
02818,Kent County,RI,NA,42.27642276422765,NA
02864,Providence County,RI,NA,16.666666666666664,NA
02885,Bristol County,RI,NA,NA,69.8159509202454
02886,Kent County,RI,NA,NA,7.484662576687116
02896,Providence County,RI,83.45864661654136,NA,NA
02908,Providence County,RI,NA,NA,25.88957055214724
02915,Providence County,RI,NA,NA,65.03067484662577
02919,Providence County,RI,41.72932330827068,NA,NA
02920,Providence County,RI,NA,NA,9.079754601226995
29010,Lee County,SC,NA,78.31978319783198,NA
29040,Sumter County,SC,NA,94.85094850948511,NA
29349,Spartanburg County,SC,25.93984962406015,NA,NA
29445,Berkeley County,SC,NA,24.525745257452574,NA
29464,Charleston County,SC,NA,NA,13.61963190184049
29477,Dorchester County,SC,NA,89.97289972899729,NA
29501,Florence County,SC,NA,16.124661246612465,NA
29506,Florence County,SC,NA,NA,81.71779141104294
29541,Florence County,SC,NA,NA,94.47852760736197
29550,Darlington County,SC,NA,21.951219512195124,NA
29555,Florence County,SC,NA,93.36043360433605,NA
29566,Horry County,SC,NA,NA,54.11042944785276
29576,Horry County,SC,NA,12.601626016260163,NA
29577,Horry County,SC,NA,NA,50.1840490797546
29583,Florence County,SC,NA,89.29539295392954,NA
29607,Greenville County,SC,NA,NA,21.595092024539877
29621,Anderson County,SC,NA,18.56368563685637,12.024539877300613
29625,Anderson County,SC,32.70676691729324,NA,NA
29662,Greenville County,SC,NA,NA,86.62576687116564
29720,Lancaster County,SC,NA,26.964769647696478,23.92638036809816
29907,Beaufort County,SC,NA,NA,53.00613496932516
57078,Yankton County,SD,NA,56.91056910569105,NA
57104,Minnehaha County,SD,NA,NA,47.11656441717791
57105,Minnehaha County,SD,NA,11.788617886178862,NA
57108,Lincoln County,SD,NA,NA,6.748466257668712
57401,Brown County,SD,NA,NA,1.4723926380368098
57783,Lawrence County,SD,NA,41.86991869918699,NA
37013,Davidson County,TN,NA,NA,67.97546012269939
37015,Cheatham County,TN,59.3984962406015,NA,NA
37027,Williamson County,TN,NA,22.76422764227642,NA
37040,Montgomery County,TN,24.06015037593985,NA,NA
37058,Stewart County,TN,NA,NA,94.7239263803681
37069,Williamson County,TN,NA,75.20325203252033,NA
37075,Sumner County,TN,NA,32.24932249322493,NA
37091,Marshall County,TN,NA,NA,85.52147239263803
37110,Warren County,TN,NA,NA,25.030674846625768
37122,Wilson County,TN,28.57142857142857,NA,NA
37148,Sumner County,TN,41.35338345864661,NA,NA
37211,Davidson County,TN,NA,NA,16.809815950920246
37214,Davidson County,TN,NA,52.710027100271006,58.527607361963184
37363,Hamilton County,TN,NA,72.08672086720867,NA
37643,Carter County,TN,NA,NA,15.828220858895707
37681,Washington County,TN,NA,NA,94.3558282208589
37743,Greene County,TN,NA,4.607046070460704,NA
37757,Campbell County,TN,82.70676691729322,NA,NA
37807,Union County,TN,67.29323308270678,NA,NA
37843,Cocke County,TN,94.73684210526315,NA,NA
37923,Knox County,TN,51.127819548872175,NA,NA
38016,Shelby County,TN,NA,45.9349593495935,NA
38106,Shelby County,TN,NA,39.295392953929536,NA
38139,Shelby County,TN,NA,NA,75.95092024539876
38141,Shelby County,TN,NA,NA,88.34355828220859
38468,Lawrence County,TN,NA,97.5609756097561,NA
75010,Denton County,TX,NA,76.28726287262873,NA
75042,Dallas County,TX,NA,NA,60.49079754601227
75043,Dallas County,TX,NA,17.750677506775066,NA
75052,Dallas County,TX,NA,11.517615176151761,NA
75070,Collin County,TX,NA,10.840108401084011,13.987730061349692
75098,Collin County,TX,20.676691729323306,NA,NA
75165,Ellis County,TX,NA,NA,21.34969325153374
75219,Dallas County,TX,NA,59.756097560975604,NA
75254,Dallas County,TX,NA,71.54471544715447,NA
75601,Gregg County,TX,NA,71.81571815718158,NA
75603,Gregg County,TX,NA,NA,98.15950920245399
75604,Gregg County,TX,NA,NA,68.71165644171779
75638,Morris County,TX,NA,NA,87.60736196319019
75650,Harrison County,TX,NA,91.46341463414635,NA
75701,Smith County,TX,NA,NA,5.153374233128835
75754,Van Zandt County,TX,NA,73.44173441734418,NA
75766,Cherokee County,TX,NA,8.26558265582656,NA
75773,Wood County,TX,NA,61.65311653116531,NA
75783,Wood County,TX,NA,NA,61.47239263803681
75935,Shelby County,TX,NA,76.96476964769647,NA
75948,Sabine County,TX,NA,NA,80.24539877300614
75951,Jasper County,TX,NA,NA,85.2760736196319
76018,Tarrant County,TX,NA,58.94308943089431,NA
76021,Tarrant County,TX,NA,NA,29.570552147239265
76034,Tarrant County,TX,NA,60.16260162601627,NA
76036,Tarrant County,TX,NA,NA,53.128834355828225
76086,Parker County,TX,NA,NA,30.79754601226994
76087,Parker County,TX,64.66165413533834,NA,NA
76102,Tarrant County,TX,NA,NA,89.69325153374234
76105,Tarrant County,TX,17.669172932330827,NA,NA
76107,Tarrant County,TX,NA,NA,58.77300613496933
76118,Tarrant County,TX,NA,NA,79.2638036809816
76182,Tarrant County,TX,NA,33.739837398373986,NA
76262,Denton County,TX,46.2406015037594,NA,NA
76437,Eastland County,TX,NA,89.70189701897019,NA
76446,Erath County,TX,96.2406015037594,NA,NA
76513,Bell County,TX,NA,NA,37.668711656441715
76549,Bell County,TX,NA,30.48780487804878,NA
76634,Bosque County,TX,NA,88.88888888888889,NA
76667,Limestone County,TX,NA,NA,45.88957055214724
76901,Tom Green County,TX,NA,29.81029810298103,NA
77009,Harris County,TX,NA,NA,85.39877300613496
77016,Harris County,TX,NA,36.99186991869919,NA
77030,Harris County,TX,90.97744360902256,NA,NA
77070,Harris County,TX,NA,23.712737127371277,NA
77079,Harris County,TX,NA,NA,79.01840490797547
77088,Harris County,TX,NA,32.38482384823848,NA
77092,Harris County,TX,NA,NA,74.3558282208589
77099,Harris County,TX,NA,36.31436314363143,NA
77379,Harris County,TX,NA,NA,39.263803680981596
77429,Harris County,TX,NA,5.013550135501355,NA
77445,Waller County,TX,NA,77.77777777777779,NA
77459,Fort Bend County,TX,NA,12.466124661246612,NA
77517,Galveston County,TX,99.24812030075188,NA,NA
77550,Galveston County,TX,NA,46.883468834688344,NA
77562,Harris County,TX,NA,NA,81.22699386503068
77573,Galveston County,TX,NA,NA,18.404907975460123
77591,Galveston County,TX,NA,NA,51.77914110429448
77954,DeWitt County,TX,89.09774436090225,NA,NA
77984,Lavaca County,TX,NA,NA,99.6319018404908
78028,Kerr County,TX,NA,NA,6.5030674846625764
78040,Webb County,TX,NA,NA,91.77914110429448
78041,Webb County,TX,NA,22.35772357723577,25.398773006134967
78108,Guadalupe County,TX,72.55639097744361,NA,NA
78114,Wilson County,TX,NA,NA,97.30061349693251
78148,Bexar County,TX,NA,91.05691056910568,NA
78228,Bexar County,TX,NA,NA,21.104294478527606
78237,Bexar County,TX,NA,NA,51.533742331288344
78239,Bexar County,TX,NA,NA,67.36196319018404
78363,Kleberg County,TX,NA,NA,59.75460122699386
78413,Nueces County,TX,NA,NA,62.57668711656442
78418,Nueces County,TX,71.05263157894737,NA,NA
78520,Cameron County,TX,NA,27.77777777777778,NA
78570,Hidalgo County,TX,NA,NA,54.601226993865026
78572,Hidalgo County,TX,NA,NA,4.9079754601226995
78586,Cameron County,TX,NA,NA,27.975460122699385
78596,Hidalgo County,TX,NA,NA,88.71165644171779
78633,Williamson County,TX,NA,1.4905149051490514,NA
78639,Llano County,TX,NA,NA,93.9877300613497
78665,Williamson County,TX,49.62406015037594,NA,NA
78727,Travis County,TX,NA,87.94037940379404,NA
78735,Travis County,TX,NA,NA,73.86503067484662
78741,Travis County,TX,NA,74.39024390243902,NA
79109,Randall County,TX,NA,NA,49.079754601226995
79423,Lubbock County,TX,NA,NA,30.67484662576687
79764,Ector County,TX,NA,68.29268292682927,NA
79912,El Paso County,TX,NA,NA,20.12269938650307
84057,Utah County,UT,NA,76.28726287262873,NA
84060,Summit County,UT,NA,NA,86.87116564417178
84070,Salt Lake County,UT,NA,NA,35.33742331288344
84084,Salt Lake County,UT,NA,38.61788617886179,NA
84095,Salt Lake County,UT,NA,26.964769647696478,NA
84106,Salt Lake County,UT,37.21804511278196,NA,NA
84109,Salt Lake County,UT,86.46616541353383,NA,NA
05346,Windham County,VT,NA,NA,75.70552147239263
05408,Chittenden County,VT,NA,NA,77.91411042944786
05446,Chittenden County,VT,NA,NA,62.69938650306749
05478,Franklin County,VT,54.88721804511278,NA,NA
05602,Washington County,VT,NA,68.42818428184282,NA
05641,Washington County,VT,NA,27.64227642276423,NA
05753,Addison County,VT,NA,93.76693766937669,NA
05819,Caledonia County,VT,NA,90.78590785907859,64.04907975460122
20110,Manassas city,VA,NA,NA,48.09815950920245
20169,Prince William County,VA,NA,NA,84.41717791411043
22031,Fairfax County,VA,NA,NA,90.06134969325153
22192,Prince William County,VA,NA,NA,41.22699386503068
22308,Fairfax County,VA,NA,NA,81.84049079754601
22405,Stafford County,VA,NA,NA,54.11042944785276
22580,Caroline County,VA,NA,NA,93.49693251533743
22701,Culpeper County,VA,NA,18.157181571815716,NA
22851,Page County,VA,NA,NA,95.0920245398773
22903,Charlottesville city,VA,89.84962406015038,NA,NA
22980,Waynesboro city,VA,NA,4.471544715447155,42.82208588957055
23111,Hanover County,VA,NA,NA,16.319018404907975
23185,James City County,VA,NA,NA,0.245398773006135
23188,James City County,VA,NA,2.9810298102981028,NA
23222,Richmond city,VA,NA,NA,35.70552147239264
23238,Henrico County,VA,NA,NA,36.31901840490798
23321,Chesapeake city,VA,NA,64.49864498644986,NA
23452,Virginia Beach city,VA,NA,NA,7.361963190184049
23606,Newport News city,VA,NA,NA,14.969325153374232
23607,Newport News city,VA,18.796992481203006,42.54742547425474,NA
23661,Hampton city,VA,NA,NA,72.63803680981596
23707,Portsmouth city,VA,53.00751879699248,NA,NA
23803,Petersburg city,VA,NA,94.71544715447155,NA
24055,Henry County,VA,61.65413533834586,NA,NA
24065,Franklin County,VA,NA,93.22493224932249,NA
24073,Montgomery County,VA,71.80451127819549,NA,NA
24171,Patrick County,VA,NA,NA,55.70552147239264
24210,Washington County,VA,NA,NA,40.736196319018404
24230,Wise County,VA,46.99248120300752,NA,NA
24370,Smyth County,VA,NA,NA,90.1840490797546
24382,Wythe County,VA,NA,NA,66.50306748466258
24401,Staunton city,VA,8.270676691729323,NA,30.184049079754597
98004,King County,WA,NA,65.58265582655827,NA
98006,King County,WA,NA,NA,51.288343558282214
98008,King County,WA,NA,NA,29.8159509202454
98023,King County,WA,NA,46.34146341463415,NA
98026,Snohomish County,WA,35.714285714285715,NA,NA
98031,King County,WA,NA,NA,39.75460122699386
98034,King County,WA,32.33082706766917,NA,NA
98056,King County,WA,NA,55.55555555555556,NA
98072,King County,WA,NA,55.1490514905149,NA
98103,King County,WA,NA,NA,42.331288343558285
98108,King County,WA,71.80451127819549,NA,NA
98115,King County,WA,38.34586466165413,NA,25.2760736196319
98117,King County,WA,NA,51.8970189701897,NA
98146,King County,WA,NA,NA,62.82208588957056
98248,Whatcom County,WA,NA,NA,58.282208588957054
98272,Snohomish County,WA,56.390977443609025,NA,NA
98277,Island County,WA,NA,NA,10.797546012269938
98292,Snohomish County,WA,NA,NA,83.43558282208589
98346,Kitsap County,WA,NA,90.92140921409214,NA
98365,Jefferson County,WA,NA,NA,97.17791411042946
98368,Jefferson County,WA,NA,24.119241192411923,NA
98370,Kitsap County,WA,NA,40.514905149051486,NA
98371,Pierce County,WA,NA,81.57181571815718,NA
98375,Pierce County,WA,NA,NA,82.57668711656441
98382,Clallam County,WA,NA,NA,1.2269938650306749
98383,Kitsap County,WA,NA,52.1680216802168,NA
98391,Pierce County,WA,NA,44.03794037940379,NA
98467,Pierce County,WA,81.203007518797,NA,NA
98501,Thurston County,WA,NA,NA,46.74846625766872
98516,Thurston County,WA,NA,69.10569105691057,NA
98531,Lewis County,WA,72.93233082706767,NA,33.74233128834356
98532,Lewis County,WA,NA,59.078590785907856,NA
98541,Grays Harbor County,WA,78.19548872180451,NA,NA
98631,Pacific County,WA,NA,89.15989159891599,NA
98823,Grant County,WA,NA,NA,78.52760736196319
98826,Chelan County,WA,NA,72.49322493224932,NA
98837,Grant County,WA,NA,NA,17.300613496932517
98901,Yakima County,WA,NA,NA,36.687116564417174
98908,Yakima County,WA,NA,75.88075880758808,NA
98926,Kittitas County,WA,NA,34.146341463414636,NA
98944,Yakima County,WA,NA,NA,85.15337423312883
99021,Spokane County,WA,NA,NA,92.63803680981594
99122,Lincoln County,WA,NA,97.42547425474255,NA
99163,Whitman County,WA,74.06015037593986,NA,NA
99320,Benton County,WA,NA,NA,77.30061349693251
99352,Benton County,WA,42.857142857142854,NA,NA
20001,District of Columbia,DC,19.924812030075188,15.582655826558264,NA
20012,District of Columbia,DC,NA,82.79132791327913,NA
20017,District of Columbia,DC,52.255639097744364,NA,NA
20018,District of Columbia,DC,NA,NA,38.895705521472394
20020,District of Columbia,DC,NA,NA,23.06748466257669
20024,District of Columbia,DC,NA,60.02710027100271,NA
24740,Mercer County,WV,NA,30.89430894308943,NA
24801,McDowell County,WV,NA,NA,100
24901,Greenbrier County,WV,NA,NA,72.14723926380368
25403,Berkeley County,WV,NA,NA,86.13496932515338
25508,Logan County,WV,NA,NA,68.83435582822086
25541,Cabell County,WV,64.28571428571429,NA,NA
25801,Raleigh County,WV,NA,10.02710027100271,9.202453987730062
26003,Ohio County,WV,NA,2.5745257452574526,NA
26034,Hancock County,WV,NA,NA,86.50306748466258
26101,Wood County,WV,4.135338345864661,NA,NA
26164,Jackson County,WV,NA,94.579945799458,NA
26354,Taylor County,WV,NA,NA,46.50306748466257
26508,Monongalia County,WV,NA,5.9620596205962055,NA
26757,Hampshire County,WV,NA,NA,70.920245398773
53045,Waukesha County,WI,NA,NA,54.72392638036809
53061,Calumet County,WI,NA,91.59891598915989,NA
53089,Waukesha County,WI,NA,NA,71.04294478527608
53094,Jefferson County,WI,NA,27.91327913279133,NA
53142,Kenosha County,WI,NA,55.6910569105691,NA
53151,Waukesha County,WI,69.17293233082707,NA,NA
53182,Racine County,WI,NA,57.3170731707317,NA
53205,Milwaukee County,WI,2.2556390977443606,NA,NA
53208,Milwaukee County,WI,NA,NA,54.47852760736196
53209,Milwaukee County,WI,NA,2.0325203252032518,35.0920245398773
53215,Milwaukee County,WI,3.7593984962406015,NA,NA
53219,Milwaukee County,WI,NA,12.059620596205962,NA
53226,Milwaukee County,WI,66.9172932330827,NA,NA
53235,Milwaukee County,WI,64.66165413533834,NA,NA
53402,Racine County,WI,NA,NA,1.7177914110429449
53511,Rock County,WI,NA,0.27100271002710025,NA
53536,Rock County,WI,NA,84.5528455284553,NA
53545,Rock County,WI,37.59398496240601,19.647696476964768,NA
53713,Dane County,WI,NA,NA,35.58282208588957
53916,Dodge County,WI,NA,NA,24.662576687116562
53948,Juneau County,WI,NA,NA,69.69325153374233
54143,Marinette County,WI,NA,NA,70.42944785276075
54220,Manitowoc County,WI,NA,2.168021680216802,0.36809815950920244
54401,Marathon County,WI,NA,NA,14.60122699386503
54452,Lincoln County,WI,NA,NA,20.49079754601227
54501,Oneida County,WI,NA,NA,15.214723926380369
54601,La Crosse County,WI,NA,NA,43.558282208588956
54665,Vernon County,WI,NA,63.82113821138211,NA
54701,Eau Claire County,WI,NA,NA,31.656441717791413
82435,Park County,WY,NA,NA,47.239263803680984
82930,Uinta County,WY,NA,NA,97.91411042944786
