ZipCode,county,state,Adult,Retirement,Geriatric
35033,Cullman County,AL,99.2831541218638,NA,NA
35072,Coosa County,AL,NA,NA,98.9539748953975
35603,Morgan County,AL,20.78853046594982,NA,NA
35622,Morgan County,AL,85.66308243727599,NA,NA
35633,Lauderdale County,AL,NA,NA,83.68200836820083
35640,Morgan County,AL,NA,42.51207729468599,NA
35951,Marshall County,AL,NA,85.99033816425121,NA
35953,St. Clair County,AL,NA,95.89371980676329,NA
36024,Elmore County,AL,95.6989247311828,NA,NA
36108,Montgomery County,AL,NA,NA,70.92050209205021
36117,Montgomery County,AL,NA,NA,22.17573221757322
36206,Calhoun County,AL,78.85304659498208,NA,NA
36264,Cleburne County,AL,NA,NA,77.40585774058577
36272,Calhoun County,AL,NA,NA,87.65690376569037
36340,Geneva County,AL,NA,NA,97.28033472803347
36604,Mobile County,AL,NA,NA,99.3723849372385
36607,Mobile County,AL,NA,NA,97.69874476987448
36695,Mobile County,AL,NA,33.57487922705314,NA
36854,Chambers County,AL,NA,72.94685990338165,NA
85012,Maricopa County,AZ,NA,92.27053140096618,NA
85019,Maricopa County,AZ,NA,NA,91.63179916317992
85021,Maricopa County,AZ,NA,NA,49.58158995815899
85022,Maricopa County,AZ,NA,31.88405797101449,53.97489539748954
85032,Maricopa County,AZ,NA,NA,52.928870292887034
85042,Maricopa County,AZ,NA,NA,74.26778242677824
85201,Maricopa County,AZ,NA,36.95652173913043,NA
85202,Maricopa County,AZ,26.523297491039425,NA,NA
85205,Maricopa County,AZ,NA,70.04830917874396,25.94142259414226
85233,Maricopa County,AZ,NA,63.52657004830918,NA
85249,Maricopa County,AZ,NA,42.99516908212561,NA
85301,Maricopa County,AZ,NA,25.60386473429952,NA
85331,Maricopa County,AZ,NA,61.111111111111114,NA
85338,Maricopa County,AZ,NA,51.20772946859904,NA
85351,Maricopa County,AZ,NA,NA,0.8368200836820083
85365,Yuma County,AZ,NA,23.91304347826087,NA
85373,Maricopa County,AZ,NA,57.48792270531401,20.711297071129707
85374,Maricopa County,AZ,NA,NA,6.485355648535565
85501,Gila County,AZ,79.56989247311827,NA,NA
85614,Pima County,AZ,NA,NA,4.602510460251046
85705,Pima County,AZ,23.655913978494624,NA,NA
85710,Pima County,AZ,NA,NA,37.238493723849366
85711,Pima County,AZ,NA,15.942028985507244,NA
85719,Pima County,AZ,NA,80.43478260869566,NA
85747,Pima County,AZ,NA,NA,71.75732217573221
85749,Pima County,AZ,NA,44.44444444444444,NA
86413,Mohave County,AZ,68.10035842293907,NA,NA
86510,Navajo County,AZ,65.59139784946237,NA,NA
71753,Columbia County,AR,NA,NA,61.92468619246861
71801,Hempstead County,AR,NA,NA,68.41004184100419
72110,Conway County,AR,NA,NA,72.59414225941423
72143,White County,AR,43.36917562724014,NA,NA
72616,Carroll County,AR,89.6057347670251,NA,NA
72941,Sebastian County,AR,94.98207885304659,NA,NA
72949,Franklin County,AR,NA,NA,79.07949790794979
72956,Crawford County,AR,NA,NA,50.627615062761514
90002,Los Angeles County,CA,69.17562724014337,NA,NA
90044,Los Angeles County,CA,36.55913978494624,NA,NA
90046,Los Angeles County,CA,NA,27.536231884057973,NA
90057,Los Angeles County,CA,NA,28.26086956521739,NA
90062,Los Angeles County,CA,NA,69.08212560386472,NA
90065,Los Angeles County,CA,NA,41.54589371980676,NA
90066,Los Angeles County,CA,NA,NA,30.334728033472803
90210,Los Angeles County,CA,NA,56.52173913043478,NA
90220,Los Angeles County,CA,NA,NA,40.58577405857741
90222,Los Angeles County,CA,74.91039426523297,NA,NA
90247,Los Angeles County,CA,NA,NA,55.85774058577406
90640,Los Angeles County,CA,NA,33.33333333333333,70.7112970711297
90701,Los Angeles County,CA,NA,NA,91.0041841004184
91104,Los Angeles County,CA,NA,NA,44.35146443514644
91343,Los Angeles County,CA,NA,NA,41.42259414225941
91356,Los Angeles County,CA,NA,NA,26.359832635983267
91361,Ventura County,CA,NA,NA,81.79916317991632
91362,Ventura County,CA,NA,NA,62.55230125523013
91405,Los Angeles County,CA,NA,NA,51.88284518828452
91722,Los Angeles County,CA,NA,NA,73.64016736401673
91723,Los Angeles County,CA,83.87096774193549,NA,NA
91750,Los Angeles County,CA,72.75985663082437,NA,NA
91762,San Bernardino County,CA,NA,56.28019323671497,58.15899581589959
91775,Los Angeles County,CA,NA,NA,80.1255230125523
91790,Los Angeles County,CA,62.00716845878136,NA,NA
91910,San Diego County,CA,NA,NA,46.44351464435147
91942,San Diego County,CA,NA,NA,27.824267782426777
91950,San Diego County,CA,NA,NA,56.48535564853556
91977,San Diego County,CA,NA,NA,36.40167364016737
92008,San Diego County,CA,NA,71.25603864734299,NA
92009,San Diego County,CA,NA,49.275362318840585,NA
92024,San Diego County,CA,NA,51.690821256038646,NA
92056,San Diego County,CA,NA,NA,14.01673640167364
92067,San Diego County,CA,NA,96.85990338164251,NA
92083,San Diego County,CA,NA,74.39613526570048,NA
92084,San Diego County,CA,NA,72.22222222222221,NA
92102,San Diego County,CA,NA,68.35748792270532,NA
92123,San Diego County,CA,NA,50.96618357487923,NA
92131,San Diego County,CA,NA,NA,89.3305439330544
92154,San Diego County,CA,NA,25.36231884057971,NA
92231,Imperial County,CA,NA,NA,7.531380753138076
92264,Riverside County,CA,NA,12.318840579710146,NA
92376,San Bernardino County,CA,NA,19.32367149758454,NA
92392,San Bernardino County,CA,NA,34.78260869565217,NA
92543,Riverside County,CA,49.10394265232975,NA,NA
92549,Riverside County,CA,NA,98.55072463768117,NA
92586,Riverside County,CA,84.22939068100358,NA,NA
92587,Riverside County,CA,92.831541218638,NA,NA
92627,Orange County,CA,NA,NA,19.246861924686193
92630,Orange County,CA,NA,21.73913043478261,NA
92683,Orange County,CA,NA,NA,5.02092050209205
92692,Orange County,CA,NA,29.227053140096622,NA
92703,Orange County,CA,47.67025089605735,98.06763285024155,NA
92805,Orange County,CA,NA,83.09178743961353,NA
92833,Orange County,CA,NA,NA,56.69456066945606
92880,Riverside County,CA,30.107526881720432,NA,NA
92886,Orange County,CA,NA,NA,26.359832635983267
93012,Ventura County,CA,NA,50.24154589371981,NA
93212,Kings County,CA,91.39784946236558,NA,NA
93291,Tulare County,CA,28.31541218637993,NA,NA
93307,Kern County,CA,17.20430107526882,NA,NA
93309,Kern County,CA,38.70967741935484,NA,NA
93313,Kern County,CA,61.648745519713266,NA,NA
93458,Santa Barbara County,CA,53.04659498207885,NA,NA
93610,Madera County,CA,77.41935483870968,NA,NA
93630,Fresno County,CA,86.37992831541219,NA,NA
93637,Madera County,CA,NA,NA,62.97071129707113
93727,Fresno County,CA,18.27956989247312,NA,NA
94015,San Mateo County,CA,NA,10.869565217391305,NA
94044,San Mateo County,CA,NA,NA,45.18828451882845
94134,San Francisco County,CA,NA,NA,31.380753138075313
94404,San Mateo County,CA,NA,NA,43.93305439330544
94509,Contra Costa County,CA,29.749103942652326,NA,NA
94553,Contra Costa County,CA,NA,31.642512077294686,NA
94574,Napa County,CA,NA,NA,79.49790794979079
95035,Santa Clara County,CA,NA,NA,23.430962343096233
95073,Santa Cruz County,CA,NA,97.10144927536231,NA
95076,Santa Cruz County,CA,NA,60.38647342995169,35.77405857740586
95132,Santa Clara County,CA,NA,NA,61.71548117154811
95204,San Joaquin County,CA,NA,NA,75.73221757322176
95207,San Joaquin County,CA,NA,32.608695652173914,NA
95210,San Joaquin County,CA,46.59498207885305,NA,NA
95382,Stanislaus County,CA,NA,NA,48.53556485355649
95403,Sonoma County,CA,NA,NA,17.573221757322173
95409,Sonoma County,CA,NA,NA,16.10878661087866
95648,Placer County,CA,NA,NA,8.786610878661087
95658,Placer County,CA,NA,NA,93.51464435146444
95682,El Dorado County,CA,NA,46.13526570048309,NA
95823,Sacramento County,CA,NA,22.705314009661837,NA
95829,Sacramento County,CA,NA,NA,50
95835,Sacramento County,CA,NA,77.77777777777779,NA
95864,Sacramento County,CA,NA,NA,46.65271966527197
95932,Colusa County,CA,NA,91.54589371980676,NA
95966,Butte County,CA,NA,NA,29.079497907949794
95973,Butte County,CA,31.54121863799283,NA,NA
80004,Jefferson County,CO,NA,NA,41.63179916317992
80015,Arapahoe County,CO,NA,25.845410628019323,NA
80127,Jefferson County,CO,NA,57.729468599033815,NA
80205,Denver County,CO,15.770609318996415,38.88888888888889,NA
80219,Denver County,CO,6.093189964157706,NA,NA
80247,Arapahoe County,CO,NA,57.00483091787439,NA
80503,Boulder County,CO,NA,63.28502415458937,NA
80516,Weld County,CO,NA,71.73913043478261,NA
80525,Larimer County,CO,NA,48.792270531400966,NA
80542,Weld County,CO,98.56630824372759,NA,NA
80601,Adams County,CO,NA,44.68599033816425,NA
80634,Weld County,CO,NA,1.4492753623188406,NA
80905,El Paso County,CO,NA,85.26570048309179,NA
80906,El Paso County,CO,NA,46.85990338164252,NA
81506,Mesa County,CO,NA,NA,67.15481171548117
06042,Hartford County,CT,NA,NA,47.90794979079498
06105,Hartford County,CT,NA,NA,61.50627615062761
06109,Hartford County,CT,NA,64.00966183574879,NA
06403,New Haven County,CT,97.1326164874552,NA,NA
06488,New Haven County,CT,NA,43.23671497584541,13.179916317991633
06492,New Haven County,CT,NA,NA,34.10041841004184
06513,New Haven County,CT,4.301075268817205,NA,NA
06516,New Haven County,CT,NA,4.1062801932367154,NA
06708,New Haven County,CT,NA,41.06280193236715,NA
06790,Litchfield County,CT,NA,NA,7.112970711297072
06820,Fairfield County,CT,NA,89.85507246376811,NA
06896,Fairfield County,CT,NA,NA,85.35564853556485
06902,Fairfield County,CT,NA,12.077294685990339,5.230125523012552
19701,New Castle County,DE,NA,20.531400966183575,NA
19713,New Castle County,DE,NA,NA,37.65690376569037
19901,Kent County,DE,NA,23.18840579710145,NA
19904,Kent County,DE,16.48745519713262,NA,66.73640167364016
19947,Sussex County,DE,NA,47.34299516908212,NA
19958,Sussex County,DE,NA,NA,12.97071129707113
19962,Kent County,DE,NA,NA,89.9581589958159
19963,Sussex County,DE,NA,NA,57.11297071129707
19966,Sussex County,DE,NA,NA,51.46443514644351
19968,Sussex County,DE,79.92831541218638,NA,NA
19970,Sussex County,DE,NA,67.8743961352657,NA
19977,Kent County,DE,NA,NA,49.163179916317986
32148,Putnam County,FL,83.15412186379928,NA,NA
32159,Lake County,FL,NA,NA,5.857740585774058
32162,Sumter County,FL,NA,NA,20.0836820083682
32163,Sumter County,FL,NA,NA,65.27196652719665
32205,Duval County,FL,NA,37.43961352657005,NA
32209,Duval County,FL,NA,16.425120772946862,NA
32218,Duval County,FL,NA,3.864734299516908,NA
32244,Duval County,FL,7.168458781362006,NA,NA
32303,Leon County,FL,NA,NA,60.46025104602511
32408,Bay County,FL,NA,74.63768115942028,NA
32526,Escambia County,FL,17.562724014336915,NA,NA
32547,Okaloosa County,FL,NA,62.31884057971014,NA
32608,Alachua County,FL,NA,18.84057971014493,NA
32626,Levy County,FL,NA,96.37681159420289,NA
32643,Alachua County,FL,NA,82.85024154589372,NA
32669,Alachua County,FL,NA,NA,85.56485355648536
32703,Orange County,FL,NA,22.22222222222222,NA
32708,Seminole County,FL,NA,43.47826086956522,NA
32751,Orange County,FL,NA,NA,53.13807531380753
32792,Orange County,FL,NA,56.763285024154584,NA
32798,Orange County,FL,NA,98.79227053140096,NA
32808,Orange County,FL,19.71326164874552,NA,NA
32821,Orange County,FL,NA,94.20289855072464,NA
32822,Orange County,FL,NA,30.676328502415455,NA
32955,Brevard County,FL,NA,NA,12.133891213389122
32958,Indian River County,FL,NA,NA,6.2761506276150625
32960,Indian River County,FL,NA,NA,51.04602510460251
33016,Miami-Dade County,FL,NA,NA,66.52719665271967
33021,Broward County,FL,NA,NA,5.439330543933055
33024,Broward County,FL,NA,NA,21.96652719665272
33063,Broward County,FL,NA,NA,13.598326359832635
33068,Broward County,FL,NA,60.86956521739131,NA
33076,Broward County,FL,NA,NA,65.48117154811716
33137,Miami-Dade County,FL,NA,92.02898550724638,NA
33180,Miami-Dade County,FL,NA,NA,16.527196652719663
33186,Miami-Dade County,FL,NA,35.990338164251206,NA
33196,Miami-Dade County,FL,NA,NA,54.60251046025104
33312,Broward County,FL,NA,NA,67.78242677824268
33437,Palm Beach County,FL,NA,23.42995169082126,NA
33513,Sumter County,FL,87.45519713261649,NA,NA
33534,Hillsborough County,FL,77.77777777777779,NA,NA
33596,Hillsborough County,FL,NA,69.32367149758454,NA
33604,Hillsborough County,FL,NA,45.893719806763286,53.55648535564853
33609,Hillsborough County,FL,79.21146953405018,NA,NA
33615,Hillsborough County,FL,NA,36.231884057971016,NA
33619,Hillsborough County,FL,NA,NA,71.96652719665272
33703,Pinellas County,FL,NA,NA,61.29707112970711
33707,Pinellas County,FL,70.25089605734766,NA,NA
33714,Pinellas County,FL,NA,77.29468599033817,NA
33767,Pinellas County,FL,NA,88.88888888888889,NA
33801,Polk County,FL,NA,49.033816425120776,NA
33805,Polk County,FL,NA,39.371980676328505,NA
33810,Polk County,FL,NA,78.01932367149759,NA
33898,Polk County,FL,66.66666666666666,NA,NA
33904,Lee County,FL,45.16129032258064,NA,37.86610878661088
33905,Lee County,FL,NA,30.434782608695656,NA
33907,Lee County,FL,NA,NA,61.08786610878661
33908,Lee County,FL,NA,NA,0.6276150627615062
33916,Lee County,FL,45.878136200716845,NA,NA
33917,Lee County,FL,NA,NA,15.899581589958158
34105,Collier County,FL,NA,NA,47.69874476987448
34108,Collier County,FL,NA,65.45893719806763,NA
34109,Collier County,FL,81.72043010752688,NA,NA
34114,Collier County,FL,NA,NA,48.11715481171548
34203,Manatee County,FL,NA,NA,17.782426778242677
34210,Manatee County,FL,89.96415770609319,NA,NA
34233,Sarasota County,FL,NA,55.55555555555556,NA
34285,Sarasota County,FL,NA,63.04347826086957,NA
34287,Sarasota County,FL,61.29032258064516,NA,NA
34293,Sarasota County,FL,NA,NA,3.3472803347280333
34420,Marion County,FL,76.34408602150538,NA,84.30962343096235
34450,Citrus County,FL,NA,83.81642512077295,NA
34474,Marion County,FL,NA,NA,82.21757322175732
34607,Hernando County,FL,NA,NA,88.28451882845188
34639,Pasco County,FL,NA,65.21739130434783,NA
34653,Pasco County,FL,NA,35.26570048309179,NA
34668,Pasco County,FL,NA,26.08695652173913,71.1297071129707
34698,Pinellas County,FL,63.44086021505376,NA,NA
34997,Martin County,FL,NA,NA,4.811715481171548
30005,Fulton County,GA,75.98566308243727,NA,NA
30030,DeKalb County,GA,NA,NA,52.30125523012552
30032,DeKalb County,GA,NA,13.285024154589372,NA
30035,DeKalb County,GA,NA,52.17391304347826,NA
30054,Newton County,GA,76.70250896057348,NA,NA
30058,DeKalb County,GA,NA,32.125603864734295,NA
30062,Cobb County,GA,51.25448028673835,NA,NA
30107,Cherokee County,GA,NA,NA,85.77405857740585
30110,Haralson County,GA,NA,88.88888888888889,NA
30115,Cherokee County,GA,77.06093189964157,NA,NA
30126,Cobb County,GA,52.68817204301075,NA,NA
30134,Douglas County,GA,NA,NA,63.17991631799163
30161,Floyd County,GA,23.297491039426525,NA,NA
30204,Lamar County,GA,88.88888888888889,NA,NA
30230,Troup County,GA,NA,85.5072463768116,NA
30294,DeKalb County,GA,NA,NA,74.89539748953975
30310,Fulton County,GA,NA,NA,53.13807531380753
30312,Fulton County,GA,NA,60.14492753623188,NA
30317,DeKalb County,GA,NA,NA,92.46861924686193
30318,Fulton County,GA,NA,NA,34.30962343096235
30331,Fulton County,GA,21.863799283154123,9.178743961352657,NA
30337,Fulton County,GA,NA,92.7536231884058,NA
30344,Fulton County,GA,NA,NA,80.5439330543933
30349,Fulton County,GA,10.39426523297491,13.043478260869565,69.8744769874477
30501,Hall County,GA,NA,NA,70.50209205020921
30540,Gilmer County,GA,NA,NA,54.18410041841004
30542,Hall County,GA,NA,47.58454106280193,NA
30655,Walton County,GA,42.29390681003584,NA,NA
30677,Oconee County,GA,NA,NA,82.42677824267783
30755,Whitfield County,GA,NA,94.44444444444444,NA
31023,Dodge County,GA,NA,NA,86.19246861924687
31047,Houston County,GA,NA,NA,93.72384937238493
31088,Houston County,GA,NA,NA,18.828451882845187
31093,Houston County,GA,NA,36.71497584541063,NA
31210,Bibb County,GA,70.60931899641577,NA,NA
31415,Chatham County,GA,78.49462365591397,NA,NA
31537,Charlton County,GA,NA,86.95652173913044,NA
31553,Brantley County,GA,96.415770609319,NA,NA
31907,Muscogee County,GA,10.75268817204301,NA,NA
83204,Bannock County,ID,62.365591397849464,NA,NA
83501,Nez Perce County,ID,NA,NA,6.066945606694561
83686,Canyon County,ID,11.11111111111111,4.830917874396135,NA
83709,Ada County,ID,NA,5.314009661835748,NA
60002,Lake County,IL,NA,NA,63.80753138075313
60004,Cook County,IL,NA,NA,8.786610878661087
60013,McHenry County,IL,NA,40.33816425120773,NA
60033,McHenry County,IL,NA,82.1256038647343,NA
60035,Lake County,IL,NA,NA,2.7196652719665275
60053,Cook County,IL,NA,37.43961352657005,NA
60060,Lake County,IL,57.34767025089605,NA,50.836820083682014
60076,Cook County,IL,NA,27.77777777777778,NA
60098,McHenry County,IL,NA,16.183574879227052,NA
60102,McHenry County,IL,NA,NA,52.09205020920502
60188,DuPage County,IL,NA,26.32850241545894,NA
60404,Will County,IL,52.32974910394266,NA,NA
60425,Cook County,IL,87.09677419354838,NA,NA
60430,Cook County,IL,NA,NA,46.02510460251046
60544,Will County,IL,NA,29.468599033816425,NA
60545,Kendall County,IL,NA,87.19806763285024,NA
60561,DuPage County,IL,NA,33.81642512077295,NA
60605,Cook County,IL,NA,NA,64.85355648535564
60608,Cook County,IL,67.02508960573476,NA,NA
60610,Cook County,IL,51.971326164874554,NA,NA
60623,Cook County,IL,9.31899641577061,NA,NA
60624,Cook County,IL,19.35483870967742,NA,NA
60629,Cook County,IL,NA,4.5893719806763285,10.460251046025103
60640,Cook County,IL,NA,7.487922705314009,NA
60646,Cook County,IL,58.06451612903226,NA,NA
60657,Cook County,IL,NA,53.3816425120773,NA
60707,Cook County,IL,25.806451612903224,NA,NA
60901,Kankakee County,IL,NA,NA,43.09623430962343
60964,Kankakee County,IL,NA,91.06280193236715,NA
61048,Stephenson County,IL,99.6415770609319,NA,NA
61301,LaSalle County,IL,NA,NA,66.31799163179917
61342,LaSalle County,IL,NA,54.589371980676326,NA
61607,Peoria County,IL,86.73835125448028,NA,NA
61951,Moultrie County,IL,NA,84.29951690821255,NA
62040,Madison County,IL,26.16487455197133,NA,NA
62205,St. Clair County,IL,NA,NA,89.5397489539749
62249,Madison County,IL,NA,NA,35.56485355648535
62441,Clark County,IL,94.6236559139785,NA,92.67782426778243
62644,Mason County,IL,NA,NA,87.65690376569037
62650,Morgan County,IL,NA,36.95652173913043,NA
62703,Sangamon County,IL,NA,NA,47.28033472803347
62812,Franklin County,IL,NA,NA,37.44769874476987
62917,Saline County,IL,NA,NA,100
46037,Hamilton County,IN,NA,42.7536231884058,NA
46112,Hendricks County,IN,NA,NA,33.68200836820084
46176,Shelby County,IN,20.43010752688172,NA,NA
46203,Marion County,IN,NA,NA,30.753138075313807
46214,Marion County,IN,NA,NA,40.37656903765691
46218,Marion County,IN,12.544802867383511,NA,NA
46234,Marion County,IN,NA,57.971014492753625,39.74895397489539
46260,Marion County,IN,NA,54.830917874396135,NA
46322,Lake County,IN,NA,NA,13.807531380753138
46342,Lake County,IN,NA,NA,20.920502092050206
46350,LaPorte County,IN,12.186379928315413,7.004830917874397,20.292887029288703
46404,Lake County,IN,39.784946236559136,NA,NA
46407,Lake County,IN,NA,NA,69.4560669456067
46410,Lake County,IN,NA,NA,26.98744769874477
46580,Kosciusko County,IN,55.19713261648745,NA,NA
46619,St. Joseph County,IN,85.66308243727599,75.60386473429952,NA
46628,St. Joseph County,IN,58.422939068100355,NA,NA
46761,LaGrange County,IN,91.75627240143369,NA,NA
46807,Allen County,IN,60.215053763440864,NA,NA
46933,Grant County,IN,NA,NA,71.96652719665272
47102,Scott County,IN,92.1146953405018,NA,NA
47274,Jackson County,IN,NA,35.507246376811594,NA
47303,Delaware County,IN,NA,NA,70.29288702928869
47304,Delaware County,IN,NA,48.55072463768116,NA
47330,Wayne County,IN,NA,92.9951690821256,NA
47371,Jay County,IN,NA,34.05797101449276,NA
47546,Dubois County,IN,NA,NA,30.962343096234306
47586,Perry County,IN,NA,NA,73.01255230125523
47803,Vigo County,IN,NA,64.73429951690821,NA
50036,Boone County,IA,NA,62.07729468599034,NA
50112,Poweshiek County,IA,92.47311827956989,NA,NA
52101,Winneshiek County,IA,NA,NA,32.42677824267782
52136,Howard County,IA,NA,84.05797101449275,NA
52601,Des Moines County,IA,NA,NA,15.271966527196653
52803,Scott County,IA,41.57706093189964,NA,NA
66012,Wyandotte County,KS,NA,NA,84.10041841004184
66608,Shawnee County,KS,NA,98.30917874396135,NA
66614,Shawnee County,KS,41.21863799283154,NA,NA
66801,Lyon County,KS,NA,NA,32.84518828451883
67002,Butler County,KS,NA,NA,95.81589958158996
67218,Sedgwick County,KS,80.64516129032258,NA,NA
67230,Sedgwick County,KS,NA,NA,98.11715481171548
67401,Saline County,KS,27.598566308243726,NA,NA
67550,Pawnee County,KS,93.9068100358423,NA,NA
40242,Jefferson County,KY,NA,79.71014492753623,NA
40243,Jefferson County,KY,NA,NA,60.25104602510461
40383,Woodford County,KY,NA,49.75845410628019,NA
40403,Madison County,KY,NA,NA,28.451882845188287
40505,Fayette County,KY,NA,34.78260869565217,NA
40701,Whitley County,KY,NA,NA,27.19665271966527
41035,Grant County,KY,NA,NA,77.82426778242679
41102,Boyd County,KY,NA,NA,26.15062761506276
41311,Lee County,KY,NA,87.92270531400966,NA
42240,Christian County,KY,8.24372759856631,NA,NA
42345,Muhlenberg County,KY,64.51612903225806,NA,NA
70345,Lafourche Parish,LA,NA,53.14009661835749,NA
70433,St. Tammany Parish,LA,8.60215053763441,NA,NA
70435,St. Tammany Parish,LA,NA,21.014492753623188,NA
70454,Tangipahoa Parish,LA,NA,45.410628019323674,NA
70458,St. Tammany Parish,LA,NA,NA,11.297071129707113
70461,St. Tammany Parish,LA,NA,NA,46.23430962343097
70518,Lafayette Parish,LA,59.13978494623656,NA,NA
70538,St. Mary Parish,LA,50.89605734767025,NA,NA
70546,Jefferson Davis Parish,LA,NA,69.56521739130434,NA
70634,Beauregard Parish,LA,NA,44.20289855072464,NA
70737,Ascension Parish,LA,NA,19.806763285024154,NA
70744,Livingston Parish,LA,87.81362007168458,NA,NA
70802,East Baton Rouge Parish,LA,NA,NA,52.51046025104602
70809,East Baton Rouge Parish,LA,NA,NA,41.21338912133891
71104,Caddo Parish,LA,NA,75.84541062801932,NA
71203,Ouachita Parish,LA,NA,68.11594202898551,NA
71303,Rapides Parish,LA,NA,NA,60.66945606694561
71409,Rapides Parish,LA,NA,NA,96.65271966527197
03908,York County,ME,NA,66.18357487922705,NA
04009,Cumberland County,ME,NA,58.93719806763285,NA
04239,Franklin County,ME,NA,NA,79.2887029288703
04401,Penobscot County,ME,3.225806451612903,1.2077294685990339,NA
04609,Hancock County,ME,NA,96.1352657004831,NA
04901,Kennebec County,ME,NA,3.3816425120772946,NA
20640,Charles County,MD,NA,NA,95.39748953974896
20705,Prince George's County,MD,NA,80.91787439613528,NA
20706,Prince George's County,MD,65.94982078853047,NA,NA
20743,Prince George's County,MD,NA,78.26086956521739,NA
20744,Prince George's County,MD,54.48028673835126,NA,NA
20745,Prince George's County,MD,NA,66.66666666666666,NA
20769,Prince George's County,MD,97.4910394265233,NA,NA
20770,Prince George's County,MD,NA,91.78743961352657,NA
20772,Prince George's County,MD,NA,NA,88.70292887029288
20902,Montgomery County,MD,NA,NA,73.01255230125523
21044,Howard County,MD,NA,NA,74.68619246861925
21047,Harford County,MD,NA,NA,71.33891213389121
21061,Anne Arundel County,MD,12.903225806451612,NA,23.84937238493724
21093,Baltimore County,MD,NA,NA,9.205020920502092
21102,Carroll County,MD,NA,NA,95.60669456066945
21144,Anne Arundel County,MD,NA,65.94202898550725,NA
21217,Baltimore city,MD,NA,21.256038647342994,NA
21221,Baltimore County,MD,25.448028673835125,NA,NA
21222,Baltimore County,MD,5.017921146953405,NA,NA
21223,Baltimore city,MD,NA,NA,73.84937238493724
21237,Baltimore County,MD,NA,61.83574879227053,45.39748953974895
21239,Baltimore city,MD,NA,NA,29.497907949790797
21401,Anne Arundel County,MD,67.38351254480287,NA,21.75732217573222
21403,Anne Arundel County,MD,71.68458781362007,NA,NA
21550,Garrett County,MD,NA,NA,18.410041841004183
21658,Queen Anne's County,MD,NA,100,NA
21702,Frederick County,MD,NA,75.36231884057972,NA
21703,Frederick County,MD,NA,NA,97.07112970711297
21771,Frederick County,MD,NA,73.42995169082126,NA
01002,Hampshire County,MA,46.236559139784944,NA,NA
01028,Hampden County,MA,NA,NA,52.51046025104602
01201,Berkshire County,MA,NA,3.6231884057971016,NA
01220,Berkshire County,MA,NA,47.10144927536232,NA
01440,Worcester County,MA,2.867383512544803,9.903381642512077,NA
01450,Middlesex County,MA,NA,NA,88.49372384937239
01603,Worcester County,MA,NA,2.4154589371980677,NA
01757,Worcester County,MA,NA,NA,24.686192468619247
01824,Middlesex County,MA,NA,NA,8.368200836820083
01832,Essex County,MA,3.584229390681003,NA,NA
01854,Middlesex County,MA,NA,5.797101449275362,NA
01880,Middlesex County,MA,100,NA,NA
01902,Essex County,MA,NA,NA,2.301255230125523
01905,Essex County,MA,NA,NA,57.53138075313807
01923,Essex County,MA,NA,6.038647342995169,NA
02019,Norfolk County,MA,NA,99.27536231884058,NA
02061,Plymouth County,MA,NA,93.71980676328504,NA
02062,Norfolk County,MA,NA,NA,19.874476987447697
02126,Suffolk County,MA,0.7168458781362007,NA,NA
02130,Suffolk County,MA,NA,NA,4.184100418410042
02151,Suffolk County,MA,0,NA,NA
02171,Norfolk County,MA,NA,NA,44.56066945606695
02184,Norfolk County,MA,NA,8.212560386473431,NA
02190,Norfolk County,MA,NA,40.33816425120773,NA
02324,Plymouth County,MA,NA,NA,56.903765690376574
02330,Plymouth County,MA,NA,NA,74.47698744769873
02343,Norfolk County,MA,NA,76.81159420289855,NA
02351,Plymouth County,MA,NA,28.743961352657006,NA
02370,Plymouth County,MA,NA,30.917874396135264,NA
02421,Middlesex County,MA,NA,NA,14.435146443514643
02467,Norfolk County,MA,NA,NA,33.054393305439326
02601,Barnstable County,MA,95.3405017921147,NA,NA
02721,Bristol County,MA,NA,NA,11.92468619246862
02766,Bristol County,MA,NA,9.420289855072465,NA
48009,Oakland County,MI,NA,70.53140096618358,NA
48072,Oakland County,MI,NA,59.90338164251207,NA
48101,Wayne County,MI,NA,NA,23.640167364016737
48116,Livingston County,MI,NA,18.115942028985508,NA
48180,Wayne County,MI,NA,19.565217391304348,NA
48214,Wayne County,MI,NA,NA,42.88702928870293
48219,Wayne County,MI,NA,NA,15.690376569037657
48221,Wayne County,MI,NA,NA,2.928870292887029
48228,Wayne County,MI,NA,7.246376811594203,NA
48235,Wayne County,MI,NA,NA,12.552301255230125
48301,Oakland County,MI,NA,NA,82.00836820083683
48334,Oakland County,MI,NA,40.09661835748793,NA
48415,Saginaw County,MI,NA,92.512077294686,NA
48420,Genesee County,MI,54.83870967741935,NA,NA
48507,Genesee County,MI,NA,34.54106280193236,NA
48601,Saginaw County,MI,NA,NA,5.648535564853557
48638,Saginaw County,MI,NA,NA,64.64435146443515
48722,Saginaw County,MI,NA,NA,93.93305439330544
48732,Bay County,MI,NA,NA,58.36820083682008
48801,Gratiot County,MI,56.272401433691755,NA,NA
48842,Ingham County,MI,44.44444444444444,NA,NA
48846,Ionia County,MI,NA,57.2463768115942,NA
49065,Van Buren County,MI,81.36200716845879,NA,NA
49221,Lenawee County,MI,NA,NA,7.322175732217573
49306,Kent County,MI,NA,NA,85.14644351464436
49316,Kent County,MI,NA,52.89855072463768,NA
49321,Kent County,MI,NA,NA,94.56066945606695
49417,Ottawa County,MI,NA,6.280193236714976,NA
49418,Kent County,MI,44.086021505376344,NA,NA
49420,Oceana County,MI,NA,90.09661835748793,NA
49424,Ottawa County,MI,NA,14.009661835748794,11.08786610878661
49442,Muskegon County,MI,22.22222222222222,NA,NA
49445,Muskegon County,MI,NA,24.396135265700483,NA
49505,Kent County,MI,NA,NA,20.502092050209207
49509,Kent County,MI,16.129032258064516,NA,NA
49519,Kent County,MI,NA,NA,36.82008368200837
49534,Kent County,MI,NA,50,NA
49548,Kent County,MI,NA,54.347826086956516,36.19246861924686
49601,Wexford County,MI,NA,58.454106280193244,NA
49631,Osceola County,MI,NA,74.8792270531401,NA
49707,Alpena County,MI,37.634408602150536,NA,NA
55016,Washington County,MN,50.179211469534046,NA,NA
55025,Washington County,MN,NA,NA,69.0376569037657
55060,Steele County,MN,NA,NA,55.23012552301255
55082,Washington County,MN,40.14336917562724,NA,NA
55101,Ramsey County,MN,NA,90.09661835748793,NA
55364,Hennepin County,MN,NA,85.02415458937197,NA
55391,Hennepin County,MN,NA,NA,75.52301255230127
55428,Hennepin County,MN,24.731182795698924,NA,NA
55448,Anoka County,MN,NA,NA,62.76150627615063
55806,St. Louis County,MN,35.12544802867383,NA,NA
55901,Olmsted County,MN,NA,NA,48.95397489539749
56081,Watonwan County,MN,NA,NA,44.97907949790795
56345,Morrison County,MN,NA,NA,15.481171548117153
56537,Otter Tail County,MN,NA,10.38647342995169,NA
38632,DeSoto County,MS,NA,NA,66.10878661087865
38635,Marshall County,MS,NA,NA,83.05439330543933
38732,Bolivar County,MS,NA,NA,54.39330543933054
39183,Warren County,MS,NA,NA,82.63598326359832
39209,Hinds County,MS,NA,55.072463768115945,NA
39301,Lauderdale County,MS,22.939068100358423,NA,NA
39341,Noxubee County,MS,NA,NA,86.82008368200836
39365,Neshoba County,MS,84.94623655913979,NA,NA
39466,Pearl River County,MS,NA,78.74396135265701,NA
39560,Harrison County,MS,NA,NA,16.317991631799163
63033,St. Louis County,MO,NA,14.975845410628018,NA
63080,Franklin County,MO,NA,NA,54.811715481171554
63106,St. Louis city,MO,NA,NA,87.44769874476988
63111,St. Louis city,MO,73.47670250896059,NA,NA
63123,St. Louis County,MO,NA,NA,3.1380753138075312
63129,St. Louis County,MO,NA,NA,9.832635983263598
63146,St. Louis County,MO,59.85663082437276,NA,NA
63385,St. Charles County,MO,NA,NA,19.456066945606697
63401,Marion County,MO,NA,58.212560386473434,NA
63645,Madison County,MO,NA,NA,58.995815899581594
63701,Cape Girardeau County,MO,NA,NA,24.05857740585774
64012,Cass County,MO,NA,69.80676328502415,NA
64014,Jackson County,MO,27.24014336917563,NA,NA
64050,Jackson County,MO,NA,NA,46.65271966527197
64052,Jackson County,MO,13.261648745519713,NA,NA
64063,Jackson County,MO,46.59498207885305,NA,NA
64068,Clay County,MO,NA,38.405797101449274,NA
64081,Jackson County,MO,NA,NA,42.25941422594142
64086,Jackson County,MO,NA,NA,59.20502092050209
64118,Clay County,MO,NA,7.729468599033816,NA
64131,Jackson County,MO,17.921146953405017,NA,NA
64134,Jackson County,MO,NA,NA,68.82845188284519
64138,Jackson County,MO,14.695340501792115,NA,NA
64151,Platte County,MO,NA,NA,56.06694560669456
65049,Camden County,MO,NA,NA,80.3347280334728
65066,Gasconade County,MO,85.30465949820788,NA,NA
65401,Phelps County,MO,NA,20.28985507246377,NA
59802,Missoula County,MT,NA,NA,84.51882845188284
69301,Box Butte County,NE,NA,76.32850241545893,NA
89102,Clark County,NV,NA,NA,78.03347280334728
89106,Clark County,NV,56.63082437275986,NA,NA
89115,Clark County,NV,26.881720430107524,NA,NA
89119,Clark County,NV,27.956989247311824,NA,NA
89121,Clark County,NV,NA,NA,35.146443514644346
89122,Clark County,NV,NA,NA,51.67364016736402
89123,Clark County,NV,NA,36.473429951690825,NA
89145,Clark County,NV,NA,NA,91.0041841004184
89148,Clark County,NV,81.00358422939068,NA,NA
89434,Washoe County,NV,NA,39.371980676328505,NA
89701,Carson City,NV,NA,NA,47.28033472803347
89703,Carson City,NV,NA,NA,67.57322175732217
07013,Passaic County,NJ,NA,NA,56.27615062761506
07054,Morris County,NJ,NA,NA,38.07531380753138
07067,Middlesex County,NJ,NA,81.15942028985508,NA
07083,Union County,NJ,20.07168458781362,NA,NA
07111,Essex County,NJ,NA,NA,22.80334728033473
07422,Sussex County,NJ,96.7741935483871,NA,NA
07465,Passaic County,NJ,NA,NA,87.23849372384937
07514,Passaic County,NJ,NA,NA,78.24267782426779
07624,Bergen County,NJ,NA,NA,97.48953974895397
07626,Bergen County,NJ,98.9247311827957,NA,NA
07646,Bergen County,NJ,NA,76.08695652173914,NA
07652,Bergen County,NJ,98.2078853046595,NA,NA
07827,Sussex County,NJ,NA,NA,93.09623430962343
07850,Morris County,NJ,NA,NA,89.7489539748954
07940,Morris County,NJ,NA,79.46859903381642,NA
08015,Burlington County,NJ,NA,54.106280193236714,38.70292887029289
08021,Camden County,NJ,NA,7.971014492753622,NA
08037,Atlantic County,NJ,NA,25.120772946859905,NA
08046,Burlington County,NJ,NA,NA,33.89121338912134
08052,Burlington County,NJ,NA,48.309178743961354,NA
08069,Salem County,NJ,NA,52.41545893719807,NA
08081,Camden County,NJ,NA,NA,72.80334728033473
08098,Salem County,NJ,51.25448028673835,NA,NA
08105,Camden County,NJ,2.1505376344086025,50.48309178743962,NA
08230,Cape May County,NJ,83.51254480286738,NA,NA
08234,Atlantic County,NJ,NA,NA,24.267782426778243
08332,Cumberland County,NJ,NA,18.59903381642512,44.76987447698745
08558,Somerset County,NJ,NA,NA,98.74476987447699
08609,Mercer County,NJ,NA,NA,80.75313807531381
08628,Mercer County,NJ,NA,87.43961352657004,NA
08731,Ocean County,NJ,NA,56.038647342995176,NA
08757,Ocean County,NJ,NA,NA,6.694560669456067
08759,Ocean County,NJ,NA,NA,0
08807,Somerset County,NJ,NA,NA,40.1673640167364
08816,Middlesex County,NJ,NA,29.951690821256037,NA
08817,Middlesex County,NJ,28.673835125448026,NA,NA
08820,Middlesex County,NJ,NA,NA,21.548117154811717
08876,Somerset County,NJ,NA,67.14975845410628,NA
08889,Hunterdon County,NJ,NA,95.65217391304348,NA
87105,Bernalillo County,NM,3.942652329749104,NA,NA
87121,Bernalillo County,NM,NA,NA,28.03347280334728
87301,McKinley County,NM,NA,67.3913043478261,NA
88001,Doa Ana County,NM,NA,NA,53.76569037656904
10009,New York County,NY,NA,NA,4.393305439330543
10013,New York County,NY,88.17204301075269,NA,NA
10019,New York County,NY,NA,68.35748792270532,NA
10025,New York County,NY,34.05017921146953,NA,NA
10027,New York County,NY,NA,14.251207729468598,NA
10029,New York County,NY,NA,NA,0.41841004184100417
10032,New York County,NY,NA,38.64734299516908,NA
10038,New York County,NY,55.91397849462365,NA,NA
10040,New York County,NY,73.11827956989248,NA,NA
10075,New York County,NY,NA,NA,18.619246861924683
10453,Bronx County,NY,1.7921146953405016,NA,NA
10455,Bronx County,NY,NA,46.3768115942029,NA
10456,Bronx County,NY,0.35842293906810035,NA,NA
10457,Bronx County,NY,1.0752688172043012,NA,11.715481171548117
10459,Bronx County,NY,5.734767025089606,NA,NA
10467,Bronx County,NY,NA,NA,16.94560669456067
10473,Bronx County,NY,4.659498207885305,NA,NA
10552,Westchester County,NY,NA,NA,75.31380753138075
10562,Westchester County,NY,94.26523297491039,NA,NA
10583,Westchester County,NY,NA,NA,31.589958158995817
10801,Westchester County,NY,NA,NA,74.89539748953975
10980,Rockland County,NY,NA,94.68599033816425,NA
10989,Rockland County,NY,NA,NA,87.02928870292888
11105,Queens County,NY,NA,61.35265700483091,NA
11214,Kings County,NY,NA,NA,7.949790794979079
11221,Kings County,NY,NA,NA,32.21757322175732
11233,Kings County,NY,15.053763440860216,0.966183574879227,NA
11234,Kings County,NY,NA,NA,17.99163179916318
11235,Kings County,NY,NA,NA,1.0460251046025104
11354,Queens County,NY,NA,NA,24.476987447698743
11366,Queens County,NY,NA,NA,73.01255230125523
11375,Queens County,NY,NA,NA,6.903765690376569
11416,Queens County,NY,NA,93.96135265700482,NA
11434,Queens County,NY,NA,NA,19.665271966527197
11435,Queens County,NY,NA,17.874396135265698,30.543933054393307
11520,Nassau County,NY,39.06810035842294,NA,NA
11530,Nassau County,NY,NA,89.61352657004831,NA
11572,Nassau County,NY,NA,72.70531400966183,NA
11590,Nassau County,NY,NA,NA,25.313807531380757
11691,Queens County,NY,NA,NA,21.338912133891213
11692,Queens County,NY,NA,78.98550724637681,NA
11726,Suffolk County,NY,80.28673835125448,NA,NA
11731,Suffolk County,NY,NA,77.53623188405797,NA
11742,Suffolk County,NY,NA,NA,98.32635983263597
11746,Suffolk County,NY,NA,NA,10.251046025104603
11757,Suffolk County,NY,NA,50.72463768115942,NA
11763,Suffolk County,NY,NA,NA,48.74476987447699
11768,Suffolk County,NY,NA,NA,57.11297071129707
11769,Suffolk County,NY,NA,96.61835748792271,NA
11772,Suffolk County,NY,NA,NA,78.45188284518828
11784,Suffolk County,NY,75.62724014336918,NA,NA
11789,Suffolk County,NY,NA,NA,96.02510460251045
11790,Suffolk County,NY,96.05734767025089,NA,NA
11795,Suffolk County,NY,NA,NA,30.125523012552303
11951,Suffolk County,NY,NA,95.41062801932367,NA
12009,Albany County,NY,NA,NA,87.65690376569037
12186,Albany County,NY,NA,NA,94.35146443514645
12210,Albany County,NY,67.74193548387096,NA,NA
12303,Schenectady County,NY,NA,NA,36.82008368200837
12401,Ulster County,NY,NA,NA,34.72803347280335
12477,Ulster County,NY,NA,NA,77.19665271966527
12528,Ulster County,NY,84.58781362007169,NA,86.40167364016736
12550,Orange County,NY,NA,64.4927536231884,NA
12590,Dutchess County,NY,NA,NA,51.25523012552301
13029,Onondaga County,NY,78.13620071684588,NA,NA
13118,Cayuga County,NY,82.43727598566308,NA,NA
13126,Oswego County,NY,NA,NA,12.761506276150628
13440,Oneida County,NY,NA,NA,9.623430962343097
13790,Broome County,NY,NA,NA,14.853556485355648
13815,Chenango County,NY,NA,NA,32.00836820083682
14052,Erie County,NY,NA,NA,67.99163179916317
14072,Erie County,NY,NA,40.82125603864734,NA
14150,Erie County,NY,7.526881720430108,NA,NA
14227,Erie County,NY,32.97491039426524,NA,NA
14228,Erie County,NY,NA,NA,75.94142259414227
14411,Orleans County,NY,68.81720430107528,NA,NA
14437,Livingston County,NY,NA,NA,71.33891213389121
14521,Seneca County,NY,97.84946236559139,NA,NA
14701,Chautauqua County,NY,NA,1.6908212560386473,NA
14850,Tompkins County,NY,NA,NA,31.171548117154813
27023,Forsyth County,NC,NA,NA,38.70292887029289
27025,Rockingham County,NC,NA,84.78260869565217,NA
27028,Davie County,NC,18.63799283154122,NA,NA
27105,Forsyth County,NC,NA,2.657004830917874,NA
27295,Davidson County,NC,NA,NA,2.510460251046025
27302,Alamance County,NC,NA,13.768115942028986,NA
27317,Randolph County,NC,62.72401433691756,NA,NA
27405,Guilford County,NC,43.727598566308245,NA,NA
27526,Wake County,NC,34.40860215053764,NA,NA
27529,Wake County,NC,NA,58.69565217391305,NA
27536,Vance County,NC,NA,NA,22.17573221757322
27713,Durham County,NC,NA,NA,19.03765690376569
27804,Nash County,NC,NA,NA,39.33054393305439
27893,Wilson County,NC,NA,27.053140096618357,NA
27909,Pasquotank County,NC,NA,13.526570048309178,NA
27910,Hertford County,NC,48.74551971326165,NA,NA
27948,Dare County,NC,NA,76.57004830917874,NA
28025,Cabarrus County,NC,NA,15.458937198067632,NA
28092,Lincoln County,NC,NA,NA,43.51464435146444
28217,Mecklenburg County,NC,NA,NA,77.61506276150628
28314,Cumberland County,NC,36.91756272401434,NA,NA
28348,Cumberland County,NC,41.935483870967744,45.169082125603865,NA
28374,Moore County,NC,NA,NA,14.644351464435147
28376,Hoke County,NC,NA,NA,45.81589958158996
28403,New Hanover County,NC,48.38709677419355,NA,NA
28409,New Hanover County,NC,NA,19.082125603864732,NA
28472,Columbus County,NC,NA,83.33333333333334,NA
28504,Lenoir County,NC,53.40501792114696,NA,NA
28516,Carteret County,NC,NA,NA,76.35983263598327
28560,Craven County,NC,NA,80.67632850241546,NA
28601,Catawba County,NC,NA,10.144927536231885,NA
28612,Burke County,NC,NA,NA,94.14225941422593
28625,Iredell County,NC,NA,22.463768115942027,81.58995815899581
28715,Buncombe County,NC,57.70609318996416,NA,NA
28732,Henderson County,NC,NA,66.90821256038647,NA
28768,Transylvania County,NC,NA,70.77294685990339,NA
28803,Buncombe County,NC,NA,NA,25.523012552301257
58103,Cass County,ND,NA,NA,2.092050209205021
43026,Franklin County,OH,NA,24.637681159420293,NA
43055,Licking County,OH,NA,NA,3.765690376569038
43130,Fairfield County,OH,2.5089605734767026,NA,NA
43147,Fairfield County,OH,NA,NA,49.7907949790795
43201,Franklin County,OH,55.55555555555556,NA,NA
43204,Franklin County,OH,NA,NA,44.14225941422594
43207,Franklin County,OH,NA,6.521739130434782,NA
43227,Franklin County,OH,30.824372759856633,NA,NA
43232,Franklin County,OH,NA,NA,57.94979079497908
43235,Franklin County,OH,53.40501792114696,NA,NA
43331,Logan County,OH,NA,94.92753623188406,NA
43606,Lucas County,OH,NA,34.05797101449276,NA
43608,Lucas County,OH,NA,49.51690821256038,NA
43609,Lucas County,OH,5.376344086021505,NA,NA
43614,Lucas County,OH,NA,11.352657004830919,NA
43616,Lucas County,OH,NA,NA,62.13389121338913
43701,Muskingum County,OH,1.4336917562724014,NA,NA
43906,Belmont County,OH,NA,53.3816425120773,NA
43950,Belmont County,OH,NA,NA,32.63598326359833
43952,Jefferson County,OH,9.67741935483871,NA,NA
44035,Lorain County,OH,NA,0,NA
44039,Lorain County,OH,10.03584229390681,NA,NA
44044,Lorain County,OH,56.98924731182796,NA,NA
44060,Lake County,OH,NA,0.7246376811594203,NA
44067,Summit County,OH,NA,NA,14.225941422594143
44087,Summit County,OH,NA,NA,3.556485355648536
44092,Lake County,OH,NA,NA,11.506276150627615
44094,Lake County,OH,22.22222222222222,NA,NA
44116,Cuyahoga County,OH,48.028673835125446,NA,NA
44124,Cuyahoga County,OH,NA,2.898550724637681,NA
44129,Cuyahoga County,OH,NA,15.70048309178744,NA
44131,Cuyahoga County,OH,NA,21.497584541062803,NA
44143,Cuyahoga County,OH,NA,14.734299516908212,NA
44145,Cuyahoga County,OH,NA,NA,3.9748953974895396
44224,Summit County,OH,NA,NA,10.669456066945607
44256,Medina County,OH,NA,NA,1.6736401673640167
44432,Columbiana County,OH,NA,80.19323671497585,NA
44446,Trumbull County,OH,NA,NA,17.364016736401673
44460,Columbiana County,OH,NA,8.937198067632849,NA
44654,Holmes County,OH,NA,NA,64.22594142259415
44685,Summit County,OH,54.121863799283155,NA,NA
44805,Ashland County,OH,NA,5.555555555555555,NA
44813,Richland County,OH,NA,NA,83.26359832635984
44883,Seneca County,OH,NA,42.270531400966185,NA
45103,Clermont County,OH,NA,27.053140096618357,NA
45107,Clinton County,OH,NA,NA,74.05857740585773
45123,Highland County,OH,NA,71.01449275362319,NA
45238,Hamilton County,OH,NA,17.391304347826086,NA
45243,Hamilton County,OH,NA,NA,72.38493723849372
45244,Hamilton County,OH,NA,52.65700483091788,NA
45305,Greene County,OH,NA,NA,89.1213389121339
45331,Darke County,OH,33.691756272401435,NA,NA
45410,Montgomery County,OH,NA,72.22222222222221,92.88702928870293
45417,Montgomery County,OH,11.469534050179211,NA,NA
45424,Montgomery County,OH,13.620071684587815,NA,7.740585774058577
45601,Ross County,OH,NA,NA,0.20920502092050208
45640,Jackson County,OH,8.960573476702509,NA,NA
45662,Scioto County,OH,21.14695340501792,NA,NA
45750,Washington County,OH,NA,0.4830917874396135,NA
45801,Allen County,OH,NA,26.570048309178745,NA
45804,Allen County,OH,NA,NA,63.59832635983263
45807,Allen County,OH,NA,71.49758454106279,NA
45895,Auglaize County,OH,37.27598566308244,NA,NA
73071,Cleveland County,OK,NA,16.666666666666664,NA
73109,Oklahoma County,OK,NA,75.1207729468599,NA
73119,Oklahoma County,OK,NA,45.65217391304348,NA
73130,Oklahoma County,OK,NA,51.93236714975845,NA
73160,Cleveland County,OK,NA,5.072463768115942,NA
73162,Oklahoma County,OK,NA,20.77294685990338,NA
73703,Garfield County,OK,60.93189964157706,NA,NA
73717,Woods County,OK,NA,88.40579710144928,NA
74010,Creek County,OK,NA,84.29951690821255,95.18828451882845
74014,Wagoner County,OK,42.65232974910394,NA,NA
74017,Rogers County,OK,NA,NA,27.615062761506277
74019,Rogers County,OK,NA,63.76811594202898,NA
74036,Rogers County,OK,NA,85.74879227053141,NA
74127,Tulsa County,OK,70.96774193548387,NA,NA
74135,Tulsa County,OK,NA,NA,38.49372384937239
74337,Mayes County,OK,NA,99.7584541062802,NA
74701,Bryan County,OK,NA,NA,47.071129707112966
97034,Clackamas County,OR,NA,67.6328502415459,NA
97058,Wasco County,OR,NA,32.850241545893724,NA
97206,Multnomah County,OR,16.845878136200717,NA,NA
97213,Multnomah County,OR,43.01075268817204,NA,86.61087866108787
97229,Washington County,OR,NA,42.028985507246375,NA
97401,Lane County,OR,47.31182795698925,NA,NA
97448,Lane County,OR,NA,97.34299516908213,NA
97479,Douglas County,OR,NA,NA,50.2092050209205
97501,Jackson County,OR,11.827956989247312,NA,NA
97502,Jackson County,OR,NA,NA,35.98326359832636
97707,Deschutes County,OR,NA,93.23671497584542,NA
97850,Union County,OR,NA,31.40096618357488,NA
15009,Beaver County,PA,NA,NA,36.61087866108787
15085,Westmoreland County,PA,NA,82.6086956521739,NA
15136,Allegheny County,PA,NA,NA,48.32635983263599
15203,Allegheny County,PA,NA,78.50241545893721,NA
15239,Allegheny County,PA,NA,NA,81.17154811715481
15851,Jefferson County,PA,NA,66.18357487922705,NA
15857,Elk County,PA,NA,NA,9.414225941422593
16511,Erie County,PA,NA,NA,76.98744769874477
16601,Blair County,PA,NA,8.454106280193237,NA
16823,Centre County,PA,NA,NA,59.62343096234309
17022,Lancaster County,PA,NA,17.14975845410628,NA
17036,Dauphin County,PA,NA,12.80193236714976,NA
17053,Perry County,PA,NA,NA,93.09623430962343
17055,Cumberland County,PA,NA,18.357487922705314,NA
17268,Franklin County,PA,NA,NA,17.154811715481173
17522,Lancaster County,PA,NA,12.560386473429952,8.577405857740587
17527,Lancaster County,PA,NA,99.51690821256038,NA
17751,Clinton County,PA,NA,86.47342995169082,NA
18014,Northampton County,PA,NA,NA,45.60669456066946
18036,Lehigh County,PA,NA,38.164251207729464,NA
18042,Northampton County,PA,NA,NA,21.12970711297071
18045,Northampton County,PA,NA,NA,42.05020920502092
18052,Lehigh County,PA,24.014336917562723,NA,NA
18091,Northampton County,PA,NA,NA,69.6652719665272
18104,Lehigh County,PA,NA,NA,25.10460251046025
18337,Pike County,PA,NA,NA,66.94560669456067
18518,Lackawanna County,PA,NA,81.64251207729468,NA
18801,Susquehanna County,PA,NA,73.91304347826086,NA
18954,Bucks County,PA,NA,NA,90.1673640167364
19013,Delaware County,PA,NA,NA,34.51882845188285
19055,Bucks County,PA,NA,NA,79.70711297071131
19073,Delaware County,PA,NA,NA,18.200836820083683
19075,Montgomery County,PA,NA,NA,98.5355648535565
19083,Delaware County,PA,35.483870967741936,NA,NA
19103,Philadelphia County,PA,NA,NA,26.778242677824267
19129,Philadelphia County,PA,NA,NA,84.51882845188284
19140,Philadelphia County,PA,NA,9.66183574879227,39.12133891213389
19146,Philadelphia County,PA,NA,27.77777777777778,NA
19335,Chester County,PA,NA,15.217391304347828,NA
19342,Delaware County,PA,NA,NA,29.288702928870293
19460,Chester County,PA,NA,26.811594202898554,NA
19464,Montgomery County,PA,6.451612903225806,NA,NA
19468,Montgomery County,PA,NA,37.92270531400966,NA
19506,Berks County,PA,88.5304659498208,NA,NA
02806,Bristol County,RI,NA,NA,60.87866108786611
02816,Kent County,RI,NA,16.908212560386474,28.451882845188287
02818,Kent County,RI,NA,NA,41.84100418410041
02888,Kent County,RI,58.78136200716846,NA,NA
02891,Washington County,RI,64.87455197132617,NA,NA
02896,Providence County,RI,NA,89.3719806763285,NA
02906,Providence County,RI,63.799283154121866,NA,NA
02919,Providence County,RI,49.46236559139785,NA,NA
29150,Sumter County,SC,NA,NA,23.01255230125523
29153,Sumter County,SC,NA,70.28985507246377,NA
29340,Cherokee County,SC,NA,61.59420289855072,NA
29420,Dorchester County,SC,NA,NA,90.1673640167364
29466,Charleston County,SC,NA,NA,39.9581589958159
29488,Colleton County,SC,NA,NA,57.74058577405857
29512,Marlboro County,SC,NA,NA,82.63598326359832
29526,Horry County,SC,NA,11.594202898550725,NA
29588,Horry County,SC,NA,11.11111111111111,NA
29611,Greenville County,SC,NA,35.748792270531396,NA
29630,Pickens County,SC,91.0394265232975,NA,NA
29640,Pickens County,SC,30.46594982078853,NA,NA
29645,Laurens County,SC,74.19354838709677,NA,NA
29687,Greenville County,SC,37.992831541218635,NA,NA
29928,Beaufort County,SC,NA,71.98067632850241,NA
57401,Brown County,SD,NA,NA,1.4644351464435146
57701,Pennington County,SD,NA,NA,10.0418410041841
37022,Sumner County,TN,89.24731182795699,NA,NA
37036,Dickson County,TN,NA,97.58454106280193,NA
37040,Montgomery County,TN,NA,NA,68.20083682008368
37042,Montgomery County,TN,NA,43.71980676328502,NA
37064,Williamson County,TN,NA,NA,24.89539748953975
37083,Macon County,TN,NA,NA,69.24686192468619
37096,Perry County,TN,NA,NA,85.77405857740585
37122,Wilson County,TN,NA,29.71014492753623,NA
37167,Rutherford County,TN,34.76702508960574,NA,NA
37172,Robertson County,TN,18.996415770609318,NA,NA
37205,Davidson County,TN,NA,59.17874396135265,NA
37208,Davidson County,TN,NA,NA,92.25941422594143
37211,Davidson County,TN,NA,64.25120772946859,NA
37312,Bradley County,TN,50.53763440860215,NA,NA
37363,Hamilton County,TN,49.82078853046595,NA,NA
37377,Hamilton County,TN,NA,24.154589371980677,NA
37411,Hamilton County,TN,45.51971326164875,NA,NA
37645,Hawkins County,TN,NA,NA,92.05020920502092
37721,Knox County,TN,74.91039426523297,NA,NA
37804,Blount County,TN,35.842293906810035,NA,NA
37921,Knox County,TN,36.200716845878134,NA,NA
38053,Shelby County,TN,NA,60.6280193236715,NA
38106,Shelby County,TN,NA,46.61835748792271,NA
38108,Shelby County,TN,NA,NA,84.93723849372385
38109,Shelby County,TN,NA,17.632850241545896,NA
38111,Shelby County,TN,29.39068100358423,NA,NA
38138,Shelby County,TN,NA,82.3671497584541,NA
38583,White County,TN,NA,NA,25.523012552301257
75032,Rockwall County,TX,69.53405017921148,NA,NA
75033,,TX,NA,NA,76.77824267782427
75043,Dallas County,TX,25.089605734767023,NA,NA
75044,Dallas County,TX,NA,NA,70.0836820083682
75052,Dallas County,TX,NA,11.83574879227053,NA
75089,Dallas County,TX,NA,NA,88.91213389121339
75104,Dallas County,TX,32.25806451612903,NA,NA
75126,Kaufman County,TX,NA,NA,91.84100418410041
75149,Dallas County,TX,59.49820788530465,NA,NA
75206,Dallas County,TX,NA,NA,65.89958158995816
75208,Dallas County,TX,NA,NA,79.9163179916318
75216,Dallas County,TX,NA,NA,8.158995815899582
75219,Dallas County,TX,60.57347670250897,NA,NA
75233,Dallas County,TX,NA,87.68115942028986,NA
75241,Dallas County,TX,31.182795698924732,NA,NA
75418,Fannin County,TX,NA,NA,97.90794979079497
75482,Hopkins County,TX,NA,NA,43.51464435146444
75494,Wood County,TX,NA,NA,62.34309623430963
75503,Bowie County,TX,NA,NA,28.24267782426778
75570,Bowie County,TX,NA,NA,91.42259414225941
75640,Upshur County,TX,NA,NA,99.7907949790795
75644,Upshur County,TX,NA,NA,78.66108786610879
75701,Smith County,TX,NA,14.492753623188406,NA
75765,Wood County,TX,NA,NA,58.78661087866108
75839,Anderson County,TX,NA,97.82608695652173,NA
75951,Jasper County,TX,NA,NA,40.79497907949791
76011,Tarrant County,TX,63.08243727598566,NA,NA
76013,Tarrant County,TX,NA,NA,29.707112970711297
76018,Tarrant County,TX,66.30824372759857,NA,NA
76049,Hood County,TX,NA,23.67149758454106,NA
76084,Johnson County,TX,NA,NA,67.36401673640168
76086,Parker County,TX,NA,NA,35.35564853556485
76108,Tarrant County,TX,NA,NA,54.811715481171554
76116,Tarrant County,TX,32.61648745519714,NA,NA
76119,Tarrant County,TX,NA,8.695652173913043,NA
76504,Bell County,TX,NA,2.1739130434782608,NA
76549,Bell County,TX,31.899641577060933,NA,NA
76903,Tom Green County,TX,NA,59.42028985507246,NA
77019,Harris County,TX,NA,81.88405797101449,NA
77022,Harris County,TX,NA,59.66183574879227,NA
77023,Harris County,TX,68.45878136200717,NA,94.56066945606695
77028,Harris County,TX,NA,74.15458937198068,NA
77034,Harris County,TX,NA,73.18840579710145,NA
77066,Harris County,TX,74.55197132616487,NA,NA
77070,Harris County,TX,NA,28.502415458937197,NA
77083,Harris County,TX,NA,31.15942028985507,NA
77084,Harris County,TX,15.412186379928317,NA,NA
77091,Harris County,TX,NA,55.79710144927537,NA
77354,Montgomery County,TX,NA,NA,39.53974895397489
77378,Montgomery County,TX,NA,NA,99.581589958159
77379,Harris County,TX,NA,NA,12.343096234309623
77384,Montgomery County,TX,82.79569892473118,NA,NA
77418,Austin County,TX,NA,NA,78.8702928870293
77449,Harris County,TX,13.978494623655912,NA,NA
77450,Harris County,TX,NA,22.946859903381643,43.30543933054393
77514,Chambers County,TX,93.54838709677419,NA,NA
77531,Brazoria County,TX,NA,88.40579710144928,NA
77573,Galveston County,TX,NA,NA,23.221757322175733
77957,Jackson County,TX,NA,81.40096618357488,NA
77984,Lavaca County,TX,NA,NA,90.5857740585774
78023,Bexar County,TX,NA,88.16425120772948,NA
78148,Bexar County,TX,NA,NA,96.44351464435147
78155,Guadalupe County,TX,65.23297491039428,NA,NA
78211,Bexar County,TX,NA,NA,76.56903765690377
78218,Bexar County,TX,NA,NA,80.75313807531381
78220,Bexar County,TX,69.89247311827957,NA,NA
78222,Bexar County,TX,NA,85.99033816425121,NA
78240,Bexar County,TX,NA,NA,41.004184100418414
78412,Nueces County,TX,NA,91.30434782608695,NA
78574,Hidalgo County,TX,NA,41.78743961352657,NA
78584,Starr County,TX,73.47670250896059,NA,NA
78599,Hidalgo County,TX,NA,86.47342995169082,NA
78605,Burnet County,TX,NA,NA,99.16317991631799
78613,Williamson County,TX,NA,20.048309178743963,NA
78654,Burnet County,TX,NA,44.927536231884055,NA
78702,Travis County,TX,NA,83.57487922705315,NA
79106,Potter County,TX,NA,43.96135265700483,NA
79107,Potter County,TX,40.50179211469534,62.56038647342995,NA
79109,Randall County,TX,NA,NA,55.43933054393305
79761,Ector County,TX,NA,65.45893719806763,NA
79763,Ector County,TX,40.86021505376344,NA,NA
79912,El Paso County,TX,NA,39.130434782608695,NA
79924,El Paso County,TX,NA,NA,22.594142259414227
84015,Davis County,UT,29.03225806451613,NA,NA
84040,Davis County,UT,82.07885304659499,NA,NA
84780,Washington County,UT,NA,55.31400966183575,NA
05156,Windsor County,VT,72.40143369175627,NA,NA
05641,Washington County,VT,NA,NA,16.736401673640167
20155,Prince William County,VA,NA,NA,59.83263598326359
22101,Fairfax County,VA,NA,NA,49.37238493723849
22192,Prince William County,VA,24.372759856630825,47.82608695652174,NA
22312,Fairfax County,VA,NA,73.67149758454107,NA
22407,Spotsylvania County,VA,NA,NA,29.916317991631797
22485,King George County,VA,NA,62.80193236714976,NA
22601,Winchester city,VA,NA,41.30434782608695,68.6192468619247
22602,Frederick County,VA,NA,NA,58.57740585774059
22727,Madison County,VA,NA,99.03381642512076,NA
23112,Chesterfield County,VA,NA,NA,42.67782426778243
23222,Richmond city,VA,21.50537634408602,NA,NA
23223,Henrico County,VA,NA,NA,33.26359832635983
23231,Henrico County,VA,NA,NA,34.93723849372385
23434,Suffolk city,VA,NA,10.628019323671497,NA
23504,Norfolk city,VA,NA,NA,55.64853556485355
24012,Roanoke city,VA,NA,48.06763285024155,NA
24055,Henry County,VA,NA,77.05314009661835,NA
24153,Salem city,VA,NA,21.980676328502415,NA
24210,Washington County,VA,NA,51.449275362318836,NA
24343,Carroll County,VA,NA,79.22705314009661,NA
24401,Staunton city,VA,14.336917562724013,6.763285024154589,NA
24502,Lynchburg city,VA,NA,NA,15.062761506276152
24540,Danville city,VA,NA,NA,42.46861924686193
24572,Amherst County,VA,NA,NA,65.06276150627615
98003,King County,WA,NA,24.879227053140095,NA
98036,Snohomish County,WA,NA,NA,38.28451882845189
98125,King County,WA,NA,39.85507246376812,NA
98126,King County,WA,NA,68.84057971014492,96.23430962343096
98226,Whatcom County,WA,NA,NA,13.389121338912133
98270,Snohomish County,WA,NA,NA,64.01673640167364
98310,Kitsap County,WA,NA,93.47826086956522,NA
98311,Kitsap County,WA,NA,NA,63.38912133891213
98312,Kitsap County,WA,44.80286738351255,NA,NA
98339,Jefferson County,WA,NA,NA,90.7949790794979
98382,Clallam County,WA,NA,NA,1.2552301255230125
98404,Pierce County,WA,39.42652329749104,NA,NA
98407,Pierce County,WA,NA,53.864734299516904,NA
98584,Mason County,WA,NA,NA,31.799163179916317
99109,Stevens County,WA,NA,NA,81.3807531380753
99350,Benton County,WA,NA,NA,65.69037656903765
20008,District of Columbia,DC,NA,79.95169082125604,NA
20012,District of Columbia,DC,NA,90.57971014492753,NA
20032,District of Columbia,DC,6.451612903225806,NA,NA
25438,Jefferson County,WV,NA,95.16908212560386,NA
25801,Raleigh County,WV,NA,NA,10.87866108786611
25840,Fayette County,WV,NA,NA,94.97907949790795
26501,Monongalia County,WV,NA,32.367149758454104,NA
53027,Washington County,WI,NA,NA,76.15062761506276
53029,Waukesha County,WI,72.04301075268818,NA,NA
53051,Waukesha County,WI,NA,28.985507246376812,NA
53095,Washington County,WI,NA,NA,28.870292887029287
53110,Milwaukee County,WI,38.35125448028674,NA,NA
53182,Racine County,WI,90.32258064516128,NA,NA
53190,Walworth County,WI,NA,NA,64.43514644351464
53213,Milwaukee County,WI,NA,33.091787439613526,NA
53215,Milwaukee County,WI,NA,4.3478260869565215,NA
53216,Milwaukee County,WI,7.885304659498208,NA,NA
53224,Milwaukee County,WI,NA,NA,59.41422594142259
53402,Racine County,WI,NA,1.932367149758454,NA
53511,Rock County,WI,NA,0.24154589371980675,NA
53520,Green County,WI,NA,NA,33.47280334728033
53532,Dane County,WI,NA,NA,96.86192468619247
53548,Rock County,WI,33.33333333333333,30.193236714975846,NA
53559,Dane County,WI,90.68100358422939,NA,NA
53590,Dane County,WI,NA,NA,27.405857740585777
53901,Columbia County,WI,NA,NA,50.418410041841
53963,Dodge County,WI,64.15770609318996,NA,NA
54166,Shawano County,WI,NA,NA,83.26359832635984
54555,Price County,WI,NA,NA,83.68200836820083
54822,Barron County,WI,NA,90.82125603864735,NA
54880,Douglas County,WI,NA,3.140096618357488,1.882845188284519
54981,Waupaca County,WI,71.32616487455196,NA,NA
82009,Laramie County,WY,NA,64.97584541062803,NA
82401,Washakie County,WY,93.1899641577061,NA,NA
82604,Natrona County,WY,NA,NA,60.04184100418411
