ZipCode,county,state,Youth
35115,Shelby County,AL,64.3510054844607
35116,Jefferson County,AL,98.90310786106032
35121,Blount County,AL,60.146252285191956
35146,St. Clair County,AL,93.41864716636198
35180,Jefferson County,AL,84.64351005484461
35212,Jefferson County,AL,55.21023765996343
35216,Jefferson County,AL,70.38391224862889
35244,Jefferson County,AL,60.69469835466179
35601,Morgan County,AL,17.184643510054844
36576,Baldwin County,AL,91.9561243144424
85007,Maricopa County,AZ,73.49177330895796
85009,Maricopa County,AZ,9.87202925045704
85016,Maricopa County,AZ,10.603290676416819
85021,Maricopa County,AZ,28.153564899451556
85042,Maricopa County,AZ,25.95978062157221
85051,Maricopa County,AZ,19.561243144424132
85053,Maricopa County,AZ,31.992687385740403
85122,Pinal County,AZ,6.39853747714808
85138,Pinal County,AZ,56.855575868372945
85204,Maricopa County,AZ,11.3345521023766
85297,Maricopa County,AZ,36.0146252285192
85310,Maricopa County,AZ,88.29981718464352
85718,Pima County,AZ,49.36014625228519
85748,Pima County,AZ,96.52650822669105
85757,Pima County,AZ,77.6965265082267
86047,Navajo County,AZ,55.94149908592322
86314,Yavapai County,AZ,34.36928702010969
90006,Los Angeles County,CA,64.3510054844607
90036,Los Angeles County,CA,97.9890310786106
90049,Los Angeles County,CA,86.654478976234
90274,Los Angeles County,CA,77.3308957952468
90292,Los Angeles County,CA,94.14990859232175
90405,Los Angeles County,CA,70.018281535649
90601,Los Angeles County,CA,62.705667276051194
90621,Orange County,CA,66.36197440585009
90631,Orange County,CA,47.89762340036563
90745,Los Angeles County,CA,63.61974405850091
90808,Los Angeles County,CA,15.356489945155394
91740,Los Angeles County,CA,77.14808043875686
92011,San Diego County,CA,73.12614259597807
92019,San Diego County,CA,27.605118829981716
92064,San Diego County,CA,40.40219378427788
92069,San Diego County,CA,46.61791590493601
92107,San Diego County,CA,81.35283363802559
92220,Riverside County,CA,77.87934186471664
92583,Riverside County,CA,38.93967093235832
92647,Orange County,CA,40.76782449725777
92656,Orange County,CA,29.61608775137112
92691,Orange County,CA,55.758683729433265
92703,Orange County,CA,48.446069469835464
93420,San Luis Obispo County,CA,77.87934186471664
93436,Santa Barbara County,CA,11.517367458866545
94087,Santa Clara County,CA,87.38574040219378
94903,Marin County,CA,62.888482632541134
95765,Placer County,CA,96.89213893967093
80017,Arapahoe County,CO,51.91956124314442
80118,Douglas County,CO,99.26873857404021
80130,Douglas County,CO,59.597806215722116
80210,Denver County,CO,68.55575868372942
80260,Adams County,CO,6.581352833638025
80424,Summit County,CO,97.62340036563072
80503,Boulder County,CO,50.45703839122486
80620,Weld County,CO,49.90859232175503
80817,El Paso County,CO,65.08226691042047
80919,El Paso County,CO,86.10603290676416
80923,El Paso County,CO,75.3199268738574
81101,Alamosa County,CO,81.17001828153565
81240,Fremont County,CO,98.90310786106032
06105,Hartford County,CT,51.37111517367459
06902,Fairfield County,CT,25.045703839122485
19702,New Castle County,DE,13.893967093235831
19709,New Castle County,DE,17.36745886654479
19711,New Castle County,DE,25.22851919561243
19943,Kent County,DE,64.3510054844607
19947,Sussex County,DE,47.3491773308958
32063,Baker County,FL,70.20109689213893
32206,Duval County,FL,45.703839122486286
32210,Duval County,FL,2.1937842778793417
32218,Duval County,FL,44.97257769652651
32246,Duval County,FL,82.81535648994516
32259,St. Johns County,FL,31.62705667276051
32446,Jackson County,FL,87.56855575868373
33021,Broward County,FL,37.842778793418645
33026,Broward County,FL,65.26508226691043
33065,Broward County,FL,22.486288848263253
33172,Miami-Dade County,FL,46.983546617915906
33178,Miami-Dade County,FL,43.875685557586834
33414,Palm Beach County,FL,53.56489945155393
33418,Palm Beach County,FL,70.74954296160878
33432,Palm Beach County,FL,92.50457038391224
33445,Palm Beach County,FL,44.78976234003657
33458,Palm Beach County,FL,37.6599634369287
33467,Palm Beach County,FL,78.79341864716636
33759,Pinellas County,FL,91.0420475319927
33903,Lee County,FL,66.54478976234005
33928,Lee County,FL,83.54661791590493
34480,Marion County,FL,57.769652650822664
34613,Hernando County,FL,83.91224862888483
30047,Gwinnett County,GA,56.48994515539305
30062,Cobb County,GA,21.937842778793417
30096,Gwinnett County,GA,76.96526508226691
30101,Cobb County,GA,26.142595978062154
30236,Clayton County,GA,48.9945155393053
30253,Henry County,GA,23.583180987202926
30294,DeKalb County,GA,44.05850091407678
30326,Fulton County,GA,99.6343692870201
30345,DeKalb County,GA,86.47166361974405
30680,Barrow County,GA,34.003656307129795
31322,Chatham County,GA,84.27787934186472
39854,Quitman County,GA,99.26873857404021
96701,Honolulu County,HI,41.681901279707496
96707,Honolulu County,HI,58.68372943327239
83642,Ada County,ID,53.74771480804388
83835,Kootenai County,ID,89.39670932358318
60047,Lake County,IL,35.831809872029254
60048,Lake County,IL,73.85740402193784
60060,Lake County,IL,24.131627056672762
60067,Cook County,IL,33.089579524680076
60119,Kane County,IL,91.59049360146253
60148,DuPage County,IL,15.904936014625228
60177,Kane County,IL,51.005484460694696
60423,Will County,IL,29.981718464351005
60506,Kane County,IL,21.023765996343695
60515,DuPage County,IL,57.40402193784278
60563,DuPage County,IL,43.144424131627055
60622,Cook County,IL,36.92870201096892
60625,Cook County,IL,45.3382084095064
60647,Cook County,IL,15.539305301645337
62025,Madison County,IL,67.64168190127971
62640,Macoupin County,IL,97.9890310786106
46001,Madison County,IN,89.76234003656307
46060,Hamilton County,IN,40.21937842778793
46113,Marion County,IN,80.80438756855575
46219,Marion County,IN,34.73491773308958
46239,Marion County,IN,41.681901279707496
46815,Allen County,IN,43.51005484460695
47243,Jefferson County,IN,88.11700182815356
47906,Tippecanoe County,IN,61.425959780621575
50317,Polk County,IA,24.314442413162705
52302,Linn County,IA,49.90859232175503
52402,Linn County,IA,26.142595978062154
52803,Scott County,IA,49.36014625228519
52807,Scott County,IA,58.866544789762344
67230,Sedgwick County,KS,95.61243144424132
40047,Bullitt County,KY,27.787934186471663
40071,Spencer County,KY,74.04021937842778
40218,Jefferson County,KY,21.023765996343695
40220,Jefferson County,KY,39.30530164533821
40222,Jefferson County,KY,65.26508226691043
40223,Jefferson County,KY,68.00731261425959
40272,Jefferson County,KY,12.431444241316271
40336,Estill County,KY,65.26508226691043
40356,Jessamine County,KY,21.755027422303474
40403,Madison County,KY,58.3180987202925
40475,Madison County,KY,25.59414990859232
40511,Fayette County,KY,29.06764168190128
70548,Vermilion Parish,LA,76.41681901279708
70791,East Baton Rouge Parish,LA,19.926873857404022
71202,Ouachita Parish,LA,4.204753199268739
71203,Ouachita Parish,LA,5.118829981718465
71220,Morehouse Parish,LA,6.946983546617916
03903,York County,ME,95.24680073126143
04072,York County,ME,41.681901279707496
04102,Cumberland County,ME,20.840950639853748
04976,Somerset County,ME,30.895795246800734
20740,Prince George's County,MD,92.13893967093236
20817,Montgomery County,MD,75.68555758683729
20910,Montgomery County,MD,72.0292504570384
21044,Howard County,MD,38.57404021937843
21075,Howard County,MD,60.146252285191956
01001,Hampden County,MA,81.90127970749543
01013,Hampden County,MA,37.111517367458866
01040,Hampden County,MA,2.742230347349177
01108,Hampden County,MA,0.7312614259597806
01151,Hampden County,MA,90.6764168190128
01201,Berkshire County,MA,2.9250457038391224
01420,Worcester County,MA,5.484460694698354
01520,Worcester County,MA,89.03107861060329
01529,Worcester County,MA,97.07495429616088
01607,Worcester County,MA,59.96343692870201
01757,Worcester County,MA,18.09872029250457
01841,Essex County,MA,0.3656307129798903
01906,Essex County,MA,16.63619744058501
02038,Norfolk County,MA,39.48811700182816
02048,Bristol County,MA,40.036563071297984
02121,Suffolk County,MA,7.495429616087751
02136,Suffolk County,MA,8.592321755027422
02144,Middlesex County,MA,52.28519195612431
02151,Suffolk County,MA,1.2797074954296161
02180,Middlesex County,MA,21.572212065813527
02347,Plymouth County,MA,81.53564899451554
02351,Plymouth County,MA,35.283363802559414
02360,Plymouth County,MA,7.312614259597806
02632,Barnstable County,MA,77.87934186471664
02703,Bristol County,MA,2.376599634369287
02723,Bristol County,MA,9.323583180987203
02760,Bristol County,MA,18.46435100548446
02769,Bristol County,MA,66.91042047531994
48089,Macomb County,MI,6.2157221206581355
48111,Wayne County,MI,9.506398537477148
48185,Wayne County,MI,8.409506398537477
48220,Oakland County,MI,56.12431444241316
48234,Wayne County,MI,6.032906764168191
48239,Wayne County,MI,10.054844606946983
48836,Livingston County,MI,54.6617915904936
48855,Livingston County,MI,68.92138939670932
49004,Kalamazoo County,MI,53.93053016453382
49010,Allegan County,MI,47.714808043875685
49022,Berrien County,MI,28.519195612431442
49024,Kalamazoo County,MI,32.17550274223035
49037,Calhoun County,MI,10.23765996343693
49112,Cass County,MI,88.29981718464352
49442,Muskegon County,MI,3.1078610603290677
49445,Muskegon County,MI,57.038391224862885
49509,Kent County,MI,59.23217550274224
49684,Grand Traverse County,MI,34.91773308957952
55033,Dakota County,MN,46.25228519195612
55112,Ramsey County,MN,34.003656307129795
55113,Ramsey County,MN,16.087751371115175
55117,Ramsey County,MN,28.884826325411332
55122,Dakota County,MN,30.712979890310788
55304,Anoka County,MN,14.442413162705666
55369,Hennepin County,MN,44.60694698354662
55386,Carver County,MN,57.95246800731262
55398,Sherburne County,MN,73.308957952468
55414,Hennepin County,MN,72.21206581352834
55421,Anoka County,MN,44.05850091407678
55435,Hennepin County,MN,77.87934186471664
55906,Olmsted County,MN,83.18098720292505
56143,Jackson County,MN,97.80621572212065
56701,Pennington County,MN,28.70201096892139
38637,DeSoto County,MS,31.444241316270567
39437,Jones County,MS,74.58866544789763
39666,Pike County,MS,92.13893967093236
63044,St. Louis County,MO,82.26691042047533
63104,St. Louis city,MO,60.146252285191956
63130,St. Louis County,MO,61.79159049360147
63139,St. Louis city,MO,80.25594149908592
63366,St. Charles County,MO,39.122486288848265
63367,St. Charles County,MO,41.3162705667276
63385,St. Charles County,MO,15.173674588665447
63755,Cape Girardeau County,MO,12.065813528336381
64034,Jackson County,MO,95.79524680073126
64056,Jackson County,MO,24.680073126142595
64060,Clay County,MO,25.411334552102378
64064,Jackson County,MO,51.91956124314442
64133,Jackson County,MO,1.4625228519195612
64139,Jackson County,MO,95.97806215722122
64151,Platte County,MO,21.023765996343695
65202,Boone County,MO,32.72394881170018
65265,Audrain County,MO,23.948811700182816
65775,Howell County,MO,33.45521023765997
59102,Yellowstone County,MT,51.37111517367459
68022,Douglas County,NE,60.69469835466179
68025,Dodge County,NE,12.431444241316271
68136,Sarpy County,NE,38.02559414990859
89441,Washoe County,NV,75.3199268738574
03053,Rockingham County,NH,56.30712979890311
03076,Hillsborough County,NH,22.486288848263253
03235,Merrimack County,NH,72.57769652650823
07008,Middlesex County,NJ,34.91773308957952
07747,Monmouth County,NJ,67.64168190127971
08043,Camden County,NJ,64.89945155393053
08056,Gloucester County,NJ,94.88117001828154
08075,Burlington County,NJ,29.250457038391225
08103,Camden County,NJ,58.13528336380256
08322,Gloucester County,NJ,57.40402193784278
87104,Bernalillo County,NM,95.42961608775137
87107,Bernalillo County,NM,42.59597806215722
87114,Bernalillo County,NM,13.16270566727605
10456,Bronx County,NY,0.18281535648994515
10468,Bronx County,NY,3.8391224862888484
11101,Queens County,NY,67.27605118829982
11225,Kings County,NY,63.43692870201097
11228,Kings County,NY,86.28884826325411
11375,Queens County,NY,76.41681901279708
11422,Queens County,NY,85.74040219378428
11530,Nassau County,NY,94.51553930530164
11580,Nassau County,NY,74.04021937842778
11946,Suffolk County,NY,95.06398537477148
12075,Columbia County,NY,99.81718464351006
12196,Rensselaer County,NY,100
12203,Albany County,NY,66.54478976234005
12303,Schenectady County,NY,48.446069469835464
12308,Schenectady County,NY,51.37111517367459
12401,Ulster County,NY,33.820840950639855
12831,Saratoga County,NY,54.11334552102377
13045,Cortland County,NY,23.76599634369287
13148,Seneca County,NY,55.393053016453386
13219,Onondaga County,NY,54.47897623400365
14125,Genesee County,NY,86.654478976234
14224,Erie County,NY,22.120658135283364
14225,Erie County,NY,67.09323583180988
14226,Erie County,NY,52.833638025594155
14414,Livingston County,NY,56.48994515539305
14420,Monroe County,NY,48.08043875685558
14468,Monroe County,NY,19.012797074954296
14534,Monroe County,NY,4.021937842778794
14580,Monroe County,NY,0.5484460694698354
14606,Monroe County,NY,9.140767824497258
14609,Monroe County,NY,4.570383912248629
14850,Tompkins County,NY,11.70018281535649
27106,Forsyth County,NC,43.144424131627055
27107,Forsyth County,NC,10.786106032906764
27371,Montgomery County,NC,94.3327239488117
27519,Wake County,NC,43.69287020109689
27540,Wake County,NC,31.26142595978062
27542,Johnston County,NC,83.18098720292505
27606,Wake County,NC,30.53016453382084
27610,Wake County,NC,3.473491773308958
27614,Wake County,NC,91.77330895795247
27858,Pitt County,NC,40.95063985374772
28021,Gaston County,NC,90.85923217550274
28025,Cabarrus County,NC,22.851919561243143
28117,Iredell County,NC,48.9945155393053
28128,Stanly County,NC,84.64351005484461
28202,Mecklenburg County,NC,96.52650822669105
28205,Mecklenburg County,NC,26.508226691042047
28209,Mecklenburg County,NC,52.833638025594155
28210,Mecklenburg County,NC,28.153564899451556
28215,Mecklenburg County,NC,38.20840950639854
28405,New Hanover County,NC,48.446069469835464
28458,Duplin County,NC,91.0420475319927
28570,Carteret County,NC,83.54661791590493
28574,Onslow County,NC,85.74040219378428
28613,Catawba County,NC,73.49177330895796
28625,Iredell County,NC,16.087751371115175
28655,Burke County,NC,14.80804387568556
28704,Buncombe County,NC,69.6526508226691
28752,McDowell County,NC,61.97440585009141
28771,Graham County,NC,90.12797074954297
58103,Cass County,ND,2.5594149908592323
43055,Licking County,OH,4.93601462522852
43123,Franklin County,OH,9.689213893967093
43202,Franklin County,OH,88.6654478976234
43211,Franklin County,OH,4.387568555758683
43224,Franklin County,OH,0
43229,Franklin County,OH,23.40036563071298
43235,Franklin County,OH,63.80255941499085
43302,Marion County,OH,4.753199268738574
43338,Morrow County,OH,46.61791590493601
43560,Lucas County,OH,6.764168190127971
43604,Lucas County,OH,79.3418647166362
43606,Lucas County,OH,42.77879341864717
43616,Lucas County,OH,30.347349177330894
43724,Noble County,OH,81.53564899451554
44106,Cuyahoga County,OH,49.725776965265084
44107,Cuyahoga County,OH,3.656307129798903
44109,Cuyahoga County,OH,8.775137111517367
44118,Cuyahoga County,OH,58.3180987202925
44120,Cuyahoga County,OH,69.10420475319927
44136,Cuyahoga County,OH,23.03473491773309
44146,Cuyahoga County,OH,27.056672760511884
44224,Summit County,OH,13.345521023765997
44256,Medina County,OH,1.6453382084095063
44305,Summit County,OH,7.678244972577697
44512,Mahoning County,OH,11.151736745886655
44622,Tuscarawas County,OH,68.73857404021938
44646,Stark County,OH,12.248628884826324
44870,Erie County,OH,1.8281535648994516
45044,Butler County,OH,2.010968921389397
45177,Clinton County,OH,36.0146252285192
45305,Greene County,OH,84.27787934186472
45324,Greene County,OH,8.957952468007313
45403,Montgomery County,OH,20.29250457038391
45458,Montgomery County,OH,16.453382084095065
45601,Ross County,OH,1.0968921389396709
45750,Washington County,OH,23.217550274223033
45806,Allen County,OH,72.57769652650823
45831,Putnam County,OH,98.53747714808044
73505,Comanche County,OK,17.001828153564897
74021,Tulsa County,OK,52.46800731261426
74063,Tulsa County,OK,68.19012797074954
74126,Tulsa County,OK,63.80255941499085
74501,Pittsburg County,OK,34.36928702010969
97060,Multnomah County,OR,46.435100548446066
97080,Multnomah County,OR,36.74588665447898
97124,Washington County,OR,20.47531992687386
97365,Lincoln County,OR,89.76234003656307
97470,Douglas County,OR,36.38025594149909
97603,Klamath County,OR,52.46800731261426
97703,Deschutes County,OR,77.3308957952468
15068,Westmoreland County,PA,51.005484460694696
15101,Allegheny County,PA,75.68555758683729
15108,Allegheny County,PA,32.17550274223035
15122,Allegheny County,PA,29.981718464351005
15136,Allegheny County,PA,49.90859232175503
15147,Allegheny County,PA,54.844606946983546
15210,Allegheny County,PA,62.888482632541134
15212,Allegheny County,PA,14.625228519195613
15222,Allegheny County,PA,93.60146252285192
15227,Allegheny County,PA,44.05850091407678
15241,Allegheny County,PA,42.230347349177336
15301,Washington County,PA,31.078610603290674
15701,Indiana County,PA,55.393053016453386
16046,Butler County,PA,82.26691042047533
16226,Armstrong County,PA,86.654478976234
16301,Venango County,PA,50.45703839122486
16602,Blair County,PA,31.809872029250457
17036,Dauphin County,PA,5.118829981718465
17046,Lebanon County,PA,10.968921389396709
17055,Cumberland County,PA,24.862888482632542
17059,Juniata County,PA,85.0091407678245
17067,Lebanon County,PA,54.11334552102377
17111,Dauphin County,PA,17.73308957952468
17315,York County,PA,50.822669104204756
17319,York County,PA,91.0420475319927
17501,Lancaster County,PA,95.97806215722122
17512,Lancaster County,PA,27.97074954296161
18102,Lehigh County,PA,0.9140767824497258
18431,Wayne County,PA,71.29798903107861
18706,Luzerne County,PA,61.425959780621575
19064,Delaware County,PA,70.56672760511883
19067,Bucks County,PA,67.27605118829982
19070,Delaware County,PA,87.93418647166362
19103,Philadelphia County,PA,84.09506398537478
19139,Philadelphia County,PA,10.420475319926874
19147,Philadelphia County,PA,62.3400365630713
19390,Chester County,PA,57.22120658135283
19403,Montgomery County,PA,74.77148080438756
19406,Montgomery County,PA,74.40585009140767
19438,Montgomery County,PA,82.9981718464351
19606,Berks County,PA,18.281535648994517
19608,Berks County,PA,26.691042047531994
19611,Berks County,PA,85.0091407678245
29135,Calhoun County,SC,93.23583180987202
29369,Spartanburg County,SC,78.79341864716636
29483,Dorchester County,SC,27.422303473491773
29486,Berkeley County,SC,61.24314442413162
29601,Greenville County,SC,62.52285191956124
29607,Greenville County,SC,16.819012797074954
29670,Anderson County,SC,92.50457038391224
29673,Greenville County,SC,41.3162705667276
29681,Greenville County,SC,33.27239488117002
29708,York County,SC,76.41681901279708
29728,Chesterfield County,SC,71.29798903107861
29842,Aiken County,SC,87.20292504570384
29906,Beaufort County,SC,36.56307129798903
29936,Jasper County,SC,82.08409506398537
37090,Wilson County,TN,85.37477148080438
37130,Rutherford County,TN,17.550274223034734
37221,Davidson County,TN,80.07312614259597
37322,Meigs County,TN,79.70749542961609
37324,Franklin County,TN,90.49360146252286
37380,Marion County,TN,93.96709323583181
37412,Hamilton County,TN,88.84826325411335
37421,Hamilton County,TN,32.90676416819013
37604,Washington County,TN,32.17550274223035
37814,Hamblen County,TN,39.6709323583181
37821,Cocke County,TN,29.433272394881172
38075,Hardeman County,TN,97.44058500914076
38401,Maury County,TN,40.95063985374772
38506,Putnam County,TN,53.38208409506399
38571,Cumberland County,TN,66.17915904936015
75158,Kaufman County,TX,97.25776965265082
75203,Dallas County,TX,69.28702010968921
75205,Dallas County,TX,80.62157221206581
75212,Dallas County,TX,18.82998171846435
75227,Dallas County,TX,5.850091407678245
75604,Gregg County,TX,18.46435100548446
75766,Cherokee County,TX,12.979890310786105
76104,Tarrant County,TX,29.61608775137112
76108,Tarrant County,TX,25.776965265082268
76513,Bell County,TX,7.129798903107861
76904,Tom Green County,TX,17.73308957952468
77008,Harris County,TX,76.23400365630712
77026,Harris County,TX,15.722120658135283
77045,Harris County,TX,35.283363802559414
77067,Harris County,TX,71.11517367458866
77079,Harris County,TX,90.31078610603291
77084,Harris County,TX,13.528336380255942
77094,Harris County,TX,93.05301645338209
77401,Harris County,TX,75.68555758683729
77441,Fort Bend County,TX,62.15722120658135
77471,Fort Bend County,TX,59.23217550274224
77539,Galveston County,TX,5.6672760511883
77803,Brazos County,TX,19.378427787934186
77833,Washington County,TX,27.056672760511884
78130,Comal County,TX,19.195612431444243
78148,Bexar County,TX,78.79341864716636
78221,Bexar County,TX,22.30347349177331
78230,Bexar County,TX,45.703839122486286
78232,Bexar County,TX,72.39488117001828
78245,Bexar County,TX,3.2906764168190126
78550,Cameron County,TX,14.259597806215721
78744,Travis County,TX,38.57404021937843
78752,Travis County,TX,80.80438756855575
78758,Travis County,TX,47.3491773308958
79106,Potter County,TX,47.16636197440585
79424,Lubbock County,TX,19.561243144424132
79707,Midland County,TX,14.076782449725778
84005,Utah County,UT,89.57952468007313
84065,Salt Lake County,UT,40.40219378427788
84084,Salt Lake County,UT,46.06946983546618
84129,,UT,63.25411334552102
84660,Utah County,UT,71.84643510054845
05443,Addison County,VT,98.53747714808044
05446,Chittenden County,VT,70.93235831809872
20109,Prince William County,VA,7.678244972577697
20120,Fairfax County,VA,61.06032906764168
20147,Loudoun County,VA,20.109689213893965
20152,Loudoun County,VA,78.61060329067642
20171,Fairfax County,VA,79.89031078610603
22030,Fairfax County,VA,38.391224862888485
22031,Fairfax County,VA,69.6526508226691
22043,Fairfax County,VA,71.29798903107861
22150,Fairfax County,VA,45.155393053016454
22151,Fairfax County,VA,80.43875685557586
22204,Arlington County,VA,53.199268738574034
22302,Alexandria city,VA,69.28702010968921
22408,Spotsylvania County,VA,74.9542961608775
22553,Spotsylvania County,VA,85.37477148080438
22802,Harrisonburg city,VA,20.6581352833638
22968,Greene County,VA,39.6709323583181
23103,Goochland County,VA,87.56855575868373
23111,Hanover County,VA,65.81352833638026
23120,Chesterfield County,VA,65.9963436928702
23188,James City County,VA,68.19012797074954
23222,Richmond city,VA,11.882998171846435
23224,Richmond city,VA,35.64899451553931
23225,Richmond city,VA,48.263254113345525
23321,Chesapeake city,VA,13.711151736745887
23464,Virginia Beach city,VA,26.87385740402194
23669,Hampton city,VA,33.63802559414991
23701,Portsmouth city,VA,24.49725776965265
23831,Chesterfield County,VA,79.52468007312615
23832,Chesterfield County,VA,54.844606946983546
23875,Prince George County,VA,96.3436928702011
23936,Buckingham County,VA,93.78427787934186
98027,King County,WA,72.57769652650823
98029,King County,WA,64.16819012797075
98053,King County,WA,82.26691042047533
98642,Clark County,WA,92.87020109689213
20019,District of Columbia,DC,7.678244972577697
20020,District of Columbia,DC,8.226691042047532
25419,Berkeley County,WV,45.52102376599635
25705,Cabell County,WV,42.96160877513711
26104,Wood County,WV,58.866544789762344
26505,Monongalia County,WV,37.47714808043875
53188,Waukesha County,WI,12.79707495429616
53191,Walworth County,WI,94.51553930530164
53916,Dodge County,WI,37.111517367458866
54115,Brown County,WI,59.597806215722116
54161,Marinette County,WI,98.35466179159049
54494,Wood County,WI,75.13711151736746
54727,Chippewa County,WI,89.03107861060329
54915,Outagamie County,WI,14.80804387568556
54952,Winnebago County,WI,42.413162705667276
