ZipCode,county,state,Adult,Retirement
35211,Jefferson County,AL,NA,26.666666666666668
35242,Shelby County,AL,NA,15.333333333333332
35453,Tuscaloosa County,AL,NA,69.66666666666667
35501,Walker County,AL,68.1912681912682,NA
35546,Fayette County,AL,92.51559251559252,NA
35620,Limestone County,AL,NA,83
35771,Jackson County,AL,98.12889812889813,NA
36116,Montgomery County,AL,25.571725571725572,NA
36535,Baldwin County,AL,49.064449064449065,NA
36542,Baldwin County,AL,80.66528066528068,NA
36551,Baldwin County,AL,79.20997920997921,NA
36553,Washington County,AL,100,NA
36582,Mobile County,AL,NA,90
36830,Lee County,AL,69.02286902286903,NA
99516,Anchorage Municipality,AK,79.62577962577963,NA
99701,Fairbanks North Star Borough,AK,41.16424116424117,NA
85022,Maricopa County,AZ,58.21205821205822,NA
85035,Maricopa County,AZ,21.413721413721415,NA
85037,Maricopa County,AZ,30.14553014553015,NA
85210,Maricopa County,AZ,27.85862785862786,NA
85340,Maricopa County,AZ,NA,81
85345,Maricopa County,AZ,NA,12.666666666666668
85363,Maricopa County,AZ,NA,98.33333333333333
85364,Yuma County,AZ,NA,5.666666666666666
85713,Pima County,AZ,35.13513513513514,NA
85746,Pima County,AZ,NA,36
86004,Coconino County,AZ,9.147609147609149,NA
86326,Yavapai County,AZ,75.46777546777547,NA
86426,Mohave County,AZ,NA,53
72116,Pulaski County,AR,NA,75.33333333333333
72401,Craighead County,AR,20.16632016632017,NA
72802,Pope County,AR,77.33887733887734,NA
72956,Crawford County,AR,56.34095634095634,NA
90044,Los Angeles County,CA,9.563409563409564,NA
90278,Los Angeles County,CA,NA,53.666666666666664
91405,Los Angeles County,CA,NA,93.33333333333333
91761,San Bernardino County,CA,29.10602910602911,NA
92110,San Diego County,CA,NA,83.66666666666667
92270,Riverside County,CA,NA,9.666666666666666
92335,San Bernardino County,CA,NA,17.333333333333336
92553,Riverside County,CA,NA,76
93030,Ventura County,CA,22.453222453222455,NA
93041,Ventura County,CA,67.56756756756756,NA
93060,Ventura County,CA,NA,77.66666666666666
93065,Ventura County,CA,NA,22.333333333333332
93704,Fresno County,CA,NA,56.99999999999999
93705,Fresno County,CA,NA,42.333333333333336
94002,San Mateo County,CA,82.95218295218295,NA
94089,Santa Clara County,CA,93.34719334719335,NA
94509,Contra Costa County,CA,NA,15
94544,Alameda County,CA,23.90852390852391,NA
94591,Solano County,CA,NA,39
94605,Alameda County,CA,28.8981288981289,NA
94928,Sonoma County,CA,92.3076923076923,NA
94952,Sonoma County,CA,91.47609147609148,NA
95003,Santa Cruz County,CA,86.9022869022869,NA
95148,Santa Clara County,CA,68.3991683991684,NA
95355,Stanislaus County,CA,11.85031185031185,NA
95816,Sacramento County,CA,NA,72
95828,Sacramento County,CA,NA,31.333333333333336
95832,Sacramento County,CA,89.6049896049896,NA
80014,Arapahoe County,CO,38.04573804573805,NA
80027,Boulder County,CO,64.24116424116424,NA
80134,Douglas County,CO,77.13097713097713,NA
80210,Denver County,CO,82.74428274428274,NA
80235,Jefferson County,CO,95.84199584199584,NA
80525,Larimer County,CO,NA,12
81089,Huerfano County,CO,NA,91.33333333333333
81147,Archuleta County,CO,88.14968814968816,NA
81501,Mesa County,CO,49.48024948024948,NA
81625,Moffat County,CO,44.90644490644491,NA
06033,Hartford County,CT,NA,55.666666666666664
06112,Hartford County,CT,22.03742203742204,NA
06260,Windham County,CT,NA,45
06451,New Haven County,CT,NA,38.333333333333336
06519,New Haven County,CT,61.12266112266113,NA
06706,New Haven County,CT,NA,64.33333333333333
06786,Litchfield County,CT,NA,81.33333333333333
19702,New Castle County,DE,NA,20.333333333333332
19802,New Castle County,DE,19.542619542619544,60.333333333333336
32220,Duval County,FL,97.5051975051975,NA
32256,Duval County,FL,NA,37.333333333333336
32257,Duval County,FL,29.313929313929314,NA
32303,Leon County,FL,NA,78.33333333333333
32514,Escambia County,FL,NA,15.666666666666668
32738,Volusia County,FL,41.995841995842,NA
32805,Orange County,FL,NA,41.66666666666667
32904,Brevard County,FL,54.26195426195426,NA
32907,Brevard County,FL,52.390852390852395,NA
33040,Monroe County,FL,49.48024948024948,NA
33142,Miami-Dade County,FL,24.324324324324326,NA
33311,Broward County,FL,9.355509355509357,NA
33324,Broward County,FL,NA,79
33417,Palm Beach County,FL,NA,58.333333333333336
33444,Palm Beach County,FL,63.82536382536382,NA
33540,Pasco County,FL,NA,73.33333333333333
33569,Hillsborough County,FL,77.54677754677755,81.66666666666667
33579,Hillsborough County,FL,72.97297297297297,NA
33612,Hillsborough County,FL,14.345114345114347,NA
33624,Hillsborough County,FL,58.83575883575883,NA
33625,Hillsborough County,FL,63.20166320166321,NA
33647,Hillsborough County,FL,NA,44.666666666666664
33711,Pinellas County,FL,60.2910602910603,NA
33770,Pinellas County,FL,NA,56.333333333333336
33771,Pinellas County,FL,76.92307692307693,NA
33773,Pinellas County,FL,69.64656964656965,NA
33810,Polk County,FL,32.640332640332645,NA
33815,Polk County,FL,NA,68.66666666666667
33860,Polk County,FL,64.03326403326403,NA
33909,Lee County,FL,NA,42.66666666666667
33936,Lee County,FL,54.67775467775468,NA
33952,Charlotte County,FL,NA,32.33333333333333
33982,Charlotte County,FL,90.43659043659044,NA
33990,Lee County,FL,42.61954261954262,NA
33993,Lee County,FL,55.301455301455306,NA
34119,Collier County,FL,76.0914760914761,NA
34232,Sarasota County,FL,NA,31.666666666666664
34234,Sarasota County,FL,NA,77
34285,Sarasota County,FL,NA,20.666666666666668
34488,Marion County,FL,74.01247401247402,NA
34652,Pasco County,FL,85.44698544698545,NA
34771,Osceola County,FL,88.98128898128898,NA
34953,St. Lucie County,FL,7.6923076923076925,NA
34982,St. Lucie County,FL,NA,35.66666666666667
34984,St. Lucie County,FL,59.45945945945946,NA
30016,Newton County,GA,NA,22
30017,Gwinnett County,GA,NA,90.33333333333333
30032,DeKalb County,GA,NA,13
30047,Gwinnett County,GA,NA,79.33333333333333
30054,Newton County,GA,89.1891891891892,NA
30060,Cobb County,GA,44.07484407484408,NA
30117,Carroll County,GA,39.5010395010395,NA
30120,Bartow County,GA,NA,44.333333333333336
30122,Douglas County,GA,NA,74
30215,Fayette County,GA,NA,70
30238,Clayton County,GA,58.41995841995842,NA
30241,Troup County,GA,33.056133056133056,NA
30253,Henry County,GA,31.80873180873181,NA
30308,Fulton County,GA,78.17047817047818,NA
30533,Lumpkin County,GA,NA,88.33333333333333
30601,Clarke County,GA,NA,70.33333333333334
30705,Murray County,GA,35.96673596673597,NA
30815,Richmond County,GA,25.363825363825367,NA
31217,Bibb County,GA,65.07276507276507,NA
31601,Lowndes County,GA,62.78586278586279,NA
31757,Thomas County,GA,NA,69.33333333333334
31803,Marion County,GA,97.71309771309772,NA
31904,Muscogee County,GA,37.42203742203743,NA
96797,Honolulu County,HI,11.226611226611228,NA
96819,Honolulu County,HI,NA,16.666666666666664
83467,Lemhi County,ID,85.23908523908524,NA
83501,Nez Perce County,ID,18.08731808731809,NA
83686,Canyon County,ID,NA,7.000000000000001
83704,Ada County,ID,NA,25.666666666666664
83705,Ada County,ID,NA,48.66666666666667
83815,Kootenai County,ID,41.78794178794179,NA
60087,Lake County,IL,70.47817047817048,72.66666666666667
60098,McHenry County,IL,38.25363825363826,NA
60403,Will County,IL,63.409563409563404,40
60410,Will County,IL,NA,71.66666666666667
60585,Will County,IL,60.08316008316008,NA
60624,Cook County,IL,21.205821205821206,NA
60625,Cook County,IL,NA,16
60636,Cook County,IL,40.33264033264034,NA
60637,Cook County,IL,20.582120582120584,NA
60641,Cook County,IL,NA,71
60644,Cook County,IL,10.81081081081081,NA
60651,Cook County,IL,NA,10
61008,Boone County,IL,NA,21.333333333333336
61021,Lee County,IL,NA,96.33333333333334
61081,Whiteside County,IL,37.21413721413722,NA
61520,Fulton County,IL,73.5966735966736,NA
61802,Champaign County,IL,66.94386694386695,NA
61920,Coles County,IL,NA,50.66666666666667
61938,Coles County,IL,77.96257796257797,NA
62234,Madison County,IL,NA,44
46011,Madison County,IN,NA,23
46013,Madison County,IN,40.12474012474013,NA
46055,Hancock County,IN,81.91268191268192,NA
46201,Marion County,IN,24.116424116424117,NA
46228,Marion County,IN,80.24948024948026,NA
46239,Marion County,IN,NA,52.666666666666664
46323,Lake County,IN,NA,52.33333333333333
46368,Porter County,IN,NA,3
46385,Porter County,IN,9.97920997920998,NA
46501,Marshall County,IN,NA,99
46701,Noble County,IN,NA,98.66666666666667
46706,DeKalb County,IN,51.143451143451145,NA
46947,Cass County,IN,15.384615384615385,41
46970,Miami County,IN,13.305613305613306,NA
47130,Clark County,IN,12.889812889812891,NA
47362,Henry County,IN,26.403326403326403,NA
47371,Jay County,IN,NA,66.33333333333333
47803,Vigo County,IN,85.65488565488566,NA
47807,Vigo County,IN,NA,80
47933,Montgomery County,IN,38.46153846153847,NA
50211,Warren County,IA,NA,97.66666666666667
50265,Polk County,IA,NA,97
50310,Polk County,IA,25.779625779625782,NA
50316,Polk County,IA,74.42827442827443,NA
50322,Polk County,IA,65.48856548856548,NA
50701,Black Hawk County,IA,39.91683991683992,NA
50801,Union County,IA,44.49064449064449,NA
51105,Woodbury County,IA,69.85446985446985,NA
52404,Linn County,IA,12.058212058212058,NA
52531,Monroe County,IA,93.55509355509356,NA
52641,Henry County,IA,75.25987525987526,NA
52803,Scott County,IA,41.37214137214137,NA
52806,Scott County,IA,26.195426195426197,NA
66210,Johnson County,KS,NA,66
66604,Shawnee County,KS,52.80665280665281,NA
67203,Sedgwick County,KS,72.34927234927235,NA
67207,Sedgwick County,KS,82.95218295218295,NA
40004,Nelson County,KY,24.532224532224532,NA
40033,Marion County,KY,NA,66.66666666666666
40212,Jefferson County,KY,NA,37
40228,Jefferson County,KY,NA,65
40311,Nicholas County,KY,NA,84.66666666666667
40403,Madison County,KY,27.234927234927238,NA
40701,Whitley County,KY,14.137214137214137,NA
40906,Knox County,KY,67.77546777546777,NA
41018,Kenton County,KY,NA,91.66666666666666
41097,Grant County,KY,75.05197505197505,NA
41164,Carter County,KY,NA,33.666666666666664
41179,Lewis County,KY,92.0997920997921,NA
41314,Owsley County,KY,91.68399168399168,NA
41339,Breathitt County,KY,78.79417879417879,NA
41465,Magoffin County,KY,NA,67.66666666666666
42748,Larue County,KY,85.86278586278586,NA
70003,Jefferson Parish,LA,11.01871101871102,NA
70094,Jefferson Parish,LA,NA,17
70115,Orleans Parish,LA,56.13305613305614,NA
70117,Orleans Parish,LA,6.4449064449064455,NA
70364,Terrebonne Parish,LA,10.187110187110187,NA
70458,St. Tammany Parish,LA,7.484407484407485,NA
70506,Lafayette Parish,LA,NA,18.333333333333332
70668,Calcasieu Parish,LA,68.81496881496881,NA
71055,Webster Parish,LA,22.245322245322246,NA
71105,Caddo Parish,LA,44.28274428274428,NA
71106,Caddo Parish,LA,NA,14.666666666666666
71241,Union Parish,LA,93.76299376299376,NA
71292,Ouachita Parish,LA,16.424116424116423,NA
71457,Natchitoches Parish,LA,86.27858627858627,NA
04073,York County,ME,28.482328482328484,NA
04240,Androscoggin County,ME,2.079002079002079,NA
04268,Oxford County,ME,NA,85.33333333333334
04280,Androscoggin County,ME,79.002079002079,NA
04330,Kennebec County,ME,8.108108108108109,NA
04401,Penobscot County,ME,NA,2.666666666666667
04742,Aroostook County,ME,NA,88.66666666666667
04769,Aroostook County,ME,NA,43.666666666666664
04937,Somerset County,ME,NA,63
04938,Franklin County,ME,NA,57.666666666666664
20716,Prince George's County,MD,NA,86.66666666666667
21061,Anne Arundel County,MD,NA,28.000000000000004
21205,Baltimore city,MD,53.43035343035343,NA
21218,Baltimore city,MD,13.721413721413722,NA
21228,Baltimore County,MD,NA,13.333333333333334
21791,Carroll County,MD,NA,97.33333333333334
21842,Worcester County,MD,88.56548856548856,NA
21921,Cecil County,MD,19.95841995841996,NA
01040,Hampden County,MA,0,NA
01089,Hampden County,MA,6.029106029106029,NA
01420,Worcester County,MA,2.9106029106029108,NA
01609,Worcester County,MA,3.3264033264033266,NA
01721,Middlesex County,MA,81.08108108108108,NA
01832,Essex County,MA,4.781704781704782,NA
01852,Middlesex County,MA,NA,2.3333333333333335
01902,Essex County,MA,0.6237006237006237,NA
01907,Essex County,MA,NA,32.666666666666664
01913,Essex County,MA,29.93762993762994,NA
01915,Essex County,MA,74.22037422037423,NA
01930,Essex County,MA,NA,0.6666666666666667
02072,Norfolk County,MA,11.642411642411643,NA
02115,Suffolk County,MA,8.731808731808732,NA
02143,Middlesex County,MA,NA,11.666666666666666
02148,Middlesex County,MA,NA,14.333333333333334
02149,Middlesex County,MA,0.4158004158004158,NA
02150,Suffolk County,MA,0.8316008316008316,NA
02151,Suffolk County,MA,0.2079002079002079,NA
02171,Norfolk County,MA,NA,54.666666666666664
02180,Middlesex County,MA,15.800415800415802,NA
02554,Nantucket County,MA,NA,51
02601,Barnstable County,MA,6.652806652806653,25.333333333333336
02762,Norfolk County,MA,NA,94.33333333333334
02790,Bristol County,MA,72.14137214137214,NA
48038,Macomb County,MI,16.632016632016633,NA
48044,Macomb County,MI,10.602910602910603,NA
48045,Macomb County,MI,NA,17.666666666666668
48059,St. Clair County,MI,NA,42
48111,Wayne County,MI,NA,8
48116,Livingston County,MI,33.264033264033266,NA
48138,Wayne County,MI,NA,86
48180,Wayne County,MI,2.7027027027027026,49.666666666666664
48207,Wayne County,MI,NA,34
48210,Wayne County,MI,NA,56.00000000000001
48227,Wayne County,MI,3.7422037422037424,NA
48306,Oakland County,MI,NA,58.666666666666664
48307,Oakland County,MI,23.284823284823286,NA
48433,Genesee County,MI,NA,24
48458,Genesee County,MI,36.7983367983368,NA
48461,Lapeer County,MI,70.89397089397089,NA
48601,Saginaw County,MI,17.255717255717258,NA
48625,Clare County,MI,NA,57.99999999999999
48813,Eaton County,MI,43.24324324324324,NA
48846,Ionia County,MI,43.86694386694387,NA
48906,Ingham County,MI,NA,48.333333333333336
48917,Eaton County,MI,12.266112266112266,NA
49010,Allegan County,MI,NA,43
49017,Calhoun County,MI,66.32016632016632,NA
49022,Berrien County,MI,13.097713097713099,NA
49036,Branch County,MI,NA,26.333333333333332
49037,Calhoun County,MI,19.334719334719335,NA
49058,Barry County,MI,36.590436590436596,NA
49120,Berrien County,MI,18.711018711018713,NA
49230,Jackson County,MI,NA,47
49343,Kent County,MI,NA,82.66666666666667
49345,Kent County,MI,72.55717255717255,NA
49437,Muskegon County,MI,95.42619542619542,NA
49548,Kent County,MI,9.771309771309772,NA
55060,Steele County,MN,42.41164241164241,NA
55101,Ramsey County,MN,39.70893970893971,NA
55122,Dakota County,MN,NA,61.66666666666667
55302,Wright County,MN,NA,94.66666666666667
55313,Wright County,MN,NA,40.666666666666664
55404,Hennepin County,MN,40.95634095634096,4.666666666666667
55719,St. Louis County,MN,85.03118503118503,NA
55807,St. Louis County,MN,NA,54.333333333333336
55810,St. Louis County,MN,NA,89.66666666666666
55902,Olmsted County,MN,81.4968814968815,NA
55906,Olmsted County,MN,71.72557172557173,NA
56011,Scott County,MN,NA,94
56013,Faribault County,MN,NA,95.66666666666667
56258,Lyon County,MN,75.67567567567568,NA
56401,Crow Wing County,MN,41.58004158004158,NA
56474,Cass County,MN,96.25779625779626,NA
56537,Otter Tail County,MN,79.41787941787942,NA
56560,Clay County,MN,1.6632016632016633,NA
56572,Otter Tail County,MN,NA,65.33333333333333
56601,Beltrami County,MN,NA,16.333333333333332
38611,Marshall County,MS,66.73596673596674,NA
38654,DeSoto County,MS,28.06652806652807,NA
38663,Tippah County,MS,71.3097713097713,NA
38666,Panola County,MS,98.54469854469855,NA
39090,Attala County,MS,70.68607068607069,NA
39301,Lauderdale County,MS,79.83367983367984,NA
39563,Jackson County,MS,54.88565488565489,NA
39574,Harrison County,MS,NA,55.00000000000001
63107,St. Louis city,MO,NA,75
63108,St. Louis city,MO,NA,51.66666666666667
63121,St. Louis County,MO,65.07276507276507,NA
63130,St. Louis County,MO,57.7962577962578,NA
63146,St. Louis County,MO,56.96465696465697,NA
63303,St. Charles County,MO,60.4989604989605,NA
63376,St. Charles County,MO,13.513513513513514,NA
64015,Jackson County,MO,16.839916839916842,NA
64060,Clay County,MO,NA,64.66666666666666
64081,Jackson County,MO,51.559251559251564,NA
64118,Clay County,MO,29.72972972972973,NA
64123,Jackson County,MO,NA,67
64124,Jackson County,MO,NA,64
64503,Buchanan County,MO,30.561330561330564,NA
64506,Buchanan County,MO,NA,9
64507,Buchanan County,MO,31.392931392931395,NA
64701,Cass County,MO,48.64864864864865,NA
64801,Jasper County,MO,17.04781704781705,NA
64804,Jasper County,MO,21.82952182952183,NA
64834,Jasper County,MO,83.78378378378379,NA
64850,Newton County,MO,NA,23.333333333333332
65355,Benton County,MO,58.004158004158,NA
59101,Yellowstone County,MT,NA,25.666666666666664
59404,Cascade County,MT,76.71517671517671,NA
59405,Cascade County,MT,64.65696465696466,NA
59725,Beaverhead County,MT,99.7920997920998,NA
59901,Flathead County,MT,NA,4.333333333333334
68008,Washington County,NE,NA,62.66666666666667
68127,Douglas County,NE,NA,75.33333333333333
89102,Clark County,NV,NA,79.66666666666666
89106,Clark County,NV,52.5987525987526,NA
89130,Clark County,NV,59.04365904365905,NA
03038,Rockingham County,NH,NA,50
03052,Hillsborough County,NH,74.84407484407485,NA
03103,Hillsborough County,NH,7.900207900207901,NA
03110,Hillsborough County,NH,61.53846153846154,NA
03229,Merrimack County,NH,99.58419958419958,NA
03235,Merrimack County,NH,NA,68.66666666666667
03244,Hillsborough County,NH,92.931392931392935,NA
03820,Strafford County,NH,NA,38
03865,Rockingham County,NH,67.98336798336798,NA
07017,Essex County,NJ,2.2869022869022873,NA
07036,Union County,NJ,12.681912681912683,NA
07108,Essex County,NJ,1.8711018711018712,NA
07304,Hudson County,NJ,3.118503118503119,NA
07407,Bergen County,NJ,96.46569646569647,NA
07432,Bergen County,NJ,94.5945945945946,NA
07728,Monmouth County,NJ,19.75051975051975,NA
07731,Monmouth County,NJ,37.00623700623701,NA
08070,Salem County,NJ,NA,49.333333333333336
08093,Gloucester County,NJ,42.20374220374221,NA
08094,Gloucester County,NJ,NA,12.333333333333334
08234,Atlantic County,NJ,25.155925155925157,NA
08330,Atlantic County,NJ,33.679833679833685,NA
08401,Atlantic County,NJ,5.613305613305614,NA
08724,Ocean County,NJ,99.37629937629939,NA
08817,Middlesex County,NJ,NA,59
08865,Warren County,NJ,NA,11.333333333333332
87124,Sandoval County,NM,NA,10.333333333333334
87740,Colfax County,NM,84.40748440748442,NA
88011,Doa Ana County,NM,58.62785862785863,NA
88012,Doa Ana County,NM,40.54054054054054,NA
88023,Grant County,NM,NA,100
10314,Richmond County,NY,15.592515592515593,NA
10454,Bronx County,NY,8.523908523908524,NA
10458,Bronx County,NY,NA,0.33333333333333337
10460,Bronx County,NY,16.008316008316008,NA
10466,Bronx County,NY,6.237006237006238,NA
10469,Bronx County,NY,4.158004158004158,NA
11010,Nassau County,NY,87.73388773388774,NA
11201,Kings County,NY,NA,22.666666666666664
11208,Kings County,NY,10.395010395010395,NA
11213,Kings County,NY,28.274428274428274,NA
11218,Kings County,NY,78.5862785862786,NA
11219,Kings County,NY,NA,21.666666666666668
11375,Queens County,NY,NA,30
11433,Queens County,NY,30.97713097713098,NA
11550,Nassau County,NY,14.96881496881497,NA
11758,Nassau County,NY,NA,35
11967,Suffolk County,NY,38.46153846153847,NA
12010,Montgomery County,NY,48.44074844074844,NA
12118,Saratoga County,NY,90.85239085239085,NA
12205,Albany County,NY,NA,76.33333333333333
12550,Orange County,NY,37.83783783783784,NA
12809,Washington County,NY,NA,99.33333333333333
12953,Franklin County,NY,23.076923076923077,21
13036,Oswego County,NY,84.61538461538461,NA
13090,Onondaga County,NY,NA,28.666666666666668
13126,Oswego County,NY,5.8212058212058215,NA
13148,Seneca County,NY,83.991683991684,NA
13205,Onondaga County,NY,47.4012474012474,NA
13209,Onondaga County,NY,NA,71.33333333333334
13224,Onondaga County,NY,NA,80.66666666666666
13309,Oneida County,NY,69.43866943866944,NA
13440,Oneida County,NY,NA,7.333333333333333
13669,St. Lawrence County,NY,26.611226611226613,NA
13697,St. Lawrence County,NY,98.96049896049897,NA
13754,Broome County,NY,72.76507276507277,NA
13849,Otsego County,NY,NA,92
13865,Broome County,NY,53.638253638253644,89.33333333333333
14062,Chautauqua County,NY,94.8024948024948,NA
14094,Niagara County,NY,NA,3.3333333333333335
14127,Erie County,NY,50.51975051975052,NA
14204,Erie County,NY,46.56964656964657,NA
14207,Erie County,NY,37.62993762993763,NA
14212,Erie County,NY,NA,92.66666666666666
14227,Erie County,NY,NA,27.333333333333332
14304,Niagara County,NY,NA,43.333333333333336
14425,Ontario County,NY,NA,27.666666666666668
14464,Monroe County,NY,57.380457380457386,NA
14485,Livingston County,NY,NA,96
14489,Wayne County,NY,38.87733887733888,NA
14510,Livingston County,NY,91.06029106029106,NA
14527,Yates County,NY,32.224532224532226,NA
14589,Wayne County,NY,69.23076923076923,NA
14609,Monroe County,NY,1.0395010395010396,NA
14616,Monroe County,NY,NA,59.333333333333336
27018,Yadkin County,NC,76.29937629937629,NA
27203,Randolph County,NC,32.016632016632016,NA
27299,Davidson County,NC,98.33679833679834,NA
27302,Alamance County,NC,35.550935550935556,NA
27317,Randolph County,NC,NA,72.33333333333334
27557,Nash County,NC,97.0893970893971,NA
27603,Wake County,NC,26.819126819126822,NA
27863,Wayne County,NC,87.11018711018711,NA
27870,Halifax County,NC,NA,29.666666666666668
27909,Pasquotank County,NC,NA,14.000000000000002
28027,Cabarrus County,NC,NA,8.666666666666668
28086,Cleveland County,NC,29.521829521829524,NA
28103,Union County,NC,NA,76.66666666666667
28110,Union County,NC,27.027027027027028,NA
28173,Union County,NC,NA,46.666666666666664
28206,Mecklenburg County,NC,NA,62
28278,Mecklenburg County,NC,NA,78.33333333333333
28349,Duplin County,NC,NA,98
28461,Brunswick County,NC,75.88357588357589,NA
28540,Onslow County,NC,30.561330561330564,NA
28555,Onslow County,NC,NA,93
28570,Carteret County,NC,NA,46
28572,Duplin County,NC,NA,92.33333333333333
28574,Onslow County,NC,87.94178794178794,NA
28752,McDowell County,NC,20.997920997921,NA
28753,Madison County,NC,93.13929313929314,NA
28779,Jackson County,NC,60.91476091476091,NA
28789,Jackson County,NC,87.52598752598753,NA
28803,Buncombe County,NC,NA,30.666666666666664
58301,Ramsey County,ND,70.27027027027027,NA
43050,Knox County,OH,83.57588357588358,NA
43055,Licking County,OH,NA,1.6666666666666667
43068,Franklin County,OH,NA,74.66666666666667
43113,Pickaway County,OH,NA,95.33333333333334
43123,Franklin County,OH,NA,34.333333333333336
43138,Hocking County,OH,36.17463617463618,NA
43201,Franklin County,OH,51.975051975051976,NA
43227,Franklin County,OH,27.234927234927238,NA
43232,Franklin County,OH,43.65904365904366,NA
43302,Marion County,OH,18.503118503118504,NA
43315,Morrow County,OH,NA,63.66666666666667
43406,Wood County,OH,99.16839916839916,NA
43410,Sandusky County,OH,55.09355509355509,NA
43515,Fulton County,OH,NA,87.66666666666667
43537,Lucas County,OH,34.0956340956341,NA
43605,Lucas County,OH,2.494802494802495,NA
43613,Lucas County,OH,4.98960498960499,NA
43615,Lucas County,OH,5.197505197505198,NA
43793,Monroe County,OH,95.63409563409564,NA
43953,Jefferson County,OH,39.2931392931393,NA
44003,Ashtabula County,OH,95.01039501039502,NA
44004,Ashtabula County,OH,NA,4
44053,Lorain County,OH,NA,7.666666666666666
44054,Lorain County,OH,NA,36.333333333333336
44060,Lake County,OH,NA,1
44067,Summit County,OH,NA,19.666666666666664
44076,Ashtabula County,OH,NA,80.33333333333333
44077,Lake County,OH,NA,3.6666666666666665
44092,Lake County,OH,48.232848232848234,NA
44105,Cuyahoga County,OH,1.2474012474012475,NA
44108,Cuyahoga County,OH,73.8045738045738,NA
44111,Cuyahoga County,OH,1.4553014553014554,NA
44121,Cuyahoga County,OH,12.474012474012476,NA
44129,Cuyahoga County,OH,18.91891891891892,NA
44135,Cuyahoga County,OH,3.5343035343035343,NA
44201,Portage County,OH,NA,95
44212,Medina County,OH,4.365904365904366,NA
44221,Summit County,OH,18.295218295218298,19
44312,Summit County,OH,17.87941787941788,NA
44333,Summit County,OH,NA,41.333333333333336
44485,Trumbull County,OH,NA,33
44502,Mahoning County,OH,47.19334719334719,NA
44512,Mahoning County,OH,13.92931392931393,NA
44514,Mahoning County,OH,53.638253638253644,NA
44663,Tuscarawas County,OH,NA,18.666666666666668
44685,Summit County,OH,NA,25
44708,Stark County,OH,NA,32
44870,Erie County,OH,48.024948024948024,NA
44883,Seneca County,OH,22.86902286902287,NA
44905,Richland County,OH,68.60706860706861,NA
45011,Butler County,OH,50.72765072765073,NA
45013,Butler County,OH,4.5738045738045745,5.333333333333334
45014,Butler County,OH,19.12681912681913,NA
45042,Butler County,OH,86.6943866943867,NA
45044,Butler County,OH,7.276507276507277,NA
45102,Clermont County,OH,94.17879417879418,60
45335,Greene County,OH,97.92099792099792,NA
45365,Shelby County,OH,15.176715176715177,NA
45417,Montgomery County,OH,11.434511434511435,NA
45420,Montgomery County,OH,31.185031185031185,NA
45459,Montgomery County,OH,64.44906444906445,NA
45503,Clark County,OH,NA,13.666666666666666
45601,Ross County,OH,NA,5
45612,Ross County,OH,NA,82.33333333333334
45638,Lawrence County,OH,NA,60.66666666666667
45640,Jackson County,OH,34.511434511434516,NA
45669,Lawrence County,OH,23.492723492723496,NA
45680,Lawrence County,OH,16.216216216216218,NA
45701,Athens County,OH,91.8918918918919,NA
45769,Meigs County,OH,65.9043659043659,NA
45822,Mercer County,OH,NA,30.333333333333336
73013,Oklahoma County,OK,NA,38.666666666666664
73036,Canadian County,OK,45.32224532224532,NA
73055,Stephens County,OK,74.63617463617463,NA
73069,Cleveland County,OK,96.67359667359668,NA
73159,Oklahoma County,OK,50.311850311850314,NA
73162,Oklahoma County,OK,55.71725571725572,NA
73505,Comanche County,OK,27.650727650727653,NA
73507,Comanche County,OK,49.8960498960499,NA
74006,Washington County,OK,59.25155925155925,NA
74019,Rogers County,OK,51.767151767151766,NA
74074,Payne County,OK,50.1039501039501,NA
74337,Mayes County,OK,96.88149688149689,NA
74467,Wagoner County,OK,NA,57.333333333333336
74578,Latimer County,OK,NA,96.66666666666667
74902,Le Flore County,OK,90.64449064449065,NA
97058,Wasco County,OR,45.11434511434512,NA
97222,Clackamas County,OR,35.343035343035346,NA
97266,Multnomah County,OR,NA,68
97415,Curry County,OR,NA,61.33333333333333
97420,Coos County,OR,55.50935550935551,NA
97448,Lane County,OR,NA,93.66666666666667
97526,Josephine County,OR,62.37006237006237,NA
97814,Baker County,OR,47.60914760914761,NA
15057,Washington County,PA,98.75259875259876,NA
15068,Westmoreland County,PA,NA,11
15136,Allegheny County,PA,35.75883575883576,NA
15216,Allegheny County,PA,59.87525987525988,NA
15227,Allegheny County,PA,NA,23.666666666666668
15601,Westmoreland County,PA,NA,2
15683,Westmoreland County,PA,NA,61
15701,Indiana County,PA,25.779625779625782,NA
16101,Lawrence County,PA,8.316008316008316,NA
16933,Tioga County,PA,90.02079002079002,NA
17022,Lancaster County,PA,21.62162162162162,NA
17257,Cumberland County,PA,60.70686070686071,NA
17522,Lancaster County,PA,76.50727650727652,NA
17547,Lancaster County,PA,NA,91
17745,Clinton County,PA,44.6985446985447,NA
17837,Union County,PA,NA,40.33333333333333
18018,Lehigh County,PA,NA,10.666666666666668
18032,Lehigh County,PA,61.95426195426196,NA
18444,Lackawanna County,PA,NA,73
18610,Monroe County,PA,81.28898128898129,NA
18702,Luzerne County,PA,36.38253638253639,NA
19055,Bucks County,PA,80.87318087318087,NA
19094,Delaware County,PA,91.26819126819127,NA
19111,Philadelphia County,PA,5.405405405405405,NA
19133,Philadelphia County,PA,NA,33.33333333333333
19151,Philadelphia County,PA,17.463617463617464,NA
19153,Philadelphia County,PA,NA,45.666666666666664
19154,Philadelphia County,PA,20.79002079002079,NA
19355,Chester County,PA,73.38877338877339,NA
19601,Berks County,PA,3.9501039501039505,NA
02903,Providence County,RI,78.37837837837837,NA
29006,Lexington County,SC,82.32848232848234,NA
29307,Spartanburg County,SC,NA,68.33333333333333
29403,Charleston County,SC,48.85654885654886,NA
29486,Berkeley County,SC,62.16216216216216,NA
29488,Colleton County,SC,40.74844074844075,NA
29582,Horry County,SC,NA,55.333333333333336
29617,Greenville County,SC,70.06237006237006,NA
29644,Greenville County,SC,57.17255717255717,NA
29657,Pickens County,SC,53.222453222453225,NA
29671,Pickens County,SC,NA,87.33333333333333
29706,Chester County,SC,81.70478170478171,NA
29745,York County,SC,NA,51.33333333333333
29842,Aiken County,SC,88.77338877338877,NA
57032,Lincoln County,SD,97.2972972972973,NA
37122,Wilson County,TN,34.303534303534306,NA
37138,Davidson County,TN,56.54885654885655,54
37172,Robertson County,TN,51.35135135135135,NA
37205,Davidson County,TN,71.51767151767152,NA
37206,Davidson County,TN,NA,73.66666666666667
37207,Davidson County,TN,63.61746361746362,NA
37217,Davidson County,TN,46.98544698544699,NA
37363,Hamilton County,TN,46.15384615384615,NA
37416,Hamilton County,TN,NA,52
37716,Anderson County,TN,42.82744282744283,NA
37745,Greene County,TN,30.353430353430355,NA
37771,Loudon County,TN,NA,56.333333333333336
37801,Blount County,TN,20.374220374220375,NA
37820,Jefferson County,TN,NA,84.33333333333334
37825,Claiborne County,TN,NA,83.33333333333334
37854,Roane County,TN,61.12266112266113,NA
37861,Grainger County,TN,80.04158004158003,NA
37873,Hawkins County,TN,92.72349272349273,NA
37874,Monroe County,TN,NA,49
38024,Dyer County,TN,NA,70.66666666666667
38116,Shelby County,TN,23.492723492723496,NA
38127,Shelby County,TN,NA,35.333333333333336
38242,Henry County,TN,87.31808731808732,NA
38261,Obion County,TN,71.93347193347194,NA
38462,Lewis County,TN,71.10187110187111,NA
38556,Fentress County,TN,NA,39.33333333333333
75007,Denton County,TX,NA,27
75022,Denton County,TX,80.45738045738045,NA
75043,Dallas County,TX,NA,19.333333333333332
75092,Grayson County,TX,52.18295218295218,48
75110,Navarro County,TX,47.81704781704782,NA
75169,Van Zandt County,TX,NA,89
75212,Dallas County,TX,NA,46.33333333333333
75216,Dallas County,TX,8.93970893970894,NA
75227,Dallas County,TX,24.74012474012474,NA
75243,Dallas County,TX,17.671517671517673,NA
75474,Hunt County,TX,NA,59.66666666666667
75503,Bowie County,TX,56.75675675675676,NA
75762,Smith County,TX,77.75467775467776,NA
75948,Sabine County,TX,NA,77.33333333333333
75956,Jasper County,TX,93.97089397089398,NA
76013,Tarrant County,TX,65.6964656964657,NA
76020,Tarrant County,TX,NA,29.333333333333332
76028,Johnson County,TX,14.760914760914762,6.666666666666667
76050,Johnson County,TX,86.48648648648648,NA
76052,Tarrant County,TX,83.36798336798337,NA
76053,Tarrant County,TX,NA,67.33333333333333
76502,Bell County,TX,NA,1.3333333333333335
76542,Bell County,TX,82.53638253638253,NA
76548,Bell County,TX,90.22869022869024,NA
76549,Bell County,TX,NA,65.66666666666666
76903,Tom Green County,TX,46.36174636174636,NA
77026,Harris County,TX,NA,53
77028,Harris County,TX,55.71725571725572,NA
77043,Harris County,TX,NA,78
77079,Harris County,TX,NA,85
77092,Harris County,TX,NA,63.33333333333333
77096,Harris County,TX,62.99376299376299,NA
77511,Brazoria County,TX,50.935550935550935,NA
77514,Chambers County,TX,NA,90.66666666666666
77530,Harris County,TX,NA,86.33333333333333
77532,Harris County,TX,NA,62.33333333333333
77535,Liberty County,TX,NA,45.33333333333333
77539,Galveston County,TX,24.94802494802495,NA
77630,Orange County,TX,45.73804573804574,NA
77803,Brazos County,TX,31.600831600831604,NA
78109,Bexar County,TX,52.80665280665281,NA
78242,Bexar County,TX,54.054054054054056,NA
78332,Jim Wells County,TX,64.86486486486487,NA
78418,Nueces County,TX,72.97297297297297,NA
78640,Hays County,TX,89.3970893970894,NA
79424,Lubbock County,TX,NA,39.666666666666664
79602,Taylor County,TX,62.57796257796257,NA
79605,Taylor County,TX,43.03534303534304,NA
79912,El Paso County,TX,32.432432432432435,NA
79934,El Paso County,TX,82.12058212058211,NA
84107,Salt Lake County,UT,45.53014553014553,NA
84404,Weber County,UT,NA,36.666666666666664
05446,Chittenden County,VT,66.11226611226611,NA
20164,Loudoun County,VA,49.272349272349274,NA
22560,Essex County,VA,NA,87
22602,Frederick County,VA,57.58835758835759,NA
22802,Harrisonburg city,VA,28.482328482328484,NA
22903,Charlottesville city,VA,33.88773388773389,NA
23116,Hanover County,VA,67.35966735966737,NA
23234,Chesterfield County,VA,NA,31
23453,Virginia Beach city,VA,54.469854469854475,NA
23487,Isle of Wight County,VA,89.6049896049896,NA
23505,Norfolk city,VA,43.45114345114345,NA
23661,Hampton city,VA,66.52806652806653,NA
23704,Portsmouth city,VA,33.471933471933475,50.33333333333333
23832,Chesterfield County,VA,NA,47.333333333333336
24012,Roanoke city,VA,34.92723492723493,NA
24073,Montgomery County,VA,46.56964656964657,NA
24078,Henry County,VA,84.82328482328482,NA
24153,Salem city,VA,NA,20
24301,Pulaski County,VA,95.21829521829522,NA
24340,Washington County,VA,NA,84
24401,Staunton city,VA,14.553014553014554,NA
24501,Lynchburg city,VA,NA,37.666666666666664
24592,Halifax County,VA,34.71933471933472,NA
98033,King County,WA,67.15176715176715,NA
98198,King County,WA,NA,28.333333333333332
98390,Pierce County,WA,NA,74.33333333333333
98405,Pierce County,WA,39.08523908523909,NA
98802,Douglas County,WA,NA,28.999999999999996
98948,Yakima County,WA,88.35758835758836,NA
99205,Spokane County,WA,NA,47.66666666666667
99301,Franklin County,WA,NA,8.333333333333332
99352,Benton County,WA,45.94594594594595,NA
20032,District of Columbia,DC,7.0686070686070686,NA
26101,Wood County,WV,6.860706860706861,NA
26164,Jackson County,WV,85.86278586278586,NA
26201,Upshur County,WV,59.66735966735966,18
26525,Preston County,WV,96.04989604989605,NA
53146,Waukesha County,WI,NA,85.66666666666667
53204,Milwaukee County,WI,NA,34.66666666666667
53211,Milwaukee County,WI,NA,24.666666666666668
53215,Milwaukee County,WI,NA,6.333333333333334
53216,Milwaukee County,WI,32.84823284823285,NA
53219,Milwaukee County,WI,22.66112266112266,NA
53405,Racine County,WI,NA,6
53511,Rock County,WI,NA,0
53704,Dane County,WI,61.74636174636174,NA
53949,Marquette County,WI,NA,88
54110,Calumet County,WI,NA,99.66666666666667
54409,Langlade County,WI,NA,24.333333333333336
54650,La Crosse County,WI,NA,9.333333333333334
54829,Barron County,WI,94.38669438669439,NA
54843,Sawyer County,WI,84.1995841995842,NA
54929,Waupaca County,WI,NA,82
