ZipCode,county,state,Adult
85249,Maricopa County,AZ,91.57303370786516
85388,Maricopa County,AZ,69.66292134831461
85543,Graham County,AZ,100
72701,Washington County,AR,97.19101123595506
90036,Los Angeles County,CA,69.10112359550563
90059,Los Angeles County,CA,24.15730337078652
90063,Los Angeles County,CA,34.26966292134831
91504,Los Angeles County,CA,52.24719101123596
91789,Los Angeles County,CA,65.1685393258427
92111,San Diego County,CA,36.51685393258427
92647,Orange County,CA,11.797752808988763
93247,Tulare County,CA,95.50561797752809
94110,San Francisco County,CA,92.69662921348315
94544,Alameda County,CA,9.550561797752808
94611,Alameda County,CA,41.57303370786517
95128,Santa Clara County,CA,24.719101123595504
95827,Sacramento County,CA,87.64044943820225
96022,Tehama County,CA,63.48314606741573
80002,Jefferson County,CO,66.85393258426966
80013,Arapahoe County,CO,67.41573033707866
80129,Douglas County,CO,74.15730337078652
81006,Pueblo County,CO,52.80898876404494
06422,Middlesex County,CT,97.75280898876404
06610,Fairfield County,CT,57.865168539325836
06850,Fairfield County,CT,98.31460674157303
19713,New Castle County,DE,44.9438202247191
32034,Nassau County,FL,33.70786516853933
32114,Volusia County,FL,53.93258426966292
32960,Indian River County,FL,68.53932584269663
33024,Broward County,FL,43.82022471910113
33076,Broward County,FL,84.26966292134831
33134,Miami-Dade County,FL,94.9438202247191
33175,Miami-Dade County,FL,37.07865168539326
33410,Palm Beach County,FL,33.146067415730336
33603,Hillsborough County,FL,92.13483146067416
33983,Charlotte County,FL,55.61797752808989
34974,Okeechobee County,FL,96.06741573033707
30022,Fulton County,GA,65.73033707865169
30064,Cobb County,GA,42.13483146067416
30415,Bulloch County,GA,83.14606741573034
30518,Gwinnett County,GA,76.40449438202246
83706,Ada County,ID,41.01123595505618
60004,Cook County,IL,14.606741573033707
60120,Kane County,IL,57.30337078651685
60151,Kane County,IL,89.8876404494382
60181,DuPage County,IL,80.89887640449437
60440,Will County,IL,11.235955056179774
60565,DuPage County,IL,62.35955056179775
60614,Cook County,IL,12.359550561797752
60618,Cook County,IL,22.47191011235955
61072,Winnebago County,IL,87.07865168539325
62522,Macon County,IL,64.04494382022472
46173,Rush County,IN,38.20224719101123
46203,Marion County,IN,88.76404494382022
46307,Lake County,IN,1.6853932584269662
46746,LaGrange County,IN,93.82022471910112
47302,Delaware County,IN,32.02247191011236
47713,Vanderburgh County,IN,89.8876404494382
40391,Clark County,KY,21.34831460674157
41102,Boyd County,KY,35.95505617977528
70065,Jefferson Parish,LA,35.39325842696629
70607,Calcasieu Parish,LA,56.17977528089888
71106,Caddo Parish,LA,5.056179775280898
04769,Aroostook County,ME,40.44943820224719
01013,Hampden County,MA,8.426966292134832
01040,Hampden County,MA,0
01420,Worcester County,MA,51.12359550561798
01507,Worcester County,MA,94.3820224719101
01830,Essex County,MA,6.741573033707865
01930,Essex County,MA,3.932584269662921
02072,Norfolk County,MA,23.03370786516854
02124,Suffolk County,MA,0.5617977528089888
02150,Suffolk County,MA,21.910112359550563
02190,Norfolk County,MA,16.853932584269664
48126,Wayne County,MI,25.280898876404496
48210,Wayne County,MI,38.764044943820224
48393,Oakland County,MI,29.213483146067414
48827,Eaton County,MI,54.49438202247191
48879,Clinton County,MI,61.79775280898876
48912,Ingham County,MI,71.91011235955057
49028,Branch County,MI,72.47191011235955
49509,Kent County,MI,55.0561797752809
49866,Marquette County,MI,82.02247191011236
55016,Washington County,MN,26.40449438202247
55379,Scott County,MN,15.730337078651685
55411,Hennepin County,MN,3.3707865168539324
55438,Hennepin County,MN,93.25842696629213
63303,St. Charles County,MO,12.921348314606742
64152,Platte County,MO,71.34831460674157
03053,Rockingham County,NH,16.292134831460675
07090,Union County,NJ,76.96629213483146
07203,Union County,NJ,96.62921348314607
07430,Bergen County,NJ,79.21348314606742
07457,Morris County,NJ,99.43820224719101
07920,Somerset County,NJ,81.46067415730337
08037,Atlantic County,NJ,78.65168539325843
08048,Burlington County,NJ,43.258426966292134
08054,Burlington County,NJ,78.08988764044943
08078,Camden County,NJ,39.8876404494382
08080,Gloucester County,NJ,7.303370786516854
08807,Somerset County,NJ,18.53932584269663
87124,Sandoval County,NM,60.67415730337079
10460,Bronx County,NY,1.1235955056179776
10465,Bronx County,NY,67.97752808988764
10583,Westchester County,NY,98.87640449438202
11550,Nassau County,NY,85.39325842696628
12901,Clinton County,NY,8.98876404494382
13350,Herkimer County,NY,85.95505617977528
13440,Oneida County,NY,2.247191011235955
13838,Delaware County,NY,46.62921348314607
14207,Erie County,NY,45.50561797752809
14214,Erie County,NY,20.224719101123593
14228,Erie County,NY,28.651685393258425
14625,Monroe County,NY,58.42696629213483
27546,Harnett County,NC,66.29213483146067
27592,Wake County,NC,50
28054,Gaston County,NC,10.674157303370785
28078,Mecklenburg County,NC,20.786516853932586
28405,New Hanover County,NC,85.95505617977528
43078,Champaign County,OH,23.595505617977526
43220,Franklin County,OH,49.43820224719101
43812,Coshocton County,OH,14.04494382022472
43935,Belmont County,OH,29.775280898876407
43964,Jefferson County,OH,56.74157303370787
44203,Summit County,OH,70.78651685393258
44256,Medina County,OH,4.49438202247191
44830,Seneca County,OH,30.89887640449438
45342,Montgomery County,OH,6.179775280898876
45822,Mercer County,OH,25.842696629213485
45895,Auglaize County,OH,19.662921348314608
73127,Oklahoma County,OK,32.58426966292135
97301,Marion County,OR,53.37078651685393
97471,Douglas County,OR,46.06741573033708
15235,Allegheny County,PA,48.87640449438202
15237,Allegheny County,PA,31.46067415730337
15632,Westmoreland County,PA,89.32584269662921
16441,Erie County,PA,62.92134831460674
17866,Northumberland County,PA,42.13483146067416
18073,Montgomery County,PA,60.1123595505618
18914,Bucks County,PA,39.325842696629216
19151,Philadelphia County,PA,27.52808988764045
19508,Berks County,PA,83.70786516853933
02809,Bristol County,RI,64.60674157303372
02840,Newport County,RI,91.01123595505618
02879,Washington County,RI,47.19101123595505
57006,Brookings County,SD,44.38202247191011
38002,Shelby County,TN,69.66292134831461
38305,Madison County,TN,5.617977528089887
75904,Angelina County,TX,73.59550561797754
77040,Harris County,TX,28.08988764044944
77074,Harris County,TX,58.98876404494382
77092,Harris County,TX,80.33707865168539
77099,Harris County,TX,34.831460674157306
77494,Fort Bend County,TX,30.337078651685395
77523,Chambers County,TX,37.640449438202246
78541,Hidalgo County,TX,61.23595505617978
79423,Lubbock County,TX,17.97752808988764
79905,El Paso County,TX,75.28089887640449
84066,Duchesne County,UT,75.84269662921348
84075,Davis County,UT,50.56179775280899
84119,Salt Lake County,UT,7.865168539325842
84660,Utah County,UT,79.7752808988764
20176,Loudoun County,VA,59.55056179775281
22853,Rockingham County,VA,82.58426966292134
23608,Newport News city,VA,10.112359550561797
98011,King County,WA,74.71910112359551
98012,Snohomish County,WA,19.101123595505616
98119,King County,WA,73.03370786516854
98133,King County,WA,17.415730337078653
98188,King County,WA,48.31460674157304
98374,Pierce County,WA,26.96629213483146
20002,District of Columbia,DC,13.48314606741573
20007,District of Columbia,DC,77.52808988764045
25570,Wayne County,WV,51.68539325842697
53051,Waukesha County,WI,84.8314606741573
53205,Milwaukee County,WI,2.8089887640449436
53207,Milwaukee County,WI,15.168539325842698
53226,Milwaukee County,WI,47.752808988764045
53551,Jefferson County,WI,88.20224719101124
