ZipCode,county,state,Adult,Retirement,Geriatric
35016,Marshall County,AL,NA,39.51456310679612,NA
35023,Jefferson County,AL,NA,48.932038834951456,NA
35043,Shelby County,AL,NA,89.32038834951457,NA
35057,Cullman County,AL,NA,83.59223300970874,NA
35058,Cullman County,AL,NA,77.86407766990291,NA
35210,Jefferson County,AL,NA,69.2233009708738,NA
35216,Jefferson County,AL,NA,50.48543689320388,NA
35217,Jefferson County,AL,NA,49.029126213592235,NA
35223,Jefferson County,AL,NA,NA,75.14124293785311
35242,Shelby County,AL,NA,NA,61.016949152542374
35243,Jefferson County,AL,NA,NA,61.15819209039548
35466,Pickens County,AL,90.95744680851064,NA,NA
35565,Winston County,AL,NA,NA,88.13559322033898
35601,Morgan County,AL,NA,NA,33.61581920903955
35650,Lawrence County,AL,NA,43.49514563106796,NA
35749,Madison County,AL,NA,54.07766990291262,NA
35757,Madison County,AL,NA,78.93203883495146,NA
35801,Madison County,AL,74.46808510638297,NA,NA
35802,Madison County,AL,NA,67.08737864077669,NA
35803,Madison County,AL,NA,36.213592233009706,33.05084745762712
35811,Madison County,AL,NA,43.00970873786408,NA
35901,Etowah County,AL,NA,NA,66.80790960451978
35951,Marshall County,AL,NA,NA,78.10734463276836
35953,St. Clair County,AL,NA,91.74757281553399,NA
35957,Marshall County,AL,NA,58.64077669902913,NA
35976,Marshall County,AL,NA,35.92233009708738,NA
36078,Elmore County,AL,83.51063829787235,NA,NA
36117,Montgomery County,AL,NA,38.25242718446602,NA
36203,Calhoun County,AL,NA,NA,78.38983050847457
36207,Calhoun County,AL,NA,NA,69.91525423728814
36264,Cleburne County,AL,NA,96.60194174757282,NA
36303,Houston County,AL,NA,40.3883495145631,NA
36426,Escambia County,AL,NA,NA,72.03389830508475
36507,Baldwin County,AL,NA,89.80582524271846,NA
36535,Baldwin County,AL,NA,57.96116504854369,NA
36542,Baldwin County,AL,NA,NA,65.96045197740112
36606,Mobile County,AL,70.74468085106383,NA,NA
36853,Tallapoosa County,AL,NA,83.88349514563107,NA
36869,Russell County,AL,NA,63.00970873786408,NA
99654,Matanuska-Susitna Borough,AK,NA,76.89320388349515,NA
99801,Juneau City and Borough,AK,NA,70.19417475728156,NA
85009,Maricopa County,AZ,NA,27.96116504854369,NA
85018,Maricopa County,AZ,NA,NA,55.08474576271186
85020,Maricopa County,AZ,NA,34.46601941747573,NA
85021,Maricopa County,AZ,NA,34.077669902912625,NA
85022,Maricopa County,AZ,NA,29.61165048543689,NA
85023,Maricopa County,AZ,34.04255319148936,NA,NA
85024,Maricopa County,AZ,NA,81.35922330097087,NA
85132,Pinal County,AZ,NA,90.67961165048544,NA
85206,Maricopa County,AZ,NA,NA,13.841807909604519
85215,Maricopa County,AZ,NA,76.79611650485437,NA
85249,Maricopa County,AZ,NA,85.8252427184466,NA
85302,Maricopa County,AZ,NA,27.47572815533981,NA
85338,Maricopa County,AZ,NA,44.85436893203884,NA
85364,Yuma County,AZ,NA,NA,4.661016949152542
85365,Yuma County,AZ,NA,21.650485436893206,NA
85374,Maricopa County,AZ,NA,NA,7.4858757062146895
85382,Maricopa County,AZ,NA,NA,18.64406779661017
85614,Pima County,AZ,NA,21.553398058252426,NA
85621,Santa Cruz County,AZ,NA,44.46601941747573,NA
85622,Pima County,AZ,NA,NA,56.07344632768362
85623,Pinal County,AZ,NA,96.40776699029126,NA
85648,Santa Cruz County,AZ,NA,69.70873786407768,NA
85710,Pima County,AZ,42.5531914893617,18.932038834951456,NA
85713,Pima County,AZ,NA,82.91262135922331,60.31073446327684
85718,Pima County,AZ,NA,75.8252427184466,NA
85743,Pima County,AZ,NA,NA,93.50282485875707
85755,Pima County,AZ,NA,49.80582524271845,71.1864406779661
86324,Yavapai County,AZ,NA,NA,95.33898305084746
71603,Jefferson County,AR,NA,22.9126213592233,NA
71730,Union County,AR,NA,66.69902912621359,NA
71753,Columbia County,AR,NA,90,NA
71913,Garland County,AR,NA,NA,15.3954802259887
72058,Faulkner County,AR,NA,NA,88.84180790960453
72143,White County,AR,NA,NA,79.51977401129943
72210,Pulaski County,AR,94.14893617021278,NA,NA
72223,Pulaski County,AR,NA,NA,90.11299435028248
72450,Greene County,AR,NA,26.699029126213592,NA
72454,Clay County,AR,NA,NA,79.37853107344633
72543,Cleburne County,AR,71.27659574468085,NA,NA
72560,Stone County,AR,NA,61.55339805825243,NA
90013,Los Angeles County,CA,NA,67.76699029126215,NA
90019,Los Angeles County,CA,NA,63.49514563106796,NA
90067,Los Angeles County,CA,NA,NA,77.54237288135593
90077,Los Angeles County,CA,NA,94.85436893203884,NA
90210,Los Angeles County,CA,NA,NA,22.598870056497177
90222,Los Angeles County,CA,NA,NA,89.26553672316385
90240,Los Angeles County,CA,NA,NA,83.19209039548022
90262,Los Angeles County,CA,NA,84.36893203883496,NA
90403,Los Angeles County,CA,NA,91.55339805825243,NA
90603,Los Angeles County,CA,NA,53.786407766990294,NA
90620,Orange County,CA,NA,NA,28.954802259887007
90630,Orange County,CA,NA,57.66990291262136,NA
90744,Los Angeles County,CA,NA,NA,66.80790960451978
90807,Los Angeles County,CA,58.51063829787234,NA,NA
91011,Los Angeles County,CA,NA,NA,69.0677966101695
91107,Los Angeles County,CA,NA,49.61165048543689,NA
91311,Los Angeles County,CA,NA,52.23300970873787,NA
91326,Los Angeles County,CA,NA,NA,42.79661016949153
91342,Los Angeles County,CA,NA,15.242718446601941,NA
91343,Los Angeles County,CA,94.68085106382979,NA,NA
91344,Los Angeles County,CA,NA,26.50485436893204,NA
91360,Ventura County,CA,NA,50.09708737864078,NA
91361,Ventura County,CA,NA,64.66019417475728,NA
91362,Ventura County,CA,NA,NA,58.05084745762712
91387,Los Angeles County,CA,NA,41.456310679611654,NA
91423,Los Angeles County,CA,NA,63.10679611650486,NA
91709,San Bernardino County,CA,NA,NA,77.68361581920904
91711,Los Angeles County,CA,NA,NA,85.02824858757062
91722,Los Angeles County,CA,NA,58.15533980582524,NA
91762,San Bernardino County,CA,NA,NA,53.672316384180796
91767,Los Angeles County,CA,NA,NA,51.41242937853108
91784,San Bernardino County,CA,NA,47.57281553398058,NA
91913,San Diego County,CA,NA,83.20388349514563,NA
92021,San Diego County,CA,NA,15.339805825242719,27.54237288135593
92024,San Diego County,CA,NA,NA,68.78531073446328
92040,San Diego County,CA,54.78723404255319,NA,NA
92223,Riverside County,CA,NA,41.74757281553398,NA
92231,Imperial County,CA,38.82978723404255,NA,NA
92253,Riverside County,CA,NA,NA,42.090395480225986
92262,Riverside County,CA,NA,11.067961165048544,NA
92270,Riverside County,CA,NA,8.54368932038835,NA
92335,San Bernardino County,CA,NA,17.864077669902912,NA
92336,San Bernardino County,CA,NA,NA,43.36158192090395
92345,San Bernardino County,CA,NA,NA,27.11864406779661
92376,San Bernardino County,CA,NA,NA,55.367231638418076
92405,San Bernardino County,CA,NA,NA,89.97175141242938
92612,Orange County,CA,NA,NA,53.38983050847458
92637,Orange County,CA,NA,70.3883495145631,NA
92647,Orange County,CA,NA,NA,50.56497175141242
92805,Orange County,CA,NA,43.10679611650485,NA
92807,Orange County,CA,NA,40.48543689320388,NA
92821,Orange County,CA,NA,49.70873786407767,NA
92867,Orange County,CA,NA,NA,90.2542372881356
92882,Riverside County,CA,NA,37.28155339805825,NA
92883,Riverside County,CA,NA,88.54368932038835,NA
92886,Orange County,CA,NA,19.41747572815534,NA
93015,Ventura County,CA,NA,82.52427184466019,NA
93023,Ventura County,CA,NA,NA,56.49717514124294
93033,Ventura County,CA,NA,10.485436893203884,NA
93065,Ventura County,CA,NA,57.18446601941748,NA
93230,Kings County,CA,NA,17.37864077669903,NA
93304,Kern County,CA,65.42553191489363,NA,NA
93307,Kern County,CA,NA,NA,52.68361581920904
93312,Kern County,CA,48.40425531914894,NA,60.02824858757062
93454,Santa Barbara County,CA,NA,NA,42.51412429378531
93455,Santa Barbara County,CA,NA,31.359223300970875,NA
93631,Fresno County,CA,NA,NA,83.33333333333334
93638,Madera County,CA,NA,NA,54.378531073446325
93704,Fresno County,CA,NA,NA,73.44632768361582
93705,Fresno County,CA,NA,NA,61.86440677966102
93710,Fresno County,CA,NA,50.19417475728155,NA
93711,Fresno County,CA,NA,74.07766990291262,NA
93727,Fresno County,CA,NA,97.57281553398059,NA
93953,Monterey County,CA,NA,88.25242718446601,NA
93955,Monterey County,CA,NA,34.75728155339806,NA
94019,San Mateo County,CA,NA,NA,57.34463276836158
94022,Santa Clara County,CA,NA,81.45631067961165,NA
94025,San Mateo County,CA,NA,72.71844660194175,NA
94061,San Mateo County,CA,NA,54.85436893203883,NA
94103,San Francisco County,CA,NA,NA,17.231638418079097
94109,San Francisco County,CA,NA,44.07766990291262,NA
94110,San Francisco County,CA,NA,NA,26.129943502824858
94116,San Francisco County,CA,NA,NA,13.700564971751412
94118,San Francisco County,CA,NA,72.42718446601941,NA
94121,San Francisco County,CA,NA,NA,14.124293785310735
94122,San Francisco County,CA,NA,NA,7.344632768361582
94132,San Francisco County,CA,NA,NA,40.81920903954802
94403,San Mateo County,CA,NA,NA,13.983050847457626
94530,Contra Costa County,CA,NA,NA,43.92655367231638
94531,Contra Costa County,CA,NA,NA,43.22033898305085
94539,Alameda County,CA,NA,56.116504854368934,NA
94541,Alameda County,CA,NA,20.679611650485437,NA
94550,Alameda County,CA,NA,36.99029126213592,NA
94551,Alameda County,CA,NA,54.5631067961165,NA
94555,Alameda County,CA,NA,NA,93.22033898305084
94561,Contra Costa County,CA,NA,47.96116504854369,NA
94565,Contra Costa County,CA,84.57446808510637,NA,NA
94566,Alameda County,CA,NA,NA,49.85875706214689
94574,Napa County,CA,NA,NA,76.69491525423729
94585,Solano County,CA,NA,76.40776699029126,NA
94605,Alameda County,CA,NA,60.29126213592233,NA
94803,Contra Costa County,CA,NA,79.80582524271844,NA
94804,Contra Costa County,CA,NA,43.203883495145625,NA
94901,Marin County,CA,NA,86.31067961165049,NA
94947,Marin County,CA,NA,NA,31.07344632768362
94949,Marin County,CA,NA,NA,94.49152542372882
94952,Sonoma County,CA,NA,NA,50.42372881355932
95020,Santa Clara County,CA,39.361702127659576,NA,NA
95037,Santa Clara County,CA,63.829787234042556,NA,NA
95070,Santa Clara County,CA,NA,75.4368932038835,NA
95076,Santa Cruz County,CA,25,NA,NA
95110,Santa Clara County,CA,NA,99.51456310679612,NA
95112,Santa Clara County,CA,NA,NA,55.50847457627118
95119,Santa Clara County,CA,NA,96.11650485436894,NA
95120,Santa Clara County,CA,NA,NA,36.440677966101696
95125,Santa Clara County,CA,NA,NA,28.67231638418079
95131,Santa Clara County,CA,96.27659574468085,NA,NA
95148,Santa Clara County,CA,NA,NA,86.15819209039547
95220,San Joaquin County,CA,NA,NA,83.61581920903954
95242,San Joaquin County,CA,NA,54.757281553398066,NA
95340,Merced County,CA,NA,52.42718446601942,NA
95361,Stanislaus County,CA,NA,NA,54.51977401129944
95370,Tuolumne County,CA,NA,NA,8.333333333333332
95403,Sonoma County,CA,NA,NA,18.926553672316384
95476,Sonoma County,CA,NA,35.92233009708738,26.412429378531073
95482,Mendocino County,CA,NA,27.0873786407767,NA
95492,Sonoma County,CA,NA,60.09708737864078,NA
95503,Humboldt County,CA,NA,46.990291262135926,NA
95531,Del Norte County,CA,NA,51.45631067961165,NA
95603,Placer County,CA,NA,93.49514563106797,NA
95667,El Dorado County,CA,NA,4.563106796116505,NA
95677,Placer County,CA,NA,NA,84.18079096045197
95678,Placer County,CA,55.85106382978723,NA,NA
95682,El Dorado County,CA,NA,39.6116504854369,NA
95688,Solano County,CA,NA,NA,46.75141242937853
95693,Sacramento County,CA,NA,89.61165048543688,NA
95694,Yolo County,CA,NA,98.44660194174757,NA
95826,Sacramento County,CA,NA,85.04854368932038,NA
95831,Sacramento County,CA,NA,NA,62.994350282485875
95901,Yuba County,CA,NA,83.00970873786407,NA
95945,Nevada County,CA,NA,38.44660194174757,NA
95948,Butte County,CA,NA,NA,65.2542372881356
95966,Butte County,CA,NA,9.223300970873787,NA
95969,Butte County,CA,NA,7.281553398058252,NA
95973,Butte County,CA,30.319148936170215,NA,NA
95993,Sutter County,CA,NA,40.97087378640777,81.77966101694916
96021,Tehama County,CA,NA,96.31067961165049,NA
96097,Siskiyou County,CA,NA,59.126213592233015,NA
96161,Nevada County,CA,NA,NA,82.485875706214685
80013,Arapahoe County,CO,NA,60,43.92655367231638
80017,Arapahoe County,CO,NA,48.252427184466015,NA
80111,Arapahoe County,CO,NA,NA,72.74011299435028
80112,Arapahoe County,CO,NA,57.0873786407767,NA
80122,Arapahoe County,CO,NA,54.07766990291262,NA
80123,Jefferson County,CO,NA,52.81553398058253,NA
80128,Jefferson County,CO,NA,60.19417475728155,NA
80202,Denver County,CO,59.57446808510638,NA,NA
80235,Jefferson County,CO,NA,NA,94.77401129943502
80238,Denver County,CO,NA,NA,96.61016949152543
80247,Arapahoe County,CO,75,NA,NA
80302,Boulder County,CO,NA,72.52427184466019,NA
80304,Boulder County,CO,NA,NA,73.87005649717514
80517,Larimer County,CO,NA,48.252427184466015,NA
80909,El Paso County,CO,NA,NA,34.03954802259887
80918,El Paso County,CO,NA,35.14563106796116,NA
81005,Pueblo County,CO,NA,NA,38.13559322033898
81089,Huerfano County,CO,NA,NA,83.33333333333334
81401,Montrose County,CO,NA,41.262135922330096,NA
06010,Hartford County,CT,NA,2.7184466019417477,3.248587570621469
06032,Hartford County,CT,NA,74.85436893203884,NA
06037,Hartford County,CT,NA,60.970873786407765,NA
06066,Tolland County,CT,NA,55.33980582524271,NA
06106,Hartford County,CT,NA,14.660194174757283,NA
06112,Hartford County,CT,NA,NA,99.43502824858757
06238,Tolland County,CT,NA,63.689320388349515,NA
06277,Windham County,CT,NA,88.7378640776699,NA
06405,New Haven County,CT,NA,81.6504854368932,NA
06416,Middlesex County,CT,NA,77.37864077669903,NA
06437,New Haven County,CT,NA,25.8252427184466,NA
06451,New Haven County,CT,NA,38.83495145631068,NA
06457,Middlesex County,CT,NA,9.12621359223301,NA
06471,New Haven County,CT,NA,NA,69.63276836158192
06473,New Haven County,CT,NA,NA,24.576271186440678
06477,New Haven County,CT,NA,NA,72.59887005649718
06492,New Haven County,CT,NA,12.9126213592233,NA
06511,New Haven County,CT,NA,11.165048543689322,NA
06512,New Haven County,CT,NA,59.70873786407766,NA
06513,New Haven County,CT,26.595744680851062,NA,NA
06516,New Haven County,CT,NA,3.7864077669902914,NA
06518,New Haven County,CT,NA,78.3495145631068,NA
06708,New Haven County,CT,NA,35.33980582524272,NA
06790,Litchfield County,CT,53.191489361702125,67.28155339805825,NA
06878,Fairfield County,CT,NA,97.47572815533981,NA
19720,New Castle County,DE,NA,3.3980582524271843,NA
19904,Kent County,DE,NA,17.66990291262136,NA
19943,Kent County,DE,NA,NA,91.24293785310734
19952,Kent County,DE,NA,59.320388349514566,NA
19958,Sussex County,DE,40.95744680851064,NA,44.35028248587571
19970,Sussex County,DE,NA,NA,59.03954802259888
19971,Sussex County,DE,NA,45.63106796116505,NA
19977,Kent County,DE,NA,45.24271844660194,NA
32003,Clay County,FL,NA,50.970873786407765,NA
32040,Baker County,FL,NA,NA,97.45762711864407
32043,Clay County,FL,NA,NA,51.9774011299435
32055,Columbia County,FL,NA,87.57281553398059,NA
32071,Suwannee County,FL,NA,97.0873786407767,NA
32080,St. Johns County,FL,NA,NA,65.81920903954803
32084,St. Johns County,FL,NA,29.02912621359223,NA
32092,St. Johns County,FL,NA,40.29126213592233,63.84180790960452
32119,Volusia County,FL,NA,53.20388349514563,NA
32162,Sumter County,FL,NA,NA,2.11864406779661
32164,Flagler County,FL,NA,16.40776699029126,15.254237288135593
32174,Volusia County,FL,NA,12.135922330097088,NA
32206,Duval County,FL,NA,23.689320388349515,NA
32209,Duval County,FL,NA,NA,17.372881355932204
32210,Duval County,FL,NA,6.990291262135923,NA
32233,Duval County,FL,49.46808510638298,NA,NA
32347,Taylor County,FL,NA,NA,95.62146892655367
32455,Walton County,FL,NA,87.86407766990291,NA
32504,Escambia County,FL,NA,66.40776699029126,NA
32506,Escambia County,FL,NA,19.514563106796118,NA
32507,Escambia County,FL,NA,NA,19.491525423728813
32514,Escambia County,FL,NA,NA,10.16949152542373
32577,Escambia County,FL,NA,75.92233009708738,NA
32608,Alachua County,FL,NA,18.54368932038835,NA
32696,Levy County,FL,NA,50.3883495145631,NA
32702,Lake County,FL,NA,95.24271844660194,NA
32726,Lake County,FL,NA,49.320388349514566,NA
32735,Lake County,FL,NA,97.28155339805825,NA
32746,Seminole County,FL,NA,NA,95.48022598870057
32751,Orange County,FL,NA,NA,49.43502824858757
32765,Seminole County,FL,64.8936170212766,NA,NA
32811,Orange County,FL,NA,42.52427184466019,NA
32817,Orange County,FL,NA,68.83495145631068,NA
32920,Brevard County,FL,NA,73.59223300970874,NA
32926,Brevard County,FL,NA,45.14563106796117,NA
32953,Brevard County,FL,NA,NA,19.63276836158192
32955,Brevard County,FL,NA,NA,12.146892655367232
32966,Indian River County,FL,NA,NA,91.38418079096046
32967,Indian River County,FL,54.25531914893617,NA,NA
33014,Miami-Dade County,FL,NA,NA,26.55367231638418
33025,Broward County,FL,NA,NA,41.24293785310734
33028,Broward County,FL,NA,84.07766990291262,NA
33029,Broward County,FL,NA,NA,52.118644067796616
33050,Monroe County,FL,NA,NA,66.10169491525424
33133,Miami-Dade County,FL,NA,NA,30.7909604519774
33136,Miami-Dade County,FL,NA,83.59223300970874,NA
33139,Miami-Dade County,FL,NA,NA,43.64406779661017
33147,Miami-Dade County,FL,NA,35.43689320388349,NA
33160,Miami-Dade County,FL,NA,NA,73.30508474576271
33165,Miami-Dade County,FL,NA,NA,3.389830508474576
33196,Miami-Dade County,FL,NA,65.63106796116504,NA
33308,Broward County,FL,NA,16.990291262135923,NA
33426,Palm Beach County,FL,NA,NA,50.98870056497176
33462,Palm Beach County,FL,NA,76.01941747572816,NA
33463,Palm Beach County,FL,56.38297872340425,NA,NA
33480,Palm Beach County,FL,NA,NA,38.84180790960452
33496,Palm Beach County,FL,NA,40.77669902912621,8.615819209039548
33523,Pasco County,FL,NA,58.349514563106794,NA
33544,Pasco County,FL,NA,NA,93.92655367231639
33611,Hillsborough County,FL,NA,NA,56.355932203389834
33615,Hillsborough County,FL,NA,33.20388349514563,NA
33637,Hillsborough County,FL,NA,NA,82.7683615819209
33706,Pinellas County,FL,NA,71.35922330097088,NA
33761,Pinellas County,FL,NA,NA,41.38418079096045
33767,Pinellas County,FL,NA,84.1747572815534,NA
33801,Polk County,FL,NA,NA,56.92090395480226
33859,Polk County,FL,NA,69.51456310679612,NA
33870,Highlands County,FL,NA,NA,12.85310734463277
33872,Highlands County,FL,NA,39.90291262135922,NA
33880,Polk County,FL,NA,46.504854368932044,NA
33903,Lee County,FL,NA,NA,28.24858757062147
33905,Lee County,FL,NA,NA,77.96610169491525
33914,Lee County,FL,NA,15.922330097087379,NA
33919,Lee County,FL,NA,NA,4.0960451977401124
33928,Lee County,FL,NA,70.09708737864078,NA
34103,Collier County,FL,NA,NA,38.27683615819209
34105,Collier County,FL,NA,73.10679611650485,NA
34135,Lee County,FL,NA,NA,15.96045197740113
34203,Manatee County,FL,NA,76.99029126213593,NA
34238,Sarasota County,FL,NA,74.66019417475728,NA
34242,Sarasota County,FL,NA,84.27184466019418,NA
34243,Manatee County,FL,NA,NA,9.180790960451978
34291,Sarasota County,FL,NA,88.3495145631068,NA
34292,Sarasota County,FL,NA,82.03883495145631,14.548022598870055
34293,Sarasota County,FL,NA,34.46601941747573,NA
34432,Marion County,FL,NA,74.27184466019418,NA
34442,Citrus County,FL,82.97872340425532,NA,NA
34448,Citrus County,FL,NA,NA,82.06214689265536
34450,Citrus County,FL,NA,NA,67.37288135593221
34481,Marion County,FL,NA,NA,15.3954802259887
34606,Hernando County,FL,NA,74.9514563106796,NA
34607,Hernando County,FL,NA,NA,87.00564971751412
34613,Hernando County,FL,NA,NA,35.59322033898305
34637,Pasco County,FL,NA,97.86407766990291,NA
34683,Pinellas County,FL,NA,48.15533980582524,NA
34698,Pinellas County,FL,NA,NA,20.19774011299435
34761,Orange County,FL,NA,NA,34.88700564971751
34987,St. Lucie County,FL,92.5531914893617,NA,NA
34990,Martin County,FL,NA,NA,5.084745762711865
30012,Rockdale County,GA,NA,50.970873786407765,NA
30014,Newton County,GA,NA,32.42718446601941,NA
30021,DeKalb County,GA,NA,NA,98.1638418079096
30022,Fulton County,GA,NA,NA,52.40112994350282
30024,Gwinnett County,GA,NA,61.74757281553398,NA
30030,DeKalb County,GA,NA,NA,48.87005649717514
30039,Gwinnett County,GA,NA,NA,44.77401129943503
30043,Gwinnett County,GA,NA,NA,46.46892655367232
30064,Cobb County,GA,NA,72.13592233009709,NA
30066,Cobb County,GA,NA,63.980582524271846,NA
30114,Cherokee County,GA,NA,29.41747572815534,NA
30115,Cherokee County,GA,NA,38.932038834951456,NA
30161,Floyd County,GA,NA,22.233009708737864,NA
30223,Spalding County,GA,46.27659574468085,NA,NA
30230,Troup County,GA,NA,80,NA
30263,Coweta County,GA,NA,NA,31.779661016949152
30305,Fulton County,GA,NA,NA,40.11299435028249
30525,Rabun County,GA,NA,NA,94.2090395480226
30642,Greene County,GA,NA,NA,74.29378531073446
30815,Richmond County,GA,NA,15.048543689320388,55.225988700564976
30830,Burke County,GA,NA,62.33009708737865,NA
31204,Bibb County,GA,NA,NA,39.26553672316384
31537,Charlton County,GA,NA,98.05825242718447,NA
31636,Lowndes County,GA,NA,62.81553398058253,NA
31804,Harris County,GA,NA,91.94174757281553,NA
96744,Honolulu County,HI,NA,3.0097087378640777,NA
96753,Maui County,HI,NA,NA,90.3954802259887
96755,Hawaii County,HI,NA,98.83495145631068,NA
96782,Honolulu County,HI,NA,NA,12.429378531073446
96789,Honolulu County,HI,NA,NA,13.418079096045199
96815,Honolulu County,HI,NA,NA,23.870056497175142
96819,Honolulu County,HI,NA,NA,24.576271186440678
83201,Bannock County,ID,30.851063829787233,NA,NA
83221,Bingham County,ID,NA,NA,47.31638418079096
83301,Twin Falls County,ID,NA,NA,4.23728813559322
83318,Cassia County,ID,NA,80.29126213592232,NA
83402,Bonneville County,ID,NA,NA,63.2768361581921
83501,Nez Perce County,ID,NA,42.81553398058253,NA
83605,Canyon County,ID,NA,24.466019417475728,NA
83616,Ada County,ID,NA,NA,48.44632768361582
83634,Ada County,ID,NA,NA,88.4180790960452
83638,Valley County,ID,NA,77.96116504854369,NA
83642,Ada County,ID,23.404255319148938,NA,NA
83686,Canyon County,ID,NA,28.54368932038835,NA
83687,Canyon County,ID,29.25531914893617,NA,NA
83704,Ada County,ID,NA,NA,2.6836158192090394
83709,Ada County,ID,NA,5.048543689320388,NA
83713,Ada County,ID,NA,51.6504854368932,18.220338983050848
83815,Kootenai County,ID,NA,20.58252427184466,NA
60016,Cook County,IL,NA,43.30097087378641,NA
60025,Cook County,IL,NA,5.436893203883495,NA
60031,Lake County,IL,NA,23.398058252427184,NA
60035,Lake County,IL,NA,14.466019417475728,NA
60045,Lake County,IL,NA,NA,16.52542372881356
60046,Lake County,IL,NA,26.407766990291265,NA
60051,McHenry County,IL,NA,NA,37.71186440677966
60062,Cook County,IL,NA,5.728155339805825,NA
60068,Cook County,IL,NA,36.50485436893204,23.587570621468927
60073,Lake County,IL,NA,81.84466019417475,NA
60077,Cook County,IL,NA,NA,40.25423728813559
60083,Lake County,IL,NA,NA,71.89265536723164
60089,Lake County,IL,NA,NA,20.903954802259886
60090,Cook County,IL,62.76595744680851,NA,NA
60103,DuPage County,IL,NA,25.631067961165048,NA
60106,DuPage County,IL,69.14893617021278,NA,71.61016949152543
60120,Kane County,IL,NA,NA,53.672316384180796
60123,Kane County,IL,NA,18.155339805825243,NA
60126,DuPage County,IL,NA,58.93203883495146,NA
60133,Cook County,IL,NA,49.90291262135923,NA
60153,Cook County,IL,NA,NA,52.96610169491526
60401,Will County,IL,NA,80.67961165048544,NA
60402,Cook County,IL,NA,40,34.32203389830508
60438,Cook County,IL,52.659574468085104,NA,NA
60451,Will County,IL,NA,16.796116504854368,NA
60453,Cook County,IL,NA,8.446601941747572,NA
60487,Cook County,IL,NA,40.48543689320388,NA
60516,DuPage County,IL,NA,67.66990291262135,NA
60517,DuPage County,IL,NA,NA,46.04519774011299
60532,DuPage County,IL,NA,NA,44.2090395480226
60605,Cook County,IL,NA,46.601941747572816,NA
60610,Cook County,IL,NA,22.330097087378643,57.485875706214685
60612,Cook County,IL,NA,NA,37.14689265536723
60613,Cook County,IL,34.57446808510639,NA,40.536723163841806
60617,Cook County,IL,NA,2.4271844660194173,1.977401129943503
60618,Cook County,IL,NA,21.16504854368932,NA
60620,Cook County,IL,NA,NA,27.82485875706215
60624,Cook County,IL,NA,80.7766990291262,NA
60633,Cook County,IL,NA,69.2233009708738,61.440677966101696
60634,Cook County,IL,NA,8.737864077669903,9.6045197740113
60637,Cook County,IL,NA,13.398058252427184,NA
60638,Cook County,IL,NA,8.058252427184467,NA
60644,Cook County,IL,NA,13.300970873786408,NA
60646,Cook County,IL,NA,45.43689320388349,NA
60649,Cook County,IL,NA,NA,21.75141242937853
60707,Cook County,IL,NA,62.912621359223294,NA
60901,Kankakee County,IL,NA,14.174757281553399,NA
61081,Whiteside County,IL,NA,16.893203883495143,NA
61108,Winnebago County,IL,NA,NA,28.10734463276836
61554,Tazewell County,IL,NA,11.747572815533982,NA
61801,Champaign County,IL,NA,NA,47.740112994350284
61821,Champaign County,IL,NA,NA,14.40677966101695
61853,Champaign County,IL,NA,91.16504854368932,NA
61883,Vermilion County,IL,NA,NA,94.63276836158192
61920,Coles County,IL,NA,52.33009708737863,NA
62040,Madison County,IL,NA,10.58252427184466,NA
62221,St. Clair County,IL,NA,78.25242718446603,NA
62471,Fayette County,IL,NA,56.310679611650485,NA
62526,Macon County,IL,NA,7.3786407766990285,NA
62535,Macon County,IL,NA,99.90291262135922,NA
62549,Macon County,IL,NA,NA,86.4406779661017
46013,Madison County,IN,NA,NA,34.74576271186441
46016,Madison County,IN,NA,31.844660194174757,NA
46034,Hamilton County,IN,NA,99.70873786407766,NA
46041,Clinton County,IN,40.95744680851064,NA,NA
46055,Hancock County,IN,NA,NA,98.0225988700565
46123,Hendricks County,IN,NA,NA,35.16949152542373
46140,Hancock County,IN,NA,NA,75
46158,Morgan County,IN,85.1063829787234,NA,NA
46176,Shelby County,IN,NA,11.747572815533982,NA
46226,Marion County,IN,NA,16.50485436893204,NA
46229,Marion County,IN,NA,71.55339805825243,NA
46307,Lake County,IN,NA,NA,23.022598870056495
46319,Lake County,IN,NA,27.766990291262132,NA
46323,Lake County,IN,NA,19.80582524271845,NA
46356,Lake County,IN,37.234042553191486,NA,NA
46385,Porter County,IN,NA,3.4951456310679614,25
46410,Lake County,IN,12.76595744680851,NA,NA
46544,St. Joseph County,IN,NA,56.99029126213592,NA
46563,Marshall County,IN,NA,NA,22.74011299435028
46619,St. Joseph County,IN,NA,NA,96.89265536723164
46725,Whitley County,IN,NA,NA,34.32203389830508
46750,Huntington County,IN,NA,80.58252427184466,NA
46774,Allen County,IN,NA,NA,62.14689265536724
46787,Whitley County,IN,NA,99.80582524271846,NA
46804,Allen County,IN,NA,26.796116504854368,NA
46808,Allen County,IN,NA,62.62135922330098,NA
46814,Allen County,IN,NA,72.81553398058253,NA
46825,Allen County,IN,NA,82.13592233009709,NA
46835,Allen County,IN,NA,NA,29.80225988700565
46947,Cass County,IN,NA,43.398058252427184,NA
46953,Grant County,IN,48.93617021276596,NA,NA
46962,Wabash County,IN,NA,NA,71.1864406779661
46970,Miami County,IN,NA,23.59223300970874,70.76271186440678
47006,Ripley County,IN,NA,88.15533980582524,NA
47167,Washington County,IN,NA,49.51456310679612,NA
47201,Bartholomew County,IN,NA,13.203883495145632,NA
47203,Bartholomew County,IN,NA,NA,16.101694915254235
47274,Jackson County,IN,NA,NA,33.05084745762712
47371,Jay County,IN,NA,32.33009708737864,NA
47374,Wayne County,IN,NA,4.077669902912621,15.819209039548024
47446,Lawrence County,IN,NA,NA,79.09604519774011
47620,Posey County,IN,NA,64.95145631067962,NA
47712,Vanderburgh County,IN,NA,77.47572815533981,NA
47715,Vanderburgh County,IN,NA,NA,16.94915254237288
47904,Tippecanoe County,IN,NA,77.08737864077669,NA
47909,Tippecanoe County,IN,NA,45.922330097087375,38.983050847457626
47978,Jasper County,IN,NA,NA,94.91525423728814
50316,Polk County,IA,77.12765957446808,NA,NA
50323,Dallas County,IA,NA,NA,92.09039548022598
50613,Black Hawk County,IA,NA,79.32038834951456,NA
51108,Woodbury County,IA,NA,97.18446601941747,NA
51250,Sioux County,IA,NA,NA,80.7909604519774
51401,Carroll County,IA,NA,NA,60.59322033898306
52136,Howard County,IA,NA,NA,99.29378531073446
52349,Benton County,IA,NA,NA,70.62146892655367
52501,Wapello County,IA,NA,31.456310679611647,31.92090395480226
52577,Mahaska County,IA,NA,43.689320388349515,NA
52627,Lee County,IA,NA,44.5631067961165,NA
66006,Douglas County,KS,NA,NA,97.74011299435028
66436,Jackson County,KS,97.3404255319149,NA,NA
66614,Shawnee County,KS,NA,75.72815533980582,NA
66743,Crawford County,KS,97.87234042553192,NA,NA
67002,Butler County,KS,NA,98.15533980582525,NA
67010,Butler County,KS,NA,87.66990291262135,NA
67550,Pawnee County,KS,NA,96.79611650485437,NA
67871,Scott County,KS,NA,NA,93.64406779661016
40203,Jefferson County,KY,NA,40.09708737864078,NA
40207,Jefferson County,KY,NA,34.1747572815534,NA
40241,Jefferson County,KY,NA,41.359223300970875,NA
40342,Anderson County,KY,NA,NA,92.514124293785315
40419,Lincoln County,KY,NA,94.46601941747574,NA
41018,Kenton County,KY,NA,27.28155339805825,NA
41076,Campbell County,KY,NA,NA,90.67796610169492
41101,Boyd County,KY,NA,NA,23.30508474576271
41139,Greenup County,KY,NA,85.63106796116506,NA
41143,Carter County,KY,NA,NA,59.463276836158194
41164,Carter County,KY,39.8936170212766,NA,NA
41175,Greenup County,KY,NA,NA,62.85310734463276
41501,Pike County,KY,NA,14.854368932038836,NA
41572,Pike County,KY,NA,NA,98.87005649717514
42127,Barren County,KY,NA,94.27184466019418,NA
42141,Barren County,KY,NA,8.737864077669903,NA
42164,Allen County,KY,47.340425531914896,NA,NA
42276,Logan County,KY,NA,NA,84.88700564971752
42320,Ohio County,KY,NA,82.81553398058253,NA
42345,Muhlenberg County,KY,NA,89.70873786407768,NA
42544,Pulaski County,KY,NA,80.87378640776699,NA
42701,Hardin County,KY,NA,41.16504854368932,8.47457627118644
70003,Jefferson Parish,LA,NA,24.174757281553397,NA
70006,Jefferson Parish,LA,NA,89.2233009708738,NA
70065,Jefferson Parish,LA,NA,NA,3.531073446327684
70068,St. John the Baptist Parish,LA,45.21276595744681,NA,NA
70122,Orleans Parish,LA,NA,42.71844660194174,73.0225988700565
70123,Jefferson Parish,LA,NA,55.92233009708738,10.734463276836157
70363,Terrebonne Parish,LA,NA,31.941747572815533,NA
70373,Lafourche Parish,LA,61.702127659574465,NA,NA
70433,St. Tammany Parish,LA,NA,92.91262135922331,NA
70435,St. Tammany Parish,LA,NA,89.02912621359224,NA
70437,St. Tammany Parish,LA,NA,NA,96.045197740113
70438,Washington Parish,LA,20.212765957446805,NA,NA
70458,St. Tammany Parish,LA,NA,NA,11.581920903954803
70461,St. Tammany Parish,LA,NA,56.601941747572816,NA
70471,St. Tammany Parish,LA,NA,22.135922330097088,20.76271186440678
70501,Lafayette Parish,LA,NA,NA,36.15819209039548
70517,St. Martin Parish,LA,19.680851063829788,NA,NA
70520,Lafayette Parish,LA,NA,46.699029126213595,NA
70526,Acadia Parish,LA,32.4468085106383,NA,NA
70532,Jefferson Davis Parish,LA,NA,NA,100
70570,St. Landry Parish,LA,NA,11.650485436893204,NA
70578,Acadia Parish,LA,NA,NA,70.05649717514125
70665,Calcasieu Parish,LA,NA,83.7864077669903,NA
70714,East Baton Rouge Parish,LA,64.36170212765957,NA,NA
70726,Livingston Parish,LA,NA,NA,24.858757062146893
70748,East Feliciana Parish,LA,NA,NA,86.86440677966102
70791,East Baton Rouge Parish,LA,21.27659574468085,NA,NA
70808,East Baton Rouge Parish,LA,NA,NA,45.62146892655367
70816,East Baton Rouge Parish,LA,33.51063829787234,NA,NA
71047,Caddo Parish,LA,NA,94.36893203883496,NA
71106,Caddo Parish,LA,NA,45.8252427184466,NA
71203,Ouachita Parish,LA,NA,24.951456310679614,NA
71291,Ouachita Parish,LA,NA,68.54368932038835,NA
03903,York County,ME,NA,78.64077669902912,NA
03909,York County,ME,NA,NA,43.07909604519774
04002,York County,ME,NA,47.0873786407767,NA
04005,York County,ME,NA,5.339805825242718,NA
04009,Cumberland County,ME,NA,NA,76.9774011299435
04101,Cumberland County,ME,NA,26.116504854368934,NA
04102,Cumberland County,ME,NA,NA,64.40677966101694
04103,Cumberland County,ME,NA,23.009708737864077,NA
04412,Penobscot County,ME,NA,76.40776699029126,NA
04605,Hancock County,ME,NA,24.854368932038835,NA
04849,Waldo County,ME,NA,NA,92.37288135593221
04976,Somerset County,ME,NA,17.281553398058254,73.72881355932203
20659,St. Mary's County,MD,NA,NA,83.75706214689266
20815,Montgomery County,MD,NA,NA,40.3954802259887
20902,Montgomery County,MD,NA,87.96116504854369,NA
20906,Montgomery County,MD,NA,39.126213592233015,NA
21009,Harford County,MD,NA,70.19417475728156,NA
21015,Harford County,MD,76.59574468085107,NA,NA
21042,Howard County,MD,NA,NA,96.32768361581921
21046,Howard County,MD,NA,NA,96.75141242937853
21202,Baltimore city,MD,NA,NA,79.80225988700565
21204,Baltimore County,MD,93.08510638297872,NA,NA
21208,Baltimore County,MD,NA,NA,47.45762711864407
21212,Baltimore city,MD,NA,33.49514563106796,NA
21218,Baltimore city,MD,81.91489361702128,NA,33.89830508474576
21532,Allegany County,MD,93.61702127659575,NA,NA
21811,Worcester County,MD,NA,63.30097087378641,NA
21921,Cecil County,MD,NA,6.213592233009709,NA
01020,Hampden County,MA,NA,NA,16.38418079096045
01040,Hampden County,MA,NA,0,1.2711864406779663
01069,Hampden County,MA,NA,77.18446601941747,NA
01077,Hampden County,MA,NA,95.33980582524272,NA
01095,Hampden County,MA,NA,NA,18.07909604519774
01201,Berkshire County,MA,NA,NA,0.9887005649717515
01230,Berkshire County,MA,NA,NA,61.7231638418079
01238,Berkshire County,MA,NA,NA,94.35028248587571
01240,Berkshire County,MA,NA,66.50485436893204,NA
01247,Berkshire County,MA,NA,9.805825242718447,NA
01432,Middlesex County,MA,NA,92.13592233009709,NA
01453,Worcester County,MA,NA,0.8737864077669903,19.06779661016949
01460,Middlesex County,MA,NA,61.165048543689316,NA
01462,Worcester County,MA,57.446808510638306,NA,NA
01475,Worcester County,MA,NA,82.62135922330097,NA
01527,Worcester County,MA,NA,NA,35.451977401129945
01566,Worcester County,MA,68.08510638297872,NA,NA
01570,Worcester County,MA,28.723404255319153,NA,NA
01603,Worcester County,MA,3.1914893617021276,NA,NA
01604,Worcester County,MA,NA,37.57281553398058,22.033898305084744
01605,Worcester County,MA,NA,NA,0.5649717514124294
01606,Worcester County,MA,NA,NA,11.72316384180791
01609,Worcester County,MA,NA,5.922330097087379,NA
01701,Middlesex County,MA,NA,NA,9.463276836158192
01776,Middlesex County,MA,NA,NA,58.61581920903954
01801,Middlesex County,MA,NA,11.262135922330096,32.20338983050847
01810,Essex County,MA,NA,51.165048543689316,NA
01824,Middlesex County,MA,NA,34.368932038834956,NA
01844,Essex County,MA,NA,3.5922330097087376,49.152542372881356
01867,Middlesex County,MA,NA,9.805825242718447,NA
01880,Middlesex County,MA,NA,NA,14.689265536723164
01886,Middlesex County,MA,NA,69.90291262135922,NA
01913,Essex County,MA,NA,10,NA
01915,Essex County,MA,NA,55.63106796116505,NA
01945,Essex County,MA,NA,NA,82.20338983050848
02026,Norfolk County,MA,11.170212765957446,NA,NA
02043,Plymouth County,MA,NA,50.873786407766985,NA
02067,Norfolk County,MA,85.63829787234043,NA,NA
02115,Suffolk County,MA,NA,NA,4.519774011299435
02121,Suffolk County,MA,NA,0.7766990291262136,NA
02122,Suffolk County,MA,NA,1.4563106796116505,NA
02124,Suffolk County,MA,NA,0.1941747572815534,NA
02128,Suffolk County,MA,8.51063829787234,1.650485436893204,NA
02129,Suffolk County,MA,NA,28.640776699029125,NA
02131,Suffolk County,MA,2.6595744680851063,NA,NA
02143,Middlesex County,MA,11.702127659574469,NA,NA
02144,Middlesex County,MA,NA,10.87378640776699,NA
02145,Middlesex County,MA,NA,10.097087378640776,NA
02148,Middlesex County,MA,NA,0.3883495145631068,NA
02149,Middlesex County,MA,0.5319148936170213,NA,NA
02150,Suffolk County,MA,NA,NA,29.51977401129944
02151,Suffolk County,MA,0,NA,6.497175141242938
02155,Middlesex County,MA,NA,0.9708737864077669,NA
02169,Norfolk County,MA,NA,NA,51.836158192090394
02180,Middlesex County,MA,NA,NA,12.994350282485875
02301,Plymouth County,MA,NA,0.0970873786407767,NA
02332,Plymouth County,MA,NA,64.66019417475728,52.824858757062145
02356,Bristol County,MA,NA,66.2135922330097,NA
02360,Plymouth County,MA,NA,0.5825242718446602,NA
02368,Norfolk County,MA,NA,52.13592233009708,NA
02420,Middlesex County,MA,NA,NA,45.90395480225989
02445,Norfolk County,MA,NA,NA,32.48587570621469
02452,Middlesex County,MA,NA,NA,50.98870056497176
02453,Middlesex County,MA,NA,16.213592233009706,NA
02459,Middlesex County,MA,NA,NA,13.559322033898304
02465,Middlesex County,MA,NA,NA,43.50282485875706
02467,Norfolk County,MA,NA,NA,32.909604519774014
02472,Middlesex County,MA,NA,7.087378640776699,86.5819209039548
02492,Norfolk County,MA,NA,29.126213592233007,NA
02540,Barnstable County,MA,NA,91.84466019417475,NA
02556,Barnstable County,MA,NA,99.22330097087378,NA
02632,Barnstable County,MA,NA,NA,37.570621468926554
02721,Bristol County,MA,NA,4.951456310679612,NA
02767,Bristol County,MA,NA,41.94174757281554,NA
02790,Bristol County,MA,27.127659574468083,NA,NA
48038,Macomb County,MI,NA,30,4.943502824858757
48040,St. Clair County,MI,76.06382978723404,NA,NA
48044,Macomb County,MI,14.361702127659576,NA,NA
48047,Macomb County,MI,NA,15.728155339805824,NA
48066,Macomb County,MI,NA,NA,9.322033898305085
48067,Oakland County,MI,NA,43.592233009708735,NA
48075,Oakland County,MI,NA,69.12621359223301,NA
48079,St. Clair County,MI,NA,60.48543689320388,NA
48081,Macomb County,MI,NA,25.339805825242717,NA
48092,Macomb County,MI,NA,22.62135922330097,NA
48098,Oakland County,MI,NA,91.6504854368932,NA
48114,Livingston County,MI,NA,NA,55.7909604519774
48117,Monroe County,MI,NA,NA,76.12994350282486
48122,Wayne County,MI,NA,91.35922330097087,NA
48127,Wayne County,MI,NA,21.262135922330096,NA
48134,Wayne County,MI,NA,NA,44.632768361581924
48154,Wayne County,MI,NA,7.572815533980583,NA
48158,Washtenaw County,MI,NA,94.07766990291262,NA
48161,Monroe County,MI,13.297872340425531,21.35922330097087,NA
48162,Monroe County,MI,NA,3.300970873786408,NA
48168,Wayne County,MI,NA,75.14563106796116,NA
48169,Livingston County,MI,NA,68.05825242718446,NA
48180,Wayne County,MI,4.787234042553192,NA,NA
48183,Wayne County,MI,43.08510638297872,NA,NA
48187,Wayne County,MI,17.02127659574468,2.524271844660194,NA
48207,Wayne County,MI,NA,34.95145631067961,NA
48214,Wayne County,MI,NA,25.922330097087375,NA
48219,Wayne County,MI,NA,NA,17.09039548022599
48228,Wayne County,MI,NA,7.475728155339806,NA
48229,Wayne County,MI,66.48936170212765,NA,NA
48236,Wayne County,MI,36.702127659574465,NA,NA
48301,Oakland County,MI,NA,74.1747572815534,NA
48302,Oakland County,MI,NA,NA,31.92090395480226
48310,Macomb County,MI,NA,12.815533980582524,NA
48312,Macomb County,MI,32.97872340425532,NA,NA
48322,Oakland County,MI,NA,NA,5.2259887005649714
48324,Oakland County,MI,67.02127659574468,NA,NA
48327,Oakland County,MI,37.765957446808514,NA,NA
48328,Oakland County,MI,NA,30.87378640776699,NA
48433,Genesee County,MI,NA,NA,87.28813559322035
48601,Saginaw County,MI,NA,NA,7.062146892655368
48603,Saginaw County,MI,NA,NA,11.299435028248588
48632,Clare County,MI,NA,NA,82.7683615819209
48657,Midland County,MI,NA,69.6116504854369,NA
48730,Iosco County,MI,NA,NA,89.54802259887006
48732,Bay County,MI,NA,80.97087378640776,NA
48734,Saginaw County,MI,86.70212765957447,NA,NA
48739,Iosco County,MI,NA,92.03883495145631,NA
48757,Tuscola County,MI,NA,99.32038834951456,NA
48763,Iosco County,MI,NA,79.02912621359224,NA
48821,Eaton County,MI,NA,86.79611650485437,NA
48823,Ingham County,MI,40.42553191489361,NA,NA
48849,Ionia County,MI,NA,79.02912621359224,NA
48858,Isabella County,MI,NA,6.310679611650485,10.310734463276836
48864,Ingham County,MI,NA,79.70873786407768,NA
48867,Shiawassee County,MI,NA,6.699029126213592,NA
48888,Montcalm County,MI,NA,NA,74.71751412429379
48910,Ingham County,MI,NA,13.883495145631066,NA
49001,Kalamazoo County,MI,NA,56.21359223300971,NA
49009,Kalamazoo County,MI,NA,37.66990291262136,NA
49015,Calhoun County,MI,NA,30.29126213592233,NA
49037,Calhoun County,MI,NA,32.81553398058252,NA
49038,Berrien County,MI,NA,65.72815533980582,NA
49046,Barry County,MI,NA,59.22330097087378,NA
49068,Calhoun County,MI,NA,NA,36.86440677966102
49302,Kent County,MI,NA,NA,92.2316384180791
49341,Kent County,MI,NA,26.50485436893204,25.847457627118644
49348,Allegan County,MI,NA,48.252427184466015,NA
49401,Ottawa County,MI,NA,NA,90.96045197740112
49408,Allegan County,MI,NA,86.89320388349515,NA
49418,Kent County,MI,NA,NA,27.25988700564972
49423,Ottawa County,MI,NA,38.15533980582524,NA
49441,Muskegon County,MI,NA,4.271844660194175,2.401129943502825
49442,Muskegon County,MI,NA,NA,7.909604519774012
49454,Mason County,MI,NA,NA,97.17514124293785
49456,Ottawa County,MI,NA,28.932038834951456,NA
49503,Kent County,MI,NA,37.4757281553398,NA
49507,Kent County,MI,NA,23.980582524271846,NA
49548,Kent County,MI,NA,14.757281553398057,NA
49660,Manistee County,MI,NA,65.0485436893204,NA
49684,Grand Traverse County,MI,63.297872340425535,NA,NA
49709,Montmorency County,MI,NA,86.99029126213593,NA
49721,Cheboygan County,MI,NA,NA,73.87005649717514
49765,Presque Isle County,MI,NA,NA,78.53107344632768
49855,Marquette County,MI,NA,18.446601941747574,NA
49868,Luce County,MI,NA,NA,68.22033898305084
55033,Dakota County,MN,NA,56.89320388349515,NA
55045,Chisago County,MN,NA,76.01941747572816,NA
55128,Washington County,MN,NA,NA,48.728813559322035
55129,Washington County,MN,NA,88.05825242718447,NA
55303,Anoka County,MN,NA,NA,41.38418079096045
55336,McLeod County,MN,NA,NA,47.88135593220339
55347,Hennepin County,MN,NA,63.49514563106796,NA
55350,McLeod County,MN,NA,68.73786407766991,NA
55387,Carver County,MN,NA,NA,87.85310734463276
55398,Sherburne County,MN,NA,NA,97.59887005649718
55404,Hennepin County,MN,NA,NA,39.26553672316384
55406,Hennepin County,MN,NA,29.22330097087379,67.93785310734464
55418,Hennepin County,MN,NA,NA,49.85875706214689
55425,Hennepin County,MN,NA,97.37864077669903,NA
55746,St. Louis County,MN,NA,32.9126213592233,NA
55803,St. Louis County,MN,NA,33.300970873786405,NA
55808,St. Louis County,MN,NA,77.18446601941747,NA
55811,St. Louis County,MN,NA,5.825242718446602,NA
55975,Fillmore County,MN,NA,92.42718446601941,NA
55987,Winona County,MN,NA,3.1067961165048543,NA
56031,Martin County,MN,NA,NA,44.49152542372881
56073,Brown County,MN,NA,NA,2.5423728813559325
56081,Watonwan County,MN,NA,73.7864077669903,NA
56097,Faribault County,MN,NA,98.64077669902913,NA
56308,Douglas County,MN,NA,44.85436893203884,53.53107344632768
56364,Morrison County,MN,NA,NA,77.25988700564972
56401,Crow Wing County,MN,NA,30.388349514563107,NA
56425,Crow Wing County,MN,NA,NA,36.5819209039548
56468,Crow Wing County,MN,NA,NA,71.045197740113
56501,Becker County,MN,NA,28.349514563106798,21.610169491525426
56537,Otter Tail County,MN,NA,NA,18.502824858757062
56560,Clay County,MN,NA,27.0873786407767,NA
38654,DeSoto County,MS,31.914893617021278,NA,32.6271186440678
38965,Yalobusha County,MS,NA,76.69902912621359,NA
39110,Madison County,MS,NA,61.844660194174764,NA
39301,Lauderdale County,MS,NA,80,NA
39466,Pearl River County,MS,NA,72.62135922330097,NA
39501,Harrison County,MS,NA,53.592233009708735,NA
39532,Harrison County,MS,NA,NA,19.915254237288135
39759,Oktibbeha County,MS,NA,56.407766990291265,NA
63017,St. Louis County,MO,NA,12.427184466019417,NA
63020,Jefferson County,MO,NA,NA,52.259887005649716
63033,St. Louis County,MO,NA,NA,8.192090395480225
63122,St. Louis County,MO,NA,NA,10.875706214689265
63301,St. Charles County,MO,20.74468085106383,3.8834951456310676,3.1073446327683616
63376,St. Charles County,MO,NA,NA,5.649717514124294
63385,St. Charles County,MO,NA,45.728155339805824,NA
63401,Marion County,MO,NA,50.58252427184466,76.55367231638418
63640,St. Francois County,MO,NA,35.53398058252427,NA
63701,Cape Girardeau County,MO,NA,39.41747572815534,NA
63801,Scott County,MO,NA,29.320388349514566,NA
64056,Jackson County,MO,NA,55.72815533980583,NA
64130,Jackson County,MO,NA,NA,37.429378531073446
64429,Clinton County,MO,NA,52.62135922330097,NA
64507,Buchanan County,MO,NA,NA,88.2768361581921
64683,Grundy County,MO,NA,NA,63.559322033898304
64801,Jasper County,MO,NA,15.63106796116505,72.45762711864407
64850,Newton County,MO,NA,22.42718446601942,NA
65301,Pettis County,MO,NA,8.349514563106796,NA
65340,Saline County,MO,NA,61.6504854368932,NA
65560,Dent County,MO,NA,NA,36.016949152542374
65672,Taney County,MO,95.74468085106383,NA,NA
65706,Webster County,MO,NA,NA,62.42937853107344
65803,Greene County,MO,NA,66.99029126213593,NA
65810,Greene County,MO,NA,NA,64.54802259887006
59068,Carbon County,MT,NA,NA,95.19774011299435
59270,Richland County,MT,NA,NA,58.61581920903954
59301,Custer County,MT,NA,73.20388349514563,NA
59405,Cascade County,MT,NA,51.747572815533985,9.03954802259887
59634,Jefferson County,MT,NA,98.7378640776699,NA
59715,Gallatin County,MT,NA,NA,58.89830508474576
59718,Gallatin County,MT,NA,75.4368932038835,91.80790960451978
59801,Missoula County,MT,NA,68.3495145631068,NA
59901,Flathead County,MT,NA,2.912621359223301,1.1299435028248588
68046,Sarpy County,NE,NA,NA,78.954802259887
68116,Douglas County,NE,NA,NA,73.1638418079096
68154,Douglas County,NE,NA,48.54368932038835,NA
68310,Gage County,NE,NA,53.10679611650485,NA
68632,Butler County,NE,NA,NA,97.88135593220339
69162,Cheyenne County,NE,NA,NA,71.46892655367232
69301,Box Butte County,NE,NA,70.48543689320388,NA
89113,Clark County,NV,NA,79.51456310679612,NA
89134,Clark County,NV,NA,NA,16.242937853107346
89135,Clark County,NV,NA,65.53398058252428,59.463276836158194
89406,Churchill County,NV,NA,30.970873786407765,NA
89423,Douglas County,NV,NA,NA,56.779661016949156
89436,Washoe County,NV,NA,12.524271844660195,NA
89447,Lyon County,NV,NA,86.01941747572816,NA
89506,Washoe County,NV,23.93617021276596,NA,NA
89511,Washoe County,NV,NA,NA,77.82485875706215
89521,Washoe County,NV,NA,NA,69.63276836158192
89523,Washoe County,NV,60.63829787234043,NA,NA
03042,Rockingham County,NH,NA,85.24271844660194,NA
03052,Hillsborough County,NH,NA,NA,81.49717514124293
03079,Rockingham County,NH,NA,54.46601941747573,NA
03102,Hillsborough County,NH,NA,16.699029126213592,8.898305084745763
03104,Hillsborough County,NH,21.808510638297875,NA,29.23728813559322
03235,Merrimack County,NH,NA,71.6504854368932,NA
03244,Hillsborough County,NH,NA,86.69902912621359,NA
03253,Belknap County,NH,NA,96.50485436893203,NA
03257,Merrimack County,NH,NA,90.67961165048544,NA
03301,Merrimack County,NH,NA,67.37864077669903,85.87570621468926
03431,Cheshire County,NH,NA,NA,57.06214689265536
03446,Cheshire County,NH,NA,NA,96.46892655367232
03743,Sullivan County,NH,62.23404255319149,75.24271844660194,NA
03766,Grafton County,NH,NA,NA,50.706214689265536
03820,Strafford County,NH,27.659574468085108,NA,14.26553672316384
03842,Rockingham County,NH,NA,NA,66.38418079096046
07005,Morris County,NJ,NA,NA,82.34463276836158
07006,Essex County,NJ,NA,NA,49.57627118644068
07039,Essex County,NJ,NA,NA,32.6271186440678
07071,Bergen County,NJ,NA,41.456310679611654,NA
07112,Essex County,NJ,7.446808510638298,72.33009708737865,NA
07424,Passaic County,NJ,NA,55.14563106796116,NA
07501,Passaic County,NJ,NA,17.57281553398058,NA
07631,Bergen County,NJ,NA,24.368932038834952,NA
07652,Bergen County,NJ,NA,NA,13.27683615819209
07675,Bergen County,NJ,NA,81.06796116504854,NA
07701,Monmouth County,NJ,NA,35.24271844660194,NA
07733,Monmouth County,NJ,NA,NA,66.38418079096046
07734,Monmouth County,NJ,NA,73.30097087378641,NA
07739,Monmouth County,NJ,NA,NA,87.14689265536724
07746,Monmouth County,NJ,NA,NA,69.35028248587571
07747,Monmouth County,NJ,NA,39.32038834951456,NA
07748,Monmouth County,NJ,NA,NA,64.68926553672316
07866,Morris County,NJ,NA,NA,78.24858757062147
07960,Morris County,NJ,NA,21.844660194174757,NA
08028,Gloucester County,NJ,NA,84.85436893203884,NA
08034,Camden County,NJ,NA,44.5631067961165,NA
08043,Camden County,NJ,NA,23.106796116504853,NA
08055,Burlington County,NJ,NA,59.80582524271845,NA
08085,Gloucester County,NJ,NA,50.19417475728155,NA
08096,Gloucester County,NJ,NA,NA,20.62146892655367
08201,Atlantic County,NJ,NA,NA,70.33898305084746
08204,Cape May County,NJ,NA,NA,33.75706214689266
08205,Atlantic County,NJ,NA,58.543689320388346,NA
08210,Cape May County,NJ,NA,NA,54.23728813559322
08360,Cumberland County,NJ,NA,9.029126213592233,NA
08401,Atlantic County,NJ,NA,NA,24.152542372881356
08540,Mercer County,NJ,NA,35.8252427184466,NA
08611,Mercer County,NJ,NA,32.62135922330097,NA
08691,Mercer County,NJ,NA,NA,84.18079096045197
08730,Monmouth County,NJ,NA,96.89320388349515,NA
08742,Ocean County,NJ,NA,NA,35.73446327683616
08758,Ocean County,NJ,NA,72.91262135922331,NA
08759,Ocean County,NJ,NA,NA,0
08816,Middlesex County,NJ,NA,26.21359223300971,NA
08817,Middlesex County,NJ,NA,23.106796116504853,NA
08822,Hunterdon County,NJ,NA,NA,48.0225988700565
08835,Somerset County,NJ,NA,95.63106796116504,NA
08859,Middlesex County,NJ,NA,NA,44.91525423728814
08861,Middlesex County,NJ,2.127659574468085,NA,NA
87031,Valencia County,NM,NA,30.485436893203882,NA
87059,Bernalillo County,NM,NA,84.75728155339806,NA
87107,Bernalillo County,NM,NA,60.48543689320388,NA
87111,Bernalillo County,NM,NA,NA,29.943502824858758
87112,Bernalillo County,NM,NA,NA,6.214689265536723
87120,Bernalillo County,NM,NA,13.980582524271846,NA
87121,Bernalillo County,NM,NA,NA,28.389830508474578
87123,Bernalillo County,NM,NA,82.42718446601943,NA
87401,San Juan County,NM,NA,NA,86.29943502824858
87410,San Juan County,NM,NA,NA,68.07909604519774
87506,Santa Fe County,NM,NA,47.47572815533981,NA
87508,Santa Fe County,NM,NA,51.84466019417475,57.7683615819209
88011,Doa Ana County,NM,60.1063829787234,NA,NA
88012,Doa Ana County,NM,NA,NA,55.6497175141243
88101,Curry County,NM,NA,6.407766990291262,NA
88260,Lea County,NM,NA,39.6116504854369,NA
88310,Otero County,NM,NA,NA,7.627118644067797
10001,New York County,NY,19.148936170212767,NA,NA
10009,New York County,NY,NA,28.83495145631068,NA
10019,New York County,NY,69.68085106382979,NA,NA
10021,New York County,NY,NA,26.990291262135923,NA
10023,New York County,NY,NA,NA,5.367231638418079
10029,New York County,NY,NA,NA,0.847457627118644
10033,New York County,NY,NA,55.4368932038835,NA
10301,Richmond County,NY,NA,11.553398058252426,NA
10304,Richmond County,NY,NA,85.43689320388349,29.09604519774011
10452,Bronx County,NY,NA,81.55339805825243,13.135593220338984
10453,Bronx County,NY,NA,23.495145631067963,NA
10454,Bronx County,NY,NA,69.80582524271844,NA
10455,Bronx County,NY,9.574468085106384,10.29126213592233,NA
10456,Bronx County,NY,NA,42.33009708737864,NA
10458,Bronx County,NY,1.5957446808510638,NA,7.768361581920905
10459,Bronx County,NY,NA,NA,26.9774011299435
10460,Bronx County,NY,NA,32.13592233009709,NA
10461,Bronx County,NY,NA,19.902912621359224,NA
10466,Bronx County,NY,NA,2.233009708737864,NA
10468,Bronx County,NY,NA,2.3300970873786406,NA
10472,Bronx County,NY,NA,1.9417475728155338,NA
10509,Putnam County,NY,NA,57.86407766990291,NA
10520,Westchester County,NY,NA,78.83495145631068,93.92655367231639
10550,Westchester County,NY,NA,60.87378640776699,61.29943502824858
10583,Westchester County,NY,NA,78.73786407766991,NA
10598,Westchester County,NY,NA,NA,99.15254237288136
10709,Westchester County,NY,NA,93.7864077669903,NA
10801,Westchester County,NY,NA,70,NA
11106,Queens County,NY,NA,93.00970873786409,NA
11201,Kings County,NY,26.063829787234045,NA,NA
11203,Kings County,NY,NA,NA,39.124293785310734
11204,Kings County,NY,NA,NA,57.6271186440678
11209,Kings County,NY,NA,20.87378640776699,NA
11211,Kings County,NY,NA,84.5631067961165,NA
11212,Kings County,NY,NA,NA,7.909604519774012
11215,Kings County,NY,NA,NA,21.32768361581921
11219,Kings County,NY,NA,NA,14.971751412429379
11220,Kings County,NY,NA,4.660194174757281,NA
11223,Kings County,NY,NA,13.009708737864079,NA
11229,Kings County,NY,NA,NA,2.9661016949152543
11234,Kings County,NY,NA,NA,19.350282485875706
11235,Kings County,NY,NA,16.213592233009706,NA
11238,Kings County,NY,25.53191489361702,NA,NA
11356,Queens County,NY,NA,NA,72.88135593220339
11368,Queens County,NY,NA,NA,72.31638418079096
11373,Queens County,NY,NA,87.28155339805825,NA
11377,Queens County,NY,NA,NA,23.728813559322035
11417,Queens County,NY,56.91489361702128,NA,NA
11429,Queens County,NY,NA,32.23300970873787,NA
11433,Queens County,NY,NA,29.902912621359224,NA
11434,Queens County,NY,NA,17.184466019417478,NA
11435,Queens County,NY,NA,NA,30.08474576271186
11510,Nassau County,NY,NA,41.84466019417476,NA
11552,Nassau County,NY,NA,76.2135922330097,NA
11553,Nassau County,NY,NA,NA,63.2768361581921
11554,Nassau County,NY,NA,46.310679611650485,NA
11572,Nassau County,NY,NA,NA,45.19774011299435
11581,Nassau County,NY,NA,88.7378640776699,NA
11727,Suffolk County,NY,NA,NA,40.67796610169492
11762,Nassau County,NY,NA,NA,41.94915254237288
11763,Suffolk County,NY,NA,98.3495145631068,NA
11787,Suffolk County,NY,NA,NA,31.21468926553672
11793,Nassau County,NY,NA,67.57281553398057,NA
11801,Nassau County,NY,NA,NA,47.59887005649718
11967,Suffolk County,NY,NA,NA,89.40677966101694
11968,Suffolk County,NY,NA,NA,84.03954802259888
12019,Saratoga County,NY,81.38297872340425,NA,NA
12020,Saratoga County,NY,NA,27.378640776699033,NA
12065,Saratoga County,NY,NA,19.223300970873787,NA
12182,Rensselaer County,NY,NA,51.45631067961165,NA
12302,Schenectady County,NY,NA,NA,67.2316384180791
12414,Greene County,NY,57.97872340425532,NA,NA
12801,Warren County,NY,NA,61.94174757281553,NA
12804,Warren County,NY,NA,NA,25.98870056497175
12845,Warren County,NY,NA,83.10679611650485,NA
12866,Saratoga County,NY,NA,10.097087378640776,NA
12901,Clinton County,NY,5.851063829787234,29.708737864077673,NA
12921,Clinton County,NY,NA,94.75728155339806,NA
12946,Essex County,NY,NA,59.80582524271845,NA
12953,Franklin County,NY,NA,55.8252427184466,62.28813559322034
12962,Clinton County,NY,NA,74.9514563106796,NA
12972,Clinton County,NY,NA,73.98058252427184,NA
12986,Franklin County,NY,90.42553191489363,NA,82.62711864406779
13066,Onondaga County,NY,NA,94.95145631067962,NA
13208,Onondaga County,NY,NA,38.05825242718446,NA
13350,Herkimer County,NY,NA,71.06796116504854,57.20338983050848
13365,Herkimer County,NY,42.02127659574468,NA,NA
13421,Madison County,NY,NA,52.71844660194175,NA
13480,Oneida County,NY,NA,95.53398058252426,NA
13492,Oneida County,NY,NA,NA,60.87570621468926
13601,Jefferson County,NY,10.106382978723403,NA,NA
13605,Jefferson County,NY,100,NA,NA
13642,St. Lawrence County,NY,NA,58.15533980582524,NA
13646,St. Lawrence County,NY,NA,99.51456310679612,NA
13669,St. Lawrence County,NY,NA,23.106796116504853,NA
13743,Tioga County,NY,NA,98.54368932038835,NA
13760,Broome County,NY,NA,6.116504854368932,12.711864406779661
13790,Broome County,NY,NA,7.864077669902912,NA
13815,Chenango County,NY,22.340425531914892,13.78640776699029,31.35593220338983
13820,Otsego County,NY,NA,NA,20.056497175141246
13825,Otsego County,NY,NA,96.69902912621359,NA
13827,Tioga County,NY,NA,NA,95.05649717514125
13850,Broome County,NY,NA,NA,3.954802259887006
14020,Genesee County,NY,NA,46.89320388349515,NA
14094,Niagara County,NY,3.723404255319149,20,NA
14127,Erie County,NY,NA,49.22330097087379,NA
14141,Erie County,NY,NA,NA,98.44632768361582
14206,Erie County,NY,NA,27.57281553398058,NA
14215,Erie County,NY,NA,6.893203883495145,NA
14222,Erie County,NY,NA,68.44660194174757,NA
14304,Niagara County,NY,10.638297872340425,NA,NA
14420,Monroe County,NY,NA,NA,52.54237288135594
14424,Ontario County,NY,NA,1.262135922330097,NA
14432,Ontario County,NY,NA,50.679611650485434,NA
14450,Monroe County,NY,5.319148936170213,NA,NA
14454,Livingston County,NY,NA,NA,74.15254237288136
14456,Ontario County,NY,NA,5.145631067961165,NA
14472,Monroe County,NY,NA,66.89320388349515,NA
14519,Wayne County,NY,29.78723404255319,NA,NA
14522,Wayne County,NY,NA,NA,92.93785310734464
14526,Monroe County,NY,NA,15.825242718446603,NA
14527,Yates County,NY,79.7872340425532,28.155339805825243,NA
14569,Wyoming County,NY,NA,62.5242718446602,NA
14580,Monroe County,NY,NA,0.48543689320388345,NA
14589,Wayne County,NY,NA,44.1747572815534,NA
14590,Wayne County,NY,52.12765957446809,NA,NA
14609,Monroe County,NY,NA,1.3592233009708738,NA
14610,Monroe County,NY,NA,25.922330097087375,NA
14612,Monroe County,NY,NA,33.980582524271846,NA
14617,Monroe County,NY,NA,4.368932038834951,NA
14618,Monroe County,NY,NA,12.233009708737864,17.65536723163842
14620,Monroe County,NY,NA,18.25242718446602,NA
14622,Monroe County,NY,NA,NA,89.12429378531074
14701,Chautauqua County,NY,NA,2.0388349514563107,NA
14727,Allegany County,NY,77.6595744680851,NA,NA
14733,Chautauqua County,NY,NA,NA,91.94915254237289
14830,Steuben County,NY,NA,31.456310679611647,NA
14895,Allegany County,NY,35.1063829787234,NA,NA
27011,Yadkin County,NC,NA,NA,62.42937853107344
27017,Surry County,NC,NA,47.76699029126213,NA
27018,Yadkin County,NC,NA,NA,50.847457627118644
27028,Davie County,NC,NA,7.961165048543689,NA
27030,Surry County,NC,NA,34.46601941747573,1.4124293785310735
27043,Stokes County,NC,NA,89.41747572815534,NA
27053,Stokes County,NC,NA,95.92233009708738,NA
27104,Forsyth County,NC,NA,NA,26.27118644067797
27105,Forsyth County,NC,NA,2.621359223300971,NA
27127,Forsyth County,NC,NA,NA,7.203389830508475
27215,Alamance County,NC,NA,NA,9.887005649717514
27253,Alamance County,NC,NA,19.12621359223301,31.63841807909605
27262,Guilford County,NC,NA,NA,51.69491525423729
27278,Orange County,NC,NA,13.592233009708737,NA
27282,Guilford County,NC,NA,NA,66.66666666666666
27295,Davidson County,NC,NA,3.203883495145631,NA
27298,Randolph County,NC,NA,70.97087378640776,NA
27312,Chatham County,NC,NA,NA,17.937853107344633
27455,Guilford County,NC,NA,51.262135922330096,NA
27501,Harnett County,NC,NA,NA,68.78531073446328
27514,Orange County,NC,NA,NA,85.45197740112994
27516,Orange County,NC,NA,12.718446601941746,NA
27517,Orange County,NC,NA,65.24271844660194,NA
27518,Wake County,NC,NA,54.07766990291262,NA
27519,Wake County,NC,NA,NA,50.282485875706215
27526,Wake County,NC,NA,58.83495145631068,NA
27534,Wayne County,NC,43.61702127659575,NA,NA
27539,Wake County,NC,NA,65.72815533980582,NA
27545,Wake County,NC,NA,48.834951456310684,NA
27565,Granville County,NC,NA,20.19417475728155,NA
27587,Wake County,NC,NA,38.737864077669904,NA
27603,Wake County,NC,NA,NA,43.78531073446328
27604,Wake County,NC,NA,NA,60.451977401129945
27613,Wake County,NC,NA,36.116504854368934,NA
27616,Wake County,NC,NA,36.601941747572816,NA
27704,Durham County,NC,18.085106382978726,NA,NA
27705,Durham County,NC,NA,67.18446601941747,NA
27707,Durham County,NC,NA,7.766990291262135,NA
27858,Pitt County,NC,NA,42.03883495145631,NA
27886,Edgecombe County,NC,44.680851063829785,NA,NA
27910,Hertford County,NC,NA,NA,65.67796610169492
28001,Stanly County,NC,NA,NA,55.932203389830505
28027,Cabarrus County,NC,NA,NA,25.141242937853107
28112,Union County,NC,NA,35.631067961165044,NA
28205,Mecklenburg County,NC,NA,27.864077669902915,NA
28210,Mecklenburg County,NC,NA,NA,33.05084745762712
28270,Mecklenburg County,NC,NA,45.33980582524272,NA
28277,Mecklenburg County,NC,NA,NA,30.508474576271187
28312,Cumberland County,NC,NA,NA,75.98870056497175
28401,New Hanover County,NC,NA,33.00970873786408,NA
28412,New Hanover County,NC,NA,27.57281553398058,NA
28443,Pender County,NC,NA,57.37864077669903,NA
28462,Brunswick County,NC,NA,NA,81.92090395480226
28570,Carteret County,NC,NA,79.41747572815534,NA
28601,Catawba County,NC,NA,9.41747572815534,NA
28630,Caldwell County,NC,38.297872340425535,NA,NA
28645,Caldwell County,NC,NA,NA,1.8361581920903955
28713,Swain County,NC,NA,61.45631067961165,NA
28716,Haywood County,NC,NA,40.09708737864078,NA
28723,Jackson County,NC,NA,96.99029126213591,NA
28732,Henderson County,NC,NA,59.320388349514566,NA
28739,Henderson County,NC,NA,NA,82.7683615819209
28752,McDowell County,NC,NA,NA,28.8135593220339
28759,Henderson County,NC,NA,97.96116504854369,NA
28782,Polk County,NC,NA,85.53398058252426,NA
28791,Henderson County,NC,NA,NA,17.51412429378531
28803,Buncombe County,NC,NA,NA,25.423728813559322
28806,Buncombe County,NC,NA,42.9126213592233,NA
28904,Clay County,NC,NA,NA,51.271186440677965
28906,Cherokee County,NC,NA,29.514563106796114,NA
58072,Barnes County,ND,NA,NA,70.19774011299435
58075,Richland County,ND,88.29787234042553,NA,NA
58078,Cass County,ND,NA,16.116504854368934,NA
58104,Cass County,ND,NA,11.941747572815533,NA
58201,Grand Forks County,ND,NA,NA,21.045197740112993
58301,Ramsey County,ND,NA,66.50485436893204,NA
58504,Burleigh County,ND,NA,NA,21.89265536723164
58554,Morton County,ND,NA,28.7378640776699,NA
58701,Ward County,ND,NA,NA,19.2090395480226
43017,Franklin County,OH,NA,93.88349514563107,NA
43021,Delaware County,OH,NA,NA,78.8135593220339
43026,Franklin County,OH,NA,21.941747572815533,NA
43050,Knox County,OH,NA,63.20388349514563,37.14689265536723
43055,Licking County,OH,NA,1.5533980582524272,4.378531073446328
43056,Licking County,OH,NA,36.407766990291265,NA
43081,Franklin County,OH,NA,63.786407766990294,NA
43113,Pickaway County,OH,NA,NA,60.73446327683616
43130,Fairfield County,OH,NA,NA,25.28248587570621
43213,Franklin County,OH,NA,NA,76.41242937853107
43302,Marion County,OH,NA,NA,5.508474576271186
43420,Sandusky County,OH,NA,18.058252427184467,NA
43551,Wood County,OH,NA,6.5048543689320395,NA
43615,Lucas County,OH,7.9787234042553195,NA,NA
43616,Lucas County,OH,NA,NA,23.44632768361582
43764,Perry County,OH,NA,95.4368932038835,NA
43906,Belmont County,OH,NA,NA,59.18079096045198
43907,Harrison County,OH,NA,NA,85.73446327683615
43912,Belmont County,OH,NA,50,NA
43935,Belmont County,OH,NA,63.883495145631066,NA
43938,Jefferson County,OH,NA,71.94174757281553,NA
43947,Belmont County,OH,80.31914893617021,NA,NA
43964,Jefferson County,OH,NA,32.038834951456316,NA
44001,Lorain County,OH,NA,3.6893203883495143,36.72316384180791
44012,Lorain County,OH,NA,6.601941747572816,NA
44023,Geauga County,OH,NA,43.786407766990294,15.677966101694915
44024,Geauga County,OH,NA,15.436893203883495,NA
44030,Ashtabula County,OH,NA,NA,39.548022598870055
44035,Lorain County,OH,NA,NA,0.2824858757062147
44044,Lorain County,OH,NA,38.543689320388346,NA
44050,Lorain County,OH,NA,81.26213592233009,NA
44052,Lorain County,OH,NA,NA,79.66101694915254
44056,Summit County,OH,NA,NA,42.65536723163842
44060,Lake County,OH,NA,NA,0.7062146892655368
44067,Summit County,OH,NA,54.66019417475728,NA
44070,Cuyahoga County,OH,NA,5.533980582524272,NA
44077,Lake County,OH,NA,NA,9.745762711864407
44087,Summit County,OH,NA,NA,3.672316384180791
44089,Erie County,OH,NA,NA,12.005649717514125
44094,Lake County,OH,NA,NA,16.666666666666664
44095,Lake County,OH,NA,10.388349514563107,6.073446327683616
44102,Cuyahoga County,OH,1.0638297872340425,NA,NA
44106,Cuyahoga County,OH,16.48936170212766,NA,NA
44109,Cuyahoga County,OH,NA,NA,6.638418079096045
44111,Cuyahoga County,OH,17.5531914893617,20.776699029126213,NA
44116,Cuyahoga County,OH,NA,NA,6.9209039548022595
44118,Cuyahoga County,OH,NA,NA,5.932203389830509
44120,Cuyahoga County,OH,6.382978723404255,22.52427184466019,NA
44122,Cuyahoga County,OH,31.382978723404253,4.854368932038835,NA
44123,Cuyahoga County,OH,NA,61.262135922330096,NA
44124,Cuyahoga County,OH,NA,2.815533980582524,NA
44133,Cuyahoga County,OH,NA,12.62135922330097,NA
44138,Cuyahoga County,OH,NA,24.660194174757283,NA
44140,Cuyahoga County,OH,NA,67.86407766990291,NA
44143,Cuyahoga County,OH,NA,14.36893203883495,NA
44145,Cuyahoga County,OH,NA,NA,46.61016949152542
44146,Cuyahoga County,OH,NA,1.8446601941747571,NA
44212,Medina County,OH,6.914893617021277,8.640776699029127,42.3728813559322
44221,Summit County,OH,NA,19.320388349514563,NA
44224,Summit County,OH,NA,NA,41.66666666666667
44230,Wayne County,OH,87.2340425531915,NA,NA
44240,Portage County,OH,NA,21.45631067961165,NA
44255,Portage County,OH,NA,80.48543689320388,NA
44256,Medina County,OH,NA,0.9708737864077669,1.5536723163841808
44266,Portage County,OH,NA,33.592233009708735,NA
44312,Summit County,OH,NA,9.611650485436893,NA
44403,Trumbull County,OH,NA,92.81553398058252,NA
44413,Columbiana County,OH,NA,NA,98.58757062146893
44438,Trumbull County,OH,NA,79.51456310679612,NA
44446,Trumbull County,OH,NA,NA,18.64406779661017
44460,Columbiana County,OH,NA,8.155339805825243,NA
44483,Trumbull County,OH,NA,NA,21.468926553672315
44504,Mahoning County,OH,NA,88.3495145631068,NA
44511,Mahoning County,OH,NA,NA,56.21468926553672
44706,Stark County,OH,NA,42.42718446601942,NA
44708,Stark County,OH,NA,70.87378640776699,NA
44720,Stark County,OH,NA,NA,16.807909604519775
44805,Ashland County,OH,NA,NA,3.8135593220338984
44811,Sandusky County,OH,NA,92.23300970873787,NA
44820,Crawford County,OH,NA,NA,98.30508474576271
44830,Seneca County,OH,NA,NA,38.70056497175141
44903,Richland County,OH,NA,20.388349514563107,NA
45067,Butler County,OH,NA,93.39805825242719,NA
45133,Highland County,OH,NA,NA,22.175141242937855
45205,Hamilton County,OH,28.191489361702125,NA,NA
45209,Hamilton County,OH,NA,NA,99.57627118644068
45238,Hamilton County,OH,NA,16.990291262135923,NA
45320,Preble County,OH,NA,37.18446601941748,NA
45342,Montgomery County,OH,NA,9.611650485436893,60.02824858757062
45344,Clark County,OH,NA,49.41747572815534,NA
45405,Montgomery County,OH,NA,45.53398058252427,NA
45420,Montgomery County,OH,NA,39.6116504854369,NA
45459,Montgomery County,OH,NA,NA,19.774011299435028
45503,Clark County,OH,NA,67.47572815533981,NA
45601,Ross County,OH,NA,0.2912621359223301,0.14124293785310735
45631,Gallia County,OH,NA,10.679611650485436,NA
45690,Pike County,OH,NA,18.640776699029125,NA
45693,Adams County,OH,NA,92.71844660194175,NA
45750,Washington County,OH,NA,1.1650485436893203,NA
45891,Van Wert County,OH,NA,25.533980582524272,NA
73008,Oklahoma County,OK,NA,58.05825242718446,NA
73013,Oklahoma County,OK,NA,NA,12.288135593220339
73025,Oklahoma County,OK,NA,59.6116504854369,NA
73112,Oklahoma County,OK,44.148936170212764,NA,NA
73162,Oklahoma County,OK,NA,NA,22.316384180790962
73170,Cleveland County,OK,NA,71.45631067961165,NA
73644,Beckham County,OK,NA,62.23300970873786,NA
73772,Blaine County,OK,NA,NA,99.85875706214689
74075,Payne County,OK,NA,NA,48.58757062146893
74129,Tulsa County,OK,NA,NA,76.27118644067797
74403,Muskogee County,OK,NA,NA,30.508474576271187
74462,Haskell County,OK,NA,86.01941747572816,NA
74501,Pittsburg County,OK,NA,46.79611650485437,NA
74804,Pottawatomie County,OK,NA,NA,37.005649717514125
74820,Pontotoc County,OK,14.893617021276595,NA,NA
74948,Sequoyah County,OK,70.2127659574468,80.3883495145631,NA
97045,Clackamas County,OR,NA,11.45631067961165,NA
97058,Wasco County,OR,NA,31.2621359223301,NA
97068,Clackamas County,OR,NA,NA,58.47457627118644
97124,Washington County,OR,NA,NA,29.37853107344633
97201,Multnomah County,OR,NA,78.44660194174757,NA
97202,Multnomah County,OR,NA,48.54368932038835,NA
97225,Washington County,OR,NA,95.04854368932038,NA
97230,Multnomah County,OR,NA,14.951456310679612,NA
97305,Marion County,OR,NA,NA,86.7231638418079
97321,Linn County,OR,NA,NA,27.966101694915253
97330,Benton County,OR,NA,NA,24.01129943502825
97355,Linn County,OR,NA,NA,37.85310734463277
97365,Lincoln County,OR,NA,75.63106796116504,NA
97439,Lane County,OR,NA,NA,21.1864406779661
97443,Douglas County,OR,NA,99.41747572815534,NA
97470,Douglas County,OR,NA,26.310679611650485,NA
97479,Douglas County,OR,NA,NA,46.89265536723164
97520,Jackson County,OR,NA,47.66990291262136,NA
97603,Klamath County,OR,NA,NA,25.56497175141243
97703,Deschutes County,OR,NA,73.39805825242719,NA
97739,Deschutes County,OR,84.04255319148936,NA,NA
97756,Deschutes County,OR,NA,56.50485436893204,NA
97850,Union County,OR,NA,NA,46.89265536723164
15001,Beaver County,PA,NA,19.02912621359223,NA
15010,Beaver County,PA,NA,87.47572815533981,NA
15012,Westmoreland County,PA,NA,NA,37.994350282485875
15063,Washington County,PA,NA,74.46601941747572,NA
15068,Westmoreland County,PA,24.46808510638298,NA,NA
15084,Allegheny County,PA,NA,90.58252427184466,NA
15131,Allegheny County,PA,NA,NA,88.98305084745762
15135,Allegheny County,PA,NA,99.12621359223301,NA
15143,Allegheny County,PA,NA,78.54368932038835,92.65536723163842
15146,Allegheny County,PA,NA,32.5242718446602,30.36723163841808
15202,Allegheny County,PA,NA,76.31067961165049,NA
15210,Allegheny County,PA,NA,92.62135922330097,NA
15213,Allegheny County,PA,NA,73.59223300970874,86.01694915254238
15214,Allegheny County,PA,NA,95.8252427184466,NA
15217,Allegheny County,PA,NA,NA,59.887005649717516
15221,Allegheny County,PA,NA,NA,20.19774011299435
15235,Allegheny County,PA,NA,72.03883495145631,NA
15243,Allegheny County,PA,NA,78.05825242718447,NA
15317,Washington County,PA,NA,NA,49.01129943502825
15425,Fayette County,PA,NA,23.883495145631066,NA
15537,Bedford County,PA,NA,64.46601941747574,NA
15601,Westmoreland County,PA,NA,14.466019417475728,11.158192090395481
15613,Westmoreland County,PA,NA,NA,34.18079096045198
15632,Westmoreland County,PA,NA,89.126213592233,NA
15644,Westmoreland County,PA,NA,33.88349514563107,NA
15650,Westmoreland County,PA,NA,NA,11.864406779661017
15701,Indiana County,PA,NA,18.83495145631068,NA
15801,Clearfield County,PA,13.829787234042554,NA,NA
15853,Elk County,PA,NA,57.76699029126213,NA
15904,Cambria County,PA,NA,NA,57.909604519774014
15909,Cambria County,PA,NA,NA,93.78531073446328
15931,Cambria County,PA,NA,62.03883495145631,NA
15963,Somerset County,PA,NA,56.699029126213595,NA
16046,Butler County,PA,NA,NA,54.94350282485876
16056,Butler County,PA,NA,91.16504854368932,NA
16066,Butler County,PA,NA,39.126213592233015,NA
16146,Mercer County,PA,NA,NA,30.225988700564972
16214,Clarion County,PA,NA,NA,96.1864406779661
16301,Venango County,PA,55.319148936170215,NA,NA
16323,Venango County,PA,NA,NA,77.40112994350282
16346,Venango County,PA,NA,NA,75.70621468926554
16365,Warren County,PA,NA,31.165048543689323,NA
16601,Blair County,PA,15.425531914893616,36.699029126213595,NA
16801,Centre County,PA,47.87234042553192,NA,NA
16803,Centre County,PA,NA,60.970873786407765,NA
17003,Lebanon County,PA,53.72340425531915,91.06796116504854,NA
17015,Cumberland County,PA,NA,31.06796116504854,36.29943502824859
17019,York County,PA,NA,47.28155339805825,NA
17036,Dauphin County,PA,NA,NA,26.836158192090398
17038,Lebanon County,PA,NA,NA,99.01129943502825
17046,Lebanon County,PA,NA,25.145631067961165,NA
17059,Juniata County,PA,NA,84.85436893203884,NA
17067,Lebanon County,PA,NA,77.66990291262135,NA
17078,Lebanon County,PA,NA,11.359223300970873,NA
17112,Dauphin County,PA,NA,5.631067961165048,15.112994350282486
17201,Franklin County,PA,NA,NA,20.480225988700564
17331,York County,PA,12.23404255319149,NA,1.694915254237288
17350,Adams County,PA,NA,57.4757281553398,NA
17363,York County,PA,82.4468085106383,68.64077669902913,NA
17404,York County,PA,NA,13.689320388349516,NA
17517,Lancaster County,PA,NA,NA,69.49152542372882
17578,Lancaster County,PA,91.48936170212765,NA,NA
17701,Lycoming County,PA,NA,NA,35.31073446327684
17702,Lycoming County,PA,NA,73.88349514563107,NA
17814,Columbia County,PA,NA,90.29126213592234,NA
17821,Montour County,PA,NA,15.922330097087379,NA
17866,Northumberland County,PA,NA,NA,46.32768361581921
17872,Northumberland County,PA,NA,37.86407766990291,90.3954802259887
17901,Schuylkill County,PA,NA,30.097087378640776,NA
17960,Schuylkill County,PA,NA,97.66990291262137,NA
18018,Lehigh County,PA,NA,NA,11.440677966101696
18034,Lehigh County,PA,NA,85.92233009708737,NA
18062,Lehigh County,PA,NA,83.39805825242719,NA
18064,Northampton County,PA,NA,24.75728155339806,NA
18091,Northampton County,PA,87.7659574468085,NA,NA
18092,Lehigh County,PA,99.46808510638297,NA,NA
18102,Lehigh County,PA,NA,6.699029126213592,NA
18103,Lehigh County,PA,NA,5.922330097087379,NA
18104,Lehigh County,PA,NA,4.466019417475728,NA
18353,Monroe County,PA,NA,65.14563106796116,NA
18360,Monroe County,PA,NA,13.106796116504855,NA
18421,Susquehanna County,PA,NA,93.59223300970874,NA
18431,Wayne County,PA,NA,56.01941747572815,NA
18436,Wayne County,PA,NA,65.92233009708738,NA
18507,Lackawanna County,PA,98.40425531914893,NA,NA
18603,Columbia County,PA,51.59574468085106,NA,NA
18612,Luzerne County,PA,NA,NA,35.87570621468927
18630,Wyoming County,PA,NA,100,NA
18643,Luzerne County,PA,NA,53.398058252427184,NA
18705,Luzerne County,PA,NA,77.66990291262135,NA
18822,Susquehanna County,PA,NA,90.67961165048544,NA
18848,Bradford County,PA,NA,NA,84.7457627118644
18929,Bucks County,PA,NA,80.19417475728156,NA
18940,Bucks County,PA,NA,40.873786407766985,NA
18969,Montgomery County,PA,NA,NA,74.85875706214689
19002,Montgomery County,PA,NA,58.7378640776699,NA
19006,Montgomery County,PA,NA,NA,42.79661016949153
19020,Bucks County,PA,NA,NA,45.48022598870056
19026,Delaware County,PA,NA,NA,63.13559322033898
19031,Montgomery County,PA,NA,98.25242718446601,NA
19033,Delaware County,PA,NA,82.23300970873785,NA
19040,Montgomery County,PA,NA,44.85436893203884,NA
19041,Delaware County,PA,NA,90.67961165048544,NA
19047,Bucks County,PA,NA,18.25242718446602,NA
19050,Delaware County,PA,NA,13.495145631067961,NA
19053,Bucks County,PA,NA,NA,45.05649717514124
19061,Delaware County,PA,68.61702127659575,NA,NA
19063,Delaware County,PA,NA,12.03883495145631,NA
19067,Bucks County,PA,NA,7.669902912621359,NA
19072,Montgomery County,PA,NA,64.1747572815534,NA
19082,Delaware County,PA,NA,62.62135922330098,NA
19104,Philadelphia County,PA,NA,19.70873786407767,NA
19116,Philadelphia County,PA,NA,15.53398058252427,NA
19130,Philadelphia County,PA,NA,NA,54.66101694915254
19132,Philadelphia County,PA,NA,16.601941747572816,NA
19135,Philadelphia County,PA,22.872340425531913,NA,NA
19136,Philadelphia County,PA,NA,28.25242718446602,NA
19145,Philadelphia County,PA,35.638297872340424,NA,NA
19148,Philadelphia County,PA,NA,14.077669902912621,NA
19301,Chester County,PA,NA,NA,72.17514124293785
19355,Chester County,PA,NA,42.23300970873786,NA
19380,Chester County,PA,NA,NA,4.80225988700565
19460,Chester County,PA,NA,23.980582524271846,24.43502824858757
19465,Chester County,PA,NA,94.5631067961165,68.22033898305084
19468,Montgomery County,PA,NA,NA,46.186440677966104
19508,Berks County,PA,59.04255319148937,NA,NA
19522,Berks County,PA,NA,NA,53.24858757062147
19525,Montgomery County,PA,72.87234042553192,NA,NA
19555,Berks County,PA,NA,95.14563106796116,NA
19565,Berks County,PA,NA,NA,58.05084745762712
19606,Berks County,PA,NA,4.757281553398058,NA
02809,Bristol County,RI,65.95744680851064,33.398058252427184,NA
02816,Kent County,RI,NA,NA,28.53107344632768
02818,Kent County,RI,NA,NA,40.96045197740113
02840,Newport County,RI,NA,29.80582524271845,NA
02842,Newport County,RI,NA,52.81553398058253,NA
02860,Providence County,RI,NA,NA,6.3559322033898304
02864,Providence County,RI,NA,NA,10.451977401129943
02871,Newport County,RI,NA,38.640776699029125,NA
02882,Washington County,RI,92.02127659574468,NA,NA
02885,Bristol County,RI,NA,85.33980582524272,NA
02914,Providence County,RI,NA,NA,64.12429378531074
02920,Providence County,RI,NA,NA,11.016949152542372
29054,Lexington County,SC,NA,86.50485436893204,NA
29072,Lexington County,SC,NA,28.446601941747574,NA
29150,Sumter County,SC,NA,64.07766990291263,NA
29161,Florence County,SC,NA,93.3009708737864,NA
29210,Richland County,SC,NA,53.30097087378641,NA
29341,Cherokee County,SC,NA,55.533980582524265,NA
29349,Spartanburg County,SC,NA,NA,25.70621468926554
29365,Spartanburg County,SC,NA,68.93203883495146,NA
29445,Berkeley County,SC,NA,26.893203883495147,NA
29483,Dorchester County,SC,NA,NA,53.954802259887
29485,Dorchester County,SC,NA,31.650485436893206,NA
29501,Florence County,SC,NA,NA,38.559322033898304
29540,Darlington County,SC,NA,NA,99.71751412429379
29555,Florence County,SC,98.93617021276596,NA,NA
29556,Williamsburg County,SC,NA,NA,70.90395480225989
29566,Horry County,SC,NA,50.77669902912621,NA
29576,Horry County,SC,NA,NA,18.361581920903955
29579,Horry County,SC,NA,70.67961165048544,NA
29615,Greenville County,SC,NA,NA,22.88135593220339
29624,Anderson County,SC,NA,83.49514563106796,NA
29642,Pickens County,SC,NA,52.038834951456316,NA
29673,Greenville County,SC,46.808510638297875,20.097087378640776,NA
29687,Greenville County,SC,NA,22.718446601941746,NA
29720,Lancaster County,SC,NA,NA,64.97175141242938
29803,Aiken County,SC,NA,9.514563106796116,NA
29841,Aiken County,SC,NA,NA,53.954802259887
57252,Grant County,SD,NA,NA,87.71186440677965
57701,Pennington County,SD,NA,NA,10.59322033898305
37027,Williamson County,TN,NA,59.51456310679612,NA
37030,Smith County,TN,NA,NA,85.59322033898306
37073,Robertson County,TN,NA,NA,80.08474576271186
37083,Macon County,TN,NA,33.78640776699029,NA
37135,Williamson County,TN,NA,93.10679611650485,NA
37184,Wilson County,TN,NA,NA,93.07909604519774
37211,Davidson County,TN,NA,21.067961165048544,NA
37215,Davidson County,TN,NA,64.36893203883494,39.68926553672316
37216,Davidson County,TN,NA,87.37864077669903,NA
37311,Bradley County,TN,NA,34.85436893203884,NA
37341,Hamilton County,TN,NA,94.1747572815534,NA
37617,Sullivan County,TN,NA,65.33980582524272,NA
37716,Anderson County,TN,NA,30.194174757281555,NA
37738,Sevier County,TN,NA,93.68932038834951,NA
37748,Roane County,TN,NA,NA,75.84745762711864
37801,Blount County,TN,NA,46.40776699029126,NA
37803,Blount County,TN,NA,14.271844660194175,NA
37826,McMinn County,TN,NA,92.5242718446602,NA
37830,Anderson County,TN,NA,25.728155339805824,NA
37840,Roane County,TN,NA,55.24271844660195,NA
37854,Roane County,TN,NA,NA,79.23728813559322
37862,Sevier County,TN,NA,NA,41.66666666666667
37870,Claiborne County,TN,NA,99.02912621359224,NA
37876,Sevier County,TN,NA,22.718446601941746,NA
37920,Knox County,TN,NA,18.7378640776699,NA
38008,Hardeman County,TN,NA,74.36893203883496,NA
38024,Dyer County,TN,NA,34.95145631067961,NA
38053,Shelby County,TN,NA,NA,33.47457627118644
38104,Shelby County,TN,75.53191489361703,NA,NA
38125,Shelby County,TN,61.170212765957444,NA,NA
38135,Shelby County,TN,NA,NA,73.58757062146893
38139,Shelby County,TN,NA,NA,80.36723163841808
38401,Maury County,TN,NA,7.184466019417475,58.05084745762712
38506,Putnam County,TN,NA,22.03883495145631,NA
38570,Overton County,TN,73.40425531914893,NA,NA
75019,Dallas County,TX,NA,54.36893203883495,NA
75024,Collin County,TX,NA,93.20388349514563,NA
75038,Dallas County,TX,NA,98.93203883495146,NA
75040,Dallas County,TX,NA,NA,56.63841807909604
75042,Dallas County,TX,NA,66.01941747572816,NA
75070,Collin County,TX,NA,10.776699029126213,NA
75093,Collin County,TX,NA,33.00970873786408,NA
75143,Henderson County,TX,NA,NA,65.11299435028248
75159,Dallas County,TX,NA,NA,88.70056497175142
75216,Dallas County,TX,NA,9.320388349514563,NA
75224,Dallas County,TX,NA,92.33009708737863,NA
75227,Dallas County,TX,NA,NA,67.514124293785315
75229,Dallas County,TX,NA,45.922330097087375,NA
75230,Dallas County,TX,NA,NA,49.717514124293785
75235,Dallas County,TX,NA,90.3883495145631,NA
75426,Red River County,TX,NA,96.2135922330097,NA
75442,Collin County,TX,NA,NA,87.99435028248588
75482,Hopkins County,TX,NA,NA,42.090395480225986
75494,Wood County,TX,NA,NA,85.31073446327684
75503,Bowie County,TX,NA,56.699029126213595,NA
75657,Marion County,TX,NA,NA,91.10169491525424
75702,Smith County,TX,73.93617021276596,NA,NA
75703,Smith County,TX,NA,NA,2.2598870056497176
75757,Smith County,TX,NA,NA,39.68926553672316
75758,Henderson County,TX,NA,NA,59.32203389830508
75765,Wood County,TX,NA,43.883495145631066,NA
75766,Cherokee County,TX,NA,8.25242718446602,6.779661016949152
75785,Cherokee County,TX,NA,85.14563106796118,NA
75791,Smith County,TX,NA,NA,35.02824858757062
75803,Anderson County,TX,NA,49.029126213592235,NA
75904,Angelina County,TX,NA,NA,39.97175141242938
75941,Angelina County,TX,NA,96.01941747572815,NA
75951,Jasper County,TX,NA,44.36893203883495,NA
75972,San Augustine County,TX,NA,NA,89.68926553672316
76001,Tarrant County,TX,NA,79.90291262135922,NA
76011,Tarrant County,TX,NA,60.29126213592233,NA
76017,Tarrant County,TX,NA,83.30097087378641,NA
76018,Tarrant County,TX,NA,86.60194174757282,NA
76031,Johnson County,TX,NA,91.45631067961165,NA
76036,Tarrant County,TX,NA,58.44660194174758,NA
76054,Tarrant County,TX,NA,NA,69.2090395480226
76103,Tarrant County,TX,NA,89.51456310679612,NA
76106,Tarrant County,TX,NA,57.57281553398058,NA
76119,Tarrant County,TX,NA,37.37864077669903,NA
76131,Tarrant County,TX,NA,64.27184466019418,NA
76132,Tarrant County,TX,NA,NA,49.152542372881356
76205,Denton County,TX,NA,NA,93.36158192090396
76230,Montague County,TX,NA,74.5631067961165,NA
76384,Wilbarger County,TX,NA,61.359223300970875,NA
76502,Bell County,TX,NA,30.679611650485437,NA
76504,Bell County,TX,15.957446808510639,NA,80.9322033898305
76539,Lampasas County,TX,NA,85.72815533980582,NA
76541,Bell County,TX,NA,NA,54.66101694915254
76549,Bell County,TX,NA,90,NA
76574,Williamson County,TX,NA,NA,83.75706214689266
76801,Brown County,TX,NA,NA,84.6045197740113
76901,Tom Green County,TX,NA,NA,64.83050847457628
76904,Tom Green County,TX,NA,NA,31.497175141242938
77021,Harris County,TX,NA,36.79611650485437,NA
77044,Harris County,TX,NA,62.33009708737865,NA
77048,Harris County,TX,NA,79.02912621359224,NA
77084,Harris County,TX,NA,23.78640776699029,89.83050847457628
77086,Harris County,TX,NA,89.90291262135922,NA
77096,Harris County,TX,NA,44.271844660194176,NA
77320,Walker County,TX,NA,71.06796116504854,NA
77339,Harris County,TX,NA,38.349514563106794,NA
77356,Montgomery County,TX,NA,37.96116504854369,51.55367231638418
77379,Harris County,TX,NA,NA,12.570621468926554
77422,Brazoria County,TX,NA,NA,74.29378531073446
77478,Fort Bend County,TX,NA,48.05825242718447,NA
77494,Fort Bend County,TX,NA,17.864077669902912,NA
77506,Harris County,TX,NA,NA,78.67231638418079
77532,Harris County,TX,NA,88.54368932038835,NA
77590,Galveston County,TX,NA,47.18446601941748,NA
77833,Washington County,TX,NA,64.85436893203882,NA
78070,Comal County,TX,NA,84.46601941747572,NA
78130,Comal County,TX,NA,NA,10.028248587570623
78133,Comal County,TX,NA,NA,80.08474576271186
78202,Bexar County,TX,80.85106382978722,NA,NA
78216,Bexar County,TX,NA,NA,61.5819209039548
78218,Bexar County,TX,NA,53.398058252427184,NA
78233,Bexar County,TX,50,NA,NA
78504,Hidalgo County,TX,NA,44.75728155339806,NA
78521,Cameron County,TX,NA,19.611650485436893,NA
78550,Cameron County,TX,NA,NA,32.34463276836158
78572,Hidalgo County,TX,NA,20.485436893203886,NA
78573,Hidalgo County,TX,NA,NA,27.401129943502823
78624,Gillespie County,TX,NA,48.54368932038835,48.30508474576271
78636,Blanco County,TX,NA,NA,95.90395480225989
78645,Travis County,TX,89.8936170212766,NA,NA
78654,Burnet County,TX,NA,NA,50.1412429378531
78852,Maverick County,TX,NA,39.029126213592235,NA
79109,Randall County,TX,NA,43.980582524271846,NA
79336,Hockley County,TX,NA,63.30097087378641,NA
79424,Lubbock County,TX,NA,62.13592233009708,NA
79602,Taylor County,TX,NA,53.689320388349515,NA
79735,Pecos County,TX,NA,NA,87.42937853107344
79756,Ward County,TX,NA,86.2135922330097,NA
79902,El Paso County,TX,89.36170212765957,NA,NA
79904,El Paso County,TX,NA,59.02912621359223,NA
79938,El Paso County,TX,NA,66.01941747572816,NA
84014,Davis County,UT,NA,82.33009708737865,NA
84067,Weber County,UT,NA,60.77669902912621,NA
84074,Tooele County,UT,9.042553191489363,NA,NA
84093,Salt Lake County,UT,NA,NA,66.24293785310734
84095,Salt Lake County,UT,NA,81.74757281553397,NA
84105,Salt Lake County,UT,NA,NA,76.8361581920904
84321,Cache County,UT,NA,NA,68.50282485875707
84532,Grand County,UT,NA,87.76699029126213,NA
84701,Sevier County,UT,NA,NA,98.72881355932203
84770,Washington County,UT,NA,NA,8.757062146892656
84790,Washington County,UT,NA,NA,29.66101694915254
05001,Windsor County,VT,NA,NA,62.71186440677966
05495,Chittenden County,VT,NA,65.4368932038835,NA
05641,Washington County,VT,NA,NA,17.796610169491526
05701,Rutland County,VT,NA,NA,47.175141242937855
20175,Loudoun County,VA,NA,NA,45.62146892655367
22015,Fairfax County,VA,NA,46.213592233009706,NA
22043,Fairfax County,VA,NA,81.16504854368932,NA
22079,Fairfax County,VA,50.53191489361703,NA,NA
22101,Fairfax County,VA,NA,47.37864077669903,NA
22201,Arlington County,VA,NA,71.26213592233009,NA
22306,Fairfax County,VA,NA,46.116504854368934,NA
22406,Stafford County,VA,NA,78.05825242718447,NA
22603,Frederick County,VA,NA,71.74757281553397,NA
22630,Warren County,VA,NA,34.271844660194176,NA
22849,Page County,VA,NA,NA,85.16949152542372
23111,Hanover County,VA,NA,17.37864077669903,NA
23181,King William County,VA,NA,NA,95.62146892655367
23185,James City County,VA,NA,25.436893203883493,24.293785310734464
23222,Richmond city,VA,NA,66.79611650485437,NA
23227,Henrico County,VA,NA,36.310679611650485,NA
23320,Chesapeake city,VA,NA,17.66990291262136,NA
23321,Chesapeake city,VA,NA,31.74757281553398,NA
23322,Chesapeake city,VA,NA,60.48543689320388,NA
23324,Chesapeake city,VA,NA,55.04854368932038,NA
23430,Isle of Wight County,VA,NA,32.71844660194175,38.4180790960452
23434,Suffolk city,VA,NA,41.067961165048544,NA
23452,Virginia Beach city,VA,NA,8.932038834951456,NA
23454,Virginia Beach city,VA,NA,NA,5.790960451977401
23456,Virginia Beach city,VA,NA,NA,70.48022598870057
23693,York County,VA,NA,69.2233009708738,NA
23701,Portsmouth city,VA,NA,24.563106796116504,NA
23703,Portsmouth city,VA,NA,30.776699029126213,NA
23831,Chesterfield County,VA,45.744680851063826,NA,NA
23851,Franklin city,VA,NA,51.35922330097087,NA
24084,Pulaski County,VA,NA,77.57281553398059,NA
24121,Bedford County,VA,NA,NA,75.42372881355932
24228,Dickenson County,VA,72.3404255319149,NA,NA
24273,Norton city,VA,NA,NA,97.31638418079096
24330,Grayson County,VA,96.80851063829788,NA,NA
24441,Rockingham County,VA,NA,NA,80.36723163841808
24477,Augusta County,VA,NA,NA,63.70056497175142
24531,Pittsylvania County,VA,NA,NA,92.79661016949152
24551,Bedford County,VA,NA,NA,91.52542372881356
24592,Halifax County,VA,NA,NA,67.65536723163842
98001,King County,WA,NA,74.75728155339806,NA
98002,King County,WA,NA,35.631067961165044,NA
98006,King County,WA,NA,30.582524271844658,NA
98011,King County,WA,NA,NA,81.07344632768361
98019,King County,WA,NA,94.66019417475728,NA
98023,King County,WA,NA,15.145631067961165,26.69491525423729
98033,King County,WA,NA,NA,65.3954802259887
98038,King County,WA,NA,36.79611650485437,NA
98107,King County,WA,NA,70.58252427184466,NA
98115,King County,WA,NA,86.31067961165049,NA
98146,King County,WA,67.5531914893617,NA,NA
98155,King County,WA,NA,41.650485436893206,NA
98178,King County,WA,NA,NA,81.35593220338984
98221,Skagit County,WA,88.82978723404256,NA,53.10734463276836
98223,Snohomish County,WA,NA,20.29126213592233,NA
98225,Whatcom County,WA,NA,NA,45.33898305084746
98257,Skagit County,WA,NA,86.99029126213593,NA
98274,Skagit County,WA,NA,42.13592233009709,NA
98282,Island County,WA,NA,75.33980582524272,NA
98292,Snohomish County,WA,NA,NA,62.005649717514125
98296,Snohomish County,WA,NA,NA,77.11864406779661
98329,Pierce County,WA,NA,82.71844660194175,NA
98332,Pierce County,WA,NA,53.980582524271846,84.4632768361582
98368,Jefferson County,WA,NA,25.24271844660194,NA
98371,Pierce County,WA,NA,84.66019417475728,NA
98382,Clallam County,WA,NA,20.97087378640777,68.64406779661016
98383,Kitsap County,WA,NA,54.95145631067962,NA
98405,Pierce County,WA,NA,64.56310679611651,NA
98501,Thurston County,WA,NA,NA,81.21468926553672
98584,Mason County,WA,NA,NA,30.93220338983051
98604,Clark County,WA,NA,73.49514563106796,NA
98606,Clark County,WA,NA,95.63106796116504,NA
98661,Clark County,WA,NA,NA,75.56497175141243
98665,Clark County,WA,NA,76.60194174757281,NA
98686,Clark County,WA,NA,NA,87.57062146892656
98802,Douglas County,WA,NA,66.31067961165049,22.45762711864407
98823,Grant County,WA,NA,81.84466019417475,NA
98942,Yakima County,WA,79.25531914893617,NA,NA
99202,Spokane County,WA,NA,73.00970873786407,NA
99362,Walla Walla County,WA,NA,12.330097087378642,NA
20010,District of Columbia,DC,NA,NA,59.463276836158194
20018,District of Columbia,DC,51.06382978723404,NA,NA
20019,District of Columbia,DC,NA,5.242718446601942,NA
20020,District of Columbia,DC,NA,NA,27.683615819209038
25053,Boone County,WV,NA,97.76699029126213,NA
25143,Kanawha County,WV,NA,70.7766990291262,NA
25177,Kanawha County,WV,NA,33.689320388349515,NA
25213,Putnam County,WV,NA,NA,91.66666666666666
25312,Kanawha County,WV,71.80851063829788,NA,NA
25404,Berkeley County,WV,NA,40.48543689320388,NA
25411,Morgan County,WV,NA,52.5242718446602,NA
25428,Berkeley County,WV,NA,90.48543689320388,NA
25504,Cabell County,WV,NA,90.19417475728156,NA
25506,Lincoln County,WV,95.2127659574468,NA,NA
25508,Logan County,WV,78.19148936170212,69.02912621359224,NA
25526,Putnam County,WV,NA,37.76699029126214,NA
25701,Cabell County,WV,NA,NA,80.64971751412429
25705,Cabell County,WV,NA,21.74757281553398,NA
26003,Ohio County,WV,NA,NA,2.824858757062147
26070,Brooke County,WV,NA,68.15533980582525,71.75141242937853
26104,Wood County,WV,NA,NA,23.163841807909606
26105,Wood County,WV,NA,42.62135922330097,NA
26164,Jackson County,WV,NA,88.93203883495146,NA
26187,Wood County,WV,NA,83.98058252427184,NA
26201,Upshur County,WV,NA,51.94174757281553,NA
26241,Randolph County,WV,NA,25.04854368932039,NA
26330,Harrison County,WV,NA,NA,34.6045197740113
26431,Harrison County,WV,NA,72.23300970873787,NA
26452,Lewis County,WV,NA,NA,88.5593220338983
26501,Monongalia County,WV,NA,NA,74.57627118644068
26508,Monongalia County,WV,NA,67.96116504854369,NA
26554,Marion County,WV,NA,1.7475728155339807,NA
26726,Mineral County,WV,NA,NA,63.983050847457626
53005,Waukesha County,WI,NA,47.86407766990291,79.80225988700565
53012,Ozaukee County,WI,NA,NA,67.65536723163842
53014,Calumet County,WI,NA,93.98058252427185,NA
53024,Ozaukee County,WI,NA,57.28155339805825,NA
53081,Sheboygan County,WI,NA,24.271844660194176,NA
53092,Ozaukee County,WI,NA,87.18446601941747,NA
53185,Racine County,WI,NA,53.883495145631066,NA
53188,Waukesha County,WI,NA,53.00970873786408,NA
53209,Milwaukee County,WI,4.25531914893617,NA,NA
53214,Milwaukee County,WI,18.617021276595743,10.970873786407767,NA
53217,Milwaukee County,WI,NA,28.058252427184467,NA
53219,Milwaukee County,WI,NA,NA,14.83050847457627
53220,Milwaukee County,WI,36.17021276595745,NA,NA
53402,Racine County,WI,NA,NA,64.26553672316385
53405,Racine County,WI,NA,3.9805825242718447,48.163841807909606
53406,Racine County,WI,NA,NA,67.09039548022598
53511,Rock County,WI,NA,0.6796116504854369,NA
53538,Jefferson County,WI,NA,NA,65.5367231638418
53546,Rock County,WI,NA,4.174757281553398,NA
53562,Dane County,WI,78.72340425531915,NA,NA
53590,Dane County,WI,86.17021276595744,NA,NA
53711,Dane County,WI,NA,71.84466019417476,NA
53713,Dane County,WI,NA,NA,75.28248587570621
53954,Columbia County,WI,NA,NA,90.81920903954803
54220,Manitowoc County,WI,NA,2.1359223300970873,NA
54403,Marathon County,WI,NA,68.25242718446603,NA
54495,Wood County,WI,NA,NA,97.03389830508475
54601,La Crosse County,WI,NA,NA,0.423728813559322
54812,Barron County,WI,NA,NA,81.63841807909604
54904,Winnebago County,WI,NA,36.99029126213592,NA
82414,Park County,WY,NA,NA,41.10169491525424
