ZipCode,county,state,Adult,Retirement,Geriatric
35226,Jefferson County,AL,91.39784946236558,NA,NA
35228,Jefferson County,AL,52.32974910394266,NA,NA
35601,Morgan County,AL,11.827956989247312,NA,24.250681198910083
35756,Limestone County,AL,98.56630824372759,NA,NA
36104,Montgomery County,AL,48.028673835125446,NA,NA
36350,Dale County,AL,79.21146953405018,NA,NA
36360,Dale County,AL,NA,29.040404040404038,NA
36426,Escambia County,AL,NA,NA,54.76839237057221
36605,Mobile County,AL,60.57347670250897,NA,NA
36606,Mobile County,AL,NA,59.84848484848485,NA
36877,Lee County,AL,NA,52.77777777777778,NA
99611,Kenai Peninsula Borough,AK,NA,37.37373737373738,NA
99705,Fairbanks North Star Borough,AK,NA,76.01010101010101,NA
85008,Maricopa County,AZ,NA,19.19191919191919,NA
85015,Maricopa County,AZ,16.845878136200717,NA,NA
85016,Maricopa County,AZ,NA,83.08080808080808,NA
85017,Maricopa County,AZ,29.03225806451613,NA,NA
85018,Maricopa County,AZ,57.70609318996416,NA,NA
85028,Maricopa County,AZ,NA,80.55555555555556,NA
85031,Maricopa County,AZ,44.086021505376344,NA,NA
85041,Maricopa County,AZ,NA,19.444444444444446,NA
85053,Maricopa County,AZ,NA,NA,74.38692098092643
85122,Pinal County,AZ,NA,10.606060606060606,NA
85251,Maricopa County,AZ,NA,NA,28.882833787465938
85255,Maricopa County,AZ,NA,NA,49.31880108991826
85298,Maricopa County,AZ,NA,NA,82.83378746594006
85306,Maricopa County,AZ,NA,45.707070707070706,NA
85326,Maricopa County,AZ,NA,33.08080808080808,NA
85344,La Paz County,AZ,35.483870967741936,NA,NA
85364,Yuma County,AZ,NA,NA,2.452316076294278
85614,Pima County,AZ,NA,15.404040404040403,NA
85629,Pima County,AZ,NA,NA,67.30245231607628
85705,Pima County,AZ,NA,28.030303030303028,NA
85713,Pima County,AZ,NA,8.080808080808081,NA
85719,Pima County,AZ,56.63082437275986,NA,NA
85901,Navajo County,AZ,NA,21.464646464646464,NA
85937,Navajo County,AZ,NA,67.42424242424242,NA
86314,Yavapai County,AZ,67.38351254480287,NA,NA
72023,Lonoke County,AR,NA,87.87878787878788,NA
72116,Pulaski County,AR,NA,32.323232323232325,27.520435967302454
72205,Pulaski County,AR,NA,44.19191919191919,NA
72501,Independence County,AR,NA,60.60606060606061,NA
72653,Baxter County,AR,NA,NA,83.37874659400545
72936,Sebastian County,AR,88.88888888888889,NA,NA
90004,Los Angeles County,CA,NA,85.85858585858585,NA
90008,Los Angeles County,CA,NA,31.818181818181817,NA
90011,Los Angeles County,CA,NA,35.858585858585855,NA
90042,Los Angeles County,CA,45.878136200716845,NA,NA
90049,Los Angeles County,CA,NA,NA,18.256130790190735
90278,Los Angeles County,CA,NA,41.66666666666667,NA
90620,Orange County,CA,43.01075268817204,NA,NA
90650,Los Angeles County,CA,16.129032258064516,NA,NA
91316,Los Angeles County,CA,NA,NA,74.93188010899182
91335,Los Angeles County,CA,NA,26.515151515151516,35.694822888283376
91344,Los Angeles County,CA,NA,46.96969696969697,NA
91360,Ventura County,CA,NA,38.38383838383838,NA
91361,Ventura County,CA,NA,NA,96.73024523160763
91367,Los Angeles County,CA,NA,NA,16.076294277929154
91405,Los Angeles County,CA,NA,33.83838383838384,NA
91501,Los Angeles County,CA,NA,90.40404040404042,NA
91722,Los Angeles County,CA,NA,NA,53.950953678474114
92020,San Diego County,CA,NA,68.68686868686868,NA
92104,San Diego County,CA,NA,NA,62.39782016348774
92124,San Diego County,CA,NA,57.57575757575758,NA
92201,Riverside County,CA,21.50537634408602,NA,NA
92252,San Bernardino County,CA,NA,89.8989898989899,NA
92260,Riverside County,CA,91.75627240143369,NA,NA
92270,Riverside County,CA,NA,NA,33.2425068119891
92301,San Bernardino County,CA,31.182795698924732,NA,NA
92337,San Bernardino County,CA,50.89605734767025,NA,NA
92346,San Bernardino County,CA,23.655913978494624,NA,NA
92373,San Bernardino County,CA,NA,81.31313131313132,NA
92376,San Bernardino County,CA,6.451612903225806,NA,NA
92567,Riverside County,CA,77.77777777777779,NA,NA
92701,Orange County,CA,NA,91.41414141414141,NA
92870,Orange County,CA,NA,NA,92.64305177111717
93010,Ventura County,CA,NA,NA,8.71934604904632
93035,Ventura County,CA,NA,NA,56.13079019073569
93108,Santa Barbara County,CA,NA,NA,78.4741144414169
93110,Santa Barbara County,CA,NA,NA,68.39237057220708
93267,Tulare County,CA,NA,100,NA
93268,Kern County,CA,NA,NA,97.82016348773843
93292,Tulare County,CA,74.55197132616487,NA,NA
93304,Kern County,CA,49.10394265232975,NA,NA
93427,Santa Barbara County,CA,NA,92.67676767676768,NA
93455,Santa Barbara County,CA,NA,24.242424242424242,NA
93505,Kern County,CA,NA,84.34343434343434,NA
93552,Los Angeles County,CA,NA,95.95959595959596,NA
93722,Fresno County,CA,NA,NA,55.858310626703
93901,Monterey County,CA,46.236559139784944,NA,NA
93924,Monterey County,CA,NA,60.35353535353535,NA
94025,San Mateo County,CA,NA,NA,22.615803814713896
94044,San Mateo County,CA,44.80286738351255,NA,NA
94087,Santa Clara County,CA,NA,62.878787878787875,NA
94102,San Francisco County,CA,NA,NA,19.346049046321525
94107,San Francisco County,CA,NA,49.74747474747475,NA
94110,San Francisco County,CA,NA,29.545454545454547,NA
94118,San Francisco County,CA,NA,75,17.983651226158038
94121,San Francisco County,CA,NA,NA,9.264305177111716
94132,San Francisco County,CA,NA,49.24242424242424,NA
94133,San Francisco County,CA,66.30824372759857,NA,NA
94507,Contra Costa County,CA,NA,NA,65.39509536784742
94538,Alameda County,CA,NA,NA,17.166212534059948
94553,Contra Costa County,CA,NA,NA,36.51226158038147
94561,Contra Costa County,CA,NA,83.33333333333334,NA
94577,Alameda County,CA,NA,27.525252525252526,NA
94597,Contra Costa County,CA,NA,57.32323232323232,NA
94949,Marin County,CA,69.17562724014337,NA,NA
95035,Santa Clara County,CA,NA,NA,18.52861035422343
95070,Santa Clara County,CA,NA,NA,15.258855585831062
95206,San Joaquin County,CA,NA,61.36363636363637,NA
95219,San Joaquin County,CA,59.85663082437276,NA,NA
95242,San Joaquin County,CA,NA,NA,63.48773841961853
95361,Stanislaus County,CA,NA,73.73737373737373,NA
95437,Mendocino County,CA,NA,NA,25.885558583106267
95448,Sonoma County,CA,NA,94.94949494949495,NA
95451,Lake County,CA,NA,NA,50.13623978201635
95482,Mendocino County,CA,NA,NA,69.48228882833789
95501,Humboldt County,CA,68.10035842293907,NA,NA
95660,Sacramento County,CA,36.55913978494624,44.94949494949495,NA
95661,Placer County,CA,NA,42.17171717171717,NA
95747,Placer County,CA,NA,NA,8.446866485013624
95817,Sacramento County,CA,NA,NA,60.217983651226156
95831,Sacramento County,CA,49.46236559139785,NA,NA
95969,Butte County,CA,NA,42.676767676767675,NA
96003,Shasta County,CA,NA,NA,50.40871934604905
96055,Tehama County,CA,89.96415770609319,NA,NA
96080,Tehama County,CA,NA,NA,34.332425068119896
96093,Trinity County,CA,NA,NA,57.49318801089919
80012,Arapahoe County,CO,NA,NA,15.531335149863759
80207,Denver County,CO,NA,NA,61.03542234332425
80209,Denver County,CO,NA,NA,56.675749318801095
80210,Denver County,CO,NA,NA,55.5858310626703
80218,Denver County,CO,NA,NA,73.29700272479565
80233,Adams County,CO,23.297491039426525,NA,NA
80538,Larimer County,CO,NA,NA,50.95367847411444
80751,Logan County,CO,NA,NA,71.93460490463215
80907,El Paso County,CO,NA,97.22222222222221,NA
80909,El Paso County,CO,NA,NA,25.068119891008173
80922,El Paso County,CO,70.96774193548387,NA,NA
81007,Pueblo County,CO,40.50179211469534,NA,NA
81301,La Plata County,CO,NA,NA,41.96185286103542
81413,Delta County,CO,NA,80.8080808080808,NA
81623,Garfield County,CO,NA,73.23232323232324,NA
06029,Tolland County,CT,NA,NA,42.234332425068125
06040,Hartford County,CT,48.38709677419355,NA,NA
06106,Hartford County,CT,2.5089605734767026,NA,NA
06109,Hartford County,CT,NA,NA,83.10626702997274
06238,Tolland County,CT,NA,96.71717171717171,NA
06239,Windham County,CT,96.7741935483871,NA,NA
06281,Windham County,CT,NA,56.81818181818182,NA
06451,New Haven County,CT,21.863799283154123,NA,NA
06708,New Haven County,CT,NA,54.04040404040404,NA
06776,Litchfield County,CT,NA,NA,43.596730245231605
06854,Fairfield County,CT,NA,NA,50.68119891008175
06902,Fairfield County,CT,NA,9.595959595959595,NA
19805,New Castle County,DE,NA,56.060606060606055,NA
19904,Kent County,DE,53.76344086021505,NA,NA
19966,Sussex County,DE,48.74551971326165,NA,NA
32063,Baker County,FL,NA,63.13131313131313,NA
32073,Clay County,FL,NA,NA,18.80108991825613
32084,St. Johns County,FL,NA,20.95959595959596,NA
32118,Volusia County,FL,NA,48.98989898989899,NA
32129,Volusia County,FL,NA,NA,32.15258855585831
32177,Putnam County,FL,NA,NA,37.32970027247956
32218,Duval County,FL,NA,NA,20.708446866485016
32404,Bay County,FL,NA,43.686868686868685,20.435967302452315
32425,Holmes County,FL,NA,92.42424242424242,NA
32514,Escambia County,FL,NA,11.868686868686869,NA
32605,Alachua County,FL,NA,NA,20.98092643051771
32724,Volusia County,FL,NA,NA,47.13896457765668
32751,Orange County,FL,NA,40.4040404040404,NA
32812,Orange County,FL,34.05017921146953,NA,NA
32935,Brevard County,FL,79.56989247311827,NA,NA
33021,Broward County,FL,NA,87.37373737373737,NA
33036,Monroe County,FL,97.84946236559139,NA,NA
33130,Miami-Dade County,FL,NA,48.73737373737374,NA
33175,Miami-Dade County,FL,NA,18.68686868686869,NA
33177,Miami-Dade County,FL,NA,62.37373737373737,NA
33328,Broward County,FL,83.15412186379928,NA,NA
33401,Palm Beach County,FL,NA,NA,47.956403269754766
33408,Palm Beach County,FL,NA,NA,30.79019073569482
33414,Palm Beach County,FL,NA,77.02020202020202,NA
33435,Palm Beach County,FL,66.66666666666666,NA,NA
33460,Palm Beach County,FL,41.21863799283154,NA,NA
33613,Hillsborough County,FL,NA,39.141414141414145,NA
33629,Hillsborough County,FL,60.93189964157706,NA,NA
33703,Pinellas County,FL,100,NA,NA
33762,Pinellas County,FL,NA,NA,99.1825613079019
33928,Lee County,FL,NA,NA,17.43869209809264
33950,Charlotte County,FL,NA,NA,61.58038147138964
33952,Charlotte County,FL,22.22222222222222,NA,NA
33991,Lee County,FL,NA,NA,47.68392370572207
34134,Lee County,FL,NA,NA,31.062670299727518
34145,Collier County,FL,NA,NA,51.49863760217984
34232,Sarasota County,FL,NA,NA,62.67029972752044
34286,Sarasota County,FL,72.04301075268818,NA,NA
34292,Sarasota County,FL,NA,NA,36.78474114441417
34465,Citrus County,FL,54.48028673835126,NA,NA
34474,Marion County,FL,NA,71.21212121212122,NA
34481,Marion County,FL,NA,NA,9.809264305177113
34609,Hernando County,FL,NA,46.21212121212121,NA
34951,St. Lucie County,FL,NA,NA,77.3841961852861
34952,St. Lucie County,FL,NA,NA,5.722070844686648
30032,DeKalb County,GA,NA,34.090909090909086,NA
30087,DeKalb County,GA,NA,16.666666666666664,NA
30101,Cobb County,GA,NA,NA,32.9700272479564
30120,Bartow County,GA,69.53405017921148,NA,NA
30165,Floyd County,GA,NA,NA,92.91553133514986
30230,Troup County,GA,NA,NA,96.45776566757493
30248,Henry County,GA,NA,46.717171717171716,NA
30265,Coweta County,GA,NA,NA,46.049046321525886
30273,Clayton County,GA,52.68817204301075,NA,NA
30291,Fulton County,GA,NA,NA,53.67847411444142
30294,DeKalb County,GA,62.00716845878136,NA,NA
30457,Treutlen County,GA,NA,NA,93.73297002724796
30577,Stephens County,GA,NA,74.24242424242425,NA
31210,Bibb County,GA,53.04659498207885,NA,NA
31217,Bibb County,GA,NA,38.88888888888889,NA
31768,Colquitt County,GA,NA,NA,47.41144414168937
96706,Honolulu County,HI,NA,50,NA
96734,Honolulu County,HI,NA,NA,6.267029972752043
96797,Honolulu County,HI,NA,6.313131313131313,NA
96815,Honolulu County,HI,NA,84.0909090909091,NA
96816,Honolulu County,HI,NA,NA,25.340599455040874
96822,Honolulu County,HI,NA,NA,8.174386920980927
83201,Bannock County,ID,NA,NA,73.29700272479565
83204,Bannock County,ID,NA,NA,80.10899182561307
83338,Jerome County,ID,NA,19.696969696969695,NA
83501,Nez Perce County,ID,75.62724014336918,NA,NA
83703,Ada County,ID,51.971326164874554,NA,NA
83704,Ada County,ID,NA,58.838383838383834,NA
83709,Ada County,ID,NA,NA,2.997275204359673
83713,Ada County,ID,NA,NA,12.806539509536785
60042,McHenry County,IL,69.89247311827957,NA,NA
60050,McHenry County,IL,NA,NA,13.896457765667575
60056,Cook County,IL,NA,53.28282828282829,NA
60077,Cook County,IL,NA,NA,92.37057220708446
60089,Lake County,IL,NA,NA,14.168937329700274
60104,Cook County,IL,36.91756272401434,NA,NA
60134,Kane County,IL,NA,84.84848484848484,NA
60143,DuPage County,IL,NA,56.313131313131315,NA
60175,Kane County,IL,NA,NA,82.01634877384197
60185,DuPage County,IL,NA,22.22222222222222,NA
60402,Cook County,IL,NA,31.060606060606062,NA
60411,Cook County,IL,10.39426523297491,NA,NA
60510,Kane County,IL,32.97491039426524,NA,NA
60526,Cook County,IL,NA,NA,90.46321525885558
60546,Cook County,IL,NA,NA,84.19618528610354
60609,Cook County,IL,NA,NA,16.893732970027248
60610,Cook County,IL,94.26523297491039,NA,NA
60611,Cook County,IL,NA,43.18181818181818,NA
60616,Cook County,IL,NA,NA,20.16348773841962
60632,Cook County,IL,NA,23.232323232323232,NA
60633,Cook County,IL,NA,NA,45.50408719346049
60638,Cook County,IL,8.24372759856631,NA,NA
60644,Cook County,IL,4.659498207885305,NA,NA
60649,Cook County,IL,12.544802867383511,NA,NA
60950,Kankakee County,IL,NA,89.8989898989899,NA
61021,Lee County,IL,NA,NA,1.08991825613079
61088,Winnebago County,IL,NA,NA,74.11444141689373
61107,Winnebago County,IL,NA,25.5050505050505,NA
61350,LaSalle County,IL,NA,NA,89.3732970027248
61354,LaSalle County,IL,46.95340501792115,NA,NA
61520,Fulton County,IL,NA,NA,72.20708446866485
61554,Tazewell County,IL,NA,10.1010101010101,NA
61614,Peoria County,IL,63.799283154121866,NA,NA
61701,McLean County,IL,55.19713261648745,NA,NA
61761,McLean County,IL,NA,NA,73.02452316076294
61801,Champaign County,IL,NA,60.858585858585855,NA
61846,Vermilion County,IL,86.02150537634408,NA,NA
62226,St. Clair County,IL,87.45519713261649,NA,NA
62233,Randolph County,IL,NA,72.22222222222221,NA
62234,Madison County,IL,NA,72.72727272727273,NA
62401,Effingham County,IL,NA,90.65656565656566,NA
62471,Fayette County,IL,98.9247311827957,NA,NA
62526,Macon County,IL,NA,NA,58.58310626702997
62629,Sangamon County,IL,NA,85.60606060606061,NA
62681,Schuyler County,IL,NA,NA,59.12806539509536
46016,Madison County,IN,13.620071684587815,NA,NA
46140,Hancock County,IN,NA,NA,14.986376021798364
46219,Marion County,IN,NA,NA,10.626702997275205
46307,Lake County,IN,NA,NA,16.62125340599455
46368,Porter County,IN,NA,0.7575757575757576,NA
46383,Porter County,IN,4.301075268817205,NA,NA
46410,Lake County,IN,NA,4.040404040404041,NA
46526,Elkhart County,IN,NA,NA,85.83106267029973
46733,Adams County,IN,63.08243727598566,NA,NA
46808,Allen County,IN,30.107526881720432,NA,NA
46901,Howard County,IN,12.903225806451612,NA,NA
46902,Howard County,IN,NA,NA,4.632152588555858
47112,Harrison County,IN,71.32616487455196,NA,NA
47170,Scott County,IN,NA,64.39393939393939,NA
47201,Bartholomew County,IN,NA,NA,54.223433242506815
47374,Wayne County,IN,55.55555555555556,NA,NA
47403,Monroe County,IN,NA,NA,85.28610354223434
47714,Vanderburgh County,IN,NA,87.62626262626263,NA
47802,Vigo County,IN,21.14695340501792,NA,NA
50049,Lucas County,IA,NA,63.38383838383839,NA
50317,Polk County,IA,NA,37.62626262626262,NA
50501,Webster County,IA,50.179211469534046,NA,NA
50613,Black Hawk County,IA,NA,50.505050505050505,NA
50677,Bremer County,IA,NA,49.494949494949495,NA
50703,Black Hawk County,IA,NA,24.747474747474747,NA
51104,Woodbury County,IA,NA,40.15151515151515,NA
52240,Johnson County,IA,NA,15.151515151515152,NA
52804,Scott County,IA,NA,67.67676767676768,NA
52807,Scott County,IA,NA,64.8989898989899,NA
66112,Wyandotte County,KS,NA,57.07070707070707,NA
66207,Johnson County,KS,NA,NA,35.42234332425068
66214,Johnson County,KS,NA,64.64646464646465,NA
67114,Harvey County,KS,NA,NA,94.82288828337875
67216,Sedgwick County,KS,NA,52.52525252525253,NA
67217,Sedgwick County,KS,NA,88.13131313131312,NA
67401,Saline County,KS,NA,NA,84.74114441416893
67901,Seward County,KS,NA,76.76767676767676,NA
40004,Nelson County,KY,NA,20.707070707070706,NA
40160,Hardin County,KY,NA,75.75757575757575,NA
40208,Jefferson County,KY,43.727598566308245,NA,NA
40324,Scott County,KY,11.11111111111111,NA,NA
41018,Kenton County,KY,22.58064516129032,NA,NA
41076,Campbell County,KY,NA,NA,19.07356948228883
42001,McCracken County,KY,NA,15.909090909090908,NA
42003,McCracken County,KY,NA,NA,88.5558583106267
42025,Marshall County,KY,39.06810035842294,NA,NA
42301,Daviess County,KY,7.526881720430108,NA,NA
42431,Hopkins County,KY,61.648745519713266,NA,NA
42642,Russell County,KY,NA,NA,51.22615803814714
42653,McCreary County,KY,81.36200716845879,NA,NA
70001,Jefferson Parish,LA,84.94623655913979,NA,NA
70071,St. James Parish,LA,NA,NA,100
70117,Orleans Parish,LA,2.1505376344086025,NA,NA
70126,Orleans Parish,LA,NA,88.38383838383838,NA
70380,St. Mary Parish,LA,19.71326164874552,NA,NA
70441,St. Helena Parish,LA,56.98924731182796,NA,NA
70560,Iberia Parish,LA,NA,68.18181818181817,NA
70810,East Baton Rouge Parish,LA,5.017921146953405,NA,NA
71055,Webster Parish,LA,NA,28.535353535353536,NA
71104,Caddo Parish,LA,39.784946236559136,NA,NA
71105,Caddo Parish,LA,NA,NA,33.5149863760218
71295,Franklin Parish,LA,16.48745519713262,NA,NA
71301,Rapides Parish,LA,NA,27.02020202020202,NA
71446,Vernon Parish,LA,34.76702508960574,NA,NA
71457,Natchitoches Parish,LA,NA,45.95959595959596,NA
04090,York County,ME,NA,NA,89.10081743869209
04101,Cumberland County,ME,NA,79.54545454545455,NA
04103,Cumberland County,ME,18.996415770609318,NA,NA
04105,Cumberland County,ME,NA,NA,40.05449591280654
04401,Penobscot County,ME,NA,NA,8.991825613079019
04578,Lincoln County,ME,76.70250896057348,NA,NA
04976,Somerset County,ME,NA,12.626262626262626,NA
20601,Charles County,MD,58.422939068100355,NA,NA
20715,Prince George's County,MD,82.79569892473118,NA,NA
20735,Prince George's County,MD,NA,NA,52.043596730245234
20833,Montgomery County,MD,NA,NA,79.291553133515
21001,Harford County,MD,NA,NA,82.28882833787466
21060,Anne Arundel County,MD,NA,71.46464646464646,NA
21205,Baltimore city,MD,99.6415770609319,NA,NA
21206,Baltimore city,MD,NA,NA,76.566757493188
21208,Baltimore County,MD,NA,NA,37.60217983651226
21213,Baltimore city,MD,17.562724014336915,NA,NA
21215,Baltimore city,MD,62.72401433691756,NA,NA
21234,Baltimore County,MD,15.053763440860216,NA,NA
21244,Baltimore County,MD,NA,86.61616161616162,NA
21613,Dorchester County,MD,NA,42.92929292929293,NA
21620,Kent County,MD,NA,46.464646464646464,NA
21740,Washington County,MD,NA,20.454545454545457,NA
21742,Washington County,MD,NA,NA,31.33514986376022
21842,Worcester County,MD,NA,NA,88.28337874659401
21863,Worcester County,MD,NA,79.29292929292929,NA
21901,Cecil County,MD,NA,55.3030303030303,NA
01089,Hampden County,MA,NA,23.484848484848484,NA
01201,Berkshire County,MA,0,NA,NA
01331,Worcester County,MA,NA,25.757575757575758,NA
01701,Middlesex County,MA,NA,NA,5.994550408719346
01749,Middlesex County,MA,NA,NA,40.87193460490463
01826,Middlesex County,MA,NA,2.272727272727273,NA
01906,Essex County,MA,1.0752688172043012,NA,4.35967302452316
01949,Essex County,MA,41.935483870967744,NA,NA
02052,Norfolk County,MA,NA,NA,68.39237057220708
02062,Norfolk County,MA,NA,NA,91.28065395095368
02072,Norfolk County,MA,NA,NA,60.76294277929155
02115,Suffolk County,MA,NA,NA,2.17983651226158
02132,Suffolk County,MA,NA,NA,3.8147138964577656
02135,Suffolk County,MA,NA,96.96969696969697,NA
02155,Middlesex County,MA,NA,NA,4.904632152588556
02346,Plymouth County,MA,NA,10.353535353535353,NA
02360,Plymouth County,MA,NA,77.27272727272727,NA
02368,Norfolk County,MA,38.70967741935484,NA,NA
02370,Plymouth County,MA,NA,NA,93.46049046321527
02379,Plymouth County,MA,NA,NA,99.45504087193461
02421,Middlesex County,MA,NA,29.292929292929294,NA
02482,Norfolk County,MA,NA,NA,63.76021798365122
02492,Norfolk County,MA,NA,NA,34.87738419618528
02631,Barnstable County,MA,NA,NA,31.607629427792915
02703,Bristol County,MA,NA,9.090909090909092,NA
02780,Bristol County,MA,1.7921146953405016,12.121212121212121,NA
48030,Oakland County,MI,NA,69.94949494949495,NA
48038,Macomb County,MI,37.992831541218635,NA,NA
48075,Oakland County,MI,27.956989247311824,NA,NA
48085,Oakland County,MI,NA,21.96969696969697,NA
48103,Washtenaw County,MI,NA,0.25252525252525254,NA
48184,Wayne County,MI,55.91397849462365,NA,NA
48192,Wayne County,MI,NA,73.98989898989899,NA
48195,Wayne County,MI,NA,76.26262626262627,NA
48204,Wayne County,MI,NA,24.494949494949495,NA
48215,Wayne County,MI,NA,97.72727272727273,NA
48224,Wayne County,MI,27.598566308243726,NA,NA
48240,Wayne County,MI,NA,NA,64.85013623978202
48302,Oakland County,MI,NA,NA,89.64577656675749
48307,Oakland County,MI,NA,NA,38.96457765667575
48363,Oakland County,MI,NA,NA,87.46594005449592
48446,Lapeer County,MI,13.261648745519713,NA,NA
48504,Genesee County,MI,42.65232974910394,58.333333333333336,NA
48661,Ogemaw County,MI,NA,NA,26.158038147138964
49002,Kalamazoo County,MI,NA,NA,48.501362397820166
49012,Kalamazoo County,MI,NA,98.98989898989899,NA
49017,Calhoun County,MI,26.16487455197133,NA,NA
49022,Berrien County,MI,32.61648745519714,NA,NA
49085,Berrien County,MI,NA,32.82828282828283,NA
49120,Berrien County,MI,NA,74.74747474747475,NA
49221,Lenawee County,MI,NA,4.797979797979798,NA
49348,Allegan County,MI,29.39068100358423,NA,NA
49507,Kent County,MI,NA,86.86868686868688,NA
49509,Kent County,MI,10.75268817204301,NA,NA
55040,Isanti County,MN,NA,55.05050505050505,NA
55057,Rice County,MN,NA,47.97979797979798,NA
55109,Ramsey County,MN,NA,22.97979797979798,NA
55112,Ramsey County,MN,NA,NA,57.22070844686649
55113,Ramsey County,MN,NA,35.60606060606061,NA
55303,Anoka County,MN,NA,NA,97.54768392370572
55328,Wright County,MN,NA,NA,49.863760217983646
55403,Hennepin County,MN,NA,NA,40.59945504087194
55410,Hennepin County,MN,NA,NA,87.73841961852861
55420,Hennepin County,MN,NA,82.82828282828282,NA
55432,Anoka County,MN,20.43010752688172,NA,NA
55439,Hennepin County,MN,NA,77.52525252525253,NA
55449,Anoka County,MN,NA,NA,70.84468664850137
55810,St. Louis County,MN,NA,NA,52.58855585831063
55906,Olmsted County,MN,NA,NA,70.57220708446866
56082,Nicollet County,MN,NA,NA,64.03269754768392
56301,Stearns County,MN,NA,NA,84.46866485013625
56501,Becker County,MN,95.6989247311828,NA,14.713896457765669
38632,DeSoto County,MS,NA,73.23232323232324,NA
38635,Marshall County,MS,64.87455197132617,NA,NA
38655,Lafayette County,MS,NA,52.27272727272727,NA
38671,DeSoto County,MS,NA,40.65656565656566,NA
38801,Lee County,MS,NA,83.83838383838383,NA
38852,Tishomingo County,MS,NA,81.56565656565657,NA
38916,Calhoun County,MS,NA,91.16161616161617,NA
39069,Jefferson County,MS,NA,NA,99.72752043596729
39074,Scott County,MS,NA,48.484848484848484,NA
39208,Rankin County,MS,NA,NA,22.070844686648503
39328,Kemper County,MS,NA,NA,89.91825613079018
39429,Marion County,MS,NA,51.010101010101,NA
39437,Jones County,MS,53.40501792114696,NA,NA
39440,Jones County,MS,86.37992831541219,NA,NA
39531,Harrison County,MS,60.215053763440864,NA,NA
39540,Harrison County,MS,NA,48.23232323232323,NA
39567,Jackson County,MS,NA,68.43434343434343,NA
39574,Harrison County,MS,81.72043010752688,NA,NA
63080,Franklin County,MO,92.47311827956989,NA,NA
63111,St. Louis city,MO,NA,NA,55.04087193460491
63119,St. Louis County,MO,NA,NA,64.30517711171662
63122,St. Louis County,MO,50.53763440860215,NA,NA
63129,St. Louis County,MO,NA,NA,80.38147138964578
63136,St. Louis County,MO,3.942652329749104,NA,NA
63301,St. Charles County,MO,NA,3.0303030303030303,NA
63640,St. Francois County,MO,NA,28.28282828282828,NA
63701,Cape Girardeau County,MO,36.200716845878134,NA,NA
63901,Butler County,MO,NA,18.181818181818183,NA
64037,Lafayette County,MO,92.1146953405018,NA,NA
64052,Jackson County,MO,9.31899641577061,NA,NA
64057,Jackson County,MO,NA,61.86868686868687,NA
64110,Jackson County,MO,33.33333333333333,NA,NA
64155,Clay County,MO,NA,17.929292929292927,NA
64503,Buchanan County,MO,NA,NA,36.23978201634878
64720,Bates County,MO,92.831541218638,NA,NA
65049,Camden County,MO,NA,66.41414141414141,NA
65203,Boone County,MO,NA,NA,25.61307901907357
65270,Randolph County,MO,24.731182795698924,NA,NA
65401,Phelps County,MO,NA,13.636363636363635,NA
65559,Phelps County,MO,NA,NA,85.01362397820164
65656,Stone County,MO,NA,75.25252525252525,NA
65806,Greene County,MO,NA,93.68686868686868,NA
59404,Cascade County,MT,NA,9.343434343434344,NA
59701,Silver Bow County,MT,NA,NA,39.23705722070845
68122,Douglas County,NE,NA,74.4949494949495,NA
68131,Douglas County,NE,NA,94.1919191919192,NA
68134,Douglas County,NE,NA,43.43434343434344,NA
68147,Sarpy County,NE,NA,NA,86.92098092643052
68154,Douglas County,NE,NA,93.43434343434343,NA
68355,Richardson County,NE,NA,69.6969696969697,NA
68776,Dakota County,NE,NA,NA,73.84196185286103
69101,Lincoln County,NE,NA,NA,61.85286103542234
89104,Clark County,NV,NA,63.888888888888886,NA
89107,Clark County,NV,NA,89.14141414141415,NA
89122,Clark County,NV,NA,61.61616161616161,NA
89141,Clark County,NV,96.05734767025089,NA,NA
89523,Washoe County,NV,NA,51.26262626262626,NA
03031,Hillsborough County,NH,NA,NA,68.11989100817438
03032,Rockingham County,NH,NA,NA,82.56130790190736
03103,Hillsborough County,NH,72.75985663082437,NA,NA
03104,Hillsborough County,NH,78.85304659498208,NA,NA
03220,Belknap County,NH,78.13620071684588,NA,NA
03246,Belknap County,NH,NA,NA,16.348773841961854
07006,Essex County,NJ,NA,NA,39.782016348773844
07008,Middlesex County,NJ,65.94982078853047,NA,NA
07024,Bergen County,NJ,NA,NA,34.60490463215259
07042,Essex County,NJ,63.44086021505376,NA,NA
07054,Morris County,NJ,NA,NA,28.337874659400548
07055,Passaic County,NJ,NA,2.525252525252525,NA
07069,Somerset County,NJ,NA,NA,94.00544959128065
07103,Essex County,NJ,27.24014336917563,NA,NA
07105,Essex County,NJ,NA,NA,86.37602179836512
07107,Essex County,NJ,0.35842293906810035,NA,NA
07307,Hudson County,NJ,NA,NA,28.065395095367844
07410,Bergen County,NJ,NA,80.05050505050505,27.79291553133515
07424,Passaic County,NJ,NA,40.909090909090914,NA
07642,Bergen County,NJ,NA,NA,88.8283378746594
07666,Bergen County,NJ,NA,NA,11.716621253405995
07840,Warren County,NJ,56.98924731182796,NA,NA
07869,Morris County,NJ,NA,36.36363636363637,NA
08012,Camden County,NJ,NA,12.373737373737374,NA
08033,Camden County,NJ,NA,NA,96.18528610354224
08052,Burlington County,NJ,NA,57.82828282828283,NA
08062,Gloucester County,NJ,NA,95.45454545454545,NA
08070,Salem County,NJ,NA,90.9090909090909,NA
08244,Atlantic County,NJ,90.32258064516128,NA,NA
08534,Mercer County,NJ,NA,NA,67.0299727520436
08690,Mercer County,NJ,NA,NA,40.32697547683924
08723,Ocean County,NJ,14.336917562724013,68.93939393939394,NA
08742,Ocean County,NJ,NA,NA,79.56403269754769
08755,Ocean County,NJ,NA,NA,7.3569482288828345
08757,Ocean County,NJ,NA,3.2828282828282833,NA
08758,Ocean County,NJ,72.75985663082437,NA,52.86103542234333
08831,Middlesex County,NJ,NA,NA,60.49046321525886
08837,Middlesex County,NJ,NA,69.44444444444444,NA
08857,Middlesex County,NJ,NA,NA,19.618528610354225
87013,Sandoval County,NM,NA,NA,94.27792915531336
87105,Bernalillo County,NM,NA,NA,13.623978201634879
87114,Bernalillo County,NM,5.376344086021505,NA,NA
87144,Sandoval County,NM,NA,15.656565656565657,NA
88220,Eddy County,NM,NA,17.67676767676768,NA
88260,Lea County,NM,NA,30.808080808080806,NA
88310,Otero County,NM,NA,3.787878787878788,NA
10009,New York County,NY,NA,4.292929292929292,NA
10011,New York County,NY,NA,NA,10.899182561307901
10029,New York County,NY,2.867383512544803,NA,NA
10301,Richmond County,NY,40.86021505376344,NA,NA
10314,Richmond County,NY,NA,NA,4.087193460490464
10469,Bronx County,NY,1.4336917562724014,NA,NA
10471,Bronx County,NY,NA,NA,31.88010899182561
10952,Rockland County,NY,NA,NA,81.47138964577657
11040,Nassau County,NY,NA,NA,23.43324250681199
11206,Kings County,NY,NA,NA,3.5422343324250685
11212,Kings County,NY,26.881720430107524,NA,NA
11213,Kings County,NY,NA,5.555555555555555,NA
11229,Kings County,NY,51.25448028673835,NA,NA
11231,Kings County,NY,37.634408602150536,NA,NA
11233,Kings County,NY,NA,NA,6.811989100817439
11238,Kings County,NY,NA,11.616161616161616,NA
11368,Queens County,NY,NA,NA,12.534059945504087
11372,Queens County,NY,NA,NA,6.539509536784741
11385,Queens County,NY,7.168458781362006,NA,NA
11419,Queens County,NY,NA,NA,71.11716621253406
11420,Queens County,NY,NA,NA,24.52316076294278
11518,Nassau County,NY,85.66308243727599,NA,NA
11691,Queens County,NY,NA,7.07070707070707,NA
11706,Suffolk County,NY,NA,26.262626262626267,NA
11756,Nassau County,NY,71.68458781362007,NA,97.27520435967303
11771,Nassau County,NY,NA,98.23232323232324,NA
11772,Suffolk County,NY,NA,NA,58.03814713896458
11795,Suffolk County,NY,NA,NA,23.160762942779293
11967,Suffolk County,NY,54.83870967741935,NA,NA
12019,Saratoga County,NY,NA,NA,53.13351498637602
12110,Albany County,NY,NA,65.15151515151516,NA
12118,Saratoga County,NY,NA,NA,62.125340599455036
12134,Fulton County,NY,NA,72.97979797979798,NA
12204,Albany County,NY,NA,NA,78.7465940054496
12446,Ulster County,NY,92.831541218638,NA,NA
12538,Dutchess County,NY,94.6236559139785,NA,NA
12589,Ulster County,NY,NA,NA,83.65122615803816
12828,Washington County,NY,NA,NA,43.869209809264305
13021,Cayuga County,NY,NA,NA,41.689373297002724
13027,Onondaga County,NY,NA,NA,92.09809264305177
13148,Seneca County,NY,NA,NA,76.02179836512262
13210,Onondaga County,NY,NA,NA,66.4850136239782
13211,Onondaga County,NY,NA,97.97979797979798,NA
13214,Onondaga County,NY,NA,NA,65.9400544959128
13492,Oneida County,NY,NA,37.878787878787875,NA
13820,Otsego County,NY,7.885304659498208,NA,NA
13905,Broome County,NY,NA,NA,1.3623978201634876
14043,Erie County,NY,30.824372759856633,NA,NA
14120,Niagara County,NY,NA,NA,69.75476839237056
14150,Erie County,NY,3.225806451612903,NA,NA
14224,Erie County,NY,64.51612903225806,NA,NA
14304,Niagara County,NY,NA,2.7777777777777777,NA
14305,Niagara County,NY,NA,27.02020202020202,NA
14423,Livingston County,NY,76.34408602150538,NA,NA
14425,Ontario County,NY,NA,19.94949494949495,NA
14527,Yates County,NY,NA,NA,95.36784741144415
14572,Steuben County,NY,NA,56.56565656565656,NA
14605,Monroe County,NY,NA,41.41414141414141,54.495912806539515
14609,Monroe County,NY,NA,NA,15.803814713896458
14622,Monroe County,NY,20.78853046594982,NA,NA
14801,Steuben County,NY,NA,98.73737373737373,NA
14807,Steuben County,NY,NA,91.41414141414141,NA
14850,Tompkins County,NY,NA,5.808080808080808,NA
27030,Surry County,NC,NA,NA,43.05177111716621
27106,Forsyth County,NC,NA,2.0202020202020203,NA
27258,Alamance County,NC,NA,NA,74.65940054495913
27265,Guilford County,NC,NA,NA,45.776566757493185
27284,Forsyth County,NC,25.089605734767023,NA,NA
27288,Rockingham County,NC,NA,NA,32.69754768392371
27401,Guilford County,NC,NA,NA,45.23160762942779
27407,Guilford County,NC,17.20430107526882,NA,NA
27537,Vance County,NC,70.60931899641577,NA,NA
27565,Granville County,NC,NA,88.63636363636364,NA
27573,Person County,NC,NA,92.92929292929293,NA
27574,Person County,NC,NA,NA,71.66212534059946
27587,Wake County,NC,NA,30.303030303030305,NA
27609,Wake County,NC,NA,82.57575757575758,22.3433242506812
27615,Wake County,NC,NA,36.868686868686865,NA
27804,Nash County,NC,NA,NA,29.427792915531338
27889,Beaufort County,NC,NA,18.434343434343432,NA
27896,Wilson County,NC,NA,85.1010101010101,NA
28025,Cabarrus County,NC,35.12544802867383,NA,NA
28034,Gaston County,NC,NA,NA,57.765667574931875
28083,Cabarrus County,NC,54.121863799283155,NA,NA
28110,Union County,NC,NA,NA,12.26158038147139
28112,Union County,NC,NA,54.54545454545454,NA
28117,Iredell County,NC,NA,25,NA
28328,Sampson County,NC,NA,17.424242424242426,NA
28364,Robeson County,NC,64.15770609318996,NA,NA
28374,Moore County,NC,NA,NA,10.08174386920981
28376,Hoke County,NC,NA,NA,83.92370572207084
28377,Robeson County,NC,82.07885304659499,NA,NA
28379,Richmond County,NC,NA,NA,26.70299727520436
28384,Bladen County,NC,NA,60.1010101010101,NA
28540,Onslow County,NC,NA,NA,95.91280653950953
28625,Iredell County,NC,NA,14.393939393939394,NA
28638,Caldwell County,NC,45.51971326164875,NA,NA
28690,Burke County,NC,46.236559139784944,NA,NA
28705,Mitchell County,NC,NA,65.65656565656566,NA
28712,Transylvania County,NC,43.36917562724014,NA,NA
28715,Buncombe County,NC,NA,NA,91.82561307901908
28752,McDowell County,NC,13.978494623655912,NA,NA
28786,Haywood County,NC,32.25806451612903,NA,NA
28792,Henderson County,NC,28.31541218637993,NA,NA
58474,Dickey County,ND,NA,96.21212121212122,NA
43023,Licking County,OH,NA,62.62626262626263,NA
43040,Union County,OH,NA,65.9090909090909,NA
43055,Licking County,OH,NA,77.77777777777779,1.9073569482288828
43068,Franklin County,OH,8.60215053763441,NA,NA
43113,Pickaway County,OH,NA,34.84848484848485,NA
43302,Marion County,OH,NA,1.5151515151515151,NA
43311,Logan County,OH,NA,NA,39.23705722070845
43560,Lucas County,OH,NA,53.03030303030303,NA
43605,Lucas County,OH,NA,17.17171717171717,NA
43616,Lucas County,OH,10.03584229390681,NA,NA
43723,Guernsey County,OH,NA,NA,77.65667574931881
43725,Guernsey County,OH,NA,6.8181818181818175,NA
43952,Jefferson County,OH,NA,8.83838383838384,27.247956403269757
44012,Lorain County,OH,NA,NA,5.177111716621254
44024,Geauga County,OH,NA,61.111111111111114,NA
44030,Ashtabula County,OH,NA,NA,29.972752043596728
44035,Lorain County,OH,0.7168458781362007,NA,NA
44055,Lorain County,OH,NA,NA,10.354223433242508
44060,Lake County,OH,3.584229390681003,NA,NA
44067,Summit County,OH,NA,13.88888888888889,NA
44077,Lake County,OH,NA,1.7676767676767675,NA
44087,Summit County,OH,NA,NA,1.6348773841961852
44089,Erie County,OH,NA,8.585858585858585,NA
44108,Cuyahoga County,OH,87.09677419354838,NA,NA
44110,Cuyahoga County,OH,NA,NA,59.40054495912806
44114,Cuyahoga County,OH,NA,NA,70.02724795640327
44121,Cuyahoga County,OH,6.810035842293908,NA,NA
44124,Cuyahoga County,OH,NA,NA,0
44130,Cuyahoga County,OH,20.07168458781362,NA,NA
44133,Cuyahoga County,OH,NA,NA,35.14986376021799
44138,Cuyahoga County,OH,NA,45.20202020202021,NA
44143,Cuyahoga County,OH,NA,NA,0.544959128065395
44144,Cuyahoga County,OH,NA,7.3232323232323235,NA
44146,Cuyahoga County,OH,NA,0.5050505050505051,NA
44266,Portage County,OH,NA,6.565656565656567,NA
44312,Summit County,OH,NA,8.333333333333332,NA
44314,Summit County,OH,NA,66.91919191919192,NA
44405,Mahoning County,OH,NA,NA,52.043596730245234
44420,Trumbull County,OH,34.40860215053764,NA,NA
44440,Trumbull County,OH,NA,67.92929292929293,NA
44485,Trumbull County,OH,NA,66.16161616161617,NA
44511,Mahoning County,OH,NA,64.14141414141415,NA
44683,Tuscarawas County,OH,NA,93.93939393939394,NA
44691,Wayne County,OH,NA,5.303030303030303,NA
44720,Stark County,OH,NA,NA,37.87465940054496
44730,Stark County,OH,NA,NA,98.63760217983652
44813,Richland County,OH,NA,NA,62.94277929155313
44820,Crawford County,OH,NA,NA,21.25340599455041
44875,Richland County,OH,NA,37.121212121212125,NA
44883,Seneca County,OH,15.770609318996415,NA,NA
44906,Richland County,OH,30.46594982078853,NA,NA
45013,Butler County,OH,NA,NA,2.7247956403269753
45036,Warren County,OH,18.27956989247312,NA,NA
45040,Warren County,OH,NA,27.77777777777778,NA
45106,Clermont County,OH,87.81362007168458,NA,NA
45211,Hamilton County,OH,31.54121863799283,NA,NA
45212,Hamilton County,OH,NA,44.696969696969695,NA
45231,Hamilton County,OH,NA,14.14141414141414,9.536784741144414
45233,Hamilton County,OH,NA,NA,88.0108991825613
45236,Hamilton County,OH,68.81720430107528,NA,NA
45241,Hamilton County,OH,NA,55.55555555555556,NA
45251,Hamilton County,OH,NA,NA,59.945504087193456
45344,Clark County,OH,NA,94.6969696969697,NA
45356,Miami County,OH,NA,33.58585858585859,63.21525885558583
45365,Shelby County,OH,NA,NA,21.525885558583106
45414,Montgomery County,OH,NA,39.39393939393939,NA
45416,Montgomery County,OH,72.40143369175627,NA,NA
45417,Montgomery County,OH,6.093189964157706,NA,NA
45439,Montgomery County,OH,NA,NA,66.21253405994551
45601,Ross County,OH,45.16129032258064,NA,NA
45638,Lawrence County,OH,NA,NA,21.798365122615802
45640,Jackson County,OH,75.98566308243727,NA,NA
45657,Scioto County,OH,93.54838709677419,NA,NA
45669,Lawrence County,OH,77.06093189964157,NA,NA
45690,Pike County,OH,NA,39.8989898989899,NA
45694,Scioto County,OH,80.64516129032258,NA,NA
45714,Washington County,OH,NA,NA,66.4850136239782
45801,Allen County,OH,NA,NA,30.24523160762943
45806,Allen County,OH,74.91039426523297,NA,NA
45885,Auglaize County,OH,NA,NA,95.09536784741145
73010,McClain County,OK,41.57706093189964,NA,NA
73020,Oklahoma County,OK,61.29032258064516,NA,NA
73030,Murray County,OK,98.2078853046595,70.2020202020202,NA
73072,Cleveland County,OK,NA,NA,69.20980926430518
73075,Garvin County,OK,NA,NA,94.55040871934605
73107,Oklahoma County,OK,NA,93.18181818181817,NA
73110,Oklahoma County,OK,58.06451612903226,NA,NA
73132,Oklahoma County,OK,NA,NA,93.18801089918256
73533,Stephens County,OK,NA,59.34343434343434,NA
74075,Payne County,OK,NA,NA,38.41961852861036
74135,Tulsa County,OK,NA,32.57575757575758,NA
74136,Tulsa County,OK,NA,34.5959595959596,NA
74403,Muskogee County,OK,NA,NA,23.978201634877383
74432,McIntosh County,OK,NA,99.24242424242425,NA
74804,Pottawatomie County,OK,56.272401433691755,NA,NA
74820,Pontotoc County,OK,NA,5.05050505050505,NA
74959,Le Flore County,OK,NA,NA,90.73569482288828
97007,Washington County,OR,NA,NA,29.70027247956403
97062,Washington County,OR,NA,47.474747474747474,NA
97203,Multnomah County,OR,NA,NA,67.57493188010899
97220,Multnomah County,OR,NA,23.98989898989899,NA
97236,Multnomah County,OR,NA,20.2020202020202,NA
97306,Marion County,OR,47.67025089605735,NA,NA
97321,Linn County,OR,24.014336917562723,NA,NA
97322,Linn County,OR,11.469534050179211,NA,NA
97401,Lane County,OR,NA,53.535353535353536,NA
97402,Lane County,OR,17.921146953405017,NA,NA
97423,Coos County,OR,NA,58.080808080808076,NA
97477,Lane County,OR,NA,50.252525252525245,NA
97504,Jackson County,OR,NA,11.11111111111111,NA
97535,Jackson County,OR,NA,54.7979797979798,NA
97702,Deschutes County,OR,NA,30.05050505050505,NA
97801,Umatilla County,OR,NA,NA,14.441416893732969
15120,Allegheny County,PA,NA,34.090909090909086,NA
15122,Allegheny County,PA,NA,42.42424242424242,NA
15146,Allegheny County,PA,NA,NA,23.705722070844686
15219,Allegheny County,PA,28.673835125448026,NA,33.787465940054496
15235,Allegheny County,PA,NA,12.878787878787879,NA
15301,Washington County,PA,NA,23.737373737373737,NA
15320,Greene County,PA,NA,70.70707070707071,NA
15370,Greene County,PA,NA,89.39393939393939,NA
15650,Westmoreland County,PA,NA,NA,34.05994550408719
15825,Jefferson County,PA,NA,58.58585858585859,NA
15857,Elk County,PA,NA,NA,30.517711171662125
16101,Lawrence County,PA,NA,26.767676767676768,NA
17034,Dauphin County,PA,88.17204301075269,NA,NA
17050,Cumberland County,PA,47.31182795698925,NA,NA
17070,Cumberland County,PA,NA,NA,75.74931880108991
17331,York County,PA,NA,0,NA
17347,York County,PA,NA,99.74747474747475,NA
17522,Lancaster County,PA,NA,9.848484848484848,NA
17701,Lycoming County,PA,NA,NA,26.975476839237057
17737,Lycoming County,PA,NA,NA,98.09264305177112
17745,Clinton County,PA,83.51254480286738,NA,NA
18013,Northampton County,PA,NA,32.07070707070707,NA
18018,Lehigh County,PA,NA,7.575757575757576,48.77384196185286
18040,Northampton County,PA,NA,33.33333333333333,NA
18049,Lehigh County,PA,88.5304659498208,NA,NA
18102,Lehigh County,PA,5.734767025089606,NA,NA
18235,Carbon County,PA,NA,NA,29.155313351498634
18301,Monroe County,PA,31.899641577060933,NA,NA
18444,Lackawanna County,PA,NA,55.80808080808081,NA
18508,Lackawanna County,PA,NA,35.35353535353536,NA
18512,Lackawanna County,PA,NA,78.28282828282829,NA
18519,Lackawanna County,PA,NA,83.58585858585859,NA
18704,Luzerne County,PA,15.412186379928317,NA,NA
19002,Montgomery County,PA,NA,NA,78.2016348773842
19015,Delaware County,PA,NA,NA,72.75204359673025
19020,Bucks County,PA,73.47670250896059,NA,NA
19021,Bucks County,PA,NA,98.48484848484848,NA
19040,Montgomery County,PA,NA,35.1010101010101,NA
19057,Bucks County,PA,NA,NA,35.967302452316076
19121,Philadelphia County,PA,65.23297491039428,NA,NA
19124,Philadelphia County,PA,NA,NA,49.59128065395095
19131,Philadelphia County,PA,22.939068100358423,NA,NA
19133,Philadelphia County,PA,NA,25.757575757575758,NA
19140,Philadelphia County,PA,NA,7.828282828282829,NA
19149,Philadelphia County,PA,NA,NA,24.795640326975477
19152,Philadelphia County,PA,44.44444444444444,NA,NA
19320,Chester County,PA,NA,66.66666666666666,NA
19438,Montgomery County,PA,NA,NA,26.430517711171664
19446,Montgomery County,PA,NA,38.131313131313135,28.610354223433244
19606,Berks County,PA,NA,4.545454545454546,NA
19607,Berks County,PA,NA,NA,11.444141689373296
02806,Bristol County,RI,NA,NA,42.77929155313351
02920,Providence County,RI,25.448028673835125,NA,7.901907356948229
29059,Orangeburg County,SC,74.19354838709677,NA,NA
29102,Clarendon County,SC,NA,65.40404040404042,NA
29153,Sumter County,SC,NA,94.44444444444444,NA
29180,Fairfield County,SC,NA,NA,65.66757493188011
29203,Richland County,SC,NA,16.414141414141415,NA
29307,Spartanburg County,SC,NA,NA,38.14713896457766
29340,Cherokee County,SC,NA,75.5050505050505,NA
29369,Spartanburg County,SC,NA,NA,91.55313351498637
29372,Spartanburg County,SC,89.6057347670251,NA,NA
29477,Dorchester County,SC,NA,97.47474747474747,NA
29520,Chesterfield County,SC,NA,45.45454545454545,NA
29576,Horry County,SC,NA,NA,13.079019073569482
29579,Horry County,SC,NA,NA,32.42506811989101
29588,Horry County,SC,NA,NA,46.321525885558586
29627,Anderson County,SC,NA,43.686868686868685,NA
29640,Pickens County,SC,19.35483870967742,NA,NA
29646,Greenwood County,SC,NA,NA,22.888283378746593
29681,Greenville County,SC,NA,70.45454545454545,NA
29687,Greenville County,SC,NA,44.44444444444444,NA
29720,Lancaster County,SC,NA,95.2020202020202,NA
29728,Chesterfield County,SC,96.415770609319,NA,NA
29841,Aiken County,SC,NA,86.11111111111111,NA
29927,Jasper County,SC,84.22939068100358,NA,NA
29936,Jasper County,SC,NA,NA,80.92643051771117
57106,Minnehaha County,SD,NA,59.09090909090909,NA
37172,Robertson County,TN,NA,25.252525252525253,NA
37323,Bradley County,TN,37.27598566308244,NA,NA
37336,Bradley County,TN,NA,89.64646464646465,NA
37411,Hamilton County,TN,35.842293906810035,NA,NA
37643,Carter County,TN,NA,NA,80.65395095367847
37725,Jefferson County,TN,68.10035842293907,NA,NA
37763,Roane County,TN,NA,31.313131313131315,NA
37861,Grainger County,TN,NA,99.4949494949495,NA
37912,Knox County,TN,NA,NA,43.869209809264305
38119,Shelby County,TN,NA,95.70707070707071,NA
75040,Dallas County,TX,NA,21.71717171717172,NA
75070,Collin County,TX,NA,NA,55.313351498637594
75074,Collin County,TX,NA,51.515151515151516,46.86648501362398
75137,Dallas County,TX,NA,NA,48.228882833787466
75180,Dallas County,TX,NA,NA,86.64850136239782
75215,Dallas County,TX,NA,NA,67.8474114441417
75216,Dallas County,TX,NA,NA,5.449591280653951
75218,Dallas County,TX,NA,NA,97.00272479564033
75563,Cass County,TX,NA,81.06060606060606,NA
75672,Harrison County,TX,NA,NA,44.6866485013624
75706,Smith County,TX,97.4910394265233,NA,NA
75708,Smith County,TX,NA,67.17171717171718,NA
75771,Smith County,TX,NA,NA,11.989100817438691
75773,Wood County,TX,NA,21.21212121212121,NA
75783,Wood County,TX,NA,63.63636363636363,NA
76085,Parker County,TX,91.0394265232975,NA,NA
76108,Tarrant County,TX,78.49462365591397,NA,NA
76426,Wise County,TX,86.73835125448028,NA,NA
76877,San Saba County,TX,NA,NA,72.47956403269755
77006,Harris County,TX,NA,72.47474747474747,NA
77013,Harris County,TX,75.26881720430107,NA,NA
77025,Harris County,TX,NA,53.78787878787878,NA
77036,Harris County,TX,NA,NA,75.47683923705722
77068,Harris County,TX,NA,87.12121212121212,NA
77088,Harris County,TX,25.806451612903224,NA,NA
77092,Harris County,TX,NA,71.96969696969697,NA
77318,Montgomery County,TX,95.3405017921147,NA,NA
77351,Polk County,TX,65.59139784946237,NA,NA
77375,Harris County,TX,NA,88.88888888888889,NA
77488,Wharton County,TX,89.24731182795699,NA,NA
77531,Brazoria County,TX,NA,82.07070707070707,NA
77535,Liberty County,TX,NA,78.78787878787878,NA
77554,Galveston County,TX,NA,NA,70.29972752043598
77573,Galveston County,TX,NA,3.535353535353535,NA
77584,Brazoria County,TX,8.960573476702509,NA,NA
77590,Galveston County,TX,NA,11.363636363636363,NA
77802,Brazos County,TX,NA,NA,7.629427792915531
77840,Brazos County,TX,NA,NA,59.67302452316077
78043,Webb County,TX,NA,22.727272727272727,NA
78069,Atascosa County,TX,NA,NA,86.10354223433242
78114,Wilson County,TX,NA,62.121212121212125,NA
78204,Bexar County,TX,NA,NA,95.64032697547684
78212,Bexar County,TX,NA,31.565656565656564,NA
78218,Bexar County,TX,NA,NA,87.19346049046321
78223,Bexar County,TX,59.13978494623656,NA,NA
78227,Bexar County,TX,58.78136200716846,NA,NA
78237,Bexar County,TX,NA,NA,76.29427792915531
78249,Bexar County,TX,NA,71.71717171717171,NA
78259,Bexar County,TX,67.02508960573476,NA,NA
78332,Jim Wells County,TX,NA,NA,42.50681198910082
78418,Nueces County,TX,83.87096774193549,NA,NA
78574,Hidalgo County,TX,33.691756272401435,NA,NA
78578,Cameron County,TX,84.58781362007169,NA,NA
78665,Williamson County,TX,NA,NA,56.403269754768395
78731,Travis County,TX,NA,NA,56.94822888283378
78735,Travis County,TX,NA,NA,61.30790190735694
79603,Taylor County,TX,26.523297491039425,NA,NA
79707,Midland County,TX,82.43727598566308,NA,NA
79761,Ector County,TX,NA,76.51515151515152,NA
79924,El Paso County,TX,NA,NA,17.71117166212534
84014,Davis County,UT,NA,NA,98.36512261580381
84041,Davis County,UT,80.28673835125448,NA,NA
84097,Utah County,UT,73.83512544802868,NA,NA
84116,Salt Lake County,UT,24.372759856630825,NA,NA
84341,Cache County,UT,NA,NA,77.9291553133515
84601,Utah County,UT,NA,69.1919191919192,NA
05201,Bennington County,VT,NA,81.81818181818183,NA
05641,Washington County,VT,29.749103942652326,NA,NA
20109,Prince William County,VA,NA,91.91919191919192,NA
20121,Fairfax County,VA,NA,96.46464646464646,NA
20170,Fairfax County,VA,NA,79.04040404040404,NA
20191,Fairfax County,VA,NA,50.75757575757576,81.19891008174388
22308,Fairfax County,VA,NA,NA,77.11171662125341
22443,Westmoreland County,VA,NA,NA,58.855585831062676
22485,King George County,VA,NA,85.35353535353535,NA
22601,Winchester city,VA,NA,54.292929292929294,NA
22801,Harrisonburg city,VA,NA,NA,19.891008174386922
22849,Page County,VA,NA,86.36363636363636,NA
22851,Page County,VA,NA,92.17171717171718,NA
23116,Hanover County,VA,NA,NA,41.41689373297003
23139,Powhatan County,VA,NA,36.61616161616162,NA
23221,Richmond city,VA,NA,NA,65.12261580381471
23222,Richmond city,VA,NA,22.474747474747474,NA
23224,Richmond city,VA,NA,NA,98.9100817438692
23233,Henrico County,VA,NA,NA,53.40599455040872
23234,Chesterfield County,VA,NA,51.76767676767676,NA
23453,Virginia Beach city,VA,NA,28.78787878787879,NA
23608,Newport News city,VA,67.74193548387096,NA,NA
23661,Hampton city,VA,NA,47.22222222222222,NA
23803,Petersburg city,VA,9.67741935483871,NA,NA
23890,Sussex County,VA,85.30465949820788,NA,85.55858310626702
24017,Roanoke city,VA,NA,82.32323232323232,NA
24201,Bristol city,VA,39.42652329749104,NA,NA
24319,Smyth County,VA,77.41935483870968,NA,NA
24370,Smyth County,VA,NA,NA,76.83923705722071
24426,Alleghany County,VA,NA,36.11111111111111,NA
24551,Bedford County,VA,NA,NA,90.19073569482289
24630,Tazewell County,VA,79.92831541218638,NA,NA
98001,King County,WA,NA,NA,81.74386920980926
98038,King County,WA,NA,NA,64.57765667574932
98103,King County,WA,NA,30.555555555555557,79.83651226158038
98109,King County,WA,NA,NA,43.32425068119891
98221,Skagit County,WA,NA,NA,41.14441416893733
98223,Snohomish County,WA,49.82078853046595,NA,NA
98271,Snohomish County,WA,NA,39.64646464646464,NA
98292,Snohomish County,WA,NA,29.797979797979796,NA
98311,Kitsap County,WA,NA,NA,44.95912806539509
98366,Kitsap County,WA,NA,NA,51.49863760217984
98387,Pierce County,WA,62.365591397849464,NA,NA
98404,Pierce County,WA,94.98207885304659,NA,NA
98405,Pierce County,WA,NA,47.72727272727273,NA
98499,Pierce County,WA,NA,NA,37.05722070844686
98520,Grays Harbor County,WA,NA,79.7979797979798,NA
98528,Mason County,WA,NA,NA,58.31062670299727
98532,Lewis County,WA,NA,NA,46.59400544959128
98579,Thurston County,WA,NA,59.59595959595959,NA
98607,Clark County,WA,81.00358422939068,NA,NA
98664,Clark County,WA,NA,52.02020202020202,NA
98671,Clark County,WA,NA,NA,75.20435967302453
98683,Clark County,WA,NA,NA,91.00817438692098
98686,Clark County,WA,NA,70.70707070707071,NA
98901,Yakima County,WA,70.25089605734766,NA,NA
98903,Yakima County,WA,NA,41.91919191919192,NA
98908,Yakima County,WA,NA,10.85858585858586,NA
99336,Benton County,WA,NA,NA,3.2697547683923704
20020,District of Columbia,DC,NA,6.0606060606060606,NA
25309,Kanawha County,WV,NA,NA,38.69209809264305
25443,Jefferson County,WV,93.9068100358423,NA,NA
25701,Cabell County,WV,NA,13.131313131313133,NA
26047,Hancock County,WV,NA,41.16161616161616,NA
26201,Upshur County,WV,NA,13.383838383838384,NA
53029,Waukesha County,WI,NA,38.63636363636363,NA
53045,Waukesha County,WI,NA,NA,44.4141689373297
53051,Waukesha County,WI,90.68100358422939,NA,NA
53089,Waukesha County,WI,99.2831541218638,NA,NA
53092,Ozaukee County,WI,NA,NA,13.35149863760218
53158,Kenosha County,WI,18.63799283154122,NA,NA
53209,Milwaukee County,WI,NA,1.0101010101010102,NA
53212,Milwaukee County,WI,12.186379928315413,NA,NA
53215,Milwaukee County,WI,NA,18.939393939393938,NA
53216,Milwaukee County,WI,51.61290322580645,NA,NA
53221,Milwaukee County,WI,NA,15.909090909090908,71.38964577656675
53223,Milwaukee County,WI,14.695340501792115,NA,NA
53226,Milwaukee County,WI,NA,84.59595959595958,NA
53402,Racine County,WI,NA,1.2626262626262625,0.2724795640326975
53406,Racine County,WI,NA,NA,0.8174386920980926
53545,Rock County,WI,NA,14.898989898989898,NA
53566,Green County,WI,NA,14.646464646464647,NA
53597,Dane County,WI,NA,80.3030303030303,NA
53959,Sauk County,WI,38.35125448028674,NA,NA
54016,St. Croix County,WI,40.14336917562724,NA,79.01907356948229
54143,Marinette County,WI,42.29390681003584,NA,NA
54220,Manitowoc County,WI,NA,NA,7.084468664850137
54403,Marathon County,WI,NA,NA,68.93732970027247
54475,Wood County,WI,97.1326164874552,NA,NA
54501,Oneida County,WI,NA,16.91919191919192,NA
54568,Vilas County,WI,NA,NA,49.04632152588556
54615,Jackson County,WI,NA,78.53535353535354,NA
54701,Eau Claire County,WI,NA,78.03030303030303,NA
54880,Douglas County,WI,NA,NA,11.1716621253406
54963,Winnebago County,WI,59.49820788530465,NA,NA
