ZipCode,county,state,Adult,Retirement,Geriatric
35055,Cullman County,AL,43.342776203966004,NA,NA
35160,Talladega County,AL,NA,69.64285714285714,NA
35228,Jefferson County,AL,48.725212464589234,NA,NA
35563,Marion County,AL,NA,NA,94.1923774954628
35630,Lauderdale County,AL,NA,NA,78.22141560798548
35661,Colbert County,AL,NA,NA,42.10526315789473
35801,Madison County,AL,NA,20.535714285714285,NA
35805,Madison County,AL,NA,45.357142857142854,NA
36541,Mobile County,AL,NA,NA,75.1361161524501
36801,Lee County,AL,NA,68.57142857142857,51.90562613430127
36862,Chambers County,AL,NA,NA,87.84029038112523
36869,Russell County,AL,74.22096317280453,NA,NA
99501,Anchorage Municipality,AK,81.58640226628894,NA,NA
99576,Dillingham Census Area,AK,NA,92.14285714285714,NA
85004,Maricopa County,AZ,NA,NA,90.74410163339383
85007,Maricopa County,AZ,NA,61.42857142857143,NA
85014,Maricopa County,AZ,NA,NA,67.87658802177859
85022,Maricopa County,AZ,NA,NA,33.57531760435572
85033,Maricopa County,AZ,12.464589235127479,NA,NA
85085,Maricopa County,AZ,NA,63.035714285714285,65.88021778584393
85205,Maricopa County,AZ,NA,15.178571428571427,NA
85210,Maricopa County,AZ,45.3257790368272,NA,NA
85225,Maricopa County,AZ,NA,NA,38.475499092558984
85257,Maricopa County,AZ,NA,NA,27.041742286751365
85260,Maricopa County,AZ,NA,NA,12.522686025408348
85283,Maricopa County,AZ,61.47308781869688,NA,NA
85286,Maricopa County,AZ,NA,NA,74.41016333938293
85298,Maricopa County,AZ,NA,41.60714285714286,NA
85304,Maricopa County,AZ,NA,44.642857142857146,NA
85323,Maricopa County,AZ,NA,59.82142857142857,NA
85326,Maricopa County,AZ,NA,76.78571428571429,NA
85331,Maricopa County,AZ,43.05949008498583,NA,42.6497277676951
85351,Maricopa County,AZ,NA,NA,0.9074410163339384
85353,Maricopa County,AZ,26.912181303116146,NA,NA
85364,Yuma County,AZ,NA,2.142857142857143,79.85480943738656
85374,Maricopa County,AZ,NA,NA,19.419237749546276
85396,Maricopa County,AZ,NA,36.07142857142857,NA
85614,Pima County,AZ,NA,NA,32.12341197822142
85634,Pima County,AZ,NA,18.571428571428573,NA
85711,Pima County,AZ,27.19546742209632,NA,NA
85712,Pima County,AZ,NA,NA,29.764065335753177
85739,Pinal County,AZ,NA,16.964285714285715,NA
85741,Pima County,AZ,NA,NA,45.00907441016334
85745,Pima County,AZ,NA,33.92857142857143,NA
85755,Pima County,AZ,NA,NA,88.56624319419237
85935,Navajo County,AZ,NA,94.64285714285714,NA
86301,Yavapai County,AZ,NA,69.46428571428571,NA
86314,Yavapai County,AZ,NA,NA,29.038112522686028
86324,Yavapai County,AZ,NA,NA,99.27404718693285
86401,Mohave County,AZ,8.21529745042493,NA,NA
86409,Mohave County,AZ,NA,15.892857142857142,NA
71753,Columbia County,AR,NA,45.89285714285714,NA
72032,Faulkner County,AR,NA,28.392857142857142,NA
72076,Pulaski County,AR,71.38810198300283,NA,NA
72117,Pulaski County,AR,NA,90.71428571428571,NA
72120,Pulaski County,AR,NA,11.428571428571429,NA
72205,Pulaski County,AR,NA,NA,10.163339382940109
72315,Mississippi County,AR,NA,30.714285714285715,NA
72416,Craighead County,AR,82.71954674220963,NA,NA
72501,Independence County,AR,27.47875354107649,NA,NA
72740,Madison County,AR,NA,NA,98.72958257713249
72916,Sebastian County,AR,NA,97.67857142857143,NA
72941,Sebastian County,AR,NA,99.82142857142857,NA
72956,Crawford County,AR,NA,69.28571428571428,NA
90013,Los Angeles County,CA,44.759206798866856,NA,NA
90016,Los Angeles County,CA,NA,NA,17.05989110707804
90045,Los Angeles County,CA,77.90368271954674,NA,NA
90063,Los Angeles County,CA,NA,29.107142857142858,NA
90065,Los Angeles County,CA,NA,22.142857142857142,NA
90068,Los Angeles County,CA,NA,85.17857142857143,NA
90201,Los Angeles County,CA,NA,23.392857142857142,NA
90260,Los Angeles County,CA,NA,86.60714285714286,NA
90262,Los Angeles County,CA,28.328611898016998,NA,NA
90270,Los Angeles County,CA,NA,NA,60.98003629764065
90404,Los Angeles County,CA,NA,36.78571428571429,NA
90603,Los Angeles County,CA,NA,NA,30.127041742286753
90703,Los Angeles County,CA,NA,48.214285714285715,NA
90732,Los Angeles County,CA,NA,83.92857142857143,NA
90744,Los Angeles County,CA,NA,NA,46.64246823956443
90815,Los Angeles County,CA,38.243626062322946,NA,NA
91311,Los Angeles County,CA,44.19263456090651,NA,NA
91321,Los Angeles County,CA,NA,NA,75.86206896551724
91331,Los Angeles County,CA,NA,12.5,NA
91335,Los Angeles County,CA,NA,NA,91.47005444646098
91343,Los Angeles County,CA,NA,30.357142857142854,NA
91344,Los Angeles County,CA,NA,66.96428571428571,NA
91367,Los Angeles County,CA,64.02266288951841,NA,NA
91403,Los Angeles County,CA,NA,NA,74.9546279491833
91501,Los Angeles County,CA,NA,92.85714285714286,NA
91604,Los Angeles County,CA,NA,65.35714285714286,NA
91786,San Bernardino County,CA,NA,21.25,NA
92008,San Diego County,CA,NA,NA,57.71324863883848
92029,San Diego County,CA,NA,83.03571428571429,NA
92054,San Diego County,CA,NA,67.32142857142858,NA
92104,San Diego County,CA,NA,22.857142857142858,NA
92114,San Diego County,CA,NA,58.03571428571429,NA
92211,Riverside County,CA,NA,51.60714285714286,0
92225,Riverside County,CA,NA,NA,76.40653357531761
92227,Imperial County,CA,NA,37.32142857142857,NA
92231,Imperial County,CA,50.70821529745042,NA,4.71869328493648
92243,Imperial County,CA,56.37393767705382,NA,NA
92253,Riverside County,CA,NA,6.607142857142858,NA
92260,Riverside County,CA,NA,46.25,NA
92311,San Bernardino County,CA,NA,73.75,NA
92543,Riverside County,CA,NA,60.17857142857142,NA
92551,Riverside County,CA,NA,77.32142857142857,NA
92592,Riverside County,CA,NA,NA,38.65698729582577
92603,Orange County,CA,67.42209631728045,NA,NA
92626,Orange County,CA,NA,29.28571428571429,NA
92627,Orange County,CA,NA,NA,36.66061705989111
92683,Orange County,CA,NA,35.35714285714286,NA
92706,Orange County,CA,NA,NA,45.37205081669691
92879,Riverside County,CA,NA,63.21428571428571,NA
92882,Riverside County,CA,NA,81.60714285714286,NA
93030,Ventura County,CA,NA,71.78571428571429,NA
93033,Ventura County,CA,NA,85.89285714285714,NA
93035,Ventura County,CA,NA,NA,74.41016333938293
93117,Santa Barbara County,CA,NA,NA,92.5589836660617
93257,Tulare County,CA,NA,13.392857142857142,NA
93267,Tulare County,CA,NA,97.85714285714285,NA
93268,Kern County,CA,NA,93.57142857142857,NA
93274,Tulare County,CA,NA,60.89285714285714,NA
93304,Kern County,CA,46.45892351274787,NA,NA
93420,San Luis Obispo County,CA,NA,30,NA
93455,Santa Barbara County,CA,NA,18.928571428571427,NA
93458,Santa Barbara County,CA,NA,90.89285714285714,NA
93460,Santa Barbara County,CA,NA,88.03571428571428,NA
93534,Los Angeles County,CA,NA,65.53571428571429,NA
93552,Los Angeles County,CA,NA,54.82142857142858,NA
93560,Kern County,CA,94.05099150141642,NA,NA
93562,San Bernardino County,CA,95.46742209631728,NA,NA
93611,Fresno County,CA,NA,83.75,NA
93631,Fresno County,CA,55.80736543909348,NA,NA
93702,Fresno County,CA,NA,81.07142857142857,NA
93703,Fresno County,CA,67.70538243626062,NA,NA
93705,Fresno County,CA,NA,NA,41.37931034482759
94015,San Mateo County,CA,NA,26.42857142857143,NA
94102,San Francisco County,CA,NA,NA,11.433756805807622
94122,San Francisco County,CA,NA,NA,37.93103448275862
94124,San Francisco County,CA,NA,12.857142857142856,NA
94134,San Francisco County,CA,87.53541076487252,41.785714285714285,NA
94534,Solano County,CA,98.30028328611898,NA,NA
94539,Alameda County,CA,NA,NA,25.58983666061706
94541,Alameda County,CA,NA,34.464285714285715,NA
94585,Solano County,CA,79.60339943342775,NA,NA
94590,Solano County,CA,22.379603399433428,NA,NA
94595,Contra Costa County,CA,NA,NA,23.049001814882033
94920,Marin County,CA,NA,NA,31.21597096188748
94952,Sonoma County,CA,NA,NA,60.435571687840294
95073,Santa Cruz County,CA,NA,89.64285714285715,NA
95120,Santa Clara County,CA,NA,NA,20.508166969147005
95301,Merced County,CA,NA,68.21428571428572,NA
95328,Stanislaus County,CA,96.88385269121812,NA,NA
95448,Sonoma County,CA,NA,55.53571428571429,83.30308529945553
95608,Sacramento County,CA,NA,80.89285714285714,NA
95758,Sacramento County,CA,NA,NA,26.13430127041742
95819,Sacramento County,CA,92.63456090651559,NA,NA
95953,Sutter County,CA,NA,NA,77.31397459165154
96001,Shasta County,CA,NA,57.14285714285714,30.490018148820326
96007,Shasta County,CA,NA,38.75,NA
96080,Tehama County,CA,NA,NA,57.3502722323049
96093,Trinity County,CA,NA,NA,96.55172413793103
80015,Arapahoe County,CO,13.881019830028329,NA,NA
80026,Boulder County,CO,NA,NA,49.00181488203267
80121,Arapahoe County,CO,NA,50.357142857142854,NA
80124,Douglas County,CO,NA,61.60714285714286,NA
80128,Jefferson County,CO,NA,NA,54.44646098003629
80227,Jefferson County,CO,NA,NA,37.56805807622505
80504,Boulder County,CO,NA,14.642857142857144,NA
80524,Larimer County,CO,NA,16.071428571428573,NA
80534,Weld County,CO,NA,50.89285714285714,NA
80631,Weld County,CO,7.0821529745042495,NA,NA
80903,El Paso County,CO,72.52124645892351,NA,NA
80907,El Paso County,CO,NA,78.39285714285714,NA
81005,Pueblo County,CO,NA,NA,22.141560798548092
81008,Pueblo County,CO,NA,NA,64.24682395644284
81501,Mesa County,CO,NA,39.107142857142854,NA
81503,Mesa County,CO,NA,NA,83.8475499092559
06010,Hartford County,CT,11.048158640226628,NA,NA
06029,Tolland County,CT,88.95184135977338,NA,NA
06032,Hartford County,CT,NA,NA,32.48638838475499
06053,Hartford County,CT,NA,NA,77.13248638838476
06066,Tolland County,CT,NA,34.10714285714286,NA
06109,Hartford County,CT,NA,NA,76.95099818511797
06119,Hartford County,CT,NA,NA,53.72050816696915
06280,Windham County,CT,NA,97.5,NA
06410,New Haven County,CT,NA,NA,26.678765880217785
06424,Middlesex County,CT,NA,NA,58.98366606170599
06488,New Haven County,CT,NA,23.57142857142857,NA
06513,New Haven County,CT,NA,NA,10.88929219600726
06516,New Haven County,CT,37.960339943342774,NA,NA
06518,New Haven County,CT,NA,NA,18.87477313974592
06604,Fairfield County,CT,62.3229461756374,NA,NA
06704,New Haven County,CT,77.33711048158641,NA,NA
06810,Fairfield County,CT,NA,35.892857142857146,NA
06902,Fairfield County,CT,NA,NA,17.96733212341198
19720,New Castle County,DE,NA,13.928571428571429,39.382940108892925
19901,Kent County,DE,NA,52.142857142857146,NA
19947,Sussex County,DE,57.50708215297451,NA,NA
19958,Sussex County,DE,27.762039660056658,NA,NA
19970,Sussex County,DE,NA,92.67857142857143,NA
32068,Clay County,FL,9.91501416430595,NA,NA
32073,Clay County,FL,45.892351274787536,NA,NA
32127,Volusia County,FL,NA,NA,59.528130671506354
32179,Marion County,FL,75.63739376770539,NA,NA
32206,Duval County,FL,NA,NA,56.07985480943739
32216,Duval County,FL,NA,18.392857142857146,NA
32223,Duval County,FL,NA,NA,32.30490018148821
32225,Duval County,FL,NA,10.535714285714286,NA
32352,Gadsden County,FL,NA,NA,89.65517241379311
32404,Bay County,FL,NA,NA,11.796733212341199
32425,Holmes County,FL,NA,36.25,NA
32507,Escambia County,FL,NA,NA,61.88747731397459
32514,Escambia County,FL,NA,9.285714285714286,NA
32534,Escambia County,FL,NA,NA,91.1070780399274
32535,Escambia County,FL,NA,57.49999999999999,NA
32708,Seminole County,FL,NA,NA,14.337568058076226
32724,Volusia County,FL,NA,NA,12.885662431941924
32746,Seminole County,FL,NA,53.39285714285714,NA
32751,Orange County,FL,NA,NA,60.07259528130672
32817,Orange County,FL,NA,80.53571428571429,NA
32822,Orange County,FL,NA,NA,19.056261343012704
32837,Orange County,FL,17.280453257790366,NA,NA
32909,Brevard County,FL,NA,20,NA
32962,Indian River County,FL,NA,NA,14.156079854809436
33026,Broward County,FL,NA,65,NA
33033,Miami-Dade County,FL,NA,33.57142857142857,NA
33034,Miami-Dade County,FL,95.75070821529745,NA,NA
33130,Miami-Dade County,FL,NA,NA,39.92740471869328
33134,Miami-Dade County,FL,NA,74.46428571428572,NA
33143,Miami-Dade County,FL,NA,95.89285714285715,NA
33146,Miami-Dade County,FL,NA,NA,79.3103448275862
33155,Miami-Dade County,FL,NA,46.07142857142857,NA
33157,Miami-Dade County,FL,NA,NA,40.10889292196007
33177,Miami-Dade County,FL,NA,32.142857142857146,NA
33331,Broward County,FL,NA,64.28571428571429,NA
33414,Palm Beach County,FL,NA,26.785714285714285,NA
33418,Palm Beach County,FL,NA,NA,56.98729582577132
33442,Broward County,FL,NA,NA,6.533575317604355
33444,Palm Beach County,FL,NA,NA,67.51361161524501
33460,Palm Beach County,FL,NA,NA,50.99818511796733
33467,Palm Beach County,FL,NA,NA,34.11978221415608
33469,Palm Beach County,FL,NA,NA,16.696914700544465
33513,Sumter County,FL,94.61756373937678,NA,NA
33543,Pasco County,FL,85.55240793201133,NA,NA
33556,Hillsborough County,FL,NA,NA,49.364791288566245
33626,Hillsborough County,FL,NA,NA,78.40290381125227
33756,Pinellas County,FL,NA,50.535714285714285,NA
33774,Pinellas County,FL,55.240793201133144,NA,NA
33844,Polk County,FL,NA,22.321428571428573,NA
33870,Highlands County,FL,22.946175637393768,NA,NA
33884,Polk County,FL,NA,NA,16.152450090744104
33908,Lee County,FL,NA,NA,5.807622504537205
33919,Lee County,FL,NA,NA,3.0852994555353903
34114,Collier County,FL,NA,NA,88.02177858439202
34209,Manatee County,FL,NA,NA,40.471869328493646
34224,Charlotte County,FL,NA,40.17857142857143,NA
34231,Sarasota County,FL,NA,NA,3.8112522686025407
34232,Sarasota County,FL,NA,20.892857142857142,NA
34238,Sarasota County,FL,NA,NA,4.3557168784029034
34243,Manatee County,FL,NA,66.60714285714285,NA
34292,Sarasota County,FL,NA,NA,94.91833030852995
34293,Sarasota County,FL,NA,5,NA
34474,Marion County,FL,NA,82.32142857142857,NA
34609,Hernando County,FL,NA,40,NA
34655,Pasco County,FL,NA,NA,9.98185117967332
34668,Pasco County,FL,32.86118980169972,NA,NA
34748,Lake County,FL,NA,25.178571428571427,45.5535390199637
34788,Lake County,FL,NA,NA,94.73684210526315
34997,Martin County,FL,NA,87.67857142857143,NA
30014,Newton County,GA,NA,NA,47.005444646098006
30016,Newton County,GA,NA,NA,33.756805807622506
30025,Walton County,GA,76.20396600566572,NA,NA
30034,DeKalb County,GA,23.512747875354105,NA,NA
30087,DeKalb County,GA,NA,NA,49.18330308529946
30103,Bartow County,GA,NA,58.392857142857146,NA
30104,Polk County,GA,83.0028328611898,NA,NA
30134,Douglas County,GA,83.85269121813032,NA,NA
30152,Cobb County,GA,NA,28.035714285714285,NA
30220,Coweta County,GA,88.38526912181302,NA,NA
30223,Spalding County,GA,NA,64.28571428571429,92.19600725952813
30230,Troup County,GA,NA,NA,78.0399274047187
30233,Butts County,GA,NA,NA,98.18511796733212
30238,Clayton County,GA,NA,77.85714285714286,NA
30274,Clayton County,GA,NA,NA,91.83303085299455
30316,DeKalb County,GA,NA,31.428571428571427,NA
30331,Fulton County,GA,37.6770538243626,NA,NA
30458,Bulloch County,GA,NA,21.964285714285715,NA
30553,Franklin County,GA,NA,NA,75.49909255898368
30606,Clarke County,GA,NA,NA,17.604355716878402
30666,Barrow County,GA,NA,NA,95.28130671506352
30809,Columbia County,GA,NA,NA,18.69328493647913
30830,Burke County,GA,NA,40.535714285714285,NA
30906,Richmond County,GA,6.232294617563739,NA,52.45009074410163
30907,Columbia County,GA,20.396600566572236,NA,NA
31015,Crisp County,GA,60.62322946175638,NA,NA
31031,Wilkinson County,GA,88.6685552407932,NA,NA
31210,Bibb County,GA,76.77053824362606,NA,NA
31211,Bibb County,GA,87.81869688385268,NA,NA
31405,Chatham County,GA,96.03399433427762,NA,NA
31601,Lowndes County,GA,20.396600566572236,NA,NA
31701,Dougherty County,GA,NA,NA,80.58076225045372
96734,Honolulu County,HI,NA,NA,43.920145190562614
96813,Honolulu County,HI,28.04532577903683,NA,NA
96815,Honolulu County,HI,NA,73.21428571428571,NA
96822,Honolulu County,HI,NA,NA,73.86569872958258
83318,Cassia County,ID,NA,NA,56.26134301270418
83401,Bonneville County,ID,49.858356940509914,NA,NA
83617,Gem County,ID,NA,NA,19.782214156079856
83646,Ada County,ID,NA,48.392857142857146,NA
83686,Canyon County,ID,NA,3.0357142857142856,NA
83705,Ada County,ID,NA,NA,28.67513611615245
83709,Ada County,ID,NA,3.571428571428571,NA
83713,Ada County,ID,NA,NA,50.27223230490018
60014,McHenry County,IL,NA,30.714285714285715,96.00725952813067
60045,Lake County,IL,NA,13.750000000000002,NA
60060,Lake County,IL,NA,10.357142857142858,NA
60073,Lake County,IL,NA,NA,31.76043557168784
60083,Lake County,IL,NA,72.32142857142857,NA
60085,Lake County,IL,NA,45.535714285714285,NA
60087,Lake County,IL,NA,NA,41.1978221415608
60089,Lake County,IL,NA,27.32142857142857,NA
60090,Cook County,IL,NA,16.428571428571427,NA
60099,Lake County,IL,NA,NA,48.82032667876588
60101,DuPage County,IL,NA,NA,9.618874773139746
60137,DuPage County,IL,NA,18.75,7.441016333938294
60139,DuPage County,IL,NA,NA,72.41379310344827
60142,McHenry County,IL,NA,NA,2.1778584392014517
60143,DuPage County,IL,NA,74.82142857142857,NA
60148,DuPage County,IL,NA,4.642857142857143,NA
60173,Cook County,IL,NA,86.78571428571429,NA
60175,Kane County,IL,NA,NA,23.41197822141561
60185,DuPage County,IL,NA,17.142857142857142,NA
60187,DuPage County,IL,NA,NA,52.813067150635206
60188,DuPage County,IL,15.864022662889518,NA,NA
60194,Cook County,IL,NA,64.64285714285715,NA
60304,Cook County,IL,80.73654390934844,NA,NA
60402,Cook County,IL,NA,75,NA
60403,Will County,IL,NA,82.5,NA
60433,Will County,IL,NA,NA,61.16152450090744
60441,Will County,IL,99.15014164305948,NA,24.319419237749546
60442,Will County,IL,NA,60.357142857142854,NA
60443,Cook County,IL,NA,NA,58.257713248638844
60464,Cook County,IL,79.03682719546742,NA,NA
60467,Cook County,IL,NA,NA,8.52994555353902
60481,Will County,IL,NA,NA,57.53176043557169
60504,DuPage County,IL,NA,39.285714285714285,NA
60510,Kane County,IL,30.02832861189802,NA,NA
60515,DuPage County,IL,NA,NA,41.92377495462795
60527,DuPage County,IL,NA,91.25,NA
60532,DuPage County,IL,NA,29.464285714285715,NA
60548,DeKalb County,IL,NA,NA,55.35390199637023
60611,Cook County,IL,NA,62.857142857142854,NA
60612,Cook County,IL,15.58073654390935,NA,NA
60619,Cook County,IL,NA,NA,7.80399274047187
60620,Cook County,IL,NA,NA,3.2667876588021776
60621,Cook County,IL,29.745042492917843,NA,NA
60623,Cook County,IL,23.79603399433428,NA,NA
60636,Cook County,IL,NA,16.25,NA
60638,Cook County,IL,NA,NA,16.878402903811253
60639,Cook County,IL,7.932011331444759,NA,NA
60640,Cook County,IL,NA,NA,23.95644283121597
60644,Cook County,IL,NA,8.214285714285714,NA
60647,Cook County,IL,25.21246458923513,NA,NA
60660,Cook County,IL,NA,NA,22.686025408348456
60707,Cook County,IL,NA,NA,5.9891107078039925
60804,Cook County,IL,52.69121813031161,NA,NA
61019,Stephenson County,IL,NA,NA,86.38838475499092
61072,Winnebago County,IL,NA,46.964285714285715,NA
61088,Winnebago County,IL,NA,NA,73.68421052631578
61101,Winnebago County,IL,90.6515580736544,NA,NA
61107,Winnebago County,IL,NA,46.60714285714286,NA
61115,Winnebago County,IL,NA,16.607142857142858,NA
61254,Henry County,IL,NA,NA,44.1016333938294
61264,Rock Island County,IL,NA,63.57142857142857,NA
61354,LaSalle County,IL,41.92634560906516,NA,NA
61523,Peoria County,IL,NA,NA,86.7513611615245
61605,Peoria County,IL,NA,NA,73.32123411978222
61607,Peoria County,IL,NA,NA,51.36116152450091
61616,Peoria County,IL,NA,76.25,NA
61727,De Witt County,IL,NA,NA,30.852994555353902
62002,Madison County,IL,NA,84.28571428571429,NA
62012,Macoupin County,IL,NA,NA,89.29219600725953
62206,St. Clair County,IL,NA,96.60714285714286,NA
62221,St. Clair County,IL,NA,28.214285714285715,NA
62234,Madison County,IL,NA,28.57142857142857,NA
62249,Madison County,IL,60.05665722379604,NA,NA
62286,Randolph County,IL,NA,NA,76.40653357531761
62401,Effingham County,IL,NA,NA,72.59528130671507
62521,Macon County,IL,NA,6.25,NA
62522,Macon County,IL,NA,32.857142857142854,NA
62526,Macon County,IL,79.88668555240793,NA,NA
62801,Marion County,IL,NA,17.857142857142858,NA
62864,Jefferson County,IL,NA,NA,83.66606170598911
62881,Marion County,IL,NA,NA,27.76769509981851
62959,Williamson County,IL,NA,12.142857142857142,NA
46016,Madison County,IN,NA,70.53571428571429,NA
46124,Johnson County,IN,NA,49.464285714285715,NA
46131,Johnson County,IN,NA,NA,7.259528130671507
46158,Morgan County,IN,NA,58.57142857142858,NA
46173,Rush County,IN,NA,NA,41.37931034482759
46201,Marion County,IN,NA,21.607142857142858,NA
46203,Marion County,IN,NA,8.928571428571429,NA
46208,Marion County,IN,51.84135977337111,NA,NA
46220,Marion County,IN,NA,NA,34.66424682395644
46226,Marion County,IN,NA,NA,43.19419237749546
46239,Marion County,IN,NA,NA,51.724137931034484
46268,Marion County,IN,36.26062322946176,NA,NA
46322,Lake County,IN,NA,14.821428571428571,29.945553539019965
46327,Lake County,IN,NA,NA,76.04355716878402
46375,Lake County,IN,NA,NA,12.704174228675136
46404,Lake County,IN,NA,73.03571428571428,NA
46407,Lake County,IN,NA,NA,69.69147005444646
46526,Elkhart County,IN,64.58923512747874,NA,NA
46545,St. Joseph County,IN,61.18980169971672,NA,NA
46574,St. Joseph County,IN,NA,56.96428571428571,NA
46783,Huntington County,IN,NA,NA,75.68058076225044
46804,Allen County,IN,69.68838526912181,NA,NA
46825,Allen County,IN,NA,NA,19.237749546279492
46902,Howard County,IN,NA,55.714285714285715,NA
46947,Cass County,IN,NA,72.85714285714285,NA
46953,Grant County,IN,NA,54.107142857142854,NA
47025,Dearborn County,IN,66.28895184135978,NA,NA
47130,Clark County,IN,NA,NA,19.600725952813068
47167,Washington County,IN,78.18696883852692,NA,NA
47201,Bartholomew County,IN,NA,74.10714285714286,NA
47441,Greene County,IN,NA,NA,83.12159709618875
47546,Dubois County,IN,NA,NA,16.152450090744104
47586,Perry County,IN,NA,NA,48.275862068965516
47882,Sullivan County,IN,NA,84.10714285714286,NA
47905,Tippecanoe County,IN,NA,NA,8.892921960072595
47960,White County,IN,NA,40.35714285714286,NA
50035,Polk County,IA,NA,95.17857142857142,NA
50208,Jasper County,IA,NA,45.17857142857143,NA
50310,Polk County,IA,NA,57.67857142857142,69.50998185117967
50313,Polk County,IA,54.6742209631728,NA,NA
50315,Polk County,IA,NA,78.03571428571429,NA
50320,Polk County,IA,NA,44.46428571428571,NA
50401,Cerro Gordo County,IA,NA,NA,62.25045372050817
50613,Black Hawk County,IA,NA,8.392857142857142,NA
50616,Floyd County,IA,NA,72.67857142857143,NA
50703,Black Hawk County,IA,NA,70.89285714285715,NA
50801,Union County,IA,54.39093484419264,NA,NA
51105,Woodbury County,IA,NA,99.64285714285714,NA
51106,Woodbury County,IA,NA,71.96428571428571,NA
51360,Dickinson County,IA,86.68555240793201,NA,NA
51501,Pottawattamie County,IA,NA,NA,18.51179673321234
51503,Pottawattamie County,IA,40.79320113314447,NA,NA
52402,Linn County,IA,66.57223796033995,NA,NA
52403,Linn County,IA,67.13881019830028,NA,NA
52405,Linn County,IA,NA,NA,89.83666061705989
52577,Mahaska County,IA,31.444759206798867,27.857142857142858,NA
52761,Muscatine County,IA,NA,NA,14.519056261343014
52804,Scott County,IA,NA,NA,93.28493647912886
52807,Scott County,IA,NA,80.71428571428572,NA
66047,Douglas County,KS,NA,92.32142857142858,NA
66104,Wyandotte County,KS,NA,NA,83.48457350272233
66106,Wyandotte County,KS,36.827195467422094,NA,NA
66211,Johnson County,KS,NA,89.64285714285715,NA
66220,Johnson County,KS,NA,NA,89.11070780399274
66604,Shawnee County,KS,NA,67.14285714285714,55.53539019963702
66616,Shawnee County,KS,77.05382436260622,NA,NA
67010,Butler County,KS,NA,67.5,NA
67209,Sedgwick County,KS,NA,NA,75.31760435571688
67216,Sedgwick County,KS,NA,97.32142857142857,NA
67217,Sedgwick County,KS,NA,54.285714285714285,NA
67357,Labette County,KS,77.62039660056658,NA,93.46642468239564
67401,Saline County,KS,NA,NA,10.526315789473683
67420,Mitchell County,KS,NA,NA,82.57713248638838
67501,Reno County,KS,71.671388101983,NA,NA
40031,Oldham County,KY,NA,33.75,NA
40211,Jefferson County,KY,NA,65.17857142857143,NA
40228,Jefferson County,KY,NA,NA,45.73502722323049
40356,Jessamine County,KY,NA,14.285714285714285,29.58257713248639
40484,Lincoln County,KY,NA,37.142857142857146,NA
41011,Kenton County,KY,34.844192634560905,NA,NA
41015,Kenton County,KY,20.96317280453258,NA,NA
41042,Boone County,KY,NA,NA,43.01270417422868
41051,Kenton County,KY,NA,NA,34.30127041742287
41076,Campbell County,KY,NA,31.785714285714285,11.252268602540836
41224,Martin County,KY,78.47025495750708,NA,NA
41501,Pike County,KY,NA,30.178571428571427,70.96188747731398
41653,Floyd County,KY,35.41076487252124,NA,NA
42001,McCracken County,KY,NA,85.35714285714285,55.172413793103445
42003,McCracken County,KY,NA,NA,71.32486388384754
42303,Daviess County,KY,NA,NA,10.707803992740473
42408,Hopkins County,KY,61.756373937677054,NA,NA
42431,Hopkins County,KY,18.13031161473088,NA,NA
42553,Pulaski County,KY,91.78470254957507,NA,NA
42718,Taylor County,KY,NA,NA,28.31215970961887
70003,Jefferson Parish,LA,NA,NA,69.1470054446461
70053,Jefferson Parish,LA,NA,NA,96.73321234119783
70072,Jefferson Parish,LA,NA,NA,63.883847549909255
70090,St. James Parish,LA,NA,91.07142857142857,NA
70113,Orleans Parish,LA,NA,99.10714285714286,NA
70123,Jefferson Parish,LA,NA,12.678571428571427,NA
70127,Orleans Parish,LA,5.6657223796034,NA,NA
70301,Lafourche Parish,LA,NA,NA,84.75499092558984
70346,Ascension Parish,LA,58.92351274787535,NA,NA
70363,Terrebonne Parish,LA,NA,45.714285714285715,NA
70420,St. Tammany Parish,LA,53.82436260623229,NA,NA
70433,St. Tammany Parish,LA,NA,NA,3.9927404718693285
70578,Acadia Parish,LA,95.18413597733712,NA,NA
70586,Evangeline Parish,LA,NA,50.17857142857143,NA
70669,Calcasieu Parish,LA,NA,NA,70.23593466424683
70737,Ascension Parish,LA,NA,NA,20.326678765880217
70806,East Baton Rouge Parish,LA,NA,49.642857142857146,NA
71103,Caddo Parish,LA,NA,54.82142857142858,NA
71106,Caddo Parish,LA,5.099150141643059,NA,NA
71201,Ouachita Parish,LA,63.172804532577906,NA,NA
71269,Richland Parish,LA,NA,NA,46.098003629764065
71292,Ouachita Parish,LA,10.198300283286118,NA,NA
71457,Natchitoches Parish,LA,63.45609065155807,NA,21.052631578947366
04005,York County,ME,11.614730878186968,NA,NA
04062,Cumberland County,ME,NA,NA,54.80943738656987
04084,Cumberland County,ME,54.107648725212464,NA,NA
04105,Cumberland County,ME,NA,NA,73.502722323049
04239,Franklin County,ME,NA,NA,56.80580762250453
04240,Androscoggin County,ME,NA,51.78571428571429,1.9963702359346642
04280,Androscoggin County,ME,NA,53.214285714285715,NA
04330,Kennebec County,ME,NA,47.85714285714286,NA
04401,Penobscot County,ME,2.26628895184136,NA,NA
04530,Sagadahoc County,ME,NA,96.07142857142857,NA
04901,Kennebec County,ME,4.2492917847025495,1.9642857142857142,NA
20659,St. Mary's County,MD,NA,38.21428571428571,NA
20735,Prince George's County,MD,NA,47.32142857142857,NA
20745,Prince George's County,MD,NA,NA,67.15063520871144
20904,Montgomery County,MD,NA,NA,56.442831215970955
21045,Howard County,MD,NA,90.35714285714286,NA
21046,Howard County,MD,74.78753541076487,NA,99.63702359346642
21047,Harford County,MD,NA,NA,94.37386569872959
21133,Baltimore County,MD,NA,NA,68.42105263157895
21208,Baltimore County,MD,NA,NA,92.37749546279493
21212,Baltimore city,MD,NA,47.67857142857143,NA
21215,Baltimore city,MD,72.23796033994334,NA,NA
21217,Baltimore city,MD,17.847025495750707,NA,NA
21221,Baltimore County,MD,40.226628895184135,NA,NA
21222,Baltimore County,MD,3.9660056657223794,NA,NA
21234,Baltimore County,MD,NA,6.071428571428571,NA
21244,Baltimore County,MD,34.56090651558073,79.10714285714285,NA
21401,Anne Arundel County,MD,NA,NA,94.01088929219601
21502,Allegany County,MD,NA,NA,4.537205081669692
21742,Washington County,MD,NA,NA,24.682395644283122
21784,Carroll County,MD,NA,76.60714285714286,NA
21811,Worcester County,MD,80.45325779036827,NA,NA
21842,Worcester County,MD,NA,NA,31.03448275862069
21901,Cecil County,MD,NA,NA,79.67332123411978
01002,Hampshire County,MA,NA,93.21428571428572,NA
01027,Hampshire County,MA,9.631728045325778,NA,NA
01108,Hampden County,MA,NA,4.107142857142857,NA
01109,Hampden County,MA,NA,NA,23.049001814882033
01201,Berkshire County,MA,0,2.3214285714285716,50.81669691470054
01240,Berkshire County,MA,NA,NA,61.34301270417423
01247,Berkshire County,MA,4.815864022662889,NA,NA
01420,Worcester County,MA,2.8328611898017,NA,NA
01440,Worcester County,MA,NA,51.42857142857142,NA
01468,Worcester County,MA,NA,74.64285714285714,NA
01581,Worcester County,MA,NA,NA,87.11433756805808
01701,Middlesex County,MA,NA,5.178571428571429,NA
01742,Middlesex County,MA,NA,NA,17.24137931034483
01775,Middlesex County,MA,NA,NA,64.7912885662432
01776,Middlesex County,MA,NA,NA,38.83847549909255
01801,Middlesex County,MA,NA,0.7142857142857143,NA
01824,Middlesex County,MA,NA,NA,84.93647912885662
01826,Middlesex County,MA,NA,47.5,NA
01841,Essex County,MA,NA,0.17857142857142858,NA
01854,Middlesex County,MA,NA,4.285714285714286,NA
01887,Middlesex County,MA,37.39376770538244,NA,NA
01923,Essex County,MA,NA,NA,1.8148820326678767
01945,Essex County,MA,73.93767705382436,NA,80.39927404718694
01966,Essex County,MA,NA,41.964285714285715,NA
02021,Norfolk County,MA,NA,NA,4.900181488203267
02050,Plymouth County,MA,NA,77.67857142857143,NA
02093,Norfolk County,MA,NA,NA,96.18874773139746
02116,Suffolk County,MA,58.07365439093485,NA,NA
02130,Suffolk County,MA,16.43059490084986,NA,NA
02145,Middlesex County,MA,NA,NA,6.352087114337568
02151,Suffolk County,MA,0.28328611898017,0,0.3629764065335753
02170,Norfolk County,MA,24.929178470254957,NA,NA
02184,Norfolk County,MA,NA,5.535714285714286,NA
02190,Norfolk County,MA,NA,NA,65.15426497277676
02301,Plymouth County,MA,NA,NA,1.0889292196007259
02346,Plymouth County,MA,NA,79.46428571428571,93.64791288566244
02446,Norfolk County,MA,66.85552407932012,NA,NA
02460,Middlesex County,MA,NA,54.46428571428571,NA
02532,Barnstable County,MA,NA,87.85714285714286,NA
02563,Barnstable County,MA,NA,NA,66.2431941923775
02642,Barnstable County,MA,NA,85.71428571428571,NA
02726,Bristol County,MA,NA,59.285714285714285,NA
02760,Bristol County,MA,NA,NA,35.57168784029038
02767,Bristol County,MA,19.263456090651555,NA,88.92921960072596
02780,Bristol County,MA,NA,NA,28.49364791288566
48017,Oakland County,MI,NA,NA,90.01814882032669
48021,Macomb County,MI,NA,86.07142857142858,NA
48026,Macomb County,MI,NA,26.607142857142858,NA
48040,St. Clair County,MI,NA,98.92857142857143,NA
48076,Oakland County,MI,NA,15.535714285714286,NA
48088,Macomb County,MI,NA,39.64285714285714,NA
48105,Washtenaw County,MI,NA,NA,25.40834845735027
48125,Wayne County,MI,NA,NA,31.941923774954628
48152,Wayne County,MI,NA,77.14285714285715,NA
48182,Monroe County,MI,NA,26.785714285714285,NA
48184,Wayne County,MI,50.42492917847026,NA,NA
48204,Wayne County,MI,NA,NA,71.14337568058076
48208,Wayne County,MI,NA,NA,97.64065335753176
48224,Wayne County,MI,NA,96.25,NA
48228,Wayne County,MI,19.54674220963173,NA,NA
48306,Oakland County,MI,NA,NA,68.60254083484574
48309,Oakland County,MI,NA,15.714285714285714,74.04718693284936
48326,Oakland County,MI,NA,NA,45.19056261343013
48340,Oakland County,MI,8.78186968838527,21.428571428571427,NA
48348,Oakland County,MI,NA,NA,99.45553539019963
48360,Oakland County,MI,NA,42.142857142857146,NA
48377,Oakland County,MI,NA,NA,18.148820326678766
48390,Oakland County,MI,NA,NA,22.867513611615244
48430,Genesee County,MI,NA,NA,71.68784029038112
48439,Genesee County,MI,10.48158640226629,NA,NA
48446,Lapeer County,MI,NA,NA,10.344827586206897
48601,Saginaw County,MI,NA,81.25,NA
48602,Saginaw County,MI,NA,7.5,NA
48624,Gladwin County,MI,NA,34.64285714285714,NA
48640,Midland County,MI,58.35694050991501,NA,NA
48732,Bay County,MI,40.79320113314447,NA,NA
48801,Gratiot County,MI,NA,NA,63.70235934664247
48838,Montcalm County,MI,NA,44.82142857142858,NA
48911,Ingham County,MI,5.382436260623229,NA,NA
49002,Kalamazoo County,MI,NA,19.107142857142854,NA
49015,Calhoun County,MI,59.773371104815865,18.21428571428571,7.985480943738657
49022,Berrien County,MI,NA,7.857142857142857,NA
49037,Calhoun County,MI,35.977337110481585,NA,NA
49090,Van Buren County,MI,NA,NA,74.22867513611615
49098,Berrien County,MI,NA,61.964285714285715,NA
49120,Berrien County,MI,NA,NA,68.78402903811252
49202,Jackson County,MI,NA,19.642857142857142,NA
49242,Hillsdale County,MI,70.82152974504248,NA,NA
49252,Hillsdale County,MI,99.71671388101983,NA,NA
49319,Kent County,MI,NA,NA,59.70961887477314
49348,Allegan County,MI,26.628895184135974,NA,NA
49426,Ottawa County,MI,NA,73.39285714285714,NA
49504,Kent County,MI,NA,8.75,NA
49519,Kent County,MI,NA,43.214285714285715,NA
49735,Otsego County,MI,NA,NA,13.974591651542651
49854,Schoolcraft County,MI,65.43909348441926,NA,NA
55024,Dakota County,MN,NA,66.25,NA
55057,Rice County,MN,NA,67.67857142857143,NA
55071,Washington County,MN,NA,91.60714285714285,NA
55075,Dakota County,MN,NA,NA,54.264972776769504
55109,Ramsey County,MN,NA,18.035714285714285,NA
55110,Ramsey County,MN,NA,NA,21.234119782214155
55113,Ramsey County,MN,NA,69.64285714285714,NA
55122,Dakota County,MN,NA,91.42857142857143,NA
55318,Carver County,MN,NA,69.10714285714286,NA
55330,Sherburne County,MN,33.42776203966006,NA,NA
55343,Hennepin County,MN,34.27762039660057,NA,NA
55369,Hennepin County,MN,51.27478753541076,NA,NA
55378,Scott County,MN,43.90934844192634,NA,NA
55408,Hennepin County,MN,9.34844192634561,NA,NA
55411,Hennepin County,MN,NA,11.071428571428571,NA
55419,Hennepin County,MN,NA,38.035714285714285,NA
55422,Hennepin County,MN,67.98866855524079,NA,NA
55433,Anoka County,MN,29.461756373937675,NA,NA
55439,Hennepin County,MN,NA,76.42857142857142,NA
55441,Hennepin County,MN,NA,41.25,NA
55444,Hennepin County,MN,NA,51.07142857142857,NA
55449,Anoka County,MN,NA,NA,85.84392014519057
55734,St. Louis County,MN,84.98583569405099,NA,NA
55976,Olmsted County,MN,NA,NA,58.43920145190563
56007,Freeborn County,MN,NA,5.892857142857142,NA
56187,Nobles County,MN,NA,NA,34.84573502722323
56377,Stearns County,MN,NA,NA,72.0508166969147
56381,Pope County,MN,100,NA,NA
38635,Marshall County,MS,56.657223796033996,NA,NA
38655,Lafayette County,MS,NA,71.42857142857143,NA
38683,Tippah County,MS,NA,NA,80.21778584392014
38732,Bolivar County,MS,NA,24.821428571428573,NA
38737,Sunflower County,MS,NA,NA,100
38804,Lee County,MS,NA,57.67857142857142,NA
39042,Rankin County,MS,NA,59.464285714285715,NA
39047,Rankin County,MS,NA,26.25,NA
39117,Scott County,MS,39.94334277620396,NA,NA
39120,Adams County,MS,NA,NA,97.82214156079854
39189,Leake County,MS,NA,96.96428571428571,NA
39208,Rankin County,MS,NA,NA,15.245009074410163
39301,Lauderdale County,MS,NA,84.82142857142857,NA
39305,Lauderdale County,MS,NA,NA,35.027223230490016
39367,Wayne County,MS,NA,42.857142857142854,NA
39402,Lamar County,MS,NA,NA,35.75317604355717
39507,Harrison County,MS,52.124645892351275,NA,NA
39540,Harrison County,MS,NA,78.92857142857143,NA
39702,Lowndes County,MS,31.728045325779036,NA,NA
39759,Oktibbeha County,MS,NA,NA,47.005444646098006
39773,Clay County,MS,85.8356940509915,NA,NA
63011,St. Louis County,MO,NA,78.21428571428571,3.6297640653357535
63017,St. Louis County,MO,NA,NA,24.500907441016334
63050,Jefferson County,MO,NA,48.92857142857142,NA
63080,Franklin County,MO,57.79036827195468,32.857142857142854,NA
63106,St. Louis city,MO,NA,52.85714285714286,NA
63109,St. Louis city,MO,60.3399433427762,NA,NA
63110,St. Louis city,MO,NA,NA,74.77313974591652
63113,St. Louis city,MO,69.97167138810198,NA,93.82940108892922
63114,St. Louis County,MO,56.94050991501416,NA,NA
63116,St. Louis city,MO,NA,NA,36.29764065335753
63118,St. Louis city,MO,50.14164305949008,NA,NA
63129,St. Louis County,MO,NA,NA,67.33212341197822
63301,St. Charles County,MO,NA,14.464285714285715,62.06896551724138
63366,St. Charles County,MO,NA,3.214285714285714,NA
63385,St. Charles County,MO,NA,8.571428571428571,NA
63501,Adair County,MO,NA,NA,71.50635208711434
63664,Washington County,MO,89.23512747875354,NA,NA
63834,Mississippi County,MO,NA,89.46428571428572,NA
63841,Stoddard County,MO,NA,51.24999999999999,NA
63857,Dunklin County,MO,NA,79.64285714285714,NA
64050,Jackson County,MO,NA,NA,29.219600725952816
64052,Jackson County,MO,64.30594900849859,NA,NA
64055,Jackson County,MO,6.515580736543909,NA,NA
64093,Johnson County,MO,28.89518413597734,NA,NA
64152,Platte County,MO,16.147308781869686,NA,NA
64155,Clay County,MO,44.47592067988669,NA,NA
64772,Vernon County,MO,NA,NA,50.45372050816697
64850,Newton County,MO,11.89801699716714,NA,NA
65202,Boone County,MO,NA,13.571428571428571,NA
65270,Randolph County,MO,22.6628895184136,NA,NA
65301,Pettis County,MO,3.39943342776204,NA,NA
65340,Saline County,MO,28.611898016997166,NA,NA
65559,Phelps County,MO,NA,NA,88.2032667876588
65560,Dent County,MO,46.1756373937677,NA,NA
65616,Taney County,MO,30.59490084985836,NA,43.738656987295826
65742,Webster County,MO,NA,NA,42.83121597096189
59864,Lake County,MT,89.51841359773371,NA,NA
59870,Ravalli County,MT,NA,79.82142857142858,NA
68107,Douglas County,NE,93.48441926345609,NA,NA
68111,Douglas County,NE,NA,NA,40.83484573502722
68154,Douglas County,NE,NA,30.53571428571429,NA
68506,Lancaster County,NE,NA,31.071428571428573,NA
68801,Hall County,NE,NA,48.035714285714285,NA
89107,Clark County,NV,NA,42.32142857142857,NA
89119,Clark County,NV,17.56373937677054,NA,NA
89121,Clark County,NV,NA,44.285714285714285,NA
89122,Clark County,NV,20.113314447592067,NA,NA
89410,Douglas County,NV,NA,84.64285714285714,NA
89431,Washoe County,NV,41.64305949008499,NA,NA
89703,Carson City,NV,NA,NA,78.58439201451905
03032,Rockingham County,NH,NA,NA,81.30671506352087
03048,Hillsborough County,NH,NA,99.46428571428572,NA
03303,Merrimack County,NH,NA,75.89285714285714,NA
03820,Strafford County,NH,69.40509915014165,NA,46.82395644283122
03842,Rockingham County,NH,NA,NA,46.27949183303085
07017,Essex County,NJ,NA,NA,51.17967332123412
07024,Bergen County,NJ,NA,NA,6.896551724137931
07039,Essex County,NJ,16.997167138810198,NA,NA
07066,Union County,NJ,NA,NA,31.57894736842105
07094,Hudson County,NJ,NA,56.42857142857143,NA
07102,Essex County,NJ,79.3201133144476,NA,NA
07107,Essex County,NJ,1.9830028328611897,NA,NA
07205,Union County,NJ,99.43342776203966,NA,NA
07601,Bergen County,NJ,NA,NA,36.116152450090745
07604,Bergen County,NJ,NA,NA,90.19963702359347
07661,Bergen County,NJ,NA,NA,77.8584392014519
07701,Monmouth County,NJ,84.70254957507082,NA,NA
07731,Monmouth County,NJ,24.645892351274785,NA,NA
08012,Camden County,NJ,4.53257790368272,NA,NA
08046,Burlington County,NJ,91.21813031161473,NA,NA
08053,Burlington County,NJ,NA,NA,8.348457350272232
08054,Burlington County,NJ,NA,9.107142857142856,NA
08071,Gloucester County,NJ,NA,70,NA
08332,Cumberland County,NJ,1.69971671388102,10.892857142857142,NA
08360,Cumberland County,NJ,NA,NA,55.898366606170605
08530,Hunterdon County,NJ,NA,NA,55.716878402903816
08611,Mercer County,NJ,18.980169971671387,NA,NA
08701,Ocean County,NJ,NA,NA,72.77676950998185
08723,Ocean County,NJ,NA,13.214285714285715,NA
08757,Ocean County,NJ,NA,NA,20.14519056261343
08807,Somerset County,NJ,NA,53.035714285714285,NA
08822,Hunterdon County,NJ,NA,86.25,NA
08830,Middlesex County,NJ,NA,NA,32.48638838475499
08831,Middlesex County,NJ,NA,NA,85.66243194192378
08840,Middlesex County,NJ,NA,NA,64.24682395644284
08852,Middlesex County,NJ,NA,95.71428571428572,NA
08859,Middlesex County,NJ,38.81019830028329,NA,NA
08873,Somerset County,NJ,69.12181303116147,NA,NA
87108,Bernalillo County,NM,NA,3.9285714285714284,NA
87114,Bernalillo County,NM,26.345609065155806,NA,NA
87313,McKinley County,NM,98.58356940509914,NA,NA
88001,Doa Ana County,NM,NA,NA,33.39382940108893
88021,Doa Ana County,NM,NA,58.92857142857143,NA
88063,Doa Ana County,NM,72.80453257790369,NA,NA
88310,Otero County,NM,NA,2.857142857142857,NA
10014,New York County,NY,NA,93.03571428571429,NA
10452,Bronx County,NY,NA,NA,7.078039927404718
10455,Bronx County,NY,68.83852691218131,NA,NA
10457,Bronx County,NY,1.13314447592068,NA,NA
10458,Bronx County,NY,0.56657223796034,NA,NA
10467,Bronx County,NY,0.84985835694051,NA,NA
10530,Westchester County,NY,NA,NA,37.20508166969147
10710,Westchester County,NY,NA,NA,28.13067150635209
10918,Orange County,NY,NA,NA,95.4627949183303
10940,Orange County,NY,NA,NA,9.800362976406534
10954,Rockland County,NY,NA,NA,72.95825771324864
11040,Nassau County,NY,NA,NA,15.789473684210526
11106,Queens County,NY,NA,90.17857142857143,NA
11206,Kings County,NY,NA,NA,17.422867513611614
11208,Kings County,NY,NA,NA,36.84210526315789
11224,Kings County,NY,NA,NA,1.4519056261343013
11233,Kings County,NY,NA,0.8928571428571428,NA
11236,Kings County,NY,3.6827195467422094,NA,NA
11354,Queens County,NY,NA,NA,11.978221415607985
11366,Queens County,NY,NA,NA,48.275862068965516
11415,Queens County,NY,70.25495750708215,NA,NA
11418,Queens County,NY,NA,57.32142857142857,NA
11419,Queens County,NY,NA,NA,29.401088929219597
11510,Nassau County,NY,NA,26.071428571428573,NA
11550,Nassau County,NY,NA,85.53571428571428,NA
11552,Nassau County,NY,NA,NA,81.85117967332124
11560,Nassau County,NY,NA,80.35714285714286,NA
11691,Queens County,NY,NA,NA,90.38112522686026
11714,Nassau County,NY,62.03966005665722,NA,35.39019963702359
11717,Suffolk County,NY,52.40793201133145,NA,NA
11743,Suffolk County,NY,57.22379603399433,NA,NA
11753,Nassau County,NY,NA,99.28571428571429,NA
11756,Nassau County,NY,45.609065155807365,98.03571428571428,NA
11757,Suffolk County,NY,33.711048158640224,NA,NA
11784,Suffolk County,NY,NA,60.71428571428571,NA
11793,Nassau County,NY,NA,43.75,NA
11967,Suffolk County,NY,NA,55.35714285714286,NA
12061,Rensselaer County,NY,NA,NA,59.89110707803993
12077,Albany County,NY,73.08781869688386,NA,NA
12078,Fulton County,NY,NA,24.642857142857146,NA
12144,Rensselaer County,NY,NA,NA,63.1578947368421
12159,Albany County,NY,NA,NA,52.994555353901994
12202,Albany County,NY,NA,98.21428571428571,NA
12203,Albany County,NY,90.93484419263456,NA,21.59709618874773
12205,Albany County,NY,NA,NA,27.404718693284934
12211,Albany County,NY,NA,NA,69.32849364791288
12303,Schenectady County,NY,32.01133144475921,NA,NA
12304,Schenectady County,NY,NA,NA,41.74228675136116
12401,Ulster County,NY,NA,NA,71.86932849364791
12428,Ulster County,NY,NA,76.96428571428572,NA
12446,Ulster County,NY,82.15297450424929,NA,NA
12477,Ulster County,NY,93.76770538243626,NA,NA
12534,Columbia County,NY,NA,52.32142857142858,NA
12545,Dutchess County,NY,86.96883852691218,NA,NA
12866,Saratoga County,NY,NA,NA,5.081669691470054
12887,Washington County,NY,NA,81.78571428571428,NA
12983,Franklin County,NY,NA,NA,82.94010889292196
13021,Cayuga County,NY,29.178470254957507,NA,9.43738656987296
13069,Oswego County,NY,NA,94.46428571428571,58.620689655172406
13077,Cortland County,NY,NA,NA,97.09618874773139
13090,Onondaga County,NY,12.181303116147308,NA,NA
13214,Onondaga County,NY,NA,NA,81.48820326678766
13403,Oneida County,NY,NA,50,NA
13440,Oneida County,NY,11.3314447592068,88.57142857142857,NA
13748,Broome County,NY,NA,74.28571428571429,NA
13790,Broome County,NY,NA,NA,7.6225045372050815
13820,Otsego County,NY,8.498583569405099,NA,35.93466424682396
13850,Broome County,NY,NA,NA,13.793103448275861
13905,Broome County,NY,NA,16.785714285714285,NA
14092,Niagara County,NY,NA,NA,88.74773139745916
14218,Erie County,NY,NA,25.535714285714285,NA
14305,Niagara County,NY,NA,62.142857142857146,NA
14445,Monroe County,NY,NA,68.75,NA
14502,Wayne County,NY,48.1586402266289,NA,NA
14526,Monroe County,NY,NA,9.821428571428571,NA
14607,Monroe County,NY,15.01416430594901,NA,NA
14612,Monroe County,NY,NA,31.25,NA
14624,Monroe County,NY,NA,49.82142857142857,NA
14706,Cattaraugus County,NY,NA,68.92857142857143,NA
14760,Cattaraugus County,NY,NA,63.92857142857142,NA
14840,Steuben County,NY,NA,80,NA
14850,Tompkins County,NY,NA,53.75,NA
14898,Steuben County,NY,92.91784702549575,NA,NA
27104,Forsyth County,NC,NA,NA,30.30852994555354
27105,Forsyth County,NC,2.5495750708215295,NA,NA
27107,Forsyth County,NC,NA,NA,9.074410163339383
27127,Forsyth County,NC,NA,NA,37.74954627949184
27244,Alamance County,NC,NA,NA,66.96914700544465
27278,Orange County,NC,NA,NA,9.25589836660617
27284,Forsyth County,NC,NA,1.25,2.540834845735027
27288,Rockingham County,NC,10.764872521246458,NA,25.771324863883848
27295,Davidson County,NC,3.1161473087818696,NA,NA
27302,Alamance County,NC,NA,NA,59.16515426497278
27320,Rockingham County,NC,NA,6.785714285714286,NA
27325,Moore County,NC,96.3172804532578,NA,NA
27377,Guilford County,NC,97.16713881019831,NA,NA
27410,Guilford County,NC,NA,9.642857142857144,NA
27521,Harnett County,NC,NA,NA,98.00362976406534
27529,Wake County,NC,NA,10.714285714285714,NA
27542,Johnston County,NC,81.01983002832861,NA,NA
27557,Nash County,NC,NA,86.42857142857143,NA
27565,Granville County,NC,NA,60.535714285714285,NA
27577,Johnston County,NC,68.55524079320114,NA,NA
27597,Wake County,NC,NA,37.857142857142854,NA
27607,Wake County,NC,NA,NA,65.69872958257713
27609,Wake County,NC,NA,20.535714285714285,68.96551724137932
27713,Durham County,NC,NA,11.785714285714285,NA
27910,Hertford County,NC,NA,33.39285714285714,NA
28025,Cabarrus County,NC,NA,9.464285714285714,NA
28027,Cabarrus County,NC,NA,4.821428571428572,NA
28043,Rutherford County,NC,NA,25,NA
28081,Cabarrus County,NC,NA,NA,21.415607985480946
28152,Cleveland County,NC,31.1614730878187,NA,NA
28209,Mecklenburg County,NC,NA,NA,53.72050816696915
28212,Mecklenburg County,NC,NA,NA,47.368421052631575
28227,Mecklenburg County,NC,NA,49.28571428571429,NA
28278,Mecklenburg County,NC,NA,NA,97.45916515426497
28315,Moore County,NC,NA,77.32142857142857,NA
28327,Moore County,NC,NA,86.96428571428572,NA
28328,Sampson County,NC,NA,37.67857142857143,NA
28345,Richmond County,NC,87.25212464589235,NA,98.36660617059891
28365,Wayne County,NC,NA,50.71428571428571,NA
28384,Bladen County,NC,NA,NA,96.91470054446461
28387,Moore County,NC,NA,NA,84.0290381125227
28403,New Hanover County,NC,NA,34.82142857142857,NA
28472,Columbus County,NC,30.31161473087819,NA,NA
28504,Lenoir County,NC,35.69405099150141,NA,NA
28513,Pitt County,NC,NA,96.42857142857143,NA
28570,Carteret County,NC,NA,NA,60.61705989110708
28612,Burke County,NC,NA,75.35714285714286,NA
28613,Catawba County,NC,54.95750708215298,NA,NA
28625,Iredell County,NC,NA,NA,13.248638838475499
28630,Caldwell County,NC,NA,NA,72.23230490018149
28645,Caldwell County,NC,NA,0.5357142857142857,1.6333938294010888
28655,Burke County,NC,NA,29.82142857142857,NA
28678,Alexander County,NC,65.72237960339945,NA,NA
28681,Alexander County,NC,NA,51.78571428571429,NA
28697,Wilkes County,NC,NA,NA,41.01633393829401
28715,Buncombe County,NC,NA,NA,33.938294010889294
28778,Buncombe County,NC,94.3342776203966,NA,NA
28806,Buncombe County,NC,66.0056657223796,NA,NA
28904,Clay County,NC,NA,NA,95.82577132486388
43017,Franklin County,OH,NA,NA,20.689655172413794
43040,Union County,OH,75.92067988668555,NA,NA
43044,Champaign County,OH,NA,98.75,NA
43050,Knox County,OH,NA,41.42857142857143,NA
43074,Delaware County,OH,NA,NA,87.47731397459165
43113,Pickaway County,OH,33.994334277620396,28.92857142857143,52.26860254083484
43211,Franklin County,OH,46.742209631728045,61.25000000000001,NA
43213,Franklin County,OH,7.64872521246459,NA,NA
43224,Franklin County,OH,NA,NA,13.611615245009073
43302,Marion County,OH,NA,1.7857142857142856,NA
43311,Logan County,OH,23.229461756373937,NA,NA
43512,Defiance County,OH,NA,3.392857142857143,NA
43607,Lucas County,OH,NA,52.5,NA
43609,Lucas County,OH,NA,NA,85.48094373865699
43701,Muskingum County,OH,NA,0.35714285714285715,NA
43952,Jefferson County,OH,NA,7.142857142857142,NA
44024,Geauga County,OH,NA,47.14285714285714,NA
44030,Ashtabula County,OH,NA,NA,23.593466424682397
44053,Lorain County,OH,NA,4.464285714285714,NA
44060,Lake County,OH,NA,NA,0.5444646098003629
44062,Geauga County,OH,NA,93.75,NA
44067,Summit County,OH,NA,11.964285714285715,NA
44102,Cuyahoga County,OH,NA,1.607142857142857,NA
44105,Cuyahoga County,OH,1.41643059490085,NA,NA
44108,Cuyahoga County,OH,NA,19.464285714285715,NA
44109,Cuyahoga County,OH,NA,10.178571428571429,NA
44121,Cuyahoga County,OH,7.365439093484419,NA,11.070780399274046
44128,Cuyahoga County,OH,47.02549575070821,NA,NA
44130,Cuyahoga County,OH,NA,NA,0.7259528130671506
44142,Cuyahoga County,OH,NA,NA,84.21052631578947
44144,Cuyahoga County,OH,NA,5.357142857142857,NA
44145,Cuyahoga County,OH,13.314447592067987,NA,NA
44146,Cuyahoga County,OH,NA,1.4285714285714286,NA
44201,Portage County,OH,75.3541076487252,NA,NA
44233,Medina County,OH,NA,62.5,NA
44266,Portage County,OH,NA,NA,4.174228675136116
44301,Summit County,OH,24.362606232294617,NA,NA
44312,Summit County,OH,NA,6.428571428571428,NA
44320,Summit County,OH,NA,NA,40.471869328493646
44410,Trumbull County,OH,NA,15,NA
44420,Trumbull County,OH,30.878186968838527,NA,NA
44460,Columbiana County,OH,53.25779036827195,NA,NA
44481,Trumbull County,OH,NA,NA,57.89473684210527
44484,Trumbull County,OH,NA,28.749999999999996,NA
44509,Mahoning County,OH,56.09065155807366,NA,54.99092558983666
44601,Stark County,OH,NA,NA,5.44464609800363
44641,Stark County,OH,NA,29.642857142857142,NA
44672,Mahoning County,OH,NA,97.14285714285714,NA
44683,Tuscarawas County,OH,NA,83.39285714285715,NA
44691,Wayne County,OH,5.94900849858357,NA,NA
44705,Stark County,OH,86.40226628895185,NA,NA
44870,Erie County,OH,NA,NA,61.705989110707804
44905,Richland County,OH,NA,NA,97.27767695099818
45011,Butler County,OH,25.77903682719547,NA,NA
45042,Butler County,OH,39.6600566572238,NA,NA
45056,Butler County,OH,91.5014164305949,NA,NA
45150,Clermont County,OH,NA,44.107142857142854,NA
45233,Hamilton County,OH,NA,NA,53.35753176043557
45236,Hamilton County,OH,NA,NA,15.063520871143377
45243,Hamilton County,OH,NA,94.82142857142857,80.94373865698729
45248,Hamilton County,OH,NA,NA,11.978221415607985
45251,Hamilton County,OH,NA,95.53571428571429,NA
45365,Shelby County,OH,NA,56.607142857142854,NA
45429,Montgomery County,OH,NA,NA,70.05444646098003
45439,Montgomery County,OH,NA,NA,63.52087114337568
45503,Clark County,OH,NA,43.57142857142857,NA
45505,Clark County,OH,49.57507082152974,35.714285714285715,99.09255898366605
45628,Ross County,OH,NA,35.535714285714285,NA
45640,Jackson County,OH,78.75354107648725,NA,NA
45662,Scioto County,OH,NA,NA,2.9038112522686026
45663,Scioto County,OH,NA,90.53571428571429,NA
45680,Lawrence County,OH,62.889518413597735,NA,NA
45697,Adams County,OH,NA,NA,93.10344827586206
45806,Allen County,OH,NA,83.57142857142857,NA
45885,Auglaize County,OH,NA,35,NA
45895,Auglaize County,OH,NA,NA,24.863883847549907
73008,Oklahoma County,OK,NA,NA,27.586206896551722
73018,Grady County,OK,NA,71.07142857142857,NA
73036,Canadian County,OK,NA,67.67857142857143,NA
73080,McClain County,OK,NA,NA,82.3956442831216
73084,Oklahoma County,OK,NA,NA,98.54809437386571
73110,Oklahoma County,OK,14.44759206798867,NA,NA
73115,Oklahoma County,OK,65.15580736543909,NA,NA
73119,Oklahoma County,OK,NA,80.17857142857143,NA
73505,Comanche County,OK,NA,NA,14.882032667876588
74003,Osage County,OK,NA,53.92857142857142,NA
74012,Tulsa County,OK,NA,7.678571428571429,NA
74015,Rogers County,OK,73.37110481586402,NA,NA
74017,Rogers County,OK,83.28611898016997,NA,NA
74023,Payne County,OK,NA,NA,85.11796733212341
74075,Payne County,OK,97.45042492917847,NA,NA
74115,Tulsa County,OK,NA,NA,70.41742286751361
74128,Tulsa County,OK,NA,88.92857142857142,NA
74136,Tulsa County,OK,NA,NA,16.515426497277677
74820,Pontotoc County,OK,NA,3.75,NA
74884,Seminole County,OK,NA,56.25,NA
97008,Washington County,OR,NA,NA,52.63157894736842
97132,Yamhill County,OR,NA,17.142857142857142,NA
97209,Multnomah County,OR,NA,41.07142857142857,66.42468239564428
97215,Multnomah County,OR,NA,93.92857142857143,NA
97229,Washington County,OR,NA,22.678571428571427,NA
97233,Multnomah County,OR,NA,NA,37.02359346642468
97266,Multnomah County,OR,NA,NA,86.02540834845736
97304,Polk County,OR,NA,62.67857142857143,NA
97305,Marion County,OR,NA,31.607142857142854,NA
97322,Linn County,OR,NA,NA,86.5698729582577
97330,Benton County,OR,NA,NA,57.16878402903811
97338,Polk County,OR,NA,25.71428571428571,NA
97404,Lane County,OR,47.30878186968839,NA,NA
97405,Lane County,OR,NA,NA,60.254083484573506
97459,Coos County,OR,NA,81.96428571428571,NA
97477,Lane County,OR,NA,76.07142857142857,NA
97478,Lane County,OR,NA,NA,59.346642468239565
97502,Jackson County,OR,NA,36.607142857142854,NA
97504,Jackson County,OR,NA,8.035714285714286,3.4482758620689653
97520,Jackson County,OR,NA,NA,18.330308529945555
97914,Malheur County,OR,NA,NA,78.94736842105263
15017,Allegheny County,PA,NA,NA,35.208711433756804
15132,Allegheny County,PA,NA,NA,56.62431941923774
15210,Allegheny County,PA,NA,NA,79.491833030853
15211,Allegheny County,PA,71.95467422096317,NA,NA
15227,Allegheny County,PA,NA,36.964285714285715,NA
15236,Allegheny County,PA,NA,59.10714285714286,NA
15243,Allegheny County,PA,NA,NA,19.96370235934664
15317,Washington County,PA,NA,24.46428571428571,NA
15601,Westmoreland County,PA,NA,NA,49.9092558983666
15748,Indiana County,PA,NA,NA,66.60617059891108
15767,Jefferson County,PA,21.813031161473088,NA,NA
15825,Jefferson County,PA,NA,NA,60.798548094373864
15901,Cambria County,PA,NA,NA,92.74047186932849
15905,Cambria County,PA,76.48725212464589,NA,NA
16001,Butler County,PA,15.29745042492918,NA,NA
16148,Mercer County,PA,NA,13.035714285714286,NA
16159,Mercer County,PA,94.90084985835693,NA,NA
16229,Armstrong County,PA,NA,NA,85.2994555353902
16323,Venango County,PA,39.376770538243626,NA,NA
16441,Erie County,PA,NA,53.57142857142857,NA
16648,Blair County,PA,NA,21.785714285714285,NA
17044,Mifflin County,PA,74.5042492917847,56.785714285714285,NA
17046,Lebanon County,PA,NA,NA,58.802177858439194
17055,Cumberland County,PA,NA,48.75,NA
17057,Dauphin County,PA,14.164305949008499,NA,NA
17059,Juniata County,PA,NA,NA,32.48638838475499
17202,Franklin County,PA,NA,NA,48.63883847549909
17268,Franklin County,PA,NA,37.5,NA
17331,York County,PA,NA,1.0714285714285714,NA
17402,York County,PA,NA,25.357142857142854,NA
17408,York County,PA,33.14447592067989,NA,NA
17543,Lancaster County,PA,NA,NA,51.542649727767696
17579,Lancaster County,PA,89.80169971671388,NA,NA
17837,Union County,PA,59.490084985835686,NA,NA
17870,Snyder County,PA,NA,NA,25.045372050816695
17931,Schuylkill County,PA,NA,71.60714285714286,NA
17976,Schuylkill County,PA,NA,72.14285714285714,NA
18013,Northampton County,PA,NA,27.500000000000004,NA
18071,Carbon County,PA,38.52691218130311,NA,NA
18088,Northampton County,PA,NA,NA,82.2141560798548
18428,Pike County,PA,NA,NA,37.20508166969147
18466,Monroe County,PA,42.77620396600567,NA,NA
18603,Columbia County,PA,NA,NA,28.85662431941924
18612,Luzerne County,PA,NA,NA,82.03266787658802
18661,Luzerne County,PA,NA,75.71428571428571,NA
18704,Luzerne County,PA,12.747875354107649,NA,NA
18974,Bucks County,PA,NA,89.10714285714286,64.97277676950998
19001,Montgomery County,PA,92.3512747875354,NA,NA
19006,Montgomery County,PA,NA,NA,81.66969147005445
19018,Delaware County,PA,21.246458923512748,NA,NA
19020,Bucks County,PA,6.79886685552408,NA,NA
19046,Montgomery County,PA,NA,NA,21.960072595281307
19047,Bucks County,PA,18.69688385269122,NA,NA
19116,Philadelphia County,PA,NA,NA,68.05807622504537
19136,Philadelphia County,PA,32.29461756373937,NA,24.137931034482758
19140,Philadelphia County,PA,36.54390934844193,NA,22.50453720508167
19142,Philadelphia County,PA,NA,27.67857142857143,NA
19154,Philadelphia County,PA,NA,73.57142857142858,NA
19312,Chester County,PA,NA,NA,63.33938294010889
19468,Montgomery County,PA,NA,NA,70.5989110707804
19530,Berks County,PA,75.07082152974505,NA,NA
19606,Berks County,PA,NA,68.39285714285714,NA
19607,Berks County,PA,48.44192634560906,NA,33.03085299455535
02828,Providence County,RI,NA,NA,95.09981851179673
02835,Newport County,RI,NA,NA,86.93284936479128
02871,Newport County,RI,NA,NA,90.56261343012704
02882,Washington County,RI,NA,33.214285714285715,NA
02888,Kent County,RI,NA,NA,68.23956442831216
02895,Providence County,RI,NA,NA,15.60798548094374
02904,Providence County,RI,NA,NA,64.06533575317604
02908,Providence County,RI,NA,23.214285714285715,NA
02919,Providence County,RI,32.577903682719544,NA,NA
29072,Lexington County,SC,NA,NA,47.91288566243194
29102,Clarendon County,SC,88.10198300283287,NA,NA
29150,Sumter County,SC,NA,NA,39.201451905626136
29203,Richland County,SC,9.06515580736544,NA,NA
29301,Spartanburg County,SC,25.495750708215297,NA,NA
29303,Spartanburg County,SC,NA,NA,62.794918330308526
29316,Spartanburg County,SC,NA,46.42857142857143,NA
29322,Spartanburg County,SC,NA,NA,82.57713248638838
29340,Cherokee County,SC,NA,NA,23.77495462794918
29405,Charleston County,SC,NA,NA,40.29038112522686
29407,Charleston County,SC,NA,88.21428571428571,NA
29412,Charleston County,SC,NA,NA,30.671506352087114
29445,Berkeley County,SC,NA,87.32142857142857,NA
29505,Florence County,SC,60.62322946175638,NA,NA
29556,Williamsburg County,SC,NA,NA,94.55535390199637
29571,Marion County,SC,51.55807365439094,NA,52.994555353901994
29585,Georgetown County,SC,NA,NA,21.77858439201452
29605,Greenville County,SC,71.10481586402267,NA,NA
29654,Anderson County,SC,NA,43.92857142857143,NA
29666,Greenwood County,SC,NA,NA,69.87295825771325
29676,Oconee County,SC,NA,83.21428571428572,NA
29678,Oconee County,SC,NA,20.357142857142858,NA
29707,Lancaster County,SC,NA,NA,12.341197822141561
29730,York County,SC,92.06798866855524,NA,NA
29841,Aiken County,SC,NA,17.5,NA
57103,Minnehaha County,SD,NA,2.5,NA
57401,Brown County,SD,13.59773371104816,NA,NA
37066,Sumner County,TN,NA,24.285714285714285,NA
37075,Sumner County,TN,NA,NA,5.263157894736842
37135,Williamson County,TN,NA,95.35714285714286,NA
37174,Williamson County,TN,NA,23.92857142857143,NA
37190,Cannon County,TN,NA,NA,50.45372050816697
37205,Davidson County,TN,NA,90,NA
37209,Davidson County,TN,NA,62.32142857142857,NA
37307,Polk County,TN,NA,100,NA
37311,Bradley County,TN,NA,NA,43.55716878402904
37321,Rhea County,TN,NA,NA,80.76225045372051
37355,Coffee County,TN,NA,32.5,NA
37415,Hamilton County,TN,NA,36.42857142857142,NA
37641,Greene County,TN,53.54107648725213,NA,NA
37643,Carter County,TN,NA,5.714285714285714,NA
37743,Greene County,TN,NA,2.6785714285714284,NA
37745,Greene County,TN,NA,NA,87.29582577132487
37748,Roane County,TN,NA,79.28571428571428,NA
37757,Campbell County,TN,81.30311614730878,NA,NA
37760,Jefferson County,TN,47.875354107648725,NA,NA
37862,Sevier County,TN,NA,NA,81.12522686025409
37876,Sevier County,TN,NA,NA,22.323049001814883
37912,Knox County,TN,NA,35.17857142857143,NA
38018,Shelby County,TN,NA,NA,66.78765880217786
38109,Shelby County,TN,NA,32.142857142857146,NA
38118,Shelby County,TN,NA,61.78571428571429,NA
38125,Shelby County,TN,NA,NA,64.60980036297642
38128,Shelby County,TN,16.71388101983003,NA,NA
38301,Madison County,TN,44.759206798866856,NA,NA
38375,McNairy County,TN,63.73937677053825,NA,NA
38485,Wayne County,TN,NA,NA,54.62794918330308
38555,Cumberland County,TN,NA,66.78571428571428,NA
38556,Fentress County,TN,NA,82.14285714285714,NA
38570,Overton County,TN,NA,70.17857142857142,NA
38571,Cumberland County,TN,NA,96.78571428571429,NA
75002,Collin County,TX,41.92634560906516,NA,NA
75050,Dallas County,TX,55.524079320113316,NA,NA
75071,Collin County,TX,NA,98.57142857142858,NA
75074,Collin County,TX,NA,82.67857142857142,NA
75092,Grayson County,TX,NA,NA,80.03629764065336
75098,Collin County,TX,NA,64.82142857142857,NA
75119,Ellis County,TX,41.359773371104815,NA,NA
75140,Van Zandt County,TX,NA,78.75,NA
75160,Kaufman County,TX,NA,NA,39.56442831215971
75180,Dallas County,TX,NA,NA,44.827586206896555
75215,Dallas County,TX,58.640226628895185,NA,NA
75216,Dallas County,TX,NA,24.107142857142858,NA
75218,Dallas County,TX,NA,38.92857142857143,NA
75228,Dallas County,TX,NA,NA,43.19419237749546
75237,Dallas County,TX,35.12747875354108,NA,NA
75241,Dallas County,TX,NA,NA,39.01996370235935
75440,Rains County,TX,73.37110481586402,NA,NA
75455,Titus County,TX,98.86685552407933,NA,NA
75482,Hopkins County,TX,NA,NA,26.860254083484573
75603,Gregg County,TX,NA,66.07142857142857,NA
75604,Gregg County,TX,NA,91.96428571428571,NA
75670,Harrison County,TX,NA,48.57142857142857,NA
75839,Anderson County,TX,96.60056657223795,NA,NA
75840,Freestone County,TX,NA,NA,96.37023593466425
75901,Angelina County,TX,80.16997167138811,NA,NA
76028,Johnson County,TX,NA,NA,70.78039927404718
76031,Johnson County,TX,NA,NA,53.72050816696915
76033,Johnson County,TX,83.56940509915015,NA,NA
76039,Tarrant County,TX,NA,NA,42.46823956442831
76085,Parker County,TX,70.53824362606233,NA,NA
76116,Tarrant County,TX,18.413597733711047,NA,NA
76126,Tarrant County,TX,NA,NA,50.09074410163339
76134,Tarrant County,TX,NA,NA,44.283121597096184
76205,Denton County,TX,81.86968838526913,NA,NA
76302,Wichita County,TX,NA,93.39285714285714,NA
76305,Wichita County,TX,NA,NA,98.91107078039929
76401,Erath County,TX,NA,NA,79.12885662431943
76543,Bell County,TX,NA,NA,86.20689655172413
76571,Bell County,TX,NA,NA,25.226860254083483
76634,Bosque County,TX,NA,NA,67.51361161524501
76667,Limestone County,TX,NA,65.89285714285714,NA
76705,McLennan County,TX,13.031161473087819,NA,NA
76901,Tom Green County,TX,NA,19.28571428571429,NA
77020,Harris County,TX,NA,59.64285714285714,NA
77021,Harris County,TX,NA,89.28571428571429,NA
77033,Harris County,TX,NA,34.10714285714286,NA
77036,Harris County,TX,NA,NA,36.29764065335753
77044,Harris County,TX,NA,40.535714285714285,NA
77092,Harris County,TX,NA,42.67857142857142,NA
77340,Walker County,TX,67.98866855524079,88.75,NA
77365,Montgomery County,TX,NA,39.82142857142857,NA
77375,Harris County,TX,NA,81.42857142857143,NA
77566,Brazoria County,TX,39.09348441926346,NA,NA
77581,Brazoria County,TX,NA,NA,84.57350272232304
77627,Jefferson County,TX,90.08498583569406,NA,NA
77630,Orange County,TX,NA,21.071428571428573,NA
77640,Jefferson County,TX,47.59206798866856,NA,NA
77701,Jefferson County,TX,NA,92.5,NA
77802,Brazos County,TX,NA,NA,26.31578947368421
77845,Brazos County,TX,NA,NA,38.11252268602541
77904,Victoria County,TX,NA,78.57142857142857,NA
78040,Webb County,TX,93.20113314447592,NA,NA
78109,Bexar County,TX,37.110481586402265,NA,NA
78130,Comal County,TX,43.626062322946176,NA,62.43194192377496
78201,Bexar County,TX,NA,NA,27.041742286751365
78202,Bexar County,TX,NA,75.17857142857143,NA
78228,Bexar County,TX,NA,NA,13.06715063520871
78260,Bexar County,TX,NA,NA,91.2885662431942
78332,Jim Wells County,TX,49.008498583569406,42.5,NA
78415,Nueces County,TX,NA,72.5,NA
78572,Hidalgo County,TX,NA,NA,47.73139745916515
78586,Cameron County,TX,NA,NA,17.78584392014519
78666,Hays County,TX,NA,NA,39.7459165154265
78681,Williamson County,TX,NA,NA,14.700544464609798
78735,Travis County,TX,NA,NA,57.89473684210527
78738,Travis County,TX,NA,88.39285714285714,NA
78747,Travis County,TX,NA,94.10714285714286,NA
78758,Travis County,TX,40.50991501416431,NA,NA
79108,Potter County,TX,NA,84.82142857142857,NA
79603,Taylor County,TX,24.07932011331445,NA,NA
79907,El Paso County,TX,NA,52.67857142857143,NA
79915,El Paso County,TX,NA,NA,8.166969147005444
79925,El Paso County,TX,NA,NA,20.87114337568058
84058,Utah County,UT,NA,NA,90.92558983666062
84084,Salt Lake County,UT,NA,NA,49.546279491833026
84096,Salt Lake County,UT,NA,NA,76.76950998185119
84108,Salt Lake County,UT,NA,NA,66.0617059891107
84119,Salt Lake County,UT,NA,NA,51.90562613430127
84121,Salt Lake County,UT,NA,11.25,NA
84123,Salt Lake County,UT,NA,NA,31.397459165154263
84405,Weber County,UT,NA,40.535714285714285,NA
84770,Washington County,UT,52.97450424929179,NA,NA
84790,Washington County,UT,NA,NA,34.48275862068966
05641,Washington County,VT,62.606232294617556,NA,NA
20164,Loudoun County,VA,NA,NA,91.65154264972777
20170,Fairfax County,VA,NA,55.892857142857146,NA
20171,Fairfax County,VA,NA,95,NA
22042,Fairfax County,VA,NA,54.64285714285714,NA
22191,Prince William County,VA,NA,45,NA
22203,Arlington County,VA,NA,NA,87.47731397459165
22306,Fairfax County,VA,NA,NA,73.13974591651544
22405,Stafford County,VA,NA,73.92857142857143,NA
22406,Stafford County,VA,NA,NA,33.21234119782214
22407,Spotsylvania County,VA,NA,12.321428571428573,NA
22443,Westmoreland County,VA,84.41926345609065,NA,NA
22980,Waynesboro city,VA,NA,70.71428571428572,NA
23111,Hanover County,VA,NA,NA,78.76588021778585
23150,Henrico County,VA,NA,NA,48.09437386569873
23221,Richmond city,VA,NA,NA,62.613430127041745
23222,Richmond city,VA,NA,17.67857142857143,NA
23234,Chesterfield County,VA,NA,46.60714285714286,NA
23238,Henrico County,VA,NA,66.42857142857143,NA
23451,Virginia Beach city,VA,NA,NA,2.722323049001815
23518,Norfolk city,VA,NA,NA,92.92196007259528
23666,Hampton city,VA,NA,6.964285714285714,NA
23701,Portsmouth city,VA,NA,38.392857142857146,NA
23836,Chesterfield County,VA,NA,NA,89.29219600725953
23868,Brunswick County,VA,NA,84.46428571428571,NA
23890,Sussex County,VA,97.73371104815864,NA,NA
24112,Henry County,VA,NA,10,NA
24219,Wise County,VA,NA,NA,44.46460980036298
24251,Scott County,VA,64.87252124645893,NA,NA
24340,Washington County,VA,NA,61.07142857142858,NA
24503,Lynchburg city,VA,NA,NA,26.497277676950997
24541,Danville city,VA,NA,NA,53.53901996370236
98030,King County,WA,19.8300283286119,NA,NA
98032,King County,WA,NA,NA,46.46098003629764
98038,King County,WA,NA,23.035714285714285,NA
98058,King County,WA,NA,63.74999999999999,NA
98092,King County,WA,NA,NA,49.727767695099814
98110,Kitsap County,WA,82.43626062322946,NA,NA
98115,King County,WA,NA,NA,45.91651542649728
98146,King County,WA,NA,60,NA
98177,King County,WA,NA,63.39285714285714,NA
98232,Skagit County,WA,NA,82.85714285714286,NA
98270,Snohomish County,WA,14.730878186968837,70.35714285714286,NA
98273,Skagit County,WA,22.096317280453256,NA,NA
98310,Kitsap County,WA,50.991501416430594,NA,NA
98374,Pierce County,WA,NA,75.53571428571428,NA
98382,Clallam County,WA,NA,NA,1.2704174228675136
98404,Pierce County,WA,NA,68.03571428571429,NA
98405,Pierce County,WA,26.062322946175637,NA,NA
98406,Pierce County,WA,49.29178470254957,NA,NA
98408,Pierce County,WA,NA,NA,95.6442831215971
98499,Pierce County,WA,NA,NA,77.49546279491834
98632,Cowlitz County,WA,NA,NA,2.35934664246824
98662,Clark County,WA,NA,38.57142857142858,NA
98674,Cowlitz County,WA,NA,65.71428571428571,NA
98802,Douglas County,WA,NA,NA,38.294010889292196
98901,Yakima County,WA,42.492917847025495,NA,NA
98902,Yakima County,WA,21.529745042492916,NA,NA
99201,Spokane County,WA,NA,58.214285714285715,NA
99362,Walla Walla County,WA,NA,NA,5.626134301270418
20018,District of Columbia,DC,NA,15.357142857142858,27.76769509981851
20019,District of Columbia,DC,NA,43.03571428571429,NA
25303,Kanawha County,WV,NA,NA,47.54990925589836
25314,Kanawha County,WV,NA,71.25,NA
25526,Putnam County,WV,NA,23.75,NA
25674,Mingo County,WV,NA,98.39285714285714,NA
25704,Wayne County,WV,NA,49.107142857142854,NA
25801,Raleigh County,WV,NA,NA,6.170598911070781
26062,Hancock County,WV,NA,NA,6.715063520871143
26201,Upshur County,WV,NA,NA,8.711433756805807
26301,Harrison County,WV,NA,27.142857142857142,NA
26501,Monongalia County,WV,NA,43.392857142857146,NA
26554,Marion County,WV,59.20679886685553,NA,NA
53010,Fond du Lac County,WI,NA,NA,99.8185117967332
53029,Waukesha County,WI,NA,31.96428571428571,NA
53040,Washington County,WI,NA,87.14285714285714,NA
53072,Waukesha County,WI,86.11898016997166,NA,NA
53073,Sheboygan County,WI,NA,94.28571428571428,76.22504537205081
53080,Ozaukee County,WI,NA,NA,61.524500907441016
53081,Sheboygan County,WI,NA,14.107142857142858,NA
53094,Jefferson County,WI,NA,NA,15.970961887477314
53098,Dodge County,WI,84.13597733711048,NA,NA
53110,Milwaukee County,WI,NA,20.17857142857143,62.976406533575314
53150,Waukesha County,WI,NA,NA,77.6769509981851
53188,Waukesha County,WI,NA,11.607142857142858,NA
53190,Walworth County,WI,NA,39.464285714285715,NA
53209,Milwaukee County,WI,NA,NA,42.28675136116152
53214,Milwaukee County,WI,NA,NA,13.248638838475499
53223,Milwaukee County,WI,NA,7.321428571428572,NA
53224,Milwaukee County,WI,NA,32.67857142857143,NA
53226,Milwaukee County,WI,NA,91.78571428571428,NA
53538,Jefferson County,WI,NA,22.5,NA
53548,Rock County,WI,NA,NA,15.426497277676951
53594,Jefferson County,WI,NA,NA,88.38475499092559
53719,Dane County,WI,NA,25.892857142857146,NA
53821,Crawford County,WI,NA,58.57142857142858,NA
54020,Polk County,WI,NA,NA,65.33575317604355
54115,Brown County,WI,NA,19.82142857142857,NA
54170,Outagamie County,WI,90.36827195467421,NA,NA
54304,Brown County,WI,NA,NA,84.39201451905626
54311,Brown County,WI,NA,NA,11.61524500907441
54494,Wood County,WI,NA,56.07142857142857,NA
54568,Vilas County,WI,NA,NA,44.64609800362977
54601,La Crosse County,WI,NA,NA,0.18148820326678766
54724,Chippewa County,WI,NA,64.10714285714286,NA
54729,Chippewa County,WI,85.26912181303116,87.5,NA
54806,Ashland County,WI,NA,NA,92.01451905626135
54868,Barron County,WI,NA,55.17857142857143,NA
54952,Winnebago County,WI,NA,NA,65.51724137931035
82072,Albany County,WY,98.01699716713881,NA,NA
82414,Park County,WY,NA,NA,25.952813067150636
