ZipCode,county,state,Adult,Retirement,Geriatric
35016,Marshall County,AL,87.53117206982543,NA,NA
35023,Jefferson County,AL,NA,8.481675392670157,NA
35054,St. Clair County,AL,NA,67.64397905759162,NA
35125,St. Clair County,AL,NA,NA,47.285714285714285
35150,Talladega County,AL,NA,NA,88.28571428571429
35180,Jefferson County,AL,NA,48.06282722513089,NA
35211,Jefferson County,AL,33.54114713216958,NA,NA
35226,Jefferson County,AL,35.910224438902745,NA,NA
35244,Jefferson County,AL,35.53615960099751,NA,NA
35633,Lauderdale County,AL,NA,84.92146596858639,NA
35740,Jackson County,AL,NA,99.68586387434554,NA
35761,Madison County,AL,59.47630922693266,NA,NA
35768,Jackson County,AL,NA,90.15706806282722,NA
35951,Marshall County,AL,48.87780548628429,NA,NA
35956,Etowah County,AL,61.59600997506235,NA,73
35959,Cherokee County,AL,85.53615960099751,NA,NA
36022,Elmore County,AL,55.9850374064838,NA,NA
36203,Calhoun County,AL,91.14713216957607,NA,NA
36272,Calhoun County,AL,85.785536159601,NA,NA
36305,Houston County,AL,NA,NA,49.57142857142857
36330,Coffee County,AL,33.915211970074814,NA,NA
36507,Baldwin County,AL,NA,68.27225130890052,82.57142857142857
36571,Mobile County,AL,NA,NA,68
36582,Mobile County,AL,36.53366583541147,NA,NA
36587,Mobile County,AL,62.34413965087282,NA,NA
36605,Mobile County,AL,NA,86.59685863874346,NA
36609,Mobile County,AL,NA,92.14659685863874,NA
36617,Mobile County,AL,NA,NA,50.142857142857146
36693,Mobile County,AL,NA,91.93717277486911,NA
36701,Dallas County,AL,NA,68.37696335078533,NA
36744,Hale County,AL,NA,NA,57.57142857142858
36801,Lee County,AL,NA,82.19895287958116,NA
36863,Chambers County,AL,NA,68.58638743455498,NA
36867,Russell County,AL,NA,65.65445026178011,NA
99508,Anchorage Municipality,AK,13.216957605985039,NA,NA
99517,Anchorage Municipality,AK,97.38154613466334,NA,NA
99669,Kenai Peninsula Borough,AK,75.56109725685786,NA,NA
99801,Juneau City and Borough,AK,NA,69.21465968586388,NA
85006,Maricopa County,AZ,30.54862842892768,NA,NA
85008,Maricopa County,AZ,46.38403990024938,NA,NA
85014,Maricopa County,AZ,NA,NA,85.71428571428571
85015,Maricopa County,AZ,NA,58.010471204188484,NA
85016,Maricopa County,AZ,69.70074812967582,76.64921465968587,NA
85019,Maricopa County,AZ,NA,NA,68
85021,Maricopa County,AZ,NA,75.70680628272251,NA
85029,Maricopa County,AZ,17.08229426433915,NA,NA
85037,Maricopa County,AZ,44.13965087281795,NA,NA
85040,Maricopa County,AZ,14.089775561097257,NA,NA
85041,Maricopa County,AZ,NA,40.6282722513089,NA
85051,Maricopa County,AZ,58.35411471321695,NA,NA
85085,Maricopa County,AZ,NA,NA,83.28571428571429
85119,Pinal County,AZ,NA,27.53926701570681,NA
85122,Pinal County,AZ,NA,7.643979057591623,NA
85142,Maricopa County,AZ,NA,71.72774869109948,NA
85208,Maricopa County,AZ,NA,72.14659685863874,NA
85210,Maricopa County,AZ,NA,36.753926701570684,NA
85212,Maricopa County,AZ,NA,82.30366492146597,NA
85213,Maricopa County,AZ,46.13466334164589,NA,NA
85255,Maricopa County,AZ,NA,NA,74.28571428571429
85257,Maricopa County,AZ,51.74563591022444,NA,NA
85266,Maricopa County,AZ,NA,NA,79
85298,Maricopa County,AZ,NA,NA,81.28571428571428
85326,Maricopa County,AZ,NA,26.17801047120419,NA
85331,Maricopa County,AZ,41.5211970074813,NA,NA
85344,La Paz County,AZ,NA,48.48167539267016,NA
85349,Yuma County,AZ,NA,NA,79.28571428571428
85350,Yuma County,AZ,62.46882793017456,NA,NA
85353,Maricopa County,AZ,23.815461346633416,NA,NA
85364,Yuma County,AZ,1.8703241895261846,NA,84.28571428571429
85365,Yuma County,AZ,NA,36.439790575916234,NA
85382,Maricopa County,AZ,60.97256857855362,NA,NA
85544,Gila County,AZ,NA,NA,91.14285714285715
85614,Pima County,AZ,NA,NA,17.57142857142857
85615,Cochise County,AZ,80.17456359102243,NA,NA
85622,Pima County,AZ,NA,NA,38.857142857142854
85653,Pima County,AZ,26.683291770573565,NA,NA
85701,Pima County,AZ,NA,78.1151832460733,NA
85705,Pima County,AZ,38.403990024937656,NA,24.857142857142858
85710,Pima County,AZ,NA,48.90052356020942,NA
85713,Pima County,AZ,NA,NA,13.714285714285715
85737,Pima County,AZ,NA,NA,29.142857142857142
85747,Pima County,AZ,NA,NA,48.714285714285715
85901,Navajo County,AZ,NA,56.858638743455494,NA
86004,Coconino County,AZ,5.236907730673317,NA,NA
86033,Navajo County,AZ,NA,65.86387434554973,NA
86045,Coconino County,AZ,NA,NA,60
86301,Yavapai County,AZ,51.246882793017456,NA,NA
86314,Yavapai County,AZ,49.50124688279301,NA,8.571428571428571
86327,Yavapai County,AZ,NA,NA,94.28571428571428
86403,Mohave County,AZ,33.54114713216958,NA,NA
86429,Mohave County,AZ,NA,39.47643979057592,50.28571428571429
86442,Mohave County,AZ,NA,25.340314136125652,NA
71667,Lincoln County,AR,69.45137157107231,NA,NA
72019,Saline County,AR,NA,NA,54.85714285714286
72023,Lonoke County,AR,NA,15.916230366492146,NA
72032,Faulkner County,AR,55.23690773067331,NA,NA
72076,Pulaski County,AR,79.42643391521197,NA,NA
72081,White County,AR,NA,74.3455497382199,NA
72103,Saline County,AR,NA,83.45549738219896,NA
72150,Grant County,AR,NA,NA,67.85714285714286
72173,Faulkner County,AR,NA,98.1151832460733,NA
72335,St. Francis County,AR,NA,90.78534031413612,NA
72370,Mississippi County,AR,99.62593516209476,NA,NA
72450,Greene County,AR,NA,64.3979057591623,NA
72454,Clay County,AR,NA,89.73821989528797,NA
72455,Randolph County,AR,66.08478802992519,NA,NA
72501,Independence County,AR,90.77306733167082,NA,NA
72576,Fulton County,AR,76.68329177057358,NA,NA
72650,Searcy County,AR,NA,98.42931937172776,NA
72701,Washington County,AR,88.2793017456359,NA,96.28571428571429
72703,Washington County,AR,NA,NA,97.71428571428571
72712,Benton County,AR,NA,NA,56.85714285714286
72734,Benton County,AR,NA,92.98429319371728,NA
72744,Washington County,AR,NA,NA,86.57142857142858
72756,Benton County,AR,44.88778054862843,89.94764397905759,NA
72761,Benton County,AR,NA,79.3717277486911,NA
72762,Washington County,AR,NA,63.35078534031413,NA
72764,Washington County,AR,27.057356608478806,NA,50
72904,Sebastian County,AR,45.261845386533665,NA,NA
72921,Crawford County,AR,NA,NA,76.57142857142857
72941,Sebastian County,AR,NA,94.45026178010471,NA
72956,Crawford County,AR,37.65586034912718,43.66492146596859,69.57142857142857
90001,Los Angeles County,CA,NA,46.07329842931937,NA
90011,Los Angeles County,CA,18.453865336658353,NA,NA
90019,Los Angeles County,CA,68.5785536159601,NA,NA
90042,Los Angeles County,CA,NA,77.80104712041886,NA
90062,Los Angeles County,CA,NA,75.39267015706807,NA
90063,Los Angeles County,CA,73.06733167082294,NA,NA
90220,Los Angeles County,CA,NA,36.02094240837697,NA
90230,Los Angeles County,CA,NA,98.95287958115183,NA
90262,Los Angeles County,CA,24.688279301745634,NA,NA
90270,Los Angeles County,CA,NA,NA,61.57142857142858
90280,Los Angeles County,CA,NA,NA,55.14285714285714
90603,Los Angeles County,CA,NA,87.22513089005236,NA
90620,Orange County,CA,NA,49.52879581151832,NA
90630,Orange County,CA,71.3216957605985,11.727748691099476,NA
90640,Los Angeles County,CA,51.49625935162094,17.382198952879584,NA
90660,Los Angeles County,CA,NA,NA,14.857142857142858
90706,Los Angeles County,CA,NA,NA,48.857142857142854
90805,Los Angeles County,CA,NA,NA,36.285714285714285
90807,Los Angeles County,CA,38.5286783042394,NA,NA
91001,Los Angeles County,CA,43.14214463840399,NA,NA
91042,Los Angeles County,CA,NA,NA,77.57142857142857
91206,Los Angeles County,CA,NA,92.25130890052357,NA
91303,Los Angeles County,CA,NA,62.931937172774866,NA
91311,Los Angeles County,CA,NA,NA,41.85714285714286
91335,Los Angeles County,CA,NA,NA,8.428571428571429
91342,Los Angeles County,CA,NA,NA,26.71428571428571
91344,Los Angeles County,CA,NA,NA,69.85714285714286
91345,Los Angeles County,CA,NA,NA,57.99999999999999
91351,Los Angeles County,CA,NA,74.45026178010471,90
91352,Los Angeles County,CA,NA,67.32984293193718,NA
91360,Ventura County,CA,70.07481296758104,NA,NA
91401,Los Angeles County,CA,NA,19.05759162303665,NA
91605,Los Angeles County,CA,35.03740648379052,NA,NA
91702,Los Angeles County,CA,NA,26.701570680628272,NA
91706,Los Angeles County,CA,NA,79.79057591623037,NA
91711,Los Angeles County,CA,NA,59.58115183246073,NA
91732,Los Angeles County,CA,NA,17.69633507853403,NA
91766,Los Angeles County,CA,NA,55.497382198952884,NA
91776,Los Angeles County,CA,NA,NA,37.714285714285715
91791,Los Angeles County,CA,NA,31.204188481675395,NA
91910,San Diego County,CA,NA,17.801047120418847,NA
91911,San Diego County,CA,NA,NA,6.2857142857142865
91932,San Diego County,CA,NA,86.17801047120419,87.57142857142857
92009,San Diego County,CA,NA,26.07329842931937,NA
92014,San Diego County,CA,NA,60.31413612565445,NA
92019,San Diego County,CA,NA,92.04188481675392,NA
92028,San Diego County,CA,NA,31.727748691099478,NA
92057,San Diego County,CA,NA,62.82722513089005,24.571428571428573
92103,San Diego County,CA,NA,30.680628272251308,NA
92114,San Diego County,CA,NA,56.33507853403141,NA
92118,San Diego County,CA,NA,NA,53.57142857142857
92127,San Diego County,CA,NA,84.50261780104712,NA
92139,San Diego County,CA,NA,NA,35.714285714285715
92225,Riverside County,CA,NA,NA,76
92227,Imperial County,CA,NA,38.324607329842934,NA
92231,Imperial County,CA,NA,45.86387434554974,NA
92260,Riverside County,CA,NA,NA,9.285714285714286
92262,Riverside County,CA,NA,6.492146596858639,NA
92264,Riverside County,CA,NA,7.015706806282722,NA
92311,San Bernardino County,CA,NA,33.82198952879581,NA
92336,San Bernardino County,CA,60.59850374064838,NA,NA
92344,San Bernardino County,CA,NA,77.17277486910994,NA
92374,San Bernardino County,CA,NA,NA,32.714285714285715
92399,San Bernardino County,CA,NA,NA,17.57142857142857
92503,Riverside County,CA,NA,38.7434554973822,NA
92504,Riverside County,CA,30.423940149625935,NA,NA
92505,Riverside County,CA,NA,32.35602094240838,NA
92506,Riverside County,CA,NA,NA,36.714285714285715
92530,Riverside County,CA,24.93765586034913,NA,NA
92545,Riverside County,CA,56.85785536159601,NA,NA
92548,Riverside County,CA,NA,93.40314136125654,NA
92563,Riverside County,CA,24.064837905236907,NA,NA
92591,Riverside County,CA,35.785536159601,37.382198952879584,NA
92592,Riverside County,CA,NA,66.38743455497382,NA
92595,Riverside County,CA,29.301745635910226,NA,NA
92596,Riverside County,CA,57.48129675810474,86.49214659685865,NA
92630,Orange County,CA,NA,66.59685863874346,NA
92647,Orange County,CA,NA,37.27748691099477,NA
92649,Orange County,CA,41.77057356608479,NA,NA
92692,Orange County,CA,NA,NA,7.7142857142857135
92704,Orange County,CA,23.940149625935163,NA,NA
92801,Orange County,CA,NA,20.104712041884817,NA
92840,Orange County,CA,38.279301745635905,62.72251308900524,NA
92870,Orange County,CA,26.55860349127182,NA,NA
92880,Riverside County,CA,NA,NA,70.85714285714285
92882,Riverside County,CA,22.069825436408976,NA,NA
92886,Orange County,CA,NA,66.28272251308901,NA
93003,Ventura County,CA,NA,11.30890052356021,61.285714285714285
93010,Ventura County,CA,NA,NA,56.42857142857143
93013,Santa Barbara County,CA,NA,98.21989528795811,NA
93101,Santa Barbara County,CA,NA,NA,94.71428571428572
93117,Santa Barbara County,CA,NA,NA,92.71428571428572
93257,Tulare County,CA,10.473815461346634,NA,96.14285714285714
93277,Tulare County,CA,NA,9.842931937172775,NA
93309,Kern County,CA,48.37905236907731,NA,NA
93420,San Luis Obispo County,CA,NA,76.2303664921466,NA
93463,Santa Barbara County,CA,NA,95.28795811518324,NA
93534,Los Angeles County,CA,NA,23.350785340314136,NA
93535,Los Angeles County,CA,7.98004987531172,NA,NA
93536,Los Angeles County,CA,NA,78.42931937172774,NA
93550,Los Angeles County,CA,NA,28.48167539267016,NA
93611,Fresno County,CA,NA,21.36125654450262,NA
93612,Fresno County,CA,77.3067331670823,NA,NA
93657,Fresno County,CA,42.643391521197,NA,NA
93901,Monterey County,CA,39.65087281795511,50.47120418848168,35.42857142857142
93950,Monterey County,CA,NA,69.84293193717276,NA
93955,Monterey County,CA,NA,20.31413612565445,NA
94025,San Mateo County,CA,NA,NA,18
94043,Santa Clara County,CA,NA,NA,36
94044,San Mateo County,CA,NA,15.706806282722512,NA
94061,San Mateo County,CA,NA,NA,98.14285714285714
94102,San Francisco County,CA,NA,20.628272251308903,NA
94109,San Francisco County,CA,NA,NA,2.857142857142857
94110,San Francisco County,CA,NA,4.502617801047121,NA
94115,San Francisco County,CA,NA,22.5130890052356,NA
94118,San Francisco County,CA,NA,NA,13.428571428571429
94306,Santa Clara County,CA,NA,NA,37.42857142857143
94521,Contra Costa County,CA,NA,NA,43
94538,Alameda County,CA,NA,27.225130890052355,NA
94546,Alameda County,CA,NA,NA,14.142857142857142
94559,Napa County,CA,NA,NA,33.42857142857143
94565,Contra Costa County,CA,NA,4.18848167539267,15.571428571428573
94589,Solano County,CA,NA,NA,29.428571428571427
94602,Alameda County,CA,NA,39.89528795811518,NA
94608,Alameda County,CA,NA,NA,42.142857142857146
94709,Alameda County,CA,91.39650872817955,NA,NA
94928,Sonoma County,CA,NA,NA,30
95008,Santa Clara County,CA,NA,31.518324607329845,NA
95020,Santa Clara County,CA,NA,18.7434554973822,NA
95023,San Benito County,CA,NA,NA,91.42857142857143
95046,Santa Clara County,CA,NA,99.16230366492147,NA
95051,Santa Clara County,CA,NA,33.089005235602095,NA
95070,Santa Clara County,CA,NA,NA,38.57142857142858
95076,Santa Cruz County,CA,13.96508728179551,NA,NA
95209,San Joaquin County,CA,34.66334164588529,NA,NA
95354,Stanislaus County,CA,NA,38.21989528795812,NA
95380,Stanislaus County,CA,NA,61.047120418848166,NA
95383,Tuolumne County,CA,93.89027431421447,NA,NA
95448,Sonoma County,CA,NA,28.37696335078534,NA
95531,Del Norte County,CA,NA,NA,23.285714285714285
95608,Sacramento County,CA,28.802992518703242,10.99476439790576,NA
95632,Sacramento County,CA,68.70324189526184,25.759162303664922,NA
95648,Placer County,CA,NA,13.507853403141363,NA
95665,Amador County,CA,NA,74.86910994764398,NA
95678,Placer County,CA,NA,19.790575916230367,NA
95688,Solano County,CA,NA,NA,77.85714285714286
95695,Yolo County,CA,NA,34.973821989528794,NA
95821,Sacramento County,CA,NA,NA,26.857142857142858
95926,Butte County,CA,NA,65.13089005235602,NA
95969,Butte County,CA,NA,NA,2.7142857142857144
96001,Shasta County,CA,64.83790523690773,NA,87.14285714285714
96002,Shasta County,CA,NA,NA,28.285714285714285
96003,Shasta County,CA,NA,NA,86.14285714285714
96007,Shasta County,CA,71.82044887780549,NA,NA
96021,Tehama County,CA,NA,62.19895287958115,NA
96080,Tehama County,CA,81.6708229426434,NA,56.14285714285714
80011,Arapahoe County,CO,6.483790523690773,NA,NA
80014,Arapahoe County,CO,NA,14.554973821989527,NA
80033,Jefferson County,CO,NA,NA,71
80113,Arapahoe County,CO,NA,94.76439790575915,46.285714285714285
80128,Jefferson County,CO,NA,NA,85
80205,Denver County,CO,NA,20.209424083769633,NA
80207,Denver County,CO,30.92269326683292,NA,NA
80211,Denver County,CO,NA,29.84293193717277,NA
80218,Denver County,CO,NA,NA,71.71428571428572
80232,Jefferson County,CO,NA,NA,88.14285714285714
80301,Boulder County,CO,NA,NA,96
80516,Weld County,CO,NA,42.19895287958116,NA
80525,Larimer County,CO,NA,NA,53.142857142857146
80537,Larimer County,CO,NA,47.64397905759162,NA
80538,Larimer County,CO,NA,NA,18.285714285714285
80751,Logan County,CO,84.4139650872818,NA,NA
80905,El Paso County,CO,NA,55.497382198952884,NA
81001,Pueblo County,CO,15.087281795511224,26.49214659685864,NA
81006,Pueblo County,CO,NA,72.35602094240838,NA
81137,San Juan County,CO,NA,78.95287958115183,NA
81506,Mesa County,CO,NA,NA,90.57142857142857
06010,Hartford County,CT,NA,24.60732984293194,2.142857142857143
06053,Hartford County,CT,NA,NA,30.28571428571429
06226,Windham County,CT,12.593516209476311,NA,NA
06237,Tolland County,CT,NA,91.62303664921467,NA
06413,Middlesex County,CT,84.16458852867831,NA,NA
06443,New Haven County,CT,NA,NA,80.85714285714286
06451,New Haven County,CT,NA,50.890052356020945,NA
06457,Middlesex County,CT,6.608478802992519,NA,NA
06461,New Haven County,CT,NA,82.51308900523561,NA
06468,Fairfield County,CT,NA,NA,58.14285714285714
06473,New Haven County,CT,NA,45.44502617801047,NA
06484,Fairfield County,CT,NA,16.963350785340314,NA
06511,New Haven County,CT,49.00249376558604,NA,NA
06512,New Haven County,CT,16.58354114713217,NA,NA
06519,New Haven County,CT,NA,NA,68.57142857142857
06606,Fairfield County,CT,13.092269326683292,NA,NA
06702,New Haven County,CT,NA,75.91623036649214,NA
06705,New Haven County,CT,NA,16.649214659685864,NA
06706,New Haven County,CT,NA,67.22513089005236,NA
06708,New Haven County,CT,NA,20.732984293193716,26.42857142857143
06716,New Haven County,CT,NA,NA,62.28571428571429
06770,New Haven County,CT,NA,13.717277486910994,NA
06790,Litchfield County,CT,19.326683291770575,NA,NA
06810,Fairfield County,CT,NA,NA,17.857142857142858
06820,Fairfield County,CT,NA,NA,80.14285714285714
06854,Fairfield County,CT,NA,73.08900523560209,NA
06877,Fairfield County,CT,NA,NA,22.714285714285715
06896,Fairfield County,CT,NA,NA,79.57142857142857
06901,Fairfield County,CT,NA,NA,95
06902,Fairfield County,CT,NA,42.617801047120416,72.71428571428571
19702,New Castle County,DE,NA,NA,37.857142857142854
19707,New Castle County,DE,NA,45.13089005235602,NA
19711,New Castle County,DE,NA,6.387434554973822,NA
19720,New Castle County,DE,NA,26.806282722513092,4.857142857142857
19802,New Castle County,DE,NA,NA,72.14285714285714
19808,New Castle County,DE,NA,NA,4.571428571428571
19810,New Castle County,DE,NA,NA,97.57142857142857
19945,Sussex County,DE,NA,NA,68.71428571428572
19956,Sussex County,DE,NA,29.63350785340314,NA
19958,Sussex County,DE,50.62344139650873,NA,NA
19966,Sussex County,DE,NA,NA,75.14285714285714
19973,Sussex County,DE,34.1645885286783,NA,10.571428571428571
19977,Kent County,DE,89.27680798004988,NA,NA
32034,Nassau County,FL,NA,5.2356020942408374,NA
32043,Clay County,FL,NA,53.089005235602095,NA
32063,Baker County,FL,73.19201995012469,NA,NA
32065,Clay County,FL,NA,NA,56.57142857142857
32068,Clay County,FL,NA,5.7591623036649215,NA
32084,St. Johns County,FL,22.443890274314214,NA,NA
32086,St. Johns County,FL,NA,9.947643979057592,NA
32091,Bradford County,FL,NA,NA,47.57142857142857
32137,Flagler County,FL,NA,NA,67.28571428571428
32162,Sumter County,FL,NA,1.4659685863874345,1
32174,Volusia County,FL,87.65586034912718,NA,NA
32177,Putnam County,FL,NA,39.47643979057592,NA
32204,Duval County,FL,85.286783042394,NA,NA
32205,Duval County,FL,NA,47.225130890052355,NA
32208,Duval County,FL,16.084788029925186,3.769633507853403,NA
32209,Duval County,FL,15.336658354114713,NA,NA
32217,Duval County,FL,74.68827930174564,28.586387434554972,NA
32221,Duval County,FL,NA,21.151832460732983,NA
32225,Duval County,FL,21.695760598503743,NA,NA
32244,Duval County,FL,3.7406483790523692,NA,NA
32250,Duval County,FL,NA,NA,62.42857142857143
32340,Madison County,FL,NA,NA,67
32405,Bay County,FL,19.950124688279303,NA,NA
32444,Bay County,FL,NA,81.57068062827226,NA
32462,Washington County,FL,NA,NA,76.85714285714286
32466,Bay County,FL,71.94513715710723,NA,NA
32507,Escambia County,FL,NA,97.80104712041884,NA
32514,Escambia County,FL,NA,8.06282722513089,NA
32533,Escambia County,FL,NA,NA,21.428571428571427
32534,Escambia County,FL,NA,83.35078534031413,NA
32536,Okaloosa County,FL,45.38653366583541,NA,NA
32547,Okaloosa County,FL,NA,NA,38.42857142857143
32578,Okaloosa County,FL,NA,10.890052356020941,NA
32605,Alachua County,FL,NA,81.36125654450261,NA
32668,Levy County,FL,NA,NA,70.14285714285714
32701,Seminole County,FL,NA,84.81675392670157,NA
32708,Seminole County,FL,NA,NA,45.57142857142858
32712,Orange County,FL,79.67581047381546,NA,NA
32724,Volusia County,FL,NA,40,14.857142857142858
32746,Seminole County,FL,NA,94.34554973821989,NA
32751,Orange County,FL,NA,NA,91.85714285714286
32757,Lake County,FL,NA,NA,78.85714285714286
32771,Seminole County,FL,95.01246882793018,NA,NA
32773,Seminole County,FL,36.15960099750624,NA,NA
32810,Orange County,FL,NA,95.6020942408377,NA
32812,Orange County,FL,NA,NA,16.142857142857142
32818,Orange County,FL,84.53865336658353,NA,NA
32824,Orange County,FL,NA,46.282722513089006,27.57142857142857
32835,Orange County,FL,NA,34.031413612565444,NA
32903,Brevard County,FL,NA,NA,79.57142857142857
32937,Brevard County,FL,NA,NA,80.28571428571428
32940,Brevard County,FL,NA,14.24083769633508,NA
32950,Brevard County,FL,NA,97.69633507853403,NA
32958,Indian River County,FL,NA,NA,4
32966,Indian River County,FL,96.88279301745636,NA,11.142857142857142
32976,Brevard County,FL,NA,85.54973821989529,39.714285714285715
33010,Miami-Dade County,FL,70.94763092269328,NA,NA
33014,Miami-Dade County,FL,NA,NA,81.57142857142857
33015,Miami-Dade County,FL,84.28927680798004,NA,NA
33035,Miami-Dade County,FL,97.50623441396509,NA,NA
33125,Miami-Dade County,FL,32.54364089775561,NA,NA
33130,Miami-Dade County,FL,NA,42.93193717277487,NA
33134,Miami-Dade County,FL,NA,72.04188481675394,NA
33136,Miami-Dade County,FL,37.65586034912718,NA,NA
33140,Miami-Dade County,FL,NA,NA,42
33143,Miami-Dade County,FL,NA,45.340314136125656,NA
33146,Miami-Dade County,FL,NA,NA,99.57142857142857
33155,Miami-Dade County,FL,NA,18.534031413612563,NA
33169,Miami-Dade County,FL,NA,57.06806282722513,NA
33174,Miami-Dade County,FL,NA,NA,36.142857142857146
33176,Miami-Dade County,FL,NA,NA,61
33185,Miami-Dade County,FL,NA,NA,51.57142857142857
33308,Broward County,FL,NA,NA,2.4285714285714284
33311,Broward County,FL,36.907730673316706,NA,19.28571428571429
33325,Broward County,FL,57.107231920199496,NA,57.714285714285715
33404,Palm Beach County,FL,NA,NA,67.14285714285714
33406,Palm Beach County,FL,61.471321695760594,NA,NA
33409,Palm Beach County,FL,49.62593516209476,NA,NA
33413,Palm Beach County,FL,NA,98.7434554973822,NA
33435,Palm Beach County,FL,34.413965087281795,NA,NA
33458,Palm Beach County,FL,NA,40.20942408376963,NA
33460,Palm Beach County,FL,NA,64.18848167539267,95.42857142857143
33525,Pasco County,FL,54.239401496259354,NA,NA
33594,Hillsborough County,FL,NA,NA,92.14285714285714
33614,Hillsborough County,FL,NA,94.86910994764398,NA
33619,Hillsborough County,FL,NA,23.664921465968586,NA
33647,Hillsborough County,FL,NA,83.1413612565445,NA
33703,Pinellas County,FL,99.87531172069825,NA,NA
33705,Pinellas County,FL,NA,NA,30.714285714285715
33707,Pinellas County,FL,NA,NA,65.42857142857143
33712,Pinellas County,FL,NA,NA,66.28571428571428
33714,Pinellas County,FL,NA,47.32984293193717,NA
33771,Pinellas County,FL,NA,19.790575916230367,NA
33774,Pinellas County,FL,NA,47.43455497382199,NA
33852,Highlands County,FL,NA,NA,4.285714285714286
33872,Highlands County,FL,53.241895261845386,91.09947643979058,NA
33876,Highlands County,FL,NA,96.75392670157068,NA
33880,Polk County,FL,17.70573566084788,NA,NA
33884,Polk County,FL,NA,NA,19.714285714285715
33903,Lee County,FL,NA,18.010471204188484,NA
33908,Lee County,FL,NA,3.664921465968586,NA
33914,Lee County,FL,NA,NA,55.42857142857143
33919,Lee County,FL,NA,8.272251308900524,2.571428571428571
33928,Lee County,FL,NA,NA,13
33948,Charlotte County,FL,NA,NA,35.85714285714286
33952,Charlotte County,FL,44.01496259351621,NA,NA
34119,Collier County,FL,NA,71.93717277486911,NA
34120,Collier County,FL,NA,NA,92.85714285714286
34135,Lee County,FL,NA,NA,59.42857142857143
34205,Manatee County,FL,NA,28.79581151832461,NA
34222,Manatee County,FL,NA,53.717277486910994,NA
34223,Sarasota County,FL,NA,NA,21.857142857142858
34240,Sarasota County,FL,NA,67.74869109947645,NA
34242,Sarasota County,FL,NA,NA,35.285714285714285
34292,Sarasota County,FL,NA,NA,9
34293,Sarasota County,FL,NA,NA,14.285714285714285
34428,Citrus County,FL,NA,NA,85.85714285714286
34429,Citrus County,FL,80.42394014962593,NA,NA
34436,Citrus County,FL,NA,NA,73.42857142857143
34450,Citrus County,FL,NA,54.24083769633508,NA
34465,Citrus County,FL,NA,43.455497382198956,47.85714285714286
34471,Marion County,FL,NA,NA,31.857142857142858
34474,Marion County,FL,NA,87.64397905759162,NA
34601,Hernando County,FL,NA,NA,57.42857142857143
34606,Hernando County,FL,57.605985037406484,NA,NA
34653,Pasco County,FL,NA,NA,33.285714285714285
34655,Pasco County,FL,NA,70.89005235602095,NA
34668,Pasco County,FL,NA,38.1151832460733,NA
34683,Pinellas County,FL,NA,NA,31.285714285714285
34741,Osceola County,FL,17.581047381546135,NA,NA
34787,Orange County,FL,44.2643391521197,NA,NA
34788,Lake County,FL,50.87281795511222,NA,NA
34953,St. Lucie County,FL,NA,86.07329842931937,NA
34982,St. Lucie County,FL,NA,50.15706806282723,NA
34997,Martin County,FL,NA,NA,3.428571428571429
30014,Newton County,GA,NA,18.219895287958117,NA
30016,Newton County,GA,NA,11.204188481675391,NA
30019,Gwinnett County,GA,NA,73.61256544502618,NA
30032,DeKalb County,GA,NA,NA,14.428571428571429
30039,Gwinnett County,GA,NA,NA,82.85714285714286
30043,Gwinnett County,GA,NA,NA,31
30046,Gwinnett County,GA,NA,34.345549738219894,NA
30047,Gwinnett County,GA,NA,14.45026178010471,NA
30064,Cobb County,GA,NA,NA,19.57142857142857
30067,Cobb County,GA,NA,45.75916230366492,NA
30082,Cobb County,GA,58.728179551122196,NA,NA
30083,DeKalb County,GA,81.29675810473816,NA,NA
30092,Gwinnett County,GA,NA,NA,69.71428571428572
30101,Cobb County,GA,NA,14.764397905759164,NA
30102,Cherokee County,GA,NA,17.905759162303664,NA
30113,Haralson County,GA,NA,59.89528795811518,NA
30114,Cherokee County,GA,NA,16.020942408376964,NA
30117,Carroll County,GA,NA,NA,21
30157,Paulding County,GA,NA,14.345549738219896,NA
30180,Carroll County,GA,42.269326683291766,NA,NA
30189,Cherokee County,GA,39.52618453865336,NA,NA
30223,Spalding County,GA,26.80798004987531,22.094240837696336,94.14285714285714
30240,Troup County,GA,NA,85.23560209424083,NA
30241,Troup County,GA,20.57356608478803,NA,NA
30248,Henry County,GA,NA,87.5392670157068,NA
30263,Coweta County,GA,73.44139650872819,NA,NA
30265,Coweta County,GA,86.9077306733167,NA,42.857142857142854
30286,Upson County,GA,NA,33.29842931937173,97.42857142857143
30312,Fulton County,GA,45.137157107231914,NA,NA
30331,Fulton County,GA,71.69576059850374,NA,NA
30349,Fulton County,GA,NA,89.31937172774869,NA
30458,Bulloch County,GA,NA,NA,37.285714285714285
30512,Union County,GA,76.93266832917706,NA,NA
30540,Gilmer County,GA,61.720698254364095,NA,NA
30577,Stephens County,GA,99.75062344139651,NA,NA
30606,Clarke County,GA,NA,15.18324607329843,NA
30646,Madison County,GA,96.38403990024938,NA,NA
30705,Murray County,GA,82.7930174563591,NA,NA
30904,Richmond County,GA,77.68079800498752,NA,NA
31021,Laurens County,GA,28.553615960099748,NA,NA
31027,Laurens County,GA,90.89775561097257,NA,NA
31069,Houston County,GA,56.10972568578554,NA,NA
31206,Bibb County,GA,NA,32.67015706806283,NA
31210,Bibb County,GA,78.30423940149626,NA,NA
31322,Chatham County,GA,NA,51.62303664921466,NA
31401,Chatham County,GA,71.19700748129677,NA,NA
31406,Chatham County,GA,NA,91.30890052356021,98.71428571428571
31503,Ware County,GA,80.79800498753117,NA,NA
31513,Appling County,GA,NA,88.79581151832461,NA
31520,Glynn County,GA,63.21695760598504,NA,NA
31602,Lowndes County,GA,NA,27.12041884816754,NA
31714,Turner County,GA,59.97506234413965,NA,NA
31793,Tift County,GA,NA,65.0261780104712,NA
31903,Muscogee County,GA,24.3142144638404,NA,NA
31907,Muscogee County,GA,7.231920199501247,27.329842931937172,NA
96701,Honolulu County,HI,NA,33.50785340314136,NA
96706,Honolulu County,HI,43.89027431421446,NA,NA
96720,Hawaii County,HI,NA,NA,22
96740,Hawaii County,HI,69.07730673316709,NA,NA
96741,Kauai County,HI,77.43142144638404,NA,NA
96743,Hawaii County,HI,NA,47.539267015706805,NA
96797,Honolulu County,HI,49.251870324189525,NA,NA
96817,Honolulu County,HI,9.600997506234414,NA,NA
96825,Honolulu County,HI,NA,75.49738219895288,NA
83201,Bannock County,ID,NA,23.769633507853403,NA
83301,Twin Falls County,ID,NA,NA,0.14285714285714285
83401,Bonneville County,ID,47.880299251870326,NA,NA
83501,Nez Perce County,ID,70.19950124688279,6.701570680628273,NA
83605,Canyon County,ID,NA,NA,54.142857142857146
83617,Gem County,ID,75.06234413965088,NA,NA
83634,Ada County,ID,29.177057356608476,NA,NA
83651,Canyon County,ID,51.3715710723192,NA,10
83672,Washington County,ID,79.80049875311721,NA,NA
83687,Canyon County,ID,15.96009975062344,NA,NA
83702,Ada County,ID,NA,37.06806282722513,NA
83704,Ada County,ID,12.967581047381547,NA,NA
83706,Ada County,ID,NA,NA,11.857142857142858
83709,Ada County,ID,NA,3.0366492146596857,NA
83815,Kootenai County,ID,26.059850374064837,NA,NA
83854,Kootenai County,ID,23.690773067331673,NA,NA
60014,McHenry County,IL,NA,NA,83.71428571428572
60016,Cook County,IL,NA,NA,41.42857142857143
60030,Lake County,IL,NA,12.670157068062826,NA
60041,Lake County,IL,NA,NA,99.85714285714286
60042,McHenry County,IL,81.54613466334165,NA,NA
60046,Lake County,IL,NA,13.612565445026178,NA
60062,Cook County,IL,NA,NA,0.4285714285714286
60068,Cook County,IL,29.052369077306732,NA,NA
60093,Cook County,IL,NA,NA,45.14285714285714
60099,Lake County,IL,NA,25.13089005235602,NA
60101,DuPage County,IL,NA,38.7434554973822,NA
60102,McHenry County,IL,NA,79.16230366492147,NA
60108,DuPage County,IL,83.79052369077307,NA,NA
60123,Kane County,IL,NA,80.20942408376963,NA
60152,McHenry County,IL,NA,NA,44.857142857142854
60155,Cook County,IL,NA,66.80628272251309,NA
60160,Cook County,IL,NA,47.95811518324607,NA
60169,Cook County,IL,35.28678304239401,NA,NA
60173,Cook County,IL,NA,90.89005235602095,NA
60177,Kane County,IL,NA,NA,64.57142857142857
60185,DuPage County,IL,NA,66.49214659685863,NA
60193,Cook County,IL,27.93017456359102,41.361256544502616,NA
60194,Cook County,IL,NA,38.42931937172775,NA
60419,Cook County,IL,NA,76.96335078534031,NA
60429,Cook County,IL,54.239401496259354,NA,NA
60435,Will County,IL,NA,6.178010471204189,NA
60436,Will County,IL,43.391521197007485,NA,NA
60441,Will County,IL,75.18703241895261,NA,26
60443,Cook County,IL,33.790523690773064,23.24607329842932,NA
60445,Cook County,IL,NA,32.98429319371728,NA
60458,Cook County,IL,NA,44.60732984293194,NA
60462,Cook County,IL,NA,3.3507853403141366,NA
60467,Cook County,IL,NA,42.09424083769633,34.714285714285715
60525,Cook County,IL,NA,29.42408376963351,NA
60527,DuPage County,IL,NA,51.93717277486911,NA
60532,DuPage County,IL,NA,80.41884816753927,NA
60542,Kane County,IL,NA,40.10471204188482,NA
60545,Kendall County,IL,NA,57.59162303664922,NA
60546,Cook County,IL,NA,NA,28.999999999999996
60608,Cook County,IL,9.102244389027431,NA,NA
60609,Cook County,IL,8.603491271820449,NA,NA
60610,Cook County,IL,31.047381546134662,NA,NA
60614,Cook County,IL,NA,9.005235602094242,NA
60619,Cook County,IL,20.32418952618454,NA,9.714285714285714
60621,Cook County,IL,NA,45.968586387434556,NA
60626,Cook County,IL,NA,61.78010471204188,NA
60628,Cook County,IL,NA,29.109947643979055,NA
60629,Cook County,IL,4.86284289276808,NA,NA
60637,Cook County,IL,48.6284289276808,NA,NA
60638,Cook County,IL,NA,4.293193717277487,NA
60643,Cook County,IL,58.47880299251871,NA,24.285714285714285
60651,Cook County,IL,NA,23.141361256544503,NA
60707,Cook County,IL,NA,NA,27.42857142857143
60942,Vermilion County,IL,76.05985037406484,NA,NA
61072,Winnebago County,IL,NA,46.17801047120419,NA
61109,Winnebago County,IL,NA,55.91623036649215,NA
61201,Rock Island County,IL,NA,17.591623036649214,NA
61254,Henry County,IL,NA,NA,45.285714285714285
61265,Rock Island County,IL,NA,NA,10.142857142857142
61282,Rock Island County,IL,75.81047381546135,NA,NA
61455,McDonough County,IL,NA,NA,23.57142857142857
61520,Fulton County,IL,NA,92.46073298429319,NA
61604,Peoria County,IL,NA,NA,11
61701,McLean County,IL,23.316708229426432,77.69633507853403,NA
61704,McLean County,IL,NA,NA,41
61705,McLean County,IL,NA,54.03141361256545,NA
61727,De Witt County,IL,NA,94.13612565445027,NA
61761,McLean County,IL,NA,NA,71.57142857142857
61820,Champaign County,IL,NA,NA,55.85714285714286
61866,Champaign County,IL,NA,NA,48.142857142857146
62040,Madison County,IL,NA,5.968586387434556,NA
62049,Montgomery County,IL,NA,NA,70.57142857142857
62206,St. Clair County,IL,NA,49.52879581151832,NA
62234,Madison County,IL,NA,NA,16.428571428571427
62301,Adams County,IL,81.4214463840399,NA,NA
62401,Effingham County,IL,NA,79.58115183246073,NA
62471,Fayette County,IL,99.12718204488779,NA,NA
62521,Macon County,IL,NA,96.12565445026178,34.14285714285714
62901,Jackson County,IL,NA,NA,45
46036,Madison County,IN,NA,92.77486910994764,NA
46041,Clinton County,IN,50.62344139650873,34.659685863874344,NA
46062,Hamilton County,IN,NA,33.19371727748691,30.571428571428573
46131,Johnson County,IN,NA,NA,76.42857142857142
46135,Putnam County,IN,NA,NA,25.71428571428571
46142,Johnson County,IN,31.421446384039903,NA,NA
46143,Johnson County,IN,NA,9.319371727748692,NA
46173,Rush County,IN,43.01745635910225,NA,NA
46204,Marion County,IN,30.29925187032419,NA,NA
46218,Marion County,IN,NA,36.64921465968586,NA
46219,Marion County,IN,64.33915211970074,NA,NA
46226,Marion County,IN,NA,31.308900523560208,NA
46229,Marion County,IN,NA,NA,26.285714285714285
46234,Marion County,IN,NA,NA,25.285714285714285
46237,Marion County,IN,NA,NA,10.428571428571429
46260,Marion County,IN,NA,NA,80.57142857142857
46268,Marion County,IN,NA,28.272251308900525,NA
46304,Porter County,IN,NA,9.63350785340314,NA
46312,Lake County,IN,NA,24.083769633507853,NA
46319,Lake County,IN,NA,81.8848167539267,NA
46321,Lake County,IN,25.187032418952622,NA,NA
46323,Lake County,IN,NA,87.43455497382199,NA
46368,Porter County,IN,NA,53.403141361256544,NA
46375,Lake County,IN,NA,58.42931937172775,NA
46407,Lake County,IN,94.13965087281795,73.40314136125654,NA
46410,Lake County,IN,NA,15.078534031413612,NA
46517,Elkhart County,IN,NA,47.748691099476446,NA
46540,Elkhart County,IN,99.50124688279301,NA,NA
46545,St. Joseph County,IN,NA,46.80628272251309,NA
46561,St. Joseph County,IN,NA,70.47120418848168,NA
46563,Marshall County,IN,90.27431421446383,12.56544502617801,NA
46614,St. Joseph County,IN,NA,NA,27
46637,St. Joseph County,IN,96.25935162094763,NA,NA
46808,Allen County,IN,NA,41.46596858638743,NA
46809,Allen County,IN,NA,NA,47
46816,Allen County,IN,NA,31.099476439790575,NA
46902,Howard County,IN,46.633416458852864,NA,40.285714285714285
46952,Grant County,IN,13.466334164588527,72.25130890052355,NA
46975,Fulton County,IN,NA,55.811518324607334,NA
46992,Wabash County,IN,NA,25.445026178010473,NA
46996,Pulaski County,IN,79.05236907730672,NA,NA
47001,Dearborn County,IN,83.16708229426433,NA,NA
47006,Ripley County,IN,98.87780548628429,65.34031413612566,NA
47112,Harrison County,IN,89.77556109725685,NA,NA
47130,Clark County,IN,NA,82.09424083769633,NA
47150,Floyd County,IN,NA,88.37696335078535,NA
47201,Bartholomew County,IN,63.34164588528678,NA,NA
47203,Bartholomew County,IN,NA,37.696335078534034,NA
47371,Jay County,IN,NA,NA,61.42857142857143
47374,Wayne County,IN,2.493765586034913,NA,NA
47446,Lawrence County,IN,NA,49.00523560209424,NA
47454,Orange County,IN,69.32668329177058,NA,NA
47546,Dubois County,IN,80.92269326683291,93.50785340314135,19.714285714285715
47586,Perry County,IN,98.3790523690773,NA,NA
47601,Warrick County,IN,NA,52.25130890052356,NA
47620,Posey County,IN,NA,NA,93.28571428571428
47630,Warrick County,IN,NA,82.61780104712042,NA
47802,Vigo County,IN,NA,64.71204188481676,NA
47803,Vigo County,IN,NA,NA,25
47906,Tippecanoe County,IN,NA,15.811518324607329,NA
50316,Polk County,IA,29.925187032418954,NA,NA
50317,Polk County,IA,NA,30.89005235602094,NA
50401,Cerro Gordo County,IA,NA,NA,30.428571428571427
50436,Winnebago County,IA,NA,65.34031413612566,NA
50441,Franklin County,IA,NA,90.57591623036649,NA
50501,Webster County,IA,43.64089775561097,NA,18.285714285714285
50595,Hamilton County,IA,NA,NA,71.85714285714285
50613,Black Hawk County,IA,NA,44.397905759162306,NA
50703,Black Hawk County,IA,78.428927680798,NA,NA
51031,Plymouth County,IA,99.00249376558602,NA,NA
51104,Woodbury County,IA,NA,58.84816753926702,NA
51106,Woodbury County,IA,NA,NA,65.85714285714286
51301,Clay County,IA,39.15211970074813,NA,NA
51501,Pottawattamie County,IA,NA,42.303664921465966,NA
52003,Dubuque County,IA,NA,NA,75.28571428571429
52101,Winneshiek County,IA,NA,NA,20.57142857142857
52246,Johnson County,IA,NA,77.90575916230367,NA
52302,Linn County,IA,NA,76.43979057591623,NA
52403,Linn County,IA,NA,NA,64.28571428571429
52405,Linn County,IA,NA,NA,28.285714285714285
52501,Wapello County,IA,32.04488778054863,67.95811518324606,NA
52537,Davis County,IA,NA,75.60209424083769,NA
52544,Appanoose County,IA,NA,NA,33.14285714285714
52641,Henry County,IA,NA,83.56020942408377,NA
52761,Muscatine County,IA,NA,27.853403141361255,NA
52803,Scott County,IA,25.561097256857856,NA,87.85714285714286
52804,Scott County,IA,NA,21.98952879581152,NA
52806,Scott County,IA,14.962593516209477,NA,NA
66047,Douglas County,KS,NA,89.84293193717278,NA
66061,Johnson County,KS,NA,86.38743455497382,NA
66104,Wyandotte County,KS,NA,NA,40.57142857142857
66106,Wyandotte County,KS,99.37655860349128,NA,NA
66202,Johnson County,KS,NA,NA,93
66762,Crawford County,KS,NA,32.35602094240838,NA
67005,Cowley County,KS,74.81296758104739,NA,NA
67203,Sedgwick County,KS,83.91521197007481,NA,NA
67219,Sedgwick County,KS,NA,NA,81.85714285714286
67301,Montgomery County,KS,NA,NA,84.85714285714285
67357,Labette County,KS,NA,84.39790575916231,NA
67601,Ellis County,KS,NA,34.76439790575917,5.714285714285714
67801,Ford County,KS,NA,NA,58.285714285714285
67846,Finney County,KS,NA,12.25130890052356,NA
40071,Spencer County,KY,41.39650872817955,NA,NA
40175,Hardin County,KY,NA,NA,90.14285714285715
40203,Jefferson County,KY,NA,95.39267015706805,NA
40214,Jefferson County,KY,5.7356608478802995,NA,NA
40218,Jefferson County,KY,NA,NA,75.57142857142857
40219,Jefferson County,KY,10.099750623441397,NA,NA
40220,Jefferson County,KY,27.18204488778055,NA,NA
40299,Jefferson County,KY,81.79551122194513,NA,NA
40342,Anderson County,KY,24.81296758104738,NA,NA
40351,Rowan County,KY,NA,NA,19.142857142857142
40353,Montgomery County,KY,55.48628428927681,NA,NA
40383,Woodford County,KY,NA,97.27748691099475,NA
40419,Lincoln County,KY,67.95511221945138,NA,NA
40444,Garrard County,KY,NA,33.403141361256544,NA
40503,Fayette County,KY,NA,NA,20.857142857142858
40769,Whitley County,KY,NA,NA,87.85714285714286
40965,Bell County,KY,44.63840399002494,NA,NA
41004,Bracken County,KY,NA,NA,100
41011,Kenton County,KY,32.16957605985037,NA,NA
41015,Kenton County,KY,68.3291770573566,NA,NA
41035,Grant County,KY,NA,NA,89.57142857142857
41040,Pendleton County,KY,NA,94.65968586387434,NA
41056,Mason County,KY,31.17206982543641,NA,NA
41071,Campbell County,KY,85.41147132169577,NA,NA
41076,Campbell County,KY,NA,31.83246073298429,41.714285714285715
41101,Boyd County,KY,NA,NA,39.85714285714286
41143,Carter County,KY,75.93516209476309,NA,NA
41164,Carter County,KY,NA,NA,34.57142857142857
41175,Greenup County,KY,80.54862842892769,NA,NA
41224,Martin County,KY,62.84289276807981,NA,NA
41230,Lawrence County,KY,NA,67.01570680628272,NA
41339,Breathitt County,KY,NA,50.78534031413613,NA
41858,Letcher County,KY,43.266832917705734,NA,NA
42001,McCracken County,KY,NA,11.62303664921466,26.571428571428573
42041,Fulton County,KY,NA,63.03664921465969,NA
42064,Crittenden County,KY,89.9002493765586,NA,NA
42066,Graves County,KY,16.458852867830423,NA,NA
42071,Calloway County,KY,68.82793017456359,NA,NA
42141,Barren County,KY,87.28179551122194,NA,NA
42240,Christian County,KY,NA,NA,16.28571428571429
42303,Daviess County,KY,8.229426433915211,NA,NA
42330,Muhlenberg County,KY,NA,NA,78.71428571428571
42633,Wayne County,KY,NA,48.69109947643979,NA
42718,Taylor County,KY,NA,NA,28.57142857142857
42728,Adair County,KY,39.40149625935162,NA,NA
70001,Jefferson Parish,LA,78.17955112219451,NA,NA
70003,Jefferson Parish,LA,39.02743142144639,NA,NA
70053,Jefferson Parish,LA,43.51620947630923,NA,NA
70056,Jefferson Parish,LA,2.8678304239401498,NA,NA
70058,Jefferson Parish,LA,NA,67.5392670157068,NA
70062,Jefferson Parish,LA,NA,58.53403141361257,NA
70065,Jefferson Parish,LA,28.179551122194514,1.780104712041885,NA
70115,Orleans Parish,LA,NA,NA,27.714285714285715
70118,Orleans Parish,LA,NA,51.30890052356021,NA
70119,Orleans Parish,LA,16.957605985037407,20.418848167539267,NA
70125,Orleans Parish,LA,NA,49.84293193717277,NA
70126,Orleans Parish,LA,4.987531172069826,NA,12.714285714285714
70433,St. Tammany Parish,LA,NA,22.198952879581153,NA
70438,Washington Parish,LA,NA,NA,91
70443,Tangipahoa Parish,LA,NA,NA,42.57142857142857
70461,St. Tammany Parish,LA,NA,NA,29.28571428571429
70501,Lafayette Parish,LA,1.1221945137157108,NA,NA
70510,Vermilion Parish,LA,NA,23.036649214659686,NA
70515,Evangeline Parish,LA,NA,89.63350785340313,NA
70526,Acadia Parish,LA,NA,44.92146596858639,NA
70538,St. Mary Parish,LA,NA,NA,40.42857142857143
70546,Jefferson Davis Parish,LA,NA,63.560209424083766,63.42857142857142
70560,Iberia Parish,LA,68.95261845386533,NA,NA
70601,Calcasieu Parish,LA,9.72568578553616,NA,NA
70633,Calcasieu Parish,LA,NA,68.69109947643979,NA
70647,Calcasieu Parish,LA,33.042394014962596,NA,85.28571428571429
70665,Calcasieu Parish,LA,NA,NA,83.85714285714285
70726,Livingston Parish,LA,NA,4.607329842931937,NA
70769,Ascension Parish,LA,NA,NA,46.714285714285715
70806,East Baton Rouge Parish,LA,10.598503740648379,NA,NA
70816,East Baton Rouge Parish,LA,NA,NA,24.428571428571427
71055,Webster Parish,LA,NA,NA,63
71105,Caddo Parish,LA,NA,76.02094240837697,NA
71107,Caddo Parish,LA,NA,10.785340314136125,NA
71109,Caddo Parish,LA,NA,41.25654450261781,NA
71118,Caddo Parish,LA,NA,41.047120418848166,NA
71202,Ouachita Parish,LA,NA,15.602094240837697,NA
71360,Rapides Parish,LA,NA,56.2303664921466,NA
71483,Winn Parish,LA,28.30423940149626,NA,NA
04062,Cumberland County,ME,42.14463840399002,NA,NA
04073,York County,ME,71.44638403990025,NA,NA
04090,York County,ME,NA,NA,12
04105,Cumberland County,ME,NA,NA,85.57142857142857
04239,Franklin County,ME,NA,NA,55.714285714285715
04330,Kennebec County,ME,4.364089775561098,NA,NA
04401,Penobscot County,ME,NA,0.6282722513089005,38.714285714285715
04462,Penobscot County,ME,98.75311720698254,NA,NA
04605,Hancock County,ME,NA,NA,13.142857142857142
04742,Aroostook County,ME,86.28428927680798,45.23560209424084,NA
04938,Franklin County,ME,NA,89.42408376963351,NA
20601,Charles County,MD,72.44389027431421,NA,NA
20602,Charles County,MD,NA,80,NA
20646,Charles County,MD,NA,60,NA
20708,Prince George's County,MD,NA,51.09947643979058,NA
20711,Anne Arundel County,MD,NA,95.70680628272251,NA
20723,Howard County,MD,NA,75.07853403141361,NA
20774,Prince George's County,MD,NA,NA,58.57142857142858
20850,Montgomery County,MD,NA,NA,82.28571428571428
20910,Montgomery County,MD,NA,56.75392670157068,NA
20912,Montgomery County,MD,NA,95.18324607329843,NA
21012,Anne Arundel County,MD,NA,NA,74.85714285714286
21053,Baltimore County,MD,NA,96.8586387434555,NA
21060,Anne Arundel County,MD,NA,NA,87.71428571428571
21122,Anne Arundel County,MD,63.591022443890274,NA,NA
21204,Baltimore County,MD,NA,NA,81.42857142857143
21205,Baltimore city,MD,90.64837905236908,52.46073298429319,NA
21207,Baltimore County,MD,15.835411471321695,NA,NA
21220,Baltimore County,MD,NA,NA,21.714285714285715
21222,Baltimore County,MD,42.394014962593516,NA,NA
21229,Baltimore city,MD,NA,11.413612565445026,NA
21236,Baltimore County,MD,NA,64.81675392670158,NA
21629,Caroline County,MD,NA,87.12041884816753,NA
21804,Wicomico County,MD,60.723192019950126,NA,NA
21901,Cecil County,MD,51.87032418952619,49.31937172774869,NA
01001,Hampden County,MA,19.825436408977556,NA,NA
01027,Hampshire County,MA,NA,24.921465968586386,NA
01085,Hampden County,MA,NA,94.9738219895288,NA
01089,Hampden County,MA,2.369077306733167,NA,NA
01108,Hampden County,MA,0.7481296758104738,NA,NA
01119,Hampden County,MA,34.538653366583546,NA,NA
01201,Berkshire County,MA,NA,74.55497382198953,63.57142857142857
01247,Berkshire County,MA,NA,83.97905759162305,NA
01453,Worcester County,MA,NA,0.10471204188481677,NA
01550,Worcester County,MA,7.107231920199501,NA,1.2857142857142856
01570,Worcester County,MA,28.802992518703242,NA,NA
01588,Worcester County,MA,NA,51.518324607329845,NA
01603,Worcester County,MA,29.800498753117203,1.5706806282722512,NA
01606,Worcester County,MA,NA,8.691099476439792,NA
01701,Middlesex County,MA,NA,NA,5.857142857142858
01702,Middlesex County,MA,NA,NA,3.571428571428571
01742,Middlesex County,MA,NA,NA,86.85714285714286
01747,Worcester County,MA,NA,65.34031413612566,NA
01748,Middlesex County,MA,NA,99.05759162303664,NA
01749,Middlesex County,MA,NA,85.34031413612566,NA
01752,Middlesex County,MA,NA,7.74869109947644,NA
01801,Middlesex County,MA,NA,65.75916230366492,NA
01824,Middlesex County,MA,NA,NA,42.42857142857142
01826,Middlesex County,MA,NA,25.968586387434556,NA
01830,Essex County,MA,8.85286783042394,NA,NA
01832,Essex County,MA,NA,25.23560209424084,NA
01833,Essex County,MA,NA,96.54450261780104,NA
01843,Essex County,MA,NA,NA,23.142857142857142
01844,Essex County,MA,NA,NA,3.1428571428571432
01852,Middlesex County,MA,NA,39.79057591623037,NA
01879,Middlesex County,MA,21.07231920199501,NA,NA
01887,Middlesex County,MA,NA,78.21989528795812,NA
01902,Essex County,MA,25.06234413965087,NA,NA
01906,Essex County,MA,NA,4.9214659685863875,NA
01930,Essex County,MA,NA,80.83769633507853,NA
02045,Plymouth County,MA,24.189526184538654,35.287958115183244,NA
02050,Plymouth County,MA,NA,NA,20.714285714285715
02116,Suffolk County,MA,NA,2.1989528795811517,NA
02119,Suffolk County,MA,3.865336658354115,71.09947643979058,NA
02121,Suffolk County,MA,NA,0,NA
02122,Suffolk County,MA,70.69825436408978,NA,NA
02124,Suffolk County,MA,NA,NA,0.5714285714285714
02129,Suffolk County,MA,NA,NA,29.85714285714286
02130,Suffolk County,MA,38.65336658354115,0.9424083769633508,NA
02135,Suffolk County,MA,NA,NA,41.285714285714285
02136,Suffolk County,MA,0.997506234413965,3.1413612565445024,NA
02141,Middlesex County,MA,NA,79.47643979057591,NA
02143,Middlesex County,MA,NA,52.04188481675393,NA
02148,Middlesex County,MA,NA,NA,49.42857142857143
02151,Suffolk County,MA,NA,NA,0.2857142857142857
02184,Norfolk County,MA,NA,89.52879581151832,NA
02189,Norfolk County,MA,96.50872817955111,NA,NA
02190,Norfolk County,MA,NA,NA,40
02302,Plymouth County,MA,NA,NA,19
02346,Plymouth County,MA,78.80299251870323,82.72251308900523,NA
02351,Plymouth County,MA,12.468827930174564,NA,NA
02359,Plymouth County,MA,22.31920199501247,NA,NA
02360,Plymouth County,MA,NA,25.54973821989529,NA
02370,Plymouth County,MA,NA,NA,40.14285714285714
02382,Plymouth County,MA,89.02743142144638,NA,NA
02476,Middlesex County,MA,26.932668329177055,NA,55.285714285714285
02532,Barnstable County,MA,NA,33.50785340314136,NA
02537,Barnstable County,MA,NA,64.08376963350786,NA
02571,Plymouth County,MA,NA,23.350785340314136,NA
02649,Barnstable County,MA,53.61596009975062,NA,NA
02703,Bristol County,MA,0.3740648379052369,NA,85.42857142857143
02720,Bristol County,MA,NA,0.20942408376963353,NA
02745,Bristol County,MA,NA,87.85340314136126,NA
02760,Bristol County,MA,NA,NA,93.57142857142857
02769,Bristol County,MA,59.85037406483791,NA,NA
02780,Bristol County,MA,NA,70.05235602094241,NA
48035,Macomb County,MI,88.15461346633417,NA,NA
48066,Macomb County,MI,NA,50.05235602094241,5.428571428571429
48072,Oakland County,MI,96.00997506234414,NA,39
48075,Oakland County,MI,23.19201995012469,NA,NA
48081,Macomb County,MI,27.431421446384043,NA,NA
48088,Macomb County,MI,NA,12.984293193717278,12.571428571428573
48089,Macomb County,MI,82.29426433915212,NA,NA
48094,Macomb County,MI,91.2718204488778,NA,NA
48125,Wayne County,MI,16.33416458852868,NA,NA
48130,Washtenaw County,MI,NA,NA,82.71428571428572
48152,Wayne County,MI,NA,88.90052356020942,NA
48170,Wayne County,MI,NA,NA,1.7142857142857144
48180,Wayne County,MI,1.2468827930174564,NA,NA
48182,Monroe County,MI,NA,74.24083769633508,NA
48183,Wayne County,MI,24.56359102244389,NA,NA
48185,Wayne County,MI,NA,NA,5.142857142857142
48204,Wayne County,MI,8.478802992518704,NA,NA
48206,Wayne County,MI,NA,73.50785340314137,NA
48214,Wayne County,MI,14.33915211970075,NA,NA
48217,Wayne County,MI,NA,58.324607329842934,NA
48228,Wayne County,MI,8.977556109725686,NA,NA
48235,Wayne County,MI,11.72069825436409,NA,8.714285714285715
48237,Oakland County,MI,NA,67.43455497382199,NA
48238,Wayne County,MI,3.2418952618453867,NA,NA
48304,Oakland County,MI,NA,NA,66.85714285714286
48307,Oakland County,MI,13.341645885286782,NA,NA
48310,Macomb County,MI,95.38653366583542,NA,NA
48323,Oakland County,MI,NA,NA,83.14285714285714
48328,Oakland County,MI,NA,58.21989528795811,24.142857142857142
48329,Oakland County,MI,NA,NA,45.714285714285715
48336,Oakland County,MI,NA,24.81675392670157,NA
48342,Oakland County,MI,11.471321695760599,NA,NA
48356,Oakland County,MI,NA,61.98952879581152,NA
48375,Oakland County,MI,94.0149625935162,NA,NA
48390,Oakland County,MI,NA,21.675392670157066,NA
48433,Genesee County,MI,NA,93.61256544502618,NA
48442,Oakland County,MI,NA,69.52879581151834,NA
48463,Genesee County,MI,NA,NA,99.14285714285714
48473,Genesee County,MI,NA,23.979057591623036,NA
48601,Saginaw County,MI,NA,2.408376963350785,NA
48622,Clare County,MI,57.107231920199496,NA,NA
48624,Gladwin County,MI,54.613466334164585,NA,NA
48632,Clare County,MI,66.9576059850374,NA,NA
48640,Midland County,MI,41.895261845386536,NA,NA
48723,Tuscola County,MI,NA,12.879581151832461,NA
48739,Iosco County,MI,70.44887780548629,NA,NA
48823,Ingham County,MI,50.49875311720699,NA,NA
48858,Isabella County,MI,NA,NA,7.285714285714286
48864,Ingham County,MI,NA,NA,65.57142857142857
48867,Shiawassee County,MI,6.109725685785536,NA,NA
48912,Ingham County,MI,73.56608478802993,NA,NA
49014,Calhoun County,MI,37.905236907730675,NA,NA
49017,Calhoun County,MI,NA,55.183246073298434,NA
49022,Berrien County,MI,NA,27.643979057591622,NA
49037,Calhoun County,MI,32.917705735660846,59.68586387434554,56.57142857142857
49112,Cass County,MI,NA,97.06806282722513,NA
49202,Jackson County,MI,64.46384039900249,NA,NA
49221,Lenawee County,MI,NA,57.27748691099477,NA
49329,Montcalm County,MI,NA,43.66492146596859,NA
49401,Ottawa County,MI,NA,NA,71.14285714285714
49417,Ottawa County,MI,NA,NA,33.85714285714286
49418,Kent County,MI,NA,NA,66.14285714285715
49420,Oceana County,MI,NA,61.46596858638743,NA
49426,Ottawa County,MI,NA,NA,14.000000000000002
49505,Kent County,MI,56.733167082294266,NA,NA
49507,Kent County,MI,3.366583541147132,12.356020942408378,29.57142857142857
49509,Kent County,MI,NA,32.774869109947645,NA
49512,Kent County,MI,NA,94.55497382198953,NA
49635,Benzie County,MI,NA,NA,58.71428571428572
49659,Antrim County,MI,61.34663341645885,NA,NA
49707,Alpena County,MI,22.942643391521198,NA,33.57142857142857
49721,Cheboygan County,MI,NA,NA,53.28571428571428
49765,Presque Isle County,MI,95.76059850374065,NA,NA
49849,Marquette County,MI,NA,33.92670157068063,NA
49858,Menominee County,MI,NA,NA,88.71428571428571
49913,Houghton County,MI,NA,78.7434554973822,28.142857142857142
55041,Wabasha County,MN,70.82294264339151,NA,NA
55066,Goodhue County,MN,NA,NA,7.857142857142857
55103,Ramsey County,MN,NA,70.57591623036649,NA
55106,Ramsey County,MN,5.486284289276807,NA,NA
55116,Ramsey County,MN,51.12219451371571,NA,NA
55128,Washington County,MN,NA,NA,60.285714285714285
55313,Wright County,MN,41.271820448877804,NA,NA
55318,Carver County,MN,NA,43.1413612565445,NA
55336,McLeod County,MN,NA,NA,70
55364,Hennepin County,MN,NA,NA,77.42857142857143
55404,Hennepin County,MN,NA,2.094240837696335,NA
55409,Hennepin County,MN,56.85785536159601,NA,NA
55411,Hennepin County,MN,NA,85.02617801047121,NA
55420,Hennepin County,MN,NA,NA,86.42857142857143
55426,Hennepin County,MN,20.82294264339152,NA,NA
55429,Hennepin County,MN,NA,24.397905759162303,NA
55431,Hennepin County,MN,78.92768079800499,NA,NA
55432,Anoka County,MN,NA,54.45026178010471,NA
55434,Anoka County,MN,NA,NA,58.857142857142854
55744,Itasca County,MN,NA,NA,3.7142857142857144
55792,St. Louis County,MN,NA,17.172774869109947,80.71428571428572
55803,St. Louis County,MN,NA,18.952879581151834,NA
55805,St. Louis County,MN,NA,46.910994764397905,NA
55810,St. Louis County,MN,NA,77.06806282722512,NA
55901,Olmsted County,MN,59.22693266832918,41.78010471204188,NA
55912,Mower County,MN,5.860349127182045,NA,NA
55920,Olmsted County,MN,NA,99.89528795811519,NA
55976,Olmsted County,MN,NA,NA,96.85714285714285
56303,Stearns County,MN,NA,83.66492146596859,NA
56308,Douglas County,MN,20.074812967581046,NA,NA
56352,Stearns County,MN,NA,NA,56.00000000000001
56401,Crow Wing County,MN,NA,3.2460732984293195,NA
56537,Otter Tail County,MN,NA,5.445026178010471,NA
56701,Pennington County,MN,NA,NA,22.142857142857142
38614,Coahoma County,MS,NA,NA,52.85714285714286
38655,Lafayette County,MS,NA,69.4240837696335,NA
38701,Washington County,MS,93.39152119700748,NA,88.42857142857142
39046,Madison County,MS,20.448877805486283,NA,NA
39069,Jefferson County,MS,87.90523690773068,NA,74.57142857142857
39090,Attala County,MS,NA,43.560209424083766,NA
39095,Holmes County,MS,92.8927680798005,NA,NA
39117,Scott County,MS,NA,53.92670157068062,49.28571428571429
39157,Madison County,MS,85.91022443890274,NA,NA
39168,Smith County,MS,NA,NA,59.57142857142858
39204,Hinds County,MS,NA,63.87434554973822,NA
39208,Rankin County,MS,NA,NA,17.285714285714285
39213,Hinds County,MS,25.43640897755611,NA,NA
39301,Lauderdale County,MS,37.53117206982544,NA,NA
39350,Neshoba County,MS,NA,17.06806282722513,51.42857142857142
39367,Wayne County,MS,NA,96.64921465968587,NA
39402,Lamar County,MS,NA,NA,62.57142857142857
39426,Pearl River County,MS,NA,73.29842931937172,NA
39429,Marion County,MS,49.750623441396506,NA,NA
39437,Jones County,MS,NA,86.91099476439791,NA
39440,Jones County,MS,88.5286783042394,NA,NA
39455,Lamar County,MS,NA,NA,85.14285714285714
39501,Harrison County,MS,NA,9.528795811518325,NA
39530,Harrison County,MS,NA,NA,97.14285714285714
39532,Harrison County,MS,92.01995012468828,NA,NA
39540,Harrison County,MS,NA,93.82198952879581,NA
39601,Lincoln County,MS,NA,67.12041884816755,NA
39702,Lowndes County,MS,NA,84.18848167539267,NA
39730,Monroe County,MS,NA,NA,43.28571428571429
63010,Jefferson County,MO,79.55112219451371,NA,NA
63020,Jefferson County,MO,84.78802992518703,NA,NA
63028,Jefferson County,MO,NA,88.58638743455496,NA
63044,St. Louis County,MO,NA,NA,37
63050,Jefferson County,MO,NA,80.31413612565444,NA
63080,Franklin County,MO,84.91271820448878,NA,34.42857142857143
63088,St. Louis County,MO,81.17206982543641,NA,NA
63113,St. Louis city,MO,48.25436408977556,NA,NA
63114,St. Louis County,MO,NA,NA,53.85714285714286
63116,St. Louis city,MO,NA,35.07853403141361,NA
63119,St. Louis County,MO,49.750623441396506,NA,6.142857142857143
63121,St. Louis County,MO,NA,NA,32.285714285714285
63125,St. Louis County,MO,NA,NA,9.571428571428571
63129,St. Louis County,MO,NA,NA,7.428571428571429
63136,St. Louis County,MO,47.13216957605985,NA,NA
63301,St. Charles County,MO,NA,2.513089005235602,NA
63368,St. Charles County,MO,NA,38.010471204188484,NA
63376,St. Charles County,MO,NA,1.256544502617801,NA
63379,Lincoln County,MO,NA,16.335078534031414,NA
63456,Monroe County,MO,100,NA,NA
63628,St. Francois County,MO,70.57356608478803,NA,NA
63664,Washington County,MO,77.43142144638404,NA,NA
63703,Cape Girardeau County,MO,86.0349127182045,NA,NA
63755,Cape Girardeau County,MO,NA,NA,64.42857142857143
63857,Dunklin County,MO,31.92019950124688,NA,NA
63901,Butler County,MO,85.66084788029926,NA,NA
64030,Jackson County,MO,NA,NA,75
64055,Jackson County,MO,22.81795511221945,NA,NA
64062,Ray County,MO,NA,98.01047120418848,NA
64064,Jackson County,MO,NA,28.691099476439792,NA
64068,Clay County,MO,7.73067331670823,NA,NA
64075,Jackson County,MO,NA,68.48167539267016,NA
64076,Lafayette County,MO,NA,84.60732984293193,NA
64078,Cass County,MO,NA,NA,93.71428571428572
64080,Cass County,MO,46.758104738154614,NA,NA
64081,Jackson County,MO,33.416458852867834,NA,NA
64082,Jackson County,MO,NA,52.774869109947645,NA
64083,Cass County,MO,NA,23.874345549738223,NA
64086,Jackson County,MO,NA,24.50261780104712,NA
64114,Jackson County,MO,NA,25.026178010471206,NA
64118,Clay County,MO,NA,3.9790575916230364,NA
64132,Jackson County,MO,11.845386533665836,NA,NA
64138,Jackson County,MO,88.7780548628429,85.96858638743456,NA
64151,Platte County,MO,NA,49.21465968586388,NA
64485,Andrew County,MO,NA,40.83769633507853,NA
64601,Livingston County,MO,72.06982543640898,NA,NA
64683,Grundy County,MO,93.26683291770573,NA,NA
64836,Jasper County,MO,NA,NA,10.857142857142858
64850,Newton County,MO,12.219451371571072,NA,NA
65037,Morgan County,MO,NA,97.59162303664921,NA
65203,Boone County,MO,NA,NA,3.8571428571428568
65251,Callaway County,MO,46.88279301745636,NA,NA
65270,Randolph County,MO,21.3216957605985,NA,NA
65536,Laclede County,MO,28.6783042394015,NA,17.42857142857143
65559,Phelps County,MO,NA,NA,74
65560,Dent County,MO,42.768079800498754,NA,NA
65613,Polk County,MO,NA,76.75392670157069,72.42857142857143
65616,Taney County,MO,53.11720698254364,NA,NA
65625,Barry County,MO,NA,60.31413612565445,NA
65656,Stone County,MO,NA,85.44502617801048,NA
65689,Texas County,MO,79.30174563591022,NA,NA
65775,Howell County,MO,NA,60.10471204188481,NA
65802,Greene County,MO,NA,35.497382198952884,NA
65803,Greene County,MO,NA,NA,12.857142857142856
59044,Yellowstone County,MT,NA,NA,75.85714285714286
59101,Yellowstone County,MT,27.556109725685786,NA,NA
59802,Missoula County,MT,NA,80.6282722513089,97
59804,Missoula County,MT,NA,NA,79
59901,Flathead County,MT,NA,1.9895287958115182,NA
59923,Lincoln County,MT,NA,34.45026178010471,NA
68025,Dodge County,NE,96.88279301745636,NA,NA
68106,Douglas County,NE,NA,54.55497382198953,NA
68111,Douglas County,NE,NA,NA,84.42857142857143
68434,Seward County,NE,NA,NA,55.00000000000001
68505,Lancaster County,NE,NA,NA,60.57142857142858
68521,Lancaster County,NE,78.6783042394015,NA,NA
68776,Dakota County,NE,NA,56.02094240837696,NA
68845,Buffalo County,NE,NA,43.97905759162304,NA
69361,Scotts Bluff County,NE,NA,NA,45.857142857142854
89102,Clark County,NV,NA,NA,54.285714285714285
89104,Clark County,NV,67.2069825436409,NA,NA
89110,Clark County,NV,54.11471321695761,NA,NA
89113,Clark County,NV,96.13466334164589,NA,NA
89121,Clark County,NV,60.22443890274314,NA,NA
89122,Clark County,NV,18.952618453865338,NA,NA
89131,Clark County,NV,NA,29.214659685863875,NA
89403,Lyon County,NV,53.86533665835411,91.72774869109948,NA
89410,Douglas County,NV,NA,NA,26.142857142857146
89436,Washoe County,NV,56.60847880299252,NA,NA
89441,Washoe County,NV,NA,92.87958115183245,NA
89509,Washoe County,NV,NA,NA,48.285714285714285
89512,Washoe County,NV,NA,55.70680628272251,NA
89519,Washoe County,NV,NA,63.769633507853406,NA
89703,Carson City,NV,NA,48.27225130890052,NA
03038,Rockingham County,NH,NA,9.109947643979059,NA
03048,Hillsborough County,NH,NA,98.63874345549738,NA
03054,Hillsborough County,NH,63.71571072319202,NA,30
03062,Hillsborough County,NH,62.094763092269325,NA,NA
03079,Rockingham County,NH,NA,NA,16.857142857142858
03087,Rockingham County,NH,NA,NA,46.14285714285714
03103,Hillsborough County,NH,4.114713216957606,NA,NA
03104,Hillsborough County,NH,92.39401496259352,NA,NA
03220,Belknap County,NH,87.4064837905237,NA,NA
03276,Merrimack County,NH,NA,NA,91.28571428571428
03303,Merrimack County,NH,NA,37.4869109947644,NA
03431,Cheshire County,NH,21.820448877805486,NA,NA
07004,Essex County,NJ,NA,78.01047120418848,NA
07006,Essex County,NJ,NA,30.157068062827225,NA
07008,Middlesex County,NJ,19.07730673316708,NA,NA
07009,Essex County,NJ,81.04738154613467,NA,NA
07012,Passaic County,NJ,67.33167082294264,NA,NA
07024,Bergen County,NJ,NA,NA,46.57142857142857
07031,Bergen County,NJ,50.24937655860349,NA,NA
07039,Essex County,NJ,NA,22.30366492146597,NA
07044,Essex County,NJ,NA,64.92146596858639,NA
07047,Hudson County,NJ,NA,0.5235602094240838,NA
07052,Essex County,NJ,33.16708229426434,30.78534031413613,NA
07054,Morris County,NJ,NA,NA,92
07055,Passaic County,NJ,NA,39.05759162303665,NA
07083,Union County,NJ,12.094763092269327,NA,18.571428571428573
07093,Hudson County,NJ,NA,NA,38
07095,Middlesex County,NJ,NA,44.50261780104712,NA
07103,Essex County,NJ,0.6234413965087282,NA,NA
07105,Essex County,NJ,NA,NA,34.714285714285715
07107,Essex County,NJ,17.331670822942645,NA,NA
07111,Essex County,NJ,NA,4.81675392670157,NA
07112,Essex County,NJ,25.6857855361596,NA,NA
07203,Union County,NJ,44.38902743142145,NA,NA
07304,Hudson County,NJ,NA,14.973821989528796,NA
07424,Passaic County,NJ,NA,NA,92.28571428571428
07430,Bergen County,NJ,50,NA,NA
07461,Sussex County,NJ,93.01745635910224,NA,NA
07480,Passaic County,NJ,83.0423940149626,NA,NA
07514,Passaic County,NJ,NA,46.596858638743456,NA
07646,Bergen County,NJ,NA,99.47643979057592,NA
07701,Monmouth County,NJ,90.02493765586036,NA,NA
07727,Monmouth County,NJ,NA,86.70157068062827,NA
07728,Monmouth County,NJ,NA,NA,2.2857142857142856
07738,Monmouth County,NJ,NA,NA,93.85714285714286
07740,Monmouth County,NJ,NA,70.36649214659685,NA
07834,Morris County,NJ,94.88778054862843,NA,NA
07840,Warren County,NJ,NA,NA,63.714285714285715
07885,Morris County,NJ,NA,93.92670157068062,NA
07920,Somerset County,NJ,NA,NA,47.42857142857143
07960,Morris County,NJ,NA,NA,13.428571428571429
08009,Camden County,NJ,NA,NA,86.28571428571429
08021,Camden County,NJ,NA,NA,22.57142857142857
08029,Camden County,NJ,NA,NA,82.85714285714286
08046,Burlington County,NJ,NA,NA,81.14285714285714
08062,Gloucester County,NJ,26.433915211970078,96.2303664921466,NA
08075,Burlington County,NJ,11.097256857855362,NA,NA
08079,Salem County,NJ,88.40399002493766,NA,NA
08094,Gloucester County,NJ,60.099750623441395,NA,NA
08108,Camden County,NJ,NA,35.916230366492144,NA
08110,Camden County,NJ,NA,13.403141361256546,NA
08242,Cape May County,NJ,NA,48.795811518324605,NA
08260,Cape May County,NJ,23.067331670822945,NA,NA
08312,Gloucester County,NJ,NA,NA,82.14285714285714
08330,Atlantic County,NJ,20.947630922693268,NA,NA
08609,Mercer County,NJ,NA,84.08376963350786,NA
08610,Mercer County,NJ,22.693266832917704,NA,NA
08618,Mercer County,NJ,67.83042394014963,NA,NA
08723,Ocean County,NJ,86.40897755610972,NA,NA
08724,Ocean County,NJ,NA,NA,52.42857142857142
08753,Ocean County,NJ,66.45885286783042,2.931937172774869,NA
08757,Ocean County,NJ,NA,89.00523560209425,NA
08817,Middlesex County,NJ,NA,69.94764397905759,NA
08831,Middlesex County,NJ,NA,NA,0.8571428571428572
08872,Middlesex County,NJ,NA,NA,57.714285714285715
08902,Middlesex County,NJ,NA,51.832460732984295,NA
87108,Bernalillo County,NM,NA,73.92670157068063,NA
87111,Bernalillo County,NM,NA,NA,3.2857142857142856
87114,Bernalillo County,NM,64.214463840399,NA,NA
87123,Bernalillo County,NM,56.48379052369077,NA,NA
87124,Sandoval County,NM,NA,NA,8.285714285714285
87144,Sandoval County,NM,14.463840399002494,61.675392670157066,NA
88220,Eddy County,NM,NA,38.952879581151834,15.142857142857144
88240,Lea County,NM,4.613466334164588,NA,NA
88310,Otero County,NM,NA,2.8272251308900525,NA
88352,Otero County,NM,68.20448877805487,NA,NA
10034,New York County,NY,NA,NA,23.857142857142858
10035,New York County,NY,NA,4.397905759162303,NA
10037,New York County,NY,NA,36.12565445026178,NA
10039,New York County,NY,NA,50.994764397905755,94.57142857142857
10303,Richmond County,NY,28.428927680798004,NA,NA
10312,Richmond County,NY,57.356608478803,NA,NA
10451,Bronx County,NY,1.4962593516209477,NA,NA
10453,Bronx County,NY,NA,0.31413612565445026,NA
10456,Bronx County,NY,NA,NA,1.5714285714285716
10458,Bronx County,NY,92.76807980049875,NA,NA
10459,Bronx County,NY,NA,NA,45.42857142857143
10460,Bronx County,NY,0.8728179551122194,NA,NA
10463,Bronx County,NY,NA,NA,55.42857142857143
10468,Bronx County,NY,NA,NA,4.857142857142857
10472,Bronx County,NY,10.972568578553615,NA,NA
10473,Bronx County,NY,NA,NA,6.571428571428571
10541,Putnam County,NY,97.50623441396509,NA,NA
10591,Westchester County,NY,48.50374064837905,NA,NA
10598,Westchester County,NY,NA,NA,23.714285714285715
10603,Westchester County,NY,58.104738154613464,NA,NA
10704,Westchester County,NY,NA,74.76439790575917,NA
10707,Westchester County,NY,99.25187032418953,NA,NA
10801,Westchester County,NY,NA,18.848167539267017,NA
10927,Rockland County,NY,NA,NA,99.71428571428571
10940,Orange County,NY,NA,91.51832460732984,NA
10952,Rockland County,NY,NA,NA,78.57142857142857
10992,Orange County,NY,NA,NA,98
11050,Nassau County,NY,NA,NA,20.142857142857142
11105,Queens County,NY,NA,NA,72.71428571428571
11207,Kings County,NY,0.12468827930174563,0.41884816753926707,NA
11213,Kings County,NY,NA,NA,20
11214,Kings County,NY,NA,NA,5.285714285714286
11220,Kings County,NY,1.7456359102244388,NA,NA
11223,Kings County,NY,NA,7.539267015706806,NA
11230,Kings County,NY,NA,5.549738219895288,NA
11233,Kings County,NY,NA,43.03664921465968,NA
11234,Kings County,NY,NA,53.82198952879581,NA
11236,Kings County,NY,NA,38.638743455497384,NA
11238,Kings County,NY,83.66583541147132,NA,NA
11239,Kings County,NY,NA,50.680628272251305,NA
11249,Kings County,NY,49.37655860349127,NA,NA
11370,Queens County,NY,NA,96.02094240837697,NA
11372,Queens County,NY,NA,NA,54.42857142857142
11373,Queens County,NY,NA,NA,13.285714285714286
11412,Queens County,NY,NA,NA,29.714285714285715
11416,Queens County,NY,35.66084788029925,NA,NA
11418,Queens County,NY,32.7930174563591,NA,NA
11419,Queens County,NY,NA,80.52356020942409,NA
11420,Queens County,NY,NA,20.732984293193716,NA
11433,Queens County,NY,NA,43.87434554973822,NA
11520,Nassau County,NY,NA,NA,65.14285714285715
11550,Nassau County,NY,NA,NA,23.42857142857143
11553,Nassau County,NY,NA,95.07853403141361,NA
11691,Queens County,NY,7.605985037406484,20.523560209424083,NA
11692,Queens County,NY,61.97007481296758,49.73821989528796,NA
11706,Suffolk County,NY,15.710723192019952,NA,NA
11714,Nassau County,NY,NA,NA,95.57142857142857
11715,Suffolk County,NY,NA,98.53403141361257,NA
11743,Suffolk County,NY,NA,95.91623036649214,NA
11746,Suffolk County,NY,62.219451371571076,NA,NA
11751,Suffolk County,NY,NA,NA,62.142857142857146
11754,Suffolk County,NY,NA,85.75916230366492,NA
11784,Suffolk County,NY,NA,NA,35.57142857142857
11787,Suffolk County,NY,NA,21.256544502617803,NA
11790,Suffolk County,NY,NA,69.00523560209425,NA
11795,Suffolk County,NY,NA,NA,18.857142857142858
11801,Nassau County,NY,76.80798004987531,NA,NA
11961,Suffolk County,NY,NA,NA,71.28571428571429
12155,Otsego County,NY,NA,99.79057591623037,NA
12159,Albany County,NY,NA,NA,53.28571428571428
12180,Rensselaer County,NY,NA,NA,25.428571428571427
12204,Albany County,NY,NA,92.67015706806284,NA
12206,Albany County,NY,38.90274314214464,31.413612565445025,NA
12528,Ulster County,NY,90.14962593516209,NA,NA
12563,Putnam County,NY,NA,NA,96.71428571428572
12569,Dutchess County,NY,NA,70.99476439790577,NA
12790,Sullivan County,NY,NA,100,NA
12804,Warren County,NY,76.30922693266832,NA,NA
12885,Warren County,NY,NA,NA,75.42857142857143
12912,Clinton County,NY,98.00498753117208,NA,NA
12946,Essex County,NY,52.244389027431424,NA,NA
12972,Clinton County,NY,NA,71.51832460732984,NA
12974,Essex County,NY,98.12967581047381,NA,NA
13032,Madison County,NY,94.2643391521197,NA,NA
13045,Cortland County,NY,2.119700748129676,NA,NA
13078,Onondaga County,NY,82.66832917705736,NA,NA
13088,Onondaga County,NY,93.64089775561098,NA,NA
13090,Onondaga County,NY,12.344139650872817,NA,NA
13126,Oswego County,NY,1.99501246882793,NA,NA
13148,Seneca County,NY,18.204488778054863,NA,NA
13203,Onondaga County,NY,NA,34.24083769633508,NA
13204,Onondaga County,NY,9.351620947630924,NA,NA
13205,Onondaga County,NY,98.25436408977556,NA,NA
13208,Onondaga County,NY,NA,77.4869109947644,NA
13304,Oneida County,NY,98.6284289276808,NA,NA
13309,Oneida County,NY,NA,90.47120418848168,NA
13323,Oneida County,NY,NA,NA,69.42857142857143
13326,Otsego County,NY,NA,NA,22.285714285714285
13421,Madison County,NY,NA,NA,97.85714285714285
13440,Oneida County,NY,52.867830423940156,NA,6.714285714285714
13491,Herkimer County,NY,NA,68.79581151832461,NA
13760,Broome County,NY,6.234413965087282,NA,NA
13820,Otsego County,NY,8.104738154613466,NA,NA
13850,Broome County,NY,NA,NA,52.28571428571429
13905,Broome County,NY,NA,NA,86.71428571428571
14020,Genesee County,NY,97.13216957605985,NA,NA
14057,Erie County,NY,NA,61.15183246073298,95.14285714285714
14059,Erie County,NY,54.738154613466335,NA,NA
14075,Erie County,NY,7.4812967581047385,NA,NA
14120,Niagara County,NY,2.7431421446384037,NA,81
14202,Erie County,NY,NA,71.41361256544502,NA
14220,Erie County,NY,NA,13.821989528795811,NA
14221,Erie County,NY,NA,NA,31.571428571428573
14224,Erie County,NY,NA,77.59162303664921,NA
14226,Erie County,NY,NA,22.408376963350783,NA
14227,Erie County,NY,NA,NA,16.57142857142857
14304,Niagara County,NY,NA,58.95287958115183,NA
14305,Niagara County,NY,3.4912718204488775,NA,NA
14411,Orleans County,NY,NA,51.72774869109947,NA
14414,Livingston County,NY,NA,99.58115183246073,NA
14420,Monroe County,NY,94.63840399002493,NA,NA
14437,Livingston County,NY,57.85536159600998,NA,NA
14489,Wayne County,NY,23.44139650872818,17.486910994764397,NA
14513,Wayne County,NY,NA,2.3036649214659684,NA
14580,Monroe County,NY,5.361596009975062,NA,NA
14605,Monroe County,NY,NA,35.07853403141361,NA
14610,Monroe County,NY,22.194513715710723,NA,NA
14611,Monroe County,NY,5.610972568578553,NA,NA
14612,Monroe County,NY,NA,NA,21.285714285714285
14616,Monroe County,NY,73.94014962593516,NA,NA
14619,Monroe County,NY,NA,64.29319371727749,NA
14621,Monroe County,NY,0.24937655860349126,10.052356020942408,NA
14625,Monroe County,NY,60.349127182044896,NA,NA
14810,Steuben County,NY,NA,NA,94
14845,Chemung County,NY,NA,NA,77
14886,Tompkins County,NY,NA,44.08376963350785,NA
14895,Allegany County,NY,61.09725685785536,NA,NA
14904,Chemung County,NY,20.199501246882793,NA,NA
27030,Surry County,NC,45.885286783042396,8.586387434554974,NA
27040,Forsyth County,NC,53.49127182044888,NA,NA
27103,Forsyth County,NC,91.77057356608479,NA,NA
27104,Forsyth County,NC,95.26184538653366,NA,NA
27105,Forsyth County,NC,NA,1.6753926701570683,59.857142857142854
27203,Randolph County,NC,19.576059850374065,NA,NA
27215,Alamance County,NC,NA,NA,7.000000000000001
27239,Davidson County,NC,72.19451371571073,NA,NA
27249,Guilford County,NC,NA,43.24607329842932,NA
27265,Guilford County,NC,NA,NA,71.42857142857143
27278,Orange County,NC,15.46134663341646,NA,NA
27288,Rockingham County,NC,10.723192019950124,NA,NA
27330,Lee County,NC,NA,40.20942408376963,NA
27350,Randolph County,NC,NA,NA,62.71428571428571
27405,Guilford County,NC,8.728179551122196,NA,NA
27410,Guilford County,NC,NA,NA,4.428571428571428
27501,Harnett County,NC,NA,28.167539267015705,NA
27521,Harnett County,NC,NA,NA,98.42857142857143
27525,Franklin County,NC,66.58354114713218,NA,NA
27526,Wake County,NC,NA,52.98429319371728,NA
27527,Johnston County,NC,NA,NA,96.42857142857143
27542,Johnston County,NC,83.54114713216958,NA,NA
27549,Franklin County,NC,16.209476309226932,79.16230366492147,NA
27603,Wake County,NC,55.61097256857855,NA,NA
27606,Wake County,NC,NA,98.32460732984293,NA
27609,Wake County,NC,NA,46.49214659685864,NA
27616,Wake County,NC,39.65087281795511,NA,NA
27703,Durham County,NC,NA,59.790575916230374,NA
27704,Durham County,NC,27.680798004987533,NA,NA
27713,Durham County,NC,NA,50.36649214659686,NA
27803,Nash County,NC,NA,54.3455497382199,NA
27822,Wilson County,NC,NA,81.46596858638743,NA
27834,Pitt County,NC,36.78304239401496,NA,NA
27850,Halifax County,NC,72.31920199501248,NA,NA
27863,Wayne County,NC,NA,71.20418848167539,NA
27893,Wilson County,NC,11.596009975062344,12.460732984293193,NA
27896,Wilson County,NC,NA,53.193717277486904,NA
27909,Pasquotank County,NC,30.049875311720697,NA,NA
28012,Gaston County,NC,NA,NA,67.57142857142857
28016,Gaston County,NC,59.35162094763092,NA,NA
28025,Cabarrus County,NC,NA,45.54973821989529,NA
28027,Cabarrus County,NC,52.49376558603491,NA,NA
28031,Mecklenburg County,NC,NA,74.65968586387434,NA
28043,Rutherford County,NC,67.45635910224439,NA,NA
28079,Union County,NC,NA,88.27225130890054,NA
28081,Cabarrus County,NC,NA,30.261780104712045,NA
28090,Cleveland County,NC,51.99501246882793,NA,NA
28092,Lincoln County,NC,NA,55.287958115183244,NA
28105,Mecklenburg County,NC,NA,56.02094240837696,NA
28110,Union County,NC,65.71072319201996,NA,34.285714285714285
28115,Iredell County,NC,64.96259351620948,NA,NA
28152,Cleveland County,NC,90.3990024937656,63.560209424083766,NA
28227,Mecklenburg County,NC,NA,9.214659685863873,NA
28262,Mecklenburg County,NC,66.33416458852868,NA,NA
28269,Mecklenburg County,NC,NA,71.83246073298429,NA
28278,Mecklenburg County,NC,44.763092269326684,NA,NA
28303,Cumberland County,NC,NA,26.910994764397905,NA
28312,Cumberland County,NC,NA,28.90052356020942,NA
28328,Sampson County,NC,25.311720698254366,11.832460732984293,NA
28351,Scotland County,NC,76.43391521197007,NA,NA
28358,Robeson County,NC,87.78054862842892,NA,NA
28374,Moore County,NC,NA,NA,64.85714285714286
28376,Hoke County,NC,NA,93.29842931937172,NA
28377,Robeson County,NC,NA,NA,87
28379,Richmond County,NC,12.718204488778055,NA,NA
28383,Robeson County,NC,NA,62.40837696335079,NA
28384,Bladen County,NC,45.6359102244389,76.12565445026178,NA
28405,New Hanover County,NC,NA,44.816753926701566,NA
28465,Brunswick County,NC,NA,36.858638743455494,NA
28466,Duplin County,NC,NA,51.41361256544502,NA
28467,Brunswick County,NC,79.92518703241896,NA,NA
28546,Onslow County,NC,NA,NA,84.14285714285714
28551,Lenoir County,NC,NA,NA,61.71428571428571
28572,Duplin County,NC,NA,NA,91.71428571428571
28580,Greene County,NC,NA,NA,89.14285714285714
28601,Catawba County,NC,NA,NA,78.14285714285715
28602,Catawba County,NC,40.52369077306734,NA,46.42857142857143
28610,Catawba County,NC,65.96009975062344,NA,NA
28613,Catawba County,NC,NA,72.56544502617801,NA
28630,Caldwell County,NC,NA,NA,70.42857142857143
28638,Caldwell County,NC,74.18952618453865,NA,NA
28645,Caldwell County,NC,69.57605985037407,NA,NA
28655,Burke County,NC,32.418952618453865,2.7225130890052354,NA
28681,Alexander County,NC,78.05486284289277,NA,NA
28712,Transylvania County,NC,NA,NA,54.714285714285715
28721,Haywood County,NC,NA,81.98952879581152,NA
28787,Buncombe County,NC,50,NA,NA
28791,Henderson County,NC,NA,42.72251308900524,NA
28806,Buncombe County,NC,NA,25.863874345549736,NA
58203,Grand Forks County,ND,NA,NA,36.42857142857142
58237,Walsh County,ND,NA,93.19371727748691,NA
58501,Burleigh County,ND,NA,NA,27
58503,Burleigh County,ND,NA,42.51308900523561,NA
58701,Ward County,ND,NA,NA,46
43017,Franklin County,OH,NA,NA,51
43026,Franklin County,OH,14.588528678304238,NA,NA
43040,Union County,OH,NA,72.87958115183247,NA
43044,Champaign County,OH,NA,90.36649214659685,NA
43056,Licking County,OH,NA,93.0890052356021,NA
43062,Licking County,OH,NA,NA,57.285714285714285
43085,Franklin County,OH,80.67331670822942,NA,NA
43110,Franklin County,OH,NA,NA,48.857142857142854
43113,Pickaway County,OH,10.847880299251871,NA,NA
43204,Franklin County,OH,3.6159600997506236,NA,NA
43206,Franklin County,OH,NA,NA,43.714285714285715
43207,Franklin County,OH,19.45137157107232,NA,NA
43227,Franklin County,OH,NA,NA,25.571428571428573
43229,Franklin County,OH,5.112219451371571,NA,NA
43232,Franklin County,OH,14.713216957605985,30.471204188481675,NA
43311,Logan County,OH,82.91770573566085,NA,NA
43452,Ottawa County,OH,NA,19.476439790575917,NA
43506,Williams County,OH,NA,40.94240837696335,NA
43512,Defiance County,OH,NA,NA,10.285714285714285
43537,Lucas County,OH,21.197007481296758,NA,NA
43558,Fulton County,OH,NA,29.31937172774869,NA
43606,Lucas County,OH,NA,18.1151832460733,NA
43607,Lucas County,OH,4.488778054862843,77.38219895287958,NA
43608,Lucas County,OH,NA,26.282722513089006,NA
43612,Lucas County,OH,15.087281795511224,NA,NA
43616,Lucas County,OH,10.349127182044887,NA,NA
43812,Coshocton County,OH,NA,48.37696335078534,NA
43845,Coshocton County,OH,94.76309226932669,NA,NA
43920,Columbiana County,OH,NA,6.0732984293193715,9.428571428571429
44004,Ashtabula County,OH,58.97755610972568,NA,0.7142857142857143
44021,Geauga County,OH,NA,NA,78
44024,Geauga County,OH,NA,NA,60.14285714285714
44028,Lorain County,OH,NA,NA,36.57142857142857
44035,Lorain County,OH,1.3715710723192018,NA,0
44039,Lorain County,OH,NA,NA,3
44047,Ashtabula County,OH,NA,NA,31.571428571428573
44052,Lorain County,OH,NA,1.3612565445026177,NA
44060,Lake County,OH,NA,37.80104712041884,NA
44062,Geauga County,OH,NA,53.612565445026185,NA
44089,Erie County,OH,NA,5.654450261780105,NA
44094,Lake County,OH,13.591022443890274,14.136125654450263,NA
44095,Lake County,OH,NA,5.863874345549738,NA
44104,Cuyahoga County,OH,2.2443890274314215,NA,NA
44107,Cuyahoga County,OH,10.224438902743142,NA,NA
44108,Cuyahoga County,OH,NA,3.4554973821989527,NA
44109,Cuyahoga County,OH,0,0.7329842931937173,NA
44113,Cuyahoga County,OH,6.733167082294264,NA,NA
44116,Cuyahoga County,OH,55.11221945137157,NA,NA
44121,Cuyahoga County,OH,89.15211970074813,NA,NA
44128,Cuyahoga County,OH,NA,1.0471204188481675,87.28571428571429
44129,Cuyahoga County,OH,11.221945137157107,NA,NA
44130,Cuyahoga County,OH,2.6184538653366585,NA,NA
44133,Cuyahoga County,OH,NA,NA,8
44134,Cuyahoga County,OH,NA,9.738219895287958,NA
44135,Cuyahoga County,OH,NA,NA,15.857142857142856
44144,Cuyahoga County,OH,NA,21.780104712041883,NA
44146,Cuyahoga County,OH,20.698254364089774,0.8376963350785341,NA
44216,Summit County,OH,87.1571072319202,NA,NA
44233,Medina County,OH,NA,36.2303664921466,NA
44240,Portage County,OH,NA,NA,12.428571428571429
44256,Medina County,OH,NA,NA,32.142857142857146
44312,Summit County,OH,NA,5.340314136125655,NA
44406,Mahoning County,OH,NA,NA,14.571428571428571
44410,Trumbull County,OH,73.31670822942642,NA,32.57142857142858
44437,Trumbull County,OH,NA,83.87434554973822,NA
44460,Columbiana County,OH,NA,50.26178010471204,NA
44485,Trumbull County,OH,NA,60.31413612565445,NA
44502,Mahoning County,OH,NA,90.89005235602095,NA
44511,Mahoning County,OH,16.83291770573566,59.47643979057592,NA
44512,Mahoning County,OH,NA,NA,66.42857142857143
44515,Mahoning County,OH,8.354114713216958,NA,NA
44601,Stark County,OH,5.985037406483791,NA,7.142857142857142
44644,Carroll County,OH,NA,NA,99.42857142857143
44683,Tuscarawas County,OH,NA,NA,83.85714285714285
44720,Stark County,OH,74.3142144638404,NA,NA
44811,Sandusky County,OH,NA,60.20942408376963,NA
44820,Crawford County,OH,NA,94.03141361256544,NA
44837,Huron County,OH,84.66334164588528,NA,NA
44839,Erie County,OH,41.64588528678304,NA,NA
44857,Huron County,OH,55.86034912718204,3.87434554973822,NA
44870,Erie County,OH,NA,10.575916230366492,NA
44875,Richland County,OH,NA,99.3717277486911,NA
44904,Richland County,OH,80.0498753117207,NA,NA
45011,Butler County,OH,NA,39.16230366492147,NA
45013,Butler County,OH,83.29177057356608,70.15706806282722,NA
45014,Butler County,OH,NA,10.366492146596858,NA
45015,Butler County,OH,40.27431421446384,NA,NA
45030,Hamilton County,OH,NA,NA,52.142857142857146
45039,Warren County,OH,NA,85.86387434554975,NA
45056,Butler County,OH,89.40149625935162,NA,NA
45102,Clermont County,OH,26.184538653366584,NA,NA
45103,Clermont County,OH,NA,39.68586387434555,NA
45140,Clermont County,OH,71.07231920199501,NA,NA
45150,Clermont County,OH,NA,16.544502617801047,NA
45177,Clinton County,OH,NA,NA,83.42857142857143
45207,Hamilton County,OH,66.20947630922693,NA,NA
45212,Hamilton County,OH,NA,38.42931937172775,NA
45216,Hamilton County,OH,42.51870324189526,NA,NA
45220,Hamilton County,OH,NA,NA,44.285714285714285
45227,Hamilton County,OH,NA,54.973821989528794,NA
45229,Hamilton County,OH,92.643391521197,NA,73.14285714285714
45233,Hamilton County,OH,NA,87.95811518324608,73.85714285714286
45236,Hamilton County,OH,NA,27.958115183246075,NA
45237,Hamilton County,OH,NA,NA,32.857142857142854
45239,Hamilton County,OH,NA,47.12041884816754,NA
45245,Clermont County,OH,NA,83.7696335078534,NA
45246,Hamilton County,OH,NA,78.53403141361257,NA
45247,Hamilton County,OH,NA,66.17801047120419,NA
45248,Hamilton County,OH,NA,NA,89.28571428571429
45305,Greene County,OH,NA,NA,65.28571428571428
45331,Darke County,OH,19.201995012468828,NA,NA
45356,Miami County,OH,NA,26.596858638743452,NA
45365,Shelby County,OH,NA,NA,44.285714285714285
45371,Miami County,OH,NA,11.099476439790577,NA
45385,Greene County,OH,27.805486284289277,22.827225130890053,NA
45405,Montgomery County,OH,17.830423940149625,NA,NA
45417,Montgomery County,OH,7.356608478802992,NA,NA
45420,Montgomery County,OH,NA,73.19371727748691,NA
45426,Montgomery County,OH,NA,NA,72.57142857142857
45431,Montgomery County,OH,NA,NA,25.142857142857146
45439,Montgomery County,OH,38.02992518703242,NA,NA
45449,Montgomery County,OH,NA,29.005235602094242,NA
45503,Clark County,OH,6.234413965087282,7.43455497382199,56.99999999999999
45505,Clark County,OH,NA,NA,49.857142857142854
45601,Ross County,OH,NA,6.9109947643979055,NA
45638,Lawrence County,OH,2.9925187032418954,NA,NA
45640,Jackson County,OH,21.44638403990025,NA,NA
45656,Jackson County,OH,NA,66.9109947643979,NA
45662,Scioto County,OH,1.6209476309226933,NA,NA
45686,Gallia County,OH,67.70573566084788,NA,NA
45690,Pike County,OH,NA,32.56544502617801,NA
45693,Adams County,OH,36.408977556109726,NA,NA
45750,Washington County,OH,59.725685785536164,20,NA
45780,Athens County,OH,94.51371571072319,NA,NA
45801,Allen County,OH,9.226932668329177,NA,NA
45804,Allen County,OH,NA,NA,41.57142857142857
45813,Paulding County,OH,85.03740648379052,87.74869109947645,NA
45822,Mercer County,OH,NA,18.429319371727747,NA
45875,Putnam County,OH,NA,91.41361256544502,NA
45885,Auglaize County,OH,NA,NA,61.857142857142854
73005,Caddo County,OK,NA,NA,92.42857142857143
73018,Grady County,OK,NA,NA,70.71428571428572
73020,Oklahoma County,OK,55.7356608478803,NA,NA
73045,Oklahoma County,OK,65.21197007481297,NA,NA
73068,Cleveland County,OK,53.74064837905237,NA,NA
73069,Cleveland County,OK,NA,NA,88.85714285714286
73071,Cleveland County,OK,17.206982543640898,NA,NA
73112,Oklahoma County,OK,NA,30.99476439790576,NA
73117,Oklahoma County,OK,NA,72.98429319371728,NA
73127,Oklahoma County,OK,72.9426433915212,NA,NA
73134,Oklahoma County,OK,NA,95.81151832460732,NA
73139,Oklahoma County,OK,NA,NA,96.57142857142857
73501,Comanche County,OK,NA,30.57591623036649,NA
73533,Stephens County,OK,40.77306733167082,NA,11.428571428571429
73701,Garfield County,OK,NA,19.162303664921467,NA
74010,Creek County,OK,NA,82.93193717277487,NA
74011,Tulsa County,OK,NA,54.86910994764398,NA
74014,Wagoner County,OK,72.56857855361596,79.05759162303664,34
74017,Rogers County,OK,31.795511221945137,NA,NA
74029,Washington County,OK,NA,75.28795811518324,NA
74112,Tulsa County,OK,89.52618453865337,86.80628272251309,NA
74115,Tulsa County,OK,27.93017456359102,85.13089005235602,NA
74133,Tulsa County,OK,NA,NA,8.142857142857144
74135,Tulsa County,OK,NA,52.879581151832454,NA
74429,Wagoner County,OK,NA,72.67015706806282,NA
74447,Okmulgee County,OK,82.04488778054862,NA,NA
74523,Pushmataha County,OK,78.55361596009975,NA,NA
74601,Kay County,OK,NA,61.8848167539267,NA
74604,Kay County,OK,NA,NA,35
74743,Choctaw County,OK,NA,64.50261780104712,NA
74801,Pottawatomie County,OK,NA,13.926701570680628,NA
74848,Hughes County,OK,NA,75.81151832460733,NA
74868,Seminole County,OK,NA,41.57068062827225,NA
74960,Adair County,OK,NA,NA,67.42857142857143
97006,Washington County,OR,NA,NA,25.857142857142858
97008,Washington County,OR,NA,78.63874345549739,NA
97031,Hood River County,OR,53.36658354114713,NA,NA
97058,Wasco County,OR,NA,17.277486910994764,NA
97103,Clatsop County,OR,40.64837905236908,NA,NA
97128,Yamhill County,OR,NA,72.77486910994764,NA
97215,Multnomah County,OR,NA,71.20418848167539,NA
97219,Multnomah County,OR,NA,NA,38.142857142857146
97222,Clackamas County,OR,NA,NA,28.714285714285715
97230,Multnomah County,OR,NA,29.52879581151833,NA
97306,Marion County,OR,NA,NA,44.714285714285715
97321,Linn County,OR,NA,NA,17.142857142857142
97322,Linn County,OR,30.798004987531176,NA,NA
97355,Linn County,OR,44.51371571072319,NA,52.57142857142857
97361,Polk County,OR,NA,NA,73.71428571428571
97394,Lincoln County,OR,NA,NA,90.42857142857143
97401,Lane County,OR,NA,NA,74.14285714285714
97402,Lane County,OR,39.276807980049874,57.90575916230366,NA
97420,Coos County,OR,37.03241895261846,NA,NA
97439,Lane County,OR,NA,NA,77.71428571428571
97477,Lane County,OR,66.70822942643392,44.29319371727748,NA
97501,Jackson County,OR,57.98004987531172,86.282722513089,20.42857142857143
97502,Jackson County,OR,NA,NA,22.714285714285715
97503,Jackson County,OR,91.64588528678304,NA,NA
97504,Jackson County,OR,NA,NA,60.42857142857143
97527,Josephine County,OR,58.85286783042394,NA,NA
97601,Klamath County,OR,50.99750623441397,6.806282722513089,NA
97630,Lake County,OR,NA,92.56544502617801,NA
97741,Jefferson County,OR,NA,49.947643979057595,NA
97914,Malheur County,OR,NA,62.09424083769633,NA
15017,Allegheny County,PA,91.52119700748129,NA,35.14285714285714
15037,Allegheny County,PA,NA,46.38743455497382,NA
15084,Allegheny County,PA,52.36907730673317,NA,NA
15135,Allegheny County,PA,NA,NA,69.28571428571428
15139,Allegheny County,PA,NA,NA,95.85714285714285
15206,Allegheny County,PA,NA,11.518324607329843,NA
15212,Allegheny County,PA,76.55860349127181,NA,98.57142857142858
15213,Allegheny County,PA,54.48877805486284,NA,NA
15218,Allegheny County,PA,NA,39.26701570680628,NA
15226,Allegheny County,PA,NA,37.80104712041884,NA
15227,Allegheny County,PA,NA,NA,67.71428571428572
15235,Allegheny County,PA,NA,NA,6
15243,Allegheny County,PA,NA,NA,77.28571428571429
15301,Washington County,PA,NA,57.80104712041884,NA
15317,Washington County,PA,NA,5.130890052356021,NA
15401,Fayette County,PA,6.857855361596011,NA,NA
15522,Bedford County,PA,NA,NA,37.57142857142857
15557,Somerset County,PA,96.63341645885288,NA,NA
15601,Westmoreland County,PA,NA,7.958115183246073,NA
15613,Westmoreland County,PA,NA,NA,49.714285714285715
15642,Westmoreland County,PA,NA,NA,21.571428571428573
15668,Westmoreland County,PA,NA,NA,23
15701,Indiana County,PA,14.83790523690773,NA,NA
15717,Indiana County,PA,48.12967581047381,NA,NA
15767,Jefferson County,PA,45.760598503740646,NA,NA
15801,Clearfield County,PA,62.593516209476306,NA,NA
15825,Jefferson County,PA,NA,NA,19.428571428571427
15905,Cambria County,PA,92.51870324189527,NA,NA
16046,Butler County,PA,NA,97.90575916230367,NA
16105,Lawrence County,PA,NA,16.858638743455497,8.857142857142856
16125,Mercer County,PA,NA,8.900523560209423,NA
16127,Mercer County,PA,NA,60.83769633507854,80
16201,Armstrong County,PA,80.29925187032418,41.98952879581152,NA
16354,Crawford County,PA,NA,NA,92.57142857142857
16433,Crawford County,PA,NA,NA,68.85714285714286
16511,Erie County,PA,NA,NA,52.714285714285715
16602,Blair County,PA,NA,27.643979057591622,NA
16833,Clearfield County,PA,NA,NA,73.42857142857143
17022,Lancaster County,PA,NA,31.623036649214658,NA
17036,Dauphin County,PA,76.18453865336659,NA,NA
17042,Lebanon County,PA,3.117206982543641,3.56020942408377,NA
17055,Cumberland County,PA,NA,NA,24.714285714285715
17094,Juniata County,PA,NA,97.38219895287958,NA
17201,Franklin County,PA,NA,61.57068062827226,NA
17233,Fulton County,PA,65.5860349127182,NA,NA
17257,Cumberland County,PA,95.6359102244389,NA,51.857142857142854
17315,York County,PA,73.69077306733168,56.64921465968587,NA
17325,Adams County,PA,NA,91.2041884816754,NA
17340,Adams County,PA,NA,NA,94.85714285714286
17403,York County,PA,24.438902743142144,1.8848167539267016,NA
17545,Lancaster County,PA,31.421446384039903,NA,NA
17740,Lycoming County,PA,NA,NA,56.285714285714285
17756,Lycoming County,PA,88.02992518703242,NA,NA
17815,Columbia County,PA,12.8428927680798,6.282722513089005,NA
17820,Columbia County,PA,83.41645885286782,NA,NA
17844,Union County,PA,NA,56.43979057591623,NA
17847,Northumberland County,PA,NA,NA,36.857142857142854
17866,Northumberland County,PA,46.50872817955112,NA,NA
17901,Schuylkill County,PA,NA,57.48691099476439,15.285714285714286
18013,Northampton County,PA,NA,25.654450261780106,NA
18017,Northampton County,PA,NA,49.42408376963351,28.857142857142858
18018,Lehigh County,PA,16.708229426433917,4.712041884816754,NA
18020,Northampton County,PA,NA,16.75392670157068,NA
18042,Northampton County,PA,18.703241895261847,NA,NA
18080,Lehigh County,PA,88.90274314214463,NA,NA
18235,Carbon County,PA,NA,NA,64.71428571428571
18407,Lackawanna County,PA,34.28927680798005,NA,NA
18411,Lackawanna County,PA,NA,35.70680628272251,NA
18428,Pike County,PA,NA,85.6544502617801,NA
18505,Lackawanna County,PA,69.20199501246883,NA,NA
18509,Lackawanna County,PA,NA,44.60732984293194,NA
18519,Lackawanna County,PA,NA,81.04712041884817,NA
18603,Columbia County,PA,31.296758104738153,NA,NA
18661,Luzerne County,PA,NA,52.14659685863874,NA
18704,Luzerne County,PA,NA,NA,76.14285714285714
18848,Bradford County,PA,63.46633416458853,NA,NA
18901,Bucks County,PA,77.93017456359102,NA,NA
18966,Bucks County,PA,NA,6.596858638743456,NA
18974,Bucks County,PA,NA,NA,1.4285714285714286
19018,Delaware County,PA,NA,NA,42.285714285714285
19020,Bucks County,PA,NA,58.1151832460733,NA
19027,Montgomery County,PA,NA,NA,76.28571428571429
19036,Delaware County,PA,64.58852867830423,NA,NA
19038,Montgomery County,PA,NA,13.089005235602095,NA
19040,Montgomery County,PA,NA,54.55497382198953,NA
19047,Bucks County,PA,NA,8.795811518324607,NA
19063,Delaware County,PA,NA,7.12041884816754,NA
19067,Bucks County,PA,37.281795511221944,4.0837696335078535,NA
19086,Delaware County,PA,NA,NA,99.28571428571429
19111,Philadelphia County,PA,NA,NA,80.42857142857143
19114,Philadelphia County,PA,72.81795511221945,NA,NA
19121,Philadelphia County,PA,50.374064837905244,NA,NA
19132,Philadelphia County,PA,4.239401496259352,NA,NA
19138,Philadelphia County,PA,46.00997506234414,69.63350785340315,NA
19142,Philadelphia County,PA,NA,52.67015706806283,NA
19150,Philadelphia County,PA,NA,81.15183246073299,NA
19154,Philadelphia County,PA,NA,NA,48.57142857142857
19317,Delaware County,PA,97.2568578553616,NA,NA
19320,Chester County,PA,40.89775561097257,NA,NA
19335,Chester County,PA,NA,NA,51.142857142857146
19342,Delaware County,PA,NA,96.43979057591623,NA
19365,Chester County,PA,NA,NA,84.71428571428572
19446,Montgomery County,PA,NA,NA,4.714285714285714
19462,Montgomery County,PA,NA,49.109947643979055,NA
19512,Berks County,PA,NA,32.04188481675393,74.71428571428571
19518,Berks County,PA,61.22194513715711,NA,NA
19602,Berks County,PA,54.98753117206982,NA,50.57142857142857
19605,Berks County,PA,NA,NA,15.857142857142856
19610,Berks County,PA,NA,NA,16.714285714285715
02817,Kent County,RI,71.571072319202,NA,NA
02830,Providence County,RI,66.9576059850374,NA,NA
02852,Washington County,RI,NA,15.287958115183246,NA
02879,Washington County,RI,NA,20.94240837696335,22.428571428571427
02895,Providence County,RI,NA,NA,18.714285714285715
02903,Providence County,RI,NA,97.17277486910994,NA
02904,Providence County,RI,NA,NA,38.285714285714285
02907,Providence County,RI,NA,87.01570680628272,NA
02909,Providence County,RI,52.618453865336654,NA,NA
02911,Providence County,RI,NA,NA,47.57142857142857
02915,Providence County,RI,NA,72.35602094240838,NA
02917,Providence County,RI,NA,82.82722513089004,NA
02919,Providence County,RI,NA,NA,12.142857142857142
29040,Sumter County,SC,NA,83.24607329842932,NA
29044,Richland County,SC,NA,NA,84.57142857142857
29150,Sumter County,SC,25.81047381546135,14.659685863874344,NA
29161,Florence County,SC,NA,54.76439790575917,NA
29180,Fairfield County,SC,NA,NA,95.71428571428572
29206,Richland County,SC,NA,NA,88.57142857142857
29209,Richland County,SC,32.54364089775561,NA,NA
29212,Lexington County,SC,NA,53.193717277486904,NA
29316,Spartanburg County,SC,NA,78.84816753926701,NA
29322,Spartanburg County,SC,NA,NA,99
29349,Spartanburg County,SC,77.18204488778055,NA,NA
29365,Spartanburg County,SC,NA,45.0261780104712,NA
29369,Spartanburg County,SC,NA,NA,60.57142857142858
29403,Charleston County,SC,98.50374064837905,66.70157068062828,NA
29406,Charleston County,SC,18.5785536159601,NA,NA
29483,Dorchester County,SC,NA,84.71204188481676,NA
29485,Dorchester County,SC,NA,NA,76.71428571428571
29486,Berkeley County,SC,77.0573566084788,NA,NA
29510,Georgetown County,SC,NA,60.73298429319372,NA
29571,Marion County,SC,NA,NA,89
29574,Marion County,SC,86.65835411471322,NA,NA
29576,Horry County,SC,NA,7.329842931937172,NA
29579,Horry County,SC,NA,19.162303664921467,NA
29582,Horry County,SC,NA,35.81151832460733,NA
29609,Greenville County,SC,NA,27.43455497382199,NA
29611,Greenville County,SC,9.975062344139651,NA,NA
29617,Greenville County,SC,25.935162094763093,NA,NA
29640,Pickens County,SC,NA,12.041884816753926,NA
29645,Laurens County,SC,97.75561097256858,NA,NA
29650,Greenville County,SC,53.86533665835411,NA,NA
29651,Greenville County,SC,NA,29.73821989528796,NA
29657,Pickens County,SC,NA,NA,68.42857142857143
29676,Oconee County,SC,NA,52.46073298429319,NA
29681,Greenville County,SC,NA,69.73821989528795,NA
29684,Anderson County,SC,NA,93.717277486911,NA
29690,Greenville County,SC,NA,20.94240837696335,NA
29691,Oconee County,SC,69.82543640897757,NA,NA
29706,Chester County,SC,NA,80.73298429319372,NA
29707,Lancaster County,SC,NA,29.94764397905759,NA
29710,York County,SC,42.8927680798005,89.10994764397905,NA
29745,York County,SC,86.78304239401497,NA,NA
57033,Minnehaha County,SD,NA,97.4869109947644,NA
57103,Minnehaha County,SD,NA,13.193717277486911,NA
57106,Minnehaha County,SD,NA,46.70157068062827,18
57783,Lawrence County,SD,54.862842892768086,NA,NA
37066,Sumner County,TN,26.309226932668327,40.41884816753927,NA
37090,Wilson County,TN,NA,77.27748691099477,NA
37115,Davidson County,TN,NA,82.40837696335078,NA
37160,Bedford County,TN,13.715710723192021,NA,NA
37167,Rutherford County,TN,68.45386533665835,NA,NA
37215,Davidson County,TN,NA,NA,53.85714285714286
37303,McMinn County,TN,NA,53.50785340314136,NA
37311,Bradley County,TN,NA,NA,44.57142857142857
37321,Rhea County,TN,NA,22.722513089005236,NA
37324,Franklin County,TN,56.234413965087285,NA,NA
37334,Lincoln County,TN,NA,73.92670157068063,NA
37363,Hamilton County,TN,29.42643391521197,NA,NA
37388,Coffee County,TN,NA,90.26178010471205,NA
37415,Hamilton County,TN,43.765586034912715,NA,NA
37416,Hamilton County,TN,NA,34.13612565445026,NA
37615,Washington County,TN,NA,62.617801047120416,NA
37665,Sullivan County,TN,82.41895261845387,NA,NA
37721,Knox County,TN,NA,NA,59.71428571428572
37743,Greene County,TN,64.08977556109726,NA,NA
37748,Roane County,TN,NA,73.71727748691099,NA
37754,Anderson County,TN,NA,NA,78.28571428571428
37771,Loudon County,TN,NA,36.2303664921466,NA
37830,Anderson County,TN,18.07980049875312,55.07853403141362,NA
37861,Grainger County,TN,NA,44.18848167539267,NA
37912,Knox County,TN,21.94513715710723,NA,NA
37914,Knox County,TN,NA,22.93193717277487,NA
37918,Knox County,TN,81.92019950124688,NA,39.42857142857143
37931,Knox County,TN,NA,39.3717277486911,NA
38002,Shelby County,TN,NA,NA,64
38006,Crockett County,TN,84.03990024937656,NA,NA
38108,Shelby County,TN,NA,36.96335078534032,NA
38111,Shelby County,TN,NA,88.06282722513089,NA
38116,Shelby County,TN,37.1571072319202,NA,NA
38237,Weakley County,TN,NA,66.07329842931937,NA
38305,Madison County,TN,51.6209476309227,NA,NA
38469,Lawrence County,TN,95.76059850374065,NA,NA
38506,Putnam County,TN,29.67581047381546,NA,NA
38544,Putnam County,TN,48.753117206982544,NA,NA
38556,Fentress County,TN,62.593516209476306,NA,NA
38574,Putnam County,TN,63.092269326683294,NA,NA
75001,Dallas County,TX,75.31172069825436,NA,NA
75006,Dallas County,TX,NA,15.49738219895288,79.85714285714286
75020,Grayson County,TX,34.91271820448878,NA,NA
75032,Rockwall County,TX,NA,NA,59.14285714285714
75040,Dallas County,TX,NA,42.82722513089005,12.285714285714286
75041,Dallas County,TX,NA,48.06282722513089,NA
75043,Dallas County,TX,14.214463840399002,NA,NA
75062,Dallas County,TX,33.29177057356609,NA,NA
75070,Collin County,TX,NA,NA,62
75077,Denton County,TX,NA,NA,28.000000000000004
75082,Collin County,TX,58.60349127182045,NA,NA
75087,Rockwall County,TX,93.76558603491272,NA,NA
75103,Van Zandt County,TX,62.84289276807981,NA,NA
75115,Dallas County,TX,NA,NA,15.285714285714286
75119,Ellis County,TX,65.08728179551122,NA,NA
75160,Kaufman County,TX,NA,78.32460732984293,NA
75165,Ellis County,TX,NA,14.031413612565444,NA
75203,Dallas County,TX,NA,69.10994764397905,NA
75216,Dallas County,TX,NA,5.026178010471204,5.571428571428571
75217,Dallas County,TX,7.855361596009976,NA,NA
75219,Dallas County,TX,NA,NA,82
75224,Dallas County,TX,NA,24.293193717277486,NA
75237,Dallas County,TX,32.294264339152114,NA,NA
75240,Dallas County,TX,NA,NA,70.28571428571428
75401,Hunt County,TX,75.6857855361596,NA,NA
75440,Rains County,TX,74.93765586034912,NA,NA
75551,Cass County,TX,NA,NA,73.14285714285714
75605,Gregg County,TX,NA,80.94240837696334,NA
75638,Morris County,TX,NA,96.96335078534032,NA
75645,Upshur County,TX,63.84039900249376,NA,NA
75654,Rusk County,TX,NA,NA,44
75703,Smith County,TX,NA,79.68586387434556,1.1428571428571428
75754,Van Zandt County,TX,NA,52.35602094240838,NA
75763,Anderson County,TX,NA,62.5130890052356,NA
75766,Cherokee County,TX,NA,68.06282722513089,NA
75901,Angelina County,TX,82.54364089775561,NA,NA
75904,Angelina County,TX,NA,8.167539267015707,NA
75941,Angelina County,TX,NA,NA,97.28571428571429
76010,Tarrant County,TX,36.28428927680798,NA,NA
76028,Johnson County,TX,NA,13.298429319371726,NA
76031,Johnson County,TX,NA,81.78010471204189,NA
76049,Hood County,TX,NA,60.6282722513089,17
76092,Tarrant County,TX,NA,91.83246073298429,NA
76112,Tarrant County,TX,NA,30.36649214659686,NA
76116,Tarrant County,TX,NA,7.853403141361256,NA
76117,Tarrant County,TX,NA,NA,41
76164,Tarrant County,TX,94.38902743142144,NA,98.28571428571429
76201,Denton County,TX,NA,NA,74.42857142857143
76227,Denton County,TX,NA,NA,50.71428571428571
76244,Tarrant County,TX,18.82793017456359,NA,NA
76306,Wichita County,TX,47.63092269326683,NA,NA
76424,Stephens County,TX,74.43890274314214,NA,NA
76426,Wise County,TX,NA,79.89528795811518,NA
76502,Bell County,TX,NA,NA,82.42857142857143
76513,Bell County,TX,6.982543640897755,NA,NA
76528,Coryell County,TX,21.571072319201996,NA,NA
76543,Bell County,TX,NA,NA,4.142857142857142
76667,Limestone County,TX,NA,63.455497382198956,NA
76801,Brown County,TX,NA,NA,39.285714285714285
76903,Tom Green County,TX,NA,NA,58.285714285714285
77007,Harris County,TX,NA,48.58638743455497,NA
77008,Harris County,TX,NA,70.78534031413612,NA
77015,Harris County,TX,NA,28.06282722513089,NA
77017,Harris County,TX,NA,75.18324607329842,NA
77022,Harris County,TX,41.14713216957606,NA,NA
77024,Harris County,TX,46.25935162094763,NA,NA
77028,Harris County,TX,61.720698254364095,NA,NA
77034,Harris County,TX,NA,NA,89.42857142857143
77042,Harris County,TX,NA,47.01570680628272,NA
77051,Harris County,TX,39.900249376558605,NA,NA
77082,Harris County,TX,NA,22.61780104712042,NA
77083,Harris County,TX,NA,NA,89.85714285714286
77084,Harris County,TX,9.476309226932669,NA,NA
77085,Harris County,TX,69.9501246882793,NA,NA
77088,Harris County,TX,NA,19.68586387434555,NA
77091,Harris County,TX,40.14962593516209,NA,NA
77092,Harris County,TX,NA,89.21465968586388,NA
77301,Montgomery County,TX,NA,59.16230366492147,NA
77396,Harris County,TX,NA,NA,60.857142857142854
77406,Fort Bend County,TX,NA,84.29319371727748,NA
77423,Waller County,TX,NA,88.69109947643979,NA
77459,Fort Bend County,TX,NA,7.225130890052355,NA
77461,Fort Bend County,TX,NA,NA,87.42857142857143
77531,Brazoria County,TX,NA,59.05759162303666,NA
77550,Galveston County,TX,NA,63.246073298429316,NA
77554,Galveston County,TX,NA,NA,93.42857142857143
77568,Galveston County,TX,NA,15.392670157068064,NA
77581,Brazoria County,TX,NA,NA,63.142857142857146
77591,Galveston County,TX,42.01995012468828,NA,NA
77611,Orange County,TX,NA,NA,69.14285714285714
77612,Jasper County,TX,NA,92.35602094240838,NA
77642,Jefferson County,TX,NA,45.654450261780106,NA
77656,Hardin County,TX,NA,87.32984293193718,NA
77657,Hardin County,TX,NA,41.15183246073298,NA
77662,Orange County,TX,NA,NA,63.28571428571429
77808,Brazos County,TX,NA,40.52356020942408,NA
77864,Madison County,TX,NA,67.74869109947645,NA
77963,Goliad County,TX,NA,NA,90.28571428571428
77979,Calhoun County,TX,55.36159600997507,NA,NA
78028,Kerr County,TX,87.03241895261846,NA,NA
78040,Webb County,TX,29.551122194513717,NA,NA
78043,Webb County,TX,NA,NA,21
78046,Webb County,TX,11.970074812967582,NA,31.142857142857146
78114,Wilson County,TX,NA,70.26178010471205,NA
78130,Comal County,TX,82.16957605985037,NA,NA
78132,Comal County,TX,NA,NA,58.857142857142854
78207,Bexar County,TX,64.713216957606,NA,NA
78209,Bexar County,TX,47.256857855361595,NA,NA
78210,Bexar County,TX,NA,32.25130890052356,NA
78213,Bexar County,TX,33.915211970074814,NA,NA
78221,Bexar County,TX,NA,57.696335078534034,NA
78224,Bexar County,TX,NA,56.96335078534032,NA
78225,Bexar County,TX,72.6932668329177,NA,NA
78233,Bexar County,TX,NA,35.602094240837694,NA
78237,Bexar County,TX,NA,NA,37.142857142857146
78242,Bexar County,TX,35.41147132169576,NA,NA
78245,Bexar County,TX,17.955112219451372,NA,NA
78259,Bexar County,TX,NA,NA,81.71428571428572
78264,Bexar County,TX,NA,NA,78.42857142857143
78415,Nueces County,TX,NA,31.93717277486911,NA
78520,Cameron County,TX,NA,16.230366492146597,75.71428571428571
78521,Cameron County,TX,63.84039900249376,NA,NA
78526,Cameron County,TX,NA,41.8848167539267,NA
78570,Hidalgo County,TX,NA,64.60732984293193,NA
78574,Hidalgo County,TX,NA,21.8848167539267,NA
78578,Cameron County,TX,NA,68.16753926701571,NA
78586,Cameron County,TX,NA,NA,90.85714285714286
78640,Hays County,TX,NA,24.712041884816756,NA
78660,Travis County,TX,NA,19.3717277486911,NA
78729,Williamson County,TX,NA,56.54450261780105,NA
78749,Travis County,TX,NA,57.172774869109944,NA
78750,Travis County,TX,NA,NA,40.85714285714286
78757,Travis County,TX,NA,74.13612565445025,NA
78759,Travis County,TX,NA,NA,50.857142857142854
78801,Uvalde County,TX,NA,40.73298429319372,NA
78839,Zavala County,TX,NA,61.15183246073298,NA
78840,Val Verde County,TX,NA,NA,27.857142857142858
79106,Potter County,TX,40.399002493765586,23.56020942408377,NA
79107,Potter County,TX,65.46134663341647,NA,NA
79118,Randall County,TX,NA,59.26701570680628,NA
79360,Gaines County,TX,38.77805486284289,NA,NA
79413,Lubbock County,TX,NA,NA,77.14285714285715
79424,Lubbock County,TX,NA,NA,11.571428571428571
79602,Taylor County,TX,86.15960099750623,NA,NA
79603,Taylor County,TX,47.0074812967581,NA,NA
79838,El Paso County,TX,NA,99.26701570680628,NA
79904,El Paso County,TX,85.16209476309227,62.30366492146597,NA
79905,El Paso County,TX,95.51122194513717,NA,NA
79912,El Paso County,TX,19.70074812967581,NA,NA
79928,El Paso County,TX,NA,65.23560209424085,NA
79930,El Paso County,TX,NA,NA,39.57142857142858
79936,El Paso County,TX,9.850374064837904,NA,NA
79938,El Paso County,TX,NA,NA,50.42857142857143
84003,Utah County,UT,57.73067331670823,NA,NA
84109,Salt Lake County,UT,NA,32.87958115183246,NA
84120,Salt Lake County,UT,56.35910224438903,NA,NA
84123,Salt Lake County,UT,NA,63.141361256544506,NA
84124,Salt Lake County,UT,NA,NA,86
84129,,UT,NA,57.382198952879584,NA
84302,Box Elder County,UT,NA,94.24083769633508,51.28571428571429
84403,Weber County,UT,NA,88.1675392670157,NA
84405,Weber County,UT,NA,76.33507853403141,43.714285714285715
84770,Washington County,UT,79.17705735660849,NA,NA
05201,Bennington County,VT,NA,12.146596858638743,NA
05250,Bennington County,VT,88.65336658354114,NA,NA
05401,Chittenden County,VT,NA,NA,32
05403,Chittenden County,VT,NA,30.052356020942405,NA
05452,Chittenden County,VT,NA,21.465968586387437,NA
05602,Washington County,VT,NA,21.57068062827225,33.714285714285715
05641,Washington County,VT,49.12718204488778,43.35078534031413,NA
20109,Prince William County,VA,NA,63.97905759162303,NA
20111,Prince William County,VA,93.51620947630923,NA,NA
20152,Loudoun County,VA,95.13715710723191,NA,NA
20164,Loudoun County,VA,31.67082294264339,NA,NA
22003,Fairfax County,VA,NA,81.67539267015707,NA
22039,Fairfax County,VA,65.33665835411472,NA,NA
22203,Arlington County,VA,NA,74.86910994764398,NA
22206,Arlington County,VA,66.83291770573567,NA,NA
22302,Alexandria city,VA,NA,98.84816753926702,NA
22304,Alexandria city,VA,70.32418952618454,NA,NA
22308,Fairfax County,VA,NA,NA,94.42857142857143
22405,Stafford County,VA,NA,59.37172774869109,NA
22485,King George County,VA,48.00498753117207,NA,NA
22601,Winchester city,VA,45.01246882793018,NA,NA
22603,Frederick County,VA,NA,NA,65
22835,Page County,VA,NA,32.146596858638745,NA
22963,Fluvanna County,VA,59.60099750623441,NA,NA
22968,Greene County,VA,NA,70.68062827225131,NA
22980,Waynesboro city,VA,58.22942643391521,NA,NA
23059,Henrico County,VA,NA,NA,43.42857142857143
23061,Gloucester County,VA,47.75561097256858,NA,NA
23111,Hanover County,VA,NA,NA,39.14285714285714
23112,Chesterfield County,VA,NA,14.86910994764398,NA
23113,Chesterfield County,VA,NA,NA,33
23220,Richmond city,VA,NA,34.86910994764398,NA
23221,Richmond city,VA,NA,NA,62.71428571428571
23224,Richmond city,VA,NA,NA,64.14285714285714
23225,Richmond city,VA,65.83541147132169,37.06806282722513,NA
23231,Henrico County,VA,NA,9.424083769633508,NA
23234,Chesterfield County,VA,13.840399002493767,NA,NA
23320,Chesapeake city,VA,NA,NA,6.714285714285714
23451,Virginia Beach city,VA,NA,NA,1.8571428571428572
23453,Virginia Beach city,VA,NA,NA,42.57142857142857
23464,Virginia Beach city,VA,NA,11.937172774869111,NA
23504,Norfolk city,VA,NA,NA,79.42857142857143
23505,Norfolk city,VA,NA,18.534031413612563,NA
23518,Norfolk city,VA,NA,16.43979057591623,NA
23601,Newport News city,VA,NA,27.015706806282726,NA
23607,Newport News city,VA,NA,26.387434554973822,NA
23608,Newport News city,VA,52.9925187032419,NA,NA
23661,Hampton city,VA,NA,41.57068062827225,NA
24014,Roanoke city,VA,51.99501246882793,NA,NA
24016,Roanoke city,VA,40.02493765586035,NA,NA
24018,Roanoke County,VA,35.03740648379052,NA,NA
24078,Henry County,VA,67.58104738154613,NA,NA
24101,Franklin County,VA,NA,58.7434554973822,NA
24112,Henry County,VA,NA,8.37696335078534,NA
24202,Washington County,VA,NA,34.55497382198953,72
24277,Lee County,VA,77.80548628428927,NA,NA
24340,Washington County,VA,NA,NA,66.71428571428571
24361,Washington County,VA,NA,NA,91.57142857142857
24416,Buena Vista city,VA,NA,NA,95.28571428571428
24501,Lynchburg city,VA,NA,NA,83.57142857142857
24540,Danville city,VA,NA,42.40837696335078,NA
24541,Danville city,VA,NA,NA,53.714285714285715
24550,Campbell County,VA,NA,NA,66
24651,Tazewell County,VA,90.52369077306733,NA,NA
98001,King County,WA,NA,NA,46.714285714285715
98011,King County,WA,NA,NA,32.42857142857143
98032,King County,WA,30.673316708229425,NA,NA
98042,King County,WA,NA,65.96858638743456,14.714285714285714
98043,Snohomish County,WA,NA,NA,93.14285714285714
98057,King County,WA,NA,NA,61
98103,King County,WA,NA,51.09947643979058,NA
98104,King County,WA,NA,50.57591623036649,NA
98133,King County,WA,NA,36.544502617801044,47.14285714285714
98168,King County,WA,NA,96.33507853403141,NA
98178,King County,WA,41.02244389027431,NA,NA
98188,King County,WA,52.7431421446384,73.82198952879581,NA
98199,King County,WA,NA,NA,40.714285714285715
98221,Skagit County,WA,NA,NA,11.285714285714285
98223,Snohomish County,WA,NA,10.052356020942408,NA
98226,Whatcom County,WA,NA,NA,48
98273,Skagit County,WA,60.84788029925187,80.10471204188482,NA
98277,Island County,WA,34.78802992518703,NA,NA
98284,Skagit County,WA,38.15461346633416,NA,11.714285714285715
98335,Pierce County,WA,97.88029925187033,60.94240837696335,NA
98354,Pierce County,WA,NA,NA,59.285714285714285
98382,Clallam County,WA,NA,10.68062827225131,NA
98387,Pierce County,WA,17.45635910224439,NA,NA
98390,Pierce County,WA,59.10224438902743,NA,NA
98405,Pierce County,WA,23.566084788029926,NA,NA
98445,Pierce County,WA,36.03491271820449,NA,NA
98466,Pierce County,WA,45.51122194513716,NA,NA
98499,Pierce County,WA,NA,NA,30.857142857142854
98520,Grays Harbor County,WA,NA,90.0523560209424,NA
98541,Grays Harbor County,WA,89.6508728179551,NA,89.71428571428571
97003,NA,NA,91.89526184538653,NA,NA
98579,Thurston County,WA,NA,NA,66.57142857142857
98604,Clark County,WA,NA,NA,43.42857142857143
98661,Clark County,WA,NA,NA,27.285714285714285
98671,Clark County,WA,NA,NA,72.28571428571429
98683,Clark County,WA,NA,NA,68.28571428571428
98684,Clark County,WA,NA,95.49738219895289,NA
98902,Yakima County,WA,NA,12.774869109947645,9.857142857142858
98903,Yakima County,WA,NA,35.39267015706806,NA
99205,Spokane County,WA,NA,NA,31.428571428571427
99324,Walla Walla County,WA,NA,NA,69
99352,Benton County,WA,NA,NA,2
20020,District of Columbia,DC,11.346633416458852,NA,NA
20032,District of Columbia,DC,18.329177057356606,NA,NA
24844,McDowell County,WV,93.14214463840399,NA,NA
24910,Greenbrier County,WV,91.02244389027432,NA,NA
25271,Jackson County,WV,NA,NA,44
25303,Kanawha County,WV,NA,NA,48.42857142857142
25438,Jefferson County,WV,74.06483790523691,NA,NA
25550,Mason County,WV,37.406483790523694,18.219895287958117,NA
25951,Summers County,WV,NA,NA,53
26037,Brooke County,WV,NA,NA,52
26150,Wood County,WV,NA,61.361256544502616,NA
26187,Wood County,WV,NA,33.717277486910994,NA
26301,Harrison County,WV,22.568578553615957,NA,NA
26554,Marion County,WV,60.47381546134664,NA,NA
26753,Mineral County,WV,NA,NA,98.85714285714286
53029,Waukesha County,WI,47.50623441396509,NA,NA
53073,Sheboygan County,WI,NA,NA,57.14285714285714
53083,Sheboygan County,WI,NA,37.59162303664921,NA
53094,Jefferson County,WI,30.174563591022448,NA,NA
53098,Dodge County,WI,47.381546134663346,NA,NA
53110,Milwaukee County,WI,NA,NA,49.142857142857146
53140,Kenosha County,WI,27.306733167082292,NA,NA
53142,Kenosha County,WI,NA,NA,24
53154,Milwaukee County,WI,15.586034912718205,NA,NA
53172,Milwaukee County,WI,NA,24.18848167539267,NA
53190,Walworth County,WI,NA,NA,43.142857142857146
53202,Milwaukee County,WI,NA,82.93193717277487,NA
53209,Milwaukee County,WI,NA,1.1518324607329842,6.428571428571428
53214,Milwaukee County,WI,68.07980049875312,NA,15.714285714285714
53215,Milwaukee County,WI,NA,2.6178010471204187,NA
53217,Milwaukee County,WI,NA,71.62303664921465,NA
53219,Milwaukee County,WI,NA,54.03141361256545,9.142857142857142
53220,Milwaukee County,WI,NA,NA,10.714285714285714
53226,Milwaukee County,WI,NA,19.581151832460733,54.57142857142857
53402,Racine County,WI,3.99002493765586,NA,NA
53403,Racine County,WI,NA,76.54450261780104,NA
53405,Racine County,WI,4.738154613466334,NA,NA
53511,Rock County,WI,0.4987531172069825,NA,NA
53532,Dane County,WI,NA,NA,90.71428571428571
53545,Rock County,WI,NA,10.366492146596858,NA
53546,Rock County,WI,36.65835411471321,NA,NA
53566,Green County,WI,NA,10.261780104712042,NA
53593,Dane County,WI,NA,69.31937172774869,NA
53813,Grant County,WI,NA,76.8586387434555,NA
53916,Dodge County,WI,75.31172069825436,NA,NA
53934,Adams County,WI,74.56359102244389,NA,NA
53963,Dodge County,WI,NA,90.57591623036649,NA
54115,Brown County,WI,NA,68.90052356020942,13.857142857142858
54153,Oconto County,WI,NA,NA,65.71428571428571
54216,Kewaunee County,WI,92.26932668329178,NA,NA
54241,Manitowoc County,WI,NA,47.853403141361255,NA
54304,Brown County,WI,NA,55.39267015706806,NA
54311,Brown County,WI,NA,88.48167539267016,NA
54313,Brown County,WI,NA,NA,20.285714285714285
54409,Langlade County,WI,NA,NA,7.571428571428572
54494,Wood County,WI,NA,81.2565445026178,NA
54615,Jackson County,WI,73.81546134663341,NA,NA
54729,Chippewa County,WI,92.14463840399002,NA,NA
54901,Winnebago County,WI,NA,16.12565445026178,NA
54902,Winnebago County,WI,NA,58.63874345549738,NA
54923,Green Lake County,WI,NA,NA,63.714285714285715
54981,Waupaca County,WI,NA,NA,51.714285714285715
82007,Laramie County,WY,96.75810473815461,NA,NA
82633,Converse County,WY,86.53366583541147,NA,NA
