ZipCode,county,state,Adult,Retirement,Geriatric
35022,Jefferson County,AL,NA,NA,43.38747099767982
35211,Jefferson County,AL,NA,22.413793103448278,NA
35243,Jefferson County,AL,NA,NA,44.31554524361949
35654,Franklin County,AL,NA,71.92118226600985,NA
35803,Madison County,AL,NA,NA,23.665893271461716
36010,Pike County,AL,80.0632911392405,NA,NA
36109,Montgomery County,AL,NA,71.18226600985221,NA
36301,Houston County,AL,NA,NA,59.164733178654295
36426,Escambia County,AL,NA,NA,87.47099767981439
36549,Baldwin County,AL,NA,NA,80.51044083526682
36567,Baldwin County,AL,86.39240506329115,NA,NA
36608,Mobile County,AL,NA,NA,83.52668213457076
36609,Mobile County,AL,NA,87.192118226601,NA
36695,Mobile County,AL,26.265822784810126,NA,NA
85007,Maricopa County,AZ,NA,54.43349753694581,NA
85018,Maricopa County,AZ,NA,NA,40.60324825986079
85051,Maricopa County,AZ,74.0506329113924,NA,NA
85122,Pinal County,AZ,24.367088607594937,NA,NA
85208,Maricopa County,AZ,NA,32.01970443349754,NA
85225,Maricopa County,AZ,NA,NA,67.51740139211137
85233,Maricopa County,AZ,68.35443037974683,NA,NA
85266,Maricopa County,AZ,NA,NA,80.04640371229699
85303,Maricopa County,AZ,90.18987341772153,NA,NA
85364,Yuma County,AZ,39.55696202531646,NA,NA
85365,Yuma County,AZ,NA,NA,87.93503480278422
85367,Yuma County,AZ,NA,74.63054187192118,NA
85374,Maricopa County,AZ,NA,NA,25.290023201856147
85381,Maricopa County,AZ,NA,NA,33.64269141531322
85755,Pima County,AZ,NA,NA,25.986078886310903
85901,Navajo County,AZ,NA,87.93103448275862,NA
86326,Yavapai County,AZ,NA,NA,56.61252900232019
86426,Mohave County,AZ,NA,NA,94.89559164733178
86429,Mohave County,AZ,NA,99.50738916256158,NA
72106,Faulkner County,AR,NA,79.55665024630541,NA
72118,Pulaski County,AR,NA,NA,35.266821345707655
72370,Mississippi County,AR,NA,83.49753694581281,NA
72401,Craighead County,AR,NA,83.2512315270936,NA
72404,Craighead County,AR,NA,NA,54.988399071925755
72450,Greene County,AR,70.25316455696202,NA,NA
72521,Sharp County,AR,NA,NA,92.34338747099768
72601,Boone County,AR,NA,NA,42.459396751740144
72901,Sebastian County,AR,85.75949367088607,NA,NA
90036,Los Angeles County,CA,NA,NA,24.361948955916475
90065,Los Angeles County,CA,NA,68.4729064039409,NA
90270,Los Angeles County,CA,70.56962025316456,NA,NA
90504,Los Angeles County,CA,55.69620253164557,NA,NA
90706,Los Angeles County,CA,NA,68.96551724137932,NA
90808,Los Angeles County,CA,NA,NA,29.466357308584683
90813,Los Angeles County,CA,NA,80.78817733990148,NA
91304,Los Angeles County,CA,NA,41.37931034482759,NA
91311,Los Angeles County,CA,87.0253164556962,NA,NA
91344,Los Angeles County,CA,NA,NA,15.081206496519723
91360,Ventura County,CA,80.37974683544303,NA,NA
91362,Ventura County,CA,51.26582278481012,NA,NA
91405,Los Angeles County,CA,77.53164556962025,NA,NA
91710,San Bernardino County,CA,NA,17.24137931034483,NA
91768,Los Angeles County,CA,NA,52.21674876847291,NA
91910,San Diego County,CA,NA,NA,8.816705336426914
91942,San Diego County,CA,NA,NA,96.51972157772622
91977,San Diego County,CA,27.21518987341772,NA,NA
92028,San Diego County,CA,48.734177215189874,NA,NA
92040,San Diego County,CA,73.10126582278481,NA,NA
92057,San Diego County,CA,75.9493670886076,NA,NA
92069,San Diego County,CA,NA,NA,63.10904872389791
92071,San Diego County,CA,NA,32.758620689655174,NA
92084,San Diego County,CA,NA,NA,34.106728538283065
92113,San Diego County,CA,87.9746835443038,NA,NA
92114,San Diego County,CA,NA,49.75369458128079,NA
92118,San Diego County,CA,NA,NA,29.698375870069604
92257,Imperial County,CA,93.9873417721519,NA,NA
92264,Riverside County,CA,NA,11.083743842364532,NA
92270,Riverside County,CA,NA,NA,2.320185614849188
92276,Riverside County,CA,NA,65.51724137931035,NA
92376,San Bernardino County,CA,NA,NA,40.835266821345705
92543,Riverside County,CA,NA,NA,38.97911832946635
92570,Riverside County,CA,32.278481012658226,NA,NA
92627,Orange County,CA,15.18987341772152,NA,NA
92660,Orange County,CA,NA,NA,83.29466357308584
92804,Orange County,CA,NA,43.84236453201971,NA
92879,Riverside County,CA,NA,45.812807881773395,NA
93003,Ventura County,CA,NA,NA,52.43619489559165
93010,Ventura County,CA,NA,NA,90.95127610208816
93101,Santa Barbara County,CA,NA,69.95073891625616,NA
93110,Santa Barbara County,CA,NA,NA,89.32714617169374
93212,Kings County,CA,73.41772151898735,NA,NA
93257,Tulare County,CA,NA,20.44334975369458,NA
93291,Tulare County,CA,NA,31.03448275862069,NA
93306,Kern County,CA,NA,59.35960591133005,NA
93309,Kern County,CA,NA,26.354679802955665,NA
93422,San Luis Obispo County,CA,NA,37.68472906403941,NA
93455,Santa Barbara County,CA,NA,26.60098522167488,NA
93458,Santa Barbara County,CA,NA,72.41379310344827,61.94895591647332
93535,Los Angeles County,CA,26.582278481012654,NA,NA
93536,Los Angeles County,CA,NA,NA,80.97447795823666
93660,Fresno County,CA,96.20253164556962,NA,NA
93901,Monterey County,CA,64.87341772151899,NA,38.51508120649652
94080,San Mateo County,CA,NA,8.12807881773399,NA
94086,Santa Clara County,CA,NA,NA,42.69141531322506
94115,San Francisco County,CA,NA,31.2807881773399,NA
94117,San Francisco County,CA,NA,35.467980295566505,NA
94122,San Francisco County,CA,NA,NA,4.408352668213457
94403,San Mateo County,CA,NA,NA,9.280742459396752
94533,Solano County,CA,NA,49.01477832512315,NA
94541,Alameda County,CA,NA,43.103448275862064,NA
94544,Alameda County,CA,NA,NA,57.540603248259856
94549,Contra Costa County,CA,NA,NA,51.74013921113689
94553,Contra Costa County,CA,31.645569620253166,NA,NA
94558,Napa County,CA,71.20253164556962,NA,NA
94601,Alameda County,CA,NA,NA,44.779582366589324
94608,Alameda County,CA,NA,40.88669950738916,NA
94947,Marin County,CA,NA,NA,22.73781902552204
95205,San Joaquin County,CA,62.9746835443038,NA,NA
95210,San Joaquin County,CA,30.063291139240505,NA,NA
95212,San Joaquin County,CA,NA,69.21182266009852,NA
95336,San Joaquin County,CA,NA,NA,19.02552204176334
95361,Stanislaus County,CA,NA,NA,40.13921113689095
95422,Lake County,CA,NA,NA,55.68445475638051
95610,Sacramento County,CA,36.392405063291136,NA,NA
95682,El Dorado County,CA,NA,NA,17.633410672853827
95683,Sacramento County,CA,NA,NA,68.90951276102089
95762,El Dorado County,CA,NA,NA,31.786542923433874
95815,Sacramento County,CA,NA,71.42857142857143,NA
95825,Sacramento County,CA,NA,NA,30.8584686774942
95928,Butte County,CA,NA,NA,18.329466357308586
95973,Butte County,CA,16.77215189873418,NA,NA
96003,Shasta County,CA,33.860759493670884,NA,NA
80007,Jefferson County,CO,NA,98.76847290640394,NA
80010,Arapahoe County,CO,39.24050632911392,36.69950738916256,NA
80113,Arapahoe County,CO,NA,NA,69.83758700696056
80127,Jefferson County,CO,NA,NA,45.011600928074245
80204,Denver County,CO,NA,NA,84.68677494199535
80211,Denver County,CO,67.08860759493672,NA,NA
80221,Adams County,CO,NA,42.11822660098522,NA
80232,Jefferson County,CO,NA,63.54679802955665,64.03712296983758
80260,Adams County,CO,NA,47.783251231527096,NA
80524,Larimer County,CO,NA,24.38423645320197,NA
80920,El Paso County,CO,NA,70.44334975369459,NA
81001,Pueblo County,CO,15.822784810126583,79.06403940886699,NA
81003,Pueblo County,CO,54.11392405063291,NA,NA
81004,Pueblo County,CO,19.303797468354432,NA,NA
81323,Montezuma County,CO,NA,88.17733990147784,NA
81501,Mesa County,CO,NA,47.29064039408867,NA
06226,Windham County,CT,12.025316455696203,NA,NA
06415,New London County,CT,NA,NA,84.22273781902551
06461,New Haven County,CT,NA,61.083743842364534,79.81438515081206
06483,New Haven County,CT,71.83544303797468,NA,NA
06516,New Haven County,CT,NA,NA,76.33410672853829
06606,Fairfield County,CT,NA,68.22660098522168,NA
06607,Fairfield County,CT,66.45569620253164,NA,NA
06611,Fairfield County,CT,NA,NA,73.31786542923435
06702,New Haven County,CT,NA,80.29556650246306,NA
06759,Litchfield County,CT,81.32911392405063,NA,NA
06790,Litchfield County,CT,NA,3.201970443349754,NA
06830,Fairfield County,CT,NA,58.86699507389162,NA
06851,Fairfield County,CT,NA,NA,22.96983758700696
06902,Fairfield County,CT,NA,NA,50.11600928074246
19720,New Castle County,DE,NA,4.679802955665025,NA
19901,Kent County,DE,NA,42.857142857142854,NA
19904,Kent County,DE,NA,NA,19.25754060324826
19933,Sussex County,DE,56.0126582278481,NA,NA
19939,Sussex County,DE,NA,64.77832512315271,NA
19950,Sussex County,DE,NA,NA,77.26218097447796
19956,Sussex County,DE,72.78481012658227,NA,NA
19958,Sussex County,DE,25.949367088607595,NA,NA
19963,Sussex County,DE,26.89873417721519,NA,NA
19966,Sussex County,DE,18.037974683544302,NA,NA
32003,Clay County,FL,NA,NA,45.243619489559165
32043,Clay County,FL,NA,19.950738916256157,NA
32065,Clay County,FL,NA,NA,90.02320185614849
32080,St. Johns County,FL,NA,NA,20.649651972157773
32114,Volusia County,FL,NA,78.57142857142857,NA
32117,Volusia County,FL,NA,41.37931034482759,NA
32179,Marion County,FL,78.16455696202532,NA,NA
32210,Duval County,FL,15.50632911392405,NA,NA
32217,Duval County,FL,75,NA,NA
32218,Duval County,FL,4.113924050632911,NA,NA
32250,Duval County,FL,NA,NA,72.15777262180974
32277,Duval County,FL,NA,NA,46.635730858468676
32413,Bay County,FL,NA,92.61083743842364,NA
32507,Escambia County,FL,NA,51.970443349753694,NA
32526,Escambia County,FL,34.177215189873415,NA,NA
32533,Escambia County,FL,NA,44.58128078817734,NA
32566,Santa Rosa County,FL,NA,20.935960591133004,22.2737819025522
32578,Okaloosa County,FL,NA,77.33990147783251,NA
32656,Clay County,FL,NA,NA,45.47563805104408
32736,Lake County,FL,NA,NA,57.076566125290014
32750,Seminole County,FL,NA,65.76354679802957,NA
32751,Orange County,FL,57.27848101265823,NA,NA
32757,Lake County,FL,NA,87.4384236453202,NA
32817,Orange County,FL,NA,NA,85.84686774941996
32822,Orange County,FL,NA,NA,24.825986078886313
32907,Brevard County,FL,NA,85.71428571428571,NA
32963,Indian River County,FL,NA,66.00985221674877,NA
32966,Indian River County,FL,NA,NA,12.993039443155451
33009,Broward County,FL,NA,NA,32.71461716937355
33013,Miami-Dade County,FL,NA,54.92610837438424,NA
33055,Miami-Dade County,FL,NA,NA,90.48723897911833
33065,Broward County,FL,NA,40.39408866995074,NA
33140,Miami-Dade County,FL,NA,NA,15.54524361948956
33157,Miami-Dade County,FL,NA,19.704433497536947,NA
33161,Miami-Dade County,FL,NA,NA,29.930394431554525
33167,Miami-Dade County,FL,NA,NA,66.35730858468676
33315,Broward County,FL,85.12658227848101,NA,NA
33324,Broward County,FL,NA,NA,87.70301624129931
33328,Broward County,FL,81.9620253164557,NA,NA
33334,Broward County,FL,NA,41.13300492610838,NA
33409,Palm Beach County,FL,NA,NA,94.66357308584686
33411,Palm Beach County,FL,NA,NA,74.0139211136891
33418,Palm Beach County,FL,NA,NA,7.424593967517401
33433,Palm Beach County,FL,NA,NA,1.160092807424594
33435,Palm Beach County,FL,37.65822784810127,NA,NA
33442,Broward County,FL,NA,NA,7.192575406032482
33467,Palm Beach County,FL,NA,NA,12.064965197215777
33472,Palm Beach County,FL,NA,NA,16.241299303944317
33556,Hillsborough County,FL,NA,NA,74.0139211136891
33566,Hillsborough County,FL,NA,82.51231527093597,NA
33619,Hillsborough County,FL,27.531645569620256,NA,NA
33760,Pinellas County,FL,91.77215189873418,NA,NA
33952,Charlotte County,FL,18.9873417721519,NA,NA
33955,Charlotte County,FL,NA,NA,91.87935034802784
33957,Lee County,FL,NA,NA,53.1322505800464
34104,Collier County,FL,NA,NA,59.39675174013921
34105,Collier County,FL,NA,NA,59.62877030162414
34145,Collier County,FL,NA,61.330049261083744,NA
34209,Manatee County,FL,NA,NA,15.777262180974477
34228,Sarasota County,FL,NA,NA,32.48259860788863
34275,Sarasota County,FL,NA,25.12315270935961,NA
34465,Citrus County,FL,NA,NA,48.95591647331787
34488,Marion County,FL,57.91139240506329,NA,NA
34655,Pasco County,FL,NA,62.80788177339901,NA
34668,Pasco County,FL,9.81012658227848,NA,NA
34684,Pinellas County,FL,NA,76.84729064039408,NA
30019,Gwinnett County,GA,NA,33.497536945812804,NA
30032,DeKalb County,GA,NA,81.2807881773399,NA
30039,Gwinnett County,GA,NA,NA,71.46171693735499
30068,Cobb County,GA,NA,46.79802955665024,NA
30087,DeKalb County,GA,NA,NA,25.05800464037123
30121,Bartow County,GA,NA,43.34975369458128,NA
30144,Cobb County,GA,27.848101265822784,NA,NA
30204,Lamar County,GA,NA,70.6896551724138,NA
30233,Butts County,GA,NA,NA,67.28538283062645
30253,Henry County,GA,68.0379746835443,NA,NA
30263,Coweta County,GA,9.177215189873419,NA,NA
30286,Upson County,GA,NA,82.75862068965517,NA
30311,Fulton County,GA,NA,60.591133004926114,NA
30315,Fulton County,GA,NA,NA,30.162412993039446
30316,DeKalb County,GA,NA,38.669950738916256,NA
30349,Fulton County,GA,NA,11.330049261083744,NA
30350,Fulton County,GA,NA,NA,48.72389791183295
30434,Jefferson County,GA,NA,90.39408866995073,NA
30458,Bulloch County,GA,25.63291139240506,NA,NA
30577,Stephens County,GA,NA,96.55172413793103,NA
30711,Murray County,GA,NA,99.75369458128078,NA
30907,Columbia County,GA,19.936708860759495,NA,NA
31021,Laurens County,GA,NA,NA,37.35498839907193
31029,Monroe County,GA,100,NA,NA
31079,Wilcox County,GA,96.51898734177216,NA,NA
31210,Bibb County,GA,NA,NA,35.03480278422274
31324,Bryan County,GA,NA,58.3743842364532,NA
31516,Pierce County,GA,NA,94.58128078817734,NA
31545,Wayne County,GA,58.22784810126582,NA,NA
31636,Lowndes County,GA,NA,NA,85.38283062645012
31804,Harris County,GA,NA,NA,95.82366589327145
31904,Muscogee County,GA,NA,NA,69.37354988399072
31909,Muscogee County,GA,81.0126582278481,NA,NA
96720,Hawaii County,HI,NA,23.15270935960591,NA
96740,Hawaii County,HI,47.151898734177216,NA,NA
96744,Honolulu County,HI,NA,4.1871921182266005,NA
96797,Honolulu County,HI,72.46835443037975,NA,NA
96815,Honolulu County,HI,NA,23.891625615763548,NA
96822,Honolulu County,HI,NA,NA,66.8213457076566
83204,Bannock County,ID,NA,NA,60.556844547563806
83301,Twin Falls County,ID,NA,0.9852216748768473,NA
83316,Twin Falls County,ID,NA,NA,49.651972157772626
83401,Bonneville County,ID,NA,NA,83.9907192575406
83440,Madison County,ID,NA,58.128078817733986,NA
83501,Nez Perce County,ID,34.810126582278485,NA,NA
83672,Washington County,ID,99.36708860759494,NA,NA
83686,Canyon County,ID,93.67088607594937,NA,NA
83705,Ada County,ID,NA,39.40886699507389,NA
83706,Ada County,ID,62.34177215189873,NA,NA
83709,Ada County,ID,NA,51.231527093596064,NA
60025,Cook County,IL,33.54430379746836,NA,NA
60045,Lake County,IL,NA,NA,10.672853828306264
60046,Lake County,IL,NA,62.315270935960584,NA
60056,Cook County,IL,NA,14.285714285714285,NA
60084,Lake County,IL,NA,NA,88.63109048723898
60085,Lake County,IL,13.60759493670886,NA,NA
60108,DuPage County,IL,67.72151898734177,NA,NA
60123,Kane County,IL,NA,NA,13.921113689095128
60124,Kane County,IL,49.68354430379747,NA,NA
60133,Cook County,IL,NA,39.16256157635468,NA
60134,Kane County,IL,NA,77.58620689655173,NA
60137,DuPage County,IL,NA,NA,35.96287703016242
60153,Cook County,IL,NA,NA,39.443155452436194
60155,Cook County,IL,NA,71.67487684729063,NA
60172,DuPage County,IL,NA,34.48275862068966,NA
60187,DuPage County,IL,NA,57.635467980295566,NA
60193,Cook County,IL,NA,9.35960591133005,NA
60409,Cook County,IL,NA,28.817733990147783,NA
60411,Cook County,IL,58.54430379746836,9.852216748768473,NA
60459,Cook County,IL,52.84810126582279,NA,NA
60510,Kane County,IL,54.43037974683544,NA,NA
60526,Cook County,IL,NA,NA,96.2877030162413
60611,Cook County,IL,NA,73.39901477832512,NA
60613,Cook County,IL,NA,NA,55.91647331786543
60624,Cook County,IL,36.708860759493675,NA,NA
60638,Cook County,IL,NA,NA,3.248259860788863
60644,Cook County,IL,NA,NA,88.39907192575406
60653,Cook County,IL,NA,28.078817733990146,NA
60804,Cook County,IL,40.822784810126585,NA,NA
61107,Winnebago County,IL,NA,67.24137931034483,NA
61350,LaSalle County,IL,NA,NA,63.80510440835266
61362,Bureau County,IL,NA,NA,82.5986078886311
61605,Peoria County,IL,NA,NA,87.23897911832947
61701,McLean County,IL,NA,92.85714285714286,NA
61704,McLean County,IL,NA,NA,89.0951276102088
62420,Clark County,IL,NA,94.33497536945814,NA
62454,Crawford County,IL,NA,NA,43.619489559164734
62471,Fayette County,IL,97.46835443037975,NA,36.65893271461717
62837,Wayne County,IL,NA,NA,90.71925754060325
46131,Johnson County,IN,NA,83.99014778325123,NA
46142,Johnson County,IN,NA,NA,17.40139211136891
46173,Rush County,IN,45.25316455696203,NA,NA
46176,Shelby County,IN,NA,50.73891625615764,NA
46184,Johnson County,IN,NA,NA,92.5754060324826
46217,Marion County,IN,40.50632911392405,NA,NA
46226,Marion County,IN,NA,NA,18.793503480278424
46229,Marion County,IN,44.936708860759495,NA,NA
46240,Marion County,IN,74.68354430379746,NA,NA
46268,Marion County,IN,35.75949367088608,NA,NA
46310,Jasper County,IN,41.45569620253164,NA,NA
46323,Lake County,IN,NA,NA,26.91415313225058
46342,Lake County,IN,NA,13.30049261083744,NA
46368,Porter County,IN,NA,1.9704433497536946,NA
46407,Lake County,IN,NA,95.07389162561576,70.99767981438515
46750,Huntington County,IN,98.41772151898735,NA,NA
46902,Howard County,IN,NA,NA,5.56844547563805
47006,Ripley County,IN,98.73417721518987,NA,NA
47025,Dearborn County,IN,31.0126582278481,NA,NA
47112,Harrison County,IN,89.87341772151899,NA,NA
47136,Harrison County,IN,NA,99.26108374384236,NA
47203,Bartholomew County,IN,NA,NA,10.208816705336426
47304,Delaware County,IN,NA,NA,32.25058004640371
47362,Henry County,IN,NA,NA,45.93967517401392
47501,Daviess County,IN,NA,22.906403940886698,NA
47714,Vanderburgh County,IN,NA,16.748768472906402,NA
47960,White County,IN,NA,80.54187192118226,NA
50158,Marshall County,IA,20.253164556962027,NA,NA
50310,Polk County,IA,NA,NA,70.30162412993039
50315,Polk County,IA,NA,NA,34.106728538283065
50501,Webster County,IA,18.670886075949365,NA,20.88167053364269
50616,Floyd County,IA,NA,93.8423645320197,NA
51031,Plymouth County,IA,NA,75.36945812807882,NA
52060,Jackson County,IA,72.15189873417721,NA,NA
52405,Linn County,IA,NA,34.97536945812808,NA
52501,Wapello County,IA,NA,72.66009852216749,NA
52577,Mahaska County,IA,94.30379746835443,NA,NA
52627,Lee County,IA,NA,61.57635467980296,NA
52732,Clinton County,IA,65.50632911392405,NA,NA
52761,Muscatine County,IA,NA,12.561576354679804,NA
52806,Scott County,IA,NA,57.88177339901478,NA
52807,Scott County,IA,NA,67.48768472906403,NA
66062,Johnson County,KS,NA,15.270935960591133,NA
66604,Shawnee County,KS,NA,NA,30.39443155452436
40031,Oldham County,KY,NA,76.10837438423646,NA
40175,Hardin County,KY,46.51898734177215,NA,NA
40291,Jefferson County,KY,13.291139240506327,NA,NA
40361,Bourbon County,KY,28.48101265822785,NA,NA
40509,Fayette County,KY,NA,33.004926108374384,NA
41018,Kenton County,KY,89.24050632911393,NA,NA
41091,Boone County,KY,NA,NA,43.851508120649655
41102,Boyd County,KY,NA,NA,17.16937354988399
41179,Lewis County,KY,NA,60.3448275862069,NA
42001,McCracken County,KY,88.60759493670885,NA,NA
42211,Trigg County,KY,NA,93.34975369458128,NA
42220,Todd County,KY,NA,NA,76.5661252900232
42240,Christian County,KY,NA,81.03448275862068,NA
42431,Hopkins County,KY,66.13924050632912,NA,NA
42602,Clinton County,KY,NA,57.389162561576356,NA
70003,Jefferson Parish,LA,6.962025316455696,NA,NA
70006,Jefferson Parish,LA,NA,88.66995073891626,NA
70068,St. John the Baptist Parish,LA,NA,41.87192118226601,NA
70346,Ascension Parish,LA,98.10126582278481,NA,NA
70354,Lafourche Parish,LA,76.26582278481013,NA,NA
70377,Terrebonne Parish,LA,55.379746835443036,NA,NA
70435,St. Tammany Parish,LA,41.139240506329116,NA,NA
70438,Washington Parish,LA,NA,NA,12.761020881670534
70452,St. Tammany Parish,LA,56.32911392405063,NA,NA
70582,St. Martin Parish,LA,NA,NA,46.403712296983755
70584,St. Landry Parish,LA,NA,NA,97.4477958236659
70737,Ascension Parish,LA,NA,NA,26.218097447795824
70817,East Baton Rouge Parish,LA,NA,15.024630541871922,NA
71105,Caddo Parish,LA,30.69620253164557,NA,NA
71109,Caddo Parish,LA,NA,23.39901477832512,NA
71111,Bossier Parish,LA,5.379746835443038,NA,NA
71269,Richland Parish,LA,NA,NA,99.07192575406032
03909,York County,ME,NA,NA,32.94663573085847
04011,Cumberland County,ME,NA,NA,13.45707656612529
04046,York County,ME,NA,NA,52.66821345707656
04084,Cumberland County,ME,NA,98.27586206896551,NA
04101,Cumberland County,ME,NA,48.52216748768473,NA
04240,Androscoggin County,ME,47.78481012658228,NA,0.9280742459396751
04330,Kennebec County,ME,NA,7.389162561576355,NA
04401,Penobscot County,ME,NA,1.7241379310344827,NA
20603,Charles County,MD,NA,69.70443349753694,NA
20748,Prince George's County,MD,35.44303797468354,NA,37.58700696055685
20785,Prince George's County,MD,43.9873417721519,NA,NA
21043,Howard County,MD,84.81012658227847,NA,NA
21047,Harford County,MD,NA,NA,98.14385150812065
21061,Anne Arundel County,MD,NA,NA,68.67749419953596
21133,Baltimore County,MD,NA,NA,31.786542923433874
21201,Baltimore city,MD,NA,90.64039408866995,NA
21205,Baltimore city,MD,95.88607594936708,NA,NA
21207,Baltimore County,MD,NA,NA,81.67053364269141
21213,Baltimore city,MD,14.556962025316455,NA,NA
21221,Baltimore County,MD,NA,86.45320197044335,NA
21223,Baltimore city,MD,NA,NA,51.508120649651964
21228,Baltimore County,MD,NA,11.822660098522167,NA
21244,Baltimore County,MD,NA,NA,72.38979118329466
21620,Kent County,MD,NA,48.275862068965516,NA
21773,Frederick County,MD,NA,98.52216748768473,NA
01301,Franklin County,MA,NA,NA,61.7169373549884
01570,Worcester County,MA,4.746835443037975,NA,NA
01603,Worcester County,MA,53.79746835443038,NA,NA
01742,Middlesex County,MA,NA,NA,23.201856148491878
01754,Middlesex County,MA,52.53164556962025,NA,NA
01854,Middlesex County,MA,NA,27.339901477832512,NA
01887,Middlesex County,MA,6.6455696202531636,NA,NA
01902,Essex County,MA,0.6329113924050633,NA,NA
01906,Essex County,MA,NA,NA,4.872389791183294
01966,Essex County,MA,53.16455696202531,NA,NA
02021,Norfolk County,MA,NA,NA,29.00232018561485
02048,Bristol County,MA,NA,NA,54.75638051044084
02119,Suffolk County,MA,2.848101265822785,NA,NA
02121,Suffolk County,MA,NA,0,3.0162412993039442
02130,Suffolk County,MA,40.189873417721515,NA,NA
02131,Suffolk County,MA,2.5316455696202533,NA,NA
02132,Suffolk County,MA,NA,2.4630541871921183,NA
02138,Middlesex County,MA,NA,NA,10.440835266821345
02149,Middlesex County,MA,NA,NA,1.3921113689095126
02150,Suffolk County,MA,0.949367088607595,NA,NA
02151,Suffolk County,MA,0.31645569620253167,7.635467980295567,NA
02155,Middlesex County,MA,NA,NA,6.0324825986078885
02180,Middlesex County,MA,NA,NA,8.352668213457076
02184,Norfolk County,MA,NA,NA,6.2645011600928076
02339,Plymouth County,MA,NA,NA,93.27146171693735
02346,Plymouth County,MA,NA,75.61576354679804,24.129930394431554
02382,Plymouth County,MA,83.86075949367088,NA,NA
02532,Barnstable County,MA,44.303797468354425,NA,NA
02554,Nantucket County,MA,NA,NA,46.635730858468676
02740,Bristol County,MA,0,NA,NA
02766,Bristol County,MA,NA,87.68472906403942,NA
02769,Bristol County,MA,37.34177215189873,NA,NA
02780,Bristol County,MA,NA,NA,47.56380510440835
48035,Macomb County,MI,85.44303797468355,NA,NA
48072,Oakland County,MI,39.87341772151899,NA,NA
48152,Wayne County,MI,NA,28.57142857142857,NA
48154,Wayne County,MI,45.56962025316456,NA,NA
48166,Monroe County,MI,32.594936708860764,NA,NA
48195,Wayne County,MI,NA,NA,41.9953596287703
48202,Wayne County,MI,48.41772151898734,NA,NA
48215,Wayne County,MI,73.73417721518987,NA,NA
48230,Wayne County,MI,NA,95.8128078817734,NA
48234,Wayne County,MI,NA,96.05911330049261,NA
48235,Wayne County,MI,NA,4.433497536945813,NA
48236,Wayne County,MI,NA,NA,8.120649651972158
48304,Oakland County,MI,NA,40.64039408866995,NA
48307,Oakland County,MI,NA,NA,83.75870069605568
48310,Macomb County,MI,NA,12.31527093596059,NA
48377,Oakland County,MI,NA,NA,65.66125290023201
48436,Genesee County,MI,95.56962025316456,NA,NA
48446,Lapeer County,MI,NA,21.921182266009854,NA
48618,Midland County,MI,NA,NA,64.50116009280742
48640,Midland County,MI,8.544303797468354,NA,NA
48661,Ogemaw County,MI,NA,NA,86.07888631090486
48809,Ionia County,MI,52.21518987341772,NA,NA
48910,Ingham County,MI,NA,NA,75.4060324825986
49098,Berrien County,MI,NA,95.56650246305419,NA
49120,Berrien County,MI,NA,NA,38.2830626450116
49221,Lenawee County,MI,NA,NA,5.336426914153132
49417,Ottawa County,MI,NA,NA,11.832946635730858
49423,Ottawa County,MI,NA,NA,66.12529002320186
49424,Ottawa County,MI,NA,NA,31.554524361948953
49426,Ottawa County,MI,NA,90.14778325123153,NA
49509,Kent County,MI,10.443037974683545,NA,NA
49548,Kent County,MI,NA,13.793103448275861,NA
49696,Grand Traverse County,MI,61.07594936708861,NA,NA
49735,Otsego County,MI,NA,NA,19.721577726218097
55082,Washington County,MN,NA,NA,72.62180974477958
55105,Ramsey County,MN,NA,NA,58.93271461716937
55109,Ramsey County,MN,NA,NA,23.4338747099768
55303,Anoka County,MN,NA,29.310344827586203,84.45475638051045
55328,Wright County,MN,NA,NA,70.06960556844548
55404,Hennepin County,MN,NA,3.9408866995073892,NA
55418,Hennepin County,MN,46.835443037974684,NA,NA
55422,Hennepin County,MN,22.468354430379748,NA,NA
55439,Hennepin County,MN,NA,92.11822660098522,NA
55744,Itasca County,MN,37.0253164556962,NA,3.480278422273782
55746,St. Louis County,MN,NA,53.20197044334976,93.03944315545245
55803,St. Louis County,MN,NA,NA,25.754060324825982
55811,St. Louis County,MN,NA,51.47783251231527,NA
56007,Freeborn County,MN,NA,NA,11.36890951276102
56267,Stevens County,MN,NA,42.610837438423644,NA
56352,Stearns County,MN,NA,NA,57.772621809744784
56377,Stearns County,MN,60.75949367088608,NA,NA
56537,Otter Tail County,MN,NA,NA,67.98143851508121
56721,Polk County,MN,43.35443037974683,NA,NA
38635,Marshall County,MS,60.12658227848101,NA,NA
38637,DeSoto County,MS,NA,NA,82.36658932714617
38683,Tippah County,MS,NA,NA,64.96519721577727
38701,Washington County,MS,94.62025316455697,NA,NA
38703,Washington County,MS,NA,NA,62.41299303944315
38732,Bolivar County,MS,NA,32.51231527093596,NA
38804,Lee County,MS,56.64556962025317,NA,NA
38930,Leflore County,MS,88.29113924050634,NA,NA
38967,Montgomery County,MS,92.40506329113924,NA,72.8538283062645
39059,Copiah County,MS,NA,NA,65.89327146171694
39074,Scott County,MS,NA,86.69950738916256,NA
39191,Copiah County,MS,NA,91.13300492610837,NA
39203,Hinds County,MS,NA,NA,77.7262180974478
39204,Hinds County,MS,17.088607594936708,NA,NA
39305,Lauderdale County,MS,NA,NA,64.73317865429235
39428,Covington County,MS,NA,NA,70.53364269141531
39452,George County,MS,83.54430379746836,NA,NA
39520,Hancock County,MS,86.70886075949366,NA,NA
63010,Jefferson County,MO,NA,NA,42.92343387470998
63028,Jefferson County,MO,76.58227848101265,NA,NA
63031,St. Louis County,MO,38.607594936708864,NA,NA
63080,Franklin County,MO,83.22784810126582,NA,NA
63108,St. Louis city,MO,63.29113924050633,NA,NA
63113,St. Louis city,MO,50,NA,NA
63116,St. Louis city,MO,NA,NA,39.675174013921115
63119,St. Louis County,MO,51.58227848101266,NA,NA
63120,St. Louis city,MO,NA,NA,97.91183294663574
63122,St. Louis County,MO,NA,22.167487684729064,NA
63125,St. Louis County,MO,NA,25.36945812807882,NA
63135,St. Louis County,MO,NA,26.84729064039409,NA
63144,St. Louis County,MO,NA,NA,95.59164733178655
63301,St. Charles County,MO,NA,5.172413793103448,16.009280742459396
63645,Madison County,MO,NA,NA,85.1508120649652
63701,Cape Girardeau County,MO,30.37974683544304,NA,16.70533642691415
63857,Dunklin County,MO,NA,NA,88.63109048723898
64117,Clay County,MO,NA,36.206896551724135,NA
64130,Jackson County,MO,NA,NA,27.1461716937355
64133,Jackson County,MO,NA,59.11330049261084,NA
64134,Jackson County,MO,NA,56.896551724137936,NA
64151,Platte County,MO,71.51898734177216,NA,NA
64506,Buchanan County,MO,14.240506329113925,NA,NA
65202,Boone County,MO,NA,20.689655172413794,NA
65746,Webster County,MO,NA,NA,78.42227378190255
65804,Greene County,MO,22.151898734177212,NA,NA
68352,Jefferson County,NE,NA,NA,68.44547563805105
68506,Lancaster County,NE,NA,NA,31.09048723897912
68776,Dakota County,NE,NA,NA,93.7354988399072
69101,Lincoln County,NE,NA,93.59605911330048,78.88631090487239
89103,Clark County,NV,NA,77.83251231527095,NA
89108,Clark County,NV,NA,33.251231527093594,NA
89128,Clark County,NV,NA,55.66502463054187,NA
89134,Clark County,NV,NA,64.5320197044335,NA
89183,Clark County,NV,NA,65.27093596059113,NA
89506,Washoe County,NV,NA,27.093596059113302,NA
89512,Washoe County,NV,NA,62.5615763546798,NA
03032,Rockingham County,NH,NA,NA,81.4385150812065
03038,Rockingham County,NH,NA,NA,18.097447795823665
03062,Hillsborough County,NH,68.9873417721519,NA,NA
03104,Hillsborough County,NH,11.075949367088606,NA,NA
03249,Belknap County,NH,NA,NA,98.83990719257541
03301,Merrimack County,NH,NA,NA,48.027842227378194
03303,Merrimack County,NH,NA,NA,84.91879350348029
03773,Sullivan County,NH,NA,NA,60.32482598607889
07002,Hudson County,NJ,37.9746835443038,NA,NA
07018,Essex County,NJ,NA,NA,76.10208816705337
07024,Bergen County,NJ,NA,33.743842364532014,NA
07032,Hudson County,NJ,NA,28.32512315270936,NA
07079,Essex County,NJ,NA,89.4088669950739,NA
07081,Union County,NJ,NA,NA,71.22969837587007
07087,Hudson County,NJ,NA,NA,3.7122969837587005
07094,Hudson County,NJ,NA,NA,45.707656612529
07103,Essex County,NJ,2.2151898734177213,NA,NA
07104,Essex County,NJ,1.5822784810126582,NA,NA
07109,Essex County,NJ,NA,NA,64.2691415313225
07112,Essex County,NJ,3.79746835443038,NA,NA
07405,Morris County,NJ,NA,60.83743842364532,NA
07470,Passaic County,NJ,NA,5.665024630541872,NA
07514,Passaic County,NJ,NA,54.187192118226605,NA
07701,Monmouth County,NJ,NA,NA,87.00696055684455
07801,Morris County,NJ,NA,26.108374384236456,NA
07882,Warren County,NJ,96.83544303797468,NA,NA
08009,Camden County,NJ,NA,49.26108374384236,NA
08016,Burlington County,NJ,38.924050632911396,NA,NA
08028,Gloucester County,NJ,NA,NA,49.187935034802784
08055,Burlington County,NJ,NA,NA,54.060324825986086
08085,Gloucester County,NJ,17.72151898734177,NA,NA
08087,Ocean County,NJ,NA,14.77832512315271,NA
08232,Atlantic County,NJ,NA,NA,73.54988399071925
08302,Cumberland County,NJ,NA,60.09852216748769,NA
08360,Cumberland County,NJ,NA,88.91625615763546,NA
08701,Ocean County,NJ,NA,NA,29.23433874709977
08721,Ocean County,NJ,NA,66.50246305418719,NA
08723,Ocean County,NJ,84.49367088607595,NA,NA
08750,Monmouth County,NJ,NA,NA,99.30394431554525
08822,Hunterdon County,NJ,87.34177215189874,NA,NA
08837,Middlesex County,NJ,NA,69.45812807881774,NA
08879,Middlesex County,NJ,25,NA,NA
87108,Bernalillo County,NM,NA,89.16256157635468,NA
87120,Bernalillo County,NM,NA,13.546798029556651,NA
87121,Bernalillo County,NM,NA,6.896551724137931,NA
87123,Bernalillo County,NM,10.126582278481013,NA,NA
87301,McKinley County,NM,19.62025316455696,NA,NA
88101,Curry County,NM,NA,NA,3.944315545243619
88260,Lea County,NM,NA,NA,97.6798143851508
88310,Otero County,NM,44.620253164556964,38.42364532019704,NA
10018,New York County,NY,NA,NA,75.87006960556845
10036,New York County,NY,NA,NA,42.22737819025522
10040,New York County,NY,24.050632911392405,NA,NA
10304,Richmond County,NY,NA,19.21182266009852,NA
10452,Bronx County,NY,NA,20.19704433497537,8.584686774941995
10460,Bronx County,NY,NA,1.477832512315271,NA
10463,Bronx County,NY,NA,23.645320197044335,NA
10472,Bronx County,NY,NA,NA,12.296983758700696
10475,Bronx County,NY,NA,10.098522167487685,NA
10801,Westchester County,NY,NA,NA,25.52204176334107
10940,Orange County,NY,NA,14.039408866995073,NA
10970,Rockland County,NY,NA,82.26600985221675,NA
11003,Nassau County,NY,NA,68.7192118226601,NA
11050,Nassau County,NY,NA,NA,22.505800464037122
11212,Kings County,NY,NA,NA,5.104408352668213
11214,Kings County,NY,NA,NA,5.800464037122969
11221,Kings County,NY,12.341772151898734,NA,NA
11229,Kings County,NY,NA,18.226600985221676,NA
11230,Kings County,NY,NA,9.113300492610838,NA
11234,Kings County,NY,NA,NA,12.529002320185615
11413,Queens County,NY,NA,NA,93.50348027842227
11429,Queens County,NY,NA,NA,51.27610208816705
11554,Nassau County,NY,NA,37.4384236453202,NA
11561,Nassau County,NY,NA,NA,16.473317865429234
11691,Queens County,NY,NA,29.802955665024633,NA
11693,Queens County,NY,NA,77.0935960591133,NA
11726,Suffolk County,NY,60.44303797468354,NA,NA
11727,Suffolk County,NY,NA,NA,86.77494199535964
11731,Suffolk County,NY,NA,NA,47.33178654292343
11747,Suffolk County,NY,NA,89.90147783251231,NA
11756,Nassau County,NY,NA,56.40394088669951,NA
11788,Suffolk County,NY,NA,NA,86.3109048723898
11795,Suffolk County,NY,61.39240506329114,NA,NA
11801,Nassau County,NY,90.50632911392405,NA,NA
12025,Fulton County,NY,99.68354430379746,NA,NA
12202,Albany County,NY,NA,85.22167487684729,NA
12203,Albany County,NY,NA,NA,27.842227378190255
12204,Albany County,NY,NA,89.4088669950739,97.21577726218096
12206,Albany County,NY,NA,38.91625615763547,NA
12446,Ulster County,NY,82.91139240506328,NA,NA
12832,Washington County,NY,NA,NA,58.0046403712297
13021,Cayuga County,NY,NA,15.517241379310345,79.11832946635731
13032,Madison County,NY,NA,NA,96.98375870069606
13045,Cortland County,NY,14.873417721518987,NA,31.322505800464036
13053,Tompkins County,NY,NA,NA,93.96751740139212
13077,Cortland County,NY,NA,53.44827586206896,NA
13090,Onondaga County,NY,50.63291139240506,NA,NA
13492,Oneida County,NY,NA,NA,44.08352668213457
13662,St. Lawrence County,NY,NA,39.6551724137931,NA
13669,St. Lawrence County,NY,NA,NA,39.21113689095127
13820,Otsego County,NY,8.227848101265822,NA,54.524361948955914
14057,Erie County,NY,NA,NA,80.04640371229699
14127,Erie County,NY,NA,NA,71.92575406032483
14221,Erie County,NY,NA,NA,10.904872389791183
14223,Erie County,NY,NA,31.773399014778324,NA
14304,Niagara County,NY,NA,4.926108374384237,NA
14606,Monroe County,NY,NA,11.576354679802956,NA
14609,Monroe County,NY,1.2658227848101267,NA,NA
14616,Monroe County,NY,NA,NA,21.11368909512761
14617,Monroe County,NY,NA,6.157635467980295,NA
14624,Monroe County,NY,NA,NA,7.65661252900232
14838,Chemung County,NY,94.9367088607595,NA,NA
14843,Steuben County,NY,NA,27.586206896551722,NA
14845,Chemung County,NY,NA,NA,94.43155452436194
14850,Tompkins County,NY,NA,NA,22.041763341067284
27006,Davie County,NC,NA,NA,13.225058004640372
27030,Surry County,NC,NA,NA,21.34570765661253
27107,Forsyth County,NC,NA,NA,60.092807424593964
27215,Alamance County,NC,NA,6.403940886699508,NA
27288,Rockingham County,NC,NA,21.182266009852217,NA
27292,Davidson County,NC,4.430379746835443,NA,NA
27360,Davidson County,NC,69.62025316455697,NA,NA
27405,Guilford County,NC,29.430379746835445,NA,NA
27406,Guilford County,NC,42.08860759493671,NA,NA
27410,Guilford County,NC,NA,63.30049261083743,NA
27501,Harnett County,NC,NA,NA,51.04408352668214
27509,Granville County,NC,91.13924050632912,NA,NA
27536,Vance County,NC,NA,52.70935960591133,NA
27574,Person County,NC,NA,NA,49.88399071925754
27576,Johnston County,NC,NA,NA,41.29930394431555
27587,Wake County,NC,NA,76.60098522167488,NA
27616,Wake County,NC,NA,30.541871921182267,NA
27703,Durham County,NC,29.11392405063291,NA,NA
27704,Durham County,NC,NA,NA,68.21345707656613
27855,Hertford County,NC,70.88607594936708,NA,NA
27910,Hertford County,NC,75.31645569620254,NA,NA
28021,Gaston County,NC,86.07594936708861,NA,NA
28025,Cabarrus County,NC,NA,NA,66.5893271461717
28027,Cabarrus County,NC,NA,55.172413793103445,NA
28040,Rutherford County,NC,NA,NA,75.63805104408353
28078,Mecklenburg County,NC,23.734177215189874,NA,NA
28081,Cabarrus County,NC,79.74683544303798,NA,NA
28092,Lincoln County,NC,16.455696202531644,NA,NA
28097,Stanly County,NC,NA,NA,80.74245939675174
28110,Union County,NC,NA,NA,52.90023201856149
28114,Rutherford County,NC,NA,NA,91.64733178654292
28215,Mecklenburg County,NC,NA,NA,23.897911832946637
28216,Mecklenburg County,NC,NA,NA,19.953596287703014
28278,Mecklenburg County,NC,NA,NA,63.57308584686775
28315,Moore County,NC,79.11392405063292,NA,NA
28334,Sampson County,NC,NA,50.98522167487685,NA
28384,Bladen County,NC,82.59493670886076,NA,NA
28433,Bladen County,NC,NA,NA,98.60788863109049
28465,Brunswick County,NC,NA,45.566502463054185,NA
28504,Lenoir County,NC,NA,NA,86.5429234338747
28516,Carteret County,NC,NA,46.05911330049261,NA
28525,Lenoir County,NC,NA,91.37931034482759,NA
28557,Carteret County,NC,NA,NA,37.81902552204176
28560,Craven County,NC,NA,NA,36.89095127610209
28602,Catawba County,NC,16.139240506329113,NA,NA
28613,Catawba County,NC,NA,82.01970443349754,NA
28645,Caldwell County,NC,NA,30.049261083743843,27.1461716937355
28681,Alexander County,NC,NA,32.26600985221675,NA
58072,Barnes County,ND,NA,NA,74.47795823665894
58701,Ward County,ND,NA,NA,0.46403712296983757
43028,Knox County,OH,NA,NA,55.22041763341067
43055,Licking County,OH,NA,NA,19.25754060324826
43061,Delaware County,OH,NA,97.04433497536947,NA
43062,Licking County,OH,NA,NA,70.76566125290023
43078,Champaign County,OH,51.89873417721519,NA,NA
43082,Delaware County,OH,NA,NA,30.62645011600928
43085,Franklin County,OH,NA,90.88669950738915,NA
43113,Pickaway County,OH,NA,NA,28.538283062645007
43130,Fairfield County,OH,NA,3.4482758620689653,NA
43205,Franklin County,OH,NA,NA,60.78886310904872
43223,Franklin County,OH,5.69620253164557,NA,NA
43302,Marion County,OH,35.12658227848101,NA,NA
43315,Morrow County,OH,NA,94.82758620689656,NA
43449,Ottawa County,OH,NA,64.03940886699507,NA
43558,Fulton County,OH,NA,38.17733990147783,NA
43606,Lucas County,OH,NA,52.463054187192114,NA
43607,Lucas County,OH,6.012658227848101,NA,NA
43612,Lucas County,OH,NA,16.00985221674877,NA
43725,Guernsey County,OH,NA,7.8817733990147785,NA
43812,Coshocton County,OH,89.55696202531645,NA,NA
44017,Cuyahoga County,OH,NA,NA,21.809744779582367
44024,Geauga County,OH,NA,NA,73.54988399071925
44060,Lake County,OH,NA,0.49261083743842365,NA
44062,Geauga County,OH,NA,86.94581280788178,NA
44067,Summit County,OH,NA,42.364532019704434,9.744779582366588
44070,Cuyahoga County,OH,NA,25.862068965517242,37.12296983758701
44105,Cuyahoga County,OH,1.89873417721519,0.24630541871921183,NA
44106,Cuyahoga County,OH,8.860759493670885,NA,NA
44108,Cuyahoga County,OH,NA,6.65024630541872,NA
44124,Cuyahoga County,OH,NA,NA,0.23201856148491878
44125,Cuyahoga County,OH,54.74683544303798,NA,NA
44128,Cuyahoga County,OH,3.481012658227848,2.2167487684729066,NA
44130,Cuyahoga County,OH,NA,9.60591133004926,NA
44134,Cuyahoga County,OH,NA,2.955665024630542,NA
44143,Cuyahoga County,OH,77.84810126582279,NA,0.6960556844547563
44203,Summit County,OH,NA,NA,4.640371229698376
44212,Medina County,OH,NA,0.7389162561576355,NA
44224,Summit County,OH,NA,NA,75.1740139211137
44233,Medina County,OH,NA,45.073891625615765,NA
44266,Portage County,OH,NA,NA,24.593967517401392
44278,Summit County,OH,NA,35.960591133004925,NA
44306,Summit County,OH,NA,29.064039408866993,NA
44319,Summit County,OH,NA,NA,14.617169373549885
44333,Summit County,OH,NA,35.221674876847295,NA
44413,Columbiana County,OH,NA,56.65024630541872,NA
44420,Trumbull County,OH,28.79746835443038,NA,NA
44442,Mahoning County,OH,84.17721518987342,NA,NA
44446,Trumbull County,OH,10.759493670886076,NA,NA
44485,Trumbull County,OH,NA,NA,28.770301624129928
44511,Mahoning County,OH,17.405063291139243,83.00492610837439,NA
44683,Tuscarawas County,OH,NA,78.07881773399015,NA
44685,Summit County,OH,NA,NA,69.60556844547564
44691,Wayne County,OH,49.050632911392405,25.615763546798032,NA
44703,Stark County,OH,NA,NA,96.75174013921114
44805,Ashland County,OH,31.962025316455694,NA,18.561484918793504
44870,Erie County,OH,3.1645569620253164,NA,NA
45013,Butler County,OH,NA,NA,2.784222737819025
45014,Butler County,OH,NA,17.48768472906404,NA
45213,Hamilton County,OH,NA,NA,63.341067285382834
45215,Hamilton County,OH,NA,NA,78.19025522041764
45229,Hamilton County,OH,62.65822784810127,NA,NA
45237,Hamilton County,OH,47.46835443037975,NA,NA
45238,Hamilton County,OH,59.17721518987342,NA,NA
45243,Hamilton County,OH,91.45569620253164,NA,NA
45245,Clermont County,OH,NA,NA,53.596287703016245
45406,Montgomery County,OH,NA,33.99014778325123,NA
45426,Montgomery County,OH,NA,NA,65.19721577726219
45449,Montgomery County,OH,NA,37.93103448275862,NA
45503,Clark County,OH,NA,12.068965517241379,NA
45601,Ross County,OH,NA,NA,0
45640,Jackson County,OH,21.518987341772153,NA,NA
45806,Allen County,OH,NA,50.24630541871922,NA
73036,Canadian County,OK,56.9620253164557,NA,NA
73075,Garvin County,OK,NA,NA,89.79118329466357
73080,McClain County,OK,63.92405063291139,NA,NA
73107,Oklahoma County,OK,NA,91.87192118226602,NA
73119,Oklahoma County,OK,NA,NA,51.972157772621806
73159,Oklahoma County,OK,NA,24.137931034482758,NA
73505,Comanche County,OK,NA,NA,79.58236658932715
74012,Tulsa County,OK,76.89873417721519,NA,NA
74066,Creek County,OK,NA,NA,65.19721577726219
74403,Muskogee County,OK,NA,64.28571428571429,NA
74426,McIntosh County,OK,NA,72.9064039408867,NA
74464,Cherokee County,OK,25.31645569620253,NA,NA
74804,Pottawatomie County,OK,50.9493670886076,NA,NA
97015,Clackamas County,OR,64.55696202531645,NA,NA
97078,Washington County,OR,NA,46.30541871921182,NA
97086,Clackamas County,OR,NA,NA,89.55916473317865
97219,Multnomah County,OR,NA,NA,82.13457076566125
97322,Linn County,OR,NA,13.054187192118228,6.728538283062645
97333,Benton County,OR,88.92405063291139,NA,NA
97426,Lane County,OR,NA,92.36453201970444,NA
97478,Lane County,OR,NA,36.94581280788177,NA
97479,Douglas County,OR,NA,NA,92.80742459396751
97501,Jackson County,OR,7.59493670886076,10.83743842364532,NA
97504,Jackson County,OR,93.35443037974683,NA,20.417633410672853
97524,Jackson County,OR,NA,NA,56.148491879350345
15001,Beaver County,PA,NA,75.1231527093596,NA
15063,Washington County,PA,NA,NA,69.1415313225058
15122,Allegheny County,PA,NA,NA,14.153132250580047
15209,Allegheny County,PA,NA,NA,41.53132250580047
15236,Allegheny County,PA,NA,NA,32.94663573085847
15241,Allegheny County,PA,NA,NA,38.74709976798144
15301,Washington County,PA,NA,40.14778325123153,NA
15317,Washington County,PA,NA,8.620689655172415,NA
15522,Bedford County,PA,NA,NA,41.067285382830626
15666,Westmoreland County,PA,63.60759493670886,NA,9.976798143851507
15701,Indiana County,PA,42.721518987341774,NA,NA
15767,Jefferson County,PA,NA,66.25615763546799,NA
15825,Jefferson County,PA,NA,NA,21.57772621809745
16101,Lawrence County,PA,65.18987341772153,44.827586206896555,NA
16121,Mercer County,PA,NA,96.79802955665025,NA
16148,Mercer County,PA,NA,19.458128078817737,NA
16417,Erie County,PA,NA,NA,98.37587006960557
16502,Erie County,PA,33.22784810126582,NA,NA
16648,Blair County,PA,NA,NA,36.19489559164733
16701,McKean County,PA,12.974683544303797,NA,NA
16801,Centre County,PA,NA,NA,35.498839907192576
17042,Lebanon County,PA,5.063291139240507,NA,NA
17057,Dauphin County,PA,NA,NA,33.4106728538283
17059,Juniata County,PA,NA,83.74384236453201,NA
17112,Dauphin County,PA,12.658227848101266,NA,NA
17201,Franklin County,PA,NA,18.7192118226601,NA
17340,Adams County,PA,NA,NA,81.90255220417633
17402,York County,PA,NA,NA,74.94199535962876
17815,Columbia County,PA,NA,10.344827586206897,NA
18013,Northampton County,PA,NA,95.32019704433498,NA
18017,Northampton County,PA,NA,84.97536945812809,NA
18091,Northampton County,PA,NA,NA,48.49187935034803
18201,Luzerne County,PA,NA,47.53694581280788,NA
18301,Monroe County,PA,81.64556962025317,NA,NA
18421,Susquehanna County,PA,93.0379746835443,NA,NA
18603,Columbia County,PA,11.39240506329114,NA,NA
18657,Wyoming County,PA,NA,NA,46.17169373549884
18701,Luzerne County,PA,NA,99.01477832512316,NA
18704,Luzerne County,PA,11.708860759493671,NA,NA
18966,Bucks County,PA,NA,10.591133004926109,NA
18974,Bucks County,PA,NA,NA,2.088167053364269
19008,Delaware County,PA,NA,NA,58.23665893271461
19018,Delaware County,PA,68.67088607594937,NA,NA
19050,Delaware County,PA,NA,12.807881773399016,NA
19115,Philadelphia County,PA,NA,NA,9.048723897911833
19126,Philadelphia County,PA,NA,72.16748768472905,NA
19133,Philadelphia County,PA,NA,NA,100
19137,Philadelphia County,PA,87.65822784810126,NA,NA
19139,Philadelphia County,PA,NA,44.33497536945813,NA
19143,Philadelphia County,PA,NA,NA,6.960556844547564
19148,Philadelphia County,PA,7.2784810126582276,NA,11.600928074245939
19149,Philadelphia County,PA,NA,NA,50.580046403712295
19312,Chester County,PA,NA,NA,91.415313225058
19335,Chester County,PA,NA,NA,26.450116009280745
19401,Montgomery County,PA,24.68354430379747,NA,NA
19444,Montgomery County,PA,NA,NA,61.48491879350348
19604,Berks County,PA,NA,NA,83.06264501160094
19605,Berks County,PA,23.10126582278481,NA,NA
02816,Kent County,RI,NA,NA,20.185614849187935
02830,Providence County,RI,NA,70.19704433497537,NA
02904,Providence County,RI,NA,NA,13.68909512761021
02906,Providence County,RI,NA,NA,36.42691415313225
02908,Providence County,RI,NA,30.78817733990148,NA
02915,Providence County,RI,NA,67.98029556650246,NA
29040,Sumter County,SC,NA,98.0295566502463,NA
29178,Newberry County,SC,95.25316455696202,NA,NA
29301,Spartanburg County,SC,NA,31.527093596059114,NA
29403,Charleston County,SC,99.0506329113924,NA,77.26218097447796
29405,Charleston County,SC,21.202531645569618,NA,NA
29630,Pickens County,SC,NA,81.5270935960591,NA
29642,Pickens County,SC,NA,84.48275862068965,NA
29678,Oconee County,SC,NA,NA,58.46867749419954
29715,York County,SC,53.48101265822785,NA,NA
29720,Lancaster County,SC,NA,24.63054187192118,NA
29835,McCormick County,SC,NA,58.620689655172406,NA
29860,Edgefield County,SC,NA,NA,53.36426914153132
57103,Minnehaha County,SD,NA,5.41871921182266,NA
57747,Fall River County,SD,NA,53.94088669950739,NA
37115,Davidson County,TN,9.49367088607595,NA,NA
37167,Rutherford County,TN,NA,62.06896551724138,NA
37205,Davidson County,TN,NA,NA,14.849187935034802
37210,Davidson County,TN,46.20253164556962,NA,NA
37217,Davidson County,TN,NA,43.5960591133005,NA
37311,Bradley County,TN,NA,56.15763546798029,NA
37404,Hamilton County,TN,49.36708860759494,NA,NA
37419,Hamilton County,TN,NA,78.81773399014779,NA
37660,Sullivan County,TN,NA,8.374384236453201,7.888631090487238
37763,Roane County,TN,NA,34.23645320197045,NA
37818,Greene County,TN,NA,NA,96.05568445475639
37849,Knox County,TN,NA,NA,34.5707656612529
37862,Sevier County,TN,NA,NA,56.61252900232019
37876,Sevier County,TN,NA,46.55172413793103,NA
37920,Knox County,TN,NA,15.517241379310345,NA
37931,Knox County,TN,NA,79.3103448275862,NA
38127,Shelby County,TN,NA,88.42364532019704,NA
38138,Shelby County,TN,NA,NA,34.80278422273782
38558,Cumberland County,TN,NA,39.90147783251231,NA
38583,White County,TN,NA,NA,16.937354988399072
75070,Collin County,TX,NA,NA,38.05104408352668
75071,Collin County,TX,NA,97.78325123152709,NA
75074,Collin County,TX,NA,52.95566502463054,NA
75115,Dallas County,TX,NA,17.980295566502463,NA
75169,Van Zandt County,TX,NA,NA,50.34802784222738
75211,Dallas County,TX,13.924050632911392,NA,NA
75214,Dallas County,TX,NA,79.80295566502463,NA
75220,Dallas County,TX,NA,NA,99.76798143851508
75228,Dallas County,TX,6.329113924050633,NA,NA
75248,Dallas County,TX,NA,NA,28.074245939675173
75253,Dallas County,TX,NA,97.53694581280789,NA
75440,Rains County,TX,75.31645569620254,NA,NA
75442,Collin County,TX,NA,81.77339901477832,NA
75455,Titus County,TX,64.24050632911393,NA,NA
75474,Hunt County,TX,69.9367088607595,NA,NA
75501,Bowie County,TX,NA,NA,35.730858468677496
75904,Angelina County,TX,78.16455696202532,NA,NA
75979,Tyler County,TX,NA,NA,73.08584686774941
76018,Tarrant County,TX,45.88607594936709,NA,NA
76119,Tarrant County,TX,67.40506329113924,NA,NA
76133,Tarrant County,TX,NA,84.23645320197043,NA
76137,Tarrant County,TX,NA,45.320197044334975,NA
76234,Wise County,TX,NA,96.30541871921181,NA
76354,Wichita County,TX,90.82278481012658,NA,NA
76365,Clay County,TX,NA,NA,61.02088167053365
76522,Coryell County,TX,NA,NA,59.86078886310905
76712,McLennan County,TX,NA,NA,4.176334106728538
76801,Brown County,TX,41.77215189873418,NA,NA
77007,Harris County,TX,NA,NA,79.35034802784223
77013,Harris County,TX,NA,NA,71.6937354988399
77025,Harris County,TX,NA,NA,47.09976798143852
77026,Harris County,TX,NA,NA,47.79582366589327
77033,Harris County,TX,97.15189873417721,16.995073891625616,NA
77075,Harris County,TX,92.08860759493672,NA,NA
77346,Harris County,TX,NA,NA,91.1832946635731
77360,Polk County,TX,NA,59.60591133004927,NA
77486,Brazoria County,TX,NA,84.72906403940887,NA
77488,Wharton County,TX,NA,NA,62.18097447795824
77521,Harris County,TX,NA,NA,55.4524361948956
77551,Galveston County,TX,20.88607594936709,NA,NA
77566,Brazoria County,TX,NA,61.822660098522164,33.874709976798144
77583,Brazoria County,TX,NA,55.41871921182266,NA
77630,Orange County,TX,NA,54.679802955665025,NA
77642,Jefferson County,TX,62.0253164556962,NA,NA
77701,Jefferson County,TX,NA,73.15270935960592,NA
77706,Jefferson County,TX,38.291139240506325,NA,NA
77803,Brazos County,TX,82.27848101265823,NA,67.05336426914154
77845,Brazos County,TX,NA,73.64532019704434,NA
77979,Calhoun County,TX,NA,85.96059113300493,NA
78028,Kerr County,TX,NA,NA,81.20649651972158
78109,Bexar County,TX,61.70886075949367,NA,NA
78213,Bexar County,TX,NA,49.50738916256158,NA
78220,Bexar County,TX,69.30379746835443,NA,NA
78240,Bexar County,TX,NA,79.80295566502463,NA
78253,Bexar County,TX,NA,55.91133004926109,NA
78504,Hidalgo County,TX,NA,36.45320197044335,NA
78574,Hidalgo County,TX,NA,30.295566502463057,NA
78629,Gonzales County,TX,74.36708860759494,NA,NA
78633,Williamson County,TX,NA,1.2315270935960592,NA
78744,Travis County,TX,NA,48.029556650246306,NA
78759,Travis County,TX,NA,NA,52.204176334106734
78840,Val Verde County,TX,NA,16.25615763546798,NA
79106,Potter County,TX,NA,NA,58.70069605568445
79849,El Paso County,TX,NA,78.32512315270937,NA
79903,El Paso County,TX,NA,NA,28.306264501160094
84041,Davis County,UT,28.164556962025316,NA,56.380510440835266
84065,Salt Lake County,UT,29.746835443037973,NA,NA
84067,Weber County,UT,NA,NA,39.90719257540603
84081,Salt Lake County,UT,23.417721518987342,NA,NA
84096,Salt Lake County,UT,NA,NA,77.9582366589327
84120,Salt Lake County,UT,NA,44.08866995073892,NA
84341,Cache County,UT,NA,NA,77.03016241299304
84401,Weber County,UT,58.86075949367089,NA,NA
84721,Iron County,UT,NA,51.724137931034484,NA
84790,Washington County,UT,34.49367088607595,NA,NA
05753,Addison County,VT,NA,NA,90.25522041763341
20155,Prince William County,VA,NA,NA,41.76334106728538
20170,Fairfax County,VA,NA,93.10344827586206,NA
22003,Fairfax County,VA,NA,NA,62.64501160092807
22015,Fairfax County,VA,NA,NA,43.1554524361949
22192,Prince William County,VA,NA,85.4679802955665,NA
22302,Alexandria city,VA,NA,73.89162561576354,NA
22306,Fairfax County,VA,NA,NA,99.53596287703016
22308,Fairfax County,VA,NA,NA,95.35962877030161
22314,Alexandria city,VA,22.78481012658228,NA,NA
22485,King George County,VA,NA,66.99507389162561,NA
22546,Caroline County,VA,57.59493670886076,NA,NA
22551,Spotsylvania County,VA,NA,NA,94.19953596287704
22554,Stafford County,VA,NA,35.714285714285715,NA
22603,Frederick County,VA,NA,74.38423645320196,NA
22611,Clarke County,VA,NA,74.8768472906404,NA
22851,Page County,VA,NA,86.20689655172413,NA
22968,Greene County,VA,NA,57.14285714285714,NA
22980,Waynesboro city,VA,59.81012658227848,5.911330049261084,17.865429234338748
23111,Hanover County,VA,NA,NA,14.385150812064964
23224,Richmond city,VA,NA,NA,67.74941995359629
23233,Henrico County,VA,NA,NA,50.81206496519721
23235,Chesterfield County,VA,NA,NA,15.31322505800464
23321,Chesapeake city,VA,NA,27.832512315270936,NA
23456,Virginia Beach city,VA,NA,8.866995073891626,NA
23464,Virginia Beach city,VA,NA,NA,1.6241299303944314
23505,Norfolk city,VA,NA,NA,26.450116009280745
23663,Hampton city,VA,NA,NA,49.419953596287705
23803,Petersburg city,VA,NA,14.532019704433496,NA
23836,Chesterfield County,VA,NA,NA,94.89559164733178
24016,Roanoke city,VA,42.405063291139236,NA,NA
24055,Henry County,VA,NA,NA,48.25986078886311
24124,Giles County,VA,79.43037974683544,NA,NA
24201,Bristol city,VA,59.49367088607595,NA,NA
24501,Lynchburg city,VA,NA,76.35467980295566,NA
24541,Danville city,VA,65.82278481012658,NA,88.16705336426914
24656,Buchanan County,VA,80.69620253164557,NA,NA
98037,Snohomish County,WA,NA,NA,44.5475638051044
98057,King County,WA,NA,NA,62.87703016241299
98092,King County,WA,18.354430379746837,NA,NA
98178,King County,WA,43.67088607594937,NA,NA
98198,King County,WA,NA,24.876847290640395,NA
98221,Skagit County,WA,NA,18.472906403940886,NA
98229,Whatcom County,WA,NA,50,NA
98236,Island County,WA,NA,63.05418719211823,NA
98273,Skagit County,WA,NA,NA,6.496519721577726
98290,Snohomish County,WA,31.329113924050635,NA,NA
98296,Snohomish County,WA,36.075949367088604,NA,NA
98354,Pierce County,WA,NA,NA,61.02088167053365
98382,Clallam County,WA,NA,3.6945812807881775,NA
98503,Thurston County,WA,NA,NA,27.610208816705335
98589,Thurston County,WA,NA,94.08866995073892,NA
98611,Cowlitz County,WA,NA,59.60591133004927,NA
98632,Cowlitz County,WA,NA,NA,1.8561484918793503
98663,Clark County,WA,NA,63.793103448275865,NA
98664,Clark County,WA,NA,53.69458128078818,NA
98671,Clark County,WA,NA,NA,54.060324825986086
20020,District of Columbia,DC,NA,7.142857142857142,NA
24701,Mercer County,WV,21.835443037974684,50.49261083743842,NA
25309,Kanawha County,WV,NA,66.7487684729064,NA
25419,Berkeley County,WV,NA,NA,78.65429234338747
25443,Jefferson County,WV,78.79746835443038,NA,NA
25705,Cabell County,WV,NA,97.29064039408867,NA
26003,Ohio County,WV,NA,NA,2.5522041763341066
26037,Brooke County,WV,NA,NA,53.82830626450116
26041,Marshall County,WV,NA,18.7192118226601,NA
26047,Hancock County,WV,NA,67.48768472906403,NA
26164,Jackson County,WV,97.78481012658227,NA,NA
26201,Upshur County,WV,NA,65.02463054187191,NA
26301,Harrison County,WV,66.77215189873418,NA,NA
53027,Washington County,WI,NA,NA,82.830626450116
53072,Waukesha County,WI,77.21518987341773,NA,57.30858468677494
53081,Sheboygan County,WI,NA,21.428571428571427,NA
53090,Washington County,WI,48.10126582278481,NA,NA
53108,Racine County,WI,NA,100,NA
53110,Milwaukee County,WI,50.31645569620253,NA,NA
53122,Waukesha County,WI,NA,NA,76.79814385150812
53140,Kenosha County,WI,NA,21.67487684729064,NA
53142,Kenosha County,WI,7.9113924050632916,NA,NA
53182,Racine County,WI,NA,47.04433497536946,NA
53209,Milwaukee County,WI,NA,2.70935960591133,NA
53210,Milwaukee County,WI,NA,16.502463054187192,NA
53223,Milwaukee County,WI,NA,34.72906403940887,NA
53403,Racine County,WI,NA,NA,85.61484918793504
53405,Racine County,WI,NA,22.660098522167488,NA
53545,Rock County,WI,NA,17.48768472906404,NA
53548,Rock County,WI,NA,48.76847290640394,NA
53590,Dane County,WI,NA,70.93596059113301,NA
53718,Dane County,WI,NA,74.13793103448276,NA
53913,Sauk County,WI,NA,NA,11.1368909512761
53959,Sauk County,WI,32.91139240506329,NA,NA
54311,Brown County,WI,NA,NA,74.70997679814386
54403,Marathon County,WI,NA,NA,9.51276102088167
54494,Wood County,WI,NA,29.55665024630542,NA
54501,Oneida County,WI,NA,NA,40.37122969837587
54601,La Crosse County,WI,NA,75.86206896551724,NA
54703,Eau Claire County,WI,43.037974683544306,NA,NA
54915,Outagamie County,WI,NA,91.62561576354679,NA
54935,Fond du Lac County,WI,NA,37.19211822660098,NA
54952,Winnebago County,WI,NA,NA,92.11136890951276
54956,Winnebago County,WI,20.569620253164558,NA,NA
82414,Park County,WY,92.72151898734177,NA,NA
82716,Campbell County,WY,55.06329113924051,NA,NA
