ZipCode,county,state,Adult,Retirement,Geriatric
35010,Tallapoosa County,AL,NA,NA,47.69230769230769
35077,Cullman County,AL,67.44186046511628,NA,NA
35120,St. Clair County,AL,43.41085271317829,NA,NA
35630,Lauderdale County,AL,46.51162790697674,NA,NA
35983,Cherokee County,AL,NA,91.10512129380054,NA
36091,Chilton County,AL,93.7984496124031,NA,NA
36093,Elmore County,AL,59.68992248062015,NA,NA
36117,Montgomery County,AL,NA,NA,40.51282051282051
36350,Dale County,AL,NA,NA,84.87179487179488
36609,Mobile County,AL,NA,70.35040431266847,NA
36701,Dallas County,AL,NA,21.024258760107816,NA
36801,Lee County,AL,NA,70.08086253369272,NA
36832,Lee County,AL,NA,84.09703504043127,NA
99516,Anchorage Municipality,AK,76.74418604651163,NA,NA
85007,Maricopa County,AZ,NA,52.83018867924528,NA
85021,Maricopa County,AZ,NA,23.71967654986523,NA
85051,Maricopa County,AZ,62.4031007751938,NA,NA
85085,Maricopa County,AZ,NA,88.94878706199461,64.61538461538461
85208,Maricopa County,AZ,NA,NA,44.35897435897436
85226,Maricopa County,AZ,36.434108527131784,NA,NA
85249,Maricopa County,AZ,NA,26.1455525606469,NA
85257,Maricopa County,AZ,NA,NA,29.230769230769234
85282,Maricopa County,AZ,NA,33.42318059299191,NA
85283,Maricopa County,AZ,NA,61.725067385444746,NA
85306,Maricopa County,AZ,NA,46.36118598382749,NA
85344,La Paz County,AZ,NA,92.45283018867924,NA
85374,Maricopa County,AZ,NA,NA,4.615384615384616
85382,Maricopa County,AZ,NA,NA,9.230769230769232
85701,Pima County,AZ,NA,NA,78.2051282051282
85710,Pima County,AZ,NA,37.735849056603776,NA
85712,Pima County,AZ,NA,NA,31.28205128205128
85901,Navajo County,AZ,NA,19.946091644204852,41.53846153846154
86406,Mohave County,AZ,32.945736434108525,NA,NA
71603,Jefferson County,AR,NA,43.93530997304582,NA
71909,Garland County,AR,NA,NA,87.17948717948718
72034,Faulkner County,AR,97.28682170542635,NA,NA
72116,Pulaski County,AR,NA,59.299191374663074,NA
72160,Arkansas County,AR,NA,NA,91.28205128205128
72401,Craighead County,AR,NA,NA,10.512820512820513
72432,Poinsett County,AR,NA,NA,80.25641025641026
72601,Boone County,AR,NA,NA,79.74358974358975
72941,Sebastian County,AR,88.37209302325581,NA,NA
90032,Los Angeles County,CA,NA,44.20485175202156,NA
90040,Los Angeles County,CA,NA,NA,93.33333333333333
90063,Los Angeles County,CA,NA,32.88409703504043,NA
90065,Los Angeles County,CA,NA,25.336927223719673,NA
90602,Los Angeles County,CA,NA,NA,98.46153846153847
90604,Los Angeles County,CA,NA,41.77897574123989,NA
90720,Orange County,CA,NA,NA,49.48717948717949
90744,Los Angeles County,CA,NA,45.28301886792453,NA
91016,Los Angeles County,CA,NA,67.11590296495957,NA
91214,Los Angeles County,CA,91.08527131782945,NA,NA
91316,Los Angeles County,CA,NA,NA,16.153846153846153
91342,Los Angeles County,CA,NA,NA,66.66666666666666
91405,Los Angeles County,CA,NA,32.075471698113205,NA
91501,Los Angeles County,CA,NA,65.22911051212938,NA
91604,Los Angeles County,CA,NA,45.82210242587601,NA
91606,Los Angeles County,CA,NA,NA,56.92307692307692
91763,San Bernardino County,CA,NA,NA,42.82051282051282
91773,Los Angeles County,CA,NA,74.39353099730458,NA
92021,San Diego County,CA,NA,NA,60
92026,San Diego County,CA,NA,NA,21.794871794871796
92056,San Diego County,CA,NA,NA,7.948717948717948
92071,San Diego County,CA,NA,28.03234501347709,NA
92084,San Diego County,CA,NA,NA,30.256410256410255
92105,San Diego County,CA,NA,50.673854447439346,NA
92118,San Diego County,CA,NA,NA,25.64102564102564
92252,San Bernardino County,CA,NA,NA,86.15384615384616
92284,San Bernardino County,CA,41.47286821705426,NA,NA
92301,San Bernardino County,CA,48.44961240310077,NA,NA
92344,San Bernardino County,CA,NA,61.99460916442049,NA
92399,San Bernardino County,CA,NA,16.172506738544474,NA
92551,Riverside County,CA,NA,60.64690026954178,NA
92675,Orange County,CA,NA,NA,27.692307692307693
92704,Orange County,CA,24.418604651162788,NA,NA
92707,Orange County,CA,NA,NA,45.64102564102564
92879,Riverside County,CA,NA,42.04851752021563,NA
93010,Ventura County,CA,NA,79.24528301886792,96.15384615384616
93013,Santa Barbara County,CA,NA,NA,99.48717948717949
93111,Santa Barbara County,CA,NA,NA,47.43589743589743
93268,Kern County,CA,NA,87.06199460916442,NA
93304,Kern County,CA,39.53488372093023,NA,NA
93458,Santa Barbara County,CA,NA,NA,33.589743589743584
93704,Fresno County,CA,NA,41.23989218328841,NA
93901,Monterey County,CA,NA,NA,36.666666666666664
93926,Monterey County,CA,92.24806201550388,NA,NA
93960,Monterey County,CA,69.37984496124031,NA,NA
94043,Santa Clara County,CA,NA,NA,37.69230769230769
94102,San Francisco County,CA,7.3643410852713185,NA,13.333333333333334
94127,San Francisco County,CA,NA,NA,64.35897435897436
94403,San Mateo County,CA,NA,14.555256064690028,NA
94521,Contra Costa County,CA,NA,NA,14.358974358974358
94531,Contra Costa County,CA,85.27131782945736,NA,NA
94596,Contra Costa County,CA,NA,NA,45.12820512820513
94597,Contra Costa County,CA,NA,58.490566037735846,NA
94598,Contra Costa County,CA,NA,66.30727762803235,NA
94606,Alameda County,CA,NA,68.46361185983828,NA
94965,Marin County,CA,NA,NA,57.692307692307686
95037,Santa Clara County,CA,NA,NA,20.256410256410255
95437,Mendocino County,CA,NA,NA,20.51282051282051
95482,Mendocino County,CA,NA,NA,23.846153846153847
95758,Sacramento County,CA,NA,NA,54.61538461538461
95829,Sacramento County,CA,NA,NA,32.30769230769231
95969,Butte County,CA,NA,6.46900269541779,NA
95973,Butte County,CA,NA,18.059299191374663,NA
96001,Shasta County,CA,78.68217054263566,85.17520215633422,NA
96080,Tehama County,CA,NA,NA,68.46153846153847
80010,Arapahoe County,CO,NA,NA,45.8974358974359
80013,Arapahoe County,CO,NA,NA,30.512820512820515
80014,Arapahoe County,CO,NA,NA,5.897435897435897
80026,Boulder County,CO,43.798449612403104,NA,NA
80125,Douglas County,CO,NA,76.54986522911051,NA
80134,Douglas County,CO,NA,25.87601078167116,NA
80211,Denver County,CO,NA,35.57951482479784,NA
80216,Denver County,CO,52.71317829457365,NA,NA
80219,Denver County,CO,4.263565891472868,NA,NA
80236,Denver County,CO,NA,NA,67.435897435897445
80501,Boulder County,CO,35.27131782945737,NA,NA
80504,Boulder County,CO,NA,18.328840970350406,NA
81504,Mesa County,CO,NA,40.700808625336926,NA
06029,Tolland County,CT,74.4186046511628,NA,NA
06082,Hartford County,CT,60.85271317829457,NA,NA
06106,Hartford County,CT,3.875968992248062,NA,NA
06410,New Haven County,CT,NA,NA,27.94871794871795
06418,New Haven County,CT,NA,71.15902964959568,NA
06450,New Haven County,CT,5.038759689922481,NA,NA
06451,New Haven County,CT,56.97674418604651,NA,NA
06483,New Haven County,CT,NA,45.82210242587601,NA
06484,Fairfield County,CT,NA,NA,10.256410256410255
06716,New Haven County,CT,47.286821705426355,NA,NA
06770,New Haven County,CT,NA,NA,43.58974358974359
06790,Litchfield County,CT,NA,1.8867924528301887,NA
06880,Fairfield County,CT,NA,88.67924528301887,NA
19707,New Castle County,DE,NA,51.482479784366575,NA
19803,New Castle County,DE,NA,NA,19.743589743589745
19808,New Castle County,DE,55.03875968992248,NA,NA
19933,Sussex County,DE,NA,53.36927223719676,NA
19939,Sussex County,DE,NA,NA,98.2051282051282
19956,Sussex County,DE,32.55813953488372,NA,NA
19958,Sussex County,DE,48.837209302325576,NA,NA
19963,Sussex County,DE,NA,94.33962264150944,NA
19973,Sussex County,DE,10.852713178294573,NA,NA
32003,Clay County,FL,41.08527131782946,NA,NA
32082,St. Johns County,FL,NA,21.563342318059302,43.07692307692308
32132,Volusia County,FL,NA,NA,65.64102564102564
32163,Sumter County,FL,NA,23.98921832884097,NA
32217,Duval County,FL,NA,NA,81.02564102564102
32221,Duval County,FL,NA,NA,89.23076923076924
32404,Bay County,FL,NA,43.126684636118604,NA
32693,Gilchrist County,FL,51.93798449612403,NA,NA
32703,Orange County,FL,NA,39.62264150943396,NA
32724,Volusia County,FL,NA,NA,73.84615384615385
32750,Seminole County,FL,NA,38.544474393531,NA
32765,Seminole County,FL,NA,30.18867924528302,NA
32792,Orange County,FL,NA,NA,85.12820512820512
32807,Orange County,FL,NA,NA,25.8974358974359
32810,Orange County,FL,81.0077519379845,NA,NA
32818,Orange County,FL,93.4108527131783,NA,NA
32927,Brevard County,FL,NA,NA,78.46153846153847
32940,Brevard County,FL,NA,NA,4.102564102564102
32953,Brevard County,FL,NA,NA,10
32962,Indian River County,FL,NA,NA,17.435897435897434
32966,Indian River County,FL,58.91472868217055,NA,NA
32967,Indian River County,FL,NA,81.6711590296496,NA
33013,Miami-Dade County,FL,NA,53.908355795148246,NA
33026,Broward County,FL,NA,44.74393530997305,NA
33030,Miami-Dade County,FL,31.007751937984494,NA,NA
33062,Broward County,FL,94.57364341085271,NA,NA
33065,Broward County,FL,NA,37.46630727762803,NA
33069,Broward County,FL,NA,NA,32.05128205128205
33130,Miami-Dade County,FL,NA,NA,41.02564102564102
33308,Broward County,FL,NA,NA,1.7948717948717947
33325,Broward County,FL,NA,50.943396226415096,94.61538461538461
33403,Palm Beach County,FL,NA,98.6522911051213,NA
33411,Palm Beach County,FL,NA,NA,13.58974358974359
33436,Palm Beach County,FL,NA,NA,33.84615384615385
33441,Broward County,FL,NA,49.056603773584904,NA
33467,Palm Beach County,FL,NA,72.77628032345014,NA
33613,Hillsborough County,FL,NA,NA,59.48717948717949
33617,Hillsborough County,FL,25.581395348837212,NA,NA
33629,Hillsborough County,FL,54.65116279069767,NA,NA
33647,Hillsborough County,FL,NA,NA,53.84615384615385
33705,Pinellas County,FL,NA,40.97035040431267,NA
33709,Pinellas County,FL,NA,NA,95.38461538461539
33756,Pinellas County,FL,NA,26.68463611859838,NA
33767,Pinellas County,FL,NA,64.95956873315365,NA
33801,Polk County,FL,NA,30.45822102425876,NA
33825,Highlands County,FL,NA,NA,13.076923076923078
33837,Polk County,FL,NA,36.118598382749326,NA
33872,Highlands County,FL,NA,NA,13.846153846153847
33908,Lee County,FL,NA,5.3908355795148255,NA
34104,Collier County,FL,NA,96.22641509433963,31.025641025641026
34208,Manatee County,FL,NA,36.38814016172507,NA
34209,Manatee County,FL,NA,17.78975741239892,NA
34291,Sarasota County,FL,NA,69.54177897574124,NA
34292,Sarasota County,FL,NA,NA,7.6923076923076925
34484,Sumter County,FL,NA,NA,75.12820512820512
34488,Marion County,FL,55.42635658914728,NA,NA
34609,Hernando County,FL,NA,18.598382749326145,NA
34684,Pinellas County,FL,NA,11.859838274932615,NA
34761,Orange County,FL,NA,NA,21.28205128205128
34771,Osceola County,FL,NA,92.99191374663073,NA
34786,Orange County,FL,NA,77.088948787062,NA
34787,Orange County,FL,NA,42.318059299191376,NA
34953,St. Lucie County,FL,4.651162790697675,74.12398921832884,NA
34983,St. Lucie County,FL,NA,NA,61.794871794871796
30008,Cobb County,GA,46.12403100775194,NA,NA
30013,Rockdale County,GA,NA,47.7088948787062,NA
30039,Gwinnett County,GA,NA,39.892183288409704,NA
30043,Gwinnett County,GA,55.81395348837209,NA,NA
30064,Cobb County,GA,44.57364341085272,NA,NA
30083,DeKalb County,GA,NA,22.911051212938006,NA
30087,DeKalb County,GA,NA,NA,50.51282051282051
30204,Lamar County,GA,NA,81.94070080862534,NA
30233,Butts County,GA,NA,37.19676549865229,NA
30263,Coweta County,GA,63.95348837209303,NA,NA
30309,Fulton County,GA,79.84496124031007,NA,NA
30331,Fulton County,GA,NA,63.07277628032345,NA
30442,Jenkins County,GA,NA,76.28032345013477,NA
30458,Bulloch County,GA,NA,54.71698113207547,NA
30721,Whitfield County,GA,NA,70.61994609164421,NA
30728,Walker County,GA,NA,52.83018867924528,NA
31015,Crisp County,GA,NA,52.02156334231805,NA
31032,Jones County,GA,89.14728682170544,NA,NA
31620,Cook County,GA,NA,73.31536388140162,NA
31645,Berrien County,GA,NA,96.49595687331536,NA
31714,Turner County,GA,59.30232558139535,NA,NA
31779,Mitchell County,GA,NA,NA,71.53846153846153
31794,Tift County,GA,20.155038759689923,NA,NA
39842,Terrell County,GA,47.674418604651166,NA,NA
96734,Honolulu County,HI,NA,NA,27.17948717948718
96741,Kauai County,HI,95.73643410852713,NA,NA
96797,Honolulu County,HI,NA,87.87061994609164,NA
83651,Canyon County,ID,33.33333333333333,NA,NA
60033,McHenry County,IL,NA,82.21024258760107,NA
60048,Lake County,IL,NA,NA,63.84615384615384
60056,Cook County,IL,54.263565891472865,54.44743935309974,NA
60137,DuPage County,IL,NA,20.754716981132077,NA
60140,Kane County,IL,NA,NA,72.05128205128204
60185,DuPage County,IL,NA,84.36657681940702,NA
60402,Cook County,IL,NA,NA,50
60417,Will County,IL,NA,73.04582210242587,NA
60453,Cook County,IL,NA,7.816711590296496,NA
60459,Cook County,IL,49.224806201550386,NA,NA
60462,Cook County,IL,NA,5.121293800539084,NA
60477,Cook County,IL,NA,NA,7.179487179487179
60505,Kane County,IL,NA,29.919137466307276,NA
60506,Kane County,IL,NA,NA,39.743589743589745
60526,Cook County,IL,NA,NA,26.666666666666668
60542,Kane County,IL,84.49612403100775,NA,NA
60544,Will County,IL,NA,NA,10.76923076923077
60609,Cook County,IL,27.131782945736433,NA,NA
60611,Cook County,IL,NA,15.902964959568733,NA
60616,Cook County,IL,NA,29.110512129380055,NA
60643,Cook County,IL,NA,NA,24.102564102564102
60647,Cook County,IL,22.48062015503876,NA,NA
61010,Ogle County,IL,87.20930232558139,NA,NA
61074,Carroll County,IL,72.09302325581395,NA,NA
61101,Winnebago County,IL,NA,NA,30
61201,Rock Island County,IL,27.51937984496124,NA,NA
61254,Henry County,IL,NA,NA,90
61354,LaSalle County,IL,36.434108527131784,NA,NA
61554,Tazewell County,IL,NA,10.242587601078167,NA
61603,Peoria County,IL,NA,57.95148247978437,NA
61605,Peoria County,IL,NA,NA,72.564102564102555
61614,Peoria County,IL,NA,NA,14.871794871794872
62040,Madison County,IL,NA,NA,11.538461538461538
62278,Randolph County,IL,96.51162790697676,NA,NA
62301,Adams County,IL,26.356589147286826,NA,NA
62521,Macon County,IL,NA,NA,35.64102564102564
62526,Macon County,IL,9.689922480620156,NA,NA
62703,Sangamon County,IL,NA,NA,94.1025641025641
62812,Franklin County,IL,NA,NA,97.17948717948718
62863,Wabash County,IL,NA,59.56873315363881,NA
46176,Shelby County,IN,NA,10.242587601078167,NA
46184,Johnson County,IN,NA,56.8733153638814,NA
46205,Marion County,IN,26.744186046511626,NA,NA
46218,Marion County,IN,NA,NA,16.923076923076923
46226,Marion County,IN,NA,NA,58.46153846153847
46375,Lake County,IN,NA,NA,14.615384615384617
46516,Elkhart County,IN,NA,NA,55.8974358974359
46567,Kosciusko County,IN,NA,63.881401617250674,NA
46806,Allen County,IN,43.02325581395349,NA,76.15384615384615
46816,Allen County,IN,68.21705426356588,NA,NA
47112,Harrison County,IN,38.372093023255815,NA,NA
47150,Floyd County,IN,NA,7.277628032345014,NA
47240,Decatur County,IN,24.8062015503876,NA,NA
47374,Wayne County,IN,NA,61.45552560646901,NA
47401,Monroe County,IN,NA,NA,46.15384615384615
47403,Monroe County,IN,NA,79.51482479784366,NA
47441,Greene County,IN,NA,NA,63.84615384615384
47620,Posey County,IN,NA,NA,50.76923076923077
47712,Vanderburgh County,IN,NA,60.1078167115903,NA
47803,Vigo County,IN,44.18604651162791,NA,NA
50049,Lucas County,IA,NA,99.19137466307278,NA
50112,Poweshiek County,IA,NA,71.96765498652292,NA
50158,Marshall County,IA,58.52713178294574,NA,NA
50441,Franklin County,IA,NA,87.6010781671159,NA
51105,Woodbury County,IA,NA,49.32614555256065,NA
51106,Woodbury County,IA,NA,NA,54.1025641025641
51401,Carroll County,IA,NA,91.91374663072777,NA
51501,Pottawattamie County,IA,NA,9.433962264150944,NA
52060,Jackson County,IA,NA,68.19407008086253,NA
52544,Appanoose County,IA,NA,NA,72.3076923076923
52601,Des Moines County,IA,88.75968992248062,NA,33.33333333333333
52627,Lee County,IA,NA,NA,38.71794871794872
52804,Scott County,IA,NA,72.50673854447439,NA
52806,Scott County,IA,NA,NA,67.94871794871796
66106,Wyandotte County,KS,31.782945736434108,NA,NA
66542,Shawnee County,KS,97.67441860465115,NA,NA
66547,Pottawatomie County,KS,NA,NA,70.76923076923077
66608,Shawnee County,KS,NA,NA,95.8974358974359
66749,Allen County,KS,75.96899224806202,NA,NA
67357,Labette County,KS,NA,NA,98.71794871794873
40211,Jefferson County,KY,29.844961240310074,NA,NA
40214,Jefferson County,KY,NA,14.016172506738545,NA
40229,Jefferson County,KY,NA,58.22102425876011,NA
40243,Jefferson County,KY,NA,NA,62.82051282051282
40361,Bourbon County,KY,52.32558139534884,NA,NA
40517,Fayette County,KY,61.627906976744185,NA,NA
41014,Kenton County,KY,NA,NA,96.41025641025641
41041,Fleming County,KY,NA,80.3234501347709,NA
41051,Kenton County,KY,NA,NA,36.15384615384615
41175,Greenup County,KY,NA,NA,66.41025641025641
41314,Owsley County,KY,NA,NA,78.71794871794872
42001,McCracken County,KY,NA,80.59299191374663,NA
42066,Graves County,KY,NA,41.509433962264154,NA
42408,Hopkins County,KY,NA,NA,86.92307692307692
42718,Taylor County,KY,NA,64.42048517520216,NA
70003,Jefferson Parish,LA,NA,3.5040431266846364,NA
70065,Jefferson Parish,LA,NA,NA,15.384615384615385
70072,Jefferson Parish,LA,NA,44.474393530997304,NA
70126,Orleans Parish,LA,NA,16.711590296495956,NA
70301,Lafourche Parish,LA,NA,NA,86.41025641025641
70427,Washington Parish,LA,NA,NA,18.461538461538463
70447,St. Tammany Parish,LA,NA,NA,70
70526,Acadia Parish,LA,NA,NA,42.30769230769231
70582,St. Martin Parish,LA,NA,29.380053908355798,NA
71055,Webster Parish,LA,NA,25.60646900269542,NA
71106,Caddo Parish,LA,5.813953488372093,NA,36.666666666666664
71334,Concordia Parish,LA,NA,62.264150943396224,NA
71360,Rapides Parish,LA,NA,NA,95.12820512820512
04038,Cumberland County,ME,36.04651162790697,NA,NA
04043,York County,ME,NA,NA,18.205128205128204
04073,York County,ME,56.201550387596896,NA,34.35897435897436
04084,Cumberland County,ME,NA,80.86253369272237,NA
04401,Penobscot County,ME,NA,1.6172506738544474,NA
04444,Penobscot County,ME,99.2248062015504,NA,NA
04473,Penobscot County,ME,NA,NA,98.97435897435898
20705,Prince George's County,MD,77.51937984496125,NA,NA
20723,Howard County,MD,79.06976744186046,NA,NA
20904,Montgomery County,MD,NA,NA,12.564102564102564
21014,Harford County,MD,NA,NA,52.820512820512825
21017,Harford County,MD,87.59689922480621,NA,NA
21044,Howard County,MD,NA,NA,94.35897435897435
21133,Baltimore County,MD,NA,NA,28.974358974358978
21207,Baltimore County,MD,16.666666666666664,NA,NA
21209,Baltimore County,MD,NA,47.7088948787062,NA
21213,Baltimore city,MD,70.54263565891473,NA,NA
21220,Baltimore County,MD,NA,NA,21.025641025641026
21401,Anne Arundel County,MD,NA,NA,12.307692307692308
21502,Allegany County,MD,18.6046511627907,NA,NA
21713,Washington County,MD,84.88372093023256,NA,NA
21842,Worcester County,MD,NA,NA,32.82051282051282
01089,Hampden County,MA,NA,NA,17.94871794871795
01104,Hampden County,MA,NA,0.5390835579514826,NA
01247,Berkshire County,MA,NA,NA,12.82051282051282
01370,Franklin County,MA,NA,55.25606469002695,NA
01527,Worcester County,MA,NA,NA,93.07692307692308
01588,Worcester County,MA,15.11627906976744,NA,NA
01610,Worcester County,MA,NA,78.97574123989219,NA
01810,Essex County,MA,NA,14.285714285714285,NA
01824,Middlesex County,MA,NA,NA,5.128205128205128
01826,Middlesex County,MA,NA,2.964959568733154,NA
01843,Essex County,MA,1.937984496124031,NA,NA
01852,Middlesex County,MA,NA,1.3477088948787064,NA
01860,Essex County,MA,NA,NA,66.15384615384615
01890,Middlesex County,MA,NA,97.03504043126685,NA
01905,Essex County,MA,NA,6.738544474393531,NA
01906,Essex County,MA,12.4031007751938,NA,NA
02021,Norfolk County,MA,NA,21.83288409703504,NA
02124,Suffolk County,MA,NA,2.15633423180593,NA
02130,Suffolk County,MA,NA,NA,2.307692307692308
02151,Suffolk County,MA,0,NA,3.076923076923077
02169,Norfolk County,MA,NA,NA,14.871794871794872
02191,Norfolk County,MA,NA,NA,54.35897435897436
02332,Plymouth County,MA,NA,48.517520215633425,NA
02360,Plymouth County,MA,NA,NA,19.48717948717949
02421,Middlesex County,MA,NA,NA,32.30769230769231
02452,Middlesex County,MA,NA,68.73315363881402,NA
02649,Barnstable County,MA,53.48837209302325,NA,NA
02703,Bristol County,MA,NA,59.02964959568733,NA
48015,Macomb County,MI,63.565891472868216,NA,NA
48060,St. Clair County,MI,NA,NA,62.30769230769231
48071,Oakland County,MI,NA,NA,31.794871794871792
48085,Oakland County,MI,NA,20.21563342318059,NA
48180,Wayne County,MI,1.550387596899225,NA,NA
48183,Wayne County,MI,49.6124031007752,NA,NA
48202,Wayne County,MI,86.82170542635659,NA,NA
48204,Wayne County,MI,NA,78.4366576819407,NA
48212,Wayne County,MI,NA,11.590296495956872,NA
48213,Wayne County,MI,9.30232558139535,NA,NA
48216,Wayne County,MI,86.04651162790698,NA,NA
48224,Wayne County,MI,NA,16.442048517520217,NA
48237,Oakland County,MI,NA,NA,77.435897435897445
48306,Oakland County,MI,NA,NA,68.2051282051282
48331,Oakland County,MI,NA,NA,81.28205128205128
48334,Oakland County,MI,83.33333333333334,NA,NA
48336,Oakland County,MI,NA,NA,88.46153846153845
48383,Oakland County,MI,NA,NA,51.53846153846153
48390,Oakland County,MI,NA,89.21832884097036,NA
48413,Huron County,MI,60.46511627906976,NA,NA
48473,Genesee County,MI,NA,27.49326145552561,NA
48623,Saginaw County,MI,NA,NA,55.12820512820513
48642,Midland County,MI,14.34108527131783,NA,NA
48883,Isabella County,MI,NA,50.40431266846361,NA
48906,Ingham County,MI,NA,NA,87.94871794871794
49002,Kalamazoo County,MI,NA,NA,17.692307692307693
49015,Calhoun County,MI,NA,NA,34.61538461538461
49022,Berrien County,MI,8.13953488372093,NA,NA
49037,Calhoun County,MI,NA,NA,56.41025641025641
49085,Berrien County,MI,NA,30.997304582210244,NA
49201,Jackson County,MI,NA,NA,4.871794871794872
49424,Ottawa County,MI,NA,NA,6.666666666666667
49426,Ottawa County,MI,NA,NA,14.102564102564102
49507,Kent County,MI,NA,NA,97.43589743589743
49525,Kent County,MI,NA,NA,81.53846153846153
49635,Benzie County,MI,NA,NA,58.20512820512821
55057,Rice County,MN,NA,48.517520215633425,NA
55102,Ramsey County,MN,NA,NA,88.2051282051282
55127,Ramsey County,MN,NA,NA,75.38461538461539
55128,Washington County,MN,NA,NA,60.51282051282051
55129,Washington County,MN,NA,NA,65.38461538461539
55334,Sibley County,MN,NA,99.73045822102425,NA
55336,McLeod County,MN,NA,99.46091644204851,NA
55420,Hennepin County,MN,28.294573643410853,NA,NA
55422,Hennepin County,MN,45.348837209302324,NA,NA
55443,Hennepin County,MN,22.868217054263564,32.61455525606469,NA
55447,Hennepin County,MN,NA,45.55256064690027,NA
55746,St. Louis County,MN,NA,NA,80.76923076923077
55904,Olmsted County,MN,NA,89.4878706199461,88.71794871794872
56308,Douglas County,MN,NA,NA,3.3333333333333335
38671,DeSoto County,MS,NA,39.35309973045822,NA
38703,Washington County,MS,93.02325581395348,NA,NA
38804,Lee County,MS,NA,NA,53.07692307692308
38821,Monroe County,MS,95.34883720930233,NA,NA
38852,Tishomingo County,MS,NA,49.865229110512125,NA
38921,Tallahatchie County,MS,NA,NA,99.74358974358975
39157,Madison County,MS,85.65891472868216,NA,NA
39160,Attala County,MS,NA,100,NA
39209,Hinds County,MS,NA,NA,68.97435897435898
39213,Hinds County,MS,50.775193798449614,NA,NA
39301,Lauderdale County,MS,51.55038759689923,NA,NA
39350,Neshoba County,MS,19.767441860465116,NA,NA
39520,Hancock County,MS,21.705426356589147,NA,NA
63021,St. Louis County,MO,NA,NA,5.384615384615385
63033,St. Louis County,MO,NA,12.668463611859837,NA
63111,St. Louis city,MO,NA,NA,73.58974358974359
63130,St. Louis County,MO,34.883720930232556,NA,NA
63301,St. Charles County,MO,NA,NA,91.02564102564102
63348,St. Charles County,MO,NA,94.60916442048517,NA
63703,Cape Girardeau County,MO,40.310077519379846,NA,NA
64068,Clay County,MO,48.06201550387597,NA,NA
64076,Lafayette County,MO,NA,NA,97.6923076923077
64078,Cass County,MO,NA,NA,77.17948717948718
64133,Jackson County,MO,3.10077519379845,NA,NA
64485,Andrew County,MO,NA,88.14016172506739,NA
64503,Buchanan County,MO,NA,NA,92.82051282051282
64759,Barton County,MO,62.01550387596899,NA,NA
64850,Newton County,MO,11.24031007751938,NA,NA
65203,Boone County,MO,NA,NA,3.5897435897435894
65559,Phelps County,MO,79.45736434108527,NA,NA
65616,Taney County,MO,91.86046511627907,24.258760107816713,NA
65622,Dallas County,MO,NA,67.9245283018868,NA
65804,Greene County,MO,NA,25.067385444743934,60.76923076923077
68022,Douglas County,NE,NA,NA,76.66666666666667
68111,Douglas County,NE,15.503875968992247,NA,NA
68701,Madison County,NE,33.72093023255814,NA,NA
68801,Hall County,NE,NA,53.36927223719676,NA
69341,Scotts Bluff County,NE,86.43410852713178,NA,NA
89110,Clark County,NV,NA,49.59568733153639,NA
89147,Clark County,NV,NA,63.342318059299195,NA
89502,Washoe County,NV,NA,NA,22.82051282051282
89703,Carson City,NV,NA,NA,67.6923076923077
03038,Rockingham County,NH,NA,38.00539083557952,15.897435897435896
03104,Hillsborough County,NH,68.6046511627907,NA,NA
03301,Merrimack County,NH,NA,NA,2.8205128205128207
03801,Rockingham County,NH,NA,31.805929919137466,NA
07055,Passaic County,NJ,NA,3.234501347708895,NA
07083,Union County,NJ,NA,NA,46.41025641025641
07106,Essex County,NJ,17.829457364341085,NA,NA
07110,Essex County,NJ,NA,95.68733153638814,NA
07512,Passaic County,NJ,NA,NA,63.07692307692307
07601,Bergen County,NJ,NA,5.929919137466308,37.94871794871795
07661,Bergen County,NJ,NA,NA,100
07701,Monmouth County,NJ,96.12403100775194,NA,NA
07712,Monmouth County,NJ,NA,5.660377358490567,NA
07724,Monmouth County,NJ,66.66666666666666,NA,NA
07840,Warren County,NJ,NA,NA,21.53846153846154
07885,Morris County,NJ,NA,NA,92.56410256410257
08004,Camden County,NJ,73.64341085271317,NA,NA
08015,Burlington County,NJ,NA,NA,24.358974358974358
08016,Burlington County,NJ,77.90697674418605,NA,NA
08054,Burlington County,NJ,39.14728682170542,12.93800539083558,NA
08055,Burlington County,NJ,NA,NA,23.589743589743588
08059,Camden County,NJ,NA,77.89757412398922,NA
08079,Salem County,NJ,NA,81.13207547169812,NA
08085,Gloucester County,NJ,18.217054263565892,NA,NA
08087,Ocean County,NJ,NA,NA,8.717948717948717
08094,Gloucester County,NJ,53.875968992248055,NA,NA
08096,Gloucester County,NJ,NA,70.88948787061994,NA
08103,Camden County,NJ,NA,15.633423180592992,NA
08360,Cumberland County,NJ,12.790697674418606,NA,NA
08618,Mercer County,NJ,0.3875968992248062,67.38544474393531,NA
08628,Mercer County,NJ,NA,63.61185983827493,NA
08701,Ocean County,NJ,NA,NA,1.0256410256410255
08723,Ocean County,NJ,NA,NA,53.58974358974359
08724,Ocean County,NJ,NA,NA,74.87179487179488
08753,Ocean County,NJ,NA,NA,74.1025641025641
08757,Ocean County,NJ,NA,NA,0.2564102564102564
08817,Middlesex County,NJ,NA,77.62803234501348,NA
87102,Bernalillo County,NM,15.891472868217054,NA,NA
87123,Bernalillo County,NM,NA,NA,61.53846153846154
88001,Doa Ana County,NM,NA,62.53369272237197,34.87179487179487
88021,Doa Ana County,NM,NA,77.35849056603774,NA
88310,Otero County,NM,NA,19.40700808625337,NA
10010,New York County,NY,NA,NA,35.128205128205124
10012,New York County,NY,NA,67.65498652291106,NA
10301,Richmond County,NY,NA,9.973045822102426,NA
10306,Richmond County,NY,NA,69.00269541778977,NA
10452,Bronx County,NY,42.63565891472868,NA,7.435897435897436
10456,Bronx County,NY,NA,0,NA
10460,Bronx County,NY,0.7751937984496124,NA,NA
10465,Bronx County,NY,22.093023255813954,NA,NA
10590,Westchester County,NY,NA,NA,96.92307692307692
10805,Westchester County,NY,NA,90.83557951482479,NA
11021,Nassau County,NY,NA,NA,36.41025641025641
11203,Kings County,NY,NA,88.40970350404312,NA
11221,Kings County,NY,NA,3.7735849056603774,NA
11230,Kings County,NY,NA,NA,3.8461538461538463
11233,Kings County,NY,NA,0.8086253369272237,NA
11377,Queens County,NY,NA,NA,83.07692307692308
11560,Nassau County,NY,NA,78.16711590296495,NA
11565,Nassau County,NY,NA,75.74123989218329,NA
11570,Nassau County,NY,65.50387596899225,NA,NA
11706,Suffolk County,NY,37.5968992248062,NA,NA
11714,Nassau County,NY,NA,NA,37.17948717948718
11746,Suffolk County,NY,NA,NA,6.41025641025641
11756,Nassau County,NY,NA,91.37466307277629,NA
11795,Suffolk County,NY,NA,NA,46.666666666666664
11949,Suffolk County,NY,NA,NA,64.87179487179488
12019,Saratoga County,NY,NA,46.36118598382749,NA
12047,Albany County,NY,20.930232558139537,NA,NA
12205,Albany County,NY,35.65891472868217,NA,NA
12303,Schenectady County,NY,NA,NA,22.05128205128205
12306,Schenectady County,NY,24.031007751937985,NA,NA
12446,Ulster County,NY,NA,97.30458221024259,NA
12534,Columbia County,NY,NA,40.43126684636118,NA
12545,Dutchess County,NY,100,NA,NA
12553,Orange County,NY,89.92248062015504,NA,NA
12845,Warren County,NY,73.64341085271317,NA,NA
12958,Clinton County,NY,90.31007751937985,NA,NA
13021,Cayuga County,NY,NA,NA,11.538461538461538
13045,Cortland County,NY,27.906976744186046,NA,NA
13066,Onondaga County,NY,NA,NA,85.38461538461539
13069,Oswego County,NY,NA,30.727762803234505,NA
13077,Cortland County,NY,NA,51.75202156334232,NA
13088,Onondaga County,NY,NA,NA,65.12820512820512
13210,Onondaga County,NY,NA,NA,82.3076923076923
13323,Oneida County,NY,NA,NA,71.02564102564102
13669,St. Lawrence County,NY,16.27906976744186,NA,NA
13790,Broome County,NY,75.5813953488372,NA,NA
13815,Chenango County,NY,NA,34.50134770889488,NA
13905,Broome County,NY,NA,76.81940700808624,1.282051282051282
14025,Erie County,NY,99.6124031007752,NA,NA
14086,Erie County,NY,NA,NA,93.84615384615384
14120,Niagara County,NY,NA,NA,73.07692307692307
14132,Niagara County,NY,NA,NA,82.82051282051283
14207,Erie County,NY,34.49612403100775,NA,NA
14208,Erie County,NY,NA,80.05390835579514,NA
14215,Erie County,NY,NA,6.199460916442049,NA
14224,Erie County,NY,NA,NA,84.1025641025641
14420,Monroe County,NY,NA,16.9811320754717,NA
14489,Wayne County,NY,NA,21.293800539083556,NA
14892,Tioga County,NY,33.72093023255814,NA,NA
27018,Yadkin County,NC,NA,55.79514824797843,NA
27103,Forsyth County,NC,62.7906976744186,NA,0.5128205128205128
27106,Forsyth County,NC,NA,2.6954177897574128,NA
27205,Randolph County,NC,NA,47.16981132075472,NA
27209,Montgomery County,NC,NA,98.11320754716981,NA
27215,Alamance County,NC,8.527131782945736,NA,NA
27265,Guilford County,NC,NA,13.477088948787062,NA
27325,Moore County,NC,NA,97.57412398921834,NA
27344,Chatham County,NC,NA,30.997304582210244,NA
27370,Randolph County,NC,NA,98.38274932614556,NA
27406,Guilford County,NC,NA,1.078167115902965,NA
27505,Harnett County,NC,94.18604651162791,NA,NA
27511,Wake County,NC,NA,NA,23.076923076923077
27529,Wake County,NC,18.992248062015506,69.2722371967655,NA
27530,Wayne County,NC,NA,NA,85.64102564102564
27536,Vance County,NC,NA,22.371967654986523,NA
27615,Wake County,NC,NA,34.77088948787062,NA
27703,Durham County,NC,8.914728682170542,NA,NA
27705,Durham County,NC,69.76744186046511,NA,NA
27712,Durham County,NC,NA,28.84097035040431,NA
27834,Pitt County,NC,6.5891472868217065,NA,NA
27870,Halifax County,NC,NA,NA,29.48717948717949
27886,Edgecombe County,NC,NA,NA,57.179487179487175
27896,Wilson County,NC,81.78294573643412,NA,NA
28025,Cabarrus County,NC,NA,NA,6.923076923076923
28086,Cleveland County,NC,19.379844961240313,NA,NA
28208,Mecklenburg County,NC,NA,61.18598382749326,NA
28214,Mecklenburg County,NC,NA,36.92722371967655,NA
28215,Mecklenburg County,NC,NA,NA,49.23076923076923
28328,Sampson County,NC,NA,17.52021563342318,NA
28364,Robeson County,NC,57.36434108527132,NA,NA
28516,Carteret County,NC,NA,42.58760107816711,NA
28525,Lenoir County,NC,NA,89.75741239892183,NA
28530,Pitt County,NC,NA,NA,77.6923076923077
28613,Catawba County,NC,NA,28.30188679245283,NA
28625,Iredell County,NC,NA,NA,15.64102564102564
28630,Caldwell County,NC,NA,NA,34.1025641025641
28645,Caldwell County,NC,NA,0.2695417789757413,NA
28681,Alexander County,NC,NA,27.762803234501348,NA
28690,Burke County,NC,NA,NA,70.51282051282051
28730,Buncombe County,NC,NA,NA,83.58974358974359
28754,Madison County,NC,80.62015503875969,NA,NA
28787,Buncombe County,NC,NA,85.44474393530997,NA
28806,Buncombe County,NC,NA,59.83827493261455,NA
43028,Knox County,OH,NA,NA,26.153846153846157
43040,Union County,OH,NA,40.16172506738545,NA
43055,Licking County,OH,NA,NA,2.051282051282051
43113,Pickaway County,OH,NA,NA,24.358974358974358
43214,Franklin County,OH,NA,NA,59.743589743589745
43220,Franklin County,OH,NA,NA,27.435897435897438
43224,Franklin County,OH,NA,NA,17.17948717948718
43315,Morrow County,OH,44.96124031007752,NA,NA
43512,Defiance County,OH,2.7131782945736433,NA,NA
43613,Lucas County,OH,NA,NA,91.53846153846153
43725,Guernsey County,OH,NA,NA,16.41025641025641
44004,Ashtabula County,OH,1.1627906976744187,NA,NA
44012,Lorain County,OH,NA,NA,23.333333333333332
44017,Cuyahoga County,OH,NA,NA,18.71794871794872
44023,Geauga County,OH,NA,NA,48.205128205128204
44024,Geauga County,OH,NA,52.56064690026954,NA
44030,Ashtabula County,OH,37.98449612403101,NA,NA
44035,Lorain County,OH,NA,NA,0
44062,Geauga County,OH,NA,85.98382749326146,NA
44087,Summit County,OH,NA,NA,1.5384615384615385
44090,Lorain County,OH,NA,31.536388140161726,NA
44116,Cuyahoga County,OH,72.48062015503875,NA,48.46153846153846
44122,Cuyahoga County,OH,NA,NA,71.7948717948718
44129,Cuyahoga County,OH,NA,13.20754716981132,NA
44134,Cuyahoga County,OH,NA,14.824797843665769,NA
44137,Cuyahoga County,OH,NA,8.62533692722372,NA
44143,Cuyahoga County,OH,NA,12.398921832884097,NA
44144,Cuyahoga County,OH,NA,7.008086253369273,NA
44145,Cuyahoga County,OH,NA,4.5822102425876015,NA
44146,Cuyahoga County,OH,NA,13.746630727762804,4.358974358974359
44281,Medina County,OH,NA,NA,52.56410256410257
44420,Trumbull County,OH,NA,NA,33.07692307692307
44460,Columbiana County,OH,NA,7.547169811320755,NA
44484,Trumbull County,OH,NA,10.781671159029651,NA
44485,Trumbull County,OH,NA,NA,24.871794871794872
44504,Mahoning County,OH,NA,95.14824797843666,NA
44511,Mahoning County,OH,17.441860465116278,NA,40
44512,Mahoning County,OH,NA,NA,9.7435897435897445
44683,Tuscarawas County,OH,NA,NA,52.307692307692314
44705,Stark County,OH,56.58914728682171,NA,NA
44710,Stark County,OH,NA,NA,48.717948717948715
45013,Butler County,OH,NA,NA,2.564102564102564
45042,Butler County,OH,NA,85.71428571428571,NA
45177,Clinton County,OH,38.759689922480625,NA,NA
45216,Hamilton County,OH,NA,50.13477088948787,NA
45233,Hamilton County,OH,NA,NA,25.384615384615383
45239,Hamilton County,OH,NA,NA,28.46153846153846
45243,Hamilton County,OH,94.96124031007753,NA,NA
45251,Hamilton County,OH,NA,NA,69.23076923076923
45322,Montgomery County,OH,28.68217054263566,NA,NA
45324,Greene County,OH,70.15503875968993,NA,NA
45344,Clark County,OH,NA,93.80053908355795,NA
45385,Greene County,OH,NA,NA,5.641025641025641
45415,Montgomery County,OH,NA,NA,87.6923076923077
45426,Montgomery County,OH,NA,NA,38.205128205128204
45431,Montgomery County,OH,80.23255813953489,NA,NA
45505,Clark County,OH,NA,NA,49.743589743589745
45640,Jackson County,OH,6.2015503875969,NA,NA
45662,Scioto County,OH,NA,26.954177897574123,NA
45669,Lawrence County,OH,60.07751937984496,NA,NA
45692,Jackson County,OH,NA,84.90566037735849,NA
45805,Allen County,OH,10.077519379844961,19.137466307277627,NA
73005,Caddo County,OK,NA,NA,59.23076923076923
73008,Oklahoma County,OK,NA,43.39622641509434,NA
73071,Cleveland County,OK,63.17829457364341,NA,NA
73139,Oklahoma County,OK,NA,NA,41.28205128205128
73401,Carter County,OK,10.465116279069768,NA,NA
73701,Garfield County,OK,NA,71.42857142857143,NA
74074,Payne County,OK,31.3953488372093,NA,NA
74114,Tulsa County,OK,NA,NA,82.05128205128204
74136,Tulsa County,OK,NA,NA,47.179487179487175
74464,Cherokee County,OK,57.751937984496124,NA,NA
74855,Lincoln County,OK,82.17054263565892,NA,NA
97013,Clackamas County,OR,75.1937984496124,NA,NA
97015,Clackamas County,OR,NA,54.98652291105122,NA
97056,Columbia County,OR,53.100775193798455,NA,NA
97058,Wasco County,OR,NA,NA,53.333333333333336
97209,Multnomah County,OR,NA,94.87870619946092,NA
97402,Lane County,OR,NA,63.881401617250674,NA
97405,Lane County,OR,NA,NA,35.128205128205124
97814,Baker County,OR,NA,79.78436657681941,NA
15009,Beaver County,PA,NA,NA,72.82051282051282
15017,Allegheny County,PA,NA,NA,61.282051282051285
15025,Allegheny County,PA,NA,NA,41.794871794871796
15062,Westmoreland County,PA,NA,82.47978436657682,NA
15205,Allegheny County,PA,NA,NA,65.8974358974359
15208,Allegheny County,PA,NA,58.760107816711596,NA
15220,Allegheny County,PA,NA,NA,39.23076923076923
15301,Washington County,PA,NA,4.8517520215633425,NA
15650,Westmoreland County,PA,NA,83.55795148247978,NA
15851,Jefferson County,PA,NA,NA,18.974358974358974
15853,Elk County,PA,NA,NA,40.256410256410255
16066,Butler County,PA,NA,NA,81.7948717948718
16101,Lawrence County,PA,NA,24.528301886792452,NA
16117,Lawrence County,PA,NA,NA,44.871794871794876
16142,Lawrence County,PA,98.06201550387597,NA,NA
16159,Mercer County,PA,NA,NA,96.66666666666667
16502,Erie County,PA,30.23255813953488,NA,NA
16601,Blair County,PA,7.751937984496124,NA,NA
17025,Cumberland County,PA,NA,66.84636118598382,NA
17032,Dauphin County,PA,NA,95.4177897574124,NA
17059,Juniata County,PA,NA,97.84366576819407,NA
17113,Dauphin County,PA,NA,39.083557951482476,NA
17222,Franklin County,PA,NA,NA,88.97435897435896
17347,York County,PA,NA,56.8733153638814,NA
17356,York County,PA,NA,93.53099730458221,NA
17403,York County,PA,NA,2.4258760107816713,NA
17545,Lancaster County,PA,NA,NA,11.025641025641026
17579,Lancaster County,PA,76.35658914728683,NA,NA
17701,Lycoming County,PA,NA,65.49865229110512,NA
17801,Northumberland County,PA,NA,NA,89.48717948717949
17815,Columbia County,PA,NA,48.24797843665768,NA
17847,Northumberland County,PA,NA,35.309973045822105,NA
17931,Schuylkill County,PA,NA,71.69811320754717,NA
17972,Schuylkill County,PA,NA,NA,80.51282051282051
18015,Northampton County,PA,NA,NA,51.28205128205128
18036,Lehigh County,PA,NA,93.26145552560648,NA
18052,Lehigh County,PA,14.728682170542637,NA,NA
18064,Northampton County,PA,NA,NA,83.84615384615385
18235,Carbon County,PA,68.9922480620155,NA,NA
18428,Pike County,PA,NA,82.74932614555256,NA
18434,Lackawanna County,PA,92.63565891472868,NA,NA
18657,Wyoming County,PA,NA,NA,44.61538461538462
18702,Luzerne County,PA,NA,4.31266846361186,NA
18940,Bucks County,PA,NA,83.82749326145552,NA
19038,Montgomery County,PA,82.94573643410853,NA,NA
19044,Montgomery County,PA,NA,57.41239892183289,NA
19050,Delaware County,PA,71.70542635658916,11.320754716981133,NA
19072,Montgomery County,PA,NA,NA,45.38461538461539
19090,Montgomery County,PA,NA,NA,84.35897435897436
19116,Philadelphia County,PA,NA,NA,44.1025641025641
19124,Philadelphia County,PA,NA,8.89487870619946,NA
19125,Philadelphia County,PA,NA,NA,70.25641025641025
19126,Philadelphia County,PA,NA,33.153638814016176,NA
19136,Philadelphia County,PA,NA,NA,26.410256410256412
19143,Philadelphia County,PA,NA,NA,6.153846153846154
19144,Philadelphia County,PA,3.488372093023256,NA,NA
19147,Philadelphia County,PA,51.162790697674424,NA,NA
19152,Philadelphia County,PA,NA,NA,31.538461538461537
19312,Chester County,PA,NA,NA,75.64102564102564
19341,Chester County,PA,NA,NA,38.46153846153847
19355,Chester County,PA,NA,NA,35.8974358974359
19401,Montgomery County,PA,NA,17.25067385444744,NA
19454,Montgomery County,PA,NA,34.23180592991914,29.743589743589745
19468,Montgomery County,PA,NA,NA,78.97435897435898
19520,Chester County,PA,82.55813953488372,NA,NA
19604,Berks County,PA,NA,98.92183288409704,NA
19605,Berks County,PA,77.13178294573643,NA,NA
02864,Providence County,RI,NA,NA,26.923076923076923
02871,Newport County,RI,NA,NA,57.43589743589743
02908,Providence County,RI,NA,NA,19.230769230769234
29044,Richland County,SC,NA,NA,83.33333333333334
29150,Sumter County,SC,NA,NA,55.8974358974359
29153,Sumter County,SC,NA,92.72237196765498,NA
29210,Richland County,SC,NA,NA,73.33333333333333
29325,Laurens County,SC,61.240310077519375,NA,NA
29340,Cherokee County,SC,NA,38.81401617250674,NA
29349,Spartanburg County,SC,65.11627906976744,15.09433962264151,NA
29385,Spartanburg County,SC,NA,74.66307277628033,NA
29388,Spartanburg County,SC,NA,NA,74.35897435897436
29403,Charleston County,SC,NA,91.64420485175202,NA
29461,Berkeley County,SC,NA,23.180592991913745,NA
29505,Florence County,SC,NA,NA,93.58974358974359
29556,Williamsburg County,SC,NA,NA,82.564102564102555
29601,Greenville County,SC,NA,62.8032345013477,NA
29605,Greenville County,SC,NA,NA,76.41025641025641
29650,Greenville County,SC,64.72868217054264,NA,NA
29692,Laurens County,SC,NA,NA,79.23076923076923
29693,Oconee County,SC,NA,NA,57.948717948717956
29696,Oconee County,SC,NA,86.79245283018868,NA
29706,Chester County,SC,25.1937984496124,NA,NA
29707,Lancaster County,SC,NA,35.84905660377358,NA
29715,York County,SC,NA,56.60377358490566,NA
29730,York County,SC,13.953488372093023,92.18328840970351,NA
29927,Jasper County,SC,67.05426356589147,NA,NA
57108,Lincoln County,SD,46.89922480620155,NA,NA
57783,Lawrence County,SD,NA,NA,52.05128205128206
37066,Sumner County,TN,NA,8.355795148247978,NA
37110,Warren County,TN,12.015503875968992,NA,NA
37172,Robertson County,TN,NA,22.641509433962266,NA
37210,Davidson County,TN,40.69767441860465,NA,NA
37220,Davidson County,TN,NA,NA,90.51282051282051
37336,Bradley County,TN,NA,87.33153638814017,NA
37660,Sullivan County,TN,NA,8.086253369272237,NA
37771,Loudon County,TN,NA,NA,56.666666666666664
37804,Blount County,TN,20.54263565891473,NA,NA
37821,Cocke County,TN,NA,NA,25.128205128205128
37861,Grainger County,TN,NA,83.01886792452831,NA
37862,Sevier County,TN,NA,NA,28.717948717948715
37918,Knox County,TN,NA,NA,69.74358974358974
38006,Crockett County,TN,81.3953488372093,NA,NA
38104,Shelby County,TN,73.25581395348837,NA,NA
38114,Shelby County,TN,NA,65.76819407008087,NA
38117,Shelby County,TN,NA,NA,39.48717948717949
38127,Shelby County,TN,25.968992248062015,NA,NA
38372,Hardin County,TN,90.69767441860465,NA,NA
38570,Overton County,TN,NA,90.02695417789758,NA
38571,Cumberland County,TN,NA,69.81132075471697,NA
75010,Denton County,TX,NA,NA,94.87179487179486
75025,Collin County,TX,NA,NA,43.333333333333336
75060,Dallas County,TX,NA,28.57142857142857,NA
75087,Rockwall County,TX,91.47286821705426,NA,NA
75211,Dallas County,TX,13.565891472868216,NA,NA
75216,Dallas County,TX,71.31782945736434,NA,NA
75218,Dallas County,TX,58.139534883720934,NA,NA
75227,Dallas County,TX,NA,24.797843665768195,NA
75409,Collin County,TX,96.89922480620154,NA,NA
75457,Franklin County,TX,NA,76.01078167115904,NA
75494,Wood County,TX,NA,50.943396226415096,NA
75604,Gregg County,TX,NA,45.01347708894879,NA
75647,Gregg County,TX,NA,NA,92.05128205128204
75701,Smith County,TX,NA,12.129380053908356,NA
75703,Smith County,TX,23.643410852713178,NA,NA
76051,Tarrant County,TX,23.25581395348837,NA,NA
76086,Parker County,TX,NA,81.40161725067385,NA
76114,Tarrant County,TX,NA,NA,92.3076923076923
76119,Tarrant County,TX,6.976744186046512,NA,NA
76180,Tarrant County,TX,29.069767441860467,NA,NA
76255,Montague County,TX,98.83720930232558,NA,NA
76528,Coryell County,TX,NA,52.2911051212938,NA
76541,Bell County,TX,NA,NA,11.282051282051283
77007,Harris County,TX,NA,NA,58.71794871794872
77068,Harris County,TX,NA,73.58490566037736,NA
77069,Harris County,TX,NA,NA,68.71794871794872
77077,Harris County,TX,NA,NA,87.43589743589743
77088,Harris County,TX,NA,23.450134770889488,NA
77365,Montgomery County,TX,NA,46.900269541778975,NA
77429,Harris County,TX,NA,NA,42.05128205128205
77437,Wharton County,TX,NA,84.63611859838275,NA
77551,Galveston County,TX,42.248062015503876,NA,NA
77563,Galveston County,TX,NA,NA,37.43589743589744
77566,Brazoria County,TX,NA,NA,90.76923076923077
77879,Burleson County,TX,NA,NA,63.33333333333333
78002,Bexar County,TX,98.44961240310077,NA,NA
78013,Kendall County,TX,NA,NA,69.48717948717949
78065,Atascosa County,TX,NA,74.93261455525607,NA
78219,Bexar County,TX,NA,NA,67.17948717948717
78251,Bexar County,TX,NA,NA,43.84615384615385
78332,Jim Wells County,TX,67.82945736434108,NA,NA
78415,Nueces County,TX,NA,90.56603773584906,NA
78521,Cameron County,TX,NA,56.06469002695418,NA
78633,Williamson County,TX,NA,11.05121293800539,NA
78748,Travis County,TX,NA,83.28840970350404,NA
78749,Travis County,TX,NA,94.07008086253369,NA
78757,Travis County,TX,NA,NA,55.38461538461539
79119,Randall County,TX,NA,66.57681940700809,NA
79124,Potter County,TX,NA,NA,84.61538461538461
79410,Lubbock County,TX,NA,86.52291105121293,NA
79512,Mitchell County,TX,65.89147286821705,NA,NA
79706,Midland County,TX,87.98449612403101,NA,NA
79835,El Paso County,TX,NA,75.47169811320755,NA
79907,El Paso County,TX,NA,15.363881401617252,NA
79925,El Paso County,TX,NA,NA,22.30769230769231
79927,El Paso County,TX,NA,NA,90.25641025641026
84655,Utah County,UT,NA,NA,99.23076923076923
84770,Washington County,UT,NA,NA,40.76923076923077
05701,Rutland County,VT,NA,NA,8.461538461538462
20152,Loudoun County,VA,89.53488372093024,NA,NA
20170,Fairfax County,VA,NA,33.692722371967655,NA
22015,Fairfax County,VA,NA,33.9622641509434,NA
22303,Fairfax County,VA,NA,NA,91.7948717948718
22306,Fairfax County,VA,NA,NA,86.66666666666667
22310,Fairfax County,VA,NA,NA,55.64102564102564
22314,Alexandria city,VA,45.73643410852713,NA,97.94871794871794
22407,Spotsylvania County,VA,50.3875968992248,NA,NA
22443,Westmoreland County,VA,NA,NA,76.92307692307693
22630,Warren County,VA,NA,54.17789757412399,NA
22821,Rockingham County,VA,NA,NA,95.64102564102565
22903,Charlottesville city,VA,NA,73.8544474393531,NA
22980,Waynesboro city,VA,NA,18.867924528301888,NA
23111,Hanover County,VA,NA,NA,12.051282051282051
23223,Henrico County,VA,2.3255813953488373,NA,NA
23225,Richmond city,VA,NA,NA,20
23233,Henrico County,VA,NA,NA,48.97435897435897
23805,Petersburg city,VA,78.29457364341084,NA,NA
24073,Montgomery County,VA,29.457364341085274,NA,NA
24101,Franklin County,VA,NA,64.6900269541779,NA
24112,Henry County,VA,32.17054263565892,NA,NA
24236,Washington County,VA,NA,96.7654986522911,NA
24441,Rockingham County,VA,NA,56.334231805929925,NA
24540,Danville city,VA,NA,NA,54.871794871794876
24541,Danville city,VA,NA,NA,75.8974358974359
98003,King County,WA,NA,86.25336927223721,NA
98011,King County,WA,41.86046511627907,NA,NA
98023,King County,WA,NA,NA,16.41025641025641
98032,King County,WA,NA,NA,46.92307692307692
98034,King County,WA,NA,NA,20.76923076923077
98042,King County,WA,NA,NA,42.56410256410256
98112,King County,WA,NA,NA,79.48717948717949
98166,King County,WA,NA,NA,80
98223,Snohomish County,WA,NA,66.0377358490566,NA
98329,Pierce County,WA,74.8062015503876,NA,NA
98354,Pierce County,WA,NA,NA,58.97435897435898
98367,Kitsap County,WA,NA,35.04043126684636,NA
98370,Kitsap County,WA,NA,29.649595687331537,NA
98372,Pierce County,WA,NA,43.66576819407008,NA
98444,Pierce County,WA,50,NA,NA
98499,Pierce County,WA,NA,38.274932614555254,NA
98501,Thurston County,WA,NA,55.525606469002696,NA
98524,Mason County,WA,NA,NA,62.05128205128205
98597,Thurston County,WA,NA,NA,62.56410256410256
98606,Clark County,WA,84.10852713178295,NA,NA
98661,Clark County,WA,NA,26.41509433962264,NA
98664,Clark County,WA,NA,78.70619946091644,NA
98682,Clark County,WA,NA,NA,22.564102564102566
98901,Yakima County,WA,37.2093023255814,NA,NA
98922,Kittitas County,WA,NA,NA,66.92307692307692
99201,Spokane County,WA,NA,90.29649595687331,NA
99205,Spokane County,WA,66.27906976744185,NA,71.28205128205128
99324,Walla Walla County,WA,NA,NA,47.94871794871795
25302,Kanawha County,WV,NA,NA,38.97435897435898
25314,Kanawha County,WV,72.86821705426357,NA,NA
25438,Jefferson County,WV,NA,NA,74.61538461538461
25704,Wayne County,WV,21.31782945736434,NA,NA
26070,Brooke County,WV,NA,NA,51.02564102564102
26201,Upshur County,WV,NA,NA,9.230769230769232
26301,Harrison County,WV,NA,9.164420485175203,NA
26501,Monongalia County,WV,NA,20.485175202156334,NA
26537,Preston County,WV,NA,47.43935309973046,NA
53072,Waukesha County,WI,39.922480620155035,NA,NA
53105,Racine County,WI,NA,9.703504043126685,NA
53110,Milwaukee County,WI,NA,NA,77.94871794871796
53132,Milwaukee County,WI,NA,42.857142857142854,NA
53151,Waukesha County,WI,NA,57.68194070080862,61.02564102564103
53172,Milwaukee County,WI,NA,NA,50.256410256410255
53202,Milwaukee County,WI,NA,32.34501347708895,NA
53205,Milwaukee County,WI,64.34108527131784,NA,NA
53211,Milwaukee County,WI,NA,NA,27.94871794871795
53212,Milwaukee County,WI,30.620155038759687,NA,NA
53215,Milwaukee County,WI,NA,4.0431266846361185,NA
53216,Milwaukee County,WI,5.426356589147287,NA,NA
53218,Milwaukee County,WI,NA,27.22371967654987,NA
53219,Milwaukee County,WI,13.178294573643413,NA,NA
53221,Milwaukee County,WI,NA,NA,30.76923076923077
53223,Milwaukee County,WI,11.627906976744185,NA,NA
53403,Racine County,WI,NA,NA,85.8974358974359
53548,Rock County,WI,NA,NA,60.256410256410255
53559,Dane County,WI,83.72093023255815,NA,NA
53705,Dane County,WI,NA,NA,8.205128205128204
54115,Brown County,WI,NA,22.10242587601078,NA
54220,Manitowoc County,WI,70.93023255813954,NA,NA
54401,Marathon County,WI,NA,NA,89.74358974358975
54603,La Crosse County,WI,NA,NA,8.974358974358974
54615,Jackson County,WI,NA,60.91644204851752,NA
54636,La Crosse County,WI,NA,36.65768194070081,NA
54720,Eau Claire County,WI,NA,75.2021563342318,NA
54751,Dunn County,WI,NA,19.67654986522911,NA
54755,Buffalo County,WI,NA,60.37735849056604,NA
54822,Barron County,WI,NA,95.95687331536388,NA
54880,Douglas County,WI,NA,NA,0.7692307692307693
54914,Outagamie County,WI,17.05426356589147,NA,NA
54923,Green Lake County,WI,NA,72.23719676549865,NA
54952,Winnebago County,WI,NA,NA,63.589743589743584
54981,Waupaca County,WI,NA,NA,51.7948717948718
