ZipCode,county,state,Adult,Retirement,Geriatric
35072,Coosa County,AL,NA,89.81818181818181,NA
35111,Tuscaloosa County,AL,86.63101604278076,NA,NA
35120,St. Clair County,AL,40.37433155080214,NA,NA
35150,Talladega County,AL,NA,NA,65.28776978417267
35160,Talladega County,AL,63.63636363636363,NA,NA
35563,Marion County,AL,NA,NA,81.29496402877699
35594,Marion County,AL,62.299465240641716,NA,NA
35630,Lauderdale County,AL,NA,NA,73.7410071942446
36089,Bullock County,AL,84.22459893048129,NA,NA
36426,Escambia County,AL,NA,NA,83.81294964028777
36502,Escambia County,AL,54.54545454545454,NA,NA
36507,Baldwin County,AL,NA,NA,78.59712230215827
36541,Mobile County,AL,NA,NA,68.16546762589928
36605,Mobile County,AL,NA,75.27272727272727,NA
36693,Mobile County,AL,NA,NA,41.18705035971223
36701,Dallas County,AL,73.52941176470588,NA,NA
99501,Anchorage Municipality,AK,NA,82.36363636363636,NA
85008,Maricopa County,AZ,10.695187165775401,13.090909090909092,NA
85019,Maricopa County,AZ,NA,48.18181818181818,NA
85020,Maricopa County,AZ,NA,NA,27.51798561151079
85031,Maricopa County,AZ,NA,NA,57.37410071942446
85033,Maricopa County,AZ,NA,NA,46.402877697841724
85041,Maricopa County,AZ,NA,13.454545454545455,NA
85051,Maricopa County,AZ,NA,23.454545454545457,NA
85120,Pinal County,AZ,NA,21.454545454545453,NA
85122,Pinal County,AZ,24.598930481283425,NA,NA
85142,Maricopa County,AZ,NA,14.727272727272728,NA
85201,Maricopa County,AZ,60.6951871657754,NA,NA
85206,Maricopa County,AZ,NA,57.81818181818181,NA
85208,Maricopa County,AZ,NA,NA,13.129496402877697
85226,Maricopa County,AZ,NA,46.36363636363636,NA
85234,Maricopa County,AZ,NA,36.90909090909091,NA
85284,Maricopa County,AZ,84.75935828877004,NA,NA
85303,Maricopa County,AZ,95.18716577540107,NA,NA
85326,Maricopa County,AZ,72.45989304812835,NA,NA
85331,Maricopa County,AZ,NA,NA,38.669064748201436
85351,Maricopa County,AZ,NA,3.272727272727273,NA
85364,Yuma County,AZ,NA,0.7272727272727273,NA
85365,Yuma County,AZ,NA,NA,43.16546762589928
85381,Maricopa County,AZ,NA,51.63636363636363,NA
85614,Pima County,AZ,NA,NA,14.20863309352518
85622,Pima County,AZ,NA,NA,34.172661870503596
85705,Pima County,AZ,NA,2.181818181818182,NA
85706,Pima County,AZ,NA,3.090909090909091,NA
85748,Pima County,AZ,NA,49.27272727272727,NA
85901,Navajo County,AZ,NA,NA,37.23021582733813
85937,Navajo County,AZ,NA,83.63636363636363,NA
86047,Navajo County,AZ,NA,46.909090909090914,NA
86322,Yavapai County,AZ,NA,42.36363636363637,NA
86426,Mohave County,AZ,NA,NA,61.15107913669065
86429,Mohave County,AZ,NA,39.09090909090909,90.64748201438849
71753,Columbia County,AR,NA,NA,36.15107913669065
71923,Clark County,AR,NA,92,NA
72210,Pulaski County,AR,86.36363636363636,NA,NA
72315,Mississippi County,AR,NA,66,NA
72401,Craighead County,AR,33.68983957219251,3.6363636363636362,66.90647482014388
72450,Greene County,AR,NA,40.54545454545455,NA
72501,Independence County,AR,NA,NA,15.287769784172662
72758,Benton County,AR,NA,36.72727272727273,NA
72956,Crawford County,AR,70.58823529411765,NA,NA
90063,Los Angeles County,CA,NA,52.545454545454554,NA
90220,Los Angeles County,CA,NA,NA,20.323741007194247
90221,Los Angeles County,CA,7.754010695187167,NA,NA
90602,Los Angeles County,CA,NA,NA,94.42446043165468
90620,Orange County,CA,NA,NA,13.848920863309353
90630,Orange County,CA,NA,10,20.14388489208633
90660,Los Angeles County,CA,NA,NA,11.33093525179856
90807,Los Angeles County,CA,NA,NA,33.81294964028777
91214,Los Angeles County,CA,87.16577540106952,NA,NA
91316,Los Angeles County,CA,NA,NA,11.690647482014388
91321,Los Angeles County,CA,NA,44.54545454545455,NA
91367,Los Angeles County,CA,NA,NA,8.992805755395683
91403,Los Angeles County,CA,NA,NA,58.992805755395686
91605,Los Angeles County,CA,NA,NA,35.79136690647482
91737,San Bernardino County,CA,NA,NA,92.62589928057554
91767,Los Angeles County,CA,NA,NA,30.39568345323741
91770,Los Angeles County,CA,NA,27.81818181818182,NA
91784,San Bernardino County,CA,NA,30.545454545454547,NA
91786,San Bernardino County,CA,NA,20.363636363636363,NA
91942,San Diego County,CA,68.44919786096256,NA,60.431654676258994
92025,San Diego County,CA,NA,NA,26.43884892086331
92078,San Diego County,CA,NA,NA,12.410071942446043
92115,San Diego County,CA,23.262032085561497,NA,NA
92124,San Diego County,CA,NA,50.90909090909091,NA
92126,San Diego County,CA,NA,46.54545454545455,NA
92128,San Diego County,CA,NA,NA,77.87769784172663
92220,Riverside County,CA,NA,73.81818181818181,NA
92251,Imperial County,CA,50,NA,NA
92252,San Bernardino County,CA,NA,57.27272727272727,NA
92257,Imperial County,CA,100,NA,NA
92592,Riverside County,CA,NA,63.63636363636363,NA
92660,Orange County,CA,NA,NA,5.39568345323741
92677,Orange County,CA,NA,77.63636363636364,NA
92705,Orange County,CA,NA,NA,10.431654676258994
92802,Orange County,CA,NA,71.0909090909091,NA
92840,Orange County,CA,NA,60.909090909090914,NA
92879,Riverside County,CA,NA,NA,72.48201438848922
92886,Orange County,CA,NA,6.363636363636363,NA
93010,Ventura County,CA,NA,NA,4.496402877697841
93033,Ventura County,CA,NA,82.54545454545455,NA
93105,Santa Barbara County,CA,NA,NA,38.84892086330935
93111,Santa Barbara County,CA,NA,NA,43.70503597122302
93240,Kern County,CA,NA,NA,57.9136690647482
93241,Kern County,CA,NA,NA,89.38848920863309
93257,Tulare County,CA,NA,96.18181818181817,NA
93268,Kern County,CA,NA,NA,76.07913669064749
93309,Kern County,CA,NA,70.54545454545455,NA
93436,Santa Barbara County,CA,NA,NA,70.50359712230215
93455,Santa Barbara County,CA,23.796791443850267,NA,5.215827338129497
93460,Santa Barbara County,CA,NA,99.63636363636364,NA
93611,Fresno County,CA,NA,21.818181818181817,NA
93631,Fresno County,CA,NA,65.27272727272727,NA
93906,Monterey County,CA,NA,NA,26.07913669064748
93950,Monterey County,CA,NA,NA,87.94964028776978
94061,San Mateo County,CA,NA,NA,7.553956834532374
94306,Santa Clara County,CA,NA,NA,33.63309352517986
94518,Contra Costa County,CA,58.288770053475936,NA,NA
94521,Contra Costa County,CA,NA,NA,80.39568345323741
94538,Alameda County,CA,NA,NA,9.892086330935252
94590,Solano County,CA,41.17647058823529,NA,NA
94598,Contra Costa County,CA,NA,77.27272727272727,NA
94603,Alameda County,CA,NA,69.63636363636364,NA
94612,Alameda County,CA,NA,NA,50.35971223021583
94920,Marin County,CA,NA,NA,28.23741007194245
95054,Santa Clara County,CA,64.97326203208557,NA,NA
95304,San Joaquin County,CA,NA,NA,39.568345323741006
95340,Merced County,CA,46.79144385026738,NA,NA
95472,Sonoma County,CA,NA,39.27272727272727,NA
95490,Mendocino County,CA,55.3475935828877,NA,NA
95531,Del Norte County,CA,NA,32.72727272727273,NA
95670,Sacramento County,CA,NA,19.090909090909093,NA
95691,Yolo County,CA,NA,35.090909090909086,NA
95823,Sacramento County,CA,NA,8.363636363636363,NA
95835,Sacramento County,CA,NA,NA,28.9568345323741
95928,Butte County,CA,NA,NA,11.870503597122301
95945,Nevada County,CA,NA,NA,52.33812949640287
95973,Butte County,CA,NA,12.545454545454545,NA
96002,Shasta County,CA,NA,90.72727272727272,NA
96007,Shasta County,CA,69.78609625668449,90.9090909090909,NA
96080,Tehama County,CA,NA,NA,70.86330935251799
80003,Jefferson County,CO,33.9572192513369,NA,NA
80013,Arapahoe County,CO,7.219251336898395,NA,NA
80124,Douglas County,CO,NA,NA,85.97122302158273
80125,Douglas County,CO,NA,73.63636363636363,NA
80128,Jefferson County,CO,NA,71.27272727272728,NA
80134,Douglas County,CO,NA,NA,37.76978417266187
80203,Denver County,CO,NA,82.9090909090909,NA
80209,Denver County,CO,42.513368983957214,43.63636363636363,NA
80220,Denver County,CO,NA,NA,92.80575539568345
80224,Denver County,CO,NA,NA,78.41726618705036
80239,Denver County,CO,NA,32.90909090909091,NA
80538,Larimer County,CO,NA,NA,41.726618705035975
80550,Weld County,CO,NA,NA,29.676258992805753
80906,El Paso County,CO,NA,NA,15.647482014388489
81004,Pueblo County,CO,91.44385026737967,NA,NA
81006,Pueblo County,CO,NA,94.54545454545455,NA
81101,Alamosa County,CO,31.550802139037433,NA,NA
81520,Mesa County,CO,51.06951871657755,NA,NA
06029,Tolland County,CT,39.037433155080215,94.72727272727272,NA
06037,Hartford County,CT,NA,NA,60.79136690647482
06042,Hartford County,CT,28.07486631016043,NA,79.13669064748201
06066,Tolland County,CT,NA,69.27272727272728,NA
06095,Hartford County,CT,90.64171122994652,NA,NA
06118,Hartford County,CT,NA,NA,82.91366906474819
06226,Windham County,CT,11.76470588235294,NA,NA
06238,Tolland County,CT,99.19786096256684,89.63636363636364,NA
06422,Middlesex County,CT,NA,NA,74.46043165467626
06484,Fairfield County,CT,NA,NA,32.37410071942446
06604,Fairfield County,CT,NA,23.09090909090909,NA
06787,Litchfield County,CT,NA,NA,47.122302158273385
06811,Fairfield County,CT,34.22459893048128,NA,NA
06825,Fairfield County,CT,NA,58.54545454545455,NA
06902,Fairfield County,CT,NA,26.545454545454543,71.0431654676259
19720,New Castle County,DE,NA,57.09090909090909,NA
19802,New Castle County,DE,32.887700534759354,NA,75.89928057553958
19804,New Castle County,DE,NA,28.909090909090907,NA
19805,New Castle County,DE,NA,24.727272727272727,NA
19901,Kent County,DE,NA,69.45454545454545,NA
19930,Sussex County,DE,NA,77.45454545454545,NA
19938,Kent County,DE,NA,NA,54.67625899280576
19939,Sussex County,DE,NA,88.9090909090909,NA
19956,Sussex County,DE,NA,54.18181818181819,NA
19958,Sussex County,DE,NA,70.9090909090909,25.719424460431657
19966,Sussex County,DE,62.56684491978609,NA,NA
19971,Sussex County,DE,NA,NA,44.96402877697842
32038,Columbia County,FL,85.29411764705883,NA,NA
32063,Baker County,FL,71.12299465240642,NA,NA
32091,Bradford County,FL,30.74866310160428,NA,NA
32132,Volusia County,FL,NA,NA,58.81294964028777
32137,Flagler County,FL,NA,NA,3.5971223021582732
32169,Volusia County,FL,NA,NA,58.45323741007194
32217,Duval County,FL,NA,NA,42.086330935251794
32221,Duval County,FL,NA,48,NA
32303,Leon County,FL,NA,29.272727272727273,NA
32462,Washington County,FL,NA,NA,100
32503,Escambia County,FL,NA,NA,7.913669064748201
32703,Orange County,FL,NA,7.454545454545454,NA
32776,Lake County,FL,97.05882352941177,NA,NA
32778,Lake County,FL,NA,NA,62.94964028776978
32839,Orange County,FL,71.3903743315508,NA,NA
32909,Brevard County,FL,NA,18,NA
32940,Brevard County,FL,NA,NA,3.237410071942446
32953,Brevard County,FL,NA,NA,6.654676258992806
32955,Brevard County,FL,NA,12,NA
32958,Indian River County,FL,NA,NA,33.992805755395686
32963,Indian River County,FL,NA,34.54545454545455,NA
32976,Brevard County,FL,NA,34.18181818181818,NA
33012,Miami-Dade County,FL,NA,NA,2.158273381294964
33033,Miami-Dade County,FL,NA,34.18181818181818,NA
33065,Broward County,FL,NA,NA,19.06474820143885
33068,Broward County,FL,NA,NA,87.23021582733813
33125,Miami-Dade County,FL,32.62032085561498,NA,NA
33126,Miami-Dade County,FL,NA,87.63636363636364,NA
33147,Miami-Dade County,FL,NA,47.81818181818182,NA
33156,Miami-Dade County,FL,NA,NA,28.41726618705036
33157,Miami-Dade County,FL,NA,10.727272727272727,36.69064748201439
33160,Miami-Dade County,FL,45.72192513368984,NA,NA
33165,Miami-Dade County,FL,NA,NA,1.4388489208633095
33313,Broward County,FL,NA,94.9090909090909,NA
33315,Broward County,FL,86.09625668449198,NA,NA
33401,Palm Beach County,FL,NA,NA,60.07194244604317
33415,Palm Beach County,FL,NA,NA,34.352517985611506
33436,Palm Beach County,FL,NA,NA,45.32374100719424
33437,Palm Beach County,FL,NA,NA,2.697841726618705
33441,Broward County,FL,NA,96.9090909090909,NA
33446,Palm Beach County,FL,NA,NA,1.9784172661870503
33472,Palm Beach County,FL,NA,NA,10.971223021582734
33511,Hillsborough County,FL,NA,15.636363636363637,NA
33540,Pasco County,FL,NA,98.54545454545455,NA
33556,Hillsborough County,FL,NA,NA,45.50359712230216
33602,Hillsborough County,FL,NA,55.45454545454545,NA
33614,Hillsborough County,FL,NA,29.454545454545457,NA
33701,Pinellas County,FL,NA,63.81818181818182,NA
33767,Pinellas County,FL,NA,76.18181818181819,NA
33852,Highlands County,FL,NA,NA,35.25179856115108
33860,Polk County,FL,81.01604278074866,NA,NA
33870,Highlands County,FL,NA,NA,24.820143884892087
33872,Highlands County,FL,NA,86.54545454545455,NA
33880,Polk County,FL,NA,29.818181818181817,NA
33881,Polk County,FL,NA,19.818181818181817,NA
33952,Charlotte County,FL,17.11229946524064,NA,NA
33954,Charlotte County,FL,NA,NA,67.26618705035972
33957,Lee County,FL,NA,50,78.77697841726618
33983,Charlotte County,FL,NA,NA,80.75539568345323
34145,Collier County,FL,NA,27.636363636363637,NA
34209,Manatee County,FL,NA,11.272727272727273,NA
34217,Manatee County,FL,NA,95.45454545454545,NA
34224,Charlotte County,FL,NA,NA,22.302158273381295
34234,Sarasota County,FL,NA,NA,23.021582733812952
34236,Sarasota County,FL,NA,NA,6.83453237410072
34292,Sarasota County,FL,NA,NA,51.618705035971225
34293,Sarasota County,FL,NA,2,NA
34452,Citrus County,FL,NA,NA,50.17985611510791
34474,Marion County,FL,NA,78.9090909090909,NA
34491,Marion County,FL,NA,NA,10.79136690647482
34614,Hernando County,FL,NA,99.81818181818181,NA
34683,Pinellas County,FL,68.71657754010695,NA,NA
34748,Lake County,FL,NA,NA,7.1942446043165464
34953,St. Lucie County,FL,4.0106951871657754,NA,NA
34982,St. Lucie County,FL,NA,85.63636363636363,NA
34997,Martin County,FL,NA,NA,58.63309352517986
30014,Newton County,GA,NA,87.09090909090908,NA
30025,Walton County,GA,NA,60,NA
30032,DeKalb County,GA,NA,27.81818181818182,NA
30039,Gwinnett County,GA,NA,NA,25.899280575539567
30087,DeKalb County,GA,NA,74.90909090909092,16.546762589928058
30152,Cobb County,GA,NA,27.454545454545453,NA
30157,Paulding County,GA,NA,14.000000000000002,NA
30176,Haralson County,GA,NA,NA,89.568345323741
30188,Cherokee County,GA,NA,NA,46.76258992805755
30223,Spalding County,GA,82.88770053475936,NA,98.56115107913669
30230,Troup County,GA,NA,NA,73.56115107913669
30240,Troup County,GA,39.57219251336899,NA,NA
30281,Henry County,GA,NA,64.18181818181819,NA
30292,Pike County,GA,74.59893048128342,NA,NA
30331,Fulton County,GA,NA,68.9090909090909,NA
30349,Fulton County,GA,24.06417112299465,NA,NA
30506,Hall County,GA,NA,NA,62.76978417266187
30519,Gwinnett County,GA,NA,18.90909090909091,NA
30680,Barrow County,GA,NA,11.454545454545455,NA
30701,Gordon County,GA,NA,16.18181818181818,NA
30720,Whitfield County,GA,NA,NA,70.32374100719424
30741,Walker County,GA,14.43850267379679,NA,30.575539568345324
30906,Richmond County,GA,NA,1.2727272727272727,NA
30907,Columbia County,GA,17.647058823529413,NA,NA
31021,Laurens County,GA,NA,NA,64.74820143884892
31088,Houston County,GA,NA,10.363636363636363,NA
31096,Johnson County,GA,NA,NA,59.352517985611506
31204,Bibb County,GA,NA,15.818181818181817,NA
31210,Bibb County,GA,NA,NA,26.258992805755394
31216,Bibb County,GA,NA,NA,71.76258992805755
31405,Chatham County,GA,NA,84.72727272727273,NA
31522,Glynn County,GA,NA,NA,46.94244604316547
31757,Thomas County,GA,NA,81.45454545454545,NA
31906,Muscogee County,GA,NA,63.090909090909086,NA
39837,Miller County,GA,NA,61.45454545454545,NA
39842,Terrell County,GA,NA,92.72727272727272,NA
96734,Honolulu County,HI,NA,NA,21.942446043165468
96741,Kauai County,HI,88.50267379679144,NA,NA
96744,Honolulu County,HI,NA,79.27272727272727,NA
96756,Kauai County,HI,NA,76,NA
96822,Honolulu County,HI,NA,NA,56.29496402877698
83221,Bingham County,ID,NA,7.2727272727272725,NA
83301,Twin Falls County,ID,NA,NA,1.7985611510791366
83605,Canyon County,ID,NA,11.818181818181818,NA
83617,Gem County,ID,49.73262032085562,NA,NA
83642,Ada County,ID,35.02673796791444,NA,NA
83646,Ada County,ID,NA,NA,2.5179856115107913
83686,Canyon County,ID,53.7433155080214,NA,NA
83687,Canyon County,ID,NA,6.7272727272727275,NA
83704,Ada County,ID,NA,12.181818181818182,34.71223021582734
60008,Cook County,IL,NA,NA,28.776978417266186
60031,Lake County,IL,69.25133689839572,NA,NA
60048,Lake County,IL,NA,NA,17.446043165467625
60056,Cook County,IL,28.342245989304814,NA,NA
60060,Lake County,IL,NA,31.636363636363633,NA
60070,Cook County,IL,NA,NA,71.58273381294964
60071,McHenry County,IL,99.73262032085562,NA,NA
60074,Cook County,IL,29.946524064171122,NA,NA
60077,Cook County,IL,NA,NA,20.503597122302157
60090,Cook County,IL,NA,NA,67.08633093525181
60096,Lake County,IL,NA,64.9090909090909,NA
60104,Cook County,IL,87.43315508021391,NA,46.58273381294964
60107,Cook County,IL,NA,24.363636363636363,NA
60108,DuPage County,IL,72.99465240641712,NA,NA
60124,Kane County,IL,NA,NA,22.12230215827338
60133,Cook County,IL,NA,31.818181818181817,NA
60154,Cook County,IL,90.9090909090909,NA,NA
60169,Cook County,IL,NA,34.909090909090914,NA
60175,Kane County,IL,NA,NA,88.12949640287769
60177,Kane County,IL,NA,NA,36.510791366906474
60188,DuPage County,IL,12.566844919786096,NA,NA
60193,Cook County,IL,NA,NA,14.928057553956833
60194,Cook County,IL,NA,78,NA
60409,Cook County,IL,68.18181818181817,NA,NA
60432,Will County,IL,62.56684491978609,NA,NA
60451,Will County,IL,NA,NA,62.589928057553955
60461,Cook County,IL,NA,NA,94.24460431654677
60477,Cook County,IL,NA,4.545454545454546,NA
60491,Will County,IL,26.47058823529412,NA,NA
60506,Kane County,IL,NA,14.000000000000002,NA
60526,Cook County,IL,NA,NA,20.68345323741007
60527,DuPage County,IL,NA,3.4545454545454546,NA
60532,DuPage County,IL,NA,NA,25.539568345323744
60558,Cook County,IL,NA,NA,87.76978417266187
60607,Cook County,IL,NA,65.45454545454545,NA
60609,Cook County,IL,78.07486631016043,NA,NA
60611,Cook County,IL,NA,9.272727272727273,NA
60613,Cook County,IL,40.64171122994652,NA,NA
60620,Cook County,IL,NA,NA,13.489208633093524
60629,Cook County,IL,NA,14.909090909090908,NA
60630,Cook County,IL,NA,NA,26.798561151079138
60634,Cook County,IL,NA,2.909090909090909,NA
60639,Cook County,IL,NA,2.5454545454545454,NA
60644,Cook County,IL,NA,NA,79.85611510791367
60707,Cook County,IL,NA,NA,4.316546762589928
61016,Winnebago County,IL,NA,96.36363636363636,NA
61073,Winnebago County,IL,NA,NA,81.4748201438849
61103,Winnebago County,IL,NA,NA,78.23741007194245
61107,Winnebago County,IL,NA,18.363636363636363,NA
61342,LaSalle County,IL,NA,97.45454545454545,NA
61350,LaSalle County,IL,NA,NA,42.62589928057554
61354,LaSalle County,IL,38.23529411764706,NA,NA
61401,Knox County,IL,NA,NA,74.64028776978418
61520,Fulton County,IL,NA,NA,16.18705035971223
61554,Tazewell County,IL,NA,NA,4.136690647482014
61603,Peoria County,IL,NA,50.18181818181818,NA
61701,McLean County,IL,NA,74.72727272727273,NA
61764,Livingston County,IL,NA,NA,83.99280575539568
61820,Champaign County,IL,52.139037433155075,NA,NA
62002,Madison County,IL,90.37433155080214,36.54545454545455,NA
62040,Madison County,IL,NA,NA,7.014388489208632
62049,Montgomery County,IL,NA,79.63636363636364,NA
62234,Madison County,IL,NA,NA,73.02158273381295
62269,St. Clair County,IL,NA,25.272727272727273,48.02158273381295
62278,Randolph County,IL,90.10695187165776,NA,NA
62286,Randolph County,IL,NA,NA,71.22302158273382
62301,Adams County,IL,46.25668449197861,NA,89.02877697841727
62471,Fayette County,IL,NA,NA,29.136690647482016
62521,Macon County,IL,NA,NA,2.338129496402878
62526,Macon County,IL,92.24598930481284,NA,NA
62896,Franklin County,IL,NA,18.181818181818183,NA
62948,Williamson County,IL,NA,NA,41.54676258992806
46052,Boone County,IN,30.481283422459892,NA,NA
46167,Hendricks County,IN,NA,76.36363636363637,NA
46173,Rush County,IN,NA,NA,37.410071942446045
46201,Marion County,IN,NA,21.09090909090909,NA
46203,Marion County,IN,NA,4.909090909090909,NA
46214,Marion County,IN,NA,28.363636363636363,NA
46229,Marion County,IN,NA,NA,49.280575539568346
46342,Lake County,IN,NA,NA,34.53237410071942
46360,LaPorte County,IN,NA,NA,8.273381294964029
46385,Porter County,IN,NA,NA,36.8705035971223
46407,Lake County,IN,NA,NA,42.44604316546763
46507,Elkhart County,IN,NA,64.54545454545455,NA
46544,St. Joseph County,IN,NA,37.09090909090909,NA
46703,Steuben County,IN,35.82887700534759,NA,NA
46750,Huntington County,IN,66.84491978609626,NA,NA
46761,LaGrange County,IN,47.32620320855615,NA,NA
46809,Allen County,IN,NA,NA,62.05035971223022
46815,Allen County,IN,NA,23.81818181818182,NA
46816,Allen County,IN,67.64705882352942,54.90909090909091,NA
46845,Allen County,IN,NA,NA,83.27338129496404
46952,Grant County,IN,NA,1.6363636363636365,NA
46953,Grant County,IN,28.609625668449194,NA,NA
46992,Wabash County,IN,NA,85.27272727272728,NA
47018,Dearborn County,IN,NA,NA,77.51798561151078
47119,Floyd County,IN,NA,62.54545454545455,NA
47167,Washington County,IN,94.11764705882352,NA,NA
47302,Delaware County,IN,NA,20,NA
47371,Jay County,IN,NA,45.09090909090909,NA
47374,Wayne County,IN,44.11764705882353,NA,NA
47546,Dubois County,IN,36.63101604278075,NA,43.52517985611511
47635,Spencer County,IN,83.9572192513369,NA,NA
47711,Vanderburgh County,IN,NA,NA,86.15107913669064
47712,Vanderburgh County,IN,NA,84,NA
47715,Vanderburgh County,IN,NA,49.81818181818182,NA
50023,Polk County,IA,45.98930481283423,NA,NA
50138,Marion County,IA,36.36363636363637,NA,NA
50208,Jasper County,IA,38.770053475935825,NA,NA
50265,Polk County,IA,NA,86.72727272727273,NA
50315,Polk County,IA,NA,NA,51.07913669064749
50401,Cerro Gordo County,IA,NA,NA,4.856115107913669
50595,Hamilton County,IA,57.75401069518716,NA,NA
50677,Bremer County,IA,59.09090909090909,NA,NA
51106,Woodbury County,IA,NA,83.0909090909091,NA
51401,Carroll County,IA,65.77540106951871,NA,NA
52001,Dubuque County,IA,11.229946524064172,39.81818181818182,NA
52002,Dubuque County,IA,NA,61.09090909090909,NA
52060,Jackson County,IA,NA,97.81818181818181,NA
52101,Winneshiek County,IA,NA,63.81818181818182,NA
52402,Linn County,IA,13.101604278074866,NA,57.55395683453237
52403,Linn County,IA,NA,NA,17.62589928057554
52404,Linn County,IA,NA,NA,44.24460431654676
52537,Davis County,IA,NA,72.36363636363636,NA
52577,Mahaska County,IA,27.540106951871657,NA,NA
52601,Des Moines County,IA,NA,5.2727272727272725,89.92805755395683
52807,Scott County,IA,NA,NA,95.68345323741008
66067,Franklin County,KS,NA,35.45454545454545,NA
66083,Johnson County,KS,NA,NA,87.41007194244604
66103,Wyandotte County,KS,NA,NA,98.7410071942446
66202,Johnson County,KS,NA,NA,76.43884892086331
66207,Johnson County,KS,NA,NA,24.280575539568343
66211,Johnson County,KS,NA,84.54545454545455,NA
66213,Johnson County,KS,NA,30.363636363636363,NA
66503,Riley County,KS,NA,NA,72.84172661870504
66713,Cherokee County,KS,NA,NA,92.44604316546763
67010,Butler County,KS,73.2620320855615,NA,NA
67357,Labette County,KS,NA,39.63636363636363,NA
40004,Nelson County,KY,NA,42,NA
40069,Washington County,KY,96.2566844919786,NA,NA
40211,Jefferson County,KY,NA,23.636363636363637,NA
40243,Jefferson County,KY,NA,57.99999999999999,NA
40245,Jefferson County,KY,34.75935828877005,NA,NA
40258,Jefferson County,KY,NA,NA,26.43884892086331
40291,Jefferson County,KY,NA,6.909090909090909,NA
40353,Montgomery County,KY,NA,NA,21.223021582733814
40361,Bourbon County,KY,27.27272727272727,NA,NA
40419,Lincoln County,KY,65.24064171122996,NA,NA
40444,Garrard County,KY,NA,33.81818181818182,NA
40508,Fayette County,KY,NA,NA,68.88489208633094
41035,Grant County,KY,NA,59.63636363636363,NA
41051,Kenton County,KY,NA,21.636363636363637,NA
41076,Campbell County,KY,NA,NA,75.53956834532374
41102,Boyd County,KY,NA,NA,38.30935251798561
42025,Marshall County,KY,NA,NA,93.34532374100719
42276,Logan County,KY,NA,NA,35.61151079136691
42301,Daviess County,KY,6.417112299465241,NA,NA
42330,Muhlenberg County,KY,49.19786096256685,NA,NA
42501,Pulaski County,KY,NA,NA,67.44604316546763
42642,Russell County,KY,46.524064171122994,NA,42.985611510791365
70006,Jefferson Parish,LA,NA,NA,97.66187050359713
70056,Jefferson Parish,LA,NA,NA,12.769784172661872
70121,Jefferson Parish,LA,35.294117647058826,NA,NA
70123,Jefferson Parish,LA,NA,NA,82.37410071942446
70125,Orleans Parish,LA,NA,49.09090909090909,NA
70127,Orleans Parish,LA,5.614973262032086,NA,NA
70560,Iberia Parish,LA,NA,NA,15.827338129496402
70665,Calcasieu Parish,LA,NA,57.27272727272727,79.67625899280576
71006,Bossier Parish,LA,NA,NA,66.72661870503596
71104,Caddo Parish,LA,54.01069518716578,NA,NA
71106,Caddo Parish,LA,5.080213903743315,NA,NA
71107,Caddo Parish,LA,NA,NA,53.776978417266186
71119,Caddo Parish,LA,NA,43.27272727272727,NA
71202,Ouachita Parish,LA,NA,42.18181818181818,NA
71292,Ouachita Parish,LA,NA,NA,97.84172661870504
71351,Avoyelles Parish,LA,NA,53.45454545454545,NA
71360,Rapides Parish,LA,NA,15.090909090909092,NA
04073,York County,ME,84.49197860962568,NA,NA
04096,Cumberland County,ME,NA,NA,48.381294964028775
04101,Cumberland County,ME,NA,13.636363636363635,65.46762589928058
04103,Cumberland County,ME,NA,11.090909090909092,NA
04106,Cumberland County,ME,NA,NA,46.223021582733814
04240,Androscoggin County,ME,NA,0.18181818181818182,18.165467625899282
04330,Kennebec County,ME,NA,1.8181818181818181,NA
04345,Kennebec County,ME,33.155080213903744,NA,NA
04462,Penobscot County,ME,98.93048128342245,NA,NA
04605,Hancock County,ME,32.35294117647059,NA,NA
20695,Charles County,MD,NA,90.54545454545455,NA
20706,Prince George's County,MD,NA,81.0909090909091,NA
20721,Prince George's County,MD,NA,NA,98.20143884892086
20772,Prince George's County,MD,NA,82.18181818181817,NA
20882,Montgomery County,MD,67.64705882352942,NA,NA
21017,Harford County,MD,98.3957219251337,NA,NA
21037,Anne Arundel County,MD,NA,NA,80.93525179856115
21047,Harford County,MD,NA,NA,83.09352517985612
21133,Baltimore County,MD,NA,NA,93.88489208633094
21201,Baltimore city,MD,NA,31.272727272727273,NA
21207,Baltimore County,MD,15.775401069518717,NA,NA
21208,Baltimore County,MD,NA,19.636363636363637,NA
21209,Baltimore County,MD,NA,40.909090909090914,NA
21234,Baltimore County,MD,NA,NA,42.805755395683455
21236,Baltimore County,MD,NA,25.636363636363633,NA
21244,Baltimore County,MD,NA,60.72727272727273,NA
21286,Baltimore County,MD,NA,NA,26.978417266187048
21401,Anne Arundel County,MD,NA,45.63636363636363,NA
21403,Anne Arundel County,MD,NA,28.72727272727273,NA
21713,Washington County,MD,99.46524064171123,NA,NA
21784,Carroll County,MD,NA,59.81818181818181,NA
21787,Carroll County,MD,NA,NA,54.13669064748201
21804,Wicomico County,MD,NA,NA,19.424460431654676
21811,Worcester County,MD,NA,41.090909090909086,NA
21842,Worcester County,MD,NA,NA,27.697841726618705
01001,Hampden County,MA,18.71657754010695,NA,67.62589928057554
01027,Hampshire County,MA,29.411764705882355,NA,NA
01085,Hampden County,MA,9.62566844919786,NA,NA
01089,Hampden County,MA,NA,NA,74.28057553956835
01107,Hampden County,MA,48.39572192513369,NA,NA
01109,Hampden County,MA,NA,NA,47.84172661870504
01119,Hampden County,MA,73.79679144385027,NA,NA
01201,Berkshire County,MA,NA,74.54545454545455,0.3597122302158274
01220,Berkshire County,MA,NA,70.36363636363636,NA
01247,Berkshire County,MA,4.545454545454546,NA,10.071942446043165
01301,Franklin County,MA,NA,NA,93.16546762589928
01570,Worcester County,MA,NA,12.727272727272727,NA
01702,Middlesex County,MA,NA,NA,43.884892086330936
01775,Middlesex County,MA,NA,NA,98.92086330935251
01824,Middlesex County,MA,NA,NA,18.705035971223023
01832,Essex County,MA,NA,NA,8.633093525179856
01834,Essex County,MA,NA,NA,77.15827338129496
01843,Essex County,MA,NA,NA,96.94244604316546
01845,Essex County,MA,NA,4,NA
01852,Middlesex County,MA,NA,NA,34.89208633093525
01854,Middlesex County,MA,NA,NA,33.273381294964025
01860,Essex County,MA,NA,NA,88.48920863309353
01887,Middlesex County,MA,5.347593582887701,NA,NA
01906,Essex County,MA,NA,NA,3.41726618705036
01950,Essex County,MA,NA,NA,49.82014388489209
01960,Essex County,MA,NA,28.18181818181818,NA
02025,Norfolk County,MA,NA,55.45454545454545,NA
02072,Norfolk County,MA,NA,2.727272727272727,NA
02132,Suffolk County,MA,NA,NA,3.0575539568345325
02149,Middlesex County,MA,NA,NA,19.60431654676259
02151,Suffolk County,MA,12.299465240641712,NA,NA
02155,Middlesex County,MA,NA,NA,0.1798561151079137
02170,Norfolk County,MA,22.192513368983956,NA,NA
02184,Norfolk County,MA,NA,22.363636363636363,NA
02190,Norfolk County,MA,NA,NA,35.97122302158273
02301,Plymouth County,MA,NA,47.63636363636364,NA
02302,Plymouth County,MA,NA,33.45454545454545,NA
02346,Plymouth County,MA,8.0213903743315509,NA,44.42446043165468
02351,Plymouth County,MA,NA,NA,55.2158273381295
02375,Bristol County,MA,NA,60.36363636363637,NA
02537,Barnstable County,MA,NA,62,NA
02642,Barnstable County,MA,NA,95.81818181818181,NA
02724,Bristol County,MA,54.81283422459893,NA,NA
02744,Bristol County,MA,NA,46.18181818181818,NA
02780,Bristol County,MA,20.32085561497326,NA,94.7841726618705
48017,Oakland County,MI,NA,NA,99.64028776978418
48033,Oakland County,MI,NA,NA,10.611510791366907
48039,St. Clair County,MI,88.23529411764706,NA,NA
48060,St. Clair County,MI,2.406417112299465,NA,7.374100719424461
48080,Macomb County,MI,26.203208556149733,NA,NA
48081,Macomb County,MI,NA,NA,31.115107913669064
48098,Oakland County,MI,NA,NA,89.74820143884892
48141,Wayne County,MI,NA,NA,16.007194244604317
48152,Wayne County,MI,77.54010695187165,NA,NA
48160,Washtenaw County,MI,NA,NA,38.489208633093526
48161,Monroe County,MI,NA,NA,18.884892086330936
48186,Wayne County,MI,4.81283422459893,NA,NA
48187,Wayne County,MI,NA,NA,3.776978417266187
48207,Wayne County,MI,NA,21.09090909090909,NA
48219,Wayne County,MI,NA,37.27272727272727,NA
48221,Wayne County,MI,NA,NA,9.532374100719425
48224,Wayne County,MI,1.8716577540106951,9.454545454545455,NA
48234,Wayne County,MI,NA,62.18181818181818,NA
48307,Oakland County,MI,NA,NA,52.87769784172662
48331,Oakland County,MI,NA,NA,43.3453237410072
48336,Oakland County,MI,NA,50.727272727272734,NA
48348,Oakland County,MI,NA,NA,37.94964028776979
48360,Oakland County,MI,NA,82.72727272727273,NA
48374,Oakland County,MI,NA,50.18181818181818,NA
48377,Oakland County,MI,NA,NA,15.467625899280577
48415,Saginaw County,MI,NA,NA,64.74820143884892
48603,Saginaw County,MI,29.67914438502674,NA,NA
48604,Saginaw County,MI,61.76470588235294,33.63636363636363,NA
48624,Gladwin County,MI,NA,8.545454545454545,NA
48768,Tuscola County,MI,NA,NA,47.302158273381295
48838,Montcalm County,MI,NA,NA,69.06474820143885
49001,Kalamazoo County,MI,NA,69.81818181818183,NA
49002,Kalamazoo County,MI,NA,NA,40.10791366906475
49012,Kalamazoo County,MI,NA,92.54545454545455,NA
49013,Van Buren County,MI,70.85561497326202,NA,NA
49014,Calhoun County,MI,47.593582887700535,NA,NA
49015,Calhoun County,MI,45.18716577540107,NA,NA
49022,Berrien County,MI,6.951871657754011,NA,NA
49047,Cass County,MI,81.55080213903744,NA,NA
49058,Barry County,MI,NA,24.181818181818183,NA
49065,Van Buren County,MI,NA,NA,79.31654676258992
49085,Berrien County,MI,NA,63.272727272727266,NA
49097,Kalamazoo County,MI,43.31550802139038,NA,NA
49120,Berrien County,MI,54.278074866310156,NA,NA
49348,Allegan County,MI,24.331550802139038,NA,NA
49418,Kent County,MI,NA,73.27272727272728,NA
49431,Mason County,MI,NA,13.272727272727272,NA
49507,Kent County,MI,NA,38.90909090909091,25.359712230215827
49509,Kent County,MI,NA,71.81818181818181,NA
49546,Kent County,MI,27.807486631016044,NA,NA
49858,Menominee County,MI,NA,77.81818181818181,NA
55009,Goodhue County,MN,91.97860962566845,NA,NA
55040,Isanti County,MN,NA,68.36363636363636,NA
55041,Wabasha County,MN,NA,43.81818181818182,NA
55066,Goodhue County,MN,NA,8.181818181818182,NA
55082,Washington County,MN,25.40106951871658,NA,NA
55102,Ramsey County,MN,57.21925133689839,NA,NA
55106,Ramsey County,MN,NA,76.72727272727272,NA
55109,Ramsey County,MN,NA,NA,15.107913669064748
55116,Ramsey County,MN,NA,NA,30.035971223021583
55303,Anoka County,MN,NA,NA,83.45323741007195
55344,Hennepin County,MN,NA,NA,66.00719424460432
55369,Hennepin County,MN,NA,NA,81.83453237410072
55417,Hennepin County,MN,57.48663101604278,NA,NA
55422,Hennepin County,MN,21.390374331550802,NA,NA
55428,Hennepin County,MN,13.903743315508022,NA,16.906474820143885
55746,St. Louis County,MN,77.00534759358288,NA,NA
55904,Olmsted County,MN,NA,NA,86.87050359712231
56082,Nicollet County,MN,NA,NA,53.05755395683454
56283,Redwood County,MN,97.32620320855615,NA,NA
56308,Douglas County,MN,18.983957219251337,NA,NA
56387,Stearns County,MN,NA,NA,91.36690647482014
56515,Otter Tail County,MN,NA,86.9090909090909,NA
56762,Marshall County,MN,NA,99.27272727272727,NA
38635,Marshall County,MS,82.62032085561498,NA,NA
38701,Washington County,MS,NA,94.36363636363636,NA
38821,Monroe County,MS,40.909090909090914,NA,NA
38866,Lee County,MS,NA,NA,84.17266187050359
39074,Scott County,MS,NA,74.36363636363636,NA
39305,Lauderdale County,MS,NA,NA,54.49640287769785
39307,Lauderdale County,MS,NA,NA,45.86330935251798
39350,Neshoba County,MS,17.914438502673796,NA,NA
39429,Marion County,MS,93.85026737967914,NA,NA
39443,Jones County,MS,NA,NA,30.035971223021583
39482,Lamar County,MS,NA,90.18181818181819,NA
39501,Harrison County,MS,NA,6.181818181818182,NA
39531,Harrison County,MS,79.94652406417111,NA,NA
39654,Lawrence County,MS,NA,NA,73.92086330935251
39702,Lowndes County,MS,85.828877005347593,NA,NA
39735,Choctaw County,MS,80.74866310160428,NA,NA
63021,St. Louis County,MO,NA,NA,19.244604316546763
63121,St. Louis County,MO,NA,NA,64.02877697841727
63125,St. Louis County,MO,NA,43.09090909090909,NA
63129,St. Louis County,MO,NA,20.909090909090907,NA
63301,St. Charles County,MO,NA,52.72727272727272,NA
63334,Pike County,MO,79.14438502673798,NA,NA
63366,St. Charles County,MO,NA,31.454545454545457,NA
63368,St. Charles County,MO,NA,NA,60.97122302158273
63628,St. Francois County,MO,43.04812834224599,NA,NA
63630,Washington County,MO,NA,91.63636363636364,NA
63650,Iron County,MO,NA,NA,81.11510791366906
63764,Bollinger County,MO,NA,NA,68.70503597122301
63801,Scott County,MO,60.962566844919785,NA,NA
63857,Dunklin County,MO,NA,93.0909090909091,NA
63935,Ripley County,MO,NA,62.727272727272734,NA
64030,Jackson County,MO,NA,NA,23.201438848920862
64050,Jackson County,MO,NA,48.90909090909091,NA
64052,Jackson County,MO,NA,22.181818181818183,NA
64055,Jackson County,MO,5.88235294117647,NA,NA
64057,Jackson County,MO,NA,83.45454545454545,NA
64075,Jackson County,MO,NA,44.72727272727273,NA
64079,Platte County,MO,63.101604278074866,NA,NA
64081,Jackson County,MO,NA,NA,69.96402877697841
64130,Jackson County,MO,NA,NA,66.36690647482014
64133,Jackson County,MO,NA,NA,14.748201438848922
64137,Jackson County,MO,NA,NA,39.92805755395683
64138,Jackson County,MO,NA,NA,16.366906474820144
64503,Buchanan County,MO,NA,NA,78.9568345323741
64506,Buchanan County,MO,NA,NA,0.7194244604316548
64735,Henry County,MO,NA,26,NA
64759,Barton County,MO,59.893048128342244,NA,NA
65037,Morgan County,MO,NA,75.45454545454545,NA
65202,Boone County,MO,8.823529411764707,NA,NA
65265,Audrain County,MO,64.171122994652407,NA,NA
65270,Randolph County,MO,95.98930481283422,70.18181818181817,NA
65536,Laclede County,MO,NA,88,NA
65559,Phelps County,MO,NA,NA,67.98561151079137
65686,Stone County,MO,NA,NA,96.76258992805755
65714,Christian County,MO,NA,29.63636363636364,NA
65742,Webster County,MO,NA,NA,72.66187050359713
65793,Howell County,MO,NA,94,NA
65804,Greene County,MO,NA,NA,6.115107913669065
65807,Greene County,MO,55.61497326203209,5.636363636363637,NA
59404,Cascade County,MT,NA,41.45454545454545,NA
59405,Cascade County,MT,NA,NA,58.27338129496403
59840,Ravalli County,MT,NA,NA,23.561151079136692
68025,Dodge County,NE,25.935828877005346,NA,NA
68104,Douglas County,NE,NA,NA,27.33812949640288
68114,Douglas County,NE,NA,NA,28.597122302158272
68122,Douglas County,NE,NA,94.18181818181817,NA
68134,Douglas County,NE,63.101604278074866,NA,NA
68144,Douglas County,NE,NA,68.18181818181817,NA
68506,Lancaster County,NE,NA,66.18181818181819,69.42446043165468
68601,Platte County,NE,NA,27.27272727272727,NA
69101,Lincoln County,NE,NA,93.81818181818183,NA
89110,Clark County,NV,14.973262032085561,NA,NA
89120,Clark County,NV,NA,NA,75.71942446043165
89122,Clark County,NV,NA,31.09090909090909,NA
89128,Clark County,NV,NA,67.27272727272727,NA
89141,Clark County,NV,NA,NA,90.46762589928058
89142,Clark County,NV,68.98395721925134,70.72727272727273,NA
89165,Clark County,NV,NA,90,NA
89178,Clark County,NV,52.406417112299465,NA,NA
89703,Carson City,NV,NA,NA,73.92086330935251
03038,Rockingham County,NH,NA,33.09090909090909,NA
03249,Belknap County,NH,NA,NA,91.72661870503596
03281,Hillsborough County,NH,NA,76.54545454545455,NA
03303,Merrimack County,NH,NA,NA,17.086330935251798
03820,Strafford County,NH,37.70053475935829,NA,NA
07006,Essex County,NJ,89.03743315508021,NA,NA
07009,Essex County,NJ,NA,86.36363636363636,NA
07032,Hudson County,NJ,NA,17.454545454545457,NA
07036,Union County,NJ,NA,68.72727272727272,NA
07055,Passaic County,NJ,NA,NA,80.03597122302159
07059,Somerset County,NJ,NA,NA,94.96402877697841
07103,Essex County,NJ,63.903743315508024,NA,NA
07105,Essex County,NJ,NA,NA,30.755395683453234
07108,Essex County,NJ,1.6042780748663104,NA,NA
07405,Morris County,NJ,NA,51.45454545454545,NA
07513,Passaic County,NJ,NA,96,NA
07601,Bergen County,NJ,NA,1.4545454545454546,NA
07604,Bergen County,NJ,NA,NA,99.82014388489209
08005,Ocean County,NJ,74.8663101604278,NA,NA
08015,Burlington County,NJ,NA,NA,18.525179856115106
08050,Ocean County,NJ,NA,18.72727272727273,NA
08052,Burlington County,NJ,NA,97.0909090909091,NA
08055,Burlington County,NJ,NA,NA,17.985611510791365
08098,Salem County,NJ,97.59358288770053,NA,NA
08109,Camden County,NJ,13.368983957219251,NA,NA
08234,Atlantic County,NJ,NA,4.7272727272727275,NA
08530,Hunterdon County,NJ,NA,NA,99.28057553956835
08628,Mercer County,NJ,NA,86,NA
08690,Mercer County,NJ,NA,68.54545454545455,NA
08701,Ocean County,NJ,NA,NA,56.11510791366906
08753,Ocean County,NJ,NA,NA,24.100719424460433
08755,Ocean County,NJ,NA,8.727272727272728,NA
08816,Middlesex County,NJ,NA,NA,21.762589928057555
87031,Valencia County,NM,NA,NA,57.194244604316545
87123,Bernalillo County,NM,NA,NA,31.294964028776977
87413,San Juan County,NM,NA,35.81818181818181,NA
87557,Taos County,NM,NA,75.63636363636364,NA
88001,Doa Ana County,NM,18.181818181818183,NA,NA
88007,Doa Ana County,NM,NA,35.63636363636364,NA
88021,Doa Ana County,NM,NA,56.36363636363636,NA
88310,Otero County,NM,NA,0.9090909090909091,NA
10022,New York County,NY,NA,NA,12.410071942446043
10029,New York County,NY,0.267379679144385,NA,NA
10304,Richmond County,NY,10.962566844919785,NA,NA
10460,Bronx County,NY,1.3368983957219251,NA,NA
10467,Bronx County,NY,0,NA,NA
10520,Westchester County,NY,NA,NA,39.568345323741006
10528,Westchester County,NY,NA,99.45454545454545,NA
10566,Westchester County,NY,38.50267379679144,NA,NA
10591,Westchester County,NY,NA,NA,59.89208633093526
10598,Westchester County,NY,NA,71.27272727272728,NA
10710,Westchester County,NY,NA,78.36363636363637,24.280575539568343
10801,Westchester County,NY,NA,46,NA
10954,Rockland County,NY,NA,NA,53.41726618705036
10956,Rockland County,NY,NA,NA,52.51798561151079
11040,Nassau County,NY,NA,NA,42.26618705035971
11219,Kings County,NY,10.427807486631016,NA,51.798561151079134
11229,Kings County,NY,NA,NA,1.2589928057553956
11360,Queens County,NY,NA,NA,27.15827338129496
11367,Queens County,NY,NA,NA,35.07194244604317
11370,Queens County,NY,NA,42.72727272727273,NA
11420,Queens County,NY,NA,72.72727272727273,NA
11434,Queens County,NY,NA,NA,33.093525179856115
11435,Queens County,NY,NA,NA,62.23021582733813
11530,Nassau County,NY,NA,NA,88.3093525179856
11550,Nassau County,NY,NA,NA,57.55395683453237
11560,Nassau County,NY,NA,96.54545454545455,NA
11561,Nassau County,NY,NA,90.36363636363637,NA
11565,Nassau County,NY,NA,98.36363636363636,NA
11581,Nassau County,NY,NA,NA,76.97841726618705
11701,Suffolk County,NY,NA,NA,19.784172661870503
11746,Suffolk County,NY,NA,NA,39.38848920863309
11758,Nassau County,NY,NA,NA,8.093525179856115
11762,Nassau County,NY,NA,87.45454545454545,NA
11795,Suffolk County,NY,NA,NA,69.24460431654677
11946,Suffolk County,NY,NA,NA,90.28776978417267
11967,Suffolk County,NY,NA,72.54545454545455,NA
12077,Albany County,NY,72.19251336898395,NA,NA
12118,Saratoga County,NY,NA,91.45454545454545,NA
12206,Albany County,NY,NA,66.9090909090909,NA
12306,Schenectady County,NY,44.38502673796791,NA,NA
12414,Greene County,NY,NA,23.272727272727273,NA
12477,Ulster County,NY,NA,NA,91.90647482014388
12534,Columbia County,NY,NA,79.0909090909091,NA
12538,Dutchess County,NY,NA,38.54545454545455,NA
12561,Ulster County,NY,NA,NA,63.84892086330935
12754,Sullivan County,NY,76.47058823529412,NA,NA
12901,Clinton County,NY,NA,NA,70.14388489208633
12944,Essex County,NY,NA,59.45454545454546,NA
13032,Madison County,NY,NA,NA,55.93525179856115
13039,Onondaga County,NY,32.085561497326204,NA,NA
13045,Cortland County,NY,36.898395721925134,NA,NA
13207,Onondaga County,NY,NA,NA,90.10791366906474
13210,Onondaga County,NY,NA,NA,56.4748201438849
13407,Herkimer County,NY,NA,64.72727272727272,NA
13491,Herkimer County,NY,82.0855614973262,NA,NA
13790,Broome County,NY,25.668449197860966,NA,NA
13820,Otsego County,NY,6.684491978609626,NA,32.194244604316545
13827,Tioga County,NY,NA,20.545454545454543,NA
13905,Broome County,NY,NA,80.36363636363636,10.251798561151078
14075,Erie County,NY,NA,NA,24.640287769784173
14211,Erie County,NY,NA,5.454545454545454,NA
14305,Niagara County,NY,3.7433155080213902,NA,NA
14420,Monroe County,NY,88.77005347593582,NA,NA
14445,Monroe County,NY,93.04812834224599,NA,75
14456,Ontario County,NY,50.26737967914438,NA,NA
14559,Monroe County,NY,8.55614973262032,NA,NA
14561,Ontario County,NY,NA,98.18181818181819,NA
14606,Monroe County,NY,NA,3.8181818181818183,NA
14609,Monroe County,NY,NA,51.81818181818182,NA
14613,Monroe County,NY,NA,47.27272727272727,NA
14622,Monroe County,NY,NA,NA,41.906474820143885
14623,Monroe County,NY,NA,10.545454545454545,NA
14626,Monroe County,NY,2.13903743315508,NA,NA
14760,Cattaraugus County,NY,47.05882352941176,NA,NA
14850,Tompkins County,NY,3.4759358288770055,34,NA
14870,Steuben County,NY,95.45454545454545,NA,NA
27028,Davie County,NC,NA,NA,7.7338129496402885
27048,Rockingham County,NC,50.80213903743316,NA,NA
27105,Forsyth County,NC,NA,25.454545454545453,NA
27127,Forsyth County,NC,NA,NA,56.65467625899281
27203,Randolph County,NC,18.449197860962567,NA,NA
27284,Forsyth County,NC,20.588235294117645,NA,NA
27292,Davidson County,NC,NA,NA,31.294964028776977
27320,Rockingham County,NC,NA,NA,11.510791366906476
27325,Moore County,NC,94.91978609625669,NA,NA
27360,Davidson County,NC,2.6737967914438503,NA,NA
27406,Guilford County,NC,NA,4.181818181818182,NA
27529,Wake County,NC,NA,62.36363636363637,NA
27549,Franklin County,NC,51.33689839572193,NA,NA
27565,Granville County,NC,83.68983957219251,7.636363636363637,NA
27574,Person County,NC,NA,NA,44.064748201438846
27587,Wake County,NC,15.240641711229946,NA,32.913669064748206
27597,Wake County,NC,NA,60.18181818181818,NA
27606,Wake County,NC,NA,NA,53.956834532374096
27609,Wake County,NC,NA,89.27272727272727,NA
27616,Wake County,NC,NA,22.545454545454547,NA
27703,Durham County,NC,NA,26.36363636363636,NA
27803,Nash County,NC,NA,NA,89.20863309352518
28078,Mecklenburg County,NC,22.727272727272727,NA,NA
28081,Cabarrus County,NC,NA,NA,17.805755395683455
28173,Union County,NC,64.43850267379679,NA,NA
28216,Mecklenburg County,NC,NA,NA,12.949640287769784
28227,Mecklenburg County,NC,48.1283422459893,33.27272727272727,NA
28269,Mecklenburg County,NC,NA,41.27272727272727,NA
28303,Cumberland County,NC,NA,NA,27.697841726618705
28306,Bladen County,NC,NA,20.727272727272727,NA
28327,Moore County,NC,NA,82,NA
28334,Sampson County,NC,19.518716577540108,NA,NA
28339,Harnett County,NC,NA,68,NA
28374,Moore County,NC,NA,32.54545454545455,76.61870503597122
28384,Bladen County,NC,81.28342245989305,NA,NA
28403,New Hanover County,NC,NA,36.18181818181818,NA
28433,Bladen County,NC,NA,NA,88.84892086330936
28467,Brunswick County,NC,NA,41.81818181818181,NA
28479,Brunswick County,NC,78.34224598930481,NA,NA
28501,Lenoir County,NC,NA,NA,68.5251798561151
28584,Carteret County,NC,NA,NA,93.5251798561151
28586,Craven County,NC,NA,55.27272727272727,NA
28610,Catawba County,NC,87.70053475935828,NA,NA
28678,Alexander County,NC,64.70588235294117,NA,NA
28715,Buncombe County,NC,NA,32,NA
28748,Buncombe County,NC,NA,NA,74.82014388489209
28751,Haywood County,NC,NA,65.63636363636364,NA
28803,Buncombe County,NC,58.02139037433155,NA,NA
28904,Clay County,NC,NA,NA,93.70503597122301
28906,Cherokee County,NC,85.02673796791443,NA,NA
43019,Knox County,OH,51.87165775401069,NA,NA
43056,Licking County,OH,NA,85.0909090909091,NA
43062,Licking County,OH,NA,NA,77.6978417266187
43130,Fairfield County,OH,NA,NA,11.151079136690647
43138,Hocking County,OH,NA,70,NA
43213,Franklin County,OH,NA,6.363636363636363,NA
43219,Franklin County,OH,NA,NA,49.10071942446043
43230,Franklin County,OH,NA,30.909090909090907,NA
43311,Logan County,OH,21.12299465240642,NA,29.31654676258993
43315,Morrow County,OH,NA,42.90909090909091,NA
43506,Williams County,OH,NA,40.36363636363636,NA
43512,Defiance County,OH,2.941176470588235,NA,NA
43543,Williams County,OH,91.17647058823529,NA,NA
43609,Lucas County,OH,NA,NA,92.98561151079137
43616,Lucas County,OH,10.16042780748663,NA,NA
43617,Lucas County,OH,NA,NA,50.719424460431654
43725,Guernsey County,OH,NA,NA,12.23021582733813
44004,Ashtabula County,OH,NA,9.090909090909092,NA
44011,Lorain County,OH,NA,13.818181818181818,NA
44052,Lorain County,OH,NA,NA,35.25179856115108
44053,Lorain County,OH,NA,NA,2.877697841726619
44067,Summit County,OH,NA,7.090909090909091,NA
44087,Summit County,OH,NA,NA,1.618705035971223
44089,Erie County,OH,NA,25.09090909090909,NA
44103,Cuyahoga County,OH,NA,44,16.72661870503597
44113,Cuyahoga County,OH,21.92513368983957,NA,NA
44116,Cuyahoga County,OH,49.465240641711226,NA,NA
44121,Cuyahoga County,OH,75.1336898395722,NA,NA
44124,Cuyahoga County,OH,NA,0.36363636363636365,NA
44125,Cuyahoga County,OH,1.06951871657754,NA,NA
44126,Cuyahoga County,OH,NA,26.181818181818183,NA
44131,Cuyahoga County,OH,30.213903743315505,NA,NA
44144,Cuyahoga County,OH,9.893048128342247,NA,NA
44241,Portage County,OH,NA,NA,40.827338129496404
44256,Medina County,OH,NA,0,NA
44266,Portage County,OH,NA,NA,33.45323741007194
44413,Columbiana County,OH,NA,48.36363636363637,NA
44436,Mahoning County,OH,NA,NA,62.410071942446045
44444,Trumbull County,OH,71.65775401069519,NA,NA
44446,Trumbull County,OH,NA,5.818181818181818,NA
44512,Mahoning County,OH,7.4866310160427805,NA,NA
44514,Mahoning County,OH,NA,NA,9.172661870503598
44601,Stark County,OH,20.855614973262032,NA,NA
44663,Tuscarawas County,OH,NA,78.18181818181819,NA
44683,Tuscarawas County,OH,NA,80,NA
44703,Stark County,OH,NA,NA,95.86330935251799
44720,Stark County,OH,NA,NA,5.575539568345324
44730,Stark County,OH,NA,NA,97.3021582733813
44890,Huron County,OH,28.87700534759358,NA,NA
44903,Richland County,OH,NA,8,NA
45030,Hamilton County,OH,NA,NA,47.66187050359712
45036,Warren County,OH,NA,NA,69.60431654676259
45042,Butler County,OH,14.171122994652407,NA,NA
45044,Butler County,OH,16.577540106951872,NA,NA
45066,Warren County,OH,NA,54,NA
45069,Butler County,OH,NA,NA,5.935251798561151
45122,Clermont County,OH,NA,56.72727272727273,NA
45133,Highland County,OH,NA,NA,49.460431654676256
45150,Clermont County,OH,26.737967914438503,NA,NA
45157,Clermont County,OH,NA,93.27272727272728,NA
45215,Hamilton County,OH,NA,NA,45.143884892086334
45216,Hamilton County,OH,62.03208556149733,NA,NA
45224,Hamilton County,OH,NA,NA,72.3021582733813
45230,Hamilton County,OH,NA,NA,39.02877697841727
45233,Hamilton County,OH,NA,NA,75
45236,Hamilton County,OH,NA,NA,40.647482014388494
45238,Hamilton County,OH,NA,NA,73.20143884892086
45239,Hamilton County,OH,NA,46.72727272727273,23.201438848920862
45245,Clermont County,OH,NA,30.181818181818183,65.10791366906474
45344,Clark County,OH,NA,66.72727272727272,NA
45403,Montgomery County,OH,NA,NA,61.15107913669065
45415,Montgomery County,OH,NA,NA,67.80575539568345
45505,Clark County,OH,NA,89.45454545454545,76.79856115107914
45638,Lawrence County,OH,NA,NA,11.870503597122301
45640,Jackson County,OH,61.49732620320856,NA,NA
45659,Lawrence County,OH,79.67914438502673,NA,NA
45662,Scioto County,OH,45.45454545454545,NA,NA
45801,Allen County,OH,NA,11.636363636363637,80.57553956834532
45805,Allen County,OH,NA,53.81818181818182,NA
45843,Hardin County,OH,NA,87.81818181818181,NA
45885,Auglaize County,OH,NA,NA,54.31654676258992
73013,Oklahoma County,OK,NA,NA,4.676258992805756
73018,Grady County,OK,NA,NA,95.32374100719424
73020,Oklahoma County,OK,50.534759358288774,14.363636363636365,NA
73089,Grady County,OK,NA,80.54545454545455,NA
73096,Custer County,OK,NA,84.9090909090909,NA
73105,Oklahoma County,OK,NA,NA,68.34532374100719
73159,Oklahoma County,OK,NA,14.545454545454545,NA
73501,Comanche County,OK,79.41176470588235,NA,NA
73703,Garfield County,OK,NA,NA,40.46762589928058
74012,Tulsa County,OK,72.72727272727273,NA,NA
74055,Tulsa County,OK,NA,55.09090909090909,NA
74127,Tulsa County,OK,41.711229946524064,NA,NA
74501,Pittsburg County,OK,NA,NA,17.26618705035971
74851,Pottawatomie County,OK,NA,77.0909090909091,NA
74868,Seminole County,OK,NA,NA,95.14388489208633
74873,Pottawatomie County,OK,NA,44.36363636363637,NA
74966,Le Flore County,OK,NA,92.9090909090909,NA
97212,Multnomah County,OR,75.93582887700535,NA,NA
97223,Washington County,OR,NA,NA,25.179856115107913
97301,Marion County,OR,NA,12.909090909090908,NA
97322,Linn County,OR,NA,NA,21.223021582733814
97333,Benton County,OR,69.5187165775401,NA,NA
97355,Linn County,OR,81.81818181818183,NA,NA
97402,Lane County,OR,NA,NA,70.68345323741008
97459,Coos County,OR,NA,86.18181818181819,NA
97477,Lane County,OR,75.40106951871658,NA,NA
97487,Lane County,OR,NA,65.81818181818181,NA
97501,Jackson County,OR,NA,67.63636363636364,NA
97502,Jackson County,OR,NA,92.36363636363636,NA
97504,Jackson County,OR,87.96791443850267,NA,NA
97520,Jackson County,OR,NA,30.727272727272727,76.2589928057554
97524,Jackson County,OR,NA,NA,69.7841726618705
97526,Josephine County,OR,39.3048128342246,NA,NA
97601,Klamath County,OR,34.49197860962567,NA,NA
97882,Umatilla County,OR,60.16042780748663,NA,NA
15017,Allegheny County,PA,NA,NA,54.85611510791367
15044,Allegheny County,PA,NA,NA,50.89928057553957
15084,Allegheny County,PA,NA,NA,59.352517985611506
15104,Allegheny County,PA,NA,NA,92.26618705035972
15120,Allegheny County,PA,NA,NA,82.19424460431655
15143,Allegheny County,PA,NA,80.72727272727272,NA
15206,Allegheny County,PA,12.032085561497325,NA,NA
15219,Allegheny County,PA,23.52941176470588,NA,NA
15226,Allegheny County,PA,NA,38.18181818181819,NA
15229,Allegheny County,PA,NA,NA,85.25179856115108
15235,Allegheny County,PA,35.56149732620321,NA,NA
15237,Allegheny County,PA,NA,71.63636363636363,NA
15241,Allegheny County,PA,NA,NA,31.654676258992804
15243,Allegheny County,PA,NA,NA,78.05755395683454
15301,Washington County,PA,NA,1.090909090909091,51.438848920863315
15317,Washington County,PA,NA,88.18181818181819,NA
15332,Washington County,PA,66.0427807486631,NA,NA
15834,Cameron County,PA,NA,66.36363636363637,NA
15901,Cambria County,PA,80.21390374331551,NA,NA
15904,Cambria County,PA,NA,67.81818181818183,NA
15905,Cambria County,PA,NA,NA,63.66906474820144
16046,Butler County,PA,NA,87.27272727272727,NA
16053,Butler County,PA,NA,NA,63.48920863309353
16066,Butler County,PA,NA,61.81818181818181,NA
16137,Mercer County,PA,89.57219251336899,NA,NA
16214,Clarion County,PA,NA,NA,48.381294964028775
16232,Clarion County,PA,NA,58.72727272727273,NA
16509,Erie County,PA,NA,NA,84.53237410071942
16866,Centre County,PA,NA,NA,31.83453237410072
17019,York County,PA,NA,53.63636363636364,NA
17022,Lancaster County,PA,NA,NA,6.474820143884892
17067,Lebanon County,PA,43.85026737967914,NA,NA
17112,Dauphin County,PA,NA,NA,5.0359712230215825
17225,Franklin County,PA,NA,57.99999999999999,NA
17241,Cumberland County,PA,89.3048128342246,NA,NA
17331,York County,PA,NA,NA,0.539568345323741
17350,Adams County,PA,NA,NA,62.94964028776978
17403,York County,PA,NA,0.5454545454545455,NA
17408,York County,PA,NA,47.090909090909086,NA
17579,Lancaster County,PA,74.06417112299465,NA,NA
17740,Lycoming County,PA,NA,NA,23.741007194244602
17851,Northumberland County,PA,NA,55.81818181818182,NA
17901,Schuylkill County,PA,NA,NA,86.51079136690647
17921,Schuylkill County,PA,58.288770053475936,NA,NA
18018,Lehigh County,PA,16.042780748663102,NA,40.28776978417266
18036,Lehigh County,PA,70.05347593582889,NA,NA
18040,Northampton County,PA,NA,NA,22.841726618705035
18042,Northampton County,PA,NA,15.454545454545453,NA
18049,Lehigh County,PA,31.016042780748666,NA,NA
18072,Northampton County,PA,NA,NA,94.06474820143885
18102,Lehigh County,PA,0.53475935828877,NA,NA
18235,Carbon County,PA,NA,NA,79.49640287769785
18301,Monroe County,PA,78.6096256684492,NA,NA
18353,Monroe County,PA,NA,74.18181818181819,NA
18403,Lackawanna County,PA,NA,NA,85.431654676259
18428,Pike County,PA,NA,95.63636363636364,NA
18444,Lackawanna County,PA,NA,98,NA
18466,Monroe County,PA,83.15508021390374,NA,NA
18518,Lackawanna County,PA,65.50802139037432,NA,NA
18603,Columbia County,PA,41.97860962566845,NA,25
18655,Luzerne County,PA,NA,NA,51.97841726618705
18661,Luzerne County,PA,NA,79.81818181818183,NA
18702,Luzerne County,PA,NA,15.272727272727273,NA
18704,Luzerne County,PA,11.497326203208557,NA,3.9568345323741005
18840,Bradford County,PA,NA,NA,53.597122302158276
18929,Bucks County,PA,NA,NA,91.00719424460432
18954,Bucks County,PA,NA,NA,81.65467625899281
18969,Montgomery County,PA,76.7379679144385,NA,NA
19007,Bucks County,PA,NA,80.18181818181817,NA
19013,Delaware County,PA,NA,NA,44.7841726618705
19018,Delaware County,PA,NA,NA,37.05035971223021
19020,Bucks County,PA,NA,24.90909090909091,NA
19124,Philadelphia County,PA,0.8021390374331552,NA,NA
19132,Philadelphia County,PA,4.27807486631016,NA,28.05755395683453
19133,Philadelphia County,PA,NA,NA,66.00719424460432
19134,Philadelphia County,PA,NA,5.090909090909091,NA
19137,Philadelphia County,PA,77.27272727272727,NA,NA
19149,Philadelphia County,PA,NA,NA,63.30935251798561
19342,Delaware County,PA,NA,53.27272727272727,52.69784172661871
19355,Chester County,PA,NA,NA,29.676258992805753
19601,Berks County,PA,NA,98.9090909090909,NA
19605,Berks County,PA,NA,NA,59.172661870503596
02840,Newport County,RI,NA,NA,84.71223021582733
02852,Washington County,RI,NA,41.63636363636364,NA
02857,Providence County,RI,NA,NA,65.64748201438849
02879,Washington County,RI,NA,NA,45.68345323741007
02907,Providence County,RI,NA,NA,80.2158273381295
02908,Providence County,RI,NA,95.27272727272728,NA
02919,Providence County,RI,28.87700534759358,NA,NA
29059,Orangeburg County,SC,66.57754010695187,NA,NA
29125,Sumter County,SC,NA,100,NA
29153,Sumter County,SC,NA,40.72727272727273,NA
29178,Newberry County,SC,94.38502673796792,NA,NA
29203,Richland County,SC,8.288770053475936,NA,NA
29210,Richland County,SC,NA,NA,30.935251798561154
29301,Spartanburg County,SC,22.459893048128343,85.81818181818181,NA
29316,Spartanburg County,SC,NA,NA,61.87050359712231
29325,Laurens County,SC,37.4331550802139,NA,NA
29349,Spartanburg County,SC,NA,8.90909090909091,NA
29369,Spartanburg County,SC,NA,NA,92.08633093525181
29388,Spartanburg County,SC,NA,NA,65.64748201438849
29406,Charleston County,SC,16.844919786096256,NA,NA
29485,Dorchester County,SC,19.25133689839572,84.18181818181819,NA
29536,Dillon County,SC,37.967914438502675,NA,NA
29571,Marion County,SC,NA,NA,48.201438848920866
29579,Horry County,SC,NA,19.272727272727273,NA
29582,Horry County,SC,NA,59.09090909090909,NA
29588,Horry County,SC,NA,NA,37.589928057553955
29605,Greenville County,SC,NA,28.545454545454547,14.388489208633093
29621,Anderson County,SC,NA,58.36363636363636,NA
29640,Pickens County,SC,NA,10.909090909090908,NA
29676,Oconee County,SC,NA,51.272727272727266,NA
29720,Lancaster County,SC,NA,NA,13.66906474820144
29728,Chesterfield County,SC,58.82352941176471,NA,NA
29924,Hampton County,SC,NA,72.72727272727273,NA
57747,Fall River County,SD,NA,89.0909090909091,NA
57785,Meade County,SD,93.31550802139037,NA,NA
37030,Smith County,TN,NA,NA,58.09352517985612
37074,Trousdale County,TN,NA,NA,91.54676258992805
37122,Wilson County,TN,56.68449197860963,NA,NA
37174,Williamson County,TN,NA,24,NA
37186,Sumner County,TN,NA,88.72727272727273,NA
37207,Davidson County,TN,NA,16.90909090909091,NA
37215,Davidson County,TN,NA,NA,19.964028776978417
37303,McMinn County,TN,NA,26.90909090909091,NA
37311,Bradley County,TN,NA,NA,39.20863309352518
37323,Bradley County,TN,51.33689839572193,NA,NA
37331,McMinn County,TN,NA,95.0909090909091,NA
37353,Bradley County,TN,NA,98.72727272727273,NA
37354,Monroe County,TN,NA,NA,97.12230215827337
37406,Hamilton County,TN,NA,88.36363636363636,NA
37617,Sullivan County,TN,52.67379679144385,NA,NA
37620,Sullivan County,TN,NA,6,NA
37643,Carter County,TN,NA,2.3636363636363638,NA
37664,Sullivan County,TN,NA,NA,14.568345323741008
37743,Greene County,TN,NA,NA,23.92086330935252
37745,Greene County,TN,17.379679144385026,NA,18.345323741007196
37748,Roane County,TN,NA,56.18181818181818,22.48201438848921
37803,Blount County,TN,NA,NA,32.014388489208635
37814,Hamblen County,TN,43.58288770053476,NA,NA
37841,Scott County,TN,NA,58.909090909090914,NA
37861,Grainger County,TN,NA,44.18181818181818,NA
37862,Sevier County,TN,NA,NA,83.63309352517986
37879,Claiborne County,TN,36.096256684491976,NA,NA
37918,Knox County,TN,NA,NA,8.81294964028777
38004,Tipton County,TN,71.92513368983957,NA,NA
38012,Haywood County,TN,56.951871657754005,NA,NA
38109,Shelby County,TN,9.358288770053475,NA,NA
38116,Shelby County,TN,NA,17.636363636363637,NA
38483,Lawrence County,TN,NA,83.27272727272728,NA
38501,Putnam County,TN,NA,NA,60.61151079136691
38571,Cumberland County,TN,NA,26.545454545454543,NA
75002,Collin County,TX,15.508021390374333,NA,NA
75032,Rockwall County,TX,NA,NA,96.0431654676259
75034,Denton County,TX,74.33155080213903,NA,NA
75040,Dallas County,TX,NA,NA,49.64028776978417
75044,Dallas County,TX,NA,16,NA
75088,Dallas County,TX,NA,52.90909090909091,NA
75104,Dallas County,TX,16.31016042780749,NA,NA
75119,Ellis County,TX,NA,66.36363636363637,NA
75126,Kaufman County,TX,NA,62.909090909090914,NA
75137,Dallas County,TX,NA,NA,91.18705035971223
75140,Van Zandt County,TX,NA,73.0909090909091,NA
75161,Kaufman County,TX,NA,NA,90.82733812949641
75165,Ellis County,TX,NA,83.81818181818181,NA
75180,Dallas County,TX,NA,NA,61.51079136690647
75203,Dallas County,TX,NA,45.81818181818182,NA
75224,Dallas County,TX,NA,NA,29.496402877697843
75228,Dallas County,TX,19.786096256684495,NA,66.54676258992805
75440,Rains County,TX,86.89839572192514,NA,NA
75455,Titus County,TX,59.35828877005348,NA,NA
75601,Gregg County,TX,NA,50.54545454545455,NA
75652,Rusk County,TX,48.93048128342246,NA,NA
75751,Henderson County,TX,NA,NA,48.92086330935252
75801,Anderson County,TX,NA,48.54545454545455,NA
75839,Anderson County,TX,NA,NA,88.66906474820144
75901,Angelina County,TX,NA,NA,85.61151079136691
76022,Tarrant County,TX,61.229946524064175,NA,NA
76033,Johnson County,TX,85.56149732620321,NA,NA
76039,Tarrant County,TX,NA,40.18181818181818,NA
76049,Hood County,TX,NA,NA,13.129496402877697
76051,Tarrant County,TX,22.994652406417114,NA,NA
76063,Tarrant County,TX,NA,4.363636363636364,NA
76078,Wise County,TX,94.6524064171123,NA,NA
76086,Parker County,TX,NA,38.36363636363636,NA
76133,Tarrant County,TX,NA,10.181818181818182,NA
76164,Tarrant County,TX,48.663101604278076,NA,NA
76266,Denton County,TX,NA,NA,55.57553956834532
76424,Stephens County,TX,97.86096256684492,NA,NA
76446,Erath County,TX,NA,NA,98.38129496402878
76633,McLennan County,TX,NA,97.63636363636363,NA
76643,McLennan County,TX,NA,NA,95.50359712230215
76661,Falls County,TX,NA,NA,82.01438848920863
76821,Runnels County,TX,NA,67.0909090909091,NA
76904,Tom Green County,TX,NA,NA,55.39568345323741
76950,Sutton County,TX,96.52406417112299,NA,NA
77009,Harris County,TX,NA,60.54545454545455,59.71223021582733
77021,Harris County,TX,NA,73.45454545454545,NA
77051,Harris County,TX,37.16577540106952,NA,NA
77061,Harris County,TX,NA,56.00000000000001,NA
77063,Harris County,TX,NA,88.54545454545455,NA
77075,Harris County,TX,70.32085561497327,NA,NA
77076,Harris County,TX,NA,NA,73.38129496402878
77082,Harris County,TX,NA,74,NA
77351,Polk County,TX,NA,52,NA
77406,Fort Bend County,TX,NA,16.363636363636363,NA
77449,Harris County,TX,NA,76.9090909090909,NA
77498,Fort Bend County,TX,NA,56.90909090909091,NA
77506,Harris County,TX,40.106951871657756,NA,NA
77510,Galveston County,TX,NA,64.36363636363637,NA
77535,Liberty County,TX,NA,65.0909090909091,NA
77590,Galveston County,TX,NA,NA,14.028776978417264
77619,Jefferson County,TX,NA,NA,55.03597122302158
77630,Orange County,TX,NA,20.18181818181818,NA
77703,Jefferson County,TX,NA,NA,71.40287769784173
77845,Brazos County,TX,NA,81.63636363636364,8.273381294964029
77901,Victoria County,TX,NA,9.818181818181818,NA
78006,Kendall County,TX,NA,38,NA
78009,Medina County,TX,NA,80.72727272727272,NA
78013,Kendall County,TX,NA,NA,99.46043165467626
78040,Webb County,TX,77.80748663101605,NA,NA
78065,Atascosa County,TX,NA,NA,55.75539568345324
78070,Comal County,TX,NA,NA,61.69064748201439
78114,Wilson County,TX,NA,32.18181818181819,NA
78130,Comal County,TX,NA,NA,21.58273381294964
78154,Guadalupe County,TX,53.475935828877006,NA,NA
78202,Bexar County,TX,NA,93.45454545454545,NA
78222,Bexar County,TX,NA,NA,56.83453237410072
78227,Bexar County,TX,27.00534759358289,NA,NA
78230,Bexar County,TX,39.839572192513366,NA,NA
78233,Bexar County,TX,NA,36,NA
78240,Bexar County,TX,NA,NA,21.043165467625897
78253,Bexar County,TX,NA,67.45454545454545,NA
78254,Bexar County,TX,NA,NA,48.74100719424461
78259,Bexar County,TX,56.14973262032086,NA,NA
78415,Nueces County,TX,NA,32.36363636363636,NA
78520,Cameron County,TX,NA,NA,64.38848920863309
78560,Hidalgo County,TX,NA,96.72727272727273,NA
78569,Willacy County,TX,NA,NA,99.10071942446042
78577,Hidalgo County,TX,20.053475935828878,NA,NA
78584,Starr County,TX,NA,36.36363636363637,NA
78586,Cameron County,TX,NA,NA,84.89208633093526
78589,Hidalgo County,TX,NA,48.72727272727273,50.53956834532374
78613,Williamson County,TX,44.919786096256686,NA,NA
78645,Travis County,TX,NA,NA,77.33812949640287
78653,Travis County,TX,95.72192513368985,NA,NA
78702,Travis County,TX,NA,NA,82.55395683453237
78729,Williamson County,TX,NA,91.81818181818183,NA
78735,Travis County,TX,NA,NA,51.2589928057554
78749,Travis County,TX,NA,NA,97.48201438848922
79108,Potter County,TX,76.20320855614973,NA,NA
79118,Randall County,TX,NA,57.63636363636364,NA
79119,Randall County,TX,NA,59.27272727272728,NA
79414,Lubbock County,TX,NA,NA,36.330935251798564
79603,Taylor County,TX,42.24598930481284,NA,NA
79761,Ector County,TX,NA,37.45454545454546,NA
79765,Ector County,TX,NA,NA,94.60431654676259
79905,El Paso County,TX,55.080213903743314,37.63636363636363,NA
84044,Salt Lake County,UT,31.283422459893046,NA,NA
84067,Weber County,UT,NA,NA,32.55395683453237
84120,Salt Lake County,UT,21.65775401069519,NA,NA
84337,Box Elder County,UT,89.83957219251337,NA,NA
84664,Utah County,UT,NA,NA,96.22302158273382
84701,Sevier County,UT,NA,91.0909090909091,NA
84721,Iron County,UT,NA,NA,96.58273381294964
84770,Washington County,UT,NA,42.54545454545455,NA
84790,Washington County,UT,78.87700534759358,NA,NA
05201,Bennington County,VT,NA,81.27272727272728,NA
20112,Prince William County,VA,NA,53.090909090909086,NA
20151,Fairfax County,VA,NA,72,NA
20176,Loudoun County,VA,NA,39.81818181818182,NA
22003,Fairfax County,VA,93.58288770053476,NA,NA
22025,Prince William County,VA,NA,54.36363636363636,NA
22026,Prince William County,VA,42.780748663101605,61.63636363636363,NA
22043,Fairfax County,VA,NA,54.72727272727273,NA
22101,Fairfax County,VA,NA,NA,85.79136690647482
22191,Prince William County,VA,NA,44.90909090909091,NA
22485,King George County,VA,NA,34.72727272727273,NA
22602,Frederick County,VA,NA,NA,32.73381294964029
22801,Harrisonburg city,VA,67.11229946524064,NA,NA
22903,Charlottesville city,VA,NA,78.72727272727272,NA
23075,Henrico County,VA,NA,NA,71.94244604316546
23185,James City County,VA,NA,NA,0
23188,James City County,VA,31.818181818181817,NA,NA
23225,Richmond city,VA,NA,51.090909090909086,NA
23234,Chesterfield County,VA,13.368983957219251,NA,NA
23505,Norfolk city,VA,NA,17.81818181818182,NA
23602,Newport News city,VA,NA,NA,41.007194244604314
23606,Newport News city,VA,NA,54.54545454545454,NA
23607,Newport News city,VA,14.705882352941178,27.090909090909093,NA
23608,Newport News city,VA,12.834224598930483,NA,NA
23701,Portsmouth city,VA,NA,NA,9.712230215827338
23890,Sussex County,VA,NA,72,NA
24078,Henry County,VA,91.71122994652407,NA,NA
24148,Henry County,VA,66.31016042780749,NA,NA
24236,Washington County,VA,NA,92.18181818181819,NA
24301,Pulaski County,VA,NA,NA,86.33093525179856
24330,Grayson County,VA,NA,63.45454545454545,NA
24381,Carroll County,VA,NA,NA,98.02158273381295
24401,Staunton city,VA,9.090909090909092,NA,NA
24501,Lynchburg city,VA,NA,24.363636363636363,NA
24540,Danville city,VA,NA,NA,22.48201438848921
98001,King County,WA,NA,NA,41.36690647482014
98038,King County,WA,NA,22.727272727272727,NA
98042,King County,WA,NA,NA,38.1294964028777
98074,King County,WA,NA,NA,57.014388489208635
98087,Snohomish County,WA,NA,84.36363636363636,NA
98155,King County,WA,NA,25.818181818181817,60.251798561151084
98178,King County,WA,60.16042780748663,NA,NA
98188,King County,WA,NA,37.81818181818182,NA
98223,Snohomish County,WA,NA,7.818181818181818,NA
98225,Whatcom County,WA,59.62566844919787,NA,NA
98229,Whatcom County,WA,NA,NA,20.68345323741007
98257,Skagit County,WA,NA,NA,86.6906474820144
98260,Island County,WA,NA,NA,75.35971223021582
98270,Snohomish County,WA,NA,17.09090909090909,NA
98271,Snohomish County,WA,NA,81.81818181818183,NA
98273,Skagit County,WA,NA,47.45454545454545,NA
98277,Island County,WA,NA,NA,82.73381294964028
98296,Snohomish County,WA,33.42245989304813,45.27272727272727,NA
98310,Kitsap County,WA,NA,NA,87.05035971223022
98374,Pierce County,WA,53.20855614973262,NA,NA
98387,Pierce County,WA,52.94117647058824,NA,NA
98407,Pierce County,WA,NA,30,NA
98607,Clark County,WA,98.1283422459893,NA,NA
98632,Cowlitz County,WA,NA,NA,1.079136690647482
98661,Clark County,WA,NA,49.63636363636363,NA
98663,Clark County,WA,55.88235294117647,NA,NA
98664,Clark County,WA,NA,91.27272727272727,64.20863309352518
98671,Clark County,WA,NA,NA,47.482014388489205
98674,Cowlitz County,WA,NA,61.272727272727266,NA
98682,Clark County,WA,NA,52.36363636363637,NA
98684,Clark County,WA,NA,39.45454545454545,NA
98837,Grant County,WA,NA,NA,9.352517985611511
98948,Yakima County,WA,NA,79.45454545454545,NA
99212,Spokane County,WA,NA,NA,50
99338,Benton County,WA,NA,17.272727272727273,NA
20017,District of Columbia,DC,NA,43.27272727272727,NA
20019,District of Columbia,DC,NA,16.545454545454547,NA
25071,Kanawha County,WV,NA,NA,85.07194244604317
25143,Kanawha County,WV,NA,NA,46.043165467625904
25303,Kanawha County,WV,NA,NA,96.40287769784173
25405,Berkeley County,WV,56.417112299465245,NA,NA
25414,Jefferson County,WV,NA,78.54545454545455,NA
25419,Berkeley County,WV,NA,NA,72.12230215827337
25428,Berkeley County,WV,41.44385026737968,NA,NA
25443,Jefferson County,WV,96.79144385026738,NA,NA
25550,Mason County,WV,92.51336898395722,NA,NA
25701,Cabell County,WV,NA,75.09090909090908,NA
25705,Cabell County,WV,NA,97.27272727272728,NA
26047,Hancock County,WV,NA,35.27272727272727,NA
26070,Brooke County,WV,NA,75.81818181818181,NA
26164,Jackson County,WV,92.7807486631016,NA,NA
26201,Upshur County,WV,NA,56.54545454545455,6.294964028776978
26241,Randolph County,WV,NA,12.363636363636363,NA
26501,Monongalia County,WV,NA,16.727272727272727,NA
26847,Grant County,WV,NA,52.18181818181819,NA
53022,Washington County,WI,83.42245989304813,NA,NA
53097,Ozaukee County,WI,75.66844919786097,NA,NA
53110,Milwaukee County,WI,NA,18.545454545454547,NA
53149,Waukesha County,WI,NA,69.0909090909091,NA
53150,Waukesha County,WI,NA,NA,51.97841726618705
53154,Milwaukee County,WI,NA,NA,64.568345323741
53158,Kenosha County,WI,NA,85.45454545454545,NA
53172,Milwaukee County,WI,82.35294117647058,NA,NA
53184,Walworth County,WI,NA,99.0909090909091,NA
53188,Waukesha County,WI,NA,49.45454545454545,NA
53207,Milwaukee County,WI,NA,NA,87.58992805755396
53210,Milwaukee County,WI,6.149732620320856,NA,NA
53211,Milwaukee County,WI,44.6524064171123,NA,NA
53215,Milwaukee County,WI,3.2085561497326207,NA,NA
53226,Milwaukee County,WI,NA,19.454545454545453,NA
53228,Milwaukee County,WI,80.4812834224599,NA,NA
53403,Racine County,WI,25.13368983957219,NA,NA
53405,Racine County,WI,NA,NA,5.755395683453238
53406,Racine County,WI,NA,NA,0.8992805755395683
53573,Grant County,WI,98.66310160427807,NA,NA
53589,Dane County,WI,NA,22,NA
53717,Dane County,WI,NA,38.72727272727273,NA
54017,St. Croix County,WI,NA,22.90909090909091,NA
54115,Brown County,WI,NA,45.27272727272727,NA
54304,Brown County,WI,NA,28.909090909090907,NA
54451,Taylor County,WI,67.37967914438502,NA,NA
54720,Eau Claire County,WI,NA,93.63636363636364,NA
54729,Chippewa County,WI,24.86631016042781,9.636363636363637,NA
54755,Buffalo County,WI,NA,NA,53.05755395683454
54956,Winnebago County,WI,NA,NA,84.35251798561151
82716,Campbell County,WY,47.860962566844925,NA,NA
82801,Sheridan County,WY,NA,NA,44.60431654676259
