ZipCode,county,state,Adult,Retirement,Geriatric
35031,Blount County,AL,NA,90.28436018957346,NA
35111,Tuscaloosa County,AL,73.91304347826086,NA,NA
35214,Jefferson County,AL,NA,NA,50.764525993883794
35226,Jefferson County,AL,35.36231884057971,NA,NA
35404,Tuscaloosa County,AL,10.72463768115942,NA,NA
35474,Hale County,AL,NA,69.19431279620854,NA
35563,Marion County,AL,NA,NA,68.19571865443424
35565,Winston County,AL,93.91304347826087,NA,NA
35630,Lauderdale County,AL,NA,NA,29.96941896024465
35652,Lauderdale County,AL,NA,NA,70.64220183486239
35661,Colbert County,AL,51.59420289855072,56.872037914691944,NA
35750,Madison County,AL,NA,NA,56.574923547400616
35951,Marshall County,AL,99.1304347826087,NA,NA
36104,Montgomery County,AL,42.89855072463768,NA,NA
36108,Montgomery County,AL,80.57971014492755,NA,NA
36272,Calhoun County,AL,63.18840579710145,NA,NA
36345,Henry County,AL,NA,64.45497630331754,NA
36695,Mobile County,AL,NA,20.61611374407583,NA
36701,Dallas County,AL,18.55072463768116,NA,NA
36832,Lee County,AL,NA,72.98578199052133,NA
99669,Kenai Peninsula Borough,AK,NA,76.06635071090048,NA
99709,Fairbanks North Star Borough,AK,49.85507246376812,NA,NA
85009,Maricopa County,AZ,8.115942028985506,NA,NA
85015,Maricopa County,AZ,NA,37.677725118483416,NA
85016,Maricopa County,AZ,30.434782608695656,NA,NA
85021,Maricopa County,AZ,NA,NA,59.32721712538226
85023,Maricopa County,AZ,19.130434782608695,NA,NA
85037,Maricopa County,AZ,62.02898550724638,NA,NA
85042,Maricopa County,AZ,17.971014492753625,NA,NA
85051,Maricopa County,AZ,31.88405797101449,NA,NA
85119,Pinal County,AZ,NA,77.48815165876776,NA
85143,Pinal County,AZ,NA,67.06161137440758,NA
85208,Maricopa County,AZ,NA,NA,75.84097859327217
85255,Maricopa County,AZ,NA,NA,16.51376146788991
85260,Maricopa County,AZ,NA,28.90995260663507,NA
85283,Maricopa County,AZ,NA,68.72037914691943,NA
85284,Maricopa County,AZ,NA,63.270142180094794,NA
85306,Maricopa County,AZ,42.028985507246375,NA,79.20489296636084
85331,Maricopa County,AZ,68.69565217391305,NA,NA
85344,La Paz County,AZ,56.811594202898554,NA,NA
85345,Maricopa County,AZ,NA,NA,66.66666666666666
85349,Yuma County,AZ,NA,NA,87.76758409785933
85351,Maricopa County,AZ,NA,6.872037914691943,NA
85634,Pima County,AZ,14.782608695652174,NA,NA
85745,Pima County,AZ,17.101449275362317,NA,NA
86314,Yavapai County,AZ,NA,NA,6.727828746177369
86406,Mohave County,AZ,35.94202898550725,NA,NA
86429,Mohave County,AZ,NA,NA,47.706422018348626
71913,Garland County,AR,26.08695652173913,NA,NA
72034,Faulkner County,AR,93.04347826086956,NA,NA
72081,White County,AR,NA,89.57345971563981,NA
72112,Jackson County,AR,81.73913043478261,NA,NA
72401,Craighead County,AR,NA,59.241706161137444,NA
72454,Clay County,AR,NA,62.08530805687204,NA
72576,Fulton County,AR,97.3913043478261,NA,NA
72653,Baxter County,AR,NA,NA,6.116207951070336
72701,Washington County,AR,NA,53.79146919431279,NA
72727,Washington County,AR,NA,94.3127962085308,NA
72761,Benton County,AR,NA,94.07582938388626,NA
90007,Los Angeles County,CA,19.710144927536234,NA,NA
90011,Los Angeles County,CA,NA,NA,55.35168195718655
90057,Los Angeles County,CA,NA,NA,37.308868501529055
90240,Los Angeles County,CA,NA,83.41232227488152,NA
90503,Los Angeles County,CA,NA,32.93838862559242,NA
90717,Los Angeles County,CA,95.3623188405797,NA,NA
90755,Los Angeles County,CA,NA,94.7867298578199,NA
90813,Los Angeles County,CA,NA,35.07109004739337,NA
91214,Los Angeles County,CA,91.88405797101449,NA,NA
91306,Los Angeles County,CA,NA,36.72985781990521,NA
91340,Los Angeles County,CA,NA,84.59715639810426,NA
91345,Los Angeles County,CA,NA,92.65402843601895,NA
91362,Ventura County,CA,NA,88.15165876777252,NA
91387,Los Angeles County,CA,89.27536231884058,NA,55.65749235474006
91406,Los Angeles County,CA,NA,NA,33.63914373088685
91706,Los Angeles County,CA,NA,23.933649289099527,NA
91732,Los Angeles County,CA,NA,21.32701421800948,NA
91773,Los Angeles County,CA,NA,18.95734597156398,NA
91791,Los Angeles County,CA,NA,73.45971563981043,NA
91910,San Diego County,CA,NA,50.4739336492891,NA
91911,San Diego County,CA,NA,11.848341232227488,NA
92008,San Diego County,CA,NA,45.023696682464454,NA
92021,San Diego County,CA,10.434782608695652,NA,NA
92057,San Diego County,CA,NA,NA,21.712538226299692
92127,San Diego County,CA,54.20289855072464,NA,NA
92231,Imperial County,CA,NA,NA,48.92966360856269
92253,Riverside County,CA,NA,NA,5.5045871559633035
92504,Riverside County,CA,NA,40.758293838862556,NA
92545,Riverside County,CA,NA,28.672985781990523,NA
92553,Riverside County,CA,47.2463768115942,NA,NA
92557,Riverside County,CA,NA,35.78199052132701,NA
92612,Orange County,CA,NA,NA,62.99694189602446
92881,Riverside County,CA,NA,58.53080568720379,NA
92886,Orange County,CA,NA,11.374407582938389,NA
93110,Santa Barbara County,CA,NA,NA,66.36085626911316
93230,Kings County,CA,NA,NA,39.75535168195719
93247,Tulare County,CA,84.34782608695653,NA,NA
93257,Tulare County,CA,7.82608695652174,14.691943127962084,NA
93268,Kern County,CA,NA,NA,83.18042813455658
93280,Kern County,CA,62.89855072463768,NA,NA
93291,Tulare County,CA,14.492753623188406,NA,NA
93292,Tulare County,CA,28.405797101449277,NA,NA
93314,Kern County,CA,NA,93.12796208530806,NA
93611,Fresno County,CA,NA,66.11374407582939,NA
93648,Fresno County,CA,74.4927536231884,NA,NA
93950,Monterey County,CA,NA,NA,39.14373088685015
94103,San Francisco County,CA,7.246376811594203,NA,NA
94114,San Francisco County,CA,NA,40.28436018957346,NA
94127,San Francisco County,CA,NA,NA,37.00305810397553
94536,Alameda County,CA,21.44927536231884,NA,NA
94556,Contra Costa County,CA,79.42028985507247,NA,NA
94608,Alameda County,CA,NA,80.56872037914692,NA
94903,Marin County,CA,NA,NA,7.339449541284404
95037,Santa Clara County,CA,43.188405797101446,NA,NA
95118,Santa Clara County,CA,NA,NA,44.03669724770643
95207,San Joaquin County,CA,NA,19.90521327014218,NA
95307,Stanislaus County,CA,22.608695652173914,NA,NA
95320,San Joaquin County,CA,NA,NA,78.59327217125383
95336,San Joaquin County,CA,NA,59.0047393364929,NA
95361,Stanislaus County,CA,NA,20.379146919431278,NA
95368,Stanislaus County,CA,NA,99.0521327014218,NA
95482,Mendocino County,CA,77.39130434782608,NA,NA
95618,Yolo County,CA,NA,NA,44.64831804281346
95665,Amador County,CA,NA,77.01421800947867,NA
95961,Yuba County,CA,33.6231884057971,NA,NA
96073,Shasta County,CA,NA,NA,92.66055045871559
96097,Siskiyou County,CA,NA,NA,53.21100917431193
80011,Arapahoe County,CO,70.43478260869566,NA,NA
80014,Arapahoe County,CO,NA,NA,4.587155963302752
80130,Douglas County,CO,NA,NA,59.63302752293578
80132,El Paso County,CO,NA,NA,52.90519877675841
80207,Denver County,CO,NA,NA,93.27217125382263
80209,Denver County,CO,NA,NA,76.45259938837921
80230,Denver County,CO,93.6231884057971,NA,NA
80534,Weld County,CO,NA,95.49763033175356,NA
80537,Larimer County,CO,NA,10.189573459715639,NA
81003,Pueblo County,CO,76.81159420289855,NA,NA
81005,Pueblo County,CO,NA,NA,21.406727828746178
06033,Hartford County,CT,NA,NA,73.39449541284404
06082,Hartford County,CT,NA,35.308056872037916,NA
06451,New Haven County,CT,44.927536231884055,NA,NA
06513,New Haven County,CT,NA,6.161137440758294,NA
06517,New Haven County,CT,NA,32.22748815165877,NA
06519,New Haven County,CT,60.86956521739131,NA,NA
06610,Fairfield County,CT,NA,41.943127962085306,NA
06786,Litchfield County,CT,NA,NA,89.60244648318043
06787,Litchfield County,CT,NA,79.38388625592417,NA
06790,Litchfield County,CT,NA,48.5781990521327,NA
06902,Fairfield County,CT,NA,8.293838862559241,78.2874617737003
19701,New Castle County,DE,NA,NA,28.440366972477065
19803,New Castle County,DE,NA,61.137440758293835,NA
32068,Clay County,FL,NA,29.14691943127962,NA
32114,Volusia County,FL,69.85507246376812,NA,NA
32118,Volusia County,FL,92.46376811594203,NA,NA
32127,Volusia County,FL,NA,NA,60.24464831804281
32129,Volusia County,FL,NA,NA,22.93577981651376
32130,Volusia County,FL,NA,NA,85.62691131498471
32204,Duval County,FL,51.01449275362319,NA,NA
32219,Duval County,FL,33.91304347826087,NA,NA
32246,Duval County,FL,NA,NA,72.78287461773701
32308,Leon County,FL,NA,47.39336492890995,NA
32310,Leon County,FL,53.91304347826087,NA,NA
32327,Wakulla County,FL,84.05797101449275,NA,NA
32404,Bay County,FL,NA,13.744075829383887,NA
32425,Holmes County,FL,NA,NA,53.51681957186545
32507,Escambia County,FL,NA,NA,9.785932721712538
32526,Escambia County,FL,31.30434782608696,NA,NA
32566,Santa Rosa County,FL,NA,NA,17.431192660550458
32578,Okaloosa County,FL,NA,12.796208530805686,NA
32606,Alachua County,FL,NA,86.01895734597157,NA
32608,Alachua County,FL,4.057971014492753,NA,NA
32703,Orange County,FL,NA,12.322274881516588,NA
32751,Orange County,FL,NA,63.03317535545023,NA
32765,Seminole County,FL,NA,69.90521327014217,NA
32796,Brevard County,FL,40.57971014492754,NA,NA
32810,Orange County,FL,NA,94.54976303317537,NA
32934,Brevard County,FL,59.42028985507246,NA,NA
32963,Indian River County,FL,86.66666666666667,NA,8.868501529051988
33013,Miami-Dade County,FL,NA,NA,15.29051987767584
33056,Miami-Dade County,FL,NA,NA,97.85932721712538
33062,Broward County,FL,NA,NA,51.681957186544345
33145,Miami-Dade County,FL,NA,NA,83.4862385321101
33308,Broward County,FL,NA,NA,0.6116207951070336
33315,Broward County,FL,NA,NA,92.35474006116208
33319,Broward County,FL,29.275362318840582,NA,NA
33322,Broward County,FL,NA,NA,7.951070336391437
33415,Palm Beach County,FL,29.855072463768117,NA,NA
33444,Palm Beach County,FL,NA,NA,99.08256880733946
33487,Palm Beach County,FL,NA,NA,24.770642201834864
33545,Pasco County,FL,NA,96.2085308056872,NA
33612,Hillsborough County,FL,NA,NA,68.50152905198776
33701,Pinellas County,FL,NA,48.1042654028436,NA
33703,Pinellas County,FL,94.20289855072464,NA,NA
33712,Pinellas County,FL,55.072463768115945,NA,43.425076452599384
33897,Polk County,FL,NA,NA,50.15290519877675
33952,Charlotte County,FL,NA,23.22274881516588,NA
34474,Marion County,FL,NA,85.30805687203792,NA
34482,Marion County,FL,50.43478260869565,NA,NA
34488,Marion County,FL,92.17391304347827,NA,NA
34655,Pasco County,FL,89.85507246376811,44.312796208530806,NA
34669,Pasco County,FL,NA,55.687203791469194,NA
34684,Pinellas County,FL,NA,9.47867298578199,NA
34748,Lake County,FL,NA,NA,45.25993883792049
34957,Martin County,FL,NA,NA,10.397553516819572
34982,St. Lucie County,FL,NA,NA,91.43730886850153
34984,St. Lucie County,FL,85.5072463768116,NA,60.85626911314985
30016,Newton County,GA,60.57971014492753,NA,NA
30032,DeKalb County,GA,NA,8.530805687203792,NA
30034,DeKalb County,GA,NA,15.639810426540285,NA
30102,Cherokee County,GA,34.78260869565217,NA,57.49235474006116
30114,Cherokee County,GA,NA,18.246445497630333,NA
30134,Douglas County,GA,NA,NA,37.61467889908257
30189,Cherokee County,GA,NA,NA,54.43425076452599
30222,Meriwether County,GA,97.68115942028986,NA,NA
30241,Troup County,GA,19.420289855072465,NA,NA
30260,Clayton County,GA,88.1159420289855,NA,NA
30504,Hall County,GA,68.11594202898551,NA,NA
30542,Hall County,GA,NA,29.620853080568722,35.47400611620795
30646,Madison County,GA,75.07246376811594,NA,NA
30721,Whitfield County,GA,NA,71.80094786729858,NA
30740,Whitfield County,GA,96.81159420289856,NA,NA
30830,Burke County,GA,NA,78.90995260663507,NA
30904,Richmond County,GA,NA,75.82938388625593,NA
30906,Richmond County,GA,NA,3.7914691943127963,NA
31008,Peach County,GA,NA,67.29857819905213,NA
31021,Laurens County,GA,NA,NA,31.19266055045872
31211,Bibb County,GA,58.84057971014492,NA,NA
31510,Bacon County,GA,NA,NA,63.608562691131496
31520,Glynn County,GA,39.42028985507247,NA,NA
31808,Harris County,GA,99.42028985507247,NA,NA
31907,Muscogee County,GA,NA,2.843601895734597,NA
96706,Honolulu County,HI,NA,9.004739336492891,NA
96734,Honolulu County,HI,NA,NA,68.50152905198776
96741,Kauai County,HI,82.6086956521739,NA,NA
83201,Bannock County,ID,NA,NA,64.83180428134557
83401,Bonneville County,ID,33.33333333333333,NA,NA
83501,Nez Perce County,ID,NA,31.753554502369667,18.34862385321101
83642,Ada County,ID,36.811594202898554,NA,NA
83644,Canyon County,ID,NA,81.04265402843602,NA
83647,Elmore County,ID,32.17391304347826,NA,NA
83704,Ada County,ID,53.04347826086957,33.649289099526065,11.926605504587156
60002,Lake County,IL,NA,NA,38.226299694189606
60051,McHenry County,IL,91.59420289855072,NA,NA
60060,Lake County,IL,NA,82.22748815165876,NA
60068,Cook County,IL,84.92753623188406,NA,NA
60069,Lake County,IL,NA,61.84834123222749,NA
60089,Lake County,IL,84.63768115942028,NA,NA
60099,Lake County,IL,NA,30.33175355450237,NA
60103,DuPage County,IL,NA,NA,24.159021406727827
60106,DuPage County,IL,NA,44.78672985781991,NA
60130,Cook County,IL,NA,50.71090047393365,NA
60176,Cook County,IL,85.79710144927536,NA,NA
60402,Cook County,IL,NA,78.43601895734598,NA
60404,Will County,IL,NA,NA,34.25076452599388
60419,Cook County,IL,NA,25.829383886255926,NA
60432,Will County,IL,44.05797101449275,NA,NA
60449,Will County,IL,NA,80.80568720379146,NA
60459,Cook County,IL,53.333333333333336,NA,NA
60544,Will County,IL,NA,NA,91.13149847094802
60608,Cook County,IL,45.79710144927536,NA,84.09785932721712
60651,Cook County,IL,66.66666666666666,NA,NA
60656,Cook County,IL,36.52173913043478,NA,NA
60657,Cook County,IL,NA,NA,35.77981651376147
61270,Whiteside County,IL,NA,NA,43.11926605504588
61282,Rock Island County,IL,95.65217391304348,NA,NA
61354,LaSalle County,IL,41.73913043478261,NA,NA
61443,Henry County,IL,NA,92.41706161137441,NA
61455,McDonough County,IL,NA,NA,49.235474006116206
61607,Peoria County,IL,NA,NA,50.45871559633027
61701,McLean County,IL,22.318840579710145,NA,NA
62040,Madison County,IL,NA,NA,11.009174311926607
62301,Adams County,IL,NA,26.303317535545023,NA
62353,Brown County,IL,99.71014492753623,NA,NA
62448,Jasper County,IL,NA,70.14218009478674,NA
62812,Franklin County,IL,NA,NA,65.74923547400611
46052,Boone County,IN,29.565217391304348,NA,NA
46184,Johnson County,IN,81.15942028985508,57.10900473933649,NA
46227,Marion County,IN,NA,4.502369668246446,1.2232415902140672
46368,Porter County,IN,NA,1.6587677725118484,NA
46373,Lake County,IN,NA,55.45023696682464,NA
46375,Lake County,IN,NA,54.502369668246445,80.42813455657493
46404,Lake County,IN,82.31884057971014,NA,NA
46406,Lake County,IN,NA,50.23696682464455,NA
46410,Lake County,IN,NA,3.3175355450236967,NA
46580,Kosciusko County,IN,34.20289855072463,NA,NA
46750,Huntington County,IN,13.91304347826087,NA,NA
46774,Allen County,IN,NA,NA,39.44954128440367
46809,Allen County,IN,43.47826086956522,NA,NA
46901,Howard County,IN,NA,NA,77.67584097859327
47001,Dearborn County,IN,70.43478260869566,NA,NA
47025,Dearborn County,IN,59.710144927536234,NA,NA
47119,Floyd County,IN,NA,69.66824644549763,NA
47167,Washington County,IN,38.84057971014493,NA,NA
47201,Bartholomew County,IN,27.82608695652174,NA,NA
47429,Monroe County,IN,NA,75.59241706161137,NA
47710,Vanderburgh County,IN,24.637681159420293,NA,NA
47803,Vigo County,IN,NA,NA,51.98776758409785
47807,Vigo County,IN,NA,86.96682464454977,NA
50208,Jasper County,IA,43.768115942028984,NA,NA
50315,Polk County,IA,81.73913043478261,NA,NA
50441,Franklin County,IA,NA,90.99526066350711,NA
50613,Black Hawk County,IA,NA,34.360189573459714,NA
51105,Woodbury County,IA,NA,99.28909952606635,NA
51106,Woodbury County,IA,36.231884057971016,NA,NA
52245,Johnson County,IA,NA,58.0568720379147,NA
52402,Linn County,IA,13.333333333333334,NA,NA
52404,Linn County,IA,NA,NA,63.30275229357798
52405,Linn County,IA,NA,NA,56.88073394495413
52501,Wapello County,IA,31.594202898550726,NA,NA
52544,Appanoose County,IA,NA,NA,60.550458715596335
52641,Henry County,IA,NA,82.70142180094787,NA
52761,Muscatine County,IA,NA,65.87677725118483,NA
52802,Scott County,IA,NA,91.70616113744076,NA
66103,Wyandotte County,KS,NA,NA,59.021406727828754
66106,Wyandotte County,KS,NA,49.28909952606635,NA
66743,Crawford County,KS,87.2463768115942,NA,NA
67010,Butler County,KS,NA,NA,75.22935779816514
67220,Sedgwick County,KS,NA,87.20379146919431,NA
40004,Nelson County,KY,NA,82.93838862559242,NA
40211,Jefferson County,KY,NA,67.77251184834124,NA
40215,Jefferson County,KY,NA,33.41232227488152,NA
40219,Jefferson County,KY,7.536231884057972,NA,NA
40353,Montgomery County,KY,NA,49.763033175355446,NA
41035,Grant County,KY,NA,66.82464454976304,NA
41076,Campbell County,KY,NA,NA,73.08868501529052
41102,Boyd County,KY,NA,NA,94.4954128440367
41169,Greenup County,KY,NA,87.67772511848341,NA
41339,Breathitt County,KY,NA,NA,74.92354740061162
41653,Floyd County,KY,NA,27.251184834123222,76.75840978593273
41858,Letcher County,KY,NA,43.3649289099526,NA
42031,Hickman County,KY,NA,74.88151658767772,NA
42303,Daviess County,KY,NA,57.58293838862559,NA
42437,Union County,KY,62.60869565217392,NA,NA
42633,Wayne County,KY,NA,25.59241706161137,NA
70003,Jefferson Parish,LA,NA,2.3696682464454977,NA
70056,Jefferson Parish,LA,NA,NA,81.65137614678899
70094,Jefferson Parish,LA,NA,61.37440758293838,NA
70113,Orleans Parish,LA,NA,87.44075829383885,NA
70114,Orleans Parish,LA,NA,23.696682464454977,NA
70118,Orleans Parish,LA,37.391304347826086,NA,NA
70301,Lafourche Parish,LA,NA,5.687203791469194,NA
70363,Terrebonne Parish,LA,NA,20.85308056872038,NA
70420,St. Tammany Parish,LA,NA,54.02843601895735,NA
70471,St. Tammany Parish,LA,NA,NA,10.703363914373089
70507,Lafayette Parish,LA,NA,NA,97.24770642201835
70515,Evangeline Parish,LA,NA,91.4691943127962,NA
70570,St. Landry Parish,LA,NA,32.46445497630332,NA
70591,Jefferson Davis Parish,LA,NA,76.06635071090048,NA
70607,Calcasieu Parish,LA,NA,48.1042654028436,NA
70770,East Baton Rouge Parish,LA,100,NA,NA
70805,East Baton Rouge Parish,LA,NA,18.48341232227488,NA
71109,Caddo Parish,LA,NA,NA,22.32415902140673
71112,Bossier Parish,LA,NA,NA,18.654434250764528
71202,Ouachita Parish,LA,78.26086956521739,NA,NA
71360,Rapides Parish,LA,NA,45.97156398104265,NA
71446,Vernon Parish,LA,NA,NA,45.87155963302752
71457,Natchitoches Parish,LA,NA,16.587677725118482,NA
04092,Cumberland County,ME,NA,83.17535545023696,NA
04101,Cumberland County,ME,NA,81.99052132701422,NA
04281,Oxford County,ME,NA,47.867298578199055,NA
04330,Kennebec County,ME,3.1884057971014492,NA,NA
04401,Penobscot County,ME,NA,1.1848341232227488,81.34556574923548
04416,Hancock County,ME,NA,66.35071090047393,NA
04769,Aroostook County,ME,48.69565217391305,NA,NA
20707,Prince George's County,MD,NA,NA,82.87461773700305
20774,Prince George's County,MD,NA,NA,94.80122324159022
20910,Montgomery County,MD,NA,60.426540284360186,NA
21001,Harford County,MD,NA,97.39336492890996,NA
21009,Harford County,MD,NA,52.13270142180095,NA
21015,Harford County,MD,NA,NA,33.02752293577982
21044,Howard County,MD,NA,NA,98.77675840978594
21144,Anne Arundel County,MD,NA,42.18009478672986,NA
21215,Baltimore city,MD,NA,NA,4.892966360856269
21228,Baltimore County,MD,39.710144927536234,NA,NA
21230,Baltimore city,MD,NA,39.09952606635071,NA
21401,Anne Arundel County,MD,NA,51.65876777251185,NA
21502,Allegany County,MD,15.942028985507244,NA,NA
21901,Cecil County,MD,NA,NA,61.46788990825688
01013,Hampden County,MA,NA,9.95260663507109,NA
01028,Hampden County,MA,32.463768115942024,NA,61.16207951070336
01119,Hampden County,MA,74.78260869565217,NA,NA
01201,Berkshire County,MA,NA,25.118483412322274,NA
01464,Middlesex County,MA,NA,NA,99.38837920489296
01534,Worcester County,MA,60.28985507246377,NA,NA
01550,Worcester County,MA,NA,15.165876777251185,NA
01590,Worcester County,MA,88.40579710144928,NA,NA
01702,Middlesex County,MA,NA,NA,1.834862385321101
01826,Middlesex County,MA,NA,58.767772511848335,NA
01832,Essex County,MA,NA,NA,77.06422018348624
01844,Essex County,MA,NA,NA,1.529051987767584
01854,Middlesex County,MA,NA,75.35545023696683,2.1406727828746175
01906,Essex County,MA,NA,NA,2.4464831804281344
01952,Essex County,MA,93.33333333333333,NA,NA
01960,Essex County,MA,0.2898550724637681,NA,NA
02053,Norfolk County,MA,35.36231884057971,NA,NA
02072,Norfolk County,MA,NA,NA,57.18654434250765
02116,Suffolk County,MA,9.855072463768117,NA,NA
02119,Suffolk County,MA,12.46376811594203,0.47393364928909953,NA
02121,Suffolk County,MA,NA,33.175355450236964,NA
02135,Suffolk County,MA,57.68115942028985,NA,NA
02138,Middlesex County,MA,NA,NA,8.56269113149847
02169,Norfolk County,MA,NA,0.7109004739336493,NA
02184,Norfolk County,MA,2.898550724637681,26.066350710900476,NA
02189,Norfolk County,MA,98.84057971014492,NA,NA
02301,Plymouth County,MA,NA,0.23696682464454977,NA
02302,Plymouth County,MA,NA,10.90047393364929,NA
02333,Plymouth County,MA,20.869565217391305,NA,NA
02360,Plymouth County,MA,NA,NA,36.69724770642202
02364,Plymouth County,MA,40,NA,NA
02452,Middlesex County,MA,NA,57.345971563981045,NA
02460,Middlesex County,MA,NA,59.47867298578199,NA
02482,Norfolk County,MA,NA,NA,96.94189602446484
02703,Bristol County,MA,0.5797101449275363,NA,NA
02766,Bristol County,MA,NA,NA,88.68501529051987
48066,Macomb County,MI,NA,72.03791469194313,2.7522935779816518
48076,Oakland County,MI,22.028985507246375,NA,NA
48080,Macomb County,MI,24.92753623188406,NA,NA
48083,Oakland County,MI,NA,NA,20.489296636085626
48092,Macomb County,MI,NA,NA,46.17737003058104
48130,Washtenaw County,MI,NA,26.77725118483412,NA
48146,Wayne County,MI,NA,10.66350710900474,NA
48152,Wayne County,MI,NA,4.028436018957346,NA
48160,Washtenaw County,MI,NA,NA,40.97859327217125
48195,Wayne County,MI,16.231884057971012,NA,NA
48203,Wayne County,MI,62.31884057971014,NA,NA
48219,Wayne County,MI,NA,93.60189573459715,NA
48229,Wayne County,MI,44.34782608695652,NA,NA
48234,Wayne County,MI,4.9275362318840585,NA,NA
48239,Wayne County,MI,5.217391304347826,NA,NA
48304,Oakland County,MI,NA,NA,82.26299694189603
48306,Oakland County,MI,NA,NA,54.74006116207951
48312,Macomb County,MI,NA,NA,3.9755351681957185
48317,Macomb County,MI,NA,NA,86.23853211009175
48322,Oakland County,MI,NA,NA,0.9174311926605505
48340,Oakland County,MI,25.79710144927536,NA,NA
48346,Oakland County,MI,NA,36.492890995260666,NA
48375,Oakland County,MI,37.971014492753625,NA,NA
48433,Genesee County,MI,40.869565217391305,NA,NA
48603,Saginaw County,MI,6.956521739130435,NA,NA
48640,Midland County,MI,80,NA,90.82568807339449
48706,Bay County,MI,NA,NA,37.920489296636084
48823,Ingham County,MI,98.55072463768117,NA,NA
49001,Kalamazoo County,MI,NA,NA,41.284403669724774
49017,Calhoun County,MI,NA,43.838862559241704,NA
49037,Calhoun County,MI,9.27536231884058,NA,NA
49047,Cass County,MI,NA,19.194312796208532,NA
49080,Allegan County,MI,30.144927536231886,NA,NA
49112,Cass County,MI,NA,NA,92.96636085626912
49228,Lenawee County,MI,83.18840579710145,NA,NA
49301,Kent County,MI,NA,NA,95.10703363914374
49329,Montcalm County,MI,NA,47.6303317535545,NA
49348,Allegan County,MI,NA,84.36018957345972,NA
49508,Kent County,MI,NA,NA,5.198776758409786
49855,Marquette County,MI,8.985507246376812,NA,NA
55038,Washington County,MN,NA,NA,81.03975535168195
55044,Dakota County,MN,37.68115942028986,NA,NA
55082,Washington County,MN,90.14492753623189,NA,NA
55105,Ramsey County,MN,NA,NA,57.798165137614674
55109,Ramsey County,MN,NA,61.61137440758294,NA
55318,Carver County,MN,NA,71.09004739336493,NA
55432,Anoka County,MN,15.65217391304348,NA,NA
55447,Hennepin County,MN,88.69565217391305,NA,NA
55802,St. Louis County,MN,NA,82.46445497630332,NA
55901,Olmsted County,MN,NA,17.535545023696685,NA
55987,Winona County,MN,NA,32.70142180094787,NA
56187,Nobles County,MN,76.52173913043478,NA,NA
56303,Stearns County,MN,NA,NA,74.61773700305811
56308,Douglas County,MN,47.53623188405797,NA,NA
56425,Crow Wing County,MN,NA,NA,65.4434250764526
38637,DeSoto County,MS,NA,NA,48.318042813455655
38663,Tippah County,MS,57.10144927536231,NA,NA
38671,DeSoto County,MS,NA,40.047393364928915,NA
38732,Bolivar County,MS,NA,28.436018957345972,NA
38804,Lee County,MS,58.550724637681164,NA,NA
38821,Monroe County,MS,48.11594202898551,NA,NA
38834,Alcorn County,MS,13.623188405797102,NA,NA
38901,Grenada County,MS,NA,NA,69.41896024464832
39042,Rankin County,MS,23.768115942028984,NA,NA
39046,Madison County,MS,47.82608695652174,NA,NA
39069,Jefferson County,MS,86.08695652173914,NA,NA
39208,Rankin County,MS,NA,NA,16.207951070336392
39339,Winston County,MS,60,NA,NA
39429,Marion County,MS,52.17391304347826,NA,NA
39540,Harrison County,MS,NA,98.81516587677726,NA
39563,Jackson County,MS,37.10144927536232,NA,NA
39667,Walthall County,MS,NA,46.682464454976305,NA
39702,Lowndes County,MS,NA,36.25592417061612,NA
39773,Clay County,MS,53.62318840579711,NA,NA
63028,Jefferson County,MO,NA,100,NA
63033,St. Louis County,MO,11.304347826086957,NA,NA
63080,Franklin County,MO,33.04347826086956,NA,NA
63106,St. Louis city,MO,NA,NA,66.05504587155964
63109,St. Louis city,MO,63.47826086956522,NA,NA
63114,St. Louis County,MO,NA,49.052132701421804,NA
63118,St. Louis city,MO,22.89855072463768,NA,NA
63127,St. Louis County,MO,NA,NA,67.88990825688074
63130,St. Louis County,MO,65.79710144927536,NA,NA
63144,St. Louis County,MO,NA,NA,98.1651376146789
63501,Adair County,MO,NA,NA,47.40061162079511
63628,St. Francois County,MO,49.275362318840585,NA,NA
63834,Mississippi County,MO,NA,89.81042654028435,NA
63857,Dunklin County,MO,31.01449275362319,NA,NA
64050,Jackson County,MO,10.144927536231885,NA,NA
64063,Jackson County,MO,27.246376811594203,NA,NA
64075,Jackson County,MO,NA,81.27962085308057,84.40366972477065
64111,Jackson County,MO,46.3768115942029,NA,NA
64131,Jackson County,MO,NA,24.881516587677723,NA
64133,Jackson County,MO,2.0289855072463765,NA,NA
64137,Jackson County,MO,NA,NA,42.813455657492355
64152,Platte County,MO,NA,NA,40.67278287461774
64154,Platte County,MO,NA,NA,64.22018348623854
64505,Buchanan County,MO,21.15942028985507,NA,NA
64601,Livingston County,MO,64.05797101449275,NA,NA
64683,Grundy County,MO,46.666666666666664,NA,NA
64772,Vernon County,MO,NA,NA,49.54128440366973
64804,Jasper County,MO,NA,NA,26.911314984709477
65202,Boone County,MO,NA,14.928909952606634,NA
65233,Cooper County,MO,52.46376811594203,NA,NA
65270,Randolph County,MO,72.17391304347827,NA,97.55351681957187
65559,Phelps County,MO,NA,NA,52.59938837920489
65742,Webster County,MO,NA,NA,86.54434250764525
65746,Webster County,MO,NA,NA,91.74311926605505
65804,Greene County,MO,NA,NA,49.84709480122324
59047,Park County,MT,NA,50,NA
59405,Cascade County,MT,72.7536231884058,NA,NA
59870,Ravalli County,MT,NA,80.33175355450237,NA
68008,Washington County,NE,NA,46.44549763033176,NA
68123,Sarpy County,NE,74.20289855072464,NA,46.48318042813456
68502,Lancaster County,NE,NA,90.75829383886256,NA
68506,Lancaster County,NE,96.52173913043478,NA,NA
68776,Dakota County,NE,NA,60.18957345971564,NA
89121,Clark County,NV,18.84057971014493,NA,NA
89129,Clark County,NV,35.07246376811594,NA,NA
89403,Lyon County,NV,26.666666666666668,27.72511848341232,NA
89406,Churchill County,NV,NA,20.14218009478673,NA
89506,Washoe County,NV,12.173913043478262,NA,NA
89511,Washoe County,NV,NA,45.97156398104265,NA
89512,Washoe County,NV,NA,59.95260663507109,NA
89701,Carson City,NV,NA,NA,27.82874617737003
89703,Carson City,NV,NA,53.317535545023695,NA
03054,Hillsborough County,NH,NA,NA,79.81651376146789
03101,Hillsborough County,NH,87.2463768115942,NA,NA
03102,Hillsborough County,NH,NA,10.42654028436019,NA
03755,Grafton County,NH,NA,65.16587677725119,NA
03865,Rockingham County,NH,NA,74.88151658767772,NA
07017,Essex County,NJ,NA,NA,79.51070336391437
07052,Essex County,NJ,78.55072463768116,73.22274881516587,NA
07083,Union County,NJ,NA,NA,16.819571865443425
07103,Essex County,NJ,NA,1.4218009478672986,NA
07208,Union County,NJ,81.44927536231884,NA,NA
07307,Hudson County,NJ,NA,NA,73.70030581039755
07660,Bergen County,NJ,NA,89.33649289099526,NA
07740,Monmouth County,NJ,NA,NA,19.877675840978593
07834,Morris County,NJ,NA,56.39810426540285,NA
07876,Morris County,NJ,NA,NA,96.63608562691131
08005,Ocean County,NJ,NA,21.09004739336493,NA
08031,Camden County,NJ,59.130434782608695,NA,NA
08037,Atlantic County,NJ,11.014492753623188,NA,NA
08046,Burlington County,NJ,NA,NA,86.85015290519877
08052,Burlington County,NJ,NA,31.04265402843602,NA
08055,Burlington County,NJ,NA,NA,21.100917431192663
08075,Burlington County,NJ,87.82608695652175,NA,NA
08081,Camden County,NJ,NA,NA,46.788990825688074
08090,Gloucester County,NJ,NA,64.92890995260665,NA
08110,Camden County,NJ,NA,NA,69.1131498470948
08226,Cape May County,NJ,NA,NA,38.53211009174312
08360,Cumberland County,NJ,69.56521739130434,NA,NA
08527,Ocean County,NJ,NA,NA,64.52599388379205
08724,Ocean County,NJ,NA,NA,10.091743119266056
08731,Ocean County,NJ,NA,NA,71.86544342507645
08734,Ocean County,NJ,70.14492753623188,NA,NA
08831,Middlesex County,NJ,NA,NA,42.50764525993883
08873,Somerset County,NJ,NA,NA,12.232415902140673
08902,Middlesex County,NJ,NA,76.54028436018957,NA
87124,Sandoval County,NM,NA,NA,6.422018348623854
88001,Doa Ana County,NM,NA,46.91943127962085,NA
10029,New York County,NY,NA,NA,44.342507645259936
10035,New York County,NY,NA,5.450236966824645,NA
10036,New York County,NY,NA,78.19905213270142,NA
10044,New York County,NY,NA,NA,70.64220183486239
10304,Richmond County,NY,30.72463768115942,NA,NA
10458,Bronx County,NY,NA,0.9478672985781991,NA
10469,Bronx County,NY,NA,24.407582938388625,NA
10473,Bronx County,NY,NA,4.739336492890995,NA
10541,Putnam County,NY,NA,NA,65.13761467889908
10591,Westchester County,NY,NA,93.8388625592417,NA
10601,Westchester County,NY,NA,NA,58.103975535168196
10801,Westchester County,NY,NA,22.03791469194313,NA
10805,Westchester County,NY,NA,93.36492890995261,NA
10962,Rockland County,NY,NA,91.9431279620853,NA
10977,Rockland County,NY,NA,NA,32.11009174311927
11212,Kings County,NY,0.8695652173913043,NA,NA
11221,Kings County,NY,NA,2.6066350710900474,NA
11226,Kings County,NY,66.3768115942029,NA,NA
11233,Kings County,NY,NA,NA,23.547400611620795
11234,Kings County,NY,40.28985507246377,NA,NA
11358,Queens County,NY,NA,83.64928909952607,NA
11373,Queens County,NY,NA,NA,36.391437308868504
11379,Queens County,NY,86.37681159420289,NA,NA
11385,Queens County,NY,NA,7.819905213270142,NA
11419,Queens County,NY,NA,47.1563981042654,NA
11575,Nassau County,NY,NA,NA,70.33639143730886
11598,Nassau County,NY,86.95652173913044,NA,NA
11710,Nassau County,NY,75.65217391304347,NA,NA
11717,Suffolk County,NY,12.753623188405797,NA,NA
11743,Suffolk County,NY,88.98550724637681,NA,NA
11787,Suffolk County,NY,NA,25.355450236966824,NA
11793,Nassau County,NY,NA,71.56398104265402,NA
11963,Suffolk County,NY,NA,96.6824644549763,NA
12078,Fulton County,NY,NA,5.924170616113744,NA
12134,Fulton County,NY,NA,72.27488151658767,NA
12186,Albany County,NY,NA,NA,74.31192660550458
12306,Schenectady County,NY,NA,NA,26.605504587155966
12401,Ulster County,NY,NA,NA,95.41284403669725
12534,Columbia County,NY,NA,57.81990521327014,NA
12545,Dutchess County,NY,90.43478260869566,NA,NA
12550,Orange County,NY,NA,41.23222748815166,NA
12701,Sullivan County,NY,73.33333333333333,NA,NA
12804,Warren County,NY,NA,30.09478672985782,NA
12828,Washington County,NY,NA,NA,96.3302752293578
12866,Saratoga County,NY,8.405797101449275,NA,NA
12946,Essex County,NY,NA,NA,93.57798165137615
12953,Franklin County,NY,NA,40.99526066350711,NA
13045,Cortland County,NY,NA,NA,23.24159021406728
13057,Onondaga County,NY,NA,NA,84.70948012232415
13104,Onondaga County,NY,NA,97.6303317535545,NA
13205,Onondaga County,NY,77.10144927536233,NA,NA
13350,Herkimer County,NY,24.057971014492754,NA,NA
13365,Herkimer County,NY,NA,NA,62.38532110091744
13421,Madison County,NY,NA,85.54502369668246,NA
13440,Oneida County,NY,48.98550724637681,NA,NA
13617,St. Lawrence County,NY,NA,NA,27.82874617737003
13669,St. Lawrence County,NY,94.78260869565217,NA,NA
14047,Erie County,NY,NA,95.97156398104265,NA
14048,Chautauqua County,NY,NA,30.80568720379147,NA
14067,Niagara County,NY,67.2463768115942,NA,NA
14094,Niagara County,NY,NA,NA,15.902140672782874
14215,Erie County,NY,NA,5.213270142180095,NA
14456,Ontario County,NY,3.768115942028986,NA,NA
14502,Wayne County,NY,18.26086956521739,NA,NA
14527,Yates County,NY,NA,17.77251184834123,NA
14572,Steuben County,NY,NA,85.07109004739335,NA
14610,Monroe County,NY,NA,NA,87.1559633027523
14613,Monroe County,NY,6.086956521739131,NA,54.12844036697248
14616,Monroe County,NY,1.4492753623188406,NA,NA
14624,Monroe County,NY,NA,NA,25.688073394495415
14891,Schuyler County,NY,NA,56.6350710900474,NA
27021,Stokes County,NC,NA,NA,14.067278287461773
27040,Forsyth County,NC,NA,NA,38.837920489296636
27104,Forsyth County,NC,20,NA,NA
27127,Forsyth County,NC,NA,3.080568720379147,NA
27253,Alamance County,NC,11.594202898550725,NA,NA
27260,Guilford County,NC,NA,36.96682464454976,NA
27288,Rockingham County,NC,NA,15.402843601895736,NA
27320,Rockingham County,NC,NA,6.6350710900473935,NA
27371,Montgomery County,NC,NA,98.10426540284361,NA
27405,Guilford County,NC,NA,8.767772511848342,NA
27524,Johnston County,NC,58.26086956521739,NA,NA
27539,Wake County,NC,NA,70.61611374407583,NA
27549,Franklin County,NC,15.072463768115943,NA,NA
27565,Granville County,NC,NA,NA,61.773700305810394
27596,Franklin County,NC,NA,79.62085308056872,NA
27606,Wake County,NC,NA,NA,31.49847094801223
27609,Wake County,NC,NA,52.60663507109005,NA
27610,Wake County,NC,NA,21.80094786729858,NA
27804,Nash County,NC,NA,NA,51.37614678899083
27893,Wilson County,NC,9.565217391304348,NA,19.26605504587156
28012,Gaston County,NC,NA,38.862559241706165,26.911314984709477
28025,Cabarrus County,NC,NA,90.04739336492891,NA
28037,Lincoln County,NC,NA,60.90047393364929,NA
28043,Rutherford County,NC,NA,NA,29.357798165137616
28110,Union County,NC,85.21739130434783,NA,NA
28112,Union County,NC,NA,74.40758293838863,NA
28120,Gaston County,NC,NA,97.86729857819904,NA
28139,Rutherford County,NC,NA,87.91469194312796,NA
28150,Cleveland County,NC,NA,29.383886255924168,NA
28152,Cleveland County,NC,92.7536231884058,NA,NA
28208,Mecklenburg County,NC,NA,59.71563981042654,NA
28214,Mecklenburg County,NC,NA,73.69668246445498,NA
28277,Mecklenburg County,NC,NA,12.085308056872037,NA
28304,Cumberland County,NC,20.28985507246377,NA,NA
28306,Bladen County,NC,NA,24.644549763033176,NA
28314,Cumberland County,NC,NA,54.976303317535546,NA
28328,Sampson County,NC,NA,14.454976303317535,NA
28351,Scotland County,NC,NA,NA,93.88379204892966
28352,Scotland County,NC,17.391304347826086,NA,NA
28374,Moore County,NC,NA,37.44075829383886,NA
28377,Robeson County,NC,94.4927536231884,NA,NA
28384,Bladen County,NC,NA,86.7298578199052,NA
28401,New Hanover County,NC,NA,22.274881516587676,NA
28403,New Hanover County,NC,NA,64.69194312796208,NA
28602,Catawba County,NC,57.971014492753625,NA,NA
28655,Burke County,NC,NA,NA,4.281345565749235
28658,Catawba County,NC,NA,58.29383886255924,NA
28659,Wilkes County,NC,NA,45.7345971563981,NA
28690,Burke County,NC,NA,NA,72.47706422018348
28791,Henderson County,NC,NA,NA,30.275229357798167
28803,Buncombe County,NC,NA,NA,40.0611620795107
58103,Cass County,ND,3.4782608695652173,NA,9.174311926605505
43026,Franklin County,OH,14.202898550724639,NA,NA
43028,Knox County,OH,NA,NA,85.93272171253822
43078,Champaign County,OH,67.53623188405797,27.488151658767773,NA
43123,Franklin County,OH,NA,NA,7.64525993883792
43130,Fairfield County,OH,6.666666666666667,NA,NA
43219,Franklin County,OH,NA,78.67298578199052,NA
43223,Franklin County,OH,NA,77.72511848341233,NA
43537,Lucas County,OH,NA,9.715639810426541,NA
43551,Wood County,OH,NA,4.976303317535545,NA
43604,Lucas County,OH,NA,39.81042654028436,NA
43605,Lucas County,OH,NA,42.65402843601896,NA
43606,Lucas County,OH,11.884057971014492,NA,NA
43609,Lucas County,OH,NA,28.199052132701425,NA
43725,Guernsey County,OH,NA,NA,41.59021406727829
43832,Tuscarawas County,OH,NA,NA,95.71865443425077
44030,Ashtabula County,OH,NA,92.18009478672985,NA
44035,Lorain County,OH,NA,0,NA
44039,Lorain County,OH,NA,2.132701421800948,NA
44050,Lorain County,OH,NA,NA,62.69113149847095
44067,Summit County,OH,NA,56.16113744075829,NA
44089,Erie County,OH,NA,62.32227488151659,NA
44107,Cuyahoga County,OH,NA,31.27962085308057,3.3639143730886847
44113,Cuyahoga County,OH,4.63768115942029,NA,NA
44135,Cuyahoga County,OH,NA,NA,14.37308868501529
44144,Cuyahoga County,OH,NA,NA,55.96330275229357
44146,Cuyahoga County,OH,NA,44.07582938388626,NA
44241,Portage County,OH,NA,13.507109004739338,NA
44312,Summit County,OH,NA,6.398104265402843,NA
44410,Trumbull County,OH,55.94202898550724,17.061611374407583,NA
44444,Trumbull County,OH,91.30434782608695,NA,NA
44446,Trumbull County,OH,67.82608695652173,NA,NA
44502,Mahoning County,OH,NA,53.55450236966824,NA
44504,Mahoning County,OH,68.98550724637681,90.52132701421802,NA
44615,Carroll County,OH,NA,NA,48.62385321100918
44667,Wayne County,OH,NA,NA,53.822629969418955
44708,Stark County,OH,NA,22.985781990521325,NA
44720,Stark County,OH,48.40579710144928,NA,NA
44805,Ashland County,OH,NA,89.0995260663507,14.984709480122325
44883,Seneca County,OH,NA,NA,12.538226299694188
45005,Warren County,OH,NA,38.62559241706161,NA
45013,Butler County,OH,1.7391304347826086,NA,NA
45036,Warren County,OH,NA,44.54976303317535,NA
45042,Butler County,OH,NA,NA,27.522935779816514
45044,Butler County,OH,NA,NA,71.55963302752293
45056,Butler County,OH,95.94202898550725,NA,NA
45140,Clermont County,OH,NA,NA,13.455657492354739
45207,Hamilton County,OH,69.27536231884058,NA,NA
45233,Hamilton County,OH,NA,NA,96.02446483180428
45246,Hamilton County,OH,NA,NA,45.56574923547401
45365,Shelby County,OH,NA,NA,88.9908256880734
45426,Montgomery County,OH,NA,NA,32.7217125382263
45505,Clark County,OH,NA,NA,47.09480122324159
45601,Ross County,OH,0,NA,NA
45631,Gallia County,OH,NA,30.568720379146917,NA
45640,Jackson County,OH,83.76811594202898,NA,NA
45669,Lawrence County,OH,64.6376811594203,NA,NA
45694,Scioto County,OH,78.84057971014494,NA,NA
45697,Adams County,OH,NA,NA,100
45805,Allen County,OH,NA,NA,17.737003058103976
45806,Allen County,OH,NA,85.78199052132702,NA
45840,Hancock County,OH,34.492753623188406,NA,NA
45880,Paulding County,OH,NA,84.59715639810426,NA
73044,Logan County,OK,NA,51.8957345971564,NA
73080,McClain County,OK,65.5072463768116,NA,NA
73105,Oklahoma County,OK,NA,NA,90.51987767584097
73111,Oklahoma County,OK,NA,NA,42.201834862385326
73132,Oklahoma County,OK,NA,NA,67.58409785932722
73160,Cleveland County,OK,28.115942028985508,NA,NA
73162,Oklahoma County,OK,NA,NA,11.62079510703364
73703,Garfield County,OK,NA,11.137440758293838,NA
74008,Tulsa County,OK,NA,37.203791469194314,NA
74020,Pawnee County,OK,73.62318840579711,NA,NA
74126,Tulsa County,OK,63.76811594202898,NA,NA
74133,Tulsa County,OK,20.579710144927535,NA,NA
74403,Muskogee County,OK,NA,18.009478672985782,NA
74523,Pushmataha County,OK,83.47826086956522,NA,NA
74728,McCurtain County,OK,NA,NA,92.04892966360856
74801,Pottawatomie County,OK,NA,68.48341232227489,NA
74804,Pottawatomie County,OK,51.8840579710145,NA,NA
97045,Clackamas County,OR,NA,8.056872037914692,NA
97213,Multnomah County,OR,NA,91.23222748815166,NA
97215,Multnomah County,OR,NA,97.1563981042654,NA
97219,Multnomah County,OR,NA,NA,33.94495412844037
97223,Washington County,OR,79.13043478260869,NA,NA
97267,Clackamas County,OR,NA,80.09478672985783,NA
97338,Polk County,OR,NA,29.85781990521327,NA
97355,Linn County,OR,6.3768115942028984,NA,NA
97402,Lane County,OR,NA,71.32701421800948,NA
97463,Lane County,OR,NA,88.38862559241706,NA
97882,Umatilla County,OR,NA,NA,98.47094801223241
15001,Beaver County,PA,NA,38.15165876777251,NA
15068,Westmoreland County,PA,13.043478260869565,NA,NA
15084,Allegheny County,PA,55.362318840579704,NA,NA
15137,Allegheny County,PA,NA,NA,43.730886850152906
15214,Allegheny County,PA,66.95652173913044,NA,NA
15226,Allegheny County,PA,NA,42.41706161137441,NA
15227,Allegheny County,PA,NA,14.218009478672986,NA
15237,Allegheny County,PA,NA,84.12322274881517,NA
15320,Greene County,PA,NA,NA,81.9571865443425
15401,Fayette County,PA,NA,37.91469194312796,NA
15478,Fayette County,PA,56.231884057971016,NA,NA
15642,Westmoreland County,PA,NA,21.563981042654028,NA
15658,Westmoreland County,PA,NA,NA,41.59021406727829
15906,Cambria County,PA,NA,50.947867298578196,NA
16201,Armstrong County,PA,NA,45.26066350710901,NA
16673,Blair County,PA,NA,76.77725118483413,NA
17019,York County,PA,NA,95.260663507109,NA
17202,Franklin County,PA,NA,38.388625592417064,NA
17362,York County,PA,NA,35.54502369668246,NA
17512,Lancaster County,PA,NA,NA,52.293577981651374
17522,Lancaster County,PA,NA,NA,3.669724770642202
17545,Lancaster County,PA,NA,NA,51.07033639143731
17821,Montour County,PA,45.21739130434783,NA,NA
17851,Northumberland County,PA,NA,NA,29.66360856269113
18018,Lehigh County,PA,NA,72.51184834123224,NA
18104,Lehigh County,PA,NA,NA,0.3058103975535168
18360,Monroe County,PA,NA,NA,78.59327217125383
18508,Lackawanna County,PA,NA,86.49289099526067,NA
18509,Lackawanna County,PA,42.608695652173914,NA,NA
18612,Luzerne County,PA,NA,NA,18.654434250764528
18634,Luzerne County,PA,NA,31.990521327014214,NA
18651,Luzerne County,PA,54.492753623188406,NA,NA
19050,Delaware County,PA,NA,83.88625592417061,NA
19104,Philadelphia County,PA,NA,11.61137440758294,NA
19115,Philadelphia County,PA,NA,NA,7.033639143730887
19124,Philadelphia County,PA,5.507246376811594,NA,NA
19136,Philadelphia County,PA,5.797101449275362,NA,NA
19335,Chester County,PA,NA,NA,19.571865443425075
19355,Chester County,PA,NA,NA,30.886850152905197
19365,Chester County,PA,NA,NA,66.97247706422019
19382,Chester County,PA,32.463768115942024,NA,NA
19468,Montgomery County,PA,NA,NA,28.74617737003058
19604,Berks County,PA,27.536231884057973,NA,NA
19605,Berks County,PA,79.71014492753623,NA,NA
19606,Berks County,PA,NA,NA,11.314984709480122
02859,Providence County,RI,NA,NA,87.46177370030581
02882,Washington County,RI,NA,39.33649289099526,NA
02886,Kent County,RI,NA,16.113744075829384,NA
02895,Providence County,RI,NA,NA,77.37003058103976
02903,Providence County,RI,NA,62.55924170616114,NA
02904,Providence County,RI,NA,40.52132701421801,NA
02908,Providence County,RI,NA,86.25592417061611,17.12538226299694
29078,Kershaw County,SC,NA,54.2654028436019,NA
29203,Richland County,SC,56.52173913043478,NA,NA
29316,Spartanburg County,SC,NA,NA,70.03058103975535
29349,Spartanburg County,SC,NA,NA,80.73394495412845
29406,Charleston County,SC,16.81159420289855,NA,NA
29412,Charleston County,SC,NA,NA,72.17125382262996
29414,Charleston County,SC,66.08695652173913,NA,NA
29510,Georgetown County,SC,50.14492753623189,NA,NA
29526,Horry County,SC,NA,7.5829383886255926,NA
29550,Darlington County,SC,28.695652173913043,13.981042654028435,NA
29571,Marion County,SC,NA,NA,76.14678899082568
29574,Marion County,SC,71.30434782608695,NA,NA
29577,Horry County,SC,NA,NA,31.804281345565748
29579,Horry County,SC,NA,22.511848341232227,NA
29640,Pickens County,SC,42.31884057971014,NA,NA
29646,Greenwood County,SC,NA,77.96208530805687,NA
29657,Pickens County,SC,NA,NA,88.37920489296636
29707,Lancaster County,SC,NA,NA,13.761467889908257
29928,Beaufort County,SC,NA,NA,85.01529051987767
37148,Sumner County,TN,NA,33.88625592417062,NA
37167,Rutherford County,TN,NA,43.3649289099526,NA
37209,Davidson County,TN,NA,41.70616113744076,NA
37303,McMinn County,TN,NA,70.85308056872039,NA
37307,Polk County,TN,NA,68.95734597156398,NA
37381,Rhea County,TN,NA,98.5781990521327,NA
37388,Coffee County,TN,NA,31.516587677725116,NA
37397,Marion County,TN,71.01449275362319,NA,NA
37416,Hamilton County,TN,NA,81.75355450236967,NA
37421,Hamilton County,TN,NA,99.52606635071089,NA
37617,Sullivan County,TN,80.28985507246377,NA,NA
37642,Hawkins County,TN,NA,34.834123222748815,NA
37721,Knox County,TN,NA,63.74407582938388,NA
37745,Greene County,TN,NA,42.89099526066351,NA
37769,Anderson County,TN,NA,69.43127962085308,NA
37830,Anderson County,TN,NA,16.824644549763033,NA
37840,Roane County,TN,NA,99.76303317535546,NA
37919,Knox County,TN,NA,26.540284360189574,NA
38261,Obion County,TN,NA,24.170616113744074,NA
75040,Dallas County,TX,NA,NA,35.16819571865443
75050,Dallas County,TX,80.8695652173913,NA,NA
75069,Collin County,TX,NA,NA,14.678899082568808
75077,Denton County,TX,NA,NA,24.464831804281346
75150,Dallas County,TX,15.36231884057971,NA,NA
75165,Ellis County,TX,NA,17.298578199052134,NA
75216,Dallas County,TX,NA,NA,3.058103975535168
75218,Dallas County,TX,61.73913043478261,NA,NA
75223,Dallas County,TX,97.10144927536231,NA,NA
75287,Denton County,TX,NA,35.78199052132701,NA
75440,Rains County,TX,NA,77.25118483412322,NA
75503,Bowie County,TX,38.550724637681164,NA,NA
75703,Smith County,TX,21.73913043478261,NA,22.629969418960243
75763,Anderson County,TX,NA,67.53554502369668,NA
75771,Smith County,TX,41.449275362318836,NA,NA
75801,Anderson County,TX,NA,96.44549763033176,NA
75904,Angelina County,TX,23.47826086956522,NA,NA
76036,Tarrant County,TX,45.507246376811594,NA,34.25076452599388
76063,Tarrant County,TX,8.695652173913043,NA,NA
76119,Tarrant County,TX,4.3478260869565215,NA,NA
76140,Tarrant County,TX,26.3768115942029,NA,NA
76179,Tarrant County,TX,NA,72.74881516587678,NA
76226,Denton County,TX,NA,70.37914691943128,NA
76301,Wichita County,TX,89.56521739130436,NA,NA
76543,Bell County,TX,NA,NA,34.862385321100916
76661,Falls County,TX,NA,66.35071090047393,NA
76706,McLennan County,TX,75.94202898550725,NA,NA
77016,Harris County,TX,NA,27.96208530805687,NA
77028,Harris County,TX,NA,NA,32.11009174311927
77069,Harris County,TX,NA,NA,94.18960244648318
77070,Harris County,TX,NA,NA,19.877675840978593
77085,Harris County,TX,73.04347826086956,NA,NA
77088,Harris County,TX,NA,23.459715639810426,NA
77099,Harris County,TX,NA,NA,74.00611620795107
77301,Montgomery County,TX,NA,63.507109004739334,NA
77302,Montgomery County,TX,77.68115942028986,NA,NA
77318,Montgomery County,TX,NA,NA,62.079510703363916
77365,Montgomery County,TX,NA,92.89099526066352,NA
77388,Harris County,TX,NA,52.843601895734594,NA
77437,Wharton County,TX,NA,NA,29.051987767584098
77511,Brazoria County,TX,NA,9.24170616113744,NA
77554,Galveston County,TX,NA,NA,69.72477064220183
77590,Galveston County,TX,28.985507246376812,NA,NA
77630,Orange County,TX,NA,NA,25.993883792048926
77632,Orange County,TX,39.130434782608695,NA,NA
77963,Goliad County,TX,NA,NA,67.2782874617737
78040,Webb County,TX,NA,27.014218009478675,NA
78043,Webb County,TX,NA,18.72037914691943,18.04281345565749
78073,Bexar County,TX,NA,79.85781990521326,NA
78210,Bexar County,TX,16.52173913043478,NA,NA
78218,Bexar County,TX,NA,39.57345971563981,NA
78225,Bexar County,TX,91.01449275362319,NA,NA
78226,Bexar County,TX,82.89855072463767,NA,NA
78227,Bexar County,TX,25.507246376811594,NA,NA
78228,Bexar County,TX,NA,NA,83.79204892966361
78242,Bexar County,TX,96.23188405797102,NA,NA
78415,Nueces County,TX,NA,73.93364928909952,NA
78537,Hidalgo County,TX,NA,NA,36.08562691131498
78572,Hidalgo County,TX,NA,12.559241706161137,NA
78573,Hidalgo County,TX,NA,NA,15.59633027522936
78611,Burnet County,TX,NA,NA,9.480122324159021
78621,Bastrop County,TX,55.65217391304348,NA,NA
78801,Uvalde County,TX,NA,88.62559241706161,NA
78839,Zavala County,TX,NA,65.63981042654028,NA
78840,Val Verde County,TX,NA,NA,5.81039755351682
79106,Potter County,TX,NA,68.00947867298578,NA
79119,Randall County,TX,NA,65.40284360189574,NA
79907,El Paso County,TX,NA,13.033175355450238,NA
79927,El Paso County,TX,NA,NA,44.95412844036697
84003,Utah County,UT,61.15942028985507,NA,NA
84010,Davis County,UT,NA,NA,58.40978593272171
84058,Utah County,UT,NA,NA,59.9388379204893
84067,Weber County,UT,NA,NA,75.53516819571865
84094,Salt Lake County,UT,50.72463768115942,NA,NA
84097,Utah County,UT,71.59420289855073,NA,NA
84111,Salt Lake County,UT,NA,NA,71.25382262996942
84117,Salt Lake County,UT,NA,NA,63.91437308868502
84120,Salt Lake County,UT,38.26086956521739,NA,NA
84335,Cache County,UT,NA,NA,89.90825688073394
84405,Weber County,UT,NA,NA,40.36697247706422
84770,Washington County,UT,57.391304347826086,NA,NA
05641,Washington County,VT,23.18840579710145,NA,NA
05851,Caledonia County,VT,NA,NA,99.69418960244649
22030,Fairfax County,VA,NA,19.431279620853083,NA
22152,Fairfax County,VA,NA,52.13270142180095,NA
22310,Fairfax County,VA,NA,NA,55.04587155963303
22406,Stafford County,VA,NA,NA,30.58103975535168
22611,Clarke County,VA,NA,74.17061611374407,NA
22801,Harrisonburg city,VA,72.46376811594203,NA,NA
22835,Page County,VA,NA,NA,25.076452599388375
22851,Page County,VA,NA,45.497630331753555,NA
22853,Rockingham County,VA,NA,68.24644549763033,NA
22942,Louisa County,VA,NA,54.739336492891,NA
23061,Gloucester County,VA,49.56521739130435,NA,NA
23417,Accomack County,VA,NA,95.73459715639811,NA
23518,Norfolk city,VA,NA,19.66824644549763,NA
24015,Roanoke city,VA,61.44927536231884,NA,NA
24016,Roanoke city,VA,41.15942028985507,NA,NA
24153,Salem city,VA,75.36231884057972,NA,NA
24361,Washington County,VA,NA,81.51658767772511,NA
24416,Buena Vista city,VA,NA,NA,55.96330275229357
24572,Amherst County,VA,97.97101449275362,64.21800947867298,NA
98002,King County,WA,NA,NA,23.853211009174313
98011,King County,WA,NA,55.92417061611374,NA
98023,King County,WA,46.08695652173913,NA,NA
98042,King County,WA,52.7536231884058,NA,NA
98058,King County,WA,NA,NA,20.795107033639145
98087,Snohomish County,WA,NA,60.66350710900474,NA
98105,King County,WA,NA,55.21327014218009,NA
98112,King County,WA,NA,48.81516587677725,NA
98198,King County,WA,NA,NA,58.71559633027523
98204,Snohomish County,WA,17.681159420289855,NA,NA
98225,Whatcom County,WA,68.40579710144927,NA,NA
98233,Skagit County,WA,NA,63.98104265402843,NA
98310,Kitsap County,WA,NA,NA,25.382262996941897
98312,Kitsap County,WA,26.956521739130434,NA,NA
98335,Pierce County,WA,46.95652173913044,NA,NA
98373,Pierce County,WA,90.72463768115942,74.64454976303317,NA
98405,Pierce County,WA,51.30434782608696,NA,NA
98407,Pierce County,WA,NA,34.59715639810427,NA
98607,Clark County,WA,64.34782608695652,NA,82.56880733944955
98671,Clark County,WA,NA,NA,85.3211009174312
98682,Clark County,WA,NA,88.86255924170617,NA
98841,Okanogan County,WA,NA,53.08056872037915,NA
99337,Benton County,WA,NA,NA,22.018348623853214
99354,Benton County,WA,71.8840579710145,NA,NA
20015,District of Columbia,DC,NA,NA,48.01223241590214
20020,District of Columbia,DC,1.1594202898550725,4.265402843601896,NA
25302,Kanawha County,WV,NA,NA,90.21406727828746
25405,Berkeley County,WV,NA,NA,88.07339449541286
25504,Cabell County,WV,NA,51.18483412322274,NA
25840,Fayette County,WV,95.07246376811594,NA,NA
26101,Wood County,WV,2.608695652173913,NA,NA
26354,Taylor County,WV,NA,34.12322274881517,NA
26505,Monongalia County,WV,54.78260869565217,NA,NA
26508,Monongalia County,WV,NA,3.5545023696682465,NA
26554,Marion County,WV,2.318840579710145,NA,NA
53012,Ozaukee County,WI,NA,NA,77.98165137614679
53050,Dodge County,WI,NA,95.02369668246445,NA
53051,Waukesha County,WI,NA,NA,26.299694189602445
53081,Sheboygan County,WI,NA,15.876777251184834,NA
53172,Milwaukee County,WI,25.217391304347824,NA,NA
53177,Racine County,WI,NA,NA,89.29663608562691
53190,Walworth County,WI,NA,NA,80.1223241590214
53214,Milwaukee County,WI,NA,7.345971563981042,NA
53220,Milwaukee County,WI,NA,43.127962085308056,NA
53221,Milwaukee County,WI,NA,13.270142180094787,NA
53223,Milwaukee County,WI,NA,7.109004739336493,NA
53226,Milwaukee County,WI,NA,22.748815165876778,NA
53227,Milwaukee County,WI,24.347826086956523,NA,NA
53402,Racine County,WI,NA,NA,0
53406,Racine County,WI,NA,1.8957345971563981,NA
53549,Jefferson County,WI,NA,62.796208530805686,NA
53597,Dane County,WI,44.63768115942029,NA,NA
53705,Dane County,WI,77.97101449275362,NA,NA
53718,Dane County,WI,NA,98.34123222748815,NA
54115,Brown County,WI,NA,51.421800947867304,NA
54216,Kewaunee County,WI,NA,79.14691943127961,NA
54220,Manitowoc County,WI,NA,NA,33.33333333333333
54235,Door County,WI,NA,NA,13.149847094801222
54403,Marathon County,WI,NA,NA,8.256880733944955
54457,Wood County,WI,65.21739130434783,NA,NA
54494,Wood County,WI,64.92753623188405,41.46919431279621,NA
54603,La Crosse County,WI,NA,16.350710900473935,NA
54656,Monroe County,WI,NA,NA,12.844036697247708
54660,Monroe County,WI,76.23188405797102,NA,NA
54665,Vernon County,WI,NA,49.28909952606635,NA
54730,Dunn County,WI,NA,96.91943127962085,NA
54963,Winnebago County,WI,98.26086956521739,NA,NA
