ZipCode,county,state,Adult,Retirement
35023,Jefferson County,AL,NA,21.808510638297875
35079,Blount County,AL,NA,86.17021276595744
35757,Madison County,AL,NA,83.51063829787235
36530,Baldwin County,AL,NA,91.48936170212765
85044,Maricopa County,AZ,20.74688796680498,NA
85086,Maricopa County,AZ,44.398340248962654,NA
85257,Maricopa County,AZ,70.95435684647303,NA
85335,Maricopa County,AZ,69.70954356846472,NA
85373,Maricopa County,AZ,NA,85.1063829787234
85382,Maricopa County,AZ,49.37759336099585,NA
85742,Pima County,AZ,53.52697095435685,NA
86005,Coconino County,AZ,53.11203319502075,NA
86327,Yavapai County,AZ,92.9460580912863,NA
71854,Miller County,AR,41.90871369294606,NA
90044,Los Angeles County,CA,32.780082987551864,NA
90047,Los Angeles County,CA,16.59751037344398,NA
90064,Los Angeles County,CA,NA,58.51063829787234
90280,Los Angeles County,CA,36.51452282157676,NA
90403,Los Angeles County,CA,97.9253112033195,NA
90623,Orange County,CA,94.6058091286307,NA
90731,Los Angeles County,CA,35.684647302904565,NA
90803,Los Angeles County,CA,77.59336099585063,NA
91206,Los Angeles County,CA,77.17842323651453,NA
91303,Los Angeles County,CA,85.89211618257261,NA
91342,Los Angeles County,CA,NA,19.680851063829788
91732,Los Angeles County,CA,45.643153526970956,NA
91744,Los Angeles County,CA,NA,35.1063829787234
91780,Los Angeles County,CA,NA,88.29787234042553
91950,San Diego County,CA,NA,43.08510638297872
92036,San Diego County,CA,NA,97.87234042553192
92040,San Diego County,CA,48.54771784232365,NA
92139,San Diego County,CA,NA,79.7872340425532
92220,Riverside County,CA,61.82572614107884,NA
92234,Riverside County,CA,NA,27.127659574468083
92345,San Bernardino County,CA,NA,55.85106382978723
92506,Riverside County,CA,75.93360995850622,NA
92562,Riverside County,CA,NA,42.02127659574468
92629,Orange County,CA,NA,47.87234042553192
92647,Orange County,CA,58.09128630705395,NA
93033,Ventura County,CA,NA,13.829787234042554
93420,San Luis Obispo County,CA,71.36929460580913,NA
93446,San Luis Obispo County,CA,NA,82.4468085106383
93535,Los Angeles County,CA,8.29875518672199,NA
93536,Los Angeles County,CA,NA,59.57446808510638
93654,Fresno County,CA,57.676348547717836,NA
93704,Fresno County,CA,54.77178423236515,NA
94117,San Francisco County,CA,41.078838174273855,NA
94121,San Francisco County,CA,NA,46.808510638297875
94513,Contra Costa County,CA,39.83402489626556,NA
94526,Contra Costa County,CA,NA,56.38297872340425
94549,Contra Costa County,CA,NA,68.08510638297872
94621,Alameda County,CA,NA,76.06382978723404
94706,Alameda County,CA,92.5311203319502,NA
95051,Santa Clara County,CA,NA,59.04255319148937
95133,Santa Clara County,CA,88.79668049792531,NA
95148,Santa Clara County,CA,89.21161825726142,NA
95340,Merced County,CA,40.66390041493776,NA
95341,Merced County,CA,NA,96.27659574468085
95348,Merced County,CA,88.38174273858921,NA
95476,Sonoma County,CA,75.10373443983403,NA
95540,Humboldt County,CA,NA,63.829787234042556
95953,Sutter County,CA,85.06224066390041,NA
95973,Butte County,CA,25.311203319502074,NA
96002,Shasta County,CA,60.16597510373444,NA
96003,Shasta County,CA,NA,32.97872340425532
80110,Arapahoe County,CO,68.87966804979253,NA
80113,Arapahoe County,CO,62.655601659751035,NA
80121,Arapahoe County,CO,93.7759336099585,NA
80234,Adams County,CO,65.14522821576763,NA
80303,Boulder County,CO,82.98755186721992,NA
81001,Pueblo County,CO,24.066390041493776,NA
06112,Hartford County,CT,18.25726141078838,NA
06450,New Haven County,CT,NA,16.48936170212766
06612,Fairfield County,CT,98.3402489626556,NA
06776,Litchfield County,CT,31.535269709543567,NA
06830,Fairfield County,CT,65.97510373443983,NA
06850,Fairfield County,CT,NA,44.680851063829785
19709,New Castle County,DE,23.236514522821576,NA
19966,Sussex County,DE,26.970954356846473,NA
32073,Clay County,FL,NA,38.297872340425535
32092,St. Johns County,FL,55.601659751037346,NA
32210,Duval County,FL,22.821576763485478,NA
32223,Duval County,FL,NA,42.5531914893617
32225,Duval County,FL,32.365145228215766,NA
32533,Escambia County,FL,33.19502074688796,NA
32535,Escambia County,FL,78.83817427385893,NA
32693,Gilchrist County,FL,90.45643153526972,NA
32803,Orange County,FL,97.0954356846473,NA
32927,Brevard County,FL,57.26141078838174,NA
33134,Miami-Dade County,FL,78.00829875518673,NA
33180,Miami-Dade County,FL,NA,52.12765957446809
33324,Broward County,FL,72.19917012448133,NA
33771,Pinellas County,FL,NA,76.59574468085107
33919,Lee County,FL,NA,20.212765957446805
34229,Sarasota County,FL,NA,90.95744680851064
34287,Sarasota County,FL,NA,39.361702127659576
34432,Marion County,FL,92.11618257261411,NA
34471,Marion County,FL,NA,54.78723404255319
34655,Pasco County,FL,NA,34.57446808510639
30028,Forsyth County,GA,NA,62.23404255319149
30092,Gwinnett County,GA,NA,73.40425531914893
30120,Bartow County,GA,22.40663900414938,NA
30189,Cherokee County,GA,56.84647302904564,NA
30260,Clayton County,GA,NA,71.80851063829788
31602,Lowndes County,GA,41.49377593360996,NA
31909,Muscogee County,GA,43.56846473029046,NA
83301,Twin Falls County,ID,NA,0.5319148936170213
83705,Ada County,ID,NA,23.404255319148938
60005,Cook County,IL,NA,46.27659574468085
60025,Cook County,IL,NA,7.9787234042553195
60073,Lake County,IL,NA,37.234042553191486
60091,Cook County,IL,74.27385892116183,29.25531914893617
60137,DuPage County,IL,39.41908713692946,NA
60440,Will County,IL,NA,20.74468085106383
60473,Cook County,IL,60.58091286307054,NA
60615,Cook County,IL,27.800829875518673,NA
60617,Cook County,IL,NA,3.723404255319149
60640,Cook County,IL,7.468879668049793,NA
60804,Cook County,IL,56.016597510373444,NA
60927,Iroquois County,IL,NA,98.93617021276596
61048,Stephenson County,IL,NA,97.3404255319149
61107,Winnebago County,IL,46.88796680497925,NA
61115,Winnebago County,IL,NA,37.765957446808514
61938,Coles County,IL,NA,45.744680851063826
62040,Madison County,IL,21.991701244813278,NA
46012,Madison County,IN,NA,28.191489361702125
46064,Madison County,IN,NA,64.36170212765957
46071,Boone County,IN,100,NA
46143,Johnson County,IN,NA,25.53191489361702
46208,Marion County,IN,70.53941908713693,NA
46237,Marion County,IN,NA,14.361702127659576
46307,Lake County,IN,2.0746887966804977,NA
46368,Porter County,IN,NA,1.5957446808510638
46816,Allen County,IN,33.60995850622407,NA
47129,Clark County,IN,NA,56.91489361702128
47143,Clark County,IN,NA,100
47150,Floyd County,IN,NA,11.170212765957446
47905,Tippecanoe County,IN,45.22821576763486,NA
50315,Polk County,IA,NA,33.51063829787234
50317,Polk County,IA,12.033195020746888,NA
52057,Delaware County,IA,NA,85.63829787234043
52404,Linn County,IA,7.053941908713693,NA
52405,Linn County,IA,42.738589211618255,NA
52556,Jefferson County,IA,NA,71.27659574468085
52722,Scott County,IA,NA,73.93617021276596
66002,Atchison County,KS,NA,70.2127659574468
66102,Wyandotte County,KS,NA,48.40425531914894
66606,Shawnee County,KS,NA,87.2340425531915
67212,Sedgwick County,KS,NA,61.702127659574465
67213,Sedgwick County,KS,65.56016597510373,NA
67460,McPherson County,KS,80.91286307053942,NA
67846,Finney County,KS,24.481327800829874,NA
40118,Jefferson County,KY,84.23236514522821,NA
40245,Jefferson County,KY,NA,47.340425531914896
40356,Jessamine County,KY,14.522821576763487,NA
40484,Lincoln County,KY,91.28630705394191,NA
40701,Whitley County,KY,NA,18.085106382978726
40769,Whitley County,KY,37.75933609958506,NA
40965,Bell County,KY,63.48547717842323,NA
41011,Kenton County,KY,NA,35.638297872340424
41179,Lewis County,KY,63.90041493775933,NA
41224,Martin County,KY,80.49792531120332,NA
41230,Lawrence County,KY,NA,51.06382978723404
41537,Letcher County,KY,90.04149377593362,NA
42420,Henderson County,KY,8.71369294605809,NA
70115,Orleans Parish,LA,NA,69.14893617021278
70517,St. Martin Parish,LA,76.76348547717843,NA
71302,Rapides Parish,LA,NA,65.95744680851064
03901,York County,ME,NA,86.70212765957447
20622,Charles County,MD,99.1701244813278,NA
20816,Montgomery County,MD,95.4356846473029,NA
20853,Montgomery County,MD,83.81742738589212,NA
21075,Howard County,MD,NA,88.82978723404256
21144,Anne Arundel County,MD,60.99585062240664,NA
21157,Carroll County,MD,52.69709543568465,NA
21502,Allegany County,MD,26.141078838174277,NA
21804,Wicomico County,MD,48.13278008298755,NA
01085,Hampden County,MA,1.2448132780082988,NA
01201,Berkshire County,MA,0,NA
01247,Berkshire County,MA,NA,11.702127659574469
01501,Worcester County,MA,38.17427385892116,NA
01540,Worcester County,MA,74.68879668049793,NA
01609,Worcester County,MA,3.319502074688797,NA
01801,Middlesex County,MA,23.651452282157674,NA
01841,Essex County,MA,83.40248962655602,NA
01915,Essex County,MA,1.6597510373443984,NA
01929,Essex County,MA,97.5103734439834,NA
02021,Norfolk County,MA,35.26970954356847,NA
02122,Suffolk County,MA,10.78838174273859,NA
02135,Suffolk County,MA,NA,13.297872340425531
02144,Middlesex County,MA,NA,14.893617021276595
02190,Norfolk County,MA,NA,98.40425531914893
02360,Plymouth County,MA,0.8298755186721992,NA
02723,Bristol County,MA,2.904564315352697,NA
02740,Bristol County,MA,NA,18.617021276595743
02780,Bristol County,MA,NA,22.340425531914892
48162,Monroe County,MI,12.863070539419086,NA
48187,Wayne County,MI,9.95850622406639,NA
48188,Wayne County,MI,NA,10.638297872340425
48205,Wayne County,MI,NA,21.27659574468085
48350,Oakland County,MI,NA,87.7659574468085
48381,Oakland County,MI,68.04979253112033,NA
48603,Saginaw County,MI,12.448132780082988,NA
49014,Calhoun County,MI,19.502074688796682,NA
49048,Kalamazoo County,MI,18.672199170124482,NA
49127,Berrien County,MI,NA,78.72340425531915
49507,Kent County,MI,4.979253112033195,NA
49684,Grand Traverse County,MI,NA,36.17021276595745
55305,Hennepin County,MN,NA,82.97872340425532
55371,Mille Lacs County,MN,54.356846473029044,NA
55947,Houston County,MN,NA,94.68085106382979
39073,Rankin County,MS,NA,68.08510638297872
39350,Neshoba County,MS,29.460580912863072,NA
63010,Jefferson County,MO,42.32365145228216,NA
63123,St. Louis County,MO,NA,19.148936170212767
63138,St. Louis County,MO,NA,55.319148936170215
64050,Jackson County,MO,15.767634854771783,NA
64057,Jackson County,MO,46.47302904564315,NA
64081,Jackson County,MO,47.71784232365145,NA
64111,Jackson County,MO,28.63070539419087,NA
64506,Buchanan County,MO,NA,9.574468085106384
65616,Taney County,MO,NA,77.12765957446808
68114,Douglas County,NE,79.25311203319502,NA
69101,Lincoln County,NE,NA,32.4468085106383
89129,Clark County,NV,48.96265560165975,NA
89403,Lyon County,NV,NA,45.21276595744681
89433,Washoe County,NV,43.15352697095436,NA
89506,Washoe County,NV,19.08713692946058,NA
89511,Washoe County,NV,65.97510373443983,NA
03087,Rockingham County,NH,NA,62.76595744680851
07036,Union County,NJ,NA,26.595744680851062
07047,Hudson County,NJ,26.556016597510375,NA
07063,Union County,NJ,NA,93.61702127659575
07401,Bergen County,NJ,95.850622406639,NA
07450,Bergen County,NJ,80.08298755186722,NA
07470,Passaic County,NJ,NA,4.787234042553192
07624,Bergen County,NJ,99.5850622406639,NA
07631,Bergen County,NJ,31.12033195020747,NA
07632,Bergen County,NJ,NA,96.80851063829788
07735,Monmouth County,NJ,82.15767634854771,NA
08030,Camden County,NJ,NA,67.02127659574468
08527,Ocean County,NJ,38.589211618257266,NA
08618,Mercer County,NJ,5.394190871369295,NA
08701,Ocean County,NJ,49.79253112033195,NA
08723,Ocean County,NJ,16.182572614107883,29.78723404255319
87110,Bernalillo County,NM,NA,12.23404255319149
87123,Bernalillo County,NM,13.278008298755188,NA
88203,Chaves County,NM,20.33195020746888,NA
10036,New York County,NY,NA,54.25531914893617
11204,Kings County,NY,30.70539419087137,NA
11236,Kings County,NY,4.149377593360995,NA
11416,Queens County,NY,50.62240663900415,NA
11417,Queens County,NY,52.282157676348554,NA
11570,Nassau County,NY,NA,65.42553191489363
11950,Suffolk County,NY,78.42323651452283,NA
11963,Suffolk County,NY,NA,95.2127659574468
11968,Suffolk County,NY,NA,92.02127659574468
12533,Dutchess County,NY,85.47717842323651,NA
13021,Cayuga County,NY,NA,2.127659574468085
13027,Onondaga County,NY,13.692946058091287,NA
13045,Cortland County,NY,NA,12.76595744680851
13066,Onondaga County,NY,NA,61.170212765957444
13203,Onondaga County,NY,19.91701244813278,NA
13440,Oneida County,NY,2.4896265560165975,NA
13669,St. Lawrence County,NY,NA,66.48936170212765
13790,Broome County,NY,7.883817427385892,NA
13815,Chenango County,NY,14.107883817427386,NA
13905,Broome County,NY,NA,6.914893617021277
14063,Chautauqua County,NY,44.81327800829876,NA
14227,Erie County,NY,NA,34.04255319148936
14485,Livingston County,NY,NA,95.74468085106383
14527,Yates County,NY,29.87551867219917,NA
14564,Ontario County,NY,NA,24.46808510638298
14618,Monroe County,NY,17.42738589211618,NA
14621,Monroe County,NY,NA,2.6595744680851063
14830,Steuben County,NY,25.72614107883817,NA
14850,Tompkins County,NY,4.564315352697095,NA
14886,Tompkins County,NY,NA,74.46808510638297
14891,Schuyler County,NY,76.34854771784232,NA
27405,Guilford County,NC,61.41078838174274,17.02127659574468
27511,Wake County,NC,NA,40.42553191489361
27605,Wake County,NC,98.7551867219917,NA
28025,Cabarrus County,NC,10.37344398340249,NA
28164,Gaston County,NC,NA,81.91489361702128
28227,Mecklenburg County,NC,21.16182572614108,NA
28311,Cumberland County,NC,27.385892116182575,NA
28345,Richmond County,NC,86.72199170124482,NA
28358,Robeson County,NC,17.012448132780083,NA
28425,Pender County,NC,NA,70.74468085106383
28451,Brunswick County,NC,31.950207468879665,NA
28574,Onslow County,NC,70.12448132780082,NA
28759,Henderson County,NC,93.3609958506224,NA
58501,Burleigh County,ND,55.18672199170125,NA
43016,Franklin County,OH,NA,63.297872340425535
43074,Delaware County,OH,81.74273858921161,NA
43212,Franklin County,OH,NA,93.08510638297872
43311,Logan County,OH,34.024896265560166,NA
43558,Fulton County,OH,58.50622406639005,NA
43917,Jefferson County,OH,95.0207468879668,NA
44060,Lake County,OH,NA,0
44077,Lake County,OH,NA,4.25531914893617
44090,Lorain County,OH,NA,49.46808510638298
44094,Lake County,OH,NA,5.851063829787234
44109,Cuyahoga County,OH,0.4149377593360996,1.0638297872340425
44312,Summit County,OH,15.352697095435685,NA
44833,Crawford County,OH,NA,26.063829787234045
45040,Warren County,OH,36.099585062240664,NA
45123,Highland County,OH,NA,72.3404255319149
45227,Hamilton County,OH,50.20746887966805,NA
73110,Oklahoma County,OK,NA,44.148936170212764
73521,Jackson County,OK,68.87966804979253,NA
74429,Wagoner County,OK,NA,80.85106382978722
97027,Clackamas County,OR,79.66804979253112,NA
97060,Multnomah County,OR,NA,52.659574468085104
97070,Clackamas County,OR,64.73029045643153,67.5531914893617
97123,Washington County,OR,21.57676348547718,NA
97205,Multnomah County,OR,86.30705394190872,NA
97217,Multnomah County,OR,75.51867219917013,NA
97230,Multnomah County,OR,58.921161825726145,NA
97502,Jackson County,OR,NA,28.723404255319153
15044,Allegheny County,PA,64.31535269709543,NA
15203,Allegheny County,PA,NA,78.19148936170212
15222,Allegheny County,PA,87.96680497925311,NA
17007,Cumberland County,PA,91.70124481327801,NA
17112,Dauphin County,PA,NA,8.51063829787234
17408,York County,PA,NA,99.46808510638297
18015,Northampton County,PA,6.639004149377594,NA
18017,Northampton County,PA,NA,5.319148936170213
18045,Northampton County,PA,NA,23.93617021276596
18103,Lehigh County,PA,NA,9.042553191489363
19008,Delaware County,PA,53.941908713692946,NA
19086,Delaware County,PA,89.62655601659752,NA
19142,Philadelphia County,PA,NA,48.93617021276596
19145,Philadelphia County,PA,NA,15.957446808510639
19147,Philadelphia County,PA,NA,36.702127659574465
19148,Philadelphia County,PA,67.21991701244814,NA
19406,Montgomery County,PA,47.30290456431535,NA
02886,Kent County,RI,36.92946058091287,NA
29464,Charleston County,SC,NA,31.382978723404253
29640,Pickens County,SC,NA,30.319148936170215
29708,York County,SC,NA,72.87234042553192
29801,Aiken County,SC,NA,53.72340425531915
37160,Bedford County,TN,NA,41.48936170212766
37615,Washington County,TN,62.24066390041494,NA
37642,Hawkins County,TN,51.867219917012456,NA
37807,Union County,TN,73.44398340248964,NA
37879,Claiborne County,TN,82.57261410788381,NA
38114,Shelby County,TN,24.896265560165975,NA
38116,Shelby County,TN,NA,39.8936170212766
75009,Collin County,TX,87.55186721991701,NA
75019,Dallas County,TX,NA,60.63829787234043
75020,Grayson County,TX,NA,43.61702127659575
75052,Dallas County,TX,NA,15.425531914893616
75069,Collin County,TX,50.62240663900415,NA
75115,Dallas County,TX,NA,27.659574468085108
75218,Dallas County,TX,NA,69.68085106382979
75244,Dallas County,TX,90.87136929460581,NA
75605,Gregg County,TX,56.43153526970954,NA
76082,Parker County,TX,NA,84.57446808510637
76248,Tarrant County,TX,NA,50
76548,Bell County,TX,NA,25
77429,Harris County,TX,NA,6.382978723404255
78006,Kendall County,TX,NA,64.8936170212766
78133,Comal County,TX,NA,78.72340425531915
78202,Bexar County,TX,NA,94.14893617021278
78245,Bexar County,TX,NA,56.91489361702128
78250,Bexar County,TX,46.058091286307054,NA
78516,Hidalgo County,TX,NA,57.97872340425532
78645,Travis County,TX,NA,75.53191489361703
78962,Colorado County,TX,NA,89.8936170212766
79109,Randall County,TX,NA,51.59574468085106
79606,Taylor County,TX,NA,59.57446808510638
79714,Andrews County,TX,59.33609958506224,NA
79763,Ector County,TX,40.24896265560166,NA
79932,El Paso County,TX,84.64730290456431,NA
84050,Morgan County,UT,NA,89.36170212765957
84120,Salt Lake County,UT,5.809128630705394,NA
20121,Fairfax County,VA,68.04979253112033,NA
22003,Fairfax County,VA,34.439834024896264,NA
22312,Fairfax County,VA,NA,75
22314,Alexandria city,VA,34.85477178423236,NA
22603,Frederick County,VA,NA,77.6595744680851
22932,Albemarle County,VA,87.13692946058092,NA
23451,Virginia Beach city,VA,NA,22.872340425531913
23607,Newport News city,VA,NA,50.53191489361703
24354,Smyth County,VA,43.983402489626556,NA
24401,Staunton city,VA,11.20331950207469,NA
98006,King County,WA,NA,38.82978723404255
98022,King County,WA,63.07053941908713,NA
98026,Snohomish County,WA,39.004149377593365,NA
98117,King County,WA,96.2655601659751,NA
98229,Whatcom County,WA,81.32780082987551,NA
98391,Pierce County,WA,14.937759336099585,NA
98405,Pierce County,WA,37.344398340248965,NA
98445,Pierce County,WA,51.45228215767634,NA
98579,Thurston County,WA,NA,84.04255319148936
98604,Clark County,WA,NA,80.31914893617021
98801,Chelan County,WA,NA,10.106382978723403
98908,Yakima County,WA,NA,17.5531914893617
99216,Spokane County,WA,66.80497925311202,NA
99224,Spokane County,WA,NA,81.38297872340425
99301,Franklin County,WA,9.54356846473029,NA
20011,District of Columbia,DC,6.224066390041494,NA
20019,District of Columbia,DC,3.7344398340248963,7.446808510638298
25306,Kanawha County,WV,73.85892116182573,NA
25951,Summers County,WV,73.02904564315352,NA
26003,Ohio County,WV,NA,3.1914893617021276
26104,Wood County,WV,NA,30.851063829787233
26241,Randolph County,WV,NA,31.914893617021278
26505,Monongalia County,WV,9.12863070539419,NA
26537,Preston County,WV,59.75103734439834,NA
53074,Ozaukee County,WI,72.61410788381743,NA
53144,Kenosha County,WI,17.842323651452283,NA
53208,Milwaukee County,WI,11.618257261410788,NA
53211,Milwaukee County,WI,67.63485477178423,NA
53548,Rock County,WI,28.21576763485477,NA
53813,Grant County,WI,94.1908713692946,NA
53950,Juneau County,WI,NA,92.02127659574468
54115,Brown County,WI,NA,40.95744680851064
54848,Rusk County,WI,NA,90.42553191489363
54853,Polk County,WI,96.6804979253112,NA
54901,Winnebago County,WI,30.29045643153527,NA
54956,Winnebago County,WI,29.045643153526974,NA
54981,Waupaca County,WI,NA,53.191489361702125
82716,Campbell County,WY,71.78423236514523,NA
