ZipCode,county,state,Adult,Retirement
35007,Shelby County,AL,53.73134328358209,NA
35020,Jefferson County,AL,45.77114427860697,NA
35442,Pickens County,AL,85.57213930348259,NA
35470,Sumter County,AL,96.14427860696517,NA
35475,Tuscaloosa County,AL,NA,52.49266862170088
35504,Walker County,AL,89.42786069651741,NA
35555,Fayette County,AL,67.41293532338308,NA
35816,Madison County,AL,NA,68.32844574780059
36032,Lowndes County,AL,99.12935323383084,NA
36037,Butler County,AL,59.32835820895522,NA
36105,Montgomery County,AL,NA,86.21700879765396
36274,Randolph County,AL,NA,85.63049853372434
36301,Houston County,AL,20.64676616915423,NA
36535,Baldwin County,AL,45.398009950248756,NA
36545,Clarke County,AL,89.30348258706468,NA
36575,Mobile County,AL,61.442786069651746,NA
36608,Mobile County,AL,45.8955223880597,NA
36693,Mobile County,AL,90.04975124378109,NA
36701,Dallas County,AL,29.228855721393032,NA
36744,Hale County,AL,NA,86.80351906158357
36832,Lee County,AL,78.23383084577115,NA
36854,Chambers County,AL,64.80099502487562,NA
99502,Anchorage Municipality,AK,54.60199004975125,NA
99518,Anchorage Municipality,AK,77.23880597014924,NA
99654,Matanuska-Susitna Borough,AK,37.43781094527363,NA
85016,Maricopa County,AZ,85.82089552238806,NA
85022,Maricopa County,AZ,NA,31.378299120234605
85132,Pinal County,AZ,39.42786069651741,NA
85139,Pinal County,AZ,55.72139303482587,NA
85209,Maricopa County,AZ,NA,28.445747800586513
85349,Yuma County,AZ,35.44776119402985,NA
85710,Pima County,AZ,NA,19.941348973607038
85719,Pima County,AZ,NA,41.935483870967744
85747,Pima County,AZ,73.75621890547264,NA
85901,Navajo County,AZ,NA,30.791788856304986
86004,Coconino County,AZ,30.34825870646766,NA
86005,Coconino County,AZ,53.10945273631841,NA
86033,Navajo County,AZ,65.29850746268657,NA
86305,Yavapai County,AZ,NA,37.82991202346041
86314,Yavapai County,AZ,NA,26.68621700879765
86322,Yavapai County,AZ,53.85572139303483,NA
86429,Mohave County,AZ,88.93034825870647,NA
71832,Sevier County,AR,NA,79.76539589442815
72076,Pulaski County,AR,52.363184079601986,NA
72103,Saline County,AR,NA,66.56891495601172
72143,White County,AR,82.96019900497512,NA
72315,Mississippi County,AR,55.09950248756219,NA
72404,Craighead County,AR,79.35323383084577,NA
72501,Independence County,AR,69.15422885572139,NA
72543,Cleburne County,AR,68.65671641791045,NA
72712,Benton County,AR,49.875621890547265,NA
72727,Washington County,AR,NA,92.37536656891496
72730,Washington County,AR,NA,95.30791788856305
72762,Washington County,AR,48.88059701492538,NA
72764,Washington County,AR,39.55223880597015,NA
72801,Pope County,AR,82.33830845771143,NA
90046,Los Angeles County,CA,NA,27.27272727272727
90240,Los Angeles County,CA,81.46766169154229,NA
90275,Los Angeles County,CA,60.447761194029844,NA
90603,Los Angeles County,CA,NA,57.18475073313783
90712,Los Angeles County,CA,NA,53.0791788856305
90713,Los Angeles County,CA,70.77114427860697,NA
90808,Los Angeles County,CA,59.82587064676616,NA
91205,Los Angeles County,CA,72.76119402985076,NA
91340,Los Angeles County,CA,66.7910447761194,NA
91360,Ventura County,CA,66.16915422885572,NA
91403,Los Angeles County,CA,80.72139303482587,NA
91706,Los Angeles County,CA,NA,84.75073313782991
91731,Los Angeles County,CA,38.308457711442784,NA
91754,Los Angeles County,CA,NA,60.117302052785924
91762,San Bernardino County,CA,35.82089552238806,NA
91770,Los Angeles County,CA,52.61194029850746,NA
91913,San Diego County,CA,90.29850746268657,NA
91932,San Diego County,CA,78.35820895522389,NA
92007,San Diego County,CA,90.79601990049751,NA
92025,San Diego County,CA,49.62686567164179,NA
92037,San Diego County,CA,NA,54.252199413489734
92108,San Diego County,CA,NA,92.66862170087975
92113,San Diego County,CA,26.741293532338307,NA
92117,San Diego County,CA,NA,58.94428152492669
92118,San Diego County,CA,NA,66.27565982404691
92124,San Diego County,CA,88.80597014925374,NA
92211,Riverside County,CA,71.8905472636816,NA
92243,Imperial County,CA,60.820895522388064,NA
92311,San Bernardino County,CA,71.76616915422885,NA
92336,San Bernardino County,CA,10.074626865671641,NA
92345,San Bernardino County,CA,NA,19.35483870967742
92346,San Bernardino County,CA,28.60696517412935,NA
92404,San Bernardino County,CA,50.24875621890548,NA
92407,San Bernardino County,CA,50.87064676616916,NA
92411,San Bernardino County,CA,92.03980099502488,NA
92504,Riverside County,CA,NA,58.06451612903226
92507,Riverside County,CA,43.90547263681592,NA
92509,Riverside County,CA,NA,40.469208211143695
92532,Riverside County,CA,NA,91.78885630498533
92553,Riverside County,CA,28.60696517412935,NA
92562,Riverside County,CA,NA,36.36363636363637
92612,Orange County,CA,74.87562189054727,NA
92625,Orange County,CA,92.66169154228857,NA
92629,Orange County,CA,NA,44.868035190615835
92648,Orange County,CA,30.472636815920396,NA
92660,Orange County,CA,NA,43.988269794721404
92675,Orange County,CA,NA,48.38709677419355
92694,Orange County,CA,91.04477611940298,74.7800586510264
92802,Orange County,CA,89.92537313432835,NA
92804,Orange County,CA,45.646766169154226,NA
92860,Riverside County,CA,75,NA
93021,Ventura County,CA,61.81592039800995,NA
93060,Ventura County,CA,NA,78.00586510263929
93065,Ventura County,CA,15.17412935323383,NA
93234,Fresno County,CA,96.51741293532339,NA
93274,Tulare County,CA,6.467661691542288,NA
93312,Kern County,CA,40.67164179104478,NA
93451,San Luis Obispo County,CA,99.37810945273633,NA
93611,Fresno County,CA,38.80597014925373,NA
93618,Tulare County,CA,55.84577114427861,NA
93625,Fresno County,CA,94.65174129353234,NA
93657,Fresno County,CA,58.95522388059702,NA
93662,Fresno County,CA,58.83084577114428,NA
93711,Fresno County,CA,NA,41.348973607038126
93940,Monterey County,CA,NA,31.671554252199414
94066,San Mateo County,CA,45.8955223880597,NA
94110,San Francisco County,CA,13.059701492537313,NA
94506,Contra Costa County,CA,NA,76.83284457478005
94526,Contra Costa County,CA,NA,51.31964809384164
94536,Alameda County,CA,33.582089552238806,NA
94560,Alameda County,CA,NA,49.56011730205279
94564,Contra Costa County,CA,NA,65.6891495601173
94565,Contra Costa County,CA,23.756218905472636,NA
94566,Alameda County,CA,64.92537313432835,NA
94588,Alameda County,CA,NA,73.90029325513197
94591,Solano County,CA,68.78109452736318,NA
94609,Alameda County,CA,86.06965174129353,NA
94804,Contra Costa County,CA,NA,77.41935483870968
95076,Santa Cruz County,CA,NA,20.821114369501466
95111,Santa Clara County,CA,NA,63.049853372434015
95112,Santa Clara County,CA,73.6318407960199,NA
95127,Santa Clara County,CA,43.53233830845771,NA
95128,Santa Clara County,CA,37.81094527363184,NA
95133,Santa Clara County,CA,NA,69.79472140762464
95136,Santa Clara County,CA,61.69154228855721,NA
95240,San Joaquin County,CA,NA,48.68035190615836
95324,Merced County,CA,95.1492537313433,NA
95472,Sonoma County,CA,82.71144278606965,NA
95482,Mendocino County,CA,38.43283582089552,NA
95490,Mendocino County,CA,76.7412935323383,NA
95501,Humboldt County,CA,54.850746268656714,37.5366568914956
95540,Humboldt County,CA,61.19402985074627,NA
95616,Yolo County,CA,92.53731343283582,NA
95628,Sacramento County,CA,64.6766169154229,NA
95650,Placer County,CA,90.54726368159204,NA
95691,Yolo County,CA,80.97014925373134,NA
95965,Butte County,CA,19.154228855721392,NA
96003,Shasta County,CA,NA,28.152492668621704
96041,Trinity County,CA,99.00497512437812,NA
80022,Adams County,CO,NA,42.81524926686217
80231,Denver County,CO,NA,60.997067448680355
80238,Denver County,CO,77.7363184079602,NA
80241,Adams County,CO,57.83582089552238,NA
80501,Boulder County,CO,23.00995024875622,NA
80524,Larimer County,CO,31.965174129353237,NA
80602,Adams County,CO,48.00995024875622,NA
80634,Weld County,CO,2.4875621890547266,NA
81401,Montrose County,CO,49.25373134328358,NA
06010,Hartford County,CT,NA,5.571847507331378
06040,Hartford County,CT,10.44776119402985,NA
06051,Hartford County,CT,3.6069651741293534,NA
06062,Hartford County,CT,NA,66.86217008797654
06114,Hartford County,CT,17.288557213930346,NA
06255,Windham County,CT,76.86567164179104,NA
06469,Middlesex County,CT,NA,99.70674486803519
06473,New Haven County,CT,72.636815920398,NA
06512,New Haven County,CT,NA,26.392961876832842
06513,New Haven County,CT,4.477611940298507,NA
06514,New Haven County,CT,36.19402985074627,NA
06516,New Haven County,CT,7.213930348258707,NA
06519,New Haven County,CT,25.74626865671642,NA
06525,New Haven County,CT,94.02985074626866,NA
19711,New Castle County,DE,NA,14.95601173020528
19720,New Castle County,DE,2.736318407960199,NA
19801,New Castle County,DE,40.298507462686565,NA
19808,New Castle County,DE,NA,25.806451612903224
19966,Sussex County,DE,26.368159203980102,NA
19975,Sussex County,DE,NA,58.65102639296188
32034,Nassau County,FL,NA,13.48973607038123
32073,Clay County,FL,26.119402985074625,NA
32148,Putnam County,FL,98.88059701492537,NA
32162,Sumter County,FL,NA,4.105571847507331
32163,Sumter County,FL,97.636815920398,37.24340175953079
32164,Flagler County,FL,70.1492537313433,NA
32205,Duval County,FL,NA,36.65689149560117
32207,Duval County,FL,52.11442786069652,NA
32216,Duval County,FL,NA,65.10263929618768
32217,Duval County,FL,74.50248756218906,NA
32218,Duval County,FL,NA,6.744868035190615
32408,Bay County,FL,75.62189054726367,NA
32507,Escambia County,FL,39.30348258706468,NA
32541,Okaloosa County,FL,69.65174129353234,NA
32607,Alachua County,FL,54.353233830845774,NA
32725,Volusia County,FL,36.940298507462686,NA
32771,Seminole County,FL,16.54228855721393,NA
32908,Brevard County,FL,92.16417910447761,NA
32922,Brevard County,FL,NA,68.91495601173021
33025,Broward County,FL,31.716417910447763,NA
33028,Broward County,FL,81.96517412935323,NA
33029,Broward County,FL,63.681592039801,NA
33030,Miami-Dade County,FL,46.14427860696517,NA
33037,Monroe County,FL,89.6766169154229,NA
33060,Broward County,FL,NA,55.13196480938416
33142,Miami-Dade County,FL,20.149253731343283,NA
33144,Miami-Dade County,FL,83.95522388059702,NA
33185,Miami-Dade County,FL,80.4726368159204,NA
33326,Broward County,FL,80.34825870646766,NA
33408,Palm Beach County,FL,NA,67.74193548387096
33413,Palm Beach County,FL,84.32835820895522,NA
33446,Palm Beach County,FL,NA,33.724340175953074
33458,Palm Beach County,FL,NA,27.859237536656888
33463,Palm Beach County,FL,50.87064676616916,NA
33487,Palm Beach County,FL,NA,46.04105571847507
33556,Hillsborough County,FL,76.11940298507463,NA
33767,Pinellas County,FL,NA,83.57771260997067
33880,Polk County,FL,25.497512437810943,NA
33905,Lee County,FL,NA,28.739002932551323
33907,Lee County,FL,49.50248756218906,NA
33912,Lee County,FL,NA,48.09384164222874
33919,Lee County,FL,NA,18.475073313782993
33993,Lee County,FL,51.741293532338304,NA
34207,Manatee County,FL,56.71641791044776,NA
34237,Sarasota County,FL,60.32338308457711,70.08797653958945
34239,Sarasota County,FL,80.84577114427861,NA
34266,DeSoto County,FL,37.6865671641791,50.733137829912025
34668,Pasco County,FL,12.437810945273633,24.633431085043988
34677,Pinellas County,FL,77.363184079602,NA
34683,Pinellas County,FL,86.56716417910447,NA
34747,Osceola County,FL,NA,59.530791788856305
34761,Orange County,FL,41.91542288557214,NA
34950,St. Lucie County,FL,NA,52.785923753665685
34953,St. Lucie County,FL,5.970149253731343,NA
34972,Okeechobee County,FL,62.06467661691543,NA
30013,Rockdale County,GA,NA,62.17008797653959
30016,Newton County,GA,NA,22.58064516129032
30032,DeKalb County,GA,12.810945273631841,NA
30039,Gwinnett County,GA,41.16915422885572,NA
30040,Forsyth County,GA,27.860696517412936,NA
30052,Walton County,GA,18.781094527363184,NA
30083,DeKalb County,GA,63.059701492537314,34.31085043988269
30088,DeKalb County,GA,42.16417910447761,NA
30101,Cobb County,GA,28.233830845771145,NA
30132,Paulding County,GA,34.82587064676617,NA
30135,Douglas County,GA,14.303482587064675,NA
30141,Paulding County,GA,71.26865671641791,NA
30214,Fayette County,GA,NA,43.10850439882698
30253,Henry County,GA,27.985074626865668,NA
30311,Fulton County,GA,15.671641791044777,NA
30316,DeKalb County,GA,55.59701492537313,NA
30324,Fulton County,GA,NA,94.42815249266863
30331,Fulton County,GA,18.407960199004975,NA
30340,DeKalb County,GA,83.83084577114428,NA
30442,Jenkins County,GA,79.60199004975125,NA
30577,Stephens County,GA,47.01492537313433,NA
30605,Clarke County,GA,57.711442786069654,NA
30606,Clarke County,GA,40.298507462686565,NA
30655,Walton County,GA,37.3134328358209,NA
30701,Gordon County,GA,NA,31.964809384164223
30705,Murray County,GA,NA,43.6950146627566
30741,Walker County,GA,22.01492537313433,NA
30742,Catoosa County,GA,80.09950248756219,NA
30909,Richmond County,GA,NA,82.69794721407625
31005,Houston County,GA,83.5820895522388,NA
31322,Chatham County,GA,81.8407960199005,NA
31415,Chatham County,GA,NA,87.3900293255132
31419,Chatham County,GA,NA,35.77712609970675
31558,Camden County,GA,88.05970149253731,NA
31707,Dougherty County,GA,NA,44.28152492668622
31792,Thomas County,GA,NA,36.070381231671554
39817,Decatur County,GA,66.66666666666666,NA
39840,Randolph County,GA,92.7860696517413,NA
96701,Honolulu County,HI,NA,56.89149560117303
96706,Honolulu County,HI,60.57213930348259,NA
96707,Honolulu County,HI,71.39303482587064,NA
96734,Honolulu County,HI,NA,15.835777126099707
96743,Hawaii County,HI,NA,69.20821114369502
96749,Hawaii County,HI,NA,74.19354838709677
96768,Maui County,HI,89.05472636815921,NA
96792,Honolulu County,HI,43.407960199004975,NA
96793,Maui County,HI,77.363184079602,NA
96797,Honolulu County,HI,NA,35.483870967741936
96815,Honolulu County,HI,50.74626865671642,NA
96816,Honolulu County,HI,NA,20.527859237536656
96819,Honolulu County,HI,16.417910447761194,NA
96822,Honolulu County,HI,42.28855721393035,NA
83221,Bingham County,ID,29.47761194029851,NA
83301,Twin Falls County,ID,NA,1.7595307917888565
83340,Blaine County,ID,NA,90.6158357771261
83440,Madison County,ID,74.25373134328358,NA
83455,Teton County,ID,95.02487562189054,NA
83815,Kootenai County,ID,71.51741293532339,NA
83858,Kootenai County,ID,NA,88.85630498533725
60004,Cook County,IL,60.820895522388064,NA
60061,Lake County,IL,67.66169154228857,NA
60076,Cook County,IL,46.64179104477612,NA
60077,Cook County,IL,62.68656716417911,NA
60090,Cook County,IL,NA,30.791788856304986
60102,McHenry County,IL,49.12935323383085,NA
60110,Kane County,IL,87.81094527363184,NA
60120,Kane County,IL,29.35323383084577,NA
60153,Cook County,IL,41.04477611940299,NA
60189,DuPage County,IL,NA,26.97947214076246
60194,Cook County,IL,91.4179104477612,NA
60418,Cook County,IL,96.64179104477611,NA
60432,Will County,IL,59.452736318407965,NA
60462,Cook County,IL,NA,9.970674486803519
60466,Cook County,IL,51.3681592039801,NA
60502,DuPage County,IL,NA,73.02052785923753
60505,Kane County,IL,32.960199004975124,NA
60516,DuPage County,IL,47.13930348258707,NA
60521,DuPage County,IL,74.37810945273633,NA
60543,Kendall County,IL,38.059701492537314,NA
60565,DuPage County,IL,32.58706467661692,22.87390029325513
60586,Will County,IL,46.517412935323385,NA
60612,Cook County,IL,20.771144278606965,NA
60617,Cook County,IL,7.08955223880597,NA
60619,Cook County,IL,6.592039800995026,NA
60620,Cook County,IL,NA,6.451612903225806
60622,Cook County,IL,38.681592039801,NA
60637,Cook County,IL,15.671641791044777,NA
60643,Cook County,IL,NA,7.038123167155426
60645,Cook County,IL,37.93532338308458,NA
60647,Cook County,IL,7.835820895522389,NA
60660,Cook County,IL,28.980099502487562,NA
61012,Boone County,IL,99.25373134328358,NA
61455,McDonough County,IL,85.69651741293532,NA
61938,Coles County,IL,47.2636815920398,NA
62002,Madison County,IL,NA,22.28739002932551
62056,Montgomery County,IL,86.94029850746269,NA
62095,Madison County,IL,83.33333333333334,NA
46001,Madison County,IN,NA,61.58357771260997
46011,Madison County,IN,52.23880597014925,NA
46017,Madison County,IN,77.363184079602,NA
46033,Hamilton County,IN,65.17412935323384,NA
46107,Marion County,IN,62.68656716417911,NA
46112,Hendricks County,IN,NA,50.43988269794721
46113,Marion County,IN,NA,74.48680351906158
46160,Brown County,IN,NA,94.72140762463343
46201,Marion County,IN,19.5273631840796,NA
46227,Marion County,IN,9.701492537313433,NA
46229,Marion County,IN,26.492537313432834,NA
46237,Marion County,IN,21.26865671641791,NA
46250,Marion County,IN,NA,65.10263929618768
46304,Porter County,IN,NA,21.114369501466275
46312,Lake County,IN,16.29353233830846,NA
46319,Lake County,IN,28.60696517412935,NA
46323,Lake County,IN,23.134328358208954,NA
46368,Porter County,IN,16.91542288557214,NA
46383,Porter County,IN,7.960199004975125,NA
46742,Steuben County,IN,98.50746268656717,NA
46750,Huntington County,IN,21.890547263681594,NA
46805,Allen County,IN,34.701492537313435,NA
46815,Allen County,IN,NA,41.05571847507331
46902,Howard County,IN,3.482587064676617,NA
46914,Miami County,IN,NA,98.82697947214076
47130,Clark County,IN,NA,32.84457478005865
47250,Jefferson County,IN,70.64676616915423,NA
47302,Delaware County,IN,19.65174129353234,NA
47331,Fayette County,IN,14.800995024875622,NA
47446,Lawrence County,IN,NA,71.26099706744868
50138,Marion County,IA,54.975124378109456,NA
50208,Jasper County,IA,59.20398009950249,NA
50265,Polk County,IA,41.54228855721393,NA
50401,Cerro Gordo County,IA,63.43283582089553,NA
51250,Sioux County,IA,NA,87.09677419354838
51503,Pottawattamie County,IA,8.706467661691542,NA
51546,Harrison County,IA,98.13432835820896,NA
52060,Jackson County,IA,86.81592039800995,NA
52241,Johnson County,IA,47.76119402985074,NA
52246,Johnson County,IA,NA,64.80938416422288
66046,Douglas County,KS,NA,84.4574780058651
66049,Douglas County,KS,NA,39.589442815249264
66086,Leavenworth County,KS,91.29353233830845,NA
66208,Johnson County,KS,NA,95.60117302052787
66713,Cherokee County,KS,94.40298507462687,NA
66762,Crawford County,KS,NA,53.3724340175953
67156,Cowley County,KS,77.98507462686567,NA
67337,Montgomery County,KS,NA,73.60703812316716
67544,Barton County,KS,99.87562189054727,NA
40004,Nelson County,KY,20.522388059701495,NA
40031,Oldham County,KY,34.32835820895522,NA
40210,Jefferson County,KY,NA,59.2375366568915
40336,Estill County,KY,56.09452736318408,NA
40351,Rowan County,KY,24.129353233830848,NA
40391,Clark County,KY,8.45771144278607,NA
40511,Fayette County,KY,40.92039800995025,NA
41010,Grant County,KY,NA,99.41348973607037
41042,Boone County,KY,5.845771144278607,NA
41240,Johnson County,KY,58.95522388059702,NA
41311,Lee County,KY,90.17412935323384,NA
41339,Breathitt County,KY,50,NA
41501,Pike County,KY,42.53731343283582,NA
42217,Christian County,KY,93.65671641791045,NA
42240,Christian County,KY,29.726368159203982,NA
42261,Butler County,KY,NA,88.56304985337243
42351,Hancock County,KY,91.16915422885572,NA
42420,Henderson County,KY,9.328358208955224,NA
42445,Caldwell County,KY,72.51243781094527,NA
42717,Cumberland County,KY,82.58706467661692,NA
70058,Jefferson Parish,LA,2.36318407960199,NA
70072,Jefferson Parish,LA,36.44278606965174,NA
70116,Orleans Parish,LA,NA,68.32844574780059
70501,Lafayette Parish,LA,1.9900497512437811,NA
70506,Lafayette Parish,LA,NA,20.234604105571847
70512,St. Landry Parish,LA,93.1592039800995,NA
70607,Calcasieu Parish,LA,45.27363184079602,NA
70611,Calcasieu Parish,LA,64.42786069651741,71.8475073313783
70777,East Feliciana Parish,LA,95.77114427860697,NA
70810,East Baton Rouge Parish,LA,8.208955223880597,NA
71068,Bienville Parish,LA,98.38308457711443,NA
71232,Richland Parish,LA,NA,71.5542521994135
71282,Madison Parish,LA,52.736318407960205,NA
04005,York County,ME,NA,9.3841642228739
04086,Sagadahoc County,ME,NA,82.99120234604106
04092,Cumberland County,ME,41.66666666666667,NA
04240,Androscoggin County,ME,1.7412935323383085,NA
04742,Aroostook County,ME,79.35323383084577,NA
20707,Prince George's County,MD,70.77114427860697,NA
20817,Montgomery County,MD,78.98009950248756,NA
20855,Montgomery County,MD,NA,89.44281524926686
21044,Howard County,MD,50.62189054726368,NA
21074,Carroll County,MD,NA,88.26979472140762
21206,Baltimore city,MD,12.064676616915424,NA
21216,Baltimore city,MD,36.81592039800995,NA
21220,Baltimore County,MD,19.029850746268657,NA
21236,Baltimore County,MD,40.79601990049751,NA
21632,Caroline County,MD,85.94527363184079,NA
21851,Worcester County,MD,NA,90.9090909090909
01002,Hampshire County,MA,NA,55.718475073313776
01085,Hampden County,MA,1.2437810945273633,NA
01201,Berkshire County,MA,NA,0.2932551319648094
01247,Berkshire County,MA,81.09452736318407,NA
01519,Worcester County,MA,95.8955223880597,NA
01536,Worcester County,MA,NA,82.40469208211144
01545,Worcester County,MA,17.537313432835823,NA
01550,Worcester County,MA,0.9950248756218906,NA
01568,Worcester County,MA,NA,94.13489736070382
01590,Worcester County,MA,NA,80.64516129032258
01834,Essex County,MA,NA,76.53958944281524
01835,Essex County,MA,33.95522388059701,NA
01876,Middlesex County,MA,6.8407960199004965,NA
01886,Middlesex County,MA,58.08457711442786,NA
01890,Middlesex County,MA,75.87064676616916,NA
01902,Essex County,MA,0.24875621890547264,NA
01938,Essex County,MA,48.383084577114424,NA
01944,Essex County,MA,94.90049751243781,NA
01960,Essex County,MA,6.343283582089552,NA
02035,Norfolk County,MA,34.57711442786069,NA
02072,Norfolk County,MA,NA,40.17595307917888
02090,Norfolk County,MA,NA,95.01466275659824
02116,Suffolk County,MA,NA,6.158357771260997
02124,Suffolk County,MA,NA,0
02145,Middlesex County,MA,4.975124378109453,NA
02149,Middlesex County,MA,0,NA
02170,Norfolk County,MA,32.83582089552239,NA
02184,Norfolk County,MA,NA,12.023460410557185
02301,Plymouth County,MA,0.6218905472636816,NA
02302,Plymouth County,MA,NA,3.812316715542522
02324,Plymouth County,MA,10.945273631840797,NA
02356,Bristol County,MA,NA,63.929618768328446
02359,Plymouth County,MA,31.343283582089555,NA
02446,Norfolk County,MA,21.51741293532338,NA
02451,Middlesex County,MA,NA,21.994134897360702
02465,Middlesex County,MA,56.09452736318408,NA
02472,Middlesex County,MA,NA,11.436950146627565
02492,Norfolk County,MA,29.1044776119403,NA
02494,Norfolk County,MA,NA,65.98240469208211
02554,Nantucket County,MA,NA,56.598240469208214
02645,Barnstable County,MA,87.31343283582089,NA
02673,Barnstable County,MA,NA,59.82404692082112
02717,Bristol County,MA,85.19900497512438,NA
02760,Bristol County,MA,11.194029850746269,NA
02769,Bristol County,MA,47.636815920398014,NA
02780,Bristol County,MA,0.3731343283582089,NA
48035,Macomb County,MI,58.70646766169154,NA
48036,Macomb County,MI,30.223880597014922,NA
48039,St. Clair County,MI,NA,93.54838709677419
48042,Macomb County,MI,57.2139303482587,NA
48047,Macomb County,MI,13.930348258706468,NA
48066,Macomb County,MI,3.233830845771144,NA
48084,Oakland County,MI,NA,78.2991202346041
48101,Wayne County,MI,25.12437810945274,32.55131964809384
48131,Monroe County,MI,93.40796019900498,NA
48168,Wayne County,MI,NA,42.52199413489736
48187,Wayne County,MI,NA,4.9853372434017595
48197,Washtenaw County,MI,2.2388059701492535,NA
48198,Washtenaw County,MI,NA,17.302052785923756
48221,Wayne County,MI,5.472636815920398,NA
48229,Wayne County,MI,NA,72.14076246334311
48230,Wayne County,MI,NA,39.002932551319645
48310,Macomb County,MI,15.92039800995025,NA
48312,Macomb County,MI,27.114427860696516,NA
48315,Macomb County,MI,42.78606965174129,NA
48317,Macomb County,MI,57.46268656716418,NA
48322,Oakland County,MI,44.02985074626866,NA
48323,Oakland County,MI,57.08955223880597,NA
48329,Oakland County,MI,NA,24.34017595307918
48334,Oakland County,MI,56.59203980099502,NA
48383,Oakland County,MI,73.13432835820896,NA
48430,Genesee County,MI,76.24378109452736,NA
48433,Genesee County,MI,NA,25.219941348973606
48439,Genesee County,MI,NA,19.64809384164223
48519,Genesee County,MI,85.44776119402985,NA
48634,Bay County,MI,NA,98.53372434017595
48640,Midland County,MI,9.950248756218906,NA
48706,Bay County,MI,7.462686567164178,NA
48708,Bay County,MI,7.711442786069651,NA
48730,Iosco County,MI,95.39800995024875,NA
48801,Gratiot County,MI,49.004975124378106,NA
48849,Ionia County,MI,NA,78.59237536656892
48858,Isabella County,MI,28.35820895522388,NA
48884,Montcalm County,MI,95.64676616915423,NA
48892,Ingham County,MI,92.91044776119402,NA
48912,Ingham County,MI,NA,68.03519061583577
49009,Kalamazoo County,MI,43.28358208955223,NA
49048,Kalamazoo County,MI,18.28358208955224,NA
49068,Calhoun County,MI,58.582089552238806,NA
49242,Hillsdale County,MI,48.756218905472636,NA
49286,Lenawee County,MI,NA,49.266862170087975
49329,Montcalm County,MI,59.950248756218905,NA
49441,Muskegon County,MI,NA,29.61876832844575
49507,Kent County,MI,5.223880597014925,NA
49508,Kent County,MI,6.0945273631840795,13.78299120234604
49548,Kent County,MI,7.338308457711443,NA
49659,Antrim County,MI,78.73134328358209,NA
49677,Osceola County,MI,NA,96.7741935483871
49684,Grand Traverse County,MI,58.2089552238806,NA
49721,Cheboygan County,MI,51.99004975124378,NA
49855,Marquette County,MI,NA,53.3724340175953
55021,Rice County,MN,39.17910447761194,NA
55045,Chisago County,MN,NA,75.366568914956
55082,Washington County,MN,87.56218905472637,NA
55343,Hennepin County,MN,45.52238805970149,NA
55411,Hennepin County,MN,17.66169154228856,NA
55423,Hennepin County,MN,22.139303482587064,NA
55433,Anoka County,MN,36.691542288557216,NA
55442,Hennepin County,MN,79.97512437810946,NA
55720,Carlton County,MN,NA,46.33431085043988
55981,Wabasha County,MN,NA,80.35190615835776
56087,Brown County,MN,NA,96.48093841642229
56470,Hubbard County,MN,70.27363184079603,NA
56701,Pennington County,MN,21.766169154228855,NA
38671,DeSoto County,MS,NA,57.77126099706745
39046,Madison County,MS,84.95024875621891,NA
39204,Hinds County,MS,25,NA
39218,Rankin County,MS,86.19402985074626,NA
39531,Harrison County,MS,74.12935323383084,NA
39553,Jackson County,MS,46.766169154228855,NA
39701,Lowndes County,MS,69.5273631840796,NA
39702,Lowndes County,MS,NA,51.90615835777126
63026,St. Louis County,MO,37.18905472636816,NA
63042,St. Louis County,MO,NA,42.22873900293255
63118,St. Louis city,MO,34.07960199004975,NA
63121,St. Louis County,MO,NA,51.02639296187683
63136,St. Louis County,MO,NA,14.076246334310852
64015,Jackson County,MO,13.432835820895523,NA
64030,Jackson County,MO,18.65671641791045,NA
64079,Platte County,MO,59.5771144278607,NA
64082,Jackson County,MO,73.38308457711443,NA
64112,Jackson County,MO,77.11442786069652,NA
64119,Clay County,MO,10.696517412935323,NA
64131,Jackson County,MO,14.676616915422885,NA
64133,Jackson County,MO,4.353233830845771,NA
64138,Jackson County,MO,11.442786069651742,NA
64154,Platte County,MO,75.3731343283582,NA
64503,Buchanan County,MO,NA,34.89736070381232
64506,Buchanan County,MO,53.35820895522389,NA
64836,Jasper County,MO,19.776119402985074,NA
65301,Pettis County,MO,3.9800995024875623,NA
65325,Benton County,MO,98.6318407960199,NA
65560,Dent County,MO,NA,53.95894428152492
65804,Greene County,MO,31.218905472636816,NA
59047,Park County,MT,78.60696517412936,NA
59833,Ravalli County,MT,NA,85.04398826979472
59923,Lincoln County,MT,64.55223880597015,NA
68111,Douglas County,NE,22.512437810945272,NA
68502,Lancaster County,NE,NA,72.72727272727273
68512,Lancaster County,NE,97.13930348258707,NA
68801,Hall County,NE,84.32835820895522,NA
89123,Clark County,NV,80.22388059701493,NA
89145,Clark County,NV,78.48258706467661,NA
89502,Washoe County,NV,22.263681592039802,NA
03033,Hillsborough County,NH,89.80099502487562,NA
03051,Hillsborough County,NH,24.875621890547265,NA
03062,Hillsborough County,NH,19.27860696517413,NA
03755,Grafton County,NH,97.38805970149254,NA
03766,Grafton County,NH,78.1094527363184,NA
07024,Bergen County,NJ,35.199004975124375,NA
07030,Hudson County,NJ,NA,80.93841642228739
07059,Somerset County,NJ,84.5771144278607,NA
07070,Bergen County,NJ,72.01492537313433,NA
07087,Hudson County,NJ,NA,9.67741935483871
07094,Hudson County,NJ,NA,79.47214076246334
07104,Essex County,NJ,NA,7.9178885630498534
07111,Essex County,NJ,0.7462686567164178,NA
07112,Essex County,NJ,3.3582089552238807,NA
07203,Union County,NJ,27.363184079601986,NA
07305,Hudson County,NJ,5.099502487562189,NA
07501,Passaic County,NJ,1.616915422885572,NA
07675,Bergen County,NJ,NA,50.146627565982406
07828,Morris County,NJ,NA,69.50146627565982
07860,Sussex County,NJ,NA,29.91202346041056
07869,Morris County,NJ,55.472636815920396,NA
07922,Union County,NJ,95.27363184079603,NA
07960,Morris County,NJ,20.8955223880597,NA
08034,Camden County,NJ,35.69651741293532,NA
08043,Camden County,NJ,NA,97.0674486803519
08051,Gloucester County,NJ,NA,90.02932551319648
08054,Burlington County,NJ,26.243781094527364,18.181818181818183
08059,Camden County,NJ,51.3681592039801,NA
08062,Gloucester County,NJ,38.18407960199005,NA
08080,Gloucester County,NJ,11.069651741293532,NA
08083,Camden County,NJ,44.527363184079604,NA
08085,Gloucester County,NJ,NA,51.90615835777126
08088,Burlington County,NJ,NA,30.205278592375368
08096,Gloucester County,NJ,4.850746268656716,NA
08230,Cape May County,NJ,NA,95.89442815249268
08318,Salem County,NJ,58.457711442786064,NA
08322,Gloucester County,NJ,81.71641791044776,NA
08330,Atlantic County,NJ,30.597014925373134,NA
08530,Hunterdon County,NJ,94.5273631840796,NA
08540,Mercer County,NJ,38.930348258706466,NA
08723,Ocean County,NJ,NA,25.513196480938415
08731,Ocean County,NJ,NA,49.853372434017594
08750,Monmouth County,NJ,NA,96.18768328445748
08822,Hunterdon County,NJ,82.2139303482587,NA
87102,Bernalillo County,NM,23.88059701492537,NA
87110,Bernalillo County,NM,11.940298507462686,NA
87114,Bernalillo County,NM,NA,19.06158357771261
87124,Sandoval County,NM,NA,12.609970674486803
87410,San Juan County,NM,67.7860696517413,NA
88012,Doa Ana County,NM,81.46766169154229,NA
10021,New York County,NY,90.67164179104478,NA
10034,New York County,NY,81.21890547263682,NA
10069,New York County,NY,99.6268656716418,NA
10457,Bronx County,NY,NA,1.1730205278592376
10460,Bronx County,NY,1.4925373134328357,NA
10462,Bronx County,NY,NA,8.211143695014663
10463,Bronx County,NY,32.21393034825871,NA
10466,Bronx County,NY,4.72636815920398,NA
10469,Bronx County,NY,3.109452736318408,NA
10473,Bronx County,NY,24.00497512437811,NA
10475,Bronx County,NY,NA,14.66275659824047
10520,Westchester County,NY,93.78109452736318,NA
10562,Westchester County,NY,NA,64.22287390029325
10567,Westchester County,NY,NA,81.81818181818183
10603,Westchester County,NY,NA,77.71260997067448
10804,Westchester County,NY,NA,89.14956011730204
10950,Orange County,NY,NA,93.25513196480938
10980,Rockland County,NY,95.8955223880597,NA
11102,Queens County,NY,48.258706467661696,NA
11207,Kings County,NY,0.4975124378109453,NA
11208,Kings County,NY,0.8706467661691543,2.6392961876832843
11210,Kings County,NY,NA,24.926686217008797
11229,Kings County,NY,28.48258706467662,NA
11235,Kings County,NY,42.66169154228855,NA
11236,Kings County,NY,4.104477611940299,NA
11368,Queens County,NY,51.61691542288557,NA
11375,Queens County,NY,NA,33.137829912023456
11377,Queens County,NY,50.124378109452735,NA
11428,Queens County,NY,66.4179104477612,NA
11553,Nassau County,NY,56.840796019900495,NA
11580,Nassau County,NY,61.318407960199,NA
11726,Suffolk County,NY,NA,85.63049853372434
12047,Albany County,NY,30.721393034825873,NA
12054,Albany County,NY,89.55223880597015,NA
12078,Fulton County,NY,4.601990049751244,NA
12095,Fulton County,NY,75.99502487562188,NA
12170,Saratoga County,NY,NA,92.96187683284457
12203,Albany County,NY,39.800995024875625,NA
12953,Franklin County,NY,51.243781094527364,NA
13045,Cortland County,NY,3.731343283582089,NA
13069,Oswego County,NY,NA,15.542521994134898
13077,Cortland County,NY,63.30845771144279,NA
13090,Onondaga County,NY,16.169154228855724,NA
13208,Onondaga County,NY,12.313432835820896,NA
13210,Onondaga County,NY,NA,70.08797653958945
13215,Onondaga County,NY,NA,54.83870967741935
13452,Montgomery County,NY,94.27860696517413,NA
13601,Jefferson County,NY,23.6318407960199,NA
13606,Jefferson County,NY,98.75621890547264,NA
13617,St. Lawrence County,NY,69.27860696517413,NA
13850,Broome County,NY,NA,7.331378299120235
14043,Erie County,NY,68.1592039800995,NA
14072,Erie County,NY,NA,38.12316715542522
14094,Niagara County,NY,NA,4.398826979472141
14103,Orleans County,NY,75.74626865671642,NA
14207,Erie County,NY,8.084577114427862,NA
14210,Erie County,NY,NA,46.62756598240469
14218,Erie County,NY,20.024875621890548,NA
14220,Erie County,NY,NA,29.32551319648094
14221,Erie County,NY,NA,4.9853372434017595
14222,Erie County,NY,57.58706467661692,NA
14224,Erie County,NY,5.721393034825871,NA
14420,Monroe County,NY,15.422885572139302,NA
14424,Ontario County,NY,NA,1.466275659824047
14425,Ontario County,NY,17.91044776119403,NA
14450,Monroe County,NY,34.950248756218905,2.346041055718475
14454,Livingston County,NY,74.75124378109453,83.28445747800586
14526,Monroe County,NY,14.925373134328357,NA
14534,Monroe County,NY,NA,3.519061583577713
14559,Monroe County,NY,10.820895522388058,NA
14580,Monroe County,NY,6.7164179104477615,0.5865102639296188
14589,Wayne County,NY,36.069651741293534,NA
14612,Monroe County,NY,1.8656716417910446,2.932551319648094
14615,Monroe County,NY,11.318407960199005,NA
14618,Monroe County,NY,16.666666666666664,NA
14619,Monroe County,NY,14.427860696517413,NA
14626,Monroe County,NY,18.034825870646767,NA
14701,Chautauqua County,NY,2.8606965174129355,NA
14770,Cattaraugus County,NY,88.43283582089553,97.65395894428153
14813,Allegany County,NY,89.17910447761194,NA
14850,Tompkins County,NY,44.90049751243781,NA
14883,Tioga County,NY,NA,91.20234604105572
14892,Tioga County,NY,88.18407960199005,NA
27055,Yadkin County,NC,66.91542288557214,NA
27207,Chatham County,NC,NA,100
27239,Davidson County,NC,70.77114427860697,NA
27284,Forsyth County,NC,NA,3.225806451612903
27295,Davidson County,NC,NA,5.865102639296188
27406,Guilford County,NC,NA,2.0527859237536656
27517,Orange County,NC,NA,30.498533724340177
27521,Harnett County,NC,91.66666666666666,NA
27612,Wake County,NC,83.70646766169155,NA
27614,Wake County,NC,NA,70.67448680351906
27616,Wake County,NC,23.258706467661693,NA
27707,Durham County,NC,12.686567164179104,NA
27909,Pasquotank County,NC,12.935323383084576,NA
28173,Union County,NC,40.049751243781095,NA
28214,Mecklenburg County,NC,NA,51.61290322580645
28306,Bladen County,NC,33.70646766169154,NA
28318,Sampson County,NC,91.66666666666666,NA
28337,Bladen County,NC,70.39800995024875,NA
28376,Hoke County,NC,31.716417910447763,NA
28412,New Hanover County,NC,NA,62.4633431085044
28461,Brunswick County,NC,NA,11.143695014662756
28546,Onslow County,NC,27.487562189054728,NA
28607,Watauga County,NC,NA,39.882697947214076
28613,Catawba County,NC,42.91044776119403,NA
28697,Wilkes County,NC,65.67164179104478,NA
28753,Madison County,NC,NA,79.17888563049853
28782,Polk County,NC,91.91542288557214,NA
28804,Buncombe County,NC,NA,75.366568914956
58103,Cass County,ND,6.965174129353234,4.69208211143695
58104,Cass County,ND,32.33830845771145,NA
58701,Ward County,ND,NA,12.316715542521994
58763,Mountrail County,ND,96.14427860696517,NA
43021,Delaware County,OH,88.55721393034825,NA
43050,Knox County,OH,NA,7.624633431085044
43064,Madison County,OH,81.34328358208955,NA
43138,Hocking County,OH,31.592039800995025,NA
43207,Franklin County,OH,1.3681592039800996,NA
43211,Franklin County,OH,10.572139303482588,NA
43420,Sandusky County,OH,10.323383084577115,NA
43512,Defiance County,OH,NA,8.797653958944283
43605,Lucas County,OH,15.298507462686567,NA
43607,Lucas County,OH,6.218905472636816,NA
43611,Lucas County,OH,14.17910447761194,NA
43613,Lucas County,OH,21.019900497512438,NA
43616,Lucas County,OH,13.184079601990051,NA
43701,Muskingum County,OH,NA,0.8797653958944283
43713,Belmont County,OH,62.189054726368155,NA
43912,Belmont County,OH,55.348258706467654,NA
43968,Columbiana County,OH,NA,63.63636363636363
44012,Lorain County,OH,35.57213930348259,NA
44035,Lorain County,OH,0.12437810945273632,NA
44044,Lorain County,OH,49.75124378109453,NA
44056,Summit County,OH,67.91044776119402,NA
44070,Cuyahoga County,OH,24.62686567164179,NA
44074,Lorain County,OH,79.22885572139303,NA
44077,Lake County,OH,37.06467661691542,NA
44095,Lake County,OH,NA,43.401759530791786
44104,Cuyahoga County,OH,4.228855721393035,NA
44110,Cuyahoga County,OH,9.45273631840796,NA
44122,Cuyahoga County,OH,NA,8.504398826979472
44216,Summit County,OH,NA,60.70381231671554
44256,Medina County,OH,3.8557213930348255,NA
44266,Portage County,OH,9.203980099502488,10.557184750733137
44301,Summit County,OH,NA,56.01173020527859
44312,Summit County,OH,14.55223880597015,NA
44413,Columbiana County,OH,75.24875621890547,NA
44432,Columbiana County,OH,66.54228855721394,NA
44460,Columbiana County,OH,22.761194029850746,NA
44471,Mahoning County,OH,NA,75.0733137829912
44646,Stark County,OH,NA,16.715542521994134
44705,Stark County,OH,NA,38.70967741935484
44707,Stark County,OH,61.56716417910447,NA
44709,Stark County,OH,42.41293532338308,NA
44805,Ashland County,OH,13.308457711442786,NA
44811,Sandusky County,OH,33.2089552238806,NA
44833,Crawford County,OH,NA,56.01173020527859
44842,Ashland County,OH,90.29850746268657,NA
44870,Erie County,OH,13.557213930348258,NA
44903,Richland County,OH,51.865671641791046,NA
45030,Hamilton County,OH,57.33830845771144,NA
45044,Butler County,OH,5.597014925373134,NA
45106,Clermont County,OH,50.87064676616916,NA
45122,Clermont County,OH,75.49751243781094,NA
45133,Highland County,OH,NA,23.16715542521994
45223,Hamilton County,OH,44.40298507462687,NA
45231,Hamilton County,OH,54.1044776119403,NA
45233,Hamilton County,OH,76.61691542288557,NA
45324,Greene County,OH,9.577114427860696,NA
45387,Greene County,OH,NA,70.96774193548387
45402,Montgomery County,OH,56.96517412935324,NA
45405,Montgomery County,OH,25.621890547263682,NA
45417,Montgomery County,OH,8.45771144278607,NA
45431,Montgomery County,OH,46.89054726368159,NA
45503,Clark County,OH,7.587064676616915,NA
45693,Adams County,OH,50.373134328358205,NA
45801,Allen County,OH,11.567164179104477,NA
45840,Hancock County,OH,2.6119402985074625,NA
73012,Oklahoma County,OK,49.37810945273632,NA
73013,Oklahoma County,OK,NA,13.196480938416421
73118,Oklahoma County,OK,90.92039800995025,NA
73129,Oklahoma County,OK,NA,76.24633431085044
73139,Oklahoma County,OK,56.46766169154229,NA
73160,Cleveland County,OK,12.56218905472637,NA
73644,Beckham County,OK,NA,61.29032258064516
74014,Wagoner County,OK,37.56218905472637,NA
74066,Creek County,OK,33.08457711442786,NA
74114,Tulsa County,OK,NA,63.34310850439883
74120,Tulsa County,OK,99.75124378109453,NA
74133,Tulsa County,OK,NA,23.75366568914956
74135,Tulsa County,OK,79.8507462686567,NA
74441,Cherokee County,OK,86.44278606965175,NA
74464,Cherokee County,OK,9.07960199004975,NA
74801,Pottawatomie County,OK,38.55721393034826,NA
74804,Pottawatomie County,OK,68.1592039800995,NA
74871,Pontotoc County,OK,NA,99.12023460410558
97060,Multnomah County,OR,NA,78.88563049853371
97089,Clackamas County,OR,82.08955223880598,NA
97113,Washington County,OR,74.00497512437812,NA
97123,Washington County,OR,22.63681592039801,NA
97132,Yamhill County,OR,40.17412935323383,NA
97206,Multnomah County,OR,13.805970149253731,NA
97217,Multnomah County,OR,43.03482587064676,NA
97230,Multnomah County,OR,24.75124378109453,17.888563049853374
97233,Multnomah County,OR,16.044776119402986,NA
97301,Marion County,OR,63.80597014925373,NA
97302,Marion County,OR,NA,47.80058651026393
97333,Benton County,OR,69.77611940298507,NA
97355,Linn County,OR,11.691542288557214,NA
97378,Yamhill County,OR,85.3233830845771,NA
97381,Marion County,OR,82.83582089552239,NA
97383,Marion County,OR,79.72636815920397,NA
97402,Lane County,OR,22.388059701492537,NA
97527,Josephine County,OR,46.26865671641791,NA
97603,Klamath County,OR,NA,10.263929618768328
97754,Crook County,OR,47.885572139303484,NA
97850,Union County,OR,41.29353233830846,NA
97913,Malheur County,OR,97.2636815920398,NA
15010,Beaver County,PA,NA,62.75659824046921
15017,Allegheny County,PA,73.00995024875621,NA
15061,Beaver County,PA,64.17910447761194,NA
15063,Washington County,PA,65.92039800995025,NA
15108,Allegheny County,PA,42.039800995024876,NA
15122,Allegheny County,PA,52.86069651741293,NA
15237,Allegheny County,PA,50.49751243781094,NA
15473,Fayette County,PA,97.88557213930348,NA
15767,Jefferson County,PA,29.850746268656714,NA
15905,Cambria County,PA,48.6318407960199,NA
16137,Mercer County,PA,72.13930348258707,NA
16406,Crawford County,PA,97.01492537313433,NA
16504,Erie County,PA,63.18407960199005,NA
16505,Erie County,PA,94.15422885572139,NA
16602,Blair County,PA,13.681592039800993,NA
17013,Cumberland County,PA,22.761194029850746,NA
17036,Dauphin County,PA,25.24875621890547,NA
17050,Cumberland County,PA,24.502487562189053,NA
17104,Dauphin County,PA,18.53233830845771,NA
17112,Dauphin County,PA,17.412935323383085,NA
17551,Lancaster County,PA,87.93532338308458,NA
17601,Lancaster County,PA,70.02487562189054,NA
17815,Columbia County,PA,16.791044776119403,NA
17837,Union County,PA,77.7363184079602,NA
17841,Mifflin County,PA,NA,97.94721407624634
17870,Snyder County,PA,NA,82.11143695014663
17961,Schuylkill County,PA,85.07462686567165,NA
18020,Northampton County,PA,44.65174129353234,NA
18109,Lehigh County,PA,27.611940298507463,NA
18201,Luzerne County,PA,21.26865671641791,NA
18324,Pike County,PA,75.12437810945273,NA
18444,Lackawanna County,PA,NA,73.31378299120234
18504,Lackawanna County,PA,31.965174129353237,46.9208211143695
18640,Luzerne County,PA,NA,34.60410557184751
18966,Bucks County,PA,17.039800995024876,NA
19006,Montgomery County,PA,NA,84.1642228739003
19007,Bucks County,PA,27.238805970149254,NA
19067,Bucks County,PA,19.402985074626866,NA
19078,Delaware County,PA,67.53731343283582,NA
19083,Delaware County,PA,63.557213930348254,NA
19094,Delaware County,PA,NA,98.24046920821115
19114,Philadelphia County,PA,52.98507462686567,23.46041055718475
19120,Philadelphia County,PA,2.9850746268656714,NA
19124,Philadelphia County,PA,1.1194029850746268,14.369501466275661
19133,Philadelphia County,PA,15.049751243781095,NA
19138,Philadelphia County,PA,43.656716417910445,NA
19140,Philadelphia County,PA,NA,12.903225806451612
19144,Philadelphia County,PA,NA,61.87683284457478
19150,Philadelphia County,PA,NA,27.56598240469208
19152,Philadelphia County,PA,20.273631840796018,NA
19335,Chester County,PA,NA,17.595307917888565
19401,Montgomery County,PA,8.83084577114428,NA
19403,Montgomery County,PA,71.14427860696517,NA
19422,Montgomery County,PA,53.85572139303483,NA
19460,Chester County,PA,25.37313432835821,NA
19464,Montgomery County,PA,5.348258706467662,NA
19506,Berks County,PA,84.20398009950249,NA
19526,Berks County,PA,73.50746268656717,NA
19606,Berks County,PA,NA,81.23167155425219
02809,Bristol County,RI,83.08457711442786,NA
02816,Kent County,RI,NA,18.7683284457478
02865,Providence County,RI,72.2636815920398,NA
02871,Newport County,RI,NA,41.64222873900293
02878,Newport County,RI,78.98009950248756,57.18475073313783
02895,Providence County,RI,12.189054726368159,NA
02906,Providence County,RI,NA,47.214076246334315
02911,Providence County,RI,69.90049751243781,NA
02914,Providence County,RI,NA,45.74780058651026
29059,Orangeburg County,SC,NA,89.73607038123167
29072,Lexington County,SC,28.109452736318406,NA
29307,Spartanburg County,SC,64.05472636815921,NA
29365,Spartanburg County,SC,NA,92.08211143695014
29410,Berkeley County,SC,76.49253731343283,NA
29414,Charleston County,SC,68.03482587064677,NA
29501,Florence County,SC,67.16417910447761,NA
29526,Horry County,SC,NA,15.249266862170089
29571,Marion County,SC,70.52238805970148,NA
29576,Horry County,SC,45.024875621890544,NA
29621,Anderson County,SC,NA,21.700879765395893
29640,Pickens County,SC,24.253731343283583,NA
29651,Greenville County,SC,23.258706467661693,NA
29673,Greenville County,SC,39.92537313432835,NA
57104,Minnehaha County,SD,31.094527363184078,NA
37032,Robertson County,TN,97.76119402985076,NA
37042,Montgomery County,TN,25.74626865671642,NA
37055,Dickson County,TN,25.99502487562189,NA
37090,Wilson County,TN,86.31840796019901,NA
37138,Davidson County,TN,NA,58.35777126099707
37148,Sumner County,TN,41.417910447761194,NA
37172,Robertson County,TN,NA,67.44868035190615
37204,Davidson County,TN,93.28358208955224,NA
37211,Davidson County,TN,21.641791044776117,NA
37415,Hamilton County,TN,60.19900497512438,NA
37660,Sullivan County,TN,8.333333333333332,NA
37701,Blount County,TN,72.76119402985076,NA
37757,Campbell County,TN,NA,77.12609970674487
37813,Hamblen County,TN,29.47761194029851,NA
37814,Hamblen County,TN,33.33333333333333,NA
37876,Sevier County,TN,35.07462686567165,NA
37886,Blount County,TN,86.94029850746269,NA
38372,Hardin County,TN,52.48756218905473,NA
38464,Lawrence County,TN,33.83084577114428,NA
75007,Denton County,TX,48.507462686567166,NA
75019,Dallas County,TX,55.84577114427861,NA
75021,Grayson County,TX,87.43781094527363,NA
75054,Tarrant County,TX,87.18905472636816,NA
75068,Denton County,TX,32.71144278606965,NA
75069,Collin County,TX,NA,35.19061583577713
75070,Collin County,TX,15.547263681592039,NA
75071,Collin County,TX,30.09950248756219,NA
75075,Collin County,TX,66.91542288557214,NA
75080,Dallas County,TX,60.07462686567165,NA
75143,Henderson County,TX,65.29850746268657,NA
75211,Dallas County,TX,NA,26.099706744868033
75232,Dallas County,TX,46.39303482587065,NA
75243,Dallas County,TX,14.054726368159203,NA
75766,Cherokee County,TX,35.82089552238806,NA
75904,Angelina County,TX,35.32338308457712,NA
75935,Shelby County,TX,NA,80.05865102639295
76001,Tarrant County,TX,56.09452736318408,NA
76016,Tarrant County,TX,68.90547263681593,NA
76023,Wise County,TX,93.90547263681593,NA
76123,Tarrant County,TX,48.134328358208954,NA
76133,Tarrant County,TX,20.398009950248756,NA
76164,Tarrant County,TX,73.2587064676617,NA
76234,Wise County,TX,NA,60.410557184750736
76642,Limestone County,TX,73.88059701492537,NA
76901,Tom Green County,TX,93.03482587064677,NA
77004,Harris County,TX,29.850746268656714,NA
77021,Harris County,TX,36.56716417910448,NA
77040,Harris County,TX,NA,32.25806451612903
77041,Harris County,TX,84.82587064676616,NA
77042,Harris County,TX,74.6268656716418,NA
77045,Harris County,TX,59.70149253731343,NA
77047,Harris County,TX,57.960199004975124,NA
77065,Harris County,TX,63.93034825870647,NA
77075,Harris County,TX,NA,87.68328445747801
77098,Harris County,TX,88.68159203980099,NA
77346,Harris County,TX,23.507462686567166,NA
77381,Montgomery County,TX,69.40298507462687,NA
77407,Fort Bend County,TX,80.59701492537313,NA
77418,Austin County,TX,87.68656716417911,NA
77429,Harris County,TX,11.81592039800995,NA
77449,Harris County,TX,NA,29.03225806451613
77450,Harris County,TX,NA,87.97653958944281
77459,Fort Bend County,TX,58.333333333333336,NA
77479,Fort Bend County,TX,31.467661691542286,NA
77494,Fort Bend County,TX,17.16417910447761,NA
77520,Harris County,TX,NA,90.32258064516128
77531,Brazoria County,TX,72.2636815920398,NA
77584,Brazoria County,TX,10.199004975124378,NA
77630,Orange County,TX,43.159203980099505,NA
77642,Jefferson County,TX,30.970149253731343,NA
77705,Jefferson County,TX,44.776119402985074,NA
77706,Jefferson County,TX,NA,36.950146627565985
77808,Brazos County,TX,84.70149253731343,NA
78224,Bexar County,TX,62.189054726368155,NA
78250,Bexar County,TX,44.15422885572139,NA
78258,Bexar County,TX,68.1592039800995,NA
78259,Bexar County,TX,NA,86.51026392961877
78572,Hidalgo County,TX,19.900497512437813,NA
78624,Gillespie County,TX,76.99004975124379,NA
78657,Llano County,TX,NA,64.51612903225806
78840,Val Verde County,TX,30.845771144278604,NA
79323,Yoakum County,TX,78.85572139303483,NA
79424,Lubbock County,TX,27.736318407960198,NA
79836,El Paso County,TX,97.51243781094527,NA
79838,El Paso County,TX,92.28855721393035,NA
79928,El Paso County,TX,NA,91.49560117302052
79932,El Paso County,TX,82.33830845771143,NA
79934,El Paso County,TX,93.53233830845771,NA
84020,Salt Lake County,UT,45.149253731343286,NA
84029,Tooele County,UT,61.06965174129353,NA
84042,Utah County,UT,NA,97.36070381231671
84050,Morgan County,UT,96.14427860696517,NA
84066,Duchesne County,UT,62.43781094527363,NA
84074,Tooele County,UT,40.547263681592035,NA
84095,Salt Lake County,UT,41.7910447761194,NA
84098,Summit County,UT,68.1592039800995,NA
84501,Carbon County,UT,65.29850746268657,NA
05452,Chittenden County,VT,NA,38.41642228739003
05641,Washington County,VT,34.452736318407965,NA
05701,Rutland County,VT,39.67661691542288,NA
20112,Prince William County,VA,91.54228855721394,NA
20148,Loudoun County,VA,83.08457711442786,NA
20171,Fairfax County,VA,53.233830845771145,NA
22015,Fairfax County,VA,54.72636815920397,NA
22150,Fairfax County,VA,NA,67.15542521994135
22192,Prince William County,VA,NA,44.57478005865102
22554,Stafford County,VA,NA,47.50733137829912
22601,Winchester city,VA,62.93532338308457,NA
22602,Frederick County,VA,54.47761194029851,NA
22645,Frederick County,VA,96.76616915422885,NA
22657,Shenandoah County,VA,54.22885572139303,NA
22801,Harrisonburg city,VA,44.27860696517413,NA
22902,Charlottesville city,VA,26.616915422885572,NA
22923,Greene County,VA,99.50248756218906,NA
22980,Waynesboro city,VA,8.955223880597014,NA
23075,Henrico County,VA,64.92537313432835,NA
23222,Richmond city,VA,17.786069651741293,NA
23229,Henrico County,VA,NA,45.16129032258064
23231,Henrico County,VA,NA,55.42521994134897
23502,Norfolk city,VA,NA,33.43108504398827
23663,Hampton city,VA,76.24378109452736,NA
23704,Portsmouth city,VA,NA,54.54545454545454
23970,Mecklenburg County,VA,NA,85.33724340175954
24012,Roanoke city,VA,NA,45.45454545454545
24017,Roanoke city,VA,26.990049751243784,NA
24078,Henry County,VA,84.07960199004975,NA
24202,Washington County,VA,68.90547263681593,NA
24426,Alleghany County,VA,47.51243781094527,NA
24504,Lynchburg city,VA,60.69651741293532,NA
24609,Tazewell County,VA,NA,81.52492668621701
98034,King County,WA,34.20398009950249,NA
98042,King County,WA,NA,16.422287390029325
98223,Snohomish County,WA,26.865671641791046,NA
98284,Skagit County,WA,53.482587064676615,NA
98362,Clallam County,WA,NA,11.730205278592376
98391,Pierce County,WA,65.92039800995025,NA
98408,Pierce County,WA,61.940298507462686,NA
98516,Thurston County,WA,NA,72.43401759530792
98520,Grays Harbor County,WA,64.30348258706468,NA
98611,Cowlitz County,WA,NA,75.95307917888563
98629,Clark County,WA,NA,93.841642228739
98632,Cowlitz County,WA,21.144278606965177,NA
98908,Yakima County,WA,39.0547263681592,17.008797653958943
98926,Kittitas County,WA,55.223880597014926,NA
98948,Yakima County,WA,88.30845771144278,NA
99025,Spokane County,WA,98.13432835820896,NA
99027,Spokane County,WA,96.8905472636816,NA
99037,Spokane County,WA,NA,83.87096774193549
99203,Spokane County,WA,83.45771144278606,NA
99344,Adams County,WA,92.41293532338308,NA
20009,District of Columbia,DC,32.46268656716418,NA
20019,District of Columbia,DC,NA,9.090909090909092
20020,District of Columbia,DC,2.1144278606965177,NA
25427,Berkeley County,WV,66.29353233830845,NA
26059,Ohio County,WV,100,NA
26201,Upshur County,WV,24.378109452736318,NA
26505,Monongalia County,WV,NA,10.850439882697946
53024,Ozaukee County,WI,65.79601990049751,NA
53045,Waukesha County,WI,NA,48.97360703812317
53089,Waukesha County,WI,67.28855721393035,NA
53094,Jefferson County,WI,43.78109452736319,NA
53110,Milwaukee County,WI,33.45771144278607,NA
53142,Kenosha County,WI,9.82587064676617,NA
53143,Kenosha County,WI,18.90547263681592,NA
53150,Waukesha County,WI,NA,40.76246334310851
53154,Milwaukee County,WI,NA,16.129032258064516
53209,Milwaukee County,WI,47.38805970149254,NA
53216,Milwaukee County,WI,NA,21.407624633431084
53219,Milwaukee County,WI,18.1592039800995,NA
53222,Milwaukee County,WI,NA,39.29618768328446
53530,Lafayette County,WI,95.52238805970148,NA
53965,Sauk County,WI,71.64179104477611,NA
54001,Polk County,WI,53.60696517412935,NA
54115,Brown County,WI,NA,34.01759530791789
54154,Oconto County,WI,86.69154228855722,NA
54729,Chippewa County,WI,NA,24.04692082111437
54829,Barron County,WI,94.77611940298507,NA
54915,Outagamie County,WI,36.19402985074627,NA
54940,Waupaca County,WI,98.00995024875621,NA
82007,Laramie County,WY,62.56218905472637,NA
