ZipCode,county,state,Adult,Retirement
35051,Shelby County,AL,NA,87.87061994609164
35173,Jefferson County,AL,49.32432432432432,NA
35214,Jefferson County,AL,29.864864864864867,43.93530997304582
35242,Shelby County,AL,NA,12.93800539083558
35594,Marion County,AL,93.17567567567568,NA
35633,Lauderdale County,AL,54.66216216216216,NA
35761,Madison County,AL,74.52702702702703,NA
35806,Madison County,AL,76.14864864864866,NA
35810,Madison County,AL,28.64864864864865,NA
35904,Etowah County,AL,43.648648648648646,NA
35950,Marshall County,AL,39.52702702702703,NA
35951,Marshall County,AL,64.72972972972974,NA
35967,DeKalb County,AL,64.52702702702703,NA
36043,Montgomery County,AL,98.51351351351352,NA
36093,Elmore County,AL,76.08108108108108,NA
36108,Montgomery County,AL,40.27027027027027,NA
36301,Houston County,AL,16.62162162162162,NA
36303,Houston County,AL,NA,44.474393530997304
36502,Escambia County,AL,42.7027027027027,NA
36567,Baldwin County,AL,62.972972972972975,NA
99504,Anchorage Municipality,AK,NA,46.900269541778975
99508,Anchorage Municipality,AK,NA,42.58760107816711
99611,Kenai Peninsula Borough,AK,70,NA
99615,Kodiak Island Borough,AK,NA,88.94878706199461
99669,Kenai Peninsula Borough,AK,72.02702702702702,NA
99701,Fairbanks North Star Borough,AK,32.83783783783784,NA
85007,Maricopa County,AZ,10.27027027027027,NA
85018,Maricopa County,AZ,32.567567567567565,NA
85022,Maricopa County,AZ,NA,32.34501347708895
85027,Maricopa County,AZ,39.7972972972973,NA
85032,Maricopa County,AZ,13.716216216216214,NA
85122,Pinal County,AZ,79.93243243243244,NA
85138,Pinal County,AZ,37.2972972972973,NA
85203,Maricopa County,AZ,NA,53.63881401617251
85206,Maricopa County,AZ,44.12162162162162,NA
85212,Maricopa County,AZ,NA,67.38544474393531
85234,Maricopa County,AZ,30.472972972972972,NA
85248,Maricopa County,AZ,57.0945945945946,NA
85254,Maricopa County,AZ,89.52702702702703,NA
85257,Maricopa County,AZ,67.36486486486486,NA
85298,Maricopa County,AZ,70.06756756756756,NA
85301,Maricopa County,AZ,3.8513513513513518,NA
85304,Maricopa County,AZ,89.25675675675676,NA
85306,Maricopa County,AZ,54.054054054054056,NA
85326,Maricopa County,AZ,26.68918918918919,NA
85345,Maricopa County,AZ,11.486486486486488,NA
85353,Maricopa County,AZ,65.27027027027027,NA
85364,Yuma County,AZ,34.32432432432432,NA
85367,Yuma County,AZ,82.56756756756756,NA
85614,Pima County,AZ,NA,59.56873315363881
85623,Pinal County,AZ,96.68918918918918,NA
85635,Cochise County,AZ,57.635135135135144,52.56064690026954
85648,Santa Cruz County,AZ,51.689189189189186,69.54177897574124
85705,Pima County,AZ,2.9054054054054057,NA
85712,Pima County,AZ,NA,49.32614555256065
85716,Pima County,AZ,15.608108108108107,NA
85719,Pima County,AZ,NA,43.126684636118604
85746,Pima County,AZ,NA,41.509433962264154
86001,Coconino County,AZ,NA,50.40431266846361
86004,Coconino County,AZ,60.33783783783784,NA
86045,Coconino County,AZ,22.2972972972973,NA
86326,Yavapai County,AZ,NA,23.180592991913745
86406,Mohave County,AZ,47.770270270270274,NA
86409,Mohave County,AZ,7.567567567567568,NA
71701,Ouachita County,AR,74.86486486486487,NA
71753,Columbia County,AR,86.89189189189189,NA
71913,Garland County,AR,NA,29.649595687331537
71923,Clark County,AR,81.95945945945947,NA
72012,White County,AR,84.45945945945947,NA
72401,Craighead County,AR,13.85135135135135,NA
72714,Benton County,AR,92.02702702702703,NA
72764,Washington County,AR,35.87837837837838,NA
90002,Los Angeles County,CA,98.37837837837839,NA
90007,Los Angeles County,CA,26.351351351351347,NA
90025,Los Angeles County,CA,82.5,NA
90028,Los Angeles County,CA,64.25675675675676,NA
90035,Los Angeles County,CA,NA,40.97035040431267
90041,Los Angeles County,CA,NA,81.6711590296496
90044,Los Angeles County,CA,6.216216216216217,NA
90046,Los Angeles County,CA,NA,24.528301886792452
90047,Los Angeles County,CA,14.324324324324325,NA
90049,Los Angeles County,CA,77.36486486486487,NA
90064,Los Angeles County,CA,NA,53.36927223719676
90065,Los Angeles County,CA,NA,39.62264150943396
90221,Los Angeles County,CA,9.797297297297296,NA
90241,Los Angeles County,CA,53.04054054054054,NA
90245,Los Angeles County,CA,85.13513513513513,NA
90247,Los Angeles County,CA,50.608108108108105,NA
90277,Los Angeles County,CA,52.567567567567565,NA
90278,Los Angeles County,CA,60.27027027027027,57.14285714285714
90403,Los Angeles County,CA,67.97297297297298,NA
90503,Los Angeles County,CA,48.91891891891892,NA
90603,Los Angeles County,CA,79.66216216216216,54.98652291105122
90703,Los Angeles County,CA,91.62162162162161,NA
90706,Los Angeles County,CA,22.22972972972973,NA
91207,Los Angeles County,CA,96.89189189189189,NA
91301,Los Angeles County,CA,73.91891891891892,NA
91326,Los Angeles County,CA,NA,56.334231805929925
91342,Los Angeles County,CA,18.04054054054054,NA
91344,Los Angeles County,CA,43.37837837837838,NA
91352,Los Angeles County,CA,NA,78.97574123989219
91381,Los Angeles County,CA,73.24324324324324,NA
91601,Los Angeles County,CA,66.75675675675676,NA
91706,Los Angeles County,CA,23.10810810810811,NA
91709,San Bernardino County,CA,32.027027027027025,NA
91711,Los Angeles County,CA,82.22972972972973,NA
91761,San Bernardino County,CA,21.756756756756758,NA
91765,Los Angeles County,CA,66.14864864864865,NA
91786,San Bernardino County,CA,29.93243243243243,NA
91910,San Diego County,CA,22.364864864864863,NA
91911,San Diego County,CA,55.945945945945944,NA
92011,San Diego County,CA,83.37837837837839,NA
92019,San Diego County,CA,44.5945945945946,NA
92020,San Diego County,CA,NA,9.164420485175203
92028,San Diego County,CA,63.24324324324324,NA
92057,San Diego County,CA,56.148648648648646,NA
92083,San Diego County,CA,61.891891891891895,NA
92104,San Diego County,CA,NA,74.66307277628033
92109,San Diego County,CA,69.72972972972973,NA
92111,San Diego County,CA,53.51351351351351,NA
92114,San Diego County,CA,79.45945945945945,NA
92120,San Diego County,CA,78.71621621621621,NA
92126,San Diego County,CA,43.108108108108105,NA
92127,San Diego County,CA,67.16216216216216,NA
92128,San Diego County,CA,72.9054054054054,NA
92129,San Diego County,CA,57.49999999999999,NA
92201,Riverside County,CA,21.216216216216218,NA
92203,Riverside County,CA,90.47297297297298,NA
92220,Riverside County,CA,58.108108108108105,NA
92223,Riverside County,CA,27.297297297297295,NA
92234,Riverside County,CA,13.04054054054054,NA
92251,Imperial County,CA,71.21621621621622,NA
92262,Riverside County,CA,19.18918918918919,NA
92313,San Bernardino County,CA,95,NA
92316,San Bernardino County,CA,79.05405405405406,NA
92335,San Bernardino County,CA,8.85135135135135,NA
92345,San Bernardino County,CA,9.391891891891891,NA
92346,San Bernardino County,CA,24.39189189189189,NA
92377,San Bernardino County,CA,NA,84.63611859838275
92399,San Bernardino County,CA,28.31081081081081,NA
92407,San Bernardino County,CA,48.10810810810811,NA
92410,San Bernardino County,CA,31.013513513513512,34.50134770889488
92503,Riverside County,CA,NA,22.371967654986523
92555,Riverside County,CA,59.05405405405405,NA
92571,Riverside County,CA,NA,85.98382749326146
92591,Riverside County,CA,47.22972972972973,NA
92595,Riverside County,CA,38.58108108108108,NA
92610,Orange County,CA,90.06756756756756,NA
92614,Orange County,CA,84.25675675675676,NA
92620,Orange County,CA,85.4054054054054,NA
92630,Orange County,CA,66.35135135135135,NA
92648,Orange County,CA,60.810810810810814,23.98921832884097
92672,Orange County,CA,NA,57.68194070080862
92683,Orange County,CA,NA,20.485175202156334
92703,Orange County,CA,NA,56.8733153638814
92704,Orange County,CA,80.13513513513514,NA
92708,Orange County,CA,34.12162162162162,NA
92780,Orange County,CA,NA,87.33153638814017
92801,Orange County,CA,66.41891891891892,NA
92831,Orange County,CA,80.2027027027027,NA
92835,Orange County,CA,NA,65.22911051212938
92844,Orange County,CA,70.8108108108108,NA
92868,Orange County,CA,64.25675675675676,NA
92870,Orange County,CA,NA,25.336927223719673
92887,Orange County,CA,73.04054054054055,NA
93010,Ventura County,CA,32.16216216216216,NA
93060,Ventura County,CA,34.66216216216216,NA
93101,Santa Barbara County,CA,NA,88.40970350404312
93234,Fresno County,CA,96.01351351351352,NA
93245,Kings County,CA,NA,74.12398921832884
93307,Kern County,CA,41.41891891891892,NA
93308,Kern County,CA,76.01351351351352,NA
93465,San Luis Obispo County,CA,NA,90.02695417789758
93536,Los Angeles County,CA,41.62162162162162,NA
93618,Tulare County,CA,53.10810810810811,NA
93625,Fresno County,CA,94.12162162162161,NA
93654,Fresno County,CA,52.9054054054054,NA
93702,Fresno County,CA,NA,38.274932614555254
93710,Fresno County,CA,61.95945945945947,NA
93720,Fresno County,CA,31.486486486486488,NA
93722,Fresno County,CA,8.108108108108109,15.902964959568733
93723,Fresno County,CA,96.48648648648648,NA
93901,Monterey County,CA,52.702702702702695,NA
93930,Monterey County,CA,NA,90.56603773584906
93940,Monterey County,CA,51.554054054054056,67.11590296495957
94019,San Mateo County,CA,81.62162162162161,NA
94063,San Mateo County,CA,41.21621621621622,NA
94080,San Mateo County,CA,80,NA
94107,San Francisco County,CA,85.67567567567568,NA
94109,San Francisco County,CA,61.013513513513516,NA
94134,San Francisco County,CA,36.891891891891895,NA
94520,Contra Costa County,CA,65.94594594594595,NA
94526,Contra Costa County,CA,NA,83.01886792452831
94546,Alameda County,CA,79.52702702702703,NA
94558,Napa County,CA,28.716216216216218,NA
94577,Alameda County,CA,34.45945945945946,NA
94621,Alameda County,CA,90.33783783783784,NA
94925,Marin County,CA,98.44594594594595,NA
94931,Sonoma County,CA,96.55405405405405,NA
94941,Marin County,CA,73.1081081081081,NA
95035,Santa Clara County,CA,48.445945945945944,NA
95051,Santa Clara County,CA,43.17567567567567,NA
95066,Santa Cruz County,CA,90.87837837837837,NA
95124,Santa Clara County,CA,57.83783783783784,NA
95205,San Joaquin County,CA,49.45945945945946,NA
95209,San Joaquin County,CA,75.54054054054053,NA
95240,San Joaquin County,CA,44.45945945945946,NA
95330,San Joaquin County,CA,80.74324324324324,NA
95354,Stanislaus County,CA,31.283783783783786,NA
95367,Stanislaus County,CA,53.648648648648646,NA
95376,San Joaquin County,CA,25.87837837837838,NA
95377,San Joaquin County,CA,68.04054054054053,NA
95401,Sonoma County,CA,NA,83.55795148247978
95437,Mendocino County,CA,NA,46.091644204851754
95482,Mendocino County,CA,69.25675675675676,NA
95490,Mendocino County,CA,NA,54.44743935309974
95628,Sacramento County,CA,NA,45.28301886792453
95631,Placer County,CA,98.85135135135134,NA
95648,Placer County,CA,60,NA
95655,Sacramento County,CA,99.39189189189189,NA
95682,El Dorado County,CA,82.9054054054054,NA
95694,Yolo County,CA,95.67567567567568,NA
95819,Sacramento County,CA,93.91891891891892,NA
95953,Sutter County,CA,82.0945945945946,NA
95973,Butte County,CA,NA,80.3234501347709
95991,Sutter County,CA,26.68918918918919,NA
95993,Sutter County,CA,NA,44.74393530997305
80015,Arapahoe County,CO,15.743243243243244,NA
80020,Broomfield County,CO,73.91891891891892,NA
80033,Jefferson County,CO,49.12162162162162,NA
80123,Jefferson County,CO,46.21621621621622,NA
80127,Jefferson County,CO,45.54054054054054,NA
80135,Douglas County,CO,99.72972972972973,NA
80138,Douglas County,CO,52.22972972972973,NA
80205,Denver County,CO,NA,37.735849056603776
80214,Jefferson County,CO,40,NA
80220,Denver County,CO,32.5,NA
80231,Denver County,CO,36.62162162162162,NA
80239,Denver County,CO,21.62162162162162,NA
80526,Larimer County,CO,NA,36.65768194070081
80631,Weld County,CO,30.87837837837838,NA
80759,Yuma County,CO,97.43243243243244,NA
80907,El Paso County,CO,52.43243243243243,NA
80909,El Paso County,CO,57.16216216216217,NA
80922,El Paso County,CO,NA,80.05390835579514
81004,Pueblo County,CO,58.24324324324325,68.46361185983828
81504,Mesa County,CO,28.513513513513512,NA
81650,Garfield County,CO,77.97297297297298,NA
06010,Hartford County,CT,1.6216216216216217,NA
06082,Hartford County,CT,NA,14.824797843665769
06096,Hartford County,CT,80.4054054054054,NA
06098,Litchfield County,CT,46.62162162162162,NA
06105,Hartford County,CT,19.45945945945946,NA
06106,Hartford County,CT,3.9189189189189193,13.746630727762804
06109,Hartford County,CT,63.44594594594595,NA
06112,Hartford County,CT,47.0945945945946,NA
06117,Hartford County,CT,89.79729729729729,NA
06226,Windham County,CT,14.864864864864865,NA
06450,New Haven County,CT,23.513513513513516,NA
06511,New Haven County,CT,3.783783783783784,NA
06512,New Haven County,CT,20.472972972972972,NA
06513,New Haven County,CT,3.3783783783783785,NA
06514,New Haven County,CT,32.7027027027027,NA
06515,New Haven County,CT,NA,75.74123989218329
06519,New Haven County,CT,21.013513513513512,47.97843665768194
06610,Fairfield County,CT,59.932432432432435,NA
06611,Fairfield County,CT,NA,66.84636118598382
06708,New Haven County,CT,20.2027027027027,NA
06790,Litchfield County,CT,4.9324324324324325,NA
06855,Fairfield County,CT,95,NA
19709,New Castle County,DE,NA,20.754716981132077
19810,New Castle County,DE,NA,42.318059299191376
19901,Kent County,DE,15.743243243243244,NA
19934,Kent County,DE,71.08108108108108,NA
19938,Kent County,DE,87.0945945945946,NA
19943,Kent County,DE,NA,73.58490566037736
19956,Sussex County,DE,75.94594594594595,NA
19960,Sussex County,DE,75.27027027027027,NA
19962,Kent County,DE,91.08108108108108,NA
19963,Sussex County,DE,32.63513513513514,NA
19966,Sussex County,DE,21.14864864864865,NA
32003,Clay County,FL,58.78378378378378,NA
32011,Nassau County,FL,59.5945945945946,NA
32034,Nassau County,FL,NA,43.39622641509434
32043,Clay County,FL,74.1891891891892,NA
32046,Nassau County,FL,78.85135135135135,NA
32066,Lafayette County,FL,96.41891891891892,NA
32092,St. Johns County,FL,51.14864864864865,NA
32141,Volusia County,FL,70.6081081081081,NA
32169,Volusia County,FL,NA,64.95956873315365
32205,Duval County,FL,24.256756756756754,71.69811320754717
32206,Duval County,FL,NA,62.8032345013477
32208,Duval County,FL,0.945945945945946,NA
32210,Duval County,FL,3.175675675675676,NA
32211,Duval County,FL,18.91891891891892,NA
32216,Duval County,FL,49.932432432432435,NA
32221,Duval County,FL,27.500000000000004,NA
32259,St. Johns County,FL,NA,42.04851752021563
32305,Leon County,FL,63.37837837837837,NA
32327,Wakulla County,FL,76.35135135135135,NA
32507,Escambia County,FL,35.67567567567568,NA
32526,Escambia County,FL,12.702702702702704,NA
32550,Walton County,FL,88.71621621621621,NA
32561,Santa Rosa County,FL,89.32432432432432,NA
32569,Okaloosa County,FL,88.98648648648648,NA
32603,Alachua County,FL,98.17567567567568,NA
32720,Volusia County,FL,58.04054054054054,NA
32726,Lake County,FL,51.82432432432432,NA
32738,Volusia County,FL,34.52702702702703,NA
32780,Brevard County,FL,38.17567567567568,NA
32792,Orange County,FL,59.66216216216216,NA
32822,Orange County,FL,17.2972972972973,NA
32825,Orange County,FL,29.7972972972973,NA
32828,Orange County,FL,NA,64.6900269541779
32907,Brevard County,FL,45.67567567567568,NA
32948,Indian River County,FL,93.51351351351352,NA
32967,Indian River County,FL,45.87837837837838,NA
33018,Miami-Dade County,FL,74.79729729729729,NA
33020,Broward County,FL,28.040540540540544,NA
33021,Broward County,FL,46.48648648648649,NA
33024,Broward County,FL,27.432432432432428,NA
33025,Broward County,FL,27.77027027027027,NA
33032,Miami-Dade County,FL,NA,70.88948787061994
33033,Miami-Dade County,FL,40.4054054054054,NA
33063,Broward County,FL,84.7972972972973,NA
33067,Broward County,FL,78.04054054054053,NA
33143,Miami-Dade County,FL,79.66216216216216,NA
33166,Miami-Dade County,FL,NA,56.06469002695418
33186,Miami-Dade County,FL,50,35.84905660377358
33196,Miami-Dade County,FL,64.93243243243244,89.21832884097036
33308,Broward County,FL,77.43243243243244,NA
33321,Broward County,FL,55.33783783783783,NA
33324,Broward County,FL,68.64864864864865,NA
33327,Broward County,FL,85.13513513513513,NA
33351,Broward County,FL,71.48648648648648,NA
33406,Palm Beach County,FL,76.6891891891892,NA
33408,Palm Beach County,FL,73.78378378378379,NA
33410,Palm Beach County,FL,49.86486486486486,NA
33415,Palm Beach County,FL,41.08108108108108,NA
33418,Palm Beach County,FL,53.51351351351351,NA
33433,Palm Beach County,FL,59.25675675675676,NA
33436,Palm Beach County,FL,55.4054054054054,NA
33441,Broward County,FL,55.00000000000001,NA
33446,Palm Beach County,FL,NA,35.04043126684636
33458,Palm Beach County,FL,NA,26.68463611859838
33462,Palm Beach County,FL,69.52702702702702,NA
33467,Palm Beach County,FL,56.21621621621622,27.762803234501348
33469,Palm Beach County,FL,97.02702702702702,NA
33487,Palm Beach County,FL,89.12162162162161,NA
33541,Pasco County,FL,NA,39.892183288409704
33542,Pasco County,FL,54.45945945945946,NA
33544,Pasco County,FL,81.01351351351352,58.760107816711596
33613,Hillsborough County,FL,72.36486486486487,52.83018867924528
33615,Hillsborough County,FL,26.14864864864865,NA
33618,Hillsborough County,FL,76.62162162162161,NA
33647,Hillsborough County,FL,50.54054054054053,NA
33805,Polk County,FL,37.5,NA
33834,Hardee County,FL,99.12162162162163,NA
33852,Highlands County,FL,NA,20.21563342318059
33870,Highlands County,FL,26.824324324324323,NA
33904,Lee County,FL,69.7972972972973,NA
33905,Lee County,FL,34.66216216216216,NA
33908,Lee County,FL,NA,6.738544474393531
33919,Lee County,FL,83.04054054054055,NA
33935,Hendry County,FL,NA,90.83557951482479
33947,Charlotte County,FL,92.29729729729729,NA
33981,Charlotte County,FL,91.8918918918919,NA
34116,Collier County,FL,46.89189189189189,NA
34120,Collier County,FL,68.3108108108108,NA
34232,Sarasota County,FL,45.33783783783784,NA
34234,Sarasota County,FL,38.24324324324324,NA
34285,Sarasota County,FL,88.24324324324324,NA
34428,Citrus County,FL,96.82432432432432,NA
34429,Citrus County,FL,92.0945945945946,NA
34472,Marion County,FL,35.54054054054054,NA
34473,Marion County,FL,47.5,NA
34609,Hernando County,FL,29.72972972972973,NA
34613,Hernando County,FL,90.74324324324324,NA
34653,Pasco County,FL,27.364864864864863,35.57951482479784
34695,Pinellas County,FL,NA,74.12398921832884
34711,Lake County,FL,NA,4.8517520215633425
34741,Osceola County,FL,20.945945945945947,NA
34743,Osceola County,FL,46.08108108108108,NA
34788,Lake County,FL,66.62162162162161,NA
34946,St. Lucie County,FL,80.27027027027027,NA
34947,St. Lucie County,FL,53.17567567567567,NA
34986,St. Lucie County,FL,77.02702702702703,27.22371967654987
30013,Rockdale County,GA,44.25675675675676,NA
30016,Newton County,GA,11.68918918918919,NA
30022,Fulton County,GA,38.04054054054054,NA
30034,DeKalb County,GA,NA,24.258760107816713
30040,Forsyth County,GA,23.716216216216214,NA
30052,Walton County,GA,16.08108108108108,NA
30060,Cobb County,GA,36.95945945945946,NA
30076,Fulton County,GA,85.27027027027026,NA
30078,Gwinnett County,GA,59.86486486486486,NA
30080,Cobb County,GA,51.891891891891895,NA
30094,Rockdale County,GA,45,NA
30101,Cobb County,GA,23.986486486486484,NA
30110,Haralson County,GA,64.25675675675676,NA
30120,Bartow County,GA,18.175675675675677,NA
30132,Paulding County,GA,NA,41.23989218328841
30153,Polk County,GA,39.93243243243243,NA
30161,Floyd County,GA,17.094594594594597,NA
30165,Floyd County,GA,22.77027027027027,NA
30180,Carroll County,GA,20.743243243243242,NA
30188,Cherokee County,GA,19.93243243243243,16.9811320754717
30230,Troup County,GA,75.87837837837837,NA
30240,Troup County,GA,23.31081081081081,NA
30252,Henry County,GA,37.027027027027025,NA
30253,Henry County,GA,23.91891891891892,NA
30297,Clayton County,GA,NA,80.59299191374663
30310,Fulton County,GA,NA,17.25067385444744
30324,Fulton County,GA,NA,94.60916442048517
30327,Fulton County,GA,93.85135135135135,NA
30342,Fulton County,GA,92.97297297297298,NA
30534,Dawson County,GA,40.81081081081081,NA
30546,Towns County,GA,86.95945945945947,72.77628032345014
30553,Franklin County,GA,89.05405405405405,NA
30559,Fannin County,GA,92.83783783783784,NA
30655,Walton County,GA,33.58108108108108,NA
30741,Walker County,GA,50.87837837837837,NA
30809,Columbia County,GA,34.054054054054056,NA
30815,Richmond County,GA,18.58108108108108,NA
30817,Lincoln County,GA,82.16216216216216,NA
30904,Richmond County,GA,NA,19.67654986522911
31210,Bibb County,GA,NA,86.79245283018868
31211,Bibb County,GA,71.48648648648648,NA
31217,Bibb County,GA,NA,52.2911051212938
31313,Liberty County,GA,64.66216216216216,NA
31326,Effingham County,GA,62.83783783783784,NA
31401,Chatham County,GA,65.94594594594595,NA
31558,Camden County,GA,87.9054054054054,NA
31602,Lowndes County,GA,35.67567567567568,NA
31750,Ben Hill County,GA,83.04054054054055,NA
31793,Tift County,GA,66.55405405405406,NA
31904,Muscogee County,GA,29.121621621621625,NA
31907,Muscogee County,GA,30.202702702702705,NA
96701,Honolulu County,HI,32.229729729729726,NA
96706,Honolulu County,HI,36.14864864864865,NA
96738,Hawaii County,HI,NA,93.53099730458221
96744,Honolulu County,HI,51.689189189189186,NA
96766,Kauai County,HI,69.5945945945946,NA
96782,Honolulu County,HI,34.5945945945946,NA
96797,Honolulu County,HI,7.22972972972973,NA
96815,Honolulu County,HI,47.9054054054054,NA
83201,Bannock County,ID,20.405405405405403,NA
83204,Bannock County,ID,80.47297297297298,NA
83221,Bingham County,ID,NA,55.525606469002696
83330,Gooding County,ID,88.3108108108108,NA
83341,Twin Falls County,ID,92.56756756756756,NA
83455,Teton County,ID,94.66216216216216,NA
83638,Valley County,ID,NA,78.4366576819407
83672,Washington County,ID,NA,81.94070080862534
83702,Ada County,ID,62.77027027027027,NA
83704,Ada County,ID,NA,25.60646900269542
83709,Ada County,ID,NA,5.121293800539084
83714,Ada County,ID,NA,82.74932614555256
83854,Kootenai County,ID,65.06756756756756,NA
83858,Kootenai County,ID,92.22972972972973,NA
60008,Cook County,IL,68.17567567567568,NA
60010,Lake County,IL,37.0945945945946,NA
60013,McHenry County,IL,82.36486486486486,NA
60015,Lake County,IL,59.45945945945946,NA
60021,McHenry County,IL,96.95945945945947,NA
60025,Cook County,IL,41.82432432432432,NA
60030,Lake County,IL,41.486486486486484,NA
60033,McHenry County,IL,70.13513513513514,NA
60045,Lake County,IL,NA,62.53369272237197
60050,McHenry County,IL,94.93243243243244,NA
60061,Lake County,IL,64.5945945945946,NA
60076,Cook County,IL,42.9054054054054,NA
60081,McHenry County,IL,NA,92.45283018867924
60085,Lake County,IL,67.22972972972973,NA
60091,Cook County,IL,70.27027027027027,NA
60099,Lake County,IL,39.12162162162162,NA
60104,Cook County,IL,71.35135135135135,NA
60106,DuPage County,IL,62.16216216216216,NA
60126,DuPage County,IL,9.256756756756756,NA
60134,Kane County,IL,85.87837837837839,NA
60142,McHenry County,IL,40.67567567567568,NA
60154,Cook County,IL,51.01351351351351,NA
60164,Cook County,IL,37.972972972972975,NA
60175,Kane County,IL,25.743243243243242,NA
60177,Kane County,IL,58.108108108108105,NA
60304,Cook County,IL,56.95945945945946,NA
60404,Will County,IL,73.51351351351352,NA
60410,Will County,IL,47.7027027027027,NA
60417,Will County,IL,62.56756756756757,NA
60431,Will County,IL,38.513513513513516,NA
60435,Will County,IL,9.72972972972973,NA
60440,Will County,IL,17.7027027027027,NA
60448,Will County,IL,54.59459459459459,NA
60449,Will County,IL,93.44594594594594,NA
60450,Grundy County,IL,21.824324324324323,NA
60451,Will County,IL,17.635135135135137,NA
60455,Cook County,IL,77.22972972972974,NA
60462,Cook County,IL,23.986486486486484,NA
60465,Cook County,IL,77.22972972972974,NA
60472,Cook County,IL,94.66216216216216,NA
60487,Cook County,IL,54.932432432432435,NA
60517,DuPage County,IL,NA,36.38814016172507
60523,DuPage County,IL,83.91891891891892,NA
60525,Cook County,IL,20.87837837837838,NA
60540,DuPage County,IL,NA,67.65498652291106
60545,Kendall County,IL,67.43243243243244,NA
60563,DuPage County,IL,44.054054054054056,NA
60586,Will County,IL,13.513513513513514,NA
60608,Cook County,IL,NA,14.555256064690028
60634,Cook County,IL,9.662162162162161,NA
60638,Cook County,IL,8.716216216216216,NA
60640,Cook County,IL,7.837837837837839,NA
60641,Cook County,IL,61.75675675675676,NA
60642,Cook County,IL,77.77027027027027,NA
60643,Cook County,IL,7.77027027027027,NA
60647,Cook County,IL,6.621621621621622,NA
60651,Cook County,IL,7.4324324324324325,NA
60655,Cook County,IL,27.094594594594597,NA
60707,Cook County,IL,51.554054054054056,NA
60714,Cook County,IL,90.54054054054053,NA
60804,Cook County,IL,17.56756756756757,14.016172506738545
60914,Kankakee County,IL,31.62162162162162,NA
61088,Winnebago County,IL,NA,92.72237196765498
61109,Winnebago County,IL,43.71621621621621,NA
61111,Winnebago County,IL,NA,55.79514824797843
61115,Winnebago County,IL,NA,32.075471698113205
61201,Rock Island County,IL,36.01351351351351,NA
61354,LaSalle County,IL,53.851351351351354,NA
61701,McLean County,IL,29.662162162162165,NA
61727,De Witt County,IL,NA,76.54986522911051
61761,McLean County,IL,71.01351351351352,NA
61866,Champaign County,IL,39.86486486486486,NA
62002,Madison County,IL,NA,19.946091644204852
62010,Madison County,IL,NA,71.96765498652292
62220,St. Clair County,IL,NA,75.2021563342318
62226,St. Clair County,IL,NA,65.76819407008087
62401,Effingham County,IL,63.71621621621622,NA
62521,Macon County,IL,11.554054054054054,NA
62522,Macon County,IL,55.067567567567565,NA
62901,Jackson County,IL,NA,83.28840970350404
62906,Union County,IL,94.5945945945946,NA
46013,Madison County,IN,32.0945945945946,NA
46016,Madison County,IN,NA,33.9622641509434
46032,Hamilton County,IN,75.60810810810811,NA
46036,Madison County,IN,60.47297297297297,NA
46038,Hamilton County,IN,NA,55.25606469002695
46062,Hamilton County,IN,59.527027027027025,NA
46140,Hancock County,IN,27.16216216216216,NA
46202,Marion County,IN,61.55405405405405,NA
46222,Marion County,IN,17.7027027027027,NA
46229,Marion County,IN,21.283783783783782,NA
46240,Marion County,IN,NA,77.35849056603774
46254,Marion County,IN,20.06756756756757,NA
46303,Lake County,IN,43.986486486486484,45.82210242587601
46321,Lake County,IN,NA,17.52021563342318
46327,Lake County,IN,91.95945945945945,NA
46360,LaPorte County,IN,4.662162162162162,NA
46368,Porter County,IN,15.135135135135137,NA
46373,Lake County,IN,27.905405405405403,NA
46383,Porter County,IN,6.689189189189189,NA
46385,Porter County,IN,27.972972972972972,NA
46410,Lake County,IN,6.148648648648649,NA
46501,Marshall County,IN,96.35135135135135,NA
46517,Elkhart County,IN,47.83783783783784,NA
46528,Elkhart County,IN,74.45945945945947,NA
46544,St. Joseph County,IN,47.02702702702703,NA
46725,Whitley County,IN,28.10810810810811,NA
46737,Steuben County,IN,78.85135135135135,NA
46767,Noble County,IN,89.12162162162161,NA
46795,LaGrange County,IN,91.82432432432432,NA
46802,Allen County,IN,80.60810810810811,NA
46804,Allen County,IN,NA,28.03234501347709
46805,Allen County,IN,30.945945945945947,NA
46808,Allen County,IN,30.33783783783784,NA
46979,Howard County,IN,84.7972972972973,NA
46992,Wabash County,IN,NA,46.63072776280324
47006,Ripley County,IN,71.95945945945947,NA
47111,Clark County,IN,55.2027027027027,NA
47150,Floyd County,IN,10,NA
47201,Bartholomew County,IN,10.945945945945947,NA
47203,Bartholomew County,IN,33.04054054054054,NA
47374,Wayne County,IN,NA,28.57142857142857
47501,Daviess County,IN,35.2027027027027,NA
47630,Warrick County,IN,73.58108108108108,NA
47670,Gibson County,IN,77.56756756756756,NA
50171,Poweshiek County,IA,99.32432432432432,NA
50315,Polk County,IA,7.635135135135135,NA
50588,Buena Vista County,IA,72.0945945945946,NA
50701,Black Hawk County,IA,31.756756756756754,NA
51105,Woodbury County,IA,67.9054054054054,NA
51301,Clay County,IA,51.486486486486484,NA
51334,Emmet County,IA,65.87837837837837,NA
51501,Pottawattamie County,IA,2.635135135135135,NA
51640,Fremont County,IA,98.17567567567568,NA
52001,Dubuque County,IA,14.054054054054054,NA
52240,Johnson County,IA,19.12162162162162,NA
52317,Johnson County,IA,50.810810810810814,NA
52353,Washington County,IA,79.1891891891892,NA
52402,Linn County,IA,17.16216216216216,NA
52404,Linn County,IA,31.41891891891892,NA
52501,Wapello County,IA,12.77027027027027,NA
52577,Mahaska County,IA,82.43243243243244,NA
52627,Lee County,IA,42.770270270270274,NA
52753,Scott County,IA,95.47297297297297,NA
52804,Scott County,IA,14.932432432432433,NA
66002,Atchison County,KS,74.5945945945946,NA
66061,Johnson County,KS,17.43243243243243,NA
66062,Johnson County,KS,9.932432432432432,NA
66106,Wyandotte County,KS,45.33783783783784,NA
66203,Johnson County,KS,80.8108108108108,NA
66215,Johnson County,KS,73.44594594594595,NA
66414,Osage County,KS,NA,99.73045822102425
66605,Shawnee County,KS,49.25675675675676,NA
66713,Cherokee County,KS,93.51351351351352,NA
67010,Butler County,KS,75.4054054054054,NA
67114,Harvey County,KS,NA,63.881401617250674
67147,Sedgwick County,KS,92.29729729729729,NA
67216,Sedgwick County,KS,74.32432432432432,NA
67801,Ford County,KS,NA,64.42048517520216
40059,Jefferson County,KY,78.37837837837837,NA
40205,Jefferson County,KY,81.21621621621622,NA
40218,Jefferson County,KY,12.162162162162163,NA
40245,Jefferson County,KY,47.63513513513514,NA
40336,Estill County,KY,53.310810810810814,NA
40351,Rowan County,KY,53.918918918918926,NA
40353,Montgomery County,KY,19.527027027027028,NA
40356,Jessamine County,KY,42.22972972972973,NA
40360,Bath County,KY,63.64864864864865,NA
40444,Garrard County,KY,58.98648648648649,NA
40484,Lincoln County,KY,NA,61.45552560646901
40701,Whitley County,KY,10.202702702702702,NA
40769,Whitley County,KY,31.95945945945946,NA
40828,Harlan County,KY,93.37837837837839,NA
40965,Bell County,KY,24.18918918918919,NA
41018,Kenton County,KY,22.432432432432435,NA
41076,Campbell County,KY,NA,91.10512129380054
41164,Carter County,KY,31.689189189189186,NA
41175,Greenup County,KY,NA,94.87870619946092
41179,Lewis County,KY,60.47297297297297,NA
41311,Lee County,KY,89.93243243243244,NA
42003,McCracken County,KY,13.445945945945944,NA
42071,Calloway County,KY,39.189189189189186,NA
42101,Warren County,KY,5.878378378378379,NA
42104,Warren County,KY,40.67567567567568,NA
42141,Barren County,KY,79.5945945945946,NA
42301,Daviess County,KY,33.108108108108105,NA
42345,Muhlenberg County,KY,81.41891891891892,NA
42445,Caldwell County,KY,69.1891891891892,NA
42503,Pulaski County,KY,41.68918918918919,NA
70001,Jefferson Parish,LA,NA,45.01347708894879
70002,Jefferson Parish,LA,44.7972972972973,NA
70043,St. Bernard Parish,LA,95.33783783783784,NA
70065,Jefferson Parish,LA,18.85135135135135,NA
70114,Orleans Parish,LA,34.7972972972973,NA
70117,Orleans Parish,LA,NA,18.598382749326145
70128,Orleans Parish,LA,NA,69.81132075471697
70426,Washington Parish,LA,61.95945945945947,NA
70454,Tangipahoa Parish,LA,31.824324324324326,NA
70518,Lafayette Parish,LA,77.56756756756756,NA
70546,Jefferson Davis Parish,LA,26.283783783783782,NA
70605,Calcasieu Parish,LA,49.05405405405405,NA
70607,Calcasieu Parish,LA,41.75675675675676,NA
70615,Calcasieu Parish,LA,71.89189189189189,NA
70634,Beauregard Parish,LA,NA,42.857142857142854
70714,East Baton Rouge Parish,LA,55.67567567567567,NA
70737,Ascension Parish,LA,5.9459459459459465,NA
70760,Pointe Coupee Parish,LA,97.56756756756756,NA
70769,Ascension Parish,LA,9.054054054054054,NA
70802,East Baton Rouge Parish,LA,5.337837837837838,NA
70810,East Baton Rouge Parish,LA,7.094594594594595,30.45822102425876
70815,East Baton Rouge Parish,LA,14.18918918918919,NA
71119,Caddo Parish,LA,58.31081081081081,NA
71202,Ouachita Parish,LA,95.6081081081081,NA
71467,Grant Parish,LA,NA,100
03904,York County,ME,NA,58.490566037735846
04073,York County,ME,56.486486486486484,NA
04102,Cumberland County,ME,NA,41.77897574123989
04210,Androscoggin County,ME,NA,10.242587601078167
04468,Penobscot County,ME,NA,95.4177897574124
04530,Sagadahoc County,ME,65.60810810810811,NA
04841,Knox County,ME,NA,50.943396226415096
04915,Waldo County,ME,71.82432432432432,NA
04938,Franklin County,ME,50.33783783783784,NA
04957,Somerset County,ME,91.35135135135135,NA
20637,Charles County,MD,97.2972972972973,NA
20659,St. Mary's County,MD,NA,62.264150943396224
20712,Prince George's County,MD,98.1081081081081,NA
20716,Prince George's County,MD,65.47297297297298,NA
20743,Prince George's County,MD,32.90540540540541,NA
20817,Montgomery County,MD,76.95945945945945,NA
20876,Montgomery County,MD,67.5,NA
21012,Anne Arundel County,MD,79.32432432432432,NA
21060,Anne Arundel County,MD,26.351351351351347,NA
21128,Baltimore County,MD,86.28378378378379,NA
21146,Anne Arundel County,MD,69.12162162162161,NA
21215,Baltimore city,MD,6.891891891891892,NA
21216,Baltimore city,MD,NA,63.07277628032345
21228,Baltimore County,MD,NA,12.668463611859837
21403,Anne Arundel County,MD,62.972972972972975,NA
21502,Allegany County,MD,55.81081081081081,NA
21632,Caroline County,MD,NA,86.25336927223721
21655,Caroline County,MD,95.27027027027027,NA
21727,Frederick County,MD,97.83783783783784,NA
21783,Washington County,MD,97.02702702702702,NA
21811,Worcester County,MD,NA,29.919137466307276
01020,Hampden County,MA,93.04054054054053,NA
01028,Hampden County,MA,95.74324324324324,NA
01040,Hampden County,MA,49.391891891891895,NA
01108,Hampden County,MA,1.0135135135135136,NA
01119,Hampden County,MA,14.594594594594595,NA
01301,Franklin County,MA,10.608108108108109,NA
01364,Franklin County,MA,NA,22.641509433962266
01453,Worcester County,MA,0.6756756756756757,NA
01550,Worcester County,MA,0.7432432432432433,NA
01570,Worcester County,MA,19.594594594594593,NA
01757,Worcester County,MA,1.7567567567567568,NA
01775,Middlesex County,MA,99.05405405405405,NA
01801,Middlesex County,MA,NA,1.078167115902965
01830,Essex County,MA,1.0810810810810811,NA
01833,Essex County,MA,95.8108108108108,NA
01840,Essex County,MA,NA,56.60377358490566
01841,Essex County,MA,0,NA
01845,Essex County,MA,25.135135135135133,NA
01902,Essex County,MA,63.78378378378379,NA
01907,Essex County,MA,51.41891891891892,NA
01923,Essex County,MA,68.78378378378378,NA
01930,Essex County,MA,88.17567567567568,NA
01938,Essex County,MA,45.2027027027027,NA
01945,Essex County,MA,38.78378378378378,NA
01960,Essex County,MA,NA,0.2695417789757413
01966,Essex County,MA,66.6891891891892,NA
02021,Norfolk County,MA,28.581081081081084,NA
02035,Norfolk County,MA,30.810810810810814,NA
02062,Norfolk County,MA,NA,11.859838274932615
02067,Norfolk County,MA,56.554054054054056,NA
02124,Suffolk County,MA,NA,0
02128,Suffolk County,MA,0.06756756756756757,NA
02130,Suffolk County,MA,0.6081081081081081,NA
02131,Suffolk County,MA,1.2837837837837838,5.3908355795148255
02139,Middlesex County,MA,7.297297297297297,NA
02141,Middlesex County,MA,NA,28.30188679245283
02143,Middlesex County,MA,4.594594594594595,NA
02150,Suffolk County,MA,0.20270270270270271,NA
02151,Suffolk County,MA,1.3513513513513513,1.8867924528301887
02152,Suffolk County,MA,11.41891891891892,NA
02180,Middlesex County,MA,39.66216216216216,NA
02191,Norfolk County,MA,NA,79.24528301886792
02301,Plymouth County,MA,0.472972972972973,NA
02346,Plymouth County,MA,35.47297297297297,NA
02351,Plymouth County,MA,14.594594594594595,NA
02359,Plymouth County,MA,NA,64.15094339622641
02368,Norfolk County,MA,NA,6.46900269541779
02445,Norfolk County,MA,24.527027027027025,NA
02451,Middlesex County,MA,22.56756756756757,NA
02452,Middlesex County,MA,63.108108108108105,NA
02453,Middlesex County,MA,32.36486486486487,NA
02459,Middlesex County,MA,42.432432432432435,NA
02492,Norfolk County,MA,24.72972972972973,NA
02493,Middlesex County,MA,65.4054054054054,NA
02631,Barnstable County,MA,81.21621621621622,NA
02703,Bristol County,MA,83.85135135135135,NA
02744,Bristol County,MA,10.067567567567567,NA
02767,Bristol County,MA,22.162162162162165,NA
02777,Bristol County,MA,91.48648648648648,NA
02780,Bristol County,MA,2.7702702702702706,NA
48017,Oakland County,MI,80.33783783783784,NA
48025,Oakland County,MI,NA,88.14016172506739
48035,Macomb County,MI,9.121621621621621,NA
48044,Macomb County,MI,NA,7.547169811320755
48054,St. Clair County,MI,89.86486486486487,NA
48059,St. Clair County,MI,67.29729729729729,NA
48060,St. Clair County,MI,2.5,6.199460916442049
48071,Oakland County,MI,88.10810810810811,NA
48075,Oakland County,MI,29.054054054054053,NA
48080,Macomb County,MI,33.78378378378378,NA
48092,Macomb County,MI,62.36486486486486,NA
48098,Oakland County,MI,NA,40.43126684636118
48103,Washtenaw County,MI,13.58108108108108,1.6172506738544474
48124,Wayne County,MI,17.5,NA
48146,Wayne County,MI,7.162162162162162,NA
48158,Washtenaw County,MI,74.25675675675676,NA
48161,Monroe County,MI,6.418918918918918,NA
48162,Monroe County,MI,NA,2.964959568733154
48166,Monroe County,MI,40.4054054054054,NA
48174,Wayne County,MI,71.14864864864865,NA
48185,Wayne County,MI,4.72972972972973,NA
48186,Wayne County,MI,5.202702702702703,NA
48187,Wayne County,MI,34.25675675675676,NA
48197,Washtenaw County,MI,13.378378378378377,NA
48198,Washtenaw County,MI,1.9594594594594597,NA
48205,Wayne County,MI,3.310810810810811,NA
48210,Wayne County,MI,22.905405405405403,NA
48212,Wayne County,MI,8.986486486486486,NA
48228,Wayne County,MI,1.2162162162162162,NA
48234,Wayne County,MI,6.756756756756757,NA
48307,Oakland County,MI,NA,21.83288409703504
48316,Macomb County,MI,37.567567567567565,NA
48323,Oakland County,MI,53.986486486486484,NA
48341,Oakland County,MI,27.56756756756757,NA
48342,Oakland County,MI,NA,40.700808625336926
48353,Livingston County,MI,92.7027027027027,NA
48381,Oakland County,MI,65,NA
48393,Oakland County,MI,75.33783783783784,NA
48430,Genesee County,MI,22.702702702702705,NA
48446,Lapeer County,MI,13.243243243243244,NA
48462,Oakland County,MI,76.35135135135135,NA
48473,Genesee County,MI,41.55405405405405,NA
48507,Genesee County,MI,8.91891891891892,NA
48603,Saginaw County,MI,11.013513513513514,NA
48640,Midland County,MI,8.783783783783784,NA
48642,Midland County,MI,16.95945945945946,NA
48813,Eaton County,MI,36.351351351351354,NA
48842,Ingham County,MI,36.08108108108108,NA
48843,Livingston County,MI,11.283783783783784,4.5822102425876015
48848,Shiawassee County,MI,85.33783783783784,NA
48854,Ingham County,MI,48.78378378378378,NA
48867,Shiawassee County,MI,62.0945945945946,NA
48872,Shiawassee County,MI,85.6081081081081,NA
48875,Ionia County,MI,78.51351351351352,NA
48917,Eaton County,MI,8.04054054054054,NA
49001,Kalamazoo County,MI,18.64864864864865,NA
49014,Calhoun County,MI,16.35135135135135,NA
49024,Kalamazoo County,MI,59.189189189189186,NA
49036,Branch County,MI,61.28378378378378,NA
49038,Berrien County,MI,72.56756756756756,NA
49046,Barry County,MI,86.14864864864865,NA
49047,Cass County,MI,NA,32.61455525606469
49056,Van Buren County,MI,97.63513513513513,NA
49085,Berrien County,MI,54.52702702702703,NA
49091,St. Joseph County,MI,43.310810810810814,NA
49203,Jackson County,MI,6.486486486486487,NA
49301,Kent County,MI,68.24324324324324,NA
49331,Kent County,MI,NA,47.43935309973046
49333,Barry County,MI,NA,73.8544474393531
49346,Mecosta County,MI,NA,71.96765498652292
49348,Allegan County,MI,30.135135135135133,NA
49401,Ottawa County,MI,57.567567567567565,NA
49404,Ottawa County,MI,88.04054054054053,NA
49424,Ottawa County,MI,74.72972972972973,NA
49431,Mason County,MI,31.148648648648646,NA
49441,Muskegon County,MI,39.054054054054056,NA
49445,Muskegon County,MI,NA,21.024258760107816
49464,Ottawa County,MI,88.71621621621621,NA
49509,Kent County,MI,61.48648648648649,18.059299191374663
49519,Kent County,MI,15,NA
49684,Grand Traverse County,MI,NA,30.997304582210244
49801,Dickinson County,MI,85.74324324324324,NA
49807,Delta County,MI,99.25675675675676,NA
49916,Houghton County,MI,98.78378378378379,NA
49946,Baraga County,MI,93.3108108108108,NA
55033,Dakota County,MN,62.9054054054054,NA
55044,Dakota County,MN,78.17567567567568,NA
55060,Steele County,MN,NA,33.692722371967655
55106,Ramsey County,MN,26.013513513513516,NA
55117,Ramsey County,MN,14.45945945945946,NA
55119,Ramsey County,MN,41.28378378378378,NA
55130,Ramsey County,MN,87.5,NA
55306,Dakota County,MN,NA,73.04582210242587
55316,Hennepin County,MN,65.54054054054053,NA
55317,Carver County,MN,77.5,NA
55343,Hennepin County,MN,41.95945945945946,NA
55347,Hennepin County,MN,66.48648648648648,NA
55356,Hennepin County,MN,NA,95.14824797843666
55401,Hennepin County,MN,63.85135135135135,NA
55406,Hennepin County,MN,NA,31.805929919137466
55408,Hennepin County,MN,10.54054054054054,NA
55411,Hennepin County,MN,2.22972972972973,NA
55412,Hennepin County,MN,7.972972972972974,NA
55423,Hennepin County,MN,17.364864864864867,NA
55433,Anoka County,MN,33.17567567567568,NA
55437,Hennepin County,MN,84.52702702702702,NA
55444,Hennepin County,MN,56.75675675675676,NA
55448,Anoka County,MN,NA,63.61185983827493
55987,Winona County,MN,30.405405405405407,NA
56001,Blue Earth County,MN,64.1891891891892,NA
56071,Scott County,MN,NA,84.90566037735849
56087,Brown County,MN,97.2972972972973,NA
56265,Chippewa County,MN,NA,60.1078167115903
56301,Stearns County,MN,41.891891891891895,NA
56304,Sherburne County,MN,59.12162162162162,NA
56308,Douglas County,MN,24.45945945945946,NA
56347,Todd County,MN,82.70270270270271,NA
56352,Stearns County,MN,85.94594594594595,NA
56511,Becker County,MN,NA,99.46091644204851
56520,Wilkin County,MN,75.06756756756758,NA
56621,Clearwater County,MN,81.08108108108108,NA
38618,Tate County,MS,84.39189189189189,NA
38637,DeSoto County,MS,76.8918918918919,NA
38654,DeSoto County,MS,55.270270270270274,NA
38866,Lee County,MS,86.41891891891892,NA
39047,Rankin County,MS,52.16216216216216,NA
39074,Scott County,MS,35.945945945945944,NA
39145,Rankin County,MS,82.83783783783784,NA
39213,Hinds County,MS,32.90540540540541,NA
39443,Jones County,MS,86.48648648648648,NA
39540,Harrison County,MS,NA,66.0377358490566
39553,Jackson County,MS,42.972972972972975,NA
39563,Jackson County,MS,48.17567567567568,NA
39564,Jackson County,MS,31.08108108108108,NA
39573,Stone County,MS,90.67567567567568,NA
39574,Harrison County,MS,79.25675675675676,NA
39735,Choctaw County,MS,98.3108108108108,NA
63026,St. Louis County,MO,33.44594594594595,NA
63028,Jefferson County,MO,NA,24.797843665768195
63077,Franklin County,MO,70.54054054054055,NA
63089,Franklin County,MO,90.13513513513513,NA
63111,St. Louis city,MO,31.891891891891895,NA
63114,St. Louis County,MO,22.5,NA
63122,St. Louis County,MO,NA,26.41509433962264
63303,St. Charles County,MO,20.675675675675677,NA
63304,St. Charles County,MO,62.56756756756757,NA
63367,St. Charles County,MO,55.472972972972975,NA
63755,Cape Girardeau County,MO,63.58108108108108,NA
63901,Butler County,MO,12.094594594594595,NA
64050,Jackson County,MO,13.986486486486486,NA
64055,Jackson County,MO,NA,8.89487870619946
64078,Cass County,MO,67.77027027027027,NA
64118,Clay County,MO,4.324324324324325,NA
64119,Clay County,MO,NA,77.62803234501348
64130,Jackson County,MO,5.608108108108109,NA
64131,Jackson County,MO,NA,38.544474393531
64133,Jackson County,MO,18.91891891891892,NA
64145,Jackson County,MO,83.78378378378379,NA
64151,Platte County,MO,29.18918918918919,NA
64157,Clay County,MO,31.283783783783786,NA
64503,Buchanan County,MO,23.175675675675674,NA
64505,Buchanan County,MO,NA,79.51482479784366
64730,Bates County,MO,58.716216216216225,NA
64759,Barton County,MO,81.08108108108108,NA
64850,Newton County,MO,44.66216216216216,NA
65201,Boone County,MO,43.58108108108108,NA
65301,Pettis County,MO,18.37837837837838,NA
65616,Taney County,MO,34.39189189189189,37.46630727762803
65802,Greene County,MO,36.14864864864865,NA
59102,Yellowstone County,MT,42.16216216216216,NA
59715,Gallatin County,MT,50.608108108108105,NA
59901,Flathead County,MT,29.324324324324323,NA
68410,Otoe County,NE,NA,82.21024258760107
68528,Lancaster County,NE,99.1891891891892,NA
68601,Platte County,NE,NA,48.24797843665768
89108,Clark County,NV,19.324324324324323,NA
89121,Clark County,NV,25,NA
89129,Clark County,NV,46.62162162162162,NA
89145,Clark County,NV,76.28378378378379,NA
89147,Clark County,NV,38.58108108108108,NA
89166,Clark County,NV,62.5,NA
89408,Lyon County,NV,35.13513513513514,NA
89431,Washoe County,NV,19.256756756756758,NA
89436,Washoe County,NV,20.54054054054054,NA
89441,Washoe County,NV,80.06756756756756,NA
89511,Washoe County,NV,63.24324324324324,NA
89519,Washoe County,NV,97.5,NA
03051,Hillsborough County,NH,20.27027027027027,NA
03076,Hillsborough County,NH,86.01351351351352,NA
03077,Rockingham County,NH,NA,71.42857142857143
03079,Rockingham County,NH,13.918918918918918,NA
03431,Cheshire County,NH,27.027027027027028,NA
03766,Grafton County,NH,95.13513513513514,NA
03842,Rockingham County,NH,70.33783783783784,NA
03857,Rockingham County,NH,93.51351351351352,NA
07008,Middlesex County,NJ,NA,97.30458221024259
07009,Essex County,NJ,NA,84.36657681940702
07010,Bergen County,NJ,47.0945945945946,NA
07011,Passaic County,NJ,15.878378378378377,NA
07018,Essex County,NJ,4.864864864864865,NA
07023,Union County,NJ,95.54054054054055,NA
07030,Hudson County,NJ,NA,31.536388140161726
07036,Union County,NJ,NA,18.328840970350406
07070,Bergen County,NJ,68.91891891891892,NA
07075,Bergen County,NJ,90,NA
07076,Union County,NJ,84.18918918918918,NA
07080,Middlesex County,NJ,55.74324324324324,NA
07104,Essex County,NJ,87.97297297297297,NA
07106,Essex County,NJ,72.5,NA
07111,Essex County,NJ,6.824324324324324,NA
07305,Hudson County,NJ,NA,2.6954177897574128
07407,Bergen County,NJ,94.39189189189189,NA
07436,Bergen County,NJ,90.94594594594595,NA
07470,Passaic County,NJ,14.72972972972973,NA
07501,Passaic County,NJ,1.5540540540540542,NA
07502,Passaic County,NJ,33.91891891891892,NA
07508,Passaic County,NJ,61.689189189189186,NA
07601,Bergen County,NJ,69.39189189189189,NA
07631,Bergen County,NJ,25.945945945945947,NA
07644,Bergen County,NJ,NA,35.309973045822105
07670,Bergen County,NJ,85.74324324324324,NA
07701,Monmouth County,NJ,NA,73.31536388140162
07712,Monmouth County,NJ,2.364864864864865,NA
07716,Monmouth County,NJ,90.27027027027027,NA
07747,Monmouth County,NJ,65.2027027027027,NA
07825,Warren County,NJ,97.70270270270271,NA
07828,Morris County,NJ,56.89189189189189,NA
07836,Morris County,NJ,NA,92.18328840970351
07869,Morris County,NJ,52.83783783783784,50.13477088948787
07960,Morris County,NJ,16.756756756756758,NA
08002,Camden County,NJ,96.75675675675676,NA
08012,Camden County,NJ,4.797297297297297,NA
08046,Burlington County,NJ,NA,28.84097035040431
08079,Salem County,NJ,41.351351351351354,NA
08080,Gloucester County,NJ,36.41891891891892,NA
08087,Ocean County,NJ,48.78378378378378,NA
08098,Salem County,NJ,73.37837837837839,NA
08104,Camden County,NJ,0.5405405405405406,NA
08205,Atlantic County,NJ,91.55405405405406,NA
08244,Atlantic County,NJ,35,65.49865229110512
08260,Cape May County,NJ,28.91891891891892,NA
08332,Cumberland County,NJ,71.28378378378379,NA
08401,Atlantic County,NJ,50.94594594594595,NA
08402,Atlantic County,NJ,89.66216216216216,NA
08505,Burlington County,NJ,NA,60.37735849056604
08527,Ocean County,NJ,92.5,NA
08610,Mercer County,NJ,NA,50.673854447439346
08701,Ocean County,NJ,76.21621621621621,NA
08722,Ocean County,NJ,99.52702702702703,NA
08750,Monmouth County,NJ,NA,97.84366576819407
08753,Ocean County,NJ,1.8243243243243243,NA
08822,Hunterdon County,NJ,20.60810810810811,NA
08857,Middlesex County,NJ,NA,16.711590296495956
08861,Middlesex County,NJ,NA,5.929919137466308
08876,Somerset County,NJ,94.86486486486486,NA
08901,Middlesex County,NJ,93.24324324324324,NA
87031,Valencia County,NM,60.878378378378386,NA
87110,Bernalillo County,NM,10.878378378378379,NA
87113,Bernalillo County,NM,NA,97.57412398921834
87120,Bernalillo County,NM,8.378378378378379,NA
87121,Bernalillo County,NM,3.581081081081081,NA
87402,San Juan County,NM,85,NA
87420,San Juan County,NM,NA,68.73315363881402
87571,Taos County,NM,NA,52.02156334231805
88005,Doa Ana County,NM,40.945945945945944,NA
88101,Curry County,NM,8.58108108108108,NA
88203,Chaves County,NM,17.22972972972973,NA
88220,Eddy County,NM,18.716216216216218,NA
88260,Lea County,NM,38.04054054054054,77.088948787062
10002,New York County,NY,36.486486486486484,NA
10011,New York County,NY,36.82432432432432,NA
10019,New York County,NY,62.70270270270271,NA
10025,New York County,NY,NA,1.3477088948787064
10032,New York County,NY,35.4054054054054,8.355795148247978
10033,New York County,NY,NA,19.40700808625337
10036,New York County,NY,69.66216216216216,NA
10304,Richmond County,NY,12.5,NA
10314,Richmond County,NY,11.216216216216218,NA
10451,Bronx County,NY,2.0945945945945947,NA
10453,Bronx County,NY,25.270270270270267,NA
10454,Bronx County,NY,NA,7.008086253369273
10457,Bronx County,NY,4.391891891891892,NA
10458,Bronx County,NY,0.13513513513513514,NA
10460,Bronx County,NY,25.675675675675674,NA
10467,Bronx County,NY,0.33783783783783783,NA
10589,Westchester County,NY,NA,95.68733153638814
10701,Westchester County,NY,1.1486486486486487,NA
10705,Westchester County,NY,NA,30.727762803234505
10940,Orange County,NY,14.797297297297296,14.285714285714285
10950,Orange County,NY,66.95945945945945,NA
11010,Nassau County,NY,95.20270270270271,NA
11102,Queens County,NY,NA,90.29649595687331
11103,Queens County,NY,70.87837837837839,NA
11204,Kings County,NY,61.14864864864865,NA
11207,Kings County,NY,3.986486486486487,NA
11210,Kings County,NY,41.01351351351351,NA
11211,Kings County,NY,NA,19.137466307277627
11213,Kings County,NY,4.121621621621622,NA
11215,Kings County,NY,NA,70.08086253369272
11216,Kings County,NY,10.135135135135135,NA
11217,Kings County,NY,37.9054054054054,NA
11218,Kings County,NY,46.35135135135135,NA
11220,Kings County,NY,2.7027027027027026,NA
11221,Kings County,NY,2.1621621621621623,NA
11224,Kings County,NY,16.824324324324323,NA
11231,Kings County,NY,39.189189189189186,NA
11233,Kings County,NY,1.418918918918919,NA
11234,Kings County,NY,NA,12.129380053908356
11372,Queens County,NY,27.7027027027027,NA
11373,Queens County,NY,12.432432432432433,NA
11377,Queens County,NY,15.27027027027027,NA
11385,Queens County,NY,8.513513513513514,NA
11412,Queens County,NY,NA,81.40161725067385
11417,Queens County,NY,77.0945945945946,NA
11435,Queens County,NY,36.14864864864865,NA
11436,Queens County,NY,68.85135135135135,NA
11559,Nassau County,NY,NA,98.11320754716981
11691,Queens County,NY,7.364864864864865,NA
11692,Queens County,NY,48.91891891891892,NA
11717,Suffolk County,NY,16.41891891891892,NA
11720,Suffolk County,NY,89.45945945945945,NA
11741,Suffolk County,NY,72.2972972972973,NA
11755,Suffolk County,NY,94.1891891891892,NA
11756,Nassau County,NY,55.87837837837838,NA
11801,Nassau County,NY,57.432432432432435,NA
12010,Montgomery County,NY,4.256756756756757,NA
12065,Saratoga County,NY,55.54054054054054,NA
12090,Rensselaer County,NY,65.13513513513513,NA
12095,Fulton County,NY,42.36486486486486,NA
12143,Albany County,NY,89.66216216216216,NA
12144,Rensselaer County,NY,37.77027027027027,NA
12180,Rensselaer County,NY,NA,9.703504043126685
12189,Albany County,NY,37.7027027027027,NA
12205,Albany County,NY,52.702702702702695,NA
12528,Ulster County,NY,79.66216216216216,NA
12534,Columbia County,NY,43.445945945945944,NA
12553,Orange County,NY,74.39189189189189,NA
12771,Orange County,NY,NA,81.13207547169812
12803,Saratoga County,NY,67.63513513513514,NA
12804,Warren County,NY,7.027027027027027,NA
12866,Saratoga County,NY,12.567567567567567,NA
12901,Clinton County,NY,15.675675675675677,NA
12992,Clinton County,NY,56.08108108108109,NA
13027,Onondaga County,NY,11.891891891891893,NA
13045,Cortland County,NY,17.905405405405407,NA
13057,Onondaga County,NY,47.2972972972973,NA
13077,Cortland County,NY,NA,70.35040431266847
13088,Onondaga County,NY,24.324324324324326,NA
13148,Seneca County,NY,21.554054054054053,NA
13207,Onondaga County,NY,28.445945945945944,NA
13209,Onondaga County,NY,44.32432432432433,NA
13340,Herkimer County,NY,81.55405405405406,NA
13365,Herkimer County,NY,32.2972972972973,NA
13440,Oneida County,NY,NA,5.660377358490567
13477,Oneida County,NY,98.71621621621621,NA
13668,St. Lawrence County,NY,99.45945945945947,NA
13669,St. Lawrence County,NY,19.594594594594593,NA
13733,Chenango County,NY,68.71621621621622,NA
13790,Broome County,NY,8.243243243243244,NA
13812,Tioga County,NY,96.28378378378379,NA
13815,Chenango County,NY,NA,13.20754716981132
13830,Chenango County,NY,64.86486486486487,NA
13838,Delaware County,NY,NA,83.82749326145552
13850,Broome County,NY,14.256756756756756,3.7735849056603774
14004,Erie County,NY,60.2027027027027,NA
14048,Chautauqua County,NY,69.05405405405406,NA
14063,Chautauqua County,NY,71.75675675675676,NA
14127,Erie County,NY,13.783783783783784,NA
14150,Erie County,NY,23.445945945945944,NA
14172,Niagara County,NY,92.43243243243244,NA
14174,Niagara County,NY,80.67567567567568,NA
14204,Erie County,NY,40.06756756756757,NA
14216,Erie County,NY,25.2027027027027,NA
14217,Erie County,NY,22.83783783783784,NA
14221,Erie County,NY,10.675675675675675,NA
14224,Erie County,NY,4.527027027027027,NA
14228,Erie County,NY,44.527027027027025,NA
14304,Niagara County,NY,20.33783783783784,3.234501347708895
14432,Ontario County,NY,68.04054054054053,53.09973045822103
14433,Wayne County,NY,57.90540540540541,NA
14456,Ontario County,NY,6.283783783783783,NA
14469,Ontario County,NY,39.32432432432432,NA
14472,Monroe County,NY,46.013513513513516,NA
14502,Wayne County,NY,24.66216216216216,NA
14512,Ontario County,NY,73.71621621621621,NA
14513,Wayne County,NY,4.1891891891891895,NA
14514,Monroe County,NY,67.02702702702703,NA
14534,Monroe County,NY,NA,2.15633423180593
14543,Monroe County,NY,91.41891891891892,NA
14564,Ontario County,NY,16.95945945945946,NA
14572,Steuben County,NY,NA,76.28032345013477
14580,Monroe County,NY,5.675675675675676,NA
14609,Monroe County,NY,0.2702702702702703,NA
14611,Monroe County,NY,5.810810810810811,NA
14612,Monroe County,NY,1.6891891891891893,NA
14617,Monroe County,NY,24.7972972972973,NA
14619,Monroe County,NY,12.837837837837837,NA
14738,Chautauqua County,NY,NA,93.26145552560648
14760,Cattaraugus County,NY,33.31081081081081,NA
14772,Cattaraugus County,NY,96.01351351351352,NA
14775,Chautauqua County,NY,96.21621621621622,NA
14812,Schuyler County,NY,85.06756756756756,NA
14867,Tompkins County,NY,60.67567567567568,NA
14886,Tompkins County,NY,NA,67.9245283018868
27006,Davie County,NC,NA,29.110512129380055
27030,Surry County,NC,5.472972972972974,NA
27205,Randolph County,NC,38.98648648648649,NA
27215,Alamance County,NC,55.13513513513514,NA
27265,Guilford County,NC,69.45945945945947,NA
27312,Chatham County,NC,62.29729729729729,NA
27330,Lee County,NC,19.864864864864863,NA
27406,Guilford County,NC,3.2432432432432434,NA
27455,Guilford County,NC,48.51351351351351,NA
27514,Orange County,NC,58.648648648648646,NA
27519,Wake County,NC,NA,54.71698113207547
27576,Johnston County,NC,56.68918918918919,NA
27577,Johnston County,NC,42.432432432432435,NA
27591,Wake County,NC,56.013513513513516,NA
27613,Wake County,NC,48.17567567567568,NA
27616,Wake County,NC,18.513513513513512,NA
27707,Durham County,NC,11.351351351351353,NA
27803,Nash County,NC,45.067567567567565,NA
27832,Northampton County,NC,98.98648648648648,NA
27858,Pitt County,NC,22.905405405405403,NA
27910,Hertford County,NC,70.67567567567568,NA
27958,Currituck County,NC,87.83783783783784,NA
28027,Cabarrus County,NC,16.283783783783782,NA
28037,Lincoln County,NC,61.75675675675676,NA
28078,Mecklenburg County,NC,63.986486486486484,NA
28090,Cleveland County,NC,67.63513513513514,NA
28110,Union County,NC,19.72972972972973,NA
28120,Gaston County,NC,56.41891891891891,NA
28139,Rutherford County,NC,NA,61.99460916442049
28150,Cleveland County,NC,19.72972972972973,NA
28212,Mecklenburg County,NC,NA,86.52291105121293
28213,Mecklenburg County,NC,23.64864864864865,NA
28214,Mecklenburg County,NC,26.554054054054056,NA
28226,Mecklenburg County,NC,51.35135135135135,NA
28278,Mecklenburg County,NC,84.05405405405405,NA
28345,Richmond County,NC,58.91891891891892,NA
28371,Robeson County,NC,90.60810810810811,NA
28401,New Hanover County,NC,9.594594594594595,NA
28463,Columbus County,NC,71.62162162162163,NA
28540,Onslow County,NC,23.175675675675674,NA
28557,Carteret County,NC,NA,77.89757412398922
28562,Craven County,NC,NA,60.64690026954178
28658,Catawba County,NC,41.14864864864865,NA
28704,Buncombe County,NC,87.77027027027027,NA
28762,McDowell County,NC,79.66216216216216,NA
28777,Mitchell County,NC,NA,71.96765498652292
58201,Grand Forks County,ND,78.24324324324324,NA
58701,Ward County,ND,9.45945945945946,9.973045822102426
58801,Williams County,ND,33.17567567567568,NA
43016,Franklin County,OH,60.13513513513513,NA
43040,Union County,OH,23.04054054054054,NA
43065,Delaware County,OH,86.55405405405405,NA
43082,Delaware County,OH,NA,44.20485175202156
43113,Pickaway County,OH,12.297297297297298,NA
43123,Franklin County,OH,6.351351351351352,NA
43147,Fairfield County,OH,21.08108108108108,NA
43221,Franklin County,OH,65.67567567567568,NA
43229,Franklin County,OH,5.405405405405405,NA
43230,Franklin County,OH,NA,15.09433962264151
43302,Marion County,OH,13.108108108108107,NA
43334,Morrow County,OH,91.28378378378378,NA
43402,Wood County,OH,18.783783783783782,NA
43420,Sandusky County,OH,9.527027027027026,NA
43465,Wood County,OH,78.58108108108108,NA
43528,Lucas County,OH,NA,48.517520215633425
43560,Lucas County,OH,57.7027027027027,NA
43567,Fulton County,OH,47.5,NA
43607,Lucas County,OH,5,NA
43608,Lucas County,OH,30.270270270270274,NA
43611,Lucas County,OH,12.635135135135133,NA
43612,Lucas County,OH,3.5135135135135136,NA
43613,Lucas County,OH,NA,26.1455525606469
43615,Lucas County,OH,2.837837837837838,NA
43619,Wood County,OH,65.27027027027027,NA
43623,Lucas County,OH,23.783783783783786,NA
43701,Muskingum County,OH,NA,0.5390835579514826
43793,Monroe County,OH,88.51351351351352,NA
43812,Coshocton County,OH,42.2972972972973,NA
43910,Jefferson County,OH,86.82432432432432,NA
43950,Belmont County,OH,NA,15.363881401617252
44011,Lorain County,OH,28.243243243243242,NA
44035,Lorain County,OH,22.094594594594593,NA
44057,Lake County,OH,25.405405405405407,NA
44060,Lake County,OH,5.743243243243244,NA
44077,Lake County,OH,49.5945945945946,NA
44090,Lorain County,OH,91.14864864864865,NA
44105,Cuyahoga County,OH,NA,0.8086253369272237
44107,Cuyahoga County,OH,11.621621621621623,NA
44118,Cuyahoga County,OH,NA,11.05121293800539
44120,Cuyahoga County,OH,2.5675675675675675,NA
44124,Cuyahoga County,OH,21.95945945945946,NA
44128,Cuyahoga County,OH,2.027027027027027,NA
44132,Cuyahoga County,OH,55.60810810810811,NA
44135,Cuyahoga County,OH,2.4324324324324325,NA
44140,Cuyahoga County,OH,66.82432432432432,NA
44143,Cuyahoga County,OH,NA,13.477088948787062
44145,Cuyahoga County,OH,15.405405405405407,NA
44202,Portage County,OH,30,NA
44203,Summit County,OH,5.135135135135135,9.433962264150944
44212,Medina County,OH,16.013513513513512,NA
44233,Medina County,OH,NA,59.83827493261455
44236,Summit County,OH,52.5,NA
44240,Portage County,OH,24.864864864864867,NA
44256,Medina County,OH,3.1081081081081083,NA
44260,Portage County,OH,92.9054054054054,NA
44270,Wayne County,OH,60.878378378378386,NA
44319,Summit County,OH,NA,23.450134770889488
44405,Mahoning County,OH,75,NA
44406,Mahoning County,OH,54.25675675675675,NA
44442,Mahoning County,OH,94.66216216216216,NA
44512,Mahoning County,OH,9.256756756756756,NA
44601,Stark County,OH,6.013513513513514,NA
44614,Stark County,OH,90.94594594594595,NA
44641,Stark County,OH,86.6891891891892,NA
44646,Stark County,OH,8.445945945945946,NA
44708,Stark County,OH,24.93243243243243,NA
44710,Stark County,OH,61.35135135135135,NA
44720,Stark County,OH,26.08108108108108,57.95148247978437
44805,Ashland County,OH,11.756756756756758,NA
44870,Erie County,OH,11.824324324324325,NA
45005,Warren County,OH,NA,54.17789757412399
45011,Butler County,OH,1.891891891891892,NA
45040,Warren County,OH,29.256756756756758,NA
45102,Clermont County,OH,33.85135135135135,NA
45133,Highland County,OH,18.10810810810811,NA
45154,Brown County,OH,77.56756756756756,NA
45211,Hamilton County,OH,8.108108108108109,NA
45215,Hamilton County,OH,22.027027027027028,NA
45224,Hamilton County,OH,70.4054054054054,NA
45238,Hamilton County,OH,12.22972972972973,NA
45239,Hamilton County,OH,NA,36.92722371967655
45244,Hamilton County,OH,50.27027027027027,NA
45385,Greene County,OH,10.743243243243244,NA
45419,Montgomery County,OH,83.64864864864865,NA
45426,Montgomery County,OH,78.98648648648648,NA
45601,Ross County,OH,0.40540540540540543,NA
45631,Gallia County,OH,9.864864864864865,NA
45648,Scioto County,OH,21.35135135135135,NA
45656,Jackson County,OH,60.40540540540541,NA
45658,Gallia County,OH,99.79729729729729,NA
45663,Scioto County,OH,48.17567567567568,NA
45680,Lawrence County,OH,39.729729729729726,NA
45750,Washington County,OH,1.4864864864864866,NA
45872,Wood County,OH,84.66216216216216,NA
45873,Paulding County,OH,98.64864864864865,NA
45891,Van Wert County,OH,27.22972972972973,NA
73020,Oklahoma County,OK,NA,29.380053908355798
73026,Cleveland County,OK,78.64864864864865,NA
73034,Oklahoma County,OK,25.810810810810807,NA
73044,Logan County,OK,88.64864864864866,NA
73055,Stephens County,OK,72.22972972972973,NA
73099,Canadian County,OK,NA,8.086253369272237
73110,Oklahoma County,OK,16.216216216216218,74.93261455525607
73112,Oklahoma County,OK,33.58108108108108,51.21293800539084
73116,Oklahoma County,OK,NA,85.44474393530997
73139,Oklahoma County,OK,53.37837837837838,NA
73160,Cleveland County,OK,11.14864864864865,NA
73170,Cleveland County,OK,29.594594594594593,NA
73501,Comanche County,OK,90.2027027027027,NA
73533,Stephens County,OK,70.94594594594594,NA
73662,Beckham County,OK,93.71621621621622,NA
73773,Garfield County,OK,99.86486486486487,NA
74006,Washington County,OK,NA,91.91374663072777
74019,Rogers County,OK,44.66216216216216,NA
74021,Tulsa County,OK,70.20270270270271,NA
74029,Washington County,OK,92.0945945945946,NA
74037,Tulsa County,OK,77.77027027027027,NA
74352,Mayes County,OK,87.22972972972973,NA
74441,Cherokee County,OK,94.45945945945947,NA
74464,Cherokee County,OK,7.7027027027027035,NA
74525,Atoka County,OK,84.32432432432432,NA
74631,Kay County,OK,82.63513513513514,NA
74902,Le Flore County,OK,91.21621621621621,NA
97006,Washington County,OR,NA,34.23180592991914
97031,Hood River County,OR,69.32432432432432,NA
97034,Clackamas County,OR,92.77027027027027,NA
97045,Clackamas County,OR,13.175675675675674,NA
97062,Washington County,OR,57.770270270270274,NA
97089,Clackamas County,OR,81.6891891891892,NA
97123,Washington County,OR,17.972972972972972,NA
97212,Multnomah County,OR,86.08108108108108,NA
97223,Washington County,OR,NA,27.49326145552561
97322,Linn County,OR,11.95945945945946,NA
97370,Benton County,OR,NA,98.92183288409704
97457,Douglas County,OR,68.98648648648648,NA
97478,Lane County,OR,35.810810810810814,NA
97501,Jackson County,OR,7.5,NA
97504,Jackson County,OR,52.22972972972973,NA
97540,Jackson County,OR,97.16216216216216,NA
97707,Deschutes County,OR,NA,98.6522911051213
97739,Deschutes County,OR,80.87837837837839,NA
97761,Jefferson County,OR,NA,98.38274932614556
97814,Baker County,OR,72.77027027027026,NA
15012,Westmoreland County,PA,60.06756756756757,NA
15025,Allegheny County,PA,NA,49.865229110512125
15042,Beaver County,PA,83.58108108108108,NA
15065,Allegheny County,PA,66.14864864864865,NA
15066,Beaver County,PA,73.24324324324324,NA
15068,Westmoreland County,PA,16.486486486486488,10.781671159029651
15084,Allegheny County,PA,67.77027027027027,NA
15102,Allegheny County,PA,NA,31.266846361185983
15122,Allegheny County,PA,49.66216216216216,NA
15129,Allegheny County,PA,78.37837837837837,NA
15201,Allegheny County,PA,58.78378378378378,NA
15221,Allegheny County,PA,15.337837837837837,NA
15228,Allegheny County,PA,NA,95.95687331536388
15301,Washington County,PA,NA,32.88409703504043
15401,Fayette County,PA,6.959459459459459,NA
15425,Fayette County,PA,NA,23.71967654986523
15501,Somerset County,PA,54.7972972972973,NA
15610,Westmoreland County,PA,97.77027027027026,NA
15642,Westmoreland County,PA,53.783783783783775,NA
15690,Westmoreland County,PA,NA,84.09703504043127
15767,Jefferson County,PA,25.54054054054054,NA
15825,Jefferson County,PA,74.05405405405405,NA
15931,Cambria County,PA,68.3108108108108,NA
16055,Butler County,PA,87.16216216216216,NA
16101,Lawrence County,PA,5.27027027027027,NA
16403,Crawford County,PA,88.91891891891892,NA
16504,Erie County,PA,NA,76.01078167115904
16509,Erie County,PA,30.743243243243246,NA
16601,Blair County,PA,8.31081081081081,NA
16735,McKean County,PA,73.17567567567568,NA
16830,Clearfield County,PA,61.013513513513516,NA
17007,Cumberland County,PA,NA,91.64420485175202
17013,Cumberland County,PA,69.93243243243244,NA
17015,Cumberland County,PA,NA,33.42318059299191
17022,Lancaster County,PA,NA,16.442048517520217
17057,Dauphin County,PA,48.37837837837838,NA
17066,Huntingdon County,PA,71.68918918918918,NA
17112,Dauphin County,PA,46.95945945945946,NA
17201,Franklin County,PA,35.06756756756757,NA
17313,York County,PA,87.02702702702703,NA
17331,York County,PA,6.081081081081082,NA
17403,York County,PA,2.2972972972972974,NA
17408,York County,PA,NA,15.633423180592992
17601,Lancaster County,PA,66.8918918918919,NA
17701,Lycoming County,PA,3.6486486486486487,NA
17724,Bradford County,PA,NA,94.07008086253369
17745,Clinton County,PA,37.432432432432435,NA
17801,Northumberland County,PA,17.83783783783784,NA
17901,Schuylkill County,PA,73.85135135135134,NA
17922,Schuylkill County,PA,93.91891891891892,96.49595687331536
17931,Schuylkill County,PA,76.82432432432432,NA
18015,Northampton County,PA,30.608108108108105,NA
18032,Lehigh County,PA,57.2972972972973,NA
18041,Montgomery County,PA,NA,99.19137466307278
18052,Lehigh County,PA,50.33783783783784,NA
18062,Lehigh County,PA,42.83783783783784,NA
18080,Lehigh County,PA,43.17567567567567,NA
18102,Lehigh County,PA,0.8108108108108109,NA
18103,Lehigh County,PA,4.45945945945946,NA
18109,Lehigh County,PA,23.37837837837838,NA
18235,Carbon County,PA,28.986486486486484,NA
18302,Monroe County,PA,51.28378378378379,NA
18324,Pike County,PA,72.56756756756756,NA
18407,Lackawanna County,PA,75.4054054054054,NA
18411,Lackawanna County,PA,46.41891891891892,NA
18466,Monroe County,PA,54.12162162162162,NA
18504,Lackawanna County,PA,28.10810810810811,NA
18505,Lackawanna County,PA,40.13513513513514,NA
18704,Luzerne County,PA,45.27027027027027,NA
18707,Luzerne County,PA,NA,34.77088948787062
18848,Bradford County,PA,79.12162162162161,NA
18914,Bucks County,PA,83.71621621621622,NA
18966,Bucks County,PA,NA,11.590296495956872
18976,Bucks County,PA,78.10810810810811,NA
19015,Delaware County,PA,34.7972972972973,78.70619946091644
19018,Delaware County,PA,59.72972972972973,NA
19040,Montgomery County,PA,87.29729729729729,NA
19047,Bucks County,PA,21.486486486486488,NA
19053,Bucks County,PA,28.716216216216218,NA
19067,Bucks County,PA,49.18918918918919,8.62533692722372
19070,Delaware County,PA,86.35135135135134,NA
19082,Delaware County,PA,57.229729729729726,NA
19090,Montgomery County,PA,45.33783783783784,NA
19104,Philadelphia County,PA,10.472972972972974,18.867924528301888
19111,Philadelphia County,PA,3.040540540540541,NA
19119,Philadelphia County,PA,21.68918918918919,NA
19120,Philadelphia County,PA,15.472972972972974,NA
19121,Philadelphia County,PA,7.905405405405405,NA
19122,Philadelphia County,PA,43.78378378378379,NA
19124,Philadelphia County,PA,0.8783783783783784,11.320754716981133
19132,Philadelphia County,PA,NA,16.172506738544474
19147,Philadelphia County,PA,NA,66.30727762803235
19154,Philadelphia County,PA,44.189189189189186,NA
19317,Delaware County,PA,97.9054054054054,NA
19320,Chester County,PA,NA,49.056603773584904
19390,Chester County,PA,78.24324324324324,NA
19403,Montgomery County,PA,NA,7.277628032345014
19460,Chester County,PA,72.83783783783784,NA
19522,Berks County,PA,NA,39.35309973045822
19602,Berks County,PA,NA,33.153638814016176
19606,Berks County,PA,10.337837837837839,NA
19611,Berks County,PA,75.67567567567568,NA
02817,Kent County,RI,87.43243243243242,NA
02835,Newport County,RI,NA,86.79245283018868
02838,Providence County,RI,98.04054054054055,NA
02888,Kent County,RI,48.58108108108108,NA
02909,Providence County,RI,68.58108108108108,NA
29102,Clarendon County,SC,54.66216216216216,NA
29108,Newberry County,SC,NA,51.75202156334232
29206,Richland County,SC,NA,79.78436657681941
29212,Lexington County,SC,NA,47.16981132075472
29340,Cherokee County,SC,37.83783783783784,NA
29412,Charleston County,SC,31.216216216216214,NA
29418,Charleston County,SC,36.68918918918919,NA
29520,Chesterfield County,SC,74.5945945945946,NA
29565,Dillon County,SC,90.74324324324324,NA
29617,Greenville County,SC,33.37837837837838,40.16172506738545
29624,Anderson County,SC,34.93243243243243,NA
29640,Pickens County,SC,71.41891891891892,NA
29644,Greenville County,SC,50.06756756756757,NA
29646,Greenwood County,SC,42.09459459459459,NA
29710,York County,SC,56.28378378378378,51.482479784366575
29720,Lancaster County,SC,13.648648648648647,NA
29732,York County,SC,64.05405405405405,NA
57006,Brookings County,SD,NA,46.36118598382749
57105,Minnehaha County,SD,NA,12.398921832884097
57301,Davison County,SD,46.08108108108108,NA
57601,Walworth County,SD,97.16216216216216,NA
37033,Hickman County,TN,88.44594594594595,NA
37037,Rutherford County,TN,94.32432432432432,NA
37043,Montgomery County,TN,33.58108108108108,NA
37062,Williamson County,TN,81.89189189189189,NA
37066,Sumner County,TN,9.18918918918919,NA
37075,Sumner County,TN,44.86486486486487,NA
37076,Davidson County,TN,87.70270270270271,NA
37098,Hickman County,TN,77.9054054054054,NA
37128,Rutherford County,TN,25.33783783783784,NA
37129,Rutherford County,TN,15.067567567567567,NA
37138,Davidson County,TN,49.72972972972973,NA
37160,Bedford County,TN,16.68918918918919,NA
37174,Williamson County,TN,46.21621621621622,NA
37186,Sumner County,TN,NA,96.22641509433963
37188,Robertson County,TN,83.51351351351352,NA
37207,Davidson County,TN,38.71621621621622,NA
37209,Davidson County,TN,29.527027027027025,NA
37363,Hamilton County,TN,NA,45.55256064690027
37379,Hamilton County,TN,38.44594594594595,NA
37415,Hamilton County,TN,57.36486486486486,NA
37664,Sullivan County,TN,52.63513513513514,NA
37830,Anderson County,TN,21.41891891891892,NA
37849,Knox County,TN,37.36486486486486,NA
37918,Knox County,TN,NA,21.563342318059302
37920,Knox County,TN,NA,17.78975741239892
38114,Shelby County,TN,20.135135135135133,NA
38134,Shelby County,TN,NA,58.22102425876011
38401,Maury County,TN,NA,38.81401617250674
38501,Putnam County,TN,16.89189189189189,NA
38506,Putnam County,TN,39.39189189189189,NA
38571,Cumberland County,TN,53.71621621621622,NA
75013,Collin County,TX,47.36486486486486,NA
75020,Grayson County,TX,45.74324324324324,NA
75033,,TX,67.5,NA
75042,Dallas County,TX,62.43243243243243,NA
75044,Dallas County,TX,53.24324324324324,NA
75050,Dallas County,TX,40.4054054054054,NA
75054,Tarrant County,TX,86.62162162162163,NA
75061,Dallas County,TX,50.06756756756757,NA
75071,Collin County,TX,25.60810810810811,NA
75089,Dallas County,TX,84.93243243243244,NA
75110,Navarro County,TX,72.97297297297297,NA
75115,Dallas County,TX,20,NA
75119,Ellis County,TX,NA,71.15902964959568
75144,Navarro County,TX,99.5945945945946,NA
75180,Dallas County,TX,65.94594594594595,NA
75241,Dallas County,TX,NA,36.92722371967655
75462,Lamar County,TX,87.56756756756758,NA
75482,Hopkins County,TX,83.3108108108108,NA
75783,Wood County,TX,96.14864864864865,NA
76012,Tarrant County,TX,45.81081081081081,NA
76028,Johnson County,TX,NA,3.5040431266846364
76051,Tarrant County,TX,29.324324324324323,39.083557951482476
76112,Tarrant County,TX,12.027027027027028,NA
76123,Tarrant County,TX,44.932432432432435,NA
76126,Tarrant County,TX,NA,75.47169811320755
76133,Tarrant County,TX,16.554054054054053,NA
76227,Denton County,TX,86.6891891891892,NA
76248,Tarrant County,TX,NA,47.7088948787062
76309,Wichita County,TX,75.74324324324324,NA
76401,Erath County,TX,61.21621621621621,NA
76426,Wise County,TX,95.4054054054054,NA
76543,Bell County,TX,25.472972972972975,NA
76567,Milam County,TX,84.66216216216216,NA
76574,Williamson County,TX,NA,60.91644204851752
76642,Limestone County,TX,69.86486486486486,NA
76657,McLennan County,TX,NA,93.80053908355795
77005,Harris County,TX,NA,58.760107816711596
77007,Harris County,TX,51.21621621621622,NA
77009,Harris County,TX,43.91891891891892,NA
77015,Harris County,TX,37.22972972972973,NA
77017,Harris County,TX,NA,63.342318059299195
77044,Harris County,TX,33.98648648648649,NA
77049,Harris County,TX,64.79729729729729,NA
77061,Harris County,TX,72.16216216216216,NA
77062,Harris County,TX,83.91891891891892,NA
77064,Harris County,TX,33.44594594594595,NA
77070,Harris County,TX,NA,25.60646900269542
77077,Harris County,TX,42.432432432432435,NA
77083,Harris County,TX,NA,30.18867924528302
77084,Harris County,TX,38.31081081081081,NA
77088,Harris County,TX,27.56756756756757,NA
77090,Harris County,TX,61.35135135135135,NA
77093,Harris County,TX,40.81081081081081,NA
77327,Liberty County,TX,64.12162162162161,NA
77355,Montgomery County,TX,58.31081081081081,NA
77375,Harris County,TX,19.39189189189189,NA
77377,Harris County,TX,42.027027027027025,NA
77380,Montgomery County,TX,NA,61.725067385444746
77385,Montgomery County,TX,59.797297297297305,NA
77386,Montgomery County,TX,66.14864864864865,NA
77388,Harris County,TX,NA,38.00539083557952
77429,Harris County,TX,37.63513513513514,NA
77433,Harris County,TX,11.081081081081082,NA
77449,Harris County,TX,10.405405405405405,NA
77469,Fort Bend County,TX,26.216216216216214,NA
77484,Waller County,TX,91.6891891891892,NA
77493,Harris County,TX,60.47297297297297,NA
77494,Fort Bend County,TX,46.554054054054056,NA
77502,Harris County,TX,52.09459459459459,NA
77546,Galveston County,TX,58.513513513513516,NA
77573,Galveston County,TX,8.64864864864865,4.31266846361186
77587,Harris County,TX,NA,80.86253369272237
77640,Jefferson County,TX,59.39189189189189,NA
77642,Jefferson County,TX,26.554054054054056,NA
77651,Jefferson County,TX,88.58108108108108,NA
77657,Hardin County,TX,56.554054054054056,NA
77840,Brazos County,TX,42.63513513513513,NA
77864,Madison County,TX,98.91891891891892,NA
77962,Jackson County,TX,99.66216216216216,NA
78045,Webb County,TX,72.70270270270271,36.118598382749326
78046,Webb County,TX,14.121621621621621,NA
78119,Karnes County,TX,NA,97.03504043126685
78124,Guadalupe County,TX,95.87837837837839,NA
78155,Guadalupe County,TX,56.28378378378378,NA
78207,Bexar County,TX,18.243243243243242,NA
78213,Bexar County,TX,44.391891891891895,NA
78227,Bexar County,TX,34.18918918918919,NA
78230,Bexar County,TX,NA,61.18598382749326
78233,Bexar County,TX,39.52702702702703,57.41239892183289
78242,Bexar County,TX,46.62162162162162,NA
78250,Bexar County,TX,40.33783783783784,NA
78260,Bexar County,TX,92.63513513513514,NA
78539,Hidalgo County,TX,83.44594594594594,NA
78542,Hidalgo County,TX,39.45945945945946,NA
78573,Hidalgo County,TX,53.44594594594595,NA
78589,Hidalgo County,TX,70.47297297297297,NA
78664,Williamson County,TX,42.972972972972975,NA
78666,Hays County,TX,24.594594594594597,NA
78703,Travis County,TX,94.52702702702702,NA
78731,Travis County,TX,96.62162162162163,NA
78746,Travis County,TX,75.13513513513513,NA
78957,Bastrop County,TX,87.63513513513513,NA
79119,Randall County,TX,82.70270270270271,NA
79364,Lubbock County,TX,89.5945945945946,NA
79404,Lubbock County,TX,74.93243243243242,NA
79423,Lubbock County,TX,26.959459459459463,NA
79424,Lubbock County,TX,23.58108108108108,NA
79707,Midland County,TX,NA,78.16711590296495
79720,Howard County,TX,50.608108108108105,NA
79764,Ector County,TX,54.25675675675675,NA
79836,El Paso County,TX,97.97297297297297,NA
79902,El Paso County,TX,86.21621621621621,NA
79912,El Paso County,TX,24.12162162162162,NA
79928,El Paso County,TX,47.36486486486486,NA
79932,El Paso County,TX,82.02702702702702,NA
84029,Tooele County,UT,57.90540540540541,NA
84040,Davis County,UT,NA,87.6010781671159
84058,Utah County,UT,81.82432432432432,NA
84074,Tooele County,UT,18.445945945945947,NA
84078,Uintah County,UT,14.527027027027026,NA
84092,Salt Lake County,UT,65.81081081081082,NA
84095,Salt Lake County,UT,NA,66.57681940700809
84118,Salt Lake County,UT,15.54054054054054,NA
84121,Salt Lake County,UT,38.91891891891892,NA
84606,Utah County,UT,87.36486486486487,NA
84655,Utah County,UT,91.75675675675676,NA
84738,Washington County,UT,94.05405405405406,NA
05401,Chittenden County,VT,48.04054054054054,NA
05602,Washington County,VT,62.22972972972973,NA
05701,Rutland County,VT,NA,10.512129380053908
20141,Loudoun County,VA,98.58108108108108,NA
20147,Loudoun County,VA,35.33783783783784,NA
20155,Prince William County,VA,NA,48.78706199460917
20169,Prince William County,VA,79.32432432432432,NA
20171,Fairfax County,VA,49.72972972972973,NA
20181,Prince William County,VA,95.87837837837839,NA
22026,Prince William County,VA,63.17567567567568,NA
22030,Fairfax County,VA,27.837837837837835,NA
22042,Fairfax County,VA,50.20270270270271,NA
22101,Fairfax County,VA,51.01351351351351,NA
22102,Fairfax County,VA,74.12162162162163,NA
22152,Fairfax County,VA,54.25675675675675,70.61994609164421
22181,Fairfax County,VA,89.3918918918919,NA
22202,Arlington County,VA,75.20270270270271,NA
22204,Arlington County,VA,84.52702702702702,NA
22207,Arlington County,VA,52.02702702702703,NA
22301,Alexandria city,VA,90.4054054054054,NA
22303,Fairfax County,VA,72.43243243243244,NA
22406,Stafford County,VA,82.2972972972973,NA
22407,Spotsylvania County,VA,15.945945945945947,NA
22801,Harrisonburg city,VA,40.60810810810811,NA
22901,Albemarle County,VA,30.675675675675674,NA
23114,Chesterfield County,VA,NA,69.00269541778977
23116,Hanover County,VA,63.85135135135135,NA
23117,Louisa County,VA,NA,59.299191374663074
23220,Richmond city,VA,61.55405405405405,NA
23223,Henrico County,VA,2.9729729729729732,NA
23231,Henrico County,VA,20.81081081081081,NA
23234,Chesterfield County,VA,50.472972972972975,NA
23322,Chesapeake city,VA,52.972972972972975,NA
23323,Chesapeake city,VA,32.36486486486487,NA
23324,Chesapeake city,VA,38.37837837837838,NA
23435,Suffolk city,VA,46.82432432432432,NA
23454,Virginia Beach city,VA,26.824324324324323,NA
23502,Norfolk city,VA,67.0945945945946,NA
23504,Norfolk city,VA,23.85135135135135,NA
23505,Norfolk city,VA,36.55405405405405,NA
23513,Norfolk city,VA,48.71621621621622,NA
23701,Portsmouth city,VA,NA,25.067385444743934
23803,Petersburg city,VA,10.743243243243244,NA
23831,Chesterfield County,VA,35.270270270270274,NA
23860,Hopewell city,VA,28.716216216216218,NA
23970,Mecklenburg County,VA,65.67567567567568,NA
24101,Franklin County,VA,NA,85.17520215633422
24224,Russell County,VA,76.55405405405405,NA
24279,Wise County,VA,NA,96.7654986522911
24333,Galax city,VA,45.608108108108105,NA
24441,Rockingham County,VA,75.74324324324324,NA
24502,Lynchburg city,VA,NA,89.75741239892183
24551,Bedford County,VA,83.04054054054055,NA
24592,Halifax County,VA,26.486486486486488,NA
98001,King County,WA,40.2027027027027,NA
98006,King County,WA,56.82432432432433,NA
98007,King County,WA,81.75675675675676,NA
98033,King County,WA,63.44594594594595,NA
98038,King County,WA,31.554054054054053,NA
98042,King County,WA,15.202702702702704,NA
98045,King County,WA,81.21621621621622,NA
98052,King County,WA,NA,21.293800539083556
98056,King County,WA,54.18918918918919,NA
98058,King County,WA,29.45945945945946,NA
98109,King County,WA,58.581081081081074,NA
98121,King County,WA,NA,68.19407008086253
98122,King County,WA,57.027027027027025,NA
98155,King County,WA,NA,88.67924528301887
98177,King County,WA,70.74324324324324,NA
98223,Snohomish County,WA,21.891891891891895,NA
98233,Skagit County,WA,80.87837837837839,NA
98270,Snohomish County,WA,NA,69.2722371967655
98277,Island County,WA,45.13513513513514,NA
98296,Snohomish County,WA,43.445945945945944,NA
98349,Pierce County,WA,NA,92.99191374663073
98367,Kitsap County,WA,76.75675675675676,NA
98375,Pierce County,WA,88.85135135135135,NA
98391,Pierce County,WA,12.905405405405403,NA
98405,Pierce County,WA,30.067567567567565,NA
98407,Pierce County,WA,68.44594594594594,NA
98408,Pierce County,WA,59.25675675675676,NA
98444,Pierce County,WA,32.7027027027027,NA
98528,Mason County,WA,93.10810810810811,NA
98607,Clark County,WA,77.16216216216216,NA
98671,Clark County,WA,83.04054054054055,NA
98682,Clark County,WA,58.31081081081081,NA
98908,Yakima County,WA,35.54054054054054,NA
99021,Spokane County,WA,93.78378378378378,NA
99114,Stevens County,WA,78.71621621621621,NA
99224,Spokane County,WA,NA,76.81940700808624
99301,Franklin County,WA,54.864864864864856,NA
99320,Benton County,WA,85.54054054054055,NA
99336,Benton County,WA,38.85135135135135,NA
99352,Benton County,WA,84.12162162162163,NA
20001,District of Columbia,DC,18.31081081081081,NA
20010,District of Columbia,DC,51.95945945945945,NA
20020,District of Columbia,DC,NA,7.816711590296496
25123,Mason County,WV,99.93243243243242,NA
25143,Kanawha County,WV,60.67567567567568,NA
25510,Cabell County,WV,NA,94.33962264150944
25801,Raleigh County,WV,NA,43.66576819407008
26250,Barbour County,WV,94.25675675675676,NA
26354,Taylor County,WV,47.97297297297297,NA
26508,Monongalia County,WV,4.054054054054054,NA
26554,Marion County,WV,3.445945945945946,NA
26601,Braxton County,WV,NA,89.4878706199461
53010,Fond du Lac County,WI,NA,91.37466307277629
53012,Ozaukee County,WI,80.54054054054053,82.47978436657682
53066,Waukesha County,WI,37.0945945945946,NA
53081,Sheboygan County,WI,14.391891891891891,NA
53090,Washington County,WI,85.47297297297297,53.908355795148246
53128,Walworth County,WI,88.3108108108108,NA
53143,Kenosha County,WI,16.14864864864865,NA
53150,Waukesha County,WI,64.45945945945945,NA
53172,Milwaukee County,WI,68.44594594594594,NA
53186,Waukesha County,WI,25.06756756756757,NA
53204,Milwaukee County,WI,5.540540540540541,NA
53208,Milwaukee County,WI,36.75675675675676,NA
53210,Milwaukee County,WI,6.5540540540540535,NA
53211,Milwaukee County,WI,NA,22.911051212938006
53212,Milwaukee County,WI,12.364864864864865,NA
53213,Milwaukee County,WI,48.64864864864865,NA
53215,Milwaukee County,WI,3.7162162162162162,NA
53220,Milwaukee County,WI,NA,26.954177897574123
53405,Racine County,WI,5.0675675675675675,NA
53406,Racine County,WI,12.972972972972974,2.4258760107816713
53546,Rock County,WI,NA,4.0431266846361185
53548,Rock County,WI,22.635135135135133,NA
53562,Dane County,WI,73.64864864864865,NA
53566,Green County,WI,NA,85.71428571428571
53711,Dane County,WI,30.54054054054054,NA
54016,St. Croix County,WI,43.851351351351354,NA
54151,Marinette County,WI,76.48648648648648,NA
54304,Brown County,WI,NA,49.59568733153639
54484,Marathon County,WI,100,NA
54494,Wood County,WI,28.31081081081081,NA
54501,Oneida County,WI,49.45945945945946,NA
54656,Monroe County,WI,45.94594594594595,NA
54701,Eau Claire County,WI,NA,22.10242587601078
54703,Eau Claire County,WI,19.054054054054053,NA
54880,Douglas County,WI,13.31081081081081,NA
54902,Winnebago County,WI,52.22972972972973,NA
54913,Outagamie County,WI,82.97297297297297,NA
54915,Outagamie County,WI,81.48648648648648,NA
