ZipCode,county,state,Adult
36863,Chambers County,AL,82.5910931174089
85016,Maricopa County,AZ,52.226720647773284
85023,Maricopa County,AZ,32.79352226720648
85027,Maricopa County,AZ,49.797570850202426
85031,Maricopa County,AZ,58.2995951417004
85142,Maricopa County,AZ,9.7165991902834
85212,Maricopa County,AZ,65.18218623481782
85226,Maricopa County,AZ,85.02024291497976
85303,Maricopa County,AZ,59.51417004048582
85304,Maricopa County,AZ,60.72874493927125
85353,Maricopa County,AZ,41.70040485829959
85552,Graham County,AZ,88.25910931174089
85714,Pima County,AZ,71.65991902834008
86323,Yavapai County,AZ,60.32388663967612
72204,Pulaski County,AR,59.91902834008097
72764,Washington County,AR,45.74898785425101
90007,Los Angeles County,CA,34.41295546558704
90011,Los Angeles County,CA,65.9919028340081
90018,Los Angeles County,CA,45.34412955465587
90221,Los Angeles County,CA,10.121457489878543
90274,Los Angeles County,CA,96.76113360323887
90620,Orange County,CA,57.89473684210527
90732,Los Angeles County,CA,86.63967611336032
91390,Los Angeles County,CA,88.66396761133603
91402,Los Angeles County,CA,31.17408906882591
91745,Los Angeles County,CA,73.68421052631578
92101,San Diego County,CA,15.789473684210526
92173,San Diego County,CA,70.44534412955466
92260,Riverside County,CA,63.1578947368421
92646,Orange County,CA,66.80161943319838
92688,Orange County,CA,43.7246963562753
93292,Tulare County,CA,49.392712550607285
93306,Kern County,CA,21.86234817813765
93454,Santa Barbara County,CA,38.05668016194332
93635,Merced County,CA,48.582995951417004
93720,Fresno County,CA,42.10526315789473
93926,Monterey County,CA,99.19028340080972
94085,Santa Clara County,CA,90.68825910931174
94103,San Francisco County,CA,12.955465587044534
94109,San Francisco County,CA,34.0080971659919
94509,Contra Costa County,CA,23.076923076923077
94602,Alameda County,CA,83.40080971659918
94603,Alameda County,CA,55.87044534412956
94709,Alameda County,CA,99.59514170040485
95356,Stanislaus County,CA,78.13765182186235
95358,Stanislaus County,CA,70.04048582995951
95370,Tuolumne County,CA,30.364372469635626
96001,Shasta County,CA,61.943319838056674
96080,Tehama County,CA,51.417004048582996
80010,Arapahoe County,CO,19.838056680161944
80017,Arapahoe County,CO,46.963562753036435
80109,Douglas County,CO,76.51821862348179
80215,Jefferson County,CO,71.25506072874494
80751,Logan County,CO,50.607287449392715
81505,Mesa County,CO,91.49797570850203
06790,Litchfield County,CT,4.4534412955465585
19701,New Castle County,DE,31.983805668016196
32208,Duval County,FL,0.4048582995951417
32304,Leon County,FL,63.56275303643725
32444,Bay County,FL,75.7085020242915
32506,Escambia County,FL,15.384615384615385
32804,Orange County,FL,86.63967611336032
32808,Orange County,FL,16.194331983805668
32824,Orange County,FL,51.417004048582996
32958,Indian River County,FL,74.89878542510121
33133,Miami-Dade County,FL,96.35627530364373
33165,Miami-Dade County,FL,67.61133603238866
33308,Broward County,FL,82.18623481781377
33407,Palm Beach County,FL,35.22267206477733
33442,Broward County,FL,84.61538461538461
33612,Hillsborough County,FL,11.336032388663968
33705,Pinellas County,FL,69.23076923076923
33759,Pinellas County,FL,92.3076923076923
34116,Collier County,FL,57.08502024291497
34786,Orange County,FL,64.77732793522267
34951,St. Lucie County,FL,87.4493927125506
30041,Forsyth County,GA,33.198380566801625
30046,Gwinnett County,GA,56.68016194331984
30341,DeKalb County,GA,75.7085020242915
30577,Stephens County,GA,53.84615384615385
30740,Whitfield County,GA,89.87854251012146
30815,Richmond County,GA,22.267206477732792
96734,Honolulu County,HI,44.534412955465584
96822,Honolulu County,HI,47.77327935222672
60033,McHenry County,IL,76.92307692307693
60123,Kane County,IL,22.672064777327936
60404,Will County,IL,53.036437246963565
60565,DuPage County,IL,38.46153846153847
60653,Cook County,IL,35.62753036437247
61614,Peoria County,IL,79.35222672064778
62231,Clinton County,IL,93.92712550607287
62521,Macon County,IL,13.360323886639677
62568,Christian County,IL,80.5668016194332
62702,Sangamon County,IL,29.959514170040485
46176,Shelby County,IN,17.00404858299595
46224,Marion County,IN,39.27125506072874
47374,Wayne County,IN,23.481781376518217
40160,Hardin County,KY,40.08097165991903
40211,Jefferson County,KY,14.5748987854251
40741,Laurel County,KY,23.88663967611336
41016,Kenton County,KY,85.4251012145749
42345,Muhlenberg County,KY,62.75303643724697
70805,East Baton Rouge Parish,LA,2.0242914979757085
71052,De Soto Parish,LA,46.15384615384615
71107,Caddo Parish,LA,2.42914979757085
20636,St. Mary's County,MD,90.2834008097166
21001,Harford County,MD,69.63562753036437
21104,Carroll County,MD,97.57085020242914
21133,Baltimore County,MD,66.39676113360325
21213,Baltimore city,MD,20.647773279352226
21401,Anne Arundel County,MD,27.530364372469634
01201,Berkshire County,MA,0
01450,Middlesex County,MA,75.30364372469636
01571,Worcester County,MA,36.032388663967616
01862,Middlesex County,MA,54.655870445344135
01915,Essex County,MA,80.97165991902834
02122,Suffolk County,MA,10.526315789473683
02472,Middlesex County,MA,6.0728744939271255
02601,Barnstable County,MA,3.2388663967611335
02770,Plymouth County,MA,98.38056680161942
48183,Wayne County,MI,8.097165991902834
48195,Wayne County,MI,24.696356275303643
48204,Wayne County,MI,9.31174089068826
48224,Wayne County,MI,1.214574898785425
48306,Oakland County,MI,51.012145748987855
48471,Sanilac County,MI,80.16194331983806
48503,Genesee County,MI,19.4331983805668
48507,Genesee County,MI,8.906882591093117
48611,Bay County,MI,91.90283400809717
48617,Clare County,MI,77.32793522267207
48723,Tuscola County,MI,32.388663967611336
48801,Gratiot County,MI,56.2753036437247
49508,Kent County,MI,4.048582995951417
49519,Kent County,MI,17.813765182186234
55129,Washington County,MN,78.94736842105263
55303,Anoka County,MN,19.02834008097166
55444,Hennepin County,MN,64.37246963562752
55811,St. Louis County,MN,36.84210526315789
56187,Nobles County,MN,94.73684210526315
56401,Crow Wing County,MN,8.502024291497975
56501,Becker County,MN,47.368421052631575
39452,George County,MS,28.74493927125506
63401,Marion County,MO,55.465587044534416
64134,Jackson County,MO,13.765182186234817
64138,Jackson County,MO,12.145748987854251
64801,Jasper County,MO,14.17004048582996
59718,Gallatin County,MT,43.31983805668016
68046,Sarpy County,NE,70.8502024291498
68136,Sarpy County,NE,86.23481781376519
89104,Clark County,NV,46.558704453441294
89436,Washoe County,NV,24.291497975708502
89706,Carson City,NV,68.42105263157895
07033,Union County,NJ,94.33198380566802
07039,Essex County,NJ,21.45748987854251
08043,Camden County,NJ,52.63157894736842
08835,Somerset County,NJ,57.48987854251012
08863,Middlesex County,NJ,73.27935222672065
10009,New York County,NY,6.882591093117409
10029,New York County,NY,3.643724696356275
10306,Richmond County,NY,20.242914979757085
10453,Bronx County,NY,5.263157894736842
11203,Kings County,NY,42.91497975708502
11561,Nassau County,NY,78.54251012145748
11575,Nassau County,NY,42.51012145748988
11694,Queens County,NY,92.71255060728745
11726,Suffolk County,NY,79.75708502024291
12123,Rensselaer County,NY,95.54655870445345
12524,Dutchess County,NY,89.06882591093117
13021,Cayuga County,NY,2.834008097165992
13790,Broome County,NY,7.6923076923076925
27012,Forsyth County,NC,37.24696356275304
27265,Guilford County,NC,21.052631578947366
27284,Forsyth County,NC,5.668016194331984
27407,Guilford County,NC,58.70445344129555
27606,Wake County,NC,55.06072874493927
27615,Wake County,NC,77.7327935222672
28083,Cabarrus County,NC,34.81781376518219
28117,Iredell County,NC,36.43724696356275
28210,Mecklenburg County,NC,60.72874493927125
28211,Mecklenburg County,NC,37.65182186234818
28734,Macon County,NC,18.218623481781375
28787,Buncombe County,NC,72.06477732793523
43040,Union County,OH,27.93522267206478
43207,Franklin County,OH,0.8097165991902834
44128,Cuyahoga County,OH,1.6194331983805668
44203,Summit County,OH,4.8582995951417
44240,Portage County,OH,31.57894736842105
44410,Trumbull County,OH,44.12955465587044
44440,Trumbull County,OH,91.09311740890689
44609,Mahoning County,OH,98.78542510121457
44706,Stark County,OH,40.89068825910931
44714,Stark County,OH,72.8744939271255
45240,Hamilton County,OH,26.720647773279353
45404,Montgomery County,OH,61.53846153846154
45651,Vinton County,OH,82.99595141700405
45714,Washington County,OH,18.62348178137652
73401,Carter County,OK,14.979757085020243
97058,Wasco County,OR,48.178137651821864
97080,Multnomah County,OR,25.506072874493928
97537,Jackson County,OR,85.82995951417004
15042,Beaver County,PA,87.85425101214574
15132,Allegheny County,PA,12.550607287449392
15227,Allegheny County,PA,44.93927125506073
17543,Lancaster County,PA,63.96761133603239
19007,Bucks County,PA,25.910931174089068
19082,Delaware County,PA,10.931174089068826
19148,Philadelphia County,PA,6.477732793522267
02911,Providence County,RI,72.46963562753037
29485,Dorchester County,SC,68.0161943319838
37208,Davidson County,TN,28.34008097165992
37218,Davidson County,TN,59.10931174089069
37309,McMinn County,TN,100
37645,Hawkins County,TN,93.11740890688259
37721,Knox County,TN,74.49392712550608
37774,Loudon County,TN,53.441295546558706
37920,Knox County,TN,11.740890688259109
38060,Fayette County,TN,93.52226720647774
38127,Shelby County,TN,7.28744939271255
75126,Kaufman County,TX,38.8663967611336
75208,Dallas County,TX,68.82591093117408
75941,Angelina County,TX,95.95141700404858
76109,Tarrant County,TX,65.58704453441295
76244,Tarrant County,TX,27.125506072874494
77066,Harris County,TX,74.08906882591093
77091,Harris County,TX,62.34817813765182
77354,Montgomery County,TX,81.37651821862349
77571,Harris County,TX,33.198380566801625
78613,Williamson County,TX,41.29554655870445
78645,Travis County,TX,97.97570850202429
78660,Travis County,TX,30.76923076923077
78729,Williamson County,TX,81.78137651821862
78751,Travis County,TX,97.16599190283401
79938,El Paso County,TX,39.67611336032389
84093,Salt Lake County,UT,83.80566801619433
84107,Salt Lake County,UT,48.987854251012145
84108,Salt Lake County,UT,89.47368421052632
22079,Fairfax County,VA,50.20242914979757
22701,Culpeper County,VA,29.1497975708502
23464,Virginia Beach city,VA,17.408906882591094
24017,Roanoke city,VA,25.101214574898783
98204,Snohomish County,WA,29.554655870445345
98335,Pierce County,WA,67.20647773279353
99003,Spokane County,WA,95.1417004048583
25425,Jefferson County,WV,84.21052631578947
25701,Cabell County,WV,16.599190283400812
53548,Rock County,WI,26.31578947368421
54115,Brown County,WI,54.25101214574899
54729,Chippewa County,WI,40.48582995951417
