ZipCode,county,state,Youth,Pediatric
35010,Tallapoosa County,AL,50.44035228182546,NA
35023,Jefferson County,AL,30.66453162530024,NA
35054,St. Clair County,AL,91.43314651721377,NA
35080,Shelby County,AL,41.71337069655724,NA
35211,Jefferson County,AL,48.83907125700561,NA
35216,Jefferson County,AL,38.27061649319455,NA
35504,Walker County,AL,58.60688550840673,NA
35611,Limestone County,AL,17.373899119295437,NA
35613,Limestone County,AL,34.98799039231385,NA
35670,Morgan County,AL,72.45796637309849,NA
35901,Etowah County,AL,37.710168134507605,NA
36027,Barbour County,AL,NA,34.26966292134831
36272,Calhoun County,AL,66.61329063250601,NA
36278,Randolph County,AL,93.1945556445156,NA
36303,Houston County,AL,28.502802241793436,NA
36618,Mobile County,AL,69.33546837469976,NA
36701,Dallas County,AL,23.378702962369896,NA
36830,Lee County,AL,56.6853482786229,NA
99654,Matanuska-Susitna Borough,AK,32.1857485988791,NA
99835,Sitka City and Borough,AK,31.785428342674138,NA
85008,Maricopa County,AZ,7.606084867894316,NA
85016,Maricopa County,AZ,8.486789431545235,NA
85021,Maricopa County,AZ,28.903122497998403,NA
85132,Pinal County,AZ,59.887910328262606,NA
85138,Pinal County,AZ,21.857485988791034,NA
85140,Pinal County,AZ,47.71817453963171,NA
85209,Maricopa County,AZ,26.10088070456365,NA
85213,Maricopa County,AZ,65.65252201761409,NA
85249,Maricopa County,AZ,27.862289831865496,NA
85296,Maricopa County,AZ,31.30504403522818,NA
85306,Maricopa County,AZ,68.454763811048835,NA
85308,Maricopa County,AZ,18.57485988791033,NA
85365,Yuma County,AZ,25.540432345876702,NA
85631,Pinal County,AZ,97.51801441152922,NA
85635,Cochise County,AZ,51.00080064051241,NA
85718,Pima County,AZ,47.71817453963171,NA
86326,Yavapai County,AZ,25.300240192153723,NA
86401,Mohave County,AZ,18.975180144115292,NA
72023,Lonoke County,AR,37.710168134507605,NA
72076,Pulaski County,AR,39.47157726180945,NA
72112,Jackson County,AR,93.11449159327462,NA
72653,Baxter County,AR,86.14891913530825,NA
72718,Benton County,AR,97.59807846277022,NA
72855,Logan County,AR,95.75660528422738,NA
72908,Sebastian County,AR,84.4675740592474,NA
90001,Los Angeles County,CA,42.91433146517214,23.03370786516854
90012,Los Angeles County,CA,75.5004003202562,NA
90023,Los Angeles County,CA,44.19535628502802,26.40449438202247
90031,Los Angeles County,CA,70.13610888710969,NA
90038,Los Angeles County,CA,94.23538831064852,NA
90041,Los Angeles County,CA,80.22417934347477,NA
90064,Los Angeles County,CA,66.21297037630104,NA
90221,Los Angeles County,CA,32.826261008807045,NA
90240,Los Angeles County,CA,NA,83.14606741573034
90241,Los Angeles County,CA,82.46597277822258,NA
90245,Los Angeles County,CA,89.19135308246598,NA
90247,Los Angeles County,CA,46.51721377101681,NA
90630,Orange County,CA,37.30984787830264,NA
90703,Los Angeles County,CA,64.21136909527621,NA
90744,Los Angeles County,CA,49.9599679743795,NA
90808,Los Angeles County,CA,13.851080864691752,NA
91001,Los Angeles County,CA,70.45636509207365,NA
91040,Los Angeles County,CA,97.19775820656525,NA
91204,Los Angeles County,CA,98.71897518014411,NA
91304,Los Angeles County,CA,70.13610888710969,NA
91311,Los Angeles County,CA,54.84387510008006,NA
91342,Los Angeles County,CA,22.497998398718973,NA
91377,Ventura County,CA,90.79263410728583,NA
91381,Los Angeles County,CA,71.97758206565253,NA
91504,Los Angeles County,CA,NA,88.20224719101124
91706,Los Angeles County,CA,67.89431545236188,NA
91737,San Bernardino County,CA,89.35148118494796,NA
91762,San Bernardino County,CA,27.862289831865496,NA
91766,Los Angeles County,CA,NA,15.168539325842698
91792,Los Angeles County,CA,87.8302642113691,NA
92011,San Diego County,CA,69.81585268214572,NA
92040,San Diego County,CA,47.23779023218575,NA
92078,San Diego County,CA,46.99759807846277,NA
92083,San Diego County,CA,42.1937550040032,NA
92201,Riverside County,CA,19.295436349079264,NA
92234,Riverside County,CA,72.77822257806244,NA
92236,Riverside County,CA,52.602081665332264,NA
92240,Riverside County,CA,NA,38.764044943820224
92311,San Bernardino County,CA,75.98078462770216,NA
92377,San Bernardino County,CA,89.35148118494796,NA
92404,San Bernardino County,CA,NA,14.606741573033707
92503,Riverside County,CA,38.03042433947157,NA
92508,Riverside County,CA,85.58847077662129,NA
92543,Riverside County,CA,63.971176941553246,NA
92544,Riverside County,CA,40.832666132906326,NA
92571,Riverside County,CA,79.42353883106486,NA
92592,Riverside County,CA,NA,64.60674157303372
92627,Orange County,CA,43.15452361889512,NA
92647,Orange County,CA,39.55164131305044,NA
92701,Orange County,CA,58.76701361088871,NA
92706,Orange County,CA,67.89431545236188,NA
92782,Orange County,CA,83.58686949559647,NA
92805,Orange County,CA,69.33546837469976,NA
92879,Riverside County,CA,78.70296236989591,NA
92881,Riverside County,CA,83.82706164931946,NA
93030,Ventura County,CA,11.849479583666934,NA
93033,Ventura County,CA,15.692554043234589,NA
93250,Kern County,CA,74.77982385908727,NA
93305,Kern County,CA,70.69655724579663,NA
93550,Los Angeles County,CA,44.59567654123299,NA
93638,Madera County,CA,5.844675740592474,NA
93657,Fresno County,CA,27.862289831865496,NA
93720,Fresno County,CA,24.579663730984787,NA
93722,Fresno County,CA,3.362690152121697,NA
93725,Fresno County,CA,44.99599679743795,NA
93726,Fresno County,CA,61.0088070456365,NA
93727,Fresno County,CA,37.950360288230584,NA
93905,Monterey County,CA,56.925540432345876,NA
93907,Monterey County,CA,NA,69.66292134831461
93955,Monterey County,CA,45.556445156124894,NA
94015,San Mateo County,CA,61.569255404323464,NA
94065,San Mateo County,CA,97.67814251401121,NA
94115,San Francisco County,CA,79.50360288230584,NA
94134,San Francisco County,CA,42.75420336269015,NA
94513,Contra Costa County,CA,22.65812650120096,NA
94533,Solano County,CA,71.0968775020016,NA
94546,Alameda County,CA,56.204963971176944,NA
94550,Alameda County,CA,NA,97.75280898876404
94582,Contra Costa County,CA,59.167333867093674,NA
94598,Contra Costa County,CA,63.730984787830266,NA
94603,Alameda County,CA,NA,31.46067415730337
94605,Alameda County,CA,55.40432345876701,NA
94621,Alameda County,CA,35.6285028022418,NA
94702,Alameda County,CA,91.83346677341873,NA
94904,Marin County,CA,73.97918334667735,NA
94928,Sonoma County,CA,81.02481985588472,79.7752808988764
94941,Marin County,CA,24.179343474779824,NA
94954,Sonoma County,CA,76.30104083266613,NA
95003,Santa Cruz County,CA,82.06565252201761,NA
95020,Santa Clara County,CA,74.3795036028823,NA
95032,Santa Clara County,CA,79.02321857485988,NA
95220,San Joaquin County,CA,88.31064851881504,NA
95322,Merced County,CA,87.26981585268214,NA
95348,Merced County,CA,17.7742193755004,NA
95354,Stanislaus County,CA,NA,36.51685393258427
95358,Stanislaus County,CA,42.514011208967176,NA
95360,Stanislaus County,CA,90.0720576461169,NA
95376,San Joaquin County,CA,79.74379503602881,NA
95437,Mendocino County,CA,87.51000800640513,NA
95603,Placer County,CA,55.084067253803035,NA
95624,Sacramento County,CA,61.088871096877504,NA
95628,Sacramento County,CA,32.66613290632506,NA
95655,Sacramento County,CA,98.63891112890312,NA
95828,Sacramento County,CA,NA,47.19101123595505
95838,Sacramento County,CA,NA,65.73033707865169
95901,Yuba County,CA,30.98478783026421,NA
95953,Sutter County,CA,92.71417133706964,NA
95963,Glenn County,CA,NA,67.97752808988764
95965,Butte County,CA,63.570856685348275,NA
95966,Butte County,CA,26.180944755804642,NA
96094,Siskiyou County,CA,NA,93.82022471910112
96097,Siskiyou County,CA,87.9103282626101,NA
80010,Arapahoe County,CO,NA,15.730337078651685
80014,Arapahoe County,CO,23.77902321857486,NA
80027,Boulder County,CO,39.55164131305044,NA
80033,Jefferson County,CO,65.89271417133708,NA
80102,Adams County,CO,88.63090472377903,NA
80128,Jefferson County,CO,39.23138510808647,NA
80132,El Paso County,CO,69.33546837469976,NA
80138,Douglas County,CO,33.62690152121697,NA
80206,Denver County,CO,91.43314651721377,NA
80211,Denver County,CO,34.18734987990392,NA
80221,Adams County,CO,NA,12.921348314606742
80222,Denver County,CO,NA,86.51685393258427
80229,Adams County,CO,7.686148919135308,NA
80233,Adams County,CO,15.372297838270615,NA
80239,Denver County,CO,18.094475580464373,NA
80241,Adams County,CO,50.36028823058447,NA
80249,Denver County,CO,45.716573258606886,NA
80501,Boulder County,CO,30.424339471577262,NA
80537,Larimer County,CO,36.82946357085669,NA
80549,Larimer County,CO,NA,47.752808988764045
80602,Adams County,CO,7.926341072858286,NA
80751,Logan County,CO,37.06965572457966,NA
80910,El Paso County,CO,54.04323458767014,NA
80911,El Paso County,CO,25.380304243394715,NA
80915,El Paso County,CO,NA,61.79775280898876
80916,El Paso County,CO,49.31945556445156,NA
80920,El Paso County,CO,NA,67.97752808988764
81089,Huerfano County,CO,98.31865492393915,NA
81401,Montrose County,CO,NA,43.258426966292134
81403,Montrose County,CO,82.94635708566854,NA
81504,Mesa County,CO,NA,49.43820224719101
06002,Hartford County,CT,90.71257005604484,NA
06010,Hartford County,CT,4.803843074459568,NA
06112,Hartford County,CT,46.83746997598078,NA
06120,Hartford County,CT,61.40912730184147,NA
06260,Windham County,CT,40.99279423538831,NA
06401,New Haven County,CT,NA,42.13483146067416
06410,New Haven County,CT,57.245796637309844,NA
06424,Middlesex County,CT,76.30104083266613,NA
06443,New Haven County,CT,74.77982385908727,NA
06473,New Haven County,CT,61.809447558046436,NA
06484,Fairfield County,CT,70.85668534827863,NA
06519,New Haven County,CT,58.366693354683754,NA
06610,Fairfield County,CT,46.036829463570854,NA
06611,Fairfield County,CT,73.97918334667735,NA
06615,Fairfield County,CT,79.10328262610088,NA
06706,New Haven County,CT,77.34187349879905,NA
06708,New Haven County,CT,65.65252201761409,NA
06716,New Haven County,CT,68.454763811048835,74.15730337078652
06770,New Haven County,CT,58.12650120096077,NA
06854,Fairfield County,CT,74.61969575660528,NA
06878,Fairfield County,CT,88.951160928743,NA
06883,Fairfield County,CT,93.1945556445156,NA
19805,New Castle County,DE,5.684547638110488,NA
19950,Sussex County,DE,92.71417133706964,NA
19958,Sussex County,DE,49.9599679743795,NA
19966,Sussex County,DE,37.14971977582066,NA
19973,Sussex County,DE,36.34907926341073,NA
32034,Nassau County,FL,76.5412329863891,NA
32073,Clay County,FL,34.66773418734988,NA
32082,St. Johns County,FL,54.4435548438751,NA
32117,Volusia County,FL,69.17534027221778,NA
32148,Putnam County,FL,NA,58.42696629213483
32164,Flagler County,FL,35.22818254603683,23.03370786516854
32209,Duval County,FL,58.28662930344275,NA
32210,Duval County,FL,1.521216973578863,NA
32225,Duval County,FL,20.656525220176142,NA
32244,Duval County,FL,NA,8.98876404494382
32246,Duval County,FL,38.11048839071257,NA
32257,Duval County,FL,41.39311449159327,NA
32348,Taylor County,FL,72.45796637309849,NA
32503,Escambia County,FL,46.036829463570854,NA
32577,Escambia County,FL,78.30264211369095,NA
32583,Santa Rosa County,FL,19.615692554043235,NA
32680,Dixie County,FL,91.11289031224979,NA
32703,Orange County,FL,30.98478783026421,NA
32720,Volusia County,FL,69.81585268214572,NA
32725,Volusia County,FL,26.82145716573259,NA
32726,Lake County,FL,67.57405924739793,NA
32803,Orange County,FL,95.19615692554044,NA
32808,Orange County,FL,4.483586869495596,NA
32811,Orange County,FL,40.352281825460366,NA
32818,Orange County,FL,17.53402722177742,NA
32829,Orange County,FL,87.26981585268214,NA
32839,Orange County,FL,11.20896717373899,NA
32909,Brevard County,FL,NA,51.12359550561798
32955,Brevard County,FL,77.34187349879905,NA
33010,Miami-Dade County,FL,42.91433146517214,NA
33023,Broward County,FL,49.31945556445156,NA
33025,Broward County,FL,19.855884707766215,NA
33032,Miami-Dade County,FL,14.89191353082466,NA
33033,Miami-Dade County,FL,12.650120096076861,12.359550561797752
33056,Miami-Dade County,FL,20.816653322658127,NA
33065,Broward County,FL,70.61649319455564,NA
33125,Miami-Dade County,FL,24.09927942353883,NA
33126,Miami-Dade County,FL,51.72137710168134,NA
33133,Miami-Dade County,FL,80.78462770216173,NA
33142,Miami-Dade County,FL,15.852682145716573,NA
33147,Miami-Dade County,FL,50.28022417934348,NA
33150,Miami-Dade County,FL,49.31945556445156,NA
33156,Miami-Dade County,FL,77.90232185748599,NA
33162,Miami-Dade County,FL,68.77502001601282,NA
33170,Miami-Dade County,FL,68.21457165732586,NA
33175,Miami-Dade County,FL,18.65492393915132,NA
33177,Miami-Dade County,FL,16.97357886309047,NA
33185,Miami-Dade County,FL,53.803042433947155,NA
33193,Miami-Dade County,FL,53.08246597277822,NA
33321,Broward County,FL,78.38270616493195,NA
33323,Broward County,FL,90.55244195356285,NA
33404,Palm Beach County,FL,12.57005604483587,NA
33407,Palm Beach County,FL,21.537229783827062,21.910112359550563
33411,Palm Beach County,FL,56.76541232986389,NA
33414,Palm Beach County,FL,51.48118494795837,NA
33415,Palm Beach County,FL,46.83746997598078,NA
33498,Palm Beach County,FL,94.23538831064852,NA
33511,Hillsborough County,FL,8.646917534027223,NA
33523,Pasco County,FL,83.18654923939151,NA
33525,Pasco County,FL,61.809447558046436,NA
33578,Hillsborough County,FL,70.93674939951961,NA
33614,Hillsborough County,FL,NA,17.415730337078653
33619,Hillsborough County,FL,31.945556445156125,NA
33625,Hillsborough County,FL,67.25380304243394,NA
33705,Pinellas County,FL,64.85188150520416,NA
33713,Pinellas County,FL,51.881505204163325,NA
33765,Pinellas County,FL,NA,46.62921348314607
33770,Pinellas County,FL,77.662129703763,NA
33782,Pinellas County,FL,37.55004003202562,NA
33809,Polk County,FL,NA,52.80898876404494
33870,Highlands County,FL,63.17053642914331,NA
33936,Lee County,FL,57.886309047237795,NA
33950,Charlotte County,FL,NA,92.69662921348315
33974,Lee County,FL,NA,48.31460674157304
33976,Lee County,FL,71.97758206565253,NA
34113,Collier County,FL,75.74059247397919,NA
34120,Collier County,FL,29.62369895916733,NA
34207,Manatee County,FL,43.71497197758207,NA
34221,Manatee County,FL,45.716573258606886,NA
34236,Sarasota County,FL,93.1945556445156,NA
34237,Sarasota County,FL,75.5004003202562,NA
34291,Sarasota County,FL,92.07365892714171,NA
34420,Marion County,FL,40.27221777421938,NA
34429,Citrus County,FL,93.83506805444355,NA
34432,Marion County,FL,NA,91.01123595505618
34452,Citrus County,FL,95.91673338670937,NA
34471,Marion County,FL,60.848678943154525,NA
34715,Lake County,FL,66.77341873498798,NA
34741,Osceola County,FL,28.662930344275424,NA
34945,St. Lucie County,FL,99.83987189751802,NA
34952,St. Lucie County,FL,30.74459567654123,NA
34997,Martin County,FL,19.935948759007204,NA
30021,DeKalb County,GA,79.10328262610088,NA
30034,DeKalb County,GA,13.290632506004805,NA
30058,DeKalb County,GA,35.708566853482786,NA
30084,DeKalb County,GA,67.8142514011209,NA
30096,Gwinnett County,GA,27.622097678142516,NA
30101,Cobb County,GA,26.82145716573259,NA
30102,Cherokee County,GA,62.369895916733384,NA
30116,Carroll County,GA,48.03843074459568,NA
30143,Pickens County,GA,50.600480384307446,NA
30184,Bartow County,GA,97.99839871897518,NA
30189,Cherokee County,GA,68.21457165732586,NA
30204,Lamar County,GA,92.3138510808647,NA
30257,Lamar County,GA,NA,97.19101123595506
30268,Fulton County,GA,91.35308246597278,NA
30286,Upson County,GA,69.57566052842273,NA
30297,Clayton County,GA,NA,50.56179775280899
30311,Fulton County,GA,NA,29.775280898876407
30324,Fulton County,GA,85.74859887910328,NA
30467,Screven County,GA,NA,75.84269662921348
30519,Gwinnett County,GA,51.48118494795837,NA
30528,White County,GA,58.44675740592474,NA
30529,Jackson County,GA,69.01521216973579,NA
30643,Hart County,GA,NA,79.7752808988764
30650,Morgan County,GA,77.90232185748599,NA
30680,Barrow County,GA,34.02722177742194,NA
30705,Murray County,GA,27.622097678142516,NA
30707,Walker County,GA,54.4435548438751,NA
30728,Walker County,GA,53.803042433947155,NA
30736,Catoosa County,GA,49.639711769415534,NA
30814,Columbia County,GA,63.730984787830266,NA
31206,Bibb County,GA,26.58126501200961,NA
31210,Bibb County,GA,NA,60.67415730337079
31406,Chatham County,GA,42.514011208967176,NA
31407,Chatham County,GA,66.61329063250601,91.57303370786516
31601,Lowndes County,GA,27.22177742193755,NA
31757,Thomas County,GA,73.2586068855084,NA
31792,Thomas County,GA,59.48759007205765,59.55056179775281
31820,Muscogee County,GA,73.01841473178543,NA
31904,Muscogee County,GA,52.12169735788631,NA
39817,Decatur County,GA,81.82546036829463,50
96717,Honolulu County,HI,96.95756605284227,NA
96734,Honolulu County,HI,45.39631705364292,NA
96740,Hawaii County,HI,NA,52.24719101123596
96744,Honolulu County,HI,9.367493995196156,NA
96791,Honolulu County,HI,81.34507606084867,NA
96792,Honolulu County,HI,16.653322658126502,NA
96797,Honolulu County,HI,13.210568454763811,NA
96814,Honolulu County,HI,88.47077662129705,NA
96817,Honolulu County,HI,52.522017614091276,15.730337078651685
96822,Honolulu County,HI,52.361889511609284,NA
96825,Honolulu County,HI,55.004003202562046,NA
96826,Honolulu County,HI,79.82385908726981,NA
83330,Gooding County,ID,97.11769415532426,NA
83401,Bonneville County,ID,NA,6.179775280898876
83501,Nez Perce County,ID,40.51240992794236,NA
83536,Idaho County,ID,95.91673338670937,NA
83605,Canyon County,ID,7.045636509207366,NA
83687,Canyon County,ID,16.01281024819856,NA
60004,Cook County,IL,59.80784627702162,NA
60005,Cook County,IL,63.17053642914331,NA
60007,Cook County,IL,67.25380304243394,NA
60014,McHenry County,IL,35.22818254603683,NA
60016,Cook County,IL,52.12169735788631,NA
60033,McHenry County,IL,93.67493995196156,NA
60103,DuPage County,IL,32.986389111289036,NA
60124,Kane County,IL,61.72938350680545,NA
60126,DuPage County,IL,11.689351481184948,NA
60137,DuPage County,IL,24.819855884707767,NA
60140,Kane County,IL,85.10808646917533,NA
60143,DuPage County,IL,82.62610088070457,NA
60175,Kane County,IL,59.00720576461169,NA
60177,Kane County,IL,49.879903923138514,NA
60178,DeKalb County,IL,65.01200960768615,NA
60185,DuPage County,IL,12.489991993594876,NA
60188,DuPage County,IL,24.579663730984787,NA
60201,Cook County,IL,32.345876701361085,NA
60202,Cook County,IL,65.65252201761409,NA
60453,Cook County,IL,10.648518815052041,NA
60491,Will County,IL,64.61168935148119,NA
60510,Kane County,IL,38.27061649319455,NA
60515,DuPage County,IL,54.84387510008006,NA
60525,Cook County,IL,46.51721377101681,NA
60540,DuPage County,IL,20.97678142514011,NA
60543,Kendall County,IL,23.2986389111289,NA
60560,Kendall County,IL,47.71817453963171,NA
60607,Cook County,IL,58.76701361088871,NA
60611,Cook County,IL,95.19615692554044,NA
60614,Cook County,IL,68.454763811048835,NA
60618,Cook County,IL,6.645316253002402,NA
60622,Cook County,IL,36.50920736589271,NA
60638,Cook County,IL,14.251401120896718,NA
60643,Cook County,IL,20.97678142514011,NA
61008,Boone County,IL,56.52522017614091,NA
61111,Winnebago County,IL,41.313050440352285,NA
61571,Tazewell County,IL,95.43634907926342,NA
62966,Jackson County,IL,63.01040832666133,NA
46001,Madison County,IN,86.78943154523618,73.59550561797754
46017,Madison County,IN,79.50360288230584,NA
46041,Clinton County,IN,50.92073658927142,NA
46060,Hamilton County,IN,39.391513210568455,NA
46203,Marion County,IN,NA,20.224719101123593
46221,Marion County,IN,41.71337069655724,NA
46237,Marion County,IN,45.716573258606886,NA
46307,Lake County,IN,25.22017614091273,NA
46311,Lake County,IN,30.34427542033627,NA
46342,Lake County,IN,11.609287429943956,NA
46375,Lake County,IN,40.51240992794236,NA
46383,Porter County,IN,2.321857485988791,NA
46392,Jasper County,IN,75.10008006405124,NA
46408,Lake County,IN,35.708566853482786,NA
46506,Marshall County,IN,NA,94.3820224719101
46517,Elkhart County,IN,63.971176941553246,NA
46711,Adams County,IN,98.9591673338671,NA
46902,Howard County,IN,4.083266613290633,NA
47025,Dearborn County,IN,38.59087269815853,NA
47126,Clark County,IN,99.43955164131305,NA
47130,Clark County,IN,13.610888710968775,NA
47172,Clark County,IN,73.57886309047238,NA
47203,Bartholomew County,IN,43.39471577261809,64.60674157303372
47303,Delaware County,IN,71.73738991192954,NA
47330,Wayne County,IN,94.95596477181746,NA
47371,Jay County,IN,33.62690152121697,NA
47374,Wayne County,IN,5.604483586869495,NA
47404,Monroe County,IN,72.77822257806244,NA
47630,Warrick County,IN,66.45316253002403,NA
47807,Vigo County,IN,62.12970376301041,NA
47933,Montgomery County,IN,39.79183346677342,NA
50009,Polk County,IA,73.2586068855084,NA
50023,Polk County,IA,64.77181745396317,NA
50049,Lucas County,IA,91.83346677341873,NA
50213,Clarke County,IA,65.89271417133708,NA
50314,Polk County,IA,40.0320256204964,NA
50316,Polk County,IA,75.10008006405124,NA
50401,Cerro Gordo County,IA,2.8022417934347477,NA
50501,Webster County,IA,32.105684547638106,NA
51106,Woodbury County,IA,47.23779023218575,NA
51501,Pottawattamie County,IA,31.46517213771017,NA
52001,Dubuque County,IA,14.811849479583666,NA
52208,Benton County,IA,97.19775820656525,NA
52233,Linn County,IA,64.29143314651722,NA
52314,Linn County,IA,92.63410728582866,NA
52352,Linn County,IA,99.43955164131305,NA
52353,Washington County,IA,80.22417934347477,NA
52402,Linn County,IA,26.82145716573259,NA
52403,Linn County,IA,68.05444355484389,NA
52544,Appanoose County,IA,88.63090472377903,NA
52747,Cedar County,IA,94.95596477181746,NA
66061,Johnson County,KS,9.207365892714172,NA
67042,Butler County,KS,84.62770216172937,NA
67217,Sedgwick County,KS,29.943955164131303,NA
67218,Sedgwick County,KS,89.91192954363491,NA
40069,Washington County,KY,89.59167333867094,NA
40160,Hardin County,KY,NA,48.31460674157304
40165,Bullitt County,KY,44.99599679743795,NA
40175,Hardin County,KY,NA,38.764044943820224
40210,Jefferson County,KY,NA,33.146067415730336
40215,Jefferson County,KY,4.1633306645316255,NA
40218,Jefferson County,KY,22.017614091273018,NA
40220,Jefferson County,KY,79.66373098478783,NA
40258,Jefferson County,KY,NA,43.82022471910113
40324,Scott County,KY,32.02562049639712,NA
40330,Mercer County,KY,81.26501200960769,NA
40383,Woodford County,KY,71.73738991192954,NA
40505,Fayette County,KY,22.81825460368295,NA
40701,Whitley County,KY,34.66773418734988,NA
41017,Kenton County,KY,25.940752602081663,NA
41091,Boone County,KY,69.81585268214572,NA
41129,Boyd County,KY,73.97918334667735,NA
41175,Greenup County,KY,83.10648518815053,NA
41179,Lewis County,KY,90.23218574859888,NA
41230,Lawrence County,KY,NA,71.91011235955057
41522,Pike County,KY,97.03763010408326,91.57303370786516
42088,Graves County,KY,93.91513210568455,NA
42129,Metcalfe County,KY,NA,53.93258426966292
42141,Barren County,KY,NA,5.617977528089887
42301,Daviess County,KY,10.968775020016013,NA
70052,St. James Parish,LA,92.39391513210569,66.29213483146067
70056,Jefferson Parish,LA,45.956765412329865,NA
70065,Jefferson Parish,LA,1.200960768614892,NA
70070,St. Charles Parish,LA,28.34267413931145,NA
70072,Jefferson Parish,LA,0.16012810248198558,NA
70124,Orleans Parish,LA,76.30104083266613,NA
70127,Orleans Parish,LA,2.401921537229784,NA
70301,Lafourche Parish,LA,1.2810248198558847,NA
70344,Terrebonne Parish,LA,48.83907125700561,NA
70401,Tangipahoa Parish,LA,38.67093674939952,NA
70403,Tangipahoa Parish,LA,66.13290632506005,NA
70420,St. Tammany Parish,LA,60.28823058446757,NA
70433,St. Tammany Parish,LA,4.88390712570056,NA
70443,Tangipahoa Parish,LA,18.975180144115292,NA
70454,Tangipahoa Parish,LA,NA,2.8089887640449436
70461,St. Tammany Parish,LA,7.44595676541233,NA
70506,Lafayette Parish,LA,NA,6.741573033707865
70508,Lafayette Parish,LA,10.248198558847077,NA
70510,Vermilion Parish,LA,6.405124099279423,NA
70535,St. Landry Parish,LA,16.573258606885506,NA
70538,St. Mary Parish,LA,34.4275420336269,NA
70555,Vermilion Parish,LA,79.34347477982386,NA
70570,St. Landry Parish,LA,0.5604483586869495,NA
70592,Lafayette Parish,LA,12.970376301040831,NA
70605,Calcasieu Parish,LA,65.5724579663731,NA
70607,Calcasieu Parish,LA,18.494795836669336,NA
70663,Calcasieu Parish,LA,15.13210568454764,NA
70737,Ascension Parish,LA,15.052041633306645,NA
70754,Livingston Parish,LA,29.78382706164932,NA
70812,East Baton Rouge Parish,LA,41.39311449159327,NA
70815,East Baton Rouge Parish,LA,9.927942353883108,NA
71105,Caddo Parish,LA,NA,35.95505617977528
71112,Bossier Parish,LA,5.924739791833467,NA
71220,Morehouse Parish,LA,4.963971176941554,66.85393258426966
71225,Ouachita Parish,LA,67.57405924739793,NA
71295,Franklin Parish,LA,47.23779023218575,NA
03901,York County,ME,NA,71.91011235955057
04102,Cumberland County,ME,21.697357886309046,NA
04330,Kennebec County,ME,3.923138510808647,NA
04605,Hancock County,ME,55.084067253803035,NA
04976,Somerset County,ME,63.090472377902316,NA
20636,St. Mary's County,MD,94.55564451561249,NA
20772,Prince George's County,MD,81.74539631705365,NA
20783,Prince George's County,MD,83.98718975180144,NA
20817,Montgomery County,MD,72.45796637309849,NA
20850,Montgomery County,MD,49.23939151321057,NA
20852,Montgomery County,MD,83.82706164931946,NA
20871,Montgomery County,MD,78.22257806244995,NA
20882,Montgomery County,MD,90.31224979983988,NA
20912,Montgomery County,MD,86.6293034427542,NA
21029,Howard County,MD,81.02481985588472,NA
21060,Anne Arundel County,MD,74.77982385908727,NA
21161,Harford County,MD,98.15852682145717,NA
21207,Baltimore County,MD,59.48759007205765,NA
21212,Baltimore city,MD,48.438751000800636,NA
21228,Baltimore County,MD,56.76541232986389,NA
21401,Anne Arundel County,MD,29.143314651721376,NA
21797,Howard County,MD,92.39391513210569,NA
01020,Hampden County,MA,24.339471577261808,NA
01105,Hampden County,MA,8.967173738991193,NA
01108,Hampden County,MA,0.7205764611689351,NA
01247,Berkshire County,MA,41.71337069655724,NA
01432,Middlesex County,MA,67.57405924739793,NA
01436,Worcester County,MA,99.19935948759007,NA
01510,Worcester County,MA,90.95276220976781,NA
01550,Worcester County,MA,3.6028823058446755,NA
01603,Worcester County,MA,28.102481985588472,NA
01608,Worcester County,MA,97.19775820656525,NA
01610,Worcester County,MA,61.24899919935949,NA
01746,Middlesex County,MA,89.83186549239392,NA
01749,Middlesex County,MA,81.02481985588472,NA
01801,Middlesex County,MA,12.409927942353884,NA
01830,Essex County,MA,9.367493995196156,NA
01852,Middlesex County,MA,33.54683746997598,NA
01902,Essex County,MA,26.421136909527622,NA
01905,Essex County,MA,62.289831865492395,NA
01915,Essex County,MA,32.506004803843076,NA
01930,Essex County,MA,NA,54.49438202247191
01949,Essex County,MA,87.51000800640513,NA
01982,Essex County,MA,93.03442754203363,NA
02038,Norfolk County,MA,38.99119295436349,NA
02067,Norfolk County,MA,73.01841473178543,NA
02114,Suffolk County,MA,40.43234587670136,NA
02119,Suffolk County,MA,3.682946357085669,NA
02127,Suffolk County,MA,16.33306645316253,NA
02134,Suffolk County,MA,79.9839871897518,NA
02135,Suffolk County,MA,26.180944755804642,14.04494382022472
02149,Middlesex County,MA,7.926341072858286,NA
02155,Middlesex County,MA,18.014411529223377,NA
02169,Norfolk County,MA,6.00480384307446,NA
02176,Middlesex County,MA,32.986389111289036,NA
02188,Norfolk County,MA,NA,67.41573033707866
02301,Plymouth County,MA,0.32025620496397117,NA
02382,Plymouth County,MA,36.50920736589271,NA
02446,Norfolk County,MA,16.172938350680543,NA
02459,Middlesex County,MA,51.16092874299439,NA
02539,Dukes County,MA,76.5412329863891,NA
02601,Barnstable County,MA,42.11369095276221,NA
02721,Bristol County,MA,16.172938350680543,NA
48030,Oakland County,MI,34.4275420336269,NA
48039,St. Clair County,MI,85.18815052041633,NA
48044,Macomb County,MI,11.048839071257005,NA
48066,Macomb County,MI,12.890312249799841,NA
48071,Oakland County,MI,82.94635708566854,NA
48073,Oakland County,MI,30.74459567654123,NA
48085,Oakland County,MI,43.074459567654124,NA
48089,Macomb County,MI,25.46036829463571,NA
48091,Macomb County,MI,36.028823058446754,NA
48092,Macomb County,MI,NA,81.46067415730337
48108,Washtenaw County,MI,28.182546036829464,NA
48111,Wayne County,MI,7.846277021617294,NA
48127,Wayne County,MI,15.292233787029625,NA
48134,Wayne County,MI,26.58126501200961,NA
48168,Wayne County,MI,30.26421136909528,NA
48185,Wayne County,MI,6.164931945556445,NA
48186,Wayne County,MI,15.532425940752603,NA
48197,Washtenaw County,MI,3.2826261008807047,NA
48198,Washtenaw County,MI,2.481985588470777,NA
48204,Wayne County,MI,14.331465172137712,NA
48205,Wayne County,MI,3.843074459567654,NA
48206,Wayne County,MI,58.04643714971978,NA
48208,Wayne County,MI,55.564451561248994,NA
48209,Wayne County,MI,21.377101681345074,NA
48212,Wayne County,MI,17.854283426741393,NA
48219,Wayne County,MI,1.3610888710968776,NA
48224,Wayne County,MI,1.0408326661329064,NA
48301,Oakland County,MI,68.454763811048835,NA
48324,Oakland County,MI,71.57726180944756,NA
48341,Oakland County,MI,23.45876701361089,NA
48356,Oakland County,MI,NA,95.50561797752809
48371,Oakland County,MI,38.8310648518815,NA
48420,Genesee County,MI,69.57566052842273,NA
48430,Genesee County,MI,35.38831064851882,NA
48457,Genesee County,MI,NA,77.52808988764045
48458,Genesee County,MI,33.62690152121697,NA
48503,Genesee County,MI,36.269015212169734,NA
48506,Genesee County,MI,74.3795036028823,NA
48638,Saginaw County,MI,NA,70.2247191011236
48708,Bay County,MI,23.45876701361089,NA
48854,Ingham County,MI,75.42033626901521,NA
48875,Ionia County,MI,86.6293034427542,NA
48892,Ingham County,MI,94.95596477181746,NA
49007,Kalamazoo County,MI,31.545236188951158,NA
49009,Kalamazoo County,MI,23.058446757405925,NA
49048,Kalamazoo County,MI,31.30504403522818,NA
49221,Lenawee County,MI,2.8823058446757406,NA
49404,Ottawa County,MI,75.74059247397919,NA
49421,Oceana County,MI,NA,75.28089887640449
49423,Ottawa County,MI,9.607686148919136,NA
49441,Muskegon County,MI,23.058446757405925,NA
49444,Muskegon County,MI,NA,17.97752808988764
49451,Muskegon County,MI,87.51000800640513,NA
49504,Kent County,MI,NA,21.910112359550563
49507,Kent County,MI,2.241793434747798,NA
49706,Emmet County,MI,94.4755804643715,NA
49801,Dickinson County,MI,83.58686949559647,NA
55037,Pine County,MN,19.45556445156125,NA
55056,Chisago County,MN,62.53002401921537,NA
55130,Ramsey County,MN,26.74139311449159,NA
55304,Anoka County,MN,13.130504403522819,NA
55316,Hennepin County,MN,28.662930344275424,NA
55345,Hennepin County,MN,83.98718975180144,NA
55347,Hennepin County,MN,32.1857485988791,NA
55350,McLeod County,MN,80.86469175340272,NA
55353,Stearns County,MN,99.03923138510808,NA
55364,Hennepin County,MN,NA,97.75280898876404
55378,Scott County,MN,34.98799039231385,NA
55411,Hennepin County,MN,1.4411529223378703,NA
55429,Hennepin County,MN,14.971977582065652,NA
55433,Anoka County,MN,39.151321056845475,NA
55436,Hennepin County,MN,87.42994395516413,NA
55955,Dodge County,MN,96.87750200160127,NA
56007,Freeborn County,MN,55.084067253803035,NA
56093,Waseca County,MN,NA,70.78651685393258
56164,Pipestone County,MN,NA,82.58426966292134
56215,Swift County,MN,86.22898318654923,NA
56353,Mille Lacs County,MN,83.98718975180144,NA
56379,Benton County,MN,23.218574859887912,NA
56482,Wadena County,MN,25.780624499599682,NA
56560,Clay County,MN,1.6012810248198557,NA
38834,Alcorn County,MS,NA,51.68539325842697
38850,Chickasaw County,MS,97.67814251401121,NA
39073,Rankin County,MS,NA,34.26966292134831
39367,Wayne County,MS,17.133706965572458,NA
39466,Pearl River County,MS,76.14091273018416,NA
39479,Covington County,MS,89.03122497998399,NA
39483,Marion County,MS,98.8791032826261,NA
39501,Harrison County,MS,17.45396317053643,NA
39540,Harrison County,MS,51.16092874299439,NA
39556,Hancock County,MS,90.31224979983988,NA
63012,Jefferson County,MO,91.1929543634908,NA
63112,St. Louis city,MO,71.97758206565253,NA
63135,St. Louis County,MO,13.690952762209768,NA
63366,St. Charles County,MO,38.43074459567654,NA
63368,St. Charles County,MO,10.88871096877502,NA
63385,St. Charles County,MO,13.450760608486789,NA
63552,Macon County,MO,NA,63.48314606741573
63601,St. Francois County,MO,14.651721377101682,NA
63830,Pemiscot County,MO,NA,75.84269662921348
63834,Mississippi County,MO,81.82546036829463,NA
63845,Mississippi County,MO,80.54443554843876,NA
63960,Stoddard County,MO,96.79743795036029,NA
64020,Lafayette County,MO,96.7173738991193,NA
64060,Clay County,MO,25.780624499599682,NA
64079,Platte County,MO,64.5316253002402,NA
64083,Cass County,MO,30.424339471577262,NA
64113,Jackson County,MO,77.10168134507606,NA
64119,Clay County,MO,9.287429943955164,NA
64506,Buchanan County,MO,9.927942353883108,NA
64804,Jasper County,MO,NA,24.719101123595504
64834,Jasper County,MO,NA,63.48314606741573
64856,McDonald County,MO,95.91673338670937,NA
65018,Moniteau County,MO,32.42594075260208,NA
65401,Phelps County,MO,28.34267413931145,NA
65459,Pulaski County,MO,NA,71.91011235955057
65608,Douglas County,MO,NA,84.26966292134831
65616,Taney County,MO,62.53002401921537,NA
65791,Oregon County,MO,95.43634907926342,NA
68007,Douglas County,NE,79.82385908726981,NA
68066,Saunders County,NE,94.63570856685348,NA
68123,Sarpy County,NE,69.57566052842273,NA
68127,Douglas County,NE,74.21937550040032,NA
68147,Sarpy County,NE,66.21297037630104,NA
68801,Hall County,NE,60.848678943154525,NA
68850,Dawson County,NE,61.809447558046436,NA
69162,Cheyenne County,NE,82.86629303442754,NA
69337,Dawes County,NE,95.75660528422738,NA
69361,Scotts Bluff County,NE,69.25540432345876,NA
89104,Clark County,NV,28.182546036829464,NA
89143,Clark County,NV,89.59167333867094,NA
89183,Clark County,NV,58.12650120096077,NA
89521,Washoe County,NV,57.245796637309844,NA
03102,Hillsborough County,NH,10.808646917534027,NA
03303,Merrimack County,NH,29.86389111289031,NA
07008,Middlesex County,NJ,34.66773418734988,NA
07009,Essex County,NJ,98.07846277021616,NA
07011,Passaic County,NJ,23.77902321857486,NA
07013,Passaic County,NJ,89.19135308246598,NA
07018,Essex County,NJ,NA,37.640449438202246
07046,Morris County,NJ,96.47718174539631,NA
07050,Essex County,NJ,23.45876701361089,7.303370786516854
07057,Bergen County,NJ,98.31865492393915,NA
07070,Bergen County,NJ,93.1945556445156,NA
07083,Union County,NJ,45.476381104883906,NA
07086,Hudson County,NJ,98.71897518014411,NA
07103,Essex County,NJ,54.283426741393114,NA
07106,Essex County,NJ,48.75900720576461,30.337078651685395
07109,Essex County,NJ,NA,79.21348314606742
07110,Essex County,NJ,73.57886309047238,NA
07206,Union County,NJ,76.78142514011209,NA
07302,Hudson County,NJ,87.02962369895917,NA
07305,Hudson County,NJ,5.204163330664532,13.48314606741573
07470,Passaic County,NJ,20.496397117694155,NA
07481,Bergen County,NJ,91.83346677341873,NA
07506,Passaic County,NJ,75.10008006405124,NA
07508,Passaic County,NJ,NA,10.674157303370785
07514,Passaic County,NJ,NA,53.37078651685393
07522,Passaic County,NJ,77.822257806245,NA
07601,Bergen County,NJ,59.167333867093674,NA
07643,Bergen County,NJ,97.91833466773419,NA
07644,Bergen County,NJ,54.04323458767014,NA
07719,Monmouth County,NJ,73.57886309047238,NA
07726,Monmouth County,NJ,41.71337069655724,NA
07731,Monmouth County,NJ,37.389911929543636,NA
07733,Monmouth County,NJ,90.79263410728583,NA
07740,Monmouth County,NJ,0.8006405124099278,NA
07746,Monmouth County,NJ,92.39391513210569,NA
07747,Monmouth County,NJ,65.41232986389112,90.4494382022472
07751,Monmouth County,NJ,78.46277021617294,NA
07853,Morris County,NJ,68.8550840672538,NA
07876,Morris County,NJ,93.91513210568455,NA
07920,Somerset County,NJ,70.45636509207365,NA
07960,Morris County,NJ,46.35708566853482,NA
08004,Camden County,NJ,86.38911128903123,NA
08012,Camden County,NJ,13.050440352281825,NA
08015,Burlington County,NJ,22.898318654923937,NA
08030,Camden County,NJ,88.55084067253803,NA
08033,Camden County,NJ,92.87429943955165,NA
08062,Gloucester County,NJ,23.77902321857486,NA
08070,Salem County,NJ,56.52522017614091,NA
08096,Gloucester County,NJ,19.615692554043235,18.53932584269663
08104,Camden County,NJ,NA,0
08230,Cape May County,NJ,89.91192954363491,NA
08302,Cumberland County,NJ,22.177742193755005,NA
08401,Atlantic County,NJ,2.9623698959167335,NA
08550,Mercer County,NJ,84.94795836669336,NA
08638,Mercer County,NJ,48.438751000800636,NA
08691,Mercer County,NJ,88.07045636509207,NA
08701,Ocean County,NJ,0,NA
08723,Ocean County,NJ,31.865492393915133,NA
08807,Somerset County,NJ,50.600480384307446,NA
08833,Hunterdon County,NJ,94.23538831064852,NA
08854,Middlesex County,NJ,35.5484387510008,NA
08861,Middlesex County,NJ,3.7630104083266613,NA
08901,Middlesex County,NJ,2.6421136909527623,NA
87020,Cibola County,NM,78.8630904723779,NA
87111,Bernalillo County,NM,14.091273018414732,NA
87144,Sandoval County,NM,35.708566853482786,NA
87313,McKinley County,NM,80.54443554843876,NA
87328,McKinley County,NM,NA,77.52808988764045
88011,Doa Ana County,NM,33.306645316253004,NA
88012,Doa Ana County,NM,39.95196156925541,NA
88030,Luna County,NM,NA,28.08988764044944
88101,Curry County,NM,NA,8.98876404494382
88203,Chaves County,NM,17.293835068054445,NA
88240,Lea County,NM,68.05444355484389,NA
88310,Otero County,NM,13.931144915932748,NA
10019,New York County,NY,69.81585268214572,NA
10029,New York County,NY,6.244995996797438,NA
10032,New York County,NY,52.68214571657326,NA
10033,New York County,NY,NA,10.112359550561797
10452,Bronx County,NY,2.1617293835068057,NA
10456,Bronx County,NY,4.323458767013611,NA
10458,Bronx County,NY,0.8807045636509208,NA
10460,Bronx County,NY,0.9607686148919135,NA
10472,Bronx County,NY,1.6012810248198557,NA
10473,Bronx County,NY,2.722177742193755,NA
10474,Bronx County,NY,59.887910328262606,NA
10475,Bronx County,NY,56.04483586869495,NA
10541,Putnam County,NY,84.62770216172937,NA
10550,Westchester County,NY,22.33787029623699,NA
10562,Westchester County,NY,14.571657325860688,NA
10591,Westchester County,NY,NA,79.7752808988764
10598,Westchester County,NY,86.22898318654923,NA
10603,Westchester County,NY,91.59327461969575,NA
10705,Westchester County,NY,26.82145716573259,8.426966292134832
10801,Westchester County,NY,16.01281024819856,NA
11040,Nassau County,NY,82.06565252201761,NA
11207,Kings County,NY,8.406725380304243,3.3707865168539324
11208,Kings County,NY,28.502802241793436,NA
11212,Kings County,NY,2.00160128102482,NA
11218,Kings County,NY,6.5652522017614094,NA
11219,Kings County,NY,29.703763010408323,NA
11220,Kings County,NY,0.4803843074459567,NA
11225,Kings County,NY,29.383506805444355,NA
11226,Kings County,NY,4.643714971977582,NA
11229,Kings County,NY,49.31945556445156,NA
11234,Kings County,NY,33.306645316253004,NA
11235,Kings County,NY,20.09607686148919,NA
11238,Kings County,NY,39.71176941553243,NA
11355,Queens County,NY,37.870296236989596,NA
11367,Queens County,NY,75.74059247397919,NA
11368,Queens County,NY,1.120896717373899,NA
11385,Queens County,NY,8.086469175340271,NA
11415,Queens County,NY,81.82546036829463,NA
11416,Queens County,NY,66.77341873498798,NA
11420,Queens County,NY,46.036829463570854,NA
11426,Queens County,NY,83.74699759807847,NA
11432,Queens County,NY,11.449159327461969,NA
11434,Queens County,NY,53.002401921537235,NA
11552,Nassau County,NY,91.1929543634908,NA
11572,Nassau County,NY,93.75500400320256,NA
11717,Suffolk County,NY,16.813450760608486,NA
11764,Suffolk County,NY,NA,97.75280898876404
11942,Suffolk County,NY,100,NA
12054,Albany County,NY,83.98718975180144,NA
12078,Fulton County,NY,21.377101681345074,NA
12110,Albany County,NY,89.59167333867094,93.25842696629213
12148,Saratoga County,NY,98.55884707766212,NA
12206,Albany County,NY,37.55004003202562,NA
12839,Washington County,NY,73.57886309047238,NA
13039,Onondaga County,NY,53.803042433947155,NA
13066,Onondaga County,NY,62.12970376301041,NA
13114,Oswego County,NY,53.16253002401922,NA
13209,Onondaga County,NY,77.181745396317055,NA
13340,Herkimer County,NY,70.93674939951961,NA
13413,Oneida County,NY,54.3634907926341,NA
13440,Oneida County,NY,33.306645316253004,NA
13820,Otsego County,NY,NA,44.9438202247191
14042,Cattaraugus County,NY,86.38911128903123,NA
14054,Genesee County,NY,95.43634907926342,NA
14092,Niagara County,NY,67.09367493995197,NA
14208,Erie County,NY,68.8550840672538,NA
14221,Erie County,NY,16.493194555644518,NA
14464,Monroe County,NY,82.06565252201761,NA
14514,Monroe County,NY,44.75580464371497,NA
14526,Monroe County,NY,NA,94.9438202247191
14572,Steuben County,NY,71.41713370696557,NA
14586,Monroe County,NY,29.943955164131303,NA
14606,Monroe County,NY,7.045636509207366,NA
14613,Monroe County,NY,25.14011208967174,NA
14616,Monroe County,NY,4.643714971977582,NA
14619,Monroe County,NY,44.35548438751001,NA
14622,Monroe County,NY,33.226581265012015,NA
14624,Monroe County,NY,3.122497998398719,NA
14738,Chautauqua County,NY,90.47237790232185,NA
14760,Cattaraugus County,NY,43.39471577261809,NA
14787,Chautauqua County,NY,88.15052041633307,NA
14843,Steuben County,NY,21.537229783827062,30.89887640449438
14850,Tompkins County,NY,9.687750200160128,NA
14882,Tompkins County,NY,81.34507606084867,NA
14895,Allegany County,NY,60.28823058446757,NA
27012,Forsyth County,NC,85.26821457165732,NA
27013,Rowan County,NC,72.2978382706165,NA
27107,Forsyth County,NC,65.17213771016813,NA
27302,Alamance County,NC,38.75100080064051,NA
27332,Lee County,NC,56.36509207365893,NA
27405,Guilford County,NC,5.2842273819055245,NA
27406,Guilford County,NC,7.285828662930344,NA
27513,Wake County,NC,62.44995996797438,NA
27526,Wake County,NC,26.180944755804642,NA
27534,Wayne County,NC,74.69975980784628,NA
27563,Warren County,NC,77.181745396317055,NA
27577,Johnston County,NC,20.176140912730183,NA
27587,Wake County,NC,16.813450760608486,NA
27597,Wake County,NC,46.036829463570854,NA
27604,Wake County,NC,35.14811849479584,NA
27606,Wake County,NC,31.545236188951158,NA
27614,Wake County,NC,54.04323458767014,NA
27615,Wake County,NC,NA,84.26966292134831
27617,Wake County,NC,43.23458767013611,NA
27705,Durham County,NC,19.295436349079264,NA
27712,Durham County,NC,63.17053642914331,NA
27804,Nash County,NC,57.56605284227382,NA
27909,Pasquotank County,NC,15.772618094475579,NA
27944,Perquimans County,NC,85.26821457165732,NA
27954,Dare County,NC,95.91673338670937,NA
28027,Cabarrus County,NC,10.328262610088071,NA
28079,Union County,NC,47.63811048839071,NA
28092,Lincoln County,NC,26.020816653322658,NA
28098,Gaston County,NC,NA,88.76404494382022
28147,Rowan County,NC,61.569255404323464,NA
28173,Union County,NC,NA,67.97752808988764
28208,Mecklenburg County,NC,8.326661329063251,NA
28227,Mecklenburg County,NC,NA,19.101123595505616
28278,Mecklenburg County,NC,53.56285028022418,NA
28348,Cumberland County,NC,NA,25.842696629213485
28383,Robeson County,NC,82.62610088070457,NA
28401,New Hanover County,NC,15.532425940752603,NA
28405,New Hanover County,NC,73.2586068855084,NA
28431,Columbus County,NC,NA,81.46067415730337
28557,Carteret County,NC,83.42674139311448,NA
28621,Surry County,NC,67.25380304243394,NA
28681,Alexander County,NC,74.21937550040032,NA
28712,Transylvania County,NC,26.421136909527622,NA
28715,Buncombe County,NC,NA,45.50561797752809
28752,McDowell County,NC,NA,26.96629213483146
58701,Ward County,ND,4.563650920736589,NA
58703,Ward County,ND,53.56285028022418,NA
43015,Delaware County,OH,62.93034427542034,NA
43076,Perry County,OH,86.78943154523618,NA
43081,Franklin County,OH,10.728582866293035,NA
43082,Delaware County,OH,70.69655724579663,NA
43123,Franklin County,OH,20.0160128102482,NA
43147,Fairfield County,OH,24.179343474779824,NA
43203,Franklin County,OH,33.86709367493995,NA
43219,Franklin County,OH,12.089671737389912,NA
43227,Franklin County,OH,14.331465172137712,NA
43228,Franklin County,OH,0.4003202562049639,NA
43229,Franklin County,OH,0.08006405124099279,NA
43420,Sandusky County,OH,17.133706965572458,NA
43506,Williams County,OH,63.730984787830266,NA
43537,Lucas County,OH,21.937550040032026,NA
43558,Fulton County,OH,NA,61.79775280898876
43701,Muskingum County,OH,0.6405124099279423,NA
43906,Belmont County,OH,NA,32.02247191011236
43907,Harrison County,OH,68.21457165732586,NA
44011,Lorain County,OH,7.44595676541233,NA
44026,Geauga County,OH,86.94955964771817,NA
44044,Lorain County,OH,51.32105684547638,NA
44053,Lorain County,OH,22.33787029623699,NA
44060,Lake County,OH,23.45876701361089,NA
44077,Lake County,OH,25.70056044835869,NA
44094,Lake County,OH,27.22177742193755,NA
44102,Cuyahoga County,OH,0.24019215372297836,NA
44103,Cuyahoga County,OH,20.816653322658127,NA
44105,Cuyahoga County,OH,22.257806244995997,NA
44106,Cuyahoga County,OH,48.03843074459568,NA
44113,Cuyahoga County,OH,30.58446757405925,NA
44129,Cuyahoga County,OH,22.497998398718973,NA
44134,Cuyahoga County,OH,3.042433947157726,NA
44144,Cuyahoga County,OH,48.83907125700561,NA
44146,Cuyahoga County,OH,27.542033626901517,NA
44203,Summit County,OH,5.044035228182546,NA
44224,Summit County,OH,11.529223378702962,NA
44240,Portage County,OH,20.576461168935147,NA
44301,Summit County,OH,36.10888710968775,NA
44305,Summit County,OH,5.764611689351481,NA
44310,Summit County,OH,19.615692554043235,NA
44314,Summit County,OH,6.485188150520416,NA
44420,Trumbull County,OH,59.72778222578062,NA
44431,Columbiana County,OH,89.35148118494796,NA
44460,Columbiana County,OH,57.16573258606885,NA
44481,Trumbull County,OH,NA,55.0561797752809
44512,Mahoning County,OH,9.047237790232186,NA
44646,Stark County,OH,10.568454763811049,7.865168539325842
44667,Wayne County,OH,34.4275420336269,NA
44688,Stark County,OH,99.75980784627703,NA
44706,Stark County,OH,65.25220176140913,NA
44805,Ashland County,OH,42.1937550040032,NA
44820,Crawford County,OH,28.903122497998403,NA
44837,Huron County,OH,86.06885508406725,NA
44883,Seneca County,OH,18.815052041633308,NA
44903,Richland County,OH,NA,11.235955056179774
44905,Richland County,OH,NA,57.865168539325836
44906,Richland County,OH,10.168134507606084,NA
45011,Butler County,OH,8.166533226581265,1.1235955056179776
45120,Clermont County,OH,95.91673338670937,NA
45123,Highland County,OH,76.86148919135309,NA
45205,Hamilton County,OH,12.650120096076861,NA
45225,Hamilton County,OH,59.00720576461169,NA
45229,Hamilton County,OH,49.639711769415534,NA
45238,Hamilton County,OH,5.3642914331465175,NA
45248,Hamilton County,OH,43.39471577261809,NA
45344,Clark County,OH,NA,41.01123595505618
45417,Montgomery County,OH,13.771016813450759,NA
45424,Montgomery County,OH,4.403522818254603,NA
45434,Greene County,OH,70.13610888710969,NA
45458,Montgomery County,OH,16.33306645316253,NA
45601,Ross County,OH,NA,1.6853932584269662
45692,Jackson County,OH,37.389911929543636,NA
45784,Washington County,OH,73.2586068855084,NA
45786,Washington County,OH,96.55724579663732,NA
45822,Mercer County,OH,61.809447558046436,NA
45879,Paulding County,OH,36.74939951961569,NA
73008,Oklahoma County,OK,42.67413931144916,NA
73012,Oklahoma County,OK,58.60688550840673,NA
73025,Oklahoma County,OK,71.97758206565253,NA
73026,Cleveland County,OK,97.67814251401121,NA
73096,Custer County,OK,53.16253002401922,NA
73099,Canadian County,OK,13.931144915932748,NA
73109,Oklahoma County,OK,5.3642914331465175,NA
73112,Oklahoma County,OK,22.898318654923937,NA
73119,Oklahoma County,OK,28.903122497998403,NA
73127,Oklahoma County,OK,NA,42.13483146067416
73128,Canadian County,OK,99.67974379503602,NA
73129,Oklahoma County,OK,31.22497998398719,NA
73130,Oklahoma County,OK,67.09367493995197,NA
73401,Carter County,OK,57.886309047237795,NA
73439,Marshall County,OK,93.1945556445156,NA
73521,Jackson County,OK,45.236188951160926,NA
73644,Beckham County,OK,71.0968775020016,NA
73651,Kiowa County,OK,97.19775820656525,NA
73701,Garfield County,OK,51.80144115292234,NA
74055,Tulsa County,OK,44.35548438751001,NA
74066,Creek County,OK,NA,33.70786516853933
74074,Payne County,OK,65.01200960768615,NA
74848,Hughes County,OK,81.58526821457166,NA
97015,Clackamas County,OR,76.86148919135309,NA
97045,Clackamas County,OR,15.13210568454764,NA
97060,Multnomah County,OR,44.75580464371497,NA
97062,Washington County,OR,34.66773418734988,NA
97080,Multnomah County,OR,36.34907926341073,NA
97215,Multnomah County,OR,87.02962369895917,NA
97217,Multnomah County,OR,66.21297037630104,NA
97229,Washington County,OR,7.766212970376301,NA
97233,Multnomah County,OR,8.807045636509207,NA
97301,Marion County,OR,20.97678142514011,NA
97303,Marion County,OR,41.63330664531625,NA
97305,Marion County,OR,40.75260208166534,NA
97317,Marion County,OR,48.03843074459568,NA
97386,Linn County,OR,60.68855084067254,NA
97394,Lincoln County,OR,98.23859087269817,NA
97470,Douglas County,OR,35.708566853482786,NA
97477,Lane County,OR,52.842273819055244,NA
97478,Lane County,OR,63.17053642914331,NA
97603,Klamath County,OR,17.53402722177742,NA
97801,Umatilla County,OR,50.600480384307446,NA
97914,Malheur County,OR,49.639711769415534,NA
15010,Beaver County,PA,32.826261008807045,NA
15101,Allegheny County,PA,72.45796637309849,NA
15116,Allegheny County,PA,64.29143314651722,NA
15136,Allegheny County,PA,48.35868694955965,NA
15206,Allegheny County,PA,55.72457966373099,NA
15210,Allegheny County,PA,61.088871096877504,NA
15220,Allegheny County,PA,77.90232185748599,NA
15243,Allegheny County,PA,63.17053642914331,NA
15301,Washington County,PA,NA,16.853932584269664
15537,Bedford County,PA,85.74859887910328,NA
15650,Westmoreland County,PA,24.819855884707767,NA
15670,Westmoreland County,PA,99.27942353883107,NA
15690,Westmoreland County,PA,NA,85.39325842696628
15714,Cambria County,PA,NA,89.8876404494382
15801,Clearfield County,PA,27.622097678142516,NA
15901,Cambria County,PA,NA,87.07865168539325
15902,Cambria County,PA,46.51721377101681,NA
16121,Mercer County,PA,80.22417934347477,NA
16365,Warren County,PA,14.331465172137712,NA
16830,Clearfield County,PA,40.672538030424334,NA
17013,Cumberland County,PA,51.881505204163325,NA
17042,Lebanon County,PA,29.383506805444355,NA
17104,Dauphin County,PA,11.369095276220976,NA
17201,Franklin County,PA,18.734987990392312,NA
17225,Franklin County,PA,65.41232986389112,NA
17268,Franklin County,PA,24.419535628502803,NA
17325,Adams County,PA,64.61168935148119,NA
17331,York County,PA,5.044035228182546,NA
17401,York County,PA,54.4435548438751,NA
17519,Lancaster County,PA,92.07365892714171,NA
17566,Lancaster County,PA,87.02962369895917,NA
17701,Lycoming County,PA,7.205764611689351,20.786516853932586
17751,Clinton County,PA,85.66853482786229,NA
17872,Northumberland County,PA,40.0320256204964,NA
18014,Northampton County,PA,NA,87.07865168539325
18045,Northampton County,PA,84.54763811048839,NA
18052,Lehigh County,PA,15.932746196957567,NA
18062,Lehigh County,PA,12.810248198558845,NA
18078,Lehigh County,PA,78.54283426741392,NA
18102,Lehigh County,PA,21.77742193755004,NA
18103,Lehigh County,PA,1.921537229783827,NA
18201,Luzerne County,PA,76.06084867894315,NA
18202,Luzerne County,PA,73.57886309047238,NA
18252,Schuylkill County,PA,66.45316253002403,NA
18337,Pike County,PA,92.95436349079263,NA
18426,Pike County,PA,87.9103282626101,NA
18444,Lackawanna County,PA,80.22417934347477,NA
18848,Bradford County,PA,90.15212169735788,NA
18853,Bradford County,PA,93.1945556445156,NA
19010,Delaware County,PA,47.71817453963171,NA
19013,Delaware County,PA,12.169735788630904,NA
19046,Montgomery County,PA,59.48759007205765,NA
19050,Delaware County,PA,NA,46.06741573033708
19064,Delaware County,PA,38.43074459567654,NA
19083,Delaware County,PA,50.600480384307446,NA
19090,Montgomery County,PA,80.54443554843876,NA
19096,Montgomery County,PA,77.662129703763,NA
19119,Philadelphia County,PA,86.54923939151321,NA
19122,Philadelphia County,PA,82.38590872698158,NA
19124,Philadelphia County,PA,NA,5.056179775280898
19131,Philadelphia County,PA,10.488390712570055,NA
19132,Philadelphia County,PA,29.383506805444355,NA
19137,Philadelphia County,PA,88.15052041633307,NA
19147,Philadelphia County,PA,28.662930344275424,NA
19602,Berks County,PA,70.37630104083267,NA
02806,Bristol County,RI,58.44675740592474,NA
02861,Providence County,RI,40.99279423538831,NA
02906,Providence County,RI,75.10008006405124,NA
02909,Providence County,RI,24.579663730984787,NA
29154,Sumter County,SC,NA,89.32584269662921
29209,Richland County,SC,NA,61.23595505617978
29322,Spartanburg County,SC,93.91513210568455,NA
29412,Charleston County,SC,52.12169735788631,NA
29445,Berkeley County,SC,10.088070456365092,NA
29464,Charleston County,SC,20.416333066453163,NA
29485,Dorchester County,SC,29.303442754203363,NA
29585,Georgetown County,SC,94.63570856685348,NA
29588,Horry County,SC,39.79183346677342,27.52808988764045
29617,Greenville County,SC,18.174539631705365,NA
29640,Pickens County,SC,19.45556445156125,NA
29696,Oconee County,SC,NA,100
29902,Beaufort County,SC,76.14091273018416,NA
29935,Beaufort County,SC,99.919935948759,NA
57107,Minnehaha County,SD,95.19615692554044,NA
57110,Minnehaha County,SD,78.8630904723779,NA
57350,Beadle County,SD,60.28823058446757,NA
57401,Brown County,SD,5.3642914331465175,NA
57719,Pennington County,SD,84.94795836669336,NA
37042,Montgomery County,TN,12.32986389111289,NA
37043,Montgomery County,TN,43.23458767013611,NA
37067,Williamson County,TN,74.3795036028823,NA
37069,Williamson County,TN,87.51000800640513,NA
37080,Davidson County,TN,85.74859887910328,NA
37087,Wilson County,TN,19.135308246597276,NA
37090,Wilson County,TN,82.06565252201761,NA
37115,Davidson County,TN,14.731785428342675,NA
37128,Rutherford County,TN,32.986389111289036,NA
37129,Rutherford County,TN,NA,37.07865168539326
37207,Davidson County,TN,NA,35.39325842696629
37367,Bledsoe County,TN,3.522818254603683,NA
37388,Coffee County,TN,56.36509207365893,NA
37664,Sullivan County,TN,36.98959167333867,NA
37763,Roane County,TN,77.34187349879905,NA
37804,Blount County,TN,20.176140912730183,NA
37818,Greene County,TN,NA,77.52808988764045
37854,Roane County,TN,60.12810248198559,NA
37914,Knox County,TN,36.50920736589271,NA
37920,Knox County,TN,27.381905524419537,NA
37931,Knox County,TN,57.806244995996806,NA
37934,Knox County,TN,40.99279423538831,NA
38017,Shelby County,TN,41.71337069655724,NA
38063,Lauderdale County,TN,56.925540432345876,NA
38103,Shelby County,TN,84.62770216172937,NA
38118,Shelby County,TN,6.965572457966374,NA
38122,Shelby County,TN,43.71497197758207,NA
38237,Weakley County,TN,NA,76.96629213483146
38301,Madison County,TN,NA,21.34831460674157
38401,Maury County,TN,10.408326661329063,NA
75013,Collin County,TX,23.77902321857486,NA
75034,Denton County,TX,57.485988791032824,NA
75061,Dallas County,TX,9.047237790232186,NA
75067,Denton County,TX,11.849479583666934,24.15730337078652
75068,Denton County,TX,33.86709367493995,NA
75070,Collin County,TX,8.726981585268215,NA
75087,Rockwall County,TX,66.77341873498798,NA
75090,Grayson County,TX,27.381905524419537,NA
75092,Grayson County,TX,NA,74.71910112359551
75126,Kaufman County,TX,NA,83.14606741573034
75154,Ellis County,TX,17.053642914331466,NA
75208,Dallas County,TX,NA,29.213483146067414
75214,Dallas County,TX,84.86789431545236,NA
75217,Dallas County,TX,4.2433947157726175,NA
75228,Dallas County,TX,6.084867894315452,NA
75237,Dallas County,TX,54.4435548438751,NA
75248,Dallas County,TX,55.72457966373099,NA
75503,Bowie County,TX,77.34187349879905,NA
75605,Gregg County,TX,NA,55.0561797752809
75670,Harrison County,TX,45.31625300240192,NA
75702,Smith County,TX,NA,28.651685393258425
75703,Smith County,TX,50.200160128102475,NA
75751,Henderson County,TX,54.4435548438751,NA
75762,Smith County,TX,56.925540432345876,NA
75766,Cherokee County,TX,40.832666132906326,11.235955056179774
75785,Cherokee County,TX,98.47878302642114,NA
75840,Freestone County,TX,43.39471577261809,NA
75956,Jasper County,TX,81.58526821457166,NA
76021,Tarrant County,TX,36.10888710968775,NA
76053,Tarrant County,TX,44.99599679743795,NA
76065,Ellis County,TX,NA,58.42696629213483
76082,Parker County,TX,57.245796637309844,NA
76092,Tarrant County,TX,53.16253002401922,NA
76112,Tarrant County,TX,52.361889511609284,NA
76116,Tarrant County,TX,9.76781425140112,NA
76117,Tarrant County,TX,42.43394715772618,NA
76131,Tarrant County,TX,15.452361889511609,NA
76179,Tarrant County,TX,13.530824659727783,NA
76180,Tarrant County,TX,34.18734987990392,NA
76227,Denton County,TX,46.99759807846277,NA
76244,Tarrant County,TX,6.805444355484387,NA
76248,Tarrant County,TX,80.94475580464372,NA
76310,Wichita County,TX,67.25380304243394,NA
76522,Coryell County,TX,NA,38.20224719101123
76705,McLennan County,TX,18.815052041633308,NA
77016,Harris County,TX,61.32906325060048,NA
77017,Harris County,TX,59.167333867093674,NA
77018,Harris County,TX,53.40272217774219,NA
77020,Harris County,TX,56.04483586869495,NA
77041,Harris County,TX,NA,56.17977528089888
77049,Harris County,TX,43.71497197758207,NA
77051,Harris County,TX,55.72457966373099,NA
77066,Harris County,TX,51.00080064051241,NA
77067,Harris County,TX,38.99119295436349,NA
77072,Harris County,TX,24.499599679743795,NA
77073,Harris County,TX,44.91593274619696,NA
77086,Harris County,TX,20.656525220176142,NA
77090,Harris County,TX,48.438751000800636,NA
77301,Montgomery County,TX,32.586068855084065,NA
77303,Montgomery County,TX,42.35388310648519,NA
77306,Montgomery County,TX,78.70296236989591,NA
77339,Harris County,TX,49.9599679743795,NA
77345,Harris County,TX,64.93194555644516,NA
77371,San Jacinto County,TX,91.03282626100881,NA
77375,Harris County,TX,NA,38.764044943820224
77433,Harris County,TX,29.22337870296237,NA
77469,Fort Bend County,TX,20.176140912730183,NA
77502,Harris County,TX,30.98478783026421,NA
77504,Harris County,TX,64.29143314651722,NA
77514,Chambers County,TX,91.67333867093676,NA
77530,Harris County,TX,52.842273819055244,NA
77573,Galveston County,TX,2.0816653322658127,NA
77575,Liberty County,TX,71.0968775020016,NA
77583,Brazoria County,TX,36.82946357085669,NA
77584,Brazoria County,TX,45.6365092073659,NA
77586,Harris County,TX,59.167333867093674,NA
77587,Harris County,TX,72.2978382706165,NA
77598,Harris County,TX,46.51721377101681,NA
77632,Orange County,TX,32.66613290632506,NA
77705,Jefferson County,TX,NA,38.764044943820224
77808,Brazos County,TX,60.28823058446757,NA
77845,Brazos County,TX,7.285828662930344,NA
77868,Grimes County,TX,48.83907125700561,NA
77901,Victoria County,TX,NA,19.662921348314608
78002,Bexar County,TX,83.98718975180144,NA
78015,Bexar County,TX,83.3466773418735,NA
78040,Webb County,TX,16.653322658126502,NA
78046,Webb County,TX,1.7614091273018415,0.5617977528089888
78114,Wilson County,TX,53.40272217774219,NA
78207,Bexar County,TX,21.297037630104082,NA
78223,Bexar County,TX,11.20896717373899,NA
78227,Bexar County,TX,34.34747798238591,NA
78228,Bexar County,TX,3.2025620496397114,NA
78237,Bexar County,TX,48.27862289831866,NA
78240,Bexar County,TX,51.40112089671738,NA
78245,Bexar County,TX,2.5620496397117694,NA
78249,Bexar County,TX,48.438751000800636,NA
78251,Bexar County,TX,48.83907125700561,NA
78382,Aransas County,TX,83.98718975180144,NA
78415,Nueces County,TX,11.76941553242594,NA
78504,Hidalgo County,TX,37.14971977582066,NA
78516,Hidalgo County,TX,18.174539631705365,NA
78526,Cameron County,TX,NA,2.247191011235955
78560,Hidalgo County,TX,93.91513210568455,NA
78566,Cameron County,TX,73.01841473178543,NA
78572,Hidalgo County,TX,18.174539631705365,NA
78589,Hidalgo County,TX,41.39311449159327,NA
78606,Blanco County,TX,99.27942353883107,NA
78626,Williamson County,TX,75.5004003202562,NA
78642,Williamson County,TX,82.46597277822258,NA
78681,Williamson County,TX,24.97998398718975,NA
78702,Travis County,TX,71.0968775020016,NA
78717,Williamson County,TX,77.90232185748599,NA
78744,Travis County,TX,38.11048839071257,NA
78746,Travis County,TX,65.25220176140913,NA
78750,Travis County,TX,91.75340272217774,NA
78754,Travis County,TX,62.53002401921537,NA
78834,Dimmit County,TX,85.26821457165732,NA
79329,Lubbock County,TX,96.6373098478783,NA
79404,Lubbock County,TX,46.35708566853482,NA
79556,Nolan County,TX,NA,56.17977528089888
79605,Taylor County,TX,9.527622097678142,NA
79705,Midland County,TX,17.854283426741393,NA
79706,Midland County,TX,53.72297838270617,NA
79735,Pecos County,TX,55.40432345876701,NA
79764,Ector County,TX,25.540432345876702,NA
79765,Ector County,TX,60.12810248198559,NA
79928,El Paso County,TX,19.21537229783827,NA
79936,El Paso County,TX,11.048839071257005,4.49438202247191
84020,Salt Lake County,UT,31.545236188951158,NA
84040,Davis County,UT,NA,96.06741573033707
84041,Davis County,UT,17.69415532425941,NA
84042,Utah County,UT,94.87590072057645,NA
84044,Salt Lake County,UT,40.99279423538831,NA
84067,Weber County,UT,60.68855084067254,NA
84081,Salt Lake County,UT,14.091273018414732,NA
84104,Salt Lake County,UT,43.71497197758207,NA
84120,Salt Lake County,UT,8.8871096877502,NA
84315,Weber County,UT,94.79583666933547,NA
84405,Weber County,UT,47.23779023218575,NA
84414,Weber County,UT,65.89271417133708,NA
84655,Utah County,UT,88.31064851881504,NA
84663,Utah County,UT,58.76701361088871,NA
84720,Iron County,UT,82.62610088070457,NA
05403,Chittenden County,VT,76.5412329863891,NA
05488,Franklin County,VT,57.56605284227382,NA
20148,Loudoun County,VA,60.0480384307446,NA
20155,Prince William County,VA,71.57726180944756,NA
22003,Fairfax County,VA,21.21697357886309,NA
22033,Fairfax County,VA,63.971176941553246,NA
22039,Fairfax County,VA,79.9839871897518,NA
22079,Fairfax County,VA,35.38831064851882,NA
22150,Fairfax County,VA,12.169735788630904,NA
22182,Fairfax County,VA,74.77982385908727,NA
22306,Fairfax County,VA,39.23138510808647,NA
22311,Alexandria city,VA,88.63090472377903,NA
22443,Westmoreland County,VA,92.07365892714171,NA
22630,Warren County,VA,8.486789431545235,NA
22939,Augusta County,VA,89.11128903122498,NA
22980,Waynesboro city,VA,6.325060048038431,NA
23116,Hanover County,VA,57.726180944755804,NA
23222,Richmond city,VA,9.76781425140112,NA
23223,Henrico County,VA,3.4427542033626897,NA
23236,Chesterfield County,VA,55.564451561248994,NA
23504,Norfolk city,VA,43.71497197758207,NA
23505,Norfolk city,VA,62.53002401921537,NA
23518,Norfolk city,VA,12.00960768614892,NA
23608,Newport News city,VA,63.65092073658927,NA
23664,Hampton city,VA,88.63090472377903,NA
24381,Carroll County,VA,95.91673338670937,NA
24551,Bedford County,VA,69.01521216973579,NA
98011,King County,WA,71.49719775820657,NA
98012,Snohomish County,WA,8.246597277822259,NA
98022,King County,WA,67.01361088871097,NA
98031,King County,WA,25.060048038430743,NA
98036,Snohomish County,WA,50.44035228182546,NA
98118,King County,WA,42.75420336269015,NA
98122,King County,WA,26.82145716573259,NA
98125,King County,WA,44.59567654123299,NA
98204,Snohomish County,WA,18.414731785428344,NA
98226,Whatcom County,WA,79.10328262610088,NA
98233,Skagit County,WA,51.48118494795837,NA
98292,Snohomish County,WA,80.14411529223379,NA
98329,Pierce County,WA,NA,97.75280898876404
98373,Pierce County,WA,22.09767814251401,NA
98445,Pierce County,WA,56.204963971176944,NA
98503,Thurston County,WA,55.084067253803035,NA
98532,Lewis County,WA,81.34507606084867,NA
98902,Yakima County,WA,NA,24.719101123595504
98908,Yakima County,WA,NA,57.30337078651685
98930,Yakima County,WA,NA,60.1123595505618
98935,Yakima County,WA,99.03923138510808,NA
99212,Spokane County,WA,61.40912730184147,NA
99218,Spokane County,WA,76.86148919135309,NA
99224,Spokane County,WA,72.77822257806244,NA
99336,Benton County,WA,55.72457966373099,NA
99362,Walla Walla County,WA,NA,41.57303370786517
20001,District of Columbia,DC,22.65812650120096,NA
20002,District of Columbia,DC,30.74459567654123,NA
24844,McDowell County,WV,NA,96.06741573033707
25401,Berkeley County,WV,NA,44.38202247191011
26062,Hancock County,WV,44.35548438751001,NA
26452,Lewis County,WV,NA,71.34831460674157
53012,Ozaukee County,WI,51.881505204163325,NA
53014,Calumet County,WI,85.26821457165732,NA
53120,Walworth County,WI,83.42674139311448,NA
53121,Walworth County,WI,44.11529223378703,NA
53142,Kenosha County,WI,6.725380304243394,NA
53154,Milwaukee County,WI,34.02722177742194,NA
53158,Kenosha County,WI,38.8310648518815,NA
53189,Waukesha County,WI,46.99759807846277,NA
53209,Milwaukee County,WI,1.7614091273018415,NA
53215,Milwaukee County,WI,NA,3.932584269662921
53216,Milwaukee County,WI,4.00320256204964,NA
53224,Milwaukee County,WI,NA,32.58426966292135
53225,Milwaukee County,WI,6.885508406725379,NA
53227,Milwaukee County,WI,62.85028022417934,NA
53402,Racine County,WI,30.184147317854283,NA
53566,Green County,WI,47.55804643714972,85.95505617977528
53589,Dane County,WI,85.74859887910328,NA
53713,Dane County,WI,71.73738991192954,NA
54025,St. Croix County,WI,96.39711769415533,NA
54141,Oconto County,WI,99.59967974379504,NA
54143,Marinette County,WI,44.19535628502802,NA
54301,Brown County,WI,NA,62.92134831460674
54302,Brown County,WI,60.28823058446757,NA
54520,Forest County,WI,95.6765412329864,NA
54848,Rusk County,WI,83.18654923939151,NA
54914,Outagamie County,WI,29.943955164131303,NA
54915,Outagamie County,WI,13.370696557245795,NA
54942,Outagamie County,WI,90.63250600480384,NA
54952,Winnebago County,WI,40.19215372297838,NA
54961,Waupaca County,WI,52.76220976781425,NA
82007,Laramie County,WY,78.54283426741392,NA
