ZipCode,county,state,Youth,Adult,Retirement,Geriatric
35040,Shelby County,AL,NA,50.64220183486239,NA,NA
35124,Shelby County,AL,NA,NA,39.74683544303797,NA
35217,Jefferson County,AL,NA,49.72477064220184,NA,NA
35235,Jefferson County,AL,NA,56.14678899082569,NA,NA
35242,Shelby County,AL,NA,33.94495412844037,NA,NA
35650,Lawrence County,AL,56.015037593984964,NA,NA,NA
35750,Madison County,AL,NA,NA,NA,76.1744966442953
35758,Madison County,AL,NA,NA,NA,35.57046979865772
35810,Madison County,AL,NA,NA,NA,27.516778523489933
36206,Calhoun County,AL,62.03007518796993,NA,NA,NA
36278,Randolph County,AL,NA,97.79816513761467,89.87341772151899,NA
36310,Henry County,AL,NA,NA,NA,87.24832214765101
36340,Geneva County,AL,NA,94.3119266055046,NA,NA
36375,Geneva County,AL,NA,NA,NA,86.57718120805369
36426,Escambia County,AL,NA,NA,64.0506329113924,NA
36467,Covington County,AL,NA,71.92660550458716,NA,NA
36502,Escambia County,AL,NA,NA,44.55696202531645,NA
36507,Baldwin County,AL,46.2406015037594,NA,NA,NA
36695,Mobile County,AL,NA,NA,NA,45.63758389261745
36801,Lee County,AL,NA,NA,NA,73.15436241610739
99503,Anchorage Municipality,AK,NA,NA,NA,80.87248322147651
99507,Anchorage Municipality,AK,NA,NA,54.68354430379747,NA
99615,Kodiak Island Borough,AK,60.526315789473685,NA,NA,NA
85007,Maricopa County,AZ,NA,12.844036697247708,NA,NA
85042,Maricopa County,AZ,NA,60,NA,NA
85212,Maricopa County,AZ,53.383458646616546,NA,NA,NA
85234,Maricopa County,AZ,NA,34.31192660550459,NA,NA
85255,Maricopa County,AZ,NA,51.92660550458715,NA,NA
85303,Maricopa County,AZ,20.676691729323306,NA,NA,NA
85603,Cochise County,AZ,NA,NA,77.46835443037975,NA
86403,Mohave County,AZ,NA,47.522935779816514,NA,NA
86406,Mohave County,AZ,NA,NA,28.354430379746837,NA
86409,Mohave County,AZ,NA,10.642201834862385,NA,NA
86503,Apache County,AZ,NA,NA,NA,48.65771812080537
86507,Apache County,AZ,NA,NA,97.46835443037975,NA
71601,Jefferson County,AR,NA,NA,60.75949367088608,74.83221476510067
71602,Jefferson County,AR,NA,NA,NA,62.08053691275168
71603,Jefferson County,AR,NA,NA,84.05063291139241,59.395973154362416
71665,Cleveland County,AR,NA,NA,91.89873417721519,NA
71753,Columbia County,AR,NA,NA,NA,53.691275167785236
71913,Garland County,AR,NA,NA,28.607594936708864,NA
72653,Baxter County,AR,NA,NA,NA,15.436241610738255
72736,Benton County,AR,NA,90.82568807339449,NA,NA
72958,Scott County,AR,NA,NA,88.35443037974684,NA
90020,Los Angeles County,CA,NA,80,NA,NA
90037,Los Angeles County,CA,59.02255639097744,NA,NA,NA
90062,Los Angeles County,CA,NA,53.94495412844037,NA,NA
90065,Los Angeles County,CA,NA,56.513761467889914,NA,NA
90230,Los Angeles County,CA,NA,77.79816513761469,NA,NA
90638,Los Angeles County,CA,NA,NA,NA,32.21476510067114
90731,Los Angeles County,CA,NA,32.84403669724771,NA,NA
90807,Los Angeles County,CA,NA,NA,NA,51.67785234899329
91105,Los Angeles County,CA,NA,NA,68.60759493670886,NA
91316,Los Angeles County,CA,NA,68.25688073394495,NA,NA
91324,Los Angeles County,CA,NA,75.41284403669725,NA,NA
91326,Los Angeles County,CA,NA,NA,NA,75.50335570469798
91345,Los Angeles County,CA,NA,85.68807339449542,NA,NA
91423,Los Angeles County,CA,NA,NA,64.55696202531645,NA
91711,Los Angeles County,CA,NA,82.20183486238533,NA,NA
91766,Los Angeles County,CA,NA,NA,NA,38.25503355704698
91911,San Diego County,CA,NA,NA,NA,14.429530201342283
92008,San Diego County,CA,NA,52.11009174311927,NA,NA
92009,San Diego County,CA,NA,NA,NA,45.97315436241611
92014,San Diego County,CA,70.30075187969925,NA,NA,NA
92020,San Diego County,CA,NA,NA,7.59493670886076,NA
92028,San Diego County,CA,NA,63.853211009174316,NA,NA
92084,San Diego County,CA,NA,82.75229357798165,NA,NA
92128,San Diego County,CA,NA,72.11009174311927,NA,NA
92154,San Diego County,CA,NA,NA,NA,19.12751677852349
92201,Riverside County,CA,54.51127819548872,NA,NA,NA
92203,Riverside County,CA,NA,NA,NA,33.557046979865774
92264,Riverside County,CA,NA,NA,12.405063291139239,NA
92301,San Bernardino County,CA,NA,NA,NA,91.2751677852349
92382,San Bernardino County,CA,NA,NA,95.69620253164557,NA
92404,San Bernardino County,CA,34.21052631578947,21.28440366972477,NA,NA
92501,Riverside County,CA,NA,77.61467889908256,81.26582278481013,NA
92555,Riverside County,CA,63.1578947368421,NA,NA,NA
92595,Riverside County,CA,NA,NA,65.82278481012658,NA
92612,Orange County,CA,NA,NA,NA,50.671140939597315
92660,Orange County,CA,NA,NA,NA,17.78523489932886
92801,Orange County,CA,NA,NA,NA,43.288590604026844
93004,Ventura County,CA,NA,NA,53.67088607594936,NA
93012,Ventura County,CA,NA,NA,76.9620253164557,NA
93033,Ventura County,CA,3.7593984962406015,NA,NA,NA
93203,Kern County,CA,NA,84.22018348623853,NA,NA
93230,Kings County,CA,NA,22.018348623853214,NA,NA
93245,Kings County,CA,NA,63.11926605504588,NA,NA
93274,Tulare County,CA,5.639097744360902,47.706422018348626,NA,NA
93277,Tulare County,CA,NA,26.972477064220186,NA,NA
93291,Tulare County,CA,NA,24.220183486238533,NA,NA
93292,Tulare County,CA,NA,43.853211009174316,35.44303797468354,NA
93309,Kern County,CA,NA,NA,68.35443037974683,35.90604026845637
93420,San Luis Obispo County,CA,NA,NA,78.73417721518987,NA
93454,Santa Barbara County,CA,NA,32.477064220183486,NA,NA
93612,Fresno County,CA,NA,NA,85.31645569620252,NA
93704,Fresno County,CA,NA,NA,59.49367088607595,NA
93710,Fresno County,CA,NA,84.40366972477065,53.16455696202531,NA
93722,Fresno County,CA,NA,NA,NA,72.48322147651007
93727,Fresno County,CA,NA,46.055045871559635,27.59493670886076,NA
93730,Fresno County,CA,NA,97.61467889908258,NA,NA
94015,San Mateo County,CA,NA,NA,NA,31.543624161073826
94025,San Mateo County,CA,NA,NA,38.734177215189874,NA
94109,San Francisco County,CA,NA,NA,NA,5.033557046979865
94118,San Francisco County,CA,NA,56.88073394495413,NA,NA
94134,San Francisco County,CA,NA,40.36697247706422,NA,NA
94503,Napa County,CA,NA,NA,NA,69.12751677852349
94560,Alameda County,CA,NA,55.779816513761475,NA,NA
94568,Alameda County,CA,NA,NA,67.08860759493672,NA
94606,Alameda County,CA,81.57894736842105,NA,NA,NA
94806,Contra Costa County,CA,NA,NA,23.79746835443038,NA
95073,Santa Cruz County,CA,NA,NA,93.16455696202532,NA
95076,Santa Cruz County,CA,NA,53.027522935779814,NA,NA
95128,Santa Clara County,CA,NA,37.247706422018354,NA,NA
95240,San Joaquin County,CA,NA,NA,47.848101265822784,NA
95315,Merced County,CA,NA,NA,96.9620253164557,NA
95327,Tuolumne County,CA,NA,NA,NA,96.64429530201343
95337,San Joaquin County,CA,51.50375939849624,NA,NA,NA
95370,Tuolumne County,CA,41.72932330827068,28.256880733944957,NA,NA
95490,Mendocino County,CA,NA,NA,55.44303797468354,NA
95619,El Dorado County,CA,NA,NA,NA,90.60402684563759
95632,Sacramento County,CA,NA,61.100917431192656,NA,NA
95667,El Dorado County,CA,NA,NA,3.5443037974683547,0.6711409395973155
95682,El Dorado County,CA,71.42857142857143,59.082568807339456,NA,NA
95815,Sacramento County,CA,NA,65.5045871559633,NA,NA
95825,Sacramento County,CA,NA,87.88990825688073,NA,NA
95835,Sacramento County,CA,NA,NA,71.64556962025317,NA
95843,Sacramento County,CA,NA,NA,66.83544303797468,NA
95966,Butte County,CA,NA,NA,9.367088607594937,NA
95993,Sutter County,CA,87.21804511278195,NA,NA,NA
96007,Shasta County,CA,NA,NA,NA,56.711409395973156
96080,Tehama County,CA,NA,NA,29.367088607594937,43.624161073825505
80010,Arapahoe County,CO,NA,NA,46.07594936708861,NA
80013,Arapahoe County,CO,9.022556390977442,NA,NA,NA
80014,Arapahoe County,CO,NA,NA,NA,14.093959731543624
80016,Arapahoe County,CO,NA,NA,20.253164556962027,NA
80017,Arapahoe County,CO,NA,68.07339449541284,NA,NA
80026,Boulder County,CO,60.150375939849624,NA,NA,NA
80128,Jefferson County,CO,NA,NA,NA,73.8255033557047
80205,Denver County,CO,NA,NA,36.708860759493675,NA
80226,Jefferson County,CO,28.947368421052634,NA,NA,NA
80305,Boulder County,CO,NA,95.22935779816514,NA,NA
80521,Larimer County,CO,NA,67.3394495412844,87.0886075949367,NA
80524,Larimer County,CO,59.77443609022557,NA,NA,44.966442953020135
80525,Larimer County,CO,16.541353383458645,47.33944954128441,NA,NA
80550,Weld County,CO,NA,63.11926605504588,NA,NA
80602,Adams County,CO,NA,86.60550458715596,NA,NA
80701,Morgan County,CO,NA,24.954128440366972,NA,NA
80920,El Paso County,CO,76.31578947368422,NA,NA,NA
81005,Pueblo County,CO,NA,38.1651376146789,NA,NA
81082,Las Animas County,CO,NA,NA,NA,52.348993288590606
81212,Fremont County,CO,NA,NA,56.20253164556962,NA
81504,Mesa County,CO,NA,NA,58.734177215189874,NA
06035,Hartford County,CT,NA,NA,NA,87.91946308724832
06066,Tolland County,CT,NA,21.467889908256883,NA,NA
06082,Hartford County,CT,NA,22.752293577981654,NA,NA
06096,Hartford County,CT,NA,93.94495412844037,NA,NA
06111,Hartford County,CT,NA,NA,43.79746835443038,NA
06234,Windham County,CT,NA,85.87155963302753,NA,NA
06238,Tolland County,CT,NA,NA,NA,81.54362416107382
06422,Middlesex County,CT,NA,NA,89.1139240506329,NA
06450,New Haven County,CT,NA,NA,13.41772151898734,NA
06457,Middlesex County,CT,NA,9.174311926605505,NA,NA
06488,New Haven County,CT,84.9624060150376,NA,NA,NA
06512,New Haven County,CT,NA,25.321100917431195,NA,NA
06770,New Haven County,CT,NA,NA,27.341772151898734,NA
06790,Litchfield County,CT,21.052631578947366,NA,NA,NA
06795,Litchfield County,CT,NA,NA,60.50632911392405,NA
06830,Fairfield County,CT,NA,84.95412844036697,NA,NA
06851,Fairfield County,CT,NA,59.44954128440367,NA,NA
06877,Fairfield County,CT,73.30827067669173,NA,NA,NA
06905,Fairfield County,CT,NA,NA,52.911392405063296,NA
19702,New Castle County,DE,14.661654135338345,NA,NA,NA
19962,Kent County,DE,NA,91.55963302752293,NA,NA
19966,Sussex County,DE,NA,NA,NA,18.456375838926174
19968,Sussex County,DE,NA,72.8440366972477,NA,NA
19971,Sussex County,DE,NA,69.1743119266055,NA,NA
32033,St. Johns County,FL,NA,95.77981651376147,NA,NA
32084,St. Johns County,FL,NA,NA,NA,38.59060402684564
32141,Volusia County,FL,NA,68.80733944954129,NA,NA
32159,Lake County,FL,NA,NA,NA,7.718120805369128
32179,Marion County,FL,NA,NA,86.32911392405063,NA
32220,Duval County,FL,NA,66.42201834862385,NA,NA
32225,Duval County,FL,NA,31.009174311926607,NA,NA
32244,Duval County,FL,NA,NA,11.89873417721519,NA
32301,Leon County,FL,NA,NA,NA,68.45637583892618
32305,Leon County,FL,64.28571428571429,64.22018348623854,NA,NA
32401,Bay County,FL,NA,NA,67.59493670886076,NA
32407,Bay County,FL,NA,NA,NA,94.29530201342283
32409,Bay County,FL,NA,NA,71.39240506329114,NA
32424,Calhoun County,FL,NA,67.70642201834862,NA,NA
32428,Washington County,FL,NA,NA,55.949367088607595,NA
32431,Jackson County,FL,NA,NA,84.81012658227847,NA
32444,Bay County,FL,NA,NA,NA,44.29530201342282
32459,Walton County,FL,NA,NA,NA,65.43624161073825
32504,Escambia County,FL,NA,NA,NA,55.70469798657718
32571,Santa Rosa County,FL,NA,16.51376146788991,NA,NA
32578,Okaloosa County,FL,NA,NA,NA,94.96644295302013
32583,Santa Rosa County,FL,22.55639097744361,NA,NA,NA
32605,Alachua County,FL,NA,NA,34.68354430379747,30.201342281879196
32607,Alachua County,FL,26.691729323308273,NA,NA,NA
32608,Alachua County,FL,NA,8.623853211009175,NA,NA
32621,Levy County,FL,NA,NA,86.32911392405063,NA
32641,Alachua County,FL,NA,72.8440366972477,NA,NA
32669,Alachua County,FL,NA,NA,68.60759493670886,NA
32712,Orange County,FL,NA,NA,NA,29.194630872483224
32724,Volusia County,FL,NA,NA,77.9746835443038,NA
32903,Brevard County,FL,NA,NA,87.59493670886076,NA
32927,Brevard County,FL,NA,NA,50.63291139240506,NA
32935,Brevard County,FL,NA,NA,44.050632911392405,27.516778523489933
32937,Brevard County,FL,NA,NA,61.77215189873417,NA
32958,Indian River County,FL,NA,NA,67.84810126582278,8.724832214765101
32962,Indian River County,FL,NA,49.174311926605505,NA,NA
32967,Indian River County,FL,31.203007518796994,NA,NA,NA
32976,Brevard County,FL,NA,NA,82.02531645569621,NA
33014,Miami-Dade County,FL,NA,NA,NA,30.536912751677853
33025,Broward County,FL,NA,NA,82.78481012658227,NA
33027,Broward County,FL,NA,NA,NA,8.053691275167784
33029,Broward County,FL,NA,60.73394495412844,NA,NA
33040,Monroe County,FL,NA,NA,43.291139240506325,NA
33150,Miami-Dade County,FL,NA,NA,NA,66.44295302013423
33158,Miami-Dade County,FL,NA,NA,NA,97.31543624161074
33180,Miami-Dade County,FL,NA,NA,46.32911392405064,NA
33193,Miami-Dade County,FL,NA,62.75229357798165,NA,NA
33309,Broward County,FL,11.278195488721805,NA,NA,NA
33445,Palm Beach County,FL,NA,70.27522935779817,NA,NA
33458,Palm Beach County,FL,NA,NA,25.82278481012658,NA
33467,Palm Beach County,FL,NA,NA,NA,20.80536912751678
33483,Palm Beach County,FL,NA,NA,NA,47.31543624161073
33496,Palm Beach County,FL,NA,NA,NA,11.073825503355705
33705,Pinellas County,FL,NA,NA,83.0379746835443,NA
33713,Pinellas County,FL,NA,NA,69.11392405063292,NA
33763,Pinellas County,FL,NA,NA,NA,43.95973154362416
33765,Pinellas County,FL,NA,NA,90.12658227848101,NA
33782,Pinellas County,FL,NA,66.78899082568807,NA,NA
33825,Highlands County,FL,NA,NA,NA,26.51006711409396
33904,Lee County,FL,NA,NA,NA,11.409395973154362
33957,Lee County,FL,NA,NA,74.43037974683544,NA
34105,Collier County,FL,NA,90.64220183486239,NA,NA
34112,Collier County,FL,NA,NA,NA,25.838926174496645
34113,Collier County,FL,NA,NA,61.26582278481013,NA
34135,Lee County,FL,NA,NA,15.949367088607595,NA
34209,Manatee County,FL,NA,NA,NA,28.187919463087248
34231,Sarasota County,FL,NA,NA,19.49367088607595,6.0402684563758395
34235,Sarasota County,FL,NA,NA,NA,38.92617449664429
34236,Sarasota County,FL,NA,NA,NA,22.483221476510067
34471,Marion County,FL,NA,NA,48.860759493670884,NA
34613,Hernando County,FL,NA,73.39449541284404,36.20253164556962,NA
34677,Pinellas County,FL,NA,NA,NA,55.033557046979865
34688,Pinellas County,FL,94.73684210526315,NA,NA,NA
34689,Pinellas County,FL,NA,NA,NA,25.503355704697988
30004,Fulton County,GA,NA,NA,NA,76.51006711409396
30012,Rockdale County,GA,NA,55.22935779816513,54.43037974683544,NA
30014,Newton County,GA,NA,NA,70.12658227848101,NA
30021,DeKalb County,GA,NA,76.3302752293578,NA,NA
30032,DeKalb County,GA,NA,NA,NA,29.86577181208054
30038,DeKalb County,GA,19.548872180451127,NA,NA,NA
30039,Gwinnett County,GA,NA,68.62385321100918,NA,NA
30094,Rockdale County,GA,NA,48.440366972477065,NA,98.65771812080537
30143,Pickens County,GA,NA,NA,38.48101265822785,NA
30252,Henry County,GA,NA,41.284403669724774,52.151898734177216,NA
30314,Fulton County,GA,NA,45.87155963302752,NA,NA
30324,Fulton County,GA,NA,NA,95.44303797468355,NA
30341,DeKalb County,GA,NA,NA,78.9873417721519,NA
30467,Screven County,GA,NA,59.816513761467895,NA,NA
30513,Fannin County,GA,NA,74.86238532110092,NA,NA
30650,Morgan County,GA,76.69172932330827,NA,NA,NA
30655,Walton County,GA,NA,36.51376146788991,NA,NA
30809,Columbia County,GA,NA,NA,13.924050632911392,NA
30814,Columbia County,GA,NA,80.73394495412845,NA,NA
30906,Richmond County,GA,NA,8.807339449541285,NA,NA
31501,Ware County,GA,NA,87.1559633027523,NA,NA
31750,Ben Hill County,GA,NA,NA,32.40506329113924,NA
96761,Maui County,HI,NA,NA,NA,96.30872483221476
96789,Honolulu County,HI,NA,NA,NA,16.778523489932887
96818,Honolulu County,HI,NA,NA,NA,36.241610738255034
83202,Bannock County,ID,NA,54.67889908256881,NA,NA
83204,Bannock County,ID,39.849624060150376,NA,NA,NA
83333,Blaine County,ID,NA,NA,63.29113924050633,NA
83501,Nez Perce County,ID,NA,NA,NA,34.899328859060404
83616,Ada County,ID,63.90977443609023,NA,NA,NA
83634,Ada County,ID,NA,NA,49.87341772151899,NA
83672,Washington County,ID,NA,NA,80,NA
83704,Ada County,ID,NA,20.91743119266055,NA,NA
60002,Lake County,IL,NA,NA,36.45569620253165,NA
60004,Cook County,IL,NA,NA,10.632911392405063,NA
60013,McHenry County,IL,NA,90.09174311926606,NA,NA
60015,Lake County,IL,NA,83.4862385321101,64.81012658227849,NA
60025,Cook County,IL,NA,45.321100917431195,NA,NA
60026,Cook County,IL,NA,88.62385321100918,NA,NA
60031,Lake County,IL,NA,48.9908256880734,NA,NA
60035,Lake County,IL,52.63157894736842,NA,NA,NA
60045,Lake County,IL,NA,80.91743119266054,NA,NA
60046,Lake County,IL,NA,39.816513761467895,27.088607594936708,NA
60048,Lake County,IL,NA,79.08256880733944,NA,NA
60056,Cook County,IL,NA,41.10091743119266,NA,NA
60060,Lake County,IL,NA,NA,NA,47.98657718120805
60062,Cook County,IL,NA,41.467889908256886,NA,NA
60074,Cook County,IL,NA,NA,40.25316455696203,NA
60076,Cook County,IL,NA,NA,NA,21.812080536912752
60084,Lake County,IL,66.16541353383458,72.47706422018348,NA,NA
60089,Lake County,IL,NA,41.8348623853211,NA,NA
60091,Cook County,IL,NA,68.44036697247707,NA,NA
60093,Cook County,IL,NA,76.5137614678899,NA,NA
60096,Lake County,IL,NA,92.4770642201835,88.86075949367088,NA
60098,McHenry County,IL,29.69924812030075,NA,15.18987341772152,NA
60099,Lake County,IL,NA,NA,42.53164556962025,NA
60137,DuPage County,IL,27.819548872180448,NA,NA,NA
60142,McHenry County,IL,42.857142857142854,NA,NA,NA
60153,Cook County,IL,68.42105263157895,NA,NA,NA
60189,DuPage County,IL,NA,NA,NA,35.23489932885906
60402,Cook County,IL,NA,NA,10.126582278481013,NA
60409,Cook County,IL,38.34586466165413,NA,NA,NA
60422,Cook County,IL,NA,NA,49.11392405063291,NA
60455,Cook County,IL,NA,50.64220183486239,NA,NA
60462,Cook County,IL,17.669172932330827,NA,NA,NA
60466,Cook County,IL,NA,NA,57.46835443037974,NA
60477,Cook County,IL,NA,NA,NA,16.44295302013423
60527,DuPage County,IL,NA,NA,11.139240506329113,NA
60544,Will County,IL,NA,38.899082568807344,NA,NA
60561,DuPage County,IL,NA,NA,34.43037974683544,NA
60585,Will County,IL,NA,NA,NA,88.9261744966443
60613,Cook County,IL,NA,NA,NA,74.16107382550335
60618,Cook County,IL,NA,NA,NA,24.496644295302016
60619,Cook County,IL,NA,7.706422018348624,NA,NA
60620,Cook County,IL,NA,NA,NA,4.697986577181208
60628,Cook County,IL,NA,NA,NA,3.3557046979865772
60629,Cook County,IL,NA,28.990825688073397,NA,NA
60638,Cook County,IL,NA,NA,8.354430379746836,NA
60652,Cook County,IL,NA,NA,NA,48.322147651006716
60660,Cook County,IL,NA,NA,16.962025316455694,NA
60827,Cook County,IL,NA,75.77981651376146,58.22784810126582,60.40268456375839
61021,Lee County,IL,NA,NA,NA,2.684563758389262
61073,Winnebago County,IL,78.94736842105263,NA,NA,NA
61356,Bureau County,IL,NA,73.57798165137615,NA,NA
61520,Fulton County,IL,NA,95.59633027522936,NA,NA
61550,Tazewell County,IL,NA,NA,72.15189873417721,NA
61554,Tazewell County,IL,NA,NA,43.54430379746835,NA
61603,Peoria County,IL,NA,NA,74.68354430379746,NA
61604,Peoria County,IL,NA,NA,NA,21.476510067114095
61701,McLean County,IL,45.48872180451128,NA,NA,NA
61821,Champaign County,IL,NA,NA,51.64556962025316,NA
61832,Vermilion County,IL,23.684210526315788,NA,NA,NA
61951,Moultrie County,IL,84.21052631578947,NA,NA,NA
62056,Montgomery County,IL,NA,86.23853211009175,NA,NA
62526,Macon County,IL,NA,NA,NA,7.046979865771812
62702,Sangamon County,IL,NA,NA,84.55696202531645,NA
62902,Jackson County,IL,NA,NA,NA,95.63758389261746
62948,Williamson County,IL,NA,NA,NA,62.751677852349
46011,Madison County,IN,NA,NA,22.531645569620252,NA
46052,Boone County,IN,NA,NA,51.89873417721519,NA
46201,Marion County,IN,NA,NA,37.46835443037975,NA
46214,Marion County,IN,NA,NA,46.835443037974684,NA
46312,Lake County,IN,NA,48.62385321100918,NA,NA
46321,Lake County,IN,NA,NA,17.72151898734177,NA
46383,Porter County,IN,NA,NA,32.151898734177216,NA
46385,Porter County,IN,NA,51.37614678899083,NA,NA
46405,Lake County,IN,NA,42.75229357798165,NA,NA
46410,Lake County,IN,NA,NA,4.050632911392405,NA
46514,Elkhart County,IN,59.3984962406015,NA,NA,NA
46545,St. Joseph County,IN,69.17293233082707,NA,NA,NA
46807,Allen County,IN,45.48872180451128,NA,NA,NA
46953,Grant County,IN,NA,NA,NA,20.469798657718123
46992,Wabash County,IN,NA,NA,42.78481012658228,NA
47006,Ripley County,IN,92.4812030075188,NA,NA,NA
47130,Clark County,IN,NA,NA,NA,36.577181208053695
47331,Fayette County,IN,NA,18.1651376146789,NA,NA
47371,Jay County,IN,34.58646616541353,NA,NA,NA
47374,Wayne County,IN,7.894736842105263,NA,NA,NA
47390,Randolph County,IN,NA,NA,NA,99.32885906040269
47546,Dubois County,IN,NA,NA,40.50632911392405,NA
47909,Tippecanoe County,IN,NA,NA,47.34177215189874,NA
50129,Greene County,IA,NA,NA,NA,89.93288590604027
50314,Polk County,IA,NA,46.972477064220186,NA,NA
50322,Polk County,IA,NA,62.56880733944954,NA,NA
50327,Polk County,IA,NA,NA,NA,82.21476510067114
50616,Floyd County,IA,NA,NA,53.92405063291139,NA
52240,Johnson County,IA,NA,NA,21.518987341772153,NA
52241,Johnson County,IA,NA,48.07339449541285,NA,NA
52641,Henry County,IA,NA,71.37614678899082,NA,NA
52732,Clinton County,IA,NA,NA,30.126582278481013,NA
66083,Johnson County,KS,NA,92.11009174311927,NA,NA
66202,Johnson County,KS,NA,NA,NA,93.95973154362416
66210,Johnson County,KS,NA,75.04587155963303,NA,NA
66616,Shawnee County,KS,NA,NA,NA,79.86577181208054
66749,Allen County,KS,NA,NA,NA,60.06711409395973
67207,Sedgwick County,KS,NA,NA,80.75949367088607,NA
40031,Oldham County,KY,54.13533834586466,NA,NA,NA
40211,Jefferson County,KY,NA,NA,NA,54.69798657718121
40214,Jefferson County,KY,NA,49.54128440366973,NA,NA
40291,Jefferson County,KY,39.473684210526315,NA,NA,NA
40356,Jessamine County,KY,NA,NA,25.31645569620253,NA
40906,Knox County,KY,NA,65.3211009174312,NA,NA
41011,Kenton County,KY,NA,17.24770642201835,NA,NA
41164,Carter County,KY,NA,35.41284403669725,NA,NA
41168,Boyd County,KY,NA,96.88073394495413,NA,NA
41230,Lawrence County,KY,NA,NA,45.063291139240505,NA
41653,Floyd County,KY,NA,NA,40.75949367088608,NA
42029,Marshall County,KY,NA,73.94495412844037,NA,NA
42101,Warren County,KY,NA,NA,71.89873417721519,NA
42104,Warren County,KY,NA,NA,NA,49.328859060402685
42141,Barren County,KY,NA,14.128440366972479,NA,NA
42164,Allen County,KY,NA,40.550458715596335,NA,NA
42240,Christian County,KY,NA,7.889908256880735,NA,NA
42701,Hardin County,KY,NA,NA,NA,10.40268456375839
70056,Jefferson Parish,LA,NA,NA,NA,30.87248322147651
70115,Orleans Parish,LA,NA,22.568807339449542,NA,NA
70121,Jefferson Parish,LA,NA,NA,NA,56.04026845637584
70130,Orleans Parish,LA,NA,NA,NA,57.71812080536913
70373,Lafourche Parish,LA,NA,99.44954128440368,NA,NA
70374,Lafourche Parish,LA,31.203007518796994,NA,NA,NA
70461,St. Tammany Parish,LA,NA,20.55045871559633,NA,NA
70501,Lafayette Parish,LA,NA,3.1192660550458715,NA,NA
70570,St. Landry Parish,LA,NA,2.2018348623853212,NA,NA
70578,Acadia Parish,LA,NA,NA,NA,70.13422818791946
70601,Calcasieu Parish,LA,NA,13.944954128440369,NA,NA
70611,Calcasieu Parish,LA,NA,30.825688073394495,NA,NA
70663,Calcasieu Parish,LA,NA,NA,83.79746835443038,NA
70764,Iberville Parish,LA,NA,35.96330275229358,NA,NA
70817,East Baton Rouge Parish,LA,NA,34.4954128440367,NA,NA
71109,Caddo Parish,LA,NA,NA,27.848101265822784,NA
71291,Ouachita Parish,LA,NA,12.293577981651376,NA,NA
71446,Vernon Parish,LA,NA,38.34862385321101,NA,NA
03901,York County,ME,NA,NA,NA,77.85234899328859
04032,Cumberland County,ME,NA,NA,77.21518987341773,NA
04038,Cumberland County,ME,NA,NA,NA,78.85906040268456
04092,Cumberland County,ME,NA,41.65137614678899,NA,NA
04096,Cumberland County,ME,81.203007518797,NA,NA,NA
04103,Cumberland County,ME,NA,NA,23.544303797468356,NA
04106,Cumberland County,ME,NA,NA,37.46835443037975,NA
04401,Penobscot County,ME,NA,2.7522935779816518,NA,NA
04578,Lincoln County,ME,NA,87.70642201834863,NA,NA
20657,Calvert County,MD,86.46616541353383,NA,NA,NA
20782,Prince George's County,MD,NA,NA,NA,67.78523489932886
21133,Baltimore County,MD,NA,59.63302752293578,NA,NA
21204,Baltimore County,MD,NA,NA,NA,81.20805369127517
21206,Baltimore city,MD,NA,42.018348623853214,NA,NA
21208,Baltimore County,MD,NA,61.46788990825688,NA,NA
21212,Baltimore city,MD,82.70676691729322,NA,34.93670886075949,NA
21215,Baltimore city,MD,NA,9.541284403669724,NA,NA
21218,Baltimore city,MD,NA,12.110091743119266,NA,7.38255033557047
21223,Baltimore city,MD,NA,NA,NA,69.79865771812081
21224,Baltimore city,MD,NA,19.449541284403672,NA,NA
21236,Baltimore County,MD,NA,40.73394495412844,NA,NA
21239,Baltimore city,MD,NA,79.63302752293579,NA,NA
21550,Garrett County,MD,NA,NA,44.303797468354425,NA
21713,Washington County,MD,NA,NA,97.21518987341771,NA
21921,Cecil County,MD,NA,NA,6.075949367088607,NA
01030,Hampden County,MA,NA,51.19266055045871,NA,NA
01108,Hampden County,MA,1.5037593984962405,NA,NA,NA
01226,Berkshire County,MA,NA,NA,NA,69.46308724832215
01247,Berkshire County,MA,40.6015037593985,NA,NA,NA
01331,Worcester County,MA,NA,5.688073394495413,NA,NA
01420,Worcester County,MA,NA,35.22935779816514,1.0126582278481013,NA
01440,Worcester County,MA,NA,28.807339449541285,41.01265822784811,NA
01473,Worcester County,MA,NA,88.25688073394495,NA,NA
01501,Worcester County,MA,NA,NA,NA,26.845637583892618
01520,Worcester County,MA,NA,NA,54.177215189873415,NA
01527,Worcester County,MA,NA,55.22935779816513,NA,NA
01545,Worcester County,MA,NA,21.100917431192663,NA,NA
01562,Worcester County,MA,NA,30.275229357798167,NA,NA
01569,Worcester County,MA,89.47368421052632,NA,NA,NA
01583,Worcester County,MA,NA,NA,88.60759493670885,NA
01588,Worcester County,MA,NA,53.39449541284404,NA,NA
01602,Worcester County,MA,60.902255639097746,NA,NA,28.523489932885905
01604,Worcester County,MA,NA,NA,NA,2.348993288590604
01605,Worcester County,MA,NA,2.0183486238532113,NA,NA
01609,Worcester County,MA,NA,35.59633027522936,5.3164556962025316,NA
01610,Worcester County,MA,NA,84.58715596330275,48.60759493670886,NA
01721,Middlesex County,MA,49.24812030075188,NA,NA,NA
01746,Middlesex County,MA,NA,NA,NA,53.02013422818792
01752,Middlesex County,MA,NA,22.201834862385322,NA,NA
01757,Worcester County,MA,NA,3.302752293577982,NA,NA
01760,Middlesex County,MA,NA,NA,NA,15.100671140939598
01773,Middlesex County,MA,NA,94.12844036697248,NA,NA
01803,Middlesex County,MA,NA,NA,NA,24.161073825503358
01810,Essex County,MA,NA,NA,17.468354430379744,NA
01826,Middlesex County,MA,NA,NA,2.5316455696202533,NA
01832,Essex County,MA,NA,4.770642201834862,NA,NA
01834,Essex County,MA,52.255639097744364,NA,NA,NA
01841,Essex County,MA,NA,0.5504587155963303,NA,NA
01844,Essex County,MA,NA,10.275229357798166,NA,NA
01845,Essex County,MA,NA,60.91743119266055,NA,NA
01864,Middlesex County,MA,NA,NA,37.21518987341772,NA
01880,Middlesex County,MA,NA,NA,6.8354430379746836,NA
01886,Middlesex County,MA,28.195488721804512,NA,NA,NA
01906,Essex County,MA,NA,95.41284403669725,NA,NA
01907,Essex County,MA,NA,79.26605504587157,NA,NA
01915,Essex County,MA,NA,NA,0.5063291139240507,NA
01970,Essex County,MA,NA,1.1009174311926606,NA,NA
01982,Essex County,MA,NA,72.6605504587156,NA,NA
02026,Norfolk County,MA,32.70676691729324,NA,NA,NA
02038,Norfolk County,MA,NA,15.77981651376147,NA,NA
02048,Bristol County,MA,69.54887218045113,NA,NA,NA
02066,Plymouth County,MA,65.0375939849624,NA,NA,NA
02072,Norfolk County,MA,NA,10.825688073394495,NA,NA
02116,Suffolk County,MA,NA,18.53211009174312,3.2911392405063293,NA
02124,Suffolk County,MA,0.7518796992481203,0.1834862385321101,NA,NA
02125,Suffolk County,MA,NA,0.9174311926605505,NA,NA
02127,Suffolk County,MA,19.172932330827066,NA,NA,NA
02128,Suffolk County,MA,NA,NA,NA,75.83892617449665
02129,Suffolk County,MA,NA,4.954128440366973,NA,NA
02130,Suffolk County,MA,15.413533834586465,NA,NA,NA
02135,Suffolk County,MA,30.451127819548873,NA,NA,NA
02138,Middlesex County,MA,NA,14.495412844036698,NA,NA
02139,Middlesex County,MA,9.774436090225564,95.96330275229357,NA,NA
02143,Middlesex County,MA,16.165413533834585,NA,NA,NA
02144,Middlesex County,MA,NA,NA,94.68354430379748,NA
02148,Middlesex County,MA,NA,0,NA,13.422818791946309
02149,Middlesex County,MA,NA,0.7339449541284404,8.60759493670886,NA
02150,Suffolk County,MA,NA,15.045871559633028,NA,NA
02151,Suffolk County,MA,1.8796992481203008,7.155963302752294,0,NA
02155,Middlesex County,MA,NA,21.65137614678899,NA,NA
02176,Middlesex County,MA,NA,77.98165137614679,NA,17.449664429530202
02180,Middlesex County,MA,56.766917293233085,14.862385321100918,NA,44.63087248322148
02184,Norfolk County,MA,NA,6.7889908256880735,NA,NA
02188,Norfolk County,MA,NA,53.76146788990825,NA,NA
02189,Norfolk County,MA,NA,57.43119266055046,NA,NA
02301,Plymouth County,MA,0,0.3669724770642202,NA,NA
02360,Plymouth County,MA,NA,8.256880733944955,NA,NA
02453,Middlesex County,MA,NA,11.192660550458717,NA,NA
02459,Middlesex County,MA,NA,85.13761467889908,NA,NA
02472,Middlesex County,MA,NA,31.55963302752294,NA,NA
02474,Middlesex County,MA,NA,15.963302752293579,98.22784810126582,NA
02481,Norfolk County,MA,NA,89.90825688073394,NA,NA
02540,Barnstable County,MA,72.55639097744361,NA,NA,NA
02635,Barnstable County,MA,NA,NA,NA,92.61744966442953
02675,Barnstable County,MA,NA,79.44954128440367,NA,NA
02703,Bristol County,MA,2.2556390977443606,NA,NA,NA
02726,Bristol County,MA,97.74436090225564,NA,NA,NA
02746,Bristol County,MA,NA,2.9357798165137616,NA,NA
02762,Norfolk County,MA,93.60902255639097,NA,NA,NA
02766,Bristol County,MA,27.44360902255639,NA,NA,NA
48036,Macomb County,MI,NA,NA,30.886075949367086,NA
48042,Macomb County,MI,NA,NA,29.873417721518987,NA
48044,Macomb County,MI,40.225563909774436,33.57798165137615,NA,NA
48051,Macomb County,MI,56.390977443609025,NA,NA,NA
48076,Oakland County,MI,NA,33.76146788990826,65.0632911392405,NA
48081,Macomb County,MI,NA,NA,NA,84.8993288590604
48091,Macomb County,MI,NA,30.091743119266056,NA,NA
48103,Washtenaw County,MI,NA,NA,NA,1.342281879194631
48126,Wayne County,MI,10.150375939849624,NA,NA,NA
48127,Wayne County,MI,NA,NA,NA,10.738255033557047
48160,Washtenaw County,MI,NA,70.45871559633028,NA,NA
48162,Monroe County,MI,NA,NA,3.0379746835443036,NA
48168,Wayne County,MI,NA,NA,41.265822784810126,NA
48169,Livingston County,MI,NA,NA,33.41772151898734,NA
48178,Oakland County,MI,NA,34.67889908256881,NA,NA
48182,Monroe County,MI,43.984962406015036,NA,NA,NA
48183,Wayne County,MI,NA,NA,6.329113924050633,NA
48186,Wayne County,MI,18.796992481203006,NA,NA,NA
48188,Wayne County,MI,NA,15.229357798165138,NA,NA
48191,Washtenaw County,MI,NA,93.21100917431193,NA,NA
48198,Washtenaw County,MI,NA,3.486238532110092,14.430379746835442,NA
48203,Wayne County,MI,16.917293233082706,NA,NA,NA
48206,Wayne County,MI,NA,NA,88.10126582278481,NA
48207,Wayne County,MI,NA,NA,NA,22.818791946308725
48211,Wayne County,MI,NA,86.78899082568807,NA,NA
48219,Wayne County,MI,NA,NA,NA,19.463087248322147
48227,Wayne County,MI,28.57142857142857,NA,NA,NA
48230,Wayne County,MI,65.78947368421053,NA,NA,NA
48236,Wayne County,MI,35.714285714285715,NA,NA,NA
48238,Wayne County,MI,NA,NA,18.227848101265824,NA
48239,Wayne County,MI,NA,10.091743119266056,NA,NA
48301,Oakland County,MI,NA,64.77064220183486,NA,NA
48310,Macomb County,MI,NA,19.26605504587156,13.164556962025317,NA
48312,Macomb County,MI,NA,26.605504587155966,NA,13.758389261744966
48326,Oakland County,MI,NA,52.66055045871559,57.974683544303794,NA
48360,Oakland County,MI,NA,69.72477064220183,NA,NA
48371,Oakland County,MI,38.721804511278194,NA,NA,NA
48415,Saginaw County,MI,64.66165413533834,NA,NA,NA
48430,Genesee County,MI,NA,NA,21.772151898734176,NA
48433,Genesee County,MI,68.04511278195488,NA,NA,NA
48458,Genesee County,MI,NA,32.6605504587156,NA,NA
48625,Clare County,MI,NA,30.458715596330276,NA,NA
48708,Bay County,MI,NA,NA,7.848101265822785,NA
48813,Eaton County,MI,NA,NA,19.240506329113924,NA
48817,Shiawassee County,MI,NA,NA,NA,70.46979865771812
48867,Shiawassee County,MI,NA,NA,7.341772151898734,11.74496644295302
48895,Ingham County,MI,NA,NA,81.51898734177216,NA
48906,Ingham County,MI,24.81203007518797,NA,NA,NA
48910,Ingham County,MI,NA,NA,49.36708860759494,NA
49001,Kalamazoo County,MI,NA,NA,NA,58.38926174496645
49002,Kalamazoo County,MI,66.9172932330827,NA,NA,60.40268456375839
49012,Kalamazoo County,MI,NA,98.34862385321101,NA,NA
49017,Calhoun County,MI,NA,31.743119266055047,NA,NA
49024,Kalamazoo County,MI,NA,NA,NA,31.20805369127517
49037,Calhoun County,MI,10.902255639097744,NA,NA,NA
49055,Van Buren County,MI,NA,78.1651376146789,NA,NA
49078,Allegan County,MI,83.0827067669173,76.69724770642202,NA,NA
49120,Berrien County,MI,NA,17.79816513761468,NA,NA
49201,Jackson County,MI,58.27067669172933,NA,NA,NA
49269,Jackson County,MI,NA,88.9908256880734,NA,NA
49321,Kent County,MI,50.37593984962406,NA,NA,NA
49329,Montcalm County,MI,NA,58.532110091743114,NA,NA
49346,Mecosta County,MI,NA,NA,71.13924050632912,NA
49348,Allegan County,MI,NA,90.45871559633028,NA,NA
49349,Newaygo County,MI,83.45864661654136,91.92660550458716,92.65822784810128,NA
49415,Muskegon County,MI,NA,NA,78.22784810126582,NA
49417,Ottawa County,MI,NA,NA,57.21518987341773,NA
49418,Kent County,MI,NA,67.88990825688074,NA,NA
49420,Oceana County,MI,NA,99.08256880733946,NA,NA
49421,Oceana County,MI,NA,80.55045871559633,NA,NA
49424,Ottawa County,MI,NA,NA,NA,41.61073825503356
49426,Ottawa County,MI,NA,42.201834862385326,NA,NA
49437,Muskegon County,MI,NA,NA,91.13924050632912,NA
49441,Muskegon County,MI,NA,43.11926605504588,28.10126582278481,NA
49442,Muskegon County,MI,35.338345864661655,86.05504587155963,79.74683544303798,9.395973154362416
49444,Muskegon County,MI,NA,81.28440366972477,94.17721518987342,NA
49445,Muskegon County,MI,NA,81.8348623853211,89.36708860759494,NA
49454,Mason County,MI,NA,82.38532110091742,NA,NA
49455,Oceana County,MI,NA,96.1467889908257,NA,NA
49456,Ottawa County,MI,NA,85.3211009174312,30.632911392405067,NA
49457,Muskegon County,MI,NA,69.54128440366972,94.9367088607595,NA
49461,Muskegon County,MI,NA,91.19266055045871,NA,NA
49503,Kent County,MI,NA,38.71559633027523,NA,NA
49509,Kent County,MI,NA,NA,NA,79.86577181208054
49525,Kent County,MI,NA,NA,62.278481012658226,NA
49534,Kent County,MI,80.82706766917293,NA,NA,NA
49548,Kent County,MI,8.270676691729323,NA,NA,NA
49651,Missaukee County,MI,NA,NA,90.88607594936708,NA
49660,Manistee County,MI,NA,40,30.37974683544304,NA
49684,Grand Traverse County,MI,NA,56.69724770642202,NA,NA
49727,Charlevoix County,MI,NA,86.42201834862385,NA,NA
49770,Emmet County,MI,30.82706766917293,NA,NA,NA
49783,Chippewa County,MI,75.56390977443608,NA,NA,41.61073825503356
49855,Marquette County,MI,62.78195488721805,NA,NA,NA
49858,Menominee County,MI,NA,NA,NA,61.07382550335571
55123,Dakota County,MN,NA,NA,NA,90.93959731543623
55126,Ramsey County,MN,NA,NA,NA,57.38255033557047
55129,Washington County,MN,NA,72.11009174311927,NA,NA
55319,Sherburne County,MN,100,NA,NA,NA
55336,McLeod County,MN,70.67669172932331,NA,NA,NA
55337,Dakota County,MN,44.3609022556391,NA,NA,33.22147651006711
55404,Hennepin County,MN,NA,1.834862385321101,NA,NA
55411,Hennepin County,MN,NA,4.220183486238533,18.9873417721519,NA
55421,Anoka County,MN,NA,NA,NA,85.57046979865773
55432,Anoka County,MN,NA,NA,45.822784810126585,NA
55438,Hennepin County,MN,NA,91.00917431192661,NA,NA
55449,Anoka County,MN,NA,52.293577981651374,NA,NA
55804,St. Louis County,MN,NA,NA,38.734177215189874,NA
55811,St. Louis County,MN,NA,NA,4.810126582278481,NA
55901,Olmsted County,MN,NA,NA,86.07594936708861,NA
55921,Houston County,MN,NA,NA,NA,61.74496644295302
56345,Morrison County,MN,NA,NA,73.41772151898735,NA
56347,Todd County,MN,87.59398496240601,NA,NA,NA
56364,Morrison County,MN,NA,NA,NA,75.16778523489933
56401,Crow Wing County,MN,NA,11.559633027522937,NA,NA
56482,Wadena County,MN,75.18796992481202,NA,NA,NA
56537,Otter Tail County,MN,NA,NA,9.873417721518987,NA
56633,Hubbard County,MN,74.81203007518798,NA,NA,NA
56649,Koochiching County,MN,NA,58.1651376146789,NA,NA
56701,Pennington County,MN,NA,23.486238532110093,NA,NA
38652,Union County,MS,NA,NA,73.67088607594937,NA
39042,Rankin County,MS,NA,NA,32.65822784810127,NA
39063,Holmes County,MS,87.96992481203007,NA,NA,NA
39069,Jefferson County,MS,67.29323308270678,NA,NA,NA
39114,Simpson County,MS,77.06766917293233,NA,NA,NA
39120,Adams County,MS,70.67669172932331,NA,NA,NA
39154,Hinds County,MS,NA,NA,NA,88.25503355704699
39159,Sharkey County,MS,99.24812030075188,NA,NA,NA
39180,Warren County,MS,54.51127819548872,NA,NA,39.93288590604027
39189,Leake County,MS,NA,97.43119266055047,NA,NA
39216,Hinds County,MS,74.06015037593986,NA,NA,NA
39350,Neshoba County,MS,14.661654135338345,NA,NA,NA
39437,Jones County,MS,NA,NA,76.45569620253164,68.79194630872483
39440,Jones County,MS,2.631578947368421,NA,NA,NA
39452,George County,MS,NA,NA,23.29113924050633,NA
39466,Pearl River County,MS,NA,NA,NA,25.16778523489933
39503,Harrison County,MS,NA,12.477064220183486,NA,NA
39507,Harrison County,MS,NA,NA,NA,16.778523489932887
39532,Harrison County,MS,25.93984962406015,45.50458715596331,NA,NA
39540,Harrison County,MS,51.8796992481203,NA,NA,NA
39556,Hancock County,MS,NA,63.48623853211009,NA,NA
39560,Harrison County,MS,NA,58.71559633027523,NA,NA
39563,Jackson County,MS,NA,50.091743119266056,NA,NA
39702,Lowndes County,MS,77.81954887218046,NA,NA,NA
39739,Noxubee County,MS,94.3609022556391,NA,NA,NA
63005,St. Louis County,MO,NA,NA,NA,58.38926174496645
63050,Jefferson County,MO,NA,NA,72.40506329113924,NA
63114,St. Louis County,MO,NA,NA,NA,40.26845637583892
63139,St. Louis city,MO,NA,NA,68.10126582278481,NA
63376,St. Charles County,MO,NA,NA,NA,5.704697986577181
64053,Jackson County,MO,NA,NA,93.67088607594937,NA
64060,Clay County,MO,NA,47.1559633027523,NA,NA
64079,Platte County,MO,95.48872180451127,NA,NA,NA
64083,Cass County,MO,NA,37.43119266055046,NA,NA
64111,Jackson County,MO,NA,27.889908256880737,NA,NA
64112,Jackson County,MO,NA,NA,NA,98.3221476510067
64113,Jackson County,MO,NA,66.60550458715596,67.34177215189874,NA
64114,Jackson County,MO,NA,NA,42.025316455696206,NA
64130,Jackson County,MO,NA,NA,NA,39.59731543624161
64152,Platte County,MO,NA,23.30275229357798,NA,NA
65079,Camden County,MO,95.11278195488721,NA,NA,NA
65202,Boone County,MO,NA,NA,24.30379746835443,NA
65301,Pettis County,MO,NA,5.5045871559633035,NA,65.77181208053692
65459,Pulaski County,MO,NA,NA,NA,89.26174496644296
65807,Greene County,MO,NA,NA,17.21518987341772,NA
59230,Valley County,MT,NA,NA,NA,76.84563758389261
68111,Douglas County,NE,NA,23.669724770642205,NA,NA
68127,Douglas County,NE,NA,87.5229357798165,NA,NA
68504,Lancaster County,NE,NA,NA,90.37974683544304,NA
68512,Lancaster County,NE,NA,NA,NA,96.97986577181209
68521,Lancaster County,NE,NA,NA,76.20253164556962,NA
68528,Lancaster County,NE,93.23308270676691,NA,NA,NA
68826,Merrick County,NE,NA,NA,NA,83.22147651006712
89104,Clark County,NV,NA,39.26605504587156,NA,NA
89141,Clark County,NV,84.58646616541353,NA,NA,NA
89406,Churchill County,NV,NA,42.935779816513765,NA,NA
89436,Washoe County,NV,32.33082706766917,71.19266055045873,NA,NA
89447,Lyon County,NV,NA,NA,NA,82.88590604026845
03032,Rockingham County,NH,NA,82.56880733944955,NA,NA
03062,Hillsborough County,NH,27.06766917293233,NA,NA,NA
03104,Hillsborough County,NH,17.669172932330827,NA,NA,NA
03458,Hillsborough County,NH,NA,NA,NA,42.61744966442953
03811,Rockingham County,NH,NA,NA,85.0632911392405,NA
03860,Carroll County,NH,NA,96.3302752293578,NA,NA
07006,Essex County,NJ,85.33834586466166,NA,NA,NA
07054,Morris County,NJ,NA,NA,NA,71.14093959731544
07092,Union County,NJ,NA,NA,92.15189873417722,NA
07103,Essex County,NJ,NA,1.2844036697247707,NA,NA
07109,Essex County,NJ,NA,17.61467889908257,18.48101265822785,NA
07111,Essex County,NJ,NA,NA,NA,26.174496644295303
07112,Essex County,NJ,NA,NA,NA,41.2751677852349
07305,Hudson County,NJ,NA,NA,1.5189873417721518,NA
07405,Morris County,NJ,NA,81.65137614678899,NA,NA
07430,Bergen County,NJ,NA,66.05504587155964,NA,NA
07481,Bergen County,NJ,95.86466165413535,NA,NA,NA
07502,Passaic County,NJ,NA,NA,72.65822784810126,NA
07524,Passaic County,NJ,NA,NA,70.63291139240506,NA
07712,Monmouth County,NJ,NA,NA,5.5696202531645564,NA
07750,Monmouth County,NJ,96.2406015037594,NA,NA,NA
07753,Monmouth County,NJ,NA,6.422018348623854,NA,NA
07871,Sussex County,NJ,NA,57.064220183486235,NA,NA
08002,Camden County,NJ,50.75187969924813,NA,NA,NA
08046,Burlington County,NJ,68.796992481203,NA,NA,NA
08052,Burlington County,NJ,NA,NA,NA,54.36241610738255
08069,Salem County,NJ,NA,17.98165137614679,NA,NA
08070,Salem County,NJ,NA,NA,55.18987341772152,NA
08079,Salem County,NJ,NA,90.27522935779817,99.24050632911391,NA
08081,Camden County,NJ,46.2406015037594,NA,NA,NA
08085,Gloucester County,NJ,NA,71.74311926605505,NA,NA
08087,Ocean County,NJ,NA,22.385321100917434,NA,NA
08096,Gloucester County,NJ,NA,70.8256880733945,NA,NA
08098,Salem County,NJ,NA,NA,87.34177215189874,NA
08204,Cape May County,NJ,NA,NA,NA,79.53020134228188
08332,Cumberland County,NJ,NA,1.651376146788991,NA,42.95302013422819
08514,Monmouth County,NJ,NA,NA,95.9493670886076,NA
08518,Burlington County,NJ,71.80451127819549,NA,NA,NA
08527,Ocean County,NJ,24.06015037593985,NA,NA,NA
08753,Ocean County,NJ,NA,NA,4.30379746835443,NA
08755,Ocean County,NJ,NA,25.688073394495415,NA,NA
08820,Middlesex County,NJ,78.94736842105263,NA,NA,NA
08865,Warren County,NJ,NA,5.871559633027523,NA,NA
08882,Middlesex County,NJ,NA,60.550458715596335,NA,NA
87045,McKinley County,NM,NA,NA,NA,100
87059,Bernalillo County,NM,NA,NA,NA,82.5503355704698
87102,Bernalillo County,NM,NA,NA,50.12658227848101,84.22818791946308
87107,Bernalillo County,NM,NA,NA,24.810126582278478,NA
87114,Bernalillo County,NM,NA,NA,NA,31.879194630872483
87120,Bernalillo County,NM,NA,11.376146788990827,NA,NA
87410,San Juan County,NM,NA,NA,72.9113924050633,NA
87413,San Juan County,NM,NA,53.21100917431193,57.72151898734177,NA
87505,Santa Fe County,NM,NA,NA,6.582278481012659,16.10738255033557
87571,Taos County,NM,NA,NA,52.40506329113924,NA
88007,Doa Ana County,NM,NA,NA,NA,67.4496644295302
88203,Chaves County,NM,NA,NA,20.506329113924053,NA
88220,Eddy County,NM,NA,54.862385321100916,NA,NA
88240,Lea County,NM,NA,NA,20.759493670886076,NA
88310,Otero County,NM,NA,NA,NA,9.060402684563758
10011,New York County,NY,NA,40.18348623853211,NA,NA
10029,New York County,NY,NA,98.89908256880734,NA,NA
10034,New York County,NY,NA,65.87155963302752,NA,NA
10309,Richmond County,NY,NA,NA,NA,97.6510067114094
10312,Richmond County,NY,NA,NA,26.582278481012654,NA
10451,Bronx County,NY,NA,20.36697247706422,NA,NA
10457,Bronx County,NY,NA,6.605504587155964,NA,NA
10462,Bronx County,NY,NA,NA,3.79746835443038,NA
10467,Bronx County,NY,1.1278195488721803,NA,NA,NA
10468,Bronx County,NY,NA,NA,1.2658227848101267,NA
10469,Bronx County,NY,NA,21.834862385321102,NA,NA
10472,Bronx County,NY,NA,17.431192660550458,NA,NA
10550,Westchester County,NY,25.563909774436087,NA,NA,NA
11208,Kings County,NY,NA,9.908256880733946,NA,NA
11215,Kings County,NY,NA,NA,NA,23.48993288590604
11220,Kings County,NY,NA,NA,NA,18.120805369127517
11226,Kings County,NY,NA,NA,NA,15.771812080536913
11230,Kings County,NY,NA,NA,NA,8.389261744966444
11231,Kings County,NY,NA,NA,NA,51.34228187919463
11235,Kings County,NY,NA,NA,15.69620253164557,NA
11358,Queens County,NY,NA,NA,60,NA
11365,Queens County,NY,NA,NA,24.050632911392405,NA
11375,Queens County,NY,NA,NA,NA,9.731543624161073
11434,Queens County,NY,NA,17.06422018348624,NA,NA
11436,Queens County,NY,NA,NA,92.40506329113924,NA
11706,Suffolk County,NY,NA,NA,35.69620253164557,NA
11722,Suffolk County,NY,NA,100,NA,NA
11776,Suffolk County,NY,NA,57.247706422018354,NA,NA
11790,Suffolk County,NY,NA,NA,NA,72.14765100671141
12047,Albany County,NY,NA,NA,59.74683544303797,NA
12148,Saratoga County,NY,NA,NA,NA,86.91275167785236
12885,Warren County,NY,NA,74.6788990825688,NA,NA
12901,Clinton County,NY,NA,4.4036697247706424,NA,NA
12937,Franklin County,NY,NA,96.69724770642202,NA,NA
13021,Cayuga County,NY,NA,NA,18.48101265822785,NA
13060,Onondaga County,NY,NA,NA,98.73417721518987,NA
13088,Onondaga County,NY,NA,29.174311926605505,NA,NA
13126,Oswego County,NY,NA,5.321100917431193,NA,NA
13152,Onondaga County,NY,NA,43.30275229357798,NA,NA
13160,Cayuga County,NY,NA,NA,98.48101265822785,NA
13165,Seneca County,NY,57.5187969924812,NA,NA,NA
13203,Onondaga County,NY,NA,NA,56.9620253164557,NA
13204,Onondaga County,NY,NA,13.761467889908257,NA,NA
13207,Onondaga County,NY,NA,32.29357798165138,NA,NA
13316,Oneida County,NY,NA,NA,NA,94.63087248322147
13413,Oneida County,NY,NA,NA,33.164556962025316,NA
13461,Oneida County,NY,NA,97.9816513761468,NA,NA
13492,Oneida County,NY,NA,NA,NA,56.375838926174495
14031,Erie County,NY,86.09022556390977,NA,NA,NA
14094,Niagara County,NY,NA,2.5688073394495414,NA,NA
14206,Erie County,NY,NA,NA,29.11392405063291,NA
14212,Erie County,NY,NA,NA,75.18987341772151,NA
14225,Erie County,NY,NA,NA,17.72151898734177,NA
14228,Erie County,NY,NA,47.88990825688074,NA,NA
14420,Monroe County,NY,15.413533834586465,NA,NA,NA
14424,Ontario County,NY,NA,35.04587155963303,NA,NA
14425,Ontario County,NY,16.917293233082706,NA,NA,NA
14454,Livingston County,NY,NA,70.09174311926606,NA,NA
14469,Ontario County,NY,NA,70.64220183486239,58.48101265822785,NA
14513,Wayne County,NY,NA,26.238532110091743,NA,NA
14514,Monroe County,NY,44.3609022556391,NA,NA,NA
14559,Monroe County,NY,NA,13.211009174311927,NA,NA
14564,Ontario County,NY,NA,23.119266055045873,NA,NA
14589,Wayne County,NY,51.127819548872175,NA,NA,NA
14606,Monroe County,NY,NA,20,NA,NA
14609,Monroe County,NY,NA,NA,NA,52.68456375838926
14611,Monroe County,NY,NA,NA,NA,50.33557046979866
14615,Monroe County,NY,26.31578947368421,NA,NA,NA
14616,Monroe County,NY,7.142857142857142,NA,NA,NA
14619,Monroe County,NY,NA,NA,41.51898734177215,NA
14622,Monroe County,NY,NA,NA,NA,64.09395973154362
14625,Monroe County,NY,NA,NA,45.31645569620253,NA
14701,Chautauqua County,NY,NA,4.036697247706423,NA,NA
14706,Cattaraugus County,NY,NA,57.98165137614679,NA,NA
14733,Chautauqua County,NY,NA,94.4954128440367,NA,NA
14760,Cattaraugus County,NY,NA,11.926605504587156,NA,NA
14779,Cattaraugus County,NY,NA,NA,83.54430379746836,NA
14810,Steuben County,NY,NA,33.211009174311926,NA,NA
14830,Steuben County,NY,NA,25.871559633027523,33.92405063291139,NA
14850,Tompkins County,NY,NA,44.403669724770644,NA,NA
14882,Tompkins County,NY,NA,83.85321100917432,93.41772151898734,NA
27217,Alamance County,NC,NA,15.412844036697248,NA,NA
27292,Davidson County,NC,NA,NA,12.658227848101266,6.7114093959731544
27295,Davidson County,NC,NA,NA,2.7848101265822782,2.013422818791946
27330,Lee County,NC,NA,NA,25.82278481012658,NA
27406,Guilford County,NC,53.00751879699248,NA,NA,NA
27408,Guilford County,NC,85.71428571428571,NA,NA,NA
27410,Guilford County,NC,NA,33.02752293577982,NA,NA
27519,Wake County,NC,40.97744360902256,NA,NA,NA
27530,Wayne County,NC,NA,NA,22.025316455696203,NA
27705,Durham County,NC,NA,NA,NA,24.832214765100673
27889,Beaufort County,NC,13.533834586466165,NA,NA,NA
28147,Rowan County,NC,NA,34.12844036697248,NA,NA
28215,Mecklenburg County,NC,NA,18.34862385321101,NA,NA
28304,Cumberland County,NC,30.075187969924812,NA,NA,77.51677852348993
28352,Scotland County,NC,NA,27.339449541284406,NA,NA
28358,Robeson County,NC,NA,NA,NA,23.825503355704697
28365,Wayne County,NC,65.0375939849624,NA,NA,NA
28398,Duplin County,NC,NA,82.01834862385321,NA,NA
28717,Jackson County,NC,NA,NA,NA,97.98657718120806
28806,Buncombe County,NC,58.64661654135338,NA,NA,NA
58103,Cass County,ND,NA,NA,2.0253164556962027,NA
58201,Grand Forks County,ND,31.954887218045116,NA,NA,1.6778523489932886
58237,Walsh County,ND,NA,99.26605504587155,NA,NA
58701,Ward County,ND,78.19548872180451,NA,NA,NA
43004,Franklin County,OH,21.804511278195488,NA,NA,NA
43023,Licking County,OH,NA,NA,NA,77.85234899328859
43040,Union County,OH,NA,27.522935779816514,NA,NA
43068,Franklin County,OH,0.37593984962406013,NA,NA,NA
43081,Franklin County,OH,12.781954887218044,NA,NA,NA
43113,Pickaway County,OH,NA,16.3302752293578,NA,NA
43130,Fairfield County,OH,3.3834586466165413,NA,NA,3.691275167785235
43204,Franklin County,OH,NA,26.788990825688074,NA,NA
43207,Franklin County,OH,NA,2.385321100917431,NA,NA
43209,Franklin County,OH,NA,NA,36.9620253164557,NA
43211,Franklin County,OH,NA,12.660550458715598,NA,93.6241610738255
43215,Franklin County,OH,NA,NA,79.49367088607595,NA
43222,Franklin County,OH,NA,81.28440366972477,NA,NA
43223,Franklin County,OH,NA,7.339449541284404,NA,NA
43334,Morrow County,OH,81.95488721804512,NA,NA,NA
43420,Sandusky County,OH,NA,NA,16.70886075949367,NA
43440,Ottawa County,OH,NA,NA,77.72151898734178,NA
43560,Lucas County,OH,NA,26.422018348623855,NA,NA
43701,Muskingum County,OH,NA,38.53211009174312,NA,NA
43907,Harrison County,OH,NA,73.21100917431193,NA,NA
43950,Belmont County,OH,NA,68.9908256880734,16.20253164556962,NA
44011,Lorain County,OH,NA,64.03669724770641,NA,NA
44017,Cuyahoga County,OH,NA,36.88073394495413,NA,NA
44030,Ashtabula County,OH,NA,NA,15.443037974683543,NA
44035,Lorain County,OH,NA,NA,0.25316455696202533,0
44052,Lorain County,OH,NA,NA,NA,10.06711409395973
44072,Geauga County,OH,NA,NA,85.56962025316456,NA
44076,Ashtabula County,OH,NA,77.24770642201835,NA,NA
44077,Lake County,OH,NA,4.587155963302752,NA,14.76510067114094
44092,Lake County,OH,NA,44.77064220183487,NA,NA
44102,Cuyahoga County,OH,4.511278195488721,NA,NA,NA
44104,Cuyahoga County,OH,14.285714285714285,NA,NA,NA
44105,Cuyahoga County,OH,6.390977443609022,7.522935779816514,NA,NA
44109,Cuyahoga County,OH,NA,NA,0.7594936708860759,NA
44113,Cuyahoga County,OH,NA,9.357798165137615,NA,NA
44119,Cuyahoga County,OH,NA,NA,NA,77.18120805369128
44120,Cuyahoga County,OH,NA,NA,2.278481012658228,NA
44122,Cuyahoga County,OH,NA,NA,4.556962025316456,NA
44124,Cuyahoga County,OH,NA,NA,22.278481012658226,0.33557046979865773
44127,Cuyahoga County,OH,NA,NA,97.9746835443038,NA
44131,Cuyahoga County,OH,NA,NA,20,NA
44132,Cuyahoga County,OH,NA,NA,NA,40.604026845637584
44133,Cuyahoga County,OH,NA,28.440366972477065,12.91139240506329,NA
44134,Cuyahoga County,OH,NA,9.724770642201836,NA,NA
44136,Cuyahoga County,OH,NA,NA,NA,18.79194630872483
44138,Cuyahoga County,OH,NA,NA,NA,28.859060402684566
44139,Cuyahoga County,OH,NA,NA,NA,20.13422818791946
44145,Cuyahoga County,OH,42.4812030075188,NA,NA,NA
44149,Cuyahoga County,OH,NA,44.77064220183487,NA,NA
44201,Portage County,OH,79.69924812030075,NA,NA,NA
44202,Portage County,OH,NA,NA,NA,13.087248322147651
44203,Summit County,OH,NA,28.623853211009177,NA,NA
44212,Medina County,OH,50,NA,NA,NA
44223,Summit County,OH,48.49624060150376,NA,NA,NA
44224,Summit County,OH,NA,24.403669724770644,8.860759493670885,NA
44256,Medina County,OH,12.030075187969924,23.853211009174313,NA,NA
44266,Portage County,OH,NA,11.009174311926607,NA,NA
44281,Medina County,OH,NA,24.587155963302752,NA,NA
44288,Portage County,OH,NA,86.97247706422019,NA,NA
44313,Summit County,OH,NA,30.458715596330276,NA,NA
44320,Summit County,OH,NA,20.18348623853211,NA,NA
44321,Summit County,OH,83.83458646616542,NA,76.70886075949367,NA
44420,Trumbull County,OH,NA,37.79816513761468,NA,NA
44483,Trumbull County,OH,NA,19.08256880733945,NA,NA
44485,Trumbull County,OH,NA,NA,35.189873417721515,NA
44509,Mahoning County,OH,NA,NA,74.17721518987341,NA
44511,Mahoning County,OH,NA,NA,NA,52.013422818791945
44515,Mahoning County,OH,NA,NA,12.151898734177214,NA
44683,Tuscarawas County,OH,36.09022556390977,NA,75.69620253164557,NA
44714,Stark County,OH,NA,87.33944954128441,NA,NA
44720,Stark County,OH,NA,62.018348623853214,NA,NA
44805,Ashland County,OH,NA,15.59633027522936,NA,NA
44870,Erie County,OH,NA,NA,NA,65.1006711409396
44889,Huron County,OH,89.09774436090225,NA,62.53164556962025,NA
45040,Warren County,OH,10.526315789473683,NA,NA,NA
45044,Butler County,OH,NA,6.238532110091743,14.177215189873419,NA
45066,Warren County,OH,NA,84.03669724770643,50.8860759493671,NA
45102,Clermont County,OH,33.45864661654135,NA,NA,NA
45106,Clermont County,OH,NA,49.908256880733944,NA,NA
45133,Highland County,OH,NA,24.036697247706424,NA,NA
45140,Clermont County,OH,NA,71.55963302752293,NA,NA
45211,Hamilton County,OH,13.157894736842104,NA,NA,NA
45229,Hamilton County,OH,NA,31.376146788990827,NA,73.48993288590604
45231,Hamilton County,OH,8.646616541353383,NA,NA,NA
45236,Hamilton County,OH,21.428571428571427,NA,NA,NA
45247,Hamilton County,OH,90.22556390977444,NA,NA,NA
45331,Darke County,OH,NA,74.12844036697248,NA,NA
45342,Montgomery County,OH,NA,NA,9.620253164556962,NA
45356,Miami County,OH,39.097744360902254,NA,NA,NA
45365,Shelby County,OH,NA,NA,50.379746835443044,NA
45373,Miami County,OH,NA,NA,45.56962025316456,NA
45405,Montgomery County,OH,19.924812030075188,NA,46.58227848101266,NA
45406,Montgomery County,OH,NA,98.71559633027523,NA,NA
45429,Montgomery County,OH,NA,45.137614678899084,NA,NA
45432,Greene County,OH,NA,95.04587155963303,NA,NA
45449,Montgomery County,OH,47.368421052631575,NA,NA,NA
45458,Montgomery County,OH,NA,38.899082568807344,NA,NA
45502,Clark County,OH,NA,77.06422018348624,NA,NA
45505,Clark County,OH,NA,NA,59.24050632911393,NA
45619,Lawrence County,OH,NA,29.541284403669728,NA,NA
45640,Jackson County,OH,NA,8.073394495412845,NA,NA
45651,Vinton County,OH,NA,93.76146788990826,NA,NA
45653,Scioto County,OH,NA,93.39449541284404,NA,NA
45656,Jackson County,OH,NA,61.65137614678899,NA,NA
45662,Scioto County,OH,NA,3.853211009174312,NA,NA
45663,Scioto County,OH,NA,50.091743119266056,NA,NA
45680,Lawrence County,OH,NA,NA,32.65822784810127,NA
45750,Washington County,OH,NA,NA,7.088607594936709,1.006711409395973
45879,Paulding County,OH,NA,51.00917431192661,NA,NA
45895,Auglaize County,OH,NA,32.11009174311927,NA,NA
73034,Oklahoma County,OK,NA,NA,NA,68.12080536912751
73052,Garvin County,OK,NA,NA,NA,95.30201342281879
73130,Oklahoma County,OK,NA,NA,NA,32.5503355704698
73448,Love County,OK,NA,83.11926605504587,NA,NA
74020,Pawnee County,OK,NA,NA,81.0126582278481,NA
74047,Tulsa County,OK,NA,94.67889908256882,NA,NA
74063,Tulsa County,OK,36.46616541353384,NA,NA,NA
74074,Payne County,OK,NA,46.788990825688074,NA,NA
74104,Tulsa County,OK,NA,83.30275229357798,NA,NA
74105,Tulsa County,OK,NA,NA,49.620253164556956,NA
74107,Tulsa County,OK,NA,NA,73.16455696202532,NA
74114,Tulsa County,OK,NA,NA,NA,80.53691275167785
74129,Tulsa County,OK,41.35338345864661,NA,NA,NA
74134,Tulsa County,OK,74.43609022556392,NA,NA,NA
74135,Tulsa County,OK,67.29323308270678,78.34862385321101,NA,NA
74137,Tulsa County,OK,NA,76.14678899082568,NA,NA
74467,Wagoner County,OK,78.57142857142857,NA,NA,NA
74501,Pittsburg County,OK,NA,NA,NA,37.919463087248324
74571,Le Flore County,OK,NA,NA,98.9873417721519,NA
74859,Okfuskee County,OK,NA,88.44036697247707,NA,NA
74960,Adair County,OK,NA,NA,NA,64.42953020134227
97022,Clackamas County,OR,NA,96.5137614678899,NA,NA
97058,Wasco County,OR,NA,NA,33.67088607594937,NA
97078,Washington County,OR,NA,66.97247706422019,NA,NA
97080,Multnomah County,OR,NA,NA,21.265822784810126,NA
97103,Clatsop County,OR,NA,NA,48.10126582278481,NA
97124,Washington County,OR,23.308270676691727,NA,NA,NA
97213,Multnomah County,OR,NA,NA,61.01265822784811,NA
97224,Washington County,OR,33.08270676691729,NA,37.9746835443038,NA
97301,Marion County,OR,NA,14.678899082568808,NA,NA
97302,Marion County,OR,37.21804511278196,NA,NA,NA
97317,Marion County,OR,NA,NA,60.25316455696203,NA
97355,Linn County,OR,NA,NA,NA,12.080536912751679
97383,Marion County,OR,93.98496240601504,NA,NA,NA
97457,Douglas County,OR,NA,NA,NA,88.59060402684564
97470,Douglas County,OR,NA,NA,NA,42.281879194630875
97471,Douglas County,OR,NA,NA,5.822784810126582,NA
97501,Jackson County,OR,NA,10.458715596330276,NA,NA
97504,Jackson County,OR,NA,NA,13.670886075949367,NA
97520,Jackson County,OR,NA,NA,51.392405063291136,NA
97530,Jackson County,OR,NA,NA,81.51898734177216,NA
97754,Crook County,OR,NA,NA,23.037974683544306,NA
97862,Umatilla County,OR,NA,NA,NA,70.80536912751678
15068,Westmoreland County,PA,NA,NA,NA,4.026845637583892
15090,Allegheny County,PA,NA,NA,NA,59.73154362416108
15110,Allegheny County,PA,NA,NA,NA,86.24161073825503
15131,Allegheny County,PA,NA,NA,NA,62.751677852349
15137,Allegheny County,PA,NA,NA,NA,61.40939597315436
15145,Allegheny County,PA,NA,NA,NA,99.66442953020133
15146,Allegheny County,PA,NA,75.22935779816514,89.62025316455696,NA
15209,Allegheny County,PA,72.93233082706767,NA,NA,NA
15223,Allegheny County,PA,NA,NA,NA,91.61073825503355
15226,Allegheny County,PA,NA,67.52293577981652,NA,NA
15235,Allegheny County,PA,NA,NA,NA,12.416107382550337
15601,Westmoreland County,PA,6.015037593984962,NA,NA,NA
15613,Westmoreland County,PA,NA,65.13761467889908,NA,34.56375838926174
15627,Westmoreland County,PA,NA,NA,75.44303797468355,NA
15668,Westmoreland County,PA,NA,NA,NA,37.58389261744966
15701,Indiana County,PA,55.26315789473685,NA,NA,NA
15767,Jefferson County,PA,NA,NA,69.36708860759494,NA
15834,Cameron County,PA,NA,NA,70.88607594936708,NA
15845,Elk County,PA,NA,93.02752293577981,NA,NA
15956,Cambria County,PA,90.97744360902256,NA,NA,NA
16002,Butler County,PA,NA,NA,NA,34.22818791946309
16023,Butler County,PA,NA,NA,99.74683544303798,NA
16102,Lawrence County,PA,NA,NA,78.48101265822784,NA
16648,Blair County,PA,NA,59.26605504587156,NA,NA
16662,Blair County,PA,NA,92.29357798165138,NA,NA
16686,Blair County,PA,NA,NA,66.07594936708861,NA
16749,McKean County,PA,NA,NA,85.82278481012658,NA
16801,Centre County,PA,36.84210526315789,NA,NA,NA
17019,York County,PA,NA,64.58715596330276,NA,NA
17050,Cumberland County,PA,NA,NA,10.379746835443038,NA
17055,Cumberland County,PA,29.32330827067669,NA,NA,NA
17104,Dauphin County,PA,NA,NA,39.74683544303797,NA
17257,Cumberland County,PA,NA,25.871559633027523,NA,NA
17315,York County,PA,75.93984962406014,29.908256880733948,NA,NA
17345,York County,PA,NA,NA,NA,74.49664429530202
17356,York County,PA,NA,NA,41.77215189873418,NA
17403,York County,PA,NA,NA,NA,23.154362416107382
17517,Lancaster County,PA,NA,NA,84.30379746835443,NA
17543,Lancaster County,PA,NA,NA,11.39240506329114,NA
17701,Lycoming County,PA,NA,24.770642201834864,NA,NA
17847,Northumberland County,PA,NA,NA,51.13924050632911,NA
17851,Northumberland County,PA,NA,NA,53.417721518987335,NA
18052,Lehigh County,PA,NA,52.84403669724771,NA,27.181208053691275
18067,Northampton County,PA,91.35338345864662,NA,31.645569620253166,NA
18104,Lehigh County,PA,NA,16.69724770642202,NA,NA
18222,Luzerne County,PA,NA,NA,NA,71.47651006711409
18302,Monroe County,PA,NA,NA,66.07594936708861,NA
18324,Pike County,PA,NA,NA,91.39240506329114,NA
18360,Monroe County,PA,NA,NA,NA,21.140939597315437
18702,Luzerne County,PA,NA,31.926605504587158,NA,NA
18901,Bucks County,PA,NA,NA,26.329113924050635,NA
18951,Bucks County,PA,NA,22.93577981651376,NA,NA
18960,Bucks County,PA,NA,NA,65.31645569620254,NA
19001,Montgomery County,PA,55.639097744360896,NA,96.45569620253166,NA
19007,Bucks County,PA,NA,NA,87.84810126582279,NA
19008,Delaware County,PA,NA,NA,39.49367088607595,NA
19013,Delaware County,PA,NA,5.137614678899083,NA,NA
19021,Bucks County,PA,NA,NA,79.24050632911393,NA
19025,Montgomery County,PA,97.36842105263158,NA,NA,NA
19026,Delaware County,PA,NA,49.357798165137616,NA,NA
19027,Montgomery County,PA,NA,NA,NA,29.53020134228188
19031,Montgomery County,PA,NA,88.80733944954129,NA,NA
19063,Delaware County,PA,NA,55.22935779816513,NA,NA
19073,Delaware County,PA,57.14285714285714,54.12844036697248,NA,NA
19096,Montgomery County,PA,NA,52.477064220183486,NA,57.04697986577181
19124,Philadelphia County,PA,NA,NA,10.886075949367088,NA
19134,Philadelphia County,PA,4.887218045112782,NA,NA,NA
19143,Philadelphia County,PA,NA,1.4678899082568808,NA,NA
19148,Philadelphia County,PA,NA,NA,14.683544303797468,19.798657718120804
19151,Philadelphia County,PA,NA,16.14678899082569,NA,NA
19312,Chester County,PA,34.58646616541353,NA,NA,NA
19344,Chester County,PA,NA,80.18348623853211,NA,NA
19355,Chester County,PA,NA,42.38532110091743,NA,NA
19380,Chester County,PA,NA,NA,5.063291139240507,4.3624161073825505
19382,Chester County,PA,NA,46.42201834862386,NA,NA
19422,Montgomery County,PA,NA,NA,39.24050632911392,NA
19460,Chester County,PA,NA,NA,25.063291139240505,NA
19464,Montgomery County,PA,NA,6.055045871559633,NA,NA
19475,Chester County,PA,NA,74.49541284403671,NA,NA
19601,Berks County,PA,NA,NA,NA,46.644295302013425
19606,Berks County,PA,NA,13.027522935779817,80.50632911392405,NA
19607,Berks County,PA,NA,29.724770642201836,NA,NA
02806,Bristol County,RI,96.61654135338345,NA,NA,NA
02809,Bristol County,RI,NA,58.34862385321101,NA,NA
02816,Kent County,RI,NA,29.357798165137616,NA,NA
02822,Washington County,RI,98.87218045112782,NA,NA,NA
02859,Providence County,RI,96.99248120300751,NA,NA,NA
02860,Providence County,RI,NA,50.45871559633027,NA,NA
02863,Providence County,RI,73.68421052631578,NA,NA,NA
02864,Providence County,RI,89.84962406015038,NA,NA,NA
02865,Providence County,RI,63.53383458646616,NA,NA,NA
02871,Newport County,RI,60.902255639097746,NA,NA,NA
02886,Kent County,RI,81.95488721804512,33.39449541284404,NA,NA
02892,Washington County,RI,92.10526315789474,98.1651376146789,NA,NA
02893,Kent County,RI,90.6015037593985,NA,NA,NA
02905,Providence County,RI,91.72932330827066,NA,NA,NA
02910,Providence County,RI,NA,51.74311926605505,NA,NA
02920,Providence County,RI,NA,76.88073394495413,NA,NA
02921,Providence County,RI,99.62406015037594,NA,NA,NA
29072,Lexington County,SC,NA,NA,NA,33.89261744966443
29210,Richland County,SC,NA,NA,NA,50
29349,Spartanburg County,SC,43.609022556390975,NA,NA,NA
29451,Charleston County,SC,98.1203007518797,NA,NA,NA
29501,Florence County,SC,NA,NA,16.455696202531644,NA
29571,Marion County,SC,NA,NA,55.69620253164557,NA
29605,Greenville County,SC,25.18796992481203,NA,NA,NA
29642,Pickens County,SC,NA,34.862385321100916,NA,NA
29645,Laurens County,SC,NA,NA,75.9493670886076,NA
29657,Pickens County,SC,61.65413533834586,NA,NA,NA
29673,Greenville County,SC,NA,39.44954128440367,NA,NA
29745,York County,SC,NA,NA,NA,89.59731543624162
29803,Aiken County,SC,NA,44.22018348623853,NA,NA
57078,Yankton County,SD,NA,NA,NA,67.11409395973155
57106,Minnehaha County,SD,NA,NA,NA,5.369127516778524
57785,Meade County,SD,NA,NA,NA,92.9530201342282
37066,Sumner County,TN,NA,37.06422018348624,NA,NA
37214,Davidson County,TN,NA,NA,NA,59.06040268456376
37324,Franklin County,TN,NA,89.17431192660551,NA,NA
37343,Hamilton County,TN,NA,NA,22.78481012658228,NA
37643,Carter County,TN,NA,NA,8.10126582278481,NA
37659,Washington County,TN,NA,36.69724770642202,NA,NA
37725,Jefferson County,TN,NA,54.49541284403669,NA,NA
37737,Blount County,TN,NA,89.72477064220183,NA,NA
37743,Greene County,TN,24.43609022556391,14.311926605504588,NA,NA
37772,Loudon County,TN,NA,NA,63.037974683544306,NA
37874,Monroe County,TN,NA,NA,54.936708860759495,NA
37924,Knox County,TN,NA,97.24770642201835,NA,NA
38506,Putnam County,TN,NA,NA,NA,37.24832214765101
75006,Dallas County,TX,33.83458646616541,NA,NA,NA
75007,Denton County,TX,NA,NA,NA,39.261744966442954
75010,Denton County,TX,NA,65.68807339449542,NA,92.9530201342282
75019,Dallas County,TX,NA,NA,82.27848101265823,NA
75028,Denton County,TX,NA,NA,NA,90.26845637583892
75039,Dallas County,TX,NA,79.81651376146789,NA,NA
75043,Dallas County,TX,NA,NA,19.746835443037973,32.88590604026846
75052,Dallas County,TX,NA,NA,43.037974683544306,NA
75061,Dallas County,TX,NA,NA,63.79746835443038,NA
75068,Denton County,TX,NA,78.71559633027523,NA,NA
75070,Collin County,TX,NA,NA,82.53164556962025,NA
75082,Collin County,TX,NA,NA,NA,71.81208053691275
75093,Collin County,TX,NA,NA,NA,36.91275167785235
75115,Dallas County,TX,NA,NA,NA,58.053691275167786
75116,Dallas County,TX,NA,NA,NA,83.89261744966443
75126,Kaufman County,TX,NA,64.40366972477064,NA,NA
75137,Dallas County,TX,NA,NA,NA,84.56375838926175
75149,Dallas County,TX,5.263157894736842,NA,NA,NA
75217,Dallas County,TX,NA,NA,9.113924050632912,NA
75230,Dallas County,TX,48.1203007518797,NA,48.35443037974684,NA
75231,Dallas County,TX,NA,NA,NA,63.42281879194631
75232,Dallas County,TX,NA,46.60550458715596,NA,NA
75234,Dallas County,TX,NA,NA,NA,46.97986577181208
75236,Dallas County,TX,NA,62.38532110091744,NA,NA
75238,Dallas County,TX,NA,NA,NA,87.58389261744966
75243,Dallas County,TX,NA,NA,44.81012658227848,NA
75501,Bowie County,TX,NA,NA,24.556962025316455,NA
75647,Gregg County,TX,NA,NA,73.9240506329114,NA
75762,Smith County,TX,NA,74.31192660550458,NA,NA
76002,Tarrant County,TX,NA,57.798165137614674,NA,NA
76005,Tarrant County,TX,NA,NA,97.72151898734177,NA
76020,Tarrant County,TX,NA,31.19266055045872,NA,NA
76021,Tarrant County,TX,NA,36.14678899082569,NA,NA
76034,Tarrant County,TX,NA,75.96330275229359,NA,NA
76039,Tarrant County,TX,NA,NA,95.18987341772151,NA
76108,Tarrant County,TX,NA,39.633027522935784,NA,NA
76109,Tarrant County,TX,NA,NA,NA,78.52348993288591
76114,Tarrant County,TX,NA,44.587155963302756,NA,NA
76116,Tarrant County,TX,11.654135338345863,NA,NA,NA
76117,Tarrant County,TX,NA,35.77981651376147,NA,NA
76118,Tarrant County,TX,NA,NA,92.91139240506328,NA
76137,Tarrant County,TX,NA,NA,83.29113924050633,NA
76148,Tarrant County,TX,NA,42.56880733944954,NA,NA
76155,Tarrant County,TX,NA,99.81651376146789,NA,NA
76180,Tarrant County,TX,NA,71.0091743119266,NA,NA
76182,Tarrant County,TX,NA,64.95412844036697,NA,NA
76209,Denton County,TX,NA,78.53211009174312,NA,NA
76240,Cooke County,TX,NA,40.91743119266055,NA,NA
76502,Bell County,TX,NA,18.89908256880734,NA,NA
76513,Bell County,TX,7.518796992481203,NA,NA,NA
76522,Coryell County,TX,12.406015037593985,NA,NA,NA
76542,Bell County,TX,NA,16.88073394495413,NA,NA
76633,McLennan County,TX,80.07518796992481,NA,NA,NA
76801,Brown County,TX,NA,NA,47.59493670886076,NA
77018,Harris County,TX,NA,NA,NA,66.10738255033557
77026,Harris County,TX,NA,NA,NA,63.758389261744966
77030,Harris County,TX,NA,89.35779816513761,NA,NA
77036,Harris County,TX,NA,54.31192660550459,NA,NA
77038,Harris County,TX,NA,NA,91.64556962025317,NA
77041,Harris County,TX,48.87218045112782,NA,NA,NA
77059,Harris County,TX,NA,NA,63.54430379746835,NA
77061,Harris County,TX,NA,NA,NA,91.94630872483222
77062,Harris County,TX,NA,NA,NA,54.0268456375839
77070,Harris County,TX,NA,NA,25.31645569620253,NA
77074,Harris County,TX,NA,92.84403669724772,NA,NA
77083,Harris County,TX,NA,NA,29.620253164556964,NA
77099,Harris County,TX,NA,55.04587155963303,NA,NA
77375,Harris County,TX,NA,NA,38.22784810126582,NA
77377,Harris County,TX,NA,45.68807339449542,NA,NA
77380,Montgomery County,TX,NA,69.35779816513762,NA,NA
77382,Montgomery County,TX,NA,NA,64.30379746835443,NA
77406,Fort Bend County,TX,NA,46.23853211009175,NA,NA
77459,Fort Bend County,TX,NA,25.504587155963304,NA,NA
77465,Matagorda County,TX,NA,88.07339449541286,NA,NA
77478,Fort Bend County,TX,NA,NA,NA,49.328859060402685
77546,Galveston County,TX,NA,27.706422018348626,NA,NA
77573,Galveston County,TX,3.007518796992481,NA,NA,NA
77591,Galveston County,TX,NA,56.330275229357795,NA,NA
77598,Harris County,TX,47.744360902255636,NA,NA,NA
77619,Jefferson County,TX,NA,69.90825688073394,NA,NA
77640,Jefferson County,TX,NA,NA,66.58227848101265,NA
77642,Jefferson County,TX,NA,NA,NA,51.006711409395976
77705,Jefferson County,TX,37.59398496240601,NA,NA,NA
77706,Jefferson County,TX,NA,48.80733944954129,NA,NA
77964,Lavaca County,TX,NA,85.5045871559633,NA,NA
78041,Webb County,TX,NA,37.98165137614679,NA,NA
78043,Webb County,TX,NA,43.48623853211009,31.89873417721519,NA
78045,Webb County,TX,9.398496240601503,57.61467889908257,NA,NA
78046,Webb County,TX,NA,18.71559633027523,28.607594936708864,47.651006711409394
78209,Bexar County,TX,NA,63.48623853211009,NA,NA
78213,Bexar County,TX,NA,NA,65.56962025316456,NA
78223,Bexar County,TX,13.909774436090224,NA,NA,NA
78245,Bexar County,TX,4.135338345864661,NA,52.40506329113924,NA
78251,Bexar County,TX,NA,81.10091743119267,NA,NA
78383,Jim Wells County,TX,98.1203007518797,NA,NA,NA
78410,Nueces County,TX,NA,78.89908256880734,NA,NA
78542,Hidalgo County,TX,NA,43.48623853211009,NA,NA
78559,Cameron County,TX,NA,91.37614678899084,NA,NA
78584,Starr County,TX,NA,66.23853211009174,NA,NA
78660,Travis County,TX,20.30075187969925,NA,NA,NA
78732,Travis County,TX,NA,97.06422018348624,NA,NA
78861,Medina County,TX,NA,77.43119266055047,NA,NA
79106,Potter County,TX,46.2406015037594,NA,NA,NA
79108,Potter County,TX,NA,NA,96.20253164556962,NA
79119,Randall County,TX,NA,NA,100,NA
79745,Winkler County,TX,NA,NA,94.43037974683544,NA
79936,El Paso County,TX,NA,NA,21.012658227848103,NA
84041,Davis County,UT,NA,37.61467889908257,NA,NA
84042,Utah County,UT,NA,NA,NA,98.99328859060402
84043,Utah County,UT,18.421052631578945,NA,NA,NA
84057,Utah County,UT,57.5187969924812,NA,NA,NA
84062,Utah County,UT,NA,NA,69.62025316455697,NA
84065,Salt Lake County,UT,69.92481203007519,NA,NA,NA
84075,Davis County,UT,88.7218045112782,NA,NA,NA
84078,Uintah County,UT,NA,48.25688073394495,NA,NA
84088,Salt Lake County,UT,NA,92.66055045871559,NA,NA
84095,Salt Lake County,UT,22.932330827067666,NA,31.39240506329114,NA
84109,Salt Lake County,UT,72.18045112781954,NA,NA,NA
84115,Salt Lake County,UT,NA,NA,35.949367088607595,NA
84321,Cache County,UT,NA,NA,NA,66.77852348993288
84501,Carbon County,UT,NA,62.93577981651376,NA,NA
84606,Utah County,UT,NA,NA,96.70886075949367,NA
05301,Windham County,VT,NA,61.284403669724774,NA,NA
05454,Franklin County,VT,NA,NA,99.49367088607595,NA
05602,Washington County,VT,NA,NA,NA,48.99328859060403
22101,Fairfax County,VA,NA,53.39449541284404,NA,NA
22150,Fairfax County,VA,NA,NA,69.87341772151898,NA
22193,Prince William County,VA,NA,NA,NA,40.939597315436245
22201,Arlington County,VA,NA,60.18348623853211,NA,NA
22204,Arlington County,VA,NA,NA,47.08860759493671,NA
22405,Stafford County,VA,NA,NA,56.708860759493675,NA
22485,King George County,VA,43.233082706766915,NA,NA,NA
22601,Winchester city,VA,NA,60.366972477064216,NA,NA
22602,Frederick County,VA,NA,NA,56.45569620253165,NA
22655,Frederick County,VA,NA,58.89908256880734,NA,NA
22664,Shenandoah County,VA,NA,NA,61.26582278481013,NA
22844,Shenandoah County,VA,NA,98.53211009174312,NA,NA
22903,Charlottesville city,VA,NA,61.8348623853211,NA,NA
23229,Henrico County,VA,NA,NA,42.025316455696206,NA
23451,Virginia Beach city,VA,NA,NA,NA,3.0201342281879198
23805,Petersburg city,VA,NA,NA,62.78481012658228,NA
23890,Sussex County,VA,NA,NA,NA,95.9731543624161
23927,Mecklenburg County,VA,NA,NA,86.83544303797468,NA
24091,Floyd County,VA,NA,94.67889908256882,NA,NA
24112,Henry County,VA,NA,19.63302752293578,NA,NA
24256,Dickenson County,VA,88.34586466165413,NA,NA,NA
24354,Smyth County,VA,NA,NA,NA,45.302013422818796
24370,Smyth County,VA,NA,99.63302752293578,NA,NA
24401,Staunton city,VA,NA,13.394495412844037,NA,NA
98004,King County,WA,NA,NA,70.37974683544303,NA
98008,King County,WA,45.11278195488722,NA,NA,NA
98020,Snohomish County,WA,NA,83.6697247706422,NA,NA
98021,Snohomish County,WA,NA,55.96330275229357,NA,NA
98030,King County,WA,NA,27.155963302752294,NA,NA
98032,King County,WA,NA,NA,NA,64.76510067114094
98036,Snohomish County,WA,NA,75.59633027522936,NA,NA
98042,King County,WA,NA,20.733944954128443,NA,NA
98075,King County,WA,NA,NA,74.9367088607595,NA
98087,Snohomish County,WA,41.72932330827068,NA,NA,NA
98104,King County,WA,NA,NA,NA,55.369127516778526
98144,King County,WA,66.54135338345864,NA,NA,NA
98198,King County,WA,49.62406015037594,NA,NA,NA
98199,King County,WA,80.45112781954887,NA,NA,NA
98208,Snohomish County,WA,NA,NA,NA,46.308724832214764
98221,Skagit County,WA,NA,62.20183486238532,NA,NA
98236,Island County,WA,NA,NA,80.25316455696202,NA
98270,Snohomish County,WA,NA,NA,NA,83.55704697986577
98272,Snohomish County,WA,62.40601503759399,NA,NA,NA
98273,Skagit County,WA,22.18045112781955,NA,NA,NA
98277,Island County,WA,NA,NA,26.83544303797468,NA
98290,Snohomish County,WA,NA,44.03669724770643,NA,NA
98362,Clallam County,WA,NA,NA,NA,6.375838926174497
98373,Pierce County,WA,NA,67.1559633027523,NA,NA
98418,Pierce County,WA,NA,89.54128440366974,NA,NA
98550,Grays Harbor County,WA,NA,82.93577981651377,NA,NA
98684,Clark County,WA,NA,NA,62.0253164556962,NA
98801,Chelan County,WA,37.96992481203007,NA,NA,NA
98837,Grant County,WA,NA,NA,34.177215189873415,NA
99016,Spokane County,WA,NA,NA,93.92405063291139,NA
99202,Spokane County,WA,NA,NA,NA,85.23489932885906
99207,Spokane County,WA,NA,51.559633027522935,NA,NA
99217,Spokane County,WA,NA,NA,NA,92.28187919463086
99344,Adams County,WA,86.46616541353383,NA,NA,NA
20016,District of Columbia,DC,92.85714285714286,NA,NA,NA
25276,Roane County,WV,NA,NA,NA,72.81879194630872
25427,Berkeley County,WV,NA,84.77064220183486,NA,NA
25443,Jefferson County,WV,NA,91.55963302752293,NA,NA
26041,Marshall County,WV,NA,NA,58.9873417721519,NA
26301,Harrison County,WV,NA,8.440366972477065,NA,NA
26836,Hardy County,WV,NA,NA,NA,79.19463087248322
53010,Fond du Lac County,WI,NA,NA,90.63291139240506,NA
53012,Ozaukee County,WI,53.75939849624061,80.36697247706422,NA,NA
53022,Washington County,WI,NA,NA,NA,53.355704697986575
53027,Washington County,WI,77.44360902255639,NA,NA,NA
53105,Racine County,WI,NA,NA,11.645569620253164,NA
53140,Kenosha County,WI,NA,13.577981651376147,NA,NA
53142,Kenosha County,WI,NA,11.743119266055047,NA,NA
53144,Kenosha County,WI,NA,19.816513761467892,NA,NA
53158,Kenosha County,WI,NA,NA,31.139240506329113,NA
53188,Waukesha County,WI,NA,25.137614678899084,NA,NA
53205,Milwaukee County,WI,NA,3.669724770642202,NA,NA
53207,Milwaukee County,WI,NA,28.073394495412845,NA,NA
53210,Milwaukee County,WI,NA,8.990825688073395,NA,NA
53212,Milwaukee County,WI,NA,NA,14.936708860759493,NA
53216,Milwaukee County,WI,6.7669172932330826,NA,NA,NA
53402,Racine County,WI,NA,6.972477064220184,1.7721518987341773,NA
53545,Rock County,WI,NA,36.3302752293578,NA,22.14765100671141
53589,Dane County,WI,NA,73.76146788990826,NA,NA
54452,Lincoln County,WI,NA,93.57798165137615,NA,NA
54481,Portage County,WI,NA,NA,NA,12.751677852348994
54660,Monroe County,WI,NA,NA,NA,62.08053691275168
82601,Natrona County,WY,NA,NA,NA,85.90604026845638
82604,Natrona County,WY,NA,NA,NA,81.87919463087249
