ZipCode,county,state,Adult
35040,Shelby County,AL,38.653683319221
35055,Cullman County,AL,44.49618966977138
35057,Cullman County,AL,64.73327688399661
35111,Tuscaloosa County,AL,35.73243014394581
35125,St. Clair County,AL,46.31668077900085
35208,Jefferson County,AL,29.508890770533448
35209,Jefferson County,AL,68.12023708721424
35211,Jefferson County,AL,35.94411515664691
35224,Jefferson County,AL,97.0364098221846
35242,Shelby County,AL,23.624047417442846
35401,Tuscaloosa County,AL,64.77561388653683
35404,Tuscaloosa County,AL,9.441151566469093
35405,Tuscaloosa County,AL,4.445385266723116
35453,Tuscaloosa County,AL,44.24216765453006
35622,Morgan County,AL,71.50719729043183
35630,Lauderdale County,AL,22.81964436917866
35650,Lawrence County,AL,45.00423370025402
35652,Lauderdale County,AL,87.04487722269263
35653,Franklin County,AL,68.41659610499576
35673,Morgan County,AL,58.42506350550381
36064,Montgomery County,AL,88.14563928873835
36110,Montgomery County,AL,44.411515664690945
36571,Mobile County,AL,59.06011854360711
36582,Mobile County,AL,37.84928027095681
36609,Mobile County,AL,74.76714648602879
36701,Dallas County,AL,20.237087214225234
99504,Anchorage Municipality,AK,43.86113463166808
99508,Anchorage Municipality,AK,56.56223539373413
99517,Anchorage Municipality,AK,77.68839966130398
99611,Kenai Peninsula Borough,AK,59.6528365791702
99645,Matanuska-Susitna Borough,AK,71.76121930567317
99654,Matanuska-Susitna Borough,AK,26.883996613039795
99709,Fairbanks North Star Borough,AK,53.683319220999145
99835,Sitka City and Borough,AK,49.11092294665538
85006,Maricopa County,AZ,32.43014394580864
85007,Maricopa County,AZ,5.842506350550381
85021,Maricopa County,AZ,6.7739204064352245
85031,Maricopa County,AZ,39.542760372565624
85033,Maricopa County,AZ,9.991532599491956
85035,Maricopa County,AZ,10.160880609652837
85042,Maricopa County,AZ,19.26333615580017
85050,Maricopa County,AZ,88.73835732430145
85083,Maricopa County,AZ,70.49110922946656
85131,Pinal County,AZ,69.26333615580018
85132,Pinal County,AZ,28.281117696867064
85202,Maricopa County,AZ,14.352243861134632
85203,Maricopa County,AZ,27.64606265876376
85210,Maricopa County,AZ,93.3107535986452
85225,Maricopa County,AZ,30.69432684165961
85234,Maricopa County,AZ,92.6333615580017
85248,Maricopa County,AZ,73.96274343776462
85257,Maricopa County,AZ,57.02794242167655
85282,Maricopa County,AZ,62.40474174428451
85301,Maricopa County,AZ,2.1591871295512277
85304,Maricopa County,AZ,41.53259949195597
85338,Maricopa County,AZ,55.673158340389506
85339,Maricopa County,AZ,71.38018628281118
85378,Maricopa County,AZ,87.3835732430144
85541,Gila County,AZ,38.73835732430144
85621,Santa Cruz County,AZ,35.47840812870449
85634,Pima County,AZ,15.664690939881456
85706,Pima County,AZ,1.3124470787468248
85710,Pima County,AZ,71.2108382726503
85711,Pima County,AZ,25.19051651143099
85713,Pima County,AZ,67.40050804403049
85714,Pima County,AZ,55.2497883149873
85745,Pima County,AZ,18.035563082133784
85941,Apache County,AZ,32.218458933107534
86004,Coconino County,AZ,3.132938187976291
86432,Mohave County,AZ,98.39119390347163
86503,Apache County,AZ,25.783234546994073
86510,Navajo County,AZ,73.53937341236241
72002,Saline County,AR,58.21337849280271
72007,Lonoke County,AR,93.6917866215072
72120,Pulaski County,AR,88.82303132938189
72223,Pulaski County,AR,73.87806943268417
72712,Benton County,AR,66.85012701100761
72734,Benton County,AR,88.0186282811177
72745,Benton County,AR,76.37595258255715
72774,Washington County,AR,96.95173581710415
90003,Los Angeles County,CA,57.32430143945809
90019,Los Angeles County,CA,30.90601185436071
90241,Los Angeles County,CA,71.08382726502963
90250,Los Angeles County,CA,64.01354784081286
90255,Los Angeles County,CA,22.0575783234547
90631,Orange County,CA,26.121930567315832
90706,Los Angeles County,CA,17.823878069432684
90746,Los Angeles County,CA,68.5012701100762
90802,Los Angeles County,CA,39.83911939034716
90813,Los Angeles County,CA,24.132091447925486
91335,Los Angeles County,CA,78.06943268416596
91340,Los Angeles County,CA,53.25994919559696
91367,Los Angeles County,CA,45.34292972057578
91406,Los Angeles County,CA,81.58340389500424
91702,Los Angeles County,CA,54.06435224386114
91752,Riverside County,CA,41.02455546147333
91762,San Bernardino County,CA,55.96951735817104
91906,San Diego County,CA,98.64521591871296
91910,San Diego County,CA,18.120237087214225
91945,San Diego County,CA,75.27519051651143
91977,San Diego County,CA,85.35139712108382
91978,San Diego County,CA,97.75613886536834
92007,San Diego County,CA,83.53090601185436
92008,San Diego County,CA,90.43183742591025
92021,San Diego County,CA,54.191363251481796
92027,San Diego County,CA,85.7324301439458
92037,San Diego County,CA,72.60795935647756
92071,San Diego County,CA,47.62912785774767
92078,San Diego County,CA,42.71803556308213
92102,San Diego County,CA,28.450465707027945
92109,San Diego County,CA,59.271803556308214
92110,San Diego County,CA,46.86706181202371
92113,San Diego County,CA,47.07874682472481
92115,San Diego County,CA,53.852667231160034
92117,San Diego County,CA,73.15834038950042
92127,San Diego County,CA,80.44030482641828
92173,San Diego County,CA,87.00254022015241
92227,Imperial County,CA,62.48941574936494
92249,Imperial County,CA,97.62912785774766
92253,Riverside County,CA,89.07705334462321
92301,San Bernardino County,CA,25.148179508890774
92313,San Bernardino County,CA,91.74428450465707
92335,San Bernardino County,CA,5.4614733276884
92337,San Bernardino County,CA,48.39119390347164
92342,San Bernardino County,CA,99.32260795935647
92345,San Bernardino County,CA,45.850973751058426
92346,San Bernardino County,CA,19.89839119390347
92376,San Bernardino County,CA,88.2303132938188
92399,San Bernardino County,CA,89.71210838272651
92408,San Bernardino County,CA,86.66384419983065
92410,San Bernardino County,CA,54.91109229466554
92411,San Bernardino County,CA,65.32599491955969
92504,Riverside County,CA,31.922099915325997
92506,Riverside County,CA,61.727349703640975
92509,Riverside County,CA,16.68077900084674
92551,Riverside County,CA,56.223539373412365
92570,Riverside County,CA,31.964436917866212
92571,Riverside County,CA,75.10584250635056
92584,Riverside County,CA,34.716342082980525
92592,Riverside County,CA,20.872142252328533
92596,Riverside County,CA,63.928873835732425
92604,Orange County,CA,70.74513124470786
92656,Orange County,CA,25.40220152413209
92688,Orange County,CA,73.20067739204065
92701,Orange County,CA,91.61727349703641
92706,Orange County,CA,70.61812023708721
92707,Orange County,CA,32.64182895850974
92870,Orange County,CA,27.47671464860288
92880,Riverside County,CA,15.622353937341234
92883,Riverside County,CA,91.87129551227773
93015,Ventura County,CA,59.017781541066896
93030,Ventura County,CA,37.67993226079594
93221,Tulare County,CA,68.88230313293818
93230,Kings County,CA,11.47332768839966
93241,Kern County,CA,88.39966130397968
93263,Kern County,CA,67.06181202370873
93267,Tulare County,CA,98.17950889077053
93274,Tulare County,CA,2.87891617273497
93291,Tulare County,CA,14.944961896697714
93312,Kern County,CA,29.466553767993226
93313,Kern County,CA,69.94072819644369
93458,Santa Barbara County,CA,8.806096528365792
93535,Los Angeles County,CA,5.080440304826419
93635,Merced County,CA,61.176968670618116
93637,Madera County,CA,23.539373412362405
93638,Madera County,CA,68.58594411515665
93704,Fresno County,CA,40.51651143099069
93706,Fresno County,CA,62.44707874682472
93711,Fresno County,CA,56.350550381033024
93721,Fresno County,CA,95.385266723116
93722,Fresno County,CA,4.911092294665537
93726,Fresno County,CA,60.96528365791703
93727,Fresno County,CA,34.54699407281964
93737,Fresno County,CA,94.53852667231159
93930,Monterey County,CA,84.12362404741745
93933,Monterey County,CA,79.04318374259103
93940,Monterey County,CA,94.15749364944962
94015,San Mateo County,CA,34.08128704487722
94066,San Mateo County,CA,34.37764606265876
94103,San Francisco County,CA,7.281964436917867
94109,San Francisco County,CA,20.914479254868755
94110,San Francisco County,CA,7.620660457239628
94118,San Francisco County,CA,45.34292972057578
94127,San Francisco County,CA,90.9822184589331
94134,San Francisco County,CA,59.82218458933107
94301,Santa Clara County,CA,99.23793395427603
94303,San Mateo County,CA,50.25402201524132
94401,San Mateo County,CA,91.78662150719728
94513,Contra Costa County,CA,25.698560541913633
94541,Alameda County,CA,63.844199830651995
94544,Alameda County,CA,11.600338696020323
94585,Solano County,CA,71.93056731583404
94588,Alameda County,CA,90.77053344623201
94590,Solano County,CA,82.1337849280271
94965,Marin County,CA,98.77222692633362
95006,Santa Cruz County,CA,92.97205757832346
95020,Santa Clara County,CA,24.513124470787467
95037,Santa Clara County,CA,45.76629974597798
95076,Santa Cruz County,CA,13.124470787468248
95121,Santa Clara County,CA,83.14987298899239
95131,Santa Clara County,CA,69.94072819644369
95134,Santa Clara County,CA,67.52751905165114
95136,Santa Clara County,CA,74.68247248094835
95206,San Joaquin County,CA,15.325994919559696
95240,San Joaquin County,CA,9.568162574089754
95252,Calaveras County,CA,74.38611346316681
95301,Merced County,CA,36.11346316680779
95307,Stanislaus County,CA,23.920406435224386
95326,Stanislaus County,CA,86.24047417442846
95330,San Joaquin County,CA,92.88738357324301
95340,Merced County,CA,57.28196443691787
95341,Merced County,CA,84.20829805249788
95350,Stanislaus County,CA,11.896697713801863
95360,Stanislaus County,CA,72.9043183742591
95361,Stanislaus County,CA,31.752751905165116
95376,San Joaquin County,CA,50.71972904318375
95546,Humboldt County,CA,99.53429297205759
95603,Placer County,CA,57.02794242167655
95624,Sacramento County,CA,36.91786621507197
95630,Sacramento County,CA,19.43268416596105
95660,Sacramento County,CA,74.93649449618967
95682,El Dorado County,CA,47.41744284504657
95691,Yolo County,CA,41.95596951735817
95811,Sacramento County,CA,97.92548687552922
95817,Sacramento County,CA,99.15325994919559
95821,Sacramento County,CA,63.67485182049111
95823,Sacramento County,CA,7.239627434377646
95824,Sacramento County,CA,73.03132938187976
95826,Sacramento County,CA,88.14563928873835
95834,Sacramento County,CA,82.30313293818797
95835,Sacramento County,CA,57.15495342929721
95838,Sacramento County,CA,57.53598645215918
95926,Butte County,CA,55.800169348010165
95951,Glenn County,CA,95.04657070279424
95969,Butte County,CA,69.17866215071973
95991,Sutter County,CA,21.464860287891618
96001,Shasta County,CA,42.80270956816257
80004,Jefferson County,CO,72.86198137171888
80005,Jefferson County,CO,48.13717188823031
80010,Arapahoe County,CO,68.62828111769687
80011,Arapahoe County,CO,3.852667231160034
80012,Arapahoe County,CO,47.50211685012701
80015,Arapahoe County,CO,11.21930567315834
80017,Arapahoe County,CO,28.746824724809482
80018,Arapahoe County,CO,98.60287891617273
80027,Boulder County,CO,50.33869602032176
80110,Arapahoe County,CO,88.31498729889924
80210,Denver County,CO,44.45385266723116
80212,Denver County,CO,91.70194750211685
80218,Denver County,CO,49.83065198983912
80220,Denver County,CO,55.84250635055038
80222,Denver County,CO,32.091447925486875
80231,Denver County,CO,74.38611346316681
80239,Denver County,CO,83.95427603725656
80249,Denver County,CO,27.222692633361557
80498,Summit County,CO,99.19559695173582
80503,Boulder County,CO,55.2497883149873
80504,Boulder County,CO,23.708721422523286
80517,Larimer County,CO,94.58086367485183
80521,Larimer County,CO,57.70533446232007
80538,Larimer County,CO,62.193056731583404
80631,Weld County,CO,41.99830651989839
80634,Weld County,CO,9.949195596951736
80651,Weld County,CO,95.42760372565621
80907,El Paso County,CO,42.04064352243861
80916,El Paso County,CO,58.086367485182045
81004,Pueblo County,CO,18.458933107535984
81504,Mesa County,CO,22.650296359017783
06002,Hartford County,CT,38.230313293818796
06010,Hartford County,CT,8.086367485182048
06019,Hartford County,CT,86.49449618966976
06033,Hartford County,CT,46.35901778154107
06040,Hartford County,CT,27.307366638441998
06042,Hartford County,CT,96.35901778154107
06043,Tolland County,CT,83.74259102455545
06051,Hartford County,CT,1.905165114309907
06053,Hartford County,CT,59.52582557154953
06066,Tolland County,CT,38.14563928873836
06067,Hartford County,CT,57.57832345469941
06082,Hartford County,CT,76.12193056731583
06088,Hartford County,CT,95.51227773073666
06095,Hartford County,CT,30.52497883149873
06096,Hartford County,CT,70.61812023708721
06105,Hartford County,CT,82.59949195596951
06106,Hartford County,CT,55.20745131244708
06112,Hartford County,CT,94.7502116850127
06114,Hartford County,CT,55.50381033022862
06120,Hartford County,CT,67.95088907705335
06250,Tolland County,CT,92.59102455546147
06268,Tolland County,CT,89.5004233700254
06277,Windham County,CT,74.30143945808638
06401,New Haven County,CT,52.83657917019475
06415,New London County,CT,43.6917866215072
06418,New Haven County,CT,58.636748518204904
06437,New Haven County,CT,77.7307366638442
06447,Hartford County,CT,98.81456392887384
06450,New Haven County,CT,2.75190516511431
06451,New Haven County,CT,17.823878069432684
06457,Middlesex County,CT,22.777307366638443
06460,New Haven County,CT,51.524132091447925
06469,Middlesex County,CT,99.49195596951735
06473,New Haven County,CT,81.54106689246402
06480,Middlesex County,CT,60.88060965283658
06489,Hartford County,CT,68.6706181202371
06492,New Haven County,CT,15.071972904318374
06511,New Haven County,CT,54.614733276883996
06512,New Haven County,CT,16.42675698560542
06513,New Haven County,CT,78.19644369178663
06514,New Haven County,CT,56.5198983911939
06515,New Haven County,CT,82.68416596104996
06516,New Haven County,CT,77.64606265876375
06519,New Haven County,CT,72.9043183742591
06605,Fairfield County,CT,55.673158340389506
06606,Fairfield County,CT,38.4419983065199
06610,Fairfield County,CT,50.042337002540215
06716,New Haven County,CT,78.61981371718882
06770,New Haven County,CT,46.40135478408129
06790,Litchfield County,CT,19.093988145639287
06810,Fairfield County,CT,35.98645215918713
06825,Fairfield County,CT,74.55546147332768
06901,Fairfield County,CT,96.90939881456393
19701,New Castle County,DE,20.279424216765456
19713,New Castle County,DE,53.132938187976286
19720,New Castle County,DE,10.414902624894157
19808,New Castle County,DE,16.172734970364097
19809,New Castle County,DE,48.98391193903472
19904,Kent County,DE,8.044030482641828
19958,Sussex County,DE,84.67400508044031
19973,Sussex County,DE,9.652836579170195
19977,Kent County,DE,16.51143099068586
32034,Nassau County,FL,40.17781541066893
32084,St. Johns County,FL,21.80355630821338
32117,Volusia County,FL,25.10584250635055
32127,Volusia County,FL,49.70364098221846
32205,Duval County,FL,19.813717188823034
32206,Duval County,FL,78.23878069432683
32207,Duval County,FL,57.11261642675699
32208,Duval County,FL,0.42337002540220153
32209,Duval County,FL,43.776460626587635
32210,Duval County,FL,42.37933954276038
32216,Duval County,FL,12.658763759525826
32217,Duval County,FL,60.584250635055035
32218,Duval County,FL,1.8204911092294667
32221,Duval County,FL,51.9051651143099
32225,Duval County,FL,76.75698560541913
32254,Duval County,FL,37.383573243014396
32257,Duval County,FL,17.612193056731584
32277,Duval County,FL,79.08552074513125
32331,Madison County,FL,93.77646062658764
32444,Bay County,FL,58.42506350550381
32459,Walton County,FL,54.4030482641829
32505,Escambia County,FL,12.108382726502963
32547,Okaloosa County,FL,63.12447078746825
32578,Okaloosa County,FL,82.38780694326842
32605,Alachua County,FL,88.90770533446232
32608,Alachua County,FL,3.7679932260795934
32609,Alachua County,FL,41.65961049957663
32641,Alachua County,FL,18.374259102455547
32669,Alachua County,FL,55.96951735817104
32724,Volusia County,FL,43.903471634208294
32726,Lake County,FL,70.194750211685
32808,Orange County,FL,9.568162574089754
32811,Orange County,FL,16.29974597798476
32822,Orange County,FL,13.209144792548688
32828,Orange County,FL,27.98475867908552
32909,Brevard County,FL,60.54191363251482
32935,Brevard County,FL,13.124470787468248
33012,Miami-Dade County,FL,34.589331075359866
33033,Miami-Dade County,FL,32.1337849280271
33034,Miami-Dade County,FL,46.95173581710415
33050,Monroe County,FL,84.08128704487721
33055,Miami-Dade County,FL,40.431837425910246
33056,Miami-Dade County,FL,30.56731583403895
33060,Broward County,FL,27.77307366638442
33165,Miami-Dade County,FL,75.14817950889076
33178,Miami-Dade County,FL,61.98137171888231
33407,Palm Beach County,FL,21.8458933107536
33409,Palm Beach County,FL,55.37679932260796
33411,Palm Beach County,FL,28.916172734970363
33415,Palm Beach County,FL,32.7688399661304
33417,Palm Beach County,FL,47.24809483488569
33463,Palm Beach County,FL,38.39966130397968
33510,Hillsborough County,FL,72.692633361558
33534,Hillsborough County,FL,62.02370872142252
33563,Hillsborough County,FL,66.93480101608806
33569,Hillsborough County,FL,65.36833192209993
33579,Hillsborough County,FL,61.5580016934801
33584,Hillsborough County,FL,44.36917866215072
33603,Hillsborough County,FL,75.4022015241321
33607,Hillsborough County,FL,40.60118543607113
33614,Hillsborough County,FL,56.98560541913632
33615,Hillsborough County,FL,21.126164267569855
33617,Hillsborough County,FL,25.27519051651143
33619,Hillsborough County,FL,26.418289585097376
33625,Hillsborough County,FL,48.5182049110923
33626,Hillsborough County,FL,66.21507197290431
33629,Hillsborough County,FL,61.219305673158345
33635,Hillsborough County,FL,93.94580863674852
33637,Hillsborough County,FL,73.32768839966131
33702,Pinellas County,FL,41.49026248941575
33705,Pinellas County,FL,21.168501270110077
33763,Pinellas County,FL,75.78323454699407
33801,Polk County,FL,45.51227773073666
33805,Polk County,FL,60.838272650296354
33810,Polk County,FL,49.068585944115156
33813,Polk County,FL,75.65622353937341
33823,Polk County,FL,26.4606265876376
33830,Polk County,FL,57.66299745977985
33853,Polk County,FL,79.8475867908552
33872,Highlands County,FL,58.34038950042337
33881,Polk County,FL,28.1541066892464
33901,Lee County,FL,42.54868755292126
33936,Lee County,FL,37.806943268416596
34116,Collier County,FL,37.46824724809483
34202,Manatee County,FL,56.64690939881456
34205,Manatee County,FL,25.40220152413209
34231,Sarasota County,FL,70.87214225232854
34291,Sarasota County,FL,82.04911092294665
34433,Citrus County,FL,79.67823878069431
34452,Citrus County,FL,53.00592718035563
34472,Marion County,FL,28.111769686706182
34491,Marion County,FL,51.60880609652837
34668,Pasco County,FL,61.89669771380186
34736,Lake County,FL,64.0982218458933
34758,Osceola County,FL,15.876375952582558
34761,Orange County,FL,60.753598645215924
34787,Orange County,FL,18.458933107535984
34947,St. Lucie County,FL,43.183742591024554
34950,St. Lucie County,FL,42.25232853513971
34952,St. Lucie County,FL,17.950889077053343
34974,Okeechobee County,FL,43.60711261642676
34983,St. Lucie County,FL,71.88823031329382
34997,Martin County,FL,21.888230313293818
30004,Fulton County,GA,32.00677392040643
30005,Fulton County,GA,81.45639288738357
30012,Rockdale County,GA,43.268416596105
30014,Newton County,GA,19.729043183742593
30022,Fulton County,GA,30.609652836579173
30024,Gwinnett County,GA,14.987298899237933
30038,DeKalb County,GA,33.27688399661304
30040,Forsyth County,GA,48.43353090601185
30052,Walton County,GA,39.0770533446232
30058,DeKalb County,GA,70.74513124470786
30076,Fulton County,GA,77.0956816257409
30087,DeKalb County,GA,50.59271803556308
30093,Gwinnett County,GA,46.104995766299744
30094,Rockdale County,GA,36.74851820491109
30097,Fulton County,GA,85.81710414902625
30120,Bartow County,GA,14.479254868755293
30122,Douglas County,GA,45.088907705334464
30125,Polk County,GA,27.942421676545298
30127,Cobb County,GA,12.023708721422523
30157,Paulding County,GA,65.622353937341245
30189,Cherokee County,GA,42.209991532599496
30220,Coweta County,GA,83.4038950042337
30224,Spalding County,GA,42.337002540220155
30230,Troup County,GA,66.3844199830652
30263,Coweta County,GA,28.069432684165964
30297,Clayton County,GA,46.697713801862825
30331,Fulton County,GA,11.00762066045724
30341,DeKalb County,GA,58.42506350550381
30344,Fulton County,GA,34.16596104995766
30345,DeKalb County,GA,73.24301439458087
30349,Fulton County,GA,4.149026248941575
30350,Fulton County,GA,54.318374259102455
30504,Hall County,GA,71.25317527519051
30519,Gwinnett County,GA,36.40982218458933
30633,Madison County,GA,91.27857747671464
30817,Lincoln County,GA,73.1160033869602
30824,McDuffie County,GA,38.060965283657914
30833,Jefferson County,GA,96.82472480948348
30906,Richmond County,GA,3.810330228619814
30909,Richmond County,GA,19.17866215071973
31088,Houston County,GA,9.822184589331075
31204,Bibb County,GA,23.793395427603727
31206,Bibb County,GA,52.62489415749365
31217,Bibb County,GA,51.651143099068584
31322,Chatham County,GA,71.4225232853514
31601,Lowndes County,GA,18.79762912785775
31792,Thomas County,GA,25.613886536833192
31906,Muscogee County,GA,62.32006773920406
31907,Muscogee County,GA,4.318374259102455
31909,Muscogee County,GA,60.711261642675694
96701,Honolulu County,HI,84.71634208298052
96706,Honolulu County,HI,28.662150719729045
96707,Honolulu County,HI,26.926333615580017
96748,Maui County,HI,94.83488569009315
96766,Kauai County,HI,81.66807790008468
96778,Hawaii County,HI,59.6528365791702
96782,Honolulu County,HI,27.434377646062657
96789,Honolulu County,HI,15.580016934801016
96791,Honolulu County,HI,81.2870448772227
96792,Honolulu County,HI,31.07535986452159
96797,Honolulu County,HI,4.360711261642676
96817,Honolulu County,HI,30.821337849280273
96819,Honolulu County,HI,36.87552921253175
83301,Twin Falls County,ID,1.7781541066892466
83316,Twin Falls County,ID,95.72396274343777
83501,Nez Perce County,ID,34.33530906011855
83607,Canyon County,ID,29.085520745131245
83617,Gem County,ID,61.092294665537686
83642,Ada County,ID,11.26164267569856
83644,Canyon County,ID,95.93564775613886
83646,Ada County,ID,49.3649449618967
83651,Canyon County,ID,11.17696867061812
83686,Canyon County,ID,24.343776460626586
83814,Kootenai County,ID,55.63082133784928
83835,Kootenai County,ID,45.76629974597798
60002,Lake County,IL,50.084674005080444
60004,Cook County,IL,18.077900084674006
60014,McHenry County,IL,80.39796782387808
60021,McHenry County,IL,95.25825571549534
60031,Lake County,IL,37.637595258255715
60035,Lake County,IL,84.63166807790007
60073,Lake County,IL,54.65707027942421
60085,Lake County,IL,11.388653683319221
60089,Lake County,IL,30.39796782387807
60108,DuPage County,IL,95.63928873835732
60123,Kane County,IL,60.66892464013548
60134,Kane County,IL,34.63166807790009
60152,McHenry County,IL,66.63844199830652
60174,Kane County,IL,65.7493649449619
60181,DuPage County,IL,22.52328535139712
60188,DuPage County,IL,39.9237933954276
60192,Cook County,IL,78.7891617273497
60402,Cook County,IL,6.604572396274344
60409,Cook County,IL,52.37087214225233
60411,Cook County,IL,7.8746824724809485
60419,Cook County,IL,35.77476714648603
60440,Will County,IL,14.01354784081287
60446,Will County,IL,35.266723116003384
60448,Will County,IL,44.49618966977138
60452,Cook County,IL,38.56900931414056
60477,Cook County,IL,19.475021168501268
60517,DuPage County,IL,30.10160880609653
60520,DeKalb County,IL,98.34885690093141
60527,DuPage County,IL,69.55969517358172
60538,Kendall County,IL,48.9415749364945
60544,Will County,IL,89.75444538526672
60560,Kendall County,IL,88.61134631668078
60564,Will County,IL,28.32345469940728
60586,Will County,IL,9.017781541066892
60609,Cook County,IL,5.71549534292972
60614,Cook County,IL,15.707027942421675
60618,Cook County,IL,54.78408128704487
60619,Cook County,IL,49.66130397967824
60620,Cook County,IL,38.780694326841655
60629,Cook County,IL,2.9212531752751905
60630,Cook County,IL,16.89246401354784
60632,Cook County,IL,63.928873835732425
60640,Cook County,IL,4.741744284504657
60646,Cook County,IL,86.5791701947502
60651,Cook County,IL,4.614733276883996
60653,Cook County,IL,21.888230313293818
60655,Cook County,IL,51.56646909398815
60659,Cook County,IL,37.00254022015241
60660,Cook County,IL,20.152413209144793
60707,Cook County,IL,14.09822184589331
60804,Cook County,IL,13.92887383573243
61008,Boone County,IL,25.31752751905165
61074,Carroll County,IL,92.84504657070279
61114,Winnebago County,IL,71.04149026248942
61115,Winnebago County,IL,41.61727349703641
61341,LaSalle County,IL,93.94580863674852
61455,McDonough County,IL,77.22269263336156
61605,Peoria County,IL,63.63251481795089
61802,Champaign County,IL,52.243861134631665
61832,Vermilion County,IL,27.5190516511431
62234,Madison County,IL,68.83996613039797
62236,Monroe County,IL,93.9034716342083
62615,Sangamon County,IL,99.61896697713803
46131,Johnson County,IN,22.692633361558002
46176,Shelby County,IN,73.62404741744285
46184,Johnson County,IN,63.717188823031336
46218,Marion County,IN,5.4191363251481794
46222,Marion County,IN,41.40558848433531
46226,Marion County,IN,49.23793395427604
46229,Marion County,IN,17.18882303132938
46236,Marion County,IN,50.80440304826418
46239,Marion County,IN,44.19983065198984
46241,Marion County,IN,77.47671464860288
46307,Lake County,IN,0.8044030482641829
46561,St. Joseph County,IN,79.12785774767146
46738,DeKalb County,IN,59.99153259949196
46750,Huntington County,IN,13.463166807790008
46774,Allen County,IN,49.95766299745978
46809,Allen County,IN,46.02032176121931
46825,Allen County,IN,28.789161727349704
46902,Howard County,IN,1.8628281117696865
46923,Carroll County,IN,71.8458933107536
46970,Miami County,IN,27.01100762066046
47265,Jennings County,IN,83.48856900931413
47274,Jackson County,IN,20.702794242167656
47303,Delaware County,IN,56.68924640135479
47304,Delaware County,IN,40.685859441151564
47432,Orange County,IN,92.12531752751904
47601,Warrick County,IN,75.99491955969518
47711,Vanderburgh County,IN,50.508044030482644
47712,Vanderburgh County,IN,41.151566469093986
47715,Vanderburgh County,IN,86.87552921253176
47802,Vigo County,IN,46.06265876375952
47905,Tippecanoe County,IN,31.16003386960203
50125,Warren County,IA,58.59441151566469
50220,Dallas County,IA,82.51481795088907
50310,Polk County,IA,42.84504657070279
50313,Polk County,IA,30.10160880609653
50314,Polk County,IA,78.49280270956817
50315,Polk County,IA,4.6994072819644375
50320,Polk County,IA,67.31583403895004
50323,Dallas County,IA,92.6756985605419
50401,Cerro Gordo County,IA,6.858594411515664
50701,Black Hawk County,IA,25.06350550381033
51106,Woodbury County,IA,86.32514817950889
51501,Pottawattamie County,IA,1.5241320914479255
51503,Pottawattamie County,IA,24.809483488569008
51566,Montgomery County,IA,94.49618966977138
52003,Dubuque County,IA,80.77900084674005
52205,Jones County,IA,93.35309060118544
52317,Johnson County,IA,69.43268416596105
52349,Benton County,IA,62.912785774767144
52632,Lee County,IA,30.39796782387807
52722,Scott County,IA,59.73751058425063
52761,Muscatine County,IA,48.348856900931416
52776,Muscatine County,IA,94.36917866215072
52804,Scott County,IA,55.16511430990686
66083,Johnson County,KS,65.707027942421675
66219,Johnson County,KS,79.46655376799323
66547,Pottawatomie County,KS,78.53513971210837
67217,Sedgwick County,KS,41.74428450465707
67301,Montgomery County,KS,72.9043183742591
67501,Reno County,KS,57.366638441998305
40004,Nelson County,KY,39.712108382726505
40019,Henry County,KY,89.96613039796783
40031,Oldham County,KY,70.02540220152413
40211,Jefferson County,KY,8.001693480101608
40212,Jefferson County,KY,47.75613886536833
40214,Jefferson County,KY,3.3869602032176123
40215,Jefferson County,KY,12.362404741744285
40216,Jefferson County,KY,4.9534292972057585
40219,Jefferson County,KY,7.578323454699406
40223,Jefferson County,KY,79.12785774767146
40229,Jefferson County,KY,7.027942421676546
40245,Jefferson County,KY,67.2311600338696
40380,Powell County,KY,61.85436071126165
40403,Madison County,KY,16.045723962743438
40475,Madison County,KY,4.233700254022015
40505,Fayette County,KY,16.97713801862828
40517,Fayette County,KY,15.114309906858594
40741,Laurel County,KY,15.876375952582558
40965,Bell County,KY,19.729043183742593
41005,Boone County,KY,76.16426756985607
41015,Kenton County,KY,19.60203217612193
41016,Kenton County,KY,71.67654530059272
41017,Kenton County,KY,69.34801016088062
41035,Grant County,KY,36.28281117696867
41040,Pendleton County,KY,88.35732430143946
41042,Boone County,KY,18.670618120237087
41051,Kenton County,KY,81.62574089754445
41056,Mason County,KY,33.44623200677392
41071,Campbell County,KY,19.983065198983912
41101,Boyd County,KY,10.795935647756139
41171,Elliott County,KY,88.39966130397968
41501,Pike County,KY,30.39796782387807
41514,Pike County,KY,85.39373412362404
41553,Pike County,KY,99.28027095681625
42134,Simpson County,KY,41.27857747671465
42141,Barren County,KY,7.112616426756986
42211,Trigg County,KY,51.989839119390346
42303,Daviess County,KY,27.053344623200676
42376,Daviess County,KY,89.54276037256562
42754,Grayson County,KY,20.491109229466552
70001,Jefferson Parish,LA,78.40812870448772
70003,Jefferson Parish,LA,54.445385266723115
70037,Plaquemines Parish,LA,32.1337849280271
70043,St. Bernard Parish,LA,9.102455546147333
70056,Jefferson Parish,LA,95.76629974597799
70084,St. John the Baptist Parish,LA,80.31329381879763
70092,St. Bernard Parish,LA,87.46824724809483
70117,Orleans Parish,LA,44.1151566469094
70118,Orleans Parish,LA,11.812023708721423
70119,Orleans Parish,LA,55.08044030482642
70122,Orleans Parish,LA,17.569856054191362
70123,Jefferson Parish,LA,68.54360711261643
70126,Orleans Parish,LA,20.02540220152413
70127,Orleans Parish,LA,52.45554614733277
70128,Orleans Parish,LA,37.383573243014396
70341,Assumption Parish,LA,100
70346,Ascension Parish,LA,36.83319220999153
70395,Terrebonne Parish,LA,88.39966130397968
70422,Tangipahoa Parish,LA,18.204911092294665
70427,Washington Parish,LA,9.314140558848434
70433,St. Tammany Parish,LA,60.07620660457239
70460,St. Tammany Parish,LA,62.48941574936494
70471,St. Tammany Parish,LA,31.583403895004235
70501,Lafayette Parish,LA,22.60795935647756
70506,Lafayette Parish,LA,65.19898391193904
70517,St. Martin Parish,LA,7.705334462320068
70546,Jefferson Davis Parish,LA,76.62997459779848
70578,Acadia Parish,LA,78.53513971210837
70584,St. Landry Parish,LA,95.80863674851821
70589,St. Landry Parish,LA,99.87298899237935
70726,Livingston Parish,LA,94.45385266723116
70737,Ascension Parish,LA,3.4716342082980525
70769,Ascension Parish,LA,77.60372565622355
70788,Iberville Parish,LA,80.65198983911938
70802,East Baton Rouge Parish,LA,78.91617273497037
70805,East Baton Rouge Parish,LA,10.626587637595259
70806,East Baton Rouge Parish,LA,81.11769686706182
70808,East Baton Rouge Parish,LA,34.50465707027943
70809,East Baton Rouge Parish,LA,42.67569856054191
70814,East Baton Rouge Parish,LA,90.68585944115156
70816,East Baton Rouge Parish,LA,18.924640135478406
70817,East Baton Rouge Parish,LA,24.216765453005927
71037,Bossier Parish,LA,56.943268416596105
71052,De Soto Parish,LA,59.18712955122777
71107,Caddo Parish,LA,79.97459779847587
71108,Caddo Parish,LA,77.90008467400507
71109,Caddo Parish,LA,50.71972904318375
71111,Bossier Parish,LA,64.0558848433531
71118,Caddo Parish,LA,60.11854360711262
71203,Ouachita Parish,LA,24.55546147332769
71241,Union Parish,LA,97.84081287044877
71251,Jackson Parish,LA,36.790855207451315
71282,Madison Parish,LA,39.542760372565624
71295,Franklin Parish,LA,39.2887383573243
71446,Vernon Parish,LA,78.28111769686707
71463,Allen Parish,LA,85.47840812870449
04032,Cumberland County,ME,76.07959356477562
04055,Cumberland County,ME,90.1354784081287
04062,Cumberland County,ME,45.088907705334464
04064,York County,ME,84.4623200677392
04090,York County,ME,77.77307366638442
04092,Cumberland County,ME,30.016934801016088
04096,Cumberland County,ME,92.80270956816258
04101,Cumberland County,ME,26.248941574936495
04210,Androscoggin County,ME,57.79000846740051
04240,Androscoggin County,ME,33.8272650296359
04280,Androscoggin County,ME,91.91363251481796
04282,Androscoggin County,ME,74.5977984758679
04330,Kennebec County,ME,92.76037256562235
04364,Kennebec County,ME,73.32768839966131
04401,Penobscot County,ME,0.9314140558848433
04412,Penobscot County,ME,87.34123624047417
04468,Penobscot County,ME,89.20406435224386
04930,Penobscot County,ME,76.75698560541913
20603,Charles County,MD,55.927180355630824
20619,St. Mary's County,MD,91.06689246401355
20744,Prince George's County,MD,35.859441151566465
20748,Prince George's County,MD,34.419983065198984
20784,Prince George's County,MD,57.832345469940726
20855,Montgomery County,MD,85.47840812870449
21001,Harford County,MD,51.6934801016088
21012,Anne Arundel County,MD,69.77138018628281
21014,Harford County,MD,30.94834885690093
21015,Harford County,MD,82.7688399661304
21017,Harford County,MD,84.80101608806096
21028,Harford County,MD,99.74597798475868
21040,Harford County,MD,84.92802709568163
21044,Howard County,MD,86.40982218458933
21045,Howard County,MD,37.84928027095681
21046,Howard County,MD,83.36155800169348
21060,Anne Arundel County,MD,21.253175275190518
21061,Anne Arundel County,MD,57.45131244707875
21075,Howard County,MD,80.10160880609652
21084,Harford County,MD,98.94157493649449
21093,Baltimore County,MD,33.107535986452156
21102,Carroll County,MD,80.86367485182049
21104,Carroll County,MD,99.44961896697714
21117,Baltimore County,MD,95.17358171041491
21122,Anne Arundel County,MD,23.581710414902624
21128,Baltimore County,MD,78.70448772226926
21158,Carroll County,MD,73.32768839966131
21204,Baltimore County,MD,58.80609652836579
21206,Baltimore city,MD,75.02116850127011
21207,Baltimore County,MD,15.791701947502117
21208,Baltimore County,MD,50.42337002540221
21212,Baltimore city,MD,31.583403895004235
21214,Baltimore city,MD,49.195596951735816
21215,Baltimore city,MD,3.979678238780694
21216,Baltimore city,MD,26.545300592718036
21217,Baltimore city,MD,44.7502116850127
21220,Baltimore County,MD,11.685012701100762
21221,Baltimore County,MD,13.84419983065199
21222,Baltimore County,MD,16.8077900084674
21224,Baltimore city,MD,73.83573243014393
21228,Baltimore County,MD,40.855207451312445
21229,Baltimore city,MD,68.077900084674
21234,Baltimore County,MD,36.663844199830656
21236,Baltimore County,MD,82.21845893310754
21237,Baltimore County,MD,42.42167654530059
21239,Baltimore city,MD,24.301439458086367
21244,Baltimore County,MD,77.77307366638442
21502,Allegany County,MD,17.0194750211685
21740,Washington County,MD,12.277730736663845
01020,Hampden County,MA,29.254868755292122
01040,Hampden County,MA,0.04233700254022015
01069,Hampden County,MA,50.93141405588484
01095,Hampden County,MA,65.02963590177815
01105,Hampden County,MA,25.910245554614736
01108,Hampden County,MA,0.5080440304826418
01151,Hampden County,MA,19.94072819644369
01247,Berkshire County,MA,2.8365791701947503
01420,Worcester County,MA,42.167654530059274
01462,Worcester County,MA,68.96697713801862
01550,Worcester County,MA,33.02286198137172
01570,Worcester County,MA,2.1168501270110074
01581,Worcester County,MA,84.41998306519899
01588,Worcester County,MA,13.632514817950888
01604,Worcester County,MA,72.4809483488569
01607,Worcester County,MA,7.7476714648602885
01720,Middlesex County,MA,25.529212531752755
01757,Worcester County,MA,8.890770533446233
01801,Middlesex County,MA,85.64775613886538
01830,Essex County,MA,0.550381033022862
01844,Essex County,MA,24.386113463166808
01851,Middlesex County,MA,1.0160880609652836
01860,Essex County,MA,89.45808636748518
01863,Middlesex County,MA,42.760372565622355
01867,Middlesex County,MA,20.40643522438611
01876,Middlesex County,MA,3.429297205757832
01880,Middlesex County,MA,38.48433530906012
01890,Middlesex County,MA,34.20829805249788
01902,Essex County,MA,19.68670618120237
01904,Essex County,MA,27.900084674005083
01905,Essex County,MA,38.01862828111769
01915,Essex County,MA,62.362404741744285
01930,Essex County,MA,1.6934801016088061
01940,Essex County,MA,51.4817950889077
01960,Essex County,MA,0.21168501270110077
02066,Plymouth County,MA,27.561388653683323
02090,Norfolk County,MA,54.868755292125314
02119,Suffolk County,MA,0.5927180355630821
02122,Suffolk County,MA,17.40050804403048
02124,Suffolk County,MA,12.912785774767146
02125,Suffolk County,MA,14.18289585097375
02126,Suffolk County,MA,0.1693480101608806
02128,Suffolk County,MA,47.03640982218459
02131,Suffolk County,MA,87.72226926333616
02136,Suffolk County,MA,0.7620660457239627
02138,Middlesex County,MA,7.154953429297207
02139,Middlesex County,MA,24.25910245554615
02141,Middlesex County,MA,21.54953429297206
02148,Middlesex County,MA,32.85351397121084
02149,Middlesex County,MA,9.483488569009314
02150,Suffolk County,MA,50.46570702794242
02151,Suffolk County,MA,12.320067739204065
02155,Middlesex County,MA,30.355630821337847
02169,Norfolk County,MA,22.31160033869602
02176,Middlesex County,MA,3.725656223539373
02188,Norfolk County,MA,41.10922946655377
02301,Plymouth County,MA,0
02302,Plymouth County,MA,54.23370025402201
02324,Plymouth County,MA,6.181202370872143
02330,Plymouth County,MA,67.35817104149027
02346,Plymouth County,MA,58.890770533446236
02356,Bristol County,MA,65.45300592718036
02359,Plymouth County,MA,21.76121930567316
02368,Norfolk County,MA,0.8890770533446233
02453,Middlesex County,MA,64.90262489415748
02474,Middlesex County,MA,32.5571549534293
02482,Norfolk County,MA,63.336155800169344
02554,Nantucket County,MA,25.021168501270107
02664,Barnstable County,MA,96.69771380186283
02718,Bristol County,MA,96.99407281964437
02760,Bristol County,MA,6.265876375952582
02767,Bristol County,MA,17.739204064352244
02769,Bristol County,MA,36.36748518204911
02777,Bristol County,MA,4.064352243861134
48001,St. Clair County,MI,58.25571549534293
48003,Lapeer County,MI,79.88992379339543
48017,Oakland County,MI,70.49110922946656
48038,Macomb County,MI,7.790008467400508
48047,Macomb County,MI,8.46740050804403
48049,St. Clair County,MI,94.19983065198984
48066,Macomb County,MI,1.5664690939881456
48076,Oakland County,MI,83.6155800169348
48084,Oakland County,MI,69.13632514817951
48089,Macomb County,MI,23.497036409822183
48091,Macomb County,MI,37.044877222692634
48092,Macomb County,MI,22.14225232853514
48093,Macomb County,MI,13.420829805249786
48111,Wayne County,MI,51.18543607112617
48120,Wayne County,MI,62.912785774767144
48124,Wayne County,MI,59.10245554614734
48125,Wayne County,MI,16.34208298052498
48133,Monroe County,MI,97.41744284504658
48135,Wayne County,MI,93.268416596105
48137,Livingston County,MI,95.30059271803556
48141,Wayne County,MI,41.91363251481795
48152,Wayne County,MI,24.174428450465708
48161,Monroe County,MI,73.7510584250635
48162,Monroe County,MI,7.366638441998306
48169,Livingston County,MI,37.12955122777307
48174,Wayne County,MI,3.598645215918713
48180,Wayne County,MI,24.005080440304827
48183,Wayne County,MI,65.07197290431837
48184,Wayne County,MI,9.779847586790854
48185,Wayne County,MI,57.40897544453853
48186,Wayne County,MI,19.51735817104149
48187,Wayne County,MI,58.001693480101615
48202,Wayne County,MI,22.396274343776458
48205,Wayne County,MI,14.775613886536835
48209,Wayne County,MI,16.72311600338696
48210,Wayne County,MI,18.543607112616428
48212,Wayne County,MI,26.926333615580017
48213,Wayne County,MI,28.49280270956816
48214,Wayne County,MI,69.72904318374259
48220,Oakland County,MI,36.19813717188823
48221,Wayne County,MI,33.700254022015244
48223,Wayne County,MI,7.451312447078746
48224,Wayne County,MI,8.975444538526672
48227,Wayne County,MI,67.48518204911093
48229,Wayne County,MI,74.08975444538527
48234,Wayne County,MI,3.895004233700254
48235,Wayne County,MI,23.200677392040646
48236,Wayne County,MI,23.03132938187976
48237,Oakland County,MI,59.61049957662997
48238,Wayne County,MI,2.3708721422523285
48239,Wayne County,MI,4.487722269263336
48240,Wayne County,MI,14.521591871295511
48301,Oakland County,MI,53.429297205757834
48307,Oakland County,MI,11.51566469093988
48312,Macomb County,MI,17.908552074513125
48317,Macomb County,MI,44.3268416596105
48328,Oakland County,MI,28.619813717188826
48340,Oakland County,MI,27.392040643522435
48342,Oakland County,MI,53.09060118543607
48360,Oakland County,MI,61.515664690939886
48371,Oakland County,MI,27.64606265876376
48375,Oakland County,MI,39.75444538526672
48386,Oakland County,MI,95.97798475867909
48429,Shiawassee County,MI,87.1718882303133
48446,Lapeer County,MI,64.64860287891618
48453,Sanilac County,MI,87.80694326841659
48458,Genesee County,MI,68.7129551227773
48471,Sanilac County,MI,65.36833192209993
48503,Genesee County,MI,11.939034716342082
48601,Saginaw County,MI,43.056731583403895
48603,Saginaw County,MI,30.73666384419983
48611,Bay County,MI,92.92972057578324
48642,Midland County,MI,12.870448772226926
48655,Saginaw County,MI,54.48772226926334
48746,Tuscola County,MI,69.89839119390348
48809,Ionia County,MI,55.58848433530906
48823,Ingham County,MI,25.23285351397121
48827,Eaton County,MI,32.00677392040643
48836,Livingston County,MI,42.887383573243014
48840,Ingham County,MI,87.80694326841659
48843,Livingston County,MI,7.324301439458086
48850,Montcalm County,MI,92.20999153259949
48858,Isabella County,MI,2.963590177815411
48866,Clinton County,MI,86.11346316680779
48879,Clinton County,MI,39.37341236240474
48895,Ingham County,MI,88.653683319221
48911,Ingham County,MI,37.214225232853515
49007,Kalamazoo County,MI,82.21845893310754
49008,Kalamazoo County,MI,53.97967823878069
49021,Eaton County,MI,89.16172734970364
49022,Berrien County,MI,72.2692633361558
49036,Branch County,MI,20.999153259949196
49048,Kalamazoo County,MI,10.96528365791702
49097,Kalamazoo County,MI,87.21422523285352
49201,Jackson County,MI,42.633361558001695
49221,Lenawee County,MI,1.947502116850127
49321,Kent County,MI,46.147332768839966
49331,Kent County,MI,68.37425910245555
49341,Kent County,MI,51.05842506350551
49349,Newaygo County,MI,48.64521591871295
49418,Kent County,MI,28.535139712108382
49426,Ottawa County,MI,30.65198983911939
49431,Mason County,MI,84.33530906011855
49444,Muskegon County,MI,5.334462320067739
49445,Muskegon County,MI,27.095681625740898
49461,Muskegon County,MI,64.39458086367486
49464,Ottawa County,MI,40.64352243861135
49503,Kent County,MI,5.927180355630822
49504,Kent County,MI,64.60626587637596
49506,Kent County,MI,17.527519051651144
49507,Kent County,MI,73.96274343776462
49508,Kent County,MI,2.7095681625740897
49509,Kent County,MI,32.345469940728194
49525,Kent County,MI,25.994919559695173
49546,Kent County,MI,28.3657917019475
49548,Kent County,MI,39.16172734970364
49829,Delta County,MI,24.85182049110923
49837,Delta County,MI,41.74428450465707
49849,Marquette County,MI,37.29889923793395
55040,Isanti County,MN,61.43099068585944
55051,Kanabec County,MN,49.70364098221846
55057,Rice County,MN,59.35647756138865
55103,Ramsey County,MN,78.83149872988993
55106,Ramsey County,MN,86.07112616426758
55107,Ramsey County,MN,62.87044877222693
55109,Ramsey County,MN,35.012701100762065
55110,Ramsey County,MN,67.2311600338696
55302,Wright County,MN,98.47586790855208
55305,Hennepin County,MN,95.00423370025402
55318,Carver County,MN,89.79678238780694
55330,Sherburne County,MN,31.79508890770533
55337,Dakota County,MN,25.359864521591874
55343,Hennepin County,MN,64.18289585097375
55369,Hennepin County,MN,25.825571549534292
55372,Scott County,MN,49.7883149872989
55398,Sherburne County,MN,65.24132091447925
55403,Hennepin County,MN,86.7485182049111
55404,Hennepin County,MN,35.60541913632515
55406,Hennepin County,MN,17.48518204911092
55409,Hennepin County,MN,63.0397967823878
55410,Hennepin County,MN,99.06858594411516
55411,Hennepin County,MN,37.5952582557155
55412,Hennepin County,MN,4.8264182895850976
55416,Hennepin County,MN,32.89585097375106
55419,Hennepin County,MN,85.18204911092295
55422,Hennepin County,MN,22.43861134631668
55423,Hennepin County,MN,58.93310753598645
55427,Hennepin County,MN,71.46486028789163
55428,Hennepin County,MN,13.293818797629129
55429,Hennepin County,MN,62.27773073666384
55434,Anoka County,MN,52.03217612193056
55438,Hennepin County,MN,93.4801016088061
55444,Hennepin County,MN,93.43776460626587
55449,Anoka County,MN,39.83911939034716
55744,Itasca County,MN,9.525825571549534
55901,Olmsted County,MN,19.009314140558846
55904,Olmsted County,MN,27.13801862828112
55963,Goodhue County,MN,86.53683319221
55987,Winona County,MN,4.403048264182896
56065,Blue Earth County,MN,96.78238780694328
56073,Brown County,MN,61.600338696020316
56082,Nicollet County,MN,90.64352243861134
56085,Brown County,MN,94.3268416596105
56258,Lyon County,MN,63.46316680779
56301,Stearns County,MN,33.742591024555466
56345,Morrison County,MN,68.20491109229467
56364,Morrison County,MN,81.87976291278576
56374,Stearns County,MN,95.30059271803556
56401,Crow Wing County,MN,5.249788314987299
56474,Cass County,MN,83.06519898391194
56573,Otter Tail County,MN,51.82049110922947
56721,Polk County,MN,43.183742591024554
38650,Union County,MS,99.70364098221846
38701,Washington County,MS,75.78323454699407
38703,Washington County,MS,94.9618966977138
38829,Prentiss County,MS,66.1727349703641
38967,Montgomery County,MS,76.2489415749365
39083,Copiah County,MS,67.99322607959355
39110,Madison County,MS,29.762912785774766
39111,Simpson County,MS,94.1151566469094
39202,Hinds County,MS,99.66130397967824
39204,Hinds County,MS,62.48941574936494
39206,Hinds County,MS,21.380186282811177
39208,Rankin County,MS,29.38187976291279
39209,Hinds County,MS,16.469093988145637
39212,Hinds County,MS,15.241320914479257
39216,Hinds County,MS,98.56054191363252
39350,Neshoba County,MS,19.17866215071973
39402,Lamar County,MS,53.429297205757834
39440,Jones County,MS,83.86960203217613
39452,George County,MS,81.03302286198138
39482,Lamar County,MS,80.31329381879763
39503,Harrison County,MS,5.58848433530906
39581,Jackson County,MS,68.75529212531752
39654,Lawrence County,MS,88.10330228619814
39702,Lowndes County,MS,27.7307366638442
63005,St. Louis County,MO,95.5969517358171
63021,St. Louis County,MO,77.05334462320069
63026,St. Louis County,MO,26.799322607959358
63033,St. Louis County,MO,36.45215918712955
63042,St. Louis County,MO,65.87637595258255
63069,Franklin County,MO,66.55376799322607
63106,St. Louis city,MO,96.2320067739204
63114,St. Louis County,MO,18.204911092294665
63116,St. Louis city,MO,56.26587637595259
63122,St. Louis County,MO,74.34377646062659
63133,St. Louis County,MO,88.95004233700254
63136,St. Louis County,MO,22.22692633361558
63137,St. Louis County,MO,28.577476714648604
63138,St. Louis County,MO,40.431837425910246
63301,St. Charles County,MO,8.25571549534293
63303,St. Charles County,MO,45.1735817104149
63304,St. Charles County,MO,68.20491109229467
63376,St. Charles County,MO,57.74767146486028
63379,Lincoln County,MO,21.591871295512277
63385,St. Charles County,MO,54.741744284504655
63601,St. Francois County,MO,33.53090601185436
63624,St. Francois County,MO,99.5766299745978
63628,St. Francois County,MO,86.9602032176122
63801,Scott County,MO,15.961049957662999
64015,Jackson County,MO,7.832345469940728
64029,Jackson County,MO,29.635901778154107
64052,Jackson County,MO,5.54614733276884
64055,Jackson County,MO,83.10753598645216
64057,Jackson County,MO,33.31922099915326
64063,Jackson County,MO,93.86113463166808
64068,Clay County,MO,4.657070279424217
64075,Jackson County,MO,32.64182895850974
64080,Cass County,MO,51.86282811176969
64081,Jackson County,MO,35.81710414902625
64086,Jackson County,MO,80.18628281117697
64106,Jackson County,MO,20.787468247248096
64110,Jackson County,MO,26.714648602878917
64117,Clay County,MO,58.72142252328535
64118,Clay County,MO,33.91193903471634
64128,Jackson County,MO,70.06773920406435
64130,Jackson County,MO,3.2176121930567314
64131,Jackson County,MO,8.679085520745131
64133,Jackson County,MO,43.09906858594412
64138,Jackson County,MO,47.883149872988994
64151,Platte County,MO,53.64098221845893
64490,DeKalb County,MO,98.39119390347163
64503,Buchanan County,MO,18.755292125317528
64506,Buchanan County,MO,12.531752751905165
64730,Bates County,MO,48.052497883149876
64744,Cedar County,MO,91.65961049957663
64804,Jasper County,MO,10.499576629974598
65043,Callaway County,MO,87.97629127857748
65201,Boone County,MO,35.139712108382724
65270,Randolph County,MO,21.083827265029637
65301,Pettis County,MO,29.170194750211685
65453,Crawford County,MO,89.96613039796783
65459,Pulaski County,MO,92.29466553767993
65712,Lawrence County,MO,91.06689246401355
65804,Greene County,MO,21.71888230313294
59047,Park County,MT,67.18882303132938
59270,Richland County,MT,91.82895850973752
59803,Missoula County,MT,97.20575783234547
68046,Sarpy County,NE,79.38187976291279
68128,Sarpy County,NE,87.93395427603726
68135,Douglas County,NE,60.20321761219306
68136,Sarpy County,NE,93.56477561388654
68147,Sarpy County,NE,82.64182895850973
68516,Lancaster County,NE,79.67823878069431
68632,Butler County,NE,96.57070279424217
89101,Clark County,NV,20.745131244707874
89104,Clark County,NV,28.704487722269263
89108,Clark County,NV,43.73412362404741
89110,Clark County,NV,14.055884843353091
89115,Clark County,NV,14.606265876375952
89119,Clark County,NV,14.817950889077053
89121,Clark County,NV,20.364098221845893
89148,Clark County,NV,89.37341236240475
89178,Clark County,NV,62.70110076206604
89183,Clark County,NV,52.709568162574094
89431,Washoe County,NV,15.156646909398813
89506,Washoe County,NV,12.193056731583404
89801,Elko County,NV,54.8264182895851
03054,Hillsborough County,NH,54.318374259102455
03062,Hillsborough County,NH,11.727349703640982
03087,Rockingham County,NH,80.60965283657917
03103,Hillsborough County,NH,2.79424216765453
03104,Hillsborough County,NH,8.29805249788315
03458,Hillsborough County,NH,87.25656223539373
03820,Strafford County,NH,43.43776460626588
03858,Rockingham County,NH,90.81287044877223
03861,Strafford County,NH,99.40728196443692
07001,Middlesex County,NJ,79.55122777307366
07002,Hudson County,NJ,0.46570702794242164
07013,Passaic County,NJ,30.990685859441154
07017,Essex County,NJ,1.0584250635055037
07026,Bergen County,NJ,9.271803556308214
07030,Hudson County,NJ,20.575783234546993
07036,Union County,NJ,5.122777307366638
07052,Essex County,NJ,72.56562235393734
07055,Passaic County,NJ,0.3810330228619814
07076,Union County,NJ,75.4022015241321
07087,Hudson County,NJ,11.09229466553768
07103,Essex County,NJ,86.19813717188823
07111,Essex County,NJ,91.32091447925487
07112,Essex County,NJ,11.854360711261643
07206,Union County,NJ,23.962743437764605
07302,Hudson County,NJ,85.47840812870449
07304,Hudson County,NJ,86.02878916172735
07306,Hudson County,NJ,33.95427603725656
07407,Bergen County,NJ,89.83911939034716
07424,Passaic County,NJ,98.26418289585096
07442,Passaic County,NJ,59.22946655376799
07461,Sussex County,NJ,74.809483488569
07501,Passaic County,NJ,63.29381879762913
07512,Passaic County,NJ,96.65537679932261
07628,Bergen County,NJ,75.48687552921253
07712,Monmouth County,NJ,1.4817950889077054
07727,Monmouth County,NJ,68.28958509737511
07728,Monmouth County,NJ,9.144792548687553
07836,Morris County,NJ,71.16850127011007
07857,Morris County,NJ,99.3649449618967
07866,Morris County,NJ,53.81033022861982
07871,Sussex County,NJ,45.46994072819645
07930,Morris County,NJ,98.09483488569009
07960,Morris County,NJ,40.008467400508046
08021,Camden County,NJ,0.0846740050804403
08029,Camden County,NJ,76.2489415749365
08037,Atlantic County,NJ,36.32514817950889
08043,Camden County,NJ,33.6155800169348
08052,Burlington County,NJ,20.533446232006774
08057,Burlington County,NJ,49.95766299745978
08060,Burlington County,NJ,9.356477561388655
08080,Gloucester County,NJ,6.223539373412362
08081,Camden County,NJ,79.25486875529214
08083,Camden County,NJ,32.59949195596952
08087,Ocean County,NJ,86.83319220999152
08093,Gloucester County,NJ,58.128704487722274
08094,Gloucester County,NJ,49.618966977138015
08103,Camden County,NJ,44.70787468247248
08109,Camden County,NJ,13.039796782387809
08203,Atlantic County,NJ,97.2904318374259
08205,Atlantic County,NJ,10.203217612193056
08215,Atlantic County,NJ,26.587637595258258
08230,Cape May County,NJ,86.91786621507197
08232,Atlantic County,NJ,2.6248941574936495
08234,Atlantic County,NJ,98.85690093141406
08318,Salem County,NJ,45.21591871295512
08332,Cumberland County,NJ,25.825571549534292
08401,Atlantic County,NJ,46.74005080440305
08520,Mercer County,NJ,69.55969517358172
08618,Mercer County,NJ,38.060965283657914
08638,Mercer County,NJ,61.38865368331922
08690,Mercer County,NJ,97.7138018628281
08731,Ocean County,NJ,73.66638441998306
08753,Ocean County,NJ,9.229466553767992
08805,Somerset County,NJ,72.692633361558
08816,Middlesex County,NJ,94.28450465707027
08824,Middlesex County,NJ,83.91193903471634
08865,Warren County,NJ,2.201524132091448
08879,Middlesex County,NJ,24.97883149872989
08901,Middlesex County,NJ,76.8839966130398
87002,Valencia County,NM,93.39542760372565
87020,Cibola County,NM,67.6545300592718
87026,Valencia County,NM,85.81710414902625
87059,Bernalillo County,NM,83.1922099915326
87102,Bernalillo County,NM,43.81879762912786
87106,Bernalillo County,NM,60.287891617273495
87108,Bernalillo County,NM,3.175275190516511
87109,Bernalillo County,NM,10.711261642675698
87110,Bernalillo County,NM,6.646909398814564
87112,Bernalillo County,NM,33.86960203217612
87113,Bernalillo County,NM,87.08721422523286
87114,Bernalillo County,NM,41.32091447925487
87120,Bernalillo County,NM,5.038103302286198
87123,Bernalillo County,NM,31.41405588484335
87124,Sandoval County,NM,28.831498729889926
87301,McKinley County,NM,18.71295512277731
87321,McKinley County,NM,94.91955969517359
87401,San Juan County,NM,66.89246401354784
87410,San Juan County,NM,87.67993226079594
87420,San Juan County,NM,82.72650296359018
87505,Santa Fe County,NM,63.50550381033023
87532,Santa Fe County,NM,59.82218458933107
87571,Taos County,NM,44.792548687552916
10002,New York County,NY,28.87383573243014
10019,New York County,NY,52.243861134631665
10029,New York County,NY,2.3285351397121086
10032,New York County,NY,27.85774767146486
10303,Richmond County,NY,30.016934801016088
10451,Bronx County,NY,10.287891617273496
10452,Bronx County,NY,49.026248941574934
10453,Bronx County,NY,10.076206604572397
10454,Bronx County,NY,20.448772226926334
10455,Bronx County,NY,15.029635901778155
10456,Bronx County,NY,1.2277730736663843
10457,Bronx County,NY,26.079593564775617
10458,Bronx County,NY,37.97629127857748
10461,Bronx County,NY,30.228619813717188
10462,Bronx County,NY,20.11007620660457
10466,Bronx County,NY,30.313293818797625
10467,Bronx County,NY,2.2861981371718882
10468,Bronx County,NY,62.8281117696867
10469,Bronx County,NY,38.61134631668078
10566,Westchester County,NY,45.258255715495345
10801,Westchester County,NY,23.708721422523286
10927,Rockland County,NY,95.85097375105842
10956,Rockland County,NY,70.49110922946656
11001,Nassau County,NY,74.93649449618967
11103,Queens County,NY,60.96528365791703
11106,Queens County,NY,40.304826418289586
11206,Kings County,NY,60.11854360711262
11208,Kings County,NY,63.209144792548685
11211,Kings County,NY,33.6155800169348
11212,Kings County,NY,0.29635901778154106
11216,Kings County,NY,5.75783234546994
11218,Kings County,NY,66.68077900084674
11220,Kings County,NY,12.150719729043184
11226,Kings County,NY,14.267569856054191
11232,Kings County,NY,76.46062658763759
11233,Kings County,NY,19.55969517358171
11237,Kings County,NY,17.10414902624894
11365,Queens County,NY,38.35732430143946
11368,Queens County,NY,3.556308213378493
11369,Queens County,NY,45.04657070279424
11373,Queens County,NY,8.425063505503811
11377,Queens County,NY,67.10414902624893
11418,Queens County,NY,88.99237933954277
11419,Queens County,NY,29.508890770533448
11433,Queens County,NY,48.26418289585097
11434,Queens County,NY,8.59441151566469
11435,Queens County,NY,6.054191363251482
11550,Nassau County,NY,6.435224386113463
11552,Nassau County,NY,72.81964436917866
11566,Nassau County,NY,82.04911092294665
11596,Nassau County,NY,97.16342082980525
11691,Queens County,NY,4.5723962743437765
11729,Suffolk County,NY,84.54699407281964
11779,Suffolk County,NY,61.092294665537686
12047,Albany County,NY,20.956816257408974
12078,Fulton County,NY,53.598645215918715
12095,Fulton County,NY,34.292972057578325
12122,Schoharie County,NY,93.18374259102455
12180,Rensselaer County,NY,0.9737510584250635
12189,Albany County,NY,30.27095681625741
12304,Schenectady County,NY,22.01524132091448
12534,Columbia County,NY,35.012701100762065
12550,Orange County,NY,23.3276883996613
12801,Warren County,NY,13.50550381033023
12804,Warren County,NY,4.106689246401355
12822,Saratoga County,NY,64.35224386113462
12885,Warren County,NY,85.30906011854361
12953,Franklin County,NY,74.89415749364944
12972,Clinton County,NY,45.427603725656226
13027,Onondaga County,NY,8.21337849280271
13032,Madison County,NY,23.878069432684164
13036,Oswego County,NY,84.75867908552075
13045,Cortland County,NY,14.225232853513972
13083,Oswego County,NY,98.3065198983912
13104,Onondaga County,NY,40.728196443691786
13126,Oswego County,NY,13.67485182049111
13142,Oswego County,NY,81.07535986452159
13203,Onondaga County,NY,12.743437764606266
13204,Onondaga County,NY,6.519898391193904
13205,Onondaga County,NY,31.879762912785775
13208,Onondaga County,NY,61.81202370872142
13209,Onondaga County,NY,35.98645215918713
13210,Onondaga County,NY,57.15495342929721
13332,Madison County,NY,79.6359017781541
13340,Herkimer County,NY,44.28450465707028
13350,Herkimer County,NY,56.0965283657917
13357,Herkimer County,NY,95.46994072819645
13438,Oneida County,NY,91.44792548687552
13440,Oneida County,NY,8.17104149026249
13492,Oneida County,NY,77.98475867908552
13601,Jefferson County,NY,15.283657917019475
13625,St. Lawrence County,NY,93.14140558848433
13642,St. Lawrence County,NY,54.10668924640135
13760,Broome County,NY,0.3386960203217612
13790,Broome County,NY,25.57154953429297
13811,Tioga County,NY,72.35393734123625
13815,Chenango County,NY,8.55207451312447
13825,Otsego County,NY,94.03048264182897
13856,Delaware County,NY,39.246401354784084
13901,Broome County,NY,51.94750211685013
13905,Broome County,NY,0.6773920406435224
14009,Wyoming County,NY,75.78323454699407
14043,Erie County,NY,24.089754445385267
14051,Erie County,NY,62.02370872142252
14059,Erie County,NY,59.568162574089754
14080,Erie County,NY,98.01016088060965
14094,Niagara County,NY,8.38272650296359
14120,Niagara County,NY,16.003386960203215
14127,Erie County,NY,9.187129551227773
14139,Erie County,NY,96.06265876375953
14174,Niagara County,NY,70.91447925486875
14206,Erie County,NY,7.959356477561388
14207,Erie County,NY,40.38950042337002
14208,Erie County,NY,50.93141405588484
14209,Erie County,NY,57.874682472480956
14215,Erie County,NY,7.070279424216766
14217,Erie County,NY,18.416596104995765
14218,Erie County,NY,39.45808636748519
14221,Erie County,NY,48.09483488569009
14223,Erie County,NY,66.5961049957663
14224,Erie County,NY,2.582557154953429
14226,Erie County,NY,22.09991532599492
14227,Erie County,NY,17.146486028789163
14228,Erie County,NY,78.95850973751058
14305,Niagara County,NY,2.5402201524132093
14414,Livingston County,NY,77.22269263336156
14423,Livingston County,NY,92.04064352243861
14424,Ontario County,NY,24.68247248094835
14425,Ontario County,NY,80.01693480101609
14445,Monroe County,NY,29.212531752751904
14450,Monroe County,NY,10.330228619813717
14454,Livingston County,NY,61.642675698560545
14456,Ontario County,NY,22.18458933107536
14464,Monroe County,NY,69.55969517358172
14466,Ontario County,NY,91.23624047417442
14467,Monroe County,NY,74.13209144792549
14472,Monroe County,NY,37.087214225232856
14482,Genesee County,NY,40.262489415749364
14485,Livingston County,NY,88.0186282811177
14489,Wayne County,NY,23.793395427603727
14502,Wayne County,NY,66.04572396274344
14510,Livingston County,NY,49.40728196443692
14513,Wayne County,NY,33.065198983911934
14526,Monroe County,NY,65.15664690939882
14544,Yates County,NY,91.95596951735817
14559,Monroe County,NY,6.011854360711261
14568,Wayne County,NY,54.57239627434378
14580,Monroe County,NY,10.541913632514818
14586,Monroe County,NY,69.85605419136324
14589,Wayne County,NY,56.13886536833193
14604,Monroe County,NY,69.43268416596105
14605,Monroe County,NY,90.30482641828958
14606,Monroe County,NY,1.3547840812870449
14608,Monroe County,NY,7.535986452159187
14609,Monroe County,NY,74.64013547840813
14612,Monroe County,NY,22.35393734123624
14615,Monroe County,NY,47.713801862828106
14616,Monroe County,NY,48.772226926333616
14617,Monroe County,NY,3.048264182895851
14618,Monroe County,NY,74.17442845046571
14620,Monroe County,NY,70.44877222692634
14621,Monroe County,NY,34.67400508044031
14623,Monroe County,NY,55.41913632514818
14624,Monroe County,NY,1.2701100762066047
14843,Steuben County,NY,14.902624894157492
27012,Forsyth County,NC,52.32853513971211
27055,Yadkin County,NC,91.15156646909399
27101,Forsyth County,NC,73.03132938187976
27103,Forsyth County,NC,8.933107535986453
27104,Forsyth County,NC,21.676545300592718
27105,Forsyth County,NC,53.51397121083827
27106,Forsyth County,NC,76.54530059271804
27107,Forsyth County,NC,66.08806096528366
27127,Forsyth County,NC,64.52159187129551
27203,Randolph County,NC,48.772226926333616
27209,Montgomery County,NC,98.05249788314987
27217,Alamance County,NC,7.662997459779848
27265,Guilford County,NC,13.547840812870449
27278,Orange County,NC,43.98814563928874
27282,Guilford County,NC,64.86028789161728
27284,Forsyth County,NC,51.01608806096528
27292,Davidson County,NC,2.0745131244707875
27295,Davidson County,NC,13.971210838272649
27299,Davidson County,NC,79.805249788315
27302,Alamance County,NC,77.34970364098221
27320,Rockingham County,NC,6.138865368331922
27332,Lee County,NC,86.28281117696866
27405,Guilford County,NC,5.8001693480101615
27406,Guilford County,NC,52.667231160033865
27510,Orange County,NC,48.56054191363251
27514,Orange County,NC,47.883149872988994
27516,Orange County,NC,22.988992379339543
27519,Wake County,NC,67.10414902624893
27526,Wake County,NC,19.856054191363253
27529,Wake County,NC,17.358171041490262
27537,Vance County,NC,26.756985605419136
27539,Wake County,NC,47.96782387806943
27540,Wake County,NC,35.309060118543606
27545,Wake County,NC,34.2506350550381
27573,Person County,NC,64.77561388653683
27587,Wake County,NC,15.368331922099914
27592,Wake County,NC,81.75275190516511
27597,Wake County,NC,39.33107535986452
27604,Wake County,NC,24.55546147332769
27610,Wake County,NC,3.513971210838273
27616,Wake County,NC,14.733276883996613
27704,Durham County,NC,29.339542760372566
27707,Durham County,NC,7.408975444538527
27713,Durham County,NC,46.23200677392041
27870,Halifax County,NC,16.172734970364097
27889,Beaufort County,NC,23.116003386960205
28025,Cabarrus County,NC,28.02709568162574
28052,Gaston County,NC,19.05165114309907
28081,Cabarrus County,NC,15.453005927180355
28086,Cleveland County,NC,17.696867061812025
28114,Rutherford County,NC,81.75275190516511
28150,Cleveland County,NC,43.98814563928874
28170,Anson County,NC,44.58086367485182
28205,Mecklenburg County,NC,13.88653683319221
28208,Mecklenburg County,NC,4.995766299745978
28209,Mecklenburg County,NC,72.692633361558
28211,Mecklenburg County,NC,52.413209144792546
28213,Mecklenburg County,NC,65.1143099068586
28216,Mecklenburg County,NC,5.165114309906858
28269,Mecklenburg County,NC,7.917019475021168
28312,Cumberland County,NC,52.87891617273497
28328,Sampson County,NC,71.93056731583404
28334,Sampson County,NC,20.152413209144793
28398,Duplin County,NC,89.24640135478408
28403,New Hanover County,NC,82.47248094834886
28405,New Hanover County,NC,71.59187129551228
28409,New Hanover County,NC,82.43014394580864
28429,New Hanover County,NC,89.24640135478408
28451,Brunswick County,NC,21.380186282811177
28457,Pender County,NC,62.70110076206604
28462,Brunswick County,NC,44.792548687552916
28466,Duplin County,NC,57.62066045723962
28539,Onslow County,NC,62.912785774767144
28546,Onslow County,NC,47.67146486028789
28551,Lenoir County,NC,50.25402201524132
28574,Onslow County,NC,56.39288738357324
28590,Pitt County,NC,50.16934801016089
28601,Catawba County,NC,34.123624047417444
28612,Burke County,NC,52.794242167654524
28613,Catawba County,NC,61.346316680779
28658,Catawba County,NC,32.89585097375106
28659,Wilkes County,NC,14.860287891617274
28719,Jackson County,NC,35.47840812870449
28734,Macon County,NC,10.245554614733276
28748,Buncombe County,NC,49.915325994919556
28771,Graham County,NC,90.3471634208298
28777,Mitchell County,NC,89.24640135478408
28786,Haywood County,NC,72.01524132091448
28792,Henderson County,NC,78.32345469940728
28806,Buncombe County,NC,29.974597798475866
58501,Burleigh County,ND,69.43268416596105
58703,Ward County,ND,32.43014394580864
43055,Licking County,OH,6.477561388653684
43130,Fairfield County,OH,39.62743437764607
43140,Madison County,OH,27.265029635901776
43147,Fairfield County,OH,46.23200677392041
43202,Franklin County,OH,67.8662150719729
43206,Franklin County,OH,6.900931414055885
43207,Franklin County,OH,0.6350550381033023
43209,Franklin County,OH,79.88992379339543
43224,Franklin County,OH,2.6672311600338694
43227,Franklin County,OH,16.045723962743438
43228,Franklin County,OH,1.651143099068586
43232,Franklin County,OH,52.20152413209145
43452,Ottawa County,OH,64.56392887383574
43512,Defiance County,OH,1.989839119390347
43528,Lucas County,OH,29.93226079593565
43551,Wood County,OH,32.72650296359018
43560,Lucas County,OH,17.781541066892466
43604,Lucas County,OH,90.47417442845047
43605,Lucas County,OH,1.1430990685859441
43606,Lucas County,OH,82.89585097375107
43607,Lucas County,OH,83.02286198137172
43609,Lucas County,OH,2.243861134631668
43611,Lucas County,OH,52.159187129551235
43612,Lucas County,OH,43.43776460626588
43613,Lucas County,OH,12.701100762066044
43614,Lucas County,OH,5.6731583403895005
43615,Lucas County,OH,68.92464013547841
43616,Lucas County,OH,70.82980524978831
43620,Lucas County,OH,61.727349703640975
43623,Lucas County,OH,48.475867908552075
43713,Belmont County,OH,74.85182049110924
43812,Coshocton County,OH,2.497883149872989
44035,Lorain County,OH,24.76714648602879
44044,Lorain County,OH,66.76545300592718
44053,Lorain County,OH,22.94665537679932
44054,Lorain County,OH,72.18458933107536
44055,Lorain County,OH,24.93649449618967
44060,Lake County,OH,3.302286198137172
44070,Cuyahoga County,OH,16.257408975444537
44074,Lorain County,OH,67.61219305673158
44076,Ashtabula County,OH,68.12023708721424
44077,Lake County,OH,12.066045723962743
44089,Erie County,OH,27.34970364098222
44095,Lake County,OH,13.80186282811177
44102,Cuyahoga County,OH,0.12701100762066045
44103,Cuyahoga County,OH,4.868755292125317
44104,Cuyahoga County,OH,14.690939881456394
44105,Cuyahoga County,OH,42.929720575783236
44106,Cuyahoga County,OH,83.44623200677393
44108,Cuyahoga County,OH,47.586790855207454
44109,Cuyahoga County,OH,7.197290431837426
44111,Cuyahoga County,OH,5.884843353090601
44112,Cuyahoga County,OH,3.9373412362404743
44114,Cuyahoga County,OH,23.370025402201524
44115,Cuyahoga County,OH,93.09906858594411
44116,Cuyahoga County,OH,60.41490262489416
44117,Cuyahoga County,OH,31.371718882303135
44118,Cuyahoga County,OH,6.3928873835732425
44120,Cuyahoga County,OH,11.346316680779001
44121,Cuyahoga County,OH,25.74089754445385
44124,Cuyahoga County,OH,47.16342082980525
44128,Cuyahoga County,OH,24.64013547840813
44132,Cuyahoga County,OH,16.89246401354784
44134,Cuyahoga County,OH,63.16680779000847
44136,Cuyahoga County,OH,20.618120237087215
44137,Cuyahoga County,OH,18.83996613039797
44147,Cuyahoga County,OH,36.96020321761219
44203,Summit County,OH,19.390347163420827
44212,Medina County,OH,38.90770533446232
44221,Summit County,OH,8.721422523285352
44241,Portage County,OH,22.86198137171888
44256,Medina County,OH,14.309906858594413
44260,Portage County,OH,80.99068585944114
44288,Portage County,OH,98.7298899237934
44305,Summit County,OH,8.46740050804403
44306,Summit County,OH,5.376799322607959
44313,Summit County,OH,21.295512277730737
44405,Mahoning County,OH,65.66469093988145
44410,Trumbull County,OH,27.81541066892464
44420,Trumbull County,OH,58.29805249788315
44432,Columbiana County,OH,52.87891617273497
44438,Trumbull County,OH,60.033869602032176
44440,Trumbull County,OH,98.5182049110923
44471,Mahoning County,OH,43.353090601185436
44483,Trumbull County,OH,9.737510584250634
44484,Trumbull County,OH,50.55038103302286
44509,Mahoning County,OH,77.39204064352244
44512,Mahoning County,OH,57.91701947502117
44615,Carroll County,OH,84.8856900931414
44622,Tuscarawas County,OH,70.40643522438612
44654,Holmes County,OH,70.3640982218459
44683,Tuscarawas County,OH,47.79847586790855
44685,Summit County,OH,34.80101608806096
44691,Wayne County,OH,73.92040643522438
44705,Stark County,OH,17.654530059271803
44706,Stark County,OH,24.428450465707026
44708,Stark County,OH,20.279424216765456
44720,Stark County,OH,21.041490262489415
44870,Erie County,OH,0.8467400508044031
44903,Richland County,OH,11.51566469093988
45011,Butler County,OH,23.454699407281964
45013,Butler County,OH,1.6088060965283657
45044,Butler County,OH,2.4132091447925488
45133,Highland County,OH,14.394580863674852
45135,Highland County,OH,92.42167654530058
45140,Clermont County,OH,16.76545300592718
45157,Clermont County,OH,96.8670618120237
45177,Clinton County,OH,17.061812023708722
45202,Hamilton County,OH,13.75952582557155
45203,Hamilton County,OH,84.92802709568163
45211,Hamilton County,OH,64.94496189669772
45215,Hamilton County,OH,47.20575783234547
45217,Hamilton County,OH,76.46062658763759
45231,Hamilton County,OH,40.55884843353091
45237,Hamilton County,OH,21.210838272650296
45238,Hamilton County,OH,33.4038950042337
45239,Hamilton County,OH,10.033869602032176
45246,Hamilton County,OH,64.69093988145639
45248,Hamilton County,OH,43.268416596105
45249,Hamilton County,OH,84.58933107535987
45324,Greene County,OH,5.207451312447079
45342,Montgomery County,OH,6.096528365791702
45344,Clark County,OH,46.90939881456393
45356,Miami County,OH,64.30990685859442
45365,Shelby County,OH,6.731583403895004
45373,Miami County,OH,3.259949195596952
45383,Miami County,OH,82.17612193056732
45402,Montgomery County,OH,43.94580863674852
45403,Montgomery County,OH,85.98645215918714
45404,Montgomery County,OH,42.54868755292126
45406,Montgomery County,OH,9.060118543607112
45417,Montgomery County,OH,41.871295512277726
45424,Montgomery County,OH,78.3657917019475
45431,Montgomery County,OH,35.43607112616427
45449,Montgomery County,OH,26.248941574936495
45503,Clark County,OH,3.683319220999153
45506,Clark County,OH,69.81371718882303
45619,Lawrence County,OH,90.26248941574937
45662,Scioto County,OH,1.397121083827265
45669,Lawrence County,OH,80.73666384419982
45680,Lawrence County,OH,7.4936494496189665
45690,Pike County,OH,10.457239627434378
45692,Jackson County,OH,56.68924640135479
45723,Athens County,OH,92.25232853513971
45732,Athens County,OH,86.66384419983065
45750,Washington County,OH,0.7197290431837425
45822,Mercer County,OH,58.38272650296359
45879,Paulding County,OH,38.82303132938188
45885,Auglaize County,OH,31.202370872142254
73008,Oklahoma County,OK,53.97967823878069
73025,Oklahoma County,OK,58.975444538526666
73051,Cleveland County,OK,81.75275190516511
73054,Oklahoma County,OK,97.33276883996614
73055,Stephens County,OK,62.61642675698561
73086,Murray County,OK,59.441151566469095
73114,Oklahoma County,OK,43.52243861134632
73115,Oklahoma County,OK,47.12108382726503
73119,Oklahoma County,OK,16.13039796782388
73159,Oklahoma County,OK,35.309060118543606
73501,Comanche County,OK,45.681625740897545
73533,Stephens County,OK,15.410668924640136
73662,Beckham County,OK,90.38950042337002
74012,Tulsa County,OK,17.442845046570703
74037,Tulsa County,OK,68.45893310753598
74070,Osage County,OK,70.11007620660457
74115,Tulsa County,OK,29.720575783234548
74129,Tulsa County,OK,44.072819644369176
74145,Tulsa County,OK,55.673158340389506
74301,Craig County,OK,49.53429297205758
74354,Ottawa County,OK,41.57493649449619
74361,Mayes County,OK,53.34462320067739
74464,Cherokee County,OK,75.35986452159187
74525,Atoka County,OK,75.65622353937341
74820,Pontotoc County,OK,23.666384419983068
74960,Adair County,OK,18.966977138018628
97006,Washington County,OR,77.56138865368331
97051,Columbia County,OR,50.59271803556308
97055,Clackamas County,OR,55.4614733276884
97062,Washington County,OR,84.377646062658755
97101,Yamhill County,OR,97.883149872989
97128,Yamhill County,OR,12.235393734123624
97138,Clatsop County,OR,48.899237933954275
97206,Multnomah County,OR,8.128704487722269
97209,Multnomah County,OR,28.23878069432684
97211,Multnomah County,OR,64.22523285351397
97215,Multnomah County,OR,83.99661303979678
97219,Multnomah County,OR,85.26672311600339
97222,Clackamas County,OR,51.77815410668924
97223,Washington County,OR,90.60118543607113
97224,Washington County,OR,87.59525825571549
97229,Washington County,OR,90.85520745131245
97239,Multnomah County,OR,78.70448772226926
97303,Marion County,OR,62.235393734123626
97305,Marion County,OR,18.543607112616428
97351,Polk County,OR,93.64944961896697
97386,Linn County,OR,37.55292125317528
97391,Lincoln County,OR,96.57070279424217
97424,Lane County,OR,34.038950042337
97503,Jackson County,OR,53.00592718035563
97526,Josephine County,OR,47.37510584250635
97527,Josephine County,OR,91.02455546147333
97601,Klamath County,OR,37.764606265876374
97603,Klamath County,OR,13.251481795088907
97701,Deschutes County,OR,50.12701100762066
97756,Deschutes County,OR,58.17104149026249
97913,Malheur County,OR,87.46824724809483
15025,Allegheny County,PA,38.230313293818796
15037,Allegheny County,PA,96.14733276883996
15068,Westmoreland County,PA,12.489415749364944
15132,Allegheny County,PA,6.562235393734124
15201,Allegheny County,PA,48.13717188823031
15205,Allegheny County,PA,36.70618120237087
15206,Allegheny County,PA,10.795935647756139
15210,Allegheny County,PA,53.302286198137175
15212,Allegheny County,PA,17.18882303132938
15217,Allegheny County,PA,48.13717188823031
15221,Allegheny County,PA,55.884843353090595
15222,Allegheny County,PA,91.49026248941576
15235,Allegheny County,PA,13.293818797629129
15301,Washington County,PA,3.0059271803556307
15401,Fayette County,PA,4.022015241320914
15642,Westmoreland County,PA,78.45046570702794
15650,Westmoreland County,PA,34.80101608806096
15683,Westmoreland County,PA,96.48602878916172
15690,Westmoreland County,PA,66.21507197290431
15801,Clearfield County,PA,23.285351397121083
15857,Elk County,PA,47.79847586790855
15946,Cambria County,PA,80.44030482641828
15963,Somerset County,PA,55.12277730736665
16001,Butler County,PA,1.7358171041490262
16066,Butler County,PA,79.0008467400508
16102,Lawrence County,PA,93.0567315834039
16146,Mercer County,PA,16.63844199830652
16502,Erie County,PA,33.1922099915326
16503,Erie County,PA,26.375952582557154
16504,Erie County,PA,49.28027095681626
16509,Erie County,PA,24.47078746824725
16651,Clearfield County,PA,97.58679085520745
16686,Blair County,PA,47.332768839966135
16749,McKean County,PA,94.07281964436918
16823,Centre County,PA,43.01439458086367
16830,Clearfield County,PA,66.72311600338696
16933,Tioga County,PA,93.4801016088061
17025,Cumberland County,PA,54.99576629974597
17026,Lebanon County,PA,97.92548687552922
17036,Dauphin County,PA,45.51227773073666
17038,Lebanon County,PA,63.75952582557155
17042,Lebanon County,PA,16.51143099068586
17046,Lebanon County,PA,56.68924640135479
17051,Mifflin County,PA,96.31668077900085
17067,Lebanon County,PA,53.852667231160034
17073,Lebanon County,PA,93.60711261642676
17078,Lebanon County,PA,10.584250635055039
17103,Dauphin County,PA,29.000846740050807
17110,Dauphin County,PA,9.398814563928875
17201,Franklin County,PA,5.63082133784928
17225,Franklin County,PA,46.44369178662151
17257,Cumberland County,PA,16.850127011007622
17315,York County,PA,66.29974597798476
17319,York County,PA,80.14394580863676
17331,York County,PA,38.31498729889924
17356,York County,PA,67.69686706181203
17370,York County,PA,85.09737510584252
17401,York County,PA,34.92802709568162
17402,York County,PA,12.404741744284504
17403,York County,PA,1.439458086367485
17404,York County,PA,29.678238780694326
17406,York County,PA,26.333615580016932
17408,York County,PA,31.498729889923794
17522,Lancaster County,PA,18.331922099915328
17543,Lancaster County,PA,45.89331075359864
17545,Lancaster County,PA,33.573243014394585
17584,Lancaster County,PA,96.35901778154107
17701,Lycoming County,PA,15.537679932260795
17740,Lycoming County,PA,40.09314140558848
17745,Clinton County,PA,60.79593564775614
17751,Clinton County,PA,61.47332768839966
17752,Lycoming County,PA,93.77646062658764
17756,Lycoming County,PA,83.31922099915326
17801,Northumberland County,PA,77.18035563082134
17821,Montour County,PA,17.993226079593565
17837,Union County,PA,66.51143099068587
17857,Northumberland County,PA,54.95342929720576
17866,Northumberland County,PA,86.45215918712955
17870,Snyder County,PA,66.46909398814564
17872,Northumberland County,PA,61.26164267569856
17931,Schuylkill County,PA,91.99830651989839
17948,Schuylkill County,PA,81.20237087214225
17976,Schuylkill County,PA,89.62743437764607
18011,Lehigh County,PA,82.7688399661304
18014,Northampton County,PA,63.54784081287045
18015,Northampton County,PA,4.530059271803556
18042,Northampton County,PA,56.85859441151566
18052,Lehigh County,PA,12.955122777307368
18058,Monroe County,PA,64.98729889923793
18064,Northampton County,PA,31.28704487722269
18067,Northampton County,PA,30.10160880609653
18073,Montgomery County,PA,67.78154106689246
18078,Lehigh County,PA,98.89923793395428
18102,Lehigh County,PA,33.14987298899238
18103,Lehigh County,PA,2.4555461473327687
18109,Lehigh County,PA,18.83996613039797
18210,Carbon County,PA,84.292972057578325
18344,Monroe County,PA,97.33276883996614
18407,Lackawanna County,PA,36.53683319221
18411,Lackawanna County,PA,37.25656223539374
18434,Lackawanna County,PA,87.80694326841659
18447,Lackawanna County,PA,85.9441151566469
18509,Lackawanna County,PA,45.5969517358171
18512,Lackawanna County,PA,51.397121083827265
18603,Columbia County,PA,71.6342082980525
18621,Luzerne County,PA,87.25656223539373
18634,Luzerne County,PA,32.9805249788315
18640,Luzerne County,PA,63.42082980524979
18643,Luzerne County,PA,43.14140558848433
18702,Luzerne County,PA,52.49788314987299
18706,Luzerne County,PA,93.73412362404741
18707,Luzerne County,PA,46.52836579170195
18801,Susquehanna County,PA,94.87722269263335
18944,Bucks County,PA,42.464013547840814
18951,Bucks County,PA,40.22015241320914
18974,Bucks County,PA,91.1939034716342
19001,Montgomery County,PA,91.5749364944962
19007,Bucks County,PA,18.120237087214225
19008,Delaware County,PA,40.05080440304826
19012,Montgomery County,PA,81.3293818797629
19013,Delaware County,PA,50.38103302286198
19014,Delaware County,PA,31.837425910245553
19015,Delaware County,PA,92.46401354784082
19018,Delaware County,PA,20.067739204064353
19026,Delaware County,PA,10.9229466553768
19027,Montgomery County,PA,77.5190516511431
19031,Montgomery County,PA,82.7688399661304
19032,Delaware County,PA,98.98391193903471
19038,Montgomery County,PA,26.62997459779848
19044,Montgomery County,PA,51.6934801016088
19046,Montgomery County,PA,35.18204911092295
19047,Bucks County,PA,17.27349703640982
19050,Delaware County,PA,88.8653683319221
19053,Bucks County,PA,53.175275190516516
19054,Bucks County,PA,50.84674005080441
19064,Delaware County,PA,29.043183742591022
19067,Bucks County,PA,11.769686706181202
19070,Delaware County,PA,91.40558848433531
19073,Delaware County,PA,41.36325148179509
19076,Delaware County,PA,88.56900931414056
19083,Delaware County,PA,49.87298899237934
19090,Montgomery County,PA,79.29720575783234
19094,Delaware County,PA,85.47840812870449
19104,Philadelphia County,PA,86.62150719729044
19106,Philadelphia County,PA,90.22015241320915
19111,Philadelphia County,PA,92.50635055038103
19115,Philadelphia County,PA,12.447078746824724
19116,Philadelphia County,PA,88.78069432684165
19119,Philadelphia County,PA,17.315834038950044
19120,Philadelphia County,PA,94.41151566469094
19121,Philadelphia County,PA,4.784081287044877
19124,Philadelphia County,PA,24.72480948348857
19128,Philadelphia County,PA,80.94834885690094
19129,Philadelphia County,PA,52.540220152413205
19131,Philadelphia County,PA,82.9805249788315
19132,Philadelphia County,PA,35.0973751058425
19133,Philadelphia County,PA,85.05503810330228
19135,Philadelphia County,PA,72.52328535139712
19136,Philadelphia County,PA,59.90685859441152
19137,Philadelphia County,PA,78.87383573243014
19138,Philadelphia County,PA,83.1922099915326
19140,Philadelphia County,PA,35.39373412362405
19141,Philadelphia County,PA,39.966130397967824
19142,Philadelphia County,PA,75.74089754445386
19143,Philadelphia County,PA,13.59017781541067
19144,Philadelphia County,PA,31.329381879762913
19145,Philadelphia County,PA,3.6409822184589333
19146,Philadelphia County,PA,9.864521591871297
19147,Philadelphia County,PA,11.642675698560542
19150,Philadelphia County,PA,54.14902624894158
19152,Philadelphia County,PA,39.62743437764607
19320,Chester County,PA,76.33361558001694
19335,Chester County,PA,10.753598645215918
19341,Chester County,PA,83.65791701947502
19348,Chester County,PA,45.72396274343776
19355,Chester County,PA,30.990685859441154
19380,Chester County,PA,6.689246401354784
19390,Chester County,PA,99.02624894157493
19401,Montgomery County,PA,24.89415749364945
19438,Montgomery County,PA,36.494496189669775
19446,Montgomery County,PA,72.31160033869602
19454,Montgomery County,PA,63.88653683319221
19460,Chester County,PA,63.08213378492803
19465,Chester County,PA,40.728196443691786
19526,Berks County,PA,59.39881456392887
19540,Berks County,PA,64.14055884843353
19601,Berks County,PA,11.43099068585944
02830,Providence County,RI,74.21676545300593
02907,Providence County,RI,29.88992379339543
02908,Providence County,RI,61.68501270110076
02909,Providence County,RI,76.03725656223538
02916,Providence County,RI,89.92379339542761
02921,Providence County,RI,70.9991532599492
29045,Kershaw County,SC,62.70110076206604
29070,Lexington County,SC,90.9398814563929
29102,Clarendon County,SC,44.58086367485182
29150,Sumter County,SC,26.672311600338695
29154,Sumter County,SC,40.135478408128705
29209,Richland County,SC,34.75867908552075
29212,Lexington County,SC,77.94242167654531
29229,Richland County,SC,59.144792548687555
29301,Spartanburg County,SC,23.243014394580864
29341,Cherokee County,SC,65.961049957663
29360,Laurens County,SC,61.30397967823878
29405,Charleston County,SC,66.13039796782387
29414,Charleston County,SC,90.09314140558848
29418,Charleston County,SC,28.958509737510585
29420,Dorchester County,SC,79.42421676545301
29429,Charleston County,SC,99.95766299745978
29440,Georgetown County,SC,35.56308213378493
29449,Charleston County,SC,76.58763759525826
29455,Charleston County,SC,87.3835732430144
29456,Dorchester County,SC,93.22607959356478
29461,Berkeley County,SC,96.18966977138018
29466,Charleston County,SC,37.84928027095681
29485,Dorchester County,SC,65.83403895004234
29488,Colleton County,SC,85.13971210838272
29605,Greenville County,SC,46.44369178662151
29611,Greenville County,SC,31.541066892464016
29627,Anderson County,SC,48.010160880609654
29630,Pickens County,SC,80.01693480101609
29645,Laurens County,SC,56.60457239627434
29661,Greenville County,SC,79.46655376799323
29680,Greenville County,SC,35.859441151566465
29681,Greenville County,SC,19.30567315834039
29687,Greenville County,SC,53.21761219305673
29689,Anderson County,SC,95.04657070279424
29693,Oconee County,SC,54.69940728196444
29707,Lancaster County,SC,66.76545300592718
29715,York County,SC,56.18120237087214
29827,Allendale County,SC,99.91532599491956
29841,Aiken County,SC,70.1524132091448
29920,Beaufort County,SC,75.190516511431
29944,Hampton County,SC,97.24809483488569
57049,Union County,SD,97.54445385266723
57252,Grant County,SD,84.4623200677392
57350,Beadle County,SD,72.05757832345469
57401,Brown County,SD,11.04995766299746
37043,Montgomery County,TN,26.841659610499573
37066,Sumner County,TN,45.63928873835732
37072,Davidson County,TN,22.86198137171888
37073,Robertson County,TN,95.04657070279424
37075,Sumner County,TN,9.906858594411517
37080,Davidson County,TN,91.49026248941576
37086,Rutherford County,TN,36.57917019475021
37090,Wilson County,TN,52.709568162574094
37127,Rutherford County,TN,76.41828958509737
37160,Bedford County,TN,12.616426756985605
37172,Robertson County,TN,35.69009314140559
37174,Williamson County,TN,37.12955122777307
37185,Humphreys County,TN,80.27095681625741
37205,Davidson County,TN,82.00677392040645
37207,Davidson County,TN,6.943268416596105
37209,Davidson County,TN,23.412362404741742
37211,Davidson County,TN,13.293818797629129
37218,Davidson County,TN,40.304826418289586
37330,Franklin County,TN,59.271803556308214
37355,Coffee County,TN,25.656223539373414
37604,Washington County,TN,40.728196443691786
37660,Sullivan County,TN,4.233700254022015
37871,Jefferson County,TN,75.95258255715495
37874,Monroe County,TN,61.04995766299746
38002,Shelby County,TN,56.68924640135479
38017,Shelby County,TN,34.97036409822184
38106,Shelby County,TN,10.118543607112617
38107,Shelby County,TN,31.710414902624894
38111,Shelby County,TN,60.9229466553768
38116,Shelby County,TN,38.99237933954276
38126,Shelby County,TN,88.69602032176121
38128,Shelby County,TN,40.93988145639288
38134,Shelby County,TN,58.04403048264183
38462,Lewis County,TN,89.58509737510583
38501,Putnam County,TN,12.828111769686707
38555,Cumberland County,TN,29.085520745131245
38585,Van Buren County,TN,90.47417442845047
75022,Denton County,TX,69.09398814563929
75032,Rockwall County,TX,49.44961896697714
75043,Dallas County,TX,58.552074513124474
75044,Dallas County,TX,43.353090601185436
75050,Dallas County,TX,76.67231160033869
75056,Denton County,TX,23.158340389500424
75057,Denton County,TX,73.24301439458087
75063,Dallas County,TX,46.95173581710415
75068,Denton County,TX,53.34462320067739
75069,Collin County,TX,37.510584250635056
75074,Collin County,TX,42.08298052497883
75077,Denton County,TX,33.36155800169348
75087,Rockwall County,TX,31.202370872142254
75104,Dallas County,TX,79.59356477561388
75116,Dallas County,TX,92.37933954276038
75142,Kaufman County,TX,50.88907705334462
75159,Dallas County,TX,81.16003386960203
75203,Dallas County,TX,96.02032176121931
75204,Dallas County,TX,49.53429297205758
75210,Dallas County,TX,57.23962743437765
75211,Dallas County,TX,75.91024555461473
75216,Dallas County,TX,20.660457239627434
75220,Dallas County,TX,95.68162574089754
75223,Dallas County,TX,76.71464860287892
75224,Dallas County,TX,65.79170194750212
75227,Dallas County,TX,84.16596104995766
75228,Dallas County,TX,3.0906011854360713
75229,Dallas County,TX,33.742591024555466
75231,Dallas County,TX,84.84335309060118
75237,Dallas County,TX,64.47925486875529
75240,Dallas County,TX,89.11939034716342
75241,Dallas County,TX,44.87722269263336
75253,Dallas County,TX,87.59525825571549
75254,Dallas County,TX,96.35901778154107
75287,Denton County,TX,75.06350550381033
75474,Hunt County,TX,51.227773073666384
75495,Grayson County,TX,86.11346316680779
75639,Panola County,TX,98.64521591871296
75701,Smith County,TX,56.90093141405589
75708,Smith County,TX,85.01270110076207
75803,Anderson County,TX,53.76799322607959
75860,Freestone County,TX,81.922099915326
76002,Tarrant County,TX,46.18966977138019
76010,Tarrant County,TX,37.72226926333616
76014,Tarrant County,TX,66.97713801862828
76028,Johnson County,TX,6.308213378492803
76040,Tarrant County,TX,96.27434377646063
76049,Hood County,TX,28.408128704487723
76102,Tarrant County,TX,97.45977984758679
76104,Tarrant County,TX,15.198983911939035
76112,Tarrant County,TX,71.54953429297206
76115,Tarrant County,TX,39.20406435224386
76119,Tarrant County,TX,52.96359017781541
76123,Tarrant County,TX,36.621507197290434
76131,Tarrant County,TX,39.415749364944965
76133,Tarrant County,TX,12.531752751905165
76135,Tarrant County,TX,46.52836579170195
76148,Tarrant County,TX,75.31752751905165
76180,Tarrant County,TX,31.41405588484335
76301,Wichita County,TX,36.07112616426757
76401,Erath County,TX,94.66553767993227
76502,Bell County,TX,35.64775613886537
76504,Bell County,TX,5.50381033022862
76513,Bell County,TX,4.191363251481795
76520,Milam County,TX,97.12108382726502
76522,Coryell County,TX,96.74005080440304
76543,Bell County,TX,66.42675698560542
76549,Bell County,TX,45.30059271803557
76571,Bell County,TX,85.69009314140558
76579,Bell County,TX,83.57324301439458
77004,Harris County,TX,50.2116850127011
77007,Harris County,TX,40.982218458933104
77014,Harris County,TX,48.56054191363251
77015,Harris County,TX,29.805249788314985
77016,Harris County,TX,62.658763759525826
77017,Harris County,TX,71.71888230313293
77020,Harris County,TX,47.459779847586795
77021,Harris County,TX,26.164267569856055
77023,Harris County,TX,48.85690093141405
77028,Harris County,TX,80.69432684165962
77031,Harris County,TX,65.49534292972058
77033,Harris County,TX,43.60711261642676
77035,Harris County,TX,31.117696867061813
77036,Harris County,TX,41.44792548687553
77037,Harris County,TX,96.52836579170194
77045,Harris County,TX,73.49703640982219
77047,Harris County,TX,72.22692633361558
77048,Harris County,TX,60.37256562235393
77049,Harris County,TX,97.79847586790855
77055,Harris County,TX,95.55461473327689
77057,Harris County,TX,89.03471634208297
77060,Harris County,TX,76.16426756985607
77068,Harris County,TX,87.76460626587638
77072,Harris County,TX,70.91447925486875
77074,Harris County,TX,66.97713801862828
77075,Harris County,TX,38.950042337002536
77077,Harris County,TX,34.419983065198984
77080,Harris County,TX,59.48348856900931
77084,Harris County,TX,6.816257408975444
77086,Harris County,TX,55.54614733276884
77090,Harris County,TX,51.227773073666384
77091,Harris County,TX,42.97205757832345
77092,Harris County,TX,83.1922099915326
77302,Montgomery County,TX,58.76375952582558
77303,Montgomery County,TX,70.61812023708721
77351,Polk County,TX,78.1541066892464
77356,Montgomery County,TX,79.76291278577476
77362,Montgomery County,TX,89.41574936494496
77365,Montgomery County,TX,67.90855207451312
77372,Montgomery County,TX,80.77900084674005
77373,Harris County,TX,51.227773073666384
77375,Harris County,TX,82.5571549534293
77379,Harris County,TX,64.43691786621507
77407,Fort Bend County,TX,41.19390347163421
77423,Waller County,TX,92.04064352243861
77433,Harris County,TX,6.985605419136324
77449,Harris County,TX,84.2506350550381
77477,Fort Bend County,TX,44.15749364944962
77479,Fort Bend County,TX,21.888230313293818
77489,Fort Bend County,TX,22.269263336155802
77494,Fort Bend County,TX,10.372565622353937
77502,Harris County,TX,70.27942421676545
77503,Harris County,TX,94.66553767993227
77506,Harris County,TX,75.23285351397121
77511,Brazoria County,TX,65.58001693480101
77523,Chambers County,TX,46.74005080440305
77539,Galveston County,TX,14.09822184589331
77545,Fort Bend County,TX,56.39288738357324
77550,Galveston County,TX,12.997459779847587
77551,Galveston County,TX,48.729889923793394
77563,Galveston County,TX,63.54784081287045
77566,Brazoria County,TX,69.30567315834038
77568,Galveston County,TX,25.486875529212533
77573,Galveston County,TX,26.502963590177814
77575,Liberty County,TX,54.99576629974597
77584,Brazoria County,TX,45.93564775613886
77590,Galveston County,TX,32.387806943268416
77598,Harris County,TX,92.16765453005927
77632,Orange County,TX,81.4987298899238
77642,Jefferson County,TX,21.337849280270955
77662,Orange County,TX,78.02709568162574
77801,Brazos County,TX,70.32176121930569
77803,Brazos County,TX,65.28365791701948
77808,Brazos County,TX,49.44961896697714
77833,Washington County,TX,35.18204911092295
77845,Brazos County,TX,57.493649449618964
77859,Robertson County,TX,89.88145639288739
78154,Guadalupe County,TX,83.78492802709569
78207,Bexar County,TX,14.563928873835733
78212,Bexar County,TX,83.70025402201524
78218,Bexar County,TX,80.22861981371719
78226,Bexar County,TX,85.22438611346317
78227,Bexar County,TX,27.18035563082134
78240,Bexar County,TX,33.23454699407282
78415,Nueces County,TX,36.11346316680779
78503,Hidalgo County,TX,58.80609652836579
78504,Hidalgo County,TX,74.51312447078747
78516,Hidalgo County,TX,85.9017781541067
78537,Hidalgo County,TX,53.725656223539374
78541,Hidalgo County,TX,39.11939034716342
78573,Hidalgo County,TX,43.52243861134632
78582,Starr County,TX,94.19983065198984
78589,Hidalgo County,TX,29.805249788314985
78599,Hidalgo County,TX,74.47078746824725
78611,Burnet County,TX,68.33192209991532
78612,Bastrop County,TX,98.09483488569009
78626,Williamson County,TX,73.79339542760373
78640,Hays County,TX,31.583403895004235
78681,Williamson County,TX,71.76121930567317
78741,Travis County,TX,61.93903471634208
78758,Travis County,TX,70.23708721422524
78934,Colorado County,TX,79.29720575783234
78957,Bastrop County,TX,80.52497883149873
79103,Potter County,TX,86.79085520745132
79104,Potter County,TX,99.7883149872989
79110,Randall County,TX,54.27603725656224
79336,Hockley County,TX,59.94919559695173
79404,Lubbock County,TX,65.49534292972058
79416,Lubbock County,TX,42.506350550381036
79423,Lubbock County,TX,21.591871295512277
79701,Midland County,TX,32.218458933107534
79703,Midland County,TX,48.306519898391194
79935,El Paso County,TX,75.52921253175275
79938,El Paso County,TX,53.852667231160034
84005,Utah County,UT,69.22099915325995
84009,Salt Lake County,UT,42.08298052497883
84010,Davis County,UT,30.73666384419983
84029,Tooele County,UT,47.54445385266723
84044,Salt Lake County,UT,33.44623200677392
84047,Salt Lake County,UT,19.64436917866215
84054,Davis County,UT,63.75952582557155
84058,Utah County,UT,72.14225232853514
84060,Summit County,UT,90.05080440304826
84062,Utah County,UT,45.977984758679085
84070,Salt Lake County,UT,38.99237933954276
84074,Tooele County,UT,14.648602878916172
84075,Davis County,UT,60.49957662997459
84081,Salt Lake County,UT,22.734970364098224
84095,Salt Lake County,UT,60.584250635055035
84096,Salt Lake County,UT,66.00338696020322
84117,Salt Lake County,UT,67.73920406435224
84118,Salt Lake County,UT,11.134631668077901
84120,Salt Lake County,UT,39.79678238780694
84128,Salt Lake County,UT,29.297205757832344
84129,,UT,77.22269263336156
84318,Cache County,UT,98.22184589331076
84401,Weber County,UT,32.7688399661304
84738,Washington County,UT,90.72819644369179
20120,Fairfax County,VA,41.70194750211685
22015,Fairfax County,VA,41.19390347163421
22025,Prince William County,VA,95.89331075359866
22026,Prince William County,VA,90.89754445385266
22032,Fairfax County,VA,53.556308213378486
22033,Fairfax County,VA,49.28027095681626
22043,Fairfax County,VA,60.457239627434376
22044,Fairfax County,VA,91.36325148179509
22079,Fairfax County,VA,63.209144792548685
22101,Fairfax County,VA,40.89754445385267
22151,Fairfax County,VA,72.60795935647756
22153,Fairfax County,VA,47.29043183742591
22182,Fairfax County,VA,79.2125317527519
22191,Prince William County,VA,94.62320067739203
22192,Prince William County,VA,81.41405588484335
22193,Prince William County,VA,88.27265029635902
22204,Arlington County,VA,20.787468247248096
22205,Arlington County,VA,77.43437764606266
22304,Alexandria city,VA,8.763759525825572
22305,Alexandria city,VA,64.2675698560542
22306,Fairfax County,VA,76.92633361558
22310,Fairfax County,VA,42.29466553767993
22314,Alexandria city,VA,22.565622353937343
22405,Stafford County,VA,46.6553767993226
22407,Spotsylvania County,VA,38.52667231160034
22508,Orange County,VA,89.66977138018628
22554,Stafford County,VA,92.33700254022014
22602,Frederick County,VA,87.55292125317527
22603,Frederick County,VA,76.96867061812024
22656,Frederick County,VA,97.50211685012701
22657,Shenandoah County,VA,69.39034716342083
22801,Harrisonburg city,VA,32.30313293818798
22815,Rockingham County,VA,41.06689246401355
22835,Page County,VA,48.64521591871295
22902,Charlottesville city,VA,73.53937341236241
22942,Louisa County,VA,71.25317527519051
22960,Orange County,VA,54.53005927180355
23060,Henrico County,VA,51.35478408128704
23112,Chesterfield County,VA,63.378492802709566
23220,Richmond city,VA,94.79254868755292
23222,Richmond city,VA,10.668924640135478
23223,Henrico County,VA,27.60372565622354
23224,Richmond city,VA,28.19644369178662
23228,Henrico County,VA,67.82387806943268
23229,Henrico County,VA,80.56731583403895
23231,Henrico County,VA,92.54868755292125
23237,Chesterfield County,VA,85.77476714648603
23454,Virginia Beach city,VA,21.507197290431836
23456,Virginia Beach city,VA,73.66638441998306
23462,Virginia Beach city,VA,11.981371718882302
23502,Norfolk city,VA,25.95258255715495
23607,Newport News city,VA,13.717188823031329
23608,Newport News city,VA,87.12955122777308
23664,Hampton city,VA,73.32768839966131
23803,Petersburg city,VA,60.24555461473328
23834,Colonial Heights city,VA,93.01439458086368
23838,Chesterfield County,VA,76.84165961049958
23860,Hopewell city,VA,23.073666384419983
23970,Mecklenburg County,VA,55.2497883149873
24054,Henry County,VA,77.85774767146486
24060,Montgomery County,VA,77.13801862828112
24090,Botetourt County,VA,99.83065198983911
24211,Washington County,VA,71.08382726502963
24293,Wise County,VA,38.653683319221
24540,Danville city,VA,75.61388653683319
24592,Halifax County,VA,82.3454699407282
98002,King County,WA,56.3082133784928
98005,King County,WA,74.25910245554614
98012,Snohomish County,WA,52.116850127011006
98023,King County,WA,18.543607112616428
98087,Snohomish County,WA,36.24047417442845
98105,King County,WA,71.33784928027096
98112,King County,WA,44.58086367485182
98116,King County,WA,58.636748518204904
98148,King County,WA,90.47417442845047
98258,Snohomish County,WA,16.5961049957663
98311,Kitsap County,WA,50.59271803556308
98409,Pierce County,WA,44.91955969517358
98446,Pierce County,WA,81.922099915326
98467,Pierce County,WA,72.43861134631669
98502,Thurston County,WA,51.43945808636749
98626,Cowlitz County,WA,84.038950042337
98632,Cowlitz County,WA,12.785774767146485
98802,Douglas County,WA,39.5004233700254
99352,Benton County,WA,30.863674851820488
20002,District of Columbia,DC,69.68670618120237
20007,District of Columbia,DC,67.99322607959355
20009,District of Columbia,DC,68.79762912785775
20010,District of Columbia,DC,41.82895850973751
20012,District of Columbia,DC,72.05757832345469
20018,District of Columbia,DC,32.43014394580864
20019,District of Columbia,DC,14.43691786621507
20020,District of Columbia,DC,1.100762066045724
20024,District of Columbia,DC,74.04741744284505
24740,Mercer County,WV,22.480948348856902
24844,McDowell County,WV,97.0364098221846
25309,Kanawha County,WV,55.96951735817104
25401,Berkeley County,WV,57.959356477561386
25403,Berkeley County,WV,62.02370872142252
25405,Berkeley County,WV,66.34208298052498
25414,Jefferson County,WV,51.100762066045725
25425,Jefferson County,WV,92.71803556308214
25428,Berkeley County,WV,51.14309906858594
25560,Putnam County,WV,81.20237087214225
25571,Lincoln County,WV,99.11092294665538
25701,Cabell County,WV,9.695173581710414
25705,Cabell County,WV,11.30397967823878
26201,Upshur County,WV,15.834038950042336
26501,Monongalia County,WV,38.187976291278574
26554,Marion County,WV,2.032176121930567
53027,Washington County,WI,56.39288738357324
53050,Dodge County,WI,95.21591871295513
53066,Waukesha County,WI,60.287891617273495
53089,Waukesha County,WI,78.66215071972904
53095,Washington County,WI,81.37171888230313
53098,Dodge County,WI,52.58255715495343
53122,Waukesha County,WI,76.96867061812024
53143,Kenosha County,WI,90.17781541066893
53188,Waukesha County,WI,44.961896697713804
53204,Milwaukee County,WI,37.341236240474174
53205,Milwaukee County,WI,24.047417442845045
53206,Milwaukee County,WI,5.292125317527519
53208,Milwaukee County,WI,6.308213378492803
53209,Milwaukee County,WI,1.1854360711261642
53210,Milwaukee County,WI,78.11176968670618
53212,Milwaukee County,WI,8.34038950042337
53213,Milwaukee County,WI,38.82303132938188
53215,Milwaukee County,WI,15.749364944961897
53217,Milwaukee County,WI,26.206604572396273
53218,Milwaukee County,WI,3.344623200677392
53219,Milwaukee County,WI,10.795935647756139
53221,Milwaukee County,WI,13.039796782387809
53225,Milwaukee County,WI,5.969517358171041
53227,Milwaukee County,WI,85.43607112616426
53402,Racine County,WI,34.885690093141406
53405,Racine County,WI,19.34801016088061
53406,Racine County,WI,8.63674851820491
53511,Rock County,WI,0.2540220152413209
53534,Rock County,WI,46.824724809483484
53536,Rock County,WI,81.71041490262489
53548,Rock County,WI,18.289585097375106
53593,Dane County,WI,74.68247248094835
53704,Dane County,WI,67.4428450465707
53714,Dane County,WI,80.86367485182049
53716,Dane County,WI,83.8272650296359
53718,Dane County,WI,67.56985605419136
53910,Adams County,WI,97.6714648602879
53916,Dodge County,WI,62.02370872142252
54001,Polk County,WI,69.05165114309906
54011,Pierce County,WI,75.52921253175275
54017,St. Croix County,WI,68.96697713801862
54235,Door County,WI,49.11092294665538
54304,Brown County,WI,15.495342929720577
54401,Marathon County,WI,29.38187976291279
54403,Marathon County,WI,33.95427603725656
54476,Marathon County,WI,65.91871295512279
54601,La Crosse County,WI,52.03217612193056
54880,Douglas County,WI,8.848433530906012
54911,Outagamie County,WI,29.593564775613885
54914,Outagamie County,WI,16.3844199830652
54915,Outagamie County,WI,26.037256562235395
54923,Green Lake County,WI,82.93818797629127
54942,Outagamie County,WI,88.52667231160034
54944,Outagamie County,WI,86.36748518204911
54956,Winnebago County,WI,19.093988145639287
54961,Waupaca County,WI,46.52836579170195
54981,Waupaca County,WI,96.10499576629975
82801,Sheridan County,WY,59.77984758679086
82901,Sweetwater County,WY,72.39627434377645
