ZipCode,county,state,Adult,Retirement,Geriatric
35064,Jefferson County,AL,NA,77.68595041322314,NA
35401,Tuscaloosa County,AL,32.748538011695906,NA,NA
35802,Madison County,AL,NA,65.56473829201101,NA
36093,Elmore County,AL,NA,NA,83.87096774193549
99504,Anchorage Municipality,AK,NA,NA,61.29032258064516
85017,Maricopa County,AZ,NA,74.3801652892562,NA
85040,Maricopa County,AZ,26.900584795321635,NA,NA
85120,Pinal County,AZ,NA,NA,37.992831541218635
85209,Maricopa County,AZ,NA,28.37465564738292,NA
85250,Maricopa County,AZ,NA,89.25619834710744,NA
85326,Maricopa County,AZ,65.49707602339181,NA,NA
85629,Pima County,AZ,NA,87.87878787878788,NA
85634,Pima County,AZ,NA,32.5068870523416,NA
86043,Navajo County,AZ,100,NA,NA
86045,Coconino County,AZ,31.57894736842105,NA,99.2831541218638
86503,Apache County,AZ,NA,NA,80.64516129032258
86507,Apache County,AZ,NA,NA,99.6415770609319
72065,Saline County,AR,98.24561403508771,NA,NA
72117,Pulaski County,AR,60.23391812865497,NA,NA
72120,Pulaski County,AR,NA,52.066115702479344,NA
90005,Los Angeles County,CA,94.15204678362574,NA,NA
90016,Los Angeles County,CA,NA,NA,68.81720430107528
90043,Los Angeles County,CA,50.29239766081871,NA,NA
90045,Los Angeles County,CA,NA,56.19834710743802,NA
90047,Los Angeles County,CA,NA,NA,32.61648745519714
90056,Los Angeles County,CA,NA,NA,93.9068100358423
90063,Los Angeles County,CA,NA,46.5564738292011,84.22939068100358
90245,Los Angeles County,CA,NA,NA,96.7741935483871
90250,Los Angeles County,CA,NA,28.09917355371901,NA
90292,Los Angeles County,CA,NA,NA,76.70250896057348
90602,Los Angeles County,CA,NA,NA,66.66666666666666
90620,Orange County,CA,NA,NA,33.33333333333333
90631,Orange County,CA,NA,NA,27.598566308243726
90650,Los Angeles County,CA,23.976608187134502,NA,NA
90808,Los Angeles County,CA,NA,43.80165289256198,NA
91202,Los Angeles County,CA,NA,NA,81.36200716845879
91344,Los Angeles County,CA,NA,NA,27.24014336917563
91352,Los Angeles County,CA,NA,45.73002754820937,NA
91732,Los Angeles County,CA,93.56725146198829,NA,NA
91761,San Bernardino County,CA,NA,36.91460055096419,NA
91764,San Bernardino County,CA,41.52046783625731,NA,NA
91789,Los Angeles County,CA,NA,61.98347107438017,NA
92027,San Diego County,CA,NA,49.03581267217631,NA
92028,San Diego County,CA,NA,NA,53.40501792114696
92113,San Diego County,CA,NA,69.6969696969697,NA
92123,San Diego County,CA,NA,46.28099173553719,NA
92126,San Diego County,CA,NA,36.36363636363637,NA
92201,Riverside County,CA,NA,52.61707988980716,NA
92354,San Bernardino County,CA,NA,95.31680440771349,NA
92508,Riverside County,CA,NA,NA,100
92509,Riverside County,CA,NA,NA,48.38709677419355
92530,Riverside County,CA,94.73684210526315,NA,NA
92544,Riverside County,CA,54.385964912280706,NA,NA
92647,Orange County,CA,NA,NA,20.07168458781362
92679,Orange County,CA,NA,62.8099173553719,NA
92703,Orange County,CA,NA,NA,88.88888888888889
92807,Orange County,CA,NA,88.98071625344353,NA
92886,Orange County,CA,NA,21.763085399449036,NA
93257,Tulare County,CA,18.71345029239766,NA,NA
93552,Los Angeles County,CA,NA,NA,94.6236559139785
93701,Fresno County,CA,NA,97.52066115702479,NA
93703,Fresno County,CA,NA,NA,77.41935483870968
93711,Fresno County,CA,72.51461988304094,NA,NA
93720,Fresno County,CA,38.01169590643275,NA,NA
94025,San Mateo County,CA,54.97076023391813,NA,NA
94040,Santa Clara County,CA,NA,78.51239669421489,NA
94044,San Mateo County,CA,59.06432748538012,NA,NA
94061,San Mateo County,CA,91.81286549707602,NA,NA
94062,San Mateo County,CA,NA,51.2396694214876,NA
94063,San Mateo County,CA,NA,NA,72.75985663082437
94070,San Mateo County,CA,NA,66.66666666666666,NA
94103,San Francisco County,CA,NA,NA,54.83870967741935
94110,San Francisco County,CA,NA,40.49586776859504,NA
94112,San Francisco County,CA,NA,36.63911845730027,NA
94116,San Francisco County,CA,NA,71.62534435261708,53.04659498207885
94122,San Francisco County,CA,NA,25.068870523415974,NA
94134,San Francisco County,CA,NA,NA,36.55913978494624
94538,Alameda County,CA,NA,93.1129476584022,NA
94588,Alameda County,CA,NA,NA,64.51612903225806
94602,Alameda County,CA,NA,NA,72.04301075268818
94607,Alameda County,CA,NA,79.06336088154269,NA
94619,Alameda County,CA,NA,60.88154269972452,NA
94928,Sonoma County,CA,NA,45.17906336088154,NA
95003,Santa Cruz County,CA,NA,77.13498622589532,NA
95070,Santa Clara County,CA,NA,75.20661157024794,NA
95124,Santa Clara County,CA,NA,NA,49.82078853046595
95126,Santa Clara County,CA,NA,84.02203856749311,NA
95135,Santa Clara County,CA,NA,NA,56.98924731182796
95136,Santa Clara County,CA,NA,64.46280991735537,NA
95336,San Joaquin County,CA,NA,25.344352617079892,NA
95348,Merced County,CA,70.76023391812866,NA,NA
95350,Stanislaus County,CA,24.561403508771928,NA,NA
95382,Stanislaus County,CA,NA,NA,54.121863799283155
95409,Sonoma County,CA,NA,80.44077134986226,NA
95460,Mendocino County,CA,NA,98.34710743801654,NA
95628,Sacramento County,CA,NA,42.42424242424242,NA
95670,Sacramento County,CA,NA,35.81267217630854,NA
95695,Yolo County,CA,NA,54.54545454545454,NA
95823,Sacramento County,CA,45.02923976608187,NA,NA
95827,Sacramento County,CA,NA,70.24793388429752,NA
95838,Sacramento County,CA,40.35087719298245,NA,NA
95969,Butte County,CA,NA,9.917355371900827,NA
80013,Arapahoe County,CO,NA,26.170798898071624,NA
80204,Denver County,CO,NA,93.93939393939394,NA
80206,Denver County,CO,NA,65.0137741046832,NA
80223,Denver County,CO,67.83625730994152,NA,NA
80302,Boulder County,CO,NA,70.79889807162535,NA
06051,Hartford County,CT,NA,54.82093663911846,NA
06082,Hartford County,CT,NA,NA,55.19713261648745
06106,Hartford County,CT,NA,NA,35.12544802867383
06119,Hartford County,CT,NA,94.21487603305785,NA
06443,New Haven County,CT,73.68421052631578,NA,NA
06457,Middlesex County,CT,11.695906432748536,NA,NA
06473,New Haven County,CT,NA,35.53719008264463,NA
06512,New Haven County,CT,NA,NA,21.863799283154123
06513,New Haven County,CT,NA,11.84573002754821,NA
06704,New Haven County,CT,NA,NA,78.85304659498208
32148,Putnam County,FL,NA,72.1763085399449,NA
32209,Duval County,FL,NA,NA,18.996415770609318
32210,Duval County,FL,NA,NA,65.59139784946237
32246,Duval County,FL,NA,26.72176308539945,NA
32506,Escambia County,FL,NA,22.31404958677686,NA
32609,Alachua County,FL,58.47953216374269,NA,NA
32618,Alachua County,FL,NA,86.50137741046832,NA
32712,Orange County,FL,NA,37.46556473829201,NA
32724,Volusia County,FL,NA,NA,30.107526881720432
32796,Brevard County,FL,57.30994152046783,NA,NA
33004,Broward County,FL,NA,71.07438016528926,NA
33016,Miami-Dade County,FL,NA,NA,31.182795698924732
33024,Broward County,FL,NA,61.15702479338842,NA
33027,Broward County,FL,NA,NA,9.31899641577061
33033,Miami-Dade County,FL,46.198830409356724,52.892561983471076,NA
33055,Miami-Dade County,FL,NA,60.33057851239669,NA
33056,Miami-Dade County,FL,NA,48.760330578512395,NA
33141,Miami-Dade County,FL,NA,38.29201101928375,NA
33172,Miami-Dade County,FL,NA,NA,49.10394265232975
33180,Miami-Dade County,FL,NA,78.23691460055096,NA
33426,Palm Beach County,FL,NA,81.5426997245179,NA
33444,Palm Beach County,FL,NA,NA,87.81362007168458
33469,Palm Beach County,FL,NA,NA,36.200716845878134
33484,Palm Beach County,FL,NA,33.33333333333333,NA
33540,Pasco County,FL,NA,NA,86.73835125448028
33565,Hillsborough County,FL,NA,NA,67.38351254480287
33572,Hillsborough County,FL,NA,NA,87.45519713261649
33611,Hillsborough County,FL,NA,58.67768595041323,NA
33617,Hillsborough County,FL,NA,NA,58.78136200716846
33626,Hillsborough County,FL,NA,NA,79.92831541218638
33803,Polk County,FL,64.91228070175438,NA,NA
33919,Lee County,FL,63.1578947368421,NA,NA
33980,Charlotte County,FL,NA,NA,65.23297491039428
34203,Manatee County,FL,NA,NA,21.14695340501792
34234,Sarasota County,FL,NA,NA,97.84946236559139
34488,Marion County,FL,78.3625730994152,NA,NA
34688,Pinellas County,FL,NA,89.53168044077135,NA
34952,St. Lucie County,FL,NA,NA,11.827956989247312
30032,DeKalb County,GA,NA,NA,77.77777777777779
30035,DeKalb County,GA,NA,46.83195592286501,NA
30101,Cobb County,GA,NA,30.02754820936639,NA
30144,Cobb County,GA,NA,NA,60.57347670250897
30306,Fulton County,GA,NA,76.85950413223141,NA
30310,Fulton County,GA,29.82456140350877,20.385674931129476,NA
30311,Fulton County,GA,NA,NA,25.448028673835125
30312,Fulton County,GA,NA,NA,69.89247311827957
30315,Fulton County,GA,NA,29.476584022038566,NA
30324,Fulton County,GA,NA,95.86776859504133,NA
30331,Fulton County,GA,23.391812865497073,11.570247933884298,NA
30344,Fulton County,GA,NA,42.69972451790633,NA
30680,Barrow County,GA,75.43859649122807,NA,NA
30720,Whitfield County,GA,NA,62.53443526170799,NA
30906,Richmond County,GA,NA,NA,58.422939068100355
30909,Richmond County,GA,NA,82.09366391184572,31.54121863799283
31005,Houston County,GA,NA,86.77685950413223,NA
31061,Baldwin County,GA,NA,30.853994490358126,NA
31522,Glynn County,GA,NA,NA,73.83512544802868
96706,Honolulu County,HI,NA,15.151515151515152,NA
96789,Honolulu County,HI,29.239766081871345,NA,NA
96797,Honolulu County,HI,NA,NA,15.412186379928317
96817,Honolulu County,HI,NA,9.366391184573002,NA
96822,Honolulu County,HI,NA,NA,50.179211469534046
60010,Lake County,IL,NA,16.528925619834713,NA
60030,Lake County,IL,46.783625730994146,NA,NA
60061,Lake County,IL,NA,NA,45.878136200716845
60077,Cook County,IL,NA,33.057851239669425,NA
60089,Lake County,IL,NA,63.91184573002755,NA
60093,Cook County,IL,NA,50.964187327823694,NA
60103,DuPage County,IL,NA,27.823691460055095,NA
60126,DuPage County,IL,16.95906432748538,4.958677685950414,NA
60153,Cook County,IL,NA,78.78787878787878,NA
60156,McHenry County,IL,73.09941520467837,NA,NA
60162,Cook County,IL,NA,88.1542699724518,NA
60173,Cook County,IL,NA,NA,94.98207885304659
60175,Kane County,IL,NA,37.74104683195592,NA
60401,Will County,IL,84.7953216374269,NA,NA
60409,Cook County,IL,NA,36.08815426997245,NA
60440,Will County,IL,NA,17.355371900826448,NA
60446,Will County,IL,NA,73.00275482093664,NA
60466,Cook County,IL,NA,NA,55.55555555555556
60477,Cook County,IL,NA,NA,15.053763440860216
60609,Cook County,IL,NA,20.9366391184573,NA
60612,Cook County,IL,NA,NA,43.727598566308245
60617,Cook County,IL,NA,NA,3.942652329749104
60618,Cook County,IL,NA,23.69146005509642,NA
60619,Cook County,IL,NA,NA,2.5089605734767026
60637,Cook County,IL,NA,47.107438016528924,NA
60639,Cook County,IL,15.789473684210526,NA,NA
61072,Winnebago County,IL,NA,NA,96.415770609319
61081,Whiteside County,IL,NA,NA,6.451612903225806
61350,LaSalle County,IL,NA,67.76859504132231,NA
61614,Peoria County,IL,NA,NA,30.46594982078853
61727,De Witt County,IL,NA,75.75757575757575,NA
61802,Champaign County,IL,NA,NA,18.63799283154122
61821,Champaign County,IL,NA,49.311294765840216,NA
61874,Champaign County,IL,NA,NA,52.32974910394266
62274,Perry County,IL,81.87134502923976,NA,NA
62439,Lawrence County,IL,NA,73.27823691460054,NA
46112,Hendricks County,IN,NA,49.586776859504134,NA
46143,Johnson County,IN,NA,21.21212121212121,NA
46151,Morgan County,IN,NA,NA,37.634408602150536
46184,Johnson County,IN,NA,74.65564738292011,NA
46235,Marion County,IN,NA,68.59504132231406,NA
46254,Marion County,IN,NA,NA,82.07885304659499
46307,Lake County,IN,NA,NA,5.376344086021505
46360,LaPorte County,IN,NA,6.887052341597796,NA
46375,Lake County,IN,NA,NA,29.749103942652326
46953,Grant County,IN,NA,NA,19.35483870967742
47274,Jackson County,IN,NA,NA,38.70967741935484
50022,Cass County,IA,NA,95.0413223140496,NA
50158,Marshall County,IA,NA,41.59779614325069,NA
50265,Polk County,IA,76.0233918128655,59.50413223140496,NA
50273,Madison County,IA,NA,NA,96.05734767025089
50310,Polk County,IA,NA,50.13774104683195,NA
50315,Polk County,IA,NA,27.548209366391184,NA
50316,Polk County,IA,NA,84.84848484848484,NA
50325,Polk County,IA,NA,92.28650137741047,NA
50659,Chickasaw County,IA,NA,NA,75.62724014336918
51501,Pottawattamie County,IA,NA,NA,40.14336917562724
52241,Johnson County,IA,NA,NA,85.30465949820788
52310,Jones County,IA,90.64327485380117,NA,NA
52601,Des Moines County,IA,NA,18.181818181818183,NA
66605,Shawnee County,KS,NA,NA,60.93189964157706
66614,Shawnee County,KS,NA,23.415977961432507,NA
40213,Jefferson County,KY,NA,NA,68.45878136200717
40422,Boyle County,KY,NA,NA,61.648745519713266
41091,Boone County,KY,NA,67.4931129476584,NA
42519,Pulaski County,KY,NA,100,NA
70058,Jefferson Parish,LA,NA,NA,51.25448028673835
70062,Jefferson Parish,LA,56.14035087719298,NA,NA
70094,Jefferson Parish,LA,8.771929824561402,19.55922865013774,NA
70128,Orleans Parish,LA,NA,35.26170798898072,NA
70301,Lafourche Parish,LA,50.29239766081871,NA,NA
70357,Lafourche Parish,LA,99.41520467836257,NA,NA
70359,Terrebonne Parish,LA,69.00584795321637,NA,NA
70433,St. Tammany Parish,LA,NA,11.019283746556475,NA
70452,St. Tammany Parish,LA,NA,NA,63.44086021505376
70461,St. Tammany Parish,LA,NA,NA,51.971326164874554
70785,Livingston Parish,LA,NA,39.94490358126722,NA
70806,East Baton Rouge Parish,LA,NA,NA,87.09677419354838
71251,Jackson Parish,LA,NA,NA,79.21146953405018
71360,Rapides Parish,LA,80.7017543859649,NA,NA
04102,Cumberland County,ME,39.1812865497076,NA,NA
04280,Androscoggin County,ME,NA,96.14325068870524,NA
04330,Kennebec County,ME,NA,9.090909090909092,NA
04736,Aroostook County,ME,NA,NA,35.483870967741936
04769,Aroostook County,ME,NA,NA,22.939068100358423
20639,Calvert County,MD,NA,NA,88.17204301075269
20650,St. Mary's County,MD,NA,NA,73.83512544802868
20659,St. Mary's County,MD,NA,57.85123966942148,NA
20723,Howard County,MD,NA,77.96143250688705,NA
20815,Montgomery County,MD,NA,NA,46.59498207885305
20871,Montgomery County,MD,NA,97.2451790633609,NA
20874,Montgomery County,MD,52.046783625730995,NA,NA
20904,Montgomery County,MD,NA,NA,26.881720430107524
20905,Montgomery County,MD,NA,96.96969696969697,NA
21050,Harford County,MD,NA,75.75757575757575,NA
21074,Carroll County,MD,NA,99.44903581267218,NA
21213,Baltimore city,MD,NA,93.66391184573003,NA
21215,Baltimore city,MD,NA,NA,12.186379928315413
21216,Baltimore city,MD,NA,26.446280991735538,NA
21234,Baltimore County,MD,21.052631578947366,NA,NA
21601,Talbot County,MD,NA,44.352617079889804,NA
01089,Hampden County,MA,NA,31.68044077134986,NA
01460,Middlesex County,MA,NA,NA,72.40143369175627
01529,Worcester County,MA,98.83040935672514,NA,NA
01536,Worcester County,MA,NA,81.81818181818183,NA
01801,Middlesex County,MA,NA,NA,1.4336917562724014
01803,Middlesex County,MA,NA,6.6115702479338845,4.659498207885305
01821,Middlesex County,MA,NA,2.479338842975207,NA
01845,Essex County,MA,NA,14.325068870523417,NA
01851,Middlesex County,MA,48.53801169590643,NA,NA
01862,Middlesex County,MA,80.11695906432749,NA,NA
01886,Middlesex County,MA,60.81871345029239,NA,NA
01902,Essex County,MA,NA,1.1019283746556474,NA
01915,Essex County,MA,NA,1.6528925619834711,NA
01938,Essex County,MA,NA,19.834710743801654,NA
01960,Essex County,MA,NA,63.08539944903582,NA
01970,Essex County,MA,NA,0.8264462809917356,NA
01983,Essex County,MA,NA,83.7465564738292,NA
02019,Norfolk County,MA,40.93567251461988,NA,NA
02021,Norfolk County,MA,NA,NA,63.08243727598566
02050,Plymouth County,MA,28.07017543859649,NA,NA
02062,Norfolk County,MA,19.883040935672515,NA,NA
02114,Suffolk County,MA,NA,40.77134986225895,NA
02115,Suffolk County,MA,NA,NA,6.810035842293908
02119,Suffolk County,MA,NA,14.600550964187327,63.799283154121866
02122,Suffolk County,MA,NA,1.9283746556473829,NA
02124,Suffolk County,MA,NA,49.862258953168045,NA
02126,Suffolk County,MA,7.602339181286549,NA,NA
02127,Suffolk County,MA,NA,10.743801652892563,69.53405017921148
02128,Suffolk County,MA,1.1695906432748537,NA,NA
02129,Suffolk County,MA,NA,30.303030303030305,NA
02130,Suffolk County,MA,4.093567251461988,NA,NA
02135,Suffolk County,MA,NA,NA,2.1505376344086025
02136,Suffolk County,MA,NA,7.43801652892562,NA
02139,Middlesex County,MA,0.5847953216374269,NA,NA
02140,Middlesex County,MA,NA,13.498622589531681,NA
02149,Middlesex County,MA,NA,NA,4.301075268817205
02150,Suffolk County,MA,1.7543859649122806,NA,NA
02171,Norfolk County,MA,67.2514619883041,NA,NA
02302,Plymouth County,MA,NA,3.3057851239669422,NA
02360,Plymouth County,MA,NA,0,NA
02458,Middlesex County,MA,53.216374269005854,NA,NA
02468,Middlesex County,MA,87.13450292397661,NA,NA
02481,Norfolk County,MA,NA,53.4435261707989,NA
02748,Bristol County,MA,NA,53.994490358126725,NA
48021,Macomb County,MI,NA,NA,40.50179211469534
48023,St. Clair County,MI,NA,96.41873278236915,NA
48038,Macomb County,MI,18.128654970760234,NA,NA
48039,St. Clair County,MI,NA,87.32782369146005,NA
48042,Macomb County,MI,NA,NA,34.40860215053764
48044,Macomb County,MI,NA,NA,27.956989247311824
48047,Macomb County,MI,NA,NA,41.935483870967744
48075,Oakland County,MI,NA,NA,31.899641577060933
48085,Oakland County,MI,35.67251461988304,NA,79.56989247311827
48088,Macomb County,MI,NA,27.27272727272727,NA
48092,Macomb County,MI,NA,57.30027548209367,NA
48098,Oakland County,MI,NA,NA,56.63082437275986
48105,Washtenaw County,MI,NA,17.90633608815427,NA
48108,Washtenaw County,MI,NA,34.43526170798898,NA
48116,Livingston County,MI,NA,NA,15.770609318996415
48141,Wayne County,MI,12.280701754385964,NA,NA
48168,Wayne County,MI,NA,74.10468319559229,71.32616487455196
48174,Wayne County,MI,35.08771929824561,NA,NA
48176,Washtenaw County,MI,NA,NA,29.39068100358423
48183,Wayne County,MI,13.450292397660817,NA,NA
48185,Wayne County,MI,9.941520467836257,NA,NA
48186,Wayne County,MI,NA,14.049586776859504,62.72401433691756
48192,Wayne County,MI,NA,NA,84.58781362007169
48195,Wayne County,MI,NA,NA,25.806451612903224
48197,Washtenaw County,MI,4.678362573099415,NA,21.50537634408602
48201,Wayne County,MI,74.85380116959064,NA,NA
48203,Wayne County,MI,NA,25.6198347107438,NA
48204,Wayne County,MI,NA,33.608815426997246,NA
48208,Wayne County,MI,NA,79.88980716253444,NA
48224,Wayne County,MI,NA,24.517906336088156,NA
48420,Genesee County,MI,NA,NA,78.13620071684588
48461,Lapeer County,MI,NA,NA,98.56630824372759
48734,Saginaw County,MI,NA,NA,73.11827956989248
48823,Ingham County,MI,NA,30.57851239669421,NA
48837,Eaton County,MI,NA,NA,68.10035842293907
49045,Van Buren County,MI,NA,NA,95.3405017921147
49048,Kalamazoo County,MI,22.807017543859647,NA,NA
49201,Jackson County,MI,NA,NA,74.55197132616487
49265,Lenawee County,MI,NA,NA,98.9247311827957
49349,Newaygo County,MI,NA,77.41046831955923,NA
49519,Kent County,MI,NA,NA,43.01075268817204
55066,Goodhue County,MN,NA,NA,14.336917562724013
55068,Dakota County,MN,NA,NA,89.24731182795699
55075,Dakota County,MN,NA,79.33884297520662,NA
55079,Chisago County,MN,92.39766081871345,NA,NA
55104,Ramsey County,MN,NA,NA,90.68100358422939
55107,Ramsey County,MN,NA,NA,92.1146953405018
55113,Ramsey County,MN,NA,47.658402203856745,NA
55117,Ramsey County,MN,NA,73.55371900826447,NA
55303,Anoka County,MN,NA,NA,47.31182795698925
55404,Hennepin County,MN,NA,4.958677685950414,NA
55406,Hennepin County,MN,30.409356725146196,NA,NA
55408,Hennepin County,MN,17.543859649122805,NA,70.96774193548387
55410,Hennepin County,MN,NA,NA,78.49462365591397
55411,Hennepin County,MN,NA,20.66115702479339,NA
55418,Hennepin County,MN,NA,38.56749311294766,NA
55432,Anoka County,MN,NA,NA,64.87455197132617
55445,Hennepin County,MN,81.28654970760235,NA,NA
55448,Anoka County,MN,NA,NA,85.66308243727599
55803,St. Louis County,MN,NA,85.12396694214877,NA
55811,St. Louis County,MN,NA,7.7134986225895315,24.372759856630825
55812,St. Louis County,MN,NA,91.46005509641874,NA
55912,Mower County,MN,NA,5.5096418732782375,NA
55921,Houston County,MN,NA,NA,66.30824372759857
56007,Freeborn County,MN,NA,11.294765840220386,NA
56031,Martin County,MN,NA,NA,16.129032258064516
56073,Brown County,MN,NA,NA,60.215053763440864
56258,Lyon County,MN,NA,NA,51.61290322580645
56353,Mille Lacs County,MN,84.21052631578947,NA,NA
56601,Beltrami County,MN,NA,NA,1.7921146953405016
56621,Clearwater County,MN,NA,NA,42.65232974910394
39573,Stone County,MS,NA,NA,92.831541218638
39701,Lowndes County,MS,71.9298245614035,NA,NA
63090,Franklin County,MO,NA,50.413223140495866,NA
63130,St. Louis County,MO,NA,56.473829201101935,NA
63334,Pike County,MO,NA,91.18457300275482,NA
63379,Lincoln County,MO,NA,31.955922865013775,43.36917562724014
63755,Cape Girardeau County,MO,NA,51.790633608815426,NA
64081,Jackson County,MO,51.461988304093566,NA,NA
64106,Jackson County,MO,NA,60.60606060606061,NA
64108,Jackson County,MO,NA,63.63636363636363,NA
64130,Jackson County,MO,NA,24.242424242424242,NA
65201,Boone County,MO,49.707602339181285,NA,NA
65202,Boone County,MO,NA,58.40220385674931,NA
65233,Cooper County,MO,NA,64.18732782369146,NA
65251,Callaway County,MO,NA,55.371900826446286,NA
65265,Audrain County,MO,NA,57.57575757575758,NA
65441,Crawford County,MO,NA,NA,97.1326164874552
65689,Texas County,MO,NA,98.62258953168043,NA
59923,Lincoln County,MT,NA,NA,67.02508960573476
68123,Sarpy County,NE,69.5906432748538,NA,NA
03076,Hillsborough County,NH,49.122807017543856,NA,NA
03766,Grafton County,NH,NA,66.94214876033058,NA
07032,Hudson County,NJ,NA,NA,88.5304659498208
07050,Essex County,NJ,NA,34.15977961432507,NA
07436,Bergen County,NJ,NA,90.633608815427,NA
07656,Bergen County,NJ,NA,NA,83.15412186379928
07834,Morris County,NJ,NA,NA,98.2078853046595
08020,Gloucester County,NJ,97.07602339181285,NA,NA
08078,Camden County,NJ,83.62573099415205,NA,NA
08098,Salem County,NJ,NA,90.35812672176309,NA
08721,Ocean County,NJ,30.994152046783626,NA,NA
08753,Ocean County,NJ,NA,NA,14.695340501792115
08816,Middlesex County,NJ,NA,62.25895316804407,46.95340501792115
87114,Bernalillo County,NM,57.89473684210527,NA,NA
87120,Bernalillo County,NM,14.035087719298245,15.977961432506888,NA
87413,San Juan County,NM,NA,55.09641873278237,NA
10002,New York County,NY,7.017543859649122,NA,NA
10011,New York County,NY,NA,22.58953168044077,18.27956989247312
10018,New York County,NY,NA,NA,93.54838709677419
10023,New York County,NY,NA,16.804407713498623,NA
10025,New York County,NY,NA,32.231404958677686,24.014336917562723
10027,New York County,NY,NA,15.426997245179063,NA
10029,New York County,NY,NA,NA,54.48028673835126
10031,New York County,NY,NA,80.71625344352617,NA
10034,New York County,NY,NA,81.26721763085399,NA
10038,New York County,NY,NA,NA,62.00716845878136
10301,Richmond County,NY,70.17543859649122,NA,NA
10312,Richmond County,NY,47.368421052631575,NA,NA
10452,Bronx County,NY,NA,39.66942148760331,NA
10454,Bronx County,NY,33.33333333333333,34.710743801652896,NA
10455,Bronx County,NY,NA,12.121212121212121,NA
10456,Bronx County,NY,0,4.40771349862259,NA
10458,Bronx County,NY,NA,0.5509641873278237,NA
10459,Bronx County,NY,NA,NA,32.25806451612903
10460,Bronx County,NY,NA,74.93112947658402,NA
10462,Bronx County,NY,NA,NA,11.11111111111111
10467,Bronx County,NY,2.923976608187134,NA,3.225806451612903
10468,Bronx County,NY,NA,91.73553719008265,11.469534050179211
10469,Bronx County,NY,NA,9.641873278236915,7.526881720430108
10470,Bronx County,NY,NA,NA,76.34408602150538
10472,Bronx County,NY,NA,3.0303030303030303,NA
10580,Westchester County,NY,NA,92.8374655647383,NA
10583,Westchester County,NY,85.38011695906432,NA,NA
11205,Kings County,NY,NA,55.9228650137741,NA
11206,Kings County,NY,NA,NA,37.27598566308244
11207,Kings County,NY,NA,NA,12.903225806451612
11208,Kings County,NY,NA,16.2534435261708,NA
11209,Kings County,NY,NA,NA,17.20430107526882
11212,Kings County,NY,NA,24.793388429752067,NA
11213,Kings County,NY,NA,7.988980716253444,82.79569892473118
11214,Kings County,NY,NA,13.774104683195592,NA
11216,Kings County,NY,NA,10.46831955922865,26.16487455197133
11219,Kings County,NY,NA,23.96694214876033,NA
11220,Kings County,NY,NA,6.0606060606060606,NA
11221,Kings County,NY,5.263157894736842,NA,NA
11225,Kings County,NY,NA,18.732782369146005,NA
11226,Kings County,NY,NA,NA,13.978494623655912
11233,Kings County,NY,NA,31.129476584022036,NA
11234,Kings County,NY,NA,NA,22.22222222222222
11238,Kings County,NY,NA,48.209366391184574,NA
11356,Queens County,NY,NA,NA,74.91039426523297
11373,Queens County,NY,NA,51.515151515151516,NA
11377,Queens County,NY,NA,NA,26.523297491039425
11420,Queens County,NY,NA,NA,71.68458781362007
11701,Suffolk County,NY,74.26900584795322,NA,NA
11720,Suffolk County,NY,NA,NA,36.91756272401434
11733,Suffolk County,NY,NA,97.7961432506887,NA
11753,Nassau County,NY,NA,94.49035812672176,NA
12010,Montgomery County,NY,9.35672514619883,NA,NA
12033,Rensselaer County,NY,NA,88.70523415977961,NA
12047,Albany County,NY,NA,57.02479338842975,NA
12203,Albany County,NY,42.69005847953216,NA,NA
12603,Dutchess County,NY,NA,NA,44.086021505376344
13126,Oswego County,NY,6.432748538011696,NA,NA
13204,Onondaga County,NY,NA,84.57300275482093,NA
13329,Herkimer County,NY,NA,96.41873278236915,NA
13357,Herkimer County,NY,39.76608187134503,NA,NA
13669,St. Lawrence County,NY,28.654970760233915,NA,NA
13685,Jefferson County,NY,NA,99.72451790633609,NA
13790,Broome County,NY,NA,NA,17.562724014336915
14223,Erie County,NY,34.50292397660819,NA,NA
14467,Monroe County,NY,NA,52.066115702479344,NA
14534,Monroe County,NY,11.11111111111111,2.7548209366391188,NA
14572,Steuben County,NY,NA,75.48209366391184,NA
14605,Monroe County,NY,12.865497076023392,NA,NA
14606,Monroe County,NY,NA,45.45454545454545,NA
14609,Monroe County,NY,2.3391812865497075,NA,NA
14612,Monroe County,NY,NA,NA,39.784946236559136
14619,Monroe County,NY,NA,42.14876033057851,NA
14622,Monroe County,NY,NA,22.865013774104685,NA
14626,Monroe County,NY,NA,NA,10.39426523297491
14850,Tompkins County,NY,NA,8.264462809917356,NA
27012,Forsyth County,NC,NA,NA,10.75268817204301
27045,Forsyth County,NC,NA,85.67493112947659,NA
27048,Rockingham County,NC,77.77777777777779,NA,NA
27127,Forsyth County,NC,NA,5.785123966942149,NA
27215,Alamance County,NC,NA,NA,12.544802867383511
27217,Alamance County,NC,NA,76.5840220385675,NA
27265,Guilford County,NC,NA,17.079889807162534,92.47311827956989
27292,Davidson County,NC,NA,NA,8.60215053763441
27295,Davidson County,NC,NA,NA,25.089605734767023
27302,Alamance County,NC,NA,NA,80.28673835125448
27312,Chatham County,NC,NA,NA,20.43010752688172
27502,Wake County,NC,64.32748538011695,NA,NA
27565,Granville County,NC,NA,NA,34.76702508960574
27577,Johnston County,NC,NA,34.9862258953168,NA
27616,Wake County,NC,NA,38.84297520661157,NA
27703,Durham County,NC,NA,12.672176308539946,NA
28328,Sampson County,NC,82.45614035087719,NA,NA
28358,Robeson County,NC,21.637426900584796,NA,NA
28513,Pitt County,NC,NA,NA,93.1899641577061
28792,Henderson County,NC,NA,NA,1.0752688172043012
58103,Cass County,ND,NA,NA,20.78853046594982
58104,Cass County,ND,36.25730994152047,NA,6.093189964157706
58701,Ward County,ND,NA,NA,3.584229390681003
43054,Franklin County,OH,NA,NA,69.17562724014337
43072,Champaign County,OH,NA,NA,97.4910394265233
43103,Pickaway County,OH,95.32163742690058,NA,NA
43209,Franklin County,OH,NA,69.9724517906336,NA
43211,Franklin County,OH,NA,NA,65.94982078853047
43228,Franklin County,OH,25.146198830409354,NA,NA
43616,Lucas County,OH,NA,13.223140495867769,NA
43953,Jefferson County,OH,NA,28.92561983471074,NA
44017,Cuyahoga County,OH,NA,39.39393939393939,NA
44024,Geauga County,OH,NA,NA,91.75627240143369
44039,Lorain County,OH,NA,NA,7.168458781362006
44054,Lorain County,OH,NA,40.22038567493113,NA
44055,Lorain County,OH,71.34502923976608,NA,NA
44060,Lake County,OH,NA,NA,0.35842293906810035
44076,Ashtabula County,OH,NA,80.16528925619835,NA
44095,Lake County,OH,NA,12.396694214876034,NA
44102,Cuyahoga County,OH,NA,3.581267217630854,NA
44103,Cuyahoga County,OH,38.59649122807017,NA,NA
44105,Cuyahoga County,OH,3.508771929824561,NA,NA
44107,Cuyahoga County,OH,NA,NA,44.80286738351255
44108,Cuyahoga County,OH,NA,33.88429752066116,NA
44109,Cuyahoga County,OH,8.187134502923977,NA,NA
44110,Cuyahoga County,OH,15.204678362573098,NA,NA
44116,Cuyahoga County,OH,NA,NA,39.42652329749104
44117,Cuyahoga County,OH,NA,NA,49.46236559139785
44120,Cuyahoga County,OH,5.847953216374268,NA,NA
44122,Cuyahoga County,OH,NA,6.336088154269973,0
44124,Cuyahoga County,OH,NA,4.132231404958678,0.7168458781362007
44137,Cuyahoga County,OH,NA,NA,67.74193548387096
44143,Cuyahoga County,OH,NA,NA,44.44444444444444
44144,Cuyahoga County,OH,44.44444444444444,NA,NA
44146,Cuyahoga County,OH,33.91812865497076,NA,NA
44212,Medina County,OH,NA,1.3774104683195594,NA
44312,Summit County,OH,NA,NA,28.31541218637993
44313,Summit County,OH,NA,NA,55.91397849462365
44514,Mahoning County,OH,53.80116959064327,NA,NA
44622,Tuscarawas County,OH,NA,37.1900826446281,NA
44646,Stark County,OH,NA,NA,24.731182795698924
44654,Holmes County,OH,NA,84.02203856749311,NA
44705,Stark County,OH,NA,71.34986225895317,NA
44839,Erie County,OH,NA,41.04683195592286,NA
44870,Erie County,OH,NA,NA,8.960573476702509
45121,Brown County,OH,NA,94.76584022038568,NA
45203,Hamilton County,OH,96.49122807017544,NA,NA
45214,Hamilton County,OH,NA,66.39118457300276,NA
45231,Hamilton County,OH,NA,NA,16.48745519713262
45237,Hamilton County,OH,NA,25.895316804407713,NA
45247,Hamilton County,OH,NA,44.62809917355372,NA
45750,Washington County,OH,NA,23.140495867768596,NA
45805,Allen County,OH,NA,29.75206611570248,NA
73025,Oklahoma County,OK,NA,58.1267217630854,NA
73505,Comanche County,OK,NA,20.110192837465565,NA
74006,Washington County,OK,88.88888888888889,41.32231404958678,NA
74063,Tulsa County,OK,NA,NA,56.272401433691755
74066,Creek County,OK,NA,NA,57.70609318996416
74523,Pushmataha County,OK,NA,87.60330578512396,NA
97015,Clackamas County,OR,NA,70.52341597796143,NA
97024,Multnomah County,OR,NA,68.87052341597796,NA
97030,Multnomah County,OR,NA,22.03856749311295,NA
97034,Clackamas County,OR,NA,59.77961432506888,NA
97211,Multnomah County,OR,NA,53.71900826446281,NA
97213,Multnomah County,OR,NA,NA,59.49820788530465
97221,Multnomah County,OR,NA,NA,89.96415770609319
97223,Washington County,OR,NA,NA,52.68817204301075
97239,Multnomah County,OR,NA,73.82920110192838,NA
97338,Polk County,OR,NA,NA,62.365591397849464
97415,Curry County,OR,NA,NA,29.03225806451613
97439,Lane County,OR,NA,NA,23.297491039426525
15206,Allegheny County,PA,22.22222222222222,NA,NA
15235,Allegheny County,PA,27.485380116959064,NA,NA
15650,Westmoreland County,PA,20.46783625730994,NA,NA
15825,Jefferson County,PA,NA,46.005509641873275,NA
16301,Venango County,PA,NA,43.25068870523416,NA
16314,Crawford County,PA,NA,72.45179063360881,NA
16509,Erie County,PA,NA,93.38842975206612,NA
16833,Clearfield County,PA,77.19298245614034,NA,NA
17003,Lebanon County,PA,NA,NA,84.94623655913979
17019,York County,PA,NA,79.61432506887053,NA
17022,Lancaster County,PA,NA,50.688705234159784,22.58064516129032
17036,Dauphin County,PA,NA,44.90358126721763,NA
17044,Mifflin County,PA,NA,10.192837465564738,13.620071684587815
17078,Lebanon County,PA,NA,12.947658402203857,NA
17109,Dauphin County,PA,NA,NA,38.35125448028674
17111,Dauphin County,PA,NA,8.81542699724518,NA
17257,Cumberland County,PA,NA,28.650137741046834,NA
17403,York County,PA,NA,4.683195592286501,NA
17517,Lancaster County,PA,NA,NA,91.0394265232975
17701,Lycoming County,PA,NA,8.539944903581267,NA
17821,Montour County,PA,NA,17.63085399449036,NA
17842,Snyder County,PA,NA,NA,75.98566308243727
18103,Lehigh County,PA,NA,NA,13.261648745519713
18324,Pike County,PA,NA,NA,91.39784946236558
18328,Pike County,PA,NA,76.30853994490359,NA
18603,Columbia County,PA,NA,53.168044077134994,NA
18661,Luzerne County,PA,83.04093567251462,NA,NA
18966,Bucks County,PA,NA,43.52617079889807,NA
19023,Delaware County,PA,NA,85.9504132231405,NA
19055,Bucks County,PA,59.64912280701754,NA,NA
19073,Delaware County,PA,NA,68.31955922865014,NA
19083,Delaware County,PA,NA,47.93388429752066,30.824372759856633
19103,Philadelphia County,PA,NA,26.997245179063363,NA
19104,Philadelphia County,PA,43.27485380116959,NA,NA
19125,Philadelphia County,PA,NA,NA,90.32258064516128
19130,Philadelphia County,PA,NA,69.42148760330579,NA
19131,Philadelphia County,PA,10.526315789473683,NA,NA
19138,Philadelphia County,PA,NA,NA,33.33333333333333
19146,Philadelphia County,PA,NA,60.05509641873278,NA
19151,Philadelphia County,PA,NA,21.487603305785125,NA
19320,Chester County,PA,14.619883040935672,NA,NA
19341,Chester County,PA,NA,NA,83.51254480286738
19342,Delaware County,PA,NA,NA,34.05017921146953
29161,Florence County,SC,76.60818713450293,NA,NA
29412,Charleston County,SC,NA,NA,16.845878136200717
29420,Dorchester County,SC,NA,80.99173553719008,NA
29520,Chesterfield County,SC,78.94736842105263,NA,NA
29526,Horry County,SC,42.10526315789473,NA,NA
29662,Greenville County,SC,68.42105263157895,NA,NA
29720,Lancaster County,SC,NA,NA,32.97491039426524
29841,Aiken County,SC,NA,NA,58.06451612903226
57103,Minnehaha County,SD,NA,NA,9.67741935483871
57104,Minnehaha County,SD,66.08187134502924,NA,NA
37043,Montgomery County,TN,NA,NA,48.028673835125446
37064,Williamson County,TN,NA,18.457300275482094,NA
37073,Robertson County,TN,NA,72.72727272727273,NA
37160,Bedford County,TN,NA,NA,45.16129032258064
37217,Davidson County,TN,45.614035087719294,NA,NA
37220,Davidson County,TN,92.98245614035088,NA,NA
37760,Jefferson County,TN,63.74269005847953,NA,NA
37922,Knox County,TN,NA,NA,56.98924731182796
38108,Shelby County,TN,NA,NA,82.43727598566308
38109,Shelby County,TN,NA,19.28374655647383,NA
38135,Shelby County,TN,NA,NA,75.26881720430107
75060,Dallas County,TX,NA,88.42975206611571,NA
75146,Dallas County,TX,NA,NA,70.25089605734766
75159,Dallas County,TX,88.30409356725146,NA,NA
75211,Dallas County,TX,NA,NA,48.74551971326165
75219,Dallas County,TX,NA,NA,50.53763440860215
75224,Dallas County,TX,52.63157894736842,NA,NA
75662,Gregg County,TX,NA,NA,53.76344086021505
75672,Harrison County,TX,NA,89.80716253443526,NA
75708,Smith County,TX,NA,86.22589531680441,NA
75844,Houston County,TX,NA,98.07162534435263,NA
75901,Angelina County,TX,NA,NA,45.51971326164875
76011,Tarrant County,TX,NA,58.67768595041323,NA
76018,Tarrant County,TX,62.57309941520468,NA,NA
76065,Ellis County,TX,NA,38.01652892561984,NA
76092,Tarrant County,TX,NA,61.70798898071625,NA
76104,Tarrant County,TX,NA,63.36088154269972,NA
76120,Tarrant County,TX,56.72514619883041,NA,NA
76133,Tarrant County,TX,NA,NA,28.673835125448026
76501,Bell County,TX,NA,NA,7.885304659498208
76502,Bell County,TX,NA,2.203856749311295,39.06810035842294
76504,Bell County,TX,NA,3.8567493112947657,NA
76543,Bell County,TX,NA,NA,42.29390681003584
76642,Limestone County,TX,NA,83.47107438016529,NA
77030,Harris County,TX,90.05847953216374,NA,NA
77091,Harris County,TX,NA,48.484848484848484,NA
77379,Harris County,TX,32.16374269005848,NA,NA
77479,Fort Bend County,TX,NA,NA,40.86021505376344
77514,Chambers County,TX,89.47368421052632,NA,NA
77523,Chambers County,TX,61.40350877192983,NA,NA
77550,Galveston County,TX,NA,NA,10.03584229390681
77590,Galveston County,TX,18.71345029239766,NA,NA
77612,Jasper County,TX,85.96491228070175,NA,NA
77807,Brazos County,TX,NA,68.04407713498622,NA
77845,Brazos County,TX,NA,NA,5.017921146953405
78223,Bexar County,TX,25.730994152046783,NA,NA
78415,Nueces County,TX,79.53216374269006,NA,NA
78654,Burnet County,TX,NA,NA,19.35483870967742
78731,Travis County,TX,NA,90.9090909090909,NA
78852,Maverick County,TX,NA,NA,59.13978494623656
84010,Davis County,UT,NA,59.22865013774105,NA
84070,Salt Lake County,UT,NA,NA,46.236559139784944
84088,Salt Lake County,UT,NA,82.64462809917356,NA
84102,Salt Lake County,UT,NA,90.08264462809917,NA
84501,Carbon County,UT,66.66666666666666,NA,NA
84737,Washington County,UT,NA,NA,77.06093189964157
05089,Windsor County,VT,NA,NA,86.02150537634408
05091,Windsor County,VT,NA,NA,81.72043010752688
05403,Chittenden County,VT,NA,NA,35.842293906810035
22079,Fairfax County,VA,NA,66.11570247933885,NA
22181,Fairfax County,VA,NA,98.89807162534436,NA
22192,Prince William County,VA,26.31578947368421,NA,NA
22206,Arlington County,VA,61.98830409356725,NA,NA
22314,Alexandria city,VA,NA,92.01101928374655,NA
22546,Caroline County,VA,97.6608187134503,NA,NA
22851,Page County,VA,NA,NA,86.37992831541219
22903,Charlottesville city,VA,NA,55.64738292011019,NA
22947,Albemarle County,VA,NA,92.56198347107438,NA
23225,Richmond city,VA,47.953216374269005,NA,NA
23503,Norfolk city,VA,NA,39.11845730027548,NA
23936,Buckingham County,VA,95.90643274853801,NA,NA
24577,Halifax County,VA,91.22807017543859,NA,NA
98027,King County,WA,NA,44.0771349862259,NA
98034,King County,WA,37.42690058479532,NA,NA
98070,King County,WA,NA,71.900826446281,NA
98101,King County,WA,NA,85.39944903581267,NA
98106,King County,WA,NA,67.21763085399449,NA
98115,King County,WA,NA,61.43250688705234,NA
98118,King County,WA,NA,NA,40.86021505376344
98119,King County,WA,NA,NA,73.47670250896059
98122,King County,WA,NA,42.97520661157025,NA
98144,King County,WA,NA,69.14600550964187,NA
98188,King County,WA,87.71929824561403,NA,NA
98204,Snohomish County,WA,NA,NA,59.85663082437276
98335,Pierce County,WA,NA,NA,41.57706093189964
98444,Pierce County,WA,NA,64.73829201101928,NA
98541,Grays Harbor County,WA,NA,87.05234159779614,NA
98801,Chelan County,WA,NA,56.74931129476584,NA
98837,Grant County,WA,36.84210526315789,NA,NA
98840,Okanogan County,WA,NA,95.59228650137742,NA
98844,Okanogan County,WA,NA,NA,95.6989247311828
99207,Spokane County,WA,55.55555555555556,NA,NA
20001,District of Columbia,DC,NA,19.00826446280992,NA
20005,District of Columbia,DC,NA,83.19559228650138,NA
20018,District of Columbia,DC,NA,29.201101928374655,NA
20019,District of Columbia,DC,NA,7.162534435261708,NA
25414,Jefferson County,WV,NA,NA,64.15770609318996
25801,Raleigh County,WV,NA,41.8732782369146,NA
26101,Wood County,WV,NA,NA,23.655913978494624
26508,Monongalia County,WV,NA,32.78236914600551,NA
26554,Marion County,WV,NA,NA,5.734767025089606
53005,Waukesha County,WI,43.859649122807014,NA,NA
53012,Ozaukee County,WI,NA,NA,70.60931899641577
53017,Washington County,WI,NA,99.17355371900827,NA
53027,Washington County,WI,NA,47.107438016528924,NA
53051,Waukesha County,WI,NA,NA,50.89605734767025
53094,Jefferson County,WI,NA,65.28925619834712,NA
53104,Kenosha County,WI,NA,NA,89.6057347670251
53129,Milwaukee County,WI,NA,65.84022038567493,NA
53142,Kenosha County,WI,16.374269005847953,NA,NA
53143,Kenosha County,WI,NA,31.40495867768595,NA
53189,Waukesha County,WI,NA,82.36914600550963,NA
53211,Milwaukee County,WI,NA,NA,47.31182795698925
53216,Milwaukee County,WI,NA,54.269972451790636,NA
53511,Rock County,WI,NA,0.27548209366391185,NA
53532,Dane County,WI,86.54970760233918,NA,NA
53548,Rock County,WI,NA,NA,81.00358422939068
53549,Jefferson County,WI,NA,82.92011019283747,NA
53711,Dane County,WI,NA,NA,17.921146953405017
54024,Polk County,WI,NA,NA,94.26523297491039
54601,La Crosse County,WI,NA,14.87603305785124,NA
54880,Douglas County,WI,NA,NA,2.867383512544803
54935,Fond du Lac County,WI,NA,15.702479338842975,8.24372759856631
