ZipCode,county,state,Adult,Retirement
35204,Jefferson County,AL,NA,71.98275862068965
35212,Jefferson County,AL,85.91885441527445,NA
35601,Morgan County,AL,NA,20.25862068965517
35603,Morgan County,AL,24.58233890214797,NA
35614,Limestone County,AL,84.00954653937947,NA
35630,Lauderdale County,AL,40.09546539379475,NA
35634,Lauderdale County,AL,92.84009546539379,NA
36054,Elmore County,AL,75.89498806682577,NA
36352,Houston County,AL,95.4653937947494,NA
36507,Baldwin County,AL,48.6873508353222,NA
99507,Anchorage Municipality,AK,42.720763723150355,NA
99801,Juneau City and Borough,AK,NA,73.70689655172413
85017,Maricopa County,AZ,41.527446300715994,NA
85019,Maricopa County,AZ,80.42959427207637,NA
85032,Maricopa County,AZ,21.241050119331742,NA
85035,Maricopa County,AZ,57.279236276849645,NA
85140,Pinal County,AZ,44.1527446300716,NA
85203,Maricopa County,AZ,45.58472553699284,NA
85259,Maricopa County,AZ,NA,80.17241379310344
85297,Maricopa County,AZ,72.31503579952268,NA
85298,Maricopa County,AZ,80.90692124105013,NA
85301,Maricopa County,AZ,NA,26.29310344827586
85326,Maricopa County,AZ,38.424821002386636,NA
85338,Maricopa County,AZ,43.198090692124104,NA
85345,Maricopa County,AZ,50.11933174224343,NA
85353,Maricopa County,AZ,74.7016706443914,NA
85379,Maricopa County,AZ,39.618138424821005,NA
85383,Maricopa County,AZ,35.79952267303103,NA
85392,Maricopa County,AZ,65.39379474940334,NA
85648,Santa Cruz County,AZ,NA,73.27586206896551
85706,Pima County,AZ,NA,10.344827586206897
85716,Pima County,AZ,26.49164677804296,NA
85719,Pima County,AZ,NA,42.672413793103445
85737,Pima County,AZ,NA,50.43103448275862
85748,Pima County,AZ,NA,75.86206896551724
86004,Coconino County,AZ,12.649164677804295,NA
86005,Coconino County,AZ,87.11217183770883,NA
86322,Yavapai County,AZ,NA,92.24137931034483
86323,Yavapai County,AZ,62.52983293556086,NA
86503,Apache County,AZ,NA,54.741379310344826
72104,Hot Spring County,AR,NA,66.8103448275862
72116,Pulaski County,AR,NA,44.827586206896555
72205,Pulaski County,AR,NA,62.5
72223,Pulaski County,AR,90.45346062052506,NA
90015,Los Angeles County,CA,90.9307875894988,NA
90033,Los Angeles County,CA,52.2673031026253,NA
90047,Los Angeles County,CA,22.673031026252982,NA
90057,Los Angeles County,CA,47.7326968973747,NA
90061,Los Angeles County,CA,81.38424821002387,NA
90221,Los Angeles County,CA,18.138424821002385,NA
90232,Los Angeles County,CA,NA,93.96551724137932
90805,Los Angeles County,CA,26.014319809069214,NA
91304,Los Angeles County,CA,86.63484486873509,NA
91342,Los Angeles County,CA,29.116945107398568,NA
91351,Los Angeles County,CA,93.55608591885442,NA
91364,Los Angeles County,CA,89.49880668257757,NA
91731,Los Angeles County,CA,NA,66.37931034482759
91746,Los Angeles County,CA,84.96420047732697,NA
92021,San Diego County,CA,22.434367541766107,NA
92234,Riverside County,CA,73.0310262529833,NA
92262,Riverside County,CA,NA,13.36206896551724
92354,San Bernardino County,CA,90.21479713603819,NA
92376,San Bernardino County,CA,15.75178997613365,NA
92404,San Bernardino County,CA,25.53699284009546,NA
92545,Riverside County,CA,NA,43.53448275862069
92646,Orange County,CA,NA,9.482758620689655
92782,Orange County,CA,97.3747016706444,NA
92841,Orange County,CA,NA,70.6896551724138
92843,Orange County,CA,46.06205250596659,NA
92865,Orange County,CA,90.69212410501193,NA
93001,Ventura County,CA,35.32219570405728,NA
93010,Ventura County,CA,NA,29.74137931034483
93041,Ventura County,CA,73.9856801909308,NA
93215,Kern County,CA,69.21241050119332,NA
94063,San Mateo County,CA,51.551312649164686,NA
94065,San Mateo County,CA,NA,97.84482758620689
94086,Santa Clara County,CA,70.16706443914082,NA
94102,San Francisco County,CA,40.81145584725537,NA
94112,San Francisco County,CA,33.17422434367542,NA
94124,San Francisco County,CA,NA,25.862068965517242
94523,Contra Costa County,CA,94.74940334128878,NA
94531,Contra Costa County,CA,NA,53.44827586206896
94534,Solano County,CA,NA,46.55172413793103
94568,Alameda County,CA,63.961813842482094,NA
94574,Napa County,CA,NA,89.22413793103449
94603,Alameda County,CA,NA,57.758620689655174
94605,Alameda County,CA,33.65155131264916,NA
94608,Alameda County,CA,64.67780429594272,NA
94706,Alameda County,CA,NA,89.65517241379311
95020,Santa Clara County,CA,41.766109785202865,NA
95030,Santa Clara County,CA,NA,95.25862068965517
95051,Santa Clara County,CA,NA,55.172413793103445
95111,Santa Clara County,CA,47.01670644391408,NA
95117,Santa Clara County,CA,84.48687350835323,NA
95328,Stanislaus County,CA,98.09069212410502,NA
95354,Stanislaus County,CA,42.482100238663485,NA
95667,El Dorado County,CA,41.288782816229116,NA
95758,Sacramento County,CA,63.72315035799523,NA
95901,Yuba County,CA,32.4582338902148,NA
80017,Arapahoe County,CO,NA,49.137931034482754
80022,Adams County,CO,24.821002386634845,NA
80203,Denver County,CO,NA,86.20689655172413
80207,Denver County,CO,51.78997613365155,NA
80219,Denver County,CO,10.501193317422434,NA
80241,Adams County,CO,NA,74.56896551724138
80620,Weld County,CO,53.46062052505967,NA
80634,Weld County,CO,23.86634844868735,NA
80734,Phillips County,CO,NA,99.56896551724138
80831,El Paso County,CO,78.75894988066825,NA
80910,El Paso County,CO,NA,60.775862068965516
80921,El Paso County,CO,NA,83.62068965517241
81625,Moffat County,CO,NA,65.94827586206897
06040,Hartford County,CT,17.899761336515514,NA
06042,Hartford County,CT,47.25536992840095,NA
06117,Hartford County,CT,82.33890214797135,NA
06405,New Haven County,CT,49.88066825775656,NA
06450,New Haven County,CT,NA,17.67241379310345
32091,Bradford County,FL,51.3126491646778,NA
32176,Volusia County,FL,NA,77.15517241379311
32208,Duval County,FL,NA,7.758620689655173
32210,Duval County,FL,9.069212410501192,NA
32234,Duval County,FL,89.49880668257757,NA
32257,Duval County,FL,68.01909307875896,NA
32404,Bay County,FL,33.89021479713604,NA
32696,Levy County,FL,72.0763723150358,NA
32811,Orange County,FL,31.026252983293556,NA
32901,Brevard County,FL,NA,48.275862068965516
32905,Brevard County,FL,69.4510739856802,NA
32955,Brevard County,FL,59.90453460620525,NA
32967,Indian River County,FL,NA,52.58620689655172
33024,Broward County,FL,39.37947494033413,NA
33136,Miami-Dade County,FL,60.62052505966587,NA
33166,Miami-Dade County,FL,84.96420047732697,NA
33175,Miami-Dade County,FL,66.34844868735084,NA
33176,Miami-Dade County,FL,NA,38.362068965517246
33711,Pinellas County,FL,NA,78.87931034482759
33781,Pinellas County,FL,NA,39.6551724137931
33881,Polk County,FL,46.30071599045346,NA
33936,Lee County,FL,58.94988066825776,NA
34202,Manatee County,FL,NA,43.103448275862064
34223,Sarasota County,FL,94.98806682577565,NA
34236,Sarasota County,FL,NA,93.10344827586206
34243,Manatee County,FL,NA,28.879310344827587
34293,Sarasota County,FL,58.233890214797135,NA
34473,Marion County,FL,NA,67.67241379310344
34741,Osceola County,FL,32.21957040572792,NA
30039,Gwinnett County,GA,48.44868735083532,NA
30043,Gwinnett County,GA,31.26491646778043,NA
30078,Gwinnett County,GA,70.40572792362768,NA
30088,DeKalb County,GA,NA,67.24137931034483
30153,Polk County,GA,50.35799522673031,NA
30241,Troup County,GA,36.9928400954654,NA
30297,Clayton County,GA,67.5417661097852,NA
30318,Fulton County,GA,NA,34.91379310344828
30340,DeKalb County,GA,91.16945107398568,NA
30354,Fulton County,GA,74.94033412887828,79.3103448275862
30523,Habersham County,GA,88.54415274463007,NA
30563,Habersham County,GA,NA,96.55172413793103
30736,Catoosa County,GA,19.09307875894988,NA
30906,Richmond County,GA,13.60381861575179,NA
31088,Houston County,GA,23.15035799522673,NA
31501,Ware County,GA,75.41766109785203,NA
31513,Appling County,GA,79.95226730310262,NA
31793,Tift County,GA,76.37231503579952,NA
96706,Honolulu County,HI,18.85441527446301,NA
96707,Honolulu County,HI,45.346062052505964,NA
96790,Maui County,HI,98.80668257756562,NA
96816,Honolulu County,HI,NA,21.120689655172413
83440,Madison County,ID,81.14558472553699,NA
83634,Ada County,ID,49.40334128878281,NA
60004,Cook County,IL,34.12887828162291,NA
60031,Lake County,IL,NA,27.155172413793103
60090,Cook County,IL,65.63245823389022,NA
60142,McHenry County,IL,NA,13.793103448275861
60155,Cook County,IL,NA,92.67241379310344
60422,Cook County,IL,91.64677804295943,NA
60428,Cook County,IL,99.28400954653938,NA
60467,Cook County,IL,61.575178997613364,NA
60540,DuPage County,IL,38.18615751789976,NA
60559,DuPage County,IL,NA,81.03448275862068
60565,DuPage County,IL,40.334128878281625,NA
60614,Cook County,IL,30.54892601431981,NA
60623,Cook County,IL,NA,16.810344827586206
60629,Cook County,IL,11.933174224343675,NA
60630,Cook County,IL,31.980906921241047,NA
60631,Cook County,IL,NA,49.137931034482754
60638,Cook County,IL,17.42243436754177,NA
60655,Cook County,IL,NA,35.775862068965516
60957,Ford County,IL,NA,93.53448275862068
61065,Boone County,IL,NA,81.46551724137932
61554,Tazewell County,IL,NA,15.948275862068966
61704,McLean County,IL,NA,45.689655172413794
61821,Champaign County,IL,51.07398568019092,NA
62002,Madison County,IL,NA,78.01724137931035
62010,Madison County,IL,NA,74.13793103448276
62040,Madison County,IL,NA,11.637931034482758
62243,St. Clair County,IL,NA,96.98275862068965
62522,Macon County,IL,66.5871121718377,NA
62702,Sangamon County,IL,NA,40.08620689655172
62711,Sangamon County,IL,95.94272076372316,NA
62959,Williamson County,IL,NA,21.982758620689655
62960,Massac County,IL,93.31742243436753,NA
46012,Madison County,IN,NA,25
46203,Marion County,IN,15.990453460620524,NA
46237,Marion County,IN,28.162291169451077,NA
46260,Marion County,IN,54.653937947494036,NA
46902,Howard County,IN,NA,5.603448275862069
47170,Scott County,IN,NA,56.03448275862068
47362,Henry County,IN,NA,16.379310344827587
47714,Vanderburgh County,IN,NA,22.413793103448278
47933,Montgomery County,IN,74.46300715990454,NA
51501,Pottawattamie County,IA,27.44630071599045,NA
51534,Mills County,IA,72.55369928400954,NA
52240,Johnson County,IA,NA,24.137931034482758
66071,Miami County,KS,83.53221957040573,NA
66203,Johnson County,KS,88.78281622911695,NA
67217,Sedgwick County,KS,62.76849642004774,NA
40219,Jefferson County,KY,19.809069212410503,NA
40508,Fayette County,KY,NA,72.84482758620689
40744,Laurel County,KY,38.902147971360385,58.620689655172406
41010,Grant County,KY,98.32935560859188,NA
41143,Carter County,KY,50.59665871121718,NA
41472,Morgan County,KY,96.18138424821002,NA
42141,Barren County,KY,NA,9.913793103448276
42728,Adair County,KY,NA,45.258620689655174
70441,St. Helena Parish,LA,76.37231503579952,NA
70448,St. Tammany Parish,LA,NA,33.62068965517241
70507,Lafayette Parish,LA,52.2673031026253,NA
70791,East Baton Rouge Parish,LA,20.286396181384248,NA
70814,East Baton Rouge Parish,LA,43.914081145584724,NA
71107,Caddo Parish,LA,6.443914081145586,NA
04092,Cumberland County,ME,NA,32.327586206896555
04101,Cumberland County,ME,NA,29.310344827586203
04457,Penobscot County,ME,80.1909307875895,NA
20639,Calvert County,MD,87.3508353221957,NA
21076,Anne Arundel County,MD,92.36276849642005,NA
21201,Baltimore city,MD,NA,51.724137931034484
21209,Baltimore County,MD,72.79236276849642,NA
21215,Baltimore city,MD,14.797136038186157,NA
01030,Hampden County,MA,60.14319809069213,NA
01075,Hampshire County,MA,85.44152744630071,NA
01453,Worcester County,MA,3.579952267303103,NA
01469,Middlesex County,MA,NA,76.29310344827587
01536,Worcester County,MA,86.39618138424821,NA
01543,Worcester County,MA,83.7708830548926,NA
01604,Worcester County,MA,NA,3.4482758620689653
01605,Worcester County,MA,NA,1.7241379310344827
01830,Essex County,MA,4.295942720763723,NA
01860,Essex County,MA,NA,84.91379310344827
01887,Middlesex County,MA,12.887828162291171,NA
01905,Essex County,MA,4.05727923627685,NA
01930,Essex County,MA,7.875894988066825,NA
02119,Suffolk County,MA,0.47732696897374705,NA
02124,Suffolk County,MA,0.23866348448687352,NA
02128,Suffolk County,MA,1.1933174224343674,NA
02132,Suffolk County,MA,19.570405727923628,NA
02139,Middlesex County,MA,15.274463007159905,NA
02140,Middlesex County,MA,NA,14.224137931034484
02145,Middlesex County,MA,10.023866348448687,NA
02148,Middlesex County,MA,0,NA
02149,Middlesex County,MA,5.727923627684964,NA
02151,Suffolk County,MA,NA,0
02152,Suffolk County,MA,NA,97.41379310344827
02155,Middlesex County,MA,2.6252983293556085,1.293103448275862
02301,Plymouth County,MA,5.727923627684964,NA
02302,Plymouth County,MA,3.341288782816229,NA
02370,Plymouth County,MA,NA,30.17241379310345
02451,Middlesex County,MA,NA,22.844827586206897
02554,Nantucket County,MA,NA,55.603448275862064
02703,Bristol County,MA,NA,85.34482758620689
02740,Bristol County,MA,2.863961813842482,NA
02760,Bristol County,MA,NA,15.517241379310345
02766,Bristol County,MA,60.381861575178995,NA
02771,Bristol County,MA,NA,47.41379310344828
02780,Bristol County,MA,8.1145584725537,NA
48021,Macomb County,MI,NA,21.551724137931032
48093,Macomb County,MI,28.400954653937948,NA
48103,Washtenaw County,MI,NA,2.586206896551724
48130,Washtenaw County,MI,86.87350835322196,NA
48133,Monroe County,MI,96.89737470167064,NA
48152,Wayne County,MI,NA,7.327586206896551
48161,Monroe County,MI,13.365155131264917,NA
48184,Wayne County,MI,NA,28.448275862068968
48187,Wayne County,MI,17.66109785202864,NA
48198,Washtenaw County,MI,NA,18.96551724137931
48213,Wayne County,MI,NA,30.603448275862068
48218,Wayne County,MI,82.81622911694511,NA
48228,Wayne County,MI,4.534606205250596,NA
48235,Wayne County,MI,5.4892601431980905,NA
48307,Oakland County,MI,27.20763723150358,NA
48313,Macomb County,MI,35.56085918854415,NA
48329,Oakland County,MI,42.004773269689736,NA
48342,Oakland County,MI,20.763723150357997,NA
48353,Livingston County,MI,NA,90.51724137931035
48442,Oakland County,MI,NA,50.86206896551724
48504,Genesee County,MI,26.968973747016705,NA
48601,Saginaw County,MI,4.77326968973747,NA
48602,Saginaw County,MI,8.591885441527445,NA
49082,Branch County,MI,88.3054892601432,NA
49201,Jackson County,MI,64.43914081145584,NA
49337,Newaygo County,MI,78.04295942720763,NA
49404,Ottawa County,MI,94.98806682577565,NA
49464,Ottawa County,MI,62.05250596658711,NA
49503,Kent County,MI,NA,40.94827586206897
49508,Kent County,MI,11.694510739856803,NA
49519,Kent County,MI,24.105011933174225,NA
49668,Wexford County,MI,99.0453460620525,NA
49916,Houghton County,MI,NA,99.13793103448276
55009,Goodhue County,MN,81.62291169451073,NA
55042,Washington County,MN,NA,84.05172413793103
55076,Dakota County,MN,NA,59.91379310344828
55079,Chisago County,MN,99.52267303102626,NA
55082,Washington County,MN,42.959427207637226,NA
55103,Ramsey County,MN,55.60859188544153,NA
55116,Ramsey County,MN,NA,64.65517241379311
55311,Hennepin County,MN,NA,71.55172413793103
55347,Hennepin County,MN,75.89498806682577,NA
55363,Wright County,MN,NA,100
55406,Hennepin County,MN,NA,69.82758620689656
55413,Hennepin County,MN,NA,48.706896551724135
56267,Stevens County,MN,NA,56.896551724137936
56721,Polk County,MN,64.9164677804296,NA
38668,Tate County,MS,83.05489260143199,NA
38680,DeSoto County,MS,100,NA
39046,Madison County,MS,36.754176610978526,NA
39503,Harrison County,MS,79.23627684964201,NA
39701,Lowndes County,MS,76.84964200477327,NA
63124,St. Louis County,MO,NA,82.75862068965517
63301,St. Charles County,MO,NA,5.172413793103448
64050,Jackson County,MO,21.71837708830549,NA
64109,Jackson County,MO,37.47016706443914,NA
64110,Jackson County,MO,NA,41.37931034482759
59644,Broadwater County,MT,NA,94.82758620689656
59802,Missoula County,MT,NA,88.79310344827587
59901,Flathead County,MT,NA,4.310344827586207
59935,Lincoln County,MT,NA,98.70689655172413
68111,Douglas County,NE,28.878281622911693,NA
68133,Sarpy County,NE,98.56801909307876,NA
68154,Douglas County,NE,97.85202863961814,NA
89122,Clark County,NV,34.84486873508354,NA
89123,Clark County,NV,NA,37.06896551724138
89134,Clark County,NV,NA,52.1551724137931
89149,Clark County,NV,73.26968973747017,NA
89701,Carson City,NV,47.49403341288782,NA
89706,Carson City,NV,NA,75
03103,Hillsborough County,NH,54.17661097852029,NA
03110,Hillsborough County,NH,NA,38.793103448275865
07017,Essex County,NJ,5.011933174224343,95.6896551724138
07083,Union County,NJ,22.911694510739856,NA
07102,Essex County,NJ,14.081145584725538,NA
07522,Passaic County,NJ,10.26252983293556,NA
07860,Sussex County,NJ,35.08353221957041,NA
08021,Camden County,NJ,0.9546539379474941,NA
08109,Camden County,NJ,NA,42.241379310344826
08204,Cape May County,NJ,NA,26.72413793103448
08618,Mercer County,NJ,2.386634844868735,NA
87401,San Juan County,NM,25.059665871121716,NA
88101,Curry County,NM,16.467780429594274,8.189655172413794
10011,New York County,NY,47.97136038186158,NA
10029,New York County,NY,1.6706443914081146,0.43103448275862066
10301,Richmond County,NY,NA,15.086206896551724
10452,Bronx County,NY,NA,2.1551724137931036
10453,Bronx County,NY,2.1479713603818613,NA
10454,Bronx County,NY,NA,6.896551724137931
10462,Bronx County,NY,12.17183770883055,NA
10701,Westchester County,NY,NA,6.0344827586206895
11207,Kings County,NY,1.431980906921241,NA
11212,Kings County,NY,NA,8.620689655172415
11220,Kings County,NY,7.637231503579953,NA
11225,Kings County,NY,31.742243436754176,NA
11236,Kings County,NY,8.83054892601432,NA
11358,Queens County,NY,NA,62.06896551724138
11377,Queens County,NY,25.29832935560859,NA
11422,Queens County,NY,NA,65.51724137931035
11742,Suffolk County,NY,NA,98.27586206896551
12180,Rensselaer County,NY,NA,9.051724137931034
12309,Schenectady County,NY,NA,68.53448275862068
12701,Sullivan County,NY,53.699284009546545,NA
12771,Orange County,NY,78.04295942720763,NA
13031,Onondaga County,NY,52.02863961813843,NA
13165,Seneca County,NY,NA,25.43103448275862
13357,Herkimer County,NY,45.10739856801909,NA
13439,Otsego County,NY,89.97613365155132,NA
13619,Jefferson County,NY,NA,68.96551724137932
13669,St. Lawrence County,NY,30.071599045346066,NA
14211,Erie County,NY,15.513126491646778,NA
14216,Erie County,NY,36.27684964200477,NA
14223,Erie County,NY,37.23150357995227,NA
14224,Erie County,NY,10.978520286396181,NA
14470,Orleans County,NY,55.847255369928405,NA
14526,Monroe County,NY,21.479713603818613,NA
14612,Monroe County,NY,NA,3.0172413793103448
14613,Monroe County,NY,19.331742243436754,NA
14619,Monroe County,NY,NA,43.96551724137931
27020,Yadkin County,NC,80.66825775656325,NA
27104,Forsyth County,NC,38.66348448687351,NA
27106,Forsyth County,NC,NA,4.741379310344827
27127,Forsyth County,NC,NA,6.4655172413793105
27249,Guilford County,NC,88.06682577565633,NA
27260,Guilford County,NC,30.787589498806682,NA
27284,Forsyth County,NC,13.126491646778044,NA
27344,Chatham County,NC,57.51789976133651,NA
27403,Guilford County,NC,NA,72.41379310344827
27520,Johnston County,NC,41.05011933174224,NA
27893,Wilson County,NC,21.002386634844868,NA
27983,Bertie County,NC,63.24582338902148,NA
28025,Cabarrus County,NC,18.615751789976134,NA
28081,Cabarrus County,NC,NA,50
28110,Union County,NC,30.310262529832936,NA
28144,Rowan County,NC,NA,36.206896551724135
28226,Mecklenburg County,NC,NA,79.74137931034483
28328,Sampson County,NC,77.80429594272077,NA
28345,Richmond County,NC,68.97374701670644,NA
28409,New Hanover County,NC,NA,54.310344827586206
28412,New Hanover County,NC,NA,31.03448275862069
28570,Carteret County,NC,63.0071599045346,NA
28613,Catawba County,NC,48.92601431980907,NA
28655,Burke County,NC,34.36754176610978,NA
58201,Grand Forks County,ND,39.856801909307876,NA
58501,Burleigh County,ND,62.29116945107399,NA
43015,Delaware County,OH,20.52505966587112,NA
43062,Licking County,OH,44.39140811455847,71.12068965517241
43081,Franklin County,OH,NA,12.5
43085,Franklin County,OH,NA,68.10344827586206
43103,Pickaway County,OH,84.24821002386635,NA
43110,Franklin County,OH,31.5035799522673,NA
43119,Franklin County,OH,32.69689737470167,NA
43160,Fayette County,OH,20.047732696897373,NA
43201,Franklin County,OH,56.56324582338902,NA
43204,Franklin County,OH,NA,18.53448275862069
43206,Franklin County,OH,NA,59.05172413793104
43211,Franklin County,OH,45.82338902147971,NA
43220,Franklin County,OH,NA,53.01724137931034
43221,Franklin County,OH,NA,44.396551724137936
43224,Franklin County,OH,11.217183770883054,19.82758620689655
43338,Morrow County,OH,68.25775656324582,NA
43351,Wyandot County,OH,NA,53.879310344827594
43526,Defiance County,OH,54.8926014319809,NA
43606,Lucas County,OH,NA,35.3448275862069
43612,Lucas County,OH,29.594272076372313,NA
43613,Lucas County,OH,8.353221957040573,NA
43620,Lucas County,OH,82.57756563245823,NA
43756,Morgan County,OH,91.40811455847255,NA
43968,Columbiana County,OH,59.188544152744626,NA
44004,Ashtabula County,OH,5.250596658711217,NA
44024,Geauga County,OH,55.131264916467785,NA
44035,Lorain County,OH,0.7159904534606205,NA
44077,Lake County,OH,7.398568019093078,NA
44105,Cuyahoga County,OH,1.9093078758949882,0.8620689655172413
44108,Cuyahoga County,OH,6.205250596658711,NA
44109,Cuyahoga County,OH,9.785202863961814,NA
44110,Cuyahoga County,OH,16.2291169451074,NA
44112,Cuyahoga County,OH,14.558472553699284,NA
44113,Cuyahoga County,OH,14.319809069212411,NA
44120,Cuyahoga County,OH,26.730310262529834,NA
44122,Cuyahoga County,OH,NA,32.758620689655174
44124,Cuyahoga County,OH,NA,3.8793103448275863
44125,Cuyahoga County,OH,3.8186157517899764,NA
44126,Cuyahoga County,OH,60.859188544152744,NA
44133,Cuyahoga County,OH,91.8854415274463,NA
44135,Cuyahoga County,OH,6.921241050119331,NA
44137,Cuyahoga County,OH,11.455847255369928,NA
44146,Cuyahoga County,OH,12.410501193317423,NA
44212,Medina County,OH,7.159904534606206,NA
44314,Summit County,OH,NA,61.206896551724135
44425,Trumbull County,OH,40.572792362768496,NA
44514,Mahoning County,OH,57.995226730310264,NA
44708,Stark County,OH,36.0381861575179,NA
44830,Seneca County,OH,NA,34.48275862068966
45066,Warren County,OH,71.59904534606206,NA
45177,Clinton County,OH,NA,36.637931034482754
45202,Hamilton County,OH,28.639618138424822,NA
45219,Hamilton County,OH,NA,87.06896551724138
45240,Hamilton County,OH,34.60620525059666,NA
45373,Miami County,OH,NA,17.24137931034483
45628,Ross County,OH,NA,59.48275862068966
45631,Gallia County,OH,18.377088305489263,NA
45694,Scioto County,OH,70.64439140811456,NA
73127,Oklahoma County,OK,61.09785202863962,NA
73162,Oklahoma County,OK,59.665871121718375,NA
73170,Cleveland County,OK,NA,19.396551724137932
74011,Tulsa County,OK,NA,46.98275862068966
74017,Rogers County,OK,52.74463007159904,NA
74301,Craig County,OK,69.92840095465394,NA
74868,Seminole County,OK,79.47494033412887,NA
97220,Multnomah County,OR,44.868735083532215,NA
97233,Multnomah County,OR,23.389021479713605,NA
97402,Lane County,OR,NA,34.05172413793103
97471,Douglas County,OR,25.775656324582343,NA
97838,Umatilla County,OR,58.711217183770884,NA
15001,Beaver County,PA,87.58949880668257,NA
15010,Beaver County,PA,29.355608591885442,NA
15068,Westmoreland County,PA,27.923627684964202,NA
15101,Allegheny County,PA,78.52028639618138,NA
15644,Westmoreland County,PA,NA,37.5
15906,Cambria County,PA,66.82577565632458,NA
16127,Mercer County,PA,NA,58.189655172413794
16254,Clarion County,PA,99.76133651551312,NA
16301,Venango County,PA,57.756563245823386,NA
16438,Erie County,PA,94.27207637231504,NA
16507,Erie County,PA,89.26014319809069,NA
17032,Dauphin County,PA,NA,88.36206896551724
17201,Franklin County,PA,NA,24.568965517241377
17362,York County,PA,NA,51.293103448275865
17522,Lancaster County,PA,NA,14.655172413793101
17857,Northumberland County,PA,93.7947494033413,NA
18036,Lehigh County,PA,77.32696897374701,NA
18064,Northampton County,PA,NA,27.586206896551722
18974,Bucks County,PA,29.832935560859188,NA
19020,Bucks County,PA,NA,11.206896551724139
19074,Delaware County,PA,NA,90.51724137931035
19111,Philadelphia County,PA,NA,33.189655172413794
19114,Philadelphia County,PA,27.684964200477324,NA
19120,Philadelphia County,PA,26.25298329355609,NA
19132,Philadelphia County,PA,54.41527446300716,NA
19134,Philadelphia County,PA,6.682577565632458,NA
19143,Philadelphia County,PA,3.1026252983293556,NA
19148,Philadelphia County,PA,15.035799522673033,NA
19406,Montgomery County,PA,NA,40.08620689655172
19607,Berks County,PA,NA,23.70689655172414
19611,Berks County,PA,85.68019093078759,NA
02814,Providence County,RI,NA,90.08620689655173
02840,Newport County,RI,92.60143198090692,NA
02904,Providence County,RI,42.243436754176614,NA
02911,Providence County,RI,NA,61.63793103448276
29150,Sumter County,SC,NA,31.46551724137931
29372,Spartanburg County,SC,96.4200477326969,NA
29456,Dorchester County,SC,44.630071599045344,NA
29605,Greenville County,SC,32.93556085918855,NA
29627,Anderson County,SC,68.4964200477327,NA
29671,Pickens County,SC,NA,91.37931034482759
29829,Aiken County,SC,89.02147971360382,NA
37075,Sumner County,TN,23.627684964200476,NA
37076,Davidson County,TN,77.08830548926015,NA
37129,Rutherford County,TN,24.3436754176611,NA
37172,Robertson County,TN,55.131264916467785,NA
37207,Davidson County,TN,NA,70.25862068965517
37209,Davidson County,TN,NA,87.93103448275862
37221,Davidson County,TN,75.17899761336515,NA
37615,Washington County,TN,68.73508353221956,NA
38016,Shelby County,TN,61.336515513126486,NA
38059,Dyer County,TN,94.5107398568019,NA
38104,Shelby County,TN,82.10023866348448,NA
38115,Shelby County,TN,NA,64.22413793103449
38343,Gibson County,TN,56.801909307875896,NA
38358,Gibson County,TN,67.06443914081146,NA
75013,Collin County,TX,58.47255369928401,NA
75028,Denton County,TX,65.8711217183771,NA
75051,Dallas County,TX,50.83532219570406,NA
75078,Collin County,TX,86.15751789976133,NA
75094,Collin County,TX,NA,81.89655172413794
75208,Dallas County,TX,71.1217183770883,NA
75223,Dallas County,TX,NA,81.89655172413794
75604,Gregg County,TX,NA,63.793103448275865
75751,Henderson County,TX,56.324582338902154,NA
76021,Tarrant County,TX,NA,76.72413793103449
76031,Johnson County,TX,74.22434367541766,NA
76051,Tarrant County,TX,NA,37.93103448275862
76058,Johnson County,TX,66.10978520286396,NA
76107,Tarrant County,TX,NA,60.3448275862069
76114,Tarrant County,TX,NA,56.46551724137932
76117,Tarrant County,TX,43.43675417661098,NA
76123,Tarrant County,TX,57.04057279236277,NA
76148,Tarrant County,TX,49.64200477326969,NA
76226,Denton County,TX,77.56563245823389,NA
76301,Wichita County,TX,56.085918854415276,NA
76401,Erath County,TX,71.36038186157518,NA
76450,Young County,TX,92.12410501193318,NA
76502,Bell County,TX,22.195704057279237,NA
76504,Bell County,TX,NA,57.327586206896555
76528,Coryell County,TX,37.94749403341289,NA
76657,McLennan County,TX,NA,87.5
76706,McLennan County,TX,43.67541766109785,NA
77071,Harris County,TX,70.88305489260142,NA
77095,Harris County,TX,NA,18.103448275862068
77340,Walker County,TX,93.07875894988067,NA
77380,Montgomery County,TX,NA,62.93103448275862
77382,Montgomery County,TX,73.50835322195705,NA
77401,Harris County,TX,79.71360381861575,NA
77469,Fort Bend County,TX,37.70883054892602,NA
77479,Fort Bend County,TX,39.140811455847256,NA
77532,Harris County,TX,NA,69.39655172413794
77573,Galveston County,TX,17.18377088305489,NA
77591,Galveston County,TX,NA,46.12068965517241
77859,Robertson County,TX,NA,78.44827586206897
77905,Victoria County,TX,71.83770883054893,NA
78046,Webb County,TX,21.957040572792362,NA
78163,Comal County,TX,96.65871121718376,NA
78214,Bexar County,TX,73.74701670644392,NA
78222,Bexar County,TX,75.65632458233891,NA
78240,Bexar County,TX,83.29355608591885,NA
78254,Bexar County,TX,NA,77.58620689655173
78738,Travis County,TX,NA,85.77586206896551
78745,Travis County,TX,69.68973747016707,NA
79339,Lamb County,TX,97.61336515513126,NA
79404,Lubbock County,TX,NA,94.39655172413794
79706,Midland County,TX,53.93794749403341,NA
84075,Davis County,UT,81.86157517899761,NA
84106,Salt Lake County,UT,NA,84.48275862068965
84121,Salt Lake County,UT,NA,20.689655172413794
84404,Weber County,UT,NA,41.810344827586206
84606,Utah County,UT,94.03341288782816,NA
84770,Washington County,UT,NA,31.896551724137932
05488,Franklin County,VT,NA,63.36206896551724
20165,Loudoun County,VA,78.99761336515513,NA
22942,Louisa County,VA,NA,75.43103448275862
23139,Powhatan County,VA,NA,47.8448275862069
23324,Chesapeake city,VA,49.16467780429594,NA
23508,Norfolk city,VA,84.7255369928401,NA
23601,Newport News city,VA,67.78042959427208,NA
23930,Nottoway County,VA,97.13603818615752,NA
24401,Staunton city,VA,46.77804295942721,NA
98101,King County,WA,NA,86.63793103448276
98121,King County,WA,64.20047732696898,NA
98362,Clallam County,WA,NA,39.224137931034484
98366,Kitsap County,WA,33.41288782816229,NA
98660,Clark County,WA,NA,91.8103448275862
98902,Yakima County,WA,36.51551312649165,NA
99208,Spokane County,WA,48.21002386634845,NA
99353,Benton County,WA,NA,65.08620689655173
25302,Kanawha County,WV,65.15513126491646,NA
25425,Jefferson County,WV,87.82816229116945,NA
25428,Berkeley County,WV,NA,96.12068965517241
25506,Lincoln County,WV,NA,83.1896551724138
25526,Putnam County,WV,46.53937947494033,NA
25570,Wayne County,WV,95.70405727923628,NA
26003,Ohio County,WV,10.739856801909307,NA
26241,Randolph County,WV,NA,28.01724137931034
26301,Harrison County,WV,59.188544152744626,12.931034482758621
26505,Monongalia County,WV,16.706443914081145,NA
26537,Preston County,WV,67.30310262529832,NA
26554,Marion County,WV,9.307875894988067,NA
53095,Washington County,WI,61.813842482100235,NA
53147,Walworth County,WI,53.22195704057279,NA
53206,Milwaukee County,WI,16.94510739856802,12.068965517241379
53210,Milwaukee County,WI,13.842482100238662,NA
53215,Milwaukee County,WI,9.54653937947494,NA
53218,Milwaukee County,WI,NA,10.775862068965516
53558,Dane County,WI,NA,80.60344827586206
53566,Green County,WI,NA,23.275862068965516
54403,Marathon County,WI,52.98329355608592,NA
54902,Winnebago County,WI,63.48448687350835,NA
