ZipCode,county,state,Adult
35475,Tuscaloosa County,AL,48.852157943067034
35601,Morgan County,AL,15.059687786960515
35614,Limestone County,AL,88.24609733700642
35750,Madison County,AL,56.10651974288338
35768,Jackson County,AL,56.29017447199265
35904,Etowah County,AL,44.71992653810835
35957,Marshall County,AL,70.70707070707071
36081,Pike County,AL,77.13498622589532
36083,Macon County,AL,81.81818181818183
36502,Escambia County,AL,43.70982552800734
36609,Mobile County,AL,56.014692378328746
36618,Mobile County,AL,66.11570247933885
36701,Dallas County,AL,71.25803489439852
36863,Chambers County,AL,74.65564738292011
99507,Anchorage Municipality,AK,34.43526170798898
99686,Valdez-Cordova Census Area,AK,96.87786960514234
85283,Maricopa County,AZ,48.39302112029385
85379,Maricopa County,AZ,31.68044077134986
85392,Maricopa County,AZ,77.13498622589532
85607,Cochise County,AZ,28.74196510560147
85631,Pinal County,AZ,97.42883379247016
85658,Pima County,AZ,89.80716253443526
85710,Pima County,AZ,61.34067952249771
85711,Pima County,AZ,10.376492194674013
85719,Pima County,AZ,34.61891643709826
85730,Pima County,AZ,27.823691460055095
85746,Pima County,AZ,41.04683195592286
72112,Jackson County,AR,69.23783287419651
72450,Greene County,AR,21.120293847566572
72764,Washington County,AR,64.2791551882461
90011,Los Angeles County,CA,26.262626262626267
90017,Los Angeles County,CA,83.37924701561064
90025,Los Angeles County,CA,78.78787878787878
90034,Los Angeles County,CA,81.63452708907253
90047,Los Angeles County,CA,17.81450872359963
90220,Los Angeles County,CA,33.42516069788797
90254,Los Angeles County,CA,80.0734618916437
90813,Los Angeles County,CA,33.51698806244261
91016,Los Angeles County,CA,78.97153351698806
91101,Los Angeles County,CA,86.13406795224977
91206,Los Angeles County,CA,68.04407713498622
91423,Los Angeles County,CA,86.22589531680441
91506,Los Angeles County,CA,89.71533516988063
91604,Los Angeles County,CA,88.42975206611571
91762,San Bernardino County,CA,35.26170798898072
91767,Los Angeles County,CA,40.31221303948577
91773,Los Angeles County,CA,88.06244260789715
91786,San Bernardino County,CA,33.057851239669425
92040,San Diego County,CA,46.097337006427914
92071,San Diego County,CA,69.42148760330579
92111,San Diego County,CA,51.69880624426079
92117,San Diego County,CA,54.08631772268136
92126,San Diego County,CA,43.98530762167126
92256,San Bernardino County,CA,99.35720844811755
92301,San Bernardino County,CA,34.34343434343434
92336,San Bernardino County,CA,37.00642791551883
92344,San Bernardino County,CA,71.99265381083563
92345,San Bernardino County,CA,11.662075298438934
92363,San Bernardino County,CA,85.76675849403122
92374,San Bernardino County,CA,42.51606978879706
92405,San Bernardino County,CA,44.62809917355372
92602,Orange County,CA,94.03122130394857
92627,Orange County,CA,22.405876951331496
93001,Ventura County,CA,28.09917355371901
93013,Santa Barbara County,CA,98.62258953168043
93036,Ventura County,CA,31.772268135904504
93230,Kings County,CA,19.742883379247015
93445,San Luis Obispo County,CA,91.00091827364555
93543,Los Angeles County,CA,83.37924701561064
93546,Mono County,CA,86.77685950413223
93555,Kern County,CA,26.62993572084481
93618,Tulare County,CA,51.42332415059688
93620,Merced County,CA,92.1028466483012
93675,Fresno County,CA,100
93727,Fresno County,CA,15.794306703397613
93728,Fresno County,CA,94.3067033976125
94030,San Mateo County,CA,66.94214876033058
94066,San Mateo County,CA,43.25068870523416
94109,San Francisco County,CA,29.476584022038566
94114,San Francisco County,CA,46.005509641873275
94132,San Francisco County,CA,96.7860422405877
94539,Alameda County,CA,79.06336088154269
94544,Alameda County,CA,19.92653810835629
94550,Alameda County,CA,46.18916437098255
94597,Contra Costa County,CA,65.93204775022957
94602,Alameda County,CA,75.20661157024794
94619,Alameda County,CA,75.02295684113865
95032,Santa Clara County,CA,72.54361799816346
95054,Santa Clara County,CA,79.70615243342516
95125,Santa Clara County,CA,72.45179063360881
95133,Santa Clara County,CA,94.39853076216713
95206,San Joaquin County,CA,65.47291092745638
95240,San Joaquin County,CA,17.447199265381084
95252,Calaveras County,CA,79.33884297520662
95328,Stanislaus County,CA,92.28650137741047
95358,Stanislaus County,CA,31.496786042240586
95367,Stanislaus County,CA,51.88246097337006
95376,San Joaquin County,CA,29.38475665748393
95531,Del Norte County,CA,58.58585858585859
95619,El Dorado County,CA,98.34710743801654
95630,Sacramento County,CA,28.191000918273645
95632,Sacramento County,CA,92.3783287419651
95670,Sacramento County,CA,61.70798898071625
95713,Placer County,CA,87.14416896235078
95746,Placer County,CA,76.21671258034894
95819,Sacramento County,CA,92.8374655647383
95901,Yuba County,CA,25.160697887970617
95965,Butte County,CA,20.2020202020202
96150,El Dorado County,CA,64.83011937557393
80132,El Paso County,CO,80.0734618916437
80204,Denver County,CO,23.232323232323232
80219,Denver County,CO,5.968778696051423
80220,Denver County,CO,34.9862258953168
80228,Jefferson County,CO,51.974288337924705
80235,Jefferson County,CO,95.50045913682277
80247,Arapahoe County,CO,39.30211202938476
80524,Larimer County,CO,31.588613406795226
80549,Larimer County,CO,82.36914600550963
80701,Morgan County,CO,86.59320477502295
80751,Logan County,CO,67.58494031221304
81089,Huerfano County,CO,87.14416896235078
81301,La Plata County,CO,52.249770431588615
06010,Hartford County,CT,1.6528925619834711
06037,Hartford County,CT,67.4931129476584
06051,Hartford County,CT,4.775022956841139
06074,Hartford County,CT,53.07621671258035
06110,Hartford County,CT,76.85950413223141
06120,Hartford County,CT,47.93388429752066
06226,Windham County,CT,18.27364554637282
06281,Windham County,CT,83.56290174471994
06410,New Haven County,CT,63.36088154269972
06422,Middlesex County,CT,80.71625344352617
06457,Middlesex County,CT,8.44811753902663
06470,Fairfield County,CT,79.43067033976125
06525,New Haven County,CT,91.73553719008265
06614,Fairfield County,CT,54.82093663911846
06705,New Haven County,CT,24.150596877869603
06708,New Haven County,CT,23.875114784205692
06824,Fairfield County,CT,64.37098255280074
06897,Fairfield County,CT,71.900826446281
06906,Fairfield County,CT,97.52066115702479
19720,New Castle County,DE,46.464646464646464
19962,Kent County,DE,69.78879706152433
19973,Sussex County,DE,17.53902662993572
32073,Clay County,FL,25.436179981634528
32084,St. Johns County,FL,30.670339761248854
32097,Nassau County,FL,53.994490358126725
32177,Putnam County,FL,44.44444444444444
32218,Duval County,FL,21.57943067033976
32413,Bay County,FL,68.87052341597796
32425,Holmes County,FL,51.790633608815426
32563,Santa Rosa County,FL,34.15977961432507
32606,Alachua County,FL,34.89439853076217
32927,Brevard County,FL,51.05601469237833
32935,Brevard County,FL,74.83930211202939
32940,Brevard County,FL,61.98347107438017
33147,Miami-Dade County,FL,33.700642791551886
33186,Miami-Dade County,FL,49.403122130394856
33525,Pasco County,FL,64.46280991735537
33598,Hillsborough County,FL,89.07254361799816
33711,Pinellas County,FL,52.43342516069789
33870,Highlands County,FL,30.39485766758494
34668,Pasco County,FL,13.682277318640956
34759,Polk County,FL,65.10560146923783
30043,Gwinnett County,GA,24.058769513314967
30046,Gwinnett County,GA,72.72727272727273
30094,Rockdale County,GA,45.54637281910009
30096,Gwinnett County,GA,28.37465564738292
30116,Carroll County,GA,72.81910009182737
30126,Cobb County,GA,81.45087235996327
30263,Coweta County,GA,12.304866850321396
30311,Fulton County,GA,17.355371900826448
30318,Fulton County,GA,73.09458218549128
30442,Jenkins County,GA,74.10468319559229
30512,Union County,GA,68.59504132231406
30577,Stephens County,GA,44.81175390266299
30620,Barrow County,GA,64.92194674012856
30830,Burke County,GA,50.505050505050505
30907,Columbia County,GA,26.997245179063363
31023,Dodge County,GA,69.88062442607898
31405,Chatham County,GA,48.025711662075295
31602,Lowndes County,GA,64.18732782369146
31632,Lowndes County,GA,77.3186409550046
39845,Seminole County,GA,88.79706152433425
96717,Honolulu County,HI,96.51056014692378
96731,Honolulu County,HI,99.81634527089072
96734,Honolulu County,HI,37.64921946740129
96743,Hawaii County,HI,76.95133149678604
96744,Honolulu County,HI,22.03856749311295
96771,Hawaii County,HI,93.1129476584022
96778,Hawaii County,HI,64.73829201101928
96797,Honolulu County,HI,9.45821854912764
96819,Honolulu County,HI,45.821854912764
96822,Honolulu County,HI,39.66942148760331
96825,Honolulu County,HI,75.8494031221304
83642,Ada County,ID,19.55922865013774
83676,Canyon County,ID,95.0413223140496
60002,Lake County,IL,57.02479338842975
60022,Cook County,IL,84.84848484848484
60045,Lake County,IL,91.18457300275482
60050,McHenry County,IL,38.75114784205693
60098,McHenry County,IL,59.50413223140496
60101,DuPage County,IL,57.116620752984396
60106,DuPage County,IL,81.35904499540864
60107,Cook County,IL,49.311294765840216
60118,Kane County,IL,87.87878787878788
60134,Kane County,IL,81.91000918273646
60135,DeKalb County,IL,93.29660238751147
60145,DeKalb County,IL,97.7961432506887
60148,DuPage County,IL,16.2534435261708
60177,Kane County,IL,55.46372819100092
60189,DuPage County,IL,77.59412304866851
60201,Cook County,IL,43.34251606978879
60403,Will County,IL,56.19834710743802
60422,Cook County,IL,79.7979797979798
60436,Will County,IL,54.54545454545454
60440,Will County,IL,21.763085399449036
60441,Will County,IL,23.59963269054178
60445,Cook County,IL,53.25987144168962
60455,Cook County,IL,47.750229568411385
60467,Cook County,IL,85.03213957759412
60487,Cook County,IL,77.68595041322314
60504,DuPage County,IL,36.455463728191
60506,Kane County,IL,27.089072543618
60540,DuPage County,IL,30.303030303030305
60560,Kendall County,IL,42.79155188246097
60607,Cook County,IL,47.474747474747474
60616,Cook County,IL,63.54453627180901
60640,Cook County,IL,10.009182736455463
60647,Cook County,IL,8.631772268135904
60656,Cook County,IL,47.19926538108356
60657,Cook County,IL,22.681359044995407
60914,Kankakee County,IL,75.94123048668503
60915,Kankakee County,IL,81.17539026629935
61462,Warren County,IL,91.643709825528
61614,Peoria County,IL,68.77869605142332
61705,McLean County,IL,90.72543617998163
61761,McLean County,IL,39.94490358126722
61856,Piatt County,IL,99.63269054178146
62040,Madison County,IL,64.64646464646465
62056,Montgomery County,IL,82.55280073461891
62236,Monroe County,IL,96.05142332415059
62249,Madison County,IL,89.34802571166207
62301,Adams County,IL,61.43250688705234
62549,Macon County,IL,85.39944903581267
62650,Morgan County,IL,50.78053259871441
62959,Williamson County,IL,41.68962350780532
46036,Madison County,IN,57.3921028466483
46077,Boone County,IN,98.43893480257117
46131,Johnson County,IN,32.047750229568415
46143,Johnson County,IN,25.160697887970617
46234,Marion County,IN,57.48393021120294
46235,Marion County,IN,21.30394857667585
46241,Marion County,IN,50.413223140495866
46254,Marion County,IN,23.507805325987142
46304,Porter County,IN,14.325068870523417
46307,Lake County,IN,1.5610651974288337
46324,Lake County,IN,18.640955004591365
46342,Lake County,IN,6.42791551882461
46356,Lake County,IN,59.32047750229569
46368,Porter County,IN,55.09641873278237
46385,Porter County,IN,8.264462809917356
46406,Lake County,IN,59.22865013774105
46530,St. Joseph County,IN,74.3801652892562
46706,DeKalb County,IN,70.33976124885216
46750,Huntington County,IN,21.028466483011936
46804,Allen County,IN,69.6969696969697
46809,Allen County,IN,53.81083562901745
46901,Howard County,IN,31.40495867768595
46902,Howard County,IN,4.591368227731864
47172,Clark County,IN,62.35078053259871
47274,Jackson County,IN,85.67493112947659
47362,Henry County,IN,23.048668503213957
47394,Randolph County,IN,66.66666666666666
47441,Greene County,IN,64.46280991735537
47591,Knox County,IN,36.63911845730027
47630,Warrick County,IN,42.97520661157025
50158,Marshall County,IA,27.45638200183655
50401,Cerro Gordo County,IA,13.498622589531681
50441,Franklin County,IA,89.53168044077135
50595,Hamilton County,IA,74.10468319559229
50702,Black Hawk County,IA,41.96510560146924
50801,Union County,IA,65.38108356290174
51501,Pottawattamie County,IA,3.948576675849403
51503,Pottawattamie County,IA,9.73370064279155
51566,Montgomery County,IA,71.80899908172636
51632,Page County,IA,72.08448117539027
52241,Johnson County,IA,45.362718089990814
52577,Mahaska County,IA,63.91184573002755
52627,Lee County,IA,43.89348025711662
52732,Clinton County,IA,23.324150596877868
66049,Douglas County,KS,54.269972451790636
66086,Leavenworth County,KS,87.60330578512396
66216,Johnson County,KS,66.7584940312213
66614,Shawnee County,KS,62.0752984389348
66701,Bourbon County,KS,60.51423324150596
66801,Lyon County,KS,49.219467401285584
67010,Butler County,KS,71.07438016528926
67156,Cowley County,KS,72.08448117539027
67301,Montgomery County,KS,78.23691460055096
67439,Ellsworth County,KS,99.72451790633609
67901,Seward County,KS,70.52341597796143
40216,Jefferson County,KY,10.743801652892563
40291,Jefferson County,KY,19.28374655647383
40311,Nicholas County,KY,67.76859504132231
40342,Anderson County,KY,35.44536271808999
40356,Jessamine County,KY,15.5188246097337
40456,Rockcastle County,KY,67.86042240587695
40509,Fayette County,KY,34.25160697887971
40701,Whitley County,KY,12.48852157943067
41017,Kenton County,KY,59.41230486685032
41035,Grant County,KY,45.17906336088154
42001,McCracken County,KY,73.6455463728191
42141,Barren County,KY,40.58769513314967
42171,Warren County,KY,77.41046831955923
42276,Logan County,KY,52.61707988980716
42445,Caldwell County,KY,63.72819100091828
70006,Jefferson Parish,LA,48.943985307621674
70037,Plaquemines Parish,LA,67.40128558310377
70047,St. Charles Parish,LA,65.0137741046832
70053,Jefferson Parish,LA,25.987144168962352
70065,Jefferson Parish,LA,87.78696051423324
70092,St. Bernard Parish,LA,93.8475665748393
70118,Orleans Parish,LA,48.209366391184574
70122,Orleans Parish,LA,26.170798898071624
70123,Jefferson Parish,LA,48.668503213957756
70128,Orleans Parish,LA,46.28099173553719
70374,Lafourche Parish,LA,37.83287419651056
70422,Tangipahoa Parish,LA,69.32966023875115
70448,St. Tammany Parish,LA,38.47566574839302
70454,Tangipahoa Parish,LA,10.009182736455463
70508,Lafayette Parish,LA,17.17171717171717
70533,Vermilion Parish,LA,56.74931129476584
70544,Iberia Parish,LA,90.9090909090909
70546,Jefferson Davis Parish,LA,57.66758494031221
70560,Iberia Parish,LA,17.53902662993572
70570,St. Landry Parish,LA,11.84573002754821
70737,Ascension Parish,LA,65.28925619834712
70769,Ascension Parish,LA,36.91460055096419
70770,East Baton Rouge Parish,LA,90.35812672176309
70774,Ascension Parish,LA,87.51147842056933
70810,East Baton Rouge Parish,LA,33.057851239669425
70812,East Baton Rouge Parish,LA,29.292929292929294
71019,Red River Parish,LA,92.47015610651974
71047,Caddo Parish,LA,50.04591368227732
71055,Webster Parish,LA,18.824609733700644
71104,Caddo Parish,LA,68.68686868686868
71109,Caddo Parish,LA,7.7134986225895315
71111,Bossier Parish,LA,6.336088154269973
71115,Caddo Parish,LA,74.56382001836546
71119,Caddo Parish,LA,55.55555555555556
71202,Ouachita Parish,LA,5.876951331496786
71220,Morehouse Parish,LA,19.92653810835629
71291,Ouachita Parish,LA,12.121212121212121
71371,La Salle Parish,LA,99.90817263544535
71373,Concordia Parish,LA,79.52249770431588
04073,York County,ME,25.803489439853077
04092,Cumberland County,ME,39.30211202938476
04240,Androscoggin County,ME,1.7447199265381086
04281,Oxford County,ME,72.910927456382
04619,Washington County,ME,95.86776859504133
04901,Kennebec County,ME,6.152433425160698
04950,Somerset County,ME,68.9623507805326
04976,Somerset County,ME,17.99816345270891
20603,Charles County,MD,61.61616161616161
20707,Prince George's County,MD,62.44260789715336
21087,Baltimore County,MD,96.41873278236915
21791,Carroll County,MD,97.15335169880625
01108,Hampden County,MA,1.1019283746556474
01109,Hampden County,MA,2.3875114784205693
01201,Berkshire County,MA,0.9182736455463728
01267,Berkshire County,MA,76.30853994490359
01376,Franklin County,MA,58.31037649219467
01420,Worcester County,MA,2.938475665748393
01451,Worcester County,MA,95.31680440771349
01519,Worcester County,MA,85.85858585858585
01562,Worcester County,MA,29.201101928374655
01701,Middlesex County,MA,12.213039485766759
01702,Middlesex County,MA,57.85123966942148
01730,Middlesex County,MA,33.2415059687787
01746,Middlesex County,MA,22.58953168044077
01757,Worcester County,MA,2.1120293847566574
01760,Middlesex County,MA,12.029384756657484
01778,Middlesex County,MA,75.1147842056933
01801,Middlesex County,MA,10.009182736455463
01803,Middlesex County,MA,22.130394857667586
01821,Middlesex County,MA,6.0606060606060606
01824,Middlesex County,MA,10.560146923783286
01843,Essex County,MA,3.213957759412305
01845,Essex County,MA,28.74196510560147
01851,Middlesex County,MA,2.0202020202020203
01852,Middlesex County,MA,2.479338842975207
01887,Middlesex County,MA,7.80532598714417
01890,Middlesex County,MA,43.15886134067952
01902,Essex County,MA,47.56657483930211
01906,Essex County,MA,18.457300275482094
01915,Essex County,MA,50.321395775941234
01945,Essex County,MA,65.84022038567493
01950,Essex County,MA,21.763085399449036
01960,Essex County,MA,7.07070707070707
02048,Bristol County,MA,21.671258034894397
02053,Norfolk County,MA,46.74012855831038
02054,Norfolk County,MA,66.57483930211203
02062,Norfolk County,MA,15.61065197428834
02093,Norfolk County,MA,53.71900826446281
02111,Suffolk County,MA,55.28007346189165
02116,Suffolk County,MA,16.804407713498623
02119,Suffolk County,MA,0
02126,Suffolk County,MA,0.3673094582185491
02127,Suffolk County,MA,11.570247933884298
02129,Suffolk County,MA,20.385674931129476
02130,Suffolk County,MA,8.999081726354454
02135,Suffolk County,MA,79.61432506887053
02143,Middlesex County,MA,81.72635445362718
02145,Middlesex County,MA,5.785123966942149
02148,Middlesex County,MA,0.4591368227731864
02149,Middlesex County,MA,0.09182736455463728
02150,Suffolk County,MA,5.693296602387512
02155,Middlesex County,MA,62.16712580348944
02186,Norfolk County,MA,15.243342516069788
02301,Plymouth County,MA,7.254361799816346
02302,Plymouth County,MA,21.395775941230486
02351,Plymouth County,MA,18.089990817263544
02368,Norfolk County,MA,62.99357208448117
02445,Norfolk County,MA,28.46648301193756
02458,Middlesex County,MA,45.91368227731864
02472,Middlesex County,MA,47.658402203856745
02571,Plymouth County,MA,14.784205693296604
02648,Barnstable County,MA,71.44168962350781
02703,Bristol County,MA,30.57851239669421
02720,Bristol County,MA,24.242424242424242
02721,Bristol County,MA,0.27548209366391185
02723,Bristol County,MA,84.75665748393021
02724,Bristol County,MA,4.499540863177227
02740,Bristol County,MA,8.080808080808081
02790,Bristol County,MA,22.865013774104685
48001,St. Clair County,MI,63.63636363636363
48021,Macomb County,MI,37.1900826446281
48036,Macomb County,MI,29.017447199265384
48045,Macomb County,MI,26.354453627180902
48048,Macomb County,MI,93.38842975206612
48060,St. Clair County,MI,3.3976124885215793
48066,Macomb County,MI,20.110192837465565
48071,Oakland County,MI,26.905417814508723
48073,Oakland County,MI,30.486685032139576
48076,Oakland County,MI,32.966023875114786
48080,Macomb County,MI,36.17998163452709
48081,Macomb County,MI,38.38383838383838
48083,Oakland County,MI,54.178145087236
48089,Macomb County,MI,9.090909090909092
48101,Wayne County,MI,52.98438934802571
48103,Washtenaw County,MI,16.528925619834713
48114,Livingston County,MI,74.93112947658402
48120,Wayne County,MI,67.21763085399449
48124,Wayne County,MI,21.487603305785125
48125,Wayne County,MI,52.80073461891644
48135,Wayne County,MI,66.4830119375574
48146,Wayne County,MI,9.366391184573002
48154,Wayne County,MI,54.45362718089991
48164,Wayne County,MI,66.29935720844811
48168,Wayne County,MI,51.147842056932966
48183,Wayne County,MI,10.560146923783286
48184,Wayne County,MI,17.722681359044994
48185,Wayne County,MI,6.7952249770431585
48187,Wayne County,MI,37.09825528007346
48195,Wayne County,MI,25.528007346189163
48197,Washtenaw County,MI,16.069788797061523
48198,Washtenaw County,MI,17.079889807162534
48203,Wayne County,MI,16.62075298438935
48205,Wayne County,MI,5.234159779614325
48206,Wayne County,MI,56.56565656565656
48209,Wayne County,MI,53.351698806244265
48210,Wayne County,MI,69.51331496786042
48212,Wayne County,MI,11.47842056932966
48227,Wayne County,MI,3.489439853076217
48235,Wayne County,MI,2.295684113865932
48302,Oakland County,MI,65.19742883379247
48307,Oakland County,MI,19.834710743801654
48310,Macomb County,MI,17.90633608815427
48315,Macomb County,MI,40.22038567493113
48316,Macomb County,MI,96.14325068870524
48322,Oakland County,MI,41.59779614325069
48331,Oakland County,MI,37.28191000918273
48371,Oakland County,MI,63.820018365472905
48375,Oakland County,MI,49.127640036730945
48377,Oakland County,MI,82.92011019283747
48420,Genesee County,MI,45.08723599632691
48423,Genesee County,MI,32.598714416896236
48446,Lapeer County,MI,15.977961432506888
48603,Saginaw County,MI,40.4040404040404
48625,Clare County,MI,30.11937557392103
48629,Roscommon County,MI,96.23507805325987
48661,Ogemaw County,MI,93.5720844811754
48706,Bay County,MI,8.172635445362717
48813,Eaton County,MI,38.01652892561984
48823,Ingham County,MI,34.61891643709826
48837,Eaton County,MI,78.60422405876952
48840,Ingham County,MI,95.22497704315886
48843,Livingston County,MI,40.86317722681359
48917,Eaton County,MI,61.24885215794307
49009,Kalamazoo County,MI,13.774104683195592
49017,Calhoun County,MI,31.129476584022036
49055,Van Buren County,MI,74.28833792470157
49078,Allegan County,MI,73.18640955004592
49079,Van Buren County,MI,91.91919191919192
49091,St. Joseph County,MI,44.26078971533517
49201,Jackson County,MI,9.917355371900827
49221,Lenawee County,MI,4.958677685950414
49265,Lenawee County,MI,90.17447199265382
49307,Mecosta County,MI,49.95408631772268
49315,Kent County,MI,70.79889807162535
49319,Kent County,MI,30.853994490358126
49418,Kent County,MI,37.9247015610652
49441,Muskegon County,MI,66.20752984389348
49444,Muskegon County,MI,11.202938475665748
49457,Muskegon County,MI,86.40955004591369
49461,Muskegon County,MI,68.9623507805326
49464,Ottawa County,MI,49.67860422405877
49508,Kent County,MI,43.98530762167126
49509,Kent County,MI,14.600550964187327
49663,Wexford County,MI,89.53168044077135
49735,Otsego County,MI,33.33333333333333
49868,Luce County,MI,94.12304866850322
55051,Kanabec County,MN,56.65748393021121
55075,Dakota County,MN,66.39118457300276
55330,Sherburne County,MN,94.94949494949495
55337,Dakota County,MN,92.56198347107438
55446,Hennepin County,MN,78.23691460055096
55447,Hennepin County,MN,68.41138659320477
55802,St. Louis County,MN,71.71717171717171
55904,Olmsted County,MN,78.0532598714417
56001,Blue Earth County,MN,32.69054178145087
56073,Brown County,MN,65.7483930211203
56164,Pipestone County,MN,66.0238751147842
56345,Morrison County,MN,58.49403122130394
56367,Benton County,MN,99.08172635445362
56472,Crow Wing County,MN,64.09550045913683
56560,Clay County,MN,1.4692378328741964
56601,Beltrami County,MN,7.3461891643709825
38620,Panola County,MS,98.80624426078971
38901,Grenada County,MS,78.69605142332415
38930,Leflore County,MS,39.02662993572085
39367,Wayne County,MS,90.633608815427
39429,Marion County,MS,60.88154269972452
39466,Pearl River County,MS,55.9228650137741
63021,St. Louis County,MO,42.240587695133144
63074,St. Louis County,MO,57.20844811753902
63368,St. Charles County,MO,41.32231404958678
64015,Jackson County,MO,14.508723599632692
64064,Jackson County,MO,49.862258953168045
64089,Clay County,MO,50.229568411386595
64093,Johnson County,MO,35.81267217630854
64133,Jackson County,MO,5.325987144168963
64138,Jackson County,MO,12.672176308539946
64477,Clinton County,MO,94.5821854912764
64506,Buchanan County,MO,49.03581267217631
64701,Cass County,MO,42.6078971533517
64735,Henry County,MO,34.067952249770435
64865,Newton County,MO,99.17355371900827
65251,Callaway County,MO,30.945821854912765
65301,Pettis County,MO,5.142332415059688
59102,Yellowstone County,MT,88.33792470156106
68123,Sarpy County,NE,59.77961432506888
68516,Lancaster County,NE,60.97337006427915
68787,Wayne County,NE,98.5307621671258
89101,Clark County,NV,29.10927456382002
89113,Clark County,NV,70.24793388429752
89521,Washoe County,NV,73.92102846648301
03031,Hillsborough County,NH,73.37006427915519
03049,Hillsborough County,NH,75.57392102846649
03062,Hillsborough County,NH,20.293847566574836
03102,Hillsborough County,NH,22.31404958677686
03220,Belknap County,NH,85.49127640036731
03301,Merrimack County,NH,60.97337006427915
03827,Rockingham County,NH,93.02112029384757
03848,Rockingham County,NH,66.85032139577594
03858,Rockingham County,NH,93.20477502295684
03885,Rockingham County,NH,95.68411386593205
07022,Bergen County,NJ,91.3682277318641
07029,Hudson County,NJ,54.9127640036731
07076,Union County,NJ,80.8080808080808
07093,Hudson County,NJ,7.529843893480257
07107,Essex County,NJ,1.0101010101010102
07112,Essex County,NJ,48.301193755739206
07302,Hudson County,NJ,88.88888888888889
07631,Bergen County,NJ,29.660238751147844
07675,Bergen County,NJ,60.60606060606061
08015,Burlington County,NJ,16.89623507805326
08105,Camden County,NJ,0.8264462809917356
08109,Camden County,NJ,20.752984389348025
08360,Cumberland County,NJ,7.897153351698806
08833,Hunterdon County,NJ,93.8475665748393
08854,Middlesex County,NJ,9.182736455463727
87048,Sandoval County,NM,91.46005509641874
87109,Bernalillo County,NM,19.19191919191919
87112,Bernalillo County,NM,42.88337924701561
87121,Bernalillo County,NM,39.57759412304867
87124,Sandoval County,NM,38.20018365472911
87401,San Juan County,NM,46.648301193755735
87410,San Juan County,NM,59.87144168962351
87507,Santa Fe County,NM,75.48209366391184
88001,Doa Ana County,NM,27.915518824609737
88005,Doa Ana County,NM,42.14876033057851
88021,Doa Ana County,NM,70.33976124885216
88101,Curry County,NM,11.019283746556475
88203,Chaves County,NM,20.752984389348025
88310,Otero County,NM,25.6198347107438
10018,New York County,NY,85.2157943067034
10023,New York County,NY,73.27823691460054
10030,New York County,NY,52.43342516069789
10037,New York County,NY,38.20018365472911
10039,New York County,NY,31.86409550045914
10451,Bronx County,NY,3.0303030303030303
10452,Bronx County,NY,7.162534435261708
10453,Bronx County,NY,0.7346189164370982
10455,Bronx County,NY,5.325987144168963
10456,Bronx County,NY,0.18365472910927455
10457,Bronx County,NY,0.5509641873278237
10460,Bronx County,NY,1.3774104683195594
10462,Bronx County,NY,7.43801652892562
10467,Bronx County,NY,25.344352617079892
10468,Bronx County,NY,24.334251606978878
10469,Bronx County,NY,19.65105601469238
10472,Bronx County,NY,1.9283746556473829
10549,Westchester County,NY,89.99081726354453
10550,Westchester County,NY,26.446280991735538
10705,Westchester County,NY,35.720844811753906
11205,Kings County,NY,13.86593204775023
11208,Kings County,NY,32.78236914600551
11211,Kings County,NY,15.151515151515152
11220,Kings County,NY,4.040404040404041
11222,Kings County,NY,56.38200183654729
11224,Kings County,NY,20.56932966023875
11225,Kings County,NY,67.30945821854912
11234,Kings County,NY,21.21212121212121
11249,Kings County,NY,83.28741965105601
11368,Queens County,NY,58.21854912764004
11372,Queens County,NY,31.22130394857668
11378,Queens County,NY,58.76951331496786
11432,Queens County,NY,69.9724517906336
12010,Montgomery County,NY,6.244260789715335
12188,Saratoga County,NY,74.3801652892562
12189,Albany County,NY,39.76124885215794
12477,Ulster County,NY,72.08448117539027
12534,Columbia County,NY,16.712580348943984
12831,Saratoga County,NY,70.98255280073462
12850,Saratoga County,NY,99.54086317722681
12920,Franklin County,NY,99.2653810835629
12983,Franklin County,NY,47.38292011019284
12986,Franklin County,NY,59.68778696051423
13021,Cayuga County,NY,3.8567493112947657
13027,Onondaga County,NY,14.967860422405877
13031,Onondaga County,NY,68.31955922865014
13053,Tompkins County,NY,90.54178145087236
13057,Onondaga County,NY,46.92378328741965
13069,Oswego County,NY,26.078971533516988
13084,Onondaga County,NY,92.92929292929293
13118,Cayuga County,NY,88.98071625344353
13204,Onondaga County,NY,12.85583103764922
13207,Onondaga County,NY,31.86409550045914
13209,Onondaga County,NY,44.90358126721763
13219,Onondaga County,NY,77.8696051423324
13324,Herkimer County,NY,99.44903581267218
13343,Lewis County,NY,98.16345270890724
13346,Madison County,NY,60.97337006427915
13367,Lewis County,NY,86.04224058769513
13408,Madison County,NY,92.19467401285583
13409,Madison County,NY,92.01101928374655
13411,Chenango County,NY,71.44168962350781
13413,Oneida County,NY,46.5564738292011
13601,Jefferson County,NY,22.95684113865932
13642,St. Lawrence County,NY,90.44995408631772
13648,Lewis County,NY,91.82736455463728
13732,Tioga County,NY,93.75573921028466
13748,Broome County,NY,86.31772268135904
13760,Broome County,NY,8.356290174471992
13787,Broome County,NY,81.17539026629935
13790,Broome County,NY,61.52433425160698
13820,Otsego County,NY,11.294765840220386
13833,Broome County,NY,68.2277318640955
13901,Broome County,NY,4.683195592286501
13905,Broome County,NY,1.285583103764922
14020,Genesee County,NY,13.406795224977044
14042,Cattaraugus County,NY,84.29752066115702
14103,Orleans County,NY,43.06703397612488
14212,Erie County,NY,65.56473829201101
14414,Livingston County,NY,58.1267217630854
14424,Ontario County,NY,2.846648301193756
14432,Ontario County,NY,36.17998163452709
14450,Monroe County,NY,3.1221303948576673
14467,Monroe County,NY,54.637281910009186
14472,Monroe County,NY,72.08448117539027
14543,Monroe County,NY,96.32690541781452
14548,Ontario County,NY,90.26629935720845
14551,Wayne County,NY,47.015610651974285
14607,Monroe County,NY,48.760330578512395
14612,Monroe County,NY,1.8365472910927456
14624,Monroe County,NY,2.6629935720844813
14750,Chautauqua County,NY,81.08356290174473
14782,Chautauqua County,NY,94.67401285583104
14809,Steuben County,NY,97.97979797979798
14821,Steuben County,NY,95.95959595959596
14830,Steuben County,NY,24.793388429752067
14843,Steuben County,NY,22.773186409550046
14847,Seneca County,NY,88.70523415977961
14850,Tompkins County,NY,78.51239669421489
14895,Allegany County,NY,29.843893480257115
14901,Chemung County,NY,31.313131313131315
14905,Chemung County,NY,76.5840220385675
27023,Forsyth County,NC,63.26905417814509
27215,Alamance County,NC,36.73094582185491
27371,Montgomery County,NC,73.55371900826447
27405,Guilford County,NC,12.396694214876034
27534,Wayne County,NC,35.35353535353536
27569,Johnston County,NC,68.04407713498622
27587,Wake County,NC,23.048668503213957
27591,Wake County,NC,87.14416896235078
27610,Wake County,NC,30.76216712580349
27615,Wake County,NC,40.03673094582185
27704,Durham County,NC,38.84297520661157
27713,Durham County,NC,25.71166207529844
28203,Mecklenburg County,NC,79.15518824609734
28383,Robeson County,NC,76.30853994490359
28412,New Hanover County,NC,16.988062442607895
28655,Burke County,NC,6.6115702479338845
28726,Henderson County,NC,98.71441689623508
58701,Ward County,ND,11.753902662993571
43017,Franklin County,OH,89.25619834710744
43025,Licking County,OH,89.4398530762167
43050,Knox County,OH,58.58585858585859
43056,Licking County,OH,37.74104683195592
43082,Delaware County,OH,56.93296602387512
43138,Hocking County,OH,73.82920110192838
43160,Fayette County,OH,14.692378328741965
43207,Franklin County,OH,1.1937557392102847
43224,Franklin County,OH,6.703397612488522
43311,Logan County,OH,31.0376492194674
43402,Wood County,OH,51.331496786042244
43420,Sandusky County,OH,11.937557392102846
43502,Fulton County,OH,78.14508723599633
43517,Williams County,OH,82.73645546372819
43543,Williams County,OH,62.8099173553719
43605,Lucas County,OH,2.571166207529844
43607,Lucas County,OH,63.08539944903582
43608,Lucas County,OH,9.550045913682277
43611,Lucas County,OH,15.426997245179063
43613,Lucas County,OH,4.224058769513315
43615,Lucas County,OH,4.40771349862259
43623,Lucas County,OH,27.640036730945823
43912,Belmont County,OH,50.872359963269055
43944,Jefferson County,OH,94.39853076216713
43947,Belmont County,OH,70.89072543617998
43950,Belmont County,OH,39.76124885215794
44004,Ashtabula County,OH,2.203856749311295
44035,Lorain County,OH,9.641873278236915
44055,Lorain County,OH,9.82552800734619
44070,Cuyahoga County,OH,23.96694214876033
44077,Lake County,OH,48.484848484848484
44089,Erie County,OH,63.45270890725436
44090,Lorain County,OH,55.831037649219475
44092,Lake County,OH,42.33241505968779
44102,Cuyahoga County,OH,4.315886134067952
44105,Cuyahoga County,OH,0.642791551882461
44107,Cuyahoga County,OH,29.75206611570248
44109,Cuyahoga County,OH,5.601469237832874
44112,Cuyahoga County,OH,8.81542699724518
44113,Cuyahoga County,OH,8.539944903581267
44118,Cuyahoga County,OH,38.84297520661157
44120,Cuyahoga County,OH,3.581267217630854
44128,Cuyahoga County,OH,2.7548209366391188
44129,Cuyahoga County,OH,43.52617079889807
44132,Cuyahoga County,OH,53.627180899908176
44135,Cuyahoga County,OH,35.07805325987144
44143,Cuyahoga County,OH,34.43526170798898
44212,Medina County,OH,3.7649219467401287
44224,Summit County,OH,51.515151515151516
44256,Medina County,OH,4.866850321395775
44266,Portage County,OH,76.12488521579431
44404,Trumbull County,OH,97.88797061524335
44440,Trumbull County,OH,82.18549127640037
44646,Stark County,OH,10.927456382001836
44667,Wayne County,OH,82.00183654729109
44685,Summit County,OH,69.60514233241506
44707,Stark County,OH,55.73921028466483
44720,Stark County,OH,29.935720844811755
44805,Ashland County,OH,14.416896235078053
44811,Sandusky County,OH,32.323232323232325
44827,Crawford County,OH,75.39026629935721
44830,Seneca County,OH,19.00826446280992
44906,Richland County,OH,60.23875114784206
45069,Butler County,OH,52.34159779614325
45102,Clermont County,OH,36.82277318640955
45177,Clinton County,OH,25.068870523415974
45239,Hamilton County,OH,18.181818181818183
45324,Greene County,OH,11.11111111111111
45331,Darke County,OH,27.27272727272727
45365,Shelby County,OH,13.314967860422405
45410,Montgomery County,OH,41.8732782369146
45419,Montgomery County,OH,79.7979797979798
45420,Montgomery County,OH,27.548209366391184
45601,Ross County,OH,16.437098255280073
45619,Lawrence County,OH,28.650137741046834
45623,Gallia County,OH,93.66391184573003
45638,Lawrence County,OH,23.783287419651057
45692,Jackson County,OH,35.81267217630854
45750,Washington County,OH,13.223140495867769
45764,Athens County,OH,63.08539944903582
45769,Meigs County,OH,58.31037649219467
45813,Paulding County,OH,82.09366391184572
45843,Hardin County,OH,97.0615243342516
73013,Oklahoma County,OK,32.13957759412305
73049,Oklahoma County,OK,91.00091827364555
73055,Stephens County,OK,92.74563820018365
73071,Cleveland County,OK,24.426078971533517
73096,Custer County,OK,82.73645546372819
73114,Oklahoma County,OK,51.606978879706155
73401,Carter County,OK,14.87603305785124
73439,Marshall County,OK,67.03397612488521
73644,Beckham County,OK,53.4435261707989
73701,Garfield County,OK,70.06427915518825
73703,Garfield County,OK,49.770431588613405
74110,Tulsa County,OK,80.44077134986226
74403,Muskogee County,OK,33.97612488521579
74441,Cherokee County,OK,82.18549127640037
97045,Clackamas County,OR,43.43434343434344
97062,Washington County,OR,55.00459136822773
97202,Multnomah County,OR,56.84113865932048
97229,Washington County,OR,36.36363636363637
97322,Linn County,OR,42.42424242424242
97383,Marion County,OR,90.08264462809917
97415,Curry County,OR,45.27089072543618
97444,Curry County,OR,86.68503213957759
97448,Lane County,OR,86.50137741046832
97477,Lane County,OR,53.90266299357208
97504,Jackson County,OR,22.22222222222222
97527,Josephine County,OR,43.70982552800734
97818,Morrow County,OR,84.11386593204774
97850,Union County,OR,39.11845730027548
97914,Malheur County,OR,24.517906336088156
15025,Allegheny County,PA,47.2910927456382
15037,Allegheny County,PA,78.23691460055096
15063,Washington County,PA,58.8613406795225
15071,Allegheny County,PA,91.55188246097336
15102,Allegheny County,PA,58.95316804407713
15131,Allegheny County,PA,88.1542699724518
15146,Allegheny County,PA,45.63820018365473
15210,Allegheny County,PA,16.345270890725434
15235,Allegheny County,PA,20.9366391184573
15237,Allegheny County,PA,47.107438016528924
15239,Allegheny County,PA,78.87970615243343
15332,Washington County,PA,79.98163452708907
15401,Fayette County,PA,8.907254361799815
15658,Westmoreland County,PA,71.44168962350781
15697,Westmoreland County,PA,97.33700642791551
15801,Clearfield County,PA,8.723599632690542
15834,Cameron County,PA,83.65472910927456
15906,Cambria County,PA,77.96143250688705
16001,Butler County,PA,4.132231404958678
16002,Butler County,PA,53.4435261707989
16057,Butler County,PA,60.60606060606061
16066,Butler County,PA,60.05509641873278
16101,Lawrence County,PA,6.978879706152434
16125,Mercer County,PA,37.37373737373738
16146,Mercer County,PA,53.168044077134994
16365,Warren County,PA,35.53719008264463
16506,Erie County,PA,62.62626262626263
16601,Blair County,PA,10.46831955922865
16611,Huntingdon County,PA,98.07162534435263
16648,Blair County,PA,55.371900826446286
16801,Centre County,PA,38.56749311294766
16830,Clearfield County,PA,29.476584022038566
17015,Cumberland County,PA,67.95224977043158
17044,Mifflin County,PA,14.049586776859504
17050,Cumberland County,PA,23.59963269054178
17055,Cumberland County,PA,30.02754820936639
17112,Dauphin County,PA,18.732782369146005
17202,Franklin County,PA,28.92561983471074
17257,Cumberland County,PA,24.793388429752067
17363,York County,PA,95.13314967860423
17364,York County,PA,95.59228650137742
17403,York County,PA,3.3057851239669422
17404,York County,PA,12.764003673094582
17406,York County,PA,62.53443526170799
17543,Lancaster County,PA,24.97704315886134
17547,Lancaster County,PA,80.44077134986226
17601,Lancaster County,PA,76.67584940312213
17603,Lancaster County,PA,10.835629017447198
17701,Lycoming County,PA,5.5096418732782375
17745,Clinton County,PA,39.48576675849403
17777,Northumberland County,PA,87.69513314967861
17815,Columbia County,PA,18.365472910927455
17837,Union County,PA,89.1643709825528
17842,Snyder County,PA,96.69421487603306
17851,Northumberland County,PA,83.7465564738292
17866,Northumberland County,PA,57.94306703397613
18015,Northampton County,PA,50.505050505050505
18018,Lehigh County,PA,52.892561983471076
18042,Northampton County,PA,6.519742883379247
18088,Northampton County,PA,61.799816345270884
18109,Lehigh County,PA,27.089072543618
18201,Luzerne County,PA,20.66115702479339
18301,Monroe County,PA,88.61340679522498
18431,Wayne County,PA,58.03489439853077
18447,Lackawanna County,PA,72.63544536271809
18466,Monroe County,PA,76.95133149678604
18472,Wayne County,PA,97.70431588613407
18505,Lackawanna County,PA,41.41414141414141
18702,Luzerne County,PA,48.576675849403124
18969,Montgomery County,PA,82.46097337006428
19001,Montgomery County,PA,77.50229568411386
19002,Montgomery County,PA,37.46556473829201
19014,Delaware County,PA,67.03397612488521
19038,Montgomery County,PA,36.08815426997245
19073,Delaware County,PA,75.29843893480258
19086,Delaware County,PA,83.93021120293848
19121,Philadelphia County,PA,10.284664830119375
19125,Philadelphia County,PA,73.00275482093664
19134,Philadelphia County,PA,18.91643709825528
19138,Philadelphia County,PA,14.23324150596878
19145,Philadelphia County,PA,74.01285583103765
19146,Philadelphia County,PA,60.14692378328742
19148,Philadelphia County,PA,9.274563820018365
19152,Philadelphia County,PA,20.477502295684115
19344,Chester County,PA,75.75757575757575
19382,Chester County,PA,59.13682277318642
19446,Montgomery County,PA,16.161616161616163
19508,Berks County,PA,85.12396694214877
19510,Berks County,PA,80.99173553719008
19533,Berks County,PA,87.05234159779614
19539,Berks County,PA,96.96969696969697
19540,Berks County,PA,68.41138659320477
19601,Berks County,PA,3.6730945821854912
19602,Berks County,PA,12.580348943985308
19604,Berks County,PA,12.947658402203857
19605,Berks County,PA,59.04499540863177
19606,Berks County,PA,54.729109274563825
19608,Berks County,PA,57.759412304866856
19609,Berks County,PA,79.24701561065197
19610,Berks County,PA,59.87144168962351
02809,Bristol County,RI,54.36179981634527
02816,Kent County,RI,28.558310376492198
02818,Kent County,RI,84.02203856749311
02860,Providence County,RI,7.988980716253444
02864,Providence County,RI,27.364554637281913
02878,Newport County,RI,73.37006427915519
02886,Kent County,RI,32.87419651056015
02888,Kent County,RI,47.842056932966024
02893,Kent County,RI,35.62901744719926
02895,Providence County,RI,13.131313131313133
02904,Providence County,RI,33.88429752066116
02907,Providence County,RI,39.21028466483012
02908,Providence County,RI,40.49586776859504
02921,Providence County,RI,76.03305785123968
29334,Spartanburg County,SC,73.73737373737373
29456,Dorchester County,SC,35.99632690541782
29477,Dorchester County,SC,86.9605142332415
29512,Marlboro County,SC,52.066115702479344
29550,Darlington County,SC,40.95500459136823
29651,Greenville County,SC,22.497704315886132
29678,Oconee County,SC,52.61707988980716
29697,Anderson County,SC,95.40863177226814
57078,Yankton County,SD,85.30762167125803
37207,Davidson County,TN,13.590449954086317
37303,McMinn County,TN,23.415977961432507
37620,Sullivan County,TN,14.14141414141414
37659,Washington County,TN,36.455463728191
37748,Roane County,TN,34.80257116620753
37763,Roane County,TN,60.78971533516988
37862,Sevier County,TN,37.55739210284665
37886,Blount County,TN,82.55280073461891
38107,Shelby County,TN,41.23048668503214
38330,Gibson County,TN,93.48025711662076
38355,Gibson County,TN,96.60238751147841
38449,Giles County,TN,97.2451790633609
38468,Lawrence County,TN,94.76584022038568
75048,Dallas County,TX,65.65656565656566
75062,Dallas County,TX,70.15610651974288
75208,Dallas County,TX,57.57575757575758
75212,Dallas County,TX,44.352617079889804
75243,Dallas County,TX,15.243342516069788
75605,Gregg County,TX,50.13774104683195
75862,Trinity County,TX,94.12304866850322
76051,Tarrant County,TX,32.415059687786965
76105,Tarrant County,TX,49.494949494949495
76501,Bell County,TX,15.886134067952252
76502,Bell County,TX,17.26354453627181
76710,McLennan County,TX,51.2396694214876
77035,Harris County,TX,40.67952249770432
77083,Harris County,TX,40.77134986225895
77093,Harris County,TX,41.78145087235997
77095,Harris County,TX,19.100091827364555
77372,Montgomery County,TX,84.66483011937558
77406,Fort Bend County,TX,43.61799816345271
77437,Wharton County,TX,81.5426997245179
77494,Fort Bend County,TX,18.54912764003673
77502,Harris County,TX,50.688705234159784
77506,Harris County,TX,80.34894398530761
77520,Harris County,TX,42.69972451790633
77539,Galveston County,TX,21.94674012855831
77551,Galveston County,TX,28.007346189164373
77566,Brazoria County,TX,49.586776859504134
77803,Brazos County,TX,27.73186409550046
77845,Brazos County,TX,71.34986225895317
77868,Grimes County,TX,62.62626262626263
77995,Lavaca County,TX,74.74747474747475
78045,Webb County,TX,24.701561065197428
78213,Bexar County,TX,44.995408631772264
78217,Bexar County,TX,62.25895316804407
78541,Hidalgo County,TX,48.117539026629935
78840,Val Verde County,TX,30.21120293847567
79413,Lubbock County,TX,61.89164370982553
79415,Lubbock County,TX,83.83838383838383
79602,Taylor County,TX,55.188246097337
79764,Ector County,TX,52.157943067033976
79772,Reeves County,TX,89.8989898989899
79836,El Paso County,TX,98.89807162534436
79912,El Paso County,TX,28.28282828282828
84009,Salt Lake County,UT,90.81726354453627
84074,Tooele County,UT,38.6593204775023
84094,Salt Lake County,UT,59.59595959595959
84103,Salt Lake County,UT,60.42240587695134
84118,Salt Lake County,UT,19.375573921028465
84119,Salt Lake County,UT,13.957759412304869
84648,Juab County,UT,88.42975206611571
84770,Washington County,UT,38.10835629017447
05401,Chittenden County,VT,84.29752066115702
20136,Prince William County,VA,84.94031221303948
22025,Prince William County,VA,84.29752066115702
22033,Fairfax County,VA,80.25711662075298
22630,Warren County,VA,26.538108356290174
22901,Albemarle County,VA,83.19559228650138
22963,Fluvanna County,VA,70.52341597796143
23518,Norfolk city,VA,41.50596877869605
23701,Portsmouth city,VA,46.28099173553719
24354,Smyth County,VA,40.12855831037649
24503,Lynchburg city,VA,83.0119375573921
24557,Pittsylvania County,VA,80.89990817263545
98023,King County,WA,26.813590449954088
98030,King County,WA,26.72176308539945
98031,King County,WA,86.77685950413223
98057,King County,WA,76.67584940312213
98058,King County,WA,32.5068870523416
98148,King County,WA,92.65381083562902
98203,Snohomish County,WA,45.45454545454545
98233,Skagit County,WA,76.49219467401286
98273,Skagit County,WA,57.20844811753902
98277,Island County,WA,45.73002754820937
98294,Snohomish County,WA,87.41965105601469
98296,Snohomish County,WA,44.44444444444444
98346,Kitsap County,WA,97.61248852157944
98360,Pierce County,WA,67.67676767676768
98362,Clallam County,WA,35.16988062442608
98372,Pierce County,WA,55.64738292011019
98373,Pierce County,WA,62.90174471992653
98387,Pierce County,WA,24.517906336088156
98391,Pierce County,WA,15.702479338842975
98404,Pierce County,WA,33.79247015610652
98466,Pierce County,WA,56.473829201101935
98512,Thurston County,WA,91.27640036730946
98662,Clark County,WA,71.16620752984389
98801,Chelan County,WA,25.895316804407713
99156,Pend Oreille County,WA,84.57300275482093
99301,Franklin County,WA,11.386593204775023
20019,District of Columbia,DC,5.05050505050505
24870,Wyoming County,WV,98.25528007346189
25045,Kanawha County,WV,83.10376492194675
25053,Boone County,WV,80.44077134986226
25303,Kanawha County,WV,85.58310376492194
25304,Kanawha County,WV,94.8576675849403
25438,Jefferson County,WV,85.85858585858585
25702,Cabell County,WV,84.20569329660239
26241,Randolph County,WV,32.231404958677686
26261,Nicholas County,WV,95.68411386593205
26501,Monongalia County,WV,19.4674012855831
26542,Preston County,WV,98.98989898989899
53094,Jefferson County,WI,41.1386593204775
53158,Kenosha County,WI,50.964187327823694
53204,Milwaukee County,WI,7.621671258034894
53214,Milwaukee County,WI,13.039485766758494
53223,Milwaukee County,WI,60.33057851239669
53402,Racine County,WI,44.16896235078053
53405,Racine County,WI,6.887052341597796
53562,Dane County,WI,68.9623507805326
53959,Sauk County,WI,42.05693296602387
54136,Outagamie County,WI,87.97061524334252
54143,Marinette County,WI,46.83195592286501
54166,Shawano County,WI,64.00367309458218
54729,Chippewa County,WI,33.608815426997246
54902,Winnebago County,WI,75.66574839302112
82901,Sweetwater County,WY,77.77777777777779
