ZipCode,county,state,Youth,Pediatric,Adult
35007,Shelby County,AL,NA,78.03180914512923,NA
35040,Shelby County,AL,35.569422776911075,NA,NA
35046,Chilton County,AL,78.1591263650546,NA,NA
35057,Cullman County,AL,64.89859594383776,NA,NA
35062,Jefferson County,AL,NA,87.07753479125249,NA
35127,Jefferson County,AL,NA,69.18489065606362,NA
35173,Jefferson County,AL,NA,69.83101391650099,NA
35215,Jefferson County,AL,NA,49.60238568588469,NA
35216,Jefferson County,AL,56.708268330733226,NA,NA
35217,Jefferson County,AL,NA,38.66799204771372,NA
35235,Jefferson County,AL,NA,65.95427435387674,NA
35242,Shelby County,AL,69.26677067082684,NA,NA
35501,Walker County,AL,52.886115444617786,NA,NA
35565,Winston County,AL,NA,50.994035785288276,NA
35601,Morgan County,AL,14.430577223088923,NA,NA
35653,Franklin County,AL,NA,48.75745526838966,NA
35660,Colbert County,AL,NA,60.139165009940356,NA
35756,Limestone County,AL,NA,85.33797216699801,NA
35801,Madison County,AL,NA,48.26043737574553,NA
35810,Madison County,AL,NA,69.73161033797217,NA
35816,Madison County,AL,NA,72.26640159045725,NA
35904,Etowah County,AL,NA,66.74950298210736,NA
35905,Etowah County,AL,NA,61.083499005964214,NA
35976,Marshall County,AL,NA,67.14711729622267,NA
36067,Autauga County,AL,18.096723868954758,42.54473161033797,NA
36081,Pike County,AL,NA,42.09741550695825,NA
36107,Montgomery County,AL,NA,77.78330019880715,NA
36108,Montgomery County,AL,NA,62.32604373757455,NA
36109,Montgomery County,AL,56.78627145085804,NA,NA
36271,Calhoun County,AL,75.74102964118565,NA,NA
36272,Calhoun County,AL,NA,49.70178926441352,NA
36274,Randolph County,AL,NA,65.95427435387674,NA
36420,Covington County,AL,NA,43.48906560636183,NA
36535,Baldwin County,AL,NA,46.12326043737575,NA
36582,Mobile County,AL,NA,NA,48.433048433048434
36587,Mobile County,AL,56.240249609984396,NA,NA
36611,Mobile County,AL,NA,51.88866799204771,NA
36695,Mobile County,AL,25.81903276131045,43.48906560636183,NA
36786,Perry County,AL,NA,NA,96.86609686609687
36867,Russell County,AL,NA,52.48508946322068,NA
99501,Anchorage Municipality,AK,18.486739469578783,NA,NA
99503,Anchorage Municipality,AK,52.886115444617786,NA,NA
99507,Anchorage Municipality,AK,43.915756630265214,NA,NA
99559,Bethel Census Area,AK,47.19188767550702,NA,NA
99576,Dillingham Census Area,AK,60.296411856474265,NA,NA
99611,Kenai Peninsula Borough,AK,NA,NA,67.52136752136752
99623,,AK,NA,41.45129224652088,NA
99645,Matanuska-Susitna Borough,AK,NA,NA,80.05698005698005
99712,Fairbanks North Star Borough,AK,65.99063962558502,95.62624254473161,NA
85006,Maricopa County,AZ,75.42901716068643,NA,NA
85016,Maricopa County,AZ,NA,35.039761431411534,NA
85017,Maricopa County,AZ,NA,7.75347912524851,NA
85018,Maricopa County,AZ,NA,92.74353876739563,NA
85022,Maricopa County,AZ,NA,49.95029821073559,NA
85023,Maricopa County,AZ,NA,57.60437375745527,NA
85032,Maricopa County,AZ,16.536661466458657,NA,NA
85035,Maricopa County,AZ,34.08736349453978,3.2803180914512926,NA
85042,Maricopa County,AZ,NA,11.928429423459244,NA
85087,Maricopa County,AZ,76.4430577223089,NA,NA
85122,Pinal County,AZ,4.134165366614664,NA,NA
85128,Pinal County,AZ,NA,27.882703777335983,NA
85138,Pinal County,AZ,96.41185647425897,NA,NA
85139,Pinal County,AZ,NA,NA,51.85185185185185
85201,Maricopa County,AZ,NA,12.922465208747516,NA
85204,Maricopa County,AZ,7.800312012480499,13.618290258449303,NA
85209,Maricopa County,AZ,NA,93.04174950298211,NA
85210,Maricopa County,AZ,NA,16.600397614314115,91.45299145299145
85213,Maricopa County,AZ,54.75819032761311,NA,NA
85226,Maricopa County,AZ,NA,72.56461232604374,NA
85253,Maricopa County,AZ,39.62558502340094,NA,NA
85283,Maricopa County,AZ,NA,40.208747514910534,NA
85297,Maricopa County,AZ,NA,94.33399602385686,NA
85305,Maricopa County,AZ,76.13104524180967,NA,NA
85308,Maricopa County,AZ,15.600624024960998,NA,NA
85321,Pima County,AZ,NA,88.96620278330019,NA
85326,Maricopa County,AZ,NA,26.39165009940358,NA
85335,Maricopa County,AZ,NA,15.208747514910536,NA
85338,Maricopa County,AZ,26.053042121684868,NA,NA
85339,Maricopa County,AZ,NA,26.938369781312126,NA
85340,Maricopa County,AZ,26.5990639625585,74.75149105367794,NA
85344,La Paz County,AZ,51.17004680187207,NA,NA
85374,Maricopa County,AZ,29.17316692667707,NA,NA
85379,Maricopa County,AZ,NA,NA,33.33333333333333
85382,Maricopa County,AZ,79.95319812792512,NA,NA
85542,Gila County,AZ,NA,NA,98.00569800569801
85550,Graham County,AZ,NA,76.0934393638171,87.46438746438746
85602,Cochise County,AZ,NA,56.461232604373755,NA
85653,Pima County,AZ,41.107644305772226,NA,NA
85701,Pima County,AZ,23.16692667706708,NA,NA
85706,Pima County,AZ,0.39001560062402496,NA,NA
85711,Pima County,AZ,3.43213728549142,NA,NA
85743,Pima County,AZ,NA,NA,99.43019943019942
85745,Pima County,AZ,NA,20.129224652087473,NA
85746,Pima County,AZ,NA,42.79324055666004,NA
85756,Pima County,AZ,NA,22.01789264413519,NA
85757,Pima County,AZ,NA,61.381709741550694,NA
85941,Apache County,AZ,NA,14.7117296222664,NA
86001,Coconino County,AZ,2.886115444617785,NA,NA
86004,Coconino County,AZ,NA,NA,8.547008547008547
86045,Coconino County,AZ,NA,NA,28.49002849002849
86047,Navajo County,AZ,NA,10.43737574552684,NA
86301,Yavapai County,AZ,NA,74.75149105367794,NA
86505,Apache County,AZ,NA,36.18290258449304,NA
72015,Saline County,AR,18.876755070202808,NA,NA
72206,Pulaski County,AR,48.517940717628704,NA,NA
72712,Benton County,AR,70.3588143525741,NA,NA
90011,Los Angeles County,CA,NA,2.6341948310139163,NA
90041,Los Angeles County,CA,NA,NA,88.03418803418803
90056,Los Angeles County,CA,88.22152886115444,NA,NA
90221,Los Angeles County,CA,NA,10.73558648111332,NA
90255,Los Angeles County,CA,NA,8.001988071570576,NA
90270,Los Angeles County,CA,NA,47.61431411530815,NA
90504,Los Angeles County,CA,NA,NA,66.38176638176638
90706,Los Angeles County,CA,NA,30.5168986083499,NA
90805,Los Angeles County,CA,NA,3.926441351888668,NA
90808,Los Angeles County,CA,79.25117004680187,NA,NA
91320,Ventura County,CA,28.159126365054604,NA,NA
91335,Los Angeles County,CA,NA,39.960238568588466,NA
91340,Los Angeles County,CA,NA,41.8986083499006,NA
91350,Los Angeles County,CA,34.789391575663025,NA,NA
91352,Los Angeles County,CA,68.33073322932918,NA,NA
91362,Ventura County,CA,74.33697347893916,NA,NA
91390,Los Angeles County,CA,99.60998439937597,NA,NA
91411,Los Angeles County,CA,NA,35.536779324055665,NA
91710,San Bernardino County,CA,1.014040561622465,NA,NA
91730,San Bernardino County,CA,25.741029641185648,NA,NA
91768,Los Angeles County,CA,NA,20.47713717693837,NA
91911,San Diego County,CA,48.59594383775351,NA,NA
91977,San Diego County,CA,23.478939157566302,NA,NA
92010,San Diego County,CA,NA,NA,84.61538461538461
92021,San Diego County,CA,44.92979719188768,NA,NA
92064,San Diego County,CA,31.045241809672387,NA,NA
92069,San Diego County,CA,34.86739469578783,NA,NA
92173,San Diego County,CA,52.49609984399376,NA,NA
92201,Riverside County,CA,NA,17.395626242544733,NA
92236,Riverside County,CA,65.05460218408736,NA,NA
92308,San Bernardino County,CA,17.004680187207487,NA,NA
92320,Riverside County,CA,98.12792511700468,NA,NA
92354,San Bernardino County,CA,NA,55.46719681908549,NA
92373,San Bernardino County,CA,54.75819032761311,NA,NA
92376,San Bernardino County,CA,43.36973478939157,3.628230616302187,NA
92509,Riverside County,CA,NA,23.508946322067594,NA
92530,Riverside County,CA,NA,26.938369781312126,NA
92555,Riverside County,CA,NA,74.60238568588468,NA
92563,Riverside County,CA,16.22464898595944,NA,NA
92592,Riverside County,CA,76.05304212168487,NA,NA
92627,Orange County,CA,71.7628705148206,NA,NA
92647,Orange County,CA,57.72230889235569,NA,NA
92649,Orange County,CA,49.37597503900156,NA,NA
92675,Orange County,CA,NA,NA,62.39316239316239
92679,Orange County,CA,90.32761310452419,NA,NA
92704,Orange County,CA,NA,6.262425447316103,NA
92707,Orange County,CA,NA,12.673956262425449,NA
92782,Orange County,CA,73.71294851794072,NA,NA
92801,Orange County,CA,NA,6.908548707753479,NA
92887,Orange County,CA,NA,NA,97.72079772079772
93003,Ventura County,CA,NA,21.570576540755468,NA
93010,Ventura County,CA,NA,45.72564612326044,NA
93274,Tulare County,CA,NA,19.831013916500993,NA
93291,Tulare County,CA,NA,22.316103379721667,NA
93304,Kern County,CA,13.104524180967239,NA,NA
93312,Kern County,CA,NA,57.306163021868784,NA
93433,San Luis Obispo County,CA,NA,65.70576540755468,NA
93444,San Luis Obispo County,CA,NA,20.37773359840954,NA
93550,Los Angeles County,CA,NA,5.7654075546719685,NA
93611,Fresno County,CA,NA,63.07157057654076,NA
93625,Fresno County,CA,NA,60.139165009940356,NA
93636,Madera County,CA,NA,48.75745526838966,NA
93637,Madera County,CA,NA,5.666003976143141,NA
93702,Fresno County,CA,NA,2.9324055666003974,31.908831908831907
93727,Fresno County,CA,NA,27.335984095427435,NA
93906,Monterey County,CA,NA,29.970178926441353,NA
94044,San Mateo County,CA,84.55538221528862,NA,NA
94507,Contra Costa County,CA,NA,NA,88.88888888888889
94510,Solano County,CA,66.77067082683308,NA,NA
94534,Solano County,CA,52.02808112324493,NA,NA
94539,Alameda County,CA,NA,NA,81.48148148148148
94551,Alameda County,CA,NA,50.994035785288276,NA
94561,Contra Costa County,CA,25.195007800312013,NA,NA
94578,Alameda County,CA,NA,NA,76.35327635327636
94591,Solano County,CA,43.05772230889235,NA,NA
94603,Alameda County,CA,NA,NA,89.17378917378917
94610,Alameda County,CA,70.82683307332293,NA,NA
94612,Alameda County,CA,NA,67.79324055666004,NA
94702,Alameda County,CA,NA,95.62624254473161,NA
95060,Santa Cruz County,CA,71.9188767550702,NA,NA
95130,Santa Clara County,CA,92.97971918876755,NA,NA
95301,Merced County,CA,31.903276131045246,NA,NA
95340,Merced County,CA,NA,36.133200795228625,NA
95401,Sonoma County,CA,23.400936037441497,NA,NA
95403,Sonoma County,CA,NA,NA,49.85754985754986
95630,Sacramento County,CA,69.34477379095163,NA,NA
95687,Solano County,CA,NA,91.50099403578528,NA
95826,Sacramento County,CA,NA,67.79324055666004,NA
95901,Yuba County,CA,NA,NA,27.350427350427353
95928,Butte County,CA,32.44929797191888,NA,NA
95991,Sutter County,CA,NA,25.198807157057658,NA
96022,Tehama County,CA,78.47113884555382,NA,NA
80003,Jefferson County,CO,NA,24.254473161033797,NA
80005,Jefferson County,CO,27.769110764430575,NA,NA
80011,Arapahoe County,CO,NA,1.9880715705765408,NA
80012,Arapahoe County,CO,NA,9.890656063618291,NA
80013,Arapahoe County,CO,52.49609984399376,NA,NA
80016,Arapahoe County,CO,18.564742589703588,37.42544731610338,NA
80023,Broomfield County,CO,NA,85.53677932405567,NA
80132,El Paso County,CO,58.34633385335414,NA,NA
80134,Douglas County,CO,6.006240249609984,NA,NA
80214,Jefferson County,CO,25.117004680187204,NA,NA
80216,Denver County,CO,NA,26.143141153081512,NA
80219,Denver County,CO,NA,0.8946322067594433,NA
80232,Jefferson County,CO,99.37597503900156,NA,NA
80233,Adams County,CO,NA,19.582504970178928,NA
80239,Denver County,CO,15.210608424336975,NA,NA
80241,Adams County,CO,39.0015600624025,NA,NA
80501,Boulder County,CO,63.338533541341654,NA,NA
80504,Boulder County,CO,94.92979719188767,NA,NA
80524,Larimer County,CO,NA,12.226640159045726,NA
80525,Larimer County,CO,11.622464898595943,NA,NA
80526,Larimer County,CO,19.03276131045242,NA,NA
80537,Larimer County,CO,28.39313572542902,NA,NA
80543,Weld County,CO,88.22152886115444,NA,NA
80601,Adams County,CO,NA,NA,37.03703703703704
80631,Weld County,CO,NA,8.896620278330019,36.182336182336186
80634,Weld County,CO,4.05616224648986,NA,NA
80907,El Paso County,CO,NA,49.40357852882703,NA
80916,El Paso County,CO,NA,21.968190854870777,NA
80923,El Paso County,CO,60.68642745709828,NA,NA
81001,Pueblo County,CO,NA,24.701789264413517,NA
81003,Pueblo County,CO,82.68330733229328,35.834990059642145,NA
81007,Pueblo County,CO,20.436817472698905,NA,NA
81052,Prowers County,CO,NA,36.97813121272366,NA
81082,Las Animas County,CO,NA,NA,61.82336182336182
81147,Archuleta County,CO,NA,69.83101391650099,NA
81211,Chaffee County,CO,NA,90.05964214711729,NA
06001,Hartford County,CT,28.861154446177846,NA,NA
06002,Hartford County,CT,NA,65.70576540755468,NA
06010,Hartford County,CT,NA,NA,3.418803418803419
06016,Hartford County,CT,NA,80.76540755467197,NA
06033,Hartford County,CT,NA,60.139165009940356,NA
06040,Hartford County,CT,61.46645865834633,58.8469184890656,NA
06042,Hartford County,CT,NA,38.66799204771372,NA
06062,Hartford County,CT,NA,61.083499005964214,NA
06066,Tolland County,CT,NA,NA,20.22792022792023
06105,Hartford County,CT,39.0015600624025,46.86878727634195,NA
06108,Hartford County,CT,NA,NA,33.04843304843305
06110,Hartford County,CT,NA,48.26043737574553,NA
06111,Hartford County,CT,NA,63.51888667992047,NA
06112,Hartford County,CT,NA,34.39363817097416,NA
06114,Hartford County,CT,NA,18.687872763419485,NA
06120,Hartford County,CT,NA,59.940357852882705,NA
06226,Windham County,CT,NA,92.09741550695824,NA
06238,Tolland County,CT,NA,NA,66.66666666666666
06239,Windham County,CT,NA,98.1610337972167,NA
06248,Tolland County,CT,87.75351014040562,NA,NA
06249,New London County,CT,NA,69.83101391650099,NA
06260,Windham County,CT,NA,96.57057654075547,NA
06405,New Haven County,CT,NA,45.27833001988071,NA
06410,New Haven County,CT,NA,50.64612326043738,NA
06415,New London County,CT,NA,NA,52.42165242165242
06416,Middlesex County,CT,NA,92.44532803180915,NA
06437,New Haven County,CT,NA,NA,60.3988603988604
06457,Middlesex County,CT,NA,NA,10.541310541310542
06460,New Haven County,CT,NA,68.389662027833,NA
06461,New Haven County,CT,NA,84.69184890656064,NA
06478,New Haven County,CT,96.801872074883,NA,NA
06492,New Haven County,CT,NA,44.53280318091451,NA
06511,New Haven County,CT,7.878315132605304,2.5347912524850895,NA
06515,New Haven County,CT,NA,56.31212723658051,NA
06516,New Haven County,CT,12.324492979719189,NA,NA
06519,New Haven County,CT,NA,6.908548707753479,NA
06604,Fairfield County,CT,69.89079563182527,NA,NA
06606,Fairfield County,CT,NA,6.461232604373758,NA
06608,Fairfield County,CT,NA,42.54473161033797,NA
06610,Fairfield County,CT,NA,78.97614314115307,NA
06614,Fairfield County,CT,NA,72.36580516898609,NA
06704,New Haven County,CT,NA,38.618290258449306,NA
06705,New Haven County,CT,NA,55.21868787276342,NA
06710,New Haven County,CT,NA,39.314115308151095,NA
06770,New Haven County,CT,NA,48.26043737574553,NA
06787,Litchfield County,CT,NA,90.05964214711729,NA
06824,Fairfield County,CT,NA,81.610337972167,NA
06870,Fairfield County,CT,83.22932917316692,NA,NA
06902,Fairfield County,CT,NA,5.964214711729622,NA
19701,New Castle County,DE,48.28393135725429,NA,NA
19709,New Castle County,DE,55.77223088923557,NA,NA
19711,New Castle County,DE,46.879875195007806,63.51888667992047,NA
19713,New Castle County,DE,NA,NA,33.903133903133906
19720,New Castle County,DE,6.942277691107644,NA,NA
19802,New Castle County,DE,17.31669266770671,32.95228628230616,NA
19810,New Castle County,DE,NA,95.9741550695825,NA
19938,Kent County,DE,NA,88.07157057654076,NA
19950,Sussex County,DE,NA,80.76540755467197,NA
19958,Sussex County,DE,NA,41.8986083499006,NA
19973,Sussex County,DE,28.159126365054604,86.03379721669981,NA
32024,Columbia County,FL,80.03120124804992,NA,NA
32025,Columbia County,FL,NA,27.882703777335983,NA
32043,Clay County,FL,97.34789391575663,NA,NA
32052,Hamilton County,FL,NA,74.75149105367794,NA
32086,St. Johns County,FL,20.04680187207488,NA,NA
32097,Nassau County,FL,NA,47.61431411530815,NA
32114,Volusia County,FL,NA,10.834990059642147,NA
32128,Volusia County,FL,81.51326053042122,NA,NA
32129,Volusia County,FL,NA,47.61431411530815,NA
32164,Flagler County,FL,NA,32.30616302186879,NA
32168,Volusia County,FL,NA,55.46719681908549,NA
32179,Marion County,FL,NA,73.11133200795229,NA
32206,Duval County,FL,59.90639625585024,NA,NA
32209,Duval County,FL,NA,38.41948310139165,NA
32210,Duval County,FL,NA,NA,5.698005698005698
32211,Duval County,FL,NA,21.570576540755468,NA
32218,Duval County,FL,48.829953198127924,NA,NA
32233,Duval County,FL,NA,65.95427435387674,NA
32244,Duval County,FL,NA,4.52286282306163,NA
32246,Duval County,FL,29.7191887675507,NA,NA
32257,Duval County,FL,NA,37.92246520874751,NA
32266,Duval County,FL,96.09984399375975,NA,NA
32303,Leon County,FL,NA,69.1351888667992,NA
32308,Leon County,FL,81.74726989079562,NA,NA
32327,Wakulla County,FL,NA,61.82902584493042,NA
32404,Bay County,FL,NA,24.055666003976143,NA
32405,Bay County,FL,43.60374414976599,79.12524850894633,NA
32504,Escambia County,FL,29.485179407176286,NA,NA
32505,Escambia County,FL,NA,11.928429423459244,NA
32526,Escambia County,FL,NA,16.749502982107355,NA
32578,Okaloosa County,FL,NA,68.389662027833,NA
32608,Alachua County,FL,NA,50.64612326043738,NA
32618,Alachua County,FL,NA,83.64811133200796,NA
32693,Gilchrist County,FL,77.22308892355694,NA,NA
32703,Orange County,FL,NA,13.27037773359841,NA
32707,Seminole County,FL,NA,16.003976143141152,NA
32708,Seminole County,FL,NA,43.19085487077535,NA
32725,Volusia County,FL,NA,29.025844930417495,NA
32726,Lake County,FL,NA,40.208747514910534,NA
32738,Volusia County,FL,NA,17.147117296222664,NA
32746,Seminole County,FL,NA,73.11133200795229,NA
32751,Orange County,FL,NA,76.98807157057655,NA
32765,Seminole County,FL,NA,76.441351888668,80.91168091168092
32766,Seminole County,FL,NA,85.53677932405567,NA
32778,Lake County,FL,NA,46.47117296222664,NA
32796,Brevard County,FL,NA,40.60636182902584,NA
32804,Orange County,FL,NA,61.82902584493042,NA
32807,Orange County,FL,NA,39.662027833001986,NA
32808,Orange County,FL,NA,52.98210735586481,NA
32810,Orange County,FL,NA,17.395626242544733,NA
32817,Orange County,FL,NA,10.03976143141153,NA
32818,Orange County,FL,14.19656786271451,NA,NA
32819,Orange County,FL,49.141965678627145,NA,NA
32820,Orange County,FL,NA,90.05964214711729,NA
32825,Orange County,FL,NA,39.314115308151095,NA
32828,Orange County,FL,NA,NA,39.88603988603989
32829,Orange County,FL,NA,57.85288270377733,NA
32836,Orange County,FL,76.4430577223089,NA,NA
32839,Orange County,FL,NA,9.244532803180915,NA
32909,Brevard County,FL,NA,36.97813121272366,NA
32927,Brevard County,FL,NA,NA,78.91737891737893
32937,Brevard County,FL,NA,84.69184890656064,NA
32962,Indian River County,FL,NA,71.47117296222663,NA
32967,Indian River County,FL,NA,95.12922465208747,NA
33012,Miami-Dade County,FL,25.585023400936034,NA,NA
33014,Miami-Dade County,FL,NA,22.316103379721667,NA
33021,Broward County,FL,NA,NA,74.07407407407408
33042,Monroe County,FL,94.61778471138845,NA,NA
33063,Broward County,FL,39.93759750390016,NA,NA
33065,Broward County,FL,NA,10.934393638170974,NA
33126,Miami-Dade County,FL,NA,11.928429423459244,NA
33127,Miami-Dade County,FL,NA,17.594433399602387,NA
33128,Miami-Dade County,FL,NA,33.05168986083499,NA
33136,Miami-Dade County,FL,30.733229329173167,NA,NA
33142,Miami-Dade County,FL,12.558502340093602,NA,NA
33147,Miami-Dade County,FL,NA,3.7773359840954273,NA
33150,Miami-Dade County,FL,NA,17.842942345924452,NA
33172,Miami-Dade County,FL,NA,20.129224652087473,NA
33176,Miami-Dade County,FL,24.180967238689547,NA,NA
33183,Miami-Dade County,FL,NA,NA,77.20797720797721
33309,Broward County,FL,NA,75.49701789264414,NA
33312,Broward County,FL,NA,35.089463220675945,NA
33314,Broward County,FL,NA,59.59244532803181,NA
33323,Broward County,FL,NA,98.70775347912524,NA
33401,Palm Beach County,FL,NA,77.63419483101391,NA
33407,Palm Beach County,FL,NA,55.815109343936385,NA
33409,Palm Beach County,FL,NA,47.01789264413519,NA
33414,Palm Beach County,FL,63.88455538221529,NA,NA
33415,Palm Beach County,FL,NA,8.399602385685885,NA
33433,Palm Beach County,FL,NA,63.66799204771372,NA
33435,Palm Beach County,FL,NA,44.03578528827038,NA
33460,Palm Beach County,FL,NA,16.600397614314115,NA
33461,Palm Beach County,FL,NA,42.54473161033797,NA
33463,Palm Beach County,FL,60.53042121684867,NA,NA
33467,Palm Beach County,FL,81.74726989079562,NA,NA
33476,Palm Beach County,FL,NA,68.389662027833,NA
33513,Sumter County,FL,NA,80.21868787276341,NA
33525,Pasco County,FL,NA,50.994035785288276,NA
33541,Pasco County,FL,NA,67.79324055666004,75.49857549857549
33549,Hillsborough County,FL,NA,88.56858846918489,NA
33559,Hillsborough County,FL,NA,97.51491053677933,NA
33570,Hillsborough County,FL,NA,NA,61.25356125356125
33578,Hillsborough County,FL,33.46333853354134,NA,NA
33603,Hillsborough County,FL,NA,41.45129224652088,NA
33604,Hillsborough County,FL,9.360374414976599,59.443339960238575,NA
33612,Hillsborough County,FL,NA,62.22664015904572,NA
33618,Hillsborough County,FL,NA,89.56262425447316,NA
33647,Hillsborough County,FL,34.009360374414975,NA,NA
33711,Pinellas County,FL,NA,60.139165009940356,NA
33765,Pinellas County,FL,NA,70.52683896620279,NA
33805,Polk County,FL,NA,9.642147117296222,NA
33809,Polk County,FL,NA,41.10337972166998,NA
33810,Polk County,FL,65.28861154446179,22.46520874751491,NA
33813,Polk County,FL,NA,NA,57.54985754985755
33815,Polk County,FL,NA,54.57256461232605,NA
33823,Polk County,FL,NA,57.15705765407555,NA
33830,Polk County,FL,NA,47.21669980119284,NA
33837,Polk County,FL,NA,22.86282306163022,NA
33838,Polk County,FL,98.5179407176287,NA,NA
33844,Polk County,FL,NA,9.095427435387673,NA
33860,Polk County,FL,51.326053042121686,48.75745526838966,NA
33880,Polk County,FL,NA,14.56262425447316,NA
33881,Polk County,FL,NA,46.37176938369782,NA
33897,Polk County,FL,NA,59.59244532803181,NA
33904,Lee County,FL,40.40561622464899,NA,NA
33909,Lee County,FL,NA,28.230616302186878,NA
33917,Lee County,FL,NA,45.77534791252485,NA
33919,Lee County,FL,NA,76.441351888668,NA
33971,Lee County,FL,NA,NA,55.55555555555556
33972,Lee County,FL,NA,56.461232604373755,NA
33976,Lee County,FL,60.68642745709828,NA,NA
34110,Collier County,FL,95.16380655226209,NA,NA
34221,Manatee County,FL,61.31045241809673,NA,NA
34231,Sarasota County,FL,NA,92.34592445328032,NA
34232,Sarasota County,FL,19.81279251170047,55.96421471172962,NA
34234,Sarasota County,FL,NA,60.63618290258449,NA
34237,Sarasota County,FL,NA,89.56262425447316,NA
34242,Sarasota County,FL,83.38533541341654,NA,NA
34275,Sarasota County,FL,62.870514820592824,NA,NA
34286,Sarasota County,FL,NA,40.60636182902584,NA
34287,Sarasota County,FL,NA,36.43141153081511,NA
34293,Sarasota County,FL,NA,61.083499005964214,NA
34461,Citrus County,FL,NA,73.75745526838966,NA
34472,Marion County,FL,20.436817472698905,NA,NA
34473,Marion County,FL,NA,36.33200795228628,NA
34480,Marion County,FL,77.53510140405616,NA,NA
34601,Hernando County,FL,NA,76.98807157057655,NA
34604,Hernando County,FL,NA,46.47117296222664,NA
34608,Hernando County,FL,NA,53.92644135188866,NA
34610,Pasco County,FL,NA,37.42544731610338,NA
34613,Hernando County,FL,NA,58.94632206759444,NA
34652,Pasco County,FL,NA,52.78330019880716,NA
34653,Pasco County,FL,NA,76.34194831013916,NA
34667,Pasco County,FL,NA,20.576540755467196,NA
34668,Pasco County,FL,NA,72.11729622266402,NA
34685,Pinellas County,FL,77.84711388455538,NA,NA
34690,Pasco County,FL,NA,65.95427435387674,NA
34691,Pasco County,FL,NA,43.19085487077535,NA
34698,Pinellas County,FL,NA,88.07157057654076,NA
34714,Lake County,FL,50.93603744149766,NA,NA
34744,Osceola County,FL,NA,22.117296222664017,NA
34747,Osceola County,FL,NA,55.96421471172962,NA
34758,Osceola County,FL,NA,22.86282306163022,NA
34785,Sumter County,FL,NA,26.39165009940358,NA
34946,St. Lucie County,FL,NA,NA,78.06267806267806
34947,St. Lucie County,FL,NA,67.79324055666004,52.13675213675214
34952,St. Lucie County,FL,NA,24.85089463220676,NA
34953,St. Lucie County,FL,NA,70.92445328031809,NA
34972,Okeechobee County,FL,73.24492979719189,41.45129224652088,NA
34982,St. Lucie County,FL,NA,31.858846918489064,NA
34983,St. Lucie County,FL,NA,32.55467196819086,25.925925925925924
30004,Fulton County,GA,24.414976599063962,NA,NA
30016,Newton County,GA,NA,17.296222664015904,NA
30030,DeKalb County,GA,NA,90.60636182902584,NA
30032,DeKalb County,GA,NA,37.37574552683897,NA
30034,DeKalb County,GA,NA,30.96421471172962,NA
30043,Gwinnett County,GA,47.65990639625585,NA,NA
30046,Gwinnett County,GA,NA,NA,47.57834757834758
30064,Cobb County,GA,NA,58.94632206759444,NA
30067,Cobb County,GA,68.33073322932918,NA,NA
30068,Cobb County,GA,45.08580343213728,NA,70.65527065527066
30071,Gwinnett County,GA,NA,54.771371769383705,NA
30088,DeKalb County,GA,NA,59.940357852882705,NA
30093,Gwinnett County,GA,NA,46.07355864811134,NA
30101,Cobb County,GA,21.060842433697346,52.23658051689861,29.059829059829063
30102,Cherokee County,GA,NA,44.53280318091451,NA
30115,Cherokee County,GA,40.71762870514821,NA,NA
30116,Carroll County,GA,62.402496099843994,56.461232604373755,NA
30120,Bartow County,GA,35.8814352574103,NA,23.646723646723647
30122,Douglas County,GA,20.04680187207488,NA,NA
30134,Douglas County,GA,21.29485179407176,21.769383697813122,NA
30157,Paulding County,GA,NA,25.39761431411531,NA
30161,Floyd County,GA,NA,22.46520874751491,NA
30180,Carroll County,GA,NA,32.30616302186879,NA
30184,Bartow County,GA,NA,84.69184890656064,NA
30213,Fulton County,GA,NA,34.09542743538768,NA
30214,Fayette County,GA,NA,69.83101391650099,NA
30223,Spalding County,GA,NA,33.94632206759443,NA
30233,Butts County,GA,59.59438377535101,NA,NA
30241,Troup County,GA,NA,46.12326043737575,NA
30281,Henry County,GA,24.336973478939157,19.980119284294233,NA
30291,Fulton County,GA,NA,36.43141153081511,NA
30311,Fulton County,GA,NA,18.687872763419485,NA
30315,Fulton County,GA,38.61154446177847,NA,NA
30318,Fulton County,GA,NA,68.29025844930418,NA
30331,Fulton County,GA,NA,10.58648111332008,NA
30344,Fulton County,GA,NA,45.07952286282306,NA
30349,Fulton County,GA,NA,14.56262425447316,NA
30401,Emanuel County,GA,NA,NA,85.18518518518519
30427,Tattnall County,GA,NA,83.64811133200796,NA
30442,Jenkins County,GA,NA,66.74950298210736,NA
30518,Gwinnett County,GA,54.680187207488295,NA,NA
30519,Gwinnett County,GA,84.47737909516381,NA,NA
30533,Lumpkin County,GA,NA,53.77733598409543,NA
30542,Hall County,GA,NA,NA,50.997150997150996
30577,Stephens County,GA,NA,60.73558648111332,NA
30605,Clarke County,GA,NA,58.39960238568589,NA
30707,Walker County,GA,43.6817472698908,NA,NA
30721,Whitfield County,GA,NA,79.0258449304175,NA
30747,Chattooga County,GA,NA,53.03180914512923,NA
30752,Dade County,GA,84.16536661466458,NA,NA
30815,Richmond County,GA,41.88767550702028,NA,NA
30824,McDuffie County,GA,NA,88.07157057654076,NA
30901,Richmond County,GA,NA,40.60636182902584,NA
30906,Richmond County,GA,NA,58.30019880715705,9.971509971509972
31005,Houston County,GA,NA,73.11133200795229,NA
31008,Peach County,GA,NA,61.431411530815105,NA
31015,Crisp County,GA,NA,52.23658051689861,NA
31021,Laurens County,GA,NA,70.82504970178927,NA
31023,Dodge County,GA,NA,69.18489065606362,NA
31027,Laurens County,GA,NA,61.82902584493042,NA
31032,Jones County,GA,NA,68.389662027833,NA
31061,Baldwin County,GA,NA,35.834990059642145,NA
31093,Houston County,GA,61.62246489859594,NA,NA
31204,Bibb County,GA,NA,22.117296222664017,NA
31206,Bibb County,GA,NA,55.417495029821076,NA
31216,Bibb County,GA,NA,89.86083499005964,NA
31313,Liberty County,GA,NA,NA,83.47578347578347
31406,Chatham County,GA,84.94539781591264,NA,NA
31501,Ware County,GA,NA,58.39960238568589,NA
31516,Pierce County,GA,71.37285491419657,77.78330019880715,NA
31533,Coffee County,GA,NA,NA,59.54415954415955
31537,Charlton County,GA,98.12792511700468,NA,NA
31539,Jeff Davis County,GA,67.62870514820592,NA,NA
31546,Wayne County,GA,80.65522620904837,NA,NA
31553,Brantley County,GA,NA,80.21868787276341,NA
31632,Lowndes County,GA,83.07332293291732,NA,NA
31701,Dougherty County,GA,NA,81.46123260437376,NA
31757,Thomas County,GA,NA,NA,69.51566951566952
31773,Thomas County,GA,92.51170046801872,NA,NA
31794,Tift County,GA,NA,28.180914512922467,NA
31804,Harris County,GA,81.2792511700468,NA,NA
31806,Schley County,GA,NA,75.59642147117296,NA
31816,Meriwether County,GA,NA,69.18489065606362,NA
31833,Troup County,GA,71.996879875195,82.25646123260437,NA
31903,Muscogee County,GA,NA,NA,36.75213675213676
31904,Muscogee County,GA,NA,86.63021868787276,NA
31907,Muscogee County,GA,NA,15.50695825049702,NA
31909,Muscogee County,GA,39.62558502340094,NA,NA
39842,Terrell County,GA,NA,NA,62.10826210826211
96720,Hawaii County,HI,NA,28.777335984095426,NA
96734,Honolulu County,HI,35.413416536661465,NA,NA
96740,Hawaii County,HI,NA,40.40755467196819,NA
96748,Maui County,HI,NA,37.42544731610338,NA
96749,Hawaii County,HI,NA,46.47117296222664,NA
96760,Hawaii County,HI,NA,63.66799204771372,NA
96790,Maui County,HI,NA,49.155069582504964,NA
96792,Honolulu County,HI,13.416536661466457,41.45129224652088,NA
96815,Honolulu County,HI,NA,NA,48.717948717948715
96817,Honolulu County,HI,15.990639625585024,8.499005964214712,NA
96819,Honolulu County,HI,49.141965678627145,33.30019880715705,NA
83202,Bannock County,ID,23.634945397815912,NA,NA
83221,Bingham County,ID,NA,21.17296222664016,NA
83263,Franklin County,ID,NA,54.771371769383705,NA
83301,Twin Falls County,ID,NA,32.85288270377734,NA
83316,Twin Falls County,ID,NA,77.38568588469185,NA
83341,Twin Falls County,ID,NA,69.83101391650099,NA
83404,Bonneville County,ID,76.91107644305772,NA,NA
83501,Nez Perce County,ID,NA,23.210735586481114,NA
83544,Clearwater County,ID,97.50390015600624,NA,NA
83605,Canyon County,ID,NA,21.371769383697814,NA
83616,Ada County,ID,23.16692667706708,NA,NA
83642,Ada County,ID,NA,25.198807157057658,NA
83647,Elmore County,ID,NA,53.28031809145129,NA
83686,Canyon County,ID,NA,11.779324055666004,NA
83687,Canyon County,ID,38.29953198127925,NA,NA
83801,Kootenai County,ID,84.55538221528862,NA,NA
83815,Kootenai County,ID,30.42121684867395,41.45129224652088,NA
83835,Kootenai County,ID,NA,68.389662027833,NA
83843,Latah County,ID,NA,33.39960238568588,NA
83854,Kootenai County,ID,18.408736349453978,NA,NA
60002,Lake County,IL,NA,79.72166998011929,NA
60005,Cook County,IL,81.98127925117005,NA,NA
60007,Cook County,IL,56.47425897035882,NA,NA
60022,Cook County,IL,96.02184087363494,NA,NA
60025,Cook County,IL,18.720748829953198,86.3817097415507,NA
60030,Lake County,IL,65.600624024961,NA,NA
60031,Lake County,IL,60.06240249609984,NA,NA
60045,Lake County,IL,81.20124804992199,NA,NA
60056,Cook County,IL,20.202808112324494,NA,NA
60060,Lake County,IL,46.17784711388456,NA,NA
60067,Cook County,IL,NA,91.84890656063618,NA
60073,Lake County,IL,67.55070202808112,NA,NA
60074,Cook County,IL,46.48985959438377,NA,NA
60085,Lake County,IL,NA,66.74950298210736,NA
60087,Lake County,IL,NA,83.05168986083498,NA
60099,Lake County,IL,NA,83.05168986083498,NA
60107,Cook County,IL,85.8814352574103,NA,NA
60118,Kane County,IL,87.4414976599064,NA,NA
60126,DuPage County,IL,9.750390015600624,NA,NA
60134,Kane County,IL,42.27769110764431,NA,NA
60140,Kane County,IL,39.39157566302652,NA,NA
60153,Cook County,IL,NA,87.07753479125249,NA
60174,Kane County,IL,26.365054602184085,NA,NA
60175,Kane County,IL,47.81591263650546,NA,NA
60177,Kane County,IL,NA,99.20477137176938,NA
60178,DeKalb County,IL,53.90015600624025,NA,NA
60302,Cook County,IL,26.521060842433698,NA,37.32193732193732
60404,Will County,IL,NA,90.90457256461232,NA
60410,Will County,IL,31.12324492979719,NA,NA
60420,Livingston County,IL,82.8393135725429,NA,NA
60430,Cook County,IL,75.74102964118565,NA,NA
60431,Will County,IL,21.8408736349454,NA,NA
60435,Will County,IL,NA,NA,39.03133903133903
60440,Will County,IL,47.65990639625585,NA,NA
60443,Cook County,IL,43.36973478939157,NA,NA
60446,Will County,IL,21.606864274570984,NA,NA
60472,Cook County,IL,NA,NA,91.16809116809117
60475,Will County,IL,NA,93.88667992047714,NA
60477,Cook County,IL,45.86583463338533,NA,NA
60480,Cook County,IL,76.4430577223089,NA,NA
60481,Will County,IL,42.27769110764431,NA,NA
60510,Kane County,IL,29.875195007800315,NA,NA
60516,DuPage County,IL,NA,NA,46.15384615384615
60521,DuPage County,IL,83.15132605304211,NA,NA
60523,DuPage County,IL,60.53042121684867,NA,NA
60526,Cook County,IL,97.97191887675507,NA,NA
60538,Kendall County,IL,NA,90.05964214711729,NA
60544,Will County,IL,42.979719188767554,NA,NA
60545,Kendall County,IL,NA,NA,93.16239316239316
60546,Cook County,IL,50,NA,NA
60548,DeKalb County,IL,89.2355694227769,95.62624254473161,NA
60555,DuPage County,IL,NA,90.90457256461232,NA
60564,Will County,IL,75.35101404056162,NA,NA
60585,Will County,IL,87.98751950078002,NA,NA
60586,Will County,IL,37.597503900156006,NA,NA
60608,Cook County,IL,NA,78.37972166998011,NA
60611,Cook County,IL,90.01560062402496,NA,NA
60616,Cook County,IL,47.34789391575663,NA,NA
60620,Cook County,IL,24.648985959438377,NA,NA
60624,Cook County,IL,66.06864274570982,NA,NA
60625,Cook County,IL,NA,NA,13.390313390313391
60629,Cook County,IL,15.756630265210608,NA,NA
60634,Cook County,IL,32.683307332293296,NA,NA
60636,Cook County,IL,43.29173166926677,NA,NA
60637,Cook County,IL,NA,65.05964214711729,NA
60639,Cook County,IL,NA,61.083499005964214,NA
60643,Cook County,IL,NA,94.68190854870775,NA
60645,Cook County,IL,14.586583463338535,NA,NA
60647,Cook County,IL,11.622464898595943,NA,NA
60651,Cook County,IL,NA,42.94234592445328,NA
60660,Cook County,IL,84.24336973478938,NA,NA
60804,Cook County,IL,NA,NA,23.076923076923077
60805,Cook County,IL,NA,NA,68.94586894586895
60901,Kankakee County,IL,56.63026521060842,NA,NA
60915,Kankakee County,IL,80.343213728549145,93.29025844930418,NA
60950,Kankakee County,IL,NA,NA,70.37037037037037
61032,Stephenson County,IL,44.383775351014044,81.610337972167,NA
61072,Winnebago County,IL,63.494539781591264,NA,NA
61081,Whiteside County,IL,9.750390015600624,NA,NA
61103,Winnebago County,IL,NA,82.60437375745528,NA
61104,Winnebago County,IL,NA,84.69184890656064,NA
61108,Winnebago County,IL,NA,79.27435387673957,NA
61115,Winnebago County,IL,57.87831513260531,NA,NA
61201,Rock Island County,IL,NA,80.76540755467197,NA
61244,Rock Island County,IL,NA,96.81908548707754,NA
61264,Rock Island County,IL,NA,93.29025844930418,NA
61265,Rock Island County,IL,86.50546021840874,71.76938369781311,NA
61310,Lee County,IL,58.19032761310452,NA,NA
61354,LaSalle County,IL,59.20436817472699,NA,NA
61443,Henry County,IL,67.08268330733229,NA,59.25925925925925
61530,Woodford County,IL,NA,99.80119284294234,NA
61548,Woodford County,IL,82.8393135725429,NA,NA
61604,Peoria County,IL,NA,85.53677932405567,42.45014245014245
61611,Tazewell County,IL,NA,74.3041749502982,NA
61614,Peoria County,IL,NA,90.05964214711729,NA
61764,Livingston County,IL,85.02340093603745,NA,NA
61820,Champaign County,IL,NA,94.68190854870775,87.17948717948718
61832,Vermilion County,IL,42.82371294851794,NA,11.965811965811966
62002,Madison County,IL,NA,73.75745526838966,NA
62010,Madison County,IL,NA,96.81908548707754,NA
62024,Madison County,IL,NA,95.62624254473161,NA
62025,Madison County,IL,54.36817472698908,NA,NA
62033,Macoupin County,IL,NA,91.84890656063618,NA
62088,Macoupin County,IL,92.97971918876755,NA,NA
62201,St. Clair County,IL,NA,99.00596421471172,NA
62206,St. Clair County,IL,49.609984399375975,NA,NA
62221,St. Clair County,IL,NA,92.44532803180915,NA
62234,Madison County,IL,NA,84.69184890656064,NA
62258,St. Clair County,IL,NA,NA,92.3076923076923
62294,Madison County,IL,NA,99.35387673956262,NA
62305,Adams County,IL,NA,NA,67.80626780626781
62521,Macon County,IL,7.566302652106084,85.53677932405567,NA
62526,Macon County,IL,70.67082683307332,NA,NA
62568,Christian County,IL,51.716068642745704,NA,NA
62704,Sangamon County,IL,NA,83.05168986083498,NA
62864,Jefferson County,IL,43.7597503900156,NA,NA
62896,Franklin County,IL,85.8814352574103,NA,NA
46012,Madison County,IN,62.4804992199688,36.97813121272366,NA
46013,Madison County,IN,77.22308892355694,NA,NA
46052,Boone County,IN,49.765990639625585,55.96421471172962,NA
46055,Hancock County,IN,NA,99.55268389662028,NA
46058,Clinton County,IN,95.3978159126365,NA,NA
46060,Hamilton County,IN,NA,36.43141153081511,NA
46069,Hamilton County,IN,NA,NA,97.43589743589743
46107,Marion County,IN,40.48361934477379,NA,NA
46112,Hendricks County,IN,40.48361934477379,NA,NA
46135,Putnam County,IN,NA,NA,64.95726495726495
46140,Hancock County,IN,28.549141965678626,NA,NA
46143,Johnson County,IN,17.862714508580343,53.03180914512923,NA
46158,Morgan County,IN,NA,80.21868787276341,NA
46173,Rush County,IN,41.49765990639626,29.970178926441353,NA
46204,Marion County,IN,NA,28.379721669980118,NA
46205,Marion County,IN,90.01560062402496,NA,39.31623931623932
46217,Marion County,IN,85.56942277691107,NA,NA
46218,Marion County,IN,NA,82.55467196819085,11.68091168091168
46219,Marion County,IN,54.75819032761311,15.954274353876741,94.30199430199431
46220,Marion County,IN,NA,67.79324055666004,NA
46221,Marion County,IN,NA,76.19284294234593,NA
46222,Marion County,IN,25.975039001560063,87.47514910536779,NA
46224,Marion County,IN,65.83463338533542,91.45129224652088,NA
46226,Marion County,IN,NA,55.91451292246521,NA
46227,Marion County,IN,62.63650546021841,NA,38.17663817663818
46229,Marion County,IN,NA,82.60437375745528,NA
46234,Marion County,IN,NA,61.67992047713717,NA
46237,Marion County,IN,35.569422776911075,NA,NA
46239,Marion County,IN,NA,94.43339960238568,NA
46241,Marion County,IN,NA,13.021868787276341,NA
46254,Marion County,IN,NA,18.290258449304176,NA
46260,Marion County,IN,NA,74.55268389662028,NA
46268,Marion County,IN,79.09516380655226,NA,NA
46304,Porter County,IN,82.7613104524181,NA,NA
46307,Lake County,IN,8.190327613104524,95.42743538767395,NA
46312,Lake County,IN,NA,NA,72.93447293447294
46323,Lake County,IN,48.127925117004686,71.02385685884693,NA
46324,Lake County,IN,NA,88.66799204771371,NA
46341,Porter County,IN,NA,76.98807157057655,NA
46350,LaPorte County,IN,90.405616224649,NA,NA
46356,Lake County,IN,27.223088923556944,NA,NA
46360,LaPorte County,IN,10.218408736349453,NA,NA
46368,Porter County,IN,10.686427457098285,NA,NA
46373,Lake County,IN,37.5195007800312,NA,NA
46375,Lake County,IN,74.80499219968799,NA,NA
46392,Jasper County,IN,NA,85.53677932405567,NA
46405,Lake County,IN,NA,83.49900596421472,NA
46410,Lake County,IN,51.326053042121686,36.43141153081511,NA
46514,Elkhart County,IN,78.47113884555382,93.78727634194831,NA
46516,Elkhart County,IN,26.755070202808113,94.48310139165011,NA
46517,Elkhart County,IN,NA,98.65805168986084,NA
46526,Elkhart County,IN,NA,96.27236580516899,NA
46528,Elkhart County,IN,22.85491419656786,90.55666003976143,NA
46540,Elkhart County,IN,88.06552262090483,NA,NA
46544,St. Joseph County,IN,NA,14.761431411530815,NA
46545,St. Joseph County,IN,NA,86.77932405566601,NA
46563,Marshall County,IN,NA,84.69184890656064,NA
46601,St. Joseph County,IN,NA,96.37176938369781,73.21937321937322
46613,St. Joseph County,IN,NA,97.16699801192843,NA
46614,St. Joseph County,IN,NA,59.29423459244533,NA
46615,St. Joseph County,IN,83.46333853354135,NA,NA
46619,St. Joseph County,IN,NA,76.73956262425448,NA
46628,St. Joseph County,IN,79.32917316692668,24.85089463220676,NA
46635,St. Joseph County,IN,98.75195007800312,NA,NA
46703,Steuben County,IN,NA,97.96222664015905,NA
46706,DeKalb County,IN,NA,NA,72.07977207977207
46721,DeKalb County,IN,NA,93.88667992047714,NA
46725,Whitley County,IN,NA,88.07157057654076,NA
46733,Adams County,IN,77.53510140405616,NA,NA
46738,DeKalb County,IN,NA,96.62027833001989,NA
46750,Huntington County,IN,NA,94.23459244532803,NA
46755,Noble County,IN,45.631825273010925,97.91252485089463,NA
46761,LaGrange County,IN,NA,67.34592445328032,NA
46777,Wells County,IN,NA,69.83101391650099,NA
46793,DeKalb County,IN,98.12792511700468,NA,NA
46795,LaGrange County,IN,91.10764430577223,NA,NA
46803,Allen County,IN,NA,77.38568588469185,NA
46806,Allen County,IN,58.268330733229334,80.76540755467197,NA
46808,Allen County,IN,NA,68.33996023856858,35.32763532763533
46815,Allen County,IN,NA,72.4155069582505,NA
46901,Howard County,IN,NA,30.8648111332008,NA
46902,Howard County,IN,3.0421216848673946,93.14115308151094,NA
46928,Grant County,IN,NA,71.76938369781311,NA
46932,Cass County,IN,99.29797191887675,NA,NA
46933,Grant County,IN,NA,96.71968190854871,NA
46947,Cass County,IN,51.950078003120126,47.61431411530815,NA
46952,Grant County,IN,NA,71.02385685884693,NA
46953,Grant County,IN,36.817472698907956,85.98409542743539,NA
46970,Miami County,IN,42.667706708268334,60.536779324055665,NA
46975,Fulton County,IN,96.64586583463338,NA,NA
46992,Wabash County,IN,NA,NA,79.48717948717949
47001,Dearborn County,IN,97.89391575663026,88.81709741550696,NA
47037,Ripley County,IN,NA,99.2544731610338,NA
47042,Ripley County,IN,86.81747269890796,68.389662027833,NA
47043,Switzerland County,IN,NA,99.70178926441352,NA
47112,Harrison County,IN,55.30421216848674,NA,NA
47129,Clark County,IN,NA,52.48508946322068,NA
47130,Clark County,IN,NA,84.44333996023857,NA
47150,Floyd County,IN,NA,44.53280318091451,NA
47167,Washington County,IN,NA,54.771371769383705,NA
47172,Clark County,IN,NA,80.76540755467197,NA
47201,Bartholomew County,IN,52.418096723868956,32.30616302186879,NA
47203,Bartholomew County,IN,33.77535101404056,NA,NA
47240,Decatur County,IN,78.47113884555382,93.83697813121272,NA
47274,Jackson County,IN,20.74882995319813,NA,NA
47302,Delaware County,IN,NA,79.67196819085487,NA
47303,Delaware County,IN,NA,84.49304174950298,NA
47305,Delaware County,IN,NA,99.90059642147118,NA
47330,Wayne County,IN,NA,92.89264413518886,NA
47331,Fayette County,IN,NA,70.42743538767395,NA
47353,Union County,IN,NA,91.69980119284294,NA
47371,Jay County,IN,NA,74.2544731610338,NA
47374,Wayne County,IN,4.83619344773791,NA,NA
47452,Orange County,IN,84.00936037441498,NA,NA
47520,Perry County,IN,NA,NA,98.29059829059828
47542,Dubois County,IN,NA,65.95427435387674,NA
47591,Knox County,IN,23.634945397815912,NA,NA
47613,Warrick County,IN,99.68798751950078,NA,NA
47710,Vanderburgh County,IN,NA,41.10337972166998,NA
47711,Vanderburgh County,IN,NA,73.11133200795229,NA
47714,Vanderburgh County,IN,NA,31.510934393638173,45.01424501424501
47802,Vigo County,IN,93.68174726989079,94.98011928429423,NA
47804,Vigo County,IN,82.60530421216849,94.88071570576541,NA
47805,Vigo County,IN,NA,NA,90.31339031339031
47807,Vigo County,IN,NA,66.74950298210736,NA
47834,Clay County,IN,50.93603744149766,60.63618290258449,NA
47842,Vermillion County,IN,NA,98.50894632206759,NA
47879,Sullivan County,IN,NA,96.22266401590457,NA
47882,Sullivan County,IN,NA,98.50894632206759,NA
47901,Tippecanoe County,IN,NA,97.61431411530815,NA
47904,Tippecanoe County,IN,61.15444617784711,NA,NA
47922,Newton County,IN,95.3978159126365,NA,NA
47933,Montgomery County,IN,31.279251170046802,NA,NA
47987,Fountain County,IN,84.3213728549142,NA,NA
50010,Story County,IA,NA,71.02385685884693,NA
50014,Story County,IA,NA,NA,84.04558404558404
50022,Cass County,IA,60.14040561622465,NA,91.73789173789174
50035,Polk County,IA,NA,98.40954274353876,NA
50129,Greene County,IA,NA,NA,97.15099715099716
50158,Marshall County,IA,NA,67.79324055666004,NA
50201,Story County,IA,NA,90.05964214711729,NA
50211,Warren County,IA,NA,93.29025844930418,NA
50213,Clarke County,IA,75.11700468018721,NA,NA
50220,Dallas County,IA,NA,78.13121272365805,NA
50265,Polk County,IA,NA,81.610337972167,NA
50266,Polk County,IA,NA,72.56461232604374,75.78347578347578
50310,Polk County,IA,NA,15.854870775347912,NA
50311,Polk County,IA,NA,57.306163021868784,NA
50313,Polk County,IA,NA,NA,41.5954415954416
50315,Polk County,IA,NA,12.57455268389662,NA
50316,Polk County,IA,62.94851794071763,NA,NA
50317,Polk County,IA,NA,71.47117296222663,NA
50320,Polk County,IA,71.996879875195,31.510934393638173,NA
50327,Polk County,IA,NA,47.01789264413519,NA
50401,Cerro Gordo County,IA,14.898595943837753,39.960238568588466,NA
50588,Buena Vista County,IA,34.86739469578783,61.083499005964214,NA
50595,Hamilton County,IA,NA,63.2703777335984,NA
50659,Chickasaw County,IA,89.00156006240249,NA,NA
50662,Fayette County,IA,NA,NA,65.8119658119658
50702,Black Hawk County,IA,NA,59.59244532803181,NA
51031,Plymouth County,IA,NA,97.76341948310139,NA
51040,Monona County,IA,NA,74.3041749502982,NA
51103,Woodbury County,IA,NA,NA,48.148148148148145
51104,Woodbury County,IA,NA,73.11133200795229,NA
51108,Woodbury County,IA,85.10140405616224,NA,NA
51301,Clay County,IA,NA,54.07554671968191,NA
51360,Dickinson County,IA,53.27613104524181,NA,NA
51501,Pottawattamie County,IA,24.024960998439937,57.80318091451292,NA
51503,Pottawattamie County,IA,33.38533541341654,33.05168986083499,NA
51534,Mills County,IA,50.62402496099844,87.07753479125249,NA
51537,Shelby County,IA,NA,75.59642147117296,NA
51566,Montgomery County,IA,NA,90.65606361829026,NA
52001,Dubuque County,IA,53.120124804992194,23.508946322067594,NA
52060,Jackson County,IA,69.73478939157566,53.77733598409543,NA
52101,Winneshiek County,IA,NA,88.96620278330019,NA
52136,Howard County,IA,80.65522620904837,NA,NA
52240,Johnson County,IA,NA,49.95029821073559,NA
52245,Johnson County,IA,NA,75.59642147117296,NA
52302,Linn County,IA,NA,81.56063618290258,24.786324786324787
52317,Johnson County,IA,NA,86.87872763419483,NA
52342,Tama County,IA,NA,99.00596421471172,NA
52402,Linn County,IA,21.060842433697346,NA,50.427350427350426
52403,Linn County,IA,83.93135725429018,NA,NA
52404,Linn County,IA,17.550702028081123,74.50298210735586,NA
52405,Linn County,IA,NA,54.771371769383705,NA
52544,Appanoose County,IA,NA,54.07554671968191,NA
52601,Des Moines County,IA,NA,77.78330019880715,NA
52627,Lee County,IA,NA,87.97216699801193,NA
52632,Lee County,IA,NA,78.08151093439363,NA
52722,Scott County,IA,9.906396255850234,64.7117296222664,NA
52732,Clinton County,IA,NA,23.807157057654074,NA
52738,Louisa County,IA,NA,NA,89.45868945868945
52761,Muscatine County,IA,NA,54.771371769383705,NA
52802,Scott County,IA,NA,47.61431411530815,NA
52804,Scott County,IA,NA,26.143141153081512,NA
52807,Scott County,IA,78.1591263650546,NA,NA
66002,Atchison County,KS,NA,90.90457256461232,NA
66030,Johnson County,KS,30.109204368174723,NA,NA
66044,Douglas County,KS,NA,83.8469184890656,NA
66047,Douglas County,KS,NA,98.70775347912524,NA
66048,Leavenworth County,KS,NA,50.994035785288276,NA
66049,Douglas County,KS,NA,97.61431411530815,NA
66053,Miami County,KS,85.56942277691107,NA,NA
66061,Johnson County,KS,NA,62.47514910536779,NA
66062,Johnson County,KS,9.282371294851794,NA,NA
66067,Franklin County,KS,NA,93.63817097415506,NA
66085,Johnson County,KS,77.69110764430577,NA,NA
66102,Wyandotte County,KS,NA,98.06163021868787,NA
66106,Wyandotte County,KS,58.81435257410297,NA,NA
66212,Johnson County,KS,NA,92.44532803180915,NA
66221,Johnson County,KS,37.05148205928237,NA,NA
66434,Brown County,KS,NA,NA,88.31908831908832
66611,Shawnee County,KS,NA,95.62624254473161,NA
66720,Neosho County,KS,NA,84.69184890656064,NA
66749,Allen County,KS,NA,96.81908548707754,NA
67114,Harvey County,KS,NA,78.37972166998011,NA
67152,Sumner County,KS,NA,84.69184890656064,NA
67203,Sedgwick County,KS,NA,NA,68.66096866096866
67210,Sedgwick County,KS,NA,91.84890656063618,NA
67211,Sedgwick County,KS,NA,83.8469184890656,NA
67212,Sedgwick County,KS,NA,76.98807157057655,NA
67216,Sedgwick County,KS,NA,92.44532803180915,NA
67217,Sedgwick County,KS,NA,81.610337972167,NA
67357,Labette County,KS,48.59594383775351,NA,NA
67401,Saline County,KS,NA,35.089463220675945,NA
67410,Dickinson County,KS,79.71918876755069,NA,NA
67420,Mitchell County,KS,94.61778471138845,NA,NA
67601,Ellis County,KS,NA,NA,92.87749287749287
40031,Oldham County,KY,NA,58.39960238568589,NA
40047,Bullitt County,KY,71.21684867394696,NA,NA
40069,Washington County,KY,NA,64.11530815109344,NA
40071,Spencer County,KY,78.0811232449298,NA,NA
40160,Hardin County,KY,NA,58.74751491053678,NA
40165,Bullitt County,KY,NA,45.77534791252485,NA
40202,Jefferson County,KY,NA,68.389662027833,NA
40203,Jefferson County,KY,NA,71.62027833001989,NA
40208,Jefferson County,KY,NA,60.139165009940356,NA
40210,Jefferson County,KY,NA,76.1431411530815,NA
40211,Jefferson County,KY,NA,26.143141153081512,15.954415954415953
40212,Jefferson County,KY,16.458658346333856,23.210735586481114,NA
40213,Jefferson County,KY,NA,82.95228628230616,NA
40215,Jefferson County,KY,NA,17.793240556660038,NA
40216,Jefferson County,KY,NA,43.48906560636183,NA
40217,Jefferson County,KY,NA,78.37972166998011,NA
40218,Jefferson County,KY,17.394695787831512,NA,NA
40219,Jefferson County,KY,NA,19.582504970178928,NA
40223,Jefferson County,KY,55.22620904836193,NA,NA
40229,Jefferson County,KY,NA,48.70775347912525,NA
40241,Jefferson County,KY,71.996879875195,NA,NA
40245,Jefferson County,KY,NA,59.59244532803181,NA
40258,Jefferson County,KY,NA,32.05765407554672,NA
40272,Jefferson County,KY,NA,21.371769383697814,NA
40291,Jefferson County,KY,31.59126365054602,NA,NA
40299,Jefferson County,KY,31.59126365054602,NA,NA
40324,Scott County,KY,NA,52.48508946322068,NA
40330,Mercer County,KY,NA,34.39363817097416,NA
40337,Montgomery County,KY,NA,52.23658051689861,NA
40351,Rowan County,KY,NA,8.946322067594433,NA
40353,Montgomery County,KY,NA,28.379721669980118,NA
40361,Bourbon County,KY,NA,29.721669980119287,NA
40383,Woodford County,KY,NA,44.93041749502982,NA
40391,Clark County,KY,NA,13.618290258449303,NA
40422,Boyle County,KY,NA,74.75149105367794,NA
40475,Madison County,KY,NA,5.019880715705765,NA
40504,Fayette County,KY,NA,58.25049701789264,NA
40505,Fayette County,KY,NA,16.998011928429424,NA
40508,Fayette County,KY,NA,NA,37.60683760683761
40511,Fayette County,KY,88.61154446177846,33.89662027833002,NA
40701,Whitley County,KY,26.755070202808113,NA,12.535612535612536
40741,Laurel County,KY,NA,23.807157057654074,26.21082621082621
40769,Whitley County,KY,NA,38.66799204771372,NA
40906,Knox County,KY,NA,24.254473161033797,NA
40935,Knox County,KY,NA,79.72166998011929,NA
40962,Clay County,KY,44.227769110764434,9.890656063618291,NA
40965,Bell County,KY,NA,NA,29.34472934472934
41006,Pendleton County,KY,NA,83.8469184890656,NA
41010,Grant County,KY,NA,85.53677932405567,NA
41011,Kenton County,KY,NA,27.335984095427435,NA
41014,Kenton County,KY,NA,53.03180914512923,NA
41015,Kenton County,KY,NA,68.98608349900597,NA
41016,Kenton County,KY,NA,78.37972166998011,NA
41017,Kenton County,KY,NA,50.64612326043738,NA
41030,Grant County,KY,76.13104524180967,NA,NA
41042,Boone County,KY,NA,15.705765407554672,NA
41094,Boone County,KY,NA,47.01789264413519,NA
41101,Boyd County,KY,3.8221528861154446,13.021868787276341,NA
41224,Martin County,KY,NA,42.09741550695825,NA
41230,Lawrence County,KY,31.435257410296412,NA,NA
41314,Owsley County,KY,93.21372854914196,NA,NA
41465,Magoffin County,KY,NA,37.92246520874751,NA
41701,Perry County,KY,NA,35.834990059642145,NA
42001,McCracken County,KY,36.349453978159126,NA,NA
42101,Warren County,KY,10.452418096723868,8.846918489065606,9.116809116809117
42134,Simpson County,KY,NA,30.5168986083499,NA
42141,Barren County,KY,NA,11.133200795228628,NA
42164,Allen County,KY,NA,35.834990059642145,NA
42276,Logan County,KY,45.94383775351014,61.431411530815105,NA
42301,Daviess County,KY,64.58658346333853,NA,11.396011396011396
42327,McLean County,KY,88.68954758190327,NA,NA
42366,Daviess County,KY,90.24960998439937,NA,NA
42539,Casey County,KY,60.68642745709828,NA,NA
42544,Pulaski County,KY,NA,74.3041749502982,NA
42635,McCreary County,KY,NA,90.05964214711729,NA
42701,Hardin County,KY,NA,10.337972166998012,NA
42718,Taylor County,KY,27.379095163806554,NA,NA
42754,Grayson County,KY,NA,22.664015904572565,NA
42765,Hart County,KY,NA,51.491053677932406,NA
70003,Jefferson Parish,LA,NA,40.55666003976143,NA
70006,Jefferson Parish,LA,39.23556942277691,NA,NA
70043,St. Bernard Parish,LA,NA,2.584493041749503,NA
70047,St. Charles Parish,LA,78.86115444617785,NA,NA
70058,Jefferson Parish,LA,NA,3.4791252485089466,NA
70065,Jefferson Parish,LA,1.0920436817472698,2.8330019880715707,NA
70068,St. John the Baptist Parish,LA,NA,0.4970178926441352,NA
70072,Jefferson Parish,LA,NA,NA,1.9943019943019942
70115,Orleans Parish,LA,19.34477379095164,NA,NA
70116,Orleans Parish,LA,NA,40.60636182902584,NA
70126,Orleans Parish,LA,NA,9.840954274353876,NA
70127,Orleans Parish,LA,NA,14.165009940357853,NA
70128,Orleans Parish,LA,NA,1.8389662027833,NA
70130,Orleans Parish,LA,NA,57.85288270377733,NA
70342,St. Mary Parish,LA,NA,61.82902584493042,NA
70359,Terrebonne Parish,LA,NA,6.113320079522863,NA
70360,Terrebonne Parish,LA,NA,19.433399602385688,NA
70364,Terrebonne Parish,LA,NA,4.1252485089463224,NA
70380,St. Mary Parish,LA,NA,NA,25.64102564102564
70394,Lafourche Parish,LA,NA,4.3737574552683895,NA
70401,Tangipahoa Parish,LA,NA,28.379721669980118,NA
70433,St. Tammany Parish,LA,NA,97.46520874751491,NA
70444,Tangipahoa Parish,LA,NA,7.157057654075547,NA
70445,St. Tammany Parish,LA,NA,18.041749502982107,NA
70454,Tangipahoa Parish,LA,NA,0.5964214711729622,NA
70458,St. Tammany Parish,LA,1.6380655226209049,NA,NA
70460,St. Tammany Parish,LA,NA,56.36182902584493,NA
70461,St. Tammany Parish,LA,24.492979719188767,NA,NA
70466,Tangipahoa Parish,LA,NA,14.065606361829024,NA
70471,St. Tammany Parish,LA,41.02964118564743,NA,NA
70506,Lafayette Parish,LA,70.04680187207488,22.76341948310139,NA
70507,Lafayette Parish,LA,20.67082683307332,NA,NA
70518,Lafayette Parish,LA,NA,8.250497017892645,NA
70520,Lafayette Parish,LA,NA,23.45924453280318,NA
70525,Acadia Parish,LA,37.98751950078003,NA,NA
70529,Lafayette Parish,LA,30.42121684867395,NA,NA
70533,Vermilion Parish,LA,NA,76.88866799204771,NA
70560,Iberia Parish,LA,12.948517940717629,8.548707753479125,NA
70601,Calcasieu Parish,LA,63.72854914196567,13.320079522862823,NA
70655,Allen Parish,LA,NA,29.37375745526839,NA
70665,Calcasieu Parish,LA,48.829953198127924,NA,NA
70737,Ascension Parish,LA,NA,1.242544731610338,NA
70754,Livingston Parish,LA,22.54290171606864,NA,NA
70764,Iberville Parish,LA,NA,54.72166998011928,NA
70769,Ascension Parish,LA,24.570982839313572,1.7395626242544733,NA
70775,West Feliciana Parish,LA,51.326053042121686,NA,NA
70802,East Baton Rouge Parish,LA,NA,44.433399602385684,NA
70805,East Baton Rouge Parish,LA,NA,57.10735586481114,NA
70806,East Baton Rouge Parish,LA,55.07020280811232,NA,NA
70807,East Baton Rouge Parish,LA,NA,15.25844930417495,NA
70808,East Baton Rouge Parish,LA,22.230889235569425,NA,NA
70810,East Baton Rouge Parish,LA,NA,12.673956262425449,NA
70815,East Baton Rouge Parish,LA,NA,6.262425447316103,NA
70816,East Baton Rouge Parish,LA,NA,67.74353876739563,NA
70817,East Baton Rouge Parish,LA,5.850234009360374,NA,NA
71019,Red River Parish,LA,NA,5.36779324055666,NA
71107,Caddo Parish,LA,NA,5.318091451292246,NA
71108,Caddo Parish,LA,NA,5.914512922465208,NA
71203,Ouachita Parish,LA,NA,49.30417495029821,NA
71269,Richland Parish,LA,13.884555382215288,NA,NA
71295,Franklin Parish,LA,NA,7.75347912524851,NA
71351,Avoyelles Parish,LA,NA,2.7335984095427435,NA
71360,Rapides Parish,LA,NA,0.7952286282306162,NA
71373,Concordia Parish,LA,NA,44.53280318091451,NA
71457,Natchitoches Parish,LA,NA,3.3300198807157058,NA
71467,Grant Parish,LA,NA,44.03578528827038,NA
71486,Sabine Parish,LA,NA,39.960238568588466,NA
03901,York County,ME,72.93291731669267,NA,NA
03908,York County,ME,NA,86.3817097415507,NA
04005,York County,ME,13.338533541341654,18.389662027833,NA
04009,Cumberland County,ME,NA,54.07554671968191,NA
04027,York County,ME,NA,68.389662027833,NA
04049,York County,ME,90.56162246489859,NA,NA
04071,Cumberland County,ME,72.77691107644306,NA,NA
04073,York County,ME,NA,47.365805168986086,NA
04093,York County,ME,NA,82.25646123260437,NA
04102,Cumberland County,ME,NA,18.48906560636183,NA
04105,Cumberland County,ME,85.8814352574103,NA,NA
04240,Androscoggin County,ME,NA,47.21669980119284,53.561253561253565
04250,Androscoggin County,ME,NA,83.8469184890656,NA
04345,Kennebec County,ME,51.6380655226209,NA,NA
04401,Penobscot County,ME,1.40405616224649,NA,16.80911680911681
04444,Penobscot County,ME,59.2823712948518,NA,NA
04530,Sagadahoc County,ME,NA,29.07554671968191,NA
04605,Hancock County,ME,83.22932917316692,16.202783300198806,NA
04730,Aroostook County,ME,NA,NA,95.72649572649573
04736,Aroostook County,ME,NA,74.15506958250498,NA
04769,Aroostook County,ME,NA,83.74751491053678,NA
04785,Aroostook County,ME,NA,74.3041749502982,NA
04841,Knox County,ME,NA,50.14910536779325,NA
04901,Kennebec County,ME,NA,59.29423459244533,NA
04927,Kennebec County,ME,NA,83.49900596421472,NA
04950,Somerset County,ME,51.716068642745704,NA,NA
04963,Kennebec County,ME,NA,61.431411530815105,NA
04976,Somerset County,ME,NA,34.39363817097416,NA
20602,Charles County,MD,88.45553822152887,NA,NA
20637,Charles County,MD,89.00156006240249,NA,NA
20695,Charles County,MD,77.45709828393136,NA,NA
20707,Prince George's County,MD,91.65366614664586,NA,NA
20723,Howard County,MD,53.90015600624025,NA,NA
20743,Prince George's County,MD,82.05928237129486,NA,NA
20746,Prince George's County,MD,50.390015600624025,NA,NA
20772,Prince George's County,MD,48.4399375975039,NA,NA
20782,Prince George's County,MD,86.34945397815913,NA,NA
20815,Montgomery County,MD,84.55538221528862,NA,NA
20854,Montgomery County,MD,38.61154446177847,NA,NA
20872,Montgomery County,MD,89.2355694227769,NA,NA
20878,Montgomery County,MD,31.12324492979719,NA,NA
21001,Harford County,MD,58.65834633385335,NA,NA
21015,Harford County,MD,66.61466458658346,NA,NA
21029,Howard County,MD,70.3588143525741,NA,NA
21040,Harford County,MD,36.661466458658346,NA,NA
21042,Howard County,MD,32.05928237129485,NA,NA
21043,Howard County,MD,52.652106084243364,NA,NA
21054,Anne Arundel County,MD,91.96567862714508,NA,NA
21060,Anne Arundel County,MD,80.57722308892356,NA,NA
21076,Anne Arundel County,MD,98.98595943837753,NA,NA
21085,Harford County,MD,69.03276131045241,NA,NA
21104,Carroll County,MD,99.06396255850234,NA,NA
21108,Anne Arundel County,MD,94.14976599063962,NA,NA
21113,Anne Arundel County,MD,69.96879875195008,NA,NA
21114,Anne Arundel County,MD,58.34633385335414,NA,NA
21117,Baltimore County,MD,55.30421216848674,NA,76.06837606837607
21122,Anne Arundel County,MD,48.75195007800312,NA,NA
21133,Baltimore County,MD,33.697347893915754,NA,NA
21144,Anne Arundel County,MD,79.01716068642746,NA,NA
21206,Baltimore city,MD,50.46801872074883,NA,NA
21208,Baltimore County,MD,74.02496099843994,NA,NA
21209,Baltimore County,MD,66.92667706708268,NA,NA
21212,Baltimore city,MD,90.48361934477379,99.80119284294234,NA
21218,Baltimore city,MD,47.113884555382214,NA,NA
21221,Baltimore County,MD,34.477379095163805,NA,NA
21222,Baltimore County,MD,57.800312012480504,NA,NA
21223,Baltimore city,MD,76.75507020280811,NA,NA
21226,Anne Arundel County,MD,96.56786271450858,NA,NA
21229,Baltimore city,MD,70.74882995319813,NA,NA
21230,Baltimore city,MD,95.70982839313572,NA,NA
21231,Baltimore city,MD,90.17160686427457,NA,NA
21236,Baltimore County,MD,29.407176287051485,NA,NA
21239,Baltimore city,MD,75.97503900156006,NA,NA
21244,Baltimore County,MD,14.742589703588143,NA,NA
21286,Baltimore County,MD,96.33385335413416,NA,NA
21401,Anne Arundel County,MD,82.99531981279252,NA,NA
21403,Anne Arundel County,MD,55.148205928237125,NA,NA
21601,Talbot County,MD,68.64274570982839,NA,NA
21754,Frederick County,MD,86.81747269890796,NA,NA
21774,Frederick County,MD,93.91575663026521,NA,NA
21783,Washington County,MD,82.21528861154445,NA,NA
21804,Wicomico County,MD,42.511700468018724,NA,NA
21811,Worcester County,MD,NA,NA,55.27065527065527
21901,Cecil County,MD,56.86427457098284,NA,NA
21921,Cecil County,MD,16.06864274570983,NA,NA
01001,Hampden County,MA,67.62870514820592,NA,NA
01002,Hampshire County,MA,63.57254290171607,NA,NA
01005,Worcester County,MA,NA,87.72365805168985,NA
01036,Hampden County,MA,91.65366614664586,NA,NA
01040,Hampden County,MA,NA,1.8886679920477136,NA
01060,Hampshire County,MA,NA,78.37972166998011,NA
01095,Hampden County,MA,56.240249609984396,NA,NA
01104,Hampden County,MA,NA,2.286282306163022,NA
01105,Hampden County,MA,NA,9.890656063618291,NA
01108,Hampden County,MA,NA,0.6461232604373758,NA
01109,Hampden County,MA,37.753510140405616,19.284294234592444,NA
01118,Hampden County,MA,NA,20.825049701789265,82.05128205128204
01201,Berkshire County,MA,1.794071762870515,NA,NA
01226,Berkshire County,MA,80.343213728549145,NA,NA
01238,Berkshire County,MA,NA,96.81908548707754,NA
01301,Franklin County,MA,NA,30.81510934393638,NA
01420,Worcester County,MA,NA,36.87872763419483,NA
01440,Worcester County,MA,28.39313572542902,NA,NA
01463,Middlesex County,MA,48.205928237129484,94.63220675944333,NA
01510,Worcester County,MA,60.68642745709828,NA,NA
01535,Worcester County,MA,NA,97.0675944333996,NA
01540,Worcester County,MA,74.57098283931357,NA,NA
01550,Worcester County,MA,NA,42.84294234592445,NA
01562,Worcester County,MA,NA,92.84294234592446,NA
01566,Worcester County,MA,NA,69.18489065606362,NA
01570,Worcester County,MA,10.998439937597503,NA,NA
01581,Worcester County,MA,60.218408736349446,NA,NA
01583,Worcester County,MA,93.8377535101404,NA,NA
01602,Worcester County,MA,NA,33.30019880715705,NA
01605,Worcester County,MA,NA,28.13121272365805,2.564102564102564
01606,Worcester County,MA,NA,18.290258449304176,NA
01609,Worcester County,MA,NA,6.163021868787276,NA
01610,Worcester County,MA,NA,1.3916500994035785,NA
01701,Middlesex County,MA,NA,59.5427435387674,NA
01720,Middlesex County,MA,65.83463338533542,NA,NA
01721,Middlesex County,MA,38.06552262090484,NA,NA
01752,Middlesex County,MA,5.070202808112325,NA,NA
01754,Middlesex County,MA,NA,45.37773359840954,NA
01760,Middlesex County,MA,36.27145085803432,47.912524850894634,NA
01826,Middlesex County,MA,NA,NA,25.356125356125357
01830,Essex County,MA,45.24180967238689,20.029821073558647,NA
01841,Essex County,MA,3.74414976599064,24.801192842942346,NA
01843,Essex County,MA,17.94071762870515,NA,NA
01844,Essex County,MA,NA,22.76341948310139,NA
01845,Essex County,MA,92.43369734789391,97.8131212723658,NA
01851,Middlesex County,MA,NA,4.174950298210735,NA
01854,Middlesex County,MA,2.80811232449298,51.491053677932406,NA
01862,Middlesex County,MA,62.94851794071763,NA,NA
01867,Middlesex County,MA,NA,81.41153081510934,NA
01876,Middlesex County,MA,10.60842433697348,NA,NA
01902,Essex County,MA,NA,0.049701789264413515,NA
01905,Essex County,MA,NA,24.00596421471173,NA
01906,Essex County,MA,54.36817472698908,NA,NA
01915,Essex County,MA,NA,17.395626242544733,NA
01930,Essex County,MA,NA,65.05964214711729,NA
01960,Essex County,MA,3.3541341653666144,55.21868787276342,NA
01966,Essex County,MA,NA,NA,64.1025641025641
01970,Essex County,MA,2.574102964118565,62.17693836978131,NA
01984,Essex County,MA,85.56942277691107,NA,NA
02019,Norfolk County,MA,NA,91.50099403578528,NA
02021,Norfolk County,MA,33.073322932917314,NA,NA
02030,Norfolk County,MA,94.38377535101404,NA,NA
02038,Norfolk County,MA,NA,76.93836978131213,NA
02043,Plymouth County,MA,NA,79.72166998011929,NA
02048,Bristol County,MA,30.42121684867395,8.250497017892645,NA
02052,Norfolk County,MA,47.81591263650546,NA,NA
02067,Norfolk County,MA,NA,97.61431411530815,NA
02072,Norfolk County,MA,NA,NA,36.46723646723647
02081,Norfolk County,MA,NA,45.07952286282306,NA
02115,Suffolk County,MA,NA,62.42544731610338,NA
02119,Suffolk County,MA,NA,21.719681908548708,13.675213675213676
02121,Suffolk County,MA,38.06552262090484,19.383697813121273,NA
02122,Suffolk County,MA,NA,9.74155069582505,NA
02124,Suffolk County,MA,NA,49.10536779324055,NA
02125,Suffolk County,MA,NA,NA,0.5698005698005698
02126,Suffolk County,MA,NA,14.264413518886679,NA
02127,Suffolk County,MA,12.870514820592824,49.95029821073559,NA
02128,Suffolk County,MA,NA,6.6600397614314115,NA
02130,Suffolk County,MA,11.310452418096723,57.20675944333996,1.4245014245014245
02131,Suffolk County,MA,18.330733229329173,NA,NA
02132,Suffolk County,MA,NA,86.92842942345924,NA
02136,Suffolk County,MA,5.30421216848674,5.168986083499006,NA
02143,Middlesex County,MA,NA,7.306163021868787,NA
02145,Middlesex County,MA,32.605304212168484,4.025844930417495,NA
02148,Middlesex County,MA,NA,4.721669980119284,NA
02150,Suffolk County,MA,NA,NA,0.8547008547008548
02151,Suffolk County,MA,0.7800312012480499,NA,NA
02186,Norfolk County,MA,22.152886115444616,NA,NA
02188,Norfolk County,MA,NA,96.62027833001989,NA
02189,Norfolk County,MA,NA,NA,54.131054131054135
02191,Norfolk County,MA,91.34165366614666,NA,NA
02301,Plymouth County,MA,0.078003120124805,28.677932405566605,NA
02333,Plymouth County,MA,97.19188767550702,79.22465208747515,NA
02339,Plymouth County,MA,NA,76.98807157057655,NA
02351,Plymouth County,MA,27.06708268330733,NA,17.94871794871795
02359,Plymouth County,MA,61.46645865834633,NA,NA
02368,Norfolk County,MA,NA,NA,75.21367521367522
02445,Norfolk County,MA,NA,59.59244532803181,NA
02458,Middlesex County,MA,47.269890795631824,NA,NA
02467,Norfolk County,MA,NA,63.66799204771372,NA
02468,Middlesex County,MA,76.13104524180967,NA,NA
02476,Middlesex County,MA,NA,97.11729622266402,NA
02492,Norfolk County,MA,81.1232449297972,61.82902584493042,NA
02664,Barnstable County,MA,NA,53.42942345924453,NA
02703,Bristol County,MA,NA,35.089463220675945,NA
02720,Bristol County,MA,65.13260530421216,11.43141153081511,NA
02721,Bristol County,MA,NA,14.96023856858847,NA
02723,Bristol County,MA,6.084243369734789,14.214711729622268,NA
02724,Bristol County,MA,11.934477379095163,59.940357852882705,21.937321937321936
02744,Bristol County,MA,92.74570982839313,NA,NA
02745,Bristol County,MA,26.755070202808113,NA,NA
02747,Bristol County,MA,NA,72.46520874751491,30.484330484330485
02760,Bristol County,MA,94.46177847113884,NA,NA
02777,Bristol County,MA,21.528861154446176,NA,NA
02780,Bristol County,MA,NA,39.860834990059644,0.2849002849002849
48015,Macomb County,MI,NA,87.57455268389663,54.41595441595442
48017,Oakland County,MI,NA,90.05964214711729,NA
48021,Macomb County,MI,NA,15.854870775347912,NA
48030,Oakland County,MI,NA,89.86083499005964,NA
48033,Oakland County,MI,NA,67.34592445328032,NA
48036,Macomb County,MI,NA,NA,58.119658119658126
48039,St. Clair County,MI,75.11700468018721,NA,NA
48043,Macomb County,MI,86.27145085803433,NA,NA
48047,Macomb County,MI,11.076443057722308,NA,NA
48051,Macomb County,MI,NA,47.61431411530815,NA
48060,St. Clair County,MI,6.786271450858035,14.41351888667992,NA
48065,Macomb County,MI,NA,65.95427435387674,NA
48066,Macomb County,MI,NA,24.60238568588469,NA
48071,Oakland County,MI,NA,92.9920477137177,NA
48074,St. Clair County,MI,70.82683307332293,NA,NA
48076,Oakland County,MI,40.79563182527301,83.7972166998012,NA
48080,Macomb County,MI,46.25585023400936,82.60437375745528,NA
48089,Macomb County,MI,NA,11.381709741550695,NA
48093,Macomb County,MI,62.090483619344774,NA,NA
48094,Macomb County,MI,NA,75.59642147117296,NA
48097,St. Clair County,MI,76.75507020280811,NA,NA
48101,Wayne County,MI,35.101404056162245,NA,NA
48111,Wayne County,MI,6.3962558502340086,NA,NA
48126,Wayne County,MI,6.240249609984399,NA,NA
48127,Wayne County,MI,12.168486739469579,NA,NA
48134,Wayne County,MI,NA,64.11530815109344,NA
48162,Monroe County,MI,NA,64.51292246520875,NA
48165,Oakland County,MI,NA,99.35387673956262,NA
48174,Wayne County,MI,3.9001560062402496,NA,NA
48182,Monroe County,MI,34.477379095163805,NA,NA
48184,Wayne County,MI,NA,36.43141153081511,NA
48185,Wayne County,MI,5.14820592823713,NA,7.4074074074074066
48187,Wayne County,MI,8.268330733229329,NA,NA
48188,Wayne County,MI,NA,86.82902584493041,NA
48197,Washtenaw County,MI,NA,6.908548707753479,NA
48198,Washtenaw County,MI,NA,32.55467196819086,NA
48202,Wayne County,MI,37.05148205928237,NA,NA
48203,Wayne County,MI,NA,41.84890656063619,NA
48205,Wayne County,MI,NA,3.3797216699801194,NA
48208,Wayne County,MI,NA,88.81709741550696,NA
48209,Wayne County,MI,NA,10.03976143141153,NA
48214,Wayne County,MI,NA,NA,22.507122507122507
48219,Wayne County,MI,NA,19.831013916500993,NA
48223,Wayne County,MI,NA,23.210735586481114,NA
48224,Wayne County,MI,7.644305772230889,4.423459244532803,NA
48227,Wayne County,MI,NA,1.4910536779324055,NA
48228,Wayne County,MI,NA,5.715705765407555,3.133903133903134
48237,Oakland County,MI,NA,80.16898608349901,NA
48238,Wayne County,MI,NA,12.673956262425449,NA
48240,Wayne County,MI,NA,87.72365805168985,NA
48307,Oakland County,MI,56.86427457098284,NA,NA
48309,Oakland County,MI,40.87363494539781,NA,NA
48312,Macomb County,MI,13.57254290171607,NA,NA
48327,Oakland County,MI,NA,53.03180914512923,NA
48336,Oakland County,MI,26.755070202808113,NA,NA
48340,Oakland County,MI,NA,14.363817097415508,NA
48342,Oakland County,MI,NA,93.43936381709742,NA
48346,Oakland County,MI,68.25273010920438,NA,NA
48350,Oakland County,MI,83.61934477379094,NA,NA
48415,Saginaw County,MI,NA,98.80715705765407,NA
48420,Genesee County,MI,NA,92.19681908548708,NA
48429,Shiawassee County,MI,NA,78.37972166998011,NA
48433,Genesee County,MI,28.31513260530421,NA,NA
48439,Genesee County,MI,13.884555382215288,58.94632206759444,NA
48458,Genesee County,MI,NA,77.73359840954275,NA
48503,Genesee County,MI,NA,95.02982107355865,NA
48504,Genesee County,MI,NA,89.81113320079523,49.002849002849004
48506,Genesee County,MI,NA,67.79324055666004,27.635327635327634
48507,Genesee County,MI,NA,91.79920477137176,NA
48509,Genesee County,MI,NA,99.15506958250498,NA
48532,Genesee County,MI,79.6411856474259,86.23260437375745,NA
48601,Saginaw County,MI,NA,91.74950298210736,NA
48602,Saginaw County,MI,57.33229329173167,70.52683896620279,NA
48607,Saginaw County,MI,NA,98.95626242544732,NA
48609,Saginaw County,MI,NA,98.8568588469185,NA
48637,Saginaw County,MI,90.95163806552262,NA,NA
48642,Midland County,MI,NA,49.70178926441352,NA
48650,Bay County,MI,NA,80.51689860834989,NA
48653,Roscommon County,MI,NA,67.34592445328032,NA
48661,Ogemaw County,MI,43.99375975039001,NA,NA
48708,Bay County,MI,NA,36.43141153081511,NA
48768,Tuscola County,MI,NA,36.232604373757454,NA
48829,Montcalm County,MI,NA,NA,98.86039886039886
48843,Livingston County,MI,NA,17.842942345924452,NA
48855,Livingston County,MI,NA,97.21669980119285,NA
48858,Isabella County,MI,NA,26.39165009940358,NA
48867,Shiawassee County,MI,NA,67.69383697813122,9.401709401709402
48876,Eaton County,MI,97.58190327613104,NA,NA
49001,Kalamazoo County,MI,NA,25,NA
49006,Kalamazoo County,MI,NA,60.139165009940356,NA
49024,Kalamazoo County,MI,NA,69.83101391650099,NA
49036,Branch County,MI,21.9188767550702,NA,NA
49037,Calhoun County,MI,NA,27.335984095427435,NA
49058,Barry County,MI,NA,28.379721669980118,NA
49079,Van Buren County,MI,36.349453978159126,NA,NA
49090,Van Buren County,MI,NA,73.11133200795229,NA
49093,St. Joseph County,MI,37.285491419656786,NA,NA
49201,Jackson County,MI,NA,23.210735586481114,NA
49224,Calhoun County,MI,66.38065522620906,NA,NA
49228,Lenawee County,MI,53.66614664586583,NA,NA
49269,Jackson County,MI,81.2792511700468,NA,NA
49319,Kent County,MI,NA,60.139165009940356,NA
49329,Montcalm County,MI,NA,54.771371769383705,NA
49331,Kent County,MI,55.30421216848674,NA,NA
49341,Kent County,MI,16.848673946957877,NA,NA
49423,Ottawa County,MI,NA,67.09741550695824,NA
49426,Ottawa County,MI,NA,72.56461232604374,NA
49442,Muskegon County,MI,NA,4.174950298210735,NA
49444,Muskegon County,MI,11.934477379095163,10.03976143141153,NA
49464,Ottawa County,MI,29.17316692667707,NA,NA
49503,Kent County,MI,NA,5.5168986083499005,NA
49505,Kent County,MI,NA,19.035785288270375,NA
49509,Kent County,MI,NA,8.05168986083499,NA
49512,Kent County,MI,NA,NA,85.47008547008546
49519,Kent County,MI,NA,30.8648111332008,NA
49546,Kent County,MI,NA,49.155069582504964,NA
49548,Kent County,MI,NA,31.312127236580515,NA
49738,Crawford County,MI,NA,65.95427435387674,NA
49829,Delta County,MI,37.285491419656786,45.37773359840954,NA
49849,Marquette County,MI,NA,81.610337972167,NA
49855,Marquette County,MI,22.38689547581903,75.59642147117296,NA
49920,Iron County,MI,86.81747269890796,NA,NA
49935,Iron County,MI,NA,64.7117296222664,NA
55013,Chisago County,MN,89.2355694227769,NA,NA
55016,Washington County,MN,NA,NA,86.32478632478633
55024,Dakota County,MN,NA,84.34393638170974,50.142450142450144
55025,Washington County,MN,NA,60.98409542743539,NA
55033,Dakota County,MN,34.321372854914195,24.254473161033797,NA
55044,Dakota County,MN,NA,50.84493041749503,NA
55057,Rice County,MN,NA,NA,84.9002849002849
55066,Goodhue County,MN,NA,NA,45.86894586894587
55076,Dakota County,MN,NA,NA,56.69515669515669
55082,Washington County,MN,NA,30.318091451292243,NA
55101,Ramsey County,MN,NA,63.2703777335984,NA
55103,Ramsey County,MN,46.64586583463339,NA,NA
55104,Ramsey County,MN,5.61622464898596,NA,17.37891737891738
55106,Ramsey County,MN,NA,78.92644135188867,NA
55109,Ramsey County,MN,98.4399375975039,37.92246520874751,NA
55110,Ramsey County,MN,NA,NA,74.64387464387464
55112,Ramsey County,MN,NA,64.7117296222664,NA
55117,Ramsey County,MN,NA,3.1312127236580514,NA
55118,Dakota County,MN,NA,27.335984095427435,NA
55122,Dakota County,MN,NA,NA,62.96296296296296
55123,Dakota County,MN,97.81591263650546,NA,NA
55124,Dakota County,MN,NA,88.51888667992047,NA
55127,Ramsey County,MN,NA,91.50099403578528,NA
55303,Anoka County,MN,26.287051482059283,NA,NA
55304,Anoka County,MN,10.218408736349453,34.890656063618295,NA
55305,Hennepin County,MN,NA,91.40159045725646,NA
55311,Hennepin County,MN,NA,55.46719681908549,NA
55317,Carver County,MN,69.03276131045241,NA,NA
55331,Hennepin County,MN,21.450858034321374,NA,NA
55343,Hennepin County,MN,95.00780031201248,NA,NA
55344,Hennepin County,MN,NA,49.40357852882703,87.74928774928775
55345,Hennepin County,MN,NA,39.314115308151095,NA
55350,McLeod County,MN,32.05928237129485,NA,NA
55352,Scott County,MN,89.1575663026521,NA,NA
55362,Wright County,MN,NA,NA,64.67236467236467
55369,Hennepin County,MN,NA,46.47117296222664,NA
55372,Scott County,MN,NA,62.47514910536779,NA
55378,Scott County,MN,NA,64.51292246520875,NA
55382,Stearns County,MN,98.67394695787831,NA,NA
55404,Hennepin County,MN,NA,1.0437375745526838,1.7094017094017095
55407,Hennepin County,MN,NA,4.6222664015904575,NA
55410,Hennepin County,MN,NA,81.31212723658051,NA
55411,Hennepin County,MN,NA,17.743538767395624,NA
55412,Hennepin County,MN,NA,48.9065606361829,82.33618233618233
55416,Hennepin County,MN,NA,85.2882703777336,NA
55417,Hennepin County,MN,NA,91.30218687872762,NA
55419,Hennepin County,MN,NA,9.542743538767395,NA
55420,Hennepin County,MN,NA,34.39363817097416,NA
55422,Hennepin County,MN,NA,72.91252485089463,NA
55423,Hennepin County,MN,NA,3.9761431411530817,NA
55427,Hennepin County,MN,NA,75.59642147117296,53.27635327635327
55428,Hennepin County,MN,93.60374414976599,16.35188866799205,NA
55430,Hennepin County,MN,NA,98.31013916500993,NA
55431,Hennepin County,MN,NA,50.14910536779325,NA
55434,Anoka County,MN,NA,NA,60.11396011396012
55442,Hennepin County,MN,NA,68.389662027833,NA
55443,Hennepin County,MN,NA,34.890656063618295,NA
55444,Hennepin County,MN,NA,32.20675944333996,NA
55445,Hennepin County,MN,22.38689547581903,NA,NA
55446,Hennepin County,MN,NA,94.33399602385686,NA
55448,Anoka County,MN,NA,NA,42.73504273504273
55449,Anoka County,MN,87.20748829953197,NA,NA
55709,Itasca County,MN,NA,29.37375745526839,NA
55719,St. Louis County,MN,NA,56.461232604373755,NA
55720,Carlton County,MN,NA,95.07952286282307,NA
55750,St. Louis County,MN,96.09984399375975,NA,NA
55803,St. Louis County,MN,NA,NA,65.52706552706553
55804,St. Louis County,MN,NA,NA,68.37606837606837
55806,St. Louis County,MN,NA,26.938369781312126,NA
55807,St. Louis County,MN,NA,31.36182902584493,NA
55812,St. Louis County,MN,NA,NA,76.92307692307693
55901,Olmsted County,MN,12.246489859594384,9.74155069582505,NA
55904,Olmsted County,MN,65.28861154446179,65.65606361829026,66.0968660968661
55912,Mower County,MN,44.695787831513265,75.24850894632206,NA
55944,Dodge County,MN,NA,62.47514910536779,86.6096866096866
55947,Houston County,MN,33.77535101404056,NA,NA
55955,Dodge County,MN,93.29173166926678,NA,NA
56001,Blue Earth County,MN,NA,71.02385685884693,34.18803418803419
56073,Brown County,MN,NA,79.97017892644135,NA
56093,Waseca County,MN,35.257410296411855,NA,NA
56097,Faribault County,MN,NA,65.95427435387674,NA
56175,Lyon County,MN,NA,52.48508946322068,NA
56201,Kandiyohi County,MN,31.747269890795632,82.90258449304176,NA
56258,Lyon County,MN,NA,73.60834990059642,NA
56301,Stearns County,MN,NA,30.318091451292243,NA
56303,Stearns County,MN,NA,65.85487077534792,NA
56304,Sherburne County,MN,63.57254290171607,74.60238568588468,NA
56308,Douglas County,MN,4.758190327613105,27.335984095427435,NA
56345,Morrison County,MN,NA,65.90457256461232,NA
56352,Stearns County,MN,NA,60.73558648111332,NA
56367,Benton County,MN,76.13104524180967,NA,NA
56379,Benton County,MN,81.04524180967239,38.66799204771372,82.90598290598291
56387,Stearns County,MN,NA,87.07753479125249,NA
56501,Becker County,MN,NA,36.43141153081511,NA
56520,Wilkin County,MN,NA,99.35387673956262,NA
56560,Clay County,MN,1.24804992199688,NA,NA
56573,Otter Tail County,MN,NA,93.48906560636183,NA
56623,Lake of the Woods County,MN,86.34945397815913,NA,NA
56751,Roseau County,MN,NA,88.96620278330019,NA
56763,Roseau County,MN,NA,NA,99.14529914529915
38632,DeSoto County,MS,49.765990639625585,64.11530815109344,NA
38703,Washington County,MS,NA,28.379721669980118,NA
38801,Lee County,MS,NA,21.17296222664016,NA
38824,Prentiss County,MS,82.21528861154445,NA,NA
38834,Alcorn County,MS,25.195007800312013,NA,NA
38847,Itawamba County,MS,90.56162246489859,NA,NA
38851,Chickasaw County,MS,NA,71.02385685884693,NA
38863,Pontotoc County,MS,58.81435257410297,NA,NA
38916,Calhoun County,MS,NA,76.441351888668,NA
38930,Leflore County,MS,19.50078003120125,NA,NA
39042,Rankin County,MS,19.65678627145086,NA,NA
39051,Leake County,MS,NA,69.03578528827038,NA
39071,Madison County,MS,NA,83.8469184890656,NA
39110,Madison County,MS,17.628705148205928,NA,NA
39117,Scott County,MS,45.00780031201248,58.94632206759444,NA
39153,Smith County,MS,NA,22.46520874751491,NA
39180,Warren County,MS,NA,NA,44.44444444444444
39204,Hinds County,MS,NA,29.07554671968191,NA
39206,Hinds County,MS,NA,42.34592445328032,NA
39208,Rankin County,MS,78.31513260530421,NA,NA
39213,Hinds County,MS,13.416536661466457,7.455268389662027,NA
39216,Hinds County,MS,85.33541341653667,NA,NA
39272,Hinds County,MS,NA,16.003976143141152,NA
39301,Lauderdale County,MS,49.921996879875195,20.825049701789265,NA
39305,Lauderdale County,MS,NA,85.93439363817097,NA
39307,Lauderdale County,MS,NA,76.19284294234593,NA
39345,Newton County,MS,65.75663026521062,NA,NA
39365,Neshoba County,MS,46.25585023400936,NA,NA
39401,Forrest County,MS,NA,25.39761431411531,NA
39466,Pearl River County,MS,NA,36.97813121272366,NA
39474,Jefferson Davis County,MS,NA,88.76739562624255,NA
39501,Harrison County,MS,14.040561622464898,NA,NA
39503,Harrison County,MS,NA,71.71968190854871,NA
39520,Hancock County,MS,NA,83.4493041749503,NA
39532,Harrison County,MS,NA,53.62823061630218,NA
39540,Harrison County,MS,NA,76.441351888668,NA
39564,Jackson County,MS,NA,88.02186878727635,NA
39571,Harrison County,MS,NA,20.07952286282306,NA
39601,Lincoln County,MS,39.78159126365055,NA,NA
39666,Pike County,MS,55.69422776911076,NA,NA
39667,Walthall County,MS,56.86427457098284,NA,NA
39701,Lowndes County,MS,NA,NA,63.817663817663814
39702,Lowndes County,MS,NA,30.119284294234593,NA
39773,Clay County,MS,NA,46.47117296222664,NA
63011,St. Louis County,MO,45.70982839313572,NA,NA
63026,St. Louis County,MO,NA,55.31809145129225,NA
63031,St. Louis County,MO,NA,51.8389662027833,NA
63033,St. Louis County,MO,NA,59.39363817097415,NA
63034,St. Louis County,MO,NA,58.94632206759444,NA
63074,St. Louis County,MO,NA,27.882703777335983,NA
63080,Franklin County,MO,NA,NA,45.58404558404558
63084,Franklin County,MO,NA,51.88866799204771,NA
63107,St. Louis city,MO,NA,35.089463220675945,NA
63111,St. Louis city,MO,NA,38.66799204771372,NA
63113,St. Louis city,MO,NA,66.65009940357854,NA
63114,St. Louis County,MO,NA,11.779324055666004,NA
63115,St. Louis city,MO,NA,47.912524850894634,NA
63118,St. Louis city,MO,NA,25.994035785288272,NA
63120,St. Louis city,MO,NA,55.96421471172962,NA
63121,St. Louis County,MO,NA,NA,32.763532763532766
63123,St. Louis County,MO,15.44461778471139,NA,NA
63125,St. Louis County,MO,NA,26.938369781312126,NA
63132,St. Louis County,MO,NA,64.11530815109344,NA
63134,St. Louis County,MO,NA,36.232604373757454,43.87464387464387
63135,St. Louis County,MO,NA,10.934393638170974,NA
63138,St. Louis County,MO,NA,80.66600397614314,NA
63146,St. Louis County,MO,56.552262090483616,69.58250497017893,NA
63147,St. Louis city,MO,NA,50.14910536779325,NA
63301,St. Charles County,MO,33.151326053042126,NA,NA
63304,St. Charles County,MO,NA,66.74950298210736,NA
63368,St. Charles County,MO,8.892355694227769,NA,NA
63376,St. Charles County,MO,NA,54.0258449304175,NA
63379,Lincoln County,MO,NA,96.76938369781311,NA
63390,Warren County,MO,NA,86.63021868787276,NA
63401,Marion County,MO,NA,58.94632206759444,NA
63501,Adair County,MO,NA,74.75149105367794,NA
63601,St. Francois County,MO,NA,31.660039761431413,NA
63624,St. Francois County,MO,NA,75.59642147117296,NA
63628,St. Francois County,MO,NA,30.5168986083499,NA
63650,Iron County,MO,NA,78.37972166998011,NA
63670,Ste. Genevieve County,MO,NA,22.664015904572565,NA
63701,Cape Girardeau County,MO,NA,64.96023856858847,NA
63755,Cape Girardeau County,MO,46.56786271450858,NA,NA
63780,Scott County,MO,NA,78.37972166998011,81.19658119658119
63863,Dunklin County,MO,68.01872074882995,NA,NA
64012,Cass County,MO,14.19656786271451,34.09542743538768,NA
64014,Jackson County,MO,NA,26.143141153081512,NA
64015,Jackson County,MO,NA,28.777335984095426,NA
64029,Jackson County,MO,23.01092043681747,67.79324055666004,NA
64030,Jackson County,MO,NA,13.767395626242546,NA
64052,Jackson County,MO,14.19656786271451,34.343936381709746,NA
64053,Jackson County,MO,NA,NA,77.77777777777779
64055,Jackson County,MO,NA,14.761431411530815,NA
64056,Jackson County,MO,46.64586583463339,74.10536779324056,NA
64062,Ray County,MO,58.34633385335414,NA,NA
64063,Jackson County,MO,19.18876755070203,84.5924453280318,NA
64068,Clay County,MO,0.5460218408736349,33.39960238568588,NA
64076,Lafayette County,MO,52.73010920436817,NA,NA
64080,Cass County,MO,NA,81.2624254473161,NA
64081,Jackson County,MO,30.42121684867395,83.8469184890656,NA
64082,Jackson County,MO,70.51482059282371,NA,NA
64086,Jackson County,MO,NA,51.491053677932406,NA
64089,Clay County,MO,82.52730109204369,75.59642147117296,NA
64093,Johnson County,MO,27.223088923556944,NA,NA
64106,Jackson County,MO,NA,44.03578528827038,30.76923076923077
64108,Jackson County,MO,NA,54.07554671968191,NA
64109,Jackson County,MO,NA,40.60636182902584,NA
64114,Jackson County,MO,NA,43.19085487077535,NA
64117,Clay County,MO,NA,25.795228628230614,NA
64119,Clay County,MO,7.644305772230889,NA,NA
64127,Jackson County,MO,NA,6.560636182902585,NA
64128,Jackson County,MO,NA,30.96421471172962,NA
64131,Jackson County,MO,NA,25.39761431411531,NA
64132,Jackson County,MO,NA,12.673956262425449,NA
64133,Jackson County,MO,52.34009360374415,25.39761431411531,24.216524216524217
64134,Jackson County,MO,3.1981279251170043,12.226640159045726,NA
64138,Jackson County,MO,NA,30.119284294234593,NA
64150,Platte County,MO,88.06552262090483,NA,NA
64151,Platte County,MO,NA,62.32604373757455,NA
64155,Clay County,MO,52.184087363494534,NA,NA
64424,Harrison County,MO,NA,57.306163021868784,NA
64429,Clinton County,MO,69.656786271450855,87.8727634194831,NA
64469,DeKalb County,MO,98.90795631825273,NA,NA
64503,Buchanan County,MO,NA,64.91053677932406,NA
64507,Buchanan County,MO,NA,13.320079522862823,NA
64640,Daviess County,MO,92.97971918876755,NA,NA
64735,Henry County,MO,NA,NA,63.24786324786324
64801,Jasper County,MO,NA,5.21868787276342,NA
64834,Jasper County,MO,NA,82.40556660039762,NA
64836,Jasper County,MO,26.443057722308893,45.37773359840954,20.7977207977208
64843,McDonald County,MO,NA,83.8469184890656,NA
64850,Newton County,MO,NA,15.705765407554672,NA
65201,Boone County,MO,NA,43.389662027833005,NA
65202,Boone County,MO,1.794071762870515,52.48508946322068,NA
65203,Boone County,MO,NA,76.68986083499007,NA
65233,Cooper County,MO,NA,42.34592445328032,NA
65251,Callaway County,MO,NA,27.733598409542743,NA
65270,Randolph County,MO,NA,35.089463220675945,NA
65301,Pettis County,MO,7.254290171606864,26.640159045725646,5.413105413105413
65340,Saline County,MO,NA,39.910536779324055,NA
65355,Benton County,MO,NA,36.43141153081511,NA
65453,Crawford County,MO,NA,54.771371769383705,NA
65536,Laclede County,MO,NA,72.91252485089463,NA
65559,Phelps County,MO,NA,67.34592445328032,NA
65610,Christian County,MO,NA,98.60834990059642,NA
65625,Barry County,MO,13.182527301092042,NA,NA
65689,Texas County,MO,NA,95.62624254473161,NA
65706,Webster County,MO,NA,77.63419483101391,NA
65711,Wright County,MO,NA,86.08349900596421,NA
65712,Lawrence County,MO,69.03276131045241,NA,NA
65775,Howell County,MO,NA,61.67992047713717,NA
65781,Greene County,MO,NA,53.47912524850894,NA
65785,Cedar County,MO,NA,75.29821073558648,NA
65802,Greene County,MO,NA,66.69980119284294,NA
65803,Greene County,MO,NA,65.8051689860835,NA
65806,Greene County,MO,NA,76.39165009940358,NA
65807,Greene County,MO,NA,14.96023856858847,NA
65810,Greene County,MO,80.65522620904837,NA,NA
59401,Cascade County,MT,87.75351014040562,NA,NA
59701,Silver Bow County,MT,NA,NA,60.68376068376068
59804,Missoula County,MT,71.37285491419657,NA,NA
59901,Flathead County,MT,57.488299531981276,NA,NA
68025,Dodge County,NE,8.580343213728549,NA,NA
68104,Douglas County,NE,NA,48.26043737574553,NA
68105,Douglas County,NE,NA,67.14711729622267,NA
68107,Douglas County,NE,29.329173166926676,32.65407554671968,NA
68111,Douglas County,NE,NA,24.055666003976143,NA
68116,Douglas County,NE,29.875195007800315,NA,NA
68117,Douglas County,NE,NA,71.02385685884693,NA
68118,Douglas County,NE,85.25741029641186,NA,NA
68122,Douglas County,NE,NA,87.07753479125249,NA
68128,Sarpy County,NE,NA,88.07157057654076,NA
68130,Douglas County,NE,86.81747269890796,NA,NA
68136,Sarpy County,NE,99.53198127925117,NA,NA
68137,Douglas County,NE,NA,63.66799204771372,NA
68502,Lancaster County,NE,NA,71.02385685884693,NA
68506,Lancaster County,NE,54.75819032761311,NA,NA
68508,Lancaster County,NE,NA,90.05964214711729,NA
68516,Lancaster County,NE,19.422776911076443,NA,NA
68521,Lancaster County,NE,NA,45.37773359840954,NA
68524,Lancaster County,NE,95.08580343213728,NA,NA
89101,Clark County,NV,NA,31.858846918489064,NA
89103,Clark County,NV,NA,56.461232604373755,NA
89119,Clark County,NV,NA,48.26043737574553,NA
89121,Clark County,NV,33.229329173166924,25.198807157057658,NA
89128,Clark County,NV,NA,65.05964214711729,NA
89130,Clark County,NV,59.90639625585024,NA,NA
89141,Clark County,NV,NA,93.63817097415506,NA
89142,Clark County,NV,NA,62.47514910536779,NA
89148,Clark County,NV,94.22776911076443,68.389662027833,NA
89156,Clark County,NV,NA,42.09741550695825,NA
89703,Carson City,NV,94.07176287051482,NA,NA
03038,Rockingham County,NH,14.742589703588143,NA,NA
03051,Hillsborough County,NH,24.804992199687987,NA,NA
03060,Hillsborough County,NH,NA,47.564612326043736,NA
03101,Hillsborough County,NH,NA,93.88667992047714,NA
03104,Hillsborough County,NH,NA,53.62823061630218,NA
03235,Merrimack County,NH,NA,49.40357852882703,NA
03263,Merrimack County,NH,98.12792511700468,NA,NA
03264,Grafton County,NH,77.14508580343214,NA,NA
03275,Merrimack County,NH,35.569422776911075,NA,NA
07002,Hudson County,NJ,NA,61.77932405566601,NA
07008,Middlesex County,NJ,NA,7.455268389662027,NA
07016,Union County,NJ,80.26521060842434,NA,NA
07017,Essex County,NJ,NA,72.0675944333996,NA
07018,Essex County,NJ,NA,75.19880715705766,78.34757834757835
07026,Bergen County,NJ,NA,26.68986083499006,NA
07029,Hudson County,NJ,NA,9.493041749502982,NA
07030,Hudson County,NJ,NA,NA,30.1994301994302
07032,Hudson County,NJ,NA,3.429423459244533,NA
07050,Essex County,NJ,NA,3.230616302186879,NA
07055,Passaic County,NJ,NA,0.2485089463220676,79.77207977207978
07060,Union County,NJ,NA,95.37773359840955,NA
07067,Middlesex County,NJ,NA,NA,71.50997150997152
07081,Union County,NJ,69.34477379095163,NA,NA
07083,Union County,NJ,NA,49.95029821073559,17.663817663817664
07087,Hudson County,NJ,NA,2.8827037773359843,NA
07093,Hudson County,NJ,NA,8.151093439363818,NA
07094,Hudson County,NJ,NA,95.47713717693837,NA
07095,Middlesex County,NJ,NA,90.00994035785288,NA
07102,Essex County,NJ,98.04992199687987,70.82504970178927,NA
07103,Essex County,NJ,NA,70.9741550695825,NA
07104,Essex County,NJ,2.49609984399376,65.60636182902584,NA
07105,Essex County,NJ,97.26989079563182,NA,NA
07106,Essex County,NJ,NA,94.28429423459245,NA
07107,Essex County,NJ,4.368174726989079,84.29423459244532,NA
07108,Essex County,NJ,NA,7.107355864811134,NA
07109,Essex County,NJ,NA,2.982107355864811,NA
07111,Essex County,NJ,NA,29.27435387673956,NA
07202,Union County,NJ,NA,1.143141153081511,NA
07206,Union County,NJ,NA,87.67395626242545,NA
07208,Union County,NJ,NA,1.0934393638170974,NA
07304,Hudson County,NJ,NA,82.3558648111332,NA
07305,Hudson County,NJ,NA,42.89264413518887,6.552706552706552
07306,Hudson County,NJ,NA,39.811133200795226,NA
07307,Hudson County,NJ,NA,15.159045725646122,NA
07403,Passaic County,NJ,85.8814352574103,NA,NA
07405,Morris County,NJ,97.42589703588143,NA,NA
07410,Bergen County,NJ,76.98907956318253,NA,NA
07416,Sussex County,NJ,NA,57.306163021868784,NA
07430,Bergen County,NJ,NA,NA,63.53276353276354
07442,Passaic County,NJ,NA,20.825049701789265,NA
07461,Sussex County,NJ,NA,11.182902584493041,NA
07463,Bergen County,NJ,79.71918876755069,NA,NA
07501,Passaic County,NJ,NA,0,NA
07503,Passaic County,NJ,NA,71.66998011928429,NA
07522,Passaic County,NJ,NA,NA,54.98575498575499
07524,Passaic County,NJ,NA,43.48906560636183,NA
07601,Bergen County,NJ,NA,4.274353876739562,8.262108262108262
07604,Bergen County,NJ,NA,61.82902584493042,NA
07631,Bergen County,NJ,NA,39.662027833001986,NA
07646,Bergen County,NJ,NA,99.55268389662028,NA
07701,Monmouth County,NJ,64.43057722308893,NA,NA
07712,Monmouth County,NJ,18.252730109204368,NA,NA
07724,Monmouth County,NJ,NA,15.606361829025845,NA
07731,Monmouth County,NJ,NA,30.96421471172962,NA
07734,Monmouth County,NJ,NA,99.10536779324056,23.931623931623932
07735,Monmouth County,NJ,NA,NA,34.472934472934476
07740,Monmouth County,NJ,NA,1.5904572564612325,NA
07826,Sussex County,NJ,95.78783151326053,NA,NA
07830,Hunterdon County,NJ,64.27457098283932,NA,NA
07834,Morris County,NJ,NA,NA,83.76068376068376
07840,Warren County,NJ,92.82371294851795,82.15705765407554,NA
07922,Union County,NJ,89.2355694227769,NA,NA
07933,Morris County,NJ,96.72386895475819,NA,NA
08002,Camden County,NJ,NA,18.141153081510936,NA
08021,Camden County,NJ,NA,88.91650099403579,NA
08030,Camden County,NJ,NA,97.36580516898609,NA
08036,Burlington County,NJ,NA,51.88866799204771,NA
08046,Burlington County,NJ,NA,19.582504970178928,NA
08049,Camden County,NJ,NA,21.17296222664016,NA
08050,Ocean County,NJ,NA,15.25844930417495,NA
08052,Burlington County,NJ,NA,87.92246520874751,NA
08053,Burlington County,NJ,14.118564742589705,NA,NA
08054,Burlington County,NJ,26.131045241809677,NA,NA
08055,Burlington County,NJ,NA,50.994035785288276,NA
08059,Camden County,NJ,NA,99.35387673956262,NA
08060,Burlington County,NJ,46.02184087363494,NA,NA
08063,Gloucester County,NJ,91.65366614664586,NA,NA
08069,Salem County,NJ,35.80343213728549,NA,NA
08070,Salem County,NJ,NA,37.42544731610338,NA
08079,Salem County,NJ,93.52574102964118,NA,NA
08081,Camden County,NJ,NA,82.50497017892644,NA
08085,Gloucester County,NJ,NA,87.82306163021869,NA
08087,Ocean County,NJ,NA,NA,20.51282051282051
08090,Gloucester County,NJ,86.66146645865834,NA,NA
08093,Gloucester County,NJ,NA,91.25248508946322,NA
08094,Gloucester County,NJ,33.30733229329173,9.343936381709742,NA
08096,Gloucester County,NJ,64.97659906396255,43.986083499005964,69.8005698005698
08102,Camden County,NJ,NA,95.52683896620279,NA
08103,Camden County,NJ,92.90171606864274,90.8051689860835,NA
08104,Camden County,NJ,NA,93.19085487077535,NA
08105,Camden County,NJ,NA,64.61232604373758,NA
08109,Camden County,NJ,NA,94.58250497017893,NA
08110,Camden County,NJ,NA,96.42147117296223,NA
08232,Atlantic County,NJ,NA,11.72962226640159,NA
08234,Atlantic County,NJ,NA,73.70775347912524,NA
08244,Atlantic County,NJ,62.324492979719196,NA,NA
08270,Cape May County,NJ,68.64274570982839,NA,NA
08302,Cumberland County,NJ,NA,85.43737574552684,2.2792022792022792
08318,Salem County,NJ,NA,60.73558648111332,NA
08330,Atlantic County,NJ,NA,45.62624254473161,NA
08332,Cumberland County,NJ,NA,39.065606361829026,NA
08360,Cumberland County,NJ,NA,38.17097415506958,NA
08401,Atlantic County,NJ,NA,57.50497017892644,NA
08505,Burlington County,NJ,NA,37.42544731610338,NA
08520,Mercer County,NJ,61.15444617784711,NA,NA
08527,Ocean County,NJ,16.848673946957877,16.40159045725646,NA
08540,Mercer County,NJ,26.5990639625585,NA,NA
08609,Mercer County,NJ,100,63.12127236580517,NA
08610,Mercer County,NJ,NA,92.2962226640159,NA
08611,Mercer County,NJ,NA,73.60834990059642,NA
08618,Mercer County,NJ,NA,95.57654075546719,NA
08619,Mercer County,NJ,57.87831513260531,NA,NA
08628,Mercer County,NJ,NA,72.56461232604374,NA
08638,Mercer County,NJ,NA,85.18886679920477,NA
08691,Mercer County,NJ,89.85959438377536,NA,NA
08701,Ocean County,NJ,NA,0.9443339960238568,NA
08721,Ocean County,NJ,8.814352574102964,NA,28.205128205128204
08722,Ocean County,NJ,NA,96.52087475149106,NA
08723,Ocean County,NJ,64.50858034321372,13.767395626242546,NA
08724,Ocean County,NJ,23.634945397815912,NA,52.991452991452995
08751,Ocean County,NJ,NA,88.46918489065607,NA
08753,Ocean County,NJ,6.708268330733229,NA,NA
08755,Ocean County,NJ,71.7628705148206,NA,NA
08807,Somerset County,NJ,75.50702028081123,NA,NA
08817,Middlesex County,NJ,36.817472698907956,89.76143141153081,24.501424501424502
08844,Somerset County,NJ,61.856474258970366,NA,NA
08859,Middlesex County,NJ,73.4789391575663,NA,NA
08861,Middlesex County,NJ,17.160686427457097,67.2962226640159,NA
08867,Hunterdon County,NJ,93.99375975039001,NA,NA
08869,Somerset County,NJ,72.93291731669267,NA,96.58119658119658
08873,Somerset County,NJ,NA,3.7773359840954273,NA
08884,Middlesex County,NJ,NA,90.05964214711729,NA
08901,Middlesex County,NJ,NA,0.14910536779324055,NA
87001,Sandoval County,NM,NA,72.91252485089463,NA
87026,Valencia County,NM,NA,83.59840954274354,NA
87105,Bernalillo County,NM,41.26365054602184,NA,NA
87108,Bernalillo County,NM,9.204368174726989,4.870775347912525,NA
87109,Bernalillo County,NM,NA,86.28230616302187,NA
87110,Bernalillo County,NM,NA,28.777335984095426,NA
87111,Bernalillo County,NM,NA,63.12127236580517,NA
87120,Bernalillo County,NM,NA,32.20675944333996,10.826210826210826
87121,Bernalillo County,NM,2.65210608424337,0.34791252485089463,NA
87123,Bernalillo County,NM,55.616224648985956,6.21272365805169,NA
87124,Sandoval County,NM,NA,14.96023856858847,NA
87301,McKinley County,NM,NA,48.65805168986084,NA
87325,McKinley County,NM,NA,44.03578528827038,NA
87327,Cibola County,NM,NA,NA,64.38746438746439
87328,McKinley County,NM,NA,45.07952286282306,NA
87402,San Juan County,NM,NA,65.05964214711729,NA
87413,San Juan County,NM,NA,55.46719681908549,NA
87505,Santa Fe County,NM,NA,10.58648111332008,NA
87507,Santa Fe County,NM,45.3198127925117,NA,NA
87701,San Miguel County,NM,NA,31.660039761431413,NA
88101,Curry County,NM,4.290171606864274,NA,11.11111111111111
88201,Chaves County,NM,NA,58.39960238568589,NA
88240,Lea County,NM,NA,33.64811133200795,NA
88340,Otero County,NM,90.87363494539782,NA,NA
10001,New York County,NY,45.78783151326053,NA,NA
10002,New York County,NY,NA,0.8449304174950298,NA
10009,New York County,NY,NA,40.357852882703774,NA
10011,New York County,NY,NA,78.13121272365805,41.02564102564102
10025,New York County,NY,NA,NA,7.977207977207977
10026,New York County,NY,NA,5.21868787276342,NA
10027,New York County,NY,NA,13.568588469184892,NA
10029,New York County,NY,NA,25.745526838966203,NA
10030,New York County,NY,NA,78.33001988071571,NA
10031,New York County,NY,NA,3.0318091451292246,NA
10032,New York County,NY,57.09828393135725,50.994035785288276,NA
10033,New York County,NY,NA,NA,18.51851851851852
10034,New York County,NY,NA,58.896620278330026,NA
10037,New York County,NY,NA,18.886679920477135,NA
10038,New York County,NY,NA,57.60437375745527,46.72364672364672
10039,New York County,NY,NA,87.02783300198807,NA
10040,New York County,NY,NA,NA,34.75783475783476
10301,Richmond County,NY,NA,82.05765407554672,NA
10302,Richmond County,NY,95.94383775351014,17.04771371769384,NA
10303,Richmond County,NY,NA,80.61630218687873,NA
10304,Richmond County,NY,NA,91.35188866799204,NA
10310,Richmond County,NY,NA,12.226640159045726,NA
10312,Richmond County,NY,NA,96.07355864811133,NA
10314,Richmond County,NY,NA,75.49701789264414,NA
10451,Bronx County,NY,3.978159126365054,41.05367793240557,NA
10452,Bronx County,NY,NA,73.558648111332,NA
10453,Bronx County,NY,NA,72.21669980119285,NA
10454,Bronx County,NY,NA,64.46322067594433,NA
10455,Bronx County,NY,NA,2.3856858846918487,NA
10456,Bronx County,NY,NA,37.82306163021869,0
10457,Bronx County,NY,20.59282371294852,59.493041749502986,NA
10458,Bronx County,NY,NA,70.37773359840955,NA
10459,Bronx County,NY,NA,65.00994035785288,NA
10460,Bronx County,NY,0.702028081123245,74.05566600397614,NA
10461,Bronx County,NY,16.380655226209047,31.461232604373755,NA
10462,Bronx County,NY,NA,30.268389662027833,56.12535612535613
10463,Bronx County,NY,NA,NA,10.256410256410255
10466,Bronx County,NY,NA,2.485089463220676,NA
10467,Bronx County,NY,0.31201248049922,29.32405566600398,NA
10468,Bronx County,NY,NA,18.24055666003976,NA
10469,Bronx County,NY,NA,1.7892644135188867,NA
10472,Bronx County,NY,NA,36.381709741550694,NA
10473,Bronx County,NY,NA,15.457256461232605,NA
10474,Bronx County,NY,NA,95.27833001988071,NA
10475,Bronx County,NY,NA,83.00198807157058,NA
10510,Westchester County,NY,NA,NA,98.57549857549857
10523,Westchester County,NY,NA,92.44532803180915,NA
10528,Westchester County,NY,NA,65.05964214711729,NA
10550,Westchester County,NY,NA,21.17296222664016,NA
10566,Westchester County,NY,NA,60.536779324055665,NA
10573,Westchester County,NY,82.37129485179408,NA,NA
10601,Westchester County,NY,NA,81.31212723658051,NA
10701,Westchester County,NY,NA,23.1610337972167,NA
10703,Westchester County,NY,NA,24.85089463220676,NA
10940,Orange County,NY,71.996879875195,17.147117296222664,NA
10956,Rockland County,NY,85.8814352574103,NA,NA
10977,Rockland County,NY,NA,30.96421471172962,NA
10980,Rockland County,NY,NA,NA,93.73219373219374
11010,Nassau County,NY,NA,NA,99.71509971509973
11101,Queens County,NY,NA,89.56262425447316,NA
11203,Kings County,NY,NA,44.880715705765404,NA
11204,Kings County,NY,NA,61.63021868787276,NA
11206,Kings County,NY,NA,39.761431411530815,NA
11207,Kings County,NY,NA,2.783300198807157,NA
11208,Kings County,NY,NA,82.0079522862823,NA
11209,Kings County,NY,NA,NA,35.04273504273504
11210,Kings County,NY,81.43525741029642,NA,NA
11211,Kings County,NY,NA,1.6898608349900597,NA
11212,Kings County,NY,9.98439937597504,59.89065606361829,1.1396011396011396
11213,Kings County,NY,NA,52.932405566600394,NA
11216,Kings County,NY,NA,31.958250497017893,40.17094017094017
11219,Kings County,NY,NA,10.834990059642147,15.669515669515668
11221,Kings County,NY,20.982839313572544,0.7455268389662028,NA
11225,Kings County,NY,NA,63.66799204771372,NA
11226,Kings County,NY,NA,44.483101391650095,NA
11228,Kings County,NY,51.716068642745704,NA,NA
11233,Kings County,NY,NA,7.405566600397615,NA
11234,Kings County,NY,NA,22.316103379721667,NA
11236,Kings County,NY,NA,70.47713717693837,NA
11357,Queens County,NY,NA,75.29821073558648,NA
11368,Queens County,NY,0.858034321372855,NA,NA
11377,Queens County,NY,NA,3.5288270377733597,NA
11385,Queens County,NY,NA,11.58051689860835,NA
11413,Queens County,NY,NA,20.129224652087473,NA
11414,Queens County,NY,NA,42.94234592445328,NA
11428,Queens County,NY,NA,54.07554671968191,NA
11429,Queens County,NY,50.62402496099844,NA,68.09116809116809
11432,Queens County,NY,89.93759750390015,11.630218687872764,NA
11433,Queens County,NY,NA,7.604373757455268,NA
11434,Queens County,NY,16.22464898595944,39.264413518886684,NA
11435,Queens County,NY,NA,58.64811133200796,NA
11550,Nassau County,NY,NA,8.797216699801194,NA
11558,Nassau County,NY,NA,99.75149105367794,NA
11572,Nassau County,NY,NA,95.32803180914513,NA
11691,Queens County,NY,NA,0.9940357852882704,NA
11701,Suffolk County,NY,NA,57.85288270377733,NA
11703,Suffolk County,NY,NA,79.72166998011929,NA
11704,Suffolk County,NY,NA,44.53280318091451,NA
11706,Suffolk County,NY,NA,7.75347912524851,NA
11716,Suffolk County,NY,NA,91.84890656063618,NA
11722,Suffolk County,NY,NA,10.03976143141153,NA
11746,Suffolk County,NY,NA,19.08548707753479,NA
11758,Nassau County,NY,NA,NA,90.02849002849003
11763,Suffolk County,NY,NA,50.49701789264414,NA
11798,Suffolk County,NY,NA,29.37375745526839,NA
11801,Nassau County,NY,NA,41.45129224652088,NA
11933,Suffolk County,NY,NA,84.69184890656064,NA
11950,Suffolk County,NY,NA,42.94234592445328,NA
11961,Suffolk County,NY,NA,78.37972166998011,NA
11967,Suffolk County,NY,47.81591263650546,13.320079522862823,NA
12010,Montgomery County,NY,NA,61.0337972166998,NA
12018,Rensselaer County,NY,88.68954758190327,97.96222664015905,NA
12047,Albany County,NY,NA,69.18489065606362,NA
12065,Saratoga County,NY,NA,38.41948310139165,NA
12110,Albany County,NY,NA,NA,88.6039886039886
12157,Schoharie County,NY,NA,74.20477137176938,NA
12158,Albany County,NY,95.3978159126365,NA,NA
12182,Rensselaer County,NY,23.634945397815912,NA,NA
12210,Albany County,NY,NA,61.431411530815105,NA
12303,Schenectady County,NY,NA,NA,66.95156695156696
12306,Schenectady County,NY,NA,28.379721669980118,NA
12307,Schenectady County,NY,NA,38.32007952286282,NA
12308,Schenectady County,NY,NA,66.45129224652088,NA
12401,Ulster County,NY,NA,17.842942345924452,NA
12477,Ulster County,NY,80.65522620904837,NA,NA
12508,Dutchess County,NY,NA,98.11133200795229,NA
12538,Dutchess County,NY,NA,82.60437375745528,NA
12550,Orange County,NY,NA,27.335984095427435,NA
12553,Orange County,NY,NA,86.3817097415507,NA
12601,Dutchess County,NY,98.59594383775351,50.44731610337973,NA
12701,Sullivan County,NY,NA,63.2703777335984,NA
12828,Washington County,NY,NA,75.29821073558648,NA
12831,Saratoga County,NY,NA,92.39562624254472,NA
12833,Saratoga County,NY,NA,87.07753479125249,NA
12883,Essex County,NY,74.10296411856474,NA,NA
12885,Warren County,NY,NA,73.11133200795229,NA
12901,Clinton County,NY,52.26209048361935,20.278330019880716,NA
13021,Cayuga County,NY,56.39625585023401,54.52286282306164,NA
13032,Madison County,NY,32.99531981279251,NA,NA
13039,Onondaga County,NY,NA,75.59642147117296,NA
13045,Cortland County,NY,3.58814352574103,NA,NA
13054,Oneida County,NY,99.68798751950078,NA,NA
13068,Tompkins County,NY,70.12480499219969,NA,NA
13069,Oswego County,NY,81.90327613104525,96.17296222664015,6.837606837606838
13074,Oswego County,NY,91.02964118564742,NA,NA
13078,Onondaga County,NY,NA,NA,54.700854700854705
13088,Onondaga County,NY,70.98283931357254,NA,NA
13090,Onondaga County,NY,NA,46.47117296222664,NA
13104,Onondaga County,NY,NA,90.90457256461232,NA
13114,Oswego County,NY,NA,96.81908548707754,NA
13132,Oswego County,NY,95.16380655226209,NA,NA
13135,Oswego County,NY,NA,90.90457256461232,NA
13167,Oswego County,NY,99.14196567862714,NA,NA
13202,Onondaga County,NY,NA,NA,81.76638176638177
13203,Onondaga County,NY,10.764430577223088,NA,NA
13204,Onondaga County,NY,NA,41.35188866799205,NA
13205,Onondaga County,NY,NA,NA,14.814814814814813
13206,Onondaga County,NY,NA,42.34592445328032,NA
13208,Onondaga County,NY,NA,72.11729622266402,NA
13209,Onondaga County,NY,NA,88.96620278330019,NA
13210,Onondaga County,NY,NA,NA,37.89173789173789
13211,Onondaga County,NY,NA,97.26640159045725,NA
13212,Onondaga County,NY,73.94695787831513,NA,NA
13219,Onondaga County,NY,91.49765990639625,99.2544731610338,NA
13224,Onondaga County,NY,NA,90.65606361829026,NA
13316,Oneida County,NY,62.16848673946957,NA,NA
13425,Oneida County,NY,87.75351014040562,NA,NA
13440,Oneida County,NY,NA,19.731610337972167,NA
13452,Montgomery County,NY,92.35569422776912,69.83101391650099,NA
13456,Oneida County,NY,NA,NA,90.5982905982906
13480,Oneida County,NY,NA,90.90457256461232,NA
13493,Oswego County,NY,88.53354134165366,NA,NA
13601,Jefferson County,NY,26.209048361934478,11.481113320079523,NA
13642,St. Lawrence County,NY,62.01248049921997,36.97813121272366,NA
13662,St. Lawrence County,NY,NA,16.451292246520875,NA
13730,Chenango County,NY,94.30577223088925,NA,NA
13754,Broome County,NY,NA,94.18489065606362,NA
13760,Broome County,NY,NA,32.15705765407555,NA
13778,Chenango County,NY,NA,100,NA
13790,Broome County,NY,14.430577223088923,84.64214711729622,NA
13795,Broome County,NY,76.4430577223089,99.95029821073558,NA
13820,Otsego County,NY,NA,76.98807157057655,NA
13827,Tioga County,NY,24.180967238689547,NA,NA
13838,Delaware County,NY,NA,NA,65.24216524216524
13849,Otsego County,NY,NA,80.76540755467197,NA
13850,Broome County,NY,87.2854914196568,98.35984095427436,NA
13901,Broome County,NY,NA,NA,5.128205128205128
13905,Broome County,NY,2.1840873634945397,39.115308151093444,NA
14020,Genesee County,NY,9.98439937597504,NA,NA
14025,Erie County,NY,99.84399375975039,NA,NA
14051,Erie County,NY,NA,NA,43.3048433048433
14062,Chautauqua County,NY,94.53978159126365,NA,NA
14063,Chautauqua County,NY,NA,NA,43.01994301994302
14067,Niagara County,NY,65.6786271450858,NA,NA
14072,Erie County,NY,38.53354134165367,NA,NA
14075,Erie County,NY,23.634945397815912,NA,NA
14094,Niagara County,NY,6.4742589703588145,33.69781312127236,NA
14127,Erie County,NY,40.17160686427457,NA,NA
14150,Erie County,NY,69.50078003120124,NA,NA
14206,Erie County,NY,NA,52.78330019880716,15.384615384615385
14208,Erie County,NY,NA,59.940357852882705,58.97435897435898
14209,Erie County,NY,NA,69.18489065606362,NA
14213,Erie County,NY,11.466458658346333,NA,NA
14214,Erie County,NY,NA,55.46719681908549,86.8945868945869
14218,Erie County,NY,43.21372854914197,55.46719681908549,NA
14220,Erie County,NY,NA,25.894632206759443,NA
14226,Erie County,NY,40.17160686427457,NA,NA
14304,Niagara County,NY,NA,53.976143141153074,5.982905982905983
14305,Niagara County,NY,16.69266770670827,55.31809145129225,NA
14420,Monroe County,NY,52.80811232449298,NA,NA
14424,Ontario County,NY,NA,48.01192842942346,NA
14425,Ontario County,NY,11.856474258970358,NA,NA
14428,Monroe County,NY,69.73478939157566,NA,NA
14433,Wayne County,NY,74.41497659906396,NA,NA
14450,Monroe County,NY,28.861154446177846,NA,NA
14464,Monroe County,NY,48.829953198127924,NA,96.29629629629629
14468,Monroe County,NY,64.35257410296413,NA,NA
14471,Ontario County,NY,89.2355694227769,NA,NA
14472,Monroe County,NY,67.94071762870514,NA,NA
14512,Ontario County,NY,95.78783151326053,NA,NA
14513,Wayne County,NY,8.268330733229329,NA,NA
14514,Monroe County,NY,34.63338533541342,NA,NA
14516,Wayne County,NY,90.56162246489859,NA,NA
14519,Wayne County,NY,53.51014040561623,NA,NA
14526,Monroe County,NY,46.02184087363494,NA,NA
14530,Wyoming County,NY,96.48985959438377,NA,NA
14534,Monroe County,NY,41.88767550702028,NA,NA
14551,Wayne County,NY,89.70358814352574,NA,NA
14559,Monroe County,NY,9.048361934477379,87.52485089463221,13.105413105413104
14564,Ontario County,NY,20.358814352574104,NA,NA
14580,Monroe County,NY,NA,32.65407554671968,NA
14590,Wayne County,NY,84.3213728549142,NA,NA
14605,Monroe County,NY,NA,92.19681908548708,NA
14606,Monroe County,NY,NA,54.67196819085487,NA
14609,Monroe County,NY,16.536661466458657,50.94433399602386,NA
14611,Monroe County,NY,NA,11.928429423459244,8.831908831908832
14612,Monroe County,NY,4.6021840873634945,NA,NA
14613,Monroe County,NY,NA,92.74353876739563,NA
14615,Monroe County,NY,44.227769110764434,47.01789264413519,NA
14616,Monroe County,NY,3.6661466458658345,82.45526838966202,NA
14618,Monroe County,NY,8.424336973478939,NA,NA
14621,Monroe County,NY,40.09360374414976,86.33200795228629,NA
14624,Monroe County,NY,15.678627145085802,NA,NA
14625,Monroe County,NY,35.8814352574103,NA,NA
14626,Monroe County,NY,62.558502340093604,NA,NA
14701,Chautauqua County,NY,3.5101404056162244,NA,NA
14739,Allegany County,NY,NA,91.84890656063618,NA
14760,Cattaraugus County,NY,NA,49.155069582504964,NA
14810,Steuben County,NY,18.798751950078003,72.56461232604374,NA
14812,Schuyler County,NY,92.04368174726989,NA,95.44159544159544
14830,Steuben County,NY,42.82371294851794,74.75149105367794,NA
14837,Yates County,NY,71.996879875195,NA,NA
14843,Steuben County,NY,17.004680187207487,NA,NA
14845,Chemung County,NY,87.597503900156,83.05168986083498,NA
14867,Tompkins County,NY,68.64274570982839,NA,NA
14901,Chemung County,NY,NA,82.60437375745528,NA
14904,Chemung County,NY,85.49141965678628,81.51093439363817,NA
14905,Chemung County,NY,NA,NA,100
27006,Davie County,NC,23.08892355694228,NA,NA
27007,Surry County,NC,97.03588143525741,NA,NA
27030,Surry County,NC,3.1201248049921997,NA,NA
27045,Forsyth County,NC,NA,84.49304174950298,70.08547008547008
27055,Yadkin County,NC,25.585023400936034,NA,NA
27101,Forsyth County,NC,NA,44.93041749502982,NA
27103,Forsyth County,NC,68.56474258970358,NA,NA
27105,Forsyth County,NC,NA,24.652087475149106,NA
27106,Forsyth County,NC,8.970358814352576,NA,15.0997150997151
27107,Forsyth County,NC,NA,66.45129224652088,NA
27127,Forsyth County,NC,37.83151326053042,29.62226640159046,NA
27215,Alamance County,NC,NA,23.508946322067594,NA
27217,Alamance County,NC,NA,NA,14.529914529914532
27248,Randolph County,NC,NA,81.610337972167,NA
27265,Guilford County,NC,37.285491419656786,NA,NA
27278,Orange County,NC,78.86115444617785,NA,NA
27284,Forsyth County,NC,NA,27.882703777335983,NA
27292,Davidson County,NC,NA,7.20675944333996,NA
27295,Davidson County,NC,NA,NA,23.36182336182336
27320,Rockingham County,NC,NA,10.73558648111332,NA
27330,Lee County,NC,27.53510140405616,NA,NA
27358,Guilford County,NC,74.88299531981279,NA,NA
27406,Guilford County,NC,NA,11.928429423459244,NA
27407,Guilford County,NC,NA,17.395626242544733,NA
27503,Durham County,NC,85.56942277691107,NA,NA
27513,Wake County,NC,51.17004680187207,NA,NA
27514,Orange County,NC,NA,79.72166998011929,NA
27516,Orange County,NC,87.2854914196568,NA,NA
27519,Wake County,NC,32.683307332293296,NA,NA
27525,Franklin County,NC,73.4789391575663,NA,NA
27529,Wake County,NC,NA,79.62226640159045,NA
27536,Vance County,NC,73.86895475819033,NA,NA
27537,Vance County,NC,NA,88.71769383697813,80.34188034188034
27539,Wake County,NC,44.77379095163806,NA,NA
27540,Wake County,NC,NA,88.56858846918489,NA
27546,Harnett County,NC,NA,90.90457256461232,NA
27549,Franklin County,NC,NA,50.994035785288276,NA
27560,Wake County,NC,47.581903276131044,NA,NA
27571,Wake County,NC,86.81747269890796,NA,NA
27577,Johnston County,NC,NA,29.970178926441353,NA
27597,Wake County,NC,35.8814352574103,NA,NA
27610,Wake County,NC,NA,25.39761431411531,84.33048433048434
27801,Edgecombe County,NC,NA,34.39363817097416,NA
27817,Beaufort County,NC,91.10764430577223,NA,NA
27886,Edgecombe County,NC,NA,NA,80.62678062678063
27889,Beaufort County,NC,NA,29.37375745526839,NA
27944,Perquimans County,NC,75.58502340093604,56.461232604373755,NA
27958,Currituck County,NC,72.62090483619345,NA,NA
28012,Gaston County,NC,57.09828393135725,NA,NA
28018,Rutherford County,NC,84.55538221528862,NA,NA
28043,Rutherford County,NC,NA,29.721669980119287,NA
28052,Gaston County,NC,NA,14.56262425447316,NA
28078,Mecklenburg County,NC,35.49141965678627,NA,NA
28079,Union County,NC,NA,93.53876739562624,NA
28081,Cabarrus County,NC,58.03432137285491,NA,NA
28103,Union County,NC,NA,44.03578528827038,NA
28104,Union County,NC,60.68642745709828,NA,NA
28107,Cabarrus County,NC,NA,95.17892644135189,NA
28110,Union County,NC,NA,13.320079522862823,NA
28112,Union County,NC,39.23556942277691,NA,NA
28115,Iredell County,NC,NA,35.536779324055665,NA
28120,Gaston County,NC,NA,67.34592445328032,NA
28144,Rowan County,NC,NA,45.37773359840954,NA
28146,Rowan County,NC,NA,33.39960238568588,NA
28147,Rowan County,NC,50,NA,NA
28160,Rutherford County,NC,NA,98.2107355864811,NA
28202,Mecklenburg County,NC,NA,97.31610337972168,NA
28203,Mecklenburg County,NC,NA,92.14711729622267,NA
28205,Mecklenburg County,NC,NA,86.18290258449304,NA
28208,Mecklenburg County,NC,NA,31.610337972166995,NA
28211,Mecklenburg County,NC,NA,77.38568588469185,NA
28212,Mecklenburg County,NC,NA,89.46322067594433,NA
28214,Mecklenburg County,NC,NA,64.7117296222664,NA
28215,Mecklenburg County,NC,NA,56.411530815109344,NA
28216,Mecklenburg County,NC,NA,5.019880715705765,NA
28217,Mecklenburg County,NC,NA,37.92246520874751,NA
28227,Mecklenburg County,NC,58.73634945397816,53.28031809145129,22.79202279202279
28269,Mecklenburg County,NC,NA,32.10735586481113,NA
28277,Mecklenburg County,NC,28.549141965678626,NA,NA
28278,Mecklenburg County,NC,NA,67.79324055666004,NA
28303,Cumberland County,NC,50,NA,NA
28305,Cumberland County,NC,NA,93.88667992047714,NA
28306,Bladen County,NC,78.39313572542902,NA,NA
28337,Bladen County,NC,NA,67.34592445328032,NA
28348,Cumberland County,NC,NA,49.35387673956262,NA
28364,Robeson County,NC,NA,NA,45.2991452991453
28365,Wayne County,NC,53.27613104524181,NA,NA
28384,Bladen County,NC,NA,69.83101391650099,NA
28401,New Hanover County,NC,NA,50.14910536779325,NA
28411,New Hanover County,NC,58.97035881435257,NA,38.46153846153847
28412,New Hanover County,NC,NA,33.05168986083499,NA
28453,Duplin County,NC,NA,87.07753479125249,NA
28551,Lenoir County,NC,NA,NA,57.83475783475783
28560,Craven County,NC,NA,27.335984095427435,31.908831908831907
28602,Catawba County,NC,38.61154446177847,NA,NA
28630,Caldwell County,NC,NA,58.69781312127237,NA
28642,Yadkin County,NC,67.31669266770672,NA,NA
28645,Caldwell County,NC,NA,6.063618290258449,NA
28655,Burke County,NC,72.85491419656786,16.600397614314115,NA
28659,Wilkes County,NC,NA,43.48906560636183,NA
28711,Buncombe County,NC,57.56630265210608,NA,NA
28716,Haywood County,NC,61.31045241809673,NA,NA
28719,Jackson County,NC,NA,7.604373757455268,NA
28731,Henderson County,NC,NA,83.05168986083498,NA
28732,Henderson County,NC,42.74570982839314,NA,NA
28734,Macon County,NC,NA,23.807157057654074,18.803418803418804
28779,Jackson County,NC,NA,32.30616302186879,NA
28791,Henderson County,NC,NA,48.26043737574553,NA
28792,Henderson County,NC,54.60218408736349,NA,NA
28803,Buncombe County,NC,41.80967238689547,NA,NA
28901,Cherokee County,NC,NA,NA,94.01709401709401
58078,Cass County,ND,7.098283931357255,7.75347912524851,NA
58103,Cass County,ND,NA,79.17495029821073,NA
58104,Cass County,ND,NA,15.357852882703776,NA
58237,Walsh County,ND,NA,33.39960238568588,NA
58501,Burleigh County,ND,30.187207488299535,NA,NA
58503,Burleigh County,ND,61.70046801872074,NA,NA
58577,McLean County,ND,96.8798751950078,NA,NA
58763,Mountrail County,ND,89.2355694227769,NA,NA
58801,Williams County,ND,8.658346333853356,NA,NA
43004,Franklin County,OH,NA,14.761431411530815,69.23076923076923
43015,Delaware County,OH,NA,8.101391650099403,17.094017094017094
43031,Licking County,OH,NA,71.02385685884693,NA
43044,Champaign County,OH,65.44461778471138,NA,NA
43055,Licking County,OH,NA,8.697813121272366,NA
43056,Licking County,OH,NA,24.254473161033797,NA
43064,Madison County,OH,NA,NA,79.2022792022792
43068,Franklin County,OH,2.730109204368175,7.604373757455268,NA
43074,Delaware County,OH,NA,81.610337972167,NA
43078,Champaign County,OH,NA,13.320079522862823,NA
43082,Delaware County,OH,NA,39.314115308151095,NA
43105,Fairfield County,OH,NA,65.95427435387674,NA
43110,Franklin County,OH,17.394695787831512,NA,NA
43113,Pickaway County,OH,NA,53.37972166998012,NA
43123,Franklin County,OH,0.46801872074883,NA,NA
43130,Fairfield County,OH,NA,5.616302186878728,NA
43138,Hocking County,OH,NA,6.262425447316103,NA
43147,Fairfield County,OH,18.642745709828393,NA,NA
43203,Franklin County,OH,NA,42.94234592445328,NA
43204,Franklin County,OH,NA,35.437375745526836,NA
43205,Franklin County,OH,NA,64.66202783300199,NA
43206,Franklin County,OH,NA,46.47117296222664,14.245014245014245
43207,Franklin County,OH,NA,26.789264413518886,NA
43211,Franklin County,OH,NA,0.3976143141153081,12.250712250712251
43213,Franklin County,OH,5.928237129485179,0.44731610337972166,NA
43214,Franklin County,OH,NA,NA,47.863247863247864
43219,Franklin County,OH,NA,33.25049701789264,NA
43223,Franklin County,OH,NA,57.75347912524851,NA
43224,Franklin County,OH,2.418096723868955,1.2922465208747516,7.122507122507122
43227,Franklin County,OH,1.5600624024960998,49.90059642147117,NA
43228,Franklin County,OH,57.41029641185648,5.417495029821073,4.5584045584045585
43229,Franklin County,OH,NA,8.449304174950298,NA
43230,Franklin County,OH,5.77223088923557,NA,NA
43231,Franklin County,OH,NA,2.3359840954274356,NA
43232,Franklin County,OH,34.24336973478939,3.5785288270377733,NA
43302,Marion County,OH,NA,2.2365805168986084,NA
43331,Logan County,OH,NA,36.43141153081511,NA
43420,Sandusky County,OH,NA,42.54473161033797,NA
43452,Ottawa County,OH,NA,72.51491053677933,NA
43512,Defiance County,OH,NA,24.254473161033797,NA
43521,Fulton County,OH,85.41341653666147,NA,NA
43528,Lucas County,OH,66.06864274570982,NA,NA
43551,Wood County,OH,NA,35.536779324055665,NA
43558,Fulton County,OH,NA,72.56461232604374,NA
43604,Lucas County,OH,NA,29.721669980119287,NA
43605,Lucas County,OH,NA,26.838966202783297,NA
43606,Lucas County,OH,8.736349453978159,NA,NA
43611,Lucas County,OH,51.5600624024961,22.01789264413519,NA
43612,Lucas County,OH,2.3400936037441498,34.09542743538768,NA
43613,Lucas County,OH,NA,8.548707753479125,NA
43614,Lucas County,OH,18.096723868954758,30.96421471172962,NA
43615,Lucas County,OH,NA,4.870775347912525,4.843304843304843
43701,Muskingum County,OH,63.962558502340094,NA,NA
43713,Belmont County,OH,77.84711388455538,80.71570576540755,NA
43725,Guernsey County,OH,15.132605304212168,NA,NA
43748,Perry County,OH,NA,85.53677932405567,NA
43764,Perry County,OH,NA,62.47514910536779,NA
43793,Monroe County,OH,NA,93.24055666003976,NA
43812,Coshocton County,OH,NA,5.964214711729622,NA
43830,Muskingum County,OH,NA,63.66799204771372,NA
43907,Harrison County,OH,NA,41.8986083499006,NA
43910,Jefferson County,OH,93.75975039001561,NA,NA
43920,Columbiana County,OH,7.410296411856475,NA,NA
43935,Belmont County,OH,NA,13.618290258449303,NA
43950,Belmont County,OH,NA,71.76938369781311,41.88034188034188
44004,Ashtabula County,OH,0.62402496099844,NA,NA
44012,Lorain County,OH,29.485179407176286,NA,NA
44017,Cuyahoga County,OH,NA,20.825049701789265,NA
44030,Ashtabula County,OH,31.903276131045246,NA,26.495726495726498
44044,Lorain County,OH,40.48361934477379,NA,NA
44047,Ashtabula County,OH,53.43213728549142,NA,NA
44053,Lorain County,OH,NA,25.894632206759443,NA
44054,Lorain County,OH,NA,83.8469184890656,NA
44057,Lake County,OH,NA,18.78727634194831,NA
44067,Summit County,OH,49.37597503900156,NA,NA
44077,Lake County,OH,4.212168486739469,NA,NA
44087,Summit County,OH,19.890795631825274,NA,NA
44102,Cuyahoga County,OH,0,20.47713717693837,NA
44104,Cuyahoga County,OH,NA,31.36182902584493,NA
44105,Cuyahoga County,OH,NA,4.821073558648111,NA
44107,Cuyahoga County,OH,NA,12.176938369781313,NA
44108,Cuyahoga County,OH,NA,NA,3.7037037037037033
44109,Cuyahoga County,OH,0.234009360374415,11.332007952286283,NA
44110,Cuyahoga County,OH,43.7597503900156,50.49701789264414,NA
44111,Cuyahoga County,OH,1.1700468018720749,30.417495029821072,2.849002849002849
44112,Cuyahoga County,OH,NA,33.94632206759443,NA
44114,Cuyahoga County,OH,74.72698907956318,NA,NA
44115,Cuyahoga County,OH,NA,58.74751491053678,NA
44120,Cuyahoga County,OH,NA,19.234592445328033,4.273504273504273
44123,Cuyahoga County,OH,NA,29.62226640159046,NA
44128,Cuyahoga County,OH,8.11232449297972,NA,NA
44130,Cuyahoga County,OH,NA,2.0874751491053676,NA
44135,Cuyahoga County,OH,NA,4.7713717693836974,3.9886039886039883
44137,Cuyahoga County,OH,NA,NA,7.6923076923076925
44142,Cuyahoga County,OH,NA,NA,29.629629629629626
44143,Cuyahoga County,OH,NA,30.119284294234593,NA
44144,Cuyahoga County,OH,12.558502340093602,15.606361829025845,NA
44146,Cuyahoga County,OH,NA,22.86282306163022,NA
44147,Cuyahoga County,OH,34.321372854914195,57.85288270377733,NA
44149,Cuyahoga County,OH,55.92823712948518,NA,NA
44203,Summit County,OH,NA,1.341948310139165,NA
44221,Summit County,OH,NA,19.731610337972167,NA
44223,Summit County,OH,NA,46.12326043737575,NA
44224,Summit County,OH,9.594383775351014,NA,NA
44231,Portage County,OH,NA,86.97813121272365,NA
44236,Summit County,OH,NA,92.89264413518886,NA
44255,Portage County,OH,NA,79.52286282306163,NA
44256,Medina County,OH,0.93603744149766,63.51888667992047,NA
44260,Portage County,OH,47.34789391575663,NA,NA
44266,Portage County,OH,NA,14.314115308151093,NA
44270,Wayne County,OH,NA,57.60437375745527,NA
44278,Summit County,OH,NA,51.491053677932406,NA
44281,Medina County,OH,20.904836193447736,NA,25.071225071225072
44302,Summit County,OH,NA,77.38568588469185,NA
44305,Summit County,OH,4.914196567862715,4.52286282306163,NA
44310,Summit County,OH,NA,37.32604373757455,NA
44311,Summit County,OH,NA,22.86282306163022,NA
44313,Summit County,OH,12.402496099843994,74.70178926441352,NA
44314,Summit County,OH,5.382215288611544,NA,NA
44320,Summit County,OH,NA,NA,19.08831908831909
44406,Mahoning County,OH,13.182527301092042,NA,NA
44410,Trumbull County,OH,NA,NA,39.6011396011396
44425,Trumbull County,OH,NA,70.67594433399603,NA
44460,Columbiana County,OH,NA,11.033797216699801,NA
44481,Trumbull County,OH,67.00468018720748,NA,NA
44483,Trumbull County,OH,NA,12.375745526838966,NA
44502,Mahoning County,OH,NA,21.918489065606362,NA
44505,Mahoning County,OH,10.14040561622465,NA,NA
44511,Mahoning County,OH,NA,25.39761431411531,NA
44512,Mahoning County,OH,NA,9.642147117296222,NA
44515,Mahoning County,OH,14.664586583463338,NA,NA
44601,Stark County,OH,4.6801872074882995,11.630218687872764,NA
44615,Carroll County,OH,NA,NA,71.7948717948718
44622,Tuscarawas County,OH,NA,13.767395626242546,NA
44644,Carroll County,OH,NA,94.53280318091451,NA
44657,Stark County,OH,NA,42.34592445328032,NA
44663,Tuscarawas County,OH,54.29017160686428,72.26640159045725,NA
44667,Wayne County,OH,NA,65.95427435387674,NA
44676,Wayne County,OH,NA,74.75149105367794,NA
44683,Tuscarawas County,OH,NA,90.85487077534792,NA
44691,Wayne County,OH,NA,NA,9.686609686609685
44705,Stark County,OH,NA,12.375745526838966,NA
44707,Stark County,OH,NA,34.39363817097416,NA
44708,Stark County,OH,NA,18.389662027833,NA
44709,Stark County,OH,NA,38.66799204771372,NA
44714,Stark County,OH,74.9609984399376,NA,NA
44720,Stark County,OH,NA,NA,31.339031339031337
44805,Ashland County,OH,48.361934477379094,9.343936381709742,NA
44814,Erie County,OH,91.65366614664586,NA,NA
44820,Crawford County,OH,21.996879875195006,3.876739562624255,NA
44857,Huron County,OH,12.714508580343214,NA,NA
44870,Erie County,OH,NA,35.089463220675945,NA
44883,Seneca County,OH,NA,43.48906560636183,NA
44903,Richland County,OH,NA,32.007952286282304,NA
44906,Richland County,OH,NA,27.882703777335983,NA
44907,Richland County,OH,NA,13.966202783300199,NA
45011,Butler County,OH,62.792511700468026,4.075546719681909,NA
45013,Butler County,OH,12.948517940717629,3.7276341948310137,56.12535612535613
45014,Butler County,OH,NA,14.115308151093439,NA
45030,Hamilton County,OH,NA,46.86878727634195,NA
45036,Warren County,OH,7.020280811232449,66.74950298210736,NA
45040,Warren County,OH,6.5522620904836195,NA,NA
45042,Butler County,OH,NA,80.06958250497019,NA
45056,Butler County,OH,NA,68.389662027833,NA
45067,Butler County,OH,NA,89.96023856858847,NA
45103,Clermont County,OH,NA,18.78727634194831,NA
45120,Clermont County,OH,NA,98.45924453280318,NA
45133,Highland County,OH,NA,53.47912524850894,NA
45140,Clermont County,OH,6.6302652106084246,NA,NA
45154,Brown County,OH,53.198127925117,NA,NA
45176,Clermont County,OH,NA,56.461232604373755,NA
45177,Clinton County,OH,NA,42.54473161033797,NA
45202,Hamilton County,OH,22.074882995319815,25.39761431411531,NA
45204,Hamilton County,OH,67.31669266770672,NA,NA
45205,Hamilton County,OH,NA,9.244532803180915,NA
45207,Hamilton County,OH,NA,49.6520874751491,NA
45211,Hamilton County,OH,NA,38.17097415506958,NA
45213,Hamilton County,OH,NA,60.139165009940356,NA
45214,Hamilton County,OH,NA,69.0854870775348,NA
45215,Hamilton County,OH,NA,28.727634194831015,NA
45216,Hamilton County,OH,NA,17.594433399602387,NA
45217,Hamilton County,OH,NA,34.39363817097416,NA
45220,Hamilton County,OH,NA,23.508946322067594,NA
45223,Hamilton County,OH,25.039001560062403,NA,NA
45224,Hamilton County,OH,NA,80.76540755467197,NA
45225,Hamilton County,OH,NA,34.39363817097416,NA
45229,Hamilton County,OH,NA,28.777335984095426,NA
45230,Hamilton County,OH,NA,12.375745526838966,NA
45231,Hamilton County,OH,5.538221528861154,NA,NA
45232,Hamilton County,OH,NA,10.03976143141153,NA
45236,Hamilton County,OH,NA,49.70178926441352,NA
45237,Hamilton County,OH,NA,21.669980119284293,NA
45238,Hamilton County,OH,NA,35.48707753479125,16.524216524216524
45239,Hamilton County,OH,41.34165366614664,58.30019880715705,NA
45240,Hamilton County,OH,6.162246489859594,48.956262425447314,NA
45246,Hamilton County,OH,71.996879875195,NA,NA
45251,Hamilton County,OH,41.88767550702028,18.041749502982107,NA
45320,Preble County,OH,NA,18.48906560636183,NA
45324,Greene County,OH,NA,22.61431411530815,NA
45331,Darke County,OH,28.003120124804994,NA,NA
45338,Preble County,OH,NA,93.09145129224652,NA
45342,Montgomery County,OH,NA,6.610337972166998,NA
45344,Clark County,OH,NA,28.777335984095426,NA
45347,Preble County,OH,NA,NA,72.36467236467237
45356,Miami County,OH,NA,45.77534791252485,NA
45373,Miami County,OH,NA,16.749502982107355,NA
45381,Preble County,OH,NA,50.64612326043738,NA
45405,Montgomery County,OH,NA,42.2962226640159,NA
45406,Montgomery County,OH,NA,5.864811133200795,NA
45410,Montgomery County,OH,NA,41.00397614314115,NA
45414,Montgomery County,OH,NA,65.55666003976143,NA
45417,Montgomery County,OH,NA,10.288270377733598,NA
45420,Montgomery County,OH,17.784711388455538,55.815109343936385,NA
45424,Montgomery County,OH,44.46177847113885,7.5546719681908545,NA
45431,Montgomery County,OH,NA,29.721669980119287,NA
45449,Montgomery County,OH,10.9204368174727,33.94632206759443,NA
45458,Montgomery County,OH,NA,80.21868787276341,NA
45601,Ross County,OH,NA,0.5467196819085487,NA
45614,Gallia County,OH,NA,33.69781312127236,NA
45631,Gallia County,OH,NA,54.07554671968191,NA
45638,Lawrence County,OH,NA,30.5168986083499,NA
45640,Jackson County,OH,NA,20.825049701789265,NA
45648,Scioto County,OH,52.02808112324493,NA,NA
45651,Vinton County,OH,NA,38.66799204771372,NA
45656,Jackson County,OH,NA,32.65407554671968,NA
45661,Pike County,OH,NA,23.757455268389663,NA
45662,Scioto County,OH,NA,9.04572564612326,NA
45690,Pike County,OH,25.507020280811233,44.38369781312127,NA
45692,Jackson County,OH,NA,9.145129224652088,NA
45693,Adams County,OH,NA,46.12326043737575,NA
45701,Athens County,OH,41.73166926677067,NA,NA
45750,Washington County,OH,18.876755070202808,NA,NA
45760,Meigs County,OH,NA,89.51292246520875,NA
45764,Athens County,OH,NA,37.42544731610338,NA
45769,Meigs County,OH,NA,75.59642147117296,NA
45771,Meigs County,OH,NA,26.938369781312126,NA
45804,Allen County,OH,NA,13.966202783300199,13.96011396011396
45840,Hancock County,OH,NA,24.055666003976143,NA
73008,Oklahoma County,OK,NA,1.9880715705765408,NA
73025,Oklahoma County,OK,60.68642745709828,NA,NA
73036,Canadian County,OK,NA,57.85288270377733,NA
73044,Logan County,OK,NA,35.834990059642145,NA
73068,Cleveland County,OK,NA,84.34393638170974,NA
73069,Cleveland County,OK,NA,74.75149105367794,NA
73071,Cleveland County,OK,24.960998439937597,NA,NA
73072,Cleveland County,OK,29.6411856474259,NA,NA
73077,Noble County,OK,NA,82.60437375745528,NA
73120,Oklahoma County,OK,NA,56.461232604373755,NA
73142,Oklahoma County,OK,NA,63.66799204771372,NA
73160,Cleveland County,OK,NA,96.3220675944334,NA
73401,Carter County,OK,NA,39.214711729622266,NA
73501,Comanche County,OK,NA,73.11133200795229,NA
73507,Comanche County,OK,32.293291731669264,NA,NA
73701,Garfield County,OK,41.107644305772226,NA,NA
73801,Woodward County,OK,NA,54.771371769383705,NA
74115,Tulsa County,OK,NA,20.72564612326044,NA
74127,Tulsa County,OK,70.51482059282371,NA,NA
74301,Craig County,OK,NA,NA,57.26495726495726
74354,Ottawa County,OK,63.338533541341654,NA,NA
74701,Bryan County,OK,NA,76.19284294234593,NA
74801,Pottawatomie County,OK,NA,33.69781312127236,NA
74820,Pontotoc County,OK,39.46957878315133,5.019880715705765,NA
74884,Seminole County,OK,NA,49.40357852882703,NA
74948,Sequoyah County,OK,NA,NA,83.1908831908832
97005,Washington County,OR,NA,NA,47.293447293447294
97013,Clackamas County,OR,53.90015600624025,NA,NA
97024,Multnomah County,OR,NA,NA,61.53846153846154
97031,Hood River County,OR,93.44773790951638,NA,NA
97045,Clackamas County,OR,NA,41.8986083499006,NA
97048,Columbia County,OR,91.41965678627145,NA,NA
97051,Columbia County,OR,54.36817472698908,NA,NA
97123,Washington County,OR,NA,19.930417495029822,NA
97140,Washington County,OR,64.04056162246489,NA,NA
97202,Multnomah County,OR,NA,88.96620278330019,NA
97210,Multnomah County,OR,67.31669266770672,NA,NA
97230,Multnomah County,OR,NA,23.210735586481114,NA
97233,Multnomah County,OR,NA,13.170974155069581,NA
97236,Multnomah County,OR,NA,16.302186878727635,NA
97266,Multnomah County,OR,NA,29.07554671968191,NA
97301,Marion County,OR,NA,11.033797216699801,NA
97303,Marion County,OR,NA,35.536779324055665,NA
97306,Marion County,OR,92.27769110764432,NA,NA
97322,Linn County,OR,NA,22.86282306163022,16.23931623931624
97368,Lincoln County,OR,NA,80.21868787276341,NA
97402,Lane County,OR,46.80187207488299,NA,NA
97444,Curry County,OR,NA,NA,85.75498575498575
97471,Douglas County,OR,NA,NA,19.65811965811966
97601,Klamath County,OR,NA,NA,19.943019943019944
97603,Klamath County,OR,NA,29.07554671968191,NA
97818,Morrow County,OR,59.2823712948518,NA,NA
97850,Union County,OR,28.861154446177846,NA,NA
15057,Washington County,PA,35.17940717628705,NA,NA
15068,Westmoreland County,PA,NA,53.77733598409543,21.082621082621085
15101,Allegheny County,PA,79.40717628705148,NA,NA
15104,Allegheny County,PA,NA,99.6520874751491,NA
15112,Allegheny County,PA,NA,65.05964214711729,NA
15126,Allegheny County,PA,NA,69.83101391650099,NA
15133,Allegheny County,PA,NA,98.9065606361829,NA
15137,Allegheny County,PA,NA,52.23658051689861,NA
15147,Allegheny County,PA,NA,30.5168986083499,NA
15148,Allegheny County,PA,NA,77.78330019880715,NA
15202,Allegheny County,PA,92.1996879875195,55.46719681908549,NA
15210,Allegheny County,PA,NA,94.93041749502981,NA
15211,Allegheny County,PA,NA,80.76540755467197,NA
15212,Allegheny County,PA,NA,15.705765407554672,NA
15214,Allegheny County,PA,NA,16.003976143141152,NA
15216,Allegheny County,PA,27.45709828393136,75.29821073558648,NA
15226,Allegheny County,PA,61.77847113884556,NA,NA
15228,Allegheny County,PA,NA,81.610337972167,NA
15229,Allegheny County,PA,32.683307332293296,NA,NA
15235,Allegheny County,PA,61.856474258970366,97.4155069582505,NA
15243,Allegheny County,PA,NA,88.07157057654076,NA
15301,Washington County,PA,NA,26.838966202783297,29.914529914529915
15320,Greene County,PA,NA,80.76540755467197,NA
15401,Fayette County,PA,NA,12.673956262425449,NA
15425,Fayette County,PA,NA,39.314115308151095,NA
15461,Fayette County,PA,NA,93.7375745526839,NA
15501,Somerset County,PA,NA,62.47514910536779,NA
15552,Somerset County,PA,NA,69.18489065606362,NA
15601,Westmoreland County,PA,17.706708268330733,14.41351888667992,NA
15650,Westmoreland County,PA,19.266770670826833,NA,NA
15801,Clearfield County,PA,21.606864274570984,17.594433399602387,NA
15902,Cambria County,PA,NA,51.88866799204771,NA
15905,Cambria County,PA,56.16224648985959,NA,NA
16002,Butler County,PA,NA,21.47117296222664,NA
16066,Butler County,PA,NA,47.365805168986086,NA
16101,Lawrence County,PA,NA,24.055666003976143,NA
16146,Mercer County,PA,NA,19.135188866799204,NA
16148,Mercer County,PA,NA,41.10337972166998,NA
16214,Clarion County,PA,NA,54.07554671968191,NA
16335,Crawford County,PA,64.66458658346333,47.31610337972167,NA
16509,Erie County,PA,NA,58.94632206759444,NA
16833,Clearfield County,PA,63.18252730109204,NA,NA
17011,Cumberland County,PA,80.18720748829952,NA,NA
17013,Cumberland County,PA,NA,31.660039761431413,NA
17015,Cumberland County,PA,NA,54.07554671968191,NA
17019,York County,PA,32.293291731669264,NA,NA
17022,Lancaster County,PA,NA,NA,85.75498575498575
17025,Cumberland County,PA,90.56162246489859,NA,NA
17033,Dauphin County,PA,3.2761310452418098,NA,NA
17036,Dauphin County,PA,18.018720748829953,NA,NA
17042,Lebanon County,PA,NA,NA,6.267806267806268
17044,Mifflin County,PA,17.238689547581902,NA,NA
17046,Lebanon County,PA,77.37909516380655,NA,NA
17050,Cumberland County,PA,21.76287051482059,NA,NA
17055,Cumberland County,PA,19.890795631825274,NA,NA
17057,Dauphin County,PA,63.260530421216856,NA,NA
17070,Cumberland County,PA,47.81591263650546,NA,NA
17078,Lebanon County,PA,73.32293291731669,NA,NA
17103,Dauphin County,PA,32.215288611544466,41.30218687872764,NA
17111,Dauphin County,PA,78.78315132605304,NA,NA
17201,Franklin County,PA,41.41965678627145,34.990059642147116,NA
17225,Franklin County,PA,NA,67.14711729622267,NA
17257,Cumberland County,PA,29.7191887675507,NA,NA
17268,Franklin County,PA,59.51638065522621,NA,NA
17315,York County,PA,NA,NA,73.50427350427351
17316,Adams County,PA,NA,83.05168986083498,NA
17324,Cumberland County,PA,70.98283931357254,NA,NA
17331,York County,PA,4.446177847113884,63.66799204771372,NA
17345,York County,PA,NA,84.69184890656064,NA
17362,York County,PA,NA,65.05964214711729,NA
17404,York County,PA,NA,23.807157057654074,NA
17517,Lancaster County,PA,NA,NA,78.63247863247864
17601,Lancaster County,PA,27.92511700468019,NA,NA
17603,Lancaster County,PA,NA,25.09940357852883,NA
17756,Lycoming County,PA,44.07176287051482,NA,NA
17821,Montour County,PA,19.65678627145086,NA,NA
17844,Union County,PA,NA,88.07157057654076,NA
17851,Northumberland County,PA,36.349453978159126,NA,NA
17857,Northumberland County,PA,NA,61.82902584493042,NA
17872,Northumberland County,PA,NA,50.994035785288276,42.16524216524217
17901,Schuylkill County,PA,NA,33.05168986083499,NA
18013,Northampton County,PA,68.95475819032761,NA,NA
18015,Northampton County,PA,NA,41.45129224652088,NA
18018,Lehigh County,PA,NA,49.005964214711724,NA
18020,Northampton County,PA,NA,62.47514910536779,NA
18038,Northampton County,PA,94.61778471138845,NA,NA
18040,Northampton County,PA,83.61934477379094,NA,NA
18042,Northampton County,PA,NA,7.75347912524851,NA
18058,Monroe County,PA,NA,78.37972166998011,NA
18088,Northampton County,PA,22.698907956318255,NA,NA
18102,Lehigh County,PA,7.17628705148206,13.12127236580517,NA
18104,Lehigh County,PA,12.714508580343214,13.170974155069581,NA
18109,Lehigh County,PA,NA,67.34592445328032,NA
18229,Carbon County,PA,NA,94.68190854870775,NA
18252,Schuylkill County,PA,NA,73.75745526838966,53.84615384615385
18301,Monroe County,PA,NA,20.825049701789265,NA
18407,Lackawanna County,PA,NA,51.491053677932406,NA
18411,Lackawanna County,PA,33.77535101404056,NA,NA
18414,Lackawanna County,PA,92.51170046801872,NA,NA
18421,Susquehanna County,PA,NA,85.33797216699801,NA
18505,Lackawanna County,PA,NA,43.389662027833005,NA
18518,Lackawanna County,PA,NA,86.3817097415507,NA
18634,Luzerne County,PA,30.34321372854914,NA,NA
18643,Luzerne County,PA,NA,56.461232604373755,NA
18657,Wyoming County,PA,NA,NA,60.96866096866097
18702,Luzerne County,PA,NA,24.502982107355862,NA
18704,Luzerne County,PA,50.546021840873635,NA,NA
18705,Luzerne County,PA,NA,38.66799204771372,NA
18706,Luzerne County,PA,NA,23.508946322067594,NA
18914,Bucks County,PA,52.886115444617786,NA,NA
18940,Bucks County,PA,46.879875195007806,NA,NA
18951,Bucks County,PA,31.825273010920434,NA,NA
18966,Bucks County,PA,22.308892355694226,NA,NA
18974,Bucks County,PA,35.257410296411855,NA,NA
19002,Montgomery County,PA,66.53666146645865,NA,NA
19006,Montgomery County,PA,38.29953198127925,NA,NA
19013,Delaware County,PA,75.66302652106084,88.96620278330019,NA
19020,Bucks County,PA,55.53822152886115,NA,NA
19027,Montgomery County,PA,74.10296411856474,NA,NA
19030,Bucks County,PA,79.40717628705148,NA,NA
19044,Montgomery County,PA,81.51326053042122,NA,NA
19053,Bucks County,PA,59.04836193447738,NA,NA
19056,Bucks County,PA,74.41497659906396,NA,NA
19061,Delaware County,PA,85.17940717628704,32.30616302186879,31.339031339031337
19070,Delaware County,PA,NA,88.96620278330019,NA
19082,Delaware County,PA,10.530421216848673,8.250497017892645,NA
19102,Philadelphia County,PA,67.62870514820592,80.06958250497019,NA
19104,Philadelphia County,PA,NA,9.542743538767395,NA
19111,Philadelphia County,PA,NA,15.357852882703776,NA
19120,Philadelphia County,PA,NA,34.791252485089466,NA
19121,Philadelphia County,PA,NA,30.96421471172962,NA
19122,Philadelphia County,PA,71.68486739469579,NA,NA
19124,Philadelphia County,PA,NA,6.908548707753479,NA
19128,Philadelphia County,PA,NA,53.47912524850894,NA
19131,Philadelphia County,PA,31.279251170046802,16.451292246520875,NA
19133,Philadelphia County,PA,NA,43.93638170974155,NA
19134,Philadelphia County,PA,NA,57.25646123260437,NA
19135,Philadelphia County,PA,NA,6.510934393638171,NA
19136,Philadelphia County,PA,NA,32.65407554671968,NA
19138,Philadelphia County,PA,NA,73.06163021868787,NA
19139,Philadelphia County,PA,NA,27.833001988071572,NA
19140,Philadelphia County,PA,NA,44.03578528827038,NA
19141,Philadelphia County,PA,NA,18.190854870775347,NA
19143,Philadelphia County,PA,NA,32.95228628230616,70.94017094017094
19144,Philadelphia County,PA,NA,36.92842942345925,NA
19145,Philadelphia County,PA,NA,25.994035785288272,NA
19154,Philadelphia County,PA,33.61934477379095,NA,NA
19380,Chester County,PA,22.932917316692667,56.461232604373755,NA
19422,Montgomery County,PA,72.93291731669267,NA,NA
19444,Montgomery County,PA,74.64898595943838,NA,NA
19446,Montgomery County,PA,6.318252730109204,NA,NA
19465,Chester County,PA,42.12168486739469,NA,NA
19510,Berks County,PA,NA,50.994035785288276,NA
19512,Berks County,PA,40.17160686427457,NA,NA
19518,Berks County,PA,82.05928237129486,NA,NA
19530,Berks County,PA,80.343213728549145,NA,NA
19601,Berks County,PA,NA,2.4353876739562623,NA
19604,Berks County,PA,7.956318252730108,10.685884691848907,NA
19609,Berks County,PA,53.82215288611545,NA,NA
02871,Newport County,RI,47.34789391575663,NA,NA
02885,Bristol County,RI,55.92823712948518,NA,NA
02889,Kent County,RI,19.03276131045242,NA,NA
02892,Washington County,RI,70.12480499219969,NA,NA
02908,Providence County,RI,45.39781591263651,NA,NA
02916,Providence County,RI,91.57566302652106,NA,NA
29063,Richland County,SC,NA,54.07554671968191,NA
29072,Lexington County,SC,NA,NA,28.774928774928775
29164,Aiken County,SC,NA,93.88667992047714,NA
29204,Richland County,SC,NA,65.05964214711729,NA
29210,Richland County,SC,41.49765990639626,NA,NA
29212,Lexington County,SC,74.10296411856474,NA,NA
29306,Spartanburg County,SC,23.16692667706708,NA,NA
29307,Spartanburg County,SC,72.62090483619345,NA,NA
29316,Spartanburg County,SC,NA,NA,40.45584045584046
29341,Cherokee County,SC,79.71918876755069,NA,NA
29369,Spartanburg County,SC,NA,96.02385685884693,67.23646723646723
29376,Spartanburg County,SC,NA,87.07753479125249,NA
29379,Union County,SC,NA,30.96421471172962,35.61253561253561
29388,Spartanburg County,SC,NA,54.771371769383705,NA
29403,Charleston County,SC,NA,33.69781312127236,NA
29406,Charleston County,SC,NA,79.97017892644135,NA
29407,Charleston County,SC,NA,30.5168986083499,NA
29414,Charleston County,SC,25.429017160686428,53.03180914512923,NA
29420,Dorchester County,SC,NA,54.57256461232605,NA
29440,Georgetown County,SC,NA,35.536779324055665,NA
29445,Berkeley County,SC,NA,NA,27.92022792022792
29461,Berkeley County,SC,11.154446177847113,NA,NA
29466,Charleston County,SC,49.53198127925117,NA,NA
29470,Charleston County,SC,NA,NA,93.44729344729345
29483,Dorchester County,SC,37.909516380655226,NA,NA
29485,Dorchester County,SC,NA,16.202783300198806,NA
29488,Colleton County,SC,NA,52.13717693836978,NA
29501,Florence County,SC,42.1996879875195,NA,NA
29532,Darlington County,SC,36.661466458658346,NA,NA
29536,Dillon County,SC,NA,26.39165009940358,NA
29574,Marion County,SC,NA,67.79324055666004,NA
29577,Horry County,SC,NA,34.09542743538768,NA
29588,Horry County,SC,NA,37.77335984095427,NA
29607,Greenville County,SC,NA,45.77534791252485,NA
29611,Greenville County,SC,NA,20.576540755467196,NA
29620,Abbeville County,SC,28.549141965678626,NA,NA
29621,Anderson County,SC,NA,9.343936381709742,NA
29630,Pickens County,SC,NA,94.68190854870775,NA
29651,Greenville County,SC,NA,66.45129224652088,NA
29654,Anderson County,SC,NA,17.09741550695825,NA
29681,Greenville County,SC,25.81903276131045,NA,NA
29693,Oconee County,SC,39.93759750390016,NA,NA
29730,York County,SC,NA,48.01192842942346,NA
29732,York County,SC,32.44929797191888,NA,NA
29803,Aiken County,SC,40.87363494539781,88.07157057654076,NA
29842,Aiken County,SC,NA,85.48707753479125,NA
29906,Beaufort County,SC,NA,79.27435387673957,NA
29910,Beaufort County,SC,NA,62.47514910536779,NA
57005,Minnehaha County,SD,73.79095163806552,NA,NA
57029,Hutchinson County,SD,92.04368174726989,NA,NA
57104,Minnehaha County,SD,13.806552262090483,NA,NA
57105,Minnehaha County,SD,70.98283931357254,NA,NA
57106,Minnehaha County,SD,20.202808112324494,NA,NA
57107,Minnehaha County,SD,NA,79.27435387673957,NA
57301,Davison County,SD,39.78159126365055,NA,NA
57401,Brown County,SD,21.21684867394696,NA,NA
57501,Hughes County,SD,NA,48.01192842942346,NA
57703,Pennington County,SD,62.94851794071763,73.75745526838966,NA
57770,Shannon County,SD,NA,20.77534791252485,NA
37013,Davidson County,TN,2.2620904836193447,NA,NA
37030,Smith County,TN,NA,55.96421471172962,NA
37042,Montgomery County,TN,NA,17.842942345924452,NA
37055,Dickson County,TN,NA,22.117296222664017,NA
37076,Davidson County,TN,27.06708268330733,NA,NA
37090,Wilson County,TN,71.37285491419657,NA,NA
37129,Rutherford County,TN,14.898595943837753,NA,NA
37150,Macon County,TN,86.66146645865834,NA,NA
37160,Bedford County,TN,NA,44.93041749502982,NA
37184,Wilson County,TN,NA,90.65606361829026,NA
37187,Dickson County,TN,NA,68.389662027833,NA
37203,Davidson County,TN,NA,73.75745526838966,NA
37206,Davidson County,TN,NA,24.701789264413517,NA
37211,Davidson County,TN,NA,NA,21.65242165242165
37214,Davidson County,TN,NA,NA,55.84045584045584
37228,Davidson County,TN,NA,46.12326043737575,NA
37354,Monroe County,TN,NA,63.2703777335984,NA
37411,Hamilton County,TN,NA,17.147117296222664,NA
37601,Washington County,TN,NA,NA,18.233618233618234
37716,Anderson County,TN,NA,42.94234592445328,NA
37804,Blount County,TN,NA,63.12127236580517,NA
37862,Sevier County,TN,67.62870514820592,NA,NA
37869,Hancock County,TN,NA,35.834990059642145,NA
37876,Sevier County,TN,NA,39.960238568588466,NA
37914,Knox County,TN,NA,21.819085487077537,NA
37919,Knox County,TN,NA,70.67594433399603,NA
37920,Knox County,TN,62.24648985959438,25.994035785288272,NA
37921,Knox County,TN,10.374414976599065,NA,NA
38002,Shelby County,TN,NA,73.75745526838966,NA
38006,Crockett County,TN,NA,80.21868787276341,NA
38018,Shelby County,TN,NA,56.461232604373755,NA
38053,Shelby County,TN,NA,44.53280318091451,NA
38103,Shelby County,TN,NA,NA,92.3076923076923
38114,Shelby County,TN,NA,3.6779324055666,NA
38115,Shelby County,TN,NA,6.759443339960239,NA
38116,Shelby County,TN,NA,6.759443339960239,NA
38118,Shelby County,TN,NA,3.081510934393638,NA
38126,Shelby County,TN,NA,56.461232604373755,NA
38127,Shelby County,TN,NA,1.9383697813121274,NA
38128,Shelby County,TN,NA,14.41351888667992,NA
38133,Shelby County,TN,NA,70.52683896620279,NA
38134,Shelby County,TN,NA,NA,38.74643874643874
38138,Shelby County,TN,67.08268330733229,NA,NA
38301,Madison County,TN,NA,12.375745526838966,NA
38305,Madison County,TN,2.02808112324493,NA,NA
38340,Chester County,TN,NA,79.27435387673957,NA
38372,Hardin County,TN,NA,50.994035785288276,NA
38468,Lawrence County,TN,NA,98.26043737574552,NA
38506,Putnam County,TN,NA,56.2624254473161,43.58974358974359
38555,Cumberland County,TN,NA,NA,41.31054131054131
38556,Fentress County,TN,NA,71.76938369781311,NA
38583,White County,TN,20.826833073322934,NA,NA
75013,Collin County,TX,44.53978159126365,NA,NA
75023,Collin County,TX,NA,NA,51.28205128205128
75032,Rockwall County,TX,83.54134165366615,NA,NA
75061,Dallas County,TX,7.48829953198128,NA,NA
75074,Collin County,TX,15.210608424336975,NA,NA
75077,Denton County,TX,50.62402496099844,NA,NA
75104,Dallas County,TX,NA,NA,27.065527065527068
75227,Dallas County,TX,NA,NA,21.367521367521366
75490,Fannin County,TX,99.45397815912636,NA,NA
75494,Wood County,TX,NA,51.491053677932406,NA
75501,Bowie County,TX,21.29485179407176,NA,NA
75633,Panola County,TX,53.51014040561623,NA,NA
75652,Rusk County,TX,NA,79.27435387673957,NA
75701,Smith County,TX,NA,25.198807157057658,NA
75703,Smith County,TX,13.57254290171607,39.960238568588466,NA
75791,Smith County,TX,NA,53.62823061630218,NA
75839,Anderson County,TX,NA,83.8469184890656,NA
76011,Tarrant County,TX,NA,32.85288270377734,NA
76017,Tarrant County,TX,24.726989079563182,NA,NA
76018,Tarrant County,TX,NA,52.78330019880716,NA
76033,Johnson County,TX,27.769110764430575,NA,NA
76036,Tarrant County,TX,NA,57.85288270377733,NA
76051,Tarrant County,TX,25.35101404056162,NA,NA
76058,Johnson County,TX,36.349453978159126,NA,NA
76063,Tarrant County,TX,30.96723868954758,NA,NA
76104,Tarrant County,TX,50.62402496099844,20.37773359840954,NA
76105,Tarrant County,TX,NA,38.27037773359841,NA
76108,Tarrant County,TX,NA,NA,40.74074074074074
76110,Tarrant County,TX,NA,14.761431411530815,NA
76115,Tarrant County,TX,83.77535101404057,5.7654075546719685,NA
76119,Tarrant County,TX,1.9500780031201248,NA,NA
76131,Tarrant County,TX,NA,46.47117296222664,NA
76132,Tarrant County,TX,NA,71.02385685884693,NA
76137,Tarrant County,TX,NA,76.64015904572564,NA
76140,Tarrant County,TX,NA,45.77534791252485,NA
76179,Tarrant County,TX,NA,NA,32.47863247863248
76210,Denton County,TX,32.683307332293296,NA,NA
76244,Tarrant County,TX,5.61622464898596,NA,NA
76249,Denton County,TX,88.22152886115444,NA,NA
76501,Bell County,TX,59.4383775351014,NA,NA
76502,Bell County,TX,9.438377535101404,76.8389662027833,NA
76504,Bell County,TX,NA,77.33598409542743,NA
76513,Bell County,TX,4.5241809672386895,37.8727634194831,NA
76520,Milam County,TX,NA,86.13320079522863,NA
76528,Coryell County,TX,84.86739469578784,8.548707753479125,NA
76541,Bell County,TX,NA,66.74950298210736,NA
76542,Bell County,TX,11.388455538221528,NA,NA
76543,Bell County,TX,30.733229329173167,NA,NA
76548,Bell County,TX,46.879875195007806,NA,NA
76550,Lampasas County,TX,NA,93.53876739562624,NA
76567,Milam County,TX,60.37441497659907,71.76938369781311,NA
76643,McLennan County,TX,NA,78.13121272365805,NA
76667,Limestone County,TX,NA,31.660039761431413,NA
76708,McLennan County,TX,NA,NA,72.64957264957265
76710,McLennan County,TX,NA,86.63021868787276,NA
76712,McLennan County,TX,NA,73.11133200795229,NA
76801,Brown County,TX,66.30265210608425,NA,NA
77004,Harris County,TX,NA,77.78330019880715,NA
77015,Harris County,TX,NA,11.182902584493041,NA
77017,Harris County,TX,NA,19.433399602385688,NA
77021,Harris County,TX,NA,48.01192842942346,NA
77026,Harris County,TX,NA,21.47117296222664,NA
77032,Harris County,TX,NA,20.825049701789265,NA
77036,Harris County,TX,NA,11.481113320079523,NA
77039,Harris County,TX,NA,13.767395626242546,NA
77040,Harris County,TX,NA,62.27634194831014,NA
77045,Harris County,TX,NA,12.57455268389662,NA
77049,Harris County,TX,NA,35.089463220675945,NA
77054,Harris County,TX,67.08268330733229,NA,NA
77058,Harris County,TX,64.66458658346333,NA,NA
77065,Harris County,TX,NA,37.92246520874751,NA
77067,Harris County,TX,NA,10.43737574552684,NA
77073,Harris County,TX,34.86739469578783,NA,NA
77074,Harris County,TX,45.47581903276131,18.986083499005964,74.35897435897436
77078,Harris County,TX,NA,50.84493041749503,NA
77081,Harris County,TX,NA,NA,62.67806267806267
77083,Harris County,TX,NA,20.278330019880716,NA
77084,Harris County,TX,9.67238689547582,7.3558648111332,NA
77089,Harris County,TX,NA,79.0258449304175,NA
77090,Harris County,TX,38.06552262090484,NA,NA
77095,Harris County,TX,15.366614664586583,NA,NA
77099,Harris County,TX,NA,8.996023856858846,NA
77301,Montgomery County,TX,NA,26.938369781312126,NA
77303,Montgomery County,TX,NA,36.97813121272366,NA
77336,Harris County,TX,NA,95.17892644135189,NA
77339,Harris County,TX,62.71450858034321,NA,NA
77346,Harris County,TX,NA,71.76938369781311,NA
77351,Polk County,TX,34.63338533541342,16.84890656063618,NA
77355,Montgomery County,TX,NA,88.96620278330019,NA
77357,Montgomery County,TX,38.61154446177847,NA,NA
77433,Harris County,TX,5.226209048361934,NA,NA
77449,Harris County,TX,NA,0.6958250497017893,12.82051282051282
77469,Fort Bend County,TX,NA,21.819085487077537,NA
77478,Fort Bend County,TX,58.58034321372855,NA,NA
77479,Fort Bend County,TX,8.424336973478939,NA,NA
77504,Harris County,TX,NA,25.14910536779324,NA
77511,Brazoria County,TX,64.1965678627145,12.922465208747516,NA
77521,Harris County,TX,NA,NA,31.054131054131055
77539,Galveston County,TX,NA,62.47514910536779,NA
77545,Fort Bend County,TX,29.09516380655226,NA,NA
77546,Galveston County,TX,42.511700468018724,NA,NA
77550,Galveston County,TX,NA,69.78131212723659,NA
77563,Galveston County,TX,NA,61.083499005964214,NA
77571,Harris County,TX,NA,50.49701789264414,NA
77581,Brazoria County,TX,22.698907956318255,NA,NA
77590,Galveston County,TX,29.875195007800315,82.10735586481114,NA
77591,Galveston County,TX,NA,45.07952286282306,NA
77640,Jefferson County,TX,75.11700468018721,NA,NA
77651,Jefferson County,TX,79.40717628705148,NA,NA
77705,Jefferson County,TX,NA,28.230616302186878,NA
77802,Brazos County,TX,37.05148205928237,NA,NA
77803,Brazos County,TX,16.146645865834632,NA,NA
77859,Robertson County,TX,86.58346333853353,NA,NA
77901,Victoria County,TX,NA,11.182902584493041,NA
77905,Victoria County,TX,NA,64.11530815109344,NA
78002,Bexar County,TX,NA,77.38568588469185,NA
78006,Kendall County,TX,NA,59.59244532803181,NA
78023,Bexar County,TX,71.996879875195,NA,NA
78046,Webb County,TX,1.326053042121685,0.2982107355864811,NA
78064,Atascosa County,TX,48.829953198127924,NA,NA
78114,Wilson County,TX,NA,NA,52.70655270655271
78132,Comal County,TX,46.25585023400936,NA,NA
78133,Comal County,TX,NA,NA,56.98005698005698
78155,Guadalupe County,TX,6.786271450858035,NA,NA
78202,Bexar County,TX,NA,22.86282306163022,NA
78204,Bexar County,TX,NA,85.23856858846919,NA
78210,Bexar County,TX,NA,2.0874751491053676,NA
78213,Bexar County,TX,NA,4.970178926441352,NA
78216,Bexar County,TX,28.081123244929795,NA,NA
78218,Bexar County,TX,NA,11.878727634194831,NA
78220,Bexar County,TX,NA,64.06560636182903,NA
78221,Bexar County,TX,NA,33.39960238568588,NA
78222,Bexar County,TX,NA,35.536779324055665,NA
78223,Bexar County,TX,NA,6.262425447316103,NA
78228,Bexar County,TX,NA,1.6401590457256463,NA
78229,Bexar County,TX,NA,18.48906560636183,NA
78232,Bexar County,TX,NA,48.26043737574553,NA
78233,Bexar County,TX,15.756630265210608,NA,NA
78237,Bexar County,TX,NA,2.6341948310139163,NA
78239,Bexar County,TX,NA,20.576540755467196,NA
78242,Bexar County,TX,NA,39.115308151093444,NA
78244,Bexar County,TX,NA,82.20675944333996,NA
78245,Bexar County,TX,2.1060842433697347,6.858846918489066,NA
78249,Bexar County,TX,NA,28.230616302186878,NA
78251,Bexar County,TX,NA,22.117296222664017,NA
78259,Bexar County,TX,NA,62.47514910536779,NA
78260,Bexar County,TX,70.28081123244931,NA,NA
78332,Jim Wells County,TX,55.77223088923557,2.1868787276341948,NA
78363,Kleberg County,TX,NA,26.938369781312126,NA
78380,Nueces County,TX,NA,83.3996023856859,NA
78410,Nueces County,TX,NA,25,NA
78411,Nueces County,TX,NA,27.783300198807158,NA
78412,Nueces County,TX,NA,18.886679920477135,NA
78413,Nueces County,TX,NA,NA,89.74358974358975
78414,Nueces County,TX,58.11232449297972,NA,NA
78417,Nueces County,TX,96.9578783151326,NA,NA
78501,Hidalgo County,TX,NA,1.1928429423459244,47.008547008547005
78520,Cameron County,TX,NA,1.4910536779324055,NA
78521,Cameron County,TX,NA,0.09940357852882703,77.49287749287748
78526,Cameron County,TX,NA,4.671968190854871,NA
78541,Hidalgo County,TX,NA,NA,49.572649572649574
78542,Hidalgo County,TX,NA,9.1948310139165,NA
78557,Hidalgo County,TX,NA,7.20675944333996,NA
78574,Hidalgo County,TX,NA,4.324055666003976,NA
78577,Hidalgo County,TX,7.332293291731669,0.19880715705765406,NA
78589,Hidalgo County,TX,NA,41.10337972166998,NA
78599,Hidalgo County,TX,NA,8.697813121272366,NA
78610,Hays County,TX,64.1185647425897,NA,NA
78612,Bastrop County,TX,NA,52.48508946322068,NA
78620,Hays County,TX,92.51170046801872,NA,NA
78633,Williamson County,TX,97.73790951638065,NA,NA
78640,Hays County,TX,4.99219968798752,NA,NA
78641,Williamson County,TX,77.76911076443058,NA,NA
78660,Travis County,TX,13.57254290171607,NA,NA
78665,Williamson County,TX,59.828393135725435,NA,NA
78721,Travis County,TX,NA,62.47514910536779,NA
78723,Travis County,TX,NA,48.01192842942346,NA
78734,Travis County,TX,NA,64.11530815109344,NA
78738,Travis County,TX,95.16380655226209,NA,NA
78749,Travis County,TX,59.59438377535101,NA,NA
78758,Travis County,TX,NA,26.68986083499006,NA
78840,Val Verde County,TX,11.154446177847113,NA,NA
78947,Lee County,TX,98.82995319812792,NA,NA
79336,Hockley County,TX,NA,65.05964214711729,NA
79423,Lubbock County,TX,23.478939157566302,NA,NA
79762,Ector County,TX,NA,39.314115308151095,NA
79849,El Paso County,TX,NA,29.721669980119287,NA
79907,El Paso County,TX,NA,1.4413518886679921,NA
79924,El Paso County,TX,NA,6.709741550695824,NA
79938,El Paso County,TX,12.480499219968799,NA,NA
84003,Utah County,UT,NA,NA,44.729344729344724
84005,Utah County,UT,NA,86.3817097415507,NA
84010,Davis County,UT,68.64274570982839,NA,NA
84015,Davis County,UT,NA,51.491053677932406,NA
84020,Salt Lake County,UT,24.102964118564742,NA,NA
84025,Davis County,UT,57.56630265210608,NA,NA
84041,Davis County,UT,NA,72.56461232604374,NA
84075,Davis County,UT,43.05772230889235,NA,NA
84081,Salt Lake County,UT,10.842433697347893,NA,NA
84105,Salt Lake County,UT,NA,NA,73.78917378917379
84119,Salt Lake County,UT,65.21060842433697,NA,NA
84121,Salt Lake County,UT,NA,88.96620278330019,NA
84129,,UT,49.297971918876755,NA,NA
84302,Box Elder County,UT,73.16692667706708,NA,NA
84404,Weber County,UT,9.048361934477379,NA,NA
84664,Utah County,UT,81.51326053042122,NA,NA
05488,Franklin County,VT,68.33073322932918,NA,NA
20111,Prince William County,VA,37.597503900156006,52.13717693836978,NA
20120,Fairfax County,VA,69.57878315132605,NA,NA
20147,Loudoun County,VA,16.69266770670827,NA,NA
20152,Loudoun County,VA,87.6755070202808,NA,NA
20190,Fairfax County,VA,99.21996879875195,NA,NA
22044,Fairfax County,VA,NA,NA,90.88319088319088
22153,Fairfax County,VA,38.29953198127925,NA,NA
22181,Fairfax County,VA,66.61466458658346,NA,NA
22204,Arlington County,VA,15.054602184087361,NA,NA
22207,Arlington County,VA,33.46333853354134,NA,NA
22310,Fairfax County,VA,NA,NA,51.566951566951566
22314,Alexandria city,VA,66.77067082683308,NA,NA
22405,Stafford County,VA,44.53978159126365,NA,NA
22408,Spotsylvania County,VA,34.16536661466459,NA,NA
22485,King George County,VA,72.54290171606864,NA,NA
22508,Orange County,VA,49.609984399375975,NA,NA
22553,Spotsylvania County,VA,71.37285491419657,NA,NA
22601,Winchester city,VA,NA,19.135188866799204,NA
22657,Shenandoah County,VA,NA,NA,50.712250712250714
22701,Culpeper County,VA,NA,19.33399602385686,NA
22901,Albemarle County,VA,NA,NA,35.8974358974359
22902,Charlottesville city,VA,NA,NA,71.22507122507122
22932,Albemarle County,VA,NA,NA,82.62108262108262
22960,Orange County,VA,NA,58.39960238568589,NA
22968,Greene County,VA,57.09828393135725,NA,NA
23024,Louisa County,VA,NA,NA,94.87179487179486
23059,Henrico County,VA,80.96723868954759,NA,NA
23075,Henrico County,VA,NA,38.41948310139165,NA
23168,James City County,VA,91.10764430577223,NA,NA
23185,James City County,VA,NA,38.32007952286282,NA
23222,Richmond city,VA,8.034321372854915,NA,19.37321937321937
23223,Henrico County,VA,NA,3.180914512922465,NA
23225,Richmond city,VA,NA,26.39165009940358,NA
23228,Henrico County,VA,NA,NA,49.287749287749286
23323,Chesapeake city,VA,35.8814352574103,NA,NA
23350,Northampton County,VA,NA,97.86282306163022,NA
23434,Suffolk city,VA,15.522620904836193,16.84890656063618,NA
23462,Virginia Beach city,VA,NA,16.003976143141152,NA
23502,Norfolk city,VA,NA,43.48906560636183,NA
23504,Norfolk city,VA,NA,5.467196819085487,NA
23505,Norfolk city,VA,NA,46.37176938369782,NA
23509,Norfolk city,VA,NA,40.60636182902584,NA
23510,Norfolk city,VA,NA,71.57057654075547,NA
23602,Newport News city,VA,NA,16.84890656063618,NA
23607,Newport News city,VA,NA,4.423459244532803,NA
23669,Hampton city,VA,NA,17.296222664015904,NA
23701,Portsmouth city,VA,NA,25.795228628230614,NA
23704,Portsmouth city,VA,NA,14.96023856858847,NA
23831,Chesterfield County,VA,NA,10.387673956262425,NA
23834,Colonial Heights city,VA,NA,NA,46.438746438746435
24012,Roanoke city,VA,NA,26.938369781312126,NA
24013,Roanoke city,VA,53.90015600624025,NA,NA
24014,Roanoke city,VA,41.49765990639626,NA,NA
24016,Roanoke city,VA,NA,69.58250497017893,NA
24017,Roanoke city,VA,NA,52.23658051689861,NA
24019,Roanoke County,VA,59.59438377535101,NA,NA
24055,Henry County,VA,NA,57.85288270377733,NA
24087,Montgomery County,VA,NA,87.57455268389663,NA
24112,Henry County,VA,NA,57.057654075546715,NA
24148,Henry County,VA,75.74102964118565,NA,NA
24179,Roanoke County,VA,NA,80.51689860834989,NA
24201,Bristol city,VA,NA,43.19085487077535,NA
24216,Wise County,VA,NA,38.41948310139165,NA
24230,Wise County,VA,NA,43.48906560636183,NA
24343,Carroll County,VA,NA,NA,94.58689458689459
24501,Lynchburg city,VA,22.620904836193446,NA,NA
24502,Lynchburg city,VA,30.187207488299535,NA,NA
24523,Bedford County,VA,NA,80.76540755467197,NA
24540,Danville city,VA,NA,39.314115308151095,NA
24572,Amherst County,VA,NA,48.26043737574553,NA
98014,King County,WA,97.65990639625585,NA,NA
98029,King County,WA,50,NA,NA
98031,King County,WA,NA,44.53280318091451,NA
98037,Snohomish County,WA,NA,55.96421471172962,NA
98042,King County,WA,11.778471138845553,51.88866799204771,NA
98043,Snohomish County,WA,NA,69.83101391650099,NA
98051,King County,WA,95.3978159126365,NA,NA
98059,King County,WA,87.5195007800312,NA,NA
98126,King County,WA,82.37129485179408,NA,NA
98155,King County,WA,44.77379095163806,NA,NA
98203,Snohomish County,WA,66.22464898595943,NA,NA
98221,Skagit County,WA,NA,57.85288270377733,NA
98248,Whatcom County,WA,NA,NA,76.63817663817663
98258,Snohomish County,WA,9.51638065522621,NA,NA
98275,Snohomish County,WA,35.8814352574103,NA,NA
98296,Snohomish County,WA,39.0015600624025,NA,NA
98335,Pierce County,WA,77.84711388455538,NA,NA
98391,Pierce County,WA,24.804992199687987,NA,NA
98405,Pierce County,WA,NA,70.67594433399603,NA
98445,Pierce County,WA,45.08580343213728,NA,NA
98501,Thurston County,WA,38.92355694227769,NA,NA
98502,Thurston County,WA,64.66458658346333,NA,NA
98531,Lewis County,WA,NA,64.11530815109344,NA
98632,Cowlitz County,WA,65.44461778471138,40.60636182902584,NA
98841,Okanogan County,WA,94.61778471138845,NA,NA
98901,Yakima County,WA,NA,26.143141153081512,NA
99016,Spokane County,WA,68.09672386895475,NA,NA
99019,Spokane County,WA,78.47113884555382,NA,92.02279202279202
99111,Whitman County,WA,84.00936037441498,NA,NA
99206,Spokane County,WA,NA,45.77534791252485,NA
99212,Spokane County,WA,NA,91.50099403578528,NA
99301,Franklin County,WA,1.4820592823712948,NA,NA
99336,Benton County,WA,NA,19.532803180914513,NA
99337,Benton County,WA,NA,66.6003976143141,NA
99338,Benton County,WA,NA,NA,58.68945868945868
99353,Benton County,WA,71.29485179407176,NA,NA
99354,Benton County,WA,NA,43.48906560636183,NA
20003,District of Columbia,DC,NA,65.05964214711729,NA
20011,District of Columbia,DC,11.934477379095163,10.43737574552684,NA
20012,District of Columbia,DC,NA,63.2703777335984,NA
20015,District of Columbia,DC,30.733229329173167,NA,NA
20019,District of Columbia,DC,NA,5.5168986083499005,NA
20020,District of Columbia,DC,NA,27.335984095427435,NA
20032,District of Columbia,DC,42.43369734789392,NA,NA
25071,Kanawha County,WV,53.66614664586583,NA,NA
25309,Kanawha County,WV,NA,62.47514910536779,NA
25314,Kanawha County,WV,NA,89.56262425447316,NA
25404,Berkeley County,WV,NA,NA,95.15669515669516
25560,Putnam County,WV,76.98907956318253,NA,NA
25801,Raleigh County,WV,NA,24.552683896620277,NA
25840,Fayette County,WV,NA,88.96620278330019,NA
25901,Fayette County,WV,NA,47.365805168986086,NA
26003,Ohio County,WV,NA,30.417495029821072,NA
26041,Marshall County,WV,NA,46.86878727634195,NA
26164,Jackson County,WV,50.93603744149766,NA,58.4045584045584
26201,Upshur County,WV,NA,41.35188866799205,NA
26351,Gilmer County,WV,NA,NA,96.01139601139602
26431,Harrison County,WV,89.78159126365055,NA,NA
26505,Monongalia County,WV,28.549141965678626,NA,NA
26508,Monongalia County,WV,15.912636505460217,34.09542743538768,NA
26554,Marion County,WV,NA,37.42544731610338,NA
26764,Preston County,WV,NA,60.73558648111332,NA
53073,Sheboygan County,WI,66.45865834633385,NA,NA
53081,Sheboygan County,WI,NA,78.28031809145129,NA
53105,Racine County,WI,NA,29.37375745526839,NA
53110,Milwaukee County,WI,88.8455538221529,NA,NA
53121,Walworth County,WI,NA,92.44532803180915,NA
53147,Walworth County,WI,NA,83.05168986083498,NA
53151,Waukesha County,WI,53.90015600624025,NA,NA
53188,Waukesha County,WI,31.513260530421217,NA,26.780626780626783
53189,Waukesha County,WI,36.817472698907956,NA,NA
53190,Walworth County,WI,83.77535101404057,NA,NA
53204,Milwaukee County,WI,NA,15.55666003976143,NA
53206,Milwaukee County,WI,NA,40.60636182902584,NA
53208,Milwaukee County,WI,43.52574102964118,NA,NA
53209,Milwaukee County,WI,NA,37.27634194831014,NA
53210,Milwaukee County,WI,NA,8.151093439363818,NA
53211,Milwaukee County,WI,88.9235569422777,NA,NA
53212,Milwaukee County,WI,NA,34.791252485089466,NA
53215,Milwaukee County,WI,1.71606864274571,45.67594433399602,NA
53216,Milwaukee County,WI,2.9641185647425896,NA,NA
53218,Milwaukee County,WI,44.07176287051482,NA,NA
53219,Milwaukee County,WI,NA,57.55467196819085,NA
53221,Milwaukee County,WI,NA,16.451292246520875,NA
53222,Milwaukee County,WI,NA,45.27833001988071,NA
53224,Milwaukee County,WI,NA,47.365805168986086,NA
53402,Racine County,WI,39.46957878315133,NA,NA
53403,Racine County,WI,NA,49.05566600397614,NA
53511,Rock County,WI,0.15600624024961,18.48906560636183,NA
53520,Green County,WI,NA,96.07355864811133,NA
53533,Iowa County,WI,NA,78.37972166998011,NA
53534,Rock County,WI,59.04836193447738,NA,NA
53536,Rock County,WI,80.10920436817473,NA,NA
53545,Rock County,WI,NA,50.14910536779325,NA
53546,Rock County,WI,27.53510140405616,41.45129224652088,NA
53548,Rock County,WI,63.80655226209049,NA,NA
53551,Jefferson County,WI,NA,96.47117296222663,NA
53558,Dane County,WI,NA,76.98807157057655,NA
53559,Dane County,WI,74.9609984399376,NA,NA
53573,Grant County,WI,NA,93.88667992047714,NA
53581,Richland County,WI,NA,69.58250497017893,NA
53594,Jefferson County,WI,93.29173166926678,NA,NA
53711,Dane County,WI,11.54446177847114,NA,NA
53949,Marquette County,WI,NA,85.53677932405567,NA
54001,Polk County,WI,68.17472698907956,NA,NA
54023,St. Croix County,WI,73.4789391575663,NA,NA
54115,Brown County,WI,45.55382215288611,NA,NA
54208,Brown County,WI,NA,95.62624254473161,NA
54301,Brown County,WI,NA,50.14910536779325,NA
54302,Brown County,WI,NA,40.40755467196819,NA
54403,Marathon County,WI,NA,79.52286282306163,NA
54409,Langlade County,WI,NA,60.93439363817097,NA
54460,Clark County,WI,97.03588143525741,NA,NA
54481,Portage County,WI,NA,NA,22.22222222222222
54494,Wood County,WI,NA,NA,33.61823361823362
54495,Wood County,WI,NA,NA,74.92877492877493
54501,Oneida County,WI,NA,44.03578528827038,NA
54548,Oneida County,WI,NA,74.75149105367794,NA
54656,Monroe County,WI,NA,42.09741550695825,NA
54701,Eau Claire County,WI,NA,NA,44.15954415954416
54729,Chippewa County,WI,60.45241809672387,NA,NA
54848,Rusk County,WI,NA,69.18489065606362,NA
54880,Douglas County,WI,5.46021840873635,NA,NA
54901,Winnebago County,WI,19.578783151326054,NA,NA
54902,Winnebago County,WI,56.084243369734786,NA,NA
54911,Outagamie County,WI,NA,40.40755467196819,NA
54914,Outagamie County,WI,50.31201248049923,NA,NA
54915,Outagamie County,WI,NA,40.208747514910534,NA
54935,Fond du Lac County,WI,NA,76.7892644135189,NA
54937,Fond du Lac County,WI,NA,97.51491053677933,NA
54952,Winnebago County,WI,NA,49.70178926441352,NA
54971,Fond du Lac County,WI,73.4009360374415,NA,NA
54981,Waupaca County,WI,99.9219968798752,NA,59.82905982905983
82401,Washakie County,WY,96.09984399375975,NA,NA
82604,Natrona County,WY,79.17316692667707,NA,NA
82718,Campbell County,WY,27.53510140405616,NA,NA
