ZipCode,county,state,Youth,Adult,Retirement,Geriatric
35045,Chilton County,AL,NA,NA,67.6948051948052,NA
35126,Jefferson County,AL,NA,80.40816326530611,NA,NA
35221,Jefferson County,AL,NA,NA,92.85714285714286,NA
35630,Lauderdale County,AL,NA,NA,32.467532467532465,NA
35633,Lauderdale County,AL,59.45945945945946,NA,NA,NA
35652,Lauderdale County,AL,NA,NA,83.92857142857143,NA
35769,Jackson County,AL,NA,NA,88.7987012987013,NA
35801,Madison County,AL,NA,NA,28.8961038961039,50.442477876106196
35810,Madison County,AL,NA,31.63265306122449,NA,NA
35951,Marshall County,AL,NA,NA,90.9090909090909,NA
35954,Etowah County,AL,NA,NA,54.22077922077923,NA
35967,DeKalb County,AL,56.30630630630631,NA,NA,NA
35976,Marshall County,AL,NA,77.3469387755102,NA,NA
35986,DeKalb County,AL,NA,NA,75.97402597402598,NA
36081,Pike County,AL,73.87387387387388,NA,NA,NA
36092,Elmore County,AL,63.51351351351351,NA,NA,NA
36352,Houston County,AL,93.69369369369369,NA,NA,NA
36532,Baldwin County,AL,NA,NA,20.941558441558442,NA
36541,Mobile County,AL,NA,NA,77.59740259740259,NA
36575,Mobile County,AL,NA,62.65306122448979,NA,NA
36701,Dallas County,AL,24.324324324324326,NA,NA,NA
36875,Russell County,AL,NA,NA,84.74025974025975,NA
99559,Bethel Census Area,AK,65.31531531531532,NA,NA,NA
85007,Maricopa County,AZ,81.53153153153153,NA,NA,NA
85008,Maricopa County,AZ,NA,13.46938775510204,NA,NA
85042,Maricopa County,AZ,NA,27.55102040816326,NA,NA
85054,Maricopa County,AZ,100,NA,NA,NA
85122,Pinal County,AZ,NA,33.6734693877551,10.227272727272728,NA
85204,Maricopa County,AZ,10.36036036036036,NA,NA,NA
85234,Maricopa County,AZ,NA,33.87755102040816,NA,NA
85248,Maricopa County,AZ,85.58558558558559,NA,NA,NA
85286,Maricopa County,AZ,25.675675675675674,NA,NA,NA
85296,Maricopa County,AZ,32.432432432432435,NA,NA,NA
85298,Maricopa County,AZ,24.774774774774773,NA,NA,NA
85351,Maricopa County,AZ,NA,73.26530612244898,NA,NA
85363,Maricopa County,AZ,NA,NA,NA,85.84070796460178
85375,Maricopa County,AZ,NA,NA,NA,0.8849557522123894
85381,Maricopa County,AZ,77.47747747747748,NA,NA,NA
85388,Maricopa County,AZ,NA,NA,77.75974025974025,NA
85396,Maricopa County,AZ,80.18018018018019,NA,NA,NA
85546,Graham County,AZ,NA,53.87755102040816,NA,NA
85621,Santa Cruz County,AZ,NA,49.795918367346935,NA,NA
85641,Pima County,AZ,NA,NA,70.94155844155844,NA
85704,Pima County,AZ,46.3963963963964,NA,NA,NA
85705,Pima County,AZ,NA,NA,NA,40.707964601769916
85706,Pima County,AZ,NA,NA,NA,55.309734513274336
85743,Pima County,AZ,NA,NA,24.512987012987015,NA
85750,Pima County,AZ,NA,NA,NA,47.34513274336283
86305,Yavapai County,AZ,NA,NA,80.68181818181817,NA
86314,Yavapai County,AZ,NA,16.93877551020408,NA,NA
86323,Yavapai County,AZ,NA,56.93877551020409,NA,NA
86401,Mohave County,AZ,57.20720720720721,NA,NA,NA
71639,Desha County,AR,NA,93.06122448979592,NA,NA
71854,Miller County,AR,NA,NA,23.214285714285715,NA
72076,Pulaski County,AR,NA,NA,32.62987012987013,NA
72088,Van Buren County,AR,NA,NA,NA,80.53097345132744
72223,Pulaski County,AR,57.65765765765766,NA,NA,NA
72404,Craighead County,AR,NA,53.673469387755105,NA,NA
72501,Independence County,AR,NA,NA,NA,33.1858407079646
72601,Boone County,AR,NA,NA,28.246753246753247,NA
72653,Baxter County,AR,NA,NA,15.909090909090908,NA
72730,Washington County,AR,NA,NA,95.29220779220779,NA
72734,Benton County,AR,NA,92.85714285714286,NA,NA
72761,Benton County,AR,NA,NA,NA,83.6283185840708
72901,Sebastian County,AR,NA,57.95918367346938,NA,NA
72904,Sebastian County,AR,NA,NA,NA,68.14159292035397
90006,Los Angeles County,CA,NA,NA,57.467532467532465,NA
90017,Los Angeles County,CA,NA,NA,79.54545454545455,NA
90019,Los Angeles County,CA,NA,NA,NA,13.716814159292035
90025,Los Angeles County,CA,NA,89.59183673469387,NA,NA
90029,Los Angeles County,CA,NA,65.3061224489796,67.85714285714286,NA
90038,Los Angeles County,CA,NA,91.63265306122449,NA,NA
90042,Los Angeles County,CA,NA,NA,NA,33.1858407079646
90044,Los Angeles County,CA,8.558558558558559,NA,NA,NA
90046,Los Angeles County,CA,NA,NA,NA,36.72566371681416
90057,Los Angeles County,CA,94.5945945945946,NA,NA,NA
90062,Los Angeles County,CA,NA,NA,NA,63.716814159292035
90250,Los Angeles County,CA,NA,NA,NA,37.610619469026545
90275,Los Angeles County,CA,NA,NA,37.98701298701299,NA
90503,Los Angeles County,CA,NA,NA,73.37662337662337,NA
90504,Los Angeles County,CA,NA,NA,NA,62.83185840707964
90630,Orange County,CA,39.63963963963964,NA,NA,NA
90631,Orange County,CA,NA,NA,13.636363636363635,NA
90650,Los Angeles County,CA,NA,18.16326530612245,NA,NA
90715,Los Angeles County,CA,54.5045045045045,NA,NA,NA
91011,Los Angeles County,CA,NA,NA,NA,76.10619469026548
91016,Los Angeles County,CA,NA,NA,55.032467532467535,NA
91030,Los Angeles County,CA,90.09009009009009,86.12244897959184,NA,NA
91105,Los Angeles County,CA,NA,NA,63.798701298701296,NA
91201,Los Angeles County,CA,NA,NA,NA,69.46902654867256
91303,Los Angeles County,CA,NA,82.6530612244898,NA,NA
91304,Los Angeles County,CA,NA,NA,NA,19.469026548672566
91320,Ventura County,CA,NA,NA,NA,57.9646017699115
91331,Los Angeles County,CA,NA,11.428571428571429,NA,NA
91335,Los Angeles County,CA,NA,NA,NA,13.274336283185843
91340,Los Angeles County,CA,NA,66.3265306122449,NA,NA
91352,Los Angeles County,CA,NA,26.73469387755102,83.6038961038961,NA
91354,Los Angeles County,CA,65.76576576576578,NA,NA,NA
91402,Los Angeles County,CA,59.009009009009006,NA,NA,NA
91405,Los Angeles County,CA,NA,NA,41.23376623376623,NA
91607,Los Angeles County,CA,NA,NA,NA,38.49557522123894
91739,San Bernardino County,CA,NA,NA,60.87662337662337,NA
91762,San Bernardino County,CA,29.72972972972973,NA,NA,NA
91765,Los Angeles County,CA,NA,69.59183673469389,NA,NA
91773,Los Angeles County,CA,NA,NA,25.811688311688314,NA
91784,San Bernardino County,CA,NA,NA,45.616883116883116,NA
91786,San Bernardino County,CA,NA,NA,29.87012987012987,NA
91791,Los Angeles County,CA,NA,NA,47.72727272727273,NA
91941,San Diego County,CA,NA,NA,44.15584415584416,NA
91977,San Diego County,CA,NA,35.10204081632653,NA,NA
92020,San Diego County,CA,NA,59.591836734693885,NA,NA
92021,San Diego County,CA,25.225225225225223,NA,NA,NA
92025,San Diego County,CA,45.04504504504504,NA,NA,NA
92113,San Diego County,CA,NA,NA,31.655844155844154,NA
92115,San Diego County,CA,NA,32.44897959183673,NA,44.24778761061947
92116,San Diego County,CA,89.63963963963964,NA,NA,NA
92119,San Diego County,CA,NA,NA,NA,49.557522123893804
92128,San Diego County,CA,NA,NA,47.07792207792208,NA
92173,San Diego County,CA,NA,NA,72.24025974025975,NA
92201,Riverside County,CA,NA,24.693877551020407,77.92207792207793,NA
92211,Riverside County,CA,NA,NA,58.603896103896105,NA
92231,Imperial County,CA,NA,NA,11.525974025974026,NA
92234,Riverside County,CA,NA,NA,1.6233766233766231,NA
92253,Riverside County,CA,NA,94.48979591836735,NA,NA
92308,San Bernardino County,CA,NA,NA,60.71428571428571,NA
92345,San Bernardino County,CA,NA,9.795918367346939,NA,NA
92346,San Bernardino County,CA,NA,63.87755102040816,NA,NA
92374,San Bernardino County,CA,NA,NA,61.36363636363637,56.63716814159292
92411,San Bernardino County,CA,NA,NA,39.44805194805195,NA
92509,Riverside County,CA,48.1981981981982,NA,NA,NA
92557,Riverside County,CA,NA,36.734693877551024,NA,NA
92571,Riverside County,CA,NA,NA,53.08441558441559,NA
92591,Riverside County,CA,51.80180180180181,52.04081632653062,NA,NA
92612,Orange County,CA,NA,NA,NA,62.38938053097345
92626,Orange County,CA,NA,NA,43.18181818181818,NA
92630,Orange County,CA,NA,NA,14.123376623376624,NA
92649,Orange County,CA,NA,60.204081632653065,NA,NA
92656,Orange County,CA,NA,70,NA,NA
92688,Orange County,CA,36.93693693693694,NA,NA,NA
92706,Orange County,CA,NA,NA,86.68831168831169,NA
92780,Orange County,CA,NA,NA,56.006493506493506,NA
92843,Orange County,CA,55.4054054054054,NA,NA,NA
92845,Orange County,CA,NA,92.04081632653062,NA,NA
93022,Ventura County,CA,NA,NA,89.28571428571429,NA
93041,Ventura County,CA,NA,66.93877551020408,NA,NA
93291,Tulare County,CA,NA,21.63265306122449,NA,NA
93308,Kern County,CA,NA,NA,NA,50
93610,Madera County,CA,84.23423423423422,NA,NA,NA
93654,Fresno County,CA,35.13513513513514,58.16326530612245,NA,NA
93705,Fresno County,CA,54.5045045045045,NA,NA,NA
94014,San Mateo County,CA,NA,48.97959183673469,NA,NA
94061,San Mateo County,CA,NA,NA,NA,20.353982300884958
94080,San Mateo County,CA,NA,68.36734693877551,NA,NA
94115,San Francisco County,CA,NA,NA,34.090909090909086,NA
94133,San Francisco County,CA,NA,NA,NA,29.646017699115045
94134,San Francisco County,CA,42.792792792792795,38.9795918367347,NA,NA
94403,San Mateo County,CA,NA,NA,92.6948051948052,NA
94507,Contra Costa County,CA,NA,NA,68.01948051948052,NA
94531,Contra Costa County,CA,NA,34.69387755102041,NA,NA
94536,Alameda County,CA,NA,32.244897959183675,NA,NA
94541,Alameda County,CA,40.99099099099099,NA,NA,NA
94555,Alameda County,CA,NA,NA,NA,82.30088495575221
94566,Alameda County,CA,NA,65.51020408163265,NA,NA
94568,Alameda County,CA,NA,NA,NA,85.39823008849558
94595,Contra Costa County,CA,NA,NA,50.324675324675326,NA
94601,Alameda County,CA,58.108108108108105,NA,NA,NA
94605,Alameda County,CA,NA,82.44897959183673,NA,NA
94806,Contra Costa County,CA,NA,34.89795918367347,NA,NA
95020,Santa Clara County,CA,NA,NA,NA,59.29203539823009
95066,Santa Cruz County,CA,NA,NA,89.44805194805194,NA
95070,Santa Clara County,CA,81.98198198198197,NA,NA,NA
95116,Santa Clara County,CA,NA,85.10204081632654,NA,NA
95117,Santa Clara County,CA,NA,NA,69.15584415584416,NA
95322,Merced County,CA,NA,NA,NA,92.92035398230088
95327,Tuolumne County,CA,NA,NA,NA,81.85840707964603
95334,Merced County,CA,NA,94.28571428571428,NA,NA
95337,San Joaquin County,CA,NA,NA,41.07142857142857,76.54867256637168
95341,Merced County,CA,22.52252252252252,NA,NA,NA
95360,Stanislaus County,CA,NA,NA,92.04545454545455,NA
95453,Lake County,CA,NA,NA,NA,75.22123893805309
95608,Sacramento County,CA,NA,NA,15.584415584415584,NA
95628,Sacramento County,CA,NA,NA,NA,27.43362831858407
95667,El Dorado County,CA,NA,NA,3.4090909090909087,2.2123893805309733
95722,Placer County,CA,NA,NA,99.18831168831169,NA
95824,Sacramento County,CA,86.93693693693693,NA,NA,NA
95825,Sacramento County,CA,NA,53.46938775510204,NA,NA
95901,Yuba County,CA,NA,61.0204081632653,NA,NA
95926,Butte County,CA,NA,NA,NA,39.823008849557525
95965,Butte County,CA,NA,NA,63.961038961038966,NA
95973,Butte County,CA,NA,NA,NA,21.68141592920354
95993,Sutter County,CA,NA,51.02040816326531,NA,NA
96001,Shasta County,CA,NA,21.428571428571427,NA,NA
80004,Jefferson County,CO,NA,NA,93.01948051948052,NA
80011,Arapahoe County,CO,NA,NA,30.1948051948052,NA
80015,Arapahoe County,CO,30.630630630630627,NA,NA,NA
80017,Arapahoe County,CO,NA,NA,NA,69.02654867256636
80018,Arapahoe County,CO,85.13513513513513,NA,NA,NA
80021,Jefferson County,CO,NA,NA,54.7077922077922,NA
80138,Douglas County,CO,NA,NA,63.47402597402597,NA
80209,Denver County,CO,NA,NA,63.149350649350644,NA
80211,Denver County,CO,NA,37.142857142857146,NA,NA
80221,Adams County,CO,NA,33.06122448979592,NA,NA
80226,Jefferson County,CO,27.47747747747748,NA,NA,NA
80227,Jefferson County,CO,NA,NA,NA,86.28318584070797
80229,Adams County,CO,NA,NA,40.25974025974026,NA
80232,Jefferson County,CO,NA,NA,NA,60.17699115044248
80233,Adams County,CO,NA,28.367346938775512,NA,NA
80433,Jefferson County,CO,NA,NA,88.7987012987013,NA
80524,Larimer County,CO,27.027027027027028,NA,NA,NA
80525,Larimer County,CO,NA,15.918367346938775,NA,NA
80526,Larimer County,CO,NA,36.93877551020408,29.545454545454547,NA
80537,Larimer County,CO,NA,22.857142857142858,NA,NA
80631,Weld County,CO,12.162162162162163,8.36734693877551,NA,NA
80634,Weld County,CO,5.405405405405405,NA,1.1363636363636365,NA
80654,Morgan County,CO,NA,95.3061224489796,NA,NA
80701,Morgan County,CO,NA,23.06122448979592,NA,NA
81001,Pueblo County,CO,NA,NA,NA,64.15929203539822
81006,Pueblo County,CO,NA,NA,88.31168831168831,NA
81416,Delta County,CO,NA,NA,80.35714285714286,NA
81504,Mesa County,CO,NA,NA,54.05844155844156,NA
81625,Moffat County,CO,NA,NA,NA,92.47787610619469
81650,Garfield County,CO,NA,NA,96.26623376623377,NA
06001,Hartford County,CT,90.990990990991,NA,NA,63.27433628318584
06010,Hartford County,CT,26.576576576576578,NA,NA,NA
06066,Tolland County,CT,NA,17.959183673469386,NA,NA
06095,Hartford County,CT,NA,40.20408163265306,NA,NA
06109,Hartford County,CT,NA,NA,NA,35.39823008849557
06226,Windham County,CT,NA,16.73469387755102,NA,NA
06238,Tolland County,CT,NA,71.42857142857143,NA,NA
06437,New Haven County,CT,NA,NA,21.428571428571427,NA
06443,New Haven County,CT,NA,NA,NA,34.070796460176986
06450,New Haven County,CT,21.17117117117117,NA,NA,NA
06488,New Haven County,CT,NA,82.24489795918367,NA,NA
06606,Fairfield County,CT,NA,18.16326530612245,NA,NA
06705,New Haven County,CT,NA,NA,26.136363636363637,NA
19720,New Castle County,DE,35.585585585585584,NA,NA,9.734513274336283
19805,New Castle County,DE,NA,3.061224489795918,NA,NA
19904,Kent County,DE,NA,13.26530612244898,NA,NA
19933,Sussex County,DE,NA,NA,NA,82.7433628318584
19938,Kent County,DE,NA,NA,95.77922077922078,NA
19945,Sussex County,DE,NA,NA,NA,98.67256637168141
19950,Sussex County,DE,NA,NA,77.27272727272727,NA
19966,Sussex County,DE,NA,24.489795918367346,NA,NA
19973,Sussex County,DE,NA,NA,16.72077922077922,NA
19977,Kent County,DE,NA,23.877551020408163,NA,NA
32011,Nassau County,FL,NA,NA,55.032467532467535,NA
32068,Clay County,FL,NA,11.83673469387755,NA,NA
32162,Sumter County,FL,NA,NA,NA,3.982300884955752
32163,Sumter County,FL,NA,NA,30.032467532467532,NA
32207,Duval County,FL,NA,NA,9.090909090909092,NA
32208,Duval County,FL,NA,1.6326530612244898,NA,NA
32210,Duval County,FL,NA,NA,31.16883116883117,NA
32309,Leon County,FL,NA,77.14285714285715,NA,NA
32351,Gadsden County,FL,42.34234234234234,NA,NA,NA
32407,Bay County,FL,NA,NA,94.15584415584416,NA
32431,Jackson County,FL,NA,NA,81.98051948051948,NA
32433,Walton County,FL,NA,84.08163265306122,NA,NA
32501,Escambia County,FL,61.711711711711715,NA,NA,NA
32503,Escambia County,FL,83.78378378378379,NA,NA,NA
32507,Escambia County,FL,31.98198198198198,NA,NA,NA
32539,Okaloosa County,FL,NA,NA,23.863636363636363,NA
32570,Santa Rosa County,FL,40.090090090090094,NA,4.220779220779221,NA
32640,Putnam County,FL,NA,NA,96.75324675324676,NA
32714,Seminole County,FL,NA,NA,NA,52.654867256637175
32724,Volusia County,FL,NA,59.38775510204082,NA,NA
32725,Volusia County,FL,NA,35.51020408163265,NA,40.26548672566372
32738,Volusia County,FL,NA,NA,NA,57.52212389380531
32746,Seminole County,FL,68.91891891891892,NA,NA,NA
32757,Lake County,FL,NA,NA,25.649350649350648,NA
32811,Orange County,FL,NA,23.46938775510204,NA,NA
32819,Orange County,FL,NA,NA,70.12987012987013,NA
32824,Orange County,FL,NA,NA,NA,48.23008849557522
32909,Brevard County,FL,NA,39.795918367346935,NA,NA
32937,Brevard County,FL,97.74774774774775,NA,NA,NA
32953,Brevard County,FL,NA,62.857142857142854,NA,NA
32955,Brevard County,FL,NA,NA,19.642857142857142,NA
33010,Miami-Dade County,FL,NA,NA,38.63636363636363,NA
33013,Miami-Dade County,FL,73.87387387387388,NA,NA,NA
33020,Broward County,FL,NA,NA,22.88961038961039,NA
33023,Broward County,FL,NA,NA,NA,57.07964601769911
33030,Miami-Dade County,FL,37.38738738738739,NA,NA,NA
33034,Miami-Dade County,FL,NA,62.244897959183675,NA,NA
33055,Miami-Dade County,FL,NA,NA,57.62987012987013,NA
33056,Miami-Dade County,FL,NA,40.61224489795918,NA,NA
33062,Broward County,FL,NA,NA,24.350649350649352,NA
33135,Miami-Dade County,FL,80.63063063063063,90.40816326530611,NA,NA
33138,Miami-Dade County,FL,NA,88.16326530612245,NA,NA
33162,Miami-Dade County,FL,NA,NA,95.61688311688312,NA
33168,Miami-Dade County,FL,64.86486486486487,72.0408163265306,NA,NA
33172,Miami-Dade County,FL,NA,NA,58.11688311688312,NA
33186,Miami-Dade County,FL,NA,NA,NA,28.761061946902654
33196,Miami-Dade County,FL,NA,NA,61.850649350649356,NA
33313,Broward County,FL,NA,NA,38.961038961038966,53.53982300884957
33408,Palm Beach County,FL,NA,NA,NA,79.20353982300885
33431,Palm Beach County,FL,NA,NA,88.63636363636364,NA
33486,Palm Beach County,FL,NA,85.91836734693878,NA,NA
33511,Hillsborough County,FL,NA,38.57142857142858,76.46103896103897,NA
33523,Pasco County,FL,NA,NA,97.72727272727273,NA
33534,Hillsborough County,FL,NA,73.87755102040816,NA,NA
33543,Pasco County,FL,88.28828828828829,NA,NA,NA
33556,Hillsborough County,FL,NA,NA,NA,99.11504424778761
33576,Pasco County,FL,NA,NA,NA,96.46017699115043
33578,Hillsborough County,FL,NA,NA,57.14285714285714,NA
33592,Hillsborough County,FL,NA,NA,NA,95.57522123893806
33612,Hillsborough County,FL,NA,NA,34.41558441558442,NA
33613,Hillsborough County,FL,NA,NA,48.701298701298704,NA
33614,Hillsborough County,FL,NA,35.30612244897959,NA,NA
33712,Pinellas County,FL,NA,NA,56.980519480519476,NA
33759,Pinellas County,FL,NA,74.48979591836735,NA,NA
33761,Pinellas County,FL,NA,NA,NA,47.78761061946903
33764,Pinellas County,FL,NA,NA,85.3896103896104,NA
33772,Pinellas County,FL,NA,NA,69.31818181818183,NA
33801,Polk County,FL,6.756756756756757,NA,NA,NA
33803,Polk County,FL,NA,64.48979591836735,NA,NA
33852,Highlands County,FL,NA,NA,52.922077922077925,NA
33859,Polk County,FL,NA,NA,65.42207792207793,NA
33860,Polk County,FL,72.52252252252252,NA,NA,NA
33872,Highlands County,FL,NA,71.0204081632653,NA,NA
33876,Highlands County,FL,NA,NA,87.66233766233766,NA
33897,Polk County,FL,NA,NA,NA,78.76106194690266
33898,Polk County,FL,NA,83.06122448979592,NA,NA
33901,Lee County,FL,NA,80.81632653061224,NA,NA
33907,Lee County,FL,NA,51.42857142857142,NA,NA
33908,Lee County,FL,NA,63.6734693877551,4.545454545454546,NA
33909,Lee County,FL,71.62162162162163,NA,NA,NA
33914,Lee County,FL,NA,41.224489795918366,12.012987012987013,NA
33922,Lee County,FL,NA,NA,90.74675324675324,NA
33935,Hendry County,FL,NA,NA,67.04545454545455,NA
33936,Lee County,FL,NA,NA,59.41558441558441,NA
33948,Charlotte County,FL,NA,NA,37.01298701298701,NA
34119,Collier County,FL,NA,44.285714285714285,NA,NA
34205,Manatee County,FL,NA,70,NA,NA
34208,Manatee County,FL,NA,27.755102040816325,NA,NA
34210,Manatee County,FL,NA,NA,91.23376623376623,NA
34219,Manatee County,FL,NA,NA,NA,91.5929203539823
34239,Sarasota County,FL,NA,NA,68.83116883116884,NA
34292,Sarasota County,FL,NA,NA,NA,16.371681415929203
34420,Marion County,FL,NA,NA,60.064935064935064,NA
34471,Marion County,FL,NA,NA,NA,56.19469026548673
34472,Marion County,FL,NA,37.95918367346939,NA,NA
34601,Hernando County,FL,NA,NA,59.9025974025974,NA
34607,Hernando County,FL,NA,NA,93.66883116883116,NA
34638,Pasco County,FL,91.8918918918919,NA,NA,NA
34669,Pasco County,FL,NA,NA,87.33766233766234,NA
34691,Pasco County,FL,45.4954954954955,NA,NA,NA
34714,Lake County,FL,72.07207207207207,NA,NA,NA
34744,Osceola County,FL,NA,NA,35.714285714285715,NA
34748,Lake County,FL,NA,NA,7.792207792207792,NA
34758,Osceola County,FL,NA,NA,NA,71.68141592920354
34952,St. Lucie County,FL,NA,NA,6.8181818181818175,NA
34996,Martin County,FL,NA,NA,NA,29.20353982300885
30012,Rockdale County,GA,72.52252252252252,NA,NA,NA
30043,Gwinnett County,GA,NA,NA,75.64935064935064,NA
30044,Gwinnett County,GA,18.91891891891892,NA,NA,NA
30047,Gwinnett County,GA,NA,63.469387755102034,75.16233766233766,NA
30058,DeKalb County,GA,37.83783783783784,NA,NA,NA
30062,Cobb County,GA,NA,NA,12.662337662337661,NA
30075,Fulton County,GA,NA,NA,NA,54.86725663716814
30094,Rockdale County,GA,NA,NA,27.759740259740262,NA
30102,Cherokee County,GA,NA,NA,78.73376623376623,NA
30115,Cherokee County,GA,NA,NA,36.36363636363637,NA
30127,Cobb County,GA,NA,NA,NA,27.876106194690266
30157,Paulding County,GA,53.153153153153156,NA,NA,NA
30161,Floyd County,GA,NA,NA,17.694805194805195,NA
30188,Cherokee County,GA,NA,23.26530612244898,NA,NA
30263,Coweta County,GA,15.315315315315313,NA,NA,NA
30265,Coweta County,GA,34.68468468468468,NA,NA,NA
30273,Clayton County,GA,NA,NA,83.27922077922078,NA
30274,Clayton County,GA,NA,NA,70.77922077922078,NA
30281,Henry County,GA,NA,NA,14.285714285714285,NA
30288,Clayton County,GA,NA,88.36734693877551,96.42857142857143,NA
30338,DeKalb County,GA,NA,75.3061224489796,NA,NA
30342,Fulton County,GA,NA,NA,89.6103896103896,NA
30349,Fulton County,GA,8.108108108108109,NA,NA,NA
30518,Gwinnett County,GA,36.03603603603604,NA,NA,NA
30533,Lumpkin County,GA,NA,69.18367346938776,NA,NA
30534,Dawson County,GA,NA,NA,30.681818181818183,NA
30655,Walton County,GA,23.873873873873876,NA,NA,NA
30656,Walton County,GA,NA,NA,62.01298701298701,NA
30815,Richmond County,GA,NA,NA,45.77922077922078,NA
31024,Putnam County,GA,NA,NA,NA,34.51327433628318
31093,Houston County,GA,NA,NA,29.05844155844156,NA
31220,Bibb County,GA,NA,81.42857142857143,NA,NA
31408,Chatham County,GA,NA,NA,97.07792207792207,NA
31520,Glynn County,GA,NA,55.306122448979586,NA,NA
31546,Wayne County,GA,95.4954954954955,NA,87.01298701298701,NA
31636,Lowndes County,GA,NA,NA,82.46753246753246,NA
31768,Colquitt County,GA,28.82882882882883,NA,NA,NA
31791,Worth County,GA,NA,80.20408163265306,NA,NA
31794,Tift County,GA,NA,77.9591836734694,NA,NA
31906,Muscogee County,GA,NA,NA,40.58441558441558,NA
31907,Muscogee County,GA,NA,7.959183673469387,19.480519480519483,NA
96712,Honolulu County,HI,NA,NA,NA,96.90265486725663
96743,Hawaii County,HI,NA,NA,91.88311688311688,NA
96744,Honolulu County,HI,NA,NA,2.272727272727273,NA
96749,Hawaii County,HI,NA,81.0204081632653,NA,NA
96825,Honolulu County,HI,NA,NA,52.75974025974026,NA
83221,Bingham County,ID,NA,NA,51.94805194805194,NA
83318,Cassia County,ID,NA,NA,NA,48.67256637168141
83338,Jerome County,ID,NA,NA,NA,46.46017699115044
83440,Madison County,ID,NA,NA,68.01948051948052,NA
83501,Nez Perce County,ID,NA,NA,NA,7.52212389380531
83616,Ada County,ID,NA,NA,NA,17.25663716814159
83634,Ada County,ID,NA,NA,44.8051948051948,NA
83646,Ada County,ID,NA,11.63265306122449,NA,NA
83651,Canyon County,ID,NA,NA,NA,17.699115044247787
83686,Canyon County,ID,NA,NA,3.7337662337662336,NA
83709,Ada County,ID,NA,50,NA,NA
83801,Kootenai County,ID,NA,NA,99.51298701298701,NA
83854,Kootenai County,ID,NA,NA,18.506493506493506,NA
60002,Lake County,IL,NA,NA,30.844155844155846,NA
60020,Lake County,IL,NA,NA,82.14285714285714,NA
60025,Cook County,IL,NA,NA,62.66233766233766,NA
60030,Lake County,IL,NA,44.69387755102041,NA,NA
60053,Cook County,IL,NA,78.36734693877551,NA,NA
60056,Cook County,IL,27.927927927927925,NA,12.5,NA
60064,Lake County,IL,NA,78.16326530612245,NA,NA
60067,Cook County,IL,NA,46.326530612244895,NA,NA
60073,Lake County,IL,39.189189189189186,NA,NA,NA
60074,Cook County,IL,NA,74.89795918367346,NA,NA
60081,McHenry County,IL,NA,97.14285714285714,NA,NA
60085,Lake County,IL,NA,18.571428571428573,NA,NA
60110,Kane County,IL,NA,79.59183673469387,NA,NA
60120,Kane County,IL,NA,28.57142857142857,NA,NA
60126,DuPage County,IL,NA,NA,2.1103896103896105,6.637168141592921
60136,Kane County,IL,NA,93.6734693877551,NA,NA
60148,DuPage County,IL,NA,15.510204081632653,NA,15.04424778761062
60164,Cook County,IL,NA,41.0204081632653,NA,NA
60181,DuPage County,IL,NA,NA,26.785714285714285,NA
60410,Will County,IL,41.44144144144144,NA,NA,NA
60417,Will County,IL,NA,NA,68.66883116883116,NA
60422,Cook County,IL,NA,NA,44.31818181818182,NA
60441,Will County,IL,NA,NA,NA,42.92035398230089
60450,Grundy County,IL,NA,NA,NA,22.566371681415927
60452,Cook County,IL,NA,NA,40.42207792207792,NA
60453,Cook County,IL,NA,NA,NA,7.079646017699115
60455,Cook County,IL,NA,NA,47.88961038961039,NA
60462,Cook County,IL,NA,NA,4.383116883116883,NA
60467,Cook County,IL,NA,54.69387755102041,23.214285714285715,NA
60473,Cook County,IL,NA,60.61224489795919,NA,NA
60477,Cook County,IL,NA,27.95918367346939,NA,NA
60521,DuPage County,IL,82.88288288288288,NA,NA,NA
60527,DuPage County,IL,NA,NA,NA,19.02654867256637
60541,Kendall County,IL,86.03603603603604,NA,NA,NA
60544,Will County,IL,NA,38.775510204081634,NA,NA
60558,Cook County,IL,60.810810810810814,NA,NA,NA
60564,Will County,IL,NA,NA,58.76623376623377,NA
60586,Will County,IL,18.46846846846847,NA,NA,NA
60610,Cook County,IL,NA,NA,55.84415584415584,NA
60612,Cook County,IL,NA,NA,NA,38.93805309734513
60613,Cook County,IL,NA,29.591836734693878,30.519480519480517,NA
60616,Cook County,IL,NA,NA,38.311688311688314,NA
60620,Cook County,IL,NA,NA,2.922077922077922,NA
60623,Cook County,IL,NA,NA,NA,84.070796460177
60624,Cook County,IL,NA,16.122448979591837,NA,NA
60629,Cook County,IL,NA,5.510204081632653,46.42857142857143,11.504424778761061
60630,Cook County,IL,NA,NA,10.064935064935066,NA
60632,Cook County,IL,NA,14.081632653061224,77.1103896103896,NA
60638,Cook County,IL,NA,9.183673469387756,NA,NA
60641,Cook County,IL,NA,13.061224489795919,NA,NA
60644,Cook County,IL,NA,NA,10.38961038961039,NA
60655,Cook County,IL,NA,NA,65.74675324675324,NA
60915,Kankakee County,IL,NA,NA,NA,58.849557522123895
61065,Boone County,IL,NA,NA,90.42207792207793,NA
61073,Winnebago County,IL,NA,NA,37.82467532467532,NA
61102,Winnebago County,IL,NA,NA,NA,79.64601769911505
61111,Winnebago County,IL,NA,NA,NA,61.94690265486725
61114,Winnebago County,IL,NA,NA,66.3961038961039,NA
61244,Rock Island County,IL,87.38738738738738,NA,NA,NA
61301,LaSalle County,IL,NA,NA,62.824675324675326,NA
61364,LaSalle County,IL,NA,NA,79.87012987012987,NA
61764,Livingston County,IL,NA,NA,74.18831168831169,NA
61856,Piatt County,IL,NA,NA,49.02597402597403,NA
61944,Edgar County,IL,NA,NA,53.246753246753244,NA
62040,Madison County,IL,NA,20.816326530612244,NA,NA
62234,Madison County,IL,NA,54.285714285714285,NA,NA
62263,Washington County,IL,NA,92.44897959183673,NA,NA
62702,Sangamon County,IL,NA,NA,34.090909090909086,NA
62959,Williamson County,IL,NA,NA,14.285714285714285,NA
46060,Hamilton County,IN,NA,66.53061224489795,88.14935064935064,NA
46074,Hamilton County,IN,NA,68.16326530612244,NA,NA
46142,Johnson County,IN,NA,NA,9.740259740259742,NA
46184,Johnson County,IN,91.44144144144144,NA,NA,NA
46222,Marion County,IN,NA,NA,62.175324675324674,NA
46226,Marion County,IN,NA,NA,12.824675324675324,NA
46227,Marion County,IN,NA,NA,NA,5.3097345132743365
46235,Marion County,IN,NA,56.12244897959183,NA,NA
46237,Marion County,IN,NA,NA,8.279220779220779,18.58407079646018
46323,Lake County,IN,14.414414414414415,NA,51.298701298701296,NA
46324,Lake County,IN,23.423423423423422,NA,NA,NA
46350,LaPorte County,IN,11.711711711711711,NA,5.681818181818182,NA
46368,Porter County,IN,NA,2.857142857142857,NA,NA
46408,Lake County,IN,NA,NA,44.642857142857146,NA
46410,Lake County,IN,NA,NA,3.571428571428571,NA
46511,Marshall County,IN,NA,NA,94.96753246753246,NA
46514,Elkhart County,IN,NA,30.408163265306122,18.66883116883117,NA
46516,Elkhart County,IN,NA,17.346938775510203,NA,NA
46733,Adams County,IN,NA,NA,75.32467532467533,NA
46795,LaGrange County,IN,NA,NA,81.4935064935065,NA
46804,Allen County,IN,NA,NA,NA,42.0353982300885
46933,Grant County,IN,NA,90,NA,NA
46979,Howard County,IN,NA,NA,94.64285714285714,NA
47150,Floyd County,IN,NA,NA,6.331168831168831,NA
47165,Washington County,IN,77.92792792792793,NA,NA,NA
47201,Bartholomew County,IN,NA,72.85714285714285,NA,NA
47331,Fayette County,IN,NA,NA,NA,10.619469026548673
47546,Dubois County,IN,43.24324324324324,NA,NA,NA
47906,Tippecanoe County,IN,NA,NA,82.95454545454545,NA
47909,Tippecanoe County,IN,NA,40,NA,NA
47933,Montgomery County,IN,NA,NA,NA,70.79646017699115
50036,Boone County,IA,NA,NA,51.13636363636363,NA
50211,Warren County,IA,NA,92.44897959183673,NA,NA
50219,Marion County,IA,NA,86.3265306122449,NA,NA
50273,Madison County,IA,95.04504504504504,NA,NA,NA
50314,Polk County,IA,NA,49.38775510204081,59.577922077922075,NA
50320,Polk County,IA,NA,NA,63.63636363636363,NA
50401,Cerro Gordo County,IA,4.504504504504505,NA,NA,NA
50428,Cerro Gordo County,IA,NA,NA,44.967532467532465,NA
50702,Black Hawk County,IA,NA,NA,90.5844155844156,NA
51503,Pottawattamie County,IA,NA,8.571428571428571,NA,NA
52402,Linn County,IA,NA,NA,22.07792207792208,NA
52556,Jefferson County,IA,NA,NA,82.62987012987013,NA
52632,Lee County,IA,NA,NA,80.84415584415584,NA
52742,Clinton County,IA,NA,NA,82.95454545454545,NA
52803,Scott County,IA,NA,NA,78.8961038961039,NA
52806,Scott County,IA,NA,21.836734693877553,NA,NA
66007,Leavenworth County,KS,92.7927927927928,NA,NA,NA
66061,Johnson County,KS,NA,NA,NA,92.03539823008849
66062,Johnson County,KS,14.864864864864865,37.55102040816327,NA,NA
66202,Johnson County,KS,NA,NA,84.25324675324676,NA
66502,Riley County,KS,NA,NA,85.55194805194806,NA
66605,Shawnee County,KS,NA,NA,52.27272727272727,NA
66701,Bourbon County,KS,NA,85.71428571428571,NA,NA
66713,Cherokee County,KS,NA,98.9795918367347,NA,NA
66762,Crawford County,KS,NA,NA,49.51298701298701,NA
67301,Montgomery County,KS,NA,82.0408163265306,NA,NA
67871,Scott County,KS,NA,NA,65.42207792207793,NA
40031,Oldham County,KY,NA,80,NA,NA
40214,Jefferson County,KY,19.36936936936937,NA,13.14935064935065,NA
40220,Jefferson County,KY,NA,NA,16.558441558441558,NA
40229,Jefferson County,KY,NA,NA,16.233766233766232,NA
40245,Jefferson County,KY,NA,NA,37.98701298701299,NA
40272,Jefferson County,KY,13.963963963963963,NA,NA,NA
40299,Jefferson County,KY,NA,NA,18.993506493506494,NA
40324,Scott County,KY,NA,NA,19.155844155844157,NA
40353,Montgomery County,KY,NA,NA,26.623376623376622,NA
40475,Madison County,KY,NA,NA,8.441558441558442,NA
40906,Knox County,KY,NA,68.57142857142857,73.7012987012987,NA
41001,Campbell County,KY,NA,NA,NA,64.15929203539822
41018,Kenton County,KY,NA,26.3265306122449,NA,NA
41030,Grant County,KY,NA,NA,NA,98.23008849557522
41041,Fleming County,KY,NA,75.71428571428571,NA,NA
41129,Boyd County,KY,NA,NA,54.87012987012987,NA
41572,Pike County,KY,NA,NA,92.37012987012987,NA
42071,Calloway County,KY,NA,NA,40.909090909090914,NA
42164,Allen County,KY,NA,39.183673469387756,NA,NA
42633,Wayne County,KY,NA,56.734693877551024,NA,NA
42701,Hardin County,KY,16.666666666666664,NA,7.954545454545454,NA
42717,Cumberland County,KY,NA,NA,71.26623376623377,NA
70001,Jefferson Parish,LA,NA,NA,NA,11.946902654867257
70002,Jefferson Parish,LA,NA,NA,79.38311688311688,NA
70068,St. John the Baptist Parish,LA,NA,9.591836734693878,NA,NA
70116,Orleans Parish,LA,NA,53.06122448979592,NA,NA
70131,Orleans Parish,LA,NA,NA,67.37012987012987,NA
70342,St. Mary Parish,LA,NA,70.61224489795919,NA,NA
70345,Lafourche Parish,LA,NA,NA,74.51298701298701,NA
70363,Terrebonne Parish,LA,NA,3.877551020408163,NA,NA
70420,St. Tammany Parish,LA,NA,NA,92.20779220779221,NA
70433,St. Tammany Parish,LA,NA,NA,33.76623376623377,NA
70471,St. Tammany Parish,LA,NA,NA,17.532467532467532,NA
70508,Lafayette Parish,LA,NA,76.53061224489795,NA,NA
70518,Lafayette Parish,LA,NA,53.265306122448976,NA,NA
70538,St. Mary Parish,LA,NA,NA,50.16233766233766,NA
70548,Vermilion Parish,LA,NA,87.14285714285714,NA,NA
70601,Calcasieu Parish,LA,NA,NA,NA,30.08849557522124
70665,Calcasieu Parish,LA,NA,NA,78.0844155844156,NA
70726,Livingston Parish,LA,1.8018018018018018,NA,NA,NA
70774,Ascension Parish,LA,76.57657657657657,NA,NA,NA
70785,Livingston Parish,LA,NA,NA,NA,67.69911504424779
70806,East Baton Rouge Parish,LA,NA,65.10204081632654,NA,NA
70820,East Baton Rouge Parish,LA,83.33333333333334,NA,NA,NA
71037,Bossier Parish,LA,NA,NA,78.57142857142857,NA
71129,Caddo Parish,LA,NA,NA,98.7012987012987,NA
71203,Ouachita Parish,LA,NA,NA,57.95454545454546,NA
71251,Jackson Parish,LA,NA,NA,NA,100
71254,East Carroll Parish,LA,98.1981981981982,NA,NA,NA
71292,Ouachita Parish,LA,NA,42.857142857142854,NA,NA
04071,Cumberland County,ME,NA,NA,96.9155844155844,NA
04073,York County,ME,NA,NA,NA,18.141592920353983
04092,Cumberland County,ME,NA,NA,61.52597402597403,NA
04101,Cumberland County,ME,NA,NA,87.17532467532467,NA
04210,Androscoggin County,ME,NA,19.183673469387756,6.98051948051948,NA
04250,Androscoggin County,ME,NA,NA,95.94155844155844,NA
04276,Oxford County,ME,NA,NA,NA,97.78761061946902
04401,Penobscot County,ME,NA,2.2448979591836733,NA,NA
04736,Aroostook County,ME,NA,NA,NA,30.973451327433626
20706,Prince George's County,MD,NA,62.04081632653061,NA,NA
20736,Calvert County,MD,NA,NA,97.40259740259741,NA
20772,Prince George's County,MD,NA,51.83673469387755,NA,NA
20817,Montgomery County,MD,NA,NA,90.25974025974025,NA
20878,Montgomery County,MD,NA,50.40816326530613,NA,NA
21013,Baltimore County,MD,NA,99.79591836734694,NA,NA
21014,Harford County,MD,NA,41.83673469387755,NA,NA
21030,Baltimore County,MD,60.810810810810814,NA,NA,NA
21061,Anne Arundel County,MD,NA,NA,NA,94.69026548672566
21114,Anne Arundel County,MD,NA,67.14285714285714,NA,NA
21157,Carroll County,MD,NA,NA,74.18831168831169,NA
21207,Baltimore County,MD,NA,NA,NA,19.911504424778762
21209,Baltimore County,MD,38.73873873873874,NA,NA,NA
21220,Baltimore County,MD,NA,NA,26.948051948051948,NA
21222,Baltimore County,MD,NA,NA,1.461038961038961,NA
21403,Anne Arundel County,MD,NA,NA,43.66883116883117,NA
21921,Cecil County,MD,NA,NA,NA,23.008849557522122
01085,Hampden County,MA,NA,NA,NA,9.29203539823009
01089,Hampden County,MA,NA,4.285714285714286,NA,NA
01108,Hampden County,MA,NA,NA,4.058441558441558,NA
01331,Worcester County,MA,NA,4.8979591836734695,NA,NA
01420,Worcester County,MA,4.954954954954955,NA,NA,NA
01436,Worcester County,MA,NA,NA,99.83766233766234,NA
01463,Middlesex County,MA,NA,49.38775510204081,NA,NA
01545,Worcester County,MA,NA,70.40816326530613,NA,NA
01571,Worcester County,MA,NA,30.20408163265306,NA,NA
01602,Worcester County,MA,NA,NA,16.883116883116884,NA
01604,Worcester County,MA,NA,6.122448979591836,NA,NA
01605,Worcester County,MA,6.306306306306306,NA,NA,NA
01721,Middlesex County,MA,NA,34.08163265306122,NA,NA
01757,Worcester County,MA,NA,93.46938775510203,NA,NA
01810,Essex County,MA,NA,12.857142857142856,NA,NA
01841,Essex County,MA,0.45045045045045046,NA,NA,NA
01843,Essex County,MA,89.1891891891892,3.2653061224489797,NA,NA
01880,Middlesex County,MA,NA,NA,4.870129870129871,NA
01929,Essex County,MA,NA,96.3265306122449,NA,NA
01944,Essex County,MA,NA,NA,81.0064935064935,NA
02035,Norfolk County,MA,NA,NA,19.967532467532468,NA
02066,Plymouth County,MA,NA,NA,42.6948051948052,NA
02072,Norfolk County,MA,NA,NA,34.57792207792208,NA
02116,Suffolk County,MA,NA,NA,2.4350649350649354,NA
02121,Suffolk County,MA,NA,0.40816326530612246,NA,NA
02122,Suffolk County,MA,NA,10,NA,NA
02124,Suffolk County,MA,NA,NA,NA,1.3274336283185841
02125,Suffolk County,MA,NA,NA,0.487012987012987,NA
02132,Suffolk County,MA,NA,NA,0.974025974025974,NA
02143,Middlesex County,MA,NA,NA,8.603896103896105,NA
02148,Middlesex County,MA,NA,0,NA,NA
02149,Middlesex County,MA,0.9009009009009009,NA,NA,NA
02152,Suffolk County,MA,NA,NA,6.1688311688311686,NA
02155,Middlesex County,MA,NA,NA,NA,0.4424778761061947
02186,Norfolk County,MA,NA,14.489795918367346,NA,NA
02188,Norfolk County,MA,NA,NA,69.8051948051948,NA
02343,Norfolk County,MA,NA,NA,66.23376623376623,NA
02364,Plymouth County,MA,NA,55.51020408163265,NA,NA
02421,Middlesex County,MA,NA,NA,34.74025974025974,NA
02453,Middlesex County,MA,NA,75.91836734693878,NA,NA
02476,Middlesex County,MA,NA,NA,23.051948051948052,NA
02493,Middlesex County,MA,NA,NA,66.55844155844156,NA
02601,Barnstable County,MA,NA,88.57142857142857,NA,NA
02664,Barnstable County,MA,NA,59.795918367346935,NA,NA
02740,Bristol County,MA,2.7027027027027026,NA,NA,NA
02745,Bristol County,MA,75.67567567567568,NA,NA,NA
02762,Norfolk County,MA,94.14414414414415,NA,NA,NA
02777,Bristol County,MA,NA,7.346938775510205,NA,NA
02780,Bristol County,MA,NA,0.20408163265306123,NA,72.12389380530973
48033,Oakland County,MI,NA,74.28571428571429,NA,NA
48034,Oakland County,MI,NA,NA,50.97402597402597,NA
48036,Macomb County,MI,NA,29.183673469387756,NA,NA
48038,Macomb County,MI,NA,NA,NA,4.867256637168142
48044,Macomb County,MI,NA,NA,4.707792207792208,NA
48047,Macomb County,MI,NA,45.714285714285715,NA,NA
48071,Oakland County,MI,NA,26.93877551020408,NA,NA
48093,Macomb County,MI,NA,71.42857142857143,NA,NA
48098,Oakland County,MI,67.56756756756756,NA,NA,61.06194690265486
48124,Wayne County,MI,NA,NA,19.805194805194805,NA
48134,Wayne County,MI,NA,29.38775510204082,NA,54.424778761061944
48138,Wayne County,MI,NA,91.42857142857143,NA,52.654867256637175
48162,Monroe County,MI,NA,NA,66.72077922077922,NA
48168,Wayne County,MI,70.27027027027027,NA,NA,NA
48180,Wayne County,MI,NA,2.6530612244897958,NA,NA
48182,Monroe County,MI,NA,NA,39.61038961038961,NA
48184,Wayne County,MI,NA,NA,21.1038961038961,NA
48185,Wayne County,MI,NA,NA,5.194805194805195,NA
48192,Wayne County,MI,NA,18.775510204081634,NA,NA
48234,Wayne County,MI,NA,NA,NA,68.58407079646017
48317,Macomb County,MI,NA,NA,15.746753246753247,NA
48357,Oakland County,MI,NA,84.48979591836735,NA,NA
48371,Oakland County,MI,NA,NA,74.83766233766234,NA
48439,Genesee County,MI,NA,NA,12.987012987012985,NA
48451,Genesee County,MI,NA,76.12244897959184,NA,NA
48625,Clare County,MI,48.64864864864865,NA,NA,NA
48650,Bay County,MI,NA,NA,95.45454545454545,NA
48706,Bay County,MI,NA,NA,0.8116883116883116,NA
48723,Tuscola County,MI,NA,28.775510204081634,NA,NA
48809,Ionia County,MI,NA,69.79591836734694,NA,NA
48827,Eaton County,MI,NA,NA,91.72077922077922,NA
49021,Eaton County,MI,NA,81.83673469387756,NA,NA
49047,Cass County,MI,NA,55.714285714285715,NA,NA
49080,Allegan County,MI,NA,44.08163265306123,NA,NA
49120,Berrien County,MI,NA,14.897959183673471,NA,NA
49228,Lenawee County,MI,NA,91.22448979591836,NA,NA
49270,Monroe County,MI,NA,NA,91.07142857142857,NA
49301,Kent County,MI,NA,87.75510204081633,NA,NA
49341,Kent County,MI,22.972972972972975,NA,NA,NA
49348,Allegan County,MI,NA,33.265306122448976,NA,NA
49423,Ottawa County,MI,NA,40.61224489795918,NA,NA
49431,Mason County,MI,NA,34.48979591836735,NA,NA
49503,Kent County,MI,10.81081081081081,NA,NA,NA
49504,Kent County,MI,NA,NA,10.714285714285714,NA
49506,Kent County,MI,NA,NA,40.0974025974026,NA
49546,Kent County,MI,NA,NA,NA,16.8141592920354
49601,Wexford County,MI,62.16216216216216,NA,NA,NA
49660,Manistee County,MI,NA,NA,NA,31.41592920353982
49665,Osceola County,MI,NA,NA,91.3961038961039,NA
49931,Houghton County,MI,NA,NA,70.12987012987013,NA
55021,Rice County,MN,NA,38.163265306122454,NA,NA
55044,Dakota County,MN,NA,54.08163265306123,NA,NA
55063,Pine County,MN,NA,96.93877551020408,NA,NA
55076,Dakota County,MN,NA,NA,NA,75.66371681415929
55107,Ramsey County,MN,NA,NA,67.53246753246754,NA
55112,Ramsey County,MN,NA,NA,NA,20.79646017699115
55118,Dakota County,MN,NA,NA,39.77272727272727,NA
55125,Washington County,MN,33.78378378378378,NA,NA,NA
55129,Washington County,MN,44.5945945945946,NA,NA,NA
55337,Dakota County,MN,16.216216216216218,NA,NA,NA
55343,Hennepin County,MN,NA,NA,38.47402597402597,NA
55389,Meeker County,MN,NA,NA,100,NA
55411,Hennepin County,MN,13.063063063063062,NA,NA,NA
55416,Hennepin County,MN,NA,43.673469387755105,NA,NA
55419,Hennepin County,MN,9.90990990990991,NA,NA,NA
55422,Hennepin County,MN,NA,31.020408163265305,NA,NA
55427,Hennepin County,MN,53.153153153153156,NA,NA,NA
55443,Hennepin County,MN,37.83783783783784,31.83673469387755,NA,NA
55448,Anoka County,MN,NA,42.04081632653061,NA,NA
55792,St. Louis County,MN,NA,36.53061224489796,NA,NA
55811,St. Louis County,MN,NA,NA,NA,3.5398230088495577
55901,Olmsted County,MN,NA,63.06122448979592,NA,NA
55987,Winona County,MN,NA,8.16326530612245,NA,NA
56011,Scott County,MN,NA,99.38775510204081,NA,NA
56031,Martin County,MN,NA,50.204081632653065,NA,NA
56073,Brown County,MN,68.46846846846847,NA,NA,NA
56304,Sherburne County,MN,NA,NA,79.05844155844156,NA
56308,Douglas County,MN,5.8558558558558556,64.08163265306122,NA,NA
56368,Stearns County,MN,NA,96.53061224489797,NA,NA
38751,Sunflower County,MS,NA,NA,71.42857142857143,NA
38756,Washington County,MS,NA,NA,91.55844155844156,NA
38801,Lee County,MS,NA,39.59183673469388,NA,NA
38834,Alcorn County,MS,NA,NA,21.753246753246753,NA
39074,Scott County,MS,NA,38.36734693877551,NA,NA
39180,Warren County,MS,NA,NA,46.26623376623377,NA
39305,Lauderdale County,MS,NA,NA,NA,61.504424778761056
39443,Jones County,MS,NA,67.75510204081633,59.74025974025974,NA
39452,George County,MS,NA,27.142857142857142,18.181818181818183,NA
39507,Harrison County,MS,NA,NA,NA,14.601769911504425
39520,Hancock County,MS,NA,30.612244897959183,NA,NA
39530,Harrison County,MS,NA,NA,84.90259740259741,NA
39560,Harrison County,MS,NA,NA,7.142857142857142,NA
39563,Jackson County,MS,NA,87.34693877551021,NA,NA
39564,Jackson County,MS,NA,NA,28.084415584415584,NA
39567,Jackson County,MS,NA,NA,89.77272727272727,NA
39601,Lincoln County,MS,NA,NA,NA,45.13274336283185
39667,Walthall County,MS,NA,NA,61.68831168831169,NA
63017,St. Louis County,MO,52.702702702702695,NA,NA,NA
63122,St. Louis County,MO,NA,NA,20.29220779220779,11.061946902654867
63775,Perry County,MO,NA,NA,67.20779220779221,NA
64014,Jackson County,MO,46.846846846846844,NA,NA,NA
64020,Lafayette County,MO,NA,89.38775510204081,NA,NA
64055,Jackson County,MO,NA,NA,6.0064935064935066,NA
64068,Clay County,MO,NA,92.24489795918367,NA,NA
64079,Platte County,MO,NA,NA,84.4155844155844,NA
64081,Jackson County,MO,NA,NA,36.52597402597403,NA
64082,Jackson County,MO,NA,NA,72.40259740259741,NA
64083,Cass County,MO,NA,NA,87.82467532467533,NA
64089,Clay County,MO,NA,57.14285714285714,NA,NA
64117,Clay County,MO,NA,37.3469387755102,NA,NA
64130,Jackson County,MO,NA,NA,NA,39.38053097345133
64138,Jackson County,MO,NA,10.612244897959183,97.56493506493507,NA
64155,Clay County,MO,17.117117117117118,NA,NA,NA
64506,Buchanan County,MO,NA,NA,NA,2.6548672566371683
64836,Jasper County,MO,NA,NA,25,NA
65065,Camden County,MO,NA,NA,68.9935064935065,NA
65742,Webster County,MO,NA,NA,72.56493506493507,NA
65802,Greene County,MO,NA,10.408163265306122,NA,NA
65807,Greene County,MO,NA,NA,13.474025974025974,NA
59105,Yellowstone County,MT,NA,85.3061224489796,NA,NA
59270,Richland County,MT,NA,86.3265306122449,NA,NA
59404,Cascade County,MT,NA,47.55102040816326,NA,NA
59601,Lewis and Clark County,MT,NA,NA,NA,24.336283185840706
59718,Gallatin County,MT,NA,NA,NA,42.47787610619469
59840,Ravalli County,MT,NA,78.9795918367347,NA,NA
59912,Flathead County,MT,84.68468468468468,NA,NA,NA
59923,Lincoln County,MT,NA,NA,51.78571428571429,NA
68123,Sarpy County,NE,NA,NA,42.37012987012987,NA
68135,Douglas County,NE,33.33333333333333,NA,NA,NA
68137,Douglas County,NE,NA,56.326530612244895,NA,NA
68144,Douglas County,NE,NA,NA,49.83766233766234,NA
68506,Lancaster County,NE,NA,NA,NA,45.57522123893805
68701,Madison County,NE,43.69369369369369,NA,NA,NA
68713,Holt County,NE,NA,NA,99.67532467532467,NA
69153,Keith County,NE,NA,NA,94.31818181818183,NA
89104,Clark County,NV,30.180180180180184,NA,NA,NA
89106,Clark County,NV,NA,51.22448979591837,NA,NA
89110,Clark County,NV,NA,20.408163265306122,NA,NA
89121,Clark County,NV,NA,NA,NA,87.16814159292035
89410,Douglas County,NV,NA,NA,NA,43.36283185840708
89434,Washoe County,NV,NA,45.91836734693878,NA,NA
03055,Hillsborough County,NH,50.9009009009009,NA,NA,NA
03079,Rockingham County,NH,NA,NA,NA,26.548672566371685
03103,Hillsborough County,NH,NA,27.346938775510203,NA,NA
03110,Hillsborough County,NH,NA,NA,32.142857142857146,NA
03743,Sullivan County,NH,NA,NA,36.688311688311686,NA
03766,Grafton County,NH,NA,NA,64.93506493506493,NA
03848,Rockingham County,NH,NA,74.6938775510204,NA,NA
03867,Strafford County,NH,NA,NA,NA,6.1946902654867255
07010,Bergen County,NJ,NA,NA,61.201298701298704,NA
07050,Essex County,NJ,NA,NA,27.435064935064936,NA
07052,Essex County,NJ,NA,NA,12.337662337662337,NA
07054,Morris County,NJ,NA,54.89795918367347,NA,NA
07108,Essex County,NJ,NA,NA,15.0974025974026,NA
07111,Essex County,NJ,NA,1.2244897959183674,NA,23.451327433628318
07206,Union County,NJ,9.00900900900901,NA,NA,NA
07417,Bergen County,NJ,NA,NA,98.21428571428571,NA
07457,Morris County,NJ,NA,94.6938775510204,NA,NA
07601,Bergen County,NJ,NA,5.714285714285714,NA,NA
07607,Bergen County,NJ,NA,NA,76.13636363636364,NA
07621,Bergen County,NJ,NA,NA,93.5064935064935,NA
07626,Bergen County,NJ,NA,98.57142857142858,NA,NA
07642,Bergen County,NJ,97.2972972972973,NA,NA,NA
07652,Bergen County,NJ,NA,NA,21.59090909090909,NA
07662,Bergen County,NJ,NA,97.75510204081633,NA,NA
07731,Monmouth County,NJ,NA,31.22448979591837,NA,NA
07735,Monmouth County,NJ,NA,NA,33.92857142857143,NA
07828,Morris County,NJ,69.81981981981981,NA,NA,NA
07920,Somerset County,NJ,NA,NA,58.27922077922077,NA
08034,Camden County,NJ,NA,NA,73.53896103896103,NA
08037,Atlantic County,NJ,NA,16.3265306122449,NA,NA
08053,Burlington County,NJ,NA,NA,59.09090909090909,NA
08085,Gloucester County,NJ,NA,NA,48.05194805194805,NA
08088,Burlington County,NJ,NA,NA,60.55194805194806,58.4070796460177
08110,Camden County,NJ,NA,13.877551020408163,NA,NA
08205,Atlantic County,NJ,NA,NA,18.019480519480517,NA
08244,Atlantic County,NJ,NA,NA,60.22727272727273,NA
08611,Mercer County,NJ,NA,5.1020408163265305,NA,NA
08618,Mercer County,NJ,29.27927927927928,NA,NA,NA
08691,Mercer County,NJ,NA,87.95918367346938,NA,NA
08731,Ocean County,NJ,NA,NA,45.94155844155844,NA
08817,Middlesex County,NJ,NA,NA,NA,50.88495575221239
08822,Hunterdon County,NJ,NA,23.6734693877551,NA,NA
08867,Hunterdon County,NJ,NA,97.95918367346938,NA,NA
08882,Middlesex County,NJ,NA,NA,77.27272727272727,NA
08902,Middlesex County,NJ,NA,67.9591836734694,NA,NA
87120,Bernalillo County,NM,NA,NA,10.876623376623376,NA
87144,Sandoval County,NM,NA,NA,16.071428571428573,NA
88001,Doa Ana County,NM,NA,NA,24.83766233766234,NA
88005,Doa Ana County,NM,NA,NA,37.33766233766234,NA
88007,Doa Ana County,NM,50.9009009009009,NA,NA,NA
88012,Doa Ana County,NM,41.891891891891895,NA,NA,NA
88210,Eddy County,NM,NA,75.10204081632654,NA,NA
10002,New York County,NY,NA,NA,17.37012987012987,NA
10012,New York County,NY,NA,NA,NA,84.95575221238938
10021,New York County,NY,NA,98.16326530612245,NA,NA
10023,New York County,NY,NA,NA,96.5909090909091,NA
10024,New York County,NY,NA,NA,20.12987012987013,NA
10025,New York County,NY,NA,NA,85.87662337662337,NA
10031,New York County,NY,NA,33.46938775510204,NA,NA
10306,Richmond County,NY,NA,NA,13.311688311688311,NA
10314,Richmond County,NY,NA,12.040816326530612,NA,NA
10453,Bronx County,NY,NA,1.0204081632653061,NA,NA
10455,Bronx County,NY,NA,NA,7.629870129870129,NA
10456,Bronx County,NY,NA,2.4489795918367347,NA,NA
10459,Bronx County,NY,31.53153153153153,NA,NA,NA
10462,Bronx County,NY,NA,NA,23.53896103896104,NA
10465,Bronx County,NY,NA,30.816326530612244,NA,NA
10471,Bronx County,NY,NA,NA,NA,44.24778761061947
10509,Putnam County,NY,NA,98.77551020408163,NA,NA
10573,Westchester County,NY,NA,NA,64.28571428571429,NA
10705,Westchester County,NY,NA,NA,23.7012987012987,NA
10710,Westchester County,NY,NA,NA,NA,52.21238938053098
10980,Rockland County,NY,NA,NA,86.2012987012987,NA
10992,Orange County,NY,NA,NA,98.05194805194806,NA
11020,Nassau County,NY,NA,NA,90.09740259740259,NA
11105,Queens County,NY,NA,84.28571428571429,NA,NA
11106,Queens County,NY,NA,55.10204081632652,NA,NA
11208,Kings County,NY,NA,7.142857142857142,NA,NA
11210,Kings County,NY,86.48648648648648,NA,NA,NA
11220,Kings County,NY,0,NA,NA,NA
11221,Kings County,NY,NA,NA,2.75974025974026,NA
11233,Kings County,NY,NA,2.0408163265306123,NA,NA
11358,Queens County,NY,NA,NA,55.68181818181818,NA
11364,Queens County,NY,NA,NA,96.1038961038961,NA
11373,Queens County,NY,NA,NA,49.188311688311686,NA
11375,Queens County,NY,NA,NA,NA,8.4070796460177
11417,Queens County,NY,70.72072072072072,NA,NA,NA
11418,Queens County,NY,NA,NA,46.103896103896105,NA
11422,Queens County,NY,NA,NA,57.3051948051948,NA
11435,Queens County,NY,NA,NA,NA,30.53097345132743
11501,Nassau County,NY,NA,NA,86.52597402597402,NA
11542,Nassau County,NY,NA,NA,50,NA
11566,Nassau County,NY,NA,NA,45.45454545454545,NA
11590,Nassau County,NY,NA,90.81632653061224,NA,NA
11598,Nassau County,NY,NA,NA,85.55194805194806,NA
11726,Suffolk County,NY,NA,NA,81.16883116883116,NA
11778,Suffolk County,NY,NA,NA,NA,89.38053097345133
11933,Suffolk County,NY,NA,NA,NA,77.43362831858407
12010,Montgomery County,NY,NA,25.102040816326532,NA,NA
12020,Saratoga County,NY,NA,19.79591836734694,NA,NA
12182,Rensselaer County,NY,NA,NA,NA,99.5575221238938
12210,Albany County,NY,63.06306306306306,NA,NA,NA
12307,Schenectady County,NY,NA,NA,89.93506493506493,NA
12550,Orange County,NY,NA,NA,53.57142857142857,NA
12831,Saratoga County,NY,NA,NA,48.214285714285715,NA
13021,Cayuga County,NY,NA,3.4693877551020407,NA,NA
13045,Cortland County,NY,NA,NA,7.467532467532467,NA
13104,Onondaga County,NY,NA,NA,42.6948051948052,NA
13135,Oswego County,NY,93.24324324324324,NA,NA,NA
13205,Onondaga County,NY,20.27027027027027,NA,NA,NA
13340,Herkimer County,NY,NA,60,NA,NA
13350,Herkimer County,NY,NA,NA,29.707792207792206,NA
13403,Oneida County,NY,NA,87.55102040816325,NA,NA
13783,Delaware County,NY,NA,97.34693877551021,NA,NA
13803,Cortland County,NY,NA,NA,94.96753246753246,NA
13905,Broome County,NY,NA,72.6530612244898,NA,NA
14036,Genesee County,NY,NA,86.93877551020408,NA,NA
14063,Chautauqua County,NY,NA,42.244897959183675,NA,NA
14086,Erie County,NY,NA,20.20408163265306,NA,NA
14207,Erie County,NY,NA,32.04081632653061,NA,NA
14216,Erie County,NY,NA,NA,37.01298701298701,NA
14217,Erie County,NY,NA,NA,52.435064935064936,NA
14221,Erie County,NY,NA,NA,1.7857142857142856,55.75221238938053
14224,Erie County,NY,NA,26.122448979591837,NA,NA
14225,Erie County,NY,99.09909909909909,NA,NA,NA
14227,Erie County,NY,NA,NA,22.24025974025974,NA
14450,Monroe County,NY,NA,NA,0.6493506493506493,NA
14470,Orleans County,NY,NA,76.93877551020408,80.1948051948052,NA
14472,Monroe County,NY,NA,NA,25.487012987012985,NA
14489,Wayne County,NY,NA,32.857142857142854,NA,NA
14502,Wayne County,NY,NA,NA,NA,77.87610619469027
14513,Wayne County,NY,NA,NA,2.5974025974025974,NA
14519,Wayne County,NY,NA,NA,23.863636363636363,NA
14532,Ontario County,NY,NA,58.36734693877551,NA,NA
14546,Monroe County,NY,NA,NA,93.9935064935065,NA
14551,Wayne County,NY,NA,86.73469387755102,NA,NA
14580,Monroe County,NY,NA,NA,0,3.0973451327433628
14590,Wayne County,NY,NA,47.3469387755102,NA,NA
14609,Monroe County,NY,NA,0.6122448979591837,NA,NA
14620,Monroe County,NY,NA,NA,49.35064935064935,NA
14706,Cattaraugus County,NY,NA,61.836734693877546,NA,NA
14830,Steuben County,NY,NA,24.081632653061224,NA,NA
27028,Davie County,NC,NA,48.36734693877551,NA,NA
27030,Surry County,NC,NA,NA,NA,14.15929203539823
27040,Forsyth County,NC,NA,NA,25.162337662337663,NA
27055,Yadkin County,NC,NA,NA,73.86363636363636,NA
27103,Forsyth County,NC,NA,15.306122448979592,NA,NA
27214,Guilford County,NC,NA,NA,NA,95.13274336283186
27217,Alamance County,NC,NA,NA,NA,90.7079646017699
27265,Guilford County,NC,NA,20,11.85064935064935,NA
27288,Rockingham County,NC,NA,NA,NA,46.902654867256636
27360,Davidson County,NC,NA,NA,NA,87.61061946902655
27406,Guilford County,NC,NA,4.081632653061225,NA,NA
27407,Guilford County,NC,NA,18.979591836734695,NA,NA
27410,Guilford County,NC,NA,NA,NA,8.849557522123893
27502,Wake County,NC,NA,NA,37.66233766233766,NA
27518,Wake County,NC,NA,NA,51.461038961038966,NA
27520,Johnston County,NC,NA,NA,NA,60.61946902654868
27526,Wake County,NC,NA,97.55102040816327,NA,NA
27573,Person County,NC,NA,NA,52.5974025974026,NA
27587,Wake County,NC,NA,22.244897959183675,NA,NA
27589,Warren County,NC,NA,NA,65.25974025974025,NA
27603,Wake County,NC,NA,59.183673469387756,NA,NA
27606,Wake County,NC,NA,NA,44.48051948051948,NA
27610,Wake County,NC,4.054054054054054,6.530612244897959,NA,NA
27615,Wake County,NC,NA,NA,11.03896103896104,NA
27616,Wake County,NC,NA,21.224489795918366,33.603896103896105,NA
27705,Durham County,NC,NA,NA,NA,65.04424778761062
27822,Wilson County,NC,NA,NA,93.18181818181817,NA
27858,Pitt County,NC,NA,NA,39.12337662337662,NA
27949,Dare County,NC,98.1981981981982,NA,NA,NA
28034,Gaston County,NC,NA,NA,66.88311688311688,NA
28037,Lincoln County,NC,NA,84.6938775510204,NA,NA
28073,Cleveland County,NC,NA,NA,86.85064935064936,NA
28083,Cabarrus County,NC,NA,NA,17.857142857142858,NA
28115,Iredell County,NC,NA,NA,25.97402597402597,NA
28124,Cabarrus County,NC,NA,93.26530612244898,NA,NA
28174,Union County,NC,NA,NA,84.0909090909091,NA
28208,Mecklenburg County,NC,9.45945945945946,NA,NA,NA
28215,Mecklenburg County,NC,NA,NA,14.772727272727273,NA
28269,Mecklenburg County,NC,11.26126126126126,NA,NA,NA
28306,Bladen County,NC,NA,NA,NA,43.80530973451327
28320,Bladen County,NC,NA,NA,73.21428571428571,NA
28403,New Hanover County,NC,49.0990990990991,NA,NA,35.84070796460177
28560,Craven County,NC,19.81981981981982,NA,NA,NA
28586,Craven County,NC,NA,NA,76.2987012987013,NA
28605,Watauga County,NC,NA,NA,81.4935064935065,NA
28613,Catawba County,NC,NA,NA,36.85064935064935,NA
28638,Caldwell County,NC,NA,NA,63.31168831168831,NA
28645,Caldwell County,NC,NA,NA,16.3961038961039,NA
28658,Catawba County,NC,NA,43.673469387755105,NA,NA
28752,McDowell County,NC,67.11711711711712,NA,NA,NA
28786,Haywood County,NC,NA,NA,NA,24.778761061946902
28906,Cherokee County,NC,NA,52.6530612244898,NA,NA
58103,Cass County,ND,NA,NA,15.422077922077923,NA
58201,Grand Forks County,ND,NA,NA,5.032467532467533,NA
58503,Burleigh County,ND,NA,34.285714285714285,NA,NA
58504,Burleigh County,ND,NA,NA,NA,21.238938053097346
58601,Stark County,ND,NA,45.102040816326536,NA,NA
43035,Delaware County,OH,NA,73.46938775510205,NA,NA
43054,Franklin County,OH,NA,NA,97.8896103896104,NA
43055,Licking County,OH,NA,1.8367346938775513,NA,NA
43110,Franklin County,OH,NA,NA,8.116883116883116,NA
43123,Franklin County,OH,NA,6.73469387755102,NA,NA
43138,Hocking County,OH,NA,NA,83.44155844155844,NA
43214,Franklin County,OH,73.42342342342343,NA,NA,NA
43219,Franklin County,OH,3.153153153153153,NA,31.33116883116883,NA
43227,Franklin County,OH,NA,NA,36.038961038961034,NA
43331,Logan County,OH,NA,NA,86.36363636363636,NA
43338,Morrow County,OH,NA,83.46938775510205,NA,NA
43351,Wyandot County,OH,NA,42.44897959183673,NA,NA
43537,Lucas County,OH,NA,NA,11.2012987012987,NA
43613,Lucas County,OH,2.2522522522522523,NA,NA,NA
43615,Lucas County,OH,NA,3.6734693877551026,NA,10.176991150442479
43619,Wood County,OH,NA,68.9795918367347,NA,NA
43701,Muskingum County,OH,NA,0.8163265306122449,NA,NA
43725,Guernsey County,OH,NA,15.10204081632653,NA,NA
43910,Jefferson County,OH,NA,NA,92.53246753246754,NA
44022,Cuyahoga County,OH,NA,82.85714285714286,NA,NA
44087,Summit County,OH,NA,42.6530612244898,NA,4.424778761061947
44105,Cuyahoga County,OH,NA,NA,0.16233766233766234,NA
44116,Cuyahoga County,OH,NA,NA,24.675324675324674,NA
44118,Cuyahoga County,OH,NA,NA,NA,5.752212389380531
44120,Cuyahoga County,OH,NA,NA,1.948051948051948,45.57522123893805
44134,Cuyahoga County,OH,NA,NA,1.2987012987012987,NA
44136,Cuyahoga County,OH,NA,NA,6.6558441558441555,NA
44147,Cuyahoga County,OH,NA,NA,NA,32.30088495575221
44212,Medina County,OH,NA,NA,0.3246753246753247,NA
44224,Summit County,OH,NA,22.040816326530614,NA,NA
44236,Summit County,OH,NA,NA,NA,41.5929203539823
44241,Portage County,OH,NA,31.428571428571427,NA,NA
44307,Summit County,OH,NA,NA,59.253246753246756,NA
44333,Summit County,OH,NA,NA,40.74675324675325,NA
44406,Mahoning County,OH,NA,NA,NA,26.10619469026549
44444,Trumbull County,OH,NA,NA,NA,79.64601769911505
44515,Mahoning County,OH,NA,9.387755102040817,NA,NA
44705,Stark County,OH,NA,25.30612244897959,NA,NA
44837,Huron County,OH,NA,84.89795918367346,NA,NA
44857,Huron County,OH,NA,NA,5.844155844155844,NA
44865,Huron County,OH,NA,96.12244897959184,NA,NA
45005,Warren County,OH,NA,NA,13.7987012987013,NA
45067,Butler County,OH,NA,61.224489795918366,NA,NA
45225,Hamilton County,OH,66.21621621621621,NA,NA,NA
45238,Hamilton County,OH,NA,NA,48.538961038961034,NA
45320,Preble County,OH,NA,40.20408163265306,NA,NA
45324,Greene County,OH,NA,8.775510204081632,NA,NA
45327,Montgomery County,OH,NA,78.77551020408163,NA,NA
45385,Greene County,OH,NA,11.020408163265307,NA,NA
45414,Montgomery County,OH,NA,NA,76.78571428571429,NA
45434,Greene County,OH,NA,91.83673469387756,NA,NA
45458,Montgomery County,OH,NA,NA,9.577922077922079,NA
45601,Ross County,OH,1.3513513513513513,NA,NA,NA
45638,Lawrence County,OH,NA,NA,3.0844155844155843,NA
45640,Jackson County,OH,NA,5.918367346938775,NA,NA
45656,Jackson County,OH,NA,NA,62.5,NA
45662,Scioto County,OH,NA,NA,36.038961038961034,NA
45690,Pike County,OH,NA,17.142857142857142,NA,NA
45784,Washington County,OH,NA,73.06122448979592,NA,NA
45801,Allen County,OH,NA,10.816326530612246,NA,NA
45804,Allen County,OH,NA,NA,20.77922077922078,NA
45832,Van Wert County,OH,NA,93.87755102040816,NA,NA
45891,Van Wert County,OH,NA,NA,20.454545454545457,NA
73030,Murray County,OK,NA,94.08163265306122,NA,NA
73051,Cleveland County,OK,NA,NA,NA,91.1504424778761
73075,Garvin County,OK,NA,NA,74.67532467532467,NA
73129,Oklahoma County,OK,NA,NA,93.34415584415584,NA
73132,Oklahoma County,OK,NA,NA,41.72077922077922,NA
73159,Oklahoma County,OK,NA,48.97959183673469,NA,NA
73507,Comanche County,OK,NA,47.95918367346938,NA,NA
73533,Stephens County,OK,NA,22.653061224489797,9.902597402597403,NA
73717,Woods County,OK,NA,NA,78.0844155844156,NA
74011,Tulsa County,OK,50.45045045045045,NA,NA,NA
74014,Wagoner County,OK,NA,36.12244897959184,NA,NA
74019,Rogers County,OK,NA,50.61224489795918,NA,NA
74036,Rogers County,OK,NA,75.51020408163265,94.8051948051948,NA
74074,Payne County,OK,NA,48.57142857142857,NA,NA
74137,Tulsa County,OK,NA,78.57142857142857,NA,NA
74435,Sequoyah County,OK,NA,95.91836734693877,NA,NA
74464,Cherokee County,OK,NA,NA,14.935064935064934,NA
74884,Seminole County,OK,NA,80.61224489795919,NA,NA
74962,Sequoyah County,OK,NA,NA,97.24025974025975,NA
97006,Washington County,OR,NA,NA,26.948051948051948,NA
97008,Washington County,OR,NA,61.63265306122449,NA,NA
97045,Clackamas County,OR,NA,NA,8.928571428571429,NA
97103,Clatsop County,OR,NA,58.77551020408164,NA,23.451327433628318
97124,Washington County,OR,NA,90.61224489795919,NA,NA
97132,Yamhill County,OR,66.66666666666666,NA,NA,NA
97202,Multnomah County,OR,56.75675675675676,NA,NA,NA
97211,Multnomah County,OR,NA,NA,87.5,73.89380530973452
97212,Multnomah County,OR,NA,NA,NA,89.82300884955751
97229,Washington County,OR,NA,35.91836734693877,NA,NA
97302,Marion County,OR,NA,43.46938775510204,NA,NA
97303,Marion County,OR,NA,NA,43.66883116883117,NA
97330,Benton County,OR,NA,NA,22.564935064935064,NA
97351,Polk County,OR,NA,NA,80.03246753246754,NA
97471,Douglas County,OR,NA,17.551020408163264,NA,NA
97526,Josephine County,OR,NA,25.71428571428571,66.07142857142857,NA
97914,Malheur County,OR,NA,NA,NA,83.1858407079646
15001,Beaver County,PA,70.72072072072072,NA,NA,NA
15101,Allegheny County,PA,NA,NA,NA,93.36283185840708
15108,Allegheny County,PA,NA,NA,50.48701298701299,NA
15146,Allegheny County,PA,NA,NA,27.92207792207792,NA
15205,Allegheny County,PA,79.72972972972973,NA,NA,NA
15210,Allegheny County,PA,NA,NA,39.285714285714285,NA
15212,Allegheny County,PA,44.14414414414414,NA,NA,NA
15236,Allegheny County,PA,NA,NA,NA,12.389380530973451
15642,Westmoreland County,PA,NA,NA,28.40909090909091,NA
15801,Clearfield County,PA,NA,6.938775510204081,NA,NA
16055,Butler County,PA,NA,NA,NA,74.33628318584071
16101,Lawrence County,PA,NA,28.163265306122447,NA,NA
16335,Crawford County,PA,NA,NA,7.142857142857142,NA
16648,Blair County,PA,NA,NA,31.818181818181817,NA
17042,Lebanon County,PA,7.207207207207207,NA,NA,NA
17109,Dauphin County,PA,NA,26.53061224489796,NA,NA
17325,Adams County,PA,NA,24.285714285714285,NA,NA
17350,Adams County,PA,62.612612612612615,NA,NA,NA
17545,Lancaster County,PA,NA,NA,78.4090909090909,NA
17557,Lancaster County,PA,NA,77.75510204081633,NA,NA
17756,Lycoming County,PA,NA,NA,64.12337662337663,NA
17847,Northumberland County,PA,NA,66.12244897959184,NA,NA
17972,Schuylkill County,PA,NA,NA,NA,72.56637168141593
18015,Northampton County,PA,7.657657657657657,NA,NA,NA
18102,Lehigh County,PA,NA,1.4285714285714286,NA,NA
18104,Lehigh County,PA,NA,14.69387755102041,NA,NA
18302,Monroe County,PA,NA,56.53061224489796,NA,NA
18704,Luzerne County,PA,NA,16.53061224489796,NA,NA
18801,Susquehanna County,PA,NA,NA,62.98701298701299,NA
18914,Bucks County,PA,NA,NA,54.38311688311688,NA
18974,Bucks County,PA,NA,22.448979591836736,NA,NA
19001,Montgomery County,PA,NA,NA,75.48701298701299,NA
19004,Montgomery County,PA,NA,NA,NA,78.31858407079646
19006,Montgomery County,PA,NA,52.244897959183675,NA,NA
19015,Delaware County,PA,NA,NA,41.883116883116884,NA
19020,Bucks County,PA,NA,7.551020408163265,NA,NA
19038,Montgomery County,PA,NA,NA,58.44155844155844,NA
19061,Delaware County,PA,NA,NA,35.87662337662338,NA
19063,Delaware County,PA,NA,NA,9.253246753246753,12.831858407079647
19073,Delaware County,PA,NA,NA,30.844155844155846,NA
19119,Philadelphia County,PA,NA,NA,14.285714285714285,NA
19134,Philadelphia County,PA,NA,NA,11.688311688311687,NA
19135,Philadelphia County,PA,47.74774774774775,15.714285714285714,NA,NA
19142,Philadelphia County,PA,NA,12.244897959183673,NA,NA
19151,Philadelphia County,PA,NA,13.673469387755102,NA,NA
19422,Montgomery County,PA,NA,NA,33.44155844155844,NA
19454,Montgomery County,PA,NA,NA,43.993506493506494,NA
19464,Montgomery County,PA,NA,5.3061224489795915,NA,NA
19510,Berks County,PA,55.85585585585585,NA,NA,NA
19601,Berks County,PA,NA,NA,11.363636363636363,NA
19610,Berks County,PA,NA,85.51020408163265,NA,NA
02816,Kent County,RI,NA,NA,46.91558441558442,NA
02860,Providence County,RI,NA,6.326530612244897,NA,31.858407079646017
02865,Providence County,RI,NA,NA,81.33116883116884,NA
02879,Washington County,RI,NA,NA,31.980519480519483,36.283185840707965
02891,Washington County,RI,NA,60.816326530612244,NA,NA
02896,Providence County,RI,NA,NA,79.70779220779221,NA
02909,Providence County,RI,26.126126126126124,NA,NA,NA
02914,Providence County,RI,NA,46.93877551020408,NA,NA
29044,Richland County,SC,NA,98.36734693877551,NA,NA
29053,Lexington County,SC,NA,60.40816326530612,NA,NA
29063,Richland County,SC,96.3963963963964,NA,46.590909090909086,NA
29210,Richland County,SC,NA,NA,50.649350649350644,NA
29340,Cherokee County,SC,NA,NA,50.81168831168831,NA
29406,Charleston County,SC,NA,25.510204081632654,NA,NA
29414,Charleston County,SC,NA,NA,21.266233766233768,NA
29420,Dorchester County,SC,NA,NA,76.62337662337663,NA
29445,Berkeley County,SC,NA,NA,21.915584415584416,NA
29479,Berkeley County,SC,87.38738738738738,NA,NA,NA
29506,Florence County,SC,40.54054054054054,NA,NA,NA
29511,Horry County,SC,NA,91.02040816326532,NA,NA
29526,Horry County,SC,77.92792792792793,NA,NA,NA
29536,Dillon County,SC,NA,58.57142857142858,NA,NA
29554,Williamsburg County,SC,NA,NA,84.57792207792207,NA
29605,Greenville County,SC,NA,NA,10.55194805194805,NA
29609,Greenville County,SC,NA,41.42857142857143,NA,NA
29621,Anderson County,SC,NA,NA,52.1103896103896,NA
29626,Anderson County,SC,NA,NA,71.1038961038961,NA
29642,Pickens County,SC,NA,89.79591836734694,NA,NA
29650,Greenville County,SC,NA,NA,NA,96.01769911504425
29673,Greenville County,SC,NA,NA,69.96753246753246,NA
29680,Greenville County,SC,NA,NA,26.461038961038962,NA
29687,Greenville County,SC,NA,NA,56.006493506493506,NA
29730,York County,SC,NA,NA,32.3051948051948,NA
29812,Barnwell County,SC,NA,NA,53.40909090909091,NA
29906,Beaufort County,SC,NA,70.81632653061224,NA,NA
57004,Union County,SD,NA,100,NA,NA
57103,Minnehaha County,SD,NA,NA,3.2467532467532463,NA
57104,Minnehaha County,SD,NA,NA,29.383116883116884,NA
57106,Minnehaha County,SD,NA,NA,29.05844155844156,NA
57110,Minnehaha County,SD,NA,NA,75.81168831168831,NA
57201,Codington County,SD,NA,79.18367346938776,NA,NA
57401,Brown County,SD,NA,NA,NA,1.7699115044247788
57730,Custer County,SD,NA,99.59183673469387,NA,NA
37015,Cheatham County,TN,NA,NA,42.532467532467535,NA
37040,Montgomery County,TN,NA,NA,28.57142857142857,NA
37076,Davidson County,TN,NA,NA,27.27272727272727,NA
37087,Wilson County,TN,20.72072072072072,NA,NA,NA
37160,Bedford County,TN,NA,19.387755102040817,NA,NA
37209,Davidson County,TN,NA,66.73469387755102,NA,NA
37221,Davidson County,TN,NA,NA,22.727272727272727,NA
37312,Bradley County,TN,NA,NA,NA,36.72566371681416
37327,Sequatchie County,TN,81.08108108108108,NA,NA,NA
37355,Coffee County,TN,NA,NA,48.86363636363637,NA
37398,Franklin County,TN,NA,47.55102040816326,NA,NA
37405,Hamilton County,TN,76.12612612612612,NA,NA,NA
37601,Washington County,TN,NA,NA,41.396103896103895,NA
37643,Carter County,TN,NA,NA,6.493506493506493,NA
37748,Roane County,TN,32.88288288288289,NA,NA,NA
37874,Monroe County,TN,NA,NA,NA,67.2566371681416
37876,Sevier County,TN,49.549549549549546,NA,NA,NA
37877,Hamblen County,TN,NA,NA,82.79220779220779,NA
37931,Knox County,TN,NA,NA,NA,65.48672566371681
37932,Knox County,TN,NA,81.22448979591836,NA,NA
38002,Shelby County,TN,NA,NA,NA,66.3716814159292
38006,Crockett County,TN,96.84684684684684,NA,98.86363636363636,97.34513274336283
38012,Haywood County,TN,NA,NA,64.77272727272727,65.929203539823
38017,Shelby County,TN,NA,48.775510204081634,NA,NA
38111,Shelby County,TN,NA,NA,NA,53.98230088495575
38114,Shelby County,TN,NA,NA,65.9090909090909,NA
38135,Shelby County,TN,NA,NA,60.87662337662337,NA
38201,Carroll County,TN,NA,NA,87.98701298701299,NA
38225,Weakley County,TN,99.54954954954955,NA,85.22727272727273,NA
38501,Putnam County,TN,NA,NA,13.96103896103896,NA
38506,Putnam County,TN,NA,NA,17.045454545454543,NA
75006,Dallas County,TX,NA,NA,24.18831168831169,NA
75020,Grayson County,TX,58.55855855855856,NA,NA,NA
75032,Rockwall County,TX,NA,64.28571428571429,47.24025974025974,NA
75048,Dallas County,TX,NA,NA,56.81818181818182,NA
75052,Dallas County,TX,NA,17.755102040816325,NA,NA
75060,Dallas County,TX,NA,NA,70.61688311688312,NA
75062,Dallas County,TX,NA,NA,NA,51.76991150442478
75071,Collin County,TX,21.17117117117117,NA,NA,NA
75078,Collin County,TX,NA,79.18367346938776,NA,NA
75081,Dallas County,TX,NA,NA,47.564935064935064,NA
75093,Collin County,TX,NA,51.63265306122449,NA,NA
75135,Hunt County,TX,NA,NA,NA,93.80530973451327
75150,Dallas County,TX,78.82882882882883,NA,NA,NA
75205,Dallas County,TX,NA,95.10204081632652,NA,NA
75229,Dallas County,TX,NA,46.326530612244895,NA,NA
75234,Dallas County,TX,28.37837837837838,NA,NA,NA
75240,Dallas County,TX,NA,NA,74.02597402597402,NA
75243,Dallas County,TX,NA,NA,41.55844155844156,NA
75287,Denton County,TX,22.07207207207207,NA,NA,NA
75409,Collin County,TX,NA,77.55102040816327,NA,NA
75604,Gregg County,TX,NA,72.44897959183673,NA,NA
75647,Gregg County,TX,79.27927927927928,NA,NA,NA
75670,Harrison County,TX,NA,NA,NA,84.51327433628319
75783,Wood County,TX,NA,95.51020408163265,NA,NA
75791,Smith County,TX,NA,67.3469387755102,NA,NA
75803,Anderson County,TX,88.73873873873875,NA,NA,NA
75901,Angelina County,TX,NA,36.3265306122449,NA,NA
75941,Angelina County,TX,NA,NA,NA,94.24778761061947
75965,Nacogdoches County,TX,NA,NA,79.05844155844156,NA
76011,Tarrant County,TX,NA,58.77551020408164,NA,NA
76013,Tarrant County,TX,NA,65.71428571428571,NA,NA
76016,Tarrant County,TX,NA,NA,19.318181818181817,NA
76067,Palo Pinto County,TX,NA,NA,55.519480519480524,NA
76108,Tarrant County,TX,NA,NA,NA,59.73451327433629
76114,Tarrant County,TX,NA,44.48979591836735,NA,NA
76119,Tarrant County,TX,3.6036036036036037,NA,NA,NA
76137,Tarrant County,TX,30.630630630630627,NA,NA,NA
76227,Denton County,TX,NA,68.57142857142857,NA,NA
76266,Denton County,TX,NA,NA,72.8896103896104,NA
76306,Wichita County,TX,NA,65.91836734693878,NA,NA
76513,Bell County,TX,NA,7.755102040816326,NA,NA
76522,Coryell County,TX,NA,NA,NA,15.929203539823009
76543,Bell County,TX,12.612612612612612,NA,NA,NA
76574,Williamson County,TX,NA,NA,NA,49.11504424778761
77007,Harris County,TX,NA,55.91836734693878,NA,NA
77009,Harris County,TX,NA,NA,68.5064935064935,NA
77018,Harris County,TX,NA,45.91836734693878,NA,NA
77021,Harris County,TX,77.02702702702703,NA,NA,NA
77025,Harris County,TX,60.36036036036037,NA,NA,NA
77035,Harris County,TX,NA,73.87755102040816,NA,NA
77041,Harris County,TX,NA,NA,70.45454545454545,NA
77056,Harris County,TX,NA,76.73469387755102,53.896103896103895,NA
77059,Harris County,TX,NA,NA,58.92857142857143,NA
77070,Harris County,TX,NA,NA,57.7922077922078,NA
77072,Harris County,TX,82.43243243243244,NA,NA,NA
77073,Harris County,TX,NA,57.75510204081633,NA,NA
77074,Harris County,TX,NA,NA,56.33116883116883,NA
77077,Harris County,TX,NA,NA,64.6103896103896,NA
77079,Harris County,TX,NA,NA,56.33116883116883,NA
77086,Harris County,TX,59.909909909909906,NA,NA,NA
77089,Harris County,TX,NA,46.73469387755102,NA,NA
77327,Liberty County,TX,NA,NA,71.9155844155844,NA
77345,Harris County,TX,NA,NA,NA,73.00884955752213
77351,Polk County,TX,NA,NA,18.83116883116883,NA
77355,Montgomery County,TX,NA,NA,45.12987012987013,NA
77373,Harris County,TX,NA,NA,60.3896103896104,NA
77375,Harris County,TX,NA,NA,32.95454545454545,NA
77379,Harris County,TX,NA,25.71428571428571,NA,NA
77386,Montgomery County,TX,NA,NA,47.4025974025974,NA
77401,Harris County,TX,NA,71.83673469387755,NA,NA
77422,Brazoria County,TX,NA,94.89795918367348,NA,NA
77429,Harris County,TX,NA,11.224489795918368,46.75324675324675,NA
77450,Harris County,TX,NA,NA,15.259740259740258,NA
77459,Fort Bend County,TX,52.25225225225225,NA,NA,NA
77461,Fort Bend County,TX,NA,NA,NA,90.2654867256637
77474,Austin County,TX,NA,NA,99.35064935064936,NA
77477,Fort Bend County,TX,NA,96.73469387755102,39.77272727272727,NA
77479,Fort Bend County,TX,13.513513513513514,NA,NA,NA
77493,Harris County,TX,NA,NA,81.4935064935065,NA
77494,Fort Bend County,TX,68.01801801801803,NA,NA,NA
77505,Harris County,TX,NA,67.55102040816327,NA,71.23893805309734
77514,Chambers County,TX,NA,88.77551020408163,NA,NA
77535,Liberty County,TX,NA,NA,43.506493506493506,NA
77539,Galveston County,TX,NA,20.612244897959183,NA,NA
77541,Brazoria County,TX,NA,NA,NA,88.93805309734513
77546,Galveston County,TX,NA,NA,8.766233766233766,NA
77573,Galveston County,TX,NA,8.979591836734693,NA,NA
77578,Brazoria County,TX,NA,69.38775510204081,NA,NA
77586,Harris County,TX,NA,52.44897959183673,NA,NA
77662,Orange County,TX,NA,47.14285714285714,NA,NA
77803,Brazos County,TX,NA,NA,NA,76.99115044247787
77845,Brazos County,TX,NA,35.714285714285715,NA,NA
77868,Grimes County,TX,NA,NA,72.07792207792207,NA
77964,Lavaca County,TX,64.41441441441441,NA,NA,NA
77995,Lavaca County,TX,NA,NA,89.12337662337663,NA
78006,Kendall County,TX,NA,83.26530612244898,NA,NA
78028,Kerr County,TX,NA,NA,NA,38.05309734513274
78041,Webb County,TX,NA,NA,18.344155844155843,NA
78102,Bee County,TX,NA,NA,69.48051948051948,NA
78207,Bexar County,TX,NA,NA,NA,25.221238938053098
78221,Bexar County,TX,NA,NA,76.94805194805194,NA
78228,Bexar County,TX,NA,30,NA,NA
78240,Bexar County,TX,NA,44.89795918367347,NA,NA
78252,Bexar County,TX,NA,NA,99.02597402597402,NA
78501,Hidalgo County,TX,NA,50.816326530612244,NA,NA
78504,Hidalgo County,TX,NA,39.38775510204081,NA,NA
78516,Hidalgo County,TX,NA,NA,48.37662337662338,NA
78526,Cameron County,TX,NA,71.22448979591837,NA,NA
78550,Cameron County,TX,NA,NA,35.064935064935064,32.743362831858406
78573,Hidalgo County,TX,NA,NA,NA,26.991150442477874
78574,Hidalgo County,TX,NA,NA,32.62987012987013,NA
78586,Cameron County,TX,NA,NA,43.34415584415584,NA
78613,Williamson County,TX,NA,NA,NA,7.964601769911504
78621,Bastrop County,TX,NA,NA,65.09740259740259,NA
78639,Llano County,TX,NA,NA,42.04545454545455,NA
78660,Travis County,TX,NA,NA,28.733766233766232,NA
78666,Hays County,TX,45.4954954954955,NA,NA,NA
79107,Potter County,TX,15.315315315315313,NA,51.62337662337663,NA
79109,Randall County,TX,36.486486486486484,NA,NA,NA
79403,Lubbock County,TX,NA,54.48979591836734,NA,NA
79772,Reeves County,TX,NA,NA,73.05194805194806,NA
79904,El Paso County,TX,NA,NA,56.65584415584416,NA
84036,Summit County,UT,NA,95.71428571428572,NA,NA
84044,Salt Lake County,UT,NA,45.30612244897959,NA,NA
84050,Morgan County,UT,NA,NA,94.48051948051948,NA
84094,Salt Lake County,UT,NA,NA,75,NA
84119,Salt Lake County,UT,NA,12.448979591836734,35.55194805194805,NA
84404,Weber County,UT,NA,NA,35.22727272727273,NA
05641,Washington County,VT,NA,NA,25.162337662337663,NA
05661,Lamoille County,VT,NA,79.79591836734694,NA,NA
05819,Caledonia County,VT,NA,NA,71.42857142857143,NA
20111,Prince William County,VA,NA,57.55102040816327,NA,NA
20120,Fairfax County,VA,NA,57.3469387755102,NA,NA
20141,Loudoun County,VA,95.94594594594594,NA,NA,NA
20147,Loudoun County,VA,NA,NA,53.73376623376623,NA
22003,Fairfax County,VA,NA,NA,22.4025974025974,NA
22304,Alexandria city,VA,NA,NA,NA,51.32743362831859
22801,Harrisonburg city,VA,NA,43.26530612244898,NA,NA
22802,Harrisonburg city,VA,NA,24.693877551020407,NA,NA
23030,Charles City County,VA,NA,99.18367346938776,NA,NA
23059,Henrico County,VA,NA,NA,64.44805194805194,NA
23093,Louisa County,VA,NA,NA,NA,88.49557522123894
23224,Richmond city,VA,NA,10.204081632653061,NA,NA
23225,Richmond city,VA,NA,14.285714285714285,NA,NA
23227,Henrico County,VA,NA,43.06122448979592,33.116883116883116,NA
23229,Henrico County,VA,NA,NA,38.798701298701296,NA
23234,Chesterfield County,VA,NA,19.591836734693878,NA,NA
23608,Newport News city,VA,17.56756756756757,NA,NA,NA
23803,Petersburg city,VA,NA,NA,86.03896103896103,28.31858407079646
24179,Roanoke County,VA,NA,NA,43.01948051948052,NA
24230,Wise County,VA,NA,NA,69.48051948051948,NA
24260,Russell County,VA,NA,NA,NA,74.77876106194691
24293,Wise County,VA,NA,52.85714285714286,NA,NA
24401,Staunton city,VA,NA,NA,5.357142857142857,NA
24523,Bedford County,VA,NA,32.6530612244898,NA,NA
98003,King County,WA,NA,29.795918367346943,17.045454545454543,NA
98006,King County,WA,NA,61.42857142857143,NA,NA
98028,King County,WA,NA,NA,NA,73.45132743362832
98052,King County,WA,NA,NA,71.75324675324676,NA
98056,King County,WA,NA,NA,54.54545454545454,NA
98106,King County,WA,NA,64.6938775510204,NA,NA
98110,Kitsap County,WA,NA,NA,33.27922077922078,NA
98112,King County,WA,NA,NA,NA,70.35398230088495
98115,King County,WA,NA,NA,20.454545454545457,NA
98117,King County,WA,NA,64.89795918367346,NA,NA
98155,King County,WA,NA,48.16326530612245,NA,NA
98168,King County,WA,68.91891891891892,NA,NA,NA
98188,King County,WA,NA,NA,55.032467532467535,NA
98198,King County,WA,NA,NA,88.47402597402598,NA
98203,Snohomish County,WA,NA,NA,30.357142857142854,NA
98223,Snohomish County,WA,18.01801801801802,NA,NA,NA
98232,Skagit County,WA,NA,NA,82.3051948051948,NA
98275,Snohomish County,WA,47.2972972972973,NA,NA,NA
98321,Pierce County,WA,NA,NA,NA,88.05309734513274
98366,Kitsap County,WA,74.77477477477478,NA,NA,NA
98387,Pierce County,WA,NA,NA,NA,66.8141592920354
98404,Pierce County,WA,NA,NA,NA,81.41592920353983
98577,Pacific County,WA,NA,NA,NA,80.97345132743364
98591,Lewis County,WA,NA,NA,93.83116883116884,NA
98682,Clark County,WA,NA,62.44897959183674,NA,NA
98902,Yakima County,WA,NA,28.97959183673469,NA,NA
98926,Kittitas County,WA,NA,NA,31.493506493506494,NA
98930,Yakima County,WA,63.96396396396396,NA,NA,NA
99207,Spokane County,WA,NA,NA,NA,69.91150442477876
99324,Walla Walla County,WA,NA,83.87755102040816,NA,NA
99337,Benton County,WA,NA,90.20408163265307,NA,NA
99338,Benton County,WA,NA,NA,27.5974025974026,NA
99352,Benton County,WA,NA,41.63265306122449,NA,NA
99362,Walla Walla County,WA,NA,NA,9.415584415584416,NA
20001,District of Columbia,DC,NA,21.020408163265305,NA,NA
20010,District of Columbia,DC,NA,NA,45.2922077922078,NA
20016,District of Columbia,DC,50,NA,NA,NA
20019,District of Columbia,DC,NA,NA,3.896103896103896,NA
25177,Kanawha County,WV,NA,12.653061224489795,NA,NA
25311,Kanawha County,WV,90.54054054054053,NA,NA,NA
25312,Kanawha County,WV,NA,NA,49.67532467532468,NA
25427,Berkeley County,WV,75.22522522522522,NA,NA,NA
25601,Logan County,WV,NA,72.24489795918367,NA,NA
26104,Wood County,WV,NA,NA,NA,22.123893805309734
26205,Nicholas County,WV,NA,NA,98.53896103896103,NA
26416,Barbour County,WV,NA,NA,37.5,NA
26505,Monongalia County,WV,NA,NA,5.51948051948052,NA
26554,Marion County,WV,NA,4.489795918367347,12.175324675324676,NA
53018,Waukesha County,WI,92.34234234234235,NA,NA,NA
53040,Washington County,WI,NA,NA,68.34415584415584,NA
53094,Jefferson County,WI,NA,NA,62.33766233766234,NA
53126,Racine County,WI,NA,NA,84.90259740259741,NA
53129,Milwaukee County,WI,NA,NA,83.76623376623377,NA
53146,Waukesha County,WI,NA,88.9795918367347,NA,NA
53150,Waukesha County,WI,33.78378378378378,NA,NA,NA
53181,Kenosha County,WI,NA,63.26530612244898,NA,NA
53207,Milwaukee County,WI,NA,NA,26.2987012987013,NA
53212,Milwaukee County,WI,NA,45.51020408163266,NA,NA
53215,Milwaukee County,WI,NA,4.6938775510204085,NA,NA
53218,Milwaukee County,WI,NA,NA,NA,41.150442477876105
53225,Milwaukee County,WI,NA,NA,35.38961038961039,NA
53228,Milwaukee County,WI,NA,NA,42.2077922077922,NA
53965,Sauk County,WI,54.054054054054056,NA,NA,NA
54016,St. Croix County,WI,NA,76.32653061224491,NA,NA
54115,Brown County,WI,NA,NA,NA,25.663716814159294
54140,Outagamie County,WI,NA,89.18367346938776,NA,NA
54409,Langlade County,WI,NA,37.755102040816325,NA,NA
54449,Wood County,WI,NA,73.46938775510205,72.72727272727273,NA
54467,Portage County,WI,NA,NA,34.9025974025974,NA
54601,La Crosse County,WI,NA,NA,NA,0
54730,Dunn County,WI,NA,NA,NA,86.72566371681415
54751,Dunn County,WI,NA,NA,NA,15.486725663716813
54768,Chippewa County,WI,NA,NA,98.37662337662337,NA
54829,Barron County,WI,NA,NA,80.51948051948052,NA
54868,Barron County,WI,NA,NA,NA,34.95575221238938
82633,Converse County,WY,NA,83.6734693877551,NA,NA
82935,Sweetwater County,WY,NA,81.63265306122449,NA,NA
