ZipCode,county,state,Adult,Retirement,Geriatric
35020,Jefferson County,AL,16.447368421052634,NA,NA
35054,St. Clair County,AL,NA,NA,84.375
35080,Shelby County,AL,NA,68.59504132231406,NA
35490,Tuscaloosa County,AL,93.75,NA,NA
35758,Madison County,AL,41.776315789473685,NA,NA
35976,Marshall County,AL,NA,NA,44.642857142857146
36066,Autauga County,AL,NA,88.84297520661157,NA
36303,Houston County,AL,27.960526315789476,NA,NA
36360,Dale County,AL,47.69736842105263,NA,NA
36582,Mobile County,AL,NA,43.80165289256198,NA
36603,Mobile County,AL,NA,NA,81.25
36784,Clarke County,AL,NA,75.6198347107438,NA
99501,Anchorage Municipality,AK,25.657894736842106,NA,NA
99508,Anchorage Municipality,AK,93.0921052631579,NA,NA
99623,,AK,96.38157894736842,NA,98.66071428571429
85009,Maricopa County,AZ,15.460526315789474,NA,NA
85028,Maricopa County,AZ,93.42105263157895,NA,93.75
85032,Maricopa County,AZ,NA,22.727272727272727,NA
85122,Pinal County,AZ,10.197368421052632,NA,NA
85140,Pinal County,AZ,39.80263157894737,NA,NA
85143,Pinal County,AZ,NA,32.231404958677686,NA
85201,Maricopa County,AZ,NA,29.338842975206614,NA
85202,Maricopa County,AZ,23.026315789473685,NA,NA
85206,Maricopa County,AZ,NA,27.27272727272727,NA
85224,Maricopa County,AZ,NA,39.25619834710744,NA
85308,Maricopa County,AZ,39.473684210526315,NA,NA
85326,Maricopa County,AZ,35.19736842105263,NA,NA
85616,Cochise County,AZ,NA,91.73553719008265,NA
85705,Pima County,AZ,4.605263157894736,NA,NA
86409,Mohave County,AZ,82.89473684210526,NA,NA
72015,Saline County,AR,NA,NA,49.55357142857143
90003,Los Angeles County,CA,NA,NA,50
90025,Los Angeles County,CA,NA,NA,10.267857142857142
90242,Los Angeles County,CA,NA,76.44628099173553,NA
90262,Los Angeles County,CA,NA,NA,52.23214285714286
90305,Los Angeles County,CA,NA,NA,88.83928571428571
90621,Orange County,CA,NA,92.56198347107438,NA
90630,Orange County,CA,NA,17.768595041322314,NA
90650,Los Angeles County,CA,NA,14.049586776859504,NA
90706,Los Angeles County,CA,30.592105263157894,NA,NA
90712,Los Angeles County,CA,56.57894736842105,NA,NA
90807,Los Angeles County,CA,NA,NA,47.32142857142857
91104,Los Angeles County,CA,NA,NA,83.92857142857143
91106,Los Angeles County,CA,NA,74.79338842975206,NA
91342,Los Angeles County,CA,22.697368421052634,NA,NA
91706,Los Angeles County,CA,NA,30.165289256198346,NA
91733,Los Angeles County,CA,NA,NA,52.23214285714286
91761,San Bernardino County,CA,NA,29.75206611570248,NA
92008,San Diego County,CA,50.98684210526315,NA,NA
92009,San Diego County,CA,NA,NA,37.94642857142857
92102,San Diego County,CA,NA,78.92561983471074,NA
92105,San Diego County,CA,20.723684210526315,NA,NA
92109,San Diego County,CA,67.76315789473685,NA,NA
92114,San Diego County,CA,NA,NA,25
92115,San Diego County,CA,NA,37.60330578512397,NA
92220,Riverside County,CA,NA,NA,22.321428571428573
92284,San Bernardino County,CA,NA,23.140495867768596,NA
92301,San Bernardino County,CA,NA,NA,89.73214285714286
92346,San Bernardino County,CA,33.55263157894737,NA,NA
92503,Riverside County,CA,NA,19.834710743801654,NA
92507,Riverside County,CA,NA,64.87603305785123,NA
92703,Orange County,CA,68.75,NA,NA
92708,Orange County,CA,NA,NA,19.196428571428573
92780,Orange County,CA,NA,78.099173553719,NA
93001,Ventura County,CA,90.13157894736842,NA,NA
93309,Kern County,CA,NA,26.033057851239672,NA
93436,Santa Barbara County,CA,18.092105263157894,45.867768595041326,NA
94110,San Francisco County,CA,15.131578947368421,NA,NA
94503,Napa County,CA,NA,NA,64.28571428571429
94509,Contra Costa County,CA,NA,42.14876033057851,NA
94539,Alameda County,CA,NA,NA,31.69642857142857
94565,Contra Costa County,CA,25.32894736842105,NA,NA
94598,Contra Costa County,CA,NA,51.652892561983464,NA
94610,Alameda County,CA,NA,NA,32.142857142857146
95070,Santa Clara County,CA,77.63157894736842,NA,NA
95210,San Joaquin County,CA,42.43421052631579,NA,NA
95350,Stanislaus County,CA,NA,NA,15.625
95403,Sonoma County,CA,NA,NA,13.839285714285715
95404,Sonoma County,CA,69.07894736842105,NA,NA
95425,Sonoma County,CA,NA,78.099173553719,NA
95472,Sonoma County,CA,80.26315789473685,NA,NA
95966,Butte County,CA,55.26315789473685,NA,NA
96019,Shasta County,CA,72.36842105263158,NA,NA
80010,Arapahoe County,CO,NA,NA,59.82142857142857
80011,Arapahoe County,CO,60.19736842105263,NA,NA
80212,Denver County,CO,NA,96.69421487603306,NA
80226,Jefferson County,CO,49.34210526315789,NA,NA
80229,Adams County,CO,NA,35.9504132231405,NA
80237,Denver County,CO,NA,NA,66.96428571428571
80534,Weld County,CO,67.10526315789474,NA,NA
80631,Weld County,CO,NA,21.90082644628099,NA
80915,El Paso County,CO,NA,NA,92.41071428571429
06001,Hartford County,CT,89.80263157894737,NA,NA
06051,Hartford County,CT,4.934210526315789,NA,NA
06085,Hartford County,CT,NA,91.32231404958677,NA
06111,Hartford County,CT,NA,NA,29.464285714285715
06112,Hartford County,CT,48.68421052631579,NA,NA
06401,New Haven County,CT,36.84210526315789,NA,NA
06470,Fairfield County,CT,94.4078947368421,NA,NA
06514,New Haven County,CT,64.80263157894737,NA,NA
06515,New Haven County,CT,NA,NA,68.75
06517,New Haven County,CT,NA,36.77685950413223,NA
06770,New Haven County,CT,28.618421052631575,NA,NA
06810,Fairfield County,CT,NA,16.94214876033058,NA
19713,New Castle County,DE,NA,NA,28.57142857142857
19805,New Castle County,DE,20.394736842105264,NA,NA
19806,New Castle County,DE,NA,66.52892561983471,NA
19808,New Castle County,DE,NA,54.132231404958674,NA
19966,Sussex County,DE,NA,6.6115702479338845,NA
32055,Columbia County,FL,44.07894736842105,NA,NA
32064,Suwannee County,FL,NA,70.66115702479338,NA
32119,Volusia County,FL,NA,NA,46.42857142857143
32131,Putnam County,FL,NA,NA,95.98214285714286
32159,Lake County,FL,NA,55.371900826446286,NA
32162,Sumter County,FL,NA,1.6528925619834711,NA
32168,Volusia County,FL,NA,NA,24.553571428571427
32174,Volusia County,FL,NA,38.01652892561984,NA
32210,Duval County,FL,NA,NA,33.92857142857143
32216,Duval County,FL,NA,59.50413223140496,NA
32225,Duval County,FL,NA,14.46280991735537,NA
32234,Duval County,FL,80.5921052631579,NA,NA
32277,Duval County,FL,NA,NA,58.92857142857143
32401,Bay County,FL,NA,24.793388429752067,NA
32444,Bay County,FL,66.77631578947368,NA,NA
32547,Okaloosa County,FL,NA,48.760330578512395,47.767857142857146
32578,Okaloosa County,FL,NA,NA,51.78571428571429
32641,Alachua County,FL,71.71052631578947,NA,NA
32726,Lake County,FL,NA,44.214876033057855,NA
32771,Seminole County,FL,NA,30.57851239669421,NA
32804,Orange County,FL,NA,NA,73.21428571428571
32920,Brevard County,FL,NA,NA,85.26785714285714
32967,Indian River County,FL,NA,NA,37.05357142857143
33015,Miami-Dade County,FL,NA,39.66942148760331,NA
33023,Broward County,FL,NA,40.082644628099175,NA
33056,Miami-Dade County,FL,NA,83.05785123966942,NA
33071,Broward County,FL,86.8421052631579,NA,NA
33140,Miami-Dade County,FL,76.31578947368422,NA,NA
33142,Miami-Dade County,FL,21.710526315789476,NA,NA
33144,Miami-Dade County,FL,NA,NA,65.625
33150,Miami-Dade County,FL,NA,59.09090909090909,NA
33155,Miami-Dade County,FL,NA,NA,11.607142857142858
33167,Miami-Dade County,FL,83.55263157894737,63.63636363636363,NA
33408,Palm Beach County,FL,NA,60.33057851239669,NA
33409,Palm Beach County,FL,63.48684210526315,NA,NA
33433,Palm Beach County,FL,56.9078947368421,NA,NA
33573,Hillsborough County,FL,NA,NA,1.3392857142857142
33609,Hillsborough County,FL,71.38157894736842,NA,NA
33610,Hillsborough County,FL,NA,NA,40.625
33756,Pinellas County,FL,NA,NA,79.91071428571429
33805,Polk County,FL,82.56578947368422,NA,NA
33884,Polk County,FL,81.57894736842105,NA,NA
33897,Polk County,FL,NA,63.22314049586777,NA
33914,Lee County,FL,NA,13.223140495867769,NA
34112,Collier County,FL,NA,NA,17.857142857142858
34452,Citrus County,FL,84.21052631578947,NA,NA
34610,Pasco County,FL,NA,NA,89.28571428571429
34744,Osceola County,FL,NA,33.47107438016529,42.410714285714285
30004,Fulton County,GA,NA,NA,74.55357142857143
30035,DeKalb County,GA,55.92105263157895,NA,NA
30039,Gwinnett County,GA,NA,49.586776859504134,NA
30043,Gwinnett County,GA,26.644736842105267,NA,NA
30044,Gwinnett County,GA,NA,79.33884297520662,NA
30094,Rockdale County,GA,74.01315789473685,NA,NA
30101,Cobb County,GA,NA,NA,32.589285714285715
30127,Cobb County,GA,NA,NA,21.875
30144,Cobb County,GA,NA,44.62809917355372,NA
30176,Haralson County,GA,78.28947368421053,NA,NA
30253,Henry County,GA,32.89473684210527,NA,NA
30263,Coweta County,GA,41.44736842105263,NA,NA
30314,Fulton County,GA,46.05263157894737,NA,NA
30331,Fulton County,GA,21.38157894736842,NA,NA
30338,DeKalb County,GA,70.72368421052632,NA,NA
30349,Fulton County,GA,NA,NA,61.16071428571429
30909,Richmond County,GA,NA,NA,56.25
31204,Bibb County,GA,NA,24.380165289256198,NA
31217,Bibb County,GA,NA,45.04132231404959,NA
31405,Chatham County,GA,98.35526315789474,NA,NA
31709,Sumter County,GA,92.76315789473685,NA,NA
31816,Meriwether County,GA,NA,84.71074380165288,NA
96817,Honolulu County,HI,13.815789473684212,NA,NA
83647,Elmore County,ID,72.03947368421053,NA,NA
83709,Ada County,ID,17.434210526315788,NA,NA
60020,Lake County,IL,NA,NA,68.75
60060,Lake County,IL,NA,NA,39.732142857142854
60073,Lake County,IL,18.421052631578945,NA,NA
60076,Cook County,IL,NA,54.958677685950406,NA
60152,McHenry County,IL,NA,NA,57.14285714285714
60153,Cook County,IL,NA,56.611570247933884,NA
60160,Cook County,IL,86.18421052631578,NA,NA
60178,DeKalb County,IL,78.61842105263158,NA,NA
60402,Cook County,IL,NA,7.851239669421488,NA
60411,Cook County,IL,NA,NA,48.214285714285715
60423,Will County,IL,NA,20.24793388429752,35.714285714285715
60433,Will County,IL,83.22368421052632,69.83471074380165,NA
60435,Will County,IL,66.11842105263158,NA,NA
60455,Cook County,IL,49.67105263157895,NA,NA
60463,Cook County,IL,NA,42.561983471074385,NA
60605,Cook County,IL,NA,NA,90.625
60608,Cook County,IL,75.32894736842105,NA,NA
60614,Cook County,IL,26.31578947368421,NA,NA
60616,Cook County,IL,NA,57.02479338842975,NA
60620,Cook County,IL,9.210526315789473,NA,20.982142857142858
60628,Cook County,IL,NA,NA,35.267857142857146
60632,Cook County,IL,59.210526315789465,NA,NA
60637,Cook County,IL,NA,NA,18.75
60640,Cook County,IL,NA,31.40495867768595,NA
60649,Cook County,IL,NA,NA,46.875
60657,Cook County,IL,NA,NA,16.517857142857142
61019,Stephenson County,IL,NA,NA,86.16071428571429
61032,Stephenson County,IL,NA,14.87603305785124,NA
61071,Whiteside County,IL,31.57894736842105,NA,NA
61530,Woodford County,IL,97.36842105263158,NA,NA
61614,Peoria County,IL,NA,NA,19.642857142857142
61704,McLean County,IL,NA,NA,51.33928571428571
61938,Coles County,IL,88.48684210526315,NA,NA
61953,Douglas County,IL,NA,NA,76.33928571428571
62234,Madison County,IL,51.64473684210527,NA,NA
62401,Effingham County,IL,NA,NA,27.232142857142854
62618,Cass County,IL,NA,77.68595041322314,NA
62901,Jackson County,IL,62.82894736842105,NA,NA
46016,Madison County,IN,17.105263157894736,NA,NA
46041,Clinton County,IN,NA,49.17355371900827,NA
46202,Marion County,IN,NA,64.0495867768595,NA
46208,Marion County,IN,65.13157894736842,NA,NA
46221,Marion County,IN,35.85526315789473,NA,NA
46256,Marion County,IN,NA,36.36363636363637,NA
46304,Porter County,IN,NA,NA,22.767857142857142
46341,Porter County,IN,NA,58.26446280991735,NA
46350,LaPorte County,IN,39.14473684210527,NA,NA
46360,LaPorte County,IN,7.565789473684211,NA,NA
46368,Porter County,IN,NA,1.2396694214876034,NA
46404,Lake County,IN,NA,NA,42.857142857142854
46410,Lake County,IN,NA,3.71900826446281,NA
46544,St. Joseph County,IN,NA,NA,83.48214285714286
47025,Dearborn County,IN,NA,NA,94.64285714285714
47130,Clark County,IN,12.5,NA,NA
47167,Washington County,IN,NA,NA,59.375
47203,Bartholomew County,IN,NA,18.181818181818183,NA
47303,Delaware County,IN,NA,48.34710743801653,NA
47362,Henry County,IN,NA,11.15702479338843,NA
47374,Wayne County,IN,NA,2.8925619834710745,NA
47807,Vigo County,IN,NA,NA,97.76785714285714
50220,Dallas County,IA,69.4078947368421,NA,NA
50316,Polk County,IA,44.40789473684211,NA,NA
51360,Dickinson County,IA,NA,NA,43.75
52001,Dubuque County,IA,46.71052631578947,NA,NA
52804,Scott County,IA,NA,31.818181818181817,NA
66112,Wyandotte County,KS,92.43421052631578,NA,NA
66203,Johnson County,KS,NA,NA,96.42857142857143
66204,Johnson County,KS,70.06578947368422,NA,NA
40047,Bullitt County,KY,59.539473684210535,NA,NA
40160,Hardin County,KY,61.8421052631579,NA,NA
40208,Jefferson County,KY,75.6578947368421,NA,NA
40216,Jefferson County,KY,NA,NA,37.5
40219,Jefferson County,KY,14.473684210526317,NA,NA
40342,Anderson County,KY,NA,52.892561983471076,NA
40508,Fayette County,KY,38.81578947368421,NA,NA
40701,Whitley County,KY,13.157894736842104,NA,NA
40831,Harlan County,KY,87.5,NA,NA
41017,Kenton County,KY,37.82894736842105,NA,NA
41018,Kenton County,KY,NA,NA,57.14285714285714
41339,Breathitt County,KY,NA,66.11570247933885,NA
42029,Marshall County,KY,NA,81.40495867768594,NA
42261,Butler County,KY,NA,81.81818181818183,NA
70001,Jefferson Parish,LA,NA,8.264462809917356,9.821428571428571
70058,Jefferson Parish,LA,NA,38.84297520661157,NA
70072,Jefferson Parish,LA,NA,19.421487603305785,NA
70084,St. John the Baptist Parish,LA,NA,NA,83.03571428571429
70113,Orleans Parish,LA,60.526315789473685,NA,NA
70118,Orleans Parish,LA,NA,NA,62.94642857142857
70125,Orleans Parish,LA,40.78947368421053,NA,NA
70128,Orleans Parish,LA,NA,NA,86.60714285714286
70445,St. Tammany Parish,LA,NA,NA,82.14285714285714
70591,Jefferson Davis Parish,LA,NA,85.9504132231405,NA
70601,Calcasieu Parish,LA,NA,NA,23.660714285714285
70611,Calcasieu Parish,LA,NA,NA,91.07142857142857
70802,East Baton Rouge Parish,LA,8.552631578947368,NA,NA
71203,Ouachita Parish,LA,38.15789473684211,NA,NA
04005,York County,ME,17.763157894736842,NA,NA
04084,Cumberland County,ME,95.72368421052632,77.27272727272727,NA
04092,Cumberland County,ME,43.42105263157895,NA,NA
04742,Aroostook County,ME,NA,NA,55.35714285714286
20602,Charles County,MD,NA,62.396694214876035,NA
20613,Prince George's County,MD,NA,80.57851239669421,NA
20646,Charles County,MD,NA,92.14876033057851,NA
20740,Prince George's County,MD,87.82894736842105,NA,NA
21013,Baltimore County,MD,100,NA,NA
21029,Howard County,MD,NA,NA,99.55357142857143
21030,Baltimore County,MD,NA,NA,66.51785714285714
21102,Carroll County,MD,NA,88.42975206611571,NA
21206,Baltimore city,MD,NA,NA,21.428571428571427
21228,Baltimore County,MD,52.63157894736842,11.570247933884298,NA
01035,Hampshire County,MA,NA,87.19008264462809,NA
01104,Hampden County,MA,NA,0.4132231404958678,NA
01201,Berkshire County,MA,0.3289473684210526,NA,NA
01821,Middlesex County,MA,6.907894736842106,NA,NA
01841,Essex County,MA,NA,NA,3.125
01879,Middlesex County,MA,NA,NA,58.48214285714286
01887,Middlesex County,MA,NA,2.066115702479339,NA
01923,Essex County,MA,4.276315789473684,NA,NA
01940,Essex County,MA,NA,NA,96.875
01960,Essex County,MA,1.9736842105263157,0,NA
02143,Middlesex County,MA,7.236842105263158,NA,NA
02151,Suffolk County,MA,0.6578947368421052,NA,NA
02152,Suffolk County,MA,NA,5.371900826446281,NA
02176,Middlesex County,MA,9.539473684210527,NA,NA
02370,Plymouth County,MA,NA,NA,49.107142857142854
02460,Middlesex County,MA,NA,NA,71.42857142857143
02466,Middlesex County,MA,83.88157894736842,NA,NA
02724,Bristol County,MA,NA,NA,4.910714285714286
02726,Bristol County,MA,NA,NA,75.89285714285714
02740,Bristol County,MA,0,NA,NA
02760,Bristol County,MA,13.486842105263158,NA,NA
48044,Macomb County,MI,9.868421052631579,NA,NA
48081,Macomb County,MI,NA,NA,13.839285714285715
48154,Wayne County,MI,29.276315789473685,NA,NA
48173,Wayne County,MI,81.25,NA,58.03571428571429
48187,Wayne County,MI,NA,NA,8.482142857142858
48195,Wayne County,MI,NA,NA,16.071428571428573
48202,Wayne County,MI,NA,34.710743801652896,NA
48207,Wayne County,MI,NA,62.8099173553719,NA
48208,Wayne County,MI,NA,72.31404958677686,NA
48214,Wayne County,MI,NA,56.19834710743802,NA
48219,Wayne County,MI,NA,NA,12.053571428571429
48236,Wayne County,MI,NA,NA,60.71428571428571
48313,Macomb County,MI,NA,NA,16.964285714285715
48329,Oakland County,MI,NA,17.355371900826448,NA
48380,Oakland County,MI,82.23684210526315,NA,NA
48439,Genesee County,MI,14.802631578947366,NA,NA
48601,Saginaw County,MI,2.9605263157894735,NA,NA
48642,Midland County,MI,NA,NA,29.017857142857146
48658,Arenac County,MI,NA,83.47107438016529,NA
48827,Eaton County,MI,NA,NA,44.19642857142857
48880,Gratiot County,MI,NA,76.03305785123968,NA
49024,Kalamazoo County,MI,32.89473684210527,NA,NA
49058,Barry County,MI,36.51315789473684,NA,NA
49236,Lenawee County,MI,NA,97.10743801652893,NA
49316,Kent County,MI,50.32894736842105,NA,NA
49417,Ottawa County,MI,NA,28.512396694214875,41.517857142857146
49418,Kent County,MI,NA,NA,94.19642857142857
49423,Ottawa County,MI,NA,NA,5.357142857142857
49504,Kent County,MI,16.776315789473685,NA,NA
49686,Grand Traverse County,MI,NA,22.31404958677686,NA
55117,Ramsey County,MN,18.75,NA,NA
55309,Sherburne County,MN,73.35526315789474,NA,NA
55378,Scott County,MN,78.94736842105263,NA,NA
55403,Hennepin County,MN,26.973684210526315,NA,NA
55808,St. Louis County,MN,79.60526315789474,NA,NA
55811,St. Louis County,MN,NA,NA,30.80357142857143
56537,Otter Tail County,MN,NA,33.88429752066116,NA
56560,Clay County,MN,14.144736842105262,NA,NA
38703,Washington County,MS,NA,NA,91.96428571428571
38930,Leflore County,MS,NA,NA,25.44642857142857
39047,Rankin County,MS,NA,69.42148760330579,NA
39051,Leake County,MS,NA,NA,72.32142857142857
39056,Hinds County,MS,NA,83.88429752066115,NA
39090,Attala County,MS,NA,NA,71.875
39110,Madison County,MS,NA,NA,25.892857142857146
39307,Lauderdale County,MS,81.9078947368421,NA,NA
39466,Pearl River County,MS,NA,NA,48.660714285714285
39567,Jackson County,MS,NA,NA,70.53571428571429
39629,Lincoln County,MS,NA,86.77685950413223,NA
63020,Jefferson County,MO,NA,67.35537190082644,NA
63028,Jefferson County,MO,NA,20.66115702479339,NA
63031,St. Louis County,MO,NA,NA,7.142857142857142
63051,Jefferson County,MO,60.85526315789473,NA,NA
63104,St. Louis city,MO,NA,61.98347107438017,NA
63115,St. Louis city,MO,NA,NA,53.57142857142857
63116,St. Louis city,MO,NA,50.413223140495866,NA
63136,St. Louis County,MO,36.18421052631579,NA,NA
63138,St. Louis County,MO,NA,NA,63.83928571428571
63456,Monroe County,MO,88.1578947368421,NA,NA
63501,Adair County,MO,NA,NA,63.39285714285714
63645,Madison County,MO,NA,85.12396694214877,NA
64067,Lafayette County,MO,62.17105263157895,NA,NA
64109,Jackson County,MO,NA,30.991735537190085,NA
64151,Platte County,MO,NA,NA,43.30357142857143
64503,Buchanan County,MO,32.23684210526316,NA,NA
64850,Newton County,MO,NA,18.59504132231405,NA
65622,Dallas County,MO,NA,NA,50
65672,Taney County,MO,NA,89.6694214876033,NA
65738,Greene County,MO,NA,NA,68.30357142857143
59601,Lewis and Clark County,MT,NA,16.528925619834713,NA
59718,Gallatin County,MT,NA,NA,31.25
68116,Douglas County,NE,NA,90.08264462809917,NA
68123,Sarpy County,NE,NA,NA,62.5
68128,Sarpy County,NE,NA,NA,78.57142857142857
68502,Lancaster County,NE,NA,64.46280991735537,NA
68701,Madison County,NE,50,NA,NA
68801,Hall County,NE,NA,NA,62.05357142857143
89108,Clark County,NV,NA,34.29752066115703,NA
89139,Clark County,NV,73.02631578947368,NA,NA
89156,Clark County,NV,NA,60.74380165289256,NA
03060,Hillsborough County,NH,NA,NA,45.535714285714285
03103,Hillsborough County,NH,7.894736842105263,NA,NA
03431,Cheshire County,NH,NA,NA,6.696428571428571
03570,Coos County,NH,NA,99.17355371900827,NA
07009,Essex County,NJ,NA,95.0413223140496,NA
07065,Union County,NJ,26.973684210526315,NA,NA
07103,Essex County,NJ,2.302631578947368,NA,NA
07501,Passaic County,NJ,NA,NA,41.964285714285715
07661,Bergen County,NJ,NA,82.64462809917356,NA
07712,Monmouth County,NJ,NA,4.132231404958678,NA
07885,Morris County,NJ,NA,NA,41.07142857142857
08003,Camden County,NJ,32.56578947368421,NA,NA
08016,Burlington County,NJ,NA,21.074380165289256,NA
08021,Camden County,NJ,NA,5.785123966942149,NA
08052,Burlington County,NJ,34.21052631578947,NA,NA
08054,Burlington County,NJ,NA,95.45454545454545,NA
08069,Salem County,NJ,NA,NA,53.125
08075,Burlington County,NJ,NA,25.206611570247933,NA
08081,Camden County,NJ,NA,4.958677685950414,NA
08361,Cumberland County,NJ,NA,73.14049586776859,NA
08611,Mercer County,NJ,NA,27.685950413223143,NA
08701,Ocean County,NJ,NA,7.43801652892562,NA
08723,Ocean County,NJ,NA,19.00826446280992,NA
08757,Ocean County,NJ,NA,NA,6.25
08844,Somerset County,NJ,NA,NA,100
08861,Middlesex County,NJ,NA,NA,17.410714285714285
08902,Middlesex County,NJ,NA,NA,87.5
87052,Sandoval County,NM,95.06578947368422,NA,NA
87105,Bernalillo County,NM,5.263157894736842,NA,NA
87106,Bernalillo County,NM,NA,NA,50.89285714285714
88007,Doa Ana County,NM,NA,50.82644628099173,NA
88101,Curry County,NM,11.513157894736842,NA,NA
10009,New York County,NY,NA,NA,3.571428571428571
10021,New York County,NY,NA,NA,67.85714285714286
10029,New York County,NY,NA,NA,0
10075,New York County,NY,NA,NA,67.41071428571429
10314,Richmond County,NY,NA,NA,5.803571428571429
10451,Bronx County,NY,20.065789473684212,NA,NA
10456,Bronx County,NY,NA,NA,2.232142857142857
10457,Bronx County,NY,1.644736842105263,NA,NA
10467,Bronx County,NY,NA,38.429752066115704,28.125
10475,Bronx County,NY,30.263157894736842,NA,NA
10924,Orange County,NY,NA,NA,61.60714285714286
11004,Queens County,NY,87.17105263157895,NA,NA
11010,Nassau County,NY,NA,NA,38.392857142857146
11214,Kings County,NY,NA,NA,7.5892857142857135
11226,Kings County,NY,5.592105263157895,NA,NA
11233,Kings County,NY,NA,NA,9.375
11234,Kings County,NY,NA,9.917355371900827,NA
11239,Kings County,NY,NA,65.70247933884298,NA
11357,Queens County,NY,NA,41.32231404958678,NA
11432,Queens County,NY,NA,NA,23.214285714285715
11520,Nassau County,NY,NA,NA,30.357142857142854
11554,Nassau County,NY,NA,NA,19.642857142857142
11581,Nassau County,NY,91.77631578947368,NA,NA
11714,Nassau County,NY,76.64473684210526,NA,NA
11762,Nassau County,NY,NA,75.20661157024794,NA
11763,Suffolk County,NY,NA,41.735537190082646,NA
11771,Nassau County,NY,NA,98.7603305785124,NA
12182,Rensselaer County,NY,NA,NA,87.5
12302,Schenectady County,NY,NA,NA,24.107142857142858
13069,Oswego County,NY,29.605263157894733,NA,NA
13208,Onondaga County,NY,69.73684210526315,NA,NA
13317,Montgomery County,NY,97.69736842105263,NA,NA
14051,Erie County,NY,NA,42.97520661157025,NA
14211,Erie County,NY,10.526315789473683,NA,NA
14224,Erie County,NY,NA,NA,36.607142857142854
14305,Niagara County,NY,30.92105263157895,NA,NA
14516,Wayne County,NY,NA,87.19008264462809,NA
14568,Wayne County,NY,61.51315789473685,NA,NA
14609,Monroe County,NY,1.3157894736842104,NA,NA
14706,Cattaraugus County,NY,NA,58.67768595041323,NA
14760,Cattaraugus County,NY,12.828947368421053,NA,NA
14901,Chemung County,NY,NA,53.30578512396694,NA
27105,Forsyth County,NC,3.618421052631579,NA,NA
27239,Davidson County,NC,65.46052631578947,NA,NA
27260,Guilford County,NC,NA,NA,95.53571428571429
27278,Orange County,NC,NA,NA,99.10714285714286
27292,Davidson County,NC,6.25,NA,NA
27406,Guilford County,NC,NA,0.8264462809917356,NA
27536,Vance County,NC,NA,NA,69.64285714285714
27542,Johnston County,NC,68.0921052631579,NA,NA
27713,Durham County,NC,NA,NA,15.178571428571427
27801,Edgecombe County,NC,42.76315789473684,NA,NA
27828,Pitt County,NC,NA,71.900826446281,NA
27855,Hertford County,NC,NA,84.29752066115702,NA
27870,Halifax County,NC,NA,NA,34.82142857142857
27874,Halifax County,NC,90.78947368421053,NA,NA
27886,Edgecombe County,NC,65.78947368421053,NA,73.66071428571429
28021,Gaston County,NC,77.30263157894737,NA,NA
28031,Mecklenburg County,NC,NA,71.07438016528926,NA
28213,Mecklenburg County,NC,NA,46.69421487603306,NA
28311,Cumberland County,NC,29.93421052631579,NA,NA
28312,Cumberland County,NC,59.86842105263158,NA,NA
28340,Robeson County,NC,NA,61.57024793388429,NA
28358,Robeson County,NC,19.078947368421055,NA,NA
28366,Sampson County,NC,99.67105263157895,NA,NA
28379,Richmond County,NC,19.736842105263158,NA,NA
28451,Brunswick County,NC,NA,NA,34.375
28460,Onslow County,NC,NA,NA,90.17857142857143
28467,Brunswick County,NC,94.73684210526315,NA,NA
28602,Catawba County,NC,24.671052631578945,NA,NA
28625,Iredell County,NC,48.35526315789473,NA,NA
28762,McDowell County,NC,NA,NA,79.01785714285714
28803,Buncombe County,NC,NA,27.685950413223143,NA
43065,Delaware County,OH,NA,23.96694214876033,NA
43113,Pickaway County,OH,15.789473684210526,NA,NA
43130,Fairfield County,OH,63.1578947368421,NA,NA
43204,Franklin County,OH,NA,NA,33.482142857142854
43506,Williams County,OH,NA,21.487603305785125,NA
43512,Defiance County,OH,5.921052631578947,NA,NA
43518,Williams County,OH,97.03947368421053,NA,NA
43551,Wood County,OH,58.88157894736842,NA,NA
43604,Lucas County,OH,44.73684210526316,NA,NA
43610,Lucas County,OH,61.18421052631579,NA,NA
43615,Lucas County,OH,NA,3.3057851239669422,NA
43764,Perry County,OH,85.52631578947368,NA,NA
43950,Belmont County,OH,43.75,NA,NA
44003,Ashtabula County,OH,NA,70.24793388429752,NA
44004,Ashtabula County,OH,NA,NA,0.8928571428571428
44052,Lorain County,OH,47.368421052631575,NA,NA
44053,Lorain County,OH,NA,NA,4.464285714285714
44055,Lorain County,OH,10.855263157894738,NA,NA
44057,Lake County,OH,34.868421052631575,NA,NA
44102,Cuyahoga County,OH,0.9868421052631579,NA,NA
44105,Cuyahoga County,OH,8.223684210526317,NA,NA
44106,Cuyahoga County,OH,NA,12.396694214876034,NA
44110,Cuyahoga County,OH,11.18421052631579,NA,NA
44113,Cuyahoga County,OH,NA,NA,95.08928571428571
44118,Cuyahoga County,OH,NA,NA,4.017857142857143
44128,Cuyahoga County,OH,NA,NA,13.392857142857142
44130,Cuyahoga County,OH,NA,NA,0.4464285714285714
44133,Cuyahoga County,OH,NA,NA,10.714285714285714
44134,Cuyahoga County,OH,NA,16.115702479338843,NA
44135,Cuyahoga County,OH,3.9473684210526314,NA,NA
44149,Cuyahoga County,OH,NA,47.93388429752066,NA
44203,Summit County,OH,NA,6.198347107438017,NA
44223,Summit County,OH,47.03947368421053,NA,NA
44305,Summit County,OH,16.11842105263158,NA,NA
44306,Summit County,OH,12.171052631578947,NA,NA
44320,Summit County,OH,NA,15.289256198347106,NA
44413,Columbiana County,OH,NA,NA,76.78571428571429
44420,Trumbull County,OH,41.118421052631575,NA,NA
44683,Tuscarawas County,OH,96.05263157894737,NA,NA
45122,Clermont County,OH,94.07894736842105,NA,NA
45219,Hamilton County,OH,76.97368421052632,NA,NA
45237,Hamilton County,OH,NA,NA,40.17857142857143
45309,Montgomery County,OH,NA,NA,36.160714285714285
45356,Miami County,OH,NA,10.743801652892563,NA
45414,Montgomery County,OH,35.526315789473685,NA,NA
45432,Greene County,OH,67.43421052631578,NA,NA
45875,Putnam County,OH,NA,NA,54.46428571428571
73044,Logan County,OK,NA,12.8099173553719,NA
73084,Oklahoma County,OK,NA,76.85950413223141,NA
73129,Oklahoma County,OK,NA,68.18181818181817,NA
73159,Oklahoma County,OK,NA,NA,74.10714285714286
73401,Carter County,OK,NA,8.677685950413224,NA
73533,Stephens County,OK,25,40.909090909090914,NA
74066,Creek County,OK,37.5,NA,NA
74447,Okmulgee County,OK,NA,93.38842975206612,NA
74523,Pushmataha County,OK,89.14473684210526,95.86776859504133,NA
97009,Clackamas County,OR,85.85526315789474,NA,NA
97123,Washington County,OR,NA,13.636363636363635,NA
97140,Washington County,OR,54.93421052631579,NA,NA
97220,Multnomah County,OR,NA,26.033057851239672,NA
97322,Linn County,OR,NA,NA,77.67857142857143
97351,Polk County,OR,NA,NA,97.32142857142857
97386,Linn County,OR,49.01315789473684,NA,NA
97424,Lane County,OR,45.723684210526315,NA,NA
97501,Jackson County,OR,NA,9.50413223140496,NA
15085,Westmoreland County,PA,84.86842105263158,NA,NA
15108,Allegheny County,PA,NA,NA,33.035714285714285
15110,Allegheny County,PA,NA,NA,84.82142857142857
15204,Allegheny County,PA,62.17105263157895,NA,NA
15235,Allegheny County,PA,NA,NA,8.928571428571429
15801,Clearfield County,PA,NA,4.545454545454546,NA
15853,Elk County,PA,NA,86.36363636363636,NA
15906,Cambria County,PA,79.93421052631578,NA,NA
16023,Butler County,PA,NA,90.49586776859503,NA
16121,Mercer County,PA,68.42105263157895,NA,NA
16346,Venango County,PA,NA,94.62809917355372,NA
17046,Lebanon County,PA,11.842105263157894,NA,NA
17055,Cumberland County,PA,NA,46.28099173553719,NA
17222,Franklin County,PA,NA,NA,29.910714285714285
17268,Franklin County,PA,21.052631578947366,NA,NA
17821,Montour County,PA,NA,NA,2.6785714285714284
17901,Schuylkill County,PA,31.25,NA,NA
18018,Lehigh County,PA,26.973684210526315,NA,NA
18052,Lehigh County,PA,NA,NA,18.303571428571427
18222,Luzerne County,PA,NA,NA,88.39285714285714
18252,Schuylkill County,PA,79.27631578947368,NA,NA
18951,Bucks County,PA,22.36842105263158,NA,NA
19007,Bucks County,PA,NA,57.85123966942148,NA
19013,Delaware County,PA,NA,11.983471074380166,NA
19025,Montgomery County,PA,NA,80.99173553719008,NA
19086,Delaware County,PA,64.47368421052632,NA,NA
19104,Philadelphia County,PA,NA,15.702479338842975,NA
19111,Philadelphia County,PA,NA,NA,11.160714285714286
19119,Philadelphia County,PA,28.947368421052634,NA,NA
19123,Philadelphia County,PA,77.96052631578947,NA,NA
19124,Philadelphia County,PA,2.631578947368421,NA,NA
19131,Philadelphia County,PA,NA,2.479338842975207,NA
19139,Philadelphia County,PA,23.355263157894736,NA,NA
19145,Philadelphia County,PA,NA,10.330578512396695,NA
19401,Montgomery County,PA,38.48684210526316,NA,NA
19460,Chester County,PA,28.289473684210524,NA,NA
02888,Kent County,RI,98.02631578947368,NA,NA
02920,Providence County,RI,NA,88.01652892561982,NA
29018,Orangeburg County,SC,NA,99.58677685950413,NA
29112,Orangeburg County,SC,NA,NA,98.21428571428571
29410,Berkeley County,SC,NA,NA,66.07142857142857
29414,Charleston County,SC,NA,NA,26.339285714285715
29418,Charleston County,SC,NA,NA,80.35714285714286
29483,Dorchester County,SC,63.81578947368421,NA,NA
29488,Colleton County,SC,84.53947368421053,NA,NA
29512,Marlboro County,SC,53.94736842105263,NA,NA
29520,Chesterfield County,SC,72.69736842105263,NA,NA
29541,Florence County,SC,75.98684210526315,NA,NA
29556,Williamsburg County,SC,89.47368421052632,NA,NA
29560,Florence County,SC,74.3421052631579,NA,NA
29617,Greenville County,SC,40.46052631578947,NA,NA
29620,Abbeville County,SC,NA,59.917355371900825,NA
29650,Greenville County,SC,NA,37.1900826446281,NA
37091,Marshall County,TN,NA,NA,56.69642857142857
37128,Rutherford County,TN,34.53947368421053,NA,NA
37150,Macon County,TN,NA,98.34710743801654,NA
37379,Hamilton County,TN,NA,NA,60.26785714285714
37412,Hamilton County,TN,51.973684210526315,NA,NA
37642,Hawkins County,TN,NA,43.388429752066116,NA
37664,Sullivan County,TN,24.013157894736842,NA,NA
37701,Blount County,TN,NA,60.74380165289256,NA
37756,Scott County,TN,99.01315789473685,NA,NA
37914,Knox County,TN,NA,65.28925619834712,NA
38018,Shelby County,TN,NA,69.00826446280992,NA
38106,Shelby County,TN,19.407894736842106,NA,NA
38107,Shelby County,TN,NA,NA,65.17857142857143
38108,Shelby County,TN,NA,53.71900826446281,NA
38401,Maury County,TN,8.881578947368421,NA,NA
38556,Fentress County,TN,NA,NA,55.80357142857143
75025,Collin County,TX,NA,51.2396694214876,NA
75041,Dallas County,TX,NA,NA,79.46428571428571
75070,Collin County,TX,NA,NA,13.839285714285715
75076,Grayson County,TX,NA,NA,85.71428571428571
75090,Grayson County,TX,48.026315789473685,NA,NA
75098,Collin County,TX,25.986842105263158,NA,NA
75134,Dallas County,TX,NA,85.53719008264463,NA
75147,Kaufman County,TX,85.19736842105263,NA,NA
75203,Dallas County,TX,95.39473684210526,NA,NA
75225,Dallas County,TX,NA,52.47933884297521,NA
75227,Dallas County,TX,22.039473684210524,NA,NA
75237,Dallas County,TX,46.381578947368425,NA,NA
75240,Dallas County,TX,NA,NA,64.73214285714286
75241,Dallas County,TX,NA,NA,70.08928571428571
75402,Hunt County,TX,NA,47.5206611570248,NA
75455,Titus County,TX,53.289473684210535,NA,NA
75601,Gregg County,TX,70.39473684210526,NA,NA
75605,Gregg County,TX,52.960526315789465,NA,NA
75644,Upshur County,TX,66.44736842105263,NA,NA
75706,Smith County,TX,57.89473684210527,NA,NA
75901,Angelina County,TX,NA,66.94214876033058,NA
76034,Tarrant County,TX,75,NA,NA
76054,Tarrant County,TX,NA,NA,93.30357142857143
76109,Tarrant County,TX,80.92105263157895,NA,NA
76119,Tarrant County,TX,50.6578947368421,NA,NA
76131,Tarrant County,TX,NA,57.438016528925615,NA
76426,Wise County,TX,NA,NA,54.01785714285714
76502,Bell County,TX,NA,NA,1.7857142857142856
76708,McLennan County,TX,73.68421052631578,NA,NA
76712,McLennan County,TX,NA,NA,45.982142857142854
77009,Harris County,TX,NA,NA,82.58928571428571
77015,Harris County,TX,43.09210526315789,NA,NA
77021,Harris County,TX,NA,NA,77.23214285714286
77022,Harris County,TX,NA,NA,78.125
77033,Harris County,TX,90.46052631578947,NA,NA
77041,Harris County,TX,58.223684210526315,NA,NA
77047,Harris County,TX,54.276315789473685,NA,NA
77060,Harris County,TX,NA,71.48760330578511,NA
77073,Harris County,TX,NA,NA,91.51785714285714
77078,Harris County,TX,92.10526315789474,NA,NA
77087,Harris County,TX,54.276315789473685,NA,NA
77301,Montgomery County,TX,NA,74.3801652892562,NA
77339,Harris County,TX,NA,33.057851239669425,NA
77360,Polk County,TX,NA,67.76859504132231,NA
77433,Harris County,TX,NA,NA,75
77437,Wharton County,TX,NA,NA,39.285714285714285
77517,Galveston County,TX,NA,97.93388429752066,NA
77532,Harris County,TX,NA,90.9090909090909,NA
77546,Galveston County,TX,31.907894736842106,NA,NA
77566,Brazoria County,TX,NA,40.49586776859504,NA
78212,Bexar County,TX,NA,92.97520661157024,NA
78216,Bexar County,TX,NA,NA,81.69642857142857
78245,Bexar County,TX,55.5921052631579,NA,NA
78382,Aransas County,TX,NA,73.55371900826447,NA
78415,Nueces County,TX,NA,45.45454545454545,NA
78539,Hidalgo County,TX,56.25,NA,NA
78596,Hidalgo County,TX,NA,NA,27.67857142857143
79701,Midland County,TX,45.06578947368421,NA,NA
79924,El Paso County,TX,NA,23.553719008264462,NA
84070,Salt Lake County,UT,NA,54.54545454545454,NA
84096,Salt Lake County,UT,33.881578947368425,NA,NA
84098,Summit County,UT,NA,72.31404958677686,NA
84102,Salt Lake County,UT,NA,80.16528925619835,NA
84119,Salt Lake County,UT,NA,94.21487603305785,NA
84404,Weber County,UT,23.684210526315788,NA,NA
84701,Sevier County,UT,96.71052631578947,NA,NA
84780,Washington County,UT,NA,NA,38.839285714285715
05819,Caledonia County,VT,74.67105263157895,NA,NA
20136,Prince William County,VA,NA,79.75206611570248,NA
20164,Loudoun County,VA,45.39473684210527,NA,NA
22033,Fairfax County,VA,57.56578947368421,NA,NA
22152,Fairfax County,VA,NA,NA,80.80357142857143
22192,Prince William County,VA,NA,35.53719008264463,NA
22202,Arlington County,VA,88.81578947368422,NA,NA
22801,Harrisonburg city,VA,NA,NA,87.05357142857143
22835,Page County,VA,NA,NA,70.98214285714286
22963,Fluvanna County,VA,NA,73.55371900826447,NA
23226,Richmond city,VA,NA,NA,54.91071428571429
23452,Virginia Beach city,VA,NA,NA,8.035714285714286
23455,Virginia Beach city,VA,NA,NA,12.5
23462,Virginia Beach city,VA,NA,35.12396694214876,NA
23503,Norfolk city,VA,NA,32.64462809917356,NA
23606,Newport News city,VA,NA,NA,44.642857142857146
23663,Hampton city,VA,NA,52.066115702479344,NA
23693,York County,VA,NA,82.23140495867769,NA
23704,Portsmouth city,VA,NA,47.107438016528924,NA
23930,Nottoway County,VA,NA,93.80165289256198,NA
23944,Lunenburg County,VA,NA,89.25619834710744,NA
98023,King County,WA,NA,NA,20.535714285714285
98103,King County,WA,NA,NA,75.44642857142857
98117,King County,WA,58.55263157894737,NA,NA
98118,King County,WA,NA,NA,26.785714285714285
98532,Lewis County,WA,NA,55.78512396694215,NA
98597,Thurston County,WA,64.14473684210526,NA,NA
98837,Grant County,WA,NA,26.859504132231404,NA
99223,Spokane County,WA,91.11842105263158,NA,NA
20020,District of Columbia,DC,3.289473684210526,28.92561983471074,NA
25301,Kanawha County,WV,NA,97.52066115702479,NA
25404,Berkeley County,WV,42.10526315789473,NA,NA
25443,Jefferson County,WV,NA,NA,72.76785714285714
25621,Mingo County,WV,NA,100,NA
25951,Summers County,WV,NA,96.28099173553719,NA
26201,Upshur County,WV,NA,NA,12.946428571428573
26704,Hampshire County,WV,91.44736842105263,NA,NA
26757,Hampshire County,WV,98.68421052631578,NA,NA
53095,Washington County,WI,52.30263157894737,NA,NA
53158,Kenosha County,WI,53.61842105263158,NA,NA
53215,Milwaukee County,WI,6.578947368421052,NA,NA
53218,Milwaukee County,WI,NA,7.024793388429752,NA
53220,Milwaukee County,WI,37.17105263157895,NA,NA
53223,Milwaukee County,WI,NA,9.090909090909092,NA
53227,Milwaukee County,WI,40.131578947368425,NA,NA
53402,Racine County,WI,NA,50,NA
53566,Green County,WI,51.31578947368421,NA,NA
53705,Dane County,WI,86.51315789473685,NA,NA
54403,Marathon County,WI,NA,25.6198347107438,NA
54548,Oneida County,WI,NA,NA,92.85714285714286
54703,Eau Claire County,WI,24.342105263157894,NA,NA
54942,Outagamie County,WI,99.3421052631579,NA,NA
82007,Laramie County,WY,57.23684210526315,NA,NA
82414,Park County,WY,71.05263157894737,NA,NA
