ZipCode,county,state,Adult,Retirement
35007,Shelby County,AL,NA,33.969465648854964
35121,Blount County,AL,NA,50.38167938931297
35952,Etowah County,AL,NA,68.32061068702289
99508,Anchorage Municipality,AK,81.81818181818183,NA
85201,Maricopa County,AZ,11.616161616161616,NA
85302,Maricopa County,AZ,NA,25.190839694656486
85349,Yuma County,AZ,35.35353535353536,NA
85353,Maricopa County,AZ,NA,75.57251908396947
85743,Pima County,AZ,NA,27.099236641221374
85745,Pima County,AZ,NA,51.908396946564885
71701,Ouachita County,AR,97.47474747474747,NA
72112,Jackson County,AR,66.66666666666666,NA
72916,Sebastian County,AR,NA,79.38931297709924
90004,Los Angeles County,CA,NA,35.49618320610687
90505,Los Angeles County,CA,NA,38.93129770992366
91202,Los Angeles County,CA,NA,64.8854961832061
91403,Los Angeles County,CA,NA,85.1145038167939
91710,San Bernardino County,CA,NA,19.083969465648856
91902,San Diego County,CA,NA,80.53435114503816
92009,San Diego County,CA,NA,41.221374045801525
92027,San Diego County,CA,NA,76.7175572519084
92113,San Diego County,CA,NA,65.64885496183206
92220,Riverside County,CA,NA,61.06870229007634
92660,Orange County,CA,NA,37.786259541984734
92677,Orange County,CA,NA,9.923664122137405
92869,Orange County,CA,NA,48.091603053435115
93402,San Luis Obispo County,CA,NA,75.19083969465649
94025,San Mateo County,CA,96.46464646464646,NA
94509,Contra Costa County,CA,23.737373737373737,NA
94561,Contra Costa County,CA,NA,47.32824427480916
94591,Solano County,CA,NA,35.87786259541985
94605,Alameda County,CA,26.262626262626267,NA
94941,Marin County,CA,NA,40.0763358778626
95123,Santa Clara County,CA,NA,25.954198473282442
95366,San Joaquin County,CA,NA,79.00763358778626
95382,Stanislaus County,CA,26.767676767676768,NA
95407,Sonoma County,CA,NA,54.19847328244275
95425,Sonoma County,CA,NA,82.06106870229007
95519,Humboldt County,CA,93.93939393939394,NA
96137,Lassen County,CA,NA,89.31297709923665
80031,Adams County,CO,39.8989898989899,NA
80222,Denver County,CO,NA,93.12977099236642
80231,Denver County,CO,NA,59.16030534351145
80525,Larimer County,CO,15.151515151515152,NA
80537,Larimer County,CO,23.232323232323232,NA
80634,Weld County,CO,NA,3.435114503816794
80734,Phillips County,CO,96.96969696969697,NA
80916,El Paso County,CO,37.37373737373738,NA
81125,Saguache County,CO,NA,98.85496183206108
06033,Hartford County,CT,77.27272727272727,NA
06281,Windham County,CT,NA,90.07633587786259
06489,Hartford County,CT,NA,17.17557251908397
06776,Litchfield County,CT,29.292929292929294,NA
06811,Fairfield County,CT,NA,61.832061068702295
06890,Fairfield County,CT,98.48484848484848,NA
19901,Kent County,DE,NA,19.46564885496183
19938,Kent County,DE,60.1010101010101,NA
19977,Kent County,DE,NA,43.89312977099237
32024,Columbia County,FL,NA,39.69465648854962
32040,Baker County,FL,NA,93.51145038167938
32174,Volusia County,FL,NA,42.74809160305343
32207,Duval County,FL,NA,10.305343511450381
32211,Duval County,FL,22.22222222222222,NA
32218,Duval County,FL,3.535353535353535,NA
32224,Duval County,FL,NA,43.12977099236641
32225,Duval County,FL,84.34343434343434,NA
32308,Leon County,FL,65.65656565656566,NA
32425,Holmes County,FL,NA,55.343511450381676
32504,Escambia County,FL,NA,28.24427480916031
32570,Santa Rosa County,FL,NA,7.251908396946565
32607,Alachua County,FL,NA,44.656488549618324
32686,Marion County,FL,NA,100
32907,Brevard County,FL,42.92929292929293,NA
33024,Broward County,FL,31.313131313131315,NA
33136,Miami-Dade County,FL,46.464646464646464,NA
33157,Miami-Dade County,FL,89.8989898989899,NA
33445,Palm Beach County,FL,NA,62.97709923664122
33825,Highlands County,FL,NA,14.885496183206106
33908,Lee County,FL,NA,8.015267175572518
33957,Lee County,FL,NA,69.46564885496184
33971,Lee County,FL,55.05050505050505,NA
33974,Lee County,FL,73.23232323232324,NA
33976,Lee County,FL,NA,94.65648854961832
34208,Manatee County,FL,NA,49.61832061068702
34231,Sarasota County,FL,NA,17.557251908396946
30011,Barrow County,GA,63.13131313131313,NA
30035,DeKalb County,GA,NA,74.80916030534351
30044,Gwinnett County,GA,21.21212121212121,NA
30045,Gwinnett County,GA,NA,68.70229007633588
30228,Henry County,GA,32.323232323232325,NA
30305,Fulton County,GA,73.73737373737373,NA
30327,Fulton County,GA,93.43434343434343,NA
30354,Fulton County,GA,NA,71.7557251908397
30442,Jenkins County,GA,71.71717171717171,NA
30536,Gilmer County,GA,94.94949494949495,NA
30548,Jackson County,GA,NA,50
30738,Dade County,GA,88.38383838383838,NA
96706,Honolulu County,HI,NA,11.450381679389313
96750,Hawaii County,HI,NA,91.98473282442748
96822,Honolulu County,HI,NA,20.610687022900763
83274,Bingham County,ID,NA,88.16793893129771
83402,Bonneville County,ID,NA,46.18320610687023
83467,Lemhi County,ID,97.97979797979798,NA
83501,Nez Perce County,ID,13.636363636363635,NA
83646,Ada County,ID,NA,8.778625954198473
83672,Washington County,ID,72.22222222222221,NA
60025,Cook County,IL,NA,6.106870229007633
60031,Lake County,IL,NA,23.282442748091604
60047,Lake County,IL,37.878787878787875,22.900763358778626
60062,Cook County,IL,91.41414141414141,NA
60077,Cook County,IL,56.56565656565656,NA
60107,Cook County,IL,NA,35.11450381679389
60123,Kane County,IL,22.727272727272727,NA
60441,Will County,IL,24.242424242424242,NA
60453,Cook County,IL,NA,9.16030534351145
60473,Cook County,IL,NA,87.78625954198473
60503,Will County,IL,90.40404040404042,NA
60527,DuPage County,IL,47.97979797979798,NA
60609,Cook County,IL,8.080808080808081,NA
60630,Cook County,IL,54.04040404040404,NA
60637,Cook County,IL,NA,45.41984732824427
60640,Cook County,IL,NA,66.41221374045801
60644,Cook County,IL,58.58585858585859,NA
60657,Cook County,IL,NA,12.977099236641221
61241,Henry County,IL,NA,88.54961832061069
61265,Rock Island County,IL,86.36363636363636,NA
61614,Peoria County,IL,NA,33.587786259541986
61727,De Witt County,IL,92.92929292929293,NA
61748,McLean County,IL,99.4949494949495,NA
62035,Madison County,IL,NA,54.961832061068705
62526,Macon County,IL,9.090909090909092,NA
62549,Macon County,IL,83.33333333333334,NA
46112,Hendricks County,IN,NA,77.48091603053436
46222,Marion County,IN,NA,27.86259541984733
46356,Lake County,IN,NA,32.44274809160305
46902,Howard County,IN,NA,5.343511450381679
47250,Jefferson County,IN,NA,83.20610687022901
47553,Martin County,IN,79.29292929292929,NA
47834,Clay County,IN,33.33333333333333,NA
50322,Polk County,IA,NA,81.29770992366412
50461,Mitchell County,IA,NA,83.96946564885496
50613,Black Hawk County,IA,NA,11.83206106870229
51106,Woodbury County,IA,NA,48.854961832061065
52003,Dubuque County,IA,NA,96.94656488549617
52240,Johnson County,IA,NA,20.99236641221374
52403,Linn County,IA,NA,69.8473282442748
52537,Davis County,IA,81.31313131313132,NA
52632,Lee County,IA,NA,32.82442748091603
52803,Scott County,IA,61.111111111111114,NA
66002,Atchison County,KS,85.85858585858585,NA
66030,Johnson County,KS,52.52525252525253,NA
66062,Johnson County,KS,37.878787878787875,NA
67213,Sedgwick County,KS,58.080808080808076,NA
40004,Nelson County,KY,18.68686868686869,NA
40242,Jefferson County,KY,75.75757575757575,NA
40330,Mercer County,KY,50,NA
40447,Jackson County,KY,80.3030303030303,NA
40515,Fayette County,KY,44.94949494949495,NA
41075,Campbell County,KY,NA,77.86259541984732
41465,Magoffin County,KY,55.55555555555556,NA
42029,Marshall County,KY,67.17171717171718,NA
42066,Graves County,KY,NA,21.755725190839694
42101,Warren County,KY,NA,15.267175572519085
70056,Jefferson Parish,LA,NA,14.122137404580155
70769,Ascension Parish,LA,NA,34.73282442748092
71040,Claiborne Parish,LA,61.61616161616161,85.49618320610686
71202,Ouachita Parish,LA,NA,26.33587786259542
71301,Rapides Parish,LA,6.0606060606060606,NA
03908,York County,ME,NA,56.10687022900763
04062,Cumberland County,ME,75.25252525252525,NA
21236,Baltimore County,MD,NA,38.54961832061068
01760,Middlesex County,MA,36.868686868686865,NA
01778,Middlesex County,MA,72.72727272727273,NA
01852,Middlesex County,MA,NA,3.0534351145038165
01905,Essex County,MA,0.5050505050505051,NA
01906,Essex County,MA,2.0202020202020203,NA
01913,Essex County,MA,NA,9.541984732824428
02140,Middlesex County,MA,15.656565656565657,NA
02149,Middlesex County,MA,7.07070707070707,NA
02150,Suffolk County,MA,0,NA
02169,Norfolk County,MA,NA,1.1450381679389312
02301,Plymouth County,MA,NA,0.38167938931297707
02330,Plymouth County,MA,43.93939393939394,NA
02332,Plymouth County,MA,64.14141414141415,NA
02359,Plymouth County,MA,NA,59.541984732824424
02368,Norfolk County,MA,NA,30.15267175572519
02465,Middlesex County,MA,51.515151515151516,NA
02467,Norfolk County,MA,NA,62.59541984732825
02645,Barnstable County,MA,NA,62.213740458015266
02719,Bristol County,MA,NA,49.23664122137404
02767,Bristol County,MA,27.27272727272727,NA
48062,Macomb County,MI,91.91919191919192,NA
48103,Washtenaw County,MI,NA,2.6717557251908395
48168,Wayne County,MI,50.505050505050505,NA
48180,Wayne County,MI,1.5151515151515151,NA
48182,Monroe County,MI,NA,90.45801526717557
48185,Wayne County,MI,5.05050505050505,NA
48186,Wayne County,MI,NA,10.687022900763358
48223,Wayne County,MI,10.606060606060606,NA
48309,Oakland County,MI,34.84848484848485,NA
48623,Saginaw County,MI,NA,48.473282442748086
48625,Clare County,MI,29.797979797979796,NA
48706,Bay County,MI,5.555555555555555,NA
48768,Tuscola County,MI,53.03030303030303,NA
48838,Montcalm County,MI,NA,30.53435114503817
49024,Kalamazoo County,MI,NA,22.519083969465647
49083,Kalamazoo County,MI,78.78787878787878,NA
49090,Van Buren County,MI,NA,38.16793893129771
49201,Jackson County,MI,NA,28.24427480916031
49221,Lenawee County,MI,4.040404040404041,NA
49441,Muskegon County,MI,10.1010101010101,NA
49655,Osceola County,MI,NA,99.61832061068702
49781,Mackinac County,MI,NA,93.89312977099237
55082,Washington County,MN,NA,24.427480916030532
55109,Ramsey County,MN,NA,29.00763358778626
55117,Ramsey County,MN,68.18181818181817,NA
55407,Hennepin County,MN,41.41414141414141,NA
55720,Carlton County,MN,NA,41.603053435114504
55902,Olmsted County,MN,NA,83.58778625954199
56258,Lyon County,MN,65.15151515151516,NA
56649,Koochiching County,MN,NA,56.10687022900763
56701,Pennington County,MN,19.696969696969695,NA
38901,Grenada County,MS,NA,85.87786259541986
39209,Hinds County,MS,NA,46.56488549618321
39301,Lauderdale County,MS,62.121212121212125,NA
63304,St. Charles County,MO,57.57575757575758,NA
63385,St. Charles County,MO,NA,12.213740458015266
64012,Cass County,MO,NA,59.92366412213741
64079,Platte County,MO,54.54545454545454,NA
64085,Ray County,MO,NA,61.45038167938931
64129,Jackson County,MO,NA,72.51908396946564
64701,Cass County,MO,66.16161616161617,NA
65803,Greene County,MO,NA,11.068702290076336
59923,Lincoln County,MT,NA,51.526717557251914
68124,Douglas County,NE,NA,97.70992366412213
68164,Douglas County,NE,NA,95.0381679389313
68504,Lancaster County,NE,NA,88.93129770992367
89115,Clark County,NV,48.98989898989899,NA
89431,Washoe County,NV,NA,37.02290076335878
89701,Carson City,NV,NA,42.36641221374045
89703,Carson City,NV,NA,66.03053435114504
07047,Hudson County,NJ,NA,2.2900763358778624
07066,Union County,NJ,76.26262626262627,96.18320610687023
07501,Passaic County,NJ,87.87878787878788,NA
07603,Bergen County,NJ,NA,74.42748091603053
07801,Morris County,NJ,19.19191919191919,NA
07871,Sussex County,NJ,53.535353535353536,NA
08028,Gloucester County,NJ,NA,53.05343511450382
08069,Salem County,NJ,NA,45.038167938931295
08083,Camden County,NJ,NA,67.55725190839695
08332,Cumberland County,NJ,NA,16.030534351145036
08873,Somerset County,NJ,85.35353535353535,NA
10466,Bronx County,NY,4.545454545454546,NA
12202,Albany County,NY,88.88888888888889,NA
12901,Clinton County,NY,3.0303030303030303,NA
12919,Clinton County,NY,98.98989898989899,NA
13078,Onondaga County,NY,NA,72.90076335877863
13340,Herkimer County,NY,NA,65.2671755725191
13440,Oneida County,NY,NA,6.488549618320611
13662,St. Lawrence County,NY,NA,15.648854961832063
13732,Tioga County,NY,40.909090909090914,NA
13760,Broome County,NY,NA,0.7633587786259541
13856,Delaware County,NY,45.45454545454545,NA
13905,Broome County,NY,1.0101010101010102,NA
14047,Erie County,NY,NA,74.04580152671755
14127,Erie County,NY,14.646464646464647,NA
14450,Monroe County,NY,2.525252525252525,NA
14513,Wayne County,NY,NA,4.961832061068702
14559,Monroe County,NY,8.585858585858585,NA
14843,Steuben County,NY,21.71717171717172,NA
27012,Forsyth County,NC,NA,5.7251908396946565
27104,Forsyth County,NC,NA,8.396946564885496
27517,Orange County,NC,NA,26.717557251908396
27519,Wake County,NC,NA,50.76335877862596
28075,Cabarrus County,NC,82.32323232323232,NA
28333,Wayne County,NC,NA,96.56488549618321
28334,Sampson County,NC,28.78787878787879,NA
28546,Onslow County,NC,NA,47.70992366412214
28557,Carteret County,NC,NA,39.31297709923664
28613,Catawba County,NC,92.42424242424242,NA
43019,Knox County,OH,NA,90.83969465648855
43025,Licking County,OH,NA,82.44274809160305
43130,Fairfield County,OH,NA,3.816793893129771
43221,Franklin County,OH,59.59595959595959,NA
43224,Franklin County,OH,NA,13.740458015267176
43566,Lucas County,OH,NA,80.1526717557252
43607,Lucas County,OH,NA,70.22900763358778
43608,Lucas County,OH,NA,72.13740458015268
43609,Lucas County,OH,76.76767676767676,NA
43614,Lucas County,OH,7.575757575757576,NA
43615,Lucas County,OH,57.07070707070707,NA
43616,Lucas County,OH,NA,40.458015267175576
43701,Muskingum County,OH,NA,1.5267175572519083
43845,Coshocton County,OH,NA,98.09160305343512
43935,Belmont County,OH,NA,91.6030534351145
43943,Jefferson County,OH,NA,99.23664122137404
44035,Lorain County,OH,NA,0
44105,Cuyahoga County,OH,NA,19.84732824427481
44126,Cuyahoga County,OH,46.96969696969697,NA
44221,Summit County,OH,14.14141414141414,NA
44233,Medina County,OH,79.7979797979798,NA
44312,Summit County,OH,NA,36.25954198473282
44313,Summit County,OH,NA,16.412213740458014
44321,Summit County,OH,70.2020202020202,NA
44471,Mahoning County,OH,51.010101010101,NA
44703,Stark County,OH,45.95959595959596,NA
45011,Butler County,OH,NA,4.580152671755725
45356,Miami County,OH,12.626262626262626,NA
45424,Montgomery County,OH,NA,60.30534351145038
45426,Montgomery County,OH,NA,67.17557251908397
45640,Jackson County,OH,NA,31.679389312977097
45662,Scioto County,OH,NA,52.29007633587786
45690,Pike County,OH,NA,66.79389312977099
45750,Washington County,OH,NA,1.9083969465648856
45873,Paulding County,OH,99.4949494949495,NA
73013,Oklahoma County,OK,NA,91.22137404580153
73129,Oklahoma County,OK,NA,70.22900763358778
74003,Osage County,OK,NA,73.2824427480916
74074,Payne County,OK,NA,37.404580152671755
74331,Delaware County,OK,89.39393939393939,NA
74820,Pontotoc County,OK,32.82828282828283,NA
74857,Cleveland County,OK,70.70707070707071,NA
74948,Sequoyah County,OK,NA,75.57251908396947
97023,Clackamas County,OR,NA,87.02290076335878
97080,Multnomah County,OR,NA,20.229007633587788
97330,Benton County,OR,NA,60.68702290076335
97537,Jackson County,OR,NA,92.36641221374046
15206,Allegheny County,PA,NA,22.137404580152673
15214,Allegheny County,PA,49.494949494949495,NA
15317,Washington County,PA,30.303030303030305,NA
15417,Fayette County,PA,NA,82.82442748091603
15666,Westmoreland County,PA,NA,30.916030534351147
15905,Cambria County,PA,NA,33.20610687022901
16057,Butler County,PA,NA,71.37404580152672
16407,Erie County,PA,NA,86.25954198473282
16509,Erie County,PA,34.34343434343434,NA
16830,Clearfield County,PA,83.83838383838383,NA
17022,Lancaster County,PA,NA,14.50381679389313
17042,Lebanon County,PA,NA,7.633587786259542
17057,Dauphin County,PA,17.67676767676768,NA
17070,Cumberland County,PA,40.4040404040404,NA
17257,Cumberland County,PA,NA,24.80916030534351
17331,York County,PA,NA,64.12213740458014
17972,Schuylkill County,PA,NA,54.58015267175572
18031,Lehigh County,PA,69.1919191919192,NA
18301,Monroe County,PA,NA,78.62595419847328
18466,Monroe County,PA,NA,63.358778625954194
18508,Lackawanna County,PA,NA,45.41984732824427
18944,Bucks County,PA,NA,43.51145038167939
18966,Bucks County,PA,15.656565656565657,NA
19020,Bucks County,PA,6.565656565656567,NA
19031,Montgomery County,PA,84.84848484848484,NA
19050,Delaware County,PA,NA,12.595419847328243
19131,Philadelphia County,PA,NA,4.198473282442748
19138,Philadelphia County,PA,11.11111111111111,NA
19143,Philadelphia County,PA,20.707070707070706,NA
19148,Philadelphia County,PA,NA,13.358778625954198
19601,Berks County,PA,18.181818181818183,NA
19605,Berks County,PA,NA,34.35114503816794
02878,Newport County,RI,NA,51.14503816793893
29067,Lancaster County,SC,95.45454545454545,NA
29180,Fairfield County,SC,70.70707070707071,NA
29325,Laurens County,SC,NA,55.72519083969466
29330,Spartanburg County,SC,74.74747474747475,NA
29418,Charleston County,SC,NA,58.01526717557252
29527,Horry County,SC,44.44444444444444,46.94656488549619
29576,Horry County,SC,NA,73.66412213740458
29707,Lancaster County,SC,NA,76.33587786259542
37334,Lincoln County,TN,36.36363636363637,NA
37379,Hamilton County,TN,NA,29.389312977099237
37604,Washington County,TN,20.2020202020202,NA
37641,Greene County,TN,NA,57.25190839694656
37737,Blount County,TN,NA,79.77099236641222
37738,Sevier County,TN,94.44444444444444,NA
37774,Loudon County,TN,NA,24.045801526717558
37840,Roane County,TN,64.64646464646465,NA
37857,Hawkins County,TN,NA,36.6412213740458
37912,Knox County,TN,30.808080808080806,NA
37918,Knox County,TN,12.121212121212121,56.87022900763359
37921,Knox County,TN,NA,53.05343511450382
37932,Knox County,TN,74.24242424242425,NA
38242,Henry County,TN,42.42424242424242,NA
75007,Denton County,TX,41.91919191919192,NA
75043,Dallas County,TX,NA,17.938931297709924
75104,Dallas County,TX,24.747474747474747,NA
75218,Dallas County,TX,NA,58.778625954198475
75428,Hunt County,TX,82.82828282828282,NA
75501,Bowie County,TX,NA,23.66412213740458
75603,Gregg County,TX,NA,95.41984732824427
75604,Gregg County,TX,NA,57.63358778625955
75762,Smith County,TX,67.67676767676768,NA
75773,Wood County,TX,62.62626262626263,NA
76063,Tarrant County,TX,13.131313131313133,NA
76105,Tarrant County,TX,47.474747474747474,NA
76548,Bell County,TX,NA,16.793893129770993
76661,Falls County,TX,NA,81.67938931297711
77069,Harris County,TX,NA,44.274809160305345
77318,Montgomery County,TX,NA,67.93893129770993
77381,Montgomery County,TX,80.8080808080808,NA
77433,Harris County,TX,9.595959595959595,NA
77437,Wharton County,TX,NA,84.35114503816794
77449,Harris County,TX,38.88888888888889,NA
77471,Fort Bend County,TX,39.39393939393939,NA
77488,Wharton County,TX,60.60606060606061,NA
77504,Harris County,TX,59.09090909090909,NA
77708,Jefferson County,TX,NA,95.80152671755725
77833,Washington County,TX,NA,25.572519083969464
78045,Webb County,TX,NA,32.06106870229007
78102,Bee County,TX,68.68686868686868,NA
78121,Wilson County,TX,NA,86.64122137404581
78155,Guadalupe County,TX,25.757575757575758,NA
78542,Hidalgo County,TX,NA,27.480916030534353
78613,Williamson County,TX,33.83838383838384,NA
78840,Val Verde County,TX,NA,18.3206106870229
78945,Fayette County,TX,NA,78.2442748091603
79735,Pecos County,TX,90.9090909090909,NA
84102,Salt Lake County,UT,NA,84.7328244274809
84106,Salt Lake County,UT,35.858585858585855,NA
84118,Salt Lake County,UT,17.17171717171717,NA
05443,Addison County,VT,NA,70.99236641221374
05446,Chittenden County,VT,NA,40.839694656488554
05450,Franklin County,VT,NA,94.27480916030534
05753,Addison County,VT,NA,69.08396946564885
22401,Fredericksburg city,VA,43.43434343434344,NA
22630,Warren County,VA,27.77777777777778,NA
23059,Henrico County,VA,NA,63.74045801526718
23236,Chesterfield County,VA,56.060606060606055,NA
23324,Chesapeake city,VA,63.63636363636363,NA
23454,Virginia Beach city,VA,NA,41.98473282442748
23602,Newport News city,VA,69.6969696969697,NA
24121,Bedford County,VA,95.95959595959596,NA
24141,Radford city,VA,NA,98.47328244274809
24522,Appomattox County,VA,NA,80.91603053435115
98012,Snohomish County,WA,31.818181818181817,NA
98037,Snohomish County,WA,NA,58.396946564885496
98042,King County,WA,16.666666666666664,NA
98506,Thurston County,WA,NA,89.69465648854961
98550,Grays Harbor County,WA,77.77777777777779,NA
98903,Yakima County,WA,NA,52.67175572519084
20017,District of Columbia,DC,48.484848484848484,NA
20020,District of Columbia,DC,NA,31.297709923664126
25428,Berkeley County,WV,NA,87.40458015267176
25550,Mason County,WV,NA,64.50381679389314
25840,Fayette County,WV,NA,77.09923664122137
26003,Ohio County,WV,NA,18.702290076335878
26508,Monongalia County,WV,25.252525252525253,6.870229007633588
53142,Kenosha County,WI,NA,21.374045801526716
53150,Waukesha County,WI,NA,92.74809160305344
53213,Milwaukee County,WI,NA,29.770992366412212
54114,Marinette County,WI,87.37373737373737,NA
54235,Door County,WI,78.28282828282829,NA
54304,Brown County,WI,52.02020202020202,NA
54456,Clark County,WI,86.36363636363636,NA
54901,Winnebago County,WI,28.28282828282828,NA
82009,Laramie County,WY,NA,53.81679389312977
82201,Platte County,WY,NA,97.32824427480917
