ZipCode,county,state,Adult,Retirement
35020,Jefferson County,AL,43.712574850299404,NA
35801,Madison County,AL,67.06586826347305,NA
35962,DeKalb County,AL,88.62275449101796,NA
99508,Anchorage Municipality,AK,91.61676646706587,NA
85041,Maricopa County,AZ,NA,29.05027932960894
85120,Pinal County,AZ,NA,37.43016759776536
85635,Cochise County,AZ,19.760479041916167,NA
86045,Coconino County,AZ,20.359281437125748,NA
86325,Yavapai County,AZ,NA,96.64804469273743
72472,Poinsett County,AR,85.62874251497006,NA
72653,Baxter County,AR,NA,21.22905027932961
90035,Los Angeles County,CA,NA,40.22346368715084
90222,Los Angeles County,CA,64.07185628742515,NA
90255,Los Angeles County,CA,58.08383233532935,NA
91016,Los Angeles County,CA,NA,56.98324022346368
92021,San Diego County,CA,12.574850299401197,NA
92029,San Diego County,CA,88.02395209580838,NA
92123,San Diego County,CA,NA,45.81005586592179
92234,Riverside County,CA,NA,2.793296089385475
92240,Riverside County,CA,15.568862275449103,NA
92252,San Bernardino County,CA,74.25149700598801,NA
92508,Riverside County,CA,NA,72.62569832402235
92532,Riverside County,CA,66.46706586826348,NA
92703,Orange County,CA,40.119760479041915,NA
92708,Orange County,CA,35.32934131736527,NA
92883,Riverside County,CA,NA,85.47486033519553
93033,Ventura County,CA,NA,10.05586592178771
93277,Tulare County,CA,20.958083832335326,NA
93722,Fresno County,CA,8.982035928143713,NA
93927,Monterey County,CA,NA,84.35754189944134
94102,San Francisco County,CA,NA,56.424581005586596
94534,Solano County,CA,59.88023952095808,NA
94551,Alameda County,CA,NA,55.3072625698324
95122,Santa Clara County,CA,NA,95.53072625698324
95204,San Joaquin County,CA,NA,67.0391061452514
95687,Solano County,CA,NA,23.463687150837988
80229,Adams County,CO,NA,73.18435754189943
80401,Jefferson County,CO,36.52694610778443,NA
80601,Adams County,CO,32.93413173652694,NA
81005,Pueblo County,CO,37.12574850299401,NA
06051,Hartford County,CT,4.191616766467066,NA
32034,Nassau County,FL,48.50299401197605,NA
32043,Clay County,FL,44.91017964071856,NA
32114,Volusia County,FL,NA,44.134078212290504
32148,Putnam County,FL,NA,69.83240223463687
32259,St. Johns County,FL,44.31137724550898,NA
32653,Alachua County,FL,NA,83.79888268156425
32712,Orange County,FL,NA,34.07821229050279
32726,Lake County,FL,NA,51.39664804469274
32808,Orange County,FL,NA,29.608938547486037
32835,Orange County,FL,NA,54.7486033519553
32904,Brevard County,FL,79.64071856287424,NA
32955,Brevard County,FL,NA,26.81564245810056
33021,Broward County,FL,79.04191616766467,NA
33143,Miami-Dade County,FL,83.8323353293413,NA
33167,Miami-Dade County,FL,NA,69.27374301675978
33311,Broward County,FL,NA,21.787709497206702
33755,Pinellas County,FL,NA,63.128491620111724
33801,Polk County,FL,NA,92.17877094972067
33810,Polk County,FL,NA,36.312849162011176
33922,Lee County,FL,94.01197604790418,NA
34481,Marion County,FL,71.8562874251497,NA
34602,Hernando County,FL,NA,98.88268156424581
34690,Pasco County,FL,NA,76.53631284916202
34698,Pinellas County,FL,NA,25.139664804469277
34957,Martin County,FL,NA,35.754189944134076
30012,Rockdale County,GA,NA,96.08938547486034
30071,Gwinnett County,GA,NA,87.70949720670392
30087,DeKalb County,GA,NA,22.905027932960895
30135,Douglas County,GA,NA,13.966480446927374
30144,Cobb County,GA,NA,52.513966480446925
30217,Heard County,GA,65.26946107784431,NA
30310,Fulton County,GA,17.365269461077844,NA
30457,Treutlen County,GA,NA,93.85474860335195
30504,Hall County,GA,NA,73.74301675977654
30680,Barrow County,GA,NA,25.69832402234637
30815,Richmond County,GA,52.69461077844312,NA
30909,Richmond County,GA,23.952095808383234,16.75977653631285
31087,Hancock County,GA,87.42514970059881,NA
31750,Ben Hill County,GA,NA,79.3296089385475
96727,Hawaii County,HI,NA,92.73743016759776
96740,Hawaii County,HI,NA,60.33519553072626
96744,Honolulu County,HI,NA,67.59776536312849
96792,Honolulu County,HI,NA,27.37430167597765
60090,Cook County,IL,NA,31.28491620111732
60160,Cook County,IL,50.29940119760479,NA
60463,Cook County,IL,NA,48.04469273743017
60471,Cook County,IL,69.46107784431138,NA
60506,Kane County,IL,22.75449101796407,NA
60628,Cook County,IL,NA,5.58659217877095
60636,Cook County,IL,NA,62.56983240223464
60638,Cook County,IL,NA,39.10614525139665
60645,Cook County,IL,35.92814371257485,NA
60651,Cook County,IL,NA,8.938547486033519
60657,Cook County,IL,NA,13.40782122905028
61019,Stephenson County,IL,NA,89.94413407821229
61764,Livingston County,IL,68.26347305389223,NA
61801,Champaign County,IL,NA,50.27932960893855
61938,Coles County,IL,NA,41.899441340782126
62526,Macon County,IL,NA,8.379888268156424
46017,Madison County,IN,78.44311377245509,NA
46816,Allen County,IN,30.538922155688624,NA
47150,Floyd County,IN,9.580838323353294,NA
47240,Decatur County,IN,NA,24.022346368715084
47303,Delaware County,IN,NA,54.18994413407822
50321,Polk County,IA,NA,93.29608938547486
52404,Linn County,IA,32.33532934131736,NA
66046,Douglas County,KS,NA,94.97206703910615
40004,Nelson County,KY,14.37125748502994,NA
40361,Bourbon County,KY,NA,57.54189944134078
40823,Harlan County,KY,80.83832335329342,NA
41056,Mason County,KY,42.51497005988024,NA
42127,Barren County,KY,92.21556886227546,NA
70005,Jefferson Parish,LA,61.67664670658682,NA
70380,St. Mary Parish,LA,16.16766467065868,NA
70444,Tangipahoa Parish,LA,47.30538922155689,NA
70508,Lafayette Parish,LA,NA,20.670391061452513
70512,St. Landry Parish,LA,NA,72.06703910614524
71109,Caddo Parish,LA,7.784431137724551,NA
04619,Washington County,ME,97.0059880239521,NA
04901,Kennebec County,ME,91.01796407185628,NA
21014,Harford County,MD,NA,65.92178770949721
21133,Baltimore County,MD,54.49101796407185,NA
21225,Baltimore city,MD,64.67065868263472,NA
21237,Baltimore County,MD,NA,97.20670391061452
21244,Baltimore County,MD,NA,39.66480446927375
21784,Carroll County,MD,NA,58.10055865921788
01432,Middlesex County,MA,47.90419161676647,NA
01602,Worcester County,MA,70.05988023952095,NA
01752,Middlesex County,MA,2.9940119760479043,NA
01824,Middlesex County,MA,NA,82.68156424581005
01830,Essex County,MA,38.32335329341318,NA
01944,Essex County,MA,96.40718562874252,NA
02045,Plymouth County,MA,NA,81.56424581005587
02176,Middlesex County,MA,NA,7.82122905027933
02721,Bristol County,MA,72.45508982035929,NA
02724,Bristol County,MA,3.592814371257485,NA
48044,Macomb County,MI,NA,7.262569832402235
48072,Oakland County,MI,49.101796407185624,NA
48192,Wayne County,MI,13.77245508982036,NA
48204,Wayne County,MI,NA,64.24581005586593
48209,Wayne County,MI,17.964071856287426,NA
48227,Wayne County,MI,2.3952095808383236,37.988826815642454
48238,Wayne County,MI,4.790419161676647,NA
48313,Macomb County,MI,NA,74.30167597765363
48316,Macomb County,MI,40.718562874251496,NA
48601,Saginaw County,MI,1.7964071856287425,NA
48875,Ionia County,MI,NA,71.50837988826815
49048,Kalamazoo County,MI,NA,64.80446927374301
49442,Muskegon County,MI,NA,6.145251396648044
55040,Isanti County,MN,NA,68.71508379888269
55082,Washington County,MN,34.13173652694611,NA
55118,Dakota County,MN,NA,91.62011173184358
55126,Ramsey County,MN,56.886227544910184,NA
55337,Dakota County,MN,61.07784431137725,NA
55912,Mower County,MN,NA,46.927374301675975
56567,Otter Tail County,MN,97.60479041916167,NA
39350,Neshoba County,MS,23.952095808383234,NA
39652,Pike County,MS,71.25748502994011,NA
39735,Choctaw County,MS,95.20958083832335,NA
63106,St. Louis city,MO,NA,90.5027932960894
63108,St. Louis city,MO,82.03592814371258,NA
64030,Jackson County,MO,13.17365269461078,NA
64085,Ray County,MO,80.23952095808383,NA
65583,Pulaski County,MO,NA,86.59217877094973
59602,Lewis and Clark County,MT,NA,32.402234636871505
59870,Ravalli County,MT,NA,78.77094972067039
89113,Clark County,NV,76.64670658682635,NA
89429,Lyon County,NV,85.02994011976048,NA
89434,Washoe County,NV,73.05389221556887,NA
03079,Rockingham County,NH,NA,70.39106145251397
03570,Coos County,NH,68.8622754491018,NA
07024,Bergen County,NJ,32.93413173652694,NA
07034,Morris County,NJ,76.04790419161677,NA
07105,Essex County,NJ,10.778443113772456,NA
07107,Essex County,NJ,NA,6.70391061452514
07111,Essex County,NJ,0.5988023952095809,NA
07901,Union County,NJ,75.44910179640718,NA
08004,Camden County,NJ,84.4311377245509,NA
08046,Burlington County,NJ,7.18562874251497,NA
08077,Burlington County,NJ,NA,62.01117318435754
08360,Cumberland County,NJ,0,NA
08723,Ocean County,NJ,NA,24.581005586592177
08724,Ocean County,NJ,NA,15.64245810055866
88005,Doa Ana County,NM,NA,42.45810055865922
88260,Lea County,NM,NA,43.01675977653631
10012,New York County,NY,NA,83.24022346368714
10025,New York County,NY,NA,0.5586592178770949
10456,Bronx County,NY,NA,3.910614525139665
10460,Bronx County,NY,1.1976047904191618,NA
11105,Queens County,NY,NA,80.44692737430168
11226,Kings County,NY,NA,3.35195530726257
11239,Kings County,NY,NA,89.3854748603352
11367,Queens County,NY,77.84431137724552,NA
11368,Queens County,NY,NA,17.877094972067038
11754,Suffolk County,NY,NA,81.56424581005587
12065,Saratoga County,NY,NA,18.435754189944134
12309,Schenectady County,NY,NA,60.893854748603346
12601,Dutchess County,NY,28.143712574850298,NA
13078,Onondaga County,NY,53.89221556886228,NA
13159,Onondaga County,NY,NA,94.41340782122904
14063,Chautauqua County,NY,NA,49.72067039106145
14224,Erie County,NY,5.389221556886228,NA
14304,Niagara County,NY,NA,4.4692737430167595
14437,Livingston County,NY,NA,44.6927374301676
14470,Orleans County,NY,77.24550898203593,NA
14743,Cattaraugus County,NY,NA,99.4413407821229
14892,Tioga County,NY,81.437125748502993,NA
14905,Chemung County,NY,93.41317365269461,NA
27030,Surry County,NC,NA,2.2346368715083798
27104,Forsyth County,NC,29.34131736526946,NA
27262,Guilford County,NC,41.31736526946108,NA
27284,Forsyth County,NC,NA,1.675977653631285
27288,Rockingham County,NC,NA,26.256983240223462
27298,Randolph County,NC,86.82634730538922,66.4804469273743
27320,Rockingham County,NC,NA,9.497206703910614
27325,Moore County,NC,95.80838323353294,NA
27565,Granville County,NC,NA,18.994413407821227
27886,Edgecombe County,NC,NA,45.2513966480447
28001,Stanly County,NC,NA,43.575418994413404
28083,Cabarrus County,NC,29.94011976047904,NA
28092,Lincoln County,NC,NA,12.849162011173185
28128,Stanly County,NC,92.81437125748504,NA
28412,New Hanover County,NC,NA,30.16759776536313
28645,Caldwell County,NC,NA,0
28655,Burke County,NC,5.9880239520958085,NA
28721,Haywood County,NC,74.8502994011976,NA
43023,Licking County,OH,NA,77.6536312849162
43040,Union County,OH,NA,20.11173184357542
43056,Licking County,OH,37.72455089820359,NA
43449,Ottawa County,OH,65.86826347305389,NA
43938,Jefferson County,OH,NA,68.15642458100558
43952,Jefferson County,OH,NA,10.614525139664805
44094,Lake County,OH,NA,5.027932960893855
44118,Cuyahoga County,OH,39.52095808383233,NA
44136,Cuyahoga County,OH,25.748502994011975,NA
44406,Mahoning County,OH,NA,30.726256983240223
44857,Huron County,OH,16.766467065868262,NA
45255,Hamilton County,OH,NA,75.41899441340783
45385,Greene County,OH,55.08982035928144,NA
45458,Montgomery County,OH,NA,12.290502793296088
45601,Ross County,OH,6.58682634730539,NA
45660,Adams County,OH,99.40119760479041,NA
74354,Ottawa County,OK,50.898203592814376,NA
74960,Adair County,OK,23.353293413173652,NA
97230,Multnomah County,OR,NA,14.52513966480447
97236,Multnomah County,OR,49.700598802395206,NA
97301,Marion County,OR,11.377245508982035,NA
97305,Marion County,OR,22.15568862275449,NA
97470,Douglas County,OR,31.137724550898206,NA
97477,Lane County,OR,18.562874251497004,NA
97801,Umatilla County,OR,34.73053892215569,NA
15044,Allegheny County,PA,NA,55.865921787709496
15065,Allegheny County,PA,60.47904191616767,NA
15101,Allegheny County,PA,NA,53.072625698324025
15224,Allegheny County,PA,NA,74.86033519553072
15851,Jefferson County,PA,NA,91.06145251396647
16101,Lawrence County,PA,NA,34.63687150837989
16121,Mercer County,PA,67.66467065868264,NA
16428,Erie County,PA,86.22754491017965,NA
16648,Blair County,PA,NA,36.87150837988827
17044,Mifflin County,PA,70.65868263473054,NA
17109,Dauphin County,PA,21.55688622754491,NA
17372,Adams County,PA,94.61077844311377,NA
18015,Northampton County,PA,8.383233532934131,NA
18651,Luzerne County,PA,NA,81.00558659217877
19014,Delaware County,PA,NA,70.94972067039106
19047,Bucks County,PA,19.16167664670659,NA
19139,Philadelphia County,PA,51.49700598802395,NA
19145,Philadelphia County,PA,NA,11.731843575418994
19342,Delaware County,PA,NA,48.04469273743017
19426,Montgomery County,PA,NA,63.687150837988824
19604,Berks County,PA,10.179640718562874,NA
29067,Lancaster County,SC,NA,84.91620111731844
29160,Lexington County,SC,NA,88.26815642458101
29203,Richland County,SC,NA,22.3463687150838
29464,Charleston County,SC,43.11377245508982,NA
29488,Colleton County,SC,62.27544910179641,NA
29569,Horry County,SC,46.10778443113773,NA
29662,Greenville County,SC,58.68263473053892,NA
37148,Sumner County,TN,NA,86.03351955307262
37321,Rhea County,TN,NA,40.78212290502793
37323,Bradley County,TN,NA,78.2122905027933
37766,Campbell County,TN,NA,28.49162011173184
37821,Cocke County,TN,45.50898203592814,NA
38053,Shelby County,TN,NA,53.63128491620112
75038,Dallas County,TX,56.287425149700596,NA
75090,Grayson County,TX,46.706586826347305,NA
75160,Kaufman County,TX,NA,79.88826815642457
75229,Dallas County,TX,NA,47.486033519553075
75234,Dallas County,TX,62.874251497005986,NA
75474,Hunt County,TX,57.48502994011976,NA
75684,Rusk County,TX,NA,97.76536312849163
75706,Smith County,TX,55.688622754491014,NA
76048,Hood County,TX,NA,32.960893854748605
76182,Tarrant County,TX,NA,34.63687150837989
76643,McLennan County,TX,NA,59.77653631284916
77061,Harris County,TX,NA,77.09497206703911
77378,Montgomery County,TX,83.23353293413174,NA
77469,Fort Bend County,TX,27.54491017964072,NA
77479,Fort Bend County,TX,NA,19.553072625698324
77536,Harris County,TX,38.92215568862276,NA
77571,Harris County,TX,NA,49.162011173184354
78015,Bexar County,TX,NA,98.32402234636871
78114,Wilson County,TX,53.293413173652695,NA
78209,Bexar County,TX,NA,59.217877094972074
79836,El Paso County,TX,NA,100
84015,Davis County,UT,14.97005988023952,NA
84032,Wasatch County,UT,89.22155688622755,NA
84044,Salt Lake County,UT,NA,65.36312849162012
84047,Salt Lake County,UT,25.149700598802394,NA
84092,Salt Lake County,UT,NA,46.36871508379888
84093,Salt Lake County,UT,NA,51.955307262569825
84121,Salt Lake County,UT,NA,17.318435754189945
20148,Loudoun County,VA,NA,87.15083798882681
23111,Hanover County,VA,NA,16.201117318435752
23168,James City County,VA,98.80239520958084,NA
23185,James City County,VA,NA,27.932960893854748
23323,Chesapeake city,VA,NA,33.5195530726257
24012,Roanoke city,VA,28.74251497005988,NA
24121,Bedford County,VA,NA,58.659217877094974
98029,King County,WA,NA,61.452513966480446
98055,King County,WA,73.05389221556887,NA
98104,King County,WA,NA,41.340782122905026
98204,Snohomish County,WA,NA,50.83798882681564
98208,Snohomish County,WA,52.09580838323353,NA
98264,Whatcom County,WA,NA,88.8268156424581
98290,Snohomish County,WA,41.91616766467065,NA
98629,Clark County,WA,98.20359281437125,NA
98902,Yakima County,WA,26.34730538922156,NA
99223,Spokane County,WA,63.47305389221557,NA
25045,Kanawha County,WV,90.41916167664671,NA
25840,Fayette County,WV,NA,75.97765363128491
26301,Harrison County,WV,NA,11.1731843575419
26554,Marion County,WV,NA,1.1173184357541899
53029,Waukesha County,WI,58.68263473053892,NA
53189,Waukesha County,WI,NA,31.843575418994412
53204,Milwaukee County,WI,26.94610778443114,NA
53212,Milwaukee County,WI,11.976047904191617,15.083798882681565
53703,Dane County,WI,82.63473053892216,NA
53949,Marquette County,WI,100,NA
54017,St. Croix County,WI,NA,38.547486033519554
54494,Wood County,WI,31.736526946107784,NA
54669,La Crosse County,WI,89.82035928143712,NA
