ZipCode,county,state,Youth
35016,Marshall County,AL,62.11538461538461
35040,Shelby County,AL,45.57692307692307
35131,St. Clair County,AL,93.84615384615384
35211,Jefferson County,AL,48.07692307692308
35235,Jefferson County,AL,72.3076923076923
35244,Jefferson County,AL,58.46153846153847
35581,Franklin County,AL,99.8076923076923
35739,Limestone County,AL,86.92307692307692
35803,Madison County,AL,64.03846153846153
35950,Marshall County,AL,66.73076923076923
35954,Etowah County,AL,60
35967,DeKalb County,AL,52.88461538461539
36092,Elmore County,AL,56.15384615384615
36340,Geneva County,AL,88.26923076923077
36532,Baldwin County,AL,38.07692307692307
36551,Baldwin County,AL,94.23076923076923
99508,Anchorage Municipality,AK,16.153846153846153
85031,Maricopa County,AZ,86.34615384615385
85138,Pinal County,AZ,23.653846153846153
85142,Maricopa County,AZ,9.807692307692308
85308,Maricopa County,AZ,20.961538461538463
85374,Maricopa County,AZ,39.03846153846154
85629,Pima County,AZ,78.84615384615384
85715,Pima County,AZ,68.84615384615384
72019,Saline County,AR,71.15384615384616
72032,Faulkner County,AR,53.26923076923077
72227,Pulaski County,AR,89.61538461538461
72315,Mississippi County,AR,50.76923076923077
72437,Craighead County,AR,99.42307692307692
72501,Independence County,AR,41.92307692307693
72718,Benton County,AR,97.88461538461539
90008,Los Angeles County,CA,94.8076923076923
90266,Los Angeles County,CA,49.23076923076923
90280,Los Angeles County,CA,25.384615384615383
90620,Orange County,CA,17.884615384615383
91101,Los Angeles County,CA,72.11538461538461
91761,San Bernardino County,CA,43.84615384615385
92307,San Bernardino County,CA,33.26923076923077
92627,Orange County,CA,44.03846153846154
92673,Orange County,CA,44.80769230769231
92780,Orange County,CA,50.38461538461539
93033,Ventura County,CA,2.8846153846153846
93219,Tulare County,CA,85.1923076923077
93241,Kern County,CA,93.65384615384616
93268,Kern County,CA,88.26923076923077
93446,San Luis Obispo County,CA,44.42307692307692
93657,Fresno County,CA,29.03846153846154
93722,Fresno County,CA,3.8461538461538463
94403,San Mateo County,CA,49.23076923076923
94521,Contra Costa County,CA,41.53846153846154
94526,Contra Costa County,CA,80
94588,Alameda County,CA,62.5
94804,Contra Costa County,CA,69.03846153846153
95076,Santa Cruz County,CA,53.07692307692308
95111,Santa Clara County,CA,54.61538461538461
95348,Merced County,CA,19.038461538461537
80015,Arapahoe County,CO,6.153846153846154
80026,Boulder County,CO,26.73076923076923
80116,Douglas County,CO,95.1923076923077
80126,Douglas County,CO,20
80127,Jefferson County,CO,46.73076923076923
80130,Douglas County,CO,56.92307692307692
80134,Douglas County,CO,62.88461538461539
80224,Denver County,CO,75.1923076923077
06019,Hartford County,CT,81.15384615384616
06811,Fairfield County,CT,67.6923076923077
32034,Nassau County,FL,75.76923076923077
32205,Duval County,FL,68.07692307692308
32207,Duval County,FL,34.80769230769231
32565,Santa Rosa County,FL,76.15384615384615
32566,Santa Rosa County,FL,43.65384615384615
32583,Santa Rosa County,FL,21.923076923076923
32605,Alachua County,FL,36.34615384615385
32608,Alachua County,FL,5.1923076923076925
32643,Alachua County,FL,55.96153846153846
32736,Lake County,FL,81.15384615384616
32940,Brevard County,FL,32.30769230769231
33015,Miami-Dade County,FL,27.692307692307693
33056,Miami-Dade County,FL,23.076923076923077
33125,Miami-Dade County,FL,24.615384615384617
33301,Broward County,FL,99.61538461538461
33449,Palm Beach County,FL,98.84615384615385
33573,Hillsborough County,FL,92.3076923076923
33615,Hillsborough County,FL,55.19230769230769
33759,Pinellas County,FL,86.53846153846155
33803,Polk County,FL,66.53846153846153
33830,Polk County,FL,27.500000000000004
33936,Lee County,FL,58.269230769230774
34442,Citrus County,FL,73.65384615384616
34446,Citrus County,FL,91.92307692307692
34601,Hernando County,FL,67.88461538461539
34711,Lake County,FL,38.07692307692307
34769,Osceola County,FL,57.30769230769231
34983,St. Lucie County,FL,21.53846153846154
30067,Cobb County,GA,57.30769230769231
30127,Cobb County,GA,15.384615384615385
30144,Cobb County,GA,44.61538461538462
30165,Floyd County,GA,30.961538461538463
30286,Upson County,GA,69.61538461538461
30296,Clayton County,GA,30.961538461538463
30315,Fulton County,GA,48.65384615384615
30519,Gwinnett County,GA,75.38461538461539
30557,Stephens County,GA,96.92307692307692
30567,Jackson County,GA,97.5
30606,Clarke County,GA,45.96153846153846
30673,Wilkes County,GA,90.1923076923077
30809,Columbia County,GA,59.80769230769231
31005,Houston County,GA,83.46153846153847
31021,Laurens County,GA,47.69230769230769
31032,Jones County,GA,87.5
31082,Washington County,GA,57.88461538461539
31220,Bibb County,GA,71.73076923076923
31320,Liberty County,GA,92.6923076923077
31533,Coffee County,GA,77.11538461538461
96707,Honolulu County,HI,24.807692307692307
83201,Bannock County,ID,14.807692307692308
83236,Bingham County,ID,99.03846153846155
83651,Canyon County,ID,25.961538461538463
60108,DuPage County,IL,68.26923076923077
60148,DuPage County,IL,16.538461538461537
60181,DuPage County,IL,54.42307692307692
60451,Will County,IL,13.846153846153847
60463,Cook County,IL,85.38461538461539
60467,Cook County,IL,31.92307692307692
60487,Cook County,IL,52.5
60517,DuPage County,IL,58.84615384615385
60521,DuPage County,IL,45.19230769230769
60544,Will County,IL,76.92307692307693
60554,Kane County,IL,81.92307692307692
60561,DuPage County,IL,83.84615384615385
60607,Cook County,IL,80.38461538461539
60609,Cook County,IL,56.53846153846154
60640,Cook County,IL,37.5
60649,Cook County,IL,36.53846153846153
60657,Cook County,IL,43.07692307692308
60914,Kankakee County,IL,37.11538461538461
61530,Woodford County,IL,76.53846153846153
62040,Madison County,IL,43.269230769230774
62230,Clinton County,IL,88.07692307692308
46038,Hamilton County,IN,59.42307692307692
46062,Hamilton County,IN,43.269230769230774
46168,Hendricks County,IN,53.65384615384615
46239,Marion County,IN,41.15384615384615
46307,Lake County,IN,1.3461538461538463
46737,Steuben County,IN,93.07692307692308
47143,Clark County,IN,95.57692307692308
47172,Clark County,IN,73.07692307692307
47274,Jackson County,IN,27.692307692307693
47805,Vigo County,IN,42.69230769230769
47872,Parke County,IN,78.07692307692308
50036,Boone County,IA,51.34615384615384
50131,Polk County,IA,66.15384615384615
50317,Polk County,IA,25.961538461538463
51106,Woodbury County,IA,46.34615384615385
51503,Pottawattamie County,IA,4.615384615384616
51546,Harrison County,IA,89.23076923076924
51601,Page County,IA,75
52001,Dubuque County,IA,15.769230769230768
52253,Linn County,IA,98.26923076923076
52761,Muscatine County,IA,23.846153846153847
66102,Wyandotte County,KS,82.3076923076923
67002,Butler County,KS,88.65384615384615
67114,Harvey County,KS,50
67220,Sedgwick County,KS,93.26923076923077
67665,Russell County,KS,75.57692307692308
40071,Spencer County,KY,70.76923076923077
40212,Jefferson County,KY,22.30769230769231
40383,Woodford County,KY,85.76923076923076
40444,Garrard County,KY,69.42307692307692
40504,Fayette County,KY,35.38461538461539
40514,Fayette County,KY,91.15384615384615
40759,Whitley County,KY,95.57692307692308
42553,Pulaski County,KY,86.92307692307692
70062,Jefferson Parish,LA,19.807692307692307
70127,Orleans Parish,LA,76.34615384615384
70301,Lafourche Parish,LA,1.5384615384615385
70403,Tangipahoa Parish,LA,81.73076923076923
70438,Washington Parish,LA,4.423076923076923
70560,Iberia Parish,LA,3.076923076923077
70563,Iberia Parish,LA,42.88461538461538
70578,Acadia Parish,LA,23.46153846153846
70584,St. Landry Parish,LA,62.5
70586,Evangeline Parish,LA,15.96153846153846
70607,Calcasieu Parish,LA,90.76923076923077
70719,West Baton Rouge Parish,LA,93.46153846153847
70726,Livingston Parish,LA,0.7692307692307693
70767,West Baton Rouge Parish,LA,63.46153846153846
70810,East Baton Rouge Parish,LA,32.5
71019,Red River Parish,LA,40.19230769230769
71106,Caddo Parish,LA,68.65384615384616
71251,Jackson Parish,LA,69.23076923076923
71373,Concordia Parish,LA,72.3076923076923
04005,York County,ME,17.692307692307693
04011,Cumberland County,ME,54.230769230769226
20695,Charles County,MD,84.61538461538461
21146,Anne Arundel County,MD,70.1923076923077
21209,Baltimore County,MD,65.96153846153847
01880,Middlesex County,MA,63.07692307692307
02021,Norfolk County,MA,13.26923076923077
02127,Suffolk County,MA,17.115384615384617
02149,Middlesex County,MA,8.846153846153847
02152,Suffolk County,MA,53.46153846153846
02420,Middlesex County,MA,40.96153846153846
02453,Middlesex County,MA,28.46153846153846
02767,Bristol County,MA,55.00000000000001
48101,Wayne County,MI,14.615384615384617
48126,Wayne County,MI,8.461538461538462
48168,Wayne County,MI,30.57692307692308
48188,Wayne County,MI,5.769230769230769
48236,Wayne County,MI,36.15384615384615
48323,Oakland County,MI,64.42307692307693
48335,Oakland County,MI,68.26923076923077
48430,Genesee County,MI,36.92307692307693
49036,Branch County,MI,29.230769230769234
49286,Lenawee County,MI,38.07692307692307
49849,Marquette County,MI,79.03846153846153
55014,Anoka County,MN,77.5
55016,Washington County,MN,10.961538461538462
55044,Dakota County,MN,25
55117,Ramsey County,MN,49.80769230769231
55123,Dakota County,MN,24.03846153846154
55303,Anoka County,MN,10.384615384615385
55330,Sherburne County,MN,14.807692307692308
55374,Hennepin County,MN,78.07692307692308
55407,Hennepin County,MN,5.384615384615385
55412,Hennepin County,MN,23.26923076923077
55434,Anoka County,MN,78.46153846153847
55446,Hennepin County,MN,40.19230769230769
56001,Blue Earth County,MN,13.076923076923078
56431,Aitkin County,MN,73.07692307692307
56529,Clay County,MN,87.88461538461539
56537,Otter Tail County,MN,18.461538461538463
38801,Lee County,MS,40
38834,Alcorn County,MS,32.69230769230769
39180,Warren County,MS,67.5
39301,Lauderdale County,MS,30.19230769230769
39669,Wilkinson County,MS,91.73076923076923
63025,St. Louis County,MO,77.11538461538461
63070,Jefferson County,MO,92.3076923076923
63115,St. Louis city,MO,33.46153846153846
63362,Lincoln County,MO,80
63456,Monroe County,MO,92.11538461538461
64037,Lafayette County,MO,60.96153846153847
64129,Jackson County,MO,61.92307692307693
64130,Jackson County,MO,11.346153846153847
64424,Harrison County,MO,56.53846153846154
64870,Jasper County,MO,45.19230769230769
65536,Laclede County,MO,32.69230769230769
65605,Lawrence County,MO,74.61538461538461
68007,Douglas County,NE,79.42307692307692
68601,Platte County,NE,64.8076923076923
03038,Rockingham County,NH,19.230769230769234
03087,Rockingham County,NH,27.307692307692307
03104,Hillsborough County,NH,46.92307692307692
03867,Strafford County,NH,27.115384615384613
07417,Bergen County,NJ,80.57692307692308
07728,Monmouth County,NJ,8.653846153846153
08005,Ocean County,NJ,32.69230769230769
08080,Gloucester County,NJ,6.730769230769231
08204,Cape May County,NJ,63.26923076923077
08731,Ocean County,NJ,45.76923076923077
08840,Middlesex County,NJ,85.57692307692307
87112,Bernalillo County,NM,17.115384615384617
88011,Doa Ana County,NM,35.19230769230769
88203,Chaves County,NM,18.461538461538463
10453,Bronx County,NY,0.19230769230769232
10950,Orange County,NY,60.57692307692307
10952,Rockland County,NY,56.15384615384615
11050,Nassau County,NY,83.46153846153847
11368,Queens County,NY,1.153846153846154
11385,Queens County,NY,9.038461538461538
11414,Queens County,NY,81.92307692307692
12047,Albany County,NY,44.230769230769226
12866,Saratoga County,NY,25.769230769230766
12910,Clinton County,NY,98.65384615384616
13030,Madison County,NY,98.46153846153847
13212,Onondaga County,NY,64.23076923076924
13661,Jefferson County,NY,99.23076923076923
13905,Broome County,NY,3.4615384615384617
14051,Erie County,NY,62.11538461538461
14202,Erie County,NY,95.96153846153847
14215,Erie County,NY,32.11538461538462
14304,Niagara County,NY,19.230769230769234
14305,Niagara County,NY,22.5
14450,Monroe County,NY,0.9615384615384616
14522,Wayne County,NY,50
14580,Monroe County,NY,6.538461538461539
14589,Wayne County,NY,50.57692307692307
14606,Monroe County,NY,7.307692307692308
14715,Allegany County,NY,84.23076923076923
14886,Tompkins County,NY,63.84615384615384
27104,Forsyth County,NC,41.73076923076923
27205,Randolph County,NC,51.34615384615384
27295,Davidson County,NC,29.230769230769234
27320,Rockingham County,NC,16.153846153846153
27406,Guilford County,NC,7.5
27530,Wayne County,NC,26.53846153846154
27574,Person County,NC,33.46153846153846
27612,Wake County,NC,70.57692307692308
27713,Durham County,NC,18.846153846153847
28001,Stanly County,NC,82.88461538461539
28037,Lincoln County,NC,72.6923076923077
28105,Mecklenburg County,NC,48.65384615384615
28107,Cabarrus County,NC,95.38461538461539
28110,Union County,NC,25.961538461538463
28216,Mecklenburg County,NC,9.615384615384617
28314,Cumberland County,NC,4.807692307692308
28715,Buncombe County,NC,52.11538461538462
58103,Cass County,ND,1.9230769230769231
43040,Union County,OH,39.42307692307692
43123,Franklin County,OH,0.576923076923077
43130,Fairfield County,OH,2.307692307692308
43204,Franklin County,OH,10.76923076923077
43211,Franklin County,OH,4.038461538461538
43227,Franklin County,OH,2.1153846153846154
43232,Franklin County,OH,0
43235,Franklin County,OH,6.346153846153846
43558,Fulton County,OH,40.57692307692308
43611,Lucas County,OH,31.346153846153847
43943,Jefferson County,OH,89.03846153846153
44011,Lorain County,OH,7.6923076923076925
44113,Cuyahoga County,OH,30.76923076923077
44120,Cuyahoga County,OH,11.153846153846155
44125,Cuyahoga County,OH,15.192307692307692
44135,Cuyahoga County,OH,3.2692307692307696
44144,Cuyahoga County,OH,16.73076923076923
44260,Portage County,OH,59.03846153846154
44270,Wayne County,OH,42.11538461538461
44408,Columbiana County,OH,84.8076923076923
44431,Columbiana County,OH,86.92307692307692
44601,Stark County,OH,5.961538461538462
44646,Stark County,OH,12.5
44676,Wayne County,OH,94.03846153846153
44691,Wayne County,OH,20
44708,Stark County,OH,35.38461538461539
44857,Huron County,OH,16.923076923076923
44906,Richland County,OH,11.538461538461538
45011,Butler County,OH,0.38461538461538464
45042,Butler County,OH,11.73076923076923
45140,Clermont County,OH,9.230769230769232
45215,Hamilton County,OH,18.076923076923077
45244,Hamilton County,OH,47.5
45251,Hamilton County,OH,21.153846153846153
45385,Greene County,OH,7.115384615384615
45403,Montgomery County,OH,22.884615384615383
45405,Montgomery County,OH,17.5
45429,Montgomery County,OH,29.615384615384617
45638,Lawrence County,OH,41.34615384615385
45696,Lawrence County,OH,97.5
73055,Stephens County,OK,69.8076923076923
73096,Custer County,OK,76.73076923076924
73401,Carter County,OK,26.923076923076923
73644,Beckham County,OK,71.15384615384616
74006,Washington County,OK,39.42307692307692
74011,Tulsa County,OK,48.26923076923077
74023,Payne County,OK,79.8076923076923
74105,Tulsa County,OK,66.92307692307692
74128,Tulsa County,OK,67.3076923076923
74426,McIntosh County,OK,89.23076923076924
74501,Pittsburg County,OK,35.96153846153846
74601,Kay County,OK,52.5
74701,Bryan County,OK,31.538461538461537
74728,McCurtain County,OK,51.73076923076923
74959,Le Flore County,OK,83.26923076923077
97818,Morrow County,OR,70.76923076923077
97850,Union County,OR,38.84615384615385
15009,Beaver County,PA,74.61538461538461
15010,Beaver County,PA,34.61538461538461
15218,Allegheny County,PA,65.57692307692308
15301,Washington County,PA,7.884615384615384
15401,Fayette County,PA,12.692307692307692
15801,Clearfield County,PA,28.846153846153843
16507,Erie County,PA,86.53846153846155
17011,Cumberland County,PA,28.653846153846153
17022,Lancaster County,PA,10.192307692307692
17032,Dauphin County,PA,83.07692307692308
17036,Dauphin County,PA,4.230769230769231
17314,York County,PA,95
17331,York County,PA,5.5769230769230775
17754,Lycoming County,PA,77.6923076923077
17921,Schuylkill County,PA,80.96153846153847
18222,Luzerne County,PA,79.23076923076923
18505,Lackawanna County,PA,25.576923076923073
18974,Bucks County,PA,71.73076923076923
19004,Montgomery County,PA,74.23076923076923
19006,Montgomery County,PA,48.26923076923077
19114,Philadelphia County,PA,60.57692307692307
19128,Philadelphia County,PA,34.03846153846154
19335,Chester County,PA,18.076923076923077
19341,Chester County,PA,65.57692307692308
19343,Chester County,PA,95.96153846153847
19380,Chester County,PA,30.384615384615383
19440,Montgomery County,PA,77.6923076923077
19475,Chester County,PA,65
19525,Montgomery County,PA,60
19534,Berks County,PA,100
19606,Berks County,PA,20.384615384615383
19611,Berks County,PA,80.57692307692308
02916,Providence County,RI,82.5
29054,Lexington County,SC,92.88461538461539
29488,Colleton County,SC,54.807692307692314
29615,Greenville County,SC,67.11538461538461
29627,Anderson County,SC,12.115384615384615
29644,Greenville County,SC,86.15384615384616
29651,Greenville County,SC,13.653846153846153
29670,Anderson County,SC,90.38461538461539
29693,Oconee County,SC,51.153846153846146
29708,York County,SC,73.07692307692307
29910,Beaufort County,SC,55.38461538461539
57064,Lincoln County,SD,88.65384615384615
57103,Minnehaha County,SD,10.576923076923077
57107,Minnehaha County,SD,94.42307692307692
37128,Rutherford County,TN,35
37184,Wilson County,TN,97.88461538461539
37312,Bradley County,TN,45
37379,Hamilton County,TN,36.73076923076923
37421,Hamilton County,TN,34.03846153846154
37771,Loudon County,TN,61.53846153846154
37860,Hamblen County,TN,97.11538461538461
37876,Sevier County,TN,46.92307692307692
37885,Monroe County,TN,97.3076923076923
38305,Madison County,TN,2.6923076923076925
38401,Maury County,TN,12.307692307692308
38483,Lawrence County,TN,85.96153846153847
38583,White County,TN,28.076923076923077
75002,Collin County,TX,53.84615384615385
75013,Collin County,TX,24.423076923076923
75033,,TX,28.076923076923077
75060,Dallas County,TX,35.38461538461539
75070,Collin County,TX,10
75071,Collin County,TX,21.153846153846153
75078,Collin County,TX,61.73076923076923
75088,Dallas County,TX,73.84615384615385
75227,Dallas County,TX,4.807692307692308
75287,Denton County,TX,22.5
75401,Hunt County,TX,57.11538461538461
75460,Lamar County,TX,39.80769230769231
75640,Upshur County,TX,91.53846153846153
75657,Marion County,TX,85
75702,Smith County,TX,42.11538461538461
75901,Angelina County,TX,51.73076923076923
75935,Shelby County,TX,78.65384615384615
75964,Nacogdoches County,TX,81.15384615384616
76015,Tarrant County,TX,89.8076923076923
76028,Johnson County,TX,37.88461538461539
76087,Parker County,TX,46.53846153846154
76105,Tarrant County,TX,12.884615384615383
76111,Tarrant County,TX,33.46153846153846
76112,Tarrant County,TX,21.53846153846154
76117,Tarrant County,TX,13.461538461538462
76118,Tarrant County,TX,79.42307692307692
76240,Cooke County,TX,29.807692307692307
76542,Bell County,TX,15.576923076923077
76655,McLennan County,TX,75.96153846153845
76706,McLennan County,TX,24.23076923076923
77004,Harris County,TX,14.038461538461538
77005,Harris County,TX,59.61538461538461
77007,Harris County,TX,74.42307692307692
77008,Harris County,TX,72.6923076923077
77037,Harris County,TX,84.03846153846153
77055,Harris County,TX,50.96153846153846
77095,Harris County,TX,20.76923076923077
77338,Harris County,TX,39.03846153846154
77354,Montgomery County,TX,57.692307692307686
77379,Harris County,TX,11.923076923076923
77384,Montgomery County,TX,46.92307692307692
77511,Brazoria County,TX,8.076923076923077
77530,Harris County,TX,54.03846153846153
77573,Galveston County,TX,1.7307692307692308
77632,Orange County,TX,34.03846153846154
77706,Jefferson County,TX,60.96153846153847
77836,Burleson County,TX,58.46153846153847
77840,Brazos County,TX,40.76923076923077
77879,Burleson County,TX,95.96153846153847
77901,Victoria County,TX,14.23076923076923
78045,Webb County,TX,8.269230769230768
78130,Comal County,TX,22.115384615384613
78133,Comal County,TX,55.57692307692308
78222,Bexar County,TX,25
78249,Bexar County,TX,47.88461538461539
78252,Bexar County,TX,90.96153846153847
78363,Kleberg County,TX,58.07692307692308
78572,Hidalgo County,TX,20.576923076923077
78586,Cameron County,TX,30
78602,Bastrop County,TX,63.46153846153846
79407,Lubbock County,TX,66.15384615384615
79762,Ector County,TX,14.423076923076922
79902,El Paso County,TX,60.38461538461538
84020,Salt Lake County,UT,31.538461538461537
84117,Salt Lake County,UT,59.03846153846154
84664,Utah County,UT,87.6923076923077
22066,Fairfax County,VA,84.42307692307692
22204,Arlington County,VA,19.615384615384617
22656,Frederick County,VA,91.15384615384615
22657,Shenandoah County,VA,55.57692307692308
23061,Gloucester County,VA,65.1923076923077
23502,Norfolk city,VA,65.1923076923077
23927,Mecklenburg County,VA,96.53846153846153
24277,Lee County,VA,96.73076923076923
98012,Snohomish County,WA,9.230769230769232
98108,King County,WA,73.84615384615385
98201,Snohomish County,WA,48.65384615384615
98277,Island County,WA,70.1923076923077
98951,Yakima County,WA,94.42307692307692
20003,District of Columbia,DC,60.96153846153847
20008,District of Columbia,DC,90.38461538461539
25306,Kanawha County,WV,52.11538461538462
26505,Monongalia County,WV,38.65384615384615
26508,Monongalia County,WV,3.653846153846154
53110,Milwaukee County,WI,37.5
53129,Milwaukee County,WI,49.61538461538461
53215,Milwaukee County,WI,2.5
53222,Milwaukee County,WI,42.11538461538461
53225,Milwaukee County,WI,6.923076923076923
53546,Rock County,WI,37.30769230769231
53705,Dane County,WI,64.61538461538461
53713,Dane County,WI,71.53846153846153
53948,Juneau County,WI,89.8076923076923
54025,St. Croix County,WI,82.5
54304,Brown County,WI,46.15384615384615
54636,La Crosse County,WI,70
