ZipCode,county,state,Youth,Adult
35111,Tuscaloosa County,AL,52.90697674418605,NA
35475,Tuscaloosa County,AL,86.04651162790698,53.49544072948328
35640,Morgan County,AL,50,NA
35645,Lauderdale County,AL,NA,75.6838905775076
36605,Mobile County,AL,22.093023255813954,NA
99623,,AK,NA,84.80243161094225
99712,Fairbanks North Star Borough,AK,NA,85.41033434650456
99801,Juneau City and Borough,AK,NA,52.27963525835866
85032,Maricopa County,AZ,18.6046511627907,NA
85210,Maricopa County,AZ,NA,25.227963525835868
85303,Maricopa County,AZ,41.86046511627907,NA
85308,Maricopa County,AZ,64.53488372093024,NA
85323,Maricopa County,AZ,NA,37.68996960486322
85335,Maricopa County,AZ,NA,39.209726443769
85710,Pima County,AZ,NA,38.90577507598784
85730,Pima County,AZ,60.46511627906976,NA
86406,Mohave County,AZ,NA,80.85106382978722
86440,Mohave County,AZ,92.44186046511628,NA
72401,Craighead County,AR,17.441860465116278,NA
72904,Sebastian County,AR,NA,63.22188449848024
90007,Los Angeles County,CA,NA,32.21884498480243
90044,Los Angeles County,CA,NA,7.598784194528875
90047,Los Angeles County,CA,NA,94.83282674772036
90059,Los Angeles County,CA,43.604651162790695,NA
90201,Los Angeles County,CA,NA,67.17325227963525
90247,Los Angeles County,CA,NA,54.1033434650456
90255,Los Angeles County,CA,NA,33.43465045592705
90301,Los Angeles County,CA,67.44186046511628,NA
90638,Los Angeles County,CA,NA,56.838905775075986
90713,Los Angeles County,CA,NA,70.51671732522796
90731,Los Angeles County,CA,NA,35.86626139817629
90740,Orange County,CA,94.18604651162791,NA
90806,Los Angeles County,CA,NA,58.662613981762924
91331,Los Angeles County,CA,NA,12.76595744680851
91360,Ventura County,CA,NA,66.26139817629179
91367,Los Angeles County,CA,90.11627906976744,NA
91605,Los Angeles County,CA,NA,50.75987841945289
91702,Los Angeles County,CA,29.651162790697676,NA
91732,Los Angeles County,CA,NA,45.2887537993921
91780,Los Angeles County,CA,NA,97.87234042553192
91977,San Diego County,CA,NA,39.51367781155015
92020,San Diego County,CA,NA,56.23100303951368
92027,San Diego County,CA,NA,90.5775075987842
92065,San Diego County,CA,NA,52.88753799392097
92071,San Diego County,CA,NA,62.31003039513677
92102,San Diego County,CA,67.44186046511628,NA
92105,San Diego County,CA,42.44186046511628,NA
92225,Riverside County,CA,83.72093023255815,NA
92243,Imperial County,CA,73.83720930232558,NA
92324,San Bernardino County,CA,NA,22.188449848024316
92371,San Bernardino County,CA,93.02325581395348,NA
92395,San Bernardino County,CA,NA,29.78723404255319
92407,San Bernardino County,CA,NA,88.75379939209726
92553,Riverside County,CA,NA,79.33130699088146
92557,Riverside County,CA,NA,72.94832826747721
92626,Orange County,CA,30.23255813953488,NA
92627,Orange County,CA,NA,22.492401215805472
92656,Orange County,CA,56.395348837209305,NA
93012,Ventura County,CA,NA,71.42857142857143
93304,Kern County,CA,85.46511627906976,NA
93308,Kern County,CA,11.046511627906977,NA
93552,Los Angeles County,CA,NA,86.93009118541033
93619,Fresno County,CA,19.767441860465116,NA
93722,Fresno County,CA,NA,9.72644376899696
93905,Monterey County,CA,51.162790697674424,NA
93906,Monterey County,CA,12.790697674418606,NA
94565,Contra Costa County,CA,14.534883720930234,NA
94619,Alameda County,CA,NA,96.35258358662614
95035,Santa Clara County,CA,NA,52.58358662613982
95124,Santa Clara County,CA,NA,62.00607902735562
95240,San Joaquin County,CA,19.186046511627907,NA
95476,Sonoma County,CA,98.83720930232558,NA
95842,Sacramento County,CA,NA,48.93617021276596
95959,Nevada County,CA,NA,96.65653495440729
95991,Sutter County,CA,62.7906976744186,NA
96001,Shasta County,CA,37.2093023255814,NA
80027,Boulder County,CO,33.13953488372093,NA
80229,Adams County,CO,NA,16.41337386018237
80260,Adams County,CO,NA,49.24012158054711
80303,Boulder County,CO,NA,82.67477203647417
80543,Weld County,CO,NA,97.56838905775076
80909,El Paso County,CO,NA,26.74772036474164
06066,Tolland County,CT,NA,19.45288753799392
06478,New Haven County,CT,NA,95.44072948328267
06610,Fairfield County,CT,NA,30.091185410334347
06776,Litchfield County,CT,48.837209302325576,NA
19709,New Castle County,DE,15.11627906976744,NA
19711,New Castle County,DE,NA,34.954407294832826
19977,Kent County,DE,NA,58.35866261398176
32043,Clay County,FL,NA,48.632218844984806
32086,St. Johns County,FL,NA,76.59574468085107
32118,Volusia County,FL,NA,85.1063829787234
32446,Jackson County,FL,NA,67.78115501519757
32503,Escambia County,FL,NA,23.404255319148938
32707,Seminole County,FL,NA,70.51671732522796
32763,Volusia County,FL,83.72093023255815,NA
32778,Lake County,FL,34.30232558139535,NA
32826,Orange County,FL,NA,83.58662613981764
32909,Brevard County,FL,NA,43.76899696048632
32935,Brevard County,FL,38.372093023255815,20.972644376899694
32958,Indian River County,FL,NA,72.03647416413374
32976,Brevard County,FL,NA,86.01823708206688
33018,Miami-Dade County,FL,46.51162790697674,NA
33142,Miami-Dade County,FL,NA,20.060790273556233
33155,Miami-Dade County,FL,NA,78.11550151975683
33183,Miami-Dade County,FL,NA,82.06686930091185
33408,Palm Beach County,FL,NA,78.419452887538
33584,Hillsborough County,FL,62.2093023255814,NA
33813,Polk County,FL,NA,63.525835866261396
33852,Highlands County,FL,NA,62.91793313069909
33983,Charlotte County,FL,NA,93.3130699088146
34112,Collier County,FL,NA,57.446808510638306
34209,Manatee County,FL,83.72093023255815,NA
34287,Sarasota County,FL,NA,55.319148936170215
34609,Hernando County,FL,NA,68.38905775075987
34652,Pasco County,FL,54.06976744186046,NA
34744,Osceola County,FL,15.69767441860465,NA
34759,Polk County,FL,NA,42.857142857142854
30092,Gwinnett County,GA,NA,65.34954407294833
30126,Cobb County,GA,NA,77.50759878419453
30176,Haralson County,GA,91.27906976744185,NA
30180,Carroll County,GA,NA,58.96656534954408
30720,Whitfield County,GA,55.23255813953488,NA
30809,Columbia County,GA,24.418604651162788,NA
30909,Richmond County,GA,NA,78.72340425531915
31533,Coffee County,GA,NA,89.66565349544074
31535,Coffee County,GA,NA,86.62613981762918
31906,Muscogee County,GA,8.720930232558139,NA
83333,Blaine County,ID,NA,82.97872340425532
83647,Elmore County,ID,NA,48.328267477203646
60091,Cook County,IL,NA,92.09726443768997
60101,DuPage County,IL,NA,30.3951367781155
60103,DuPage County,IL,NA,31.914893617021278
60126,DuPage County,IL,NA,10.638297872340425
60137,DuPage County,IL,21.511627906976745,NA
60426,Cook County,IL,NA,58.05471124620061
60430,Cook County,IL,NA,68.9969604863222
60481,Will County,IL,75,NA
60561,DuPage County,IL,NA,87.53799392097264
60624,Cook County,IL,NA,17.933130699088146
60647,Cook County,IL,NA,8.51063829787234
61032,Stephenson County,IL,76.74418604651163,NA
61607,Peoria County,IL,NA,83.89057750759878
62024,Madison County,IL,86.62790697674419,NA
62025,Madison County,IL,61.627906976744185,NA
62035,Madison County,IL,NA,91.48936170212765
62226,St. Clair County,IL,NA,47.72036474164133
62401,Effingham County,IL,NA,66.8693009118541
62703,Sangamon County,IL,31.3953488372093,NA
62946,Saline County,IL,NA,83.28267477203647
46013,Madison County,IN,NA,38.60182370820669
46069,Hamilton County,IN,94.76744186046511,NA
46545,St. Joseph County,IN,65.11627906976744,NA
46714,Wells County,IN,76.16279069767442,NA
46902,Howard County,IN,NA,5.47112462006079
46953,Grant County,IN,NA,12.462006079027356
47501,Daviess County,IN,NA,42.24924012158054
47567,Pike County,IN,NA,96.04863221884499
50511,Kossuth County,IA,NA,94.52887537993921
52227,Linn County,IA,78.48837209302324,NA
52240,Johnson County,IA,NA,23.70820668693009
52245,Johnson County,IA,99.4186046511628,NA
52405,Linn County,IA,NA,87.84194528875379
52804,Scott County,IA,NA,18.237082066869302
66605,Shawnee County,KS,NA,81.7629179331307
66610,Shawnee County,KS,88.95348837209302,NA
67203,Sedgwick County,KS,83.13953488372093,NA
67230,Sedgwick County,KS,NA,99.08814589665653
40229,Jefferson County,KY,NA,13.98176291793313
40272,Jefferson County,KY,8.13953488372093,NA
40419,Lincoln County,KY,NA,88.44984802431611
40504,Fayette County,KY,61.04651162790697,NA
41143,Carter County,KY,NA,76.29179331306992
42066,Graves County,KY,NA,24.620060790273556
42503,Pulaski County,KY,NA,46.808510638297875
42539,Casey County,KY,70.34883720930233,NA
70094,Jefferson Parish,LA,NA,6.68693009118541
70118,Orleans Parish,LA,49.41860465116279,NA
70615,Calcasieu Parish,LA,NA,84.49848024316108
70808,East Baton Rouge Parish,LA,80.81395348837209,NA
71350,Avoyelles Parish,LA,NA,82.37082066869301
04101,Cumberland County,ME,47.674418604651166,NA
04240,Androscoggin County,ME,3.488372093023256,2.127659574468085
04444,Penobscot County,ME,NA,98.17629179331307
04901,Kennebec County,ME,22.674418604651162,NA
04950,Somerset County,ME,NA,77.81155015197568
20743,Prince George's County,MD,NA,40.42553191489361
20866,Montgomery County,MD,NA,92.401215805471125
21045,Howard County,MD,NA,80.54711246200608
21208,Baltimore County,MD,71.51162790697676,NA
21224,Baltimore city,MD,NA,49.544072948328264
21237,Baltimore County,MD,NA,55.62310030395137
21401,Anne Arundel County,MD,NA,27.659574468085108
01109,Hampden County,MA,NA,36.17021276595745
01331,Worcester County,MA,69.76744186046511,NA
01440,Worcester County,MA,88.37209302325581,NA
01540,Worcester County,MA,72.67441860465115,NA
01550,Worcester County,MA,2.9069767441860463,NA
01850,Middlesex County,MA,97.09302325581395,NA
01886,Middlesex County,MA,NA,24.924012158054712
01904,Essex County,MA,NA,60.182370820668694
01923,Essex County,MA,NA,20.364741641337385
01969,Essex County,MA,50.58139534883721,NA
02021,Norfolk County,MA,NA,35.25835866261398
02056,Norfolk County,MA,NA,92.70516717325228
02066,Plymouth County,MA,58.720930232558146,NA
02124,Suffolk County,MA,NA,0
02130,Suffolk County,MA,NA,8.814589665653495
02136,Suffolk County,MA,NA,1.82370820668693
02138,Middlesex County,MA,NA,14.58966565349544
02148,Middlesex County,MA,NA,0.60790273556231
02149,Middlesex County,MA,0,NA
02364,Plymouth County,MA,65.69767441860465,NA
02368,Norfolk County,MA,30.23255813953488,NA
02481,Norfolk County,MA,NA,59.87841945288754
02703,Bristol County,MA,9.30232558139535,NA
48034,Oakland County,MI,36.04651162790697,NA
48047,Macomb County,MI,NA,47.11246200607903
48089,Macomb County,MI,NA,9.118541033434651
48141,Wayne County,MI,NA,9.422492401215806
48170,Wayne County,MI,NA,15.501519756838904
48178,Oakland County,MI,9.30232558139535,NA
48180,Wayne County,MI,NA,3.64741641337386
48213,Wayne County,MI,NA,11.246200607902736
48302,Oakland County,MI,45.93023255813954,NA
48341,Oakland County,MI,NA,33.73860182370821
48348,Oakland County,MI,58.139534883720934,NA
48858,Isabella County,MI,27.906976744186046,NA
49004,Kalamazoo County,MI,44.18604651162791,NA
49024,Kalamazoo County,MI,NA,28.87537993920973
49048,Kalamazoo County,MI,NA,18.84498480243161
49417,Ottawa County,MI,NA,19.148936170212767
49424,Ottawa County,MI,NA,17.62917933130699
49548,Kent County,MI,NA,34.04255319148936
49696,Grand Traverse County,MI,100,NA
49770,Emmet County,MI,NA,63.829787234042556
55378,Scott County,MN,NA,57.75075987841946
55422,Hennepin County,MN,NA,66.26139817629179
56301,Stearns County,MN,NA,93.61702127659575
39094,Leake County,MS,79.65116279069767,NA
39183,Warren County,MS,90.69767441860465,NA
39307,Lauderdale County,MS,NA,43.161094224924014
63114,St. Louis County,MO,NA,61.702127659574465
63379,Lincoln County,MO,25,NA
64014,Jackson County,MO,NA,23.10030395136778
64062,Ray County,MO,NA,60.48632218844985
64106,Jackson County,MO,NA,31.00303951367781
64133,Jackson County,MO,NA,5.775075987841945
64138,Jackson County,MO,NA,62.61398176291794
64701,Cass County,MO,28.488372093023255,NA
64836,Jasper County,MO,6.395348837209303,NA
65203,Boone County,MO,NA,26.443768996960486
65233,Cooper County,MO,NA,69.6048632218845
65605,Lawrence County,MO,NA,94.22492401215806
65616,Taney County,MO,NA,41.94528875379939
89433,Washoe County,NV,NA,43.46504559270517
89706,Carson City,NV,NA,64.43768996960486
03064,Hillsborough County,NH,NA,33.130699088145896
03249,Belknap County,NH,NA,91.1854103343465
03301,Merrimack County,NH,NA,51.06382978723404
07011,Passaic County,NJ,20.348837209302324,NA
07035,Morris County,NJ,79.06976744186046,NA
07036,Union County,NJ,27.325581395348834,NA
07055,Passaic County,NJ,NA,1.5197568389057752
07112,Essex County,NJ,NA,4.25531914893617
07644,Bergen County,NJ,NA,44.07294832826747
07928,Morris County,NJ,NA,95.74468085106383
08031,Camden County,NJ,NA,93.00911854103343
08270,Cape May County,NJ,NA,56.838905775075986
08638,Mercer County,NJ,73.25581395348837,NA
08753,Ocean County,NJ,5.813953488372093,NA
08901,Middlesex County,NJ,NA,26.13981762917933
87031,Valencia County,NM,NA,31.30699088145897
87113,Bernalillo County,NM,87.79069767441861,NA
87124,Sandoval County,NM,NA,11.854103343465045
87144,Sandoval County,NM,NA,21.88449848024316
10038,New York County,NY,63.95348837209303,NA
10465,Bronx County,NY,NA,65.95744680851064
10472,Bronx County,NY,NA,34.34650455927052
10522,Westchester County,NY,95.34883720930233,NA
10952,Rockland County,NY,NA,72.64437689969606
11201,Kings County,NY,NA,22.796352583586625
11207,Kings County,NY,NA,0.303951367781155
11208,Kings County,NY,NA,37.38601823708207
11212,Kings County,NY,NA,1.21580547112462
11361,Queens County,NY,NA,89.36170212765957
11373,Queens County,NY,25.581395348837212,77.20364741641338
11416,Queens County,NY,63.372093023255815,NA
11520,Nassau County,NY,98.25581395348837,NA
11570,Nassau County,NY,NA,88.14589665653494
11706,Suffolk County,NY,NA,56.53495440729483
11722,Suffolk County,NY,NA,100
11788,Suffolk County,NY,NA,73.86018237082067
12078,Fulton County,NY,NA,6.382978723404255
12866,Saratoga County,NY,NA,15.80547112462006
12928,Essex County,NY,95.93023255813954,NA
13078,Onondaga County,NY,NA,59.57446808510638
13088,Onondaga County,NY,NA,29.48328267477204
13104,Onondaga County,NY,NA,54.7112462006079
13165,Seneca County,NY,NA,29.17933130699088
13219,Onondaga County,NY,45.348837209302324,NA
13815,Chenango County,NY,72.09302325581395,NA
13820,Otsego County,NY,NA,10.33434650455927
14072,Erie County,NY,NA,44.984802431610944
14150,Erie County,NY,NA,28.267477203647417
14305,Niagara County,NY,NA,61.39817629179332
14534,Monroe County,NY,32.55813953488372,7.29483282674772
14606,Monroe County,NY,NA,3.951367781155015
14620,Monroe County,NY,NA,6.990881458966565
14621,Monroe County,NY,NA,0.911854103343465
14625,Monroe County,NY,36.627906976744185,NA
27596,Franklin County,NC,NA,89.96960486322189
27707,Durham County,NC,NA,15.19756838905775
27803,Nash County,NC,NA,49.848024316109424
27834,Pitt County,NC,4.069767441860465,NA
28023,Rowan County,NC,NA,71.12462006079028
28031,Mecklenburg County,NC,87.20930232558139,NA
28034,Gaston County,NC,70.93023255813954,NA
28079,Union County,NC,NA,50.455927051671736
28150,Cleveland County,NC,NA,24.316109422492403
28412,New Hanover County,NC,91.86046511627907,NA
28551,Lenoir County,NC,NA,64.13373860182371
28645,Caldwell County,NC,NA,5.167173252279635
58504,Burleigh County,ND,NA,91.7933130699088
43119,Franklin County,OH,11.627906976744185,NA
43123,Franklin County,OH,NA,7.90273556231003
43203,Franklin County,OH,NA,72.03647416413374
43206,Franklin County,OH,NA,13.069908814589665
43209,Franklin County,OH,NA,51.97568389057751
43213,Franklin County,OH,NA,10.030395136778116
43222,Franklin County,OH,NA,99.69604863221885
43228,Franklin County,OH,NA,4.5592705167173255
43302,Marion County,OH,NA,2.43161094224924
43612,Lucas County,OH,1.1627906976744187,6.079027355623101
43952,Jefferson County,OH,NA,8.206686930091186
43953,Jefferson County,OH,18.023255813953487,NA
44004,Ashtabula County,OH,NA,2.735562310030395
44023,Geauga County,OH,NA,71.73252279635258
44052,Lorain County,OH,NA,75.07598784194529
44087,Summit County,OH,NA,44.680851063829785
44107,Cuyahoga County,OH,1.744186046511628,NA
44114,Cuyahoga County,OH,NA,36.474164133738604
44118,Cuyahoga County,OH,NA,12.158054711246201
44120,Cuyahoga County,OH,NA,19.756838905775076
44136,Cuyahoga County,OH,20.930232558139537,NA
44144,Cuyahoga County,OH,NA,93.9209726443769
44306,Summit County,OH,4.651162790697675,NA
44312,Summit County,OH,NA,16.109422492401215
44313,Summit County,OH,13.372093023255813,NA
44471,Mahoning County,OH,NA,99.3920972644377
44512,Mahoning County,OH,NA,10.638297872340425
44683,Tuscarawas County,OH,NA,27.96352583586626
44691,Wayne County,OH,16.27906976744186,NA
44857,Huron County,OH,38.372093023255815,NA
45011,Butler County,OH,NA,3.0395136778115504
45014,Butler County,OH,NA,17.02127659574468
45216,Hamilton County,OH,NA,59.27051671732523
45227,Hamilton County,OH,NA,51.671732522796354
45229,Hamilton County,OH,40.116279069767444,NA
45231,Hamilton County,OH,NA,36.77811550151976
45251,Hamilton County,OH,NA,54.1033434650456
45342,Montgomery County,OH,NA,11.55015197568389
45426,Montgomery County,OH,NA,55.01519756838906
45429,Montgomery County,OH,54.65116279069767,NA
45505,Clark County,OH,82.55813953488372,NA
45801,Allen County,OH,NA,74.77203647416414
45895,Auglaize County,OH,NA,34.650455927051674
73034,Oklahoma County,OK,26.744186046511626,NA
73096,Custer County,OK,NA,68.69300911854104
73533,Stephens County,OK,7.55813953488372,NA
73701,Garfield County,OK,44.76744186046512,NA
97045,Clackamas County,OR,12.209302325581394,NA
97070,Clackamas County,OR,NA,65.04559270516718
97113,Washington County,OR,NA,74.16413373860182
97146,Clatsop County,OR,NA,89.05775075987842
97212,Multnomah County,OR,NA,67.47720364741642
97266,Multnomah County,OR,57.55813953488372,NA
97301,Marion County,OR,NA,14.893617021276595
97322,Linn County,OR,NA,46.504559270516715
97411,Coos County,OR,NA,84.19452887537993
15104,Allegheny County,PA,93.02325581395348,NA
15204,Allegheny County,PA,NA,69.30091185410335
15209,Allegheny County,PA,NA,85.71428571428571
16505,Erie County,PA,59.883720930232556,NA
16511,Erie County,PA,NA,98.48024316109422
16686,Blair County,PA,NA,87.2340425531915
17022,Lancaster County,PA,NA,18.541033434650455
17051,Mifflin County,PA,NA,98.78419452887537
18013,Northampton County,PA,NA,73.25227963525836
18037,Lehigh County,PA,NA,79.0273556231003
18201,Luzerne County,PA,NA,20.66869300911854
18951,Bucks County,PA,NA,53.799392097264445
19003,Montgomery County,PA,NA,69.90881458966565
19064,Delaware County,PA,NA,74.46808510638297
19111,Philadelphia County,PA,NA,4.86322188449848
19143,Philadelphia County,PA,23.25581395348837,NA
19380,Chester County,PA,NA,44.37689969604863
19446,Montgomery County,PA,NA,17.325227963525837
19606,Berks County,PA,74.4186046511628,NA
02908,Providence County,RI,NA,75.98784194528876
29325,Laurens County,SC,55.81395348837209,NA
29412,Charleston County,SC,NA,37.99392097264438
29483,Dorchester County,SC,5.232558139534884,NA
29501,Florence County,SC,16.86046511627907,NA
57104,Minnehaha County,SD,NA,32.82674772036474
57783,Lawrence County,SD,89.53488372093024,NA
37015,Cheatham County,TN,80.23255813953489,NA
37040,Montgomery County,TN,56.97674418604651,NA
37075,Sumner County,TN,29.069767441860467,NA
37122,Wilson County,TN,NA,31.61094224924012
37207,Davidson County,TN,NA,13.37386018237082
37211,Davidson County,TN,NA,21.27659574468085
37321,Rhea County,TN,23.837209302325583,NA
37363,Hamilton County,TN,34.883720930232556,NA
37743,Greene County,TN,NA,14.285714285714285
38063,Lauderdale County,TN,51.162790697674424,NA
38117,Shelby County,TN,NA,75.37993920972644
38141,Shelby County,TN,NA,50.15197568389058
38372,Hardin County,TN,NA,53.191489361702125
38464,Lawrence County,TN,NA,37.08206686930091
38583,White County,TN,NA,27.35562310030395
75025,Collin County,TX,40.116279069767444,NA
75048,Dallas County,TX,77.32558139534885,NA
75104,Dallas County,TX,NA,25.835866261398177
75165,Ellis County,TX,NA,30.69908814589666
75243,Dallas County,TX,NA,48.02431610942249
75472,Rains County,TX,97.67441860465115,NA
75602,Gregg County,TX,NA,61.09422492401215
75704,Smith County,TX,NA,97.26443768996961
75762,Smith County,TX,51.162790697674424,NA
75901,Angelina County,TX,NA,41.03343465045592
75966,Newton County,TX,75.5813953488372,NA
76119,Tarrant County,TX,0.5813953488372093,NA
76182,Tarrant County,TX,NA,68.08510638297872
76708,McLennan County,TX,NA,79.93920972644378
77004,Harris County,TX,10.465116279069768,NA
77021,Harris County,TX,NA,40.121580547112465
77026,Harris County,TX,NA,55.92705167173252
77059,Harris County,TX,69.18604651162791,NA
77080,Harris County,TX,77.90697674418605,NA
77328,San Jacinto County,TX,53.48837209302325,NA
77357,Montgomery County,TX,40.116279069767444,NA
77373,Harris County,TX,NA,32.52279635258359
77433,Harris County,TX,NA,13.677811550151976
77459,Fort Bend County,TX,NA,25.53191489361702
77706,Jefferson County,TX,NA,51.3677811550152
78201,Bexar County,TX,13.953488372093023,NA
78212,Bexar County,TX,NA,86.32218844984803
78227,Bexar County,TX,6.976744186046512,NA
78228,Bexar County,TX,2.3255813953488373,NA
78249,Bexar County,TX,37.7906976744186,NA
78253,Bexar County,TX,46.51162790697674,NA
78516,Hidalgo County,TX,NA,64.43768996960486
78729,Williamson County,TX,NA,81.45896656534954
79707,Midland County,TX,NA,38.297872340425535
79907,El Paso County,TX,NA,42.5531914893617
84015,Davis County,UT,NA,24.012158054711247
84025,Davis County,UT,66.27906976744185,NA
84037,Davis County,UT,26.16279069767442,NA
84041,Davis County,UT,NA,41.641337386018236
84044,Salt Lake County,UT,NA,76.89969604863222
84045,Utah County,UT,NA,79.63525835866263
84302,Box Elder County,UT,81.97674418604652,NA
84606,Utah County,UT,NA,90.88145896656535
84770,Washington County,UT,33.72093023255814,NA
20110,Manassas city,VA,NA,39.51367781155015
20164,Loudoun County,VA,NA,47.41641337386018
22041,Fairfax County,VA,NA,73.55623100303951
22101,Fairfax County,VA,35.46511627906977,NA
22304,Alexandria city,VA,NA,16.717325227963524
22406,Stafford County,VA,96.51162790697676,NA
23455,Virginia Beach city,VA,NA,46.20060790273556
23518,Norfolk city,VA,NA,45.59270516717325
23860,Hopewell city,VA,NA,35.56231003039514
24121,Bedford County,VA,NA,90.27355623100304
98002,King County,WA,NA,70.2127659574468
98030,King County,WA,NA,27.0516717325228
98056,King County,WA,66.27906976744185,NA
98115,King County,WA,NA,41.33738601823708
98208,Snohomish County,WA,43.02325581395349,NA
98404,Pierce County,WA,NA,96.96048632218846
99163,Whitman County,WA,68.6046511627907,NA
99344,Adams County,WA,NA,95.13677811550151
20032,District of Columbia,DC,NA,60.790273556231
25405,Berkeley County,WV,NA,80.24316109422493
53072,Waukesha County,WI,31.3953488372093,NA
53142,Kenosha County,WI,NA,40.72948328267477
53168,Kenosha County,WI,59.30232558139535,NA
53209,Milwaukee County,WI,NA,3.343465045592705
53212,Milwaukee County,WI,NA,65.65349544072949
53221,Milwaukee County,WI,48.25581395348838,NA
53520,Green County,WI,NA,81.15501519756839
53545,Rock County,WI,39.53488372093023,NA
54481,Portage County,WI,NA,21.580547112462007
54701,Eau Claire County,WI,NA,45.8966565349544
54914,Outagamie County,WI,81.3953488372093,NA
54956,Winnebago County,WI,NA,28.57142857142857
