ZipCode,county,state,Adult
35016,Marshall County,AL,57.95724465558195
35020,Jefferson County,AL,15.201900237529692
35204,Jefferson County,AL,73.87173396674585
35235,Jefferson County,AL,60.33254156769596
35633,Lauderdale County,AL,60.33254156769596
35951,Marshall County,AL,68.40855106888361
35953,St. Clair County,AL,78.62232779097387
36037,Butler County,AL,61.520190023752974
36608,Mobile County,AL,47.26840855106889
99503,Anchorage Municipality,AK,51.06888361045131
99576,Dillingham Census Area,AK,91.92399049881234
85018,Maricopa County,AZ,35.62945368171022
85035,Maricopa County,AZ,18.76484560570071
85037,Maricopa County,AZ,28.741092636579573
85140,Pinal County,AZ,69.83372921615202
85224,Maricopa County,AZ,49.8812351543943
85302,Maricopa County,AZ,28.978622327790976
85308,Maricopa County,AZ,35.15439429928741
85706,Pima County,AZ,18.052256532066508
85712,Pima County,AZ,24.70308788598575
71854,Miller County,AR,39.42992874109264
72019,Saline County,AR,100
72113,Pulaski County,AR,75.77197149643705
90033,Los Angeles County,CA,46.318289786223275
90036,Los Angeles County,CA,69.59619952494062
90037,Los Angeles County,CA,39.19239904988123
90254,Los Angeles County,CA,85.5106888361045
91345,Los Angeles County,CA,86.93586698337292
92054,San Diego County,CA,46.318289786223275
92069,San Diego County,CA,71.73396674584322
92122,San Diego County,CA,89.78622327790974
92240,Riverside County,CA,25.653206650831358
92374,San Bernardino County,CA,46.080760095011875
92392,San Bernardino County,CA,21.61520190023753
92691,Orange County,CA,56.294536817102134
93307,Kern County,CA,66.5083135391924
93458,Santa Barbara County,CA,15.439429928741092
93635,Merced County,CA,42.280285035629454
93702,Fresno County,CA,65.55819477434679
93703,Fresno County,CA,77.43467933491686
93726,Fresno County,CA,24.94061757719715
94014,San Mateo County,CA,87.17339667458432
94061,San Mateo County,CA,57.71971496437055
94063,San Mateo County,CA,45.605700712589076
94301,Santa Clara County,CA,92.87410926365796
94510,Solano County,CA,84.32304038004752
94544,Alameda County,CA,20.42755344418052
94605,Alameda County,CA,62.23277909738717
94965,Marin County,CA,93.82422802850357
95307,Stanislaus County,CA,87.41092636579573
95348,Merced County,CA,69.12114014251782
95407,Sonoma County,CA,63.895486935866984
95650,Placer County,CA,90.26128266033254
95829,Sacramento County,CA,99.7624703087886
80013,Arapahoe County,CO,10.926365795724466
80017,Arapahoe County,CO,39.90498812351544
80112,Arapahoe County,CO,58.432304038004744
80130,Douglas County,CO,81.23515439429929
80207,Denver County,CO,45.843230403800476
80220,Denver County,CO,35.15439429928741
80550,Weld County,CO,32.066508313539195
80631,Weld County,CO,9.026128266033254
80910,El Paso County,CO,27.55344418052256
81052,Prowers County,CO,85.74821852731591
06037,Hartford County,CT,76.72209026128266
06416,Middlesex County,CT,74.34679334916865
06790,Litchfield County,CT,6.88836104513064
19804,New Castle County,DE,64.8456057007126
19805,New Castle County,DE,3.32541567695962
19808,New Castle County,DE,26.365795724465556
19809,New Castle County,DE,63.18289786223278
32055,Columbia County,FL,76.48456057007125
32119,Volusia County,FL,78.38479809976246
32164,Flagler County,FL,36.342042755344416
32207,Duval County,FL,20.902612826603324
32208,Duval County,FL,9.97624703087886
32218,Duval County,FL,4.513064133016627
32219,Duval County,FL,49.4061757719715
32310,Leon County,FL,69.35866983372921
32605,Alachua County,FL,30.878859857482183
32730,Seminole County,FL,98.33729216152018
32773,Seminole County,FL,52.49406175771971
32818,Orange County,FL,18.52731591448931
32822,Orange County,FL,23.040380047505938
32828,Orange County,FL,38.95486935866984
33012,Miami-Dade County,FL,47.50593824228028
33015,Miami-Dade County,FL,55.819477434679335
33023,Broward County,FL,23.27790973871734
33068,Broward County,FL,48.218527315914486
33142,Miami-Dade County,FL,54.86935866983374
33176,Miami-Dade County,FL,70.54631828978623
33317,Broward County,FL,92.16152019002375
33412,Palm Beach County,FL,94.53681710213777
33705,Pinellas County,FL,31.116389548693586
33712,Pinellas County,FL,37.05463182897862
33774,Pinellas County,FL,75.53444180522565
34238,Sarasota County,FL,83.6104513064133
34433,Citrus County,FL,87.88598574821853
34639,Pasco County,FL,94.29928741092637
34952,St. Lucie County,FL,28.50356294536817
30039,Gwinnett County,GA,85.2731591448931
30040,Forsyth County,GA,29.69121140142518
30078,Gwinnett County,GA,64.13301662707839
30115,Cherokee County,GA,41.09263657957244
30126,Cobb County,GA,47.03087885985748
30127,Cobb County,GA,21.140142517814727
30213,Fulton County,GA,58.66983372921615
30274,Clayton County,GA,42.042755344418055
30315,Fulton County,GA,67.2209026128266
30417,Evans County,GA,83.3729216152019
30542,Hall County,GA,57.00712589073634
30620,Barrow County,GA,74.10926365795724
31015,Crisp County,GA,52.25653206650831
31021,Laurens County,GA,41.56769596199525
31096,Johnson County,GA,96.19952494061758
31206,Bibb County,GA,32.779097387173394
96815,Honolulu County,HI,53.20665083135392
83706,Ada County,ID,31.59144893111639
60142,McHenry County,IL,44.180522565320665
60189,DuPage County,IL,37.29216152019003
60504,DuPage County,IL,71.25890736342043
60510,Kane County,IL,37.52969121140142
60607,Cook County,IL,53.681710213776725
60628,Cook County,IL,67.45843230403801
60632,Cook County,IL,14.251781472684085
60647,Cook County,IL,8.076009501187649
60660,Cook County,IL,30.16627078384798
62629,Sangamon County,IL,91.21140142517815
62703,Sangamon County,IL,32.304038004750595
46124,Johnson County,IN,83.8479809976247
46241,Marion County,IN,23.990498812351543
46260,Marion County,IN,50.3562945368171
46324,Lake County,IN,19.239904988123516
46342,Lake County,IN,28.028503562945367
46403,Lake County,IN,71.02137767220903
46795,LaGrange County,IN,92.39904988123516
46804,Allen County,IN,48.9311163895487
47203,Bartholomew County,IN,36.81710213776722
47246,Bartholomew County,IN,99.5249406175772
47401,Monroe County,IN,68.646080760095
47546,Dubois County,IN,57.482185273159146
50327,Polk County,IA,83.8479809976247
52241,Johnson County,IA,50.83135391923991
52601,Des Moines County,IA,13.064133016627078
40272,Jefferson County,KY,14.489311163895488
42276,Logan County,KY,60.80760095011877
42501,Pulaski County,KY,54.156769596199524
70001,Jefferson Parish,LA,4.98812351543943
70043,St. Bernard Parish,LA,15.914489311163896
70058,Jefferson Parish,LA,2.137767220902613
70065,Jefferson Parish,LA,4.750593824228028
70122,Orleans Parish,LA,5.938242280285035
70127,Orleans Parish,LA,75.29691211401425
70131,Orleans Parish,LA,97.8622327790974
70301,Lafourche Parish,LA,2.6128266033254155
70341,Assumption Parish,LA,89.31116389548693
70394,Lafourche Parish,LA,93.58669833729216
70462,Livingston Parish,LA,96.43705463182897
70578,Acadia Parish,LA,60.09501187648456
70634,Beauregard Parish,LA,28.26603325415677
70726,Livingston Parish,LA,97.62470308788599
70785,Livingston Parish,LA,20.190023752969122
70788,Iberville Parish,LA,88.36104513064133
70802,East Baton Rouge Parish,LA,91.44893111638956
70805,East Baton Rouge Parish,LA,76.24703087885986
70807,East Baton Rouge Parish,LA,43.705463182897866
70810,East Baton Rouge Parish,LA,56.53206650831354
71106,Caddo Parish,LA,51.306413301662715
71201,Ouachita Parish,LA,94.77434679334917
71202,Ouachita Parish,LA,5.7007125890736345
71220,Morehouse Parish,LA,20.42755344418052
04843,Knox County,ME,95.96199524940617
04953,Penobscot County,ME,89.07363420427554
04957,Somerset County,ME,79.09738717339667
20601,Charles County,MD,70.78384798099762
20737,Prince George's County,MD,86.69833729216153
20740,Prince George's County,MD,90.73634204275535
21014,Harford County,MD,75.05938242280284
21061,Anne Arundel County,MD,61.04513064133017
21074,Carroll County,MD,82.42280285035629
21133,Baltimore County,MD,62.70783847980997
21144,Anne Arundel County,MD,61.995249406175766
21740,Washington County,MD,21.377672209026127
01118,Hampden County,MA,98.09976247030879
01603,Worcester County,MA,43.46793349168646
01702,Middlesex County,MA,10.451306413301662
01841,Essex County,MA,4.275534441805226
01960,Essex County,MA,0.9501187648456058
02119,Suffolk County,MA,6.413301662707839
02131,Suffolk County,MA,12.351543942992874
02150,Suffolk County,MA,0.7125890736342043
02169,Norfolk County,MA,73.39667458432304
02186,Norfolk County,MA,14.726840855106888
02301,Plymouth County,MA,0
02537,Barnstable County,MA,87.64845605700712
02780,Bristol County,MA,0.23752969121140144
48048,Macomb County,MI,77.67220902612827
48060,St. Clair County,MI,3.5629453681710213
48150,Wayne County,MI,30.403800475059384
48164,Wayne County,MI,76.00950118764845
48183,Wayne County,MI,9.501187648456057
48184,Wayne County,MI,17.102137767220903
48187,Wayne County,MI,11.401425178147269
48204,Wayne County,MI,38.00475059382423
48213,Wayne County,MI,12.114014251781473
48532,Genesee County,MI,39.90498812351544
49236,Lenawee County,MI,95.48693586698337
49442,Muskegon County,MI,4.038004750593824
49503,Kent County,MI,39.66745843230404
49508,Kent County,MI,6.413301662707839
55304,Anoka County,MN,42.75534441805225
55321,Wright County,MN,99.2874109263658
55422,Hennepin County,MN,32.541567695961994
55906,Olmsted County,MN,73.63420427553444
39046,Madison County,MS,30.641330166270787
39120,Adams County,MS,43.23040380047506
39191,Copiah County,MS,88.59857482185272
39213,Hinds County,MS,70.07125890736341
63033,St. Louis County,MO,17.339667458432302
63049,Jefferson County,MO,79.33491686460808
63115,St. Louis city,MO,81.47268408551069
63118,St. Louis city,MO,34.204275534441805
63125,St. Louis County,MO,44.655581947743464
63128,St. Louis County,MO,76.95961995249407
64015,Jackson County,MO,13.539192399049881
64053,Jackson County,MO,83.1353919239905
64083,Cass County,MO,38.242280285035626
64127,Jackson County,MO,7.1258907363420425
64130,Jackson County,MO,7.600950118764846
89122,Clark County,NV,29.216152019002372
89509,Washoe County,NV,53.919239904988125
89523,Washoe County,NV,58.19477434679335
07103,Essex County,NJ,33.0166270783848
07508,Passaic County,NJ,31.353919239904986
07524,Passaic County,NJ,89.54869358669833
07960,Morris County,NJ,71.49643705463184
07981,Morris County,NJ,97.14964370546319
08002,Camden County,NJ,25.17814726840855
08034,Camden County,NJ,35.86698337292161
08078,Camden County,NJ,91.68646080760095
08701,Ocean County,NJ,80.52256532066508
08835,Somerset County,NJ,52.73159144893111
87120,Bernalillo County,NM,9.73871733966746
87121,Bernalillo County,NM,59.38242280285036
87416,San Juan County,NM,99.04988123515439
87566,Rio Arriba County,NM,97.38717339667458
88203,Chaves County,NM,22.327790973871732
10009,New York County,NY,59.14489311163895
10031,New York County,NY,8.551068883610451
10033,New York County,NY,18.28978622327791
10452,Bronx County,NY,1.187648456057007
10453,Bronx County,NY,1.4251781472684086
10456,Bronx County,NY,2.8503562945368173
10458,Bronx County,NY,0.4750593824228029
10467,Bronx County,NY,13.77672209026128
10469,Bronx County,NY,3.800475059382423
10550,Westchester County,NY,27.790973871733964
11210,Kings County,NY,45.13064133016627
11232,Kings County,NY,65.08313539192399
11375,Queens County,NY,80.28503562945369
11377,Queens County,NY,19.47743467933492
11416,Queens County,NY,80.9976247030879
11417,Queens County,NY,53.44418052256532
11420,Queens County,NY,51.543942992874115
12550,Orange County,NY,33.729216152019006
12839,Washington County,NY,29.928741092636578
13077,Cortland County,NY,63.42042755344418
13440,Oneida County,NY,1.9002375296912115
14125,Genesee County,NY,86.22327790973871
14136,Chautauqua County,NY,88.83610451306413
27021,Stokes County,NC,40.85510688836104
27103,Forsyth County,NC,15.676959619952493
27616,Wake County,NC,24.46555819477435
27705,Durham County,NC,25.415676959619955
28025,Cabarrus County,NC,11.87648456057007
28112,Union County,NC,50.1187648456057
28205,Mecklenburg County,NC,23.51543942992874
28208,Mecklenburg County,NC,36.104513064133016
28227,Mecklenburg County,NC,23.75296912114014
28405,New Hanover County,NC,36.57957244655582
28412,New Hanover County,NC,16.389548693586697
28451,Brunswick County,NC,65.7957244655582
28590,Pitt County,NC,64.37054631828978
28678,Alexander County,NC,85.03562945368171
28719,Jackson County,NC,78.85985748218528
43211,Franklin County,OH,72.44655581947742
43219,Franklin County,OH,16.152019002375297
43608,Lucas County,OH,8.788598574821853
43610,Lucas County,OH,68.17102137767222
44030,Ashtabula County,OH,25.890736342042754
44108,Cuyahoga County,OH,3.0878859857482186
44115,Cuyahoga County,OH,66.7458432304038
44302,Summit County,OH,95.01187648456056
44485,Trumbull County,OH,19.002375296912113
44512,Mahoning County,OH,11.163895486935866
45239,Hamilton County,OH,84.798099762470315
45804,Allen County,OH,12.826603325415679
73064,Canadian County,OK,54.63182897862233
73129,Oklahoma County,OK,54.39429928741093
73401,Carter County,OK,14.014251781472684
74436,Muskogee County,OK,98.57482185273159
97060,Multnomah County,OR,43.705463182897866
97078,Washington County,OR,70.30878859857482
97216,Multnomah County,OR,55.10688836104512
97862,Umatilla County,OR,64.60807600950119
15202,Allegheny County,PA,55.58194774346793
15210,Allegheny County,PA,48.69358669833729
15902,Cambria County,PA,45.36817102137768
17325,Adams County,PA,27.315914489311165
17745,Clinton County,PA,41.80522565320665
18017,Northampton County,PA,7.363420427553444
18042,Northampton County,PA,6.175771971496437
18102,Lehigh County,PA,1.66270783847981
19002,Montgomery County,PA,38.71733966745843
19046,Montgomery County,PA,49.6437054631829
19072,Montgomery County,PA,88.12351543942994
19082,Delaware County,PA,72.92161520190024
19111,Philadelphia County,PA,22.802850356294538
19134,Philadelphia County,PA,19.71496437054632
19136,Philadelphia County,PA,40.61757719714964
19139,Philadelphia County,PA,40.380047505938244
19140,Philadelphia County,PA,2.375296912114014
19144,Philadelphia County,PA,5.463182897862233
19335,Chester County,PA,19.95249406175772
19438,Montgomery County,PA,79.80997624703087
19533,Berks County,PA,90.02375296912113
19602,Berks County,PA,12.589073634204276
02806,Bristol County,RI,74.82185273159145
29063,Richland County,SC,61.75771971496437
29070,Lexington County,SC,77.90973871733968
29204,Richland County,SC,71.97149643705463
29412,Charleston County,SC,34.679334916864605
29565,Dillon County,SC,90.73634204275535
29611,Greenville County,SC,13.30166270783848
29617,Greenville County,SC,37.76722090261283
57104,Minnehaha County,SD,31.828978622327792
57106,Minnehaha County,SD,26.60332541567696
37066,Sumner County,TN,10.688836104513063
37601,Washington County,TN,17.81472684085511
37701,Blount County,TN,72.68408551068883
37755,Scott County,TN,98.812351543943
37879,Claiborne County,TN,82.89786223277909
38122,Shelby County,TN,58.90736342042755
38134,Shelby County,TN,38.47980997624703
38351,Henderson County,TN,56.057007125890735
75006,Dallas County,TX,50.5938242280285
75032,Rockwall County,TX,63.657957244655584
75060,Dallas County,TX,42.99287410926366
75067,Denton County,TX,34.441805225653205
75068,Denton County,TX,33.2541567695962
75116,Dallas County,TX,82.18527315914488
75134,Dallas County,TX,67.6959619952494
75212,Dallas County,TX,49.16864608076009
75217,Dallas County,TX,9.263657957244655
75227,Dallas County,TX,22.090261282660332
75232,Dallas County,TX,48.45605700712589
75236,Dallas County,TX,66.270783847981
75243,Dallas County,TX,14.726840855106888
75401,Hunt County,TX,61.282660332541575
75460,Lamar County,TX,84.56057007125891
75605,Gregg County,TX,56.76959619952494
75672,Harrison County,TX,85.98574821852732
75964,Nacogdoches County,TX,66.9833729216152
76051,Tarrant County,TX,33.4916864608076
76106,Tarrant County,TX,51.78147268408551
76116,Tarrant County,TX,27.078384798099762
76131,Tarrant County,TX,81.94774346793349
76133,Tarrant County,TX,21.852731591448933
76137,Tarrant County,TX,24.228028503562946
76258,Denton County,TX,93.11163895486936
76513,Bell County,TX,8.31353919239905
77013,Harris County,TX,86.46080760095012
77039,Harris County,TX,74.34679334916865
77055,Harris County,TX,62.47030878859857
77075,Harris County,TX,81.71021377672209
77089,Harris County,TX,46.79334916864608
77302,Montgomery County,TX,95.24940617577197
77351,Polk County,TX,47.980997624703086
77406,Fort Bend County,TX,47.74346793349169
77503,Harris County,TX,80.76009501187649
77584,Brazoria County,TX,11.63895486935867
78130,Comal County,TX,26.128266033254157
78219,Bexar County,TX,80.04750593824228
78521,Cameron County,TX,33.966745843230406
78573,Hidalgo County,TX,59.61995249406176
78589,Hidalgo County,TX,41.09263657957244
78628,Williamson County,TX,96.91211401425178
78721,Travis County,TX,92.63657957244655
78746,Travis County,TX,79.57244655581948
79108,Potter County,TX,82.6603325415677
79110,Randall County,TX,93.34916864608076
84047,Salt Lake County,UT,62.94536817102138
84094,Salt Lake County,UT,67.93349168646081
22041,Fairfax County,VA,73.15914489311164
22079,Fairfax County,VA,44.180522565320665
22206,Arlington County,VA,90.49881235154395
22401,Fredericksburg city,VA,95.72446555819477
22901,Albemarle County,VA,68.88361045130641
23112,Chesterfield County,VA,44.89311163895487
23234,Chesterfield County,VA,22.327790973871732
23454,Virginia Beach city,VA,66.0332541567696
23508,Norfolk city,VA,78.14726840855107
24354,Smyth County,VA,42.280285035629454
98026,Snohomish County,WA,34.91686460807601
98116,King County,WA,72.20902612826603
98148,King County,WA,96.67458432304038
98225,Whatcom County,WA,59.857482185273156
98387,Pierce County,WA,26.840855106888363
98520,Grays Harbor County,WA,65.32066508313538
99037,Spokane County,WA,94.06175771971496
25701,Cabell County,WV,16.864608076009503
26501,Monongalia County,WV,52.96912114014252
53095,Washington County,WI,55.34441805225653
53205,Milwaukee County,WI,17.577197149643705
53206,Milwaukee County,WI,10.21377672209026
53215,Milwaukee County,WI,5.225653206650831
53218,Milwaukee County,WI,7.8384798099762465
53713,Dane County,WI,57.24465558194775
54302,Brown County,WI,29.453681710213775
54656,Monroe County,WI,52.01900237529691
54935,Fond du Lac County,WI,16.6270783847981
82001,Laramie County,WY,77.19714964370546
