ZipCode,county,state,Adult,Retirement
35071,Jefferson County,AL,NA,80.80568720379146
35094,Jefferson County,AL,NA,70.61611374407583
35125,St. Clair County,AL,NA,74.40758293838863
35126,Jefferson County,AL,NA,54.502369668246445
35160,Talladega County,AL,NA,81.04265402843602
35173,Jefferson County,AL,NA,46.208530805687204
35186,Shelby County,AL,98.21428571428571,NA
35205,Jefferson County,AL,NA,74.88151658767772
35242,Shelby County,AL,29.563492063492063,NA
35453,Tuscaloosa County,AL,NA,73.93364928909952
35504,Walker County,AL,NA,69.90521327014217
35592,Lamar County,AL,94.24603174603175,NA
35603,Morgan County,AL,NA,36.96682464454976
35640,Morgan County,AL,31.944444444444443,NA
35645,Lauderdale County,AL,70.23809523809523,NA
35758,Madison County,AL,NA,44.07582938388626
36108,Montgomery County,AL,40.87301587301587,NA
36301,Houston County,AL,NA,18.72037914691943
36507,Baldwin County,AL,NA,70.37914691943128
36582,Mobile County,AL,47.61904761904761,NA
99504,Anchorage Municipality,AK,20.03968253968254,NA
99559,Bethel Census Area,AK,NA,97.1563981042654
85205,Maricopa County,AZ,25.396825396825395,NA
85208,Maricopa County,AZ,43.65079365079365,NA
85213,Maricopa County,AZ,NA,62.32227488151659
85249,Maricopa County,AZ,44.84126984126984,NA
85344,La Paz County,AZ,35.91269841269841,NA
85374,Maricopa County,AZ,NA,22.03791469194313
85379,Maricopa County,AZ,62.10317460317461,NA
85381,Maricopa County,AZ,62.301587301587304,NA
85546,Graham County,AZ,48.80952380952381,NA
85712,Pima County,AZ,69.64285714285714,NA
85730,Pima County,AZ,57.14285714285714,NA
85742,Pima County,AZ,NA,54.02843601895735
86046,Coconino County,AZ,92.65873015873017,NA
86305,Yavapai County,AZ,NA,40.758293838862556
86314,Yavapai County,AZ,15.674603174603174,NA
86401,Mohave County,AZ,65.87301587301587,9.715639810426541
86442,Mohave County,AZ,25.793650793650798,NA
71730,Union County,AR,45.83333333333333,NA
71923,Clark County,AR,79.96031746031747,NA
72034,Faulkner County,AR,NA,83.41232227488152
72173,Faulkner County,AR,NA,91.70616113744076
72176,Lonoke County,AR,NA,95.73459715639811
72335,St. Francis County,AR,86.70634920634922,NA
72396,Cross County,AR,86.11111111111111,NA
72956,Crawford County,AR,NA,31.753554502369667
90018,Los Angeles County,CA,35.714285714285715,NA
90026,Los Angeles County,CA,45.63492063492063,NA
90065,Los Angeles County,CA,53.769841269841265,NA
90068,Los Angeles County,CA,85.9126984126984,NA
90245,Los Angeles County,CA,NA,68.72037914691943
90247,Los Angeles County,CA,NA,54.976303317535546
90250,Los Angeles County,CA,NA,28.672985781990523
90277,Los Angeles County,CA,NA,36.72985781990521
90278,Los Angeles County,CA,60.11904761904761,NA
90292,Los Angeles County,CA,NA,58.767772511848335
90302,Los Angeles County,CA,89.28571428571429,NA
90638,Los Angeles County,CA,52.976190476190474,NA
90680,Orange County,CA,56.547619047619044,NA
90804,Los Angeles County,CA,43.84920634920635,NA
91214,Los Angeles County,CA,78.57142857142857,NA
91303,Los Angeles County,CA,NA,87.67772511848341
91304,Los Angeles County,CA,48.214285714285715,NA
91326,Los Angeles County,CA,NA,57.81990521327014
91335,Los Angeles County,CA,NA,38.388625592417064
91362,Ventura County,CA,64.0873015873016,NA
91367,Los Angeles County,CA,53.96825396825397,NA
91506,Los Angeles County,CA,NA,89.33649289099526
91607,Los Angeles County,CA,79.36507936507937,NA
91709,San Bernardino County,CA,30.952380952380953,NA
91780,Los Angeles County,CA,NA,66.35071090047393
92008,San Diego County,CA,49.007936507936506,NA
92040,San Diego County,CA,46.62698412698413,NA
92054,San Diego County,CA,42.65873015873016,NA
92071,San Diego County,CA,23.61111111111111,NA
92104,San Diego County,CA,24.801587301587304,NA
92117,San Diego County,CA,NA,59.241706161137444
92223,Riverside County,CA,NA,47.1563981042654
92308,San Bernardino County,CA,NA,30.568720379146917
92345,San Bernardino County,CA,10.317460317460316,NA
92363,San Bernardino County,CA,NA,81.27962085308057
92392,San Bernardino County,CA,NA,35.07109004739337
92407,San Bernardino County,CA,NA,54.739336492891
92509,Riverside County,CA,NA,42.18009478672986
92551,Riverside County,CA,NA,79.38388625592417
92562,Riverside County,CA,24.206349206349206,NA
92585,Riverside County,CA,NA,88.15165876777252
92614,Orange County,CA,NA,67.06161137440758
92618,Orange County,CA,61.30952380952381,NA
92620,Orange County,CA,NA,49.5260663507109
92646,Orange County,CA,24.00793650793651,11.137440758293838
92647,Orange County,CA,NA,25.355450236966824
92660,Orange County,CA,58.333333333333336,NA
92677,Orange County,CA,30.555555555555557,NA
92679,Orange County,CA,NA,66.11374407582939
92683,Orange County,CA,NA,59.95260663507109
92703,Orange County,CA,NA,58.29383886255924
92801,Orange County,CA,31.150793650793652,NA
92831,Orange County,CA,77.97619047619048,NA
92845,Orange County,CA,NA,70.14218009478674
92869,Orange County,CA,82.53968253968253,NA
92886,Orange County,CA,NA,20.61611374407583
92887,Orange County,CA,NA,79.85781990521326
93012,Ventura County,CA,66.46825396825396,NA
93021,Ventura County,CA,57.14285714285714,NA
93234,Fresno County,CA,96.23015873015873,NA
93274,Tulare County,CA,NA,22.748815165876778
93306,Kern County,CA,18.452380952380953,NA
93312,Kern County,CA,37.5,NA
93446,San Luis Obispo County,CA,24.6031746031746,NA
93454,Santa Barbara County,CA,28.174603174603174,NA
93561,Kern County,CA,70.83333333333334,NA
93636,Madera County,CA,86.30952380952381,NA
93703,Fresno County,CA,43.05555555555556,NA
93906,Monterey County,CA,NA,49.28909952606635
93933,Monterey County,CA,63.49206349206349,NA
93940,Monterey County,CA,50.595238095238095,NA
94002,San Mateo County,CA,79.76190476190477,NA
94010,San Mateo County,CA,NA,39.33649289099526
94022,Santa Clara County,CA,91.46825396825396,NA
94043,Santa Clara County,CA,NA,72.03791469194313
94110,San Francisco County,CA,12.5,NA
94121,San Francisco County,CA,NA,44.312796208530806
94131,San Francisco County,CA,84.32539682539682,NA
94401,San Mateo County,CA,91.26984126984127,NA
94563,Contra Costa County,CA,85.11904761904762,NA
94566,Alameda County,CA,NA,43.3649289099526
94568,Alameda County,CA,51.587301587301596,NA
94707,Alameda County,CA,NA,97.39336492890996
94801,Contra Costa County,CA,87.5,NA
94804,Contra Costa County,CA,NA,48.5781990521327
94925,Marin County,CA,NA,95.260663507109
95006,Santa Cruz County,CA,95.83333333333334,NA
95014,Santa Clara County,CA,NA,67.29857819905213
95020,Santa Clara County,CA,NA,35.07109004739337
95117,Santa Clara County,CA,NA,75.11848341232228
95136,Santa Clara County,CA,NA,68.00947867298578
95138,Santa Clara County,CA,88.09523809523809,NA
95206,San Joaquin County,CA,NA,30.33175355450237
95258,San Joaquin County,CA,NA,94.7867298578199
95307,Stanislaus County,CA,NA,52.3696682464455
95336,San Joaquin County,CA,27.380952380952383,NA
95350,Stanislaus County,CA,48.61111111111111,NA
95368,Stanislaus County,CA,78.37301587301587,NA
95501,Humboldt County,CA,NA,40.52132701421801
95519,Humboldt County,CA,71.23015873015873,NA
95521,Humboldt County,CA,81.54761904761905,NA
95648,Placer County,CA,59.12698412698413,NA
95691,Yolo County,CA,51.19047619047619,NA
95834,Sacramento County,CA,69.24603174603175,NA
95842,Sacramento County,CA,84.72222222222221,NA
95928,Butte County,CA,31.746031746031743,NA
95969,Butte County,CA,NA,9.004739336492891
96080,Tehama County,CA,42.26190476190476,NA
80016,Arapahoe County,CO,21.626984126984127,75.59241706161137
80026,Boulder County,CO,82.73809523809523,NA
80108,Douglas County,CO,48.01587301587302,NA
80109,Douglas County,CO,68.25396825396825,NA
80111,Arapahoe County,CO,69.04761904761905,68.00947867298578
80123,Jefferson County,CO,46.62698412698413,NA
80128,Jefferson County,CO,56.94444444444444,NA
80210,Denver County,CO,NA,59.0047393364929
80211,Denver County,CO,35.11904761904761,NA
80218,Denver County,CO,NA,84.12322274881517
80227,Jefferson County,CO,55.55555555555556,NA
80231,Denver County,CO,37.10317460317461,NA
80241,Adams County,CO,53.17460317460318,NA
80304,Boulder County,CO,80.75396825396825,NA
80517,Larimer County,CO,97.22222222222221,NA
80550,Weld County,CO,27.18253968253968,NA
80829,El Paso County,CO,97.42063492063492,NA
80916,El Paso County,CO,34.92063492063492,NA
80921,El Paso County,CO,NA,83.64928909952607
81005,Pueblo County,CO,NA,27.488151658767773
81122,La Plata County,CO,89.88095238095238,NA
81212,Fremont County,CO,38.88888888888889,NA
81230,Gunnison County,CO,NA,96.44549763033176
81303,La Plata County,CO,97.02380952380952,NA
81601,Garfield County,CO,77.57936507936508,NA
06029,Tolland County,CT,NA,69.43127962085308
06066,Tolland County,CT,16.666666666666664,NA
06074,Hartford County,CT,NA,57.58293838862559
06092,Hartford County,CT,99.40476190476191,NA
06424,Middlesex County,CT,75.59523809523809,NA
06470,Fairfield County,CT,NA,84.83412322274881
06776,Litchfield County,CT,NA,37.44075829383886
06804,Fairfield County,CT,NA,60.66350710900474
06820,Fairfield County,CT,90.07936507936508,NA
19709,New Castle County,DE,19.047619047619047,NA
19958,Sussex County,DE,NA,4.502369668246446
19962,Kent County,DE,90.27777777777779,NA
19963,Sussex County,DE,NA,41.943127962085306
19970,Sussex County,DE,NA,63.74407582938388
32066,Lafayette County,FL,96.62698412698413,NA
32068,Clay County,FL,11.904761904761903,NA
32110,Flagler County,FL,87.3015873015873,NA
32137,Flagler County,FL,NA,9.24170616113744
32216,Duval County,FL,49.2063492063492,NA
32244,Duval County,FL,NA,13.033175355450238
32246,Duval County,FL,NA,26.540284360189574
32259,St. Johns County,FL,NA,42.65402843601896
32303,Leon County,FL,NA,51.8957345971564
32533,Escambia County,FL,26.984126984126984,NA
32534,Escambia County,FL,43.452380952380956,NA
32608,Alachua County,FL,6.746031746031746,NA
32726,Lake County,FL,NA,53.317535545023695
32757,Lake County,FL,NA,32.22748815165877
32778,Lake County,FL,57.53968253968254,NA
33025,Broward County,FL,27.579365079365083,NA
33027,Broward County,FL,38.2936507936508,NA
33064,Broward County,FL,NA,99.0521327014218
33131,Miami-Dade County,FL,NA,97.6303317535545
33141,Miami-Dade County,FL,81.74603174603175,NA
33308,Broward County,FL,NA,53.55450236966824
33431,Palm Beach County,FL,NA,85.78199052132702
33469,Palm Beach County,FL,91.86507936507937,NA
33603,Hillsborough County,FL,NA,93.60189573459715
33703,Pinellas County,FL,54.761904761904766,NA
33705,Pinellas County,FL,26.190476190476193,NA
33707,Pinellas County,FL,59.12698412698413,NA
33711,Pinellas County,FL,NA,77.01421800947867
33762,Pinellas County,FL,96.42857142857143,NA
33771,Pinellas County,FL,NA,37.91469194312796
33778,Pinellas County,FL,84.12698412698413,NA
33813,Polk County,FL,58.730158730158735,NA
33844,Polk County,FL,36.507936507936506,NA
33860,Polk County,FL,58.53174603174603,NA
34108,Collier County,FL,87.6984126984127,NA
34119,Collier County,FL,42.06349206349206,NA
34135,Lee County,FL,NA,17.061611374407583
34212,Manatee County,FL,NA,59.47867298578199
34266,DeSoto County,FL,NA,82.70142180094787
34429,Citrus County,FL,92.46031746031747,NA
34452,Citrus County,FL,NA,74.64454976303317
34480,Marion County,FL,90.87301587301587,NA
34491,Marion County,FL,60.317460317460316,NA
34613,Hernando County,FL,NA,38.62559241706161
34669,Pasco County,FL,NA,75.35545023696683
34711,Lake County,FL,20.833333333333336,NA
34736,Lake County,FL,71.62698412698413,NA
34974,Okeechobee County,FL,NA,45.023696682464454
30005,Fulton County,GA,NA,78.67298578199052
30030,DeKalb County,GA,44.44444444444444,NA
30039,Gwinnett County,GA,NA,58.0568720379147
30107,Cherokee County,GA,NA,86.49289099526067
30116,Carroll County,GA,47.023809523809526,NA
30139,Gordon County,GA,NA,99.52606635071089
30263,Coweta County,GA,NA,14.928909952606634
30269,Fayette County,GA,68.45238095238095,NA
30291,Fulton County,GA,NA,74.17061611374407
30528,White County,GA,77.77777777777779,NA
31023,Dodge County,GA,73.01587301587301,NA
31047,Houston County,GA,NA,84.36018957345972
31419,Chatham County,GA,NA,85.07109004739335
31903,Muscogee County,GA,NA,50.4739336492891
31904,Muscogee County,GA,NA,21.80094786729858
83318,Cassia County,ID,83.73015873015873,NA
83340,Blaine County,ID,NA,63.03317535545023
83442,Jefferson County,ID,41.86507936507937,78.90995260663507
83634,Ada County,ID,70.43650793650794,NA
83646,Ada County,ID,NA,39.57345971563981
83672,Washington County,ID,76.98412698412699,NA
83704,Ada County,ID,NA,27.72511848341232
60010,Lake County,IL,37.89682539682539,NA
60013,McHenry County,IL,NA,41.23222748815166
60016,Cook County,IL,NA,13.507109004739338
60026,Cook County,IL,88.88888888888889,NA
60053,Cook County,IL,74.8015873015873,NA
60120,Kane County,IL,25.198412698412696,NA
60175,Kane County,IL,25.595238095238095,NA
60181,DuPage County,IL,NA,33.649289099526065
60184,DuPage County,IL,98.4126984126984,NA
60189,DuPage County,IL,NA,26.77725118483412
60193,Cook County,IL,37.698412698412696,NA
60202,Cook County,IL,57.936507936507944,NA
60401,Will County,IL,NA,82.22748815165876
60403,Will County,IL,NA,45.26066350710901
60435,Will County,IL,NA,12.322274881516588
60453,Cook County,IL,NA,10.90047393364929
60490,Will County,IL,NA,91.23222748815166
60527,DuPage County,IL,49.801587301587304,NA
60540,DuPage County,IL,26.38888888888889,NA
60545,Kendall County,IL,NA,83.88625592417061
60563,DuPage County,IL,45.03968253968254,NA
60619,Cook County,IL,6.15079365079365,NA
61074,Carroll County,IL,88.09523809523809,NA
61107,Winnebago County,IL,NA,36.25592417061612
61244,Rock Island County,IL,NA,93.36492890995261
61265,Rock Island County,IL,NA,34.12322274881517
61364,LaSalle County,IL,54.166666666666664,NA
62341,Hancock County,IL,98.80952380952381,NA
62896,Franklin County,IL,NA,36.018957345971565
46041,Clinton County,IN,31.349206349206348,NA
46060,Hamilton County,IN,28.968253968253972,NA
46214,Marion County,IN,NA,50.947867298578196
46220,Marion County,IN,73.4126984126984,NA
46222,Marion County,IN,NA,31.516587677725116
46231,Marion County,IN,84.52380952380952,NA
46321,Lake County,IN,32.53968253968254,NA
46327,Lake County,IN,NA,86.7298578199052
46368,Porter County,IN,NA,0.9478672985781991
46383,Porter County,IN,7.341269841269842,NA
46385,Porter County,IN,NA,27.014218009478675
46403,Lake County,IN,66.86507936507937,NA
46410,Lake County,IN,26.785714285714285,NA
46619,St. Joseph County,IN,NA,71.09004739336493
46750,Huntington County,IN,NA,66.58767772511848
46902,Howard County,IN,3.1746031746031744,NA
47001,Dearborn County,IN,80.35714285714286,NA
47130,Clark County,IN,9.920634920634921,NA
47201,Bartholomew County,IN,11.706349206349206,NA
47546,Dubois County,IN,50.99206349206349,NA
47714,Vanderburgh County,IN,NA,22.274881516587676
50588,Buena Vista County,IA,39.682539682539684,NA
51632,Page County,IA,74.40476190476191,NA
52803,Scott County,IA,32.93650793650794,NA
66104,Wyandotte County,KS,NA,49.052132701421804
66213,Johnson County,KS,NA,81.99052132701422
66502,Riley County,KS,72.22222222222221,72.74881516587678
66503,Riley County,KS,NA,89.81042654028435
66606,Shawnee County,KS,80.15873015873017,NA
66762,Crawford County,KS,NA,55.21327014218009
66901,Cloud County,KS,88.4920634920635,NA
67025,Sedgwick County,KS,NA,99.28909952606635
67042,Butler County,KS,NA,67.53554502369668
67871,Scott County,KS,63.49206349206349,NA
40216,Jefferson County,KY,9.325396825396826,NA
41042,Boone County,KY,5.357142857142857,NA
41073,Campbell County,KY,93.84920634920636,NA
41075,Campbell County,KY,68.84920634920636,NA
41572,Pike County,KY,76.78571428571429,NA
42103,Warren County,KY,61.904761904761905,NA
42303,Daviess County,KY,NA,22.985781990521325
42743,Green County,KY,66.07142857142857,NA
70003,Jefferson Parish,LA,NA,3.3175355450236967
70119,Orleans Parish,LA,NA,40.047393364928915
70127,Orleans Parish,LA,NA,33.175355450236964
70345,Lafourche Parish,LA,NA,52.13270142180095
70435,St. Tammany Parish,LA,17.857142857142858,NA
70601,Calcasieu Parish,LA,NA,10.42654028436019
70737,Ascension Parish,LA,NA,55.92417061611374
70817,East Baton Rouge Parish,LA,NA,18.246445497630333
71112,Bossier Parish,LA,NA,64.69194312796208
71251,Jackson Parish,LA,85.71428571428571,NA
71373,Concordia Parish,LA,80.75396825396825,NA
04462,Penobscot County,ME,83.53174603174604,NA
04901,Kennebec County,ME,4.563492063492063,NA
20650,St. Mary's County,MD,NA,89.0995260663507
20721,Prince George's County,MD,73.21428571428571,NA
20735,Prince George's County,MD,NA,71.80094786729858
20772,Prince George's County,MD,NA,55.687203791469194
20783,Prince George's County,MD,79.16666666666666,NA
20853,Montgomery County,MD,78.17460317460318,NA
20902,Montgomery County,MD,66.66666666666666,NA
20910,Montgomery County,MD,NA,83.17535545023696
21216,Baltimore city,MD,33.33333333333333,NA
21228,Baltimore County,MD,NA,14.218009478672986
21771,Frederick County,MD,62.89682539682539,69.66824644549763
21774,Frederick County,MD,86.30952380952381,NA
21921,Cecil County,MD,NA,7.345971563981042
01040,Hampden County,MA,NA,0
01453,Worcester County,MA,NA,0.23696682464454977
01524,Worcester County,MA,71.03174603174604,NA
01604,Worcester County,MA,NA,1.4218009478672986
01609,Worcester County,MA,NA,6.398104265402843
01775,Middlesex County,MA,NA,88.38862559241706
01844,Essex County,MA,0.992063492063492,NA
01852,Middlesex County,MA,1.5873015873015872,NA
01867,Middlesex County,MA,25,11.848341232227488
02081,Norfolk County,MA,20.238095238095237,NA
02129,Suffolk County,MA,2.976190476190476,NA
02148,Middlesex County,MA,0,NA
02155,Middlesex County,MA,NA,0.47393364928909953
02184,Norfolk County,MA,NA,9.47867298578199
02189,Norfolk County,MA,22.023809523809522,NA
02324,Plymouth County,MA,11.30952380952381,NA
02351,Plymouth County,MA,15.079365079365079,NA
02478,Middlesex County,MA,21.825396825396826,NA
02532,Barnstable County,MA,52.77777777777778,NA
02554,Nantucket County,MA,NA,56.872037914691944
02571,Plymouth County,MA,12.896825396825399,NA
02601,Barnstable County,MA,4.166666666666666,NA
02771,Bristol County,MA,37.301587301587304,NA
02777,Bristol County,MA,NA,15.876777251184834
02780,Bristol County,MA,67.65873015873017,NA
48009,Oakland County,MI,49.60317460317461,NA
48030,Oakland County,MI,NA,64.21800947867298
48042,Macomb County,MI,20.436507936507937,NA
48060,St. Clair County,MI,2.380952380952381,NA
48101,Wayne County,MI,NA,32.46445497630332
48105,Washtenaw County,MI,NA,16.824644549763033
48111,Wayne County,MI,NA,7.5829383886255926
48154,Wayne County,MI,23.015873015873016,NA
48158,Washtenaw County,MI,72.81746031746032,NA
48166,Monroe County,MI,41.46825396825397,NA
48174,Wayne County,MI,6.547619047619048,NA
48182,Monroe County,MI,59.72222222222222,NA
48205,Wayne County,MI,3.7698412698412698,NA
48240,Wayne County,MI,18.650793650793652,NA
48310,Macomb County,MI,NA,14.691943127962084
48317,Macomb County,MI,20.634920634920633,NA
48380,Oakland County,MI,81.34920634920636,NA
48390,Oakland County,MI,36.904761904761905,NA
48430,Genesee County,MI,23.41269841269841,NA
48433,Genesee County,MI,NA,25.59241706161137
48471,Sanilac County,MI,73.4126984126984,NA
48642,Midland County,MI,17.261904761904763,NA
48650,Bay County,MI,NA,72.98578199052133
48843,Livingston County,MI,NA,4.739336492890995
48864,Ingham County,MI,70.03968253968253,NA
48910,Ingham County,MI,11.507936507936508,NA
49010,Allegan County,MI,42.46031746031746,50.23696682464455
49017,Calhoun County,MI,60.912698412698404,NA
49078,Allegan County,MI,NA,87.91469194312796
49201,Jackson County,MI,8.73015873015873,NA
49302,Kent County,MI,89.48412698412699,NA
49319,Kent County,MI,NA,64.45497630331754
49327,Newaygo County,MI,NA,79.62085308056872
49345,Kent County,MI,NA,60.90047393364929
49401,Ottawa County,MI,55.75396825396825,NA
49418,Kent County,MI,36.30952380952381,NA
49431,Mason County,MI,NA,28.436018957345972
49461,Muskegon County,MI,72.42063492063492,NA
49504,Kent County,MI,13.88888888888889,NA
49746,Montmorency County,MI,91.07142857142857,NA
49916,Houghton County,MI,NA,98.81516587677726
55318,Carver County,MN,55.952380952380956,NA
55343,Hennepin County,MN,NA,45.7345971563981
55423,Hennepin County,MN,NA,44.78672985781991
55443,Hennepin County,MN,28.76984126984127,NA
55720,Carlton County,MN,NA,48.81516587677725
55802,St. Louis County,MN,NA,98.5781990521327
55805,St. Louis County,MN,NA,72.51184834123224
55811,St. Louis County,MN,NA,5.924170616113744
56308,Douglas County,MN,NA,14.454976303317535
38654,DeSoto County,MS,22.023809523809522,NA
39095,Holmes County,MS,83.92857142857143,NA
39307,Lauderdale County,MS,69.44444444444444,NA
39401,Forrest County,MS,29.365079365079367,NA
39744,Webster County,MS,92.85714285714286,NA
63104,St. Louis city,MO,54.563492063492056,NA
63122,St. Louis County,MO,NA,27.96208530805687
63301,St. Charles County,MO,13.095238095238097,NA
63368,St. Charles County,MO,40.476190476190474,NA
63863,Dunklin County,MO,NA,90.04739336492891
64015,Jackson County,MO,12.698412698412698,NA
64060,Clay County,MO,84.92063492063492,NA
64064,Jackson County,MO,50,NA
64068,Clay County,MO,8.333333333333332,NA
64081,Jackson County,MO,NA,43.838862559241704
64086,Jackson County,MO,65.27777777777779,NA
64110,Jackson County,MO,33.730158730158735,NA
64112,Jackson County,MO,74.20634920634922,NA
64116,Clay County,MO,55.158730158730165,NA
64119,Clay County,MO,10.714285714285714,NA
64127,Jackson County,MO,5.753968253968254,NA
64150,Platte County,MO,NA,94.07582938388626
64157,Clay County,MO,30.753968253968257,NA
64772,Vernon County,MO,NA,56.6350710900474
65301,Pettis County,MO,NA,10.189573459715639
65340,Saline County,MO,NA,65.40284360189574
65351,Saline County,MO,98.01587301587301,NA
65355,Benton County,MO,NA,23.933649289099527
59801,Missoula County,MT,60.912698412698404,NA
68111,Douglas County,NE,18.055555555555554,NA
68114,Douglas County,NE,76.98412698412699,NA
68118,Douglas County,NE,NA,95.02369668246445
68127,Douglas County,NE,NA,77.96208530805687
68516,Lancaster County,NE,64.48412698412699,NA
68701,Madison County,NE,NA,77.25118483412322
68801,Hall County,NE,82.14285714285714,NA
69337,Dawes County,NE,NA,86.01895734597157
89149,Clark County,NV,NA,56.16113744075829
89169,Clark County,NV,NA,96.91943127962085
03034,Rockingham County,NH,NA,98.34123222748815
03051,Hillsborough County,NH,NA,22.511848341232227
03820,Strafford County,NH,NA,76.06635071090048
07008,Middlesex County,NJ,56.34920634920635,NA
07011,Passaic County,NJ,NA,29.620853080568722
07024,Bergen County,NJ,NA,47.39336492890995
07040,Essex County,NJ,75.1984126984127,NA
07305,Hudson County,NJ,0.3968253968253968,NA
07407,Bergen County,NJ,NA,96.2085308056872
07410,Bergen County,NJ,NA,29.14691943127962
07417,Bergen County,NJ,85.51587301587301,NA
07501,Passaic County,NJ,NA,18.48341232227488
07621,Bergen County,NJ,NA,66.82464454976304
07644,Bergen County,NJ,NA,35.78199052132701
07650,Bergen County,NJ,NA,91.70616113744076
07701,Monmouth County,NJ,45.23809523809524,NA
07753,Monmouth County,NJ,NA,11.61137440758294
07830,Hunterdon County,NJ,95.23809523809523,NA
07840,Warren County,NJ,NA,34.360189573459714
08028,Gloucester County,NJ,NA,59.71563981042654
08062,Gloucester County,NJ,34.72222222222222,NA
08077,Burlington County,NJ,29.96031746031746,NA
08094,Gloucester County,NJ,NA,13.270142180094787
08096,Gloucester County,NJ,NA,11.374407582938389
08302,Cumberland County,NJ,1.1904761904761905,NA
08505,Burlington County,NJ,NA,61.37440758293838
08520,Mercer County,NJ,NA,65.87677725118483
08527,Ocean County,NJ,8.928571428571429,NA
08753,Ocean County,NJ,90.47619047619048,NA
08817,Middlesex County,NJ,94.44444444444444,NA
08820,Middlesex County,NJ,45.43650793650794,28.90995260663507
08865,Warren County,NJ,4.365079365079365,NA
08886,Warren County,NJ,81.94444444444444,NA
87031,Valencia County,NM,25.992063492063494,NA
87114,Bernalillo County,NM,7.936507936507936,NA
87121,Bernalillo County,NM,3.968253968253968,6.6350710900473935
87547,,NM,82.93650793650794,NA
88012,Doa Ana County,NM,31.547619047619047,NA
88203,Chaves County,NM,NA,21.32701421800948
88310,Otero County,NM,NA,4.265402843601896
10029,New York County,NY,NA,5.450236966824645
10030,New York County,NY,21.428571428571427,NA
10033,New York County,NY,15.277777777777779,NA
10044,New York County,NY,93.45238095238095,NA
10309,Richmond County,NY,56.15079365079365,NA
10451,Bronx County,NY,NA,7.819905213270142
10463,Bronx County,NY,NA,3.7914691943127963
10512,Putnam County,NY,NA,71.32701421800948
10598,Westchester County,NY,91.46825396825396,NA
11211,Kings County,NY,13.293650793650794,NA
11214,Kings County,NY,14.682539682539684,NA
11234,Kings County,NY,NA,13.744075829383887
11236,Kings County,NY,18.849206349206348,NA
11377,Queens County,NY,47.42063492063492,NA
11420,Queens County,NY,NA,41.46919431279621
11421,Queens County,NY,NA,60.18957345971564
11422,Queens County,NY,66.26984126984127,NA
11429,Queens County,NY,NA,34.834123222748815
11598,Nassau County,NY,NA,90.99526066350711
11702,Suffolk County,NY,93.65079365079364,NA
11757,Suffolk County,NY,41.66666666666667,NA
12078,Fulton County,NY,NA,65.16587677725119
12122,Schoharie County,NY,70.63492063492063,NA
12180,Rensselaer County,NY,NA,10.42654028436019
12206,Albany County,NY,17.46031746031746,NA
12309,Schenectady County,NY,69.84126984126983,NA
12533,Dutchess County,NY,NA,88.62559241706161
12771,Orange County,NY,NA,80.56872037914692
12779,Sullivan County,NY,99.8015873015873,NA
12804,Warren County,NY,NA,12.559241706161137
12866,Saratoga County,NY,NA,12.085308056872037
12901,Clinton County,NY,NA,53.79146919431279
12912,Clinton County,NY,90.67460317460318,NA
12926,Franklin County,NY,NA,97.6303317535545
12944,Essex County,NY,NA,86.25592417061611
13027,Onondaga County,NY,NA,19.194312796208532
13030,Madison County,NY,NA,95.49763033175356
13032,Madison County,NY,29.761904761904763,NA
13039,Onondaga County,NY,NA,67.77251184834124
13045,Cortland County,NY,3.373015873015873,NA
13077,Cortland County,NY,82.34126984126983,NA
13212,Onondaga County,NY,62.698412698412696,NA
13491,Herkimer County,NY,NA,90.75829383886256
13601,Jefferson County,NY,19.841269841269842,NA
13790,Broome County,NY,NA,9.95260663507109
13820,Otsego County,NY,33.53174603174603,8.530805687203792
13905,Broome County,NY,NA,4.976303317535545
14057,Erie County,NY,76.38888888888889,NA
14063,Chautauqua County,NY,39.48412698412698,NA
14085,Erie County,NY,80.55555555555556,NA
14098,Orleans County,NY,89.48412698412699,NA
14105,Niagara County,NY,NA,85.54502369668246
14120,Niagara County,NY,NA,8.056872037914692
14132,Niagara County,NY,NA,82.93838862559242
14150,Erie County,NY,NA,6.161137440758294
14217,Erie County,NY,23.809523809523807,NA
14223,Erie County,NY,NA,43.60189573459716
14224,Erie County,NY,5.158730158730158,NA
14305,Niagara County,NY,NA,39.09952606635071
14411,Orleans County,NY,NA,45.97156398104265
14424,Ontario County,NY,2.1825396825396823,NA
14450,Monroe County,NY,NA,15.165876777251185
14512,Ontario County,NY,72.61904761904762,NA
14534,Monroe County,NY,NA,1.1848341232227488
14564,Ontario County,NY,NA,19.431279620853083
14580,Monroe County,NY,0.7936507936507936,NA
14589,Wayne County,NY,32.142857142857146,NA
14612,Monroe County,NY,27.77777777777778,NA
14618,Monroe County,NY,15.476190476190476,NA
14621,Monroe County,NY,NA,1.6587677725118484
14760,Cattaraugus County,NY,10.119047619047619,NA
27028,Davie County,NC,14.285714285714285,NA
27105,Forsyth County,NC,NA,2.3696682464454977
27258,Alamance County,NC,93.05555555555556,NA
27295,Davidson County,NC,NA,3.080568720379147
27320,Rockingham County,NC,11.11111111111111,NA
27409,Guilford County,NC,83.33333333333334,NA
27513,Wake County,NC,58.730158730158735,NA
27571,Wake County,NC,95.63492063492063,NA
27610,Wake County,NC,NA,7.109004739336493
27834,Pitt County,NC,NA,17.298578199052134
27886,Edgecombe County,NC,34.32539682539682,NA
28034,Gaston County,NC,NA,73.69668246445498
28056,Gaston County,NC,NA,53.08056872037915
28465,Brunswick County,NC,95.23809523809523,NA
28480,New Hanover County,NC,NA,100
58503,Burleigh County,ND,NA,31.04265402843602
58504,Burleigh County,ND,51.78571428571429,NA
43110,Franklin County,OH,22.023809523809522,NA
43123,Franklin County,OH,NA,61.61137440758294
43130,Fairfield County,OH,NA,2.132701421800948
43147,Fairfield County,OH,22.817460317460316,NA
43219,Franklin County,OH,14.484126984126986,NA
43302,Marion County,OH,NA,23.459715639810426
43465,Wood County,OH,NA,73.22274881516587
43512,Defiance County,OH,3.571428571428571,NA
43537,Lucas County,OH,NA,15.402843601895736
43558,Fulton County,OH,NA,52.60663507109005
43701,Muskingum County,OH,6.349206349206349,NA
43906,Belmont County,OH,46.03174603174603,NA
44035,Lorain County,OH,0.1984126984126984,NA
44053,Lorain County,OH,NA,6.872037914691943
44070,Cuyahoga County,OH,NA,5.687203791469194
44077,Lake County,OH,2.7777777777777777,NA
44095,Lake County,OH,50.39682539682539,NA
44107,Cuyahoga County,OH,1.3888888888888888,NA
44139,Cuyahoga County,OH,40.07936507936508,NA
44203,Summit County,OH,5.555555555555555,NA
44236,Summit County,OH,NA,25.829383886255926
44241,Portage County,OH,28.373015873015873,25.118483412322274
44256,Medina County,OH,NA,0.47393364928909953
44266,Portage County,OH,9.126984126984127,NA
44420,Trumbull County,OH,NA,55.45023696682464
44646,Stark County,OH,9.523809523809524,NA
44677,Wayne County,OH,99.60317460317461,NA
44705,Stark County,OH,55.35714285714286,NA
44706,Stark County,OH,30.158730158730158,NA
44720,Stark County,OH,NA,23.696682464454977
45005,Warren County,OH,8.531746031746032,NA
45011,Butler County,OH,1.7857142857142856,NA
45013,Butler County,OH,2.579365079365079,2.843601895734597
45014,Butler County,OH,NA,23.22274881516588
45030,Hamilton County,OH,NA,56.39810426540285
45056,Butler County,OH,NA,78.19905213270142
45103,Clermont County,OH,24.404761904761905,NA
45133,Highland County,OH,18.253968253968253,24.170616113744074
45140,Clermont County,OH,22.61904761904762,NA
45152,Warren County,OH,NA,84.59715639810426
45217,Hamilton County,OH,83.13492063492063,NA
45255,Hamilton County,OH,NA,51.18483412322274
45338,Preble County,OH,NA,93.12796208530806
45417,Montgomery County,OH,8.134920634920634,17.77251184834123
45420,Montgomery County,OH,56.74603174603175,NA
45424,Montgomery County,OH,10.515873015873016,NA
45440,Montgomery County,OH,58.13492063492064,NA
45601,Ross County,OH,0.5952380952380952,NA
45692,Jackson County,OH,32.73809523809524,NA
45891,Van Wert County,OH,26.58730158730159,28.199052132701425
73034,Oklahoma County,OK,NA,16.113744075829384
73044,Logan County,OK,NA,15.639810426540285
73049,Oklahoma County,OK,93.05555555555556,NA
73071,Cleveland County,OK,NA,16.587677725118482
73116,Oklahoma County,OK,NA,85.30805687203792
73122,Oklahoma County,OK,NA,77.48815165876776
73159,Oklahoma County,OK,44.24603174603175,NA
73160,Cleveland County,OK,NA,5.213270142180095
73401,Carter County,OK,NA,12.796208530805686
73507,Comanche County,OK,NA,32.93838862559242
74006,Washington County,OK,52.57936507936508,NA
74075,Payne County,OK,NA,63.270142180094794
74114,Tulsa County,OK,85.31746031746032,NA
74361,Mayes County,OK,NA,68.48341232227489
74701,Bryan County,OK,NA,58.53080568720379
74728,McCurtain County,OK,76.5873015873016,NA
74820,Pontotoc County,OK,7.5396825396825395,NA
97068,Clackamas County,OR,NA,61.61137440758294
97236,Multnomah County,OR,NA,30.09478672985782
97306,Marion County,OR,54.36507936507936,NA
97367,Lincoln County,OR,NA,36.96682464454976
97439,Lane County,OR,NA,27.251184834123222
97467,Douglas County,OR,NA,72.03791469194313
97603,Klamath County,OR,NA,34.59715639810427
97759,Deschutes County,OR,NA,93.8388625592417
97814,Baker County,OR,41.269841269841265,NA
15012,Westmoreland County,PA,59.523809523809526,NA
15017,Allegheny County,PA,NA,80.33175355450237
15068,Westmoreland County,PA,17.063492063492063,NA
15108,Allegheny County,PA,38.095238095238095,19.90521327014218
15425,Fayette County,PA,27.976190476190478,NA
15801,Clearfield County,PA,7.142857142857142,NA
15904,Cambria County,PA,57.738095238095234,NA
15931,Cambria County,PA,NA,65.63981042654028
16504,Erie County,PA,94.04761904761905,NA
16506,Erie County,PA,NA,69.19431279620854
16678,Bedford County,PA,97.81746031746032,NA
17019,York County,PA,62.89682539682539,NA
17033,Dauphin County,PA,NA,24.881516587677723
17036,Dauphin County,PA,NA,49.763033175355446
17043,Cumberland County,PA,87.89682539682539,NA
17046,Lebanon County,PA,9.722222222222223,NA
17070,Cumberland County,PA,NA,48.1042654028436
17112,Dauphin County,PA,15.873015873015872,NA
17345,York County,PA,67.85714285714286,NA
17356,York County,PA,NA,46.682464454976305
17401,York County,PA,NA,92.41706161137441
17866,Northumberland County,PA,60.51587301587301,NA
18020,Northampton County,PA,NA,32.70142180094787
18103,Lehigh County,PA,4.9603174603174605,NA
18104,Lehigh County,PA,42.857142857142854,4.028436018957346
18301,Monroe County,PA,32.34126984126984,NA
18914,Bucks County,PA,81.15079365079364,NA
19006,Montgomery County,PA,47.22222222222222,NA
19046,Montgomery County,PA,NA,64.92890995260665
19053,Bucks County,PA,28.57142857142857,NA
19355,Chester County,PA,NA,47.867298578199055
19380,Chester County,PA,38.492063492063494,NA
19403,Montgomery County,PA,16.865079365079367,NA
19446,Montgomery County,PA,62.5,NA
19520,Chester County,PA,NA,90.28436018957346
19565,Berks County,PA,76.19047619047619,NA
02920,Providence County,RI,NA,18.95734597156398
29210,Richland County,SC,40.27777777777778,NA
29307,Spartanburg County,SC,59.72222222222222,NA
29323,Spartanburg County,SC,52.182539682539684,NA
29340,Cherokee County,SC,NA,57.345971563981045
29403,Charleston County,SC,NA,68.95734597156398
29455,Charleston County,SC,NA,37.677725118483416
29550,Darlington County,SC,39.682539682539684,NA
29609,Greenville County,SC,39.08730158730159,NA
29642,Pickens County,SC,30.357142857142854,NA
29653,Greenwood County,SC,94.64285714285714,NA
29690,Greenville County,SC,NA,41.70616113744076
29715,York County,SC,65.47619047619048,NA
29732,York County,SC,29.166666666666668,NA
29847,Edgefield County,SC,86.90476190476191,NA
57049,Union County,SD,95.03968253968253,NA
57078,Yankton County,SD,NA,63.507109004739334
57106,Minnehaha County,SD,21.23015873015873,NA
57110,Minnehaha County,SD,51.388888888888886,NA
57702,Pennington County,SD,NA,20.379146919431278
57703,Pennington County,SD,NA,81.75355450236967
57718,Meade County,SD,100,NA
37046,Williamson County,TN,99.0079365079365,NA
37075,Sumner County,TN,63.888888888888886,NA
37085,Rutherford County,TN,NA,99.76303317535546
37087,Wilson County,TN,16.071428571428573,NA
37101,Humphreys County,TN,71.42857142857143,NA
37174,Williamson County,TN,NA,42.89099526066351
37217,Davidson County,TN,40.67460317460318,NA
37302,Hamilton County,TN,99.20634920634922,NA
37322,Meigs County,TN,60.51587301587301,NA
37331,McMinn County,TN,NA,78.43601895734598
37355,Coffee County,TN,NA,54.2654028436019
37659,Washington County,TN,34.12698412698413,NA
37660,Sullivan County,TN,7.738095238095238,NA
37771,Loudon County,TN,NA,60.426540284360186
37804,Blount County,TN,NA,21.563981042654028
37861,Grainger County,TN,77.38095238095238,NA
37873,Hawkins County,TN,91.86507936507937,NA
37917,Knox County,TN,NA,26.303317535545023
38002,Shelby County,TN,65.67460317460318,NA
38125,Shelby County,TN,51.98412698412699,NA
38201,Carroll County,TN,75.79365079365078,NA
38351,Henderson County,TN,50,NA
38401,Maury County,TN,NA,8.767772511848342
75002,Collin County,TX,52.38095238095239,NA
75010,Denton County,TX,64.28571428571429,NA
75013,Collin County,TX,NA,90.52132701421802
75034,Denton County,TX,35.51587301587302,NA
75082,Collin County,TX,NA,47.39336492890995
75181,Dallas County,TX,NA,81.27962085308057
75201,Dallas County,TX,75.39682539682539,NA
75211,Dallas County,TX,NA,26.066350710900476
75229,Dallas County,TX,NA,51.65876777251185
75243,Dallas County,TX,13.492063492063492,NA
75605,Gregg County,TX,NA,43.127962085308056
76031,Johnson County,TX,63.29365079365079,NA
76036,Tarrant County,TX,NA,62.55924170616114
76048,Hood County,TX,NA,35.54502369668246
76053,Tarrant County,TX,39.285714285714285,NA
76058,Johnson County,TX,53.57142857142857,NA
76065,Ellis County,TX,NA,40.758293838862556
76067,Palo Pinto County,TX,NA,61.137440758293835
76087,Parker County,TX,NA,46.44549763033176
76106,Tarrant County,TX,NA,24.644549763033176
76119,Tarrant County,TX,6.944444444444445,NA
76182,Tarrant County,TX,NA,38.862559241706165
76234,Wise County,TX,NA,63.74407582938388
76273,Grayson County,TX,NA,92.89099526066352
77069,Harris County,TX,NA,50.71090047393365
77075,Harris County,TX,48.41269841269841,NA
77339,Harris County,TX,94.84126984126983,NA
77346,Harris County,TX,NA,39.81042654028436
77380,Montgomery County,TX,NA,62.796208530805686
77381,Montgomery County,TX,65.07936507936508,NA
77389,Harris County,TX,88.69047619047619,NA
77414,Matagorda County,TX,NA,46.91943127962085
77437,Wharton County,TX,61.50793650793651,NA
77450,Harris County,TX,36.11111111111111,NA
77469,Fort Bend County,TX,NA,73.45971563981043
77535,Liberty County,TX,NA,51.421800947867304
77539,Galveston County,TX,17.658730158730158,NA
77566,Brazoria County,TX,49.404761904761905,NA
77573,Galveston County,TX,53.37301587301587,NA
77803,Brazos County,TX,NA,50
77836,Burleson County,TX,64.88095238095238,NA
78028,Kerr County,TX,NA,18.009478672985782
78045,Webb County,TX,NA,36.492890995260666
78102,Bee County,TX,NA,75.82938388625593
78130,Comal County,TX,NA,24.407582938388625
78154,Guadalupe County,TX,NA,77.72511848341233
78209,Bexar County,TX,61.50793650793651,NA
78227,Bexar County,TX,67.46031746031747,NA
78374,San Patricio County,TX,NA,95.97156398104265
78641,Williamson County,TX,19.444444444444446,20.85308056872038
78722,Travis County,TX,98.61111111111111,NA
78751,Travis County,TX,96.82539682539682,NA
78957,Bastrop County,TX,NA,88.86255924170617
79336,Hockley County,TX,68.65079365079364,NA
79339,Lamb County,TX,NA,98.10426540284361
79512,Mitchell County,TX,NA,86.96682464454977
79705,Midland County,TX,NA,38.15165876777251
79765,Ector County,TX,NA,94.3127962085308
79930,El Paso County,TX,NA,76.54028436018957
79934,El Paso County,TX,78.96825396825396,NA
79936,El Paso County,TX,12.103174603174603,NA
84040,Davis County,UT,NA,86.96682464454977
84041,Davis County,UT,34.523809523809526,NA
84084,Salt Lake County,UT,73.80952380952381,NA
84105,Salt Lake County,UT,74.40476190476191,NA
84119,Salt Lake County,UT,12.3015873015873,NA
84123,Salt Lake County,UT,19.642857142857142,NA
84129,,UT,NA,89.57345971563981
84770,Washington County,UT,36.507936507936506,NA
84790,Washington County,UT,43.25396825396825,NA
05401,Chittenden County,VT,NA,52.843601895734594
05491,Addison County,VT,NA,82.46445497630332
20120,Fairfax County,VA,50.79365079365079,NA
20136,Prince William County,VA,67.26190476190477,NA
20152,Loudoun County,VA,75,NA
20181,Prince William County,VA,96.03174603174604,NA
20191,Fairfax County,VA,89.0873015873016,NA
22003,Fairfax County,VA,NA,29.383886255924168
22102,Fairfax County,VA,NA,80.09478672985783
22191,Prince William County,VA,NA,33.41232227488152
22302,Alexandria city,VA,64.68253968253968,NA
22305,Alexandria city,VA,72.02380952380952,NA
22308,Fairfax County,VA,78.76984126984127,NA
22630,Warren County,VA,23.214285714285715,NA
22701,Culpeper County,VA,NA,21.09004739336493
23103,Goochland County,VA,NA,92.41706161137441
23222,Richmond city,VA,16.26984126984127,NA
23233,Henrico County,VA,79.56349206349206,NA
23464,Virginia Beach city,VA,14.880952380952381,2.6066350710900474
23503,Norfolk city,VA,46.230158730158735,NA
23666,Hampton city,VA,10.912698412698413,NA
23669,Hampton city,VA,21.03174603174603,NA
24018,Roanoke County,VA,46.42857142857143,NA
24054,Henry County,VA,NA,91.4691943127962
24210,Washington County,VA,33.13492063492063,NA
24273,Norton city,VA,NA,76.77725118483413
24382,Wythe County,VA,44.642857142857146,NA
24401,Staunton city,VA,NA,8.293838862559241
24577,Halifax County,VA,92.26190476190477,NA
98023,King County,WA,NA,16.350710900473935
98155,King County,WA,44.047619047619044,NA
98226,Whatcom County,WA,NA,42.41706161137441
98251,Snohomish County,WA,97.61904761904762,NA
98367,Kitsap County,WA,47.817460317460316,NA
98408,Pierce County,WA,NA,62.08530805687204
98664,Clark County,WA,NA,71.56398104265402
98926,Kittitas County,WA,NA,40.28436018957346
99205,Spokane County,WA,38.69047619047619,NA
20002,District of Columbia,DC,4.761904761904762,NA
20007,District of Columbia,DC,75.9920634920635,NA
25213,Putnam County,WV,NA,92.18009478672985
25404,Berkeley County,WV,NA,45.497630331753555
25430,Jefferson County,WV,67.06349206349206,NA
26104,Wood County,WV,33.92857142857143,NA
26452,Lewis County,WV,NA,33.88625592417062
26582,Marion County,WV,87.10317460317461,NA
26753,Mineral County,WV,NA,87.44075829383885
53066,Waukesha County,WI,NA,13.981042654028435
53074,Ozaukee County,WI,NA,76.30331753554502
53144,Kenosha County,WI,NA,31.27962085308057
53158,Kenosha County,WI,NA,30.80568720379147
53172,Milwaukee County,WI,NA,44.312796208530806
53185,Racine County,WI,NA,57.10900473933649
53190,Walworth County,WI,NA,94.54976303317537
53205,Milwaukee County,WI,1.984126984126984,NA
53208,Milwaukee County,WI,NA,31.753554502369667
53216,Milwaukee County,WI,5.952380952380952,NA
53217,Milwaukee County,WI,NA,29.85781990521327
53402,Racine County,WI,NA,1.8957345971563981
53405,Racine County,WI,NA,3.5545023696682465
53406,Racine County,WI,13.690476190476192,NA
53511,Rock County,WI,NA,19.66824644549763
53546,Rock County,WI,16.46825396825397,NA
53711,Dane County,WI,NA,17.298578199052134
54016,St. Croix County,WI,74.0079365079365,NA
54121,Florence County,WI,NA,96.6824644549763
54153,Oconto County,WI,71.82539682539682,NA
54166,Shawano County,WI,68.05555555555556,NA
54220,Manitowoc County,WI,NA,20.14218009478673
54409,Langlade County,WI,35.317460317460316,NA
54476,Marathon County,WI,NA,70.85308056872039
54487,Lincoln County,WI,NA,48.34123222748815
54701,Eau Claire County,WI,40.87301587301587,NA
54703,Eau Claire County,WI,19.246031746031747,NA
54755,Buffalo County,WI,NA,79.14691943127961
54880,Douglas County,WI,14.087301587301587,NA
54961,Waupaca County,WI,54.96031746031746,NA
