ZipCode,county,state,Adult
35759,Madison County,AL,95.46827794561933
36610,Mobile County,AL,73.111782477341393
99516,Anchorage Municipality,AK,83.38368580060424
85044,Maricopa County,AZ,25.981873111782477
85128,Pinal County,AZ,50.15105740181269
85210,Maricopa County,AZ,31.419939577039273
85345,Maricopa County,AZ,16.61631419939577
85530,Graham County,AZ,90.6344410876133
90003,Los Angeles County,CA,77.64350453172206
90262,Los Angeles County,CA,44.41087613293052
91786,San Bernardino County,CA,41.08761329305136
92337,San Bernardino County,CA,67.6737160120846
92595,Riverside County,CA,51.057401812688816
92620,Orange County,CA,54.0785498489426
92692,Orange County,CA,49.244712990936556
93033,Ventura County,CA,15.105740181268882
93307,Kern County,CA,53.776435045317214
93436,Santa Barbara County,CA,21.148036253776432
93706,Fresno County,CA,31.1178247734139
93905,Monterey County,CA,46.82779456193353
94533,Solano County,CA,86.70694864048339
95954,Butte County,CA,51.3595166163142
80017,Arapahoe County,CO,47.43202416918429
80134,Douglas County,CO,35.34743202416919
80403,Jefferson County,CO,92.44712990936556
80602,Adams County,CO,56.49546827794561
80916,El Paso County,CO,45.9214501510574
81403,Montrose County,CO,84.29003021148036
19801,New Castle County,DE,47.73413897280967
19802,New Castle County,DE,55.58912386706949
19809,New Castle County,DE,67.97583081570997
19977,Kent County,DE,32.02416918429003
32207,Duval County,FL,58.610271903323266
32210,Duval County,FL,3.0211480362537766
32225,Duval County,FL,38.066465256797585
32348,Taylor County,FL,82.77945619335347
32569,Okaloosa County,FL,93.05135951661632
32570,Santa Rosa County,FL,11.48036253776435
32626,Levy County,FL,94.25981873111783
32641,Alachua County,FL,34.44108761329305
32707,Seminole County,FL,77.34138972809667
32773,Seminole County,FL,57.70392749244713
32792,Orange County,FL,68.58006042296071
32808,Orange County,FL,20.84592145015106
32811,Orange County,FL,30.815709969788518
32826,Orange County,FL,86.10271903323263
32839,Orange County,FL,37.46223564954683
32907,Brevard County,FL,81.57099697885197
33033,Miami-Dade County,FL,52.567975830815705
33056,Miami-Dade County,FL,49.848942598187314
33135,Miami-Dade County,FL,81.2688821752266
33165,Miami-Dade County,FL,68.8821752265861
33187,Miami-Dade County,FL,86.404833836858
33441,Broward County,FL,64.6525679758308
33570,Hillsborough County,FL,74.62235649546828
33612,Hillsborough County,FL,12.990936555891238
33772,Pinellas County,FL,83.98791540785498
33812,Polk County,FL,82.17522658610272
34286,Sarasota County,FL,66.16314199395771
34448,Citrus County,FL,85.80060422960725
34741,Osceola County,FL,33.53474320241692
34746,Osceola County,FL,45.61933534743202
30014,Newton County,GA,37.160120845921455
30016,Newton County,GA,17.522658610271904
30044,Gwinnett County,GA,26.586102719033235
30114,Cherokee County,GA,45.01510574018127
30180,Carroll County,GA,32.3262839879154
30238,Clayton County,GA,61.631419939577036
30260,Clayton County,GA,80.36253776435045
30274,Clayton County,GA,49.546827794561935
30314,Fulton County,GA,54.68277945619335
30319,DeKalb County,GA,79.7583081570997
30601,Clarke County,GA,78.54984894259819
31217,Bibb County,GA,72.80966767371602
31709,Sumter County,GA,63.74622356495468
31833,Troup County,GA,82.4773413897281
39819,Decatur County,GA,85.1963746223565
83333,Blaine County,ID,96.97885196374622
83814,Kootenai County,ID,43.202416918429
60044,Lake County,IL,88.21752265861026
60139,DuPage County,IL,59.516616314199396
60202,Cook County,IL,68.27794561933534
60609,Cook County,IL,12.084592145015106
60628,Cook County,IL,7.552870090634441
60649,Cook County,IL,19.033232628398792
61554,Tazewell County,IL,38.368580060422964
62521,Macon County,IL,17.220543806646525
46013,Madison County,IN,42.59818731117825
46201,Marion County,IN,24.47129909365559
46205,Marion County,IN,46.52567975830816
46307,Lake County,IN,62.2356495468278
46514,Elkhart County,IN,73.41389728096676
46614,St. Joseph County,IN,67.37160120845923
46619,St. Joseph County,IN,62.53776435045317
47130,Clark County,IN,9.969788519637463
50156,Boone County,IA,99.69788519637463
50588,Buena Vista County,IA,51.963746223564954
40203,Jefferson County,KY,29.003021148036257
40222,Jefferson County,KY,83.08157099697885
40511,Fayette County,KY,48.036253776435046
40517,Fayette County,KY,28.3987915407855
41011,Kenton County,KY,54.98489425981873
41017,Kenton County,KY,40.181268882175225
41164,Carter County,KY,76.13293051359517
41501,Pike County,KY,14.803625377643503
70043,St. Bernard Parish,LA,74.92447129909365
70056,Jefferson Parish,LA,30.211480362537763
70065,Jefferson Parish,LA,28.09667673716012
70117,Orleans Parish,LA,29.305135951661633
70441,St. Helena Parish,LA,76.73716012084593
70461,St. Tammany Parish,LA,99.09365558912387
70503,Lafayette Parish,LA,47.129909365558916
70517,St. Martin Parish,LA,18.12688821752266
70525,Acadia Parish,LA,58.91238670694864
70570,St. Landry Parish,LA,0.6042296072507553
70578,Acadia Parish,LA,62.839879154078545
70586,Evangeline Parish,LA,96.67673716012085
70601,Calcasieu Parish,LA,16.012084592145015
70737,Ascension Parish,LA,58.30815709969789
70754,Livingston Parish,LA,64.95468277945619
70805,East Baton Rouge Parish,LA,96.37462235649546
70806,East Baton Rouge Parish,LA,18.429003021148034
70816,East Baton Rouge Parish,LA,4.531722054380665
71052,De Soto Parish,LA,78.85196374622356
71108,Caddo Parish,LA,91.23867069486404
71109,Caddo Parish,LA,6.948640483383686
71202,Ouachita Parish,LA,83.68580060422961
71292,Ouachita Parish,LA,16.61631419939577
71295,Franklin Parish,LA,96.07250755287009
04281,Oxford County,ME,98.18731117824774
20708,Prince George's County,MD,85.49848942598187
20785,Prince George's County,MD,63.44410876132931
21061,Anne Arundel County,MD,64.35045317220543
21157,Carroll County,MD,59.21450151057401
21206,Baltimore city,MD,15.407854984894259
21208,Baltimore County,MD,70.69486404833837
02124,Suffolk County,MA,4.229607250755287
02171,Norfolk County,MA,38.670694864048336
48066,Macomb County,MI,2.1148036253776437
48089,Macomb County,MI,8.761329305135952
48111,Wayne County,MI,7.250755287009064
48124,Wayne County,MI,26.283987915407852
48202,Wayne County,MI,39.274924471299094
48204,Wayne County,MI,10.574018126888216
48207,Wayne County,MI,25.377643504531722
48227,Wayne County,MI,22.658610271903324
48234,Wayne County,MI,8.459214501510575
48238,Wayne County,MI,3.927492447129909
48240,Wayne County,MI,27.492447129909365
48503,Genesee County,MI,24.169184290030213
48504,Genesee County,MI,23.26283987915408
48505,Genesee County,MI,23.564954682779458
48529,Genesee County,MI,95.77039274924472
48910,Ingham County,MI,14.501510574018129
49022,Berrien County,MI,10.27190332326284
49444,Muskegon County,MI,44.71299093655589
49505,Kent County,MI,32.93051359516616
55304,Anoka County,MN,88.82175226586104
55311,Hennepin County,MN,89.42598187311178
55336,McLeod County,MN,79.15407854984893
55406,Hennepin County,MN,65.86102719033232
55428,Hennepin County,MN,60.72507552870091
55803,St. Louis County,MN,92.74924471299094
56464,Wadena County,MN,91.54078549848943
39154,Hinds County,MS,97.88519637462235
39157,Madison County,MS,77.0392749244713
39212,Hinds County,MS,28.700906344410875
39350,Neshoba County,MS,36.555891238670696
63125,St. Louis County,MO,53.17220543806647
64110,Jackson County,MO,45.31722054380665
03103,Hillsborough County,NH,4.833836858006042
07093,Hudson County,NJ,6.3444108761329305
07107,Essex County,NJ,0.3021148036253776
07407,Bergen County,NJ,39.87915407854985
08505,Burlington County,NJ,69.18429003021149
08757,Ocean County,NJ,15.709969788519636
08822,Hunterdon County,NJ,31.722054380664655
08901,Middlesex County,NJ,3.625377643504532
87110,Bernalillo County,NM,14.19939577039275
87112,Bernalillo County,NM,19.335347432024168
87121,Bernalillo County,NM,3.3232628398791544
88340,Otero County,NM,92.14501510574019
10024,New York County,NY,61.933534743202415
10454,Bronx County,NY,6.042296072507553
10458,Bronx County,NY,0
10552,Westchester County,NY,72.20543806646525
11416,Queens County,NY,57.09969788519638
11432,Queens County,NY,35.95166163141994
11520,Nassau County,NY,40.78549848942598
11706,Suffolk County,NY,29.607250755287005
11757,Suffolk County,NY,52.87009063444109
11779,Suffolk County,NY,48.94259818731118
13021,Cayuga County,NY,1.812688821752266
13204,Onondaga County,NY,13.897280966767372
13205,Onondaga County,NY,17.82477341389728
14510,Livingston County,NY,89.12386706948641
14608,Monroe County,NY,16.314199395770395
14701,Chautauqua County,NY,21.45015105740181
27101,Forsyth County,NC,87.61329305135952
27529,Wake County,NC,33.8368580060423
27536,Vance County,NC,37.764350453172206
27557,Nash County,NC,95.16616314199395
27565,Granville County,NC,94.5619335347432
27703,Durham County,NC,11.782477341389729
28144,Rowan County,NC,43.80664652567976
28205,Mecklenburg County,NC,26.888217522658607
28208,Mecklenburg County,NC,44.10876132930513
28212,Mecklenburg County,NC,34.13897280966767
28376,Hoke County,NC,38.972809667673715
28390,Harnett County,NC,84.59214501510573
28401,New Hanover County,NC,11.178247734138973
28546,Onslow County,NC,35.04531722054381
28590,Pitt County,NC,70.09063444108762
28645,Caldwell County,NC,2.416918429003021
43054,Franklin County,OH,84.89425981873111
43130,Fairfield County,OH,0.906344410876133
43205,Franklin County,OH,55.89123867069487
43206,Franklin County,OH,50.755287009063444
43213,Franklin County,OH,9.06344410876133
43219,Franklin County,OH,20.54380664652568
43229,Franklin County,OH,5.13595166163142
43571,Lucas County,OH,89.72809667673715
43615,Lucas County,OH,25.075528700906347
44089,Erie County,OH,46.22356495468278
44132,Cuyahoga County,OH,33.23262839879154
44256,Medina County,OH,2.719033232628399
44301,Summit County,OH,39.577039274924466
44306,Summit County,OH,9.667673716012084
44312,Summit County,OH,19.637462235649547
44512,Mahoning County,OH,10.574018126888216
44830,Seneca County,OH,21.75226586102719
44870,Erie County,OH,18.731117824773413
44903,Richland County,OH,23.867069486404834
45223,Hamilton County,OH,53.47432024169184
45417,Montgomery County,OH,41.99395770392749
45459,Montgomery County,OH,71.90332326283988
73044,Logan County,OK,60.12084592145015
74008,Tulsa County,OK,76.43504531722054
74011,Tulsa County,OK,75.52870090634441
74063,Tulsa County,OK,65.25679758308158
74073,Tulsa County,OK,97.58308157099698
74403,Muskogee County,OK,42.296072507552864
74948,Sequoyah County,OK,74.01812688821752
74962,Sequoyah County,OK,98.79154078549848
97266,Multnomah County,OR,40.483383685800604
97305,Marion County,OR,34.74320241691843
97424,Lane County,OR,54.38066465256798
15012,Westmoreland County,PA,69.78851963746223
15071,Allegheny County,PA,87.00906344410876
15221,Allegheny County,PA,58.006042296072515
16226,Armstrong County,PA,77.94561933534743
17044,Mifflin County,PA,51.66163141993958
19015,Delaware County,PA,87.91540785498489
19082,Delaware County,PA,12.386706948640484
19104,Philadelphia County,PA,12.990936555891238
19120,Philadelphia County,PA,1.2084592145015105
19145,Philadelphia County,PA,7.854984894259818
19601,Berks County,PA,1.5105740181268883
02864,Providence County,RI,35.64954682779456
29053,Lexington County,SC,64.04833836858006
29212,Lexington County,SC,74.32024169184291
29640,Pickens County,SC,63.141993957703924
29720,Lancaster County,SC,20.241691842900302
29801,Aiken County,SC,48.6404833836858
57701,Pennington County,SD,24.773413897280967
37188,Robertson County,TN,88.51963746223565
37311,Bradley County,TN,43.50453172205438
37343,Hamilton County,TN,30.513595166163142
37388,Coffee County,TN,41.69184290030212
37849,Knox County,TN,48.338368580060425
37879,Claiborne County,TN,93.35347432024169
38109,Shelby County,TN,13.595166163141995
38111,Shelby County,TN,80.06042296072508
38128,Shelby County,TN,25.6797583081571
75038,Dallas County,TX,69.48640483383686
75052,Dallas County,TX,22.054380664652566
75061,Dallas County,TX,59.818731117824775
75062,Dallas County,TX,56.19335347432024
75067,Denton County,TX,41.389728096676734
75069,Collin County,TX,57.09969788519638
75208,Dallas County,TX,71.6012084592145
75216,Dallas County,TX,70.39274924471299
75227,Dallas County,TX,94.86404833836858
75228,Dallas County,TX,5.740181268882175
75232,Dallas County,TX,55.2870090634441
75254,Dallas County,TX,99.39577039274926
75455,Titus County,TX,61.329305135951664
75801,Anderson County,TX,73.71601208459214
75803,Anderson County,TX,75.22658610271903
76067,Palo Pinto County,TX,93.65558912386706
76105,Tarrant County,TX,60.42296072507553
76137,Tarrant County,TX,27.19033232628399
77032,Harris County,TX,97.2809667673716
77048,Harris County,TX,93.95770392749245
77055,Harris County,TX,67.06948640483384
77081,Harris County,TX,75.83081570996978
77085,Harris County,TX,90.93655589123867
77423,Waller County,TX,98.48942598187311
77449,Harris County,TX,12.688821752265861
77598,Harris County,TX,66.46525679758308
77803,Brazos County,TX,36.25377643504532
78382,Aransas County,TX,90.33232628398792
78516,Hidalgo County,TX,70.69486404833837
78617,Travis County,TX,80.96676737160121
79107,Potter County,TX,42.90030211480362
22153,Fairfax County,VA,66.46525679758308
23227,Henrico County,VA,52.26586102719033
23231,Henrico County,VA,32.62839879154079
23324,Chesapeake city,VA,50.453172205438065
23508,Norfolk city,VA,100
23510,Norfolk city,VA,90.03021148036254
23669,Hampton city,VA,29.909365558912388
98188,King County,WA,78.24773413897282
99337,Benton County,WA,36.85800604229607
20001,District of Columbia,DC,27.794561933534744
20020,District of Columbia,DC,19.939577039274926
25405,Berkeley County,WV,81.87311178247734
25661,Mingo County,WV,56.797583081571
26164,Jackson County,WV,71.29909365558912
26501,Monongalia County,WV,22.9607250755287
53204,Milwaukee County,WI,6.646525679758309
53206,Milwaukee County,WI,9.365558912386707
53210,Milwaukee County,WI,8.157099697885197
53216,Milwaukee County,WI,5.438066465256798
53218,Milwaukee County,WI,79.45619335347432
53222,Milwaukee County,WI,87.31117824773413
53534,Rock County,WI,65.55891238670695
53546,Rock County,WI,22.054380664652566
53713,Dane County,WI,61.027190332326285
53717,Dane County,WI,91.8429003021148
54241,Manitowoc County,WI,72.50755287009063
54449,Wood County,WI,80.66465256797582
