ZipCode,county,state,Geriatric
36567,Baldwin County,AL,70.3030303030303
36582,Mobile County,AL,87.27272727272727
36693,Mobile County,AL,69.0909090909091
85009,Maricopa County,AZ,66.06060606060606
85120,Pinal County,AZ,33.939393939393945
85248,Maricopa County,AZ,11.515151515151516
71909,Garland County,AR,15.151515151515152
72212,Pulaski County,AR,59.3939393939394
90029,Los Angeles County,CA,79.39393939393939
90604,Los Angeles County,CA,35.75757575757576
91205,Los Angeles County,CA,30.303030303030305
91709,San Bernardino County,CA,52.121212121212125
91762,San Bernardino County,CA,60.60606060606061
91901,San Diego County,CA,71.51515151515152
91913,San Diego County,CA,72.12121212121212
92040,San Diego County,CA,34.54545454545455
92231,Imperial County,CA,38.78787878787879
92320,Riverside County,CA,83.03030303030303
92708,Orange County,CA,24.848484848484848
93277,Tulare County,CA,84.24242424242424
93428,San Luis Obispo County,CA,89.6969696969697
93444,San Luis Obispo County,CA,67.87878787878789
94080,San Mateo County,CA,5.454545454545454
94110,San Francisco County,CA,27.27272727272727
94549,Contra Costa County,CA,36.96969696969697
95608,Sacramento County,CA,12.727272727272727
95677,Placer County,CA,95.75757575757575
95823,Sacramento County,CA,33.33333333333333
96150,El Dorado County,CA,86.06060606060606
80219,Denver County,CO,63.63636363636363
80233,Adams County,CO,77.57575757575758
81212,Fremont County,CO,45.45454545454545
06051,Hartford County,CT,41.21212121212121
06614,Fairfield County,CT,30.909090909090907
32258,Duval County,FL,87.87878787878788
32712,Orange County,FL,25.454545454545453
32724,Volusia County,FL,26.060606060606062
34202,Manatee County,FL,46.06060606060606
34613,Hernando County,FL,37.57575757575757
30030,DeKalb County,GA,81.81818181818183
30039,Gwinnett County,GA,54.54545454545454
30064,Cobb County,GA,32.72727272727273
30097,Fulton County,GA,52.72727272727272
30215,Fayette County,GA,53.939393939393945
96706,Honolulu County,HI,16.363636363636363
83644,Canyon County,ID,99.39393939393939
60004,Cook County,IL,13.333333333333334
60142,McHenry County,IL,4.848484848484849
60401,Will County,IL,85.45454545454545
60411,Cook County,IL,61.81818181818181
61611,Tazewell County,IL,55.15151515151515
62025,Madison County,IL,31.515151515151512
62234,Madison County,IL,28.484848484848484
62249,Madison County,IL,38.18181818181819
46032,Hamilton County,IN,24.242424242424242
46214,Marion County,IN,47.27272727272727
46901,Howard County,IN,12.121212121212121
47460,Owen County,IN,93.33333333333333
50616,Floyd County,IA,50.90909090909091
52245,Johnson County,IA,61.212121212121204
70131,Orleans Parish,LA,57.57575757575758
71303,Rapides Parish,LA,61.81818181818181
20636,St. Mary's County,MD,95.75757575757575
20906,Montgomery County,MD,13.939393939393941
21401,Anne Arundel County,MD,21.21212121212121
01118,Hampden County,MA,58.78787878787879
01505,Worcester County,MA,98.18181818181819
01510,Worcester County,MA,44.84848484848485
01545,Worcester County,MA,15.757575757575756
01730,Middlesex County,MA,16.969696969696972
01854,Middlesex County,MA,9.090909090909092
01880,Middlesex County,MA,14.545454545454545
01960,Essex County,MA,0.6060606060606061
02121,Suffolk County,MA,8.484848484848486
02135,Suffolk County,MA,3.0303030303030303
48038,Macomb County,MI,7.2727272727272725
48154,Wayne County,MI,10.303030303030303
48173,Wayne County,MI,67.27272727272727
49321,Kent County,MI,78.78787878787878
55803,St. Louis County,MN,75.75757575757575
56308,Douglas County,MN,60
56482,Wadena County,MN,76.36363636363637
56716,Polk County,MN,76.96969696969697
39047,Rankin County,MS,49.09090909090909
63301,St. Charles County,MO,6.0606060606060606
63304,St. Charles County,MO,18.181818181818183
65738,Greene County,MO,80
69341,Scotts Bluff County,NE,90.9090909090909
89431,Washoe County,NV,29.6969696969697
03104,Hillsborough County,NH,32.121212121212125
07712,Monmouth County,NJ,29.09090909090909
07746,Monmouth County,NJ,74.54545454545455
87111,Bernalillo County,NM,58.18181818181818
88220,Eddy County,NM,26.666666666666668
10029,New York County,NY,1.8181818181818181
12590,Dutchess County,NY,56.36363636363636
13662,St. Lawrence County,NY,43.03030303030303
27569,Johnston County,NC,91.51515151515152
27577,Johnston County,NC,27.878787878787882
27607,Wake County,NC,86.66666666666667
28301,Cumberland County,NC,98.7878787878788
28333,Wayne County,NC,94.54545454545455
28732,Henderson County,NC,66.66666666666666
58201,Grand Forks County,ND,4.242424242424243
43080,Licking County,OH,97.57575757575758
43227,Franklin County,OH,46.666666666666664
43571,Lucas County,OH,92.12121212121212
43614,Lucas County,OH,20
43616,Lucas County,OH,21.818181818181817
44122,Cuyahoga County,OH,1.2121212121212122
44143,Cuyahoga County,OH,68.48484848484848
44883,Seneca County,OH,20.606060606060606
45150,Clermont County,OH,40.60606060606061
45631,Gallia County,OH,9.696969696969697
45714,Washington County,OH,36.36363636363637
73533,Stephens County,OK,17.575757575757574
74075,Payne County,OK,56.96969696969697
97103,Clatsop County,OR,23.03030303030303
97123,Washington County,OR,23.636363636363637
97141,Tillamook County,OR,78.18181818181819
97223,Washington County,OR,53.333333333333336
97424,Lane County,OR,41.81818181818181
97520,Jackson County,OR,34.54545454545455
97526,Josephine County,OR,55.757575757575765
15068,Westmoreland County,PA,6.666666666666667
16417,Erie County,PA,88.48484848484848
17361,York County,PA,82.42424242424242
18078,Lehigh County,PA,95.15151515151516
19021,Bucks County,PA,93.93939393939394
19133,Philadelphia County,PA,92.72727272727272
19141,Philadelphia County,PA,73.93939393939394
19335,Chester County,PA,39.39393939393939
29301,Spartanburg County,SC,64.24242424242425
29906,Beaufort County,SC,84.84848484848484
57401,Brown County,SD,3.6363636363636362
37027,Williamson County,TN,19.393939393939394
37415,Hamilton County,TN,65.45454545454545
37830,Anderson County,TN,42.42424242424242
75007,Denton County,TX,40
75169,Van Zandt County,TX,73.33333333333333
75208,Dallas County,TX,81.21212121212122
75241,Dallas County,TX,22.424242424242426
76048,Hood County,TX,50.303030303030305
76450,Young County,TX,83.63636363636363
76692,Hill County,TX,64.84848484848484
77035,Harris County,TX,80.60606060606061
77065,Harris County,TX,49.696969696969695
77089,Harris County,TX,75.15151515151514
77354,Montgomery County,TX,43.63636363636363
77521,Harris County,TX,48.484848484848484
77871,Leon County,TX,72.72727272727273
78633,Williamson County,TX,0
79901,El Paso County,TX,90.30303030303031
05676,Washington County,VT,96.96969696969697
22015,Fairfax County,VA,63.030303030303024
22630,Warren County,VA,43.63636363636363
22664,Shenandoah County,VA,47.878787878787875
23518,Norfolk city,VA,18.787878787878785
24401,Staunton city,VA,10.909090909090908
98310,Kitsap County,WA,51.515151515151516
98362,Clallam County,WA,7.878787878787878
98444,Pierce County,WA,70.9090909090909
53158,Kenosha County,WI,69.6969696969697
53563,Rock County,WI,89.0909090909091
54220,Manitowoc County,WI,2.4242424242424243
54986,Winnebago County,WI,100
