ZipCode,county,state,Adult,Retirement,Geriatric
35020,Jefferson County,AL,15.09433962264151,NA,NA
35242,Shelby County,AL,35.471698113207545,NA,NA
35601,Morgan County,AL,NA,17.1875,NA
35802,Madison County,AL,NA,NA,27.82874617737003
35952,Etowah County,AL,NA,NA,80.42813455657493
36049,Crenshaw County,AL,NA,93.48958333333334,NA
36301,Houston County,AL,20.754716981132077,NA,NA
36401,Conecuh County,AL,NA,NA,89.60244648318043
36467,Covington County,AL,NA,74.47916666666666,NA
36541,Mobile County,AL,NA,83.33333333333334,NA
85019,Maricopa County,AZ,NA,NA,86.23853211009175
85033,Maricopa County,AZ,47.924528301886795,NA,NA
85041,Maricopa County,AZ,9.433962264150944,NA,63.91437308868502
85118,Pinal County,AZ,NA,68.22916666666666,NA
85131,Pinal County,AZ,78.11320754716982,NA,NA
85139,Pinal County,AZ,NA,76.5625,NA
85210,Maricopa County,AZ,NA,NA,88.9908256880734
85248,Maricopa County,AZ,NA,34.63541666666667,NA
85249,Maricopa County,AZ,47.16981132075472,NA,NA
85259,Maricopa County,AZ,NA,78.38541666666666,NA
85308,Maricopa County,AZ,NA,NA,42.201834862385326
85375,Maricopa County,AZ,NA,NA,3.058103975535168
85387,Maricopa County,AZ,NA,NA,81.34556574923548
85643,Cochise County,AZ,NA,NA,91.43730886850153
85735,Pima County,AZ,NA,NA,92.66055045871559
85750,Pima County,AZ,NA,NA,44.342507645259936
85757,Pima County,AZ,30.566037735849054,NA,NA
86044,San Juan County,AZ,NA,100,NA
86045,Coconino County,AZ,NA,42.96875,NA
86315,Yavapai County,AZ,NA,73.4375,NA
86326,Yavapai County,AZ,27.547169811320753,NA,NA
86404,Mohave County,AZ,69.0566037735849,NA,NA
86409,Mohave County,AZ,NA,31.770833333333332,NA
71603,Jefferson County,AR,NA,NA,78.2874617737003
71822,Little River County,AR,NA,NA,91.13149847094802
71913,Garland County,AR,NA,29.427083333333332,NA
72081,White County,AR,NA,NA,93.27217125382263
72118,Pulaski County,AR,NA,NA,48.92966360856269
72687,Marion County,AR,NA,85.67708333333334,NA
72761,Benton County,AR,NA,70.05208333333334,NA
90024,Los Angeles County,CA,NA,NA,12.844036697247708
90033,Los Angeles County,CA,NA,NA,48.01223241590214
90035,Los Angeles County,CA,NA,40.625,NA
90210,Los Angeles County,CA,97.35849056603773,NA,NA
90221,Los Angeles County,CA,NA,NA,52.90519877675841
90242,Los Angeles County,CA,NA,60.677083333333336,NA
90712,Los Angeles County,CA,NA,53.125,NA
91007,Los Angeles County,CA,89.43396226415095,NA,NA
91304,Los Angeles County,CA,NA,NA,23.24159021406728
91325,Los Angeles County,CA,75.09433962264151,NA,NA
91367,Los Angeles County,CA,NA,52.083333333333336,NA
91790,Los Angeles County,CA,50.56603773584906,NA,NA
91911,San Diego County,CA,NA,21.875,NA
92084,San Diego County,CA,NA,66.66666666666666,NA
92111,San Diego County,CA,NA,54.427083333333336,NA
92211,Riverside County,CA,NA,62.760416666666664,0.3058103975535168
92260,Riverside County,CA,NA,69.53125,17.431192660550458
92270,Riverside County,CA,NA,7.8125,NA
92277,San Bernardino County,CA,69.81132075471697,NA,NA
92404,San Bernardino County,CA,18.11320754716981,NA,NA
92592,Riverside County,CA,NA,33.07291666666667,NA
92626,Orange County,CA,NA,NA,38.53211009174312
92679,Orange County,CA,59.24528301886792,NA,NA
92706,Orange County,CA,NA,NA,66.05504587155964
92802,Orange County,CA,NA,88.54166666666666,NA
92886,Orange County,CA,NA,20.3125,NA
93010,Ventura County,CA,NA,NA,16.819571865443425
93458,Santa Barbara County,CA,NA,NA,51.98776758409785
93514,Inyo County,CA,NA,72.65625,NA
93546,Mono County,CA,NA,98.69791666666666,NA
93638,Madera County,CA,NA,NA,54.12844036697248
93906,Monterey County,CA,68.30188679245282,NA,NA
93924,Monterey County,CA,NA,79.6875,NA
93933,Monterey County,CA,62.264150943396224,NA,NA
94025,San Mateo County,CA,NA,NA,33.63914373088685
94066,San Mateo County,CA,44.905660377358494,NA,NA
94080,San Mateo County,CA,36.60377358490566,NA,NA
94102,San Francisco County,CA,NA,6.770833333333333,NA
94513,Contra Costa County,CA,NA,62.5,NA
94551,Alameda County,CA,48.679245283018865,NA,NA
94559,Napa County,CA,NA,63.28125,NA
94945,Marin County,CA,NA,72.39583333333334,NA
95050,Santa Clara County,CA,NA,NA,53.822629969418955
95076,Santa Cruz County,CA,NA,NA,40.0611620795107
95127,Santa Clara County,CA,NA,NA,63.608562691131496
95205,San Joaquin County,CA,NA,56.25,NA
95336,San Joaquin County,CA,60,NA,NA
95620,Solano County,CA,NA,NA,76.14678899082568
95666,Amador County,CA,NA,94.79166666666666,NA
95709,El Dorado County,CA,NA,84.375,NA
95959,Nevada County,CA,NA,NA,60.550458715596335
80134,Douglas County,CO,30.18867924528302,NA,NA
80223,Denver County,CO,NA,57.8125,NA
80503,Boulder County,CO,64.15094339622641,NA,NA
80526,Larimer County,CO,NA,37.76041666666667,NA
80601,Adams County,CO,NA,NA,74.00611620795107
80916,El Paso County,CO,NA,69.79166666666666,NA
81004,Pueblo County,CO,NA,NA,49.54128440366973
06010,Hartford County,CT,NA,3.125,NA
06082,Hartford County,CT,NA,16.145833333333336,NA
06451,New Haven County,CT,28.67924528301887,NA,NA
06470,Fairfield County,CT,81.88679245283019,NA,NA
06483,New Haven County,CT,61.13207547169811,NA,NA
06484,Fairfield County,CT,NA,34.375,NA
06488,New Haven County,CT,NA,NA,66.97247706422019
06518,New Haven County,CT,NA,NA,38.837920489296636
06786,Litchfield County,CT,81.13207547169812,NA,NA
06883,Fairfield County,CT,NA,98.95833333333334,NA
32068,Clay County,FL,12.075471698113208,8.854166666666668,41.896024464831804
32084,St. Johns County,FL,NA,NA,41.284403669724774
32129,Volusia County,FL,NA,71.09375,NA
32162,Sumter County,FL,NA,2.864583333333333,NA
32164,Flagler County,FL,NA,NA,18.04281345565749
32205,Duval County,FL,30.943396226415093,NA,NA
32210,Duval County,FL,NA,6.25,NA
32219,Duval County,FL,46.79245283018868,NA,NA
32224,Duval County,FL,NA,46.61458333333333,NA
32250,Duval County,FL,NA,35.9375,NA
32259,St. Johns County,FL,45.660377358490564,NA,NA
32501,Escambia County,FL,NA,NA,55.35168195718655
32561,Santa Rosa County,FL,NA,NA,77.98165137614679
32680,Dixie County,FL,76.60377358490567,NA,NA
32703,Orange County,FL,NA,75,NA
32724,Volusia County,FL,NA,NA,30.275229357798167
32950,Brevard County,FL,99.62264150943396,NA,NA
33027,Broward County,FL,NA,NA,11.009174311926607
33050,Monroe County,FL,NA,NA,85.93272171253822
33054,Miami-Dade County,FL,NA,NA,71.55963302752293
33062,Broward County,FL,NA,NA,7.339449541284404
33066,Broward County,FL,NA,59.635416666666664,25.076452599388375
33068,Broward County,FL,46.0377358490566,NA,NA
33185,Miami-Dade County,FL,78.49056603773586,NA,NA
33304,Broward County,FL,NA,67.44791666666666,NA
33308,Broward County,FL,NA,NA,6.727828746177369
33317,Broward County,FL,NA,NA,94.18960244648318
33431,Palm Beach County,FL,NA,58.072916666666664,NA
33617,Hillsborough County,FL,99.24528301886792,NA,NA
33755,Pinellas County,FL,NA,NA,92.96636085626912
33815,Polk County,FL,98.11320754716981,NA,NA
33843,Polk County,FL,NA,NA,68.50152905198776
33860,Polk County,FL,NA,NA,73.08868501529052
33870,Highlands County,FL,NA,33.33333333333333,NA
33881,Polk County,FL,NA,37.5,NA
33903,Lee County,FL,NA,NA,64.22018348623854
33909,Lee County,FL,NA,77.86458333333334,NA
33919,Lee County,FL,NA,50.78125,NA
34135,Lee County,FL,NA,70.57291666666666,NA
34229,Sarasota County,FL,NA,70.3125,NA
34292,Sarasota County,FL,NA,51.5625,NA
34452,Citrus County,FL,60.75471698113207,NA,NA
34465,Citrus County,FL,NA,NA,67.2782874617737
34947,St. Lucie County,FL,NA,92.70833333333334,NA
34983,St. Lucie County,FL,26.41509433962264,NA,NA
30054,Newton County,GA,66.41509433962264,NA,NA
30055,Jasper County,GA,100,NA,NA
30062,Cobb County,GA,NA,NA,35.47400611620795
30097,Fulton County,GA,NA,NA,46.17737003058104
30215,Fayette County,GA,NA,NA,46.788990825688074
30240,Troup County,GA,NA,27.864583333333332,NA
30309,Fulton County,GA,79.62264150943396,NA,NA
30501,Hall County,GA,63.77358490566037,NA,NA
30517,Jackson County,GA,NA,NA,90.21406727828746
30525,Rabun County,GA,NA,NA,78.89908256880734
30582,Towns County,GA,NA,NA,77.67584097859327
30809,Columbia County,GA,NA,13.28125,NA
30907,Columbia County,GA,NA,NA,38.226299694189606
31093,Houston County,GA,37.735849056603776,NA,NA
31730,Mitchell County,GA,NA,85.41666666666666,NA
96707,Honolulu County,HI,NA,89.58333333333334,NA
96712,Honolulu County,HI,NA,91.92708333333334,NA
96771,Hawaii County,HI,NA,97.91666666666666,NA
96817,Honolulu County,HI,11.69811320754717,NA,NA
83221,Bingham County,ID,58.867924528301884,NA,NA
83333,Blaine County,ID,NA,NA,73.39449541284404
83401,Bonneville County,ID,NA,NA,87.46177370030581
83616,Ada County,ID,NA,10.15625,NA
83644,Canyon County,ID,NA,NA,95.41284403669725
83646,Ada County,ID,NA,NA,9.174311926605505
83686,Canyon County,ID,NA,31.510416666666668,NA
83815,Kootenai County,ID,38.49056603773585,23.177083333333336,NA
83864,Bonner County,ID,65.66037735849056,NA,NA
60002,Lake County,IL,NA,38.54166666666667,NA
60018,Cook County,IL,NA,74.21875,NA
60025,Cook County,IL,NA,NA,8.256880733944955
60041,Lake County,IL,95.09433962264151,NA,NA
60062,Cook County,IL,NA,5.208333333333334,NA
60087,Lake County,IL,NA,NA,59.021406727828754
60098,McHenry County,IL,NA,NA,18.960244648318042
60099,Lake County,IL,NA,44.27083333333333,NA
60123,Kane County,IL,67.9245283018868,18.75,NA
60124,Kane County,IL,NA,82.03125,NA
60154,Cook County,IL,NA,NA,39.75535168195719
60162,Cook County,IL,NA,NA,72.78287461773701
60185,DuPage County,IL,40,NA,NA
60187,DuPage County,IL,NA,72.91666666666666,NA
60192,Cook County,IL,84.90566037735849,NA,NA
60411,Cook County,IL,13.20754716981132,NA,NA
60443,Cook County,IL,NA,NA,49.235474006116206
60451,Will County,IL,NA,17.96875,NA
60456,Cook County,IL,89.81132075471699,NA,NA
60477,Cook County,IL,NA,48.17708333333333,NA
60516,DuPage County,IL,NA,NA,42.813455657492355
60540,DuPage County,IL,NA,33.59375,NA
60565,DuPage County,IL,NA,23.697916666666664,NA
60586,Will County,IL,NA,69.01041666666666,NA
60619,Cook County,IL,NA,NA,39.44954128440367
60628,Cook County,IL,NA,4.6875,NA
60630,Cook County,IL,NA,12.760416666666666,NA
60707,Cook County,IL,NA,NA,15.29051987767584
60901,Kankakee County,IL,17.358490566037734,NA,NA
60954,Kankakee County,IL,NA,86.97916666666666,NA
61021,Lee County,IL,36.22641509433962,NA,NA
61264,Rock Island County,IL,88.30188679245283,NA,NA
61301,LaSalle County,IL,NA,NA,61.16207951070336
61342,LaSalle County,IL,87.16981132075472,NA,NA
61356,Bureau County,IL,93.58490566037736,NA,NA
61554,Tazewell County,IL,33.20754716981132,NA,NA
61951,Moultrie County,IL,NA,78.125,NA
62052,Jersey County,IL,NA,82.8125,NA
62226,St. Clair County,IL,NA,NA,33.33333333333333
62234,Madison County,IL,49.43396226415094,NA,NA
62549,Macon County,IL,NA,NA,83.18042813455658
62948,Williamson County,IL,NA,NA,65.74923547400611
62966,Jackson County,IL,NA,50.260416666666664,NA
46001,Madison County,IN,NA,63.541666666666664,NA
46240,Marion County,IN,NA,NA,68.19571865443424
46324,Lake County,IN,NA,30.729166666666668,NA
46528,Elkhart County,IN,NA,NA,81.03975535168195
46750,Huntington County,IN,NA,29.947916666666668,NA
46761,LaGrange County,IN,NA,65.625,NA
46767,Noble County,IN,87.9245283018868,NA,NA
46803,Allen County,IN,83.01886792452831,NA,NA
46835,Allen County,IN,NA,NA,35.16819571865443
47274,Jackson County,IN,NA,NA,37.61467889908257
47331,Fayette County,IN,NA,14.583333333333334,14.067278287461773
47362,Henry County,IN,24.150943396226417,11.71875,NA
47394,Randolph County,IN,NA,87.5,NA
47542,Dubois County,IN,NA,92.44791666666666,NA
47553,Martin County,IN,NA,NA,86.54434250764525
47882,Sullivan County,IN,NA,78.90625,NA
50248,Story County,IA,NA,NA,83.4862385321101
50401,Cerro Gordo County,IA,NA,NA,3.3639143730886847
50501,Webster County,IA,NA,NA,34.25076452599388
50536,Palo Alto County,IA,95.84905660377359,NA,NA
50613,Black Hawk County,IA,NA,NA,31.804281345565748
52402,Linn County,IA,NA,28.385416666666668,NA
66085,Johnson County,KS,NA,86.19791666666666,NA
67052,Sedgwick County,KS,NA,94.27083333333334,NA
67235,Sedgwick County,KS,NA,98.4375,NA
67550,Pawnee County,KS,NA,87.23958333333334,NA
67601,Ellis County,KS,42.26415094339623,NA,43.11926605504588
67801,Ford County,KS,NA,64.84375,NA
40004,Nelson County,KY,20.37735849056604,NA,NA
40023,Jefferson County,KY,NA,99.21875,NA
40160,Hardin County,KY,63.0188679245283,NA,NA
40203,Jefferson County,KY,NA,43.22916666666667,NA
40205,Jefferson County,KY,NA,41.14583333333333,NA
40220,Jefferson County,KY,NA,23.958333333333336,NA
40223,Jefferson County,KY,NA,47.65625,NA
40291,Jefferson County,KY,NA,55.729166666666664,NA
40324,Scott County,KY,NA,26.041666666666668,NA
40383,Woodford County,KY,NA,NA,60.24464831804281
40475,Madison County,KY,NA,10.677083333333332,NA
40502,Fayette County,KY,NA,54.6875,NA
40508,Fayette County,KY,NA,NA,73.70030581039755
40511,Fayette County,KY,NA,NA,72.17125382262996
40977,Bell County,KY,51.698113207547166,NA,NA
41056,Mason County,KY,NA,67.1875,NA
41101,Boyd County,KY,18.867924528301888,NA,NA
41143,Carter County,KY,NA,90.10416666666666,NA
42003,McCracken County,KY,NA,18.229166666666664,NA
42086,McCracken County,KY,NA,NA,99.38837920489296
42303,Daviess County,KY,NA,NA,27.217125382262996
42701,Hardin County,KY,NA,43.48958333333333,NA
70001,Jefferson Parish,LA,NA,9.375,NA
70005,Jefferson Parish,LA,NA,NA,13.761467889908257
70068,St. John the Baptist Parish,LA,NA,NA,37.00305810397553
70117,Orleans Parish,LA,NA,20.052083333333336,NA
70125,Orleans Parish,LA,NA,94.53125,NA
70127,Orleans Parish,LA,NA,35.41666666666667,NA
70394,Lafourche Parish,LA,50.18867924528302,NA,NA
70458,St. Tammany Parish,LA,NA,91.40625,NA
70461,St. Tammany Parish,LA,17.735849056603772,NA,NA
70462,Livingston Parish,LA,NA,98.17708333333334,NA
70517,St. Martin Parish,LA,12.830188679245284,NA,NA
70737,Ascension Parish,LA,NA,NA,40.67278287461774
70769,Ascension Parish,LA,10.18867924528302,NA,NA
70817,East Baton Rouge Parish,LA,NA,82.29166666666666,NA
71302,Rapides Parish,LA,29.81132075471698,NA,NA
71351,Avoyelles Parish,LA,NA,NA,70.64220183486239
04062,Cumberland County,ME,NA,49.73958333333333,NA
04073,York County,ME,NA,36.97916666666667,NA
04083,York County,ME,92.0754716981132,NA,NA
04578,Lincoln County,ME,NA,NA,88.68501529051987
04609,Hancock County,ME,NA,90.36458333333334,NA
04856,Knox County,ME,NA,NA,92.04892966360856
04901,Kennebec County,ME,NA,62.239583333333336,NA
20745,Prince George's County,MD,93.20754716981132,NA,NA
20877,Montgomery County,MD,76.22641509433963,NA,NA
21217,Baltimore city,MD,NA,20.833333333333336,NA
21222,Baltimore County,MD,NA,22.65625,NA
21401,Anne Arundel County,MD,NA,NA,57.18654434250765
21811,Worcester County,MD,NA,29.6875,NA
01001,Hampden County,MA,NA,95.3125,NA
01040,Hampden County,MA,NA,NA,2.7522935779816518
01230,Berkshire County,MA,NA,NA,58.71559633027523
01267,Berkshire County,MA,NA,73.17708333333334,NA
01523,Worcester County,MA,NA,NA,74.31192660550458
01532,Worcester County,MA,NA,77.08333333333334,NA
01564,Worcester County,MA,NA,83.59375,NA
01604,Worcester County,MA,NA,2.083333333333333,NA
01742,Middlesex County,MA,NA,NA,90.82568807339449
01752,Middlesex County,MA,2.6415094339622645,13.541666666666666,NA
01757,Worcester County,MA,NA,NA,29.66360856269113
01801,Middlesex County,MA,NA,1.3020833333333335,NA
01810,Essex County,MA,NA,NA,23.853211009174313
01835,Essex County,MA,61.50943396226415,NA,NA
01879,Middlesex County,MA,32.075471698113205,NA,NA
01902,Essex County,MA,19.245283018867926,NA,NA
01906,Essex County,MA,NA,8.333333333333332,NA
01938,Essex County,MA,NA,18.489583333333336,NA
02021,Norfolk County,MA,NA,35.67708333333333,43.425076452599384
02045,Plymouth County,MA,37.35849056603773,NA,NA
02048,Bristol County,MA,NA,14.84375,NA
02114,Suffolk County,MA,NA,NA,97.24770642201835
02121,Suffolk County,MA,NA,NA,10.091743119266056
02140,Middlesex County,MA,NA,11.197916666666668,NA
02148,Middlesex County,MA,9.811320754716983,NA,NA
02151,Suffolk County,MA,NA,27.604166666666668,NA
02155,Middlesex County,MA,NA,0.26041666666666663,1.2232415902140672
02169,Norfolk County,MA,NA,0,1.529051987767584
02180,Middlesex County,MA,NA,NA,76.45259938837921
02186,Norfolk County,MA,NA,97.39583333333334,26.299694189602445
02301,Plymouth County,MA,7.547169811320755,NA,NA
02302,Plymouth County,MA,NA,19.791666666666664,NA
02351,Plymouth County,MA,NA,95.57291666666666,NA
02364,Plymouth County,MA,NA,NA,79.20489296636084
02368,Norfolk County,MA,52.83018867924528,NA,NA
02451,Middlesex County,MA,56.60377358490566,NA,NA
02467,Norfolk County,MA,NA,NA,67.88990825688074
02476,Middlesex County,MA,NA,80.20833333333334,NA
02494,Norfolk County,MA,NA,NA,48.62385321100918
02668,Barnstable County,MA,96.60377358490567,NA,NA
02718,Bristol County,MA,91.32075471698113,NA,NA
02720,Bristol County,MA,NA,NA,5.5045871559633035
02746,Bristol County,MA,1.509433962264151,NA,NA
02780,Bristol County,MA,0,NA,NA
48009,Oakland County,MI,NA,64.58333333333334,NA
48035,Macomb County,MI,NA,8.59375,NA
48043,Macomb County,MI,NA,58.072916666666664,NA
48060,St. Clair County,MI,NA,5.46875,NA
48067,Oakland County,MI,NA,77.34375,NA
48081,Macomb County,MI,NA,NA,22.32415902140673
48085,Oakland County,MI,34.71698113207547,NA,NA
48105,Washtenaw County,MI,NA,NA,5.81039755351682
48120,Wayne County,MI,NA,NA,85.01529051987767
48137,Livingston County,MI,96.98113207547169,NA,NA
48160,Washtenaw County,MI,NA,NA,59.9388379204893
48162,Monroe County,MI,NA,3.90625,NA
48167,Oakland County,MI,41.509433962264154,NA,NA
48173,Wayne County,MI,NA,NA,62.69113149847095
48184,Wayne County,MI,NA,63.020833333333336,NA
48207,Wayne County,MI,21.50943396226415,NA,NA
48213,Wayne County,MI,NA,28.90625,NA
48215,Wayne County,MI,39.62264150943396,NA,NA
48219,Wayne County,MI,5.660377358490567,NA,NA
48221,Wayne County,MI,6.037735849056604,NA,NA
48237,Oakland County,MI,NA,57.552083333333336,NA
48317,Macomb County,MI,NA,23.4375,NA
48322,Oakland County,MI,NA,NA,7.64525993883792
48327,Oakland County,MI,NA,44.53125,NA
48371,Oakland County,MI,NA,49.47916666666667,NA
48475,Huron County,MI,NA,99.47916666666666,NA
48655,Saginaw County,MI,61.886792452830186,NA,NA
48708,Bay County,MI,NA,40.10416666666667,NA
48813,Eaton County,MI,NA,NA,40.97859327217125
48821,Eaton County,MI,NA,NA,81.65137614678899
48837,Eaton County,MI,55.84905660377358,NA,NA
48843,Livingston County,MI,NA,NA,14.37308868501529
48858,Isabella County,MI,7.9245283018867925,NA,NA
48879,Clinton County,MI,NA,NA,37.308868501529055
49046,Barry County,MI,NA,60.9375,NA
49120,Berrien County,MI,NA,17.447916666666664,NA
49201,Jackson County,MI,9.056603773584905,NA,NA
49221,Lenawee County,MI,3.3962264150943398,NA,NA
49228,Lenawee County,MI,89.05660377358491,NA,NA
49456,Ottawa County,MI,NA,32.03125,NA
49507,Kent County,MI,NA,26.302083333333332,NA
49783,Chippewa County,MI,NA,59.375,NA
49802,Dickinson County,MI,72.83018867924528,NA,NA
49837,Delta County,MI,NA,NA,56.574923547400616
49849,Marquette County,MI,NA,55.208333333333336,NA
49870,Dickinson County,MI,96.22641509433963,NA,NA
55317,Carver County,MN,NA,NA,98.77675840978594
55350,McLeod County,MN,NA,NA,21.406727828746178
55387,Carver County,MN,NA,NA,84.09785932721712
55404,Hennepin County,MN,NA,3.6458333333333335,NA
55407,Hennepin County,MN,NA,36.45833333333333,NA
55443,Hennepin County,MN,NA,47.13541666666667,NA
55731,St. Louis County,MN,NA,NA,98.47094801223241
55744,Itasca County,MN,NA,38.28125,NA
55811,St. Louis County,MN,NA,NA,5.198776758409786
56071,Scott County,MN,85.28301886792453,NA,NA
56073,Brown County,MN,NA,NA,24.770642201834864
56187,Nobles County,MN,NA,90.88541666666666,NA
56308,Douglas County,MN,82.26415094339623,NA,NA
56378,Stearns County,MN,NA,NA,61.46788990825688
56537,Otter Tail County,MN,NA,42.1875,4.587155963302752
56560,Clay County,MN,NA,NA,2.4464831804281344
56621,Clearwater County,MN,NA,65.10416666666666,NA
38637,DeSoto County,MS,NA,NA,69.72477064220183
39301,Lauderdale County,MS,20,NA,NA
39452,George County,MS,57.35849056603774,NA,NA
63011,St. Louis County,MO,NA,NA,8.56269113149847
63026,St. Louis County,MO,NA,12.5,27.522935779816514
63033,St. Louis County,MO,NA,15.625,NA
63040,St. Louis County,MO,NA,NA,95.71865443425077
63084,Franklin County,MO,NA,84.11458333333334,NA
63124,St. Louis County,MO,NA,NA,39.14373088685015
63127,St. Louis County,MO,NA,NA,61.46788990825688
63131,St. Louis County,MO,88.67924528301887,NA,NA
63303,St. Charles County,MO,NA,NA,13.149847094801222
63552,Macon County,MO,NA,NA,59.63302752293578
63901,Butler County,MO,13.962264150943396,NA,NA
64055,Jackson County,MO,NA,7.03125,NA
64083,Cass County,MO,38.86792452830189,NA,NA
64155,Clay County,MO,27.169811320754718,NA,NA
64801,Jasper County,MO,13.584905660377359,NA,21.712538226299692
65018,Moniteau County,MO,NA,91.66666666666666,NA
65066,Gasconade County,MO,NA,88.80208333333334,NA
65301,Pettis County,MO,NA,7.552083333333333,NA
65606,Oregon County,MO,81.50943396226415,NA,NA
65721,Christian County,MO,NA,66.40625,NA
65781,Greene County,MO,NA,NA,88.37920489296636
65802,Greene County,MO,11.320754716981133,NA,NA
65810,Greene County,MO,NA,NA,64.52599388379205
59102,Yellowstone County,MT,NA,NA,3.669724770642202
59911,Flathead County,MT,95.47169811320755,NA,NA
68116,Douglas County,NE,NA,NA,71.25382262996942
68130,Douglas County,NE,NA,76.30208333333334,92.35474006116208
68134,Douglas County,NE,NA,NA,57.49235474006116
89104,Clark County,NV,NA,54.947916666666664,NA
89108,Clark County,NV,24.528301886792452,NA,NA
89122,Clark County,NV,NA,80.98958333333334,NA
89139,Clark County,NV,73.9622641509434,NA,NA
89403,Lyon County,NV,NA,41.40625,NA
89434,Washoe County,NV,NA,38.80208333333333,NA
89436,Washoe County,NV,NA,12.239583333333332,NA
89441,Washoe County,NV,78.8679245283019,NA,NA
89512,Washoe County,NV,16.60377358490566,NA,NA
03038,Rockingham County,NH,NA,19.010416666666664,NA
03045,Hillsborough County,NH,NA,NA,65.13761467889908
03053,Rockingham County,NH,58.490566037735846,NA,NA
03062,Hillsborough County,NH,19.622641509433965,NA,NA
03246,Belknap County,NH,NA,NA,25.993883792048926
03254,Carroll County,NH,NA,NA,99.08256880733946
03301,Merrimack County,NH,NA,NA,8.868501529051988
03446,Cheshire County,NH,NA,85.9375,NA
03452,Cheshire County,NH,NA,NA,88.07339449541286
03458,Hillsborough County,NH,NA,NA,45.56574923547401
07003,Essex County,NJ,NA,NA,40.0611620795107
07008,Middlesex County,NJ,NA,NA,96.3302752293578
07030,Hudson County,NJ,NA,32.29166666666667,NA
07055,Passaic County,NJ,NA,NA,35.77981651376147
07103,Essex County,NJ,0.37735849056603776,NA,NA
07305,Hudson County,NJ,NA,NA,66.66666666666666
07405,Morris County,NJ,80,NA,64.83180428134557
08094,Gloucester County,NJ,31.32075471698113,NA,NA
08302,Cumberland County,NJ,10.566037735849058,NA,NA
08360,Cumberland County,NJ,NA,NA,26.605504587155966
08401,Atlantic County,NJ,NA,3.3854166666666665,NA
08536,Middlesex County,NJ,54.339622641509436,NA,NA
08852,Middlesex County,NJ,51.320754716981135,NA,NA
08879,Middlesex County,NJ,NA,55.46875,NA
87112,Bernalillo County,NM,44.528301886792455,NA,10.397553516819572
88011,Doa Ana County,NM,NA,46.875,NA
88201,Chaves County,NM,NA,NA,53.51681957186545
88240,Lea County,NM,NA,22.135416666666664,NA
88310,Otero County,NM,27.92452830188679,NA,NA
10025,New York County,NY,NA,NA,24.159021406727827
10306,Richmond County,NY,21.50943396226415,NA,NA
10455,Bronx County,NY,4.150943396226415,NA,NA
10457,Bronx County,NY,NA,0.78125,NA
10458,Bronx County,NY,NA,NA,12.232415902140673
10460,Bronx County,NY,NA,49.21875,NA
10461,Bronx County,NY,41.132075471698116,NA,NA
10463,Bronx County,NY,NA,4.427083333333334,NA
10466,Bronx County,NY,NA,2.34375,NA
10472,Bronx County,NY,NA,1.8229166666666667,NA
10543,Westchester County,NY,NA,NA,75.84097859327217
10591,Westchester County,NY,NA,NA,62.079510703363916
10605,Westchester County,NY,87.16981132075472,NA,41.59021406727829
10956,Rockland County,NY,NA,NA,32.415902140672785
11207,Kings County,NY,NA,NA,44.342507645259936
11208,Kings County,NY,NA,15.364583333333334,NA
11210,Kings County,NY,43.39622641509434,NA,NA
11212,Kings County,NY,NA,7.291666666666667,NA
11234,Kings County,NY,22.641509433962266,NA,NA
11367,Queens County,NY,NA,NA,90.51987767584097
11368,Queens County,NY,NA,NA,21.100917431192663
11375,Queens County,NY,NA,NA,56.269113149847094
11428,Queens County,NY,NA,NA,77.37003058103976
11729,Suffolk County,NY,NA,63.541666666666664,NA
11746,Suffolk County,NY,NA,44.01041666666667,NA
11776,Suffolk County,NY,NA,84.63541666666666,45.87155963302752
12302,Schenectady County,NY,NA,NA,80.73394495412845
12550,Orange County,NY,35.094339622641506,NA,NA
12992,Clinton County,NY,NA,85.15625,NA
13045,Cortland County,NY,NA,NA,44.03669724770643
13165,Seneca County,NY,NA,24.21875,NA
13350,Herkimer County,NY,NA,NA,56.574923547400616
13413,Oneida County,NY,NA,NA,62.99694189602446
13676,St. Lawrence County,NY,35.84905660377358,NA,NA
13790,Broome County,NY,NA,40.36458333333333,NA
13815,Chenango County,NY,NA,15.104166666666666,NA
13820,Otsego County,NY,NA,6.510416666666667,NA
13838,Delaware County,NY,NA,82.55208333333334,NA
14092,Niagara County,NY,NA,NA,51.07033639143731
14094,Niagara County,NY,33.58490566037736,NA,NA
14103,Orleans County,NY,NA,51.822916666666664,NA
14127,Erie County,NY,NA,16.666666666666664,NA
14174,Niagara County,NY,NA,79.16666666666666,NA
14215,Erie County,NY,1.1320754716981132,NA,NA
14304,Niagara County,NY,4.905660377358491,NA,NA
14305,Niagara County,NY,6.7924528301886795,NA,NA
14416,Genesee County,NY,NA,89.0625,NA
14420,Monroe County,NY,NA,24.739583333333336,NA
14424,Ontario County,NY,1.8867924528301887,1.0416666666666665,NA
14425,Ontario County,NY,NA,28.645833333333332,NA
14456,Ontario County,NY,NA,53.385416666666664,76.75840978593273
14464,Monroe County,NY,NA,69.27083333333334,NA
14526,Monroe County,NY,NA,51.041666666666664,NA
14534,Monroe County,NY,NA,NA,7.951070336391437
14569,Wyoming County,NY,NA,64.32291666666666,NA
14606,Monroe County,NY,16.9811320754717,NA,NA
14809,Steuben County,NY,NA,95.83333333333334,NA
14891,Schuyler County,NY,NA,90.625,NA
27011,Yadkin County,NC,NA,93.22916666666666,NA
27020,Yadkin County,NC,NA,68.48958333333334,NA
27021,Stokes County,NC,40.75471698113208,NA,NA
27025,Rockingham County,NC,75.47169811320755,NA,NA
27278,Orange County,NC,25.28301886792453,14.322916666666666,NA
27292,Davidson County,NC,NA,NA,53.21100917431193
27295,Davidson County,NC,3.018867924528302,NA,NA
27408,Guilford County,NC,83.77358490566039,NA,NA
27502,Wake County,NC,NA,NA,55.65749235474006
27609,Wake County,NC,NA,NA,33.02752293577982
27707,Durham County,NC,12.452830188679245,NA,NA
27944,Perquimans County,NC,NA,53.645833333333336,NA
28025,Cabarrus County,NC,NA,NA,16.207951070336392
28034,Gaston County,NC,NA,71.61458333333334,NA
28078,Mecklenburg County,NC,NA,NA,37.920489296636084
28080,Lincoln County,NC,NA,91.14583333333334,NA
28092,Lincoln County,NC,NA,67.96875,NA
28129,Stanly County,NC,NA,97.13541666666666,NA
28163,Stanly County,NC,NA,99.73958333333334,NA
28173,Union County,NC,90.18867924528303,NA,NA
28358,Robeson County,NC,NA,33.85416666666667,NA
28539,Onslow County,NC,NA,89.84375,NA
28546,Onslow County,NC,NA,NA,42.50764525993883
28574,Onslow County,NC,NA,NA,97.85932721712538
28601,Catawba County,NC,NA,41.66666666666667,NA
28613,Catawba County,NC,41.88679245283019,NA,NA
28630,Caldwell County,NC,91.69811320754717,NA,NA
28638,Caldwell County,NC,79.24528301886792,NA,NA
28655,Burke County,NC,NA,4.166666666666666,NA
28659,Wilkes County,NC,23.77358490566038,NA,NA
28697,Wilkes County,NC,NA,NA,58.103975535168196
28761,McDowell County,NC,76.9811320754717,NA,NA
28906,Cherokee County,NC,NA,NA,25.688073394495415
58078,Cass County,ND,NA,96.875,NA
58701,Ward County,ND,NA,8.072916666666668,NA
43056,Licking County,OH,NA,39.84375,NA
43068,Franklin County,OH,NA,9.895833333333332,NA
43113,Pickaway County,OH,14.339622641509434,NA,NA
43138,Hocking County,OH,33.9622641509434,NA,NA
43140,Madison County,OH,39.24528301886793,NA,NA
43160,Fayette County,OH,71.69811320754717,NA,NA
43205,Franklin County,OH,73.20754716981132,NA,NA
43230,Franklin County,OH,16.22641509433962,NA,NA
43357,Logan County,OH,NA,NA,69.1131498470948
43420,Sandusky County,OH,10.943396226415095,NA,NA
43515,Fulton County,OH,64.52830188679245,NA,NA
43551,Wood County,OH,43.0188679245283,NA,NA
43609,Lucas County,OH,5.283018867924529,NA,NA
43793,Monroe County,OH,94.71698113207547,NA,NA
43920,Columbiana County,OH,NA,83.85416666666666,NA
43942,Belmont County,OH,98.49056603773585,NA,NA
44001,Lorain County,OH,NA,27.083333333333332,NA
44035,Lorain County,OH,NA,NA,17.737003058103976
44047,Ashtabula County,OH,82.64150943396227,NA,NA
44052,Lorain County,OH,NA,21.354166666666664,NA
44053,Lorain County,OH,NA,NA,10.703363914373089
44054,Lorain County,OH,NA,40.88541666666667,NA
44056,Summit County,OH,62.264150943396224,58.854166666666664,NA
44060,Lake County,OH,NA,NA,0.9174311926605505
44094,Lake County,OH,NA,NA,3.9755351681957185
44095,Lake County,OH,NA,NA,9.785932721712538
44106,Cuyahoga County,OH,NA,NA,55.96330275229357
44115,Cuyahoga County,OH,NA,97.65625,NA
44122,Cuyahoga County,OH,NA,NA,0.6116207951070336
44125,Cuyahoga County,OH,0.7547169811320755,NA,NA
44136,Cuyahoga County,OH,NA,NA,19.571865443425075
44138,Cuyahoga County,OH,NA,61.979166666666664,NA
44139,Cuyahoga County,OH,NA,13.802083333333334,NA
44143,Cuyahoga County,OH,NA,NA,4.892966360856269
44146,Cuyahoga County,OH,NA,NA,11.926605504587156
44149,Cuyahoga County,OH,NA,19.53125,18.34862385321101
44212,Medina County,OH,2.2641509433962264,NA,NA
44223,Summit County,OH,NA,NA,70.33639143730886
44224,Summit County,OH,NA,NA,15.902140672782874
44256,Medina County,OH,66.0377358490566,0.26041666666666663,NA
44312,Summit County,OH,NA,NA,29.051987767584098
44460,Columbiana County,OH,NA,NA,28.440366972477065
44615,Carroll County,OH,NA,54.166666666666664,NA
44718,Stark County,OH,NA,75.26041666666666,NA
44906,Richland County,OH,NA,NA,32.7217125382263
45013,Butler County,OH,NA,25.520833333333332,34.5565749235474
45030,Hamilton County,OH,53.9622641509434,NA,NA
45042,Butler County,OH,22.264150943396228,NA,NA
45140,Clermont County,OH,NA,17.708333333333336,NA
45205,Hamilton County,OH,NA,57.03125,NA
45215,Hamilton County,OH,NA,39.58333333333333,NA
45223,Hamilton County,OH,NA,84.89583333333334,NA
45251,Hamilton County,OH,49.81132075471698,NA,NA
45309,Montgomery County,OH,NA,NA,47.09480122324159
45365,Shelby County,OH,NA,NA,30.58103975535168
45432,Greene County,OH,NA,60.15625,NA
45458,Montgomery County,OH,NA,11.979166666666668,NA
45459,Montgomery County,OH,NA,60.416666666666664,NA
45601,Ross County,OH,NA,NA,0
45628,Ross County,OH,NA,NA,79.20489296636084
45638,Lawrence County,OH,4.528301886792453,NA,NA
45640,Jackson County,OH,NA,5.729166666666666,NA
45805,Allen County,OH,NA,65.36458333333334,NA
45806,Allen County,OH,NA,NA,93.88379204892966
45875,Putnam County,OH,NA,73.69791666666666,NA
45891,Van Wert County,OH,NA,27.34375,NA
73044,Logan County,OK,NA,15.885416666666666,NA
73069,Cleveland County,OK,98.86792452830188,NA,NA
73071,Cleveland County,OK,55.094339622641506,NA,NA
73111,Oklahoma County,OK,NA,66.14583333333334,NA
74020,Pawnee County,OK,NA,NA,85.3211009174312
74029,Washington County,OK,90.9433962264151,NA,NA
74059,Payne County,OK,NA,95.05208333333334,NA
74073,Tulsa County,OK,NA,NA,89.90825688073394
74436,Muskogee County,OK,NA,94.01041666666666,NA
74571,Le Flore County,OK,NA,NA,94.80122324159022
74601,Kay County,OK,72.0754716981132,NA,NA
74804,Pottawatomie County,OK,NA,92.1875,NA
74955,Sequoyah County,OK,56.9811320754717,NA,NA
97016,Columbia County,OR,NA,NA,87.76758409785933
97030,Multnomah County,OR,NA,20.572916666666664,26.911314984709477
97124,Washington County,OR,NA,61.197916666666664,NA
97239,Multnomah County,OR,NA,NA,58.40978593272171
97394,Lincoln County,OR,NA,NA,70.03058103975535
97470,Douglas County,OR,NA,NA,45.25993883792049
97471,Douglas County,OR,18.49056603773585,NA,NA
97479,Douglas County,OR,NA,NA,50.45871559633027
97501,Jackson County,OR,NA,44.79166666666667,NA
97504,Jackson County,OR,23.39622641509434,13.020833333333334,NA
15068,Westmoreland County,PA,NA,NA,7.033639143730887
15226,Allegheny County,PA,65.28301886792453,NA,NA
15370,Greene County,PA,49.056603773584904,NA,NA
15601,Westmoreland County,PA,NA,1.5625,NA
15801,Clearfield County,PA,NA,5.989583333333334,NA
16001,Butler County,PA,NA,2.604166666666667,NA
16101,Lawrence County,PA,7.169811320754717,71.35416666666666,NA
16137,Mercer County,PA,NA,NA,51.37614678899083
16148,Mercer County,PA,NA,25,13.455657492354739
16510,Erie County,PA,NA,45.3125,29.357798165137616
17022,Lancaster County,PA,NA,NA,22.629969418960243
17078,Lebanon County,PA,NA,NA,11.314984709480122
17084,Mifflin County,PA,NA,NA,80.1223241590214
17110,Dauphin County,PA,NA,28.90625,NA
17112,Dauphin County,PA,75.84905660377359,4.947916666666666,NA
17408,York County,PA,NA,NA,20.18348623853211
17540,Lancaster County,PA,NA,NA,75.22935779816514
17701,Lycoming County,PA,NA,NA,11.62079510703364
17751,Clinton County,PA,NA,81.51041666666666,NA
17801,Northumberland County,PA,NA,24.479166666666664,NA
18017,Northampton County,PA,NA,28.125,6.422018348623854
18020,Northampton County,PA,NA,NA,31.19266055045872
18037,Lehigh County,PA,74.33962264150942,NA,NA
18042,Northampton County,PA,29.056603773584904,NA,25.382262996941897
18064,Northampton County,PA,NA,NA,24.464831804281346
18069,Lehigh County,PA,NA,87.5,NA
18103,Lehigh County,PA,6.415094339622642,NA,NA
18109,Lehigh County,PA,NA,50.520833333333336,NA
18222,Luzerne County,PA,NA,71.875,NA
18330,Monroe County,PA,85.66037735849056,NA,NA
18505,Lackawanna County,PA,42.64150943396226,NA,NA
18612,Luzerne County,PA,54.71698113207547,NA,NA
18848,Bradford County,PA,NA,NA,96.63608562691131
19032,Delaware County,PA,80.37735849056604,NA,NA
19050,Delaware County,PA,NA,13.802083333333334,NA
19053,Bucks County,PA,77.73584905660378,NA,NA
19104,Philadelphia County,PA,NA,21.09375,NA
19121,Philadelphia County,PA,38.113207547169814,NA,NA
19143,Philadelphia County,PA,NA,NA,62.38532110091744
19153,Philadelphia County,PA,NA,48.4375,NA
19342,Delaware County,PA,48.301886792452834,NA,NA
19475,Chester County,PA,73.58490566037736,NA,NA
02809,Bristol County,RI,NA,37.23958333333333,NA
02889,Kent County,RI,NA,21.614583333333336,NA
02895,Providence County,RI,NA,30.208333333333332,NA
02904,Providence County,RI,NA,22.916666666666664,NA
02910,Providence County,RI,NA,89.32291666666666,NA
02915,Providence County,RI,74.71698113207546,NA,NA
02920,Providence County,RI,32.83018867924528,NA,15.59633027522936
29073,Lexington County,SC,25.28301886792453,NA,NA
29212,Lexington County,SC,60.37735849056604,NA,NA
29405,Charleston County,SC,NA,42.70833333333333,NA
29526,Horry County,SC,NA,10.9375,NA
29588,Horry County,SC,NA,10.416666666666668,59.32721712538226
29611,Greenville County,SC,NA,36.71875,NA
29625,Anderson County,SC,NA,NA,51.681957186544345
29646,Greenwood County,SC,NA,NA,33.94495412844037
29649,Greenwood County,SC,NA,NA,20.489296636085626
57006,Brookings County,SD,NA,NA,19.26605504587156
57108,Lincoln County,SD,NA,59.114583333333336,NA
57110,Minnehaha County,SD,50.943396226415096,NA,NA
57703,Pennington County,SD,NA,79.6875,NA
37075,Sumner County,TN,NA,NA,14.984709480122325
37128,Rutherford County,TN,31.69811320754717,NA,NA
37218,Davidson County,TN,NA,NA,68.80733944954129
37303,McMinn County,TN,26.037735849056602,NA,NA
37354,Monroe County,TN,NA,45.57291666666667,NA
37617,Sullivan County,TN,71.32075471698113,66.92708333333334,NA
37642,Hawkins County,TN,92.45283018867924,NA,NA
37664,Sullivan County,TN,NA,NA,34.862385321100916
37721,Knox County,TN,64.90566037735849,NA,NA
37743,Greene County,TN,NA,NA,16.819571865443425
37745,Greene County,TN,29.433962264150942,25.78125,NA
37748,Roane County,TN,NA,NA,44.95412844036697
37814,Hamblen County,TN,NA,NA,69.41896024464832
37840,Roane County,TN,NA,57.291666666666664,NA
37854,Roane County,TN,55.471698113207545,NA,NA
37876,Sevier County,TN,NA,25.260416666666668,NA
37880,Meigs County,TN,NA,NA,100
37886,Blount County,TN,84.52830188679246,NA,NA
37890,Jefferson County,TN,70.18867924528301,NA,NA
38114,Shelby County,TN,NA,NA,97.55351681957187
38122,Shelby County,TN,NA,70.83333333333334,NA
38128,Shelby County,TN,NA,39.32291666666667,NA
38462,Lewis County,TN,NA,81.25,NA
38544,Putnam County,TN,NA,96.09375,NA
75002,Collin County,TX,NA,NA,85.62691131498471
75051,Dallas County,TX,NA,80.72916666666666,NA
75134,Dallas County,TX,NA,76.04166666666666,NA
75137,Dallas County,TX,59.62264150943396,NA,63.30275229357798
75150,Dallas County,TX,NA,19.270833333333336,NA
75169,Van Zandt County,TX,67.16981132075472,NA,NA
75409,Collin County,TX,NA,86.45833333333334,NA
75418,Fannin County,TX,NA,NA,82.56880733944955
75474,Hunt County,TX,NA,61.458333333333336,NA
75503,Bowie County,TX,NA,NA,84.70948012232415
75771,Smith County,TX,53.20754716981132,NA,NA
75803,Anderson County,TX,NA,51.302083333333336,NA
76006,Tarrant County,TX,NA,73.69791666666666,NA
76009,Johnson County,TX,NA,65.88541666666666,NA
76063,Tarrant County,TX,15.471698113207546,NA,NA
76114,Tarrant County,TX,43.77358490566038,NA,NA
76132,Tarrant County,TX,NA,NA,52.59938837920489
76240,Cooke County,TX,NA,39.0625,NA
76442,Comanche County,TX,86.41509433962264,NA,NA
76458,Jack County,TX,NA,92.70833333333334,NA
76501,Bell County,TX,15.849056603773585,NA,NA
76513,Bell County,TX,NA,34.11458333333333,2.1406727828746175
76520,Milam County,TX,NA,NA,93.57798165137615
76528,Coryell County,TX,NA,NA,78.59327217125383
76541,Bell County,TX,NA,NA,23.547400611620795
76542,Bell County,TX,NA,26.5625,22.93577981651376
76549,Bell County,TX,NA,NA,77.06422018348624
76634,Bosque County,TX,NA,NA,84.09785932721712
76801,Brown County,TX,NA,48.69791666666667,NA
77019,Harris County,TX,NA,NA,82.87461773700305
77026,Harris County,TX,NA,NA,66.36085626911316
77030,Harris County,TX,NA,NA,99.69418960244649
77069,Harris County,TX,NA,47.39583333333333,NA
77077,Harris County,TX,45.28301886792453,NA,NA
77085,Harris County,TX,NA,NA,96.02446483180428
77303,Montgomery County,TX,NA,NA,82.26299694189603
77318,Montgomery County,TX,NA,75.78125,NA
77371,San Jacinto County,TX,NA,88.28125,NA
77414,Matagorda County,TX,46.41509433962264,NA,NA
77437,Wharton County,TX,NA,NA,50.764525993883794
77477,Fort Bend County,TX,NA,45.05208333333333,NA
77539,Galveston County,TX,23.0188679245283,NA,NA
77550,Galveston County,TX,NA,16.40625,NA
77627,Jefferson County,TX,67.54716981132076,NA,NA
77657,Hardin County,TX,56.22641509433962,NA,NA
77833,Washington County,TX,NA,31.25,NA
78114,Wilson County,TX,NA,52.864583333333336,NA
78130,Comal County,TX,NA,59.895833333333336,NA
78228,Bexar County,TX,32.45283018867924,NA,NA
78584,Starr County,TX,NA,NA,50.15290519877675
78643,Llano County,TX,NA,NA,81.9571865443425
79412,Lubbock County,TX,57.73584905660377,NA,NA
79703,Midland County,TX,NA,77.60416666666666,NA
79707,Midland County,TX,NA,45.83333333333333,NA
79907,El Paso County,TX,40.37735849056604,NA,NA
79912,El Paso County,TX,NA,NA,28.74617737003058
79924,El Paso County,TX,44.15094339622642,NA,NA
79927,El Paso County,TX,NA,NA,65.13761467889908
84074,Tooele County,UT,3.7735849056603774,NA,NA
84078,Uintah County,UT,NA,NA,71.86544342507645
84094,Salt Lake County,UT,NA,50,NA
84121,Salt Lake County,UT,70.56603773584905,NA,NA
84321,Cache County,UT,86.0377358490566,72.13541666666666,NA
84403,Weber County,UT,NA,88.02083333333334,NA
84604,Utah County,UT,NA,NA,87.1559633027523
84790,Washington County,UT,NA,NA,9.480122324159021
05001,Windsor County,VT,NA,86.45833333333334,NA
05478,Franklin County,VT,NA,NA,31.49847094801223
05701,Rutland County,VT,NA,9.114583333333332,NA
20175,Loudoun County,VA,66.79245283018868,NA,NA
22003,Fairfax County,VA,34.33962264150943,NA,NA
22025,Prince William County,VA,NA,80.46875,NA
22079,Fairfax County,VA,NA,NA,91.74311926605505
22308,Fairfax County,VA,NA,83.07291666666666,NA
22310,Fairfax County,VA,NA,67.70833333333334,NA
22554,Stafford County,VA,NA,46.09375,NA
22802,Harrisonburg city,VA,NA,NA,67.58409785932722
22812,Rockingham County,VA,NA,NA,60.550458715596335
22824,Shenandoah County,VA,84.15094339622642,NA,NA
22911,Albemarle County,VA,70.94339622641509,NA,NA
23188,James City County,VA,NA,NA,1.834862385321101
23228,Henrico County,VA,NA,38.02083333333333,NA
23322,Chesapeake city,VA,52.075471698113205,NA,NA
23325,Chesapeake city,VA,NA,NA,48.318042813455655
23430,Isle of Wight County,VA,NA,35.9375,NA
23434,Suffolk city,VA,NA,9.375,18.654434250764528
23451,Virginia Beach city,VA,NA,16.927083333333336,6.116207951070336
23454,Virginia Beach city,VA,NA,11.458333333333332,NA
23456,Virginia Beach city,VA,NA,NA,19.877675840978593
23504,Norfolk city,VA,NA,56.510416666666664,NA
23602,Newport News city,VA,NA,32.55208333333333,NA
23606,Newport News city,VA,NA,30.46875,NA
23669,Hampton city,VA,26.79245283018868,NA,NA
23701,Portsmouth city,VA,NA,26.822916666666668,NA
24015,Roanoke city,VA,72.45283018867924,NA,NA
24017,Roanoke city,VA,28.30188679245283,NA,NA
24018,Roanoke County,VA,NA,NA,14.678899082568808
24019,Roanoke County,VA,NA,NA,46.48318042813456
24228,Dickenson County,VA,NA,53.90625,NA
24244,Scott County,VA,NA,NA,86.85015290519877
24279,Wise County,VA,NA,NA,83.79204892966361
24416,Buena Vista city,VA,63.39622641509434,NA,NA
24486,Augusta County,VA,94.33962264150944,NA,NA
24558,Halifax County,VA,NA,79.16666666666666,NA
24572,Amherst County,VA,NA,93.75,NA
24574,Amherst County,VA,NA,NA,95.10703363914374
98012,Snohomish County,WA,NA,30.989583333333332,NA
98036,Snohomish County,WA,NA,41.92708333333333,NA
98104,King County,WA,NA,NA,57.798165137614674
98105,King County,WA,NA,NA,54.43425076452599
98136,King County,WA,86.79245283018868,NA,NA
98168,King County,WA,NA,NA,47.40061162079511
98226,Whatcom County,WA,NA,NA,47.706422018348626
98275,Snohomish County,WA,69.0566037735849,NA,NA
98498,Pierce County,WA,NA,56.770833333333336,NA
98584,Mason County,WA,NA,NA,36.391437308868504
98611,Cowlitz County,WA,80.75471698113208,NA,NA
98620,Klickitat County,WA,NA,68.75,NA
98626,Cowlitz County,WA,NA,35.15625,NA
98632,Cowlitz County,WA,21.132075471698116,NA,NA
98661,Clark County,WA,NA,NA,43.730886850152906
98664,Clark County,WA,NA,NA,52.293577981651374
98815,Chelan County,WA,NA,NA,94.4954128440367
98826,Chelan County,WA,NA,76.82291666666666,NA
98901,Yakima County,WA,53.58490566037736,NA,NA
98908,Yakima County,WA,NA,NA,49.84709480122324
99114,Stevens County,WA,NA,NA,55.04587155963303
99362,Walla Walla County,WA,58.11320754716981,46.35416666666667,NA
20008,District of Columbia,DC,NA,74.47916666666666,NA
20009,District of Columbia,DC,NA,47.91666666666667,NA
20018,District of Columbia,DC,NA,NA,75.53516819571865
25314,Kanawha County,WV,52.45283018867924,NA,NA
25541,Cabell County,WV,NA,NA,74.61773700305811
25701,Cabell County,WV,NA,NA,32.11009174311927
26037,Brooke County,WV,NA,NA,70.64220183486239
26062,Hancock County,WV,NA,NA,16.51376146788991
26330,Harrison County,WV,83.39622641509435,NA,NA
26601,Braxton County,WV,92.83018867924528,NA,NA
53005,Waukesha County,WI,68.67924528301886,NA,NA
53042,Manitowoc County,WI,NA,NA,97.85932721712538
53072,Waukesha County,WI,NA,43.75,NA
53097,Ozaukee County,WI,90.56603773584906,NA,NA
53121,Walworth County,WI,NA,NA,96.94189602446484
53143,Kenosha County,WI,NA,32.8125,NA
53144,Kenosha County,WI,NA,NA,54.74006116207951
53151,Waukesha County,WI,NA,NA,22.018348623853214
53172,Milwaukee County,WI,NA,42.1875,NA
53182,Racine County,WI,NA,61.71875,NA
53188,Waukesha County,WI,NA,NA,36.08562691131498
53189,Waukesha County,WI,NA,34.89583333333333,NA
53204,Milwaukee County,WI,8.679245283018867,NA,NA
53210,Milwaukee County,WI,NA,22.395833333333336,NA
53212,Milwaukee County,WI,14.716981132075471,NA,NA
53216,Milwaukee County,WI,8.30188679245283,55.989583333333336,NA
53402,Racine County,WI,NA,75.52083333333334,20.795107033639145
53525,Rock County,WI,97.73584905660377,NA,NA
53533,Iowa County,WI,93.9622641509434,NA,NA
53546,Rock County,WI,NA,NA,12.538226299694188
53548,Rock County,WI,NA,64.0625,NA
53711,Dane County,WI,NA,52.604166666666664,NA
53821,Crawford County,WI,NA,81.77083333333334,NA
53963,Dodge County,WI,NA,78.64583333333334,NA
54022,Pierce County,WI,NA,48.95833333333333,NA
54024,Polk County,WI,NA,NA,89.29663608562691
54115,Brown County,WI,47.54716981132076,NA,NA
54143,Marinette County,WI,NA,58.59375,NA
54166,Shawano County,WI,NA,52.34375,NA
54304,Brown County,WI,24.90566037735849,NA,NA
54311,Brown County,WI,NA,NA,28.134556574923547
54313,Brown County,WI,NA,NA,36.69724770642202
54452,Lincoln County,WI,NA,NA,29.96941896024465
54487,Lincoln County,WI,77.35849056603774,NA,NA
54521,Vilas County,WI,NA,96.61458333333334,NA
54552,Price County,WI,NA,NA,74.92354740061162
54601,La Crosse County,WI,NA,NA,30.886850152905197
54729,Chippewa County,WI,36.9811320754717,NA,NA
54755,Buffalo County,WI,NA,NA,79.81651376146789
54880,Douglas County,WI,NA,NA,4.281345565749235
54891,Bayfield County,WI,NA,96.35416666666666,NA
54902,Winnebago County,WI,NA,NA,72.47706422018348
