ZipCode,county,state,Adult,Retirement,Geriatric
35114,Shelby County,AL,91.11842105263158,NA,NA
35127,Jefferson County,AL,NA,NA,76.96629213483146
35221,Jefferson County,AL,NA,92.63157894736842,NA
35222,Jefferson County,AL,91.44736842105263,NA,NA
35406,Tuscaloosa County,AL,NA,51.578947368421055,NA
35749,Madison County,AL,NA,NA,71.34831460674157
36067,Autauga County,AL,42.43421052631579,NA,NA
36105,Montgomery County,AL,NA,84.91228070175438,NA
36110,Montgomery County,AL,90.13157894736842,NA,NA
36526,Baldwin County,AL,NA,73.33333333333333,NA
36695,Mobile County,AL,94.07894736842105,NA,NA
36784,Clarke County,AL,NA,NA,92.69662921348315
36867,Russell County,AL,NA,45.96491228070175,NA
36874,Lee County,AL,NA,NA,94.9438202247191
85019,Maricopa County,AZ,NA,70.52631578947368,NA
85028,Maricopa County,AZ,NA,NA,83.14606741573034
85233,Maricopa County,AZ,46.71052631578947,NA,NA
85263,Maricopa County,AZ,NA,93.33333333333333,NA
85305,Maricopa County,AZ,NA,94.73684210526315,NA
85541,Gila County,AZ,NA,45.26315789473684,NA
85705,Pima County,AZ,26.31578947368421,NA,NA
85713,Pima County,AZ,NA,11.228070175438596,NA
71822,Little River County,AR,92.10526315789474,NA,NA
72046,Lonoke County,AR,NA,90.87719298245615,NA
72067,Cleburne County,AR,NA,83.50877192982456,NA
90019,Los Angeles County,CA,NA,NA,13.48314606741573
90026,Los Angeles County,CA,NA,43.50877192982456,NA
90245,Los Angeles County,CA,NA,NA,84.8314606741573
90247,Los Angeles County,CA,NA,53.68421052631579,NA
90250,Los Angeles County,CA,30.92105263157895,NA,NA
90732,Los Angeles County,CA,NA,NA,54.49438202247191
91354,Los Angeles County,CA,79.93421052631578,NA,NA
91740,Los Angeles County,CA,NA,57.19298245614035,NA
91741,Los Angeles County,CA,NA,NA,79.21348314606742
92021,San Diego County,CA,NA,17.894736842105264,NA
92071,San Diego County,CA,NA,43.15789473684211,NA
92103,San Diego County,CA,51.973684210526315,NA,NA
92129,San Diego County,CA,58.55263157894737,NA,NA
92251,Imperial County,CA,73.35526315789474,NA,NA
92260,Riverside County,CA,97.36842105263158,NA,NA
92316,San Bernardino County,CA,55.92105263157895,NA,NA
92345,San Bernardino County,CA,13.157894736842104,NA,NA
92570,Riverside County,CA,NA,49.122807017543856,NA
92624,Orange County,CA,96.38157894736842,NA,NA
92637,Orange County,CA,NA,NA,3.932584269662921
92801,Orange County,CA,40.78947368421053,NA,NA
92832,Orange County,CA,99.67105263157895,NA,NA
93003,Ventura County,CA,NA,NA,17.97752808988764
93015,Ventura County,CA,69.07894736842105,NA,NA
93257,Tulare County,CA,48.026315789473685,61.40350877192983,NA
93458,Santa Barbara County,CA,NA,65.96491228070175,NA
93702,Fresno County,CA,NA,38.59649122807017,NA
93703,Fresno County,CA,76.31578947368422,NA,NA
93930,Monterey County,CA,NA,88.7719298245614,NA
93955,Monterey County,CA,NA,38.94736842105263,NA
94022,Santa Clara County,CA,NA,NA,66.85393258426966
94112,San Francisco County,CA,30.263157894736842,NA,NA
94114,San Francisco County,CA,53.289473684210535,NA,NA
94116,San Francisco County,CA,NA,40.35087719298245,NA
94122,San Francisco County,CA,NA,98.59649122807016,NA
94597,Contra Costa County,CA,NA,NA,96.06741573033707
94903,Marin County,CA,NA,NA,14.04494382022472
94947,Marin County,CA,NA,52.28070175438596,NA
95014,Santa Clara County,CA,NA,64.56140350877193,NA
95120,Santa Clara County,CA,NA,NA,34.831460674157306
95207,San Joaquin County,CA,27.960526315789476,NA,NA
95501,Humboldt County,CA,56.25,NA,NA
95503,Humboldt County,CA,NA,NA,53.93258426966292
95630,Sacramento County,CA,NA,21.052631578947366,NA
95685,Amador County,CA,NA,91.57894736842105,NA
95815,Sacramento County,CA,65.46052631578947,NA,NA
95816,Sacramento County,CA,NA,NA,78.08988764044943
95819,Sacramento County,CA,NA,86.66666666666667,NA
96067,Siskiyou County,CA,NA,85.6140350877193,NA
80007,Jefferson County,CO,NA,100,NA
80249,Denver County,CO,43.42105263157895,NA,NA
80503,Boulder County,CO,NA,57.54385964912281,NA
80534,Weld County,CO,NA,NA,90.4494382022472
80906,El Paso County,CO,NA,44.21052631578947,NA
80919,El Paso County,CO,70.72368421052632,NA,88.20224719101124
81301,La Plata County,CO,57.23684210526315,NA,NA
06095,Hartford County,CT,NA,34.03508771929825,NA
06489,Hartford County,CT,37.5,NA,NA
06513,New Haven County,CT,5.592105263157895,NA,NA
06756,Litchfield County,CT,NA,96.84210526315789,NA
06790,Litchfield County,CT,33.223684210526315,NA,NA
06801,Fairfield County,CT,70.39473684210526,NA,NA
19701,New Castle County,DE,NA,20.350877192982455,NA
19702,New Castle County,DE,21.052631578947366,NA,NA
19720,New Castle County,DE,NA,24.210526315789473,NA
32003,Clay County,FL,60.85526315789473,NA,NA
32011,Nassau County,FL,NA,NA,82.58426966292134
32043,Clay County,FL,50,NA,NA
32081,St. Johns County,FL,NA,NA,77.52808988764045
32091,Bradford County,FL,48.68421052631579,NA,NA
32095,St. Johns County,FL,NA,NA,87.64044943820225
32159,Lake County,FL,NA,NA,33.146067415730336
32210,Duval County,FL,4.934210526315789,NA,NA
32223,Duval County,FL,NA,38.24561403508772,NA
32224,Duval County,FL,NA,NA,35.39325842696629
32233,Duval County,FL,NA,NA,55.61797752808989
32257,Duval County,FL,NA,NA,46.62921348314607
32277,Duval County,FL,NA,48.07017543859649,NA
32433,Walton County,FL,61.18421052631579,NA,NA
32506,Escambia County,FL,19.736842105263158,NA,NA
32507,Escambia County,FL,NA,88.0701754385965,NA
32541,Okaloosa County,FL,66.11842105263158,NA,NA
32548,Okaloosa County,FL,64.14473684210526,NA,NA
32563,Santa Rosa County,FL,39.473684210526315,NA,NA
32725,Volusia County,FL,42.10526315789473,NA,NA
32780,Brevard County,FL,NA,NA,6.179775280898876
32807,Orange County,FL,51.64473684210527,NA,NA
32966,Indian River County,FL,NA,NA,19.662921348314608
33015,Miami-Dade County,FL,NA,NA,44.38202247191011
33040,Monroe County,FL,NA,NA,61.23595505617978
33068,Broward County,FL,50.6578947368421,NA,NA
33131,Miami-Dade County,FL,93.0921052631579,NA,NA
33150,Miami-Dade County,FL,NA,NA,87.07865168539325
33155,Miami-Dade County,FL,NA,35.43859649122807,NA
33174,Miami-Dade County,FL,NA,96.49122807017544,NA
33301,Broward County,FL,NA,68.42105263157895,NA
33328,Broward County,FL,84.53947368421053,NA,NA
33413,Palm Beach County,FL,98.68421052631578,NA,NA
33431,Palm Beach County,FL,NA,57.89473684210527,NA
33437,Palm Beach County,FL,NA,NA,0
33441,Broward County,FL,NA,NA,44.9438202247191
33442,Broward County,FL,NA,NA,82.02247191011236
33460,Palm Beach County,FL,NA,62.807017543859644,NA
33496,Palm Beach County,FL,NA,NA,8.98876404494382
33540,Pasco County,FL,96.05263157894737,NA,NA
33570,Hillsborough County,FL,NA,58.245614035087726,NA
33578,Hillsborough County,FL,41.776315789473685,NA,NA
33594,Hillsborough County,FL,62.5,NA,NA
33611,Hillsborough County,FL,NA,62.10526315789474,NA
33613,Hillsborough County,FL,NA,NA,48.31460674157304
33635,Hillsborough County,FL,84.86842105263158,NA,NA
33801,Polk County,FL,NA,46.31578947368421,NA
33805,Polk County,FL,46.05263157894737,NA,NA
33852,Highlands County,FL,NA,NA,34.26966292134831
33950,Charlotte County,FL,NA,34.73684210526316,NA
34120,Collier County,FL,NA,47.719298245614034,NA
34135,Lee County,FL,NA,NA,15.730337078651685
34207,Manatee County,FL,NA,59.29824561403508,NA
34231,Sarasota County,FL,NA,55.78947368421052,NA
34251,Manatee County,FL,95.39473684210526,NA,NA
34473,Marion County,FL,53.94736842105263,NA,NA
34606,Hernando County,FL,NA,42.80701754385965,NA
34609,Hernando County,FL,NA,27.017543859649123,NA
34689,Pinellas County,FL,NA,NA,25.280898876404496
34691,Pasco County,FL,50.98684210526315,NA,NA
34772,Osceola County,FL,88.81578947368422,NA,NA
34788,Lake County,FL,NA,NA,32.58426966292135
34982,St. Lucie County,FL,NA,NA,80.33707865168539
34986,St. Lucie County,FL,NA,NA,10.112359550561797
34990,Martin County,FL,NA,27.719298245614034,NA
30028,Forsyth County,GA,60.19736842105263,NA,NA
30093,Gwinnett County,GA,NA,NA,85.95505617977528
30103,Bartow County,GA,69.73684210526315,NA,NA
30281,Henry County,GA,NA,NA,46.06741573033708
30350,Fulton County,GA,NA,NA,64.04494382022472
30548,Jackson County,GA,85.52631578947368,NA,NA
30741,Walker County,GA,26.644736842105267,NA,NA
30809,Columbia County,GA,92.43421052631578,NA,NA
30906,Richmond County,GA,NA,NA,86.51685393258427
31061,Baldwin County,GA,NA,NA,36.51685393258427
31406,Chatham County,GA,NA,32.98245614035088,NA
31513,Appling County,GA,NA,71.57894736842105,NA
96782,Honolulu County,HI,NA,26.666666666666668,NA
83211,Power County,ID,NA,96.14035087719299,NA
83301,Twin Falls County,ID,3.9473684210526314,NA,NA
83350,Minidoka County,ID,75.98684210526315,NA,NA
83467,Lemhi County,ID,NA,89.47368421052632,NA
83605,Canyon County,ID,62.17105263157895,NA,NA
60044,Lake County,IL,84.21052631578947,NA,NA
60068,Cook County,IL,NA,40,NA
60081,McHenry County,IL,69.4078947368421,NA,NA
60099,Lake County,IL,47.03947368421053,NA,NA
60101,DuPage County,IL,36.18421052631579,NA,NA
60174,Kane County,IL,77.63157894736842,NA,NA
60178,DeKalb County,IL,83.22368421052632,NA,NA
60189,DuPage County,IL,NA,24.561403508771928,NA
60192,Cook County,IL,NA,82.45614035087719,NA
60411,Cook County,IL,47.69736842105263,NA,NA
60428,Cook County,IL,NA,NA,94.3820224719101
60458,Cook County,IL,82.56578947368422,NA,NA
60467,Cook County,IL,NA,31.2280701754386,NA
60504,DuPage County,IL,43.09210526315789,NA,NA
60516,DuPage County,IL,NA,87.71929824561403,NA
60586,Will County,IL,20.394736842105264,67.01754385964912,NA
60613,Cook County,IL,62.82894736842105,NA,NA
60615,Cook County,IL,59.210526315789465,NA,NA
60619,Cook County,IL,35.19736842105263,NA,NA
60628,Cook County,IL,NA,NA,3.3707865168539324
60637,Cook County,IL,21.710526315789476,NA,NA
60640,Cook County,IL,NA,9.824561403508772,NA
60649,Cook County,IL,NA,10.87719298245614,NA
60651,Cook County,IL,86.18421052631578,NA,NA
60653,Cook County,IL,NA,NA,29.775280898876407
60901,Kankakee County,IL,23.026315789473685,NA,NA
61008,Boone County,IL,40.78947368421053,NA,NA
61021,Lee County,IL,NA,9.12280701754386,NA
61107,Winnebago County,IL,NA,36.140350877192986,NA
61111,Winnebago County,IL,55.26315789473685,NA,NA
61554,Tazewell County,IL,78.94736842105263,NA,NA
61604,Peoria County,IL,NA,NA,19.101123595505616
61614,Peoria County,IL,NA,NA,28.08988764044944
61820,Champaign County,IL,NA,76.14035087719299,NA
62863,Wabash County,IL,NA,74.73684210526315,NA
46013,Madison County,IN,40.46052631578947,NA,NA
46113,Marion County,IN,96.71052631578947,NA,NA
46176,Shelby County,IN,NA,15.43859649122807,NA
46240,Marion County,IN,NA,74.03508771929825,NA
46368,Porter County,IN,3.289473684210526,NA,NA
46385,Porter County,IN,NA,NA,25.842696629213485
46410,Lake County,IN,9.868421052631579,NA,NA
46534,Starke County,IN,57.56578947368421,NA,NA
46733,Adams County,IN,48.35526315789473,NA,NA
46901,Howard County,IN,NA,5.263157894736842,NA
47274,Jackson County,IN,NA,35.78947368421053,NA
47331,Fayette County,IN,NA,NA,9.550561797752808
47401,Monroe County,IN,NA,NA,62.35955056179775
50265,Polk County,IA,NA,NA,56.74157303370787
50401,Cerro Gordo County,IA,NA,13.333333333333334,NA
50613,Black Hawk County,IA,NA,NA,5.056179775280898
51501,Pottawattamie County,IA,NA,45.614035087719294,NA
52101,Winneshiek County,IA,71.71052631578947,NA,NA
52402,Linn County,IA,25.986842105263158,NA,NA
52556,Jefferson County,IA,NA,63.859649122807014,NA
52655,Des Moines County,IA,NA,80.7017543859649,NA
52807,Scott County,IA,NA,NA,69.10112359550563
66048,Leavenworth County,KS,NA,NA,35.95505617977528
67060,Sedgwick County,KS,94.4078947368421,NA,NA
67203,Sedgwick County,KS,NA,68.0701754385965,NA
67502,Reno County,KS,NA,NA,52.24719101123596
67554,Rice County,KS,100,NA,NA
40033,Marion County,KY,60.526315789473685,NA,NA
40069,Washington County,KY,67.76315789473685,NA,NA
40165,Bullitt County,KY,NA,19.649122807017545,NA
40207,Jefferson County,KY,NA,37.89473684210527,NA
40211,Jefferson County,KY,49.01315789473684,NA,NA
40245,Jefferson County,KY,NA,43.859649122807014,NA
40342,Anderson County,KY,NA,NA,75.84269662921348
40351,Rowan County,KY,NA,NA,30.337078651685395
40403,Madison County,KY,28.947368421052634,NA,NA
41017,Kenton County,KY,NA,23.859649122807017,NA
41051,Kenton County,KY,43.75,NA,NA
42206,Logan County,KY,NA,92.98245614035088,NA
42701,Hardin County,KY,NA,44.56140350877193,NA
70062,Jefferson Parish,LA,25.657894736842106,NA,NA
70343,Terrebonne Parish,LA,NA,99.29824561403508,NA
70471,St. Tammany Parish,LA,NA,74.3859649122807,NA
70503,Lafayette Parish,LA,NA,29.122807017543863,NA
70520,Lafayette Parish,LA,29.605263157894733,NA,NA
70570,St. Landry Parish,LA,NA,15.087719298245613,NA
70737,Ascension Parish,LA,9.539473684210527,20,NA
70802,East Baton Rouge Parish,LA,51.973684210526315,NA,NA
70805,East Baton Rouge Parish,LA,NA,32.280701754385966,NA
71105,Caddo Parish,LA,45.06578947368421,NA,NA
71106,Caddo Parish,LA,8.881578947368421,NA,NA
71109,Caddo Parish,LA,NA,28.771929824561404,NA
71115,Caddo Parish,LA,NA,84.91228070175438,NA
71295,Franklin Parish,LA,NA,NA,43.82022471910113
71350,Avoyelles Parish,LA,NA,91.9298245614035,NA
71369,Avoyelles Parish,LA,NA,95.43859649122807,NA
71405,Rapides Parish,LA,88.48684210526315,NA,NA
71457,Natchitoches Parish,LA,NA,26.31578947368421,NA
04011,Cumberland County,ME,NA,30.87719298245614,NA
04074,Cumberland County,ME,NA,NA,41.01123595505618
04240,Androscoggin County,ME,2.302631578947368,NA,NA
04274,Androscoggin County,ME,92.76315789473685,NA,NA
04330,Kennebec County,ME,NA,NA,12.921348314606742
04401,Penobscot County,ME,1.9736842105263157,NA,NA
04901,Kennebec County,ME,NA,NA,29.213483146067414
04950,Somerset County,ME,NA,NA,48.87640449438202
20657,Calvert County,MD,68.75,NA,NA
20754,Calvert County,MD,NA,93.6842105263158,NA
20817,Montgomery County,MD,NA,NA,97.75280898876404
20902,Montgomery County,MD,NA,NA,67.97752808988764
21030,Baltimore County,MD,71.38157894736842,NA,69.66292134831461
21212,Baltimore city,MD,NA,69.12280701754386,37.640449438202246
21221,Baltimore County,MD,NA,NA,30.89887640449438
21234,Baltimore County,MD,22.36842105263158,NA,NA
21620,Kent County,MD,NA,62.4561403508772,NA
21863,Worcester County,MD,94.73684210526315,NA,NA
01085,Hampden County,MA,NA,2.807017543859649,NA
01201,Berkshire County,MA,0,NA,NA
01240,Berkshire County,MA,NA,NA,51.68539325842697
01301,Franklin County,MA,15.789473684210526,NA,NA
01430,Worcester County,MA,80.92105263157895,NA,NA
01564,Worcester County,MA,NA,80.35087719298247,NA
01821,Middlesex County,MA,NA,NA,38.764044943820224
01841,Essex County,MA,NA,5.964912280701754,NA
01852,Middlesex County,MA,0.3289473684210526,NA,NA
01854,Middlesex County,MA,NA,7.719298245614035,NA
01867,Middlesex County,MA,NA,12.280701754385964,NA
01913,Essex County,MA,NA,12.982456140350877,NA
01915,Essex County,MA,1.644736842105263,NA,NA
01923,Essex County,MA,NA,8.421052631578947,NA
02050,Plymouth County,MA,NA,25.6140350877193,NA
02128,Suffolk County,MA,0.6578947368421052,NA,NA
02144,Middlesex County,MA,NA,13.684210526315791,NA
02151,Suffolk County,MA,NA,0,NA
02190,Norfolk County,MA,NA,NA,55.0561797752809
02360,Plymouth County,MA,45.723684210526315,NA,NA
02370,Plymouth County,MA,NA,29.47368421052631,NA
02451,Middlesex County,MA,NA,NA,57.30337078651685
02721,Bristol County,MA,0.9868421052631579,NA,NA
02748,Bristol County,MA,NA,56.84210526315789,NA
48025,Oakland County,MI,81.9078947368421,NA,NA
48026,Macomb County,MI,42.76315789473684,NA,NA
48035,Macomb County,MI,12.5,NA,NA
48092,Macomb County,MI,NA,60.35087719298245,NA
48097,St. Clair County,MI,89.47368421052632,NA,NA
48114,Livingston County,MI,NA,31.57894736842105,NA
48118,Washtenaw County,MI,NA,37.19298245614035,NA
48152,Wayne County,MI,NA,81.05263157894737,NA
48176,Washtenaw County,MI,NA,28.07017543859649,NA
48187,Wayne County,MI,13.486842105263158,NA,NA
48205,Wayne County,MI,5.263157894736842,NA,NA
48219,Wayne County,MI,NA,3.508771929824561,NA
48228,Wayne County,MI,15.460526315789474,NA,NA
48328,Oakland County,MI,44.07894736842105,NA,NA
48382,Oakland County,MI,NA,NA,60.67415730337079
48446,Lapeer County,MI,20.065789473684212,NA,NA
48532,Genesee County,MI,44.40789473684211,NA,50.56179775280899
48616,Saginaw County,MI,NA,51.92982456140351,NA
49007,Kalamazoo County,MI,45.39473684210527,NA,NA
49014,Calhoun County,MI,25,NA,NA
49017,Calhoun County,MI,NA,28.421052631578945,NA
49024,Kalamazoo County,MI,33.881578947368425,NA,NA
49034,Kalamazoo County,MI,NA,98.94736842105263,NA
49046,Barry County,MI,NA,60.70175438596491,NA
49053,Kalamazoo County,MI,81.25,NA,NA
49058,Barry County,MI,37.82894736842105,NA,NA
49088,Kalamazoo County,MI,NA,98.24561403508771,NA
49242,Hillsdale County,MI,NA,NA,50
49316,Kent County,MI,54.93421052631579,NA,NA
49323,Allegan County,MI,NA,97.19298245614036,NA
49417,Ottawa County,MI,NA,8.771929824561402,NA
49441,Muskegon County,MI,18.092105263157894,NA,NA
49464,Ottawa County,MI,55.5921052631579,NA,NA
49727,Charlevoix County,MI,87.5,NA,NA
49783,Chippewa County,MI,26.973684210526315,NA,NA
49920,Iron County,MI,NA,61.75438596491228,NA
55025,Washington County,MN,NA,NA,62.92134831460674
55040,Isanti County,MN,NA,70.87719298245614,NA
55077,Dakota County,MN,90.46052631578947,NA,NA
55119,Ramsey County,MN,NA,NA,42.69662921348314
55382,Stearns County,MN,NA,99.64912280701755,NA
55391,Hennepin County,MN,NA,NA,88.76404494382022
55410,Hennepin County,MN,NA,NA,95.50561797752809
55416,Hennepin County,MN,NA,66.3157894736842,NA
55421,Anoka County,MN,27.302631578947366,NA,NA
55427,Hennepin County,MN,NA,NA,53.37078651685393
55428,Hennepin County,MN,NA,36.84210526315789,NA
55443,Hennepin County,MN,80.26315789473685,NA,NA
55987,Winona County,MN,NA,3.8596491228070176,NA
56265,Chippewa County,MN,NA,82.80701754385966,NA
56301,Stearns County,MN,NA,NA,83.70786516853933
56537,Otter Tail County,MN,NA,12.631578947368421,NA
56560,Clay County,MN,NA,5.614035087719298,12.359550561797752
56721,Polk County,MN,NA,NA,100
38668,Tate County,MS,75.32894736842105,NA,NA
39213,Hinds County,MS,NA,54.736842105263165,NA
39301,Lauderdale County,MS,NA,49.824561403508774,NA
63366,St. Charles County,MO,17.763157894736842,NA,NA
63755,Cape Girardeau County,MO,NA,55.43859649122807,NA
64055,Jackson County,MO,NA,60,NA
64076,Lafayette County,MO,NA,79.64912280701755,NA
64081,Jackson County,MO,NA,42.10526315789473,NA
64155,Clay County,MO,29.276315789473685,NA,NA
64503,Buchanan County,MO,31.57894736842105,NA,NA
64506,Buchanan County,MO,25.32894736842105,NA,NA
64701,Cass County,MO,49.34210526315789,NA,NA
64744,Cedar County,MO,77.96052631578947,NA,NA
64804,Jasper County,MO,NA,10.526315789473683,NA
65233,Cooper County,MO,NA,64.91228070175438,NA
65706,Webster County,MO,NA,NA,58.98876404494382
68124,Douglas County,NE,NA,NA,64.04494382022472
68137,Douglas County,NE,NA,77.89473684210526,NA
68504,Lancaster County,NE,NA,NA,98.87640449438202
89104,Clark County,NV,NA,56.14035087719298,NA
89134,Clark County,NV,81.57894736842105,NA,NA
89403,Lyon County,NV,NA,72.28070175438597,NA
89423,Douglas County,NV,NA,61.05263157894737,NA
89506,Washoe County,NV,24.671052631578945,NA,67.41573033707866
89509,Washoe County,NV,NA,NA,31.46067415730337
89701,Carson City,NV,44.73684210526316,NA,NA
89703,Carson City,NV,NA,NA,60.1123595505618
03102,Hillsborough County,NH,NA,18.596491228070175,NA
03103,Hillsborough County,NH,31.907894736842106,NA,NA
03110,Hillsborough County,NH,NA,NA,16.853932584269664
03755,Grafton County,NH,98.35526315789474,NA,NA
03842,Rockingham County,NH,71.05263157894737,NA,NA
07011,Passaic County,NJ,24.013157894736842,NA,NA
07060,Union County,NJ,36.84210526315789,NA,NA
07062,Union County,NJ,NA,89.12280701754386,NA
07070,Bergen County,NJ,NA,NA,63.48314606741573
07106,Essex County,NJ,NA,NA,39.8876404494382
07202,Union County,NJ,NA,11.929824561403509,NA
07416,Sussex County,NJ,87.17105263157895,NA,NA
07461,Sussex County,NJ,46.05263157894737,NA,NA
07724,Monmouth County,NJ,34.21052631578947,NA,NA
08691,Mercer County,NJ,NA,97.54385964912281,NA
08753,Ocean County,NJ,2.631578947368421,NA,NA
08817,Middlesex County,NJ,27.631578947368425,NA,NA
08865,Warren County,NJ,29.93421052631579,NA,NA
87124,Sandoval County,NM,NA,NA,11.797752808988763
10003,New York County,NY,NA,NA,74.15730337078652
10021,New York County,NY,NA,NA,21.910112359550563
10023,New York County,NY,NA,NA,5.617977528089887
10032,New York County,NY,NA,NA,76.40449438202246
10302,Richmond County,NY,77.30263157894737,NA,NA
10306,Richmond County,NY,NA,54.03508771929825,NA
10312,Richmond County,NY,NA,NA,75.28089887640449
10453,Bronx County,NY,NA,1.4035087719298245,NA
10461,Bronx County,NY,NA,21.403508771929825,NA
10463,Bronx County,NY,NA,4.912280701754386,NA
10465,Bronx County,NY,NA,41.40350877192983,NA
10469,Bronx County,NY,3.618421052631579,NA,NA
10471,Bronx County,NY,NA,75.78947368421053,NA
10474,Bronx County,NY,58.88157894736842,NA,NA
10990,Orange County,NY,NA,NA,43.258426966292134
11106,Queens County,NY,NA,NA,39.325842696629216
11209,Kings County,NY,NA,NA,15.168539325842698
11215,Kings County,NY,39.80263157894737,NA,NA
11372,Queens County,NY,NA,NA,40.44943820224719
11375,Queens County,NY,NA,NA,8.426966292134832
11692,Queens County,NY,NA,NA,78.65168539325843
11714,Nassau County,NY,NA,94.38596491228071,NA
11735,Nassau County,NY,NA,NA,51.12359550561798
11801,Nassau County,NY,NA,94.03508771929825,NA
12010,Montgomery County,NY,6.578947368421052,NA,NA
12020,Saratoga County,NY,NA,30.175438596491226,NA
12804,Warren County,NY,10.855263157894738,NA,NA
12901,Clinton County,NY,NA,6.666666666666667,NA
12953,Franklin County,NY,NA,NA,27.52808988764045
13021,Cayuga County,NY,24.342105263157894,NA,NA
13077,Cortland County,NY,NA,67.71929824561404,NA
13088,Onondaga County,NY,NA,77.54385964912281,NA
13104,Onondaga County,NY,NA,76.49122807017544,NA
13126,Oswego County,NY,4.276315789473684,NA,NA
13214,Onondaga County,NY,NA,NA,81.46067415730337
13340,Herkimer County,NY,NA,NA,65.1685393258427
13601,Jefferson County,NY,97.03947368421053,NA,NA
13760,Broome County,NY,NA,0.7017543859649122,NA
13850,Broome County,NY,NA,4.2105263157894735,4.49438202247191
13901,Broome County,NY,4.605263157894736,4.56140350877193,14.606741573033707
13905,Broome County,NY,1.3157894736842104,NA,NA
14051,Erie County,NY,NA,50.877192982456144,NA
14052,Erie County,NY,57.89473684210527,NA,NA
14075,Erie County,NY,11.18421052631579,NA,NA
14150,Erie County,NY,8.223684210526317,NA,21.910112359550563
14172,Niagara County,NY,NA,95.08771929824562,NA
14206,Erie County,NY,NA,30.526315789473685,NA
14209,Erie County,NY,NA,72.63157894736842,NA
14214,Erie County,NY,38.15789473684211,NA,NA
14216,Erie County,NY,35.526315789473685,NA,NA
14221,Erie County,NY,NA,3.1578947368421053,NA
14224,Erie County,NY,76.64473684210526,NA,NA
14225,Erie County,NY,11.513157894736842,NA,NA
14304,Niagara County,NY,NA,24.912280701754387,NA
14456,Ontario County,NY,10.197368421052632,NA,NA
14522,Wayne County,NY,NA,31.929824561403507,NA
14564,Ontario County,NY,80.5921052631579,NA,NA
14605,Monroe County,NY,11.842105263157894,NA,NA
14606,Monroe County,NY,2.9605263157894735,NA,NA
14615,Monroe County,NY,NA,36.49122807017544,NA
14624,Monroe County,NY,NA,2.456140350877193,NA
14701,Chautauqua County,NY,NA,2.1052631578947367,NA
14727,Allegany County,NY,NA,78.24561403508771,NA
14905,Chemung County,NY,NA,66.66666666666666,NA
27025,Rockingham County,NC,NA,75.43859649122807,NA
27030,Surry County,NC,NA,1.7543859649122806,NA
27052,Stokes County,NC,NA,NA,57.865168539325836
27215,Alamance County,NC,NA,7.017543859649122,NA
27292,Davidson County,NC,5.921052631578947,NA,NA
27326,Rockingham County,NC,NA,95.78947368421052,NA
27524,Johnston County,NC,NA,70.17543859649122,NA
27534,Wayne County,NC,41.44736842105263,NA,66.29213483146067
28025,Cabarrus County,NC,14.144736842105262,NA,NA
28468,Brunswick County,NC,NA,NA,91.01123595505618
28580,Greene County,NC,78.61842105263158,NA,NA
28642,Yadkin County,NC,NA,73.68421052631578,NA
58103,Cass County,ND,9.210526315789473,NA,NA
58401,Stutsman County,ND,72.36842105263158,NA,NA
43004,Franklin County,OH,74.3421052631579,NA,NA
43017,Franklin County,OH,NA,39.64912280701755,NA
43207,Franklin County,OH,NA,NA,23.595505617977526
43220,Franklin County,OH,NA,NA,93.25842696629213
43223,Franklin County,OH,8.552631578947368,NA,NA
43229,Franklin County,OH,NA,10.175438596491228,NA
43230,Franklin County,OH,NA,NA,26.40449438202247
43410,Sandusky County,OH,54.60526315789473,NA,NA
43567,Fulton County,OH,53.94736842105263,NA,NA
43701,Muskingum County,OH,NA,1.0526315789473684,33.70786516853933
43812,Coshocton County,OH,7.565789473684211,NA,NA
44035,Lorain County,OH,NA,0.3508771929824561,NA
44053,Lorain County,OH,10.526315789473683,NA,NA
44060,Lake County,OH,37.17105263157895,NA,0.5617977528089888
44070,Cuyahoga County,OH,NA,7.368421052631578,NA
44074,Lorain County,OH,79.27631578947368,NA,NA
44102,Cuyahoga County,OH,NA,NA,45.50561797752809
44108,Cuyahoga County,OH,NA,NA,21.34831460674157
44117,Cuyahoga County,OH,74.67105263157895,NA,NA
44122,Cuyahoga County,OH,NA,6.315789473684211,NA
44130,Cuyahoga County,OH,28.618421052631575,NA,NA
44142,Cuyahoga County,OH,NA,21.75438596491228,NA
44224,Summit County,OH,NA,NA,11.235955056179774
44230,Wayne County,OH,NA,80,NA
44256,Medina County,OH,NA,NA,1.6853932584269662
44281,Medina County,OH,NA,16.842105263157894,NA
44306,Summit County,OH,12.171052631578947,NA,NA
44311,Summit County,OH,NA,81.75438596491227,NA
44314,Summit County,OH,33.55263157894737,NA,NA
44811,Sandusky County,OH,38.48684210526316,NA,NA
44820,Crawford County,OH,73.68421052631578,97.89473684210527,NA
44889,Huron County,OH,83.88157894736842,NA,NA
44903,Richland County,OH,NA,22.45614035087719,NA
45044,Butler County,OH,6.907894736842106,NA,NA
45135,Highland County,OH,95.72368421052632,NA,NA
45420,Montgomery County,OH,32.89473684210527,NA,NA
45424,Montgomery County,OH,14.144736842105262,NA,NA
45629,Scioto County,OH,83.55263157894737,NA,NA
45631,Gallia County,OH,13.815789473684212,NA,6.741573033707865
45648,Scioto County,OH,88.1578947368421,NA,NA
45690,Pike County,OH,23.355263157894736,NA,NA
45692,Jackson County,OH,NA,37.54385964912281,NA
45714,Washington County,OH,NA,19.298245614035086,NA
45784,Washington County,OH,74.01315789473685,NA,NA
45885,Auglaize County,OH,NA,NA,98.31460674157303
73018,Grady County,OK,51.31578947368421,NA,NA
73096,Custer County,OK,64.80263157894737,NA,NA
73111,Oklahoma County,OK,63.81578947368421,NA,NA
73120,Oklahoma County,OK,NA,NA,18.53932584269663
73160,Cleveland County,OK,17.105263157894736,NA,NA
74107,Tulsa County,OK,NA,71.2280701754386,NA
97068,Clackamas County,OR,NA,59.64912280701754,NA
97211,Multnomah County,OR,NA,56.49122807017544,NA
97220,Multnomah County,OR,NA,34.385964912280706,NA
97223,Washington County,OR,NA,25.964912280701753,NA
97321,Linn County,OR,34.868421052631575,NA,28.651685393258425
97367,Lincoln County,OR,NA,81.40350877192982,NA
97402,Lane County,OR,NA,33.68421052631579,NA
97404,Lane County,OR,NA,78.59649122807018,NA
97408,Lane County,OR,93.42105263157895,NA,NA
97530,Jackson County,OR,NA,NA,80.89887640449437
97703,Deschutes County,OR,NA,71.9298245614035,NA
15042,Beaver County,PA,NA,NA,70.78651685393258
15108,Allegheny County,PA,NA,20.701754385964914,NA
15147,Allegheny County,PA,NA,NA,24.15730337078652
15905,Cambria County,PA,NA,39.29824561403509,56.17977528089888
16055,Butler County,PA,NA,NA,65.73033707865169
16506,Erie County,PA,67.10526315789474,NA,NA
16602,Blair County,PA,NA,16.140350877192983,NA
17003,Lebanon County,PA,NA,NA,85.39325842696628
17011,Cumberland County,PA,32.23684210526316,NA,NA
17046,Lebanon County,PA,NA,25.263157894736842,NA
17050,Cumberland County,PA,NA,NA,24.719101123595504
17111,Dauphin County,PA,22.039473684210524,NA,NA
17316,Adams County,PA,NA,78.94736842105263,NA
17543,Lancaster County,PA,NA,14.385964912280702,NA
17545,Lancaster County,PA,49.67105263157895,NA,NA
17701,Lycoming County,PA,NA,NA,7.303370786516854
17756,Lycoming County,PA,75,NA,NA
18040,Northampton County,PA,NA,75.08771929824562,NA
18042,Northampton County,PA,7.894736842105263,NA,NA
18062,Lehigh County,PA,50.32894736842105,NA,NA
18104,Lehigh County,PA,19.407894736842106,NA,NA
18202,Luzerne County,PA,NA,47.01754385964912,NA
18641,Luzerne County,PA,86.8421052631579,NA,NA
18655,Luzerne County,PA,NA,85.96491228070175,NA
18964,Montgomery County,PA,99.01315789473685,NA,NA
19023,Delaware County,PA,NA,58.94736842105262,NA
19025,Montgomery County,PA,NA,NA,97.19101123595506
19083,Delaware County,PA,NA,49.473684210526315,NA
19107,Philadelphia County,PA,NA,51.2280701754386,NA
19135,Philadelphia County,PA,20.723684210526315,NA,NA
19342,Delaware County,PA,52.960526315789465,NA,NA
19348,Chester County,PA,NA,48.771929824561404,NA
19565,Berks County,PA,79.60526315789474,NA,NA
19567,Berks County,PA,NA,83.50877192982456,NA
19606,Berks County,PA,15.131578947368421,NA,NA
02816,Kent County,RI,NA,18.24561403508772,NA
02818,Kent County,RI,NA,47.368421052631575,NA
02860,Providence County,RI,NA,15.789473684210526,NA
02864,Providence County,RI,NA,18.947368421052634,NA
02888,Kent County,RI,NA,87.36842105263159,NA
02889,Kent County,RI,NA,NA,73.03370786516854
02908,Providence County,RI,NA,40.70175438596491,NA
29161,Florence County,SC,NA,76.84210526315789,NA
29412,Charleston County,SC,65.78947368421053,23.50877192982456,NA
29526,Horry County,SC,NA,14.035087719298245,NA
29560,Florence County,SC,78.28947368421053,NA,NA
29621,Anderson County,SC,98.02631578947368,22.105263157894736,NA
29651,Greenville County,SC,NA,17.543859649122805,NA
29847,Edgefield County,SC,NA,NA,89.8876404494382
57042,Lake County,SD,NA,NA,41.01123595505618
57103,Minnehaha County,SD,NA,NA,7.865168539325842
57702,Pennington County,SD,NA,87.01754385964912,NA
57730,Custer County,SD,NA,NA,79.7752808988764
37027,Williamson County,TN,NA,NA,23.03370786516854
37040,Montgomery County,TN,NA,NA,61.79775280898876
37043,Montgomery County,TN,NA,NA,42.13483146067416
37066,Sumner County,TN,12.828947368421053,NA,NA
37172,Robertson County,TN,21.38157894736842,NA,NA
37303,McMinn County,TN,28.289473684210524,NA,NA
37330,Franklin County,TN,69.73684210526315,NA,NA
37421,Hamilton County,TN,35.85526315789473,NA,NA
37721,Knox County,TN,67.43421052631578,NA,NA
37743,Greene County,TN,17.105263157894736,NA,NA
37748,Roane County,TN,NA,32.631578947368425,NA
37766,Campbell County,TN,NA,27.368421052631582,NA
37871,Jefferson County,TN,86.51315789473685,NA,NA
37919,Knox County,TN,56.57894736842105,NA,NA
37934,Knox County,TN,NA,NA,47.752808988764045
38112,Shelby County,TN,63.1578947368421,90.17543859649123,NA
75080,Dallas County,TX,NA,NA,20.786516853932586
75110,Navarro County,TX,NA,77.19298245614034,NA
75165,Ellis County,TX,36.51315789473684,NA,NA
75212,Dallas County,TX,NA,50.175438596491226,NA
75287,Denton County,TX,73.02631578947368,NA,NA
76001,Tarrant County,TX,NA,NA,73.59550561797754
76058,Johnson County,TX,NA,NA,99.43820224719101
76063,Tarrant County,TX,NA,16.49122807017544,NA
76116,Tarrant County,TX,NA,17.192982456140353,NA
76131,Tarrant County,TX,NA,86.31578947368422,NA
76135,Tarrant County,TX,NA,65.26315789473685,NA
76306,Wichita County,TX,63.48684210526315,NA,NA
77016,Harris County,TX,NA,41.75438596491228,NA
77017,Harris County,TX,NA,NA,68.53932584269663
77027,Harris County,TX,NA,72.98245614035088,NA
77033,Harris County,TX,NA,90.52631578947368,NA
77041,Harris County,TX,61.8421052631579,NA,NA
77055,Harris County,TX,59.539473684210535,NA,NA
77075,Harris County,TX,97.69736842105263,NA,NA
77084,Harris County,TX,16.776315789473685,NA,NA
77375,Harris County,TX,56.9078947368421,NA,NA
77386,Montgomery County,TX,40.131578947368425,NA,NA
77429,Harris County,TX,NA,NA,93.82022471910112
77515,Brazoria County,TX,53.61842105263158,NA,74.71910112359551
77611,Orange County,TX,NA,82.80701754385966,NA
77657,Hardin County,TX,NA,63.1578947368421,NA
77808,Brazos County,TX,61.51315789473685,NA,NA
78227,Bexar County,TX,NA,NA,37.07865168539326
78232,Bexar County,TX,75.6578947368421,NA,NA
78249,Bexar County,TX,59.86842105263158,NA,NA
78382,Aransas County,TX,NA,79.2982456140351,NA
78542,Hidalgo County,TX,47.368421052631575,NA,NA
78570,Hidalgo County,TX,NA,63.50877192982456,NA
78654,Burnet County,TX,76.97368421052632,NA,NA
78660,Travis County,TX,NA,NA,52.80898876404494
78731,Travis County,TX,NA,NA,72.47191011235955
78852,Maverick County,TX,NA,42.10526315789473,NA
79556,Nolan County,TX,NA,52.63157894736842,NA
84010,Davis County,UT,NA,NA,26.96629213483146
84040,Davis County,UT,NA,84.21052631578947,NA
84096,Salt Lake County,UT,34.53947368421053,NA,NA
84115,Salt Lake County,UT,NA,69.47368421052632,NA
84119,Salt Lake County,UT,18.421052631578945,NA,NA
05060,Orange County,VT,NA,NA,89.32584269662921
05089,Windsor County,VT,NA,91.22807017543859,NA
05676,Washington County,VT,91.77631578947368,NA,NA
20190,Fairfax County,VA,85.85526315789474,NA,NA
22033,Fairfax County,VA,NA,64.21052631578948,NA
22303,Fairfax County,VA,NA,88.42105263157895,NA
22902,Charlottesville city,VA,30.263157894736842,NA,NA
23059,Henrico County,VA,NA,NA,59.55056179775281
23117,Louisa County,VA,NA,58.59649122807018,NA
23185,James City County,VA,NA,NA,1.1235955056179776
23225,Richmond city,VA,19.078947368421055,NA,NA
23233,Henrico County,VA,82.56578947368422,NA,NA
23236,Chesterfield County,VA,NA,48.421052631578945,NA
23455,Virginia Beach city,VA,NA,11.228070175438596,NA
23456,Virginia Beach city,VA,NA,NA,17.415730337078653
23803,Petersburg city,VA,16.11842105263158,NA,NA
23842,Prince George County,VA,95.06578947368422,NA,NA
24179,Roanoke County,VA,NA,NA,49.43820224719101
24541,Danville city,VA,NA,35.08771929824561,38.20224719101123
98006,King County,WA,NA,33.33333333333333,NA
98008,King County,WA,NA,68.77192982456141,NA
98030,King County,WA,31.25,NA,NA
98036,Snohomish County,WA,52.63157894736842,NA,NA
98110,Kitsap County,WA,99.3421052631579,NA,NA
98146,King County,WA,NA,67.36842105263158,NA
98221,Skagit County,WA,NA,NA,20.224719101123593
98233,Skagit County,WA,NA,NA,47.19101123595505
98310,Kitsap County,WA,66.11842105263158,65.6140350877193,NA
98311,Kitsap County,WA,NA,54.385964912280706,92.13483146067416
98331,Clallam County,WA,89.80263157894737,NA,NA
98363,Clallam County,WA,68.42105263157895,NA,NA
98367,Kitsap County,WA,NA,50.526315789473685,NA
98370,Kitsap County,WA,72.03947368421053,NA,NA
98371,Pierce County,WA,65.13157894736842,NA,NA
98402,Pierce County,WA,NA,82.10526315789474,NA
98404,Pierce County,WA,NA,46.666666666666664,NA
98405,Pierce County,WA,38.81578947368421,NA,NA
98407,Pierce County,WA,67.76315789473685,NA,NA
98443,Pierce County,WA,90.78947368421053,NA,NA
98584,Mason County,WA,NA,23.157894736842106,NA
98604,Clark County,WA,64.47368421052632,NA,NA
98632,Cowlitz County,WA,NA,NA,2.8089887640449436
98685,Clark County,WA,NA,69.82456140350877,NA
98826,Chelan County,WA,NA,NA,83.70786516853933
99022,Spokane County,WA,NA,84.56140350877193,NA
99156,Pend Oreille County,WA,NA,NA,96.62921348314607
99205,Spokane County,WA,72.69736842105263,NA,NA
99337,Benton County,WA,NA,9.473684210526317,NA
99362,Walla Walla County,WA,32.56578947368421,NA,NA
20002,District of Columbia,DC,7.236842105263158,NA,NA
20008,District of Columbia,DC,82.23684210526315,NA,NA
25271,Jackson County,WV,66.77631578947368,NA,NA
25414,Jefferson County,WV,NA,NA,58.42696629213483
25419,Berkeley County,WV,93.75,NA,NA
25526,Putnam County,WV,NA,41.05263157894737,NA
25801,Raleigh County,WV,18.75,NA,NA
25901,Fayette County,WV,NA,53.333333333333336,NA
26003,Ohio County,WV,NA,22.807017543859647,NA
26101,Wood County,WV,NA,8.070175438596491,NA
26508,Monongalia County,WV,6.25,NA,NA
53012,Ozaukee County,WI,NA,NA,32.02247191011236
53120,Walworth County,WI,NA,NA,91.01123595505618
53130,Milwaukee County,WI,NA,NA,70.2247191011236
53144,Kenosha County,WI,22.697368421052634,NA,NA
53154,Milwaukee County,WI,NA,14.736842105263156,NA
53207,Milwaukee County,WI,85.19736842105263,NA,NA
53211,Milwaukee County,WI,NA,NA,10.674157303370785
53214,Milwaukee County,WI,16.447368421052634,NA,NA
53219,Milwaukee County,WI,23.684210526315788,NA,NA
53222,Milwaukee County,WI,58.223684210526315,NA,NA
53527,Dane County,WI,NA,89.82456140350877,NA
53532,Dane County,WI,89.14473684210526,NA,NA
53562,Dane County,WI,NA,29.82456140350877,NA
53704,Dane County,WI,14.802631578947366,55.08771929824562,71.91011235955057
53711,Dane County,WI,39.14473684210527,NA,16.292134831460675
53719,Dane County,WI,NA,44.91228070175438,NA
53955,Columbia County,WI,NA,92.28070175438596,NA
54217,Kewaunee County,WI,87.82894736842105,NA,NA
54880,Douglas County,WI,NA,NA,2.247191011235955
54971,Fond du Lac County,WI,NA,52.98245614035088,NA
