ZipCode,county,state,Youth,Adult,Retirement,Geriatric
35115,Shelby County,AL,NA,88.12785388127854,NA,NA
35124,Shelby County,AL,NA,69.71080669710807,NA,NA
35126,Jefferson County,AL,NA,NA,53.90334572490706,NA
35226,Jefferson County,AL,NA,51.141552511415526,NA,NA
35541,Winston County,AL,95.37037037037037,NA,NA,NA
35601,Morgan County,AL,NA,NA,16.356877323420075,NA
35750,Madison County,AL,NA,65.29680365296804,NA,NA
35773,Madison County,AL,NA,NA,66.91449814126395,NA
35960,Cherokee County,AL,NA,NA,NA,89.02439024390245
36043,Montgomery County,AL,NA,NA,99.25650557620817,NA
36078,Elmore County,AL,NA,57.99086757990868,NA,NA
36092,Elmore County,AL,NA,48.858447488584474,NA,NA
36104,Montgomery County,AL,NA,84.62709284627093,NA,NA
36426,Escambia County,AL,NA,NA,63.94052044609665,NA
36606,Mobile County,AL,NA,NA,77.69516728624535,NA
36619,Mobile County,AL,NA,NA,NA,81.70731707317073
36695,Mobile County,AL,NA,NA,68.40148698884758,NA
36701,Dallas County,AL,NA,66.05783866057838,NA,NA
36854,Chambers County,AL,70.37037037037037,NA,NA,NA
85006,Maricopa County,AZ,NA,77.47336377473364,NA,NA
85007,Maricopa County,AZ,NA,13.08980213089802,NA,NA
85008,Maricopa County,AZ,NA,15.67732115677321,NA,NA
85009,Maricopa County,AZ,NA,15.82952815829528,NA,NA
85014,Maricopa County,AZ,76.38888888888889,NA,NA,88.6178861788618
85016,Maricopa County,AZ,31.944444444444443,NA,NA,NA
85017,Maricopa County,AZ,NA,36.37747336377473,NA,NA
85019,Maricopa County,AZ,NA,42.465753424657535,NA,NA
85020,Maricopa County,AZ,NA,41.55251141552511,NA,NA
85029,Maricopa County,AZ,NA,28.31050228310502,NA,NA
85031,Maricopa County,AZ,NA,NA,NA,84.14634146341463
85032,Maricopa County,AZ,NA,17.65601217656012,NA,NA
85037,Maricopa County,AZ,NA,30.59360730593607,NA,NA
85040,Maricopa County,AZ,NA,24.200913242009133,NA,NA
85041,Maricopa County,AZ,NA,NA,23.42007434944238,64.22764227642277
85053,Maricopa County,AZ,NA,NA,63.19702602230484,NA
85120,Pinal County,AZ,NA,45.35768645357686,NA,NA
85122,Pinal County,AZ,NA,NA,14.12639405204461,29.268292682926827
85131,Pinal County,AZ,73.61111111111111,NA,NA,NA
85205,Maricopa County,AZ,30.555555555555557,NA,NA,NA
85213,Maricopa County,AZ,NA,NA,60.966542750929364,NA
85254,Maricopa County,AZ,NA,57.3820395738204,NA,NA
85283,Maricopa County,AZ,NA,22.07001522070015,NA,NA
85296,Maricopa County,AZ,NA,37.74733637747336,NA,NA
85297,Maricopa County,AZ,NA,NA,NA,83.33333333333334
85323,Maricopa County,AZ,NA,NA,57.249070631970255,NA
85331,Maricopa County,AZ,80.55555555555556,NA,NA,NA
85338,Maricopa County,AZ,NA,38.50837138508371,NA,NA
85339,Maricopa County,AZ,7.4074074074074066,26.48401826484018,NA,92.6829268292683
85374,Maricopa County,AZ,NA,NA,NA,6.097560975609756
85375,Maricopa County,AZ,NA,NA,NA,0.8130081300813009
85390,Maricopa County,AZ,NA,90.56316590563166,NA,NA
85541,Gila County,AZ,NA,52.51141552511416,NA,NA
85542,Gila County,AZ,92.5925925925926,NA,NA,NA
85614,Pima County,AZ,NA,NA,NA,4.0650406504065035
85653,Pima County,AZ,NA,74.42922374429224,NA,NA
85713,Pima County,AZ,NA,NA,9.293680297397769,NA
85901,Navajo County,AZ,NA,55.25114155251142,NA,NA
86001,Coconino County,AZ,NA,25.41856925418569,NA,NA
86004,Coconino County,AZ,NA,7.76255707762557,NA,NA
86005,Coconino County,AZ,NA,NA,72.11895910780669,NA
86045,Coconino County,AZ,NA,30.28919330289193,NA,NA
86047,Navajo County,AZ,NA,39.117199391171994,NA,NA
86326,Yavapai County,AZ,NA,29.071537290715373,NA,NA
86351,Yavapai County,AZ,100,NA,NA,NA
86556,Apache County,AZ,NA,93.15068493150685,NA,NA
71854,Miller County,AR,NA,41.400304414003045,NA,NA
71913,Garland County,AR,NA,NA,25.27881040892193,NA
71957,Montgomery County,AR,NA,100,NA,NA
72007,Lonoke County,AR,94.9074074074074,NA,NA,NA
72010,White County,AR,74.53703703703704,NA,NA,NA
72012,White County,AR,NA,86.3013698630137,NA,NA
72034,Faulkner County,AR,NA,NA,52.78810408921933,NA
72113,Pulaski County,AR,47.68518518518518,NA,NA,NA
72114,Pulaski County,AR,NA,NA,66.17100371747212,NA
72116,Pulaski County,AR,NA,77.01674277016743,NA,NA
72143,White County,AR,NA,NA,11.152416356877323,NA
72204,Pulaski County,AR,NA,54.794520547945204,NA,NA
72301,Crittenden County,AR,NA,NA,NA,86.1788617886179
72404,Craighead County,AR,NA,53.12024353120244,NA,NA
72501,Independence County,AR,40.74074074074074,NA,NA,NA
72901,Sebastian County,AR,NA,58.29528158295282,NA,NA
90014,Los Angeles County,CA,NA,NA,NA,97.96747967479675
90020,Los Angeles County,CA,69.44444444444444,NA,NA,NA
90021,Los Angeles County,CA,NA,99.23896499238964,NA,NA
90022,Los Angeles County,CA,NA,NA,NA,24.796747967479675
90029,Los Angeles County,CA,75,66.81887366818874,NA,NA
90032,Los Angeles County,CA,NA,NA,NA,78.45528455284553
90034,Los Angeles County,CA,NA,78.53881278538812,56.877323420074354,NA
90043,Los Angeles County,CA,NA,48.7062404870624,22.304832713754646,NA
90044,Los Angeles County,CA,NA,NA,18.95910780669145,NA
90047,Los Angeles County,CA,NA,80.2130898021309,NA,NA
90221,Los Angeles County,CA,NA,NA,39.03345724907063,NA
90262,Los Angeles County,CA,NA,38.81278538812785,NA,85.77235772357723
90277,Los Angeles County,CA,NA,57.3820395738204,NA,NA
90278,Los Angeles County,CA,NA,NA,58.36431226765799,NA
90604,Los Angeles County,CA,NA,NA,59.85130111524164,31.70731707317073
90650,Los Angeles County,CA,NA,21.765601217656013,NA,NA
90660,Los Angeles County,CA,NA,33.02891933028919,NA,NA
90706,Los Angeles County,CA,NA,30.136986301369863,NA,NA
90723,Los Angeles County,CA,47.22222222222222,NA,NA,NA
90810,Los Angeles County,CA,NA,NA,83.27137546468401,NA
90815,Los Angeles County,CA,73.14814814814815,NA,NA,NA
91024,Los Angeles County,CA,NA,NA,NA,90.65040650406505
91206,Los Angeles County,CA,NA,90.10654490106545,NA,NA
91214,Los Angeles County,CA,NA,83.40943683409436,NA,NA
91306,Los Angeles County,CA,89.35185185185185,NA,NA,NA
91320,Ventura County,CA,35.648148148148145,NA,NA,NA
91331,Los Angeles County,CA,NA,14.30745814307458,NA,NA
91342,Los Angeles County,CA,NA,56.16438356164384,NA,NA
91384,Los Angeles County,CA,NA,NA,NA,84.95934959349594
91406,Los Angeles County,CA,NA,82.95281582952816,NA,NA
91423,Los Angeles County,CA,NA,75.95129375951294,NA,NA
91706,Los Angeles County,CA,NA,31.05022831050228,NA,NA
91710,San Bernardino County,CA,NA,40.48706240487062,NA,NA
91750,Los Angeles County,CA,NA,NA,NA,32.113821138211385
91913,San Diego County,CA,NA,NA,97.02602230483272,NA
91915,San Diego County,CA,NA,87.36681887366818,NA,NA
91932,San Diego County,CA,NA,81.27853881278538,NA,NA
92054,San Diego County,CA,NA,46.87975646879756,NA,NA
92065,San Diego County,CA,NA,52.207001522070016,NA,NA
92082,San Diego County,CA,NA,NA,92.93680297397769,NA
92101,San Diego County,CA,83.33333333333334,NA,63.56877323420075,NA
92109,San Diego County,CA,NA,75.03805175038052,NA,NA
92113,San Diego County,CA,NA,63.31811263318112,NA,NA
92114,San Diego County,CA,NA,70.0152207001522,NA,NA
92120,San Diego County,CA,NA,NA,71.74721189591078,NA
92123,San Diego County,CA,NA,NA,NA,65.4471544715447
92129,San Diego County,CA,50.92592592592593,NA,NA,NA
92225,Riverside County,CA,NA,NA,94.79553903345726,NA
92236,Riverside County,CA,NA,47.48858447488584,NA,NA
92240,Riverside County,CA,NA,NA,39.405204460966544,NA
92243,Imperial County,CA,NA,30.441400304414003,NA,NA
92311,San Bernardino County,CA,NA,NA,NA,50
92324,San Bernardino County,CA,NA,25.11415525114155,NA,NA
92335,San Bernardino County,CA,NA,12.32876712328767,NA,NA
92337,San Bernardino County,CA,NA,64.68797564687976,NA,NA
92345,San Bernardino County,CA,NA,NA,NA,26.82926829268293
92346,San Bernardino County,CA,NA,32.57229832572298,NA,NA
92394,San Bernardino County,CA,NA,81.43074581430746,NA,NA
92407,San Bernardino County,CA,33.33333333333333,NA,NA,NA
92543,Riverside County,CA,NA,43.987823439878234,NA,NA
92555,Riverside County,CA,NA,NA,67.28624535315984,NA
92583,Riverside County,CA,NA,NA,NA,85.36585365853658
92587,Riverside County,CA,NA,NA,NA,77.23577235772358
92630,Orange County,CA,NA,NA,18.587360594795538,NA
92648,Orange County,CA,NA,NA,62.45353159851301,NA
92651,Orange County,CA,NA,85.2359208523592,NA,NA
92660,Orange County,CA,NA,65.90563165905633,NA,NA
92672,Orange County,CA,NA,71.99391171993912,NA,44.3089430894309
92673,Orange County,CA,NA,71.84170471841705,NA,NA
92675,Orange County,CA,NA,92.99847792998477,NA,NA
92694,Orange County,CA,NA,NA,75.8364312267658,NA
92801,Orange County,CA,NA,38.20395738203957,NA,NA
92808,Orange County,CA,91.20370370370371,NA,NA,72.76422764227642
92833,Orange County,CA,NA,NA,32.342007434944236,NA
92886,Orange County,CA,NA,NA,NA,25.203252032520325
93001,Ventura County,CA,NA,32.115677321156774,NA,NA
93021,Ventura County,CA,NA,64.84018264840182,NA,NA
93030,Ventura County,CA,NA,20.85235920852359,NA,NA
93033,Ventura County,CA,NA,14.15525114155251,NA,NA
93036,Ventura County,CA,41.66666666666667,NA,NA,NA
93215,Kern County,CA,NA,85.54033485540334,NA,NA
93274,Tulare County,CA,NA,7.30593607305936,NA,NA
93304,Kern County,CA,NA,NA,50.55762081784386,NA
93307,Kern County,CA,NA,15.981735159817351,NA,NA
93312,Kern County,CA,51.85185185185185,NA,NA,NA
93436,Santa Barbara County,CA,NA,18.87366818873668,NA,NA
93614,Madera County,CA,NA,NA,79.92565055762083,NA
93648,Fresno County,CA,NA,NA,91.44981412639405,NA
93657,Fresno County,CA,27.77777777777778,NA,NA,NA
93706,Fresno County,CA,NA,28.00608828006088,NA,NA
93720,Fresno County,CA,NA,NA,24.907063197026023,NA
93727,Fresno County,CA,8.333333333333332,17.35159817351598,NA,NA
94010,San Mateo County,CA,NA,NA,NA,9.34959349593496
94080,San Mateo County,CA,NA,36.986301369863014,NA,NA
94102,San Francisco County,CA,NA,36.07305936073059,7.063197026022305,NA
94103,San Francisco County,CA,84.25925925925925,NA,NA,NA
94117,San Francisco County,CA,NA,NA,47.95539033457249,NA
94121,San Francisco County,CA,NA,NA,NA,10.975609756097562
94124,San Francisco County,CA,34.72222222222222,NA,NA,NA
94517,Contra Costa County,CA,88.42592592592592,NA,NA,NA
94526,Contra Costa County,CA,61.57407407407407,NA,NA,NA
94530,Contra Costa County,CA,NA,92.3896499238965,NA,NA
94534,Solano County,CA,65.74074074074075,NA,NA,NA
94538,Alameda County,CA,NA,50.38051750380518,NA,NA
94591,Solano County,CA,NA,71.0806697108067,NA,NA
94606,Alameda County,CA,NA,84.01826484018264,NA,NA
94954,Sonoma County,CA,NA,51.90258751902588,NA,NA
95030,Santa Clara County,CA,NA,NA,NA,69.10569105691057
95037,Santa Clara County,CA,NA,61.948249619482496,NA,NA
95060,Santa Cruz County,CA,NA,77.6255707762557,NA,NA
95062,Santa Cruz County,CA,NA,NA,95.91078066914498,NA
95073,Santa Cruz County,CA,NA,NA,NA,90.65040650406505
95076,Santa Cruz County,CA,NA,24.04870624048706,NA,NA
95202,San Joaquin County,CA,NA,95.73820395738204,NA,NA
95210,San Joaquin County,CA,64.35185185185185,NA,NA,NA
95240,San Joaquin County,CA,22.685185185185187,NA,NA,NA
95341,Merced County,CA,21.296296296296298,NA,NA,NA
95357,Stanislaus County,CA,NA,NA,78.06691449814126,NA
95361,Stanislaus County,CA,37.96296296296296,NA,NA,NA
95388,Merced County,CA,NA,91.93302891933028,NA,NA
95401,Sonoma County,CA,NA,63.62252663622526,NA,NA
95403,Sonoma County,CA,NA,53.12024353120244,NA,NA
95482,Mendocino County,CA,NA,40.63926940639269,NA,NA
95492,Sonoma County,CA,NA,68.0365296803653,61.71003717472119,NA
95503,Humboldt County,CA,NA,81.88736681887366,NA,NA
95521,Humboldt County,CA,NA,85.69254185692542,NA,NA
95546,Humboldt County,CA,NA,97.71689497716895,NA,NA
95610,Sacramento County,CA,NA,49.01065449010654,NA,NA
95619,El Dorado County,CA,NA,96.80365296803653,NA,NA
95626,Sacramento County,CA,NA,98.4779299847793,NA,NA
95628,Sacramento County,CA,NA,67.27549467275495,NA,NA
95648,Placer County,CA,NA,NA,23.79182156133829,NA
95661,Placer County,CA,NA,NA,NA,52.4390243902439
95815,Sacramento County,CA,NA,71.0806697108067,NA,NA
95822,Sacramento County,CA,NA,NA,NA,21.951219512195124
95949,Nevada County,CA,NA,NA,NA,49.1869918699187
95953,Sutter County,CA,NA,84.93150684931507,NA,NA
95959,Nevada County,CA,NA,NA,52.78810408921933,NA
95961,Yuba County,CA,85.64814814814815,NA,NA,NA
96022,Tehama County,CA,90.74074074074075,NA,NA,NA
96080,Tehama County,CA,NA,46.57534246575342,NA,NA
80013,Arapahoe County,CO,NA,12.480974124809741,NA,NA
80015,Arapahoe County,CO,NA,21.61339421613394,NA,NA
80020,Broomfield County,CO,NA,NA,NA,35.77235772357724
80022,Adams County,CO,NA,20.24353120243531,NA,NA
80109,Douglas County,CO,41.2037037037037,NA,NA,NA
80110,Arapahoe County,CO,NA,71.68949771689498,NA,NA
80112,Arapahoe County,CO,NA,58.29528158295282,NA,NA
80113,Arapahoe County,CO,38.425925925925924,NA,NA,NA
80120,Arapahoe County,CO,NA,NA,52.41635687732342,NA
80121,Arapahoe County,CO,82.87037037037037,NA,NA,NA
80124,Douglas County,CO,NA,70.47184170471841,NA,NA
80126,Douglas County,CO,NA,55.09893455098934,NA,NA
80127,Jefferson County,CO,NA,NA,NA,62.19512195121951
80128,Jefferson County,CO,38.88888888888889,NA,NA,NA
80134,Douglas County,CO,NA,31.35464231354642,NA,NA
80218,Denver County,CO,NA,NA,79.5539033457249,NA
80220,Denver County,CO,NA,NA,94.42379182156134,NA
80228,Jefferson County,CO,NA,59.3607305936073,NA,NA
80233,Adams County,CO,NA,32.42009132420091,NA,NA
80241,Adams County,CO,NA,60.73059360730594,70.63197026022306,NA
80249,Denver County,CO,NA,40.182648401826484,NA,NA
80303,Boulder County,CO,NA,92.8462709284627,NA,NA
80525,Larimer County,CO,NA,18.41704718417047,NA,NA
80526,Larimer County,CO,24.537037037037038,NA,NA,NA
80631,Weld County,CO,NA,10.197869101978691,NA,NA
80634,Weld County,CO,4.166666666666666,NA,NA,NA
80701,Morgan County,CO,NA,NA,NA,53.2520325203252
80907,El Paso County,CO,NA,56.62100456621004,NA,NA
80918,El Paso County,CO,NA,49.61948249619482,NA,NA
80919,El Paso County,CO,NA,NA,81.41263940520446,NA
81007,Pueblo County,CO,26.38888888888889,NA,NA,NA
81082,Las Animas County,CO,NA,70.31963470319634,NA,NA
81120,Conejos County,CO,NA,NA,99.62825278810409,NA
81401,Montrose County,CO,44.907407407407405,NA,NA,NA
81413,Delta County,CO,NA,NA,NA,95.1219512195122
81503,Mesa County,CO,61.57407407407407,NA,NA,NA
81506,Mesa County,CO,NA,NA,87.73234200743495,NA
06010,Hartford County,CT,25.462962962962965,NA,NA,NA
06033,Hartford County,CT,NA,NA,NA,51.21951219512195
06051,Hartford County,CT,NA,4.41400304414003,NA,NA
06082,Hartford County,CT,NA,23.43987823439878,NA,NA
06105,Hartford County,CT,NA,26.636225266362253,NA,NA
06112,Hartford County,CT,NA,20.54794520547945,NA,NA
06259,Windham County,CT,NA,93.9117199391172,NA,NA
06405,New Haven County,CT,NA,NA,NA,41.86991869918699
06410,New Haven County,CT,NA,73.51598173515981,NA,NA
06473,New Haven County,CT,64.81481481481481,NA,NA,NA
06475,Middlesex County,CT,NA,84.779299847793,NA,NA
06606,Fairfield County,CT,NA,NA,35.687732342007436,NA
06878,Fairfield County,CT,NA,NA,96.28252788104089,NA
19702,New Castle County,DE,NA,49.16286149162861,NA,NA
19720,New Castle County,DE,NA,3.0441400304414,NA,NA
19808,New Castle County,DE,NA,NA,NA,6.910569105691057
19945,Sussex County,DE,88.88888888888889,NA,NA,NA
19966,Sussex County,DE,NA,NA,NA,13.414634146341465
32024,Columbia County,FL,NA,NA,45.72490706319702,NA
32086,St. Johns County,FL,NA,45.96651445966514,NA,NA
32091,Bradford County,FL,63.42592592592593,NA,NA,NA
32092,St. Johns County,FL,NA,NA,43.49442379182156,NA
32177,Putnam County,FL,NA,48.24961948249619,NA,NA
32206,Duval County,FL,NA,NA,22.676579925650557,NA
32207,Duval County,FL,31.48148148148148,NA,NA,NA
32210,Duval County,FL,NA,NA,6.691449814126393,NA
32233,Duval County,FL,NA,43.68340943683409,NA,NA
32327,Wakulla County,FL,NA,NA,NA,78.86178861788618
32344,Jefferson County,FL,NA,90.25875190258752,NA,NA
32446,Jackson County,FL,NA,69.25418569254185,NA,NA
32503,Escambia County,FL,NA,25.8751902587519,NA,NA
32505,Escambia County,FL,NA,22.526636225266362,NA,32.926829268292686
32535,Escambia County,FL,NA,81.7351598173516,NA,NA
32548,Okaloosa County,FL,NA,NA,58.7360594795539,NA
32580,Okaloosa County,FL,NA,NA,NA,94.71544715447155
32609,Alachua County,FL,NA,NA,55.01858736059479,NA
32641,Alachua County,FL,43.51851851851852,NA,NA,NA
32656,Clay County,FL,NA,75.19025875190259,NA,NA
32669,Alachua County,FL,NA,72.14611872146118,NA,NA
32724,Volusia County,FL,NA,NA,NA,23.983739837398375
32738,Volusia County,FL,NA,40.33485540334855,NA,NA
32763,Volusia County,FL,NA,NA,NA,65.85365853658537
32765,Seminole County,FL,NA,NA,NA,48.3739837398374
32804,Orange County,FL,NA,NA,73.60594795539033,NA
32809,Orange County,FL,NA,50.98934550989346,NA,NA
32904,Brevard County,FL,NA,NA,49.44237918215613,NA
33004,Broward County,FL,NA,NA,NA,87.8048780487805
33009,Broward County,FL,NA,NA,NA,9.34959349593496
33018,Miami-Dade County,FL,NA,79.29984779299848,NA,NA
33024,Broward County,FL,NA,NA,23.04832713754647,NA
33028,Broward County,FL,NA,NA,NA,70.73170731707317
33029,Broward County,FL,NA,NA,NA,53.65853658536586
33033,Miami-Dade County,FL,12.5,NA,NA,NA
33040,Monroe County,FL,NA,78.6910197869102,NA,NA
33062,Broward County,FL,NA,NA,NA,3.6585365853658534
33126,Miami-Dade County,FL,NA,73.21156773211568,NA,NA
33127,Miami-Dade County,FL,NA,61.49162861491628,NA,NA
33139,Miami-Dade County,FL,NA,NA,54.646840148698885,NA
33162,Miami-Dade County,FL,NA,64.07914764079148,NA,NA
33168,Miami-Dade County,FL,NA,74.88584474885845,NA,NA
33183,Miami-Dade County,FL,NA,NA,NA,38.61788617886179
33184,Miami-Dade County,FL,NA,NA,NA,52.4390243902439
33189,Miami-Dade County,FL,NA,NA,NA,70.32520325203252
33196,Miami-Dade County,FL,NA,70.62404870624049,NA,NA
33308,Broward County,FL,NA,NA,16.728624535315987,NA
33317,Broward County,FL,NA,NA,NA,46.34146341463415
33331,Broward County,FL,NA,91.47640791476408,NA,NA
33351,Broward County,FL,NA,NA,NA,80.89430894308943
33404,Palm Beach County,FL,NA,NA,51.301115241635685,NA
33408,Palm Beach County,FL,94.44444444444444,NA,NA,NA
33426,Palm Beach County,FL,NA,NA,NA,52.03252032520326
33483,Palm Beach County,FL,NA,NA,NA,47.15447154471545
33534,Hillsborough County,FL,NA,77.1689497716895,NA,NA
33569,Hillsborough County,FL,NA,79.45205479452055,NA,NA
33598,Hillsborough County,FL,NA,91.32420091324201,NA,NA
33614,Hillsborough County,FL,NA,NA,NA,36.17886178861789
33617,Hillsborough County,FL,NA,NA,NA,55.6910569105691
33618,Hillsborough County,FL,NA,81.43074581430746,NA,NA
33629,Hillsborough County,FL,87.5,NA,NA,NA
33709,Pinellas County,FL,NA,NA,NA,51.6260162601626
33756,Pinellas County,FL,33.7962962962963,NA,NA,NA
33761,Pinellas County,FL,98.61111111111111,NA,NA,NA
33770,Pinellas County,FL,79.62962962962963,NA,NA,NA
33868,Polk County,FL,NA,89.49771689497716,NA,NA
33881,Polk County,FL,NA,NA,NA,50.40650406504065
33897,Polk County,FL,NA,NA,71.37546468401487,NA
34102,Collier County,FL,NA,NA,NA,55.28455284552846
34120,Collier County,FL,29.629629629629626,NA,NA,NA
34203,Manatee County,FL,NA,59.208523592085236,NA,14.634146341463413
34240,Sarasota County,FL,NA,88.2800608828006,NA,NA
34243,Manatee County,FL,NA,NA,NA,7.723577235772358
34287,Sarasota County,FL,NA,55.403348554033485,NA,NA
34461,Citrus County,FL,67.5925925925926,NA,NA,NA
34472,Marion County,FL,NA,41.0958904109589,NA,NA
34613,Hernando County,FL,NA,78.99543378995433,36.43122676579926,NA
34614,Hernando County,FL,NA,94.06392694063926,NA,NA
34668,Pasco County,FL,NA,NA,NA,30.89430894308943
34711,Lake County,FL,NA,NA,NA,4.471544715447155
34972,Okeechobee County,FL,NA,64.9923896499239,NA,NA
34984,St. Lucie County,FL,NA,59.817351598173516,NA,NA
30008,Cobb County,GA,NA,68.79756468797564,NA,NA
30019,Gwinnett County,GA,NA,43.07458143074581,NA,NA
30028,Forsyth County,GA,NA,64.38356164383562,NA,NA
30032,DeKalb County,GA,NA,NA,12.639405204460965,NA
30034,DeKalb County,GA,NA,34.55098934550989,NA,NA
30075,Fulton County,GA,NA,75.64687975646879,NA,NA
30083,DeKalb County,GA,NA,NA,NA,50.81300813008131
30115,Cherokee County,GA,NA,NA,41.63568773234201,NA
30135,Douglas County,GA,NA,16.894977168949772,NA,NA
30144,Cobb County,GA,NA,NA,NA,58.13008130081301
30153,Polk County,GA,NA,NA,NA,86.58536585365853
30168,Cobb County,GA,42.592592592592595,NA,NA,NA
30180,Carroll County,GA,NA,28.15829528158295,NA,NA
30224,Spalding County,GA,NA,57.22983257229832,NA,NA
30253,Henry County,GA,NA,31.963470319634702,NA,NA
30331,Fulton County,GA,NA,21.3089802130898,NA,NA
30519,Gwinnett County,GA,50.46296296296296,NA,NA,NA
30528,White County,GA,62.96296296296296,NA,NA,NA
30577,Stephens County,GA,NA,NA,NA,57.3170731707317
30680,Barrow County,GA,NA,25.72298325722983,NA,NA
30809,Columbia County,GA,26.851851851851855,NA,14.49814126394052,NA
30906,Richmond County,GA,4.62962962962963,NA,NA,NA
30909,Richmond County,GA,NA,31.81126331811263,NA,NA
31008,Peach County,GA,NA,45.81430745814307,NA,NA
31021,Laurens County,GA,NA,43.531202435312025,NA,NA
31064,Jasper County,GA,NA,83.10502283105022,NA,NA
31406,Chatham County,GA,NA,55.55555555555556,28.99628252788104,NA
31523,Glynn County,GA,NA,86.14916286149162,NA,NA
31569,Camden County,GA,NA,96.49923896499239,NA,NA
31816,Meriwether County,GA,NA,88.43226788432268,NA,NA
96707,Honolulu County,HI,NA,39.726027397260275,NA,NA
96749,Hawaii County,HI,NA,NA,75.09293680297398,NA
96791,Honolulu County,HI,NA,NA,85.87360594795538,NA
96819,Honolulu County,HI,NA,19.48249619482496,NA,NA
83201,Bannock County,ID,NA,61.03500761035008,NA,NA
83301,Twin Falls County,ID,NA,NA,1.1152416356877324,NA
83536,Idaho County,ID,NA,NA,82.15613382899627,NA
83835,Kootenai County,ID,68.98148148148148,NA,NA,NA
60013,McHenry County,IL,61.57407407407407,NA,NA,NA
60015,Lake County,IL,55.092592592592595,65.44901065449011,NA,NA
60103,DuPage County,IL,NA,33.181126331811264,NA,NA
60104,Cook County,IL,NA,44.29223744292237,NA,NA
60139,DuPage County,IL,NA,53.42465753424658,NA,NA
60142,McHenry County,IL,NA,45.50989345509893,NA,2.4390243902439024
60148,DuPage County,IL,NA,NA,NA,10.569105691056912
60442,Will County,IL,NA,NA,81.78438661710037,NA
60448,Will County,IL,NA,60.882800608828006,NA,NA
60453,Cook County,IL,NA,NA,NA,5.691056910569105
60477,Cook County,IL,25,32.26788432267884,NA,NA
60487,Cook County,IL,NA,NA,43.866171003717476,NA
60506,Kane County,IL,NA,31.202435312024352,NA,NA
60510,Kane County,IL,NA,NA,NA,56.50406504065041
60517,DuPage County,IL,NA,NA,69.14498141263941,NA
60521,DuPage County,IL,46.2962962962963,NA,NA,NA
60559,DuPage County,IL,NA,NA,50.92936802973978,NA
60586,Will County,IL,NA,47.94520547945205,NA,NA
60608,Cook County,IL,NA,13.39421613394216,NA,NA
60611,Cook County,IL,NA,NA,NA,10.16260162601626
60612,Cook County,IL,NA,NA,32.71375464684015,NA
60616,Cook County,IL,NA,73.97260273972603,NA,NA
60619,Cook County,IL,NA,7.610350076103501,NA,1.2195121951219512
60626,Cook County,IL,NA,54.946727549467276,NA,59.756097560975604
60631,Cook County,IL,53.70370370370371,NA,NA,23.577235772357724
60636,Cook County,IL,NA,NA,27.137546468401485,NA
60642,Cook County,IL,NA,NA,89.96282527881041,NA
60644,Cook County,IL,NA,36.22526636225266,NA,NA
60647,Cook County,IL,NA,35.46423135464231,NA,NA
60651,Cook County,IL,68.51851851851852,NA,NA,14.227642276422763
60804,Cook County,IL,30.09259259259259,NA,NA,NA
61072,Winnebago County,IL,NA,82.34398782343987,NA,NA
61104,Winnebago County,IL,NA,92.69406392694064,NA,NA
61244,Rock Island County,IL,NA,NA,NA,38.21138211382114
61360,LaSalle County,IL,NA,NA,98.88475836431226,NA
61364,LaSalle County,IL,NA,61.339421613394215,NA,NA
61542,Fulton County,IL,NA,99.84779299847793,NA,NA
61554,Tazewell County,IL,NA,33.94216133942161,NA,NA
61611,Tazewell County,IL,NA,77.77777777777779,NA,NA
61764,Livingston County,IL,85.64814814814815,NA,NA,NA
61834,Vermilion County,IL,99.07407407407408,NA,NA,NA
61920,Coles County,IL,NA,NA,55.762081784386616,NA
62232,St. Clair County,IL,NA,96.65144596651446,NA,NA
62526,Macon County,IL,NA,NA,7.434944237918216,NA
62832,Perry County,IL,NA,97.86910197869102,NA,NA
62948,Williamson County,IL,NA,72.6027397260274,NA,NA
46203,Marion County,IN,NA,11.263318112633181,NA,NA
46204,Marion County,IN,NA,45.053272450532724,NA,NA
46218,Marion County,IN,NA,NA,NA,26.422764227642276
46220,Marion County,IN,NA,79.45205479452055,NA,NA
46229,Marion County,IN,NA,29.52815829528158,NA,NA
46235,Marion County,IN,NA,24.961948249619482,NA,NA
46236,Marion County,IN,73.61111111111111,NA,NA,NA
46260,Marion County,IN,NA,NA,NA,39.83739837398374
46324,Lake County,IN,NA,NA,25.650557620817843,NA
46368,Porter County,IN,1.8518518518518516,NA,NA,NA
46385,Porter County,IN,6.018518518518518,NA,NA,NA
46403,Lake County,IN,NA,NA,64.68401486988847,NA
46410,Lake County,IN,NA,NA,26.765799256505574,NA
46517,Elkhart County,IN,NA,82.1917808219178,NA,NA
46614,St. Joseph County,IN,NA,NA,NA,39.43089430894309
46706,DeKalb County,IN,NA,49.31506849315068,NA,NA
46748,Allen County,IN,NA,NA,97.76951672862454,NA
46761,LaGrange County,IN,NA,NA,NA,71.13821138211382
46802,Allen County,IN,NA,NA,98.51301115241635,NA
46947,Cass County,IN,NA,NA,12.267657992565056,NA
46952,Grant County,IN,NA,22.22222222222222,NA,NA
46979,Howard County,IN,NA,86.7579908675799,NA,NA
46992,Wabash County,IN,50,NA,NA,NA
47330,Wayne County,IN,NA,NA,NA,80.48780487804879
47441,Greene County,IN,NA,NA,NA,59.34959349593496
47454,Orange County,IN,NA,NA,96.6542750929368,NA
47501,Daviess County,IN,NA,40.791476407914764,NA,NA
47591,Knox County,IN,NA,NA,24.1635687732342,NA
47714,Vanderburgh County,IN,43.98148148148148,NA,NA,NA
47933,Montgomery County,IN,NA,NA,NA,63.82113821138211
50021,Polk County,IA,71.29629629629629,NA,86.98884758364312,NA
50125,Warren County,IA,NA,74.42922374429224,NA,NA
50309,Polk County,IA,NA,NA,67.65799256505576,NA
50315,Polk County,IA,NA,10.50228310502283,NA,NA
50501,Webster County,IA,NA,NA,NA,28.455284552845526
50613,Black Hawk County,IA,NA,52.96803652968036,NA,NA
51250,Sioux County,IA,82.4074074074074,NA,NA,NA
51501,Pottawattamie County,IA,NA,21.91780821917808,NA,NA
52405,Linn County,IA,NA,42.922374429223744,NA,NA
52531,Monroe County,IA,NA,93.60730593607306,NA,NA
52601,Des Moines County,IA,29.166666666666668,NA,NA,NA
52623,Des Moines County,IA,96.29629629629629,NA,NA,NA
52803,Scott County,IA,NA,84.17047184170472,NA,NA
52804,Scott County,IA,35.18518518518518,NA,NA,NA
66048,Leavenworth County,KS,NA,NA,NA,34.552845528455286
66061,Johnson County,KS,NA,24.65753424657534,NA,NA
66103,Wyandotte County,KS,NA,80.06088280060882,NA,NA
66214,Johnson County,KS,NA,NA,NA,99.59349593495935
67205,Sedgwick County,KS,NA,89.04109589041096,NA,NA
67213,Sedgwick County,KS,NA,NA,NA,89.43089430894308
67801,Ford County,KS,60.64814814814815,NA,NA,NA
67846,Finney County,KS,NA,27.701674277016743,NA,NA
40014,Oldham County,KY,49.53703703703704,NA,NA,NA
40160,Hardin County,KY,NA,36.5296803652968,NA,NA
40162,Hardin County,KY,93.05555555555556,NA,NA,NA
40204,Jefferson County,KY,NA,82.49619482496195,NA,NA
40205,Jefferson County,KY,NA,NA,41.2639405204461,NA
40215,Jefferson County,KY,NA,23.13546423135464,NA,NA
40229,Jefferson County,KY,NA,14.61187214611872,NA,NA
40245,Jefferson County,KY,57.407407407407405,NA,NA,NA
40272,Jefferson County,KY,NA,16.590563165905632,NA,NA
40291,Jefferson County,KY,NA,21.3089802130898,NA,NA
40356,Jessamine County,KY,NA,16.7427701674277,NA,NA
40511,Fayette County,KY,NA,NA,NA,71.95121951219512
40873,Harlan County,KY,NA,98.17351598173516,NA,NA
41076,Campbell County,KY,60.64814814814815,NA,NA,NA
41501,Pike County,KY,NA,14.00304414003044,NA,NA
42129,Metcalfe County,KY,NA,63.16590563165906,NA,NA
42167,Monroe County,KY,NA,69.86301369863014,NA,NA
42211,Trigg County,KY,NA,NA,50.18587360594795,NA
42256,Logan County,KY,NA,NA,92.19330855018588,NA
42303,Daviess County,KY,21.75925925925926,NA,NA,NA
42420,Henderson County,KY,NA,NA,14.869888475836431,NA
70001,Jefferson Parish,LA,NA,43.987823439878234,NA,NA
70065,Jefferson Parish,LA,39.351851851851855,NA,NA,NA
70094,Jefferson Parish,LA,NA,6.392694063926941,NA,NA
70115,Orleans Parish,LA,NA,22.67884322678843,NA,NA
70118,Orleans Parish,LA,NA,NA,19.702602230483272,NA
70127,Orleans Parish,LA,NA,98.63013698630137,NA,NA
70380,St. Mary Parish,LA,NA,27.09284627092846,NA,NA
70401,Tangipahoa Parish,LA,NA,NA,71.00371747211895,NA
70441,St. Helena Parish,LA,NA,NA,NA,76.42276422764228
70447,St. Tammany Parish,LA,NA,63.926940639269404,NA,NA
70471,St. Tammany Parish,LA,NA,89.3455098934551,NA,NA
70507,Lafayette Parish,LA,NA,46.87975646879756,NA,NA
70592,Lafayette Parish,LA,NA,34.09436834094368,NA,NA
70601,Calcasieu Parish,LA,NA,2.13089802130898,NA,NA
70605,Calcasieu Parish,LA,32.870370370370374,NA,NA,NA
70714,East Baton Rouge Parish,LA,NA,NA,NA,73.98373983739837
70726,Livingston Parish,LA,NA,NA,40.520446096654275,NA
70791,East Baton Rouge Parish,LA,NA,NA,29.739776951672862,NA
70806,East Baton Rouge Parish,LA,NA,15.52511415525114,39.77695167286245,NA
70816,East Baton Rouge Parish,LA,3.2407407407407405,NA,NA,NA
70817,East Baton Rouge Parish,LA,5.092592592592593,NA,NA,NA
70818,East Baton Rouge Parish,LA,NA,NA,73.97769516728626,NA
71037,Bossier Parish,LA,9.722222222222223,NA,NA,NA
71040,Claiborne Parish,LA,NA,72.75494672754947,NA,NA
71082,Caddo Parish,LA,NA,NA,NA,94.3089430894309
71105,Caddo Parish,LA,NA,NA,NA,41.05691056910569
71106,Caddo Parish,LA,NA,NA,NA,15.447154471544716
04102,Cumberland County,ME,NA,39.26940639269406,NA,NA
04330,Kennebec County,ME,NA,31.506849315068493,NA,NA
04901,Kennebec County,ME,NA,6.54490106544901,NA,NA
04950,Somerset County,ME,NA,NA,NA,49.59349593495935
20659,St. Mary's County,MD,71.29629629629629,NA,NA,81.70731707317073
20706,Prince George's County,MD,NA,62.86149162861492,NA,NA
20748,Prince George's County,MD,NA,NA,68.02973977695167,NA
20854,Montgomery County,MD,48.148148148148145,NA,NA,NA
20901,Montgomery County,MD,NA,NA,NA,56.91056910569105
21009,Harford County,MD,NA,50.68493150684932,NA,NA
21032,Anne Arundel County,MD,NA,92.23744292237443,NA,NA
21043,Howard County,MD,NA,NA,48.3271375464684,NA
21061,Anne Arundel County,MD,NA,12.1765601217656,NA,NA
21122,Anne Arundel County,MD,NA,9.43683409436834,NA,NA
21207,Baltimore County,MD,NA,27.397260273972602,NA,18.29268292682927
21215,Baltimore city,MD,NA,NA,10.037174721189592,NA
21221,Baltimore County,MD,NA,NA,NA,30.081300813008134
21911,Cecil County,MD,NA,NA,NA,63.41463414634146
01020,Hampden County,MA,NA,4.71841704718417,NA,NA
01085,Hampden County,MA,NA,NA,2.2304832713754648,NA
01089,Hampden County,MA,NA,NA,NA,27.235772357723576
01201,Berkshire County,MA,NA,92.08523592085236,NA,NA
01453,Worcester County,MA,NA,9.74124809741248,NA,NA
01550,Worcester County,MA,NA,NA,NA,2.8455284552845526
01562,Worcester County,MA,NA,32.87671232876712,NA,NA
01570,Worcester County,MA,NA,5.47945205479452,NA,NA
01581,Worcester County,MA,NA,37.29071537290715,NA,NA
01603,Worcester County,MA,NA,95.4337899543379,NA,NA
01605,Worcester County,MA,NA,1.67427701674277,NA,NA
01749,Middlesex County,MA,NA,NA,NA,54.87804878048781
01810,Essex County,MA,NA,NA,NA,17.479674796747968
01824,Middlesex County,MA,NA,NA,36.059479553903344,NA
01826,Middlesex County,MA,NA,5.6316590563165905,NA,NA
01841,Essex County,MA,NA,62.70928462709284,NA,22.76422764227642
01923,Essex County,MA,NA,4.26179604261796,NA,NA
01949,Essex County,MA,NA,NA,NA,68.29268292682927
02019,Norfolk County,MA,NA,39.87823439878234,NA,NA
02093,Norfolk County,MA,NA,NA,NA,90.2439024390244
02116,Suffolk County,MA,NA,NA,80.29739776951673,NA
02125,Suffolk County,MA,NA,0.15220700152207,NA,NA
02126,Suffolk County,MA,NA,NA,NA,18.69918699186992
02136,Suffolk County,MA,NA,15.37290715372907,NA,NA
02139,Middlesex County,MA,NA,10.045662100456621,NA,NA
02141,Middlesex County,MA,NA,33.789954337899545,NA,NA
02145,Middlesex County,MA,NA,NA,NA,8.536585365853659
02148,Middlesex County,MA,51.388888888888886,NA,NA,NA
02171,Norfolk County,MA,NA,34.24657534246575,NA,NA
02301,Plymouth County,MA,NA,NA,0,NA
02341,Plymouth County,MA,NA,44.90106544901065,NA,NA
02360,Plymouth County,MA,NA,0.76103500761035,NA,NA
02465,Middlesex County,MA,NA,NA,NA,43.08943089430895
02478,Middlesex County,MA,NA,61.18721461187214,NA,NA
02492,Norfolk County,MA,NA,NA,27.509293680297397,NA
02644,Barnstable County,MA,99.53703703703704,NA,NA,NA
02649,Barnstable County,MA,NA,NA,NA,19.10569105691057
02664,Barnstable County,MA,NA,NA,NA,34.959349593495936
02703,Bristol County,MA,0.4629629629629629,NA,NA,NA
02740,Bristol County,MA,NA,NA,0.37174721189591076,0
02780,Bristol County,MA,NA,4.10958904109589,NA,NA
48036,Macomb County,MI,NA,NA,NA,17.88617886178862
48060,St. Clair County,MI,NA,3.65296803652968,NA,NA
48083,Oakland County,MI,NA,62.25266362252664,NA,NA
48092,Macomb County,MI,NA,NA,NA,31.300813008130078
48108,Washtenaw County,MI,85.18518518518519,NA,NA,NA
48125,Wayne County,MI,28.703703703703702,NA,NA,NA
48138,Wayne County,MI,NA,NA,NA,43.49593495934959
48141,Wayne County,MI,13.425925925925927,NA,NA,NA
48174,Wayne County,MI,NA,8.67579908675799,NA,NA
48183,Wayne County,MI,NA,NA,34.572490706319705,NA
48205,Wayne County,MI,NA,5.0228310502283104,NA,NA
48207,Wayne County,MI,NA,73.82039573820396,NA,NA
48224,Wayne County,MI,NA,2.28310502283105,NA,NA
48238,Wayne County,MI,NA,6.2404870624048705,NA,NA
48307,Oakland County,MI,18.055555555555554,NA,NA,NA
48317,Macomb County,MI,NA,27.54946727549467,NA,NA
48327,Oakland County,MI,57.407407407407405,NA,NA,NA
48380,Oakland County,MI,79.16666666666666,NA,NA,NA
48473,Genesee County,MI,68.05555555555556,NA,NA,NA
48504,Genesee County,MI,NA,52.054794520547944,NA,NA
48640,Midland County,MI,NA,11.87214611872146,NA,NA
48657,Midland County,MI,NA,NA,NA,57.3170731707317
48706,Bay County,MI,NA,NA,1.486988847583643,NA
48723,Tuscola County,MI,65.27777777777779,NA,NA,NA
48746,Tuscola County,MI,NA,92.54185692541856,NA,NA
48750,Iosco County,MI,NA,78.23439878234399,NA,NA
48813,Eaton County,MI,NA,NA,NA,69.91869918699187
48820,Clinton County,MI,92.12962962962963,NA,NA,NA
48843,Livingston County,MI,NA,14.916286149162861,NA,NA
48884,Montcalm County,MI,NA,96.19482496194824,NA,NA
48888,Montcalm County,MI,NA,93.45509893455099,NA,NA
48917,Eaton County,MI,NA,10.95890410958904,39.77695167286245,NA
49022,Berrien County,MI,NA,12.02435312024353,NA,NA
49031,Cass County,MI,NA,85.38812785388129,NA,NA
49097,Kalamazoo County,MI,78.70370370370371,NA,NA,NA
49201,Jackson County,MI,NA,10.6544901065449,NA,NA
49333,Barry County,MI,NA,73.0593607305936,NA,NA
49341,Kent County,MI,NA,33.4855403348554,NA,NA
49417,Ottawa County,MI,NA,21.15677321156773,NA,NA
49506,Kent County,MI,NA,29.98477929984779,NA,NA
49519,Kent County,MI,20.37037037037037,NA,NA,NA
49546,Kent County,MI,NA,41.24809741248097,NA,NA
49707,Alpena County,MI,NA,35.15981735159817,NA,NA
49746,Montmorency County,MI,NA,90.8675799086758,NA,NA
55106,Ramsey County,MN,NA,8.06697108066971,NA,NA
55313,Wright County,MN,NA,NA,45.353159851301115,NA
55336,McLeod County,MN,NA,NA,72.86245353159852,NA
55372,Scott County,MN,NA,66.21004566210046,NA,NA
55401,Hennepin County,MN,NA,NA,88.10408921933085,NA
55403,Hennepin County,MN,81.48148148148148,NA,NA,NA
55404,Hennepin County,MN,NA,11.415525114155251,NA,NA
55407,Hennepin County,MN,3.7037037037037033,NA,NA,NA
55411,Hennepin County,MN,NA,3.34855403348554,NA,NA
55412,Hennepin County,MN,NA,NA,86.2453531598513,NA
55431,Hennepin County,MN,NA,66.9710806697108,NA,NA
55434,Anoka County,MN,NA,87.06240487062405,NA,NA
55441,Hennepin County,MN,NA,76.40791476407914,NA,NA
55806,St. Louis County,MN,NA,32.724505327245055,NA,NA
55808,St. Louis County,MN,NA,NA,91.44981412639405,NA
55811,St. Louis County,MN,NA,NA,31.970260223048324,NA
55906,Olmsted County,MN,NA,75.49467275494672,NA,NA
56001,Blue Earth County,MN,NA,89.95433789954338,NA,NA
56073,Brown County,MN,NA,27.24505327245053,NA,NA
56258,Lyon County,MN,NA,77.92998477929984,NA,NA
56379,Benton County,MN,NA,NA,94.05204460966543,NA
56501,Becker County,MN,NA,NA,26.022304832713754,NA
56537,Otter Tail County,MN,15.74074074074074,NA,NA,NA
56560,Clay County,MN,0.9259259259259258,NA,NA,NA
39047,Rankin County,MS,NA,56.3165905631659,NA,NA
39090,Attala County,MS,NA,74.1248097412481,NA,NA
39153,Smith County,MS,NA,97.86910197869102,NA,NA
39180,Warren County,MS,NA,46.42313546423135,NA,NA
39183,Warren County,MS,NA,68.4931506849315,NA,NA
39350,Neshoba County,MS,NA,NA,31.226765799256505,NA
39402,Lamar County,MS,18.98148148148148,NA,NA,NA
39475,Lamar County,MS,NA,NA,NA,88.21138211382113
39556,Hancock County,MS,NA,NA,76.95167286245353,NA
39565,Jackson County,MS,NA,68.18873668188736,NA,NA
39567,Jackson County,MS,NA,NA,61.33828996282528,NA
39601,Lincoln County,MS,NA,50.076103500761036,NA,NA
39773,Clay County,MS,NA,71.5372907153729,NA,NA
63033,St. Louis County,MO,NA,49.923896499238964,NA,NA
63042,St. Louis County,MO,44.44444444444444,NA,NA,NA
63121,St. Louis County,MO,48.61111111111111,NA,NA,NA
63136,St. Louis County,MO,NA,8.82800608828006,NA,NA
63367,St. Charles County,MO,NA,62.10045662100456,NA,NA
63368,St. Charles County,MO,NA,45.20547945205479,NA,NA
63383,Warren County,MO,NA,58.75190258751902,NA,NA
63401,Marion County,MO,NA,80.97412480974124,NA,NA
63670,Ste. Genevieve County,MO,NA,64.07914764079148,NA,NA
64012,Cass County,MO,NA,80.51750380517504,NA,NA
64040,Johnson County,MO,NA,NA,NA,96.7479674796748
64052,Jackson County,MO,NA,NA,NA,81.30081300813008
64089,Clay County,MO,NA,55.8599695585997,NA,NA
64131,Jackson County,MO,NA,17.04718417047184,NA,NA
64133,Jackson County,MO,NA,NA,4.83271375464684,NA
64138,Jackson County,MO,NA,13.698630136986301,NA,NA
64152,Platte County,MO,NA,24.3531202435312,NA,NA
64424,Harrison County,MO,NA,87.97564687975647,NA,NA
64701,Cass County,MO,34.25925925925926,NA,NA,NA
64850,Newton County,MO,NA,80.36529680365297,NA,NA
65203,Boone County,MO,6.481481481481481,NA,NA,NA
65301,Pettis County,MO,6.944444444444445,4.5662100456621,NA,NA
65338,Benton County,MO,NA,98.78234398782344,NA,NA
65613,Polk County,MO,NA,NA,NA,16.260162601626014
65648,Greene County,MO,95.83333333333334,NA,NA,NA
59405,Cascade County,MT,NA,NA,NA,7.317073170731707
59501,Hill County,MT,NA,NA,86.61710037174721,NA
59828,Ravalli County,MT,NA,97.10806697108066,NA,NA
59859,Sanders County,MT,NA,NA,97.76951672862454,NA
68114,Douglas County,NE,NA,82.80060882800609,NA,NA
68127,Douglas County,NE,NA,72.29832572298326,NA,NA
68136,Sarpy County,NE,NA,NA,86.98884758364312,NA
68467,York County,NE,NA,88.58447488584474,NA,NA
68521,Lancaster County,NE,NA,NA,77.32342007434944,NA
68601,Platte County,NE,NA,67.42770167427702,NA,NA
89101,Clark County,NV,39.81481481481482,NA,NA,NA
89104,Clark County,NV,NA,42.16133942161339,NA,NA
89113,Clark County,NV,NA,NA,NA,87.39837398373984
89122,Clark County,NV,NA,78.84322678843226,NA,NA
89165,Clark County,NV,NA,96.04261796042618,NA,NA
89169,Clark County,NV,NA,57.077625570776256,NA,97.5609756097561
89511,Washoe County,NV,87.5,NA,NA,NA
89512,Washoe County,NV,NA,19.025875190258752,NA,NA
03038,Rockingham County,NH,16.203703703703702,NA,NA,NA
03060,Hillsborough County,NH,NA,NA,46.468401486988846,NA
03077,Rockingham County,NH,NA,NA,69.14498141263941,NA
03246,Belknap County,NH,NA,NA,34.94423791821561,NA
03801,Rockingham County,NH,NA,54.49010654490106,NA,NA
07002,Hudson County,NJ,NA,1.5220700152207,NA,NA
07055,Passaic County,NJ,NA,1.06544901065449,NA,NA
07068,Essex County,NJ,NA,NA,NA,79.26829268292683
07073,Bergen County,NJ,NA,69.40639269406392,NA,NA
07083,Union County,NJ,NA,87.51902587519027,NA,NA
07087,Hudson County,NJ,NA,NA,NA,5.284552845528456
07111,Essex County,NJ,NA,NA,NA,20.73170731707317
07206,Union County,NJ,NA,9.89345509893455,NA,NA
07304,Hudson County,NJ,NA,3.1963470319634704,NA,NA
07470,Passaic County,NJ,NA,19.330289193302892,NA,NA
07640,Bergen County,NJ,NA,99.39117199391173,NA,NA
07701,Monmouth County,NJ,NA,49.467275494672755,NA,NA
07712,Monmouth County,NJ,NA,3.50076103500761,NA,NA
07724,Monmouth County,NJ,NA,NA,37.174721189591075,NA
07748,Monmouth County,NJ,NA,NA,62.825278810408925,NA
07821,Sussex County,NJ,NA,NA,89.21933085501858,NA
07828,Morris County,NJ,NA,62.55707762557078,NA,NA
07860,Sussex County,NJ,NA,NA,26.022304832713754,NA
07866,Morris County,NJ,66.20370370370371,NA,NA,NA
07930,Morris County,NJ,NA,NA,NA,93.90243902439023
08003,Camden County,NJ,NA,95.28158295281582,NA,NA
08012,Camden County,NJ,NA,6.69710806697108,NA,41.05691056910569
08015,Burlington County,NJ,NA,17.80821917808219,NA,NA
08046,Burlington County,NJ,NA,7.4581430745814306,NA,NA
08052,Burlington County,NJ,NA,80.82191780821918,NA,NA
08077,Burlington County,NJ,NA,NA,NA,58.94308943089431
08081,Camden County,NJ,NA,1.82648401826484,NA,NA
08085,Gloucester County,NJ,NA,28.9193302891933,NA,NA
08104,Camden County,NJ,NA,NA,20.074349442379184,NA
08109,Camden County,NJ,NA,54.64231354642314,NA,NA
08302,Cumberland County,NJ,NA,1.36986301369863,NA,NA
08330,Atlantic County,NJ,67.12962962962963,NA,NA,NA
08332,Cumberland County,NJ,NA,0.91324200913242,17.472118959107807,NA
08360,Cumberland County,NJ,NA,0.60882800608828,8.921933085501859,NA
08505,Burlington County,NJ,NA,NA,NA,64.63414634146342
08535,Monmouth County,NJ,NA,NA,NA,99.1869918699187
08609,Mercer County,NJ,NA,NA,88.84758364312268,NA
08620,Mercer County,NJ,NA,NA,NA,74.79674796747967
08753,Ocean County,NJ,NA,2.43531202435312,NA,NA
08820,Middlesex County,NJ,84.25925925925925,NA,NA,NA
08823,Somerset County,NJ,NA,95.58599695585997,NA,NA
87026,Valencia County,NM,NA,91.01978691019787,NA,NA
87102,Bernalillo County,NM,NA,26.78843226788432,NA,NA
87107,Bernalillo County,NM,40.27777777777778,NA,NA,NA
87108,Bernalillo County,NM,NA,7.91476407914764,NA,NA
87120,Bernalillo County,NM,NA,NA,NA,23.170731707317074
87123,Bernalillo County,NM,NA,NA,NA,15.040650406504067
87420,San Juan County,NM,NA,34.39878234398782,NA,NA
87505,Santa Fe County,NM,NA,6.0882800608828,NA,NA
88001,Doa Ana County,NM,NA,NA,27.881040892193308,NA
88030,Luna County,NM,NA,65.60121765601218,NA,NA
10001,New York County,NY,NA,NA,57.62081784386617,NA
10009,New York County,NY,NA,11.11111111111111,NA,NA
10016,New York County,NY,NA,NA,NA,25.609756097560975
10021,New York County,NY,NA,89.64992389649925,NA,NA
10027,New York County,NY,NA,NA,15.241635687732341,NA
10075,New York County,NY,NA,NA,NA,16.666666666666664
10303,Richmond County,NY,NA,43.37899543378995,NA,NA
10314,Richmond County,NY,NA,44.596651445966515,NA,NA
10451,Bronx County,NY,NA,37.595129375951295,NA,NA
10456,Bronx County,NY,NA,0,NA,3.2520325203252036
10457,Bronx County,NY,NA,0.45662100456621,NA,NA
10467,Bronx County,NY,NA,5.78386605783866,NA,NA
10468,Bronx County,NY,17.59259259259259,1.21765601217656,NA,NA
10562,Westchester County,NY,NA,NA,NA,38.61788617886179
10701,Westchester County,NY,NA,42.31354642313546,NA,NA
10940,Orange County,NY,NA,70.77625570776256,NA,NA
10956,Rockland County,NY,NA,NA,NA,28.04878048780488
10992,Orange County,NY,NA,NA,NA,92.27642276422763
11096,Nassau County,NY,97.68518518518519,NA,NA,NA
11204,Kings County,NY,NA,NA,NA,33.33333333333333
11206,Kings County,NY,NA,2.5875190258751903,NA,NA
11207,Kings County,NY,NA,NA,0.7434944237918215,NA
11209,Kings County,NY,NA,36.68188736681887,NA,NA
11213,Kings County,NY,NA,29.22374429223744,NA,NA
11214,Kings County,NY,NA,18.72146118721461,NA,NA
11221,Kings County,NY,NA,20.091324200913242,NA,NA
11234,Kings County,NY,NA,24.80974124809741,NA,NA
11238,Kings County,NY,NA,75.34246575342466,NA,NA
11360,Queens County,NY,NA,NA,NA,47.5609756097561
11373,Queens County,NY,NA,NA,17.100371747211895,20.32520325203252
11378,Queens County,NY,NA,NA,84.38661710037175,NA
11412,Queens County,NY,NA,50.83713850837138,NA,NA
11429,Queens County,NY,NA,NA,33.08550185873606,NA
11435,Queens County,NY,NA,41.856925418569254,NA,NA
11566,Nassau County,NY,NA,88.73668188736681,NA,NA
11714,Nassau County,NY,NA,NA,NA,54.0650406504065
11717,Suffolk County,NY,NA,72.90715372907154,NA,28.86178861788618
11727,Suffolk County,NY,NA,67.57990867579909,NA,NA
11768,Suffolk County,NY,NA,NA,NA,54.47154471544715
11782,Suffolk County,NY,NA,94.52054794520548,NA,NA
12309,Schenectady County,NY,NA,76.25570776255708,NA,NA
12533,Dutchess County,NY,NA,NA,NA,66.66666666666666
12803,Saratoga County,NY,NA,NA,82.8996282527881,NA
12887,Washington County,NY,87.03703703703704,NA,NA,NA
13027,Onondaga County,NY,25.925925925925924,NA,NA,NA
13057,Onondaga County,NY,NA,51.2937595129376,NA,NA
13203,Onondaga County,NY,NA,NA,81.04089219330855,NA
13214,Onondaga County,NY,89.81481481481481,NA,NA,NA
13365,Herkimer County,NY,NA,38.660578386605785,NA,NA
13407,Herkimer County,NY,72.22222222222221,NA,NA,NA
13421,Madison County,NY,NA,NA,56.13382899628253,NA
13617,St. Lawrence County,NY,NA,38.35616438356164,NA,NA
13790,Broome County,NY,NA,NA,NA,12.601626016260163
13833,Broome County,NY,NA,78.38660578386606,NA,NA
14094,Niagara County,NY,NA,NA,NA,27.64227642276423
14141,Erie County,NY,76.38888888888889,NA,84.75836431226766,NA
14150,Erie County,NY,NA,NA,5.5762081784386615,NA
14207,Erie County,NY,NA,9.1324200913242,NA,NA
14210,Erie County,NY,NA,NA,47.21189591078067,NA
14214,Erie County,NY,NA,NA,46.84014869888476,NA
14218,Erie County,NY,NA,22.831050228310502,NA,NA
14219,Erie County,NY,NA,54.03348554033486,NA,86.58536585365853
14220,Erie County,NY,NA,16.28614916286149,NA,NA
14221,Erie County,NY,NA,13.850837138508371,NA,NA
14226,Erie County,NY,NA,NA,85.13011152416357,NA
14304,Niagara County,NY,NA,NA,3.717472118959108,NA
14424,Ontario County,NY,NA,2.89193302891933,NA,NA
14456,Ontario County,NY,NA,NA,5.204460966542751,NA
14487,Livingston County,NY,NA,NA,62.0817843866171,NA
14564,Ontario County,NY,NA,23.59208523592085,NA,NA
14609,Monroe County,NY,NA,0.30441400304414,NA,NA
14621,Monroe County,NY,NA,NA,2.6022304832713754,NA
27028,Davie County,NC,NA,17.50380517503805,NA,NA
27253,Alamance County,NC,NA,19.17808219178082,NA,NA
27292,Davidson County,NC,NA,5.32724505327245,NA,NA
27330,Lee County,NC,NA,26.94063926940639,NA,NA
27407,Guilford County,NC,NA,22.98325722983257,NA,NA
27410,Guilford County,NC,NA,35.76864535768645,NA,NA
27516,Orange County,NC,NA,35.31202435312024,NA,NA
27529,Wake County,NC,NA,63.013698630136986,NA,NA
27577,Johnston County,NC,NA,NA,33.457249070631974,NA
27587,Wake County,NC,14.351851851851851,NA,NA,NA
27613,Wake County,NC,59.72222222222222,NA,NA,NA
27616,Wake County,NC,NA,26.027397260273972,NA,NA
27707,Durham County,NC,NA,NA,8.178438661710038,NA
27822,Wilson County,NC,NA,94.67275494672755,NA,NA
27834,Pitt County,NC,NA,8.52359208523592,NA,NA
27870,Halifax County,NC,NA,NA,30.855018587360593,NA
27909,Pasquotank County,NC,75.92592592592592,NA,NA,NA
27949,Dare County,NC,NA,88.88888888888889,NA,NA
28112,Union County,NC,49.074074074074076,NA,NA,NA
28115,Iredell County,NC,NA,26.17960426179604,NA,NA
28117,Iredell County,NC,NA,34.70319634703196,NA,NA
28146,Rowan County,NC,NA,NA,49.07063197026022,NA
28217,Mecklenburg County,NC,NA,54.18569254185692,NA,NA
28306,Bladen County,NC,NA,35.920852359208524,NA,NA
28320,Bladen County,NC,NA,78.08219178082192,NA,NA
28348,Cumberland County,NC,NA,NA,74.34944237918215,NA
28349,Duplin County,NC,NA,98.93455098934551,NA,NA
28405,New Hanover County,NC,NA,38.96499238964992,NA,NA
28412,New Hanover County,NC,NA,NA,NA,67.47967479674797
28467,Brunswick County,NC,NA,NA,65.4275092936803,NA
28472,Columbus County,NC,59.25925925925925,NA,NA,NA
28584,Carteret County,NC,NA,79.1476407914764,NA,NA
28607,Watauga County,NC,NA,NA,NA,43.90243902439025
28610,Catawba County,NC,NA,83.86605783866058,NA,NA
28621,Surry County,NC,NA,NA,55.01858736059479,NA
28655,Burke County,NC,NA,NA,4.4609665427509295,NA
28657,Avery County,NC,77.77777777777779,NA,NA,NA
28681,Alexander County,NC,NA,NA,42.37918215613383,NA
28697,Wilkes County,NC,NA,86.91019786910198,NA,NA
28712,Transylvania County,NC,NA,NA,NA,8.130081300813007
28715,Buncombe County,NC,17.12962962962963,NA,NA,NA
28801,Buncombe County,NC,NA,NA,95.53903345724906,NA
58103,Cass County,ND,NA,8.37138508371385,NA,NA
58278,Grand Forks County,ND,96.75925925925925,NA,NA,NA
58701,Ward County,ND,NA,12.633181126331811,NA,NA
43017,Franklin County,OH,NA,NA,37.9182156133829,NA
43021,Delaware County,OH,NA,NA,NA,74.39024390243902
43040,Union County,OH,NA,30.74581430745814,NA,NA
43068,Franklin County,OH,NA,11.71993911719939,NA,NA
43119,Franklin County,OH,NA,29.37595129375951,NA,NA
43160,Fayette County,OH,NA,NA,20.817843866171003,NA
43204,Franklin County,OH,0,NA,NA,NA
43205,Franklin County,OH,NA,48.09741248097412,NA,NA
43206,Franklin County,OH,NA,14.45966514459665,NA,NA
43207,Franklin County,OH,NA,1.97869101978691,NA,NA
43228,Franklin County,OH,NA,NA,13.754646840148698,NA
43230,Franklin County,OH,NA,70.16742770167428,NA,NA
43232,Franklin County,OH,NA,25.266362252663622,NA,NA
43302,Marion County,OH,NA,NA,2.973977695167286,NA
43338,Morrow County,OH,NA,NA,NA,60.16260162601627
43357,Logan County,OH,NA,NA,NA,69.51219512195121
43420,Sandusky County,OH,NA,12.785388127853881,NA,NA
43623,Lucas County,OH,NA,31.65905631659056,NA,NA
43756,Morgan County,OH,NA,NA,NA,67.07317073170732
43777,Muskingum County,OH,NA,91.01978691019787,NA,NA
43812,Coshocton County,OH,42.129629629629626,NA,NA,NA
43832,Tuscarawas County,OH,NA,64.9923896499239,NA,NA
43920,Columbiana County,OH,NA,NA,10.780669144981413,NA
44001,Lorain County,OH,NA,NA,NA,34.146341463414636
44017,Cuyahoga County,OH,NA,NA,NA,29.67479674796748
44052,Lorain County,OH,NA,NA,1.858736059479554,NA
44060,Lake County,OH,23.61111111111111,8.21917808219178,NA,4.878048780487805
44070,Cuyahoga County,OH,NA,NA,30.111524163568777,NA
44090,Lorain County,OH,28.240740740740737,NA,NA,NA
44104,Cuyahoga County,OH,NA,4.87062404870624,NA,NA
44110,Cuyahoga County,OH,NA,11.56773211567732,NA,NA
44112,Cuyahoga County,OH,NA,9.28462709284627,NA,NA
44113,Cuyahoga County,OH,NA,8.980213089802131,NA,NA
44130,Cuyahoga County,OH,2.7777777777777777,NA,NA,NA
44137,Cuyahoga County,OH,NA,NA,10.408921933085502,NA
44203,Summit County,OH,NA,7.00152207001522,NA,NA
44240,Portage County,OH,NA,NA,NA,19.51219512195122
44306,Summit County,OH,NA,39.42161339421613,NA,NA
44313,Summit County,OH,NA,NA,NA,13.821138211382115
44333,Summit County,OH,NA,NA,47.58364312267658,NA
44406,Mahoning County,OH,NA,59.665144596651444,NA,NA
44425,Trumbull County,OH,NA,NA,24.53531598513011,NA
44460,Columbiana County,OH,9.25925925925926,NA,NA,NA
44471,Mahoning County,OH,NA,58.75190258751902,NA,NA
44512,Mahoning County,OH,NA,NA,NA,15.853658536585366
44515,Mahoning County,OH,NA,NA,11.524163568773234,NA
44622,Tuscarawas County,OH,NA,70.92846270928462,69.88847583643123,NA
44647,Stark County,OH,NA,52.8158295281583,NA,NA
44667,Wayne County,OH,NA,69.10197869101978,NA,NA
44811,Sandusky County,OH,NA,NA,90.33457249070632,NA
44830,Seneca County,OH,NA,51.598173515981735,NA,NA
44839,Erie County,OH,NA,60.273972602739725,NA,NA
44883,Seneca County,OH,NA,NA,NA,19.91869918699187
44889,Huron County,OH,NA,85.08371385083714,NA,NA
44906,Richland County,OH,NA,36.83409436834094,NA,NA
45013,Butler County,OH,NA,3.8051750380517504,NA,NA
45039,Warren County,OH,52.31481481481482,NA,65.79925650557621,NA
45044,Butler County,OH,10.185185185185185,NA,NA,NA
45106,Clermont County,OH,NA,NA,NA,91.46341463414635
45140,Clermont County,OH,NA,NA,NA,60.56910569105691
45144,Adams County,OH,NA,93.30289193302892,NA,NA
45152,Warren County,OH,80.55555555555556,NA,NA,NA
45215,Hamilton County,OH,14.351851851851851,NA,NA,NA
45236,Hamilton County,OH,NA,55.70776255707762,NA,NA
45240,Hamilton County,OH,5.555555555555555,NA,NA,NA
45377,Montgomery County,OH,NA,NA,NA,61.382113821138205
45420,Montgomery County,OH,NA,NA,75.46468401486989,NA
45426,Montgomery County,OH,NA,NA,38.28996282527881,NA
45431,Montgomery County,OH,52.31481481481482,NA,NA,NA
45503,Clark County,OH,NA,34.855403348554034,NA,NA
45638,Lawrence County,OH,NA,27.85388127853881,NA,26.01626016260163
45660,Adams County,OH,NA,89.8021308980213,NA,NA
45661,Pike County,OH,NA,50.2283105022831,NA,NA
45895,Auglaize County,OH,NA,NA,34.20074349442379,NA
73008,Oklahoma County,OK,NA,NA,60.594795539033456,NA
73044,Logan County,OK,23.14814814814815,NA,NA,NA
73089,Grady County,OK,NA,83.56164383561644,NA,NA
73110,Oklahoma County,OK,56.94444444444444,NA,NA,NA
73112,Oklahoma County,OK,NA,39.5738203957382,NA,NA
73135,Oklahoma County,OK,NA,45.662100456621005,NA,NA
73507,Comanche County,OK,NA,NA,31.59851301115242,NA
73533,Stephens County,OK,NA,NA,13.382899628252787,NA
74129,Tulsa County,OK,NA,NA,NA,73.57723577235772
74134,Tulsa County,OK,NA,76.56012176560122,NA,NA
74301,Craig County,OK,NA,NA,NA,68.69918699186992
74868,Seminole County,OK,NA,74.73363774733637,NA,NA
74962,Sequoyah County,OK,NA,96.34703196347031,NA,NA
97015,Clackamas County,OR,NA,56.468797564687975,NA,NA
97055,Clackamas County,OR,NA,87.8234398782344,NA,NA
97206,Multnomah County,OR,NA,NA,NA,35.36585365853659
97212,Multnomah County,OR,NA,NA,74.72118959107806,NA
97227,Multnomah County,OR,NA,94.21613394216133,NA,NA
97229,Washington County,OR,NA,NA,38.66171003717472,NA
97301,Marion County,OR,NA,15.068493150684931,NA,NA
97304,Polk County,OR,NA,NA,59.10780669144982,60.97560975609756
97322,Linn County,OR,NA,15.981735159817351,NA,NA
97404,Lane County,OR,NA,64.53576864535768,NA,NA
97420,Coos County,OR,NA,52.663622526636225,NA,NA
97426,Lane County,OR,NA,NA,76.57992565055763,NA
97470,Douglas County,OR,NA,35.0076103500761,NA,NA
97501,Jackson County,OR,NA,37.13850837138508,NA,NA
97502,Jackson County,OR,NA,NA,21.933085501858738,NA
97520,Jackson County,OR,NA,NA,79.182156133829,NA
97702,Deschutes County,OR,NA,47.336377473363775,NA,NA
97703,Deschutes County,OR,NA,NA,72.4907063197026,NA
97838,Umatilla County,OR,NA,21.00456621004566,NA,NA
97882,Umatilla County,OR,NA,83.71385083713851,NA,NA
97914,Malheur County,OR,NA,28.61491628614916,NA,NA
15205,Allegheny County,PA,NA,80.6697108066971,NA,NA
15206,Allegheny County,PA,NA,NA,21.189591078066915,NA
15212,Allegheny County,PA,NA,62.404870624048705,NA,NA
15217,Allegheny County,PA,NA,NA,NA,21.138211382113823
15227,Allegheny County,PA,NA,40.94368340943683,NA,NA
15417,Fayette County,PA,NA,NA,NA,75.60975609756098
15522,Bedford County,PA,NA,68.34094368340944,NA,NA
15552,Somerset County,PA,NA,95.12937595129375,NA,NA
15601,Westmoreland County,PA,2.314814814814815,NA,NA,NA
15613,Westmoreland County,PA,NA,NA,53.53159851301115,NA
15642,Westmoreland County,PA,22.22222222222222,NA,NA,NA
15644,Westmoreland County,PA,NA,65.75342465753424,NA,NA
15670,Westmoreland County,PA,NA,98.32572298325722,NA,NA
15935,Somerset County,PA,98.14814814814815,NA,NA,NA
16101,Lawrence County,PA,NA,7.15372907153729,NA,NA
16314,Crawford County,PA,NA,NA,89.59107806691449,NA
16365,Warren County,PA,NA,NA,NA,30.48780487804878
16415,Erie County,PA,NA,91.62861491628614,NA,NA
16601,Blair County,PA,24.074074074074073,NA,NA,NA
16602,Blair County,PA,NA,46.118721461187214,NA,NA
17011,Cumberland County,PA,NA,NA,19.33085501858736,NA
17015,Cumberland County,PA,NA,46.27092846270928,NA,NA
17022,Lancaster County,PA,NA,81.12633181126331,NA,NA
17036,Dauphin County,PA,NA,28.462709284627092,NA,NA
17066,Huntingdon County,PA,76.38888888888889,76.86453576864535,NA,NA
17111,Dauphin County,PA,16.666666666666664,NA,6.319702602230483,36.58536585365854
17268,Franklin County,PA,NA,51.44596651445966,NA,NA
17331,York County,PA,NA,NA,NA,1.6260162601626018
17517,Lancaster County,PA,NA,57.3820395738204,NA,NA
17545,Lancaster County,PA,NA,NA,NA,17.073170731707318
17552,Lancaster County,PA,NA,NA,37.54646840148699,NA
17584,Lancaster County,PA,NA,NA,NA,42.27642276422765
17801,Northumberland County,PA,NA,NA,59.479553903345725,NA
17815,Columbia County,PA,NA,19.7869101978691,NA,NA
17844,Union County,PA,NA,76.71232876712328,NA,NA
17901,Schuylkill County,PA,NA,NA,NA,24.390243902439025
17972,Schuylkill County,PA,NA,66.9710806697108,NA,NA
18052,Lehigh County,PA,NA,23.74429223744292,NA,NA
18071,Carbon County,PA,NA,53.72907153729072,NA,NA
18072,Northampton County,PA,86.57407407407408,NA,NA,NA
18103,Lehigh County,PA,1.3888888888888888,NA,NA,NA
18109,Lehigh County,PA,NA,NA,NA,63.00813008130082
18509,Lackawanna County,PA,NA,61.49162861491628,NA,NA
18603,Columbia County,PA,NA,NA,18.21561338289963,NA
18707,Luzerne County,PA,NA,NA,NA,42.68292682926829
18834,Susquehanna County,PA,NA,99.54337899543378,NA,NA
18840,Bradford County,PA,NA,68.4931506849315,NA,NA
18974,Bucks County,PA,NA,26.331811263318112,NA,NA
19013,Delaware County,PA,NA,3.95738203957382,NA,NA
19014,Delaware County,PA,NA,NA,44.60966542750929,NA
19020,Bucks County,PA,NA,9.58904109589041,NA,NA
19021,Bucks County,PA,NA,86.60578386605783,NA,NA
19050,Delaware County,PA,NA,66.5144596651446,15.613382899628252,NA
19053,Bucks County,PA,NA,NA,NA,45.1219512195122
19061,Delaware County,PA,NA,33.33333333333333,NA,NA
19064,Delaware County,PA,NA,NA,NA,40.243902439024396
19067,Bucks County,PA,NA,NA,7.806691449814126,NA
19096,Montgomery County,PA,NA,NA,NA,61.78861788617886
19106,Philadelphia County,PA,NA,85.99695585996956,NA,NA
19107,Philadelphia County,PA,NA,47.64079147640791,NA,NA
19111,Philadelphia County,PA,NA,NA,NA,11.38211382113821
19115,Philadelphia County,PA,NA,23.28767123287671,NA,NA
19119,Philadelphia County,PA,NA,29.832572298325722,NA,NA
19121,Philadelphia County,PA,NA,10.80669710806697,NA,NA
19133,Philadelphia County,PA,NA,17.960426179604262,NA,NA
19136,Philadelphia County,PA,NA,13.54642313546423,NA,NA
19137,Philadelphia County,PA,NA,NA,NA,97.96747967479675
19142,Philadelphia County,PA,NA,14.76407914764079,NA,NA
19144,Philadelphia County,PA,NA,NA,43.12267657992565,NA
19152,Philadelphia County,PA,NA,53.72907153729072,NA,NA
19154,Philadelphia County,PA,12.037037037037036,NA,NA,NA
19311,Chester County,PA,NA,NA,92.56505576208178,NA
19317,Delaware County,PA,NA,NA,NA,72.35772357723577
19401,Montgomery County,PA,NA,10.350076103500761,NA,NA
19464,Montgomery County,PA,11.574074074074074,NA,NA,NA
19475,Chester County,PA,NA,79.75646879756468,NA,NA
19606,Berks County,PA,NA,41.70471841704718,NA,NA
02806,Bristol County,RI,NA,NA,NA,58.536585365853654
02835,Newport County,RI,NA,95.8904109589041,NA,NA
02860,Providence County,RI,27.314814814814813,NA,NA,NA
02878,Newport County,RI,NA,NA,56.50557620817844,NA
02921,Providence County,RI,NA,83.25722983257229,NA,NA
29069,Darlington County,SC,NA,NA,NA,95.52845528455285
29115,Orangeburg County,SC,69.44444444444444,NA,NA,NA
29203,Richland County,SC,NA,NA,21.561338289962826,NA
29229,Richland County,SC,NA,NA,NA,47.96747967479675
29360,Laurens County,SC,12.962962962962962,NA,NA,NA
29365,Spartanburg County,SC,NA,66.36225266362253,NA,NA
29369,Spartanburg County,SC,NA,NA,NA,79.26829268292683
29379,Union County,SC,NA,NA,46.09665427509294,NA
29435,Colleton County,SC,NA,99.08675799086758,NA,NA
29445,Berkeley County,SC,NA,NA,NA,40.65040650406504
29501,Florence County,SC,18.98148148148148,NA,NA,NA
29556,Williamsburg County,SC,NA,67.73211567732116,NA,NA
29588,Horry County,SC,NA,40.03044140030441,NA,NA
29621,Anderson County,SC,NA,NA,NA,13.008130081300814
29642,Pickens County,SC,NA,NA,17.843866171003718,NA
29672,Oconee County,SC,NA,94.3683409436834,NA,NA
29678,Oconee County,SC,NA,NA,35.31598513011153,NA
29706,Chester County,SC,NA,38.051750380517504,NA,NA
29708,York County,SC,NA,NA,65.05576208178438,NA
29715,York County,SC,56.481481481481474,NA,NA,NA
29829,Aiken County,SC,NA,84.17047184170472,NA,NA
57104,Minnehaha County,SD,15.277777777777779,NA,NA,NA
37027,Williamson County,TN,37.5,NA,NA,NA
37036,Dickson County,TN,NA,93.60730593607306,NA,NA
37042,Montgomery County,TN,NA,NA,40.89219330855018,NA
37066,Sumner County,TN,43.05555555555556,NA,NA,NA
37072,Davidson County,TN,36.11111111111111,NA,NA,NA
37087,Wilson County,TN,NA,20.700152207001523,NA,NA
37166,DeKalb County,TN,NA,NA,NA,62.601626016260155
37206,Davidson County,TN,NA,37.89954337899543,NA,NA
37208,Davidson County,TN,54.629629629629626,NA,NA,NA
37211,Davidson County,TN,NA,24.3531202435312,NA,NA
37217,Davidson County,TN,NA,NA,82.5278810408922,NA
37317,Polk County,TN,NA,NA,100,NA
37363,Hamilton County,TN,NA,44.44444444444444,NA,NA
37379,Hamilton County,TN,NA,NA,30.483271375464682,NA
37421,Hamilton County,TN,31.01851851851852,NA,NA,NA
37642,Hawkins County,TN,NA,51.7503805175038,NA,NA
37650,Unicoi County,TN,NA,NA,48.698884758364315,NA
37743,Greene County,TN,NA,NA,NA,8.94308943089431
37774,Loudon County,TN,NA,48.401826484018265,NA,NA
37849,Knox County,TN,NA,43.22678843226788,NA,NA
37862,Sevier County,TN,58.333333333333336,NA,NA,NA
37873,Hawkins County,TN,NA,NA,NA,98.78048780487805
38106,Shelby County,TN,NA,19.63470319634703,NA,NA
38117,Shelby County,TN,NA,NA,NA,56.09756097560976
38120,Shelby County,TN,NA,NA,93.3085501858736,NA
38305,Madison County,TN,NA,NA,11.895910780669144,NA
38344,Carroll County,TN,NA,NA,85.50185873605948,NA
38372,Hardin County,TN,NA,NA,NA,36.99186991869919
38375,McNairy County,TN,NA,NA,73.23420074349443,NA
75022,Denton County,TX,89.81481481481481,NA,NA,NA
75032,Rockwall County,TX,NA,NA,NA,45.9349593495935
75061,Dallas County,TX,NA,54.18569254185692,NA,NA
75070,Collin County,TX,NA,18.2648401826484,NA,NA
75071,Collin County,TX,53.24074074074075,NA,NA,NA
75076,Grayson County,TX,NA,NA,90.70631970260223,NA
75104,Dallas County,TX,NA,NA,29.36802973977695,NA
75143,Henderson County,TX,81.94444444444444,NA,NA,NA
75149,Dallas County,TX,NA,22.37442922374429,NA,NA
75189,Rockwall County,TX,NA,47.64079147640791,NA,NA
75407,Collin County,TX,59.72222222222222,NA,NA,NA
75657,Marion County,TX,NA,90.71537290715372,NA,NA
75702,Smith County,TX,NA,NA,44.237918215613384,NA
75757,Smith County,TX,NA,NA,NA,37.39837398373984
75771,Smith County,TX,NA,59.05631659056316,NA,NA
76006,Tarrant County,TX,NA,73.66818873668188,NA,NA
76008,Parker County,TX,78.24074074074075,NA,NA,NA
76028,Johnson County,TX,NA,42.77016742770167,NA,11.788617886178862
76092,Tarrant County,TX,80.0925925925926,NA,NA,NA
76105,Tarrant County,TX,10.648148148148149,NA,NA,NA
76112,Tarrant County,TX,NA,16.43835616438356,NA,NA
76114,Tarrant County,TX,56.018518518518526,NA,NA,NA
76131,Tarrant County,TX,NA,82.64840182648402,NA,NA
76210,Denton County,TX,NA,61.796042617960424,NA,NA
76248,Tarrant County,TX,NA,68.94977168949772,NA,NA
76262,Denton County,TX,44.907407407407405,NA,NA,NA
76272,Cooke County,TX,NA,NA,93.68029739776952,NA
76424,Stephens County,TX,97.22222222222221,NA,NA,NA
76502,Bell County,TX,11.11111111111111,NA,NA,NA
76528,Coryell County,TX,NA,NA,15.985130111524162,NA
76633,McLennan County,TX,NA,NA,NA,100
76901,Tom Green County,TX,NA,NA,NA,66.26016260162602
77018,Harris County,TX,55.092592592592595,NA,NA,NA
77024,Harris County,TX,NA,NA,42.75092936802974,NA
77029,Harris County,TX,NA,NA,NA,82.52032520325203
77042,Harris County,TX,NA,NA,88.47583643122677,NA
77051,Harris County,TX,NA,58.143074581430746,NA,NA
77056,Harris County,TX,NA,79.90867579908677,NA,NA
77060,Harris County,TX,NA,NA,NA,93.4959349593496
77063,Harris County,TX,NA,71.38508371385083,NA,NA
77355,Montgomery County,TX,NA,NA,51.6728624535316,NA
77373,Harris County,TX,NA,33.63774733637747,NA,NA
77378,Montgomery County,TX,36.574074074074076,NA,NA,NA
77380,Montgomery County,TX,NA,NA,NA,93.08943089430895
77382,Montgomery County,TX,NA,NA,NA,71.54471544715447
77447,Harris County,TX,NA,76.10350076103501,NA,NA
77461,Fort Bend County,TX,NA,97.26027397260275,NA,NA
77469,Fort Bend County,TX,NA,NA,36.80297397769517,NA
77498,Fort Bend County,TX,NA,58.599695585996955,NA,NA
77511,Brazoria County,TX,NA,18.11263318112633,NA,NA
77520,Harris County,TX,NA,46.727549467275495,NA,NA
77536,Harris County,TX,NA,42.6179604261796,NA,NA
77546,Galveston County,TX,NA,30.898021308980212,NA,NA
77550,Galveston County,TX,NA,23.896499238964992,NA,NA
77833,Washington County,TX,NA,48.401826484018265,NA,NA
78052,Atascosa County,TX,83.79629629629629,NA,NA,NA
78065,Atascosa County,TX,NA,97.4124809741248,NA,NA
78130,Comal County,TX,54.166666666666664,NA,NA,NA
78163,Comal County,TX,NA,96.9558599695586,NA,NA
78201,Bexar County,TX,NA,28.767123287671232,NA,NA
78229,Bexar County,TX,NA,NA,NA,89.83739837398373
78242,Bexar County,TX,NA,50.532724505327245,NA,NA
78247,Bexar County,TX,NA,56.01217656012176,NA,NA
78363,Kleberg County,TX,NA,NA,NA,65.04065040650406
78408,Nueces County,TX,NA,NA,78.81040892193309,NA
78503,Hidalgo County,TX,NA,NA,80.66914498141264,NA
78573,Hidalgo County,TX,18.51851851851852,NA,NA,NA
78613,Williamson County,TX,NA,NA,NA,6.504065040650407
78621,Bastrop County,TX,NA,74.27701674277016,NA,NA
78666,Hays County,TX,44.907407407407405,NA,NA,NA
78727,Travis County,TX,NA,87.67123287671232,NA,NA
78737,Hays County,TX,NA,NA,NA,97.15447154471545
78759,Travis County,TX,NA,NA,83.64312267657994,NA
78852,Maverick County,TX,NA,59.96955859969558,NA,NA
79413,Lubbock County,TX,NA,NA,57.99256505576208,NA
79424,Lubbock County,TX,19.90740740740741,NA,NA,NA
79705,Midland County,TX,NA,NA,NA,45.1219512195122
79707,Midland County,TX,NA,37.44292237442922,NA,NA
79761,Ector County,TX,NA,53.57686453576864,NA,NA
84003,Utah County,UT,NA,NA,NA,67.88617886178862
84062,Utah County,UT,NA,NA,NA,95.9349593495935
84066,Duchesne County,UT,NA,NA,NA,96.34146341463415
84103,Salt Lake County,UT,NA,NA,NA,32.52032520325203
84604,Utah County,UT,NA,NA,84.01486988847584,NA
84770,Washington County,UT,70.37037037037037,NA,NA,NA
05346,Windham County,VT,NA,NA,NA,76.82926829268293
05495,Chittenden County,VT,NA,89.19330289193303,NA,NA
05701,Rutland County,VT,13.88888888888889,NA,NA,NA
20124,Fairfax County,VA,NA,91.78082191780823,NA,NA
20147,Loudoun County,VA,NA,NA,NA,12.195121951219512
20165,Loudoun County,VA,NA,NA,NA,83.73983739837398
22032,Fairfax County,VA,NA,69.40639269406392,NA,NA
22033,Fairfax County,VA,NA,85.84474885844749,NA,NA
22066,Fairfax County,VA,NA,90.41095890410958,NA,NA
22101,Fairfax County,VA,NA,NA,NA,46.7479674796748
22153,Fairfax County,VA,NA,63.77473363774734,NA,NA
22191,Prince William County,VA,NA,20.395738203957382,NA,NA
22304,Alexandria city,VA,NA,17.19939117199391,NA,NA
22310,Fairfax County,VA,NA,56.77321156773212,NA,NA
22407,Spotsylvania County,VA,20.833333333333336,NA,NA,NA
22443,Westmoreland County,VA,NA,87.21461187214612,NA,NA
22664,Shenandoah County,VA,NA,NA,NA,37.80487804878049
22963,Fluvanna County,VA,NA,NA,NA,48.78048780487805
23002,Amelia County,VA,NA,86.45357686453576,NA,NA
23185,James City County,VA,NA,NA,4.089219330855019,NA
23188,James City County,VA,NA,47.1841704718417,NA,0.40650406504065045
23222,Richmond city,VA,8.796296296296296,NA,NA,NA
23223,Henrico County,VA,NA,NA,13.011152416356877,NA
23229,Henrico County,VA,NA,NA,NA,21.544715447154474
23234,Chesterfield County,VA,NA,NA,33.82899628252788,NA
23451,Virginia Beach city,VA,63.888888888888886,NA,NA,NA
23464,Virginia Beach city,VA,NA,NA,3.3457249070631967,NA
23505,Norfolk city,VA,NA,NA,NA,33.739837398373986
23832,Chesterfield County,VA,NA,NA,52.04460966542751,NA
23838,Chesterfield County,VA,NA,NA,NA,78.04878048780488
23875,Prince George County,VA,NA,NA,76.2081784386617,NA
23944,Lunenburg County,VA,NA,NA,NA,75.20325203252033
24012,Roanoke city,VA,66.20370370370371,NA,NA,NA
24019,Roanoke County,VA,NA,60.4261796042618,NA,NA
24055,Henry County,VA,NA,67.88432267884322,NA,NA
24141,Radford city,VA,36.574074074074076,NA,NA,NA
24210,Washington County,VA,NA,NA,NA,44.71544715447154
24219,Wise County,VA,NA,43.83561643835616,NA,NA
24293,Wise County,VA,NA,52.35920852359208,NA,NA
24343,Carroll County,VA,NA,77.32115677321157,NA,NA
24360,Wythe County,VA,NA,94.82496194824962,NA,NA
24401,Staunton city,VA,NA,13.24200913242009,NA,NA
24503,Lynchburg city,VA,NA,NA,64.31226765799256,NA
24531,Pittsylvania County,VA,NA,94.97716894977168,NA,NA
98023,King County,WA,7.4074074074074066,NA,NA,NA
98028,King County,WA,NA,NA,66.54275092936803,NA
98032,King County,WA,NA,NA,49.814126394052046,NA
98034,King County,WA,75,NA,NA,NA
98045,King County,WA,NA,NA,NA,91.869918699187
98052,King County,WA,NA,NA,20.44609665427509,NA
98077,King County,WA,91.66666666666666,NA,NA,NA
98119,King County,WA,NA,NA,78.43866171003717,NA
98122,King County,WA,NA,NA,44.98141263940521,NA
98166,King County,WA,NA,NA,NA,79.26829268292683
98198,King County,WA,NA,44.74885844748858,NA,NA
98271,Snohomish County,WA,NA,NA,54.27509293680297,NA
98312,Kitsap County,WA,NA,42.00913242009132,NA,NA
98328,Pierce County,WA,93.51851851851852,NA,NA,NA
98362,Clallam County,WA,93.98148148148148,NA,NA,NA
98390,Pierce County,WA,NA,NA,NA,77.64227642276423
97003,NA,NA,NA,57.3820395738204,NA,NA
98402,Pierce County,WA,NA,NA,95.16728624535315,NA
98465,Pierce County,WA,NA,NA,97.39776951672863,NA
98502,Thurston County,WA,NA,66.66666666666666,NA,NA
98665,Clark County,WA,72.68518518518519,NA,NA,NA
98801,Chelan County,WA,NA,29.68036529680365,NA,NA
98841,Okanogan County,WA,NA,NA,70.26022304832715,NA
98857,Grant County,WA,NA,97.56468797564688,NA,NA
98901,Yakima County,WA,NA,59.3607305936073,NA,NA
98926,Kittitas County,WA,NA,NA,NA,22.35772357723577
20001,District of Columbia,DC,NA,25.41856925418569,NA,NA
20002,District of Columbia,DC,NA,NA,8.550185873605948,NA
20012,District of Columbia,DC,NA,84.47488584474885,NA,NA
20020,District of Columbia,DC,NA,NA,5.947955390334572,NA
25177,Kanawha County,WV,NA,15.220700152207002,NA,NA
25427,Berkeley County,WV,NA,NA,68.77323420074349,NA
25701,Cabell County,WV,NA,18.56925418569254,NA,NA
25801,Raleigh County,WV,NA,NA,9.66542750929368,NA
26170,Pleasants County,WV,NA,NA,NA,73.17073170731707
26187,Wood County,WV,NA,72.45053272450532,NA,NA
26241,Randolph County,WV,NA,35.61643835616438,NA,NA
26508,Monongalia County,WV,NA,5.93607305936073,NA,NA
26554,Marion County,WV,NA,5.175038051750381,NA,NA
53073,Sheboygan County,WI,NA,NA,91.07806691449815,NA
53083,Sheboygan County,WI,NA,NA,60.223048327137555,NA
53092,Ozaukee County,WI,NA,63.4703196347032,NA,NA
53094,Jefferson County,WI,NA,NA,28.25278810408922,NA
53115,Walworth County,WI,NA,81.88736681887366,42.00743494423792,NA
53121,Walworth County,WI,NA,NA,28.624535315985128,NA
53144,Kenosha County,WI,NA,19.7869101978691,NA,NA
53150,Waukesha County,WI,32.407407407407405,NA,NA,NA
53172,Milwaukee County,WI,58.79629629629629,NA,NA,NA
53182,Racine County,WI,NA,NA,NA,76.01626016260163
53189,Waukesha County,WI,NA,60.4261796042618,NA,NA
53205,Milwaukee County,WI,NA,2.73972602739726,NA,NA
53402,Racine County,WI,NA,NA,NA,2.0325203252032518
53405,Racine County,WI,NA,6.8493150684931505,NA,NA
53590,Dane County,WI,46.75925925925926,NA,NA,NA
53704,Dane County,WI,NA,12.93759512937595,NA,NA
53719,Dane County,WI,NA,60.12176560121766,NA,NA
53965,Sauk County,WI,NA,73.36377473363774,NA,NA
54028,St. Croix County,WI,NA,99.69558599695586,NA,NA
54115,Brown County,WI,NA,49.61948249619482,NA,NA
54455,Marathon County,WI,NA,75.79908675799086,NA,NA
54603,La Crosse County,WI,NA,56.925418569254184,NA,NA
54730,Dunn County,WI,NA,NA,NA,82.92682926829268
54952,Winnebago County,WI,NA,NA,NA,84.5528455284553
