ZipCode,county,state,Adult
35004,St. Clair County,AL,79.96688741721854
35204,Jefferson County,AL,95.97130242825607
35206,Jefferson County,AL,59.54746136865342
35212,Jefferson County,AL,74.33774834437085
35235,Jefferson County,AL,51.93156732891833
35244,Jefferson County,AL,44.75717439293598
35442,Pickens County,AL,94.09492273730685
35466,Pickens County,AL,85.37527593818984
35553,Winston County,AL,93.92935982339957
35570,Marion County,AL,63.962472406181014
35611,Limestone County,AL,23.013245033112582
35773,Madison County,AL,64.01766004415012
35950,Marshall County,AL,37.913907284768214
35954,Etowah County,AL,56.18101545253863
35967,DeKalb County,AL,61.86534216335541
36037,Butler County,AL,53.47682119205298
36116,Montgomery County,AL,19.094922737306845
36277,Calhoun County,AL,85.15452538631347
36301,Houston County,AL,17.052980132450333
36323,Coffee County,AL,71.7439293598234
36542,Baldwin County,AL,91.83222958057395
36575,Mobile County,AL,55.794701986754966
36605,Mobile County,AL,36.53421633554083
36606,Mobile County,AL,61.037527593818986
36608,Mobile County,AL,40.67328918322296
36609,Mobile County,AL,56.456953642384114
36701,Dallas County,AL,25.165562913907287
36870,Lee County,AL,75.1103752759382
99515,Anchorage Municipality,AK,64.67991169977924
99517,Anchorage Municipality,AK,60.43046357615894
99645,Matanuska-Susitna Borough,AK,77.92494481236203
99762,Nome Census Area,AK,96.46799116997794
99835,Sitka City and Borough,AK,95.6401766004415
85017,Maricopa County,AZ,29.746136865342166
85023,Maricopa County,AZ,25.551876379690945
85024,Maricopa County,AZ,70.75055187637969
85035,Maricopa County,AZ,43.92935982339956
85037,Maricopa County,AZ,23.23399558498896
85041,Maricopa County,AZ,7.229580573951434
85051,Maricopa County,AZ,12.858719646799116
85120,Pinal County,AZ,38.741721854304636
85122,Pinal County,AZ,48.95143487858719
85132,Pinal County,AZ,34.16114790286976
85201,Maricopa County,AZ,12.196467991169978
85202,Maricopa County,AZ,18.59823399558499
85203,Maricopa County,AZ,33.443708609271525
85225,Maricopa County,AZ,10.375275938189846
85251,Maricopa County,AZ,36.69977924944812
85255,Maricopa County,AZ,47.18543046357616
85257,Maricopa County,AZ,64.79028697571744
85282,Maricopa County,AZ,37.969094922737305
85344,La Paz County,AZ,34.271523178807946
85345,Maricopa County,AZ,69.75717439293598
85353,Maricopa County,AZ,62.58278145695364
85364,Yuma County,AZ,2.097130242825607
85382,Maricopa County,AZ,44.48123620309051
85395,Maricopa County,AZ,70.86092715231787
85607,Cochise County,AZ,25.441501103752763
85629,Pima County,AZ,67.49448123620309
85705,Pima County,AZ,17.49448123620309
85711,Pima County,AZ,7.339955849889625
85718,Pima County,AZ,55.29801324503312
85741,Pima County,AZ,29.911699779249446
85937,Navajo County,AZ,80.3532008830022
86004,Coconino County,AZ,5.022075055187638
86040,Coconino County,AZ,62.03090507726269
86301,Yavapai County,AZ,86.14790286975717
86409,Mohave County,AZ,6.73289183222958
86413,Mohave County,AZ,56.18101545253863
72002,Saline County,AR,87.36203090507726
72023,Lonoke County,AR,57.22958057395143
72104,Hot Spring County,AR,53.58719646799117
72761,Benton County,AR,72.35099337748345
72916,Sebastian County,AR,94.97792494481236
90003,Los Angeles County,CA,32.22958057395143
90011,Los Angeles County,CA,22.350993377483444
90026,Los Angeles County,CA,43.26710816777042
90201,Los Angeles County,CA,75.33112582781457
90249,Los Angeles County,CA,77.75938189845475
90255,Los Angeles County,CA,27.53863134657837
90275,Los Angeles County,CA,54.746136865342166
90606,Los Angeles County,CA,49.28256070640177
90631,Orange County,CA,31.788079470198678
90732,Los Angeles County,CA,80.3532008830022
90802,Los Angeles County,CA,47.40618101545254
90808,Los Angeles County,CA,54.3046357615894
91342,Los Angeles County,CA,18.37748344370861
91401,Los Angeles County,CA,62.52759381898455
91731,Los Angeles County,CA,66.61147902869757
91945,San Diego County,CA,57.450331125827816
92011,San Diego County,CA,80.5739514348786
92021,San Diego County,CA,13.741721854304636
92025,San Diego County,CA,44.370860927152314
92028,San Diego County,CA,60.65121412803533
92057,San Diego County,CA,89.56953642384106
92071,San Diego County,CA,23.28918322295806
92129,San Diego County,CA,54.63576158940398
92154,San Diego County,CA,91.280353200883
92220,Riverside County,CA,55.29801324503312
92231,Imperial County,CA,30.242825607064017
92240,Riverside County,CA,51.10375275938189
92243,Imperial County,CA,22.902869757174393
92284,San Bernardino County,CA,23.951434878587197
92324,San Bernardino County,CA,18.322295805739515
92344,San Bernardino County,CA,73.62030905077262
92345,San Bernardino County,CA,52.980132450331126
92411,San Bernardino County,CA,90.34216335540839
92503,Riverside County,CA,66.88741721854305
92504,Riverside County,CA,39.01766004415011
92508,Riverside County,CA,78.31125827814569
92509,Riverside County,CA,21.247240618101547
92551,Riverside County,CA,86.313465783664455
92592,Riverside County,CA,25.99337748344371
92647,Orange County,CA,19.867549668874172
92706,Orange County,CA,76.76600441501104
92780,Orange County,CA,33.609271523178805
92802,Orange County,CA,50.88300220750553
92804,Orange County,CA,40.507726269315675
92835,Orange County,CA,99.00662251655629
92843,Orange County,CA,33.99558498896248
92868,Orange County,CA,61.81015452538632
92883,Riverside County,CA,85.65121412803532
93030,Ventura County,CA,15.342163355408388
93033,Ventura County,CA,56.73289183222958
93274,Tulare County,CA,24.503311258278146
93292,Tulare County,CA,82.45033112582782
93306,Kern County,CA,18.70860927152318
93401,San Luis Obispo County,CA,53.42163355408388
93445,San Luis Obispo County,CA,97.24061810154525
93501,Kern County,CA,97.90286975717439
93555,Kern County,CA,22.8476821192053
93560,Kern County,CA,95.03311258278146
93625,Fresno County,CA,94.15011037527594
93638,Madera County,CA,16.777041942604857
93662,Fresno County,CA,52.81456953642384
93711,Fresno County,CA,64.45916114790286
93726,Fresno County,CA,19.426048565121413
94014,San Mateo County,CA,72.24061810154525
94066,San Mateo County,CA,40.67328918322296
94080,San Mateo County,CA,30.132450331125828
94110,San Francisco County,CA,11.42384105960265
94134,San Francisco County,CA,80.4635761589404
94301,Santa Clara County,CA,98.06843267108167
94523,Contra Costa County,CA,64.56953642384106
94533,Solano County,CA,21.30242825607064
94541,Alameda County,CA,21.909492273730685
94558,Napa County,CA,28.58719646799117
94587,Alameda County,CA,32.450331125827816
94605,Alameda County,CA,22.019867549668874
94610,Alameda County,CA,61.47902869757175
94611,Alameda County,CA,59.38189845474614
94801,Contra Costa County,CA,98.17880794701986
94806,Contra Costa County,CA,31.18101545253863
94952,Sonoma County,CA,73.62030905077262
95003,Santa Cruz County,CA,93.98454746136865
95012,Monterey County,CA,83.49889624724062
95076,Santa Cruz County,CA,17.715231788079468
95127,Santa Clara County,CA,82.00883002207505
95133,Santa Clara County,CA,85.43046357615894
95215,San Joaquin County,CA,77.86975717439294
95240,San Joaquin County,CA,13.962472406181014
95337,San Joaquin County,CA,37.030905077262695
95340,Merced County,CA,32.17439293598234
95351,Stanislaus County,CA,50.331125827814574
95356,Stanislaus County,CA,37.47240618101546
95377,San Joaquin County,CA,65.45253863134658
95380,Stanislaus County,CA,25.386313465783665
95382,Stanislaus County,CA,22.40618101545254
95386,Stanislaus County,CA,80.07726269315674
95391,San Joaquin County,CA,78.69757174392936
95492,Sonoma County,CA,60.48565121412803
95540,Humboldt County,CA,55.18763796909493
95562,Humboldt County,CA,98.34437086092716
95660,Sacramento County,CA,68.54304635761589
95662,Sacramento County,CA,65.12141280353201
95747,Placer County,CA,37.52759381898454
95820,Sacramento County,CA,47.847682119205295
95822,Sacramento County,CA,96.57836644591612
95825,Sacramento County,CA,74.8896247240618
95828,Sacramento County,CA,88.686534216335545
95833,Sacramento County,CA,68.54304635761589
95838,Sacramento County,CA,78.97350993377484
95945,Nevada County,CA,54.02869757174393
95961,Yuba County,CA,72.18543046357617
95969,Butte County,CA,28.918322295805737
95973,Butte County,CA,20.97130242825607
96013,Shasta County,CA,99.50331125827815
96080,Tehama County,CA,39.900662251655625
96143,Placer County,CA,98.78587196467991
80011,Arapahoe County,CO,6.015452538631346
80012,Arapahoe County,CO,9.713024282560706
80014,Arapahoe County,CO,29.13907284768212
80015,Arapahoe County,CO,16.05960264900662
80016,Arapahoe County,CO,20.805739514348787
80018,Arapahoe County,CO,72.7924944812362
80026,Boulder County,CO,58.00220750551877
80108,Douglas County,CO,46.19205298013245
80112,Arapahoe County,CO,76.98675496688742
80121,Arapahoe County,CO,91.99779249448123
80127,Jefferson County,CO,43.70860927152318
80210,Denver County,CO,51.545253863134654
80212,Denver County,CO,73.28918322295806
80219,Denver County,CO,39.40397350993378
80220,Denver County,CO,31.125827814569533
80223,Denver County,CO,60.375275938189844
80228,Jefferson County,CO,51.158940397350996
80233,Adams County,CO,24.392935982339957
80503,Boulder County,CO,62.913907284768214
80516,Weld County,CO,62.96909492273731
80521,Larimer County,CO,65.78366445916114
80538,Larimer County,CO,10.8719646799117
80602,Adams County,CO,72.95805739514348
80615,Weld County,CO,81.12582781456953
80631,Weld County,CO,6.788079470198675
80634,Weld County,CO,1.6556291390728477
80640,Adams County,CO,90.61810154525386
80751,Logan County,CO,39.569536423841065
80910,El Paso County,CO,71.24724061810154
80911,El Paso County,CO,69.81236203090508
80923,El Paso County,CO,58.66445916114791
81004,Pueblo County,CO,55.40838852097131
81005,Pueblo County,CO,33.719646799117
81212,Fremont County,CO,37.086092715231786
81631,Eagle County,CO,97.18543046357617
06026,Hartford County,CT,95.14348785871964
06051,Hartford County,CT,2.3730684326710816
06095,Hartford County,CT,36.86534216335541
06105,Hartford County,CT,19.481236203090507
06106,Hartford County,CT,3.3112582781456954
06111,Hartford County,CT,34.87858719646799
06112,Hartford County,CT,15.066225165562914
06114,Hartford County,CT,44.70198675496689
06226,Windham County,CT,14.459161147902869
06268,Tolland County,CT,92.93598233995584
06401,New Haven County,CT,60.81677704194261
06415,New London County,CT,50.60706401766004
06450,New Haven County,CT,4.359823399558499
06457,Middlesex County,CT,28.421633554083886
06460,New Haven County,CT,26.71081677704194
06480,Middlesex County,CT,68.32229580573951
06489,Hartford County,CT,28.090507726269315
06511,New Haven County,CT,51.98675496688742
06512,New Haven County,CT,78.91832229580574
06513,New Haven County,CT,2.6490066225165565
06515,New Haven County,CT,27.483443708609272
06519,New Haven County,CT,85.59602649006622
06605,Fairfield County,CT,31.015452538631344
06708,New Haven County,CT,20.584988962472405
06716,New Haven County,CT,61.58940397350994
06902,Fairfield County,CT,19.15011037527594
19711,New Castle County,DE,28.311258278145697
19720,New Castle County,DE,14.79028697571744
19801,New Castle County,DE,67.77041942604856
19808,New Castle County,DE,20.584988962472405
19956,Sussex County,DE,85.32008830022076
19960,Sussex County,DE,72.84768211920529
32024,Columbia County,FL,60.099337748344375
32080,St. Johns County,FL,68.10154525386314
32095,St. Johns County,FL,87.58278145695364
32114,Volusia County,FL,52.53863134657837
32119,Volusia County,FL,72.13024282560706
32205,Duval County,FL,24.55849889624724
32207,Duval County,FL,46.46799116997792
32208,Duval County,FL,0.6622516556291391
32209,Duval County,FL,2.869757174392936
32210,Duval County,FL,18.874172185430464
32218,Duval County,FL,2.207505518763797
32220,Duval County,FL,85.8719646799117
32225,Duval County,FL,26.54525386313466
32244,Duval County,FL,23.62030905077263
32254,Duval County,FL,44.48123620309051
32257,Duval County,FL,71.46799116997794
32304,Leon County,FL,52.980132450331126
32446,Jackson County,FL,61.203090507726266
32459,Walton County,FL,62.03090507726269
32505,Escambia County,FL,16.721854304635762
32514,Escambia County,FL,79.63576158940397
32536,Okaloosa County,FL,57.284768211920536
32539,Okaloosa County,FL,37.141280353200884
32547,Okaloosa County,FL,39.1280353200883
32548,Okaloosa County,FL,61.69977924944813
32561,Santa Rosa County,FL,87.80353200883002
32603,Alachua County,FL,97.68211920529801
32605,Alachua County,FL,26.379690949227374
32703,Orange County,FL,21.08167770419426
32720,Volusia County,FL,55.132450331125824
32724,Volusia County,FL,77.64900662251655
32746,Seminole County,FL,49.55849889624724
32771,Seminole County,FL,14.56953642384106
32773,Seminole County,FL,45.253863134657834
32792,Orange County,FL,57.11920529801324
32808,Orange County,FL,13.962472406181014
32809,Orange County,FL,45.088300220750554
32810,Orange County,FL,36.36865342163355
32811,Orange County,FL,52.207505518763796
32818,Orange County,FL,14.514348785871963
32825,Orange County,FL,29.415011037527595
32835,Orange County,FL,55.4635761589404
32839,Orange County,FL,56.89845474613686
32901,Brevard County,FL,89.0728476821192
32903,Brevard County,FL,91.94260485651215
32922,Brevard County,FL,96.24724061810154
32927,Brevard County,FL,49.88962472406181
32937,Brevard County,FL,70.58498896247241
32962,Indian River County,FL,45.52980132450331
33004,Broward County,FL,90.78366445916114
33028,Broward County,FL,78.09050772626932
33032,Miami-Dade County,FL,38.46578366445917
33056,Miami-Dade County,FL,36.9757174392936
33060,Broward County,FL,33.83002207505519
33063,Broward County,FL,82.6158940397351
33130,Miami-Dade County,FL,80.02207505518764
33139,Miami-Dade County,FL,56.56732891832229
33147,Miami-Dade County,FL,30.242825607064017
33166,Miami-Dade County,FL,72.68211920529801
33174,Miami-Dade County,FL,70.14348785871964
33311,Broward County,FL,5.408388520971302
33324,Broward County,FL,66.00441501103754
33417,Palm Beach County,FL,54.80132450331126
33435,Palm Beach County,FL,43.211920529801326
33460,Palm Beach County,FL,42.77041942604857
33473,Palm Beach County,FL,96.08167770419426
33510,Hillsborough County,FL,79.19426048565121
33534,Hillsborough County,FL,69.31567328918322
33563,Hillsborough County,FL,44.977924944812365
33567,Hillsborough County,FL,71.7991169977925
33572,Hillsborough County,FL,78.69757174392936
33584,Hillsborough County,FL,51.434878587196465
33602,Hillsborough County,FL,83.11258278145695
33604,Hillsborough County,FL,21.688741721854303
33605,Hillsborough County,FL,52.09713024282561
33612,Hillsborough County,FL,9.381898454746135
33613,Hillsborough County,FL,38.24503311258278
33617,Hillsborough County,FL,30.849889624724064
33618,Hillsborough County,FL,74.55849889624724
33624,Hillsborough County,FL,76.98675496688742
33625,Hillsborough County,FL,56.34657836644592
33707,Pinellas County,FL,57.89183222958057
33710,Pinellas County,FL,46.799116997792495
33712,Pinellas County,FL,31.95364238410596
33759,Pinellas County,FL,69.70198675496688
33764,Pinellas County,FL,39.735099337748345
33815,Polk County,FL,37.36203090507726
33830,Polk County,FL,32.72626931567329
33860,Polk County,FL,57.726269315673285
33873,Hardee County,FL,71.13686534216336
33907,Lee County,FL,73.9514348785872
33912,Lee County,FL,82.00883002207505
33982,Charlotte County,FL,72.01986754966887
34142,Collier County,FL,79.85651214128036
34202,Manatee County,FL,86.53421633554083
34205,Manatee County,FL,30.90507726269316
34207,Manatee County,FL,50.55187637969095
34233,Sarasota County,FL,75.22075055187638
34234,Sarasota County,FL,81.67770419426049
34239,Sarasota County,FL,76.49006622516556
34240,Sarasota County,FL,87.47240618101544
34243,Manatee County,FL,81.40176600441501
34287,Sarasota County,FL,48.78587196467991
34452,Citrus County,FL,60.87196467991169
34488,Marion County,FL,69.4260485651214
34677,Pinellas County,FL,73.39955849889624
34691,Pasco County,FL,41.501103752759384
34698,Pinellas County,FL,50.60706401766004
34711,Lake County,FL,20.198675496688743
34953,St. Lucie County,FL,41.501103752759384
34972,Okeechobee County,FL,56.5121412803532
34983,St. Lucie County,FL,20.14348785871965
34986,St. Lucie County,FL,45.80573951434879
30011,Barrow County,GA,68.21192052980133
30012,Rockdale County,GA,50.22075055187638
30019,Gwinnett County,GA,36.20309050772627
30021,DeKalb County,GA,74.00662251655629
30039,Gwinnett County,GA,67.99116997792495
30052,Walton County,GA,16.445916114790286
30062,Cobb County,GA,39.95584988962472
30067,Cobb County,GA,57.505518763796914
30088,DeKalb County,GA,36.64459161147903
30093,Gwinnett County,GA,53.31125827814569
30101,Cobb County,GA,24.282560706401764
30121,Bartow County,GA,50.77262693156733
30126,Cobb County,GA,40.2869757174393
30132,Paulding County,GA,30.573951434878587
30143,Pickens County,GA,60.15452538631346
30152,Cobb County,GA,52.373068432671076
30157,Paulding County,GA,24.17218543046358
30233,Butts County,GA,55.62913907284768
30238,Clayton County,GA,49.22737306843267
30265,Coweta County,GA,48.01324503311258
30276,Coweta County,GA,88.35540838852097
30288,Clayton County,GA,88.63134657836645
30293,Meriwether County,GA,98.23399558498896
30294,DeKalb County,GA,38.24503311258278
30296,Clayton County,GA,58.55408388520972
30297,Clayton County,GA,53.918322295805744
30311,Fulton County,GA,13.796909492273732
30328,Fulton County,GA,63.852097130242825
30331,Fulton County,GA,81.07064017660043
30344,Fulton County,GA,71.63355408388522
30566,Hall County,GA,88.41059602649007
30650,Morgan County,GA,85.54083885209714
30662,Franklin County,GA,92.16335540838853
30701,Gordon County,GA,28.642384105960268
30721,Whitfield County,GA,21.85430463576159
30809,Columbia County,GA,32.83664459161148
30815,Richmond County,GA,19.039735099337747
30906,Richmond County,GA,28.14569536423841
31015,Crisp County,GA,74.17218543046357
31036,Pulaski County,GA,68.98454746136865
31088,Houston County,GA,62.30684326710817
31404,Chatham County,GA,48.841059602649004
31407,Chatham County,GA,85.70640176600442
31548,Camden County,GA,53.86313465783664
31558,Camden County,GA,65.28697571743929
31643,Brooks County,GA,65.72847682119205
31903,Muscogee County,GA,30.79470198675497
96732,Maui County,HI,91.50110375275938
96738,Hawaii County,HI,94.70198675496688
96766,Kauai County,HI,67.16335540838853
96782,Honolulu County,HI,33.27814569536424
96797,Honolulu County,HI,6.456953642384105
96817,Honolulu County,HI,10.485651214128035
96819,Honolulu County,HI,14.403973509933774
83501,Nez Perce County,ID,40.618101545253865
83651,Canyon County,ID,16.00441501103753
83702,Ada County,ID,27.869757174392934
83709,Ada County,ID,42.27373068432671
83714,Ada County,ID,42.328918322295806
83854,Kootenai County,ID,30.408388520971304
60004,Cook County,IL,22.902869757174393
60033,McHenry County,IL,87.91390728476821
60060,Lake County,IL,45.198675496688736
60077,Cook County,IL,57.00883002207505
60085,Lake County,IL,16.280353200883003
60091,Cook County,IL,67.88079470198676
60099,Lake County,IL,37.74834437086093
60120,Kane County,IL,73.28918322295806
60126,DuPage County,IL,8.388520971302428
60133,Cook County,IL,40.67328918322296
60137,DuPage County,IL,31.236203090507725
60142,McHenry County,IL,39.18322295805739
60148,DuPage County,IL,13.245033112582782
60153,Cook County,IL,35.98233995584989
60171,Cook County,IL,83.6644591611479
60174,Kane County,IL,72.62693156732892
60178,DeKalb County,IL,51.76600441501103
60188,DuPage County,IL,17.16335540838852
60304,Cook County,IL,53.973509933774835
60404,Will County,IL,71.52317880794702
60433,Will County,IL,58.99558498896247
60447,Grundy County,IL,53.14569536423841
60449,Will County,IL,81.12582781456953
60463,Cook County,IL,71.63355408388522
60490,Will County,IL,58.333333333333336
60491,Will County,IL,32.671081677704194
60505,Kane County,IL,28.807947019867548
60506,Kane County,IL,55.90507726269316
60510,Kane County,IL,32.33995584988962
60513,Cook County,IL,38.0242825607064
60515,DuPage County,IL,37.19646799116998
60516,DuPage County,IL,42.384105960264904
60540,DuPage County,IL,59.10596026490066
60543,Kendall County,IL,33.05739514348786
60560,Kendall County,IL,89.84547461368653
60564,Will County,IL,34.271523178807946
60586,Will County,IL,41.3355408388521
60610,Cook County,IL,71.08167770419426
60618,Cook County,IL,6.622516556291391
60619,Cook County,IL,4.856512141280353
60620,Cook County,IL,5.629139072847682
60626,Cook County,IL,17.82560706401766
60628,Cook County,IL,5.739514348785872
60629,Cook County,IL,4.580573951434879
60630,Cook County,IL,21.467991169977925
60632,Cook County,IL,12.030905077262693
60636,Cook County,IL,63.63134657836645
60637,Cook County,IL,13.796909492273732
60639,Cook County,IL,7.836644591611479
60645,Cook County,IL,33.00220750551877
60656,Cook County,IL,45.80573951434879
60915,Kankakee County,IL,83.44370860927152
60942,Vermilion County,IL,89.1280353200883
61080,Winnebago County,IL,81.84326710816777
61103,Winnebago County,IL,50.05518763796909
61350,LaSalle County,IL,45.6401766004415
61520,Fulton County,IL,69.26048565121413
61554,Tazewell County,IL,27.041942604856512
61611,Tazewell County,IL,70.52980132450331
61701,McLean County,IL,29.3598233995585
61704,McLean County,IL,34.98896247240618
61705,McLean County,IL,76.71081677704194
61764,Livingston County,IL,67.66004415011038
61821,Champaign County,IL,70.36423841059603
62204,St. Clair County,IL,77.15231788079471
62626,Macoupin County,IL,91.00441501103754
62650,Morgan County,IL,49.503311258278146
62702,Sangamon County,IL,23.78587196467991
62704,Sangamon County,IL,43.322295805739515
62917,Saline County,IL,99.94481236203092
62966,Jackson County,IL,61.920529801324506
46001,Madison County,IN,92.71523178807946
46034,Hamilton County,IN,92.99116997792495
46064,Madison County,IN,66.05960264900662
46168,Hendricks County,IN,36.69977924944812
46201,Marion County,IN,16.61147902869757
46217,Marion County,IN,48.675496688741724
46218,Marion County,IN,8.002207505518765
46219,Marion County,IN,10.816777041942604
46221,Marion County,IN,27.593818984547465
46224,Marion County,IN,28.697571743929362
46236,Marion County,IN,58.55408388520972
46268,Marion County,IN,41.390728476821195
46307,Lake County,IN,0.9933774834437087
46311,Lake County,IN,29.911699779249446
46342,Lake County,IN,3.80794701986755
46360,LaPorte County,IN,4.028697571743929
46373,Lake County,IN,27.81456953642384
46375,Lake County,IN,62.14128035320088
46516,Elkhart County,IN,15.011037527593817
46517,Elkhart County,IN,86.20309050772626
46544,St. Joseph County,IN,44.81236203090508
46574,St. Joseph County,IN,91.11479028697572
46616,St. Joseph County,IN,96.02649006622516
46703,Steuben County,IN,48.06843267108168
46733,Adams County,IN,83.00220750551877
46750,Huntington County,IN,17.93598233995585
46803,Allen County,IN,94.03973509933775
46804,Allen County,IN,41.72185430463576
46805,Allen County,IN,62.63796909492274
46807,Allen County,IN,47.95805739514349
46814,Allen County,IN,79.30463576158941
46835,Allen County,IN,62.748344370860934
46901,Howard County,IN,12.251655629139073
46947,Cass County,IN,10.76158940397351
47117,Harrison County,IN,97.35099337748345
47129,Clark County,IN,92.10816777041943
47150,Floyd County,IN,9.050772626931568
47274,Jackson County,IN,87.74834437086093
47362,Henry County,IN,19.370860927152318
47371,Jay County,IN,77.81456953642383
47424,Greene County,IN,96.08167770419426
47601,Warrick County,IN,58.11258278145696
47710,Vanderburgh County,IN,32.50551876379691
47713,Vanderburgh County,IN,60.76158940397352
47714,Vanderburgh County,IN,71.41280353200882
50265,Polk County,IA,36.31346578366446
50313,Polk County,IA,81.29139072847681
50327,Polk County,IA,79.24944812362031
50401,Cerro Gordo County,IA,10.43046357615894
50662,Fayette County,IA,65.34216335540839
50703,Black Hawk County,IA,26.21412803532009
51106,Woodbury County,IA,45.75055187637969
51501,Pottawattamie County,IA,46.46799116997792
51503,Pottawattamie County,IA,49.39293598233996
51632,Page County,IA,73.78587196467991
52001,Dubuque County,IA,42.384105960264904
52233,Linn County,IA,89.1280353200883
52301,Iowa County,IA,97.7924944812362
52302,Linn County,IA,84.54746136865342
52317,Johnson County,IA,48.12362030905077
52402,Linn County,IA,17.439293598233995
52403,Linn County,IA,39.845474613686534
52404,Linn County,IA,7.06401766004415
52405,Linn County,IA,35.98233995584989
52722,Scott County,IA,18.653421633554085
52761,Muscatine County,IA,10.044150110375275
52804,Scott County,IA,14.624724061810154
66048,Leavenworth County,KS,29.80132450331126
66101,Wyandotte County,KS,83.99558498896246
66102,Wyandotte County,KS,48.34437086092716
66104,Wyandotte County,KS,25.82781456953642
66106,Wyandotte County,KS,43.65342163355408
66111,Wyandotte County,KS,81.89845474613686
66223,Johnson County,KS,83.83002207505518
66436,Jackson County,KS,92.16335540838853
66604,Shawnee County,KS,44.205298013245034
66701,Bourbon County,KS,62.41721854304636
67218,Sedgwick County,KS,97.7373068432671
67219,Sedgwick County,KS,84.38189845474614
67401,Saline County,KS,18.929359823399558
40004,Nelson County,KY,16.99779249448124
40019,Henry County,KY,93.37748344370861
40065,Shelby County,KY,37.80353200883002
40165,Bullitt County,KY,40.45253863134658
40203,Jefferson County,KY,19.646799116997794
40205,Jefferson County,KY,77.70419426048565
40211,Jefferson County,KY,11.699779249448124
40216,Jefferson County,KY,31.29139072847682
40223,Jefferson County,KY,62.41721854304636
40245,Jefferson County,KY,45.36423841059602
40291,Jefferson County,KY,15.728476821192054
40447,Jackson County,KY,85.20971302428256
40489,Lincoln County,KY,98.28918322295806
40517,Fayette County,KY,19.26048565121413
40965,Bell County,KY,72.51655629139073
41011,Kenton County,KY,12.748344370860929
41014,Kenton County,KY,49.11699779249448
41015,Kenton County,KY,24.22737306843267
41042,Boone County,KY,4.194260485651214
41051,Kenton County,KY,33.88520971302428
41168,Boyd County,KY,95.75055187637969
41501,Pike County,KY,10.264900662251655
41553,Pike County,KY,99.28256070640177
42127,Barren County,KY,87.19646799116998
42141,Barren County,KY,10.596026490066226
42303,Daviess County,KY,8.27814569536424
42351,Hancock County,KY,89.67991169977924
42701,Hardin County,KY,9.878587196467992
42718,Taylor County,KY,11.037527593818984
70053,Jefferson Parish,LA,22.130242825607063
70065,Jefferson Parish,LA,36.147902869757175
70070,St. Charles Parish,LA,82.00883002207505
70085,St. Bernard Parish,LA,85.98233995584988
70087,St. Charles Parish,LA,98.39955849889624
70112,Orleans Parish,LA,69.5364238410596
70117,Orleans Parish,LA,3.0353200883002205
70119,Orleans Parish,LA,3.2560706401766004
70122,Orleans Parish,LA,71.24724061810154
70128,Orleans Parish,LA,96.7991169977925
70341,Assumption Parish,LA,98.9514348785872
70360,Terrebonne Parish,LA,9.547461368653423
70364,Terrebonne Parish,LA,6.125827814569536
70454,Tangipahoa Parish,LA,7.119205298013245
70460,St. Tammany Parish,LA,69.59161147902869
70517,St. Martin Parish,LA,11.479028697571744
70582,St. Martin Parish,LA,27.704194260485654
70601,Calcasieu Parish,LA,84.49227373068433
70607,Calcasieu Parish,LA,92.60485651214128
70647,Calcasieu Parish,LA,41.61147902869757
70706,Livingston Parish,LA,29.856512141280355
70711,Livingston Parish,LA,83.05739514348785
70767,West Baton Rouge Parish,LA,43.04635761589404
70769,Ascension Parish,LA,8.333333333333332
70806,East Baton Rouge Parish,LA,86.9205298013245
70808,East Baton Rouge Parish,LA,40.94922737306843
70812,East Baton Rouge Parish,LA,96.7439293598234
71037,Bossier Parish,LA,16.39072847682119
71055,Webster Parish,LA,98.73068432671081
71202,Ouachita Parish,LA,3.36644591611479
71203,Ouachita Parish,LA,71.35761589403974
71241,Union Parish,LA,93.10154525386314
71301,Rapides Parish,LA,94.31567328918322
71351,Avoyelles Parish,LA,28.807947019867548
71457,Natchitoches Parish,LA,90.89403973509934
03904,York County,ME,73.50993377483444
04062,Cumberland County,ME,52.483443708609265
04074,Cumberland County,ME,64.01766004415012
04083,York County,ME,78.47682119205298
04210,Androscoggin County,ME,82.33995584988962
04270,Oxford County,ME,66.50110375275938
04330,Kennebec County,ME,56.12582781456954
04364,Kennebec County,ME,53.75275938189845
04401,Penobscot County,ME,27.64900662251656
04412,Penobscot County,ME,61.58940397350994
04468,Penobscot County,ME,66.280353200883
20740,Prince George's County,MD,90.06622516556291
20784,Prince George's County,MD,65.83885209713024
20878,Montgomery County,MD,42.88079470198676
20901,Montgomery County,MD,73.89624724061811
20910,Montgomery County,MD,80.62913907284768
21014,Harford County,MD,37.30684326710817
21015,Harford County,MD,68.76379690949227
21043,Howard County,MD,66.77704194260485
21044,Howard County,MD,86.25827814569537
21061,Anne Arundel County,MD,32.39514348785872
21074,Carroll County,MD,75.27593818984548
21075,Howard County,MD,85.8719646799117
21078,Harford County,MD,46.688741721854306
21090,Anne Arundel County,MD,83.94039735099338
21093,Baltimore County,MD,39.735099337748345
21158,Carroll County,MD,97.62693156732892
21204,Baltimore County,MD,87.52759381898456
21208,Baltimore County,MD,58.27814569536424
21212,Baltimore city,MD,38.18984547461369
21215,Baltimore city,MD,6.236203090507726
21225,Baltimore city,MD,31.95364238410596
21228,Baltimore County,MD,48.28918322295806
21740,Washington County,MD,65.56291390728477
21776,Carroll County,MD,98.62030905077262
01020,Hampden County,MA,2.5386313465783665
01062,Hampshire County,MA,70.91611479028698
01104,Hampden County,MA,0.772626931567329
01105,Hampden County,MA,31.456953642384107
01107,Hampden County,MA,43.377483443708606
01108,Hampden County,MA,77.42825607064017
01151,Hampden County,MA,95.69536423841059
01201,Berkshire County,MA,71.8543046357616
01331,Worcester County,MA,3.145695364238411
01420,Worcester County,MA,62.69315673289183
01440,Worcester County,MA,0.8830022075055187
01475,Worcester County,MA,93.43267108167771
01540,Worcester County,MA,36.36865342163355
01543,Worcester County,MA,89.90066225165563
01570,Worcester County,MA,77.53863134657837
01606,Worcester County,MA,45.80573951434879
01610,Worcester County,MA,0.44150110375275936
01701,Middlesex County,MA,8.995584988962472
01742,Middlesex County,MA,50.44150110375276
01746,Middlesex County,MA,76.93156732891833
01757,Worcester County,MA,52.26269315673289
01760,Middlesex County,MA,33.11258278145696
01801,Middlesex County,MA,7.119205298013245
01843,Essex County,MA,44.92273730684327
01845,Essex County,MA,25.441501103752763
01867,Middlesex County,MA,25.22075055187638
01880,Middlesex County,MA,5.518763796909492
01887,Middlesex County,MA,92.77041942604856
01902,Essex County,MA,24.44812362030905
01915,Essex County,MA,11.147902869757175
01921,Essex County,MA,77.98013245033113
01930,Essex County,MA,81.89845474613686
01969,Essex County,MA,88.13465783664459
02021,Norfolk County,MA,28.47682119205298
02052,Norfolk County,MA,60.209713024282564
02062,Norfolk County,MA,12.582781456953644
02072,Norfolk County,MA,91.44591611479028
02116,Suffolk County,MA,13.46578366445916
02118,Suffolk County,MA,0
02120,Suffolk County,MA,4.083885209713024
02121,Suffolk County,MA,0.11037527593818984
02122,Suffolk County,MA,0.717439293598234
02124,Suffolk County,MA,31.346578366445915
02125,Suffolk County,MA,0.16556291390728478
02126,Suffolk County,MA,0.22075055187637968
02138,Middlesex County,MA,10.706401766004415
02143,Middlesex County,MA,3.9183222958057393
02145,Middlesex County,MA,96.68874172185431
02149,Middlesex County,MA,58.38852097130243
02150,Suffolk County,MA,11.368653421633553
02155,Middlesex County,MA,5.4635761589403975
02176,Middlesex County,MA,5.960264900662252
02180,Middlesex County,MA,11.20309050772627
02330,Plymouth County,MA,74.66887417218543
02360,Plymouth County,MA,0.5518763796909493
02382,Plymouth County,MA,95.30905077262693
02446,Norfolk County,MA,17.549668874172188
02472,Middlesex County,MA,5.5739514348785875
02639,Barnstable County,MA,86.75496688741721
02649,Barnstable County,MA,33.719646799117
02673,Barnstable County,MA,50.22075055187638
02720,Bristol County,MA,57.615894039735096
02745,Bristol County,MA,1.2141280353200883
48025,Oakland County,MI,77.2075055187638
48026,Macomb County,MI,79.02869757174393
48045,Macomb County,MI,54.47019867549668
48048,Macomb County,MI,90.01103752759381
48067,Oakland County,MI,66.22516556291392
48073,Oakland County,MI,26.986754966887418
48075,Oakland County,MI,28.752759381898457
48091,Macomb County,MI,4.966887417218543
48108,Washtenaw County,MI,34.16114790286976
48125,Wayne County,MI,20.750551876379692
48161,Monroe County,MI,5.905077262693157
48180,Wayne County,MI,1.6004415011037527
48184,Wayne County,MI,14.072847682119205
48185,Wayne County,MI,4.13907284768212
48197,Washtenaw County,MI,1.3245033112582782
48198,Washtenaw County,MI,13.57615894039735
48204,Wayne County,MI,8.388520971302428
48212,Wayne County,MI,32.615894039735096
48223,Wayne County,MI,11.092715231788079
48227,Wayne County,MI,15.949227373068434
48228,Wayne County,MI,0.8278145695364238
48239,Wayne County,MI,6.512141280353201
48240,Wayne County,MI,18.76379690949227
48317,Macomb County,MI,20.08830022075055
48326,Oakland County,MI,75.55187637969095
48327,Oakland County,MI,29.58057395143488
48328,Oakland County,MI,34.7130242825607
48340,Oakland County,MI,8.830022075055188
48371,Oakland County,MI,33.443708609271525
48377,Oakland County,MI,62.251655629139066
48423,Genesee County,MI,29.194260485651213
48471,Sanilac County,MI,72.29580573951435
48504,Genesee County,MI,16.335540838852097
48507,Genesee County,MI,8.222958057395143
48601,Saginaw County,MI,1.0485651214128036
48602,Saginaw County,MI,17.3841059602649
48609,Saginaw County,MI,38.52097130242826
48706,Bay County,MI,5.849889624724062
48734,Saginaw County,MI,81.5121412803532
48739,Iosco County,MI,84.16114790286976
48746,Tuscola County,MI,76.26931567328919
48756,Ogemaw County,MI,93.76379690949227
48768,Tuscola County,MI,50.93818984547461
48837,Eaton County,MI,53.58719646799117
48842,Ingham County,MI,34.65783664459161
48846,Ionia County,MI,35.154525386313466
48867,Shiawassee County,MI,27.097130242825607
48875,Ionia County,MI,75.77262693156733
48884,Montcalm County,MI,95.47461368653421
48906,Ingham County,MI,38.24503311258278
48911,Ingham County,MI,5.132450331125828
48917,Eaton County,MI,7.450331125827815
49001,Kalamazoo County,MI,49.9448123620309
49002,Kalamazoo County,MI,30.573951434878587
49048,Kalamazoo County,MI,15.673289183222957
49090,Van Buren County,MI,54.35982339955849
49093,St. Joseph County,MI,60.59602649006622
49103,Berrien County,MI,86.03752759381898
49120,Berrien County,MI,12.858719646799116
49201,Jackson County,MI,49.77924944812362
49221,Lenawee County,MI,2.4834437086092715
49286,Lenawee County,MI,89.01766004415012
49327,Newaygo County,MI,74.72406181015452
49349,Newaygo County,MI,81.23620309050773
49417,Ottawa County,MI,45.58498896247241
49421,Oceana County,MI,77.31788079470199
49423,Ottawa County,MI,10.32008830022075
49428,Ottawa County,MI,76.15894039735099
49457,Muskegon County,MI,88.52097130242825
49503,Kent County,MI,9.271523178807946
49506,Kent County,MI,22.185430463576157
49507,Kent County,MI,64.1832229580574
49508,Kent County,MI,76.54525386313466
49509,Kent County,MI,11.53421633554084
49519,Kent County,MI,14.735099337748345
49651,Missaukee County,MI,83.27814569536423
49783,Chippewa County,MI,18.4878587196468
49913,Houghton County,MI,55.022075055187635
55014,Anoka County,MN,91.66666666666666
55025,Washington County,MN,52.86975717439294
55038,Washington County,MN,77.31788079470199
55060,Steele County,MN,33.33333333333333
55076,Dakota County,MN,90.56291390728477
55079,Chisago County,MN,76.87637969094922
55101,Ramsey County,MN,30.684326710816777
55102,Ramsey County,MN,27.262693156732894
55103,Ramsey County,MN,72.51655629139073
55106,Ramsey County,MN,5.242825607064018
55119,Ramsey County,MN,11.810154525386315
55121,Dakota County,MN,93.65342163355407
55125,Washington County,MN,68.70860927152319
55130,Ramsey County,MN,45.971302428256074
55301,Wright County,MN,93.87417218543047
55302,Wright County,MN,94.48123620309052
55303,Anoka County,MN,16.16997792494481
55308,Sherburne County,MN,90.78366445916114
55313,Wright County,MN,92.66004415011038
55334,Sibley County,MN,99.55849889624724
55343,Hennepin County,MN,83.83002207505518
55350,McLeod County,MN,26.32450331125828
55376,Wright County,MN,83.11258278145695
55398,Sherburne County,MN,94.6467991169978
55404,Hennepin County,MN,19.812362030905078
55405,Hennepin County,MN,66.05960264900662
55408,Hennepin County,MN,9.823399558498897
55419,Hennepin County,MN,72.35099337748345
55421,Anoka County,MN,49.613686534216335
55422,Hennepin County,MN,27.92494481236203
55426,Hennepin County,MN,25.99337748344371
55429,Hennepin County,MN,10.98233995584989
55433,Anoka County,MN,32.06401766004415
55434,Anoka County,MN,60.264900662251655
55443,Hennepin County,MN,61.313465783664455
55444,Hennepin County,MN,89.73509933774835
55449,Anoka County,MN,75.38631346578366
55734,St. Louis County,MN,72.7373068432671
55744,Itasca County,MN,62.14128035320088
55746,St. Louis County,MN,22.737306843267106
55901,Olmsted County,MN,56.07064017660044
55944,Dodge County,MN,88.90728476821192
55975,Fillmore County,MN,99.11699779249447
56031,Martin County,MN,42.384105960264904
56069,Le Sueur County,MN,97.95805739514348
56073,Brown County,MN,19.97792494481236
56093,Waseca County,MN,67.66004415011038
56303,Stearns County,MN,84.71302428256071
56308,Douglas County,MN,24.77924944812362
56364,Morrison County,MN,98.89624724061811
56374,Stearns County,MN,91.61147902869757
56425,Crow Wing County,MN,86.03752759381898
56560,Clay County,MN,0.9381898454746136
56572,Otter Tail County,MN,93.26710816777042
56601,Beltrami County,MN,4.690949227373068
38632,DeSoto County,MS,46.799116997792495
38676,Tunica County,MS,97.57174392935983
39157,Madison County,MS,63.90728476821192
39206,Hinds County,MS,26.490066225165563
39211,Hinds County,MS,61.75496688741722
39325,Lauderdale County,MS,96.30242825607064
39350,Neshoba County,MS,56.29139072847682
39479,Covington County,MS,94.4260485651214
39567,Jackson County,MS,80.90507726269315
63010,Jefferson County,MO,35.70640176600441
63033,St. Louis County,MO,14.183222958057396
63110,St. Louis city,MO,95.91611479028698
63111,St. Louis city,MO,63.30022075055187
63114,St. Louis County,MO,23.06843267108168
63121,St. Louis County,MO,27.31788079470199
63125,St. Louis County,MO,39.23841059602649
63130,St. Louis County,MO,76.10375275938189
63137,St. Louis County,MO,34.602649006622514
63146,St. Louis County,MO,47.51655629139073
63801,Scott County,MO,20.364238410596027
64012,Cass County,MO,57.395143487858725
64029,Jackson County,MO,35.8719646799117
64052,Jackson County,MO,8.774834437086094
64063,Jackson County,MO,35.48565121412803
64068,Clay County,MO,6.95364238410596
64076,Lafayette County,MO,65.61810154525386
64089,Clay County,MO,76.43487858719647
64106,Jackson County,MO,25.717439293598233
64110,Jackson County,MO,78.69757174392936
64113,Jackson County,MO,64.29359823399558
64118,Clay County,MO,3.69757174392936
64119,Clay County,MO,34.05077262693157
64131,Jackson County,MO,12.803532008830022
64132,Jackson County,MO,13.300220750551878
64152,Platte County,MO,17.82560706401766
64155,Clay County,MO,20.86092715231788
64485,Andrew County,MO,91.55629139072848
64501,Buchanan County,MO,82.50551876379691
64506,Buchanan County,MO,47.29580573951434
64735,Henry County,MO,76.82119205298014
64759,Barton County,MO,77.53863134657837
65233,Cooper County,MO,92.3289183222958
65340,Saline County,MO,31.567328918322296
59833,Ravalli County,MT,99.72406181015452
68025,Dodge County,NE,31.732891832229583
68104,Douglas County,NE,23.56512141280353
68116,Douglas County,NE,57.671081677704194
68128,Sarpy County,NE,76.60044150110376
68130,Douglas County,NE,79.91169977924945
68137,Douglas County,NE,48.45474613686534
68144,Douglas County,NE,64.84547461368653
68147,Sarpy County,NE,88.41059602649007
68507,Lancaster County,NE,88.74172185430463
68516,Lancaster County,NE,85.48565121412804
68521,Lancaster County,NE,91.22516556291392
68661,Colfax County,NE,95.47461368653421
68701,Madison County,NE,46.909492273730685
68901,Adams County,NE,63.13465783664459
89110,Clark County,NV,18.211920529801322
89129,Clark County,NV,44.370860927152314
89130,Clark County,NV,50.44150110375276
89131,Clark County,NV,43.4878587196468
89142,Clark County,NV,62.85871964679912
89145,Clark County,NV,74.17218543046357
89503,Washoe County,NV,55.62913907284768
89521,Washoe County,NV,46.41280353200883
89523,Washoe County,NV,87.96909492273731
03060,Hillsborough County,NH,25.938189845474614
03064,Hillsborough County,NH,59.49227373068433
03076,Hillsborough County,NH,41.445916114790286
03861,Strafford County,NH,99.44812362030905
03885,Rockingham County,NH,89.34878587196468
07055,Passaic County,NJ,31.5121412803532
07063,Union County,NJ,99.66887417218543
07102,Essex County,NJ,6.070640176600441
07103,Essex County,NJ,16.94260485651214
07105,Essex County,NJ,10.154525386313466
07111,Essex County,NJ,0.6070640176600441
07307,Hudson County,NJ,9.602649006622517
07438,Morris County,NJ,84.98896247240619
07676,Bergen County,NJ,91.72185430463577
07724,Monmouth County,NJ,24.834437086092713
07758,Monmouth County,NJ,98.45474613686534
07849,Morris County,NJ,62.96909492273731
07874,Sussex County,NJ,73.39955849889624
07876,Morris County,NJ,90.12141280353201
07885,Morris County,NJ,77.48344370860927
08004,Camden County,NJ,52.317880794701985
08009,Camden County,NJ,80.51876379690948
08012,Camden County,NJ,4.24944812362031
08033,Camden County,NJ,63.13465783664459
08046,Burlington County,NJ,4.746136865342163
08048,Burlington County,NJ,59.82339955849889
08075,Burlington County,NJ,13.024282560706402
08079,Salem County,NJ,83.27814569536423
08090,Gloucester County,NJ,65.12141280353201
08096,Gloucester County,NJ,3.2008830022075054
08107,Camden County,NJ,26.600441501103756
08108,Camden County,NJ,58.88520971302428
08234,Atlantic County,NJ,35.32008830022075
08244,Atlantic County,NJ,33.38852097130243
08629,Mercer County,NJ,29.083885209713024
08701,Ocean County,NJ,14.955849889624723
08823,Somerset County,NJ,94.86754966887418
08869,Somerset County,NJ,89.23841059602648
08873,Somerset County,NJ,71.96467991169978
87002,Valencia County,NM,46.57836644591612
87105,Bernalillo County,NM,2.4282560706401766
87106,Bernalillo County,NM,84.32671081677704
87108,Bernalillo County,NM,5.077262693156733
87109,Bernalillo County,NM,15.507726269315672
87112,Bernalillo County,NM,12.417218543046356
87120,Bernalillo County,NM,7.671081677704194
87124,Sandoval County,NM,67.439293598234
87321,McKinley County,NM,98.78587196467991
87416,San Juan County,NM,95.86092715231787
87544,Los Alamos County,NM,59.21633554083885
88030,Luna County,NM,57.17439293598234
88081,Otero County,NM,74.8896247240618
88130,Roosevelt County,NM,63.576158940397356
10005,New York County,NY,94.75717439293598
10007,New York County,NY,99.83443708609272
10023,New York County,NY,74.28256070640177
10029,New York County,NY,3.5871964679911703
10451,Bronx County,NY,55.07726269315674
10452,Bronx County,NY,0.49668874172185434
10453,Bronx County,NY,43.87417218543047
10455,Bronx County,NY,2.5938189845474615
10456,Bronx County,NY,1.545253863134658
10457,Bronx County,NY,22.626931567328917
10458,Bronx County,NY,29.635761589403977
10460,Bronx County,NY,11.258278145695364
10466,Bronx County,NY,2.814569536423841
10467,Bronx County,NY,3.47682119205298
10469,Bronx County,NY,1.9315673289183224
10472,Bronx County,NY,1.1589403973509933
10473,Bronx County,NY,36.920529801324506
10573,Westchester County,NY,64.29359823399558
10805,Westchester County,NY,96.8543046357616
10952,Rockland County,NY,87.25165562913907
11201,Kings County,NY,18.81898454746137
11205,Kings County,NY,10.927152317880795
11207,Kings County,NY,0.3863134657836645
11213,Kings County,NY,39.45916114790287
11214,Kings County,NY,43.04635761589404
11216,Kings County,NY,9.161147902869757
11218,Kings County,NY,44.31567328918322
11219,Kings County,NY,39.51434878587197
11220,Kings County,NY,1.9867549668874174
11225,Kings County,NY,21.41280353200883
11226,Kings County,NY,18.432671081677704
11230,Kings County,NY,43.432671081677704
11368,Queens County,NY,27.373068432671083
11373,Queens County,NY,12.141280353200882
11377,Queens County,NY,80.79470198675497
11414,Queens County,NY,90.17660044150111
11419,Queens County,NY,67.93598233995584
11421,Queens County,NY,30.684326710816777
11432,Queens County,NY,23.896247240618102
11433,Queens County,NY,81.01545253863135
11693,Queens County,NY,96.96467991169978
11704,Suffolk County,NY,79.13907284768213
11720,Suffolk County,NY,67.82560706401766
11738,Suffolk County,NY,84.16114790286976
11743,Suffolk County,NY,94.37086092715232
11746,Suffolk County,NY,46.63355408388521
11787,Suffolk County,NY,93.54304635761589
12078,Fulton County,NY,2.759381898454746
12144,Rensselaer County,NY,68.4878587196468
12180,Rensselaer County,NY,51.71081677704195
12188,Saratoga County,NY,75.44150110375276
12204,Albany County,NY,62.96909492273731
12302,Schenectady County,NY,38.24503311258278
12534,Columbia County,NY,41.88741721854304
12549,Orange County,NY,93.59823399558499
12569,Dutchess County,NY,94.48123620309052
12916,Franklin County,NY,87.30684326710816
12972,Clinton County,NY,52.70419426048565
13035,Madison County,NY,81.56732891832229
13088,Onondaga County,NY,24.668874172185433
13203,Onondaga County,NY,66.280353200883
13205,Onondaga County,NY,38.962472406181014
13208,Onondaga County,NY,10.54083885209713
13219,Onondaga County,NY,79.08388520971302
13224,Onondaga County,NY,43.59823399558499
13357,Herkimer County,NY,31.898454746136867
13365,Herkimer County,NY,77.2626931567329
13407,Herkimer County,NY,82.28476821192054
13495,Oneida County,NY,98.01324503311258
13601,Jefferson County,NY,2.704194260485651
13669,St. Lawrence County,NY,19.5364238410596
13775,Delaware County,NY,99.33774834437085
13815,Chenango County,NY,12.251655629139073
13820,Otsego County,NY,65.01103752759381
13849,Otsego County,NY,74.77924944812362
13850,Broome County,NY,13.90728476821192
13901,Broome County,NY,67.3289183222958
14004,Erie County,NY,82.33995584988962
14006,Erie County,NY,63.741721854304636
14043,Erie County,NY,30.07726269315673
14075,Erie County,NY,6.567328918322296
14086,Erie County,NY,48.39955849889625
14092,Niagara County,NY,46.909492273730685
14127,Erie County,NY,13.35540838852097
14150,Erie County,NY,4.304635761589404
14207,Erie County,NY,6.181015452538632
14208,Erie County,NY,58.774834437086085
14211,Erie County,NY,6.788079470198675
14219,Erie County,NY,47.57174392935982
14220,Erie County,NY,59.87858719646799
14221,Erie County,NY,9.878587196467992
14223,Erie County,NY,25.662251655629138
14425,Ontario County,NY,15.286975717439294
14428,Monroe County,NY,41.77704194260486
14450,Monroe County,NY,1.8211920529801324
14454,Livingston County,NY,97.01986754966887
14482,Genesee County,NY,47.792494481236204
14502,Wayne County,NY,25
14505,Wayne County,NY,59.27152317880795
14519,Wayne County,NY,69.20529801324503
14522,Wayne County,NY,30.518763796909493
14551,Wayne County,NY,45.30905077262693
14572,Steuben County,NY,76.37969094922738
14580,Monroe County,NY,26.21412803532009
14605,Monroe County,NY,7.39514348785872
14606,Monroe County,NY,14.67991169977925
14607,Monroe County,NY,47.13024282560706
14609,Monroe County,NY,0.33112582781456956
14610,Monroe County,NY,27.1523178807947
14612,Monroe County,NY,1.1037527593818985
14617,Monroe County,NY,4.801324503311259
14620,Monroe County,NY,4.415011037527594
14621,Monroe County,NY,3.9735099337748347
14701,Chautauqua County,NY,14.845474613686536
27023,Forsyth County,NC,65.94922737306842
27030,Surry County,NC,44.150110375275936
27040,Forsyth County,NC,66.72185430463577
27101,Forsyth County,NC,79.47019867549669
27107,Forsyth County,NC,35.65121412803532
27217,Alamance County,NC,38.907284768211916
27253,Alamance County,NC,14.348785871964681
27260,Guilford County,NC,20.41942604856512
27262,Guilford County,NC,68.65342163355407
27263,Randolph County,NC,40.2869757174393
27284,Forsyth County,NC,5.298013245033113
27292,Davidson County,NC,2.924944812362031
27313,Guilford County,NC,86.64459161147903
27317,Randolph County,NC,49.668874172185426
27320,Rockingham County,NC,9.492273730684326
27360,Davidson County,NC,2.152317880794702
27405,Guilford County,NC,9.216335540838852
27406,Guilford County,NC,18.984547461368653
27407,Guilford County,NC,65.67328918322296
27502,Wake County,NC,58.00220750551877
27504,Johnston County,NC,59.32671081677704
27510,Orange County,NC,56.40176600441501
27513,Wake County,NC,57.78145695364238
27514,Orange County,NC,55.62913907284768
27516,Orange County,NC,28.532008830022075
27520,Johnston County,NC,29.415011037527595
27529,Wake County,NC,21.96467991169978
27540,Wake County,NC,42.05298013245033
27545,Wake County,NC,40.562913907284766
27546,Harnett County,NC,57.836644591611474
27549,Franklin County,NC,20.253863134657838
27576,Johnston County,NC,53.69757174392936
27577,Johnston County,NC,40.894039735099334
27596,Franklin County,NC,61.423841059602644
27703,Durham County,NC,33.94039735099338
27713,Durham County,NC,53.53200883002207
27858,Pitt County,NC,23.454746136865342
27863,Wayne County,NC,84.10596026490066
27948,Dare County,NC,58.22295805739515
28027,Cabarrus County,NC,16.83222958057395
28040,Rutherford County,NC,80.62913907284768
28079,Union County,NC,43.76379690949228
28117,Iredell County,NC,60.32008830022075
28144,Rowan County,NC,63.796909492273734
28147,Rowan County,NC,29.525386313465784
28150,Cleveland County,NC,19.70198675496689
28205,Mecklenburg County,NC,18.15673289183223
28206,Mecklenburg County,NC,37.25165562913907
28210,Mecklenburg County,NC,48.95143487858719
28212,Mecklenburg County,NC,22.516556291390728
28215,Mecklenburg County,NC,13.410596026490065
28217,Mecklenburg County,NC,47.682119205298015
28273,Mecklenburg County,NC,40.2869757174393
28328,Sampson County,NC,31.843267108167773
28340,Robeson County,NC,52.59381898454746
28352,Scotland County,NC,23.399558498896248
28371,Robeson County,NC,89.95584988962473
28379,Richmond County,NC,43.92935982339956
28401,New Hanover County,NC,8.719646799116997
28403,New Hanover County,NC,68.15673289183223
28412,New Hanover County,NC,42.16335540838852
28429,New Hanover County,NC,79.41501103752759
28451,Brunswick County,NC,74.39293598233996
28463,Columbus County,NC,68.92935982339957
28539,Onslow County,NC,70.19867549668875
28551,Lenoir County,NC,58.11258278145696
28557,Carteret County,NC,75.44150110375276
28562,Craven County,NC,36.58940397350993
28574,Onslow County,NC,64.51434878587196
28578,Wayne County,NC,97.84768211920529
28580,Greene County,NC,74.44812362030905
28635,Wilkes County,NC,92.49448123620309
28645,Caldwell County,NC,2.262693156732892
28650,Catawba County,NC,61.53421633554083
28655,Burke County,NC,3.863134657836645
28658,Catawba County,NC,70.69536423841059
28681,Alexander County,NC,18.267108167770417
28715,Buncombe County,NC,45.47461368653421
28752,McDowell County,NC,61.9757174392936
28754,Madison County,NC,93.21192052980133
28762,McDowell County,NC,76.32450331125827
28771,Graham County,NC,69.48123620309052
28778,Buncombe County,NC,85.8167770419426
28806,Buncombe County,NC,36.47902869757174
58237,Walsh County,ND,97.13024282560706
58301,Ramsey County,ND,66.3907284768212
58501,Burleigh County,ND,48.12362030905077
58701,Ward County,ND,8.609271523178808
58703,Ward County,ND,39.29359823399559
43015,Delaware County,OH,13.189845474613687
43021,Delaware County,OH,87.03090507726269
43023,Licking County,OH,87.08609271523179
43028,Knox County,OH,91.280353200883
43055,Licking County,OH,9.98896247240618
43062,Licking County,OH,64.62472406181016
43068,Franklin County,OH,8.057395143487858
43081,Franklin County,OH,51.379690949227374
43113,Pickaway County,OH,12.08609271523179
43119,Franklin County,OH,21.578366445916114
43130,Fairfield County,OH,23.78587196467991
43147,Fairfield County,OH,21.63355408388521
43202,Franklin County,OH,74.83443708609272
43203,Franklin County,OH,92.88079470198676
43205,Franklin County,OH,41.77704194260486
43207,Franklin County,OH,24.00662251655629
43209,Franklin County,OH,45.033112582781456
43213,Franklin County,OH,7.781456953642383
43222,Franklin County,OH,78.42163355408388
43227,Franklin County,OH,20.474613686534216
43228,Franklin County,OH,32.28476821192053
43334,Morrow County,OH,72.46136865342163
43402,Wood County,OH,50
43420,Sandusky County,OH,8.664459161147903
43460,Wood County,OH,91.3907284768212
43512,Defiance County,OH,35.59602649006622
43515,Fulton County,OH,63.686534216335545
43560,Lucas County,OH,22.792494481236204
43605,Lucas County,OH,1.434878587196468
43611,Lucas County,OH,12.362030905077264
43614,Lucas County,OH,8.885209713024283
43615,Lucas County,OH,2.041942604856512
43616,Lucas County,OH,38.741721854304636
43620,Lucas County,OH,69.03973509933775
43917,Jefferson County,OH,92.99116997792495
43935,Belmont County,OH,43.76379690949228
44011,Lorain County,OH,27.980132450331123
44052,Lorain County,OH,1.7108167770419427
44067,Summit County,OH,78.03532008830022
44077,Lake County,OH,16.666666666666664
44089,Erie County,OH,33.22295805739514
44102,Cuyahoga County,OH,0.05518763796909492
44109,Cuyahoga County,OH,0.27593818984547464
44111,Cuyahoga County,OH,34.437086092715234
44115,Cuyahoga County,OH,83.38852097130243
44120,Cuyahoga County,OH,16.114790286975715
44123,Cuyahoga County,OH,25.22075055187638
44127,Cuyahoga County,OH,59.38189845474614
44128,Cuyahoga County,OH,1.7660044150110374
44130,Cuyahoga County,OH,20.309050772626932
44146,Cuyahoga County,OH,25.607064017660043
44236,Summit County,OH,49.448123620309055
44266,Portage County,OH,7.505518763796909
44305,Summit County,OH,40.12141280353201
44413,Columbiana County,OH,70.75055187637969
44440,Trumbull County,OH,94.59161147902869
44445,Columbiana County,OH,92.27373068432672
44446,Trumbull County,OH,11.64459161147903
44460,Columbiana County,OH,18.543046357615893
44484,Trumbull County,OH,25.82781456953642
44485,Trumbull County,OH,63.41059602649006
44502,Mahoning County,OH,38.741721854304636
44512,Mahoning County,OH,8.388520971302428
44685,Summit County,OH,84.65783664459161
44703,Stark County,OH,46.688741721854306
44705,Stark County,OH,22.571743929359823
44707,Stark County,OH,55.960264900662246
44839,Erie County,OH,51.60044150110375
44857,Huron County,OH,20.033112582781456
44870,Erie County,OH,11.589403973509933
44883,Seneca County,OH,15.728476821192054
45011,Butler County,OH,1.434878587196468
45103,Clermont County,OH,56.67770419426048
45122,Clermont County,OH,70.91611479028698
45140,Clermont County,OH,21.357615894039736
45203,Hamilton County,OH,90.28697571743929
45211,Hamilton County,OH,7.560706401766004
45215,Hamilton County,OH,22.461368653421633
45223,Hamilton County,OH,39.34878587196468
45227,Hamilton County,OH,44.867549668874176
45231,Hamilton County,OH,70.25386313465783
45237,Hamilton County,OH,82.78145695364239
45245,Clermont County,OH,91.16997792494482
45342,Montgomery County,OH,9.437086092715232
45344,Clark County,OH,54.083885209713024
45345,Montgomery County,OH,82.94701986754967
45356,Miami County,OH,12.637969094922738
45403,Montgomery County,OH,79.30463576158941
45405,Montgomery County,OH,53.2560706401766
45417,Montgomery County,OH,30.353200883002206
45439,Montgomery County,OH,47.35099337748344
45449,Montgomery County,OH,86.58940397350993
45458,Montgomery County,OH,34.7130242825607
45505,Clark County,OH,60.54083885209713
45638,Lawrence County,OH,3.090507726269316
45645,Lawrence County,OH,91.99779249448123
45653,Scioto County,OH,96.90949227373068
45680,Lawrence County,OH,11.313465783664459
45801,Allen County,OH,35.81677704194261
45822,Mercer County,OH,33.443708609271525
45895,Auglaize County,OH,28.03532008830022
73010,McClain County,OK,42.82560706401766
73018,Grady County,OK,42.10816777041943
73025,Oklahoma County,OK,66.94260485651215
73026,Cleveland County,OK,75.88300220750553
73030,Murray County,OK,82.17439293598234
73044,Logan County,OK,47.90286975717439
73068,Cleveland County,OK,67.21854304635761
73080,McClain County,OK,76.0485651214128
73099,Canadian County,OK,11.754966887417218
73107,Oklahoma County,OK,48.675496688741724
73110,Oklahoma County,OK,16.55629139072848
73111,Oklahoma County,OK,61.203090507726266
73120,Oklahoma County,OK,38.63134657836645
73129,Oklahoma County,OK,86.86534216335541
73132,Oklahoma County,OK,50.71743929359823
73142,Oklahoma County,OK,78.2008830022075
73160,Cleveland County,OK,10.65121412803532
73170,Cleveland County,OK,29.194260485651213
74003,Osage County,OK,84.60264900662253
74006,Washington County,OK,50.82781456953642
74012,Tulsa County,OK,22.075055187637968
74015,Rogers County,OK,88.30022075055187
74074,Payne County,OK,41.66666666666667
74105,Tulsa County,OK,34.54746136865342
74107,Tulsa County,OK,59.65783664459161
74112,Tulsa County,OK,50.05518763796909
74129,Tulsa County,OK,51.158940397350996
74136,Tulsa County,OK,51.87637969094923
74146,Tulsa County,OK,84.93377483443709
74429,Wagoner County,OK,74.55849889624724
74578,Latimer County,OK,95.47461368653421
74764,McCurtain County,OK,99.77924944812362
74868,Seminole County,OK,66.99779249448123
97013,Clackamas County,OR,55.84988962472406
97051,Columbia County,OR,58.443708609271525
97062,Washington County,OR,54.966887417218544
97064,Columbia County,OR,98.50993377483444
97078,Washington County,OR,65.23178807947019
97113,Washington County,OR,67.60485651214128
97114,Yamhill County,OR,98.67549668874173
97116,Washington County,OR,45.6401766004415
97124,Washington County,OR,24.55849889624724
97215,Multnomah County,OR,89.79028697571744
97229,Washington County,OR,32.560706401766005
97231,Multnomah County,OR,99.22737306843267
97233,Multnomah County,OR,14.1280353200883
97303,Marion County,OR,37.63796909492274
97321,Linn County,OR,25.055187637969095
97322,Linn County,OR,11.975717439293598
97351,Polk County,OR,94.26048565121413
97352,Marion County,OR,99.17218543046357
97378,Yamhill County,OR,82.83664459161147
97471,Douglas County,OR,15.397350993377485
97478,Lane County,OR,34.105960264900666
97501,Jackson County,OR,6.677704194260485
97503,Jackson County,OR,84.43708609271523
97603,Klamath County,OR,17.770419426048566
97754,Crook County,OR,43.15673289183223
15009,Beaver County,PA,97.51655629139073
15044,Allegheny County,PA,59.05077262693157
15068,Westmoreland County,PA,47.24061810154526
15074,Beaver County,PA,61.09271523178808
15106,Allegheny County,PA,79.58057395143487
15120,Allegheny County,PA,40.83885209713024
15129,Allegheny County,PA,75.66225165562915
15206,Allegheny County,PA,15.562913907284766
15207,Allegheny County,PA,55.18763796909493
15212,Allegheny County,PA,21.7439293598234
15213,Allegheny County,PA,87.69315673289184
15219,Allegheny County,PA,29.304635761589402
15601,Westmoreland County,PA,2.3178807947019866
15627,Westmoreland County,PA,75.66225165562915
15656,Westmoreland County,PA,70.03311258278146
15666,Westmoreland County,PA,47.62693156732892
15825,Jefferson County,PA,41.16997792494481
15901,Cambria County,PA,80.73951434878587
15905,Cambria County,PA,73.50993377483444
16101,Lawrence County,PA,4.525386313465784
16146,Mercer County,PA,21.136865342163354
16201,Armstrong County,PA,29.028697571743926
16335,Crawford County,PA,8.940397350993377
16407,Erie County,PA,75
16510,Erie County,PA,35.32008830022075
16602,Blair County,PA,11.865342163355407
16625,Blair County,PA,96.63355408388522
16735,McKean County,PA,70.58498896247241
17019,York County,PA,61.09271523178808
17033,Dauphin County,PA,29.635761589403977
17057,Dauphin County,PA,16.225165562913908
17109,Dauphin County,PA,23.12362030905077
17331,York County,PA,5.3532008830022075
17362,York County,PA,64.95584988962473
17403,York County,PA,1.8763796909492272
17404,York County,PA,35.9271523178808
17552,Lancaster County,PA,35.209713024282564
17566,Lancaster County,PA,93.4878587196468
17579,Lancaster County,PA,90.72847682119205
17701,Lycoming County,PA,2.980132450331126
17745,Clinton County,PA,68.21192052980133
17821,Montour County,PA,97.07505518763797
17844,Union County,PA,69.03973509933775
17851,Northumberland County,PA,63.41059602649006
17856,Union County,PA,99.83443708609272
17872,Northumberland County,PA,88.57615894039735
17901,Schuylkill County,PA,23.178807947019866
17948,Schuylkill County,PA,95.36423841059603
18014,Northampton County,PA,39.624724061810156
18017,Northampton County,PA,4.635761589403973
18062,Lehigh County,PA,72.01986754966887
18102,Lehigh County,PA,6.401766004415011
18104,Lehigh County,PA,12.417218543046356
18301,Monroe County,PA,31.40176600441501
18431,Wayne County,PA,59.65783664459161
18436,Wayne County,PA,52.041942604856516
18447,Lackawanna County,PA,73.84105960264901
18509,Lackawanna County,PA,52.75938189845475
18512,Lackawanna County,PA,59.16114790286976
18706,Luzerne County,PA,35.04415011037528
18848,Bradford County,PA,75.99337748344371
18940,Bucks County,PA,58.498896247240616
18969,Montgomery County,PA,84.82339955849889
19012,Montgomery County,PA,87.41721854304636
19013,Delaware County,PA,17.108167770419428
19015,Delaware County,PA,66.50110375275938
19018,Delaware County,PA,24.944812362030905
19023,Delaware County,PA,26.876379690949225
19026,Delaware County,PA,15.618101545253863
19047,Bucks County,PA,21.799116997792495
19056,Bucks County,PA,45.143487858719645
19063,Delaware County,PA,19.205298013245034
19064,Delaware County,PA,35.209713024282564
19083,Delaware County,PA,25.22075055187638
19114,Philadelphia County,PA,16.887417218543046
19120,Philadelphia County,PA,15.838852097130243
19121,Philadelphia County,PA,7.28476821192053
19124,Philadelphia County,PA,6.898454746136866
19130,Philadelphia County,PA,34.492273730684325
19132,Philadelphia County,PA,23.730684326710815
19138,Philadelphia County,PA,38.079470198675494
19140,Philadelphia County,PA,1.379690949227373
19142,Philadelphia County,PA,37.69315673289183
19143,Philadelphia County,PA,17.991169977924944
19144,Philadelphia County,PA,20.916114790286976
19145,Philadelphia County,PA,5.7947019867549665
19148,Philadelphia County,PA,6.291390728476822
19151,Philadelphia County,PA,11.920529801324504
19320,Chester County,PA,7.72626931567329
19382,Chester County,PA,41.22516556291391
19460,Chester County,PA,21.52317880794702
19464,Montgomery County,PA,22.185430463576157
19602,Berks County,PA,35.099337748344375
19605,Berks County,PA,28.14569536423841
02809,Bristol County,RI,54.24944812362031
02831,Providence County,RI,97.29580573951435
02889,Kent County,RI,22.626931567328917
02905,Providence County,RI,37.41721854304636
02909,Providence County,RI,47.40618101545254
29036,Lexington County,SC,67.10816777041943
29045,Kershaw County,SC,69.92273730684326
29063,Richland County,SC,79.80132450331125
29073,Lexington County,SC,19.70198675496689
29123,Lexington County,SC,87.14128035320088
29169,Lexington County,SC,52.09713024282561
29170,Lexington County,SC,64.23841059602648
29203,Richland County,SC,67.05298013245033
29301,Spartanburg County,SC,75.60706401766004
29302,Spartanburg County,SC,73.62030905077262
29316,Spartanburg County,SC,34.8233995584989
29340,Cherokee County,SC,36.81015452538631
29356,Spartanburg County,SC,85.26490066225165
29384,Laurens County,SC,95.41942604856513
29405,Charleston County,SC,73.12362030905078
29429,Charleston County,SC,97.40618101545255
29440,Georgetown County,SC,42.60485651214128
29466,Charleston County,SC,45.36423841059602
29485,Dorchester County,SC,24.88962472406181
29501,Florence County,SC,28.97350993377483
29526,Horry County,SC,33.6644591611479
29532,Darlington County,SC,58.719646799117
29572,Horry County,SC,95.25386313465783
29588,Horry County,SC,32.89183222958057
29605,Greenville County,SC,53.75275938189845
29615,Greenville County,SC,55.57395143487859
29624,Anderson County,SC,66.66666666666666
29644,Greenville County,SC,47.682119205298015
29651,Greenville County,SC,49.724061810154524
29666,Greenwood County,SC,88.90728476821192
29669,Anderson County,SC,59.65783664459161
29673,Greenville County,SC,80.18763796909492
29707,Lancaster County,SC,74.06181015452539
29829,Aiken County,SC,78.1456953642384
29944,Hampton County,SC,99.61368653421634
57049,Union County,SD,95.19867549668875
57105,Minnehaha County,SD,42.71523178807947
57350,Beadle County,SD,51.76600441501103
57701,Pennington County,SD,17.218543046357617
37013,Davidson County,TN,8.554083885209714
37025,Hickman County,TN,82.560706401766
37030,Smith County,TN,96.52317880794702
37042,Montgomery County,TN,53.31125827814569
37062,Williamson County,TN,78.58719646799118
37075,Sumner County,TN,14.23841059602649
37076,Davidson County,TN,31.677704194260485
37083,Macon County,TN,47.07505518763797
37086,Rutherford County,TN,72.95805739514348
37087,Wilson County,TN,15.121412803532008
37090,Wilson County,TN,60.70640176600441
37122,Wilson County,TN,26.158940397350992
37128,Rutherford County,TN,57.94701986754966
37148,Sumner County,TN,36.258278145695364
37167,Rutherford County,TN,56.95364238410596
37172,Robertson County,TN,13.686534216335541
37174,Williamson County,TN,44.205298013245034
37179,Williamson County,TN,84.76821192052981
37205,Davidson County,TN,67.54966887417218
37217,Davidson County,TN,38.68653421633554
37303,McMinn County,TN,51.269315673289185
37322,Meigs County,TN,59.54746136865342
37343,Hamilton County,TN,20.695364238410598
37397,Marion County,TN,80.96026490066225
37407,Hamilton County,TN,83.49889624724062
37415,Hamilton County,TN,54.52538631346579
37658,Carter County,TN,88.0242825607064
37660,Sullivan County,TN,6.346578366445916
37708,Grainger County,TN,81.78807947019867
37721,Knox County,TN,64.84547461368653
37725,Jefferson County,TN,48.8962472406181
37771,Loudon County,TN,50.38631346578366
37801,Blount County,TN,13.520971302428256
37804,Blount County,TN,26.103752759381898
37840,Roane County,TN,70.41942604856513
37861,Grainger County,TN,75.1103752759382
37912,Knox County,TN,26.82119205298013
37918,Knox County,TN,12.417218543046356
38103,Shelby County,TN,95.08830022075055
38107,Shelby County,TN,93.81898454746137
38127,Shelby County,TN,7.6158940397351
38128,Shelby County,TN,18.046357615894042
38134,Shelby County,TN,33.16777041942605
38301,Madison County,TN,8.112582781456954
38375,McNairy County,TN,78.69757174392936
38401,Maury County,TN,27.207505518763796
38501,Putnam County,TN,17.328918322295806
38506,Putnam County,TN,37.858719646799116
38553,Fentress County,TN,99.39293598233996
38585,Van Buren County,TN,93.70860927152319
75002,Collin County,TX,19.5364238410596
75006,Dallas County,TX,42.549668874172184
75019,Dallas County,TX,50.16556291390728
75032,Rockwall County,TX,57.505518763796914
75050,Dallas County,TX,89.45916114790286
75074,Collin County,TX,49.337748344370866
75080,Dallas County,TX,54.41501103752759
75103,Van Zandt County,TX,75.82781456953643
75137,Dallas County,TX,59.93377483443708
75150,Dallas County,TX,21.026490066225165
75203,Dallas County,TX,71.90949227373068
75206,Dallas County,TX,47.019867549668874
75209,Dallas County,TX,86.313465783664455
75219,Dallas County,TX,75.93818984547461
75220,Dallas County,TX,90.94922737306842
75228,Dallas County,TX,4.911699779249449
75232,Dallas County,TX,41.280353200883
75233,Dallas County,TX,68.04635761589404
75234,Dallas County,TX,86.47902869757175
75409,Collin County,TX,73.23399558498896
75462,Lamar County,TX,86.313465783664455
75482,Hopkins County,TX,55.51876379690949
75601,Gregg County,TX,70.41942604856513
75603,Gregg County,TX,95.80573951434879
75645,Upshur County,TX,76.21412803532009
75701,Smith County,TX,64.73509933774835
75766,Cherokee County,TX,64.1280353200883
75839,Anderson County,TX,93.32229580573951
76006,Tarrant County,TX,66.44591611479028
76020,Tarrant County,TX,26.93156732891832
76048,Hood County,TX,40.06622516556291
76086,Parker County,TX,80.84988962472406
76108,Tarrant County,TX,34.93377483443709
76109,Tarrant County,TX,54.13907284768212
76110,Tarrant County,TX,39.67991169977925
76164,Tarrant County,TX,67.27373068432672
76180,Tarrant County,TX,69.59161147902869
76208,Denton County,TX,56.788079470198674
76230,Montague County,TX,76.60044150110376
76248,Tarrant County,TX,60.9271523178808
76501,Bell County,TX,13.079470198675496
76502,Bell County,TX,13.631346578366447
76504,Bell County,TX,32.78145695364238
76513,Bell County,TX,48.56512141280353
76542,Bell County,TX,12.637969094922738
76549,Bell County,TX,21.192052980132452
76657,McLennan County,TX,83.719646799117
76705,McLennan County,TX,15.176600441501103
76825,McCulloch County,TX,86.75496688741721
76901,Tom Green County,TX,46.08167770419426
76903,Tom Green County,TX,38.13465783664459
76904,Tom Green County,TX,58.83002207505519
77013,Harris County,TX,83.77483443708608
77026,Harris County,TX,77.09713024282561
77035,Harris County,TX,37.58278145695364
77040,Harris County,TX,41.94260485651214
77057,Harris County,TX,65.50772626931567
77058,Harris County,TX,78.36644591611478
77062,Harris County,TX,90.50772626931567
77069,Harris County,TX,84.27152317880795
77074,Harris County,TX,91.05960264900662
77076,Harris County,TX,88.0242825607064
77081,Harris County,TX,62.748344370860934
77089,Harris County,TX,40.2317880794702
77301,Montgomery County,TX,51.49006622516556
77356,Montgomery County,TX,63.24503311258278
77357,Montgomery County,TX,60.04415011037527
77365,Montgomery County,TX,46.30242825607064
77372,Montgomery County,TX,86.69977924944813
77378,Montgomery County,TX,91.77704194260485
77406,Fort Bend County,TX,41.11479028697572
77429,Harris County,TX,10.20971302428256
77449,Harris County,TX,54.69094922737307
77450,Harris County,TX,34.381898454746135
77469,Fort Bend County,TX,26.43487858719647
77506,Harris County,TX,57.284768211920536
77530,Harris County,TX,53.09050772626932
77546,Galveston County,TX,23.509933774834437
77550,Galveston County,TX,17.604856512141282
77573,Galveston County,TX,7.9470198675496695
77578,Brazoria County,TX,63.30022075055187
77581,Brazoria County,TX,27.428256070640177
77584,Brazoria County,TX,84.05077262693158
77591,Galveston County,TX,78.64238410596026
77598,Harris County,TX,54.856512141280355
77619,Jefferson County,TX,68.76379690949227
77662,Orange County,TX,41.00441501103752
77701,Jefferson County,TX,75.05518763796908
77703,Jefferson County,TX,68.32229580573951
77802,Brazos County,TX,23.344370860927153
77845,Brazos County,TX,8.167770419426049
77859,Robertson County,TX,80.29801324503312
78130,Comal County,TX,20.52980132450331
78204,Bexar County,TX,82.83664459161147
78210,Bexar County,TX,22.29580573951435
78227,Bexar County,TX,32.94701986754967
78238,Bexar County,TX,70.91611479028698
78362,San Patricio County,TX,89.29359823399558
78401,Nueces County,TX,100
78411,Nueces County,TX,52.373068432671076
78550,Cameron County,TX,39.0728476821192
78574,Hidalgo County,TX,65.39735099337747
78582,Starr County,TX,64.40397350993378
78626,Williamson County,TX,54.13907284768212
78653,Travis County,TX,72.90286975717439
78681,Williamson County,TX,51.324503311258276
78745,Travis County,TX,56.84326710816777
78753,Travis County,TX,82.17439293598234
79104,Potter County,TX,98.50993377483444
79107,Potter County,TX,92.439293598234
79331,Dawson County,TX,67.3841059602649
79414,Lubbock County,TX,73.06843267108167
79424,Lubbock County,TX,56.01545253863135
79705,Midland County,TX,24.724061810154527
84010,Davis County,UT,68.76379690949227
84037,Davis County,UT,65.83885209713024
84040,Davis County,UT,73.17880794701986
84043,Utah County,UT,41.05960264900662
84044,Salt Lake County,UT,40.01103752759382
84058,Utah County,UT,78.53200883002206
84062,Utah County,UT,53.20088300220751
84074,Tooele County,UT,35.54083885209713
84081,Salt Lake County,UT,28.2560706401766
84087,Davis County,UT,94.75717439293598
84095,Salt Lake County,UT,88.24503311258279
84118,Salt Lake County,UT,15.894039735099339
84123,Salt Lake County,UT,19.315673289183223
84129,,UT,59.98896247240618
84651,Utah County,UT,68.43267108167771
84653,Utah County,UT,92.49448123620309
84720,Iron County,UT,81.73289183222958
05156,Windsor County,VT,61.36865342163355
20112,Prince William County,VA,71.57836644591612
22030,Fairfax County,VA,27.704194260485654
22039,Fairfax County,VA,92.3841059602649
22153,Fairfax County,VA,54.856512141280355
22181,Fairfax County,VA,87.85871964679912
22182,Fairfax County,VA,85.04415011037527
22204,Arlington County,VA,25.717439293598233
22207,Arlington County,VA,49.06181015452539
22303,Fairfax County,VA,69.92273730684326
22304,Alexandria city,VA,12.858719646799116
22306,Fairfax County,VA,26.71081677704194
22309,Fairfax County,VA,24.337748344370862
22315,Fairfax County,VA,52.64900662251656
22406,Stafford County,VA,79.74613686534217
22556,Stafford County,VA,88.18984547461368
22572,Richmond County,VA,90.67328918322296
22701,Culpeper County,VA,23.67549668874172
22802,Harrisonburg city,VA,79.69094922737307
22815,Rockingham County,VA,48.50993377483444
22851,Page County,VA,81.56732891832229
22901,Albemarle County,VA,30.4635761589404
22980,Waynesboro city,VA,7.008830022075055
23222,Richmond city,VA,15.2317880794702
23233,Henrico County,VA,78.2008830022075
23234,Chesterfield County,VA,17.660044150110377
23237,Chesterfield County,VA,85.09933774834437
23321,Chesapeake city,VA,44.03973509933775
23435,Suffolk city,VA,44.48123620309051
23452,Virginia Beach city,VA,19.867549668874172
23454,Virginia Beach city,VA,74.50331125827815
23504,Norfolk city,VA,24.061810154525386
23605,Newport News city,VA,46.35761589403973
23607,Newport News city,VA,18.101545253863137
23701,Portsmouth city,VA,44.48123620309051
23805,Petersburg city,VA,49.11699779249448
24012,Roanoke city,VA,26.600441501103756
24015,Roanoke city,VA,71.19205298013244
24016,Roanoke city,VA,49.83443708609271
24017,Roanoke city,VA,54.58057395143487
24019,Roanoke County,VA,51.65562913907284
24153,Salem city,VA,30.960264900662253
24343,Carroll County,VA,69.37086092715232
24426,Alleghany County,VA,94.92273730684326
24477,Augusta County,VA,56.622516556291394
24504,Lynchburg city,VA,80.24282560706402
24517,Campbell County,VA,96.30242825607064
24590,Albemarle County,VA,88.79690949227374
98005,King County,WA,80.07726269315674
98026,Snohomish County,WA,31.07064017660044
98028,King County,WA,70.08830022075055
98042,King County,WA,14.90066225165563
98053,King County,WA,90.45253863134658
98059,King County,WA,41.94260485651214
98103,King County,WA,42.99116997792494
98107,King County,WA,66.05960264900662
98108,King County,WA,69.86754966887418
98110,Kitsap County,WA,83.22295805739515
98116,King County,WA,66.83222958057395
98146,King County,WA,81.45695364238411
98277,Island County,WA,43.4878587196468
98290,Snohomish County,WA,38.576158940397356
98294,Snohomish County,WA,89.62472406181016
98335,Pierce County,WA,57.00883002207505
98375,Pierce County,WA,48.23399558498897
98520,Grays Harbor County,WA,82.72626931567328
98528,Mason County,WA,92.82560706401766
98626,Cowlitz County,WA,40.1766004415011
98632,Cowlitz County,WA,17.27373068432671
98942,Yakima County,WA,90.39735099337747
99337,Benton County,WA,24.116997792494484
99349,Grant County,WA,99.06181015452539
20002,District of Columbia,DC,3.7527593818984544
20020,District of Columbia,DC,1.2693156732891833
20032,District of Columbia,DC,3.642384105960265
25071,Kanawha County,WV,50.93818984547461
25404,Berkeley County,WV,35.430463576158935
25428,Berkeley County,WV,58.94039735099338
25523,Lincoln County,WV,98.06843267108167
25541,Cabell County,WV,63.52097130242825
25661,Mingo County,WV,44.09492273730684
25701,Cabell County,WV,42.93598233995585
25704,Wayne County,WV,74.11699779249447
25705,Cabell County,WV,81.34657836644593
25901,Fayette County,WV,84.87858719646799
26062,Hancock County,WV,9.657836644591612
26101,Wood County,WV,3.4216335540838854
26143,Wirt County,WV,93.15673289183223
26201,Upshur County,WV,69.03973509933775
26261,Nicholas County,WV,96.30242825607064
26301,Harrison County,WV,46.24724061810154
26501,Monongalia County,WV,46.13686534216336
26508,Monongalia County,WV,3.532008830022075
26554,Marion County,WV,60.98233995584989
53066,Waukesha County,WI,36.092715231788084
53143,Kenosha County,WI,16.501103752759384
53204,Milwaukee County,WI,5.187637969094923
53205,Milwaukee County,WI,30.022075055187635
53206,Milwaukee County,WI,7.891832229580574
53208,Milwaukee County,WI,9.7682119205298
53210,Milwaukee County,WI,28.36644591611479
53214,Milwaukee County,WI,10.099337748344372
53216,Milwaukee County,WI,25.055187637969095
53222,Milwaukee County,WI,52.86975717439294
53223,Milwaukee County,WI,14.293598233995585
53225,Milwaukee County,WI,9.326710816777043
53227,Milwaukee County,WI,32.11920529801324
53405,Racine County,WI,4.470198675496689
53511,Rock County,WI,5.6843267108167765
53532,Dane County,WI,65.06622516556291
53536,Rock County,WI,87.63796909492274
53546,Rock County,WI,15.45253863134658
53549,Jefferson County,WI,89.51434878587196
53589,Dane County,WI,90.23178807947019
53704,Dane County,WI,9.105960264900661
53705,Dane County,WI,48.56512141280353
53963,Dodge County,WI,50.93818984547461
54016,St. Croix County,WI,42.21854304635762
54110,Calumet County,WI,91.88741721854305
54401,Marathon County,WI,35.76158940397351
54521,Vilas County,WI,89.34878587196468
54650,La Crosse County,WI,94.20529801324503
54660,Monroe County,WI,45.971302428256074
54701,Eau Claire County,WI,70.30905077262693
54729,Chippewa County,WI,30.187637969094922
54736,Pepin County,WI,97.46136865342163
54812,Barron County,WI,96.19205298013244
54848,Rusk County,WI,83.49889624724062
54868,Barron County,WI,62.36203090507726
54880,Douglas County,WI,13.134657836644593
54915,Outagamie County,WI,31.62251655629139
54923,Green Lake County,WI,88.85209713024283
54929,Waupaca County,WI,86.9757174392936
54935,Fond du Lac County,WI,42.66004415011038
54971,Fond du Lac County,WI,82.6710816777042
54983,Waupaca County,WI,85.70640176600442
82718,Campbell County,WY,79.52538631346579
