ZipCode,county,state,Adult,Retirement,Geriatric
35058,Cullman County,AL,80.71748878923766,NA,NA
35117,Jefferson County,AL,NA,NA,99.15492957746478
35160,Talladega County,AL,NA,53.43915343915344,NA
35172,Blount County,AL,NA,99.73544973544973,NA
35217,Jefferson County,AL,58.29596412556054,NA,NA
35242,Shelby County,AL,34.08071748878923,NA,NA
35243,Jefferson County,AL,NA,NA,63.098591549295776
35957,Marshall County,AL,53.36322869955157,NA,NA
36078,Elmore County,AL,NA,NA,87.60563380281691
36116,Montgomery County,AL,21.524663677130047,NA,NA
36203,Calhoun County,AL,60.53811659192825,NA,NA
36305,Houston County,AL,NA,74.86772486772487,NA
36323,Coffee County,AL,NA,92.85714285714286,NA
36567,Baldwin County,AL,71.74887892376681,NA,NA
36701,Dallas County,AL,NA,NA,56.61971830985916
36832,Lee County,AL,NA,94.44444444444444,NA
99507,Anchorage Municipality,AK,35.874439461883405,NA,NA
85009,Maricopa County,AZ,NA,29.365079365079367,NA
85028,Maricopa County,AZ,86.09865470852019,NA,NA
85051,Maricopa County,AZ,NA,45.23809523809524,NA
85202,Maricopa County,AZ,NA,56.613756613756614,NA
85234,Maricopa County,AZ,NA,NA,90.98591549295774
85257,Maricopa County,AZ,76.23318385650224,NA,NA
85283,Maricopa County,AZ,NA,29.100529100529098,NA
85301,Maricopa County,AZ,6.278026905829597,NA,NA
85375,Maricopa County,AZ,NA,NA,1.4084507042253522
85392,Maricopa County,AZ,NA,58.730158730158735,NA
85395,Maricopa County,AZ,NA,53.17460317460318,NA
85635,Cochise County,AZ,NA,NA,36.61971830985916
85718,Pima County,AZ,NA,NA,20.56338028169014
85742,Pima County,AZ,NA,58.730158730158735,NA
85745,Pima County,AZ,NA,21.693121693121693,NA
86040,Coconino County,AZ,73.99103139013454,NA,NA
86409,Mohave County,AZ,NA,4.232804232804233,NA
71901,Garland County,AR,NA,52.64550264550265,43.94366197183099
72143,White County,AR,NA,NA,5.915492957746479
72205,Pulaski County,AR,NA,67.72486772486772,NA
72223,Pulaski County,AR,NA,72.4867724867725,NA
72715,Benton County,AR,NA,NA,21.408450704225352
72802,Pope County,AR,NA,NA,69.85915492957746
72823,Pope County,AR,NA,NA,89.85915492957747
72855,Logan County,AR,NA,94.70899470899471,NA
72903,Sebastian County,AR,79.37219730941703,NA,NA
90012,Los Angeles County,CA,NA,NA,36.056338028169016
90018,Los Angeles County,CA,42.600896860986545,NA,NA
90045,Los Angeles County,CA,NA,65.87301587301587,NA
90063,Los Angeles County,CA,NA,NA,59.71830985915493
90067,Los Angeles County,CA,NA,NA,79.15492957746478
90247,Los Angeles County,CA,NA,NA,54.08450704225351
90701,Los Angeles County,CA,NA,NA,92.3943661971831
90808,Los Angeles County,CA,NA,NA,89.5774647887324
90813,Los Angeles County,CA,NA,85.71428571428571,NA
91001,Los Angeles County,CA,66.81614349775785,NA,NA
91201,Los Angeles County,CA,NA,NA,65.63380281690141
91206,Los Angeles County,CA,NA,65.07936507936508,NA
91342,Los Angeles County,CA,NA,15.873015873015872,NA
91351,Los Angeles County,CA,73.54260089686099,NA,NA
91354,Los Angeles County,CA,NA,87.03703703703704,NA
91355,Los Angeles County,CA,NA,58.730158730158735,NA
91387,Los Angeles County,CA,NA,49.2063492063492,NA
91506,Los Angeles County,CA,NA,92.32804232804233,NA
91740,Los Angeles County,CA,NA,64.02116402116403,NA
91910,San Diego County,CA,NA,NA,11.549295774647888
91977,San Diego County,CA,NA,32.27513227513227,NA
92020,San Diego County,CA,23.766816143497756,7.4074074074074066,NA
92078,San Diego County,CA,NA,NA,27.605633802816904
92105,San Diego County,CA,56.502242152466366,NA,NA
92111,San Diego County,CA,NA,NA,30.422535211267604
92119,San Diego County,CA,NA,NA,77.1830985915493
92123,San Diego County,CA,74.88789237668162,NA,NA
92127,San Diego County,CA,NA,79.62962962962963,NA
92129,San Diego County,CA,NA,86.24338624338624,NA
92270,Riverside County,CA,NA,NA,3.0985915492957745
92314,San Bernardino County,CA,NA,96.03174603174604,NA
92530,Riverside County,CA,38.11659192825112,NA,NA
92583,Riverside County,CA,NA,78.3068783068783,NA
92591,Riverside County,CA,56.05381165919282,NA,NA
92592,Riverside County,CA,NA,NA,60.84507042253521
92596,Riverside County,CA,NA,89.94708994708994,NA
92626,Orange County,CA,80.26905829596413,NA,NA
92679,Orange County,CA,NA,72.22222222222221,NA
92705,Orange County,CA,NA,62.698412698412696,NA
92831,Orange County,CA,NA,51.05820105820106,NA
92870,Orange County,CA,NA,NA,14.929577464788732
93030,Ventura County,CA,NA,25.396825396825395,NA
93065,Ventura County,CA,NA,NA,17.464788732394364
93230,Kings County,CA,NA,18.253968253968253,NA
93405,San Luis Obispo County,CA,NA,NA,77.74647887323944
93550,Los Angeles County,CA,NA,NA,94.36619718309859
93616,Fresno County,CA,100,NA,NA
93662,Fresno County,CA,NA,98.4126984126984,NA
93706,Fresno County,CA,NA,NA,85.63380281690141
93722,Fresno County,CA,NA,17.46031746031746,NA
94541,Alameda County,CA,26.905829596412556,NA,NA
94621,Alameda County,CA,NA,75.92592592592592,NA
95120,Santa Clara County,CA,NA,60.05291005291006,NA
95136,Santa Clara County,CA,NA,NA,80.56338028169014
95203,San Joaquin County,CA,NA,89.15343915343915,NA
95204,San Joaquin County,CA,65.47085201793722,NA,NA
95206,San Joaquin County,CA,NA,73.01587301587301,NA
95242,San Joaquin County,CA,76.68161434977578,NA,NA
95348,Merced County,CA,NA,76.45502645502646,NA
95358,Stanislaus County,CA,72.19730941704036,NA,NA
95366,San Joaquin County,CA,NA,87.3015873015873,NA
95405,Sonoma County,CA,NA,NA,72.95774647887325
95422,Lake County,CA,NA,NA,75.49295774647888
95485,Lake County,CA,NA,99.73544973544973,NA
95618,Yolo County,CA,NA,NA,66.7605633802817
95648,Placer County,CA,NA,71.42857142857143,NA
95821,Sacramento County,CA,47.98206278026906,NA,NA
95926,Butte County,CA,36.771300448430495,NA,NA
95954,Butte County,CA,NA,NA,39.436619718309856
80016,Arapahoe County,CO,NA,21.164021164021165,NA
80022,Adams County,CO,NA,NA,76.05633802816901
80033,Jefferson County,CO,NA,71.95767195767195,NA
80111,Arapahoe County,CO,NA,NA,72.11267605633803
80205,Denver County,CO,13.452914798206278,NA,NA
80525,Larimer County,CO,NA,11.375661375661375,NA
80634,Weld County,CO,2.690582959641256,NA,NA
80909,El Paso County,CO,NA,NA,35.2112676056338
80916,El Paso County,CO,NA,77.5132275132275,92.67605633802816
80918,El Paso County,CO,NA,42.06349206349206,NA
81003,Pueblo County,CO,38.56502242152467,NA,NA
81004,Pueblo County,CO,NA,34.65608465608466,NA
81005,Pueblo County,CO,NA,26.71957671957672,39.718309859154935
81006,Pueblo County,CO,92.82511210762333,NA,NA
81007,Pueblo County,CO,NA,NA,56.056338028169016
81416,Delta County,CO,79.82062780269058,NA,NA
81501,Mesa County,CO,NA,NA,74.92957746478874
81504,Mesa County,CO,NA,88.88888888888889,NA
06106,Hartford County,CT,NA,NA,32.3943661971831
06437,New Haven County,CT,NA,28.04232804232804,NA
06484,Fairfield County,CT,NA,NA,16.056338028169016
06488,New Haven County,CT,NA,44.70899470899471,NA
06492,New Haven County,CT,NA,NA,4.788732394366197
06513,New Haven County,CT,NA,9.523809523809524,NA
06514,New Haven County,CT,NA,NA,38.87323943661972
06606,Fairfield County,CT,NA,NA,40.845070422535215
06615,Fairfield County,CT,NA,NA,82.53521126760563
06712,New Haven County,CT,94.17040358744396,NA,NA
06770,New Haven County,CT,26.45739910313901,NA,NA
06810,Fairfield County,CT,NA,NA,30.140845070422532
06824,Fairfield County,CT,NA,NA,60.281690140845065
19720,New Castle County,DE,3.587443946188341,NA,NA
19808,New Castle County,DE,25.112107623318387,NA,NA
19963,Sussex County,DE,NA,43.65079365079365,NA
32137,Flagler County,FL,NA,7.142857142857142,NA
32141,Volusia County,FL,NA,61.904761904761905,NA
32159,Lake County,FL,NA,NA,4.507042253521127
32216,Duval County,FL,NA,NA,32.67605633802817
32301,Leon County,FL,NA,NA,69.57746478873239
32446,Jackson County,FL,90.5829596412556,NA,NA
32506,Escambia County,FL,16.591928251121075,NA,NA
32626,Levy County,FL,NA,95.5026455026455,NA
32735,Lake County,FL,NA,NA,98.59154929577466
32738,Volusia County,FL,NA,81.21693121693121,NA
32763,Volusia County,FL,NA,NA,29.014084507042252
32771,Seminole County,FL,NA,41.269841269841265,NA
32809,Orange County,FL,NA,NA,52.95774647887323
32824,Orange County,FL,NA,NA,44.50704225352113
32837,Orange County,FL,NA,NA,57.183098591549296
32904,Brevard County,FL,NA,52.116402116402114,NA
32935,Brevard County,FL,19.730941704035875,NA,NA
32955,Brevard County,FL,60.98654708520179,NA,NA
32958,Indian River County,FL,NA,14.02116402116402,NA
33023,Broward County,FL,NA,NA,51.267605633802816
33139,Miami-Dade County,FL,NA,NA,11.267605633802818
33157,Miami-Dade County,FL,NA,NA,23.661971830985916
33173,Miami-Dade County,FL,NA,NA,18.028169014084508
33175,Miami-Dade County,FL,NA,27.513227513227513,NA
33184,Miami-Dade County,FL,84.30493273542601,NA,NA
33328,Broward County,FL,88.78923766816143,NA,46.478873239436616
33463,Palm Beach County,FL,NA,NA,58.87323943661972
33478,Palm Beach County,FL,NA,90.74074074074075,NA
33498,Palm Beach County,FL,NA,NA,61.12676056338028
33566,Hillsborough County,FL,NA,76.71957671957672,NA
33604,Hillsborough County,FL,26.00896860986547,NA,NA
33609,Hillsborough County,FL,NA,NA,70.70422535211267
33615,Hillsborough County,FL,NA,37.301587301587304,NA
33625,Hillsborough County,FL,NA,75.39682539682539,NA
33710,Pinellas County,FL,NA,NA,45.91549295774648
33756,Pinellas County,FL,52.91479820627802,NA,NA
33765,Pinellas County,FL,NA,NA,84.50704225352112
33771,Pinellas County,FL,NA,NA,25.633802816901408
33781,Pinellas County,FL,NA,80.68783068783068,NA
33805,Polk County,FL,NA,41.00529100529101,NA
33830,Polk County,FL,39.46188340807175,NA,NA
33852,Highlands County,FL,NA,NA,6.197183098591549
33872,Highlands County,FL,NA,47.883597883597886,NA
33880,Polk County,FL,NA,NA,31.83098591549296
33881,Polk County,FL,NA,38.62433862433862,NA
33904,Lee County,FL,NA,NA,7.042253521126761
33905,Lee County,FL,40.80717488789238,71.6931216931217,NA
33909,Lee County,FL,NA,51.587301587301596,NA
33914,Lee County,FL,46.18834080717489,NA,21.69014084507042
33922,Lee County,FL,NA,NA,92.11267605633803
33948,Charlotte County,FL,NA,47.08994708994709,54.929577464788736
33952,Charlotte County,FL,NA,NA,35.774647887323944
33982,Charlotte County,FL,NA,89.41798941798942,NA
33990,Lee County,FL,77.57847533632287,NA,NA
34105,Collier County,FL,93.72197309417041,NA,NA
34113,Collier County,FL,NA,68.78306878306879,NA
34208,Manatee County,FL,NA,NA,67.32394366197182
34232,Sarasota County,FL,NA,38.095238095238095,NA
34234,Sarasota County,FL,NA,NA,44.225352112676056
34269,DeSoto County,FL,NA,98.14814814814815,NA
34287,Sarasota County,FL,NA,NA,15.492957746478872
34293,Sarasota County,FL,NA,6.613756613756613,NA
34436,Citrus County,FL,NA,86.77248677248677,NA
34442,Citrus County,FL,NA,66.4021164021164,NA
34452,Citrus County,FL,73.09417040358744,NA,NA
34609,Hernando County,FL,NA,NA,23.380281690140844
34743,Osceola County,FL,NA,NA,65.07042253521126
34744,Osceola County,FL,NA,46.03174603174603,52.394366197183096
34748,Lake County,FL,20.62780269058296,NA,NA
34759,Polk County,FL,43.946188340807176,NA,NA
34951,St. Lucie County,FL,NA,80.95238095238095,NA
34952,St. Lucie County,FL,NA,9.25925925925926,NA
34953,St. Lucie County,FL,7.623318385650224,NA,NA
34957,Martin County,FL,NA,39.94708994708995,NA
34974,Okeechobee County,FL,NA,47.883597883597886,NA
30016,Newton County,GA,NA,NA,51.54929577464789
30022,Fulton County,GA,45.2914798206278,NA,NA
30035,DeKalb County,GA,NA,84.65608465608466,NA
30080,Cobb County,GA,NA,70.37037037037037,NA
30110,Haralson County,GA,NA,87.83068783068782,NA
30120,Bartow County,GA,NA,52.38095238095239,NA
30143,Pickens County,GA,NA,NA,42.25352112676056
30188,Cherokee County,GA,NA,NA,37.46478873239437
30189,Cherokee County,GA,NA,57.936507936507944,NA
30223,Spalding County,GA,NA,43.386243386243386,NA
30328,Fulton County,GA,75.33632286995515,NA,NA
30342,Fulton County,GA,96.41255605381166,NA,NA
30518,Gwinnett County,GA,NA,42.06349206349206,47.88732394366197
30528,White County,GA,NA,NA,68.73239436619718
30534,Dawson County,GA,NA,NA,67.88732394366197
30577,Stephens County,GA,51.569506726457405,NA,58.87323943661972
30628,Madison County,GA,NA,NA,94.08450704225352
31024,Putnam County,GA,NA,NA,35.49295774647888
31031,Wilkinson County,GA,93.27354260089686,NA,NA
31092,Dooly County,GA,NA,96.29629629629629,NA
31204,Bibb County,GA,NA,NA,42.53521126760563
31419,Chatham County,GA,NA,38.35978835978836,NA
31533,Coffee County,GA,70.85201793721974,NA,NA
31620,Cook County,GA,83.85650224215246,NA,NA
31707,Dougherty County,GA,NA,NA,52.112676056338024
31768,Colquitt County,GA,NA,NA,63.66197183098592
31903,Muscogee County,GA,NA,NA,64.50704225352113
39837,Miller County,GA,NA,NA,89.01408450704226
96701,Honolulu County,HI,NA,NA,10.422535211267606
96734,Honolulu County,HI,NA,11.64021164021164,9.014084507042254
96744,Honolulu County,HI,20.179372197309416,1.5873015873015872,NA
96778,Hawaii County,HI,NA,74.07407407407408,NA
83501,Nez Perce County,ID,16.143497757847534,11.904761904761903,NA
83616,Ada County,ID,NA,NA,13.802816901408452
83704,Ada County,ID,NA,2.1164021164021163,NA
60002,Lake County,IL,NA,NA,62.53521126760564
60014,McHenry County,IL,NA,NA,22.535211267605636
60044,Lake County,IL,NA,NA,65.63380281690141
60060,Lake County,IL,NA,17.195767195767196,NA
60062,Cook County,IL,NA,4.761904761904762,0.28169014084507044
60074,Cook County,IL,NA,44.17989417989418,NA
60098,McHenry County,IL,NA,16.137566137566136,NA
60101,DuPage County,IL,NA,NA,16.619718309859156
60115,DeKalb County,IL,46.63677130044843,NA,32.11267605633803
60123,Kane County,IL,NA,NA,18.87323943661972
60130,Cook County,IL,59.19282511210763,NA,NA
60148,DuPage County,IL,NA,5.291005291005291,NA
60152,McHenry County,IL,84.75336322869956,NA,NA
60156,McHenry County,IL,NA,NA,78.87323943661971
60169,Cook County,IL,NA,63.75661375661375,NA
60174,Kane County,IL,NA,45.767195767195766,NA
60175,Kane County,IL,30.04484304932735,NA,NA
60178,DeKalb County,IL,NA,NA,85.07042253521126
60181,DuPage County,IL,NA,NA,46.19718309859155
60191,DuPage County,IL,NA,60.317460317460316,NA
60441,Will County,IL,NA,32.804232804232804,NA
60445,Cook County,IL,NA,61.37566137566137,NA
60462,Cook County,IL,28.699551569506728,NA,NA
60465,Cook County,IL,NA,NA,56.901408450704224
60473,Cook County,IL,NA,NA,29.859154929577464
60546,Cook County,IL,NA,48.94179894179894,NA
60560,Kendall County,IL,NA,NA,70.14084507042253
60608,Cook County,IL,NA,NA,7.605633802816901
60615,Cook County,IL,NA,19.841269841269842,NA
60619,Cook County,IL,8.071748878923767,NA,1.971830985915493
60625,Cook County,IL,NA,NA,19.43661971830986
60639,Cook County,IL,11.210762331838566,NA,NA
60640,Cook County,IL,NA,67.1957671957672,NA
60645,Cook County,IL,39.91031390134529,24.6031746031746,NA
60649,Cook County,IL,NA,NA,18.30985915492958
60655,Cook County,IL,30.94170403587444,NA,NA
60660,Cook County,IL,69.05829596412556,NA,NA
60707,Cook County,IL,NA,NA,9.295774647887324
61008,Boone County,IL,NA,22.486772486772484,NA
61103,Winnebago County,IL,NA,57.67195767195767,NA
61362,Bureau County,IL,NA,NA,81.12676056338029
61401,Knox County,IL,70.4035874439462,34.39153439153439,NA
61443,Henry County,IL,NA,61.111111111111114,24.507042253521128
61614,Peoria County,IL,NA,43.12169312169312,NA
61822,Champaign County,IL,87.4439461883408,NA,NA
62034,Madison County,IL,NA,NA,61.97183098591549
62258,St. Clair County,IL,NA,NA,94.92957746478872
62305,Adams County,IL,NA,NA,70.98591549295776
62656,Logan County,IL,81.61434977578476,NA,NA
46060,Hamilton County,IN,NA,32.01058201058201,NA
46062,Hamilton County,IN,NA,NA,48.732394366197184
46107,Marion County,IN,89.68609865470853,82.53968253968253,NA
46217,Marion County,IN,NA,NA,77.1830985915493
46227,Marion County,IN,NA,5.555555555555555,NA
46307,Lake County,IN,NA,1.0582010582010581,NA
46311,Lake County,IN,NA,20.105820105820104,NA
46323,Lake County,IN,NA,20.8994708994709,38.028169014084504
46545,St. Joseph County,IN,56.95067264573991,NA,NA
46561,St. Joseph County,IN,NA,94.97354497354497,86.76056338028168
46563,Marshall County,IN,NA,NA,20
46901,Howard County,IN,NA,3.439153439153439,NA
47006,Ripley County,IN,78.9237668161435,NA,NA
47111,Clark County,IN,65.91928251121077,NA,NA
47371,Jay County,IN,NA,NA,52.67605633802817
47567,Pike County,IN,NA,91.005291005291,NA
47591,Knox County,IN,39.01345291479821,NA,NA
47714,Vanderburgh County,IN,14.798206278026907,NA,NA
47803,Vigo County,IN,NA,NA,40.845070422535215
47805,Vigo County,IN,NA,83.86243386243386,NA
47904,Tippecanoe County,IN,NA,NA,80
47909,Tippecanoe County,IN,44.843049327354265,NA,NA
51501,Pottawattamie County,IA,NA,50,NA
51503,Pottawattamie County,IA,10.31390134529148,3.7037037037037033,NA
52002,Dubuque County,IA,NA,NA,81.40845070422536
52601,Des Moines County,IA,13.004484304932735,NA,NA
52772,Cedar County,IA,NA,NA,97.1830985915493
66030,Johnson County,KS,NA,67.98941798941799,NA
66032,Anderson County,KS,NA,NA,97.74647887323944
66044,Douglas County,KS,75.7847533632287,NA,NA
66062,Johnson County,KS,NA,NA,58.309859154929576
66221,Johnson County,KS,NA,85.97883597883597,NA
66607,Shawnee County,KS,NA,95.23809523809523,NA
66701,Bourbon County,KS,NA,NA,78.0281690140845
67052,Sedgwick County,KS,NA,97.08994708994709,NA
67205,Sedgwick County,KS,NA,NA,98.30985915492958
67801,Ford County,KS,NA,NA,81.69014084507043
40047,Bullitt County,KY,31.838565022421523,NA,NA
40203,Jefferson County,KY,23.318385650224215,NA,NA
40214,Jefferson County,KY,8.520179372197308,17.989417989417987,NA
40217,Jefferson County,KY,NA,93.12169312169311,NA
40218,Jefferson County,KY,NA,46.82539682539682,NA
40245,Jefferson County,KY,57.847533632286996,NA,NA
40291,Jefferson County,KY,18.83408071748879,NA,NA
40324,Scott County,KY,NA,26.190476190476193,NA
40342,Anderson County,KY,37.66816143497758,NA,NA
40353,Montgomery County,KY,22.869955156950674,NA,NA
40361,Bourbon County,KY,NA,66.93121693121694,NA
40391,Clark County,KY,NA,14.814814814814813,NA
40409,Rockcastle County,KY,99.10313901345292,NA,NA
40422,Boyle County,KY,NA,56.87830687830689,NA
40502,Fayette County,KY,NA,NA,48.16901408450705
40508,Fayette County,KY,86.99551569506725,NA,NA
40513,Fayette County,KY,NA,99.20634920634922,NA
40701,Whitley County,KY,NA,15.343915343915343,27.887323943661972
40831,Harlan County,KY,92.37668161434978,NA,NA
41005,Boone County,KY,NA,64.28571428571429,NA
41015,Kenton County,KY,28.251121076233183,NA,NA
41071,Campbell County,KY,NA,40.74074074074074,NA
41095,Gallatin County,KY,NA,99.47089947089947,NA
41143,Carter County,KY,NA,NA,61.97183098591549
41465,Magoffin County,KY,NA,77.77777777777779,NA
41701,Perry County,KY,NA,72.4867724867725,NA
42029,Marshall County,KY,82.0627802690583,NA,NA
42101,Warren County,KY,NA,18.78306878306878,NA
42141,Barren County,KY,NA,8.994708994708994,NA
42256,Logan County,KY,90.13452914798206,NA,NA
42701,Hardin County,KY,NA,10.317460317460316,NA
42717,Cumberland County,KY,NA,NA,73.23943661971832
42726,Grayson County,KY,NA,81.48148148148148,NA
70092,St. Bernard Parish,LA,NA,NA,86.19718309859155
70117,Orleans Parish,LA,24.2152466367713,NA,NA
70344,Terrebonne Parish,LA,NA,NA,95.2112676056338
70345,Lafourche Parish,LA,54.7085201793722,NA,NA
70441,St. Helena Parish,LA,95.06726457399103,NA,NA
70517,St. Martin Parish,LA,NA,22.22222222222222,NA
70538,St. Mary Parish,LA,NA,60.84656084656085,NA
70546,Jefferson Davis Parish,LA,NA,70.63492063492063,NA
70548,Vermilion Parish,LA,NA,NA,66.19718309859155
70633,Calcasieu Parish,LA,NA,93.65079365079364,NA
70810,East Baton Rouge Parish,LA,NA,30.423280423280424,NA
71111,Bossier Parish,LA,NA,15.608465608465607,NA
71291,Ouachita Parish,LA,NA,NA,25.352112676056336
71301,Rapides Parish,LA,NA,40.21164021164021,NA
04011,Cumberland County,ME,NA,29.894179894179896,NA
04901,Kennebec County,ME,NA,2.6455026455026456,NA
20602,Charles County,MD,NA,78.83597883597884,NA
20639,Calvert County,MD,NA,NA,91.26760563380282
20678,Calvert County,MD,NA,86.5079365079365,NA
20735,Prince George's County,MD,67.2645739910314,NA,NA
20854,Montgomery County,MD,NA,NA,37.46478873239437
21001,Harford County,MD,NA,73.80952380952381,NA
21217,Baltimore city,MD,NA,20.634920634920633,NA
21223,Baltimore city,MD,NA,55.82010582010582,NA
21229,Baltimore city,MD,59.64125560538116,NA,NA
21230,Baltimore city,MD,NA,61.64021164021164,NA
21771,Frederick County,MD,NA,74.86772486772487,NA
01002,Hampshire County,MA,NA,NA,61.69014084507042
01020,Hampden County,MA,4.932735426008969,NA,NA
01473,Worcester County,MA,91.92825112107623,NA,NA
01520,Worcester County,MA,NA,59.523809523809526,NA
01532,Worcester County,MA,55.60538116591929,NA,NA
01570,Worcester County,MA,NA,NA,19.154929577464788
01701,Middlesex County,MA,NA,6.878306878306878,NA
01721,Middlesex County,MA,NA,NA,67.6056338028169
01752,Middlesex County,MA,NA,15.079365079365079,NA
01756,Worcester County,MA,NA,NA,91.54929577464789
01776,Middlesex County,MA,48.4304932735426,NA,NA
01841,Essex County,MA,0,NA,NA
01923,Essex County,MA,NA,NA,2.2535211267605635
01970,Essex County,MA,NA,NA,6.478873239436619
02025,Norfolk County,MA,NA,NA,87.88732394366198
02048,Bristol County,MA,NA,NA,40.28169014084507
02149,Middlesex County,MA,NA,0.26455026455026454,NA
02152,Suffolk County,MA,12.556053811659194,NA,NA
02476,Middlesex County,MA,42.152466367713004,NA,NA
02649,Barnstable County,MA,41.70403587443946,NA,NA
02721,Bristol County,MA,0.4484304932735426,NA,NA
02740,Bristol County,MA,NA,0,NA
02745,Bristol County,MA,NA,8.465608465608465,NA
02777,Bristol County,MA,9.865470852017937,NA,NA
02780,Bristol County,MA,NA,0.7936507936507936,NA
48015,Macomb County,MI,NA,NA,86.47887323943661
48025,Oakland County,MI,NA,NA,67.04225352112675
48060,St. Clair County,MI,NA,5.026455026455026,NA
48067,Oakland County,MI,NA,50.52910052910053,NA
48073,Oakland County,MI,31.390134529147986,39.682539682539684,NA
48085,Oakland County,MI,33.18385650224215,NA,NA
48092,Macomb County,MI,NA,24.867724867724867,NA
48103,Washtenaw County,MI,NA,NA,15.211267605633802
48120,Wayne County,MI,NA,97.35449735449735,NA
48173,Wayne County,MI,NA,NA,65.35211267605634
48180,Wayne County,MI,NA,NA,2.8169014084507045
48184,Wayne County,MI,17.48878923766816,NA,NA
48186,Wayne County,MI,NA,13.492063492063492,NA
48205,Wayne County,MI,5.381165919282512,NA,NA
48238,Wayne County,MI,6.726457399103139,NA,NA
48301,Oakland County,MI,NA,NA,49.29577464788733
48302,Oakland County,MI,78.02690582959642,NA,NA
48309,Oakland County,MI,NA,NA,26.478873239436616
48310,Macomb County,MI,NA,NA,20.845070422535212
48313,Macomb County,MI,NA,NA,21.12676056338028
48317,Macomb County,MI,24.663677130044842,NA,NA
48323,Oakland County,MI,NA,50.79365079365079,NA
48324,Oakland County,MI,68.60986547085201,NA,NA
48363,Oakland County,MI,NA,NA,97.46478873239437
48412,Lapeer County,MI,NA,93.38624338624338,NA
48430,Genesee County,MI,NA,NA,22.253521126760564
48439,Genesee County,MI,NA,NA,12.394366197183098
48446,Lapeer County,MI,NA,NA,20.281690140845072
48461,Lapeer County,MI,NA,92.5925925925926,NA
48601,Saginaw County,MI,NA,2.380952380952381,NA
48638,Saginaw County,MI,NA,51.85185185185185,NA
48813,Eaton County,MI,NA,NA,37.183098591549296
48911,Ingham County,MI,NA,NA,30.985915492957744
49001,Kalamazoo County,MI,NA,65.34391534391534,NA
49036,Branch County,MI,NA,NA,34.92957746478873
49048,Kalamazoo County,MI,NA,34.92063492063492,NA
49099,St. Joseph County,MI,NA,NA,83.09859154929578
49202,Jackson County,MI,NA,35.714285714285715,NA
49307,Mecosta County,MI,NA,NA,48.45070422535211
49418,Kent County,MI,NA,73.28042328042328,NA
49431,Mason County,MI,NA,NA,25.633802816901408
49445,Muskegon County,MI,NA,23.28042328042328,NA
49509,Kent County,MI,14.349775784753364,NA,NA
49525,Kent County,MI,NA,NA,42.816901408450704
49546,Kent County,MI,NA,36.24338624338625,NA
49707,Alpena County,MI,NA,24.074074074074073,NA
49855,Marquette County,MI,17.040358744394617,NA,NA
49945,Houghton County,MI,NA,98.94179894179894,NA
55040,Isanti County,MN,NA,80.15873015873017,93.80281690140845
55103,Ramsey County,MN,52.46636771300448,NA,NA
55109,Ramsey County,MN,50.672645739910315,NA,33.52112676056338
55112,Ramsey County,MN,NA,NA,18.591549295774648
55113,Ramsey County,MN,NA,53.43915343915344,NA
55305,Hennepin County,MN,NA,NA,39.154929577464785
55330,Sherburne County,MN,47.08520179372198,NA,NA
55418,Hennepin County,MN,29.596412556053814,NA,NA
56187,Nobles County,MN,NA,82.27513227513228,53.239436619718305
56345,Morrison County,MN,32.28699551569507,NA,NA
56560,Clay County,MN,NA,NA,0.8450704225352111
38804,Lee County,MS,NA,NA,74.36619718309859
38821,Monroe County,MS,NA,77.24867724867724,NA
38826,Lee County,MS,NA,NA,84.22535211267605
38866,Lee County,MS,NA,NA,71.83098591549296
38930,Leflore County,MS,NA,NA,33.23943661971831
39042,Rankin County,MS,NA,33.5978835978836,NA
39056,Hinds County,MS,NA,NA,87.04225352112675
39110,Madison County,MS,NA,NA,34.647887323943664
39211,Hinds County,MS,NA,NA,41.971830985915496
39455,Lamar County,MS,NA,NA,96.3380281690141
39571,Harrison County,MS,NA,41.53439153439153,NA
63005,St. Louis County,MO,NA,NA,64.22535211267606
63123,St. Louis County,MO,NA,NA,3.3802816901408446
63125,St. Louis County,MO,NA,NA,13.239436619718308
63135,St. Louis County,MO,33.6322869955157,NA,NA
63138,St. Louis County,MO,NA,57.407407407407405,NA
63146,St. Louis County,MO,NA,NA,6.760563380281689
63303,St. Charles County,MO,NA,12.698412698412698,NA
63456,Monroe County,MO,NA,97.88359788359789,NA
63660,Washington County,MO,NA,NA,99.71830985915493
63801,Scott County,MO,NA,NA,17.183098591549296
63857,Dunklin County,MO,NA,59.78835978835979,NA
63933,Dunklin County,MO,99.55156950672645,NA,NA
63935,Ripley County,MO,63.67713004484305,NA,NA
64015,Jackson County,MO,NA,NA,47.32394366197183
64057,Jackson County,MO,NA,NA,57.74647887323944
64064,Jackson County,MO,62.33183856502242,NA,NA
64082,Jackson County,MO,NA,83.5978835978836,NA
64157,Clay County,MO,NA,73.54497354497354,NA
64850,Newton County,MO,NA,24.33862433862434,NA
65043,Callaway County,MO,NA,NA,88.16901408450704
65712,Lawrence County,MO,NA,88.09523809523809,NA
65803,Greene County,MO,NA,13.756613756613756,NA
68005,Sarpy County,NE,NA,NA,49.57746478873239
68131,Douglas County,NE,NA,NA,92.95774647887323
68132,Douglas County,NE,82.51121076233184,NA,NA
89102,Clark County,NV,NA,85.18518518518519,NA
89109,Clark County,NV,NA,NA,95.77464788732394
89130,Clark County,NV,NA,64.55026455026454,NA
89131,Clark County,NV,NA,56.08465608465608,NA
89431,Washoe County,NV,NA,47.354497354497354,NA
89521,Washoe County,NV,60.0896860986547,37.56613756613756,NA
89523,Washoe County,NV,NA,NA,56.33802816901409
03031,Hillsborough County,NH,NA,75.66137566137566,NA
03038,Rockingham County,NH,NA,NA,27.323943661971832
03055,Hillsborough County,NH,54.26008968609865,NA,NA
03570,Coos County,NH,NA,87.56613756613757,NA
03841,Rockingham County,NH,95.51569506726457,NA,NA
03848,Rockingham County,NH,NA,94.17989417989418,NA
03868,Strafford County,NH,NA,NA,46.76056338028169
07010,Bergen County,NJ,NA,NA,50.42253521126761
07017,Essex County,NJ,1.7937219730941705,NA,NA
07024,Bergen County,NJ,NA,49.735449735449734,NA
07090,Union County,NJ,NA,76.19047619047619,NA
07206,Union County,NJ,NA,42.857142857142854,NA
07676,Bergen County,NJ,NA,NA,83.94366197183099
07677,Bergen County,NJ,NA,95.76719576719577,NA
07728,Monmouth County,NJ,NA,16.402116402116402,NA
07882,Warren County,NJ,NA,NA,72.67605633802818
08003,Camden County,NJ,NA,48.41269841269841,NA
08012,Camden County,NJ,NA,NA,44.7887323943662
08050,Ocean County,NJ,41.25560538116592,NA,NA
08085,Gloucester County,NJ,NA,98.67724867724867,NA
08087,Ocean County,NJ,NA,17.724867724867725,NA
08094,Gloucester County,NJ,NA,13.227513227513226,NA
08096,Gloucester County,NJ,NA,46.2962962962963,16.338028169014084
08105,Camden County,NJ,0.8968609865470852,NA,NA
08332,Cumberland County,NJ,NA,19.31216931216931,NA
08536,Middlesex County,NJ,64.57399103139014,NA,NA
08742,Ocean County,NJ,NA,NA,36.33802816901409
08757,Ocean County,NJ,NA,3.1746031746031744,NA
08809,Hunterdon County,NJ,94.61883408071749,NA,NA
08817,Middlesex County,NJ,22.421524663677133,NA,NA
88210,Eddy County,NM,NA,70.8994708994709,NA
10021,New York County,NY,NA,28.57142857142857,NA
10033,New York County,NY,NA,64.81481481481481,NA
10035,New York County,NY,NA,44.44444444444444,NA
10453,Bronx County,NY,NA,8.201058201058201,NA
10467,Bronx County,NY,NA,37.83068783068783,NA
10473,Bronx County,NY,5.829596412556054,NA,NA
10573,Westchester County,NY,NA,76.98412698412699,NA
10956,Rockland County,NY,NA,NA,29.295774647887324
11040,Nassau County,NY,NA,NA,31.549295774647888
11209,Kings County,NY,NA,NA,12.957746478873238
11214,Kings County,NY,NA,12.962962962962962,NA
11215,Kings County,NY,NA,36.77248677248677,NA
11218,Kings County,NY,NA,NA,5.352112676056338
11230,Kings County,NY,NA,10.052910052910052,NA
11238,Kings County,NY,21.076233183856502,NA,NA
11365,Queens County,NY,NA,25.925925925925924,NA
11366,Queens County,NY,NA,NA,70.4225352112676
11379,Queens County,NY,NA,NA,83.38028169014085
11385,Queens County,NY,10.762331838565023,NA,NA
11415,Queens County,NY,NA,80.42328042328042,NA
11435,Queens County,NY,43.49775784753363,18.51851851851852,NA
11710,Nassau County,NY,NA,NA,38.309859154929576
11766,Suffolk County,NY,NA,NA,82.8169014084507
11787,Suffolk County,NY,NA,42.592592592592595,NA
12180,Rensselaer County,NY,NA,8.73015873015873,NA
12182,Rensselaer County,NY,58.744394618834086,NA,NA
12308,Schenectady County,NY,43.04932735426009,NA,NA
12446,Ulster County,NY,NA,83.06878306878306,NA
12528,Ulster County,NY,NA,NA,85.91549295774648
12828,Washington County,NY,NA,NA,60.56338028169014
12866,Saratoga County,NY,15.246636771300448,NA,NA
12885,Warren County,NY,NA,NA,94.64788732394366
13030,Madison County,NY,NA,NA,95.49295774647887
13204,Onondaga County,NY,12.10762331838565,NA,NA
13208,Onondaga County,NY,NA,NA,82.25352112676056
13480,Oneida County,NY,NA,NA,100
13760,Broome County,NY,NA,NA,1.1267605633802817
13815,Chenango County,NY,NA,NA,32.95774647887324
14005,Genesee County,NY,NA,97.61904761904762,NA
14616,Monroe County,NY,NA,7.936507936507936,NA
27105,Forsyth County,NC,2.242152466367713,NA,NA
27106,Forsyth County,NC,NA,NA,12.112676056338028
27262,Guilford County,NC,NA,NA,53.80281690140845
27295,Davidson County,NC,NA,NA,2.535211267605634
27325,Moore County,NC,NA,NA,96.05633802816902
27405,Guilford County,NC,NA,NA,23.943661971830984
27407,Guilford County,NC,NA,41.7989417989418,NA
27514,Orange County,NC,NA,33.06878306878307,NA
27592,Wake County,NC,NA,NA,81.97183098591549
27604,Wake County,NC,NA,47.61904761904761,88.45070422535211
27704,Durham County,NC,NA,NA,38.59154929577465
27712,Durham County,NC,NA,NA,40.563380281690144
27817,Beaufort County,NC,NA,84.92063492063492,NA
27823,Halifax County,NC,NA,NA,96.61971830985917
27889,Beaufort County,NC,NA,69.31216931216932,NA
28025,Cabarrus County,NC,NA,NA,10.140845070422536
28027,Cabarrus County,NC,19.282511210762333,6.349206349206349,NA
28146,Rowan County,NC,34.97757847533632,NA,NA
28211,Mecklenburg County,NC,32.73542600896861,NA,NA
28301,Cumberland County,NC,NA,66.66666666666666,NA
28303,Cumberland County,NC,64.12556053811659,51.32275132275132,NA
28311,Cumberland County,NC,NA,NA,43.38028169014084
28345,Richmond County,NC,NA,82.01058201058201,NA
28405,New Hanover County,NC,NA,35.18518518518518,NA
28428,New Hanover County,NC,91.4798206278027,NA,NA
28451,Brunswick County,NC,30.493273542600896,NA,NA
28461,Brunswick County,NC,NA,40.476190476190474,NA
28469,Brunswick County,NC,NA,NA,85.35211267605634
28501,Lenoir County,NC,NA,NA,59.436619718309856
28562,Craven County,NC,NA,NA,13.521126760563378
28655,Burke County,NC,NA,2.91005291005291,NA
28677,Iredell County,NC,NA,23.015873015873016,NA
58504,Burleigh County,ND,NA,39.41798941798942,NA
43019,Knox County,OH,NA,NA,76.33802816901408
43050,Knox County,OH,8.968609865470851,NA,NA
43078,Champaign County,OH,35.42600896860987,NA,NA
43110,Franklin County,OH,NA,10.582010582010582,NA
43113,Pickaway County,OH,NA,NA,7.323943661971831
43146,Pickaway County,OH,NA,NA,90.4225352112676
43147,Fairfield County,OH,NA,NA,50.140845070422536
43162,Madison County,OH,NA,NA,78.30985915492957
43204,Franklin County,OH,NA,55.026455026455025,NA
43207,Franklin County,OH,1.345291479820628,NA,NA
43231,Franklin County,OH,51.569506726457405,NA,NA
43334,Morrow County,OH,NA,70.1058201058201,NA
43537,Lucas County,OH,NA,NA,28.732394366197184
43615,Lucas County,OH,NA,3.968253968253968,NA
43701,Muskingum County,OH,NA,NA,1.6901408450704223
43832,Tuscarawas County,OH,68.16143497757847,NA,NA
43920,Columbiana County,OH,NA,48.67724867724868,NA
43938,Jefferson County,OH,61.88340807174888,NA,NA
43950,Belmont County,OH,NA,NA,34.08450704225352
43953,Jefferson County,OH,NA,28.306878306878307,NA
44012,Lorain County,OH,NA,6.084656084656085,NA
44040,Cuyahoga County,OH,NA,96.82539682539682,NA
44041,Ashtabula County,OH,NA,NA,26.197183098591548
44077,Lake County,OH,NA,1.3227513227513228,NA
44095,Lake County,OH,NA,NA,3.943661971830986
44106,Cuyahoga County,OH,11.659192825112108,NA,NA
44125,Cuyahoga County,OH,NA,9.788359788359788,NA
44203,Summit County,OH,NA,NA,5.633802816901409
44266,Portage County,OH,NA,NA,4.225352112676056
44408,Columbiana County,OH,NA,NA,50.985915492957744
44473,Trumbull County,OH,NA,NA,93.52112676056338
44484,Trumbull County,OH,NA,14.285714285714285,NA
44515,Mahoning County,OH,NA,12.433862433862434,17.74647887323944
44706,Stark County,OH,NA,50.264550264550266,NA
44805,Ashland County,OH,13.901345291479823,NA,NA
44905,Richland County,OH,NA,NA,66.19718309859155
45011,Butler County,OH,NA,1.8518518518518516,11.830985915492958
45013,Butler County,OH,NA,NA,3.6619718309859155
45014,Butler County,OH,NA,NA,19.718309859154928
45050,Butler County,OH,NA,NA,80.28169014084507
45106,Clermont County,OH,NA,74.33862433862434,NA
45212,Hamilton County,OH,NA,68.51851851851852,NA
45231,Hamilton County,OH,9.417040358744394,NA,NA
45233,Hamilton County,OH,NA,NA,74.08450704225352
45247,Hamilton County,OH,NA,NA,30.704225352112672
45385,Greene County,OH,NA,NA,8.169014084507042
45387,Greene County,OH,97.75784753363229,NA,NA
45431,Montgomery County,OH,NA,NA,41.40845070422535
45601,Ross County,OH,NA,NA,0
45656,Jackson County,OH,NA,74.60317460317461,NA
45662,Scioto County,OH,3.1390134529147984,NA,NA
73003,Oklahoma County,OK,NA,69.04761904761905,NA
73110,Oklahoma County,OK,NA,43.91534391534391,NA
73170,Cleveland County,OK,NA,16.666666666666664,NA
73942,Texas County,OK,84.75336322869956,NA,NA
74036,Rogers County,OK,NA,85.44973544973546,NA
74437,Okmulgee County,OK,NA,NA,71.54929577464789
74447,Okmulgee County,OK,NA,NA,47.6056338028169
97060,Multnomah County,OR,NA,NA,73.52112676056338
97128,Yamhill County,OR,NA,32.53968253968254,NA
97146,Clatsop County,OR,NA,NA,90.14084507042254
97233,Multnomah County,OR,17.937219730941703,NA,NA
97306,Marion County,OR,NA,68.25396825396825,NA
97338,Polk County,OR,NA,83.33333333333334,NA
97479,Douglas County,OR,NA,63.49206349206349,NA
97739,Deschutes County,OR,NA,79.36507936507937,NA
97759,Deschutes County,OR,NA,NA,88.73239436619718
97814,Baker County,OR,47.53363228699551,NA,NA
15108,Allegheny County,PA,NA,NA,9.577464788732394
15206,Allegheny County,PA,NA,NA,55.49295774647888
15223,Allegheny County,PA,NA,88.62433862433863,NA
15332,Washington County,PA,89.23766816143498,NA,NA
15644,Westmoreland County,PA,NA,39.15343915343915,NA
15714,Cambria County,PA,NA,92.06349206349206,NA
16117,Lawrence County,PA,NA,NA,28.450704225352112
16201,Armstrong County,PA,NA,10.846560846560847,14.084507042253522
16602,Blair County,PA,NA,14.550264550264549,NA
16652,Huntingdon County,PA,NA,21.428571428571427,NA
17113,Dauphin County,PA,50.224215246636774,NA,NA
17331,York County,PA,NA,0.5291005291005291,NA
17545,Lancaster County,PA,NA,35.978835978835974,NA
17837,Union County,PA,NA,NA,24.225352112676056
18042,Northampton County,PA,NA,4.497354497354497,NA
18052,Lehigh County,PA,NA,NA,22.816901408450704
18064,Northampton County,PA,NA,26.455026455026452,NA
18301,Monroe County,PA,NA,33.86243386243386,NA
18360,Monroe County,PA,NA,NA,14.366197183098592
18407,Lackawanna County,PA,NA,63.227513227513235,NA
18507,Lackawanna County,PA,NA,96.56084656084656,NA
18508,Lackawanna County,PA,NA,52.910052910052904,NA
18966,Bucks County,PA,18.385650224215247,NA,NA
18974,Bucks County,PA,NA,12.16931216931217,NA
19073,Delaware County,PA,NA,NA,55.21126760563381
19083,Delaware County,PA,NA,NA,27.042253521126757
19111,Philadelphia County,PA,4.484304932735426,NA,NA
19114,Philadelphia County,PA,NA,23.544973544973544,NA
19116,Philadelphia County,PA,NA,NA,28.169014084507044
19120,Philadelphia County,PA,NA,5.82010582010582,NA
19125,Philadelphia County,PA,NA,65.60846560846561,NA
19128,Philadelphia County,PA,NA,31.48148148148148,NA
19136,Philadelphia County,PA,NA,30.158730158730158,NA
19150,Philadelphia County,PA,34.52914798206278,NA,NA
19390,Chester County,PA,NA,NA,57.74647887323944
19403,Montgomery County,PA,NA,NA,5.070422535211268
19438,Montgomery County,PA,53.81165919282511,NA,NA
19464,Montgomery County,PA,27.3542600896861,NA,NA
19560,Berks County,PA,95.96412556053812,NA,NA
19602,Berks County,PA,NA,34.12698412698413,NA
02814,Providence County,RI,88.34080717488789,NA,NA
02864,Providence County,RI,NA,NA,8.732394366197182
02889,Kent County,RI,81.16591928251121,NA,NA
02917,Providence County,RI,NA,NA,79.71830985915493
29201,Richland County,SC,NA,NA,99.43661971830986
29303,Spartanburg County,SC,NA,66.13756613756614,NA
29316,Spartanburg County,SC,NA,93.91534391534393,79.43661971830987
29340,Cherokee County,SC,NA,62.43386243386243,NA
29341,Cherokee County,SC,NA,88.35978835978835,NA
29403,Charleston County,SC,49.775784753363226,NA,NA
29511,Horry County,SC,NA,NA,96.90140845070422
29611,Greenville County,SC,69.95515695067265,37.03703703703704,NA
29621,Anderson County,SC,NA,21.957671957671955,NA
29624,Anderson County,SC,NA,61.904761904761905,NA
29625,Anderson County,SC,74.43946188340807,NA,50.70422535211267
29627,Anderson County,SC,NA,67.46031746031747,NA
29669,Anderson County,SC,NA,69.57671957671958,NA
29678,Oconee County,SC,NA,NA,47.04225352112676
29730,York County,SC,61.43497757847533,NA,NA
29801,Aiken County,SC,NA,54.761904761904766,NA
57701,Pennington County,SD,NA,19.576719576719576,NA
57770,Shannon County,SD,87.89237668161435,NA,NA
37042,Montgomery County,TN,NA,81.74603174603175,NA
37072,Davidson County,TN,NA,29.629629629629626,NA
37080,Davidson County,TN,83.40807174887892,NA,NA
37087,Wilson County,TN,NA,27.77777777777778,33.80281690140845
37148,Sumner County,TN,44.39461883408072,NA,NA
37160,Bedford County,TN,NA,38.88888888888889,NA
37172,Robertson County,TN,NA,NA,58.59154929577465
37204,Davidson County,TN,NA,91.26984126984127,NA
37214,Davidson County,TN,NA,NA,90.70422535211267
37311,Bradley County,TN,NA,NA,64.7887323943662
37312,Bradley County,TN,NA,56.34920634920635,NA
37323,Bradley County,TN,NA,NA,51.54929577464789
37343,Hamilton County,TN,NA,25.132275132275133,NA
37355,Coffee County,TN,37.219730941704036,NA,NA
37388,Coffee County,TN,NA,NA,54.3661971830986
37404,Hamilton County,TN,72.6457399103139,NA,NA
37604,Washington County,TN,NA,22.75132275132275,NA
37664,Sullivan County,TN,NA,55.55555555555556,NA
37686,Sullivan County,TN,NA,91.53439153439153,NA
37743,Greene County,TN,NA,NA,10.704225352112676
37745,Greene County,TN,27.802690582959645,NA,NA
37821,Cocke County,TN,NA,NA,40
37914,Knox County,TN,40.35874439461883,NA,NA
37918,Knox County,TN,15.695067264573993,NA,NA
38114,Shelby County,TN,NA,36.507936507936506,NA
38128,Shelby County,TN,NA,NA,68.45070422535211
75020,Grayson County,TX,NA,NA,45.352112676056336
75034,Denton County,TX,NA,NA,43.098591549295776
75068,Denton County,TX,NA,NA,69.01408450704226
75071,Collin County,TX,NA,NA,71.26760563380282
75092,Grayson County,TX,NA,58.201058201058196,54.647887323943664
75135,Hunt County,TX,96.8609865470852,NA,NA
75143,Henderson County,TX,NA,89.68253968253968,NA
75144,Navarro County,TX,NA,NA,98.87323943661971
75156,Henderson County,TX,57.399103139013455,NA,NA
75165,Ellis County,TX,NA,NA,26.76056338028169
75231,Dallas County,TX,NA,NA,68.16901408450704
75241,Dallas County,TX,NA,NA,21.971830985915496
75248,Dallas County,TX,NA,30.687830687830687,NA
75287,Denton County,TX,45.2914798206278,NA,NA
75418,Fannin County,TX,NA,79.8941798941799,NA
75440,Rains County,TX,NA,84.39153439153439,NA
75751,Henderson County,TX,NA,NA,74.64788732394366
75904,Angelina County,TX,36.32286995515695,NA,NA
76013,Tarrant County,TX,NA,NA,31.26760563380282
76105,Tarrant County,TX,NA,26.984126984126984,NA
76119,Tarrant County,TX,NA,7.671957671957672,NA
76266,Denton County,TX,NA,NA,84.78873239436619
76634,Bosque County,TX,98.65470852017937,NA,NA
76661,Falls County,TX,NA,NA,78.30985915492957
76706,McLennan County,TX,NA,NA,25.070422535211268
76707,McLennan County,TX,NA,NA,89.29577464788733
77031,Harris County,TX,82.95964125560538,NA,NA
77351,Polk County,TX,NA,NA,69.29577464788733
77385,Montgomery County,TX,69.50672645739911,NA,NA
77494,Fort Bend County,TX,NA,19.047619047619047,NA
77498,Fort Bend County,TX,NA,NA,62.81690140845071
77510,Galveston County,TX,NA,NA,60
77547,Harris County,TX,98.20627802690582,NA,NA
77568,Galveston County,TX,NA,31.746031746031743,NA
77583,Brazoria County,TX,NA,78.3068783068783,NA
77706,Jefferson County,TX,85.65022421524664,NA,NA
77713,Jefferson County,TX,86.54708520179372,NA,NA
77833,Washington County,TX,51.12107623318386,NA,NA
77840,Brazos County,TX,NA,78.04232804232805,NA
78040,Webb County,TX,NA,46.56084656084656,NA
78041,Webb County,TX,NA,25.66137566137566,NA
78109,Bexar County,TX,55.15695067264574,NA,NA
78209,Bexar County,TX,NA,NA,45.07042253521127
78211,Bexar County,TX,NA,NA,72.3943661971831
78245,Bexar County,TX,NA,NA,49.57746478873239
78247,Bexar County,TX,62.78026905829597,NA,76.61971830985915
78264,Bexar County,TX,NA,NA,83.66197183098592
78363,Kleberg County,TX,NA,69.84126984126983,NA
78516,Hidalgo County,TX,NA,58.46560846560847,NA
78521,Cameron County,TX,NA,NA,12.676056338028168
78550,Cameron County,TX,NA,45.5026455026455,NA
78574,Hidalgo County,TX,NA,NA,45.352112676056336
78648,Caldwell County,TX,97.30941704035875,NA,NA
78702,Travis County,TX,NA,84.12698412698413,NA
79336,Hockley County,TX,NA,91.7989417989418,NA
79416,Lubbock County,TX,63.22869955156951,NA,NA
79424,Lubbock County,TX,NA,NA,16.901408450704224
79756,Ward County,TX,NA,90.21164021164022,NA
79905,El Paso County,TX,NA,NA,55.774647887323944
79912,El Paso County,TX,29.14798206278027,NA,NA
84003,Utah County,UT,49.327354260089685,NA,NA
84403,Weber County,UT,NA,NA,61.408450704225345
84405,Weber County,UT,NA,NA,63.38028169014085
05661,Lamoille County,VT,NA,NA,98.02816901408451
22003,Fairfax County,VA,NA,28.835978835978835,NA
22015,Fairfax County,VA,NA,54.232804232804234,NA
22042,Fairfax County,VA,NA,NA,75.77464788732394
22192,Prince William County,VA,NA,49.47089947089947,NA
22193,Prince William County,VA,NA,82.8042328042328,NA
22204,Arlington County,VA,NA,53.96825396825397,NA
22405,Stafford County,VA,NA,62.96296296296296,NA
22443,Westmoreland County,VA,NA,90.47619047619048,NA
22556,Stafford County,VA,NA,NA,73.80281690140845
22968,Greene County,VA,NA,NA,87.32394366197182
23188,James City County,VA,NA,NA,0.5633802816901409
23222,Richmond city,VA,NA,NA,43.66197183098591
23223,Henrico County,VA,4.0358744394618835,NA,NA
23321,Chesapeake city,VA,NA,NA,23.098591549295776
23451,Virginia Beach city,VA,NA,16.666666666666664,NA
23455,Virginia Beach city,VA,48.4304932735426,NA,14.647887323943662
23502,Norfolk city,VA,NA,35.44973544973545,NA
23936,Buckingham County,VA,NA,NA,93.2394366197183
24019,Roanoke County,VA,NA,30.952380952380953,NA
24301,Pulaski County,VA,66.3677130044843,NA,NA
24501,Lynchburg city,VA,NA,NA,49.014084507042256
24540,Danville city,VA,NA,31.216931216931215,NA
98003,King County,WA,NA,23.809523809523807,NA
98038,King County,WA,NA,NA,53.52112676056338
98092,King County,WA,NA,20.37037037037037,36.901408450704224
98520,Grays Harbor County,WA,NA,54.232804232804234,NA
98660,Clark County,WA,91.03139013452915,NA,NA
98661,Clark County,WA,NA,44.97354497354497,NA
98841,Okanogan County,WA,NA,79.1005291005291,NA
98901,Yakima County,WA,NA,55.29100529100529,NA
98944,Yakima County,WA,NA,NA,63.94366197183099
99205,Spokane County,WA,NA,57.14285714285714,NA
99206,Spokane County,WA,NA,NA,34.36619718309859
99208,Spokane County,WA,NA,NA,10.985915492957748
99301,Franklin County,WA,NA,NA,9.859154929577464
20002,District of Columbia,DC,7.174887892376682,NA,NA
20012,District of Columbia,DC,NA,NA,80.84507042253522
25177,Kanawha County,WV,NA,NA,15.774647887323944
25271,Jackson County,WV,NA,70.8994708994709,NA
25314,Kanawha County,WV,NA,NA,91.83098591549296
25508,Logan County,WV,NA,NA,75.21126760563381
26104,Wood County,WV,77.13004484304933,NA,NA
26452,Lewis County,WV,67.71300448430493,NA,NA
26501,Monongalia County,WV,NA,33.33333333333333,NA
53083,Sheboygan County,WI,78.47533632286996,NA,NA
53122,Waukesha County,WI,NA,NA,76.90140845070422
53207,Milwaukee County,WI,NA,NA,29.577464788732392
53209,Milwaukee County,WI,NA,NA,8.450704225352112
53218,Milwaukee County,WI,NA,NA,41.690140845070424
53223,Milwaukee County,WI,NA,11.11111111111111,NA
54001,Polk County,WI,NA,NA,57.183098591549296
54115,Brown County,WI,NA,NA,24.788732394366196
54235,Door County,WI,NA,27.24867724867725,NA
54241,Manitowoc County,WI,71.30044843049326,NA,NA
54481,Portage County,WI,NA,60.58201058201058,7.887323943661972
54703,Eau Claire County,WI,21.973094170403588,NA,NA
54914,Outagamie County,WI,25.56053811659193,NA,NA
82901,Sweetwater County,WY,65.02242152466367,NA,NA
