ZipCode,county,state,Adult,Retirement,Geriatric
35016,Marshall County,AL,NA,NA,46
35180,Jefferson County,AL,NA,NA,84.33333333333334
35244,Jefferson County,AL,49.673202614379086,NA,56.99999999999999
35401,Tuscaloosa County,AL,NA,NA,49.5
35404,Tuscaloosa County,AL,NA,34.80565371024735,NA
35503,Walker County,AL,NA,84.80565371024736,NA
35549,Walker County,AL,NA,97.70318021201413,NA
35603,Morgan County,AL,NA,NA,28.166666666666668
35640,Morgan County,AL,66.66666666666666,NA,50.16666666666667
35905,Etowah County,AL,NA,NA,92.66666666666666
35950,Marshall County,AL,NA,NA,61.5
36010,Pike County,AL,91.17647058823529,NA,NA
36054,Elmore County,AL,NA,NA,84
36092,Elmore County,AL,NA,58.657243816254415,NA
36109,Montgomery County,AL,50.98039215686274,NA,NA
36426,Escambia County,AL,58.496732026143796,NA,NA
36608,Mobile County,AL,NA,50.35335689045937,NA
36613,Mobile County,AL,NA,79.3286219081272,NA
99515,Anchorage Municipality,AK,NA,NA,82.66666666666667
99517,Anchorage Municipality,AK,62.41830065359477,NA,81.66666666666667
99603,Kenai Peninsula Borough,AK,77.45098039215686,60.95406360424028,NA
85014,Maricopa County,AZ,NA,NA,86.33333333333333
85018,Maricopa County,AZ,NA,41.1660777385159,52.5
85022,Maricopa County,AZ,18.954248366013072,NA,NA
85028,Maricopa County,AZ,NA,66.43109540636041,83.16666666666667
85029,Maricopa County,AZ,NA,NA,80
85051,Maricopa County,AZ,NA,NA,70.33333333333334
85119,Pinal County,AZ,70.91503267973856,NA,NA
85128,Pinal County,AZ,NA,61.83745583038869,NA
85202,Maricopa County,AZ,19.607843137254903,NA,NA
85248,Maricopa County,AZ,NA,32.685512367491164,NA
85250,Maricopa County,AZ,NA,88.51590106007066,NA
85259,Maricopa County,AZ,NA,NA,53.833333333333336
85282,Maricopa County,AZ,NA,48.0565371024735,69.16666666666667
85351,Maricopa County,AZ,NA,NA,9.333333333333334
85365,Yuma County,AZ,NA,20.848056537102476,NA
85367,Yuma County,AZ,NA,NA,10
85375,Maricopa County,AZ,NA,91.16607773851591,12
85383,Maricopa County,AZ,NA,37.455830388692576,NA
85387,Maricopa County,AZ,NA,NA,82.5
85395,Maricopa County,AZ,NA,48.409893992932865,NA
85615,Cochise County,AZ,NA,81.44876325088339,NA
85634,Pima County,AZ,NA,31.802120141342755,NA
85706,Pima County,AZ,32.6797385620915,NA,NA
86401,Mohave County,AZ,NA,7.773851590106007,NA
86426,Mohave County,AZ,NA,NA,62.33333333333333
86442,Mohave County,AZ,NA,NA,56.666666666666664
71639,Desha County,AR,NA,NA,68.16666666666666
71854,Miller County,AR,NA,NA,32.5
72542,Sharp County,AR,NA,96.28975265017668,NA
72543,Cleburne County,AR,NA,NA,50.33333333333333
72632,Carroll County,AR,NA,NA,98.83333333333333
72701,Washington County,AR,NA,NA,75.33333333333333
72715,Benton County,AR,NA,NA,20.833333333333336
72903,Sebastian County,AR,NA,66.6077738515901,NA
72956,Crawford County,AR,51.9607843137255,NA,NA
90012,Los Angeles County,CA,NA,55.30035335689046,32.166666666666664
90013,Los Angeles County,CA,81.04575163398692,NA,NA
90019,Los Angeles County,CA,NA,27.73851590106007,NA
90024,Los Angeles County,CA,NA,NA,5.333333333333334
90032,Los Angeles County,CA,NA,NA,79.66666666666666
90045,Los Angeles County,CA,63.0718954248366,60.24734982332155,NA
90059,Los Angeles County,CA,34.64052287581699,NA,NA
90061,Los Angeles County,CA,72.54901960784314,NA,NA
90254,Los Angeles County,CA,NA,NA,87.83333333333333
90255,Los Angeles County,CA,NA,NA,71.5
90275,Los Angeles County,CA,NA,42.40282685512368,NA
90292,Los Angeles County,CA,NA,NA,40
90293,Los Angeles County,CA,NA,NA,87.5
90602,Los Angeles County,CA,NA,NA,61.83333333333333
90606,Los Angeles County,CA,NA,NA,79.33333333333333
90703,Los Angeles County,CA,NA,35.68904593639576,NA
90715,Los Angeles County,CA,84.9673202614379,NA,NA
90732,Los Angeles County,CA,NA,NA,54.333333333333336
90740,Orange County,CA,93.4640522875817,NA,NA
90802,Los Angeles County,CA,NA,71.20141342756183,NA
90805,Los Angeles County,CA,NA,NA,50.66666666666667
91101,Los Angeles County,CA,NA,NA,92.16666666666666
91306,Los Angeles County,CA,NA,NA,45.666666666666664
91324,Los Angeles County,CA,74.83660130718954,NA,80.83333333333333
91364,Los Angeles County,CA,81.69934640522875,NA,41.66666666666667
91405,Los Angeles County,CA,NA,NA,46.5
91505,Los Angeles County,CA,NA,NA,70.5
91706,Los Angeles County,CA,NA,NA,60.16666666666667
91730,San Bernardino County,CA,NA,NA,33.83333333333333
91739,San Bernardino County,CA,NA,NA,78.66666666666666
91791,Los Angeles County,CA,NA,NA,52
91942,San Diego County,CA,NA,NA,25.833333333333336
92056,San Diego County,CA,NA,NA,12.333333333333334
92111,San Diego County,CA,NA,54.24028268551236,NA
92203,Riverside County,CA,NA,17.84452296819788,NA
92234,Riverside County,CA,13.398692810457517,NA,NA
92335,San Bernardino County,CA,35.294117647058826,NA,NA
92337,San Bernardino County,CA,NA,78.79858657243817,NA
92345,San Bernardino County,CA,36.27450980392157,14.487632508833922,NA
92504,Riverside County,CA,NA,57.243816254416956,NA
92544,Riverside County,CA,76.1437908496732,NA,NA
92586,Riverside County,CA,NA,NA,23.333333333333332
92626,Orange County,CA,NA,80.3886925795053,NA
92646,Orange County,CA,NA,NA,5.833333333333333
92651,Orange County,CA,NA,NA,32.83333333333333
92653,Orange County,CA,NA,NA,47.66666666666667
92677,Orange County,CA,33.006535947712415,NA,NA
92801,Orange County,CA,NA,NA,39.83333333333333
92845,Orange County,CA,77.12418300653596,NA,NA
92860,Riverside County,CA,NA,69.08127208480566,NA
92870,Orange County,CA,NA,NA,50
93004,Ventura County,CA,NA,82.50883392226149,NA
93012,Ventura County,CA,NA,NA,27.666666666666668
93268,Kern County,CA,NA,NA,95.5
93306,Kern County,CA,NA,NA,39
93422,San Luis Obispo County,CA,NA,NA,89.66666666666666
93535,Los Angeles County,CA,NA,39.75265017667844,NA
93543,Los Angeles County,CA,NA,96.99646643109541,NA
93560,Kern County,CA,NA,92.57950530035336,NA
93561,Kern County,CA,NA,56.71378091872792,NA
93646,Fresno County,CA,NA,NA,99.83333333333333
93706,Fresno County,CA,NA,77.20848056537103,NA
93727,Fresno County,CA,NA,26.501766784452297,NA
93905,Monterey County,CA,37.58169934640523,NA,NA
93906,Monterey County,CA,41.17647058823529,NA,NA
94019,San Mateo County,CA,NA,64.31095406360424,NA
94024,Santa Clara County,CA,NA,NA,62.16666666666667
94103,San Francisco County,CA,11.76470588235294,NA,NA
94111,San Francisco County,CA,NA,NA,98
94121,San Francisco County,CA,NA,NA,11.333333333333332
94124,San Francisco County,CA,NA,NA,48.66666666666667
94509,Contra Costa County,CA,NA,NA,16.333333333333332
94518,Contra Costa County,CA,NA,NA,55.166666666666664
94560,Alameda County,CA,NA,49.82332155477032,NA
94574,Napa County,CA,NA,86.57243816254417,NA
94587,Alameda County,CA,35.62091503267974,NA,NA
94591,Solano County,CA,NA,41.342756183745585,NA
94608,Alameda County,CA,55.22875816993464,NA,NA
94703,Alameda County,CA,71.56862745098039,NA,NA
94707,Alameda County,CA,NA,NA,77.83333333333333
94931,Sonoma County,CA,NA,94.87632508833921,NA
94941,Marin County,CA,NA,NA,33
95023,San Benito County,CA,NA,36.57243816254417,NA
95030,Santa Clara County,CA,NA,NA,66.5
95051,Santa Clara County,CA,NA,NA,37.666666666666664
95066,Santa Cruz County,CA,89.54248366013073,NA,NA
95116,Santa Clara County,CA,NA,NA,57.166666666666664
95118,Santa Clara County,CA,62.091503267973856,NA,NA
95125,Santa Clara County,CA,NA,NA,26
95127,Santa Clara County,CA,NA,47.879858657243815,NA
95204,San Joaquin County,CA,57.18954248366013,NA,NA
95207,San Joaquin County,CA,NA,NA,43.833333333333336
95209,San Joaquin County,CA,85.94771241830065,NA,NA
95228,Calaveras County,CA,NA,NA,93.33333333333333
95240,San Joaquin County,CA,14.37908496732026,49.11660777385159,NA
95307,Stanislaus County,CA,31.372549019607842,NA,NA
95322,Merced County,CA,NA,NA,91.33333333333333
95337,San Joaquin County,CA,NA,45.583038869257955,NA
95348,Merced County,CA,66.01307189542483,NA,NA
95360,Stanislaus County,CA,NA,85.33568904593639,NA
95403,Sonoma County,CA,NA,NA,15
95404,Sonoma County,CA,NA,29.681978798586574,NA
95451,Lake County,CA,78.43137254901961,53.18021201413428,NA
95482,Mendocino County,CA,NA,27.03180212014134,NA
95521,Humboldt County,CA,NA,83.3922261484099,NA
95605,Yolo County,CA,NA,NA,93
95608,Sacramento County,CA,NA,NA,35.66666666666667
95610,Sacramento County,CA,47.05882352941176,NA,NA
95614,El Dorado County,CA,NA,NA,99.5
95662,Sacramento County,CA,67.97385620915033,NA,NA
95667,El Dorado County,CA,NA,4.240282685512367,NA
95687,Solano County,CA,NA,NA,58.833333333333336
95691,Yolo County,CA,NA,NA,65.66666666666666
95835,Sacramento County,CA,NA,NA,46.166666666666664
95963,Glenn County,CA,NA,74.20494699646643,NA
95965,Butte County,CA,NA,69.25795053003534,NA
95971,Plumas County,CA,93.13725490196079,NA,NA
95993,Sutter County,CA,NA,NA,28.000000000000004
96001,Shasta County,CA,NA,90.81272084805654,NA
96002,Shasta County,CA,NA,68.37455830388693,NA
96022,Tehama County,CA,NA,NA,75.5
96130,Lassen County,CA,NA,81.80212014134275,NA
80011,Arapahoe County,CO,NA,NA,44.333333333333336
80014,Arapahoe County,CO,NA,NA,7.5
80015,Arapahoe County,CO,15.686274509803921,61.30742049469965,NA
80016,Arapahoe County,CO,NA,56.18374558303887,NA
80023,Broomfield County,CO,82.35294117647058,NA,NA
80031,Adams County,CO,38.88888888888889,NA,NA
80120,Arapahoe County,CO,NA,51.76678445229682,NA
80126,Douglas County,CO,53.92156862745098,NA,NA
80129,Douglas County,CO,NA,NA,74.83333333333333
80204,Denver County,CO,20.915032679738562,NA,NA
80210,Denver County,CO,NA,NA,70.5
80221,Adams County,CO,NA,NA,58.333333333333336
80232,Jefferson County,CO,NA,NA,89.83333333333333
80621,Weld County,CO,NA,NA,94.16666666666667
80634,Weld County,CO,NA,NA,8.5
80863,Teller County,CO,NA,87.98586572438163,NA
80905,El Paso County,CO,NA,80.56537102473497,NA
80911,El Paso County,CO,43.13725490196079,NA,NA
80919,El Paso County,CO,NA,56.53710247349824,NA
80921,El Paso County,CO,NA,NA,74.83333333333333
81001,Pueblo County,CO,NA,45.75971731448763,54.333333333333336
81230,Gunnison County,CO,89.86928104575163,NA,NA
81401,Montrose County,CO,49.34640522875817,NA,NA
81501,Mesa County,CO,45.42483660130719,NA,NA
06032,Hartford County,CT,NA,NA,47.333333333333336
06040,Hartford County,CT,8.823529411764707,NA,NA
06066,Tolland County,CT,NA,18.021201413427562,NA
06082,Hartford County,CT,NA,13.604240282685511,NA
06110,Hartford County,CT,NA,97.34982332155478,NA
06238,Tolland County,CT,NA,NA,83.5
06405,New Haven County,CT,NA,NA,40.5
06437,New Haven County,CT,NA,24.558303886925795,NA
06450,New Haven County,CT,NA,NA,25.333333333333336
06451,New Haven County,CT,24.836601307189543,40.63604240282685,NA
06457,Middlesex County,CT,NA,40.282685512367486,NA
06516,New Haven County,CT,NA,NA,11
06605,Fairfield County,CT,NA,65.37102473498233,NA
06606,Fairfield County,CT,NA,NA,85
06704,New Haven County,CT,NA,NA,44.666666666666664
06705,New Haven County,CT,NA,NA,40.666666666666664
19711,New Castle County,DE,30.718954248366014,NA,NA
19803,New Castle County,DE,NA,NA,29.833333333333336
19808,New Castle County,DE,NA,21.73144876325088,NA
19958,Sussex County,DE,NA,4.41696113074205,NA
19966,Sussex County,DE,NA,NA,13.166666666666666
19968,Sussex County,DE,NA,NA,71.66666666666667
32003,Clay County,FL,59.80392156862745,NA,NA
32043,Clay County,FL,NA,21.554770318021202,NA
32055,Columbia County,FL,NA,NA,62
32086,St. Johns County,FL,NA,17.6678445229682,NA
32117,Volusia County,FL,NA,NA,33.83333333333333
32136,Flagler County,FL,NA,NA,74
32163,Sumter County,FL,NA,72.6148409893993,NA
32174,Volusia County,FL,NA,NA,8.166666666666666
32176,Volusia County,FL,NA,76.5017667844523,NA
32218,Duval County,FL,NA,3.53356890459364,NA
32221,Duval County,FL,29.08496732026144,NA,NA
32224,Duval County,FL,NA,46.28975265017668,NA
32244,Duval County,FL,NA,11.130742049469964,NA
32254,Duval County,FL,NA,73.67491166077738,NA
32327,Wakulla County,FL,NA,87.45583038869258,NA
32433,Walton County,FL,NA,43.28621908127209,NA
32444,Bay County,FL,NA,NA,41.833333333333336
32456,Gulf County,FL,NA,NA,73.66666666666667
32501,Escambia County,FL,NA,42.04946996466431,NA
32503,Escambia County,FL,NA,13.780918727915195,NA
32506,Escambia County,FL,NA,NA,13.666666666666666
32514,Escambia County,FL,NA,NA,7.833333333333334
32535,Escambia County,FL,76.79738562091504,NA,NA
32541,Okaloosa County,FL,NA,40.10600706713781,NA
32550,Walton County,FL,87.90849673202614,NA,NA
32570,Santa Rosa County,FL,9.15032679738562,NA,NA
32578,Okaloosa County,FL,NA,NA,21.333333333333336
32579,Okaloosa County,FL,NA,NA,73.66666666666667
32609,Alachua County,FL,54.57516339869281,NA,NA
32656,Clay County,FL,NA,63.957597173144876,NA
32669,Alachua County,FL,NA,68.90459363957598,NA
32693,Gilchrist County,FL,NA,NA,84.16666666666667
32703,Orange County,FL,NA,NA,34.166666666666664
32720,Volusia County,FL,NA,40.45936395759717,NA
32751,Orange County,FL,NA,NA,47.5
32792,Orange County,FL,NA,NA,21
32809,Orange County,FL,NA,64.84098939929329,49.833333333333336
32825,Orange County,FL,NA,NA,44
32905,Brevard County,FL,NA,48.58657243816255,NA
32935,Brevard County,FL,NA,NA,22.5
32952,Brevard County,FL,NA,NA,19
32960,Indian River County,FL,NA,NA,45.166666666666664
32967,Indian River County,FL,NA,52.29681978798587,NA
33009,Broward County,FL,NA,NA,9.833333333333332
33010,Miami-Dade County,FL,NA,NA,11.833333333333334
33012,Miami-Dade County,FL,NA,22.084805653710244,3.6666666666666665
33013,Miami-Dade County,FL,NA,NA,25
33014,Miami-Dade County,FL,NA,NA,24.833333333333332
33015,Miami-Dade County,FL,NA,47.17314487632509,NA
33020,Broward County,FL,NA,NA,65.16666666666666
33028,Broward County,FL,80.71895424836602,NA,NA
33033,Miami-Dade County,FL,NA,NA,56.00000000000001
33050,Monroe County,FL,NA,NA,62.83333333333333
33125,Miami-Dade County,FL,NA,NA,10.5
33142,Miami-Dade County,FL,78.75816993464052,20.671378091872793,NA
33175,Miami-Dade County,FL,NA,23.32155477031802,NA
33177,Miami-Dade County,FL,NA,83.03886925795054,NA
33305,Broward County,FL,NA,NA,85.83333333333333
33311,Broward County,FL,NA,21.024734982332156,NA
33315,Broward County,FL,NA,96.113074204947,NA
33319,Broward County,FL,NA,31.978798586572438,NA
33401,Palm Beach County,FL,65.359477124183,NA,NA
33407,Palm Beach County,FL,NA,84.45229681978799,NA
33418,Palm Beach County,FL,NA,29.858657243816257,NA
33433,Palm Beach County,FL,NA,NA,2.166666666666667
33437,Palm Beach County,FL,NA,NA,4.666666666666667
33446,Palm Beach County,FL,NA,NA,3.5000000000000004
33449,Palm Beach County,FL,92.48366013071896,NA,NA
33458,Palm Beach County,FL,NA,23.14487632508834,NA
33467,Palm Beach County,FL,NA,25.265017667844525,14.000000000000002
33477,Palm Beach County,FL,NA,78.97526501766784,NA
33498,Palm Beach County,FL,NA,88.33922261484098,NA
33570,Hillsborough County,FL,NA,58.48056537102474,NA
33592,Hillsborough County,FL,NA,NA,94.33333333333334
33647,Hillsborough County,FL,NA,NA,37.666666666666664
33705,Pinellas County,FL,NA,NA,43.5
33706,Pinellas County,FL,NA,NA,74.16666666666667
33756,Pinellas County,FL,NA,NA,35.333333333333336
33761,Pinellas County,FL,NA,NA,86.5
33772,Pinellas County,FL,NA,74.38162544169612,NA
33852,Highlands County,FL,NA,19.434628975265017,NA
33881,Polk County,FL,NA,NA,13.333333333333334
33936,Lee County,FL,50.65359477124183,NA,NA
33980,Charlotte County,FL,NA,NA,61.16666666666667
33993,Lee County,FL,NA,56.00706713780919,NA
34103,Collier County,FL,NA,69.78798586572438,NA
34108,Collier County,FL,NA,NA,31
34117,Collier County,FL,NA,NA,86.83333333333333
34202,Manatee County,FL,NA,NA,72.33333333333334
34205,Manatee County,FL,66.33986928104575,NA,NA
34235,Sarasota County,FL,NA,62.19081272084806,NA
34243,Manatee County,FL,NA,24.91166077738516,NA
34269,DeSoto County,FL,NA,NA,96.16666666666667
34442,Citrus County,FL,NA,NA,63.66666666666667
34446,Citrus County,FL,NA,62.72084805653711,NA
34471,Marion County,FL,NA,49.293286219081274,NA
34601,Hernando County,FL,NA,NA,42.333333333333336
34608,Hernando County,FL,40.19607843137255,NA,NA
34613,Hernando County,FL,NA,36.21908127208481,NA
34743,Osceola County,FL,49.01960784313725,NA,NA
34758,Osceola County,FL,NA,NA,61.33333333333333
34761,Orange County,FL,NA,43.639575971731446,NA
34982,St. Lucie County,FL,NA,38.869257950530034,NA
34983,St. Lucie County,FL,NA,30.742049469964666,29.166666666666668
34990,Martin County,FL,NA,24.381625441696116,NA
34997,Martin County,FL,NA,NA,4.333333333333334
30005,Fulton County,GA,NA,78.4452296819788,NA
30040,Forsyth County,GA,NA,18.727915194346288,12.666666666666668
30097,Fulton County,GA,NA,57.59717314487632,NA
30125,Polk County,GA,NA,NA,37.5
30127,Cobb County,GA,NA,33.745583038869256,NA
30132,Paulding County,GA,NA,NA,49.333333333333336
30188,Cherokee County,GA,NA,15.19434628975265,33.166666666666664
30240,Troup County,GA,NA,NA,35.16666666666667
30318,Fulton County,GA,27.77777777777778,NA,NA
30319,DeKalb County,GA,NA,NA,80.33333333333333
30324,Fulton County,GA,NA,NA,88.33333333333333
30506,Hall County,GA,29.73856209150327,NA,NA
30513,Fannin County,GA,NA,NA,69.66666666666667
30517,Jackson County,GA,NA,95.40636042402826,NA
30533,Lumpkin County,GA,NA,NA,58.166666666666664
30560,Fannin County,GA,NA,98.93992932862191,NA
30656,Walton County,GA,NA,NA,80.66666666666666
30673,Wilkes County,GA,90.84967320261438,NA,NA
30814,Columbia County,GA,NA,NA,76.16666666666667
30815,Richmond County,GA,NA,NA,53
30906,Richmond County,GA,6.209150326797386,NA,NA
30909,Richmond County,GA,NA,16.07773851590106,NA
31008,Peach County,GA,NA,NA,78.83333333333333
31014,Bleckley County,GA,NA,76.85512367491167,NA
31032,Jones County,GA,NA,82.15547703180212,NA
31324,Bryan County,GA,NA,NA,91.5
31510,Bacon County,GA,91.50326797385621,NA,NA
31566,Brantley County,GA,NA,99.82332155477032,NA
31601,Lowndes County,GA,NA,38.69257950530035,NA
31705,Dougherty County,GA,NA,NA,54
31774,Irwin County,GA,NA,91.87279151943463,NA
31909,Muscogee County,GA,40.52287581699346,NA,NA
96720,Hawaii County,HI,NA,25.97173144876325,NA
83221,Bingham County,ID,NA,NA,45
83301,Twin Falls County,ID,NA,11.837455830388691,0.33333333333333337
83341,Twin Falls County,ID,NA,100,NA
83686,Canyon County,ID,NA,4.770318021201414,NA
60004,Cook County,IL,NA,10.247349823321555,NA
60012,McHenry County,IL,83.00653594771242,NA,NA
60013,McHenry County,IL,NA,37.102473498233216,NA
60044,Lake County,IL,NA,89.04593639575971,NA
60074,Cook County,IL,NA,38.515901060070675,NA
60083,Lake County,IL,NA,NA,69
60090,Cook County,IL,NA,29.151943462897528,NA
60099,Lake County,IL,42.15686274509804,43.81625441696113,NA
60107,Cook County,IL,87.25490196078431,NA,NA
60120,Kane County,IL,NA,29.328621908127207,NA
60124,Kane County,IL,NA,NA,38.5
60174,Kane County,IL,NA,NA,36
60175,Kane County,IL,NA,85.15901060070671,NA
60178,DeKalb County,IL,NA,NA,51.5
60189,DuPage County,IL,NA,22.261484098939928,NA
60302,Cook County,IL,NA,NA,15.833333333333332
60402,Cook County,IL,NA,NA,31.666666666666664
60411,Cook County,IL,NA,NA,19.166666666666668
60431,Will County,IL,41.50326797385621,NA,NA
60445,Cook County,IL,NA,NA,68.66666666666667
60464,Cook County,IL,NA,68.19787985865725,NA
60465,Cook County,IL,NA,NA,52.666666666666664
60467,Cook County,IL,NA,28.26855123674912,NA
60477,Cook County,IL,NA,NA,10.833333333333334
60487,Cook County,IL,NA,NA,61
60490,Will County,IL,NA,NA,90.66666666666666
60561,DuPage County,IL,NA,NA,30.333333333333336
60608,Cook County,IL,NA,NA,6.333333333333334
60616,Cook County,IL,36.60130718954248,NA,NA
60617,Cook County,IL,NA,NA,2
60619,Cook County,IL,NA,5.123674911660777,NA
60620,Cook County,IL,5.228758169934641,NA,NA
60626,Cook County,IL,NA,NA,56.666666666666664
60629,Cook County,IL,4.57516339869281,NA,NA
60630,Cook County,IL,NA,NA,44
60640,Cook County,IL,7.516339869281046,NA,NA
60827,Cook County,IL,NA,NA,60.83333333333333
61008,Boone County,IL,NA,19.257950530035338,NA
61010,Ogle County,IL,81.04575163398692,NA,NA
61240,Rock Island County,IL,NA,91.69611307420494,NA
61554,Tazewell County,IL,NA,NA,7.000000000000001
61846,Vermilion County,IL,NA,79.3286219081272,NA
62002,Madison County,IL,NA,18.90459363957597,13.833333333333334
62025,Madison County,IL,66.99346405228758,NA,NA
62052,Jersey County,IL,NA,NA,44.5
62056,Montgomery County,IL,NA,NA,92.5
62249,Madison County,IL,NA,NA,32.666666666666664
62526,Macon County,IL,NA,NA,4.5
62650,Morgan County,IL,NA,34.98233215547703,NA
62906,Union County,IL,NA,NA,66.83333333333333
46033,Hamilton County,IN,NA,NA,40.33333333333333
46106,Johnson County,IN,95.75163398692811,NA,NA
46107,Marion County,IN,NA,75.44169611307422,NA
46135,Putnam County,IN,NA,NA,36.5
46202,Marion County,IN,61.76470588235294,NA,NA
46221,Marion County,IN,NA,44.522968197879855,NA
46226,Marion County,IN,11.11111111111111,NA,NA
46236,Marion County,IN,NA,51.590106007067135,NA
46327,Lake County,IN,NA,86.21908127208481,NA
46350,LaPorte County,IN,NA,NA,17.5
46368,Porter County,IN,NA,NA,67.16666666666666
46383,Porter County,IN,NA,5.477031802120141,NA
46407,Lake County,IN,NA,76.67844522968198,NA
46526,Elkhart County,IN,NA,62.36749116607774,NA
46714,Wells County,IN,NA,NA,71.33333333333334
46750,Huntington County,IN,NA,27.385159010600706,NA
46804,Allen County,IN,NA,NA,36.333333333333336
46805,Allen County,IN,NA,53.003533568904594,NA
46815,Allen County,IN,NA,NA,19.5
46901,Howard County,IN,NA,3.8869257950530036,NA
46953,Grant County,IN,NA,NA,68.83333333333333
47112,Harrison County,IN,57.84313725490197,NA,NA
47150,Floyd County,IN,NA,7.420494699646643,NA
47303,Delaware County,IN,NA,55.12367491166078,NA
47374,Wayne County,IN,NA,26.67844522968198,NA
47394,Randolph County,IN,NA,NA,53.5
47448,Brown County,IN,NA,92.04946996466431,NA
47501,Daviess County,IN,70.26143790849673,NA,NA
47905,Tippecanoe County,IN,42.48366013071895,NA,NA
50125,Warren County,IA,70.58823529411765,86.92579505300353,NA
50138,Marion County,IA,NA,NA,24.5
50595,Hamilton County,IA,NA,NA,70
50801,Union County,IA,40.849673202614376,NA,NA
51360,Dickinson County,IA,NA,66.25441696113074,NA
52405,Linn County,IA,NA,45.053003533568905,NA
52531,Monroe County,IA,93.79084967320262,NA,NA
52632,Lee County,IA,NA,86.04240282685512,NA
52748,Scott County,IA,NA,93.46289752650176,NA
66086,Leavenworth County,KS,NA,83.92226148409894,NA
66109,Wyandotte County,KS,NA,NA,31.666666666666664
66203,Johnson County,KS,80.06535947712419,NA,66.16666666666666
66209,Johnson County,KS,NA,95.75971731448763,NA
66214,Johnson County,KS,NA,NA,89.16666666666667
66436,Jackson County,KS,NA,NA,97
66801,Lyon County,KS,NA,NA,29.666666666666668
67208,Sedgwick County,KS,NA,89.39929328621908,NA
67212,Sedgwick County,KS,62.745098039215684,56.8904593639576,NA
67550,Pawnee County,KS,NA,NA,91.83333333333333
40004,Nelson County,KY,NA,NA,39.166666666666664
40031,Oldham County,KY,32.35294117647059,NA,NA
40033,Marion County,KY,NA,71.37809187279152,NA
40211,Jefferson County,KY,NA,NA,56.49999999999999
40215,Jefferson County,KY,NA,NA,87
40216,Jefferson County,KY,NA,NA,11.666666666666666
40217,Jefferson County,KY,NA,90.2826855123675,NA
40222,Jefferson County,KY,78.10457516339869,NA,NA
40299,Jefferson County,KY,NA,NA,19.333333333333332
40342,Anderson County,KY,NA,59.36395759717315,NA
40351,Rowan County,KY,NA,14.664310954063604,NA
40475,Madison County,KY,7.18954248366013,NA,NA
41018,Kenton County,KY,NA,27.208480565371023,NA
41102,Boyd County,KY,20.26143790849673,NA,NA
41164,Carter County,KY,NA,NA,49
41230,Lawrence County,KY,NA,89.92932862190813,65.33333333333333
41339,Breathitt County,KY,NA,75.26501766784452,NA
41501,Pike County,KY,10.784313725490197,NA,NA
41822,Knott County,KY,100,NA,NA
42001,McCracken County,KY,NA,NA,38
42101,Warren County,KY,NA,53.35689045936396,NA
42320,Ohio County,KY,53.59477124183007,NA,NA
42420,Henderson County,KY,NA,12.36749116607774,NA
42503,Pulaski County,KY,44.771241830065364,NA,NA
42567,Pulaski County,KY,NA,NA,96.66666666666667
70065,Jefferson Parish,LA,NA,3.0035335689045937,3.3333333333333335
70094,Jefferson Parish,LA,22.875816993464053,NA,NA
70114,Orleans Parish,LA,NA,35.51236749116608,NA
70130,Orleans Parish,LA,44.44444444444444,NA,NA
70131,Orleans Parish,LA,NA,36.92579505300353,NA
70364,Terrebonne Parish,LA,NA,NA,45.666666666666664
70403,Tangipahoa Parish,LA,NA,31.978798586572438,25.166666666666664
70508,Lafayette Parish,LA,NA,20.318021201413426,NA
70517,St. Martin Parish,LA,12.745098039215685,NA,NA
70546,Jefferson Davis Parish,LA,NA,NA,82.66666666666667
70560,Iberia Parish,LA,0.9803921568627451,NA,NA
70807,East Baton Rouge Parish,LA,NA,68.02120141342756,NA
70810,East Baton Rouge Parish,LA,6.862745098039216,NA,NA
70818,East Baton Rouge Parish,LA,NA,92.93286219081273,NA
71037,Bossier Parish,LA,NA,55.65371024734982,NA
71111,Bossier Parish,LA,NA,NA,30.5
71118,Caddo Parish,LA,NA,25.08833922261484,NA
71201,Ouachita Parish,LA,NA,NA,59.66666666666667
71302,Rapides Parish,LA,NA,62.544169611307424,NA
71446,Vernon Parish,LA,NA,39.57597173144876,NA
71449,Sabine Parish,LA,NA,NA,86
04005,York County,ME,NA,31.272084805653712,NA
04071,Cumberland County,ME,98.69281045751634,NA,NA
04090,York County,ME,NA,NA,18
04769,Aroostook County,ME,NA,NA,16
04901,Kennebec County,ME,3.2679738562091507,NA,NA
04930,Penobscot County,ME,NA,86.92579505300353,NA
04963,Kennebec County,ME,NA,70.31802120141343,NA
20678,Calvert County,MD,NA,NA,95.66666666666667
20705,Prince George's County,MD,NA,NA,90.33333333333333
20708,Prince George's County,MD,NA,76.14840989399293,NA
20853,Montgomery County,MD,NA,NA,56.00000000000001
20874,Montgomery County,MD,NA,64.66431095406361,NA
20878,Montgomery County,MD,47.385620915032675,NA,NA
21093,Baltimore County,MD,NA,NA,7.333333333333333
21219,Baltimore County,MD,94.11764705882352,NA,NA
21221,Baltimore County,MD,NA,NA,28.499999999999996
21222,Baltimore County,MD,43.4640522875817,NA,NA
21234,Baltimore County,MD,NA,7.950530035335689,NA
21236,Baltimore County,MD,NA,NA,26.166666666666664
21502,Allegany County,MD,22.22222222222222,NA,NA
21773,Frederick County,MD,NA,99.1166077738516,NA
21811,Worcester County,MD,NA,66.07773851590106,18.833333333333332
01057,Hampden County,MA,NA,98.58657243816255,NA
01104,Hampden County,MA,NA,1.2367491166077738,NA
01119,Hampden County,MA,NA,49.64664310954063,NA
01226,Berkshire County,MA,NA,NA,67.83333333333333
01420,Worcester County,MA,0,NA,99.33333333333333
01440,Worcester County,MA,NA,NA,40.166666666666664
01463,Middlesex County,MA,NA,54.06360424028268,NA
01501,Worcester County,MA,NA,NA,21.666666666666668
01540,Worcester County,MA,NA,NA,94.83333333333334
01545,Worcester County,MA,NA,53.53356890459364,NA
01588,Worcester County,MA,NA,42.226148409893995,NA
01603,Worcester County,MA,NA,2.65017667844523,NA
01604,Worcester County,MA,0.32679738562091504,NA,NA
01701,Middlesex County,MA,9.477124183006536,NA,6.5
01720,Middlesex County,MA,33.98692810457516,NA,NA
01746,Middlesex County,MA,54.90196078431373,38.16254416961131,NA
01749,Middlesex County,MA,NA,NA,50.5
01834,Essex County,MA,80.3921568627451,NA,NA
01844,Essex County,MA,NA,NA,3.833333333333333
01851,Middlesex County,MA,NA,NA,22.5
01852,Middlesex County,MA,NA,NA,19.666666666666664
01876,Middlesex County,MA,NA,2.8268551236749118,NA
01902,Essex County,MA,NA,0.7067137809187279,2.3333333333333335
01904,Essex County,MA,NA,NA,27.500000000000004
01923,Essex County,MA,NA,6.5371024734982335,1.8333333333333333
01930,Essex County,MA,NA,0.88339222614841,NA
01945,Essex County,MA,NA,84.98233215547704,NA
01952,Essex County,MA,NA,NA,83.33333333333334
01960,Essex County,MA,NA,NA,0
02026,Norfolk County,MA,NA,NA,13
02035,Norfolk County,MA,NA,22.791519434628977,NA
02118,Suffolk County,MA,NA,35.3356890459364,NA
02131,Suffolk County,MA,NA,30.565371024734983,NA
02132,Suffolk County,MA,NA,1.5901060070671376,NA
02135,Suffolk County,MA,NA,NA,1.6666666666666667
02148,Middlesex County,MA,NA,0.17667844522968199,NA
02155,Middlesex County,MA,NA,NA,5.666666666666666
02169,Norfolk County,MA,NA,NA,1
02184,Norfolk County,MA,NA,7.597173144876325,NA
02301,Plymouth County,MA,NA,0,NA
02341,Plymouth County,MA,NA,81.97879858657244,NA
02346,Plymouth County,MA,NA,NA,30.833333333333336
02421,Middlesex County,MA,69.93464052287581,NA,NA
02445,Norfolk County,MA,NA,NA,29.333333333333332
02446,Norfolk County,MA,18.30065359477124,NA,NA
02458,Middlesex County,MA,48.69281045751634,NA,NA
02474,Middlesex County,MA,NA,NA,11.166666666666666
02492,Norfolk County,MA,60.78431372549019,NA,NA
02493,Middlesex County,MA,NA,NA,96
02563,Barnstable County,MA,NA,60.42402826855123,NA
02632,Barnstable County,MA,NA,81.62544169611307,NA
02703,Bristol County,MA,NA,NA,31.5
02767,Bristol County,MA,24.509803921568626,NA,NA
02790,Bristol County,MA,NA,NA,64.16666666666667
48035,Macomb County,MI,NA,9.187279151943462,NA
48036,Macomb County,MI,NA,28.975265017667844,NA
48045,Macomb County,MI,NA,NA,36.666666666666664
48060,St. Clair County,MI,NA,NA,16.666666666666664
48066,Macomb County,MI,NA,NA,6.166666666666667
48067,Oakland County,MI,NA,45.40636042402827,NA
48085,Oakland County,MI,30.392156862745097,NA,NA
48092,Macomb County,MI,NA,NA,30.166666666666668
48094,Macomb County,MI,NA,52.473498233215544,NA
48098,Oakland County,MI,83.66013071895425,NA,NA
48124,Wayne County,MI,NA,22.614840989399294,NA
48126,Wayne County,MI,NA,42.93286219081272,13.5
48161,Monroe County,MI,30.065359477124183,NA,NA
48167,Oakland County,MI,NA,27.56183745583039,NA
48176,Washtenaw County,MI,NA,NA,23.166666666666664
48180,Wayne County,MI,NA,NA,3
48191,Washtenaw County,MI,91.83006535947712,NA,NA
48197,Washtenaw County,MI,0.6535947712418301,NA,NA
48212,Wayne County,MI,NA,NA,66.33333333333333
48309,Oakland County,MI,NA,NA,24
48310,Macomb County,MI,NA,NA,20
48313,Macomb County,MI,NA,NA,20.666666666666668
48322,Oakland County,MI,NA,NA,25.666666666666664
48323,Oakland County,MI,NA,45.75971731448763,NA
48324,Oakland County,MI,60.130718954248366,NA,NA
48327,Oakland County,MI,NA,43.99293286219081,NA
48328,Oakland County,MI,NA,NA,34.833333333333336
48329,Oakland County,MI,NA,21.20141342756184,NA
48331,Oakland County,MI,NA,NA,63.33333333333333
48341,Oakland County,MI,NA,45.053003533568905,NA
48371,Oakland County,MI,37.254901960784316,NA,NA
48393,Oakland County,MI,NA,NA,95
48423,Genesee County,MI,NA,NA,38.166666666666664
48444,Lapeer County,MI,NA,80.21201413427562,NA
48507,Genesee County,MI,8.49673202614379,NA,NA
48519,Genesee County,MI,NA,NA,87.66666666666667
48532,Genesee County,MI,NA,NA,47.66666666666667
48616,Saginaw County,MI,NA,50.8833922261484,NA
48651,Roscommon County,MI,NA,93.1095406360424,87
48843,Livingston County,MI,12.091503267973856,NA,NA
48911,Ingham County,MI,NA,NA,26.666666666666668
49002,Kalamazoo County,MI,NA,69.43462897526503,NA
49022,Berrien County,MI,NA,12.190812720848058,NA
49037,Calhoun County,MI,NA,33.92226148409894,NA
49038,Berrien County,MI,NA,66.96113074204946,NA
49098,Berrien County,MI,NA,98.76325088339223,NA
49120,Berrien County,MI,NA,14.310954063604239,15.333333333333332
49201,Jackson County,MI,NA,NA,5.5
49349,Newaygo County,MI,NA,78.26855123674912,NA
49441,Muskegon County,MI,NA,NA,2.833333333333333
49457,Muskegon County,MI,NA,NA,97.16666666666667
49504,Kent County,MI,NA,NA,7.166666666666667
49508,Kent County,MI,NA,9.010600706713781,8
49519,Kent County,MI,NA,NA,33.33333333333333
49677,Osceola County,MI,64.70588235294117,NA,NA
49855,Marquette County,MI,14.052287581699346,15.371024734982333,NA
49913,Houghton County,MI,58.82352941176471,NA,NA
55011,Anoka County,MN,NA,92.40282685512368,NA
55014,Anoka County,MN,NA,72.43816254416961,NA
55021,Rice County,MN,NA,41.69611307420495,NA
55033,Dakota County,MN,NA,59.8939929328622,NA
55044,Dakota County,MN,NA,64.13427561837456,NA
55082,Washington County,MN,33.66013071895425,NA,NA
55102,Ramsey County,MN,NA,75.97173144876325,NA
55109,Ramsey County,MN,NA,31.09540636042403,NA
55116,Ramsey County,MN,NA,63.25088339222616,NA
55121,Dakota County,MN,83.98692810457517,NA,NA
55303,Anoka County,MN,16.013071895424837,NA,NA
55313,Wright County,MN,NA,NA,64.33333333333333
55343,Hennepin County,MN,NA,42.579505300353354,NA
55369,Hennepin County,MN,NA,NA,61.5
55411,Hennepin County,MN,NA,15.724381625441698,NA
55412,Hennepin County,MN,NA,NA,67
55426,Hennepin County,MN,NA,40.812720848056536,NA
55430,Hennepin County,MN,16.33986928104575,36.39575971731448,NA
55434,Anoka County,MN,NA,63.60424028268551,NA
55811,St. Louis County,MN,84.640522875817,6.007067137809187,NA
55902,Olmsted County,MN,NA,NA,63
56001,Blue Earth County,MN,NA,NA,45.33333333333333
56007,Freeborn County,MN,NA,NA,46.833333333333336
56081,Watonwan County,MN,NA,74.55830388692578,41
56301,Stearns County,MN,45.09803921568628,NA,NA
56482,Wadena County,MN,NA,60.7773851590106,NA
56560,Clay County,MN,NA,NA,1.3333333333333335
56649,Koochiching County,MN,NA,61.130742049469966,NA
38618,Tate County,MS,NA,73.14487632508833,NA
38632,DeSoto County,MS,51.633986928104584,NA,NA
38654,DeSoto County,MS,NA,61.83745583038869,NA
38829,Prentiss County,MS,NA,NA,56.333333333333336
38858,Monroe County,MS,NA,NA,97.83333333333334
39111,Simpson County,MS,74.18300653594771,NA,NA
39168,Smith County,MS,NA,NA,79.5
39206,Hinds County,MS,NA,NA,73.16666666666667
39365,Neshoba County,MS,NA,77.73851590106007,NA
39401,Forrest County,MS,NA,NA,30
39437,Jones County,MS,NA,NA,66.66666666666666
39560,Harrison County,MS,82.02614379084967,NA,NA
39562,Jackson County,MS,NA,NA,74.33333333333333
39573,Stone County,MS,NA,NA,89.5
39759,Oktibbeha County,MS,NA,59.187279151943464,NA
63017,St. Louis County,MO,63.0718954248366,NA,NA
63034,St. Louis County,MO,NA,NA,51
63049,Jefferson County,MO,NA,NA,72.5
63114,St. Louis County,MO,NA,32.50883392226148,NA
63116,St. Louis city,MO,NA,NA,50.83333333333333
63119,St. Louis County,MO,NA,NA,6.833333333333333
63368,St. Charles County,MO,NA,NA,16.166666666666664
63601,St. Francois County,MO,NA,57.773851590106005,NA
63701,Cape Girardeau County,MO,NA,40.98939929328622,NA
63755,Cape Girardeau County,MO,NA,NA,35
63830,Pemiscot County,MO,NA,NA,91.66666666666666
64012,Cass County,MO,NA,NA,37
64078,Cass County,MO,68.30065359477125,NA,NA
64110,Jackson County,MO,68.62745098039215,NA,NA
64118,Clay County,MO,3.9215686274509802,NA,NA
64429,Clinton County,MO,NA,NA,65
64759,Barton County,MO,NA,NA,91.83333333333333
65453,Crawford County,MO,NA,NA,77.66666666666666
65559,Phelps County,MO,NA,NA,72.83333333333334
59457,Fergus County,MT,NA,NA,31.333333333333336
59601,Lewis and Clark County,MT,NA,17.314487632508836,22
59847,Missoula County,MT,NA,90.98939929328623,NA
59860,Lake County,MT,NA,47.349823321554766,NA
68025,Dodge County,NE,NA,NA,8.833333333333334
68046,Sarpy County,NE,NA,75.08833922261485,NA
68104,Douglas County,NE,NA,NA,44.83333333333333
68106,Douglas County,NE,NA,80.03533568904594,NA
68107,Douglas County,NE,NA,85.51236749116607,NA
68127,Douglas County,NE,NA,NA,88.16666666666667
68132,Douglas County,NE,73.8562091503268,89.75265017667844,NA
68164,Douglas County,NE,NA,73.32155477031802,NA
68467,York County,NE,NA,67.84452296819788,NA
68510,Lancaster County,NE,NA,NA,78.33333333333333
68516,Lancaster County,NE,NA,48.93992932862191,NA
68803,Hall County,NE,NA,NA,53.333333333333336
89104,Clark County,NV,NA,NA,45.5
89115,Clark County,NV,NA,NA,81.66666666666667
89121,Clark County,NV,NA,NA,32.33333333333333
89123,Clark County,NV,NA,NA,82.16666666666667
89131,Clark County,NV,NA,NA,76.33333333333333
89149,Clark County,NV,NA,54.416961130742045,NA
89156,Clark County,NV,NA,NA,94.5
89408,Lyon County,NV,NA,37.985865724381625,NA
89436,Washoe County,NV,NA,46.466431095406364,NA
03051,Hillsborough County,NH,21.568627450980394,NA,NA
03060,Hillsborough County,NH,4.901960784313726,NA,17.666666666666668
03087,Rockingham County,NH,94.77124183006535,NA,NA
03234,Merrimack County,NH,NA,NA,88.5
03254,Carroll County,NH,NA,87.63250883392226,NA
03276,Merrimack County,NH,NA,83.74558303886926,NA
03301,Merrimack County,NH,NA,NA,4
03446,Cheshire County,NH,NA,NA,60.333333333333336
03452,Cheshire County,NH,NA,92.226148409894,NA
03561,Grafton County,NH,NA,NA,77.16666666666666
03766,Grafton County,NH,NA,70.49469964664311,NA
03842,Rockingham County,NH,NA,31.448763250883395,NA
07001,Middlesex County,NJ,NA,65.37102473498233,84.83333333333334
07009,Essex County,NJ,NA,NA,51.66666666666667
07012,Passaic County,NJ,NA,NA,76.5
07026,Bergen County,NJ,NA,30.212014134275616,NA
07030,Hudson County,NJ,NA,NA,76
07043,Essex County,NJ,NA,73.85159010600707,NA
07078,Essex County,NJ,88.88888888888889,NA,NA
07304,Hudson County,NJ,NA,NA,38.666666666666664
07420,Passaic County,NJ,NA,82.50883392226149,NA
07630,Bergen County,NJ,NA,NA,70.16666666666667
07840,Warren County,NJ,NA,33.03886925795053,NA
07871,Sussex County,NJ,57.51633986928104,NA,NA
08028,Gloucester County,NJ,NA,58.8339222614841,NA
08046,Burlington County,NJ,NA,NA,31
08083,Camden County,NJ,44.11764705882353,NA,NA
08088,Burlington County,NJ,NA,NA,89.33333333333333
08096,Gloucester County,NJ,NA,8.12720848056537,NA
08210,Cape May County,NJ,NA,46.64310954063604,NA
08322,Gloucester County,NJ,NA,81.2720848056537,NA
08344,Gloucester County,NJ,92.15686274509804,NA,NA
08401,Atlantic County,NJ,NA,NA,21.166666666666668
08540,Mercer County,NJ,71.24183006535948,NA,NA
08618,Mercer County,NJ,NA,NA,34.66666666666667
08701,Ocean County,NJ,59.150326797385624,8.8339222614841,NA
08735,Ocean County,NJ,NA,NA,96.5
08736,Monmouth County,NJ,NA,85.86572438162544,NA
08753,Ocean County,NJ,NA,4.946996466431095,10.166666666666666
08757,Ocean County,NJ,NA,NA,0.6666666666666667
08824,Middlesex County,NJ,NA,NA,93.66666666666667
08846,Middlesex County,NJ,NA,NA,83.66666666666667
08884,Middlesex County,NJ,NA,90.10600706713781,NA
87102,Bernalillo County,NM,21.241830065359476,NA,85.16666666666667
87106,Bernalillo County,NM,NA,43.46289752650176,NA
87108,Bernalillo County,NM,NA,5.830388692579505,NA
87109,Bernalillo County,NM,15.359477124183007,NA,9.666666666666666
87112,Bernalillo County,NM,NA,9.540636042402827,NA
87120,Bernalillo County,NM,NA,NA,23
87301,McKinley County,NM,NA,NA,75.83333333333333
87505,Santa Fe County,NM,2.941176470588235,NA,NA
88005,Doa Ana County,NM,NA,76.32508833922262,NA
88012,Doa Ana County,NM,NA,98.23321554770318,NA
88352,Otero County,NM,NA,NA,67.33333333333333
10001,New York County,NY,NA,NA,46.666666666666664
10010,New York County,NY,NA,NA,48.16666666666667
10011,New York County,NY,38.56209150326798,NA,NA
10014,New York County,NY,NA,58.12720848056537,NA
10025,New York County,NY,NA,1.4134275618374559,NA
10028,New York County,NY,NA,NA,19.833333333333332
10457,Bronx County,NY,NA,66.96113074204946,NA
10458,Bronx County,NY,NA,0.35335689045936397,NA
10461,Bronx County,NY,NA,NA,24.666666666666668
10472,Bronx County,NY,NA,16.25441696113074,NA
10549,Westchester County,NY,NA,95.58303886925795,NA
10562,Westchester County,NY,NA,NA,73
10708,Westchester County,NY,NA,84.09893992932862,NA
10901,Rockland County,NY,NA,69.6113074204947,NA
10962,Rockland County,NY,NA,NA,95.83333333333334
11030,Nassau County,NY,NA,90.63604240282686,NA
11208,Kings County,NY,6.535947712418301,NA,NA
11214,Kings County,NY,NA,11.307420494699647,NA
11228,Kings County,NY,NA,NA,47
11355,Queens County,NY,NA,NA,14.499999999999998
11368,Queens County,NY,NA,NA,14.166666666666666
11375,Queens County,NY,75.81699346405229,NA,NA
11561,Nassau County,NY,NA,33.215547703180206,NA
11590,Nassau County,NY,NA,NA,23.5
11779,Suffolk County,NY,NA,51.060070671378085,NA
11791,Nassau County,NY,95.42483660130719,NA,NA
11944,Suffolk County,NY,NA,96.81978798586573,NA
12078,Fulton County,NY,NA,8.657243816254418,NA
12095,Fulton County,NY,NA,NA,57.666666666666664
12211,Albany County,NY,96.07843137254902,NA,NA
12306,Schenectady County,NY,NA,NA,42
12508,Dutchess County,NY,NA,NA,91
12550,Orange County,NY,31.045751633986928,NA,NA
12590,Dutchess County,NY,NA,67.6678445229682,NA
12953,Franklin County,NY,NA,NA,23.666666666666668
13021,Cayuga County,NY,NA,1.9434628975265018,16.5
13045,Cortland County,NY,NA,9.717314487632509,NA
13069,Oswego County,NY,3.594771241830065,NA,NA
13148,Seneca County,NY,23.202614379084967,NA,NA
13203,Onondaga County,NY,17.973856209150327,NA,NA
13204,Onondaga County,NY,NA,NA,86.66666666666667
13421,Madison County,NY,NA,54.59363957597173,NA
13452,Montgomery County,NY,83.33333333333334,NA,NA
13601,Jefferson County,NY,1.9607843137254901,NA,NA
13778,Chenango County,NY,NA,NA,69.33333333333334
13815,Chenango County,NY,NA,13.074204946996467,NA
13820,Otsego County,NY,34.967320261437905,NA,NA
14001,Erie County,NY,72.87581699346404,NA,NA
14086,Erie County,NY,NA,18.90459363957597,NA
14094,Niagara County,NY,NA,2.1201413427561837,NA
14120,Niagara County,NY,2.287581699346405,NA,NA
14132,Niagara County,NY,64.05228758169935,NA,NA
14217,Erie County,NY,NA,57.42049469964664,NA
14225,Erie County,NY,NA,15.547703180212014,NA
14468,Monroe County,NY,NA,19.78798586572438,NA
14482,Genesee County,NY,NA,NA,89
14514,Monroe County,NY,NA,NA,89.83333333333333
14534,Monroe County,NY,NA,1.76678445229682,NA
14560,Livingston County,NY,98.0392156862745,NA,NA
14580,Monroe County,NY,NA,5.30035335689046,NA
14606,Monroe County,NY,NA,11.66077738515901,NA
14617,Monroe County,NY,NA,4.063604240282685,NA
14622,Monroe County,NY,NA,18.374558303886925,NA
14813,Allegany County,NY,99.34640522875817,NA,NA
14840,Steuben County,NY,NA,NA,99.16666666666667
14892,Tioga County,NY,NA,58.12720848056537,NA
27041,Surry County,NC,NA,NA,57.666666666666664
27052,Stokes County,NC,65.0326797385621,NA,NA
27106,Forsyth County,NC,NA,NA,1.5
27205,Randolph County,NC,NA,24.204946996466433,NA
27215,Alamance County,NC,NA,68.37455830388693,NA
27244,Alamance County,NC,NA,NA,85.5
27262,Guilford County,NC,NA,86.74911660777384,NA
27263,Randolph County,NC,NA,57.06713780918727,NA
27278,Orange County,NC,NA,12.7208480565371,NA
27295,Davidson County,NC,1.3071895424836601,NA,2.666666666666667
27302,Alamance County,NC,28.75816993464052,NA,NA
27320,Rockingham County,NC,9.803921568627452,9.363957597173144,NA
27332,Lee County,NC,NA,NA,48.16666666666667
27360,Davidson County,NC,52.28758169934641,NA,NA
27455,Guilford County,NC,NA,53.88692579505301,NA
27510,Orange County,NC,NA,80.91872791519434,NA
27524,Johnston County,NC,NA,73.4982332155477,NA
27525,Franklin County,NC,58.16993464052288,NA,NA
27529,Wake County,NC,23.52941176470588,NA,NA
27530,Wayne County,NC,13.725490196078432,NA,NA
27565,Granville County,NC,NA,NA,27.333333333333332
27587,Wake County,NC,NA,8.480565371024735,NA
27603,Wake County,NC,NA,26.855123674911663,NA
27606,Wake County,NC,47.712418300653596,NA,NA
27613,Wake County,NC,NA,NA,54.666666666666664
27823,Halifax County,NC,74.18300653594771,NA,NA
27886,Edgecombe County,NC,NA,NA,77
27909,Pasquotank County,NC,12.418300653594772,NA,NA
28018,Rutherford County,NC,NA,99.29328621908127,NA
28027,Cabarrus County,NC,NA,7.243816254416961,NA
28079,Union County,NC,NA,50.70671378091873,39.5
28083,Cabarrus County,NC,NA,21.37809187279152,NA
28127,Stanly County,NC,NA,83.21554770318022,90.5
28160,Rutherford County,NC,NA,NA,97.5
28270,Mecklenburg County,NC,NA,47.70318021201413,NA
28379,Richmond County,NC,NA,28.091872791519435,NA
28412,New Hanover County,NC,NA,NA,26.5
28451,Brunswick County,NC,NA,22.968197879858657,NA
28470,Brunswick County,NC,NA,NA,98.66666666666667
28532,Craven County,NC,NA,88.16254416961131,NA
28739,Henderson County,NC,NA,NA,8.666666666666668
28754,Madison County,NC,98.36601307189542,NA,NA
28779,Jackson County,NC,NA,NA,55.50000000000001
28787,Buncombe County,NC,NA,NA,69.5
28901,Cherokee County,NC,NA,NA,94.5
58103,Cass County,ND,NA,NA,14.833333333333334
58701,Ward County,ND,NA,NA,15.166666666666668
58801,Williams County,ND,NA,52.65017667844523,NA
43004,Franklin County,OH,NA,64.48763250883393,NA
43054,Franklin County,OH,NA,NA,63.83333333333333
43065,Delaware County,OH,NA,29.50530035335689,NA
43068,Franklin County,OH,7.8431372549019605,NA,NA
43085,Franklin County,OH,NA,94.52296819787986,NA
43103,Pickaway County,OH,NA,NA,92.83333333333333
43123,Franklin County,OH,NA,NA,11.5
43160,Fayette County,OH,13.071895424836603,NA,76.66666666666667
43206,Franklin County,OH,NA,59.01060070671378,NA
43224,Franklin County,OH,NA,14.13427561837456,NA
43235,Franklin County,OH,NA,NA,28.999999999999996
43357,Logan County,OH,NA,NA,67.66666666666666
43558,Fulton County,OH,NA,50.17667844522968,NA
43606,Lucas County,OH,NA,33.39222614840989,NA
43609,Lucas County,OH,2.6143790849673203,NA,NA
43612,Lucas County,OH,1.6339869281045754,NA,NA
43615,Lucas County,OH,NA,28.4452296819788,NA
43701,Muskingum County,OH,NA,0.5300353356890459,NA
43725,Guernsey County,OH,NA,7.06713780918728,NA
43953,Jefferson County,OH,NA,26.325088339222614,NA
44022,Cuyahoga County,OH,NA,28.79858657243816,NA
44035,Lorain County,OH,24.183006535947712,NA,0.16666666666666669
44052,Lorain County,OH,NA,16.96113074204947,NA
44060,Lake County,OH,NA,NA,4.833333333333333
44070,Cuyahoga County,OH,NA,5.6537102473498235,NA
44122,Cuyahoga County,OH,NA,NA,0.5
44123,Cuyahoga County,OH,NA,NA,36.16666666666667
44124,Cuyahoga County,OH,NA,NA,0.8333333333333334
44130,Cuyahoga County,OH,NA,1.0600706713780919,NA
44139,Cuyahoga County,OH,NA,12.54416961130742,NA
44149,Cuyahoga County,OH,NA,16.431095406360424,NA
44201,Portage County,OH,NA,97.87985865724382,NA
44278,Summit County,OH,NA,46.113074204947,NA
44286,Summit County,OH,NA,NA,98.83333333333333
44307,Summit County,OH,NA,65.01766784452296,NA
44312,Summit County,OH,NA,NA,22.833333333333332
44406,Mahoning County,OH,NA,NA,23.833333333333336
44420,Trumbull County,OH,36.9281045751634,NA,NA
44429,Mahoning County,OH,NA,99.64664310954063,NA
44481,Trumbull County,OH,NA,NA,77.33333333333333
44484,Trumbull County,OH,27.124183006535947,12.014134275618375,NA
44509,Mahoning County,OH,84.31372549019608,NA,NA
44514,Mahoning County,OH,NA,NA,20.166666666666664
44641,Stark County,OH,NA,NA,27.833333333333332
44667,Wayne County,OH,NA,NA,73.16666666666667
44708,Stark County,OH,NA,NA,17.833333333333336
44710,Stark County,OH,NA,84.62897526501767,NA
44720,Stark County,OH,NA,19.434628975265017,NA
45056,Butler County,OH,NA,78.09187279151944,NA
45103,Clermont County,OH,NA,22.43816254416961,NA
45208,Hamilton County,OH,NA,83.56890459363959,NA
45236,Hamilton County,OH,54.248366013071895,NA,NA
45246,Hamilton County,OH,NA,NA,98.33333333333333
45247,Hamilton County,OH,NA,NA,26.333333333333332
45320,Preble County,OH,NA,37.80918727915194,NA
45331,Darke County,OH,73.52941176470588,NA,NA
45342,Montgomery County,OH,NA,NA,22
45344,Clark County,OH,NA,51.41342756183745,NA
45356,Miami County,OH,NA,11.484098939929329,NA
45365,Shelby County,OH,NA,50,NA
45385,Greene County,OH,NA,62.89752650176679,NA
45402,Montgomery County,OH,NA,NA,96.33333333333334
45403,Montgomery County,OH,69.6078431372549,NA,NA
45420,Montgomery County,OH,25.49019607843137,NA,NA
45458,Montgomery County,OH,NA,NA,26.833333333333332
45459,Montgomery County,OH,NA,NA,15.5
45503,Clark County,OH,5.88235294117647,NA,NA
45628,Ross County,OH,NA,59.54063604240283,NA
45638,Lawrence County,OH,NA,3.7102473498233217,NA
45648,Scioto County,OH,NA,NA,88.83333333333333
45669,Lawrence County,OH,NA,19.964664310954063,NA
45692,Jackson County,OH,NA,72.26148409893993,NA
45764,Athens County,OH,68.95424836601308,NA,NA
45780,Athens County,OH,92.81045751633987,NA,NA
45817,Allen County,OH,NA,NA,83.83333333333334
45822,Mercer County,OH,NA,33.56890459363957,NA
45840,Hancock County,OH,NA,3.180212014134275,6.666666666666667
73008,Oklahoma County,OK,NA,NA,41.333333333333336
73013,Oklahoma County,OK,NA,NA,10.333333333333334
73034,Oklahoma County,OK,NA,13.427561837455832,NA
73036,Canadian County,OK,NA,NA,59.166666666666664
73080,McClain County,OK,79.08496732026144,NA,NA
73529,Stephens County,OK,97.05882352941177,NA,NA
73601,Custer County,OK,NA,NA,71.16666666666667
74003,Osage County,OK,NA,NA,88.66666666666667
74012,Tulsa County,OK,NA,NA,8.333333333333332
74021,Tulsa County,OK,NA,NA,81
74128,Tulsa County,OK,NA,NA,97.33333333333334
74145,Tulsa County,OK,86.60130718954248,67.49116607773851,NA
74331,Delaware County,OK,NA,79.85865724381625,NA
74344,Delaware County,OK,NA,NA,91.16666666666666
74601,Kay County,OK,NA,NA,72.16666666666667
74728,McCurtain County,OK,NA,NA,79.16666666666666
74851,Pottawatomie County,OK,NA,72.08480565371025,NA
97006,Washington County,OR,29.411764705882355,NA,NA
97013,Clackamas County,OR,NA,NA,55.50000000000001
97051,Columbia County,OR,NA,77.91519434628975,NA
97132,Yamhill County,OR,NA,30.212014134275616,NA
97219,Multnomah County,OR,NA,31.62544169611308,53.5
97267,Clackamas County,OR,NA,NA,20.5
97301,Marion County,OR,NA,NA,41.16666666666667
97355,Linn County,OR,10.130718954248366,NA,NA
97383,Marion County,OR,NA,86.39575971731449,NA
97401,Lane County,OR,NA,72.96819787985865,NA
97402,Lane County,OR,19.28104575163399,NA,NA
97415,Curry County,OR,NA,26.148409893992934,NA
97424,Lane County,OR,NA,37.63250883392226,NA
97444,Curry County,OR,NA,NA,69.83333333333334
97459,Coos County,OR,NA,75.79505300353357,NA
97470,Douglas County,OR,NA,25.618374558303884,NA
97471,Douglas County,OR,15.032679738562091,NA,NA
97478,Lane County,OR,NA,48.76325088339223,NA
97501,Jackson County,OR,NA,NA,64.66666666666666
97630,Lake County,OR,97.38562091503267,NA,NA
15010,Beaver County,PA,NA,27.915194346289752,NA
15021,Washington County,PA,NA,94.34628975265018,NA
15042,Beaver County,PA,82.6797385620915,NA,NA
15089,Westmoreland County,PA,NA,NA,78.16666666666666
15101,Allegheny County,PA,NA,53.71024734982333,NA
15122,Allegheny County,PA,NA,60.07067137809188,NA
15132,Allegheny County,PA,NA,NA,39.666666666666664
15145,Allegheny County,PA,NA,94.69964664310953,NA
15146,Allegheny County,PA,NA,70.84805653710248,NA
15202,Allegheny County,PA,NA,77.3851590106007,NA
15212,Allegheny County,PA,NA,39.92932862190813,70.5
15238,Allegheny County,PA,NA,NA,71.83333333333334
15425,Fayette County,PA,NA,NA,34.166666666666664
15650,Westmoreland County,PA,NA,15.901060070671377,9.166666666666666
15857,Elk County,PA,NA,41.51943462897527,NA
15901,Cambria County,PA,NA,85.68904593639576,NA
15905,Cambria County,PA,NA,37.27915194346289,NA
16105,Lawrence County,PA,NA,31.978798586572438,NA
16137,Mercer County,PA,NA,34.09893992932862,NA
16146,Mercer County,PA,NA,44.16961130742049,28.333333333333332
16226,Armstrong County,PA,NA,NA,86.16666666666667
16323,Venango County,PA,NA,NA,40.833333333333336
16407,Erie County,PA,NA,95.22968197879858,NA
16507,Erie County,PA,NA,96.46643109540636,NA
16635,Blair County,PA,NA,69.78798586572438,NA
17011,Cumberland County,PA,NA,NA,14.333333333333334
17025,Cumberland County,PA,NA,59.54063604240283,NA
17042,Lebanon County,PA,NA,6.36042402826855,NA
17050,Cumberland County,PA,NA,NA,20.333333333333332
17059,Juniata County,PA,NA,NA,80.16666666666666
17104,Dauphin County,PA,NA,38.16254416961131,NA
17110,Dauphin County,PA,NA,NA,41.5
17268,Franklin County,PA,50.326797385620914,NA,NA
17315,York County,PA,26.47058823529412,NA,NA
17403,York County,PA,NA,NA,16.833333333333332
17404,York County,PA,10.457516339869281,NA,NA
17728,Lycoming County,PA,NA,74.02826855123675,NA
17751,Clinton County,PA,NA,97.52650176678446,NA
17801,Northumberland County,PA,18.627450980392158,NA,NA
17815,Columbia County,PA,NA,10.60070671378092,NA
17844,Union County,PA,NA,NA,78
17872,Northumberland County,PA,NA,39.04593639575972,NA
18017,Northampton County,PA,60.45751633986928,NA,NA
18031,Lehigh County,PA,76.47058823529412,NA,NA
18091,Northampton County,PA,NA,NA,63.16666666666667
18103,Lehigh County,PA,4.248366013071895,NA,NA
18104,Lehigh County,PA,NA,NA,3.166666666666667
18255,Carbon County,PA,NA,NA,79.83333333333333
18505,Lackawanna County,PA,NA,NA,47.16666666666667
18509,Lackawanna County,PA,NA,95.0530035335689,NA
18519,Lackawanna County,PA,NA,95.93639575971731,NA
18643,Luzerne County,PA,NA,NA,49
18644,Luzerne County,PA,NA,NA,78.33333333333333
18901,Bucks County,PA,NA,NA,10.666666666666668
18940,Bucks County,PA,NA,NA,48.66666666666667
18951,Bucks County,PA,NA,16.784452296819786,NA
18969,Montgomery County,PA,NA,NA,72.5
19018,Delaware County,PA,26.143790849673206,NA,NA
19040,Montgomery County,PA,NA,NA,29.5
19061,Delaware County,PA,28.104575163398692,NA,NA
19067,Bucks County,PA,16.666666666666664,NA,NA
19082,Delaware County,PA,NA,65.19434628975264,64.83333333333333
19083,Delaware County,PA,NA,12.897526501766784,NA
19104,Philadelphia County,PA,NA,55.47703180212014,NA
19114,Philadelphia County,PA,17.647058823529413,NA,NA
19118,Philadelphia County,PA,NA,NA,93.66666666666667
19143,Philadelphia County,PA,NA,32.86219081272085,NA
19148,Philadelphia County,PA,32.02614379084967,NA,NA
19320,Chester County,PA,NA,NA,18.666666666666668
19382,Chester County,PA,45.751633986928105,63.427561837455826,17.333333333333336
19438,Montgomery County,PA,NA,NA,32
19454,Montgomery County,PA,NA,NA,42.5
19465,Chester County,PA,NA,68.7279151943463,NA
19468,Montgomery County,PA,NA,36.042402826855124,NA
19473,Montgomery County,PA,79.73856209150327,NA,NA
19520,Chester County,PA,NA,NA,74.66666666666667
19530,Berks County,PA,NA,NA,93.5
19602,Berks County,PA,NA,NA,68
19606,Berks County,PA,NA,NA,16.833333333333332
19608,Berks County,PA,NA,NA,77.5
02806,Bristol County,RI,NA,NA,55.00000000000001
02852,Washington County,RI,NA,NA,33.5
02886,Kent County,RI,NA,NA,6
29036,Lexington County,SC,NA,NA,71
29205,Richland County,SC,90.52287581699346,NA,NA
29307,Spartanburg County,SC,NA,NA,46.33333333333333
29349,Spartanburg County,SC,NA,20.49469964664311,NA
29356,Spartanburg County,SC,NA,93.28621908127208,NA
29379,Union County,SC,NA,NA,49.666666666666664
29420,Dorchester County,SC,48.366013071895424,NA,NA
29455,Charleston County,SC,NA,34.62897526501767,NA
29505,Florence County,SC,NA,NA,42
29510,Georgetown County,SC,64.37908496732027,NA,NA
29526,Horry County,SC,NA,NA,24
29527,Horry County,SC,51.307189542483655,NA,NA
29532,Darlington County,SC,61.43790849673203,NA,NA
29566,Horry County,SC,75.16339869281046,NA,NA
29576,Horry County,SC,NA,NA,14.666666666666666
29605,Greenville County,SC,22.54901960784314,NA,NA
29609,Greenville County,SC,NA,46.996466431095406,NA
29627,Anderson County,SC,NA,NA,59
29642,Pickens County,SC,NA,16.607773851590103,NA
29651,Greenville County,SC,19.934640522875817,NA,NA
29678,Oconee County,SC,NA,34.275618374558306,NA
29860,Edgefield County,SC,NA,72.79151943462897,NA
29926,Beaufort County,SC,NA,65.90106007067138,NA
57103,Minnehaha County,SD,NA,23.674911660777383,NA
57106,Minnehaha County,SD,NA,6.713780918727916,NA
57262,Roberts County,SD,NA,NA,100
57719,Pennington County,SD,87.58169934640523,NA,NA
37015,Cheatham County,TN,NA,47.52650176678445,NA
37042,Montgomery County,TN,NA,NA,51
37058,Stewart County,TN,NA,NA,96.83333333333334
37066,Sumner County,TN,NA,75.61837455830388,NA
37074,Trousdale County,TN,NA,80.74204946996466,NA
37087,Wilson County,TN,NA,24.02826855123675,NA
37091,Marshall County,TN,39.54248366013072,NA,NA
37096,Perry County,TN,97.7124183006536,NA,NA
37110,Warren County,TN,NA,25.4416961130742,NA
37130,Rutherford County,TN,NA,NA,35.66666666666667
37187,Dickson County,TN,90.19607843137256,NA,NA
37208,Davidson County,TN,25.163398692810457,NA,NA
37221,Davidson County,TN,65.68627450980392,NA,NA
37398,Franklin County,TN,NA,NA,43.166666666666664
37405,Hamilton County,TN,NA,80.91872791519434,NA
37411,Hamilton County,TN,38.23529411764706,NA,NA
37412,Hamilton County,TN,NA,63.78091872791519,NA
37416,Hamilton County,TN,NA,NA,74.5
37421,Hamilton County,TN,26.797385620915033,NA,NA
37615,Washington County,TN,NA,NA,59.5
37642,Hawkins County,TN,NA,NA,67.33333333333333
37643,Carter County,TN,NA,NA,18.333333333333332
37659,Washington County,TN,NA,30.03533568904594,NA
37664,Sullivan County,TN,NA,NA,27.166666666666668
37683,Johnson County,TN,NA,88.69257950530034,NA
37743,Greene County,TN,NA,NA,9.5
37803,Blount County,TN,NA,13.250883392226148,15.666666666666668
37821,Cocke County,TN,NA,30.918727915194346,NA
37857,Hawkins County,TN,NA,41.87279151943463,NA
37874,Monroe County,TN,NA,NA,55.833333333333336
37914,Knox County,TN,NA,39.2226148409894,NA
37920,Knox County,TN,39.21568627450981,NA,NA
38105,Shelby County,TN,85.62091503267973,NA,NA
38109,Shelby County,TN,NA,14.840989399293287,NA
38119,Shelby County,TN,NA,NA,66
38128,Shelby County,TN,NA,NA,64
38138,Shelby County,TN,NA,NA,43.333333333333336
38230,Weakley County,TN,NA,99.46996466431095,NA
38315,McNairy County,TN,NA,NA,98.16666666666667
38340,Chester County,TN,NA,NA,65.5
38363,Decatur County,TN,NA,87.27915194346289,NA
38450,Wayne County,TN,99.01960784313727,NA,NA
38556,Fentress County,TN,52.614379084967325,NA,NA
38571,Cumberland County,TN,NA,44.87632508833922,NA
38572,Cumberland County,TN,NA,61.660777385159015,NA
38583,White County,TN,NA,66.96113074204946,NA
75009,Collin County,TX,NA,NA,88
75022,Denton County,TX,NA,NA,85.16666666666667
75067,Denton County,TX,31.699346405228756,NA,NA
75069,Collin County,TX,50,NA,NA
75070,Collin County,TX,NA,44.34628975265017,NA
75077,Denton County,TX,NA,51.060070671378085,NA
75093,Collin County,TX,NA,NA,68.5
75115,Dallas County,TX,NA,NA,24.333333333333336
75137,Dallas County,TX,NA,78.62190812720848,NA
75203,Dallas County,TX,NA,71.02473498233216,NA
75212,Dallas County,TX,NA,NA,48.5
75214,Dallas County,TX,NA,NA,60.66666666666667
75217,Dallas County,TX,NA,8.303886925795052,NA
75229,Dallas County,TX,NA,NA,51.83333333333333
75231,Dallas County,TX,46.40522875816993,NA,NA
75633,Panola County,TX,NA,84.2756183745583,NA
75703,Smith County,TX,NA,NA,37
75706,Smith County,TX,NA,71.90812720848056,NA
75766,Cherokee County,TX,34.31372549019608,NA,NA
75935,Shelby County,TX,NA,NA,85.66666666666667
75948,Sabine County,TX,NA,79.15194346289752,NA
76013,Tarrant County,TX,NA,NA,62.66666666666667
76028,Johnson County,TX,NA,24.73498233215548,12.5
76033,Johnson County,TX,NA,74.91166077738515,NA
76049,Hood County,TX,NA,NA,25.5
76067,Palo Pinto County,TX,NA,NA,52.33333333333333
76086,Parker County,TX,59.47712418300654,NA,NA
76108,Tarrant County,TX,NA,23.851590106007066,NA
76116,Tarrant County,TX,21.895424836601308,NA,NA
76140,Tarrant County,TX,37.908496732026144,NA,NA
76177,Tarrant County,TX,NA,98.40989399293287,NA
76180,Tarrant County,TX,NA,NA,28.666666666666668
76201,Denton County,TX,NA,97.1731448763251,NA
76208,Denton County,TX,NA,50.53003533568905,NA
76306,Wichita County,TX,63.725490196078425,NA,NA
76401,Erath County,TX,NA,52.120141342756185,NA
76426,Wise County,TX,86.9281045751634,NA,NA
76504,Bell County,TX,NA,2.4734982332155475,NA
76522,Coryell County,TX,46.07843137254902,NA,NA
76904,Tom Green County,TX,NA,NA,28.833333333333332
77005,Harris County,TX,NA,NA,58.666666666666664
77009,Harris County,TX,NA,NA,59.833333333333336
77012,Harris County,TX,88.23529411764706,NA,NA
77024,Harris County,TX,NA,NA,36.666666666666664
77033,Harris County,TX,NA,18.021201413427562,NA
77040,Harris County,TX,46.73202614379085,NA,NA
77044,Harris County,TX,35.947712418300654,NA,NA
77080,Harris County,TX,72.22222222222221,NA,NA
77092,Harris County,TX,56.86274509803921,NA,NA
77429,Harris County,TX,NA,4.593639575971731,58.5
77450,Harris County,TX,NA,18.551236749116608,39.166666666666664
77471,Fort Bend County,TX,NA,63.074204946996474,NA
77504,Harris County,TX,NA,NA,75.5
77520,Harris County,TX,NA,NA,53.166666666666664
77532,Harris County,TX,NA,66.78445229681978,NA
77546,Galveston County,TX,NA,10.954063604240282,NA
77550,Galveston County,TX,NA,NA,5.166666666666667
77584,Brazoria County,TX,NA,20.141342756183743,NA
77611,Orange County,TX,75.49019607843137,NA,NA
77845,Brazos County,TX,8.169934640522875,NA,NA
77901,Victoria County,TX,NA,NA,62.5
77957,Jackson County,TX,NA,77.03180212014135,NA
78006,Kendall County,TX,NA,NA,68.33333333333333
78164,DeWitt County,TX,96.40522875816994,NA,NA
78207,Bexar County,TX,NA,13.780918727915195,NA
78213,Bexar County,TX,NA,NA,48
78218,Bexar County,TX,NA,54.946996466431095,NA
78224,Bexar County,TX,NA,82.15547703180212,NA
78226,Bexar County,TX,NA,NA,99.66666666666667
78228,Bexar County,TX,28.431372549019606,NA,NA
78237,Bexar County,TX,NA,NA,52.166666666666664
78245,Bexar County,TX,NA,51.9434628975265,NA
78259,Bexar County,TX,NA,87.80918727915194,NA
78374,San Patricio County,TX,86.27450980392157,NA,NA
78404,Nueces County,TX,NA,NA,84.5
78418,Nueces County,TX,NA,94.1696113074205,NA
78516,Hidalgo County,TX,NA,52.82685512367491,NA
78566,Cameron County,TX,88.56209150326796,NA,NA
78572,Hidalgo County,TX,16.99346405228758,NA,NA
78578,Cameron County,TX,NA,90.45936395759718,NA
78628,Williamson County,TX,NA,NA,2.5
78639,Llano County,TX,79.41176470588235,NA,NA
78640,Hays County,TX,NA,42.75618374558304,NA
78641,Williamson County,TX,NA,17.137809187279153,NA
78643,Llano County,TX,NA,NA,54.166666666666664
78666,Hays County,TX,NA,NA,21.833333333333332
78746,Travis County,TX,NA,NA,87
78957,Bastrop County,TX,NA,96.64310954063605,NA
79414,Lubbock County,TX,NA,NA,55.333333333333336
79415,Lubbock County,TX,NA,71.73144876325088,NA
79423,Lubbock County,TX,NA,61.48409893992933,NA
79605,Taylor County,TX,NA,92.75618374558304,NA
79705,Midland County,TX,NA,35.159010600706715,NA
79707,Midland County,TX,33.33333333333333,NA,NA
79764,Ector County,TX,99.67320261437908,NA,NA
79925,El Paso County,TX,NA,NA,33.666666666666664
79935,El Paso County,TX,NA,NA,82.33333333333334
84115,Salt Lake County,UT,NA,35.86572438162544,NA
84116,Salt Lake County,UT,NA,34.45229681978799,NA
84121,Salt Lake County,UT,41.830065359477125,NA,18.5
84123,Salt Lake County,UT,20.588235294117645,NA,NA
84124,Salt Lake County,UT,NA,NA,81.16666666666667
84401,Weber County,UT,NA,82.50883392226149,73.5
84404,Weber County,UT,NA,39.399293286219084,NA
84532,Grand County,UT,NA,88.86925795053003,NA
84604,Utah County,UT,85.29411764705883,NA,NA
84790,Washington County,UT,NA,49.46996466431096,NA
05452,Chittenden County,VT,NA,NA,42.66666666666667
05468,Chittenden County,VT,NA,NA,59.833333333333336
05753,Addison County,VT,NA,NA,57.99999999999999
05819,Caledonia County,VT,NA,NA,65.66666666666666
20155,Prince William County,VA,NA,46.64310954063604,83
22124,Fairfax County,VA,NA,NA,95.16666666666667
22203,Arlington County,VA,73.20261437908496,NA,NA
22301,Alexandria city,VA,89.2156862745098,NA,NA
22401,Fredericksburg city,VA,NA,74.55830388692578,NA
22407,Spotsylvania County,VA,NA,17.491166077738516,NA
22611,Clarke County,VA,94.44444444444444,NA,NA
22801,Harrisonburg city,VA,43.790849673202615,NA,NA
22901,Albemarle County,VA,NA,28.621908127208478,NA
22903,Charlottesville city,VA,27.450980392156865,NA,NA
23188,James City County,VA,NA,NA,1.1666666666666667
23237,Chesterfield County,VA,48.03921568627451,NA,NA
23321,Chesapeake city,VA,NA,NA,22.333333333333332
23322,Chesapeake city,VA,NA,21.908127208480565,NA
23323,Chesapeake city,VA,NA,NA,76.83333333333333
23434,Suffolk city,VA,NA,9.89399293286219,NA
23462,Virginia Beach city,VA,NA,10.070671378091872,NA
23464,Virginia Beach city,VA,NA,3.356890459363958,NA
23518,Norfolk city,VA,NA,NA,17.166666666666668
23601,Newport News city,VA,NA,NA,27
23663,Hampton city,VA,NA,NA,95.33333333333334
23666,Hampton city,VA,NA,10.424028268551238,NA
24017,Roanoke city,VA,23.856209150326798,NA,NA
24018,Roanoke County,VA,NA,NA,7.666666666666666
24101,Franklin County,VA,96.73202614379085,NA,90.83333333333333
24148,Henry County,VA,NA,NA,90.16666666666666
24201,Bristol city,VA,NA,NA,43.666666666666664
24260,Russell County,VA,NA,NA,64.33333333333333
24401,Staunton city,VA,NA,6.890459363957597,5
24450,Rockbridge County,VA,NA,NA,37.333333333333336
24540,Danville city,VA,NA,NA,38.83333333333333
98027,King County,WA,NA,44.69964664310954,NA
98057,King County,WA,NA,NA,80.5
98070,King County,WA,95.09803921568627,NA,NA
98072,King County,WA,NA,60.600706713780916,NA
98075,King County,WA,NA,77.3851590106007,NA
98107,King County,WA,NA,71.5547703180212,NA
98112,King County,WA,56.209150326797385,NA,NA
98118,King County,WA,42.810457516339866,NA,30.5
98188,King County,WA,NA,NA,59.333333333333336
98223,Snohomish County,WA,NA,NA,75.16666666666667
98233,Skagit County,WA,NA,55.830388692579504,NA
98249,Island County,WA,NA,98.0565371024735,NA
98250,San Juan County,WA,NA,93.63957597173145,81.5
98252,Snohomish County,WA,NA,NA,98.5
98270,Snohomish County,WA,17.320261437908496,NA,NA
98277,Island County,WA,NA,NA,12.166666666666668
98362,Clallam County,WA,NA,NA,4.166666666666666
98371,Pierce County,WA,NA,NA,43
98375,Pierce County,WA,53.26797385620915,NA,NA
98409,Pierce County,WA,56.5359477124183,NA,NA
98467,Pierce County,WA,NA,91.34275618374559,NA
98502,Thurston County,WA,NA,NA,42.833333333333336
98512,Thurston County,WA,NA,NA,63.5
98513,Thurston County,WA,NA,65.7243816254417,NA
98528,Mason County,WA,NA,NA,92.16666666666666
98569,Grays Harbor County,WA,NA,NA,93.16666666666666
98661,Clark County,WA,NA,NA,38.333333333333336
98684,Clark County,WA,NA,93.99293286219081,NA
98901,Yakima County,WA,55.88235294117647,NA,NA
98926,Kittitas County,WA,NA,36.74911660777385,NA
98942,Yakima County,WA,NA,NA,79
98951,Yakima County,WA,NA,89.57597173144876,NA
99202,Spokane County,WA,61.111111111111114,NA,NA
99336,Benton County,WA,11.437908496732026,NA,NA
20009,District of Columbia,DC,NA,NA,72
25302,Kanawha County,WV,NA,NA,51.33333333333333
25387,Kanawha County,WV,77.77777777777779,NA,NA
25508,Logan County,WV,NA,70.14134275618375,NA
25526,Putnam County,WV,NA,NA,35.5
25550,Mason County,WV,NA,70.6713780918728,NA
25701,Cabell County,WV,NA,15.01766784452297,NA
25813,Raleigh County,WV,NA,93.81625441696113,NA
25962,Greenbrier County,WV,NA,NA,97.66666666666667
26187,Wood County,WV,67.64705882352942,NA,NA
26651,Nicholas County,WV,NA,NA,82
26847,Grant County,WV,NA,79.68197879858657,NA
53027,Washington County,WI,67.3202614379085,NA,NA
53066,Waukesha County,WI,NA,NA,21.5
53095,Washington County,WI,52.94117647058824,NA,NA
53132,Milwaukee County,WI,39.54248366013072,NA,NA
53142,Kenosha County,WI,NA,NA,34.166666666666664
53144,Kenosha County,WI,14.705882352941178,NA,NA
53207,Milwaukee County,WI,25.816993464052292,NA,NA
53211,Milwaukee County,WI,NA,NA,9
53217,Milwaukee County,WI,NA,NA,12.833333333333332
53220,Milwaukee County,WI,NA,23.498233215547703,NA
53223,Milwaukee County,WI,NA,10.777385159010601,NA
53402,Racine County,WI,NA,2.2968197879858656,NA
53406,Racine County,WI,NA,NA,18.166666666666668
53511,Rock County,WI,NA,6.007067137809187,NA
53527,Dane County,WI,NA,91.51943462897526,NA
53534,Rock County,WI,NA,56.18374558303887,60.5
53548,Rock County,WI,NA,25.795053003533567,NA
53549,Jefferson County,WI,NA,54.77031802120141,NA
53719,Dane County,WI,NA,NA,57.333333333333336
53818,Grant County,WI,NA,89.2226148409894,NA
53959,Sauk County,WI,NA,NA,54.833333333333336
54022,Pierce County,WI,55.55555555555556,NA,NA
54143,Marinette County,WI,NA,57.773851590106005,NA
54302,Brown County,WI,NA,48.23321554770318,NA
54601,La Crosse County,WI,5.555555555555555,NA,NA
54615,Jackson County,WI,71.89542483660131,NA,NA
54630,Trempealeau County,WI,NA,NA,81.33333333333333
54848,Rusk County,WI,NA,NA,93.66666666666667
54901,Winnebago County,WI,NA,NA,57.49999999999999
54929,Waupaca County,WI,NA,NA,84.66666666666667
82009,Laramie County,WY,NA,NA,52.83333333333333
82414,Park County,WY,NA,43.109540636042404,NA
82716,Campbell County,WY,68.95424836601308,NA,NA
