ZipCode,county,state,Adult,Retirement,Geriatric
35022,Jefferson County,AL,NA,48.394004282655246,NA
35126,Jefferson County,AL,NA,47.53747323340471,NA
35173,Jefferson County,AL,48.6652977412731,NA,NA
35242,Shelby County,AL,NA,14.346895074946467,NA
35805,Madison County,AL,43.121149897330596,NA,NA
36092,Elmore County,AL,43.737166324435314,NA,NA
36117,Montgomery County,AL,NA,38.97216274089936,NA
36330,Coffee County,AL,NA,36.402569593147746,NA
36526,Baldwin County,AL,49.07597535934292,NA,NA
36542,Baldwin County,AL,NA,63.16916488222698,NA
85007,Maricopa County,AZ,NA,95.71734475374733,NA
85015,Maricopa County,AZ,NA,76.017130620985,NA
85029,Maricopa County,AZ,NA,NA,53.96825396825397
85142,Maricopa County,AZ,11.293634496919918,NA,NA
85205,Maricopa County,AZ,26.283367556468175,NA,NA
85209,Maricopa County,AZ,NA,26.33832976445396,NA
85303,Maricopa County,AZ,NA,89.93576017130621,NA
85378,Maricopa County,AZ,NA,NA,96.29629629629629
85552,Graham County,AZ,93.22381930184805,NA,NA
85705,Pima County,AZ,NA,NA,44.44444444444444
85730,Pima County,AZ,86.0369609856263,NA,NA
85750,Pima County,AZ,NA,46.03854389721627,NA
86409,Mohave County,AZ,NA,4.925053533190578,NA
86426,Mohave County,AZ,79.05544147843942,NA,NA
71603,Jefferson County,AR,32.03285420944558,NA,NA
72120,Pulaski County,AR,NA,NA,48.148148148148145
72653,Baxter County,AR,74.12731006160165,NA,NA
72701,Washington County,AR,64.27104722792608,NA,NA
72715,Benton County,AR,NA,87.79443254817987,NA
72758,Benton County,AR,NA,NA,79.8941798941799
72762,Washington County,AR,45.17453798767967,NA,NA
90004,Los Angeles County,CA,42.71047227926078,NA,NA
90008,Los Angeles County,CA,NA,94.86081370449678,NA
90016,Los Angeles County,CA,41.478439425051334,NA,NA
90028,Los Angeles County,CA,64.8870636550308,NA,NA
90047,Los Angeles County,CA,17.248459958932237,NA,NA
90291,Los Angeles County,CA,NA,56.102783725910065,NA
90660,Los Angeles County,CA,27.104722792607806,NA,NA
91042,Los Angeles County,CA,NA,85.4389721627409,NA
91104,Los Angeles County,CA,74.53798767967146,NA,NA
91202,Los Angeles County,CA,NA,64.02569593147751,NA
91316,Los Angeles County,CA,NA,50.32119914346895,NA
91344,Los Angeles County,CA,75.35934291581108,NA,NA
91351,Los Angeles County,CA,NA,NA,100
91355,Los Angeles County,CA,87.26899383983573,NA,NA
91709,San Bernardino County,CA,31.622176591375773,NA,NA
91737,San Bernardino County,CA,NA,53.319057815845824,NA
91739,San Bernardino County,CA,61.601642710472284,NA,NA
91762,San Bernardino County,CA,32.4435318275154,NA,NA
91789,Los Angeles County,CA,NA,80.08565310492506,NA
92028,San Diego County,CA,NA,46.680942184154176,NA
92130,San Diego County,CA,NA,NA,78.83597883597884
92154,San Diego County,CA,NA,22.055674518201286,NA
92201,Riverside County,CA,NA,17.987152034261243,NA
92203,Riverside County,CA,40.86242299794661,NA,NA
92231,Imperial County,CA,NA,NA,15.343915343915343
92240,Riverside County,CA,22.381930184804926,NA,NA
92260,Riverside County,CA,NA,NA,3.1746031746031744
92262,Riverside County,CA,22.176591375770023,NA,NA
92277,San Bernardino County,CA,NA,NA,82.01058201058201
92337,San Bernardino County,CA,57.08418891170432,NA,NA
92677,Orange County,CA,NA,40.68522483940043,NA
92679,Orange County,CA,NA,NA,76.71957671957672
92808,Orange County,CA,NA,76.87366167023555,NA
92821,Orange County,CA,NA,46.25267665952891,NA
92831,Orange County,CA,NA,NA,91.53439153439153
92835,Orange County,CA,79.46611909650923,NA,NA
92880,Riverside County,CA,22.587268993839835,NA,NA
92882,Riverside County,CA,NA,37.687366167023555,NA
93023,Ventura County,CA,NA,NA,83.06878306878306
93215,Kern County,CA,NA,76.23126338329764,NA
93277,Tulare County,CA,NA,19.271948608137045,NA
93442,San Luis Obispo County,CA,NA,89.07922912205566,NA
93514,Inyo County,CA,NA,65.73875802997858,NA
93551,Los Angeles County,CA,NA,NA,86.77248677248677
93611,Fresno County,CA,35.93429158110883,NA,NA
93711,Fresno County,CA,66.52977412731006,NA,NA
94028,San Mateo County,CA,NA,NA,65.60846560846561
94062,San Mateo County,CA,NA,75.37473233404711,52.38095238095239
94108,San Francisco County,CA,85.01026694045176,NA,NA
94501,Alameda County,CA,NA,NA,64.55026455026454
94523,Contra Costa County,CA,NA,55.0321199143469,NA
94526,Contra Costa County,CA,NA,NA,48.67724867724868
94539,Alameda County,CA,81.72484599589322,NA,NA
94551,Alameda County,CA,NA,49.67880085653105,NA
94571,Solano County,CA,NA,58.45824411134903,NA
94583,Contra Costa County,CA,NA,93.79014989293361,NA
94901,Marin County,CA,NA,NA,44.97354497354497
94945,Marin County,CA,89.93839835728953,NA,NA
94947,Marin County,CA,NA,45.82441113490364,NA
95219,San Joaquin County,CA,70.02053388090349,NA,NA
95356,Stanislaus County,CA,39.21971252566735,NA,NA
95361,Stanislaus County,CA,NA,30.19271948608137,NA
95370,Tuolumne County,CA,NA,4.068522483940043,NA
95383,Tuolumne County,CA,NA,NA,80.42328042328042
95501,Humboldt County,CA,NA,35.33190578158458,NA
95630,Sacramento County,CA,25.051334702258725,NA,NA
95632,Sacramento County,CA,58.932238193018485,NA,NA
95691,Yolo County,CA,50.10266940451745,NA,NA
95746,Placer County,CA,NA,70.02141327623126,NA
95747,Placer County,CA,NA,NA,21.693121693121693
95828,Sacramento County,CA,NA,NA,41.269841269841265
95829,Sacramento County,CA,NA,97.85867237687366,NA
95969,Butte County,CA,NA,NA,12.16931216931217
80013,Arapahoe County,CO,NA,23.768736616702355,NA
80015,Arapahoe County,CO,18.8911704312115,NA,NA
80016,Arapahoe County,CO,NA,NA,59.78835978835979
80021,Jefferson County,CO,NA,53.53319057815846,NA
80111,Arapahoe County,CO,NA,59.743040685224834,NA
80113,Arapahoe County,CO,57.28952772073922,NA,NA
80121,Arapahoe County,CO,NA,NA,56.613756613756614
80206,Denver County,CO,NA,NA,99.47089947089947
80224,Denver County,CO,62.422997946611915,NA,NA
80501,Boulder County,CO,NA,52.03426124197003,NA
80503,Boulder County,CO,NA,50.96359743040685,NA
80534,Weld County,CO,NA,68.09421841541756,NA
80634,Weld County,CO,17.453798767967147,NA,NA
80831,El Paso County,CO,68.37782340862422,NA,NA
80915,El Paso County,CO,NA,NA,68.78306878306879
80924,El Paso County,CO,95.48254620123203,NA,NA
81006,Pueblo County,CO,73.51129363449692,NA,77.77777777777779
81008,Pueblo County,CO,NA,NA,82.53968253968253
81201,Chaffee County,CO,NA,71.73447537473233,NA
81240,Fremont County,CO,97.94661190965093,NA,NA
81623,Garfield County,CO,87.47433264887063,NA,NA
06002,Hartford County,CT,NA,62.098501070663815,NA
06035,Hartford County,CT,NA,NA,87.3015873015873
06071,Tolland County,CT,92.81314168377823,NA,NA
06095,Hartford County,CT,91.17043121149896,NA,NA
06119,Hartford County,CT,NA,94.43254817987152,NA
06226,Windham County,CT,NA,43.25481798715203,NA
06234,Windham County,CT,NA,67.02355460385438,NA
06239,Windham County,CT,NA,58.02997858672377,NA
06255,Windham County,CT,75.564681724846,NA,NA
06260,Windham County,CT,NA,NA,69.84126984126983
06450,New Haven County,CT,NA,13.062098501070663,NA
06471,New Haven County,CT,NA,75.16059957173448,NA
06475,Middlesex County,CT,NA,56.3169164882227,NA
06484,Fairfield County,CT,NA,29.550321199143468,NA
06513,New Haven County,CT,21.971252566735114,NA,NA
06516,New Haven County,CT,NA,3.640256959314775,NA
06604,Fairfield County,CT,20.533880903490758,NA,NA
06702,New Haven County,CT,NA,NA,91.005291005291
06708,New Haven County,CT,22.99794661190965,NA,NA
06820,Fairfield County,CT,75.15400410677618,NA,NA
06897,Fairfield County,CT,76.59137577002053,NA,NA
19711,New Castle County,DE,NA,11.349036402569594,NA
19720,New Castle County,DE,2.6694045174537986,NA,NA
19975,Sussex County,DE,NA,51.82012847965739,NA
32011,Nassau County,FL,NA,53.96145610278372,NA
32024,Columbia County,FL,60.78028747433265,NA,NA
32034,Nassau County,FL,NA,10.06423982869379,NA
32065,Clay County,FL,73.71663244353182,NA,NA
32210,Duval County,FL,3.696098562628337,NA,NA
32211,Duval County,FL,21.765913757700204,NA,NA
32250,Duval County,FL,NA,32.11991434689507,NA
32277,Duval County,FL,84.80492813141683,NA,NA
32331,Madison County,FL,NA,95.50321199143468,NA
32462,Washington County,FL,95.89322381930184,NA,97.35449735449735
32505,Escambia County,FL,19.50718685831622,NA,NA
32506,Escambia County,FL,NA,18.629550321199144,NA
32507,Escambia County,FL,36.139630390143736,NA,NA
32534,Escambia County,FL,42.50513347022588,NA,NA
32563,Santa Rosa County,FL,NA,95.07494646680942,NA
32570,Santa Rosa County,FL,NA,29.764453961456105,NA
32643,Alachua County,FL,86.44763860369609,NA,NA
32653,Alachua County,FL,NA,78.58672376873662,NA
32656,Clay County,FL,NA,57.38758029978587,NA
32693,Gilchrist County,FL,67.5564681724846,NA,NA
32696,Levy County,FL,60.16427104722793,NA,NA
32751,Orange County,FL,93.63449691991786,NA,NA
32763,Volusia County,FL,58.52156057494866,NA,NA
32920,Brevard County,FL,NA,NA,70.37037037037037
32962,Indian River County,FL,47.02258726899384,NA,NA
33157,Miami-Dade County,FL,33.059548254620125,NA,NA
33180,Miami-Dade County,FL,NA,NA,26.455026455026452
33312,Broward County,FL,91.58110882956879,NA,66.13756613756614
33417,Palm Beach County,FL,NA,77.94432548179871,NA
33418,Palm Beach County,FL,NA,NA,20.634920634920633
33433,Palm Beach County,FL,NA,53.747323340471084,NA
33434,Palm Beach County,FL,NA,NA,39.682539682539684
33437,Palm Beach County,FL,NA,NA,1.0582010582010581
33442,Broward County,FL,NA,36.188436830835116,NA
33467,Palm Beach County,FL,54.82546201232032,NA,NA
33496,Palm Beach County,FL,NA,69.37901498929337,NA
33544,Pasco County,FL,79.67145790554414,NA,NA
33611,Hillsborough County,FL,72.68993839835728,NA,NA
33624,Hillsborough County,FL,NA,NA,50.79365079365079
33881,Polk County,FL,NA,NA,84.12698412698413
33905,Lee County,FL,NA,26.98072805139186,NA
33982,Charlotte County,FL,NA,91.00642398286938,NA
34120,Collier County,FL,NA,42.184154175588866,NA
34228,Sarasota County,FL,NA,NA,47.08994708994709
34241,Sarasota County,FL,NA,82.44111349036403,NA
34291,Sarasota County,FL,NA,81.37044967880087,NA
34465,Citrus County,FL,NA,82.22698072805139,NA
34994,Martin County,FL,77.20739219712526,NA,NA
30008,Cobb County,GA,63.039014373716626,NA,NA
30016,Newton County,GA,NA,21.199143468950748,NA
30030,DeKalb County,GA,44.14784394250513,NA,NA
30041,Forsyth County,GA,NA,NA,32.27513227513227
30110,Haralson County,GA,64.8870636550308,NA,NA
30114,Cherokee County,GA,34.08624229979466,NA,NA
30122,Douglas County,GA,NA,69.80728051391864,NA
30152,Cobb County,GA,NA,42.61241970021413,NA
30281,Henry County,GA,NA,NA,49.735449735449734
30319,DeKalb County,GA,NA,52.67665952890792,NA
30327,Fulton County,GA,NA,66.80942184154176,NA
30519,Gwinnett County,GA,NA,33.190578158458244,NA
30548,Jackson County,GA,82.34086242299796,NA,NA
30560,Fannin County,GA,NA,88.43683083511777,NA
30904,Richmond County,GA,32.238193018480494,NA,NA
31069,Houston County,GA,NA,NA,51.85185185185185
31206,Bibb County,GA,78.2340862422998,NA,NA
31714,Turner County,GA,NA,85.01070663811564,NA
31794,Tift County,GA,26.488706365503077,NA,NA
31811,Harris County,GA,NA,98.92933618843684,NA
96734,Honolulu County,HI,69.19917864476386,NA,NA
96740,Hawaii County,HI,59.54825462012321,NA,NA
96782,Honolulu County,HI,34.90759753593429,NA,NA
96816,Honolulu County,HI,65.29774127310061,NA,NA
83202,Bannock County,ID,50.513347022587276,NA,NA
83350,Minidoka County,ID,NA,96.1456102783726,NA
83605,Canyon County,ID,NA,24.62526766595289,NA
83686,Canyon County,ID,8.829568788501026,NA,NA
83704,Ada County,ID,NA,NA,11.11111111111111
83714,Ada County,ID,NA,15.845824411134904,NA
60004,Cook County,IL,NA,58.67237687366167,NA
60005,Cook County,IL,53.798767967145785,NA,NA
60010,Lake County,IL,37.782340862423,NA,NA
60016,Cook County,IL,NA,11.777301927194861,NA
60018,Cook County,IL,NA,39.186295503211994,NA
60025,Cook County,IL,41.68377823408625,NA,53.43915343915344
60062,Cook County,IL,NA,29.336188436830835,32.804232804232804
60068,Cook County,IL,39.01437371663244,NA,NA
60074,Cook County,IL,NA,38.11563169164882,NA
60085,Lake County,IL,NA,30.83511777301927,NA
60091,Cook County,IL,86.85831622176592,NA,NA
60098,McHenry County,IL,30.390143737166326,NA,NA
60130,Cook County,IL,47.84394250513347,NA,NA
60137,DuPage County,IL,NA,NA,51.32275132275132
60155,Cook County,IL,NA,60.599571734475376,NA
60302,Cook County,IL,NA,15.203426124197003,NA
60440,Will County,IL,NA,NA,40.74074074074074
60448,Will County,IL,53.38809034907598,NA,NA
60451,Will County,IL,NA,NA,49.2063492063492
60462,Cook County,IL,NA,30.406852248394006,NA
60475,Will County,IL,NA,98.7152034261242,NA
60480,Cook County,IL,NA,90.14989293361884,NA
60490,Will County,IL,59.13757700205339,NA,NA
60501,Cook County,IL,NA,94.64668094218416,NA
60502,DuPage County,IL,79.26078028747433,NA,NA
60525,Cook County,IL,NA,74.30406852248393,NA
60538,Kendall County,IL,NA,NA,71.42857142857143
60585,Will County,IL,NA,55.24625267665952,88.35978835978835
60611,Cook County,IL,54.00410677618069,NA,22.75132275132275
60616,Cook County,IL,35.1129363449692,NA,NA
60619,Cook County,IL,25.87268993839836,NA,NA
60638,Cook County,IL,NA,8.35117773019272,NA
60640,Cook County,IL,NA,NA,80.95238095238095
60641,Cook County,IL,NA,16.70235546038544,NA
60655,Cook County,IL,NA,63.38329764453962,NA
60656,Cook County,IL,47.227926078028744,NA,NA
61068,Ogle County,IL,67.35112936344969,NA,NA
61107,Winnebago County,IL,NA,63.811563169164884,NA
61866,Champaign County,IL,NA,65.52462526766595,NA
61938,Coles County,IL,NA,79.44325481798715,NA
61944,Edgar County,IL,97.3305954825462,NA,NA
62034,Madison County,IL,NA,74.08993576017131,NA
62040,Madison County,IL,NA,40.471092077087796,NA
62401,Effingham County,IL,NA,86.29550321199143,NA
62454,Crawford County,IL,NA,NA,60.84656084656085
62521,Macon County,IL,14.168377823408623,NA,NA
62626,Macoupin County,IL,NA,86.0813704496788,NA
62650,Morgan County,IL,NA,34.26124197002141,NA
62712,Sangamon County,IL,93.01848049281314,NA,NA
62902,Jackson County,IL,NA,NA,94.70899470899471
62960,Massac County,IL,94.45585215605749,NA,NA
46016,Madison County,IN,16.427104722792606,NA,NA
46033,Hamilton County,IN,61.39630390143738,NA,NA
46037,Hamilton County,IN,NA,37.901498929336185,NA
46060,Hamilton County,IN,90.96509240246407,NA,NA
46062,Hamilton County,IN,NA,17.77301927194861,NA
46143,Johnson County,IN,54.41478439425052,NA,NA
46205,Marion County,IN,NA,55.6745182012848,NA
46224,Marion County,IN,29.97946611909651,NA,NA
46237,Marion County,IN,NA,10.920770877944326,NA
46241,Marion County,IN,NA,35.974304068522486,NA
46311,Lake County,IN,65.50308008213553,NA,NA
46320,Lake County,IN,32.85420944558521,NA,NA
46323,Lake County,IN,21.35523613963039,NA,NA
46342,Lake County,IN,NA,13.9186295503212,NA
46385,Porter County,IN,NA,24.411134903640257,NA
46410,Lake County,IN,7.597535934291582,NA,35.44973544973545
46530,St. Joseph County,IN,NA,61.67023554603854,NA
46563,Marshall County,IN,39.42505133470226,NA,NA
46628,St. Joseph County,IN,NA,83.94004282655246,NA
46733,Adams County,IN,40.24640657084189,NA,NA
46901,Howard County,IN,1.642710472279261,NA,NA
47130,Clark County,IN,NA,5.567451820128479,NA
47203,Bartholomew County,IN,NA,NA,24.33862433862434
47374,Wayne County,IN,4.312114989733059,NA,NA
47648,Gibson County,IN,NA,100,NA
47710,Vanderburgh County,IN,NA,53.96145610278372,NA
47720,Vanderburgh County,IN,99.7946611909651,NA,NA
47906,Tippecanoe County,IN,53.59342915811089,28.26552462526767,NA
50220,Dallas County,IA,71.66324435318275,NA,NA
50511,Kossuth County,IA,NA,71.94860813704497,NA
50613,Black Hawk County,IA,85.62628336755647,NA,11.64021164021164
50677,Bremer County,IA,NA,82.65524625267666,NA
51501,Pottawattamie County,IA,NA,11.134903640256958,NA
51503,Pottawattamie County,IA,9.650924024640657,NA,NA
52601,Des Moines County,IA,13.75770020533881,NA,NA
52761,Muscatine County,IA,NA,12.84796573875803,NA
52804,Scott County,IA,17.864476386036962,NA,NA
66049,Douglas County,KS,NA,NA,55.55555555555556
66062,Johnson County,KS,77.00205338809035,NA,NA
66224,Johnson County,KS,NA,80.94218415417559,NA
66226,Johnson County,KS,83.16221765913757,NA,NA
66606,Shawnee County,KS,81.51950718685832,NA,NA
67005,Cowley County,KS,NA,92.50535331905782,NA
67124,Pratt County,KS,86.652977412731,NA,NA
67206,Sedgwick County,KS,NA,79.87152034261243,NA
67213,Sedgwick County,KS,NA,NA,85.18518518518519
67432,Clay County,KS,91.9917864476386,79.22912205567452,NA
40210,Jefferson County,KY,40.04106776180698,NA,NA
40211,Jefferson County,KY,NA,67.6659528907923,NA
40216,Jefferson County,KY,10.266940451745379,NA,NA
40258,Jefferson County,KY,22.79260780287474,NA,NA
40353,Montgomery County,KY,72.48459958932239,NA,NA
40356,Jessamine County,KY,15.811088295687886,NA,NA
40391,Clark County,KY,9.034907597535934,NA,NA
40403,Madison County,KY,NA,80.51391862955032,NA
40515,Fayette County,KY,47.84394250513347,NA,NA
41094,Boone County,KY,NA,64.66809421841542,NA
42303,Daviess County,KY,NA,51.605995717344754,NA
42701,Hardin County,KY,12.73100616016427,NA,NA
70001,Jefferson Parish,LA,NA,40.25695931477516,NA
70002,Jefferson Parish,LA,NA,63.597430406852254,NA
70005,Jefferson Parish,LA,NA,NA,16.402116402116402
70122,Orleans Parish,LA,NA,NA,29.100529100529098
70126,Orleans Parish,LA,6.981519507186857,NA,NA
70427,Washington Parish,LA,NA,24.197002141327623,NA
70501,Lafayette Parish,LA,1.8480492813141685,NA,NA
70525,Acadia Parish,LA,NA,NA,62.96296296296296
70555,Vermilion Parish,LA,NA,98.28693790149893,NA
70663,Calcasieu Parish,LA,NA,23.340471092077088,NA
70726,Livingston Parish,LA,NA,9.421841541755889,NA
70805,East Baton Rouge Parish,LA,NA,28.4796573875803,NA
70811,East Baton Rouge Parish,LA,25.667351129363446,NA,NA
71106,Caddo Parish,LA,NA,13.704496788008566,NA
04043,York County,ME,63.65503080082136,41.113490364025694,NA
04103,Cumberland County,ME,NA,NA,26.984126984126984
04282,Androscoggin County,ME,82.13552361396303,NA,89.41798941798942
04345,Kennebec County,ME,NA,48.60813704496788,NA
04364,Kennebec County,ME,81.1088295687885,NA,NA
04401,Penobscot County,ME,NA,57.81584582441114,NA
04605,Hancock County,ME,42.09445585215606,NA,NA
04843,Knox County,ME,NA,61.02783725910065,NA
04901,Kennebec County,ME,40.6570841889117,NA,NA
04915,Waldo County,ME,NA,NA,55.026455026455025
04930,Penobscot County,ME,NA,91.86295503211991,NA
04976,Somerset County,ME,75.7700205338809,NA,NA
20634,St. Mary's County,MD,96.71457905544148,NA,NA
20646,Charles County,MD,74.74332648870636,NA,NA
20659,St. Mary's County,MD,60.36960985626283,NA,NA
20743,Prince George's County,MD,33.47022587268994,NA,NA
20774,Prince George's County,MD,NA,41.32762312633833,NA
21158,Carroll County,MD,81.1088295687885,NA,NA
21212,Baltimore city,MD,39.83572895277207,NA,NA
21225,Baltimore city,MD,33.67556468172484,NA,NA
21227,Baltimore County,MD,51.95071868583162,NA,NA
21228,Baltimore County,MD,49.28131416837782,NA,NA
21239,Baltimore city,MD,NA,NA,36.507936507936506
21740,Washington County,MD,20.123203285420946,NA,NA
01002,Hampshire County,MA,92.40246406570843,NA,NA
01040,Hampden County,MA,NA,0,NA
01085,Hampden County,MA,NA,2.355460385438972,NA
01108,Hampden County,MA,NA,5.781584582441114,NA
01201,Berkshire County,MA,NA,25.267665952890795,NA
01464,Middlesex County,MA,68.58316221765914,NA,NA
01507,Worcester County,MA,NA,99.78586723768737,NA
01510,Worcester County,MA,NA,82.01284796573876,NA
01524,Worcester County,MA,NA,NA,76.19047619047619
01527,Worcester County,MA,51.54004106776181,NA,NA
01532,Worcester County,MA,NA,70.8779443254818,NA
01550,Worcester County,MA,0.6160164271047228,NA,NA
01581,Worcester County,MA,NA,50.74946466809421,NA
01602,Worcester County,MA,48.459958932238195,NA,NA
01605,Worcester County,MA,0.8213552361396305,NA,NA
01730,Middlesex County,MA,NA,76.44539614561027,NA
01742,Middlesex County,MA,NA,91.43468950749465,NA
01754,Middlesex County,MA,65.91375770020534,NA,NA
01810,Essex County,MA,NA,85.22483940042827,NA
01841,Essex County,MA,NA,27.62312633832976,NA
01860,Essex County,MA,NA,77.08779443254818,NA
01864,Middlesex County,MA,46.40657084188911,NA,NA
01902,Essex County,MA,NA,NA,8.465608465608465
01923,Essex County,MA,NA,NA,94.17989417989418
01938,Essex County,MA,NA,16.488222698072803,NA
01949,Essex County,MA,NA,62.526766595289075,NA
01960,Essex County,MA,6.7761806981519515,NA,NA
02052,Norfolk County,MA,61.80698151950719,NA,NA
02119,Suffolk County,MA,NA,72.59100642398288,NA
02120,Suffolk County,MA,56.262833675564686,NA,NA
02124,Suffolk County,MA,NA,2.569593147751606,NA
02125,Suffolk County,MA,NA,12.205567451820128,NA
02128,Suffolk County,MA,0.41067761806981523,NA,NA
02131,Suffolk County,MA,NA,NA,33.33333333333333
02138,Middlesex County,MA,13.347022587268995,NA,NA
02139,Middlesex County,MA,NA,20.770877944325484,NA
02145,Middlesex County,MA,4.722792607802875,NA,NA
02148,Middlesex County,MA,NA,NA,45.5026455026455
02149,Middlesex County,MA,0,NA,NA
02150,Suffolk County,MA,NA,NA,37.03703703703704
02151,Suffolk County,MA,NA,NA,0.5291005291005291
02155,Middlesex County,MA,NA,7.066381156316917,NA
02184,Norfolk County,MA,5.95482546201232,NA,NA
02186,Norfolk County,MA,NA,80.29978586723769,NA
02351,Plymouth County,MA,NA,25.69593147751606,NA
02356,Bristol County,MA,NA,NA,93.65079365079364
02368,Norfolk County,MA,14.579055441478438,NA,NA
02446,Norfolk County,MA,NA,7.28051391862955,18.51851851851852
02458,Middlesex County,MA,89.3223819301848,NA,NA
02459,Middlesex County,MA,NA,55.88865096359743,NA
02478,Middlesex County,MA,94.04517453798768,97.4304068522484,NA
02556,Barnstable County,MA,NA,86.7237687366167,NA
02645,Barnstable County,MA,NA,60.17130620985011,NA
02649,Barnstable County,MA,NA,NA,30.158730158730158
02660,Barnstable County,MA,NA,NA,98.4126984126984
02720,Bristol County,MA,NA,44.96788008565311,NA
02760,Bristol County,MA,12.320328542094455,NA,NA
02771,Bristol County,MA,NA,44.11134903640257,NA
02780,Bristol County,MA,0.20533880903490762,1.9271948608137044,68.78306878306879
48021,Macomb County,MI,11.498973305954825,NA,NA
48040,St. Clair County,MI,73.1006160164271,NA,NA
48067,Oakland County,MI,68.17248459958932,NA,NA
48079,St. Clair County,MI,NA,56.53104925053534,NA
48081,Macomb County,MI,NA,25.481798715203425,NA
48105,Washtenaw County,MI,37.37166324435318,NA,NA
48108,Washtenaw County,MI,NA,NA,65.07936507936508
48118,Washtenaw County,MI,NA,NA,37.56613756613756
48127,Wayne County,MI,NA,20.342612419700217,NA
48135,Wayne County,MI,23.203285420944557,NA,NA
48152,Wayne County,MI,NA,NA,19.047619047619047
48154,Wayne County,MI,24.229979466119097,NA,NA
48162,Monroe County,MI,NA,3.2119914346895073,25.925925925925924
48184,Wayne County,MI,17.04312114989733,NA,NA
48187,Wayne County,MI,54.20944558521561,NA,NA
48188,Wayne County,MI,NA,7.922912205567452,NA
48224,Wayne County,MI,NA,21.841541755888652,NA
48225,Wayne County,MI,37.16632443531827,NA,NA
48236,Wayne County,MI,NA,45.182012847965744,NA
48316,Macomb County,MI,71.66324435318275,NA,75.13227513227513
48341,Oakland County,MI,29.158110882956876,NA,NA
48375,Oakland County,MI,NA,48.17987152034261,NA
48380,Oakland County,MI,NA,73.87580299785867,NA
48420,Genesee County,MI,44.35318275154005,NA,NA
48429,Shiawassee County,MI,63.860369609856264,NA,NA
48433,Genesee County,MI,50.308008213552355,NA,NA
48473,Genesee County,MI,41.067761806981515,NA,NA
48505,Genesee County,MI,NA,NA,73.01587301587301
48609,Saginaw County,MI,NA,NA,58.201058201058196
48617,Clare County,MI,70.84188911704312,NA,NA
48626,Saginaw County,MI,NA,91.64882226980728,NA
48640,Midland County,MI,10.882956878850102,NA,NA
48658,Arenac County,MI,NA,NA,75.66137566137566
48708,Bay County,MI,NA,37.47323340471092,NA
48837,Eaton County,MI,NA,34.26124197002141,NA
48858,Isabella County,MI,NA,6.638115631691649,NA
48867,Shiawassee County,MI,47.63860369609856,NA,NA
48879,Clinton County,MI,NA,59.95717344753747,NA
48883,Isabella County,MI,NA,61.24197002141327,NA
48917,Eaton County,MI,NA,8.565310492505352,NA
49002,Kalamazoo County,MI,31.416837782340863,NA,NA
49009,Kalamazoo County,MI,NA,8.779443254817988,NA
49021,Eaton County,MI,NA,68.52248394004282,NA
49065,Van Buren County,MI,NA,84.79657387580299,NA
49085,Berrien County,MI,52.56673511293635,NA,NA
49201,Jackson County,MI,9.856262833675565,NA,NA
49240,Jackson County,MI,NA,54.81798715203426,NA
49332,Mecosta County,MI,NA,NA,90.47619047619048
49417,Ottawa County,MI,18.68583162217659,NA,NA
49437,Muskegon County,MI,NA,67.23768736616702,NA
49445,Muskegon County,MI,NA,21.413276231263385,NA
49505,Kent County,MI,NA,NA,29.629629629629626
49525,Kent County,MI,NA,25.910064239828696,NA
49546,Kent County,MI,NA,31.905781584582442,NA
49779,Presque Isle County,MI,99.58932238193019,NA,NA
49855,Marquette County,MI,16.2217659137577,NA,NA
55008,Isanti County,MN,NA,50.32119914346895,NA
55024,Dakota County,MN,77.82340862422998,NA,NA
55041,Wabasha County,MN,NA,61.88436830835118,NA
55045,Chisago County,MN,NA,69.593147751606,NA
55105,Ramsey County,MN,74.33264887063655,NA,NA
55318,Carver County,MN,96.91991786447639,NA,NA
55337,Dakota County,MN,31.82751540041068,NA,NA
55343,Hennepin County,MN,84.18891170431212,NA,NA
55405,Hennepin County,MN,34.496919917864474,NA,NA
55412,Hennepin County,MN,10.061601642710473,NA,NA
55414,Hennepin County,MN,49.69199178644764,NA,NA
55421,Anoka County,MN,NA,NA,46.56084656084656
55744,Itasca County,MN,NA,NA,14.285714285714285
55987,Winona County,MN,8.624229979466119,2.9978586723768736,NA
56007,Freeborn County,MN,NA,NA,4.761904761904762
56073,Brown County,MN,NA,NA,10.582010582010582
56308,Douglas County,MN,NA,12.633832976445397,NA
56345,Morrison County,MN,77.61806981519507,NA,NA
56560,Clay County,MN,NA,4.710920770877944,NA
38646,Quitman County,MS,NA,99.3576017130621,NA
38732,Bolivar County,MS,NA,NA,54.4973544973545
38863,Pontotoc County,MS,NA,56.9593147751606,NA
39209,Hinds County,MS,NA,NA,67.72486772486772
39213,Hinds County,MS,66.94045174537987,NA,NA
39301,Lauderdale County,MS,78.02874743326488,NA,NA
63040,St. Louis County,MO,NA,87.15203426124198,NA
63043,St. Louis County,MO,NA,46.466809421841546,NA
63070,Jefferson County,MO,89.5277207392197,NA,NA
63108,St. Louis city,MO,NA,49.03640256959314,NA
63119,St. Louis County,MO,NA,94.00428265524626,NA
63127,St. Louis County,MO,NA,NA,64.02116402116403
63131,St. Louis County,MO,NA,NA,61.37566137566137
63141,St. Louis County,MO,NA,NA,73.54497354497354
63304,St. Charles County,MO,NA,15.417558886509635,NA
63366,St. Charles County,MO,13.347022587268995,NA,NA
63552,Macon County,MO,95.68788501026694,NA,NA
63780,Scott County,MO,NA,NA,93.12169312169311
63901,Butler County,MO,NA,NA,43.91534391534391
63960,Stoddard County,MO,NA,99.57173447537473,NA
64024,Clay County,MO,19.096509240246405,NA,NA
64060,Clay County,MO,43.94250513347023,NA,NA
64063,Jackson County,MO,36.96098562628337,NA,NA
64109,Jackson County,MO,26.69404517453799,NA,NA
64116,Clay County,MO,23.81930184804928,NA,NA
64127,Jackson County,MO,NA,36.83083511777302,NA
64151,Platte County,MO,64.06570841889116,NA,NA
64468,Nodaway County,MO,65.70841889117042,NA,NA
64503,Buchanan County,MO,56.67351129363449,NA,NA
64801,Jasper County,MO,NA,64.45396145610277,NA
64804,Jasper County,MO,18.069815195071868,NA,NA
65301,Pettis County,MO,NA,8.993576017130621,NA
65453,Crawford County,MO,93.42915811088297,NA,NA
65536,Laclede County,MO,38.809034907597535,NA,NA
65807,Greene County,MO,58.31622176591375,NA,NA
59404,Cascade County,MT,NA,NA,23.809523809523807
59833,Ravalli County,MT,NA,77.30192719486081,NA
59912,Flathead County,MT,NA,53.104925053533194,NA
68124,Douglas County,NE,90.14373716632443,NA,NA
68410,Otoe County,NE,NA,88.22269807280514,NA
89138,Clark County,NV,87.88501026694045,NA,NA
89434,Washoe County,NV,NA,65.0963597430407,NA
89506,Washoe County,NV,19.71252566735113,NA,NA
89511,Washoe County,NV,NA,59.52890792291221,NA
03062,Hillsborough County,NH,67.14579055441479,NA,NA
03071,Hillsborough County,NH,91.37577002053389,NA,NA
03079,Rockingham County,NH,NA,97.64453961456103,NA
03103,Hillsborough County,NH,NA,NA,31.746031746031743
03104,Hillsborough County,NH,61.19096509240246,NA,NA
03826,Rockingham County,NH,100,NA,NA
07029,Hudson County,NJ,55.85215605749486,NA,NA
07030,Hudson County,NJ,26.07802874743326,NA,NA
07307,Hudson County,NJ,12.114989733059549,NA,NA
07417,Bergen County,NJ,NA,96.57387580299786,NA
07440,Morris County,NJ,98.76796714579056,NA,NA
07465,Passaic County,NJ,NA,71.30620985010707,NA
07506,Passaic County,NJ,91.78644763860369,NA,NA
07508,Passaic County,NJ,27.51540041067762,NA,NA
07628,Bergen County,NJ,NA,61.24197002141327,NA
07712,Monmouth County,NJ,NA,6.209850107066381,NA
07753,Monmouth County,NJ,NA,9.850107066381156,NA
07871,Sussex County,NJ,80.49281314168378,NA,NA
07945,Morris County,NJ,98.56262833675564,NA,NA
08016,Burlington County,NJ,19.301848049281315,NA,NA
08046,Burlington County,NJ,25.46201232032854,NA,NA
08103,Camden County,NJ,4.517453798767967,NA,NA
08611,Mercer County,NJ,5.133470225872689,NA,NA
08807,Somerset County,NJ,28.74743326488706,NA,NA
08857,Middlesex County,NJ,NA,16.274089935760173,NA
87105,Bernalillo County,NM,3.4907597535934287,NA,NA
87107,Bernalillo County,NM,NA,NA,47.61904761904761
87112,Bernalillo County,NM,15.195071868583163,10.492505353319057,NA
87317,McKinley County,NM,98.97330595482546,NA,NA
87505,Santa Fe County,NM,NA,6.423982869379015,NA
10003,New York County,NY,NA,39.82869379014989,NA
10022,New York County,NY,NA,74.94646680942184,NA
10025,New York County,NY,6.365503080082135,12.419700214132762,NA
10029,New York County,NY,NA,0.4282655246252677,NA
10306,Richmond County,NY,NA,16.916488222698074,NA
10455,Bronx County,NY,3.9014373716632447,NA,NA
10459,Bronx County,NY,4.9281314168377826,NA,NA
10473,Bronx County,NY,4.1067761806981515,91.22055674518201,NA
10541,Putnam County,NY,NA,NA,89.94708994708994
10801,Westchester County,NY,NA,32.76231263383298,NA
11205,Kings County,NY,NA,20.12847965738758,NA
11221,Kings County,NY,NA,3.4261241970021414,NA
11233,Kings County,NY,NA,NA,19.576719576719576
11249,Kings County,NY,NA,88.86509635974305,NA
11378,Queens County,NY,NA,86.93790149892934,NA
11412,Queens County,NY,45.58521560574948,NA,NA
11429,Queens County,NY,96.09856262833677,NA,NA
11501,Nassau County,NY,95.27720739219713,NA,NA
11714,Nassau County,NY,78.85010266940452,NA,NA
11725,Suffolk County,NY,NA,62.74089935760171,NA
11791,Nassau County,NY,94.25051334702259,NA,NA
12170,Saratoga County,NY,NA,90.36402569593149,NA
12302,Schenectady County,NY,NA,72.80513918629549,NA
12832,Washington County,NY,NA,92.07708779443254,NA
12887,Washington County,NY,68.78850102669405,NA,NA
13057,Onondaga County,NY,89.73305954825463,NA,NA
13135,Oswego County,NY,60.57494866529775,NA,NA
13140,Cayuga County,NY,NA,89.29336188436831,NA
13205,Onondaga County,NY,NA,43.25481798715203,NA
13326,Otsego County,NY,72.27926078028747,NA,NA
13350,Herkimer County,NY,32.648870636550306,NA,NA
13440,Oneida County,NY,1.4373716632443532,5.353319057815846,NA
13491,Herkimer County,NY,83.77823408624229,NA,NA
13617,St. Lawrence County,NY,NA,84.1541755888651,NA
13760,Broome County,NY,NA,0.6423982869379015,NA
13790,Broome County,NY,66.32443531827515,NA,NA
13808,Otsego County,NY,NA,95.93147751605996,NA
13815,Chenango County,NY,14.989733059548255,NA,38.62433862433862
13833,Broome County,NY,73.92197125256673,NA,NA
13850,Broome County,NY,16.83778234086242,26.552462526766597,NA
14030,Erie County,NY,99.17864476386036,NA,NA
14120,Niagara County,NY,NA,7.494646680942184,NA
14214,Erie County,NY,29.774127310061605,NA,NA
14218,Erie County,NY,19.917864476386036,NA,NA
14450,Monroe County,NY,2.4640657084188913,NA,NA
14468,Monroe County,NY,18.275154004106774,NA,NA
14472,Monroe County,NY,NA,NA,83.5978835978836
14513,Wayne County,NY,55.23613963039015,42.82655246252677,NA
14534,Monroe County,NY,7.392197125256674,NA,NA
14560,Livingston County,NY,97.74127310061603,NA,NA
14605,Monroe County,NY,NA,51.17773019271949,NA
14606,Monroe County,NY,2.2587268993839835,NA,NA
14609,Monroe County,NY,NA,1.284796573875803,NA
14612,Monroe County,NY,15.605749486652979,1.7130620985010707,NA
14617,Monroe County,NY,7.186858316221765,NA,NA
14620,Monroe County,NY,6.570841889117044,NA,NA
14623,Monroe County,NY,NA,23.126338329764454,NA
14624,Monroe County,NY,NA,2.141327623126338,NA
14719,Cattaraugus County,NY,NA,93.36188436830835,NA
14757,Chautauqua County,NY,92.60780287474333,NA,NA
14760,Cattaraugus County,NY,NA,13.49036402569593,NA
14772,Cattaraugus County,NY,87.67967145790554,NA,NA
14810,Steuben County,NY,NA,43.683083511777305,NA
14830,Steuben County,NY,80.69815195071868,NA,NA
27012,Forsyth County,NC,NA,4.496788008565311,NA
27013,Rowan County,NC,NA,90.79229122055675,NA
27106,Forsyth County,NC,NA,NA,2.6455026455026456
27239,Davidson County,NC,66.73511293634496,NA,NA
27253,Alamance County,NC,17.659137577002053,NA,NA
27295,Davidson County,NC,3.285420944558522,NA,NA
27358,Guilford County,NC,NA,62.95503211991434,NA
27360,Davidson County,NC,48.870636550308014,NA,NA
27520,Johnston County,NC,30.800821355236142,NA,NA
27592,Wake County,NC,NA,67.23768736616702,NA
27609,Wake County,NC,NA,33.61884368308351,NA
27615,Wake County,NC,NA,NA,50.264550264550266
27713,Durham County,NC,NA,81.79871520342613,NA
27893,Wilson County,NC,NA,24.62526766595289,NA
28021,Gaston County,NC,87.06365503080082,NA,NA
28025,Cabarrus County,NC,11.90965092402464,NA,NA
28031,Mecklenburg County,NC,57.49486652977412,NA,NA
28078,Mecklenburg County,NC,NA,32.97644539614561,NA
28114,Rutherford County,NC,NA,89.72162740899357,NA
28117,Iredell County,NC,29.36344969199179,NA,NA
28129,Stanly County,NC,95.07186858316223,NA,NA
28215,Mecklenburg County,NC,64.68172484599589,NA,NA
28269,Mecklenburg County,NC,14.37371663244353,NA,NA
28314,Cumberland County,NC,NA,38.11563169164882,NA
28327,Moore County,NC,70.4312114989733,NA,NA
28328,Sampson County,NC,33.26488706365503,NA,NA
28466,Duplin County,NC,NA,68.73661670235546,NA
28651,Wilkes County,NC,82.75154004106776,NA,NA
28655,Burke County,NC,NA,NA,17.989417989417987
28675,Alleghany County,NC,NA,NA,77.24867724867724
28712,Transylvania County,NC,NA,66.59528907922912,NA
28715,Buncombe County,NC,46.81724845995893,NA,NA
28739,Henderson County,NC,NA,13.276231263383298,NA
28759,Henderson County,NC,NA,NA,57.14285714285714
28762,McDowell County,NC,NA,97.00214132762312,NA
58103,Cass County,ND,28.131416837782343,84.58244111349036,6.349206349206349
58104,Cass County,ND,NA,11.991434689507495,NA
58504,Burleigh County,ND,50.71868583162218,NA,NA
58703,Ward County,ND,NA,NA,34.92063492063492
58801,Williams County,ND,33.880903490759756,NA,NA
43050,Knox County,OH,NA,NA,43.386243386243386
43082,Delaware County,OH,58.72689938398358,NA,NA
43110,Franklin County,OH,NA,10.706638115631693,NA
43138,Hocking County,OH,NA,28.90792291220557,NA
43160,Fayette County,OH,NA,21.627408993576015,NA
43162,Madison County,OH,NA,NA,95.23809523809523
43207,Franklin County,OH,1.0266940451745379,NA,NA
43209,Franklin County,OH,NA,90.5781584582441,NA
43211,Franklin County,OH,11.704312114989733,NA,NA
43235,Franklin County,OH,NA,35.54603854389722,NA
43338,Morrow County,OH,56.46817248459959,NA,60.317460317460316
43449,Ottawa County,OH,NA,NA,88.88888888888889
43528,Lucas County,OH,38.19301848049281,NA,NA
43605,Lucas County,OH,NA,NA,57.67195767195767
43607,Lucas County,OH,NA,20.985010706638114,NA
43812,Coshocton County,OH,5.749486652977413,NA,NA
44001,Lorain County,OH,59.753593429158116,NA,NA
44011,Lorain County,OH,29.568788501026695,NA,NA
44030,Ashtabula County,OH,53.182751540041075,NA,NA
44035,Lorain County,OH,9.44558521560575,NA,NA
44039,Lorain County,OH,8.008213552361395,NA,NA
44056,Summit County,OH,NA,77.51605995717344,NA
44060,Lake County,OH,NA,0.8565310492505354,13.227513227513226
44067,Summit County,OH,NA,18.843683083511777,NA
44070,Cuyahoga County,OH,NA,NA,12.698412698412698
44074,Lorain County,OH,NA,NA,81.48148148148148
44077,Lake County,OH,NA,2.7837259100642395,NA
44089,Erie County,OH,68.99383983572895,NA,21.164021164021165
44092,Lake County,OH,NA,64.23982869379014,NA
44094,Lake County,OH,NA,NA,4.232804232804233
44095,Lake County,OH,20.739219712525667,NA,NA
44107,Cuyahoga County,OH,1.2320328542094456,NA,NA
44125,Cuyahoga County,OH,11.088295687885012,NA,NA
44128,Cuyahoga County,OH,NA,35.11777301927195,6.878306878306878
44130,Cuyahoga County,OH,NA,NA,1.5873015873015872
44134,Cuyahoga County,OH,8.213552361396303,NA,NA
44138,Cuyahoga County,OH,31.006160164271044,NA,33.86243386243386
44142,Cuyahoga County,OH,88.91170431211499,NA,NA
44143,Cuyahoga County,OH,NA,NA,7.936507936507936
44146,Cuyahoga County,OH,45.17453798767967,NA,NA
44147,Cuyahoga County,OH,NA,75.58886509635975,NA
44202,Portage County,OH,NA,NA,17.46031746031746
44212,Medina County,OH,NA,1.070663811563169,NA
44223,Summit County,OH,NA,47.96573875802998,NA
44224,Summit County,OH,NA,38.54389721627409,NA
44241,Portage County,OH,NA,22.269807280513916,NA
44260,Portage County,OH,85.83162217659137,NA,NA
44281,Medina County,OH,52.15605749486652,NA,NA
44286,Summit County,OH,92.1971252566735,NA,NA
44306,Summit County,OH,NA,34.68950749464668,NA
44312,Summit County,OH,16.01642710472279,NA,NA
44314,Summit County,OH,NA,22.698072805139187,NA
44319,Summit County,OH,NA,23.98286937901499,NA
44333,Summit County,OH,NA,41.97002141327623,NA
44431,Columbiana County,OH,90.75975359342917,NA,NA
44446,Trumbull County,OH,NA,NA,28.04232804232804
44460,Columbiana County,OH,21.149897330595483,NA,NA
44511,Mahoning County,OH,NA,31.69164882226981,NA
44514,Mahoning County,OH,NA,NA,31.216931216931215
44647,Stark County,OH,NA,NA,59.25925925925925
44691,Wayne County,OH,7.802874743326489,NA,23.28042328042328
44703,Stark County,OH,NA,92.07708779443254,NA
44710,Stark County,OH,83.5728952772074,NA,NA
44813,Richland County,OH,NA,76.65952890792292,NA
44903,Richland County,OH,90.34907597535934,NA,NA
45036,Warren County,OH,NA,58.886509635974306,NA
45042,Butler County,OH,NA,37.04496788008566,NA
45067,Butler County,OH,55.03080082135524,NA,NA
45204,Hamilton County,OH,93.83983572895276,NA,NA
45224,Hamilton County,OH,21.560574948665298,NA,NA
45240,Hamilton County,OH,24.64065708418891,NA,NA
45324,Greene County,OH,10.472279260780287,NA,NA
45373,Miami County,OH,70.63655030800821,NA,NA
45385,Greene County,OH,NA,9.207708779443255,NA
45414,Montgomery County,OH,NA,47.32334047109208,NA
45419,Montgomery County,OH,NA,92.71948608137045,NA
45440,Montgomery County,OH,58.110882956878854,NA,NA
45459,Montgomery County,OH,NA,70.66381156316916,NA
45601,Ross County,OH,NA,0.21413276231263384,0
45614,Gallia County,OH,NA,95.28907922912205,NA
45619,Lawrence County,OH,NA,52.24839400428265,NA
45628,Ross County,OH,NA,52.46252676659529,NA
45638,Lawrence County,OH,NA,NA,34.39153439153439
45640,Jackson County,OH,27.31006160164271,NA,NA
45750,Washington County,OH,NA,NA,7.4074074074074066
45807,Allen County,OH,59.34291581108829,NA,NA
45891,Van Wert County,OH,28.54209445585216,NA,NA
73003,Oklahoma County,OK,64.27104722792608,NA,NA
73013,Oklahoma County,OK,30.184804928131413,NA,NA
73018,Grady County,OK,43.53182751540041,NA,NA
73089,Grady County,OK,NA,NA,78.3068783068783
73112,Oklahoma County,OK,NA,45.610278372591004,NA
73159,Oklahoma County,OK,43.3264887063655,NA,NA
73160,Cleveland County,OK,13.141683778234087,NA,NA
73162,Oklahoma County,OK,NA,18.41541755888651,NA
73401,Carter County,OK,14.784394250513348,NA,NA
73801,Woodward County,OK,62.217659137576995,NA,NA
74006,Washington County,OK,52.361396303901444,NA,NA
74014,Wagoner County,OK,NA,26.124197002141326,NA
74019,Rogers County,OK,NA,51.39186295503212,NA
74074,Payne County,OK,NA,69.16488222698072,NA
74344,Delaware County,OK,NA,NA,56.08465608465608
74354,Ottawa County,OK,NA,44.3254817987152,NA
74462,Haskell County,OK,NA,78.80085653104925,NA
74820,Pontotoc County,OK,8.41889117043121,NA,NA
97005,Washington County,OR,76.79671457905543,85.65310492505354,NA
97006,Washington County,OR,62.01232032854209,NA,NA
97060,Multnomah County,OR,NA,73.01927194860814,NA
97062,Washington County,OR,NA,88.0085653104925,NA
97068,Clackamas County,OR,NA,54.389721627408996,NA
97080,Multnomah County,OR,55.64681724845995,NA,NA
97089,Clackamas County,OR,NA,74.7323340471092,NA
97116,Washington County,OR,NA,46.895074946466806,NA
97140,Washington County,OR,88.09034907597535,NA,NA
97203,Multnomah County,OR,71.66324435318275,NA,NA
97206,Multnomah County,OR,NA,25.053533190578158,NA
97221,Multnomah County,OR,NA,97.21627408993577,NA
97223,Washington County,OR,83.3675564681725,87.58029978586723,NA
97229,Washington County,OR,80.28747433264887,NA,NA
97305,Marion County,OR,24.84599589322382,NA,NA
97306,Marion County,OR,NA,55.46038543897216,NA
97415,Curry County,OR,44.76386036960985,NA,NA
97457,Douglas County,OR,NA,NA,87.83068783068782
97539,Jackson County,OR,97.1252566735113,NA,NA
15001,Beaver County,PA,20.944558521560573,17.558886509635975,NA
15017,Allegheny County,PA,69.60985626283367,NA,NA
15104,Allegheny County,PA,67.5564681724846,NA,NA
15108,Allegheny County,PA,NA,18.201284796573873,NA
15136,Allegheny County,PA,NA,36.402569593147746,NA
15217,Allegheny County,PA,NA,22.483940042826553,NA
15222,Allegheny County,PA,84.59958932238193,NA,NA
15601,Westmoreland County,PA,NA,14.5610278372591,NA
15650,Westmoreland County,PA,NA,17.34475374732334,NA
15851,Jefferson County,PA,72.68993839835728,NA,NA
15857,Elk County,PA,NA,10.278372591006423,NA
16125,Mercer County,PA,NA,NA,20.105820105820104
16148,Mercer County,PA,NA,NA,15.873015873015872
16335,Crawford County,PA,35.728952772073924,NA,NA
17015,Cumberland County,PA,40.4517453798768,NA,NA
17042,Lebanon County,PA,NA,5.995717344753747,NA
17070,Cumberland County,PA,42.299794661190965,NA,NA
17201,Franklin County,PA,35.318275154004105,NA,NA
17319,York County,PA,85.21560574948666,NA,NA
17322,York County,PA,88.7063655030801,NA,NA
17325,Adams County,PA,NA,NA,22.22222222222222
17403,York County,PA,2.8747433264887063,NA,NA
17404,York County,PA,NA,14.132762312633835,NA
17517,Lancaster County,PA,51.129363449691986,NA,NA
17543,Lancaster County,PA,23.408624229979466,NA,NA
17745,Clinton County,PA,38.398357289527716,NA,NA
17834,Northumberland County,PA,NA,NA,79.36507936507937
17847,Northumberland County,PA,63.244353182751546,NA,NA
18017,Northampton County,PA,NA,NA,61.904761904761905
18031,Lehigh County,PA,NA,NA,97.88359788359789
18040,Northampton County,PA,NA,71.30620985010707,NA
18055,Northampton County,PA,71.25256673511294,92.93361884368309,NA
18062,Lehigh County,PA,NA,NA,35.978835978835974
18067,Northampton County,PA,38.60369609856263,28.693790149892934,NA
18073,Montgomery County,PA,NA,NA,96.82539682539682
18103,Lehigh County,PA,5.544147843942506,NA,NA
18104,Lehigh County,PA,15.195071868583163,NA,NA
18202,Luzerne County,PA,76.18069815195072,NA,NA
18518,Lackawanna County,PA,82.54620123203286,NA,NA
18643,Luzerne County,PA,51.33470225872689,NA,NA
18969,Montgomery County,PA,NA,66.16702355460386,NA
19020,Bucks County,PA,NA,9.635974304068522,NA
19026,Delaware County,PA,NA,33.40471092077088,NA
19047,Bucks County,PA,23.613963039014372,NA,NA
19056,Bucks County,PA,45.790554414784395,NA,NA
19063,Delaware County,PA,51.54004106776181,NA,NA
19067,Bucks County,PA,NA,8.137044967880087,NA
19096,Montgomery County,PA,NA,NA,62.43386243386243
19103,Philadelphia County,PA,NA,56.74518201284796,NA
19111,Philadelphia County,PA,3.0800821355236137,NA,NA
19115,Philadelphia County,PA,67.96714579055441,NA,NA
19116,Philadelphia County,PA,NA,14.989293361884368,NA
19118,Philadelphia County,PA,NA,70.44967880085653,NA
19124,Philadelphia County,PA,9.240246406570842,NA,NA
19132,Philadelphia County,PA,6.160164271047227,NA,NA
19134,Philadelphia County,PA,46.61190965092403,NA,NA
19138,Philadelphia County,PA,13.963039014373715,NA,NA
19146,Philadelphia County,PA,NA,57.17344753747323,NA
19348,Chester County,PA,NA,NA,39.15343915343915
19446,Montgomery County,PA,63.44969199178645,NA,NA
19464,Montgomery County,PA,5.338809034907597,NA,NA
19518,Berks County,PA,46.201232032854215,NA,NA
19601,Berks County,PA,NA,14.775160599571734,NA
19606,Berks County,PA,NA,5.139186295503212,NA
02895,Providence County,RI,12.93634496919918,NA,NA
29072,Lexington County,SC,25.256673511293638,27.8372591006424,NA
29229,Richland County,SC,36.55030800821355,NA,NA
29403,Charleston County,SC,NA,60.17130620985011,NA
29456,Dorchester County,SC,NA,NA,74.07407407407408
29461,Berkeley County,SC,31.211498973305957,NA,NA
29585,Georgetown County,SC,NA,45.396145610278374,NA
29621,Anderson County,SC,34.70225872689938,NA,NA
29627,Anderson County,SC,NA,54.603854389721626,NA
57005,Minnehaha County,SD,80.08213552361396,NA,NA
57105,Minnehaha County,SD,NA,NA,14.814814814814813
57106,Minnehaha County,SD,NA,6.852248394004283,NA
57350,Beadle County,SD,52.977412731006154,NA,NA
57401,Brown County,SD,NA,NA,3.7037037037037033
57702,Pennington County,SD,56.05749486652978,NA,NA
57719,Pennington County,SD,NA,49.25053533190578,NA
37042,Montgomery County,TN,NA,39.400428265524624,NA
37069,Williamson County,TN,NA,72.37687366167023,NA
37075,Sumner County,TN,NA,33.83297644539615,NA
37115,Davidson County,TN,NA,NA,42.857142857142854
37130,Rutherford County,TN,NA,30.620985010706637,NA
37148,Sumner County,TN,37.98767967145791,NA,NA
37187,Dickson County,TN,NA,85.86723768736617,NA
37363,Hamilton County,TN,NA,NA,58.201058201058196
37388,Coffee County,TN,NA,41.54175588865097,NA
37664,Sullivan County,TN,NA,44.75374732334047,NA
37745,Greene County,TN,NA,23.554603854389722,NA
37771,Loudon County,TN,NA,52.890792291220556,NA
37923,Knox County,TN,49.48665297741273,NA,NA
38305,Madison County,TN,NA,11.563169164882227,NA
38343,Gibson County,TN,44.969199178644764,NA,NA
38469,Lawrence County,TN,98.35728952772074,NA,NA
75010,Denton County,TX,NA,73.44753747323341,NA
75024,Collin County,TX,NA,NA,72.4867724867725
75038,Dallas County,TX,NA,82.86937901498929,NA
75052,Dallas County,TX,NA,NA,70.8994708994709
75087,Rockwall County,TX,39.630390143737166,NA,NA
75189,Rockwall County,TX,42.91581108829568,NA,NA
75206,Dallas County,TX,99.38398357289527,NA,NA
75208,Dallas County,TX,NA,48.82226980728051,NA
75216,Dallas County,TX,NA,NA,16.93121693121693
75230,Dallas County,TX,NA,43.897216274089935,NA
75244,Dallas County,TX,NA,78.37259100642399,NA
75249,Dallas County,TX,69.81519507186859,NA,NA
75407,Collin County,TX,60.78028747433265,NA,NA
75474,Hunt County,TX,59.95893223819302,NA,NA
75551,Cass County,TX,NA,NA,74.60317460317461
75703,Smith County,TX,NA,NA,9.523809523809524
75707,Smith County,TX,89.11704312114989,NA,NA
75948,Sabine County,TX,NA,72.1627408993576,NA
76002,Tarrant County,TX,54.62012320328542,NA,NA
76028,Johnson County,TX,12.525667351129362,4.282655246252676,NA
76039,Tarrant County,TX,NA,NA,84.65608465608466
76067,Palo Pinto County,TX,50.92402464065708,NA,NA
76086,Parker County,TX,56.87885010266941,NA,NA
76118,Tarrant County,TX,NA,71.09207708779444,NA
76133,Tarrant County,TX,NA,22.91220556745182,NA
76179,Tarrant County,TX,NA,34.04710920770878,NA
76240,Cooke County,TX,37.57700205338809,NA,NA
76305,Wichita County,TX,NA,89.50749464668094,NA
76424,Stephens County,TX,NA,NA,66.66666666666666
76501,Bell County,TX,NA,NA,38.095238095238095
76502,Bell County,TX,NA,43.0406852248394,NA
76633,McLennan County,TX,98.15195071868584,NA,NA
77009,Harris County,TX,NA,78.15845824411134,NA
77019,Harris County,TX,70.02053388090349,NA,NA
77024,Harris County,TX,NA,40.04282655246253,NA
77033,Harris County,TX,NA,NA,46.03174603174603
77043,Harris County,TX,NA,73.23340471092077,NA
77057,Harris County,TX,NA,77.73019271948608,NA
77075,Harris County,TX,48.25462012320328,NA,NA
77077,Harris County,TX,NA,31.263383297644538,NA
77083,Harris County,TX,NA,NA,41.269841269841265
77095,Harris County,TX,18.275154004106774,NA,NA
77306,Montgomery County,TX,88.50102669404517,NA,NA
77377,Harris County,TX,41.889117043121146,NA,NA
77379,Harris County,TX,24.435318275154007,NA,NA
77382,Montgomery County,TX,NA,58.2441113490364,NA
77388,Harris County,TX,NA,84.36830835117773,NA
77479,Fort Bend County,TX,28.952772073921974,19.700214132762312,NA
77510,Galveston County,TX,62.83367556468173,NA,NA
77511,Brazoria County,TX,NA,NA,28.57142857142857
77515,Brazoria County,TX,NA,32.54817987152035,NA
77523,Chambers County,TX,55.441478439425055,NA,NA
77550,Galveston County,TX,20.32854209445585,15.631691648822269,NA
77573,Galveston County,TX,10.677618069815194,27.194860813704498,NA
77963,Goliad County,TX,NA,83.08351177730194,NA
78046,Webb County,TX,NA,27.40899357601713,NA
78202,Bexar County,TX,75.97535934291582,86.50963597430406,NA
78572,Hidalgo County,TX,NA,19.48608137044968,NA
78620,Hays County,TX,94.8665297741273,NA,NA
78628,Williamson County,TX,NA,73.66167023554604,8.994708994708994
78633,Williamson County,TX,NA,1.4989293361884368,NA
78645,Travis County,TX,NA,62.31263383297645,NA
78648,Caldwell County,TX,NA,94.21841541755889,NA
79109,Randall County,TX,36.34496919917864,NA,NA
79316,Terry County,TX,NA,NA,85.71428571428571
79407,Lubbock County,TX,NA,59.314775160599574,NA
79412,Lubbock County,TX,NA,83.72591006423983,NA
79703,Midland County,TX,NA,87.36616702355461,NA
79720,Howard County,TX,NA,49.25053533190578,NA
84020,Salt Lake County,UT,41.27310061601643,NA,NA
84036,Summit County,UT,NA,98.07280513918629,NA
84041,Davis County,UT,34.29158110882957,NA,NA
84075,Davis County,UT,70.84188911704312,NA,NA
84095,Salt Lake County,UT,NA,28.051391862955033,NA
84106,Salt Lake County,UT,NA,47.75160599571734,NA
84108,Salt Lake County,UT,NA,49.892933618843685,NA
84118,Salt Lake County,UT,47.227926078028744,NA,NA
84124,Salt Lake County,UT,78.64476386036962,NA,NA
84403,Weber County,UT,NA,59.100642398286936,NA
84663,Utah County,UT,NA,93.14775160599572,NA
05156,Windsor County,VT,NA,81.5845824411135,NA
05446,Chittenden County,VT,NA,NA,71.95767195767195
05489,Chittenden County,VT,NA,99.14346895074947,NA
05641,Washington County,VT,NA,93.36188436830835,NA
05701,Rutland County,VT,36.75564681724846,NA,NA
05753,Addison County,VT,NA,68.95074946466809,NA
20109,Prince William County,VA,30.59548254620123,NA,NA
20120,Fairfax County,VA,49.89733059548255,NA,NA
22032,Fairfax County,VA,84.39425051334702,NA,NA
22044,Fairfax County,VA,NA,83.5117773019272,NA
22201,Arlington County,VA,57.49486652977412,NA,NA
22205,Arlington County,VA,83.9835728952772,NA,NA
22306,Fairfax County,VA,27.92607802874743,NA,NA
22309,Fairfax County,VA,NA,NA,63.49206349206349
22601,Winchester city,VA,NA,35.76017130620985,NA
22603,Frederick County,VA,NA,64.88222698072805,NA
22630,Warren County,VA,NA,34.90364025695932,NA
22657,Shenandoah County,VA,NA,67.88008565310493,NA
22712,Fauquier County,VA,NA,96.78800856531049,NA
22903,Charlottesville city,VA,NA,19.914346895074946,NA
23113,Chesterfield County,VA,NA,NA,52.910052910052904
23139,Powhatan County,VA,69.40451745379876,NA,NA
23185,James City County,VA,NA,3.854389721627409,2.1164021164021163
23234,Chesterfield County,VA,NA,NA,67.1957671957672
23236,Chesterfield County,VA,57.90554414784395,NA,NA
23322,Chesapeake city,VA,97.5359342915811,NA,NA
23430,Isle of Wight County,VA,NA,32.11991434689507,NA
23451,Virginia Beach city,VA,71.45790554414785,16.059957173447536,NA
23453,Virginia Beach city,VA,45.790554414784395,NA,NA
23455,Virginia Beach city,VA,NA,NA,5.82010582010582
23502,Norfolk city,VA,79.87679671457906,NA,NA
23602,Newport News city,VA,27.720739219712527,NA,NA
23663,Hampton city,VA,74.94866529774127,NA,NA
23692,York County,VA,NA,83.29764453961455,NA
23831,Chesterfield County,VA,35.52361396303901,NA,NA
23875,Prince George County,VA,80.9034907597536,NA,NA
23924,Mecklenburg County,VA,96.50924024640656,NA,NA
24012,Roanoke city,VA,NA,40.899357601713064,NA
24013,Roanoke city,VA,76.38603696098562,NA,NA
24014,Roanoke city,VA,NA,29.1220556745182,NA
24019,Roanoke County,VA,52.56673511293635,NA,NA
24104,Bedford County,VA,NA,NA,92.06349206349206
24151,Franklin County,VA,NA,47.109207708779444,NA
24153,Salem city,VA,NA,19.05781584582441,NA
24266,Russell County,VA,NA,60.81370449678801,NA
24354,Smyth County,VA,NA,79.65738758029978,NA
24401,Staunton city,VA,NA,NA,40.21164021164021
24421,Augusta County,VA,NA,96.35974304068522,NA
24614,Buchanan County,VA,NA,NA,92.5925925925926
98003,King County,WA,26.899383983572893,NA,NA
98020,Snohomish County,WA,82.75154004106776,NA,NA
98026,Snohomish County,WA,NA,31.47751605995717,NA
98027,King County,WA,NA,41.7558886509636,NA
98052,King County,WA,NA,70.2355460385439,NA
98103,King County,WA,44.558521560574945,NA,NA
98144,King County,WA,28.336755646817245,NA,NA
98225,Whatcom County,WA,NA,42.398286937901496,NA
98363,Clallam County,WA,NA,39.61456102783726,NA
98366,Kitsap County,WA,24.02464065708419,NA,NA
98368,Jefferson County,WA,NA,57.601713062098504,NA
98383,Kitsap County,WA,NA,50.107066381156315,NA
98597,Thurston County,WA,66.11909650924025,NA,NA
98801,Chelan County,WA,NA,NA,13.756613756613756
98802,Douglas County,WA,NA,NA,30.687830687830687
99324,Walla Walla County,WA,NA,74.51820128479658,NA
99352,Benton County,WA,73.30595482546201,NA,NA
99353,Benton County,WA,85.42094455852155,NA,NA
20020,District of Columbia,DC,2.0533880903490758,NA,NA
25130,Boone County,WV,NA,79.01498929336188,NA
25401,Berkeley County,WV,NA,NA,68.25396825396825
25427,Berkeley County,WV,62.62833675564682,NA,NA
25962,Greenbrier County,WV,NA,NA,95.76719576719577
26062,Hancock County,WV,NA,26.76659528907923,NA
26181,Wood County,WV,NA,81.15631691648822,NA
26505,Monongalia County,WV,NA,7.708779443254818,NA
26582,Marion County,WV,86.242299794661193,NA,NA
53005,Waukesha County,WI,NA,NA,86.24338624338624
53032,Dodge County,WI,NA,98.50107066381156,NA
53074,Ozaukee County,WI,NA,68.3083511777302,NA
53092,Ozaukee County,WI,NA,NA,27.513227513227513
53105,Racine County,WI,16.632443531827516,NA,NA
53140,Kenosha County,WI,77.41273100616016,NA,NA
53146,Waukesha County,WI,96.30390143737166,NA,NA
53150,Waukesha County,WI,NA,38.75802997858672,NA
53151,Waukesha County,WI,NA,20.556745182012847,NA
53207,Milwaukee County,WI,NA,29.978586723768736,NA
53209,Milwaukee County,WI,NA,17.130620985010705,NA
53405,Racine County,WI,NA,NA,24.867724867724867
53511,Rock County,WI,NA,NA,10.052910052910052
53538,Jefferson County,WI,NA,66.38115631691649,NA
53821,Crawford County,WI,81.93018480492813,NA,NA
53913,Sauk County,WI,NA,NA,25.396825396825395
53925,Columbia County,WI,88.29568788501027,NA,NA
54011,Pierce County,WI,NA,80.72805139186295,NA
54017,St. Croix County,WI,78.4394250513347,NA,NA
54022,Pierce County,WI,NA,44.53961456102783,NA
54401,Marathon County,WI,NA,30.83511777301927,NA
54476,Marathon County,WI,94.6611909650924,NA,NA
54701,Eau Claire County,WI,NA,NA,42.32804232804233
54837,Polk County,WI,90.55441478439425,NA,NA
54843,Sawyer County,WI,NA,75.58886509635975,NA
54880,Douglas County,WI,NA,65.31049250535332,5.291005291005291
54904,Winnebago County,WI,NA,37.25910064239829,NA
54983,Waupaca County,WI,NA,88.43683083511777,NA
82501,Fremont County,WY,NA,65.95289079229121,NA
82701,Weston County,WY,NA,NA,98.94179894179894
