ZipCode,county,state,Youth,Adult,Retirement,Geriatric
35010,Tallapoosa County,AL,NA,40.20100502512563,NA,28.57142857142857
35126,Jefferson County,AL,NA,59.597989949748744,NA,NA
35160,Talladega County,AL,NA,18.592964824120603,NA,NA
35173,Jefferson County,AL,NA,56.88442211055277,NA,NA
35214,Jefferson County,AL,72.72727272727273,NA,NA,NA
35217,Jefferson County,AL,NA,55.175879396984925,NA,NA
35563,Marion County,AL,NA,NA,85.05942275042445,NA
35640,Morgan County,AL,27.5974025974026,38.29145728643216,NA,NA
35653,Franklin County,AL,77.59740259740259,NA,80.4753820033956,NA
35810,Madison County,AL,NA,34.37185929648241,NA,NA
35961,DeKalb County,AL,92.53246753246754,NA,NA,NA
36092,Elmore County,AL,NA,51.256281407035175,NA,NA
36104,Montgomery County,AL,NA,62.51256281407035,NA,NA
36360,Dale County,AL,NA,NA,40.0679117147708,NA
36421,Covington County,AL,NA,85.02512562814071,NA,NA
36442,Covington County,AL,NA,NA,NA,86.53846153846155
36526,Baldwin County,AL,NA,NA,NA,26.923076923076923
36571,Mobile County,AL,NA,73.86934673366834,NA,NA
36575,Mobile County,AL,76.94805194805194,64.321608040201,NA,NA
36784,Clarke County,AL,NA,NA,NA,90.38461538461539
36853,Tallapoosa County,AL,NA,85.62814070351759,NA,NA
36854,Chambers County,AL,NA,67.73869346733669,NA,NA
36863,Chambers County,AL,NA,NA,68.59083191850594,NA
99504,Anchorage Municipality,AK,NA,25.628140703517587,NA,NA
99508,Anchorage Municipality,AK,NA,55.67839195979899,NA,NA
99567,Anchorage Municipality,AK,NA,93.26633165829146,NA,NA
99603,Kenai Peninsula Borough,AK,NA,NA,59.9320882852292,NA
99701,Fairbanks North Star Borough,AK,NA,38.994974874371856,NA,NA
99901,Ketchikan Gateway Borough,AK,NA,46.834170854271356,NA,NA
85016,Maricopa County,AZ,NA,94.07035175879398,NA,NA
85032,Maricopa County,AZ,NA,50.85427135678392,NA,NA
85040,Maricopa County,AZ,NA,NA,59.08319185059423,NA
85048,Maricopa County,AZ,NA,81.50753768844221,NA,NA
85128,Pinal County,AZ,64.93506493506493,NA,NA,NA
85132,Pinal County,AZ,NA,NA,NA,98.07692307692307
85142,Maricopa County,AZ,NA,NA,64.34634974533107,NA
85202,Maricopa County,AZ,NA,23.819095477386934,NA,NA
85208,Maricopa County,AZ,NA,49.74874371859296,NA,NA
85215,Maricopa County,AZ,NA,NA,76.4006791171477,NA
85250,Maricopa County,AZ,NA,NA,NA,60.43956043956044
85257,Maricopa County,AZ,NA,NA,NA,74.45054945054946
85258,Maricopa County,AZ,NA,NA,NA,34.34065934065934
85259,Maricopa County,AZ,NA,84.92462311557789,NA,NA
85260,Maricopa County,AZ,NA,70.25125628140704,NA,21.428571428571427
85283,Maricopa County,AZ,NA,21.407035175879397,NA,NA
85297,Maricopa County,AZ,NA,NA,82.00339558573853,NA
85301,Maricopa County,AZ,NA,5.628140703517588,22.24108658743633,NA
85302,Maricopa County,AZ,NA,NA,NA,55.494505494505496
85326,Maricopa County,AZ,NA,32.06030150753769,NA,NA
85344,La Paz County,AZ,86.36363636363636,NA,NA,NA
85350,Yuma County,AZ,NA,NA,69.94906621392191,NA
85379,Maricopa County,AZ,NA,33.869346733668344,NA,NA
85387,Maricopa County,AZ,NA,82.8140703517588,NA,NA
85392,Maricopa County,AZ,NA,84.321608040201,NA,94.5054945054945
85650,Cochise County,AZ,NA,84.12060301507537,NA,NA
85653,Pima County,AZ,NA,NA,39.55857385398981,NA
85701,Pima County,AZ,NA,69.64824120603015,NA,NA
85705,Pima County,AZ,NA,NA,36.33276740237691,NA
85706,Pima County,AZ,1.2987012987012987,NA,NA,NA
85710,Pima County,AZ,NA,10.150753768844222,NA,NA
85711,Pima County,AZ,NA,10.050251256281408,NA,NA
85714,Pima County,AZ,NA,NA,61.120543293718164,NA
85743,Pima County,AZ,57.7922077922078,NA,NA,NA
85746,Pima County,AZ,NA,14.673366834170853,NA,NA
85901,Navajo County,AZ,NA,93.36683417085428,NA,NA
86314,Yavapai County,AZ,NA,18.79396984924623,NA,NA
86429,Mohave County,AZ,NA,NA,NA,67.85714285714286
86503,Apache County,AZ,NA,38.49246231155779,NA,NA
72023,Lonoke County,AR,NA,65.92964824120602,NA,49.72527472527473
72110,Conway County,AR,NA,NA,NA,86.26373626373626
72113,Pulaski County,AR,NA,NA,NA,54.395604395604394
72116,Pulaski County,AR,NA,NA,NA,68.68131868131869
72118,Pulaski County,AR,NA,NA,NA,48.35164835164835
72131,Cleburne County,AR,NA,96.78391959798995,NA,NA
72176,Lonoke County,AR,NA,NA,96.7741935483871,NA
72204,Pulaski County,AR,NA,NA,NA,43.13186813186813
72370,Mississippi County,AR,NA,89.9497487437186,NA,NA
72396,Cross County,AR,NA,NA,73.5144312393888,NA
72450,Greene County,AR,NA,NA,NA,26.098901098901102
72704,Washington County,AR,NA,82.2110552763819,NA,NA
72764,Washington County,AR,NA,NA,59.42275042444821,NA
72927,Logan County,AR,NA,NA,81.49405772495756,NA
72949,Franklin County,AR,NA,NA,NA,73.35164835164835
90013,Los Angeles County,CA,NA,NA,86.07809847198642,NA
90027,Los Angeles County,CA,NA,64.72361809045226,NA,NA
90037,Los Angeles County,CA,NA,NA,43.97283531409168,NA
90046,Los Angeles County,CA,NA,58.291457286432156,24.108658743633278,NA
90047,Los Angeles County,CA,NA,17.68844221105528,NA,NA
90049,Los Angeles County,CA,NA,80.90452261306532,50.42444821731748,NA
90064,Los Angeles County,CA,NA,66.63316582914572,NA,NA
90065,Los Angeles County,CA,NA,NA,97.28353140916808,NA
90066,Los Angeles County,CA,NA,77.88944723618091,NA,NA
90068,Los Angeles County,CA,NA,89.44723618090453,NA,NA
90212,Los Angeles County,CA,NA,NA,NA,63.73626373626373
90221,Los Angeles County,CA,NA,NA,38.879456706281836,NA
90242,Los Angeles County,CA,NA,NA,83.3616298811545,NA
90245,Los Angeles County,CA,NA,NA,66.553480475382,NA
90254,Los Angeles County,CA,NA,NA,81.15449915110356,NA
90260,Los Angeles County,CA,NA,78.39195979899498,NA,NA
90277,Los Angeles County,CA,NA,NA,33.276740237691,NA
90620,Orange County,CA,NA,NA,39.38879456706282,NA
90638,Los Angeles County,CA,NA,84.52261306532664,40.91680814940577,NA
90650,Los Angeles County,CA,NA,20.804020100502512,16.129032258064516,NA
90731,Los Angeles County,CA,NA,34.472361809045225,NA,NA
90732,Los Angeles County,CA,NA,86.73366834170855,NA,NA
90740,Orange County,CA,NA,NA,NA,95.05494505494505
90745,Los Angeles County,CA,NA,43.91959798994975,NA,NA
90804,Los Angeles County,CA,NA,50.050251256281406,NA,NA
90805,Los Angeles County,CA,NA,20.201005025125628,NA,NA
91001,Los Angeles County,CA,76.2987012987013,63.31658291457286,NA,NA
91040,Los Angeles County,CA,NA,NA,NA,70.32967032967034
91105,Los Angeles County,CA,NA,NA,68.08149405772495,NA
91106,Los Angeles County,CA,86.03896103896103,NA,NA,NA
91107,Los Angeles County,CA,NA,80.30150753768844,NA,NA
91208,Los Angeles County,CA,90.9090909090909,NA,NA,NA
91214,Los Angeles County,CA,NA,NA,NA,50
91303,Los Angeles County,CA,NA,86.23115577889448,83.87096774193549,NA
91304,Los Angeles County,CA,NA,NA,NA,98.35164835164835
91306,Los Angeles County,CA,NA,75.57788944723617,NA,NA
91331,Los Angeles County,CA,NA,NA,20.71307300509338,NA
91335,Los Angeles County,CA,NA,34.07035175879397,NA,NA
91344,Los Angeles County,CA,NA,NA,25.97623089983022,NA
91355,Los Angeles County,CA,NA,NA,54.66893039049236,NA
91356,Los Angeles County,CA,NA,82.71356783919597,NA,NA
91402,Los Angeles County,CA,NA,NA,36.502546689303905,NA
91505,Los Angeles County,CA,NA,NA,79.62648556876061,NA
91730,San Bernardino County,CA,NA,NA,39.04923599320883,NA
91731,Los Angeles County,CA,NA,NA,62.13921901528013,NA
91739,San Bernardino County,CA,NA,68.44221105527637,NA,NA
91740,Los Angeles County,CA,NA,NA,57.72495755517827,NA
91755,Los Angeles County,CA,NA,92.36180904522612,NA,NA
91764,San Bernardino County,CA,78.57142857142857,NA,NA,NA
91767,Los Angeles County,CA,36.688311688311686,NA,NA,NA
91786,San Bernardino County,CA,NA,36.08040201005025,NA,NA
91945,San Diego County,CA,NA,95.17587939698493,NA,NA
91977,San Diego County,CA,NA,39.19597989949749,NA,NA
92008,San Diego County,CA,NA,NA,NA,43.68131868131868
92027,San Diego County,CA,NA,53.56783919597991,NA,NA
92102,San Diego County,CA,NA,42.311557788944725,NA,NA
92103,San Diego County,CA,NA,NA,52.801358234295414,NA
92104,San Diego County,CA,NA,30.552763819095478,NA,NA
92105,San Diego County,CA,NA,19.2964824120603,NA,NA
92113,San Diego County,CA,27.92207792207792,NA,NA,NA
92115,San Diego County,CA,NA,NA,47.02886247877759,NA
92128,San Diego County,CA,NA,NA,NA,45.604395604395606
92223,Riverside County,CA,NA,NA,NA,49.175824175824175
92227,Imperial County,CA,NA,NA,89.9830220713073,NA
92234,Riverside County,CA,NA,NA,2.3769100169779285,NA
92257,Imperial County,CA,NA,99.09547738693468,NA,NA
92264,Riverside County,CA,NA,79.39698492462311,NA,NA
92284,San Bernardino County,CA,NA,29.346733668341706,28.183361629881155,NA
92301,San Bernardino County,CA,NA,37.68844221105528,NA,NA
92345,San Bernardino County,CA,NA,11.658291457286433,NA,NA
92407,San Bernardino County,CA,NA,20.7035175879397,NA,NA
92503,Riverside County,CA,NA,NA,23.2597623089983,NA
92507,Riverside County,CA,NA,47.1356783919598,72.83531409168081,NA
92553,Riverside County,CA,52.5974025974026,NA,NA,NA
92562,Riverside County,CA,NA,86.83417085427135,NA,NA
92563,Riverside County,CA,NA,NA,NA,44.78021978021978
92592,Riverside County,CA,NA,31.35678391959799,NA,NA
92596,Riverside County,CA,85.3896103896104,NA,NA,NA
92629,Orange County,CA,NA,NA,43.803056027164686,NA
92646,Orange County,CA,NA,29.04522613065327,NA,7.142857142857142
92653,Orange County,CA,NA,NA,56.7062818336163,NA
92663,Orange County,CA,NA,82.2110552763819,NA,NA
92675,Orange County,CA,NA,NA,97.45331069609507,94.78021978021978
92802,Orange County,CA,NA,NA,NA,73.07692307692307
92833,Orange County,CA,NA,NA,30.730050933786078,NA
92845,Orange County,CA,NA,95.87939698492463,NA,NA
92860,Riverside County,CA,NA,75.77889447236181,NA,NA
92870,Orange County,CA,NA,NA,NA,14.285714285714285
92887,Orange County,CA,NA,NA,NA,96.97802197802197
93010,Ventura County,CA,NA,NA,26.485568760611205,NA
93012,Ventura County,CA,NA,72.26130653266331,NA,NA
93021,Ventura County,CA,85.06493506493507,NA,NA,NA
93030,Ventura County,CA,NA,19.396984924623116,NA,NA
93033,Ventura County,CA,NA,NA,10.526315789473683,NA
93035,Ventura County,CA,NA,72.36180904522614,NA,NA
93036,Ventura County,CA,NA,68.84422110552764,NA,NA
93210,Fresno County,CA,73.37662337662337,NA,NA,NA
93257,Tulare County,CA,NA,15.07537688442211,NA,NA
93268,Kern County,CA,NA,97.58793969849246,NA,NA
93274,Tulare County,CA,NA,30.050251256281406,NA,NA
93277,Tulare County,CA,NA,NA,20.37351443123939,NA
93312,Kern County,CA,NA,NA,NA,58.24175824175825
93313,Kern County,CA,NA,NA,88.794567062818345,NA
93405,San Luis Obispo County,CA,NA,76.78391959798995,NA,NA
93436,Santa Barbara County,CA,NA,17.889447236180906,NA,NA
93458,Santa Barbara County,CA,NA,NA,30.220713073005097,NA
93514,Inyo County,CA,NA,98.49246231155779,NA,NA
93546,Mono County,CA,NA,NA,96.264855687606115,NA
93552,Los Angeles County,CA,NA,NA,NA,88.46153846153845
93610,Madera County,CA,NA,75.97989949748744,NA,NA
93702,Fresno County,CA,16.233766233766232,NA,NA,NA
93711,Fresno County,CA,52.27272727272727,71.95979899497488,NA,NA
93720,Fresno County,CA,NA,37.48743718592965,NA,NA
93727,Fresno County,CA,NA,16.482412060301506,NA,NA
93923,Monterey County,CA,NA,NA,NA,10.164835164835164
93940,Monterey County,CA,NA,59.2964824120603,NA,NA
94025,San Mateo County,CA,NA,NA,NA,25
94040,Santa Clara County,CA,NA,79.59798994974875,NA,NA
94102,San Francisco County,CA,NA,9.045226130653267,NA,NA
94110,San Francisco County,CA,NA,NA,8.828522920203735,NA
94116,San Francisco County,CA,86.68831168831169,62.8140703517588,NA,NA
94122,San Francisco County,CA,NA,53.46733668341709,22.75042444821732,NA
94124,San Francisco County,CA,43.506493506493506,NA,NA,NA
94134,San Francisco County,CA,NA,43.01507537688442,NA,NA
94520,Contra Costa County,CA,NA,71.25628140703517,NA,NA
94544,Alameda County,CA,NA,56.18090452261306,NA,NA
94545,Alameda County,CA,NA,NA,71.47707979626486,NA
94596,Contra Costa County,CA,NA,87.1356783919598,NA,NA
94621,Alameda County,CA,NA,35.37688442211056,NA,NA
94702,Alameda County,CA,NA,68.64321608040201,NA,NA
94931,Sonoma County,CA,NA,97.08542713567839,NA,NA
94965,Marin County,CA,NA,NA,NA,75.27472527472527
95003,Santa Cruz County,CA,NA,NA,76.23089983022071,NA
95014,Santa Clara County,CA,NA,69.9497487437186,NA,NA
95023,San Benito County,CA,NA,NA,35.993208828522924,NA
95030,Santa Clara County,CA,NA,NA,NA,67.03296703296702
95035,Santa Clara County,CA,NA,NA,NA,19.505494505494507
95046,Santa Clara County,CA,NA,95.67839195979899,NA,NA
95051,Santa Clara County,CA,NA,NA,NA,38.46153846153847
95060,Santa Cruz County,CA,NA,77.0854271356784,NA,NA
95070,Santa Clara County,CA,NA,83.21608040201005,NA,NA
95111,Santa Clara County,CA,NA,NA,64.85568760611206,NA
95123,Santa Clara County,CA,NA,42.1105527638191,28.35314091680815,NA
95136,Santa Clara County,CA,NA,NA,65.87436332767402,NA
95209,San Joaquin County,CA,NA,53.266331658291456,NA,NA
95210,San Joaquin County,CA,NA,NA,84.04074702886248,NA
95337,San Joaquin County,CA,NA,44.824120603015075,NA,NA
95350,Stanislaus County,CA,NA,NA,NA,16.758241758241756
95354,Stanislaus County,CA,NA,37.286432160804026,NA,NA
95356,Stanislaus County,CA,NA,46.030150753768844,NA,NA
95358,Stanislaus County,CA,NA,33.46733668341709,NA,NA
95382,Stanislaus County,CA,NA,27.839195979899493,NA,NA
95401,Sonoma County,CA,NA,NA,53.82003395585738,NA
95470,Mendocino County,CA,NA,NA,NA,93.13186813186813
95624,Sacramento County,CA,NA,53.96984924623116,NA,NA
95628,Sacramento County,CA,NA,67.63819095477388,NA,NA
95630,Sacramento County,CA,63.63636363636363,NA,NA,NA
95667,El Dorado County,CA,NA,35.97989949748744,NA,1.098901098901099
95670,Sacramento County,CA,NA,NA,NA,24.45054945054945
95828,Sacramento County,CA,NA,75.27638190954774,NA,NA
95901,Yuba County,CA,NA,27.1356783919598,NA,NA
95917,Butte County,CA,NA,NA,NA,100
95926,Butte County,CA,NA,38.19095477386934,NA,NA
95928,Butte County,CA,74.35064935064936,NA,NA,NA
95954,Butte County,CA,NA,76.08040201005025,NA,NA
95993,Sutter County,CA,NA,NA,NA,25.549450549450547
96001,Shasta County,CA,NA,NA,52.12224108658744,NA
96097,Siskiyou County,CA,NA,85.22613065326632,NA,NA
96101,Modoc County,CA,NA,92.1608040201005,NA,NA
96137,Lassen County,CA,NA,NA,97.96264855687606,NA
80003,Jefferson County,CO,31.818181818181817,NA,NA,NA
80121,Arapahoe County,CO,NA,93.66834170854271,NA,NA
80223,Denver County,CO,63.63636363636363,NA,NA,NA
80226,Jefferson County,CO,NA,54.67336683417086,NA,NA
80227,Jefferson County,CO,NA,63.71859296482412,NA,NA
80516,Weld County,CO,NA,NA,64.51612903225806,NA
80538,Larimer County,CO,NA,NA,8.65874363327674,NA
80602,Adams County,CO,NA,52.96482412060301,NA,NA
80634,Weld County,CO,NA,NA,NA,9.065934065934066
80816,Teller County,CO,NA,NA,84.88964346349745,NA
80906,El Paso County,CO,NA,NA,43.2937181663837,NA
80908,El Paso County,CO,NA,NA,NA,97.25274725274726
80911,El Paso County,CO,30.519480519480517,NA,NA,NA
80918,El Paso County,CO,NA,NA,36.84210526315789,NA
81003,Pueblo County,CO,NA,39.19597989949749,NA,NA
81212,Fremont County,CO,NA,44.92462311557789,NA,NA
81401,Montrose County,CO,NA,NA,43.63327674023769,NA
81425,Montrose County,CO,NA,95.47738693467338,NA,NA
81506,Mesa County,CO,NA,92.06030150753769,NA,NA
81601,Garfield County,CO,NA,82.61306532663316,NA,NA
06002,Hartford County,CT,NA,NA,NA,32.967032967032964
06074,Hartford County,CT,NA,62.21105527638191,NA,NA
06112,Hartford County,CT,NA,19.195979899497488,NA,NA
06403,New Haven County,CT,NA,96.28140703517587,NA,NA
06413,Middlesex County,CT,NA,67.23618090452261,NA,NA
06450,New Haven County,CT,NA,NA,NA,23.076923076923077
06457,Middlesex County,CT,NA,NA,9.168081494057725,NA
06484,Fairfield County,CT,NA,NA,NA,15.659340659340659
06511,New Haven County,CT,NA,5.427135678391959,NA,NA
06512,New Haven County,CT,NA,26.331658291457288,NA,NA
06515,New Haven County,CT,NA,NA,NA,40.10989010989011
06516,New Haven County,CT,NA,8.442211055276381,NA,NA
06604,Fairfield County,CT,NA,23.21608040201005,NA,NA
06608,Fairfield County,CT,NA,88.94472361809045,NA,NA
06716,New Haven County,CT,NA,69.74874371859296,NA,NA
06770,New Haven County,CT,NA,NA,26.146010186757216,NA
06820,Fairfield County,CT,NA,NA,NA,79.94505494505495
06840,Fairfield County,CT,NA,NA,NA,65.93406593406593
06880,Fairfield County,CT,NA,55.47738693467337,NA,NA
06896,Fairfield County,CT,NA,NA,NA,78.57142857142857
19802,New Castle County,DE,NA,NA,NA,80.21978021978022
19904,Kent County,DE,NA,NA,16.97792869269949,NA
19956,Sussex County,DE,NA,NA,51.782682512733444,NA
19973,Sussex County,DE,NA,NA,NA,14.010989010989011
32034,Nassau County,FL,NA,NA,10.0169779286927,NA
32063,Baker County,FL,NA,73.06532663316582,NA,NA
32110,Flagler County,FL,NA,NA,81.49405772495756,NA
32114,Volusia County,FL,45.45454545454545,62.010050251256274,NA,NA
32127,Volusia County,FL,NA,NA,NA,24.175824175824175
32128,Volusia County,FL,NA,NA,NA,45.32967032967033
32141,Volusia County,FL,NA,NA,NA,46.97802197802198
32174,Volusia County,FL,NA,NA,NA,7.967032967032966
32189,Putnam County,FL,NA,NA,85.56876061120543,NA
32206,Duval County,FL,NA,25.025125628140703,NA,NA
32209,Duval County,FL,NA,5.226130653266332,NA,NA
32210,Duval County,FL,2.272727272727273,4.522613065326634,NA,NA
32217,Duval County,FL,NA,90.85427135678393,NA,NA
32219,Duval County,FL,NA,78.09045226130652,NA,NA
32225,Duval County,FL,NA,31.959798994974875,17.31748726655348,NA
32409,Bay County,FL,NA,91.95979899497488,NA,NA
32433,Walton County,FL,NA,64.82412060301507,NA,NA
32448,Jackson County,FL,NA,63.91959798994975,NA,NA
32460,Jackson County,FL,98.7012987012987,NA,NA,NA
32503,Escambia County,FL,NA,24.321608040201003,NA,NA
32531,Okaloosa County,FL,NA,92.46231155778895,NA,NA
32539,Okaloosa County,FL,NA,45.42713567839196,NA,NA
32583,Santa Rosa County,FL,NA,NA,23.93887945670628,NA
32725,Volusia County,FL,32.142857142857146,NA,NA,NA
32763,Volusia County,FL,NA,66.33165829145729,NA,NA
32789,Orange County,FL,62.66233766233766,NA,NA,NA
32796,Brevard County,FL,NA,NA,91.68081494057725,NA
32819,Orange County,FL,NA,NA,73.68421052631578,NA
32825,Orange County,FL,NA,35.77889447236181,NA,NA
32837,Orange County,FL,NA,74.77386934673366,NA,NA
32901,Brevard County,FL,NA,62.311557788944725,NA,NA
32903,Brevard County,FL,98.05194805194806,NA,NA,NA
32907,Brevard County,FL,NA,NA,NA,17.582417582417584
32920,Brevard County,FL,NA,95.07537688442211,NA,NA
32922,Brevard County,FL,NA,NA,87.60611205432937,NA
32937,Brevard County,FL,NA,NA,NA,28.021978021978022
32953,Brevard County,FL,NA,NA,NA,15.10989010989011
32960,Indian River County,FL,NA,54.57286432160804,NA,NA
32962,Indian River County,FL,NA,NA,43.12393887945671,NA
32966,Indian River County,FL,NA,NA,31.918505942275043,NA
32967,Indian River County,FL,NA,NA,NA,46.7032967032967
33009,Broward County,FL,NA,NA,NA,44.505494505494504
33010,Miami-Dade County,FL,48.701298701298704,NA,NA,NA
33012,Miami-Dade County,FL,NA,49.54773869346734,NA,NA
33015,Miami-Dade County,FL,31.16883116883117,NA,NA,NA
33020,Broward County,FL,NA,33.266331658291456,NA,NA
33023,Broward County,FL,NA,58.391959798994975,NA,NA
33027,Broward County,FL,NA,NA,NA,5.769230769230769
33040,Monroe County,FL,NA,49.346733668341706,NA,NA
33125,Miami-Dade County,FL,NA,NA,NA,10.43956043956044
33127,Miami-Dade County,FL,NA,62.41206030150753,NA,NA
33130,Miami-Dade County,FL,NA,86.4321608040201,NA,NA
33133,Miami-Dade County,FL,NA,NA,42.95415959252971,NA
33134,Miami-Dade County,FL,NA,NA,58.06451612903226,NA
33138,Miami-Dade County,FL,87.01298701298701,74.67336683417085,NA,NA
33143,Miami-Dade County,FL,NA,NA,NA,45.879120879120876
33145,Miami-Dade County,FL,NA,NA,NA,31.043956043956044
33154,Miami-Dade County,FL,NA,NA,NA,68.13186813186813
33156,Miami-Dade County,FL,NA,83.01507537688441,NA,NA
33157,Miami-Dade County,FL,NA,38.79396984924623,NA,NA
33165,Miami-Dade County,FL,NA,NA,NA,48.07692307692308
33175,Miami-Dade County,FL,NA,61.80904522613066,NA,NA
33178,Miami-Dade County,FL,NA,NA,NA,68.4065934065934
33183,Miami-Dade County,FL,NA,NA,NA,38.73626373626374
33190,Miami-Dade County,FL,NA,97.28643216080401,NA,NA
33311,Broward County,FL,NA,32.462311557788944,NA,NA
33409,Palm Beach County,FL,NA,70.95477386934674,NA,NA
33411,Palm Beach County,FL,NA,42.71356783919598,NA,NA
33417,Palm Beach County,FL,NA,NA,89.81324278438031,NA
33430,Palm Beach County,FL,NA,58.89447236180905,NA,NA
33433,Palm Beach County,FL,NA,NA,NA,1.6483516483516485
33440,Hendry County,FL,NA,57.286432160804026,NA,NA
33444,Palm Beach County,FL,NA,66.4321608040201,NA,NA
33458,Palm Beach County,FL,NA,27.537688442211056,24.61799660441426,NA
33477,Palm Beach County,FL,NA,NA,NA,42.032967032967036
33478,Palm Beach County,FL,NA,98.99497487437185,NA,NA
33496,Palm Beach County,FL,NA,NA,NA,76.92307692307693
33573,Hillsborough County,FL,NA,NA,22.410865874363328,NA
33584,Hillsborough County,FL,NA,61.50753768844221,69.10016977928693,NA
33612,Hillsborough County,FL,NA,NA,39.72835314091681,NA
33624,Hillsborough County,FL,NA,NA,49.06621392190153,NA
33763,Pinellas County,FL,NA,NA,NA,43.956043956043956
33781,Pinellas County,FL,NA,53.869346733668344,NA,NA
33782,Pinellas County,FL,NA,NA,54.159592529711375,NA
33809,Polk County,FL,75.32467532467533,54.97487437185929,NA,NA
33810,Polk County,FL,NA,NA,35.82342954159593,NA
33837,Polk County,FL,NA,55.97989949748744,NA,NA
33841,Polk County,FL,NA,93.86934673366835,NA,NA
33870,Highlands County,FL,NA,32.1608040201005,29.20203735144312,NA
33880,Polk County,FL,NA,NA,NA,25.274725274725274
33904,Lee County,FL,NA,NA,NA,6.868131868131869
33914,Lee County,FL,NA,45.22613065326633,15.959252971137522,NA
33917,Lee County,FL,NA,58.69346733668341,NA,NA
33952,Charlotte County,FL,42.2077922077922,91.55778894472361,NA,NA
33991,Lee County,FL,NA,NA,42.10526315789473,NA
34205,Manatee County,FL,NA,NA,NA,42.582417582417584
34208,Manatee County,FL,NA,29.547738693467334,NA,NA
34209,Manatee County,FL,NA,NA,23.089983022071305,NA
34228,Sarasota County,FL,NA,NA,88.45500848896435,NA
34232,Sarasota County,FL,NA,53.66834170854271,33.78607809847199,NA
34275,Sarasota County,FL,NA,NA,NA,14.835164835164836
34448,Citrus County,FL,NA,83.31658291457286,NA,NA
34450,Citrus County,FL,NA,NA,NA,64.56043956043956
34452,Citrus County,FL,NA,69.34673366834171,NA,NA
34465,Citrus County,FL,NA,69.54773869346734,NA,NA
34480,Marion County,FL,NA,65.62814070351759,NA,NA
34482,Marion County,FL,69.48051948051948,NA,NA,NA
34491,Marion County,FL,NA,NA,NA,20.32967032967033
34609,Hernando County,FL,NA,35.47738693467337,NA,20.054945054945055
34614,Hernando County,FL,NA,NA,96.60441426146011,NA
34655,Pasco County,FL,NA,NA,26.825127334465193,NA
34667,Pasco County,FL,NA,NA,NA,19.230769230769234
34668,Pasco County,FL,NA,13.768844221105528,NA,NA
34769,Osceola County,FL,62.33766233766234,NA,NA,NA
34772,Osceola County,FL,NA,71.75879396984925,NA,NA
34787,Orange County,FL,NA,28.643216080402013,NA,NA
34951,St. Lucie County,FL,NA,NA,93.2088285229202,NA
34953,St. Lucie County,FL,NA,6.733668341708543,7.30050933786078,NA
34982,St. Lucie County,FL,NA,NA,98.81154499151104,NA
34983,St. Lucie County,FL,24.025974025974026,NA,NA,NA
34997,Martin County,FL,24.350649350649352,NA,NA,NA
30008,Cobb County,GA,NA,88.84422110552764,NA,NA
30013,Rockdale County,GA,NA,NA,63.3276740237691,NA
30014,Newton County,GA,25.97402597402597,NA,NA,NA
30024,Gwinnett County,GA,NA,NA,25.29711375212224,NA
30032,DeKalb County,GA,NA,NA,13.242784380305602,NA
30039,Gwinnett County,GA,NA,NA,NA,47.25274725274725
30058,DeKalb County,GA,NA,24.22110552763819,NA,NA
30087,DeKalb County,GA,NA,NA,NA,32.69230769230769
30114,Cherokee County,GA,45.77922077922078,NA,28.522920203735147,NA
30116,Carroll County,GA,54.22077922077923,NA,NA,NA
30117,Carroll County,GA,NA,NA,NA,29.67032967032967
30120,Bartow County,GA,NA,24.120603015075375,NA,NA
30126,Cobb County,GA,NA,NA,NA,62.637362637362635
30144,Cobb County,GA,NA,NA,NA,56.59340659340659
30161,Floyd County,GA,NA,22.613065326633166,NA,NA
30165,Floyd County,GA,NA,28.542713567839193,NA,NA
30214,Fayette County,GA,NA,NA,NA,39.83516483516483
30223,Spalding County,GA,NA,41.4070351758794,NA,NA
30228,Henry County,GA,NA,34.2713567839196,NA,NA
30241,Troup County,GA,NA,30.753768844221106,NA,NA
30253,Henry County,GA,NA,29.547738693467334,NA,NA
30263,Coweta County,GA,NA,NA,NA,27.197802197802197
30281,Henry County,GA,NA,NA,20.0339558573854,NA
30288,Clayton County,GA,94.48051948051948,NA,NA,NA
30296,Clayton County,GA,NA,NA,NA,99.45054945054946
30312,Fulton County,GA,NA,65.82914572864321,NA,NA
30314,Fulton County,GA,NA,NA,NA,52.74725274725275
30316,DeKalb County,GA,NA,60.20100502512563,53.140916808149406,NA
30327,Fulton County,GA,NA,NA,NA,59.61538461538461
30331,Fulton County,GA,NA,20.301507537688444,NA,NA
30345,DeKalb County,GA,NA,NA,78.77758913412563,NA
30350,Fulton County,GA,57.467532467532465,NA,NA,NA
30512,Union County,GA,NA,77.48743718592965,NA,NA
30536,Gilmer County,GA,81.81818181818183,NA,NA,NA
30549,Jackson County,GA,NA,52.8643216080402,NA,NA
30558,Jackson County,GA,NA,98.19095477386935,NA,NA
30577,Stephens County,GA,NA,51.15577889447236,NA,98.62637362637363
30601,Clarke County,GA,26.948051948051948,NA,NA,NA
30635,Elbert County,GA,NA,NA,NA,54.670329670329664
30642,Greene County,GA,NA,82.41206030150754,NA,NA
30720,Whitfield County,GA,NA,NA,NA,57.692307692307686
30814,Columbia County,GA,NA,83.81909547738694,NA,NA
30906,Richmond County,GA,NA,8.64321608040201,NA,NA
30909,Richmond County,GA,NA,NA,18.33616298811545,NA
31021,Laurens County,GA,NA,NA,60.441426146010194,NA
31029,Monroe County,GA,NA,NA,NA,85.16483516483517
31069,Houston County,GA,NA,NA,51.103565365025474,NA
31088,Houston County,GA,NA,52.361809045226124,NA,NA
31204,Bibb County,GA,NA,36.281407035175874,NA,NA
31525,Glynn County,GA,NA,57.68844221105528,NA,NA
31533,Coffee County,GA,83.44155844155844,NA,NA,NA
31553,Brantley County,GA,NA,NA,91.00169779286928,NA
31601,Lowndes County,GA,32.467532467532465,NA,NA,NA
31602,Lowndes County,GA,NA,41.608040201005025,NA,NA
31632,Lowndes County,GA,NA,NA,NA,93.68131868131869
31639,Berrien County,GA,NA,82.01005025125629,NA,NA
31643,Brooks County,GA,NA,72.56281407035175,NA,NA
31750,Ben Hill County,GA,NA,NA,NA,56.86813186813187
31774,Irwin County,GA,NA,83.61809045226131,NA,NA
31794,Tift County,GA,NA,30.65326633165829,57.555178268251275,NA
39840,Randolph County,GA,NA,NA,NA,84.06593406593407
96701,Honolulu County,HI,46.103896103896105,NA,NA,NA
96734,Honolulu County,HI,NA,NA,45.67062818336163,8.791208791208792
96740,Hawaii County,HI,NA,NA,63.1578947368421,NA
96778,Hawaii County,HI,NA,74.57286432160805,NA,NA
96786,Honolulu County,HI,NA,NA,48.217317487266556,NA
96790,Maui County,HI,NA,NA,NA,97.8021978021978
96797,Honolulu County,HI,NA,36.68341708542713,6.621392190152801,NA
96813,Honolulu County,HI,NA,37.98994974874372,NA,NA
96814,Honolulu County,HI,NA,74.07035175879398,NA,NA
96818,Honolulu County,HI,NA,NA,34.80475382003396,NA
96826,Honolulu County,HI,NA,NA,32.93718166383701,NA
83301,Twin Falls County,ID,NA,NA,13.582342954159593,NA
83338,Jerome County,ID,NA,NA,25.636672325976228,NA
83406,Bonneville County,ID,NA,NA,74.19354838709677,NA
83501,Nez Perce County,ID,NA,NA,12.054329371816639,NA
83544,Clearwater County,ID,NA,NA,NA,66.48351648351648
83644,Canyon County,ID,NA,NA,94.56706281833617,NA
83646,Ada County,ID,NA,NA,7.470288624787775,NA
83651,Canyon County,ID,NA,NA,12.73344651952462,NA
83687,Canyon County,ID,NA,NA,19.35483870967742,NA
83702,Ada County,ID,NA,33.165829145728644,21.901528013582343,NA
83703,Ada County,ID,79.54545454545455,NA,NA,NA
83704,Ada County,ID,22.4025974025974,NA,NA,NA
83709,Ada County,ID,NA,17.08542713567839,NA,NA
83815,Kootenai County,ID,NA,40,NA,15.10989010989011
83854,Kootenai County,ID,NA,36.984924623115575,NA,NA
60004,Cook County,IL,NA,NA,NA,37.08791208791209
60030,Lake County,IL,NA,88.34170854271358,NA,NA
60031,Lake County,IL,51.298701298701296,NA,NA,NA
60046,Lake County,IL,NA,NA,25.806451612903224,NA
60048,Lake County,IL,NA,NA,27.164685908319186,NA
60056,Cook County,IL,NA,43.81909547738693,NA,NA
60061,Lake County,IL,NA,NA,54.66893039049236,NA
60062,Cook County,IL,34.41558441558442,NA,NA,NA
60068,Cook County,IL,NA,45.42713567839196,NA,NA
60073,Lake County,IL,NA,17.98994974874372,NA,NA
60085,Lake County,IL,NA,20.90452261306533,31.069609507640067,NA
60097,McHenry County,IL,NA,NA,NA,81.04395604395604
60099,Lake County,IL,NA,NA,NA,86.81318681318682
60102,McHenry County,IL,NA,54.37185929648242,45.331069609507644,NA
60103,DuPage County,IL,NA,31.457286432160803,NA,42.857142857142854
60148,DuPage County,IL,NA,16.78391959798995,NA,NA
60172,DuPage County,IL,NA,NA,NA,58.51648351648352
60185,DuPage County,IL,NA,41.30653266331658,NA,NA
60188,DuPage County,IL,NA,99.89949748743719,NA,NA
60189,DuPage County,IL,NA,NA,61.62988115449915,NA
60406,Cook County,IL,NA,83.31658291457286,NA,NA
60423,Will County,IL,NA,NA,NA,46.42857142857143
60429,Cook County,IL,NA,74.2713567839196,NA,NA
60443,Cook County,IL,NA,51.95979899497487,NA,NA
60446,Will County,IL,33.76623376623377,NA,NA,NA
60453,Cook County,IL,NA,16.08040201005025,NA,NA
60462,Cook County,IL,NA,NA,5.602716468590832,NA
60464,Cook County,IL,NA,NA,NA,62.08791208791209
60487,Cook County,IL,NA,61.90954773869347,NA,NA
60491,Will County,IL,37.66233766233766,NA,NA,NA
60515,DuPage County,IL,NA,45.7286432160804,NA,NA
60538,Kendall County,IL,35.064935064935064,NA,NA,NA
60542,Kane County,IL,NA,70.85427135678391,NA,NA
60546,Cook County,IL,NA,NA,NA,45.879120879120876
60559,DuPage County,IL,NA,NA,86.92699490662139,NA
60565,DuPage County,IL,NA,NA,59.25297113752123,NA
60608,Cook County,IL,NA,NA,NA,7.6923076923076925
60614,Cook County,IL,NA,NA,18.166383701188455,NA
60620,Cook County,IL,NA,32.76381909547739,NA,NA
60628,Cook County,IL,NA,NA,NA,3.296703296703297
60638,Cook County,IL,NA,11.35678391959799,NA,NA
60639,Cook County,IL,NA,39.095477386934675,NA,NA
60643,Cook County,IL,NA,9.949748743718594,NA,NA
60644,Cook County,IL,30.844155844155846,NA,NA,NA
60653,Cook County,IL,NA,NA,31.40916808149406,NA
60655,Cook County,IL,NA,NA,32.25806451612903,NA
60656,Cook County,IL,NA,NA,48.89643463497453,NA
60659,Cook County,IL,NA,54.2713567839196,NA,NA
61032,Stephenson County,IL,NA,38.5929648241206,NA,NA
61071,Whiteside County,IL,NA,28.74371859296482,NA,NA
61072,Winnebago County,IL,NA,NA,NA,79.67032967032966
61109,Winnebago County,IL,NA,NA,51.95246179966044,NA
61265,Rock Island County,IL,NA,NA,31.57894736842105,NA
61354,LaSalle County,IL,NA,NA,NA,28.296703296703296
61364,LaSalle County,IL,NA,NA,58.40407470288624,NA
61832,Vermilion County,IL,25.324675324675322,NA,NA,NA
61834,Vermilion County,IL,NA,NA,82.51273344651952,NA
61874,Champaign County,IL,NA,NA,66.383701188455,NA
62010,Madison County,IL,NA,NA,NA,85.98901098901099
62025,Madison County,IL,NA,NA,NA,23.9010989010989
62040,Madison County,IL,NA,NA,11.03565365025467,NA
62095,Madison County,IL,NA,NA,NA,53.2967032967033
62207,St. Clair County,IL,NA,NA,NA,95.32967032967034
62208,St. Clair County,IL,NA,NA,68.25127334465195,NA
62226,St. Clair County,IL,64.28571428571429,NA,NA,NA
62246,Bond County,IL,NA,NA,79.9660441426146,NA
62249,Madison County,IL,NA,NA,69.10016977928693,NA
62258,St. Clair County,IL,NA,NA,NA,96.42857142857143
62549,Macon County,IL,NA,90.25125628140704,NA,NA
62618,Cass County,IL,91.55844155844156,NA,NA,NA
62644,Mason County,IL,NA,98.79396984924624,NA,NA
62702,Sangamon County,IL,40.58441558441558,NA,NA,NA
62832,Perry County,IL,NA,87.43718592964824,NA,NA
62839,Clay County,IL,NA,87.73869346733669,NA,NA
62859,Hamilton County,IL,NA,NA,92.02037351443124,NA
62864,Jefferson County,IL,60.064935064935064,NA,NA,NA
46052,Boone County,IN,NA,47.83919597989949,NA,NA
46205,Marion County,IN,NA,NA,60.78098471986417,NA
46208,Marion County,IN,NA,38.79396984924623,NA,NA
46218,Marion County,IN,NA,11.055276381909549,21.731748726655347,NA
46219,Marion County,IN,NA,14.07035175879397,NA,NA
46226,Marion County,IN,NA,NA,NA,61.26373626373627
46237,Marion County,IN,NA,22.412060301507537,NA,NA
46254,Marion County,IN,NA,NA,29.541595925297116,NA
46259,Marion County,IN,NA,91.356783919598,NA,NA
46260,Marion County,IN,NA,NA,51.273344651952456,NA
46310,Jasper County,IN,NA,NA,60.27164685908319,NA
46321,Lake County,IN,NA,NA,55.85738539898133,NA
46342,Lake County,IN,NA,6.432160804020101,NA,NA
46366,Starke County,IN,96.42857142857143,NA,NA,NA
46375,Lake County,IN,NA,NA,NA,21.703296703296704
46385,Porter County,IN,12.337662337662337,NA,NA,NA
46391,LaPorte County,IN,NA,82.1105527638191,NA,NA
46408,Lake County,IN,NA,53.36683417085427,NA,NA
46580,Kosciusko County,IN,NA,52.06030150753769,NA,NA
46582,Kosciusko County,IN,61.68831168831169,NA,NA,NA
46614,St. Joseph County,IN,NA,NA,99.15110356536503,NA
46619,St. Joseph County,IN,NA,83.91959798994975,NA,NA
46628,St. Joseph County,IN,NA,NA,79.79626485568761,NA
46635,St. Joseph County,IN,95.77922077922078,NA,NA,NA
46733,Adams County,IN,NA,NA,51.61290322580645,NA
46805,Allen County,IN,NA,37.08542713567839,NA,NA
46818,Allen County,IN,NA,45.62814070351759,NA,NA
46952,Grant County,IN,NA,21.608040201005025,NA,NA
46992,Wabash County,IN,NA,38.09045226130653,NA,NA
47006,Ripley County,IN,NA,76.18090452261306,NA,NA
47112,Harrison County,IN,70.45454545454545,NA,NA,65.10989010989012
47130,Clark County,IN,19.480519480519483,NA,NA,NA
47150,Floyd County,IN,NA,12.160804020100501,NA,NA
47164,Harrison County,IN,NA,97.68844221105527,NA,NA
47265,Jennings County,IN,NA,62.71356783919598,NA,NA
47362,Henry County,IN,NA,NA,NA,9.065934065934066
47371,Jay County,IN,69.8051948051948,NA,NA,NA
47374,Wayne County,IN,NA,70.15075376884423,NA,NA
47403,Monroe County,IN,NA,67.43718592964824,NA,NA
47501,Daviess County,IN,NA,NA,25.127334465195243,20.87912087912088
47711,Vanderburgh County,IN,NA,NA,28.01358234295416,NA
47905,Tippecanoe County,IN,NA,46.4321608040201,NA,NA
47909,Tippecanoe County,IN,NA,44.42211055276382,NA,NA
50010,Story County,IA,91.88311688311688,NA,NA,NA
50022,Cass County,IA,NA,NA,81.83361629881153,NA
50112,Poweshiek County,IA,NA,NA,87.77589134125637,NA
50158,Marshall County,IA,NA,NA,74.53310696095076,NA
50201,Story County,IA,NA,NA,93.88794567062818,NA
50265,Polk County,IA,83.11688311688312,NA,NA,NA
50310,Polk County,IA,39.935064935064936,NA,NA,NA
50401,Cerro Gordo County,IA,NA,NA,NA,12.087912087912088
50595,Hamilton County,IA,72.40259740259741,NA,NA,NA
50613,Black Hawk County,IA,NA,NA,NA,23.35164835164835
50677,Bremer County,IA,92.20779220779221,NA,67.57215619694398,NA
50701,Black Hawk County,IA,NA,37.58793969849246,NA,NA
50702,Black Hawk County,IA,NA,47.73869346733669,NA,NA
50801,Union County,IA,NA,44.52261306532663,NA,NA
51103,Woodbury County,IA,NA,NA,67.23259762308999,89.01098901098901
51201,O'Brien County,IA,NA,100,NA,NA
52001,Dubuque County,IA,NA,51.55778894472361,NA,NA
52205,Jones County,IA,NA,NA,83.02207130730051,NA
52233,Linn County,IA,68.83116883116884,NA,NA,NA
52240,Johnson County,IA,NA,24.723618090452263,NA,NA
52241,Johnson County,IA,51.62337662337663,NA,NA,NA
52246,Johnson County,IA,NA,65.62814070351759,NA,NA
52405,Linn County,IA,NA,NA,NA,45.05494505494506
52544,Appanoose County,IA,NA,47.43718592964824,NA,NA
52556,Jefferson County,IA,NA,NA,63.497453310696095,65.65934065934066
52601,Des Moines County,IA,NA,14.472361809045225,NA,12.637362637362637
52627,Lee County,IA,NA,49.84924623115578,48.04753820033956,NA
52732,Clinton County,IA,NA,25.42713567839196,NA,NA
52761,Muscatine County,IA,NA,43.91959798994975,NA,NA
52803,Scott County,IA,NA,39.49748743718593,NA,NA
52804,Scott County,IA,NA,54.07035175879397,NA,NA
52807,Scott County,IA,NA,NA,NA,87.08791208791209
66061,Johnson County,KS,15.259740259740258,NA,NA,NA
66208,Johnson County,KS,NA,NA,53.65025466893039,NA
66608,Shawnee County,KS,NA,NA,93.3786078098472,92.03296703296702
66739,Cherokee County,KS,NA,96.3819095477387,NA,NA
66762,Crawford County,KS,NA,NA,55.68760611205433,NA
67010,Butler County,KS,NA,NA,NA,87.63736263736264
67124,Pratt County,KS,NA,NA,76.4006791171477,NA
67410,Dickinson County,KS,NA,88.14070351758794,NA,NA
67456,McPherson County,KS,NA,91.75879396984925,NA,NA
40004,Nelson County,KY,NA,21.809045226130653,NA,NA
40175,Hardin County,KY,NA,64.02010050251256,NA,NA
40211,Jefferson County,KY,NA,NA,41.08658743633276,NA
40212,Jefferson County,KY,NA,28.94472361809045,NA,NA
40241,Jefferson County,KY,66.55844155844156,NA,NA,NA
40291,Jefferson County,KY,46.42857142857143,NA,NA,33.24175824175824
40330,Mercer County,KY,65.9090909090909,NA,NA,NA
40336,Estill County,KY,NA,60.50251256281407,NA,NA
40391,Clark County,KY,NA,9.447236180904522,NA,NA
40422,Boyle County,KY,NA,NA,52.29202037351443,NA
40503,Fayette County,KY,NA,NA,67.23259762308999,NA
40509,Fayette County,KY,NA,37.286432160804026,NA,NA
40823,Harlan County,KY,NA,81.70854271356785,NA,NA
40831,Harlan County,KY,NA,75.47738693467336,NA,NA
40965,Bell County,KY,NA,29.94974874371859,NA,NA
41001,Campbell County,KY,44.15584415584416,NA,NA,NA
41006,Pendleton County,KY,NA,97.18592964824121,NA,NA
41018,Kenton County,KY,NA,28.241206030150757,26.99490662139219,NA
41035,Grant County,KY,NA,NA,83.70118845500849,NA
41040,Pendleton County,KY,NA,NA,88.11544991511036,NA
41056,Mason County,KY,NA,48.44221105527638,NA,NA
41091,Boone County,KY,NA,NA,NA,58.791208791208796
41465,Magoffin County,KY,NA,NA,87.43633276740238,NA
41653,Floyd County,KY,NA,NA,41.935483870967744,NA
42003,McCracken County,KY,NA,NA,NA,31.318681318681318
42066,Graves County,KY,NA,26.231155778894472,NA,NA
42129,Metcalfe County,KY,NA,NA,NA,83.24175824175825
42210,Edmonson County,KY,NA,98.29145728643216,NA,NA
42301,Daviess County,KY,NA,10.753768844221105,11.544991511035652,NA
42303,Daviess County,KY,NA,40.10050251256281,NA,NA
42345,Muhlenberg County,KY,NA,NA,67.74193548387096,NA
42501,Pulaski County,KY,NA,56.68341708542714,NA,NA
42717,Cumberland County,KY,NA,63.015075376884425,NA,NA
42718,Taylor County,KY,42.2077922077922,NA,NA,NA
70065,Jefferson Parish,LA,NA,5.025125628140704,NA,NA
70070,St. Charles Parish,LA,34.090909090909086,NA,NA,NA
70116,Orleans Parish,LA,NA,NA,70.45840407470288,NA
70122,Orleans Parish,LA,31.493506493506494,NA,NA,NA
70126,Orleans Parish,LA,NA,30.15075376884422,NA,NA
70131,Orleans Parish,LA,NA,16.281407035175878,NA,NA
70435,St. Tammany Parish,LA,NA,23.618090452261306,NA,NA
70438,Washington Parish,LA,NA,15.376884422110553,NA,NA
70441,St. Helena Parish,LA,NA,NA,NA,76.64835164835165
70454,Tangipahoa Parish,LA,9.415584415584416,NA,NA,NA
70458,St. Tammany Parish,LA,3.571428571428571,NA,NA,NA
70466,Tangipahoa Parish,LA,43.83116883116883,NA,NA,NA
70501,Lafayette Parish,LA,0.6493506493506493,2.613065326633166,NA,NA
70507,Lafayette Parish,LA,88.96103896103897,NA,NA,NA
70508,Lafayette Parish,LA,NA,51.65829145728643,NA,NA
70518,Lafayette Parish,LA,61.36363636363637,NA,NA,NA
70520,Lafayette Parish,LA,NA,26.633165829145728,50.08488964346349,NA
70525,Acadia Parish,LA,54.54545454545454,56.28140703517588,NA,NA
70535,St. Landry Parish,LA,NA,NA,92.86926994906621,NA
70563,Iberia Parish,LA,NA,41.20603015075377,NA,NA
70577,St. Landry Parish,LA,NA,77.1859296482412,NA,NA
70586,Evangeline Parish,LA,NA,17.386934673366834,NA,NA
70601,Calcasieu Parish,LA,NA,2.21105527638191,NA,NA
70607,Calcasieu Parish,LA,22.727272727272727,NA,NA,NA
70726,Livingston Parish,LA,NA,2.0100502512562812,NA,NA
70737,Ascension Parish,LA,NA,8.040201005025125,18.675721561969443,NA
70769,Ascension Parish,LA,NA,40.301507537688444,NA,NA
70802,East Baton Rouge Parish,LA,3.896103896103896,NA,NA,NA
70805,East Baton Rouge Parish,LA,NA,NA,28.862478777589136,NA
70808,East Baton Rouge Parish,LA,NA,77.78894472361809,NA,NA
70810,East Baton Rouge Parish,LA,NA,36.08040201005025,NA,NA
71006,Bossier Parish,LA,NA,NA,93.0390492359932,NA
71075,Webster Parish,LA,61.68831168831169,NA,NA,NA
71107,Caddo Parish,LA,2.922077922077922,3.3165829145728645,NA,NA
71269,Richland Parish,LA,NA,51.05527638190954,NA,NA
71322,Avoyelles Parish,LA,NA,NA,91.17147707979628,NA
71343,Catahoula Parish,LA,NA,NA,85.73853989813243,NA
03908,York County,ME,NA,NA,60.441426146010194,NA
04009,Cumberland County,ME,NA,76.38190954773869,NA,NA
04038,Cumberland County,ME,NA,NA,50.76400679117148,NA
04064,York County,ME,NA,NA,46.349745331069606,NA
04086,Sagadahoc County,ME,NA,80.80402010050251,56.36672325976231,NA
04105,Cumberland County,ME,NA,NA,NA,51.92307692307693
04106,Cumberland County,ME,NA,NA,36.6723259762309,NA
04210,Androscoggin County,ME,NA,NA,10.186757215619695,NA
04240,Androscoggin County,ME,NA,NA,NA,1.3736263736263736
04250,Androscoggin County,ME,NA,NA,99.32088285229203,NA
04274,Androscoggin County,ME,NA,92.8643216080402,NA,NA
04281,Oxford County,ME,NA,NA,NA,68.95604395604396
04609,Hancock County,ME,NA,NA,88.28522920203736,NA
04730,Aroostook County,ME,NA,86.03015075376884,NA,NA
04742,Aroostook County,ME,NA,81.60804020100502,NA,NA
04756,Aroostook County,ME,NA,88.64321608040201,NA,60.98901098901099
04769,Aroostook County,ME,NA,NA,NA,80.4945054945055
04864,Knox County,ME,NA,NA,98.47198641765704,NA
04901,Kennebec County,ME,NA,6.030150753768844,NA,NA
20601,Charles County,MD,NA,72.36180904522614,NA,NA
20721,Prince George's County,MD,NA,78.19095477386935,NA,NA
20866,Montgomery County,MD,NA,91.15577889447236,NA,NA
20882,Montgomery County,MD,NA,88.44221105527639,NA,NA
21037,Anne Arundel County,MD,NA,NA,NA,72.25274725274726
21074,Carroll County,MD,NA,NA,86.24787775891342,NA
21076,Anne Arundel County,MD,NA,87.53768844221106,NA,NA
21201,Baltimore city,MD,NA,51.75879396984925,NA,NA
21220,Baltimore County,MD,NA,NA,69.43972835314092,NA
21224,Baltimore city,MD,NA,18.190954773869347,72.15619694397284,NA
21225,Baltimore city,MD,49.02597402597403,NA,NA,NA
21228,Baltimore County,MD,NA,NA,13.412563667232597,NA
21231,Baltimore city,MD,NA,NA,70.11884550084889,NA
21286,Baltimore County,MD,NA,NA,NA,48.62637362637363
21663,Talbot County,MD,NA,NA,90.32258064516128,NA
21722,Washington County,MD,NA,97.38693467336684,NA,NA
21784,Carroll County,MD,37.98701298701299,NA,NA,NA
21801,Wicomico County,MD,NA,68.74371859296483,NA,NA
21863,Worcester County,MD,NA,NA,90.66213921901529,NA
21911,Cecil County,MD,NA,NA,77.07979626485569,NA
01020,Hampden County,MA,NA,92.26130653266331,NA,NA
01075,Hampshire County,MA,NA,NA,56.02716468590832,NA
01082,Hampshire County,MA,NA,NA,40.57724957555178,NA
01104,Hampden County,MA,NA,1.7085427135678393,NA,NA
01201,Berkshire County,MA,NA,4.924623115577889,0.1697792869269949,NA
01240,Berkshire County,MA,NA,NA,NA,52.472527472527474
01453,Worcester County,MA,NA,23.517587939698494,NA,NA
01464,Middlesex County,MA,NA,96.08040201005025,NA,NA
01524,Worcester County,MA,NA,76.88442211055276,NA,NA
01540,Worcester County,MA,NA,44.221105527638194,NA,NA
01550,Worcester County,MA,NA,NA,NA,2.4725274725274726
01564,Worcester County,MA,NA,90.35175879396985,NA,NA
01701,Middlesex County,MA,NA,NA,7.6400679117147705,NA
01702,Middlesex County,MA,NA,1.407035175879397,NA,NA
01742,Middlesex County,MA,NA,NA,NA,26.373626373626376
01801,Middlesex County,MA,18.506493506493506,NA,NA,NA
01803,Middlesex County,MA,NA,NA,NA,2.197802197802198
01824,Middlesex County,MA,NA,NA,NA,7.417582417582418
01826,Middlesex County,MA,23.051948051948052,NA,NA,NA
01832,Essex County,MA,NA,3.7185929648241203,NA,NA
01843,Essex County,MA,NA,NA,NA,34.61538461538461
01844,Essex County,MA,3.2467532467532463,NA,NA,NA
01854,Middlesex County,MA,5.51948051948052,NA,NA,NA
01863,Middlesex County,MA,76.62337662337663,NA,NA,NA
01876,Middlesex County,MA,NA,7.839195979899498,NA,NA
01904,Essex County,MA,48.05194805194805,NA,NA,NA
01906,Essex County,MA,NA,3.015075376884422,NA,NA
01930,Essex County,MA,NA,3.8190954773869348,NA,NA
01950,Essex County,MA,NA,NA,NA,17.582417582417584
01952,Essex County,MA,NA,64.42211055276383,NA,NA
01960,Essex County,MA,6.8181818181818175,NA,6.451612903225806,NA
01970,Essex County,MA,4.870129870129871,NA,NA,6.593406593406594
02038,Norfolk County,MA,NA,NA,16.6383701188455,NA
02048,Bristol County,MA,NA,88.24120603015075,NA,NA
02072,Norfolk County,MA,NA,59.89949748743718,NA,NA
02090,Norfolk County,MA,NA,NA,NA,43.40659340659341
02115,Suffolk County,MA,NA,7.537688442211055,NA,NA
02118,Suffolk County,MA,NA,0,NA,29.945054945054945
02127,Suffolk County,MA,NA,NA,8.31918505942275,NA
02128,Suffolk County,MA,NA,0.4020100502512563,NA,NA
02130,Suffolk County,MA,NA,NA,NA,4.395604395604396
02136,Suffolk County,MA,9.740259740259742,NA,NA,NA
02139,Middlesex County,MA,NA,NA,NA,64.83516483516483
02140,Middlesex County,MA,68.5064935064935,NA,NA,NA
02141,Middlesex County,MA,90.25974025974025,NA,NA,NA
02143,Middlesex County,MA,53.246753246753244,NA,NA,NA
02150,Suffolk County,MA,NA,14.572864321608039,NA,NA
02151,Suffolk County,MA,NA,6.834170854271357,NA,0.5494505494505495
02152,Suffolk County,MA,NA,NA,38.20033955857385,NA
02155,Middlesex County,MA,NA,8.241206030150753,NA,NA
02191,Norfolk County,MA,NA,NA,77.92869269949067,NA
02301,Plymouth County,MA,0.3246753246753247,2.814070351758794,NA,NA
02360,Plymouth County,MA,8.116883116883116,1.0050251256281406,NA,NA
02364,Plymouth County,MA,NA,NA,NA,78.02197802197803
02368,Norfolk County,MA,NA,32.26130653266331,NA,NA
02382,Plymouth County,MA,NA,29.246231155778897,58.23429541595926,NA
02420,Middlesex County,MA,NA,40.80402010050251,NA,NA
02446,Norfolk County,MA,NA,57.98994974874372,NA,NA
02451,Middlesex County,MA,NA,NA,73.85398981324278,NA
02493,Middlesex County,MA,NA,70.75376884422111,70.62818336162988,NA
02494,Norfolk County,MA,79.22077922077922,NA,NA,NA
02563,Barnstable County,MA,93.83116883116884,NA,NA,NA
02632,Barnstable County,MA,NA,55.27638190954774,NA,NA
02675,Barnstable County,MA,NA,93.66834170854271,NA,NA
02703,Bristol County,MA,NA,1.105527638190955,0.8488964346349746,NA
02720,Bristol County,MA,NA,0.10050251256281408,NA,39.285714285714285
02724,Bristol County,MA,NA,23.015075376884422,NA,NA
02726,Bristol County,MA,NA,32.36180904522613,NA,NA
02740,Bristol County,MA,2.5974025974025974,NA,14.60101867572156,NA
02748,Bristol County,MA,NA,45.02512562814071,NA,NA
02777,Bristol County,MA,NA,NA,15.110356536502549,NA
02780,Bristol County,MA,NA,0.20100502512562815,NA,NA
48015,Macomb County,MI,NA,NA,57.89473684210527,NA
48033,Oakland County,MI,NA,46.63316582914573,NA,NA
48044,Macomb County,MI,NA,9.145728643216081,NA,NA
48051,Macomb County,MI,NA,NA,40.407470288624786,NA
48059,St. Clair County,MI,NA,NA,47.53820033955857,NA
48060,St. Clair County,MI,13.636363636363635,NA,NA,54.670329670329664
48065,Macomb County,MI,NA,78.79396984924622,NA,NA
48098,Oakland County,MI,NA,65.12562814070351,NA,NA
48101,Wayne County,MI,NA,26.733668341708544,NA,NA
48103,Washtenaw County,MI,NA,50.753768844221106,NA,NA
48108,Washtenaw County,MI,NA,41.80904522613066,32.088285229202036,NA
48116,Livingston County,MI,NA,NA,NA,10.989010989010989
48120,Wayne County,MI,84.74025974025975,NA,NA,NA
48122,Wayne County,MI,NA,60.904522613065325,NA,NA
48124,Wayne County,MI,NA,NA,24.448217317487266,36.26373626373626
48154,Wayne County,MI,NA,NA,7.979626485568761,NA
48160,Washtenaw County,MI,NA,NA,59.7623089983022,NA
48161,Monroe County,MI,12.012987012987013,33.36683417085427,NA,NA
48162,Monroe County,MI,NA,NA,3.5653650254668934,NA
48165,Oakland County,MI,NA,NA,NA,75.82417582417582
48166,Monroe County,MI,47.72727272727273,47.33668341708543,NA,NA
48184,Wayne County,MI,NA,17.587939698492463,NA,NA
48186,Wayne County,MI,NA,29.849246231155778,NA,NA
48197,Washtenaw County,MI,NA,NA,1.8675721561969438,NA
48204,Wayne County,MI,NA,11.557788944723619,NA,NA
48205,Wayne County,MI,NA,4.824120603015075,NA,NA
48206,Wayne County,MI,NA,30.35175879396985,NA,NA
48208,Wayne County,MI,NA,96.68341708542714,NA,NA
48209,Wayne County,MI,25.649350649350648,NA,NA,NA
48214,Wayne County,MI,NA,23.115577889447238,NA,NA
48219,Wayne County,MI,NA,NA,NA,12.912087912087914
48221,Wayne County,MI,NA,NA,5.772495755517826,NA
48224,Wayne County,MI,NA,2.7135678391959797,NA,NA
48237,Oakland County,MI,NA,24.020100502512562,NA,NA
48309,Oakland County,MI,NA,NA,NA,21.978021978021978
48310,Macomb County,MI,NA,52.462311557788944,NA,NA
48314,Macomb County,MI,NA,NA,40.2376910016978,NA
48323,Oakland County,MI,NA,NA,NA,69.78021978021978
48326,Oakland County,MI,NA,57.48743718592964,NA,NA
48328,Oakland County,MI,NA,NA,30.050933786078097,NA
48331,Oakland County,MI,NA,41.005025125628144,NA,NA
48340,Oakland County,MI,NA,11.959798994974873,NA,NA
48341,Oakland County,MI,NA,NA,77.24957555178268,NA
48377,Oakland County,MI,NA,NA,75.55178268251274,NA
48382,Oakland County,MI,NA,NA,37.351443123938886,NA
48413,Huron County,MI,NA,81.20603015075378,NA,NA
48415,Saginaw County,MI,NA,NA,65.02546689303905,NA
48444,Lapeer County,MI,87.66233766233766,NA,NA,NA
48458,Genesee County,MI,38.961038961038966,NA,NA,NA
48471,Sanilac County,MI,NA,78.29145728643216,NA,NA
48503,Genesee County,MI,71.1038961038961,NA,NA,NA
48504,Genesee County,MI,NA,NA,47.198641765704586,NA
48507,Genesee County,MI,NA,94.37185929648241,NA,NA
48509,Genesee County,MI,NA,NA,79.28692699490662,NA
48601,Saginaw County,MI,NA,2.4120603015075375,NA,NA
48602,Saginaw County,MI,NA,NA,11.714770797962649,NA
48603,Saginaw County,MI,10.38961038961039,13.5678391959799,NA,NA
48604,Saginaw County,MI,NA,62.11055276381909,NA,NA
48609,Saginaw County,MI,NA,NA,65.36502546689303,NA
48616,Saginaw County,MI,NA,NA,52.63157894736842,NA
48631,Bay County,MI,NA,NA,78.43803056027164,NA
48638,Saginaw County,MI,NA,63.417085427135675,NA,NA
48640,Midland County,MI,NA,NA,NA,4.945054945054945
48750,Iosco County,MI,NA,NA,62.64855687606112,NA
48858,Isabella County,MI,NA,NA,NA,8.241758241758241
48906,Ingham County,MI,NA,NA,NA,33.51648351648351
48911,Ingham County,MI,12.987012987012985,NA,NA,NA
49006,Kalamazoo County,MI,NA,57.08542713567839,NA,NA
49007,Kalamazoo County,MI,NA,43.618090452261306,NA,NA
49009,Kalamazoo County,MI,NA,14.07035175879397,NA,NA
49031,Cass County,MI,NA,NA,80.4753820033956,NA
49048,Kalamazoo County,MI,NA,20.100502512562816,NA,NA
49203,Jackson County,MI,29.22077922077922,8.542713567839195,NA,NA
49221,Lenawee County,MI,4.545454545454546,4.42211055276382,NA,NA
49242,Hillsdale County,MI,NA,NA,98.30220713073004,NA
49274,Hillsdale County,MI,99.67532467532467,NA,NA,NA
49316,Kent County,MI,NA,93.06532663316584,NA,NA
49331,Kent County,MI,NA,56.78391959798995,NA,NA
49345,Kent County,MI,NA,74.9748743718593,NA,NA
49348,Allegan County,MI,NA,36.582914572864325,79.45670628183362,NA
49418,Kent County,MI,NA,NA,27.67402376910017,NA
49426,Ottawa County,MI,NA,45.22613065326633,NA,NA
49441,Muskegon County,MI,NA,14.271356783919597,NA,1.9230769230769231
49444,Muskegon County,MI,NA,10.854271356783919,NA,NA
49504,Kent County,MI,NA,16.582914572864322,NA,NA
49505,Kent County,MI,NA,62.61306532663317,NA,NA
49506,Kent County,MI,NA,NA,NA,17.307692307692307
49507,Kent County,MI,NA,6.130653266331659,NA,NA
49509,Kent County,MI,NA,NA,72.32597623089984,NA
49546,Kent County,MI,NA,41.90954773869347,NA,NA
49548,Kent County,MI,73.7012987012987,NA,NA,NA
49660,Manistee County,MI,NA,42.814070351758794,NA,NA
49707,Alpena County,MI,NA,NA,60.101867572156195,50.54945054945055
49765,Presque Isle County,MI,NA,88.54271356783919,NA,NA
49802,Dickinson County,MI,NA,NA,87.09677419354838,NA
49829,Delta County,MI,NA,37.185929648241206,29.03225806451613,NA
49837,Delta County,MI,NA,NA,56.196943972835314,NA
49849,Marquette County,MI,NA,NA,56.8760611205433,NA
49855,Marquette County,MI,NA,NA,NA,22.252747252747252
49862,Alger County,MI,NA,95.77889447236181,NA,NA
55016,Washington County,MN,NA,46.130653266331656,NA,NA
55025,Washington County,MN,42.2077922077922,NA,NA,NA
55051,Kanabec County,MN,NA,87.33668341708542,NA,NA
55057,Rice County,MN,NA,NA,NA,67.3076923076923
55060,Steele County,MN,NA,NA,30.390492359932086,NA
55082,Washington County,MN,NA,37.88944723618091,NA,NA
55109,Ramsey County,MN,NA,NA,95.07640067911714,NA
55113,Ramsey County,MN,NA,53.16582914572864,86.41765704584041,NA
55119,Ramsey County,MN,13.96103896103896,NA,32.42784380305603,NA
55124,Dakota County,MN,20.12987012987013,NA,NA,NA
55303,Anoka County,MN,NA,NA,35.31409168081494,NA
55328,Wright County,MN,NA,NA,NA,62.362637362637365
55403,Hennepin County,MN,NA,26.4321608040201,NA,NA
55405,Hennepin County,MN,NA,NA,NA,91.20879120879121
55407,Hennepin County,MN,NA,7.236180904522612,NA,NA
55408,Hennepin County,MN,NA,NA,NA,66.20879120879121
55415,Hennepin County,MN,NA,96.4824120603015,NA,NA
55416,Hennepin County,MN,NA,NA,92.19015280135824,NA
55420,Hennepin County,MN,NA,43.417085427135675,NA,NA
55423,Hennepin County,MN,NA,NA,42.78438030560272,NA
55427,Hennepin County,MN,NA,NA,64.00679117147709,NA
55432,Anoka County,MN,NA,NA,48.217317487266556,NA
55433,Anoka County,MN,NA,39.798994974874375,NA,NA
55435,Hennepin County,MN,NA,87.53768844221106,NA,NA
55443,Hennepin County,MN,NA,34.87437185929648,NA,NA
55444,Hennepin County,MN,NA,63.21608040201006,73.85398981324278,NA
55734,St. Louis County,MN,NA,78.69346733668343,NA,NA
55746,St. Louis County,MN,NA,NA,32.597623089983024,NA
55811,St. Louis County,MN,NA,33.06532663316583,5.432937181663837,NA
55812,St. Louis County,MN,NA,NA,NA,79.3956043956044
55901,Olmsted County,MN,NA,29.145728643216078,NA,NA
55904,Olmsted County,MN,NA,NA,39.898132427843805,NA
55987,Winona County,MN,NA,NA,3.225806451612903,NA
56011,Scott County,MN,NA,90.45226130653266,NA,NA
56071,Scott County,MN,NA,89.3467336683417,NA,NA
56073,Brown County,MN,NA,NA,14.261460101867574,NA
56101,Cottonwood County,MN,NA,NA,74.87266553480475,NA
56156,Rock County,MN,NA,NA,NA,34.89010989010989
56301,Stearns County,MN,NA,48.743718592964825,NA,NA
56345,Morrison County,MN,NA,81.10552763819095,NA,NA
56377,Stearns County,MN,NA,78.49246231155779,NA,NA
56401,Crow Wing County,MN,NA,39.698492462311556,NA,NA
56464,Wadena County,MN,93.18181818181817,89.04522613065326,NA,NA
56470,Hubbard County,MN,NA,NA,NA,36.53846153846153
56560,Clay County,MN,NA,NA,4.923599320882852,NA
56573,Otter Tail County,MN,NA,68.04020100502512,NA,NA
56601,Beltrami County,MN,6.493506493506493,7.135678391959798,1.5280135823429541,NA
56636,Itasca County,MN,NA,NA,93.71816638370119,NA
56701,Pennington County,MN,NA,NA,24.95755517826825,NA
38632,DeSoto County,MS,NA,NA,67.91171477079796,NA
38655,Lafayette County,MS,NA,74.17085427135677,NA,NA
38671,DeSoto County,MS,NA,NA,92.52971137521222,NA
38701,Washington County,MS,NA,NA,67.06281833616299,NA
38732,Bolivar County,MS,NA,NA,NA,51.098901098901095
38737,Sunflower County,MS,NA,99.79899497487436,NA,NA
38751,Sunflower County,MS,NA,NA,75.72156196943973,NA
38801,Lee County,MS,NA,43.31658291457286,NA,NA
38868,Lee County,MS,99.35064935064936,NA,NA,NA
39114,Simpson County,MS,NA,80.60301507537689,NA,NA
39170,Hinds County,MS,NA,85.92964824120602,NA,NA
39180,Warren County,MS,NA,77.38693467336684,NA,NA
39307,Lauderdale County,MS,83.44155844155844,NA,NA,NA
39339,Winston County,MS,NA,NA,65.87436332767402,NA
39355,Clarke County,MS,NA,NA,84.21052631578947,NA
39367,Wayne County,MS,56.493506493506494,NA,NA,NA
39429,Marion County,MS,NA,71.05527638190955,NA,NA
39466,Pearl River County,MS,NA,NA,NA,18.13186813186813
39483,Marion County,MS,NA,NA,NA,94.23076923076923
39560,Harrison County,MS,35.38961038961039,NA,NA,NA
39565,Jackson County,MS,NA,68.5427135678392,NA,NA
39629,Lincoln County,MS,NA,94.67336683417086,NA,NA
39667,Walthall County,MS,72.07792207792207,NA,66.21392190152801,NA
39701,Lowndes County,MS,71.42857142857143,NA,NA,NA
39705,Lowndes County,MS,NA,NA,NA,77.74725274725274
63010,Jefferson County,MO,NA,43.417085427135675,27.504244482173174,NA
63011,St. Louis County,MO,NA,75.87939698492463,NA,NA
63021,St. Louis County,MO,NA,48.14070351758794,NA,NA
63028,Jefferson County,MO,38.63636363636363,27.43718592964824,NA,NA
63031,St. Louis County,MO,NA,20.502512562814072,NA,NA
63033,St. Louis County,MO,NA,52.663316582914575,NA,NA
63044,St. Louis County,MO,93.5064935064935,NA,NA,NA
63050,Jefferson County,MO,NA,NA,NA,78.84615384615384
63077,Franklin County,MO,70.12987012987013,NA,NA,NA
63110,St. Louis city,MO,NA,NA,NA,70.87912087912088
63111,St. Louis city,MO,NA,NA,54.49915110356537,NA
63112,St. Louis city,MO,NA,NA,68.76061120543294,NA
63114,St. Louis County,MO,NA,64.02010050251256,NA,NA
63119,St. Louis County,MO,NA,71.05527638190955,NA,NA
63123,St. Louis County,MO,NA,40.904522613065325,NA,NA
63125,St. Louis County,MO,NA,47.63819095477387,NA,NA
63126,St. Louis County,MO,NA,NA,78.26825127334465,NA
63129,St. Louis County,MO,NA,NA,NA,8.516483516483516
63132,St. Louis County,MO,NA,NA,NA,48.9010989010989
63135,St. Louis County,MO,NA,NA,30.560271646859082,NA
63138,St. Louis County,MO,28.57142857142857,NA,NA,NA
63301,St. Charles County,MO,NA,15.577889447236181,4.074702886247878,NA
63376,St. Charles County,MO,17.20779220779221,NA,2.037351443123939,NA
63379,Lincoln County,MO,33.116883116883116,NA,NA,NA
63385,St. Charles County,MO,NA,18.492462311557787,NA,NA
63552,Macon County,MO,NA,NA,NA,59.89010989010989
63601,St. Francois County,MO,NA,48.54271356783919,NA,NA
63640,St. Francois County,MO,NA,75.17587939698493,NA,NA
63701,Cape Girardeau County,MO,NA,NA,NA,21.153846153846153
63845,Mississippi County,MO,NA,77.68844221105527,NA,NA
63857,Dunklin County,MO,37.33766233766234,NA,NA,NA
64012,Cass County,MO,NA,NA,NA,37.362637362637365
64052,Jackson County,MO,NA,NA,37.69100169779287,NA
64064,Jackson County,MO,NA,58.99497487437186,NA,NA
64089,Clay County,MO,NA,NA,71.30730050933785,NA
64118,Clay County,MO,14.61038961038961,NA,NA,NA
64119,Clay County,MO,NA,41.507537688442206,NA,NA
64130,Jackson County,MO,NA,NA,21.222410865874362,NA
64138,Jackson County,MO,NA,NA,17.65704584040747,NA
64150,Platte County,MO,NA,94.2713567839196,NA,NA
64152,Platte County,MO,NA,22.814070351758794,NA,NA
64154,Platte County,MO,NA,NA,NA,81.5934065934066
64503,Buchanan County,MO,NA,NA,NA,47.527472527472526
64628,Linn County,MO,78.8961038961039,NA,NA,NA
64730,Bates County,MO,NA,64.42211055276383,NA,NA
64801,Jasper County,MO,18.181818181818183,NA,NA,NA
64804,Jasper County,MO,NA,19.09547738693467,NA,NA
64870,Jasper County,MO,NA,50.65326633165829,NA,NA
65013,Maries County,MO,NA,93.46733668341709,NA,NA
65265,Audrain County,MO,28.8961038961039,NA,NA,NA
65301,Pettis County,MO,14.285714285714285,NA,NA,27.747252747252748
65340,Saline County,MO,29.22077922077922,NA,NA,71.97802197802197
65355,Benton County,MO,NA,NA,NA,38.18681318681318
65401,Phelps County,MO,NA,41.70854271356784,NA,NA
65559,Phelps County,MO,NA,NA,NA,71.42857142857143
65605,Lawrence County,MO,80.51948051948052,NA,NA,NA
65625,Barry County,MO,NA,NA,82.17317487266553,NA
65721,Christian County,MO,44.15584415584416,NA,NA,NA
59101,Yellowstone County,MT,NA,NA,24.27843803056027,NA
59102,Yellowstone County,MT,NA,NA,NA,12.362637362637363
59404,Cascade County,MT,NA,50.45226130653266,NA,NA
59635,Lewis and Clark County,MT,NA,92.66331658291456,NA,NA
59716,Gallatin County,MT,NA,99.59798994974875,NA,NA
59935,Lincoln County,MT,NA,NA,97.11375212224108,91.75824175824175
68005,Sarpy County,NE,NA,69.04522613065328,NA,NA
68022,Douglas County,NE,NA,NA,NA,88.73626373626374
68111,Douglas County,NE,36.36363636363637,NA,NA,NA
68154,Douglas County,NE,NA,85.7286432160804,52.29202037351443,NA
68516,Lancaster County,NE,NA,NA,NA,76.0989010989011
68818,Hamilton County,NE,95.12987012987013,NA,NA,NA
69301,Box Butte County,NE,NA,72.96482412060301,NA,NA
89107,Clark County,NV,NA,58.492462311557794,NA,NA
89108,Clark County,NV,NA,25.22613065326633,NA,NA
89119,Clark County,NV,NA,24.42211055276382,NA,NA
89128,Clark County,NV,NA,NA,NA,52.197802197802204
89130,Clark County,NV,NA,NA,NA,49.45054945054945
89408,Lyon County,NV,58.44155844155844,NA,39.21901528013582,NA
89431,Washoe County,NV,NA,83.51758793969849,NA,NA
89502,Washoe County,NV,NA,NA,82.34295415959252,NA
89506,Washoe County,NV,36.038961038961034,NA,NA,NA
89509,Washoe County,NV,NA,56.28140703517588,NA,NA
89512,Washoe County,NV,NA,NA,50.59422750424448,NA
89523,Washoe County,NV,NA,NA,68.42105263157895,NA
03051,Hillsborough County,NH,35.714285714285715,NA,NA,NA
03053,Rockingham County,NH,25,NA,NA,NA
03060,Hillsborough County,NH,19.805194805194805,31.256281407035175,12.39388794567063,NA
03076,Hillsborough County,NH,NA,NA,NA,62.637362637362635
03102,Hillsborough County,NH,NA,NA,16.298811544991512,NA
03103,Hillsborough County,NH,NA,NA,10.69609507640068,NA
03275,Merrimack County,NH,NA,79.19597989949749,48.72665534804754,NA
03301,Merrimack County,NH,NA,54.472361809045225,NA,NA
03303,Merrimack County,NH,NA,90.55276381909547,NA,NA
03431,Cheshire County,NH,NA,NA,NA,6.318681318681318
03582,Coos County,NH,NA,97.78894472361809,NA,NA
03833,Rockingham County,NH,NA,42.61306532663316,NA,NA
03848,Rockingham County,NH,NA,76.48241206030151,NA,NA
03860,Carroll County,NH,NA,NA,88.96434634974533,NA
03868,Strafford County,NH,NA,94.77386934673366,NA,NA
07011,Passaic County,NJ,NA,NA,NA,35.714285714285715
07055,Passaic County,NJ,NA,NA,3.395585738539898,NA
07059,Somerset County,NJ,NA,87.23618090452261,NA,NA
07062,Union County,NJ,98.37662337662337,NA,NA,NA
07107,Essex County,NJ,NA,1.507537688442211,NA,56.043956043956044
07110,Essex County,NJ,NA,NA,59.42275042444821,NA
07205,Union County,NJ,NA,84.02010050251256,NA,NA
07305,Hudson County,NJ,NA,NA,41.76570458404075,NA
07306,Hudson County,NJ,NA,6.331658291457286,NA,NA
07307,Hudson County,NJ,NA,12.763819095477386,NA,NA
07444,Morris County,NJ,67.20779220779221,NA,NA,NA
07501,Passaic County,NJ,17.857142857142858,NA,NA,NA
07601,Bergen County,NJ,NA,7.035175879396985,NA,NA
07712,Monmouth County,NJ,NA,NA,5.942275042444821,NA
07726,Monmouth County,NJ,NA,NA,NA,31.59340659340659
07735,Monmouth County,NJ,NA,35.47738693467337,NA,NA
07882,Warren County,NJ,NA,58.492462311557794,NA,NA
08021,Camden County,NJ,NA,NA,8.149405772495756,NA
08037,Atlantic County,NJ,58.11688311688312,17.78894472361809,NA,NA
08069,Salem County,NJ,NA,NA,49.40577249575552,NA
08081,Camden County,NJ,NA,NA,NA,66.75824175824175
08104,Camden County,NJ,NA,7.939698492462312,NA,NA
08203,Atlantic County,NJ,NA,89.2462311557789,NA,NA
08302,Cumberland County,NJ,NA,26.934673366834172,NA,NA
08360,Cumberland County,NJ,NA,0.9045226130653266,8.998302207130731,NA
08610,Mercer County,NJ,19.155844155844157,NA,NA,NA
08701,Ocean County,NJ,NA,NA,NA,71.15384615384616
08817,Middlesex County,NJ,NA,60.402010050251256,NA,NA
08831,Middlesex County,NJ,NA,33.66834170854271,NA,NA
08857,Middlesex County,NJ,NA,NA,16.808149405772497,NA
08861,Middlesex County,NJ,NA,1.809045226130653,NA,NA
08879,Middlesex County,NJ,NA,NA,88.62478777589135,NA
87108,Bernalillo County,NM,NA,7.6381909547738696,NA,NA
87110,Bernalillo County,NM,NA,13.467336683417086,NA,NA
87112,Bernalillo County,NM,NA,15.979899497487438,NA,NA
87144,Sandoval County,NM,NA,23.417085427135678,NA,NA
87402,San Juan County,NM,NA,NA,NA,90.10989010989012
87505,Santa Fe County,NM,NA,5.8291457286432165,NA,NA
87532,Santa Fe County,NM,NA,43.01507537688442,NA,NA
87566,Rio Arriba County,NM,NA,95.97989949748744,NA,NA
87740,Colfax County,NM,NA,86.53266331658291,NA,NA
88001,Doa Ana County,NM,NA,NA,NA,78.2967032967033
88011,Doa Ana County,NM,NA,NA,NA,23.626373626373624
88101,Curry County,NM,7.142857142857142,NA,NA,NA
88201,Chaves County,NM,NA,71.65829145728642,NA,NA
88210,Eddy County,NM,65.25974025974025,NA,NA,NA
10002,New York County,NY,11.03896103896104,4.321608040201005,NA,13.186813186813188
10011,New York County,NY,NA,42.91457286432161,NA,NA
10025,New York County,NY,NA,NA,1.0186757215619695,NA
10030,New York County,NY,NA,25.92964824120603,NA,NA
10031,New York County,NY,66.23376623376623,NA,NA,NA
10032,New York County,NY,82.14285714285714,NA,NA,NA
10301,Richmond County,NY,NA,90.7537688442211,NA,NA
10310,Richmond County,NY,NA,52.56281407035176,NA,NA
10459,Bronx County,NY,NA,NA,9.67741935483871,22.802197802197803
10463,Bronx County,NY,NA,NA,NA,2.7472527472527473
10467,Bronx County,NY,NA,0.5025125628140703,NA,NA
10471,Bronx County,NY,NA,NA,NA,39.56043956043956
10473,Bronx County,NY,NA,5.326633165829145,NA,NA
10550,Westchester County,NY,NA,NA,NA,59.34065934065934
10562,Westchester County,NY,NA,NA,NA,38.73626373626374
10805,Westchester County,NY,NA,NA,NA,95.6043956043956
10901,Rockland County,NY,87.01298701298701,NA,NA,NA
10940,Orange County,NY,NA,NA,NA,17.032967032967033
11040,Nassau County,NY,NA,86.33165829145729,NA,NA
11207,Kings County,NY,NA,NA,NA,40.65934065934066
11214,Kings County,NY,NA,NA,12.224108658743633,NA
11218,Kings County,NY,NA,18.894472361809044,NA,6.043956043956044
11220,Kings County,NY,NA,NA,NA,82.96703296703298
11221,Kings County,NY,NA,3.1155778894472363,NA,NA
11229,Kings County,NY,NA,65.42713567839196,NA,NA
11235,Kings County,NY,NA,44.72361809045226,NA,NA
11356,Queens County,NY,NA,NA,82.68251273344653,NA
11365,Queens County,NY,69.15584415584416,NA,NA,NA
11385,Queens County,NY,NA,NA,11.884550084889643,NA
11428,Queens County,NY,NA,69.04522613065328,NA,NA
11434,Queens County,NY,NA,49.14572864321608,NA,NA
11435,Queens County,NY,NA,12.663316582914572,NA,NA
11572,Nassau County,NY,NA,90.05025125628141,NA,NA
11580,Nassau County,NY,NA,NA,57.215619694397276,NA
11691,Queens County,NY,NA,9.748743718592964,NA,NA
11722,Suffolk County,NY,NA,NA,85.90831918505943,NA
11901,Suffolk County,NY,NA,56.984924623115575,NA,NA
12180,Rensselaer County,NY,10.714285714285714,16.381909547738694,NA,NA
12182,Rensselaer County,NY,NA,55.27638190954774,NA,NA
12206,Albany County,NY,NA,23.316582914572866,NA,NA
12303,Schenectady County,NY,NA,NA,44.65195246179966,NA
12304,Schenectady County,NY,NA,68.24120603015076,NA,NA
12306,Schenectady County,NY,NA,36.381909547738694,NA,NA
12308,Schenectady County,NY,NA,42.41206030150754,NA,NA
12401,Ulster County,NY,NA,NA,49.23599320882852,NA
12428,Ulster County,NY,NA,NA,90.15280135823429,NA
12446,Ulster County,NY,NA,NA,75.21222410865875,NA
12533,Dutchess County,NY,NA,85.52763819095478,NA,NA
12538,Dutchess County,NY,NA,94.17085427135679,NA,NA
12572,Dutchess County,NY,NA,NA,91.51103565365025,NA
12801,Warren County,NY,NA,NA,NA,97.52747252747253
12804,Warren County,NY,NA,9.246231155778894,11.37521222410866,NA
12866,Saratoga County,NY,NA,NA,10.35653650254669,NA
13021,Cayuga County,NY,NA,3.618090452261306,NA,NA
13036,Oswego County,NY,84.0909090909091,NA,NA,NA
13041,Onondaga County,NY,NA,73.36683417085426,NA,NA
13069,Oswego County,NY,NA,NA,45.50084889643464,NA
13077,Cortland County,NY,NA,NA,69.60950764006792,NA
13126,Oswego County,NY,NA,4.0201005025125625,6.791171477079796,NA
13140,Cayuga County,NY,NA,85.82914572864323,NA,NA
13167,Oswego County,NY,NA,95.27638190954774,NA,NA
13207,Onondaga County,NY,NA,33.969849246231156,NA,NA
13208,Onondaga County,NY,NA,13.668341708542714,NA,NA
13210,Onondaga County,NY,97.07792207792207,NA,NA,NA
13323,Oneida County,NY,80.51948051948052,NA,NA,NA
13367,Lewis County,NY,NA,NA,65.19524617996605,NA
13408,Madison County,NY,NA,94.9748743718593,NA,NA
13452,Montgomery County,NY,88.63636363636364,NA,NA,NA
13480,Oneida County,NY,NA,91.25628140703517,NA,NA
13662,St. Lawrence County,NY,NA,8.84422110552764,NA,NA
13754,Broome County,NY,NA,91.05527638190955,NA,NA
13815,Chenango County,NY,NA,15.77889447236181,NA,NA
13820,Otsego County,NY,NA,11.256281407035177,NA,NA
13901,Broome County,NY,NA,4.221105527638191,NA,NA
13905,Broome County,NY,4.220779220779221,2.1105527638190953,NA,NA
14032,Erie County,NY,NA,87.93969849246231,NA,NA
14051,Erie County,NY,NA,46.231155778894475,NA,NA
14072,Erie County,NY,NA,NA,71.64685908319186,NA
14075,Erie County,NY,NA,9.64824120603015,NA,NA
14131,Niagara County,NY,NA,NA,71.98641765704585,NA
14206,Erie County,NY,NA,15.175879396984925,NA,NA
14207,Erie County,NY,NA,NA,34.125636672325975,NA
14208,Erie County,NY,NA,31.65829145728643,NA,NA
14212,Erie County,NY,55.519480519480524,NA,NA,NA
14215,Erie County,NY,NA,13.869346733668342,NA,NA
14217,Erie County,NY,59.74025974025974,NA,NA,NA
14220,Erie County,NY,12.662337662337661,NA,26.6553480475382,NA
14221,Erie County,NY,NA,NA,2.7164685908319184,NA
14223,Erie County,NY,NA,30.954773869346734,NA,NA
14224,Erie County,NY,NA,NA,NA,11.263736263736265
14304,Niagara County,NY,NA,26.13065326633166,3.7351443123938877,NA
14411,Orleans County,NY,48.37662337662338,NA,NA,NA
14424,Ontario County,NY,15.584415584415584,NA,NA,NA
14437,Livingston County,NY,49.35064935064935,48.743718592964825,47.368421052631575,NA
14450,Monroe County,NY,NA,NA,1.1884550084889642,NA
14468,Monroe County,NY,23.7012987012987,20,NA,NA
14470,Orleans County,NY,29.87012987012987,NA,NA,NA
14510,Livingston County,NY,NA,NA,75.21222410865875,NA
14513,Wayne County,NY,NA,5.92964824120603,NA,NA
14519,Wayne County,NY,NA,NA,27.843803056027166,NA
14522,Wayne County,NY,NA,NA,NA,89.28571428571429
14526,Monroe County,NY,NA,NA,15.789473684210526,NA
14580,Monroe County,NY,0.974025974025974,0.8040201005025126,NA,NA
14590,Wayne County,NY,NA,NA,96.9439728353141,NA
14611,Monroe County,NY,NA,7.738693467336684,NA,NA
14612,Monroe County,NY,NA,NA,1.697792869269949,NA
14616,Monroe County,NY,NA,3.5175879396984926,NA,NA
14617,Monroe County,NY,NA,7.3366834170854265,NA,NA
14621,Monroe County,NY,NA,0.6030150753768844,NA,NA
14626,Monroe County,NY,NA,NA,4.244482173174872,NA
14701,Chautauqua County,NY,NA,3.2160804020100504,NA,NA
14727,Allegany County,NY,NA,76.98492462311557,NA,NA
14810,Steuben County,NY,NA,35.27638190954774,NA,NA
14813,Allegany County,NY,NA,90.15075376884421,NA,NA
14837,Yates County,NY,NA,80.10050251256281,NA,NA
14838,Chemung County,NY,NA,99.2964824120603,NA,NA
14843,Steuben County,NY,NA,74.87437185929649,NA,NA
27103,Forsyth County,NC,NA,NA,41.25636672325976,NA
27106,Forsyth County,NC,NA,14.874371859296481,NA,NA
27214,Guilford County,NC,76.94805194805194,NA,NA,NA
27262,Guilford County,NC,41.23376623376623,NA,NA,NA
27284,Forsyth County,NC,NA,NA,NA,3.021978021978022
27320,Rockingham County,NC,NA,NA,NA,3.571428571428571
27360,Davidson County,NC,NA,NA,NA,10.714285714285714
27401,Guilford County,NC,NA,67.03517587939697,NA,NA
27520,Johnston County,NC,NA,35.77889447236181,NA,NA
27521,Harnett County,NC,NA,NA,NA,88.18681318681318
27522,Granville County,NC,NA,NA,74.36332767402376,NA
27530,Wayne County,NC,29.87012987012987,NA,NA,NA
27537,Vance County,NC,NA,39.89949748743719,NA,NA
27573,Person County,NC,NA,50.050251256281406,NA,NA
27591,Wake County,NC,NA,63.11557788944724,NA,NA
27610,Wake County,NC,NA,NA,6.112054329371817,NA
27704,Durham County,NC,7.792207792207792,NA,NA,NA
27705,Durham County,NC,NA,NA,13.073005093378608,NA
27713,Durham County,NC,NA,27.33668341708543,NA,NA
27801,Edgecombe County,NC,NA,43.618090452261306,NA,NA
27834,Pitt County,NC,NA,NA,16.468590831918505,NA
27896,Wilson County,NC,NA,57.58793969849246,NA,NA
28001,Stanly County,NC,NA,NA,43.463497453310694,NA
28043,Rutherford County,NC,NA,NA,42.61460101867572,NA
28097,Stanly County,NC,NA,NA,87.26655348047538,NA
28112,Union County,NC,56.81818181818182,51.45728643216081,NA,NA
28139,Rutherford County,NC,NA,NA,NA,53.84615384615385
28163,Stanly County,NC,NA,NA,NA,90.65934065934066
28170,Anson County,NC,NA,NA,NA,72.52747252747253
28205,Mecklenburg County,NC,NA,NA,27.33446519524618,NA
28206,Mecklenburg County,NC,NA,45.92964824120603,65.70458404074702,NA
28210,Mecklenburg County,NC,NA,NA,NA,29.120879120879124
28212,Mecklenburg County,NC,NA,27.939698492462313,NA,NA
28217,Mecklenburg County,NC,NA,57.68844221105528,NA,NA
28227,Mecklenburg County,NC,28.246753246753247,NA,NA,NA
28277,Mecklenburg County,NC,NA,46.53266331658292,NA,NA
28303,Cumberland County,NC,NA,61.105527638190956,NA,NA
28312,Cumberland County,NC,NA,69.24623115577889,NA,NA
28314,Cumberland County,NC,NA,33.768844221105525,NA,NA
28318,Sampson County,NC,NA,91.65829145728644,NA,NA
28334,Sampson County,NC,47.07792207792208,NA,NA,NA
28349,Duplin County,NC,NA,96.58291457286433,NA,NA
28357,Robeson County,NC,NA,99.69849246231156,NA,NA
28360,Robeson County,NC,NA,81.00502512562814,NA,NA
28398,Duplin County,NC,NA,NA,NA,93.95604395604396
28443,Pender County,NC,NA,NA,NA,69.23076923076923
28451,Brunswick County,NC,NA,NA,NA,42.30769230769231
28462,Brunswick County,NC,NA,61.70854271356784,NA,NA
28467,Brunswick County,NC,NA,NA,65.36502546689303,NA
28539,Onslow County,NC,NA,NA,NA,91.48351648351648
28602,Catawba County,NC,NA,24.92462311557789,NA,NA
28604,Watauga County,NC,NA,95.27638190954774,NA,NA
28605,Watauga County,NC,NA,92.46231155778895,NA,NA
28645,Caldwell County,NC,NA,4.1206030150753765,0.5093378607809848,NA
28655,Burke County,NC,NA,6.633165829145729,NA,NA
28678,Alexander County,NC,NA,NA,NA,89.83516483516483
28716,Haywood County,NC,NA,56.58291457286432,NA,NA
28719,Jackson County,NC,NA,51.356783919597994,NA,NA
28731,Henderson County,NC,NA,NA,53.98981324278438,NA
28739,Henderson County,NC,NA,NA,14.431239388794568,NA
28768,Transylvania County,NC,NA,NA,NA,92.58241758241759
28777,Mitchell County,NC,NA,85.32663316582915,NA,NA
28778,Buncombe County,NC,NA,89.74874371859296,NA,NA
58316,Rolette County,ND,NA,92.96482412060301,NA,NA
58504,Burleigh County,ND,NA,NA,34.80475382003396,NA
43055,Licking County,OH,6.1688311688311686,1.9095477386934674,NA,NA
43056,Licking County,OH,NA,NA,38.37011884550085,NA
43072,Champaign County,OH,NA,NA,95.92529711375212,NA
43081,Franklin County,OH,16.883116883116884,NA,NA,NA
43113,Pickaway County,OH,NA,NA,13.921901528013583,NA
43123,Franklin County,OH,NA,NA,37.521222410865875,NA
43135,Hocking County,OH,NA,96.88442211055276,NA,NA
43211,Franklin County,OH,NA,12.060301507537687,NA,NA
43227,Franklin County,OH,NA,NA,NA,36.81318681318682
43229,Franklin County,OH,0,NA,NA,18.40659340659341
43235,Franklin County,OH,NA,NA,NA,26.64835164835165
43302,Marion County,OH,NA,2.512562814070352,NA,NA
43334,Morrow County,OH,NA,NA,99.66044142614601,NA
43420,Sandusky County,OH,NA,11.85929648241206,NA,NA
43440,Ottawa County,OH,100,NA,NA,NA
43449,Ottawa County,OH,NA,73.96984924623115,NA,NA
43512,Defiance County,OH,NA,4.623115577889447,NA,NA
43528,Lucas County,OH,NA,44.120603015075375,NA,NA
43551,Wood County,OH,NA,NA,6.960950764006792,NA
43567,Fulton County,OH,NA,NA,NA,63.18681318681318
43607,Lucas County,OH,NA,29.447236180904525,NA,NA
43611,Lucas County,OH,NA,15.879396984924623,NA,NA
43612,Lucas County,OH,NA,5.125628140703518,NA,NA
43613,Lucas County,OH,47.4025974025974,NA,NA,NA
43615,Lucas County,OH,NA,22.110552763819097,NA,NA
43619,Wood County,OH,NA,70.65326633165829,NA,NA
43623,Lucas County,OH,NA,NA,NA,32.417582417582416
43718,Belmont County,OH,NA,NA,95.75551782682513,NA
43725,Guernsey County,OH,22.07792207792208,NA,NA,61.53846153846154
43793,Monroe County,OH,93.83116883116884,NA,NA,NA
43812,Coshocton County,OH,NA,49.246231155778894,NA,NA
43953,Jefferson County,OH,NA,NA,NA,70.6043956043956
44001,Lorain County,OH,NA,NA,3.904923599320883,NA
44003,Ashtabula County,OH,NA,89.54773869346734,NA,NA
44004,Ashtabula County,OH,NA,NA,2.886247877758913,NA
44011,Lorain County,OH,NA,NA,NA,9.89010989010989
44035,Lorain County,OH,NA,2.9145728643216082,0,0
44047,Ashtabula County,OH,NA,NA,57.045840407470294,NA
44052,Lorain County,OH,NA,18.391959798994975,NA,NA
44057,Lake County,OH,46.75324675324675,66.73366834170854,NA,NA
44060,Lake County,OH,NA,NA,0.6791171477079796,NA
44092,Lake County,OH,NA,48.24120603015075,NA,NA
44094,Lake County,OH,NA,21.708542713567837,4.753820033955857,NA
44095,Lake County,OH,NA,NA,NA,4.670329670329671
44102,Cuyahoga County,OH,NA,0.3015075376884422,NA,NA
44104,Cuyahoga County,OH,NA,4.723618090452261,NA,NA
44105,Cuyahoga County,OH,NA,0.7035175879396985,0.3395585738539898,NA
44106,Cuyahoga County,OH,NA,40.50251256281407,NA,NA
44107,Cuyahoga County,OH,NA,2.3115577889447234,3.0560271646859083,NA
44109,Cuyahoga County,OH,NA,13.969849246231156,NA,NA
44111,Cuyahoga County,OH,1.948051948051948,1.6080402010050252,2.5466893039049237,NA
44119,Cuyahoga County,OH,NA,NA,77.75891341256367,NA
44122,Cuyahoga County,OH,NA,NA,NA,0.27472527472527475
44124,Cuyahoga County,OH,NA,27.738693467336685,NA,NA
44130,Cuyahoga County,OH,5.844155844155844,25.728643216080403,NA,0.8241758241758242
44132,Cuyahoga County,OH,NA,27.035175879396984,NA,NA
44134,Cuyahoga County,OH,NA,NA,19.69439728353141,NA
44135,Cuyahoga County,OH,NA,3.4170854271356785,NA,NA
44142,Cuyahoga County,OH,NA,NA,NA,16.208791208791208
44144,Cuyahoga County,OH,NA,NA,NA,44.230769230769226
44145,Cuyahoga County,OH,NA,NA,5.093378607809847,NA
44149,Cuyahoga County,OH,NA,48.24120603015075,NA,NA
44221,Summit County,OH,NA,NA,19.015280135823428,NA
44224,Summit County,OH,NA,24.824120603015075,NA,NA
44240,Portage County,OH,NA,30.452261306532662,NA,NA
44255,Portage County,OH,NA,76.58291457286433,NA,69.5054945054945
44273,Medina County,OH,82.79220779220779,NA,NA,NA
44301,Summit County,OH,NA,NA,56.536502546689306,NA
44306,Summit County,OH,NA,10.954773869346733,NA,NA
44307,Summit County,OH,NA,NA,NA,84.34065934065934
44314,Summit County,OH,10.064935064935066,NA,76.91001697792869,NA
44403,Trumbull County,OH,NA,88.04020100502512,NA,NA
44410,Trumbull County,OH,NA,NA,26.31578947368421,NA
44444,Trumbull County,OH,NA,58.69346733668341,NA,NA
44445,Columbiana County,OH,NA,97.8894472361809,NA,NA
44446,Trumbull County,OH,NA,15.276381909547739,NA,NA
44460,Columbiana County,OH,NA,NA,8.488964346349745,NA
44484,Trumbull County,OH,NA,NA,NA,16.483516483516482
44601,Stark County,OH,NA,8.140703517587939,NA,NA
44702,Stark County,OH,NA,86.93467336683418,NA,NA
44705,Stark County,OH,NA,NA,38.37011884550085,NA
44706,Stark County,OH,NA,36.88442211055276,NA,NA
44709,Stark County,OH,20.77922077922078,44.62311557788945,NA,NA
44718,Stark County,OH,63.31168831168831,NA,NA,NA
44805,Ashland County,OH,NA,NA,NA,3.8461538461538463
44814,Erie County,OH,NA,NA,96.43463497453311,NA
44830,Seneca County,OH,NA,19.899497487437188,NA,NA
44870,Erie County,OH,1.6233766233766231,NA,NA,5.4945054945054945
44883,Seneca County,OH,NA,20.301507537688444,NA,NA
44903,Richland County,OH,NA,21.00502512562814,NA,NA
45005,Warren County,OH,NA,NA,18.505942275042443,NA
45013,Butler County,OH,NA,21.20603015075377,NA,NA
45014,Butler County,OH,NA,16.683417085427134,74.70288624787777,NA
45015,Butler County,OH,NA,60.30150753768844,NA,NA
45040,Warren County,OH,NA,35.07537688442211,NA,NA
45106,Clermont County,OH,NA,55.47738693467337,NA,NA
45133,Highland County,OH,NA,23.919597989949747,NA,NA
45140,Clermont County,OH,13.311688311688311,NA,NA,NA
45169,Clinton County,OH,85.71428571428571,NA,NA,NA
45176,Clermont County,OH,NA,70.35175879396985,NA,NA
45207,Hamilton County,OH,NA,84.72361809045226,NA,NA
45209,Hamilton County,OH,NA,92.76381909547739,NA,NA
45211,Hamilton County,OH,NA,10.150753768844222,NA,NA
45216,Hamilton County,OH,50.324675324675326,62.8140703517588,NA,NA
45223,Hamilton County,OH,NA,47.93969849246231,NA,NA
45229,Hamilton County,OH,NA,32.663316582914575,NA,NA
45231,Hamilton County,OH,NA,8.944723618090453,20.203735144312393,NA
45236,Hamilton County,OH,NA,59.497487437185924,NA,NA
45237,Hamilton County,OH,NA,31.758793969849247,NA,NA
45238,Hamilton County,OH,7.467532467532467,NA,NA,NA
45239,Hamilton County,OH,71.75324675324676,NA,34.29541595925297,NA
45244,Hamilton County,OH,NA,57.8894472361809,NA,NA
45245,Clermont County,OH,NA,67.33668341708542,NA,NA
45247,Hamilton County,OH,NA,NA,NA,24.725274725274726
45324,Greene County,OH,11.688311688311687,NA,NA,NA
45327,Montgomery County,OH,NA,NA,78.94736842105263,NA
45383,Miami County,OH,89.6103896103896,NA,NA,NA
45402,Montgomery County,OH,NA,61.005025125628144,NA,NA
45417,Montgomery County,OH,NA,9.447236180904522,NA,NA
45426,Montgomery County,OH,NA,NA,38.030560271646856,NA
45430,Greene County,OH,NA,91.356783919598,NA,NA
45503,Clark County,OH,NA,NA,13.752122241086587,NA
45638,Lawrence County,OH,NA,5.427135678391959,NA,NA
45640,Jackson County,OH,NA,NA,33.106960950764005,NA
45663,Scioto County,OH,75.32467532467533,NA,62.98811544991511,NA
45692,Jackson County,OH,NA,NA,NA,65.38461538461539
45694,Scioto County,OH,44.8051948051948,NA,NA,NA
45764,Athens County,OH,NA,72.66331658291458,NA,NA
45801,Allen County,OH,20.454545454545457,12.964824120603016,23.769100169779286,NA
45804,Allen County,OH,NA,13.06532663316583,NA,NA
45806,Allen County,OH,74.35064935064936,NA,NA,NA
45813,Paulding County,OH,NA,89.14572864321609,NA,NA
45817,Allen County,OH,NA,NA,NA,82.41758241758241
45822,Mercer County,OH,NA,73.16582914572865,NA,18.956043956043956
73010,McClain County,OK,77.92207792207793,NA,NA,NA
73013,Oklahoma County,OK,NA,NA,9.847198641765704,NA
73071,Cleveland County,OK,NA,26.834170854271356,15.619694397283531,NA
73089,Grady County,OK,NA,NA,NA,98.9010989010989
73107,Oklahoma County,OK,21.753246753246753,NA,NA,NA
73122,Oklahoma County,OK,NA,NA,76.7402376910017,NA
73130,Oklahoma County,OK,NA,NA,78.09847198641766,NA
73132,Oklahoma County,OK,NA,NA,NA,71.7032967032967
73139,Oklahoma County,OK,NA,NA,NA,59.065934065934066
73159,Oklahoma County,OK,55.519480519480524,NA,NA,NA
73448,Love County,OK,90.25974025974025,NA,NA,NA
73505,Comanche County,OK,NA,NA,17.826825127334462,NA
73507,Comanche County,OK,NA,50.55276381909548,NA,NA
73701,Garfield County,OK,NA,NA,33.61629881154499,NA
73703,Garfield County,OK,NA,NA,18.845500848896435,NA
73942,Texas County,OK,NA,NA,94.90662139219015,NA
74008,Tulsa County,OK,57.14285714285714,NA,NA,NA
74012,Tulsa County,OK,NA,27.63819095477387,NA,NA
74014,Wagoner County,OK,NA,NA,24.78777589134126,NA
74055,Tulsa County,OK,NA,NA,28.69269949066214,NA
74128,Tulsa County,OK,NA,79.49748743718594,83.1918505942275,NA
74365,Mayes County,OK,94.48051948051948,NA,NA,NA
74464,Cherokee County,OK,NA,9.849246231155778,NA,NA
74804,Pottawatomie County,OK,79.54545454545455,NA,NA,NA
74859,Okfuskee County,OK,NA,NA,NA,87.36263736263736
74868,Seminole County,OK,NA,73.5678391959799,NA,NA
74902,Le Flore County,OK,95.77922077922078,NA,NA,NA
97009,Clackamas County,OR,NA,96.18090452261306,NA,NA
97024,Multnomah County,OR,NA,NA,70.79796264855688,NA
97034,Clackamas County,OR,NA,NA,61.96943972835314,35.16483516483517
97045,Clackamas County,OR,NA,NA,NA,13.461538461538462
97089,Clackamas County,OR,NA,84.82412060301507,NA,NA
97123,Washington County,OR,NA,23.71859296482412,NA,NA
97209,Multnomah County,OR,NA,NA,62.81833616298812,NA
97211,Multnomah County,OR,53.57142857142857,NA,NA,NA
97212,Multnomah County,OR,87.98701298701299,NA,NA,NA
97215,Multnomah County,OR,NA,NA,73.1748726655348,NA
97218,Multnomah County,OR,NA,76.28140703517587,NA,NA
97219,Multnomah County,OR,NA,NA,NA,55.769230769230774
97220,Multnomah County,OR,NA,39.597989949748744,NA,NA
97224,Washington County,OR,NA,NA,37.011884550084886,NA
97232,Multnomah County,OR,NA,94.47236180904522,NA,NA
97303,Marion County,OR,NA,46.33165829145728,NA,NA
97322,Linn County,OR,NA,15.477386934673367,NA,NA
97338,Polk County,OR,NA,52.26130653266332,NA,NA
97411,Coos County,OR,NA,84.42211055276381,NA,NA
97462,Douglas County,OR,NA,93.96984924623115,NA,NA
97471,Douglas County,OR,NA,19.698492462311556,NA,NA
97479,Douglas County,OR,NA,75.07537688442211,NA,NA
97504,Jackson County,OR,NA,59.698492462311556,NA,NA
97520,Jackson County,OR,NA,84.62311557788945,NA,29.395604395604398
97527,Josephine County,OR,NA,49.64824120603015,NA,NA
97532,Josephine County,OR,NA,NA,94.73684210526315,NA
97601,Klamath County,OR,NA,19.798994974874372,NA,NA
97754,Crook County,OR,NA,78.99497487437186,NA,NA
97838,Umatilla County,OR,NA,19.597989949748744,NA,NA
97862,Umatilla County,OR,70.45454545454545,NA,NA,NA
15003,Beaver County,PA,NA,NA,NA,67.58241758241759
15010,Beaver County,PA,37.98701298701299,NA,NA,NA
15017,Allegheny County,PA,NA,73.66834170854271,NA,NA
15025,Allegheny County,PA,NA,NA,50.25466893039049,NA
15037,Allegheny County,PA,NA,85.42713567839196,NA,NA
15061,Beaver County,PA,NA,NA,NA,57.96703296703297
15065,Allegheny County,PA,NA,NA,66.893039049236,NA
15068,Westmoreland County,PA,NA,NA,10.865874363327674,4.1208791208791204
15085,Westmoreland County,PA,NA,NA,89.64346349745331,NA
15132,Allegheny County,PA,NA,13.165829145728644,NA,NA
15133,Allegheny County,PA,NA,90.65326633165829,NA,NA
15202,Allegheny County,PA,NA,58.19095477386935,NA,NA
15213,Allegheny County,PA,NA,74.47236180904522,NA,NA
15320,Greene County,PA,NA,NA,84.55008488964346,NA
15332,Washington County,PA,NA,NA,77.41935483870968,NA
15401,Fayette County,PA,16.558441558441558,NA,NA,NA
15701,Indiana County,PA,NA,24.522613065326635,NA,NA
15851,Jefferson County,PA,NA,NA,NA,85.43956043956044
15857,Elk County,PA,NA,64.22110552763819,NA,37.637362637362635
16105,Lawrence County,PA,NA,63.81909547738693,NA,NA
16137,Mercer County,PA,NA,94.57286432160804,69.60950764006792,NA
16428,Erie County,PA,NA,NA,90.83191850594228,NA
16507,Erie County,PA,NA,NA,94.05772495755518,NA
16509,Erie County,PA,NA,NA,NA,60.71428571428571
16601,Blair County,PA,NA,10.452261306532664,NA,NA
16701,McKean County,PA,NA,54.67336683417086,NA,NA
16823,Centre County,PA,NA,24.623115577889447,NA,NA
16830,Clearfield County,PA,NA,NA,29.8811544991511,NA
17011,Cumberland County,PA,NA,NA,NA,13.736263736263737
17015,Cumberland County,PA,NA,NA,NA,34.065934065934066
17044,Mifflin County,PA,NA,14.37185929648241,NA,NA
17046,Lebanon County,PA,NA,10.65326633165829,NA,NA
17074,Perry County,PA,91.23376623376623,NA,NA,NA
17084,Mifflin County,PA,NA,NA,89.30390492359932,NA
17331,York County,PA,NA,NA,1.3582342954159592,NA
17403,York County,PA,15.909090909090908,19.497487437185928,NA,NA
17512,Lancaster County,PA,NA,NA,45.840407470288625,NA
17522,Lancaster County,PA,NA,NA,12.563667232597622,NA
17552,Lancaster County,PA,NA,43.21608040201005,NA,NA
17701,Lycoming County,PA,NA,NA,NA,31.868131868131865
17740,Lycoming County,PA,NA,57.38693467336683,NA,NA
17745,Clinton County,PA,NA,NA,49.57555178268252,NA
17801,Northumberland County,PA,NA,NA,NA,32.142857142857146
17815,Columbia County,PA,NA,18.693467336683415,NA,NA
17821,Montour County,PA,NA,28.14070351758794,NA,NA
17851,Northumberland County,PA,NA,NA,54.159592529711375,NA
17857,Northumberland County,PA,NA,NA,NA,63.46153846153846
17866,Northumberland County,PA,NA,67.8391959798995,NA,NA
17872,Northumberland County,PA,NA,45.02512562814071,NA,NA
17972,Schuylkill County,PA,NA,67.53768844221105,NA,NA
18013,Northampton County,PA,NA,NA,44.821731748726656,NA
18037,Lehigh County,PA,NA,78.5929648241206,NA,NA
18040,Northampton County,PA,NA,NA,NA,41.75824175824176
18042,Northampton County,PA,NA,6.532663316582915,NA,NA
18052,Lehigh County,PA,21.428571428571427,NA,NA,19.78021978021978
18062,Lehigh County,PA,NA,50.050251256281406,NA,NA
18088,Northampton County,PA,NA,NA,NA,56.31868131868132
18201,Luzerne County,PA,NA,22.412060301507537,NA,NA
18235,Carbon County,PA,NA,34.77386934673367,NA,NA
18324,Pike County,PA,NA,76.68341708542712,NA,NA
18330,Monroe County,PA,NA,NA,NA,92.03296703296702
18504,Lackawanna County,PA,NA,NA,46.859083191850594,NA
18634,Luzerne County,PA,NA,NA,46.5195246179966,NA
18702,Luzerne County,PA,21.1038961038961,NA,NA,NA
18938,Bucks County,PA,NA,NA,NA,57.417582417582416
19013,Delaware County,PA,NA,NA,14.94057724957555,NA
19061,Delaware County,PA,NA,31.55778894472362,NA,NA
19067,Bucks County,PA,NA,21.30653266331658,NA,NA
19090,Montgomery County,PA,NA,NA,49.9151103565365,NA
19094,Delaware County,PA,NA,NA,94.22750424448218,NA
19095,Montgomery County,PA,NA,NA,80.1358234295416,NA
19111,Philadelphia County,PA,NA,3.919597989949749,NA,NA
19116,Philadelphia County,PA,NA,31.055276381909547,15.449915110356535,NA
19118,Philadelphia County,PA,NA,NA,76.06112054329371,NA
19132,Philadelphia County,PA,NA,6.934673366834171,NA,NA
19134,Philadelphia County,PA,NA,NA,15.280135823429541,NA
19136,Philadelphia County,PA,NA,12.864321608040202,NA,NA
19140,Philadelphia County,PA,NA,35.175879396984925,NA,NA
19143,Philadelphia County,PA,NA,1.306532663316583,NA,NA
19148,Philadelphia County,PA,NA,NA,14.770797962648558,NA
19150,Philadelphia County,PA,NA,35.47738693467337,NA,NA
19464,Montgomery County,PA,NA,6.231155778894473,NA,NA
19473,Montgomery County,PA,NA,NA,75.04244482173175,NA
19605,Berks County,PA,NA,NA,NA,22.52747252747253
19606,Berks County,PA,NA,NA,5.263157894736842,NA
19608,Berks County,PA,32.467532467532465,NA,NA,NA
02809,Bristol County,RI,NA,NA,33.446519524618,NA
02818,Kent County,RI,NA,NA,46.6893039049236,NA
02840,Newport County,RI,NA,NA,NA,53.02197802197802
02859,Providence County,RI,NA,93.46733668341709,NA,NA
02864,Providence County,RI,NA,NA,17.996604414261462,NA
02882,Washington County,RI,NA,89.84924623115577,NA,NA
02911,Providence County,RI,NA,NA,NA,64.01098901098901
02914,Providence County,RI,NA,NA,44.821731748726656,NA
02917,Providence County,RI,NA,NA,77.58913412563668,NA
02919,Providence County,RI,NA,NA,29.541595925297116,NA
02920,Providence County,RI,NA,NA,17.487266553480477,NA
29067,Lancaster County,SC,NA,88.74371859296483,NA,NA
29102,Clarendon County,SC,NA,NA,58.57385398981324,NA
29115,Orangeburg County,SC,NA,NA,32.76740237691001,NA
29172,Lexington County,SC,NA,99.39698492462311,NA,90.93406593406593
29180,Fairfield County,SC,NA,81.4070351758794,NA,NA
29203,Richland County,SC,NA,12.261306532663317,NA,NA
29303,Spartanburg County,SC,64.28571428571429,NA,NA,NA
29330,Spartanburg County,SC,NA,84.12060301507537,NA,NA
29349,Spartanburg County,SC,NA,28.442211055276385,NA,NA
29379,Union County,SC,NA,36.78391959798995,NA,NA
29414,Charleston County,SC,NA,NA,NA,30.76923076923077
29429,Charleston County,SC,95.12987012987013,NA,NA,NA
29483,Dorchester County,SC,NA,NA,NA,53.57142857142857
29501,Florence County,SC,24.675324675324674,NA,NA,NA
29526,Horry County,SC,NA,73.26633165829146,NA,NA
29532,Darlington County,SC,NA,NA,80.3056027164686,NA
29554,Williamsburg County,SC,NA,NA,86.41765704584041,NA
29568,Horry County,SC,82.46753246753246,NA,64.17657045840407,NA
29569,Horry County,SC,NA,NA,NA,70.05494505494505
29576,Horry County,SC,NA,NA,12.903225806451612,NA
29611,Greenville County,SC,NA,14.773869346733667,NA,NA
29626,Anderson County,SC,60.3896103896104,NA,NA,NA
29627,Anderson County,SC,NA,NA,NA,59.89010989010989
29650,Greenville County,SC,NA,42.211055276381906,NA,NA
29680,Greenville County,SC,NA,51.85929648241206,NA,NA
29681,Greenville County,SC,NA,NA,52.97113752122241,NA
29687,Greenville County,SC,NA,34.472361809045225,NA,NA
29710,York County,SC,NA,NA,53.140916808149406,NA
29720,Lancaster County,SC,NA,16.884422110552762,NA,NA
29803,Aiken County,SC,NA,77.28643216080403,NA,NA
29810,Allendale County,SC,NA,NA,NA,87.91208791208791
29856,Aiken County,SC,NA,99.09547738693468,NA,NA
29902,Beaufort County,SC,NA,79.69849246231155,NA,NA
57106,Minnehaha County,SD,NA,NA,33.95585738539898,NA
57108,Lincoln County,SD,NA,NA,21.561969439728355,NA
57380,Charles Mix County,SD,NA,97.98994974874373,NA,NA
57501,Hughes County,SD,NA,NA,NA,27.472527472527474
57701,Pennington County,SD,NA,21.909547738693465,NA,NA
57719,Pennington County,SD,87.98701298701299,NA,NA,NA
57783,Lawrence County,SD,NA,94.87437185929647,NA,NA
37055,Dickson County,TN,NA,27.236180904522612,46.17996604414261,NA
37072,Davidson County,TN,NA,34.17085427135678,NA,NA
37110,Warren County,TN,NA,53.06532663316583,NA,NA
37115,Davidson County,TN,NA,13.266331658291458,NA,NA
37135,Williamson County,TN,NA,NA,99.49066213921901,NA
37172,Robertson County,TN,NA,17.28643216080402,NA,NA
37208,Davidson County,TN,59.09090909090909,NA,NA,NA
37209,Davidson County,TN,74.02597402597402,NA,NA,NA
37216,Davidson County,TN,NA,NA,85.22920203735144,NA
37307,Polk County,TN,NA,NA,94.39728353140917,NA
37312,Bradley County,TN,52.922077922077925,NA,NA,NA
37323,Bradley County,TN,NA,NA,55.34804753820034,NA
37336,Bradley County,TN,99.02597402597402,NA,NA,NA
37377,Hamilton County,TN,NA,87.03517587939699,NA,NA
37380,Marion County,TN,NA,NA,92.35993208828522,NA
37388,Coffee County,TN,NA,NA,46.01018675721562,NA
37406,Hamilton County,TN,39.285714285714285,NA,NA,NA
37411,Hamilton County,TN,NA,42.51256281407036,NA,NA
37415,Hamilton County,TN,NA,63.517587939698494,NA,NA
37615,Washington County,TN,NA,64.42211055276383,NA,NA
37660,Sullivan County,TN,NA,9.346733668341708,NA,NA
37709,Grainger County,TN,97.72727272727273,NA,NA,NA
37711,Hawkins County,TN,NA,NA,83.5314091680815,NA
37743,Greene County,TN,NA,NA,4.584040747028863,NA
37745,Greene County,TN,NA,28.84422110552764,23.599320882852293,NA
37760,Jefferson County,TN,NA,NA,NA,74.17582417582418
37763,Roane County,TN,NA,NA,44.48217317487266,NA
37801,Blount County,TN,NA,16.984924623115578,NA,NA
37803,Blount County,TN,NA,36.482412060301506,NA,NA
37821,Cocke County,TN,NA,NA,NA,35.989010989010985
37849,Knox County,TN,NA,NA,NA,47.8021978021978
37915,Knox County,TN,NA,98.09045226130654,NA,NA
37917,Knox County,TN,34.74025974025974,NA,23.429541595925297,NA
37920,Knox County,TN,33.116883116883116,NA,NA,NA
37931,Knox County,TN,NA,NA,61.460101867572156,NA
38002,Shelby County,TN,NA,72.06030150753769,NA,NA
38063,Lauderdale County,TN,NA,NA,86.75721561969439,NA
38068,Fayette County,TN,37.01298701298701,NA,NA,NA
38107,Shelby County,TN,NA,NA,62.30899830220713,NA
38114,Shelby County,TN,NA,25.829145728643216,NA,NA
38115,Shelby County,TN,NA,26.532663316582916,NA,NA
38116,Shelby County,TN,NA,21.105527638190953,NA,NA
38125,Shelby County,TN,NA,60.10050251256281,NA,NA
38127,Shelby County,TN,NA,10.35175879396985,NA,NA
38221,Benton County,TN,NA,NA,NA,83.51648351648352
38257,Obion County,TN,NA,NA,NA,84.89010989010988
38343,Gibson County,TN,NA,52.76381909547738,NA,NA
38449,Giles County,TN,NA,NA,97.79286926994907,NA
38570,Overton County,TN,NA,72.8643216080402,NA,NA
38571,Cumberland County,TN,NA,60.80402010050251,NA,NA
75002,Collin County,TX,NA,25.42713567839196,NA,NA
75010,Denton County,TX,NA,NA,NA,77.1978021978022
75013,Collin County,TX,60.71428571428571,54.67336683417086,NA,NA
75032,Rockwall County,TX,NA,NA,NA,85.71428571428571
75035,Collin County,TX,NA,NA,53.4804753820034,NA
75043,Dallas County,TX,NA,22.91457286432161,NA,NA
75052,Dallas County,TX,NA,71.55778894472363,NA,NA
75071,Collin County,TX,NA,NA,68.93039049235993,NA
75075,Collin County,TX,45.12987012987013,NA,NA,NA
75080,Dallas County,TX,NA,NA,NA,15.934065934065933
75115,Dallas County,TX,NA,61.50753768844221,NA,NA
75154,Ellis County,TX,NA,NA,44.14261460101868,NA
75156,Henderson County,TX,NA,NA,NA,61.81318681318682
75159,Dallas County,TX,75.97402597402598,NA,NA,NA
75180,Dallas County,TX,53.896103896103895,NA,NA,NA
75204,Dallas County,TX,NA,66.23115577889448,NA,NA
75216,Dallas County,TX,NA,NA,9.507640067911714,NA
75228,Dallas County,TX,NA,7.4371859296482405,NA,NA
75230,Dallas County,TX,NA,NA,NA,50.824175824175825
75232,Dallas County,TX,41.23376623376623,NA,NA,NA
75241,Dallas County,TX,NA,26.030150753768844,34.29541595925297,NA
75418,Fannin County,TX,NA,69.44723618090453,NA,NA
75460,Lamar County,TX,NA,NA,71.81663837011885,NA
75462,Lamar County,TX,NA,NA,92.69949066213921,95.87912087912088
75605,Gregg County,TX,NA,59.19597989949749,NA,NA
75639,Panola County,TX,97.40259740259741,NA,NA,NA
75647,Gregg County,TX,NA,67.93969849246231,NA,NA
75662,Gregg County,TX,NA,59.798994974874375,NA,NA
75771,Smith County,TX,NA,NA,29.37181663837012,NA
75839,Anderson County,TX,NA,NA,NA,83.51648351648352
75904,Angelina County,TX,NA,37.78894472361809,95.58573853989813,NA
76010,Tarrant County,TX,NA,NA,58.74363327674024,NA
76017,Tarrant County,TX,NA,34.67336683417086,NA,NA
76028,Johnson County,TX,NA,NA,4.4142614601018675,NA
76104,Tarrant County,TX,NA,NA,63.83701188455009,NA
76107,Tarrant County,TX,NA,46.733668341708544,NA,NA
76112,Tarrant County,TX,NA,15.678391959798995,NA,NA
76114,Tarrant County,TX,NA,NA,NA,89.56043956043956
76115,Tarrant County,TX,NA,NA,72.49575551782682,NA
76209,Denton County,TX,NA,81.80904522613065,NA,NA
76308,Wichita County,TX,80.51948051948052,NA,NA,NA
76502,Bell County,TX,NA,17.185929648241206,NA,NA
76504,Bell County,TX,11.363636363636363,NA,NA,NA
76522,Coryell County,TX,NA,NA,NA,99.17582417582418
76528,Coryell County,TX,40.25974025974026,NA,NA,NA
76543,Bell County,TX,NA,NA,21.052631578947366,NA
76655,McLennan County,TX,NA,NA,NA,81.86813186813187
76801,Brown County,TX,40.909090909090914,NA,49.745331069609506,NA
77004,Harris County,TX,NA,30.753768844221106,NA,NA
77016,Harris County,TX,NA,46.934673366834176,NA,NA
77022,Harris County,TX,NA,61.30653266331658,NA,NA
77024,Harris County,TX,50,NA,NA,NA
77029,Harris County,TX,NA,NA,70.79796264855688,NA
77041,Harris County,TX,54.54545454545454,NA,NA,NA
77044,Harris County,TX,26.623376623376622,NA,NA,NA
77061,Harris County,TX,NA,NA,91.85059422750425,NA
77082,Harris County,TX,NA,55.778894472361806,NA,NA
77083,Harris County,TX,NA,NA,NA,96.15384615384616
77088,Harris County,TX,NA,32.8643216080402,NA,NA
77090,Harris County,TX,NA,NA,98.64176570458405,NA
77302,Montgomery County,TX,NA,73.46733668341709,NA,NA
77316,Montgomery County,TX,58.76623376623377,NA,NA,NA
77338,Harris County,TX,NA,NA,61.29032258064516,NA
77351,Polk County,TX,NA,NA,96.09507640067912,NA
77357,Montgomery County,TX,56.16883116883117,NA,NA,NA
77373,Harris County,TX,NA,31.85929648241206,NA,NA
77375,Harris County,TX,NA,25.326633165829143,NA,NA
77388,Harris County,TX,NA,50.050251256281406,NA,NA
77429,Harris County,TX,NA,13.366834170854272,NA,NA
77449,Harris County,TX,NA,12.462311557788945,NA,NA
77450,Harris County,TX,NA,41.90954773869347,NA,NA
77459,Fort Bend County,TX,NA,NA,47.70797962648557,NA
77478,Fort Bend County,TX,NA,NA,NA,51.098901098901095
77494,Fort Bend County,TX,NA,86.63316582914572,NA,NA
77511,Brazoria County,TX,NA,NA,14.091680814940577,NA
77539,Galveston County,TX,50.324675324675326,NA,NA,NA
77563,Galveston County,TX,73.05194805194806,NA,NA,NA
77584,Brazoria County,TX,NA,11.758793969849247,NA,NA
77611,Orange County,TX,NA,79.79899497487438,NA,NA
77619,Jefferson County,TX,NA,NA,NA,79.12087912087912
77632,Orange County,TX,NA,58.09045226130654,NA,NA
77705,Jefferson County,TX,NA,NA,91.34125636672326,NA
77706,Jefferson County,TX,NA,NA,34.63497453310696,NA
77840,Brazos County,TX,NA,NA,NA,75
77845,Brazos County,TX,NA,11.457286432160805,NA,NA
77995,Lavaca County,TX,NA,NA,75.89134125636672,NA
78043,Webb County,TX,9.090909090909092,NA,NA,NA
78063,Bandera County,TX,NA,90.95477386934674,NA,NA
78064,Atascosa County,TX,NA,79.89949748743719,NA,NA
78070,Comal County,TX,NA,93.16582914572864,NA,NA
78132,Comal County,TX,62.66233766233766,NA,NA,NA
78218,Bexar County,TX,NA,NA,NA,96.7032967032967
78223,Bexar County,TX,NA,22.21105527638191,NA,NA
78237,Bexar County,TX,NA,68.14070351758794,NA,NA
78244,Bexar County,TX,NA,66.03015075376885,NA,NA
78260,Bexar County,TX,NA,NA,84.55008488964346,NA
78363,Kleberg County,TX,NA,63.517587939698494,NA,NA
78418,Nueces County,TX,60.71428571428571,NA,NA,NA
78520,Cameron County,TX,27.27272727272727,NA,NA,NA
78541,Hidalgo County,TX,NA,56.48241206030151,NA,NA
78573,Hidalgo County,TX,NA,60.7035175879397,NA,NA
78582,Starr County,TX,NA,NA,44.821731748726656,NA
78613,Williamson County,TX,NA,70.55276381909547,NA,NA
78628,Williamson County,TX,55.1948051948052,NA,NA,NA
78639,Llano County,TX,NA,NA,NA,99.72527472527473
78660,Travis County,TX,NA,29.748743718592962,NA,55.219780219780226
78666,Hays County,TX,NA,NA,37.86078098471987,NA
78723,Travis County,TX,NA,66.13065326633166,NA,NA
78729,Williamson County,TX,NA,NA,97.62308998302207,NA
78840,Val Verde County,TX,NA,NA,19.524617996604416,NA
79110,Randall County,TX,NA,70.0502512562814,NA,NA
79407,Lubbock County,TX,NA,NA,85.39898132427844,NA
79413,Lubbock County,TX,NA,71.85929648241206,NA,NA
79414,Lubbock County,TX,NA,79.09547738693468,NA,NA
79510,Callahan County,TX,NA,NA,NA,84.61538461538461
79556,Nolan County,TX,NA,NA,NA,54.12087912087912
79603,Taylor County,TX,51.94805194805194,32.96482412060301,NA,NA
79762,Ector County,TX,NA,31.155778894472363,NA,NA
79763,Ector County,TX,17.532467532467532,NA,NA,NA
79765,Ector County,TX,NA,73.66834170854271,NA,NA
79772,Reeves County,TX,NA,81.20603015075378,NA,NA
79902,El Paso County,TX,NA,NA,NA,80.76923076923077
79904,El Paso County,TX,NA,NA,60.95076400679117,NA
79936,El Paso County,TX,NA,NA,20.37351443123939,NA
84040,Davis County,UT,NA,79.2964824120603,NA,NA
84041,Davis County,UT,NA,40.60301507537689,NA,NA
84043,Utah County,UT,NA,49.447236180904525,NA,NA
84057,Utah County,UT,NA,89.64824120603015,NA,NA
84067,Weber County,UT,NA,NA,61.79966044142614,NA
84074,Tooele County,UT,NA,NA,NA,25.82417582417583
84078,Uintah County,UT,NA,18.291457286432163,NA,NA
84094,Salt Lake County,UT,NA,NA,51.273344651952456,NA
84095,Salt Lake County,UT,NA,44.321608040201006,NA,NA
84096,Salt Lake County,UT,NA,30.251256281407034,NA,NA
84104,Salt Lake County,UT,50.324675324675326,NA,NA,NA
84108,Salt Lake County,UT,NA,NA,57.38539898132428,NA
84119,Salt Lake County,UT,NA,NA,NA,92.85714285714286
84120,Salt Lake County,UT,41.23376623376623,8.743718592964825,NA,NA
84123,Salt Lake County,UT,NA,25.025125628140703,NA,NA
84129,,UT,NA,32.562814070351756,NA,NA
05250,Bennington County,VT,NA,NA,93.54838709677419,NA
05301,Windham County,VT,NA,66.83417085427136,NA,NA
05488,Franklin County,VT,NA,NA,NA,77.47252747252747
05491,Addison County,VT,84.4155844155844,NA,NA,NA
05676,Washington County,VT,NA,NA,90.49235993208828,NA
05733,Rutland County,VT,NA,NA,73.3446519524618,NA
20110,Manassas city,VA,NA,39.19597989949749,NA,51.098901098901095
20152,Loudoun County,VA,NA,80.20100502512562,NA,NA
20155,Prince William County,VA,NA,65.22613065326634,NA,NA
20171,Fairfax County,VA,NA,57.185929648241206,NA,NA
22003,Fairfax County,VA,NA,33.46733668341709,NA,NA
22033,Fairfax County,VA,68.18181818181817,NA,NA,NA
22079,Fairfax County,VA,NA,47.537688442211056,NA,NA
22151,Fairfax County,VA,NA,85.12562814070351,NA,NA
22153,Fairfax County,VA,NA,NA,58.91341256366724,NA
22191,Prince William County,VA,NA,NA,30.89983022071307,NA
22207,Arlington County,VA,49.35064935064935,NA,NA,NA
22664,Shenandoah County,VA,74.35064935064936,NA,NA,NA
22727,Madison County,VA,NA,NA,NA,81.31868131868131
22801,Harrisonburg city,VA,NA,NA,37.18166383701188,20.604395604395602
22835,Page County,VA,78.24675324675324,NA,NA,NA
22851,Page County,VA,NA,NA,64.68590831918506,NA
22903,Charlottesville city,VA,NA,95.57788944723619,NA,NA
22939,Augusta County,VA,NA,96.98492462311557,NA,NA
23089,New Kent County,VA,NA,97.48743718592965,NA,NA
23185,James City County,VA,NA,40.7035175879397,NA,NA
23225,Richmond city,VA,NA,48.743718592964825,NA,28.846153846153843
23228,Henrico County,VA,NA,NA,35.144312393887944,NA
23321,Chesapeake city,VA,NA,NA,31.239388794567063,NA
23324,Chesapeake city,VA,NA,45.82914572864322,NA,NA
23325,Chesapeake city,VA,NA,77.58793969849246,NA,NA
23434,Suffolk city,VA,23.376623376623375,17.48743718592965,NA,NA
23462,Virginia Beach city,VA,NA,21.50753768844221,11.03565365025467,NA
23518,Norfolk city,VA,NA,47.23618090452261,NA,NA
23523,Norfolk city,VA,NA,NA,95.41595925297113,NA
23601,Newport News city,VA,NA,NA,47.87775891341256,NA
23606,Newport News city,VA,NA,55.97989949748744,NA,NA
23607,Newport News city,VA,43.18181818181818,NA,NA,NA
23608,Newport News city,VA,NA,22.01005025125628,NA,NA
23661,Hampton city,VA,89.93506493506493,NA,NA,NA
23666,Hampton city,VA,NA,12.562814070351758,NA,NA
23701,Portsmouth city,VA,NA,80,NA,NA
23805,Petersburg city,VA,66.88311688311688,NA,NA,NA
23831,Chesterfield County,VA,NA,41.10552763819095,31.748726655348047,NA
23832,Chesterfield County,VA,NA,49.84924623115578,NA,NA
23868,Brunswick County,VA,89.28571428571429,NA,NA,NA
23901,Prince Edward County,VA,NA,65.32663316582915,NA,NA
24012,Roanoke city,VA,NA,NA,44.312393887945674,NA
24054,Henry County,VA,NA,NA,87.94567062818336,NA
24055,Henry County,VA,NA,68.34170854271356,NA,NA
24151,Franklin County,VA,NA,50.95477386934674,NA,NA
24224,Russell County,VA,NA,80.40201005025126,NA,NA
24266,Russell County,VA,NA,72.76381909547739,NA,NA
24277,Lee County,VA,NA,91.85929648241206,NA,NA
24503,Lynchburg city,VA,NA,NA,NA,40.934065934065934
98001,King County,WA,NA,NA,42.27504244482173,NA
98022,King County,WA,NA,65.0251256281407,NA,NA
98023,King County,WA,14.935064935064934,NA,NA,NA
98026,Snohomish County,WA,NA,83.61809045226131,NA,NA
98031,King County,WA,NA,NA,17.147707979626485,NA
98036,Snohomish County,WA,NA,53.768844221105525,NA,NA
98042,King County,WA,NA,18.99497487437186,NA,75.54945054945054
98056,King County,WA,NA,61.4070351758794,NA,NA
98092,King County,WA,NA,NA,19.185059422750424,NA
98103,King County,WA,NA,NA,42.444821731748725,NA
98104,King County,WA,NA,52.16080402010051,NA,NA
98115,King County,WA,39.285714285714285,NA,NA,NA
98118,King County,WA,NA,NA,35.483870967741936,NA
98125,King County,WA,NA,NA,36.16298811544992,NA
98155,King County,WA,NA,NA,NA,40.934065934065934
98221,Skagit County,WA,NA,NA,21.39219015280136,NA
98258,Snohomish County,WA,NA,NA,NA,82.6923076923077
98266,Whatcom County,WA,NA,NA,100,NA
98271,Snohomish County,WA,NA,NA,55.178268251273344,NA
98273,Skagit County,WA,NA,66.93467336683418,NA,NA
98277,Island County,WA,NA,NA,25.46689303904924,NA
98284,Skagit County,WA,NA,81.90954773869346,NA,NA
98310,Kitsap County,WA,NA,NA,NA,74.72527472527473
98311,Kitsap County,WA,NA,67.03517587939697,NA,NA
98335,Pierce County,WA,NA,65.52763819095478,35.653650254668925,NA
98354,Pierce County,WA,NA,NA,72.66553480475382,NA
98362,Clallam County,WA,NA,38.391959798994975,NA,NA
98383,Kitsap County,WA,NA,82.41206030150754,NA,NA
98391,Pierce County,WA,NA,16.180904522613066,NA,NA
98444,Pierce County,WA,NA,38.69346733668342,NA,NA
98501,Thurston County,WA,NA,71.4572864321608,NA,NA
98513,Thurston County,WA,65.25974025974025,NA,NA,NA
98577,Pacific County,WA,NA,NA,NA,73.62637362637363
98606,Clark County,WA,92.85714285714286,NA,NA,NA
98607,Clark County,WA,NA,80.7035175879397,NA,NA
98626,Cowlitz County,WA,NA,48.643216080402006,NA,NA
98632,Cowlitz County,WA,NA,22.311557788944725,55.51782682512734,NA
98660,Clark County,WA,NA,NA,NA,76.37362637362637
98662,Clark County,WA,NA,NA,NA,40.934065934065934
98664,Clark County,WA,NA,NA,NA,50.27472527472527
98682,Clark County,WA,NA,NA,48.55687606112054,NA
98685,Clark County,WA,NA,NA,71.13752122241087,NA
98802,Douglas County,WA,NA,NA,66.723259762309,NA
98942,Yakima County,WA,79.54545454545455,NA,NA,NA
99156,Pend Oreille County,WA,NA,NA,78.94736842105263,NA
99224,Spokane County,WA,NA,NA,89.13412563667232,NA
99301,Franklin County,WA,NA,NA,7.130730050933787,NA
99337,Benton County,WA,NA,NA,7.809847198641766,NA
99354,Benton County,WA,NA,47.03517587939699,NA,NA
20019,District of Columbia,DC,8.441558441558442,NA,NA,9.065934065934066
20020,District of Columbia,DC,8.766233766233766,NA,6.281833616298811,NA
25302,Kanawha County,WV,NA,60.60301507537689,NA,NA
25508,Logan County,WV,81.4935064935065,NA,NA,NA
25801,Raleigh County,WV,NA,14.974874371859295,NA,NA
25901,Fayette County,WV,NA,NA,55.00848896434635,NA
26003,Ohio County,WV,18.83116883116883,28.04020100502513,2.2071307300509337,NA
26037,Brooke County,WV,NA,83.11557788944724,NA,NA
26070,Brooke County,WV,NA,NA,NA,33.791208791208796
26101,Wood County,WV,NA,5.728643216080402,NA,NA
26104,Wood County,WV,NA,NA,NA,72.8021978021978
26164,Jackson County,WV,NA,87.8391959798995,NA,NA
26201,Upshur County,WV,NA,NA,NA,14.560439560439562
26385,Harrison County,WV,NA,98.69346733668341,NA,NA
26501,Monongalia County,WV,NA,20.603015075376884,NA,NA
26505,Monongalia County,WV,NA,10.552763819095476,NA,NA
26508,Monongalia County,WV,5.194805194805195,NA,NA,NA
26537,Preston County,WV,NA,NA,62.478777589134125,NA
53021,Ozaukee County,WI,NA,NA,98.98132427843804,NA
53022,Washington County,WI,NA,NA,NA,57.14285714285714
53029,Waukesha County,WI,NA,68.84422110552764,NA,NA
53045,Waukesha County,WI,NA,NA,NA,18.681318681318682
53051,Waukesha County,WI,NA,49.04522613065327,NA,NA
53072,Waukesha County,WI,NA,NA,NA,73.62637362637363
53110,Milwaukee County,WI,NA,34.9748743718593,NA,NA
53142,Kenosha County,WI,NA,11.155778894472363,NA,NA
53144,Kenosha County,WI,NA,54.07035175879397,NA,NA
53149,Waukesha County,WI,NA,NA,41.59592529711375,NA
53150,Waukesha County,WI,NA,69.84924623115577,40.74702886247878,NA
53172,Milwaukee County,WI,NA,40.402010050251256,NA,NA
53179,Kenosha County,WI,NA,71.35678391959799,NA,NA
53181,Kenosha County,WI,NA,64.82412060301507,NA,NA
53186,Waukesha County,WI,NA,66.53266331658291,NA,NA
53202,Milwaukee County,WI,NA,NA,NA,35.43956043956044
53204,Milwaukee County,WI,NA,NA,98.13242784380306,NA
53209,Milwaukee County,WI,NA,NA,NA,37.91208791208791
53210,Milwaukee County,WI,NA,NA,19.864176570458405,NA
53213,Milwaukee County,WI,NA,55.879396984924625,NA,NA
53218,Milwaukee County,WI,NA,NA,9.168081494057725,NA
53219,Milwaukee County,WI,NA,80.50251256281406,NA,NA
53221,Milwaukee County,WI,NA,22.71356783919598,22.07130730050934,11.813186813186812
53222,Milwaukee County,WI,NA,NA,38.70967741935484,NA
53223,Milwaukee County,WI,NA,18.090452261306535,NA,NA
53225,Milwaukee County,WI,NA,12.361809045226131,NA,NA
53511,Rock County,WI,NA,1.2060301507537687,NA,NA
53520,Green County,WI,NA,NA,NA,29.945054945054945
53523,Dane County,WI,NA,NA,80.4753820033956,NA
53545,Rock County,WI,NA,NA,20.882852292020374,NA
53548,Rock County,WI,NA,28.34170854271357,NA,NA
53559,Dane County,WI,NA,NA,95.24617996604414,NA
53566,Green County,WI,NA,NA,NA,64.01098901098901
53581,Richland County,WI,NA,NA,80.98471986417657,NA
53589,Dane County,WI,NA,77.98994974874371,NA,29.945054945054945
53590,Dane County,WI,NA,74.37185929648241,NA,NA
53597,Dane County,WI,NA,NA,63.66723259762309,NA
53703,Dane County,WI,59.41558441558441,NA,NA,NA
53704,Dane County,WI,26.2987012987013,NA,NA,NA
53705,Dane County,WI,NA,59.09547738693467,NA,NA
53713,Dane County,WI,NA,59.39698492462312,NA,NA
53946,Green Lake County,WI,NA,NA,99.830220713073,NA
53948,Juneau County,WI,NA,86.03015075376884,NA,NA
53959,Sauk County,WI,NA,47.93969849246231,NA,NA
53963,Dodge County,WI,NA,61.20603015075376,NA,NA
54017,St. Croix County,WI,67.20779220779221,NA,NA,NA
54106,Outagamie County,WI,NA,98.39195979899498,NA,NA
54153,Oconto County,WI,NA,NA,82.85229202037353,NA
54311,Brown County,WI,NA,75.37688442211056,NA,NA
54449,Wood County,WI,NA,75.678391959799,NA,NA
54452,Lincoln County,WI,67.85714285714286,NA,NA,NA
54473,Portage County,WI,NA,98.5929648241206,NA,NA
54476,Marathon County,WI,NA,78.89447236180904,NA,NA
54495,Wood County,WI,NA,NA,81.32427843803056,NA
54501,Oneida County,WI,NA,NA,22.410865874363328,NA
54520,Forest County,WI,96.75324675324676,NA,NA,NA
54521,Vilas County,WI,NA,NA,72.83531409168081,NA
54555,Price County,WI,NA,99.39698492462311,NA,NA
54601,La Crosse County,WI,NA,8.341708542713567,NA,NA
54650,La Crosse County,WI,NA,60,NA,NA
54656,Monroe County,WI,NA,NA,41.25636672325976,NA
54660,Monroe County,WI,NA,55.07537688442211,50.93378607809848,NA
54701,Eau Claire County,WI,NA,NA,22.920203735144312,NA
54729,Chippewa County,WI,NA,70.45226130653266,NA,NA
54751,Dunn County,WI,NA,NA,NA,11.538461538461538
54829,Barron County,WI,NA,NA,NA,93.4065934065934
54902,Winnebago County,WI,NA,82.91457286432161,NA,NA
54904,Winnebago County,WI,NA,72.1608040201005,NA,NA
54935,Fond du Lac County,WI,NA,NA,NA,5.21978021978022
54940,Waupaca County,WI,NA,98.89447236180905,NA,NA
82007,Laramie County,WY,NA,NA,89.47368421052632,NA
82414,Park County,WY,NA,NA,NA,40.38461538461539
82435,Park County,WY,NA,NA,70.11884550084889,NA
82604,Natrona County,WY,NA,NA,78.60780984719864,NA
82633,Converse County,WY,NA,NA,NA,82.14285714285714
82930,Uinta County,WY,NA,NA,84.38030560271646,NA
