ZipCode,county,state,Adult
35007,Shelby County,AL,66.64378860672615
35010,Tallapoosa County,AL,18.920155570807594
35022,Jefferson County,AL,21.75703500343171
35023,Jefferson County,AL,15.145275680622284
35040,Shelby County,AL,64.90505605124686
35049,Blount County,AL,93.6856554564173
35051,Shelby County,AL,76.29832990162434
35055,Cullman County,AL,36.696408144589334
35071,Jefferson County,AL,82.86433310455273
35117,Jefferson County,AL,82.36101578586135
35125,St. Clair County,AL,38.50377487989019
35150,Talladega County,AL,23.083962479981697
35173,Jefferson County,AL,31.480210478151456
35186,Shelby County,AL,98.00960878517502
35204,Jefferson County,AL,81.3315030885381
35211,Jefferson County,AL,62.09105467856326
35215,Jefferson County,AL,17.295813315030887
35216,Jefferson County,AL,35.4381148478609
35224,Jefferson County,AL,97.18599862731641
35242,Shelby County,AL,16.289178677648135
35244,Jefferson County,AL,29.58133150308854
35405,Tuscaloosa County,AL,59.41432166552276
35462,Greene County,AL,75.10867078471746
35565,Winston County,AL,54.12948981926332
35594,Marion County,AL,70.8762296957218
35601,Morgan County,AL,25.120109814687712
35603,Morgan County,AL,6.451612903225806
35611,Limestone County,AL,11.759322809425761
35630,Lauderdale County,AL,66.0489590482727
35633,Lauderdale County,AL,36.78792038435141
35640,Morgan County,AL,49.43948753145733
35645,Lauderdale County,AL,94.05170441546557
35661,Colbert County,AL,47.67787691603752
35672,Lawrence County,AL,63.852665293983065
35673,Morgan County,AL,52.93983070235644
35674,Colbert County,AL,50.720658888126295
35740,Jackson County,AL,99.93136582017846
35747,Marshall County,AL,77.64813543811485
35749,Madison County,AL,30.473575840768703
35756,Limestone County,AL,65.17959277053306
35758,Madison County,AL,21.002059025394644
35768,Jackson County,AL,41.86684969114619
35769,Jackson County,AL,81.14847860901395
35772,Jackson County,AL,99.26790208190346
35805,Madison County,AL,26.744452070464426
35810,Madison County,AL,15.557080759551589
35903,Etowah County,AL,36.07870052619538
35951,Marshall County,AL,97.46053534660261
35957,Marshall County,AL,28.002745367192862
35967,DeKalb County,AL,47.08304735758408
35980,Marshall County,AL,93.22809425760695
36022,Elmore County,AL,56.829100892244334
36037,Butler County,AL,38.48089681994967
36054,Elmore County,AL,78.24296499656829
36067,Autauga County,AL,51.841683825211625
36079,Pike County,AL,88.97277510867079
36089,Bullock County,AL,63.94417753374514
36092,Elmore County,AL,27.27064744909632
36105,Montgomery County,AL,87.82887211164493
36108,Montgomery County,AL,58.3848089681995
36110,Montgomery County,AL,36.42187142530313
36116,Montgomery County,AL,55.20475863646763
36117,Montgomery County,AL,17.135666895447265
36201,Calhoun County,AL,12.880347746511095
36264,Cleburne County,AL,76.6415008007321
36277,Calhoun County,AL,77.7167696179364
36301,Houston County,AL,7.595515900251659
36330,Coffee County,AL,62.25120109814688
36340,Geneva County,AL,88.7439945092656
36421,Covington County,AL,70.2127659574468
36477,Geneva County,AL,80.59940517044156
36522,Mobile County,AL,79.867307252345
36551,Baldwin County,AL,86.52482269503547
36575,Mobile County,AL,40.448409974834135
36580,Baldwin County,AL,92.65614275909402
36603,Mobile County,AL,72.86662091054679
36605,Mobile County,AL,22.30610844200412
36607,Mobile County,AL,73.43857240905972
36608,Mobile County,AL,26.172500571951495
36609,Mobile County,AL,41.02036147334706
36613,Mobile County,AL,72.54632807137955
36618,Mobile County,AL,57.19514985129261
36693,Mobile County,AL,69.9382292381606
36701,Dallas County,AL,42.21002059025395
36732,Marengo County,AL,84.48867536032945
36756,Perry County,AL,94.30336307481126
36830,Lee County,AL,49.6682681308625
36854,Chambers County,AL,75.36032944406314
99501,Anchorage Municipality,AK,69.20613132006406
99502,Anchorage Municipality,AK,33.196064973690234
99504,Anchorage Municipality,AK,35.91855410661176
99507,Anchorage Municipality,AK,68.54266758178906
99508,Anchorage Municipality,AK,30.72523450011439
99517,Anchorage Municipality,AK,75.95515900251658
99559,Bethel Census Area,AK,93.54838709677419
99654,Matanuska-Susitna Borough,AK,18.851521390986044
99669,Kenai Peninsula Borough,AK,57.469686570578816
99701,Fairbanks North Star Borough,AK,79.11233127430793
99705,Fairbanks North Star Borough,AK,61.63349347975292
99762,Nome Census Area,AK,94.73804621368109
85007,Maricopa County,AZ,20.452985586822237
85008,Maricopa County,AZ,24.937085335163577
85009,Maricopa County,AZ,44.40631434454359
85016,Maricopa County,AZ,59.34568748570121
85017,Maricopa County,AZ,47.42621825669183
85021,Maricopa County,AZ,41.68382521162206
85027,Maricopa County,AZ,24.021962937542895
85031,Maricopa County,AZ,31.823381377259206
85032,Maricopa County,AZ,5.5593685655456415
85033,Maricopa County,AZ,28.71196522534889
85035,Maricopa County,AZ,29.123770304278196
85037,Maricopa County,AZ,60.215053763440864
85040,Maricopa County,AZ,52.84831846259437
85041,Maricopa County,AZ,34.77465110958591
85043,Maricopa County,AZ,35.75840768702814
85044,Maricopa County,AZ,8.304735758407688
85051,Maricopa County,AZ,5.307709906199954
85053,Maricopa County,AZ,27.613818348204074
85085,Maricopa County,AZ,49.714024250743535
85119,Pinal County,AZ,53.260123541523676
85120,Pinal County,AZ,58.31617478837795
85122,Pinal County,AZ,33.67650423244109
85128,Pinal County,AZ,56.39441775337451
85132,Pinal County,AZ,20.43010752688172
85140,Pinal County,AZ,50.49187828872112
85201,Maricopa County,AZ,44.88675360329444
85202,Maricopa County,AZ,34.13406543125143
85203,Maricopa County,AZ,52.84831846259437
85204,Maricopa County,AZ,26.103866392129948
85207,Maricopa County,AZ,61.49622512010981
85209,Maricopa County,AZ,44.61221688400824
85210,Maricopa County,AZ,57.629832990162434
85224,Maricopa County,AZ,27.224891329215282
85226,Maricopa County,AZ,69.09174102036147
85251,Maricopa County,AZ,22.60352322123084
85257,Maricopa County,AZ,50.880805307709906
85258,Maricopa County,AZ,79.7300388927019
85262,Maricopa County,AZ,92.81628917867765
85281,Maricopa County,AZ,50.92656142759095
85282,Maricopa County,AZ,57.492564630519325
85298,Maricopa County,AZ,54.60992907801418
85301,Maricopa County,AZ,10.249370853351635
85302,Maricopa County,AZ,11.965225348890414
85303,Maricopa County,AZ,66.68954472660718
85304,Maricopa County,AZ,67.51315488446579
85326,Maricopa County,AZ,14.161519103180051
85331,Maricopa County,AZ,36.467627545184165
85339,Maricopa County,AZ,35.66689544726607
85345,Maricopa County,AZ,4.575611988103409
85349,Yuma County,AZ,17.753374513841226
85350,Yuma County,AZ,32.18943033630748
85353,Maricopa County,AZ,48.06680393502631
85355,Maricopa County,AZ,90.13955616563716
85356,Yuma County,AZ,96.47677876916038
85364,Yuma County,AZ,7.778540379775794
85365,Yuma County,AZ,63.89842141386411
85374,Maricopa County,AZ,63.14344543582704
85382,Maricopa County,AZ,29.42118508350492
85387,Maricopa County,AZ,67.83344772363303
85388,Maricopa County,AZ,50.62914664836422
85501,Gila County,AZ,84.25989476092427
85530,Graham County,AZ,75.840768702814
85541,Gila County,AZ,30.793868679935944
85546,Graham County,AZ,79.5927705330588
85550,Graham County,AZ,58.49919926790208
85602,Cochise County,AZ,73.18691374971402
85603,Cochise County,AZ,95.01258293296728
85629,Pima County,AZ,93.75428963623885
85634,Pima County,AZ,36.19309082589796
85641,Pima County,AZ,89.88789750629147
85705,Pima County,AZ,1.1210249370853351
85706,Pima County,AZ,16.88400823610158
85710,Pima County,AZ,61.038663921299474
85711,Pima County,AZ,17.341569434911918
85713,Pima County,AZ,30.24479524136353
85714,Pima County,AZ,17.067032715625714
85715,Pima County,AZ,65.04232441088995
85716,Pima County,AZ,82.97872340425532
85741,Pima County,AZ,16.58659345687486
85745,Pima County,AZ,11.713566689544727
85746,Pima County,AZ,79.20384351407
85756,Pima County,AZ,18.256691832532603
86004,Coconino County,AZ,29.19240448409975
86033,Navajo County,AZ,44.77236330359185
86045,Coconino County,AZ,11.644932509723176
86047,Navajo County,AZ,18.073667353008467
86301,Yavapai County,AZ,78.74628231525966
86303,Yavapai County,AZ,76.84740334019675
86323,Yavapai County,AZ,67.35300846488218
86401,Mohave County,AZ,36.696408144589334
86426,Mohave County,AZ,67.2386181651796
86432,Mohave County,AZ,98.69595058339053
86503,Apache County,AZ,49.919926790208194
86510,Navajo County,AZ,83.59643102264927
86538,Apache County,AZ,86.31892015557081
71646,Ashley County,AR,88.7439945092656
71852,Howard County,AR,71.0134980553649
71854,Miller County,AR,20.49874170670327
71913,Garland County,AR,20.247083047357584
72150,Grant County,AR,69.29764355982613
72211,Pulaski County,AR,70.0754975978037
72223,Pulaski County,AR,71.5396934339968
72401,Craighead County,AR,5.65088080530771
72703,Washington County,AR,62.70876229695722
72704,Washington County,AR,66.75817890642874
72764,Washington County,AR,53.67192862045299
72834,Yell County,AR,77.51086707847175
72904,Sebastian County,AR,41.706703271562574
72956,Crawford County,AR,31.68611301761611
90001,Los Angeles County,CA,97.00297414779226
90002,Los Angeles County,CA,73.6902310684054
90003,Los Angeles County,CA,51.45275680622283
90004,Los Angeles County,CA,96.31663234957676
90005,Los Angeles County,CA,79.29535575383207
90006,Los Angeles County,CA,48.86753603294441
90011,Los Angeles County,CA,96.61404712880348
90017,Los Angeles County,CA,92.61038663921299
90022,Los Angeles County,CA,85.79272477693891
90023,Los Angeles County,CA,20.384351407000686
90026,Los Angeles County,CA,28.62045298558682
90028,Los Angeles County,CA,77.0304278197209
90032,Los Angeles County,CA,64.40173873255549
90033,Los Angeles County,CA,75.77213452299245
90034,Los Angeles County,CA,60.03202928391672
90038,Los Angeles County,CA,64.26447037291237
90042,Los Angeles County,CA,34.40860215053764
90044,Los Angeles County,CA,30.65660032029284
90045,Los Angeles County,CA,46.03065660032029
90049,Los Angeles County,CA,64.9508121711279
90057,Los Angeles County,CA,72.3404255319149
90059,Los Angeles County,CA,49.919926790208194
90061,Los Angeles County,CA,55.22763669640815
90062,Los Angeles County,CA,33.47060169297644
90063,Los Angeles County,CA,32.532601235415235
90064,Los Angeles County,CA,42.2786547700755
90201,Los Angeles County,CA,66.14047128803477
90220,Los Angeles County,CA,77.48798901853124
90221,Los Angeles County,CA,76.45847632120795
90232,Los Angeles County,CA,90.75726378403111
90241,Los Angeles County,CA,68.65705788149164
90247,Los Angeles County,CA,80.4163806909174
90250,Los Angeles County,CA,71.49393731411577
90255,Los Angeles County,CA,92.97643559826126
90262,Los Angeles County,CA,98.81034088309312
90280,Los Angeles County,CA,46.85426675817891
90291,Los Angeles County,CA,79.63852665293983
90301,Los Angeles County,CA,50.26309768931595
90501,Los Angeles County,CA,30.084648821779915
90505,Los Angeles County,CA,39.73919011667811
90604,Los Angeles County,CA,70.80759551590026
90605,Los Angeles County,CA,83.16174788377946
90621,Orange County,CA,71.65408373369938
90631,Orange County,CA,18.302447952413637
90640,Los Angeles County,CA,95.10409517272936
90650,Los Angeles County,CA,30.633722260352318
90660,Los Angeles County,CA,43.33104552733928
90731,Los Angeles County,CA,15.648592999313657
90744,Los Angeles County,CA,40.65431251429879
90806,Los Angeles County,CA,37.70304278197209
90807,Los Angeles County,CA,32.60123541523679
90813,Los Angeles County,CA,67.58178906428735
90815,Los Angeles County,CA,31.388698238389384
91007,Los Angeles County,CA,85.88423701670098
91042,Los Angeles County,CA,59.185541066117594
91103,Los Angeles County,CA,60.420956302905516
91104,Los Angeles County,CA,95.53877831159919
91106,Los Angeles County,CA,95.60741249142073
91205,Los Angeles County,CA,53.12285518188058
91301,Los Angeles County,CA,84.35140700068634
91302,Los Angeles County,CA,70.2127659574468
91316,Los Angeles County,CA,81.03408830931137
91320,Ventura County,CA,47.266071837108214
91324,Los Angeles County,CA,85.54106611759322
91331,Los Angeles County,CA,41.6151910318005
91335,Los Angeles County,CA,87.05101807366735
91342,Los Angeles County,CA,87.920384351407
91343,Los Angeles County,CA,91.42072752230611
91351,Los Angeles County,CA,46.41958361930909
91360,Ventura County,CA,45.412948981926334
91405,Los Angeles County,CA,76.04667124227865
91406,Los Angeles County,CA,66.96408144589338
91423,Los Angeles County,CA,55.22763669640815
91605,Los Angeles County,CA,63.37222603523222
91606,Los Angeles County,CA,41.77533745138412
91706,Los Angeles County,CA,40.35689773507207
91710,San Bernardino County,CA,86.20452985586822
91723,Los Angeles County,CA,66.89544726607184
91724,Los Angeles County,CA,83.73369938229239
91730,San Bernardino County,CA,33.40196751315489
91733,Los Angeles County,CA,49.714024250743535
91744,Los Angeles County,CA,50.85792724776938
91746,Los Angeles County,CA,85.01487073896133
91755,Los Angeles County,CA,85.40379775795013
91762,San Bernardino County,CA,90.98604438343628
91763,San Bernardino County,CA,87.30267673301304
91764,San Bernardino County,CA,52.59665980324868
91766,Los Angeles County,CA,82.26950354609929
91767,Los Angeles County,CA,82.08647906657515
91768,Los Angeles County,CA,83.893845801876
91770,Los Angeles County,CA,31.80050331731869
91773,Los Angeles County,CA,59.50583390528483
91791,Los Angeles County,CA,88.08053077099062
91902,San Diego County,CA,80.0045756119881
91910,San Diego County,CA,39.784946236559136
91913,San Diego County,CA,58.01876000915123
91941,San Diego County,CA,40.21962937542896
92007,San Diego County,CA,83.07023564401739
92009,San Diego County,CA,48.318462594371994
92021,San Diego County,CA,5.856783344772364
92024,San Diego County,CA,23.3584991992679
92025,San Diego County,CA,29.32967284374285
92026,San Diego County,CA,36.39899336536262
92054,San Diego County,CA,59.551590025165865
92069,San Diego County,CA,52.32212308396248
92078,San Diego County,CA,34.751773049645394
92083,San Diego County,CA,44.24616792495996
92084,San Diego County,CA,39.62479981697552
92101,San Diego County,CA,26.492793411118736
92105,San Diego County,CA,64.08144589338825
92109,San Diego County,CA,53.90070921985816
92113,San Diego County,CA,87.46282315259666
92115,San Diego County,CA,46.7169983985358
92117,San Diego County,CA,71.05925417524594
92122,San Diego County,CA,57.24090597117364
92126,San Diego County,CA,26.813086250285977
92127,San Diego County,CA,88.60672614962252
92128,San Diego County,CA,58.70510180736673
92131,San Diego County,CA,81.62891786776481
92139,San Diego County,CA,90.5971173644475
92154,San Diego County,CA,19.949668268130864
92173,San Diego County,CA,46.03065660032029
92201,Riverside County,CA,10.91283459162663
92203,Riverside County,CA,88.49233584991993
92220,Riverside County,CA,39.99084877602379
92227,Imperial County,CA,82.8185769846717
92231,Imperial County,CA,77.57950125829329
92234,Riverside County,CA,26.149622512010986
92236,Riverside County,CA,60.077785403797755
92240,Riverside County,CA,9.448638755433539
92249,Imperial County,CA,98.74170670327156
92251,Imperial County,CA,56.34866163349348
92252,San Bernardino County,CA,84.16838252116221
92260,Riverside County,CA,69.70944863875543
92262,Riverside County,CA,35.23221230839625
92274,Riverside County,CA,61.29032258064516
92277,San Bernardino County,CA,56.55456417295813
92284,San Bernardino County,CA,12.514298787462824
92301,San Bernardino County,CA,48.730267673301306
92307,San Bernardino County,CA,13.429421185083504
92311,San Bernardino County,CA,52.41363532372455
92320,Riverside County,CA,93.11370395790436
92324,San Bernardino County,CA,54.015099519560735
92335,San Bernardino County,CA,37.40562800274537
92345,San Bernardino County,CA,3.477465110958591
92359,San Bernardino County,CA,91.03180050331731
92371,San Bernardino County,CA,96.95721802791122
92374,San Bernardino County,CA,25.2345001143903
92376,San Bernardino County,CA,17.410203614733472
92392,San Bernardino County,CA,7.50400366048959
92395,San Bernardino County,CA,73.78174330816746
92399,San Bernardino County,CA,15.282544040265385
92404,San Bernardino County,CA,49.27934111187371
92407,San Bernardino County,CA,50.35460992907801
92408,San Bernardino County,CA,86.63921299473805
92410,San Bernardino County,CA,48.27270647449096
92411,San Bernardino County,CA,91.90116678105696
92501,Riverside County,CA,65.61427590940289
92503,Riverside County,CA,32.89865019446351
92504,Riverside County,CA,24.296499656829102
92505,Riverside County,CA,85.3580416380691
92507,Riverside County,CA,58.1102722489133
92509,Riverside County,CA,57.95012582932967
92530,Riverside County,CA,79.02081903454588
92543,Riverside County,CA,56.119881034088316
92544,Riverside County,CA,94.25760695493022
92545,Riverside County,CA,58.430565088080535
92553,Riverside County,CA,62.31983527796843
92562,Riverside County,CA,12.354152367879204
92563,Riverside County,CA,16.838252116220545
92570,Riverside County,CA,83.07023564401739
92584,Riverside County,CA,26.492793411118736
92586,Riverside County,CA,67.19286204529857
92592,Riverside County,CA,13.612445664607641
92595,Riverside County,CA,23.2212308396248
92604,Orange County,CA,68.26813086250286
92618,Orange County,CA,45.00114390299703
92620,Orange County,CA,59.620224204987416
92625,Orange County,CA,86.27316403568977
92627,Orange County,CA,54.60992907801418
92646,Orange County,CA,12.239762068176619
92647,Orange County,CA,77.14481811942348
92672,Orange County,CA,49.714024250743535
92675,Orange County,CA,92.38160603980783
92683,Orange County,CA,6.42873484328529
92688,Orange County,CA,19.606497369023106
92692,Orange County,CA,22.512010981468773
92703,Orange County,CA,92.31297185998628
92704,Orange County,CA,48.11256005490734
92706,Orange County,CA,88.03477465110959
92707,Orange County,CA,83.34477236330359
92708,Orange County,CA,70.64744909631663
92780,Orange County,CA,86.25028597574925
92802,Orange County,CA,36.010066346373826
92804,Orange County,CA,69.77808281857698
92821,Orange County,CA,75.47471974376573
92835,Orange County,CA,88.03477465110959
92840,Orange County,CA,32.3495767558911
92844,Orange County,CA,90.32258064516128
92860,Riverside County,CA,57.08075955159002
92869,Orange County,CA,73.8274994280485
92870,Orange County,CA,52.665293983070235
92879,Riverside County,CA,80.02745367192861
92880,Riverside County,CA,9.51727293525509
92881,Riverside County,CA,84.0311141615191
92883,Riverside County,CA,78.19720887668726
92887,Orange County,CA,83.230382063601
93003,Ventura County,CA,27.590940288263553
93004,Ventura County,CA,37.428506062685884
93013,Santa Barbara County,CA,95.79043697094485
93021,Ventura County,CA,72.98101121024936
93030,Ventura County,CA,6.81766186227408
93033,Ventura County,CA,22.740791580873942
93036,Ventura County,CA,45.641729581331504
93041,Ventura County,CA,87.50857927247769
93063,Ventura County,CA,78.90642873484327
93065,Ventura County,CA,5.719514985129261
93105,Santa Barbara County,CA,93.91443605582246
93110,Santa Barbara County,CA,94.21185083504918
93210,Fresno County,CA,62.61725005719515
93212,Kings County,CA,79.08945321436742
93230,Kings County,CA,30.770990619995427
93234,Fresno County,CA,94.07458247540609
93240,Kern County,CA,85.17501715854495
93256,Tulare County,CA,98.30702356440175
93257,Tulare County,CA,58.59071150766415
93274,Tulare County,CA,84.99199267902083
93277,Tulare County,CA,39.87645847632121
93291,Tulare County,CA,85.70121253717686
93292,Tulare County,CA,23.90757263784031
93304,Kern County,CA,10.958590711507664
93307,Kern County,CA,44.47494852436513
93313,Kern County,CA,33.493479752916954
93314,Kern County,CA,68.33676504232442
93402,San Luis Obispo County,CA,80.09608785175017
93420,San Luis Obispo County,CA,50.97231754747198
93422,San Luis Obispo County,CA,62.91466483642188
93433,San Luis Obispo County,CA,64.150080073209793
93436,Santa Barbara County,CA,28.185769846716997
93444,San Luis Obispo County,CA,41.27202013269275
93446,San Luis Obispo County,CA,62.136810798444294
93454,Santa Barbara County,CA,15.32830016014642
93458,Santa Barbara County,CA,45.80187600091512
93465,San Luis Obispo County,CA,66.89544726607184
93501,Kern County,CA,97.48341340654314
93510,Los Angeles County,CA,92.26721574010523
93534,Los Angeles County,CA,52.4822695035461
93535,Los Angeles County,CA,49.69114619080302
93536,Los Angeles County,CA,59.43719972546329
93546,Mono County,CA,82.65843056508808
93550,Los Angeles County,CA,24.61679249599634
93552,Los Angeles County,CA,94.71516815374056
93555,Kern County,CA,11.736444749485244
93609,Fresno County,CA,92.90780141843972
93612,Fresno County,CA,91.58087394188973
93618,Tulare County,CA,68.7256920613132
93638,Madera County,CA,86.91374971402425
93640,Fresno County,CA,88.30931137039579
93648,Fresno County,CA,92.10706932052162
93657,Fresno County,CA,38.06909174102036
93662,Fresno County,CA,37.863189201555706
93701,Fresno County,CA,84.64882177991306
93702,Fresno County,CA,43.60558224662549
93703,Fresno County,CA,25.920841912605812
93705,Fresno County,CA,68.15374056280027
93706,Fresno County,CA,10.089224433768017
93721,Fresno County,CA,99.90848776023793
93722,Fresno County,CA,35.415236787920385
93905,Monterey County,CA,80.55364905056052
93906,Monterey County,CA,55.75383207504003
93955,Monterey County,CA,55.11324639670556
94010,San Mateo County,CA,32.71562571493937
94063,San Mateo County,CA,59.00251658659346
94086,Santa Clara County,CA,73.87325554792955
94087,Santa Clara County,CA,66.50652024708305
94105,San Francisco County,CA,97.25463280713795
94112,San Francisco County,CA,83.59643102264927
94118,San Francisco County,CA,82.88721116449325
94122,San Francisco County,CA,62.91466483642188
94123,San Francisco County,CA,45.3671928620453
94124,San Francisco County,CA,11.507664150080073
94127,San Francisco County,CA,76.48135438114848
94134,San Francisco County,CA,54.70144131777626
94401,San Mateo County,CA,85.99862731640357
94506,Contra Costa County,CA,84.76321207961564
94509,Contra Costa County,CA,9.425760695493022
94513,Contra Costa County,CA,17.95927705330588
94526,Contra Costa County,CA,48.38709677419355
94531,Contra Costa County,CA,49.14207275223061
94533,Solano County,CA,70.4644246167925
94539,Alameda County,CA,71.69983985358041
94541,Alameda County,CA,38.73255547929536
94544,Alameda County,CA,65.33973919011667
94545,Alameda County,CA,63.097689315946006
94551,Alameda County,CA,64.40173873255549
94553,Contra Costa County,CA,24.296499656829102
94558,Napa County,CA,66.23198352779684
94560,Alameda County,CA,93.98307023564402
94561,Contra Costa County,CA,21.75703500343171
94580,Alameda County,CA,92.81628917867765
94582,Contra Costa County,CA,52.18485472431937
94583,Contra Costa County,CA,33.2875772134523
94590,Solano County,CA,13.818348204072295
94596,Contra Costa County,CA,73.39281628917867
94597,Contra Costa County,CA,56.89773507206589
94601,Alameda County,CA,60.603980782429645
94605,Alameda County,CA,11.210249370853353
94606,Alameda County,CA,88.67536032944406
94609,Alameda County,CA,75.61198810340883
94621,Alameda County,CA,67.00983756577442
94801,Contra Costa County,CA,80.50789293067947
94901,Marin County,CA,69.54930221917182
94903,Marin County,CA,61.58773735987189
94920,Marin County,CA,84.4429192404484
94952,Sonoma County,CA,63.39510409517273
95008,Santa Clara County,CA,46.41958361930909
95035,Santa Clara County,CA,30.72523450011439
95050,Santa Clara County,CA,53.168611301761615
95062,Santa Cruz County,CA,58.796614047128806
95076,Santa Cruz County,CA,7.984442919240449
95110,Santa Clara County,CA,98.7874628231526
95116,Santa Clara County,CA,25.188743994509267
95126,Santa Clara County,CA,47.22031571722718
95127,Santa Clara County,CA,57.26378403111416
95134,Santa Clara County,CA,64.63051933196064
95202,San Joaquin County,CA,14.367421642644704
95209,San Joaquin County,CA,28.78059940517044
95212,San Joaquin County,CA,67.42164264470372
95240,San Joaquin County,CA,27.956989247311824
95242,San Joaquin County,CA,51.109585907115076
95301,Merced County,CA,77.37359871882865
95307,Stanislaus County,CA,67.30725234500115
95320,San Joaquin County,CA,58.430565088080535
95334,Merced County,CA,95.51590025165866
95337,San Joaquin County,CA,22.83230382063601
95340,Merced County,CA,51.407000686341796
95341,Merced County,CA,71.79135209334248
95350,Stanislaus County,CA,51.24685426675818
95351,Stanislaus County,CA,55.54792953557538
95354,Stanislaus County,CA,17.067032715625714
95355,Stanislaus County,CA,2.7682452528025623
95356,Stanislaus County,CA,23.47288949897049
95358,Stanislaus County,CA,15.099519560741248
95363,Stanislaus County,CA,75.06291466483643
95367,Stanislaus County,CA,68.97735072065889
95376,San Joaquin County,CA,13.589567604667124
95380,Stanislaus County,CA,63.097689315946006
95382,Stanislaus County,CA,71.6769617936399
95386,Stanislaus County,CA,94.82955845344316
95391,San Joaquin County,CA,97.55204758636468
95401,Sonoma County,CA,39.3273850377488
95404,Sonoma County,CA,55.36490505605125
95409,Sonoma County,CA,73.66735300846489
95451,Lake County,CA,65.61427590940289
95458,Lake County,CA,98.87897506291466
95482,Mendocino County,CA,52.91695264241593
95485,Lake County,CA,97.91809654541295
95501,Humboldt County,CA,33.58499199267902
95624,Sacramento County,CA,29.03225806451613
95670,Sacramento County,CA,17.913520933424845
95682,El Dorado County,CA,72.22603523221231
95695,Yolo County,CA,49.43948753145733
95757,Sacramento County,CA,92.03843514070007
95815,Sacramento County,CA,77.78540379775795
95818,Sacramento County,CA,61.63349347975292
95822,Sacramento County,CA,92.35872797986731
95823,Sacramento County,CA,23.61015785861359
95824,Sacramento County,CA,83.29901624342256
95826,Sacramento County,CA,81.69755204758637
95833,Sacramento County,CA,22.786547700754976
95834,Sacramento County,CA,81.51452756806222
95835,Sacramento County,CA,79.29535575383207
95841,Sacramento County,CA,90.27682452528025
95901,Yuba County,CA,10.75268817204301
95917,Butte County,CA,95.90482727064746
95926,Butte County,CA,17.63898421413864
95928,Butte County,CA,17.593228094257608
95932,Colusa County,CA,98.39853580416381
95948,Butte County,CA,93.20521619766645
95954,Butte County,CA,23.564401738732556
95961,Yuba County,CA,76.61862274079158
95963,Glenn County,CA,83.00160146419584
95965,Butte County,CA,92.99931365820179
95966,Butte County,CA,80.07320979180965
95971,Plumas County,CA,89.36170212765957
95973,Butte County,CA,37.35987188286433
95991,Sutter County,CA,44.04026538549531
96019,Shasta County,CA,60.97002974147793
96101,Modoc County,CA,85.26652939830703
80004,Jefferson County,CO,89.29306794783803
80011,Arapahoe County,CO,31.983527796842825
80012,Arapahoe County,CO,21.116449325097232
80013,Arapahoe County,CO,3.454587051018074
80014,Arapahoe County,CO,16.129032258064516
80016,Arapahoe County,CO,9.997712194005947
80018,Arapahoe County,CO,85.17501715854495
80021,Jefferson County,CO,41.95836193090826
80022,Adams County,CO,29.32967284374285
80030,Adams County,CO,85.01487073896133
80033,Jefferson County,CO,31.251429878746283
80110,Arapahoe County,CO,49.43948753145733
80113,Arapahoe County,CO,73.04964539007092
80130,Douglas County,CO,86.31892015557081
80134,Douglas County,CO,12.331274307938687
80204,Denver County,CO,9.265614275909403
80205,Denver County,CO,24.204987417067034
80210,Denver County,CO,36.513383665065206
80211,Denver County,CO,19.698009608785174
80214,Jefferson County,CO,74.58247540608556
80216,Denver County,CO,52.59665980324868
80219,Denver County,CO,10.821322351864563
80228,Jefferson County,CO,82.15511324639671
80232,Jefferson County,CO,86.38755433539235
80233,Adams County,CO,41.340654312514296
80238,Denver County,CO,85.81560283687944
80239,Denver County,CO,38.824067719057425
80246,Denver County,CO,76.13818348204072
80247,Arapahoe County,CO,22.191718142301532
80260,Adams County,CO,62.54861587737361
80302,Boulder County,CO,90.41409288492336
80304,Boulder County,CO,96.68268130862504
80401,Jefferson County,CO,52.57378174330817
80501,Boulder County,CO,8.625028597574925
80503,Boulder County,CO,48.47860901395561
80504,Boulder County,CO,47.12880347746511
80516,Weld County,CO,48.57012125371769
80526,Larimer County,CO,19.652253488904144
80528,Larimer County,CO,81.4687714481812
80534,Weld County,CO,53.12285518188058
80538,Larimer County,CO,4.438343628460307
80549,Larimer County,CO,91.83253260123541
80602,Adams County,CO,28.483184625943718
80610,Weld County,CO,99.31365820178449
80615,Weld County,CO,73.00388927018989
80620,Weld County,CO,60.146419583619306
80621,Weld County,CO,60.97002974147793
80631,Weld County,CO,77.76252573781744
80634,Weld County,CO,55.93685655456417
80701,Morgan County,CO,56.48592999313659
80723,Morgan County,CO,84.58018760009152
80751,Logan County,CO,24.731182795698924
80817,El Paso County,CO,34.29421185083505
80906,El Paso County,CO,44.086021505376344
80907,El Paso County,CO,34.17982155113247
80918,El Paso County,CO,27.751086707847172
81001,Pueblo County,CO,55.68519789521849
81003,Pueblo County,CO,50.583390528483186
81004,Pueblo County,CO,72.40905971173645
81008,Pueblo County,CO,90.84877602379319
81144,Rio Grande County,CO,94.21185083504918
81401,Montrose County,CO,89.86501944635094
81501,Mesa County,CO,76.13818348204072
81631,Eagle County,CO,96.01921757035004
06001,Hartford County,CT,67.35300846488218
06033,Hartford County,CT,38.57240905971174
06040,Hartford County,CT,3.568977350720659
06051,Hartford County,CT,1.2125371768474034
06052,Hartford County,CT,66.66666666666666
06053,Hartford County,CT,20.910546785632576
06070,Hartford County,CT,66.36925188743994
06082,Hartford County,CT,32.28094257606955
06098,Litchfield County,CT,29.32967284374285
06105,Hartford County,CT,35.781285746968656
06108,Hartford County,CT,44.88675360329444
06109,Hartford County,CT,45.75611988103409
06112,Hartford County,CT,49.119194692290094
06117,Hartford County,CT,56.71471059254175
06118,Hartford County,CT,72.08876687256921
06120,Hartford County,CT,65.2253488904141
06239,Windham County,CT,18.874399450926564
06260,Windham County,CT,66.32349576755891
06401,New Haven County,CT,15.374056280027453
06405,New Haven County,CT,57.65271105010296
06437,New Haven County,CT,45.2299245024022
06451,New Haven County,CT,11.576298329901624
06457,Middlesex County,CT,32.006405856783346
06460,New Haven County,CT,44.223289865019446
06484,Fairfield County,CT,18.760009151223976
06489,Hartford County,CT,15.236787920384351
06492,New Haven County,CT,9.082589796385268
06498,Middlesex County,CT,82.20086936627774
06511,New Haven County,CT,47.72363303591855
06512,New Haven County,CT,10.13498055364905
06513,New Haven County,CT,46.12216884008236
06516,New Haven County,CT,56.646076412720205
06517,New Haven County,CT,31.823381377259206
06519,New Haven County,CT,10.729810112102493
06604,Fairfield County,CT,33.10455273392816
06606,Fairfield County,CT,7.252345001143904
06607,Fairfield County,CT,70.35003431708992
06608,Fairfield County,CT,76.54998856097002
06610,Fairfield County,CT,42.530313429421184
06614,Fairfield County,CT,39.51040951727294
06615,Fairfield County,CT,79.40974605353466
06702,New Haven County,CT,73.89613360787006
06704,New Haven County,CT,9.608785175017157
06705,New Haven County,CT,10.157858613589568
06770,New Haven County,CT,10.981468771448181
06810,Fairfield County,CT,27.682452528025625
06820,Fairfield County,CT,91.6723861816518
06850,Fairfield County,CT,56.829100892244334
06851,Fairfield County,CT,72.36330359185541
06901,Fairfield County,CT,91.16906886296043
06902,Fairfield County,CT,68.6113017616106
06903,Fairfield County,CT,77.12194005948295
19702,New Castle County,DE,46.900022878059936
19709,New Castle County,DE,34.70601692976435
19720,New Castle County,DE,0.8007320979180965
19802,New Castle County,DE,70.3271562571494
19805,New Castle County,DE,0.8236101578586137
19808,New Castle County,DE,36.87943262411347
19901,Kent County,DE,50.14870738961336
19938,Kent County,DE,48.93617021276596
19940,Sussex County,DE,93.77716769617936
19943,Kent County,DE,50.37748798901853
19947,Sussex County,DE,26.607183710821324
19950,Sussex County,DE,74.3536948066804
19952,Kent County,DE,70.2127659574468
19956,Sussex County,DE,77.96842827728209
19960,Sussex County,DE,62.52573781743308
32011,Nassau County,FL,73.25554792953558
32025,Columbia County,FL,89.75062914664836
32038,Columbia County,FL,86.93662777396477
32043,Clay County,FL,26.630061770761838
32052,Hamilton County,FL,92.15282544040265
32055,Columbia County,FL,23.861816517959276
32064,Suwannee County,FL,94.85243651338367
32066,Lafayette County,FL,94.44063143445436
32073,Clay County,FL,38.32075040036605
32084,St. Johns County,FL,14.458933882406772
32097,Nassau County,FL,38.366506520247086
32112,Putnam County,FL,90.13955616563716
32113,Marion County,FL,70.51018073667353
32114,Volusia County,FL,57.78997940974605
32119,Volusia County,FL,60.85563944177533
32131,Putnam County,FL,93.70853351635782
32137,Flagler County,FL,68.15374056280027
32148,Putnam County,FL,65.04232441088995
32174,Volusia County,FL,77.55662319835278
32205,Duval County,FL,73.34706016929763
32206,Duval County,FL,68.93159460077786
32208,Duval County,FL,3.180050331731869
32209,Duval County,FL,56.142759094028825
32210,Duval County,FL,45.481583161747885
32211,Duval County,FL,35.11782200869366
32216,Duval County,FL,7.66415008007321
32218,Duval County,FL,53.51178220086936
32219,Duval County,FL,91.85541066117592
32221,Duval County,FL,14.619080301990392
32223,Duval County,FL,56.18851521390986
32224,Duval County,FL,40.26538549531
32226,Duval County,FL,26.24113475177305
32233,Duval County,FL,55.95973461450468
32244,Duval County,FL,40.47128803477465
32246,Duval County,FL,28.02562342713338
32250,Duval County,FL,41.27202013269275
32256,Duval County,FL,16.746739876458477
32259,St. Johns County,FL,26.424159231297185
32277,Duval County,FL,82.61267444520705
32301,Leon County,FL,47.90665751544269
32303,Leon County,FL,26.172500571951495
32304,Leon County,FL,92.56463051933196
32308,Leon County,FL,59.34568748570121
32310,Leon County,FL,49.32509723175475
32333,Gadsden County,FL,72.29466941203387
32344,Jefferson County,FL,83.80233356211393
32347,Taylor County,FL,76.6415008007321
32348,Taylor County,FL,64.79066575154427
32401,Bay County,FL,20.613132006405856
32404,Bay County,FL,11.233127430793868
32408,Bay County,FL,83.91672386181652
32421,Calhoun County,FL,83.230382063601
32425,Holmes County,FL,35.55250514756349
32428,Washington County,FL,34.61450469000229
32448,Jackson County,FL,39.76206817661862
32466,Bay County,FL,78.76916037520019
32514,Escambia County,FL,87.1196522534889
32533,Escambia County,FL,44.5664607641272
32534,Escambia County,FL,60.352322123083965
32536,Okaloosa County,FL,41.77533745138412
32539,Okaloosa County,FL,23.015328300160146
32547,Okaloosa County,FL,24.38801189659117
32563,Santa Rosa County,FL,16.998398535804164
32570,Santa Rosa County,FL,19.74376572866621
32578,Okaloosa County,FL,34.88904140928849
32605,Alachua County,FL,13.909860443834363
32609,Alachua County,FL,8.419126058110272
32641,Alachua County,FL,11.873713109128346
32656,Clay County,FL,54.24388011896591
32686,Marion County,FL,98.46716998398536
32701,Seminole County,FL,37.01670098375658
32703,Orange County,FL,57.65271105010296
32708,Seminole County,FL,61.862274079158084
32713,Volusia County,FL,73.48432852894075
32725,Volusia County,FL,51.269732326698694
32726,Lake County,FL,67.65042324410891
32736,Lake County,FL,68.54266758178906
32738,Volusia County,FL,52.45939144360558
32746,Seminole County,FL,34.47723633035918
32751,Orange County,FL,56.78334477236331
32763,Volusia County,FL,73.8274994280485
32771,Seminole County,FL,29.10089224433768
32773,Seminole County,FL,29.810112102493708
32784,Lake County,FL,67.42164264470372
32805,Orange County,FL,67.97071608327614
32808,Orange County,FL,47.42621825669183
32809,Orange County,FL,64.05856783344773
32810,Orange County,FL,72.86662091054679
32811,Orange County,FL,37.1768474033402
32812,Orange County,FL,19.263326469915352
32818,Orange County,FL,6.26858842370167
32820,Orange County,FL,95.9505833905285
32822,Orange County,FL,8.007320979180966
32824,Orange County,FL,25.120109814687712
32825,Orange County,FL,16.357812857469685
32828,Orange County,FL,20.01830244795241
32829,Orange County,FL,63.2120796156486
32837,Orange County,FL,34.591626630061775
32839,Orange County,FL,62.205444978265845
32909,Brevard County,FL,22.191718142301532
32926,Brevard County,FL,57.65271105010296
32927,Brevard County,FL,34.79752916952643
32935,Brevard County,FL,32.60123541523679
32958,Indian River County,FL,79.82155113246397
32960,Indian River County,FL,29.741477922672154
32967,Indian River County,FL,85.74696865705788
33004,Broward County,FL,63.39510409517273
33009,Broward County,FL,45.43582704186685
33010,Miami-Dade County,FL,77.92267215740105
33012,Miami-Dade County,FL,60.30656600320293
33013,Miami-Dade County,FL,95.76755891100434
33016,Miami-Dade County,FL,36.12445664607641
33020,Broward County,FL,15.030885380919697
33023,Broward County,FL,66.82681308625028
33025,Broward County,FL,14.893617021276595
33026,Broward County,FL,90.52848318462594
33028,Broward County,FL,69.70944863875543
33032,Miami-Dade County,FL,24.159231297185997
33033,Miami-Dade County,FL,74.99428048501487
33034,Miami-Dade County,FL,38.91557995881949
33050,Monroe County,FL,83.98535804163807
33054,Miami-Dade County,FL,65.75154426904598
33055,Miami-Dade County,FL,80.2562342713338
33056,Miami-Dade County,FL,56.280027453671934
33060,Broward County,FL,19.858156028368796
33063,Broward County,FL,74.65110958590712
33064,Broward County,FL,80.64516129032258
33065,Broward County,FL,78.08281857698466
33068,Broward County,FL,60.76412720201327
33069,Broward County,FL,79.27247769389156
33125,Miami-Dade County,FL,60.420956302905516
33126,Miami-Dade County,FL,89.24731182795699
33127,Miami-Dade County,FL,70.53305879661404
33134,Miami-Dade County,FL,62.663006177076184
33135,Miami-Dade County,FL,61.747883779455506
33136,Miami-Dade County,FL,31.68611301761611
33150,Miami-Dade County,FL,32.96728437428506
33157,Miami-Dade County,FL,69.61793639899336
33161,Miami-Dade County,FL,79.0665751544269
33162,Miami-Dade County,FL,72.52345001143902
33166,Miami-Dade County,FL,85.01487073896133
33167,Miami-Dade County,FL,45.0926561427591
33168,Miami-Dade County,FL,53.76344086021505
33169,Miami-Dade County,FL,24.571036376115305
33172,Miami-Dade County,FL,89.01853122855182
33175,Miami-Dade County,FL,37.29123770304278
33176,Miami-Dade County,FL,51.52139098604438
33177,Miami-Dade County,FL,59.98627316403569
33178,Miami-Dade County,FL,57.17227179135209
33179,Miami-Dade County,FL,42.71333790894532
33183,Miami-Dade County,FL,93.36536261725006
33186,Miami-Dade County,FL,66.4378860672615
33187,Miami-Dade County,FL,69.70944863875543
33196,Miami-Dade County,FL,92.24433768016472
33308,Broward County,FL,86.68496911461908
33309,Broward County,FL,39.693433996797076
33311,Broward County,FL,56.07412491420728
33312,Broward County,FL,78.9293067947838
33313,Broward County,FL,88.28643331045527
33317,Broward County,FL,92.70189887897506
33319,Broward County,FL,24.571036376115305
33321,Broward County,FL,70.55593685655457
33322,Broward County,FL,54.7700754975978
33325,Broward County,FL,91.16906886296043
33326,Broward County,FL,67.19286204529857
33330,Broward County,FL,86.63921299473805
33334,Broward County,FL,34.47723633035918
33401,Palm Beach County,FL,87.98901853122855
33403,Palm Beach County,FL,89.56760466712423
33404,Palm Beach County,FL,53.39739190116678
33406,Palm Beach County,FL,86.4333104552734
33407,Palm Beach County,FL,14.527568062228324
33412,Palm Beach County,FL,88.30931137039579
33417,Palm Beach County,FL,71.85998627316404
33428,Palm Beach County,FL,51.63578128574697
33435,Palm Beach County,FL,28.57469686570579
33436,Palm Beach County,FL,37.863189201555706
33440,Hendry County,FL,66.14047128803477
33441,Broward County,FL,37.54289636238847
33458,Palm Beach County,FL,11.256005490734386
33460,Palm Beach County,FL,77.35072065888812
33461,Palm Beach County,FL,84.6945778997941
33463,Palm Beach County,FL,30.610844200411808
33467,Palm Beach County,FL,71.08213223518646
33471,Glades County,FL,92.10706932052162
33477,Palm Beach County,FL,95.12697323266987
33511,Hillsborough County,FL,20.636010066346376
33523,Pasco County,FL,79.6156485929993
33540,Pasco County,FL,80.59940517044156
33542,Pasco County,FL,36.513383665065206
33545,Pasco County,FL,77.53374513841226
33563,Hillsborough County,FL,78.22008693662778
33565,Hillsborough County,FL,55.89110043468314
33567,Hillsborough County,FL,60.215053763440864
33570,Hillsborough County,FL,46.25943719972546
33572,Hillsborough County,FL,70.09837565774423
33573,Hillsborough County,FL,96.84282772820865
33602,Hillsborough County,FL,75.20018302447953
33604,Hillsborough County,FL,10.889956531686112
33605,Hillsborough County,FL,37.15396934339968
33606,Hillsborough County,FL,92.47311827956989
33607,Hillsborough County,FL,32.66986959505834
33610,Hillsborough County,FL,5.284831846259437
33612,Hillsborough County,FL,3.774879890185312
33613,Hillsborough County,FL,57.88149164950812
33614,Hillsborough County,FL,18.554106611759323
33615,Hillsborough County,FL,43.582704186684964
33616,Hillsborough County,FL,81.14847860901395
33617,Hillsborough County,FL,17.387325554792955
33619,Hillsborough County,FL,50.76641500800733
33705,Pinellas County,FL,81.40013726835964
33711,Pinellas County,FL,37.108213223518646
33712,Pinellas County,FL,18.64561885152139
33714,Pinellas County,FL,36.87943262411347
33755,Pinellas County,FL,59.894760924273626
33759,Pinellas County,FL,57.65271105010296
33801,Polk County,FL,82.93296728437429
33805,Polk County,FL,22.374742621825668
33813,Polk County,FL,42.4159231297186
33823,Polk County,FL,18.622740791580874
33825,Highlands County,FL,33.0130404941661
33830,Polk County,FL,19.011667810569662
33844,Polk County,FL,20.84191260581103
33860,Polk County,FL,73.89613360787006
33880,Polk County,FL,10.68405399222146
33881,Polk County,FL,53.534660260809886
33884,Polk County,FL,40.86021505376344
33901,Lee County,FL,34.61450469000229
33904,Lee County,FL,54.221002059025395
33912,Lee County,FL,74.05628002745367
33914,Lee County,FL,22.946694120338595
33916,Lee County,FL,20.956302905513613
33919,Lee County,FL,40.05948295584535
33935,Hendry County,FL,85.86135895676047
33947,Charlotte County,FL,87.920384351407
33948,Charlotte County,FL,70.89910775566231
33954,Charlotte County,FL,95.33287577213451
33971,Lee County,FL,38.64104323953329
33972,Lee County,FL,75.3145733241821
33973,Lee County,FL,77.46511095859071
33974,Lee County,FL,67.51315488446579
33976,Lee County,FL,55.95973461450468
33982,Charlotte County,FL,60.6726149622512
33990,Lee County,FL,19.606497369023106
33991,Lee County,FL,88.69823838938457
34104,Collier County,FL,34.820407229466944
34117,Collier County,FL,48.47860901395561
34119,Collier County,FL,24.959963395104097
34120,Collier County,FL,18.94303363074811
34142,Collier County,FL,71.37954701441318
34203,Manatee County,FL,82.06360100663463
34205,Manatee County,FL,17.478837794555023
34208,Manatee County,FL,12.674445207046443
34221,Manatee County,FL,86.75360329444062
34234,Sarasota County,FL,73.48432852894075
34266,DeSoto County,FL,52.04758636467628
34288,Sarasota County,FL,74.83413406543124
34420,Marion County,FL,81.44589338824068
34428,Citrus County,FL,75.61198810340883
34432,Marion County,FL,82.5440402653855
34436,Citrus County,FL,94.28048501487073
34442,Citrus County,FL,67.90208190345459
34446,Citrus County,FL,88.81262868908718
34452,Citrus County,FL,46.076412720201326
34471,Marion County,FL,87.78311599176389
34472,Marion County,FL,20.086936627773966
34475,Marion County,FL,76.52711050102951
34476,Marion County,FL,73.78174330816746
34479,Marion County,FL,87.73735987188287
34482,Marion County,FL,46.76275451841684
34602,Hernando County,FL,87.09677419354838
34607,Hernando County,FL,85.88423701670098
34608,Hernando County,FL,54.93022191718142
34638,Pasco County,FL,53.260123541523676
34653,Pasco County,FL,64.8364218714253
34654,Pasco County,FL,63.39510409517273
34667,Pasco County,FL,26.401281171356665
34668,Pasco County,FL,42.18714253031343
34695,Pinellas County,FL,58.01876000915123
34698,Pinellas County,FL,81.94921070693205
34705,Lake County,FL,99.88560970029742
34711,Lake County,FL,9.67741935483871
34715,Lake County,FL,69.54930221917182
34731,Lake County,FL,90.75726378403111
34736,Lake County,FL,83.91672386181652
34741,Osceola County,FL,78.1285746968657
34743,Osceola County,FL,29.215282544040267
34746,Osceola County,FL,19.0574239304507
34748,Lake County,FL,8.487760237931823
34758,Osceola County,FL,9.700297414779227
34772,Osceola County,FL,49.82841455044612
34785,Sumter County,FL,93.52550903683368
34787,Orange County,FL,79.43262411347519
34946,St. Lucie County,FL,67.92495996339511
34947,St. Lucie County,FL,68.77144818119424
34950,St. Lucie County,FL,97.66643788606726
34951,St. Lucie County,FL,90.02516586593457
34952,St. Lucie County,FL,11.644932509723176
34953,St. Lucie County,FL,1.6700983756577443
34957,Martin County,FL,30.97689315946008
34972,Okeechobee County,FL,93.34248455730953
34986,St. Lucie County,FL,30.359185541066118
34997,Martin County,FL,14.596202242049875
30005,Fulton County,GA,80.2791123312743
30012,Rockdale County,GA,81.85769846716998
30014,Newton County,GA,12.85746968657058
30016,Newton County,GA,43.468313886982386
30017,Gwinnett County,GA,47.83802333562114
30024,Gwinnett County,GA,9.059711736444749
30034,DeKalb County,GA,14.779226721574009
30035,DeKalb County,GA,39.418897277510865
30039,Gwinnett County,GA,21.98581560283688
30044,Gwinnett County,GA,98.26126744452071
30045,Gwinnett County,GA,39.23587279798673
30052,Walton County,GA,7.366735300846488
30058,DeKalb County,GA,8.762296957218028
30060,Cobb County,GA,21.551132463967054
30068,Cobb County,GA,58.430565088080535
30075,Fulton County,GA,21.299473804621368
30080,Cobb County,GA,33.790894532143675
30083,DeKalb County,GA,62.4113475177305
30084,DeKalb County,GA,45.0926561427591
30092,Gwinnett County,GA,75.29169526424158
30094,Rockdale County,GA,77.62525737817433
30096,Gwinnett County,GA,12.880347746511095
30097,Fulton County,GA,42.34728894989705
30106,Cobb County,GA,88.37794555021733
30108,Carroll County,GA,91.30633722260353
30116,Carroll County,GA,63.715396934339964
30121,Bartow County,GA,35.80416380690917
30127,Cobb County,GA,7.458247540608556
30132,Paulding County,GA,17.02127659574468
30135,Douglas County,GA,5.147563486616335
30144,Cobb County,GA,18.782887211164493
30153,Polk County,GA,24.113475177304963
30165,Floyd County,GA,11.988103408830932
30176,Haralson County,GA,69.64081445893389
30179,Carroll County,GA,84.00823610157858
30180,Carroll County,GA,10.340883093113703
30185,Carroll County,GA,93.8458018760009
30187,Douglas County,GA,64.10432395332876
30188,Cherokee County,GA,9.563029055136123
30213,Fulton County,GA,35.00343170899108
30215,Fayette County,GA,43.81148478609014
30223,Spalding County,GA,53.39739190116678
30228,Henry County,GA,15.48844657973004
30233,Butts County,GA,40.35689773507207
30241,Troup County,GA,42.87348432852894
30253,Henry County,GA,12.674445207046443
30281,Henry County,GA,12.514298787462824
30296,Clayton County,GA,74.69686570578816
30297,Clayton County,GA,71.28803477465111
30308,Fulton County,GA,95.1727293525509
30310,Fulton County,GA,10.363761153054222
30315,Fulton County,GA,44.84099748341341
30316,DeKalb County,GA,34.88904140928849
30328,Fulton County,GA,49.3937314115763
30331,Fulton County,GA,7.023564401738732
30339,Cobb County,GA,61.49622512010981
30341,DeKalb County,GA,52.93983070235644
30344,Fulton County,GA,25.98947609242736
30349,Fulton County,GA,47.2431937771677
30354,Fulton County,GA,48.13543811484786
30401,Emanuel County,GA,56.09700297414779
30415,Bulloch County,GA,74.4909631663235
30458,Bulloch County,GA,49.00480439258751
30461,Bulloch County,GA,61.381834820407235
30467,Screven County,GA,40.42553191489361
30474,Toombs County,GA,41.18050789293068
30504,Hall County,GA,93.98307023564402
30507,Hall County,GA,25.71493937314116
30519,Gwinnett County,GA,28.23152596659803
30531,Habersham County,GA,96.47677876916038
30540,Gilmer County,GA,65.13383665065203
30566,Hall County,GA,81.97208876687256
30606,Clarke County,GA,21.3452299245024
30633,Madison County,GA,91.87828872111645
30680,Barrow County,GA,8.853809196980096
30701,Gordon County,GA,15.762983299016241
30705,Murray County,GA,65.15671471059254
30741,Walker County,GA,53.05422100205902
30809,Columbia County,GA,70.62457103637611
30815,Richmond County,GA,55.09036833676504
30901,Richmond County,GA,80.16472203157173
30906,Richmond County,GA,15.259665980324868
30909,Richmond County,GA,12.582932967284375
31015,Crisp County,GA,63.989933653626174
31021,Laurens County,GA,22.2832303820636
31023,Dodge County,GA,61.29032258064516
31024,Putnam County,GA,37.931823381377264
31027,Laurens County,GA,78.9293067947838
31036,Pulaski County,GA,90.55136124456646
31055,Telfair County,GA,96.33951040951727
31063,Macon County,GA,91.03180050331731
31088,Houston County,GA,28.11713566689545
31204,Bibb County,GA,16.403568977350723
31206,Bibb County,GA,15.191031800503318
31210,Bibb County,GA,43.353923587279795
31216,Bibb County,GA,71.24227865477008
31217,Bibb County,GA,44.54358270418668
31220,Bibb County,GA,69.02310684053992
31305,McIntosh County,GA,97.32326698695951
31313,Liberty County,GA,47.42621825669183
31316,Long County,GA,87.76023793182338
31320,Liberty County,GA,86.9823838938458
31404,Chatham County,GA,33.51635781285747
31405,Chatham County,GA,31.04552733928163
31419,Chatham County,GA,17.913520933424845
31503,Ware County,GA,33.37908945321437
31516,Pierce County,GA,52.04758636467628
31520,Glynn County,GA,66.80393502630977
31523,Glynn County,GA,74.30793868679936
31537,Charlton County,GA,78.83779455502173
31545,Wayne County,GA,57.51544269045985
31546,Wayne County,GA,75.52047586364677
31558,Camden County,GA,79.56989247311827
31636,Lowndes County,GA,72.66071837108214
31701,Dougherty County,GA,27.31640356897735
31707,Dougherty County,GA,80.02745367192861
31709,Sumter County,GA,37.01670098375658
31757,Thomas County,GA,90.82589796385267
31792,Thomas County,GA,17.86776481354381
31794,Tift County,GA,42.71333790894532
31833,Troup County,GA,64.19583619309083
31904,Muscogee County,GA,15.877373598718828
31907,Muscogee County,GA,59.231297185998635
39817,Decatur County,GA,87.14253031342942
39819,Decatur County,GA,67.49027682452528
96706,Honolulu County,HI,39.55616563715397
96720,Hawaii County,HI,84.19126058110272
96732,Maui County,HI,64.9508121711279
96744,Honolulu County,HI,8.396247998169756
96746,Kauai County,HI,48.86753603294441
96753,Maui County,HI,86.89087165408374
96782,Honolulu County,HI,19.42347288949897
96789,Honolulu County,HI,9.494394875314573
96792,Honolulu County,HI,4.41546556851979
96795,Honolulu County,HI,61.99954243880119
96817,Honolulu County,HI,4.278197208876687
96822,Honolulu County,HI,22.466254861587736
83202,Bannock County,ID,68.06222832303821
83204,Bannock County,ID,81.30862502859758
83301,Twin Falls County,ID,1.1439029970258523
83330,Gooding County,ID,79.77579501258293
83338,Jerome County,ID,36.467627545184165
83341,Twin Falls County,ID,98.1239990848776
83350,Minidoka County,ID,83.96247998169756
83401,Bonneville County,ID,26.767330130404943
83402,Bonneville County,ID,33.69938229238161
83440,Madison County,ID,54.861587737359876
83501,Nez Perce County,ID,5.239075726378403
83605,Canyon County,ID,42.57606954930222
83607,Canyon County,ID,21.413864104323956
83646,Ada County,ID,41.72958133150309
83651,Canyon County,ID,30.427819720887666
83687,Canyon County,ID,36.376115305422104
83704,Ada County,ID,6.749027682452528
83705,Ada County,ID,14.344543582704187
83709,Ada County,ID,61.702127659574465
83713,Ada County,ID,19.3319606497369
83801,Kootenai County,ID,80.73667353008464
83814,Kootenai County,ID,49.14207275223061
83854,Kootenai County,ID,16.72386181651796
83861,Benewah County,ID,89.08716540837337
60031,Lake County,IL,29.924502402196296
60033,McHenry County,IL,54.7700754975978
60042,McHenry County,IL,69.0002287805994
60067,Cook County,IL,59.66598032486845
60068,Cook County,IL,23.015328300160146
60073,Lake County,IL,6.108442004118051
60077,Cook County,IL,41.54655685197895
60089,Lake County,IL,22.626401281171358
60093,Cook County,IL,63.852665293983065
60103,DuPage County,IL,74.7654998856097
60108,DuPage County,IL,40.76870281400137
60123,Kane County,IL,35.23221230839625
60124,Kane County,IL,45.939144360558224
60133,Cook County,IL,26.172500571951495
60140,Kane County,IL,58.49919926790208
60142,McHenry County,IL,24.502402196293755
60145,DeKalb County,IL,97.43765728666209
60148,DuPage County,IL,46.19080301990392
60153,Cook County,IL,21.962937542896363
60160,Cook County,IL,33.21894303363075
60174,Kane County,IL,62.09105467856326
60178,DeKalb County,IL,36.62777396476779
60201,Cook County,IL,76.20681766186227
60403,Will County,IL,41.54655685197895
60408,Will County,IL,83.80233356211393
60416,Grundy County,IL,43.033630748112564
60425,Cook County,IL,88.92701898878975
60431,Will County,IL,23.198352779684285
60432,Will County,IL,38.526652939830704
60433,Will County,IL,43.7657286662091
60435,Will County,IL,52.55090368336766
60438,Cook County,IL,60.6726149622512
60440,Will County,IL,53.74056280027454
60441,Will County,IL,9.860443834362846
60446,Will County,IL,46.579730038892706
60453,Cook County,IL,5.193319606497369
60466,Cook County,IL,64.85929993136583
60473,Cook County,IL,83.13886982383893
60482,Cook County,IL,54.381148478609006
60487,Cook County,IL,70.14413177762526
60490,Will County,IL,43.01075268817204
60503,Will County,IL,70.89910775566231
60504,DuPage County,IL,18.897277510867077
60506,Kane County,IL,40.56280027453672
60510,Kane County,IL,18.73713109128346
60516,DuPage County,IL,27.476549988560972
60517,DuPage County,IL,22.35186456188515
60544,Will County,IL,54.12948981926332
60560,Kendall County,IL,25.440402653854953
60565,DuPage County,IL,15.579958819492107
60608,Cook County,IL,21.2079615648593
60609,Cook County,IL,20.10981468771448
60612,Cook County,IL,7.618393960192176
60614,Cook County,IL,9.585907115076642
60617,Cook County,IL,2.2420498741706703
60619,Cook County,IL,1.8988789750629147
60622,Cook County,IL,19.789521848547242
60624,Cook County,IL,5.971173644474949
60629,Cook County,IL,27.728208647906662
60630,Cook County,IL,10.638297872340425
60639,Cook County,IL,3.157172271791352
60643,Cook County,IL,17.227179135209333
60649,Cook County,IL,25.60054907343857
60651,Cook County,IL,2.722489132921528
60655,Cook County,IL,14.25303134294212
60657,Cook County,IL,8.945321436742164
60707,Cook County,IL,33.58499199267902
60901,Kankakee County,IL,6.451612903225806
60914,Kankakee County,IL,17.1814230153283
61068,Ogle County,IL,51.8188057652711
61073,Winnebago County,IL,47.769389155799594
61111,Winnebago County,IL,31.914893617021278
61244,Rock Island County,IL,48.730267673301306
61604,Peoria County,IL,23.244108899565315
61704,McLean County,IL,21.070693205216198
61705,McLean County,IL,67.92495996339511
61764,Livingston County,IL,81.21711278883551
61822,Champaign County,IL,99.22214596202242
61832,Vermilion County,IL,19.49210706932052
61856,Piatt County,IL,96.08785175017158
61920,Coles County,IL,36.78792038435141
61944,Edgar County,IL,64.26447037291237
62269,St. Clair County,IL,50.56051246854266
62301,Adams County,IL,17.73049645390071
62629,Sangamon County,IL,84.76321207961564
62650,Morgan County,IL,34.40860215053764
62966,Jackson County,IL,47.10592541752459
46013,Madison County,IN,17.410203614733472
46016,Madison County,IN,95.42438801189658
46060,Hamilton County,IN,15.94600777854038
46112,Hendricks County,IN,69.02310684053992
46113,Marion County,IN,50.285975749256465
46123,Hendricks County,IN,29.810112102493708
46124,Johnson County,IN,70.67032715625714
46131,Johnson County,IN,15.374056280027453
46142,Johnson County,IN,75.61198810340883
46143,Johnson County,IN,58.750857927247765
46151,Morgan County,IN,60.37520018302448
46176,Shelby County,IN,6.085563944177533
46203,Marion County,IN,74.3536948066804
46204,Marion County,IN,57.904369709448645
46205,Marion County,IN,19.537863189201556
46208,Marion County,IN,50.44612216884008
46218,Marion County,IN,37.08533516357812
46219,Marion County,IN,23.54152367879204
46220,Marion County,IN,61.58773735987189
46221,Marion County,IN,14.71059254175246
46224,Marion County,IN,15.831617478837796
46226,Marion County,IN,56.5088080530771
46227,Marion County,IN,36.970944863875545
46228,Marion County,IN,66.4378860672615
46234,Marion County,IN,43.17089910775566
46235,Marion County,IN,67.14710592541752
46237,Marion County,IN,74.67398764584763
46240,Marion County,IN,80.89681994966827
46241,Marion County,IN,67.69617936398994
46250,Marion County,IN,65.3626172500572
46254,Marion County,IN,9.654541294898193
46256,Marion County,IN,80.73667353008464
46260,Marion County,IN,77.07618393960192
46268,Marion County,IN,26.69869595058339
46280,Hamilton County,IN,96.47677876916038
46304,Porter County,IN,4.64424616792496
46307,Lake County,IN,14.115762983299016
46312,Lake County,IN,62.91466483642188
46319,Lake County,IN,62.31983527796843
46320,Lake County,IN,50.080073209791806
46321,Lake County,IN,50.53763440860215
46322,Lake County,IN,59.597346145046906
46324,Lake County,IN,6.6575154426904595
46342,Lake County,IN,1.62434225577671
46347,Porter County,IN,85.40379775795013
46360,LaPorte County,IN,60.37520018302448
46368,Porter County,IN,0.7778540379775795
46373,Lake County,IN,14.939373141157631
46375,Lake County,IN,47.334706016929765
46385,Porter County,IN,15.00800732097918
46404,Lake County,IN,17.25005719514985
46405,Lake County,IN,56.89773507206589
46410,Lake County,IN,2.1505376344086025
46514,Elkhart County,IN,44.81811942347289
46516,Elkhart County,IN,6.703271562571494
46526,Elkhart County,IN,70.89910775566231
46528,Elkhart County,IN,61.15305422100206
46540,Elkhart County,IN,81.72043010752688
46544,St. Joseph County,IN,29.627087622969572
46545,St. Joseph County,IN,29.810112102493708
46552,St. Joseph County,IN,96.88858384808968
46613,St. Joseph County,IN,77.83115991763898
46619,St. Joseph County,IN,69.09174102036147
46628,St. Joseph County,IN,30.793868679935944
46703,Steuben County,IN,32.73850377487989
46706,DeKalb County,IN,61.747883779455506
46714,Wells County,IN,71.99725463280714
46721,DeKalb County,IN,95.47014413177763
46725,Whitley County,IN,15.122397620681765
46750,Huntington County,IN,66.87256920613132
46767,Noble County,IN,80.8053077099062
46774,Allen County,IN,42.39304506977808
46805,Allen County,IN,48.24982841455044
46806,Allen County,IN,73.59871882864333
46807,Allen County,IN,66.7124227865477
46808,Allen County,IN,93.66277739647678
46809,Allen County,IN,38.20636010066346
46815,Allen County,IN,48.1811942347289
46818,Allen County,IN,73.46145046900023
46825,Allen County,IN,72.02013269274765
46901,Howard County,IN,45.024021962937546
46902,Howard County,IN,8.373369938229239
46923,Carroll County,IN,96.20224204987417
46936,Howard County,IN,63.32646991535118
46947,Cass County,IN,4.392587508579273
46953,Grant County,IN,55.776710134980554
46970,Miami County,IN,3.2944406314344548
46992,Wabash County,IN,17.593228094257608
47024,Franklin County,IN,90.57423930450697
47025,Dearborn County,IN,74.01052390757263
47122,Floyd County,IN,84.0311141615191
47130,Clark County,IN,3.24868451155342
47150,Floyd County,IN,20.132692747655
47170,Scott County,IN,41.043239533287576
47201,Bartholomew County,IN,23.106840539922217
47203,Bartholomew County,IN,85.22077327842598
47274,Jackson County,IN,63.532372454815835
47302,Delaware County,IN,31.548844657973003
47305,Delaware County,IN,91.03180050331731
47336,Jay County,IN,98.00960878517502
47362,Henry County,IN,55.845344314802105
47371,Jay County,IN,69.45778997940974
47374,Wayne County,IN,56.966369251887436
47401,Monroe County,IN,47.929535575383206
47403,Monroe County,IN,44.17753374513841
47512,Knox County,IN,98.60443834362846
47546,Dubois County,IN,33.90528483184626
47581,Martin County,IN,98.19263326469915
47620,Posey County,IN,55.1590025165866
47670,Gibson County,IN,65.3626172500572
47710,Vanderburgh County,IN,51.681537405628
47713,Vanderburgh County,IN,76.43559826126744
47714,Vanderburgh County,IN,69.5264241592313
47715,Vanderburgh County,IN,15.030885380919697
47802,Vigo County,IN,10.706932052161978
47803,Vigo County,IN,42.82772820864791
47804,Vigo County,IN,74.12491420727522
47805,Vigo County,IN,75.08579272477694
47807,Vigo County,IN,62.45710363761153
47834,Clay County,IN,16.380690917410202
47882,Sullivan County,IN,63.34934797529169
47905,Tippecanoe County,IN,74.14779226721573
47906,Tippecanoe County,IN,36.87943262411347
47909,Tippecanoe County,IN,87.21116449325098
47933,Montgomery County,IN,16.2434225577671
50021,Polk County,IA,60.146419583619306
50049,Lucas County,IA,85.28940745824755
50158,Marshall County,IA,12.399908487760237
50208,Jasper County,IA,38.43514070006863
50310,Polk County,IA,8.9910775566232
50314,Polk County,IA,27.133379089453214
50315,Polk County,IA,2.7911233127430792
50317,Polk County,IA,4.026538549531
50320,Polk County,IA,30.199039121482496
50321,Polk County,IA,82.04072294669412
50322,Polk County,IA,75.45184168382522
50401,Cerro Gordo County,IA,23.152596659803248
50501,Webster County,IA,39.25875085792725
50588,Buena Vista County,IA,82.70418668496912
50595,Hamilton County,IA,65.52276366964081
50644,Buchanan County,IA,93.4339967970716
50702,Black Hawk County,IA,83.20750400366049
50703,Black Hawk County,IA,13.795470144131777
51106,Woodbury County,IA,30.26767330130405
51108,Woodbury County,IA,97.50629146648365
51501,Pottawattamie County,IA,1.029512697323267
51503,Pottawattamie County,IA,2.7453671928620453
51510,Pottawattamie County,IA,83.39052848318462
51537,Shelby County,IA,51.75017158544956
51560,Pottawattamie County,IA,98.62731640356898
52057,Delaware County,IA,91.69526424159231
52240,Johnson County,IA,35.14070006863418
52241,Johnson County,IA,28.34591626630062
52302,Linn County,IA,55.616563715396936
52310,Jones County,IA,85.08350491878288
52317,Johnson County,IA,32.83001601464196
52402,Linn County,IA,7.847174559597346
52403,Linn County,IA,25.07435369480668
52501,Wapello County,IA,25.94371997254633
52544,Appanoose County,IA,24.45664607641272
52577,Mahaska County,IA,80.43925875085792
52627,Lee County,IA,26.56142759094029
52653,Louisa County,IA,99.336536261725
52732,Clinton County,IA,56.18851521390986
52761,Muscatine County,IA,3.980782429649966
52776,Muscatine County,IA,95.21848547243194
52802,Scott County,IA,88.12628689087165
52803,Scott County,IA,18.462594371997255
52804,Scott County,IA,6.291466483642187
52806,Scott County,IA,55.38778311599176
66061,Johnson County,KS,8.258979638526654
66086,Leavenworth County,KS,83.52779684282773
66109,Wyandotte County,KS,35.1635781285747
66210,Johnson County,KS,62.70876229695722
66605,Shawnee County,KS,31.43445435827042
66606,Shawnee County,KS,71.60832761381835
66609,Shawnee County,KS,88.62960420956303
66614,Shawnee County,KS,18.142301532830015
66618,Shawnee County,KS,83.11599176389842
67205,Sedgwick County,KS,82.29238160603981
67207,Sedgwick County,KS,70.2127659574468
67208,Sedgwick County,KS,65.9116906886296
67212,Sedgwick County,KS,45.52733928162892
67218,Sedgwick County,KS,61.29032258064516
67401,Saline County,KS,8.89956531686113
67544,Barton County,KS,99.56531686113017
67701,Thomas County,KS,62.365591397849464
67801,Ford County,KS,40.1281171356669
40004,Nelson County,KY,7.572637840311142
40019,Henry County,KY,90.13955616563716
40031,Oldham County,KY,16.563715396934338
40047,Bullitt County,KY,14.573324182109356
40065,Shelby County,KY,23.77030427819721
40165,Bullitt County,KY,25.897963852665296
40203,Jefferson County,KY,35.98718828643331
40212,Jefferson County,KY,60.64973690231068
40213,Jefferson County,KY,18.210935712651565
40214,Jefferson County,KY,30.221917181423013
40215,Jefferson County,KY,7.526881720430108
40216,Jefferson County,KY,17.890642873484328
40218,Jefferson County,KY,25.211622054449784
40219,Jefferson County,KY,4.621368107984443
40220,Jefferson County,KY,20.65888812628689
40241,Jefferson County,KY,32.463967055593685
40258,Jefferson County,KY,36.60489590482727
40272,Jefferson County,KY,4.964539007092199
40330,Mercer County,KY,68.33676504232442
40336,Estill County,KY,68.88583848089682
40353,Montgomery County,KY,35.80416380690917
40361,Bourbon County,KY,19.309082589796386
40380,Powell County,KY,56.89773507206589
40422,Boyle County,KY,29.5355753832075
40444,Garrard County,KY,40.814458933882406
40484,Lincoln County,KY,93.50263097689316
40503,Fayette County,KY,50.17158544955388
40504,Fayette County,KY,24.91420727522306
40505,Fayette County,KY,38.16060398078243
40511,Fayette County,KY,21.82566918325326
40515,Fayette County,KY,30.931137039579042
40517,Fayette County,KY,55.54792953557538
40701,Whitley County,KY,20.384351407000686
40741,Laurel County,KY,9.700297414779227
40769,Whitley County,KY,48.821779913063374
40828,Harlan County,KY,90.11667810569664
40962,Clay County,KY,31.64035689773507
40965,Bell County,KY,61.95378631892016
41011,Kenton County,KY,5.216197666437886
41014,Kenton County,KY,67.83344772363303
41017,Kenton County,KY,46.648364218714256
41018,Kenton County,KY,11.759322809425761
41031,Harrison County,KY,89.1329215282544
41041,Fleming County,KY,84.32852894074583
41042,Boone County,KY,12.148249828414551
41051,Kenton County,KY,80.46213681079844
41073,Campbell County,KY,90.36833676504233
41094,Boone County,KY,63.30359185541066
41102,Boyd County,KY,9.105467856325783
41169,Greenup County,KY,51.910318005033176
41179,Lewis County,KY,43.033630748112564
41230,Lawrence County,KY,60.83276138183482
41240,Johnson County,KY,38.06909174102036
41465,Magoffin County,KY,39.922214596202245
41501,Pike County,KY,22.626401281171358
41562,Pike County,KY,93.38824067719057
41701,Perry County,KY,16.083276138183482
41858,Letcher County,KY,39.07572637840311
42025,Marshall County,KY,25.440402653854953
42041,Fulton County,KY,77.69389155799588
42058,Livingston County,KY,99.79409746053534
42101,Warren County,KY,55.41066117593228
42141,Barren County,KY,23.404255319148938
42164,Allen County,KY,21.322351864561888
42171,Warren County,KY,88.94989704873026
42217,Christian County,KY,88.62960420956303
42240,Christian County,KY,1.9446350949439486
42276,Logan County,KY,37.199725463280714
42330,Muhlenberg County,KY,81.10272248913292
42345,Muhlenberg County,KY,69.29764355982613
42408,Hopkins County,KY,87.34843285289408
42413,Hopkins County,KY,98.14687714481812
42420,Henderson County,KY,49.988560970029745
42431,Hopkins County,KY,37.268359643102265
42437,Union County,KY,62.61725005719515
42442,Hopkins County,KY,98.46716998398536
42445,Caldwell County,KY,52.825440402653854
42459,Union County,KY,88.44657973003889
42503,Pulaski County,KY,59.48295584534431
42518,Pulaski County,KY,98.10112102493709
42701,Hardin County,KY,65.75154426904598
42718,Taylor County,KY,4.529855868222374
42728,Adair County,KY,34.27133379089453
42754,Grayson County,KY,13.269274765499887
70001,Jefferson Parish,LA,63.692518874399454
70002,Jefferson Parish,LA,28.391672386181654
70003,Jefferson Parish,LA,47.334706016929765
70005,Jefferson Parish,LA,49.32509723175475
70006,Jefferson Parish,LA,66.00320292839167
70037,Plaquemines Parish,LA,93.04506977808282
70041,Plaquemines Parish,LA,94.73804621368109
70043,St. Bernard Parish,LA,46.39670555936857
70053,Jefferson Parish,LA,87.46282315259666
70056,Jefferson Parish,LA,36.78792038435141
70058,Jefferson Parish,LA,89.84214138641043
70065,Jefferson Parish,LA,96.43102264927934
70068,St. John the Baptist Parish,LA,90.41409288492336
70071,St. James Parish,LA,76.93891557995882
70072,Jefferson Parish,LA,79.13520933424846
70085,St. Bernard Parish,LA,78.63189201555709
70090,St. James Parish,LA,94.60077785403797
70092,St. Bernard Parish,LA,77.16769617936399
70112,Orleans Parish,LA,74.26218256691833
70113,Orleans Parish,LA,87.32555479295355
70114,Orleans Parish,LA,63.94417753374514
70116,Orleans Parish,LA,30.86250285975749
70117,Orleans Parish,LA,56.60032029283917
70118,Orleans Parish,LA,88.9956531686113
70119,Orleans Parish,LA,86.73072523450011
70123,Jefferson Parish,LA,31.594600777854037
70125,Orleans Parish,LA,98.28414550446122
70126,Orleans Parish,LA,87.00526195378632
70127,Orleans Parish,LA,92.45024021962938
70128,Orleans Parish,LA,29.42118508350492
70131,Orleans Parish,LA,92.72477693891558
70301,Lafourche Parish,LA,73.9647677876916
70339,Assumption Parish,LA,85.3580416380691
70345,Lafourche Parish,LA,77.9913063372226
70359,Terrebonne Parish,LA,15.694349119194692
70360,Terrebonne Parish,LA,3.7977579501258294
70363,Terrebonne Parish,LA,68.10798444291925
70364,Terrebonne Parish,LA,79.84442919240449
70374,Lafourche Parish,LA,96.06497369023107
70380,St. Mary Parish,LA,9.540150995195608
70394,Lafourche Parish,LA,8.44200411805079
70401,Tangipahoa Parish,LA,12.033859528711965
70403,Tangipahoa Parish,LA,87.69160375200184
70426,Washington Parish,LA,98.83321894303363
70433,St. Tammany Parish,LA,1.990391214824983
70438,Washington Parish,LA,44.13177762525738
70443,Tangipahoa Parish,LA,84.12262640128118
70446,Tangipahoa Parish,LA,98.16975520475863
70448,St. Tammany Parish,LA,21.253717684740334
70452,St. Tammany Parish,LA,81.35438114847861
70454,Tangipahoa Parish,LA,2.8597574925646305
70458,St. Tammany Parish,LA,11.91946922900938
70460,St. Tammany Parish,LA,67.76481354381148
70462,Livingston Parish,LA,99.54243880118966
70471,St. Tammany Parish,LA,90.89453214367421
70501,Lafayette Parish,LA,53.717684740334015
70506,Lafayette Parish,LA,12.445664607641271
70510,Vermilion Parish,LA,80.3935026309769
70517,St. Martin Parish,LA,79.54701441317776
70518,Lafayette Parish,LA,94.55502173415694
70520,Lafayette Parish,LA,98.97048730267673
70535,St. Landry Parish,LA,62.98329901624342
70543,Acadia Parish,LA,99.83985358041639
70544,Iberia Parish,LA,49.21070693205216
70546,Jefferson Davis Parish,LA,43.65133836650652
70554,Evangeline Parish,LA,84.9691146190803
70560,Iberia Parish,LA,92.19858156028369
70570,St. Landry Parish,LA,0.43468313886982385
70577,St. Landry Parish,LA,97.07160832761382
70578,Acadia Parish,LA,9.357126515671471
70583,Lafayette Parish,LA,86.22740791580874
70584,St. Landry Parish,LA,96.13360787005261
70586,Evangeline Parish,LA,87.6458476321208
70601,Calcasieu Parish,LA,33.35621139327385
70605,Calcasieu Parish,LA,7.3896133607870045
70607,Calcasieu Parish,LA,94.69229009380004
70634,Beauregard Parish,LA,79.22672157401053
70653,Beauregard Parish,LA,98.55868222374743
70663,Calcasieu Parish,LA,33.859528711965226
70665,Calcasieu Parish,LA,50.97231754747198
70706,Livingston Parish,LA,16.49508121711279
70710,West Baton Rouge Parish,LA,99.4509265614276
70714,East Baton Rouge Parish,LA,10.661175932280944
70726,Livingston Parish,LA,75.93228094257607
70737,Ascension Parish,LA,14.275909402882636
70744,Livingston Parish,LA,98.42141386410432
70764,Iberville Parish,LA,93.96019217570351
70767,West Baton Rouge Parish,LA,28.09425760695493
70777,East Feliciana Parish,LA,99.77121940059483
70802,East Baton Rouge Parish,LA,1.8531228551818806
70805,East Baton Rouge Parish,LA,17.57035003431709
70806,East Baton Rouge Parish,LA,68.51978952184855
70807,East Baton Rouge Parish,LA,4.690002287805994
70811,East Baton Rouge Parish,LA,88.42370167009838
70812,East Baton Rouge Parish,LA,96.88858384808968
70817,East Baton Rouge Parish,LA,83.87096774193549
71006,Bossier Parish,LA,33.74513841226264
71037,Bossier Parish,LA,30.95401509951956
71040,Claiborne Parish,LA,98.23838938458019
71055,Webster Parish,LA,78.4031114161519
71101,Caddo Parish,LA,31.34294211850835
71105,Caddo Parish,LA,21.711278883550676
71107,Caddo Parish,LA,80.69091741020361
71108,Caddo Parish,LA,97.41477922672158
71109,Caddo Parish,LA,43.28528940745825
71111,Bossier Parish,LA,71.51681537405628
71112,Bossier Parish,LA,85.97574925646305
71119,Caddo Parish,LA,99.29078014184397
71201,Ouachita Parish,LA,97.39190116678105
71202,Ouachita Parish,LA,91.16906886296043
71203,Ouachita Parish,LA,59.68885838480896
71225,Ouachita Parish,LA,54.40402653854953
71251,Jackson Parish,LA,62.98329901624342
71269,Richland Parish,LA,97.34614504690002
71270,Lincoln Parish,LA,11.095859071150766
71280,Ouachita Parish,LA,95.81331503088538
71295,Franklin Parish,LA,98.67307252345002
71301,Rapides Parish,LA,65.70578814916495
71302,Rapides Parish,LA,12.216884008236102
71303,Rapides Parish,LA,95.05833905284831
71343,Catahoula Parish,LA,34.545870510180734
71350,Avoyelles Parish,LA,99.15351178220087
71405,Rapides Parish,LA,99.08487760237932
71446,Vernon Parish,LA,94.57789979409746
71457,Natchitoches Parish,LA,86.02150537634408
71463,Allen Parish,LA,42.072752230610845
71467,Grant Parish,LA,99.49668268130863
71483,Winn Parish,LA,97.62068176618622
03903,York County,ME,72.54632807137955
04032,Cumberland County,ME,74.3536948066804
04064,York County,ME,60.215053763440864
04072,York County,ME,22.1459620224205
04073,York County,ME,10.91283459162663
04101,Cumberland County,ME,50.69778082818577
04210,Androscoggin County,ME,52.001830244795244
04240,Androscoggin County,ME,0.6405856783344772
04250,Androscoggin County,ME,94.07458247540609
04253,Androscoggin County,ME,97.82658430565088
04280,Androscoggin County,ME,64.19583619309083
04330,Kennebec County,ME,1.7616106154198123
04345,Kennebec County,ME,95.74468085106383
04412,Penobscot County,ME,76.98467169983985
04530,Sagadahoc County,ME,48.38709677419355
04901,Kennebec County,ME,1.5099519560741248
04953,Penobscot County,ME,81.51452756806222
04963,Kennebec County,ME,43.4911919469229
20601,Charles County,MD,51.63578128574697
20653,St. Mary's County,MD,47.06016929764356
20723,Howard County,MD,69.8009608785175
20724,Anne Arundel County,MD,72.82086479066575
20746,Prince George's County,MD,45.939144360558224
20772,Prince George's County,MD,78.28872111644932
20774,Prince George's County,MD,25.692061313200643
20785,Prince George's County,MD,92.08419126058111
20850,Montgomery County,MD,48.455730954015095
20851,Montgomery County,MD,86.70784717455959
20872,Montgomery County,MD,87.6458476321208
20877,Montgomery County,MD,64.49325097231755
20895,Montgomery County,MD,81.03408830931137
20901,Montgomery County,MD,63.6238846945779
20904,Montgomery County,MD,40.63143445435827
20910,Montgomery County,MD,40.31114161519103
21012,Anne Arundel County,MD,67.12422786547701
21014,Harford County,MD,56.78334477236331
21030,Baltimore County,MD,55.319148936170215
21043,Howard County,MD,53.031342942118506
21044,Howard County,MD,64.5618851521391
21093,Baltimore County,MD,25.00571951498513
21102,Carroll County,MD,99.17638984214139
21114,Anne Arundel County,MD,46.900022878059936
21117,Baltimore County,MD,65.47700754975978
21128,Baltimore County,MD,77.16769617936399
21133,Baltimore County,MD,40.31114161519103
21144,Anne Arundel County,MD,38.961336078700526
21146,Anne Arundel County,MD,52.80256234271333
21207,Baltimore County,MD,36.28460306566003
21208,Baltimore County,MD,74.3536948066804
21211,Baltimore city,MD,82.84145504461222
21217,Baltimore city,MD,9.883321894303362
21236,Baltimore County,MD,55.021734156943495
21239,Baltimore city,MD,16.700983756577443
21550,Garrett County,MD,57.28666209105467
21613,Dorchester County,MD,53.58041638069092
21629,Caroline County,MD,69.09174102036147
21702,Frederick County,MD,52.27636696408145
21703,Frederick County,MD,42.644703729123776
21769,Frederick County,MD,90.13955616563716
21770,Frederick County,MD,95.81331503088538
21771,Frederick County,MD,46.25943719972546
21774,Frederick County,MD,78.54037977579502
21784,Carroll County,MD,35.872797986730724
01002,Hampshire County,MA,21.162205444978266
01013,Hampden County,MA,57.767101349805536
01020,Hampden County,MA,68.31388698238389
01040,Hampden County,MA,36.05582246625486
01060,Hampshire County,MA,24.731182795698924
01085,Hampden County,MA,0.526195378631892
01104,Hampden County,MA,11.439029970258522
01105,Hampden County,MA,30.40494166094715
01108,Hampden County,MA,0.4804392587508579
01109,Hampden County,MA,2.4708304735758406
01119,Hampden County,MA,6.131320064058568
01201,Berkshire County,MA,60.32944406314344
01220,Berkshire County,MA,36.67353008464882
01247,Berkshire County,MA,27.362159688858384
01331,Worcester County,MA,1.3955616563715396
01420,Worcester County,MA,39.39601921757035
01451,Worcester County,MA,93.8229238160604
01453,Worcester County,MA,63.80690917410203
01543,Worcester County,MA,59.551590025165865
01545,Worcester County,MA,29.718599862731644
01550,Worcester County,MA,0.29741477922672155
01603,Worcester County,MA,13.406543125142989
01604,Worcester County,MA,80.1418439716312
01605,Worcester County,MA,0.41180507892930684
01609,Worcester County,MA,86.11301761610616
01610,Worcester County,MA,1.532830016014642
01701,Middlesex County,MA,3.63761153054221
01702,Middlesex County,MA,0.3660489590482727
01748,Middlesex County,MA,25.85220773278426
01752,Middlesex County,MA,7.343857240905971
01757,Worcester County,MA,53.76344086021505
01760,Middlesex County,MA,3.546099290780142
01778,Middlesex County,MA,67.30725234500115
01801,Middlesex County,MA,0.3202928391672386
01803,Middlesex County,MA,33.88240677190574
01821,Middlesex County,MA,1.4870738961336079
01824,Middlesex County,MA,35.644017387325555
01826,Middlesex County,MA,56.41729581331503
01830,Essex County,MA,0.503317318691375
01832,Essex County,MA,1.052390757263784
01840,Essex County,MA,32.89865019446351
01841,Essex County,MA,89.33882406771906
01843,Essex County,MA,6.72614962251201
01844,Essex County,MA,8.51063829787234
01851,Middlesex County,MA,53.60329444063143
01852,Middlesex County,MA,42.04987417067033
01862,Middlesex County,MA,28.02562342713338
01864,Middlesex County,MA,29.970258522077327
01880,Middlesex County,MA,2.1962937542896364
01886,Middlesex County,MA,10.112102493708534
01887,Middlesex County,MA,1.967513154884466
01902,Essex County,MA,7.27522306108442
01905,Essex County,MA,20.132692747655
01915,Essex County,MA,13.383665065202472
01940,Essex County,MA,75.24593914436056
01945,Essex County,MA,23.289865019446353
01960,Essex County,MA,1.8302447952413636
01970,Essex County,MA,0.20590253946465342
01982,Essex County,MA,59.620224204987416
02026,Norfolk County,MA,1.4184397163120568
02061,Plymouth County,MA,50.76641500800733
02062,Norfolk County,MA,5.147563486616335
02111,Suffolk County,MA,39.87645847632121
02114,Suffolk County,MA,7.092198581560284
02118,Suffolk County,MA,2.036147334706017
02119,Suffolk County,MA,0
02121,Suffolk County,MA,92.01555708075955
02122,Suffolk County,MA,0.4575611988103409
02124,Suffolk County,MA,0.6177076183939602
02125,Suffolk County,MA,0.09151223976206818
02126,Suffolk County,MA,51.88743994509266
02128,Suffolk County,MA,3.706245710363761
02129,Suffolk County,MA,1.0752688172043012
02130,Suffolk County,MA,2.539464653397392
02132,Suffolk County,MA,4.346831388698239
02135,Suffolk County,MA,1.2582932967284375
02136,Suffolk County,MA,13.978494623655912
02139,Middlesex County,MA,0.7320979180965455
02140,Middlesex County,MA,6.543125142987874
02141,Middlesex County,MA,14.184397163120568
02144,Middlesex County,MA,89.70487302676733
02148,Middlesex County,MA,0.13726835964310227
02149,Middlesex County,MA,0.04575611988103409
02150,Suffolk County,MA,0.11439029970258523
02151,Suffolk County,MA,21.91718142301533
02155,Middlesex County,MA,2.1734156943491194
02301,Plymouth County,MA,62.18256691832532
02333,Plymouth County,MA,89.95653168611301
02341,Plymouth County,MA,57.5840768702814
02368,Norfolk County,MA,35.186456188515216
02445,Norfolk County,MA,12.948981926332648
02453,Middlesex County,MA,2.928391672386182
02474,Middlesex County,MA,4.8501487073896135
02478,Middlesex County,MA,37.634408602150536
02482,Norfolk County,MA,58.77373598718829
02554,Nantucket County,MA,17.1814230153283
02601,Barnstable County,MA,1.3498055364905055
02632,Barnstable County,MA,30.56508808053077
02653,Barnstable County,MA,85.08350491878288
02664,Barnstable County,MA,95.4472660718371
02667,Barnstable County,MA,98.99336536261725
02703,Bristol County,MA,7.229466941203386
02720,Bristol County,MA,0.022878059940517045
02721,Bristol County,MA,28.757721345229925
02723,Bristol County,MA,0.7092198581560284
02740,Bristol County,MA,51.08670784717456
02744,Bristol County,MA,20.178448867536034
02745,Bristol County,MA,65.84305650880805
02746,Bristol County,MA,26.08098833218943
02748,Bristol County,MA,22.878059940517044
02760,Bristol County,MA,72.24891329215282
02762,Norfolk County,MA,37.3141157629833
02771,Bristol County,MA,21.61976664378861
02780,Bristol County,MA,0.06863417982155114
48003,Lapeer County,MI,78.28872111644932
48015,Macomb County,MI,82.95584534431481
48021,Macomb County,MI,38.22923816060398
48025,Oakland County,MI,68.81720430107528
48033,Oakland County,MI,74.21642644703729
48034,Oakland County,MI,18.57698467169984
48035,Macomb County,MI,3.3401967513154887
48039,St. Clair County,MI,72.43193777167696
48044,Macomb County,MI,46.99153511782201
48045,Macomb County,MI,59.711736444749484
48048,Macomb County,MI,60.054907343857245
48049,St. Clair County,MI,95.08121711278883
48060,St. Clair County,MI,7.0006863417982155
48066,Macomb County,MI,31.228551818805766
48071,Oakland County,MI,12.171127888355066
48073,Oakland County,MI,44.31480210478151
48076,Oakland County,MI,47.01441317776253
48083,Oakland County,MI,94.4863875543354
48084,Oakland County,MI,66.55227636696408
48088,Macomb County,MI,26.675817890642872
48089,Macomb County,MI,2.562342713337909
48091,Macomb County,MI,13.45229924502402
48092,Macomb County,MI,65.24822695035462
48093,Macomb County,MI,8.144589338824067
48101,Wayne County,MI,10.272248913292154
48105,Washtenaw County,MI,21.75703500343171
48108,Washtenaw County,MI,53.64905056051247
48111,Wayne County,MI,14.070006863417984
48116,Livingston County,MI,63.60100663463738
48124,Wayne County,MI,8.327613818348203
48125,Wayne County,MI,37.22260352322123
48126,Wayne County,MI,70.71608327613819
48127,Wayne County,MI,23.816060398078243
48128,Wayne County,MI,67.76481354381148
48131,Monroe County,MI,88.51521390986045
48135,Wayne County,MI,9.974834134065432
48141,Wayne County,MI,73.36993822923816
48146,Wayne County,MI,2.608098833218943
48152,Wayne County,MI,16.655227636696406
48154,Wayne County,MI,39.02997025852208
48162,Monroe County,MI,4.5069778082818575
48165,Oakland County,MI,65.52276366964081
48166,Monroe County,MI,24.38801189659117
48167,Oakland County,MI,56.05124685426676
48170,Wayne County,MI,25.440402653854953
48173,Wayne County,MI,39.4646533973919
48174,Wayne County,MI,56.32578357355297
48176,Washtenaw County,MI,23.175474719743764
48180,Wayne County,MI,47.769389155799594
48183,Wayne County,MI,17.822008693662777
48184,Wayne County,MI,77.4422328986502
48186,Wayne County,MI,12.76595744680851
48187,Wayne County,MI,3.5003431708991077
48188,Wayne County,MI,4.64424616792496
48192,Wayne County,MI,31.09128345916266
48193,Wayne County,MI,34.88904140928849
48195,Wayne County,MI,38.366506520247086
48197,Washtenaw County,MI,5.376344086021505
48198,Washtenaw County,MI,0.6863417982155113
48202,Wayne County,MI,75.9780370624571
48203,Wayne County,MI,61.015785861358964
48204,Wayne County,MI,76.00091512239761
48205,Wayne County,MI,76.27545184168383
48206,Wayne County,MI,73.75886524822694
48209,Wayne County,MI,58.156028368794324
48210,Wayne County,MI,60.512468542667584
48212,Wayne County,MI,51.841683825211625
48215,Wayne County,MI,70.85335163578128
48217,Wayne County,MI,48.1811942347289
48219,Wayne County,MI,87.02814001372684
48220,Oakland County,MI,27.911233127430794
48221,Wayne County,MI,50.19446350949439
48223,Wayne County,MI,42.80485014870739
48224,Wayne County,MI,54.19812399908488
48227,Wayne County,MI,78.81491649508122
48228,Wayne County,MI,39.85358041638069
48229,Wayne County,MI,39.14436055822466
48230,Wayne County,MI,32.60123541523679
48234,Wayne County,MI,2.516586593456875
48235,Wayne County,MI,37.61153054221002
48237,Oakland County,MI,67.99359414321665
48238,Wayne County,MI,58.956760466712424
48239,Wayne County,MI,33.83665065202471
48301,Oakland County,MI,46.35094943948753
48302,Oakland County,MI,55.1590025165866
48307,Oakland County,MI,88.85838480896821
48310,Macomb County,MI,6.016929764355982
48312,Macomb County,MI,11.599176389842142
48316,Macomb County,MI,55.82246625486159
48324,Oakland County,MI,41.36353237245481
48327,Oakland County,MI,47.174559597346146
48328,Oakland County,MI,20.727522306108444
48329,Oakland County,MI,16.906886296042096
48331,Oakland County,MI,80.34774651109586
48340,Oakland County,MI,38.27499428048501
48341,Oakland County,MI,14.687714481811941
48346,Oakland County,MI,53.168611301761615
48359,Oakland County,MI,45.939144360558224
48362,Oakland County,MI,83.43628460306566
48371,Oakland County,MI,52.84831846259437
48375,Oakland County,MI,32.09791809654541
48380,Oakland County,MI,73.04964539007092
48381,Oakland County,MI,47.929535575383206
48386,Oakland County,MI,74.69686570578816
48390,Oakland County,MI,72.11164493250972
48413,Huron County,MI,31.251429878746283
48416,Sanilac County,MI,98.6501944635095
48421,Lapeer County,MI,95.309997712194
48423,Genesee County,MI,89.97940974605353
48430,Genesee County,MI,79.38686799359415
48433,Genesee County,MI,34.17982155113247
48442,Oakland County,MI,29.512697323266984
48446,Lapeer County,MI,45.87051018073667
48458,Genesee County,MI,15.419812399908489
48503,Genesee County,MI,51.29261038663921
48504,Genesee County,MI,7.298101121024938
48505,Genesee County,MI,50.4690002287806
48506,Genesee County,MI,11.1416151910318
48507,Genesee County,MI,51.77304964539007
48532,Genesee County,MI,71.97437657286662
48601,Saginaw County,MI,35.09494394875314
48603,Saginaw County,MI,41.843971631205676
48607,Saginaw County,MI,94.98970487302677
48609,Saginaw County,MI,58.01876000915123
48612,Gladwin County,MI,43.10226492793411
48616,Saginaw County,MI,37.38274994280485
48624,Gladwin County,MI,20.933424845573096
48632,Clare County,MI,89.72775108670785
48640,Midland County,MI,51.33836650652025
48642,Midland County,MI,7.801418439716312
48732,Bay County,MI,68.06222832303821
48756,Ogemaw County,MI,90.89453214367421
48808,Clinton County,MI,91.74102036147335
48823,Ingham County,MI,68.63417982155113
48836,Livingston County,MI,34.86616334934797
48838,Montcalm County,MI,16.01464195836193
48842,Ingham County,MI,54.0837336993823
48843,Livingston County,MI,4.4840997483413405
48846,Ionia County,MI,21.253717684740334
48849,Ionia County,MI,91.64950812171128
48858,Isabella County,MI,41.52367879203844
48867,Shiawassee County,MI,30.542210020590254
48884,Montcalm County,MI,93.45687485701212
48910,Ingham County,MI,4.186684969114619
48912,Ingham County,MI,33.4248455730954
48917,Eaton County,MI,2.9055136124456644
49001,Kalamazoo County,MI,8.968199496682681
49004,Kalamazoo County,MI,25.348890414092885
49007,Kalamazoo County,MI,55.021734156943495
49008,Kalamazoo County,MI,46.76275451841684
49013,Van Buren County,MI,80.23335621139327
49014,Calhoun County,MI,31.754747197437656
49015,Calhoun County,MI,6.382978723404255
49017,Calhoun County,MI,14.733470601692977
49022,Berrien County,MI,3.271562571493937
49024,Kalamazoo County,MI,40.99748341340654
49037,Calhoun County,MI,5.444978265843056
49042,St. Joseph County,MI,97.96385266529398
49046,Barry County,MI,91.76389842141386
49048,Kalamazoo County,MI,6.9778082818576985
49073,Barry County,MI,68.42827728208648
49080,Allegan County,MI,24.86845115534203
49085,Berrien County,MI,69.86959505833906
49087,Kalamazoo County,MI,82.49828414550447
49091,St. Joseph County,MI,76.801647220315715
49097,Kalamazoo County,MI,46.48821779913063
49103,Berrien County,MI,78.72340425531915
49107,Berrien County,MI,80.16472203157173
49120,Berrien County,MI,26.355525051475638
49127,Berrien County,MI,67.83344772363303
49201,Jackson County,MI,2.8368794326241136
49202,Jackson County,MI,48.04392587508579
49203,Jackson County,MI,65.82017844886754
49221,Lenawee County,MI,8.670784717455959
49232,Hillsdale County,MI,96.56829100892244
49315,Kent County,MI,62.43422557767101
49319,Kent County,MI,14.619080301990392
49321,Kent County,MI,38.34362846030657
49330,Kent County,MI,87.85175017158545
49337,Newaygo County,MI,51.31548844657973
49341,Kent County,MI,14.024250743536948
49349,Newaygo County,MI,84.74033401967513
49401,Ottawa County,MI,39.4646533973919
49408,Allegan County,MI,95.5616563715397
49418,Kent County,MI,54.03797757950126
49423,Ottawa County,MI,56.280027453671934
49424,Ottawa County,MI,61.45046900022878
49425,Muskegon County,MI,98.87897506291466
49426,Ottawa County,MI,22.946694120338595
49441,Muskegon County,MI,42.370167009837566
49442,Muskegon County,MI,31.45733241821094
49444,Muskegon County,MI,36.87943262411347
49457,Muskegon County,MI,82.0178448867536
49460,Ottawa County,MI,88.44657973003889
49503,Kent County,MI,20.54449782658431
49504,Kent County,MI,5.330587966140472
49505,Kent County,MI,10.501029512697322
49507,Kent County,MI,11.30176161061542
49508,Kent County,MI,40.58567833447724
49509,Kent County,MI,4.735758407687028
49519,Kent County,MI,6.360100663463738
49546,Kent County,MI,20.475863646762754
49548,Kent County,MI,45.06977808281858
49646,Kalkaska County,MI,87.85175017158545
49668,Wexford County,MI,95.85907115076641
49677,Osceola County,MI,46.85426675817891
49707,Alpena County,MI,65.98032486845116
49783,Chippewa County,MI,89.81926332646991
49829,Delta County,MI,48.364218714253035
49841,Marquette County,MI,73.48432852894075
49849,Marquette County,MI,29.238160603980784
49855,Marquette County,MI,45.847632120796156
49938,Gogebic County,MI,81.37725920841913
55016,Washington County,MN,23.587279798673073
55021,Rice County,MN,71.44818119423473
55033,Dakota County,MN,14.985129261038663
55040,Isanti County,MN,56.53168611301762
55051,Kanabec County,MN,42.232898650194464
55057,Rice County,MN,80.85106382978722
55060,Steele County,MN,19.537863189201556
55066,Goodhue County,MN,61.45046900022878
55075,Dakota County,MN,82.56691832532601
55102,Ramsey County,MN,44.520704644246166
55103,Ramsey County,MN,84.94623655913979
55104,Ramsey County,MN,27.04186684969115
55106,Ramsey County,MN,54.83870967741935
55107,Ramsey County,MN,58.293296728437426
55109,Ramsey County,MN,26.881720430107524
55112,Ramsey County,MN,23.427133379089454
55113,Ramsey County,MN,62.75451841683826
55119,Ramsey County,MN,75.33745138412262
55122,Dakota County,MN,77.83115991763898
55123,Dakota County,MN,68.81720430107528
55125,Washington County,MN,23.12971859986273
55126,Ramsey County,MN,42.896362388469456
55304,Anoka County,MN,22.878059940517044
55305,Hennepin County,MN,65.27110501029513
55308,Sherburne County,MN,85.81560283687944
55313,Wright County,MN,36.17021276595745
55318,Carver County,MN,39.693433996797076
55337,Dakota County,MN,17.455959734614503
55343,Hennepin County,MN,59.711736444749484
55350,McLeod County,MN,13.886982383893844
55362,Wright County,MN,49.714024250743535
55363,Wright County,MN,94.02882635552506
55369,Hennepin County,MN,18.073667353008467
55376,Wright County,MN,91.35209334248455
55379,Scott County,MN,12.651567147105924
55403,Hennepin County,MN,37.497140242507434
55404,Hennepin County,MN,50.240219629375424
55405,Hennepin County,MN,70.76183939601923
55406,Hennepin County,MN,89.63623884694579
55407,Hennepin County,MN,62.502859757492566
55409,Hennepin County,MN,97.75795012582932
55411,Hennepin County,MN,75.8178906428735
55415,Hennepin County,MN,81.51452756806222
55418,Hennepin County,MN,62.84603065660031
55419,Hennepin County,MN,27.430793868679938
55420,Hennepin County,MN,21.642644703729125
55421,Anoka County,MN,34.52299245024022
55422,Hennepin County,MN,15.076641500800733
55423,Hennepin County,MN,53.23724548158316
55426,Hennepin County,MN,63.73827499428049
55428,Hennepin County,MN,8.030199039121483
55430,Hennepin County,MN,7.412491420727522
55432,Anoka County,MN,10.203614733470602
55443,Hennepin County,MN,15.923129718599863
55444,Hennepin County,MN,38.61816517959277
55445,Hennepin County,MN,87.05101807366735
55448,Anoka County,MN,56.98924731182796
55449,Anoka County,MN,32.166552276366964
55709,Itasca County,MN,91.44360558224662
55720,Carlton County,MN,46.73987645847632
55734,St. Louis County,MN,62.365591397849464
55744,Itasca County,MN,71.15076641500801
55746,St. Louis County,MN,11.484786090139556
55792,St. Louis County,MN,19.126058110272247
55906,Olmsted County,MN,54.56417295813315
55912,Mower County,MN,2.0819034545870507
55976,Olmsted County,MN,85.40379775795013
55987,Winona County,MN,2.6767330130404945
56001,Blue Earth County,MN,16.220544497826584
56011,Scott County,MN,81.21711278883551
56069,Le Sueur County,MN,92.56463051933196
56073,Brown County,MN,36.21596888583848
56156,Rock County,MN,83.59643102264927
56159,Cottonwood County,MN,94.39487531457333
56164,Pipestone County,MN,57.03500343170899
56175,Lyon County,MN,88.88126286890872
56264,Lyon County,MN,98.581560283687935
56303,Stearns County,MN,15.877373598718828
56345,Morrison County,MN,14.779226721574009
56472,Crow Wing County,MN,53.46602608098833
56482,Wadena County,MN,30.3363074811256
56501,Becker County,MN,54.40402653854953
56520,Wilkin County,MN,61.99954243880119
56537,Otter Tail County,MN,7.3209791809654545
56560,Clay County,MN,23.976206817661865
56701,Pennington County,MN,8.144589338824067
56716,Polk County,MN,66.41500800732098
38611,Marshall County,MS,45.20704644246168
38614,Coahoma County,MS,33.0130404941661
38637,DeSoto County,MS,30.26767330130405
38652,Union County,MS,61.49622512010981
38654,DeSoto County,MS,10.409517272935256
38655,Lafayette County,MS,80.85106382978722
38732,Bolivar County,MS,20.65888812628689
38801,Lee County,MS,90.00228780599406
38827,Tishomingo County,MS,97.20887668725692
38829,Prentiss County,MS,62.75451841683826
38834,Alcorn County,MS,8.030199039121483
38843,Itawamba County,MS,61.244566460764126
38847,Itawamba County,MS,96.81994966826814
38863,Pontotoc County,MS,47.563486616334934
38922,Yalobusha County,MS,88.7439945092656
38965,Yalobusha County,MS,73.23266986959506
39040,Yazoo County,MS,99.06199954243881
39046,Madison County,MS,13.315030885380919
39059,Copiah County,MS,66.30061770761839
39074,Scott County,MS,53.9693433996797
39083,Copiah County,MS,65.27110501029513
39090,Attala County,MS,52.665293983070235
39092,Scott County,MS,95.99633951040951
39094,Leake County,MS,92.86204529855868
39120,Adams County,MS,57.401052390757265
39145,Rankin County,MS,71.90574239304507
39150,Claiborne County,MS,93.47975291695263
39154,Hinds County,MS,75.0400366048959
39157,Madison County,MS,78.58613589567605
39170,Hinds County,MS,71.5396934339968
39180,Warren County,MS,83.71082132235188
39189,Leake County,MS,98.19263326469915
39194,Yazoo County,MS,95.72180279112331
39204,Hinds County,MS,57.53832075040036
39208,Rankin County,MS,54.975978037062454
39209,Hinds County,MS,10.203614733470602
39212,Hinds County,MS,9.219858156028367
39213,Hinds County,MS,79.24959963395104
39305,Lauderdale County,MS,35.36948066803935
39307,Lauderdale County,MS,81.81194234728895
39350,Neshoba County,MS,12.582932967284375
39364,Lauderdale County,MS,99.8627316403569
39401,Forrest County,MS,46.76275451841684
39402,Lamar County,MS,76.6415008007321
39426,Pearl River County,MS,36.55913978494624
39437,Jones County,MS,43.55982612674445
39440,Jones County,MS,71.28803477465111
39443,Jones County,MS,47.334706016929765
39455,Lamar County,MS,97.80370624571036
39465,Forrest County,MS,53.94646533973919
39466,Pearl River County,MS,12.491420727522307
39474,Jefferson Davis County,MS,92.15282544040265
39479,Covington County,MS,98.76458476321208
39501,Harrison County,MS,7.915808739418898
39503,Harrison County,MS,19.51498512926104
39507,Harrison County,MS,51.42987874628232
39520,Hancock County,MS,65.59139784946237
39525,Hancock County,MS,95.67604667124228
39532,Harrison County,MS,25.554792953557538
39553,Jackson County,MS,60.92427362159689
39562,Jackson County,MS,37.794555021734155
39563,Jackson County,MS,64.76778769160376
39564,Jackson County,MS,16.975520475863647
39565,Jackson County,MS,86.86799359414321
39574,Harrison County,MS,33.10455273392816
39648,Pike County,MS,53.626172500571954
39740,Lowndes County,MS,98.9247311827957
39773,Clay County,MS,49.27934111187371
63010,Jefferson County,MO,72.63784031114162
63025,St. Louis County,MO,91.16906886296043
63033,St. Louis County,MO,47.74651109585907
63042,St. Louis County,MO,28.11713566689545
63044,St. Louis County,MO,87.55433539235872
63051,Jefferson County,MO,46.62548615877374
63074,St. Louis County,MO,74.4909631663235
63106,St. Louis city,MO,61.90803019903912
63109,St. Louis city,MO,63.829787234042556
63111,St. Louis city,MO,48.730267673301306
63114,St. Louis County,MO,11.805078929306795
63115,St. Louis city,MO,78.7920384351407
63118,St. Louis city,MO,47.334706016929765
63119,St. Louis County,MO,48.684511553420265
63121,St. Louis County,MO,14.41317776252574
63122,St. Louis County,MO,39.83070235644017
63123,St. Louis County,MO,19.446350949439488
63125,St. Louis County,MO,58.59071150766415
63128,St. Louis County,MO,58.59071150766415
63136,St. Louis County,MO,45.04690002287806
63137,St. Louis County,MO,54.060855639441776
63138,St. Louis County,MO,87.43994509265615
63146,St. Louis County,MO,93.25097231754748
63301,St. Charles County,MO,4.941660947151681
63303,St. Charles County,MO,37.565774422328985
63304,St. Charles County,MO,14.779226721574009
63348,St. Charles County,MO,96.59116906886295
63362,Lincoln County,MO,94.94394875314573
63366,St. Charles County,MO,23.427133379089454
63368,St. Charles County,MO,24.227865477007548
63376,St. Charles County,MO,3.40883093113704
63385,St. Charles County,MO,6.131320064058568
63461,Marion County,MO,96.65980324868451
63501,Adair County,MO,53.76344086021505
63601,St. Francois County,MO,25.257378174330817
63701,Cape Girardeau County,MO,21.50537634408602
63775,Perry County,MO,19.011667810569662
63801,Scott County,MO,9.768931594600778
63830,Pemiscot County,MO,75.40608556394417
63857,Dunklin County,MO,96.72843742850607
63935,Ripley County,MO,68.47403340196752
64012,Cass County,MO,41.88972775108671
64014,Jackson County,MO,8.83093113703958
64015,Jackson County,MO,24.365133836650653
64029,Jackson County,MO,55.11324639670556
64030,Jackson County,MO,7.20658888126287
64050,Jackson County,MO,27.3850377487989
64052,Jackson County,MO,19.35483870967742
64055,Jackson County,MO,2.3793182338137724
64056,Jackson County,MO,60.55822466254862
64063,Jackson County,MO,21.459620224204986
64064,Jackson County,MO,33.10455273392816
64078,Cass County,MO,89.06428734843286
64089,Clay County,MO,33.722260352322124
64093,Johnson County,MO,18.371082132235188
64109,Jackson County,MO,13.520933424845575
64116,Clay County,MO,11.118737131091283
64117,Clay County,MO,19.903912148249827
64118,Clay County,MO,1.555708075955159
64127,Jackson County,MO,12.811713566689544
64130,Jackson County,MO,29.48981926332647
64132,Jackson County,MO,27.04186684969115
64133,Jackson County,MO,55.4335392358728
64151,Platte County,MO,46.55685197895218
64152,Platte County,MO,8.030199039121483
64468,Nodaway County,MO,48.06680393502631
64601,Livingston County,MO,64.67627545184168
64683,Grundy County,MO,93.11370395790436
64701,Cass County,MO,94.6236559139785
64730,Bates County,MO,40.517044154655686
64735,Henry County,MO,48.318462594371994
64744,Cedar County,MO,62.98329901624342
64772,Vernon County,MO,23.61015785861359
64850,Newton County,MO,6.039807824296499
64863,McDonald County,MO,99.79409746053534
65020,Camden County,MO,84.28277282086479
65026,Miller County,MO,50.62914664836422
65202,Boone County,MO,54.10661175932281
65270,Randolph County,MO,64.03568977350722
65301,Pettis County,MO,8.785175017158545
65340,Saline County,MO,18.165179592770535
65453,Crawford County,MO,72.86662091054679
65536,Laclede County,MO,22.557767101349803
65560,Dent County,MO,38.43514070006863
65605,Lawrence County,MO,61.99954243880119
65721,Christian County,MO,36.33035918554107
65775,Howell County,MO,16.266300617707618
59011,Sweet Grass County,MT,96.22512010981468
59602,Lewis and Clark County,MT,39.418897277510865
59701,Silver Bow County,MT,45.29855868222375
59718,Gallatin County,MT,18.668496911461908
59801,Missoula County,MT,44.95538778311599
59923,Lincoln County,MT,44.04026538549531
68104,Douglas County,NE,12.125371768474032
68107,Douglas County,NE,32.18943033630748
68132,Douglas County,NE,61.244566460764126
68144,Douglas County,NE,50.92656142759095
68147,Sarpy County,NE,81.97208876687256
68152,Douglas County,NE,97.82658430565088
68503,Lancaster County,NE,59.04827270647449
68512,Lancaster County,NE,87.39418897277511
68521,Lancaster County,NE,43.90299702585221
68845,Buffalo County,NE,73.14115762983299
68901,Adams County,NE,48.70738961336079
69101,Lincoln County,NE,10.615419812399908
89101,Clark County,NV,74.46808510638297
89103,Clark County,NV,33.97391901166781
89106,Clark County,NV,63.50949439487531
89107,Clark County,NV,32.807137954701446
89110,Clark County,NV,8.350491878288722
89115,Clark County,NV,68.1994966826813
89117,Clark County,NV,17.684740334019676
89121,Clark County,NV,42.25577671013498
89122,Clark County,NV,40.03660489590482
89139,Clark County,NV,61.99954243880119
89142,Clark County,NV,92.51887439945092
89149,Clark County,NV,45.61885152139099
89165,Clark County,NV,93.06794783802333
89166,Clark County,NV,44.95538778311599
89183,Clark County,NV,45.75611988103409
89406,Churchill County,NV,23.47288949897049
89408,Lyon County,NV,19.698009608785174
89429,Lyon County,NV,70.09837565774423
89431,Washoe County,NV,9.174102036147334
89433,Washoe County,NV,55.502173415694344
89436,Washoe County,NV,57.60695493022192
89502,Washoe County,NV,8.236101578586135
89506,Washoe County,NV,83.7565774422329
89509,Washoe County,NV,31.159917638984215
89521,Washoe County,NV,31.114161519103178
89801,Elko County,NV,48.1811942347289
03032,Rockingham County,NH,71.69983985358041
03038,Rockingham County,NH,24.273621596888585
03051,Hillsborough County,NH,9.951956074124913
03053,Rockingham County,NH,12.971859986273165
03055,Hillsborough County,NH,28.62045298558682
03062,Hillsborough County,NH,7.435369480668038
03076,Hillsborough County,NH,60.85563944177533
03102,Hillsborough County,NH,85.2436513383665
03103,Hillsborough County,NH,1.7158544955387784
03110,Hillsborough County,NH,38.86982383893846
03743,Sullivan County,NH,81.78906428734844
03819,Rockingham County,NH,91.10043468313887
03833,Rockingham County,NH,21.002059025394644
03858,Rockingham County,NH,75.38320750400366
07002,Hudson County,NJ,52.16197666437886
07006,Essex County,NJ,42.4159231297186
07011,Passaic County,NJ,92.93067947838023
07013,Passaic County,NJ,23.31274307938687
07018,Essex County,NJ,26.927476549988562
07026,Bergen County,NJ,77.00754975978037
07050,Essex County,NJ,97.68931594600778
07055,Passaic County,NJ,74.97140242507434
07063,Union County,NJ,43.81148478609014
07064,Middlesex County,NJ,98.9247311827957
07067,Middlesex County,NJ,60.077785403797755
07070,Bergen County,NJ,52.4822695035461
07080,Middlesex County,NJ,38.18348204072295
07087,Hudson County,NJ,0.9151223976206818
07088,Union County,NJ,99.95424388011897
07093,Hudson County,NJ,80.78242964996568
07094,Hudson County,NJ,41.18050789293068
07102,Essex County,NJ,15.48844657973004
07103,Essex County,NJ,23.793182338137726
07104,Essex County,NJ,88.40082361015786
07105,Essex County,NJ,4.049416609471517
07107,Essex County,NJ,58.22466254861588
07110,Essex County,NJ,59.98627316403569
07111,Essex County,NJ,0.27453671928620454
07112,Essex County,NJ,70.00686341798216
07201,Union County,NJ,45.252802562342715
07202,Union County,NJ,1.9217570350034316
07203,Union County,NJ,96.29375428963624
07204,Union County,NJ,86.47906657515443
07206,Union County,NJ,83.57355296270876
07208,Union County,NJ,25.257378174330817
07302,Hudson County,NJ,85.40379775795013
07304,Hudson County,NJ,40.05948295584535
07305,Hudson County,NJ,90.96316632349577
07306,Hudson County,NJ,25.783573552962707
07307,Hudson County,NJ,77.28208647906658
07419,Sussex County,NJ,99.6110729810112
07424,Passaic County,NJ,21.2079615648593
07452,Bergen County,NJ,99.5881949210707
07470,Passaic County,NJ,91.32921528254404
07501,Passaic County,NJ,35.07206588881263
07502,Passaic County,NJ,18.988789750629145
07504,Passaic County,NJ,43.4911919469229
07506,Passaic County,NJ,50.37748798901853
07508,Passaic County,NJ,43.994509265614276
07513,Passaic County,NJ,96.79707160832761
07514,Passaic County,NJ,15.191031800503318
07522,Passaic County,NJ,89.4074582475406
07524,Passaic County,NJ,65.1109585907115
07631,Bergen County,NJ,99.1992679020819
07644,Bergen County,NJ,22.420498741706705
07666,Bergen County,NJ,92.54175245939145
07676,Bergen County,NJ,95.65316861130177
07701,Monmouth County,NJ,98.37565774422329
07712,Monmouth County,NJ,0.8693662777396477
07721,Monmouth County,NJ,99.336536261725
07740,Monmouth County,NJ,96.70555936856555
07746,Monmouth County,NJ,86.61633493479754
07747,Monmouth County,NJ,77.67101349805536
07753,Monmouth County,NJ,88.7211164493251
07849,Morris County,NJ,48.57012125371769
07871,Sussex County,NJ,37.74879890185313
07876,Morris County,NJ,84.4429192404484
07960,Morris County,NJ,7.687028140013727
08002,Camden County,NJ,35.575383207504004
08043,Camden County,NJ,25.440402653854953
08048,Burlington County,NJ,44.429192404484105
08053,Burlington County,NJ,11.53054221002059
08055,Burlington County,NJ,49.82841455044612
08060,Burlington County,NJ,61.839396019217574
08066,Gloucester County,NJ,92.42736215968887
08069,Salem County,NJ,5.467856325783574
08075,Burlington County,NJ,26.378403111416155
08077,Burlington County,NJ,67.58178906428735
08080,Gloucester County,NJ,21.04781514527568
08081,Camden County,NJ,65.93456874857011
08093,Gloucester County,NJ,19.377716769617937
08094,Gloucester County,NJ,13.086250285975748
08096,Gloucester County,NJ,10.043468313886983
08103,Camden County,NJ,57.21802791123313
08104,Camden County,NJ,37.77167696179364
08105,Camden County,NJ,8.716540837336993
08210,Cape May County,NJ,20.247083047357584
08215,Atlantic County,NJ,51.33836650652025
08230,Cape May County,NJ,99.40517044154656
08232,Atlantic County,NJ,97.73507206588882
08234,Atlantic County,NJ,21.413864104323956
08302,Cumberland County,NJ,19.148936170212767
08330,Atlantic County,NJ,13.658201784488675
08332,Cumberland County,NJ,0.34317089910775567
08401,Atlantic County,NJ,43.97163120567376
08505,Burlington County,NJ,41.91260581102723
08520,Mercer County,NJ,66.98695950583391
08527,Ocean County,NJ,17.50171585449554
08618,Mercer County,NJ,70.48730267673301
08629,Mercer County,NJ,16.037520018302448
08638,Mercer County,NJ,4.232441088995653
08690,Mercer County,NJ,75.177304964539
08691,Mercer County,NJ,79.95881949210707
08701,Ocean County,NJ,72.47769389155799
08723,Ocean County,NJ,5.9025394646533975
08724,Ocean County,NJ,2.9741477922672157
08731,Ocean County,NJ,20.041180507892932
08753,Ocean County,NJ,70.69320521619767
08755,Ocean County,NJ,91.0089224433768
08757,Ocean County,NJ,4.323953328757722
08817,Middlesex County,NJ,9.128345916266301
08825,Hunterdon County,NJ,97.78082818576983
08831,Middlesex County,NJ,82.40677190574239
08832,Middlesex County,NJ,79.04369709448639
08835,Somerset County,NJ,96.13360787005261
08844,Somerset County,NJ,22.878059940517044
08846,Middlesex County,NJ,52.4822695035461
08852,Middlesex County,NJ,97.23175474719744
08859,Middlesex County,NJ,32.09791809654541
08861,Middlesex County,NJ,80.98833218943034
08865,Warren County,NJ,37.65728666209105
08869,Somerset County,NJ,58.24754060855639
08872,Middlesex County,NJ,89.08716540837337
08876,Somerset County,NJ,32.235186456188515
08879,Middlesex County,NJ,17.044154655685197
08886,Warren County,NJ,90.3454587051018
08901,Middlesex County,NJ,91.92404484099748
08902,Middlesex County,NJ,87.80599405170442
87002,Valencia County,NM,31.182795698924732
87015,Santa Fe County,NM,66.75817890642874
87026,Valencia County,NM,85.67833447723633
87031,Valencia County,NM,63.761153054221
87102,Bernalillo County,NM,56.16563715396934
87105,Bernalillo County,NM,44.84099748341341
87106,Bernalillo County,NM,34.88904140928849
87107,Bernalillo County,NM,47.632120796156485
87108,Bernalillo County,NM,13.498055364905056
87109,Bernalillo County,NM,30.153283001601466
87110,Bernalillo County,NM,4.1638069091741015
87111,Bernalillo County,NM,1.1667810569663692
87112,Bernalillo County,NM,45.16129032258064
87113,Bernalillo County,NM,87.16540837336993
87114,Bernalillo County,NM,2.653854953099977
87120,Bernalillo County,NM,35.84991992679021
87121,Bernalillo County,NM,22.39762068176619
87123,Bernalillo County,NM,74.3536948066804
87124,Sandoval County,NM,54.358270418668496
87401,San Juan County,NM,63.921299473804616
87410,San Juan County,NM,87.71448181194235
87420,San Juan County,NM,14.756348661633492
87501,Santa Fe County,NM,93.61702127659575
87505,Santa Fe County,NM,10.844200411805078
87507,Santa Fe County,NM,67.62754518416838
87529,Taos County,NM,99.63395104095173
87532,Santa Fe County,NM,81.21711278883551
87701,San Miguel County,NM,30.86250285975749
88001,Doa Ana County,NM,73.02676733013041
88005,Doa Ana County,NM,24.68542667581789
88012,Doa Ana County,NM,49.23358499199268
88021,Doa Ana County,NM,61.747883779455506
88061,Grant County,NM,56.371539693433995
88063,Doa Ana County,NM,81.21711278883551
88081,Otero County,NM,86.82223747426218
88101,Curry County,NM,3.134294211850835
88130,Roosevelt County,NM,78.24296499656829
88203,Chaves County,NM,7.938686799359414
88210,Eddy County,NM,58.567833447723636
88220,Eddy County,NM,68.49691146190803
88240,Lea County,NM,52.25348890414093
88242,Lea County,NM,63.486616334934794
88310,Otero County,NM,58.93388240677191
88340,Otero County,NM,79.15808739418897
10001,New York County,NY,4.438343628460307
10023,New York County,NY,29.810112102493708
10025,New York County,NY,26.95035460992908
10026,New York County,NY,39.51040951727294
10027,New York County,NY,1.4413177762525737
10028,New York County,NY,69.89247311827957
10029,New York County,NY,4.8272706474490965
10030,New York County,NY,9.929078014184398
10031,New York County,NY,33.65362617250057
10032,New York County,NY,19.926790208190344
10033,New York County,NY,28.917867764813543
10034,New York County,NY,48.57012125371769
10035,New York County,NY,1.6472203157172274
10037,New York County,NY,20.956302905513613
10039,New York County,NY,76.41272020132692
10301,Richmond County,NY,5.9254175245939145
10303,Richmond County,NY,22.191718142301532
10304,Richmond County,NY,25.62342713337909
10305,Richmond County,NY,7.7327842598947605
10310,Richmond County,NY,28.185769846716997
10451,Bronx County,NY,63.555250514756345
10452,Bronx County,NY,27.613818348204074
10453,Bronx County,NY,6.222832303820636
10454,Bronx County,NY,13.246396705559368
10455,Bronx County,NY,1.2811713566689544
10456,Bronx County,NY,11.07298101121025
10457,Bronx County,NY,1.578586135895676
10458,Bronx County,NY,57.01212537176848
10459,Bronx County,NY,1.464195836193091
10460,Bronx County,NY,50.514756348661635
10461,Bronx County,NY,4.095172729352551
10462,Bronx County,NY,41.77533745138412
10463,Bronx County,NY,15.32830016014642
10465,Bronx County,NY,45.39007092198582
10466,Bronx County,NY,1.3040494166094716
10467,Bronx County,NY,38.297872340425535
10468,Bronx County,NY,3.3401967513154887
10472,Bronx County,NY,0.6634637382749943
10473,Bronx County,NY,1.3269274765499885
10474,Bronx County,NY,71.81423015328299
10475,Bronx County,NY,11.347517730496454
10523,Westchester County,NY,97.30038892701899
10552,Westchester County,NY,44.291924044841
10562,Westchester County,NY,58.54495538778311
10566,Westchester County,NY,89.20155570807596
10703,Westchester County,NY,19.377716769617937
10705,Westchester County,NY,18.27956989247312
10950,Orange County,NY,49.82841455044612
10952,Rockland County,NY,52.367879203843515
10954,Rockland County,NY,36.28460306566003
10970,Rockland County,NY,87.18828643331045
11001,Nassau County,NY,73.27842598947609
11003,Nassau County,NY,38.77831159917639
11096,Nassau County,NY,94.646533973919
11102,Queens County,NY,28.62045298558682
11103,Queens County,NY,55.89110043468314
11106,Queens County,NY,32.4868451155342
11203,Kings County,NY,3.0427819720887666
11204,Kings County,NY,13.703957904369709
11205,Kings County,NY,42.50743536948067
11206,Kings County,NY,81.51452756806222
11207,Kings County,NY,17.158544955387782
11208,Kings County,NY,24.502402196293755
11209,Kings County,NY,16.609471516815375
11210,Kings County,NY,58.88812628689087
11211,Kings County,NY,5.056051246854267
11212,Kings County,NY,14.962251201098148
11214,Kings County,NY,5.994051704415466
11216,Kings County,NY,20.224204987417068
11218,Kings County,NY,6.49736902310684
11219,Kings County,NY,24.708304735758407
11220,Kings County,NY,31.57172271791352
11221,Kings County,NY,6.520247083047358
11222,Kings County,NY,73.6902310684054
11223,Kings County,NY,54.953099977121944
11224,Kings County,NY,66.39212994738047
11225,Kings County,NY,10.546785632578358
11226,Kings County,NY,8.556394417753374
11232,Kings County,NY,86.06726149622513
11233,Kings County,NY,4.1409288492335845
11235,Kings County,NY,22.76366964081446
11237,Kings County,NY,70.89910775566231
11355,Queens County,NY,42.02699611072981
11365,Queens County,NY,30.56508808053077
11366,Queens County,NY,97.36902310684053
11368,Queens County,NY,56.25714939373141
11372,Queens County,NY,14.847860901395563
11373,Queens County,NY,5.010295126973233
11377,Queens County,NY,82.72706474490963
11385,Queens County,NY,18.119423472889498
11416,Queens County,NY,29.672843742850606
11419,Queens County,NY,54.99885609700298
11432,Queens County,NY,61.35895676046671
11433,Queens County,NY,40.70006863417982
11434,Queens County,NY,59.94051704415465
11435,Queens County,NY,20.79615648592999
11510,Nassau County,NY,45.29855868222375
11520,Nassau County,NY,47.037291237703045
11542,Nassau County,NY,42.2786547700755
11550,Nassau County,NY,65.72866620910547
11553,Nassau County,NY,35.941432166552275
11575,Nassau County,NY,50.080073209791806
11704,Suffolk County,NY,37.794555021734155
11717,Suffolk County,NY,65.88881262868908
11738,Suffolk County,NY,76.29832990162434
11757,Suffolk County,NY,24.502402196293755
11758,Nassau County,NY,57.81285746968658
11779,Suffolk County,NY,55.95973461450468
11798,Suffolk County,NY,65.52276366964081
11801,Nassau County,NY,39.3273850377488
12025,Fulton County,NY,51.910318005033176
12065,Saratoga County,NY,10.569663692518874
12117,Fulton County,NY,89.63623884694579
12148,Saratoga County,NY,93.89155799588195
12180,Rensselaer County,NY,26.3097689315946
12189,Albany County,NY,55.95973461450468
12205,Albany County,NY,34.66026080988332
12206,Albany County,NY,8.281857698467169
12208,Albany County,NY,44.61221688400824
12303,Schenectady County,NY,20.56737588652482
12304,Schenectady County,NY,44.72660718371082
12401,Ulster County,NY,34.454358270418666
12534,Columbia County,NY,5.605124685426676
12550,Orange County,NY,16.083276138183482
12553,Orange County,NY,60.92427362159689
12571,Dutchess County,NY,86.06726149622513
12733,Sullivan County,NY,98.85609700297415
12801,Warren County,NY,8.190345458705101
12803,Saratoga County,NY,51.15534202699611
12816,Washington County,NY,91.76389842141386
12831,Saratoga County,NY,28.300160146419586
12901,Clinton County,NY,7.137954701441318
12944,Essex County,NY,84.4200411805079
12953,Franklin County,NY,30.679478380233355
12972,Clinton County,NY,37.72592084191261
13021,Cayuga County,NY,1.00663463738275
13027,Onondaga County,NY,4.918782887211164
13031,Onondaga County,NY,25.440402653854953
13032,Madison County,NY,47.266071837108214
13036,Oswego County,NY,72.54632807137955
13045,Cortland County,NY,1.2354152367879203
13077,Cortland County,NY,41.75245939144361
13084,Onondaga County,NY,97.02585220773278
13088,Onondaga County,NY,12.880347746511095
13092,Cayuga County,NY,90.68862960420955
13104,Onondaga County,NY,32.83001601464196
13131,Oswego County,NY,81.14847860901395
13148,Seneca County,NY,11.1416151910318
13152,Onondaga County,NY,23.83893845801876
13165,Seneca County,NY,41.432166552276364
13202,Onondaga County,NY,40.86021505376344
13203,Onondaga County,NY,7.755662319835278
13204,Onondaga County,NY,3.935026309768932
13205,Onondaga County,NY,43.53694806680394
13207,Onondaga County,NY,15.305422100205904
13208,Onondaga County,NY,42.141386410432396
13209,Onondaga County,NY,27.682452528025625
13308,Oneida County,NY,84.35140700068634
13317,Montgomery County,NY,95.49302219171814
13332,Madison County,NY,78.01418439716312
13367,Lewis County,NY,54.815831617478835
13407,Herkimer County,NY,42.71333790894532
13421,Madison County,NY,58.86524822695035
13440,Oneida County,NY,0.5948295584534431
13601,Jefferson County,NY,9.242736215968886
13676,St. Lawrence County,NY,16.312056737588655
13746,Broome County,NY,82.08647906657515
13760,Broome County,NY,0.2516586593456875
13830,Chenango County,NY,47.860901395561655
13838,Delaware County,NY,50.720658888126295
13850,Broome County,NY,5.948295584534431
13865,Broome County,NY,29.283916723861818
13901,Broome County,NY,8.464882177991306
14005,Genesee County,NY,93.59414321665523
14009,Wyoming County,NY,90.80301990391216
14020,Genesee County,NY,66.89544726607184
14031,Erie County,NY,72.18027911233126
14051,Erie County,NY,23.61015785861359
14057,Erie County,NY,86.82223747426218
14072,Erie County,NY,23.930450697780827
14075,Erie County,NY,2.699611072981011
14167,Wyoming County,NY,98.00960878517502
14206,Erie County,NY,4.804392587508579
14207,Erie County,NY,46.60260809883322
14208,Erie County,NY,13.93273850377488
14211,Erie County,NY,48.15831617478838
14213,Erie County,NY,66.11759322809426
14215,Erie County,NY,13.177762525737819
14218,Erie County,NY,51.79592770533059
14221,Erie County,NY,3.912148249828414
14223,Erie County,NY,13.47517730496454
14304,Niagara County,NY,10.0663463738275
14305,Niagara County,NY,11.599176389842142
14425,Ontario County,NY,6.794783802333562
14432,Ontario County,NY,18.828643331045527
14456,Ontario County,NY,2.2878059940517046
14464,Monroe County,NY,32.96728437428506
14467,Monroe County,NY,71.58544955387784
14468,Monroe County,NY,6.9320521619766655
14485,Livingston County,NY,68.33676504232442
14502,Wayne County,NY,13.063372226035233
14513,Wayne County,NY,11.050102951269732
14514,Monroe County,NY,50.057195149851296
14522,Wayne County,NY,48.29558453443148
14526,Monroe County,NY,5.628002745367193
14527,Yates County,NY,12.788835506749027
14533,Livingston County,NY,96.3623884694578
14546,Monroe County,NY,75.52047586364677
14548,Ontario County,NY,46.48821779913063
14559,Monroe County,NY,3.752001830244795
14564,Ontario County,NY,7.801418439716312
14580,Monroe County,NY,0.18302447952413636
14586,Monroe County,NY,16.47220315717227
14589,Wayne County,NY,69.22900938000458
14590,Wayne County,NY,26.492793411118736
14605,Monroe County,NY,2.8826355525051475
14606,Monroe County,NY,6.314344543582704
14609,Monroe County,NY,10.318005033173188
14611,Monroe County,NY,43.697094486387556
14612,Monroe County,NY,5.124685426675818
14613,Monroe County,NY,3.889270189887897
14615,Monroe County,NY,3.8435140700068633
14617,Monroe County,NY,28.4603065660032
14619,Monroe County,NY,26.012354152367877
14620,Monroe County,NY,12.445664607641271
14621,Monroe County,NY,12.010981468771448
14622,Monroe County,NY,58.40768702814001
14624,Monroe County,NY,62.571493937314116
14626,Monroe County,NY,0.8922443376801648
14701,Chautauqua County,NY,17.3186913749714
14715,Allegany County,NY,72.04301075268818
14807,Steuben County,NY,85.95287119652254
14812,Schuyler County,NY,75.20018302447953
14821,Steuben County,NY,83.59643102264927
14873,Steuben County,NY,94.5092656142759
14895,Allegany County,NY,64.01281171356669
14905,Chemung County,NY,69.02310684053992
27023,Forsyth County,NC,52.18485472431937
27028,Davie County,NC,5.513612445664608
27048,Rockingham County,NC,56.668954472660715
27101,Forsyth County,NC,70.89910775566231
27103,Forsyth County,NC,5.376344086021505
27104,Forsyth County,NC,14.2301532830016
27105,Forsyth County,NC,15.854495538778313
27106,Forsyth County,NC,74.87989018531228
27107,Forsyth County,NC,21.596888583848088
27127,Forsyth County,NC,45.59597346145047
27203,Randolph County,NC,41.043239533287576
27205,Randolph County,NC,23.47288949897049
27215,Alamance County,NC,3.3173186913749717
27217,Alamance County,NC,4.712880347746511
27253,Alamance County,NC,28.50606268588424
27260,Guilford County,NC,36.58201784488676
27262,Guilford County,NC,56.41729581331503
27265,Guilford County,NC,53.09997712194006
27278,Orange County,NC,9.448638755433539
27288,Rockingham County,NC,4.87302676733013
27292,Davidson County,NC,9.311370395790437
27325,Moore County,NC,91.60375200183024
27330,Lee County,NC,77.09906199954244
27332,Lee County,NC,20.20132692747655
27349,Alamance County,NC,68.03935026309769
27360,Davidson County,NC,43.14802104781514
27370,Randolph County,NC,56.829100892244334
27405,Guilford County,NC,20.247083047357584
27406,Guilford County,NC,62.80027453671929
27409,Guilford County,NC,91.12331274307938
27410,Guilford County,NC,16.060398078242965
27504,Johnston County,NC,44.26904598490048
27505,Harnett County,NC,92.40448409974834
27513,Wake County,NC,42.4159231297186
27519,Wake County,NC,29.810112102493708
27525,Franklin County,NC,70.80759551590026
27526,Wake County,NC,41.477922672157405
27527,Johnston County,NC,53.76344086021505
27530,Wayne County,NC,45.68748570121254
27534,Wayne County,NC,50.080073209791806
27540,Wake County,NC,27.087622969572177
27542,Johnston County,NC,54.40402653854953
27545,Wake County,NC,26.058110272248914
27577,Johnston County,NC,84.23701670098376
27587,Wake County,NC,55.845344314802105
27592,Wake County,NC,54.24388011896591
27596,Franklin County,NC,87.39418897277511
27603,Wake County,NC,90.39121482498285
27604,Wake County,NC,16.79249599633951
27609,Wake County,NC,18.691374971402425
27610,Wake County,NC,2.2191718142301533
27615,Wake County,NC,22.557767101349803
27616,Wake County,NC,8.876687256920613
27701,Durham County,NC,63.2120796156486
27703,Durham County,NC,3.6604895904827273
27704,Durham County,NC,3.8663921299473802
27712,Durham County,NC,81.4687714481812
27801,Edgecombe County,NC,55.021734156943495
27803,Nash County,NC,62.8231525966598
27804,Nash County,NC,68.79432624113475
27805,Hertford County,NC,99.03912148249829
27831,Northampton County,NC,97.82658430565088
27834,Pitt County,NC,14.321665522763668
27850,Halifax County,NC,79.29535575383207
27856,Nash County,NC,63.14344543582704
27858,Pitt County,NC,60.512468542667584
27874,Halifax County,NC,88.56097002974148
27886,Edgecombe County,NC,51.95607412491421
27889,Beaufort County,NC,15.648592999313657
27893,Wilson County,NC,26.72157401052391
27896,Wilson County,NC,66.50652024708305
28025,Cabarrus County,NC,3.683367650423244
28056,Gaston County,NC,27.224891329215282
28075,Cabarrus County,NC,79.68428277282086
28079,Union County,NC,28.94074582475406
28081,Cabarrus County,NC,9.334248455730954
28086,Cleveland County,NC,11.416151910318005
28090,Cleveland County,NC,51.15534202699611
28098,Gaston County,NC,95.973461450469
28104,Union County,NC,48.93617021276596
28105,Mecklenburg County,NC,72.86662091054679
28107,Cabarrus County,NC,91.55799588194921
28112,Union County,NC,27.453671928620455
28114,Rutherford County,NC,80.89681994966827
28115,Iredell County,NC,9.036833676504234
28144,Rowan County,NC,17.684740334019676
28152,Cleveland County,NC,19.652253488904144
28159,Rowan County,NC,99.70258522077327
28166,Iredell County,NC,66.07183710821323
28168,Lincoln County,NC,81.92633264699154
28202,Mecklenburg County,NC,82.29238160603981
28203,Mecklenburg County,NC,71.74559597346145
28205,Mecklenburg County,NC,67.28437428506062
28208,Mecklenburg County,NC,2.997025852207733
28212,Mecklenburg County,NC,39.281628917867764
28213,Mecklenburg County,NC,40.814458933882406
28216,Mecklenburg County,NC,3.065660032029284
28217,Mecklenburg County,NC,32.37245481583162
28262,Mecklenburg County,NC,51.33836650652025
28269,Mecklenburg County,NC,44.01738732555479
28273,Mecklenburg County,NC,25.783573552962707
28277,Mecklenburg County,NC,57.401052390757265
28303,Cumberland County,NC,88.56097002974148
28306,Bladen County,NC,66.73530084648822
28312,Cumberland County,NC,91.60375200183024
28314,Cumberland County,NC,15.1681537405628
28326,Harnett County,NC,68.65705788149164
28327,Moore County,NC,54.60992907801418
28328,Sampson County,NC,18.32532601235415
28333,Wayne County,NC,45.939144360558224
28334,Sampson County,NC,62.594371997254626
28339,Harnett County,NC,73.73598718828643
28340,Robeson County,NC,70.35003431708992
28352,Scotland County,NC,12.056737588652481
28356,Harnett County,NC,96.3623884694578
28357,Robeson County,NC,98.51292610386639
28358,Robeson County,NC,62.6858842370167
28364,Robeson County,NC,59.96339510409518
28365,Wayne County,NC,44.429192404484105
28371,Robeson County,NC,84.0311141615191
28376,Hoke County,NC,14.893617021276595
28379,Richmond County,NC,29.123770304278196
28390,Harnett County,NC,66.4378860672615
28398,Duplin County,NC,70.78471745595974
28403,New Hanover County,NC,55.63944177533745
28405,New Hanover County,NC,18.050789293067947
28409,New Hanover County,NC,22.1459620224205
28451,Brunswick County,NC,43.90299702585221
28462,Brunswick County,NC,37.108213223518646
28466,Duplin County,NC,95.33287577213451
28470,Brunswick County,NC,81.10272248913292
28479,Brunswick County,NC,88.21779913063372
28516,Carteret County,NC,55.22763669640815
28518,Duplin County,NC,78.54037977579502
28532,Craven County,NC,54.24388011896591
28539,Onslow County,NC,94.32624113475178
28540,Onslow County,NC,12.194005948295585
28546,Onslow County,NC,60.55822466254862
28560,Craven County,NC,74.9027682452528
28580,Greene County,NC,64.33310455273393
28601,Catawba County,NC,25.87508579272478
28602,Catawba County,NC,55.73095401509952
28612,Burke County,NC,45.80187600091512
28625,Iredell County,NC,6.566003202928392
28650,Catawba County,NC,46.69412033859528
28655,Burke County,NC,11.827956989247312
28657,Avery County,NC,78.60901395561658
28659,Wilkes County,NC,8.9910775566232
28678,Alexander County,NC,90.09380004575613
28681,Alexander County,NC,53.992221459620225
28690,Burke County,NC,34.66026080988332
28697,Wilkes County,NC,75.7035003431709
28705,Mitchell County,NC,72.68359643102265
28715,Buncombe County,NC,30.13040494166095
28732,Henderson County,NC,56.71471059254175
28739,Henderson County,NC,65.49988560970029
28752,McDowell County,NC,5.879661404712881
28753,Madison County,NC,67.74193548387096
28754,Madison County,NC,89.77350720658887
28761,McDowell County,NC,65.61427590940289
28762,McDowell County,NC,67.42164264470372
28779,Jackson County,NC,38.00045756119881
58103,Cass County,ND,2.059025394646534
58503,Burleigh County,ND,16.861130176161062
58538,Sioux County,ND,98.44429192404483
58554,Morton County,ND,19.10318005033173
58601,Stark County,ND,59.39144360558225
58701,Ward County,ND,79.93594143216656
58703,Ward County,ND,58.68222374742622
43016,Franklin County,OH,42.71333790894532
43023,Licking County,OH,79.77579501258293
43026,Franklin County,OH,33.562113932738505
43031,Licking County,OH,68.42827728208648
43040,Union County,OH,40.17387325554793
43044,Champaign County,OH,95.40150995195607
43055,Licking County,OH,21.871425303134295
43056,Licking County,OH,20.041180507892932
43064,Madison County,OH,68.7256920613132
43068,Franklin County,OH,3.225806451612903
43078,Champaign County,OH,17.272935255090367
43080,Licking County,OH,75.47471974376573
43081,Franklin County,OH,36.238846945778995
43085,Franklin County,OH,77.30496453900709
43105,Fairfield County,OH,89.17867764813543
43110,Franklin County,OH,77.94555021734158
43123,Franklin County,OH,31.32006405856783
43130,Fairfield County,OH,0.5490734385724091
43204,Franklin County,OH,50.76641500800733
43206,Franklin County,OH,56.69183253260124
43207,Franklin County,OH,12.560054907343856
43209,Franklin County,OH,78.28872111644932
43211,Franklin County,OH,38.755433539235874
43219,Franklin County,OH,61.221688400823616
43222,Franklin County,OH,96.27087622969572
43223,Franklin County,OH,1.7387325554792954
43224,Franklin County,OH,51.544269045984905
43229,Franklin County,OH,13.040494166094716
43232,Franklin County,OH,21.13932738503775
43302,Marion County,OH,5.26195378631892
43326,Hardin County,OH,30.176161061541983
43410,Sandusky County,OH,64.85929993136583
43420,Sandusky County,OH,63.66964081445894
43460,Wood County,OH,64.37886067261496
43512,Defiance County,OH,21.57401052390757
43515,Fulton County,OH,78.35735529627088
43528,Lucas County,OH,22.12308396247998
43551,Wood County,OH,44.13177762525738
43558,Fulton County,OH,36.62777396476779
43560,Lucas County,OH,11.553420269961109
43604,Lucas County,OH,23.953328757721344
43605,Lucas County,OH,54.884465797300386
43606,Lucas County,OH,6.314344543582704
43607,Lucas County,OH,52.13909860443834
43608,Lucas County,OH,16.632349576755892
43609,Lucas County,OH,58.36193090825898
43610,Lucas County,OH,47.266071837108214
43611,Lucas County,OH,5.078929306794784
43612,Lucas County,OH,35.27796842827728
43613,Lucas County,OH,19.217570350034315
43614,Lucas County,OH,53.05422100205902
43615,Lucas County,OH,52.29924502402197
43620,Lucas County,OH,97.64355982612675
43623,Lucas County,OH,61.381834820407235
43701,Muskingum County,OH,28.82635552505148
43716,Monroe County,OH,100
43830,Muskingum County,OH,92.06131320064058
43845,Coshocton County,OH,44.61221688400824
43920,Columbiana County,OH,61.13017616106154
43952,Jefferson County,OH,2.3335621139327385
44001,Lorain County,OH,13.818348204072295
44004,Ashtabula County,OH,46.076412720201326
44012,Lorain County,OH,17.776252573781743
44035,Lorain County,OH,23.06108442004118
44052,Lorain County,OH,39.052848318462594
44053,Lorain County,OH,2.4250743536948067
44054,Lorain County,OH,79.52413635323724
44055,Lorain County,OH,48.432852894074585
44067,Summit County,OH,18.210935712651565
44070,Cuyahoga County,OH,9.90619995424388
44081,Lake County,OH,81.62891786776481
44094,Lake County,OH,7.481125600549074
44095,Lake County,OH,33.21894303363075
44102,Cuyahoga County,OH,47.81514527568062
44103,Cuyahoga County,OH,34.98055364905056
44104,Cuyahoga County,OH,89.22443376801648
44105,Cuyahoga County,OH,0.1601464195836193
44106,Cuyahoga County,OH,83.04735758407688
44107,Cuyahoga County,OH,13.818348204072295
44108,Cuyahoga County,OH,6.5888812628689095
44109,Cuyahoga County,OH,57.14939373141158
44110,Cuyahoga County,OH,3.088538091969801
44111,Cuyahoga County,OH,30.519331960649737
44113,Cuyahoga County,OH,71.95149851292611
44114,Cuyahoga County,OH,76.93891557995882
44117,Cuyahoga County,OH,82.79569892473118
44120,Cuyahoga County,OH,0.9380004575611988
44121,Cuyahoga County,OH,86.95950583390528
44125,Cuyahoga County,OH,0.38892701898878973
44126,Cuyahoga County,OH,31.869137497140244
44128,Cuyahoga County,OH,0.7549759780370624
44130,Cuyahoga County,OH,9.700297414779227
44132,Cuyahoga County,OH,70.7389613360787
44135,Cuyahoga County,OH,17.844886753603294
44136,Cuyahoga County,OH,93.63989933653626
44137,Cuyahoga County,OH,12.262640128117136
44138,Cuyahoga County,OH,16.426447037291236
44143,Cuyahoga County,OH,49.00480439258751
44144,Cuyahoga County,OH,22.626401281171358
44145,Cuyahoga County,OH,49.57675589110043
44146,Cuyahoga County,OH,63.39510409517273
44147,Cuyahoga County,OH,29.16952642415923
44201,Portage County,OH,84.14550446122169
44212,Medina County,OH,0.983756577442233
44221,Summit County,OH,88.90414092884923
44224,Summit County,OH,55.52505147563487
44240,Portage County,OH,13.109128345916265
44256,Medina County,OH,54.47266071837108
44266,Portage County,OH,60.90139556165637
44278,Summit County,OH,40.70006863417982
44281,Medina County,OH,35.66689544726607
44288,Portage County,OH,78.01418439716312
44301,Summit County,OH,76.1153054221002
44305,Summit County,OH,5.03317318691375
44306,Summit County,OH,37.01670098375658
44307,Summit County,OH,26.973232669869596
44310,Summit County,OH,38.41226264012812
44312,Summit County,OH,26.035232212308397
44313,Summit County,OH,14.047128803477465
44314,Summit County,OH,40.905971173644474
44320,Summit County,OH,72.15740105239075
44413,Columbiana County,OH,59.04827270647449
44440,Trumbull County,OH,76.82452528025624
44446,Trumbull County,OH,58.84237016700984
44460,Columbiana County,OH,8.60215053763441
44483,Trumbull County,OH,28.02562342713338
44484,Trumbull County,OH,13.543811484786088
44485,Trumbull County,OH,48.93617021276596
44505,Mahoning County,OH,15.808739418897277
44509,Mahoning County,OH,59.43719972546329
44601,Stark County,OH,2.104781514527568
44632,Stark County,OH,71.21940059482957
44646,Stark County,OH,3.0199039121482496
44647,Stark County,OH,30.97689315946008
44685,Summit County,OH,26.835964310226494
44691,Wayne County,OH,2.3564401738732554
44703,Stark County,OH,31.503088538091973
44705,Stark County,OH,11.393273850377488
44707,Stark County,OH,40.58567833447724
44708,Stark County,OH,13.132006405856783
44714,Stark County,OH,78.67764813543812
44805,Ashland County,OH,24.342255776710132
44811,Sandusky County,OH,15.968885838480897
44870,Erie County,OH,0.5719514985129261
44875,Richland County,OH,22.53488904140929
44882,Wyandot County,OH,96.22512010981468
44883,Seneca County,OH,7.023564401738732
44904,Richland County,OH,93.25097231754748
45005,Warren County,OH,68.40539922214596
45011,Butler County,OH,38.023335621139324
45013,Butler County,OH,59.116906886296036
45014,Butler County,OH,5.353466026080989
45030,Hamilton County,OH,69.64081445893389
45042,Butler County,OH,32.89865019446351
45044,Butler County,OH,11.370395790436971
45056,Butler County,OH,50.97231754747198
45066,Warren County,OH,74.94852436513384
45067,Butler County,OH,38.526652939830704
45069,Butler County,OH,9.837565774422329
45106,Clermont County,OH,86.59345687485701
45133,Highland County,OH,34.17982155113247
45135,Highland County,OH,93.38824067719057
45140,Clermont County,OH,10.52390757263784
45203,Hamilton County,OH,84.67169983985357
45205,Hamilton County,OH,9.265614275909403
45211,Hamilton County,OH,61.038663921299474
45212,Hamilton County,OH,64.74490963166323
45215,Hamilton County,OH,59.757492564630525
45223,Hamilton County,OH,24.639670555936856
45225,Hamilton County,OH,49.919926790208194
45227,Hamilton County,OH,29.64996568291009
45229,Hamilton County,OH,44.58933882406772
45230,Hamilton County,OH,67.35300846488218
45231,Hamilton County,OH,58.33905284831846
45237,Hamilton County,OH,14.001372683596431
45238,Hamilton County,OH,4.987417067032716
45239,Hamilton County,OH,6.199954243880119
45240,Hamilton County,OH,11.942347288949898
45248,Hamilton County,OH,35.20933424845573
45309,Montgomery County,OH,73.89613360787006
45320,Preble County,OH,22.717913520933426
45322,Montgomery County,OH,21.66552276366964
45324,Greene County,OH,3.202928391672386
45342,Montgomery County,OH,71.88286433310455
45344,Clark County,OH,71.42530313429421
45347,Preble County,OH,62.205444978265845
45365,Shelby County,OH,41.6151910318005
45373,Miami County,OH,13.749714024250745
45377,Montgomery County,OH,53.44314802104782
45385,Greene County,OH,40.745824754060855
45403,Montgomery County,OH,52.367879203843515
45406,Montgomery County,OH,5.5593685655456415
45409,Montgomery County,OH,97.14024250743537
45414,Montgomery County,OH,14.41317776252574
45415,Montgomery County,OH,85.65545641729582
45417,Montgomery County,OH,33.95104095172729
45420,Montgomery County,OH,12.422786547700754
45424,Montgomery County,OH,38.80118965911691
45429,Montgomery County,OH,59.277053305879654
45431,Montgomery County,OH,27.179135209334248
45439,Montgomery County,OH,66.14047128803477
45449,Montgomery County,OH,18.439716312056735
45503,Clark County,OH,45.29855868222375
45506,Clark County,OH,97.91809654541295
45619,Lawrence County,OH,13.200640585678332
45623,Gallia County,OH,91.99267902081904
45629,Scioto County,OH,89.01853122855182
45631,Gallia County,OH,3.591855410661176
45638,Lawrence County,OH,1.3726835964310227
45640,Jackson County,OH,2.0132692747655
45659,Lawrence County,OH,89.91077556623198
45690,Pike County,OH,6.611759322809426
45694,Scioto County,OH,13.543811484786088
45750,Washington County,OH,4.25531914893617
45801,Allen County,OH,21.734156943491193
45804,Allen County,OH,3.957904369709449
45805,Allen County,OH,4.781514527568062
45807,Allen County,OH,43.17089910775566
45840,Hancock County,OH,16.79249599633951
45891,Van Wert County,OH,64.72203157172271
73010,McClain County,OK,27.842598947609243
73012,Oklahoma County,OK,29.283916723861818
73018,Grady County,OK,27.179135209334248
73045,Oklahoma County,OK,88.21779913063372
73051,Cleveland County,OK,80.89681994966827
73064,Canadian County,OK,31.89201555708076
73065,McClain County,OK,78.47174559597346
73069,Cleveland County,OK,47.67787691603752
73072,Cleveland County,OK,42.57606954930222
73099,Canadian County,OK,58.97963852665294
73108,Oklahoma County,OK,47.654998856097
73109,Oklahoma County,OK,46.25943719972546
73112,Oklahoma County,OK,51.681537405628
73114,Oklahoma County,OK,35.4381148478609
73115,Oklahoma County,OK,39.21299473804621
73117,Oklahoma County,OK,95.2871196522535
73119,Oklahoma County,OK,36.696408144589334
73120,Oklahoma County,OK,24.250743536948065
73129,Oklahoma County,OK,31.68611301761611
73130,Oklahoma County,OK,42.94211850835049
73132,Oklahoma County,OK,35.59826126744452
73149,Oklahoma County,OK,97.57492564630519
73160,Cleveland County,OK,57.126515671471054
73162,Oklahoma County,OK,30.86250285975749
73170,Cleveland County,OK,16.151910318005033
73505,Comanche County,OK,82.47540608556395
73521,Jackson County,OK,49.43948753145733
74006,Washington County,OK,35.941432166552275
74008,Tulsa County,OK,48.86753603294441
74012,Tulsa County,OK,11.278883550674902
74019,Rogers County,OK,28.23152596659803
74021,Tulsa County,OK,90.02516586593457
74033,Tulsa County,OK,71.1278883550675
74063,Tulsa County,OK,38.64104323953329
74074,Payne County,OK,61.08442004118051
74104,Tulsa County,OK,73.11827956989248
75072,NA,NA,70.14413177762526
74106,Tulsa County,OK,86.0443834362846
74115,Tulsa County,OK,55.29627087622969
74127,Tulsa County,OK,44.49782658430565
74128,Tulsa County,OK,63.2120796156486
74129,Tulsa County,OK,69.43491191946923
74132,Tulsa County,OK,94.16609471516816
74133,Tulsa County,OK,15.78586135895676
74136,Tulsa County,OK,36.696408144589334
74146,Tulsa County,OK,77.41935483870968
74337,Mayes County,OK,94.646533973919
74338,Delaware County,OK,94.44063143445436
74403,Muskogee County,OK,16.95264241592313
74437,Okmulgee County,OK,71.24227865477008
74451,Cherokee County,OK,97.52916952642417
74464,Cherokee County,OK,2.8140013726835966
74525,Atoka County,OK,74.05628002745367
74601,Kay County,OK,75.72637840311141
74631,Kay County,OK,71.60832761381835
74701,Bryan County,OK,42.4159231297186
74745,McCurtain County,OK,45.89338824067719
74868,Seminole County,OK,53.351635781285744
74884,Seminole County,OK,68.01647220315718
74959,Le Flore County,OK,67.07847174559596
97015,Clackamas County,OR,34.088309311370395
97027,Clackamas County,OR,66.00320292839167
97030,Multnomah County,OR,6.840539922214596
97032,Marion County,OR,98.69595058339053
97051,Columbia County,OR,85.92999313658201
97058,Wasco County,OR,56.18851521390986
97070,Clackamas County,OR,43.90299702585221
97071,Marion County,OR,37.84031114161519
97078,Washington County,OR,79.50125829329673
97103,Clatsop County,OR,35.36948066803935
97123,Washington County,OR,8.533516357812857
97128,Yamhill County,OR,31.617478837794554
97132,Yamhill County,OR,54.72431937771677
97202,Multnomah County,OR,13.223518645618851
97203,Multnomah County,OR,22.44337680164722
97206,Multnomah County,OR,24.982841455044614
97212,Multnomah County,OR,46.213681079844434
97218,Multnomah County,OR,82.65843056508808
97222,Clackamas County,OR,14.527568062228324
97223,Washington County,OR,43.17089910775566
97233,Multnomah County,OR,6.039807824296499
97236,Multnomah County,OR,8.030199039121483
97266,Multnomah County,OR,77.05330587966141
97301,Marion County,OR,42.62182566918325
97302,Marion County,OR,24.731182795698924
97305,Marion County,OR,40.10523907572638
97361,Polk County,OR,69.2747654998856
97386,Linn County,OR,29.695721802791127
97402,Lane County,OR,33.76801647220316
97415,Curry County,OR,28.23152596659803
97420,Coos County,OR,65.04232441088995
97424,Lane County,OR,25.82932967284374
97444,Curry County,OR,94.12033859528712
97459,Coos County,OR,71.40242507435369
97477,Lane County,OR,10.798444291924044
97478,Lane County,OR,53.557538320750396
97601,Klamath County,OR,30.061770761839394
97603,Klamath County,OR,32.692747654998854
97701,Deschutes County,OR,74.14779226721573
97754,Crook County,OR,28.414550446122167
97818,Morrow County,OR,78.63189201555709
97850,Union County,OR,22.031571722717914
97882,Umatilla County,OR,88.53809196980096
97913,Malheur County,OR,87.60009151223976
97914,Malheur County,OR,10.432395332875773
15012,Westmoreland County,PA,42.644703729123776
15025,Allegheny County,PA,30.450697780828186
15033,Washington County,PA,83.43628460306566
15045,Allegheny County,PA,91.51223976206818
15063,Washington County,PA,76.06954930221917
15071,Allegheny County,PA,70.55593685655457
15085,Westmoreland County,PA,79.15808739418897
15120,Allegheny County,PA,26.286890871654084
15132,Allegheny County,PA,4.003660489590483
15136,Allegheny County,PA,14.664836421871424
15143,Allegheny County,PA,59.80324868451156
15145,Allegheny County,PA,76.13818348204072
15146,Allegheny County,PA,28.734843285289408
15201,Allegheny County,PA,40.65431251429879
15204,Allegheny County,PA,48.02104781514527
15206,Allegheny County,PA,49.645390070921984
15208,Allegheny County,PA,34.088309311370395
15210,Allegheny County,PA,5.490734385724091
15212,Allegheny County,PA,71.19652253488904
15217,Allegheny County,PA,72.72935255090368
15221,Allegheny County,PA,72.79798673072524
15222,Allegheny County,PA,77.37359871882865
15223,Allegheny County,PA,76.29832990162434
15227,Allegheny County,PA,53.351635781285744
15235,Allegheny County,PA,8.030199039121483
15370,Greene County,PA,31.66323495767559
15401,Fayette County,PA,32.73850377487989
15601,Westmoreland County,PA,1.1896591169068862
15613,Westmoreland County,PA,46.900022878059936
15650,Westmoreland County,PA,5.536490505605125
15656,Westmoreland County,PA,58.01876000915123
15670,Westmoreland County,PA,97.09448638755434
15701,Indiana County,PA,34.84328528940746
15801,Clearfield County,PA,2.493708533516358
15901,Cambria County,PA,72.54632807137955
15902,Cambria County,PA,24.731182795698924
15904,Cambria County,PA,41.40928849233585
15946,Cambria County,PA,78.9293067947838
16001,Butler County,PA,1.0981468771448182
16046,Butler County,PA,78.01418439716312
16066,Butler County,PA,47.60924273621597
16101,Lawrence County,PA,1.8073667353008465
16125,Mercer County,PA,53.00846488217799
16145,Mercer County,PA,99.47380462136812
16146,Mercer County,PA,37.65728666209105
16201,Armstrong County,PA,15.991763898421413
16226,Armstrong County,PA,52.02470830473575
16301,Venango County,PA,29.238160603980784
16314,Crawford County,PA,87.2340425531915
16335,Crawford County,PA,3.614733470601693
16365,Warren County,PA,69.4120338595287
16412,Erie County,PA,94.80668039350263
16428,Erie County,PA,89.49897048730267
16502,Erie County,PA,83.59643102264927
16503,Erie County,PA,18.50835049187829
16504,Erie County,PA,73.48432852894075
16507,Erie County,PA,70.0526195378632
16508,Erie County,PA,32.83001601464196
16509,Erie County,PA,67.81056966369252
16511,Erie County,PA,97.11736444749485
16601,Blair County,PA,2.9512697323266988
16602,Blair County,PA,24.891329215282543
16743,McKean County,PA,81.72043010752688
16801,Centre County,PA,21.459620224204986
16901,Tioga County,PA,50.97231754747198
17011,Cumberland County,PA,40.79158087394189
17032,Dauphin County,PA,75.840768702814
17036,Dauphin County,PA,10.363761153054222
17044,Mifflin County,PA,4.552733928162891
17046,Lebanon County,PA,18.371082132235188
17070,Cumberland County,PA,26.332646991535118
17103,Dauphin County,PA,21.185083504918783
17104,Dauphin County,PA,7.160832761381834
17110,Dauphin County,PA,5.811027224891329
17112,Dauphin County,PA,6.680393502630977
17268,Franklin County,PA,6.863417982155114
17315,York County,PA,42.5531914893617
17319,York County,PA,49.3937314115763
17331,York County,PA,2.127659574468085
17356,York County,PA,14.504690002287807
17362,York County,PA,51.109585907115076
17365,York County,PA,99.7483413406543
17401,York County,PA,61.107298101121025
17402,York County,PA,7.549759780370624
17403,York County,PA,0.8464882177991305
17404,York County,PA,21.848547243193778
17501,Lancaster County,PA,89.43033630748113
17512,Lancaster County,PA,58.17890642873485
17522,Lancaster County,PA,11.850835049187829
17540,Lancaster County,PA,65.27110501029513
17543,Lancaster County,PA,10.569663692518874
17552,Lancaster County,PA,54.74719743765729
17557,Lancaster County,PA,62.98329901624342
17560,Lancaster County,PA,83.00160146419584
17745,Clinton County,PA,22.30610844200412
17751,Clinton County,PA,82.20086936627774
17821,Montour County,PA,11.69068862960421
17856,Union County,PA,99.10775566231985
17901,Schuylkill County,PA,11.896591169068863
17921,Schuylkill County,PA,66.14047128803477
17963,Schuylkill County,PA,68.81720430107528
18017,Northampton County,PA,1.8760009151223975
18018,Lehigh County,PA,10.157858613589568
18031,Lehigh County,PA,86.41043239533288
18045,Northampton County,PA,19.995424388011894
18072,Northampton County,PA,78.15145275680622
18088,Northampton County,PA,49.82841455044612
18102,Lehigh County,PA,16.54083733699382
18104,Lehigh County,PA,45.16129032258064
18109,Lehigh County,PA,12.262640128117136
18202,Luzerne County,PA,28.80347746511096
18232,Carbon County,PA,91.51223976206818
18360,Monroe County,PA,42.6904598490048
18407,Lackawanna County,PA,28.437428506062684
18428,Pike County,PA,59.894760924273626
18436,Wayne County,PA,69.96110729810113
18444,Lackawanna County,PA,39.784946236559136
18505,Lackawanna County,PA,58.17890642873485
18510,Lackawanna County,PA,47.42621825669183
18518,Lackawanna County,PA,90.27682452528025
18634,Luzerne County,PA,59.094028826355526
18640,Luzerne County,PA,58.819492107069316
18702,Luzerne County,PA,57.03500343170899
18704,Luzerne County,PA,6.177076183939602
18707,Luzerne County,PA,38.64104323953329
18902,Bucks County,PA,80.2791123312743
18940,Bucks County,PA,43.30816746739877
18954,Bucks County,PA,89.15579958819492
18960,Bucks County,PA,79.91306337222603
18976,Bucks County,PA,31.777625257378173
19002,Montgomery County,PA,19.789521848547242
19007,Bucks County,PA,72.13452299245024
19008,Delaware County,PA,32.235186456188515
19013,Delaware County,PA,32.14367421642645
19015,Delaware County,PA,19.469229009380005
19018,Delaware County,PA,12.971859986273165
19020,Bucks County,PA,33.17318691374972
19021,Bucks County,PA,43.17089910775566
19023,Delaware County,PA,64.65339739190117
19026,Delaware County,PA,72.84374285060626
19027,Montgomery County,PA,25.348890414092885
19032,Delaware County,PA,94.18897277510867
19036,Delaware County,PA,34.29421185083505
19046,Montgomery County,PA,76.89315946007778
19047,Bucks County,PA,11.027224891329215
19053,Bucks County,PA,15.602836879432624
19056,Bucks County,PA,92.67902081903455
19057,Bucks County,PA,91.80965454129489
19061,Delaware County,PA,74.78837794555022
19070,Delaware County,PA,77.23633035918554
19082,Delaware County,PA,39.09860443834363
19083,Delaware County,PA,90.66575154426904
19090,Montgomery County,PA,89.68199496682682
19094,Delaware County,PA,95.19560741249143
19104,Philadelphia County,PA,20.65888812628689
19111,Philadelphia County,PA,19.58361930908259
19115,Philadelphia County,PA,31.914893617021278
19120,Philadelphia County,PA,49.8055364905056
19121,Philadelphia County,PA,48.821779913063374
19122,Philadelphia County,PA,27.110501029512697
19124,Philadelphia County,PA,16.929764355982613
19131,Philadelphia County,PA,1.7844886753603295
19133,Philadelphia County,PA,5.673758865248227
19134,Philadelphia County,PA,6.88629604209563
19136,Philadelphia County,PA,40.013726835964306
19138,Philadelphia County,PA,24.021962937542895
19139,Philadelphia County,PA,8.647906657515444
19140,Philadelphia County,PA,37.90894532143675
19141,Philadelphia County,PA,2.4479524136353237
19142,Philadelphia County,PA,23.724548158316175
19143,Philadelphia County,PA,2.585220773278426
19144,Philadelphia County,PA,10.020590253946466
19145,Philadelphia County,PA,2.3106840539922215
19146,Philadelphia County,PA,28.34591626630062
19148,Philadelphia County,PA,33.44772363303592
19149,Philadelphia County,PA,2.264927934111187
19150,Philadelphia County,PA,16.312056737588655
19151,Philadelphia County,PA,25.00571951498513
19152,Philadelphia County,PA,32.02928391672386
19330,Chester County,PA,95.88194921070694
19363,Chester County,PA,83.32189430336308
19401,Montgomery County,PA,34.38572409059712
19406,Montgomery County,PA,27.54518416838252
19426,Montgomery County,PA,18.005033173186913
19428,Montgomery County,PA,27.751086707847172
19446,Montgomery County,PA,5.422100205902539
19460,Chester County,PA,38.04621368107984
19473,Montgomery County,PA,68.54266758178906
19518,Berks County,PA,29.764355982612674
19560,Berks County,PA,88.81262868908718
19601,Berks County,PA,0.9608785175017158
19602,Berks County,PA,54.587051018073666
19604,Berks County,PA,22.077327842598947
19605,Berks County,PA,45.68748570121254
19606,Berks County,PA,3.729123770304278
02809,Bristol County,RI,38.961336078700526
02828,Providence County,RI,89.9336536261725
02895,Providence County,RI,4.209563029055136
02907,Providence County,RI,22.077327842598947
02908,Providence County,RI,23.244108899565315
29053,Lexington County,SC,82.63555250514756
29063,Richland County,SC,89.5447266071837
29067,Lancaster County,SC,76.48135438114848
29069,Darlington County,SC,96.98009608785175
29078,Kershaw County,SC,66.59803248684511
29107,Orangeburg County,SC,98.00960878517502
29108,Newberry County,SC,38.1148478609014
29130,Fairfield County,SC,78.47174559597346
29161,Florence County,SC,55.59368565545641
29170,Lexington County,SC,78.83779455502173
29172,Lexington County,SC,91.35209334248455
29180,Fairfield County,SC,65.3626172500572
29203,Richland County,SC,39.00709219858156
29204,Richland County,SC,52.93983070235644
29209,Richland County,SC,26.56142759094029
29229,Richland County,SC,20.338595287119652
29301,Spartanburg County,SC,46.37382749942805
29316,Spartanburg County,SC,20.81903454587051
29340,Cherokee County,SC,22.626401281171358
29349,Spartanburg County,SC,72.27179135209335
29360,Laurens County,SC,73.41569434911919
29365,Spartanburg County,SC,42.2786547700755
29379,Union County,SC,83.77945550217342
29388,Spartanburg County,SC,43.17089910775566
29401,Charleston County,SC,96.17936398993365
29405,Charleston County,SC,42.16426447037291
29406,Charleston County,SC,11.461908030199039
29407,Charleston County,SC,72.36330359185541
29410,Berkeley County,SC,60.6726149622512
29418,Charleston County,SC,21.070693205216198
29420,Dorchester County,SC,28.94074582475406
29440,Georgetown County,SC,27.522306108442002
29445,Berkeley County,SC,39.190116678105696
29456,Dorchester County,SC,18.50835049187829
29466,Charleston County,SC,30.084648821779915
29472,Dorchester County,SC,69.09174102036147
29488,Colleton County,SC,50.03431708991077
29501,Florence County,SC,46.533973919011665
29506,Florence County,SC,60.6726149622512
29512,Marlboro County,SC,36.07870052619538
29520,Chesterfield County,SC,61.381834820407235
29536,Dillon County,SC,35.32372454815832
29541,Florence County,SC,65.95744680851064
29569,Horry County,SC,27.842598947609243
29570,Marlboro County,SC,96.86570578814917
29574,Marion County,SC,72.86662091054679
29579,Horry County,SC,95.26424159231297
29588,Horry County,SC,19.171814230153284
29609,Greenville County,SC,22.992450240219632
29611,Greenville County,SC,4.598490048043926
29617,Greenville County,SC,51.59002516586594
29627,Anderson County,SC,40.49416609471517
29646,Greenwood County,SC,59.780370624571034
29650,Greenville County,SC,20.521619766643788
29655,Anderson County,SC,71.74559597346145
29662,Greenville County,SC,76.2296957218028
29669,Anderson County,SC,44.383436284603064
29673,Greenville County,SC,20.84191260581103
29681,Greenville County,SC,12.720201326927477
29687,Greenville County,SC,46.16792495996339
29693,Oconee County,SC,47.929535575383206
29702,Cherokee County,SC,85.28940745824755
29720,Lancaster County,SC,70.39579043697094
29730,York County,SC,7.641272020132693
29803,Aiken County,SC,24.84557309540151
29906,Beaufort County,SC,52.665293983070235
57006,Brookings County,SD,45.52733928162892
57078,Yankton County,SD,80.48501487073895
57103,Minnehaha County,SD,10.29512697323267
57104,Minnehaha County,SD,14.298787462823153
57105,Minnehaha County,SD,27.568062228323036
57201,Codington County,SD,64.26447037291237
57252,Grant County,SD,84.28277282086479
57501,Hughes County,SD,90.23106840539921
57701,Pennington County,SD,7.709906199954244
57717,Butte County,SD,82.91008922443378
37013,Davidson County,TN,37.95470144131778
37025,Hickman County,TN,96.93433996797071
37027,Williamson County,TN,55.456417295813324
37040,Montgomery County,TN,11.187371310912834
37042,Montgomery County,TN,38.252116220544494
37043,Montgomery County,TN,51.681537405628
37055,Dickson County,TN,89.3845801876001
37061,Houston County,TN,92.29009380004575
37066,Sumner County,TN,3.431708991077557
37075,Sumner County,TN,47.860901395561655
37087,Wilson County,TN,72.50057195149851
37098,Hickman County,TN,65.61427590940289
37110,Warren County,TN,28.689087165408374
37115,Davidson County,TN,4.049416609471517
37122,Wilson County,TN,13.77259208419126
37127,Rutherford County,TN,43.39967970716083
37128,Rutherford County,TN,13.292152825440404
37129,Rutherford County,TN,6.382978723404255
37130,Rutherford County,TN,8.579272477693891
37137,Hickman County,TN,96.63692518874399
37160,Bedford County,TN,66.23198352779684
37172,Robertson County,TN,5.833905284831846
37179,Williamson County,TN,76.89315946007778
37205,Davidson County,TN,54.495538778311605
37206,Davidson County,TN,48.730267673301306
37207,Davidson County,TN,4.301075268817205
37208,Davidson County,TN,40.288263555250516
37209,Davidson County,TN,46.671242278654766
37214,Davidson County,TN,41.043239533287576
37215,Davidson County,TN,97.96385266529398
37221,Davidson County,TN,77.87691603752002
37322,Meigs County,TN,44.33768016472203
37327,Sequatchie County,TN,24.09059711736445
37330,Franklin County,TN,53.90070921985816
37342,Coffee County,TN,95.67604667124228
37343,Hamilton County,TN,36.99382292381606
37353,Bradley County,TN,89.43033630748113
37367,Bledsoe County,TN,45.68748570121254
37397,Marion County,TN,72.72935255090368
37402,Hamilton County,TN,93.8458018760009
37405,Hamilton County,TN,60.420956302905516
37406,Hamilton County,TN,49.00480439258751
37407,Hamilton County,TN,75.52047586364677
37411,Hamilton County,TN,20.88766872569206
37415,Hamilton County,TN,39.281628917867764
37416,Hamilton County,TN,35.4381148478609
37615,Washington County,TN,40.517044154655686
37617,Sullivan County,TN,58.13315030885381
37660,Sullivan County,TN,2.63097689315946
37665,Sullivan County,TN,70.41866849691147
37725,Jefferson County,TN,33.58499199267902
37742,Loudon County,TN,83.80233356211393
37743,Greene County,TN,4.369709448638756
37745,Greene County,TN,40.17387325554793
37748,Roane County,TN,17.524593914436057
37755,Scott County,TN,97.82658430565088
37760,Jefferson County,TN,41.22626401281171
37766,Campbell County,TN,51.45275680622283
37769,Anderson County,TN,96.45390070921985
37774,Loudon County,TN,26.973232669869596
37777,Blount County,TN,41.45504461221689
37801,Blount County,TN,27.293525509036833
37803,Blount County,TN,47.42621825669183
37804,Blount County,TN,13.703957904369709
37807,Union County,TN,80.6680393502631
37830,Anderson County,TN,11.004346831388698
37852,Scott County,TN,97.57492564630519
37909,Knox County,TN,72.68359643102265
37914,Knox County,TN,19.28620452985587
37915,Knox County,TN,98.32990162434226
37917,Knox County,TN,48.54724319377717
37918,Knox County,TN,5.101807366735301
37920,Knox County,TN,21.390986044383435
37921,Knox County,TN,14.207275223061083
38002,Shelby County,TN,50.62914664836422
38016,Shelby County,TN,66.27773964767788
38039,Hardeman County,TN,96.3623884694578
38053,Shelby County,TN,63.6238846945779
38058,Tipton County,TN,93.54838709677419
38063,Lauderdale County,TN,25.097231754747195
38068,Fayette County,TN,71.33379089453214
38103,Shelby County,TN,92.7476549988561
38106,Shelby County,TN,6.2457103637611535
38107,Shelby County,TN,74.60535346602609
38108,Shelby County,TN,69.2518874399451
38109,Shelby County,TN,54.54129489819264
38111,Shelby County,TN,35.50674902768245
38112,Shelby County,TN,86.79935941432166
38114,Shelby County,TN,9.791809654541295
38115,Shelby County,TN,70.18988789750628
38116,Shelby County,TN,50.880805307709906
38118,Shelby County,TN,65.45412948981927
38119,Shelby County,TN,65.86593456874857
38127,Shelby County,TN,49.37085335163578
38128,Shelby County,TN,67.10134980553649
38141,Shelby County,TN,28.84923358499199
38225,Weakley County,TN,94.96682681308624
38230,Weakley County,TN,97.25463280713795
38237,Weakley County,TN,62.25120109814688
38242,Henry County,TN,63.2120796156486
38260,Obion County,TN,94.73804621368109
38301,Madison County,TN,18.691374971402425
38305,Madison County,TN,3.111416151910318
38343,Gibson County,TN,28.323038206360103
38344,Carroll County,TN,56.46305193319606
38351,Henderson County,TN,80.53077099062
38372,Hardin County,TN,79.43262411347519
38401,Maury County,TN,14.39029970258522
38462,Lewis County,TN,53.260123541523676
38506,Putnam County,TN,57.446808510638306
38562,Jackson County,TN,76.02379318233814
38570,Overton County,TN,52.59665980324868
38571,Cumberland County,TN,35.59826126744452
38572,Cumberland County,TN,43.697094486387556
38583,White County,TN,12.079615648592998
75001,Dallas County,TX,82.49828414550447
75002,Collin County,TX,35.872797986730724
75006,Dallas County,TX,61.72500571951498
75007,Denton County,TX,28.894989704873026
75020,Grayson County,TX,29.03225806451613
75022,Denton County,TX,87.27979867307253
75035,Collin County,TX,54.12948981926332
75038,Dallas County,TX,74.03340196751316
75040,Dallas County,TX,7.069320521619766
75041,Dallas County,TX,59.84900480439259
75042,Dallas County,TX,75.74925646305192
75043,Dallas County,TX,66.82681308625028
75048,Dallas County,TX,56.62319835277968
75050,Dallas County,TX,74.99428048501487
75051,Dallas County,TX,74.81125600549073
75052,Dallas County,TX,49.55387783115992
75056,Denton County,TX,15.740105239075728
75060,Dallas County,TX,23.74742621825669
75061,Dallas County,TX,32.37245481583162
75062,Dallas County,TX,27.31640356897735
75063,Dallas County,TX,38.91557995881949
75065,Denton County,TX,90.7343857240906
75067,Denton County,TX,16.449325097231753
75068,Denton County,TX,46.213681079844434
75071,Collin County,TX,42.91924044840997
75074,Collin County,TX,88.01189659116908
75075,Collin County,TX,46.25943719972546
75081,Dallas County,TX,89.59048272706475
75089,Dallas County,TX,43.39967970716083
75092,Grayson County,TX,28.50606268588424
75098,Collin County,TX,9.402882635552505
75104,Dallas County,TX,10.478151452756807
75109,Navarro County,TX,99.42804850148707
75110,Navarro County,TX,58.727979867307255
75115,Dallas County,TX,36.33035918554107
75116,Dallas County,TX,93.18233813772592
75119,Ellis County,TX,35.00343170899108
75142,Kaufman County,TX,86.1587737359872
75149,Dallas County,TX,51.49851292610387
75150,Dallas County,TX,37.47426218256692
75165,Ellis County,TX,13.360787005261955
75189,Rockwall County,TX,60.603980782429645
75203,Dallas County,TX,94.87531457332419
75208,Dallas County,TX,74.6282315259666
75210,Dallas County,TX,51.06382978723404
75211,Dallas County,TX,32.02928391672386
75212,Dallas County,TX,26.858842370167007
75215,Dallas County,TX,13.1548844657973
75216,Dallas County,TX,74.33081674673988
75217,Dallas County,TX,68.90871654083733
75220,Dallas County,TX,92.63326469915351
75223,Dallas County,TX,91.12331274307938
75224,Dallas County,TX,27.911233127430794
75227,Dallas County,TX,74.23930450697782
75228,Dallas County,TX,63.07481125600549
75229,Dallas County,TX,25.646305193319606
75231,Dallas County,TX,76.75589110043468
75232,Dallas County,TX,60.78700526195379
75236,Dallas County,TX,44.33768016472203
75237,Dallas County,TX,26.24113475177305
75240,Dallas County,TX,89.27018988789752
75241,Dallas County,TX,86.5705788149165
75243,Dallas County,TX,25.71493937314116
75249,Dallas County,TX,53.67192862045299
75254,Dallas County,TX,72.18027911233126
75287,Denton County,TX,22.855181880576527
75401,Hunt County,TX,37.428506062685884
75409,Collin County,TX,62.84603065660031
75460,Lamar County,TX,92.79341111873714
75474,Hunt County,TX,43.7657286662091
75482,Hopkins County,TX,40.1281171356669
75501,Bowie County,TX,76.7787691603752
75602,Gregg County,TX,39.55616563715397
75633,Panola County,TX,85.54106611759322
75701,Smith County,TX,18.462594371997255
75702,Smith County,TX,19.766643788606725
75703,Smith County,TX,16.197666437886067
75707,Smith County,TX,85.28940745824755
75708,Smith County,TX,84.71745595973461
75758,Henderson County,TX,69.98398535804164
75766,Cherokee County,TX,18.005033173186913
75771,Smith County,TX,35.52962708762297
75791,Smith County,TX,77.16769617936399
75839,Anderson County,TX,90.02516586593457
75840,Freestone County,TX,85.08350491878288
75862,Trinity County,TX,92.49599633951041
75904,Angelina County,TX,49.09631663234958
75941,Angelina County,TX,90.25394646533974
75961,Nacogdoches County,TX,49.43948753145733
75964,Nacogdoches County,TX,44.7037291237703
75965,Nacogdoches County,TX,51.97895218485472
76006,Tarrant County,TX,52.41363532372455
76009,Johnson County,TX,44.61221688400824
76010,Tarrant County,TX,30.01601464195836
76017,Tarrant County,TX,15.694349119194692
76021,Tarrant County,TX,17.776252573781743
76031,Johnson County,TX,46.900022878059936
76040,Tarrant County,TX,27.613818348204074
76043,Somervell County,TX,78.08281857698466
76048,Hood County,TX,25.303134294211848
76050,Johnson County,TX,74.83413406543124
76063,Tarrant County,TX,26.103866392129948
76067,Palo Pinto County,TX,68.26813086250286
76073,Wise County,TX,91.16906886296043
76103,Tarrant County,TX,87.25692061313201
76104,Tarrant County,TX,35.32372454815832
76105,Tarrant County,TX,7.870052619537864
76106,Tarrant County,TX,28.94074582475406
76111,Tarrant County,TX,83.50491878288722
76112,Tarrant County,TX,25.16586593456875
76114,Tarrant County,TX,59.16266300617708
76115,Tarrant County,TX,79.36398993365363
76117,Tarrant County,TX,78.42598947609243
76119,Tarrant County,TX,15.465568519789521
76120,Tarrant County,TX,90.94028826355525
76126,Tarrant County,TX,60.78700526195379
76132,Tarrant County,TX,76.2296957218028
76133,Tarrant County,TX,32.075040036604896
76134,Tarrant County,TX,61.747883779455506
76137,Tarrant County,TX,34.13406543125143
76164,Tarrant County,TX,80.71379547014413
76180,Tarrant County,TX,57.53832075040036
76210,Denton County,TX,70.60169297643559
76240,Cooke County,TX,21.894303363074812
76248,Tarrant County,TX,46.14504690002288
76258,Denton County,TX,95.5616563715397
76273,Grayson County,TX,80.09608785175017
76301,Wichita County,TX,27.751086707847172
76384,Wilbarger County,TX,62.15968885838481
76401,Erath County,TX,74.74262182566919
76450,Young County,TX,73.16403568977351
76462,Hood County,TX,99.51956074124915
76502,Bell County,TX,5.788149164950812
76504,Bell County,TX,3.385952871196522
76528,Coryell County,TX,14.092884923358499
76541,Bell County,TX,26.90459849004804
76543,Bell County,TX,13.315030885380919
76574,Williamson County,TX,78.9293067947838
76692,Hill County,TX,86.31892015557081
76705,McLennan County,TX,6.771905742393044
76708,McLennan County,TX,28.57469686570579
76801,Brown County,TX,68.1994966826813
76825,McCulloch County,TX,93.06794783802333
76903,Tom Green County,TX,24.06771905742393
77003,Harris County,TX,71.10501029512697
77004,Harris County,TX,74.19354838709677
77006,Harris County,TX,61.679249599633955
77009,Harris County,TX,27.476549988560972
77013,Harris County,TX,75.79501258293297
77014,Harris County,TX,40.95172729352551
77015,Harris County,TX,55.342026996110725
77016,Harris County,TX,57.83573552962709
77018,Harris County,TX,59.50583390528483
77020,Harris County,TX,39.922214596202245
77022,Harris County,TX,82.24662548615878
77023,Harris County,TX,41.11187371310913
77028,Harris County,TX,90.4598490048044
77031,Harris County,TX,84.85472431937772
77033,Harris County,TX,81.90345458705102
77034,Harris County,TX,38.86982383893846
77035,Harris County,TX,23.61015785861359
77036,Harris County,TX,33.51635781285747
77037,Harris County,TX,81.72043010752688
77039,Harris County,TX,55.479295355753834
77040,Harris County,TX,26.973232669869596
77044,Harris County,TX,52.04758636467628
77045,Harris County,TX,38.64104323953329
77047,Harris County,TX,37.3141157629833
77050,Harris County,TX,99.97712194005949
77051,Harris County,TX,34.72889498970487
77053,Fort Bend County,TX,42.072752230610845
77054,Harris County,TX,85.72409059711737
77056,Harris County,TX,61.90803019903912
77060,Harris County,TX,74.53671928620453
77061,Harris County,TX,82.77282086479066
77062,Harris County,TX,73.27842598947609
77064,Harris County,TX,18.80576527110501
77065,Harris County,TX,42.82772820864791
77072,Harris County,TX,81.42301532830017
77073,Harris County,TX,34.17982155113247
77074,Harris County,TX,64.10432395332876
77075,Harris County,TX,30.97689315946008
77080,Harris County,TX,54.24388011896591
77084,Harris County,TX,82.17799130633723
77086,Harris County,TX,94.92107069320521
77088,Harris County,TX,65.20247083047359
77089,Harris County,TX,75.90940288263556
77091,Harris County,TX,35.00343170899108
77092,Harris County,TX,37.497140242507434
77093,Harris County,TX,83.16174788377946
77095,Harris County,TX,49.62251201098147
77096,Harris County,TX,84.48867536032945
77099,Harris County,TX,81.67467398764585
77304,Montgomery County,TX,43.353923587279795
77306,Montgomery County,TX,84.90048043925876
77328,San Jacinto County,TX,64.49325097231755
77351,Polk County,TX,60.48959048272706
77373,Harris County,TX,64.1729581331503
77375,Harris County,TX,35.66689544726607
77378,Montgomery County,TX,66.59803248684511
77381,Montgomery County,TX,88.35506749027682
77386,Montgomery County,TX,17.364447494852435
77396,Harris County,TX,71.03637611530542
77407,Fort Bend County,TX,33.31045527339281
77414,Matagorda County,TX,26.652939830702355
77423,Waller County,TX,78.83779455502173
77429,Harris County,TX,4.118050789293068
77433,Harris County,TX,42.072752230610845
77437,Wharton County,TX,45.5044612216884
77445,Waller County,TX,77.87691603752002
77449,Harris County,TX,20.56737588652482
77459,Fort Bend County,TX,57.65271105010296
77469,Fort Bend County,TX,43.60558224662549
77477,Fort Bend County,TX,69.45778997940974
77493,Harris County,TX,43.033630748112564
77494,Fort Bend County,TX,97.71219400594829
77498,Fort Bend County,TX,81.83482040722947
77502,Harris County,TX,81.01121024937086
77505,Harris County,TX,87.62296957218028
77506,Harris County,TX,73.64447494852436
77510,Galveston County,TX,45.641729581331504
77511,Brazoria County,TX,5.742393045069778
77514,Chambers County,TX,82.29238160603981
77515,Brazoria County,TX,29.993136582017843
77520,Harris County,TX,25.39464653397392
77521,Harris County,TX,86.13589567604667
77523,Chambers County,TX,71.33379089453214
77531,Brazoria County,TX,89.43033630748113
77532,Harris County,TX,23.3584991992679
77535,Liberty County,TX,22.489132921528252
77539,Galveston County,TX,84.8318462594372
77541,Brazoria County,TX,28.87211164493251
77545,Fort Bend County,TX,50.285975749256465
77546,Galveston County,TX,40.21962937542896
77550,Galveston County,TX,7.89293067947838
77551,Galveston County,TX,12.743079386867995
77563,Galveston County,TX,59.00251658659346
77566,Brazoria County,TX,32.57835735529627
77568,Galveston County,TX,17.54747197437657
77571,Harris County,TX,42.98787462823152
77581,Brazoria County,TX,64.90505605124686
77583,Brazoria County,TX,32.44108899565317
77584,Brazoria County,TX,3.5232212308396247
77586,Harris County,TX,29.924502402196296
77587,Harris County,TX,67.00983756577442
77590,Galveston County,TX,4.758636467627545
77591,Galveston County,TX,82.74994280485015
77598,Harris County,TX,39.62479981697552
77611,Orange County,TX,85.74696865705788
77632,Orange County,TX,80.32486845115534
77657,Hardin County,TX,71.17364447494853
77662,Orange County,TX,26.447037291237702
77701,Jefferson County,TX,65.75154426904598
77703,Jefferson County,TX,55.79958819492107
77706,Jefferson County,TX,29.558453443148018
77708,Jefferson County,TX,69.64081445893389
77803,Brazos County,TX,40.905971173644474
77808,Brazos County,TX,41.95836193090826
77840,Brazos County,TX,26.46991535117822
77868,Grimes County,TX,50.76641500800733
77954,DeWitt County,TX,53.46602608098833
77979,Calhoun County,TX,81.8805765271105
78022,Live Oak County,TX,97.14024250743537
78040,Webb County,TX,57.35529627087623
78041,Webb County,TX,52.77968428277282
78046,Webb County,TX,5.765271105010295
78069,Atascosa County,TX,83.230382063601
78102,Bee County,TX,92.77053305879662
78108,Guadalupe County,TX,57.97300388927019
78109,Bexar County,TX,63.555250514756345
78114,Wilson County,TX,35.73552962708762
78119,Karnes County,TX,99.01624342255776
78130,Comal County,TX,36.85655456417296
78132,Comal County,TX,54.495538778311605
78133,Comal County,TX,41.91260581102723
78155,Guadalupe County,TX,10.867078471745597
78201,Bexar County,TX,37.97757950125829
78202,Bexar County,TX,85.40379775795013
78203,Bexar County,TX,80.37062457103637
78207,Bexar County,TX,8.693662777396478
78210,Bexar County,TX,11.324639670555937
78211,Bexar County,TX,67.69617936398994
78213,Bexar County,TX,27.842598947609243
78214,Bexar County,TX,76.57286662091055
78216,Bexar County,TX,25.303134294211848
78217,Bexar County,TX,50.42324410889957
78220,Bexar County,TX,73.98764584763212
78221,Bexar County,TX,84.58018760009152
78222,Bexar County,TX,88.26355525051476
78223,Bexar County,TX,52.34500114390299
78224,Bexar County,TX,84.85472431937772
78225,Bexar County,TX,93.11370395790436
78226,Bexar County,TX,84.90048043925876
78227,Bexar County,TX,52.230610844200406
78228,Bexar County,TX,13.955616563715397
78229,Bexar County,TX,67.16998398535804
78230,Bexar County,TX,40.95172729352551
78237,Bexar County,TX,65.01944635094944
78238,Bexar County,TX,59.29993136582018
78239,Bexar County,TX,75.10867078471746
78242,Bexar County,TX,29.32967284374285
78245,Bexar County,TX,10.75268817204301
78247,Bexar County,TX,33.97391901166781
78251,Bexar County,TX,69.29764355982613
78254,Bexar County,TX,27.133379089453214
78259,Bexar County,TX,62.84603065660031
78260,Bexar County,TX,69.29764355982613
78261,Bexar County,TX,82.08647906657515
78264,Bexar County,TX,76.29832990162434
78408,Nueces County,TX,74.55959734614504
78410,Nueces County,TX,87.57721345229925
78413,Nueces County,TX,57.103637611530544
78501,Hidalgo County,TX,28.50606268588424
78504,Hidalgo County,TX,21.36810798444292
78516,Hidalgo County,TX,42.94211850835049
78521,Cameron County,TX,77.30496453900709
78526,Cameron County,TX,52.733928162891786
78537,Hidalgo County,TX,87.37131091283459
78539,Hidalgo County,TX,40.35689773507207
78541,Hidalgo County,TX,31.182795698924732
78542,Hidalgo County,TX,23.884694577899797
78550,Cameron County,TX,74.9027682452528
78559,Cameron County,TX,84.19126058110272
78560,Hidalgo County,TX,93.77716769617936
78570,Hidalgo County,TX,80.57652711050103
78574,Hidalgo County,TX,51.59002516586594
78577,Hidalgo County,TX,80.96545412948983
78582,Starr County,TX,92.86204529855868
78586,Cameron County,TX,59.80324868451156
78589,Hidalgo County,TX,22.008693662777397
78596,Hidalgo County,TX,57.35529627087623
78599,Hidalgo County,TX,72.29466941203387
78611,Burnet County,TX,65.43125142987874
78626,Williamson County,TX,71.47105925417524
78629,Gonzales County,TX,80.8053077099062
78641,Williamson County,TX,35.30084648821779
78642,Williamson County,TX,79.68428277282086
78654,Burnet County,TX,61.15305422100206
78660,Travis County,TX,41.15762983299016
78664,Williamson County,TX,26.79020819034546
78665,Williamson County,TX,86.77648135438115
78666,Hays County,TX,13.017616106154199
78704,Travis County,TX,51.15534202699611
78705,Travis County,TX,95.60741249142073
78727,Travis County,TX,77.7167696179364
78729,Williamson County,TX,64.9508121711279
78731,Travis County,TX,95.14985129261039
78734,Travis County,TX,88.08053077099062
78741,Travis County,TX,90.61999542438801
78747,Travis County,TX,94.41775337451385
78754,Travis County,TX,93.93731411576299
78758,Travis County,TX,87.89750629146648
78834,Dimmit County,TX,95.21848547243194
78840,Val Verde County,TX,64.24159231297186
78852,Maverick County,TX,36.42187142530313
79104,Potter County,TX,98.35277968428278
79107,Potter County,TX,68.70281400137269
79108,Potter County,TX,87.5314573324182
79110,Randall County,TX,47.12880347746511
79201,Childress County,TX,99.38229238160604
79316,Terry County,TX,76.29832990162434
79323,Yoakum County,TX,64.40173873255549
79339,Lamb County,TX,88.17204301075269
79347,Bailey County,TX,75.52047586364677
79360,Gaines County,TX,33.05879661404713
79364,Lubbock County,TX,81.51452756806222
79401,Lubbock County,TX,96.1107298101121
79403,Lubbock County,TX,79.89018531228552
79412,Lubbock County,TX,84.62594371997255
79413,Lubbock County,TX,50.01143902997026
79415,Lubbock County,TX,49.14207275223061
79416,Lubbock County,TX,34.545870510180734
79423,Lubbock County,TX,44.10889956531686
79424,Lubbock County,TX,12.30839624799817
79510,Callahan County,TX,82.45252802562342
79603,Taylor County,TX,14.870738961336077
79605,Taylor County,TX,20.727522306108444
79701,Midland County,TX,24.433768016472204
79706,Midland County,TX,61.15305422100206
79707,Midland County,TX,48.57012125371769
79720,Howard County,TX,32.78425989476092
79761,Ector County,TX,79.75291695264242
79762,Ector County,TX,43.125142987874625
79763,Ector County,TX,17.9821551132464
79764,Ector County,TX,69.595058339052855
79838,El Paso County,TX,85.08350491878288
79849,El Paso County,TX,86.27316403568977
79904,El Paso County,TX,46.76275451841684
79905,El Paso County,TX,61.862274079158084
79907,El Paso County,TX,53.328757721345234
79912,El Paso County,TX,41.31777625257378
79915,El Paso County,TX,34.04255319148936
79924,El Paso County,TX,25.051475634866165
79927,El Paso County,TX,70.2127659574468
79928,El Paso County,TX,30.01601464195836
79932,El Paso County,TX,89.31594600777854
79935,El Paso County,TX,90.64287348432853
79936,El Paso County,TX,57.28666209105467
79938,El Paso County,TX,16.151910318005033
84029,Tooele County,UT,39.96797071608328
84041,Davis County,UT,19.217570350034315
84043,Utah County,UT,60.215053763440864
84047,Salt Lake County,UT,73.20979180965455
84054,Davis County,UT,59.20841912605811
84060,Summit County,UT,96.7741935483871
84065,Salt Lake County,UT,20.36147334706017
84067,Weber County,UT,18.94303363074811
84070,Salt Lake County,UT,31.04552733928163
84074,Tooele County,UT,54.90734385724091
84078,Uintah County,UT,85.51818805765271
84081,Salt Lake County,UT,15.419812399908489
84095,Salt Lake County,UT,22.260352322123083
84104,Salt Lake County,UT,28.11713566689545
84106,Salt Lake County,UT,18.371082132235188
84118,Salt Lake County,UT,30.359185541066118
84119,Salt Lake County,UT,74.1020361473347
84120,Salt Lake County,UT,15.48844657973004
84123,Salt Lake County,UT,9.196980096087852
84129,,UT,14.458933882406772
84302,Box Elder County,UT,86.45618851521391
84321,Cache County,UT,78.67764813543812
84401,Weber County,UT,24.731182795698924
84405,Weber County,UT,91.48936170212765
84414,Weber County,UT,57.85861358956761
84501,Carbon County,UT,75.61198810340883
84604,Utah County,UT,77.23633035918554
84606,Utah County,UT,78.44886753603294
84624,Millard County,UT,99.24502402196293
84701,Sevier County,UT,85.54106611759322
84720,Iron County,UT,73.62159688858385
84738,Washington County,UT,91.16906886296043
84790,Washington County,UT,25.94371997254633
05602,Washington County,VT,44.77236330359185
20109,Prince William County,VA,95.37863189201555
20110,Manassas city,VA,50.583390528483186
20112,Prince William County,VA,59.8718828643331
20120,Fairfax County,VA,33.790894532143675
20147,Loudoun County,VA,19.858156028368796
20155,Prince William County,VA,96.04209563029055
20166,Loudoun County,VA,86.1816517959277
20170,Fairfax County,VA,76.6415008007321
20171,Fairfax County,VA,31.914893617021278
20187,Fauquier County,VA,67.55891100434684
22015,Fairfax County,VA,33.31045527339281
22032,Fairfax County,VA,46.41958361930909
22033,Fairfax County,VA,73.48432852894075
22042,Fairfax County,VA,66.55227636696408
22066,Fairfax County,VA,84.35140700068634
22079,Fairfax County,VA,94.37199725463282
22101,Fairfax County,VA,33.08167467398764
22102,Fairfax County,VA,91.69526424159231
22150,Fairfax County,VA,34.29421185083505
22151,Fairfax County,VA,70.44154655685197
22153,Fairfax County,VA,39.62479981697552
22191,Prince William County,VA,29.58133150308854
22193,Prince William County,VA,4.895904827270647
22201,Arlington County,VA,41.13475177304964
22202,Arlington County,VA,92.2214596202242
22207,Arlington County,VA,93.73141157629833
22301,Alexandria city,VA,83.43628460306566
22303,Fairfax County,VA,57.97300388927019
22306,Fairfax County,VA,91.39784946236558
22309,Fairfax County,VA,12.834591626630063
22310,Fairfax County,VA,68.13086250285976
22311,Alexandria city,VA,89.77350720658887
22401,Fredericksburg city,VA,78.17433081674675
22407,Spotsylvania County,VA,30.702356440173872
22485,King George County,VA,76.59574468085107
22572,Richmond County,VA,85.54106611759322
22580,Caroline County,VA,87.920384351407
22601,Winchester city,VA,41.6151910318005
22602,Frederick County,VA,67.05559368565545
22655,Frederick County,VA,39.37314115762983
22801,Harrisonburg city,VA,24.45664607641272
22802,Harrisonburg city,VA,38.57240905971174
22815,Rockingham County,VA,33.21894303363075
22901,Albemarle County,VA,16.76961793639899
22902,Charlottesville city,VA,59.254175245939145
22903,Charlottesville city,VA,13.681079844429192
22947,Albemarle County,VA,95.90482727064746
22980,Waynesboro city,VA,17.11278883550675
23005,Hanover County,VA,59.29993136582018
23060,Henrico County,VA,99.13063372226036
23112,Chesterfield County,VA,75.10867078471746
23185,James City County,VA,93.31960649736902
23223,Henrico County,VA,32.55547929535575
23224,Richmond city,VA,64.58476321207962
23225,Richmond city,VA,25.646305193319606
23226,Richmond city,VA,85.54106611759322
23228,Henrico County,VA,30.839624799816978
23234,Chesterfield County,VA,7.938686799359414
23323,Chesapeake city,VA,17.63898421413864
23434,Suffolk city,VA,47.58636467627545
23451,Virginia Beach city,VA,73.04964539007092
23452,Virginia Beach city,VA,69.45778997940974
23453,Virginia Beach city,VA,78.38023335621139
23454,Virginia Beach city,VA,64.35598261267444
23455,Virginia Beach city,VA,59.13978494623656
23462,Virginia Beach city,VA,31.4115762983299
23502,Norfolk city,VA,50.217341569434915
23503,Norfolk city,VA,77.80828185769847
23504,Norfolk city,VA,94.14321665522763
23509,Norfolk city,VA,23.999084877602378
23510,Norfolk city,VA,75.26881720430107
23513,Norfolk city,VA,31.137039579043694
23523,Norfolk city,VA,92.95355753832075
23601,Newport News city,VA,39.14436055822466
23605,Newport News city,VA,90.4827270647449
23606,Newport News city,VA,90.4827270647449
23607,Newport News city,VA,95.0354609929078
23608,Newport News city,VA,66.34637382749943
23666,Hampton city,VA,20.727522306108444
23669,Hampton city,VA,9.814687714481812
23701,Portsmouth city,VA,29.42118508350492
23704,Portsmouth city,VA,13.612445664607641
23707,Portsmouth city,VA,34.3628460306566
23803,Petersburg city,VA,21.940059482955846
23831,Chesterfield County,VA,19.83527796842828
23834,Colonial Heights city,VA,62.45710363761153
23851,Franklin city,VA,71.81423015328299
23860,Hopewell city,VA,15.602836879432624
23901,Prince Edward County,VA,41.477922672157405
23970,Mecklenburg County,VA,48.47860901395561
24012,Roanoke city,VA,14.138641043239533
24019,Roanoke County,VA,82.4296499656829
24054,Henry County,VA,76.09242736215968
24073,Montgomery County,VA,57.927247769389155
24112,Henry County,VA,29.03225806451613
24151,Franklin County,VA,84.557309540151
24260,Russell County,VA,53.76344086021505
24343,Carroll County,VA,57.28666209105467
24354,Smyth County,VA,22.786547700754976
24382,Wythe County,VA,84.80896819949668
24477,Augusta County,VA,41.22626401281171
24520,Halifax County,VA,98.5358041638069
24572,Amherst County,VA,43.857240905971175
24614,Buchanan County,VA,41.36353237245481
24620,Buchanan County,VA,99.7254632807138
98003,King County,WA,63.78403111416152
98021,Snohomish County,WA,36.147334706016935
98023,King County,WA,12.079615648592998
98026,Snohomish County,WA,49.256463051933196
98031,King County,WA,74.26218256691833
98036,Snohomish County,WA,63.14344543582704
98037,Snohomish County,WA,43.857240905971175
98038,King County,WA,48.57012125371769
98042,King County,WA,6.634637382749943
98043,Snohomish County,WA,83.52779684282773
98045,King County,WA,69.18325326012355
98087,Snohomish County,WA,27.97986730725234
98117,King County,WA,43.39967970716083
98119,King County,WA,55.63944177533745
98125,King County,WA,22.031571722717914
98144,King County,WA,64.67627545184168
98204,Snohomish County,WA,12.354152367879204
98208,Snohomish County,WA,8.922443376801647
98258,Snohomish County,WA,37.5886524822695
98270,Snohomish County,WA,51.567147105925415
98282,Island County,WA,75.840768702814
98294,Snohomish County,WA,83.39052848318462
98310,Kitsap County,WA,78.47174559597346
98335,Pierce County,WA,41.54655685197895
98338,Pierce County,WA,28.94074582475406
98346,Kitsap County,WA,90.84877602379319
98387,Pierce County,WA,10.432395332875773
98404,Pierce County,WA,47.998169755204756
98409,Pierce County,WA,70.02974147792267
98445,Pierce County,WA,29.764355982612674
98446,Pierce County,WA,81.03408830931137
98531,Lewis County,WA,58.24754060855639
98550,Grays Harbor County,WA,72.43193777167696
98607,Clark County,WA,64.79066575154427
98626,Cowlitz County,WA,25.554792953557538
98632,Cowlitz County,WA,32.37245481583162
98642,Clark County,WA,89.61336078700526
98665,Clark County,WA,69.82383893845801
98684,Clark County,WA,69.29764355982613
98837,Grant County,WA,66.07183710821323
98948,Yakima County,WA,79.63852665293983
99016,Spokane County,WA,91.46648364218714
99208,Spokane County,WA,21.50537634408602
99216,Spokane County,WA,76.87028140013726
99217,Spokane County,WA,64.49325097231755
99301,Franklin County,WA,75.4289636238847
99336,Benton County,WA,23.335621139327383
99337,Benton County,WA,12.628689087165409
99352,Benton County,WA,56.76046671242278
99354,Benton County,WA,24.159231297185997
20001,District of Columbia,DC,8.739418897277512
20002,District of Columbia,DC,1.601464195836193
20003,District of Columbia,DC,31.251429878746283
20010,District of Columbia,DC,33.90528483184626
20011,District of Columbia,DC,47.54060855639442
20017,District of Columbia,DC,34.019675131548844
20019,District of Columbia,DC,45.27568062228323
20020,District of Columbia,DC,37.24548158316175
20024,District of Columbia,DC,39.121482498284145
20032,District of Columbia,DC,25.39464653397392
24701,Mercer County,WV,44.17753374513841
24739,Mercer County,WV,88.14916495081218
25045,Kanawha County,WV,77.60237931823382
25130,Boone County,WV,91.946922900938
25248,Jackson County,WV,99.65682910089224
25271,Jackson County,WV,49.57675589110043
25302,Kanawha County,WV,68.93159460077786
25306,Kanawha County,WV,54.24388011896591
25311,Kanawha County,WV,53.168611301761615
25401,Berkeley County,WV,19.1946922900938
25411,Morgan County,WV,62.25120109814688
25427,Berkeley County,WV,45.43582704186685
25428,Berkeley County,WV,43.697094486387556
25504,Cabell County,WV,38.1148478609014
25541,Cabell County,WV,49.00480439258751
25560,Putnam County,WV,79.95881949210707
25705,Cabell County,WV,7.183710821322352
25801,Raleigh County,WV,43.67421642644704
25840,Fayette County,WV,64.40173873255549
25901,Fayette County,WV,89.5218485472432
26003,Ohio County,WV,39.601921757035
26037,Brooke County,WV,88.19492107069321
26041,Marshall County,WV,61.97666437886067
26047,Hancock County,WV,97.0487302676733
26155,Wetzel County,WV,67.67330130404942
26181,Wood County,WV,79.43262411347519
26201,Upshur County,WV,9.631663234957676
26261,Nicholas County,WV,94.34911919469229
26330,Harrison County,WV,60.077785403797755
26354,Taylor County,WV,30.49645390070922
26416,Barbour County,WV,91.96980096087853
26426,Harrison County,WV,83.34477236330359
26431,Harrison County,WV,72.04301075268818
26501,Monongalia County,WV,7.1150766415008
26508,Monongalia County,WV,24.662548615877373
26541,Monongalia County,WV,82.58979638526654
26554,Marion County,WV,9.151223976206818
26582,Marion County,WV,80.16472203157173
26601,Braxton County,WV,90.68862960420955
26753,Mineral County,WV,96.75131548844658
53010,Fond du Lac County,WI,94.5092656142759
53017,Washington County,WI,94.87531457332419
53022,Washington County,WI,47.174559597346146
53027,Washington County,WI,50.285975749256465
53045,Waukesha County,WI,71.90574239304507
53051,Waukesha County,WI,25.76069549302219
53090,Washington County,WI,45.0926561427591
53094,Jefferson County,WI,24.113475177304963
53095,Washington County,WI,32.4868451155342
53105,Racine County,WI,5.673758865248227
53115,Walworth County,WI,30.26767330130405
53128,Walworth County,WI,52.04758636467628
53140,Kenosha County,WI,3.8206360100663463
53149,Waukesha County,WI,54.60992907801418
53154,Milwaukee County,WI,56.55456417295813
53158,Kenosha County,WI,8.808053077099062
53204,Milwaukee County,WI,69.84671699839853
53205,Milwaukee County,WI,38.84694577899794
53206,Milwaukee County,WI,18.599862731640357
53209,Milwaukee County,WI,16.517959277053308
53210,Milwaukee County,WI,2.4021962937542893
53212,Milwaukee County,WI,44.749485243651336
53214,Milwaukee County,WI,55.708075955158996
53215,Milwaukee County,WI,36.26172500571951
53216,Milwaukee County,WI,41.95836193090826
53217,Milwaukee County,WI,18.32532601235415
53219,Milwaukee County,WI,6.954930221917182
53221,Milwaukee County,WI,52.75680622283231
53224,Milwaukee County,WI,19.080301990391217
53225,Milwaukee County,WI,53.87783115991765
53402,Racine County,WI,1.692976435598261
53405,Racine County,WI,27.407915808739418
53511,Rock County,WI,0.22878059940517045
53520,Green County,WI,64.58476321207962
53532,Dane County,WI,51.15534202699611
53538,Jefferson County,WI,31.34294211850835
53545,Rock County,WI,69.91535117822009
53546,Rock County,WI,6.909174102036148
53548,Rock County,WI,60.146419583619306
53549,Jefferson County,WI,58.59071150766415
53589,Dane County,WI,84.48867536032945
53597,Dane County,WI,84.09974834134066
53717,Dane County,WI,76.6415008007321
53718,Dane County,WI,86.52482269503547
53805,Grant County,WI,93.29672843742851
53913,Sauk County,WI,20.247083047357584
53916,Dodge County,WI,23.61015785861359
53963,Dodge County,WI,36.03294440631434
54001,Polk County,WI,32.32669869595058
54017,St. Croix County,WI,32.303820636010066
54020,Polk County,WI,61.49622512010981
54115,Brown County,WI,27.751086707847172
54135,Menominee County,WI,92.33584991992679
54165,Outagamie County,WI,99.67970716083276
54304,Brown County,WI,9.380004575611988
54401,Marathon County,WI,21.66552276366964
54409,Langlade County,WI,19.949668268130864
54452,Lincoln County,WI,67.2386181651796
54467,Portage County,WI,45.52733928162892
54476,Marathon County,WI,96.54541294898192
54481,Portage County,WI,8.213223518645618
54501,Oneida County,WI,31.503088538091973
54601,La Crosse County,WI,44.88675360329444
54603,La Crosse County,WI,68.1994966826813
54660,Monroe County,WI,86.50194463509494
54727,Chippewa County,WI,93.0221917181423
54729,Chippewa County,WI,16.678105696636926
54880,Douglas County,WI,45.89338824067719
54902,Winnebago County,WI,34.06543125142988
54915,Outagamie County,WI,18.188057652711052
54923,Green Lake County,WI,82.38389384580188
82070,Albany County,WY,73.27842598947609
82414,Park County,WY,58.88812628689087
82609,Natrona County,WY,72.72935255090368
