ZipCode,county,state,Adult,Retirement,Geriatric
35096,Talladega County,AL,NA,62.14196762141968,NA
35120,St. Clair County,AL,NA,NA,96.95885509838999
35215,Jefferson County,AL,10.397553516819572,NA,NA
35226,Jefferson County,AL,NA,17.31008717310087,NA
35228,Jefferson County,AL,NA,85.92777085927771,NA
35244,Jefferson County,AL,NA,NA,49.73166368515206
35553,Winston County,AL,NA,NA,84.07871198568873
35645,Lauderdale County,AL,NA,92.65255292652553,NA
35674,Colbert County,AL,31.19266055045872,NA,NA
35805,Madison County,AL,NA,NA,96.06440071556351
35811,Madison County,AL,NA,59.90037359900373,NA
35901,Etowah County,AL,30.58103975535168,NA,NA
35956,Etowah County,AL,NA,65.37982565379825,NA
36206,Calhoun County,AL,86.23853211009175,NA,NA
36401,Conecuh County,AL,NA,69.98754669987547,NA
36502,Escambia County,AL,NA,NA,93.91771019677996
36526,Baldwin County,AL,NA,NA,24.508050089445437
36830,Lee County,AL,NA,71.98007471980074,NA
36832,Lee County,AL,NA,76.71232876712328,NA
36863,Chambers County,AL,NA,NA,85.68872987477639
36877,Lee County,AL,NA,53.9227895392279,NA
99503,Anchorage Municipality,AK,NA,59.52677459526775,NA
85018,Maricopa County,AZ,NA,NA,46.15384615384615
85020,Maricopa County,AZ,34.862385321100916,NA,NA
85032,Maricopa County,AZ,39.44954128440367,NA,NA
85040,Maricopa County,AZ,18.04281345565749,NA,NA
85142,Maricopa County,AZ,NA,20.298879202988793,NA
85203,Maricopa County,AZ,NA,78.08219178082192,NA
85208,Maricopa County,AZ,NA,NA,21.82468694096601
85209,Maricopa County,AZ,NA,NA,16.457960644007155
85226,Maricopa County,AZ,NA,NA,62.7906976744186
85233,Maricopa County,AZ,NA,67.74595267745953,NA
85254,Maricopa County,AZ,NA,54.54545454545454,NA
85260,Maricopa County,AZ,NA,29.140722291407222,NA
85286,Maricopa County,AZ,29.96941896024465,92.5280199252802,NA
85310,Maricopa County,AZ,NA,56.78704856787049,NA
85331,Maricopa County,AZ,48.92966360856269,NA,NA
85346,La Paz County,AZ,NA,NA,95.34883720930233
85351,Maricopa County,AZ,NA,29.514321295143215,NA
85365,Yuma County,AZ,NA,NA,9.838998211091235
85367,Yuma County,AZ,NA,NA,8.765652951699463
85374,Maricopa County,AZ,NA,14.072229140722293,NA
85375,Maricopa County,AZ,NA,45.08094645080946,NA
85383,Maricopa County,AZ,NA,NA,69.76744186046511
85541,Gila County,AZ,NA,NA,23.97137745974955
85653,Pima County,AZ,NA,56.28891656288917,NA
85706,Pima County,AZ,NA,46.82440846824408,NA
85718,Pima County,AZ,NA,NA,63.68515205724508
85730,Pima County,AZ,NA,NA,44.18604651162791
85739,Pinal County,AZ,NA,22.04234122042341,NA
85742,Pima County,AZ,NA,NA,48.658318425760285
85933,Navajo County,AZ,NA,98.25653798256539,NA
86305,Yavapai County,AZ,NA,26.027397260273972,NA
86401,Mohave County,AZ,NA,88.7920298879203,NA
86406,Mohave County,AZ,NA,19.80074719800747,NA
86409,Mohave County,AZ,NA,21.170610211706105,NA
71854,Miller County,AR,NA,NA,59.391771019677996
72131,Cleburne County,AR,NA,88.16936488169364,NA
72396,Cross County,AR,NA,56.66251556662516,NA
72404,Craighead County,AR,NA,58.779576587795766,NA
72450,Greene County,AR,NA,NA,98.38998211091234
72715,Benton County,AR,NA,48.567870485678704,NA
72921,Crawford County,AR,NA,63.63636363636363,NA
72956,Crawford County,AR,NA,NA,41.32379248658318
90025,Los Angeles County,CA,49.84709480122324,NA,NA
90032,Los Angeles County,CA,NA,44.95641344956414,NA
90045,Los Angeles County,CA,NA,43.212951432129515,NA
90056,Los Angeles County,CA,NA,NA,80.85867620751341
90245,Los Angeles County,CA,NA,97.63387297633874,NA
90247,Los Angeles County,CA,NA,NA,44.543828264758496
90272,Los Angeles County,CA,88.07339449541286,NA,NA
90403,Los Angeles County,CA,NA,NA,24.329159212880143
90405,Los Angeles County,CA,NA,86.92403486924036,NA
90501,Los Angeles County,CA,NA,44.458281444582816,44.00715563506261
90505,Los Angeles County,CA,NA,NA,28.264758497316638
90601,Los Angeles County,CA,NA,85.67870485678705,NA
90620,Orange County,CA,42.813455657492355,NA,NA
90631,Orange County,CA,30.886850152905197,NA,NA
90706,Los Angeles County,CA,NA,26.774595267745955,57.066189624329155
90713,Los Angeles County,CA,NA,94.02241594022416,NA
90740,Orange County,CA,NA,82.68991282689913,NA
90745,Los Angeles County,CA,NA,24.03486924034869,NA
90802,Los Angeles County,CA,64.83180428134557,NA,NA
91214,Los Angeles County,CA,NA,60.89663760896637,NA
91306,Los Angeles County,CA,87.46177370030581,NA,NA
91351,Los Angeles County,CA,NA,NA,72.80858676207514
91605,Los Angeles County,CA,63.608562691131496,NA,NA
91711,Los Angeles County,CA,NA,95.3922789539228,NA
91745,Los Angeles County,CA,75.84097859327217,32.87671232876712,NA
91754,Los Angeles County,CA,74.61773700305811,NA,19.141323792486585
91770,Los Angeles County,CA,NA,NA,43.64937388193202
91790,Los Angeles County,CA,46.48318042813456,NA,NA
91902,San Diego County,CA,NA,NA,58.139534883720934
91910,San Diego County,CA,70.33639143730886,NA,NA
91911,San Diego County,CA,NA,86.42590286425903,NA
91977,San Diego County,CA,NA,NA,60.10733452593918
92007,San Diego County,CA,NA,NA,93.55992844364937
92008,San Diego County,CA,NA,73.59900373599004,NA
92019,San Diego County,CA,NA,34.37110834371108,NA
92021,San Diego County,CA,82.56880733944955,NA,NA
92026,San Diego County,CA,NA,35.118306351183065,NA
92064,San Diego County,CA,95.71865443425077,NA,NA
92103,San Diego County,CA,NA,35.2428393524284,NA
92115,San Diego County,CA,55.96330275229357,NA,NA
92129,San Diego County,CA,NA,NA,79.60644007155635
92201,Riverside County,CA,NA,NA,69.58855098389982
92211,Riverside County,CA,NA,NA,0.17889087656529518
92225,Riverside County,CA,NA,86.05230386052304,NA
92231,Imperial County,CA,NA,71.60647571606475,NA
92243,Imperial County,CA,24.159021406727827,NA,NA
92250,Imperial County,CA,NA,75.59153175591533,NA
92253,Riverside County,CA,NA,29.016189290161893,NA
92260,Riverside County,CA,48.62385321100918,63.13823163138231,NA
92264,Riverside County,CA,NA,8.094645080946451,NA
92270,Riverside County,CA,NA,5.47945205479452,NA
92345,San Bernardino County,CA,NA,11.207970112079702,NA
92392,San Bernardino County,CA,NA,75.96513075965132,NA
92536,Riverside County,CA,NA,100,NA
92544,Riverside County,CA,NA,34.744707347447076,NA
92625,Orange County,CA,NA,NA,89.98211091234347
92627,Orange County,CA,NA,81.56911581569116,NA
92630,Orange County,CA,NA,40.72229140722292,NA
92637,Orange County,CA,NA,NA,65.65295169946333
92647,Orange County,CA,48.318042813455655,89.04109589041096,NA
92648,Orange County,CA,NA,45.82814445828144,NA
92663,Orange County,CA,97.24770642201835,NA,NA
92683,Orange County,CA,NA,NA,4.114490161001789
92691,Orange County,CA,NA,NA,67.62075134168157
92708,Orange County,CA,58.40978593272171,NA,18.6046511627907
92780,Orange County,CA,NA,NA,33.273703041144906
92801,Orange County,CA,NA,25.529265255292653,NA
92806,Orange County,CA,NA,NA,37.745974955277276
92807,Orange County,CA,NA,29.638854296388544,NA
92832,Orange County,CA,NA,52.179327521793276,NA
92860,Riverside County,CA,NA,85.67870485678705,NA
92882,Riverside County,CA,NA,70.73474470734745,NA
93065,Ventura County,CA,NA,15.81569115815691,NA
93203,Kern County,CA,85.3211009174312,NA,NA
93204,Kings County,CA,92.04892966360856,NA,NA
93257,Tulare County,CA,38.226299694189606,NA,NA
93291,Tulare County,CA,19.26605504587156,NA,NA
93436,Santa Barbara County,CA,NA,NA,11.806797853309481
93454,Santa Barbara County,CA,NA,NA,35.95706618962433
93535,Los Angeles County,CA,NA,27.895392278953924,NA
93555,Kern County,CA,62.079510703363916,NA,NA
93657,Fresno County,CA,NA,NA,54.74060822898033
93662,Fresno County,CA,NA,NA,55.27728085867621
93706,Fresno County,CA,21.100917431192663,NA,NA
93722,Fresno County,CA,NA,NA,30.94812164579606
93726,Fresno County,CA,19.877675840978593,NA,NA
93905,Monterey County,CA,NA,41.344956413449566,NA
93906,Monterey County,CA,NA,89.78829389788294,NA
93933,Monterey County,CA,NA,33.25031133250312,NA
93950,Monterey County,CA,NA,76.58779576587796,NA
93955,Monterey County,CA,NA,25.90286425902864,NA
94015,San Mateo County,CA,NA,6.8493150684931505,NA
94028,San Mateo County,CA,NA,NA,54.02504472271914
94061,San Mateo County,CA,NA,NA,14.847942754919499
94112,San Francisco County,CA,NA,89.1656288916563,38.64042933810376
94116,San Francisco County,CA,NA,NA,9.66010733452594
94134,San Francisco County,CA,90.21406727828746,NA,NA
94303,San Mateo County,CA,84.40366972477065,NA,54.56171735241503
94403,San Mateo County,CA,NA,13.823163138231632,NA
94404,San Mateo County,CA,NA,NA,35.42039355992844
94503,Napa County,CA,NA,NA,59.2128801431127
94513,Contra Costa County,CA,NA,18.55541718555417,NA
94546,Alameda County,CA,NA,49.439601494396015,NA
94558,Napa County,CA,NA,NA,78.175313059034
94559,Napa County,CA,NA,72.47820672478207,NA
94564,Contra Costa County,CA,NA,51.30759651307597,NA
94577,Alameda County,CA,33.33333333333333,NA,NA
94608,Alameda County,CA,67.2782874617737,NA,NA
94611,Alameda County,CA,NA,NA,26.654740608228984
94903,Marin County,CA,NA,NA,10.554561717352415
94904,Marin County,CA,96.63608562691131,NA,NA
94928,Sonoma County,CA,53.21100917431193,NA,NA
94941,Marin County,CA,NA,NA,28.085867620751344
95008,Santa Clara County,CA,NA,36.612702366127024,NA
95014,Santa Clara County,CA,NA,73.97260273972603,83.72093023255815
95020,Santa Clara County,CA,NA,93.64881693648816,NA
95033,Santa Cruz County,CA,NA,NA,88.01431127012522
95035,Santa Clara County,CA,NA,NA,17.71019677996422
95062,Santa Cruz County,CA,NA,59.65130759651308,NA
95070,Santa Clara County,CA,NA,NA,97.13774597495528
95118,Santa Clara County,CA,NA,43.71108343711084,NA
95128,Santa Clara County,CA,32.7217125382263,NA,NA
95131,Santa Clara County,CA,NA,89.29016189290162,NA
95206,San Joaquin County,CA,NA,98.13200498132005,NA
95207,San Joaquin County,CA,NA,74.96886674968867,NA
95219,San Joaquin County,CA,NA,97.88293897882939,NA
95315,Merced County,CA,NA,NA,95.52772808586762
95330,San Joaquin County,CA,67.58409785932722,NA,NA
95336,San Joaquin County,CA,NA,44.707347447073474,21.288014311270125
95348,Merced County,CA,NA,51.681195516811954,NA
95350,Stanislaus County,CA,NA,NA,15.20572450805009
95370,Tuolumne County,CA,NA,2.86425902864259,NA
95376,San Joaquin County,CA,NA,55.41718555417185,NA
95377,San Joaquin County,CA,NA,NA,95.16994633273703
95380,Stanislaus County,CA,NA,58.40597758405978,NA
95382,Stanislaus County,CA,NA,22.54047322540473,NA
95404,Sonoma County,CA,NA,21.668742216687424,NA
95405,Sonoma County,CA,NA,68.8667496886675,NA
95501,Humboldt County,CA,91.74311926605505,NA,NA
95519,Humboldt County,CA,97.55351681957187,NA,NA
95531,Del Norte County,CA,99.69418960244649,NA,NA
95602,Placer County,CA,NA,65.00622665006227,NA
95619,El Dorado County,CA,NA,NA,82.28980322003578
95630,Sacramento County,CA,NA,13.449564134495642,NA
95648,Placer County,CA,NA,19.302615193026153,NA
95746,Placer County,CA,84.09785932721712,NA,NA
95747,Placer County,CA,82.87461773700305,NA,NA
95762,El Dorado County,CA,NA,27.023661270236616,NA
95823,Sacramento County,CA,66.05504587155964,NA,NA
95824,Sacramento County,CA,69.72477064220183,NA,NA
95833,Sacramento County,CA,NA,NA,97.31663685152057
95838,Sacramento County,CA,NA,93.89788293897882,NA
95901,Yuba County,CA,NA,NA,53.48837209302325
95926,Butte County,CA,NA,NA,73.34525939177102
95959,Nevada County,CA,NA,NA,74.77638640429338
95961,Yuba County,CA,NA,NA,80.67978533094812
96067,Siskiyou County,CA,NA,NA,80.32200357781754
96161,Nevada County,CA,NA,79.57658779576587,NA
80007,Jefferson County,CO,NA,NA,81.7531305903399
80012,Arapahoe County,CO,NA,NA,15.92128801431127
80020,Broomfield County,CO,NA,54.17185554171855,NA
80123,Jefferson County,CO,NA,NA,28.980322003577818
80127,Jefferson County,CO,NA,36.36363636363637,NA
80204,Denver County,CO,NA,84.68244084682442,NA
80220,Denver County,CO,NA,51.05853051058531,NA
80223,Denver County,CO,NA,90.41095890410958,NA
80231,Denver County,CO,NA,47.57160647571607,NA
80239,Denver County,CO,NA,66.25155666251557,NA
80517,Larimer County,CO,NA,76.21419676214197,NA
80640,Adams County,CO,62.69113149847095,NA,NA
80723,Morgan County,CO,NA,56.413449564134496,NA
80817,El Paso County,CO,NA,71.10834371108344,NA
80904,El Paso County,CO,NA,NA,74.0608228980322
80905,El Paso County,CO,NA,NA,89.62432915921288
80907,El Paso County,CO,NA,48.44333748443337,NA
81403,Montrose County,CO,NA,NA,88.19320214669052
81623,Garfield County,CO,NA,75.34246575342466,NA
06026,Hartford County,CT,NA,NA,94.27549194991055
06029,Tolland County,CT,NA,NA,71.73524150268337
06037,Hartford County,CT,NA,46.4508094645081,NA
06053,Hartford County,CT,NA,NA,77.8175313059034
06076,Tolland County,CT,NA,81.69364881693649,81.21645796064401
06082,Hartford County,CT,86.85015290519877,NA,NA
06096,Hartford County,CT,NA,NA,65.83184257602862
06112,Hartford County,CT,75.53516819571865,NA,NA
06226,Windham County,CT,NA,32.62764632627647,NA
06415,New London County,CT,NA,NA,63.50626118067979
06468,Fairfield County,CT,NA,62.39103362391034,NA
06472,New Haven County,CT,NA,92.9016189290162,NA
06488,New Haven County,CT,NA,NA,10.37567084078712
06513,New Haven County,CT,5.5045871559633035,NA,NA
06611,Fairfield County,CT,62.99694189602446,NA,NA
06708,New Haven County,CT,NA,26.40099626400996,NA
06790,Litchfield County,CT,NA,13.947696139476962,NA
06804,Fairfield County,CT,60.85626911314985,NA,NA
06812,Fairfield County,CT,79.20489296636084,90.78455790784558,NA
06824,Fairfield County,CT,59.32721712538226,NA,NA
06831,Fairfield County,CT,NA,75.84059775840598,NA
06902,Fairfield County,CT,NA,7.970112079701121,NA
19701,New Castle County,DE,NA,NA,38.998211091234346
19702,New Castle County,DE,15.29051987767584,NA,NA
19713,New Castle County,DE,NA,NA,29.338103756708406
19720,New Castle County,DE,16.207951070336392,NA,NA
19808,New Castle County,DE,NA,NA,5.366726296958855
19901,Kent County,DE,NA,14.570361145703611,NA
19947,Sussex County,DE,NA,NA,44.90161001788909
19958,Sussex County,DE,NA,NA,10.01788908765653
19971,Sussex County,DE,NA,32.75217932752179,NA
32003,Clay County,FL,50.45871559633027,NA,NA
32024,Columbia County,FL,NA,81.3200498132005,NA
32068,Clay County,FL,NA,6.226650062266501,NA
32082,St. Johns County,FL,NA,NA,20.75134168157424
32137,Flagler County,FL,NA,4.85678704856787,NA
32162,Sumter County,FL,NA,NA,1.4311270125223614
32208,Duval County,FL,NA,3.8605230386052307,NA
32225,Duval County,FL,NA,NA,12.522361359570661
32233,Duval County,FL,NA,NA,49.01610017889087
32312,Leon County,FL,NA,NA,48.837209302325576
32328,Franklin County,FL,NA,99.00373599003736,NA
32431,Jackson County,FL,NA,70.9838107098381,NA
32503,Escambia County,FL,47.09480122324159,NA,NA
32504,Escambia County,FL,NA,NA,50.089445438282645
32533,Escambia County,FL,NA,42.96388542963886,NA
32539,Okaloosa County,FL,NA,20.921544209215444,NA
32606,Alachua County,FL,NA,50.31133250311333,NA
32656,Clay County,FL,NA,NA,52.95169946332737
32712,Orange County,FL,NA,NA,51.341681574239715
32720,Volusia County,FL,NA,NA,70.30411449016101
32724,Volusia County,FL,NA,18.181818181818183,19.499105545617173
32738,Volusia County,FL,NA,NA,80.14311270125224
32810,Orange County,FL,NA,NA,76.56529516994634
32822,Orange County,FL,NA,NA,26.833631484794275
32832,Orange County,FL,NA,NA,100
32833,Orange County,FL,81.65137614678899,NA,NA
32837,Orange County,FL,18.960244648318042,NA,NA
32909,Brevard County,FL,NA,NA,65.29516994633273
32937,Brevard County,FL,NA,45.579078455790786,NA
32940,Brevard County,FL,NA,NA,4.47227191413238
32952,Brevard County,FL,NA,NA,16.100178890876567
32953,Brevard County,FL,NA,15.940224159402241,NA
32958,Indian River County,FL,NA,32.004981320049815,NA
33012,Miami-Dade County,FL,NA,45.70361145703611,NA
33013,Miami-Dade County,FL,NA,NA,85.1520572450805
33015,Miami-Dade County,FL,45.25993883792049,NA,NA
33016,Miami-Dade County,FL,NA,44.08468244084682,NA
33023,Broward County,FL,NA,NA,42.93381037567084
33025,Broward County,FL,NA,NA,34.883720930232556
33040,Monroe County,FL,NA,59.90037359900373,NA
33064,Broward County,FL,NA,13.698630136986301,NA
33065,Broward County,FL,NA,37.98256537982566,NA
33066,Broward County,FL,NA,NA,16.100178890876567
33067,Broward County,FL,NA,90.66002490660024,NA
33126,Miami-Dade County,FL,NA,32.50311332503114,NA
33141,Miami-Dade County,FL,NA,26.525529265255294,NA
33147,Miami-Dade County,FL,NA,NA,34.704830053667266
33165,Miami-Dade County,FL,51.37614678899083,NA,NA
33177,Miami-Dade County,FL,NA,93.15068493150685,NA
33322,Broward County,FL,NA,23.910336239103362,NA
33325,Broward County,FL,NA,86.17683686176836,NA
33330,Broward County,FL,NA,NA,89.08765652951699
33409,Palm Beach County,FL,NA,72.47820672478207,NA
33410,Palm Beach County,FL,NA,NA,27.01252236135957
33412,Palm Beach County,FL,NA,NA,77.10196779964222
33415,Palm Beach County,FL,NA,52.42839352428393,NA
33417,Palm Beach County,FL,NA,44.58281444582815,NA
33418,Palm Beach County,FL,NA,NA,36.67262969588551
33428,Palm Beach County,FL,NA,39.97509339975093,NA
33432,Palm Beach County,FL,70.64220183486239,NA,NA
33437,Palm Beach County,FL,NA,NA,55.99284436493739
33446,Palm Beach County,FL,NA,NA,2.6833631484794274
33467,Palm Beach County,FL,NA,19.42714819427148,NA
33480,Palm Beach County,FL,NA,NA,62.61180679785331
33484,Palm Beach County,FL,NA,NA,33.09481216457961
33511,Hillsborough County,FL,35.47400611620795,NA,NA
33542,Pasco County,FL,NA,35.99003735990037,NA
33565,Hillsborough County,FL,77.06422018348624,NA,NA
33573,Hillsborough County,FL,NA,16.936488169364882,NA
33594,Hillsborough County,FL,52.293577981651374,NA,NA
33596,Hillsborough County,FL,NA,47.19800747198008,NA
33701,Pinellas County,FL,NA,NA,73.8819320214669
33772,Pinellas County,FL,NA,91.15815691158157,NA
33805,Polk County,FL,NA,NA,53.48837209302325
33825,Highlands County,FL,NA,72.97633872976338,NA
33880,Polk County,FL,NA,NA,77.28085867620752
33950,Charlotte County,FL,NA,23.163138231631383,NA
33981,Charlotte County,FL,NA,NA,56.88729874776386
34103,Collier County,FL,NA,NA,32.021466905187836
34104,Collier County,FL,NA,40.099626400996264,NA
34205,Manatee County,FL,NA,NA,92.66547406082289
34207,Manatee County,FL,NA,44.20921544209215,70.48300536672629
34231,Sarasota County,FL,NA,NA,3.041144901610018
34239,Sarasota County,FL,NA,78.58032378580324,NA
34243,Manatee County,FL,NA,NA,6.082289803220036
34266,DeSoto County,FL,NA,NA,30.41144901610018
34420,Marion County,FL,NA,49.56413449564134,NA
34433,Citrus County,FL,NA,NA,99.46332737030411
34442,Citrus County,FL,NA,NA,77.6386404293381
34446,Citrus County,FL,68.19571865443424,NA,NA
34481,Marion County,FL,NA,NA,39.71377459749553
34652,Pasco County,FL,37.308868501529055,NA,NA
34744,Osceola County,FL,NA,NA,43.82826475849731
34769,Osceola County,FL,NA,NA,41.681574239713775
34949,St. Lucie County,FL,NA,93.27521793275217,NA
34951,St. Lucie County,FL,NA,NA,48.479427549194995
34952,St. Lucie County,FL,NA,28.51805728518057,NA
34997,Martin County,FL,NA,45.20547945205479,NA
30011,Barrow County,GA,NA,NA,79.06976744186046
30024,Gwinnett County,GA,NA,NA,33.98926654740608
30034,DeKalb County,GA,NA,45.952677459526775,NA
30040,Forsyth County,GA,50.764525993883794,57.2851805728518,NA
30043,Gwinnett County,GA,NA,10.709838107098381,NA
30052,Walton County,GA,NA,5.85305105853051,NA
30068,Cobb County,GA,NA,NA,60.82289803220036
30075,Fulton County,GA,76.75840978593273,NA,NA
30078,Gwinnett County,GA,NA,NA,54.38282647584973
30080,Cobb County,GA,NA,NA,59.0339892665474
30087,DeKalb County,GA,NA,16.562889165628892,NA
30094,Rockdale County,GA,NA,NA,51.878354203935594
30110,Haralson County,GA,NA,NA,98.92665474060823
30115,Cherokee County,GA,36.69724770642202,NA,NA
30120,Bartow County,GA,46.788990825688074,NA,NA
30134,Douglas County,GA,23.853211009174313,NA,NA
30187,Douglas County,GA,NA,67.99501867995019,NA
30189,Cherokee County,GA,NA,35.49190535491905,NA
30215,Fayette County,GA,53.51681957186545,NA,NA
30233,Butts County,GA,NA,37.60896637608966,NA
30252,Henry County,GA,36.391437308868504,NA,NA
30281,Henry County,GA,25.993883792048926,NA,NA
30310,Fulton County,GA,NA,12.453300124533001,NA
30316,DeKalb County,GA,NA,36.239103362391035,NA
30342,Fulton County,GA,NA,NA,88.37209302325581
30349,Fulton County,GA,29.051987767584098,NA,NA
30439,Candler County,GA,NA,NA,66.7262969588551
30457,Treutlen County,GA,NA,86.55043586550435,NA
30523,Habersham County,GA,NA,NA,52.59391771019678
30559,Fannin County,GA,NA,NA,91.41323792486583
30566,Hall County,GA,NA,84.93150684931507,NA
30643,Hart County,GA,55.65749235474006,NA,NA
30650,Morgan County,GA,NA,52.926525529265255,NA
30909,Richmond County,GA,NA,NA,53.30948121645797
31092,Dooly County,GA,NA,NA,87.47763864042933
31503,Ware County,GA,NA,82.56537982565379,NA
31513,Appling County,GA,NA,NA,99.10554561717353
31634,Clinch County,GA,75.22935779816514,NA,NA
31705,Dougherty County,GA,NA,20.79701120797011,NA
31714,Turner County,GA,NA,77.95765877957659,NA
31750,Ben Hill County,GA,NA,NA,97.49552772808586
31792,Thomas County,GA,NA,25.404732254047325,NA
31904,Muscogee County,GA,NA,41.220423412204234,NA
39823,Early County,GA,NA,83.93524283935243,NA
96701,Honolulu County,HI,NA,NA,8.586762075134168
96753,Maui County,HI,NA,58.9041095890411,NA
96793,Maui County,HI,NA,NA,87.29874776386404
96826,Honolulu County,HI,NA,NA,30.94812164579606
83204,Bannock County,ID,NA,47.820672478206724,NA
83406,Bonneville County,ID,NA,NA,95.70661896243293
83686,Canyon County,ID,NA,3.1133250311332503,NA
83843,Latah County,ID,NA,NA,86.58318425760287
60002,Lake County,IL,NA,77.5840597758406,NA
60007,Cook County,IL,NA,13.325031133250311,22.361359570661897
60010,Lake County,IL,59.9388379204893,NA,NA
60012,McHenry County,IL,NA,49.813200498132005,NA
60025,Cook County,IL,NA,77.83312577833127,NA
60048,Lake County,IL,45.87155963302752,NA,NA
60056,Cook County,IL,NA,54.29638854296388,NA
60076,Cook County,IL,NA,46.699875466998755,13.416815742397137
60077,Cook County,IL,NA,NA,33.810375670840784
60089,Lake County,IL,NA,NA,14.311270125223613
60106,DuPage County,IL,NA,NA,27.549194991055455
60142,McHenry County,IL,NA,NA,1.2522361359570662
60160,Cook County,IL,NA,87.42216687422167,NA
60188,DuPage County,IL,NA,45.33001245330012,NA
60302,Cook County,IL,NA,NA,13.595706618962433
60417,Will County,IL,NA,27.27272727272727,NA
60436,Will County,IL,NA,81.07098381070983,NA
60439,Cook County,IL,NA,NA,21.645796064400717
60442,Will County,IL,NA,93.7733499377335,NA
60450,Grundy County,IL,22.93577981651376,NA,NA
60459,Cook County,IL,NA,41.84308841843089,NA
60463,Cook County,IL,NA,33.74844333748443,22.003577817531305
60471,Cook County,IL,NA,86.17683686176836,NA
60477,Cook County,IL,NA,9.71357409713574,NA
60491,Will County,IL,NA,21.29514321295143,NA
60526,Cook County,IL,NA,59.40224159402242,NA
60527,DuPage County,IL,NA,7.0983810709838115,NA
60546,Cook County,IL,NA,58.655043586550434,37.924865831842574
60555,DuPage County,IL,NA,64.2590286425903,NA
60565,DuPage County,IL,27.82874617737003,NA,NA
60608,Cook County,IL,NA,NA,6.797853309481217
60611,Cook County,IL,NA,16.313823163138235,NA
60613,Cook County,IL,26.605504587155966,NA,NA
60641,Cook County,IL,NA,11.83063511830635,NA
60647,Cook County,IL,9.785932721712538,NA,NA
60652,Cook County,IL,NA,18.80448318804483,NA
60656,Cook County,IL,NA,61.14570361145704,NA
60657,Cook County,IL,NA,9.9626400996264,16.636851520572453
60660,Cook County,IL,NA,12.204234122042342,NA
60707,Cook County,IL,NA,92.27895392278954,NA
61010,Ogle County,IL,NA,76.8368617683686,NA
61088,Winnebago County,IL,NA,83.06351183063512,NA
61115,Winnebago County,IL,NA,NA,47.04830053667263
61201,Rock Island County,IL,NA,24.159402241594023,NA
61241,Henry County,IL,NA,94.14694894146949,NA
61571,Tazewell County,IL,NA,38.85429638854296,NA
61821,Champaign County,IL,NA,NA,10.912343470483005
61832,Vermilion County,IL,NA,NA,32.73703041144901
61846,Vermilion County,IL,NA,NA,92.4865831842576
61951,Moultrie County,IL,NA,83.31257783312577,NA
62002,Madison County,IL,NA,NA,86.76207513416816
62012,Macoupin County,IL,NA,60.77210460772105,NA
62035,Madison County,IL,NA,NA,34.52593917710197
62088,Macoupin County,IL,NA,90.53549190535492,NA
62208,St. Clair County,IL,74.92354740061162,NA,NA
62221,St. Clair County,IL,NA,31.63138231631382,NA
62246,Bond County,IL,NA,98.00747198007473,NA
62269,St. Clair County,IL,NA,79.7011207970112,NA
62650,Morgan County,IL,NA,25.529265255292653,NA
62711,Sangamon County,IL,NA,83.43711083437111,NA
62821,White County,IL,NA,89.53922789539229,NA
62837,Wayne County,IL,77.67584097859327,NA,NA
62959,Williamson County,IL,NA,NA,15.384615384615385
46012,Madison County,IN,NA,16.064757160647574,NA
46013,Madison County,IN,NA,14.9439601494396,NA
46033,Hamilton County,IN,NA,85.30510585305106,37.0304114490161
46074,Hamilton County,IN,NA,NA,57.42397137745975
46112,Hendricks County,IN,NA,NA,26.29695885509839
46113,Marion County,IN,95.10703363914374,NA,NA
46140,Hancock County,IN,NA,79.32752179327521,NA
46173,Rush County,IN,70.03058103975535,NA,NA
46217,Marion County,IN,NA,24.408468244084684,NA
46224,Marion County,IN,NA,36.86176836861768,NA
46236,Marion County,IN,NA,77.21046077210461,NA
46256,Marion County,IN,NA,60.273972602739725,NA
46307,Lake County,IN,NA,1.1207970112079702,NA
46319,Lake County,IN,NA,20.17434620174346,NA
46320,Lake County,IN,NA,38.35616438356164,64.04293381037567
46322,Lake County,IN,NA,19.17808219178082,NA
46323,Lake County,IN,NA,13.57409713574097,NA
46324,Lake County,IN,NA,20.54794520547945,NA
46368,Porter County,IN,NA,37.11083437110834,NA
46375,Lake County,IN,NA,38.605230386052305,NA
46383,Porter County,IN,NA,65.87795765877958,NA
46563,Marshall County,IN,NA,18.43088418430884,NA
46825,Allen County,IN,NA,64.13449564134496,NA
46901,Howard County,IN,NA,NA,27.72808586762075
46936,Howard County,IN,NA,69.11581569115816,NA
47102,Scott County,IN,NA,NA,83.36314847942755
47112,Harrison County,IN,NA,81.19551681195517,NA
47150,Floyd County,IN,NA,NA,18.783542039355993
47167,Washington County,IN,NA,35.74097135740971,NA
47201,Bartholomew County,IN,12.232415902140673,NA,NA
47274,Jackson County,IN,NA,NA,84.25760286225402
47302,Delaware County,IN,17.12538226299694,NA,NA
47331,Fayette County,IN,NA,NA,32.379248658318424
47362,Henry County,IN,NA,31.506849315068493,NA
47404,Monroe County,IN,NA,NA,90.87656529516994
47802,Vigo County,IN,NA,80.32378580323785,NA
47803,Vigo County,IN,NA,68.74221668742216,NA
47906,Tippecanoe County,IN,NA,94.52054794520548,NA
47978,Jasper County,IN,NA,86.6749688667497,NA
50003,Dallas County,IA,NA,NA,89.80322003577818
50219,Marion County,IA,NA,NA,59.92844364937389
51201,O'Brien County,IA,NA,NA,52.772808586762075
51334,Emmet County,IA,NA,NA,73.52415026833631
51442,Crawford County,IA,NA,NA,98.74776386404294
52240,Johnson County,IA,NA,15.442092154420923,NA
52405,Linn County,IA,NA,60.14943960149439,NA
52601,Des Moines County,IA,12.844036697247708,NA,NA
52804,Scott County,IA,56.88073394495413,NA,NA
66002,Atchison County,KS,NA,NA,94.45438282647585
66046,Douglas County,KS,NA,87.04856787048568,NA
66061,Johnson County,KS,76.14678899082568,NA,NA
66062,Johnson County,KS,11.62079510703364,NA,NA
66071,Miami County,KS,NA,NA,64.57960644007156
66086,Leavenworth County,KS,79.81651376146789,NA,NA
66106,Wyandotte County,KS,NA,51.80572851805728,NA
66212,Johnson County,KS,NA,36.48816936488169,NA
66547,Pottawatomie County,KS,NA,NA,78.89087656529516
66605,Shawnee County,KS,85.01529051987767,NA,48.1216457960644
66762,Crawford County,KS,NA,65.62889165628891,NA
66801,Lyon County,KS,NA,NA,25.581395348837212
67058,Harper County,KS,NA,96.88667496886674,NA
67152,Sumner County,KS,NA,NA,67.97853309481216
67205,Sedgwick County,KS,NA,73.47447073474471,NA
67209,Sedgwick County,KS,NA,NA,82.28980322003578
67502,Reno County,KS,NA,NA,45.61717352415027
40047,Bullitt County,KY,NA,NA,87.83542039355993
40165,Bullitt County,KY,NA,NA,42.39713774597496
40216,Jefferson County,KY,NA,69.86301369863014,NA
40220,Jefferson County,KY,NA,NA,18.246869409660107
40222,Jefferson County,KY,NA,50.43586550435866,NA
40223,Jefferson County,KY,NA,90.28642590286425,NA
40299,Jefferson County,KY,NA,18.05728518057285,NA
40353,Montgomery County,KY,NA,52.054794520547944,NA
40356,Jessamine County,KY,14.067278287461773,NA,NA
40380,Powell County,KY,60.24464831804281,NA,NA
40391,Clark County,KY,NA,9.21544209215442,NA
40517,Fayette County,KY,19.571865443425075,NA,NA
40701,Whitley County,KY,NA,9.58904109589041,NA
40741,Laurel County,KY,20.489296636085626,NA,NA
40906,Knox County,KY,NA,61.394769613947695,NA
41001,Campbell County,KY,NA,NA,72.09302325581395
41129,Boyd County,KY,NA,43.83561643835616,NA
41230,Lawrence County,KY,NA,NA,94.99105545617174
42071,Calloway County,KY,37.61467889908257,NA,NA
42103,Warren County,KY,NA,NA,81.5742397137746
42141,Barren County,KY,NA,64.75716064757161,NA
42303,Daviess County,KY,NA,NA,17.173524150268335
42420,Henderson County,KY,NA,NA,76.74418604651163
42728,Adair County,KY,NA,NA,56.708407871198574
42748,Larue County,KY,NA,93.52428393524283,NA
70001,Jefferson Parish,LA,5.81039755351682,NA,NA
70002,Jefferson Parish,LA,NA,24.78206724782067,NA
70003,Jefferson Parish,LA,NA,2.4906600249066,NA
70065,Jefferson Parish,LA,NA,2.1170610211706102,NA
70301,Lafourche Parish,LA,NA,NA,13.237924865831843
70363,Terrebonne Parish,LA,66.66666666666666,NA,NA
70435,St. Tammany Parish,LA,NA,NA,79.24865831842575
70448,St. Tammany Parish,LA,NA,22.415940224159403,NA
70458,St. Tammany Parish,LA,NA,NA,36.135957066189626
70503,Lafayette Parish,LA,NA,NA,75.13416815742397
70526,Acadia Parish,LA,23.24159021406728,NA,NA
70538,St. Mary Parish,LA,NA,66.3760896637609,NA
70591,Jefferson Davis Parish,LA,NA,97.01120797011208,NA
70601,Calcasieu Parish,LA,NA,NA,23.43470483005367
70607,Calcasieu Parish,LA,NA,74.71980074719801,NA
70634,Beauregard Parish,LA,NA,28.393524283935246,NA
70663,Calcasieu Parish,LA,NA,17.18555417185554,NA
70669,Calcasieu Parish,LA,48.01223241590214,NA,NA
70808,East Baton Rouge Parish,LA,NA,NA,39.17710196779964
71105,Caddo Parish,LA,NA,33.499377334993774,NA
71201,Ouachita Parish,LA,30.275229357798167,NA,NA
71203,Ouachita Parish,LA,NA,71.85554171855541,NA
71270,Lincoln Parish,LA,85.62691131498471,NA,NA
71282,Madison Parish,LA,96.02446483180428,NA,NA
71303,Rapides Parish,LA,NA,57.78331257783312,47.227191413237925
71342,La Salle Parish,LA,51.681957186544345,NA,NA
04072,York County,ME,NA,14.694894146948942,NA
04090,York County,ME,81.03975535168195,66.74968866749688,NA
04092,Cumberland County,ME,NA,64.50809464508094,NA
04240,Androscoggin County,ME,NA,1.7434620174346203,NA
04281,Oxford County,ME,NA,50.68493150684932,NA
04401,Penobscot County,ME,2.7522935779816518,35.61643835616438,0.7155635062611807
04426,Piscataquis County,ME,NA,69.7384806973848,NA
04769,Aroostook County,ME,NA,83.18804483188045,13.953488372093023
04843,Knox County,ME,NA,50.80946450809465,NA
04950,Somerset County,ME,89.60244648318043,NA,NA
20759,Howard County,MD,94.18960244648318,NA,NA
20850,Montgomery County,MD,NA,NA,47.76386404293381
20852,Montgomery County,MD,NA,83.93524283935243,NA
20878,Montgomery County,MD,62.38532110091744,NA,NA
20904,Montgomery County,MD,NA,NA,72.62969588550983
21042,Howard County,MD,NA,44.333748443337484,NA
21043,Howard County,MD,NA,31.755915317559154,NA
21060,Anne Arundel County,MD,27.217125382262996,NA,NA
21093,Baltimore County,MD,NA,91.90535491905355,33.452593917710196
21132,Harford County,MD,NA,99.75093399750934,NA
21136,Baltimore County,MD,NA,64.75716064757161,NA
21210,Baltimore city,MD,NA,94.6450809464508,NA
21215,Baltimore city,MD,NA,6.102117061021171,NA
21216,Baltimore city,MD,NA,NA,46.332737030411444
21228,Baltimore County,MD,NA,NA,10.554561717352415
21229,Baltimore city,MD,NA,NA,89.44543828264759
21632,Caroline County,MD,NA,87.29763387297635,NA
21702,Frederick County,MD,NA,NA,41.14490161001789
21771,Frederick County,MD,55.35168195718655,NA,NA
21921,Cecil County,MD,NA,4.2341220423412205,16.815742397137747
01001,Hampden County,MA,NA,59.153175591531756,NA
01040,Hampden County,MA,7.64525993883792,NA,23.25581395348837
01073,Hampshire County,MA,NA,NA,74.59749552772809
01089,Hampden County,MA,NA,NA,75.49194991055455
01201,Berkshire County,MA,1.834862385321101,NA,NA
01432,Middlesex County,MA,NA,56.413449564134496,NA
01453,Worcester County,MA,1.2232415902140672,NA,NA
01532,Worcester County,MA,NA,NA,45.796064400715565
01545,Worcester County,MA,NA,NA,11.985688729874775
01550,Worcester County,MA,1.529051987767584,NA,NA
01609,Worcester County,MA,NA,75.59153175591533,NA
01701,Middlesex County,MA,11.314984709480122,NA,6.976744186046512
01752,Middlesex County,MA,NA,9.464508094645081,NA
01754,Middlesex County,MA,NA,41.96762141967621,NA
01757,Worcester County,MA,NA,NA,18.783542039355993
01760,Middlesex County,MA,11.009174311926607,4.9813200498132,NA
01801,Middlesex County,MA,NA,NA,0.8944543828264758
01824,Middlesex County,MA,NA,42.59028642590286,6.440071556350627
01826,Middlesex County,MA,6.116207951070336,NA,NA
01845,Essex County,MA,NA,8.84184308841843,NA
01852,Middlesex County,MA,NA,0.9962640099626401,NA
01880,Middlesex County,MA,NA,53.79825653798257,NA
01887,Middlesex County,MA,26.911314984709477,NA,NA
01902,Essex County,MA,NA,0.37359900373599003,NA
01904,Essex County,MA,NA,NA,94.09660107334525
01906,Essex County,MA,NA,56.911581569115825,4.83005366726297
01923,Essex County,MA,NA,NA,13.774597495527727
01938,Essex County,MA,NA,11.70610211706102,NA
01940,Essex County,MA,NA,NA,83.00536672629696
01945,Essex County,MA,NA,15.317559153175592,NA
01950,Essex County,MA,NA,18.929016189290163,NA
01960,Essex County,MA,NA,25.280199252801992,0
02019,Norfolk County,MA,NA,91.2826899128269,NA
02043,Plymouth County,MA,NA,37.359900373599004,NA
02045,Plymouth County,MA,NA,95.26774595267746,NA
02050,Plymouth County,MA,NA,90.16189290161893,NA
02062,Norfolk County,MA,NA,30.884184308841846,14.669051878354203
02072,Norfolk County,MA,NA,NA,66.01073345259391
02090,Norfolk County,MA,NA,NA,64.93738819320215
02115,Suffolk County,MA,NA,33.872976338729764,NA
02118,Suffolk County,MA,2.4464831804281344,NA,NA
02119,Suffolk County,MA,NA,NA,1.9677996422182469
02122,Suffolk County,MA,NA,22.291407222914074,NA
02124,Suffolk County,MA,0.6116207951070336,NA,NA
02125,Suffolk County,MA,NA,NA,7.155635062611807
02132,Suffolk County,MA,NA,11.45703611457036,NA
02135,Suffolk County,MA,NA,29.389788293897883,NA
02138,Middlesex County,MA,NA,3.7359900373599,NA
02140,Middlesex County,MA,41.896024464831804,NA,NA
02145,Middlesex County,MA,NA,48.318804483188046,NA
02148,Middlesex County,MA,NA,0.12453300124533001,NA
02149,Middlesex County,MA,NA,NA,14.490161001788909
02151,Suffolk County,MA,NA,0,36.314847942754916
02171,Norfolk County,MA,NA,98.63013698630137,NA
02176,Middlesex County,MA,NA,61.89290161892902,NA
02190,Norfolk County,MA,NA,55.292652552926526,72.27191413237925
02330,Plymouth County,MA,42.50764525993883,NA,NA
02333,Plymouth County,MA,NA,32.378580323785805,NA
02360,Plymouth County,MA,42.201834862385326,46.57534246575342,NA
02364,Plymouth County,MA,45.56574923547401,NA,NA
02368,Norfolk County,MA,NA,NA,17.88908765652952
02446,Norfolk County,MA,NA,4.35865504358655,7.5134168157423975
02459,Middlesex County,MA,NA,NA,9.481216457960643
02461,Middlesex County,MA,NA,NA,70.84078711985688
02472,Middlesex County,MA,NA,95.76587795765879,NA
02474,Middlesex County,MA,NA,19.05354919053549,10.196779964221825
02476,Middlesex County,MA,34.5565749235474,NA,NA
02478,Middlesex County,MA,NA,61.51930261519303,NA
02631,Barnstable County,MA,67.88990825688074,NA,NA
02632,Barnstable County,MA,NA,NA,31.305903398926656
02635,Barnstable County,MA,NA,NA,74.95527728085868
02664,Barnstable County,MA,NA,NA,29.874776386404296
02703,Bristol County,MA,NA,7.22291407222914,26.475849731663686
02724,Bristol County,MA,NA,3.4869240348692405,NA
02743,Bristol County,MA,NA,75.46699875466999,NA
02777,Bristol County,MA,NA,NA,92.12880143112702
02780,Bristol County,MA,NA,NA,9.123434704830053
02790,Bristol County,MA,NA,NA,56.17173524150269
48005,Macomb County,MI,NA,NA,90.33989266547407
48026,Macomb County,MI,32.415902140672785,NA,NA
48033,Oakland County,MI,NA,NA,50.62611806797853
48064,St. Clair County,MI,NA,97.26027397260275,NA
48066,Macomb County,MI,4.892966360856269,NA,NA
48071,Oakland County,MI,25.382262996941897,NA,NA
48096,Macomb County,MI,NA,99.12826899128268,NA
48103,Washtenaw County,MI,NA,46.20174346201743,NA
48108,Washtenaw County,MI,NA,NA,67.44186046511628
48114,Livingston County,MI,NA,21.046077210460773,NA
48124,Wayne County,MI,NA,18.306351183063512,NA
48152,Wayne County,MI,NA,3.61145703611457,NA
48167,Oakland County,MI,NA,NA,39.89266547406082
48168,Wayne County,MI,NA,NA,57.960644007155636
48170,Wayne County,MI,NA,NA,37.2093023255814
48180,Wayne County,MI,NA,1.2453300124533,NA
48185,Wayne County,MI,7.951070336391437,NA,NA
48188,Wayne County,MI,NA,NA,31.663685152057248
48189,Washtenaw County,MI,NA,40.2241594022416,NA
48197,Washtenaw County,MI,3.058103975535168,NA,NA
48207,Wayne County,MI,87.1559633027523,NA,NA
48230,Wayne County,MI,NA,26.650062266500623,NA
48234,Wayne County,MI,NA,NA,20.572450805008945
48240,Wayne County,MI,18.654434250764528,NA,NA
48301,Oakland County,MI,NA,NA,78.35420393559929
48312,Macomb County,MI,90.82568807339449,NA,NA
48324,Oakland County,MI,51.07033639143731,NA,NA
48327,Oakland County,MI,NA,30.136986301369863,NA
48331,Oakland County,MI,NA,97.38480697384807,NA
48375,Oakland County,MI,NA,38.10709838107098,NA
48430,Genesee County,MI,NA,15.566625155666253,NA
48506,Genesee County,MI,NA,NA,44.72271914132379
48601,Saginaw County,MI,NA,2.6151930261519305,NA
48609,Saginaw County,MI,NA,NA,88.72987477638641
48611,Bay County,MI,NA,NA,62.9695885509839
48612,Gladwin County,MI,NA,NA,82.28980322003578
48661,Ogemaw County,MI,NA,67.37235367372354,NA
48708,Bay County,MI,NA,78.4557907845579,NA
48732,Bay County,MI,NA,34.99377334993773,NA
48744,Tuscola County,MI,NA,NA,79.42754919499106
48759,Huron County,MI,65.4434250764526,NA,NA
48801,Gratiot County,MI,NA,NA,58.497316636851515
48823,Ingham County,MI,NA,21.419676214196762,NA
48858,Isabella County,MI,78.89908256880734,NA,NA
48867,Shiawassee County,MI,NA,4.483188044831881,31.84257602862254
48879,Clinton County,MI,88.37920489296636,NA,25.760286225402506
49001,Kalamazoo County,MI,NA,42.34122042341221,NA
49015,Calhoun County,MI,NA,NA,12.164579606440071
49022,Berrien County,MI,10.703363914373089,NA,NA
49024,Kalamazoo County,MI,NA,NA,68.87298747763863
49091,St. Joseph County,MI,NA,27.52179327521793,NA
49203,Jackson County,MI,NA,NA,6.261180679785331
49230,Jackson County,MI,NA,96.76214196762142,NA
49233,Hillsdale County,MI,NA,99.50186799501867,NA
49247,Lenawee County,MI,NA,52.6774595267746,NA
49417,Ottawa County,MI,NA,4.10958904109589,NA
49444,Muskegon County,MI,NA,16.43835616438356,NA
49660,Manistee County,MI,35.77981651376147,NA,NA
49690,Grand Traverse County,MI,92.35474006116208,NA,NA
49696,Grand Traverse County,MI,NA,79.45205479452055,NA
49721,Cheboygan County,MI,NA,27.023661270236616,NA
49829,Delta County,MI,NA,NA,55.81395348837209
49913,Houghton County,MI,50.15290519877675,NA,NA
55011,Anoka County,MN,NA,78.70485678704857,NA
55016,Washington County,MN,NA,NA,56.529516994633276
55021,Rice County,MN,NA,88.66749688667497,NA
55042,Washington County,MN,NA,65.25529265255294,NA
55060,Steele County,MN,NA,23.038605230386054,NA
55075,Dakota County,MN,60.550458715596335,NA,NA
55103,Ramsey County,MN,NA,NA,93.38103756708408
55122,Dakota County,MN,NA,84.55790784557908,52.05724508050089
55125,Washington County,MN,NA,NA,33.452593917710196
55306,Dakota County,MN,NA,NA,84.43649373881932
55340,Hennepin County,MN,88.9908256880734,NA,NA
55372,Scott County,MN,NA,72.2291407222914,NA
55378,Scott County,MN,NA,NA,83.89982110912342
55418,Hennepin County,MN,NA,NA,43.29159212880143
55421,Anoka County,MN,NA,NA,36.493738819320214
55429,Hennepin County,MN,NA,NA,89.26654740608228
55434,Anoka County,MN,NA,NA,84.97316636851521
55446,Hennepin County,MN,NA,71.48194271481943,NA
55447,Hennepin County,MN,NA,NA,70.6618962432916
55792,St. Louis County,MN,NA,88.29389788293898,NA
55803,St. Louis County,MN,NA,25.155666251556664,NA
55921,Houston County,MN,NA,67.49688667496886,NA
55981,Wabasha County,MN,NA,63.51183063511831,NA
56001,Blue Earth County,MN,NA,55.168119551681194,NA
56073,Brown County,MN,NA,NA,1.6100178890876566
56308,Douglas County,MN,NA,9.090909090909092,NA
56431,Aitkin County,MN,NA,NA,23.076923076923077
56470,Hubbard County,MN,NA,26.899128268991284,NA
56560,Clay County,MN,52.59938837920489,NA,NA
56623,Lake of the Woods County,MN,NA,91.65628891656289,NA
56630,Beltrami County,MN,98.47094801223241,NA,NA
56716,Polk County,MN,28.440366972477065,NA,NA
38654,DeSoto County,MS,21.712538226299692,NA,NA
38668,Tate County,MS,NA,70.1120797011208,NA
38804,Lee County,MS,NA,63.760896637608965,NA
38851,Chickasaw County,MS,NA,82.44084682440847,82.82647584973166
39110,Madison County,MS,NA,47.6961394769614,NA
39305,Lauderdale County,MS,NA,41.718555417185556,NA
39402,Lamar County,MS,NA,42.465753424657535,NA
39562,Jackson County,MS,NA,84.18430884184309,NA
39567,Jackson County,MS,NA,NA,64.93738819320215
39574,Harrison County,MS,65.74923547400611,NA,NA
39601,Lincoln County,MS,40.36697247706422,NA,NA
39759,Oktibbeha County,MS,57.18654434250765,NA,NA
63042,St. Louis County,MO,NA,NA,60.64400715563506
63044,St. Louis County,MO,NA,NA,45.25939177101968
63121,St. Louis County,MO,NA,64.38356164383562,NA
63122,St. Louis County,MO,NA,18.679950186799502,NA
63129,St. Louis County,MO,NA,NA,7.6923076923076925
63130,St. Louis County,MO,NA,NA,88.9087656529517
63131,St. Louis County,MO,NA,58.03237858032379,NA
63138,St. Louis County,MO,NA,NA,58.85509838998211
63366,St. Charles County,MO,12.538226299694188,NA,NA
63367,St. Charles County,MO,NA,87.17310087173101,NA
63376,St. Charles County,MO,NA,1.36986301369863,NA
63390,Warren County,MO,NA,79.20298879202988,NA
63664,Washington County,MO,NA,96.2640099626401,NA
63703,Cape Girardeau County,MO,NA,57.16064757160647,NA
64015,Jackson County,MO,NA,12.826899128268993,NA
64050,Jackson County,MO,NA,56.16438356164384,NA
64053,Jackson County,MO,83.4862385321101,NA,NA
64057,Jackson County,MO,NA,NA,46.69051878354204
64064,Jackson County,MO,NA,NA,97.67441860465115
64068,Clay County,MO,NA,62.515566625155664,NA
64083,Cass County,MO,58.71559633027523,NA,NA
64086,Jackson County,MO,NA,NA,92.3076923076923
64089,Clay County,MO,99.08256880733946,NA,NA
64110,Jackson County,MO,31.49847094801223,NA,NA
64112,Jackson County,MO,NA,62.76463262764632,NA
64117,Clay County,MO,88.68501529051987,NA,NA
64118,Clay County,MO,NA,5.1058530510585305,NA
64130,Jackson County,MO,59.63302752293578,80.19925280199253,30.76923076923077
64138,Jackson County,MO,36.08562691131498,37.858032378580326,NA
64155,Clay County,MO,NA,45.45454545454545,NA
64506,Buchanan County,MO,43.425076452599384,NA,NA
64507,Buchanan County,MO,25.688073394495415,NA,NA
64683,Grundy County,MO,96.94189602446484,NA,NA
64701,Cass County,MO,NA,47.447073474470734,NA
64801,Jasper County,MO,NA,NA,13.059033989266547
65037,Morgan County,MO,NA,93.39975093399751,NA
65265,Audrain County,MO,NA,NA,42.57602862254025
65459,Pulaski County,MO,NA,74.09713574097135,NA
65711,Wright County,MO,NA,NA,68.33631484794276
59101,Yellowstone County,MT,NA,NA,11.449016100178891
59401,Cascade County,MT,NA,NA,62.432915921288014
59404,Cascade County,MT,NA,7.4719800747198,NA
59701,Silver Bow County,MT,NA,27.895392278953924,NA
59840,Ravalli County,MT,NA,70.85927770859277,NA
59935,Lincoln County,MT,NA,NA,88.5509838998211
59937,Flathead County,MT,NA,NA,52.23613595706619
68136,Sarpy County,NE,NA,74.47073474470734,NA
68505,Lancaster County,NE,NA,76.8368617683686,NA
68601,Platte County,NE,NA,31.257783312577832,45.97495527728086
69101,Lincoln County,NE,NA,46.94894146948941,NA
89117,Clark County,NV,29.66360856269113,NA,NA
89122,Clark County,NV,25.076452599388375,NA,NA
89134,Clark County,NV,NA,35.74097135740971,NA
89147,Clark County,NV,NA,36.73723536737236,NA
89815,Elko County,NV,NA,62.64009962640099,NA
03031,Hillsborough County,NH,87.76758409785933,NA,NA
03038,Rockingham County,NH,NA,12.95143212951432,NA
03051,Hillsborough County,NH,NA,14.196762141967623,NA
03055,Hillsborough County,NH,NA,NA,65.47406082289802
03062,Hillsborough County,NH,NA,5.354919053549191,NA
03063,Hillsborough County,NH,NA,30.759651307596513,NA
03076,Hillsborough County,NH,NA,NA,54.91949910554562
03102,Hillsborough County,NH,NA,NA,49.910554561717355
03106,Merrimack County,NH,NA,77.08592777085927,NA
03254,Carroll County,NH,NA,92.40348692403487,NA
03275,Merrimack County,NH,NA,87.546699875467,NA
03431,Cheshire County,NH,NA,64.00996264009963,NA
03452,Cheshire County,NH,NA,93.02615193026152,NA
03458,Hillsborough County,NH,NA,63.387297633872976,NA
03801,Rockingham County,NH,44.342507645259936,NA,NA
07008,Middlesex County,NJ,71.25382262996942,NA,NA
07012,Passaic County,NJ,NA,73.72353673723536,NA
07016,Union County,NJ,NA,31.133250311332507,NA
07018,Essex County,NJ,NA,82.31631382316313,NA
07029,Hudson County,NJ,NA,NA,90.69767441860465
07031,Bergen County,NJ,NA,NA,81.03756708407872
07039,Essex County,NJ,59.021406727828754,NA,25.044722719141323
07045,Morris County,NJ,84.70948012232415,NA,NA
07047,Hudson County,NJ,NA,8.966376089663761,NA
07071,Bergen County,NJ,NA,73.34993773349939,NA
07087,Hudson County,NJ,NA,NA,4.293381037567084
07093,Hudson County,NJ,NA,88.54296388542964,NA
07103,Essex County,NJ,9.174311926605505,NA,NA
07104,Essex County,NJ,NA,NA,21.10912343470483
07410,Bergen County,NJ,NA,19.80074719800747,NA
07424,Passaic County,NJ,NA,NA,67.26296958855099
07430,Bergen County,NJ,89.90825688073394,NA,NA
07457,Morris County,NJ,93.57798165137615,NA,NA
07461,Sussex County,NJ,NA,88.4184308841843,NA
07470,Passaic County,NJ,40.67278287461774,NA,NA
07621,Bergen County,NJ,NA,84.43337484433376,NA
07624,Bergen County,NJ,NA,91.03362391033623,NA
07631,Bergen County,NJ,NA,NA,99.6422182468694
07652,Bergen County,NJ,NA,NA,9.30232558139535
07656,Bergen County,NJ,NA,NA,87.65652951699462
07666,Bergen County,NJ,NA,NA,12.164579606440071
07670,Bergen County,NJ,74.00611620795107,NA,96.2432915921288
07719,Monmouth County,NJ,NA,50.186799501867995,NA
07832,Warren County,NJ,96.3302752293578,NA,NA
07840,Warren County,NJ,NA,66.99875466998755,NA
07869,Morris County,NJ,NA,33.997509339975096,NA
07924,Somerset County,NJ,91.43730886850153,NA,NA
07930,Morris County,NJ,NA,99.25280199252802,NA
07960,Morris County,NJ,NA,80.57285180572852,NA
08003,Camden County,NJ,NA,57.78331257783312,NA
08005,Ocean County,NJ,16.819571865443425,NA,NA
08046,Burlington County,NJ,NA,19.676214196762142,NA
08070,Salem County,NJ,NA,38.10709838107098,NA
08077,Burlington County,NJ,NA,NA,93.73881932021467
08081,Camden County,NJ,NA,96.01494396014944,NA
08090,Gloucester County,NJ,NA,68.4931506849315,NA
08107,Camden County,NJ,NA,71.3574097135741,NA
08318,Salem County,NJ,68.80733944954129,NA,NA
08401,Atlantic County,NJ,NA,2.2415940224159403,NA
08535,Monmouth County,NJ,NA,99.62640099626401,NA
08721,Ocean County,NJ,NA,40.597758405977586,NA
08731,Ocean County,NJ,34.25076452599388,76.08966376089664,NA
08734,Ocean County,NJ,NA,NA,82.11091234347049
08753,Ocean County,NJ,3.3639143730886847,NA,NA
08759,Ocean County,NJ,NA,0.8717310087173101,12.880143112701253
08820,Middlesex County,NJ,NA,48.94146948941469,NA
08822,Hunterdon County,NJ,NA,54.42092154420921,NA
08844,Somerset County,NJ,NA,82.06724782067248,NA
08865,Warren County,NJ,21.406727828746178,NA,41.50268336314848
08882,Middlesex County,NJ,NA,65.50435865504357,NA
87123,Bernalillo County,NM,NA,NA,75.67084078711986
87506,Santa Fe County,NM,NA,34.8692403486924,NA
88012,Doa Ana County,NM,NA,63.8854296388543,NA
88310,Otero County,NM,NA,NA,4.651162790697675
10003,New York County,NY,46.17737003058104,28.6425902864259,NA
10014,New York County,NY,NA,96.63760896637609,NA
10016,New York County,NY,31.804281345565748,NA,66.90518783542039
10019,New York County,NY,54.43425076452599,NA,NA
10022,New York County,NY,89.29663608562691,NA,NA
10023,New York County,NY,NA,10.585305105853053,2.862254025044723
10025,New York County,NY,NA,72.85180572851806,NA
10028,New York County,NY,NA,81.94271481942715,NA
10030,New York County,NY,20.795107033639145,NA,NA
10032,New York County,NY,NA,NA,3.9355992844364938
10035,New York County,NY,NA,5.230386052303861,NA
10038,New York County,NY,NA,29.763387297633876,NA
10065,New York County,NY,NA,47.94520547945205,NA
10306,Richmond County,NY,NA,11.955168119551681,NA
10310,Richmond County,NY,NA,NA,46.69051878354204
10312,Richmond County,NY,61.46788990825688,NA,NA
10314,Richmond County,NY,NA,2.9887920298879203,NA
10458,Bronx County,NY,0.3058103975535168,NA,NA
10459,Bronx County,NY,6.727828746177369,NA,NA
10461,Bronx County,NY,NA,NA,96.77996422182468
10463,Bronx County,NY,NA,NA,17.531305903398927
10468,Bronx County,NY,NA,1.4943960149439601,30.23255813953488
10469,Bronx County,NY,NA,NA,3.2200357781753133
10472,Bronx County,NY,81.34556574923548,NA,NA
10475,Bronx County,NY,23.24159021406728,NA,NA
10530,Westchester County,NY,NA,NA,46.51162790697674
10566,Westchester County,NY,NA,55.04358655043586,NA
10580,Westchester County,NY,NA,91.53175591531756,NA
10591,Westchester County,NY,NA,80.82191780821918,NA
10598,Westchester County,NY,NA,60.39850560398505,NA
10704,Westchester County,NY,NA,NA,40.7871198568873
10707,Westchester County,NY,91.13149847094802,NA,NA
10952,Rockland County,NY,NA,87.79576587795765,NA
10960,Rockland County,NY,NA,89.41469489414695,NA
11050,Nassau County,NY,NA,68.36861768368617,NA
11105,Queens County,NY,72.78287461773701,NA,NA
11204,Kings County,NY,NA,53.300124533001245,NA
11205,Kings County,NY,NA,15.193026151930262,NA
11206,Kings County,NY,NA,0.7471980074719801,NA
11209,Kings County,NY,NA,14.819427148194272,NA
11212,Kings County,NY,NA,NA,5.008944543828265
11214,Kings County,NY,NA,NA,5.903398926654741
11215,Kings County,NY,NA,24.906600249066003,NA
11219,Kings County,NY,NA,57.534246575342465,NA
11220,Kings County,NY,NA,20.423412204234122,NA
11221,Kings County,NY,3.9755351681957185,NA,NA
11223,Kings County,NY,NA,NA,71.91413237924866
11226,Kings County,NY,NA,1.86799501867995,NA
11230,Kings County,NY,NA,NA,75.31305903398928
11234,Kings County,NY,NA,8.21917808219178,NA
11364,Queens County,NY,NA,NA,55.4561717352415
11368,Queens County,NY,8.56269113149847,NA,93.02325581395348
11373,Queens County,NY,NA,97.13574097135741,17.352415026833633
11419,Queens County,NY,NA,NA,38.46153846153847
11434,Queens County,NY,14.37308868501529,NA,NA
11510,Nassau County,NY,NA,NA,75.84973166368515
11520,Nassau County,NY,NA,NA,32.91592128801431
11554,Nassau County,NY,NA,NA,19.856887298747765
11580,Nassau County,NY,NA,NA,99.28443649373881
11590,Nassau County,NY,NA,NA,19.32021466905188
11598,Nassau County,NY,NA,NA,83.18425760286226
11694,Queens County,NY,NA,68.24408468244084,NA
11704,Suffolk County,NY,NA,NA,23.613595706618963
11729,Suffolk County,NY,NA,72.72727272727273,NA
11735,Nassau County,NY,NA,83.68617683686178,NA
11746,Suffolk County,NY,NA,30.01245330012453,NA
11758,Nassau County,NY,NA,NA,15.742397137745975
11762,Nassau County,NY,NA,NA,64.40071556350627
11766,Suffolk County,NY,NA,79.95018679950186,NA
11780,Suffolk County,NY,NA,94.89414694894147,NA
12010,Montgomery County,NY,7.033639143730887,NA,NA
12125,Columbia County,NY,NA,99.87546699875467,NA
12303,Schenectady County,NY,NA,NA,28.80143112701252
12518,Orange County,NY,NA,NA,95.70661896243293
12569,Dutchess County,NY,NA,78.95392278953923,NA
12590,Dutchess County,NY,NA,NA,41.86046511627907
12921,Clinton County,NY,NA,85.55417185554171,NA
12962,Clinton County,NY,54.74006116207951,NA,NA
13037,Madison County,NY,51.98776758409785,NA,NA
13045,Cortland County,NY,18.34862385321101,66.50062266500623,NA
13088,Onondaga County,NY,26.299694189602445,NA,NA
13104,Onondaga County,NY,44.64831804281346,NA,NA
13135,Oswego County,NY,NA,70.61021170610212,NA
13148,Seneca County,NY,NA,74.84433374844333,62.07513416815742
13165,Seneca County,NY,NA,43.83561643835616,NA
13166,Cayuga County,NY,NA,74.22166874221668,NA
13219,Onondaga County,NY,NA,36.1145703611457,NA
13316,Oneida County,NY,55.04587155963303,NA,NA
13407,Herkimer County,NY,NA,NA,74.23971377459749
13440,Oneida County,NY,13.761467889908257,NA,NA
13601,Jefferson County,NY,NA,NA,45.08050089445438
13662,St. Lawrence County,NY,9.480122324159021,NA,NA
13733,Chenango County,NY,NA,47.94520547945205,NA
13827,Tioga County,NY,77.98165137614679,NA,NA
13849,Otsego County,NY,63.91437308868502,NA,NA
13850,Broome County,NY,NA,92.77708592777087,NA
13905,Broome County,NY,NA,NA,1.7889087656529516
14009,Wyoming County,NY,NA,72.35367372353674,NA
14020,Genesee County,NY,NA,52.3038605230386,NA
14051,Erie County,NY,NA,NA,83.54203935599284
14052,Erie County,NY,NA,NA,76.02862254025044
14059,Erie County,NY,NA,63.26276463262764,NA
14072,Erie County,NY,NA,26.1519302615193,NA
14086,Erie County,NY,NA,15.068493150684931,NA
14105,Niagara County,NY,NA,NA,92.84436493738819
14150,Erie County,NY,NA,23.536737235367372,NA
14225,Erie County,NY,NA,NA,37.567084078711986
14424,Ontario County,NY,NA,0.62266500622665,NA
14468,Monroe County,NY,NA,42.839352428393525,NA
14514,Monroe County,NY,58.103975535168196,NA,NA
14519,Wayne County,NY,NA,NA,98.03220035778175
14526,Monroe County,NY,NA,10.95890410958904,NA
14527,Yates County,NY,NA,NA,42.21824686940966
14580,Monroe County,NY,NA,NA,1.073345259391771
14606,Monroe County,NY,3.669724770642202,NA,NA
14612,Monroe County,NY,NA,35.36737235367372,NA
14616,Monroe County,NY,4.281345565749235,NA,NA
14621,Monroe County,NY,0.9174311926605505,NA,NA
14622,Monroe County,NY,NA,14.32129514321295,NA
14626,Monroe County,NY,NA,55.79078455790785,NA
14706,Cattaraugus County,NY,NA,89.66376089663761,NA
14787,Chautauqua County,NY,NA,77.70859277708593,NA
27012,Forsyth County,NC,NA,NA,29.695885509838998
27103,Forsyth County,NC,NA,NA,40.429338103756706
27302,Alamance County,NC,NA,NA,22.003577817531305
27312,Chatham County,NC,NA,98.50560398505604,NA
27405,Guilford County,NC,NA,NA,18.425760286225405
27511,Wake County,NC,NA,67.24782067247821,NA
27514,Orange County,NC,90.51987767584097,22.166874221668742,NA
27518,Wake County,NC,NA,40.473225404732254,NA
27526,Wake County,NC,NA,44.707347447073474,NA
27527,Johnston County,NC,NA,NA,57.066189624329155
27704,Durham County,NC,NA,NA,29.5169946332737
27705,Durham County,NC,NA,NA,47.9427549194991
27822,Wilson County,NC,NA,73.10087173100872,NA
27856,Nash County,NC,NA,NA,97.85330948121646
27896,Wilson County,NC,NA,NA,60.46511627906976
27909,Pasquotank County,NC,13.149847094801222,NA,NA
28001,Stanly County,NC,82.26299694189603,NA,NA
28054,Gaston County,NC,17.737003058103976,NA,NA
28138,Rowan County,NC,98.1651376146789,NA,NA
28147,Rowan County,NC,NA,NA,86.40429338103756
28163,Stanly County,NC,93.88379204892966,NA,99.82110912343471
28202,Mecklenburg County,NC,NA,83.43711083437111,NA
28226,Mecklenburg County,NC,92.66055045871559,NA,NA
28227,Mecklenburg County,NC,NA,13.20049813200498,NA
28270,Mecklenburg County,NC,NA,75.093399750934,NA
28273,Mecklenburg County,NC,NA,NA,63.864042933810374
28277,Mecklenburg County,NC,NA,40.971357409713576,NA
28304,Cumberland County,NC,NA,32.25404732254047,NA
28337,Bladen County,NC,NA,48.194271481942714,NA
28352,Scotland County,NC,NA,27.397260273972602,NA
28374,Moore County,NC,NA,NA,11.270125223613595
28465,Brunswick County,NC,NA,NA,90.51878354203936
28472,Columbus County,NC,80.42813455657493,NA,NA
28607,Watauga County,NC,43.730886850152906,NA,NA
28609,Catawba County,NC,73.39449541284404,NA,NA
28675,Alleghany County,NC,NA,37.23536737235367,NA
28712,Transylvania County,NC,NA,NA,8.050089445438283
28732,Henderson County,NC,NA,97.5093399750934,NA
28734,Macon County,NC,41.284403669724774,NA,NA
28739,Henderson County,NC,NA,9.838107098381071,NA
28753,Madison County,NC,NA,97.75840597758406,NA
28806,Buncombe County,NC,NA,NA,28.44364937388193
28901,Cherokee County,NC,NA,NA,98.21109123434705
43015,Delaware County,OH,NA,NA,3.5778175313059033
43017,Franklin County,OH,NA,NA,28.622540250447226
43028,Knox County,OH,NA,NA,81.9320214669052
43065,Delaware County,OH,NA,21.54420921544209,NA
43110,Franklin County,OH,NA,6.724782067247821,NA
43123,Franklin County,OH,8.868501529051988,NA,NA
43130,Fairfield County,OH,NA,NA,51.52057245080501
43143,Madison County,OH,NA,NA,72.45080500894454
43410,Sandusky County,OH,64.22018348623854,NA,NA
43465,Wood County,OH,65.13761467889908,NA,NA
43616,Lucas County,OH,13.455657492354739,7.596513075965131,NA
43724,Noble County,OH,63.30275229357798,NA,NA
43725,Guernsey County,OH,14.678899082568808,NA,NA
43764,Perry County,OH,NA,NA,96.42218246869409
43920,Columbiana County,OH,NA,48.692403486924036,NA
43935,Belmont County,OH,NA,50.06226650062266,NA
43952,Jefferson County,OH,NA,30.26151930261519,NA
43953,Jefferson County,OH,NA,NA,62.25402504472272
44004,Ashtabula County,OH,NA,15.69115815691158,12.701252236135957
44035,Lorain County,OH,10.091743119266056,NA,NA
44060,Lake County,OH,NA,0.49813200498132004,NA
44070,Cuyahoga County,OH,95.41284403669725,71.23287671232876,NA
44087,Summit County,OH,NA,NA,2.3255813953488373
44092,Lake County,OH,NA,NA,8.407871198568873
44095,Lake County,OH,NA,6.47571606475716,NA
44102,Cuyahoga County,OH,0,NA,NA
44106,Cuyahoga County,OH,NA,34.62017434620174,NA
44107,Cuyahoga County,OH,NA,NA,6.618962432915922
44111,Cuyahoga County,OH,2.1406727828746175,NA,NA
44120,Cuyahoga County,OH,4.587155963302752,NA,NA
44124,Cuyahoga County,OH,NA,NA,0.35778175313059035
44125,Cuyahoga County,OH,32.11009174311927,NA,NA
44128,Cuyahoga County,OH,NA,11.33250311332503,NA
44133,Cuyahoga County,OH,NA,NA,8.94454382826476
44134,Cuyahoga County,OH,NA,1.61892901618929,NA
44141,Cuyahoga County,OH,72.47706422018348,NA,NA
44142,Cuyahoga County,OH,NA,NA,14.132379248658319
44145,Cuyahoga County,OH,NA,3.3623910336239105,NA
44149,Cuyahoga County,OH,61.16207951070336,NA,NA
44202,Portage County,OH,NA,14.44582814445828,NA
44212,Medina County,OH,NA,36.986301369863014,NA
44224,Summit County,OH,NA,NA,8.228980322003578
44240,Portage County,OH,NA,80.07471980074719,NA
44241,Portage County,OH,27.522935779816514,NA,NA
44256,Medina County,OH,NA,0.24906600249066002,NA
44270,Wayne County,OH,NA,66.87422166874222,NA
44281,Medina County,OH,NA,10.08717310087173,NA
44413,Columbiana County,OH,93.27217125382263,NA,NA
44425,Trumbull County,OH,NA,NA,38.81932021466905
44440,Trumbull County,OH,NA,70.36114570361146,NA
44460,Columbiana County,OH,NA,84.80697384806973,NA
44473,Trumbull County,OH,NA,95.14321295143213,NA
44484,Trumbull County,OH,NA,61.021170610211705,NA
44614,Stark County,OH,NA,53.42465753424658,NA
44691,Wayne County,OH,NA,59.27770859277709,NA
44705,Stark County,OH,NA,NA,56.35062611806798
44720,Stark County,OH,NA,NA,86.04651162790698
44870,Erie County,OH,NA,NA,3.7567084078711988
45013,Butler County,OH,NA,2.3661270236612704,NA
45040,Warren County,OH,NA,NA,20.39355992844365
45050,Butler County,OH,NA,NA,66.3685152057245
45140,Clermont County,OH,22.32415902140673,NA,NA
45230,Hamilton County,OH,NA,NA,53.13059033989267
45247,Hamilton County,OH,NA,31.008717310087174,NA
45251,Hamilton County,OH,NA,47.3225404732254,NA
45305,Greene County,OH,NA,67.12328767123287,NA
45324,Greene County,OH,NA,39.47696139476962,NA
45365,Shelby County,OH,NA,34.49564134495641,NA
45371,Miami County,OH,NA,NA,27.370304114490164
45377,Montgomery County,OH,NA,34.24657534246575,NA
45405,Montgomery County,OH,49.235474006116206,NA,NA
45419,Montgomery County,OH,71.55963302752293,NA,NA
45601,Ross County,OH,NA,NA,21.46690518783542
45631,Gallia County,OH,NA,NA,66.54740608228981
45638,Lawrence County,OH,NA,NA,20.930232558139537
45680,Lawrence County,OH,NA,NA,32.200357781753134
45690,Pike County,OH,NA,38.35616438356164,NA
45694,Scioto County,OH,NA,16.811955168119553,NA
45714,Washington County,OH,NA,12.702366127023662,NA
45769,Meigs County,OH,NA,NA,55.635062611806795
45805,Allen County,OH,NA,49.31506849315068,NA
45833,Allen County,OH,NA,51.43212951432129,NA
45895,Auglaize County,OH,NA,82.81444582814446,NA
73020,Oklahoma County,OK,NA,20.049813200498132,NA
73115,Oklahoma County,OK,NA,59.7758405977584,NA
73120,Oklahoma County,OK,37.920489296636084,NA,NA
73142,Oklahoma County,OK,NA,NA,50.268336314847936
73160,Cleveland County,OK,NA,21.793275217932752,NA
73521,Jackson County,OK,NA,NA,42.039355992844364
73701,Garfield County,OK,NA,53.67372353673724,22.719141323792485
74006,Washington County,OK,NA,NA,57.60286225402504
74016,Rogers County,OK,NA,95.51681195516812,NA
74429,Wagoner County,OK,NA,57.03611457036114,NA
74801,Pottawatomie County,OK,NA,19.551681195516814,NA
74953,Le Flore County,OK,NA,NA,76.38640429338103
97005,Washington County,OR,NA,56.039850560398506,NA
97058,Wasco County,OR,NA,22.789539227895393,NA
97064,Columbia County,OR,94.4954128440367,NA,NA
97080,Multnomah County,OR,NA,NA,73.70304114490162
97086,Clackamas County,OR,NA,52.80199252801992,NA
97124,Washington County,OR,NA,NA,23.792486583184257
97217,Multnomah County,OR,92.96636085626912,NA,NA
97222,Clackamas County,OR,NA,24.533001245330013,NA
97225,Washington County,OR,NA,76.3387297633873,NA
97233,Multnomah County,OR,NA,NA,71.37745974955277
97236,Multnomah County,OR,NA,NA,50.44722719141323
97303,Marion County,OR,NA,33.37484433374844,NA
97304,Polk County,OR,NA,80.4483188044832,NA
97322,Linn County,OR,NA,NA,33.98926654740608
97330,Benton County,OR,NA,NA,49.55277280858677
97381,Marion County,OR,NA,NA,69.76744186046511
97471,Douglas County,OR,NA,3.8605230386052307,NA
97504,Jackson County,OR,NA,9.339975093399751,NA
97601,Klamath County,OR,NA,NA,35.77817531305904
97603,Klamath County,OR,NA,NA,2.146690518783542
97741,Jefferson County,OR,NA,NA,93.20214669051879
97754,Crook County,OR,NA,17.4346201743462,NA
97756,Deschutes County,OR,NA,NA,32.55813953488372
97814,Baker County,OR,NA,60.52303860523038,NA
97914,Malheur County,OR,22.018348623853214,NA,NA
15005,Beaver County,PA,NA,61.27023661270237,NA
15044,Allegheny County,PA,NA,41.0958904109589,NA
15071,Allegheny County,PA,69.41896024464832,NA,NA
15089,Westmoreland County,PA,NA,68.61768368617683,NA
15108,Allegheny County,PA,NA,39.352428393524285,NA
15147,Allegheny County,PA,NA,NA,47.58497316636851
15204,Allegheny County,PA,NA,88.91656288916563,NA
15205,Allegheny County,PA,NA,NA,51.699463327370296
15206,Allegheny County,PA,NA,NA,76.20751341681574
15210,Allegheny County,PA,NA,NA,43.47048300536673
15212,Allegheny County,PA,NA,NA,30.590339892665476
15213,Allegheny County,PA,76.45259938837921,NA,NA
15216,Allegheny County,PA,NA,78.33125778331258,NA
15217,Allegheny County,PA,NA,16.68742216687422,18.067978533094813
15235,Allegheny County,PA,NA,82.06724782067248,NA
15236,Allegheny County,PA,NA,66.12702366127023,NA
15370,Greene County,PA,NA,NA,49.01610017889087
15401,Fayette County,PA,NA,50.93399750933998,69.23076923076923
15642,Westmoreland County,PA,NA,24.65753424657534,NA
15650,Westmoreland County,PA,NA,12.577833125778332,NA
15681,Indiana County,PA,97.85932721712538,NA,66.18962432915922
15853,Elk County,PA,NA,98.75466998754669,NA
15901,Cambria County,PA,100,NA,NA
15904,Cambria County,PA,NA,NA,86.94096601073346
16053,Butler County,PA,NA,NA,58.31842576028623
16066,Butler County,PA,NA,28.767123287671232,NA
16101,Lawrence County,PA,NA,25.77833125778331,NA
16148,Mercer County,PA,NA,17.06102117061021,5.724508050089446
16316,Crawford County,PA,NA,77.45952677459526,NA
16508,Erie County,PA,44.64831804281346,48.81693648816937,NA
16648,Blair County,PA,NA,26.1519302615193,NA
16803,Centre County,PA,NA,71.60647571606475,NA
17013,Cumberland County,PA,NA,12.079701120797012,NA
17018,Dauphin County,PA,NA,94.27148194271481,NA
17019,York County,PA,NA,63.013698630136986,77.4597495527728
17020,Perry County,PA,66.36085626911316,NA,NA
17025,Cumberland County,PA,NA,NA,61.18067978533095
17033,Dauphin County,PA,56.269113149847094,NA,NA
17036,Dauphin County,PA,NA,8.468244084682441,NA
17042,Lebanon County,PA,6.422018348623854,23.6612702366127,NA
17050,Cumberland County,PA,NA,6.351183063511831,NA
17055,Cumberland County,PA,NA,37.733499377334994,NA
17104,Dauphin County,PA,16.51376146788991,NA,NA
17222,Franklin County,PA,NA,38.978829389788295,NA
17313,York County,PA,NA,NA,76.92307692307693
17325,Adams County,PA,NA,75.21793275217932,NA
17327,York County,PA,NA,65.1307596513076,NA
17331,York County,PA,8.256880733944955,NA,NA
17402,York County,PA,17.431192660550458,NA,NA
17569,Lancaster County,PA,NA,NA,86.04651162790698
17603,Lancaster County,PA,NA,NA,61.71735241502684
17702,Lycoming County,PA,NA,96.38854296388543,NA
17751,Clinton County,PA,NA,NA,79.78533094812164
17815,Columbia County,PA,NA,7.347447073474471,NA
17837,Union County,PA,NA,NA,79.96422182468694
17866,Northumberland County,PA,73.70030581039755,NA,NA
17901,Schuylkill County,PA,NA,NA,20.214669051878353
17954,Schuylkill County,PA,NA,98.87920298879203,NA
18071,Carbon County,PA,NA,NA,69.40966010733453
18104,Lehigh County,PA,54.12844036697248,NA,NA
18222,Luzerne County,PA,NA,54.794520547945204,NA
18509,Lackawanna County,PA,NA,NA,57.60286225402504
18612,Luzerne County,PA,69.1131498470948,NA,NA
18641,Luzerne County,PA,NA,NA,63.327370304114496
18702,Luzerne County,PA,NA,3.23785803237858,NA
18704,Luzerne County,PA,NA,10.211706102117061,NA
18940,Bucks County,PA,NA,NA,70.12522361359571
18974,Bucks County,PA,NA,7.84557907845579,NA
19003,Montgomery County,PA,NA,NA,68.15742397137747
19010,Delaware County,PA,NA,NA,39.53488372093023
19015,Delaware County,PA,33.63914373088685,NA,NA
19027,Montgomery County,PA,NA,NA,91.59212880143113
19038,Montgomery County,PA,NA,NA,87.11985688729875
19047,Bucks County,PA,NA,12.32876712328767,NA
19055,Bucks County,PA,NA,58.15691158156911,NA
19063,Delaware County,PA,NA,8.59277708592777,NA
19073,Delaware County,PA,NA,54.66998754669987,NA
19090,Montgomery County,PA,40.97859327217125,NA,NA
19111,Philadelphia County,PA,NA,NA,90.16100178890876
19116,Philadelphia County,PA,52.90519877675841,NA,NA
19118,Philadelphia County,PA,NA,80.82191780821918,NA
19134,Philadelphia County,PA,NA,NA,37.38819320214669
19145,Philadelphia County,PA,NA,8.34371108343711,NA
19147,Philadelphia County,PA,NA,NA,94.81216457960645
19312,Chester County,PA,NA,84.30884184308842,NA
19335,Chester County,PA,NA,10.460772104607722,NA
19355,Chester County,PA,NA,30.510585305105852,NA
19380,Chester County,PA,NA,NA,2.5044722719141324
19382,Chester County,PA,14.678899082568808,86.79950186799502,NA
19446,Montgomery County,PA,NA,NA,5.545617173524151
19465,Chester County,PA,NA,51.18306351183064,NA
19468,Montgomery County,PA,NA,NA,39.35599284436494
19526,Berks County,PA,NA,NA,91.77101967799642
19551,Berks County,PA,83.18042813455658,NA,NA
19604,Berks County,PA,11.926605504587156,NA,NA
19610,Berks County,PA,NA,NA,67.62075134168157
02857,Providence County,RI,NA,NA,81.3953488372093
02863,Providence County,RI,85.93272171253822,NA,NA
02864,Providence County,RI,NA,NA,34.34704830053667
02865,Providence County,RI,NA,91.78082191780823,NA
02871,Newport County,RI,NA,28.144458281444585,NA
02891,Washington County,RI,NA,49.066002490660026,NA
02904,Providence County,RI,NA,67.6214196762142,NA
29072,Lexington County,SC,NA,NA,25.402504472271914
29150,Sumter County,SC,NA,20.672478206724783,NA
29223,Richland County,SC,22.629969418960243,NA,NA
29302,Spartanburg County,SC,NA,79.07845579078456,NA
29349,Spartanburg County,SC,24.770642201834864,NA,19.67799642218247
29414,Charleston County,SC,NA,NA,26.118067978533094
29466,Charleston County,SC,NA,37.484433374844336,NA
29477,Dorchester County,SC,78.59327217125383,NA,NA
29526,Horry County,SC,NA,NA,74.4186046511628
29576,Horry County,SC,NA,31.880448318804483,NA
29588,Horry County,SC,NA,6.973848069738481,NA
29625,Anderson County,SC,56.574923547400616,NA,NA
29640,Pickens County,SC,NA,17.68368617683686,NA
29669,Anderson County,SC,NA,96.13947696139476,NA
29681,Greenville County,SC,NA,11.083437110834371,NA
29687,Greenville County,SC,NA,17.4346201743462,NA
29710,York County,SC,NA,64.63262764632628,NA
29801,Aiken County,SC,71.86544342507645,NA,NA
29803,Aiken County,SC,NA,NA,15.56350626118068
29936,Jasper County,SC,NA,69.11581569115816,NA
57006,Brookings County,SD,NA,NA,11.627906976744185
57105,Minnehaha County,SD,40.0611620795107,NA,NA
57108,Lincoln County,SD,NA,NA,5.18783542039356
57702,Pennington County,SD,NA,NA,7.8711985688729875
37040,Montgomery County,TN,NA,52.926525529265255,NA
37067,Williamson County,TN,71.86544342507645,NA,NA
37080,Davidson County,TN,NA,78.70485678704857,NA
37148,Sumner County,TN,37.00305810397553,NA,NA
37172,Robertson County,TN,15.59633027522936,NA,NA
37174,Williamson County,TN,41.59021406727829,NA,NA
37217,Davidson County,TN,NA,42.21668742216688,NA
37343,Hamilton County,TN,NA,NA,20.03577817531306
37354,Monroe County,TN,33.02752293577982,NA,NA
37375,Franklin County,TN,NA,95.64134495641345,NA
37377,Hamilton County,TN,NA,16.189290161892902,NA
37398,Franklin County,TN,NA,43.46201743462018,NA
37416,Hamilton County,TN,NA,NA,64.04293381037567
37683,Johnson County,TN,NA,49.19053549190536,NA
37692,Unicoi County,TN,NA,90.9090909090909,NA
37725,Jefferson County,TN,NA,NA,61.35957066189624
37777,Blount County,TN,NA,68.11955168119552,NA
37803,Blount County,TN,NA,10.336239103362391,NA
37840,Roane County,TN,79.51070336391437,NA,NA
37854,Roane County,TN,49.54128440366973,NA,NA
37876,Sevier County,TN,29.357798165137616,NA,NA
37918,Knox County,TN,NA,70.23661270236613,NA
37921,Knox County,TN,NA,42.71481942714819,NA
38004,Tipton County,TN,NA,99.37733499377335,NA
38053,Shelby County,TN,NA,NA,25.939177101967797
38059,Dyer County,TN,NA,96.51307596513075,NA
38107,Shelby County,TN,NA,NA,59.74955277280859
38109,Shelby County,TN,NA,NA,24.686940966010734
38118,Shelby County,TN,NA,NA,71.55635062611807
38119,Shelby County,TN,64.52599388379205,NA,NA
38310,McNairy County,TN,NA,NA,71.19856887298748
38483,Lawrence County,TN,80.73394495412845,NA,NA
38556,Fentress County,TN,44.03669724770643,NA,NA
38570,Overton County,TN,NA,51.93026151930261,NA
75002,Collin County,TX,NA,92.15442092154422,NA
75048,Dallas County,TX,NA,87.92029887920299,NA
75056,Denton County,TX,28.134556574923547,NA,NA
75110,Navarro County,TX,NA,NA,35.241502683363144
75150,Dallas County,TX,NA,38.72976338729763,NA
75165,Ellis County,TX,NA,62.889165628891654,NA
75167,Ellis County,TX,66.97247706422019,NA,NA
75189,Rockwall County,TX,39.14373088685015,NA,NA
75211,Dallas County,TX,NA,17.80821917808219,NA
75225,Dallas County,TX,NA,NA,27.191413237924866
75248,Dallas County,TX,NA,NA,31.305903398926656
75254,Dallas County,TX,NA,58.15691158156911,NA
75410,Wood County,TX,NA,85.42963885429639,NA
75501,Bowie County,TX,NA,NA,40.250447227191415
75692,Harrison County,TX,NA,81.81818181818183,NA
75707,Smith County,TX,80.1223241590214,NA,NA
75789,Smith County,TX,NA,NA,72.98747763864043
75840,Freestone County,TX,NA,NA,78.53309481216458
75904,Angelina County,TX,NA,10.834371108343712,NA
76009,Johnson County,TX,NA,NA,68.51520572450805
76012,Tarrant County,TX,NA,NA,40.7871198568873
76016,Tarrant County,TX,NA,NA,27.906976744186046
76031,Johnson County,TX,NA,65.75342465753424,NA
76040,Tarrant County,TX,NA,55.91531755915318,NA
76063,Tarrant County,TX,38.53211009174312,NA,NA
76123,Tarrant County,TX,NA,51.55666251556662,NA
76208,Denton County,TX,NA,NA,60.28622540250447
76209,Denton County,TX,NA,NA,68.51520572450805
76354,Wichita County,TX,NA,NA,61.89624329159212
76426,Wise County,TX,NA,54.91905354919054,NA
76501,Bell County,TX,NA,91.40722291407222,NA
76502,Bell County,TX,NA,NA,35.062611806797854
76504,Bell County,TX,NA,42.092154420921545,NA
76513,Bell County,TX,NA,32.12951432129515,0.5366726296958855
76531,Hamilton County,TX,NA,NA,98.56887298747765
76645,Hill County,TX,NA,52.552926525529266,NA
76708,McLennan County,TX,NA,39.8505603985056,NA
76901,Tom Green County,TX,NA,23.41220423412204,NA
77005,Harris County,TX,NA,43.08841843088418,NA
77016,Harris County,TX,NA,NA,38.10375670840787
77024,Harris County,TX,NA,28.89165628891656,NA
77043,Harris County,TX,NA,62.01743462017435,NA
77069,Harris County,TX,74.31192660550458,NA,NA
77072,Harris County,TX,NA,66.0024906600249,NA
77077,Harris County,TX,38.837920489296636,24.283935242839352,NA
77088,Harris County,TX,53.822629969418955,NA,NA
77092,Harris County,TX,NA,50.43586550435866,NA
77095,Harris County,TX,NA,33.125778331257784,NA
77351,Polk County,TX,NA,17.932752179327522,NA
77375,Harris County,TX,20.18348623853211,NA,NA
77379,Harris County,TX,24.159021406727827,6.60024906600249,NA
77418,Austin County,TX,NA,58.53051058530511,NA
77447,Harris County,TX,NA,73.72353673723536,NA
77474,Austin County,TX,NA,41.59402241594022,NA
77477,Fort Bend County,TX,NA,30.635118306351185,NA
77498,Fort Bend County,TX,NA,NA,50.98389982110913
77530,Harris County,TX,NA,88.04483188044831,NA
77531,Brazoria County,TX,NA,NA,84.61538461538461
77536,Harris County,TX,NA,57.40971357409713,NA
77551,Galveston County,TX,NA,49.93773349937734,NA
77566,Brazoria County,TX,NA,NA,38.28264758497317
77586,Harris County,TX,NA,85.18057285180572,NA
77612,Jasper County,TX,NA,61.76836861768369,NA
77630,Orange County,TX,73.08868501529052,NA,NA
77868,Grimes County,TX,NA,NA,50.80500894454383
77954,DeWitt County,TX,NA,NA,47.40608228980322
78006,Kendall County,TX,NA,87.67123287671232,NA
78040,Webb County,TX,NA,28.268991282689914,NA
78041,Webb County,TX,NA,NA,24.15026833631485
78046,Webb County,TX,39.75535168195719,NA,NA
78212,Bexar County,TX,NA,30.386052303860524,NA
78237,Bexar County,TX,NA,NA,45.43828264758497
78240,Bexar County,TX,61.773700305810394,NA,NA
78573,Hidalgo County,TX,47.706422018348626,NA,NA
78582,Starr County,TX,NA,NA,22.54025044722719
78665,Williamson County,TX,NA,21.91780821917808,NA
78945,Fayette County,TX,NA,NA,63.1484794275492
79415,Lubbock County,TX,57.798165137614674,NA,NA
79905,El Paso County,TX,86.54434250764525,NA,NA
84014,Davis County,UT,78.2874617737003,NA,NA
84067,Weber County,UT,NA,46.326276463262765,NA
84074,Tooele County,UT,5.198776758409786,NA,NA
84107,Salt Lake County,UT,NA,NA,25.044722719141323
84116,Salt Lake County,UT,NA,76.46326276463262,NA
84318,Cache County,UT,94.80122324159022,NA,NA
84651,Utah County,UT,NA,NA,80.50089445438283
84737,Washington County,UT,NA,74.59526774595268,NA
84780,Washington County,UT,NA,NA,40.07155635062612
05301,Windham County,VT,NA,NA,78.71198568872988
05468,Chittenden County,VT,NA,60.647571606475715,NA
05478,Franklin County,VT,NA,NA,85.5098389982111
20109,Prince William County,VA,28.74617737003058,NA,NA
20191,Fairfax County,VA,NA,NA,69.05187835420394
22401,Fredericksburg city,VA,NA,NA,53.84615384615385
22473,Northumberland County,VA,NA,85.0560398505604,NA
22554,Stafford County,VA,NA,31.38231631382316,NA
22827,Rockingham County,VA,NA,53.9227895392279,73.16636851520573
22901,Albemarle County,VA,99.38837920489296,NA,NA
22960,Orange County,VA,NA,NA,58.67620751341681
23002,Amelia County,VA,NA,74.34620174346202,NA
23005,Hanover County,VA,NA,NA,64.75849731663685
23059,Henrico County,VA,NA,NA,84.79427549194992
23113,Chesterfield County,VA,NA,66.62515566625156,42.75491949910555
23181,King William County,VA,NA,73.10087173100872,NA
23188,James City County,VA,NA,1.9925280199252802,NA
23223,Henrico County,VA,33.94495412844037,NA,NA
23233,Henrico County,VA,68.50152905198776,NA,NA
23234,Chesterfield County,VA,NA,24.906600249066003,NA
23294,Henrico County,VA,98.77675840978594,NA,NA
23452,Virginia Beach city,VA,NA,5.603985056039851,NA
23456,Virginia Beach city,VA,NA,5.9775840597758405,NA
23513,Norfolk city,VA,NA,NA,16.99463327370304
24016,Roanoke city,VA,47.40061162079511,NA,NA
24018,Roanoke County,VA,NA,NA,7.334525939177102
24121,Bedford County,VA,NA,NA,94.45438282647585
24153,Salem city,VA,NA,NA,15.026833631484795
24211,Washington County,VA,NA,69.48941469489415,NA
24333,Galax city,VA,NA,39.60149439601494,NA
24382,Wythe County,VA,NA,NA,61.001788908765654
24523,Bedford County,VA,NA,29.265255292652554,NA
24651,Tazewell County,VA,NA,NA,85.86762075134168
98006,King County,WA,NA,22.66500622665006,NA
98029,King County,WA,NA,49.56413449564134,NA
98031,King County,WA,NA,11.581569115815691,NA
98036,Snohomish County,WA,NA,NA,30.05366726296959
98040,King County,WA,NA,43.212951432129515,35.59928443649374
98056,King County,WA,NA,43.586550435865504,NA
98104,King County,WA,NA,NA,91.23434704830053
98115,King County,WA,NA,61.64383561643836,NA
98119,King County,WA,NA,94.76961394769614,NA
98125,King County,WA,NA,NA,29.159212880143116
98155,King County,WA,NA,59.02864259028643,NA
98223,Snohomish County,WA,NA,41.344956413449566,36.85152057245081
98225,Whatcom County,WA,77.06422018348624,NA,NA
98248,Whatcom County,WA,NA,NA,52.41502683363149
98312,Kitsap County,WA,NA,47.073474470734745,NA
98332,Pierce County,WA,NA,40.34869240348692,NA
98383,Kitsap County,WA,NA,40.846824408468244,NA
98406,Pierce County,WA,NA,38.978829389788295,67.08407871198568
98467,Pierce County,WA,NA,55.541718555417184,NA
98499,Pierce County,WA,NA,39.726027397260275,NA
98520,Grays Harbor County,WA,NA,33.623910336239106,NA
98524,Mason County,WA,NA,70.4856787048568,NA
98563,Grays Harbor County,WA,NA,NA,91.94991055456173
98620,Klickitat County,WA,NA,NA,55.09838998211091
98642,Clark County,WA,NA,69.61394769613948,NA
98671,Clark County,WA,NA,NA,61.35957066189624
98801,Chelan County,WA,NA,4.732254047322541,NA
98826,Chelan County,WA,NA,80.69738480697384,NA
98837,Grant County,WA,NA,23.28767123287671,NA
98857,Grant County,WA,NA,98.38107098381072,NA
99206,Spokane County,WA,NA,NA,24.86583184257603
99207,Spokane County,WA,43.11926605504588,NA,NA
99224,Spokane County,WA,NA,79.82565379825654,NA
99337,Benton County,WA,NA,4.60772104607721,NA
99362,Walla Walla County,WA,NA,8.7173100871731,NA
20002,District of Columbia,DC,7.339449541284404,NA,NA
20011,District of Columbia,DC,NA,NA,3.3989266547406083
25143,Kanawha County,WV,NA,NA,59.570661896243294
25302,Kanawha County,WV,NA,81.3200498132005,NA
25312,Kanawha County,WV,NA,78.20672478206725,NA
25404,Berkeley County,WV,NA,NA,51.162790697674424
25411,Morgan County,WV,NA,39.22789539227895,NA
25526,Putnam County,WV,NA,27.646326276463263,NA
26003,Ohio County,WV,NA,NA,49.37388193202147
26201,Upshur County,WV,NA,NA,44.364937388193205
26452,Lewis County,WV,70.9480122324159,NA,NA
26847,Grant County,WV,NA,82.93897882938978,NA
53005,Waukesha County,WI,NA,95.8904109589041,40.608228980322004
53012,Ozaukee County,WI,NA,NA,77.99642218246869
53027,Washington County,WI,NA,33.00124533001245,NA
53081,Sheboygan County,WI,15.902140672782874,46.07721046077211,NA
53086,Washington County,WI,NA,NA,85.3309481216458
53089,Waukesha County,WI,NA,95.01867995018681,NA
53092,Ozaukee County,WI,NA,29.8879202988792,NA
53095,Washington County,WI,NA,NA,54.203935599284435
53097,Ozaukee County,WI,81.9571865443425,NA,NA
53105,Racine County,WI,NA,7.721046077210461,70.84078711985688
53118,Waukesha County,WI,NA,77.33499377334994,NA
53149,Waukesha County,WI,NA,NA,96.6010733452594
53151,Waukesha County,WI,NA,57.65877957658779,NA
53179,Kenosha County,WI,57.49235474006116,NA,NA
53181,Kenosha County,WI,NA,94.39601494396015,NA
53207,Milwaukee County,WI,NA,22.91407222914072,22.898032200357783
53209,Milwaukee County,WI,NA,55.666251556662516,NA
53215,Milwaukee County,WI,NA,2.73972602739726,NA
53218,Milwaukee County,WI,NA,5.72851805728518,NA
53222,Milwaukee County,WI,NA,89.91282689912828,NA
53223,Milwaukee County,WI,NA,NA,91.05545617173524
53225,Milwaukee County,WI,35.16819571865443,NA,NA
53227,Milwaukee County,WI,NA,68.99128268991282,NA
53555,Columbia County,WI,NA,90.0373599003736,NA
53705,Dane County,WI,NA,NA,11.091234347048301
54016,St. Croix County,WI,NA,34.12204234122042,NA
54130,Outagamie County,WI,NA,72.10460772104608,NA
54153,Oconto County,WI,NA,69.11581569115816,NA
54313,Brown County,WI,NA,67.87048567870487,NA
54401,Marathon County,WI,NA,23.785803237858033,NA
54467,Portage County,WI,NA,27.770859277708592,NA
54481,Portage County,WI,NA,12.95143212951432,NA
54755,Buffalo County,WI,NA,92.02988792029888,NA
54830,Burnett County,WI,NA,83.8107098381071,NA
54840,Burnett County,WI,83.79204892966361,NA,NA
54952,Winnebago County,WI,NA,NA,48.3005366726297
54956,Winnebago County,WI,NA,53.42465753424658,NA
54961,Waupaca County,WI,NA,62.26650062266501,NA
82435,Park County,WY,NA,53.17559153175592,43.112701252236135
