ZipCode,county,state,Adult,Retirement,Geriatric
35040,Shelby County,AL,NA,NA,83.58531317494601
35072,Coosa County,AL,NA,87.46666666666667,NA
35079,Blount County,AL,NA,NA,93.08855291576674
35094,Jefferson County,AL,NA,70.66666666666667,NA
35209,Jefferson County,AL,NA,70.39999999999999,NA
35211,Jefferson County,AL,NA,NA,37.365010799136066
35242,Shelby County,AL,36.7816091954023,NA,NA
35650,Lawrence County,AL,NA,NA,44.06047516198704
35960,Cherokee County,AL,NA,84.8,NA
36109,Montgomery County,AL,NA,NA,47.084233261339094
36251,Clay County,AL,NA,NA,94.16846652267819
36575,Mobile County,AL,67.81609195402298,NA,NA
36609,Mobile County,AL,68.5823754789272,NA,NA
36613,Mobile County,AL,NA,80.80000000000001,NA
36617,Mobile County,AL,NA,NA,68.25053995680346
36701,Dallas County,AL,32.95019157088122,NA,NA
99508,Anchorage Municipality,AK,NA,NA,61.33909287257019
85009,Maricopa County,AZ,NA,26.666666666666668,NA
85024,Maricopa County,AZ,NA,85.33333333333334,NA
85033,Maricopa County,AZ,NA,40.8,NA
85048,Maricopa County,AZ,60.15325670498084,NA,NA
85120,Pinal County,AZ,49.42528735632184,NA,NA
85140,Pinal County,AZ,40.61302681992337,NA,NA
85206,Maricopa County,AZ,NA,NA,12.311015118790497
85209,Maricopa County,AZ,NA,66.4,NA
85249,Maricopa County,AZ,NA,37.333333333333336,NA
85260,Maricopa County,AZ,NA,40.266666666666666,NA
85306,Maricopa County,AZ,NA,65.60000000000001,NA
85335,Maricopa County,AZ,NA,NA,83.15334773218143
85339,Maricopa County,AZ,NA,56.53333333333334,NA
85350,Yuma County,AZ,60.91954022988506,NA,NA
85351,Maricopa County,AZ,NA,NA,0.8639308855291578
85364,Yuma County,AZ,NA,NA,4.319654427645788
85375,Maricopa County,AZ,NA,NA,1.079913606911447
85383,Maricopa County,AZ,32.18390804597701,NA,NA
85392,Maricopa County,AZ,NA,54.13333333333333,NA
85396,Maricopa County,AZ,NA,59.46666666666667,NA
85622,Pima County,AZ,NA,68.8,NA
85706,Pima County,AZ,1.9157088122605364,NA,NA
85711,Pima County,AZ,NA,NA,40.38876889848812
85718,Pima County,AZ,91.95402298850574,NA,NA
85745,Pima County,AZ,NA,18.4,NA
85756,Pima County,AZ,NA,NA,77.7537796976242
86409,Mohave County,AZ,NA,NA,23.542116630669547
86440,Mohave County,AZ,98.08429118773945,NA,NA
71701,Ouachita County,AR,84.2911877394636,NA,NA
72034,Faulkner County,AR,61.30268199233716,NA,NA
72086,Lonoke County,AR,76.24521072796935,NA,NA
72117,Pulaski County,AR,NA,84,NA
72120,Pulaski County,AR,NA,16.8,NA
72653,Baxter County,AR,NA,NA,11.01511879049676
72834,Yell County,AR,NA,88.53333333333333,NA
72956,Crawford County,AR,NA,29.599999999999998,NA
90036,Los Angeles County,CA,NA,NA,67.3866090712743
90049,Los Angeles County,CA,NA,47.733333333333334,NA
90057,Los Angeles County,CA,NA,NA,58.09935205183585
90059,Los Angeles County,CA,NA,NA,65.01079913606912
90503,Los Angeles County,CA,86.59003831417624,NA,NA
90710,Los Angeles County,CA,NA,NA,76.02591792656588
91001,Los Angeles County,CA,NA,NA,42.98056155507559
91201,Los Angeles County,CA,NA,NA,61.77105831533477
91740,Los Angeles County,CA,NA,NA,62.419006479481645
91748,Los Angeles County,CA,77.39463601532567,NA,NA
91754,Los Angeles County,CA,93.86973180076629,NA,NA
91901,San Diego County,CA,NA,82.39999999999999,NA
91910,San Diego County,CA,NA,NA,11.879049676025918
92009,San Diego County,CA,74.32950191570882,NA,NA
92027,San Diego County,CA,54.78927203065134,49.6,NA
92058,San Diego County,CA,NA,91.73333333333333,NA
92107,San Diego County,CA,NA,NA,91.36069114470843
92119,San Diego County,CA,NA,79.73333333333333,NA
92123,San Diego County,CA,NA,44.53333333333334,NA
92130,San Diego County,CA,NA,65.33333333333333,NA
92154,San Diego County,CA,NA,NA,14.254859611231103
92203,Riverside County,CA,NA,NA,30.669546436285096
92335,San Bernardino County,CA,NA,15.733333333333333,NA
92395,San Bernardino County,CA,31.800766283524908,NA,NA
92503,Riverside County,CA,NA,22.400000000000002,NA
92508,Riverside County,CA,NA,79.46666666666667,NA
92545,Riverside County,CA,NA,NA,16.846652267818573
92562,Riverside County,CA,68.19923371647509,NA,42.11663066954643
92563,Riverside County,CA,NA,41.86666666666667,NA
92587,Riverside County,CA,NA,NA,80.12958963282938
92620,Orange County,CA,NA,NA,48.38012958963283
92626,Orange County,CA,NA,45.86666666666667,NA
92630,Orange County,CA,NA,NA,29.805615550755938
92646,Orange County,CA,NA,NA,8.423326133909287
92821,Orange County,CA,NA,NA,31.533477321814257
92865,Orange County,CA,90.03831417624522,NA,NA
92879,Riverside County,CA,NA,59.73333333333334,NA
92886,Orange County,CA,NA,NA,79.26565874730022
93022,Ventura County,CA,NA,NA,98.0561555075594
93103,Santa Barbara County,CA,NA,NA,96.32829373650108
93420,San Luis Obispo County,CA,76.62835249042146,NA,NA
93534,Los Angeles County,CA,NA,38.93333333333333,NA
93701,Fresno County,CA,83.14176245210729,NA,NA
93703,Fresno County,CA,NA,63.733333333333334,NA
93726,Fresno County,CA,NA,NA,56.371490280777536
94010,San Mateo County,CA,NA,NA,11.23110151187905
94040,Santa Clara County,CA,NA,NA,70.41036717062636
94044,San Mateo County,CA,NA,28.26666666666667,NA
94118,San Francisco County,CA,NA,34.93333333333333,NA
94306,Santa Clara County,CA,NA,72.26666666666667,NA
94502,Alameda County,CA,NA,NA,76.88984881209502
94526,Contra Costa County,CA,NA,86.4,NA
94534,Solano County,CA,NA,44.800000000000004,NA
94558,Napa County,CA,36.015325670498086,NA,NA
94577,Alameda County,CA,NA,33.6,NA
95020,Santa Clara County,CA,NA,NA,50.9719222462203
95035,Santa Clara County,CA,NA,NA,22.67818574514039
95062,Santa Cruz County,CA,NA,NA,66.09071274298056
95125,Santa Clara County,CA,NA,NA,26.997840172786177
95136,Santa Clara County,CA,NA,68,78.61771058315334
95212,San Joaquin County,CA,NA,90.66666666666666,NA
95341,Merced County,CA,67.04980842911877,NA,NA
95401,Sonoma County,CA,66.66666666666666,NA,NA
95405,Sonoma County,CA,NA,58.13333333333334,73.6501079913607
95476,Sonoma County,CA,NA,35.199999999999996,NA
95610,Sacramento County,CA,NA,44,NA
95621,Sacramento County,CA,NA,36.266666666666666,NA
95816,Sacramento County,CA,NA,NA,79.6976241900648
95825,Sacramento County,CA,NA,NA,41.68466522678186
95993,Sutter County,CA,NA,NA,28.725701943844495
80031,Adams County,CO,NA,61.33333333333333,NA
80127,Jefferson County,CO,55.172413793103445,NA,NA
80128,Jefferson County,CO,NA,NA,74.73002159827213
81007,Pueblo County,CO,NA,41.6,NA
81052,Prowers County,CO,NA,NA,85.52915766738661
81212,Fremont County,CO,NA,NA,39.524838012958966
81501,Mesa County,CO,NA,NA,75.5939524838013
81625,Moffat County,CO,NA,64.8,NA
06082,Hartford County,CT,NA,NA,14.47084233261339
06106,Hartford County,CT,NA,NA,29.373650107991363
06488,New Haven County,CT,NA,38.13333333333333,NA
06608,Fairfield County,CT,NA,96.53333333333333,NA
06705,New Haven County,CT,NA,31.2,NA
06770,New Haven County,CT,29.118773946360154,NA,NA
06825,Fairfield County,CT,NA,NA,64.36285097192224
19703,New Castle County,DE,NA,74.13333333333333,NA
19802,New Castle County,DE,NA,24.8,NA
19963,Sussex County,DE,39.08045977011494,NA,NA
32060,Suwannee County,FL,NA,48.8,NA
32068,Clay County,FL,NA,8.533333333333333,NA
32131,Putnam County,FL,NA,NA,96.97624190064795
32244,Duval County,FL,NA,NA,37.580993520518355
32257,Duval County,FL,NA,24.53333333333333,NA
32303,Leon County,FL,NA,NA,55.507559395248386
32561,Santa Rosa County,FL,NA,85.6,NA
32601,Alachua County,FL,NA,NA,91.5766738660907
32643,Alachua County,FL,62.06896551724138,NA,NA
32703,Orange County,FL,28.35249042145594,NA,NA
32757,Lake County,FL,66.28352490421456,30.133333333333333,NA
32825,Orange County,FL,NA,NA,46.436285097192226
32904,Brevard County,FL,NA,NA,35.42116630669546
32909,Brevard County,FL,NA,32.53333333333333,NA
33016,Miami-Dade County,FL,NA,60,25.26997840172786
33027,Broward County,FL,NA,NA,6.263498920086392
33040,Monroe County,FL,NA,NA,89.6328293736501
33064,Broward County,FL,44.06130268199234,17.866666666666667,NA
33127,Miami-Dade County,FL,65.51724137931035,NA,NA
33139,Miami-Dade County,FL,NA,55.46666666666666,NA
33162,Miami-Dade County,FL,NA,NA,47.94816414686825
33165,Miami-Dade County,FL,NA,NA,3.6717062634989204
33180,Miami-Dade County,FL,NA,45.6,NA
33183,Miami-Dade County,FL,NA,NA,41.46868250539957
33187,Miami-Dade County,FL,NA,89.33333333333333,NA
33196,Miami-Dade County,FL,NA,NA,50.75593952483801
33312,Broward County,FL,NA,77.33333333333333,NA
33319,Broward County,FL,NA,NA,18.3585313174946
33334,Broward County,FL,NA,NA,73.2181425485961
33404,Palm Beach County,FL,NA,NA,77.96976241900649
33441,Broward County,FL,64.75095785440614,NA,NA
33442,Broward County,FL,88.12260536398468,NA,NA
33462,Palm Beach County,FL,NA,NA,44.49244060475162
33486,Palm Beach County,FL,NA,52.53333333333333,NA
33525,Pasco County,FL,NA,42.93333333333334,NA
33569,Hillsborough County,FL,NA,NA,87.25701943844493
33573,Hillsborough County,FL,NA,NA,2.8077753779697625
33578,Hillsborough County,FL,39.84674329501915,NA,NA
33605,Hillsborough County,FL,NA,85.6,NA
33609,Hillsborough County,FL,NA,NA,90.92872570194385
33610,Hillsborough County,FL,16.47509578544061,38.666666666666664,NA
33613,Hillsborough County,FL,NA,53.86666666666666,NA
33617,Hillsborough County,FL,NA,34.13333333333333,NA
33634,Hillsborough County,FL,NA,93.06666666666666,80.34557235421165
33755,Pinellas County,FL,51.724137931034484,NA,NA
33756,Pinellas County,FL,NA,NA,38.01295896328294
33765,Pinellas County,FL,81.99233716475096,NA,NA
33782,Pinellas County,FL,NA,NA,81.8574514038877
33809,Polk County,FL,NA,56.00000000000001,NA
33823,Polk County,FL,40.99616858237548,46.666666666666664,NA
33837,Polk County,FL,NA,50.93333333333333,NA
33844,Polk County,FL,NA,NA,39.09287257019439
33852,Highlands County,FL,NA,19.466666666666665,7.991360691144708
33872,Highlands County,FL,NA,NA,23.110151187904968
33901,Lee County,FL,NA,NA,63.93088552915766
33908,Lee County,FL,NA,4.533333333333333,NA
33912,Lee County,FL,NA,NA,21.598272138228943
33914,Lee County,FL,NA,50.66666666666667,NA
33916,Lee County,FL,45.21072796934866,73.86666666666667,NA
33919,Lee County,FL,NA,NA,4.103671706263499
33955,Charlotte County,FL,NA,NA,81.42548596112312
33967,Lee County,FL,NA,65.86666666666666,NA
33982,Charlotte County,FL,82.37547892720306,NA,NA
34202,Manatee County,FL,NA,39.733333333333334,NA
34209,Manatee County,FL,NA,61.86666666666667,NA
34231,Sarasota County,FL,63.2183908045977,NA,28.293736501079913
34234,Sarasota County,FL,NA,42.66666666666667,NA
34293,Sarasota County,FL,NA,NA,3.2397408207343417
34667,Pasco County,FL,NA,NA,22.24622030237581
34668,Pasco County,FL,NA,NA,30.45356371490281
34695,Pinellas County,FL,79.6934865900383,NA,NA
34748,Lake County,FL,NA,8.799999999999999,2.375809935205184
34785,Sumter County,FL,77.77777777777779,NA,NA
34956,Martin County,FL,NA,91.2,NA
34986,St. Lucie County,FL,NA,NA,9.503239740820735
30012,Rockdale County,GA,NA,54.93333333333334,NA
30016,Newton County,GA,NA,NA,50.323974082073434
30028,Forsyth County,GA,67.43295019157088,NA,NA
30043,Gwinnett County,GA,NA,13.333333333333334,NA
30052,Walton County,GA,NA,NA,26.34989200863931
30078,Gwinnett County,GA,NA,NA,62.634989200863934
30161,Floyd County,GA,21.455938697318008,NA,NA
30240,Troup County,GA,NA,NA,37.580993520518355
30274,Clayton County,GA,NA,77.86666666666666,NA
30276,Coweta County,GA,NA,80.26666666666667,NA
30309,Fulton County,GA,NA,60.8,NA
30315,Fulton County,GA,NA,NA,40.60475161987041
30338,DeKalb County,GA,NA,NA,71.2742980561555
30339,Cobb County,GA,83.9080459770115,NA,NA
30350,Fulton County,GA,NA,NA,64.57883369330453
30504,Hall County,GA,NA,79.73333333333333,NA
30530,Banks County,GA,NA,97.06666666666666,NA
30605,Clarke County,GA,NA,NA,65.2267818574514
30633,Madison County,GA,NA,NA,84.01727861771057
30739,Walker County,GA,96.93486590038314,NA,NA
30741,Walker County,GA,22.22222222222222,NA,NA
30755,Whitfield County,GA,72.41379310344827,NA,NA
31055,Telfair County,GA,NA,94.93333333333334,NA
31079,Wilcox County,GA,NA,NA,100
31419,Chatham County,GA,38.69731800766284,NA,NA
31601,Lowndes County,GA,30.65134099616858,NA,NA
31620,Cook County,GA,85.0574712643678,NA,NA
96734,Honolulu County,HI,NA,NA,10.367170626349893
96744,Honolulu County,HI,NA,NA,3.8876889848812093
83605,Canyon County,ID,NA,24,NA
83709,Ada County,ID,NA,3.4666666666666663,NA
83858,Kootenai County,ID,NA,71.2,NA
60002,Lake County,IL,69.73180076628353,NA,NA
60018,Cook County,IL,NA,NA,44.70842332613391
60021,McHenry County,IL,98.46743295019157,NA,NA
60035,Lake County,IL,NA,NA,20.302375809935207
60050,McHenry County,IL,NA,33.06666666666666,16.414686825053995
60060,Lake County,IL,85.82375478927203,NA,NA
60062,Cook County,IL,NA,4,NA
60073,Lake County,IL,NA,NA,49.24406047516199
60087,Lake County,IL,NA,NA,59.179265658747305
60097,McHenry County,IL,NA,98.13333333333333,NA
60104,Cook County,IL,48.65900383141762,NA,NA
60107,Cook County,IL,NA,76.8,NA
60110,Kane County,IL,58.620689655172406,NA,NA
60115,DeKalb County,IL,NA,NA,29.15766738660907
60120,Kane County,IL,NA,28.799999999999997,NA
60139,DuPage County,IL,NA,NA,69.3304535637149
60153,Cook County,IL,46.36015325670498,NA,NA
60409,Cook County,IL,NA,32.800000000000004,NA
60419,Cook County,IL,NA,NA,55.0755939524838
60426,Cook County,IL,NA,NA,53.131749460043196
60465,Cook County,IL,NA,NA,83.8012958963283
60523,DuPage County,IL,NA,NA,42.76457883369331
60532,DuPage County,IL,NA,NA,45.35637149028078
60605,Cook County,IL,NA,NA,59.611231101511876
60619,Cook County,IL,NA,3.2,NA
60621,Cook County,IL,41.37931034482759,NA,42.11663066954643
60628,Cook County,IL,8.045977011494253,NA,3.023758099352052
60639,Cook County,IL,10.344827586206897,NA,NA
60649,Cook County,IL,NA,NA,19.00647948164147
60942,Vermilion County,IL,NA,66.93333333333334,NA
61073,Winnebago County,IL,NA,40.53333333333333,NA
61264,Rock Island County,IL,NA,90.13333333333333,NA
61310,Lee County,IL,NA,97.86666666666667,NA
61356,Bureau County,IL,82.75862068965517,NA,NA
61362,Bureau County,IL,NA,NA,45.57235421166307
61727,De Witt County,IL,94.25287356321839,NA,NA
61832,Vermilion County,IL,12.260536398467432,NA,NA
62062,Madison County,IL,NA,NA,98.92008639308855
62249,Madison County,IL,NA,NA,34.98920086393088
62401,Effingham County,IL,NA,NA,33.909287257019436
62526,Macon County,IL,14.17624521072797,NA,NA
62550,Shelby County,IL,99.23371647509579,NA,NA
62702,Sangamon County,IL,NA,NA,38.66090712742981
62864,Jefferson County,IL,NA,40,NA
46013,Madison County,IN,NA,19.2,NA
46017,Madison County,IN,NA,84.26666666666667,NA
46107,Marion County,IN,69.34865900383141,NA,NA
46123,Hendricks County,IN,NA,NA,32.82937365010799
46163,Hancock County,IN,NA,72,NA
46201,Marion County,IN,20.689655172413794,NA,NA
46227,Marion County,IN,NA,NA,4.967602591792657
46312,Lake County,IN,NA,NA,26.13390928725702
46324,Lake County,IN,NA,NA,48.16414686825054
46327,Lake County,IN,NA,61.6,NA
46373,Lake County,IN,NA,NA,78.40172786177105
46383,Porter County,IN,9.578544061302683,NA,NA
46408,Lake County,IN,54.406130268199234,NA,NA
46517,Elkhart County,IN,58.23754789272031,NA,NA
46545,St. Joseph County,IN,NA,72.53333333333333,NA
46550,Elkhart County,IN,NA,97.33333333333334,NA
46561,St. Joseph County,IN,NA,NA,86.17710583153347
46563,Marshall County,IN,NA,NA,20.950323974082075
46706,DeKalb County,IN,53.25670498084292,NA,NA
46733,Adams County,IN,49.808429118773944,NA,NA
46802,Allen County,IN,87.73946360153256,NA,NA
46805,Allen County,IN,NA,53.6,NA
46806,Allen County,IN,NA,39.46666666666667,NA
46816,Allen County,IN,NA,51.46666666666667,NA
46923,Carroll County,IN,NA,NA,85.52915766738661
46936,Howard County,IN,NA,89.60000000000001,NA
46953,Grant County,IN,14.559386973180077,NA,NA
47203,Bartholomew County,IN,NA,21.6,NA
47250,Jefferson County,IN,NA,95.73333333333333,NA
47601,Warrick County,IN,NA,NA,44.9244060475162
47670,Gibson County,IN,NA,NA,68.89848812095032
47712,Vanderburgh County,IN,NA,42.4,NA
47715,Vanderburgh County,IN,NA,NA,14.038876889848812
50613,Black Hawk County,IA,NA,11.466666666666667,NA
51103,Woodbury County,IA,57.8544061302682,NA,NA
51104,Woodbury County,IA,52.87356321839081,NA,NA
51503,Pottawattamie County,IA,NA,2.933333333333333,NA
52353,Washington County,IA,NA,80.53333333333333,NA
52402,Linn County,IA,21.839080459770116,NA,NA
52632,Lee County,IA,47.89272030651341,NA,NA
52806,Scott County,IA,NA,36.53333333333333,NA
52807,Scott County,IA,NA,88.8,NA
66434,Brown County,KS,95.01915708812261,NA,NA
66441,Geary County,KS,NA,NA,82.72138228941685
66547,Pottawatomie County,KS,93.48659003831418,NA,NA
40210,Jefferson County,KY,NA,89.86666666666666,NA
40214,Jefferson County,KY,NA,NA,45.78833693304535
40228,Jefferson County,KY,74.71264367816092,NA,NA
40242,Jefferson County,KY,NA,76,NA
40243,Jefferson County,KY,NA,NA,55.291576673866096
40291,Jefferson County,KY,19.923371647509576,NA,NA
40475,Madison County,KY,NA,9.6,NA
40701,Whitley County,KY,NA,11.733333333333333,NA
40769,Whitley County,KY,NA,NA,70.84233261339092
40831,Harlan County,KY,79.3103448275862,NA,93.9524838012959
41011,Kenton County,KY,NA,26.93333333333333,NA
41042,Boone County,KY,6.130268199233716,NA,NA
41091,Boone County,KY,NA,NA,58.747300215982726
41240,Johnson County,KY,NA,NA,72.78617710583153
41522,Pike County,KY,NA,NA,95.24838012958963
42003,McCracken County,KY,NA,NA,32.18142548596112
42127,Barren County,KY,NA,85.6,NA
42141,Barren County,KY,NA,63.46666666666667,NA
42164,Allen County,KY,45.593869731800766,NA,NA
42320,Ohio County,KY,NA,NA,51.61987041036718
42345,Muhlenberg County,KY,63.601532567049816,NA,NA
42431,Hopkins County,KY,27.586206896551722,NA,NA
42445,Caldwell County,KY,NA,68.53333333333333,NA
42501,Pulaski County,KY,NA,NA,39.30885529157667
42503,Pulaski County,KY,NA,60.266666666666666,68.46652267818575
42701,Hardin County,KY,NA,NA,8.207343412526997
42717,Cumberland County,KY,65.90038314176245,NA,NA
70433,St. Tammany Parish,LA,NA,NA,5.615550755939525
70437,St. Tammany Parish,LA,NA,NA,74.08207343412528
70438,Washington Parish,LA,NA,13.600000000000001,NA
70458,St. Tammany Parish,LA,NA,25.6,NA
70471,St. Tammany Parish,LA,NA,21.066666666666666,NA
70501,Lafayette Parish,LA,NA,NA,35.85313174946004
70503,Lafayette Parish,LA,NA,26.400000000000002,NA
70560,Iberia Parish,LA,NA,NA,31.749460043196542
70764,Iberville Parish,LA,37.93103448275862,NA,NA
70806,East Baton Rouge Parish,LA,NA,NA,41.03671706263499
70818,East Baton Rouge Parish,LA,86.20689655172413,NA,NA
71201,Ouachita Parish,LA,NA,NA,61.12311015118791
71241,Union Parish,LA,NA,NA,57.45140388768899
71322,Avoyelles Parish,LA,92.72030651340997,NA,NA
03904,York County,ME,NA,NA,65.65874730021598
04282,Androscoggin County,ME,NA,NA,93.30453563714903
04426,Piscataquis County,ME,94.6360153256705,NA,NA
04841,Knox County,ME,NA,49.333333333333336,NA
20721,Prince George's County,MD,NA,NA,56.587473002159825
20735,Prince George's County,MD,91.57088122605363,NA,NA
20747,Prince George's County,MD,NA,NA,96.54427645788337
20794,Howard County,MD,NA,NA,99.13606911447084
20886,Montgomery County,MD,NA,NA,97.40820734341253
20901,Montgomery County,MD,NA,NA,54.85961123110151
20904,Montgomery County,MD,NA,52.800000000000004,NA
21030,Baltimore County,MD,NA,NA,72.13822894168467
21037,Anne Arundel County,MD,78.9272030651341,NA,NA
21040,Harford County,MD,NA,NA,92.65658747300216
21216,Baltimore city,MD,NA,23.466666666666665,NA
21220,Baltimore County,MD,NA,NA,32.39740820734342
21224,Baltimore city,MD,18.773946360153257,74.66666666666667,NA
21244,Baltimore County,MD,NA,37.6,NA
21740,Washington County,MD,NA,27.200000000000003,NA
21811,Worcester County,MD,NA,NA,20.518358531317496
21921,Cecil County,MD,52.490421455938694,NA,NA
01007,Hampshire County,MA,59.38697318007663,NA,NA
01030,Hampden County,MA,NA,NA,79.91360691144709
01056,Hampden County,MA,19.54022988505747,NA,99.56803455723542
01085,Hampden County,MA,13.026819923371647,NA,NA
01104,Hampden County,MA,NA,0.26666666666666666,NA
01420,Worcester County,MA,NA,96.26666666666667,30.885529157667385
01450,Middlesex County,MA,NA,78.4,NA
01524,Worcester County,MA,NA,NA,77.5377969762419
01545,Worcester County,MA,NA,NA,49.892008639308855
01568,Worcester County,MA,NA,NA,99.78401727861771
01702,Middlesex County,MA,1.1494252873563218,NA,NA
01721,Middlesex County,MA,NA,NA,63.498920086393085
01730,Middlesex County,MA,NA,NA,17.49460043196544
01742,Middlesex County,MA,NA,NA,30.237580993520517
01801,Middlesex County,MA,NA,NA,1.2958963282937366
01821,Middlesex County,MA,5.363984674329502,NA,NA
01833,Essex County,MA,NA,76.53333333333333,NA
01852,Middlesex County,MA,NA,0.5333333333333333,NA
01854,Middlesex County,MA,NA,NA,6.047516198704104
01887,Middlesex County,MA,NA,NA,59.395248380129594
01906,Essex County,MA,2.2988505747126435,NA,NA
02021,Norfolk County,MA,NA,NA,8.639308855291576
02038,Norfolk County,MA,NA,14.666666666666666,NA
02050,Plymouth County,MA,23.754789272030653,NA,NA
02054,Norfolk County,MA,NA,94.39999999999999,NA
02067,Norfolk County,MA,NA,NA,51.40388768898488
02081,Norfolk County,MA,NA,48,NA
02124,Suffolk County,MA,NA,0,NA
02324,Plymouth County,MA,NA,NA,52.05183585313174
02332,Plymouth County,MA,NA,NA,52.26781857451404
02338,Plymouth County,MA,NA,NA,79.48164146868251
02359,Plymouth County,MA,NA,NA,82.28941684665226
02458,Middlesex County,MA,NA,NA,46.220302375809936
02459,Middlesex County,MA,NA,NA,12.095032397408207
02466,Middlesex County,MA,NA,NA,60.69114470842333
02493,Middlesex County,MA,NA,73.6,NA
02571,Plymouth County,MA,NA,NA,70.41036717062636
02724,Bristol County,MA,NA,4.266666666666667,98.70410367170626
02745,Bristol County,MA,NA,NA,7.775377969762419
02777,Bristol County,MA,NA,12.8,NA
02780,Bristol County,MA,NA,14.133333333333335,11.447084233261338
48005,Macomb County,MI,95.78544061302682,NA,NA
48025,Oakland County,MI,NA,NA,63.06695464362851
48026,Macomb County,MI,41.7624521072797,NA,NA
48030,Oakland County,MI,NA,NA,88.76889848812095
48042,Macomb County,MI,NA,28.000000000000004,NA
48043,Macomb County,MI,NA,NA,63.06695464362851
48047,Macomb County,MI,NA,13.866666666666665,NA
48059,St. Clair County,MI,NA,43.2,NA
48075,Oakland County,MI,NA,NA,25.917926565874733
48092,Macomb County,MI,NA,21.866666666666667,NA
48127,Wayne County,MI,NA,NA,36.285097192224626
48146,Wayne County,MI,37.16475095785441,NA,NA
48154,Wayne County,MI,NA,NA,6.479481641468683
48158,Washtenaw County,MI,NA,NA,82.93736501079914
48174,Wayne County,MI,NA,NA,41.252699784017274
48187,Wayne County,MI,11.494252873563218,1.6,NA
48204,Wayne County,MI,NA,NA,67.170626349892
48215,Wayne County,MI,NA,54.666666666666664,NA
48220,Oakland County,MI,53.63984674329502,NA,NA
48228,Wayne County,MI,1.532567049808429,NA,NA
48234,Wayne County,MI,NA,NA,25.05399568034557
48237,Oakland County,MI,NA,18.666666666666668,NA
48238,Wayne County,MI,4.597701149425287,NA,NA
48314,Macomb County,MI,NA,NA,25.48596112311015
48315,Macomb County,MI,NA,NA,28.509719222462206
48317,Macomb County,MI,NA,NA,60.90712742980562
48322,Oakland County,MI,NA,NA,4.751619870410368
48328,Oakland County,MI,44.827586206896555,NA,NA
48334,Oakland County,MI,NA,NA,42.11663066954643
48340,Oakland County,MI,NA,NA,37.14902807775378
48371,Oakland County,MI,NA,NA,62.634989200863934
48446,Lapeer County,MI,NA,NA,21.166306695464364
48461,Lapeer County,MI,NA,92.26666666666667,NA
48507,Genesee County,MI,11.11111111111111,NA,NA
48603,Saginaw County,MI,NA,8.266666666666666,NA
48756,Ogemaw County,MI,NA,NA,98.27213822894169
48813,Eaton County,MI,NA,NA,36.06911447084234
48840,Ingham County,MI,NA,68.26666666666667,NA
48858,Isabella County,MI,NA,5.333333333333334,NA
49001,Kalamazoo County,MI,26.053639846743295,NA,NA
49009,Kalamazoo County,MI,15.708812260536398,NA,NA
49036,Branch County,MI,34.099616858237546,NA,NA
49079,Van Buren County,MI,NA,47.199999999999996,NA
49269,Jackson County,MI,NA,87.2,NA
49286,Lenawee County,MI,65.13409961685824,NA,NA
49431,Mason County,MI,NA,NA,24.622030237580994
49519,Kent County,MI,NA,86.66666666666667,NA
49601,Wexford County,MI,NA,54.400000000000006,NA
49783,Chippewa County,MI,24.521072796934863,NA,NA
49801,Dickinson County,MI,NA,NA,49.0280777537797
49945,Houghton County,MI,NA,99.73333333333333,NA
55014,Anoka County,MN,NA,73.06666666666666,NA
55021,Rice County,MN,43.67816091954023,NA,NA
55033,Dakota County,MN,35.24904214559387,NA,NA
55102,Ramsey County,MN,NA,77.60000000000001,NA
55119,Ramsey County,MN,NA,NA,43.196544276457885
55304,Anoka County,MN,48.275862068965516,NA,NA
55331,Hennepin County,MN,NA,NA,80.77753779697623
55343,Hennepin County,MN,NA,78.93333333333334,NA
55369,Hennepin County,MN,NA,45.06666666666666,NA
55407,Hennepin County,MN,NA,NA,55.507559395248386
55412,Hennepin County,MN,NA,NA,99.35205183585313
55421,Anoka County,MN,NA,NA,43.628509719222464
55422,Hennepin County,MN,NA,NA,48.38012958963283
55429,Hennepin County,MN,NA,NA,57.88336933045356
55432,Anoka County,MN,NA,44.266666666666666,NA
55448,Anoka County,MN,NA,NA,57.2354211663067
55720,Carlton County,MN,NA,NA,41.90064794816415
55902,Olmsted County,MN,NA,67.2,NA
56007,Freeborn County,MN,NA,NA,1.7278617710583155
56301,Stearns County,MN,NA,73.06666666666666,NA
56303,Stearns County,MN,NA,48.266666666666666,NA
56544,Becker County,MN,NA,96.8,NA
38826,Lee County,MS,NA,NA,82.07343412526998
38834,Alcorn County,MS,NA,NA,36.7170626349892
38863,Pontotoc County,MS,NA,64,NA
39056,Hinds County,MS,NA,NA,86.39308855291577
39059,Copiah County,MS,87.356321839080465,NA,NA
39073,Rankin County,MS,NA,64.53333333333333,NA
39095,Holmes County,MS,NA,NA,98.48812095032397
39180,Warren County,MS,NA,NA,38.44492440604751
39204,Hinds County,MS,NA,90.93333333333334,NA
39339,Winston County,MS,NA,NA,65.87473002159827
39455,Lamar County,MS,NA,NA,96.76025917926566
39531,Harrison County,MS,78.16091954022988,NA,NA
39562,Jackson County,MS,NA,NA,76.45788336933045
39567,Jackson County,MS,92.33716475095785,NA,NA
39648,Pike County,MS,NA,NA,71.05831533477321
63017,St. Louis County,MO,NA,10.933333333333334,2.591792656587473
63038,St. Louis County,MO,NA,NA,92.87257019438445
63080,Franklin County,MO,NA,56.266666666666666,NA
63088,St. Louis County,MO,NA,NA,94.60043196544277
63110,St. Louis city,MO,NA,NA,74.08207343412528
63133,St. Louis County,MO,NA,87.73333333333333,NA
63134,St. Louis County,MO,NA,NA,65.44276457883369
63136,St. Louis County,MO,NA,9.333333333333334,NA
63138,St. Louis County,MO,NA,50.13333333333333,NA
63304,St. Charles County,MO,34.865900383141764,NA,NA
63376,St. Charles County,MO,NA,NA,5.399568034557236
63601,St. Francois County,MO,NA,57.599999999999994,NA
64127,Jackson County,MO,NA,35.733333333333334,NA
64154,Platte County,MO,80.84291187739464,NA,NA
64744,Cedar County,MO,NA,NA,74.51403887688986
65560,Dent County,MO,NA,NA,35.63714902807775
65721,Christian County,MO,63.984674329501914,NA,NA
65803,Greene County,MO,11.877394636015326,NA,NA
59405,Cascade County,MT,NA,16.266666666666666,NA
59701,Silver Bow County,MT,NA,NA,50.10799136069114
59901,Flathead County,MT,NA,2.1333333333333333,NA
68025,Dodge County,NE,NA,25.866666666666667,NA
68107,Douglas County,NE,NA,58.13333333333334,NA
68128,Sarpy County,NE,NA,NA,83.36933045356372
68131,Douglas County,NE,NA,NA,90.49676025917927
68144,Douglas County,NE,NA,NA,43.412526997840175
68505,Lancaster County,NE,89.272030651341,NA,NA
89115,Clark County,NV,NA,74.4,NA
89130,Clark County,NV,NA,NA,46.868250539956804
89434,Washoe County,NV,NA,34.13333333333333,NA
03051,Hillsborough County,NH,27.586206896551722,NA,NA
03077,Rockingham County,NH,NA,72.8,NA
03079,Rockingham County,NH,NA,NA,26.565874730021598
03870,Rockingham County,NH,NA,NA,84.88120950323975
07003,Essex County,NJ,9.961685823754788,NA,NA
07042,Essex County,NJ,NA,59.199999999999996,NA
07070,Bergen County,NJ,77.01149425287356,NA,NA
07430,Bergen County,NJ,NA,NA,47.51619870410367
07463,Bergen County,NJ,NA,98.4,NA
07650,Bergen County,NJ,NA,NA,69.3304535637149
07656,Bergen County,NJ,NA,NA,82.50539956803455
07666,Bergen County,NJ,NA,NA,15.118790496760258
07676,Bergen County,NJ,96.16858237547893,NA,NA
07932,Morris County,NJ,95.40229885057471,NA,NA
07940,Morris County,NJ,NA,75.46666666666667,NA
08021,Camden County,NJ,NA,6.133333333333333,NA
08036,Burlington County,NJ,NA,92.26666666666667,NA
08037,Atlantic County,NJ,NA,20.8,NA
08052,Burlington County,NJ,NA,NA,56.803455723542115
08053,Burlington County,NJ,NA,NA,15.550755939524837
08085,Gloucester County,NJ,NA,NA,92.22462203023758
08090,Gloucester County,NJ,NA,NA,95.8963282937365
08094,Gloucester County,NJ,32.56704980842912,NA,NA
08108,Camden County,NJ,71.26436781609196,NA,NA
08330,Atlantic County,NJ,33.71647509578544,NA,NA
08501,Monmouth County,NJ,99.61685823754789,NA,NA
08520,Mercer County,NJ,NA,NA,58.53131749460043
08536,Middlesex County,NJ,64.36781609195403,NA,NA
08611,Mercer County,NJ,5.747126436781609,NA,NA
08736,Monmouth County,NJ,NA,NA,71.92224622030238
08809,Hunterdon County,NJ,NA,99.46666666666667,NA
08857,Middlesex County,NJ,NA,15.2,NA
08861,Middlesex County,NJ,NA,3.733333333333334,NA
08865,Warren County,NJ,4.21455938697318,NA,NA
08873,Somerset County,NJ,NA,22.666666666666664,NA
87004,Sandoval County,NM,NA,NA,75.16198704103671
87047,Bernalillo County,NM,NA,97.6,NA
87106,Bernalillo County,NM,NA,41.06666666666667,NA
87410,San Juan County,NM,73.18007662835248,NA,NA
88203,Chaves County,NM,NA,18.133333333333333,NA
88210,Eddy County,NM,NA,66.13333333333333,NA
88220,Eddy County,NM,26.436781609195403,NA,NA
10021,New York County,NY,NA,NA,18.142548596112313
10029,New York County,NY,NA,NA,0.21598272138228944
10451,Bronx County,NY,NA,NA,6.911447084233262
10452,Bronx County,NY,0.38314176245210724,NA,NA
10468,Bronx County,NY,NA,1.0666666666666667,NA
10473,Bronx County,NY,NA,NA,9.287257019438446
10549,Westchester County,NY,NA,NA,89.20086393088553
10801,Westchester County,NY,NA,NA,34.557235421166304
10977,Rockland County,NY,NA,NA,51.83585313174947
10992,Orange County,NY,NA,NA,91.14470842332614
11216,Kings County,NY,NA,5.866666666666666,NA
11218,Kings County,NY,NA,NA,7.127429805615551
11220,Kings County,NY,NA,NA,13.822894168466524
11226,Kings County,NY,NA,1.3333333333333335,NA
11234,Kings County,NY,NA,10.4,NA
11236,Kings County,NY,3.4482758620689653,NA,NA
11355,Queens County,NY,NA,17.333333333333336,NA
11379,Queens County,NY,NA,NA,49.46004319654428
11422,Queens County,NY,NA,64.26666666666667,NA
11426,Queens County,NY,NA,83.73333333333333,NA
11432,Queens County,NY,NA,5.6000000000000005,NA
11520,Nassau County,NY,NA,NA,39.740820734341256
11550,Nassau County,NY,13.793103448275861,NA,NA
11561,Nassau County,NY,NA,NA,24.190064794816415
11701,Suffolk County,NY,NA,69.33333333333334,NA
11720,Suffolk County,NY,78.544061302682,78.4,NA
11743,Suffolk County,NY,NA,NA,14.686825053995682
11776,Suffolk County,NY,88.88888888888889,NA,NA
11782,Suffolk County,NY,NA,NA,69.11447084233261
11788,Suffolk County,NY,NA,NA,67.81857451403887
12010,Montgomery County,NY,NA,NA,7.559395248380129
12019,Saratoga County,NY,NA,NA,66.95464362850973
12205,Albany County,NY,NA,NA,43.84449244060475
12401,Ulster County,NY,25.287356321839084,46.13333333333333,NA
12885,Warren County,NY,NA,NA,94.81641468682506
13068,Tompkins County,NY,NA,93.33333333333333,NA
13207,Onondaga County,NY,NA,76.26666666666667,NA
13760,Broome County,NY,0.7662835249042145,NA,NA
13856,Delaware County,NY,59.77011494252874,NA,NA
13901,Broome County,NY,23.371647509578544,NA,NA
14004,Erie County,NY,NA,NA,88.98488120950324
14043,Erie County,NY,NA,NA,53.77969762419006
14048,Chautauqua County,NY,43.29501915708812,NA,NA
14127,Erie County,NY,17.24137931034483,NA,NA
14221,Erie County,NY,NA,1.6,NA
14225,Erie County,NY,NA,NA,44.27645788336933
14526,Monroe County,NY,NA,NA,26.78185745140389
14611,Monroe County,NY,NA,NA,52.69978401727862
14845,Chemung County,NY,18.007662835249043,NA,NA
14850,Tompkins County,NY,4.980842911877394,NA,NA
14892,Tioga County,NY,60.53639846743295,NA,NA
27018,Yadkin County,NC,81.22605363984674,NA,NA
27041,Surry County,NC,NA,74.93333333333332,NA
27045,Forsyth County,NC,NA,NA,58.963282937365015
27278,Orange County,NC,NA,NA,17.92656587473002
27284,Forsyth County,NC,7.2796934865900385,NA,NA
27455,Guilford County,NC,NA,55.2,NA
27511,Wake County,NC,72.79693486590038,NA,NA
27530,Wayne County,NC,NA,20.533333333333335,NA
27536,Vance County,NC,NA,32,NA
27549,Franklin County,NC,NA,NA,72.35421166306696
27587,Wake County,NC,NA,7.733333333333333,NA
27871,Martin County,NC,NA,NA,97.62419006479482
28081,Cabarrus County,NC,26.81992337164751,NA,NA
28112,Union County,NC,NA,NA,36.933045356371494
28311,Cumberland County,NC,29.88505747126437,NA,NA
28358,Robeson County,NC,NA,30.4,NA
28570,Carteret County,NC,NA,47.46666666666667,NA
28580,Greene County,NC,NA,86.93333333333332,NA
28612,Burke County,NC,NA,NA,91.5766738660907
28638,Caldwell County,NC,NA,69.6,NA
28659,Wilkes County,NC,NA,27.46666666666667,NA
28715,Buncombe County,NC,NA,NA,50.53995680345572
28739,Henderson County,NC,NA,NA,10.583153347732182
43021,Delaware County,OH,NA,NA,78.83369330453563
43026,Franklin County,OH,22.988505747126435,NA,NA
43040,Union County,OH,NA,NA,24.406047516198704
43050,Knox County,OH,8.42911877394636,NA,NA
43140,Madison County,OH,42.911877394636015,NA,57.66738660907127
43146,Pickaway County,OH,NA,NA,88.33693304535637
43162,Madison County,OH,NA,NA,95.03239740820734
43204,Franklin County,OH,NA,12,NA
43223,Franklin County,OH,6.513409961685824,NA,NA
43228,Franklin County,OH,NA,11.200000000000001,NA
43230,Franklin County,OH,NA,NA,23.974082073434126
43506,Williams County,OH,NA,26.13333333333333,33.261339092872575
43515,Fulton County,OH,NA,NA,86.60907127429806
43528,Lucas County,OH,47.509578544061306,NA,NA
43560,Lucas County,OH,NA,50.4,NA
43607,Lucas County,OH,6.896551724137931,NA,NA
43623,Lucas County,OH,31.03448275862069,NA,NA
43845,Coshocton County,OH,NA,81.33333333333333,NA
43952,Jefferson County,OH,8.812260536398467,9.866666666666667,NA
44017,Cuyahoga County,OH,NA,36.8,NA
44023,Geauga County,OH,NA,NA,13.174946004319654
44041,Ashtabula County,OH,NA,33.33333333333333,NA
44052,Lorain County,OH,NA,0.8,NA
44054,Lorain County,OH,NA,38.4,NA
44077,Lake County,OH,NA,NA,0.4319654427645789
44094,Lake County,OH,21.0727969348659,NA,1.511879049676026
44105,Cuyahoga County,OH,0,NA,NA
44108,Cuyahoga County,OH,2.681992337164751,NA,NA
44116,Cuyahoga County,OH,NA,NA,5.831533477321814
44128,Cuyahoga County,OH,NA,NA,15.982721382289416
44138,Cuyahoga County,OH,NA,25.333333333333336,NA
44143,Cuyahoga County,OH,NA,NA,2.159827213822894
44149,Cuyahoga County,OH,NA,NA,13.174946004319654
44203,Summit County,OH,NA,7.199999999999999,NA
44256,Medina County,OH,3.065134099616858,NA,NA
44278,Summit County,OH,NA,43.2,NA
44314,Summit County,OH,NA,NA,70.19438444924407
44319,Summit County,OH,NA,23.200000000000003,NA
44320,Summit County,OH,NA,17.599999999999998,NA
44405,Mahoning County,OH,NA,70.13333333333334,NA
44446,Trumbull County,OH,NA,55.733333333333334,15.766738660907128
44460,Columbiana County,OH,NA,6.933333333333333,23.326133909287257
44471,Mahoning County,OH,NA,NA,87.90496760259178
44484,Trumbull County,OH,NA,NA,53.77969762419006
44507,Mahoning County,OH,NA,NA,90.71274298056156
44511,Mahoning County,OH,28.735632183908045,NA,NA
44512,Mahoning County,OH,NA,NA,16.414686825053995
44514,Mahoning County,OH,NA,NA,21.382289416846653
44515,Mahoning County,OH,42.5287356321839,NA,18.57451403887689
44615,Carroll County,OH,83.5249042145594,NA,NA
44905,Richland County,OH,NA,NA,62.20302375809935
45005,Warren County,OH,NA,16.53333333333333,66.30669546436285
45011,Butler County,OH,NA,NA,12.311015118790497
45013,Butler County,OH,NA,2.4,5.183585313174946
45015,Butler County,OH,NA,70.93333333333334,NA
45042,Butler County,OH,NA,36,NA
45103,Clermont County,OH,NA,NA,54.42764578833693
45140,Clermont County,OH,NA,NA,22.894168466522675
45150,Clermont County,OH,NA,69.86666666666666,NA
45202,Hamilton County,OH,22.60536398467433,NA,NA
45208,Hamilton County,OH,90.80459770114942,NA,71.49028077753779
45212,Hamilton County,OH,NA,NA,72.78617710583153
45241,Hamilton County,OH,NA,37.86666666666667,NA
45245,Clermont County,OH,NA,NA,71.70626349892008
45255,Hamilton County,OH,NA,46.400000000000006,NA
45324,Greene County,OH,NA,NA,22.03023758099352
45365,Shelby County,OH,14.942528735632186,NA,NA
45371,Miami County,OH,NA,20,35.20518358531318
45424,Montgomery County,OH,NA,9.066666666666666,NA
45429,Montgomery County,OH,NA,NA,19.870410367170628
45434,Greene County,OH,NA,93.60000000000001,NA
45601,Ross County,OH,NA,NA,1.9438444924406046
45612,Ross County,OH,NA,NA,80.99352051835854
45680,Lawrence County,OH,NA,NA,38.66090712742981
73008,Oklahoma County,OK,NA,60.53333333333333,NA
73026,Cleveland County,OK,NA,NA,81.6414686825054
73036,Canadian County,OK,NA,NA,60.043196544276455
73108,Oklahoma County,OK,73.5632183908046,NA,NA
73170,Cleveland County,OK,NA,51.733333333333334,9.071274298056156
73505,Comanche County,OK,NA,16,NA
73521,Jackson County,OK,NA,NA,48.81209503239741
73717,Woods County,OK,NA,88,NA
74048,Nowata County,OK,NA,93.60000000000001,94.16846652267819
74132,Tulsa County,OK,NA,92.80000000000001,NA
74401,Muskogee County,OK,80.45977011494253,NA,NA
74601,Kay County,OK,50.95785440613027,58.93333333333334,NA
74701,Bryan County,OK,NA,57.333333333333336,NA
97006,Washington County,OR,NA,NA,40.8207343412527
97027,Clackamas County,OR,NA,85.06666666666666,NA
97080,Multnomah County,OR,NA,NA,38.22894168466522
97123,Washington County,OR,23.754789272030653,NA,23.758099352051836
97124,Washington County,OR,31.417624521072796,NA,28.077753779697623
97146,Clatsop County,OR,NA,NA,88.12095032397409
97206,Multnomah County,OR,16.091954022988507,24.266666666666666,NA
97230,Multnomah County,OR,NA,12.533333333333333,NA
97266,Multnomah County,OR,NA,NA,64.14686825053995
97303,Marion County,OR,NA,83.2,NA
97439,Lane County,OR,NA,23.733333333333334,NA
97471,Douglas County,OR,NA,5.066666666666666,NA
97502,Jackson County,OR,NA,21.333333333333336,NA
97504,Jackson County,OR,24.904214559386972,NA,NA
97702,Deschutes County,OR,NA,NA,31.101511879049674
97801,Umatilla County,OR,39.46360153256705,NA,NA
97850,Union County,OR,47.12643678160919,NA,NA
15001,Beaver County,PA,62.83524904214559,NA,NA
15010,Beaver County,PA,NA,NA,14.902807775377969
15224,Allegheny County,PA,NA,82.13333333333334,NA
15235,Allegheny County,PA,NA,NA,8.855291576673865
15601,Westmoreland County,PA,NA,NA,10.799136069114471
15656,Westmoreland County,PA,79.6934865900383,NA,NA
15825,Jefferson County,PA,NA,81.6,NA
16150,Mercer County,PA,NA,NA,96.11231101511879
16201,Armstrong County,PA,NA,NA,15.334773218142548
16507,Erie County,PA,NA,100,NA
16652,Huntingdon County,PA,45.97701149425287,NA,NA
16823,Centre County,PA,NA,NA,19.222462203023756
17015,Cumberland County,PA,NA,31.466666666666665,NA
17073,Lebanon County,PA,NA,98.93333333333332,NA
17201,Franklin County,PA,12.643678160919542,NA,NA
17331,York County,PA,7.662835249042145,NA,NA
17545,Lancaster County,PA,NA,NA,17.71058315334773
17752,Lycoming County,PA,NA,99.2,NA
18020,Northampton County,PA,NA,NA,25.70194384449244
18064,Northampton County,PA,NA,NA,18.790496760259177
18072,Northampton County,PA,NA,98.66666666666667,NA
18104,Lehigh County,PA,NA,NA,3.455723542116631
18109,Lehigh County,PA,NA,NA,60.475161987041034
18657,Wyoming County,PA,NA,NA,61.98704103671706
18954,Bucks County,PA,NA,NA,89.20086393088553
19012,Montgomery County,PA,NA,NA,97.8401727861771
19047,Bucks County,PA,NA,NA,27.861771058315334
19070,Delaware County,PA,NA,NA,84.44924406047517
19073,Delaware County,PA,NA,NA,17.278617710583152
19121,Philadelphia County,PA,NA,22.666666666666664,NA
19130,Philadelphia County,PA,NA,33.86666666666667,NA
19136,Philadelphia County,PA,13.409961685823754,NA,NA
19142,Philadelphia County,PA,NA,42.13333333333333,NA
19143,Philadelphia County,PA,NA,NA,9.935205183585314
19144,Philadelphia County,PA,NA,NA,57.01943844492441
19149,Philadelphia County,PA,34.48275862068966,NA,NA
19317,Delaware County,PA,98.85057471264368,NA,NA
19341,Chester County,PA,NA,NA,52.915766738660906
19380,Chester County,PA,NA,NA,4.535637149028078
19462,Montgomery County,PA,54.02298850574713,NA,54.21166306695464
19520,Chester County,PA,NA,NA,77.10583153347731
19525,Montgomery County,PA,NA,NA,76.45788336933045
02852,Washington County,RI,NA,27.73333333333333,NA
02879,Washington County,RI,NA,NA,34.12526997840173
02889,Kent County,RI,NA,NA,40.17278617710583
02904,Providence County,RI,NA,NA,19.43844492440605
02907,Providence County,RI,NA,NA,47.30021598272138
29073,Lexington County,SC,27.203065134099617,NA,NA
29108,Newberry County,SC,89.65517241379311,52,NA
29150,Sumter County,SC,NA,NA,22.24622030237581
29170,Lexington County,SC,75.86206896551724,NA,NA
29303,Spartanburg County,SC,50.191570881226056,NA,NA
29316,Spartanburg County,SC,NA,32.266666666666666,NA
29323,Spartanburg County,SC,NA,50.93333333333333,NA
29349,Spartanburg County,SC,30.268199233716476,19.733333333333334,NA
29406,Charleston County,SC,NA,NA,92.44060475161987
29414,Charleston County,SC,NA,NA,66.52267818574515
29420,Dorchester County,SC,55.55555555555556,NA,NA
29479,Berkeley County,SC,NA,95.46666666666667,95.68034557235421
29501,Florence County,SC,36.39846743295019,NA,NA
29512,Marlboro County,SC,NA,67.73333333333333,NA
29569,Horry County,SC,NA,NA,73.4341252699784
29601,Greenville County,SC,NA,NA,84.66522678185746
29611,Greenville County,SC,70.88122605363985,NA,NA
29621,Anderson County,SC,NA,NA,13.606911447084233
29646,Greenwood County,SC,NA,NA,27.429805615550755
29651,Greenville County,SC,NA,13.066666666666665,NA
29684,Anderson County,SC,NA,95.19999999999999,NA
29693,Oconee County,SC,73.9463601532567,NA,NA
29702,Cherokee County,SC,NA,84.53333333333333,NA
29745,York County,SC,61.68582375478927,NA,75.5939524838013
29803,Aiken County,SC,NA,NA,19.654427645788335
29936,Jasper County,SC,88.50574712643679,NA,NA
57105,Minnehaha County,SD,NA,NA,7.343412526997841
57701,Pennington County,SD,NA,NA,10.151187904967603
57785,Meade County,SD,NA,NA,80.56155507559394
37066,Sumner County,TN,NA,8,NA
37075,Sumner County,TN,NA,NA,9.719222462203025
37204,Davidson County,TN,NA,91.46666666666667,NA
37379,Hamilton County,TN,NA,30.933333333333334,NA
37404,Hamilton County,TN,NA,81.06666666666666,NA
37601,Washington County,TN,19.157088122605366,NA,NA
37615,Washington County,TN,NA,62.66666666666667,NA
37642,Hawkins County,TN,NA,NA,68.68250539956804
37643,Carter County,TN,NA,6.666666666666667,NA
37660,Sullivan County,TN,NA,7.466666666666668,NA
37664,Sullivan County,TN,25.67049808429119,48.266666666666666,NA
37743,Greene County,TN,15.32567049808429,NA,NA
37766,Campbell County,TN,NA,NA,32.6133909287257
37803,Blount County,TN,NA,NA,17.062634989200866
37821,Cocke County,TN,NA,29.86666666666667,NA
37857,Hawkins County,TN,NA,NA,39.740820734341256
37919,Knox County,TN,NA,37.06666666666666,NA
37931,Knox County,TN,NA,62.66666666666667,NA
38060,Fayette County,TN,NA,NA,88.55291576673866
38106,Shelby County,TN,NA,NA,84.23326133909286
38109,Shelby County,TN,NA,15.2,NA
38115,Shelby County,TN,NA,62.133333333333326,NA
38382,Gibson County,TN,85.44061302681992,NA,NA
38555,Cumberland County,TN,NA,NA,29.589632829373652
75010,Denton County,TX,NA,83.46666666666667,NA
75019,Dallas County,TX,NA,NA,78.18574514038878
75020,Grayson County,TX,55.938697318007655,NA,NA
75025,Collin County,TX,NA,57.06666666666666,NA
75028,Denton County,TX,NA,NA,93.52051835853132
75043,Dallas County,TX,NA,NA,28.725701943844495
75076,Grayson County,TX,NA,NA,90.28077753779698
75119,Ellis County,TX,NA,NA,64.79481641468684
75142,Kaufman County,TX,NA,66.4,NA
75143,Henderson County,TX,NA,90.4,NA
75154,Ellis County,TX,NA,41.333333333333336,NA
75156,Henderson County,TX,57.47126436781609,NA,NA
75165,Ellis County,TX,70.11494252873564,NA,NA
75209,Dallas County,TX,NA,NA,47.73218142548596
75215,Dallas County,TX,33.33333333333333,NA,NA
75244,Dallas County,TX,NA,NA,86.82505399568035
75457,Franklin County,TX,NA,NA,93.73650107991361
75647,Gregg County,TX,NA,77.06666666666668,NA
75751,Henderson County,TX,NA,NA,75.377969762419
75757,Smith County,TX,NA,79.2,NA
75901,Angelina County,TX,42.1455938697318,NA,NA
75951,Jasper County,TX,59.00383141762452,NA,NA
76028,Johnson County,TX,NA,2.666666666666667,NA
76086,Parker County,TX,NA,NA,34.557235421166304
76119,Tarrant County,TX,9.195402298850574,6.4,NA
76137,Tarrant County,TX,NA,20.266666666666666,NA
76182,Tarrant County,TX,NA,89.06666666666668,NA
76201,Denton County,TX,NA,NA,74.94600431965442
76210,Denton County,TX,NA,61.06666666666667,NA
76272,Cooke County,TX,NA,96,NA
76513,Bell County,TX,NA,NA,0.6479481641468683
76667,Limestone County,TX,NA,NA,49.676025917926566
76705,McLennan County,TX,NA,NA,30.021598272138228
76707,McLennan County,TX,NA,NA,87.04103671706264
76712,McLennan County,TX,NA,NA,6.695464362850973
77031,Harris County,TX,84.67432950191571,NA,NA
77043,Harris County,TX,NA,82.93333333333334,NA
77093,Harris County,TX,NA,NA,54.42764578833693
77096,Harris County,TX,NA,NA,51.18790496760259
77357,Montgomery County,TX,71.64750957854406,NA,NA
77379,Harris County,TX,NA,NA,11.663066954643629
77381,Montgomery County,TX,75.47892720306514,NA,NA
77423,Waller County,TX,NA,NA,95.46436285097192
77489,Fort Bend County,TX,NA,NA,77.32181425485962
77535,Liberty County,TX,NA,NA,80.99352051835854
77707,Jefferson County,TX,NA,82.39999999999999,NA
77808,Brazos County,TX,93.10344827586206,NA,NA
77879,Burleson County,TX,NA,NA,85.09719222462203
77901,Victoria County,TX,NA,NA,27.213822894168466
78043,Webb County,TX,NA,NA,31.101511879049674
78102,Bee County,TX,NA,75.73333333333333,NA
78211,Bexar County,TX,NA,62.4,NA
78223,Bexar County,TX,NA,NA,33.04535637149028
78251,Bexar County,TX,NA,NA,61.55507559395248
78410,Nueces County,TX,NA,81.86666666666666,89.8488120950324
78516,Hidalgo County,TX,NA,52.800000000000004,NA
78521,Cameron County,TX,NA,NA,12.958963282937367
78611,Burnet County,TX,NA,NA,16.19870410367171
78666,Hays County,TX,NA,35.46666666666667,NA
79316,Terry County,TX,NA,78.13333333333333,NA
79407,Lubbock County,TX,56.70498084291188,NA,NA
79423,Lubbock County,TX,NA,NA,33.69330453563715
84003,Utah County,UT,50.57471264367817,NA,63.714902807775374
84043,Utah County,UT,52.10727969348659,NA,NA
84057,Utah County,UT,75.09578544061303,NA,NA
84103,Salt Lake County,UT,NA,NA,34.34125269978402
84107,Salt Lake County,UT,NA,43.733333333333334,NA
84111,Salt Lake County,UT,NA,NA,90.06479481641469
84115,Salt Lake County,UT,44.44444444444444,NA,NA
84401,Weber County,UT,NA,53.333333333333336,NA
84403,Weber County,UT,86.97318007662835,NA,58.31533477321814
05250,Bennington County,VT,NA,NA,87.47300215982722
05819,Caledonia County,VT,NA,NA,66.52267818574515
20170,Fairfax County,VA,NA,NA,92.0086393088553
22003,Fairfax County,VA,35.63218390804598,NA,NA
22030,Fairfax County,VA,NA,30.666666666666664,NA
22041,Fairfax County,VA,NA,71.73333333333333,NA
22101,Fairfax County,VA,62.45210727969349,NA,NA
22153,Fairfax County,VA,NA,58.666666666666664,73.86609071274299
22191,Prince William County,VA,NA,NA,55.93952483801296
22204,Arlington County,VA,NA,46.93333333333333,NA
22207,Arlington County,VA,NA,NA,46.00431965442765
22311,Alexandria city,VA,NA,94.13333333333334,NA
22314,Alexandria city,VA,NA,52.26666666666666,NA
22405,Stafford County,VA,NA,NA,56.15550755939525
22407,Spotsylvania County,VA,20.306513409961685,NA,NA
22842,Shenandoah County,VA,97.31800766283524,NA,NA
22849,Page County,VA,NA,NA,85.52915766738661
22851,Page County,VA,NA,NA,87.6889848812095
22903,Charlottesville city,VA,NA,NA,36.50107991360691
22942,Louisa County,VA,NA,74.93333333333332,NA
22968,Greene County,VA,72.03065134099617,NA,NA
23059,Henrico County,VA,NA,NA,59.827213822894166
23150,Henrico County,VA,NA,NA,68.03455723542116
23225,Richmond city,VA,51.34099616858238,NA,NA
23231,Henrico County,VA,NA,17.066666666666666,33.477321814254864
23324,Chesapeake city,VA,NA,56.8,NA
23435,Suffolk city,VA,57.08812260536399,NA,NA
23451,Virginia Beach city,VA,NA,14.399999999999999,NA
23454,Virginia Beach city,VA,NA,10.666666666666668,NA
23462,Virginia Beach city,VA,NA,67.46666666666667,NA
23510,Norfolk city,VA,NA,NA,69.76241900647948
23701,Portsmouth city,VA,NA,24.8,NA
23901,Prince Edward County,VA,68.96551724137932,NA,NA
24153,Salem city,VA,37.547892720306514,NA,NA
24228,Dickenson County,VA,NA,NA,45.14038876889849
24266,Russell County,VA,NA,69.06666666666666,NA
24370,Smyth County,VA,NA,65.06666666666666,NA
24441,Rockingham County,VA,NA,94.66666666666667,NA
24551,Bedford County,VA,NA,NA,53.34773218142549
24572,Amherst County,VA,NA,NA,60.259179265658744
98012,Snohomish County,WA,NA,NA,20.086393088552914
98034,King County,WA,NA,12.266666666666666,NA
98059,King County,WA,NA,29.06666666666667,NA
98070,King County,WA,97.70114942528735,NA,NA
98074,King County,WA,NA,NA,85.31317494600432
98105,King County,WA,NA,NA,53.34773218142549
98126,King County,WA,NA,NA,76.24190064794817
98198,King County,WA,49.042145593869726,28.53333333333333,NA
98223,Snohomish County,WA,29.50191570881226,NA,NA
98248,Whatcom County,WA,NA,92,NA
98335,Pierce County,WA,NA,NA,31.96544276457883
98362,Clallam County,WA,38.31417624521073,NA,NA
98367,Kitsap County,WA,NA,49.06666666666666,NA
98466,Pierce County,WA,NA,34.13333333333333,NA
98499,Pierce County,WA,NA,88.26666666666667,NA
98531,Lewis County,WA,NA,49.6,NA
98664,Clark County,WA,91.18773946360153,NA,NA
98802,Douglas County,WA,NA,29.333333333333332,20.734341252699785
98837,Grant County,WA,NA,NA,21.814254859611232
99202,Spokane County,WA,70.49808429118774,NA,NA
99203,Spokane County,WA,90.42145593869732,NA,NA
99207,Spokane County,WA,NA,63.2,NA
20001,District of Columbia,DC,NA,14.933333333333335,NA
25143,Kanawha County,WV,NA,NA,69.76241900647948
25541,Cabell County,WV,96.55172413793103,NA,NA
26101,Wood County,WV,NA,4.8,NA
26150,Wood County,WV,81.60919540229885,NA,NA
26288,Webster County,WV,NA,NA,79.04967602591793
26301,Harrison County,WV,NA,10.133333333333333,NA
26330,Harrison County,WV,NA,NA,67.60259179265658
26354,Taylor County,WV,NA,45.33333333333333,NA
26505,Monongalia County,WV,10.727969348659004,NA,NA
53066,Waukesha County,WI,46.74329501915709,NA,NA
53105,Racine County,WI,17.624521072796934,NA,NA
53149,Waukesha County,WI,NA,39.2,NA
53202,Milwaukee County,WI,56.32183908045977,NA,NA
53214,Milwaukee County,WI,NA,NA,24.838012958963283
53215,Milwaukee County,WI,3.8314176245210727,NA,NA
53219,Milwaukee County,WI,NA,NA,12.742980561555076
53223,Milwaukee County,WI,18.39080459770115,NA,NA
53534,Rock County,WI,NA,NA,97.19222462203024
53545,Rock County,WI,NA,57.86666666666667,NA
53566,Green County,WI,NA,18.933333333333334,NA
53916,Dodge County,WI,NA,NA,27.645788336933048
54401,Marathon County,WI,NA,31.733333333333334,NA
54409,Langlade County,WI,NA,22.133333333333333,NA
54476,Marathon County,WI,NA,71.46666666666667,NA
54601,La Crosse County,WI,NA,NA,0
54871,Washburn County,WI,100,NA,NA
54880,Douglas County,WI,16.85823754789272,NA,NA
54904,Winnebago County,WI,NA,NA,52.48380129589633
54915,Outagamie County,WI,39.84674329501915,NA,NA
54981,Waupaca County,WI,NA,NA,72.57019438444925
82001,Laramie County,WY,NA,NA,46.652267818574515
