ZipCode,county,state,Adult,Retirement
35064,Jefferson County,AL,57.361376673040155,NA
35205,Jefferson County,AL,62.523900573613766,NA
35404,Tuscaloosa County,AL,17.01720841300191,NA
35805,Madison County,AL,45.31548757170172,NA
36092,Elmore County,AL,46.08030592734226,NA
36109,Montgomery County,AL,48.94837476099426,NA
99801,Juneau City and Borough,AK,72.848948374761,NA
85006,Maricopa County,AZ,42.06500956022944,NA
85019,Maricopa County,AZ,38.623326959847034,NA
85029,Maricopa County,AZ,24.47418738049713,NA
85051,Maricopa County,AZ,60.22944550669216,NA
85209,Maricopa County,AZ,58.89101338432122,NA
85224,Maricopa County,AZ,45.88910133843212,NA
85248,Maricopa County,AZ,NA,31.493506493506494
85255,Maricopa County,AZ,49.7131931166348,NA
85338,Maricopa County,AZ,34.79923518164436,NA
85382,Maricopa County,AZ,47.60994263862332,NA
85541,Gila County,AZ,NA,39.285714285714285
85614,Pima County,AZ,NA,23.051948051948052
85705,Pima County,AZ,3.4416826003824093,NA
85710,Pima County,AZ,9.94263862332696,NA
85743,Pima County,AZ,NA,29.545454545454547
85756,Pima County,AZ,77.24665391969407,NA
85941,Apache County,AZ,14.722753346080305,NA
86033,Navajo County,AZ,59.273422562141484,NA
86053,Coconino County,AZ,86.80688336520076,NA
86305,Yavapai County,AZ,NA,36.36363636363637
86409,Mohave County,AZ,9.177820267686425,NA
71701,Ouachita County,AR,70.17208413001912,NA
71901,Garland County,AR,NA,42.532467532467535
72113,Pulaski County,AR,67.49521988527725,NA
72116,Pulaski County,AR,NA,40.58441558441558
72616,Carroll County,AR,81.64435946462714,NA
72758,Benton County,AR,87.76290630975143,NA
72830,Johnson County,AR,77.05544933078394,NA
72956,Crawford County,AR,49.521988527724666,NA
90024,Los Angeles County,CA,NA,52.922077922077925
90028,Los Angeles County,CA,61.5678776290631,NA
90041,Los Angeles County,CA,69.02485659655831,NA
90062,Los Angeles County,CA,NA,55.519480519480524
90262,Los Angeles County,CA,NA,51.62337662337663
90404,Los Angeles County,CA,NA,78.57142857142857
90650,Los Angeles County,CA,20.26768642447419,NA
90660,Los Angeles County,CA,29.254302103250478,NA
90813,Los Angeles County,CA,33.652007648183556,NA
91604,Los Angeles County,CA,98.47036328871893,NA
91733,Los Angeles County,CA,83.74760994263862,NA
91746,Los Angeles County,CA,NA,91.23376623376623
91767,Los Angeles County,CA,41.10898661567878,NA
92011,San Diego County,CA,78.96749521988528,NA
92037,San Diego County,CA,77.43785850860421,NA
92104,San Diego County,CA,27.915869980879542,NA
92109,San Diego County,CA,NA,77.92207792207793
92110,San Diego County,CA,55.06692160611855,NA
92113,San Diego County,CA,90.43977055449331,NA
92114,San Diego County,CA,NA,59.41558441558441
92117,San Diego County,CA,92.92543021032505,NA
92201,Riverside County,CA,54.875717017208416,NA
92211,Riverside County,CA,NA,37.98701298701299
92236,Riverside County,CA,44.55066921606118,NA
92243,Imperial County,CA,NA,62.66233766233766
92254,Riverside County,CA,NA,97.07792207792207
92260,Riverside County,CA,52.77246653919694,NA
92284,San Bernardino County,CA,26.76864244741874,NA
92404,San Bernardino County,CA,NA,62.33766233766234
92555,Riverside County,CA,56.59655831739961,NA
92570,Riverside County,CA,91.96940726577438,NA
92663,Orange County,CA,74.95219885277247,NA
92675,Orange County,CA,NA,42.2077922077922
92683,Orange County,CA,17.97323135755258,NA
92703,Orange County,CA,39.19694072657744,NA
92835,Orange County,CA,76.09942638623328,NA
92840,Orange County,CA,NA,87.01298701298701
93003,Ventura County,CA,NA,23.7012987012987
93063,Ventura County,CA,NA,27.92207792207792
93242,Fresno County,CA,100,NA
93312,Kern County,CA,39.0057361376673,NA
93444,San Luis Obispo County,CA,56.97896749521989,NA
93446,San Luis Obispo County,CA,27.342256214149142,NA
93454,Santa Barbara County,CA,82.02676864244742,NA
93638,Madera County,CA,20.84130019120459,NA
93728,Fresno County,CA,88.91013384321224,NA
94022,Santa Clara County,CA,89.48374760994264,NA
94102,San Francisco County,CA,8.221797323135755,NA
94108,San Francisco County,CA,83.17399617590823,NA
94110,San Francisco County,CA,14.531548757170173,NA
94132,San Francisco County,CA,NA,61.038961038961034
94401,San Mateo County,CA,NA,63.31168831168831
94507,Contra Costa County,CA,87.95411089866157,NA
94544,Alameda County,CA,20.45889101338432,15.259740259740258
94550,Alameda County,CA,47.41873804971319,NA
94565,Contra Costa County,CA,23.518164435946463,NA
94952,Sonoma County,CA,NA,37.33766233766234
95012,Monterey County,CA,97.89674952198853,NA
95110,Santa Clara County,CA,NA,94.8051948051948
95124,Santa Clara County,CA,NA,67.53246753246754
95125,Santa Clara County,CA,NA,25
95127,Santa Clara County,CA,NA,72.72727272727273
95148,Santa Clara County,CA,NA,82.14285714285714
95205,San Joaquin County,CA,96.94072657743786,NA
95212,San Joaquin County,CA,75.52581261950286,NA
95355,Stanislaus County,CA,9.560229445506693,NA
95367,Stanislaus County,CA,NA,88.63636363636364
95368,Stanislaus County,CA,NA,99.02597402597402
95380,Stanislaus County,CA,57.74378585086042,NA
95501,Humboldt County,CA,51.24282982791587,NA
95648,Placer County,CA,80.30592734225621,NA
95660,Sacramento County,CA,40.91778202676864,NA
95661,Placer County,CA,62.90630975143403,NA
95949,Nevada County,CA,NA,47.07792207792208
95951,Glenn County,CA,95.41108986615679,NA
95966,Butte County,CA,12.045889101338432,NA
96067,Siskiyou County,CA,NA,80.51948051948052
80002,Jefferson County,CO,NA,72.40259740259741
80104,Douglas County,CO,54.302103250478005,NA
80219,Denver County,CO,6.309751434034416,NA
80501,Boulder County,CO,22.562141491395792,NA
80525,Larimer County,CO,16.826003824091778,NA
80537,Larimer County,CO,23.32695984703633,NA
81001,Pueblo County,CO,82.21797323135756,NA
81067,Otero County,CO,95.21988527724665,NA
81082,Las Animas County,CO,62.1414913957935,NA
81147,Archuleta County,CO,84.51242829827916,NA
81435,San Miguel County,CO,99.61759082217974,NA
06010,Hartford County,CT,1.5296367112810707,4.220779220779221
06095,Hartford County,CT,NA,31.16883116883117
06108,Hartford County,CT,59.65583173996176,NA
06239,Windham County,CT,NA,57.467532467532465
06461,New Haven County,CT,93.88145315487571,NA
06489,Hartford County,CT,31.73996175908222,NA
06492,New Haven County,CT,NA,14.61038961038961
06611,Fairfield County,CT,71.1281070745698,NA
06705,New Haven County,CT,67.68642447418738,NA
06830,Fairfield County,CT,NA,79.22077922077922
06840,Fairfield County,CT,73.4225621414914,NA
32055,Columbia County,FL,NA,58.11688311688312
32148,Putnam County,FL,NA,66.55844155844156
32209,Duval County,FL,4.97131931166348,NA
32218,Duval County,FL,3.632887189292543,NA
32250,Duval County,FL,56.97896749521989,NA
32277,Duval County,FL,NA,41.883116883116884
32309,Leon County,FL,70.55449330783938,NA
32409,Bay County,FL,70.36328871892925,NA
32507,Escambia County,FL,NA,15.584415584415584
32570,Santa Rosa County,FL,37.66730401529637,NA
32669,Alachua County,FL,63.67112810707457,NA
32750,Seminole County,FL,64.05353728489483,NA
32920,Brevard County,FL,79.1586998087954,NA
33130,Miami-Dade County,FL,78.20267686424475,NA
33156,Miami-Dade County,FL,NA,53.246753246753244
33175,Miami-Dade County,FL,53.72848948374761,NA
33181,Miami-Dade County,FL,77.82026768642447,NA
33415,Palm Beach County,FL,42.638623326959845,NA
33480,Palm Beach County,FL,NA,79.54545454545455
33618,Hillsborough County,FL,72.46653919694073,NA
33629,Hillsborough County,FL,85.46845124282983,NA
33801,Polk County,FL,24.8565965583174,NA
33897,Polk County,FL,NA,66.23376623376623
34110,Collier County,FL,76.8642447418738,NA
34120,Collier County,FL,NA,70.77922077922078
34222,Manatee County,FL,72.27533460803059,NA
34473,Marion County,FL,48.565965583174,NA
34481,Marion County,FL,68.83365200764818,NA
34691,Pasco County,FL,45.69789674952199,NA
34758,Osceola County,FL,52.96367112810707,NA
34974,Okeechobee County,FL,96.74952198852772,NA
34997,Martin County,FL,NA,10.38961038961039
30087,DeKalb County,GA,57.93499043977055,NA
30110,Haralson County,GA,NA,75.97402597402598
30281,Henry County,GA,26.76864244741874,NA
30442,Jenkins County,GA,73.61376673040154,NA
30673,Wilkes County,GA,89.2925430210325,NA
31015,Crisp County,GA,NA,35.064935064935064
31061,Baldwin County,GA,73.04015296367112,NA
31093,Houston County,GA,NA,35.38961038961039
31206,Bibb County,GA,NA,48.701298701298704
31516,Pierce County,GA,NA,64.6103896103896
31639,Berrien County,GA,74.18738049713193,NA
31792,Thomas County,GA,87.5717017208413,NA
31833,Troup County,GA,NA,74.02597402597402
39837,Miller County,GA,68.64244741873804,NA
96701,Honolulu County,HI,34.608030592734224,NA
96706,Honolulu County,HI,12.237093690248566,NA
96720,Hawaii County,HI,83.36520076481835,NA
96815,Honolulu County,HI,49.1395793499044,NA
96816,Honolulu County,HI,NA,49.67532467532468
83301,Twin Falls County,ID,50.2868068833652,NA
83401,Bonneville County,ID,45.506692160611856,NA
83619,Payette County,ID,NA,84.0909090909091
83702,Ada County,ID,NA,24.350649350649352
83704,Ada County,ID,47.992351816443595,NA
60007,Cook County,IL,98.2791586998088,NA
60016,Cook County,IL,NA,12.662337662337661
60021,McHenry County,IL,NA,96.75324675324676
60035,Lake County,IL,44.74187380497132,NA
60061,Lake County,IL,90.63097514340345,NA
60062,Cook County,IL,NA,8.116883116883116
60077,Cook County,IL,NA,75.64935064935064
60187,DuPage County,IL,38.24091778202677,37.01298701298701
60439,Cook County,IL,NA,50.97402597402597
60490,Will County,IL,NA,85.3896103896104
60513,Cook County,IL,41.68260038240918,NA
60515,DuPage County,IL,41.30019120458891,NA
60540,DuPage County,IL,30.210325047801145,NA
60560,Kendall County,IL,43.59464627151052,NA
60561,DuPage County,IL,55.831739961759084,NA
60564,Will County,IL,NA,27.27272727272727
60613,Cook County,IL,28.680688336520078,NA
60616,Cook County,IL,37.476099426386234,NA
60623,Cook County,IL,NA,71.42857142857143
60640,Cook County,IL,9.751434034416825,NA
60644,Cook County,IL,8.413001912045889,NA
60652,Cook County,IL,29.636711281070742,NA
60660,Cook County,IL,NA,18.83116883116883
60970,Iroquois County,IL,73.9961759082218,NA
61008,Boone County,IL,34.41682600382409,NA
61074,Carroll County,IL,NA,89.6103896103896
61244,Rock Island County,IL,NA,68.18181818181817
61611,Tazewell County,IL,NA,39.61038961038961
61701,McLean County,IL,86.9980879541109,NA
62002,Madison County,IL,31.54875717017208,NA
62226,St. Clair County,IL,43.78585086042065,NA
62450,Richland County,IL,92.92543021032505,NA
46060,Hamilton County,IN,86.4244741873805,NA
46112,Hendricks County,IN,NA,44.8051948051948
46151,Morgan County,IN,26.38623326959847,NA
46176,Shelby County,IN,17.208413001912046,12.987012987012985
46260,Marion County,IN,46.46271510516252,NA
46310,Jasper County,IN,52.00764818355641,NA
46341,Porter County,IN,60.42065009560229,NA
46368,Porter County,IN,17.78202676864245,1.2987012987012987
46373,Lake County,IN,31.166347992351817,NA
46545,St. Joseph County,IN,48.37476099426386,NA
46563,Marshall County,IN,41.491395793499045,NA
46761,LaGrange County,IN,64.81835564053537,NA
46902,Howard County,IN,4.015296367112811,NA
46970,Miami County,IN,10.707456978967496,25.324675324675322
47112,Harrison County,IN,NA,54.22077922077923
47362,Henry County,IN,52.58126195028681,NA
47446,Lawrence County,IN,84.89483747609943,NA
47567,Pike County,IN,98.8527724665392,NA
47591,Knox County,IN,NA,28.246753246753247
47978,Jasper County,IN,64.62715105162525,NA
50511,Kossuth County,IA,NA,88.31168831168831
50616,Floyd County,IA,NA,85.71428571428571
50801,Union County,IA,40.53537284894838,NA
51031,Plymouth County,IA,77.82026768642447,NA
51555,Harrison County,IA,74.95219885277247,NA
51632,Page County,IA,71.70172084130019,NA
52246,Johnson County,IA,NA,60.71428571428571
52317,Johnson County,IA,50.47801147227533,NA
52601,Des Moines County,IA,13.957934990439771,NA
66062,Johnson County,KS,NA,18.506493506493506
67207,Sedgwick County,KS,NA,90.25974025974025
67210,Sedgwick County,KS,NA,97.72727272727273
67801,Ford County,KS,56.21414913957935,NA
40203,Jefferson County,KY,23.709369024856596,NA
40213,Jefferson County,KY,35.18164435946463,NA
40215,Jefferson County,KY,21.223709369024856,NA
40216,Jefferson County,KY,10.133843212237094,NA
40299,Jefferson County,KY,63.862332695984705,NA
40505,Fayette County,KY,25.239005736137663,NA
40517,Fayette County,KY,76.67304015296367,NA
41001,Campbell County,KY,61.75908221797323,NA
41035,Grant County,KY,NA,78.8961038961039
41071,Campbell County,KY,27.724665391969406,NA
41314,Owsley County,KY,NA,91.88311688311688
41701,Perry County,KY,32.504780114722756,NA
42003,McCracken County,KY,15.678776290630974,NA
42141,Barren County,KY,NA,10.714285714285714
70065,Jefferson Parish,LA,NA,4.545454545454546
70072,Jefferson Parish,LA,35.5640535372849,NA
70374,Lafourche Parish,LA,NA,60.3896103896104
70435,St. Tammany Parish,LA,22.37093690248566,NA
70555,Vermilion Parish,LA,80.11472275334609,NA
70582,St. Martin Parish,LA,30.78393881453155,NA
70665,Calcasieu Parish,LA,NA,93.83116883116884
70739,East Baton Rouge Parish,LA,70.74569789674953,NA
70810,East Baton Rouge Parish,LA,8.604206500956023,NA
70811,East Baton Rouge Parish,LA,99.23518164435946,NA
70817,East Baton Rouge Parish,LA,75.71701720841301,NA
71104,Caddo Parish,LA,44.168260038240916,NA
71111,Bossier Parish,LA,NA,16.883116883116884
71303,Rapides Parish,LA,NA,68.5064935064935
71334,Concordia Parish,LA,66.1567877629063,NA
71342,La Salle Parish,LA,NA,61.038961038961034
03904,York County,ME,NA,52.5974025974026
04038,Cumberland County,ME,NA,73.7012987012987
04074,Cumberland County,ME,63.47992351816444,NA
04240,Androscoggin County,ME,1.7208413001912046,22.07792207792208
04330,Kennebec County,ME,NA,9.740259740259742
04426,Piscataquis County,ME,NA,78.24675324675324
04841,Knox County,ME,NA,84.4155844155844
04901,Kennebec County,ME,NA,26.2987012987013
20602,Charles County,MD,69.78967495219885,NA
21012,Anne Arundel County,MD,75.33460803059273,NA
21043,Howard County,MD,65.96558317399618,NA
21048,Carroll County,MD,88.52772466539197,NA
21060,Anne Arundel County,MD,30.019120458891013,NA
21222,Baltimore County,MD,5.927342256214149,NA
21755,Frederick County,MD,96.17590822179733,NA
21842,Worcester County,MD,NA,57.7922077922078
01001,Hampden County,MA,27.533460803059274,NA
01013,Hampden County,MA,34.990439770554495,NA
01028,Hampden County,MA,45.124282982791584,NA
01060,Hampshire County,MA,NA,45.45454545454545
01104,Hampden County,MA,NA,0.3246753246753247
01331,Worcester County,MA,NA,77.27272727272727
01453,Worcester County,MA,1.338432122370937,NA
01588,Worcester County,MA,NA,38.311688311688314
01603,Worcester County,MA,NA,3.2467532467532463
01604,Worcester County,MA,0.9560229445506693,91.55844155844156
01609,Worcester County,MA,NA,8.766233766233766
01803,Middlesex County,MA,51.816443594646266,NA
01826,Middlesex County,MA,5.353728489483748,NA
01851,Middlesex County,MA,15.487571701720842,NA
01852,Middlesex County,MA,0,NA
01890,Middlesex County,MA,NA,34.74025974025974
01902,Essex County,MA,0.19120458891013384,NA
01913,Essex County,MA,26.19502868068834,NA
01923,Essex County,MA,NA,9.090909090909092
02021,Norfolk County,MA,NA,32.467532467532465
02048,Bristol County,MA,NA,16.233766233766232
02062,Norfolk County,MA,NA,12.337662337662337
02115,Suffolk County,MA,NA,5.51948051948052
02116,Suffolk County,MA,16.252390057361378,NA
02125,Suffolk County,MA,0.3824091778202677,NA
02130,Suffolk County,MA,NA,93.18181818181817
02131,Suffolk County,MA,NA,6.8181818181818175
02134,Suffolk County,MA,13.001912045889103,NA
02136,Suffolk County,MA,NA,7.467532467532467
02138,Middlesex County,MA,NA,9.415584415584416
02150,Suffolk County,MA,0.5736137667304015,NA
02332,Plymouth County,MA,86.04206500956023,NA
02346,Plymouth County,MA,NA,13.636363636363635
02451,Middlesex County,MA,NA,76.62337662337663
02458,Middlesex County,MA,71.51051625239006,NA
02468,Middlesex County,MA,84.7036328871893,NA
02472,Middlesex County,MA,90.82217973231359,NA
02743,Bristol County,MA,54.11089866156787,NA
02777,Bristol County,MA,NA,63.63636363636363
48047,Macomb County,MI,NA,17.857142857142858
48051,Macomb County,MI,55.25812619502868,NA
48076,Oakland County,MI,NA,28.8961038961039
48094,Macomb County,MI,49.90439770554494,NA
48101,Wayne County,MI,NA,30.844155844155846
48111,Wayne County,MI,7.648183556405354,NA
48114,Livingston County,MI,51.05162523900574,NA
48116,Livingston County,MI,NA,46.75324675324675
48125,Wayne County,MI,24.091778202676863,NA
48135,Wayne County,MI,24.282982791587,NA
48202,Wayne County,MI,31.35755258126195,NA
48205,Wayne County,MI,4.588910133843212,NA
48214,Wayne County,MI,NA,56.16883116883117
48239,Wayne County,MI,NA,11.688311688311687
48315,Macomb County,MI,NA,22.727272727272727
48326,Oakland County,MI,74.37858508604207,NA
48334,Oakland County,MI,52.39005736137668,NA
48348,Oakland County,MI,36.7112810707457,NA
48442,Oakland County,MI,47.801147227533455,NA
48461,Lapeer County,MI,65.77437858508604,NA
48623,Saginaw County,MI,43.021032504780116,NA
48723,Tuscola County,MI,28.107074569789674,NA
49093,St. Joseph County,MI,60.038240917782026,NA
49230,Jackson County,MI,67.30401529636711,NA
49269,Jackson County,MI,85.65965583173997,NA
49424,Ottawa County,MI,16.061185468451242,NA
49442,Muskegon County,MI,3.0592734225621414,NA
49444,Muskegon County,MI,10.51625239005736,NA
49461,Muskegon County,MI,NA,83.76623376623377
49849,Marquette County,MI,71.89292543021033,NA
55014,Anoka County,MN,60.61185468451242,NA
55106,Ramsey County,MN,7.45697896749522,NA
55343,Hennepin County,MN,NA,38.63636363636363
55378,Scott County,MN,53.53728489483748,NA
55404,Hennepin County,MN,87.38049713193116,NA
55405,Hennepin County,MN,36.90248565965583,NA
55411,Hennepin County,MN,18.929254302103253,NA
55449,Anoka County,MN,NA,65.9090909090909
55802,St. Louis County,MN,71.31931166347992,NA
55811,St. Louis County,MN,NA,8.441558441558442
55904,Olmsted County,MN,36.52007648183556,NA
56073,Brown County,MN,23.900573613766728,NA
56258,Lyon County,MN,NA,52.27272727272727
56267,Stevens County,MN,NA,92.20779220779221
56304,Sherburne County,MN,56.787762906309744,NA
56329,Benton County,MN,83.93881453154876,NA
56544,Becker County,MN,94.26386233269598,NA
56573,Otter Tail County,MN,NA,87.98701298701299
56623,Lake of the Woods County,MN,NA,94.15584415584416
38858,Monroe County,MS,NA,75.32467532467533
39046,Madison County,MS,28.489483747609945,NA
39114,Simpson County,MS,72.46653919694073,NA
39153,Smith County,MS,97.51434034416826,NA
39629,Lincoln County,MS,NA,70.12987012987013
39666,Pike County,MS,69.40726577437859,NA
63021,St. Louis County,MO,42.829827915869984,NA
63028,Jefferson County,MO,26.003824091778206,NA
63080,Franklin County,MO,NA,48.37662337662338
63105,St. Louis County,MO,NA,90.5844155844156
63108,St. Louis city,MO,NA,50.324675324675326
63123,St. Louis County,MO,65.5831739961759,NA
63124,St. Louis County,MO,NA,74.35064935064936
63304,St. Charles County,MO,NA,75
63857,Dunklin County,MO,43.78585086042065,NA
64024,Clay County,MO,NA,36.688311688311686
64052,Jackson County,MO,11.854684512428298,NA
64055,Jackson County,MO,7.839388145315487,NA
64117,Clay County,MO,37.858508604206506,NA
64128,Jackson County,MO,NA,32.142857142857146
64138,Jackson County,MO,NA,19.155844155844157
64429,Clinton County,MO,NA,49.35064935064935
64735,Henry County,MO,NA,39.935064935064936
64776,St. Clair County,MO,95.02868068833652,NA
65018,Moniteau County,MO,76.2906309751434,NA
65560,Dent County,MO,NA,48.05194805194805
65606,Oregon County,MO,91.58699808795411,NA
65616,Taney County,MO,37.09369024856596,NA
65803,Greene County,MO,NA,13.636363636363635
59718,Gallatin County,MT,36.137667304015295,NA
59840,Ravalli County,MT,NA,54.54545454545454
68137,Douglas County,NE,NA,44.48051948051948
69162,Cheyenne County,NE,NA,86.36363636363636
89103,Clark County,NV,NA,53.896103896103895
89104,Clark County,NV,NA,50
89166,Clark County,NV,81.26195028680688,NA
89178,Clark County,NV,68.26003824091778,NA
89502,Washoe County,NV,21.988527724665392,NA
89519,Washoe County,NV,NA,80.1948051948052
03044,Rockingham County,NH,94.07265774378585,NA
03087,Rockingham County,NH,49.330783938814534,NA
03104,Hillsborough County,NH,15.105162523900573,NA
03253,Belknap County,NH,94.64627151051626,NA
03257,Merrimack County,NH,99.04397705544933,NA
03431,Cheshire County,NH,NA,59.74025974025974
03461,Cheshire County,NH,NA,98.37662337662337
07045,Morris County,NJ,NA,81.16883116883116
07087,Hudson County,NJ,2.48565965583174,NA
07106,Essex County,NJ,24.665391969407267,NA
07107,Essex County,NJ,11.281070745697896,NA
07605,Bergen County,NJ,NA,98.05194805194806
07657,Bergen County,NJ,69.59847036328873,NA
07660,Bergen County,NJ,97.131931166348,NA
07719,Monmouth County,NJ,NA,81.81818181818183
07740,Monmouth County,NJ,29.82791586998088,NA
07747,Monmouth County,NJ,34.03441682600382,NA
08016,Burlington County,NJ,NA,26.948051948051948
08030,Camden County,NJ,23.135755258126196,NA
08057,Burlington County,NJ,NA,77.59740259740259
08104,Camden County,NJ,NA,3.896103896103896
08108,Camden County,NJ,92.16061185468452,NA
08302,Cumberland County,NJ,11.663479923518166,NA
08360,Cumberland County,NJ,19.311663479923517,NA
08401,Atlantic County,NJ,NA,24.675324675324674
08618,Mercer County,NJ,1.147227533460803,NA
08724,Ocean County,NJ,97.70554493307839,NA
08742,Ocean County,NJ,80.87954110898661,NA
08757,Ocean County,NJ,13.38432122370937,NA
08807,Somerset County,NJ,NA,40.25974025974026
87031,Valencia County,NM,29.063097514340345,NA
87106,Bernalillo County,NM,22.753346080305928,NA
87107,Bernalillo County,NM,33.07839388145315,NA
87109,Bernalillo County,NM,19.88527724665392,NA
87121,Bernalillo County,NM,NA,32.7922077922078
87144,Sandoval County,NM,22.179732313575524,NA
87420,San Juan County,NM,59.847036328871894,NA
87508,Santa Fe County,NM,85.8508604206501,NA
87544,Los Alamos County,NM,58.31739961759082,NA
87571,Taos County,NM,NA,46.103896103896105
88242,Lea County,NM,97.32313575525812,NA
10001,New York County,NY,NA,34.41558441558442
10003,New York County,NY,NA,37.66233766233766
10012,New York County,NY,NA,95.77922077922078
10013,New York County,NY,79.34990439770554,NA
10025,New York County,NY,NA,0.974025974025974
10029,New York County,NY,NA,0
10454,Bronx County,NY,NA,51.298701298701296
10460,Bronx County,NY,14.149139579349903,NA
10467,Bronx County,NY,0.7648183556405354,NA
10468,Bronx County,NY,10.89866156787763,NA
10473,Bronx County,NY,5.162523900573614,NA
10516,Putnam County,NY,NA,98.7012987012987
10703,Westchester County,NY,37.2848948374761,NA
10927,Rockland County,NY,NA,97.40259740259741
11206,Kings County,NY,2.1032504780114722,NA
11209,Kings County,NY,33.269598470363285,NA
11230,Kings County,NY,17.39961759082218,NA
11233,Kings County,NY,NA,0.6493506493506493
11433,Queens County,NY,26.577437858508606,NA
11550,Nassau County,NY,NA,19.805194805194805
11553,Nassau County,NY,NA,83.44155844155844
11580,Nassau County,NY,56.022944550669216,NA
11742,Suffolk County,NY,91.39579349904398,NA
11778,Suffolk County,NY,79.73231357552581,NA
11788,Suffolk County,NY,66.92160611854685,NA
12211,Albany County,NY,NA,69.15584415584416
12308,Schenectady County,NY,NA,68.83116883116884
12887,Washington County,NY,91.20458891013385,NA
13021,Cayuga County,NY,2.8680688336520075,NA
13045,Cortland County,NY,4.2065009560229445,NA
13069,Oswego County,NY,6.5009560229445515,NA
13357,Herkimer County,NY,35.94646271510516,NA
13421,Madison County,NY,25.812619502868067,NA
14075,Erie County,NY,8.98661567877629,NA
14207,Erie County,NY,32.313575525812624,NA
14215,Erie County,NY,13.575525812619501,NA
14221,Erie County,NY,12.4282982791587,NA
14305,Niagara County,NY,6.692160611854685,NA
14414,Livingston County,NY,NA,96.42857142857143
14467,Monroe County,NY,55.64053537284895,NA
14546,Monroe County,NY,81.07074569789675,NA
14564,Ontario County,NY,21.79732313575526,NA
14607,Monroe County,NY,21.03250478011472,NA
14609,Monroe County,NY,5.736137667304015,NA
14617,Monroe County,NY,7.0745697896749515,NA
14621,Monroe County,NY,NA,2.272727272727273
14625,Monroe County,NY,NA,41.55844155844156
14626,Monroe County,NY,19.694072657743785,NA
14701,Chautauqua County,NY,2.294455066921606,NA
14830,Steuben County,NY,NA,62.01298701298701
27021,Stokes County,NC,NA,33.76623376623377
27055,Yadkin County,NC,60.9942638623327,NA
27104,Forsyth County,NC,NA,51.94805194805194
27244,Alamance County,NC,81.45315487571702,NA
27260,Guilford County,NC,NA,47.4025974025974
27263,Randolph County,NC,69.21606118546845,NA
27502,Wake County,NC,88.7189292543021,NA
27505,Harnett County,NC,82.79158699808795,NA
27511,Wake County,NC,NA,62.98701298701299
27516,Orange County,NC,31.931166347992352,NA
27707,Durham County,NC,13.766730401529637,NA
27823,Halifax County,NC,NA,81.4935064935065
28078,Mecklenburg County,NC,32.122370936902485,NA
28146,Rowan County,NC,33.84321223709369,NA
28160,Rutherford County,NC,90.24856596558317,NA
28345,Richmond County,NC,79.54110898661568,NA
28360,Robeson County,NC,73.23135755258127,NA
28364,Robeson County,NC,44.35946462715105,NA
28374,Moore County,NC,NA,47.72727272727273
28530,Pitt County,NC,84.32122370936902,NA
28532,Craven County,NC,66.53919694072657,NA
28578,Wayne County,NC,98.08795411089865,NA
28638,Caldwell County,NC,NA,61.038961038961034
28645,Caldwell County,NC,3.824091778202677,NA
28677,Iredell County,NC,16.634799235181642,NA
28681,Alexander County,NC,NA,93.5064935064935
28704,Buncombe County,NC,64.43594646271511,NA
28726,Henderson County,NC,99.80879541108987,NA
58501,Burleigh County,ND,50.47801147227533,NA
43130,Fairfield County,OH,NA,2.922077922077922
43204,Franklin County,OH,NA,15.909090909090908
43302,Marion County,OH,NA,3.571428571428571
43528,Lucas County,OH,NA,41.23376623376623
43604,Lucas County,OH,41.87380497131931,NA
43605,Lucas County,OH,1.9120458891013385,NA
43607,Lucas County,OH,6.8833652007648185,NA
43613,Lucas County,OH,3.2504780114722758,25.97402597402597
43615,Lucas County,OH,21.606118546845124,5.844155844155844
43756,Morgan County,OH,78.77629063097514,NA
43845,Coshocton County,OH,58.89101338432122,NA
43947,Belmont County,OH,70.93690248565966,NA
43953,Jefferson County,OH,NA,27.5974025974026
44028,Lorain County,OH,NA,65.5844155844156
44030,Ashtabula County,OH,53.346080305927345,NA
44052,Lorain County,OH,NA,1.948051948051948
44057,Lake County,OH,NA,20.77922077922078
44070,Cuyahoga County,OH,NA,7.792207792207792
44103,Cuyahoga County,OH,NA,14.935064935064934
44104,Cuyahoga County,OH,4.397705544933078,NA
44105,Cuyahoga County,OH,NA,22.4025974025974
44112,Cuyahoga County,OH,8.030592734225621,NA
44123,Cuyahoga County,OH,NA,25.649350649350648
44125,Cuyahoga County,OH,NA,11.363636363636363
44127,Cuyahoga County,OH,58.508604206500955,NA
44132,Cuyahoga County,OH,77.62906309751433,NA
44134,Cuyahoga County,OH,NA,73.37662337662337
44212,Medina County,OH,2.676864244741874,76.94805194805194
44255,Portage County,OH,86.61567877629062,NA
44431,Columbiana County,OH,89.67495219885278,NA
44432,Columbiana County,OH,90.05736137667304,NA
44460,Columbiana County,OH,88.33652007648183,NA
44511,Mahoning County,OH,53.91969407265774,NA
44512,Mahoning County,OH,11.47227533460803,NA
44622,Tuscarawas County,OH,34.22562141491396,NA
44654,Holmes County,OH,NA,76.2987012987013
44707,Stark County,OH,56.40535372848948,NA
44805,Ashland County,OH,NA,6.493506493506493
44906,Richland County,OH,33.460803059273424,NA
45177,Clinton County,OH,25.430210325047803,NA
45231,Hamilton County,OH,32.69598470363289,NA
45356,Miami County,OH,15.296367112810708,NA
45410,Montgomery County,OH,42.06500956022944,NA
45424,Montgomery County,OH,NA,38.961038961038966
45503,Clark County,OH,NA,14.285714285714285
45504,Clark County,OH,89.8661567877629,NA
45659,Lawrence County,OH,78.58508604206502,NA
45662,Scioto County,OH,18.164435946462714,NA
45714,Washington County,OH,20.076481835564053,NA
45723,Athens County,OH,NA,95.12987012987013
45872,Wood County,OH,NA,99.67532467532467
45891,Van Wert County,OH,30.401529636711285,NA
73026,Cleveland County,OK,74.76099426386233,NA
73072,Cleveland County,OK,28.298279158699806,29.22077922077922
73096,Custer County,OK,61.95028680688337,NA
73106,Oklahoma County,OK,67.11281070745699,NA
73112,Oklahoma County,OK,36.32887189292543,NA
73118,Oklahoma County,OK,94.45506692160612,NA
73439,Marshall County,OK,68.45124282982792,NA
73501,Comanche County,OK,NA,45.12987012987013
74012,Tulsa County,OK,55.44933078393881,NA
74056,Osage County,OK,92.54302103250478,NA
74073,Tulsa County,OK,91.58699808795411,NA
74601,Kay County,OK,NA,53.57142857142857
97140,Washington County,OR,NA,56.493506493506494
97218,Multnomah County,OR,86.23326959847036,NA
97219,Multnomah County,OR,NA,90.9090909090909
97303,Marion County,OR,NA,43.83116883116883
97355,Linn County,OR,39.38814531548757,NA
97402,Lane County,OR,51.434034416826,NA
97467,Douglas County,OR,NA,92.53246753246754
97471,Douglas County,OR,19.50286806883365,NA
97477,Lane County,OR,NA,31.818181818181817
97850,Union County,OR,39.77055449330784,NA
97914,Malheur County,OR,25.04780114722753,NA
15001,Beaver County,PA,NA,19.480519480519483
15045,Allegheny County,PA,92.35181644359464,NA
15129,Allegheny County,PA,93.69024856596559,NA
15140,Allegheny County,PA,95.60229445506691,NA
15145,Allegheny County,PA,81.83556405353728,NA
15227,Allegheny County,PA,38.04971319311664,NA
15237,Allegheny County,PA,48.75717017208413,NA
15537,Bedford County,PA,NA,58.44155844155844
16146,Mercer County,PA,67.87762906309752,NA
16508,Erie County,PA,50.47801147227533,NA
16801,Centre County,PA,NA,30.519480519480517
17028,Dauphin County,PA,96.36711281070745,NA
17038,Lebanon County,PA,NA,87.33766233766234
17074,Perry County,PA,NA,79.87012987012987
17078,Lebanon County,PA,18.738049713193117,NA
17401,York County,PA,82.40917782026769,NA
17404,York County,PA,12.619502868068832,NA
17408,York County,PA,NA,64.28571428571429
17527,Lancaster County,PA,93.30783938814533,NA
17603,Lancaster County,PA,10.325047801147228,NA
17728,Lycoming County,PA,NA,66.88311688311688
17815,Columbia County,PA,17.590822179732314,NA
17866,Northumberland County,PA,NA,55.1948051948052
17870,Snyder County,PA,47.22753346080306,NA
18015,Northampton County,PA,NA,26.623376623376622
18017,Northampton County,PA,NA,5.194805194805195
18444,Lackawanna County,PA,78.39388145315488,NA
18951,Bucks County,PA,94.83747609942638,NA
19006,Montgomery County,PA,48.18355640535373,NA
19020,Bucks County,PA,NA,11.03896103896104
19063,Delaware County,PA,NA,13.311688311688311
19104,Philadelphia County,PA,NA,21.753246753246753
19111,Philadelphia County,PA,NA,7.142857142857142
19116,Philadelphia County,PA,NA,17.532467532467532
19134,Philadelphia County,PA,NA,17.20779220779221
19138,Philadelphia County,PA,14.340344168260039,NA
19140,Philadelphia County,PA,15.86998087954111,NA
19146,Philadelphia County,PA,NA,71.75324675324676
19401,Montgomery County,PA,9.369024856596559,NA
19512,Berks County,PA,57.55258126195029,NA
19604,Berks County,PA,12.810707456978967,NA
02864,Providence County,RI,69.98087954110899,NA
02919,Providence County,RI,40.72657743785851,NA
29153,Sumter County,SC,NA,57.14285714285714
29210,Richland County,SC,NA,86.68831168831169
29229,Richland County,SC,38.4321223709369,NA
29372,Spartanburg County,SC,88.14531548757171,NA
29456,Dorchester County,SC,35.75525812619503,NA
29707,Lancaster County,SC,NA,74.67532467532467
57108,Lincoln County,SD,NA,23.376623376623375
57719,Pennington County,SD,NA,50.649350649350644
57783,Lawrence County,SD,85.08604206500956,40.909090909090914
37027,Williamson County,TN,40.152963671128106,NA
37075,Sumner County,TN,NA,63.961038961038966
37076,Davidson County,TN,35.18164435946463,NA
37172,Robertson County,TN,46.65391969407266,NA
37207,Davidson County,TN,13.193116634799235,NA
37412,Hamilton County,TN,50.09560229445506,NA
37660,Sullivan County,TN,8.795411089866157,NA
37763,Roane County,TN,82.98279158699809,NA
37803,Blount County,TN,NA,16.558441558441558
37871,Jefferson County,TN,NA,67.85714285714286
38002,Shelby County,TN,64.24474187380497,NA
38106,Shelby County,TN,47.03632887189293,NA
38237,Weakley County,TN,NA,60.064935064935064
38242,Henry County,TN,NA,67.20779220779221
38401,Maury County,TN,NA,10.064935064935066
38464,Lawrence County,TN,32.88718929254302,NA
38583,White County,TN,NA,29.87012987012987
75023,Collin County,TX,51.625239005736134,NA
75044,Dallas County,TX,NA,30.1948051948052
75051,Dallas County,TX,91.01338432122371,NA
75137,Dallas County,TX,NA,70.45454545454545
75173,Collin County,TX,92.73422562141491,NA
75201,Dallas County,TX,72.08413001912047,NA
75228,Dallas County,TX,7.265774378585086,NA
75460,Lamar County,TX,NA,86.03896103896103
75758,Henderson County,TX,NA,69.8051948051948
75785,Cherokee County,TX,NA,87.66233766233766
76011,Tarrant County,TX,52.198852772466545,NA
76015,Tarrant County,TX,73.80497131931166,NA
76028,Johnson County,TX,NA,4.870129870129871
76048,Hood County,TX,43.40344168260038,34.090909090909086
76051,Tarrant County,TX,NA,64.93506493506493
76133,Tarrant County,TX,21.414913957934992,NA
76134,Tarrant County,TX,27.151051625239003,NA
76208,Denton County,TX,NA,89.28571428571429
76502,Bell County,TX,16.44359464627151,NA
76504,Bell County,TX,11.089866156787762,NA
76520,Milam County,TX,NA,73.05194805194806
76642,Limestone County,TX,66.73040152963671,NA
77018,Harris County,TX,NA,95.45454545454545
77089,Harris County,TX,NA,84.74025974025975
77346,Harris County,TX,22.94455066921606,NA
77351,Polk County,TX,44.93307839388145,NA
77429,Harris County,TX,NA,6.1688311688311686
77484,Waller County,TX,89.10133843212236,NA
77489,Fort Bend County,TX,NA,82.46753246753246
77530,Harris County,TX,54.302103250478005,NA
77535,Liberty County,TX,NA,43.506493506493506
77536,Harris County,TX,38.81453154875717,NA
77546,Galveston County,TX,NA,12.012987012987013
77571,Harris County,TX,28.87189292543021,NA
77575,Liberty County,TX,62.523900573613766,NA
77590,Galveston County,TX,14.91395793499044,NA
77656,Hardin County,TX,54.684512428298284,NA
77807,Brazos County,TX,95.79349904397706,NA
77833,Washington County,TX,NA,58.76623376623377
77836,Burleson County,TX,NA,45.77922077922078
77864,Madison County,TX,NA,82.79220779220779
78207,Bexar County,TX,NA,18.181818181818183
78245,Bexar County,TX,25.621414913957935,NA
78247,Bexar County,TX,NA,54.87012987012987
78251,Bexar County,TX,NA,96.1038961038961
78613,Williamson County,TX,NA,20.12987012987013
78729,Williamson County,TX,NA,89.93506493506493
78741,Travis County,TX,NA,94.48051948051948
79705,Midland County,TX,NA,35.714285714285715
84037,Davis County,UT,65.20076481835564,NA
84095,Salt Lake County,UT,40.344168260038245,NA
84401,Weber County,UT,NA,46.42857142857143
84765,Washington County,UT,NA,99.35064935064936
05446,Chittenden County,VT,59.46462715105163,NA
05465,Chittenden County,VT,96.5583173996176,NA
05482,Chittenden County,VT,98.66156787762907,NA
05701,Rutland County,VT,NA,56.81818181818182
20109,Prince William County,VA,82.60038240917783,NA
20191,Fairfax County,VA,NA,83.11688311688312
22030,Fairfax County,VA,30.78393881453155,NA
22180,Fairfax County,VA,76.48183556405354,NA
22191,Prince William County,VA,18.54684512428298,NA
22851,Page County,VA,79.92351816443595,NA
22901,Albemarle County,VA,62.33269598470363,NA
23222,Richmond city,VA,19.120458891013385,NA
23231,Henrico County,VA,NA,20.12987012987013
23456,Virginia Beach city,VA,99.4263862332696,NA
23518,Norfolk city,VA,NA,100
23860,Hopewell city,VA,60.80305927342257,NA
24065,Franklin County,VA,NA,92.85714285714286
24501,Lynchburg city,VA,29.254302103250478,NA
24557,Pittsylvania County,VA,80.49713193116634,NA
98032,King County,WA,87.18929254302104,42.532467532467535
98042,King County,WA,18.35564053537285,NA
98092,King County,WA,NA,21.428571428571427
98103,King County,WA,46.845124282982795,NA
98108,King County,WA,68.06883365200764,NA
98115,King County,WA,65.39196940726578,NA
98146,King County,WA,NA,33.116883116883116
98203,Snohomish County,WA,NA,36.038961038961034
98270,Snohomish County,WA,20.650095602294456,NA
98311,Kitsap County,WA,57.93499043977055,NA
98362,Clallam County,WA,63.28871892925431,NA
98373,Pierce County,WA,64.81835564053537,NA
98422,Pierce County,WA,80.68833652007649,NA
98682,Clark County,WA,NA,72.07792207792207
99156,Pend Oreille County,WA,84.13001912045888,NA
99203,Spokane County,WA,NA,85.06493506493507
20032,District of Columbia,DC,NA,24.025974025974026
25312,Kanawha County,WV,63.09751434034416,NA
25550,Mason County,WV,NA,33.44155844155844
25560,Putnam County,WV,93.49904397705545,NA
26155,Wetzel County,WV,NA,80.84415584415584
26201,Upshur County,WV,NA,49.02597402597403
26301,Harrison County,WV,30.592734225621417,NA
26508,Monongalia County,WV,6.118546845124283,NA
26554,Marion County,WV,4.780114722753346,NA
26847,Grant County,WV,85.08604206500956,NA
53066,Waukesha County,WI,39.5793499043977,NA
53089,Waukesha County,WI,61.376673040152966,NA
53095,Washington County,WI,74.5697896749522,NA
53105,Racine County,WI,46.08030592734226,NA
53151,Waukesha County,WI,39.961759082217974,NA
53182,Racine County,WI,61.18546845124283,NA
53188,Waukesha County,WI,NA,21.1038961038961
53190,Walworth County,WI,NA,55.84415584415584
53209,Milwaukee County,WI,NA,1.6233766233766231
53211,Milwaukee County,WI,NA,71.1038961038961
53212,Milwaukee County,WI,43.021032504780116,NA
53215,Milwaukee County,WI,5.544933078393881,NA
53216,Milwaukee County,WI,66.34799235181644,NA
53402,Racine County,WI,NA,2.5974025974025974
53546,Rock County,WI,NA,28.57142857142857
53563,Rock County,WI,75.90822179732314,NA
53589,Dane County,WI,NA,65.25974025974025
53719,Dane County,WI,53.15487571701721,NA
53959,Sauk County,WI,42.44741873804971,NA
53965,Sauk County,WI,NA,69.48051948051948
54170,Outagamie County,WI,95.98470363288719,NA
54216,Kewaunee County,WI,NA,88.96103896103897
54241,Manitowoc County,WI,58.69980879541109,NA
54302,Brown County,WI,NA,43.18181818181818
54660,Monroe County,WI,NA,44.15584415584416
54983,Waupaca County,WI,83.5564053537285,NA
82801,Sheridan County,WY,NA,59.09090909090909
