ZipCode,county,state,Adult
35216,Jefferson County,AL,97.54098360655738
36108,Montgomery County,AL,40.57377049180328
36527,Baldwin County,AL,88.11475409836066
36582,Mobile County,AL,47.540983606557376
99507,Anchorage Municipality,AK,63.52459016393443
99603,Kenai Peninsula Borough,AK,72.54098360655738
85022,Maricopa County,AZ,22.540983606557376
85301,Maricopa County,AZ,6.967213114754098
85331,Maricopa County,AZ,54.91803278688525
85742,Pima County,AZ,49.59016393442623
72653,Baxter County,AR,42.62295081967213
90016,Los Angeles County,CA,42.21311475409836
90602,Los Angeles County,CA,61.885245901639344
90604,Los Angeles County,CA,56.9672131147541
91607,Los Angeles County,CA,75.40983606557377
91706,Los Angeles County,CA,29.098360655737704
91709,San Bernardino County,CA,63.114754098360656
91761,San Bernardino County,CA,57.377049180327866
92123,San Diego County,CA,63.934426229508205
92264,Riverside County,CA,45.90163934426229
92867,Orange County,CA,58.606557377049185
92886,Orange County,CA,32.78688524590164
94010,San Mateo County,CA,50
94105,San Francisco County,CA,91.39344262295081
94124,San Francisco County,CA,28.688524590163933
94303,San Mateo County,CA,60.245901639344254
94510,Solano County,CA,76.63934426229508
94702,Alameda County,CA,61.47540983606557
94925,Marin County,CA,90.57377049180327
95054,Santa Clara County,CA,78.27868852459017
95121,Santa Clara County,CA,66.80327868852459
95610,Sacramento County,CA,45.08196721311475
95823,Sacramento County,CA,15.983606557377051
95954,Butte County,CA,39.75409836065574
80015,Arapahoe County,CO,20.491803278688526
80107,Elbert County,CO,82.78688524590164
80642,Weld County,CO,98.77049180327869
06051,Hartford County,CT,6.557377049180328
06277,Windham County,CT,77.45901639344262
06489,Hartford County,CT,31.967213114754102
32526,Escambia County,FL,17.21311475409836
32776,Lake County,FL,77.8688524590164
32824,Orange County,FL,41.39344262295082
33068,Broward County,FL,43.85245901639344
33610,Hillsborough County,FL,17.62295081967213
33716,Pinellas County,FL,85.24590163934425
34433,Citrus County,FL,81.55737704918032
34695,Pinellas County,FL,67.62295081967213
30052,Walton County,GA,20.901639344262296
30189,Cherokee County,GA,51.229508196721305
30240,Troup County,GA,29.918032786885245
30461,Bulloch County,GA,69.67213114754098
31513,Appling County,GA,65.57377049180327
31635,Lanier County,GA,90.1639344262295
96792,Honolulu County,HI,15.163934426229508
83202,Bannock County,ID,74.59016393442623
60090,Cook County,IL,55.73770491803278
60446,Will County,IL,18.442622950819672
60452,Cook County,IL,48.77049180327869
60513,Cook County,IL,67.21311475409836
46074,Hamilton County,IN,62.295081967213115
46221,Marion County,IN,72.95081967213115
46250,Marion County,IN,73.36065573770492
46350,LaPorte County,IN,10.655737704918032
46901,Howard County,IN,3.6885245901639343
46902,Howard County,IN,6.147540983606557
47130,Clark County,IN,11.885245901639344
50310,Polk County,IA,24.18032786885246
50659,Chickasaw County,IA,86.88524590163934
50702,Black Hawk County,IA,68.0327868852459
51401,Carroll County,IA,78.68852459016394
52349,Benton County,IA,90.98360655737704
52806,Scott County,IA,24.59016393442623
66062,Johnson County,KS,12.704918032786885
66067,Franklin County,KS,57.786885245901644
66203,Johnson County,KS,75
66502,Riley County,KS,68.44262295081968
66720,Neosho County,KS,74.18032786885246
67401,Saline County,KS,23.770491803278688
40447,Jackson County,KY,81.14754098360656
41071,Campbell County,KY,30.327868852459016
41091,Boone County,KY,84.42622950819673
41143,Carter County,KY,40.16393442622951
70665,Calcasieu Parish,LA,36.885245901639344
03909,York County,ME,53.68852459016394
20871,Montgomery County,MD,80.73770491803278
01450,Middlesex County,MA,65.1639344262295
01453,Worcester County,MA,2.0491803278688523
01516,Worcester County,MA,36.0655737704918
01757,Worcester County,MA,4.098360655737705
01760,Middlesex County,MA,12.295081967213115
01902,Essex County,MA,0.4098360655737705
02126,Suffolk County,MA,1.2295081967213115
02155,Middlesex County,MA,65.98360655737704
02301,Plymouth County,MA,0
02465,Middlesex County,MA,52.86885245901639
02644,Barnstable County,MA,96.31147540983606
48085,Oakland County,MI,33.19672131147541
48154,Wayne County,MI,27.86885245901639
48310,Macomb County,MI,19.262295081967213
48423,Genesee County,MI,35.24590163934426
48917,Eaton County,MI,10.245901639344263
49203,Jackson County,MI,32.37704918032787
49236,Lenawee County,MI,95.49180327868852
49441,Muskegon County,MI,15.573770491803279
49503,Kent County,MI,13.524590163934427
55066,Goodhue County,MN,44.67213114754098
56482,Wadena County,MN,47.950819672131146
39565,Jackson County,MS,80.32786885245902
63084,Franklin County,MO,52.04918032786885
63701,Cape Girardeau County,MO,38.52459016393443
64503,Buchanan County,MO,29.508196721311474
59044,Yellowstone County,MT,86.47540983606558
59923,Lincoln County,MT,61.065573770491795
68144,Douglas County,NE,64.34426229508196
68467,York County,NE,83.19672131147541
03076,Hillsborough County,NH,68.85245901639344
03755,Grafton County,NH,95.08196721311475
07026,Bergen County,NJ,18.852459016393443
07057,Bergen County,NJ,99.18032786885246
07107,Essex County,NJ,2.459016393442623
07470,Passaic County,NJ,20.081967213114755
08021,Camden County,NJ,0.819672131147541
08234,Atlantic County,NJ,83.60655737704919
08865,Warren County,NJ,7.377049180327869
87048,Sandoval County,NM,89.34426229508196
10027,New York County,NY,7.786885245901639
10475,Bronx County,NY,28.278688524590162
10538,Westchester County,NY,94.67213114754098
11550,Nassau County,NY,14.344262295081966
11776,Suffolk County,NY,56.557377049180324
13021,Cayuga County,NY,5.737704918032787
13662,St. Lawrence County,NY,9.01639344262295
14009,Wyoming County,NY,79.91803278688525
14043,Erie County,NY,93.44262295081968
14519,Wayne County,NY,55.32786885245902
14561,Ontario County,NY,92.62295081967213
14612,Monroe County,NY,54.50819672131148
14616,Monroe County,NY,4.918032786885246
14850,Tompkins County,NY,27.459016393442624
27107,Forsyth County,NC,23.36065573770492
27405,Guilford County,NC,13.114754098360656
27502,Wake County,NC,59.83606557377049
27536,Vance County,NC,31.147540983606557
27608,Wake County,NC,88.52459016393442
28262,Mecklenburg County,NC,37.704918032786885
28544,Onslow County,NC,98.36065573770492
28719,Jackson County,NC,70.08196721311475
58401,Stutsman County,ND,84.01639344262296
58784,Mountrail County,ND,96.72131147540983
43055,Licking County,OH,2.8688524590163933
43113,Pickaway County,OH,41.80327868852459
43130,Fairfield County,OH,3.278688524590164
43219,Franklin County,OH,18.0327868852459
43338,Morrow County,OH,58.19672131147541
43912,Belmont County,OH,51.63934426229508
43944,Jefferson County,OH,97.1311475409836
44023,Geauga County,OH,88.9344262295082
44030,Ashtabula County,OH,25.81967213114754
44035,Lorain County,OH,4.508196721311475
44039,Lorain County,OH,33.60655737704918
44050,Lorain County,OH,66.39344262295081
44067,Summit County,OH,75.81967213114754
44212,Medina County,OH,5.327868852459016
44266,Portage County,OH,11.065573770491802
44321,Summit County,OH,72.1311475409836
44685,Summit County,OH,93.85245901639344
44720,Stark County,OH,60.65573770491803
45039,Warren County,OH,46.31147540983606
45042,Butler County,OH,22.131147540983605
45133,Highland County,OH,22.950819672131146
45208,Hamilton County,OH,89.75409836065575
45218,Hamilton County,OH,100
45231,Hamilton County,OH,34.83606557377049
45434,Greene County,OH,86.0655737704918
45503,Clark County,OH,49.18032786885246
45640,Jackson County,OH,46.72131147540984
73071,Cleveland County,OK,27.049180327868854
73505,Comanche County,OK,26.229508196721312
73632,Washita County,OK,99.59016393442623
97603,Klamath County,OR,21.721311475409834
97702,Deschutes County,OR,43.0327868852459
97801,Umatilla County,OR,36.47540983606557
97814,Baker County,OR,40.98360655737705
15005,Beaver County,PA,79.50819672131148
15066,Beaver County,PA,93.0327868852459
15401,Fayette County,PA,9.426229508196721
15801,Clearfield County,PA,34.01639344262295
15825,Jefferson County,PA,43.44262295081967
16159,Mercer County,PA,79.09836065573771
16201,Armstrong County,PA,34.42622950819672
16602,Blair County,PA,16.39344262295082
17603,Lancaster County,PA,11.475409836065573
17702,Lycoming County,PA,85.65573770491804
18104,Lehigh County,PA,16.80327868852459
18202,Luzerne County,PA,70.90163934426229
19103,Philadelphia County,PA,69.26229508196722
19116,Philadelphia County,PA,30.737704918032787
19136,Philadelphia County,PA,13.934426229508196
19547,Berks County,PA,87.70491803278688
29078,Kershaw County,SC,94.26229508196722
29325,Laurens County,SC,52.459016393442624
29609,Greenville County,SC,38.9344262295082
29693,Oconee County,SC,62.704918032786885
29730,York County,SC,21.311475409836063
37745,Greene County,TN,84.8360655737705
37877,Hamblen County,TN,71.72131147540983
75013,Collin County,TX,47.13114754098361
75028,Denton County,TX,56.14754098360656
75115,Dallas County,TX,25.40983606557377
76001,Tarrant County,TX,52.86885245901639
76426,Wise County,TX,82.37704918032787
76513,Bell County,TX,9.836065573770492
77030,Harris County,TX,97.95081967213115
77041,Harris County,TX,59.42622950819673
77058,Harris County,TX,76.22950819672131
77084,Harris County,TX,14.754098360655737
77375,Harris County,TX,25
77471,Fort Bend County,TX,38.114754098360656
77573,Galveston County,TX,37.295081967213115
77630,Orange County,TX,39.34426229508197
78247,Bexar County,TX,50.81967213114754
78501,Hidalgo County,TX,45.49180327868852
78624,Gillespie County,TX,70.49180327868852
78664,Williamson County,TX,44.26229508196721
79938,El Paso County,TX,35.24590163934426
84078,Uintah County,UT,19.672131147540984
84102,Salt Lake County,UT,92.21311475409836
05477,Chittenden County,VT,95.90163934426229
20120,Fairfax County,VA,50.409836065573764
22033,Fairfax County,VA,59.01639344262295
22152,Fairfax County,VA,54.09836065573771
22314,Alexandria city,VA,31.557377049180328
22508,Orange County,VA,77.04918032786885
23231,Henrico County,VA,26.639344262295083
23701,Portsmouth city,VA,81.9672131147541
24354,Smyth County,VA,87.29508196721312
98248,Whatcom County,WA,73.77049180327869
26101,Wood County,WV,8.19672131147541
26354,Taylor County,WV,48.36065573770492
53190,Walworth County,WI,91.80327868852459
53227,Milwaukee County,WI,64.75409836065575
53405,Racine County,WI,8.60655737704918
53511,Rock County,WI,1.639344262295082
54151,Marinette County,WI,71.31147540983606
