ZipCode,county,state,Adult,Retirement,Geriatric
35179,Cullman County,AL,NA,NA,91.0344827586207
35210,Jefferson County,AL,NA,NA,62.241379310344826
35222,Jefferson County,AL,NA,NA,98.62068965517241
35242,Shelby County,AL,27.46268656716418,NA,NA
35466,Pickens County,AL,84.4776119402985,NA,NA
35555,Fayette County,AL,NA,NA,47.58620689655172
35611,Limestone County,AL,NA,23.333333333333332,NA
35622,Morgan County,AL,79.70149253731343,NA,NA
35674,Colbert County,AL,NA,47.54385964912281,NA
35773,Madison County,AL,NA,NA,90.51724137931035
36054,Elmore County,AL,NA,NA,82.75862068965517
36301,Houston County,AL,NA,14.035087719298245,NA
36305,Houston County,AL,NA,NA,65.3448275862069
36330,Coffee County,AL,NA,34.56140350877193,NA
36542,Baldwin County,AL,78.80597014925374,NA,NA
36611,Mobile County,AL,95.82089552238806,NA,NA
36695,Mobile County,AL,NA,66.84210526315789,NA
36701,Dallas County,AL,23.582089552238806,NA,NA
36756,Perry County,AL,NA,85.6140350877193,NA
99504,Anchorage Municipality,AK,53.43283582089552,NA,NA
99517,Anchorage Municipality,AK,NA,NA,94.6551724137931
99669,Kenai Peninsula Borough,AK,NA,NA,84.48275862068965
85006,Maricopa County,AZ,NA,NA,86.55172413793103
85014,Maricopa County,AZ,NA,NA,86.03448275862068
85017,Maricopa County,AZ,NA,NA,95
85022,Maricopa County,AZ,16.716417910447763,NA,46.37931034482759
85023,Maricopa County,AZ,NA,NA,87.58620689655172
85029,Maricopa County,AZ,NA,40.526315789473685,NA
85044,Maricopa County,AZ,NA,NA,64.65517241379311
85051,Maricopa County,AZ,NA,NA,68.96551724137932
85131,Pinal County,AZ,NA,73.15789473684211,NA
85142,Maricopa County,AZ,NA,25.789473684210527,NA
85143,Pinal County,AZ,NA,NA,77.58620689655173
85205,Maricopa County,AZ,NA,24.912280701754387,NA
85206,Maricopa County,AZ,NA,29.82456140350877,NA
85209,Maricopa County,AZ,NA,23.684210526315788,NA
85225,Maricopa County,AZ,NA,27.54385964912281,NA
85249,Maricopa County,AZ,NA,35.6140350877193,NA
85251,Maricopa County,AZ,NA,NA,30.862068965517242
85281,Maricopa County,AZ,NA,73.85964912280701,NA
85282,Maricopa County,AZ,NA,44.03508771929825,NA
85296,Maricopa County,AZ,29.850746268656714,NA,NA
85340,Maricopa County,AZ,63.28358208955224,NA,NA
85351,Maricopa County,AZ,NA,7.5438596491228065,24.82758620689655
85355,Maricopa County,AZ,NA,NA,98.27586206896551
85382,Maricopa County,AZ,NA,43.15789473684211,NA
85387,Maricopa County,AZ,NA,NA,81.72413793103448
85544,Gila County,AZ,NA,NA,98.9655172413793
85635,Cochise County,AZ,NA,50.175438596491226,NA
85705,Pima County,AZ,NA,NA,32.41379310344827
85710,Pima County,AZ,8.059701492537313,NA,NA
85716,Pima County,AZ,NA,26.14035087719298,80.51724137931035
85739,Pinal County,AZ,NA,27.89473684210526,NA
85743,Pima County,AZ,NA,NA,58.10344827586207
85745,Pima County,AZ,NA,17.192982456140353,NA
85929,Navajo County,AZ,NA,87.36842105263159,NA
86025,Navajo County,AZ,88.05970149253731,NA,NA
86044,San Juan County,AZ,NA,NA,98.79310344827587
86305,Yavapai County,AZ,NA,NA,52.58620689655172
86323,Yavapai County,AZ,NA,NA,88.27586206896552
86326,Yavapai County,AZ,NA,21.929824561403507,NA
86403,Mohave County,AZ,NA,55.26315789473685,NA
86409,Mohave County,AZ,NA,NA,19.482758620689655
86442,Mohave County,AZ,NA,NA,18.103448275862068
71701,Ouachita County,AR,NA,54.56140350877193,NA
72046,Lonoke County,AR,NA,NA,95.17241379310344
72076,Pulaski County,AR,NA,NA,49.137931034482754
72450,Greene County,AR,NA,NA,26.89655172413793
72543,Cleburne County,AR,NA,NA,48.62068965517241
72712,Benton County,AR,NA,NA,38.96551724137931
72715,Benton County,AR,87.46268656716418,NA,NA
72916,Sebastian County,AR,NA,81.22807017543859,NA
90004,Los Angeles County,CA,NA,37.01754385964912,NA
90018,Los Angeles County,CA,NA,NA,32.241379310344826
90028,Los Angeles County,CA,NA,98.42105263157895,NA
90034,Los Angeles County,CA,NA,NA,32.58620689655172
90041,Los Angeles County,CA,NA,76.84210526315789,NA
90066,Los Angeles County,CA,72.83582089552239,NA,25.862068965517242
90241,Los Angeles County,CA,NA,80.7017543859649,NA
90274,Los Angeles County,CA,NA,NA,40.17241379310345
90302,Los Angeles County,CA,NA,NA,88.62068965517241
90604,Los Angeles County,CA,NA,NA,65.6896551724138
90638,Los Angeles County,CA,53.73134328358209,NA,26.03448275862069
90640,Los Angeles County,CA,31.044776119402982,NA,NA
90713,Los Angeles County,CA,65.67164179104478,NA,NA
90715,Los Angeles County,CA,83.5820895522388,NA,NA
90716,Los Angeles County,CA,NA,NA,96.72413793103448
90731,Los Angeles County,CA,NA,25.964912280701753,NA
90740,Orange County,CA,91.94029850746269,NA,NA
90803,Los Angeles County,CA,NA,46.8421052631579,NA
90808,Los Angeles County,CA,56.4179104477612,NA,NA
91010,Los Angeles County,CA,NA,NA,91.55172413793103
91011,Los Angeles County,CA,NA,NA,65.86206896551724
91040,Los Angeles County,CA,NA,65.08771929824562,70.6896551724138
91106,Los Angeles County,CA,NA,81.57894736842105,NA
91214,Los Angeles County,CA,NA,NA,44.13793103448276
91306,Los Angeles County,CA,37.014925373134325,NA,NA
91316,Los Angeles County,CA,NA,NA,22.06896551724138
91335,Los Angeles County,CA,NA,31.75438596491228,10.344827586206897
91354,Los Angeles County,CA,NA,79.2982456140351,NA
91356,Los Angeles County,CA,NA,48.07017543859649,NA
91384,Los Angeles County,CA,NA,NA,83.9655172413793
91505,Los Angeles County,CA,NA,77.89473684210526,NA
91731,Los Angeles County,CA,NA,NA,66.20689655172414
91739,San Bernardino County,CA,60.298507462686565,NA,NA
91746,Los Angeles County,CA,74.32835820895522,NA,NA
91750,Los Angeles County,CA,NA,NA,28.448275862068968
91762,San Bernardino County,CA,NA,NA,50
91766,Los Angeles County,CA,NA,44.3859649122807,NA
91786,San Bernardino County,CA,28.059701492537314,NA,NA
91910,San Diego County,CA,21.19402985074627,NA,NA
91932,San Diego County,CA,75.22388059701493,NA,NA
92020,San Diego County,CA,NA,5.964912280701754,NA
92040,San Diego County,CA,NA,NA,27.413793103448274
92071,San Diego County,CA,21.492537313432834,NA,NA
92104,San Diego County,CA,23.88059701492537,NA,NA
92106,San Diego County,CA,NA,NA,82.75862068965517
92107,San Diego County,CA,65.3731343283582,NA,NA
92129,San Diego County,CA,NA,47.719298245614034,NA
92223,Riverside County,CA,NA,38.94736842105263,NA
92234,Riverside County,CA,NA,1.5789473684210527,72.93103448275862
92262,Riverside County,CA,17.611940298507463,NA,NA
92336,San Bernardino County,CA,8.955223880597014,NA,NA
92345,San Bernardino County,CA,9.253731343283581,NA,NA
92382,San Bernardino County,CA,NA,95.78947368421052,NA
92562,Riverside County,CA,22.388059701492537,NA,NA
92586,Riverside County,CA,NA,NA,20.689655172413794
92624,Orange County,CA,96.41791044776119,NA,NA
92627,Orange County,CA,NA,66.14035087719297,NA
92646,Orange County,CA,NA,NA,7.241379310344828
92649,Orange County,CA,NA,NA,30
92651,Orange County,CA,NA,45.614035087719294,NA
92672,Orange County,CA,NA,54.21052631578947,NA
92675,Orange County,CA,NA,43.684210526315795,NA
92708,Orange County,CA,NA,13.157894736842104,NA
92870,Orange County,CA,NA,22.45614035087719,NA
92879,Riverside County,CA,NA,NA,85.51724137931035
92880,Riverside County,CA,NA,55.26315789473685,NA
93021,Ventura County,CA,NA,NA,79.48275862068965
93065,Ventura County,CA,NA,18.771929824561404,NA
93221,Tulare County,CA,NA,75.96491228070175,NA
93274,Tulare County,CA,NA,NA,23.79310344827586
93291,Tulare County,CA,NA,35.43859649122807,NA
93307,Kern County,CA,11.940298507462686,NA,NA
93420,San Luis Obispo County,CA,NA,44.91228070175438,NA
93433,San Luis Obispo County,CA,NA,NA,95.51724137931035
93449,San Luis Obispo County,CA,NA,NA,90.17241379310344
93543,Los Angeles County,CA,NA,88.24561403508771,NA
93546,Mono County,CA,87.16417910447761,NA,NA
93550,Los Angeles County,CA,NA,44.56140350877193,NA
93907,Monterey County,CA,94.6268656716418,NA,NA
93955,Monterey County,CA,NA,NA,28.27586206896552
94002,San Mateo County,CA,NA,85.26315789473684,NA
94044,San Mateo County,CA,NA,63.33333333333333,NA
94062,San Mateo County,CA,NA,NA,45.17241379310345
94086,Santa Clara County,CA,NA,NA,53.103448275862064
94102,San Francisco County,CA,7.164179104477612,33.1578947368421,NA
94107,San Francisco County,CA,NA,65.78947368421053,NA
94111,San Francisco County,CA,NA,NA,88.79310344827587
94116,San Francisco County,CA,NA,NA,11.206896551724139
94306,Santa Clara County,CA,NA,NA,51.37931034482759
94403,San Mateo County,CA,NA,NA,11.379310344827587
94506,Contra Costa County,CA,NA,74.56140350877193,NA
94509,Contra Costa County,CA,NA,NA,15.344827586206897
94515,Napa County,CA,NA,92.28070175438596,NA
94526,Contra Costa County,CA,NA,49.122807017543856,NA
94530,Contra Costa County,CA,NA,61.228070175438596,NA
94590,Solano County,CA,NA,NA,41.37931034482759
94591,Solano County,CA,NA,NA,17.24137931034483
94597,Contra Costa County,CA,69.85074626865672,NA,NA
94598,Contra Costa County,CA,NA,NA,59.13793103448276
94608,Alameda County,CA,NA,NA,56.896551724137936
94609,Alameda County,CA,93.13432835820895,NA,99.82758620689656
94612,Alameda County,CA,NA,96.66666666666667,NA
94804,Contra Costa County,CA,NA,NA,34.48275862068966
94806,Contra Costa County,CA,85.07462686567165,NA,NA
94928,Sonoma County,CA,NA,42.280701754385966,NA
94931,Sonoma County,CA,NA,93.85964912280701,NA
94952,Sonoma County,CA,NA,35.96491228070175,NA
95037,Santa Clara County,CA,55.52238805970149,31.2280701754386,27.75862068965517
95122,Santa Clara County,CA,43.582089552238806,48.24561403508772,NA
95123,Santa Clara County,CA,NA,78.24561403508771,NA
95128,Santa Clara County,CA,NA,NA,46.55172413793103
95132,Santa Clara County,CA,88.95522388059702,NA,NA
95209,San Joaquin County,CA,NA,NA,93.96551724137932
95215,San Joaquin County,CA,NA,85.6140350877193,NA
95307,Stanislaus County,CA,NA,NA,62.93103448275862
95350,Stanislaus County,CA,NA,NA,15.862068965517242
95354,Stanislaus County,CA,NA,58.07017543859649,NA
95355,Stanislaus County,CA,NA,NA,61.37931034482759
95367,Stanislaus County,CA,NA,92.80701754385964,NA
95409,Sonoma County,CA,NA,NA,45.86206896551724
95451,Lake County,CA,NA,50.526315789473685,NA
95521,Humboldt County,CA,NA,79.82456140350878,NA
95602,Placer County,CA,96.11940298507463,NA,NA
95628,Sacramento County,CA,NA,NA,23.275862068965516
95648,Placer County,CA,NA,NA,8.103448275862068
95662,Sacramento County,CA,NA,NA,35
95665,Amador County,CA,100,NA,NA
95695,Yolo County,CA,NA,53.85964912280702,NA
95747,Placer County,CA,37.91044776119403,NA,NA
95828,Sacramento County,CA,NA,NA,67.58620689655173
95833,Sacramento County,CA,35.52238805970149,NA,NA
95838,Sacramento County,CA,NA,67.71929824561404,NA
95901,Yuba County,CA,55.82089552238806,51.578947368421055,NA
95973,Butte County,CA,18.507462686567163,NA,NA
95993,Sutter County,CA,NA,NA,63.10344827586207
96007,Shasta County,CA,NA,59.122807017543856,NA
96021,Tehama County,CA,NA,NA,60.689655172413794
96080,Tehama County,CA,40.8955223880597,NA,NA
96097,Siskiyou County,CA,91.64179104477613,NA,NA
96150,El Dorado County,CA,NA,66.66666666666666,NA
80022,Adams County,CO,NA,38.07017543859649,NA
80031,Adams County,CO,NA,NA,50.51724137931034
80110,Arapahoe County,CO,NA,NA,79.3103448275862
80123,Jefferson County,CO,NA,NA,29.82758620689655
80132,El Paso County,CO,NA,59.29824561403508,NA
80138,Douglas County,CO,51.64179104477612,NA,NA
80205,Denver County,CO,NA,31.929824561403507,NA
80206,Denver County,CO,68.35820895522387,NA,NA
80212,Denver County,CO,88.65671641791046,NA,NA
80218,Denver County,CO,NA,79.47368421052632,NA
80220,Denver County,CO,30.447761194029848,NA,NA
80221,Adams County,CO,NA,NA,57.41379310344827
80224,Denver County,CO,NA,79.64912280701755,NA
80226,Jefferson County,CO,NA,75.6140350877193,NA
80227,Jefferson County,CO,57.01492537313433,NA,NA
80228,Jefferson County,CO,NA,56.666666666666664,NA
80247,Arapahoe County,CO,NA,NA,30.862068965517242
80304,Boulder County,CO,NA,88.42105263157895,NA
80513,Larimer County,CO,NA,80,NA
80534,Weld County,CO,NA,71.75438596491229,NA
80538,Larimer County,CO,NA,6.140350877192982,NA
80602,Adams County,CO,44.17910447761194,NA,NA
80634,Weld County,CO,NA,1.0526315789473684,NA
80910,El Paso County,CO,20.597014925373134,NA,NA
80921,El Paso County,CO,NA,NA,74.13793103448276
81212,Fremont County,CO,35.82089552238806,NA,NA
81226,Fremont County,CO,NA,88.94736842105263,NA
06035,Hartford County,CT,93.43283582089552,NA,NA
06067,Hartford County,CT,NA,NA,64.3103448275862
06401,New Haven County,CT,NA,62.807017543859644,NA
06415,New London County,CT,NA,70.17543859649122,NA
06418,New Haven County,CT,85.67164179104478,NA,NA
06443,New Haven County,CT,NA,NA,27.586206896551722
06451,New Haven County,CT,NA,37.19298245614035,NA
06457,Middlesex County,CT,NA,6.491228070175438,NA
06477,New Haven County,CT,NA,NA,68.62068965517241
06492,New Haven County,CT,17.01492537313433,10,NA
06511,New Haven County,CT,NA,8.596491228070176,NA
06513,New Haven County,CT,4.179104477611941,NA,NA
06516,New Haven County,CT,NA,2.280701754385965,10.689655172413794
06610,Fairfield County,CT,24.17910447761194,NA,NA
06801,Fairfield County,CT,NA,55.78947368421052,NA
06807,Fairfield County,CT,96.71641791044776,NA,NA
06902,Fairfield County,CT,NA,75.08771929824562,NA
19702,New Castle County,DE,NA,16.842105263157894,NA
19703,New Castle County,DE,59.1044776119403,NA,NA
19707,New Castle County,DE,82.98507462686567,NA,NA
19810,New Castle County,DE,NA,71.57894736842105,NA
19956,Sussex County,DE,NA,46.49122807017544,NA
32034,Nassau County,FL,NA,6.842105263157896,NA
32060,Suwannee County,FL,NA,NA,53.96551724137931
32073,Clay County,FL,NA,28.07017543859649,18.620689655172416
32084,St. Johns County,FL,25.671641791044774,NA,NA
32092,St. Johns County,FL,NA,NA,59.310344827586206
32113,Marion County,FL,80.29850746268656,NA,NA
32117,Volusia County,FL,NA,NA,30.17241379310345
32162,Sumter County,FL,NA,16.49122807017544,NA
32179,Marion County,FL,72.53731343283583,NA,NA
32205,Duval County,FL,NA,68.0701754385965,NA
32207,Duval County,FL,NA,8.947368421052632,NA
32208,Duval County,FL,NA,NA,37.24137931034483
32210,Duval County,FL,NA,NA,9.310344827586208
32309,Leon County,FL,NA,69.2982456140351,NA
32327,Wakulla County,FL,NA,84.21052631578947,NA
32401,Bay County,FL,NA,NA,74.3103448275862
32405,Bay County,FL,23.283582089552237,NA,NA
32413,Bay County,FL,NA,NA,90.3448275862069
32505,Escambia County,FL,14.328358208955224,NA,NA
32507,Escambia County,FL,NA,NA,14.827586206896552
32539,Okaloosa County,FL,NA,NA,29.48275862068965
32606,Alachua County,FL,NA,NA,3.793103448275862
32707,Seminole County,FL,65.67164179104478,NA,NA
32780,Brevard County,FL,NA,NA,26.551724137931032
32822,Orange County,FL,NA,61.578947368421055,NA
32832,Orange County,FL,NA,NA,80.17241379310344
32920,Brevard County,FL,NA,71.2280701754386,NA
32935,Brevard County,FL,NA,NA,56.55172413793104
32952,Brevard County,FL,NA,NA,16.724137931034484
32955,Brevard County,FL,NA,NA,10
32962,Indian River County,FL,NA,NA,22.93103448275862
32968,Indian River County,FL,NA,NA,76.0344827586207
32976,Brevard County,FL,NA,NA,17.06896551724138
33026,Broward County,FL,NA,NA,96.20689655172414
33032,Miami-Dade County,FL,NA,89.64912280701755,NA
33033,Miami-Dade County,FL,NA,52.45614035087719,NA
33040,Monroe County,FL,NA,NA,61.03448275862069
33060,Broward County,FL,32.23880597014925,NA,NA
33134,Miami-Dade County,FL,NA,NA,27.241379310344826
33138,Miami-Dade County,FL,NA,NA,43.62068965517241
33170,Miami-Dade County,FL,81.19402985074626,NA,NA
33173,Miami-Dade County,FL,NA,NA,16.034482758620687
33175,Miami-Dade County,FL,NA,22.63157894736842,NA
33176,Miami-Dade County,FL,NA,32.45614035087719,NA
33186,Miami-Dade County,FL,NA,30.526315789473685,NA
33308,Broward County,FL,NA,NA,42.06896551724138
33415,Palm Beach County,FL,39.701492537313435,NA,NA
33417,Palm Beach County,FL,NA,NA,19.310344827586206
33440,Hendry County,FL,49.25373134328358,NA,NA
33463,Palm Beach County,FL,NA,NA,52.758620689655174
33467,Palm Beach County,FL,NA,24.035087719298247,NA
33469,Palm Beach County,FL,NA,57.36842105263158,NA
33511,Hillsborough County,FL,NA,27.368421052631582,NA
33549,Hillsborough County,FL,NA,NA,60.3448275862069
33565,Hillsborough County,FL,NA,NA,61.55172413793103
33569,Hillsborough County,FL,NA,NA,85
33570,Hillsborough County,FL,NA,54.736842105263165,NA
33576,Pasco County,FL,NA,94.56140350877193,NA
33596,Hillsborough County,FL,NA,59.64912280701754,77.93103448275862
33604,Hillsborough County,FL,NA,37.719298245614034,NA
33607,Hillsborough County,FL,NA,NA,58.793103448275865
33714,Pinellas County,FL,NA,NA,87.75862068965517
33755,Pinellas County,FL,NA,64.91228070175438,NA
33761,Pinellas County,FL,85.37313432835822,NA,NA
33776,Pinellas County,FL,95.22388059701493,NA,NA
33813,Polk County,FL,NA,NA,64.48275862068965
33913,Lee County,FL,NA,NA,44.827586206896555
33982,Charlotte County,FL,NA,83.15789473684211,NA
34102,Collier County,FL,NA,NA,50.3448275862069
34219,Manatee County,FL,NA,NA,69.48275862068965
34228,Sarasota County,FL,NA,97.01754385964912,NA
34233,Sarasota County,FL,NA,NA,23.620689655172413
34436,Citrus County,FL,NA,78.94736842105263,NA
34470,Marion County,FL,NA,NA,41.206896551724135
34473,Marion County,FL,75.82089552238806,NA,NA
34474,Marion County,FL,NA,NA,76.55172413793103
34476,Marion County,FL,NA,97.19298245614036,NA
34606,Hernando County,FL,NA,37.368421052631575,NA
34668,Pasco County,FL,NA,20.350877192982455,NA
34685,Pinellas County,FL,NA,74.73684210526315,NA
34698,Pinellas County,FL,NA,21.403508771929825,NA
34758,Osceola County,FL,18.208955223880597,NA,NA
34759,Polk County,FL,NA,42.98245614035088,NA
34769,Osceola County,FL,NA,51.40350877192983,NA
34772,Osceola County,FL,65.07462686567163,NA,NA
34952,St. Lucie County,FL,NA,NA,7.413793103448276
34957,Martin County,FL,NA,31.929824561403507,NA
34994,Martin County,FL,76.11940298507463,NA,NA
30005,Fulton County,GA,NA,NA,85.6896551724138
30012,Rockdale County,GA,52.537313432835816,NA,NA
30019,Gwinnett County,GA,NA,NA,43.79310344827586
30044,Gwinnett County,GA,NA,12.631578947368421,NA
30066,Cobb County,GA,NA,NA,29.655172413793103
30096,Gwinnett County,GA,NA,NA,16.379310344827587
30116,Carroll County,GA,NA,NA,71.03448275862068
30125,Polk County,GA,32.83582089552239,NA,NA
30153,Polk County,GA,NA,51.2280701754386,NA
30157,Paulding County,GA,NA,25.6140350877193,NA
30165,Floyd County,GA,NA,28.947368421052634,NA
30168,Cobb County,GA,NA,NA,92.06896551724138
30187,Douglas County,GA,NA,NA,93.62068965517241
30224,Spalding County,GA,86.86567164179104,NA,NA
30230,Troup County,GA,NA,77.01754385964912,NA
30252,Henry County,GA,NA,49.122807017543856,NA
30274,Clayton County,GA,NA,NA,89.13793103448275
30305,Fulton County,GA,NA,NA,34.6551724137931
30331,Fulton County,GA,13.134328358208954,NA,NA
30506,Hall County,GA,NA,NA,12.068965517241379
30519,Gwinnett County,GA,NA,NA,71.89655172413794
30546,Towns County,GA,NA,68.94736842105263,NA
30548,Jackson County,GA,NA,NA,87.24137931034483
30680,Barrow County,GA,NA,22.105263157894736,NA
30721,Whitfield County,GA,NA,NA,40.51724137931034
30741,Walker County,GA,NA,17.894736842105264,NA
30742,Catoosa County,GA,NA,85.43859649122807,NA
30813,Columbia County,GA,27.164179104477608,NA,NA
30824,McDuffie County,GA,46.865671641791046,NA,NA
30906,Richmond County,GA,6.567164179104477,NA,NA
31093,Houston County,GA,NA,NA,74.48275862068967
31204,Bibb County,GA,NA,NA,34.13793103448276
31406,Chatham County,GA,NA,28.771929824561404,NA
31503,Ware County,GA,NA,41.929824561403514,NA
31513,Appling County,GA,NA,91.40350877192982,NA
31520,Glynn County,GA,NA,NA,62.06896551724138
31601,Lowndes County,GA,22.08955223880597,NA,43.96551724137931
31707,Dougherty County,GA,49.55223880597015,NA,NA
31794,Tift County,GA,NA,NA,35.689655172413794
39819,Decatur County,GA,NA,96.49122807017544,NA
96701,Honolulu County,HI,NA,NA,9.655172413793103
96720,Hawaii County,HI,NA,24.385964912280702,NA
96761,Maui County,HI,NA,NA,97.24137931034483
96797,Honolulu County,HI,28.35820895522388,NA,11.03448275862069
96816,Honolulu County,HI,NA,NA,27.93103448275862
96819,Honolulu County,HI,63.88059701492538,NA,NA
83204,Bannock County,ID,51.94029850746269,NA,NA
83340,Blaine County,ID,NA,92.10526315789474,NA
83402,Bonneville County,ID,NA,45.26315789473684,NA
83638,Valley County,ID,NA,75.43859649122807,NA
83642,Ada County,ID,NA,35.26315789473684,NA
83646,Ada County,ID,36.71641791044776,NA,4.482758620689655
83686,Canyon County,ID,NA,NA,3.2758620689655173
83706,Ada County,ID,NA,NA,91.37931034482759
83714,Ada County,ID,NA,NA,42.58620689655173
83805,Boundary County,ID,NA,NA,90
83815,Kootenai County,ID,NA,17.719298245614034,NA
83861,Benewah County,ID,NA,NA,86.20689655172413
60013,McHenry County,IL,NA,33.33333333333333,NA
60025,Cook County,IL,NA,NA,3.9655172413793105
60030,Lake County,IL,NA,NA,15
60056,Cook County,IL,NA,NA,6.551724137931035
60060,Lake County,IL,NA,48.421052631578945,NA
60062,Cook County,IL,34.32835820895522,NA,NA
60068,Cook County,IL,NA,NA,54.48275862068965
60076,Cook County,IL,NA,NA,15.172413793103448
60085,Lake County,IL,NA,NA,25
60087,Lake County,IL,NA,70.52631578947368,NA
60093,Cook County,IL,75.22388059701493,NA,NA
60106,DuPage County,IL,NA,62.63157894736842,NA
60110,Kane County,IL,NA,61.929824561403514,NA
60124,Kane County,IL,NA,NA,36.206896551724135
60152,McHenry County,IL,NA,NA,60
60169,Cook County,IL,NA,NA,46.206896551724135
60194,Cook County,IL,NA,NA,40
60416,Grundy County,IL,NA,72.80701754385966,NA
60419,Cook County,IL,NA,34.91228070175438,NA
60435,Will County,IL,NA,7.894736842105263,NA
60440,Will County,IL,NA,11.929824561403509,NA
60462,Cook County,IL,NA,4.035087719298246,NA
60477,Cook County,IL,NA,NA,10.172413793103448
60491,Will County,IL,31.64179104477612,NA,NA
60505,Kane County,IL,NA,40,NA
60525,Cook County,IL,NA,11.228070175438596,NA
60538,Kendall County,IL,NA,48.771929824561404,NA
60543,Kendall County,IL,NA,NA,71.55172413793103
60559,DuPage County,IL,72.23880597014926,NA,NA
60586,Will County,IL,12.238805970149254,NA,NA
60607,Cook County,IL,NA,46.31578947368421,NA
60610,Cook County,IL,NA,20.175438596491226,NA
60611,Cook County,IL,NA,19.298245614035086,NA
60612,Cook County,IL,NA,NA,31.20689655172414
60614,Cook County,IL,NA,NA,11.89655172413793
60620,Cook County,IL,NA,NA,3.620689655172414
60625,Cook County,IL,NA,11.403508771929824,NA
60637,Cook County,IL,NA,NA,19.655172413793103
60638,Cook County,IL,NA,NA,5
60646,Cook County,IL,NA,43.50877192982456,NA
60707,Cook County,IL,NA,7.719298245614035,8.620689655172415
60714,Cook County,IL,71.34328358208955,NA,NA
60804,Cook County,IL,NA,11.052631578947368,NA
60827,Cook County,IL,NA,NA,60.51724137931035
60950,Kankakee County,IL,NA,NA,34.82758620689655
61021,Lee County,IL,NA,NA,2.413793103448276
61036,Jo Daviess County,IL,NA,NA,75.51724137931033
61109,Winnebago County,IL,73.73134328358208,NA,NA
61231,Mercer County,IL,NA,NA,81.55172413793103
61350,LaSalle County,IL,46.865671641791046,NA,NA
61604,Peoria County,IL,NA,37.368421052631575,NA
61801,Champaign County,IL,NA,46.666666666666664,NA
61834,Vermilion County,IL,NA,81.9298245614035,NA
61846,Vermilion County,IL,NA,98.24561403508771,NA
62010,Madison County,IL,77.01492537313432,NA,NA
62034,Madison County,IL,NA,77.19298245614034,NA
62249,Madison County,IL,NA,NA,82.06896551724138
62269,St. Clair County,IL,NA,37.89473684210527,NA
62526,Macon County,IL,NA,5.43859649122807,NA
62549,Macon County,IL,NA,NA,84.13793103448276
62704,Sangamon County,IL,NA,29.47368421052631,NA
46060,Hamilton County,IN,NA,NA,83.62068965517241
46062,Hamilton County,IN,NA,15.6140350877193,NA
46072,Tipton County,IN,76.4179104477612,91.9298245614035,NA
46123,Hendricks County,IN,NA,40.70175438596491,NA
46168,Hendricks County,IN,NA,52.807017543859644,NA
46181,Johnson County,IN,NA,97.89473684210527,NA
46224,Marion County,IN,NA,NA,35.3448275862069
46234,Marion County,IN,NA,NA,33.275862068965516
46239,Marion County,IN,NA,53.333333333333336,NA
46260,Marion County,IN,NA,NA,35.86206896551724
46311,Lake County,IN,NA,NA,24.310344827586206
46320,Lake County,IN,NA,51.75438596491229,NA
46321,Lake County,IN,NA,NA,21.03448275862069
46324,Lake County,IN,NA,26.31578947368421,NA
46635,St. Joseph County,IN,NA,94.21052631578948,NA
46755,Noble County,IN,NA,83.85964912280703,86.37931034482759
46835,Allen County,IN,NA,40.17543859649123,NA
46901,Howard County,IN,NA,NA,6.379310344827586
46932,Cass County,IN,93.73134328358209,NA,NA
46947,Cass County,IN,11.343283582089553,NA,35.172413793103445
46992,Wabash County,IN,NA,NA,56.72413793103448
47203,Bartholomew County,IN,NA,20,NA
47331,Fayette County,IN,NA,NA,7.586206896551724
47356,Henry County,IN,NA,NA,85.17241379310346
47362,Henry County,IN,NA,9.824561403508772,8.620689655172415
47371,Jay County,IN,NA,30,NA
47404,Monroe County,IN,NA,NA,76.72413793103449
47408,Monroe County,IN,NA,93.15789473684211,93.10344827586206
47421,Lawrence County,IN,NA,17.543859649122805,NA
47441,Greene County,IN,NA,68.42105263157895,NA
47452,Orange County,IN,NA,NA,99.3103448275862
47501,Daviess County,IN,NA,60.526315789473685,NA
47591,Knox County,IN,NA,NA,15.517241379310345
47620,Posey County,IN,NA,62.98245614035088,NA
47630,Warrick County,IN,NA,83.6842105263158,NA
47715,Vanderburgh County,IN,NA,NA,44.310344827586206
47803,Vigo County,IN,NA,NA,33.10344827586207
50036,Boone County,IA,NA,52.98245614035088,NA
50317,Polk County,IA,10.746268656716417,12.280701754385964,NA
51501,Pottawattamie County,IA,3.880597014925373,NA,NA
51503,Pottawattamie County,IA,7.761194029850746,NA,NA
51537,Shelby County,IA,NA,81.75438596491227,NA
52245,Johnson County,IA,NA,38.24561403508772,NA
52404,Linn County,IA,NA,16.140350877192983,NA
52761,Muscatine County,IA,58.2089552238806,NA,NA
66061,Johnson County,KS,NA,NA,31.724137931034484
66062,Johnson County,KS,NA,13.333333333333334,NA
66085,Johnson County,KS,NA,84.56140350877193,NA
66212,Johnson County,KS,NA,12.80701754385965,NA
66503,Riley County,KS,NA,87.89473684210526,NA
66616,Shawnee County,KS,NA,94.73684210526315,NA
66720,Neosho County,KS,78.2089552238806,NA,NA
67212,Sedgwick County,KS,NA,53.50877192982456,NA
67216,Sedgwick County,KS,73.13432835820896,NA,NA
67218,Sedgwick County,KS,NA,86.31578947368422,NA
67337,Montgomery County,KS,NA,NA,73.44827586206897
67432,Clay County,KS,98.50746268656717,NA,NA
67501,Reno County,KS,NA,70.52631578947368,86.89655172413792
67735,Sherman County,KS,87.76119402985074,NA,NA
67846,Finney County,KS,NA,NA,21.20689655172414
40059,Jefferson County,KY,NA,64.73684210526316,NA
40065,Shelby County,KY,38.50746268656716,29.64912280701754,NA
40165,Bullitt County,KY,NA,14.912280701754385,NA
40203,Jefferson County,KY,NA,38.421052631578945,NA
40215,Jefferson County,KY,NA,41.75438596491228,NA
40299,Jefferson County,KY,NA,NA,16.896551724137932
40391,Clark County,KY,NA,10.175438596491228,NA
40447,Jackson County,KY,94.32835820895522,NA,NA
40504,Fayette County,KY,NA,NA,41.89655172413793
40505,Fayette County,KY,NA,NA,57.24137931034483
40823,Harlan County,KY,NA,NA,95.6896551724138
41030,Grant County,KY,71.64179104477611,NA,NA
41102,Boyd County,KY,17.313432835820898,NA,NA
41129,Boyd County,KY,NA,56.315789473684205,NA
41139,Greenup County,KY,NA,NA,70.51724137931035
41465,Magoffin County,KY,NA,NA,83.10344827586206
41522,Pike County,KY,NA,86.31578947368422,NA
42025,Marshall County,KY,41.7910447761194,NA,NA
42066,Graves County,KY,NA,19.473684210526315,NA
42303,Daviess County,KY,8.656716417910449,NA,NA
42347,Ohio County,KY,NA,NA,79.65517241379311
42445,Caldwell County,KY,NA,NA,89.3103448275862
42602,Clinton County,KY,NA,70,NA
42726,Grayson County,KY,NA,70.35087719298245,NA
70094,Jefferson Parish,LA,NA,NA,46.89655172413793
70115,Orleans Parish,LA,NA,NA,37.41379310344828
70131,Orleans Parish,LA,NA,32.80701754385965,NA
70403,Tangipahoa Parish,LA,NA,65.43859649122807,NA
70449,Livingston Parish,LA,NA,98.94736842105263,NA
70510,Vermilion Parish,LA,9.55223880597015,NA,40.86206896551724
70518,Lafayette Parish,LA,NA,NA,75.6896551724138
70529,Lafayette Parish,LA,47.462686567164184,NA,NA
70577,St. Landry Parish,LA,NA,95.26315789473684,NA
70633,Calcasieu Parish,LA,NA,NA,94.3103448275862
70737,Ascension Parish,LA,NA,15.43859649122807,NA
70805,East Baton Rouge Parish,LA,NA,NA,59.827586206896555
70811,East Baton Rouge Parish,LA,NA,72.10526315789474,NA
70815,East Baton Rouge Parish,LA,NA,NA,33.44827586206897
70816,East Baton Rouge Parish,LA,NA,NA,31.896551724137932
70818,East Baton Rouge Parish,LA,NA,71.9298245614035,NA
71106,Caddo Parish,LA,NA,NA,14.655172413793101
71109,Caddo Parish,LA,NA,25.263157894736842,NA
71203,Ouachita Parish,LA,28.955223880597014,NA,NA
71241,Union Parish,LA,NA,NA,54.82758620689655
71446,Vernon Parish,LA,NA,36.140350877192986,NA
71463,Allen Parish,LA,NA,86.66666666666667,NA
03909,York County,ME,NA,NA,38.44827586206897
04005,York County,ME,NA,3.3333333333333335,NA
04009,Cumberland County,ME,70.1492537313433,NA,NA
04032,Cumberland County,ME,81.7910447761194,NA,NA
04101,Cumberland County,ME,NA,23.684210526315788,NA
04102,Cumberland County,ME,NA,83.50877192982456,NA
04107,Cumberland County,ME,92.83582089552239,NA,NA
04468,Penobscot County,ME,NA,NA,68.27586206896552
04609,Hancock County,ME,99.40298507462687,NA,NA
04930,Penobscot County,ME,NA,NA,79.13793103448276
20715,Prince George's County,MD,64.77611940298507,NA,NA
20841,Montgomery County,MD,97.01492537313433,NA,NA
20904,Montgomery County,MD,NA,NA,54.65517241379311
21009,Harford County,MD,NA,NA,63.96551724137931
21043,Howard County,MD,NA,42.63157894736842,NA
21090,Anne Arundel County,MD,NA,NA,78.62068965517241
21117,Baltimore County,MD,NA,25.087719298245613,NA
21157,Carroll County,MD,NA,NA,18.79310344827586
21210,Baltimore city,MD,NA,NA,79.82758620689656
21220,Baltimore County,MD,14.029850746268657,NA,NA
21784,Carroll County,MD,NA,NA,45.51724137931035
21793,Frederick County,MD,NA,95.08771929824562,NA
21797,Howard County,MD,NA,NA,92.75862068965517
21911,Cecil County,MD,NA,74.03508771929825,NA
01013,Hampden County,MA,NA,11.578947368421053,NA
01040,Hampden County,MA,NA,0,NA
01085,Hampden County,MA,1.1940298507462688,NA,NA
01118,Hampden County,MA,NA,NA,48.96551724137931
01230,Berkshire County,MA,NA,50.70175438596492,NA
01331,Worcester County,MA,NA,31.57894736842105,NA
01430,Worcester County,MA,NA,76.14035087719299,NA
01475,Worcester County,MA,NA,50.877192982456144,NA
01540,Worcester County,MA,34.02985074626866,NA,NA
01545,Worcester County,MA,NA,NA,13.448275862068964
01720,Middlesex County,MA,30.149253731343283,NA,NA
01772,Worcester County,MA,NA,NA,73.79310344827587
01841,Essex County,MA,0,NA,NA
01844,Essex County,MA,0.8955223880597015,NA,4.137931034482759
01854,Middlesex County,MA,NA,NA,5.689655172413794
01876,Middlesex County,MA,NA,1.9298245614035088,NA
01930,Essex County,MA,NA,34.21052631578947,NA
01940,Essex County,MA,NA,NA,17.75862068965517
02038,Norfolk County,MA,NA,NA,25.17241379310345
02050,Plymouth County,MA,NA,59.473684210526315,NA
02062,Norfolk County,MA,NA,9.12280701754386,NA
02093,Norfolk County,MA,NA,77.71929824561403,NA
02127,Suffolk County,MA,NA,5.7894736842105265,NA
02131,Suffolk County,MA,57.3134328358209,NA,2.586206896551724
02132,Suffolk County,MA,NA,0.8771929824561403,NA
02136,Suffolk County,MA,1.791044776119403,NA,NA
02139,Middlesex County,MA,0.5970149253731344,NA,NA
02150,Suffolk County,MA,NA,0.17543859649122806,4.655172413793104
02151,Suffolk County,MA,0.2985074626865672,NA,0.3448275862068966
02186,Norfolk County,MA,NA,NA,17.586206896551722
02360,Plymouth County,MA,NA,NA,1.0344827586206897
02368,Norfolk County,MA,NA,3.8596491228070176,NA
02446,Norfolk County,MA,15.522388059701491,NA,NA
02458,Middlesex County,MA,NA,45.96491228070175,NA
02459,Middlesex County,MA,NA,NA,10.86206896551724
02461,Middlesex County,MA,NA,NA,81.03448275862068
02638,Barnstable County,MA,NA,98.7719298245614,NA
02673,Barnstable County,MA,52.537313432835816,NA,NA
02720,Bristol County,MA,NA,5.263157894736842,NA
02740,Bristol County,MA,NA,2.982456140350877,NA
48005,Macomb County,MI,NA,NA,97.58620689655172
48033,Oakland County,MI,NA,67.36842105263158,NA
48047,Macomb County,MI,NA,NA,28.965517241379313
48059,St. Clair County,MI,NA,NA,22.758620689655174
48065,Macomb County,MI,74.6268656716418,NA,NA
48091,Macomb County,MI,NA,13.508771929824562,NA
48103,Washtenaw County,MI,NA,11.75438596491228,NA
48114,Livingston County,MI,NA,NA,51.55172413793103
48116,Livingston County,MI,NA,13.684210526315791,NA
48167,Oakland County,MI,NA,NA,12.413793103448276
48178,Oakland County,MI,NA,10.526315789473683,NA
48184,Wayne County,MI,NA,60.35087719298245,NA
48185,Wayne County,MI,NA,4.56140350877193,NA
48192,Wayne County,MI,13.73134328358209,NA,NA
48195,Wayne County,MI,NA,7.368421052631578,NA
48210,Wayne County,MI,NA,NA,91.72413793103448
48212,Wayne County,MI,54.92537313432836,NA,NA
48217,Wayne County,MI,63.582089552238806,NA,68.44827586206897
48234,Wayne County,MI,6.865671641791045,12.982456140350877,NA
48235,Wayne County,MI,2.0895522388059704,NA,NA
48310,Macomb County,MI,NA,NA,17.413793103448274
48313,Macomb County,MI,22.686567164179106,NA,NA
48314,Macomb County,MI,NA,NA,22.24137931034483
48327,Oakland County,MI,NA,NA,45.86206896551724
48331,Oakland County,MI,NA,NA,26.20689655172414
48341,Oakland County,MI,NA,NA,73.10344827586206
48346,Oakland County,MI,32.537313432835816,NA,NA
48374,Oakland County,MI,NA,72.63157894736842,NA
48393,Oakland County,MI,NA,NA,78.44827586206897
48413,Huron County,MI,NA,51.92982456140351,NA
48420,Genesee County,MI,NA,NA,40.86206896551724
48461,Lapeer County,MI,NA,NA,85.34482758620689
48640,Midland County,MI,8.358208955223882,NA,NA
48642,Midland County,MI,NA,5.614035087719298,NA
48653,Roscommon County,MI,NA,NA,58.27586206896552
48706,Bay County,MI,6.26865671641791,NA,NA
48808,Clinton County,MI,NA,NA,92.58620689655173
48823,Ingham County,MI,NA,26.666666666666668,NA
48879,Clinton County,MI,NA,63.859649122807014,NA
48911,Ingham County,MI,NA,12.456140350877194,NA
49009,Kalamazoo County,MI,37.91044776119403,NA,NA
49015,Calhoun County,MI,NA,NA,13.620689655172413
49017,Calhoun County,MI,NA,23.50877192982456,NA
49024,Kalamazoo County,MI,NA,20.87719298245614,NA
49065,Van Buren County,MI,NA,69.2982456140351,NA
49107,Berrien County,MI,NA,76.31578947368422,NA
49117,Berrien County,MI,NA,NA,97.41379310344827
49203,Jackson County,MI,NA,32.631578947368425,NA
49230,Jackson County,MI,69.55223880597015,NA,NA
49247,Lenawee County,MI,71.04477611940298,NA,NA
49327,Newaygo County,MI,NA,NA,94.82758620689656
49332,Mecosta County,MI,98.80597014925372,NA,NA
49445,Muskegon County,MI,NA,19.12280701754386,NA
49456,Ottawa County,MI,NA,NA,18.275862068965516
49505,Kent County,MI,NA,24.561403508771928,NA
49509,Kent County,MI,NA,14.385964912280702,NA
49712,Charlevoix County,MI,NA,76.31578947368422,NA
49829,Delta County,MI,NA,NA,26.379310344827587
49868,Luce County,MI,NA,NA,99.13793103448276
55008,Isanti County,MN,NA,NA,68.96551724137932
55009,Goodhue County,MN,68.95522388059702,NA,NA
55041,Wabasha County,MN,NA,65.26315789473685,NA
55076,Dakota County,MN,NA,NA,65.51724137931035
55077,Dakota County,MN,NA,NA,76.89655172413794
55121,Dakota County,MN,NA,NA,92.93103448275862
55303,Anoka County,MN,NA,NA,36.896551724137936
55330,Sherburne County,MN,38.80597014925373,NA,47.241379310344826
55355,Meeker County,MN,NA,NA,69.6551724137931
55371,Mille Lacs County,MN,NA,NA,82.41379310344827
55413,Hennepin County,MN,39.1044776119403,NA,83.79310344827586
55447,Hennepin County,MN,NA,NA,80.17241379310344
55720,Carlton County,MN,NA,NA,35.51724137931034
55744,Itasca County,MN,80.59701492537313,NA,NA
55792,St. Louis County,MN,NA,88.7719298245614,NA
55803,St. Louis County,MN,NA,NA,66.72413793103448
55811,St. Louis County,MN,76.71641791044776,NA,NA
55902,Olmsted County,MN,79.1044776119403,NA,NA
56001,Blue Earth County,MN,NA,91.05263157894737,NA
56081,Watonwan County,MN,NA,71.40350877192982,38.44827586206897
56093,Waseca County,MN,NA,50.35087719298246,NA
56308,Douglas County,MN,NA,82.45614035087719,NA
56353,Mille Lacs County,MN,NA,84.3859649122807,NA
56401,Crow Wing County,MN,NA,NA,3.4482758620689653
56482,Wadena County,MN,NA,55.96491228070175,NA
56621,Clearwater County,MN,NA,62.28070175438597,NA
56701,Pennington County,MN,49.850746268656714,NA,NA
56751,Roseau County,MN,NA,99.12280701754386,NA
38751,Sunflower County,MS,NA,NA,85.86206896551725
38858,Monroe County,MS,NA,NA,97.93103448275862
39056,Hinds County,MS,61.49253731343284,NA,NA
39073,Rankin County,MS,NA,84.03508771929825,NA
39209,Hinds County,MS,18.80597014925373,NA,NA
39428,Covington County,MS,NA,98.59649122807016,NA
39520,Hancock County,MS,NA,NA,82.24137931034483
39652,Pike County,MS,NA,NA,83.44827586206897
63011,St. Louis County,MO,NA,16.315789473684212,NA
63028,Jefferson County,MO,NA,22.280701754385966,NA
63050,Jefferson County,MO,NA,NA,80
63074,St. Louis County,MO,NA,52.28070175438596,NA
63090,Franklin County,MO,NA,90,NA
63109,St. Louis city,MO,74.92537313432835,NA,NA
63121,St. Louis County,MO,NA,NA,44.6551724137931
63129,St. Louis County,MO,NA,4.912280701754386,NA
63136,St. Louis County,MO,5.970149253731343,NA,NA
63301,St. Charles County,MO,NA,2.456140350877193,NA
63830,Pemiscot County,MO,NA,NA,91.20689655172414
63845,Mississippi County,MO,NA,73.33333333333333,NA
64011,Lafayette County,MO,90.14925373134328,NA,NA
64014,Jackson County,MO,NA,67.19298245614034,NA
64024,Clay County,MO,13.432835820895523,NA,NA
64052,Jackson County,MO,NA,NA,81.37931034482759
64053,Jackson County,MO,98.2089552238806,NA,NA
64055,Jackson County,MO,NA,NA,13.10344827586207
64056,Jackson County,MO,NA,54.385964912280706,NA
64067,Lafayette County,MO,NA,NA,88.10344827586208
64086,Jackson County,MO,NA,NA,51.03448275862069
64093,Johnson County,MO,NA,34.03508771929825,NA
64106,Jackson County,MO,24.776119402985074,NA,NA
64111,Jackson County,MO,NA,45.438596491228076,NA
64113,Jackson County,MO,NA,64.56140350877193,NA
64157,Clay County,MO,29.55223880597015,NA,NA
64506,Buchanan County,MO,NA,NA,1.896551724137931
64735,Henry County,MO,NA,NA,33.96551724137931
64804,Jasper County,MO,NA,79.12280701754386,NA
65026,Miller County,MO,NA,72.28070175438597,NA
65202,Boone County,MO,NA,21.75438596491228,14.310344827586208
65203,Boone County,MO,19.701492537313435,NA,5.862068965517241
65270,Randolph County,MO,25.37313432835821,NA,NA
65325,Benton County,MO,NA,99.64912280701755,NA
65536,Laclede County,MO,NA,NA,24.482758620689655
65742,Webster County,MO,NA,74.3859649122807,NA
65785,Cedar County,MO,NA,NA,60.862068965517246
65807,Greene County,MO,NA,NA,6.724137931034482
59602,Lewis and Clark County,MT,NA,NA,69.3103448275862
59875,Ravalli County,MT,99.1044776119403,NA,NA
59901,Flathead County,MT,NA,NA,0.8620689655172413
68048,Cass County,NE,NA,96.14035087719299,NA
68114,Douglas County,NE,77.61194029850746,NA,NA
68132,Douglas County,NE,NA,87.54385964912281,NA
68134,Douglas County,NE,NA,NA,53.275862068965516
68152,Douglas County,NE,NA,89.47368421052632,NA
68701,Madison County,NE,48.95522388059702,NA,86.72413793103448
69361,Scotts Bluff County,NE,NA,62.28070175438597,NA
89103,Clark County,NV,NA,56.666666666666664,NA
89104,Clark County,NV,33.134328358208954,NA,NA
89117,Clark County,NV,NA,NA,33.62068965517241
89121,Clark County,NV,NA,29.29824561403509,NA
89130,Clark County,NV,NA,NA,43.275862068965516
89135,Clark County,NV,NA,63.68421052631579,NA
89410,Douglas County,NV,84.17910447761194,NA,NA
89509,Washoe County,NV,NA,41.578947368421055,87.93103448275862
03060,Hillsborough County,NH,NA,41.05263157894737,NA
03235,Merrimack County,NH,NA,NA,41.724137931034484
03254,Carroll County,NH,NA,84.56140350877193,NA
03301,Merrimack County,NH,NA,NA,4.310344827586207
03458,Hillsborough County,NH,NA,77.36842105263158,NA
03825,Strafford County,NH,NA,NA,93.44827586206897
03833,Rockingham County,NH,NA,33.68421052631579,NA
03860,Carroll County,NH,NA,NA,87.06896551724138
03874,Rockingham County,NH,44.776119402985074,NA,NA
07009,Essex County,NJ,NA,80.17543859649123,NA
07030,Hudson County,NJ,NA,NA,39.6551724137931
07060,Union County,NJ,25.07462686567164,NA,NA
07075,Bergen County,NJ,NA,NA,95.34482758620689
07095,Middlesex County,NJ,NA,66.3157894736842,NA
07108,Essex County,NJ,NA,NA,66.89655172413794
07201,Union County,NJ,NA,100,NA
07410,Bergen County,NJ,NA,25.438596491228072,NA
07432,Bergen County,NJ,NA,NA,78.79310344827586
07724,Monmouth County,NJ,NA,NA,55.86206896551724
07733,Monmouth County,NJ,82.38805970149254,NA,NA
07740,Monmouth County,NJ,5.6716417910447765,NA,NA
07764,Monmouth County,NJ,NA,94.91228070175438,NA
07840,Warren County,NJ,NA,NA,29.13793103448276
07922,Union County,NJ,NA,86.14035087719299,NA
07940,Morris County,NJ,NA,NA,84.13793103448276
08002,Camden County,NJ,NA,41.40350877192983,NA
08057,Burlington County,NJ,NA,NA,56.03448275862068
08060,Burlington County,NJ,NA,NA,74.82758620689656
08069,Salem County,NJ,NA,NA,96.03448275862068
08070,Salem County,NJ,84.77611940298507,NA,NA
08075,Burlington County,NJ,NA,29.122807017543863,NA
08077,Burlington County,NJ,NA,NA,53.79310344827586
08083,Camden County,NJ,39.40298507462687,NA,NA
08090,Gloucester County,NJ,NA,NA,94.48275862068965
08098,Salem County,NJ,NA,87.01754385964912,NA
08108,Camden County,NJ,NA,NA,66.0344827586207
08223,Cape May County,NJ,NA,99.47368421052632,NA
08225,Atlantic County,NJ,NA,75.78947368421053,NA
08226,Cape May County,NJ,NA,NA,95.86206896551724
08234,Atlantic County,NJ,NA,10.701754385964913,NA
08270,Cape May County,NJ,NA,82.28070175438596,NA
08505,Burlington County,NJ,NA,57.01754385964912,NA
08533,Ocean County,NJ,NA,NA,97.06896551724138
08619,Mercer County,NJ,NA,56.14035087719298,NA
08723,Ocean County,NJ,NA,21.052631578947366,NA
08753,Ocean County,NJ,NA,NA,39.310344827586206
08759,Ocean County,NJ,NA,0.5263157894736842,1.7241379310344827
08807,Somerset County,NJ,NA,NA,34.13793103448276
08812,Middlesex County,NJ,67.76119402985074,NA,NA
08840,Middlesex County,NJ,NA,NA,52.93103448275862
87002,Valencia County,NM,48.35820895522388,NA,NA
87106,Bernalillo County,NM,NA,38.771929824561404,NA
87112,Bernalillo County,NM,NA,NA,5.172413793103448
87557,Taos County,NM,92.23880597014926,NA,NA
88001,Doa Ana County,NM,NA,27.192982456140353,NA
88063,Doa Ana County,NM,NA,90,NA
88203,Chaves County,NM,NA,NA,53.96551724137931
10001,New York County,NY,NA,NA,45.689655172413794
10002,New York County,NY,NA,NA,1.5517241379310345
10016,New York County,NY,NA,NA,21.89655172413793
10075,New York County,NY,NA,63.1578947368421,NA
10306,Richmond County,NY,NA,NA,12.931034482758621
10473,Bronx County,NY,NA,31.05263157894737,NA
10579,Putnam County,NY,NA,98.0701754385965,NA
10708,Westchester County,NY,NA,81.05263157894737,NA
10990,Orange County,NY,NA,NA,38.275862068965516
11010,Nassau County,NY,NA,NA,41.55172413793103
11102,Queens County,NY,NA,NA,38.103448275862064
11105,Queens County,NY,58.805970149253724,NA,NA
11206,Kings County,NY,27.761194029850746,NA,NA
11207,Kings County,NY,NA,NA,36.55172413793103
11219,Kings County,NY,NA,NA,12.241379310344827
11223,Kings County,NY,NA,NA,6.206896551724138
11230,Kings County,NY,NA,7.017543859649122,6.0344827586206895
11234,Kings County,NY,16.119402985074625,NA,NA
11355,Queens County,NY,NA,NA,13.793103448275861
11360,Queens County,NY,NA,NA,42.241379310344826
11373,Queens County,NY,NA,NA,17.93103448275862
11414,Queens County,NY,NA,NA,48.275862068965516
11416,Queens County,NY,45.97014925373134,NA,NA
11545,Nassau County,NY,NA,95.6140350877193,NA
11577,Nassau County,NY,NA,NA,70.86206896551724
11691,Queens County,NY,NA,5.087719298245614,NA
11701,Suffolk County,NY,NA,NA,33.793103448275865
11713,Suffolk County,NY,NA,94.03508771929825,NA
11757,Suffolk County,NY,NA,NA,24.655172413793103
11967,Suffolk County,NY,62.68656716417911,NA,NA
12010,Montgomery County,NY,4.776119402985075,NA,NA
12020,Saratoga County,NY,15.82089552238806,NA,NA
12065,Saratoga County,NY,NA,15.789473684210526,NA
12095,Fulton County,NY,NA,30.350877192982455,NA
12189,Albany County,NY,NA,NA,55.172413793103445
12550,Orange County,NY,26.865671641791046,NA,NA
12580,Dutchess County,NY,99.70149253731343,NA,NA
12586,Orange County,NY,89.8507462686567,NA,NA
12833,Saratoga County,NY,NA,95.96491228070175,NA
13045,Cortland County,NY,NA,NA,35.86206896551724
13077,Cortland County,NY,NA,67.01754385964912,NA
13126,Oswego County,NY,NA,NA,87.41379310344828
13212,Onondaga County,NY,NA,57.89473684210527,NA
13215,Onondaga County,NY,NA,52.10526315789473,NA
13323,Oneida County,NY,NA,49.122807017543856,NA
13413,Oneida County,NY,45.67164179104478,NA,NA
13778,Chenango County,NY,NA,NA,89.82758620689654
13825,Otsego County,NY,97.61194029850746,NA,NA
13827,Tioga County,NY,NA,NA,49.82758620689655
13905,Broome County,NY,1.4925373134328357,NA,NA
14001,Erie County,NY,NA,81.40350877192982,NA
14070,Erie County,NY,NA,96.3157894736842,NA
14094,Niagara County,NY,NA,16.666666666666664,NA
14120,Niagara County,NY,37.61194029850746,NA,20.689655172413794
14428,Monroe County,NY,NA,NA,92.41379310344827
14450,Monroe County,NY,3.2835820895522385,NA,NA
14513,Wayne County,NY,NA,42.45614035087719,NA
14522,Wayne County,NY,NA,26.842105263157894,NA
14527,Yates County,NY,58.507462686567166,NA,NA
14564,Ontario County,NY,15.223880597014924,NA,NA
14625,Monroe County,NY,NA,42.63157894736842,NA
14626,Monroe County,NY,3.582089552238806,NA,NA
14706,Cattaraugus County,NY,NA,87.19298245614036,NA
14750,Chautauqua County,NY,82.68656716417911,NA,NA
14813,Allegany County,NY,85.97014925373134,NA,NA
27006,Davie County,NC,60,NA,NA
27023,Forsyth County,NC,NA,NA,32.068965517241374
27028,Davie County,NC,12.53731343283582,NA,NA
27105,Forsyth County,NC,2.3880597014925375,NA,NA
27205,Randolph County,NC,NA,23.157894736842106,NA
27262,Guilford County,NC,36.11940298507463,NA,NA
27284,Forsyth County,NC,NA,NA,2.7586206896551726
27295,Davidson County,NC,74.02985074626865,NA,NA
27330,Lee County,NC,NA,NA,27.068965517241377
27344,Chatham County,NC,NA,75.08771929824562,NA
27511,Wake County,NC,NA,NA,31.379310344827587
27520,Johnston County,NC,NA,NA,47.41379310344828
27524,Johnston County,NC,NA,69.64912280701753,NA
27546,Harnett County,NC,NA,NA,62.58620689655172
27587,Wake County,NC,NA,6.666666666666667,NA
27608,Wake County,NC,NA,91.75438596491227,NA
27614,Wake County,NC,NA,NA,43.103448275862064
27712,Durham County,NC,NA,NA,32.93103448275862
27858,Pitt County,NC,NA,39.29824561403509,47.06896551724138
27864,Edgecombe County,NC,NA,NA,97.75862068965517
28027,Cabarrus County,NC,14.925373134328357,NA,NA
28037,Lincoln County,NC,NA,NA,68.10344827586206
28103,Union County,NC,NA,74.73684210526315,NA
28144,Rowan County,NC,NA,30.175438596491226,NA
28146,Rowan County,NC,28.65671641791045,NA,NA
28209,Mecklenburg County,NC,NA,68.24561403508773,NA
28227,Mecklenburg County,NC,16.417910447761194,NA,NA
28277,Mecklenburg County,NC,NA,16.842105263157894,NA
28311,Cumberland County,NC,20.298507462686565,NA,NA
28405,New Hanover County,NC,30.74626865671642,NA,NA
28504,Lenoir County,NC,NA,61.05263157894737,NA
28574,Onslow County,NC,NA,81.9298245614035,NA
28715,Buncombe County,NC,NA,NA,46.724137931034484
28739,Henderson County,NC,48.656716417910445,NA,NA
28779,Jackson County,NC,NA,NA,53.62068965517241
28803,Buncombe County,NC,77.31343283582089,NA,NA
28806,Buncombe County,NC,34.32835820895522,NA,NA
58201,Grand Forks County,ND,94.92537313432837,4.385964912280701,2.0689655172413794
58554,Morton County,ND,NA,NA,9.827586206896552
43055,Licking County,OH,NA,0.3508771929824561,NA
43068,Franklin County,OH,NA,NA,18.96551724137931
43110,Franklin County,OH,19.1044776119403,NA,NA
43130,Fairfield County,OH,NA,NA,2.9310344827586206
43138,Hocking County,OH,25.970149253731346,NA,NA
43201,Franklin County,OH,NA,94.38596491228071,NA
43209,Franklin County,OH,NA,NA,39.48275862068966
43213,Franklin County,OH,NA,NA,37.58620689655172
43402,Wood County,OH,NA,NA,51.206896551724135
43410,Sandusky County,OH,NA,49.824561403508774,NA
43452,Ottawa County,OH,42.38805970149254,NA,NA
43537,Lucas County,OH,NA,10.87719298245614,NA
43560,Lucas County,OH,NA,NA,21.20689655172414
43605,Lucas County,OH,2.6865671641791042,NA,NA
43609,Lucas County,OH,4.477611940298507,NA,NA
43611,Lucas County,OH,NA,28.24561403508772,NA
43614,Lucas County,OH,NA,8.24561403508772,NA
43615,Lucas County,OH,NA,3.1578947368421053,NA
43616,Lucas County,OH,NA,8.771929824561402,NA
43953,Jefferson County,OH,NA,61.40350877192983,NA
44024,Geauga County,OH,NA,NA,45
44030,Ashtabula County,OH,54.328358208955216,NA,NA
44035,Lorain County,OH,2.9850746268656714,NA,NA
44041,Ashtabula County,OH,40.59701492537313,NA,NA
44053,Lorain County,OH,NA,NA,5.517241379310345
44054,Lorain County,OH,NA,NA,42.758620689655174
44060,Lake County,OH,NA,NA,0.5172413793103449
44070,Cuyahoga County,OH,NA,3.684210526315789,NA
44072,Geauga County,OH,NA,85.08771929824562,NA
44094,Lake County,OH,NA,NA,1.3793103448275863
44095,Lake County,OH,NA,NA,4.827586206896552
44102,Cuyahoga County,OH,NA,1.2280701754385965,NA
44104,Cuyahoga County,OH,NA,NA,49.310344827586206
44106,Cuyahoga County,OH,NA,45.96491228070175,NA
44107,Cuyahoga County,OH,NA,2.1052631578947367,NA
44108,Cuyahoga County,OH,NA,NA,90.6896551724138
44110,Cuyahoga County,OH,NA,NA,37.93103448275862
44111,Cuyahoga County,OH,NA,1.7543859649122806,NA
44116,Cuyahoga County,OH,NA,78.59649122807018,NA
44122,Cuyahoga County,OH,NA,NA,0.1724137931034483
44137,Cuyahoga County,OH,NA,NA,25.517241379310345
44146,Cuyahoga County,OH,NA,0.7017543859649122,NA
44149,Cuyahoga County,OH,NA,14.912280701754385,NA
44203,Summit County,OH,5.3731343283582085,NA,NA
44224,Summit County,OH,NA,NA,8.96551724137931
44236,Summit County,OH,NA,21.228070175438596,NA
44266,Portage County,OH,NA,4.2105263157894735,NA
44278,Summit County,OH,NA,42.10526315789473,NA
44312,Summit County,OH,NA,NA,19.655172413793103
44313,Summit County,OH,NA,14.561403508771932,NA
44403,Trumbull County,OH,NA,NA,89.48275862068965
44444,Trumbull County,OH,50.44776119402985,NA,NA
44446,Trumbull County,OH,NA,NA,47.93103448275862
44483,Trumbull County,OH,NA,NA,15.689655172413794
44509,Mahoning County,OH,41.19402985074627,NA,NA
44647,Stark County,OH,48.059701492537314,NA,NA
44667,Wayne County,OH,62.089552238805965,NA,NA
44691,Wayne County,OH,NA,3.508771929824561,NA
44709,Stark County,OH,NA,NA,57.068965517241374
44870,Erie County,OH,NA,NA,5.344827586206897
44875,Richland County,OH,NA,47.368421052631575,43.44827586206896
45005,Warren County,OH,NA,14.736842105263156,NA
45042,Butler County,OH,NA,NA,40.3448275862069
45044,Butler County,OH,NA,10.350877192982457,NA
45056,Butler County,OH,NA,74.21052631578947,NA
45103,Clermont County,OH,22.98507462686567,NA,NA
45140,Clermont County,OH,NA,NA,19.137931034482758
45238,Hamilton County,OH,NA,NA,8.448275862068966
45241,Hamilton County,OH,NA,35.78947368421053,NA
45243,Hamilton County,OH,NA,NA,65
45246,Hamilton County,OH,NA,NA,63.275862068965516
45356,Miami County,OH,NA,NA,23.96551724137931
45403,Montgomery County,OH,31.94029850746269,NA,NA
45406,Montgomery County,OH,NA,39.473684210526315,NA
45419,Montgomery County,OH,NA,73.50877192982456,NA
45449,Montgomery County,OH,NA,NA,75.86206896551724
45601,Ross County,OH,NA,30.87719298245614,0
45619,Lawrence County,OH,94.02985074626866,NA,NA
45628,Ross County,OH,NA,55.26315789473685,NA
45690,Pike County,OH,NA,NA,23.103448275862068
45692,Jackson County,OH,NA,90.52631578947368,NA
45693,Adams County,OH,NA,NA,81.72413793103448
45806,Allen County,OH,NA,63.50877192982456,NA
45840,Hancock County,OH,NA,NA,7.758620689655173
73099,Canadian County,OK,40.298507462686565,NA,NA
73112,Oklahoma County,OK,88.35820895522389,NA,NA
73134,Oklahoma County,OK,NA,96.84210526315789,NA
73170,Cleveland County,OK,NA,NA,7.931034482758621
73505,Comanche County,OK,54.62686567164179,NA,NA
74008,Tulsa County,OK,64.17910447761194,NA,NA
74012,Tulsa County,OK,NA,NA,60.17241379310345
74056,Osage County,OK,NA,92.63157894736842,NA
74066,Creek County,OK,NA,35.08771929824561,NA
74074,Payne County,OK,NA,NA,31.551724137931036
74132,Tulsa County,OK,NA,88.59649122807018,NA
74137,Tulsa County,OK,NA,54.03508771929825,NA
74344,Delaware County,OK,71.94029850746269,NA,NA
74403,Muskogee County,OK,NA,NA,26.72413793103448
74434,Muskogee County,OK,NA,82.98245614035088,NA
97008,Washington County,OR,NA,NA,32.58620689655172
97031,Hood River County,OR,68.05970149253731,NA,53.275862068965516
97080,Multnomah County,OR,20.8955223880597,NA,NA
97141,Tillamook County,OR,NA,NA,70.34482758620689
97205,Multnomah County,OR,NA,93.50877192982456,NA
97213,Multnomah County,OR,NA,58.245614035087726,NA
97215,Multnomah County,OR,NA,NA,73.9655172413793
97233,Multnomah County,OR,NA,32.98245614035088,NA
97301,Marion County,OR,NA,NA,39.13793103448276
97304,Polk County,OR,NA,NA,56.37931034482758
97365,Lincoln County,OR,NA,NA,48.79310344827586
97408,Lane County,OR,89.55223880597015,NA,NA
97415,Curry County,OR,NA,24.736842105263158,20.344827586206897
97420,Coos County,OR,NA,39.64912280701755,NA
97524,Jackson County,OR,NA,58.59649122807018,NA
97535,Jackson County,OR,NA,NA,96.55172413793103
97537,Jackson County,OR,91.34328358208955,NA,NA
97703,Deschutes County,OR,NA,70.87719298245614,NA
97754,Crook County,OR,NA,20.526315789473685,NA
97756,Deschutes County,OR,NA,18.24561403508772,NA
97850,Union County,OR,NA,NA,42.931034482758626
15044,Allegheny County,PA,NA,NA,56.20689655172414
15101,Allegheny County,PA,66.86567164179105,NA,NA
15120,Allegheny County,PA,NA,NA,30.517241379310345
15202,Allegheny County,PA,NA,NA,47.758620689655174
15207,Allegheny County,PA,57.611940298507456,NA,NA
15212,Allegheny County,PA,56.11940298507463,NA,NA
15236,Allegheny County,PA,NA,NA,38.44827586206897
15425,Fayette County,PA,NA,NA,30.689655172413794
15522,Bedford County,PA,60.59701492537314,NA,51.724137931034484
15650,Westmoreland County,PA,NA,14.210526315789473,NA
15767,Jefferson County,PA,24.47761194029851,NA,NA
15825,Jefferson County,PA,42.68656716417911,NA,NA
15902,Cambria County,PA,39.701492537313435,NA,NA
16125,Mercer County,PA,NA,NA,9.482758620689655
16148,Mercer County,PA,NA,NA,6.896551724137931
16407,Erie County,PA,NA,66.49122807017544,NA
16438,Erie County,PA,NA,69.12280701754386,NA
16505,Erie County,PA,NA,57.54385964912281,57.758620689655174
16509,Erie County,PA,NA,NA,22.24137931034483
16511,Erie County,PA,NA,NA,70.17241379310344
16648,Blair County,PA,NA,NA,93.79310344827586
16827,Centre County,PA,NA,87.71929824561403,88.44827586206897
16866,Centre County,PA,NA,69.82456140350877,NA
17036,Dauphin County,PA,70.74626865671641,NA,NA
17050,Cumberland County,PA,NA,7.192982456140351,NA
17053,Perry County,PA,NA,NA,88.96551724137932
17103,Dauphin County,PA,33.43283582089553,NA,NA
17233,Fulton County,PA,79.40298507462687,NA,78.96551724137932
17241,Cumberland County,PA,NA,NA,73.27586206896551
17257,Cumberland County,PA,19.402985074626866,NA,NA
17331,York County,PA,NA,NA,58.620689655172406
17403,York County,PA,46.26865671641791,NA,NA
17404,York County,PA,NA,44.73684210526316,NA
17522,Lancaster County,PA,NA,9.473684210526317,NA
17603,Lancaster County,PA,NA,NA,7.06896551724138
17701,Lycoming County,PA,36.417910447761194,NA,NA
17801,Northumberland County,PA,NA,56.49122807017544,NA
17815,Columbia County,PA,NA,39.824561403508774,NA
18018,Lehigh County,PA,NA,NA,9.137931034482758
18034,Lehigh County,PA,NA,NA,99.6551724137931
18036,Lehigh County,PA,NA,68.77192982456141,NA
18104,Lehigh County,PA,NA,NA,3.103448275862069
18229,Carbon County,PA,NA,82.80701754385966,NA
18235,Carbon County,PA,26.56716417910448,NA,NA
18503,Lackawanna County,PA,92.53731343283582,NA,NA
18508,Lackawanna County,PA,57.91044776119403,NA,NA
18644,Luzerne County,PA,NA,NA,76.37931034482759
18706,Luzerne County,PA,33.43283582089553,32.280701754385966,NA
18901,Bucks County,PA,NA,NA,62.41379310344828
18938,Bucks County,PA,NA,64.21052631578948,NA
18940,Bucks County,PA,59.70149253731343,NA,NA
18966,Bucks County,PA,NA,NA,10.517241379310345
18976,Bucks County,PA,NA,NA,36.37931034482759
19026,Delaware County,PA,46.56716417910447,NA,NA
19027,Montgomery County,PA,NA,NA,57.931034482758626
19040,Montgomery County,PA,NA,43.333333333333336,NA
19055,Bucks County,PA,NA,72.80701754385966,74.48275862068967
19082,Delaware County,PA,9.850746268656717,NA,NA
19103,Philadelphia County,PA,73.43283582089552,NA,NA
19107,Philadelphia County,PA,NA,77.54385964912281,NA
19118,Philadelphia County,PA,NA,73.68421052631578,NA
19120,Philadelphia County,PA,NA,30.701754385964914,NA
19126,Philadelphia County,PA,NA,43.684210526315795,NA
19131,Philadelphia County,PA,NA,19.824561403508774,NA
19139,Philadelphia County,PA,NA,4.736842105263158,NA
19148,Philadelphia County,PA,NA,NA,13.275862068965516
19317,Delaware County,PA,NA,65.96491228070175,NA
19320,Chester County,PA,NA,NA,16.379310344827587
19344,Chester County,PA,NA,NA,72.58620689655172
19348,Chester County,PA,55.223880597014926,NA,NA
19468,Montgomery County,PA,NA,68.59649122807018,NA
19508,Berks County,PA,NA,NA,75.3448275862069
19526,Berks County,PA,NA,NA,58.9655172413793
19606,Berks County,PA,10.149253731343283,NA,NA
02888,Kent County,RI,47.76119402985074,41.228070175438596,NA
02904,Providence County,RI,29.253731343283583,NA,NA
29073,Lexington County,SC,17.91044776119403,NA,NA
29150,Sumter County,SC,NA,26.49122807017544,NA
29204,Richland County,SC,NA,NA,63.275862068965516
29212,Lexington County,SC,NA,40.87719298245614,48.44827586206897
29307,Spartanburg County,SC,NA,NA,44.310344827586206
29349,Spartanburg County,SC,NA,NA,21.551724137931032
29388,Spartanburg County,SC,NA,78.7719298245614,NA
29407,Charleston County,SC,NA,NA,14.482758620689657
29466,Charleston County,SC,NA,51.05263157894737,NA
29483,Dorchester County,SC,12.835820895522387,NA,NA
29485,Dorchester County,SC,NA,NA,40.689655172413794
29574,Marion County,SC,NA,NA,96.89655172413794
29583,Florence County,SC,90.74626865671642,NA,NA
29588,Horry County,SC,NA,NA,20.344827586206897
29605,Greenville County,SC,19.701492537313435,NA,NA
29617,Greenville County,SC,NA,33.85964912280702,NA
29621,Anderson County,SC,NA,NA,12.758620689655173
29646,Greenwood County,SC,NA,NA,25.689655172413794
29673,Greenville County,SC,NA,NA,59.6551724137931
29681,Greenville County,SC,NA,12.105263157894736,NA
29706,Chester County,SC,NA,NA,63.793103448275865
29707,Lancaster County,SC,NA,NA,20
29708,York County,SC,NA,NA,72.41379310344827
29709,Chesterfield County,SC,86.26865671641791,NA,NA
29801,Aiken County,SC,34.92537313432836,NA,NA
29910,Beaufort County,SC,NA,NA,73.62068965517241
29936,Jasper County,SC,NA,NA,77.75862068965517
57006,Brookings County,SD,60.59701492537314,NA,NA
57103,Minnehaha County,SD,NA,2.807017543859649,NA
57105,Minnehaha County,SD,NA,9.649122807017543,NA
57401,Brown County,SD,NA,NA,1.206896551724138
57702,Pennington County,SD,NA,15.964912280701753,NA
37025,Hickman County,TN,NA,89.29824561403508,NA
37073,Robertson County,TN,NA,70.87719298245614,NA
37075,Sumner County,TN,NA,31.403508771929822,NA
37076,Davidson County,TN,31.343283582089555,NA,NA
37086,Rutherford County,TN,44.17910447761194,NA,NA
37090,Wilson County,TN,61.19402985074627,NA,NA
37115,Davidson County,TN,NA,NA,30.344827586206897
37174,Williamson County,TN,NA,NA,77.24137931034483
37208,Davidson County,TN,21.791044776119403,NA,NA
37214,Davidson County,TN,NA,53.68421052631579,NA
37215,Davidson County,TN,90.44776119402985,NA,NA
37321,Rhea County,TN,NA,NA,64.82758620689654
37363,Hamilton County,TN,37.3134328358209,NA,NA
37416,Hamilton County,TN,NA,52.98245614035088,NA
37601,Washington County,TN,NA,NA,25.344827586206897
37618,Sullivan County,TN,70.44776119402985,NA,NA
37659,Washington County,TN,NA,27.719298245614034,NA
37663,Sullivan County,TN,67.46268656716417,NA,NA
37665,Sullivan County,TN,NA,95.43859649122807,NA
37716,Anderson County,TN,NA,28.596491228070175,NA
37766,Campbell County,TN,NA,NA,28.620689655172416
37771,Loudon County,TN,NA,NA,75
37807,Union County,TN,NA,80.35087719298247,NA
37813,Hamblen County,TN,NA,NA,65.17241379310344
37861,Grainger County,TN,NA,65.6140350877193,NA
37874,Monroe County,TN,35.223880597014926,NA,NA
37876,Sevier County,TN,NA,20.526315789473685,NA
37912,Knox County,TN,NA,NA,54.310344827586206
37921,Knox County,TN,NA,54.91228070175439,NA
38117,Shelby County,TN,69.25373134328359,NA,NA
38225,Weakley County,TN,NA,NA,90.86206896551724
75032,Rockwall County,TX,59.40298507462687,NA,NA
75033,,TX,NA,NA,70
75035,Collin County,TX,NA,48.59649122807018,NA
75044,Dallas County,TX,53.13432835820896,NA,NA
75070,Collin County,TX,NA,8.070175438596491,NA
75088,Dallas County,TX,NA,97.54385964912281,NA
75093,Collin County,TX,NA,NA,29.310344827586203
75103,Van Zandt County,TX,NA,48.94736842105264,NA
75119,Ellis County,TX,NA,89.82456140350877,NA
75160,Kaufman County,TX,NA,NA,55.68965517241379
75228,Dallas County,TX,NA,18.421052631578945,22.586206896551726
75230,Dallas County,TX,NA,45.08771929824562,NA
75252,Collin County,TX,NA,NA,48.10344827586207
75501,Bowie County,TX,78.50746268656717,NA,NA
75605,Gregg County,TX,50.74626865671642,NA,NA
75644,Upshur County,TX,NA,60.877192982456144,NA
75652,Rusk County,TX,NA,47.89473684210526,NA
75702,Smith County,TX,NA,NA,81.20689655172414
75789,Smith County,TX,NA,64.03508771929825,NA
75951,Jasper County,TX,NA,NA,72.75862068965517
76012,Tarrant County,TX,45.07462686567164,NA,NA
76063,Tarrant County,TX,NA,NA,16.206896551724135
76108,Tarrant County,TX,NA,22.982456140350877,NA
76137,Tarrant County,TX,NA,18.947368421052634,NA
76226,Denton County,TX,65.67164179104478,NA,NA
76305,Wichita County,TX,NA,93.6842105263158,NA
76306,Wichita County,TX,61.49253731343284,NA,NA
76401,Erath County,TX,NA,NA,45.17241379310345
76548,Bell County,TX,NA,14.912280701754385,NA
76705,McLennan County,TX,NA,38.59649122807017,NA
76707,McLennan County,TX,68.65671641791045,NA,NA
76708,McLennan County,TX,NA,52.63157894736842,NA
76849,Kimble County,TX,NA,NA,96.37931034482759
77012,Harris County,TX,86.56716417910447,NA,NA
77015,Harris County,TX,NA,NA,61.206896551724135
77018,Harris County,TX,41.492537313432834,NA,NA
77022,Harris County,TX,NA,NA,49.48275862068965
77033,Harris County,TX,NA,17.36842105263158,NA
77049,Harris County,TX,62.98507462686567,NA,NA
77056,Harris County,TX,NA,NA,42.41379310344828
77066,Harris County,TX,NA,NA,78.27586206896552
77075,Harris County,TX,NA,NA,91.89655172413794
77079,Harris County,TX,NA,58.59649122807018,NA
77084,Harris County,TX,11.044776119402986,NA,NA
77093,Harris County,TX,NA,NA,52.06896551724138
77328,San Jacinto County,TX,89.25373134328358,NA,NA
77351,Polk County,TX,NA,21.578947368421055,NA
77377,Harris County,TX,42.08955223880597,NA,NA
77396,Harris County,TX,NA,NA,94.13793103448276
77429,Harris County,TX,NA,NA,20
77502,Harris County,TX,NA,58.94736842105262,NA
77504,Harris County,TX,NA,NA,75
77520,Harris County,TX,NA,NA,50.86206896551724
77531,Brazoria County,TX,NA,80.7017543859649,NA
77539,Galveston County,TX,NA,9.298245614035087,28.793103448275865
77554,Galveston County,TX,NA,44.21052631578947,NA
77584,Brazoria County,TX,NA,18.070175438596493,NA
77640,Jefferson County,TX,NA,NA,62.758620689655174
77840,Brazos County,TX,NA,67.71929824561404,NA
78022,Live Oak County,TX,NA,NA,99.48275862068967
78043,Webb County,TX,NA,28.421052631578945,NA
78073,Bexar County,TX,95.52238805970148,NA,98.44827586206897
78216,Bexar County,TX,NA,59.82456140350877,NA
78230,Bexar County,TX,NA,57.719298245614034,NA
78239,Bexar County,TX,NA,NA,69.82758620689656
78245,Bexar County,TX,NA,49.64912280701754,NA
78250,Bexar County,TX,NA,NA,71.72413793103448
78254,Bexar County,TX,NA,NA,71.89655172413794
78411,Nueces County,TX,NA,NA,67.06896551724138
78416,Nueces County,TX,NA,NA,67.24137931034483
78504,Hidalgo County,TX,NA,NA,58.44827586206897
78516,Hidalgo County,TX,NA,49.824561403508774,NA
78541,Hidalgo County,TX,NA,61.75438596491228,NA
78572,Hidalgo County,TX,14.626865671641792,NA,NA
78582,Starr County,TX,NA,NA,24.137931034482758
78586,Cameron County,TX,NA,NA,92.24137931034483
78589,Hidalgo County,TX,NA,34.385964912280706,NA
78666,Hays County,TX,NA,34.73684210526316,NA
78727,Travis County,TX,NA,89.12280701754386,NA
78734,Travis County,TX,NA,NA,71.37931034482759
78744,Travis County,TX,83.88059701492537,60.526315789473685,NA
78745,Travis County,TX,NA,58.42105263157895,55.51724137931034
78801,Uvalde County,TX,NA,NA,67.75862068965517
79106,Potter County,TX,NA,36.666666666666664,NA
79512,Mitchell County,TX,NA,83.33333333333334,80.86206896551724
79761,Ector County,TX,NA,NA,67.93103448275862
79762,Ector County,TX,NA,39.122807017543856,NA
79936,El Paso County,TX,11.641791044776118,NA,NA
84020,Salt Lake County,UT,83.28358208955224,NA,NA
84123,Salt Lake County,UT,NA,36.84210526315789,NA
84302,Box Elder County,UT,NA,72.45614035087719,NA
84770,Washington County,UT,NA,27.017543859649123,NA
05403,Chittenden County,VT,NA,47.01754385964912,NA
05446,Chittenden County,VT,NA,NA,64.13793103448275
05733,Rutland County,VT,NA,NA,77.93103448275862
20109,Prince William County,VA,NA,84.91228070175438,NA
20147,Loudoun County,VA,NA,55.08771929824562,NA
20170,Fairfax County,VA,62.38805970149254,NA,89.65517241379311
20171,Fairfax County,VA,NA,NA,82.58620689655173
22039,Fairfax County,VA,NA,NA,84.48275862068965
22205,Arlington County,VA,NA,85.96491228070175,NA
22207,Arlington County,VA,51.34328358208955,NA,NA
22306,Fairfax County,VA,NA,NA,67.24137931034483
22309,Fairfax County,VA,NA,NA,59.48275862068966
22315,Fairfax County,VA,NA,60,NA
22553,Spotsylvania County,VA,81.49253731343283,NA,NA
22602,Frederick County,VA,NA,NA,50.172413793103445
22812,Rockingham County,VA,NA,82.63157894736842,NA
23185,James City County,VA,NA,2.631578947368421,0.6896551724137931
23225,Richmond city,VA,NA,19.473684210526315,NA
23235,Chesterfield County,VA,NA,NA,18.448275862068968
23238,Henrico County,VA,NA,60.175438596491226,NA
23320,Chesapeake city,VA,NA,13.859649122807017,NA
23452,Virginia Beach city,VA,NA,6.315789473684211,NA
23456,Virginia Beach city,VA,NA,NA,66.55172413793103
23503,Norfolk city,VA,NA,NA,61.89655172413793
23508,Norfolk city,VA,NA,64.3859649122807,NA
23662,Poquoson city,VA,97.91044776119404,NA,NA
23664,Hampton city,VA,NA,NA,76.20689655172413
23669,Hampton city,VA,NA,NA,8.275862068965518
24018,Roanoke County,VA,45.37313432835821,NA,NA
24019,Roanoke County,VA,53.73134328358209,NA,NA
24134,Giles County,VA,NA,90,NA
24319,Smyth County,VA,66.56716417910448,NA,NA
24502,Lynchburg city,VA,NA,NA,12.586206896551724
24503,Lynchburg city,VA,NA,61.929824561403514,NA
24531,Pittsylvania County,VA,NA,80.52631578947368,NA
98002,King County,WA,NA,33.50877192982456,NA
98006,King County,WA,NA,NA,49.6551724137931
98027,King County,WA,NA,NA,51.89655172413793
98034,King County,WA,NA,NA,28.10344827586207
98045,King County,WA,80,NA,NA
98059,King County,WA,42.98507462686567,NA,NA
98104,King County,WA,43.88059701492537,36.49122807017544,NA
98105,King County,WA,91.04477611940298,NA,NA
98117,King County,WA,82.08955223880598,NA,NA
98177,King County,WA,NA,57.19298245614035,NA
98199,King County,WA,NA,91.57894736842105,NA
98226,Whatcom County,WA,NA,NA,11.551724137931034
98264,Whatcom County,WA,NA,NA,55.00000000000001
98277,Island County,WA,NA,NA,11.724137931034482
98284,Skagit County,WA,77.91044776119404,NA,NA
98370,Kitsap County,WA,NA,NA,52.241379310344826
98375,Pierce County,WA,50.14925373134328,NA,NA
98390,Pierce County,WA,NA,NA,77.41379310344828
98402,Pierce County,WA,NA,97.36842105263158,NA
98501,Thurston County,WA,64.4776119402985,NA,NA
98512,Thurston County,WA,NA,NA,63.62068965517241
98531,Lewis County,WA,NA,47.192982456140356,NA
98563,Grays Harbor County,WA,NA,NA,68.79310344827586
98577,Pacific County,WA,NA,78.0701754385965,NA
98631,Pacific County,WA,NA,90.87719298245615,NA
98660,Clark County,WA,NA,86.8421052631579,NA
98662,Clark County,WA,NA,NA,36.724137931034484
98671,Clark County,WA,NA,93.15789473684211,NA
98684,Clark County,WA,NA,NA,80.6896551724138
98685,Clark County,WA,NA,NA,66.37931034482759
98901,Yakima County,WA,NA,NA,37.06896551724138
99019,Spokane County,WA,NA,NA,84.48275862068965
99114,Stevens County,WA,NA,NA,52.41379310344828
99166,Ferry County,WA,NA,99.29824561403508,NA
99201,Spokane County,WA,NA,78.42105263157895,NA
99203,Spokane County,WA,80.8955223880597,NA,NA
99216,Spokane County,WA,NA,NA,55.344827586206904
20011,District of Columbia,DC,7.462686567164178,NA,NA
20020,District of Columbia,DC,NA,NA,23.275862068965516
20024,District of Columbia,DC,56.71641791044776,NA,NA
25123,Mason County,WV,NA,99.82456140350877,NA
25311,Kanawha County,WV,NA,NA,57.41379310344827
25314,Kanawha County,WV,52.23880597014925,45.78947368421053,37.75862068965517
25427,Berkeley County,WV,NA,67.54385964912281,NA
25508,Logan County,WV,NA,NA,72.24137931034483
25670,Mingo County,WV,NA,76.66666666666667,NA
25813,Raleigh County,WV,NA,92.45614035087719,NA
26003,Ohio County,WV,NA,NA,2.2413793103448274
26037,Brooke County,WV,NA,88.0701754385965,NA
26041,Marshall County,WV,NA,18.596491228070175,NA
26062,Hancock County,WV,10.44776119402985,24.210526315789473,NA
26105,Wood County,WV,NA,40.35087719298245,NA
53118,Waukesha County,WI,NA,90.70175438596492,NA
53120,Walworth County,WI,NA,92.98245614035088,NA
53151,Waukesha County,WI,NA,NA,14.13793103448276
53154,Milwaukee County,WI,NA,NA,83.27586206896552
53206,Milwaukee County,WI,NA,NA,39.827586206896555
53214,Milwaukee County,WI,NA,8.421052631578947,21.72413793103448
53220,Milwaukee County,WI,26.268656716417908,22.807017543859647,13.96551724137931
53225,Milwaukee County,WI,NA,36.31578947368421,NA
53235,Milwaukee County,WI,NA,NA,71.20689655172414
53402,Racine County,WI,5.074626865671641,1.4035087719298245,NA
53713,Dane County,WI,51.04477611940299,NA,NA
53901,Columbia County,WI,67.16417910447761,NA,NA
53954,Columbia County,WI,NA,NA,98.10344827586206
54016,St. Croix County,WI,43.28358208955223,NA,NA
54301,Brown County,WI,NA,97.71929824561404,NA
54660,Monroe County,WI,NA,NA,61.55172413793103
54727,Chippewa County,WI,NA,NA,100
54893,Burnett County,WI,97.31343283582089,NA,NA
54923,Green Lake County,WI,NA,91.22807017543859,NA
82009,Laramie County,WY,NA,NA,50.689655172413794
82201,Platte County,WY,NA,NA,76.89655172413794
82935,Sweetwater County,WY,NA,NA,93.27586206896552
