ZipCode,county,state,Adult,Retirement,Geriatric
35023,Jefferson County,AL,32.30769230769231,NA,NA
35031,Blount County,AL,78.68131868131869,NA,88.32599118942731
35124,Shelby County,AL,NA,38.19444444444444,NA
35242,Shelby County,AL,33.84615384615385,NA,NA
35601,Morgan County,AL,NA,NA,31.938325991189426
35613,Limestone County,AL,45.27472527472528,NA,NA
35630,Lauderdale County,AL,32.747252747252745,NA,NA
35810,Madison County,AL,NA,23.09027777777778,NA
35904,Etowah County,AL,50.10989010989011,NA,NA
35906,Etowah County,AL,91.20879120879121,NA,NA
35954,Etowah County,AL,NA,59.72222222222222,NA
36117,Montgomery County,AL,35.824175824175825,NA,NA
36203,Calhoun County,AL,NA,56.59722222222222,NA
36532,Baldwin County,AL,NA,NA,26.21145374449339
36582,Mobile County,AL,NA,52.25694444444444,NA
36608,Mobile County,AL,NA,84.02777777777779,NA
36693,Mobile County,AL,59.78021978021978,NA,NA
36744,Hale County,AL,79.12087912087912,NA,NA
99669,Kenai Peninsula Borough,AK,74.72527472527473,NA,NA
85006,Maricopa County,AZ,NA,46.35416666666667,NA
85009,Maricopa County,AZ,NA,28.47222222222222,NA
85016,Maricopa County,AZ,NA,NA,70.26431718061674
85018,Maricopa County,AZ,NA,40.625,NA
85020,Maricopa County,AZ,NA,NA,49.55947136563877
85022,Maricopa County,AZ,NA,29.51388888888889,NA
85024,Maricopa County,AZ,NA,NA,95.59471365638767
85037,Maricopa County,AZ,NA,NA,79.73568281938326
85042,Maricopa County,AZ,27.912087912087912,NA,NA
85048,Maricopa County,AZ,NA,NA,86.34361233480176
85051,Maricopa County,AZ,NA,38.54166666666667,NA
85122,Pinal County,AZ,34.72527472527472,NA,NA
85123,Pinal County,AZ,74.28571428571429,NA,NA
85142,Maricopa County,AZ,NA,NA,65.63876651982379
85201,Maricopa County,AZ,15.164835164835164,34.02777777777778,NA
85204,Maricopa County,AZ,48.13186813186813,30.03472222222222,NA
85208,Maricopa County,AZ,NA,39.93055555555556,27.312775330396477
85213,Maricopa County,AZ,63.95604395604395,NA,70.70484581497797
85234,Maricopa County,AZ,NA,59.375,NA
85248,Maricopa County,AZ,NA,NA,34.36123348017621
85263,Maricopa County,AZ,NA,NA,95.37444933920705
85282,Maricopa County,AZ,NA,47.74305555555556,NA
85301,Maricopa County,AZ,NA,NA,29.735682819383257
85302,Maricopa County,AZ,NA,28.125,NA
85326,Maricopa County,AZ,NA,45.48611111111111,NA
85350,Yuma County,AZ,56.043956043956044,NA,NA
85373,Maricopa County,AZ,NA,NA,20.26431718061674
85375,Maricopa County,AZ,NA,NA,1.762114537444934
85382,Maricopa County,AZ,NA,46.70138888888889,NA
85392,Maricopa County,AZ,59.34065934065934,NA,NA
85602,Cochise County,AZ,NA,86.63194444444444,NA
85653,Pima County,AZ,39.34065934065934,NA,NA
85658,Pima County,AZ,NA,69.79166666666666,NA
85710,Pima County,AZ,NA,17.881944444444446,NA
85718,Pima County,AZ,NA,NA,22.24669603524229
85737,Pima County,AZ,NA,NA,45.15418502202643
85739,Pinal County,AZ,NA,29.86111111111111,NA
86335,Yavapai County,AZ,98.46153846153847,NA,NA
86403,Mohave County,AZ,51.208791208791204,NA,NA
71901,Garland County,AR,52.74725274725275,NA,NA
72010,White County,AR,NA,88.88888888888889,NA
72103,Saline County,AR,NA,71.35416666666666,NA
72160,Arkansas County,AR,75.6043956043956,NA,NA
72404,Craighead County,AR,55.38461538461539,NA,NA
72450,Greene County,AR,NA,26.38888888888889,NA
72501,Independence County,AR,NA,NA,31.277533039647576
72687,Marion County,AR,92.3076923076923,NA,NA
72753,Washington County,AR,NA,NA,98.45814977973568
72903,Sebastian County,AR,NA,NA,57.9295154185022
72921,Crawford County,AR,NA,84.54861111111111,NA
90024,Los Angeles County,CA,NA,NA,8.149779735682818
90025,Los Angeles County,CA,NA,36.45833333333333,NA
90026,Los Angeles County,CA,NA,40.625,NA
90045,Los Angeles County,CA,NA,60.06944444444444,NA
90047,Los Angeles County,CA,16.7032967032967,NA,NA
90057,Los Angeles County,CA,71.64835164835165,NA,61.45374449339207
90061,Los Angeles County,CA,72.74725274725274,77.25694444444444,NA
90210,Los Angeles County,CA,NA,NA,21.58590308370044
90221,Los Angeles County,CA,NA,37.5,NA
90222,Los Angeles County,CA,NA,NA,91.40969162995594
90232,Los Angeles County,CA,96.04395604395604,NA,NA
90255,Los Angeles County,CA,NA,68.22916666666666,NA
90277,Los Angeles County,CA,NA,33.33333333333333,NA
90278,Los Angeles County,CA,NA,57.986111111111114,NA
90280,Los Angeles County,CA,33.62637362637363,NA,NA
90291,Los Angeles County,CA,NA,62.84722222222222,NA
90292,Los Angeles County,CA,NA,88.19444444444444,44.052863436123346
90301,Los Angeles County,CA,36.92307692307693,NA,NA
90601,Los Angeles County,CA,58.681318681318686,NA,NA
90602,Los Angeles County,CA,66.8131868131868,NA,NA
90630,Orange County,CA,NA,22.743055555555554,NA
90631,Orange County,CA,NA,18.055555555555554,NA
90703,Los Angeles County,CA,NA,34.375,37.22466960352423
90802,Los Angeles County,CA,NA,73.4375,NA
90808,Los Angeles County,CA,61.75824175824176,NA,NA
91103,Los Angeles County,CA,78.9010989010989,NA,NA
91107,Los Angeles County,CA,NA,53.81944444444444,NA
91202,Los Angeles County,CA,NA,73.09027777777779,NA
91303,Los Angeles County,CA,NA,89.93055555555556,NA
91324,Los Angeles County,CA,NA,NA,82.59911894273128
91331,Los Angeles County,CA,43.73626373626374,NA,NA
91355,Los Angeles County,CA,NA,55.03472222222222,NA
91387,Los Angeles County,CA,49.01098901098901,NA,NA
91402,Los Angeles County,CA,29.010989010989015,NA,NA
91406,Los Angeles County,CA,NA,NA,57.048458149779734
91706,Los Angeles County,CA,27.252747252747252,NA,NA
91709,San Bernardino County,CA,NA,28.819444444444443,NA
91731,Los Angeles County,CA,NA,64.0625,NA
91732,Los Angeles County,CA,NA,32.11805555555556,NA
91744,Los Angeles County,CA,NA,27.95138888888889,NA
91761,San Bernardino County,CA,NA,NA,84.36123348017621
91762,San Bernardino County,CA,NA,51.90972222222222,NA
91765,Los Angeles County,CA,69.01098901098901,NA,NA
91790,Los Angeles County,CA,NA,55.55555555555556,NA
91910,San Diego County,CA,NA,NA,12.114537444933921
91911,San Diego County,CA,25.054945054945055,NA,NA
91977,San Diego County,CA,37.362637362637365,NA,NA
92021,San Diego County,CA,NA,13.88888888888889,NA
92027,San Diego County,CA,NA,51.736111111111114,NA
92040,San Diego County,CA,NA,27.77777777777778,NA
92056,San Diego County,CA,58.46153846153847,NA,NA
92078,San Diego County,CA,NA,52.604166666666664,NA
92102,San Diego County,CA,40.65934065934066,NA,77.97356828193833
92111,San Diego County,CA,NA,56.423611111111114,NA
92122,San Diego County,CA,NA,72.39583333333334,NA
92154,San Diego County,CA,39.78021978021978,NA,NA
92210,Riverside County,CA,NA,NA,58.14977973568281
92236,Riverside County,CA,48.35164835164835,NA,NA
92240,Riverside County,CA,22.857142857142858,NA,NA
92277,San Bernardino County,CA,NA,95.48611111111111,NA
92335,San Bernardino County,CA,NA,15.972222222222221,NA
92399,San Bernardino County,CA,NA,21.180555555555554,NA
92503,Riverside County,CA,20.21978021978022,NA,42.731277533039645
92505,Riverside County,CA,52.087912087912095,NA,75.1101321585903
92530,Riverside County,CA,NA,NA,80.83700440528634
92563,Riverside County,CA,NA,43.92361111111111,NA
92570,Riverside County,CA,NA,48.26388888888889,NA
92630,Orange County,CA,NA,18.92361111111111,30.176211453744493
92646,Orange County,CA,NA,NA,8.81057268722467
92651,Orange County,CA,NA,50.173611111111114,NA
92677,Orange County,CA,NA,NA,24.44933920704846
92679,Orange County,CA,NA,67.01388888888889,NA
92804,Orange County,CA,NA,20.13888888888889,NA
92805,Orange County,CA,27.472527472527474,45.3125,NA
92841,Orange County,CA,NA,70.13888888888889,NA
92882,Riverside County,CA,31.428571428571427,NA,NA
92886,Orange County,CA,32.527472527472526,NA,NA
93060,Ventura County,CA,38.46153846153847,NA,NA
93215,Kern County,CA,NA,96.35416666666666,NA
93241,Kern County,CA,95.6043956043956,NA,NA
93307,Kern County,CA,NA,NA,54.62555066079295
93311,Kern County,CA,64.3956043956044,NA,NA
93422,San Luis Obispo County,CA,NA,49.13194444444444,NA
93463,Santa Barbara County,CA,NA,NA,98.89867841409692
93622,Fresno County,CA,98.02197802197801,NA,NA
93662,Fresno County,CA,NA,94.27083333333334,NA
93726,Fresno County,CA,21.978021978021978,NA,NA
94123,San Francisco County,CA,66.15384615384615,NA,NA
94506,Contra Costa County,CA,NA,NA,83.03964757709251
94520,Contra Costa County,CA,NA,67.88194444444444,NA
94530,Contra Costa County,CA,NA,66.14583333333334,NA
94559,Napa County,CA,65.71428571428571,NA,NA
94587,Alameda County,CA,NA,23.61111111111111,NA
94705,Alameda County,CA,NA,93.40277777777779,NA
95051,Santa Clara County,CA,NA,56.25,NA
95076,Santa Cruz County,CA,NA,18.75,NA
95124,Santa Clara County,CA,NA,39.40972222222222,NA
95240,San Joaquin County,CA,NA,48.61111111111111,NA
95320,San Joaquin County,CA,75.82417582417582,NA,NA
95327,Tuolumne County,CA,NA,NA,44.713656387665196
95334,Merced County,CA,NA,NA,96.69603524229075
95350,Stanislaus County,CA,NA,73.26388888888889,NA
95351,Stanislaus County,CA,21.75824175824176,NA,NA
95355,Stanislaus County,CA,NA,63.888888888888886,NA
95357,Stanislaus County,CA,NA,NA,95.15418502202643
95358,Stanislaus County,CA,NA,54.513888888888886,NA
95608,Sacramento County,CA,NA,20.65972222222222,NA
95648,Placer County,CA,NA,NA,9.47136563876652
95662,Sacramento County,CA,NA,NA,41.629955947136565
95667,El Dorado County,CA,34.285714285714285,NA,NA
95742,Sacramento County,CA,NA,99.30555555555556,NA
95746,Placer County,CA,NA,NA,76.2114537444934
95762,El Dorado County,CA,NA,NA,43.61233480176212
95765,Placer County,CA,NA,NA,70.70484581497797
95822,Sacramento County,CA,42.417582417582416,NA,NA
95835,Sacramento County,CA,NA,96.875,NA
95841,Sacramento County,CA,86.5934065934066,NA,NA
95901,Yuba County,CA,24.835164835164836,NA,NA
80003,Jefferson County,CO,50.32967032967033,NA,NA
80011,Arapahoe County,CO,9.6703296703296715,NA,NA
80113,Arapahoe County,CO,62.637362637362635,NA,NA
80123,Jefferson County,CO,NA,56.94444444444444,73.7885462555066
80126,Douglas County,CO,56.48351648351648,NA,NA
80215,Jefferson County,CO,68.79120879120879,NA,NA
80229,Adams County,CO,NA,44.27083333333333,NA
80234,Adams County,CO,NA,71.875,NA
80303,Boulder County,CO,NA,74.13194444444444,NA
80504,Boulder County,CO,68.57142857142857,NA,NA
80517,Larimer County,CO,NA,51.5625,NA
80524,Larimer County,CO,NA,NA,45.37444933920705
80525,Larimer County,CO,NA,10.590277777777777,NA
80620,Weld County,CO,48.57142857142857,NA,NA
80634,Weld County,CO,3.9560439560439558,16.145833333333336,NA
80751,Logan County,CO,76.703296703296715,NA,NA
80903,El Paso County,CO,39.56043956043956,NA,NA
80905,El Paso County,CO,NA,82.63888888888889,NA
80906,El Paso County,CO,NA,41.84027777777778,NA
80909,El Paso County,CO,NA,NA,32.158590308370044
81001,Pueblo County,CO,NA,NA,57.70925110132159
81005,Pueblo County,CO,NA,NA,38.76651982378855
81007,Pueblo County,CO,NA,43.22916666666667,NA
81067,Otero County,CO,98.24175824175823,NA,NA
81082,Las Animas County,CO,NA,80.20833333333334,NA
81301,La Plata County,CO,92.08791208791209,NA,NA
81321,Montezuma County,CO,NA,NA,51.76211453744494
81401,Montrose County,CO,NA,42.36111111111111,NA
81503,Mesa County,CO,67.6923076923077,NA,NA
81521,Mesa County,CO,NA,NA,77.75330396475772
81625,Moffat County,CO,42.637362637362635,NA,NA
06062,Hartford County,CT,62.1978021978022,NA,NA
06070,Hartford County,CT,NA,87.15277777777779,NA
06250,Tolland County,CT,96.92307692307692,NA,NA
06422,Middlesex County,CT,87.03296703296704,NA,NA
06471,New Haven County,CT,NA,NA,72.90748898678414
06473,New Haven County,CT,NA,NA,24.229074889867842
06492,New Haven County,CT,21.53846153846154,NA,NA
06606,Fairfield County,CT,NA,34.20138888888889,NA
06611,Fairfield County,CT,NA,NA,33.70044052863436
06770,New Haven County,CT,25.71428571428571,NA,NA
06795,Litchfield County,CT,NA,61.63194444444444,NA
06801,Fairfield County,CT,NA,NA,68.72246696035242
06877,Fairfield County,CT,NA,65.79861111111111,NA
19701,New Castle County,DE,NA,18.40277777777778,47.57709251101321
19702,New Castle County,DE,NA,19.09722222222222,57.268722466960355
19808,New Castle County,DE,NA,NA,8.370044052863436
19938,Kent County,DE,NA,65.97222222222221,NA
19940,Sussex County,DE,NA,93.22916666666666,NA
19941,Sussex County,DE,97.14285714285714,NA,NA
19950,Sussex County,DE,NA,85.41666666666666,NA
19968,Sussex County,DE,NA,48.4375,NA
32038,Columbia County,FL,NA,NA,93.17180616740089
32063,Baker County,FL,NA,85.59027777777779,NA
32064,Suwannee County,FL,NA,NA,83.70044052863436
32081,St. Johns County,FL,NA,NA,79.73568281938326
32082,St. Johns County,FL,NA,31.944444444444443,64.75770925110133
32114,Volusia County,FL,NA,NA,57.48898678414097
32118,Volusia County,FL,83.73626373626374,NA,NA
32127,Volusia County,FL,NA,NA,67.18061674008811
32141,Volusia County,FL,NA,NA,46.035242290748904
32159,Lake County,FL,NA,24.82638888888889,NA
32164,Flagler County,FL,NA,NA,13.656387665198238
32205,Duval County,FL,28.57142857142857,NA,NA
32208,Duval County,FL,1.7582417582417582,NA,NA
32209,Duval County,FL,NA,NA,15.859030837004406
32210,Duval County,FL,NA,NA,11.233480176211454
32225,Duval County,FL,30.98901098901099,NA,NA
32233,Duval County,FL,42.857142857142854,NA,NA
32311,Leon County,FL,NA,NA,93.17180616740089
32312,Leon County,FL,87.03296703296704,NA,NA
32344,Jefferson County,FL,NA,93.75,NA
32505,Escambia County,FL,NA,9.722222222222223,35.02202643171806
32539,Okaloosa County,FL,43.51648351648352,NA,NA
32570,Santa Rosa County,FL,12.747252747252746,NA,NA
32621,Levy County,FL,NA,90.97222222222221,NA
32708,Seminole County,FL,50.54945054945055,NA,NA
32725,Volusia County,FL,69.67032967032966,NA,NA
32738,Volusia County,FL,NA,37.84722222222222,NA
32803,Orange County,FL,NA,76.04166666666666,NA
32805,Orange County,FL,35.16483516483517,NA,NA
32806,Orange County,FL,NA,84.20138888888889,NA
32819,Orange County,FL,NA,NA,66.51982378854625
32820,Orange County,FL,NA,98.95833333333334,NA
32832,Orange County,FL,88.35164835164835,NA,NA
32904,Brevard County,FL,54.285714285714285,NA,NA
32922,Brevard County,FL,NA,NA,60.792951541850215
32952,Brevard County,FL,NA,NA,20.704845814977972
32955,Brevard County,FL,NA,63.71527777777778,NA
32958,Indian River County,FL,NA,NA,7.268722466960352
32962,Indian River County,FL,NA,NA,26.87224669603524
32966,Indian River County,FL,NA,NA,18.06167400881057
32967,Indian River County,FL,53.18681318681319,NA,NA
32968,Indian River County,FL,NA,64.93055555555556,NA
33009,Broward County,FL,NA,NA,44.49339207048458
33012,Miami-Dade County,FL,NA,24.305555555555554,NA
33034,Miami-Dade County,FL,NA,90.45138888888889,NA
33040,Monroe County,FL,NA,NA,66.74008810572687
33054,Miami-Dade County,FL,NA,78.125,NA
33062,Broward County,FL,NA,NA,3.9647577092511015
33066,Broward County,FL,NA,NA,20.704845814977972
33142,Miami-Dade County,FL,18.9010989010989,NA,NA
33154,Miami-Dade County,FL,NA,NA,33.92070484581498
33157,Miami-Dade County,FL,NA,23.4375,NA
33160,Miami-Dade County,FL,NA,NA,18.722466960352424
33166,Miami-Dade County,FL,NA,57.46527777777778,NA
33169,Miami-Dade County,FL,NA,NA,64.09691629955947
33174,Miami-Dade County,FL,NA,NA,18.28193832599119
33175,Miami-Dade County,FL,NA,64.75694444444444,NA
33183,Miami-Dade County,FL,NA,NA,41.409691629955944
33186,Miami-Dade County,FL,NA,32.98611111111111,NA
33322,Broward County,FL,72.08791208791209,NA,NA
33323,Broward County,FL,NA,81.25,NA
33324,Broward County,FL,NA,97.56944444444444,NA
33326,Broward County,FL,NA,64.58333333333334,NA
33411,Palm Beach County,FL,NA,22.569444444444446,NA
33418,Palm Beach County,FL,58.24175824175825,NA,NA
33431,Palm Beach County,FL,NA,NA,62.55506607929515
33461,Palm Beach County,FL,62.417582417582416,NA,NA
33609,Hillsborough County,FL,78.24175824175825,NA,NA
33618,Hillsborough County,FL,NA,NA,36.784140969163
33647,Hillsborough County,FL,NA,47.39583333333333,NA
33711,Pinellas County,FL,60,NA,NA
33756,Pinellas County,FL,NA,NA,37.44493392070485
33763,Pinellas County,FL,NA,NA,44.27312775330397
33771,Pinellas County,FL,49.67032967032967,33.85416666666667,25.770925110132158
33801,Polk County,FL,NA,NA,58.370044052863435
33811,Polk County,FL,70.76923076923077,75.69444444444444,NA
33853,Polk County,FL,NA,NA,84.14096916299559
33896,Polk County,FL,90.32967032967034,NA,NA
33908,Lee County,FL,NA,4.6875,NA
33954,Charlotte County,FL,93.4065934065934,NA,NA
33955,Charlotte County,FL,NA,NA,82.15859030837004
33966,Lee County,FL,NA,NA,86.12334801762115
33993,Lee County,FL,54.94505494505495,NA,NA
34108,Collier County,FL,NA,60.763888888888886,NA
34110,Collier County,FL,NA,55.729166666666664,NA
34203,Manatee County,FL,NA,NA,54.18502202643172
34208,Manatee County,FL,NA,53.298611111111114,67.40088105726872
34209,Manatee County,FL,NA,23.78472222222222,NA
34238,Sarasota County,FL,NA,NA,34.58149779735683
34239,Sarasota County,FL,NA,76.21527777777779,NA
34243,Manatee County,FL,NA,26.041666666666668,8.590308370044053
34251,Manatee County,FL,98.9010989010989,NA,NA
34286,Sarasota County,FL,NA,62.5,NA
34292,Sarasota County,FL,NA,53.47222222222222,NA
34484,Sumter County,FL,NA,NA,94.93392070484582
34491,Marion County,FL,64.61538461538461,NA,NA
34606,Hernando County,FL,47.25274725274725,NA,NA
34608,Hernando County,FL,NA,NA,47.797356828193834
34613,Hernando County,FL,NA,34.54861111111111,NA
34655,Pasco County,FL,NA,26.90972222222222,NA
34669,Pasco County,FL,80.21978021978022,NA,NA
34711,Lake County,FL,NA,NA,5.066079295154185
34744,Osceola County,FL,NA,39.0625,NA
34769,Osceola County,FL,51.42857142857142,NA,NA
34950,St. Lucie County,FL,NA,54.6875,NA
34972,Okeechobee County,FL,62.857142857142854,NA,NA
34990,Martin County,FL,NA,NA,4.185022026431718
34994,Martin County,FL,NA,53.47222222222222,NA
30009,Fulton County,GA,NA,NA,77.5330396475771
30013,Rockdale County,GA,NA,66.84027777777779,NA
30041,Forsyth County,GA,30.32967032967033,NA,NA
30044,Gwinnett County,GA,NA,14.583333333333334,NA
30046,Gwinnett County,GA,53.84615384615385,NA,NA
30064,Cobb County,GA,NA,35.41666666666667,NA
30066,Cobb County,GA,NA,67.53472222222221,NA
30092,Gwinnett County,GA,88.13186813186813,NA,NA
30127,Cobb County,GA,NA,32.29166666666667,NA
30157,Paulding County,GA,NA,27.256944444444443,NA
30165,Floyd County,GA,27.032967032967033,NA,NA
30184,Bartow County,GA,NA,NA,97.79735682819384
30187,Douglas County,GA,80.21978021978022,NA,NA
30189,Cherokee County,GA,NA,52.77777777777778,NA
30214,Fayette County,GA,NA,NA,42.070484581497794
30215,Fayette County,GA,NA,NA,45.59471365638766
30248,Henry County,GA,NA,65.625,NA
30309,Fulton County,GA,NA,NA,92.51101321585902
30314,Fulton County,GA,NA,NA,84.36123348017621
30318,Fulton County,GA,30.54945054945055,NA,NA
30327,Fulton County,GA,NA,NA,63.21585903083701
30339,Cobb County,GA,NA,86.45833333333334,NA
30345,DeKalb County,GA,NA,82.98611111111111,NA
30442,Jenkins County,GA,NA,83.68055555555556,NA
30554,Hall County,GA,NA,NA,98.6784140969163
30601,Clarke County,GA,70.54945054945055,74.65277777777779,NA
30655,Walton County,GA,NA,NA,60.792951541850215
30683,Clarke County,GA,NA,NA,87.44493392070484
30721,Whitfield County,GA,25.934065934065938,NA,NA
30741,Walker County,GA,NA,NA,52.6431718061674
30809,Columbia County,GA,NA,12.152777777777777,NA
30815,Richmond County,GA,21.318681318681318,NA,NA
31024,Putnam County,GA,NA,41.49305555555556,NA
31087,Hancock County,GA,NA,95.3125,NA
31329,Effingham County,GA,93.84615384615384,NA,NA
31405,Chatham County,GA,NA,39.93055555555556,NA
31513,Appling County,GA,71.42857142857143,NA,NA
31533,Coffee County,GA,NA,73.61111111111111,NA
31794,Tift County,GA,29.89010989010989,NA,NA
39840,Randolph County,GA,NA,94.09722222222221,NA
39845,Seminole County,GA,79.78021978021978,NA,NA
83301,Twin Falls County,ID,NA,NA,0.22026431718061676
83642,Ada County,ID,NA,7.291666666666667,NA
83651,Canyon County,ID,NA,NA,50.881057268722465
83704,Ada County,ID,NA,2.256944444444444,NA
83705,Ada County,ID,65.27472527472527,NA,NA
83709,Ada County,ID,16.043956043956044,NA,NA
83814,Kootenai County,ID,NA,NA,32.378854625550666
83815,Kootenai County,ID,37.582417582417584,NA,17.400881057268723
83835,Kootenai County,ID,83.95604395604396,NA,NA
83854,Kootenai County,ID,81.97802197802197,NA,NA
60007,Cook County,IL,NA,NA,66.07929515418502
60051,McHenry County,IL,NA,NA,38.54625550660793
60067,Cook County,IL,NA,NA,15.198237885462554
60068,Cook County,IL,NA,NA,23.127753303964756
60115,DeKalb County,IL,NA,NA,29.515418502202646
60126,DuPage County,IL,12.307692307692308,NA,NA
60142,McHenry County,IL,NA,NA,2.8634361233480177
60175,Kane County,IL,30.10989010989011,34.89583333333333,NA
60191,DuPage County,IL,NA,55.90277777777778,NA
60193,Cook County,IL,42.1978021978022,NA,NA
60194,Cook County,IL,78.02197802197803,62.15277777777778,NA
60402,Cook County,IL,NA,41.66666666666667,NA
60411,Cook County,IL,NA,10.243055555555555,21.145374449339208
60415,Cook County,IL,NA,78.81944444444444,NA
60419,Cook County,IL,NA,37.15277777777778,NA
60423,Will County,IL,44.61538461538462,NA,NA
60425,Cook County,IL,NA,77.77777777777779,NA
60426,Cook County,IL,NA,25.34722222222222,NA
60432,Will County,IL,61.53846153846154,NA,NA
60465,Cook County,IL,54.72527472527473,87.32638888888889,NA
60487,Cook County,IL,NA,79.16666666666666,NA
60517,DuPage County,IL,NA,NA,48.23788546255506
60563,DuPage County,IL,50.76923076923077,NA,NA
60601,Cook County,IL,NA,91.84027777777779,NA
60609,Cook County,IL,NA,17.36111111111111,NA
60617,Cook County,IL,NA,NA,2.643171806167401
60620,Cook County,IL,9.230769230769232,NA,NA
60624,Cook County,IL,16.483516483516482,NA,NA
60626,Cook County,IL,NA,NA,61.23348017621145
60634,Cook County,IL,NA,76.90972222222221,NA
60643,Cook County,IL,NA,26.21527777777778,NA
60647,Cook County,IL,NA,20.833333333333336,NA
60655,Cook County,IL,31.208791208791208,NA,NA
60657,Cook County,IL,NA,12.67361111111111,NA
60707,Cook County,IL,20.659340659340657,NA,10.572687224669604
60901,Kankakee County,IL,NA,NA,10.79295154185022
60914,Kankakee County,IL,NA,21.006944444444446,27.75330396475771
61008,Boone County,IL,NA,NA,72.02643171806167
61073,Winnebago County,IL,NA,NA,52.863436123348016
61101,Winnebago County,IL,53.40659340659341,NA,NA
61107,Winnebago County,IL,NA,32.8125,NA
61108,Winnebago County,IL,60.879120879120876,NA,NA
61111,Winnebago County,IL,NA,57.291666666666664,NA
61364,LaSalle County,IL,60.65934065934066,NA,NA
61443,Henry County,IL,NA,NA,25.55066079295154
61520,Fulton County,IL,NA,NA,72.4669603524229
61614,Peoria County,IL,78.24175824175825,NA,NA
61701,McLean County,IL,67.91208791208791,NA,NA
61822,Champaign County,IL,NA,85.06944444444444,NA
61832,Vermilion County,IL,NA,9.895833333333332,NA
62226,St. Clair County,IL,47.69230769230769,NA,NA
62249,Madison County,IL,NA,71.52777777777779,NA
62565,Shelby County,IL,86.5934065934066,NA,NA
62650,Morgan County,IL,82.63736263736263,NA,37.00440528634361
62704,Sangamon County,IL,NA,NA,14.977973568281937
46062,Hamilton County,IN,NA,NA,47.136563876651984
46135,Putnam County,IN,NA,NA,39.86784140969163
46143,Johnson County,IN,NA,NA,6.167400881057269
46218,Marion County,IN,NA,79.86111111111111,NA
46241,Marion County,IN,21.0989010989011,NA,NA
46254,Marion County,IN,NA,30.90277777777778,NA
46307,Lake County,IN,NA,NA,3.303964757709251
46350,LaPorte County,IN,NA,NA,19.383259911894275
46394,Lake County,IN,NA,57.8125,NA
46410,Lake County,IN,NA,3.4722222222222223,NA
46511,Marshall County,IN,NA,NA,90.52863436123349
46514,Elkhart County,IN,NA,NA,48.458149779735685
46526,Elkhart County,IN,NA,NA,42.290748898678416
46530,St. Joseph County,IN,NA,70.65972222222221,NA
46544,St. Joseph County,IN,NA,59.895833333333336,NA
46554,St. Joseph County,IN,NA,99.82638888888889,NA
46567,Kosciusko County,IN,NA,85.76388888888889,NA
46619,St. Joseph County,IN,NA,71.70138888888889,NA
46725,Whitley County,IN,NA,22.916666666666664,NA
46804,Allen County,IN,49.45054945054945,NA,NA
46901,Howard County,IN,2.417582417582418,NA,NA
47126,Clark County,IN,99.12087912087912,NA,NA
47374,Wayne County,IN,6.593406593406594,NA,NA
47394,Randolph County,IN,NA,90.625,NA
47601,Warrick County,IN,NA,43.75,NA
47711,Vanderburgh County,IN,NA,28.993055555555557,NA
47805,Vigo County,IN,NA,80.90277777777779,NA
47933,Montgomery County,IN,NA,47.91666666666667,NA
47978,Jasper County,IN,NA,72.91666666666666,NA
50208,Jasper County,IA,NA,NA,48.89867841409692
50220,Dallas County,IA,NA,NA,90.08810572687224
50273,Madison County,IA,NA,NA,83.25991189427313
50428,Cerro Gordo County,IA,NA,NA,92.73127753303964
50511,Kossuth County,IA,NA,81.42361111111111,NA
50659,Chickasaw County,IA,94.5054945054945,NA,NA
51103,Woodbury County,IA,NA,69.96527777777779,NA
52001,Dubuque County,IA,NA,25.17361111111111,NA
52002,Dubuque County,IA,NA,NA,80.61674008810573
52310,Jones County,IA,NA,94.61805555555556,NA
52732,Clinton County,IA,22.41758241758242,NA,NA
52807,Scott County,IA,NA,87.67361111111111,NA
66032,Anderson County,KS,NA,89.0625,NA
66046,Douglas County,KS,NA,NA,91.18942731277532
66048,Leavenworth County,KS,NA,NA,36.56387665198238
66062,Johnson County,KS,NA,NA,19.60352422907489
66071,Miami County,KS,77.36263736263737,NA,NA
66109,Wyandotte County,KS,57.802197802197796,NA,NA
66202,Johnson County,KS,NA,NA,71.80616740088107
66212,Johnson County,KS,61.0989010989011,NA,NA
66213,Johnson County,KS,NA,NA,62.99559471365639
66215,Johnson County,KS,NA,44.96527777777778,NA
66224,Johnson County,KS,NA,91.49305555555556,NA
66436,Jackson County,KS,94.94505494505493,NA,NA
66614,Shawnee County,KS,NA,NA,16.740088105726873
67010,Butler County,KS,NA,91.66666666666666,NA
67042,Butler County,KS,NA,NA,55.50660792951542
67212,Sedgwick County,KS,66.37362637362637,NA,NA
67801,Ford County,KS,NA,66.66666666666666,NA
67880,Grant County,KS,95.38461538461539,NA,NA
67901,Seward County,KS,NA,NA,85.02202643171806
40014,Oldham County,KY,NA,70.48611111111111,NA
40165,Bullitt County,KY,15.604395604395604,NA,NA
40207,Jefferson County,KY,NA,NA,37.44493392070485
40212,Jefferson County,KY,NA,76.73611111111111,NA
40213,Jefferson County,KY,NA,51.041666666666664,NA
40324,Scott County,KY,14.725274725274726,NA,NA
40508,Fayette County,KY,NA,72.39583333333334,NA
40729,Laurel County,KY,NA,NA,100
41017,Kenton County,KY,33.4065934065934,NA,NA
41031,Harrison County,KY,NA,NA,63.87665198237885
41091,Boone County,KY,NA,72.74305555555556,NA
41175,Greenup County,KY,NA,90.625,NA
41301,Wolfe County,KY,76.04395604395604,NA,NA
41339,Breathitt County,KY,NA,NA,75.77092511013215
42001,McCracken County,KY,NA,21.70138888888889,NA
42211,Trigg County,KY,65.93406593406593,NA,NA
42301,Daviess County,KY,NA,10.069444444444445,NA
42303,Daviess County,KY,NA,19.618055555555554,NA
42327,McLean County,KY,95.82417582417582,NA,NA
42420,Henderson County,KY,11.428571428571429,NA,NA
42701,Hardin County,KY,NA,9.375,NA
70037,Plaquemines Parish,LA,46.15384615384615,NA,NA
70053,Jefferson Parish,LA,90.10989010989012,NA,NA
70115,Orleans Parish,LA,NA,24.479166666666664,NA
70131,Orleans Parish,LA,NA,NA,51.3215859030837
70301,Lafourche Parish,LA,NA,NA,16.299559471365637
70345,Lafourche Parish,LA,53.62637362637363,NA,NA
70364,Terrebonne Parish,LA,9.89010989010989,NA,NA
70380,St. Mary Parish,LA,NA,31.59722222222222,NA
70403,Tangipahoa Parish,LA,NA,31.25,NA
70433,St. Tammany Parish,LA,91.86813186813187,NA,NA
70435,St. Tammany Parish,LA,97.8021978021978,NA,NA
70460,St. Tammany Parish,LA,13.626373626373626,NA,NA
70570,St. Landry Parish,LA,NA,10.9375,NA
70582,St. Martin Parish,LA,31.868131868131865,NA,NA
70605,Calcasieu Parish,LA,NA,NA,35.68281938325991
70791,East Baton Rouge Parish,LA,NA,NA,74.00881057268722
71106,Caddo Parish,LA,8.35164835164835,NA,NA
71282,Madison Parish,LA,NA,NA,91.85022026431719
71295,Franklin Parish,LA,18.461538461538463,NA,NA
71334,Concordia Parish,LA,NA,84.72222222222221,NA
71418,Caldwell Parish,LA,NA,81.07638888888889,NA
71435,Caldwell Parish,LA,99.78021978021978,NA,NA
04079,Cumberland County,ME,NA,NA,74.22907488986785
04102,Cumberland County,ME,36.7032967032967,NA,65.19823788546255
04250,Androscoggin County,ME,NA,98.61111111111111,NA
04462,Penobscot County,ME,NA,NA,72.24669603524228
04609,Hancock County,ME,NA,NA,85.90308370044053
04730,Aroostook County,ME,NA,52.43055555555556,NA
04901,Kennebec County,ME,6.813186813186813,NA,NA
04976,Somerset County,ME,51.64835164835166,NA,NA
20705,Prince George's County,MD,NA,78.64583333333334,NA
20708,Prince George's County,MD,82.41758241758241,NA,NA
20747,Prince George's County,MD,51.868131868131876,NA,NA
20781,Prince George's County,MD,NA,NA,99.77973568281938
20785,Prince George's County,MD,NA,NA,73.12775330396477
20816,Montgomery County,MD,NA,NA,80.39647577092511
20872,Montgomery County,MD,NA,98.4375,NA
21045,Howard County,MD,NA,74.30555555555556,NA
21093,Baltimore County,MD,NA,NA,40.52863436123348
21502,Allegany County,MD,NA,NA,7.929515418502203
21921,Cecil County,MD,NA,5.208333333333334,NA
01056,Hampden County,MA,NA,NA,12.334801762114537
01089,Hampden County,MA,NA,30.381944444444443,NA
01420,Worcester County,MA,NA,0.6944444444444444,5.947136563876652
01432,Middlesex County,MA,98.68131868131869,NA,NA
01453,Worcester County,MA,NA,0.1736111111111111,NA
01510,Worcester County,MA,20.87912087912088,NA,NA
01571,Worcester County,MA,NA,64.40972222222221,NA
01603,Worcester County,MA,NA,1.5625,NA
01702,Middlesex County,MA,NA,NA,97.3568281938326
01742,Middlesex County,MA,58.02197802197803,NA,NA
01746,Middlesex County,MA,NA,NA,58.370044052863435
01760,Middlesex County,MA,NA,NA,41.18942731277533
01778,Middlesex County,MA,NA,51.041666666666664,NA
01824,Middlesex County,MA,11.20879120879121,NA,NA
01845,Essex County,MA,NA,47.04861111111111,25.33039647577093
01851,Middlesex County,MA,NA,NA,61.89427312775331
01852,Middlesex County,MA,0,NA,NA
01867,Middlesex County,MA,NA,9.027777777777777,NA
01887,Middlesex County,MA,9.010989010989011,NA,NA
01904,Essex County,MA,NA,NA,28.854625550660796
01915,Essex County,MA,NA,NA,1.5418502202643172
01945,Essex County,MA,NA,20.48611111111111,NA
01952,Essex County,MA,NA,98.26388888888889,NA
01969,Essex County,MA,NA,86.28472222222221,NA
01983,Essex County,MA,88.35164835164835,NA,NA
02026,Norfolk County,MA,NA,16.319444444444446,NA
02048,Bristol County,MA,NA,NA,38.986784140969164
02118,Suffolk County,MA,14.505494505494507,NA,NA
02125,Suffolk County,MA,0.43956043956043955,NA,NA
02139,Middlesex County,MA,NA,1.9097222222222223,NA
02149,Middlesex County,MA,25.274725274725274,NA,NA
02150,Suffolk County,MA,13.846153846153847,NA,NA
02169,Norfolk County,MA,0.6593406593406593,NA,NA
02176,Middlesex County,MA,NA,NA,14.317180616740089
02332,Plymouth County,MA,NA,67.70833333333334,NA
02338,Plymouth County,MA,85.27472527472527,NA,NA
02339,Plymouth County,MA,NA,71.875,NA
02364,Plymouth County,MA,56.48351648351648,NA,NA
02368,Norfolk County,MA,2.197802197802198,NA,NA
02460,Middlesex County,MA,NA,82.11805555555556,NA
02467,Norfolk County,MA,NA,NA,31.05726872246696
02468,Middlesex County,MA,90.98901098901099,NA,NA
02474,Middlesex County,MA,NA,NA,12.77533039647577
02494,Norfolk County,MA,NA,NA,47.136563876651984
02703,Bristol County,MA,1.098901098901099,NA,NA
48033,Oakland County,MI,NA,NA,24.669603524229075
48035,Macomb County,MI,NA,8.854166666666668,9.691629955947137
48036,Macomb County,MI,NA,NA,19.162995594713657
48038,Macomb County,MI,14.065934065934066,3.6458333333333335,NA
48040,St. Clair County,MI,NA,NA,83.92070484581498
48044,Macomb County,MI,10.10989010989011,NA,62.33480176211453
48060,St. Clair County,MI,4.615384615384616,NA,NA
48073,Oakland County,MI,65.05494505494505,NA,NA
48074,St. Clair County,MI,NA,NA,78.63436123348018
48081,Macomb County,MI,41.098901098901095,NA,16.519823788546255
48082,Macomb County,MI,80,37.5,NA
48093,Macomb County,MI,NA,38.71527777777778,NA
48098,Oakland County,MI,NA,36.63194444444444,NA
48101,Wayne County,MI,24.175824175824175,NA,NA
48103,Washtenaw County,MI,NA,0.5208333333333333,NA
48111,Wayne County,MI,NA,5.381944444444445,NA
48126,Wayne County,MI,NA,NA,15.418502202643172
48127,Wayne County,MI,NA,20.3125,NA
48146,Wayne County,MI,NA,NA,27.09251101321586
48154,Wayne County,MI,NA,NA,6.828193832599119
48166,Monroe County,MI,NA,38.36805555555556,NA
48167,Oakland County,MI,NA,28.125,NA
48169,Livingston County,MI,NA,NA,36.12334801762114
48178,Oakland County,MI,NA,12.5,NA
48182,Monroe County,MI,NA,43.57638888888889,NA
48183,Wayne County,MI,NA,5.555555555555555,NA
48184,Wayne County,MI,NA,25.694444444444443,NA
48188,Wayne County,MI,NA,6.944444444444445,NA
48198,Washtenaw County,MI,3.5164835164835164,NA,NA
48202,Wayne County,MI,NA,42.1875,NA
48204,Wayne County,MI,12.307692307692308,NA,NA
48212,Wayne County,MI,11.868131868131867,NA,NA
48220,Oakland County,MI,NA,NA,53.524229074889874
48225,Wayne County,MI,41.97802197802198,NA,NA
48227,Wayne County,MI,4.835164835164836,NA,NA
48235,Wayne County,MI,3.076923076923077,NA,NA
48240,Wayne County,MI,NA,61.111111111111114,NA
48307,Oakland County,MI,NA,NA,15.418502202643172
48309,Oakland County,MI,NA,28.645833333333332,25.991189427312776
48313,Macomb County,MI,NA,NA,22.46696035242291
48322,Oakland County,MI,NA,NA,4.405286343612335
48326,Oakland County,MI,NA,NA,68.28193832599119
48331,Oakland County,MI,NA,NA,29.955947136563875
48348,Oakland County,MI,38.02197802197802,47.22222222222222,NA
48360,Oakland County,MI,NA,68.05555555555556,NA
48371,Oakland County,MI,NA,NA,66.96035242290749
48383,Oakland County,MI,NA,98.78472222222221,NA
48430,Genesee County,MI,26.593406593406595,NA,NA
48433,Genesee County,MI,NA,61.80555555555556,NA
48462,Oakland County,MI,NA,79.34027777777779,NA
48504,Genesee County,MI,NA,46.00694444444444,NA
48601,Saginaw County,MI,NA,NA,6.607929515418502
48739,Iosco County,MI,88.79120879120879,NA,NA
48746,Tuscola County,MI,NA,79.6875,NA
48888,Montcalm County,MI,84.17582417582418,NA,NA
48917,Eaton County,MI,10.76923076923077,NA,NA
49015,Calhoun County,MI,NA,30.555555555555557,NA
49022,Berrien County,MI,NA,11.631944444444445,NA
49036,Branch County,MI,NA,64.23611111111111,NA
49107,Berrien County,MI,NA,NA,81.93832599118943
49120,Berrien County,MI,NA,53.99305555555556,16.96035242290749
49127,Berrien County,MI,82.19780219780219,NA,NA
49201,Jackson County,MI,NA,NA,37.88546255506608
49230,Jackson County,MI,NA,83.33333333333334,NA
49423,Ottawa County,MI,13.406593406593407,NA,NA
49441,Muskegon County,MI,NA,NA,40.7488986784141
49442,Muskegon County,MI,5.274725274725275,NA,NA
49460,Ottawa County,MI,NA,NA,92.07048458149781
49508,Kent County,MI,NA,NA,9.911894273127754
49519,Kent County,MI,NA,NA,35.46255506607929
49546,Kent County,MI,NA,NA,14.096916299559473
49617,Benzie County,MI,NA,97.39583333333334,NA
49631,Osceola County,MI,NA,71.18055555555556,NA
49738,Crawford County,MI,NA,NA,87.88546255506607
49855,Marquette County,MI,NA,16.666666666666664,NA
49868,Luce County,MI,NA,92.88194444444444,NA
55060,Steele County,MN,38.901098901098905,NA,NA
55063,Pine County,MN,NA,70.83333333333334,NA
55116,Ramsey County,MN,NA,NA,51.98237885462555
55124,Dakota County,MN,71.64835164835165,77.95138888888889,50.22026431718062
55311,Hennepin County,MN,NA,NA,78.8546255506608
55318,Carver County,MN,NA,92.01388888888889,NA
55337,Dakota County,MN,36.043956043956044,NA,NA
55355,Meeker County,MN,84.83516483516483,NA,NA
55364,Hennepin County,MN,83.07692307692308,NA,NA
55369,Hennepin County,MN,36.48351648351648,NA,NA
55406,Hennepin County,MN,NA,NA,71.36563876651982
55412,Hennepin County,MN,NA,39.58333333333333,NA
55431,Hennepin County,MN,64.61538461538461,NA,NA
55434,Anoka County,MN,NA,63.19444444444444,NA
55436,Hennepin County,MN,NA,88.54166666666666,NA
55746,St. Louis County,MN,NA,32.63888888888889,NA
55804,St. Louis County,MN,NA,NA,25.11013215859031
55807,St. Louis County,MN,NA,58.333333333333336,NA
56001,Blue Earth County,MN,67.47252747252747,NA,NA
56101,Cottonwood County,MN,72.52747252747253,NA,NA
56156,Rock County,MN,92.74725274725274,NA,NA
56258,Lyon County,MN,76.48351648351648,NA,NA
56265,Chippewa County,MN,NA,60.416666666666664,NA
56334,Pope County,MN,NA,NA,70.48458149779736
56401,Crow Wing County,MN,NA,3.8194444444444446,NA
56431,Aitkin County,MN,73.4065934065934,NA,NA
56444,Crow Wing County,MN,NA,NA,53.964757709251096
56464,Wadena County,MN,89.01098901098901,NA,NA
56571,Otter Tail County,MN,100,NA,NA
38860,Chickasaw County,MS,NA,95.13888888888889,NA
39069,Jefferson County,MS,83.51648351648352,NA,NA
39074,Scott County,MS,40.65934065934066,NA,NA
39145,Rankin County,MS,NA,96.52777777777779,NA
39157,Madison County,MS,NA,NA,66.29955947136564
39209,Hinds County,MS,23.516483516483515,NA,NA
39218,Rankin County,MS,NA,NA,96.0352422907489
39402,Lamar County,MS,NA,NA,55.2863436123348
39560,Harrison County,MS,61.97802197802198,NA,NA
63011,St. Louis County,MO,74.50549450549451,NA,NA
63017,St. Louis County,MO,NA,NA,3.0837004405286343
63021,St. Louis County,MO,46.81318681318681,NA,NA
63026,St. Louis County,MO,NA,11.458333333333332,NA
63033,St. Louis County,MO,16.923076923076923,NA,NA
63122,St. Louis County,MO,NA,25,NA
63132,St. Louis County,MO,NA,88.54166666666666,NA
63304,St. Charles County,MO,NA,14.23611111111111,NA
63376,St. Charles County,MO,12.087912087912088,NA,NA
63640,St. Francois County,MO,43.07692307692308,NA,NA
63701,Cape Girardeau County,MO,NA,40.27777777777778,NA
64015,Jackson County,MO,14.285714285714285,17.708333333333336,NA
64068,Clay County,MO,NA,6.423611111111111,NA
64113,Jackson County,MO,NA,69.61805555555556,NA
64118,Clay County,MO,7.6923076923076925,NA,NA
64127,Jackson County,MO,NA,NA,85.02202643171806
64429,Clinton County,MO,NA,86.80555555555556,NA
64628,Linn County,MO,NA,93.75,NA
64735,Henry County,MO,NA,43.40277777777778,NA
64742,Cass County,MO,NA,100,NA
65026,Miller County,MO,NA,78.29861111111111,NA
65270,Randolph County,MO,NA,42.01388888888889,NA
65301,Pettis County,MO,6.153846153846154,NA,NA
65803,Greene County,MO,NA,NA,60.352422907488986
59047,Park County,MT,NA,NA,53.08370044052864
59602,Lewis and Clark County,MT,NA,NA,38.1057268722467
59714,Gallatin County,MT,NA,63.541666666666664,NA
59870,Ravalli County,MT,NA,85.9375,NA
59937,Flathead County,MT,NA,75.86805555555556,NA
68107,Douglas County,NE,NA,59.548611111111114,NA
68136,Sarpy County,NE,NA,NA,94.49339207048459
69153,Keith County,NE,NA,NA,80.1762114537445
69162,Cheyenne County,NE,NA,NA,73.34801762114537
89102,Clark County,NV,NA,83.15972222222221,NA
89110,Clark County,NV,NA,69.27083333333334,NA
89113,Clark County,NV,93.18681318681318,NA,NA
89129,Clark County,NV,NA,41.31944444444444,NA
89135,Clark County,NV,NA,68.75,NA
89147,Clark County,NV,NA,54.166666666666664,NA
89403,Lyon County,NV,40.43956043956044,NA,NA
89406,Churchill County,NV,NA,NA,52.20264317180616
89512,Washoe County,NV,NA,49.82638888888889,NA
89521,Washoe County,NV,NA,33.15972222222222,NA
03063,Hillsborough County,NH,47.91208791208791,NA,NA
03102,Hillsborough County,NH,NA,14.930555555555555,NA
03743,Sullivan County,NH,NA,40.45138888888889,NA
03835,Strafford County,NH,87.91208791208791,NA,NA
07002,Hudson County,NJ,NA,1.3888888888888888,NA
07003,Essex County,NJ,59.120879120879124,NA,NA
07016,Union County,NJ,NA,NA,76.65198237885463
07035,Morris County,NJ,NA,79.34027777777779,NA
07055,Passaic County,NJ,1.5384615384615385,NA,NA
07081,Union County,NJ,NA,NA,70.04405286343612
07083,Union County,NJ,NA,NA,28.634361233480178
07111,Essex County,NJ,NA,NA,23.788546255506606
07607,Bergen County,NJ,NA,84.375,NA
07716,Monmouth County,NJ,NA,92.53472222222221,NA
07733,Monmouth County,NJ,NA,NA,69.8237885462555
07739,Monmouth County,NJ,NA,85.24305555555556,NA
07740,Monmouth County,NJ,NA,6.770833333333333,NA
07801,Morris County,NJ,20,NA,NA
07840,Warren County,NJ,36.26373626373626,NA,NA
07871,Sussex County,NJ,NA,NA,86.78414096916299
07936,Morris County,NJ,NA,NA,85.46255506607929
08005,Ocean County,NJ,55.604395604395606,NA,NA
08012,Camden County,NJ,NA,NA,43.392070484581495
08021,Camden County,NJ,0.21978021978021978,NA,34.801762114537446
08052,Burlington County,NJ,NA,NA,60.57268722466961
08065,Burlington County,NJ,NA,92.70833333333334,NA
08081,Camden County,NJ,NA,7.118055555555555,NA
08226,Cape May County,NJ,NA,57.638888888888886,NA
08360,Cumberland County,NJ,96.26373626373626,NA,NA
08724,Ocean County,NJ,NA,15.625,NA
08755,Ocean County,NJ,NA,NA,43.17180616740088
08757,Ocean County,NJ,NA,3.125,NA
08807,Somerset County,NJ,NA,NA,39.647577092511014
08833,Hunterdon County,NJ,NA,NA,89.86784140969164
08854,Middlesex County,NJ,NA,NA,28.193832599118945
08861,Middlesex County,NJ,NA,4.340277777777778,NA
08863,Middlesex County,NJ,NA,96.18055555555556,NA
08884,Middlesex County,NJ,87.6923076923077,NA,NA
87048,Sandoval County,NM,NA,80.55555555555556,NA
87105,Bernalillo County,NM,5.714285714285714,NA,NA
87109,Bernalillo County,NM,NA,14.756944444444445,NA
87111,Bernalillo County,NM,5.4945054945054945,45.83333333333333,5.506607929515418
87144,Sandoval County,NM,NA,60.24305555555556,NA
87506,Santa Fe County,NM,NA,50.520833333333336,98.01762114537445
87544,Los Alamos County,NM,NA,61.979166666666664,NA
88001,Doa Ana County,NM,28.13186813186813,NA,NA
88030,Luna County,NM,NA,82.29166666666666,NA
88310,Otero County,NM,NA,NA,7.709251101321586
88345,Lincoln County,NM,76.26373626373626,NA,NA
88352,Otero County,NM,NA,NA,72.68722466960352
10009,New York County,NY,NA,NA,4.6255506607929515
10024,New York County,NY,57.58241758241758,NA,NA
10025,New York County,NY,NA,NA,39.20704845814978
10036,New York County,NY,NA,49.30555555555556,NA
10304,Richmond County,NY,NA,97.91666666666666,NA
10306,Richmond County,NY,19.560439560439562,NA,14.757709251101323
10312,Richmond County,NY,NA,25.520833333333332,23.348017621145374
10314,Richmond County,NY,NA,2.7777777777777777,7.048458149779736
10453,Bronx County,NY,8.571428571428571,NA,NA
10454,Bronx County,NY,NA,NA,29.295154185022028
10456,Bronx County,NY,3.7362637362637363,NA,NA
10457,Bronx County,NY,0.8791208791208791,NA,NA
10458,Bronx County,NY,NA,5.729166666666666,NA
10460,Bronx County,NY,NA,NA,11.674008810572687
10465,Bronx County,NY,NA,NA,23.568281938325992
10468,Bronx County,NY,NA,1.215277777777778,NA
10512,Putnam County,NY,NA,NA,67.62114537444934
10550,Westchester County,NY,NA,63.36805555555556,NA
10708,Westchester County,NY,NA,86.97916666666666,NA
10930,Orange County,NY,NA,99.13194444444444,NA
11030,Nassau County,NY,NA,NA,79.07488986784142
11050,Nassau County,NY,NA,58.68055555555556,NA
11209,Kings County,NY,34.72527472527472,NA,NA
11219,Kings County,NY,NA,59.201388888888886,NA
11226,Kings County,NY,NA,1.7361111111111112,NA
11355,Queens County,NY,63.51648351648351,NA,NA
11357,Queens County,NY,NA,47.56944444444444,NA
11418,Queens County,NY,NA,51.388888888888886,NA
11421,Queens County,NY,35.604395604395606,NA,NA
11520,Nassau County,NY,NA,NA,39.20704845814978
11554,Nassau County,NY,NA,48.78472222222222,NA
11566,Nassau County,NY,NA,NA,46.69603524229075
11596,Nassau County,NY,NA,97.74305555555556,NA
11694,Queens County,NY,NA,NA,88.76651982378854
11716,Suffolk County,NY,NA,95.65972222222221,NA
11731,Suffolk County,NY,NA,NA,67.84140969162996
11758,Nassau County,NY,NA,38.02083333333333,NA
11772,Suffolk County,NY,NA,26.73611111111111,NA
11780,Suffolk County,NY,NA,NA,65.85903083700441
11791,Nassau County,NY,NA,NA,64.31718061674009
11801,Nassau County,NY,NA,NA,50.440528634361236
11901,Suffolk County,NY,NA,NA,62.11453744493392
12018,Rensselaer County,NY,NA,NA,89.42731277533039
12020,Saratoga County,NY,NA,NA,39.86784140969163
12569,Dutchess County,NY,NA,94.44444444444444,NA
12603,Dutchess County,NY,NA,NA,75.33039647577093
12920,Franklin County,NY,95.16483516483515,NA,NA
13069,Oswego County,NY,7.252747252747254,NA,NA
13118,Cayuga County,NY,NA,97.04861111111111,NA
13165,Seneca County,NY,28.35164835164835,21.354166666666664,NA
13204,Onondaga County,NY,13.186813186813188,NA,NA
13206,Onondaga County,NY,NA,NA,93.83259911894272
13209,Onondaga County,NY,79.56043956043956,NA,NA
13316,Oneida County,NY,NA,71.00694444444444,NA
13476,Oneida County,NY,91.42857142857143,NA,NA
13601,Jefferson County,NY,NA,NA,18.502202643171806
13606,Jefferson County,NY,NA,99.65277777777779,NA
13760,Broome County,NY,NA,5.034722222222222,1.3215859030837005
13778,Chenango County,NY,NA,84.89583333333334,NA
13790,Broome County,NY,NA,7.465277777777778,NA
13795,Broome County,NY,92.52747252747253,NA,NA
13905,Broome County,NY,1.9780219780219779,NA,NA
14020,Genesee County,NY,NA,NA,27.53303964757709
14048,Chautauqua County,NY,38.681318681318686,NA,NA
14072,Erie County,NY,45.05494505494506,NA,NA
14085,Erie County,NY,85.71428571428571,NA,NA
14086,Erie County,NY,20.439560439560438,NA,NA
14127,Erie County,NY,NA,14.409722222222221,NA
14213,Erie County,NY,80.87912087912088,NA,NA
14218,Erie County,NY,18.681318681318682,NA,NA
14224,Erie County,NY,NA,7.8125,NA
14225,Erie County,NY,NA,16.84027777777778,NA
14411,Orleans County,NY,28.79120879120879,NA,NA
14425,Ontario County,NY,17.36263736263736,NA,NA
14472,Monroe County,NY,NA,30.208333333333332,NA
14482,Genesee County,NY,NA,NA,93.6123348017621
14534,Monroe County,NY,NA,17.01388888888889,NA
14548,Ontario County,NY,67.25274725274726,NA,NA
14564,Ontario County,NY,19.78021978021978,NA,NA
14580,Monroe County,NY,NA,0,NA
14609,Monroe County,NY,NA,NA,21.58590308370044
14626,Monroe County,NY,4.395604395604396,2.604166666666667,NA
14701,Chautauqua County,NY,4.175824175824175,0.8680555555555556,NA
14826,Steuben County,NY,NA,99.47916666666666,NA
14845,Chemung County,NY,NA,NA,85.68281938325991
14867,Tompkins County,NY,NA,NA,97.13656387665198
27106,Forsyth County,NC,NA,NA,1.9823788546255507
27278,Orange County,NC,NA,12.32638888888889,NA
27292,Davidson County,NC,NA,NA,5.726872246696035
27295,Davidson County,NC,NA,2.083333333333333,NA
27312,Chatham County,NC,NA,19.444444444444446,NA
27332,Lee County,NC,40.21978021978022,NA,NA
27360,Davidson County,NC,NA,NA,11.894273127753303
27509,Granville County,NC,NA,NA,86.34361233480176
27520,Johnston County,NC,34.065934065934066,NA,NA
27525,Franklin County,NC,NA,NA,88.32599118942731
27526,Wake County,NC,63.29670329670329,NA,NA
27546,Harnett County,NC,NA,NA,68.94273127753304
27574,Person County,NC,NA,NA,71.58590308370044
27576,Johnston County,NC,NA,59.02777777777778,NA
27587,Wake County,NC,NA,39.75694444444444,NA
27597,Wake County,NC,NA,62.326388888888886,NA
27603,Wake County,NC,NA,26.90972222222222,NA
27606,Wake County,NC,NA,NA,52.42290748898678
27613,Wake County,NC,NA,36.28472222222222,NA
27834,Pitt County,NC,NA,NA,81.71806167400881
27870,Halifax County,NC,NA,31.07638888888889,NA
27886,Edgecombe County,NC,69.89010989010988,NA,NA
28025,Cabarrus County,NC,12.967032967032969,13.541666666666666,NA
28040,Rutherford County,NC,NA,89.58333333333334,NA
28104,Union County,NC,NA,75.34722222222221,NA
28112,Union County,NC,NA,35.9375,NA
28127,Stanly County,NC,NA,86.11111111111111,NA
28150,Cleveland County,NC,22.857142857142858,NA,NA
28163,Stanly County,NC,NA,95.65972222222221,NA
28173,Union County,NC,41.318681318681314,NA,NA
28211,Mecklenburg County,NC,32.08791208791209,NA,NA
28226,Mecklenburg County,NC,57.36263736263736,NA,NA
28360,Robeson County,NC,NA,66.49305555555556,NA
28376,Hoke County,NC,31.648351648351646,NA,NA
28465,Brunswick County,NC,NA,NA,69.60352422907489
28551,Lenoir County,NC,63.73626373626373,NA,NA
28590,Pitt County,NC,NA,NA,67.84140969162996
28602,Catawba County,NC,NA,42.36111111111111,NA
28630,Caldwell County,NC,NA,42.88194444444444,NA
28655,Burke County,NC,NA,2.951388888888889,NA
28658,Catawba County,NC,NA,NA,50.66079295154186
28678,Alexander County,NC,86.15384615384616,NA,NA
28756,Polk County,NC,NA,92.1875,NA
28787,Buncombe County,NC,NA,80.38194444444444,NA
58237,Walsh County,ND,94.72527472527472,NA,NA
43055,Licking County,OH,NA,0.3472222222222222,NA
43062,Licking County,OH,NA,NA,44.93392070484582
43123,Franklin County,OH,NA,NA,12.995594713656388
43125,Franklin County,OH,73.84615384615385,NA,NA
43162,Madison County,OH,NA,78.29861111111111,NA
43209,Franklin County,OH,NA,NA,79.51541850220264
43221,Franklin County,OH,NA,42.70833333333333,NA
43229,Franklin County,OH,NA,NA,22.687224669603523
43302,Marion County,OH,NA,NA,4.845814977973569
43410,Sandusky County,OH,NA,NA,74.44933920704845
43420,Sandusky County,OH,NA,NA,24.008810572687224
43515,Fulton County,OH,NA,91.31944444444444,NA
43551,Wood County,OH,NA,6.25,NA
43604,Lucas County,OH,NA,NA,94.27312775330397
43608,Lucas County,OH,NA,45.65972222222222,NA
43615,Lucas County,OH,NA,NA,9.251101321585903
43950,Belmont County,OH,NA,73.78472222222221,NA
43952,Jefferson County,OH,9.45054945054945,NA,NA
43964,Jefferson County,OH,26.593406593406595,NA,NA
44001,Lorain County,OH,NA,2.430555555555556,NA
44004,Ashtabula County,OH,2.857142857142857,NA,NA
44022,Cuyahoga County,OH,NA,68.40277777777779,NA
44052,Lorain County,OH,NA,1.0416666666666665,NA
44053,Lorain County,OH,NA,4.861111111111112,NA
44060,Lake County,OH,8.791208791208792,NA,0.6607929515418502
44070,Cuyahoga County,OH,NA,NA,69.16299559471366
44074,Lorain County,OH,94.06593406593406,NA,NA
44104,Cuyahoga County,OH,NA,19.791666666666664,NA
44118,Cuyahoga County,OH,NA,NA,29.074889867841406
44122,Cuyahoga County,OH,23.956043956043956,NA,0.4405286343612335
44124,Cuyahoga County,OH,NA,NA,0.881057268722467
44125,Cuyahoga County,OH,NA,8.680555555555555,NA
44129,Cuyahoga County,OH,15.824175824175823,13.715277777777779,21.145374449339208
44132,Cuyahoga County,OH,24.615384615384617,NA,NA
44135,Cuyahoga County,OH,NA,36.97916666666667,NA
44143,Cuyahoga County,OH,NA,12.847222222222221,NA
44203,Summit County,OH,NA,NA,7.488986784140969
44212,Medina County,OH,NA,NA,3.524229074889868
44223,Summit County,OH,NA,55.208333333333336,NA
44236,Summit County,OH,91.64835164835165,NA,NA
44241,Portage County,OH,NA,22.22222222222222,NA
44256,Medina County,OH,NA,5.902777777777778,2.4229074889867843
44281,Medina County,OH,73.62637362637363,NA,NA
44404,Trumbull County,OH,96.48351648351648,NA,NA
44431,Columbiana County,OH,94.28571428571428,NA,NA
44460,Columbiana County,OH,NA,7.638888888888889,NA
44483,Trumbull County,OH,NA,46.875,NA
44647,Stark County,OH,NA,45.13888888888889,59.91189427312775
44680,Tuscarawas County,OH,97.58241758241758,NA,NA
44691,Wayne County,OH,NA,4.166666666666666,NA
44708,Stark County,OH,NA,NA,19.60352422907489
44710,Stark County,OH,NA,87.5,NA
44830,Seneca County,OH,NA,31.25,NA
44883,Seneca County,OH,NA,NA,22.026431718061673
44907,Richland County,OH,NA,NA,41.85022026431718
45005,Warren County,OH,10.54945054945055,18.229166666666664,NA
45011,Butler County,OH,NA,NA,12.555066079295155
45039,Warren County,OH,54.065934065934066,NA,NA
45044,Butler County,OH,7.472527472527473,NA,NA
45056,Butler County,OH,69.45054945054945,NA,NA
45066,Warren County,OH,NA,NA,63.436123348017624
45106,Clermont County,OH,NA,69.44444444444444,NA
45205,Hamilton County,OH,22.197802197802197,NA,NA
45215,Hamilton County,OH,NA,NA,33.480176211453745
45224,Hamilton County,OH,NA,56.770833333333336,NA
45227,Hamilton County,OH,NA,NA,59.25110132158591
45238,Hamilton County,OH,47.47252747252747,NA,10.13215859030837
45240,Hamilton County,OH,NA,NA,53.30396475770925
45244,Hamilton County,OH,NA,NA,78.19383259911893
45247,Hamilton County,OH,NA,NA,27.973568281938327
45308,Darke County,OH,99.56043956043956,NA,NA
45322,Montgomery County,OH,NA,NA,35.24229074889868
45327,Montgomery County,OH,NA,NA,89.20704845814979
45344,Clark County,OH,NA,53.125,NA
45345,Montgomery County,OH,NA,80.72916666666666,NA
45365,Shelby County,OH,NA,13.020833333333334,NA
45405,Montgomery County,OH,NA,NA,94.7136563876652
45417,Montgomery County,OH,NA,15.104166666666666,NA
45426,Montgomery County,OH,NA,36.80555555555556,NA
45429,Montgomery County,OH,47.03296703296703,32.46527777777778,NA
45440,Montgomery County,OH,NA,NA,55.72687224669603
45458,Montgomery County,OH,NA,NA,68.5022026431718
45459,Montgomery County,OH,NA,NA,17.841409691629956
45502,Clark County,OH,NA,61.458333333333336,NA
45503,Clark County,OH,NA,11.284722222222223,NA
45764,Athens County,OH,NA,75.52083333333334,NA
45813,Paulding County,OH,89.23076923076924,NA,NA
73010,McClain County,OK,NA,67.36111111111111,NA
73026,Cleveland County,OK,81.31868131868131,NA,NA
73071,Cleveland County,OK,NA,14.0625,NA
73075,Garvin County,OK,NA,82.8125,NA
73080,McClain County,OK,81.53846153846153,NA,NA
73099,Canadian County,OK,NA,33.50694444444444,NA
73122,Oklahoma County,OK,NA,NA,82.37885462555066
73135,Oklahoma County,OK,46.37362637362637,NA,NA
74010,Creek County,OK,90.54945054945055,NA,NA
74055,Tulsa County,OK,NA,29.34027777777778,NA
74074,Payne County,OK,49.01098901098901,NA,NA
74075,Payne County,OK,NA,62.673611111111114,NA
74114,Tulsa County,OK,NA,68.92361111111111,NA
74115,Tulsa County,OK,NA,NA,71.1453744493392
74403,Muskogee County,OK,35.38461538461539,NA,NA
74441,Cherokee County,OK,89.45054945054946,NA,NA
74604,Kay County,OK,84.3956043956044,NA,NA
74745,McCurtain County,OK,67.03296703296702,NA,NA
74959,Le Flore County,OK,81.53846153846153,NA,NA
97030,Multnomah County,OR,NA,NA,22.90748898678414
97055,Clackamas County,OR,NA,NA,53.74449339207048
97217,Multnomah County,OR,NA,50.69444444444444,NA
97219,Multnomah County,OR,63.07692307692307,NA,NA
97230,Multnomah County,OR,NA,13.368055555555555,NA
97302,Marion County,OR,76.703296703296715,NA,NA
97321,Linn County,OR,29.230769230769234,NA,NA
97355,Linn County,OR,NA,4.513888888888888,NA
97365,Lincoln County,OR,NA,NA,55.06607929515418
97401,Lane County,OR,NA,NA,77.31277533039648
97448,Lane County,OR,NA,NA,94.05286343612335
97477,Lane County,OR,61.31868131868132,NA,NA
97601,Klamath County,OR,18.021978021978022,NA,NA
97702,Deschutes County,OR,NA,39.23611111111111,NA
97756,Deschutes County,OR,38.24175824175824,NA,NA
97801,Umatilla County,OR,NA,27.256944444444443,NA
97838,Umatilla County,OR,17.582417582417584,17.1875,NA
15021,Washington County,PA,NA,NA,81.27753303964758
15022,Washington County,PA,NA,NA,90.30837004405286
15025,Allegheny County,PA,NA,NA,62.77533039647577
15061,Beaver County,PA,NA,NA,61.67400881057269
15062,Westmoreland County,PA,NA,NA,96.91629955947137
15108,Allegheny County,PA,NA,18.57638888888889,NA
15120,Allegheny County,PA,NA,46.52777777777778,NA
15129,Allegheny County,PA,NA,NA,82.81938325991189
15135,Allegheny County,PA,NA,98.09027777777779,NA
15143,Allegheny County,PA,NA,NA,43.83259911894273
15213,Allegheny County,PA,NA,NA,38.32599118942731
15227,Allegheny County,PA,NA,23.26388888888889,NA
15239,Allegheny County,PA,NA,NA,45.81497797356828
15241,Allegheny County,PA,NA,66.31944444444444,NA
15552,Somerset County,PA,NA,93.57638888888889,NA
15650,Westmoreland County,PA,NA,17.36111111111111,NA
15668,Westmoreland County,PA,82.85714285714286,NA,NA
15748,Indiana County,PA,NA,NA,87.66519823788546
15857,Elk County,PA,NA,40.97222222222222,NA
16125,Mercer County,PA,39.120879120879124,NA,NA
16201,Armstrong County,PA,33.18681318681318,NA,NA
16505,Erie County,PA,NA,89.23611111111111,NA
16602,Blair County,PA,14.945054945054945,NA,NA
16915,Potter County,PA,85.05494505494505,NA,NA
17033,Dauphin County,PA,NA,22.04861111111111,NA
17046,Lebanon County,PA,NA,NA,49.118942731277535
17104,Dauphin County,PA,18.24175824175824,NA,NA
17268,Franklin County,PA,17.802197802197803,NA,NA
17340,Adams County,PA,NA,52.083333333333336,NA
17522,Lancaster County,PA,NA,10.76388888888889,NA
17543,Lancaster County,PA,NA,NA,9.030837004405285
17545,Lancaster County,PA,77.58241758241759,NA,NA
17777,Northumberland County,PA,92.96703296703296,NA,NA
17847,Northumberland County,PA,NA,NA,56.167400881057276
17851,Northumberland County,PA,NA,NA,50
17972,Schuylkill County,PA,NA,61.28472222222222,NA
18064,Northampton County,PA,44.83516483516484,NA,NA
18071,Carbon County,PA,NA,NA,51.541850220264315
18104,Lehigh County,PA,15.384615384615385,NA,NA
18202,Luzerne County,PA,NA,NA,49.77973568281938
18328,Pike County,PA,NA,80.03472222222221,NA
18360,Monroe County,PA,NA,11.979166666666668,NA
18431,Wayne County,PA,NA,58.68055555555556,NA
18436,Wayne County,PA,NA,69.09722222222221,NA
18964,Montgomery County,PA,74.72527472527473,NA,NA
19020,Bucks County,PA,10.329670329670328,8.506944444444445,13.215859030837004
19064,Delaware County,PA,NA,NA,42.51101321585903
19083,Delaware County,PA,29.450549450549453,NA,NA
19103,Philadelphia County,PA,NA,NA,26.431718061674008
19136,Philadelphia County,PA,NA,NA,40.969162995594715
19139,Philadelphia County,PA,5.934065934065933,NA,NA
19140,Philadelphia County,PA,3.296703296703297,NA,NA
19144,Philadelphia County,PA,NA,9.20138888888889,NA
19152,Philadelphia County,PA,19.12087912087912,NA,NA
19301,Chester County,PA,NA,NA,73.568281938326
19348,Chester County,PA,NA,NA,31.277533039647576
19352,Chester County,PA,89.8901098901099,NA,NA
19380,Chester County,PA,NA,NA,3.7444933920704844
19426,Montgomery County,PA,NA,NA,56.6079295154185
19428,Montgomery County,PA,NA,77.60416666666666,NA
19462,Montgomery County,PA,NA,NA,56.82819383259912
19464,Montgomery County,PA,7.032967032967033,6.076388888888888,NA
19522,Berks County,PA,NA,35.24305555555556,NA
19601,Berks County,PA,5.054945054945055,NA,NA
19605,Berks County,PA,NA,NA,81.05726872246696
02806,Bristol County,RI,73.84615384615385,NA,NA
02835,Newport County,RI,NA,89.75694444444444,NA
02860,Providence County,RI,NA,11.11111111111111,NA
02863,Providence County,RI,NA,NA,64.75770925110133
02886,Kent County,RI,NA,24.479166666666664,NA
02888,Kent County,RI,NA,NA,97.57709251101322
02919,Providence County,RI,43.07692307692308,NA,NA
02920,Providence County,RI,NA,16.493055555555554,NA
29010,Lee County,SC,77.14285714285715,NA,NA
29044,Richland County,SC,NA,NA,98.23788546255507
29045,Kershaw County,SC,75.16483516483517,NA,NA
29053,Lexington County,SC,60.21978021978022,NA,NA
29069,Darlington County,SC,NA,NA,96.25550660792952
29204,Richland County,SC,71.20879120879121,NA,NA
29209,Richland County,SC,48.79120879120879,NA,NA
29301,Spartanburg County,SC,NA,76.5625,NA
29349,Spartanburg County,SC,26.373626373626376,NA,NA
29407,Charleston County,SC,NA,NA,16.96035242290749
29412,Charleston County,SC,NA,NA,13.876651982378855
29414,Charleston County,SC,34.505494505494504,25.868055555555557,NA
29555,Florence County,SC,NA,97.22222222222221,NA
29566,Horry County,SC,NA,NA,59.03083700440529
29576,Horry County,SC,NA,NA,16.079295154185022
29577,Horry County,SC,NA,NA,54.40528634361234
29673,Greenville County,SC,NA,19.270833333333336,NA
29680,Greenville County,SC,NA,31.770833333333332,NA
29681,Greenville County,SC,NA,NA,35.90308370044053
29730,York County,SC,NA,35.76388888888889,NA
29801,Aiken County,SC,NA,48.78472222222222,NA
29907,Beaufort County,SC,93.62637362637362,NA,NA
29910,Beaufort County,SC,NA,38.88888888888889,NA
57006,Brookings County,SD,NA,NA,14.537444933920703
57105,Minnehaha County,SD,50.989010989010985,NA,NA
57701,Pennington County,SD,NA,NA,10.13215859030837
37034,Marshall County,TN,83.07692307692308,NA,NA
37075,Sumner County,TN,17.142857142857142,NA,NA
37083,Macon County,TN,NA,NA,69.38325991189427
37115,Davidson County,TN,NA,24.131944444444446,NA
37148,Sumner County,TN,NA,NA,64.53744493392071
37160,Bedford County,TN,NA,33.68055555555556,NA
37190,Cannon County,TN,NA,90.97222222222221,NA
37312,Bradley County,TN,NA,50.86805555555556,NA
37334,Lincoln County,TN,37.8021978021978,NA,NA
37363,Hamilton County,TN,44.395604395604394,NA,NA
37388,Coffee County,TN,NA,44.79166666666667,NA
37404,Hamilton County,TN,66.59340659340658,NA,NA
37419,Hamilton County,TN,96.7032967032967,NA,NA
37643,Carter County,TN,NA,NA,20.044052863436125
37659,Washington County,TN,NA,29.6875,NA
37660,Sullivan County,TN,NA,7.986111111111111,NA
37804,Blount County,TN,NA,NA,30.837004405286343
38002,Shelby County,TN,NA,NA,59.691629955947135
38012,Haywood County,TN,NA,NA,58.81057268722467
38016,Shelby County,TN,NA,NA,74.44933920704845
38053,Shelby County,TN,NA,NA,31.718061674008812
38109,Shelby County,TN,NA,NA,30.616740088105725
38115,Shelby County,TN,23.736263736263734,NA,NA
38128,Shelby County,TN,NA,74.82638888888889,NA
38138,Shelby County,TN,NA,NA,46.47577092511013
38242,Henry County,TN,52.52747252747253,NA,NA
38320,Benton County,TN,77.80219780219781,NA,NA
38372,Hardin County,TN,55.16483516483517,NA,NA
38401,Maury County,TN,NA,6.597222222222222,NA
38506,Putnam County,TN,NA,21.52777777777778,NA
38556,Fentress County,TN,NA,41.14583333333333,NA
38570,Overton County,TN,NA,NA,83.48017621145375
75009,Collin County,TX,NA,NA,90.7488986784141
75020,Grayson County,TX,52.96703296703297,NA,NA
75022,Denton County,TX,81.0989010989011,NA,NA
75024,Collin County,TX,NA,81.94444444444444,NA
75034,Denton County,TX,NA,29.166666666666668,NA
75051,Dallas County,TX,45.934065934065934,NA,NA
75056,Denton County,TX,32.967032967032964,NA,NA
75142,Kaufman County,TX,NA,65.45138888888889,NA
75150,Dallas County,TX,23.296703296703296,NA,NA
75209,Dallas County,TX,69.23076923076923,NA,NA
75217,Dallas County,TX,10.989010989010989,7.986111111111111,NA
75243,Dallas County,TX,NA,46.18055555555556,NA
75254,Dallas County,TX,85.93406593406593,NA,NA
75462,Lamar County,TX,NA,88.36805555555556,NA
75474,Hunt County,TX,NA,63.020833333333336,NA
75644,Upshur County,TX,70.98901098901099,NA,NA
75707,Smith County,TX,NA,54.861111111111114,NA
75765,Wood County,TX,NA,81.59722222222221,NA
75831,Leon County,TX,NA,96.70138888888889,NA
75860,Freestone County,TX,NA,94.79166666666666,NA
75935,Shelby County,TX,NA,83.50694444444444,NA
76013,Tarrant County,TX,NA,NA,28.41409691629956
76015,Tarrant County,TX,80.65934065934066,NA,NA
76017,Tarrant County,TX,NA,NA,36.34361233480176
76049,Hood County,TX,NA,19.96527777777778,NA
76092,Tarrant County,TX,68.13186813186813,NA,NA
76133,Tarrant County,TX,19.340659340659343,NA,NA
76424,Stephens County,TX,72.3076923076923,NA,NA
76542,Bell County,TX,NA,NA,17.62114537444934
76634,Bosque County,TX,97.36263736263736,NA,NA
76712,McLennan County,TX,45.494505494505496,NA,NA
76904,Tom Green County,TX,NA,NA,30.396475770925107
77024,Harris County,TX,NA,NA,40.308370044052865
77029,Harris County,TX,NA,74.47916666666666,NA
77056,Harris County,TX,NA,NA,49.118942731277535
77057,Harris County,TX,NA,60.9375,NA
77071,Harris County,TX,NA,67.1875,NA
77075,Harris County,TX,NA,NA,95.81497797356829
77088,Harris County,TX,NA,NA,48.6784140969163
77090,Harris County,TX,30.76923076923077,NA,NA
77095,Harris County,TX,54.505494505494504,NA,NA
77346,Harris County,TX,NA,NA,81.27753303964758
77357,Montgomery County,TX,65.49450549450549,NA,NA
77373,Harris County,TX,NA,NA,76.431718061674
77379,Harris County,TX,NA,9.54861111111111,NA
77422,Brazoria County,TX,NA,94.79166666666666,NA
77429,Harris County,TX,NA,3.298611111111111,NA
77449,Harris County,TX,NA,26.5625,NA
77477,Fort Bend County,TX,NA,44.09722222222222,NA
77581,Brazoria County,TX,NA,22.395833333333336,NA
77591,Galveston County,TX,60.43956043956044,NA,NA
77630,Orange County,TX,44.175824175824175,NA,NA
77642,Jefferson County,TX,NA,NA,55.72687224669603
77662,Orange County,TX,NA,49.82638888888889,NA
77803,Brazos County,TX,NA,NA,33.03964757709251
77845,Brazos County,TX,NA,27.604166666666668,NA
77859,Robertson County,TX,NA,78.81944444444444,NA
77904,Victoria County,TX,NA,35.59027777777778,NA
78108,Guadalupe County,TX,75.16483516483517,NA,NA
78114,Wilson County,TX,NA,NA,99.55947136563876
78230,Bexar County,TX,NA,NA,56.38766519823789
78239,Bexar County,TX,NA,NA,75.99118942731278
78263,Bexar County,TX,NA,90.27777777777779,NA
78363,Kleberg County,TX,NA,90.10416666666666,NA
78380,Nueces County,TX,87.47252747252747,NA,NA
78414,Nueces County,TX,NA,NA,87.22466960352423
78583,Cameron County,TX,NA,NA,92.95154185022027
78617,Travis County,TX,NA,92.36111111111111,NA
78621,Bastrop County,TX,NA,72.22222222222221,NA
78633,Williamson County,TX,NA,NA,0
78665,Williamson County,TX,NA,NA,99.33920704845815
78731,Travis County,TX,NA,NA,76.87224669603523
78852,Maverick County,TX,59.56043956043956,NA,NA
78934,Colorado County,TX,89.67032967032968,NA,NA
78956,Fayette County,TX,NA,NA,99.11894273127754
79119,Randall County,TX,85.49450549450549,NA,NA
79382,Lubbock County,TX,NA,NA,96.25550660792952
79423,Lubbock County,TX,NA,NA,34.140969162995596
79761,Ector County,TX,55.824175824175825,NA,NA
84010,Davis County,UT,43.956043956043956,NA,NA
84015,Davis County,UT,NA,83.68055555555556,NA
84041,Davis County,UT,NA,65.27777777777779,NA
84054,Davis County,UT,NA,NA,88.10572687224669
84058,Utah County,UT,NA,89.40972222222221,NA
84062,Utah County,UT,84.61538461538461,NA,NA
84088,Salt Lake County,UT,NA,NA,78.41409691629956
84109,Salt Lake County,UT,68.13186813186813,NA,NA
05478,Franklin County,VT,NA,NA,26.651982378854626
20175,Loudoun County,VA,72.96703296703296,NA,NA
22043,Fairfax County,VA,73.18681318681318,NA,NA
22101,Fairfax County,VA,NA,50.34722222222222,NA
22102,Fairfax County,VA,79.12087912087912,NA,NA
22182,Fairfax County,VA,NA,87.67361111111111,84.36123348017621
22193,Prince William County,VA,NA,58.50694444444444,NA
22312,Fairfax County,VA,NA,NA,90.96916299559471
22546,Caroline County,VA,NA,70.3125,NA
22556,Stafford County,VA,NA,73.95833333333334,NA
22602,Frederick County,VA,56.92307692307692,NA,NA
22802,Harrisonburg city,VA,25.494505494505493,NA,NA
22815,Rockingham County,VA,57.14285714285714,NA,NA
23060,Henrico County,VA,64.17582417582418,NA,NA
23111,Hanover County,VA,NA,15.79861111111111,NA
23185,James City County,VA,NA,NA,1.1013215859030838
23231,Henrico County,VA,24.395604395604394,NA,NA
23233,Henrico County,VA,NA,77.43055555555556,NA
23237,Chesterfield County,VA,NA,NA,89.64757709251101
23238,Henrico County,VA,NA,65.10416666666666,42.951541850220266
23325,Chesapeake city,VA,NA,NA,46.69603524229075
23435,Suffolk city,VA,NA,NA,54.62555066079295
23602,Newport News city,VA,NA,NA,11.45374449339207
23703,Portsmouth city,VA,NA,30.729166666666668,NA
23704,Portsmouth city,VA,NA,56.076388888888886,NA
24012,Roanoke city,VA,NA,NA,33.259911894273124
24017,Roanoke city,VA,NA,44.44444444444444,NA
24101,Franklin County,VA,99.34065934065934,NA,NA
24171,Patrick County,VA,NA,68.57638888888889,NA
24201,Bristol city,VA,NA,NA,48.01762114537445
24273,Norton city,VA,NA,NA,91.62995594713657
24343,Carroll County,VA,NA,76.38888888888889,NA
24416,Buena Vista city,VA,NA,NA,79.29515418502203
24441,Rockingham County,VA,NA,77.08333333333334,NA
98002,King County,WA,NA,35.9375,NA
98012,Snohomish County,WA,NA,NA,20.484581497797357
98020,Snohomish County,WA,NA,NA,32.819383259911895
98022,King County,WA,NA,23.958333333333336,NA
98034,King County,WA,NA,13.194444444444445,NA
98056,King County,WA,NA,60.59027777777778,NA
98075,King County,WA,NA,NA,88.98678414096916
98087,Snohomish County,WA,NA,NA,92.29074889867842
98101,King County,WA,NA,88.02083333333334,NA
98107,King County,WA,NA,NA,87.00440528634361
98109,King County,WA,NA,NA,60.13215859030837
98115,King County,WA,70.32967032967034,NA,NA
98155,King County,WA,NA,43.05555555555556,NA
98166,King County,WA,NA,55.38194444444444,NA
98178,King County,WA,58.901098901098905,NA,NA
98203,Snohomish County,WA,52.307692307692314,34.54861111111111,NA
98273,Skagit County,WA,NA,15.277777777777779,NA
98282,Island County,WA,NA,NA,46.25550660792951
98290,Snohomish County,WA,45.714285714285715,NA,NA
98362,Clallam County,WA,NA,NA,5.286343612334802
98373,Pierce County,WA,NA,75,NA
98382,Clallam County,WA,NA,NA,2.2026431718061676
98444,Pierce County,WA,37.142857142857146,NA,NA
98467,Pierce County,WA,NA,75.17361111111111,NA
98501,Thurston County,WA,NA,NA,51.10132158590308
98632,Cowlitz County,WA,NA,3.9930555555555554,NA
98663,Clark County,WA,NA,96.00694444444444,NA
98801,Chelan County,WA,NA,NA,6.387665198237885
98902,Yakima County,WA,29.67032967032967,NA,NA
98903,Yakima County,WA,NA,58.15972222222222,NA
98908,Yakima County,WA,NA,11.805555555555555,NA
99208,Spokane County,WA,41.53846153846154,NA,NA
99337,Benton County,WA,27.692307692307693,NA,NA
20001,District of Columbia,DC,NA,15.277777777777779,NA
20020,District of Columbia,DC,2.6373626373626373,NA,NA
25801,Raleigh County,WV,NA,NA,11.013215859030836
26037,Brooke County,WV,NA,NA,75.55066079295155
26155,Wetzel County,WV,NA,NA,74.44933920704845
26426,Harrison County,WV,NA,82.46527777777779,NA
26505,Monongalia County,WV,11.648351648351648,NA,18.94273127753304
53022,Washington County,WI,NA,52.951388888888886,NA
53029,Waukesha County,WI,NA,54.34027777777778,NA
53045,Waukesha County,WI,NA,49.65277777777778,NA
53172,Milwaukee County,WI,70.1098901098901,NA,32.59911894273127
53186,Waukesha County,WI,NA,35.06944444444444,NA
53190,Walworth County,WI,NA,NA,63.65638766519823
53214,Milwaukee County,WI,NA,10.416666666666668,NA
53215,Milwaukee County,WI,6.373626373626373,NA,NA
53216,Milwaukee County,WI,8.131868131868131,NA,NA
53218,Milwaukee County,WI,NA,8.333333333333332,NA
53219,Milwaukee County,WI,NA,NA,13.43612334801762
53221,Milwaukee County,WI,NA,21.70138888888889,NA
53222,Milwaukee County,WI,NA,37.32638888888889,NA
53235,Milwaukee County,WI,NA,NA,77.09251101321586
53402,Racine County,WI,7.9120879120879115,NA,NA
53511,Rock County,WI,1.3186813186813187,NA,NA
53548,Rock County,WI,26.153846153846157,NA,NA
53590,Dane County,WI,NA,NA,65.41850220264317
53948,Juneau County,WI,NA,93.05555555555556,NA
53959,Sauk County,WI,46.59340659340659,44.44444444444444,NA
53963,Dodge County,WI,NA,81.77083333333334,NA
54017,St. Croix County,WI,56.26373626373626,NA,NA
54022,Pierce County,WI,NA,49.47916666666667,NA
54302,Brown County,WI,NA,48.09027777777778,NA
54303,Brown County,WI,49.89010989010989,NA,NA
54304,Brown County,WI,22.63736263736264,NA,NA
54311,Brown County,WI,NA,NA,24.88986784140969
54401,Marathon County,WI,41.75824175824176,NA,NA
54409,Langlade County,WI,39.78021978021978,NA,NA
54914,Outagamie County,WI,NA,57.11805555555556,NA
54915,Outagamie County,WI,NA,NA,59.471365638766514
54929,Waupaca County,WI,90.76923076923077,NA,NA
54935,Fond du Lac County,WI,16.263736263736263,NA,NA
82609,Natrona County,WY,86.37362637362638,NA,NA
