ZipCode,county,state,Adult,Retirement
35044,Talladega County,AL,NA,78.23529411764706
35125,St. Clair County,AL,59.25925925925925,NA
35160,Talladega County,AL,21.75925925925926,NA
35570,Marion County,AL,68.98148148148148,NA
35601,Morgan County,AL,NA,18.235294117647058
35773,Madison County,AL,69.44444444444444,NA
36551,Baldwin County,AL,79.62962962962963,NA
36618,Mobile County,AL,NA,86.47058823529412
85022,Maricopa County,AZ,NA,34.705882352941174
85249,Maricopa County,AZ,50.92592592592593,NA
85251,Maricopa County,AZ,NA,57.647058823529406
85296,Maricopa County,AZ,NA,81.76470588235294
85374,Maricopa County,AZ,NA,22.941176470588236
85901,Navajo County,AZ,54.629629629629626,NA
86314,Yavapai County,AZ,NA,28.823529411764703
72116,Pulaski County,AR,NA,44.11764705882353
72143,White County,AR,41.2037037037037,NA
72653,Baxter County,AR,NA,26.47058823529412
72758,Benton County,AR,62.96296296296296,61.1764705882353
90603,Los Angeles County,CA,81.01851851851852,NA
90620,Orange County,CA,NA,38.23529411764706
90621,Orange County,CA,NA,70
90813,Los Angeles County,CA,36.574074074074076,NA
91792,Los Angeles County,CA,69.9074074074074,NA
92008,San Diego County,CA,NA,70.58823529411765
92024,San Diego County,CA,NA,50.588235294117645
92037,San Diego County,CA,NA,54.11764705882353
92129,San Diego County,CA,61.111111111111114,NA
92374,San Bernardino County,CA,47.22222222222222,NA
92530,Riverside County,CA,NA,62.94117647058823
92553,Riverside County,CA,NA,44.70588235294118
92570,Riverside County,CA,46.2962962962963,NA
92620,Orange County,CA,48.148148148148145,NA
92672,Orange County,CA,NA,60.588235294117645
92679,Orange County,CA,63.888888888888886,NA
92807,Orange County,CA,NA,75.29411764705883
92870,Orange County,CA,NA,29.411764705882355
93109,Santa Barbara County,CA,99.07407407407408,NA
93277,Tulare County,CA,29.166666666666668,NA
93291,Tulare County,CA,NA,38.82352941176471
93453,San Luis Obispo County,CA,100,NA
93611,Fresno County,CA,41.66666666666667,NA
93722,Fresno County,CA,NA,18.823529411764707
93901,Monterey County,CA,55.55555555555556,NA
93906,Monterey County,CA,NA,45.88235294117647
94025,San Mateo County,CA,52.77777777777778,NA
94105,San Francisco County,CA,93.51851851851852,NA
94112,San Francisco County,CA,28.240740740740737,NA
94541,Alameda County,CA,27.77777777777778,NA
94949,Marin County,CA,81.48148148148148,NA
95206,San Joaquin County,CA,56.018518518518526,NA
95222,Calaveras County,CA,98.61111111111111,NA
95307,Stanislaus County,CA,NA,51.76470588235295
95355,Stanislaus County,CA,NA,12.352941176470589
95356,Stanislaus County,CA,NA,45.88235294117647
95380,Stanislaus County,CA,NA,25.882352941176475
95446,Sonoma County,CA,92.12962962962963,NA
95540,Humboldt County,CA,62.03703703703704,NA
95610,Sacramento County,CA,NA,49.411764705882355
95621,Sacramento County,CA,46.75925925925926,NA
95991,Sutter County,CA,33.33333333333333,NA
96097,Siskiyou County,CA,NA,65.88235294117646
80010,Arapahoe County,CO,24.537037037037038,50
80102,Adams County,CO,97.22222222222221,NA
80120,Arapahoe County,CO,NA,52.94117647058824
80125,Douglas County,CO,91.20370370370371,NA
80224,Denver County,CO,NA,80.58823529411765
80526,Larimer County,CO,40.27777777777778,NA
80538,Larimer County,CO,NA,11.76470588235294
81001,Pueblo County,CO,NA,47.647058823529406
06040,Hartford County,CT,13.88888888888889,NA
06111,Hartford County,CT,NA,47.05882352941176
06470,Fairfield County,CT,82.87037037037037,NA
06897,Fairfield County,CT,77.31481481481481,NA
19702,New Castle County,DE,NA,58.82352941176471
19962,Kent County,DE,NA,88.23529411764706
32073,Clay County,FL,26.851851851851855,NA
32246,Duval County,FL,20.37037037037037,NA
32501,Escambia County,FL,56.94444444444444,NA
32568,Escambia County,FL,93.98148148148148,NA
32680,Dixie County,FL,NA,76.47058823529412
32712,Orange County,FL,67.12962962962963,NA
32808,Orange County,FL,19.90740740740741,NA
32953,Brevard County,FL,62.5,NA
32968,Indian River County,FL,81.94444444444444,NA
33182,Miami-Dade County,FL,99.53703703703704,NA
33607,Hillsborough County,FL,54.166666666666664,NA
33611,Hillsborough County,FL,72.68518518518519,NA
33705,Pinellas County,FL,32.407407407407405,NA
34655,Pasco County,FL,37.5,NA
30331,Fulton County,GA,23.14814814814815,NA
30906,Richmond County,GA,34.72222222222222,NA
31021,Laurens County,GA,44.44444444444444,NA
31047,Houston County,GA,87.03703703703704,NA
96815,Honolulu County,HI,79.16666666666666,NA
83276,Caribou County,ID,96.75925925925925,NA
83843,Latah County,ID,NA,82.35294117647058
60103,DuPage County,IL,64.81481481481481,NA
60126,DuPage County,IL,13.425925925925927,NA
60458,Cook County,IL,NA,72.35294117647058
60628,Cook County,IL,7.87037037037037,NA
60647,Cook County,IL,35.18518518518518,NA
60651,Cook County,IL,10.185185185185185,NA
61107,Winnebago County,IL,49.074074074074076,NA
62221,St. Clair County,IL,NA,48.8235294117647
62298,Monroe County,IL,82.4074074074074,NA
46148,Henry County,IN,NA,97.6470588235294
46307,Lake County,IN,NA,3.5294117647058822
46311,Lake County,IN,NA,21.764705882352942
46394,Lake County,IN,NA,60
46410,Lake County,IN,7.4074074074074066,NA
47111,Clark County,IN,57.870370370370374,NA
47403,Monroe County,IN,65.27777777777779,NA
47421,Lawrence County,IN,38.88888888888889,NA
47933,Montgomery County,IN,NA,51.17647058823529
51526,Pottawattamie County,IA,NA,96.47058823529412
51601,Page County,IA,70.37037037037037,NA
52302,Linn County,IA,NA,36.470588235294116
66103,Wyandotte County,KS,75.92592592592592,NA
67025,Sedgwick County,KS,NA,98.23529411764706
67235,Sedgwick County,KS,NA,95.88235294117648
67601,Ellis County,KS,45.83333333333333,NA
67871,Scott County,KS,67.5925925925926,NA
40203,Jefferson County,KY,56.481481481481474,NA
40241,Jefferson County,KY,53.70370370370371,NA
40245,Jefferson County,KY,NA,42.35294117647059
42086,McCracken County,KY,NA,91.76470588235294
42240,Christian County,KY,6.018518518518518,NA
70634,Beauregard Parish,LA,NA,41.76470588235294
71037,Bossier Parish,LA,NA,57.05882352941176
20659,St. Mary's County,MD,NA,66.47058823529412
20772,Prince George's County,MD,NA,54.70588235294118
21043,Howard County,MD,71.29629629629629,NA
21093,Baltimore County,MD,NA,33.52941176470588
21146,Anne Arundel County,MD,NA,52.352941176470594
21228,Baltimore County,MD,NA,17.058823529411764
21502,Allegany County,MD,NA,24.11764705882353
21757,Frederick County,MD,NA,98.82352941176471
21769,Frederick County,MD,NA,88.8235294117647
21830,Wicomico County,MD,98.14814814814815,NA
01073,Hampshire County,MA,NA,93.52941176470588
01106,Hampden County,MA,NA,75.88235294117646
01364,Franklin County,MA,NA,95.29411764705881
01440,Worcester County,MA,0.9259259259259258,NA
01507,Worcester County,MA,43.51851851851852,NA
01603,Worcester County,MA,1.3888888888888888,NA
01867,Middlesex County,MA,31.01851851851852,NA
02038,Norfolk County,MA,17.59259259259259,NA
02126,Suffolk County,MA,NA,7.0588235294117645
02127,Suffolk County,MA,NA,11.176470588235295
02186,Norfolk County,MA,NA,32.94117647058823
02191,Norfolk County,MA,66.20370370370371,NA
02346,Plymouth County,MA,NA,16.470588235294116
02421,Middlesex County,MA,NA,40
02760,Bristol County,MA,15.74074074074074,NA
48060,St. Clair County,MI,2.314814814814815,NA
48091,Macomb County,MI,6.481481481481481,NA
48137,Livingston County,MI,96.29629629629629,NA
48170,Wayne County,MI,NA,6.470588235294119
48180,Wayne County,MI,21.296296296296298,NA
48195,Wayne County,MI,NA,14.117647058823529
48362,Oakland County,MI,NA,59.411764705882355
48380,Oakland County,MI,83.79629629629629,NA
48507,Genesee County,MI,12.962962962962962,NA
48706,Bay County,MI,8.333333333333332,NA
48817,Shiawassee County,MI,NA,91.17647058823529
48847,Gratiot County,MI,90.74074074074075,NA
48917,Eaton County,MI,11.574074074074074,NA
49093,St. Joseph County,MI,34.25925925925926,NA
49418,Kent County,MI,42.129629629629626,NA
49651,Missaukee County,MI,85.64814814814815,NA
49756,Montmorency County,MI,NA,77.64705882352942
49854,Schoolcraft County,MI,NA,92.3529411764706
55025,Washington County,MN,58.333333333333336,NA
55060,Steele County,MN,39.81481481481482,NA
55305,Hennepin County,MN,NA,77.05882352941177
55352,Scott County,MN,88.42592592592592,NA
55359,Hennepin County,MN,NA,92.94117647058823
55376,Wright County,MN,84.72222222222221,NA
55981,Wabasha County,MN,NA,79.41176470588235
56048,Waseca County,MN,95.83333333333334,NA
56560,Clay County,MN,16.203703703703702,NA
63033,St. Louis County,MO,20.833333333333336,NA
63084,Franklin County,MO,NA,56.470588235294116
63119,St. Louis County,MO,NA,48.23529411764706
63121,St. Louis County,MO,33.7962962962963,NA
63601,St. Francois County,MO,47.68518518518518,NA
64062,Ray County,MO,NA,89.41176470588236
64068,Clay County,MO,11.11111111111111,NA
64119,Clay County,MO,14.351851851851851,NA
64134,Jackson County,MO,17.12962962962963,NA
64836,Jasper County,MO,24.074074074074073,NA
65453,Crawford County,MO,NA,78.82352941176471
65802,Greene County,MO,15.277777777777779,NA
59102,Yellowstone County,MT,NA,8.823529411764707
59501,Hill County,MT,80.0925925925926,NA
59911,Flathead County,MT,94.44444444444444,NA
68355,Richardson County,NE,88.88888888888889,NA
69001,Red Willow County,NE,92.5925925925926,NA
03809,Belknap County,NH,NA,90.58823529411765
03833,Rockingham County,NH,42.592592592592595,NA
03865,Rockingham County,NH,68.51851851851852,NA
07024,Bergen County,NJ,NA,43.529411764705884
07438,Morris County,NJ,NA,81.17647058823529
07470,Passaic County,NJ,21.75925925925926,NA
07480,Passaic County,NJ,60.18518518518518,NA
07506,Passaic County,NJ,NA,64.70588235294117
07753,Monmouth County,NJ,NA,12.941176470588237
07940,Morris County,NJ,NA,73.52941176470588
08031,Camden County,NJ,73.14814814814815,NA
08502,Somerset County,NJ,94.9074074074074,NA
08831,Middlesex County,NJ,NA,41.17647058823529
08844,Somerset County,NJ,44.907407407407405,NA
08859,Middlesex County,NJ,NA,71.17647058823529
87111,Bernalillo County,NM,NA,15.88235294117647
88012,Doa Ana County,NM,38.425925925925924,NA
88072,Doa Ana County,NM,NA,99.41176470588235
88220,Eddy County,NM,NA,28.235294117647058
10021,New York County,NY,73.61111111111111,NA
11208,Kings County,NY,0.4629629629629629,NA
11209,Kings County,NY,36.11111111111111,NA
11419,Queens County,NY,43.98148148148148,NA
11421,Queens County,NY,NA,82.94117647058825
11434,Queens County,NY,NA,19.411764705882355
11570,Nassau County,NY,83.33333333333334,NA
11706,Suffolk County,NY,NA,35.88235294117647
11787,Suffolk County,NY,NA,37.05882352941177
12020,Saratoga County,NY,25.462962962962965,NA
12090,Rensselaer County,NY,68.05555555555556,NA
13021,Cayuga County,NY,NA,4.117647058823529
13031,Onondaga County,NY,NA,63.52941176470588
13101,Cortland County,NY,NA,90
13116,Onondaga County,NY,89.81481481481481,NA
13118,Cayuga County,NY,NA,84.11764705882354
13142,Oswego County,NY,NA,87.6470588235294
13421,Madison County,NY,27.314814814814813,NA
13685,Jefferson County,NY,NA,100
13820,Otsego County,NY,12.5,NA
13905,Broome County,NY,NA,8.235294117647058
14051,Erie County,NY,45.370370370370374,NA
14059,Erie County,NY,71.75925925925925,NA
14075,Erie County,NY,9.722222222222223,NA
14086,Erie County,NY,25.925925925925924,NA
14217,Erie County,NY,NA,23.52941176470588
14224,Erie County,NY,4.62962962962963,NA
14227,Erie County,NY,NA,32.35294117647059
14420,Monroe County,NY,50.46296296296296,NA
14450,Monroe County,NY,NA,1.7647058823529411
14512,Ontario County,NY,74.53703703703704,NA
14580,Monroe County,NY,NA,0
14590,Wayne County,NY,NA,67.05882352941175
14612,Monroe County,NY,NA,2.3529411764705883
14779,Cattaraugus County,NY,NA,84.70588235294117
14867,Tompkins County,NY,NA,65.29411764705883
27025,Rockingham County,NC,77.77777777777779,NA
27105,Forsyth County,NC,NA,5.294117647058823
27370,Randolph County,NC,NA,67.64705882352942
27607,Wake County,NC,86.11111111111111,NA
27909,Pasquotank County,NC,16.666666666666664,NA
28054,Gaston County,NC,25,NA
28173,Union County,NC,43.05555555555556,NA
58237,Walsh County,ND,NA,97.05882352941177
58301,Ramsey County,ND,70.83333333333334,NA
58503,Burleigh County,ND,37.03703703703704,NA
43160,Fayette County,OH,18.055555555555554,NA
43223,Franklin County,OH,NA,31.176470588235293
43229,Franklin County,OH,5.092592592592593,NA
43230,Franklin County,OH,76.38888888888889,NA
43232,Franklin County,OH,3.2407407407407405,NA
43560,Lucas County,OH,28.703703703703702,NA
43567,Fulton County,OH,52.31481481481482,NA
43605,Lucas County,OH,19.444444444444446,NA
43608,Lucas County,OH,9.25925925925926,NA
43612,Lucas County,OH,4.166666666666666,NA
43623,Lucas County,OH,30.555555555555557,NA
44039,Lorain County,OH,NA,5.88235294117647
44067,Summit County,OH,NA,22.35294117647059
44107,Cuyahoga County,OH,1.8518518518518516,NA
44146,Cuyahoga County,OH,NA,2.941176470588235
44149,Cuyahoga County,OH,74.07407407407408,NA
44212,Medina County,OH,2.7777777777777777,1.1764705882352942
44241,Portage County,OH,NA,27.647058823529413
44504,Mahoning County,OH,91.66666666666666,NA
44685,Summit County,OH,75.46296296296296,NA
45014,Butler County,OH,18.98148148148148,NA
45067,Butler County,OH,59.72222222222222,NA
45102,Clermont County,OH,NA,85.88235294117646
45373,Miami County,OH,6.944444444444445,NA
45426,Montgomery County,OH,80.55555555555556,NA
45601,Ross County,OH,0,NA
45669,Lawrence County,OH,NA,25.294117647058822
45750,Washington County,OH,NA,0.5882352941176471
73099,Canadian County,OK,18.51851851851852,NA
74344,Delaware County,OK,NA,55.88235294117647
74523,Pushmataha County,OK,90.27777777777779,NA
74820,Pontotoc County,OK,8.796296296296296,NA
74960,Adair County,OK,29.629629629629626,NA
97223,Washington County,OR,NA,30.58823529411765
97304,Polk County,OR,NA,83.52941176470588
97386,Linn County,OR,78.24074074074075,NA
97501,Jackson County,OR,10.648148148148149,NA
97838,Umatilla County,OR,22.685185185185187,NA
15071,Allegheny County,PA,NA,80
15417,Fayette County,PA,87.5,NA
15801,Clearfield County,PA,NA,10
15825,Jefferson County,PA,75,NA
15956,Cambria County,PA,97.68518518518519,NA
16201,Armstrong County,PA,NA,14.705882352941178
16511,Erie County,PA,NA,87.05882352941177
16823,Centre County,PA,26.38888888888889,NA
17050,Cumberland County,PA,NA,13.529411764705882
17104,Dauphin County,PA,23.61111111111111,NA
17111,Dauphin County,PA,NA,9.411764705882353
17202,Franklin County,PA,63.42592592592593,NA
18235,Carbon County,PA,NA,35.294117647058826
19002,Montgomery County,PA,40.74074074074074,NA
19014,Delaware County,PA,NA,42.94117647058823
19114,Philadelphia County,PA,NA,27.058823529411764
19132,Philadelphia County,PA,30.09259259259259,NA
19382,Chester County,PA,49.53703703703704,NA
19607,Berks County,PA,NA,24.705882352941178
02825,Providence County,RI,93.05555555555556,NA
29036,Lexington County,SC,87.96296296296296,NA
29073,Lexington County,SC,NA,74.11764705882354
29445,Berkeley County,SC,NA,31.76470588235294
29466,Charleston County,SC,NA,53.529411764705884
29526,Horry County,SC,NA,15.294117647058824
29650,Greenville County,SC,NA,45.294117647058826
29805,Aiken County,SC,NA,94.70588235294117
29909,Beaufort County,SC,NA,21.176470588235293
29920,Beaufort County,SC,84.25925925925925,NA
37027,Williamson County,TN,72.22222222222221,NA
37216,Davidson County,TN,51.388888888888886,NA
37415,Hamilton County,TN,NA,64.11764705882354
38109,Shelby County,TN,NA,20
38474,Maury County,TN,78.70370370370371,NA
75093,Collin County,TX,51.85185185185185,NA
75098,Collin County,TX,NA,39.411764705882355
75158,Kaufman County,TX,95.37037037037037,NA
75402,Hunt County,TX,NA,55.294117647058826
75605,Gregg County,TX,NA,40.588235294117645
75801,Anderson County,TX,66.66666666666666,NA
75979,Tyler County,TX,85.18518518518519,NA
77059,Harris County,TX,NA,69.41176470588235
77077,Harris County,TX,48.61111111111111,NA
77386,Montgomery County,TX,37.96296296296296,NA
77571,Harris County,TX,31.48148148148148,NA
77573,Galveston County,TX,NA,7.647058823529412
77656,Hardin County,TX,58.79629629629629,NA
78248,Bexar County,TX,NA,94.11764705882352
79107,Potter County,TX,NA,58.235294117647065
79761,Ector County,TX,53.24074074074075,NA
84095,Salt Lake County,UT,NA,34.11764705882353
22151,Fairfax County,VA,NA,85.29411764705883
22202,Arlington County,VA,76.85185185185185,NA
22204,Arlington County,VA,31.944444444444443,NA
23111,Hanover County,VA,NA,20.588235294117645
23188,James City County,VA,NA,4.705882352941177
23224,Richmond city,VA,14.814814814814813,NA
24112,Henry County,VA,NA,17.647058823529413
24592,Halifax County,VA,32.870370370370374,NA
98072,King County,WA,NA,62.35294117647059
98168,King County,WA,35.648148148148145,NA
98230,Whatcom County,WA,NA,72.94117647058823
98282,Island County,WA,86.11111111111111,NA
98926,Kittitas County,WA,55.092592592592595,NA
98942,Yakima County,WA,NA,71.76470588235294
99337,Benton County,WA,NA,10.588235294117647
25405,Berkeley County,WV,NA,74.70588235294117
25705,Cabell County,WV,NA,61.76470588235294
26164,Jackson County,WV,64.35185185185185,NA
26241,Randolph County,WV,NA,68.23529411764706
26554,Marion County,WV,3.7037037037037033,NA
53024,Ozaukee County,WI,65.74074074074075,NA
53142,Kenosha County,WI,12.037037037037036,NA
53172,Milwaukee County,WI,39.351851851851855,NA
53185,Racine County,WI,60.64814814814815,NA
53189,Waukesha County,WI,56.94444444444444,NA
53190,Walworth County,WI,NA,68.82352941176471
53405,Racine County,WI,NA,30
53716,Dane County,WI,89.35185185185185,NA
54130,Outagamie County,WI,61.57407407407407,NA
54220,Manitowoc County,WI,5.555555555555555,NA
54303,Brown County,WI,50,NA
54904,Winnebago County,WI,NA,37.64705882352941
