ZipCode,county,state,Adult
35007,Shelby County,AL,51.94805194805194
35405,Tuscaloosa County,AL,8.311688311688311
35453,Tuscaloosa County,AL,54.63203463203463
35476,Tuscaloosa County,AL,91.86147186147187
35570,Marion County,AL,86.23376623376623
35750,Madison County,AL,59.480519480519476
36561,Baldwin County,AL,98.52813852813853
36609,Mobile County,AL,81.81818181818183
36610,Mobile County,AL,62.5974025974026
36701,Dallas County,AL,28.3982683982684
36804,Lee County,AL,58.0952380952381
99501,Anchorage Municipality,AK,23.116883116883116
99503,Anchorage Municipality,AK,85.02164502164501
99504,Anchorage Municipality,AK,22.943722943722943
99654,Matanuska-Susitna Borough,AK,37.66233766233766
85009,Maricopa County,AZ,14.805194805194805
85017,Maricopa County,AZ,34.11255411255411
85018,Maricopa County,AZ,35.93073593073593
85032,Maricopa County,AZ,47.27272727272727
85035,Maricopa County,AZ,17.22943722943723
85042,Maricopa County,AZ,27.359307359307362
85132,Pinal County,AZ,39.39393939393939
85202,Maricopa County,AZ,21.471861471861473
85203,Maricopa County,AZ,69.17748917748918
85215,Maricopa County,AZ,80.6926406926407
85224,Maricopa County,AZ,47.61904761904761
85225,Maricopa County,AZ,12.380952380952381
85255,Maricopa County,AZ,77.40259740259741
85286,Maricopa County,AZ,36.277056277056275
85323,Maricopa County,AZ,33.85281385281385
85326,Maricopa County,AZ,29.783549783549784
85350,Yuma County,AZ,77.57575757575758
85607,Cochise County,AZ,60.6926406926407
85716,Pima County,AZ,86.40692640692642
85757,Pima County,AZ,27.445887445887447
85937,Navajo County,AZ,81.38528138528139
86004,Coconino County,AZ,6.58008658008658
86025,Navajo County,AZ,90.38961038961038
86040,Coconino County,AZ,65.1082251082251
86413,Mohave County,AZ,59.04761904761905
72023,Lonoke County,AR,94.63203463203463
72032,Faulkner County,AR,41.904761904761905
90001,Los Angeles County,CA,75.58441558441558
90008,Los Angeles County,CA,74.71861471861472
90022,Los Angeles County,CA,38.00865800865801
90064,Los Angeles County,CA,28.57142857142857
90221,Los Angeles County,CA,10.995670995670997
90278,Los Angeles County,CA,60.952380952380956
90605,Los Angeles County,CA,80.51948051948052
90650,Los Angeles County,CA,18.874458874458874
90731,Los Angeles County,CA,32.55411255411255
90815,Los Angeles County,CA,51.6017316017316
91101,Los Angeles County,CA,88.65800865800865
91331,Los Angeles County,CA,60
91501,Los Angeles County,CA,87.35930735930737
91764,San Bernardino County,CA,38.35497835497835
91770,Los Angeles County,CA,51.77489177489177
92021,San Diego County,CA,16.450216450216452
92026,San Diego County,CA,54.8051948051948
92071,San Diego County,CA,73.85281385281385
92104,San Diego County,CA,91.16883116883116
92117,San Diego County,CA,56.88311688311688
92223,Riverside County,CA,76.7965367965368
92233,Imperial County,CA,98.44155844155844
92252,San Bernardino County,CA,73.67965367965368
92260,Riverside County,CA,54.718614718614724
92316,San Bernardino County,CA,78.35497835497836
92337,San Bernardino County,CA,98.96103896103897
92345,San Bernardino County,CA,10.562770562770563
92376,San Bernardino County,CA,82.94372294372295
92399,San Bernardino County,CA,31.861471861471863
92504,Riverside County,CA,44.675324675324674
92505,Riverside County,CA,48.484848484848484
92507,Riverside County,CA,44.32900432900433
92509,Riverside County,CA,24.329004329004327
92571,Riverside County,CA,89.0909090909091
92583,Riverside County,CA,63.116883116883116
92591,Riverside County,CA,49.95670995670996
92630,Orange County,CA,35.58441558441559
92677,Orange County,CA,35.41125541125541
92870,Orange County,CA,38.52813852813853
93003,Ventura County,CA,16.536796536796537
93306,Kern County,CA,21.645021645021643
93313,Kern County,CA,52.72727272727272
93422,San Luis Obispo County,CA,48.74458874458875
93455,Santa Barbara County,CA,33.59307359307359
93555,Kern County,CA,25.97402597402597
93703,Fresno County,CA,73.59307359307358
93930,Monterey County,CA,73.50649350649351
93940,Monterey County,CA,52.81385281385281
94015,San Mateo County,CA,46.14718614718615
94110,San Francisco County,CA,14.025974025974024
94134,San Francisco County,CA,40.865800865800864
94303,San Mateo County,CA,60.77922077922078
94533,Solano County,CA,24.415584415584416
94534,Solano County,CA,64.5021645021645
94560,Alameda County,CA,54.285714285714285
94621,Alameda County,CA,64.84848484848484
94801,Contra Costa County,CA,87.79220779220779
94941,Marin County,CA,73.07359307359307
95012,Monterey County,CA,83.80952380952381
95062,Santa Cruz County,CA,72.98701298701299
95121,Santa Clara County,CA,89.35064935064935
95202,San Joaquin County,CA,30.303030303030305
95209,San Joaquin County,CA,48.658008658008654
95252,Calaveras County,CA,94.11255411255411
95367,Stanislaus County,CA,79.74025974025975
95380,Stanislaus County,CA,28.65800865800866
95391,San Joaquin County,CA,80.34632034632034
95401,Sonoma County,CA,57.48917748917749
95608,Sacramento County,CA,42.51082251082251
95630,Sacramento County,CA,27.532467532467532
95667,El Dorado County,CA,65.02164502164503
95682,El Dorado County,CA,96.1038961038961
95691,Yolo County,CA,78.87445887445888
95758,Sacramento County,CA,88.48484848484848
95819,Sacramento County,CA,98.7012987012987
95822,Sacramento County,CA,41.64502164502164
95832,Sacramento County,CA,89.43722943722943
95835,Sacramento County,CA,67.61904761904762
95838,Sacramento County,CA,37.74891774891775
95969,Butte County,CA,32.98701298701299
80027,Boulder County,CO,83.11688311688312
80127,Jefferson County,CO,49.00432900432901
80128,Jefferson County,CO,58.96103896103896
80202,Denver County,CO,52.64069264069264
80204,Denver County,CO,22.770562770562773
80205,Denver County,CO,43.896103896103895
80210,Denver County,CO,55.15151515151515
80211,Denver County,CO,69.35064935064935
80219,Denver County,CO,24.848484848484848
80234,Adams County,CO,63.116883116883116
80501,Boulder County,CO,21.558441558441558
80524,Larimer County,CO,31.428571428571427
80538,Larimer County,CO,13.073593073593074
80621,Weld County,CO,74.28571428571429
80631,Weld County,CO,8.484848484848486
80634,Weld County,CO,2.5108225108225106
80808,El Paso County,CO,91.34199134199135
80922,El Paso County,CO,56.1038961038961
81001,Pueblo County,CO,22.337662337662337
81416,Delta County,CO,73.07359307359307
81505,Mesa County,CO,87.53246753246754
81650,Garfield County,CO,77.22943722943722
81652,Garfield County,CO,97.22943722943724
06040,Hartford County,CT,10.909090909090908
06042,Hartford County,CT,40.519480519480524
06051,Hartford County,CT,3.8095238095238098
06053,Hartford County,CT,11.601731601731602
06082,Hartford County,CT,19.913419913419915
06108,Hartford County,CT,63.37662337662338
06112,Hartford County,CT,85.8008658008658
06114,Hartford County,CT,17.835497835497836
06120,Hartford County,CT,76.96969696969697
06401,New Haven County,CT,31.948051948051948
06457,Middlesex County,CT,7.792207792207792
06460,New Haven County,CT,62.077922077922075
06484,Fairfield County,CT,37.4025974025974
06489,Hartford County,CT,31.774891774891774
06511,New Haven County,CT,4.588744588744588
06512,New Haven County,CT,23.982683982683984
06513,New Haven County,CT,41.73160173160173
06514,New Haven County,CT,67.44588744588744
06516,New Haven County,CT,51.42857142857142
06518,New Haven County,CT,81.38528138528139
06604,Fairfield County,CT,20.606060606060606
06606,Fairfield County,CT,18.874458874458874
06810,Fairfield County,CT,47.96536796536797
19713,New Castle County,DE,32.294372294372295
19720,New Castle County,DE,3.0303030303030303
19938,Kent County,DE,66.66666666666666
19947,Sussex County,DE,46.83982683982684
19971,Sussex County,DE,71.42857142857143
32145,St. Johns County,FL,99.65367965367965
32209,Duval County,FL,4.242424242424243
32216,Duval County,FL,19.826839826839826
32226,Duval County,FL,46.58008658008658
32233,Duval County,FL,42.33766233766234
32244,Duval County,FL,5.714285714285714
32258,Duval County,FL,55.41125541125541
32301,Leon County,FL,65.45454545454545
32327,Wakulla County,FL,76.27705627705627
32501,Escambia County,FL,89.26406926406926
32503,Escambia County,FL,21.991341991341994
32569,Okaloosa County,FL,87.87878787878788
32605,Alachua County,FL,29.264069264069263
32606,Alachua County,FL,35.75757575757576
32703,Orange County,FL,24.06926406926407
32725,Volusia County,FL,37.22943722943723
32796,Brevard County,FL,52.467532467532465
32803,Orange County,FL,72.72727272727273
32909,Brevard County,FL,41.99134199134199
32920,Brevard County,FL,94.1991341991342
32960,Indian River County,FL,49.95670995670996
33027,Broward County,FL,89.00432900432901
33055,Miami-Dade County,FL,52.03463203463203
33063,Broward County,FL,44.06926406926407
33068,Broward County,FL,84.24242424242424
33126,Miami-Dade County,FL,68.65800865800867
33147,Miami-Dade County,FL,34.54545454545455
33173,Miami-Dade County,FL,80.17316017316017
33313,Broward County,FL,54.112554112554115
33407,Palm Beach County,FL,30.562770562770563
33511,Hillsborough County,FL,39.740259740259745
33527,Hillsborough County,FL,82.77056277056278
33542,Pasco County,FL,55.15151515151515
33569,Hillsborough County,FL,90.64935064935065
33578,Hillsborough County,FL,36.45021645021645
33604,Hillsborough County,FL,25.19480519480519
33610,Hillsborough County,FL,15.844155844155845
33615,Hillsborough County,FL,29.43722943722944
33617,Hillsborough County,FL,35.58441558441559
33763,Pinellas County,FL,83.03030303030303
33772,Pinellas County,FL,77.31601731601731
33776,Pinellas County,FL,96.27705627705627
33782,Pinellas County,FL,87.01298701298701
33805,Polk County,FL,42.16450216450217
33837,Polk County,FL,86.83982683982684
33870,Highlands County,FL,29.87012987012987
33952,Charlotte County,FL,26.060606060606062
33967,Lee County,FL,57.92207792207792
34120,Collier County,FL,37.83549783549783
34420,Marion County,FL,70.64935064935065
34472,Marion County,FL,69.61038961038962
34638,Pasco County,FL,69.52380952380952
34655,Pasco County,FL,35.23809523809524
34690,Pasco County,FL,71.77489177489178
34744,Osceola County,FL,59.913419913419915
34759,Polk County,FL,41.21212121212121
34952,St. Lucie County,FL,25.887445887445885
30014,Newton County,GA,87.61904761904762
30016,Newton County,GA,14.112554112554113
30039,Gwinnett County,GA,41.55844155844156
30068,Cobb County,GA,96.96969696969697
30101,Cobb County,GA,27.61904761904762
30114,Cherokee County,GA,37.316017316017316
30127,Cobb County,GA,19.307359307359306
30141,Paulding County,GA,67.87878787878789
30188,Cherokee County,GA,23.54978354978355
30263,Coweta County,GA,11.168831168831169
30265,Coweta County,GA,78.26839826839827
30276,Coweta County,GA,71.16883116883118
30281,Henry County,GA,27.186147186147185
30318,Fulton County,GA,61.55844155844156
30519,Gwinnett County,GA,75.4978354978355
30529,Jackson County,GA,78.87445887445888
30601,Clarke County,GA,68.83116883116884
30701,Gordon County,GA,32.64069264069264
30741,Walker County,GA,20.51948051948052
31027,Laurens County,GA,86.66666666666667
31204,Bibb County,GA,33.939393939393945
31401,Chatham County,GA,66.58008658008659
31714,Turner County,GA,75.67099567099567
31907,Muscogee County,GA,34.1991341991342
31909,Muscogee County,GA,81.81818181818183
96753,Maui County,HI,77.14285714285715
96778,Hawaii County,HI,88.3982683982684
96816,Honolulu County,HI,33.76623376623377
96817,Honolulu County,HI,12.554112554112553
83204,Bannock County,ID,53.41991341991342
83211,Power County,ID,81.991341991342
83336,Minidoka County,ID,97.74891774891775
83501,Nez Perce County,ID,15.757575757575756
83617,Gem County,ID,71.16883116883118
83619,Payette County,ID,93.24675324675324
83634,Ada County,ID,42.943722943722946
83642,Ada County,ID,18.787878787878785
83805,Boundary County,ID,98.00865800865802
60035,Lake County,IL,46.75324675324675
60108,DuPage County,IL,58.78787878787879
60120,Kane County,IL,60.60606060606061
60142,McHenry County,IL,45.02164502164502
60164,Cook County,IL,42.683982683982684
60177,Kane County,IL,57.92207792207792
60181,DuPage County,IL,31.515151515151512
60185,DuPage County,IL,39.04761904761905
60404,Will County,IL,90.21645021645021
60451,Will County,IL,21.038961038961038
60490,Will County,IL,61.125541125541126
60513,Cook County,IL,43.46320346320346
60601,Cook County,IL,84.93506493506493
60618,Cook County,IL,8.398268398268398
60632,Cook County,IL,45.714285714285715
60638,Cook County,IL,9.696969696969697
60640,Cook County,IL,66.4069264069264
60707,Cook County,IL,21.21212121212121
61101,Winnebago County,IL,85.45454545454545
61265,Rock Island County,IL,48.3982683982684
61611,Tazewell County,IL,73.07359307359307
61866,Champaign County,IL,43.722943722943725
62040,Madison County,IL,53.073593073593074
62656,Logan County,IL,73.93939393939394
46064,Madison County,IN,96.45021645021646
46143,Johnson County,IN,56.7965367965368
46226,Marion County,IN,12.207792207792208
46235,Marion County,IN,20.77922077922078
46311,Lake County,IN,34.285714285714285
46321,Lake County,IN,36.62337662337662
46327,Lake County,IN,63.116883116883116
46366,Starke County,IN,78.61471861471861
46368,Porter County,IN,2.7705627705627704
46383,Porter County,IN,7.878787878787878
46516,Elkhart County,IN,17.92207792207792
46517,Elkhart County,IN,76.62337662337663
46544,St. Joseph County,IN,95.93073593073593
46805,Allen County,IN,35.064935064935064
46835,Allen County,IN,35.15151515151515
47112,Harrison County,IN,56.709956709956714
47130,Clark County,IN,9.783549783549784
47150,Floyd County,IN,11.255411255411255
47348,Blackford County,IN,95.84415584415584
47710,Vanderburgh County,IN,37.57575757575757
47711,Vanderburgh County,IN,76.01731601731602
50014,Story County,IA,86.58008658008657
50158,Marshall County,IA,26.926406926406926
50317,Polk County,IA,42.077922077922075
50401,Cerro Gordo County,IA,12.467532467532468
51103,Woodbury County,IA,50.476190476190474
51105,Woodbury County,IA,68.22510822510822
51108,Woodbury County,IA,91.08225108225109
51501,Pottawattamie County,IA,36.96969696969697
51503,Pottawattamie County,IA,8.744588744588745
52317,Johnson County,IA,52.2077922077922
52405,Linn County,IA,41.47186147186147
66213,Johnson County,KS,88.83116883116882
67209,Sedgwick County,KS,93.24675324675324
67301,Montgomery County,KS,80.60606060606061
40059,Jefferson County,KY,77.74891774891775
40065,Shelby County,KY,43.37662337662337
40071,Spencer County,KY,54.8051948051948
40203,Jefferson County,KY,23.203463203463205
40212,Jefferson County,KY,26.580086580086583
40214,Jefferson County,KY,6.8398268398268405
40216,Jefferson County,KY,9.177489177489177
40218,Jefferson County,KY,15.151515151515152
40219,Jefferson County,KY,13.939393939393941
40223,Jefferson County,KY,65.62770562770562
40330,Mercer County,KY,53.76623376623376
40403,Madison County,KY,23.636363636363637
40475,Madison County,KY,52.55411255411255
40701,Whitley County,KY,11.428571428571429
41011,Kenton County,KY,15.670995670995671
41017,Kenton County,KY,33.41991341991342
41035,Grant County,KY,75.41125541125541
41091,Boone County,KY,71.94805194805195
42455,Webster County,KY,93.93939393939394
70056,Jefferson Parish,LA,4.5021645021645025
70065,Jefferson Parish,LA,93.41991341991343
70072,Jefferson Parish,LA,9.437229437229437
70094,Jefferson Parish,LA,25.281385281385283
70127,Orleans Parish,LA,31.255411255411254
70346,Ascension Parish,LA,85.28138528138528
70403,Tangipahoa Parish,LA,6.753246753246753
70501,Lafayette Parish,LA,82.33766233766234
70517,St. Martin Parish,LA,14.372294372294373
70525,Acadia Parish,LA,51.16883116883116
70546,Jefferson Davis Parish,LA,29.6969696969697
70560,Iberia Parish,LA,16.623376623376622
70754,Livingston Parish,LA,98.26839826839827
70769,Ascension Parish,LA,10.216450216450216
70805,East Baton Rouge Parish,LA,95.58441558441558
71047,Caddo Parish,LA,96.62337662337663
71101,Caddo Parish,LA,99.91341991341992
71107,Caddo Parish,LA,96.19047619047619
71108,Caddo Parish,LA,10.649350649350648
04072,York County,ME,41.81818181818181
04074,Cumberland County,ME,67.27272727272727
04084,Cumberland County,ME,70.82251082251082
04102,Cumberland County,ME,90.73593073593074
04210,Androscoggin County,ME,19.74025974025974
04240,Androscoggin County,ME,30.99567099567099
04401,Penobscot County,ME,90.04329004329004
20724,Anne Arundel County,MD,81.73160173160173
20879,Montgomery County,MD,82.5108225108225
20895,Montgomery County,MD,88.05194805194805
21014,Harford County,MD,92.38095238095238
21029,Howard County,MD,100
21032,Anne Arundel County,MD,97.66233766233766
21093,Baltimore County,MD,45.45454545454545
21117,Baltimore County,MD,31.082251082251084
21122,Anne Arundel County,MD,8.138528138528137
21215,Baltimore city,MD,8.051948051948052
21230,Baltimore city,MD,67.79220779220779
21234,Baltimore County,MD,17.142857142857142
21237,Baltimore County,MD,53.67965367965368
21244,Baltimore County,MD,46.320346320346324
21704,Frederick County,MD,94.54545454545455
21804,Wicomico County,MD,75.93073593073592
01001,Hampden County,MA,28.05194805194805
01040,Hampden County,MA,5.541125541125541
01056,Hampden County,MA,94.02597402597402
01109,Hampden County,MA,2.0779220779220777
01201,Berkshire County,MA,1.0389610389610389
01247,Berkshire County,MA,5.974025974025974
01453,Worcester County,MA,21.125541125541126
01571,Worcester County,MA,30.822510822510825
01588,Worcester County,MA,90.56277056277057
01607,Worcester County,MA,89.6103896103896
01801,Middlesex County,MA,0.9523809523809524
01821,Middlesex County,MA,80.86580086580086
01876,Middlesex County,MA,6.926406926406926
01887,Middlesex County,MA,98.87445887445887
01902,Essex County,MA,0.17316017316017315
01904,Essex County,MA,95.4978354978355
01915,Essex County,MA,1.471861471861472
01930,Essex County,MA,73.41991341991341
01960,Essex County,MA,72.20779220779221
02066,Plymouth County,MA,38.61471861471861
02072,Norfolk County,MA,8.658008658008658
02081,Norfolk County,MA,23.376623376623375
02119,Suffolk County,MA,0.08658008658008658
02122,Suffolk County,MA,1.2987012987012987
02131,Suffolk County,MA,51.25541125541125
02140,Middlesex County,MA,17.575757575757574
02145,Middlesex County,MA,4.761904761904762
02148,Middlesex County,MA,62.16450216450217
02150,Suffolk County,MA,13.766233766233766
02152,Suffolk County,MA,13.506493506493506
02176,Middlesex County,MA,7.532467532467532
02301,Plymouth County,MA,0
02324,Plymouth County,MA,40.086580086580085
02382,Plymouth County,MA,96.36363636363636
02472,Middlesex County,MA,62.683982683982684
02571,Plymouth County,MA,87.44588744588745
02601,Barnstable County,MA,4.329004329004329
02780,Bristol County,MA,0.3463203463203463
48045,Macomb County,MI,25.627705627705627
48047,Macomb County,MI,15.238095238095239
48074,St. Clair County,MI,69.0909090909091
48091,Macomb County,MI,6.493506493506493
48105,Washtenaw County,MI,41.125541125541126
48125,Wayne County,MI,55.67099567099567
48133,Monroe County,MI,97.31601731601731
48161,Monroe County,MI,7.445887445887446
48164,Wayne County,MI,72.12121212121212
48185,Wayne County,MI,5.627705627705628
48203,Wayne County,MI,64.15584415584415
48204,Wayne County,MI,10.476190476190476
48205,Wayne County,MI,3.982683982683983
48206,Wayne County,MI,60.43290043290044
48207,Wayne County,MI,20.086580086580085
48210,Wayne County,MI,58.26839826839827
48213,Wayne County,MI,39.48051948051948
48214,Wayne County,MI,78.44155844155844
48221,Wayne County,MI,5.367965367965368
48223,Wayne County,MI,13.593073593073592
48224,Wayne County,MI,1.9047619047619049
48225,Wayne County,MI,41.03896103896104
48227,Wayne County,MI,3.2034632034632033
48228,Wayne County,MI,1.3852813852813852
48235,Wayne County,MI,1.9913419913419914
48240,Wayne County,MI,21.73160173160173
48313,Macomb County,MI,27.79220779220779
48314,Macomb County,MI,44.761904761904766
48390,Oakland County,MI,40.43290043290043
48429,Shiawassee County,MI,64.24242424242425
48433,Genesee County,MI,53.246753246753244
48473,Genesee County,MI,45.62770562770563
48507,Genesee County,MI,68.48484848484848
48601,Saginaw County,MI,1.645021645021645
48637,Saginaw County,MI,96.88311688311688
48813,Eaton County,MI,40.086580086580085
48837,Eaton County,MI,80.77922077922078
48838,Montcalm County,MI,33.246753246753244
48846,Ionia County,MI,70.3030303030303
48867,Shiawassee County,MI,7.0995670995671
49009,Kalamazoo County,MI,12.9004329004329
49022,Berrien County,MI,9.956709956709958
49203,Jackson County,MI,7.6190476190476195
49230,Jackson County,MI,71.68831168831169
49319,Kent County,MI,30.735930735930733
49401,Ottawa County,MI,57.57575757575758
49424,Ottawa County,MI,16.19047619047619
49431,Mason County,MI,66.14718614718615
49461,Muskegon County,MI,73.67965367965368
49503,Kent County,MI,11.515151515151516
49504,Kent County,MI,63.896103896103895
49506,Kent County,MI,25.541125541125542
49507,Kent County,MI,25.454545454545453
49508,Kent County,MI,5.800865800865801
55033,Dakota County,MN,31.082251082251084
55060,Steele County,MN,38.701298701298704
55106,Ramsey County,MN,70.3896103896104
55109,Ramsey County,MN,47.35930735930736
55113,Ramsey County,MN,48.57142857142857
55116,Ramsey County,MN,93.07359307359307
55119,Ramsey County,MN,14.632034632034632
55304,Anoka County,MN,42.77056277056277
55376,Wright County,MN,83.54978354978356
55398,Sherburne County,MN,74.8051948051948
55404,Hennepin County,MN,1.1255411255411256
55405,Hennepin County,MN,38.268398268398265
55407,Hennepin County,MN,48.311688311688314
55411,Hennepin County,MN,18.095238095238095
55420,Hennepin County,MN,40.95238095238095
55427,Hennepin County,MN,88.91774891774892
55429,Hennepin County,MN,13.246753246753245
55434,Anoka County,MN,63.37662337662338
55435,Hennepin County,MN,94.8051948051948
55448,Anoka County,MN,72.03463203463204
55906,Olmsted County,MN,70.12987012987013
55987,Winona County,MN,8.225108225108226
56007,Freeborn County,MN,16.363636363636363
56065,Blue Earth County,MN,98.61471861471861
56303,Stearns County,MN,32.900432900432904
56345,Morrison County,MN,63.63636363636363
56374,Stearns County,MN,92.03463203463204
56537,Otter Tail County,MN,67.53246753246754
56544,Becker County,MN,88.05194805194805
56560,Clay County,MN,1.5584415584415585
56601,Beltrami County,MN,6.233766233766234
56633,Hubbard County,MN,85.62770562770564
56721,Polk County,MN,79.65367965367966
38666,Panola County,MS,98.09523809523809
38672,DeSoto County,MS,99.39393939393939
38703,Washington County,MS,69.87012987012987
38852,Tishomingo County,MS,56.36363636363636
39157,Madison County,MS,67.01298701298701
39170,Hinds County,MS,81.03896103896105
39204,Hinds County,MS,56.01731601731602
39470,Pearl River County,MS,79.3073593073593
63010,Jefferson County,MO,81.64502164502164
63043,St. Louis County,MO,53.333333333333336
63074,St. Louis County,MO,61.125541125541126
63112,St. Louis city,MO,53.160173160173166
63113,St. Louis city,MO,64.24242424242425
63114,St. Louis County,MO,26.147186147186147
63137,St. Louis County,MO,39.65367965367965
63138,St. Louis County,MO,78.0952380952381
63301,St. Charles County,MO,14.978354978354979
63304,St. Charles County,MO,30.909090909090907
63368,St. Charles County,MO,44.06926406926407
63664,Washington County,MO,74.28571428571429
64012,Cass County,MO,28.225108225108226
64029,Jackson County,MO,41.2987012987013
64052,Jackson County,MO,84.06926406926407
64063,Jackson County,MO,70.47619047619048
64079,Platte County,MO,56.96969696969697
64081,Jackson County,MO,93.5064935064935
64106,Jackson County,MO,28.83116883116883
64110,Jackson County,MO,97.14285714285714
64119,Clay County,MO,91.68831168831169
64129,Jackson County,MO,50.73593073593074
64151,Platte County,MO,64.41558441558442
64506,Buchanan County,MO,19.653679653679653
64671,Caldwell County,MO,99.22077922077922
64701,Cass County,MO,45.887445887445885
64725,Cass County,MO,95.23809523809523
64836,Jasper County,MO,19.393939393939394
64854,McDonald County,MO,89.52380952380953
65340,Saline County,MO,36.36363636363637
65714,Christian County,MO,49.26406926406926
65757,Greene County,MO,97.4891774891775
65804,Greene County,MO,30.21645021645022
59801,Missoula County,MT,63.54978354978355
59803,Missoula County,MT,84.4155844155844
68007,Douglas County,NE,83.72294372294373
68128,Sarpy County,NE,97.92207792207792
68144,Douglas County,NE,86.92640692640693
68516,Lancaster County,NE,66.32034632034632
68801,Hall County,NE,82.25108225108225
69101,Lincoln County,NE,24.675324675324674
89106,Clark County,NV,49.43722943722943
89115,Clark County,NV,53.5064935064935
89122,Clark County,NV,26.406926406926406
89129,Clark County,NV,49.696969696969695
89523,Washoe County,NV,79.22077922077922
89801,Elko County,NV,65.97402597402598
03052,Hillsborough County,NH,72.55411255411255
03053,Rockingham County,NH,28.13852813852814
03841,Rockingham County,NH,92.98701298701299
07018,Essex County,NJ,27.01298701298701
07087,Hudson County,NJ,18.528138528138527
07102,Essex County,NJ,32.121212121212125
07103,Essex County,NJ,0.8658008658008658
07104,Essex County,NJ,0.6060606060606061
07107,Essex County,NJ,38.00865800865801
07112,Essex County,NJ,68.13852813852814
07461,Sussex County,NJ,82.16450216450217
07501,Passaic County,NJ,14.45887445887446
07514,Passaic County,NJ,31.68831168831169
07650,Bergen County,NJ,67.18614718614718
07840,Warren County,NJ,66.75324675324676
08012,Camden County,NJ,26.75324675324675
08021,Camden County,NJ,0.2597402597402597
08037,Atlantic County,NJ,16.796536796536795
08051,Gloucester County,NJ,58.44155844155844
08060,Burlington County,NJ,84.67532467532467
08103,Camden County,NJ,80.08658008658008
08108,Camden County,NJ,61.81818181818181
08203,Atlantic County,NJ,84.84848484848484
08401,Atlantic County,NJ,3.6363636363636362
08550,Mercer County,NJ,92.64069264069265
08618,Mercer County,NJ,0.7792207792207793
08638,Mercer County,NJ,98.7878787878788
08753,Ocean County,NJ,2.2510822510822512
08759,Ocean County,NJ,94.71861471861472
08805,Somerset County,NJ,98.18181818181819
08854,Middlesex County,NJ,64.76190476190476
08869,Somerset County,NJ,95.06493506493506
08873,Somerset County,NJ,46.926406926406926
87002,Valencia County,NM,51.25541125541125
87004,Sandoval County,NM,72.8138528138528
87031,Valencia County,NM,29.09090909090909
87105,Bernalillo County,NM,40.34632034632035
87106,Bernalillo County,NM,79.39393939393939
87108,Bernalillo County,NM,6.666666666666667
87109,Bernalillo County,NM,18.441558441558442
87110,Bernalillo County,NM,59.74025974025974
87111,Bernalillo County,NM,62.251082251082245
87113,Bernalillo County,NM,77.48917748917748
87120,Bernalillo County,NM,36.103896103896105
87121,Bernalillo County,NM,4.069264069264069
87123,Bernalillo County,NM,13.679653679653681
87124,Sandoval County,NM,70.04329004329004
87313,McKinley County,NM,76.88311688311688
87321,McKinley County,NM,99.56709956709958
87327,Cibola County,NM,67.09956709956711
87328,McKinley County,NM,97.83549783549783
87410,San Juan County,NM,65.28138528138528
87505,Santa Fe County,NM,5.108225108225108
87506,Santa Fe County,NM,93.85281385281385
88001,Doa Ana County,NM,59.22077922077922
88030,Luna County,NM,60.17316017316018
10035,New York County,NY,26.666666666666668
10451,Bronx County,NY,17.48917748917749
10452,Bronx County,NY,27.878787878787882
10457,Bronx County,NY,0.5194805194805194
10458,Bronx County,NY,12.727272727272727
10459,Bronx County,NY,4.935064935064935
10463,Bronx County,NY,7.705627705627706
10465,Bronx County,NY,31.341991341991342
10466,Bronx County,NY,84.32900432900433
10469,Bronx County,NY,3.463203463203463
10472,Bronx County,NY,55.064935064935064
10562,Westchester County,NY,72.9004329004329
10566,Westchester County,NY,56.536796536796544
11201,Kings County,NY,21.818181818181817
11209,Kings County,NY,34.37229437229437
11213,Kings County,NY,24.935064935064936
11218,Kings County,NY,49.523809523809526
11235,Kings County,NY,42.59740259740259
11368,Queens County,NY,30.476190476190478
11413,Queens County,NY,49.87012987012987
11421,Queens County,NY,66.23376623376623
11429,Queens County,NY,88.57142857142857
11590,Nassau County,NY,93.5930735930736
11691,Queens County,NY,34.718614718614724
11763,Suffolk County,NY,74.19913419913419
12020,Saratoga County,NY,20.346320346320347
12078,Fulton County,NY,4.1558441558441555
12095,Fulton County,NY,46.493506493506494
12182,Rensselaer County,NY,50.82251082251082
12202,Albany County,NY,59.307359307359306
12428,Ulster County,NY,82.33766233766234
12603,Dutchess County,NY,89.78354978354979
12839,Washington County,NY,60.259740259740255
12901,Clinton County,NY,3.3766233766233764
12919,Clinton County,NY,91.25541125541126
13021,Cayuga County,NY,3.54978354978355
13035,Madison County,NY,82.5974025974026
13041,Onondaga County,NY,69.43722943722945
13114,Oswego County,NY,58.61471861471862
13126,Oswego County,NY,3.722943722943723
13167,Oswego County,NY,94.97835497835497
13203,Onondaga County,NY,20
13204,Onondaga County,NY,58.61471861471862
13205,Onondaga County,NY,14.1991341991342
13210,Onondaga County,NY,37.056277056277054
13212,Onondaga County,NY,32.38095238095238
13323,Oneida County,NY,68.31168831168831
13421,Madison County,NY,24.935064935064936
13662,St. Lawrence County,NY,32.20779220779221
13669,St. Lawrence County,NY,22.857142857142858
13753,Delaware County,NY,65.1082251082251
13775,Delaware County,NY,99.04761904761905
13849,Otsego County,NY,76.7099567099567
13901,Broome County,NY,21.298701298701296
14032,Erie County,NY,83.29004329004329
14043,Erie County,NY,34.45887445887446
14051,Erie County,NY,43.290043290043286
14070,Erie County,NY,91.6017316017316
14094,Niagara County,NY,1.8181818181818181
14207,Erie County,NY,33.33333333333333
14211,Erie County,NY,8.484848484848486
14219,Erie County,NY,77.66233766233766
14224,Erie County,NY,5.454545454545454
14225,Erie County,NY,35.23809523809524
14411,Orleans County,NY,82.68398268398268
14423,Livingston County,NY,86.40692640692642
14424,Ontario County,NY,2.683982683982684
14450,Monroe County,NY,2.857142857142857
14456,Ontario County,NY,7.35930735930736
14489,Wayne County,NY,33.939393939393945
14527,Yates County,NY,59.56709956709957
14551,Wayne County,NY,50.303030303030305
14606,Monroe County,NY,35.4978354978355
14608,Monroe County,NY,43.63636363636363
14609,Monroe County,NY,0.4329004329004329
14615,Monroe County,NY,77.05627705627705
14616,Monroe County,NY,3.29004329004329
14617,Monroe County,NY,6.320346320346321
14623,Monroe County,NY,49.61038961038961
14760,Cattaraugus County,NY,9.956709956709958
14850,Tompkins County,NY,5.194805194805195
27040,Forsyth County,NC,87.7056277056277
27105,Forsyth County,NC,56.45021645021645
27106,Forsyth County,NC,14.285714285714285
27205,Randolph County,NC,43.20346320346321
27215,Alamance County,NC,10.129870129870131
27263,Randolph County,NC,46.06060606060606
27312,Chatham County,NC,62.943722943722946
27330,Lee County,NC,54.45887445887446
27510,Orange County,NC,59.134199134199136
27519,Wake County,NC,85.88744588744589
27520,Johnston County,NC,33.67965367965368
27524,Johnston County,NC,71.16883116883118
27527,Johnston County,NC,69.78354978354979
27537,Vance County,NC,37.489177489177486
27601,Wake County,NC,93.16017316017316
27603,Wake County,NC,22.943722943722943
27610,Wake County,NC,7.2727272727272725
27615,Wake County,NC,42.42424242424242
27703,Durham County,NC,39.22077922077922
27713,Durham County,NC,25.108225108225106
27892,Martin County,NC,49.00432900432901
27909,Pasquotank County,NC,86.75324675324674
27944,Perquimans County,NC,65.88744588744588
28079,Union County,NC,49.17748917748918
28090,Cleveland County,NC,67.96536796536796
28110,Union County,NC,23.463203463203463
28115,Iredell County,NC,22.164502164502164
28144,Rowan County,NC,35.84415584415584
28152,Cleveland County,NC,38.874458874458874
28164,Gaston County,NC,77.74891774891775
28173,Union County,NC,40.77922077922078
28205,Mecklenburg County,NC,20.865800865800864
28206,Mecklenburg County,NC,42.943722943722946
28208,Mecklenburg County,NC,9.264069264069263
28215,Mecklenburg County,NC,16.277056277056275
28227,Mecklenburg County,NC,20.952380952380953
28318,Sampson County,NC,90.30303030303031
28409,New Hanover County,NC,70.82251082251082
28433,Bladen County,NC,94.1991341991342
28451,Brunswick County,NC,83.37662337662337
28518,Duplin County,NC,85.97402597402596
28539,Onslow County,NC,72.64069264069263
28551,Lenoir County,NC,60.77922077922078
28560,Craven County,NC,29.523809523809526
28602,Catawba County,NC,22.424242424242426
28650,Catawba County,NC,64.58874458874459
28678,Alexander County,NC,81.55844155844156
28712,Transylvania County,NC,50.99567099567099
28715,Buncombe County,NC,76.45021645021644
28719,Jackson County,NC,47.705627705627705
28734,Macon County,NC,17.402597402597404
28762,McDowell County,NC,78.70129870129871
28786,Haywood County,NC,36.79653679653679
28789,Jackson County,NC,85.97402597402596
58503,Burleigh County,ND,34.97835497835498
58601,Stark County,ND,45.8008658008658
58701,Ward County,ND,10.735930735930737
43017,Franklin County,OH,61.038961038961034
43040,Union County,OH,58.35497835497836
43055,Licking County,OH,11.861471861471863
43062,Licking County,OH,80
43064,Madison County,OH,79.56709956709956
43201,Franklin County,OH,48.22510822510823
43213,Franklin County,OH,9.35064935064935
43222,Franklin County,OH,55.4978354978355
43232,Franklin County,OH,3.896103896103896
43235,Franklin County,OH,47.01298701298701
43465,Wood County,OH,78.008658008658
43605,Lucas County,OH,2.3376623376623376
43609,Lucas County,OH,4.848484848484849
43616,Lucas County,OH,44.502164502164504
43701,Muskingum County,OH,0.6926406926406926
43920,Columbiana County,OH,9.090909090909092
44050,Lorain County,OH,71.6017316017316
44055,Lorain County,OH,8.831168831168831
44090,Lorain County,OH,58.87445887445888
44092,Lake County,OH,45.36796536796537
44104,Cuyahoga County,OH,21.904761904761905
44105,Cuyahoga County,OH,6.147186147186147
44108,Cuyahoga County,OH,2.943722943722944
44109,Cuyahoga County,OH,4.415584415584416
44112,Cuyahoga County,OH,7.965367965367966
44125,Cuyahoga County,OH,1.2121212121212122
44128,Cuyahoga County,OH,2.5974025974025974
44130,Cuyahoga County,OH,54.97835497835498
44144,Cuyahoga County,OH,12.121212121212121
44240,Portage County,OH,28.31168831168831
44306,Summit County,OH,9.61038961038961
44440,Trumbull County,OH,99.74025974025975
44515,Mahoning County,OH,10.38961038961039
44641,Stark County,OH,65.54112554112554
44685,Summit County,OH,47.18614718614719
44691,Wayne County,OH,31.515151515151512
44706,Stark County,OH,34.63203463203463
44708,Stark County,OH,28.484848484848484
44710,Stark County,OH,61.904761904761905
44830,Seneca County,OH,18.354978354978353
44870,Erie County,OH,1.7316017316017316
45069,Butler County,OH,23.636363636363637
45102,Clermont County,OH,37.83549783549783
45212,Hamilton County,OH,30.38961038961039
45223,Hamilton County,OH,83.46320346320346
45224,Hamilton County,OH,22.07792207792208
45231,Hamilton County,OH,52.121212121212125
45237,Hamilton County,OH,29.61038961038961
45239,Hamilton County,OH,48.83116883116883
45324,Greene County,OH,9.523809523809524
45356,Miami County,OH,15.497835497835496
45409,Montgomery County,OH,90.12987012987013
45410,Montgomery County,OH,45.108225108225106
45431,Montgomery County,OH,47.53246753246753
45449,Montgomery County,OH,36.883116883116884
45458,Montgomery County,OH,39.82683982683983
45653,Scioto County,OH,91.94805194805194
45804,Allen County,OH,11.948051948051948
45806,Allen County,OH,62.943722943722946
45879,Paulding County,OH,50.99567099567099
73099,Canadian County,OK,14.545454545454545
73105,Oklahoma County,OK,92.46753246753246
73109,Oklahoma County,OK,63.98268398268399
73129,Oklahoma County,OK,51.688311688311686
73135,Oklahoma County,OK,45.19480519480519
73139,Oklahoma County,OK,54.1991341991342
73401,Carter County,OK,14.71861471861472
74010,Creek County,OK,87.0995670995671
74012,Tulsa County,OK,57.4025974025974
74021,Tulsa County,OK,70.56277056277057
74063,Tulsa County,OK,57.05627705627706
74106,Tulsa County,OK,38.44155844155844
74114,Tulsa County,OK,84.58874458874459
74126,Tulsa County,OK,76.36363636363637
74133,Tulsa County,OK,32.72727272727273
74135,Tulsa County,OK,92.12121212121212
74525,Atoka County,OK,82.85714285714286
74864,Lincoln County,OK,96.53679653679653
74960,Adair County,OK,26.83982683982684
97030,Multnomah County,OR,18.26839826839827
97031,Hood River County,OR,69.26406926406926
97045,Clackamas County,OR,16.017316017316016
97062,Washington County,OR,57.74891774891775
97080,Multnomah County,OR,25.71428571428571
97116,Washington County,OR,50.56277056277057
97128,Yamhill County,OR,19.480519480519483
97138,Clatsop County,OR,94.45887445887445
97203,Multnomah County,OR,42.25108225108225
97215,Multnomah County,OR,89.95670995670996
97217,Multnomah County,OR,42.857142857142854
97230,Multnomah County,OR,55.67099567099567
97233,Multnomah County,OR,16.883116883116884
97266,Multnomah County,OR,33.506493506493506
97267,Clackamas County,OR,68.3982683982684
97301,Marion County,OR,13.333333333333334
97305,Marion County,OR,26.49350649350649
97317,Marion County,OR,71.86147186147186
75072,NA,NA,80.43290043290044
97322,Linn County,OR,45.541125541125545
97524,Jackson County,OR,74.89177489177489
97537,Jackson County,OR,79.91341991341992
97601,Klamath County,OR,66.92640692640693
97814,Baker County,OR,44.935064935064936
97914,Malheur County,OR,24.58874458874459
15025,Allegheny County,PA,50.649350649350644
15090,Allegheny County,PA,90.82251082251082
15129,Allegheny County,PA,77.74891774891775
15132,Allegheny County,PA,12.034632034632034
15133,Allegheny County,PA,96.70995670995671
15204,Allegheny County,PA,65.71428571428571
15206,Allegheny County,PA,86.14718614718615
15210,Allegheny County,PA,47.0995670995671
15216,Allegheny County,PA,95.67099567099568
15683,Westmoreland County,PA,76.1038961038961
16046,Butler County,PA,85.62770562770564
16101,Lawrence County,PA,6.0606060606060606
16201,Armstrong County,PA,33.16017316017316
16335,Crawford County,PA,11.082251082251082
16830,Clearfield County,PA,61.38528138528139
16901,Tioga County,PA,67.61904761904762
17104,Dauphin County,PA,18.7012987012987
17111,Dauphin County,PA,16.70995670995671
17331,York County,PA,7.012987012987012
17356,York County,PA,62.51082251082251
17401,York County,PA,74.63203463203463
17408,York County,PA,43.54978354978355
17512,Lancaster County,PA,44.41558441558441
17584,Lancaster County,PA,81.2987012987013
17701,Lycoming County,PA,23.29004329004329
17754,Lycoming County,PA,65.36796536796537
17756,Lycoming County,PA,72.38095238095238
17857,Northumberland County,PA,66.06060606060606
17931,Schuylkill County,PA,91.77489177489177
17976,Schuylkill County,PA,93.67965367965368
18018,Lehigh County,PA,56.19047619047619
18042,Northampton County,PA,46.40692640692641
18104,Lehigh County,PA,15.411255411255413
18201,Luzerne County,PA,20.173160173160174
18224,Luzerne County,PA,74.28571428571429
18301,Monroe County,PA,36.19047619047619
18424,Lackawanna County,PA,92.9004329004329
18431,Wayne County,PA,62.42424242424243
18444,Lackawanna County,PA,57.83549783549784
18509,Lackawanna County,PA,56.62337662337662
18603,Columbia County,PA,62.857142857142854
18657,Wyoming County,PA,84.15584415584415
18706,Luzerne County,PA,40.692640692640694
18966,Bucks County,PA,17.575757575757574
18974,Bucks County,PA,22.683982683982684
19020,Bucks County,PA,84.76190476190476
19025,Montgomery County,PA,92.72727272727272
19055,Bucks County,PA,52.98701298701298
19056,Bucks County,PA,50.21645021645021
19057,Bucks County,PA,32.81385281385281
19061,Delaware County,PA,29.17748917748918
19067,Bucks County,PA,19.134199134199132
19082,Delaware County,PA,11.341991341991342
19090,Montgomery County,PA,48.917748917748916
19095,Montgomery County,PA,79.13419913419914
19103,Philadelphia County,PA,47.35930735930736
19119,Philadelphia County,PA,57.22943722943723
19120,Philadelphia County,PA,3.116883116883117
19121,Philadelphia County,PA,8.917748917748918
19129,Philadelphia County,PA,83.98268398268398
19132,Philadelphia County,PA,5.887445887445888
19134,Philadelphia County,PA,36.01731601731602
19135,Philadelphia County,PA,16.103896103896105
19136,Philadelphia County,PA,95.75757575757575
19138,Philadelphia County,PA,13.852813852813853
19139,Philadelphia County,PA,79.04761904761905
19140,Philadelphia County,PA,2.1645021645021645
19141,Philadelphia County,PA,72.2943722943723
19142,Philadelphia County,PA,13.16017316017316
19144,Philadelphia County,PA,4.675324675324675
19151,Philadelphia County,PA,14.891774891774892
19152,Philadelphia County,PA,19.567099567099568
19406,Montgomery County,PA,75.32467532467533
19422,Montgomery County,PA,95.15151515151516
19444,Montgomery County,PA,84.5021645021645
19446,Montgomery County,PA,95.41125541125541
19460,Chester County,PA,24.761904761904763
19464,Montgomery County,PA,5.2813852813852815
19475,Chester County,PA,75.23809523809524
19602,Berks County,PA,11.688311688311687
02806,Bristol County,RI,96.7965367965368
02859,Providence County,RI,92.55411255411255
29203,Richland County,SC,69.6969696969697
29210,Richland County,SC,43.98268398268399
29410,Berkeley County,SC,74.02597402597402
29418,Charleston County,SC,40.60606060606061
29483,Dorchester County,SC,17.74891774891775
29577,Horry County,SC,62.33766233766234
29642,Pickens County,SC,34.891774891774894
29707,Lancaster County,SC,91.42857142857143
57105,Minnehaha County,SD,47.79220779220779
57770,Shannon County,SD,80.25974025974027
37030,Smith County,TN,90.47619047619048
37072,Davidson County,TN,32.03463203463203
37073,Robertson County,TN,83.8961038961039
37080,Davidson County,TN,90.99567099567099
37087,Wilson County,TN,18.00865800865801
37130,Rutherford County,TN,21.385281385281385
37343,Hamilton County,TN,23.896103896103895
37347,Marion County,TN,76.53679653679653
37643,Carter County,TN,12.987012987012985
37725,Jefferson County,TN,52.81385281385281
37742,Loudon County,TN,89.87012987012987
37743,Greene County,TN,12.813852813852813
37779,Union County,TN,98.35497835497836
37840,Roane County,TN,89.6969696969697
37920,Knox County,TN,11.774891774891776
37938,Knox County,TN,70.73593073593074
38115,Shelby County,TN,72.38095238095238
38118,Shelby County,TN,19.22077922077922
38127,Shelby County,TN,9.004329004329005
38128,Shelby County,TN,20.692640692640694
38135,Shelby County,TN,78.78787878787878
38401,Maury County,TN,7.186147186147187
38585,Van Buren County,TN,94.8917748917749
75013,Collin County,TX,50.303030303030305
75028,Denton County,TX,55.58441558441558
75035,Collin County,TX,39.82683982683983
75043,Dallas County,TX,20.432900432900432
75051,Dallas County,TX,44.502164502164504
75075,Collin County,TX,63.98268398268399
75088,Dallas County,TX,68.57142857142857
75089,Dallas County,TX,61.55844155844156
75142,Kaufman County,TX,61.73160173160173
75208,Dallas County,TX,61.471861471861466
75216,Dallas County,TX,49.35064935064935
75240,Dallas County,TX,68.74458874458874
75243,Dallas County,TX,15.324675324675324
75639,Panola County,TX,99.22077922077922
75652,Rusk County,TX,88.05194805194805
76014,Tarrant County,TX,50.12987012987013
76031,Johnson County,TX,64.67532467532467
76040,Tarrant County,TX,90.82251082251082
76086,Parker County,TX,58.52813852813853
76104,Tarrant County,TX,22.424242424242426
76105,Tarrant County,TX,20.259740259740262
76112,Tarrant County,TX,15.064935064935064
76114,Tarrant County,TX,45.28138528138528
76208,Denton County,TX,59.82683982683983
76244,Tarrant County,TX,26.32034632034632
76247,Denton County,TX,79.82683982683983
76302,Wichita County,TX,70.82251082251082
76504,Bell County,TX,10.303030303030303
76549,Bell County,TX,24.242424242424242
76707,McLennan County,TX,70.12987012987013
76708,McLennan County,TX,85.10822510822511
76712,McLennan County,TX,44.06926406926407
76903,Tom Green County,TX,43.722943722943725
77004,Harris County,TX,28.744588744588746
77021,Harris County,TX,36.70995670995671
77031,Harris County,TX,75.06493506493507
77034,Harris County,TX,80.95238095238095
77054,Harris County,TX,75.84415584415585
77060,Harris County,TX,61.298701298701296
77070,Harris County,TX,47.878787878787875
77084,Harris County,TX,12.294372294372295
77092,Harris County,TX,56.19047619047619
77099,Harris County,TX,54.02597402597402
77306,Montgomery County,TX,99.82683982683983
77338,Harris County,TX,74.28571428571429
77378,Montgomery County,TX,92.2943722943723
77380,Montgomery County,TX,71.51515151515152
77449,Harris County,TX,39.48051948051948
77459,Fort Bend County,TX,24.06926406926407
77469,Fort Bend County,TX,76.19047619047619
77471,Fort Bend County,TX,40.25974025974026
77480,Brazoria County,TX,87.1861471861472
77505,Harris County,TX,64.93506493506493
77511,Brazoria County,TX,75.15151515151514
77568,Galveston County,TX,66.83982683982684
77578,Brazoria County,TX,66.49350649350649
77584,Brazoria County,TX,10.822510822510822
77591,Galveston County,TX,55.84415584415584
78028,Kerr County,TX,39.134199134199136
78130,Comal County,TX,23.809523809523807
78209,Bexar County,TX,63.722943722943725
78220,Bexar County,TX,60.51948051948052
78227,Bexar County,TX,38.18181818181819
78228,Bexar County,TX,29.35064935064935
78242,Bexar County,TX,49.696969696969695
78244,Bexar County,TX,60.259740259740255
78374,San Patricio County,TX,85.45454545454545
78390,San Patricio County,TX,99.13419913419914
78411,Nueces County,TX,55.84415584415584
78634,Williamson County,TX,59.56709956709957
78660,Travis County,TX,94.37229437229438
78727,Travis County,TX,85.28138528138528
79331,Dawson County,TX,69.95670995670996
79364,Lubbock County,TX,88.65800865800865
79414,Lubbock County,TX,75.75757575757575
79416,Lubbock County,TX,53.85281385281385
79705,Midland County,TX,27.965367965367964
79762,Ector County,TX,28.91774891774892
84041,Davis County,UT,68.83116883116884
84043,Utah County,UT,46.666666666666664
84044,Salt Lake County,UT,45.887445887445885
84047,Salt Lake County,UT,27.61904761904762
84116,Salt Lake County,UT,29.004329004329005
84118,Salt Lake County,UT,18.614718614718615
84119,Salt Lake County,UT,13.41991341991342
84123,Salt Lake County,UT,22.597402597402596
84321,Cache County,UT,67.27272727272727
20147,Loudoun County,VA,38.961038961038966
20148,Loudoun County,VA,57.31601731601732
20165,Loudoun County,VA,69.00432900432901
20171,Fairfax County,VA,51.86147186147186
22015,Fairfax County,VA,52.294372294372295
22102,Fairfax County,VA,95.32467532467533
22153,Fairfax County,VA,57.66233766233766
22304,Alexandria city,VA,15.930735930735931
22306,Fairfax County,VA,30.043290043290042
22407,Spotsylvania County,VA,19.047619047619047
22560,Essex County,VA,63.8095238095238
22580,Caroline County,VA,99.48051948051948
22601,Winchester city,VA,60
22657,Shenandoah County,VA,78.18181818181819
22821,Rockingham County,VA,92.20779220779221
22901,Albemarle County,VA,34.80519480519481
22968,Greene County,VA,62.77056277056276
23220,Richmond city,VA,61.99134199134198
23222,Richmond city,VA,18.181818181818183
23223,Henrico County,VA,38.701298701298704
23228,Henrico County,VA,50.90909090909091
23231,Henrico County,VA,24.502164502164504
23235,Chesterfield County,VA,79.48051948051949
23237,Chesterfield County,VA,85.19480519480518
23430,Isle of Wight County,VA,86.32034632034632
23452,Virginia Beach city,VA,54.54545454545454
23454,Virginia Beach city,VA,29.87012987012987
23464,Virginia Beach city,VA,17.056277056277054
23803,Petersburg city,VA,41.38528138528139
23838,Chesterfield County,VA,83.54978354978356
23860,Hopewell city,VA,32.467532467532465
98005,King County,WA,81.12554112554112
98092,King County,WA,25.36796536796537
98121,King County,WA,53.939393939393945
98144,King County,WA,30.129870129870127
98178,King County,WA,54.37229437229437
98230,Whatcom County,WA,91.51515151515152
98329,Pierce County,WA,74.02597402597402
98391,Pierce County,WA,15.584415584415584
98444,Pierce County,WA,36.45021645021645
98446,Pierce County,WA,88.05194805194805
98664,Clark County,WA,81.12554112554112
98682,Clark County,WA,58.0952380952381
98948,Yakima County,WA,87.27272727272727
99301,Franklin County,WA,9.783549783549784
99336,Benton County,WA,12.640692640692642
99337,Benton County,WA,27.27272727272727
20002,District of Columbia,DC,25.8008658008658
20007,District of Columbia,DC,96.017316017316
24954,Pocahontas County,WV,97.57575757575758
25701,Cabell County,WV,48.13852813852814
25704,Wayne County,WV,83.2034632034632
25901,Fayette County,WV,48.05194805194805
26241,Randolph County,WV,33.073593073593074
26301,Harrison County,WV,30.649350649350648
26501,Monongalia County,WV,81.991341991342
26508,Monongalia County,WV,5.021645021645021
26554,Marion County,WV,22.251082251082252
53040,Washington County,WI,93.76623376623377
53081,Sheboygan County,WI,16.969696969696972
53144,Kenosha County,WI,17.316017316017316
53147,Walworth County,WI,46.14718614718615
53189,Waukesha County,WI,55.32467532467532
53206,Milwaukee County,WI,37.142857142857146
53207,Milwaukee County,WI,27.0995670995671
53209,Milwaukee County,WI,2.4242424242424243
53215,Milwaukee County,WI,43.116883116883116
53216,Milwaukee County,WI,6.320346320346321
53228,Milwaukee County,WI,71.08225108225108
53405,Racine County,WI,59.3939393939394
53532,Dane County,WI,67.96536796536796
53536,Rock County,WI,87.96536796536797
53538,Jefferson County,WI,51.515151515151516
53548,Rock County,WI,26.233766233766232
53589,Dane County,WI,97.05627705627705
53590,Dane County,WI,40
53705,Dane County,WI,52.294372294372295
53716,Dane County,WI,73.33333333333333
53913,Sauk County,WI,39.307359307359306
54162,Brown County,WI,92.81385281385282
54311,Brown County,WI,89.17748917748918
54452,Lincoln County,WI,78.52813852813853
54603,La Crosse County,WI,53.5064935064935
54636,La Crosse County,WI,65.71428571428571
54701,Eau Claire County,WI,44.84848484848485
54768,Chippewa County,WI,97.40259740259741
54806,Ashland County,WI,74.89177489177489
54961,Waupaca County,WI,57.05627705627706
