ZipCode,county,state,Retirement,Geriatric
35127,Jefferson County,AL,NA,78.45982142857143
35242,Shelby County,AL,NA,7.477678571428571
35404,Tuscaloosa County,AL,NA,76.5625
35406,Tuscaloosa County,AL,NA,87.83482142857143
35475,Tuscaloosa County,AL,NA,79.91071428571429
35476,Tuscaloosa County,AL,NA,65.06696428571429
35555,Fayette County,AL,59.411764705882355,NA
35672,Lawrence County,AL,NA,91.29464285714286
35758,Madison County,AL,NA,32.700892857142854
35967,DeKalb County,AL,NA,72.43303571428571
36066,Autauga County,AL,87.6470588235294,NA
36265,Calhoun County,AL,NA,68.52678571428571
36360,Dale County,AL,37.64705882352941,NA
36451,Clarke County,AL,NA,96.875
36571,Mobile County,AL,NA,89.39732142857143
36703,Dallas County,AL,NA,81.69642857142857
99502,Anchorage Municipality,AK,80,NA
99504,Anchorage Municipality,AK,41.17647058823529,NA
99515,Anchorage Municipality,AK,78.82352941176471,NA
99603,Kenai Peninsula Borough,AK,NA,74.44196428571429
85083,Maricopa County,AZ,NA,88.50446428571429
85215,Maricopa County,AZ,NA,95.64732142857143
85233,Maricopa County,AZ,NA,84.93303571428571
85260,Maricopa County,AZ,NA,23.102678571428573
85331,Maricopa County,AZ,NA,63.16964285714286
85365,Yuma County,AZ,NA,10.714285714285714
85383,Maricopa County,AZ,NA,82.8125
85614,Pima County,AZ,NA,3.6830357142857144
85622,Pima County,AZ,NA,56.91964285714286
85701,Pima County,AZ,NA,94.41964285714286
85704,Pima County,AZ,NA,62.27678571428571
85705,Pima County,AZ,56.76470588235294,NA
85706,Pima County,AZ,10.882352941176471,NA
85710,Pima County,AZ,NA,35.825892857142854
85718,Pima County,AZ,NA,19.642857142857142
85743,Pima County,AZ,NA,62.5
86409,Mohave County,AZ,NA,22.098214285714285
72015,Saline County,AR,34.411764705882355,NA
72143,White County,AR,13.823529411764707,6.25
72223,Pulaski County,AR,NA,48.77232142857143
72601,Boone County,AR,NA,58.14732142857143
72634,Marion County,AR,92.3529411764706,NA
90001,Los Angeles County,CA,NA,85.9375
90006,Los Angeles County,CA,NA,42.745535714285715
90013,Los Angeles County,CA,NA,95.20089285714286
90024,Los Angeles County,CA,NA,59.15178571428571
90033,Los Angeles County,CA,NA,45.870535714285715
90034,Los Angeles County,CA,NA,38.169642857142854
90040,Los Angeles County,CA,NA,92.52232142857143
90042,Los Angeles County,CA,50.882352941176464,31.473214285714285
90045,Los Angeles County,CA,NA,44.53125
90057,Los Angeles County,CA,NA,60.49107142857143
90062,Los Angeles County,CA,NA,57.36607142857143
90210,Los Angeles County,CA,NA,18.973214285714285
90221,Los Angeles County,CA,NA,52.79017857142857
90250,Los Angeles County,CA,NA,34.598214285714285
90254,Los Angeles County,CA,83.52941176470588,NA
90265,Los Angeles County,CA,93.82352941176471,NA
90650,Los Angeles County,CA,82.05882352941177,NA
90740,Orange County,CA,NA,23.549107142857142
91011,Los Angeles County,CA,NA,90.40178571428571
91040,Los Angeles County,CA,90.29411764705883,NA
91106,Los Angeles County,CA,85.58823529411764,NA
91301,Los Angeles County,CA,NA,87.94642857142857
91303,Los Angeles County,CA,NA,96.42857142857143
91321,Los Angeles County,CA,NA,77.34375
91344,Los Angeles County,CA,NA,20.758928571428573
91354,Los Angeles County,CA,NA,84.26339285714286
91403,Los Angeles County,CA,NA,38.950892857142854
91406,Los Angeles County,CA,NA,56.13839285714286
91506,Los Angeles County,CA,NA,83.25892857142857
91604,Los Angeles County,CA,NA,45.982142857142854
91711,Los Angeles County,CA,NA,20.200892857142858
91744,Los Angeles County,CA,NA,19.866071428571427
91755,Los Angeles County,CA,NA,46.986607142857146
91764,San Bernardino County,CA,62.64705882352941,NA
91770,Los Angeles County,CA,NA,14.0625
91791,Los Angeles County,CA,NA,54.79910714285714
91945,San Diego County,CA,NA,76.45089285714286
92020,San Diego County,CA,NA,71.31696428571429
92024,San Diego County,CA,NA,32.03125
92027,San Diego County,CA,NA,47.32142857142857
92037,San Diego County,CA,NA,22.991071428571427
92078,San Diego County,CA,NA,25.223214285714285
92115,San Diego County,CA,NA,40.625
92128,San Diego County,CA,NA,9.821428571428571
92173,San Diego County,CA,NA,70.64732142857143
92201,Riverside County,CA,NA,28.45982142857143
92262,Riverside County,CA,NA,79.46428571428571
92336,San Bernardino County,CA,19.411764705882355,NA
92345,San Bernardino County,CA,NA,26.11607142857143
92376,San Bernardino County,CA,NA,55.58035714285714
92629,Orange County,CA,NA,36.27232142857143
92653,Orange County,CA,NA,50.89285714285714
92683,Orange County,CA,NA,5.022321428571429
92691,Orange County,CA,NA,47.767857142857146
92708,Orange County,CA,71.76470588235294,22.767857142857142
93021,Ventura County,CA,NA,83.14732142857143
93033,Ventura County,CA,12.941176470588237,NA
93257,Tulare County,CA,24.705882352941178,NA
93265,Tulare County,CA,97.6470588235294,NA
93274,Tulare County,CA,NA,26.5625
93306,Kern County,CA,NA,76.78571428571429
93428,San Luis Obispo County,CA,NA,88.95089285714286
93463,Santa Barbara County,CA,97.05882352941177,NA
93611,Fresno County,CA,35.88235294117647,NA
93640,Fresno County,CA,97.94117647058823,NA
93654,Fresno County,CA,94.11764705882352,NA
93704,Fresno County,CA,57.05882352941176,73.77232142857143
94110,San Francisco County,CA,NA,63.05803571428571
94115,San Francisco County,CA,NA,11.272321428571429
94503,Napa County,CA,96.17647058823529,NA
94507,Contra Costa County,CA,74.41176470588235,NA
94519,Contra Costa County,CA,NA,89.50892857142857
94523,Contra Costa County,CA,NA,48.549107142857146
94526,Contra Costa County,CA,49.411764705882355,NA
94572,Contra Costa County,CA,NA,91.40625
94591,Solano County,CA,NA,19.754464285714285
94595,Contra Costa County,CA,NA,7.924107142857142
94602,Alameda County,CA,NA,69.64285714285714
94619,Alameda County,CA,60.882352941176464,NA
94708,Alameda County,CA,NA,76.5625
95032,Santa Clara County,CA,NA,50.78125
95054,Santa Clara County,CA,NA,84.82142857142857
95116,Santa Clara County,CA,51.76470588235295,NA
95128,Santa Clara County,CA,NA,51.22767857142857
95210,San Joaquin County,CA,NA,71.875
95240,San Joaquin County,CA,NA,52.23214285714286
95336,San Joaquin County,CA,NA,25.78125
95355,Stanislaus County,CA,NA,27.120535714285715
95472,Sonoma County,CA,NA,55.13392857142857
95492,Sonoma County,CA,59.411764705882355,NA
95602,Placer County,CA,NA,33.92857142857143
95608,Sacramento County,CA,NA,7.8125
95624,Sacramento County,CA,NA,41.07142857142857
95685,Amador County,CA,NA,97.65625
95758,Sacramento County,CA,NA,41.629464285714285
95822,Sacramento County,CA,NA,61.49553571428571
95825,Sacramento County,CA,NA,40.625
95948,Butte County,CA,NA,66.74107142857143
95969,Butte County,CA,NA,3.571428571428571
96002,Shasta County,CA,NA,44.642857142857146
96007,Shasta County,CA,60.588235294117645,NA
96013,Shasta County,CA,NA,97.20982142857143
96097,Siskiyou County,CA,NA,93.08035714285714
80012,Arapahoe County,CO,NA,18.191964285714285
80121,Arapahoe County,CO,NA,54.91071428571429
80129,Douglas County,CO,NA,77.23214285714286
80132,El Paso County,CO,NA,75
80134,Douglas County,CO,37.35294117647059,NA
80220,Denver County,CO,NA,83.81696428571429
80224,Denver County,CO,NA,93.41517857142857
80231,Denver County,CO,NA,85.82589285714286
80233,Adams County,CO,NA,37.723214285714285
80465,Jefferson County,CO,NA,97.76785714285714
80537,Larimer County,CO,NA,22.209821428571427
80918,El Paso County,CO,NA,41.40625
81001,Pueblo County,CO,NA,57.8125
81401,Montrose County,CO,NA,31.25
81521,Mesa County,CO,69.70588235294117,NA
81650,Garfield County,CO,NA,92.96875
06010,Hartford County,CT,NA,2.5669642857142856
06053,Hartford County,CT,NA,46.54017857142857
06057,Litchfield County,CT,NA,99.77678571428571
06066,Tolland County,CT,NA,20.647321428571427
06095,Hartford County,CT,NA,47.433035714285715
06403,New Haven County,CT,90.88235294117646,NA
06405,New Haven County,CT,NA,43.861607142857146
06477,New Haven County,CT,NA,72.99107142857143
06606,Fairfield County,CT,NA,38.504464285714285
06614,Fairfield County,CT,33.82352941176471,NA
06615,Fairfield County,CT,NA,81.02678571428571
06705,New Haven County,CT,NA,43.973214285714285
06790,Litchfield County,CT,NA,6.361607142857142
06804,Fairfield County,CT,56.470588235294116,NA
06825,Fairfield County,CT,NA,67.52232142857143
06840,Fairfield County,CT,NA,89.95535714285714
06851,Fairfield County,CT,NA,30.02232142857143
06880,Fairfield County,CT,64.11764705882354,NA
06903,Fairfield County,CT,60.882352941176464,NA
19808,New Castle County,DE,23.823529411764703,NA
32080,St. Johns County,FL,NA,28.013392857142854
32134,Marion County,FL,NA,95.42410714285714
32209,Duval County,FL,NA,13.392857142857142
32303,Leon County,FL,NA,57.58928571428571
32308,Leon County,FL,NA,37.723214285714285
32327,Wakulla County,FL,NA,81.69642857142857
32506,Escambia County,FL,NA,50.55803571428571
32507,Escambia County,FL,NA,15.513392857142858
32514,Escambia County,FL,NA,8.816964285714286
32526,Escambia County,FL,NA,38.504464285714285
32550,Walton County,FL,NA,64.84375
32569,Okaloosa County,FL,NA,85.15625
32696,Levy County,FL,50.294117647058826,NA
32701,Seminole County,FL,NA,58.37053571428571
32708,Seminole County,FL,NA,26.22767857142857
32712,Orange County,FL,NA,61.94196428571429
32726,Lake County,FL,48.23529411764706,NA
32751,Orange County,FL,84.11764705882354,NA
32765,Seminole County,FL,40.88235294117647,NA
32796,Brevard County,FL,29.117647058823533,NA
32901,Brevard County,FL,NA,21.316964285714285
32940,Brevard County,FL,NA,5.691964285714286
32953,Brevard County,FL,NA,15.848214285714285
32955,Brevard County,FL,NA,9.598214285714286
32963,Indian River County,FL,NA,51.5625
33013,Miami-Dade County,FL,NA,25.223214285714285
33014,Miami-Dade County,FL,73.82352941176471,NA
33040,Monroe County,FL,NA,66.18303571428571
33068,Broward County,FL,52.94117647058824,NA
33139,Miami-Dade County,FL,NA,10.267857142857142
33147,Miami-Dade County,FL,35.588235294117645,NA
33157,Miami-Dade County,FL,NA,21.875
33161,Miami-Dade County,FL,81.47058823529412,NA
33174,Miami-Dade County,FL,NA,54.01785714285714
33179,Miami-Dade County,FL,NA,42.299107142857146
33184,Miami-Dade County,FL,NA,51.67410714285714
33442,Broward County,FL,NA,9.151785714285714
33487,Palm Beach County,FL,NA,43.526785714285715
33511,Hillsborough County,FL,NA,51.67410714285714
33523,Pasco County,FL,NA,63.50446428571429
33540,Pasco County,FL,76.17647058823529,NA
33549,Hillsborough County,FL,NA,64.95535714285714
33594,Hillsborough County,FL,NA,60.71428571428571
33609,Hillsborough County,FL,NA,70.87053571428571
33614,Hillsborough County,FL,NA,38.058035714285715
33615,Hillsborough County,FL,NA,98.10267857142857
33629,Hillsborough County,FL,NA,63.83928571428571
33767,Pinellas County,FL,NA,81.25
33772,Pinellas County,FL,NA,42.1875
33776,Pinellas County,FL,NA,78.68303571428571
33876,Highlands County,FL,NA,95.98214285714286
33904,Lee County,FL,NA,7.03125
33919,Lee County,FL,NA,3.3482142857142856
34103,Collier County,FL,NA,37.94642857142857
34203,Manatee County,FL,NA,14.955357142857142
34224,Charlotte County,FL,61.76470588235294,NA
34229,Sarasota County,FL,NA,34.82142857142857
34231,Sarasota County,FL,NA,4.464285714285714
34275,Sarasota County,FL,NA,14.732142857142858
34293,Sarasota County,FL,9.411764705882353,NA
34453,Citrus County,FL,NA,89.0625
34472,Marion County,FL,NA,78.34821428571429
34653,Pasco County,FL,32.35294117647059,NA
34684,Pinellas County,FL,45,NA
34747,Osceola County,FL,NA,84.15178571428571
34748,Lake County,FL,NA,1.4508928571428572
34787,Orange County,FL,NA,21.763392857142858
30040,Forsyth County,GA,NA,69.75446428571429
30052,Walton County,GA,11.470588235294118,NA
30058,DeKalb County,GA,NA,55.91517857142857
30062,Cobb County,GA,NA,67.63392857142857
30082,Cobb County,GA,NA,75.44642857142857
30087,DeKalb County,GA,NA,33.482142857142854
30096,Gwinnett County,GA,NA,57.14285714285714
30107,Cherokee County,GA,NA,83.48214285714286
30121,Bartow County,GA,54.70588235294118,NA
30125,Polk County,GA,NA,40.17857142857143
30144,Cobb County,GA,50,NA
30215,Fayette County,GA,34.705882352941174,NA
30263,Coweta County,GA,NA,30.357142857142854
30318,Fulton County,GA,NA,32.47767857142857
30328,Fulton County,GA,NA,33.25892857142857
30341,DeKalb County,GA,80.58823529411765,NA
30342,Fulton County,GA,77.94117647058823,NA
30345,DeKalb County,GA,NA,90.51339285714286
30518,Gwinnett County,GA,35.294117647058826,NA
30523,Habersham County,GA,77.3529411764706,NA
30577,Stephens County,GA,NA,56.58482142857143
31069,Houston County,GA,NA,48.995535714285715
31082,Washington County,GA,72.94117647058823,NA
31326,Effingham County,GA,NA,87.38839285714286
31404,Chatham County,GA,NA,48.10267857142857
31520,Glynn County,GA,NA,67.07589285714286
31558,Camden County,GA,NA,78.01339285714286
31904,Muscogee County,GA,NA,14.84375
31909,Muscogee County,GA,27.941176470588236,NA
96740,Hawaii County,HI,63.52941176470588,NA
96818,Honolulu County,HI,NA,33.370535714285715
83646,Ada County,ID,9.705882352941178,NA
83672,Washington County,ID,NA,65.51339285714286
83686,Canyon County,ID,NA,2.9017857142857144
83705,Ada County,ID,NA,45.089285714285715
83709,Ada County,ID,NA,4.017857142857143
83815,Kootenai County,ID,NA,15.848214285714285
83835,Kootenai County,ID,NA,44.419642857142854
83854,Kootenai County,ID,NA,56.36160714285714
60008,Cook County,IL,NA,90.51339285714286
60010,Lake County,IL,NA,55.24553571428571
60016,Cook County,IL,NA,36.38392857142857
60026,Cook County,IL,NA,26.89732142857143
60030,Lake County,IL,NA,16.071428571428573
60048,Lake County,IL,81.17647058823529,NA
60056,Cook County,IL,NA,6.138392857142857
60062,Cook County,IL,NA,0.11160714285714285
60067,Cook County,IL,NA,13.058035714285715
60084,Lake County,IL,NA,93.86160714285714
60085,Lake County,IL,30.58823529411765,NA
60090,Cook County,IL,NA,16.629464285714285
60091,Cook County,IL,23.52941176470588,NA
60099,Lake County,IL,NA,71.09375
60107,Cook County,IL,NA,62.05357142857143
60115,DeKalb County,IL,NA,29.35267857142857
60120,Kane County,IL,NA,54.35267857142857
60124,Kane County,IL,29.705882352941178,NA
60135,DeKalb County,IL,NA,96.65178571428571
60139,DuPage County,IL,36.76470588235294,NA
60143,DuPage County,IL,NA,84.04017857142857
60152,McHenry County,IL,NA,64.28571428571429
60175,Kane County,IL,70.88235294117648,NA
60185,DuPage County,IL,NA,50.22321428571429
60193,Cook County,IL,NA,68.19196428571429
60201,Cook County,IL,NA,6.026785714285714
60403,Will County,IL,39.11764705882353,NA
60411,Cook County,IL,NA,18.415178571428573
60435,Will County,IL,NA,55.69196428571429
60452,Cook County,IL,NA,40.848214285714285
60475,Will County,IL,NA,88.61607142857143
60481,Will County,IL,55.58823529411765,NA
60482,Cook County,IL,95,NA
60510,Kane County,IL,NA,56.25
60516,DuPage County,IL,NA,37.388392857142854
60527,DuPage County,IL,NA,52.90178571428571
60538,Kendall County,IL,NA,68.63839285714286
60542,Kane County,IL,NA,66.85267857142857
60610,Cook County,IL,58.529411764705884,NA
60622,Cook County,IL,44.41176470588235,NA
60631,Cook County,IL,NA,23.883928571428573
60640,Cook County,IL,NA,39.84375
60641,Cook County,IL,NA,23.325892857142858
60646,Cook County,IL,NA,27.34375
60647,Cook County,IL,NA,35.379464285714285
60649,Cook County,IL,NA,17.96875
60652,Cook County,IL,25.882352941176475,NA
60657,Cook County,IL,NA,19.53125
60659,Cook County,IL,27.647058823529413,NA
60707,Cook County,IL,NA,41.183035714285715
60901,Kankakee County,IL,NA,65.40178571428571
60942,Vermilion County,IL,NA,80.69196428571429
61081,Whiteside County,IL,49.705882352941174,NA
61111,Winnebago County,IL,53.529411764705884,NA
61342,LaSalle County,IL,45.588235294117645,NA
61350,LaSalle County,IL,NA,29.24107142857143
61550,Tazewell County,IL,NA,80.02232142857143
61615,Peoria County,IL,NA,54.91071428571429
61821,Champaign County,IL,46.76470588235294,NA
62040,Madison County,IL,NA,16.852678571428573
62221,St. Clair County,IL,NA,66.40625
62231,Clinton County,IL,NA,59.26339285714286
62234,Madison County,IL,NA,24.888392857142858
62401,Effingham County,IL,NA,71.20535714285714
62420,Clark County,IL,NA,95.3125
62448,Jasper County,IL,NA,94.86607142857143
62521,Macon County,IL,NA,4.241071428571429
62650,Morgan County,IL,34.11764705882353,NA
62832,Perry County,IL,NA,82.36607142857143
62863,Wabash County,IL,NA,34.933035714285715
62952,Union County,IL,100,NA
62960,Massac County,IL,80.88235294117648,NA
46052,Boone County,IN,NA,47.433035714285715
46176,Shelby County,IN,NA,73.4375
46217,Marion County,IN,NA,42.52232142857143
46227,Marion County,IN,NA,3.90625
46303,Lake County,IN,NA,52.67857142857143
46307,Lake County,IN,1.7647058823529411,NA
46321,Lake County,IN,NA,23.772321428571427
46324,Lake County,IN,27.058823529411764,NA
46383,Porter County,IN,30,NA
46405,Lake County,IN,47.94117647058824,NA
46410,Lake County,IN,4.705882352941177,NA
46514,Elkhart County,IN,24.41176470588235,NA
46516,Elkhart County,IN,38.23529411764706,NA
46538,Kosciusko County,IN,NA,94.19642857142857
46563,Marshall County,IN,NA,19.419642857142858
46574,St. Joseph County,IN,NA,90.95982142857143
46580,Kosciusko County,IN,NA,31.919642857142854
46619,St. Joseph County,IN,NA,77.79017857142857
46628,St. Joseph County,IN,NA,70.20089285714286
46637,St. Joseph County,IN,82.6470588235294,NA
46706,DeKalb County,IN,NA,72.20982142857143
46755,Noble County,IN,NA,65.73660714285714
46804,Allen County,IN,NA,39.174107142857146
46805,Allen County,IN,NA,83.03571428571429
46806,Allen County,IN,NA,74.44196428571429
46835,Allen County,IN,NA,29.129464285714285
46845,Allen County,IN,NA,48.214285714285715
46902,Howard County,IN,NA,35.267857142857146
47031,Ripley County,IN,92.94117647058823,NA
47130,Clark County,IN,7.0588235294117645,NA
47203,Bartholomew County,IN,NA,11.941964285714286
47501,Daviess County,IN,NA,22.433035714285715
47586,Perry County,IN,74.70588235294117,NA
47635,Spencer County,IN,85,NA
47712,Vanderburgh County,IN,NA,53.79464285714286
47842,Vermillion County,IN,71.47058823529412,NA
50010,Story County,IA,NA,71.65178571428571
50112,Poweshiek County,IA,NA,87.5
50220,Dallas County,IA,NA,88.61607142857143
50401,Cerro Gordo County,IA,NA,0.6696428571428571
50501,Webster County,IA,37.05882352941177,NA
50595,Hamilton County,IA,NA,73.10267857142857
51105,Woodbury County,IA,64.41176470588236,NA
51106,Woodbury County,IA,47.647058823529406,NA
51501,Pottawattamie County,IA,NA,69.86607142857143
52240,Johnson County,IA,22.35294117647059,NA
52632,Lee County,IA,36.17647058823529,NA
52806,Scott County,IA,NA,42.857142857142854
66012,Wyandotte County,KS,91.76470588235294,NA
66061,Johnson County,KS,NA,37.5
66067,Franklin County,KS,NA,77.56696428571429
66206,Johnson County,KS,NA,76.33928571428571
66210,Johnson County,KS,NA,52.56696428571429
66212,Johnson County,KS,18.529411764705884,NA
66604,Shawnee County,KS,NA,40.401785714285715
66762,Crawford County,KS,NA,86.16071428571429
67052,Sedgwick County,KS,NA,97.76785714285714
67205,Sedgwick County,KS,NA,91.62946428571429
67206,Sedgwick County,KS,88.23529411764706,NA
67212,Sedgwick County,KS,NA,49.776785714285715
67226,Sedgwick County,KS,NA,97.09821428571429
67665,Russell County,KS,NA,75.66964285714286
40065,Shelby County,KY,30.294117647058822,NA
40165,Bullitt County,KY,NA,49.66517857142857
40223,Jefferson County,KY,79.41176470588235,NA
40243,Jefferson County,KY,NA,57.36607142857143
40272,Jefferson County,KY,NA,26.785714285714285
40324,Scott County,KY,NA,36.71875
40502,Fayette County,KY,NA,79.12946428571429
40515,Fayette County,KY,NA,82.47767857142857
41011,Kenton County,KY,NA,46.763392857142854
41016,Kenton County,KY,84.41176470588235,NA
41017,Kenton County,KY,NA,59.48660714285714
41031,Harrison County,KY,NA,62.72321428571429
41035,Grant County,KY,NA,76.11607142857143
41071,Campbell County,KY,NA,59.59821428571429
41094,Boone County,KY,69.41176470588235,NA
42025,Marshall County,KY,NA,32.254464285714285
42066,Graves County,KY,NA,35.60267857142857
42167,Monroe County,KY,NA,91.07142857142857
42210,Edmonson County,KY,NA,95.53571428571429
42445,Caldwell County,KY,NA,91.96428571428571
42728,Adair County,KY,NA,69.19642857142857
70003,Jefferson Parish,LA,25,NA
70122,Orleans Parish,LA,14.705882352941178,NA
70438,Washington Parish,LA,NA,15.401785714285715
70520,Lafayette Parish,LA,45.294117647058826,NA
70578,Acadia Parish,LA,42.05882352941177,NA
70726,Livingston Parish,LA,NA,21.651785714285715
70785,Livingston Parish,LA,NA,59.70982142857143
71295,Franklin Parish,LA,NA,78.125
71334,Concordia Parish,LA,81.76470588235294,NA
04092,Cumberland County,ME,28.823529411764703,NA
04093,York County,ME,NA,99.88839285714286
04096,Cumberland County,ME,89.70588235294117,NA
04102,Cumberland County,ME,NA,64.39732142857143
04350,Kennebec County,ME,97.35294117647058,NA
04401,Penobscot County,ME,NA,9.486607142857142
04429,Penobscot County,ME,NA,90.84821428571429
04730,Aroostook County,ME,NA,32.36607142857143
04901,Kennebec County,ME,NA,28.90625
04976,Somerset County,ME,18.823529411764707,NA
20854,Montgomery County,MD,NA,34.933035714285715
20886,Montgomery County,MD,NA,97.43303571428571
21046,Howard County,MD,NA,97.54464285714286
21050,Harford County,MD,NA,68.97321428571429
21054,Anne Arundel County,MD,NA,93.19196428571429
21061,Anne Arundel County,MD,NA,22.209821428571427
21114,Anne Arundel County,MD,NA,98.32589285714286
21227,Baltimore County,MD,NA,31.473214285714285
21236,Baltimore County,MD,NA,27.232142857142854
21403,Anne Arundel County,MD,NA,65.17857142857143
21702,Frederick County,MD,67.94117647058823,NA
21727,Frederick County,MD,NA,92.29910714285714
21740,Washington County,MD,NA,29.464285714285715
21842,Worcester County,MD,NA,48.325892857142854
21901,Cecil County,MD,NA,82.58928571428571
01035,Hampshire County,MA,NA,96.98660714285714
01069,Hampden County,MA,NA,69.97767857142857
01104,Hampden County,MA,NA,2.0089285714285716
01106,Hampden County,MA,NA,46.09375
01107,Hampden County,MA,NA,45.424107142857146
01109,Hampden County,MA,NA,7.924107142857142
01119,Hampden County,MA,NA,55.35714285714286
01568,Worcester County,MA,NA,27.455357142857146
01570,Worcester County,MA,4.411764705882353,NA
01845,Essex County,MA,NA,22.433035714285715
01850,Middlesex County,MA,21.764705882352942,NA
01852,Middlesex County,MA,NA,19.196428571428573
01906,Essex County,MA,37.94117647058823,34.151785714285715
01923,Essex County,MA,7.647058823529412,NA
01945,Essex County,MA,NA,29.910714285714285
01952,Essex County,MA,NA,56.58482142857143
02050,Plymouth County,MA,25.294117647058822,NA
02056,Norfolk County,MA,NA,93.30357142857143
02062,Norfolk County,MA,42.35294117647059,NA
02111,Suffolk County,MA,NA,99.33035714285714
02116,Suffolk County,MA,3.823529411764706,NA
02118,Suffolk County,MA,0.29411764705882354,NA
02129,Suffolk County,MA,NA,45.64732142857143
02132,Suffolk County,MA,2.0588235294117645,NA
02135,Suffolk County,MA,76.47058823529412,NA
02138,Middlesex County,MA,NA,12.165178571428571
02143,Middlesex County,MA,40.294117647058826,17.075892857142858
02150,Suffolk County,MA,NA,4.352678571428571
02184,Norfolk County,MA,NA,7.700892857142858
02332,Plymouth County,MA,NA,53.45982142857143
02339,Plymouth County,MA,NA,50
02368,Norfolk County,MA,NA,21.09375
02370,Plymouth County,MA,NA,59.375
02420,Middlesex County,MA,58.82352941176471,NA
02421,Middlesex County,MA,NA,11.830357142857142
02540,Barnstable County,MA,NA,98.77232142857143
02632,Barnstable County,MA,47.35294117647059,NA
02635,Barnstable County,MA,NA,64.0625
02639,Barnstable County,MA,NA,73.88392857142857
02642,Barnstable County,MA,98.82352941176471,NA
02721,Bristol County,MA,5.588235294117648,NA
02744,Bristol County,MA,NA,61.60714285714286
02760,Bristol County,MA,NA,53.23660714285714
48009,Oakland County,MI,NA,84.48660714285714
48021,Macomb County,MI,21.176470588235293,NA
48034,Oakland County,MI,NA,43.30357142857143
48036,Macomb County,MI,NA,17.075892857142858
48038,Macomb County,MI,NA,3.459821428571429
48088,Macomb County,MI,NA,20.424107142857142
48103,Washtenaw County,MI,NA,15.178571428571427
48108,Washtenaw County,MI,NA,25.669642857142854
48111,Wayne County,MI,NA,27.79017857142857
48154,Wayne County,MI,NA,5.580357142857143
48170,Wayne County,MI,3.2352941176470593,NA
48176,Washtenaw County,MI,NA,23.214285714285715
48178,Oakland County,MI,17.058823529411764,NA
48180,Wayne County,MI,2.3529411764705883,NA
48182,Monroe County,MI,NA,50
48183,Wayne County,MI,NA,10.044642857142858
48184,Wayne County,MI,NA,75.22321428571429
48185,Wayne County,MI,NA,7.2544642857142865
48198,Washtenaw County,MI,NA,24.665178571428573
48209,Wayne County,MI,NA,70.87053571428571
48224,Wayne County,MI,NA,84.70982142857143
48235,Wayne County,MI,NA,10.379464285714286
48310,Macomb County,MI,16.176470588235293,19.866071428571427
48312,Macomb County,MI,NA,8.482142857142858
48314,Macomb County,MI,NA,25
48315,Macomb County,MI,NA,29.017857142857146
48327,Oakland County,MI,40,NA
48335,Oakland County,MI,NA,72.32142857142857
48336,Oakland County,MI,NA,29.575892857142854
48340,Oakland County,MI,72.05882352941177,NA
48375,Oakland County,MI,NA,54.24107142857143
48386,Oakland County,MI,NA,52.00892857142857
48430,Genesee County,MI,NA,60.9375
48439,Genesee County,MI,NA,11.160714285714286
48473,Genesee County,MI,NA,62.38839285714286
48503,Genesee County,MI,22.058823529411764,NA
48506,Genesee County,MI,NA,53.45982142857143
48603,Saginaw County,MI,12.058823529411764,NA
48642,Midland County,MI,NA,7.142857142857142
48706,Bay County,MI,33.52941176470588,2.232142857142857
48708,Bay County,MI,NA,23.325892857142858
48739,Iosco County,MI,NA,89.73214285714286
48823,Ingham County,MI,28.235294117647058,NA
48858,Isabella County,MI,32.94117647058823,NA
48867,Shiawassee County,MI,8.823529411764707,NA
49093,St. Joseph County,MI,NA,71.98660714285714
49247,Lenawee County,MI,NA,92.85714285714286
49269,Jackson County,MI,NA,91.07142857142857
49315,Kent County,MI,NA,87.61160714285714
49319,Kent County,MI,NA,50.33482142857143
49418,Kent County,MI,NA,26.339285714285715
49424,Ottawa County,MI,NA,9.040178571428571
49504,Kent County,MI,NA,8.370535714285714
49505,Kent County,MI,26.47058823529412,NA
49525,Kent County,MI,NA,39.39732142857143
49546,Kent County,MI,NA,11.71875
49635,Benzie County,MI,NA,80.13392857142857
49659,Antrim County,MI,86.1764705882353,NA
49686,Grand Traverse County,MI,NA,84.59821428571429
49707,Alpena County,MI,NA,13.616071428571427
49712,Charlevoix County,MI,NA,59.82142857142857
49801,Dickinson County,MI,NA,49.330357142857146
55025,Washington County,MN,NA,67.29910714285714
55042,Washington County,MN,82.94117647058825,NA
55057,Rice County,MN,NA,70.42410714285714
55105,Ramsey County,MN,NA,79.01785714285714
55122,Dakota County,MN,NA,62.94642857142857
55352,Scott County,MN,NA,93.63839285714286
55404,Hennepin County,MN,2.941176470588235,NA
55416,Hennepin County,MN,NA,74.21875
55423,Hennepin County,MN,NA,35.9375
55428,Hennepin County,MN,NA,71.76339285714286
55438,Hennepin County,MN,NA,85.60267857142857
55447,Hennepin County,MN,60,NA
55810,St. Louis County,MN,NA,69.53125
55902,Olmsted County,MN,88.8235294117647,NA
55912,Mower County,MN,NA,0.2232142857142857
55987,Winona County,MN,NA,1.3392857142857142
56001,Blue Earth County,MN,NA,48.88392857142857
56082,Nicollet County,MN,NA,82.25446428571429
56215,Swift County,MN,NA,86.04910714285714
38632,DeSoto County,MS,NA,64.0625
38637,DeSoto County,MS,84.70588235294117,NA
38654,DeSoto County,MS,NA,69.30803571428571
38683,Tippah County,MS,NA,98.4375
38703,Washington County,MS,95.29411764705881,NA
38826,Lee County,MS,NA,83.37053571428571
38834,Alcorn County,MS,26.176470588235297,NA
38863,Pontotoc County,MS,NA,80.80357142857143
38901,Grenada County,MS,96.76470588235294,88.28125
39056,Hinds County,MS,NA,58.92857142857143
39110,Madison County,MS,NA,31.138392857142854
39119,Covington County,MS,95.58823529411765,NA
39120,Adams County,MS,NA,78.90625
39560,Harrison County,MS,NA,13.504464285714285
39759,Oktibbeha County,MS,55.88235294117647,NA
63017,St. Louis County,MO,NA,1.5625
63034,St. Louis County,MO,NA,54.6875
63050,Jefferson County,MO,NA,96.09375
63104,St. Louis city,MO,71.17647058823529,NA
63119,St. Louis County,MO,NA,8.258928571428571
63122,St. Louis County,MO,NA,42.075892857142854
63123,St. Louis County,MO,46.470588235294116,2.1205357142857144
63128,St. Louis County,MO,23.235294117647058,6.696428571428571
63146,St. Louis County,MO,NA,6.4732142857142865
63304,St. Charles County,MO,17.647058823529413,NA
63389,Lincoln County,MO,92.64705882352942,NA
63664,Washington County,MO,NA,66.18303571428571
63703,Cape Girardeau County,MO,NA,95.87053571428571
63775,Perry County,MO,NA,23.660714285714285
64012,Cass County,MO,NA,39.620535714285715
64014,Jackson County,MO,NA,57.70089285714286
64030,Jackson County,MO,20.294117647058822,NA
64068,Clay County,MO,NA,98.54910714285714
64124,Jackson County,MO,66.17647058823529,NA
64131,Jackson County,MO,NA,67.1875
64133,Jackson County,MO,NA,29.6875
64870,Jasper County,MO,60.29411764705882,NA
65201,Boone County,MO,NA,54.12946428571429
65203,Boone County,MO,14.411764705882351,5.46875
65301,Pettis County,MO,NA,30.580357142857146
65340,Saline County,MO,NA,74.88839285714286
65355,Benton County,MO,NA,40.29017857142857
59047,Park County,MT,90.58823529411765,NA
59230,Valley County,MT,NA,79.57589285714286
59937,Flathead County,MT,73.52941176470588,NA
68025,Dodge County,NE,NA,8.928571428571429
68701,Madison County,NE,NA,43.75
89143,Clark County,NV,NA,99.44196428571429
89178,Clark County,NV,91.47058823529412,NA
89410,Douglas County,NV,31.176470588235293,NA
89431,Washoe County,NV,NA,26.674107142857146
89503,Washoe County,NV,42.64705882352941,NA
89509,Washoe County,NV,43.8235294117647,NA
03055,Hillsborough County,NH,46.1764705882353,NA
03060,Hillsborough County,NH,NA,17.857142857142858
03062,Hillsborough County,NH,NA,14.174107142857142
03063,Hillsborough County,NH,NA,36.941964285714285
03077,Rockingham County,NH,69.11764705882352,NA
03087,Rockingham County,NH,NA,65.73660714285714
03102,Hillsborough County,NH,NA,36.049107142857146
03103,Hillsborough County,NH,13.23529411764706,NA
03254,Carroll County,NH,95.88235294117648,NA
03301,Merrimack County,NH,NA,4.129464285714286
07002,Hudson County,NJ,20.88235294117647,NA
07006,Essex County,NJ,NA,51.00446428571429
07069,Somerset County,NJ,NA,94.64285714285714
07081,Union County,NJ,NA,67.85714285714286
07090,Union County,NJ,NA,44.754464285714285
07092,Union County,NJ,93.52941176470588,NA
07105,Essex County,NJ,NA,52.12053571428571
07307,Hudson County,NJ,NA,34.70982142857143
07442,Passaic County,NJ,77.64705882352942,NA
07508,Passaic County,NJ,NA,54.46428571428571
07522,Passaic County,NJ,68.23529411764706,NA
07631,Bergen County,NJ,NA,53.90625
07652,Bergen County,NJ,NA,10.379464285714286
07656,Bergen County,NJ,NA,83.59375
07712,Monmouth County,NJ,NA,99.10714285714286
07727,Monmouth County,NJ,87.3529411764706,92.52232142857143
07734,Monmouth County,NJ,75.29411764705883,NA
07739,Monmouth County,NJ,NA,86.83035714285714
07747,Monmouth County,NJ,NA,59.82142857142857
07762,Monmouth County,NJ,NA,80.58035714285714
07869,Morris County,NJ,NA,58.92857142857143
08050,Ocean County,NJ,NA,26.004464285714285
08065,Burlington County,NJ,NA,98.21428571428571
08102,Camden County,NJ,63.8235294117647,NA
08108,Camden County,NJ,NA,70.75892857142857
08201,Atlantic County,NJ,NA,71.31696428571429
08540,Mercer County,NJ,NA,31.69642857142857
08550,Mercer County,NJ,NA,72.76785714285714
08742,Ocean County,NJ,NA,33.59375
08822,Hunterdon County,NJ,NA,48.995535714285715
08831,Middlesex County,NJ,NA,1.1160714285714286
87020,Cibola County,NM,NA,88.39285714285714
87105,Bernalillo County,NM,NA,14.620535714285715
87420,San Juan County,NM,67.3529411764706,NA
88007,Doa Ana County,NM,54.11764705882353,NA
88061,Grant County,NM,NA,82.70089285714286
10016,New York County,NY,48.8235294117647,NA
10034,New York County,NY,NA,72.65625
10301,Richmond County,NY,NA,54.57589285714286
10451,Bronx County,NY,NA,5.915178571428571
10455,Bronx County,NY,NA,15.513392857142858
10457,Bronx County,NY,0.5882352941176471,NA
10461,Bronx County,NY,NA,24.441964285714285
10463,Bronx County,NY,NA,1.8973214285714284
10509,Putnam County,NY,57.94117647058824,NA
10566,Westchester County,NY,72.35294117647058,NA
10598,Westchester County,NY,NA,35.379464285714285
10601,Westchester County,NY,NA,79.35267857142857
10940,Orange County,NY,NA,18.080357142857142
10941,Orange County,NY,NA,79.24107142857143
11040,Nassau County,NY,NA,28.794642857142854
11207,Kings County,NY,NA,41.629464285714285
11210,Kings County,NY,NA,32.142857142857146
11221,Kings County,NY,NA,4.910714285714286
11223,Kings County,NY,16.76470588235294,NA
11224,Kings County,NY,6.764705882352941,NA
11234,Kings County,NY,NA,15.290178571428573
11235,Kings County,NY,NA,0.33482142857142855
11370,Queens County,NY,NA,62.5
11415,Queens County,NY,72.6470588235294,NA
11419,Queens County,NY,NA,45.75892857142857
11560,Nassau County,NY,99.11764705882354,NA
11563,Nassau County,NY,NA,56.91964285714286
11714,Nassau County,NY,NA,53.125
11720,Suffolk County,NY,NA,29.799107142857146
11733,Suffolk County,NY,NA,61.71875
11741,Suffolk County,NY,67.05882352941175,NA
11778,Suffolk County,NY,NA,88.05803571428571
11779,Suffolk County,NY,NA,38.72767857142857
12009,Albany County,NY,NA,86.38392857142857
12025,Fulton County,NY,NA,89.73214285714286
12186,Albany County,NY,NA,92.1875
12189,Albany County,NY,65,NA
12198,Rensselaer County,NY,87.94117647058823,NA
12205,Albany County,NY,NA,77.67857142857143
12303,Schenectady County,NY,40.588235294117645,35.15625
12477,Ulster County,NY,75.88235294117646,NA
12518,Orange County,NY,97.94117647058823,NA
12545,Dutchess County,NY,NA,98.88392857142857
12553,Orange County,NY,NA,72.87946428571429
12566,Ulster County,NY,NA,99.66517857142857
12572,Dutchess County,NY,NA,77.12053571428571
12590,Dutchess County,NY,65.58823529411765,NA
12603,Dutchess County,NY,53.23529411764706,NA
13165,Seneca County,NY,NA,74.77678571428571
13440,Oneida County,NY,6.470588235294119,NA
13601,Jefferson County,NY,NA,16.294642857142858
13669,St. Lawrence County,NY,NA,83.92857142857143
13820,Otsego County,NY,10,NA
13850,Broome County,NY,NA,3.125
13856,Delaware County,NY,73.23529411764706,NA
14150,Erie County,NY,NA,17.633928571428573
14304,Niagara County,NY,NA,50.44642857142857
14420,Monroe County,NY,57.647058823529406,NA
14450,Monroe County,NY,NA,5.357142857142857
14456,Ontario County,NY,5.88235294117647,NA
14470,Orleans County,NY,86.47058823529412,NA
14609,Monroe County,NY,NA,18.973214285714285
14706,Cattaraugus County,NY,NA,93.52678571428571
14750,Chautauqua County,NY,91.17647058823529,NA
27006,Davie County,NC,NA,17.299107142857142
27030,Surry County,NC,NA,0.4464285714285714
27106,Forsyth County,NC,NA,0.5580357142857143
27292,Davidson County,NC,1.4705882352941175,NA
27302,Alamance County,NC,NA,26.450892857142854
27517,Orange County,NC,NA,16.741071428571427
27576,Johnston County,NC,55.294117647058826,NA
27615,Wake County,NC,NA,11.495535714285714
27909,Pasquotank County,NC,NA,18.303571428571427
28105,Mecklenburg County,NC,NA,37.05357142857143
28134,Mecklenburg County,NC,NA,86.83035714285714
28213,Mecklenburg County,NC,NA,78.23660714285714
28352,Scotland County,NC,NA,53.45982142857143
28379,Richmond County,NC,NA,33.035714285714285
28451,Brunswick County,NC,NA,42.96875
28512,Carteret County,NC,94.70588235294117,93.86160714285714
28530,Pitt County,NC,NA,94.19642857142857
28625,Iredell County,NC,NA,63.39285714285714
28675,Alleghany County,NC,50.588235294117645,NA
28716,Haywood County,NC,NA,45.3125
28759,Henderson County,NC,70.58823529411765,55.46875
28803,Buncombe County,NC,NA,23.883928571428573
28806,Buncombe County,NC,41.76470588235294,NA
28906,Cherokee County,NC,NA,57.92410714285714
58104,Cass County,ND,NA,2.34375
58601,Stark County,ND,99.41176470588235,NA
58701,Ward County,ND,11.176470588235295,NA
43016,Franklin County,OH,NA,43.41517857142857
43026,Franklin County,OH,NA,81.36160714285714
43055,Licking County,OH,NA,25.892857142857146
43064,Madison County,OH,NA,78.57142857142857
43220,Franklin County,OH,NA,40.95982142857143
43224,Franklin County,OH,NA,25.44642857142857
43235,Franklin County,OH,NA,30.245535714285715
43402,Wood County,OH,17.941176470588236,NA
43465,Wood County,OH,NA,98.66071428571429
43512,Defiance County,OH,5.294117647058823,13.28125
43528,Lucas County,OH,43.529411764705884,NA
43537,Lucas County,OH,NA,65.95982142857143
43551,Wood County,OH,8.529411764705882,NA
43558,Fulton County,OH,NA,87.16517857142857
43560,Lucas County,OH,NA,62.83482142857143
43566,Lucas County,OH,NA,82.14285714285714
43606,Lucas County,OH,31.470588235294116,47.20982142857143
43611,Lucas County,OH,65.88235294117646,NA
43614,Lucas County,OH,14.117647058823529,NA
43615,Lucas County,OH,NA,7.5892857142857135
43616,Lucas County,OH,15,NA
43623,Lucas County,OH,62.35294117647059,NA
44001,Lorain County,OH,NA,6.8080357142857135
44022,Cuyahoga County,OH,NA,58.48214285714286
44053,Lorain County,OH,NA,5.245535714285714
44060,Lake County,OH,0.8823529411764706,NA
44067,Summit County,OH,20.588235294117645,NA
44087,Summit County,OH,NA,3.013392857142857
44090,Lorain County,OH,NA,60.71428571428571
44094,Lake County,OH,NA,0.78125
44105,Cuyahoga County,OH,0,NA
44118,Cuyahoga County,OH,NA,4.575892857142857
44129,Cuyahoga County,OH,NA,18.415178571428573
44134,Cuyahoga County,OH,2.6470588235294117,NA
44136,Cuyahoga County,OH,NA,12.946428571428573
44137,Cuyahoga County,OH,NA,27.901785714285715
44145,Cuyahoga County,OH,5,NA
44212,Medina County,OH,1.1764705882352942,1.7857142857142856
44221,Summit County,OH,NA,12.5
44224,Summit County,OH,10.588235294117647,NA
44321,Summit County,OH,NA,73.21428571428571
44333,Summit County,OH,42.94117647058823,NA
44408,Columbiana County,OH,92.05882352941175,NA
44410,Trumbull County,OH,NA,49.776785714285715
44460,Columbiana County,OH,NA,21.986607142857142
44484,Trumbull County,OH,15.88235294117647,NA
44515,Mahoning County,OH,NA,17.745535714285715
44615,Carroll County,OH,NA,72.09821428571429
44685,Summit County,OH,NA,66.07142857142857
44691,Wayne County,OH,NA,11.272321428571429
45011,Butler County,OH,3.5294117647058822,NA
45013,Butler County,OH,NA,28.125
45014,Butler County,OH,NA,19.308035714285715
45030,Hamilton County,OH,NA,73.54910714285714
45039,Warren County,OH,NA,80.46875
45066,Warren County,OH,NA,87.05357142857143
45150,Clermont County,OH,NA,36.495535714285715
45220,Hamilton County,OH,NA,63.95089285714286
45227,Hamilton County,OH,NA,58.59375
45240,Hamilton County,OH,NA,52.45535714285714
45255,Hamilton County,OH,NA,45.535714285714285
45377,Montgomery County,OH,NA,86.71875
45385,Greene County,OH,NA,8.147321428571429
45405,Montgomery County,OH,NA,92.07589285714286
45420,Montgomery County,OH,38.82352941176471,45.200892857142854
45424,Montgomery County,OH,63.23529411764706,6.919642857142858
45429,Montgomery County,OH,32.05882352941177,NA
45434,Greene County,OH,NA,68.30357142857143
45458,Montgomery County,OH,NA,28.348214285714285
45459,Montgomery County,OH,NA,16.183035714285715
45502,Clark County,OH,NA,80.35714285714286
45503,Clark County,OH,NA,9.375
45505,Clark County,OH,NA,70.3125
45614,Gallia County,OH,NA,100
45638,Lawrence County,OH,25.588235294117645,NA
45640,Jackson County,OH,NA,10.9375
45662,Scioto County,OH,NA,3.2366071428571432
45701,Athens County,OH,NA,36.71875
45714,Washington County,OH,NA,32.700892857142854
45750,Washington County,OH,NA,1.2276785714285714
45840,Hancock County,OH,39.705882352941174,NA
73020,Oklahoma County,OK,NA,62.16517857142857
73045,Oklahoma County,OK,NA,70.42410714285714
73078,Canadian County,OK,82.35294117647058,NA
73115,Oklahoma County,OK,NA,38.839285714285715
73116,Oklahoma County,OK,85.88235294117646,NA
73120,Oklahoma County,OK,NA,14.285714285714285
73162,Oklahoma County,OK,19.705882352941178,18.638392857142858
73170,Cleveland County,OK,18.235294117647058,NA
73401,Carter County,OK,NA,61.83035714285714
73507,Comanche County,OK,NA,28.683035714285715
74010,Creek County,OK,NA,92.74553571428571
74017,Rogers County,OK,48.8235294117647,NA
74063,Tulsa County,OK,NA,52.23214285714286
74070,Osage County,OK,NA,91.74107142857143
74075,Payne County,OK,NA,49.55357142857143
74112,Tulsa County,OK,68.52941176470588,NA
74133,Tulsa County,OK,NA,9.709821428571429
74331,Delaware County,OK,79.11764705882352,NA
74361,Mayes County,OK,64.70588235294117,NA
74429,Wagoner County,OK,NA,75.89285714285714
74447,Okmulgee County,OK,66.47058823529412,NA
97006,Washington County,OR,NA,39.732142857142854
97016,Columbia County,OR,NA,91.85267857142857
97030,Multnomah County,OR,NA,20.535714285714285
97201,Multnomah County,OR,NA,75.11160714285714
97202,Multnomah County,OR,NA,79.6875
97222,Clackamas County,OR,NA,44.97767857142857
97224,Washington County,OR,NA,28.57142857142857
97236,Multnomah County,OR,26.764705882352942,61.16071428571429
97355,Linn County,OR,7.352941176470589,NA
97420,Coos County,OR,NA,46.42857142857143
97501,Jackson County,OR,NA,30.357142857142854
97504,Jackson County,OR,NA,3.7946428571428568
97601,Klamath County,OR,NA,42.52232142857143
97754,Crook County,OR,NA,34.263392857142854
15012,Westmoreland County,PA,NA,37.611607142857146
15101,Allegheny County,PA,NA,12.276785714285714
15143,Allegheny County,PA,NA,43.080357142857146
15205,Allegheny County,PA,55.00000000000001,NA
15216,Allegheny County,PA,NA,53.01339285714286
15238,Allegheny County,PA,NA,38.392857142857146
15241,Allegheny County,PA,NA,53.34821428571429
15301,Washington County,PA,6.176470588235294,10.825892857142858
15857,Elk County,PA,12.352941176470589,NA
16101,Lawrence County,PA,9.117647058823529,1.6741071428571428
16105,Lawrence County,PA,NA,11.049107142857142
16335,Crawford County,PA,NA,18.638392857142858
16407,Erie County,PA,67.64705882352942,75.44642857142857
16509,Erie County,PA,NA,25
16510,Erie County,PA,89.41176470588236,NA
16602,Blair County,PA,16.470588235294116,NA
16648,Blair County,PA,NA,49.441964285714285
16652,Huntingdon County,PA,NA,20.3125
16823,Centre County,PA,19.11764705882353,NA
16830,Clearfield County,PA,NA,16.517857142857142
17022,Lancaster County,PA,NA,15.513392857142858
17042,Lebanon County,PA,NA,58.03571428571429
17055,Cumberland County,PA,83.23529411764706,7.366071428571429
17111,Dauphin County,PA,NA,39.0625
17201,Franklin County,PA,22.941176470588236,NA
17202,Franklin County,PA,NA,12.723214285714285
17356,York County,PA,NA,38.169642857142854
17404,York County,PA,NA,13.169642857142858
17512,Lancaster County,PA,41.47058823529412,NA
17584,Lancaster County,PA,NA,43.973214285714285
17740,Lycoming County,PA,52.05882352941177,NA
17870,Snyder County,PA,NA,75.66964285714286
17901,Schuylkill County,PA,NA,24.21875
18062,Lehigh County,PA,NA,27.67857142857143
18104,Lehigh County,PA,NA,2.5669642857142856
18337,Pike County,PA,NA,64.39732142857143
18640,Luzerne County,PA,NA,21.428571428571427
18702,Luzerne County,PA,NA,6.4732142857142865
18822,Susquehanna County,PA,NA,90.29017857142857
18940,Bucks County,PA,39.411764705882355,NA
19006,Montgomery County,PA,NA,44.19642857142857
19026,Delaware County,PA,32.64705882352941,NA
19040,Montgomery County,PA,NA,31.026785714285715
19063,Delaware County,PA,NA,10.15625
19103,Philadelphia County,PA,NA,63.16964285714286
19114,Philadelphia County,PA,NA,20.982142857142858
19134,Philadelphia County,PA,NA,44.308035714285715
19145,Philadelphia County,PA,15.294117647058824,34.375
19154,Philadelphia County,PA,NA,30.80357142857143
19312,Chester County,PA,45.88235294117647,NA
19382,Chester County,PA,NA,17.410714285714285
19465,Chester County,PA,NA,69.41964285714286
19518,Berks County,PA,NA,74.33035714285714
19567,Berks County,PA,NA,87.72321428571429
19607,Berks County,PA,NA,13.839285714285715
19610,Berks County,PA,NA,64.62053571428571
02828,Providence County,RI,NA,71.31696428571429
02882,Washington County,RI,52.352941176470594,NA
02908,Providence County,RI,NA,67.96875
02910,Providence County,RI,66.76470588235294,NA
29045,Kershaw County,SC,NA,77.45535714285714
29108,Newberry County,SC,NA,87.16517857142857
29150,Sumter County,SC,NA,60.26785714285714
29154,Sumter County,SC,74.11764705882354,NA
29169,Lexington County,SC,NA,47.098214285714285
29205,Richland County,SC,NA,69.97767857142857
29223,Richland County,SC,NA,12.388392857142858
29455,Charleston County,SC,33.23529411764706,NA
29466,Charleston County,SC,NA,74.44196428571429
29486,Berkeley County,SC,NA,72.54464285714286
29607,Greenville County,SC,NA,24.776785714285715
29615,Greenville County,SC,NA,58.25892857142857
29621,Anderson County,SC,NA,12.611607142857142
29624,Anderson County,SC,NA,67.74553571428571
29626,Anderson County,SC,NA,60.04464285714286
29650,Greenville County,SC,42.94117647058823,NA
29651,Greenville County,SC,NA,20.089285714285715
29671,Pickens County,SC,NA,36.160714285714285
29681,Greenville County,SC,NA,35.714285714285715
29706,Chester County,SC,59.11764705882353,NA
29803,Aiken County,SC,11.76470588235294,NA
57103,Minnehaha County,SD,NA,33.816964285714285
57104,Minnehaha County,SD,NA,13.727678571428573
57106,Minnehaha County,SD,7.941176470588235,NA
57301,Davison County,SD,NA,24.441964285714285
37062,Williamson County,TN,NA,84.26339285714286
37075,Sumner County,TN,8.235294117647058,8.705357142857142
37080,Davidson County,TN,NA,93.75
37138,Davidson County,TN,54.11764705882353,NA
37172,Robertson County,TN,NA,56.47321428571429
37312,Bradley County,TN,NA,34.486607142857146
37331,McMinn County,TN,77.94117647058823,NA
37354,Monroe County,TN,NA,51.45089285714286
37604,Washington County,TN,22.647058823529413,NA
37618,Sullivan County,TN,NA,95.75892857142857
37650,Unicoi County,TN,NA,46.316964285714285
37745,Greene County,TN,NA,37.05357142857143
37771,Loudon County,TN,56.1764705882353,NA
37801,Blount County,TN,17.058823529411764,NA
37814,Hamblen County,TN,NA,33.14732142857143
37830,Anderson County,TN,NA,37.276785714285715
37840,Roane County,TN,NA,74.10714285714286
37849,Knox County,TN,NA,46.09375
37854,Roane County,TN,NA,94.97767857142857
37857,Hawkins County,TN,38.529411764705884,NA
37879,Claiborne County,TN,NA,82.92410714285714
38106,Shelby County,TN,NA,55.80357142857143
38115,Shelby County,TN,NA,73.66071428571429
38305,Madison County,TN,NA,14.397321428571427
38401,Maury County,TN,10.294117647058822,NA
38483,Lawrence County,TN,NA,97.99107142857143
38506,Putnam County,TN,57.35294117647059,NA
38571,Cumberland County,TN,NA,61.38392857142857
38583,White County,TN,NA,23.883928571428573
75020,Grayson County,TX,36.470588235294116,NA
75044,Dallas County,TX,NA,68.41517857142857
75071,Collin County,TX,30.88235294117647,NA
75137,Dallas County,TX,NA,65.29017857142857
75211,Dallas County,TX,24.11764705882353,NA
75219,Dallas County,TX,62.05882352941177,NA
75225,Dallas County,TX,NA,33.92857142857143
75234,Dallas County,TX,NA,80.91517857142857
75238,Dallas County,TX,NA,48.4375
75455,Titus County,TX,NA,51.33928571428571
75563,Cass County,TX,NA,98.99553571428571
75570,Bowie County,TX,NA,89.17410714285714
75601,Gregg County,TX,76.76470588235294,NA
75751,Henderson County,TX,NA,39.955357142857146
75757,Smith County,TX,NA,39.50892857142857
75758,Henderson County,TX,NA,60.9375
75766,Cherokee County,TX,NA,5.133928571428571
75961,Nacogdoches County,TX,NA,96.54017857142857
76008,Parker County,TX,NA,97.20982142857143
76018,Tarrant County,TX,61.47058823529412,NA
76020,Tarrant County,TX,NA,85.37946428571429
76054,Tarrant County,TX,78.52941176470588,NA
76209,Denton County,TX,NA,81.58482142857143
76226,Denton County,TX,NA,85.71428571428571
76248,Tarrant County,TX,NA,42.410714285714285
76301,Wichita County,TX,70,NA
76458,Jack County,TX,NA,96.31696428571429
76502,Bell County,TX,NA,0
76531,Hamilton County,TX,NA,80.13392857142857
76567,Milam County,TX,NA,49.21875
76643,McLennan County,TX,62.94117647058823,NA
76645,Hill County,TX,NA,96.20535714285714
76904,Tom Green County,TX,75.58823529411765,NA
77015,Harris County,TX,NA,66.40625
77024,Harris County,TX,NA,39.285714285714285
77031,Harris County,TX,86.76470588235294,NA
77056,Harris County,TX,NA,47.65625
77061,Harris County,TX,NA,94.75446428571429
77069,Harris County,TX,NA,66.62946428571429
77075,Harris County,TX,90,NA
77096,Harris County,TX,NA,51.67410714285714
77340,Walker County,TX,NA,68.08035714285714
77373,Harris County,TX,27.35294117647059,NA
77377,Harris County,TX,NA,48.549107142857146
77379,Harris County,TX,NA,9.933035714285714
77384,Montgomery County,TX,NA,66.96428571428571
77429,Harris County,TX,NA,22.879464285714285
77459,Fort Bend County,TX,NA,25.558035714285715
77461,Fort Bend County,TX,NA,90.06696428571429
77486,Brazoria County,TX,NA,89.62053571428571
77493,Harris County,TX,87.05882352941177,NA
77494,Fort Bend County,TX,NA,86.27232142857143
77502,Harris County,TX,NA,92.41071428571429
77504,Harris County,TX,94.41176470588235,NA
77562,Harris County,TX,NA,84.93303571428571
77581,Brazoria County,TX,NA,32.700892857142854
77984,Lavaca County,TX,NA,88.83928571428571
78006,Kendall County,TX,58.235294117647065,NA
78202,Bexar County,TX,NA,94.53125
78209,Bexar County,TX,NA,43.191964285714285
78214,Bexar County,TX,NA,85.15625
78332,Jim Wells County,TX,65,NA
78521,Cameron County,TX,20,NA
78575,Cameron County,TX,NA,95.08928571428571
78583,Cameron County,TX,NA,90.51339285714286
78611,Burnet County,TX,NA,15.066964285714285
78624,Gillespie County,TX,NA,81.69642857142857
78642,Williamson County,TX,NA,68.75
78666,Hays County,TX,NA,21.540178571428573
78681,Williamson County,TX,85.29411764705883,NA
78735,Travis County,TX,NA,79.79910714285714
78746,Travis County,TX,89.11764705882354,NA
78752,Travis County,TX,NA,96.76339285714286
78756,Travis County,TX,96.47058823529412,NA
78942,Lee County,TX,NA,78.68303571428571
79121,Randall County,TX,NA,91.51785714285714
79364,Lubbock County,TX,88.52941176470588,NA
79602,Taylor County,TX,NA,99.21875
79915,El Paso County,TX,NA,13.950892857142858
79924,El Paso County,TX,NA,20.758928571428573
84020,Salt Lake County,UT,NA,82.03125
84041,Davis County,UT,NA,76.78571428571429
84088,Salt Lake County,UT,52.352941176470594,NA
84093,Salt Lake County,UT,NA,67.41071428571429
84604,Utah County,UT,NA,90.17857142857143
84720,Iron County,UT,NA,81.47321428571429
05143,Windsor County,VT,93.23529411764706,NA
05478,Franklin County,VT,NA,64.73214285714286
05701,Rutland County,VT,12.647058823529411,NA
20155,Prince William County,VA,44.11764705882353,NA
20175,Loudoun County,VA,NA,46.875
22015,Fairfax County,VA,NA,58.81696428571429
22030,Fairfax County,VA,NA,43.526785714285715
22312,Fairfax County,VA,NA,89.28571428571429
22401,Fredericksburg city,VA,NA,88.05803571428571
22802,Harrisonburg city,VA,NA,30.13392857142857
22824,Shenandoah County,VA,80.29411764705883,NA
22827,Rockingham County,VA,68.82352941176471,NA
22980,Waynesboro city,VA,NA,2.7901785714285716
23112,Chesterfield County,VA,NA,41.964285714285715
23116,Hanover County,VA,53.8235294117647,NA
23229,Henrico County,VA,77.05882352941177,NA
23231,Henrico County,VA,NA,33.705357142857146
23236,Chesterfield County,VA,NA,60.26785714285714
23238,Henrico County,VA,NA,41.294642857142854
23320,Chesapeake city,VA,NA,63.50446428571429
23325,Chesapeake city,VA,NA,46.651785714285715
23434,Suffolk city,VA,13.529411764705882,NA
23462,Virginia Beach city,VA,NA,4.6875
23602,Newport News city,VA,NA,9.263392857142858
23606,Newport News city,VA,NA,16.964285714285715
23832,Chesterfield County,VA,47.05882352941176,NA
24014,Roanoke city,VA,NA,65.51339285714286
24121,Bedford County,VA,NA,75.89285714285714
24141,Radford city,VA,79.70588235294119,60.60267857142857
24148,Henry County,VA,83.52941176470588,NA
24153,Salem city,VA,NA,17.410714285714285
24260,Russell County,VA,NA,68.86160714285714
24401,Staunton city,VA,NA,5.803571428571429
24416,Buena Vista city,VA,NA,77.90178571428571
24503,Lynchburg city,VA,NA,41.85267857142857
98020,Snohomish County,WA,NA,32.589285714285715
98033,King County,WA,NA,27.566964285714285
98105,King County,WA,75,NA
98117,King County,WA,NA,83.70535714285714
98125,King County,WA,35,NA
98146,King County,WA,31.76470588235294,NA
98204,Snohomish County,WA,NA,56.80803571428571
98229,Whatcom County,WA,NA,75.22321428571429
98248,Whatcom County,WA,NA,63.50446428571429
98264,Whatcom County,WA,NA,60.04464285714286
98360,Pierce County,WA,NA,86.60714285714286
98407,Pierce County,WA,NA,44.86607142857143
98501,Thurston County,WA,NA,50.66964285714286
98503,Thurston County,WA,NA,36.607142857142854
98802,Douglas County,WA,NA,18.861607142857142
98908,Yakima County,WA,NA,11.607142857142858
24701,Mercer County,WV,29.411764705882355,30.580357142857146
25304,Kanawha County,WV,NA,73.99553571428571
25312,Kanawha County,WV,51.470588235294116,NA
25405,Berkeley County,WV,NA,99.55357142857143
26037,Brooke County,WV,NA,73.32589285714286
26070,Brooke County,WV,NA,85.49107142857143
26508,Monongalia County,WV,NA,16.294642857142858
53005,Waukesha County,WI,NA,47.767857142857146
53012,Ozaukee County,WI,NA,30.91517857142857
53027,Washington County,WI,44.70588235294118,NA
53029,Waukesha County,WI,NA,56.02678571428571
53066,Waukesha County,WI,NA,21.205357142857142
53083,Sheboygan County,WI,NA,76.78571428571429
53090,Washington County,WI,51.17647058823529,NA
53092,Ozaukee County,WI,NA,14.508928571428573
53095,Washington County,WI,21.470588235294116,NA
53105,Racine County,WI,NA,31.808035714285715
53110,Milwaukee County,WI,NA,31.25
53150,Waukesha County,WI,NA,47.99107142857143
53158,Kenosha County,WI,28.52941176470588,NA
53204,Milwaukee County,WI,NA,69.08482142857143
53207,Milwaukee County,WI,NA,27.00892857142857
53214,Milwaukee County,WI,NA,24.330357142857142
53215,Milwaukee County,WI,NA,8.59375
53219,Milwaukee County,WI,15.588235294117647,NA
53223,Milwaukee County,WI,NA,12.053571428571429
53226,Milwaukee County,WI,NA,41.517857142857146
53228,Milwaukee County,WI,NA,76.22767857142857
53402,Racine County,WI,NA,1.0044642857142858
53405,Racine County,WI,NA,12.834821428571427
53566,Green County,WI,NA,10.602678571428571
53593,Dane County,WI,98.52941176470588,NA
53713,Dane County,WI,NA,40.513392857142854
53716,Dane County,WI,NA,61.16071428571429
53718,Dane County,WI,70,NA
53916,Dodge County,WI,NA,28.125
54002,St. Croix County,WI,NA,86.49553571428571
54241,Manitowoc County,WI,NA,40.066964285714285
54304,Brown County,WI,NA,22.65625
54452,Lincoln County,WI,48.529411764705884,NA
54467,Portage County,WI,NA,94.08482142857143
54603,La Crosse County,WI,NA,51.11607142857143
54650,La Crosse County,WI,NA,2.455357142857143
54665,Vernon County,WI,NA,57.14285714285714
54880,Douglas County,WI,4.117647058823529,0.8928571428571428
54915,Outagamie County,WI,NA,58.70535714285714
54935,Fond du Lac County,WI,NA,4.799107142857143
54970,Waushara County,WI,99.70588235294117,NA
82201,Platte County,WY,NA,81.13839285714286
