ZipCode,county,state,Youth,Adult,Retirement
35016,Marshall County,AL,NA,30.544435548438752,NA
35045,Chilton County,AL,NA,38.35068054443555,NA
35068,Jefferson County,AL,NA,97.39791833466774,NA
35111,Tuscaloosa County,AL,52.83505154639175,NA,NA
35117,Jefferson County,AL,NA,69.09527622097679,NA
35120,St. Clair County,AL,NA,36.78943154523619,NA
35121,Blount County,AL,NA,38.79103282626101,NA
35124,Shelby County,AL,NA,39.831865492393916,NA
35242,Shelby County,AL,32.98969072164948,40.27221777421938,NA
35244,Jefferson County,AL,NA,26.54123298638911,NA
35401,Tuscaloosa County,AL,NA,11.76941553242594,NA
35405,Tuscaloosa County,AL,NA,NA,9.126984126984127
35466,Pickens County,AL,NA,NA,83.73015873015873
35501,Walker County,AL,NA,65.45236188951161,NA
35550,Walker County,AL,NA,NA,80.95238095238095
35580,Walker County,AL,NA,79.94395516413131,NA
35594,Marion County,AL,NA,77.22177742193756,NA
35622,Morgan County,AL,70.36082474226805,NA,NA
35633,Lauderdale County,AL,NA,92.2337870296237,NA
35645,Lauderdale County,AL,NA,47.55804643714972,NA
35672,Lawrence County,AL,NA,52.92233787029623,NA
35761,Madison County,AL,NA,71.77742193755005,NA
35801,Madison County,AL,NA,45.83666933546838,NA
35805,Madison County,AL,NA,24.619695756605285,NA
35811,Madison County,AL,NA,21.937550040032026,NA
35904,Etowah County,AL,NA,24.89991993594876,NA
35956,Etowah County,AL,NA,53.44275420336268,NA
35961,DeKalb County,AL,NA,80.62449959967975,NA
35967,DeKalb County,AL,NA,40.312249799839876,NA
35978,DeKalb County,AL,94.58762886597938,NA,NA
36024,Elmore County,AL,NA,75.98078462770216,NA
36064,Montgomery County,AL,NA,75.98078462770216,NA
36078,Elmore County,AL,NA,30.944755804643716,NA
36092,Elmore County,AL,NA,25.100080064051237,NA
36105,Montgomery County,AL,NA,40.832666132906326,NA
36110,Montgomery County,AL,NA,32.38590872698158,NA
36117,Montgomery County,AL,NA,16.052842273819053,NA
36201,Calhoun County,AL,NA,12.409927942353884,NA
36250,Calhoun County,AL,NA,92.59407526020816,NA
36345,Henry County,AL,NA,55.64451561248999,NA
36360,Dale County,AL,34.79381443298969,52.12169735788631,NA
36580,Baldwin County,AL,NA,81.82546036829463,NA
36605,Mobile County,AL,21.90721649484536,NA,NA
99501,Anchorage Municipality,AK,66.75257731958763,73.4587670136109,NA
99503,Anchorage Municipality,AK,NA,64.77181745396317,71.42857142857143
99504,Anchorage Municipality,AK,9.793814432989691,NA,NA
99507,Anchorage Municipality,AK,NA,65.5324259407526,NA
99516,Anchorage Municipality,AK,NA,91.99359487590073,NA
99615,Kodiak Island Borough,AK,52.83505154639175,58.60688550840673,NA
99645,Matanuska-Susitna Borough,AK,NA,32.105684547638106,NA
99654,Matanuska-Susitna Borough,AK,NA,17.65412329863891,NA
99705,Fairbanks North Star Borough,AK,62.371134020618555,NA,NA
99801,Juneau City and Borough,AK,NA,53.322658126501196,NA
85003,Maricopa County,AZ,NA,84.26741393114492,NA
85006,Maricopa County,AZ,NA,48.79903923138511,NA
85007,Maricopa County,AZ,90.72164948453609,70.93674939951961,NA
85008,Maricopa County,AZ,NA,38.150520416333066,NA
85009,Maricopa County,AZ,NA,23.578863090472378,NA
85014,Maricopa County,AZ,NA,24.65972778222578,NA
85015,Maricopa County,AZ,NA,7.8062449959967974,NA
85016,Maricopa County,AZ,NA,49.599679743795036,NA
85017,Maricopa County,AZ,13.917525773195877,15.572457966373099,NA
85018,Maricopa County,AZ,NA,65.65252201761409,NA
85019,Maricopa County,AZ,NA,19.935948759007204,NA
85020,Maricopa County,AZ,30.670103092783506,NA,NA
85021,Maricopa County,AZ,NA,21.57726180944756,32.93650793650794
85022,Maricopa County,AZ,NA,30.184147317854283,NA
85023,Maricopa County,AZ,NA,79.30344275420337,NA
85024,Maricopa County,AZ,NA,49.27942353883106,NA
85027,Maricopa County,AZ,NA,NA,52.38095238095239
85028,Maricopa County,AZ,NA,54.203362690152126,NA
85029,Maricopa County,AZ,NA,32.70616493194556,NA
85031,Maricopa County,AZ,NA,28.34267413931145,NA
85032,Maricopa County,AZ,17.525773195876287,85.5484387510008,NA
85033,Maricopa County,AZ,NA,26.020816653322658,NA
85034,Maricopa County,AZ,NA,75.6204963971177,NA
85035,Maricopa County,AZ,NA,6.805444355484387,NA
85040,Maricopa County,AZ,NA,8.1265012009607691,NA
85041,Maricopa County,AZ,NA,16.13290632506005,NA
85051,Maricopa County,AZ,62.628865979381445,74.57966373098479,36.507936507936506
85053,Maricopa County,AZ,NA,64.5316253002402,59.523809523809526
85083,Maricopa County,AZ,NA,56.6853482786229,NA
85086,Maricopa County,AZ,NA,21.45716573258607,NA
85119,Pinal County,AZ,NA,44.99599679743795,NA
85120,Pinal County,AZ,40.4639175257732,62.2497998398719,NA
85122,Pinal County,AZ,NA,40.79263410728583,NA
85138,Pinal County,AZ,NA,46.79743795036029,NA
85140,Pinal County,AZ,NA,43.3146517213771,NA
85142,Maricopa County,AZ,NA,80.18414731785428,NA
85143,Pinal County,AZ,NA,17.934347477982385,NA
85193,Pinal County,AZ,NA,94.87590072057645,NA
85201,Maricopa County,AZ,37.11340206185567,49.75980784627702,NA
85202,Maricopa County,AZ,NA,8.646917534027223,NA
85204,Maricopa County,AZ,NA,5.724579663730984,NA
85207,Maricopa County,AZ,NA,35.58847077662129,NA
85209,Maricopa County,AZ,22.68041237113402,NA,NA
85210,Maricopa County,AZ,NA,48.238590872698154,53.96825396825397
85212,Maricopa County,AZ,NA,33.66693354683747,NA
85224,Maricopa County,AZ,NA,64.01120896717374,NA
85225,Maricopa County,AZ,NA,21.617293835068054,NA
85248,Maricopa County,AZ,NA,33.98718975180144,NA
85250,Maricopa County,AZ,NA,66.05284227381905,NA
85251,Maricopa County,AZ,NA,60.96877502001601,NA
85257,Maricopa County,AZ,NA,66.09287429943956,NA
85260,Maricopa County,AZ,NA,40.71257005604483,NA
85281,Maricopa County,AZ,67.5257731958763,66.21297037630104,NA
85282,Maricopa County,AZ,43.55670103092783,NA,NA
85283,Maricopa County,AZ,NA,43.71497197758207,NA
85296,Maricopa County,AZ,NA,41.87349879903923,NA
85301,Maricopa County,AZ,NA,69.73578863090472,NA
85302,Maricopa County,AZ,NA,50.36028823058447,NA
85303,Maricopa County,AZ,NA,67.05364291433146,NA
85304,Maricopa County,AZ,NA,86.6693354683747,NA
85305,Maricopa County,AZ,NA,76.7413931144916,NA
85306,Maricopa County,AZ,NA,58.12650120096077,NA
85308,Maricopa County,AZ,NA,57.56605284227382,NA
85323,Maricopa County,AZ,NA,15.452361889511609,50
85326,Maricopa County,AZ,NA,13.450760608486789,NA
85335,Maricopa County,AZ,NA,42.71417133706966,NA
85338,Maricopa County,AZ,NA,16.573258606885506,NA
85339,Maricopa County,AZ,NA,57.726180944755804,NA
85344,La Paz County,AZ,NA,67.49399519615693,NA
85349,Yuma County,AZ,NA,16.77341873498799,NA
85356,Yuma County,AZ,NA,NA,92.46031746031747
85364,Yuma County,AZ,NA,59.36749399519615,NA
85365,Yuma County,AZ,NA,13.250600480384309,NA
85381,Maricopa County,AZ,NA,39.27141713370696,NA
85382,Maricopa County,AZ,NA,52.882305844675734,NA
85541,Gila County,AZ,NA,87.22978382706165,NA
85543,Graham County,AZ,NA,79.78382706164932,NA
85602,Cochise County,AZ,NA,60.848678943154525,NA
85635,Cochise County,AZ,NA,50.0400320256205,NA
85653,Pima County,AZ,NA,18.815052041633308,NA
85701,Pima County,AZ,NA,39.831865492393916,77.77777777777779
85705,Pima County,AZ,NA,62.12970376301041,NA
85706,Pima County,AZ,NA,0.8406725380304243,6.349206349206349
85710,Pima County,AZ,NA,16.733386709367494,13.88888888888889
85711,Pima County,AZ,21.1340206185567,42.03362690152122,93.65079365079364
85712,Pima County,AZ,NA,9.127301841473178,45.23809523809524
85713,Pima County,AZ,NA,13.650920736589272,NA
85714,Pima County,AZ,NA,41.51321056845476,NA
85716,Pima County,AZ,NA,42.99439551641313,NA
85719,Pima County,AZ,30.927835051546392,42.15372297838271,NA
85745,Pima County,AZ,NA,11.289031224979984,15.079365079365079
85746,Pima County,AZ,NA,4.923939151321057,NA
85756,Pima County,AZ,NA,65.89271417133708,NA
85941,Apache County,AZ,NA,22.978382706164933,NA
86004,Coconino County,AZ,NA,84.62770216172937,NA
86033,Navajo County,AZ,NA,38.630904723779025,NA
86045,Coconino County,AZ,NA,11.248999199359487,NA
86301,Yavapai County,AZ,NA,42.87429943955164,NA
86305,Yavapai County,AZ,NA,40.072057646116896,NA
86322,Yavapai County,AZ,NA,29.183346677341877,NA
86326,Yavapai County,AZ,NA,10.568454763811049,NA
86401,Mohave County,AZ,NA,3.8831064851881507,NA
86403,Mohave County,AZ,NA,51.36108887109688,NA
86406,Mohave County,AZ,NA,27.22177742193755,NA
86409,Mohave County,AZ,NA,41.152922337870294,NA
86413,Mohave County,AZ,NA,NA,26.58730158730159
86440,Mohave County,AZ,90.4639175257732,NA,NA
86442,Mohave County,AZ,NA,52.68214571657326,NA
72002,Saline County,AR,NA,44.4755804643715,NA
72019,Saline County,AR,NA,48.07846277021618,NA
72207,Pulaski County,AR,NA,72.93835068054445,NA
72712,Benton County,AR,34.5360824742268,NA,NA
72761,Benton County,AR,50.25773195876289,NA,NA
90001,Los Angeles County,CA,NA,51.92153722978383,NA
90002,Los Angeles County,CA,NA,61.369095276220975,NA
90004,Los Angeles County,CA,NA,50.56044835868695,NA
90007,Los Angeles County,CA,NA,37.51000800640513,NA
90008,Los Angeles County,CA,NA,24.819855884707767,NA
90011,Los Angeles County,CA,NA,34.10728582866293,NA
90013,Los Angeles County,CA,NA,84.02722177742193,NA
90014,Los Angeles County,CA,NA,65.41232986389112,92.06349206349206
90016,Los Angeles County,CA,NA,62.93034427542034,NA
90017,Los Angeles County,CA,NA,65.49239391513211,NA
90018,Los Angeles County,CA,NA,95.19615692554044,NA
90019,Los Angeles County,CA,NA,21.817453963170536,25
90022,Los Angeles County,CA,27.061855670103093,NA,NA
90023,Los Angeles County,CA,NA,67.41393114491594,NA
90026,Los Angeles County,CA,NA,51.96156925540433,NA
90027,Los Angeles County,CA,NA,35.30824659727782,NA
90028,Los Angeles County,CA,NA,75.14011208967175,NA
90029,Los Angeles County,CA,NA,37.8302642113691,NA
90031,Los Angeles County,CA,NA,67.13370696557246,NA
90032,Los Angeles County,CA,NA,27.301841473178545,NA
90033,Los Angeles County,CA,NA,23.859087269815856,NA
90034,Los Angeles County,CA,NA,50.24019215372297,NA
90037,Los Angeles County,CA,NA,19.41553242594075,NA
90038,Los Angeles County,CA,NA,53.08246597277822,NA
90041,Los Angeles County,CA,NA,99.79983987189752,NA
90044,Los Angeles County,CA,NA,2.922337870296237,NA
90047,Los Angeles County,CA,NA,25.66052842273819,NA
90057,Los Angeles County,CA,NA,77.90232185748599,NA
90059,Los Angeles County,CA,NA,42.95436349079264,NA
90062,Los Angeles County,CA,NA,29.983987189751804,NA
90064,Los Angeles County,CA,NA,67.53402722177742,NA
90066,Los Angeles County,CA,NA,95.43634907926342,NA
90069,Los Angeles County,CA,NA,98.67894315452362,76.98412698412699
90201,Los Angeles County,CA,NA,14.851881505204162,35.317460317460316
90220,Los Angeles County,CA,NA,78.54283426741392,NA
90221,Los Angeles County,CA,NA,84.34747798238591,NA
90222,Los Angeles County,CA,NA,43.514811849479585,NA
90230,Los Angeles County,CA,NA,54.3634907926341,NA
90247,Los Angeles County,CA,NA,94.19535628502803,NA
90250,Los Angeles County,CA,NA,33.90712570056045,NA
90255,Los Angeles County,CA,NA,53.84307445956765,NA
90262,Los Angeles County,CA,NA,57.92634107285829,NA
90266,Los Angeles County,CA,NA,38.150520416333066,NA
90277,Los Angeles County,CA,NA,75.78062449959968,NA
90291,Los Angeles County,CA,NA,82.58606885508406,NA
90403,Los Angeles County,CA,NA,98.79903923138511,NA
90501,Los Angeles County,CA,NA,27.02161729383507,NA
90505,Los Angeles County,CA,NA,95.31625300240192,NA
90602,Los Angeles County,CA,55.154639175257735,NA,57.14285714285714
90604,Los Angeles County,CA,NA,92.55404323458767,NA
90605,Los Angeles County,CA,NA,33.266613290632506,NA
90606,Los Angeles County,CA,NA,80.0640512409928,NA
90630,Orange County,CA,31.958762886597935,NA,NA
90631,Orange County,CA,NA,17.373899119295437,NA
90638,Los Angeles County,CA,47.42268041237113,NA,NA
90640,Los Angeles County,CA,NA,17.173738991192955,NA
90650,Los Angeles County,CA,NA,NA,12.698412698412698
90660,Los Angeles County,CA,NA,61.96957566052842,NA
90703,Los Angeles County,CA,NA,73.05844675740593,NA
90706,Los Angeles County,CA,NA,34.30744595676541,NA
90723,Los Angeles County,CA,41.49484536082475,30.144115292233785,NA
90731,Los Angeles County,CA,66.23711340206185,NA,NA
90732,Los Angeles County,CA,95.36082474226805,NA,NA
90740,Orange County,CA,NA,99.75980784627703,NA
90744,Los Angeles County,CA,NA,35.30824659727782,NA
90745,Los Angeles County,CA,NA,20.496397117694155,NA
90805,Los Angeles County,CA,NA,27.22177742193755,NA
90808,Los Angeles County,CA,75,77.54203362690151,NA
90810,Los Angeles County,CA,NA,34.82786228983187,NA
90813,Los Angeles County,CA,NA,56.28502802241794,NA
90815,Los Angeles County,CA,NA,27.982385908726982,NA
91001,Los Angeles County,CA,NA,70.73658927141715,NA
91016,Los Angeles County,CA,75.77319587628865,34.02722177742194,NA
91104,Los Angeles County,CA,76.28865979381443,50.160128102481984,NA
91201,Los Angeles County,CA,NA,NA,64.68253968253968
91204,Los Angeles County,CA,NA,60.408326661329056,NA
91302,Los Angeles County,CA,NA,76.94155324259407,NA
91306,Los Angeles County,CA,NA,21.697357886309046,NA
91307,Los Angeles County,CA,NA,90.35228182546037,NA
91311,Los Angeles County,CA,NA,85.82866293034428,NA
91320,Ventura County,CA,NA,40.55244195356285,NA
91331,Los Angeles County,CA,NA,21.377101681345074,NA
91335,Los Angeles County,CA,NA,NA,33.33333333333333
91342,Los Angeles County,CA,NA,30.424339471577262,NA
91343,Los Angeles County,CA,NA,67.57405924739793,NA
91344,Los Angeles County,CA,NA,71.65732586068854,NA
91345,Los Angeles County,CA,NA,63.69095276220976,NA
91350,Los Angeles County,CA,NA,74.81985588470776,NA
91351,Los Angeles County,CA,86.85567010309279,39.63170536429143,NA
91352,Los Angeles County,CA,NA,34.947958366693356,NA
91356,Los Angeles County,CA,NA,93.3146517213771,NA
91362,Ventura County,CA,NA,96.7173738991193,39.682539682539684
91381,Los Angeles County,CA,NA,70.41633306645316,NA
91401,Los Angeles County,CA,NA,NA,32.53968253968254
91411,Los Angeles County,CA,NA,NA,94.44444444444444
91502,Los Angeles County,CA,NA,NA,96.82539682539682
91605,Los Angeles County,CA,NA,98.31865492393915,NA
91606,Los Angeles County,CA,NA,36.34907926341073,NA
91709,San Bernardino County,CA,NA,16.33306645316253,NA
91724,Los Angeles County,CA,NA,49.55964771817454,NA
91730,San Bernardino County,CA,NA,81.66533226581265,NA
91731,Los Angeles County,CA,NA,44.59567654123299,NA
91733,Los Angeles County,CA,NA,42.75420336269015,NA
91740,Los Angeles County,CA,NA,NA,50.79365079365079
91741,Los Angeles County,CA,NA,55.92473979183347,NA
91761,San Bernardino County,CA,NA,11.048839071257005,NA
91764,San Bernardino County,CA,NA,18.45476381104884,NA
91767,Los Angeles County,CA,NA,21.377101681345074,NA
91768,Los Angeles County,CA,NA,70.77662129703764,NA
91773,Los Angeles County,CA,NA,49.67974379503603,NA
91784,San Bernardino County,CA,NA,93.2746196957566,NA
91902,San Diego County,CA,NA,82.66613290632506,NA
91910,San Diego County,CA,NA,NA,63.49206349206349
91911,San Diego County,CA,NA,10.488390712570055,NA
91932,San Diego County,CA,85.30927835051546,NA,NA
91935,San Diego County,CA,NA,92.03362690152122,NA
91941,San Diego County,CA,NA,60.368294635708565,NA
91945,San Diego County,CA,NA,72.49799839871898,NA
91950,San Diego County,CA,91.49484536082474,NA,NA
92008,San Diego County,CA,NA,66.693354683747,NA
92019,San Diego County,CA,84.79381443298969,96.19695756605284,NA
92020,San Diego County,CA,NA,9.607686148919136,55.952380952380956
92024,San Diego County,CA,NA,89.79183346677343,44.047619047619044
92025,San Diego County,CA,NA,73.3386709367494,NA
92027,San Diego County,CA,NA,NA,92.85714285714286
92029,San Diego County,CA,NA,90.15212169735788,NA
92040,San Diego County,CA,NA,52.64211369095276,NA
92054,San Diego County,CA,NA,23.859087269815856,NA
92056,San Diego County,CA,NA,85.38831064851881,NA
92064,San Diego County,CA,NA,54.12329863891113,NA
92065,San Diego County,CA,NA,82.14571657325861,NA
92071,San Diego County,CA,NA,94.71577261809448,NA
92075,San Diego County,CA,NA,98.55884707766212,NA
92081,San Diego County,CA,NA,98.9191353082466,NA
92083,San Diego County,CA,NA,37.910328262610086,NA
92084,San Diego County,CA,NA,77.7822257806245,NA
92101,San Diego County,CA,NA,78.78302642113691,37.301587301587304
92102,San Diego County,CA,NA,NA,57.53968253968254
92103,San Diego County,CA,NA,51.48118494795837,75.39682539682539
92104,San Diego County,CA,NA,61.44915932746196,NA
92105,San Diego County,CA,NA,26.82145716573259,NA
92106,San Diego County,CA,NA,92.35388310648518,NA
92110,San Diego County,CA,NA,77.50200160128102,NA
92111,San Diego County,CA,NA,57.60608486789431,48.41269841269841
92113,San Diego County,CA,NA,NA,66.66666666666666
92114,San Diego County,CA,NA,15.412329863891113,NA
92115,San Diego County,CA,NA,39.911929543634905,NA
92117,San Diego County,CA,NA,33.38670936749399,NA
92118,San Diego County,CA,NA,NA,63.095238095238095
92120,San Diego County,CA,NA,94.63570856685348,NA
92122,San Diego County,CA,90.20618556701031,NA,NA
92123,San Diego County,CA,NA,94.55564451561249,NA
92127,San Diego County,CA,65.97938144329896,NA,NA
92128,San Diego County,CA,NA,95.35628502802241,NA
92129,San Diego County,CA,NA,97.95836669335468,NA
92130,San Diego County,CA,NA,63.93114491593275,NA
92139,San Diego County,CA,NA,69.17534027221778,NA
92201,Riverside County,CA,NA,33.506805444355486,NA
92203,Riverside County,CA,NA,23.618895116092876,NA
92211,Riverside County,CA,NA,44.3955164131305,NA
92220,Riverside County,CA,71.3917525773196,34.747798238590875,60.71428571428571
92223,Riverside County,CA,NA,94.23538831064852,NA
92227,Imperial County,CA,NA,48.158526821457166,NA
92234,Riverside County,CA,NA,24.379503602882306,15.476190476190476
92240,Riverside County,CA,NA,NA,35.714285714285715
92243,Imperial County,CA,NA,11.32906325060048,NA
92251,Imperial County,CA,NA,96.6373098478783,NA
92256,San Bernardino County,CA,NA,NA,99.20634920634922
92260,Riverside County,CA,NA,32.1857485988791,NA
92262,Riverside County,CA,NA,94.435548438751,NA
92264,Riverside County,CA,NA,52.041633306645316,NA
92284,San Bernardino County,CA,NA,12.209767814251402,NA
92301,San Bernardino County,CA,NA,16.253002401921538,NA
92307,San Bernardino County,CA,NA,79.46357085668535,NA
92311,San Bernardino County,CA,NA,44.35548438751001,NA
92313,San Bernardino County,CA,NA,81.46517213771017,NA
92324,San Bernardino County,CA,NA,30.224179343474777,NA
92335,San Bernardino County,CA,NA,17.57405924739792,13.095238095238097
92336,San Bernardino County,CA,NA,83.42674139311448,NA
92345,San Bernardino County,CA,NA,94.39551641313051,NA
92346,San Bernardino County,CA,NA,36.14891913530825,NA
92359,San Bernardino County,CA,83.24742268041237,NA,NA
92363,San Bernardino County,CA,NA,67.89431545236188,NA
92376,San Bernardino County,CA,49.48453608247423,42.2337870296237,NA
92377,San Bernardino County,CA,NA,55.80464371497198,NA
92382,San Bernardino County,CA,NA,83.62690152121698,NA
92392,San Bernardino County,CA,NA,7.8863090472377895,NA
92395,San Bernardino County,CA,NA,81.18494795836669,NA
92397,San Bernardino County,CA,94.58762886597938,96.07686148919136,NA
92399,San Bernardino County,CA,NA,63.61088871096877,19.047619047619047
92404,San Bernardino County,CA,NA,52.96236989591674,78.17460317460318
92407,San Bernardino County,CA,NA,74.01921537229784,76.5873015873016
92410,San Bernardino County,CA,NA,64.97197758206565,NA
92411,San Bernardino County,CA,NA,51.00080064051241,NA
92503,Riverside County,CA,NA,95.79663730984788,72.61904761904762
92504,Riverside County,CA,44.072164948453604,22.738190552441953,NA
92509,Riverside County,CA,70.10309278350515,NA,NA
92530,Riverside County,CA,NA,43.15452361889512,NA
92543,Riverside County,CA,NA,NA,94.04761904761905
92545,Riverside County,CA,NA,48.59887910328263,NA
92553,Riverside County,CA,NA,36.14891913530825,NA
92562,Riverside County,CA,NA,12.089671737389912,NA
92570,Riverside County,CA,NA,75.86068855084068,NA
92571,Riverside County,CA,51.546391752577314,NA,NA
92583,Riverside County,CA,NA,38.75100080064051,NA
92587,Riverside County,CA,NA,93.91513210568455,NA
92592,Riverside County,CA,NA,13.170536429143315,NA
92595,Riverside County,CA,38.144329896907216,NA,60.317460317460316
92626,Orange County,CA,NA,23.2986389111289,NA
92627,Orange County,CA,NA,63.3306645316253,62.698412698412696
92629,Orange County,CA,NA,71.0968775020016,NA
92630,Orange County,CA,NA,96.79743795036029,NA
92646,Orange County,CA,NA,92.59407526020816,NA
92647,Orange County,CA,NA,98.27862289831866,NA
92648,Orange County,CA,NA,97.03763010408326,NA
92656,Orange County,CA,NA,85.86869495596477,NA
92660,Orange County,CA,NA,NA,93.25396825396825
92663,Orange County,CA,NA,55.44435548438751,NA
92672,Orange County,CA,NA,42.75420336269015,NA
92673,Orange County,CA,NA,42.55404323458767,NA
92675,Orange County,CA,NA,75.5004003202562,NA
92677,Orange County,CA,NA,78.9431545236189,NA
92679,Orange County,CA,NA,97.83827061649319,NA
92691,Orange County,CA,NA,29.543634907926343,NA
92692,Orange County,CA,NA,20.936749399519616,NA
92703,Orange County,CA,NA,96.35708566853482,NA
92704,Orange County,CA,NA,15.852682145716573,NA
92705,Orange County,CA,NA,NA,49.60317460317461
92707,Orange County,CA,NA,48.99919935948759,NA
92708,Orange County,CA,NA,90.19215372297839,NA
92782,Orange County,CA,NA,82.94635708566854,NA
92802,Orange County,CA,NA,31.865492393915133,NA
92804,Orange County,CA,40.20618556701031,5.604483586869495,NA
92805,Orange County,CA,49.74226804123711,12.129703763010408,NA
92806,Orange County,CA,NA,33.066453162530024,59.92063492063492
92808,Orange County,CA,NA,73.97918334667735,NA
92821,Orange County,CA,46.90721649484536,89.8718975180144,NA
92832,Orange County,CA,52.0618556701031,32.746196957566056,NA
92833,Orange County,CA,NA,28.34267413931145,NA
92840,Orange County,CA,NA,55.12409927942355,NA
92843,Orange County,CA,NA,90.75260208166533,NA
92867,Orange County,CA,NA,35.82866293034427,NA
92880,Riverside County,CA,NA,9.607686148919136,NA
92882,Riverside County,CA,50.77319587628865,13.811048839071258,NA
92883,Riverside County,CA,NA,42.273819055244196,NA
93003,Ventura County,CA,NA,40.352281825460366,NA
93004,Ventura County,CA,NA,32.62610088070456,NA
93010,Ventura County,CA,NA,92.67413931144915,NA
93022,Ventura County,CA,NA,85.10808646917533,NA
93033,Ventura County,CA,13.65979381443299,78.66293034427542,NA
93036,Ventura County,CA,NA,14.611689351481186,NA
93060,Ventura County,CA,NA,18.45476381104884,NA
93065,Ventura County,CA,NA,92.87429943955165,NA
93103,Santa Barbara County,CA,NA,62.53002401921537,NA
93110,Santa Barbara County,CA,NA,84.10728582866292,NA
93212,Kings County,CA,NA,NA,83.33333333333334
93230,Kings County,CA,NA,61.048839071257014,NA
93247,Tulare County,CA,NA,NA,84.52380952380952
93274,Tulare County,CA,NA,25.540432345876702,NA
93277,Tulare County,CA,NA,11.449159327461969,NA
93286,Tulare County,CA,NA,75.38030424339472,NA
93291,Tulare County,CA,NA,46.75740592473979,NA
93292,Tulare County,CA,NA,22.297838270616495,NA
93305,Kern County,CA,NA,48.75900720576461,NA
93307,Kern County,CA,NA,38.27061649319455,NA
93308,Kern County,CA,10.56701030927835,73.01841473178543,NA
93309,Kern County,CA,NA,85.18815052041633,NA
93311,Kern County,CA,54.38144329896907,NA,NA
93314,Kern County,CA,NA,93.3947157726181,NA
93405,San Luis Obispo County,CA,NA,98.51881505204163,NA
93422,San Luis Obispo County,CA,NA,89.39151321056845,NA
93433,San Luis Obispo County,CA,NA,73.61889511609287,NA
93436,Santa Barbara County,CA,NA,25.740592473979184,NA
93449,San Luis Obispo County,CA,NA,83.42674139311448,NA
93455,Santa Barbara County,CA,NA,40.11208967173739,NA
93458,Santa Barbara County,CA,NA,39.19135308246597,NA
93505,Kern County,CA,NA,80.78462770216173,NA
93534,Los Angeles County,CA,NA,18.33466773418735,NA
93535,Los Angeles County,CA,NA,16.97357886309047,NA
93536,Los Angeles County,CA,NA,70.69655724579663,79.36507936507937
93550,Los Angeles County,CA,NA,66.57325860688552,NA
93552,Los Angeles County,CA,NA,59.96797437950361,NA
93555,Kern County,CA,NA,34.4275420336269,18.650793650793652
93591,Los Angeles County,CA,NA,88.27061649319455,NA
93610,Madera County,CA,NA,69.33546837469976,NA
93612,Fresno County,CA,NA,63.65092073658927,NA
93635,Merced County,CA,NA,NA,46.03174603174603
93637,Madera County,CA,NA,15.292233787029625,NA
93638,Madera County,CA,NA,54.3634907926341,NA
93657,Fresno County,CA,23.969072164948454,NA,NA
93660,Fresno County,CA,NA,95.99679743795036,NA
93701,Fresno County,CA,NA,50.92073658927142,NA
93702,Fresno County,CA,81.18556701030928,NA,66.26984126984127
93703,Fresno County,CA,NA,76.7013610888711,NA
93706,Fresno County,CA,NA,74.09927942353883,38.095238095238095
93711,Fresno County,CA,NA,76.5412329863891,NA
93721,Fresno County,CA,NA,86.22898318654923,NA
93726,Fresno County,CA,NA,9.32746196957566,86.5079365079365
93901,Monterey County,CA,67.26804123711341,30.944755804643716,NA
93905,Monterey County,CA,NA,45.15612489991994,NA
93908,Monterey County,CA,NA,89.67173738991193,NA
93927,Monterey County,CA,NA,50.76060848678943,NA
93933,Monterey County,CA,NA,NA,44.84126984126984
93950,Monterey County,CA,NA,81.70536429143314,NA
94040,Santa Clara County,CA,NA,NA,88.4920634920635
94062,San Mateo County,CA,NA,98.63891112890312,NA
94070,San Mateo County,CA,NA,90.95276220976781,NA
94080,San Mateo County,CA,NA,92.3138510808647,NA
94085,Santa Clara County,CA,NA,63.85108086469175,NA
94087,Santa Clara County,CA,NA,55.12409927942355,NA
94102,San Francisco County,CA,71.64948453608247,3.2025620496397114,67.46031746031747
94103,San Francisco County,CA,NA,79.26341072858285,68.25396825396825
94107,San Francisco County,CA,NA,88.27061649319455,NA
94108,San Francisco County,CA,96.3917525773196,NA,NA
94112,San Francisco County,CA,NA,10.848678943154523,NA
94114,San Francisco County,CA,NA,65.37229783827063,NA
94117,San Francisco County,CA,NA,17.854283426741393,NA
94122,San Francisco County,CA,NA,26.180944755804642,NA
94131,San Francisco County,CA,NA,39.35148118494796,NA
94132,San Francisco County,CA,NA,83.14651721377102,NA
94134,San Francisco County,CA,NA,NA,26.58730158730159
94303,San Mateo County,CA,NA,52.522017614091276,NA
94501,Alameda County,CA,NA,NA,43.65079365079365
94505,Contra Costa County,CA,NA,86.78943154523618,NA
94506,Contra Costa County,CA,NA,94.91593274619696,NA
94507,Contra Costa County,CA,NA,98.39871897518015,NA
94509,Contra Costa County,CA,29.12371134020619,47.43795036028823,NA
94510,Solano County,CA,NA,77.34187349879905,NA
94513,Contra Costa County,CA,NA,65.73258606885508,57.936507936507944
94520,Contra Costa County,CA,46.134020618556704,NA,NA
94523,Contra Costa County,CA,38.91752577319588,NA,55.55555555555556
94530,Contra Costa County,CA,NA,75.06004803843075,NA
94531,Contra Costa County,CA,NA,42.31385108086469,NA
94533,Solano County,CA,80.15463917525774,10.248198558847077,22.61904761904762
94541,Alameda County,CA,NA,NA,16.666666666666664
94544,Alameda County,CA,NA,27.66212970376301,NA
94547,Contra Costa County,CA,NA,87.14971977582066,NA
94550,Alameda County,CA,61.34020618556701,NA,NA
94553,Contra Costa County,CA,25.51546391752577,22.738190552441953,NA
94559,Napa County,CA,NA,62.770216172938355,NA
94561,Contra Costa County,CA,NA,78.14251401120896,NA
94565,Contra Costa County,CA,44.329896907216494,57.806244995996806,NA
94566,Alameda County,CA,NA,88.9911929543635,NA
94583,Contra Costa County,CA,NA,67.29383506805445,NA
94588,Alameda County,CA,NA,49.119295436349084,NA
94590,Solano County,CA,60.824742268041234,NA,NA
94591,Solano County,CA,NA,88.55084067253803,NA
94597,Contra Costa County,CA,NA,88.63090472377903,NA
94598,Contra Costa County,CA,NA,56.04483586869495,NA
94606,Alameda County,CA,NA,32.065652522017615,NA
94607,Alameda County,CA,NA,68.97518014411528,NA
94608,Alameda County,CA,NA,31.265012009607684,NA
94610,Alameda County,CA,NA,64.01120896717374,NA
94611,Alameda County,CA,NA,38.07045636509208,NA
94619,Alameda County,CA,NA,NA,57.936507936507944
94621,Alameda County,CA,NA,40.19215372297838,NA
94801,Contra Costa County,CA,NA,82.82626100880705,NA
94804,Contra Costa County,CA,NA,NA,40.87301587301587
94903,Marin County,CA,NA,51.04083266613291,NA
94928,Sonoma County,CA,NA,37.389911929543636,NA
94952,Sonoma County,CA,98.4536082474227,NA,NA
95020,Santa Clara County,CA,NA,93.03442754203363,NA
95035,Santa Clara County,CA,NA,27.502001601281023,NA
95051,Santa Clara County,CA,NA,24.699759807846277,NA
95060,Santa Cruz County,CA,NA,70.29623698959168,NA
95065,Santa Cruz County,CA,NA,87.42994395516413,NA
95066,Santa Cruz County,CA,NA,71.33706965572458,NA
95111,Santa Clara County,CA,NA,19.815852682145714,NA
95112,Santa Clara County,CA,NA,NA,38.492063492063494
95116,Santa Clara County,CA,NA,NA,47.61904761904761
95117,Santa Clara County,CA,NA,NA,86.90476190476191
95123,Santa Clara County,CA,NA,19.53562850280224,NA
95124,Santa Clara County,CA,NA,60.20816653322658,NA
95125,Santa Clara County,CA,NA,52.602081665332264,NA
95128,Santa Clara County,CA,NA,77.14171337069655,NA
95136,Santa Clara County,CA,NA,78.30264211369095,NA
95202,San Joaquin County,CA,NA,81.98558847077662,NA
95205,San Joaquin County,CA,NA,28.102481985588472,NA
95210,San Joaquin County,CA,NA,46.31705364291433,NA
95215,San Joaquin County,CA,NA,83.74699759807847,NA
95219,San Joaquin County,CA,85.82474226804123,46.036829463570854,NA
95220,San Joaquin County,CA,NA,78.42273819055244,NA
95222,Calaveras County,CA,NA,82.06565252201761,NA
95240,San Joaquin County,CA,NA,40.592473979183346,NA
95307,Stanislaus County,CA,NA,15.492393915132105,NA
95320,San Joaquin County,CA,NA,48.59887910328263,NA
95327,Tuolumne County,CA,NA,NA,56.74603174603175
95330,San Joaquin County,CA,NA,57.245796637309844,NA
95334,Merced County,CA,NA,62.85028022417934,NA
95337,San Joaquin County,CA,NA,21.136909527622098,NA
95340,Merced County,CA,NA,58.52682145716573,NA
95341,Merced County,CA,NA,NA,74.20634920634922
95350,Stanislaus County,CA,18.814432989690722,NA,NA
95354,Stanislaus County,CA,15.979381443298967,NA,NA
95355,Stanislaus County,CA,NA,61.32906325060048,NA
95356,Stanislaus County,CA,NA,61.48919135308246,NA
95358,Stanislaus County,CA,NA,82.50600480384307,NA
95377,San Joaquin County,CA,NA,NA,69.04761904761905
95380,Stanislaus County,CA,NA,36.709367493995195,NA
95382,Stanislaus County,CA,NA,11.168935148118495,NA
95401,Sonoma County,CA,NA,70.97678142514012,NA
95404,Sonoma County,CA,NA,68.21457165732586,NA
95405,Sonoma County,CA,28.60824742268041,NA,NA
95422,Lake County,CA,NA,61.289031224979986,NA
95437,Mendocino County,CA,NA,NA,39.285714285714285
95451,Lake County,CA,NA,82.46597277822258,NA
95453,Lake County,CA,NA,48.03843074459568,NA
95485,Lake County,CA,NA,90.79263410728583,NA
95501,Humboldt County,CA,NA,56.16493194555644,NA
95503,Humboldt County,CA,NA,65.77261809447558,NA
95519,Humboldt County,CA,79.63917525773195,NA,NA
95521,Humboldt County,CA,NA,60.80864691753403,NA
95540,Humboldt County,CA,NA,34.66773418734988,NA
95546,Humboldt County,CA,NA,87.7902321857486,97.22222222222221
95602,Placer County,CA,NA,68.8951160928743,NA
95603,Placer County,CA,86.08247422680412,66.09287429943956,NA
95605,Yolo County,CA,NA,NA,91.66666666666666
95608,Sacramento County,CA,NA,98.8791032826261,NA
95620,Solano County,CA,NA,89.9919935948759,NA
95624,Sacramento County,CA,NA,52.361889511609284,NA
95628,Sacramento County,CA,NA,NA,71.03174603174604
95631,Placer County,CA,NA,90.55244195356285,NA
95642,Amador County,CA,NA,NA,89.28571428571429
95648,Placer County,CA,NA,61.60928742994396,NA
95650,Placer County,CA,NA,91.83346677341873,NA
95660,Sacramento County,CA,NA,68.81505204163331,NA
95661,Placer County,CA,NA,99.39951961569255,NA
95665,Amador County,CA,99.74226804123711,NA,NA
95667,El Dorado County,CA,NA,40.392313851080864,NA
95670,Sacramento County,CA,NA,57.886309047237795,NA
95673,Sacramento County,CA,NA,79.82385908726981,65.47619047619048
95678,Placer County,CA,59.79381443298969,NA,NA
95687,Solano County,CA,NA,19.855884707766215,NA
95757,Sacramento County,CA,NA,91.23298638911129,NA
95762,El Dorado County,CA,NA,28.502802241793436,NA
95815,Sacramento County,CA,NA,41.19295436349079,61.111111111111114
95816,Sacramento County,CA,84.27835051546391,30.784627702161732,NA
95818,Sacramento County,CA,NA,51.080864691753405,NA
95820,Sacramento County,CA,NA,28.943154523618897,NA
95822,Sacramento County,CA,NA,NA,73.80952380952381
95823,Sacramento County,CA,NA,88.71096877502002,15.873015873015872
95825,Sacramento County,CA,NA,27.942353883106485,NA
95826,Sacramento County,CA,NA,31.34507606084868,NA
95827,Sacramento County,CA,NA,43.39471577261809,NA
95834,Sacramento County,CA,NA,46.6373098478783,NA
95842,Sacramento County,CA,NA,77.02161729383506,NA
95864,Sacramento County,CA,NA,90.95276220976781,NA
95926,Butte County,CA,47.16494845360825,16.653322658126502,26.190476190476193
95928,Butte County,CA,NA,16.613290632506008,NA
95945,Nevada County,CA,NA,33.70696557245797,NA
95949,Nevada County,CA,NA,83.2666132906325,NA
95954,Butte County,CA,NA,47.958366693354684,NA
95965,Butte County,CA,NA,54.04323458767014,NA
95966,Butte County,CA,NA,NA,6.746031746031746
95973,Butte County,CA,NA,10.088070456365092,57.936507936507944
95991,Sutter County,CA,NA,13.450760608486789,NA
95993,Sutter County,CA,NA,64.81184947958367,NA
96001,Shasta County,CA,40.97938144329897,57.04563650920736,NA
96003,Shasta County,CA,NA,49.879903923138514,NA
96007,Shasta County,CA,NA,42.87429943955164,NA
96064,Siskiyou County,CA,NA,78.50280224179343,NA
96080,Tehama County,CA,NA,23.738991192954366,NA
80004,Jefferson County,CO,NA,81.50520416333067,NA
80010,Arapahoe County,CO,NA,7.846277021617294,NA
80012,Arapahoe County,CO,NA,4.4435548438751,NA
80014,Arapahoe County,CO,NA,NA,25.396825396825395
80016,Arapahoe County,CO,NA,10.048038430744596,NA
80112,Arapahoe County,CO,NA,57.00560448358687,NA
80113,Arapahoe County,CO,NA,60.68855084067254,NA
80120,Arapahoe County,CO,NA,63.250600480384314,NA
80123,Jefferson County,CO,NA,26.34107285828663,NA
80126,Douglas County,CO,NA,29.503602882305845,NA
80128,Jefferson County,CO,NA,35.508406725380304,NA
80138,Douglas County,CO,29.381443298969074,NA,NA
80202,Denver County,CO,NA,29.983987189751804,NA
80204,Denver County,CO,NA,9.407526020816654,NA
80205,Denver County,CO,42.01030927835052,22.57806244995997,NA
80206,Denver County,CO,NA,NA,61.904761904761905
80210,Denver County,CO,NA,NA,51.19047619047619
80211,Denver County,CO,NA,18.694955964771818,NA
80214,Jefferson County,CO,NA,61.88951160928743,NA
80218,Denver County,CO,NA,94.4755804643715,NA
80219,Denver County,CO,NA,1.6413130504403524,21.03174603174603
80222,Denver County,CO,NA,NA,76.19047619047619
80226,Jefferson County,CO,NA,53.04243394715773,NA
80227,Jefferson County,CO,NA,34.18734987990392,NA
80229,Adams County,CO,NA,5.764611689351481,NA
80230,Denver County,CO,NA,73.73899119295436,NA
80231,Denver County,CO,NA,19.935948759007204,NA
80233,Adams County,CO,12.886597938144329,NA,NA
80239,Denver County,CO,NA,10.88871096877502,NA
80247,Arapahoe County,CO,NA,47.07766212970376,NA
80302,Boulder County,CO,NA,88.43074459567653,NA
80303,Boulder County,CO,NA,56.52522017614091,NA
80401,Jefferson County,CO,NA,18.414731785428344,NA
80421,Park County,CO,NA,81.70536429143314,NA
80433,Jefferson County,CO,NA,80.94475580464372,NA
80435,Summit County,CO,NA,88.47077662129705,NA
80501,Boulder County,CO,26.03092783505155,8.686949559647719,NA
80503,Boulder County,CO,NA,41.51321056845476,NA
80504,Boulder County,CO,NA,40.43234587670136,NA
80517,Larimer County,CO,NA,72.93835068054445,NA
80524,Larimer County,CO,NA,38.95116092874299,NA
80525,Larimer County,CO,NA,25.380304243394715,NA
80534,Weld County,CO,NA,44.955964771817456,NA
80538,Larimer County,CO,NA,91.95356285028022,NA
80550,Weld County,CO,NA,89.91192954363491,NA
80601,Adams County,CO,NA,56.965572457966374,NA
80602,Adams County,CO,NA,25.820656525220176,NA
80631,Weld County,CO,NA,3.482786228983187,23.809523809523807
80634,Weld County,CO,NA,93.35468374699761,NA
80651,Weld County,CO,NA,93.11449159327462,NA
80751,Logan County,CO,NA,85.74859887910328,NA
80807,Kit Carson County,CO,NA,84.30744595676542,NA
80817,El Paso County,CO,NA,30.624499599679744,NA
80903,El Paso County,CO,61.855670103092784,18.975180144115292,NA
80904,El Paso County,CO,NA,98.15852682145717,NA
80905,El Paso County,CO,NA,42.073658927141715,NA
80906,El Paso County,CO,NA,NA,70.23809523809523
80909,El Paso County,CO,NA,11.088871096877503,NA
80915,El Paso County,CO,NA,41.1128903122498,NA
80916,El Paso County,CO,NA,18.294635708566855,NA
80918,El Paso County,CO,NA,51.44115292233787,NA
80919,El Paso County,CO,NA,91.15292233787031,NA
80922,El Paso County,CO,NA,32.66613290632506,NA
81001,Pueblo County,CO,NA,9.127301841473178,NA
81003,Pueblo County,CO,NA,43.354683746997594,NA
81004,Pueblo County,CO,31.185567010309278,11.609287429943956,NA
81006,Pueblo County,CO,NA,47.87830264211369,NA
81052,Prowers County,CO,NA,61.52922337870296,NA
81089,Huerfano County,CO,NA,70.33626901521217,NA
81137,San Juan County,CO,73.19587628865979,NA,NA
81212,Fremont County,CO,23.45360824742268,NA,NA
81401,Montrose County,CO,NA,52.76220976781425,NA
81416,Delta County,CO,NA,48.99919935948759,NA
81501,Mesa County,CO,NA,71.2570056044836,NA
81507,Mesa County,CO,NA,83.54683746997597,NA
81520,Mesa County,CO,NA,NA,75.79365079365078
81623,Garfield County,CO,NA,83.54683746997597,NA
81625,Moffat County,CO,NA,68.53482786228983,NA
06001,Hartford County,CT,NA,55.964771817453965,NA
06029,Tolland County,CT,NA,33.94715772618094,NA
06078,Hartford County,CT,NA,90.91273018414732,NA
06105,Hartford County,CT,NA,9.44755804643715,NA
06107,Hartford County,CT,NA,54.04323458767014,NA
06226,Windham County,CT,NA,6.725380304243394,NA
06401,New Haven County,CT,NA,14.651721377101682,NA
06443,New Haven County,CT,NA,44.07526020816653,NA
06460,New Haven County,CT,NA,13.610888710968775,NA
06770,New Haven County,CT,NA,NA,23.015873015873016
06776,Litchfield County,CT,NA,62.16973578863091,NA
06790,Litchfield County,CT,NA,2.00160128102482,NA
06812,Fairfield County,CT,NA,69.85588470776621,NA
06824,Fairfield County,CT,NA,45.516413130504404,NA
06890,Fairfield County,CT,NA,94.95596477181746,NA
19711,New Castle County,DE,NA,14.731785428342675,NA
19934,Kent County,DE,93.29896907216495,NA,NA
19940,Sussex County,DE,NA,67.97437950360288,NA
32024,Columbia County,FL,NA,38.470776621297034,NA
32043,Clay County,FL,NA,50.600480384307446,NA
32058,Bradford County,FL,NA,88.951160928743,NA
32084,St. Johns County,FL,NA,14.051240992794236,NA
32168,Volusia County,FL,65.20618556701031,NA,NA
32177,Putnam County,FL,NA,71.73738991192954,NA
32209,Duval County,FL,NA,21.01681345076061,NA
32211,Duval County,FL,NA,9.047237790232186,NA
32224,Duval County,FL,NA,34.98799039231385,NA
32233,Duval County,FL,NA,20.89671737389912,NA
32244,Duval County,FL,NA,1.921537229783827,NA
32256,Duval County,FL,NA,15.772618094475579,NA
32258,Duval County,FL,NA,58.28662930344275,NA
32304,Leon County,FL,58.24742268041238,70.09607686148918,NA
32305,Leon County,FL,80.9278350515464,NA,NA
32344,Jefferson County,FL,NA,98.47878302642114,NA
32404,Bay County,FL,82.73195876288659,10.968775020016013,NA
32413,Bay County,FL,NA,50.120096076861486,NA
32439,Walton County,FL,NA,70.49639711769416,NA
32444,Bay County,FL,NA,44.79583666933547,NA
32448,Jackson County,FL,NA,34.4675740592474,NA
32501,Escambia County,FL,NA,80.90472377902321,NA
32503,Escambia County,FL,NA,8.8871096877502,NA
32504,Escambia County,FL,NA,98.8390712570056,29.365079365079367
32505,Escambia County,FL,NA,7.686148919135308,NA
32506,Escambia County,FL,NA,24.459567654123298,NA
32507,Escambia County,FL,2.0618556701030926,NA,NA
32514,Escambia County,FL,NA,10.648518815052041,NA
32526,Escambia County,FL,NA,5.604483586869495,NA
32533,Escambia County,FL,36.340206185567006,14.051240992794236,NA
32536,Okaloosa County,FL,55.670103092783506,NA,NA
32539,Okaloosa County,FL,NA,21.33706965572458,NA
32563,Santa Rosa County,FL,NA,96.99759807846277,NA
32565,Santa Rosa County,FL,NA,92.47397918334667,NA
32601,Alachua County,FL,NA,37.10968775020016,NA
32609,Alachua County,FL,NA,8.526821457165733,NA
32618,Alachua County,FL,NA,53.763010408326664,NA
32708,Seminole County,FL,NA,51.20096076861489,NA
32757,Lake County,FL,NA,33.3466773418735,NA
32779,Seminole County,FL,NA,97.91833466773419,NA
32789,Orange County,FL,NA,99.23939151321058,NA
32796,Brevard County,FL,NA,29.90392313851081,28.57142857142857
32804,Orange County,FL,NA,90.0320256204964,NA
32807,Orange County,FL,NA,25.340272217774217,NA
32940,Brevard County,FL,NA,43.034427542033626,NA
32953,Brevard County,FL,NA,35.10808646917534,NA
32960,Indian River County,FL,NA,26.78142514011209,NA
33013,Miami-Dade County,FL,NA,68.77502001601282,NA
33060,Broward County,FL,32.7319587628866,44.91593274619696,NA
33062,Broward County,FL,NA,46.036829463570854,NA
33065,Broward County,FL,20.36082474226804,NA,NA
33073,Broward County,FL,NA,91.11289031224979,NA
33139,Miami-Dade County,FL,NA,35.82866293034427,NA
33156,Miami-Dade County,FL,NA,75.5804643714972,NA
33179,Miami-Dade County,FL,NA,90.83266613290633,NA
33304,Broward County,FL,NA,54.32345876701361,NA
33401,Palm Beach County,FL,NA,86.7493995196157,NA
33403,Palm Beach County,FL,NA,98.99919935948759,NA
33410,Palm Beach County,FL,NA,28.702962369895918,NA
33414,Palm Beach County,FL,NA,95.91673338670937,NA
33417,Palm Beach County,FL,NA,77.7021617293835,NA
33432,Palm Beach County,FL,NA,99.11929543634908,NA
33435,Palm Beach County,FL,NA,83.66693354683747,NA
33436,Palm Beach County,FL,NA,32.90632506004803,NA
33444,Palm Beach County,FL,NA,87.02962369895917,NA
33460,Palm Beach County,FL,NA,97.99839871897518,NA
33484,Palm Beach County,FL,NA,76.58126501200961,NA
33487,Palm Beach County,FL,NA,97.7181745396317,NA
33544,Pasco County,FL,NA,57.766212970376294,NA
33603,Hillsborough County,FL,NA,85.10808646917533,NA
33604,Hillsborough County,FL,NA,10.688550840672537,NA
33607,Hillsborough County,FL,39.43298969072165,29.22337870296237,NA
33610,Hillsborough County,FL,NA,NA,69.44444444444444
33617,Hillsborough County,FL,9.536082474226804,NA,NA
33618,Hillsborough County,FL,NA,91.71337069655725,NA
33629,Hillsborough County,FL,NA,99.35948759007206,NA
33706,Pinellas County,FL,NA,NA,65.07936507936508
33707,Pinellas County,FL,NA,61.60928742994396,NA
33710,Pinellas County,FL,NA,66.49319455564452,NA
33760,Pinellas County,FL,NA,NA,72.22222222222221
33763,Pinellas County,FL,NA,79.34347477982386,NA
33765,Pinellas County,FL,NA,95.11609287429944,NA
33772,Pinellas County,FL,NA,54.60368294635709,NA
33777,Pinellas County,FL,NA,54.96397117694155,NA
33801,Polk County,FL,NA,32.826261008807045,NA
33803,Polk County,FL,NA,79.42353883106486,NA
33805,Polk County,FL,NA,20.776621297037632,33.730158730158735
33813,Polk County,FL,NA,61.569255404323464,NA
33815,Polk County,FL,NA,98.03843074459567,NA
33830,Polk County,FL,NA,18.014411529223377,NA
33872,Highlands County,FL,NA,44.63570856685348,NA
33880,Polk County,FL,30.15463917525773,10.368294635708567,NA
33903,Lee County,FL,58.50515463917526,NA,NA
33916,Lee County,FL,NA,19.89591673338671,NA
33967,Lee County,FL,NA,34.747798238590875,NA
33990,Lee County,FL,NA,44.75580464371497,NA
34103,Collier County,FL,NA,85.06805444355484,NA
34109,Collier County,FL,NA,51.72137710168134,NA
34112,Collier County,FL,NA,76.82145716573258,NA
34117,Collier County,FL,NA,41.51321056845476,NA
34205,Manatee County,FL,NA,42.35388310648519,NA
34219,Manatee County,FL,NA,32.78622898318655,NA
34224,Charlotte County,FL,NA,69.61569255404324,NA
34234,Sarasota County,FL,NA,NA,41.269841269841265
34293,Sarasota County,FL,56.44329896907217,NA,NA
34428,Citrus County,FL,NA,62.89031224979984,NA
34442,Citrus County,FL,NA,96.11689351481185,NA
34446,Citrus County,FL,NA,58.166533226581265,NA
34452,Citrus County,FL,NA,63.730984787830266,NA
34471,Marion County,FL,NA,30.064051240992796,NA
34472,Marion County,FL,83.50515463917526,19.295436349079264,NA
34473,Marion County,FL,NA,53.12249799839872,NA
34474,Marion County,FL,NA,63.250600480384314,NA
34479,Marion County,FL,NA,40.672538030424334,NA
34481,Marion County,FL,NA,49.35948759007206,NA
34610,Pasco County,FL,60.567010309278345,NA,NA
34652,Pasco County,FL,NA,22.057646116893515,NA
34667,Pasco County,FL,NA,50.28022417934348,NA
34669,Pasco County,FL,87.88659793814433,NA,NA
34690,Pasco County,FL,NA,47.7582065652522,NA
34691,Pasco County,FL,38.659793814432994,NA,NA
34698,Pinellas County,FL,NA,NA,20.238095238095237
34744,Osceola County,FL,NA,12.489991993594876,NA
34748,Lake County,FL,NA,91.47317854283426,NA
34953,St. Lucie County,FL,19.587628865979383,NA,NA
30012,Rockdale County,GA,NA,31.42514011208967,NA
30013,Rockdale County,GA,NA,25.580464371497197,NA
30032,DeKalb County,GA,NA,4.88390712570056,NA
30038,DeKalb County,GA,NA,23.698959167333868,NA
30040,Forsyth County,GA,NA,12.169735788630904,NA
30058,DeKalb County,GA,NA,8.76701361088871,NA
30060,Cobb County,GA,NA,20.296236989591673,NA
30064,Cobb County,GA,NA,88.91112890312249,NA
30083,DeKalb County,GA,10.309278350515463,NA,NA
30101,Cobb County,GA,NA,94.27542033626901,NA
30110,Haralson County,GA,NA,64.21136909527621,NA
30114,Cherokee County,GA,NA,17.53402722177742,NA
30115,Cherokee County,GA,NA,20.456365092073657,NA
30121,Bartow County,GA,NA,57.806244995996806,NA
30125,Polk County,GA,NA,44.99599679743795,NA
30132,Paulding County,GA,NA,56.80544435548439,NA
30153,Polk County,GA,NA,22.53803042433947,NA
30157,Paulding County,GA,44.58762886597938,NA,NA
30165,Floyd County,GA,NA,11.569255404323458,NA
30179,Carroll County,GA,NA,NA,91.26984126984127
30180,Carroll County,GA,NA,82.98638911128903,NA
30188,Cherokee County,GA,NA,9.807846277021618,NA
30217,Heard County,GA,NA,43.67493995196157,NA
30224,Spalding County,GA,NA,30.864691753402724,NA
30240,Troup County,GA,NA,12.00960768614892,NA
30253,Henry County,GA,NA,35.66853482786229,NA
30263,Coweta County,GA,NA,19.255404323458766,NA
30273,Clayton County,GA,NA,37.02962369895917,NA
30286,Upson County,GA,NA,NA,78.96825396825396
30308,Fulton County,GA,NA,72.49799839871898,NA
30314,Fulton County,GA,NA,24.259407526020816,NA
30427,Tattnall County,GA,NA,85.34827862289832,NA
30523,Habersham County,GA,NA,75.98078462770216,NA
30529,Jackson County,GA,NA,75.4603682946357,NA
30531,Habersham County,GA,NA,67.01361088871097,NA
30533,Lumpkin County,GA,NA,41.27301841473179,NA
30546,Towns County,GA,NA,65.13210568454764,NA
30548,Jackson County,GA,NA,84.66773418734988,NA
30582,Towns County,GA,NA,76.34107285828662,NA
30601,Clarke County,GA,NA,44.15532425940752,NA
30628,Madison County,GA,93.81443298969072,NA,NA
30655,Walton County,GA,NA,43.83506805444355,NA
30721,Whitfield County,GA,NA,10.768614891913531,NA
30736,Catoosa County,GA,NA,4.483586869495596,NA
30740,Whitfield County,GA,NA,62.08967173738991,NA
30753,Chattooga County,GA,NA,62.32986389111289,NA
30904,Richmond County,GA,NA,16.813450760608486,NA
30906,Richmond County,GA,NA,3.042433947157726,NA
30907,Columbia County,GA,81.70103092783505,11.929543634907928,NA
31008,Peach County,GA,NA,23.17854283426741,NA
31015,Crisp County,GA,NA,NA,32.142857142857146
31052,Bibb County,GA,79.12371134020619,NA,NA
31061,Baldwin County,GA,NA,13.931144915932748,NA
31064,Jasper County,GA,NA,56.36509207365893,NA
31091,Dooly County,GA,NA,95.3963170536429,NA
31501,Ware County,GA,NA,42.073658927141715,NA
31520,Glynn County,GA,64.69072164948454,NA,NA
31730,Mitchell County,GA,NA,56.36509207365893,NA
31750,Ben Hill County,GA,NA,NA,30.158730158730158
31768,Colquitt County,GA,53.865979381443296,40.832666132906326,NA
31792,Thomas County,GA,NA,42.55404323458767,NA
31793,Tift County,GA,NA,42.39391513210569,NA
31822,Harris County,GA,NA,96.23698959167334,NA
31903,Muscogee County,GA,NA,41.67333867093675,NA
31909,Muscogee County,GA,NA,20.736589271417134,NA
39842,Terrell County,GA,NA,40.95276220976781,NA
96706,Honolulu County,HI,NA,4.363490792634107,NA
96707,Honolulu County,HI,NA,17.69415532425941,NA
96720,Hawaii County,HI,NA,41.71337069655724,NA
96732,Maui County,HI,NA,53.64291433146518,NA
96738,Hawaii County,HI,NA,80.62449959967975,NA
96740,Hawaii County,HI,NA,61.96957566052842,NA
96744,Honolulu County,HI,NA,45.43634907926341,20.238095238095237
96746,Kauai County,HI,NA,88.67093674939952,65.87301587301587
96749,Hawaii County,HI,NA,57.04563650920736,NA
96750,Hawaii County,HI,NA,87.7902321857486,NA
96766,Kauai County,HI,93.04123711340206,45.236188951160926,87.3015873015873
96768,Maui County,HI,NA,90.35228182546037,NA
96782,Honolulu County,HI,NA,44.435548438751,NA
96786,Honolulu County,HI,NA,16.21297037630104,NA
96791,Honolulu County,HI,NA,66.93354683746998,NA
96792,Honolulu County,HI,14.432989690721648,36.74939951961569,NA
96795,Honolulu County,HI,NA,72.05764611689351,NA
96797,Honolulu County,HI,NA,15.65252201761409,NA
96813,Honolulu County,HI,NA,16.493194555644518,NA
96814,Honolulu County,HI,NA,NA,81.34920634920636
96815,Honolulu County,HI,NA,53.322658126501196,NA
96816,Honolulu County,HI,NA,55.88470776621297,NA
96817,Honolulu County,HI,46.649484536082475,72.45796637309849,NA
96818,Honolulu County,HI,NA,56.32506004803843,NA
96819,Honolulu County,HI,35.56701030927835,6.6853482786228975,11.904761904761903
96826,Honolulu County,HI,NA,91.31305044035228,NA
83211,Power County,ID,74.48453608247422,NA,NA
83301,Twin Falls County,ID,NA,50.48038430744596,NA
83330,Gooding County,ID,NA,66.7333867093675,NA
83401,Bonneville County,ID,NA,39.55164131305044,NA
83404,Bonneville County,ID,NA,31.705364291433145,NA
83442,Jefferson County,ID,NA,96.03682946357085,NA
83501,Nez Perce County,ID,8.505154639175258,NA,NA
83544,Clearwater County,ID,NA,60.92874299439551,NA
83651,Canyon County,ID,NA,NA,42.857142857142854
83702,Ada County,ID,NA,14.451561248999202,NA
83704,Ada County,ID,NA,7.205764611689351,NA
83706,Ada County,ID,NA,13.530824659727783,NA
83709,Ada County,ID,38.91752577319588,25.180144115292237,NA
83713,Ada County,ID,31.443298969072163,NA,NA
83714,Ada County,ID,NA,95.71657325860689,NA
83716,Ada County,ID,NA,66.89351481184947,NA
83814,Kootenai County,ID,NA,16.413130504403522,NA
83815,Kootenai County,ID,NA,17.734187349879903,NA
83858,Kootenai County,ID,NA,56.204963971176944,NA
83864,Bonner County,ID,NA,67.8142514011209,NA
60004,Cook County,IL,NA,11.32906325060048,NA
60010,Lake County,IL,NA,60.568454763811054,NA
60014,McHenry County,IL,NA,34.06725380304243,NA
60018,Cook County,IL,NA,38.630904723779025,NA
60098,McHenry County,IL,NA,15.212169735788631,NA
60134,Kane County,IL,NA,24.539631705364293,NA
60174,Kane County,IL,NA,72.1377101681345,NA
60185,DuPage County,IL,NA,59.647718174539634,NA
60202,Cook County,IL,NA,36.06885508406725,NA
60402,Cook County,IL,NA,46.957566052842274,NA
60410,Will County,IL,NA,53.20256204963971,NA
60411,Cook County,IL,NA,5.124099279423539,NA
60416,Grundy County,IL,NA,37.229783827061645,NA
60429,Cook County,IL,NA,45.5964771817454,NA
60431,Will County,IL,NA,21.77742193755004,NA
60433,Will County,IL,NA,37.55004003202562,NA
60435,Will County,IL,NA,18.374699759807847,NA
60445,Cook County,IL,NA,99.59967974379504,NA
60448,Will County,IL,NA,58.246597277822254,NA
60457,Cook County,IL,NA,49.639711769415534,NA
60482,Cook County,IL,NA,NA,74.60317460317461
60490,Will County,IL,NA,73.17854283426742,NA
60510,Kane County,IL,NA,79.90392313851082,NA
60521,DuPage County,IL,NA,88.07045636509207,NA
60565,DuPage County,IL,NA,39.391513210568455,NA
60614,Cook County,IL,NA,9.847878302642114,NA
60615,Cook County,IL,NA,NA,14.285714285714285
60617,Cook County,IL,10.051546391752577,3.00240192153723,NA
60618,Cook County,IL,NA,92.83426741393114,NA
60626,Cook County,IL,NA,8.206565252201761,NA
60640,Cook County,IL,NA,31.024819855884704,NA
60657,Cook County,IL,NA,31.104883907125704,NA
60660,Cook County,IL,NA,12.690152121697357,NA
60940,Kankakee County,IL,NA,99.07926341072859,NA
61032,Stephenson County,IL,NA,17.053642914331466,NA
61342,LaSalle County,IL,NA,66.41313050440353,NA
61443,Henry County,IL,NA,37.7502001601281,NA
61448,Knox County,IL,NA,100,NA
61616,Peoria County,IL,NA,74.29943955164131,NA
61704,McLean County,IL,NA,67.93434747798239,NA
61874,Champaign County,IL,87.37113402061856,NA,NA
61938,Coles County,IL,NA,80.74459567654124,NA
61944,Edgar County,IL,NA,89.75180144115292,NA
62040,Madison County,IL,NA,45.91673338670937,NA
62234,Madison County,IL,NA,93.43474779823859,NA
62301,Adams County,IL,NA,57.686148919135306,NA
62450,Richland County,IL,NA,65.5724579663731,NA
62526,Macon County,IL,NA,35.78863090472378,NA
62801,Marion County,IL,NA,79.50360288230584,NA
62812,Franklin County,IL,NA,55.964771817453965,NA
62896,Franklin County,IL,NA,49.9599679743795,NA
62930,Saline County,IL,NA,78.10248198558847,NA
62951,Williamson County,IL,NA,84.86789431545236,NA
46011,Madison County,IN,NA,54.12329863891113,NA
46012,Madison County,IN,NA,45.476381104883906,NA
46052,Boone County,IN,92.78350515463917,NA,NA
46064,Madison County,IN,NA,66.85348278622898,NA
46107,Marion County,IN,NA,61.128903122498,NA
46112,Hendricks County,IN,NA,76.34107285828662,NA
46123,Hendricks County,IN,NA,26.861489191353083,NA
46135,Putnam County,IN,NA,87.06965572457966,NA
46140,Hancock County,IN,NA,77.10168134507606,NA
46143,Johnson County,IN,19.84536082474227,10.408326661329063,NA
46151,Morgan County,IN,55.670103092783506,NA,NA
46163,Hancock County,IN,NA,65.13210568454764,NA
46168,Hendricks County,IN,NA,86.34907926341073,NA
46173,Rush County,IN,NA,89.0712570056045,NA
46176,Shelby County,IN,NA,72.41793434747798,NA
46202,Marion County,IN,NA,62.40992794235388,NA
46203,Marion County,IN,NA,3.5628502802241795,NA
46204,Marion County,IN,NA,69.81585268214572,NA
46214,Marion County,IN,NA,33.62690152121697,NA
46221,Marion County,IN,NA,NA,71.82539682539682
46225,Marion County,IN,NA,84.4675740592474,NA
46226,Marion County,IN,NA,4.723779023218575,NA
46227,Marion County,IN,59.27835051546392,NA,NA
46235,Marion County,IN,NA,29.583666933546837,NA
46237,Marion County,IN,NA,62.04963971176941,NA
46260,Marion County,IN,NA,25.260208166533225,NA
46350,LaPorte County,IN,NA,31.505204163330664,NA
46368,Porter County,IN,NA,0.8807045636509208,NA
46373,Lake County,IN,NA,14.371497197758206,NA
46383,Porter County,IN,NA,39.67173738991193,NA
46385,Porter County,IN,NA,28.06244995996797,NA
46392,Jasper County,IN,NA,43.594875900720574,NA
46394,Lake County,IN,NA,58.206565252201756,NA
46516,Elkhart County,IN,30.412371134020617,NA,NA
46517,Elkhart County,IN,NA,73.81905524419535,NA
46545,St. Joseph County,IN,NA,26.861489191353083,NA
46580,Kosciusko County,IN,NA,51.561248999199364,NA
46617,St. Joseph County,IN,NA,81.58526821457166,NA
46628,St. Joseph County,IN,87.62886597938144,NA,NA
46706,DeKalb County,IN,NA,71.93755004003202,NA
46755,Noble County,IN,6.958762886597938,NA,NA
46802,Allen County,IN,NA,75.70056044835869,NA
46806,Allen County,IN,19.329896907216497,12.57005604483587,NA
46815,Allen County,IN,NA,15.892714171337069,NA
46901,Howard County,IN,NA,77.38190552441954,NA
46902,Howard County,IN,NA,1.0408326661329064,NA
46936,Howard County,IN,NA,81.34507606084867,NA
46953,Grant County,IN,NA,55.12409927942355,NA
46970,Miami County,IN,NA,75.26020816653323,NA
47024,Franklin County,IN,NA,95.55644515612491,NA
47102,Scott County,IN,NA,66.81345076060849,NA
47129,Clark County,IN,NA,67.65412329863891,NA
47130,Clark County,IN,NA,4.00320256204964,NA
47150,Floyd County,IN,NA,19.33546837469976,NA
47164,Harrison County,IN,NA,85.98879103282626,NA
47170,Scott County,IN,NA,35.708566853482786,NA
47172,Clark County,IN,NA,65.89271417133708,NA
47201,Bartholomew County,IN,NA,83.70696557245797,NA
47203,Bartholomew County,IN,NA,43.55484387510008,NA
47220,Jackson County,IN,NA,70.85668534827863,NA
47240,Decatur County,IN,NA,41.313050440352285,NA
47265,Jennings County,IN,NA,33.026421136909526,NA
47274,Jackson County,IN,NA,13.050440352281825,NA
47302,Delaware County,IN,NA,28.182546036829464,NA
47303,Delaware County,IN,NA,NA,48.80952380952381
47304,Delaware County,IN,NA,84.50760608486789,NA
47362,Henry County,IN,NA,9.287429943955164,NA
47374,Wayne County,IN,NA,21.897518014411528,NA
47396,Delaware County,IN,NA,92.95436349079263,NA
47403,Monroe County,IN,NA,62.61008807045636,NA
47408,Monroe County,IN,NA,80.50440352281825,NA
47421,Lawrence County,IN,NA,76.50120096076861,NA
47432,Orange County,IN,NA,82.1857485988791,NA
47441,Greene County,IN,NA,67.61409127301842,NA
47460,Owen County,IN,NA,52.001601281024826,NA
47501,Daviess County,IN,NA,18.77502001601281,NA
47601,Warrick County,IN,NA,93.83506805444355,NA
47620,Posey County,IN,NA,46.6373098478783,NA
47711,Vanderburgh County,IN,NA,13.090472377902321,NA
47712,Vanderburgh County,IN,NA,86.54923939151321,NA
47713,Vanderburgh County,IN,NA,91.63330664531625,NA
47714,Vanderburgh County,IN,NA,90.47237790232185,NA
47720,Vanderburgh County,IN,NA,89.23138510808647,NA
47725,Vanderburgh County,IN,NA,89.19135308246598,NA
47804,Vigo County,IN,NA,72.85828662930345,NA
47879,Sullivan County,IN,NA,99.27942353883107,NA
47882,Sullivan County,IN,NA,52.48198558847078,NA
47885,Vigo County,IN,NA,97.55804643714971,NA
47905,Tippecanoe County,IN,NA,85.30824659727783,NA
47909,Tippecanoe County,IN,NA,68.33466773418735,NA
47933,Montgomery County,IN,63.65979381443299,NA,NA
50009,Polk County,IA,NA,45.516413130504404,NA
50010,Story County,IA,NA,77.62209767814251,NA
50014,Story County,IA,NA,96.31705364291433,NA
50021,Polk County,IA,NA,95.5964771817454,NA
50036,Boone County,IA,45.36082474226804,NA,NA
50111,Polk County,IA,NA,66.77341873498798,NA
50125,Warren County,IA,NA,44.87590072057646,NA
50138,Marion County,IA,NA,30.26421136909528,NA
50158,Marshall County,IA,74.22680412371135,89.27141713370696,NA
50220,Dallas County,IA,27.31958762886598,98.43875100080064,NA
50265,Polk County,IA,NA,89.51160928742993,NA
50266,Polk County,IA,NA,81.94555644515611,NA
50309,Polk County,IA,NA,71.85748598879104,NA
50310,Polk County,IA,NA,31.22497998398719,NA
50311,Polk County,IA,NA,74.93995196156925,NA
50313,Polk County,IA,NA,89.63170536429143,NA
50314,Polk County,IA,NA,24.97998398718975,NA
50315,Polk County,IA,NA,83.38670936749399,22.22222222222222
50316,Polk County,IA,NA,87.63010408326662,NA
50317,Polk County,IA,NA,47.11769415532426,NA
50320,Polk County,IA,NA,90.87269815852682,NA
50401,Cerro Gordo County,IA,3.0927835051546393,36.34907926341073,NA
50501,Webster County,IA,NA,49.79983987189752,NA
50613,Black Hawk County,IA,79.38144329896907,53.96317053642914,NA
50677,Bremer County,IA,NA,89.11128903122498,NA
50701,Black Hawk County,IA,53.350515463917525,NA,NA
50702,Black Hawk County,IA,NA,23.138510808646917,75
50703,Black Hawk County,IA,NA,83.306645316253,NA
51103,Woodbury County,IA,NA,89.71176941553243,NA
51104,Woodbury County,IA,NA,98.11849479583668,NA
51105,Woodbury County,IA,NA,87.30984787830263,NA
51106,Woodbury County,IA,NA,65.77261809447558,NA
51108,Woodbury County,IA,NA,72.49799839871898,NA
51442,Crawford County,IA,NA,72.69815852682146,NA
51501,Pottawattamie County,IA,5.412371134020619,7.56605284227382,NA
51503,Pottawattamie County,IA,NA,82.54603682946357,NA
51555,Harrison County,IA,NA,55.44435548438751,NA
51566,Montgomery County,IA,NA,52.1617293835068,NA
52001,Dubuque County,IA,12.371134020618557,96.59727782225781,NA
52057,Delaware County,IA,NA,80.38430744595676,NA
52101,Winneshiek County,IA,NA,78.46277021617294,NA
52302,Linn County,IA,NA,68.37469975980784,NA
52314,Linn County,IA,NA,97.11769415532426,NA
52317,Johnson County,IA,NA,89.55164131305044,NA
52403,Linn County,IA,NA,93.4747798238591,NA
52404,Linn County,IA,34.27835051546392,95.03602882305844,NA
52405,Linn County,IA,NA,86.18895116092874,NA
52501,Wapello County,IA,NA,38.8310648518815,31.349206349206348
52537,Davis County,IA,NA,65.69255404323458,NA
52544,Appanoose County,IA,NA,23.018414731785427,NA
52556,Jefferson County,IA,NA,73.69895916733387,NA
52577,Mahaska County,IA,NA,77.42193755004003,NA
52601,Des Moines County,IA,NA,77.30184147317854,46.42857142857143
52627,Lee County,IA,NA,50.52041633306645,NA
52632,Lee County,IA,NA,21.0968775020016,NA
52641,Henry County,IA,NA,91.87349879903923,NA
52722,Scott County,IA,NA,8.726981585268215,NA
52732,Clinton County,IA,NA,78.62289831865492,NA
52761,Muscatine County,IA,NA,20.496397117694155,NA
52804,Scott County,IA,NA,6.845476381104884,NA
52806,Scott County,IA,NA,9.007205764611689,NA
52807,Scott County,IA,NA,57.32586068855085,NA
66006,Douglas County,KS,NA,99.83987189751802,NA
66025,Douglas County,KS,70.61855670103093,NA,NA
66032,Anderson County,KS,84.5360824742268,NA,NA
66043,Leavenworth County,KS,NA,58.04643714971978,NA
66044,Douglas County,KS,NA,43.43474779823859,NA
66061,Johnson County,KS,6.443298969072164,NA,NA
66101,Wyandotte County,KS,NA,80.22417934347477,NA
66104,Wyandotte County,KS,NA,13.130504403522819,NA
66112,Wyandotte County,KS,NA,64.3714971977582,NA
66203,Johnson County,KS,NA,57.32586068855085,NA
66206,Johnson County,KS,NA,73.53883106485188,NA
66210,Johnson County,KS,NA,NA,63.888888888888886
66212,Johnson County,KS,15.721649484536082,NA,NA
66542,Shawnee County,KS,NA,91.03282626100881,NA
66605,Shawnee County,KS,NA,28.022417934347477,NA
66608,Shawnee County,KS,NA,86.46917534027222,NA
66611,Shawnee County,KS,NA,83.94715772618095,NA
66614,Shawnee County,KS,NA,NA,17.46031746031746
66701,Bourbon County,KS,NA,64.85188150520416,NA
66801,Lyon County,KS,NA,54.92393915132106,NA
67005,Cowley County,KS,NA,NA,70.63492063492063
67056,Harvey County,KS,99.48453608247422,NA,NA
67114,Harvey County,KS,NA,74.69975980784628,NA
67203,Sedgwick County,KS,NA,47.157726180944756,NA
67204,Sedgwick County,KS,NA,75.98078462770216,NA
67206,Sedgwick County,KS,NA,93.99519615692554,NA
67209,Sedgwick County,KS,NA,76.78142514011209,NA
67212,Sedgwick County,KS,97.16494845360825,90.0720576461169,NA
67216,Sedgwick County,KS,NA,71.41713370696557,NA
67217,Sedgwick County,KS,NA,67.65412329863891,NA
67219,Sedgwick County,KS,NA,80.34427542033626,NA
67357,Labette County,KS,NA,27.46196957566053,NA
67401,Saline County,KS,NA,46.55724579663731,NA
67420,Mitchell County,KS,NA,87.42994395516413,NA
67460,McPherson County,KS,NA,55.60448358686949,NA
67501,Reno County,KS,NA,66.45316253002403,NA
67701,Thomas County,KS,NA,51.601281024819855,NA
67801,Ford County,KS,NA,34.82786228983187,NA
40031,Oldham County,KY,NA,15.612489991993595,NA
40033,Marion County,KY,NA,71.41713370696557,NA
40037,Marion County,KY,NA,98.23859087269817,NA
40071,Spencer County,KY,NA,32.2658126501201,NA
40078,Washington County,KY,NA,91.35308246597278,NA
40118,Jefferson County,KY,NA,31.865492393915133,NA
40146,Breckinridge County,KY,NA,77.46196957566053,NA
40165,Bullitt County,KY,37.88659793814433,5.564451561248999,NA
40203,Jefferson County,KY,NA,9.527622097678142,NA
40204,Jefferson County,KY,73.71134020618557,NA,NA
40207,Jefferson County,KY,NA,78.58286629303443,NA
40208,Jefferson County,KY,45.36082474226804,NA,NA
40213,Jefferson County,KY,NA,65.85268214571657,NA
40214,Jefferson County,KY,NA,2.8022417934347477,NA
40216,Jefferson County,KY,NA,16.89351481184948,NA
40220,Jefferson County,KY,NA,19.77582065652522,NA
40223,Jefferson County,KY,NA,81.26501200960769,NA
40241,Jefferson County,KY,NA,28.98318654923939,NA
40242,Jefferson County,KY,NA,89.43154523618895,NA
40272,Jefferson County,KY,33.50515463917525,NA,NA
40291,Jefferson County,KY,NA,7.325860688550841,NA
40330,Mercer County,KY,NA,30.904723779023218,NA
40336,Estill County,KY,NA,31.625300240192157,NA
40342,Anderson County,KY,NA,17.133706965572458,NA
40383,Woodford County,KY,69.3298969072165,NA,NA
40391,Clark County,KY,NA,3.322658126501201,NA
40403,Madison County,KY,NA,9.967974379503602,NA
40505,Fayette County,KY,NA,10.328262610088071,NA
40508,Fayette County,KY,NA,16.453162530024017,NA
40517,Fayette County,KY,NA,9.087269815852682,NA
40701,Whitley County,KY,NA,45.276220976781424,NA
40734,Knox County,KY,NA,64.57165732586068,NA
40741,Laurel County,KY,NA,32.305844675740595,NA
40744,Laurel County,KY,NA,38.390712570056046,NA
40906,Knox County,KY,NA,41.03282626100881,NA
40962,Clay County,KY,NA,28.22257806244996,NA
41005,Boone County,KY,NA,87.26981585268214,NA
41051,Kenton County,KY,NA,19.055244195356284,NA
41071,Campbell County,KY,NA,36.269015212169734,NA
41129,Boyd County,KY,NA,30.58446757405925,NA
41139,Greenup County,KY,NA,NA,56.34920634920635
41175,Greenup County,KY,NA,40.43234587670136,NA
41339,Breathitt County,KY,NA,26.701361088871096,NA
41701,Perry County,KY,NA,15.092073658927141,NA
42001,McCracken County,KY,NA,94.79583666933547,NA
42025,Marshall County,KY,NA,NA,40.07936507936508
42066,Graves County,KY,NA,32.586068855084065,NA
42071,Calloway County,KY,NA,22.137710168134507,NA
42101,Warren County,KY,NA,2.762209767814251,NA
42103,Warren County,KY,NA,39.07125700560448,NA
42127,Barren County,KY,NA,44.19535628502802,NA
42134,Simpson County,KY,NA,29.86389111289031,NA
42141,Barren County,KY,NA,NA,5.952380952380952
42211,Trigg County,KY,NA,62.97037630104083,NA
42217,Christian County,KY,NA,76.58126501200961,NA
42301,Daviess County,KY,NA,32.506004803843076,NA
42303,Daviess County,KY,NA,17.7742193755004,17.063492063492063
42345,Muhlenberg County,KY,NA,32.02562049639712,NA
42408,Hopkins County,KY,NA,55.36429143314652,NA
42633,Wayne County,KY,NA,29.943955164131303,NA
42642,Russell County,KY,NA,43.23458767013611,NA
42701,Hardin County,KY,11.082474226804123,4.563650920736589,NA
42718,Taylor County,KY,NA,22.2177742193755,NA
42726,Grayson County,KY,75.25773195876289,NA,NA
42754,Grayson County,KY,NA,12.850280224179345,NA
70037,Plaquemines Parish,LA,NA,22.898318654923937,NA
70043,St. Bernard Parish,LA,NA,80.54443554843876,NA
70058,Jefferson Parish,LA,NA,NA,8.73015873015873
70068,St. John the Baptist Parish,LA,21.391752577319586,NA,NA
70114,Orleans Parish,LA,42.52577319587629,NA,NA
70118,Orleans Parish,LA,NA,7.6461168935148125,NA
70119,Orleans Parish,LA,NA,1.4811849479583667,NA
70122,Orleans Parish,LA,0.7731958762886598,NA,NA
70126,Orleans Parish,LA,NA,69.9759807846277,NA
70301,Lafourche Parish,LA,0.5154639175257731,25.02001601281025,NA
70339,Assumption Parish,LA,51.28865979381443,NA,NA
70356,Terrebonne Parish,LA,NA,94.99599679743795,NA
70359,Terrebonne Parish,LA,NA,69.69575660528423,NA
70364,Terrebonne Parish,LA,NA,3.0824659727782224,NA
70380,St. Mary Parish,LA,NA,9.76781425140112,NA
70401,Tangipahoa Parish,LA,NA,11.609287429943956,NA
70403,Tangipahoa Parish,LA,NA,13.370696557245795,NA
70433,St. Tammany Parish,LA,NA,2.722177742193755,NA
70448,St. Tammany Parish,LA,NA,80.98478783026421,NA
70452,St. Tammany Parish,LA,NA,63.41072858286629,NA
70501,Lafayette Parish,LA,NA,74.65972778222579,NA
70503,Lafayette Parish,LA,NA,19.65572457966373,NA
70512,St. Landry Parish,LA,NA,39.75180144115292,NA
70515,Evangeline Parish,LA,NA,71.89751801441153,NA
70517,St. Martin Parish,LA,NA,5.044035228182546,NA
70518,Lafayette Parish,LA,NA,27.862289831865496,NA
70520,Lafayette Parish,LA,NA,82.82626100880705,NA
70525,Acadia Parish,LA,13.144329896907218,NA,NA
70535,St. Landry Parish,LA,NA,79.18334667734187,NA
70560,Iberia Parish,LA,NA,0.7606084867894315,NA
70563,Iberia Parish,LA,NA,93.07445956765412,NA
70584,St. Landry Parish,LA,NA,42.514011208967176,NA
70586,Evangeline Parish,LA,NA,25.46036829463571,NA
70592,Lafayette Parish,LA,NA,81.98558847077662,NA
70601,Calcasieu Parish,LA,NA,67.33386709367494,NA
70611,Calcasieu Parish,LA,NA,37.710168134507605,NA
70615,Calcasieu Parish,LA,NA,73.81905524419535,NA
70663,Calcasieu Parish,LA,NA,15.732586068855085,NA
70665,Calcasieu Parish,LA,NA,43.594875900720574,NA
70668,Calcasieu Parish,LA,NA,42.43394715772618,NA
70726,Livingston Parish,LA,NA,73.65892714171338,NA
70737,Ascension Parish,LA,NA,2.842273819055244,NA
70739,East Baton Rouge Parish,LA,NA,72.177742193755,NA
70764,Iberville Parish,LA,NA,65.6124899919936,NA
70769,Ascension Parish,LA,NA,66.6533226581265,NA
70774,Ascension Parish,LA,NA,NA,78.57142857142857
70785,Livingston Parish,LA,NA,89.35148118494796,NA
70791,East Baton Rouge Parish,LA,47.42268041237113,91.0728582866293,NA
70805,East Baton Rouge Parish,LA,23.195876288659793,NA,NA
70806,East Baton Rouge Parish,LA,NA,81.0648518815052,NA
70808,East Baton Rouge Parish,LA,NA,50.320256204963975,NA
70809,East Baton Rouge Parish,LA,NA,68.13450760608487,NA
70810,East Baton Rouge Parish,LA,NA,40.51240992794236,NA
70815,East Baton Rouge Parish,LA,NA,64.4915932746197,NA
71078,De Soto Parish,LA,NA,75.02001601281026,NA
71108,Caddo Parish,LA,NA,4.1232986389111295,NA
71109,Caddo Parish,LA,NA,2.6421136909527623,NA
71112,Bossier Parish,LA,NA,84.54763811048839,NA
71201,Ouachita Parish,LA,NA,43.114491593274614,NA
71291,Ouachita Parish,LA,NA,18.53482786228983,NA
71292,Ouachita Parish,LA,NA,56.6052842273819,NA
71301,Rapides Parish,LA,NA,14.571657325860688,NA
71302,Rapides Parish,LA,NA,75.42033626901521,NA
71343,Catahoula Parish,LA,NA,86.90952762209768,NA
71360,Rapides Parish,LA,10.56701030927835,NA,NA
71417,Grant Parish,LA,NA,61.72938350680545,NA
71418,Caldwell Parish,LA,NA,94.515612489992,NA
71423,Grant Parish,LA,NA,75.22017614091273,NA
71446,Vernon Parish,LA,NA,19.095276220976782,NA
71463,Allen Parish,LA,66.49484536082474,NA,NA
71465,La Salle Parish,LA,NA,83.78702962369896,NA
04027,York County,ME,NA,92.39391513210569,NA
04043,York County,ME,NA,74.89991993594876,NA
04102,Cumberland County,ME,NA,NA,36.904761904761905
04103,Cumberland County,ME,NA,9.44755804643715,NA
04330,Kennebec County,ME,NA,2.0416333066453163,NA
04401,Penobscot County,ME,NA,0.6405124099279423,NA
04444,Penobscot County,ME,86.5979381443299,NA,NA
04468,Penobscot County,ME,NA,44.235388310648524,NA
04901,Kennebec County,ME,NA,55.044035228182544,NA
04915,Waldo County,ME,NA,47.87830264211369,NA
04976,Somerset County,ME,57.98969072164949,NA,NA
20650,St. Mary's County,MD,NA,89.03122497998399,NA
20748,Prince George's County,MD,54.63917525773196,NA,NA
20815,Montgomery County,MD,93.55670103092784,NA,NA
20817,Montgomery County,MD,NA,73.81905524419535,NA
20851,Montgomery County,MD,NA,74.29943955164131,NA
20852,Montgomery County,MD,NA,50.680544435548434,NA
20879,Montgomery County,MD,NA,61.088871096877504,NA
20901,Montgomery County,MD,NA,95.95676541232986,NA
21009,Harford County,MD,NA,26.461168935148116,NA
21078,Harford County,MD,NA,79.10328262610088,NA
21085,Harford County,MD,NA,47.23779023218575,NA
21136,Baltimore County,MD,NA,77.662129703763,NA
21218,Baltimore city,MD,NA,4.083266613290633,NA
21222,Baltimore County,MD,NA,1.521216973578863,NA
21225,Baltimore city,MD,NA,83.98718975180144,NA
21703,Frederick County,MD,NA,36.90952762209768,NA
21740,Washington County,MD,11.855670103092782,NA,NA
21787,Carroll County,MD,NA,85.94875900720577,NA
21921,Cecil County,MD,NA,24.89991993594876,NA
01020,Hampden County,MA,NA,38.99119295436349,NA
01247,Berkshire County,MA,NA,2.1216973578863088,NA
01267,Berkshire County,MA,NA,57.60608486789431,NA
01420,Worcester County,MA,NA,47.59807846277022,NA
01541,Worcester County,MA,NA,99.63971176941553,NA
01588,Worcester County,MA,NA,67.21377101681345,NA
01603,Worcester County,MA,NA,79.38350680544436,NA
01606,Worcester County,MA,NA,NA,13.492063492063492
01607,Worcester County,MA,NA,5.084067253803042,NA
01610,Worcester County,MA,NA,38.31064851881506,NA
01702,Middlesex County,MA,NA,3.963170536429143,NA
01757,Worcester County,MA,NA,0.7205764611689351,NA
01801,Middlesex County,MA,NA,3.522818254603683,NA
01844,Essex County,MA,NA,30.34427542033627,NA
01845,Essex County,MA,NA,12.890312249799841,NA
01854,Middlesex County,MA,NA,NA,3.1746031746031744
01887,Middlesex County,MA,NA,2.6821457165732587,NA
01902,Essex County,MA,NA,46.15692554043235,NA
01906,Essex County,MA,NA,52.72217774219376,NA
01923,Essex County,MA,NA,8.00640512409928,NA
01960,Essex County,MA,NA,0.24019215372297836,NA
02026,Norfolk County,MA,NA,1.4011208967173738,NA
02056,Norfolk County,MA,NA,95.47638110488391,NA
02062,Norfolk County,MA,NA,5.684547638110488,NA
02118,Suffolk County,MA,NA,37.870296236989596,NA
02127,Suffolk County,MA,NA,0.5204163330664532,NA
02128,Suffolk County,MA,NA,0.08006405124099279,NA
02130,Suffolk County,MA,NA,52.28182546036829,NA
02138,Middlesex County,MA,NA,36.6293034427542,NA
02144,Middlesex County,MA,NA,8.406725380304243,NA
02145,Middlesex County,MA,1.0309278350515463,NA,NA
02150,Suffolk County,MA,NA,0.20016012810248196,NA
02151,Suffolk County,MA,NA,NA,0
02155,Middlesex County,MA,NA,76.6613290632506,NA
02169,Norfolk County,MA,4.896907216494846,NA,NA
02186,Norfolk County,MA,NA,5.524419535628502,NA
02302,Plymouth County,MA,NA,29.62369895916733,NA
02324,Plymouth County,MA,NA,NA,96.03174603174604
02333,Plymouth County,MA,NA,87.9103282626101,NA
02343,Norfolk County,MA,NA,19.735788630904725,NA
02346,Plymouth County,MA,NA,84.3875100080064,NA
02370,Plymouth County,MA,NA,5.804643714971978,NA
02472,Middlesex County,MA,NA,2.9623698959167335,NA
02478,Middlesex County,MA,NA,10.208166533226581,NA
02537,Barnstable County,MA,NA,64.93194555644516,NA
02540,Barnstable County,MA,NA,32.2257806244996,NA
02563,Barnstable County,MA,NA,46.477181745396315,NA
02601,Barnstable County,MA,NA,1.3210568454763811,NA
02649,Barnstable County,MA,NA,18.855084067253802,NA
02738,Plymouth County,MA,NA,80.58446757405925,NA
02740,Bristol County,MA,NA,0.9207365892714172,NA
02746,Bristol County,MA,NA,0.6805444355484388,NA
02771,Bristol County,MA,NA,46.437149719775825,NA
02777,Bristol County,MA,99.22680412371135,NA,NA
02780,Bristol County,MA,NA,0,NA
48015,Macomb County,MI,NA,32.90632506004803,NA
48036,Macomb County,MI,NA,13.010408326661329,NA
48040,St. Clair County,MI,NA,47.63811048839071,NA
48044,Macomb County,MI,NA,15.33226581265012,NA
48047,Macomb County,MI,NA,5.4043234587670135,NA
48051,Macomb County,MI,NA,33.827061649319454,NA
48072,Oakland County,MI,49.22680412371135,NA,NA
48082,Macomb County,MI,NA,26.220976781425144,34.92063492063492
48098,Oakland County,MI,54.89690721649485,NA,NA
48101,Wayne County,MI,NA,74.25940752602081,NA
48128,Wayne County,MI,NA,56.52522017614091,NA
48133,Monroe County,MI,82.21649484536083,NA,NA
48141,Wayne County,MI,NA,3.4427542033626897,NA
48166,Monroe County,MI,NA,22.898318654923937,NA
48167,Oakland County,MI,NA,NA,24.6031746031746
48170,Wayne County,MI,NA,5.44435548438751,NA
48183,Wayne County,MI,NA,3.682946357085669,NA
48310,Macomb County,MI,NA,6.4451561248999205,NA
48315,Macomb County,MI,NA,21.176941553242596,NA
48323,Oakland County,MI,NA,31.945556445156125,NA
48603,Saginaw County,MI,NA,21.737389911929544,NA
48858,Isabella County,MI,NA,2.241793434747798,NA
48906,Ingham County,MI,NA,4.963971176941554,NA
49002,Kalamazoo County,MI,NA,65.29223378702962,NA
49007,Kalamazoo County,MI,95.61855670103093,46.5972778222578,NA
49009,Kalamazoo County,MI,NA,4.803843074459568,NA
49015,Calhoun County,MI,NA,NA,29.761904761904763
49053,Kalamazoo County,MI,NA,56.80544435548439,NA
49071,Van Buren County,MI,NA,47.43795036028823,NA
49221,Lenawee County,MI,16.237113402061855,NA,NA
49319,Kent County,MI,NA,14.211369095276222,NA
49426,Ottawa County,MI,48.96907216494845,21.257005604483588,NA
49431,Mason County,MI,16.49484536082474,NA,NA
49464,Ottawa County,MI,NA,92.1937550040032,NA
49507,Kent County,MI,NA,1.6813450760608486,NA
49525,Kent County,MI,NA,17.253803042433947,NA
49738,Crawford County,MI,NA,49.9599679743795,NA
49855,Marquette County,MI,NA,24.499599679743795,NA
55005,Anoka County,MN,NA,NA,100
55016,Washington County,MN,6.185567010309279,98.19855884707766,NA
55021,Rice County,MN,44.84536082474227,NA,NA
55025,Washington County,MN,NA,59.087269815852686,NA
55033,Dakota County,MN,NA,14.491593274619696,NA
55040,Isanti County,MN,NA,78.8630904723779,NA
55041,Wabasha County,MN,NA,64.13130504403523,NA
55056,Chisago County,MN,56.70103092783505,NA,NA
55063,Pine County,MN,NA,71.97758206565253,NA
55069,Chisago County,MN,NA,83.3466773418735,NA
55075,Dakota County,MN,NA,69.53562850280224,89.68253968253968
55076,Dakota County,MN,NA,95.5164131305044,NA
55079,Chisago County,MN,NA,56.925540432345876,NA
55101,Ramsey County,MN,43.29896907216495,71.17694155324259,NA
55102,Ramsey County,MN,NA,53.522818254603685,NA
55103,Ramsey County,MN,NA,77.26180944755805,NA
55104,Ramsey County,MN,NA,6.084867894315452,NA
55106,Ramsey County,MN,2.3195876288659796,58.406725380304245,23.015873015873016
55107,Ramsey County,MN,NA,70.05604483586869,NA
55108,Ramsey County,MN,NA,NA,88.4920634920635
55109,Ramsey County,MN,NA,NA,98.01587301587301
55110,Ramsey County,MN,NA,78.38270616493195,NA
55117,Ramsey County,MN,NA,68.73498799039231,NA
55118,Dakota County,MN,NA,54.483586869495596,NA
55122,Dakota County,MN,NA,41.23298638911129,NA
55129,Washington County,MN,NA,48.83907125700561,NA
55130,Ramsey County,MN,NA,27.381905524419537,NA
55303,Anoka County,MN,NA,7.485988791032826,NA
55309,Sherburne County,MN,94.3298969072165,NA,NA
55318,Carver County,MN,17.783505154639176,34.34747798238591,NA
55330,Sherburne County,MN,NA,22.618094475580463,NA
55340,Hennepin County,MN,81.44329896907216,NA,NA
55343,Hennepin County,MN,NA,24.059247397918334,NA
55344,Hennepin County,MN,NA,70.37630104083267,NA
55350,McLeod County,MN,NA,62.16973578863091,NA
55362,Wright County,MN,NA,42.75420336269015,NA
55364,Hennepin County,MN,NA,58.28662930344275,NA
55369,Hennepin County,MN,9.278350515463918,NA,43.25396825396825
55371,Mille Lacs County,MN,69.0721649484536,87.59007205764611,NA
55372,Scott County,MN,NA,36.58927141713371,NA
55374,Hennepin County,MN,NA,82.82626100880705,NA
55378,Scott County,MN,NA,58.44675740592474,NA
55379,Scott County,MN,21.649484536082475,NA,NA
55401,Hennepin County,MN,NA,39.71176941553243,NA
55403,Hennepin County,MN,NA,48.27862289831866,NA
55404,Hennepin County,MN,NA,37.469975980784625,NA
55405,Hennepin County,MN,NA,59.28742994395516,NA
55406,Hennepin County,MN,NA,59.80784627702162,NA
55407,Hennepin County,MN,4.123711340206185,12.650120096076861,3.968253968253968
55408,Hennepin County,MN,NA,46.196957566052845,NA
55412,Hennepin County,MN,NA,50.400320256204964,NA
55413,Hennepin County,MN,NA,48.879103282626104,NA
55415,Hennepin County,MN,NA,86.14891913530825,NA
55416,Hennepin County,MN,NA,23.41873498799039,NA
55421,Anoka County,MN,NA,8.847077662129704,NA
55422,Hennepin County,MN,NA,69.29543634907927,NA
55428,Hennepin County,MN,NA,29.303442754203363,NA
55429,Hennepin County,MN,NA,22.09767814251401,NA
55432,Anoka County,MN,NA,64.89191353082467,NA
55433,Anoka County,MN,NA,86.42914331465172,NA
55434,Anoka County,MN,NA,63.050440352281825,NA
55446,Hennepin County,MN,NA,95.63650920736589,NA
55448,Anoka County,MN,52.31958762886598,NA,NA
55449,Anoka County,MN,5.670103092783505,28.702962369895918,NA
55719,St. Louis County,MN,65.72164948453609,NA,NA
55720,Carlton County,MN,NA,70.17614091273019,NA
55734,St. Louis County,MN,NA,NA,73.01587301587301
55744,Itasca County,MN,NA,59.52762209767815,NA
55746,St. Louis County,MN,NA,NA,31.746031746031743
55792,St. Louis County,MN,NA,44.035228182546035,30.952380952380953
55802,St. Louis County,MN,NA,72.77822257806244,NA
55806,St. Louis County,MN,67.78350515463917,12.610088070456365,NA
55807,St. Louis County,MN,NA,26.58126501200961,NA
55811,St. Louis County,MN,NA,14.411529223378702,NA
55812,St. Louis County,MN,NA,55.084067253803035,NA
55902,Olmsted County,MN,NA,95.83666933546837,NA
55904,Olmsted County,MN,NA,18.094475580464373,NA
55906,Olmsted County,MN,NA,97.47798238590872,NA
55912,Mower County,MN,NA,38.07045636509208,NA
55920,Olmsted County,MN,NA,99.919935948759,NA
55944,Dodge County,MN,NA,69.49559647718175,NA
55947,Houston County,MN,NA,NA,98.80952380952381
55963,Goodhue County,MN,NA,74.05924739791834,NA
55976,Olmsted County,MN,NA,72.69815852682146,NA
55987,Winona County,MN,NA,73.53883106485188,NA
56007,Freeborn County,MN,NA,59.40752602081665,NA
56013,Faribault County,MN,NA,70.21617293835068,NA
56031,Martin County,MN,NA,NA,69.84126984126983
56071,Scott County,MN,NA,64.61168935148119,NA
56082,Nicollet County,MN,NA,48.398718975180145,NA
56187,Nobles County,MN,NA,84.78783026421138,NA
56201,Kandiyohi County,MN,64.69072164948454,80.38430744595676,NA
56258,Lyon County,MN,NA,79.86389111289031,NA
56265,Chippewa County,MN,NA,51.40112089671738,NA
56303,Stearns County,MN,NA,55.284227381905524,NA
56334,Pope County,MN,NA,63.45076060848679,NA
56352,Stearns County,MN,NA,63.771016813450764,NA
56377,Stearns County,MN,NA,51.28102481985588,NA
56387,Stearns County,MN,NA,92.1537229783827,NA
56401,Crow Wing County,MN,NA,69.41553242594075,NA
56431,Aitkin County,MN,NA,47.31785428342674,NA
56470,Hubbard County,MN,46.391752577319586,NA,NA
56501,Becker County,MN,NA,19.935948759007204,NA
56520,Wilkin County,MN,NA,72.05764611689351,NA
56544,Becker County,MN,NA,83.18654923939151,NA
56557,Norman County,MN,NA,80.10408326661329,NA
56560,Clay County,MN,NA,64.25140112089672,NA
56573,Otter Tail County,MN,NA,38.55084067253803,NA
56601,Beltrami County,MN,NA,12.530024019215372,NA
56621,Clearwater County,MN,56.70103092783505,NA,NA
56763,Roseau County,MN,NA,52.40192153722978,NA
38654,DeSoto County,MS,NA,32.86629303442754,NA
38663,Tippah County,MS,NA,45.75660528422738,NA
38671,DeSoto County,MS,NA,NA,50.39682539682539
38672,DeSoto County,MS,NA,88.03042433947158,NA
38683,Tippah County,MS,NA,45.19615692554043,NA
38829,Prentiss County,MS,NA,26.020816653322658,NA
38834,Alcorn County,MS,NA,8.206565252201761,NA
38843,Itawamba County,MS,NA,50.88070456365092,NA
38916,Calhoun County,MS,100,NA,NA
39047,Rankin County,MS,NA,93.59487590072058,NA
39069,Jefferson County,MS,NA,58.60688550840673,NA
39117,Scott County,MS,NA,29.62369895916733,NA
39154,Hinds County,MS,NA,85.6285028022418,NA
39339,Winston County,MS,NA,NA,61.50793650793651
39401,Forrest County,MS,36.340206185567006,15.252201761409125,NA
39437,Jones County,MS,68.55670103092784,NA,NA
39440,Jones County,MS,1.804123711340206,NA,NA
39452,George County,MS,NA,35.06805444355484,NA
39465,Forrest County,MS,NA,45.39631705364292,NA
39470,Pearl River County,MS,NA,75.90072057646117,NA
39532,Harrison County,MS,50,NA,NA
39556,Hancock County,MS,NA,74.4995996797438,NA
39565,Jackson County,MS,NA,63.3706965572458,NA
39601,Lincoln County,MS,NA,51.881505204163325,NA
39773,Clay County,MS,64.17525773195877,NA,NA
63074,St. Louis County,MO,NA,37.14971977582066,NA
63080,Franklin County,MO,89.43298969072166,NA,NA
63084,Franklin County,MO,NA,31.144915932746198,NA
63089,Franklin County,MO,81.95876288659794,NA,NA
63103,St. Louis city,MO,NA,64.3714971977582,NA
63108,St. Louis city,MO,51.03092783505154,NA,NA
63110,St. Louis city,MO,NA,75.34027221777421,NA
63111,St. Louis city,MO,NA,75.90072057646117,NA
63116,St. Louis city,MO,NA,17.09367493995196,NA
63134,St. Louis County,MO,NA,22.45796637309848,NA
63301,St. Charles County,MO,NA,49.51961569255404,NA
63303,St. Charles County,MO,NA,48.35868694955965,NA
63304,St. Charles County,MO,NA,86.98959167333868,NA
63362,Lincoln County,MO,NA,71.33706965572458,NA
63367,St. Charles County,MO,NA,84.22738190552442,NA
63379,Lincoln County,MO,NA,13.570856685348279,NA
63385,St. Charles County,MO,NA,6.645316253002402,NA
63401,Marion County,MO,78.35051546391753,NA,NA
63640,St. Francois County,MO,NA,21.01681345076061,NA
63740,Scott County,MO,NA,NA,88.09523809523809
63755,Cape Girardeau County,MO,7.474226804123711,NA,NA
63851,Pemiscot County,MO,NA,58.72698158526821,NA
63857,Dunklin County,MO,28.09278350515464,NA,NA
63901,Butler County,MO,1.2886597938144329,5.324259407526021,21.428571428571427
63935,Ripley County,MO,NA,31.184947958366692,NA
64012,Cass County,MO,NA,51.84147317854283,NA
64015,Jackson County,MO,NA,48.678943154523616,NA
64052,Jackson County,MO,NA,NA,67.85714285714286
64053,Jackson County,MO,NA,83.22658126501202,NA
64055,Jackson County,MO,NA,39.23138510808647,5.158730158730158
64056,Jackson County,MO,52.57731958762887,NA,NA
64057,Jackson County,MO,NA,76.46116893514812,NA
64060,Clay County,MO,NA,25.14011208967174,NA
64068,Clay County,MO,NA,16.01281024819856,NA
64070,Jackson County,MO,NA,97.23779023218574,NA
64075,Jackson County,MO,NA,23.218574859887912,NA
64080,Cass County,MO,NA,74.17934347477983,NA
64086,Jackson County,MO,NA,16.933546837469976,NA
64093,Johnson County,MO,NA,17.413931144915935,NA
64106,Jackson County,MO,29.63917525773196,37.14971977582066,NA
64117,Clay County,MO,NA,18.935148118494798,NA
64118,Clay County,MO,NA,1.7614091273018415,NA
64119,Clay County,MO,NA,53.282626100880705,NA
64128,Jackson County,MO,NA,45.31625300240192,NA
64129,Jackson County,MO,NA,89.83186549239392,NA
64133,Jackson County,MO,NA,1.200960768614892,2.380952380952381
64155,Clay County,MO,39.69072164948454,58.56685348278623,NA
64501,Buchanan County,MO,NA,79.58366693354684,NA
64503,Buchanan County,MO,NA,11.88951160928743,NA
64505,Buchanan County,MO,72.42268041237114,15.172137710168135,NA
64506,Buchanan County,MO,NA,28.662930344275424,4.365079365079365
64601,Livingston County,MO,NA,53.322658126501196,NA
64720,Bates County,MO,NA,88.791032826261,NA
64730,Bates County,MO,NA,71.53722978382706,NA
64735,Henry County,MO,NA,15.972778222578063,NA
64772,Vernon County,MO,NA,69.45556445156124,NA
64776,St. Clair County,MO,NA,84.82786228983187,NA
64801,Jasper County,MO,NA,5.164131305044036,11.11111111111111
64804,Jasper County,MO,NA,26.501200960768617,NA
64831,McDonald County,MO,NA,87.06965572457966,NA
64836,Jasper County,MO,NA,43.795036028823056,NA
65026,Miller County,MO,NA,65.97277822257807,NA
65202,Boone County,MO,NA,4.323458767013611,NA
65301,Pettis County,MO,NA,8.807045636509207,NA
65401,Phelps County,MO,NA,19.375500400320256,NA
65616,Taney County,MO,NA,44.31545236188951,NA
65622,Dallas County,MO,NA,50.80064051240992,NA
65656,Stone County,MO,98.19587628865979,NA,NA
65672,Taney County,MO,NA,74.93995196156925,NA
65704,Wright County,MO,NA,74.3795036028823,NA
65708,Barry County,MO,NA,66.61329063250601,NA
65711,Wright County,MO,NA,65.05204163330664,NA
65712,Lawrence County,MO,NA,80.38430744595676,NA
65738,Greene County,MO,NA,64.33146517213771,NA
65775,Howell County,MO,59.02061855670103,78.26261008807046,NA
65802,Greene County,MO,NA,53.72297838270617,NA
65803,Greene County,MO,NA,33.226581265012015,42.46031746031746
65804,Greene County,MO,NA,13.891112890312248,NA
65806,Greene County,MO,NA,77.181745396317055,NA
59101,Yellowstone County,MT,NA,20.13610888710969,NA
59105,Yellowstone County,MT,NA,63.53082465972778,NA
59405,Cascade County,MT,NA,62.44995996797438,NA
59601,Lewis and Clark County,MT,78.6082474226804,NA,NA
59602,Lewis and Clark County,MT,64.17525773195877,NA,NA
59802,Missoula County,MT,NA,61.68935148118495,NA
59803,Missoula County,MT,NA,97.75820656525221,NA
68025,Dodge County,NE,8.24742268041237,NA,NA
68104,Douglas County,NE,NA,11.809447558046438,NA
68105,Douglas County,NE,47.42268041237113,NA,NA
68106,Douglas County,NE,NA,52.041633306645316,NA
68111,Douglas County,NE,NA,45.716573258606886,NA
68114,Douglas County,NE,NA,54.64371497197759,NA
68130,Douglas County,NE,NA,59.72778222578062,NA
68134,Douglas County,NE,NA,33.506805444355486,NA
68136,Sarpy County,NE,NA,NA,85.31746031746032
68137,Douglas County,NE,NA,29.62369895916733,NA
68147,Sarpy County,NE,NA,88.27061649319455,NA
68164,Douglas County,NE,NA,48.71897518014411,NA
68410,Otoe County,NE,98.71134020618557,NA,NA
68502,Lancaster County,NE,77.31958762886599,NA,NA
68503,Lancaster County,NE,NA,70.45636509207365,NA
68507,Lancaster County,NE,NA,68.97518014411528,NA
68620,Boone County,NE,97.68041237113401,NA,NA
68701,Madison County,NE,NA,28.262610088070456,NA
68739,Cedar County,NE,NA,98.9591673338671,NA
68826,Merrick County,NE,NA,93.55484387510008,NA
68850,Dawson County,NE,NA,58.9271417133707,NA
68901,Adams County,NE,NA,41.833466773418735,NA
69153,Keith County,NE,NA,99.55964771817453,NA
69341,Scotts Bluff County,NE,NA,97.35788630904723,NA
89101,Clark County,NV,33.50515463917525,73.05844675740593,NA
89103,Clark County,NV,NA,56.485188150520415,NA
89104,Clark County,NV,24.22680412371134,74.21937550040032,48.80952380952381
89106,Clark County,NV,NA,77.8622898318655,NA
89107,Clark County,NV,69.84536082474226,67.09367493995197,NA
89108,Clark County,NV,NA,9.367493995196156,NA
89109,Clark County,NV,NA,89.31144915932747,NA
89110,Clark County,NV,NA,81.78542834267414,NA
89113,Clark County,NV,NA,51.120896717373896,NA
89115,Clark County,NV,NA,46.236989591673336,NA
89117,Clark County,NV,NA,81.86549239391513,NA
89118,Clark County,NV,NA,64.69175340272217,NA
89119,Clark County,NV,NA,82.2257806244996,NA
89120,Clark County,NV,NA,96.51721377101681,NA
89121,Clark County,NV,NA,12.730184147317855,85.71428571428571
89122,Clark County,NV,NA,11.729383506805444,NA
89123,Clark County,NV,NA,29.62369895916733,NA
89128,Clark County,NV,NA,54.64371497197759,NA
89130,Clark County,NV,NA,57.52602081665332,NA
89141,Clark County,NV,NA,81.545236188951165,NA
89142,Clark County,NV,NA,41.39311449159327,NA
89145,Clark County,NV,NA,73.49879903923139,NA
89146,Clark County,NV,NA,86.78943154523618,NA
89147,Clark County,NV,NA,78.98318654923939,NA
89148,Clark County,NV,NA,25.300240192153723,NA
89149,Clark County,NV,NA,39.11128903122498,NA
89156,Clark County,NV,NA,41.99359487590072,NA
89165,Clark County,NV,NA,96.43714971977582,96.42857142857143
89169,Clark County,NV,NA,56.80544435548439,NA
89403,Lyon County,NV,NA,19.575660528422738,NA
89406,Churchill County,NV,NA,22.017614091273018,NA
89408,Lyon County,NV,NA,18.694955964771818,NA
89429,Lyon County,NV,NA,NA,82.53968253968253
89431,Washoe County,NV,NA,9.207365892714172,82.93650793650794
89433,Washoe County,NV,NA,46.91753402722178,NA
89434,Washoe County,NV,NA,49.67974379503603,NA
89501,Washoe County,NV,NA,92.75420336269016,NA
89502,Washoe County,NV,76.5463917525773,55.76461168935148,NA
89503,Washoe County,NV,NA,35.028022417934345,NA
89508,Washoe County,NV,NA,44.715772618094476,NA
89509,Washoe County,NV,NA,53.92313851080864,NA
89511,Washoe County,NV,NA,63.570856685348275,NA
89512,Washoe County,NV,NA,68.49479583666933,NA
89521,Washoe County,NV,NA,27.702161729383505,NA
89701,Carson City,NV,NA,NA,41.66666666666667
89801,Elko County,NV,61.34020618556701,NA,NA
03038,Rockingham County,NH,NA,5.00400320256205,NA
03060,Hillsborough County,NH,11.597938144329897,2.602081665332266,NA
03079,Rockingham County,NH,NA,91.1929543634908,NA
03263,Merrimack County,NH,NA,90.23218574859888,NA
03276,Merrimack County,NH,78.6082474226804,NA,NA
03301,Merrimack County,NH,NA,6.965572457966374,NA
03303,Merrimack County,NH,NA,93.51481184947959,NA
03431,Cheshire County,NH,NA,NA,27.77777777777778
03743,Sullivan County,NH,NA,31.385108086469177,NA
03848,Rockingham County,NH,NA,69.9359487590072,NA
03867,Strafford County,NH,NA,9.927942353883108,NA
07012,Passaic County,NJ,NA,60.28823058446757,NA
07030,Hudson County,NJ,NA,2.522017614091273,NA
07047,Hudson County,NJ,NA,10.528422738190553,NA
07063,Union County,NJ,NA,92.07365892714171,NA
07090,Union County,NJ,NA,53.64291433146518,NA
07103,Essex County,NJ,NA,0.32025620496397117,NA
07111,Essex County,NJ,NA,3.1625300240192153,NA
07206,Union County,NJ,NA,3.2826261008807047,NA
07407,Bergen County,NJ,NA,14.971977582065652,NA
07417,Bergen County,NJ,NA,80.86469175340272,NA
07446,Bergen County,NJ,NA,47.63811048839071,NA
07470,Passaic County,NJ,48.45360824742268,NA,NA
07603,Bergen County,NJ,NA,68.29463570856686,NA
07607,Bergen County,NJ,NA,81.1449159327462,NA
07663,Bergen County,NJ,NA,36.22898318654924,NA
07719,Monmouth County,NJ,NA,20.696557245796637,NA
07726,Monmouth County,NJ,NA,82.2658126501201,NA
07728,Monmouth County,NJ,NA,68.01441152922338,NA
07731,Monmouth County,NJ,NA,14.771817453963171,NA
07738,Monmouth County,NJ,98.96907216494846,NA,NA
07740,Monmouth County,NJ,NA,13.410728582866295,NA
07747,Monmouth County,NJ,NA,15.812650120096079,NA
07823,Warren County,NJ,NA,40.71257005604483,NA
07882,Warren County,NJ,NA,29.42353883106485,NA
08003,Camden County,NJ,NA,91.59327461969575,NA
08046,Burlington County,NJ,NA,2.2818254603682946,NA
08050,Ocean County,NJ,NA,18.65492393915132,NA
08053,Burlington County,NJ,NA,34.267413931144915,NA
08096,Gloucester County,NJ,NA,81.22497998398718,NA
08102,Camden County,NJ,NA,NA,84.12698412698413
08103,Camden County,NJ,NA,85.22818254603683,NA
08104,Camden County,NJ,NA,0.28022417934347477,NA
08105,Camden County,NJ,NA,0.4403522818254604,NA
08302,Cumberland County,NJ,NA,0.4803843074459567,NA
08401,Atlantic County,NJ,NA,41.43314651721377,NA
08611,Mercer County,NJ,NA,10.928742994395517,NA
08724,Ocean County,NJ,NA,79.62369895916733,NA
08759,Ocean County,NJ,NA,4.2433947157726175,NA
08816,Middlesex County,NJ,NA,17.173738991192955,NA
08822,Hunterdon County,NJ,NA,48.31865492393915,NA
08859,Middlesex County,NJ,NA,54.80384307445957,NA
08882,Middlesex County,NJ,NA,36.30904723779023,NA
87002,Valencia County,NM,NA,27.782225780624497,NA
87004,Sandoval County,NM,NA,99.19935948759007,NA
87015,Santa Fe County,NM,NA,55.44435548438751,NA
87020,Cibola County,NM,NA,53.56285028022418,NA
87031,Valencia County,NM,NA,37.34987990392314,62.301587301587304
87102,Bernalillo County,NM,NA,31.825460368294635,NA
87105,Bernalillo County,NM,5.927835051546391,1.0808646917534028,NA
87108,Bernalillo County,NM,NA,79.54363490792635,30.555555555555557
87110,Bernalillo County,NM,4.639175257731959,35.90872698158527,NA
87111,Bernalillo County,NM,NA,8.366693354683747,NA
87112,Bernalillo County,NM,NA,24.13931144915933,NA
87120,Bernalillo County,NM,NA,71.81745396317054,NA
87121,Bernalillo County,NM,NA,1.2810248198558847,NA
87123,Bernalillo County,NM,15.206185567010309,22.41793434747798,NA
87124,Sandoval County,NM,NA,4.403522818254603,NA
87301,McKinley County,NM,NA,50.72057646116893,NA
87313,McKinley County,NM,NA,53.763010408326664,NA
87323,McKinley County,NM,NA,85.78863090472379,NA
87325,McKinley County,NM,NA,79.94395516413131,NA
87401,San Juan County,NM,NA,7.165732586068856,NA
87416,San Juan County,NM,NA,83.02642113690952,NA
87420,San Juan County,NM,NA,14.291433146517212,NA
87505,Santa Fe County,NM,NA,67.85428342674139,NA
87507,Santa Fe County,NM,NA,15.692554043234589,NA
87547,,NM,NA,97.19775820656525,NA
87701,San Miguel County,NM,NA,66.01281024819856,NA
87740,Colfax County,NM,NA,77.7822257806245,NA
88001,Doa Ana County,NM,32.21649484536083,60.64851881505204,NA
88005,Doa Ana County,NM,NA,23.218574859887912,NA
88011,Doa Ana County,NM,NA,30.66453162530024,NA
88101,Curry County,NM,4.381443298969072,32.14571657325861,NA
88130,Roosevelt County,NM,NA,NA,37.698412698412696
88201,Chaves County,NM,NA,16.813450760608486,36.11111111111111
88203,Chaves County,NM,NA,29.143314651721376,NA
88210,Eddy County,NM,NA,23.058446757405925,NA
88220,Eddy County,NM,NA,46.717373899119295,NA
88240,Lea County,NM,NA,2.0816653322658127,NA
88242,Lea County,NM,NA,91.55324259407526,NA
88310,Otero County,NM,NA,49.079263410728586,NA
88345,Lincoln County,NM,NA,48.919135308246595,NA
10001,New York County,NY,22.164948453608247,4.843875100080064,3.571428571428571
10009,New York County,NY,NA,57.44595676541233,NA
10011,New York County,NY,NA,87.95036028823058,NA
10018,New York County,NY,NA,82.74619695756606,NA
10025,New York County,NY,NA,NA,0.3968253968253968
10032,New York County,NY,NA,86.26901521216973,NA
10033,New York County,NY,NA,NA,16.26984126984127
10034,New York County,NY,NA,41.79343474779824,NA
10035,New York County,NY,NA,56.24499599679744,NA
10301,Richmond County,NY,NA,96.6773418734988,NA
10305,Richmond County,NY,NA,28.863090472377902,NA
10453,Bronx County,NY,NA,2.5620496397117694,NA
10454,Bronx County,NY,NA,2.481985588470777,NA
10457,Bronx County,NY,NA,11.20896717373899,NA
10458,Bronx County,NY,NA,0.12009607686148918,NA
10474,Bronx County,NY,NA,60.0480384307446,NA
10601,Westchester County,NY,NA,63.45076060848679,NA
10701,Westchester County,NY,NA,0.5604483586869495,NA
10804,Westchester County,NY,NA,70.53642914331465,NA
10940,Orange County,NY,NA,60.00800640512411,NA
11201,Kings County,NY,NA,30.824659727782226,NA
11203,Kings County,NY,NA,3.803042433947158,NA
11205,Kings County,NY,NA,36.86949559647718,NA
11211,Kings County,NY,NA,5.44435548438751,NA
11212,Kings County,NY,1.5463917525773196,NA,NA
11213,Kings County,NY,NA,10.608486789431545,NA
11215,Kings County,NY,NA,16.09287429943955,NA
11216,Kings County,NY,NA,84.94795836669336,NA
11224,Kings County,NY,NA,7.966373098478783,NA
11358,Queens County,NY,NA,62.69015212169736,NA
11361,Queens County,NY,76.80412371134021,NA,NA
11510,Nassau County,NY,32.47422680412371,NA,NA
11520,Nassau County,NY,NA,15.372297838270615,NA
11542,Nassau County,NY,89.94845360824742,NA,NA
11725,Suffolk County,NY,NA,99.51961569255404,NA
11729,Suffolk County,NY,NA,71.29703763010409,NA
11779,Suffolk County,NY,96.64948453608247,NA,NA
11783,Nassau County,NY,NA,86.50920736589272,NA
11967,Suffolk County,NY,NA,64.29143314651722,NA
11968,Suffolk County,NY,NA,87.18975180144115,NA
12020,Saratoga County,NY,NA,44.83586869495596,NA
12047,Albany County,NY,NA,13.210568454763811,NA
12110,Albany County,NY,NA,71.61729383506805,NA
12144,Rensselaer County,NY,NA,60.96877502001601,NA
12202,Albany County,NY,NA,12.289831865492394,NA
12309,Schenectady County,NY,NA,88.39071257005604,NA
12414,Greene County,NY,NA,55.40432345876701,NA
12534,Columbia County,NY,NA,NA,17.857142857142858
12946,Essex County,NY,NA,66.33306645316253,NA
13021,Cayuga County,NY,NA,7.526020816653323,NA
13045,Cortland County,NY,NA,56.44515612489992,NA
13057,Onondaga County,NY,NA,53.002401921537235,NA
13074,Oswego County,NY,NA,55.72457966373099,NA
13078,Onondaga County,NY,NA,98.35868694955965,NA
13131,Oswego County,NY,NA,68.09447558046438,NA
13202,Onondaga County,NY,NA,35.508406725380304,NA
13214,Onondaga County,NY,NA,89.59167333867094,NA
13440,Oneida County,NY,NA,5.2842273819055245,NA
13461,Oneida County,NY,NA,70.85668534827863,NA
13601,Jefferson County,NY,NA,9.247397918334668,NA
13619,Jefferson County,NY,NA,26.10088070456365,NA
13668,St. Lawrence County,NY,NA,86.78943154523618,NA
13732,Tioga County,NY,NA,25.22017614091273,NA
13748,Broome County,NY,NA,46.957566052842274,NA
13760,Broome County,NY,NA,54.283426741393114,NA
13790,Broome County,NY,NA,3.642914331465172,NA
13801,Chenango County,NY,NA,87.99039231385109,NA
13811,Tioga County,NY,NA,58.8070456365092,NA
13827,Tioga County,NY,26.804123711340207,9.727782225780626,NA
13830,Chenango County,NY,NA,86.70936749399519,NA
13850,Broome County,NY,92.5257731958763,6.405124099279423,NA
13901,Broome County,NY,NA,72.01761409127302,NA
14057,Erie County,NY,NA,88.59087269815853,NA
14063,Chautauqua County,NY,NA,79.14331465172137,NA
14072,Erie County,NY,42.78350515463917,48.11849479583667,NA
14075,Erie County,NY,NA,3.4027221777421937,NA
14086,Erie County,NY,NA,8.326661329063251,NA
14138,Cattaraugus County,NY,NA,86.94955964771817,NA
14141,Erie County,NY,NA,59.84787830264211,NA
14210,Erie County,NY,NA,11.969575660528422,NA
14214,Erie County,NY,NA,39.43154523618895,NA
14216,Erie County,NY,NA,12.930344275420335,NA
14224,Erie County,NY,NA,34.507606084867895,NA
14304,Niagara County,NY,NA,1.3610888710968776,NA
14305,Niagara County,NY,NA,1.8414731785428344,NA
14437,Livingston County,NY,NA,24.01921537229784,NA
14450,Monroe County,NY,84.02061855670104,NA,0.7936507936507936
14513,Wayne County,NY,NA,89.47157726180944,NA
14526,Monroe County,NY,NA,6.084867894315452,NA
14534,Monroe County,NY,NA,36.98959167333867,NA
14564,Ontario County,NY,NA,8.086469175340271,NA
14580,Monroe County,NY,NA,13.330664531625299,NA
14590,Wayne County,NY,NA,24.579663730984787,NA
14610,Monroe County,NY,NA,13.971176941553242,NA
14615,Monroe County,NY,NA,4.523618895116093,NA
14616,Monroe County,NY,NA,60.72858286629304,NA
14623,Monroe County,NY,NA,7.045636509207366,NA
14701,Chautauqua County,NY,NA,93.63490792634107,NA
14823,Steuben County,NY,NA,75.98078462770216,NA
14830,Steuben County,NY,NA,59.12730184147318,NA
14845,Chemung County,NY,NA,6.5652522017614094,NA
14850,Tompkins County,NY,NA,23.45876701361089,NA
14901,Chemung County,NY,NA,54.00320256204964,NA
27012,Forsyth County,NC,NA,69.05524419535628,NA
27023,Forsyth County,NC,NA,82.62610088070457,NA
27107,Forsyth County,NC,NA,NA,1.984126984126984
27127,Forsyth County,NC,2.5773195876288657,NA,NA
27215,Alamance County,NC,NA,17.8142514011209,NA
27253,Alamance County,NC,NA,25.86068855084067,NA
27265,Guilford County,NC,NA,90.67253803042435,NA
27301,Guilford County,NC,NA,77.74219375500401,NA
27313,Guilford County,NC,NA,66.25300240192153,NA
27350,Randolph County,NC,NA,74.69975980784628,NA
27403,Guilford County,NC,NA,43.274619695756606,NA
27513,Wake County,NC,NA,36.78943154523619,NA
27516,Orange County,NC,NA,54.88390712570056,NA
27523,Wake County,NC,82.21649484536083,NA,NA
27525,Franklin County,NC,NA,33.306645316253004,NA
27591,Wake County,NC,NA,NA,52.77777777777778
27610,Wake County,NC,2.8350515463917527,NA,NA
27614,Wake County,NC,NA,42.67413931144916,NA
27616,Wake County,NC,NA,8.927141713370697,NA
27858,Pitt County,NC,NA,92.99439551641314,NA
27893,Wilson County,NC,18.04123711340206,6.044835868694956,NA
28021,Gaston County,NC,NA,68.17453963170537,NA
28025,Cabarrus County,NC,20.876288659793815,NA,NA
28034,Gaston County,NC,NA,95.6765412329864,NA
28043,Rutherford County,NC,NA,20.336269015212167,NA
28071,Rowan County,NC,NA,93.15452361889511,NA
28117,Iredell County,NC,NA,85.90872698158527,NA
28138,Rowan County,NC,NA,37.42994395516413,NA
28203,Mecklenburg County,NC,58.76288659793815,NA,NA
28206,Mecklenburg County,NC,NA,21.617293835068054,NA
28210,Mecklenburg County,NC,24.742268041237114,NA,NA
28211,Mecklenburg County,NC,NA,83.82706164931946,NA
28215,Mecklenburg County,NC,NA,6.164931945556445,NA
28226,Mecklenburg County,NC,NA,67.45396317053643,NA
28277,Mecklenburg County,NC,NA,92.71417133706964,NA
28278,Mecklenburg County,NC,NA,72.2177742193755,NA
28327,Moore County,NC,NA,46.11689351481185,NA
28372,Robeson County,NC,55.412371134020624,NA,NA
28405,New Hanover County,NC,NA,17.01361088871097,NA
28409,New Hanover County,NC,NA,46.87750200160128,NA
28412,New Hanover County,NC,NA,6.204963971176942,NA
28443,Pender County,NC,NA,59.44755804643715,NA
28453,Duplin County,NC,NA,84.70776621297038,NA
28466,Duplin County,NC,NA,43.995196156925545,NA
28555,Onslow County,NC,NA,81.30504403522818,NA
28601,Catawba County,NC,NA,24.219375500400318,NA
28636,Alexander County,NC,NA,71.01681345076061,NA
28645,Caldwell County,NC,NA,1.00080064051241,NA
28658,Catawba County,NC,NA,88.871096877502,NA
28681,Alexander County,NC,NA,8.486789431545235,NA
28715,Buncombe County,NC,NA,27.061649319455565,NA
28748,Buncombe County,NC,NA,36.6693354683747,NA
28752,McDowell County,NC,NA,6.365092073658928,NA
28756,Polk County,NC,NA,76.26100880704564,NA
28762,McDowell County,NC,NA,56.04483586869495,NA
28779,Jackson County,NC,NA,33.066453162530024,NA
28787,Buncombe County,NC,53.608247422680414,NA,NA
28804,Buncombe County,NC,NA,94.75580464371497,NA
28806,Buncombe County,NC,NA,NA,40.476190476190474
28906,Cherokee County,NC,NA,27.18174539631705,28.968253968253972
58103,Cass County,ND,NA,13.690952762209768,NA
58316,Rolette County,ND,NA,95.27622097678142,NA
58329,Rolette County,ND,NA,NA,97.61904761904762
58401,Stutsman County,ND,NA,47.35788630904724,NA
58501,Burleigh County,ND,NA,75.18014411529224,NA
58601,Stark County,ND,NA,62.81024819855885,NA
58701,Ward County,ND,NA,4.1633306645316255,NA
58763,Mountrail County,ND,NA,94.31545236188951,NA
43011,Knox County,OH,NA,62.73018414731786,NA
43017,Franklin County,OH,NA,61.849479583666934,NA
43026,Franklin County,OH,NA,45.35628502802242,NA
43055,Licking County,OH,NA,35.268214571657325,9.920634920634921
43068,Franklin County,OH,NA,32.54603682946357,NA
43078,Champaign County,OH,NA,16.172938350680543,NA
43110,Franklin County,OH,NA,65.25220176140913,NA
43113,Pickaway County,OH,NA,5.3642914331465175,NA
43130,Fairfield County,OH,12.628865979381443,4.643714971977582,NA
43160,Fayette County,OH,NA,5.204163330664532,NA
43204,Franklin County,OH,NA,1.8815052041633307,NA
43205,Franklin County,OH,NA,24.77982385908727,NA
43206,Franklin County,OH,NA,4.763811048839071,NA
43207,Franklin County,OH,NA,12.249799839871898,NA
43220,Franklin County,OH,NA,90.71257005604484,NA
43228,Franklin County,OH,NA,74.4195356285028,NA
43229,Franklin County,OH,NA,2.321857485988791,NA
43232,Franklin County,OH,0,NA,NA
43528,Lucas County,OH,NA,20.616493194555645,NA
43560,Lucas County,OH,NA,50.08006405124099,NA
43612,Lucas County,OH,NA,1.2409927942353884,NA
43701,Muskingum County,OH,NA,12.770216172938351,NA
43724,Noble County,OH,NA,52.32185748598879,NA
43725,Guernsey County,OH,NA,5.964771817453964,NA
43756,Morgan County,OH,NA,77.94235388310649,NA
43920,Columbiana County,OH,NA,3.6028823058446755,NA
43947,Belmont County,OH,NA,51.80144115292234,NA
44004,Ashtabula County,OH,NA,NA,1.5873015873015872
44017,Cuyahoga County,OH,NA,17.974379503602883,NA
44030,Ashtabula County,OH,34.02061855670103,NA,NA
44070,Cuyahoga County,OH,NA,10.0080064051241,NA
44077,Lake County,OH,NA,NA,1.1904761904761905
44094,Lake County,OH,NA,79.06325060048039,NA
44102,Cuyahoga County,OH,NA,0.040032025620496396,NA
44104,Cuyahoga County,OH,NA,1.1609287429943955,NA
44105,Cuyahoga County,OH,NA,2.2017614091273017,NA
44109,Cuyahoga County,OH,NA,0.16012810248198558,NA
44123,Cuyahoga County,OH,NA,12.810248198558845,NA
44130,Cuyahoga County,OH,NA,32.305844675740595,NA
44203,Summit County,OH,NA,92.91433146517214,NA
44216,Summit County,OH,NA,36.54923939151321,NA
44223,Summit County,OH,NA,25.780624499599682,NA
44254,Medina County,OH,77.57731958762886,NA,NA
44255,Portage County,OH,NA,48.478783026421134,NA
44256,Medina County,OH,NA,1.120896717373899,NA
44278,Summit County,OH,NA,35.38831064851882,42.06349206349206
44281,Medina County,OH,NA,82.42594075260207,NA
44306,Summit County,OH,NA,17.493995196156924,NA
44310,Summit County,OH,NA,4.2033626901521215,19.841269841269842
44312,Summit County,OH,NA,24.299439551641314,NA
44314,Summit County,OH,NA,50.96076861489192,NA
44333,Summit County,OH,NA,45.75660528422738,NA
44460,Columbiana County,OH,NA,NA,5.555555555555555
44505,Mahoning County,OH,NA,14.931945556445156,NA
44507,Mahoning County,OH,NA,29.263410728582866,NA
44601,Stark County,OH,NA,2.8823058446757406,NA
44614,Stark County,OH,NA,71.41713370696557,NA
44667,Wayne County,OH,NA,39.43154523618895,NA
44685,Summit County,OH,NA,24.699759807846277,NA
44688,Stark County,OH,NA,91.43314651721377,NA
44805,Ashland County,OH,NA,NA,2.7777777777777777
44820,Crawford County,OH,NA,9.567654123298638,NA
44875,Richland County,OH,NA,20.97678142514011,NA
44883,Seneca County,OH,16.752577319587626,NA,NA
45014,Butler County,OH,NA,5.924739791833467,NA
45036,Warren County,OH,NA,8.606885508406725,NA
45042,Butler County,OH,NA,55.684547638110494,NA
45069,Butler County,OH,NA,32.46597277822258,NA
45107,Clinton County,OH,NA,84.58767013610888,NA
45121,Brown County,OH,NA,46.35708566853482,NA
45140,Clermont County,OH,NA,81.42514011208966,NA
45205,Hamilton County,OH,36.08247422680412,NA,NA
45216,Hamilton County,OH,NA,33.066453162530024,NA
45227,Hamilton County,OH,NA,26.58126501200961,NA
45255,Hamilton County,OH,NA,41.353082465972776,NA
45345,Montgomery County,OH,NA,62.32986389111289,NA
45371,Miami County,OH,NA,68.454763811048835,NA
45403,Montgomery County,OH,NA,18.214571657325862,NA
45414,Montgomery County,OH,NA,38.43074459567654,NA
45417,Montgomery County,OH,NA,3.322658126501201,NA
45426,Montgomery County,OH,28.350515463917525,NA,NA
45429,Montgomery County,OH,NA,23.65892714171337,NA
45619,Lawrence County,OH,NA,NA,51.98412698412699
45629,Scioto County,OH,NA,58.48678943154524,NA
45638,Lawrence County,OH,7.989690721649484,NA,NA
45662,Scioto County,OH,NA,7.005604483586869,NA
45686,Gallia County,OH,NA,60.608486789431545,NA
45750,Washington County,OH,NA,0.600480384307446,NA
45760,Meigs County,OH,NA,59.167333867093674,NA
45769,Meigs County,OH,NA,38.630904723779025,NA
45784,Washington County,OH,NA,93.67493995196156,NA
45875,Putnam County,OH,NA,NA,68.65079365079364
73003,Oklahoma County,OK,NA,39.79183346677342,NA
73012,Oklahoma County,OK,NA,73.2986389111289,NA
73020,Oklahoma County,OK,NA,21.45716573258607,NA
73025,Oklahoma County,OK,69.58762886597938,NA,NA
73051,Cleveland County,OK,NA,67.65412329863891,NA
73071,Cleveland County,OK,NA,65.21216973578862,NA
73075,Garvin County,OK,NA,63.090472377902316,NA
73099,Canadian County,OK,NA,37.99039231385108,NA
73107,Oklahoma County,OK,14.948453608247423,29.823859087269817,NA
73111,Oklahoma County,OK,NA,39.59167333867094,NA
73112,Oklahoma County,OK,NA,17.614091273018413,NA
73119,Oklahoma County,OK,NA,47.99839871897518,NA
73120,Oklahoma County,OK,NA,22.65812650120096,NA
73132,Oklahoma County,OK,NA,31.785428342674138,NA
73135,Oklahoma County,OK,63.4020618556701,NA,NA
73159,Oklahoma County,OK,42.78350515463917,NA,NA
73162,Oklahoma County,OK,NA,95.75660528422738,NA
73170,Cleveland County,OK,NA,39.911929543634905,NA
73401,Carter County,OK,NA,76.30104083266613,NA
73501,Comanche County,OK,NA,59.04723779023219,NA
73533,Stephens County,OK,NA,73.2586068855084,NA
73701,Garfield County,OK,NA,25.060048038430743,NA
74003,Osage County,OK,68.29896907216495,39.51160928742994,NA
74012,Tulsa County,OK,NA,87.7502001601281,NA
74015,Rogers County,OK,NA,98.59887910328263,NA
74017,Rogers County,OK,37.371134020618555,NA,NA
74019,Rogers County,OK,NA,64.61168935148119,NA
74021,Tulsa County,OK,NA,46.35708566853482,NA
74033,Tulsa County,OK,NA,59.48759007205765,NA
74037,Tulsa County,OK,NA,82.38590872698158,NA
74063,Tulsa County,OK,NA,33.586869495596474,NA
74066,Creek County,OK,NA,NA,34.523809523809526
74104,Tulsa County,OK,NA,60.76861489191353,NA
74105,Tulsa County,OK,NA,19.695756605284227,NA
74108,Tulsa County,OK,NA,NA,95.23809523809523
74114,Tulsa County,OK,NA,64.3714971977582,NA
74128,Tulsa County,OK,NA,52.1617293835068,NA
74135,Tulsa County,OK,NA,54.763811048839074,NA
74136,Tulsa County,OK,62.628865979381445,NA,NA
74137,Tulsa County,OK,NA,52.842273819055244,NA
74145,Tulsa County,OK,37.371134020618555,NA,NA
74146,Tulsa County,OK,NA,40.632506004803844,NA
74401,Muskogee County,OK,NA,49.27942353883106,54.761904761904766
74403,Muskogee County,OK,NA,15.932746196957567,NA
74429,Wagoner County,OK,NA,53.20256204963971,NA
74435,Sequoyah County,OK,NA,84.4275420336269,NA
74462,Haskell County,OK,NA,51.601281024819855,NA
74464,Cherokee County,OK,NA,41.75340272217774,NA
74501,Pittsburg County,OK,NA,28.462770216172938,NA
74525,Atoka County,OK,NA,79.22337870296236,NA
74571,Le Flore County,OK,NA,83.86709367493995,NA
74601,Kay County,OK,NA,23.819055244195354,NA
74764,McCurtain County,OK,NA,97.11769415532426,NA
74801,Pottawatomie County,OK,NA,59.56765412329864,NA
74804,Pottawatomie County,OK,NA,40.832666132906326,NA
74834,Lincoln County,OK,NA,69.09527622097679,NA
74859,Okfuskee County,OK,NA,68.69495596477182,NA
74881,Lincoln County,OK,NA,94.67574059247397,NA
74960,Adair County,OK,NA,12.049639711769416,NA
97005,Washington County,OR,NA,26.381104883907124,NA
97009,Clackamas County,OR,NA,67.25380304243394,NA
97013,Clackamas County,OR,NA,60.448358686949554,NA
97027,Clackamas County,OR,NA,54.723779023218576,NA
97030,Multnomah County,OR,24.22680412371134,26.98158526821457,NA
97034,Clackamas County,OR,NA,83.90712570056044,NA
97045,Clackamas County,OR,NA,74.61969575660528,NA
97051,Columbia County,OR,59.5360824742268,37.30984787830264,NA
97070,Clackamas County,OR,NA,37.67013610888711,NA
97080,Multnomah County,OR,NA,49.91993594875901,NA
97086,Clackamas County,OR,NA,56.6853482786229,NA
97123,Washington County,OR,NA,30.384307445956765,NA
97128,Yamhill County,OR,60.30927835051546,7.7261809447558045,NA
97132,Yamhill County,OR,NA,20.09607686148919,NA
97140,Washington County,OR,NA,70.0160128102482,NA
97141,Tillamook County,OR,NA,39.03122497998399,NA
97203,Multnomah County,OR,NA,20.85668534827862,NA
97206,Multnomah County,OR,NA,5.244195356285028,NA
97209,Multnomah County,OR,NA,73.93915132105685,NA
97210,Multnomah County,OR,NA,84.74779823859087,NA
97211,Multnomah County,OR,40.4639175257732,24.13931144915933,NA
97212,Multnomah County,OR,NA,63.85108086469175,NA
97213,Multnomah County,OR,96.90721649484536,59.28742994395516,NA
97214,Multnomah County,OR,NA,48.19855884707766,NA
97217,Multnomah County,OR,NA,21.537229783827062,NA
97218,Multnomah County,OR,NA,93.75500400320256,NA
97219,Multnomah County,OR,NA,96.47718174539631,NA
97220,Multnomah County,OR,NA,43.47477982385909,NA
97221,Multnomah County,OR,NA,89.91192954363491,NA
97222,Clackamas County,OR,NA,14.131305044035228,NA
97224,Washington County,OR,NA,NA,34.12698412698413
97227,Multnomah County,OR,NA,88.15052041633307,NA
97230,Multnomah County,OR,NA,NA,10.714285714285714
97232,Multnomah County,OR,NA,59.167333867093674,NA
97233,Multnomah County,OR,NA,6.485188150520416,NA
97236,Multnomah County,OR,NA,29.303442754203363,25.793650793650798
97239,Multnomah County,OR,90.97938144329896,NA,NA
97266,Multnomah County,OR,NA,78.06244995996798,NA
97301,Marion County,OR,18.556701030927837,NA,NA
97302,Marion County,OR,NA,49.119295436349084,NA
97304,Polk County,OR,NA,33.46677341873499,53.17460317460318
97322,Linn County,OR,NA,NA,45.63492063492063
97330,Benton County,OR,NA,28.78302642113691,NA
97333,Benton County,OR,92.0103092783505,NA,NA
97355,Linn County,OR,NA,4.603682946357086,NA
97374,Linn County,OR,NA,87.42994395516413,NA
97378,Yamhill County,OR,NA,62.289831865492395,90.07936507936508
97386,Linn County,OR,NA,26.701361088871096,NA
97401,Lane County,OR,41.49484536082475,20.416333066453163,NA
97402,Lane County,OR,NA,8.566853482786229,NA
97404,Lane County,OR,NA,71.57726180944756,NA
97405,Lane County,OR,NA,69.57566052842273,NA
97420,Coos County,OR,NA,27.542033626901517,NA
97424,Lane County,OR,NA,91.51321056845477,NA
97439,Lane County,OR,NA,36.429143314651725,NA
97458,Coos County,OR,NA,90.43234587670136,NA
97459,Coos County,OR,NA,59.72778222578062,NA
97462,Douglas County,OR,NA,76.18094475580465,NA
97470,Douglas County,OR,82.9896907216495,14.531625300240192,NA
97471,Douglas County,OR,NA,7.245796637309848,NA
97477,Lane County,OR,NA,10.44835868694956,NA
97501,Jackson County,OR,NA,49.83987189751801,NA
97502,Jackson County,OR,NA,96.91753402722178,NA
97503,Jackson County,OR,72.42268041237114,NA,NA
97504,Jackson County,OR,NA,56.6453162530024,9.523809523809524
97526,Josephine County,OR,NA,50.200160128102475,NA
97527,Josephine County,OR,NA,50.44035228182546,NA
97601,Klamath County,OR,NA,7.285828662930344,NA
97603,Klamath County,OR,NA,8.1265012009607691,NA
97630,Lake County,OR,NA,99.15932746196957,NA
97701,Deschutes County,OR,NA,72.89831865492394,NA
97703,Deschutes County,OR,70.61855670103093,76.90152121697358,NA
97739,Deschutes County,OR,NA,NA,66.66666666666666
97754,Crook County,OR,NA,64.73178542834268,NA
97756,Deschutes County,OR,NA,NA,18.253968253968253
97759,Deschutes County,OR,NA,88.47077662129705,NA
97760,Jefferson County,OR,NA,97.51801441152922,NA
97801,Umatilla County,OR,NA,43.074459567654124,24.206349206349206
97814,Baker County,OR,NA,22.81825460368295,NA
97850,Union County,OR,NA,20.496397117694155,27.380952380952383
97882,Umatilla County,OR,NA,57.96637309847878,NA
15010,Beaver County,PA,NA,57.12570056044836,NA
15068,Westmoreland County,PA,NA,28.502802241793436,NA
15120,Allegheny County,PA,NA,24.419535628502803,NA
15136,Allegheny County,PA,NA,14.251401120896718,NA
15227,Allegheny County,PA,NA,19.21537229783827,NA
15301,Washington County,PA,NA,2.3618895116092875,NA
15801,Clearfield County,PA,NA,3.122497998398719,NA
15857,Elk County,PA,NA,11.809447558046438,NA
15902,Cambria County,PA,NA,23.338670936749402,NA
16001,Butler County,PA,NA,71.0568454763811,NA
16002,Butler County,PA,NA,32.986389111289036,NA
16121,Mercer County,PA,NA,45.99679743795036,NA
16301,Venango County,PA,NA,52.802241793434746,NA
16335,Crawford County,PA,NA,18.8951160928743,NA
16602,Blair County,PA,27.835051546391753,NA,NA
17003,Lebanon County,PA,NA,94.59567654123299,NA
17042,Lebanon County,PA,NA,1.4411529223378703,NA
17046,Lebanon County,PA,NA,3.843074459567654,NA
17067,Lebanon County,PA,NA,39.911929543634905,NA
17102,Dauphin County,PA,NA,74.5396317053643,NA
17104,Dauphin County,PA,NA,7.44595676541233,NA
17109,Dauphin County,PA,NA,34.62770216172938,NA
17110,Dauphin County,PA,NA,6.285028022417935,NA
17202,Franklin County,PA,NA,85.26821457165732,NA
17225,Franklin County,PA,NA,94.35548438751002,NA
17321,York County,PA,NA,NA,98.4126984126984
17516,Lancaster County,PA,NA,99.87990392313851,NA
17540,Lancaster County,PA,NA,53.88310648518815,NA
17545,Lancaster County,PA,NA,70.77662129703764,NA
17603,Lancaster County,PA,NA,3.7630104083266613,NA
17777,Northumberland County,PA,NA,70.61649319455564,NA
17872,Northumberland County,PA,NA,21.21697357886309,NA
17901,Schuylkill County,PA,NA,11.529223378702962,NA
17954,Schuylkill County,PA,NA,60.088070456365095,NA
17972,Schuylkill County,PA,NA,37.99039231385108,NA
17976,Schuylkill County,PA,91.75257731958763,NA,NA
18013,Northampton County,PA,NA,18.57485988791033,NA
18032,Lehigh County,PA,NA,59.84787830264211,NA
18042,Northampton County,PA,NA,1.8014411529223378,NA
18067,Northampton County,PA,NA,74.85988791032825,NA
18071,Carbon County,PA,NA,28.502802241793436,NA
18091,Northampton County,PA,NA,78.82305844675741,NA
18102,Lehigh County,PA,NA,0.3602882305844676,NA
18201,Luzerne County,PA,NA,NA,21.825396825396826
18202,Luzerne County,PA,NA,26.10088070456365,NA
18235,Carbon County,PA,35.824742268041234,NA,NA
18240,Carbon County,PA,NA,81.58526821457166,NA
18252,Schuylkill County,PA,NA,84.06725380304243,NA
18421,Susquehanna County,PA,NA,73.37870296236989,NA
18428,Pike County,PA,NA,94.07526020816654,NA
18444,Lackawanna County,PA,NA,34.54763811048839,NA
18504,Lackawanna County,PA,NA,54.4435548438751,NA
18641,Luzerne County,PA,NA,63.090472377902316,NA
18704,Luzerne County,PA,NA,NA,10.317460317460316
18840,Bradford County,PA,NA,86.10888710968774,NA
18930,Bucks County,PA,NA,99.43955164131305,NA
18938,Bucks County,PA,NA,75.6204963971177,NA
18969,Montgomery County,PA,NA,90.55244195356285,NA
18974,Bucks County,PA,NA,NA,8.333333333333332
18976,Bucks County,PA,55.670103092783506,NA,NA
19006,Montgomery County,PA,NA,85.5084067253803,NA
19007,Bucks County,PA,36.340206185567006,11.409127301841474,NA
19012,Montgomery County,PA,NA,90.31224979983988,NA
19013,Delaware County,PA,NA,0.9607686148919135,NA
19020,Bucks County,PA,14.690721649484537,73.13851080864691,NA
19022,Delaware County,PA,NA,75.54043234587671,NA
19026,Delaware County,PA,NA,27.141713370696557,NA
19029,Delaware County,PA,NA,76.18094475580465,NA
19030,Bucks County,PA,87.88659793814433,NA,NA
19041,Delaware County,PA,NA,96.27702161729384,NA
19044,Montgomery County,PA,NA,38.470776621297034,NA
19047,Bucks County,PA,NA,49.43955164131305,NA
19053,Bucks County,PA,NA,14.89191353082466,NA
19054,Bucks County,PA,NA,NA,79.76190476190477
19055,Bucks County,PA,NA,30.424339471577262,NA
19104,Philadelphia County,PA,NA,87.38991192954364,NA
19107,Philadelphia County,PA,NA,50.600480384307446,NA
19111,Philadelphia County,PA,NA,18.614891913530823,NA
19114,Philadelphia County,PA,NA,28.422738190552444,NA
19121,Philadelphia County,PA,NA,16.293034427542032,NA
19124,Philadelphia County,PA,NA,0.4003202562049639,NA
19126,Philadelphia County,PA,NA,41.47317854283427,NA
19128,Philadelphia County,PA,NA,7.7261809447558045,NA
19132,Philadelphia County,PA,25.257731958762886,1.9615692554043236,NA
19134,Philadelphia County,PA,NA,75.10008006405124,NA
19135,Philadelphia County,PA,NA,58.9671737389912,NA
19136,Philadelphia County,PA,NA,86.6293034427542,NA
19137,Philadelphia County,PA,NA,86.54923939151321,NA
19144,Philadelphia County,PA,NA,NA,7.5396825396825395
19145,Philadelphia County,PA,NA,27.90232185748599,NA
19146,Philadelphia County,PA,NA,68.57485988791034,NA
19154,Philadelphia County,PA,NA,6.325060048038431,NA
19312,Chester County,PA,NA,97.31785428342674,NA
19320,Chester County,PA,NA,3.722978382706165,NA
19350,Chester County,PA,NA,93.79503602882305,NA
19355,Chester County,PA,NA,79.02321857485988,NA
19403,Montgomery County,PA,NA,7.606084867894316,NA
19446,Montgomery County,PA,NA,6.00480384307446,NA
19460,Chester County,PA,NA,33.18654923939151,NA
19462,Montgomery County,PA,NA,25.66052842273819,NA
19464,Montgomery County,PA,NA,11.128903122497999,NA
19473,Montgomery County,PA,NA,57.16573258606885,NA
19475,Chester County,PA,NA,51.20096076861489,NA
19518,Berks County,PA,NA,97.59807846277022,NA
19529,Berks County,PA,NA,99.43955164131305,NA
19605,Berks County,PA,NA,77.58206565252202,NA
19606,Berks County,PA,NA,4.283426741393114,NA
02814,Providence County,RI,NA,59.687750200160124,NA
02852,Washington County,RI,NA,23.979183346677342,NA
02895,Providence County,RI,NA,4.683746997598078,NA
29016,Richland County,SC,88.65979381443299,NA,NA
29072,Lexington County,SC,NA,12.369895916733388,NA
29301,Spartanburg County,SC,NA,15.01200960768615,NA
29307,Spartanburg County,SC,NA,37.06965572457966,NA
29316,Spartanburg County,SC,32.98969072164948,NA,NA
29323,Spartanburg County,SC,NA,31.545236188951158,NA
29360,Laurens County,SC,NA,47.397918334667736,NA
29407,Charleston County,SC,NA,20.056044835868693,NA
29456,Dorchester County,SC,NA,17.45396317053643,NA
29483,Dorchester County,SC,NA,7.085668534827862,NA
29501,Florence County,SC,NA,15.052041633306645,NA
29577,Horry County,SC,NA,38.150520416333066,47.22222222222222
29605,Greenville County,SC,NA,NA,44.44444444444444
29609,Greenville County,SC,NA,21.297037630104082,NA
29621,Anderson County,SC,NA,18.254603682946357,NA
29627,Anderson County,SC,NA,35.10808646917534,NA
29661,Greenville County,SC,NA,65.05204163330664,NA
57103,Minnehaha County,SD,NA,58.887109687750204,NA
57104,Minnehaha County,SD,NA,13.730984787830264,NA
57105,Minnehaha County,SD,NA,25.420336269015216,NA
57350,Beadle County,SD,NA,32.42594075260208,NA
57401,Brown County,SD,54.123711340206185,7.365892714171338,NA
57501,Hughes County,SD,40.97938144329897,NA,NA
57555,Todd County,SD,NA,91.39311449159328,NA
37025,Hickman County,TN,NA,61.92954363490792,NA
37027,Williamson County,TN,75.51546391752578,97.67814251401121,NA
37040,Montgomery County,TN,NA,33.78702962369896,NA
37042,Montgomery County,TN,NA,83.10648518815053,NA
37055,Dickson County,TN,NA,48.95916733386709,NA
37058,Stewart County,TN,NA,68.8550840672538,NA
37064,Williamson County,TN,NA,72.2978382706165,NA
37072,Davidson County,TN,31.70103092783505,14.811849479583666,NA
37075,Sumner County,TN,NA,6.6052842273819055,NA
37076,Davidson County,TN,NA,17.33386709367494,NA
37080,Davidson County,TN,NA,51.48118494795837,NA
37087,Wilson County,TN,NA,86.30904723779024,NA
37091,Marshall County,TN,NA,20.336269015212167,NA
37098,Hickman County,TN,NA,74.45956765412329,NA
37101,Humphreys County,TN,NA,49.119295436349084,NA
37110,Warren County,TN,NA,25.980784627702164,NA
37115,Davidson County,TN,NA,20.816653322658127,NA
37129,Rutherford County,TN,NA,6.885508406725379,NA
37130,Rutherford County,TN,NA,63.17053642914331,NA
37138,Davidson County,TN,NA,74.77982385908727,NA
37160,Bedford County,TN,11.34020618556701,NA,NA
37166,DeKalb County,TN,NA,91.2730184147318,NA
37212,Davidson County,TN,88.4020618556701,99.03923138510808,NA
37218,Davidson County,TN,NA,29.063250600480384,NA
37303,McMinn County,TN,NA,68.9351481184948,NA
37311,Bradley County,TN,NA,42.47397918334668,NA
37312,Bradley County,TN,NA,23.058446757405925,NA
37321,Rhea County,TN,NA,37.59007205764612,NA
37330,Franklin County,TN,NA,83.06645316253002,NA
37347,Marion County,TN,NA,85.70856685348278,NA
37354,Monroe County,TN,35.051546391752574,NA,NA
37355,Coffee County,TN,NA,42.63410728582866,NA
37357,Warren County,TN,NA,83.42674139311448,NA
37363,Hamilton County,TN,NA,47.71817453963171,NA
37370,McMinn County,TN,NA,68.25460368294635,NA
37380,Marion County,TN,NA,55.32425940752602,NA
37381,Rhea County,TN,NA,92.11369095276221,NA
37385,Monroe County,TN,NA,NA,59.12698412698413
37388,Coffee County,TN,NA,40.99279423538831,NA
37398,Franklin County,TN,NA,95.87670136108886,53.57142857142857
37411,Hamilton County,TN,NA,91.67333867093676,NA
37604,Washington County,TN,NA,29.46357085668535,NA
37642,Hawkins County,TN,NA,27.34187349879904,NA
37659,Washington County,TN,NA,43.95516413130505,NA
37660,Sullivan County,TN,NA,3.242594075260208,NA
37687,Carter County,TN,NA,95.07606084867895,NA
37716,Anderson County,TN,NA,18.975180144115292,NA
37725,Jefferson County,TN,NA,30.10408326661329,NA
37743,Greene County,TN,NA,21.977582065652523,NA
37745,Greene County,TN,NA,34.90792634107286,NA
37748,Roane County,TN,27.31958762886598,NA,NA
37755,Scott County,TN,NA,90.55244195356285,NA
37766,Campbell County,TN,NA,43.755004003202565,NA
37771,Loudon County,TN,NA,31.545236188951158,NA
37777,Blount County,TN,NA,36.06885508406725,NA
37813,Hamblen County,TN,NA,12.970376301040831,NA
37820,Jefferson County,TN,NA,60.24819855884708,NA
37857,Hawkins County,TN,NA,42.15372297838271,NA
37862,Sevier County,TN,NA,59.607686148919136,NA
37874,Monroe County,TN,NA,47.27782225780624,NA
37876,Sevier County,TN,NA,41.91353082465973,NA
37879,Claiborne County,TN,NA,67.37389911929543,NA
37909,Knox County,TN,NA,78.22257806244995,NA
37912,Knox County,TN,NA,13.771016813450759,NA
37917,Knox County,TN,NA,6.925540432345876,NA
37918,Knox County,TN,7.731958762886598,88.11048839071258,NA
37920,Knox County,TN,NA,20.176140912730183,NA
38006,Crockett County,TN,NA,78.9031224979984,NA
38011,Tipton County,TN,NA,67.7742193755004,NA
38017,Shelby County,TN,NA,71.69735788630905,NA
38024,Dyer County,TN,NA,10.688550840672537,NA
38052,Hardeman County,TN,NA,86.38911128903123,NA
38053,Shelby County,TN,NA,26.421136909527622,NA
38107,Shelby County,TN,NA,87.7101681345076,NA
38122,Shelby County,TN,NA,57.20576461168935,NA
38128,Shelby County,TN,NA,8.286629303442753,NA
38201,Carroll County,TN,NA,53.56285028022418,NA
38237,Weakley County,TN,NA,72.25780624499599,NA
38242,Henry County,TN,NA,65.01200960768615,NA
38261,Obion County,TN,NA,60.32826261008807,NA
38310,McNairy County,TN,NA,59.00720576461169,NA
38315,McNairy County,TN,NA,79.74379503602881,NA
38344,Carroll County,TN,NA,47.43795036028823,NA
38351,Henderson County,TN,NA,55.84467574059248,NA
38372,Hardin County,TN,39.948453608247426,54.24339471577262,NA
38401,Maury County,TN,NA,14.011208967173738,NA
38451,Maury County,TN,97.42268041237114,NA,NA
38464,Lawrence County,TN,NA,55.564451561248994,NA
38474,Maury County,TN,NA,53.16253002401922,NA
38483,Lawrence County,TN,NA,85.42834267413932,NA
38501,Putnam County,TN,NA,79.66373098478783,NA
38555,Cumberland County,TN,NA,20.21617293835068,NA
38570,Overton County,TN,NA,44.4755804643715,NA
38585,Van Buren County,TN,NA,88.75100080064051,NA
75035,Collin County,TX,NA,60.12810248198559,NA
75069,Collin County,TX,NA,26.661329063250598,NA
75070,Collin County,TX,NA,40.152121697357884,7.936507936507936
75071,Collin County,TX,NA,97.27782225780625,NA
75090,Grayson County,TX,NA,26.220976781425144,NA
75094,Collin County,TX,70.61855670103093,NA,NA
75098,Collin County,TX,NA,64.17133706965572,NA
75104,Dallas County,TX,NA,65.33226581265012,NA
75114,Kaufman County,TX,NA,97.39791833466774,NA
75115,Dallas County,TX,NA,9.88791032826261,51.587301587301596
75143,Henderson County,TX,NA,97.63811048839072,NA
75150,Dallas County,TX,NA,10.168134507606084,NA
75156,Henderson County,TX,57.47422680412371,26.941553242594075,NA
75167,Ellis County,TX,NA,75.70056044835869,NA
75201,Dallas County,TX,86.85567010309279,NA,NA
75204,Dallas County,TX,NA,36.46917534027222,NA
75206,Dallas County,TX,NA,28.30264211369095,NA
75211,Dallas County,TX,NA,28.502802241793436,NA
75214,Dallas County,TX,NA,24.059247397918334,NA
75217,Dallas County,TX,3.865979381443299,NA,NA
75219,Dallas County,TX,NA,29.383506805444355,NA
75228,Dallas County,TX,NA,2.44195356285028,NA
75234,Dallas County,TX,22.68041237113402,NA,NA
75248,Dallas County,TX,NA,34.22738190552442,NA
75410,Wood County,TX,NA,68.61489191353083,NA
75442,Collin County,TX,77.0618556701031,NA,NA
75454,Collin County,TX,NA,98.75900720576462,NA
75460,Lamar County,TX,NA,33.746997598078465,NA
75601,Gregg County,TX,NA,70.25620496397119,NA
75644,Upshur County,TX,NA,44.63570856685348,NA
75670,Harrison County,TX,38.402061855670105,NA,NA
75686,Camp County,TX,NA,58.72698158526821,NA
75751,Henderson County,TX,NA,51.601281024819855,NA
75785,Cherokee County,TX,NA,43.87510008006405,NA
75840,Freestone County,TX,NA,72.337870296237,NA
75901,Angelina County,TX,45.876288659793815,NA,NA
75951,Jasper County,TX,NA,27.702161729383505,NA
76002,Tarrant County,TX,NA,33.38670936749399,NA
76006,Tarrant County,TX,83.50515463917526,NA,NA
76009,Johnson County,TX,NA,74.13931144915932,NA
76013,Tarrant County,TX,NA,38.59087269815853,NA
76020,Tarrant County,TX,NA,13.851080864691752,NA
76022,Tarrant County,TX,NA,58.366693354683754,NA
76028,Johnson County,TX,NA,34.70776621297038,NA
76033,Johnson County,TX,NA,18.134507606084867,NA
76039,Tarrant County,TX,NA,80.30424339471577,NA
76048,Hood County,TX,28.865979381443296,NA,NA
76063,Tarrant County,TX,NA,24.339471577261808,NA
76102,Tarrant County,TX,NA,47.8382706164932,NA
76104,Tarrant County,TX,25.773195876288657,31.66533226581265,NA
76105,Tarrant County,TX,NA,29.02321857485989,NA
76108,Tarrant County,TX,NA,45.87670136108887,NA
76114,Tarrant County,TX,NA,23.53883106485188,NA
76115,Tarrant County,TX,42.2680412371134,NA,NA
76132,Tarrant County,TX,NA,NA,94.84126984126983
76133,Tarrant County,TX,NA,7.926341072858286,NA
76137,Tarrant County,TX,NA,30.50440352281825,NA
76179,Tarrant County,TX,NA,62.570056044835866,NA
76180,Tarrant County,TX,NA,69.65572457966374,NA
76210,Denton County,TX,NA,81.38510808646917,55.158730158730165
76227,Denton County,TX,NA,41.03282626100881,NA
76258,Denton County,TX,NA,90.0720576461169,NA
76266,Denton County,TX,73.4536082474227,63.771016813450764,NA
76365,Clay County,TX,77.57731958762886,NA,NA
76424,Stephens County,TX,NA,86.06885508406725,NA
76426,Wise County,TX,NA,66.09287429943956,NA
76501,Bell County,TX,NA,5.844675740592474,NA
76502,Bell County,TX,9.02061855670103,6.244995996797438,NA
76504,Bell County,TX,5.154639175257731,4.043234587670136,NA
76528,Coryell County,TX,NA,37.59007205764612,NA
76543,Bell County,TX,7.216494845360824,NA,NA
76574,Williamson County,TX,NA,53.48278622898318,NA
76707,McLennan County,TX,6.701030927835052,NA,NA
76708,McLennan County,TX,NA,25.90072057646117,NA
76710,McLennan County,TX,NA,31.265012009607684,NA
76901,Tom Green County,TX,NA,27.42193755004003,NA
76903,Tom Green County,TX,NA,22.497998398718973,NA
76905,Tom Green County,TX,NA,70.57646116893514,NA
77004,Harris County,TX,NA,36.949559647718175,NA
77008,Harris County,TX,NA,93.23458767013611,NA
77018,Harris County,TX,91.23711340206185,94.03522818254604,NA
77024,Harris County,TX,67.78350515463917,62.48999199359487,NA
77036,Harris County,TX,25,NA,NA
77044,Harris County,TX,NA,18.054443554843875,NA
77054,Harris County,TX,NA,52.40192153722978,NA
77060,Harris County,TX,NA,37.26981585268215,NA
77064,Harris County,TX,NA,58.8070456365092,NA
77069,Harris County,TX,85.56701030927834,NA,NA
77076,Harris County,TX,NA,93.95516413130505,NA
77079,Harris County,TX,NA,71.1369095276221,NA
77085,Harris County,TX,NA,80.10408326661329,NA
77087,Harris County,TX,NA,58.60688550840673,NA
77095,Harris County,TX,NA,27.101681345076063,NA
77096,Harris County,TX,NA,35.22818254603683,NA
77304,Montgomery County,TX,89.17525773195877,92.79423538831065,NA
77327,Liberty County,TX,NA,40.0320256204964,NA
77346,Harris County,TX,NA,8.967173738991193,NA
77375,Harris County,TX,NA,63.971176941553246,NA
77386,Montgomery County,TX,NA,16.373098478783028,NA
77418,Austin County,TX,73.71134020618557,NA,NA
77422,Brazoria County,TX,NA,51.28102481985588,NA
77433,Harris County,TX,NA,21.857485988791034,NA
77478,Fort Bend County,TX,NA,60.848678943154525,NA
77493,Harris County,TX,NA,73.21857485988791,NA
77506,Harris County,TX,NA,61.20896717373899,NA
77510,Galveston County,TX,NA,NA,90.47619047619048
77539,Galveston County,TX,NA,8.406725380304243,NA
77550,Galveston County,TX,NA,29.103282626100878,11.11111111111111
77565,Galveston County,TX,NA,61.40912730184147,NA
77568,Galveston County,TX,NA,16.533226581265012,NA
77573,Galveston County,TX,26.288659793814436,85.02802241793435,NA
77578,Brazoria County,TX,NA,41.95356285028022,NA
77584,Brazoria County,TX,NA,44.275420336269015,NA
77586,Harris County,TX,NA,93.15452361889511,NA
77619,Jefferson County,TX,85.05154639175258,NA,NA
77701,Jefferson County,TX,NA,54.52361889511609,NA
77802,Brazos County,TX,NA,11.609287429943956,NA
78016,Medina County,TX,NA,69.33546837469976,NA
78022,Live Oak County,TX,95.10309278350515,NA,NA
78023,Bexar County,TX,NA,68.41473178542834,NA
78028,Kerr County,TX,NA,19.135308246597276,NA
78043,Webb County,TX,NA,22.257806244995997,NA
78108,Guadalupe County,TX,NA,84.18734987990393,NA
78114,Wilson County,TX,48.71134020618557,NA,46.82539682539682
78133,Comal County,TX,NA,72.49799839871898,NA
78201,Bexar County,TX,NA,92.51401120896718,NA
78202,Bexar County,TX,62.628865979381445,NA,NA
78203,Bexar County,TX,96.1340206185567,NA,NA
78207,Bexar County,TX,3.608247422680412,30.74459567654123,NA
78209,Bexar County,TX,NA,86.02882305844676,NA
78216,Bexar County,TX,NA,23.77902321857486,NA
78217,Bexar County,TX,NA,95.23618895116093,NA
78221,Bexar County,TX,50.51546391752577,24.85988791032826,NA
78228,Bexar County,TX,3.350515463917526,NA,NA
78229,Bexar County,TX,NA,29.62369895916733,NA
78233,Bexar County,TX,NA,22.297838270616495,NA
78237,Bexar County,TX,NA,14.171337069655724,NA
78245,Bexar County,TX,14.175257731958762,NA,NA
78247,Bexar County,TX,72.16494845360825,NA,NA
78248,Bexar County,TX,NA,96.95756605284227,NA
78250,Bexar County,TX,NA,22.858286629303443,NA
78263,Bexar County,TX,NA,88.23058446757406,NA
78368,San Patricio County,TX,NA,81.1048839071257,NA
78405,Nueces County,TX,NA,55.12409927942355,NA
78411,Nueces County,TX,NA,94.83586869495596,NA
78573,Hidalgo County,TX,17.2680412371134,NA,NA
78602,Bastrop County,TX,97.9381443298969,NA,NA
78613,Williamson County,TX,NA,78.7429943955164,NA
78617,Travis County,TX,44.84536082474227,NA,NA
78626,Williamson County,TX,NA,33.827061649319454,NA
78645,Travis County,TX,NA,80.62449959967975,NA
78660,Travis County,TX,NA,12.32986389111289,NA
78701,Travis County,TX,NA,84.86789431545236,NA
78704,Travis County,TX,NA,96.39711769415533,NA
78717,Williamson County,TX,72.9381443298969,NA,NA
78730,Travis County,TX,NA,94.11529223378703,NA
78737,Hays County,TX,NA,NA,86.11111111111111
78741,Travis County,TX,NA,93.71497197758207,NA
78746,Travis County,TX,NA,51.72137710168134,NA
78748,Travis County,TX,NA,45.956765412329865,NA
78751,Travis County,TX,92.0103092783505,NA,NA
78754,Travis County,TX,NA,57.44595676541233,NA
78759,Travis County,TX,NA,81.90552441953562,NA
78801,Uvalde County,TX,NA,37.910328262610086,NA
78945,Fayette County,TX,NA,NA,77.38095238095238
79104,Potter County,TX,NA,91.91353082465973,NA
79106,Potter County,TX,NA,31.42514011208967,NA
79109,Randall County,TX,NA,19.41553242594075,NA
79118,Randall County,TX,NA,92.2738190552442,NA
79363,Lubbock County,TX,NA,87.34987990392314,NA
79412,Lubbock County,TX,NA,35.428342674139316,NA
79423,Lubbock County,TX,26.54639175257732,NA,NA
79424,Lubbock County,TX,NA,50.84067253803043,7.142857142857142
79512,Mitchell County,TX,NA,NA,82.14285714285714
79603,Taylor County,TX,NA,14.331465172137712,NA
79605,Taylor County,TX,NA,45.6365092073659,NA
79703,Midland County,TX,NA,35.468374699759806,NA
79705,Midland County,TX,NA,12.44995996797438,NA
79706,Midland County,TX,19.072164948453608,93.87510008006406,NA
79707,Midland County,TX,NA,75.82065652522017,NA
79735,Pecos County,TX,NA,44.55564451561249,NA
79762,Ector County,TX,NA,NA,38.88888888888889
79901,El Paso County,TX,NA,69.17534027221778,NA
79903,El Paso County,TX,NA,62.97037630104083,NA
79907,El Paso County,TX,22.422680412371136,NA,NA
79912,El Paso County,TX,17.010309278350515,NA,NA
79924,El Paso County,TX,8.762886597938143,49.47958366693355,NA
84014,Davis County,UT,NA,96.83746997598078,NA
84015,Davis County,UT,13.402061855670103,47.157726180944756,NA
84041,Davis County,UT,NA,18.174539631705365,NA
84045,Utah County,UT,NA,87.6701361088871,NA
84047,Salt Lake County,UT,43.81443298969072,35.948759007205766,NA
84058,Utah County,UT,62.11340206185567,NA,81.74603174603175
84065,Salt Lake County,UT,NA,19.495596477181746,NA
84066,Duchesne County,UT,NA,36.028823058446754,NA
84067,Weber County,UT,NA,17.854283426741393,NA
84074,Tooele County,UT,NA,20.25620496397118,NA
84075,Davis County,UT,NA,46.957566052842274,NA
84081,Salt Lake County,UT,NA,14.691753402722178,NA
84094,Salt Lake County,UT,NA,96.75740592473979,NA
84095,Salt Lake County,UT,NA,20.656525220176142,NA
84105,Salt Lake County,UT,NA,52.56204963971177,NA
84108,Salt Lake County,UT,NA,61.72938350680545,NA
84111,Salt Lake County,UT,NA,49.23939151321057,80.55555555555556
84116,Salt Lake County,UT,NA,68.05444355484389,NA
84119,Salt Lake County,UT,NA,22.137710168134507,NA
84120,Salt Lake County,UT,NA,85.66853482786229,NA
84121,Salt Lake County,UT,NA,75.30024019215372,NA
84123,Salt Lake County,UT,NA,96.55724579663732,NA
84124,Salt Lake County,UT,NA,82.70616493194555,NA
84128,Salt Lake County,UT,NA,46.477181745396315,NA
84302,Box Elder County,UT,NA,73.77902321857486,NA
84401,Weber County,UT,57.21649484536082,23.338670936749402,NA
84403,Weber County,UT,NA,54.52361889511609,NA
84404,Weber County,UT,NA,87.55004003202562,NA
84532,Grand County,UT,NA,67.17373899119295,NA
84651,Utah County,UT,NA,97.07766212970377,NA
84655,Utah County,UT,NA,73.37870296236989,NA
84737,Washington County,UT,NA,96.15692554043235,NA
84745,Washington County,UT,NA,95.15612489991993,NA
84780,Washington County,UT,NA,97.8783026421137,NA
84790,Washington County,UT,NA,88.19055244195356,NA
20120,Fairfax County,VA,NA,30.304243394715773,NA
20151,Fairfax County,VA,NA,66.53322658126501,NA
20155,Prince William County,VA,NA,35.98879103282626,NA
20165,Loudoun County,VA,94.0721649484536,NA,NA
20194,Fairfax County,VA,88.91752577319588,NA,NA
22207,Arlington County,VA,NA,80.0240192153723,NA
22303,Fairfax County,VA,NA,79.70376301040832,NA
22310,Fairfax County,VA,NA,30.704563650920736,NA
22554,Stafford County,VA,NA,39.31144915932746,NA
23093,Louisa County,VA,NA,36.50920736589271,NA
23111,Hanover County,VA,NA,78.70296236989591,NA
23150,Henrico County,VA,NA,52.1617293835068,NA
23225,Richmond city,VA,NA,NA,19.444444444444446
23231,Henrico County,VA,NA,10.288230584467573,NA
23323,Chesapeake city,VA,NA,16.653322658126502,NA
23421,Accomack County,VA,NA,87.7902321857486,NA
23451,Virginia Beach city,VA,NA,NA,12.3015873015873
23452,Virginia Beach city,VA,NA,9.687750200160128,NA
23455,Virginia Beach city,VA,NA,23.498799039231386,NA
23875,Prince George County,VA,NA,59.167333867093674,NA
24016,Roanoke city,VA,NA,31.064851881505206,NA
24019,Roanoke County,VA,NA,NA,95.63492063492063
24084,Pulaski County,VA,NA,56.12489991993594,NA
24104,Bedford County,VA,95.87628865979381,NA,NA
24112,Henry County,VA,NA,6.765412329863891,NA
24153,Salem city,VA,71.90721649484536,NA,NA
24179,Roanoke County,VA,NA,27.782225780624497,NA
24201,Bristol city,VA,NA,96.87750200160127,NA
24202,Washington County,VA,NA,41.51321056845476,NA
24224,Russell County,VA,NA,NA,80.15873015873017
24361,Washington County,VA,NA,76.34107285828662,NA
24401,Staunton city,VA,NA,71.21697357886309,NA
24551,Bedford County,VA,63.91752577319587,NA,NA
24630,Tazewell County,VA,NA,NA,73.4126984126984
98001,King County,WA,NA,22.69815852682146,NA
98003,King County,WA,20.618556701030926,NA,NA
98005,King County,WA,NA,60.168134507606084,NA
98021,Snohomish County,WA,NA,85.58847077662129,NA
98028,King County,WA,NA,48.478783026421134,NA
98033,King County,WA,NA,39.151321056845475,NA
98040,King County,WA,NA,78.14251401120896,NA
98042,King County,WA,NA,7.125700560448359,NA
98053,King County,WA,NA,80.82465972778222,NA
98058,King County,WA,NA,15.13210568454764,NA
98072,King County,WA,NA,88.83106485188151,NA
98087,Snohomish County,WA,NA,25.62049639711769,NA
98092,King County,WA,NA,10.968775020016013,NA
98102,King County,WA,NA,69.17534027221778,NA
98103,King County,WA,NA,94.15532425940752,NA
98104,King County,WA,66.75257731958763,72.37790232185749,NA
98106,King County,WA,80.6701030927835,99.67974379503602,NA
98107,King County,WA,NA,NA,64.28571428571429
98108,King County,WA,NA,69.85588470776621,NA
98112,King County,WA,NA,81.02481985588472,NA
98115,King County,WA,29.896907216494846,NA,NA
98118,King County,WA,35.30927835051546,NA,NA
98119,King County,WA,57.47422680412371,NA,NA
98125,King County,WA,NA,46.79743795036029,NA
98126,King County,WA,NA,35.708566853482786,NA
98133,King County,WA,NA,13.290632506004805,NA
98188,King County,WA,NA,44.07526020816653,NA
98198,King County,WA,NA,61.809447558046436,28.174603174603174
98201,Snohomish County,WA,NA,77.98238590872698,NA
98203,Snohomish County,WA,NA,25.940752602081663,NA
98204,Snohomish County,WA,NA,60.52842273819056,NA
98208,Snohomish County,WA,NA,80.26421136909528,NA
98221,Skagit County,WA,NA,37.7902321857486,NA
98223,Snohomish County,WA,NA,59.927942353883104,NA
98229,Whatcom County,WA,NA,90.51240992794234,NA
98232,Skagit County,WA,NA,90.23218574859888,NA
98247,Whatcom County,WA,NA,92.43394715772618,NA
98252,Snohomish County,WA,NA,76.86148919135309,NA
98258,Snohomish County,WA,NA,84.14731785428343,NA
98270,Snohomish County,WA,NA,70.65652522017614,NA
98271,Snohomish County,WA,NA,99.31945556445156,NA
98282,Island County,WA,NA,63.210568454763816,NA
98290,Snohomish County,WA,NA,48.438751000800636,NA
98310,Kitsap County,WA,79.63917525773195,NA,NA
98321,Pierce County,WA,NA,97.7982385908727,NA
98328,Pierce County,WA,NA,61.24899919935949,NA
98329,Pierce County,WA,NA,NA,90.87301587301587
98332,Pierce County,WA,NA,82.30584467574059,NA
98335,Pierce County,WA,NA,61.128903122498,NA
98362,Clallam County,WA,NA,NA,4.761904761904762
98363,Clallam County,WA,74.48453608247422,NA,NA
98367,Kitsap County,WA,NA,98.07846277021616,NA
98372,Pierce County,WA,NA,35.10808646917534,NA
98391,Pierce County,WA,NA,38.871096877502005,NA
98402,Pierce County,WA,NA,78.30264211369095,NA
98405,Pierce County,WA,NA,15.532425940752603,NA
98418,Pierce County,WA,NA,70.13610888710969,NA
98444,Pierce County,WA,NA,17.293835068054445,NA
98445,Pierce County,WA,NA,NA,54.36507936507936
98506,Thurston County,WA,60.051546391752574,NA,NA
98512,Thurston County,WA,NA,58.00640512409928,NA
98528,Mason County,WA,NA,91.79343474779824,NA
98532,Lewis County,WA,NA,43.87510008006405,NA
98550,Grays Harbor County,WA,NA,NA,87.6984126984127
98580,Pierce County,WA,NA,64.01120896717374,NA
98597,Thurston County,WA,68.81443298969072,NA,NA
98604,Clark County,WA,NA,40.19215372297838,NA
98626,Cowlitz County,WA,NA,23.859087269815856,NA
98632,Cowlitz County,WA,47.42268041237113,8.046437149719775,NA
98660,Clark County,WA,NA,NA,84.92063492063492
98684,Clark County,WA,NA,58.08646917534027,NA
98801,Chelan County,WA,NA,10.808646917534027,NA
98815,Chelan County,WA,NA,82.10568454763812,NA
98903,Yakima County,WA,NA,45.07606084867894,NA
98936,Yakima County,WA,NA,99.95996797437951,NA
98948,Yakima County,WA,80.41237113402062,NA,NA
99016,Spokane County,WA,51.546391752577314,NA,NA
99022,Spokane County,WA,NA,76.98158526821457,NA
99163,Whitman County,WA,65.4639175257732,NA,NA
99169,Adams County,WA,NA,NA,99.60317460317461
99201,Spokane County,WA,NA,85.4683746997598,NA
99205,Spokane County,WA,NA,89.15132105684548,NA
99208,Spokane County,WA,NA,78.02241793434747,NA
99337,Benton County,WA,18.04123711340206,35.6285028022418,NA
99344,Adams County,WA,NA,84.98799039231385,NA
20032,District of Columbia,DC,NA,1.7213771016813448,NA
25071,Kanawha County,WV,NA,31.945556445156125,NA
25177,Kanawha County,WV,23.711340206185564,22.377902321857484,NA
25302,Kanawha County,WV,NA,31.705364291433145,NA
25526,Putnam County,WV,NA,19.575660528422738,NA
25951,Summers County,WV,NA,45.11609287429944,NA
26041,Marshall County,WV,NA,25.500400320256205,NA
26062,Hancock County,WV,NA,34.58767013610889,NA
26101,Wood County,WV,NA,1.5612489991993594,NA
26181,Wood County,WV,NA,66.37309847878302,NA
26501,Monongalia County,WV,NA,7.405924739791833,NA
26508,Monongalia County,WV,NA,1.6012810248198557,NA
26582,Marion County,WV,NA,66.97357886309048,NA
26651,Nicholas County,WV,NA,56.76541232986389,NA
26836,Hardy County,WV,77.57731958762886,NA,NA
53014,Calumet County,WI,NA,69.77582065652523,NA
53027,Washington County,WI,NA,43.15452361889512,NA
53076,Washington County,WI,NA,98.71897518014411,NA
53081,Sheboygan County,WI,11.855670103092782,6.5252201761409125,NA
53092,Ozaukee County,WI,NA,99.71977582065652,NA
53130,Milwaukee County,WI,NA,62.65012009607687,NA
53185,Racine County,WI,NA,34.14731785428343,NA
53188,Waukesha County,WI,NA,NA,14.682539682539684
53202,Milwaukee County,WI,NA,26.301040832666132,NA
53205,Milwaukee County,WI,NA,0.8006405124099278,NA
53206,Milwaukee County,WI,NA,3.923138510808647,NA
53405,Racine County,WI,NA,2.1617293835068057,NA
53406,Racine County,WI,NA,38.9111289031225,NA
53511,Rock County,WI,NA,27.58206565252202,NA
53532,Dane County,WI,NA,66.29303442754203,NA
53548,Rock County,WI,NA,11.489191353082466,NA
53703,Dane County,WI,NA,54.84387510008006,NA
54001,Polk County,WI,NA,28.903122497998403,NA
54017,St. Croix County,WI,NA,28.823058446757404,NA
54022,Pierce County,WI,NA,57.28582866293035,NA
54130,Outagamie County,WI,NA,34.38751000800641,NA
54220,Manitowoc County,WI,NA,2.401921537229784,NA
54409,Langlade County,WI,NA,19.135308246597276,NA
54449,Wood County,WI,NA,47.7982385908727,NA
54455,Marathon County,WI,NA,46.27702161729383,NA
54456,Clark County,WI,NA,72.49799839871898,NA
54457,Wood County,WI,NA,54.96397117694155,NA
54467,Portage County,WI,15.206185567010309,NA,NA
54481,Portage County,WI,NA,NA,48.01587301587302
54501,Oneida County,WI,NA,28.102481985588472,NA
54601,La Crosse County,WI,NA,27.622097678142516,NA
54615,Jackson County,WI,NA,45.6365092073659,NA
54660,Monroe County,WI,89.69072164948454,NA,NA
54669,La Crosse County,WI,NA,91.71337069655725,NA
54701,Eau Claire County,WI,NA,48.55884707766213,NA
54703,Eau Claire County,WI,NA,57.32586068855085,NA
54724,Chippewa County,WI,NA,82.78622898318655,NA
54751,Dunn County,WI,20.103092783505154,NA,NA
54755,Buffalo County,WI,86.34020618556701,NA,NA
54806,Ashland County,WI,75.77319587628865,51.120896717373896,NA
54880,Douglas County,WI,0.25773195876288657,5.88470776621297,NA
54893,Burnett County,WI,60.824742268041234,NA,NA
54914,Outagamie County,WI,NA,10.12810248198559,NA
82001,Laramie County,WY,NA,49.35948759007206,NA
82009,Laramie County,WY,NA,68.61489191353083,NA
82240,Goshen County,WY,NA,82.34587670136109,NA
82601,Natrona County,WY,NA,72.818254603682945,NA
82609,Natrona County,WY,NA,60.48839071257006,NA
82716,Campbell County,WY,NA,77.06164931945555,NA
