ZipCode,county,state,Adult,Retirement
35160,Talladega County,AL,44.73684210526316,NA
35242,Shelby County,AL,32.45614035087719,NA
35601,Morgan County,AL,NA,11.740890688259109
35761,Madison County,AL,NA,88.25910931174089
35903,Etowah County,AL,NA,94.33198380566802
36345,Henry County,AL,88.1578947368421,NA
99701,Fairbanks North Star Borough,AK,NA,85.82995951417004
85008,Maricopa County,AZ,12.280701754385964,NA
85044,Maricopa County,AZ,NA,48.178137651821864
85201,Maricopa County,AZ,NA,79.35222672064778
85204,Maricopa County,AZ,NA,27.530364372469634
85207,Maricopa County,AZ,NA,25.101214574898783
85302,Maricopa County,AZ,NA,23.481781376518217
85603,Cochise County,AZ,NA,89.47368421052632
85705,Pima County,AZ,17.982456140350877,NA
85757,Pima County,AZ,55.26315789473685,NA
86403,Mohave County,AZ,NA,54.655870445344135
86409,Mohave County,AZ,33.33333333333333,NA
71901,Garland County,AR,NA,45.34412955465587
72023,Lonoke County,AR,55.70175438596491,NA
72370,Mississippi County,AR,NA,93.52226720647774
72762,Washington County,AR,NA,59.10931174089069
90007,Los Angeles County,CA,28.50877192982456,57.89473684210527
90037,Los Angeles County,CA,NA,70.44534412955466
90210,Los Angeles County,CA,NA,48.582995951417004
90248,Los Angeles County,CA,85.08771929824562,NA
90650,Los Angeles County,CA,NA,12.550607287449392
90712,Los Angeles County,CA,85.52631578947368,51.417004048582996
90723,Los Angeles County,CA,48.68421052631579,NA
91602,Los Angeles County,CA,NA,95.54655870445345
91910,San Diego County,CA,95.17543859649122,NA
92020,San Diego County,CA,NA,4.8582995951417
92056,San Diego County,CA,52.19298245614035,NA
92203,Riverside County,CA,39.91228070175439,NA
92277,San Bernardino County,CA,65.78947368421053,NA
92371,San Bernardino County,CA,NA,87.85425101214574
92394,San Bernardino County,CA,NA,59.91902834008097
92543,Riverside County,CA,NA,53.036437246963565
92555,Riverside County,CA,NA,62.75303643724697
92637,Orange County,CA,NA,78.54251012145748
92646,Orange County,CA,NA,6.0728744939271255
92707,Orange County,CA,39.473684210526315,NA
93230,Kings County,CA,NA,13.360323886639677
93304,Kern County,CA,NA,47.368421052631575
93307,Kern County,CA,NA,14.979757085020243
93455,Santa Barbara County,CA,31.57894736842105,NA
93726,Fresno County,CA,51.75438596491229,NA
94066,San Mateo County,CA,NA,7.6923076923076925
94080,San Mateo County,CA,32.89473684210527,NA
94115,San Francisco County,CA,NA,35.22267206477733
94513,Contra Costa County,CA,NA,21.052631578947366
94536,Alameda County,CA,30.701754385964914,NA
94597,Contra Costa County,CA,66.22807017543859,NA
94610,Alameda County,CA,58.333333333333336,NA
94611,Alameda County,CA,78.50877192982456,NA
94703,Alameda County,CA,62.28070175438597,NA
95037,Santa Clara County,CA,95.6140350877193,NA
95062,Santa Cruz County,CA,100,NA
95301,Merced County,CA,NA,60.72874493927125
95409,Sonoma County,CA,91.22807017543859,NA
95422,Lake County,CA,NA,52.226720647773284
95814,Sacramento County,CA,NA,93.92712550607287
80211,Denver County,CO,36.40350877192983,NA
80421,Park County,CO,NA,98.78542510121457
80620,Weld County,CO,NA,66.80161943319838
80634,Weld County,CO,3.508771929824561,NA
06105,Hartford County,CT,19.736842105263158,NA
06112,Hartford County,CT,14.912280701754385,NA
06413,Middlesex County,CT,77.63157894736842,NA
06473,New Haven County,CT,NA,31.57894736842105
06484,Fairfield County,CT,NA,30.364372469635626
06519,New Haven County,CT,22.807017543859647,NA
06854,Fairfield County,CT,42.98245614035088,NA
19711,New Castle County,DE,29.385964912280706,NA
19802,New Castle County,DE,13.596491228070176,NA
32034,Nassau County,FL,NA,69.23076923076923
32207,Duval County,FL,16.228070175438596,NA
32211,Duval County,FL,NA,42.51012145748988
32258,Duval County,FL,NA,95.95141700404858
32301,Leon County,FL,NA,68.82591093117408
32303,Leon County,FL,NA,46.558704453441294
32351,Gadsden County,FL,76.31578947368422,NA
32460,Jackson County,FL,NA,81.78137651821862
32534,Escambia County,FL,NA,90.2834008097166
32547,Okaloosa County,FL,NA,52.63157894736842
32720,Volusia County,FL,98.24561403508771,NA
32757,Lake County,FL,NA,28.34008097165992
32796,Brevard County,FL,48.24561403508772,NA
32805,Orange County,FL,60.08771929824561,NA
32809,Orange County,FL,46.05263157894737,NA
32953,Brevard County,FL,NA,17.00404858299595
32960,Indian River County,FL,NA,40.89068825910931
33004,Broward County,FL,70.6140350877193,NA
33032,Miami-Dade County,FL,39.03508771929825,NA
33054,Miami-Dade County,FL,NA,69.63562753036437
33055,Miami-Dade County,FL,NA,58.2995951417004
33156,Miami-Dade County,FL,NA,55.465587044534416
33166,Miami-Dade County,FL,NA,53.84615384615385
33328,Broward County,FL,75,NA
33436,Palm Beach County,FL,53.07017543859649,NA
33565,Hillsborough County,FL,64.91228070175438,NA
33619,Hillsborough County,FL,NA,37.65182186234818
33635,Hillsborough County,FL,75.43859649122807,NA
33707,Pinellas County,FL,NA,30.76923076923077
33713,Pinellas County,FL,51.31578947368421,64.37246963562752
33801,Polk County,FL,NA,41.70040485829959
33957,Lee County,FL,NA,70.04048582995951
34135,Lee County,FL,NA,75.7085020242915
34203,Manatee County,FL,NA,18.62348178137652
34285,Sarasota County,FL,NA,15.384615384615385
34420,Marion County,FL,64.03508771929825,NA
34667,Pasco County,FL,41.66666666666667,NA
34677,Pinellas County,FL,70.17543859649122,NA
34691,Pasco County,FL,68.85964912280701,NA
34714,Lake County,FL,NA,82.18623481781377
34761,Orange County,FL,NA,70.8502024291498
34771,Osceola County,FL,NA,78.94736842105263
34787,Orange County,FL,NA,55.87044534412956
34947,St. Lucie County,FL,73.24561403508771,NA
30047,Gwinnett County,GA,NA,84.21052631578947
30103,Bartow County,GA,81.57894736842105,NA
30152,Cobb County,GA,NA,43.7246963562753
30223,Spalding County,GA,62.71929824561403,99.19028340080972
30310,Fulton County,GA,NA,14.5748987854251
30315,Fulton County,GA,NA,22.267206477732792
30349,Fulton County,GA,7.456140350877193,NA
30427,Tattnall County,GA,76.75438596491229,NA
30740,Whitfield County,GA,77.19298245614034,NA
30813,Columbia County,GA,31.57894736842105,NA
31064,Jasper County,GA,72.36842105263158,NA
31211,Bibb County,GA,83.33333333333334,NA
31405,Chatham County,GA,46.49122807017544,NA
31415,Chatham County,GA,68.42105263157895,NA
31537,Charlton County,GA,60.96491228070175,NA
96792,Honolulu County,HI,NA,20.647773279352226
83221,Bingham County,ID,NA,94.73684210526315
60056,Cook County,IL,NA,12.145748987854251
60073,Lake County,IL,44.29824561403509,NA
60084,Lake County,IL,NA,65.58704453441295
60169,Cook County,IL,92.10526315789474,NA
60417,Will County,IL,NA,35.62753036437247
60429,Cook County,IL,63.59649122807017,NA
60505,Kane County,IL,30.263157894736842,NA
60612,Cook County,IL,17.105263157894736,NA
60619,Cook County,IL,6.140350877192982,NA
60620,Cook County,IL,6.578947368421052,NA
60626,Cook County,IL,NA,4.048582995951417
60629,Cook County,IL,NA,1.214574898785425
60640,Cook County,IL,8.333333333333332,NA
60649,Cook County,IL,40.35087719298245,NA
60901,Kankakee County,IL,NA,47.77327935222672
61016,Winnebago County,IL,94.73684210526315,NA
61520,Fulton County,IL,NA,87.4493927125506
62052,Jersey County,IL,NA,92.3076923076923
62095,Madison County,IL,NA,91.49797570850203
46131,Johnson County,IN,NA,24.696356275303643
46256,Marion County,IN,NA,43.31983805668016
46507,Elkhart County,IN,NA,84.61538461538461
46545,St. Joseph County,IN,81.14035087719299,NA
46809,Allen County,IN,NA,67.20647773279353
47150,Floyd County,IN,NA,4.4534412955465585
47374,Wayne County,IN,4.824561403508771,NA
47834,Clay County,IN,58.77192982456141,NA
47885,Vigo County,IN,NA,87.04453441295547
47933,Montgomery County,IN,NA,74.49392712550608
50265,Polk County,IA,NA,57.08502024291497
50315,Polk County,IA,50,21.45748987854251
50317,Polk County,IA,NA,11.336032388663968
51103,Woodbury County,IA,NA,97.57085020242914
52556,Jefferson County,IA,NA,59.51417004048582
66101,Wyandotte County,KS,NA,82.5910931174089
66109,Wyandotte County,KS,50.877192982456144,NA
67212,Sedgwick County,KS,NA,53.441295546558706
40069,Washington County,KY,61.8421052631579,NA
40212,Jefferson County,KY,NA,36.43724696356275
40311,Nicholas County,KY,99.56140350877193,NA
40324,Scott County,KY,11.403508771929824,NA
40351,Rowan County,KY,NA,12.955465587044534
40977,Bell County,KY,NA,65.9919028340081
41091,Boone County,KY,NA,64.77732793522267
41522,Pike County,KY,NA,95.1417004048583
42754,Grayson County,KY,25.877192982456144,NA
70056,Jefferson Parish,LA,NA,50.20242914979757
70119,Orleans Parish,LA,5.263157894736842,NA
70121,Jefferson Parish,LA,NA,57.48987854251012
70122,Orleans Parish,LA,NA,8.097165991902834
70510,Vermilion Parish,LA,NA,37.24696356275304
70584,St. Landry Parish,LA,NA,82.99595141700405
71103,Caddo Parish,LA,49.56140350877193,NA
04240,Androscoggin County,ME,1.7543859649122806,NA
04345,Kennebec County,ME,NA,78.13765182186235
21040,Harford County,MD,54.824561403508774,NA
21230,Baltimore city,MD,35.08771929824561,NA
21234,Baltimore County,MD,14.035087719298245,NA
21769,Frederick County,MD,89.91228070175438,NA
01104,Hampden County,MA,0.8771929824561403,NA
01440,Worcester County,MA,71.49122807017544,NA
01468,Worcester County,MA,96.05263157894737,NA
01550,Worcester County,MA,NA,20.242914979757085
01748,Middlesex County,MA,NA,38.05668016194332
01824,Middlesex County,MA,NA,3.2388663967611335
01960,Essex County,MA,50.43859649122807,NA
02115,Suffolk County,MA,26.75438596491228,NA
02119,Suffolk County,MA,86.40350877192982,NA
02132,Suffolk County,MA,NA,14.17004048582996
02138,Middlesex County,MA,NA,2.42914979757085
02364,Plymouth County,MA,47.368421052631575,NA
48079,St. Clair County,MI,57.45614035087719,NA
48093,Macomb County,MI,NA,36.84210526315789
48205,Wayne County,MI,4.385964912280701,NA
48208,Wayne County,MI,52.63157894736842,NA
48212,Wayne County,MI,9.210526315789473,NA
48214,Wayne County,MI,NA,21.86234817813765
48230,Wayne County,MI,NA,34.81781376518219
48380,Oakland County,MI,75.87719298245614,NA
48708,Bay County,MI,46.92982456140351,NA
48723,Tuscola County,MI,26.31578947368421,NA
48823,Ingham County,MI,34.21052631578947,NA
48855,Livingston County,MI,67.10526315789474,NA
48867,Shiawassee County,MI,NA,3.2388663967611335
48888,Montcalm County,MI,74.12280701754386,NA
49202,Jackson County,MI,93.42105263157895,NA
49441,Muskegon County,MI,10.964912280701753,NA
49643,Grand Traverse County,MI,NA,89.06882591093117
49735,Otsego County,MI,NA,15.789473684210526
49829,Delta County,MI,72.80701754385966,NA
55056,Chisago County,MN,88.59649122807018,NA
55102,Ramsey County,MN,NA,38.8663967611336
55105,Ramsey County,MN,NA,91.49797570850203
55108,Ramsey County,MN,NA,89.87854251012146
55113,Ramsey County,MN,NA,46.15384615384615
55119,Ramsey County,MN,11.842105263157894,NA
55344,Hennepin County,MN,NA,96.76113360323887
55432,Anoka County,MN,21.49122807017544,NA
55439,Hennepin County,MN,NA,88.66396761133603
56001,Blue Earth County,MN,NA,32.79352226720648
38614,Coahoma County,MS,47.368421052631575,NA
38654,DeSoto County,MS,21.929824561403507,NA
38732,Bolivar County,MS,37.719298245614034,NA
39339,Winston County,MS,66.66666666666666,NA
63050,Jefferson County,MO,NA,66.39676113360325
63123,St. Louis County,MO,35.526315789473685,NA
63125,St. Louis County,MO,NA,27.93522267206478
63801,Scott County,MO,83.77192982456141,NA
63857,Dunklin County,MO,40.78947368421053,NA
64030,Jackson County,MO,15.789473684210526,NA
64050,Jackson County,MO,99.12280701754386,NA
64068,Clay County,MO,7.894736842105263,NA
64081,Jackson County,MO,NA,38.46153846153847
64093,Johnson County,MO,34.64912280701755,NA
64127,Jackson County,MO,NA,34.41295546558704
64152,Platte County,MO,18.421052631578945,NA
64601,Livingston County,MO,NA,72.46963562753037
64844,Newton County,MO,NA,99.59514170040485
65803,Greene County,MO,9.649122807017543,NA
65807,Greene County,MO,69.73684210526315,NA
59860,Lake County,MT,86.8421052631579,NA
89101,Clark County,NV,NA,62.34817813765182
89149,Clark County,NV,NA,77.7327935222672
03052,Hillsborough County,NH,84.21052631578947,NA
03110,Hillsborough County,NH,NA,33.603238866396765
07017,Essex County,NJ,2.1929824561403506,NA
07047,Hudson County,NJ,NA,0.4048582995951417
07094,Hudson County,NJ,NA,75.30364372469636
07111,Essex County,NJ,0,NA
07202,Union County,NJ,NA,6.882591093117409
07410,Bergen County,NJ,NA,22.672064777327936
07461,Sussex County,NJ,96.9298245614035,NA
07501,Passaic County,NJ,1.3157894736842104,NA
07728,Monmouth County,NJ,93.85964912280701,NA
07860,Sussex County,NJ,NA,60.32388663967612
08002,Camden County,NJ,NA,42.91497975708502
08052,Burlington County,NJ,NA,71.65991902834008
08105,Camden County,NJ,0.43859649122807015,8.906882591093117
08360,Cumberland County,NJ,NA,6.477732793522267
08611,Mercer County,NJ,5.701754385964912,NA
08619,Mercer County,NJ,NA,55.06072874493927
08837,Middlesex County,NJ,NA,56.68016194331984
08840,Middlesex County,NJ,NA,67.61133603238866
08873,Somerset County,NJ,98.68421052631578,NA
87121,Bernalillo County,NM,NA,2.0242914979757085
88201,Chaves County,NM,NA,36.032388663967616
10022,New York County,NY,NA,49.797570850202426
10035,New York County,NY,NA,5.668016194331984
10036,New York County,NY,NA,46.963562753036435
10310,Richmond County,NY,NA,71.25506072874494
10454,Bronx County,NY,25.438596491228072,NA
10458,Bronx County,NY,20.175438596491226,NA
10583,Westchester County,NY,NA,73.68421052631578
11101,Queens County,NY,NA,63.56275303643725
11104,Queens County,NY,96.49122807017544,NA
11210,Kings County,NY,NA,19.02834008097166
11218,Kings County,NY,NA,10.931174089068826
11220,Kings County,NY,NA,23.88663967611336
11225,Kings County,NY,22.36842105263158,NA
11230,Kings County,NY,NA,39.27125506072874
11385,Queens County,NY,NA,42.10526315789473
11435,Queens County,NY,NA,13.765182186234817
12078,Fulton County,NY,NA,7.28744939271255
13035,Madison County,NY,90.78947368421053,NA
13110,Onondaga County,NY,NA,97.16599190283401
13357,Herkimer County,NY,61.40350877192983,NA
14208,Erie County,NY,28.07017543859649,NA
14428,Monroe County,NY,69.2982456140351,NA
14445,Monroe County,NY,NA,61.1336032388664
14472,Monroe County,NY,45.614035087719294,NA
14527,Yates County,NY,25,NA
14616,Monroe County,NY,NA,5.263157894736842
27205,Randolph County,NC,NA,83.40080971659918
27249,Guilford County,NC,NA,61.943319838056674
27265,Guilford County,NC,NA,10.526315789473683
27511,Wake County,NC,NA,31.17408906882591
27539,Wake County,NC,NA,61.1336032388664
27577,Johnston County,NC,41.228070175438596,NA
28001,Stanly County,NC,NA,40.08097165991903
28012,Gaston County,NC,NA,85.4251012145749
28115,Iredell County,NC,NA,29.959514170040485
28311,Cumberland County,NC,23.684210526315788,NA
43056,Licking County,OH,37.280701754385966,NA
43065,Delaware County,OH,NA,26.31578947368421
43103,Pickaway County,OH,NA,65.18218623481782
43123,Franklin County,OH,7.017543859649122,NA
43138,Hocking County,OH,NA,27.125506072874494
43224,Franklin County,OH,42.54385964912281,NA
43551,Wood County,OH,NA,2.834008097165992
43605,Lucas County,OH,2.631578947368421,NA
43607,Lucas County,OH,43.42105263157895,NA
43614,Lucas County,OH,36.84210526315789,NA
44103,Cuyahoga County,OH,NA,9.31174089068826
44122,Cuyahoga County,OH,NA,50.607287449392715
44654,Holmes County,OH,NA,93.11740890688259
44805,Ashland County,OH,NA,1.6194331983805668
44837,Huron County,OH,78.94736842105263,NA
44870,Erie County,OH,NA,16.194331983805668
45014,Butler County,OH,13.157894736842104,NA
45042,Butler County,OH,18.859649122807017,NA
45140,Clermont County,OH,53.50877192982456,NA
45215,Hamilton County,OH,24.12280701754386,NA
45255,Hamilton County,OH,60.526315789473685,NA
45505,Clark County,OH,57.01754385964912,NA
45628,Ross County,OH,NA,79.75708502024291
45822,Mercer County,OH,35.96491228070175,NA
45879,Paulding County,OH,NA,72.06477732793523
73068,Cleveland County,OK,63.1578947368421,NA
74010,Creek County,OK,NA,72.8744939271255
74047,Tulsa County,OK,89.47368421052632,NA
97080,Multnomah County,OR,24.561403508771928,NA
97128,Yamhill County,OR,NA,25.910931174089068
97206,Multnomah County,OR,12.719298245614036,NA
97215,Multnomah County,OR,NA,67.61133603238866
97303,Marion County,OR,38.59649122807017,NA
97402,Lane County,OR,NA,28.74493927125506
97470,Douglas County,OR,28.947368421052634,NA
97527,Josephine County,OR,42.10526315789473,NA
15044,Allegheny County,PA,56.14035087719298,NA
15129,Allegheny County,PA,92.54385964912281,NA
15236,Allegheny County,PA,NA,77.32793522267207
15522,Bedford County,PA,NA,44.534412955465584
16346,Venango County,PA,NA,98.38056680161942
17003,Lebanon County,PA,NA,48.987854251012145
17038,Lebanon County,PA,67.98245614035088,NA
17314,York County,PA,97.80701754385966,NA
17325,Adams County,PA,23.24561403508772,NA
17579,Lancaster County,PA,NA,92.71255060728745
18255,Carbon County,PA,NA,86.63967611336032
18466,Monroe County,PA,NA,63.1578947368421
18509,Lackawanna County,PA,NA,85.02024291497976
19013,Delaware County,PA,NA,9.7165991902834
19057,Bucks County,PA,29.82456140350877,NA
19121,Philadelphia County,PA,8.771929824561402,NA
19126,Philadelphia County,PA,33.771929824561404,NA
19152,Philadelphia County,PA,16.666666666666664,16.599190283400812
02879,Washington County,RI,NA,33.198380566801625
02921,Providence County,RI,NA,97.97570850202429
29203,Richland County,SC,10.087719298245613,NA
29520,Chesterfield County,SC,NA,58.70445344129555
29560,Florence County,SC,NA,63.96761133603239
29569,Horry County,SC,43.859649122807014,NA
29585,Georgetown County,SC,82.45614035087719,NA
29651,Greenville County,SC,NA,10.121457489878543
29693,Oconee County,SC,59.64912280701754,NA
57301,Davison County,SD,80.7017543859649,NA
37043,Montgomery County,TN,NA,18.218623481781375
37080,Davidson County,TN,NA,86.23481781376519
37129,Rutherford County,TN,14.473684210526317,NA
37190,Cannon County,TN,NA,83.80566801619433
37388,Coffee County,TN,NA,100
37421,Hamilton County,TN,NA,26.720647773279353
37742,Loudon County,TN,NA,74.08906882591093
37814,Hamblen County,TN,NA,23.076923076923077
38104,Shelby County,TN,90.35087719298247,NA
38344,Carroll County,TN,65.35087719298247,NA
38544,Putnam County,TN,59.210526315789465,NA
38574,Putnam County,TN,87.71929824561403,NA
75006,Dallas County,TX,NA,25.506072874493928
75074,Collin County,TX,49.122807017543856,NA
75090,Grayson County,TX,45.17543859649123,NA
75104,Dallas County,TX,NA,29.1497975708502
75137,Dallas County,TX,56.57894736842105,NA
75150,Dallas County,TX,21.052631578947366,NA
75224,Dallas County,TX,NA,39.67611336032389
75244,Dallas County,TX,NA,81.37651821862349
75501,Bowie County,TX,NA,19.838056680161944
75703,Smith County,TX,31.140350877192986,NA
75979,Tyler County,TX,78.0701754385965,NA
76028,Johnson County,TX,38.15789473684211,NA
76031,Johnson County,TX,NA,51.821862348178136
76513,Bell County,TX,NA,73.27935222672065
76705,McLennan County,TX,15.350877192982457,NA
77004,Harris County,TX,27.192982456140353,NA
77015,Harris County,TX,NA,44.93927125506073
77064,Harris County,TX,73.68421052631578,NA
77088,Harris County,TX,80.26315789473685,NA
77407,Fort Bend County,TX,NA,74.89878542510121
77530,Harris County,TX,53.94736842105263,NA
77979,Calhoun County,TX,64.47368421052632,NA
78041,Webb County,TX,NA,19.4331983805668
78130,Comal County,TX,NA,17.408906882591094
78155,Guadalupe County,TX,67.54385964912281,NA
78253,Bexar County,TX,54.385964912280706,NA
78264,Bexar County,TX,91.66666666666666,NA
78577,Hidalgo County,TX,27.631578947368425,NA
78582,Starr County,TX,NA,41.29554655870445
78589,Hidalgo County,TX,NA,34.0080971659919
78640,Hays County,TX,NA,40.48582995951417
78735,Travis County,TX,NA,91.09311740890689
78839,Zavala County,TX,NA,80.16194331983806
79347,Bailey County,TX,79.82456140350878,NA
79924,El Paso County,TX,79.3859649122807,NA
84047,Salt Lake County,UT,NA,45.74898785425101
84074,Tooele County,UT,3.9473684210526314,NA
84081,Salt Lake County,UT,NA,56.2753036437247
84404,Weber County,UT,19.298245614035086,NA
05250,Bennington County,VT,94.2982456140351,NA
05408,Chittenden County,VT,74.56140350877193,NA
22030,Fairfax County,VA,NA,29.1497975708502
22301,Alexandria city,VA,NA,96.35627530364373
22314,Alexandria city,VA,NA,51.012145748987855
22980,Waynesboro city,VA,87.28070175438597,NA
23009,King William County,VA,NA,76.11336032388664
23223,Henrico County,VA,NA,44.12955465587044
23323,Chesapeake city,VA,NA,32.388663967611336
23803,Petersburg city,VA,10.526315789473683,NA
23974,Lunenburg County,VA,85.96491228070175,NA
24015,Roanoke city,VA,84.64912280701753,NA
24084,Pulaski County,VA,71.9298245614035,NA
24112,Henry County,VA,NA,49.392712550607285
24127,Craig County,VA,NA,90.68825910931174
24368,Wythe County,VA,89.03508771929825,NA
24522,Appomattox County,VA,NA,80.97165991902834
98011,King County,WA,NA,68.42105263157895
98031,King County,WA,NA,76.92307692307693
98052,King County,WA,NA,17.813765182186234
98273,Skagit County,WA,82.01754385964912,NA
98445,Pierce County,WA,NA,80.5668016194332
98632,Cowlitz County,WA,17.543859649122805,NA
99217,Spokane County,WA,71.05263157894737,NA
99362,Walla Walla County,WA,NA,8.502024291497975
25401,Berkeley County,WV,NA,31.983805668016196
53209,Milwaukee County,WI,3.070175438596491,0.8097165991902834
53511,Rock County,WI,NA,0
53545,Rock County,WI,NA,54.25101214574899
53597,Dane County,WI,97.36842105263158,NA
54166,Shawano County,WI,NA,76.51821862348179
54216,Kewaunee County,WI,82.89473684210526,NA
54751,Dunn County,WI,NA,24.291497975708502
54880,Douglas County,WI,57.89473684210527,NA
54914,Outagamie County,WI,20.614035087719298,NA
82007,Laramie County,WY,92.98245614035088,NA
