ZipCode,county,state,Adult,Retirement,Geriatric
35016,Marshall County,AL,44.5916114790287,31.40495867768595,NA
35020,Jefferson County,AL,NA,24.655647382920108,NA
35051,Shelby County,AL,NA,77.13498622589532,NA
35054,St. Clair County,AL,NA,80.85399449035813,NA
35055,Cullman County,AL,47.90286975717439,NA,NA
35064,Jefferson County,AL,NA,66.66666666666666,NA
35111,Tuscaloosa County,AL,67.88079470198676,NA,NA
35173,Jefferson County,AL,41.501103752759384,NA,NA
35211,Jefferson County,AL,13.134657836644593,NA,NA
35222,Jefferson County,AL,NA,82.23140495867769,NA
35228,Jefferson County,AL,NA,91.04683195592287,NA
35242,Shelby County,AL,NA,NA,6.382978723404255
35405,Tuscaloosa County,AL,26.600441501103756,NA,NA
35475,Tuscaloosa County,AL,70.52980132450331,90.22038567493112,NA
35581,Franklin County,AL,NA,NA,99.08814589665653
35611,Limestone County,AL,20.52980132450331,NA,NA
35630,Lauderdale County,AL,NA,62.8099173553719,NA
35653,Franklin County,AL,NA,71.900826446281,NA
35749,Madison County,AL,NA,NA,89.36170212765957
35750,Madison County,AL,NA,NA,68.9969604863222
35754,Morgan County,AL,95.91611479028698,NA,NA
35758,Madison County,AL,NA,NA,26.74772036474164
35761,Madison County,AL,NA,65.56473829201101,NA
35763,Madison County,AL,68.87417218543047,NA,NA
35769,Jackson County,AL,NA,NA,63.525835866261396
35801,Madison County,AL,NA,NA,68.08510638297872
35806,Madison County,AL,69.09492273730685,NA,NA
35810,Madison County,AL,25.386313465783665,NA,NA
35811,Madison County,AL,NA,35.39944903581267,NA
35954,Etowah County,AL,74.83443708609272,NA,NA
36116,Montgomery County,AL,NA,NA,45.2887537993921
36203,Calhoun County,AL,41.16997792494481,72.31404958677686,NA
36323,Coffee County,AL,NA,80.99173553719008,NA
36340,Geneva County,AL,87.52759381898456,NA,NA
36352,Houston County,AL,NA,NA,98.17629179331307
36420,Covington County,AL,NA,62.94765840220386,NA
36421,Covington County,AL,87.96909492273731,NA,NA
36502,Escambia County,AL,NA,NA,57.14285714285714
36575,Mobile County,AL,NA,65.70247933884298,NA
36869,Russell County,AL,NA,54.40771349862259,NA
36870,Lee County,AL,NA,NA,89.66565349544074
36875,Russell County,AL,NA,NA,98.78419452887537
99504,Anchorage Municipality,AK,NA,34.9862258953168,NA
99515,Anchorage Municipality,AK,NA,NA,75.37993920972644
85020,Maricopa County,AZ,NA,62.25895316804407,NA
85021,Maricopa County,AZ,9.933774834437086,NA,NA
85023,Maricopa County,AZ,52.53863134657837,NA,NA
85041,Maricopa County,AZ,6.95364238410596,NA,NA
85086,Maricopa County,AZ,33.88520971302428,NA,NA
85139,Pinal County,AZ,46.13686534216336,NA,NA
85207,Maricopa County,AZ,NA,22.31404958677686,NA
85224,Maricopa County,AZ,NA,37.327823691460054,NA
85251,Maricopa County,AZ,64.23841059602648,NA,NA
85266,Maricopa County,AZ,NA,89.6694214876033,NA
85281,Maricopa County,AZ,NA,NA,82.67477203647417
85282,Maricopa County,AZ,NA,NA,62.31003039513677
85306,Maricopa County,AZ,NA,52.892561983471076,NA
85351,Maricopa County,AZ,NA,8.1267217630854,0.303951367781155
85363,Maricopa County,AZ,NA,NA,75.07598784194529
85375,Maricopa County,AZ,NA,NA,0.911854103343465
85387,Maricopa County,AZ,91.83222958057395,NA,NA
85607,Cochise County,AZ,NA,81.5426997245179,NA
85641,Pima County,AZ,91.16997792494482,NA,NA
85653,Pima County,AZ,62.03090507726269,NA,NA
85705,Pima County,AZ,2.4282560706401766,27.27272727272727,NA
85710,Pima County,AZ,7.39514348785872,NA,NA
85711,Pima County,AZ,NA,61.019283746556475,NA
85712,Pima County,AZ,NA,68.04407713498622,NA
85713,Pima County,AZ,23.62030905077263,NA,NA
85730,Pima County,AZ,80.68432671081678,NA,NA
85741,Pima County,AZ,NA,NA,84.49848024316108
85747,Pima County,AZ,NA,NA,86.32218844984803
85749,Pima County,AZ,NA,77.8236914600551,NA
85750,Pima County,AZ,59.93377483443708,NA,NA
86047,Navajo County,AZ,NA,61.57024793388429,NA
86314,Yavapai County,AZ,38.852097130242825,NA,NA
86322,Yavapai County,AZ,42.82560706401766,NA,NA
86326,Yavapai County,AZ,19.646799116997794,NA,NA
86409,Mohave County,AZ,NA,2.8925619834710745,NA
86442,Mohave County,AZ,52.980132450331126,NA,NA
86505,Apache County,AZ,78.1456953642384,NA,NA
86511,Apache County,AZ,91.94260485651215,NA,NA
71602,Jefferson County,AR,NA,64.32506887052341,NA
71671,Bradley County,AR,NA,79.75206611570248,NA
71730,Union County,AR,NA,23.002754820936637,NA
71913,Garland County,AR,62.69315673289183,NA,NA
72076,Pulaski County,AR,41.280353200883,NA,NA
72104,Hot Spring County,AR,49.88962472406181,NA,NA
72143,White County,AR,31.236203090507725,NA,NA
72209,Pulaski County,AR,44.70198675496689,NA,NA
72401,Craighead County,AR,NA,10.055096418732782,NA
72687,Marion County,AR,NA,76.30853994490359,NA
72712,Benton County,AR,39.624724061810156,NA,NA
72774,Washington County,AR,NA,91.46005509641874,NA
90006,Los Angeles County,CA,NA,NA,34.650455927051674
90024,Los Angeles County,CA,NA,48.760330578512395,NA
90035,Los Angeles County,CA,NA,NA,89.05775075987842
90045,Los Angeles County,CA,90.06622516556291,NA,NA
90049,Los Angeles County,CA,NA,39.25619834710744,NA
90069,Los Angeles County,CA,82.45033112582782,83.33333333333334,NA
90201,Los Angeles County,CA,NA,NA,46.504559270516715
90240,Los Angeles County,CA,72.7373068432671,NA,NA
90262,Los Angeles County,CA,28.14569536423841,NA,NA
90403,Los Angeles County,CA,NA,NA,24.924012158054712
90404,Los Angeles County,CA,89.62472406181016,NA,NA
90405,Los Angeles County,CA,93.70860927152319,NA,NA
90604,Los Angeles County,CA,49.337748344370866,NA,NA
90630,Orange County,CA,39.40397350993378,NA,NA
90712,Los Angeles County,CA,NA,42.69972451790633,NA
90815,Los Angeles County,CA,NA,78.099173553719,NA
91030,Los Angeles County,CA,78.91832229580574,NA,NA
91103,Los Angeles County,CA,NA,NA,88.44984802431611
91306,Los Angeles County,CA,NA,42.837465564738295,NA
91307,Los Angeles County,CA,NA,73.00275482093664,NA
91326,Los Angeles County,CA,NA,85.26170798898072,NA
91356,Los Angeles County,CA,86.313465783664455,NA,NA
91387,Los Angeles County,CA,NA,NA,68.38905775075987
91390,Los Angeles County,CA,NA,NA,71.73252279635258
91601,Los Angeles County,CA,NA,NA,95.74468085106383
91711,Los Angeles County,CA,NA,25.757575757575758,NA
91733,Los Angeles County,CA,59.27152317880795,NA,NA
91740,Los Angeles County,CA,56.07064017660044,NA,NA
91746,Los Angeles County,CA,NA,90.9090909090909,NA
91750,Los Angeles County,CA,56.84326710816777,NA,NA
91752,Riverside County,CA,NA,80.16528925619835,NA
91767,Los Angeles County,CA,NA,44.490358126721766,NA
91786,San Bernardino County,CA,26.158940397350992,NA,NA
91791,Los Angeles County,CA,NA,41.18457300275482,NA
91932,San Diego County,CA,84.76821192052981,NA,NA
91977,San Diego County,CA,28.918322295805737,NA,NA
92010,San Diego County,CA,81.12582781456953,NA,NA
92028,San Diego County,CA,NA,42.011019283746556,NA
92037,San Diego County,CA,NA,43.93939393939394,NA
92057,San Diego County,CA,NA,50.964187327823694,NA
92069,San Diego County,CA,61.258278145695364,NA,NA
92102,San Diego County,CA,31.677704194260485,NA,NA
92118,San Diego County,CA,85.20971302428256,NA,NA
92128,San Diego County,CA,66.00441501103754,NA,9.422492401215806
92201,Riverside County,CA,19.757174392935983,NA,NA
92253,Riverside County,CA,NA,7.43801652892562,NA
92270,Riverside County,CA,NA,6.887052341597796,NA
92284,San Bernardino County,CA,21.41280353200883,NA,NA
92307,San Bernardino County,CA,NA,NA,36.77811550151976
92324,San Bernardino County,CA,NA,NA,54.1033434650456
92325,San Bernardino County,CA,NA,76.85950413223141,NA
92345,San Bernardino County,CA,NA,NA,21.27659574468085
92377,San Bernardino County,CA,71.30242825607064,NA,NA
92395,San Bernardino County,CA,NA,36.36363636363637,NA
92399,San Bernardino County,CA,24.834437086092713,17.355371900826448,NA
92507,Riverside County,CA,NA,NA,52.58358662613982
92595,Riverside County,CA,34.105960264900666,NA,NA
92612,Orange County,CA,64.56953642384106,NA,NA
92614,Orange County,CA,52.317880794701985,NA,NA
92646,Orange County,CA,67.10816777041943,NA,NA
92647,Orange County,CA,78.36644591611478,NA,NA
92694,Orange County,CA,49.448123620309055,NA,NA
92705,Orange County,CA,NA,45.73002754820937,NA
92865,Orange County,CA,NA,NA,81.7629179331307
92868,Orange County,CA,56.84326710816777,NA,NA
93003,Ventura County,CA,57.284768211920536,NA,NA
93015,Ventura County,CA,62.47240618101545,NA,NA
93060,Ventura County,CA,NA,66.80440771349862,NA
93105,Santa Barbara County,CA,NA,83.19559228650138,NA
93420,San Luis Obispo County,CA,60.04415011037527,NA,NA
93560,Kern County,CA,69.20529801324503,NA,NA
93561,Kern County,CA,NA,46.005509641873275,NA
93635,Merced County,CA,NA,NA,46.20060790273556
93636,Madera County,CA,NA,71.62534435261708,NA
93710,Fresno County,CA,54.41501103752759,NA,NA
93723,Fresno County,CA,NA,92.56198347107438,NA
93726,Fresno County,CA,NA,NA,48.02431610942249
94015,San Mateo County,CA,NA,8.402203856749312,NA
94063,San Mateo County,CA,35.54083885209713,NA,NA
94065,San Mateo County,CA,NA,88.01652892561982,NA
94066,San Mateo County,CA,NA,34.15977961432507,NA
94070,San Mateo County,CA,NA,NA,47.72036474164133
94124,San Francisco County,CA,NA,49.17355371900827,NA
94131,San Francisco County,CA,NA,47.107438016528924,NA
94134,San Francisco County,CA,NA,NA,58.35866261398176
94513,Contra Costa County,CA,28.03532008830022,NA,NA
94541,Alameda County,CA,85.98233995584988,NA,NA
94558,Napa County,CA,NA,5.234159779614325,NA
94560,Alameda County,CA,72.95805739514348,NA,NA
94561,Contra Costa County,CA,32.671081677704194,NA,NA
94566,Alameda County,CA,NA,30.02754820936639,NA
94603,Alameda County,CA,38.41059602649007,NA,NA
94605,Alameda County,CA,NA,18.87052341597796,NA
94804,Contra Costa County,CA,NA,NA,32.82674772036474
94941,Marin County,CA,66.11479028697572,NA,NA
94947,Marin County,CA,75.05518763796908,NA,NA
95060,Santa Cruz County,CA,NA,41.04683195592286,NA
95076,Santa Cruz County,CA,NA,NA,27.659574468085108
95148,Santa Clara County,CA,NA,35.81267217630854,NA
95336,San Joaquin County,CA,NA,65.97796143250689,NA
95337,San Joaquin County,CA,NA,36.36363636363637,NA
95354,Stanislaus County,CA,27.373068432671083,NA,NA
95472,Sonoma County,CA,NA,NA,74.46808510638297
95490,Mendocino County,CA,67.88079470198676,NA,NA
95501,Humboldt County,CA,NA,NA,69.6048632218845
95531,Del Norte County,CA,NA,NA,62.61398176291794
95540,Humboldt County,CA,NA,85.81267217630854,NA
95648,Placer County,CA,76.0485651214128,NA,NA
95666,Amador County,CA,NA,77.68595041322314,NA
95747,Placer County,CA,NA,31.955922865013775,NA
95765,Placer County,CA,64.67991169977924,NA,NA
95838,Sacramento County,CA,29.47019867549669,NA,NA
95901,Yuba County,CA,19.315673289183223,NA,NA
95945,Nevada County,CA,NA,29.88980716253444,NA
95965,Butte County,CA,15.562913907284766,NA,NA
96003,Shasta County,CA,36.092715231788084,NA,NA
96150,El Dorado County,CA,NA,59.22865013774105,NA
96161,Nevada County,CA,NA,96.14325068870524,NA
80016,Arapahoe County,CO,89.0728476821192,NA,NA
80020,Broomfield County,CO,NA,61.70798898071625,NA
80033,Jefferson County,CO,NA,54.40771349862259,NA
80108,Douglas County,CO,NA,52.066115702479344,NA
80116,Douglas County,CO,98.34437086092716,NA,NA
80122,Arapahoe County,CO,NA,45.867768595041326,NA
80130,Douglas County,CO,NA,72.72727272727273,NA
80132,El Paso County,CO,NA,52.20385674931129,NA
80134,Douglas County,CO,21.192052980132452,28.92561983471074,NA
80138,Douglas County,CO,71.63355408388522,NA,NA
80210,Denver County,CO,47.792494481236204,NA,NA
80226,Jefferson County,CO,NA,NA,54.1033434650456
80228,Jefferson County,CO,NA,NA,67.17325227963525
80232,Jefferson County,CO,NA,69.42148760330579,NA
80233,Adams County,CO,21.7439293598234,NA,NA
80239,Denver County,CO,NA,NA,45.8966565349544
80517,Larimer County,CO,NA,40.082644628099175,NA
80524,Larimer County,CO,24.392935982339957,NA,NA
80526,Larimer County,CO,30.79470198675497,NA,NA
80534,Weld County,CO,62.251655629139066,NA,NA
80537,Larimer County,CO,17.880794701986755,NA,NA
80602,Adams County,CO,NA,48.89807162534435,NA
80631,Weld County,CO,6.622516556291391,20.66115702479339,NA
80701,Morgan County,CO,18.322295805739515,NA,NA
80734,Phillips County,CO,NA,99.58677685950413,NA
80817,El Paso County,CO,44.81236203090508,NA,NA
80910,El Paso County,CO,50.88300220750553,NA,NA
80922,El Paso County,CO,73.28918322295806,NA,NA
81004,Pueblo County,CO,NA,24.517906336088156,NA
81401,Montrose County,CO,NA,NA,25.53191489361702
81621,Eagle County,CO,NA,98.34710743801654,NA
81635,Garfield County,CO,85.54083885209714,NA,NA
81647,Garfield County,CO,90.94922737306842,NA,NA
06040,Hartford County,CT,30.353200883002206,16.2534435261708,NA
06051,Hartford County,CT,NA,15.564738292011018,NA
06066,Tolland County,CT,15.121412803532008,NA,NA
06074,Hartford County,CT,73.50993377483444,NA,NA
06082,Hartford County,CT,NA,NA,13.069908814589665
06118,Hartford County,CT,NA,29.338842975206614,NA
06279,Tolland County,CT,87.19646799116998,NA,NA
06401,New Haven County,CT,25.055187637969095,NA,NA
06413,Middlesex County,CT,53.53200883002207,NA,NA
06415,New London County,CT,87.08609271523179,NA,NA
06450,New Haven County,CT,78.03532008830022,NA,NA
06471,New Haven County,CT,NA,99.0358126721763,NA
06475,Middlesex County,CT,NA,50.688705234159784,NA
06478,New Haven County,CT,84.98896247240619,NA,NA
06511,New Haven County,CT,69.97792494481236,NA,NA
06514,New Haven County,CT,NA,NA,95.44072948328267
06516,New Haven County,CT,NA,2.3415977961432506,NA
06517,New Haven County,CT,41.83222958057395,NA,NA
06604,Fairfield County,CT,16.225165562913908,NA,NA
06705,New Haven County,CT,18.653421633554085,NA,NA
06790,Litchfield County,CT,NA,NA,5.47112462006079
06820,Fairfield County,CT,NA,NA,73.55623100303951
06830,Fairfield County,CT,NA,NA,38.60182370820669
06831,Fairfield County,CT,NA,59.50413223140496,NA
06870,Fairfield County,CT,NA,98.20936639118457,NA
06897,Fairfield County,CT,68.76379690949227,NA,NA
06902,Fairfield County,CT,NA,NA,4.25531914893617
06905,Fairfield County,CT,70.41942604856513,NA,NA
19709,New Castle County,DE,NA,16.94214876033058,NA
19934,Kent County,DE,82.33995584988962,NA,NA
19958,Sussex County,DE,27.593818984547465,NA,NA
32073,Clay County,FL,19.5364238410596,NA,19.148936170212767
32082,St. Johns County,FL,NA,25.6198347107438,NA
32086,St. Johns County,FL,35.76158940397351,NA,NA
32092,St. Johns County,FL,43.26710816777042,NA,NA
32130,Volusia County,FL,NA,95.45454545454545,NA
32177,Putnam County,FL,67.439293598234,NA,NA
32205,Duval County,FL,NA,NA,63.22188449848024
32207,Duval County,FL,NA,9.50413223140496,NA
32208,Duval County,FL,0.5518763796909493,NA,NA
32209,Duval County,FL,NA,40.358126721763085,NA
32210,Duval County,FL,NA,74.79338842975206,NA
32216,Duval County,FL,NA,23.96694214876033,NA
32221,Duval County,FL,77.48344370860927,NA,NA
32244,Duval County,FL,NA,9.366391184573002,NA
32246,Duval County,FL,NA,NA,72.3404255319149
32258,Duval County,FL,NA,27.96143250688705,NA
32259,St. Johns County,FL,NA,29.75206611570248,NA
32348,Taylor County,FL,70.19867549668875,NA,NA
32404,Bay County,FL,19.97792494481236,NA,NA
32428,Washington County,FL,NA,45.3168044077135,NA
32503,Escambia County,FL,NA,NA,17.325227963525837
32504,Escambia County,FL,42.384105960264904,NA,NA
32505,Escambia County,FL,NA,NA,27.96352583586626
32533,Escambia County,FL,54.746136865342166,NA,NA
32539,Okaloosa County,FL,NA,56.19834710743802,NA
32561,Santa Rosa County,FL,NA,70.52341597796143,NA
32563,Santa Rosa County,FL,NA,19.55922865013774,NA
32577,Escambia County,FL,NA,65.28925619834712,NA
32578,Okaloosa County,FL,NA,16.528925619834713,18.84498480243161
32605,Alachua County,FL,NA,25.895316804407713,NA
32608,Alachua County,FL,6.070640176600441,NA,NA
32653,Alachua County,FL,NA,29.476584022038566,NA
32696,Levy County,FL,77.2626931567329,NA,NA
32746,Seminole County,FL,45.47461368653421,NA,NA
32750,Seminole County,FL,NA,NA,65.65349544072949
32780,Brevard County,FL,33.6644591611479,NA,NA
32789,Orange County,FL,NA,67.63085399449037,NA
32904,Brevard County,FL,79.3598233995585,NA,NA
32909,Brevard County,FL,NA,NA,35.86626139817629
32920,Brevard County,FL,NA,NA,58.96656534954408
32951,Brevard County,FL,NA,75.34435261707989,NA
32955,Brevard County,FL,NA,19.421487603305785,NA
33016,Miami-Dade County,FL,NA,49.311294765840216,NA
33071,Broward County,FL,NA,NA,63.829787234042556
33129,Miami-Dade County,FL,NA,NA,91.1854103343465
33132,Miami-Dade County,FL,96.57836644591612,NA,NA
33418,Palm Beach County,FL,NA,NA,8.814589665653495
33431,Palm Beach County,FL,75.71743929359823,NA,NA
33442,Broward County,FL,NA,NA,8.51063829787234
33496,Palm Beach County,FL,NA,32.36914600550964,NA
33565,Hillsborough County,FL,NA,65.0137741046832,NA
33592,Hillsborough County,FL,NA,83.60881542699724,NA
33613,Hillsborough County,FL,NA,NA,72.03647416413374
33635,Hillsborough County,FL,74.61368653421634,NA,NA
33759,Pinellas County,FL,NA,66.11570247933885,NA
33782,Pinellas County,FL,80.13245033112582,NA,NA
33809,Polk County,FL,NA,NA,27.0516717325228
33870,Highlands County,FL,NA,95.0413223140496,NA
33901,Lee County,FL,NA,36.91460055096419,NA
33903,Lee County,FL,53.973509933774835,NA,NA
33904,Lee County,FL,NA,14.738292011019283,NA
33912,Lee County,FL,NA,67.21763085399449,NA
33913,Lee County,FL,73.62030905077262,NA,NA
33919,Lee County,FL,NA,12.534435261707987,NA
33991,Lee County,FL,87.41721854304636,NA,NA
33993,Lee County,FL,79.91169977924945,91.59779614325069,NA
34105,Collier County,FL,NA,NA,69.90881458966565
34201,Manatee County,FL,NA,NA,93.61702127659575
34212,Manatee County,FL,NA,74.3801652892562,91.7933130699088
34233,Sarasota County,FL,NA,69.28374655647383,NA
34234,Sarasota County,FL,33.99558498896248,NA,NA
34433,Citrus County,FL,96.7991169977925,NA,NA
34613,Hernando County,FL,NA,26.859504132231404,NA
34667,Pasco County,FL,NA,69.6969696969697,NA
34668,Pasco County,FL,10.154525386313466,NA,NA
34691,Pasco County,FL,NA,NA,66.56534954407294
34695,Pinellas County,FL,65.12141280353201,NA,NA
34748,Lake County,FL,16.666666666666664,NA,NA
34949,St. Lucie County,FL,NA,NA,64.13373860182371
30002,DeKalb County,GA,96.90949227373068,NA,NA
30005,Fulton County,GA,88.0794701986755,NA,NA
30012,Rockdale County,GA,46.46799116997792,43.25068870523416,NA
30019,Gwinnett County,GA,81.78807947019867,NA,NA
30022,Fulton County,GA,NA,37.878787878787875,NA
30024,Gwinnett County,GA,NA,20.24793388429752,NA
30028,Forsyth County,GA,NA,47.38292011019284,NA
30043,Gwinnett County,GA,48.12362030905077,NA,NA
30046,Gwinnett County,GA,NA,NA,36.474164133738604
30054,Newton County,GA,63.576158940397356,NA,NA
30062,Cobb County,GA,NA,13.774104683195592,NA
30066,Cobb County,GA,NA,21.90082644628099,NA
30084,DeKalb County,GA,NA,55.78512396694215,NA
30094,Rockdale County,GA,NA,NA,50.75987841945289
30102,Cherokee County,GA,38.30022075055188,NA,NA
30122,Douglas County,GA,48.34437086092716,NA,NA
30127,Cobb County,GA,15.673289183222957,NA,NA
30179,Carroll County,GA,51.10375275938189,NA,NA
30188,Cherokee County,GA,47.46136865342163,NA,NA
30213,Fulton County,GA,NA,57.988980716253444,NA
30217,Heard County,GA,60.264900662251655,NA,NA
30241,Troup County,GA,22.626931567328917,44.214876033057855,NA
30252,Henry County,GA,32.78145695364238,NA,NA
30263,Coweta County,GA,8.49889624724062,58.40220385674931,NA
30274,Clayton County,GA,33.33333333333333,NA,NA
30311,Fulton County,GA,13.024282560706402,NA,NA
30319,DeKalb County,GA,NA,48.484848484848484,NA
30436,Toombs County,GA,74.17218543046357,NA,NA
30523,Habersham County,GA,NA,NA,92.09726443768997
30642,Greene County,GA,71.41280353200882,NA,NA
30710,Whitfield County,GA,84.65783664459161,NA,NA
30813,Columbia County,GA,NA,NA,53.799392097264445
30815,Richmond County,GA,45.6953642384106,12.258953168044078,NA
31024,Putnam County,GA,48.78587196467991,NA,NA
31088,Houston County,GA,NA,18.044077134986225,NA
31089,Washington County,GA,NA,100,NA
31313,Liberty County,GA,78.47682119205298,NA,NA
31408,Chatham County,GA,NA,NA,80.54711246200608
31410,Chatham County,GA,NA,66.39118457300276,NA
31503,Ware County,GA,43.4878587196468,NA,NA
31510,Bacon County,GA,NA,66.2534435261708,NA
31520,Glynn County,GA,42.93598233995585,NA,NA
31545,Wayne County,GA,NA,45.17906336088154,NA
31557,Pierce County,GA,100,NA,NA
31701,Dougherty County,GA,NA,97.52066115702479,NA
31768,Colquitt County,GA,NA,NA,51.06382978723404
31816,Meriwether County,GA,91.61147902869757,NA,NA
31833,Troup County,GA,69.6467991169978,NA,NA
31906,Muscogee County,GA,34.32671081677704,NA,NA
39819,Decatur County,GA,71.52317880794702,NA,NA
83221,Bingham County,ID,NA,NA,40.121580547112465
83330,Gooding County,ID,NA,NA,67.47720364741642
83333,Blaine County,ID,NA,53.58126721763086,NA
83401,Bonneville County,ID,12.141280353200882,33.47107438016529,NA
83404,Bonneville County,ID,72.84768211920529,70.38567493112947,NA
83440,Madison County,ID,NA,84.43526170798899,NA
83467,Lemhi County,ID,NA,NA,53.49544072948328
83530,Idaho County,ID,NA,73.4159779614325,NA
83616,Ada County,ID,40.83885209713024,NA,NA
83686,Canyon County,ID,26.82119205298013,NA,38.90577507598784
83716,Ada County,ID,NA,NA,56.53495440729483
83815,Kootenai County,ID,29.58057395143488,NA,NA
83835,Kootenai County,ID,48.8962472406181,NA,NA
83843,Latah County,ID,54.63576158940398,NA,NA
60014,McHenry County,IL,50.993377483443716,NA,NA
60016,Cook County,IL,NA,10.192837465564738,NA
60022,Cook County,IL,NA,NA,87.2340425531915
60025,Cook County,IL,NA,93.25068870523417,NA
60035,Lake County,IL,NA,11.983471074380166,NA
60050,McHenry County,IL,32.450331125827816,NA,15.19756838905775
60053,Cook County,IL,NA,NA,23.404255319148938
60060,Lake County,IL,40.06622516556291,NA,NA
60070,Cook County,IL,NA,87.05234159779614,NA
60077,Cook County,IL,NA,NA,7.29483282674772
60085,Lake County,IL,NA,58.81542699724518,NA
60089,Lake County,IL,88.85209713024283,NA,NA
60093,Cook County,IL,84.76821192052981,NA,NA
60103,DuPage County,IL,23.28918322295806,NA,NA
60108,DuPage County,IL,NA,NA,26.443768996960486
60142,McHenry County,IL,NA,8.953168044077135,NA
60156,McHenry County,IL,NA,76.72176308539946,NA
60174,Kane County,IL,NA,NA,32.21884498480243
60181,DuPage County,IL,94.37086092715232,NA,NA
60402,Cook County,IL,9.602649006622517,NA,NA
60408,Will County,IL,83.77483443708608,NA,NA
60435,Will County,IL,NA,54.958677685950406,16.41337386018237
60445,Cook County,IL,48.56512141280353,NA,NA
60449,Will County,IL,95.47461368653421,NA,NA
60453,Cook County,IL,NA,6.749311294765841,NA
60477,Cook County,IL,21.52317880794702,NA,NA
60504,DuPage County,IL,29.69094922737307,52.61707988980716,NA
60506,Kane County,IL,NA,20.9366391184573,NA
60513,Cook County,IL,NA,48.34710743801653,NA
60527,DuPage County,IL,NA,NA,14.893617021276595
60543,Kendall County,IL,NA,39.807162534435264,NA
60561,DuPage County,IL,51.324503311258276,NA,NA
60586,Will County,IL,55.960264900662246,NA,NA
60620,Cook County,IL,NA,2.203856749311295,NA
60625,Cook County,IL,8.830022075055188,NA,NA
60640,Cook County,IL,NA,50,NA
60641,Cook County,IL,54.3046357615894,NA,NA
60646,Cook County,IL,79.80132450331125,NA,NA
60651,Cook County,IL,NA,64.18732782369146,NA
60655,Cook County,IL,NA,60.46831955922865,NA
60659,Cook County,IL,38.63134657836645,22.176308539944902,NA
60950,Kankakee County,IL,65.45253863134658,NA,NA
61068,Ogle County,IL,NA,NA,62.00607902735562
61103,Winnebago County,IL,46.24724061810154,NA,NA
61201,Rock Island County,IL,74.28256070640177,NA,NA
61241,Henry County,IL,92.16335540838853,NA,NA
61265,Rock Island County,IL,NA,NA,12.462006079027356
61356,Bureau County,IL,NA,57.162534435261705,NA
61704,McLean County,IL,NA,35.53719008264463,NA
61705,McLean County,IL,71.7439293598234,NA,NA
61761,McLean County,IL,NA,33.608815426997246,NA
62221,St. Clair County,IL,NA,NA,55.319148936170215
62230,Clinton County,IL,NA,86.08815426997245,NA
62231,Clinton County,IL,NA,66.52892561983471,NA
62236,Monroe County,IL,92.82560706401766,NA,NA
62239,St. Clair County,IL,99.55849889624724,NA,NA
62439,Lawrence County,IL,NA,93.66391184573003,NA
62522,Macon County,IL,NA,NA,36.77811550151976
62703,Sangamon County,IL,24.061810154525386,NA,NA
62801,Marion County,IL,NA,23.140495867768596,NA
62839,Clay County,IL,76.37969094922738,NA,NA
62859,Hamilton County,IL,82.78145695364239,NA,NA
62864,Jefferson County,IL,NA,64.87603305785123,NA
62896,Franklin County,IL,NA,NA,44.07294832826747
46012,Madison County,IN,NA,NA,27.35562310030395
46016,Madison County,IN,NA,59.09090909090909,NA
46040,Hancock County,IN,89.95584988962473,NA,NA
46052,Boone County,IN,NA,70.24793388429752,NA
46060,Hamilton County,IN,25.717439293598233,NA,NA
46062,Hamilton County,IN,NA,14.600550964187327,NA
46168,Hendricks County,IN,33.443708609271525,NA,NA
46203,Marion County,IN,7.28476821192053,12.121212121212121,NA
46208,Marion County,IN,28.697571743929362,NA,NA
46221,Marion County,IN,NA,65.84022038567493,NA
46224,Marion County,IN,NA,70.79889807162535,NA
46226,Marion County,IN,NA,41.460055096418735,NA
46239,Marion County,IN,47.57174392935982,NA,NA
46241,Marion County,IN,16.55629139072848,NA,NA
46304,Porter County,IN,NA,15.289256198347106,NA
46307,Lake County,IN,11.147902869757175,NA,NA
46310,Jasper County,IN,NA,49.862258953168045,NA
46312,Lake County,IN,13.796909492273732,NA,NA
46319,Lake County,IN,21.96467991169978,NA,NA
46385,Porter County,IN,NA,19.146005509641874,NA
46407,Lake County,IN,NA,NA,57.446808510638306
46410,Lake County,IN,5.739514348785872,NA,NA
46544,St. Joseph County,IN,39.735099337748345,NA,NA
46563,Marshall County,IN,NA,19.696969696969695,NA
46614,St. Joseph County,IN,NA,NA,66.26139817629179
46628,St. Joseph County,IN,NA,NA,60.790273556231
46701,Noble County,IN,NA,86.08815426997245,NA
46703,Steuben County,IN,NA,30.165289256198346,NA
46725,Whitley County,IN,24.392935982339957,17.90633608815427,NA
46737,Steuben County,IN,NA,79.20110192837465,NA
46748,Allen County,IN,86.75496688741721,NA,NA
46755,Noble County,IN,22.29580573951435,NA,NA
46815,Allen County,IN,58.27814569536424,NA,NA
46816,Allen County,IN,77.37306843267108,NA,NA
46825,Allen County,IN,NA,22.58953168044077,NA
46835,Allen County,IN,NA,9.090909090909092,NA
46902,Howard County,IN,2.759381898454746,NA,NA
46970,Miami County,IN,7.9470198675496695,NA,NA
47001,Dearborn County,IN,88.30022075055187,NA,NA
47102,Scott County,IN,80.79470198675497,NA,NA
47150,Floyd County,IN,NA,28.512396694214875,NA
47165,Washington County,IN,NA,89.94490358126723,NA
47170,Scott County,IN,NA,46.41873278236915,NA
47374,Wayne County,IN,NA,2.479338842975207,NA
47394,Randolph County,IN,64.90066225165563,NA,NA
47460,Owen County,IN,93.04635761589404,NA,NA
47591,Knox County,IN,NA,NA,16.109422492401215
47714,Vanderburgh County,IN,NA,NA,26.13981762917933
47805,Vigo County,IN,53.86313465783664,NA,NA
50009,Polk County,IA,95.25386313465783,NA,NA
50047,Warren County,IA,94.03973509933775,NA,NA
50138,Marion County,IA,NA,NA,20.364741641337385
50201,Story County,IA,93.04635761589404,NA,NA
50219,Marion County,IA,79.13907284768213,NA,NA
50314,Polk County,IA,67.66004415011038,NA,NA
50315,Polk County,IA,6.843267108167771,NA,NA
50317,Polk County,IA,9.713024282560706,40.77134986225895,NA
50325,Polk County,IA,NA,95.31680440771349,NA
50401,Cerro Gordo County,IA,NA,31.54269972451791,1.21580547112462
50501,Webster County,IA,NA,28.78787878787879,NA
50613,Black Hawk County,IA,NA,NA,3.64741641337386
50801,Union County,IA,64.01766004415012,NA,NA
51301,Clay County,IA,43.70860927152318,NA,NA
51351,Dickinson County,IA,NA,88.84297520661157,NA
51501,Pottawattamie County,IA,NA,34.02203856749311,NA
51503,Pottawattamie County,IA,NA,2.7548209366391188,NA
52001,Dubuque County,IA,12.803532008830022,NA,NA
52002,Dubuque County,IA,NA,96.41873278236915,NA
52302,Linn County,IA,46.799116997792495,NA,NA
52402,Linn County,IA,61.58940397350994,NA,NA
52404,Linn County,IA,NA,45.45454545454545,NA
52537,Davis County,IA,NA,88.42975206611571,NA
52544,Appanoose County,IA,65.67328918322296,NA,NA
52601,Des Moines County,IA,NA,13.360881542699724,NA
52641,Henry County,IA,NA,48.62258953168045,NA
52761,Muscatine County,IA,NA,38.01652892561984,NA
66002,Atchison County,KS,NA,52.47933884297521,NA
66030,Johnson County,KS,82.560706401766,NA,NA
66043,Leavenworth County,KS,NA,NA,88.14589665653494
66061,Johnson County,KS,NA,57.30027548209367,NA
66062,Johnson County,KS,73.9514348785872,NA,NA
66205,Johnson County,KS,NA,59.641873278236915,NA
66227,Johnson County,KS,92.49448123620309,NA,NA
66441,Geary County,KS,82.22958057395144,NA,NA
66604,Shawnee County,KS,39.0728476821192,NA,NA
66749,Allen County,KS,93.37748344370861,NA,NA
66762,Crawford County,KS,NA,43.66391184573003,NA
67042,Butler County,KS,NA,NA,44.984802431610944
67204,Sedgwick County,KS,NA,61.294765840220386,NA
67230,Sedgwick County,KS,NA,96.28099173553719,NA
67401,Saline County,KS,17.439293598233995,NA,NA
67420,Mitchell County,KS,95.03311258278146,NA,NA
67530,Barton County,KS,NA,50.27548209366392,NA
67601,Ellis County,KS,NA,15.426997245179063,6.68693009118541
40143,Breckinridge County,KY,NA,NA,77.81155015197568
40203,Jefferson County,KY,18.211920529801322,NA,NA
40206,Jefferson County,KY,60.9271523178808,NA,NA
40208,Jefferson County,KY,NA,81.26721763085399,NA
40212,Jefferson County,KY,20.97130242825607,64.0495867768595,NA
40213,Jefferson County,KY,28.807947019867548,NA,NA
40215,Jefferson County,KY,76.15894039735099,NA,NA
40216,Jefferson County,KY,NA,10.881542699724518,NA
40220,Jefferson County,KY,NA,17.355371900826448,NA
40228,Jefferson County,KY,58.498896247240616,NA,NA
40229,Jefferson County,KY,10.264900662251655,NA,NA
40272,Jefferson County,KY,NA,44.76584022038568,NA
40353,Montgomery County,KY,17.991169977924944,NA,NA
40356,Jessamine County,KY,36.423841059602644,51.92837465564738,NA
40391,Clark County,KY,6.512141280353201,NA,NA
40409,Rockcastle County,KY,94.26048565121413,NA,NA
40502,Fayette County,KY,NA,84.57300275482093,NA
40515,Fayette County,KY,NA,72.58953168044077,94.22492401215806
40517,Fayette County,KY,NA,79.33884297520662,NA
40965,Bell County,KY,21.85430463576159,NA,NA
41001,Campbell County,KY,57.17439293598234,NA,NA
41011,Kenton County,KY,NA,55.509641873278234,NA
41071,Campbell County,KY,22.075055187637968,NA,NA
41076,Campbell County,KY,NA,42.28650137741047,NA
41101,Boyd County,KY,NA,NA,76.89969604863222
42001,McCracken County,KY,NA,49.72451790633609,NA
42025,Marshall County,KY,NA,35.26170798898072,NA
42066,Graves County,KY,NA,17.63085399449036,NA
42129,Metcalfe County,KY,50.77262693156733,NA,NA
42141,Barren County,KY,10.375275938189846,NA,NA
42330,Muhlenberg County,KY,NA,76.85950413223141,NA
42366,Daviess County,KY,NA,NA,97.87234042553192
42459,Union County,KY,94.48123620309052,NA,NA
42718,Taylor County,KY,10.816777041942604,NA,NA
70001,Jefferson Parish,LA,3.090507726269316,NA,NA
70003,Jefferson Parish,LA,NA,2.066115702479339,NA
70005,Jefferson Parish,LA,NA,NA,30.091185410334347
70058,Jefferson Parish,LA,1.545253863134658,NA,NA
70065,Jefferson Parish,LA,NA,16.804407713498623,NA
70068,St. John the Baptist Parish,LA,77.59381898454745,NA,NA
70346,Ascension Parish,LA,NA,NA,67.78115501519757
70360,Terrebonne Parish,LA,8.719646799116997,NA,NA
70431,St. Tammany Parish,LA,NA,63.498622589531685,NA
70441,St. Helena Parish,LA,NA,93.93939393939394,NA
70454,Tangipahoa Parish,LA,72.40618101545255,NA,NA
70461,St. Tammany Parish,LA,NA,48.209366391184574,NA
70466,Tangipahoa Parish,LA,44.03973509933775,78.78787878787878,NA
70471,St. Tammany Parish,LA,34.437086092715234,NA,NA
70517,St. Martin Parish,LA,NA,15.84022038567493,NA
70560,Iberia Parish,LA,NA,38.980716253443525,25.835866261398177
70563,Iberia Parish,LA,NA,NA,79.93920972644378
70570,St. Landry Parish,LA,0.772626931567329,NA,NA
70578,Acadia Parish,LA,47.35099337748344,NA,NA
70592,Lafayette Parish,LA,NA,NA,76.29179331306992
70634,Beauregard Parish,LA,NA,30.71625344352617,NA
70737,Ascension Parish,LA,NA,NA,28.267477203647417
70785,Livingston Parish,LA,NA,29.201101928374655,NA
70806,East Baton Rouge Parish,LA,11.258278145695364,NA,NA
70810,East Baton Rouge Parish,LA,NA,22.03856749311295,NA
71037,Bossier Parish,LA,NA,72.86501377410468,NA
71104,Caddo Parish,LA,NA,82.09366391184572,NA
71105,Caddo Parish,LA,32.560706401766005,NA,NA
71106,Caddo Parish,LA,NA,95.17906336088154,NA
71107,Caddo Parish,LA,14.348785871964681,92.69972451790633,NA
71119,Caddo Parish,LA,NA,NA,59.57446808510638
71220,Morehouse Parish,LA,15.45253863134658,NA,NA
71342,La Salle Parish,LA,52.207505518763796,NA,NA
71360,Rapides Parish,LA,9.381898454746135,NA,NA
03903,York County,ME,74.50331125827815,NA,NA
03908,York County,ME,NA,NA,92.401215805471125
04011,Cumberland County,ME,NA,21.763085399449036,NA
04032,Cumberland County,ME,NA,NA,62.91793313069909
04072,York County,ME,NA,15.977961432506888,NA
04073,York County,ME,NA,60.88154269972452,NA
04240,Androscoggin County,ME,NA,15.702479338842975,NA
04330,Kennebec County,ME,61.037527593818986,NA,NA
04364,Kennebec County,ME,50.11037527593819,NA,NA
20745,Prince George's County,MD,64.79028697571744,NA,NA
20782,Prince George's County,MD,73.73068432671081,NA,NA
20854,Montgomery County,MD,NA,26.997245179063363,NA
20910,Montgomery County,MD,51.434878587196465,NA,NA
21014,Harford County,MD,34.216335540838855,NA,NA
21042,Howard County,MD,62.14128035320088,NA,NA
21087,Baltimore County,MD,NA,NA,94.52887537993921
21213,Baltimore city,MD,NA,69.55922865013774,81.45896656534954
21215,Baltimore city,MD,NA,7.43801652892562,NA
21224,Baltimore city,MD,13.686534216335541,NA,NA
21502,Allegany County,MD,19.205298013245034,NA,NA
21742,Washington County,MD,57.505518763796914,NA,NA
21863,Worcester County,MD,89.73509933774835,NA,NA
01001,Hampden County,MA,51.65562913907284,NA,NA
01057,Hampden County,MA,25.496688741721858,NA,NA
01085,Hampden County,MA,0.9933774834437087,NA,NA
01104,Hampden County,MA,0.8830022075055187,8.264462809917356,NA
01107,Hampden County,MA,NA,79.06336088154269,NA
01118,Hampden County,MA,NA,NA,97.26443768996961
01201,Berkshire County,MA,7.06401766004415,NA,NA
01220,Berkshire County,MA,NA,32.78236914600551,NA
01247,Berkshire County,MA,61.147902869757175,NA,NA
01301,Franklin County,MA,NA,30.853994490358126,NA
01420,Worcester County,MA,NA,1.1019283746556474,NA
01440,Worcester County,MA,1.1037527593818985,NA,NA
01510,Worcester County,MA,43.81898454746137,NA,NA
01562,Worcester County,MA,23.06843267108168,NA,NA
01583,Worcester County,MA,69.5364238410596,NA,NA
01588,Worcester County,MA,77.04194260485652,NA,NA
01590,Worcester County,MA,NA,NA,74.16413373860182
01603,Worcester County,MA,NA,1.2396694214876034,NA
01604,Worcester County,MA,NA,NA,2.735562310030395
01605,Worcester County,MA,0.6622516556291391,NA,NA
01609,Worcester County,MA,39.845474613686534,NA,4.5592705167173255
01702,Middlesex County,MA,7.836644591611479,NA,NA
01721,Middlesex County,MA,58.05739514348785,NA,NA
01748,Middlesex County,MA,36.53421633554083,NA,NA
01756,Worcester County,MA,83.6644591611479,NA,NA
01757,Worcester County,MA,25.165562913907287,NA,NA
01760,Middlesex County,MA,NA,6.336088154269973,NA
01810,Essex County,MA,11.037527593818984,NA,NA
01821,Middlesex County,MA,NA,13.498622589531681,NA
01824,Middlesex County,MA,7.6158940397351,NA,NA
01832,Essex County,MA,2.097130242825607,NA,NA
01835,Essex County,MA,NA,76.17079889807162,NA
01841,Essex County,MA,24.282560706401764,NA,NA
01844,Essex County,MA,NA,62.396694214876035,NA
01845,Essex County,MA,52.42825607064018,NA,NA
01876,Middlesex County,MA,NA,1.5151515151515151,NA
01880,Middlesex County,MA,5.849889624724062,NA,NA
01890,Middlesex County,MA,NA,82.36914600550963,NA
01913,Essex County,MA,20.41942604856512,NA,NA
01938,Essex County,MA,37.969094922737305,NA,NA
01960,Essex County,MA,12.91390728476821,0.27548209366391185,NA
02062,Norfolk County,MA,NA,9.917355371900827,NA
02066,Plymouth County,MA,NA,38.15426997245179,NA
02081,Norfolk County,MA,NA,39.531680440771346,NA
02093,Norfolk County,MA,49.22737306843267,NA,NA
02108,Suffolk County,MA,83.11258278145695,NA,NA
02124,Suffolk County,MA,0.22075055187637968,NA,NA
02125,Suffolk County,MA,44.260485651214125,NA,NA
02126,Suffolk County,MA,3.3112582781456954,NA,NA
02132,Suffolk County,MA,NA,54.269972451790636,NA
02135,Suffolk County,MA,NA,NA,1.5197568389057752
02139,Middlesex County,MA,26.71081677704194,NA,NA
02140,Middlesex County,MA,NA,9.228650137741047,NA
02148,Middlesex County,MA,1.2141280353200883,0.13774104683195593,NA
02151,Suffolk County,MA,0,NA,NA
02169,Norfolk County,MA,NA,NA,0
02190,Norfolk County,MA,94.70198675496688,NA,NA
02360,Plymouth County,MA,NA,14.46280991735537,NA
02445,Norfolk County,MA,51.76600441501103,NA,NA
02446,Norfolk County,MA,NA,48.07162534435262,NA
02453,Middlesex County,MA,27.81456953642384,NA,NA
02459,Middlesex County,MA,NA,18.732782369146005,NA
02472,Middlesex County,MA,23.841059602649008,NA,NA
02474,Middlesex County,MA,85.09933774834437,NA,NA
02478,Middlesex County,MA,NA,NA,31.61094224924012
02536,Barnstable County,MA,83.00220750551877,NA,NA
02563,Barnstable County,MA,63.24503311258278,NA,NA
02568,Dukes County,MA,NA,34.84848484848485,NA
02631,Barnstable County,MA,NA,68.59504132231406,NA
02632,Barnstable County,MA,NA,40.49586776859504,NA
02649,Barnstable County,MA,NA,NA,65.95744680851064
02660,Barnstable County,MA,92.27373068432672,NA,NA
02703,Bristol County,MA,NA,0.6887052341597797,NA
02717,Bristol County,MA,NA,93.1129476584022,NA
02719,Bristol County,MA,37.63796909492274,99.17355371900827,NA
02743,Bristol County,MA,83.55408388520972,NA,NA
02745,Bristol County,MA,11.589403973509933,NA,NA
02746,Bristol County,MA,66.77704194260485,NA,NA
02747,Bristol County,MA,22.8476821192053,NA,NA
02771,Bristol County,MA,NA,NA,97.56838905775076
48005,Macomb County,MI,NA,86.91460055096418,NA
48030,Oakland County,MI,35.430463576158935,NA,NA
48040,St. Clair County,MI,64.34878587196468,NA,NA
48044,Macomb County,MI,NA,4.40771349862259,NA
48062,Macomb County,MI,75.27593818984548,NA,NA
48073,Oakland County,MI,NA,74.65564738292011,NA
48080,Macomb County,MI,NA,NA,52.88753799392097
48081,Macomb County,MI,NA,NA,14.58966565349544
48089,Macomb County,MI,NA,91.32231404958677,NA
48111,Wayne County,MI,5.408388520971302,4.820936639118457,NA
48116,Livingston County,MI,NA,NA,10.33434650455927
48118,Washtenaw County,MI,NA,26.72176308539945,NA
48141,Wayne County,MI,NA,44.62809917355372,NA
48154,Wayne County,MI,50.66225165562914,NA,NA
48169,Livingston County,MI,90.83885209713024,NA,NA
48185,Wayne County,MI,4.525386313465784,NA,NA
48189,Washtenaw County,MI,75.82781456953643,NA,NA
48197,Washtenaw County,MI,NA,0.9641873278236914,NA
48203,Wayne County,MI,12.251655629139073,NA,NA
48207,Wayne County,MI,NA,27.823691460055095,NA
48219,Wayne County,MI,NA,1.6528925619834711,NA
48221,Wayne County,MI,20.309050772626932,NA,NA
48310,Macomb County,MI,NA,11.15702479338843,NA
48313,Macomb County,MI,68.10154525386314,NA,NA
48317,Macomb County,MI,18.432671081677704,NA,51.3677811550152
48331,Oakland County,MI,NA,NA,23.70820668693009
48336,Oakland County,MI,NA,NA,58.05471124620061
48341,Oakland County,MI,NA,94.0771349862259,NA
48348,Oakland County,MI,30.022075055187635,NA,NA
48359,Oakland County,MI,93.81898454746137,NA,NA
48363,Oakland County,MI,89.1832229580574,NA,NA
48371,Oakland County,MI,30.90507726269316,NA,NA
48375,Oakland County,MI,NA,44.0771349862259,NA
48380,Oakland County,MI,88.63134657836645,NA,NA
48381,Oakland County,MI,NA,NA,43.76899696048632
48382,Oakland County,MI,79.69094922737307,NA,55.01519756838906
48415,Saginaw County,MI,NA,56.33608815426997,NA
48446,Lapeer County,MI,NA,19.696969696969695,NA
48601,Saginaw County,MI,NA,37.74104683195592,NA
48602,Saginaw County,MI,53.31125827814569,NA,NA
48603,Saginaw County,MI,NA,53.168044077134994,NA
48604,Saginaw County,MI,73.39955849889624,NA,68.69300911854104
48616,Saginaw County,MI,73.06843267108167,NA,NA
48625,Clare County,MI,23.399558498896248,NA,NA
48626,Saginaw County,MI,NA,63.63636363636363,NA
48629,Roscommon County,MI,NA,60.74380165289256,NA
48638,Saginaw County,MI,92.60485651214128,80.57851239669421,NA
48732,Bay County,MI,45.033112582781456,NA,NA
48750,Iosco County,MI,66.3355408388521,NA,NA
48843,Livingston County,MI,10.706401766004415,3.1680440771349865,NA
49002,Kalamazoo County,MI,27.262693156732894,81.40495867768594,NA
49004,Kalamazoo County,MI,66.55629139072848,NA,NA
49006,Kalamazoo County,MI,80.24282560706402,NA,80.24316109422493
49007,Kalamazoo County,MI,63.35540838852097,NA,NA
49008,Kalamazoo County,MI,56.73289183222958,71.21212121212122,47.41641337386018
49009,Kalamazoo County,MI,10.596026490066226,87.19008264462809,93.00911854103343
49014,Calhoun County,MI,60.70640176600441,NA,23.10030395136778
49024,Kalamazoo County,MI,NA,NA,55.62310030395137
49036,Branch County,MI,53.42163355408388,NA,NA
49037,Calhoun County,MI,NA,NA,83.89057750759878
49045,Van Buren County,MI,NA,74.24242424242425,NA
49046,Barry County,MI,90.17660044150111,NA,NA
49047,Cass County,MI,NA,71.34986225895317,NA
49048,Kalamazoo County,MI,15.011037527593817,24.931129476584022,NA
49053,Kalamazoo County,MI,72.07505518763797,NA,NA
49058,Barry County,MI,24.834437086092713,NA,NA
49065,Van Buren County,MI,68.32229580573951,NA,NA
49068,Calhoun County,MI,NA,NA,29.17933130699088
49071,Van Buren County,MI,NA,92.28650137741047,98.48024316109422
49079,Van Buren County,MI,81.45695364238411,88.98071625344353,93.9209726443769
49080,Allegan County,MI,35.65121412803532,NA,NA
49087,Kalamazoo County,MI,95.80573951434879,NA,NA
49097,Kalamazoo County,MI,56.40176600441501,NA,NA
49221,Lenawee County,MI,63.13465783664459,3.3057851239669422,NA
49307,Mecosta County,MI,NA,52.61707988980716,NA
49323,Allegan County,MI,88.96247240618102,NA,NA
49343,Kent County,MI,99.22737306843267,NA,NA
49401,Ottawa County,MI,NA,NA,87.2340425531915
49412,Newaygo County,MI,57.395143487858725,NA,NA
49424,Ottawa County,MI,NA,38.56749311294766,NA
49445,Muskegon County,MI,29.80132450331126,17.21763085399449,NA
49461,Muskegon County,MI,NA,NA,78.419452887538
49503,Kent County,MI,NA,29.0633608815427,NA
49504,Kent County,MI,NA,NA,6.990881458966565
49506,Kent County,MI,20.198675496688743,NA,NA
49508,Kent County,MI,4.635761589403973,31.267217630853995,NA
49509,Kent County,MI,65.78366445916114,NA,NA
49519,Kent County,MI,NA,23.27823691460055,NA
49534,Kent County,MI,49.55849889624724,NA,NA
49548,Kent County,MI,24.17218543046358,NA,NA
49631,Osceola County,MI,NA,81.68044077134986,NA
49646,Kalkaska County,MI,44.370860927152314,NA,NA
49677,Osceola County,MI,NA,NA,49.848024316109424
49738,Crawford County,MI,NA,NA,96.04863221884499
49783,Chippewa County,MI,NA,NA,34.954407294832826
49829,Delta County,MI,27.1523178807947,57.438016528925615,NA
49837,Delta County,MI,NA,NA,77.20364741641338
49849,Marquette County,MI,39.18322295805739,NA,NA
49854,Schoolcraft County,MI,99.11699779249447,NA,NA
49855,Marquette County,MI,11.699779249448124,NA,20.66869300911854
49913,Houghton County,MI,NA,NA,35.56231003039514
49938,Gogebic County,MI,81.67770419426049,41.460055096418735,48.632218844984806
55016,Washington County,MN,NA,89.25619834710744,NA
55051,Kanabec County,MN,51.98675496688742,NA,NA
55063,Pine County,MN,NA,90.77134986225896,NA
55066,Goodhue County,MN,37.30684326710817,46.96969696969697,NA
55079,Chisago County,MN,92.05298013245033,NA,NA
55082,Washington County,MN,NA,67.90633608815428,NA
55102,Ramsey County,MN,NA,64.60055096418733,NA
55112,Ramsey County,MN,NA,NA,17.02127659574468
55128,Washington County,MN,40.2869757174393,NA,NA
55343,Hennepin County,MN,NA,32.5068870523416,NA
55350,McLeod County,MN,NA,25.068870523415974,NA
55352,Scott County,MN,81.23620309050773,NA,NA
55371,Mille Lacs County,MN,NA,97.93388429752066,NA
55374,Hennepin County,MN,NA,84.15977961432507,NA
55408,Hennepin County,MN,9.271523178807946,NA,NA
55410,Hennepin County,MN,89.51434878587196,98.62258953168043,NA
55432,Anoka County,MN,NA,37.327823691460054,NA
55437,Hennepin County,MN,NA,72.1763085399449,NA
55444,Hennepin County,MN,50.11037527593819,NA,NA
55447,Hennepin County,MN,NA,93.52617079889806,NA
55792,St. Louis County,MN,NA,NA,50.15197568389058
55804,St. Louis County,MN,NA,NA,19.45288753799392
55806,St. Louis County,MN,51.87637969094923,NA,NA
55810,St. Louis County,MN,NA,NA,86.62613981762918
55904,Olmsted County,MN,NA,NA,29.48328267477204
55912,Mower County,MN,5.629139072847682,NA,NA
56087,Brown County,MN,NA,97.65840220385675,NA
56164,Pipestone County,MN,NA,73.4159779614325,NA
56187,Nobles County,MN,NA,30.991735537190085,NA
56308,Douglas County,MN,84.32671081677704,10.606060606060606,NA
56470,Hubbard County,MN,NA,NA,31.00303951367781
56537,Otter Tail County,MN,59.71302428256071,7.43801652892562,NA
56549,Clay County,MN,98.67549668874173,NA,NA
56560,Clay County,MN,22.958057395143488,78.51239669421489,NA
56573,Otter Tail County,MN,NA,86.36363636363636,NA
56636,Itasca County,MN,68.32229580573951,NA,NA
38614,Coahoma County,MS,NA,NA,64.74164133738601
38821,Monroe County,MS,52.86975717439294,NA,NA
38849,Lee County,MS,99.44812362030905,NA,NA
38863,Pontotoc County,MS,86.20309050772626,NA,NA
38922,Yalobusha County,MS,NA,92.14876033057851,NA
39059,Copiah County,MS,70.75055187637969,NA,NA
39090,Attala County,MS,61.47902869757175,NA,NA
39110,Madison County,MS,32.89183222958057,NA,NA
39183,Warren County,MS,NA,73.96694214876032,71.42857142857143
39212,Hinds County,MS,NA,79.47658402203857,NA
39301,Lauderdale County,MS,96.46799116997794,39.11845730027548,NA
39307,Lauderdale County,MS,88.52097130242825,NA,NA
39339,Winston County,MS,NA,57.02479338842975,NA
39345,Newton County,MS,94.92273730684326,NA,NA
39350,Neshoba County,MS,NA,58.1267217630854,NA
39422,Jasper County,MS,72.29580573951435,NA,NA
39428,Covington County,MS,NA,81.81818181818183,NA
39452,George County,MS,80.3532008830022,NA,NA
39466,Pearl River County,MS,NA,14.049586776859504,NA
39564,Jackson County,MS,27.041942604856512,NA,NA
39573,Stone County,MS,NA,74.51790633608816,NA
39701,Lowndes County,MS,59.05077262693157,NA,NA
63005,St. Louis County,MO,NA,86.77685950413223,NA
63026,St. Louis County,MO,NA,11.294765840220386,NA
63031,St. Louis County,MO,NA,NA,5.775075987841945
63033,St. Louis County,MO,NA,NA,28.57142857142857
63050,Jefferson County,MO,NA,NA,100
63109,St. Louis city,MO,NA,33.7465564738292,NA
63122,St. Louis County,MO,NA,19.97245179063361,NA
63125,St. Louis County,MO,NA,NA,12.158054711246201
63129,St. Louis County,MO,NA,5.785123966942149,NA
63139,St. Louis city,MO,NA,57.85123966942148,NA
63303,St. Charles County,MO,48.45474613686534,9.77961432506887,6.079027355623101
63367,St. Charles County,MO,49.11699779249448,NA,NA
63376,St. Charles County,MO,48.675496688741724,NA,NA
63379,Lincoln County,MO,54.19426048565121,NA,NA
63390,Warren County,MO,65.56291390728477,NA,NA
63401,Marion County,MO,98.23399558498896,NA,NA
63841,Stoddard County,MO,42.27373068432671,NA,NA
63901,Butler County,MO,NA,19.00826446280992,NA
64024,Clay County,MO,NA,94.21487603305785,NA
64083,Cass County,MO,NA,95.86776859504133,NA
64085,Ray County,MO,41.390728476821195,NA,NA
64086,Jackson County,MO,NA,31.818181818181817,NA
64116,Clay County,MO,NA,NA,43.46504559270517
64118,Clay County,MO,NA,6.473829201101928,NA
64134,Jackson County,MO,NA,63.08539944903582,56.838905775075986
64151,Platte County,MO,NA,44.90358126721763,NA
64155,Clay County,MO,18.543046357615893,NA,NA
64157,Clay County,MO,27.373068432671083,NA,NA
64506,Buchanan County,MO,15.783664459161148,NA,NA
64507,Buchanan County,MO,21.30242825607064,NA,NA
65020,Camden County,MO,66.88741721854305,NA,NA
65037,Morgan County,MO,NA,90.35812672176309,NA
65049,Camden County,MO,NA,74.10468319559229,NA
65301,Pettis County,MO,32.22958057395143,NA,NA
65355,Benton County,MO,43.59823399558499,NA,NA
65459,Pulaski County,MO,NA,97.2451790633609,NA
65536,Laclede County,MO,NA,NA,83.58662613981764
65565,Crawford County,MO,93.92935982339957,NA,NA
65605,Lawrence County,MO,68.21192052980133,NA,NA
65613,Polk County,MO,NA,NA,15.501519756838904
65616,Taney County,MO,30.242825607064017,NA,NA
65622,Dallas County,MO,67.10816777041943,NA,NA
65689,Texas County,MO,85.76158940397352,NA,NA
65775,Howell County,MO,NA,82.64462809917356,NA
65785,Cedar County,MO,85.65121412803532,NA,NA
65793,Howell County,MO,88.18984547461368,NA,NA
65810,Greene County,MO,NA,97.38292011019284,NA
59270,Richland County,MT,NA,80.71625344352617,NA
59401,Cascade County,MT,73.17880794701986,NA,31.914893617021278
59404,Cascade County,MT,36.9757174392936,NA,NA
59405,Cascade County,MT,NA,13.911845730027547,NA
68022,Douglas County,NE,66.22516556291392,NA,NA
68116,Douglas County,NE,NA,53.30578512396694,NA
68310,Gage County,NE,78.80794701986756,NA,NA
68507,Lancaster County,NE,92.27373068432672,NA,NA
69162,Cheyenne County,NE,NA,84.71074380165288,NA
69301,Box Butte County,NE,61.69977924944813,61.15702479338842,NA
69361,Scotts Bluff County,NE,NA,NA,93.3130699088146
89102,Clark County,NV,41.94260485651214,NA,NA
89104,Clark County,NV,32.00883002207506,NA,NA
89141,Clark County,NV,NA,67.35537190082644,NA
89408,Lyon County,NV,NA,63.36088154269972,NA
89433,Washoe County,NV,33.11258278145696,50.688705234159784,NA
89503,Washoe County,NV,NA,35.67493112947658,NA
89506,Washoe County,NV,NA,72.45179063360881,NA
03032,Rockingham County,NH,74.06181015452539,NA,NA
03038,Rockingham County,NH,NA,14.18732782369146,NA
03052,Hillsborough County,NH,NA,94.35261707988981,NA
03055,Hillsborough County,NH,78.69757174392936,NA,NA
03062,Hillsborough County,NH,NA,NA,13.677811550151976
03076,Hillsborough County,NH,66.99779249448123,NA,NA
03104,Hillsborough County,NH,NA,60.33057851239669,NA
03106,Merrimack County,NH,86.64459161147903,NA,NA
03110,Hillsborough County,NH,NA,28.09917355371901,NA
03301,Merrimack County,NH,14.23841059602649,NA,NA
03431,Cheshire County,NH,NA,22.451790633608816,NA
03446,Cheshire County,NH,NA,NA,52.88753799392097
03833,Rockingham County,NH,NA,NA,60.48632218844985
03870,Rockingham County,NH,NA,NA,75.98784194528876
03873,Rockingham County,NH,81.23620309050773,NA,NA
07009,Essex County,NJ,94.15011037527594,NA,NA
07030,Hudson County,NJ,5.298013245033113,NA,NA
07032,Hudson County,NJ,17.328918322295806,NA,NA
07035,Morris County,NJ,85.32008830022076,NA,NA
07047,Hudson County,NJ,4.083885209713024,NA,NA
07055,Passaic County,NJ,NA,1.9283746556473829,NA
07068,Essex County,NJ,NA,99.44903581267218,NA
07107,Essex County,NJ,55.18763796909493,NA,NA
07111,Essex County,NJ,0.44150110375275936,NA,NA
07206,Union County,NJ,26.269315673289185,NA,NA
07424,Passaic County,NJ,NA,46.83195592286501,NA
07442,Passaic County,NJ,NA,86.63911845730028,NA
07444,Morris County,NJ,86.53421633554083,NA,NA
07450,Bergen County,NJ,NA,73.69146005509641,NA
07660,Bergen County,NJ,55.29801324503312,NA,NA
07702,Monmouth County,NJ,99.77924944812362,NA,NA
07724,Monmouth County,NJ,NA,89.39393939393939,NA
07726,Monmouth County,NJ,23.951434878587197,NA,NA
07728,Monmouth County,NJ,12.472406181015453,NA,NA
07730,Monmouth County,NJ,90.28697571743929,NA,NA
07740,Monmouth County,NJ,NA,27.134986225895318,NA
07866,Morris County,NJ,56.622516556291394,NA,NA
08002,Camden County,NJ,NA,36.08815426997245,NA
08012,Camden County,NJ,NA,41.8732782369146,NA
08048,Burlington County,NJ,NA,77.54820936639119,NA
08051,Gloucester County,NJ,51.545253863134654,NA,NA
08093,Gloucester County,NJ,30.4635761589404,NA,NA
08094,Gloucester County,NJ,5.077262693156733,NA,NA
08244,Atlantic County,NJ,NA,55.371900826446286,NA
08332,Cumberland County,NJ,28.36644591611479,NA,NA
08360,Cumberland County,NJ,14.459161147902869,NA,NA
08736,Monmouth County,NJ,NA,75.20661157024794,NA
08757,Ocean County,NJ,NA,20.798898071625345,NA
08810,Middlesex County,NJ,NA,98.48484848484848,NA
87031,Valencia County,NM,NA,57.71349862258953,NA
87047,Bernalillo County,NM,NA,92.28650137741047,NA
87105,Bernalillo County,NM,NA,NA,14.285714285714285
87106,Bernalillo County,NM,NA,65.42699724517907,NA
87108,Bernalillo County,NM,52.75938189845475,NA,NA
87114,Bernalillo County,NM,NA,86.50137741046832,84.80243161094225
87121,Bernalillo County,NM,NA,4.132231404958678,NA
87123,Bernalillo County,NM,NA,3.443526170798898,NA
87124,Sandoval County,NM,9.050772626931568,NA,NA
87701,San Miguel County,NM,85.43046357615894,70.66115702479338,NA
88063,Doa Ana County,NM,NA,82.92011019283747,NA
88101,Curry County,NM,59.60264900662252,67.4931129476584,NA
10002,New York County,NY,NA,1.790633608815427,2.127659574468085
10009,New York County,NY,NA,3.0303030303030303,NA
10024,New York County,NY,45.253863134657834,52.34159779614325,NA
10027,New York County,NY,3.9735099337748347,NA,NA
10452,Bronx County,NY,4.856512141280353,NA,NA
10453,Bronx County,NY,NA,0.5509641873278237,NA
10469,Bronx County,NY,NA,5.647382920110193,NA
10473,Bronx County,NY,3.2008830022075054,NA,NA
10475,Bronx County,NY,NA,33.88429752066116,NA
10510,Westchester County,NY,NA,88.01652892561982,NA
10591,Westchester County,NY,56.84326710816777,NA,NA
10708,Westchester County,NY,NA,NA,37.38601823708207
11205,Kings County,NY,NA,16.391184573002754,NA
11207,Kings County,NY,NA,NA,34.04255319148936
11223,Kings County,NY,17.108167770419428,NA,NA
11225,Kings County,NY,49.00662251655629,NA,NA
11233,Kings County,NY,64.1280353200883,NA,NA
11364,Queens County,NY,NA,84.84848484848484,NA
11375,Queens County,NY,NA,NA,5.167173252279635
11420,Queens County,NY,38.18984547461369,NA,NA
11946,Suffolk County,NY,NA,NA,50.455927051671736
11951,Suffolk County,NY,87.85871964679912,NA,NA
11963,Suffolk County,NY,NA,91.18457300275482,NA
11967,Suffolk County,NY,NA,88.56749311294766,NA
12051,Greene County,NY,82.89183222958057,NA,NA
12189,Albany County,NY,33.22295805739514,NA,NA
12203,Albany County,NY,NA,NA,30.3951367781155
12477,Ulster County,NY,NA,NA,65.04559270516718
12534,Columbia County,NY,12.362030905077264,NA,NA
12901,Clinton County,NY,1.9867549668874174,NA,NA
13027,Onondaga County,NY,NA,44.352617079889804,NA
13031,Onondaga County,NY,35.98233995584989,NA,NA
13078,Onondaga County,NY,NA,NA,86.01823708206688
13090,Onondaga County,NY,13.46578366445916,NA,NA
13335,Otsego County,NY,83.33333333333334,NA,NA
13409,Madison County,NY,88.41059602649007,NA,NA
13421,Madison County,NY,79.47019867549669,NA,NA
13440,Oneida County,NY,1.3245033112582782,3.8567493112947657,NA
13476,Oneida County,NY,81.01545253863135,NA,NA
13480,Oneida County,NY,83.22295805739515,NA,NA
13601,Jefferson County,NY,17.660044150110377,NA,NA
13669,St. Lawrence County,NY,NA,18.59504132231405,NA
13790,Broome County,NY,NA,NA,11.854103343465045
13838,Delaware County,NY,59.82339955849889,NA,NA
14063,Chautauqua County,NY,NA,NA,56.23100303951368
14075,Erie County,NY,NA,4.2699724517906334,NA
14120,Niagara County,NY,3.4216335540838854,NA,NA
14132,Niagara County,NY,56.29139072847682,NA,NA
14139,Erie County,NY,99.66887417218543,NA,NA
14206,Erie County,NY,72.62693156732892,NA,NA
14304,Niagara County,NY,3.7527593818984544,NA,NA
14482,Genesee County,NY,70.97130242825607,NA,NA
14485,Livingston County,NY,72.18543046357617,NA,NA
14526,Monroe County,NY,12.582781456953644,NA,NA
14527,Yates County,NY,NA,21.62534435261708,NA
14560,Livingston County,NY,94.81236203090508,NA,NA
14561,Ontario County,NY,NA,83.47107438016529,NA
14609,Monroe County,NY,3.863134657836645,NA,NA
14616,Monroe County,NY,1.8763796909492272,NA,NA
14623,Monroe County,NY,39.29359823399559,NA,NA
14625,Monroe County,NY,NA,36.63911845730027,NA
14701,Chautauqua County,NY,1.6556291390728477,56.74931129476584,NA
14817,Tompkins County,NY,NA,98.89807162534436,NA
14837,Yates County,NY,NA,78.65013774104683,NA
14845,Chemung County,NY,13.57615894039735,NA,61.702127659574465
14904,Chemung County,NY,22.185430463576157,NA,NA
14905,Chemung County,NY,NA,59.22865013774105,NA
27012,Forsyth County,NC,NA,NA,28.87537993920973
27030,Surry County,NC,38.741721854304636,NA,0.60790273556231
27040,Forsyth County,NC,61.920529801324506,NA,NA
27052,Stokes County,NC,57.726269315673285,NA,NA
27055,Yadkin County,NC,NA,NA,94.83282674772036
27103,Forsyth County,NC,12.030905077262693,NA,NA
27205,Randolph County,NC,NA,NA,82.37082066869301
27215,Alamance County,NC,8.057395143487858,3.71900826446281,7.598784194528875
27217,Alamance County,NC,34.98896247240618,NA,NA
27244,Alamance County,NC,NA,87.87878787878788,NA
27253,Alamance County,NC,57.726269315673285,63.22314049586777,NA
27265,Guilford County,NC,16.114790286975715,NA,NA
27284,Forsyth County,NC,NA,0.8264462809917356,NA
27295,Davidson County,NC,2.5386313465783665,NA,NA
27320,Rockingham County,NC,63.0242825607064,7.851239669421488,NA
27349,Alamance County,NC,NA,69.83471074380165,NA
27371,Montgomery County,NC,70.08830022075055,NA,NA
27379,Caswell County,NC,NA,88.70523415977961,NA
27406,Guilford County,NC,2.980132450331126,NA,NA
27408,Guilford County,NC,NA,47.79614325068871,NA
27516,Orange County,NC,77.92494481236203,NA,NA
27517,Orange County,NC,NA,NA,15.80547112462006
27529,Wake County,NC,50.55187637969095,NA,NA
27536,Vance County,NC,76.82119205298014,NA,NA
27539,Wake County,NC,84.21633554083886,80.16528925619835,NA
27596,Franklin County,NC,56.5121412803532,NA,NA
27603,Wake County,NC,18.101545253863137,54.6831955922865,NA
27609,Wake County,NC,NA,26.446280991735538,NA
27707,Durham County,NC,NA,6.6115702479338845,NA
27801,Edgecombe County,NC,63.35540838852097,NA,NA
27803,Nash County,NC,NA,36.91460055096419,NA
27858,Pitt County,NC,20.750551876379692,NA,NA
27874,Halifax County,NC,94.59161147902869,NA,NA
27896,Wilson County,NC,42.60485651214128,NA,NA
27909,Pasquotank County,NC,NA,10.881542699724518,NA
27910,Hertford County,NC,NA,45.04132231404959,NA
27959,Dare County,NC,97.35099337748345,NA,NA
27983,Bertie County,NC,NA,NA,31.30699088145897
28012,Gaston County,NC,NA,72.03856749311295,NA
28016,Gaston County,NC,NA,53.71900826446281,NA
28021,Gaston County,NC,45.80573951434879,NA,NA
28023,Rowan County,NC,87.63796909492274,NA,NA
28025,Cabarrus County,NC,50.44150110375276,60.60606060606061,NA
28027,Cabarrus County,NC,60.59602649006622,5.371900826446281,NA
28037,Lincoln County,NC,NA,42.42424242424242,NA
28052,Gaston County,NC,NA,21.21212121212121,NA
28112,Union County,NC,NA,75.75757575757575,NA
28120,Gaston County,NC,50,NA,NA
28144,Rowan County,NC,27.92494481236203,NA,NA
28146,Rowan County,NC,26.490066225165563,NA,79.63525835866263
28164,Gaston County,NC,NA,85.9504132231405,NA
28215,Mecklenburg County,NC,12.693156732891833,NA,NA
28216,Mecklenburg County,NC,28.47682119205298,NA,NA
28227,Mecklenburg County,NC,16.335540838852097,NA,NA
28269,Mecklenburg County,NC,11.368653421633553,NA,NA
28338,Richmond County,NC,NA,98.7603305785124,NA
28364,Robeson County,NC,NA,NA,71.12462006079028
28374,Moore County,NC,NA,71.76308539944904,NA
28376,Hoke County,NC,NA,73.82920110192838,NA
28379,Richmond County,NC,NA,78.92561983471074,NA
28384,Bladen County,NC,NA,94.49035812672176,NA
28458,Duplin County,NC,82.6710816777042,NA,NA
28462,Brunswick County,NC,NA,NA,72.94832826747721
28465,Brunswick County,NC,NA,75.06887052341598,NA
28472,Columbus County,NC,29.911699779249446,NA,38.297872340425535
28601,Catawba County,NC,NA,7.300275482093664,NA
28612,Burke County,NC,55.73951434878587,NA,NA
28645,Caldwell County,NC,2.6490066225165565,NA,NA
28655,Burke County,NC,20.6401766004415,NA,NA
28697,Wilkes County,NC,NA,75.48209366391184,NA
28716,Haywood County,NC,NA,32.231404958677686,NA
28722,Polk County,NC,NA,NA,85.71428571428571
28732,Henderson County,NC,64.45916114790286,NA,NA
28751,Haywood County,NC,97.13024282560706,NA,NA
28789,Jackson County,NC,79.58057395143487,NA,NA
28792,Henderson County,NC,25.607064017660043,NA,NA
28803,Buncombe County,NC,NA,73.14049586776859,NA
28804,Buncombe County,NC,NA,93.80165289256198,NA
58078,Cass County,ND,NA,NA,45.59270516717325
58103,Cass County,ND,5.518763796909492,NA,NA
58104,Cass County,ND,55.84988962472406,NA,NA
58701,Ward County,ND,8.27814569536424,NA,NA
58801,Williams County,ND,29.028697571743926,42.561983471074385,NA
43050,Knox County,OH,5.960264900662252,NA,NA
43072,Champaign County,OH,NA,NA,83.28267477203647
43102,Fairfield County,OH,95.69536423841059,NA,NA
43147,Fairfield County,OH,49.77924944812362,NA,NA
43204,Franklin County,OH,4.415011037527594,NA,NA
43206,Franklin County,OH,10.044150110375275,NA,NA
43213,Franklin County,OH,NA,15.151515151515152,NA
43214,Franklin County,OH,69.31567328918322,NA,NA
43228,Franklin County,OH,29.249448123620308,NA,66.8693009118541
43230,Franklin County,OH,13.245033112582782,NA,NA
43232,Franklin County,OH,16.887417218543046,NA,NA
43302,Marion County,OH,1.434878587196468,1.3774104683195594,NA
43402,Wood County,OH,63.686534216335545,13.085399449035812,NA
43465,Wood County,OH,71.19205298013244,NA,NA
43506,Williams County,OH,19.867549668874172,NA,NA
43537,Lucas County,OH,NA,39.66942148760331,NA
43613,Lucas County,OH,2.3178807947019866,NA,NA
43614,Lucas County,OH,NA,8.81542699724518,NA
43701,Muskingum County,OH,NA,NA,40.72948328267477
43723,Guernsey County,OH,76.60044150110376,NA,NA
43812,Coshocton County,OH,82.11920529801324,6.0606060606060606,NA
43947,Belmont County,OH,NA,90.49586776859503,NA
43952,Jefferson County,OH,NA,8.677685950413224,NA
44030,Ashtabula County,OH,NA,12.947658402203857,NA
44035,Lorain County,OH,NA,0,NA
44039,Lorain County,OH,6.181015452538632,NA,NA
44057,Lake County,OH,22.516556291390728,NA,NA
44105,Cuyahoga County,OH,37.52759381898454,NA,49.24012158054711
44107,Cuyahoga County,OH,34.87858719646799,NA,NA
44109,Cuyahoga County,OH,0.11037527593818984,NA,NA
44111,Cuyahoga County,OH,NA,NA,39.51367781155015
44119,Cuyahoga County,OH,16.445916114790286,87.46556473829202,NA
44120,Cuyahoga County,OH,28.58719646799117,NA,NA
44128,Cuyahoga County,OH,13.90728476821192,NA,NA
44129,Cuyahoga County,OH,36.75496688741722,NA,NA
44139,Cuyahoga County,OH,NA,NA,13.37386018237082
44141,Cuyahoga County,OH,NA,49.311294765840216,NA
44212,Medina County,OH,NA,7.024793388429752,NA
44221,Summit County,OH,36.64459161147903,NA,61.09422492401215
44241,Portage County,OH,25.275938189845476,NA,NA
44256,Medina County,OH,2.869757174392936,0.4132231404958678,NA
44278,Summit County,OH,96.35761589403974,NA,NA
44333,Summit County,OH,NA,36.225895316804404,NA
44413,Columbiana County,OH,NA,NA,72.64437689969606
44451,Mahoning County,OH,96.13686534216336,NA,NA
44481,Trumbull County,OH,21.63355408388521,NA,NA
44484,Trumbull County,OH,68.98454746136865,NA,NA
44511,Mahoning County,OH,NA,60.05509641873278,NA
44515,Mahoning County,OH,8.167770419426049,9.50413223140496,NA
44601,Stark County,OH,NA,NA,33.130699088145896
44612,Tuscarawas County,OH,NA,NA,81.7629179331307
44622,Tuscarawas County,OH,NA,61.98347107438017,NA
44663,Tuscarawas County,OH,34.54746136865342,NA,NA
44683,Tuscarawas County,OH,21.08167770419426,NA,NA
44691,Wayne County,OH,24.613686534216335,NA,NA
44706,Stark County,OH,NA,34.43526170798898,NA
44720,Stark County,OH,NA,85.53719008264463,41.33738601823708
44805,Ashland County,OH,53.64238410596026,NA,NA
44813,Richland County,OH,99.33774834437085,NA,NA
44830,Seneca County,OH,14.79028697571744,NA,NA
44842,Ashland County,OH,83.44370860927152,NA,NA
44857,Huron County,OH,47.682119205298015,6.198347107438017,NA
44890,Huron County,OH,NA,NA,51.3677811550152
45002,Hamilton County,OH,NA,60.19283746556474,NA
45042,Butler County,OH,NA,NA,90.5775075987842
45044,Butler County,OH,NA,11.432506887052343,NA
45066,Warren County,OH,53.75275938189845,NA,NA
45177,Clinton County,OH,NA,26.584022038567497,NA
45208,Hamilton County,OH,NA,90.633608815427,NA
45223,Hamilton County,OH,35.209713024282564,NA,NA
45231,Hamilton County,OH,6.291390728476822,NA,NA
45244,Hamilton County,OH,80.90507726269315,NA,NA
45248,Hamilton County,OH,46.46799116997792,NA,NA
45309,Montgomery County,OH,75.93818984547461,NA,NA
45324,Greene County,OH,7.72626931567329,NA,NA
45365,Shelby County,OH,9.823399558498897,NA,NA
45371,Miami County,OH,46.909492273730685,NA,NA
45387,Greene County,OH,97.24061810154525,NA,NA
45404,Montgomery County,OH,45.58498896247241,NA,NA
45410,Montgomery County,OH,65.89403973509934,NA,NA
45415,Montgomery County,OH,NA,77.27272727272727,NA
45434,Greene County,OH,NA,61.84573002754821,NA
45601,Ross County,OH,0.33112582781456956,NA,NA
45638,Lawrence County,OH,3.532008830022075,NA,NA
45640,Jackson County,OH,NA,4.683195592286501,NA
45714,Washington County,OH,15.2317880794702,NA,NA
45804,Allen County,OH,NA,83.88429752066115,NA
45805,Allen County,OH,NA,69.14600550964187,25.227963525835868
45807,Allen County,OH,76.71081677704194,55.509641873278234,NA
45891,Van Wert County,OH,23.730684326710815,NA,60.182370820668694
45895,Auglaize County,OH,24.724061810154527,NA,NA
73012,Oklahoma County,OK,NA,40.22038567493113,48.93617021276596
73020,Oklahoma County,OK,NA,69.00826446280992,NA
73025,Oklahoma County,OK,NA,50.55096418732782,NA
73049,Oklahoma County,OK,86.75496688741721,NA,NA
73064,Canadian County,OK,NA,36.77685950413223,NA
73069,Cleveland County,OK,78.58719646799118,NA,37.99392097264438
73072,Cleveland County,OK,22.40618101545254,NA,NA
73099,Canadian County,OK,NA,NA,17.325227963525837
73112,Oklahoma County,OK,29.3598233995585,NA,NA
73116,Oklahoma County,OK,NA,96.00550964187327,NA
73120,Oklahoma County,OK,34.7682119205298,NA,NA
73130,Oklahoma County,OK,52.64900662251656,NA,NA
73132,Oklahoma County,OK,47.019867549668874,NA,NA
73160,Cleveland County,OK,10.485651214128035,NA,NA
73162,Oklahoma County,OK,41.05960264900662,15.013774104683195,NA
73439,Marshall County,OK,65.34216335540839,NA,NA
73501,Comanche County,OK,NA,NA,59.27051671732523
73505,Comanche County,OK,NA,43.388429752066116,NA
74006,Washington County,OK,47.24061810154526,NA,NA
74011,Tulsa County,OK,58.16777041942605,NA,NA
74014,Wagoner County,OK,NA,NA,43.161094224924014
74055,Tulsa County,OK,NA,22.865013774104685,NA
74079,Lincoln County,OK,98.45474613686534,NA,NA
74104,Tulsa County,OK,NA,84.9862258953168,NA
74112,Tulsa County,OK,46.24724061810154,NA,NA
74126,Tulsa County,OK,69.75717439293598,NA,NA
74354,Ottawa County,OK,44.03973509933775,NA,NA
74361,Mayes County,OK,56.18101545253863,NA,NA
74403,Muskogee County,OK,26.93156732891832,NA,24.316109422492403
74501,Pittsburg County,OK,41.94260485651214,NA,NA
74701,Bryan County,OK,NA,85.39944903581267,NA
74820,Pontotoc County,OK,26.048565121412803,3.581267217630854,NA
74851,Pottawatomie County,OK,NA,61.43250688705234,NA
97006,Washington County,OR,NA,25.482093663911847,NA
97007,Washington County,OR,NA,NA,32.52279635258359
97024,Multnomah County,OR,NA,94.90358126721763,NA
97030,Multnomah County,OR,14.56953642384106,NA,48.328267477203646
97031,Hood River County,OR,NA,NA,77.50759878419453
97034,Clackamas County,OR,NA,NA,29.78723404255319
97060,Multnomah County,OR,NA,81.12947658402204,NA
97078,Washington County,OR,NA,50.413223140495866,NA
97086,Clackamas County,OR,44.81236203090508,NA,NA
97103,Clatsop County,OR,NA,NA,18.541033434650455
97106,Washington County,OR,97.90286975717439,NA,NA
97123,Washington County,OR,NA,13.223140495867769,NA
97201,Multnomah County,OR,NA,87.74104683195593,NA
97206,Multnomah County,OR,54.52538631346579,19.28374655647383,NA
97212,Multnomah County,OR,NA,64.73829201101928,NA
97213,Multnomah County,OR,30.132450331125828,NA,NA
97216,Multnomah County,OR,71.08167770419426,NA,NA
97220,Multnomah County,OR,NA,24.380165289256198,NA
97224,Washington County,OR,NA,NA,22.796352583586625
97225,Washington County,OR,NA,NA,44.680851063829785
97232,Multnomah County,OR,96.68874172185431,NA,NA
97233,Multnomah County,OR,37.858719646799116,27.685950413223143,NA
97239,Multnomah County,OR,NA,95.73002754820936,NA
97267,Clackamas County,OR,NA,NA,18.237082066869302
97304,Polk County,OR,49.668874172185426,NA,NA
97305,Marion County,OR,20.750551876379692,NA,NA
97321,Linn County,OR,NA,NA,21.88449848024316
97325,Marion County,OR,89.84547461368653,NA,NA
97333,Benton County,OR,NA,NA,46.808510638297875
97338,Polk County,OR,37.74834437086093,33.19559228650138,NA
97355,Linn County,OR,9.492273730684326,NA,NA
97374,Linn County,OR,NA,74.93112947658402,NA
97405,Lane County,OR,98.78587196467991,NA,NA
97478,Lane County,OR,62.80353200883002,NA,NA
97479,Douglas County,OR,NA,NA,39.209726443769
97502,Jackson County,OR,74.61368653421634,NA,NA
97504,Jackson County,OR,16.777041942604857,NA,NA
97524,Jackson County,OR,NA,76.5840220385675,NA
97526,Josephine County,OR,NA,82.78236914600551,NA
97756,Deschutes County,OR,30.573951434878587,NA,NA
97914,Malheur County,OR,18.984547461368653,18.181818181818183,NA
15005,Beaver County,PA,NA,NA,51.97568389057751
15010,Beaver County,PA,NA,NA,42.857142857142854
15061,Beaver County,PA,53.20088300220751,NA,NA
15071,Allegheny County,PA,NA,70.11019283746556,NA
15132,Allegheny County,PA,70.6401766004415,NA,NA
15202,Allegheny County,PA,89.29359823399558,NA,NA
15203,Allegheny County,PA,75.60706401766004,NA,NA
15216,Allegheny County,PA,48.01324503311258,NA,NA
15232,Allegheny County,PA,NA,NA,81.15501519756839
15301,Washington County,PA,4.966887417218543,NA,NA
15642,Westmoreland County,PA,NA,26.033057851239672,NA
15668,Westmoreland County,PA,NA,51.2396694214876,NA
15714,Cambria County,PA,86.09271523178808,NA,NA
15906,Cambria County,PA,NA,91.73553719008265,NA
16001,Butler County,PA,2.207505518763797,NA,NA
16002,Butler County,PA,NA,76.44628099173553,NA
16101,Lawrence County,PA,NA,NA,17.933130699088146
16335,Crawford County,PA,NA,7.988980716253444,NA
16365,Warren County,PA,NA,24.242424242424242,NA
16415,Erie County,PA,NA,NA,84.19452887537993
16423,Erie County,PA,95.03311258278146,NA,NA
16505,Erie County,PA,62.913907284768214,NA,NA
16508,Erie County,PA,43.04635761589404,NA,NA
16509,Erie County,PA,83.88520971302428,NA,20.972644376899694
16601,Blair County,PA,7.505518763796909,NA,NA
16735,McKean County,PA,NA,58.1267217630854,NA
17011,Cumberland County,PA,67.439293598234,NA,NA
17036,Dauphin County,PA,NA,10.330578512396695,NA
17111,Dauphin County,PA,13.35540838852097,4.958677685950414,NA
17201,Franklin County,PA,8.388520971302428,NA,NA
17315,York County,PA,NA,13.636363636363635,NA
17320,Adams County,PA,96.90949227373068,NA,NA
17325,Adams County,PA,NA,24.104683195592287,NA
17331,York County,PA,NA,39.39393939393939,12.76595744680851
17340,Adams County,PA,95.36423841059603,NA,NA
17403,York County,PA,1.7660044150110374,NA,NA
17408,York County,PA,NA,41.18457300275482,NA
17540,Lancaster County,PA,NA,NA,68.9969604863222
17543,Lancaster County,PA,NA,NA,30.69908814589666
17601,Lancaster County,PA,NA,83.05785123966942,NA
17603,Lancaster County,PA,28.2560706401766,NA,NA
17745,Clinton County,PA,NA,38.705234159779614,NA
17821,Montour County,PA,NA,NA,3.343465045592705
17851,Northumberland County,PA,58.719646799117,NA,NA
17980,Schuylkill County,PA,98.01324503311258,NA,NA
18040,Northampton County,PA,60.81677704194261,NA,NA
18062,Lehigh County,PA,36.86534216335541,NA,NA
18088,Northampton County,PA,59.38189845474614,88.29201101928375,NA
18103,Lehigh County,PA,4.304635761589404,NA,NA
18104,Lehigh County,PA,11.479028697571744,2.6170798898071626,NA
75072,NA,NA,87.74834437086093,NA,NA
18201,Luzerne County,PA,15.894039735099339,NA,NA
18411,Lackawanna County,PA,NA,47.658402203856745,NA
18509,Lackawanna County,PA,NA,58.81542699724518,NA
18517,Lackawanna County,PA,87.30684326710816,NA,NA
18640,Luzerne County,PA,77.15231788079471,NA,NA
18657,Wyoming County,PA,NA,NA,54.7112462006079
18702,Luzerne County,PA,41.61147902869757,NA,NA
18704,Luzerne County,PA,14.01766004415011,NA,NA
18706,Luzerne County,PA,NA,27.41046831955923,NA
18901,Bucks County,PA,NA,NA,10.030395136778116
18902,Bucks County,PA,61.81015452538632,NA,NA
18940,Bucks County,PA,NA,32.5068870523416,NA
18954,Bucks County,PA,NA,66.94214876033058,NA
19026,Delaware County,PA,40.507726269315675,26.30853994490358,NA
19038,Montgomery County,PA,29.13907284768212,NA,NA
19057,Bucks County,PA,NA,59.77961432506888,NA
19063,Delaware County,PA,46.46799116997792,NA,NA
19103,Philadelphia County,PA,NA,51.37741046831956,NA
19115,Philadelphia County,PA,41.94260485651214,NA,10.638297872340425
19116,Philadelphia County,PA,NA,12.534435261707987,NA
19120,Philadelphia County,PA,NA,47.24517906336088,NA
19128,Philadelphia County,PA,NA,56.611570247933884,NA
19129,Philadelphia County,PA,77.70419426048565,NA,NA
19130,Philadelphia County,PA,31.677704194260485,NA,NA
19141,Philadelphia County,PA,NA,43.112947658402206,NA
19143,Philadelphia County,PA,NA,11.570247933884298,NA
19144,Philadelphia County,PA,3.642384105960265,NA,NA
19341,Chester County,PA,NA,64.46280991735537,NA
19380,Chester County,PA,NA,3.994490358126722,NA
19401,Montgomery County,PA,6.73289183222958,NA,NA
19426,Montgomery County,PA,NA,24.793388429752067,NA
19440,Montgomery County,PA,NA,56.8870523415978,NA
19446,Montgomery County,PA,NA,41.735537190082646,NA
19506,Berks County,PA,74.94481236203092,NA,NA
19512,Berks County,PA,NA,42.97520661157025,NA
19526,Berks County,PA,NA,NA,51.97568389057751
19533,Berks County,PA,96.02649006622516,NA,NA
19540,Berks County,PA,NA,NA,90.27355623100304
19601,Berks County,PA,15.342163355408388,NA,NA
19606,Berks County,PA,8.609271523178808,NA,NA
02806,Bristol County,RI,NA,81.95592286501378,NA
02813,Washington County,RI,89.40397350993378,NA,NA
02830,Providence County,RI,74.39293598233996,NA,NA
02863,Providence County,RI,54.856512141280355,NA,NA
02896,Providence County,RI,75.49668874172185,NA,NA
02911,Providence County,RI,59.16114790286976,NA,NA
02919,Providence County,RI,NA,23.829201101928373,NA
02920,Providence County,RI,23.509933774834437,NA,NA
29127,Newberry County,SC,NA,84.02203856749311,NA
29148,Clarendon County,SC,93.4878587196468,NA,NA
29153,Sumter County,SC,NA,54.132231404958674,NA
29302,Spartanburg County,SC,NA,63.77410468319559,NA
29322,Spartanburg County,SC,91.280353200883,NA,NA
29349,Spartanburg County,SC,NA,16.666666666666664,NA
29360,Laurens County,SC,NA,32.09366391184573,NA
29414,Charleston County,SC,26.379690949227374,NA,NA
29418,Charleston County,SC,NA,NA,79.0273556231003
29440,Georgetown County,SC,NA,NA,24.620060790273556
29445,Berkeley County,SC,NA,20.52341597796143,NA
29470,Charleston County,SC,91.72185430463577,NA,NA
29485,Dorchester County,SC,NA,25.068870523415974,37.68996960486322
29505,Florence County,SC,39.95584988962472,NA,NA
29526,Horry County,SC,NA,34.573002754820934,20.060790273556233
29576,Horry County,SC,NA,10.46831955922865,NA
29579,Horry County,SC,NA,26.170798898071624,NA
29588,Horry County,SC,NA,8.539944903581267,NA
29609,Greenville County,SC,33.77483443708609,NA,NA
29642,Pickens County,SC,NA,NA,22.492401215805472
29651,Greenville County,SC,17.218543046357617,NA,NA
29710,York County,SC,NA,NA,42.24924012158054
29715,York County,SC,91.05960264900662,NA,NA
29730,York County,SC,NA,75.48209366391184,NA
29926,Beaufort County,SC,NA,55.09641873278237,NA
57005,Minnehaha County,SD,98.89624724061811,NA,NA
57103,Minnehaha County,SD,18.874172185430464,NA,NA
57106,Minnehaha County,SD,NA,4.958677685950414,NA
57401,Brown County,SD,40.618101545253865,NA,1.82370820668693
37027,Williamson County,TN,NA,NA,16.717325227963524
37055,Dickson County,TN,19.426048565121413,NA,NA
37066,Sumner County,TN,NA,7.162534435261708,21.580547112462007
37067,Williamson County,TN,75.16556291390728,62.67217630853994,NA
37075,Sumner County,TN,NA,NA,7.90273556231003
37083,Macon County,TN,41.72185430463576,NA,NA
37090,Wilson County,TN,55.62913907284768,NA,NA
37122,Wilson County,TN,NA,20.385674931129476,NA
37185,Humphreys County,TN,NA,73.27823691460054,NA
37187,Dickson County,TN,67.66004415011038,NA,NA
37207,Davidson County,TN,NA,23.553719008264462,NA
37216,Davidson County,TN,NA,NA,73.25227963525836
37302,Hamilton County,TN,97.7924944812362,NA,NA
37331,McMinn County,TN,NA,NA,58.35866261398176
37343,Hamilton County,TN,NA,18.319559228650135,NA
37363,Hamilton County,TN,NA,33.057851239669425,NA
37370,McMinn County,TN,NA,94.76584022038568,NA
37620,Sullivan County,TN,10.927152317880795,NA,NA
37660,Sullivan County,TN,NA,NA,9.118541033434651
37683,Johnson County,TN,NA,NA,57.75075987841946
37701,Blount County,TN,NA,82.5068870523416,87.84194528875379
37708,Grainger County,TN,97.57174392935983,NA,NA
37748,Roane County,TN,27.704194260485654,NA,NA
37763,Roane County,TN,NA,92.01101928374655,NA
37769,Anderson County,TN,NA,79.47658402203857,NA
37772,Loudon County,TN,NA,77.96143250688705,55.92705167173252
37774,Loudon County,TN,37.19646799116998,NA,NA
37777,Blount County,TN,NA,47.5206611570248,NA
37801,Blount County,TN,90.39735099337747,11.707988980716253,NA
37803,Blount County,TN,NA,91.8732782369146,NA
37804,Blount County,TN,76.93156732891833,46.28099173553719,NA
37814,Hamblen County,TN,25.82781456953642,NA,NA
37846,Loudon County,TN,91.50110375275938,NA,NA
37854,Roane County,TN,73.84105960264901,53.4435261707989,NA
37857,Hawkins County,TN,79.24944812362031,NA,NA
37862,Sevier County,TN,31.015452538631344,NA,NA
37871,Jefferson County,TN,76.37969094922738,NA,NA
37874,Monroe County,TN,NA,43.80165289256198,NA
37876,Sevier County,TN,NA,18.457300275482094,NA
37879,Claiborne County,TN,NA,62.121212121212125,NA
37882,Blount County,TN,NA,84.15977961432507,NA
37886,Blount County,TN,NA,NA,89.96960486322189
37914,Knox County,TN,NA,29.614325068870524,NA
37917,Knox County,TN,14.1280353200883,NA,NA
37918,Knox County,TN,36.31346578366446,NA,NA
37934,Knox County,TN,85.8719646799117,NA,NA
37938,Knox County,TN,NA,80.0275482093664,NA
38017,Shelby County,TN,67.3289183222958,NA,NA
38111,Shelby County,TN,17.770419426048566,NA,NA
38261,Obion County,TN,32.11920529801324,NA,NA
38330,Gibson County,TN,NA,98.07162534435263,NA
38343,Gibson County,TN,NA,NA,88.75379939209726
38363,Decatur County,TN,NA,NA,79.33130699088146
38501,Putnam County,TN,NA,14.87603305785124,NA
38544,Putnam County,TN,NA,71.48760330578511,NA
38570,Overton County,TN,61.36865342163355,NA,NA
38571,Cumberland County,TN,47.019867549668874,NA,NA
75002,Collin County,TX,NA,NA,36.17021276595745
75006,Dallas County,TX,37.41721854304636,NA,NA
75010,Denton County,TX,58.38852097130243,NA,NA
75033,,TX,60.15452538631346,NA,NA
75040,Dallas County,TX,NA,22.727272727272727,NA
75069,Collin County,TX,NA,NA,70.51671732522796
75071,Collin County,TX,22.737306843267106,NA,NA
75119,Ellis County,TX,45.916114790286976,NA,NA
75143,Henderson County,TX,54.966887417218544,NA,NA
75150,Dallas County,TX,NA,NA,34.34650455927052
75154,Ellis County,TX,36.092715231788084,NA,NA
75165,Ellis County,TX,76.26931567328919,NA,NA
75217,Dallas County,TX,7.174392935982341,NA,34.954407294832826
75244,Dallas County,TX,99.8896247240618,NA,NA
75287,Denton County,TX,33.554083885209714,NA,NA
75482,Hopkins County,TX,NA,85.67493112947659,NA
75703,Smith County,TX,NA,21.349862258953166,NA
75751,Henderson County,TX,68.54304635761589,NA,NA
75771,Smith County,TX,NA,57.57575757575758,NA
75790,Van Zandt County,TX,NA,77.41046831955923,NA
75904,Angelina County,TX,NA,12.396694214876034,NA
75956,Jasper County,TX,NA,NA,84.80243161094225
76010,Tarrant County,TX,14.56953642384106,NA,NA
76012,Tarrant County,TX,38.41059602649007,NA,NA
76013,Tarrant County,TX,NA,51.652892561983464,NA
76020,Tarrant County,TX,NA,NA,76.59574468085107
76028,Johnson County,TX,9.161147902869757,NA,NA
76034,Tarrant County,TX,NA,53.85674931129476,NA
76043,Somervell County,TX,79.02869757174393,NA,NA
76063,Tarrant County,TX,55.40838852097131,NA,NA
76067,Palo Pinto County,TX,NA,49.311294765840216,NA
76085,Parker County,TX,NA,NA,91.48936170212765
76087,Parker County,TX,NA,96.831955922865,NA
76088,Parker County,TX,NA,NA,82.97872340425532
76104,Tarrant County,TX,17.549668874172188,NA,NA
76116,Tarrant County,TX,19.094922737306845,NA,NA
76133,Tarrant County,TX,NA,NA,19.756838905775076
76234,Wise County,TX,NA,87.60330578512396,NA
76302,Wichita County,TX,63.90728476821192,NA,NA
76442,Comanche County,TX,NA,65.15151515151516,NA
76501,Bell County,TX,11.699779249448124,NA,NA
76513,Bell County,TX,6.401766004415011,NA,NA
76522,Coryell County,TX,37.086092715231786,NA,NA
76633,McLennan County,TX,NA,NA,99.69604863221885
76691,McLennan County,TX,NA,83.7465564738292,NA
76705,McLennan County,TX,58.94039735099338,NA,NA
76710,McLennan County,TX,72.51655629139073,35.9504132231405,NA
76712,McLennan County,TX,34.65783664459161,NA,NA
77007,Harris County,TX,NA,NA,70.82066869300911
77018,Harris County,TX,NA,67.07988980716253,NA
77024,Harris County,TX,54.083885209713024,NA,NA
77033,Harris County,TX,86.9757174392936,NA,NA
77041,Harris County,TX,NA,31.129476584022036,NA
77057,Harris County,TX,NA,NA,49.544072948328264
77061,Harris County,TX,NA,70.93663911845731,NA
77065,Harris County,TX,NA,34.15977961432507,NA
77071,Harris County,TX,NA,54.82093663911846,NA
77076,Harris County,TX,NA,NA,92.70516717325228
77095,Harris County,TX,14.90066225165563,NA,NA
77356,Montgomery County,TX,NA,63.91184573002755,NA
77373,Harris County,TX,NA,55.78512396694215,NA
77377,Harris County,TX,NA,NA,40.121580547112465
77379,Harris County,TX,NA,NA,9.72644376899696
77386,Montgomery County,TX,NA,40.633608815426996,NA
77396,Harris County,TX,30.684326710816777,NA,NA
77401,Harris County,TX,NA,68.73278236914601,NA
77437,Wharton County,TX,NA,78.37465564738292,NA
77447,Harris County,TX,63.796909492273734,NA,NA
77459,Fort Bend County,TX,18.653421633554085,NA,NA
77461,Fort Bend County,TX,NA,NA,86.93009118541033
77477,Fort Bend County,TX,NA,34.710743801652896,NA
77478,Fort Bend County,TX,NA,39.94490358126722,NA
77493,Harris County,TX,53.09050772626932,NA,NA
77510,Galveston County,TX,77.81456953642383,NA,NA
77523,Chambers County,TX,NA,NA,96.35258358662614
77536,Harris County,TX,NA,31.68044077134986,NA
77539,Galveston County,TX,NA,NA,75.6838905775076
77541,Brazoria County,TX,38.079470198675494,NA,96.96048632218846
77550,Galveston County,TX,16.00441501103753,12.8099173553719,4.86322188449848
77583,Brazoria County,TX,42.71523178807947,NA,NA
77590,Galveston County,TX,NA,11.84573002754821,NA
77591,Galveston County,TX,NA,37.60330578512397,NA
77625,Hardin County,TX,71.96467991169978,NA,NA
77642,Jefferson County,TX,NA,NA,73.86018237082067
77845,Brazos County,TX,NA,21.074380165289256,NA
77859,Robertson County,TX,NA,NA,99.3920972644377
78130,Comal County,TX,NA,NA,7.90273556231003
78414,Nueces County,TX,NA,NA,77.81155015197568
78572,Hidalgo County,TX,NA,NA,3.951367781155015
78584,Starr County,TX,NA,47.93388429752066,NA
78599,Hidalgo County,TX,NA,NA,80.85106382978722
78676,Hays County,TX,92.71523178807946,NA,NA
78701,Travis County,TX,NA,89.80716253443526,NA
78750,Travis County,TX,NA,67.76859504132231,NA
78801,Uvalde County,TX,NA,78.23691460055096,NA
78834,Dimmit County,TX,84.43708609271523,NA,NA
78934,Colorado County,TX,NA,58.67768595041323,NA
78962,Colorado County,TX,NA,97.7961432506887,NA
79109,Randall County,TX,31.346578366445915,NA,NA
79403,Lubbock County,TX,42.49448123620309,NA,NA
79410,Lubbock County,TX,NA,96.55647382920111,NA
79605,Taylor County,TX,31.898454746136867,30.303030303030305,NA
79762,Ector County,TX,23.178807947019866,33.33333333333333,NA
79936,El Paso County,TX,NA,46.14325068870524,NA
84037,Davis County,UT,80.4635761589404,NA,NA
84065,Salt Lake County,UT,31.456953642384107,NA,NA
84075,Davis County,UT,82.00883002207505,NA,NA
84106,Salt Lake County,UT,NA,71.07438016528926,NA
84111,Salt Lake County,UT,NA,NA,85.41033434650456
84302,Box Elder County,UT,69.86754966887418,NA,NA
84405,Weber County,UT,NA,53.994490358126725,NA
84651,Utah County,UT,NA,68.87052341597796,NA
05401,Chittenden County,VT,40.728476821192054,NA,41.641337386018236
05452,Chittenden County,VT,51.21412803532009,NA,NA
05477,Chittenden County,VT,95.58498896247241,NA,NA
05602,Washington County,VT,NA,NA,42.5531914893617
05676,Washington County,VT,NA,NA,78.72340425531915
05855,Orleans County,VT,NA,69.9724517906336,NA
20109,Prince William County,VA,25.938189845474614,NA,NA
20111,Prince William County,VA,44.48123620309051,NA,NA
20136,Prince William County,VA,80.5739514348786,NA,NA
20147,Loudoun County,VA,31.125827814569533,NA,11.55015197568389
20155,Prince William County,VA,NA,37.1900826446281,NA
22015,Fairfax County,VA,43.377483443708606,NA,NA
22066,Fairfax County,VA,96.24724061810154,NA,NA
22182,Fairfax County,VA,90.72847682119205,NA,NA
22192,Prince William County,VA,90.61810154525386,NA,NA
22193,Prince William County,VA,NA,16.115702479338843,NA
22205,Arlington County,VA,NA,96.69421487603306,NA
22207,Arlington County,VA,NA,NA,70.2127659574468
22302,Alexandria city,VA,58.609271523178805,NA,NA
22303,Fairfax County,VA,65.01103752759381,NA,NA
22314,Alexandria city,VA,NA,42.14876033057851,NA
22315,Fairfax County,VA,NA,53.03030303030303,NA
22601,Winchester city,VA,NA,89.53168044077135,NA
22902,Charlottesville city,VA,50.331125827814574,NA,NA
22963,Fluvanna County,VA,NA,NA,39.81762917933131
23111,Hanover County,VA,40.94922737306843,62.53443526170799,47.11246200607903
23112,Chesterfield County,VA,35.32008830022075,NA,NA
23114,Chesterfield County,VA,97.46136865342163,NA,NA
23116,Hanover County,VA,NA,46.69421487603306,NA
23150,Henrico County,VA,NA,90.08264462809917,NA
23231,Henrico County,VA,65.23178807947019,NA,NA
23235,Chesterfield County,VA,46.026490066225165,NA,NA
23237,Chesterfield County,VA,NA,51.10192837465565,NA
23294,Henrico County,VA,NA,NA,95.13677811550151
23321,Chesapeake city,VA,NA,25.344352617079892,NA
23464,Virginia Beach city,VA,NA,NA,2.43161094224924
23523,Norfolk city,VA,79.91169977924945,NA,NA
23693,York County,VA,NA,59.77961432506888,NA
23707,Portsmouth city,VA,45.143487858719645,NA,NA
23834,Colonial Heights city,VA,NA,56.473829201101935,NA
23970,Mecklenburg County,VA,NA,75.89531680440771,NA
24013,Roanoke city,VA,68.65342163355407,NA,NA
24014,Roanoke city,VA,60.375275938189844,23.69146005509642,NA
24179,Roanoke County,VA,NA,38.29201101928375,41.94528875379939
24283,Wise County,VA,99.00662251655629,NA,NA
24501,Lynchburg city,VA,NA,30.44077134986226,NA
24563,Pittsylvania County,VA,NA,89.11845730027548,NA
24637,Tazewell County,VA,NA,99.72451790633609,NA
98002,King County,WA,NA,28.236914600550968,NA
98026,Snohomish County,WA,NA,97.10743801652893,NA
98027,King County,WA,55.07726269315674,NA,NA
98029,King County,WA,NA,55.23415977961432,NA
98032,King County,WA,NA,38.429752066115704,NA
98042,King County,WA,39.51434878587197,NA,NA
98052,King County,WA,40.397350993377486,NA,NA
98092,King County,WA,19.97792494481236,NA,NA
98122,King County,WA,NA,NA,44.37689969604863
98199,King County,WA,75.38631346578366,NA,NA
98221,Skagit County,WA,NA,NA,64.43768996960486
98226,Whatcom County,WA,NA,NA,10.94224924012158
98277,Island County,WA,NA,NA,11.246200607902736
98292,Snohomish County,WA,52.09713024282561,NA,NA
98363,Clallam County,WA,NA,30.57851239669421,NA
98370,Kitsap County,WA,88.74172185430463,NA,NA
98404,Pierce County,WA,57.94701986754966,NA,NA
98407,Pierce County,WA,NA,68.31955922865014,NA
98563,Grays Harbor County,WA,84.10596026490066,NA,NA
98604,Clark County,WA,NA,93.38842975206612,NA
98606,Clark County,WA,90.50772626931567,NA,NA
98626,Cowlitz County,WA,66.66666666666666,NA,NA
98663,Clark County,WA,84.54746136865342,NA,NA
98671,Clark County,WA,NA,96.96969696969697,NA
98684,Clark County,WA,NA,51.790633608815426,NA
98902,Yakima County,WA,NA,NA,61.39817629179332
98908,Yakima County,WA,62.47240618101545,NA,NA
99156,Pend Oreille County,WA,NA,NA,65.34954407294833
99163,Whitman County,WA,66.3355408388521,NA,NA
99218,Spokane County,WA,83.99558498896246,NA,NA
99301,Franklin County,WA,48.23399558498897,NA,NA
99328,Columbia County,WA,NA,NA,90.88145896656535
99337,Benton County,WA,NA,5.785123966942149,NA
97003,NA,NA,NA,NA,96.65653495440729
99353,Benton County,WA,59.49227373068433,NA,NA
99362,Walla Walla County,WA,NA,NA,33.43465045592705
20007,District of Columbia,DC,70.30905077262693,NA,NA
20018,District of Columbia,DC,35.099337748344375,NA,NA
20020,District of Columbia,DC,NA,4.545454545454546,NA
20032,District of Columbia,DC,4.194260485651214,NA,NA
25303,Kanawha County,WV,NA,NA,59.87841945288754
25309,Kanawha County,WV,NA,85.12396694214877,NA
25541,Cabell County,WV,58.83002207505519,NA,NA
25705,Cabell County,WV,NA,16.94214876033058,NA
26003,Ohio County,WV,NA,NA,3.0395136778115504
26150,Wood County,WV,NA,92.97520661157024,NA
26253,Randolph County,WV,NA,99.86225895316805,NA
26505,Monongalia County,WV,NA,5.5096418732782375,NA
26601,Braxton County,WV,NA,80.44077134986226,NA
53012,Ozaukee County,WI,NA,40.909090909090914,NA
53029,Waukesha County,WI,55.51876379690949,NA,NA
53039,Dodge County,WI,98.56512141280353,NA,NA
53045,Waukesha County,WI,NA,68.4573002754821,NA
53066,Waukesha County,WI,32.89183222958057,NA,NA
53083,Sheboygan County,WI,NA,50.13774104683195,NA
53089,Waukesha County,WI,78.1456953642384,NA,NA
53092,Ozaukee County,WI,NA,32.92011019283746,NA
53121,Walworth County,WI,NA,23.415977961432507,NA
53132,Milwaukee County,WI,32.33995584988962,NA,41.03343465045592
53140,Kenosha County,WI,8.940397350993377,NA,NA
53142,Kenosha County,WI,NA,49.03581267217631,NA
53149,Waukesha County,WI,81.56732891832229,NA,NA
53158,Kenosha County,WI,16.99779249448124,NA,NA
53186,Waukesha County,WI,NA,27.548209366391184,NA
53204,Milwaukee County,WI,NA,28.37465564738292,NA
53212,Milwaukee County,WI,35.8719646799117,NA,NA
53214,Milwaukee County,WI,91.3907284768212,NA,NA
53217,Milwaukee County,WI,NA,21.487603305785125,NA
53218,Milwaukee County,WI,40.1766004415011,NA,NA
53219,Milwaukee County,WI,NA,92.8374655647383,NA
53221,Milwaukee County,WI,NA,17.768595041322314,NA
53222,Milwaukee County,WI,NA,28.650137741046834,NA
53225,Milwaukee County,WI,31.567328918322296,NA,NA
53226,Milwaukee County,WI,60.48565121412803,NA,NA
53402,Racine County,WI,NA,NA,13.98176291793313
53405,Racine County,WI,4.746136865342163,20.110192837465565,NA
53520,Green County,WI,NA,46.5564738292011,NA
53533,Iowa County,WI,98.12362030905078,NA,NA
53538,Jefferson County,WI,NA,NA,22.188449848024316
53558,Dane County,WI,NA,68.18181818181817,NA
53585,Walworth County,WI,97.68211920529801,NA,NA
53713,Dane County,WI,43.81898454746137,NA,NA
53717,Dane County,WI,NA,87.32782369146005,NA
53818,Grant County,WI,NA,79.88980716253444,NA
53913,Sauk County,WI,NA,45.59228650137741,NA
53948,Juneau County,WI,NA,58.539944903581265,NA
54011,Pierce County,WI,93.26710816777042,NA,NA
54022,Pierce County,WI,81.89845474613686,NA,NA
54114,Marinette County,WI,93.59823399558499,94.49035812672176,NA
54143,Marinette County,WI,69.31567328918322,NA,33.73860182370821
54157,Marinette County,WI,86.42384105960265,NA,NA
54166,Shawano County,WI,62.251655629139066,NA,NA
54220,Manitowoc County,WI,5.187637969094923,NA,NA
54304,Brown County,WI,NA,38.84297520661157,NA
54311,Brown County,WI,NA,56.060606060606055,NA
54451,Taylor County,WI,NA,NA,74.46808510638297
54457,Wood County,WI,70.86092715231787,NA,NA
54481,Portage County,WI,43.15673289183223,14.18732782369146,NA
54487,Lincoln County,WI,NA,35.12396694214876,NA
54501,Oneida County,WI,NA,76.03305785123968,NA
54521,Vilas County,WI,NA,99.31129476584022,NA
54601,La Crosse County,WI,NA,10.606060606060606,NA
54603,La Crosse County,WI,45.253863134657834,NA,NA
54650,La Crosse County,WI,71.8543046357616,NA,NA
54656,Monroe County,WI,38.852097130242825,NA,NA
54837,Polk County,WI,NA,95.59228650137742,NA
54868,Barron County,WI,57.615894039735096,NA,NA
54880,Douglas County,WI,11.920529801324504,NA,NA
54904,Winnebago County,WI,92.93598233995584,NA,NA
54911,Outagamie County,WI,NA,51.515151515151516,NA
54935,Fond du Lac County,WI,NA,NA,24.012158054711247
54937,Fond du Lac County,WI,NA,43.52617079889807,NA
