ZipCode,county,state,Adult,Retirement
35031,Blount County,AL,70.44673539518901,NA
35213,Jefferson County,AL,86.94158075601375,NA
35476,Tuscaloosa County,AL,58.075601374570454,NA
35803,Madison County,AL,84.19243986254295,NA
36351,Coffee County,AL,NA,97.44525547445255
36502,Escambia County,AL,NA,44.16058394160584
36530,Baldwin County,AL,82.13058419243985,NA
36693,Mobile County,AL,50.171821305841924,NA
36853,Tallapoosa County,AL,NA,83.21167883211679
99669,Kenai Peninsula Borough,AK,NA,54.01459854014598
85040,Maricopa County,AZ,NA,53.284671532846716
85140,Pinal County,AZ,NA,44.89051094890511
85207,Maricopa County,AZ,54.29553264604811,NA
85209,Maricopa County,AZ,NA,23.722627737226276
85212,Maricopa County,AZ,NA,64.23357664233576
85215,Maricopa County,AZ,NA,74.45255474452554
85257,Maricopa County,AZ,NA,66.05839416058394
85262,Maricopa County,AZ,NA,74.81751824817519
85295,Maricopa County,AZ,65.97938144329896,NA
85383,Maricopa County,AZ,30.927835051546392,NA
85706,Pima County,AZ,52.92096219931272,NA
72370,Mississippi County,AR,87.62886597938144,NA
72417,Craighead County,AR,96.90721649484536,NA
90025,Los Angeles County,CA,52.23367697594502,NA
90048,Los Angeles County,CA,74.5704467353952,NA
90066,Los Angeles County,CA,43.986254295532646,NA
90094,Los Angeles County,CA,95.53264604810997,NA
90631,Orange County,CA,37.11340206185567,NA
90745,Los Angeles County,CA,NA,28.467153284671532
91354,Los Angeles County,CA,92.43986254295532,NA
91746,Los Angeles County,CA,NA,82.11678832116789
91910,San Diego County,CA,27.835051546391753,NA
92026,San Diego County,CA,49.48453608247423,47.44525547445255
92084,San Diego County,CA,53.608247422680414,NA
92130,San Diego County,CA,59.106529209621996,NA
92201,Riverside County,CA,25.42955326460481,NA
92308,San Bernardino County,CA,46.04810996563574,NA
92324,San Bernardino County,CA,NA,40.87591240875913
92354,San Bernardino County,CA,NA,71.53284671532847
92407,San Bernardino County,CA,20.618556701030926,NA
92563,Riverside County,CA,NA,41.97080291970803
92646,Orange County,CA,NA,9.124087591240876
92679,Orange County,CA,55.670103092783506,NA
92691,Orange County,CA,NA,20.437956204379564
92831,Orange County,CA,47.42268041237113,NA
92840,Orange County,CA,75.94501718213058,NA
93023,Ventura County,CA,66.66666666666666,NA
93436,Santa Barbara County,CA,18.213058419243985,NA
93561,Kern County,CA,NA,83.57664233576642
93619,Fresno County,CA,NA,41.605839416058394
93662,Fresno County,CA,NA,71.16788321167883
94066,San Mateo County,CA,NA,10.218978102189782
94539,Alameda County,CA,NA,52.55474452554745
94558,Napa County,CA,34.707903780068726,NA
94565,Contra Costa County,CA,24.054982817869416,NA
95066,Santa Cruz County,CA,90.03436426116839,NA
95128,Santa Clara County,CA,38.83161512027492,NA
95136,Santa Clara County,CA,NA,62.77372262773723
95327,Tuolumne County,CA,NA,55.1094890510949
95361,Stanislaus County,CA,42.2680412371134,NA
95490,Mendocino County,CA,NA,50.36496350364964
95521,Humboldt County,CA,NA,81.02189781021897
95662,Sacramento County,CA,93.81443298969072,NA
95713,Placer County,CA,NA,92.7007299270073
95928,Butte County,CA,36.769759450171826,NA
96150,El Dorado County,CA,NA,66.78832116788321
80022,Adams County,CO,19.587628865979383,NA
80111,Arapahoe County,CO,66.32302405498281,NA
80116,Douglas County,CO,98.62542955326461,NA
80224,Denver County,CO,58.4192439862543,NA
80226,Jefferson County,CO,NA,77.73722627737226
80233,Adams County,CO,29.896907216494846,NA
80238,Denver County,CO,NA,93.06569343065694
80260,Adams County,CO,NA,58.02919708029197
80439,Jefferson County,CO,NA,49.63503649635037
80526,Larimer County,CO,39.86254295532646,NA
80904,El Paso County,CO,NA,62.40875912408759
80923,El Paso County,CO,NA,85.03649635036497
81005,Pueblo County,CO,40.20618556701031,NA
06517,New Haven County,CT,NA,42.700729927007295
32097,Nassau County,FL,51.546391752577314,NA
32208,Duval County,FL,NA,6.569343065693431
32233,Duval County,FL,NA,38.32116788321168
32244,Duval County,FL,7.216494845360824,NA
32257,Duval County,FL,27.147766323024054,NA
32404,Bay County,FL,26.46048109965636,NA
32428,Washington County,FL,48.45360824742268,NA
32459,Walton County,FL,NA,28.102189781021895
32605,Alachua County,FL,NA,89.41605839416059
32608,Alachua County,FL,9.278350515463918,NA
32712,Orange County,FL,NA,32.481751824817515
33062,Broward County,FL,NA,25.547445255474454
33064,Broward County,FL,40.893470790378004,NA
33156,Miami-Dade County,FL,92.78350515463917,NA
33418,Palm Beach County,FL,NA,63.503649635036496
33908,Lee County,FL,NA,5.839416058394161
33912,Lee County,FL,NA,45.25547445255474
34655,Pasco County,FL,NA,60.21897810218978
34972,Okeechobee County,FL,NA,76.64233576642336
30044,Gwinnett County,GA,23.02405498281787,NA
30046,Gwinnett County,GA,45.017182130584196,NA
30122,Douglas County,GA,50.51546391752577,NA
30143,Pickens County,GA,NA,35.03649635036496
30253,Henry County,GA,NA,50.72992700729927
30519,Gwinnett County,GA,NA,31.386861313868614
30549,Jackson County,GA,44.67353951890035,NA
30606,Clarke County,GA,NA,61.67883211678832
30736,Catoosa County,GA,13.402061855670103,NA
31206,Bibb County,GA,34.02061855670103,NA
83642,Ada County,ID,45.70446735395189,NA
83676,Canyon County,ID,NA,99.27007299270073
83815,Kootenai County,ID,NA,19.34306569343066
83864,Bonner County,ID,64.94845360824742,49.27007299270073
60012,McHenry County,IL,NA,61.31386861313869
60068,Cook County,IL,NA,35.76642335766424
60090,Cook County,IL,NA,63.138686131386855
60148,DuPage County,IL,NA,6.204379562043796
60156,McHenry County,IL,NA,55.47445255474452
60422,Cook County,IL,NA,45.98540145985402
60462,Cook County,IL,NA,5.474452554744526
60514,DuPage County,IL,NA,96.71532846715328
60525,Cook County,IL,NA,14.5985401459854
60546,Cook County,IL,NA,40.51094890510949
60607,Cook County,IL,NA,46.715328467153284
60611,Cook County,IL,50.85910652920962,NA
60660,Cook County,IL,NA,17.51824817518248
60804,Cook County,IL,NA,14.233576642335766
61615,Peoria County,IL,NA,60.58394160583942
62012,Macoupin County,IL,NA,78.1021897810219
62249,Madison County,IL,73.8831615120275,NA
62269,St. Clair County,IL,86.25429553264605,NA
46062,Hamilton County,IN,NA,18.613138686131386
46106,Johnson County,IN,95.1890034364261,NA
46176,Shelby County,IN,44.329896907216494,NA
46218,Marion County,IN,12.027491408934708,NA
46224,Marion County,IN,NA,48.175182481751825
46307,Lake County,IN,3.436426116838488,NA
46311,Lake County,IN,NA,51.09489051094891
46322,Lake County,IN,NA,22.62773722627737
46350,LaPorte County,IN,36.42611683848797,NA
46375,Lake County,IN,35.39518900343643,18.248175182481752
46514,Elkhart County,IN,NA,21.16788321167883
46574,St. Joseph County,IN,NA,80.2919708029197
46582,Kosciusko County,IN,NA,74.81751824817519
46619,St. Joseph County,IN,NA,67.88321167883211
46701,Noble County,IN,69.0721649484536,NA
46774,Allen County,IN,NA,43.79562043795621
46805,Allen County,IN,NA,48.54014598540146
46806,Allen County,IN,30.240549828178693,NA
46815,Allen County,IN,35.738831615120276,NA
46818,Allen County,IN,41.92439862542955,NA
46902,Howard County,IN,5.841924398625429,NA
47012,Franklin County,IN,85.56701030927834,NA
47201,Bartholomew County,IN,14.432989690721648,NA
47390,Randolph County,IN,NA,91.24087591240875
47404,Monroe County,IN,NA,91.6058394160584
47630,Warrick County,IN,NA,55.839416058394164
50501,Webster County,IA,26.804123711340207,NA
51534,Mills County,IA,57.73195876288659,NA
51555,Harrison County,IA,76.6323024054983,NA
52403,Linn County,IA,69.41580756013745,NA
66104,Wyandotte County,KS,32.64604810996563,NA
66502,Riley County,KS,69.7594501718213,NA
67042,Butler County,KS,57.388316151202744,NA
67801,Ford County,KS,NA,59.48905109489051
40004,Nelson County,KY,21.649484536082475,NA
40013,Nelson County,KY,79.38144329896907,NA
40324,Scott County,KY,15.807560137457044,NA
40351,Rowan County,KY,24.398625429553263,NA
40517,Fayette County,KY,23.711340206185564,NA
41056,Mason County,KY,NA,65.32846715328468
42301,Daviess County,KY,11.683848797250858,NA
42728,Adair County,KY,48.10996563573883,NA
70002,Jefferson Parish,LA,NA,30.29197080291971
70058,Jefferson Parish,LA,16.83848797250859,NA
70121,Jefferson Parish,LA,97.59450171821305,NA
70785,Livingston Parish,LA,20.274914089347078,NA
71302,Rapides Parish,LA,NA,54.74452554744526
71342,La Salle Parish,LA,55.32646048109966,NA
71449,Sabine Parish,LA,NA,83.94160583941606
04268,Oxford County,ME,78.00687285223368,NA
04976,Somerset County,ME,18.213058419243985,NA
20634,St. Mary's County,MD,NA,100
20855,Montgomery County,MD,90.72164948453609,NA
20886,Montgomery County,MD,NA,79.92700729927007
21060,Anne Arundel County,MD,NA,41.24087591240876
21074,Carroll County,MD,NA,88.6861313868613
21162,Baltimore County,MD,96.56357388316151,NA
21207,Baltimore County,MD,68.38487972508591,NA
21209,Baltimore County,MD,NA,59.854014598540154
01605,Worcester County,MA,NA,1.094890510948905
01746,Middlesex County,MA,NA,37.22627737226277
01754,Middlesex County,MA,85.2233676975945,NA
01845,Essex County,MA,31.27147766323024,NA
01886,Middlesex County,MA,NA,29.927007299270077
01915,Essex County,MA,3.0927835051546393,NA
01960,Essex County,MA,1.3745704467353952,NA
02124,Suffolk County,MA,0,NA
02130,Suffolk County,MA,NA,2.5547445255474455
02139,Middlesex County,MA,18.900343642611684,NA
02151,Suffolk County,MA,0.3436426116838488,NA
02155,Middlesex County,MA,2.0618556701030926,NA
02169,Norfolk County,MA,1.0309278350515463,6.934306569343065
02176,Middlesex County,MA,8.934707903780069,NA
02346,Plymouth County,MA,12.714776632302405,NA
02360,Plymouth County,MA,NA,0
02445,Norfolk County,MA,80.41237113402062,NA
02452,Middlesex County,MA,NA,38.68613138686132
02478,Middlesex County,MA,NA,21.897810218978105
02648,Barnstable County,MA,NA,67.15328467153284
02664,Barnstable County,MA,NA,36.13138686131387
02724,Bristol County,MA,NA,5.109489051094891
02744,Bristol County,MA,51.890034364261176,NA
02780,Bristol County,MA,0.6872852233676976,NA
48042,Macomb County,MI,NA,62.04379562043796
48059,St. Clair County,MI,86.5979381443299,NA
48066,Macomb County,MI,5.154639175257731,NA
48108,Washtenaw County,MI,NA,29.1970802919708
48154,Wayne County,MI,NA,7.664233576642336
48165,Oakland County,MI,74.91408934707904,NA
48178,Oakland County,MI,NA,13.138686131386862
48202,Wayne County,MI,33.67697594501718,NA
48208,Wayne County,MI,78.69415807560138,NA
48235,Wayne County,MI,NA,3.2846715328467155
48238,Wayne County,MI,6.872852233676976,NA
48335,Oakland County,MI,75.60137457044674,NA
48340,Oakland County,MI,NA,33.57664233576642
48341,Oakland County,MI,33.33333333333333,NA
48342,Oakland County,MI,NA,36.13138686131387
48374,Oakland County,MI,70.10309278350515,NA
48375,Oakland County,MI,46.735395189003434,NA
48412,Lapeer County,MI,93.12714776632302,NA
48439,Genesee County,MI,14.776632302405499,NA
48506,Genesee County,MI,26.11683848797251,NA
48706,Bay County,MI,NA,1.824817518248175
48708,Bay County,MI,9.965635738831615,8.02919708029197
48750,Iosco County,MI,NA,59.12408759124088
48843,Livingston County,MI,NA,25.18248175182482
49017,Calhoun County,MI,NA,23.357664233576642
49036,Branch County,MI,57.0446735395189,NA
49045,Van Buren County,MI,72.85223367697594,NA
49079,Van Buren County,MI,NA,45.62043795620438
49120,Berrien County,MI,58.76288659793815,NA
49203,Jackson County,MI,9.621993127147768,7.2992700729927
49221,Lenawee County,MI,NA,25.91240875912409
49327,Newaygo County,MI,74.22680412371135,NA
49329,Montcalm County,MI,52.57731958762887,NA
49337,Newaygo County,MI,93.81443298969072,NA
49401,Ottawa County,MI,53.264604810996566,NA
49508,Kent County,MI,7.560137457044673,NA
49617,Benzie County,MI,NA,94.52554744525547
49651,Missaukee County,MI,83.16151202749141,NA
49655,Osceola County,MI,100,NA
49696,Grand Traverse County,MI,72.5085910652921,NA
49720,Charlevoix County,MI,NA,60.94890510948905
49829,Delta County,MI,84.5360824742268,NA
55041,Wabasha County,MN,83.8487972508591,NA
55044,Dakota County,MN,NA,57.299270072992705
55066,Goodhue County,MN,71.1340206185567,18.97810218978102
55082,Washington County,MN,36.08247422680412,NA
55123,Dakota County,MN,NA,78.46715328467153
55124,Dakota County,MN,NA,39.05109489051095
55302,Wright County,MN,NA,92.33576642335767
55376,Wright County,MN,82.4742268041237,NA
55379,Scott County,MN,29.20962199312715,NA
55411,Hennepin County,MN,NA,17.88321167883212
55412,Hennepin County,MN,10.996563573883162,NA
55430,Hennepin County,MN,20.962199312714777,NA
55448,Anoka County,MN,NA,56.20437956204379
55963,Goodhue County,MN,91.75257731958763,NA
56156,Rock County,MN,89.00343642611683,NA
56301,Stearns County,MN,NA,70.07299270072993
56377,Stearns County,MN,NA,87.95620437956204
56378,Stearns County,MN,NA,93.43065693430657
56751,Roseau County,MN,NA,95.98540145985402
39208,Rankin County,MS,NA,52.18978102189781
39307,Lauderdale County,MS,41.23711340206185,NA
39339,Winston County,MS,88.31615120274914,NA
39426,Pearl River County,MS,49.828178694158076,40.14598540145985
39429,Marion County,MS,61.512027491408936,NA
39581,Jackson County,MS,NA,82.48175182481752
63042,St. Louis County,MO,NA,73.72262773722628
63114,St. Louis County,MO,28.1786941580756,NA
63117,St. Louis County,MO,95.87628865979381,NA
63136,St. Louis County,MO,8.59106529209622,NA
63139,St. Louis city,MO,65.63573883161511,NA
63366,St. Charles County,MO,NA,4.744525547445255
63368,St. Charles County,MO,NA,98.90510948905109
63775,Perry County,MO,38.48797250859107,NA
64145,Jackson County,MO,79.72508591065292,NA
64152,Platte County,MO,NA,34.306569343065696
64507,Buchanan County,MO,28.865979381443296,NA
64747,Cass County,MO,96.21993127147766,NA
65340,Saline County,MO,62.54295532646048,NA
65742,Webster County,MO,NA,75.91240875912408
59715,Gallatin County,MT,47.07903780068728,NA
59718,Gallatin County,MT,37.80068728522337,NA
59935,Lincoln County,MT,NA,97.08029197080292
68005,Sarpy County,NE,NA,67.51824817518248
68007,Douglas County,NE,82.81786941580756,NA
68046,Sarpy County,NE,61.16838487972509,NA
68106,Douglas County,NE,NA,78.83211678832117
68114,Douglas County,NE,75.25773195876289,NA
68130,Douglas County,NE,NA,74.08759124087592
68133,Sarpy County,NE,97.2508591065292,NA
68136,Sarpy County,NE,NA,87.59124087591242
89429,Lyon County,NV,NA,86.13138686131386
89436,Washoe County,NV,25.085910652920962,NA
89441,Washoe County,NV,NA,72.99270072992701
89451,Washoe County,NV,NA,95.62043795620438
03038,Rockingham County,NH,15.120274914089347,NA
03844,Rockingham County,NH,NA,97.8102189781022
07067,Middlesex County,NJ,89.69072164948454,NA
07417,Bergen County,NJ,NA,87.22627737226277
07731,Monmouth County,NJ,NA,39.416058394160586
08008,Ocean County,NJ,NA,85.76642335766424
08033,Camden County,NJ,61.855670103092784,NA
08037,Atlantic County,NJ,17.869415807560138,NA
08105,Camden County,NJ,10.652920962199312,NA
08230,Cape May County,NJ,NA,82.84671532846716
08540,Mercer County,NJ,40.549828178694156,NA
08721,Ocean County,NJ,NA,51.82481751824818
08840,Middlesex County,NJ,67.35395189003437,NA
10028,New York County,NY,78.35051546391753,NA
10044,New York County,NY,NA,99.63503649635037
10462,Bronx County,NY,NA,4.37956204379562
10469,Bronx County,NY,4.4673539518900345,NA
10530,Westchester County,NY,NA,84.67153284671532
10598,Westchester County,NY,NA,76.64233576642336
11105,Queens County,NY,NA,51.45985401459854
11217,Kings County,NY,67.69759450171821,NA
11385,Queens County,NY,NA,10.583941605839415
11561,Nassau County,NY,NA,29.56204379562044
12845,Warren County,NY,88.65979381443299,NA
12901,Clinton County,NY,4.123711340206185,NA
13021,Cayuga County,NY,4.810996563573884,NA
13219,Onondaga County,NY,NA,47.81021897810219
14048,Chautauqua County,NY,39.51890034364261,NA
14063,Chautauqua County,NY,NA,46.35036496350365
14139,Erie County,NY,NA,98.17518248175182
14227,Erie County,NY,NA,24.087591240875913
14304,Niagara County,NY,6.185567010309279,NA
14526,Monroe County,NY,NA,15.693430656934307
14534,Monroe County,NY,32.302405498281786,NA
14569,Wyoming County,NY,60.824742268041234,NA
14591,Wyoming County,NY,NA,98.54014598540147
14612,Monroe County,NY,NA,2.18978102189781
27006,Davie County,NC,56.3573883161512,24.45255474452555
27023,Forsyth County,NC,87.2852233676976,NA
27106,Forsyth County,NC,15.463917525773196,NA
27203,Randolph County,NC,29.553264604810998,NA
27217,Alamance County,NC,42.955326460481096,NA
27295,Davidson County,NC,NA,3.64963503649635
27357,Rockingham County,NC,81.78694158075601,NA
27542,Johnston County,NC,65.29209621993127,NA
27893,Wilson County,NC,16.49484536082474,NA
28078,Mecklenburg County,NC,NA,30.656934306569344
28110,Union County,NC,NA,17.153284671532848
28327,Moore County,NC,NA,58.75912408759124
28457,Pender County,NC,68.72852233676976,NA
28651,Wilkes County,NC,80.06872852233677,NA
28659,Wilkes County,NC,NA,24.817518248175183
28713,Swain County,NC,NA,56.934306569343065
28734,Macon County,NC,NA,8.75912408759124
58072,Barnes County,ND,NA,80.65693430656934
58104,Cass County,ND,NA,12.408759124087592
43081,Franklin County,OH,NA,9.854014598540147
43230,Franklin County,OH,17.525773195876287,NA
43420,Sandusky County,OH,12.371134020618557,NA
43460,Wood County,OH,NA,93.7956204379562
43545,Henry County,OH,60.13745704467354,NA
43613,Lucas County,OH,5.498281786941581,NA
43616,Lucas County,OH,NA,11.313868613138686
43701,Muskingum County,OH,NA,0.36496350364963503
43910,Jefferson County,OH,NA,94.8905109489051
43950,Belmont County,OH,NA,16.423357664233578
44060,Lake County,OH,NA,0.7299270072992701
44105,Cuyahoga County,OH,1.718213058419244,NA
44111,Cuyahoga County,OH,2.7491408934707904,NA
44137,Cuyahoga County,OH,NA,39.78102189781022
44140,Cuyahoga County,OH,NA,26.642335766423358
44260,Portage County,OH,NA,54.379562043795616
44286,Summit County,OH,94.50171821305841,NA
44420,Trumbull County,OH,NA,81.38686131386861
44432,Columbiana County,OH,NA,73.35766423357664
44515,Mahoning County,OH,NA,12.043795620437956
44615,Carroll County,OH,NA,50
45011,Butler County,OH,3.7800687285223367,NA
45133,Highland County,OH,23.367697594501717,NA
45338,Preble County,OH,NA,90.87591240875912
45345,Montgomery County,OH,NA,75.54744525547446
45373,Miami County,OH,8.24742268041237,NA
45503,Clark County,OH,NA,12.773722627737227
45628,Ross County,OH,80.75601374570446,NA
45656,Jackson County,OH,56.013745704467354,NA
45661,Pike County,OH,NA,43.43065693430657
73044,Logan County,OK,76.28865979381443,NA
73065,McClain County,OK,NA,91.970802919708035
73099,Canadian County,OK,16.151202749140893,NA
73601,Custer County,OK,59.450171821305844,NA
74014,Wagoner County,OK,NA,22.26277372262774
74048,Nowata County,OK,NA,89.78102189781022
97013,Clackamas County,OR,NA,71.8978102189781
97024,Multnomah County,OR,59.79381443298969,NA
97123,Washington County,OR,NA,16.05839416058394
97124,Washington County,OR,54.98281786941581,21.532846715328464
97138,Clatsop County,OR,54.63917525773196,NA
97303,Marion County,OR,81.09965635738831,NA
97355,Linn County,OR,14.0893470790378,NA
15235,Allegheny County,PA,22.68041237113402,NA
15320,Greene County,PA,NA,86.4963503649635
15367,Washington County,PA,93.47079037800687,NA
15668,Westmoreland County,PA,77.66323024054984,NA
16001,Butler County,PA,NA,2.9197080291970803
16407,Erie County,PA,NA,66.42335766423358
16505,Erie County,PA,64.26116838487972,NA
16601,Blair County,PA,11.34020618556701,NA
17078,Lebanon County,PA,NA,10.948905109489052
17315,York County,PA,31.615120274914087,NA
17339,York County,PA,NA,89.05109489051095
17404,York County,PA,NA,13.138686131386862
17557,Lancaster County,PA,72.85223367697594,NA
18020,Northampton County,PA,NA,27.37226277372263
18052,Lehigh County,PA,21.993127147766323,NA
19010,Delaware County,PA,51.20274914089347,NA
19020,Bucks County,PA,10.309278350515463,NA
19116,Philadelphia County,PA,NA,14.963503649635038
19136,Philadelphia County,PA,13.745704467353953,NA
19144,Philadelphia County,PA,NA,9.48905109489051
19610,Berks County,PA,NA,70.8029197080292
02806,Bristol County,RI,NA,68.24817518248175
02818,Kent County,RI,NA,42.700729927007295
02885,Bristol County,RI,76.97594501718214,NA
29406,Charleston County,SC,27.491408934707906,NA
29412,Charleston County,SC,NA,19.708029197080293
29461,Berkeley County,SC,NA,31.02189781021898
29466,Charleston County,SC,NA,48.9051094890511
29483,Dorchester County,SC,19.243986254295535,NA
29501,Florence County,SC,NA,16.78832116788321
29579,Horry County,SC,48.797250859106526,NA
29630,Pickens County,SC,85.56701030927834,NA
29640,Pickens County,SC,NA,20.802919708029197
29812,Barnwell County,SC,79.03780068728523,NA
57301,Davison County,SD,NA,32.11678832116788
37043,Montgomery County,TN,38.144329896907216,NA
37075,Sumner County,TN,NA,31.751824817518248
37076,Davidson County,TN,NA,28.467153284671532
37187,Dickson County,TN,70.79037800687286,NA
37363,Hamilton County,TN,68.04123711340206,NA
37416,Hamilton County,TN,49.140893470790374,NA
37650,Unicoi County,TN,NA,44.52554744525548
37771,Loudon County,TN,NA,52.919708029197075
37830,Anderson County,TN,NA,22.62773722627737
38237,Weakley County,TN,72.16494845360825,NA
75051,Dallas County,TX,42.61168384879725,NA
75409,Collin County,TX,NA,86.86131386861314
75410,Wood County,TX,NA,81.75182481751825
75662,Gregg County,TX,47.766323024054984,NA
75703,Smith County,TX,35.051546391752574,NA
75757,Smith County,TX,71.8213058419244,NA
76006,Tarrant County,TX,NA,72.62773722627736
76033,Johnson County,TX,39.175257731958766,NA
76084,Johnson County,TX,87.97250859106529,NA
76088,Parker County,TX,98.28178694158075,90.51094890510949
76112,Tarrant County,TX,NA,15.328467153284672
76119,Tarrant County,TX,NA,8.394160583941606
76140,Tarrant County,TX,64.60481099656357,NA
76240,Cooke County,TX,NA,33.941605839416056
76262,Denton County,TX,NA,95.25547445255475
76401,Erath County,TX,56.70103092783505,NA
76502,Bell County,TX,17.18213058419244,NA
76712,McLennan County,TX,81.44329896907216,NA
77006,Harris County,TX,71.47766323024055,NA
77042,Harris County,TX,NA,68.97810218978103
77339,Harris County,TX,NA,37.95620437956204
77375,Harris County,TX,NA,34.67153284671533
77388,Harris County,TX,NA,33.21167883211679
77469,Fort Bend County,TX,NA,32.846715328467155
77523,Chambers County,TX,NA,64.96350364963503
77550,Galveston County,TX,22.336769759450174,NA
77583,Brazoria County,TX,NA,70.43795620437956
77612,Jasper County,TX,84.87972508591065,NA
77706,Jefferson County,TX,45.36082474226804,NA
78112,Bexar County,TX,91.40893470790378,NA
78219,Bexar County,TX,NA,63.868613138686136
78223,Bexar County,TX,NA,27.00729927007299
78266,Comal County,TX,97.9381443298969,NA
78633,Williamson County,TX,NA,1.4598540145985401
79124,Potter County,TX,NA,96.35036496350365
79556,Nolan County,TX,NA,90.14598540145985
79603,Taylor County,TX,NA,69.34306569343066
84032,Wasatch County,UT,NA,76.27737226277372
84037,Davis County,UT,63.230240549828174,NA
84094,Salt Lake County,UT,60.48109965635739,NA
84095,Salt Lake County,UT,41.580756013745706,NA
84404,Weber County,UT,NA,37.591240875912405
84780,Washington County,UT,NA,47.08029197080292
84790,Washington County,UT,NA,13.86861313868613
05301,Windham County,VT,NA,26.277372262773724
20124,Fairfax County,VA,91.75257731958763,NA
20175,Loudoun County,VA,66.66666666666666,NA
22039,Fairfax County,VA,NA,79.56204379562044
22201,Arlington County,VA,NA,69.7080291970803
22315,Fairfax County,VA,NA,57.66423357664233
22520,Westmoreland County,VA,NA,94.16058394160584
22802,Harrisonburg city,VA,25.42955326460481,NA
22844,Shenandoah County,VA,94.84536082474226,NA
23234,Chesterfield County,VA,NA,68.61313868613139
23462,Virginia Beach city,VA,21.305841924398624,NA
23502,Norfolk city,VA,NA,27.73722627737226
23518,Norfolk city,VA,42.955326460481096,NA
23666,Hampton city,VA,13.058419243986256,NA
24012,Roanoke city,VA,32.98969072164948,NA
24013,Roanoke city,VA,73.53951890034365,NA
24017,Roanoke city,VA,NA,42.33576642335766
24179,Roanoke County,VA,46.391752577319586,79.1970802919708
98023,King County,WA,28.52233676975945,NA
98040,King County,WA,NA,84.30656934306569
98282,Island County,WA,83.50515463917526,NA
98284,Skagit County,WA,NA,58.3941605839416
98375,Pierce County,WA,NA,77.37226277372264
98501,Thurston County,WA,NA,85.40145985401459
98502,Thurston County,WA,NA,65.69343065693431
98902,Yakima County,WA,31.958762886597935,NA
98903,Yakima County,WA,63.91752577319587,NA
20009,District of Columbia,DC,34.36426116838488,NA
20017,District of Columbia,DC,NA,64.59854014598541
25419,Berkeley County,WV,77.31958762886599,NA
26101,Wood County,WV,6.529209621993128,NA
26150,Wood County,WV,NA,53.64963503649635
53032,Dodge County,WI,99.65635738831615,NA
53051,Waukesha County,WI,43.6426116838488,NA
53104,Kenosha County,WI,91.06529209621993,NA
53128,Walworth County,WI,63.57388316151202,88.32116788321169
53142,Kenosha County,WI,NA,20.072992700729927
53147,Walworth County,WI,NA,72.26277372262774
53154,Milwaukee County,WI,NA,11.678832116788321
53179,Kenosha County,WI,62.19931271477663,NA
53218,Milwaukee County,WI,NA,56.56934306569343
53226,Milwaukee County,WI,62.88659793814433,NA
53402,Racine County,WI,7.903780068728522,NA
53405,Racine County,WI,NA,4.014598540145985
53511,Rock County,WI,2.405498281786942,NA
53538,Jefferson County,WI,NA,35.4014598540146
53545,Rock County,WI,37.45704467353952,NA
53546,Rock County,WI,19.93127147766323,NA
53563,Rock County,WI,98.96907216494846,NA
53925,Columbia County,WI,89.3470790378007,NA
54025,St. Croix County,WI,90.37800687285224,NA
54113,Outagamie County,WI,99.3127147766323,NA
54130,Outagamie County,WI,53.95189003436426,NA
54304,Brown County,WI,24.742268041237114,NA
54901,Winnebago County,WI,30.584192439862544,NA
54904,Winnebago County,WI,NA,36.86131386861314
