ZipCode,county,state,Youth,Adult
35020,Jefferson County,AL,11.428571428571429,NA
35126,Jefferson County,AL,NA,54.581673306772906
35216,Jefferson County,AL,30.714285714285715,NA
36025,Elmore County,AL,NA,98.40637450199203
36575,Mobile County,AL,66.78571428571428,NA
99507,Anchorage Municipality,AK,47.5,NA
99645,Matanuska-Susitna Borough,AK,41.42857142857143,NA
85029,Maricopa County,AZ,7.142857142857142,NA
85035,Maricopa County,AZ,11.785714285714285,NA
85206,Maricopa County,AZ,37.857142857142854,NA
85207,Maricopa County,AZ,NA,28.286852589641438
85215,Maricopa County,AZ,NA,81.67330677290838
85224,Maricopa County,AZ,54.64285714285714,NA
85225,Maricopa County,AZ,NA,58.964143426294825
85248,Maricopa County,AZ,42.142857142857146,NA
85283,Maricopa County,AZ,60.357142857142854,NA
85623,Pinal County,AZ,NA,98.80478087649402
85748,Pima County,AZ,NA,80.87649402390437
85757,Pima County,AZ,42.142857142857146,NA
71601,Jefferson County,AR,NA,61.75298804780876
71603,Jefferson County,AR,20.357142857142858,NA
72801,Pope County,AR,NA,81.27490039840637
90035,Los Angeles County,CA,NA,89.2430278884462
90041,Los Angeles County,CA,NA,73.30677290836654
90404,Los Angeles County,CA,87.14285714285714,NA
90501,Los Angeles County,CA,50,NA
90631,Orange County,CA,84.28571428571429,NA
90680,Orange County,CA,NA,84.4621513944223
90713,Los Angeles County,CA,41.785714285714285,NA
91351,Los Angeles County,CA,93.57142857142857,NA
91367,Los Angeles County,CA,91.42857142857143,NA
91402,Los Angeles County,CA,NA,30.677290836653388
91723,Los Angeles County,CA,NA,78.08764940239044
91737,San Bernardino County,CA,NA,77.68924302788844
92019,San Diego County,CA,20.714285714285715,NA
92025,San Diego County,CA,NA,49.00398406374502
92064,San Diego County,CA,NA,52.589641434262944
92084,San Diego County,CA,68.21428571428572,NA
92105,San Diego County,CA,13.928571428571429,NA
92107,San Diego County,CA,75,NA
92116,San Diego County,CA,75.35714285714286,NA
92211,Riverside County,CA,65.35714285714286,NA
92252,San Bernardino County,CA,NA,74.10358565737052
92270,Riverside County,CA,NA,84.06374501992032
92392,San Bernardino County,CA,32.5,NA
92407,San Bernardino County,CA,28.92857142857143,NA
92551,Riverside County,CA,NA,65.33864541832669
92595,Riverside County,CA,NA,40.63745019920319
92627,Orange County,CA,NA,22.31075697211155
92653,Orange County,CA,NA,74.5019920318725
93267,Tulare County,CA,99.64285714285714,NA
93551,Los Angeles County,CA,59.285714285714285,NA
93905,Monterey County,CA,NA,38.645418326693225
93907,Monterey County,CA,66.07142857142857,NA
94087,Santa Clara County,CA,57.14285714285714,NA
94306,Santa Clara County,CA,NA,87.64940239043824
94558,Napa County,CA,NA,61.354581673306775
94577,Alameda County,CA,53.57142857142857,NA
94585,Solano County,CA,NA,80.0796812749004
94603,Alameda County,CA,23.92857142857143,NA
94954,Sonoma County,CA,71.78571428571429,NA
95120,Santa Clara County,CA,95.71428571428572,NA
95129,Santa Clara County,CA,88.21428571428571,NA
95301,Merced County,CA,NA,46.613545816733065
95368,Stanislaus County,CA,90,NA
95404,Sonoma County,CA,NA,69.7211155378486
95407,Sonoma County,CA,63.57142857142857,NA
95482,Mendocino County,CA,21.428571428571427,NA
95608,Sacramento County,CA,44.642857142857146,NA
95630,Sacramento County,CA,NA,28.68525896414343
95842,Sacramento County,CA,NA,45.41832669322709
95969,Butte County,CA,NA,34.66135458167331
80020,Broomfield County,CO,NA,44.223107569721115
80104,Douglas County,CO,NA,56.573705179282875
80108,Douglas County,CO,23.57142857142857,NA
80113,Arapahoe County,CO,NA,85.2589641434263
80234,Adams County,CO,37.142857142857146,NA
80433,Jefferson County,CO,79.64285714285714,NA
80528,Larimer County,CO,24.642857142857146,NA
80534,Weld County,CO,55.00000000000001,NA
80603,Weld County,CO,48.57142857142857,NA
80915,El Paso County,CO,68.57142857142857,NA
80919,El Paso County,CO,83.57142857142857,NA
81001,Pueblo County,CO,NA,23.107569721115535
81008,Pueblo County,CO,NA,85.65737051792829
81503,Mesa County,CO,50.71428571428571,NA
81504,Mesa County,CO,58.57142857142858,NA
81520,Mesa County,CO,46.07142857142857,NA
06051,Hartford County,CT,4.642857142857143,NA
06088,Hartford County,CT,NA,92.82868525896414
06226,Windham County,CT,17.857142857142858,NA
06277,Windham County,CT,NA,83.66533864541833
06460,New Haven County,CT,52.142857142857146,NA
06478,New Haven County,CT,96.78571428571429,NA
06605,Fairfield County,CT,54.285714285714285,NA
06712,New Haven County,CT,NA,92.03187250996015
06804,Fairfield County,CT,80.35714285714286,NA
19709,New Castle County,DE,13.928571428571429,NA
32003,Clay County,FL,NA,58.56573705179283
32177,Putnam County,FL,31.785714285714285,NA
32209,Duval County,FL,NA,5.577689243027888
32219,Duval County,FL,NA,44.6215139442231
32221,Duval County,FL,NA,33.46613545816733
32234,Duval County,FL,NA,82.07171314741036
32244,Duval County,FL,3.571428571428571,NA
32435,Walton County,FL,75.35714285714286,NA
32439,Walton County,FL,NA,72.90836653386454
32507,Escambia County,FL,12.142857142857142,NA
32607,Alachua County,FL,NA,21.115537848605577
32667,Alachua County,FL,NA,98.00796812749005
32804,Orange County,FL,90.35714285714286,NA
32828,Orange County,FL,47.85714285714286,NA
33137,Miami-Dade County,FL,77.85714285714286,NA
33305,Broward County,FL,NA,91.23505976095618
33607,Hillsborough County,FL,NA,53.78486055776892
33759,Pinellas County,FL,88.21428571428571,NA
33761,Pinellas County,FL,92.85714285714286,NA
33914,Lee County,FL,99.28571428571429,NA
34116,Collier County,FL,NA,49.800796812749006
34491,Marion County,FL,45,NA
34743,Osceola County,FL,61.07142857142858,NA
34759,Polk County,FL,NA,39.44223107569721
34771,Osceola County,FL,60.71428571428571,NA
30004,Fulton County,GA,25,NA
30019,Gwinnett County,GA,NA,39.8406374501992
30052,Walton County,GA,NA,19.52191235059761
30062,Cobb County,GA,17.5,NA
30101,Cobb County,GA,NA,29.482071713147413
30263,Coweta County,GA,11.071428571428571,NA
30338,DeKalb County,GA,NA,72.11155378486056
30342,Fulton County,GA,55.35714285714286,NA
30458,Bulloch County,GA,21.785714285714285,NA
30534,Dawson County,GA,59.285714285714285,NA
30549,Jackson County,GA,87.5,NA
30721,Whitfield County,GA,27.142857142857142,NA
83301,Twin Falls County,ID,14.642857142857144,NA
83406,Bonneville County,ID,72.85714285714285,NA
60030,Lake County,IL,NA,87.25099601593625
60031,Lake County,IL,NA,50.99601593625498
60033,McHenry County,IL,NA,69.32270916334662
60202,Cook County,IL,58.92857142857143,NA
60542,Kane County,IL,89.28571428571429,NA
60639,Cook County,IL,4.285714285714286,NA
60644,Cook County,IL,18.21428571428571,NA
61010,Ogle County,IL,92.14285714285714,NA
61364,LaSalle County,IL,NA,56.17529880478087
61554,Tazewell County,IL,56.42857142857143,NA
62294,Madison County,IL,81.07142857142857,NA
62301,Adams County,IL,52.5,NA
62526,Macon County,IL,NA,11.952191235059761
46394,Lake County,IN,61.42857142857143,NA
46544,St. Joseph County,IN,NA,50.199203187250994
46750,Huntington County,IN,84.28571428571429,NA
46952,Grant County,IN,NA,20.318725099601593
46962,Wabash County,IN,NA,95.61752988047809
47725,Vanderburgh County,IN,83.92857142857143,NA
51105,Woodbury County,IA,72.5,NA
52003,Dubuque County,IA,NA,89.64143426294821
52302,Linn County,IA,40.714285714285715,NA
66049,Douglas County,KS,68.92857142857143,NA
66062,Johnson County,KS,9.285714285714286,NA
66210,Johnson County,KS,52.5,NA
66214,Johnson County,KS,67.85714285714286,NA
66607,Shawnee County,KS,94.28571428571428,NA
66739,Cherokee County,KS,NA,96.81274900398407
67801,Ford County,KS,50.357142857142854,NA
40108,Meade County,KY,NA,67.729083665338635
40215,Jefferson County,KY,2.5,NA
40272,Jefferson County,KY,8.571428571428571,NA
40504,Fayette County,KY,NA,42.62948207171315
41048,Boone County,KY,29.28571428571429,NA
70433,St. Tammany Parish,LA,NA,7.171314741035857
70583,Lafayette Parish,LA,NA,50.59760956175299
70615,Calcasieu Parish,LA,NA,24.302788844621514
70810,East Baton Rouge Parish,LA,NA,8.764940239043826
04005,York County,ME,13.571428571428571,NA
04210,Androscoggin County,ME,38.21428571428571,NA
04294,Franklin County,ME,85.35714285714285,NA
20878,Montgomery County,MD,NA,76.09561752988047
20879,Montgomery County,MD,72.85714285714285,NA
21014,Harford County,MD,NA,41.03585657370518
21032,Anne Arundel County,MD,88.92857142857142,NA
21208,Baltimore County,MD,38.92857142857143,NA
21213,Baltimore city,MD,18.571428571428573,NA
21227,Baltimore County,MD,56.785714285714285,NA
21804,Wicomico County,MD,46.785714285714285,NA
21921,Cecil County,MD,15.714285714285714,NA
01108,Hampden County,MA,NA,3.187250996015936
01118,Hampden County,MA,45.357142857142854,NA
01201,Berkshire County,MA,NA,1.9920318725099602
01420,Worcester County,MA,NA,0.796812749003984
01463,Middlesex County,MA,NA,45.81673306772908
01464,Middlesex County,MA,69.28571428571428,NA
01569,Worcester County,MA,NA,66.53386454183267
01604,Worcester County,MA,81.42857142857143,NA
01605,Worcester County,MA,NA,2.788844621513944
01826,Middlesex County,MA,NA,5.9760956175298805
01830,Essex County,MA,89.64285714285715,NA
01832,Essex County,MA,6.428571428571428,NA
01843,Essex County,MA,NA,58.16733067729084
01906,Essex County,MA,NA,35.45816733067729
01970,Essex County,MA,NA,1.593625498007968
02043,Plymouth County,MA,NA,39.04382470119522
02139,Middlesex County,MA,26.071428571428573,NA
02152,Suffolk County,MA,15,NA
02301,Plymouth County,MA,NA,0
02324,Plymouth County,MA,66.42857142857143,NA
02724,Bristol County,MA,NA,4.780876494023905
48038,Macomb County,MI,NA,13.147410358565736
48051,Macomb County,MI,NA,57.37051792828686
48083,Oakland County,MI,37.5,NA
48135,Wayne County,MI,NA,25.49800796812749
48179,Monroe County,MI,94.64285714285714,NA
48203,Wayne County,MI,NA,15.139442231075698
48206,Wayne County,MI,NA,31.47410358565737
48207,Wayne County,MI,NA,20.717131474103585
48213,Wayne County,MI,NA,10.756972111553784
48234,Wayne County,MI,NA,8.366533864541832
48236,Wayne County,MI,28.57142857142857,NA
48306,Oakland County,MI,29.642857142857142,NA
48313,Macomb County,MI,NA,29.880478087649404
48322,Oakland County,MI,NA,71.31474103585657
48340,Oakland County,MI,NA,9.9601593625498
48341,Oakland County,MI,NA,33.86454183266932
48383,Oakland County,MI,NA,68.52589641434263
48386,Oakland County,MI,61.78571428571429,NA
48423,Genesee County,MI,NA,62.94820717131474
48430,Genesee County,MI,NA,27.88844621513944
48446,Lapeer County,MI,36.42857142857142,NA
48507,Genesee County,MI,NA,9.56175298804781
48601,Saginaw County,MI,0.7142857142857143,NA
48616,Saginaw County,MI,NA,55.77689243027888
48768,Tuscola County,MI,NA,55.37848605577689
48838,Montcalm County,MI,35.35714285714286,NA
48917,Eaton County,MI,8.571428571428571,NA
49014,Calhoun County,MI,21.071428571428573,NA
49017,Calhoun County,MI,32.5,NA
49401,Ottawa County,MI,49.642857142857146,NA
49428,Ottawa County,MI,76.78571428571429,NA
49507,Kent County,MI,1.4285714285714286,NA
49508,Kent County,MI,16.071428571428573,NA
55082,Washington County,MN,NA,36.254980079681275
55102,Ramsey County,MN,26.785714285714285,NA
55103,Ramsey County,MN,NA,46.21513944223107
55304,Anoka County,MN,36.07142857142857,NA
55372,Scott County,MN,NA,59.76095617529881
55378,Scott County,MN,59.285714285714285,NA
55407,Hennepin County,MN,NA,47.01195219123506
55428,Hennepin County,MN,12.857142857142856,NA
56007,Freeborn County,MN,NA,15.936254980079681
56353,Mille Lacs County,MN,NA,86.45418326693228
39170,Hinds County,MS,NA,82.86852589641434
39443,Jones County,MS,NA,63.34661354581673
63028,Jefferson County,MO,27.500000000000004,NA
63133,St. Louis County,MO,NA,80.47808764940238
63301,St. Charles County,MO,10.357142857142858,NA
63303,St. Charles County,MO,16.785714285714285,NA
63385,St. Charles County,MO,NA,16.733067729083665
64024,Clay County,MO,NA,19.12350597609562
64089,Clay County,MO,NA,54.18326693227091
64124,Jackson County,MO,79.64285714285714,90.83665338645417
64468,Nodaway County,MO,62.5,NA
64850,Newton County,MO,NA,16.334661354581673
65202,Boone County,MO,13.214285714285715,NA
65616,Taney County,MO,NA,38.24701195219124
59923,Lincoln County,MT,72.85714285714285,NA
68136,Sarpy County,NE,NA,83.26693227091634
68845,Buffalo County,NE,69.28571428571428,NA
89144,Clark County,NV,87.85714285714286,NA
03079,Rockingham County,NH,NA,15.53784860557769
03104,Hillsborough County,NH,NA,13.545816733067728
07002,Hudson County,NJ,3.9285714285714284,NA
08057,Burlington County,NJ,78.57142857142857,NA
08204,Cape May County,NJ,55.35714285714286,NA
08332,Cumberland County,NJ,NA,2.3904382470119523
08525,Mercer County,NJ,62.142857142857146,NA
87105,Bernalillo County,NM,NA,21.51394422310757
87401,San Juan County,NM,NA,17.928286852589643
87505,Santa Fe County,NM,NA,26.294820717131472
10037,New York County,NY,86.78571428571429,NA
10304,Richmond County,NY,NA,13.94422310756972
10456,Bronx County,NY,NA,0.398406374501992
10462,Bronx County,NY,NA,6.772908366533864
10528,Westchester County,NY,NA,92.43027888446214
10705,Westchester County,NY,19.28571428571429,NA
10989,Rockland County,NY,67.5,NA
11208,Kings County,NY,10.714285714285714,NA
11210,Kings County,NY,44.285714285714285,NA
11221,Kings County,NY,51.78571428571429,NA
11226,Kings County,NY,NA,21.91235059760956
11433,Queens County,NY,36.42857142857142,NA
11778,Suffolk County,NY,94.64285714285714,NA
12180,Rensselaer County,NY,22.142857142857142,NA
12801,Warren County,NY,43.92857142857143,NA
13035,Madison County,NY,NA,94.82071713147411
13063,Onondaga County,NY,NA,100
13090,Onondaga County,NY,30.357142857142854,NA
13142,Oswego County,NY,NA,66.93227091633466
13212,Onondaga County,NY,26.42857142857143,NA
13316,Oneida County,NY,NA,60.95617529880478
13357,Herkimer County,NY,30.714285714285715,NA
13748,Broome County,NY,91.07142857142857,NA
14032,Erie County,NY,82.14285714285714,95.2191235059761
14057,Erie County,NY,98.57142857142858,NA
14075,Erie County,NY,24.285714285714285,NA
14527,Yates County,NY,NA,29.08366533864542
14534,Monroe County,NY,31.428571428571427,NA
14626,Monroe County,NY,NA,3.9840637450199203
14701,Chautauqua County,NY,3.214285714285714,NA
14727,Allegany County,NY,NA,71.71314741035857
14810,Steuben County,NY,49.28571428571429,NA
14838,Chemung County,NY,NA,97.60956175298804
27013,Rowan County,NC,NA,82.07171314741036
27265,Guilford County,NC,39.64285714285714,NA
27284,Forsyth County,NC,NA,7.569721115537849
27511,Wake County,NC,NA,88.04780876494024
27526,Wake County,NC,NA,30.278884462151396
27536,Vance County,NC,38.57142857142858,NA
27577,Johnston County,NC,64.28571428571429,NA
27597,Wake County,NC,NA,77.29083665338645
27707,Durham County,NC,NA,12.350597609561753
27803,Nash County,NC,53.92857142857142,NA
27858,Pitt County,NC,32.142857142857146,NA
27958,Currituck County,NC,NA,90.0398406374502
28001,Stanly County,NC,NA,62.54980079681275
28027,Cabarrus County,NC,7.857142857142857,NA
28078,Mecklenburg County,NC,NA,62.15139442231076
28079,Union County,NC,40.35714285714286,NA
28081,Cabarrus County,NC,NA,23.904382470119522
28128,Stanly County,NC,80.71428571428572,NA
28412,New Hanover County,NC,27.857142857142858,NA
28721,Haywood County,NC,NA,74.5019920318725
58072,Barnes County,ND,62.5,NA
43229,Franklin County,OH,0,NA
43338,Morrow County,OH,67.14285714285714,NA
43526,Defiance County,OH,45.714285714285715,NA
43701,Muskingum County,OH,0.35714285714285715,NA
43845,Coshocton County,OH,82.85714285714286,NA
43938,Jefferson County,OH,NA,53.38645418326693
44030,Ashtabula County,OH,33.214285714285715,NA
44050,Lorain County,OH,NA,70.5179282868526
44060,Lake County,OH,2.857142857142857,NA
44105,Cuyahoga County,OH,2.142857142857143,NA
44109,Cuyahoga County,OH,1.0714285714285714,NA
44135,Cuyahoga County,OH,NA,4.382470119521913
44138,Cuyahoga County,OH,76.42857142857142,NA
44216,Summit County,OH,NA,59.36254980079681
44484,Trumbull County,OH,NA,31.872509960159363
44615,Carroll County,OH,85,NA
44805,Ashland County,OH,NA,41.832669322709165
44870,Erie County,OH,43.214285714285715,NA
44875,Richland County,OH,NA,70.1195219123506
45150,Clermont County,OH,28.214285714285715,NA
45213,Hamilton County,OH,70.71428571428572,NA
45247,Hamilton County,OH,79.28571428571428,NA
45365,Shelby County,OH,6.785714285714286,NA
45415,Montgomery County,OH,NA,76.49402390438247
45429,Montgomery County,OH,NA,43.02788844621514
45432,Greene County,OH,97.85714285714285,NA
45458,Montgomery County,OH,NA,68.92430278884463
45503,Clark County,OH,NA,7.968127490039841
45601,Ross County,OH,NA,1.1952191235059761
45631,Gallia County,OH,8.214285714285714,NA
45640,Jackson County,OH,10,NA
45680,Lawrence County,OH,16.428571428571427,NA
45723,Athens County,OH,91.78571428571428,NA
45750,Washington County,OH,NA,3.5856573705179287
45840,Hancock County,OH,83.21428571428572,NA
73071,Cleveland County,OK,NA,25.89641434262948
73446,Marshall County,OK,78.21428571428571,NA
74743,Choctaw County,OK,NA,88.44621513944223
97007,Washington County,OR,95.35714285714286,NA
97038,Clackamas County,OR,NA,65.73705179282868
97424,Lane County,OR,46.42857142857143,NA
97479,Douglas County,OR,69.28571428571428,NA
97501,Jackson County,OR,17.142857142857142,NA
15522,Bedford County,PA,65,NA
15834,Cameron County,PA,51.07142857142857,NA
16148,Mercer County,PA,NA,47.410358565737056
16335,Crawford County,PA,NA,10.358565737051793
16505,Erie County,PA,58.214285714285715,NA
17038,Lebanon County,PA,90.35714285714286,NA
17046,Lebanon County,PA,NA,37.05179282868526
17057,Dauphin County,PA,NA,18.725099601593627
17067,Lebanon County,PA,97.5,NA
17078,Lebanon County,PA,5.714285714285714,NA
17109,Dauphin County,PA,NA,27.490039840637447
17112,Dauphin County,PA,NA,17.52988047808765
17319,York County,PA,NA,64.5418326693227
17325,Adams County,PA,NA,26.693227091633464
17331,York County,PA,NA,33.067729083665334
17545,Lancaster County,PA,18.928571428571427,NA
17601,Lancaster County,PA,NA,36.65338645418327
17754,Lycoming County,PA,NA,63.745019920318725
17866,Northumberland County,PA,NA,86.85258964143426
18037,Lehigh County,PA,78.92857142857143,NA
18403,Lackawanna County,PA,85.71428571428571,NA
18644,Luzerne County,PA,NA,86.05577689243027
18974,Bucks County,PA,NA,23.50597609561753
18976,Bucks County,PA,82.14285714285714,NA
19027,Montgomery County,PA,57.49999999999999,NA
19047,Bucks County,PA,NA,27.091633466135455
19136,Philadelphia County,PA,NA,11.553784860557768
19380,Chester County,PA,5.357142857142857,NA
19401,Montgomery County,PA,NA,9.163346613545817
19464,Montgomery County,PA,NA,6.374501992031872
19608,Berks County,PA,19.642857142857142,NA
29006,Lexington County,SC,98.92857142857143,NA
29212,Lexington County,SC,NA,60.55776892430279
29388,Spartanburg County,SC,52.5,NA
29420,Dorchester County,SC,NA,47.808764940239044
29461,Berkeley County,SC,12.5,NA
29510,Georgetown County,SC,76.78571428571429,NA
29657,Pickens County,SC,93.21428571428572,48.60557768924303
57401,Brown County,SD,40,NA
57770,Shannon County,SD,42.142857142857146,NA
37036,Dickson County,TN,93.92857142857143,NA
37043,Montgomery County,TN,NA,37.84860557768924
37058,Stewart County,TN,NA,90.43824701195219
37122,Wilson County,TN,NA,32.669322709163346
37172,Robertson County,TN,34.285714285714285,NA
37174,Williamson County,TN,NA,76.89243027888446
37206,Davidson County,TN,NA,35.85657370517929
37308,Hamilton County,TN,NA,99.20318725099602
37322,Meigs County,TN,NA,60.1593625498008
37412,Hamilton County,TN,63.21428571428571,NA
37620,Sullivan County,TN,NA,12.749003984063744
37769,Anderson County,TN,73.92857142857143,NA
37849,Knox County,TN,41.07142857142857,40.23904382470119
37861,Grainger County,TN,65.71428571428571,NA
37919,Knox County,TN,64.64285714285715,NA
37922,Knox County,TN,43.214285714285715,NA
38109,Shelby County,TN,NA,11.155378486055776
75041,Dallas County,TX,NA,43.82470119521912
75074,Collin County,TX,NA,54.980079681274894
75110,Navarro County,TX,NA,42.23107569721115
75235,Dallas County,TX,NA,66.13545816733067
75491,Grayson County,TX,96.42857142857143,NA
75605,Gregg County,TX,NA,78.88446215139442
75703,Smith County,TX,NA,35.0597609561753
75949,Angelina County,TX,NA,79.2828685258964
76017,Tarrant County,TX,25.71428571428571,NA
76067,Palo Pinto County,TX,NA,79.6812749003984
76071,Wise County,TX,100,NA
76116,Tarrant County,TX,7.5,NA
76248,Tarrant County,TX,51.42857142857142,NA
76502,Bell County,TX,9.642857142857144,NA
77013,Harris County,TX,97.14285714285714,NA
77040,Harris County,TX,NA,45.0199203187251
77447,Harris County,TX,77.5,NA
77494,Fort Bend County,TX,NA,17.131474103585656
77587,Harris County,TX,NA,78.48605577689243
77802,Brazos County,TX,38.92857142857143,NA
78238,Bexar County,TX,34.64285714285714,NA
78245,Bexar County,TX,1.7857142857142856,NA
78542,Hidalgo County,TX,5,41.43426294820717
78576,Hidalgo County,TX,NA,96.01593625498009
79735,Pecos County,TX,48.214285714285715,NA
79763,Ector County,TX,72.14285714285714,NA
79907,El Paso County,TX,NA,68.12749003984064
84003,Utah County,UT,NA,43.42629482071713
84015,Davis County,UT,NA,22.709163346613543
84066,Duchesne County,UT,33.57142857142857,NA
84096,Salt Lake County,UT,NA,31.07569721115538
84106,Salt Lake County,UT,71.07142857142857,NA
84120,Salt Lake County,UT,74.64285714285714,NA
84321,Cache County,UT,NA,64.9402390438247
84341,Cache County,UT,NA,94.02390438247012
84660,Utah County,UT,63.92857142857142,NA
20148,Loudoun County,VA,NA,57.76892430278885
22030,Fairfax County,VA,NA,34.26294820717131
22151,Fairfax County,VA,74.28571428571429,NA
22152,Fairfax County,VA,57.85714285714286,NA
22182,Fairfax County,VA,NA,64.14342629482071
22203,Arlington County,VA,86.07142857142858,NA
22657,Shenandoah County,VA,47.14285714285714,NA
22903,Charlottesville city,VA,NA,32.27091633466135
22923,Greene County,VA,NA,99.60159362549801
23005,Hanover County,VA,NA,91.63346613545816
23223,Henrico County,VA,15.357142857142858,NA
23456,Virginia Beach city,VA,NA,56.97211155378486
23513,Norfolk city,VA,NA,19.9203187250996
23669,Hampton city,VA,NA,24.701195219123505
23701,Portsmouth city,VA,NA,49.40239043824701
23927,Mecklenburg County,VA,98.21428571428571,NA
24017,Roanoke city,VA,22.857142857142858,NA
24121,Bedford County,VA,NA,88.84462151394422
24210,Washington County,VA,NA,37.45019920318725
98036,Snohomish County,WA,70.35714285714286,NA
98092,King County,WA,35,NA
98155,King County,WA,48.57142857142857,75.2988047808765
98225,Whatcom County,WA,71.42857142857143,NA
98360,Pierce County,WA,NA,72.50996015936255
98366,Kitsap County,WA,55.35714285714286,NA
98367,Kitsap County,WA,NA,51.39442231075697
98375,Pierce County,WA,NA,93.22709163346613
98391,Pierce County,WA,NA,14.342629482071715
98404,Pierce County,WA,20,NA
98407,Pierce County,WA,NA,67.33067729083665
98604,Clark County,WA,76.07142857142857,NA
98683,Clark County,WA,92.5,NA
98942,Yakima County,WA,NA,75.69721115537848
99027,Spokane County,WA,NA,97.21115537848605
99324,Walla Walla County,WA,NA,84.86055776892431
99338,Benton County,WA,33.92857142857143,NA
20016,District of Columbia,DC,NA,70.91633466135458
20019,District of Columbia,DC,NA,5.179282868525896
20024,District of Columbia,DC,86.42857142857143,NA
20032,District of Columbia,DC,6.071428571428571,NA
25661,Mingo County,WV,NA,48.20717131474104
25705,Cabell County,WV,NA,18.326693227091635
26150,Wood County,WV,NA,73.70517928286853
53115,Walworth County,WI,NA,51.79282868525896
53121,Walworth County,WI,35.35714285714286,NA
53143,Kenosha County,WI,NA,52.191235059760956
53188,Waukesha County,WI,NA,25.099601593625497
53402,Racine County,WI,22.5,NA
53533,Iowa County,WI,NA,96.41434262948208
53593,Dane County,WI,81.78571428571428,NA
54001,Polk County,WI,NA,52.98804780876494
54016,St. Croix County,WI,25,NA
54017,St. Croix County,WI,23.214285714285715,NA
54021,Pierce County,WI,NA,94.42231075697211
54110,Calumet County,WI,NA,93.62549800796812
54880,Douglas County,WI,NA,14.741035856573706
54902,Winnebago County,WI,30,NA
54940,Waupaca County,WI,95.71428571428572,NA
